0198821980999992004010100004-01717-045400FM-12+004499999V0200501N003612200019N0040001N1+02761+02441101101ADDAA106000091GF104991031021008001031001KA1240M+03251MA1999999100591MD1999999+0101REMSYN088AAXX  01004 82198 32596 40507 10276 20244 30059 40110 83230 333 10325 29076 55071 58010;EQDQ01  00002PRCP06
0186821980999992004010112004-01717-045400FM-12+004499999V0200701N004610450019N0100001N1+02971+02511101311ADDAA106000091GF106991031021008001061061KA1240N+02611MA1999999100801MD1999999+0141REMSYN076AAXX  01124 82198 32597 60709 10297 20251 30080 40131 83266 333 20261 58014;EQDQ01  00002PRCP06
0167821980999992004010118004-01717-045400FM-12+004499999V0203601N004610450019N0100001N1+03121+02231100951ADDAA106000091GF106991031021008001061041MA1999999100441MD1999999+0131REMSYN070AAXX  01184 82198 32597 63609 10312 20223 30044 40095 83264 333 58013;EQDQ01  00002PRCP06
0198821980999992004010200004-01717-045400FM-12+004499999V0200501N002612200019N0040001N1+02711+02391101171ADDAA106000091GF102991021011008001001001KA1240M+03251MA1999999100661MD1999999+0071REMSYN088AAXX  02004 82198 32596 20505 10271 20239 30066 40117 82100 333 10325 29076 55054 58007;EQDQ01  00002PRCP06
0186821980999992004010212004-01717-045400FM-12+004499999V0203601N005710450019N0100001N1+02901+02461101171ADDAA106000091GF105991031021008001061011KA1240N+02541MA1999999100661MD1999999-0141REMSYN076AAXX  02124 82198 32597 53611 10290 20246 30066 40117 83261 333 20254 59014;EQDQ01  00002PRCP06
0167821980999992004010218004-01717-045400FM-12+004499999V0203601N006712200019N0100001N1+03141+02451100871ADDAA106000091GF104991021021008001011011MA1999999100361MD1999999-0081REMSYN070AAXX  02184 82198 32597 43613 10314 20245 30036 40087 82211 333 59008;EQDQ01  00002PRCP06
0226821980999992004010300004-01717-045400FM-12+004499999V0200501N004112200019N0040001N1+02701+02411101011ADDAA106000091AY111061AY221061GF104991021021004501031091KA1240M+03241MA1999999100501MD1999999-0161MW1131REMSYN094AAXX  03004 82198 31496 40508 10270 20241 30050 40101 71312 82239 333 10324 29078 55090 59016;EQDQ01  00002PRCP06
0186821980999992004010312004-01717-045400FM-12+004499999V0200701N002110450019N0100001N1+02871+02421101091ADDAA106000091GF107991041071008001011001KA1240N+02471MA1999999100581MD1999999-0081REMSYN076AAXX  03124 82198 32597 70704 10287 20242 30058 40109 84710 333 20247 59008;EQDQ01  00002PRCP06
0167821980999992004010318004-01717-045400FM-12+004499999V0203601N002610450019N0100001N1+03241+02391100781ADDAA106000091GF107991031071008001011041MA1999999100271MD1999999-0091REMSYN070AAXX  03184 82198 32597 73605 10324 20239 30027 40078 83714 333 59009;EQDQ01  00002PRCP06
0198821980999992004010400004-01717-045400FM-12+004499999V0200201N003610450019N0040001N1+02731+02411100871ADDAA106000091GF105991031021004501061011KA1240M+03281MA1999999100361MD1999999-0141REMSYN088AAXX  04004 82198 32496 50207 10273 20241 30036 40087 83261 333 10328 29077 55011 59014;EQDQ01  00002PRCP06
0186821980999992004010412004-01717-045400FM-12+004499999V0200501N004110450019N0100001N1+03041+02501100931ADDAA106000091GF106991031021004501031011KA1240N+02591MA1999999100421MD1999999-0161REMSYN076AAXX  04124 82198 32497 60508 10304 20250 30042 40093 83231 333 20259 59016;EQDQ01  00002PRCP06
0198821980999992004010500004-01717-045400FM-12+004499999V0200701N003612200019N0040001N1+02741+02361100801ADDAA106000091GF104991021011004501031041KA1240M+03431MA1999999100291MD1999999-0071REMSYN088AAXX  05004 82198 32496 40707 10274 20236 30029 40080 82134 333 10343 29072 55083 59007;EQDQ01  00002PRCP06
0186821980999992004010512004-01717-045400FM-12+004499999V0200701N003610450019N0100001N1+03101+02561101011ADDAA106000091GF107991041021008001061001KA1240N+02651MA1999999100501MD1999999+0081REMSYN076AAXX  05124 82198 32597 70707 10310 20256 30050 40101 84260 333 20265 58008;EQDQ01  00002PRCP06
0167821980999992004010518004-01717-045400FM-12+004499999V0200501N006210450019N0100001N1+03291+02181100761ADDAA106000091GF106991041021008001061001MA1999999100251MD1999999+0121REMSYN070AAXX  05184 82198 32597 60512 10329 20218 30025 40076 84260 333 58012;EQDQ01  00002PRCP06
0198821980999992004010600004-01717-045400FM-12+004499999V0203601N002612200019N0040001N1+02721+02391100891ADDAA106000091GF103991031021004501001001KA1240M+03351MA1999999100381MD1999999+0091REMSYN088AAXX  06004 82198 32496 33605 10272 20239 30038 40089 83200 333 10335 29073 55093 58009;EQDQ01  00002PRCP06
0186821980999992004010612004-01717-045400FM-12+004499999V0203601N004610450019N0100001N1+02971+02351101071ADDAA106000091GF106991031021008001031001KA1240N+02601MA1999999100561MD1999999+0061REMSYN076AAXX  06124 82198 32597 63609 10297 20235 30056 40107 83230 333 20260 58006;EQDQ01  00002PRCP06
0167821980999992004010618004-01717-045400FM-12+004499999V0200501N005712200019N0100001N1+03301+02241100791ADDAA106000091GF104991041021008001001001MA1999999100281MD1999999+0031REMSYN070AAXX  06184 82198 32597 40511 10330 20224 30028 40079 84200 333 58003;EQDQ01  00002PRCP06
0208821980999992004010700004-01717-045400FM-12+004499999V0200501N003112200019N0040001N1+02701+02391100911ADDAA106000091GA1001+999999999GF100991001001999999001001KA1240M+03371MA1999999100401MD1999999+0021REMSYN082AAXX  07004 82198 32996 00506 10270 20239 30040 40091 333 10337 29072 55079 58002;EQDQ01  00002PRCP06
0186821980999992004010712004-01717-045400FM-12+004499999V0200501N003610075019N0100001N1+03041+02381101051ADDAA106000091GF105991051021008001001001KA1240N+02561MA1999999100541MD1999999-0021REMSYN076AAXX  07124 82198 32597 50507 10304 20238 30054 40105 85200 333 20256 59002;EQDQ01  00002PRCP06
0167821980999992004010718004-01717-045400FM-12+004499999V0200701N005112200019N0100001N1+03251+02251100811ADDAA106000091GF103991031021008001001001MA1999999100301MD1999999+0021REMSYN070AAXX  07184 82198 32597 30710 10325 20225 30030 40081 83200 333 58002;EQDQ01  00002PRCP06
0208821980999992004010800004-01717-045400FM-12+004499999V0200501N002612200019N0040001N1+02721+02391100951ADDAA106000091GA1001+999999999GF100991001001999999001001KA1240M+03291MA1999999100441MD1999999+0041REMSYN082AAXX  08004 82198 32996 00505 10272 20239 30044 40095 333 10329 29072 55093 58004;EQDQ01  00002PRCP06
0155821980999992004010812004-01717-045400FM-12+004499999V0203601N003612200019N0100001N1+02921+99999999999ADDAA106000091GF104991999999008001999999KA1240N+02601REMSYN074AAXX  08124 82198 32597 43607 102920238 30056 40107 84200 333 20260 58002;EQDQ01  00002PRCP06
0167821980999992004010818004-01717-045400FM-12+004499999V0203601N004612200019N0100001N1+03121+02361100821ADDAA106000091GF104991041021008001001001MA1999999100311MD1999999+0011REMSYN070AAXX  08184 82198 32597 43609 10312 20236 30031 40082 84200 333 58001;EQDQ01  00002PRCP06
0186821980999992004010912004-01717-045400FM-12+004499999V0203601N005110075019N0100001N1+02891+02441101091ADDAA106000091GF105991051021008001001001KA1240N+02591MA1999999100581MD1999999+0021REMSYN076AAXX  09124 82198 32597 53610 10289 20244 30058 40109 85200 333 20259 58002;EQDQ01  00002PRCP06
0167821980999992004010918004-01717-045400FM-12+004499999V0200501N006212200019N0100001N1+03091+02421100861ADDAA106000091GF103991031021012501001001MA1999999100351MD1999999+0041REMSYN070AAXX  09184 82198 32697 30512 10309 20242 30035 40086 83200 333 58004;EQDQ01  00002PRCP06
0198821980999992004011000004-01717-045400FM-12+004499999V0200501N004612200019N0040001N1+02781+02441100971ADDAA106000091GF102991021021008001001001KA1240M+03211MA1999999100461MD1999999-0011REMSYN088AAXX  10004 82198 32596 20509 10278 20244 30046 40097 82200 333 10321 29076 55091 59001;EQDQ01  00002PRCP06
0186821980999992004011012004-01717-045400FM-12+004499999V0203601N003610075019N0100001N1+02971+02401101041ADDAA106000091GF105991051021008001001001KA1240N+02591MA1999999100531MD1999999-0051REMSYN076AAXX  10124 82198 32597 53607 10297 20240 30053 40104 85200 333 20259 59005;EQDQ01  00002PRCP06
0167821980999992004011018004-01717-045400FM-12+004499999V0203601N005712200019N0100001N1+03121+02331100741ADDAA106000091GF103991031021012501001001MA1999999100231MD1999999-0121REMSYN070AAXX  10184 82198 32697 33611 10312 20233 30023 40074 83200 333 59012;EQDQ01  00002PRCP06
0179821980999992004011112004-01717-045400FM-12+004499999V0200501N003110450019N0100001N1+02871+02501101141ADDAA124001091GF106991031021012501061011KA1240N+02531MA1999999100631MD1999999+0101REMSYN088AAXX  11124 82198 22697 60506 10287 20250 30063 40114 83261 333 20253 58010 60014 10014;
0167821980999992004011118004-01717-045400FM-12+004499999V0200501N004110450019N0100001N1+03001+02391100881ADDAA106000091GF107991041021012501061001MA1999999100371MD1999999+0141REMSYN070AAXX  11184 82198 32697 70508 10300 20239 30037 40088 84260 333 58014;EQDQ01  00002PRCP06
0198821980999992004011200004-01717-045400FM-12+004499999V0203601N003610450019N0005001N1+02741+02481101141ADDAA106000091GF106991031011012501061001KA1240M+03271MA1999999100631MD1999999+0181REMSYN088AAXX  12004 82198 32693 63607 10274 20248 30063 40114 83160 333 10327 29081 55058 58018;EQDQ01  00002PRCP06
0186821980999992004011212004-01717-045400FM-12+004499999V0200501N003612200019N0100001N1+03001+02461101321ADDAA106000091GF106991041021008001001011KA1240N+02541MA1999999100811MD1999999+0181REMSYN076AAXX  12124 82198 32597 60507 10300 20246 30081 40132 84201 333 20254 58018;EQDQ01  00002PRCP06
0167821980999992004011218004-01717-045400FM-12+004499999V0203601N006212200019N0100001N1+03031+02501100971ADDAA106000091GF105991031021012501001011MA1999999100461MD1999999+0091REMSYN070AAXX  12184 82198 32697 53612 10303 20250 30046 40097 83201 333 58009;EQDQ01  00002PRCP06
0194821980999992004011312004-01717-045400FM-12+004499999V0200501N003610450019N0100001N1+02891+02381101181ADDAY161061AY221061GF106991031021004501061011KA1240N+02541MD1999999-0141MW1021REMSYN088AAXX  13124 82198 21497 60507 10289 20238 33367 40118 70262 83261 333 20254 59014 69924;EQDQ01+033671APOSP 
0167821980999992004011318004-01717-045400FM-12+004499999V0203601N007210450019N0100001N1+03191+02411100871ADDAA106000091GF106991031021008001011011MA1999999100361MD1999999-0101REMSYN070AAXX  13184 82198 32597 63614 10319 20241 30036 40087 83211 333 59010;EQDQ01  00002PRCP06
0208821980999992004011400004-01717-045400FM-12+004499999V0203501N001512200019N0005001N1+02781+02421101121ADDAA106000091GA1001+999999999GF100991001001999999001001KA1240M+03251MA1999999100611MD1999999-0121REMSYN082AAXX  14004 82198 32993 03503 10278 20242 30061 40112 333 10325 29076 55083 59012;EQDQ01  00002PRCP06
0186821980999992004011412004-01717-045400FM-12+004499999V0200501N002610450019N0100001N1+02881+02461101181ADDAA106000091GF107991031021008001061041KA1240N+02571MA1999999100671MD1999999+0001REMSYN076AAXX  14124 82198 32597 70505 10288 20246 30067 40118 83264 333 20257 58000;EQDQ01  00002PRCP06
0171821980999992004011418004-01717-045400FM-12+004499999V0201601N003610450019N0040001N1+02421+02251101051ADDAY191061AY261061GF107991041071004501021001MA1999999100541MD1999999+0181MW1291REMSYN082AAXX  14184 82198 21496 71607 10242 20225 30054 40105 72996 84720 333 58018 60061;
0215821980999992004011500004-01717-045400FM-12+004499999V0200501N004110450019N0005001N1+02391+02371101211ADDAY161061AY261061GF106991021011004501021001KA1240M+02981MA1999999100701MD1999999+0091REMSYN100AAXX  15004 82198 21493 60508 10239 20237 30070 40121 76766 82120 333 10298 29091 55005 58009 60321;EQDQ01+000672PRSWM1
0190821980999992004011512004-01717-045400FM-12+004499999V0201601N001510450019N0100001N1+02521+02431101191ADDAY161061AY221061GF107991041071012501061041KA1240N+02351MA1999999100681MD1999999+0011MW1211REMSYN088AAXX  15124 82198 21697 71603 10252 20243 30068 40119 72162 84764 333 20235 58001 60404;
0171821980999992004011518004-01717-045400FM-12+004499999V0200901N002110450019N0100001N1+02601+02461100881ADDAY161061AY221061GF107991041051004501011061MA1999999100371MD1999999-0171MW1021REMSYN082AAXX  15184 82198 21497 70904 10260 20246 30037 40088 70262 84516 333 59017 69911;
0208821980999992004011600004-01717-045400FM-12+004499999V0200701N002112200019N0005001N1+02591+02501100991ADDAA106000091GA1001+999999999GF100991001001999999001001KA1240M+02741MA1999999100481MD1999999-0221REMSYN082AAXX  16004 82198 32993 00704 10259 20250 30048 40099 333 10274 29094 55000 59022;EQDQ01  00002PRCP06
0162821980999992004011612004-01717-045400FM-12+004499999V0200501N003610450019N0100001N1+02901+02501101011ADDGF106991031021008001061091KA1240N+02491MA1999999100501MD1999999+0021REMSYN082AAXX  16124 82198 22597 60507 10290 20250 30050 40101 83269 333 20249 58002 69914;
0167821980999992004011618004-01717-045400FM-12+004499999V0200701N004110450019N0100001N1+03121+02301100711ADDAA106000091GF105991031021008001061041MA1999999100201MD1999999-0171REMSYN070AAXX  16184 82198 32597 50708 10312 20230 30020 40071 83264 333 59017;EQDQ01  00002PRCP06
0198821980999992004011700004-01717-045400FM-12+004499999V0200501N001512200019N0005001N1+02711+02431100971ADDAA106000091GF103991021011004501061001KA1240M+03161MA1999999100461MD1999999+0021REMSYN088AAXX  17004 82198 32493 30503 10271 20243 30046 40097 82160 333 10316 29078 55078 58002;EQDQ01  00002PRCP06
0190821980999992004011712004-01717-045400FM-12+004499999V0200701N003610450019N0020001N1+02411+02351101211ADDAY161061AY221061GF107991041071012501021001KA1240N+02391MA1999999100701MD1999999+0201MW1621REMSYN088AAXX  17124 82198 21695 70707 10241 20235 30070 40121 76262 84720 333 20239 58020 60194;
0171821980999992004011718004-01717-045400FM-12+004499999V0203601N004110450019N0040001N1+02581+02441100981ADDAY161061AY221061GF107991031031012501021001MA1999999100471MD1999999+0271MW1151REMSYN082AAXX  17184 82198 21696 73608 10258 20244 30047 40098 71562 83320 333 58027 60131;
0202821980999992004011800004-01717-045400FM-12+004499999V0201401N001510450019N0005001N1+02421+02331101271ADDAY161061AY221061GF107991031071012501021001KA1240M+02761MA1999999100761MD1999999+0301MW1601REMSYN100AAXX  18004 82198 21693 71403 10242 20233 30076 40127 76062 83720 333 10276 29094 55000 58030 60031;
0190821980999992004011812004-01717-045400FM-12+004499999V0209999C000010450019N0100001N1+02471+02261101351ADDAY161061AY221061GF107991031031004501011001KA1240N+02311MA1999999100831MD1999999+0131MW1021REMSYN088AAXX  18124 82198 21497 70000 10247 20226 30083 40135 70262 83310 333 20231 58013 60184;
0226821980999992004011900004-01717-045400FM-12+004499999V0203601N001512200019N0005001N1+02551+02421101171ADDAA106000091AY111061AY221061GF104991031021008001061001KA1240M+02881MA1999999100661MD1999999-0101MW1131REMSYN094AAXX  19004 82198 31593 43603 10255 20242 30066 40117 71312 83260 333 10288 29086 55006 59010;EQDQ01  00002PRCP06
0190821980999992004011912004-01717-045400FM-12+004499999V0209999C000010450019N0100001N1+02461+02211101291ADDAY161061AY221061GF107991041031012501011001KA1240N+02321MA1999999100781MD1999999-0051MW1631REMSYN088AAXX  19124 82198 21697 70000 10246 20221 30078 40129 76362 84310 333 20232 59005 60374;
0171821980999992004011918004-01717-045400FM-12+004499999V0200701N003110450019N0100001N1+02671+02311100991ADDAY161061AY221061GF107991041071012501011001MA1999999100481MD1999999-0071MW1021REMSYN082AAXX  19184 82198 21697 70706 10267 20231 30048 40099 70262 84710 333 59007 69931;
0198821980999992004012000004-01717-045400FM-12+004499999V0203501N000512200019N0005001N1+02501+02341101161ADDAA106000091GF104991041021008001001001KA1240M+02761MA1999999100651MD1999999-0011REMSYN088AAXX  20004 82198 32593 43501 10250 20234 30065 40116 84200 333 10276 29088 55007 59001;EQDQ01  00002PRCP06
0190821980999992004012012004-01717-045400FM-12+004499999V0200501N002610075019N0100001N1+02721+02501101171ADDAY161061AY221061GF107991051021008001041001KA1240N+02321MA1999999100661MD1999999-0121MW1021REMSYN088AAXX  20124 82198 21597 70505 10272 20250 30066 40117 70262 85240 333 20232 59012 60164;
0171821980999992004012018004-01717-045400FM-12+004499999V0200501N004610120019N0020001N1+02751+02341100941ADDAY161061AY221061GF108991051071012501021999MA1999999100431MD1999999-0051MW1161REMSYN082AAXX  20184 82198 21695 80509 10275 20234 30043 40094 71662 8572/ 333 59005 60011;
0198821980999992004012100004-01717-045400FM-12+004499999V0200701N002110450019N0005001N1+02601+02421101081ADDAA106000091GF105991031021008001041001KA1240M+03071MA1999999100571MD1999999-0081REMSYN088AAXX  21004 82198 32593 50704 10260 20242 30057 40108 83240 333 10307 29087 55031 59008;EQDQ01  00002PRCP06
0190821980999992004012112004-01717-045400FM-12+004499999V0200901N002612200019N0100001N1+02631+02311101251ADDAY161061AY221061GF104991021021012501031011KA1240N+02301MA1999999100741MD1999999+0081MW1021REMSYN088AAXX  21124 82198 21697 40905 10263 20231 30074 40125 70262 82231 333 20230 58008 60124;
0167821980999992004012118004-01717-045400FM-12+004499999V0203601N004610450019N0100001N1+02861+02371100961ADDAA106000091GF107991041021008001061001MA1999999100451MD1999999+0021REMSYN070AAXX  21184 82198 32597 73609 10286 20237 30045 40096 84260 333 58002;EQDQ01  00002PRCP06
0198821980999992004012200004-01717-045400FM-12+004499999V0200701N001510450019N0005001N1+02551+02441101151ADDAA106000091GF107991041071012501041001KA1240M+03071MA1999999100641MD1999999+0071REMSYN088AAXX  22004 82198 32693 70703 10255 20244 30064 40115 84740 333 10307 29086 55040 58007;EQDQ01  00002PRCP06
0190821980999992004012212004-01717-045400FM-12+004499999V0203601N004110120019N0100001N1+02561+02381101131ADDAY161061AY251061GF107991051031012501041001KA1240N+02391MA1999999100621MD1999999-0121MW1021REMSYN088AAXX  22124 82198 21697 73608 10256 20238 30062 40113 70265 85340 333 20239 59012 60024;
0202821980999992004012300004-01717-045400FM-12+004499999V0200501N002110120019N0005001N1+02561+02421100981ADDAY161061AY221061GF108991051071012501021999KA1240M+02911MA1999999100471MD1999999-0171MW1021REMSYN100AAXX  23004 82198 21693 80504 10256 20242 30047 40098 70262 8572/ 333 10291 29089 55012 59017 60021;
0190821980999992004012312004-01717-045400FM-12+004499999V0203501N002610450019N0020001N1+02401+02331101121ADDAY161061AY251061GF108991041051012501021999KA1240N+02291MA1999999100611MD1999999-0011MW1161REMSYN088AAXX  23124 82198 21695 83505 10240 20233 30061 40112 71665 8452/ 333 20229 59001 60554;
0171821980999992004012318004-01717-045400FM-12+004499999V0200201N002110120019N0100001N1+02441+02341100951ADDAY161061AY221061GF108991061051012501021999MA1999999100441MD1999999+0151MW1021REMSYN082AAXX  23184 82198 21697 80204 10244 20234 30044 40095 70262 8652/ 333 58015 60031;
0202821980999992004012400004-01717-045400FM-12+004499999V0203501N002610120019N0005001N1+02371+02291101231ADDAY161061AY221061GF107991051071012501041001KA1240M+02721MA1999999100711MD1999999+0211MW1021REMSYN100AAXX  24004 82198 21693 73505 10237 20229 30071 40123 70262 85740 333 10272 29095 55000 58021 60021;
0162821980999992004012412004-01717-045400FM-12+004499999V0202501N002110120019N0100001N1+02481+02281101341ADDGF107991051071012501041001KA1240N+02251MA1999999100831MD1999999+0221REMSYN082AAXX  24124 82198 22697 72504 10248 20228 30083 40134 85740 333 20225 58022 60054;
0167821980999992004012418004-01717-045400FM-12+004499999V0203201N004110120019N0100001N1+02641+02311101111ADDAA106000091GF107991051021012501041001MA1999999100601MD1999999+0161REMSYN070AAXX  24184 82198 32697 73208 10264 20231 30060 40111 85240 333 58016;EQDQ01  00002PRCP06
0198821980999992004012500004-01717-045400FM-12+004499999V0203201N001010450019N0005001N1+02431+02251101221ADDAA106000091GF107991041071012501041001KA1240M+02751MA1999999100711MD1999999+0001REMSYN088AAXX  25004 82198 32693 73202 10243 20225 30071 40122 84740 333 10275 29088 55000 58000;EQDQ01  00002PRCP06
0190821980999992004012512004-01717-045400FM-12+004499999V0201401N002110450019N0100001N1+02501+02411101321ADDAY161061AY251061GF108991031051008001021999KA1240N+02301MA1999999100811MD1999999-0021MW1021REMSYN088AAXX  25124 82198 21597 81404 10250 20241 30081 40132 70265 8352/ 333 20230 59002 60014;
0167821980999992004012518004-01717-045400FM-12+004499999V0203601N004110450019N0100001N1+02901+02341100981ADDAA106000091GF106991031021012501061001MA1999999100471MD1999999-0131REMSYN070AAXX  25184 82198 32697 63608 10290 20234 30047 40098 83260 333 59013;EQDQ01  00002PRCP06
0198821980999992004012600004-01717-045400FM-12+004499999V0203501N002112200019N0005001N1+02581+02351101111ADDAA106000091GF103991021011012501061001KA1240M+02971MA1999999100601MD1999999-0111REMSYN088AAXX  26004 82198 32693 33504 10258 20235 30060 40111 82160 333 10297 29085 55019 59011;EQDQ01  00002PRCP06
0190821980999992004012612004-01717-045400FM-12+004499999V0203601N001510450019N0100001N1+02741+02401101241ADDAY161061AY211061GF105991041021008001061001KA1240N+02321MA1999999100731MD1999999-0081MW1031REMSYN088AAXX  26124 82198 21597 53603 10274 20240 30073 40124 70361 84260 333 20232 59008 69934;
0171821980999992004012618004-01717-045400FM-12+004499999V0203601N003610450019N0100001N1+02761+02381100961ADDAY161061AY221061GF105991031021008001061001MA1999999100451MD1999999-0021MW1021REMSYN082AAXX  26184 82198 21597 53607 10276 20238 30045 40096 70262 83260 333 59002 60211;
0198821980999992004012700004-01717-045400FM-12+004499999V0203501N003110450019N0005001N1+02451+02321101211ADDAA106000091GF106991031071012501061001KA1240M+03081MA1999999100701MD1999999+0101REMSYN088AAXX  27004 82198 32693 63506 10245 20232 30070 40121 83760 333 10308 29087 55055 58010;EQDQ01  00002PRCP06
0162821980999992004012712004-01717-045400FM-12+004499999V0201601N000510450019N0100001N1+02601+02421101411ADDGF107991041051012501011001KA1240N+02351MA1999999100891MD1999999+0161REMSYN082AAXX  27124 82198 22697 71601 10260 20242 30089 40141 84510 333 20235 58016 60214;
0167821980999992004012718004-01717-045400FM-12+004499999V0200501N003110450019N0100001N1+02841+02401101091ADDAA106000091GF107991041071012501011001MA1999999100581MD1999999+0131REMSYN070AAXX  27184 82198 32697 70506 10284 20240 30058 40109 84710 333 58013;EQDQ01  00002PRCP06
0202821980999992004012800004-01717-045400FM-12+004499999V0200501N002610450019N0005001N1+02541+02451101231ADDAY161061AY221061GF105991031071012501061001KA1240M+02861MA1999999100721MD1999999+0021MW1011REMSYN100AAXX  28004 82198 21693 50505 10254 20245 30072 40123 70162 83760 333 10286 29089 55000 58002 69981;
0181821980999992004012812004-01717-045400FM-12+004499999V0203501N001012200019N0100001N1+02601+02501101331ADDGF103991999071008001061041KA1240N+02461MA1999999100811MD1999999-0081REMSYN082AAXX  28124 82198 22597 33502 10260 20250 30081 40133 84764 333 20246 59008 69984;EQDQ01+000042SCOTLC
0171821980999992004012818004-01717-045400FM-12+004499999V0203601N004610450019N0100001N1+02771+02541101071ADDAY161061AY221061GF107991041071012501061001MA1999999100561MD1999999-0021MW1021REMSYN082AAXX  28184 82198 21697 73609 10277 20254 30056 40107 70262 84760 333 59002 60081;
0202821980999992004012900004-01717-045400FM-12+004499999V0203201N002610450019N0005001N1+02251+02151101291ADDAY161061AY221061GF107991041071012501021001KA1240M+02781MA1999999100781MD1999999+0061MW1631REMSYN100AAXX  29004 82198 21693 73205 10225 20215 30078 40129 76362 84720 333 10278 29094 55001 58006 60221;
0190821980999992004012912004-01717-045400FM-12+004499999V0203601N002110450019N0040001N1+02361+02221101341ADDAY161061AY221061GF107991041071012501021001KA1240N+02201MA1999999100821MD1999999+0011MW1151REMSYN088AAXX  29124 82198 21696 73604 10236 20222 30082 40134 71562 84720 333 20220 58001 60694;
0171821980999992004012918004-01717-045400FM-12+004499999V0203501N004110450019N0100001N1+02811+02311101021ADDAY161061AY221061GF106991031071012501011011MA1999999100511MD1999999-0051MW1021REMSYN082AAXX  29184 82198 21697 63508 10281 20231 30051 40102 70262 83711 333 59005 69981;
0198821980999992004013000004-01717-045400FM-12+004499999V0200501N002610450019N0040001N1+02591+02441101211ADDAA106000091GF106991031021008001011041KA1240M+02871MA1999999100701MD1999999-0081REMSYN088AAXX  30004 82198 32596 60505 10259 20244 30070 40121 83214 333 10287 29088 55008 59008;EQDQ01  00002PRCP06
0190821980999992004013012004-01717-045400FM-12+004499999V0200501N002610450019N0100001N1+02721+02451101201ADDAY161061AY221061GF106991031071012501031011KA1240N+02341MA1999999100691MD1999999-0131MW1021REMSYN088AAXX  30124 82198 21697 60505 10272 20245 30069 40120 70262 83731 333 20234 59013 60024;
0171821980999992004013018004-01717-045400FM-12+004499999V0200901N000510450019N0100001N1+02551+02481100991ADDAY161061AY221061GF107991041071012501061001MA1999999100481MD1999999-0031MW1631REMSYN082AAXX  30184 82198 21697 70901 10255 20248 30048 40099 76362 84760 333 59003 60111;
0202821980999992004013100004-01717-045400FM-12+004499999V0202501N001010450019N0040001N1+02441+02351101201ADDAY161061AY241061GF106991031021012501011041KA1240M+02921MA1999999100691MD1999999-0011MW1211REMSYN100AAXX  31004 82198 21696 62502 10244 20235 30069 40120 72164 83214 333 10292 29092 55011 59001 60111;
0202821980999992004020100004-01717-045400FM-12+004499999V0200701N001510450019N0040001N1+02401+02211101221ADDAY161061AY211061GF105991031021008001041041KA1240M+02481MA1999999100711MD1999999+0021MW1131REMSYN100AAXX  01004 82198 21596 50703 10240 20221 30071 40122 71361 83244 333 10248 29092 55000 58002 69981;
0162821980999992004020112004-01717-045400FM-12+004499999V0200901N004110450019N0100001N1+02891+02521101331ADDGF106991031021008001041041KA1240N+02351MA1999999100811MD1999999-0031REMSYN082AAXX  01124 82198 22597 60908 10289 20252 30081 40133 83244 333 20235 59003 60144;
0171821980999992004020118004-01717-045400FM-12+004499999V0200501N002110450019N0100001N1+02961+02351101041ADDAY161061AY221061GF106991031071008001061011MA1999999100531MD1999999-0101MW1021REMSYN082AAXX  01184 82198 21597 60504 10296 20235 30053 40104 70262 83761 333 59010 60011;
0202821980999992004020200004-01717-045400FM-12+004499999V0203501N002612200019N0040001N1+02441+02341101211ADDAY161061AY211061GF104991021011012501031011KA1240M+03081MA1999999100701MD1999999-0011MW1011REMSYN100AAXX  02004 82198 21696 43505 10244 20234 30070 40121 70161 82131 333 10308 29086 55072 59001 60041;
0190821980999992004020212004-01717-045400FM-12+004499999V0202701N001010450019N0040001N1+02621+02401101301ADDAY141061AY251061GF107991041071012501061001KA1240N+02271MA1999999100791MD1999999-0021MW1421REMSYN088AAXX  02124 82198 21696 72702 10262 20240 30079 40130 74245 84760 333 20227 59002 60064;
0167821980999992004020218004-01717-045400FM-12+004499999V0203501N004610450019N0100001N1+02781+02401101001ADDAA106000091GF107991031051012501011011MA1999999100491MD1999999-0041REMSYN070AAXX  02184 82198 32697 73509 10278 20240 30049 40100 83511 333 59004;EQDQ01  00002PRCP06
0198821980999992004020300004-01717-045400FM-12+004499999V0200901N002611050019N0040001N1+02581+02441101101ADDAA106000091GF105991021021008001031011KA1240M+02881MA1999999100591MD1999999-0111REMSYN088AAXX  03004 82198 32596 50905 10258 20244 30059 40110 82231 333 10288 29088 55006 59011;EQDQ01  00002PRCP06
0162821980999992004020312004-01717-045400FM-12+004499999V0200701N002610450019N0100001N1+02841+02401101111ADDGF106991041021012501061021KA1240N+02331MA1999999100601MD1999999-0191REMSYN082AAXX  03124 82198 22697 60705 10284 20240 30060 40111 84262 333 20233 59019 69934;
0171821980999992004020318004-01717-045400FM-12+004499999V0200501N001510120019N0040001N1+02471+02391100851ADDAY161061AY221061GF108991051071012501041999MA1999999100341MD1999999-0151MW1151REMSYN082AAXX  03184 82198 21696 80503 10247 20239 30034 40085 71562 8574/ 333 59015 60371;
0202821980999992004020400004-01717-045400FM-12+004499999V0200901N001510120019N0005001N1+02441+02351101081ADDAY161061AY221061GF108991061051012501041999KA1240M+02981MA1999999100571MD1999999-0021MW1021REMSYN100AAXX  04004 82198 21693 80903 10244 20235 30057 40108 70262 8654/ 333 10298 29091 55030 59002 60101;
0190821980999992004020412004-01717-045400FM-12+004499999V0203601N002610120019N0040001N1+02591+02421101211ADDAY161061AY251061GF107991051031012501061001KA1240N+02321MA1999999100701MD1999999-0101MW1021REMSYN088AAXX  04124 82198 21696 73605 10259 20242 30070 40121 70265 85360 333 20232 59010 60624;
0171821980999992004020418004-01717-045400FM-12+004499999V0200501N001510120019N0040001N1+02351+02221101021ADDAY161061AY221061GF108991061051012501021999MA1999999100511MD1999999+0171MW1631REMSYN082AAXX  04184 82198 21696 80503 10235 20222 30051 40102 76362 8652/ 333 58017 60421;
0202821980999992004020500004-01717-045400FM-12+004499999V0202901N001010120019N0005001N1+02341+02271101181ADDAY161061AY221061GF107991051071012501061001KA1240M+02641MA1999999100671MD1999999+0101MW1021REMSYN100AAXX  05004 82198 21693 72902 10234 20227 30067 40118 70262 85760 333 10264 29094 55000 58010 69941;
0190821980999992004020512004-01717-045400FM-12+004499999V0201801N001510450019N0100001N1+02501+02261101241ADDAY161061AY221061GF107991041011008001061001KA1240N+02231MA1999999100731MD1999999+0031MW1021REMSYN088AAXX  05124 82198 21597 71803 10250 20226 30073 40124 70262 84160 333 20223 58003 60584;
0171821980999992004020518004-01717-045400FM-12+004499999V0200501N002610075019N0040001N1+02651+02391100911ADDAY161061AY221061GF107991051071008001041001MA1999999100401MD1999999-0111MW1161REMSYN082AAXX  05184 82198 21596 70505 10265 20239 30040 40091 71662 85740 333 59011 60051;
0202821980999992004020600004-01717-045400FM-12+004499999V0203501N001510450019N0040001N1+02481+02381101111ADDAY161061AY221061GF106991031021012501061001KA1240M+02781MA1999999100601MD1999999-0071MW1021REMSYN100AAXX  06004 82198 21696 63503 10248 20238 30060 40111 70262 83260 333 10278 29092 55010 59007 69981;
0190821980999992004020612004-01717-045400FM-12+004499999V0201401N001510120019N0100001N1+02371+02261101151ADDAY161061AY221061GF108991051071012501011999KA1240N+02231MA1999999100641MD1999999-0091MW1211REMSYN088AAXX  06124 82198 21697 81403 10237 20226 30064 40115 72162 8571/ 333 20223 59009 60334;
0148821980999992004020618004-01717-045400FM-12+004499999V0200501N003610450019N0100001N1+03041+02361100761ADDAA106000021GF105991031021012501061001MA1999999100251MD1999999-0151REMSYN070AAXX  06184 82198 32697 50507 10304 20236 30025 40076 83260 333 59015;
0198821980999992004020700004-01717-045400FM-12+004499999V0201601N003110450019N0005001N1+02571+02331101011ADDAA106000091GF107991041071012501061001KA1240M+03111MA1999999100501MD1999999-0101REMSYN088AAXX  07004 82198 32693 71606 10257 20233 30050 40101 84760 333 10311 29083 55027 59010;EQDQ01  00002PRCP06
0190821980999992004020712004-01717-045400FM-12+004499999V0200201N002610075019N0040001N1+02471+02381101141ADDAY161061AY251061GF107991051071008001031001KA1240N+02241MA1999999100631MD1999999-0011MW1211REMSYN088AAXX  07124 82198 21596 70205 10247 20238 30063 40114 72165 85730 333 20224 59001 60484;
0171821980999992004020718004-01717-045400FM-12+004499999V0200201N003610120019N0040001N1+02391+02281100971ADDAY161061AY221061GF108991051051012501021999MA1999999100461MD1999999+0211MW1631REMSYN082AAXX  07184 82198 21696 80207 10239 20228 30046 40097 76362 8552/ 333 58021 60081;
0202821980999992004020800004-01717-045400FM-12+004499999V0203501N001510120019N0005001N1+02421+02281101131ADDAY161061AY221061GF108991051071012501021999KA1240M+02891MA1999999100631MD1999999+0121MW1021REMSYN100AAXX  08004 82198 21693 83503 10242 20228 30063 40113 70262 8572/ 333 10289 29093 55003 58012 69951;
0190821980999992004020812004-01717-045400FM-12+004499999V0200701N002610450019N0100001N1+02581+02371101291ADDAY151061AY221061GF107991031011008001061001KA1240N+02301MA1999999100781MD1999999+0151MW1021REMSYN088AAXX  08124 82198 21597 70705 10258 20237 30078 40129 70252 83160 333 20230 58015 60094;
0171821980999992004020818004-01717-045400FM-12+004499999V0200501N005710450019N0040001N1+02601+02351101081ADDAY161061AY221061GF108991041051012501021999MA1999999100571MD1999999+0111MW1211REMSYN082AAXX  08184 82198 21696 80511 10260 20235 30057 40108 72162 8452/ 333 58011 60081;
0179821980999992004020900004-01717-045400FM-12+004499999V0200701N002110075019N0005001N1+02501+02361101241ADDAA106000021GF108991051051008001041999KA1240M+02901MA1999999100731MD1999999+0111REMSYN088AAXX  09004 82198 32593 80704 10250 20236 30073 40124 8554/ 333 10290 29090 55008 58011;
0190821980999992004020912004-01717-045400FM-12+004499999V0201101N000510450019N0100001N1+02451+02261101441ADDAY161061AY221061GF107991031071012501061001KA1240N+02251MA1999999100931MD1999999+0151MW1021REMSYN088AAXX  09124 82198 21697 71101 10245 20226 30093 40144 70262 83760 333 20225 58015 60404;
0167821980999992004020918004-01717-045400FM-12+004499999V0200201N002610450019N0100001N1+03081+02291101041ADDAA106000091GF106991031021012501061001MA1999999100531MD1999999-0041REMSYN070AAXX  09184 82198 32697 60205 10308 20229 30053 40104 83260 333 59004;EQDQ01  00002PRCP06
0198821980999992004021000004-01717-045400FM-12+004499999V0200501N002610450019N0005001N1+02591+02351101221ADDAA106000091GF106991041021012501061001KA1240M+03161MA1999999100711MD1999999-0021REMSYN088AAXX  10004 82198 32693 60505 10259 20235 30071 40122 84260 333 10316 29081 55031 59002;EQDQ01  00002PRCP06
0186821980999992004021012004-01717-045400FM-12+004499999V0200501N003110450019N0100001N1+02861+02421101221ADDAA106000091GF106991041021008001061001KA1240N+02381MA1999999100711MD1999999-0221REMSYN076AAXX  10124 82198 32597 60506 10286 20242 30071 40122 84260 333 20238 59022;EQDQ01  00002PRCP06
0167821980999992004021018004-01717-045400FM-12+004499999V0203601N005710075019N0100001N1+02961+02261100891ADDAA106000091GF105991051021008001001001MA1999999100381MD1999999-0151REMSYN070AAXX  10184 82198 32597 53611 10296 20226 30038 40089 85200 333 59015;EQDQ01  00002PRCP06
0208821980999992004021100004-01717-045400FM-12+004499999V0200501N002612200019N0040001N1+02641+02391101121ADDAA106000091GA1001+999999999GF100991001001999999001001KA1240M+03121MA1999999100611MD1999999-0101REMSYN082AAXX  11004 82198 32996 00505 10264 20239 30061 40112 333 10312 29078 55099 59010;EQDQ01  00002PRCP06
0186821980999992004021112004-01717-045400FM-12+004499999V0200501N002610450019N0100001N1+02771+02541101181ADDAA106000091GF106991031021008001061011KA1240N+02481MA1999999100671MD1999999-0041REMSYN076AAXX  11124 82198 32597 60505 10277 20254 30067 40118 83261 333 20248 59004;EQDQ01  00002PRCP06
0171821980999992004021118004-01717-045400FM-12+004499999V0203601N006210450019N0100001N1+02911+02411100921ADDAY161061AY221061GF106991031021008001011061MA1999999100411MD1999999+0031MW1021REMSYN082AAXX  11184 82198 21597 63612 10291 20241 30041 40092 70262 83216 333 58003 60071;
0226821980999992004021200004-01717-045400FM-12+004499999V0200501N004112200019N0005001N1+02661+02371101131ADDAA106000091AY111061AY211061GF104991021021012501061001KA1240M+02961MA1999999100621MD1999999+0011MW1131REMSYN094AAXX  12004 82198 31693 40508 10266 20237 30062 40113 71311 82260 333 10296 29082 55050 58001;EQDQ01  00002PRCP06
0162821980999992004021212004-01717-045400FM-12+004499999V0200501N003110450019N0100001N1+02851+02361101251ADDGF106991031021008001061011KA1240N+02511MA1999999100741MD1999999+0071REMSYN082AAXX  12124 82198 22597 60506 10285 20236 30074 40125 83261 333 20251 58007 60074;
0171821980999992004021218004-01717-045400FM-12+004499999V0203601N001510450019N0040001N1+02791+02501101071ADDAY161061AY221061GF107991041051008001021001MA1999999100561MD1999999+0151MW1611REMSYN082AAXX  12184 82198 21596 73603 10279 20250 30056 40107 76162 84520 333 58015 69981;
0189821980999992004021300004-01717-045400FM-12+004499999V0200701N002612200019N0005001N1+02601+02371101171ADDAA106000021GA1001+999999999GF100991001001999999001001KA1240M+03161MA1999999100661MD1999999+0041REMSYN082AAXX  13004 82198 32993 00705 10260 20237 30066 40117 333 10316 29084 55058 58004;
0190821980999992004021312004-01717-045400FM-12+004499999V0200701N004110450019N0100001N1+02871+02461101291ADDAY161061AY211061GF106991031021008001061011KA1240N+02361MA1999999100781MD1999999+0041MW1031REMSYN088AAXX  13124 82198 21597 60708 10287 20246 30078 40129 70361 83261 333 20236 58004 60024;
0171821980999992004021318004-01717-045400FM-12+004499999V0203601N005110450019N0100001N1+02811+02481100911ADDAY161061AY221061GF106991031021008001061011MA1999999100401MD1999999-0161MW1151REMSYN082AAXX  13184 82198 21597 63610 10281 20248 30040 40091 71562 83261 333 59016 60011;
0236821980999992004021400004-01717-045400FM-12+004499999V0200501N001512200019N0005001N1+02641+02421101201ADDAA106000091AY101061AY211061GA1001+999999999GF100991001001999999001001KA1240M+03031MA1999999100691MD1999999+0031MW1131REMSYN088AAXX  14004 82198 31993 00503 10264 20242 30069 40120 71301 333 10303 29085 55072 58003;EQDQ01  00002PRCP06
0190821980999992004021412004-01717-045400FM-12+004499999V0201101N001510075019N0100001N1+02751+02581101241ADDAY161061AY221061GF107991051071008001021001KA1240N+02411MA1999999100731MD1999999-0051MW1151REMSYN088AAXX  14124 82198 21597 71103 10275 20258 30073 40124 71562 85720 333 20241 59005 60014;
0171821980999992004021418004-01717-045400FM-12+004499999V0200701N001010450019N0100001N1+02371+02301101031ADDAY161061AY221061GF107991041071012501021999MA1999999100521MD1999999+0121MW1531REMSYN082AAXX  14184 82198 21697 70702 10237 20230 30052 40103 75362 8472/ 333 58012 60401;
0202821980999992004021500004-01717-045400FM-12+004499999V0202701N001510450019N0005001N1+02401+02371101221ADDAY161061AY221061GF106991031071012501021001KA1240M+02761MA1999999100711MD1999999+0021MW1611REMSYN100AAXX  15004 82198 21693 62703 10240 20237 30071 40122 76162 83720 333 10276 29094 55004 58002 60011;
0190821980999992004021512004-01717-045400FM-12+004499999V0200501N002610450019N0040001N1+02371+02311101361ADDAY161061AY221061GF107991041071012501021001KA1240N+02301MA1999999100841MD1999999+0111MW1631REMSYN088AAXX  15124 82198 21696 70505 10237 20231 30084 40136 76362 84720 333 20230 58011 60774;
0171821980999992004021518004-01717-045400FM-12+004499999V0203601N004110450019N0100001N1+02941+02361100991ADDAY161061AY221061GF106991041051008001061061MA1999999100481MD1999999+0041MW1021REMSYN082AAXX  15184 82198 21597 63608 10294 20236 30048 40099 70262 84566 333 58004 60011;
0208821980999992004021600004-01717-045400FM-12+004499999V0200501N003112200019N0005001N1+02551+02441101171ADDAA106000091GA1001+999999999GF100991001001999999001001KA1240M+02981MA1999999100661MD1999999-0061REMSYN082AAXX  16004 82198 32993 00506 10255 20244 30066 40117 333 10298 29087 55047 59006;EQDQ01  00002PRCP06
0162821980999992004021612004-01717-045400FM-12+004499999V0202301N001010450019N0100001N1+02641+02441101341ADDGF107991031031012501011061KA1240N+02361MA1999999100821MD1999999-0021REMSYN082AAXX  16124 82198 22697 72302 10264 20244 30082 40134 83316 333 20236 59002 60014;
0171821980999992004021618004-01717-045400FM-12+004499999V0200501N003110450019N0100001N1+02491+02351101051ADDAY161061AY221061GF107991041071012501021001MA1999999100541MD1999999+0061MW1611REMSYN082AAXX  16184 82198 21697 70506 10249 20235 30054 40105 76162 84720 333 58006 60391;
0162821980999992004021712004-01717-045400FM-12+004499999V0200701N002610450019N0100001N1+02721+02521101311ADDGF105991031021012501061001KA1240N+02301MA1999999100801MD1999999-0021REMSYN082AAXX  17124 82198 22697 50705 10272 20252 30080 40131 83260 333 20230 59002 60464;
0171821980999992004021718004-01717-045400FM-12+004499999V0203601N005710450019N0100001N1+02901+02391101001ADDAY161061AY221061GF106991041021012501041001MA1999999100491MD1999999-0011MW1031REMSYN082AAXX  17184 82198 21697 63611 10290 20239 30049 40100 70362 84240 333 59001 60041;
0198821980999992004021800004-01717-045400FM-12+004499999V0200501N002612200019N0005001N1+02641+02461101291ADDAA106000091GF103991031001012501061001KA1240M+03201MA1999999100781MD1999999-0011REMSYN088AAXX  18004 82198 32693 30505 10264 20246 30078 40129 83060 333 10320 29086 55056 59001;EQDQ01  00002PRCP06
0162821980999992004021812004-01717-045400FM-12+004499999V0201401N001510450019N0100001N1+02791+02481101311ADDGF105991031021012501061001KA1240N+02331MA1999999100801MD1999999+0001REMSYN082AAXX  18124 82198 22697 51403 10279 20248 30080 40131 83260 333 20233 58000 60044;
0171821980999992004021818004-01717-045400FM-12+004499999V0200201N002610450019N0040001N1+02431+02331100911ADDAY191061AY261061GF106991031051012501061001MA1999999100401MD1999999-0091MW1621REMSYN082AAXX  18184 82198 21696 60205 10243 20233 30040 40091 76296 83560 333 59009 60271;
0162821980999992004021912004-01717-045400FM-12+004499999V0200501N003110120019N0100001N1+02781+02401101141ADDGF107991051041012501061001KA1240N+02381MA1999999100631MD1999999-0171REMSYN082AAXX  19124 82198 22697 70506 10278 20240 30063 40114 85460 333 20238 59017 60274;
0171821980999992004021918004-01717-045400FM-12+004499999V0203601N005710075019N0040001N1+02831+02401100821ADDAY161061AY221061GF107991051071008001041001MA1999999100311MD1999999-0091MW1211REMSYN082AAXX  19184 82198 21596 73611 10283 20240 30031 40082 72162 85740 333 59009 60011;
0179821980999992004022000004-01717-045400FM-12+004499999V0200201N001010450019N0005001N1+02601+02421101101ADDAA106000021GF106991031051012501041001KA1240M+03011MA1999999100591MD1999999-0041REMSYN088AAXX  20004 82198 32693 60202 10260 20242 30059 40110 83540 333 10301 29084 55035 59004;
0190821980999992004022012004-01717-045400FM-12+004499999V0200501N002110450019N0100001N1+02851+02401101131ADDAY161061AY221061GF106991041021008001061011KA1240N+02391MA1999999100621MD1999999-0011MW1021REMSYN088AAXX  20124 82198 21597 60504 10285 20240 30062 40113 70262 84261 333 20239 59001 60044;
0171821980999992004022018004-01717-045400FM-12+004499999V0200201N002110120019N0040001N1+02661+02441100851ADDAY161061AY221061GF108991051071012501051999MA1999999100341MD1999999+0031MW1161REMSYN082AAXX  20184 82198 21696 80204 10266 20244 30034 40085 71662 8575/ 333 58003 60011;
0198821980999992004022100004-01717-045400FM-12+004499999V0200201N001510450019N0005001N1+02561+02441101041ADDAA106000091GF105991031011008001041001KA1240M+03081MA1999999100531MD1999999-0061REMSYN088AAXX  21004 82198 32593 50203 10256 20244 30053 40104 83140 333 10308 29088 55054 59006;EQDQ01  00002PRCP06
0162821980999992004022112004-01717-045400FM-12+004499999V0200501N002110075019N0100001N1+02821+02481101211ADDGF106991061021008001001001KA1240N+02401MA1999999100701MD1999999+0081REMSYN082AAXX  21124 82198 22597 60504 10282 20248 30070 40121 86200 333 20240 58008 60014;
0171821980999992004022118004-01717-045400FM-12+004499999V0200501N003610075019N0040001N1+02701+02461100941ADDAY161061AY221061GF108991051051008001021999MA1999999100431MD1999999+0091MW1161REMSYN082AAXX  21184 82198 21596 80507 10270 20246 30043 40094 71662 8552/ 333 58009 60051;
0202821980999992004022200004-01717-045400FM-12+004499999V0200501N002110450019N0005001N1+02551+02401101191ADDAY161061AY221061GF106991031051012501021001KA1240M+02971MA1999999100681MD1999999+0151MW1021REMSYN100AAXX  22004 82198 21693 60504 10255 20240 30068 40119 70262 83520 333 10297 29088 55041 58015 60031;
0190821980999992004022212004-01717-045400FM-12+004499999V0200501N005110450019N0100001N1+02701+02451101291ADDAY161061AY221061GF106991041011008001061001KA1240N+02331MA1999999100781MD1999999+0081MW1021REMSYN088AAXX  22124 82198 21597 60510 10270 20245 30078 40129 70262 84160 333 20233 58008 60124;
0171821980999992004022218004-01717-045400FM-12+004499999V0200201N000510120019N0040001N1+02531+02401101031ADDAY161061AY221061GF108991051071012501021999MA1999999100521MD1999999-0091MW1151REMSYN082AAXX  22184 82198 21696 80201 10253 20240 30052 40103 71562 8572/ 333 59009 60191;
0202821980999992004022300004-01717-045400FM-12+004499999V0200501N001510075019N0005001N1+02531+02431101261ADDAY161061AY221061GF108991051051008001021999KA1240M+02961MA1999999100751MD1999999+0061MW1021REMSYN100AAXX  23004 82198 21593 80503 10253 20243 30075 40126 70262 8552/ 333 10296 29092 55007 58006 60041;
0190821980999992004022312004-01717-045400FM-12+004499999V0200901N001510075019N0040001N1+02471+02281101451ADDAY161061AY221061GF108991051071008001041999KA1240N+02321MA1999999100941MD1999999+0161MW1211REMSYN088AAXX  23124 82198 21596 80903 10247 20228 30094 40145 72162 8574/ 333 20232 58016 60544;
0171821980999992004022318004-01717-045400FM-12+004499999V0203601N000510120019N0100001N1+02611+02371101061ADDAY161061AY221061GF108991061051012501011999MA1999999100551MD1999999+0031MW1021REMSYN082AAXX  23184 82198 21697 83601 10261 20237 30055 40106 70262 8651/ 333 58003 60051;
0198821980999992004022400004-01717-045400FM-12+004499999V0203501N001510450019N0005001N1+02501+02401101291ADDAA106000091GF107991041071012501061001KA1240M+02671MA1999999100781MD1999999+0031REMSYN088AAXX  24004 82198 32693 73503 10250 20240 30078 40129 84760 333 10267 29091 55000 58003;EQDQ01  00002PRCP06
0162821980999992004022412004-01717-045400FM-12+004499999V0200501N005110450019N0100001N1+02721+02431101351ADDGF106991031021008001031011KA1240N+02341MA1999999100831MD1999999-0111REMSYN082AAXX  24124 82198 22597 60510 10272 20243 30083 40135 83231 333 20234 59011 60054;
0167821980999992004022418004-01717-045400FM-12+004499999V0200501N002610450019N0100001N1+03171+02481100951ADDAA106000091GF106991031021008001041061MA1999999100441MD1999999-0011REMSYN070AAXX  24184 82198 32597 60505 10317 20248 30044 40095 83246 333 59001;EQDQ01  00002PRCP06
0198821980999992004022500004-01717-045400FM-12+004499999V0200501N002112200019N0005001N1+02641+02421101111ADDAA106000091GF102991011011008001031001KA1240M+03221MA1999999100601MD1999999-0181REMSYN088AAXX  25004 82198 32593 20504 10264 20242 30060 40111 81130 333 10322 29082 55075 59018;EQDQ01  00002PRCP06
0207821980999992004022512004-01717-045400FM-12+004499999V0200501N004110450019N0020001N1+02401+02101101271ADDAA124006091AY161061AY221061GF107991041071012501021001KA1240N+02331MA1999999100761MD1999999-0071MW1621REMSYN094AAXX  25124 82198 21695 70508 10240 20210 30076 40127 76262 84720 333 20233 59007 60064 10056;
0171821980999992004022518004-01717-045400FM-12+004499999V0203501N003610450019N0100001N1+02971+02511100941ADDAY161061AY221061GF106991031021012501041061MA1999999100431MD1999999-0031MW1031REMSYN082AAXX  25184 82198 21697 63507 10297 20251 30043 40094 70362 83246 333 59003 60011;
0198821980999992004022600004-01717-045400FM-12+004499999V0203501N002610450019N0005001N1+02651+02351101171ADDAA106000091GF105991031021012501011001KA1240M+03101MA1999999100661MD1999999+0061REMSYN088AAXX  26004 82198 32693 53505 10265 20235 30066 40117 83210 333 10310 29085 55038 58006;EQDQ01  00002PRCP06
0190821980999992004022612004-01717-045400FM-12+004499999V0201601N002610450019N0100001N1+02421+02351101441ADDAY161061AY221061GF107991031071008001021001KA1240N+02421MA1999999100921MD1999999+0161MW1601REMSYN088AAXX  26124 82198 21597 71605 10242 20235 30092 40144 76062 83720 333 20242 58016 60074;
0171821980999992004022618004-01717-045400FM-12+004499999V0209999C000010450019N0100001N1+02641+02411101211ADDAY161061AY221061GF107991041051012501011011MA1999999100701MD1999999+0271MW1021REMSYN082AAXX  26184 82198 21697 70000 10264 20241 30070 40121 70262 84511 333 58027 60081;
0202821980999992004022700004-01717-045400FM-12+004499999V0201601N001510450019N0005001N1+02501+02411101411ADDAY121061AY221061GF106991031071012501011001KA1240M+02701MA1999999100891MD1999999+0231MW1601REMSYN100AAXX  27004 82198 21693 61603 10250 20241 30089 40141 76022 83710 333 10270 29093 55000 58023 69941;
0190821980999992004022712004-01717-045400FM-12+004499999V0201601N002110450019N0100001N1+02631+02421101431ADDAY161061AY221061GF106991031051012501041041KA1240N+02321MA1999999100911MD1999999-0011MW1211REMSYN088AAXX  27124 82198 21697 61604 10263 20242 30091 40143 72162 83544 333 20232 59001 60084;
0171821980999992004022718004-01717-045400FM-12+004499999V0200201N003110450019N0100001N1+02721+02341101101ADDAY161061AY221061GF107991031051012501011041MA1999999100591MD1999999-0111MW1211REMSYN082AAXX  27184 82198 21697 70206 10272 20234 30059 40110 72162 83514 333 59011 60251;
0190821980999992004022812004-01717-045400FM-12+004499999V0200701N001510450019N0100001N1+02831+02461101181ADDAY111061AY221061GF106991031071008001041041KA1240N+02291MA1999999100671MD1999999-0241MW1151REMSYN088AAXX  28124 82198 21597 60703 10283 20246 30067 40118 71512 83744 333 20229 59024 60254;
0171821980999992004022818004-01717-045400FM-12+004499999V0200701N003610450019N0100001N1+02511+02381100751ADDAY191061AY261061GF107991041071008001021001MA1999999100241MD1999999-0351MW1631REMSYN082AAXX  28184 82198 21597 70707 10251 20238 30024 40075 76396 84720 333 59035 60161;
0171821980999992004022918004-01717-045400FM-12+004499999V0201801N002610450019N0100001N1+02691+02461100841ADDAY161061AY221061GF107991041071008001061011MA1999999100331MD1999999+0091MW1211REMSYN082AAXX  29184 82198 21597 71805 10269 20246 30033 40084 72162 84761 333 58009 60231;
0190821980999992004030112004-01717-045400FM-12+004499999V0200501N001010450019N0100001N1+02531+02321101291ADDAY161061AY221061GF107991041031012501021001KA1240N+02391MA1999999100781MD1999999+0121MW1031REMSYN088AAXX  01124 82198 21697 70502 10253 20232 30078 40129 70362 84320 333 20239 58012 60254;
0167821980999992004030118004-01717-045400FM-12+004499999V0200501N002610450019N0100001N1+02731+02451101071ADDAA106000091GF107991041071012501061001MA1999999100561MD1999999+0231REMSYN070AAXX  01184 82198 32697 70505 10273 20245 30056 40107 84760 333 58023;EQDQ01  00002PRCP06
0198821980999992004030200004-01717-045400FM-12+004499999V0200201N001010450019N0040001N1+02541+02451101201ADDAA106000091GF105991031021008001031011KA1240M+02861MA1999999100691MD1999999+0021REMSYN088AAXX  02004 82198 32596 50202 10254 20245 30069 40120 83231 333 10286 29092 55014 58002;EQDQ01  00002PRCP06
0186821980999992004030212004-01717-045400FM-12+004499999V0200501N003112200019N0100001N1+02831+02381101241ADDAA106000091GF106991041011008001001011KA1240N+02351MA1999999100731MD1999999-0051REMSYN076AAXX  02124 82198 32597 60506 10283 20238 30073 40124 84101 333 20235 59005;EQDQ01  00002PRCP06
0167821980999992004030218004-01717-045400FM-12+004499999V0200501N004112200019N0100001N1+03061+02351100991ADDAA106000091GF104991021021008001061001MA1999999100481MD1999999-0081REMSYN070AAXX  02184 82198 32597 40508 10306 20235 30048 40099 82260 333 59008;EQDQ01  00002PRCP06
0198821980999992004030300004-01717-045400FM-12+004499999V0203601N002612200019N0040001N1+02581+02381101131ADDAA106000091GF102991021011008001001001KA1240M+03131MA1999999100621MD1999999-0071REMSYN088AAXX  03004 82198 32596 23605 10258 20238 30062 40113 82100 333 10313 29080 55101 59007;EQDQ01  00002PRCP06
0186821980999992004030312004-01717-045400FM-12+004499999V0200201N003610120019N0100001N1+02861+02351101271ADDAA106000091GF105991051021012501001001KA1240N+02321MA1999999100761MD1999999+0031REMSYN076AAXX  03124 82198 32697 50207 10286 20235 30076 40127 85200 333 20232 58003;EQDQ01  00002PRCP06
0167821980999992004030318004-01717-045400FM-12+004499999V0200201N004112200019N0100001N1+03001+02391100891ADDAA106000091GF104991041021012501001001MA1999999100381MD1999999-0101REMSYN070AAXX  03184 82198 32697 40208 10300 20239 30038 40089 84200 333 59010;EQDQ01  00002PRCP06
0198821980999992004030400004-01717-045400FM-12+004499999V0200201N002112200019N0040001N1+02681+02461101041ADDAA106000091GF104991041021008001001001KA1240M+03211MA1999999100531MD1999999-0091REMSYN088AAXX  04004 82198 32596 40204 10268 20246 30053 40104 84200 333 10321 29080 55092 59009;EQDQ01  00002PRCP06
0186821980999992004030412004-01717-045400FM-12+004499999V0200501N004610120019N0100001N1+02851+02381101211ADDAA106000091GF105991051021012501001001KA1240N+02421MA1999999100701MD1999999-0061REMSYN076AAXX  04124 82198 32697 50509 10285 20238 30070 40121 85200 333 20242 59006;EQDQ01  00002PRCP06
0167821980999992004030418004-01717-045400FM-12+004499999V0200201N005712200019N0100001N1+02991+02421100871ADDAA106000091GF105991031021012501001011MA1999999100361MD1999999-0021REMSYN070AAXX  04184 82198 32697 50211 10299 20242 30036 40087 83201 333 59002;EQDQ01  00002PRCP06
0198821980999992004030500004-01717-045400FM-12+004499999V0200501N003612200019N0040001N1+02681+02431101121ADDAA106000091GF103991031011008001001001KA1240M+03161MA1999999100611MD1999999+0081REMSYN088AAXX  05004 82198 32596 30507 10268 20243 30061 40112 83100 333 10316 29080 55085 58008;EQDQ01  00002PRCP06
0186821980999992004030512004-01717-045400FM-12+004499999V0200501N004112200019N0100001N1+02871+02541101251ADDAA106000091GF106991041021012501001011KA1240N+02441MA1999999100741MD1999999+0041REMSYN076AAXX  05124 82198 32697 60508 10287 20254 30074 40125 84201 333 20244 58004;EQDQ01  00002PRCP06
0171821980999992004030518004-01717-045400FM-12+004499999V0200201N004610075019N0040001N1+02781+02461100951ADDAY161061AY221061GF107991051031008001041001MA1999999100441MD1999999+0081MW1151REMSYN082AAXX  05184 82198 21596 70209 10278 20246 30044 40095 71562 85340 333 58008 69941;
0202821980999992004030600004-01717-045400FM-12+004499999V0200501N003610120019N0005001N1+02561+02361101211ADDAY161061AY221061GF107991051051012501041001KA1240M+03051MA1999999100701MD1999999+0091MW1211REMSYN100AAXX  06004 82198 21693 70507 10256 20236 30070 40121 72162 85540 333 10305 29086 55049 58009 60011;
0190821980999992004030612004-01717-045400FM-12+004499999V0200501N004112200019N0100001N1+02861+02421101271ADDAY161061AY221061GF106991031021012501001011KA1240N+02421MA1999999100761MD1999999+0021MW1021REMSYN088AAXX  06124 82198 21697 60508 10286 20242 30076 40127 70262 83201 333 20242 58002 60024;
0167821980999992004030618004-01717-045400FM-12+004499999V0200201N005110450019N0100001N1+02941+02361100901ADDAA106000091GF107991031021012501041011MA1999999100391MD1999999-0051REMSYN070AAXX  06184 82198 32697 70210 10294 20236 30039 40090 83241 333 59005;EQDQ01  00002PRCP06
0198821980999992004030700004-01717-045400FM-12+004499999V0203501N001510450019N0040001N1+02641+02481101231ADDAA106000091GF106991031021012501061011KA1240M+03021MA1999999100721MD1999999+0021REMSYN088AAXX  07004 82198 32696 63503 10264 20248 30072 40123 83261 333 10302 29082 55027 58002;EQDQ01  00002PRCP06
0190821980999992004030712004-01717-045400FM-12+004499999V0203601N001510075019N0040001N1+02431+02351101371ADDAY161061AY221061GF108991051071008001021999KA1240N+02321MA1999999100861MD1999999+0101MW1611REMSYN088AAXX  07124 82198 21596 83603 10243 20235 30086 40137 76162 8572/ 333 20232 58010 60104;
0171821980999992004030718004-01717-045400FM-12+004499999V0201401N001510120019N0100001N1+02521+02381101061ADDAY161061AY221061GF108991051041012501041999MA1999999100551MD1999999+0161MW1021REMSYN082AAXX  07184 82198 21697 81403 10252 20238 30055 40106 70262 8544/ 333 58016 60111;
0198821980999992004030800004-01717-045400FM-12+004499999V0201101N002110450019N0005001N1+02441+02341101371ADDAA106000091GF107991041071012501041001KA1240M+02721MA1999999100861MD1999999+0141REMSYN088AAXX  08004 82198 32693 71104 10244 20234 30086 40137 84740 333 10272 29094 55000 58014;EQDQ01  00002PRCP06
0190821980999992004030812004-01717-045400FM-12+004499999V0200701N001010450019N0100001N1+02661+02431101361ADDAY161061AY221061GF106991031011012501061001KA1240N+02301MA1999999100851MD1999999-0011MW1021REMSYN088AAXX  08124 82198 21697 60702 10266 20243 30085 40136 70262 83160 333 20230 59001 60124;
0167821980999992004030818004-01717-045400FM-12+004499999V0200201N003110450019N0100001N1+02841+02461100941ADDAA106000091GF106991031021012501061001MA1999999100431MD1999999-0121REMSYN070AAXX  08184 82198 32697 60206 10284 20246 30043 40094 83260 333 59012;EQDQ01  00002PRCP06
0202821980999992004030900004-01717-045400FM-12+004499999V0201101N002110120019N0005001N1+02511+02381101281ADDAY161061AY221061GF106991051071012501041001KA1240M+03251MA1999999100771MD1999999-0091MW1021REMSYN100AAXX  09004 82198 21693 61104 10251 20238 30077 40128 70262 85740 333 10325 29088 55051 59009 69981;
0190821980999992004030912004-01717-045400FM-12+004499999V0202501N002610450019N0040001N1+02271+02171101421ADDAY161061AY261061GF107991041071012501021001KA1240N+02221MA1999999100901MD1999999+0051MW1631REMSYN088AAXX  09124 82198 21696 72505 10227 20217 30090 40142 76366 84720 333 20222 58005 60454;
0176821980999992004030918004-01717-045400FM-12+004499999V0200901N005110450019N0020001N1+02601+02441101211ADDAA106000021AY141061AY221061GF107991041071012501021001MA1999999100701MD1999999+0271MW1101REMSYN076AAXX  09184 82198 31695 70910 10260 20244 30070 40121 71042 84720 333 58027;
0202821980999992004031000004-01717-045400FM-12+004499999V0200201N001510450019N0005001N1+02421+02371101401ADDAY161061AY251061GF107991041071012501021001KA1240M+02951MA1999999100881MD1999999+0111MW1631REMSYN100AAXX  10004 82198 21693 70203 10242 20237 30088 40140 76365 84720 333 10295 29096 55000 58011 60051;
0190821980999992004031012004-01717-045400FM-12+004499999V0203501N002110450019N0100001N1+02651+02481101451ADDAY161061AY221061GF107991041031008001061001KA1240N+02271MA1999999100931MD1999999+0031MW1021REMSYN088AAXX  10124 82198 21597 73504 10265 20248 30093 40145 70262 84360 333 20227 58003 60124;
0171821980999992004031018004-01717-045400FM-12+004499999V0203601N001510120019N0040001N1+02551+02511101221ADDAY161061AY221061GF107991051071012501021001MA1999999100711MD1999999+0011MW1631REMSYN082AAXX  10184 82198 21696 73603 10255 20251 30071 40122 76362 85720 333 58001 60111;
0200821980999992004031100004-01717-045400FM-12+004499999V0202701N001010450019N0005001N1+02311+02251101341ADDAY161061AY221061GF105991031021008001061001KA1240M+02721MA1999999100821MD1999999-0061MW1011REMSYN098AAXX  11004 82198 21593 52702 10231 20225 30082 40134 70162 83260 333 10272 096 55004 59006 60121;
0190821980999992004031112004-01717-045400FM-12+004499999V0209999C000010450019N0040001N1+02521+02451101341ADDAY161061AY221061GF107991031071012501021001KA1240N+02271MA1999999100821MD1999999-0111MW1151REMSYN088AAXX  11124 82198 21696 70000 10252 20245 30082 40134 71562 83720 333 20227 59011 60254;
0171821980999992004031118004-01717-045400FM-12+004499999V0202901N001010450019N0005001N1+02611+02481100941ADDAY161061AY221061GF107991031071012501021001MA1999999100431MD1999999-0281MW1631REMSYN082AAXX  11184 82198 21693 72902 10261 20248 30043 40094 76362 83720 333 59028 60231;
0212821980999992004031200004-01717-045400FM-12+004499999V0202901N001512200019N0005001N1+02401+02351101081ADDAY161061AY221061GA1001+999999999GF100991001001999999001001KA1240M+02911MA1999999100571MD1999999-0251MW1131REMSYN094AAXX  12004 82198 21993 02903 10240 20235 30057 40108 71362 333 10291 29096 55007 59025 60341;
0162821980999992004031212004-01717-045400FM-12+004499999V0200701N001510450019N0100001N1+02681+02541101181ADDGF106991041051008001021001KA1240N+02241MA1999999100671MD1999999-0151REMSYN082AAXX  12124 82198 22597 60703 10268 20254 30067 40118 84520 333 20224 59015 60574;
0171821980999992004031218004-01717-045400FM-12+004499999V0203601N005110450019N0100001N1+02731+02411100951ADDAY161061AY221061GF107991041051004501041041MA1999999100441MD1999999+0011MW1031REMSYN082AAXX  12184 82198 21497 73610 10273 20241 30044 40095 70362 84544 333 58001 60071;
0202821980999992004031300004-01717-045400FM-12+004499999V0209999C000010450019N0005001N1+02451+02331101101ADDAY161061AY221061GF106991041021012501061001KA1240M+02901MA1999999100591MD1999999+0021MW1011REMSYN100AAXX  13004 82198 21693 60000 10245 20233 30059 40110 70162 84260 333 10290 29092 55023 58002 60051;
0162821980999992004031312004-01717-045400FM-12+004499999V0200501N003110450019N0100001N1+02841+02541101151ADDGF106991031021008001011061KA1240N+02361MA1999999100641MD1999999-0031REMSYN082AAXX  13124 82198 22597 60506 10284 20254 30064 40115 83216 333 20236 59003 60124;
0171821980999992004031318004-01717-045400FM-12+004499999V0203601N005110450019N0100001N1+02941+02401100941ADDAY161061AY221061GF106991031051008001061011MA1999999100421MD1999999-0021MW1021REMSYN082AAXX  13184 82198 21597 63610 10294 20240 30042 40094 70262 83561 333 59002 60091;
0162821980999992004031412004-01717-045400FM-12+004499999V0200701N004110450019N0100001N1+02901+02501101251ADDGF106991031021004501041011KA1240N+02461MA1999999100741MD1999999+0101REMSYN082AAXX  14124 82198 22497 60708 10290 20250 30074 40125 83241 333 20246 58010 60124;
0171821980999992004031418004-01717-045400FM-12+004499999V0203501N001510450019N0040001N1+02661+02521101021ADDAY161061AY221061GF106991031051008001011041MA1999999100511MD1999999+0091MW1211REMSYN082AAXX  14184 82198 21596 63503 10266 20252 30051 40102 72162 83514 333 58009 60051;
0202821980999992004031500004-01717-045400FM-12+004499999V0200701N002612200019N0005001N1+02491+02301101221ADDAY161061AY211061GF103991021021008001061001KA1240M+03141MA1999999100711MD1999999+0121MW1131REMSYN100AAXX  15004 82198 21593 30705 10249 20230 30071 40122 71361 82260 333 10314 29090 55048 58012 60021;
0190821980999992004031512004-01717-045400FM-12+004499999V0200701N005110450019N0100001N1+02921+02641101211ADDAY151061AY221061GF106991031051008001061041KA1240N+02381MA1999999100701MD1999999-0041MW1211REMSYN088AAXX  15124 82198 21597 60710 10292 20264 30070 40121 72152 83564 333 20238 59004 60084;
0171821980999992004031518004-01717-045400FM-12+004499999V0200701N005110450019N0100001N1+02521+02381100941ADDAY161061AY221061GF107991041071012501021001MA1999999100431MD1999999-0081MW1621REMSYN082AAXX  15184 82198 21697 70710 10252 20238 30043 40094 76262 84720 333 59008 60151;
0202821980999992004031600004-01717-045400FM-12+004499999V0203601N002112200019N0005001N1+02401+02351101111ADDAY161061AY211061GF103991031021008001001001KA1240M+02991MA1999999100601MD1999999-0111MW1621REMSYN100AAXX  16004 82198 21593 33604 10240 20235 30060 40111 76261 83200 333 10299 29092 55032 59011 60211;
0190821980999992004031612004-01717-045400FM-12+004499999V0200901N004110450019N0100001N1+02761+02521101171ADDAY161061AY251061GF107991041021012501031001KA1240N+02341MA1999999100661MD1999999-0041MW1021REMSYN088AAXX  16124 82198 21697 70908 10276 20252 30066 40117 70265 84230 333 20234 59004 60384;
0167821980999992004031618004-01717-045400FM-12+004499999V0200701N005110450019N0100001N1+02831+02461100811ADDAA106000091GF106991031021012501041001MA1999999100301MD1999999-0131REMSYN070AAXX  16184 82198 32697 60710 10283 20246 30030 40081 83240 333 59013;EQDQ01  00002PRCP06
0202821980999992004031700004-01717-045400FM-12+004499999V0200701N003612200019N0005001N1+02541+02401100971ADDAY161061AY221061GF103991031001012501061001KA1240M+02921MA1999999100461MD1999999-0141MW1021REMSYN100AAXX  17004 82198 21693 30707 10254 20240 30046 40097 70262 83060 333 10292 29088 55032 59014 60051;
0190821980999992004031712004-01717-045400FM-12+004499999V0203201N001010075019N0020001N1+02421+02351101071ADDAY161061AY221061GF108991051071008001021999KA1240N+02301MA1999999100561MD1999999-0101MW1631REMSYN088AAXX  17124 82198 21595 83202 10242 20235 30056 40107 76362 8572/ 333 20230 59010 60544;
0171821980999992004031718004-01717-045400FM-12+004499999V0200201N004610075019N0040001N1+02661+02391100831ADDAY161061AY221061GF108991061051008001041999MA1999999100321MD1999999+0021MW1151REMSYN082AAXX  17184 82198 21596 80209 10266 20239 30032 40083 71562 8654/ 333 58002 60071;
0198821980999992004031800004-01717-045400FM-12+004499999V0200201N001510120019N0005001N1+02521+02381101041ADDAA106000091GF107991051051012501021001KA1240M+02731MA1999999100531MD1999999+0071REMSYN088AAXX  18004 82198 32693 70203 10252 20238 30053 40104 85520 333 10273 29091 55000 58007;EQDQ01  00002PRCP06
0190821980999992004031812004-01717-045400FM-12+004499999V0201101N004110450019N0100001N1+02751+02401101171ADDAY161061AY251061GF106991031021008001061001KA1240N+02351MA1999999100661MD1999999+0101MW1021REMSYN088AAXX  18124 82198 21597 61108 10275 20240 30066 40117 70265 83260 333 20235 58010 60414;
0171821980999992004031818004-01717-045400FM-12+004499999V0201601N001510075019N0040001N1+02461+02341100841ADDAY161061AY221061GF108991051051008001021999MA1999999100331MD1999999+0011MW1211REMSYN082AAXX  18184 82198 21596 81603 10246 20234 30033 40084 72162 8552/ 333 58001 60191;
0202821980999992004031900004-01717-045400FM-12+004499999V0203501N000510450019N0005001N1+02461+02391101091ADDAY161061AY221061GF106991041051008001041001KA1240M+02891MA1999999100581MD1999999+0051MW1021REMSYN100AAXX  19004 82198 21593 63501 10246 20239 30058 40109 70262 84540 333 10289 29092 55017 58005 60041;
0162821980999992004031912004-01717-045400FM-12+004499999V0200501N004110450019N0100001N1+02861+02391101151ADDGF105991031021008001061001KA1240N+02421MA1999999100641MD1999999-0021REMSYN082AAXX  19124 82198 22597 50508 10286 20239 30064 40115 83260 333 20242 59002 60224;
0171821980999992004031918004-01717-045400FM-12+004499999V0200701N002610450019N0040001N1+02711+02521100781ADDAY161061AY221061GF107991031071012501061001MA1999999100271MD1999999-0061MW1211REMSYN082AAXX  19184 82198 21696 70705 10271 20252 30027 40078 72162 83760 333 59006 60021;
0179821980999992004032000004-01717-045400FM-12+004499999V0200501N001512200019N0005001N1+02531+02381100991ADDAA106000021GF104991021011008001061001KA1240M+03151MA1999999100481MD1999999-0101REMSYN088AAXX  20004 82198 32593 40503 10253 20238 30048 40099 82160 333 10315 29086 55049 59010;
0162821980999992004032012004-01717-045400FM-12+004499999V0200701N002610450019N0100001N1+02771+02561101071ADDGF106991031011012501061001KA1240N+02431MA1999999100561MD1999999-0081REMSYN082AAXX  20124 82198 22697 60705 10277 20256 30056 40107 83160 333 20243 59008 60024;
0167821980999992004032018004-01717-045400FM-12+004499999V0201101N003110450019N0100001N1+03211+02351100731ADDAA106000091GF106991041021012501061011MA1999999100221MD1999999-0051REMSYN070AAXX  20184 82198 32697 61106 10321 20235 30022 40073 84261 333 59005;EQDQ01  00002PRCP06
0212821980999992004032100004-01717-045400FM-12+004499999V0200501N002612200019N0005001N1+02661+02461100961ADDAY161061AY221061GA1001+999999999GF100991001001999999001001KA1240M+03261MA1999999100451MD1999999-0031MW1021REMSYN094AAXX  21004 82198 21993 00505 10266 20246 30045 40096 70262 333 10326 29082 55064 59003 69951;
0162821980999992004032112004-01717-045400FM-12+004499999V0200201N002610450019N0100001N1+02861+02561101041ADDGF106991041021008001061001KA1240N+02461MA1999999100531MD1999999-0031REMSYN082AAXX  21124 82198 22597 60205 10286 20256 30053 40104 84260 333 20246 59003 69954;
0162821980999992004032212004-01717-045400FM-12+004499999V0200901N003110450019N0100001N1+02941+02621101071ADDGF105991031021012501061001KA1240N+02451MA1999999100561MD1999999+0031REMSYN082AAXX  22124 82198 22697 50906 10294 20262 30056 40107 83260 333 20245 58003 69934;
0171821980999992004032218004-01717-045400FM-12+004499999V0200501N004610120019N0040001N1+02681+02461100841ADDAY161061AY221061GF108991051071012501061999MA1999999100331MD1999999+0131MW1031REMSYN082AAXX  22184 82198 21696 80509 10268 20246 30033 40084 70362 8576/ 333 58013 60041;
0198821980999992004032300004-01717-045400FM-12+004499999V0200501N001512200019N0005001N1+02631+02481101011ADDAA106000091GF103991031021008001001001KA1240M+03001MA1999999100501MD1999999+0051REMSYN088AAXX  23004 82198 32593 30503 10263 20248 30050 40101 83200 333 10300 29089 55022 58005;EQDQ01  00002PRCP06
0190821980999992004032312004-01717-045400FM-12+004499999V0203601N001510450019N0100001N1+02661+02461101181ADDAY161061AY221061GF107991041051012501011001KA1240N+02331MA1999999100671MD1999999+0111MW1031REMSYN088AAXX  23124 82198 21697 73603 10266 20246 30067 40118 70362 84510 333 20233 58011 60064;
0171821980999992004032318004-01717-045400FM-12+004499999V0203601N005110450019N0100001N1+02851+02401100861ADDAY161061AY221061GF107991041051012501011001MA1999999100351MD1999999+0021MW1021REMSYN082AAXX  23184 82198 21697 73610 10285 20240 30035 40086 70262 84510 333 58002 60031;
0202821980999992004032400004-01717-045400FM-12+004499999V0200701N001519999999N0005001N1+02531+02381101101ADDAY161061AY221061GF107991071001012501061001KA1240M+02951MA1999999100591MD1999999+0091MW1021REMSYN100AAXX  24004 82198 21693 70703 10253 20238 30059 40110 70262 87060 333 10295 29090 55006 58009 69961;
0190821980999992004032412004-01717-045400FM-12+004499999V0200501N001510450019N0100001N1+02501+02451101221ADDAY161061AY221061GF107991041051008001021001KA1240N+02281MA1999999100711MD1999999+0041MW1021REMSYN088AAXX  24124 82198 21597 70503 10250 20245 30071 40122 70262 84520 333 20228 58004 60164;
0190821980999992004032512004-01717-045400FM-12+004499999V0200501N002610450019N0100001N1+02811+02521101101ADDAY161061AY221061GF106991031071008001061011KA1240N+02411MA1999999100591MD1999999-0121MW1031REMSYN088AAXX  25124 82198 21597 60505 10281 20252 30059 40110 70362 83761 333 20241 59012 60104;
0171821980999992004032518004-01717-045400FM-12+004499999V0200501N004110450019N0100001N1+02461+02301100891ADDAY181061AY261061GF107991041071012501011011MA1999999100381MD1999999+0011MW1621REMSYN082AAXX  25184 82198 21697 70508 10246 20230 30038 40089 76286 84711 333 58001 60151;
0179821980999992004032600004-01717-045400FM-12+004499999V0200901N002112200019N0005001N1+02531+02431101111ADDAA106000021GF104991031021008001031001KA1240M+02851MA1999999100601MD1999999-0011REMSYN088AAXX  26004 82198 32593 40904 10253 20243 30060 40111 83230 333 10285 29092 55012 59001;
0162821980999992004032612004-01717-045400FM-12+004499999V0200501N002610450019N0100001N1+02811+02501101011ADDGF106991031051004501031011KA1240N+02391MA1999999100501MD1999999-0091REMSYN082AAXX  26124 82198 22497 60505 10281 20250 30050 40101 83531 333 20239 59009 60154;
0167821980999992004032618004-01717-045400FM-12+004499999V0200701N003110450019N0100001N1+02751+02501100761ADDAA106000091GF107991031031008001011001MA1999999100251MD1999999-0131REMSYN070AAXX  26184 82198 32597 70706 10275 20250 30025 40076 83310 333 59013;EQDQ01  00002PRCP06
0202821980999992004032700004-01717-045400FM-12+004499999V0200701N001510450019N0005001N1+02431+02371100941ADDAY161061AY211061GF105991031071008001061001KA1240M+02981MA1999999100431MD1999999-0171MW1151REMSYN100AAXX  27004 82198 21593 50703 10243 20237 30043 40094 71561 83760 333 10298 29091 55002 59017 60141;
0190821980999992004032712004-01717-045400FM-12+004499999V0200701N005710450019N0100001N1+02471+02311101101ADDAY161061AY221061GF107991031071008001021001KA1240N+02351MA1999999100591MD1999999+0091MW1621REMSYN088AAXX  27124 82198 21597 70711 10247 20231 30059 40110 76262 83720 333 20235 58009 60164;
0148821980999992004032718004-01717-045400FM-12+004499999V0200701N005710450019N0100001N1+02961+02301100711ADDAA106000021GF106991031051008001041041MA1999999100201MD1999999-0321REMSYN070AAXX  27184 82198 32597 60711 10296 20230 30020 40071 83544 333 59032;
0198821980999992004032800004-01717-045400FM-12+004499999V0200901N003110450019N0040001N1+02521+02401100981ADDAA106000091GF106991031021012501031011KA1240M+03021MA1999999100471MD1999999+0041REMSYN088AAXX  28004 82198 32696 60906 10252 20240 30047 40098 83231 333 10302 29088 55029 58004;EQDQ01  00002PRCP06
0190821980999992004032812004-01717-045400FM-12+004499999V0201101N002110450019N0100001N1+02641+02481101051ADDAY161061AY221061GF106991031051008001011011KA1240N+02411MA1999999100541MD1999999-0051MW1021REMSYN088AAXX  28124 82198 21597 61104 10264 20248 30054 40105 70262 83511 333 20241 59005 60204;
0171821980999992004032818004-01717-045400FM-12+004499999V0200501N003610450019N0100001N1+02941+02491100791ADDAY161061AY221061GF106991031051008001011041MA1999999100281MD1999999+0081MW1021REMSYN082AAXX  28184 82198 21597 60507 10294 20249 30028 40079 70262 83514 333 58008 60081;
0190821980999992004032912004-01717-045400FM-12+004499999V0201401N003110450019N0100001N1+02391+02231101301ADDAY161061AY221061GF107991041071012501021001KA1240N+02311MA1999999100791MD1999999+0251MW1631REMSYN088AAXX  29124 82198 21697 71406 10239 20223 30079 40130 76362 84720 333 20231 58025 60324;
0226821980999992004033000004-01717-045400FM-12+004499999V0200501N001510450019N0040001N1+02681+02521101251ADDAA106000091AY121061AY221061GF106991041051012501011001KA1240M+03061MA1999999100741MD1999999+0211MW1131REMSYN094AAXX  30004 82198 31696 60503 10268 20252 30074 40125 71322 84510 333 10306 29086 55015 58021;EQDQ01  00002PRCP06
0162821980999992004033012004-01717-045400FM-12+004499999V0202501N000510450019N0100001N1+02871+02521101351ADDGF106991031021012501011091KA1240N+02341MA1999999100831MD1999999+0041REMSYN082AAXX  30124 82198 22697 62501 10287 20252 30083 40135 83219 333 20234 58004 69924;
0171821980999992004033018004-01717-045400FM-12+004499999V0203501N002610450019N0100001N1+02591+02501101151ADDAY161061AY221061GF106991031021012501011041MA1999999100641MD1999999+0181MW1211REMSYN082AAXX  30184 82198 21697 63505 10259 20250 30064 40115 72162 83214 333 58018 60221;
0179821980999992004033100004-01717-045400FM-12+004499999V0200501N002612200019N0040001N1+02631+02441101391ADDAA106000021GF103991011011012501031011KA1240M+03061MA1999999100871MD1999999+0131REMSYN088AAXX  31004 82198 32696 30505 10263 20244 30087 40139 81131 333 10306 29090 55037 58013;
0162821980999992004033112004-01717-045400FM-12+004499999V0200701N002610450019N0100001N1+03001+02551101351ADDGF105991031021008001041011KA1240N+02441MA1999999100831MD1999999+0001REMSYN082AAXX  31124 82198 22597 50705 10300 20255 30083 40135 83241 333 20244 58000 60224;
0171821980999992004033118004-01717-045400FM-12+004499999V0203601N006210450019N0100001N1+02851+02461100971ADDAY161061AY221061GF106991031051012501011061MA1999999100461MD1999999-0181MW1211REMSYN082AAXX  31184 82198 21697 63612 10285 20246 30046 40097 72162 83516 333 59018 60041;
0207821980999992004040100004-01717-045400FM-12+004499999V0200701N001510450019N0040001N1+02671+02401101251ADDAA106000021AY121061AY221061GF107991041051004501011011KA1240M+03161MA1999999100741MD1999999-0131MW1131REMSYN094AAXX  01004 82198 31496 70703 10267 20240 30074 40125 71322 84511 333 10316 29084 55062 59013;
0162821980999992004040112004-01717-045400FM-12+004499999V0203601N002610450019N0100001N1+02891+02441101391ADDGF106991031031008001061011KA1240N+02441MA1999999100871MD1999999+0041REMSYN082AAXX  01124 82198 22597 63605 10289 20244 30087 40139 83361 333 20244 58004 60044;
0171821980999992004040118004-01717-045400FM-12+004499999V0201101N003110450019N0100001N1+02401+02311101121ADDAY161061AY221061GF106991031021008001011041MA1999999100611MD1999999+0151MW1021REMSYN082AAXX  01184 82198 21597 61106 10240 20231 30061 40112 70262 83214 333 58015 60471;
0171821980999992004040218004-01717-045400FM-12+004499999V0203601N006210450019N0100001N1+02851+02461101001ADDAY161061AY221061GF106991031021008001061011MA1999999100491MD1999999-0121MW1021REMSYN082AAXX  02184 82198 21597 63612 10285 20246 30049 40100 70262 83261 333 59012 60011;
0202821980999992004040300004-01717-045400FM-12+004499999V0200201N001010450019N0040001N1+02371+02311101201ADDAY161061AY221061GF106991031011012501031041KA1240M+03031MA1999999100691MD1999999-0091MW1021REMSYN100AAXX  03004 82198 21696 60202 10237 20231 30069 40120 70262 83134 333 10303 29089 55043 59009 60071;
0190821980999992004040512004-01717-045400FM-12+004499999V0200701N003110450019N0100001N1+02851+02541101391ADDAY161061AY221061GF106991031071004501061011KA1240N+02541MA1999999100871MD1999999+0021MW1211REMSYN088AAXX  05124 82198 21497 60706 10285 20254 30087 40139 72162 83761 333 20254 58002 60024;
0171821980999992004040518004-01717-045400FM-12+004499999V0203601N006210450019N0100001N1+02631+02401101071ADDAY161061AY221061GF106991031071008001061041MA1999999100561MD1999999+0061MW1621REMSYN082AAXX  05184 82198 21597 63612 10263 20240 30056 40107 76262 83764 333 58006 60071;
0190821980999992004040612004-01717-045400FM-12+004499999V0200501N000512200019N0100001N1+02741+02501101271ADDAY161061AY221061GF104991021011012501061001KA1240N+02421MA1999999100761MD1999999-0111MW1011REMSYN088AAXX  06124 82198 21697 40501 10274 20250 30076 40127 70162 82160 333 20242 59011 60124;
0171821980999992004040618004-01717-045400FM-12+004499999V0200501N002610075019N0020001N1+02711+02481100811ADDAY161061AY221061GF108991051051008001021999MA1999999100301MD1999999-0261MW1621REMSYN082AAXX  06184 82198 21595 80505 10271 20248 30030 40081 76262 8552/ 333 59026 60121;
0202821980999992004040700004-01717-045400FM-12+004499999V0200501N002110450019N0040001N1+02561+02421101141ADDAY161061AY221061GF107991041071012501041001KA1240M+03121MA1999999100631MD1999999-0061MW1021REMSYN100AAXX  07004 82198 21696 70504 10256 20242 30063 40114 70262 84740 333 10312 29090 55038 59006 60081;
0171821980999992004040718004-01717-045400FM-12+004499999V0200901N003110075019N0100001N1+02481+02411100981ADDAY161061AY221061GF108991051071008001041999MA1999999100471MD1999999+0171MW1021REMSYN082AAXX  07184 82198 21597 80906 10248 20241 30047 40098 70262 8574/ 333 58017 60141;
0198821980999992004040800004-01717-045400FM-12+004499999V0202701N001510450019N0040001N1+02461+02391101251ADDAA106000091GF106991031021012501041001KA1240M+02751MA1999999100741MD1999999+0111REMSYN088AAXX  08004 82198 32696 62703 10246 20239 30074 40125 83240 333 10275 29096 55000 58011;EQDQ01  00002PRCP06
0190821980999992004040812004-01717-045400FM-12+004499999V0200701N003110075019N0100001N1+02451+02391101311ADDAY161061AY221061GF107991051051008001041001KA1240N+02291MA1999999100801MD1999999+0001MW1151REMSYN088AAXX  08124 82198 21597 70706 10245 20239 30080 40131 71562 85540 333 20229 58000 60154;
0167821980999992004040818004-01717-045400FM-12+004499999V0200501N003610450019N0100001N1+02711+02351101141ADDAA106000091GF107991041021008001061001MA1999999100631MD1999999+0161REMSYN070AAXX  08184 82198 32597 70507 10271 20235 30063 40114 84260 333 58016;EQDQ01  00002PRCP06
0162821980999992004040912004-01717-045400FM-12+004499999V0201401N002610450019N0100001N1+02781+02561101251ADDGF105991041021008001061001KA1240N+02331MA1999999100741MD1999999-0061REMSYN082AAXX  09124 82198 22597 51405 10278 20256 30074 40125 84260 333 20233 59006 69984;
0167821980999992004040918004-01717-045400FM-12+004499999V0200701N006710120019N0100001N1+02941+02431100881ADDAA106000091GF106991051021012501061001MA1999999100371MD1999999-0261REMSYN070AAXX  09184 82198 32697 60713 10294 20243 30037 40088 85260 333 59026;EQDQ01  00002PRCP06
0198821980999992004041000004-01717-045400FM-12+004499999V0200501N001512200019N0005001N1+02641+02481101041ADDAA106000091GF103991031001012501061001KA1240M+03221MA1999999100531MD1999999-0221REMSYN088AAXX  10004 82198 32693 30503 10264 20248 30053 40104 83060 333 10322 29086 55069 59022;EQDQ01  00002PRCP06
0186821980999992004041012004-01717-045400FM-12+004499999V0200701N004112200019N0100001N1+02961+02511101011ADDAA106000091GF104991041021008001001001KA1240N+02441MA1999999100501MD1999999-0241REMSYN076AAXX  10124 82198 32597 40708 10296 20251 30050 40101 84200 333 20244 59024;EQDQ01  00002PRCP06
0167821980999992004041018004-01717-045400FM-12+004499999V0200701N005112200019N0100001N1+03131+02331100581ADDAA106000091GF104991031021012501001011MA1999999100071MD1999999-0301REMSYN070AAXX  10184 82198 32697 40710 10313 20233 30007 40058 83201 333 59030;EQDQ01  00002PRCP06
0198821980999992004041100004-01717-045400FM-12+004499999V0200501N003610450019N0005001N1+02641+02411100721ADDAA106000091GF105991031021008001061001KA1240M+03261MA1999999100211MD1999999-0321REMSYN088AAXX  11004 82198 32593 50507 10264 20241 30021 40072 83260 333 10326 29078 55083 59032;EQDQ01  00002PRCP06
0186821980999992004041112004-01717-045400FM-12+004499999V0200701N006212200019N0100001N1+03001+02461100771ADDAA106000091GF104991041011008001001001KA1240N+02501MA1999999100261MD1999999-0241REMSYN076AAXX  11124 82198 32597 40712 10300 20246 30026 40077 84100 333 20250 59024;EQDQ01  00002PRCP06
0171821980999992004041118004-01717-045400FM-12+004499999V0200701N000510450019N0100001N1+02871+02601100461ADDAY161061AY221061GF107991041021012501061001MA1999999099951MD1999999-0121MW1621REMSYN082AAXX  11184 82198 21697 70701 10287 20260 39995 40046 76262 84260 333 59012 60061;
0189821980999992004041200004-01717-045400FM-12+004499999V0200701N002612200019N0005001N1+02631+02421101241ADDAA106000021GA1001+999999999GF100991001001999999001001KA1240M+03261MA1999999100731MD1999999+0021REMSYN082AAXX  12004 82198 32993 00705 10263 20242 30073 40124 333 10326 29084 55055 58002;
0162821980999992004041212004-01717-045400FM-12+004499999V0200201N003610450019N0100001N1+02911+02601100961ADDGF106991041021008001061001KA1240N+02481MA1999999100451MD1999999+0191REMSYN082AAXX  12124 82198 22597 60207 10291 20260 30045 40096 84260 333 20248 58019 60064;
0171821980999992004041218004-01717-045400FM-12+004499999V0203601N002110120019N0100001N1+02561+02361100691ADDAY191061AY261061GF108991051071012501041999MA1999999100181MD1999999+0231MW1021REMSYN082AAXX  12184 82198 21697 83604 10256 20236 30018 40069 70296 8574/ 333 58023 60161;
0198821980999992004041300004-01717-045400FM-12+004499999V0200501N002110450019N0005001N1+02531+02381101051ADDAA106000091GF106991031071012501061001KA1240M+03111MA1999999100541MD1999999+0311REMSYN088AAXX  13004 82198 32693 60504 10253 20238 30054 40105 83760 333 10311 29089 55027 58031;EQDQ01  00002PRCP06
0190821980999992004041312004-01717-045400FM-12+004499999V0201601N001010075019N0100001N1+02521+02431101261ADDAY161061AY221061GF108991061071008001041999KA1240N+02321MA1999999100751MD1999999+0301MW1151REMSYN088AAXX  13124 82198 21597 81602 10252 20243 30075 40126 71562 8674/ 333 20232 58030 60224;
0167821980999992004041318004-01717-045400FM-12+004499999V0200701N002610450019N0100001N1+02741+02431100991ADDAA106000091GF107991031071012501041001MA1999999100481MD1999999+0301REMSYN070AAXX  13184 82198 32697 70705 10274 20243 30048 40099 83740 333 58030;EQDQ01  00002PRCP06
0198821980999992004041400004-01717-045400FM-12+004499999V0203201N001512200019N0005001N1+02501+02401101201ADDAA106000091GF102991021001012501061001KA1240M+02791MA1999999100691MD1999999+0151REMSYN088AAXX  14004 82198 32693 23203 10250 20240 30069 40120 82060 333 10279 29092 55000 58015;EQDQ01  00002PRCP06
0186821980999992004041412004-01717-045400FM-12+004499999V0200701N003110450019N0100001N1+02901+02461101211ADDAA106000091GF106991031011008001061011KA1240N+02401MA1999999100701MD1999999-0051REMSYN076AAXX  14124 82198 32597 60706 10290 20246 30070 40121 83161 333 20240 59005;EQDQ01  00002PRCP06
0167821980999992004041418004-01717-045400FM-12+004499999V0200501N004610120019N0100001N1+03121+02461100841ADDAA106000091GF105991051021012501001001MA1999999100331MD1999999-0151REMSYN070AAXX  14184 82198 32697 50509 10312 20246 30033 40084 85200 333 59015;EQDQ01  00002PRCP06
0208821980999992004041500004-01717-045400FM-12+004499999V0200501N003612200019N0005001N1+02611+02331101111ADDAA106000091GA1001+999999999GF100991001001999999001001KA1240M+03181MA1999999100601MD1999999-0091REMSYN082AAXX  15004 82198 32993 00507 10261 20233 30060 40111 333 10318 29079 55071 59009;EQDQ01  00002PRCP06
0186821980999992004041512004-01717-045400FM-12+004499999V0200501N003612200019N0100001N1+02931+02471101181ADDAA106000091GF104991041021012501001001KA1240N+02421MA1999999100671MD1999999-0031REMSYN076AAXX  15124 82198 32697 40507 10293 20247 30067 40118 84200 333 20242 59003;EQDQ01  00002PRCP06
0167821980999992004041518004-01717-045400FM-12+004499999V0200201N005112200019N0100001N1+02861+02461100821ADDAA106000091GF105991041021012501001011MA1999999100311MD1999999-0021REMSYN070AAXX  15184 82198 32697 50210 10286 20246 30031 40082 84201 333 59002;EQDQ01  00002PRCP06
0186821980999992004041612004-01717-045400FM-12+004499999V0200701N004112200019N0100001N1+02941+02491101181ADDAA106000091GF104991041011008001001001KA1240N+02291MA1999999100671MD1999999+0001REMSYN076AAXX  16124 82198 32597 40708 10294 20249 30067 40118 84100 333 20229 58000;EQDQ01  00002PRCP06
0167821980999992004041618004-01717-045400FM-12+004499999V0203601N004110450019N0100001N1+02901+02391100851ADDAA106000091GF105991031021012501061001MA1999999100341MD1999999+0031REMSYN070AAXX  16184 82198 32697 53608 10290 20239 30034 40085 83260 333 58003;EQDQ01  00002PRCP06
0190821980999992004041912004-01717-045400FM-12+004499999V0201401N001510450019N0100001N1+02641+02351101261ADDAY121061AY201061GF106991041021008001061001KA1240N+02351MA1999999100751MD1999999-0051MW1211REMSYN088AAXX  19124 82198 21597 61403 10264 20235 30075 40126 72120 84260 333 20235 59005 60014;
0198821980999992004042000004-01717-045400FM-12+004499999V0203601N001012200019N0005001N1+02561+02461101131ADDAA106000091GF104991031071012501041001KA1240M+02961MA1999999100621MD1999999-0041REMSYN088AAXX  20004 82198 32693 43602 10256 20246 30062 40113 83740 333 10296 29089 55017 59004;EQDQ01  00002PRCP06
0179821980999992004042012004-01717-045400FM-12+004499999V0200501N001510450019N0100001N1+02771+02601101241ADDAA124009091GF106991031021008001061011KA1240N+02341MA1999999100731MD1999999-0021REMSYN088AAXX  20124 82198 22597 60503 10277 20260 30073 40124 83261 333 20234 59002 60094 10088;
0171821980999992004042018004-01717-045400FM-12+004499999V0200901N002610450019N0100001N1+02661+02441101001ADDAY151061AY221061GF107991041071004501011001MA1999999100491MD1999999+0081MW1031REMSYN082AAXX  20184 82198 21497 70905 10266 20244 30049 40100 70352 84710 333 58008 69911;
0162821980999992004042112004-01717-045400FM-12+004499999V0200701N004112200019N0100001N1+02961+02531101111ADDGF104991041021004501001001KA1240N+02461MA1999999100601MD1999999-0131REMSYN082AAXX  21124 82198 22497 40708 10296 20253 30060 40111 84200 333 20246 59013 69914;
0171821980999992004042118004-01717-045400FM-12+004499999V0203601N005710450019N0100001N1+03041+02521100871ADDAY161061AY221061GF106991031071008001061011MA1999999100361MD1999999-0131MW1151REMSYN082AAXX  21184 82198 21597 63611 10304 20252 30036 40087 71562 83761 333 59013 60011;
0226821980999992004042200004-01717-045400FM-12+004499999V0200701N002610075019N0005001N1+02661+02461101091ADDAA106000091AY121061AY221061GF105991051021008001001001KA1240M+03191MA1999999100581MD1999999-0081MW1131REMSYN094AAXX  22004 82198 31593 50705 10266 20246 30058 40109 71322 85200 333 10319 29082 55077 59008;EQDQ01  00002PRCP06
0190821980999992004042212004-01717-045400FM-12+004499999V0201601N004110450019N0100001N1+02731+02481101201ADDAY161061AY221061GF107991041071008001061001KA1240N+02391MA1999999100691MD1999999+0091MW1031REMSYN088AAXX  22124 82198 21597 71608 10273 20248 30069 40120 70362 84760 333 20239 58009 60034;
0171821980999992004042218004-01717-045400FM-12+004499999V0203601N003110450019N0100001N1+03071+02491100791ADDAY161061AY221061GF107991041071008001011041MA1999999100281MD1999999-0081MW1021REMSYN082AAXX  22184 82198 21597 73606 10307 20249 30028 40079 70262 84714 333 59008 69911;
0226821980999992004042300004-01717-045400FM-12+004499999V0200701N002110450019N0005001N1+02671+02421101071ADDAA106000091AY121061AY221061GF105991031021008001061001KA1240M+03191MA1999999100561MD1999999-0021MW1131REMSYN094AAXX  23004 82198 31593 50704 10267 20242 30056 40107 71322 83260 333 10319 29086 55039 59002;EQDQ01  00002PRCP06
0202821980999992004042400004-01717-045400FM-12+004499999V0201101N003110450019N0005001N1+02381+02361101151ADDAY161061AY261061GF107991031051004501021001KA1240M+02681MA1999999100641MD1999999+0081MW1621REMSYN100AAXX  24004 82198 21493 71106 10238 20236 30064 40115 76266 83520 333 10268 29098 55000 58008 60111;
0190821980999992004042412004-01717-045400FM-12+004499999V0201101N001510450019N0100001N1+02741+02521101041ADDAY161061AY221061GF106991031021004501031091KA1240N+02281MA1999999100531MD1999999-0021MW1601REMSYN088AAXX  24124 82198 21497 61103 10274 20252 30053 40104 76062 83239 333 20228 59002 60414;
0171821980999992004042418004-01717-045400FM-12+004499999V0201401N002610450019N0100001N1+02561+02361100751ADDAY191061AY261061GF107991031031008001021041MA1999999100241MD1999999-0111MW1621REMSYN082AAXX  24184 82198 21597 71405 10256 20236 30024 40075 76296 83324 333 59011 69961;
0207821980999992004042500004-01717-045400FM-12+004499999V0203201N001010450019N0005001N1+02481+02411101001ADDAA106000021AY121061AY221061GF105991031021008001061001KA1240M+03161MA1999999100491MD1999999-0151MW1131REMSYN094AAXX  25004 82198 31593 53202 10248 20241 30049 40100 71322 83260 333 10316 29092 55034 59015;
0190821980999992004042512004-01717-045400FM-12+004499999V0202901N001010450019N0100001N1+02531+02431101261ADDAY161061AY221061GF107991041021008001061001KA1240N+02371MA1999999100751MD1999999+0221MW1621REMSYN088AAXX  25124 82198 21597 72902 10253 20243 30075 40126 76262 84260 333 20237 58022 60044;
0171821980999992004042518004-01717-045400FM-12+004499999V0200701N004110450019N0100001N1+02491+02301101141ADDAY161061AY221061GF107991041071012501021001MA1999999100631MD1999999+0391MW1151REMSYN082AAXX  25184 82198 21697 70708 10249 20230 30063 40114 71562 84720 333 58039 60021;
0202821980999992004042600004-01717-045400FM-12+004499999V0202001N001010450019N0005001N1+02441+02411101251ADDAY161061AY221061GF105991031011004501061001KA1240M+02591MA1999999100741MD1999999+0251MW1011REMSYN100AAXX  26004 82198 21493 52002 10244 20241 30074 40125 70162 83160 333 10259 29096 55000 58025 60021;
0162821980999992004042612004-01717-045400FM-12+004499999V0202901N000510450019N0100001N1+02551+02421101331ADDGF106991031021008001031041KA1240N+02261MA1999999100811MD1999999+0061REMSYN082AAXX  26124 82198 22597 62901 10255 20242 30081 40133 83234 333 20226 58006 60044;
0167821980999992004042618004-01717-045400FM-12+004499999V0200501N003610450019N0100001N1+02781+02301101101ADDAA106000091GF106991031051008001011001MA1999999100591MD1999999-0041REMSYN070AAXX  26184 82198 32597 60507 10278 20230 30059 40110 83510 333 59004;EQDQ01  00002PRCP06
0202821980999992004042700004-01717-045400FM-12+004499999V0200201N001510450019N0005001N1+02521+02421101381ADDAY161061AY221061GF106991031051008001061001KA1240M+03031MA1999999100861MD1999999+0121MW1211REMSYN100AAXX  27004 82198 21593 60203 10252 20242 30086 40138 72162 83560 333 10303 29089 55015 58012 60011;
0190821980999992004042712004-01717-045400FM-12+004499999V0202901N001010450019N0100001N1+02531+02381101541ADDAY161061AY221061GF107991041071012501061001KA1240N+02271MA1999999101031MD1999999+0221MW1021REMSYN088AAXX  27124 82198 21697 72902 10253 20238 30103 40154 70262 84760 333 20227 58022 60034;
0167821980999992004042718004-01717-045400FM-12+004499999V0200201N001510075019N0100001N1+03041+02451101141ADDAA106000091GF107991061031008001061001MA1999999100631MD1999999+0041REMSYN070AAXX  27184 82198 32597 70203 10304 20245 30063 40114 86360 333 58004;EQDQ01  00002PRCP06
0202821980999992004042800004-01717-045400FM-12+004499999V0201601N001510450019N0005001N1+02561+02441101431ADDAY191061AY261061GF106991041071012501041001KA1240M+03111MA1999999100921MD1999999+0061MW1021REMSYN100AAXX  28004 82198 21693 61603 10256 20244 30092 40143 70296 84740 333 10311 29087 55016 58006 69931;
0162821980999992004042812004-01717-045400FM-12+004499999V0200701N001510450019N0100001N1+02831+02501101451ADDGF106991031021008001061011KA1240N+02351MA1999999100941MD1999999-0091REMSYN082AAXX  28124 82198 22597 60703 10283 20250 30094 40145 83261 333 20235 59009 69934;
0167821980999992004042818004-01717-045400FM-12+004499999V0200701N005112200019N0100001N1+03141+02451101081ADDAA106000091GF105991031021008001001011MA1999999100571MD1999999-0061REMSYN070AAXX  28184 82198 32597 50710 10314 20245 30057 40108 83201 333 59006;EQDQ01  00002PRCP06
0198821980999992004042900004-01717-045400FM-12+004499999V0200501N002112200019N0040001N1+02601+02421101341ADDAA106000091GF103991031001012501061001KA1240M+03181MA1999999100831MD1999999-0091REMSYN088AAXX  29004 82198 32696 30504 10260 20242 30083 40134 83060 333 10318 29082 55093 59009;EQDQ01  00002PRCP06
0186821980999992004042912004-01717-045400FM-12+004499999V0200501N003110075019N0100001N1+02911+02411101351ADDAA106000091GF106991061021008001001001KA1240N+02421MA1999999100841MD1999999-0101REMSYN076AAXX  29124 82198 32597 60506 10291 20241 30084 40135 86200 333 20242 59010;EQDQ01  00002PRCP06
0167821980999992004042918004-01717-045400FM-12+004499999V0200701N005112200019N0100001N1+03141+02321100951ADDAA106000091GF104991041011008001001001MA1999999100441MD1999999-0131REMSYN070AAXX  29184 82198 32597 40710 10314 20232 30044 40095 84100 333 59013;EQDQ01  00002PRCP06
0208821980999992004043000004-01717-045400FM-12+004499999V0200701N002612200019N0020001N1+02581+02421101181ADDAA106000091GA1001+999999999GF100991001001999999001001KA1240M+03261MA1999999100671MD1999999-0161REMSYN082AAXX  30004 82198 32995 00705 10258 20242 30067 40118 333 10326 29080 55104 59016;EQDQ01  00002PRCP06
0186821980999992004043012004-01717-045400FM-12+004499999V0200901N003110075019N0100001N1+02941+02521101151ADDAA106000091GF105991051011008001001001KA1240N+02371MA1999999100641MD1999999-0201REMSYN076AAXX  30124 82198 32597 50906 10294 20252 30064 40115 85100 333 20237 59020;EQDQ01  00002PRCP06
0167821980999992004043018004-01717-045400FM-12+004499999V0201101N003112200019N0100001N1+03241+02421100801ADDAA106000091GF104991021021008001061001MA1999999100291MD1999999-0151REMSYN070AAXX  30184 82198 32597 41106 10324 20242 30029 40080 82260 333 59015;EQDQ01  00002PRCP06
0198821980999992004050100004-01717-045400FM-12+004499999V0200501N002119999999N0020001N1+02681+02481101051ADDAA106000091GF105991051001012501031001KA1240M+03301MA1999999100541MD1999999-0131REMSYN088AAXX  01004 82198 32695 50504 10268 20248 30054 40105 85030 333 10330 29080 55086 59013;EQDQ01  00002PRCP06
0186821980999992004050112004-01717-045400FM-12+004499999V0200701N003610450019N0100001N1+02981+02531101131ADDAA106000091GF106991031021012501061011KA1240N+02491MA1999999100621MD1999999-0021REMSYN076AAXX  01124 82198 32697 60707 10298 20253 30062 40113 83261 333 20249 59002;EQDQ01  00002PRCP06
0171821980999992004050118004-01717-045400FM-12+004499999V0200201N003612200019N0100001N1+02701+02431100771ADDAY161061AY221061GF106991041021008001001011MA1999999100261MD1999999-0031MW1211REMSYN082AAXX  01184 82198 21597 60207 10270 20243 30026 40077 72162 84201 333 59003 60021;
0179821980999992004050200004-01717-045400FM-12+004499999V0200701N002612200019N0005001N1+02621+02481101011ADDAA106000021GF104991041001012501061001KA1240M+03201MA1999999100501MD1999999-0041REMSYN088AAXX  02004 82198 32693 40705 10262 20248 30050 40101 84060 333 10320 29086 55042 59004;
0162821980999992004050212004-01717-045400FM-12+004499999V0200901N004610450019N0100001N1+02971+02471101091ADDGF106991031011008001061011KA1240N+02481MA1999999100581MD1999999-0041REMSYN082AAXX  02124 82198 22597 60909 10297 20247 30058 40109 83161 333 20248 59004 60024;
0171821980999992004050218004-01717-045400FM-12+004499999V0200201N002110120019N0100001N1+02761+02461100831ADDAY161061AY221061GF107991051071012501041001MA1999999100321MD1999999+0061MW1031REMSYN082AAXX  02184 82198 21697 70204 10276 20246 30032 40083 70362 85740 333 58006 60021;
0198821980999992004050300004-01717-045400FM-12+004499999V0200501N002610450019N0020001N1+02561+02381101051ADDAA106000091GF106991041081012501061001KA1240M+03121MA1999999100541MD1999999+0041REMSYN088AAXX  03004 82198 32695 60505 10256 20238 30054 40105 84860 333 10312 29084 55027 58004;EQDQ01  00002PRCP06
0190821980999992004050312004-01717-045400FM-12+004499999V0200701N001510120019N0100001N1+02431+02211101191ADDAY161061AY251061GF107991051041012501041001KA1240N+02321MA1999999100681MD1999999+0101MW1621REMSYN088AAXX  03124 82198 21697 70703 10243 20221 30068 40119 76265 85440 333 20232 58010 60164;
0171821980999992004050318004-01717-045400FM-12+004499999V0203601N003110120019N0100001N1+02601+02441100891ADDAY191061AY261061GF108991051071012501041999MA1999999100381MD1999999+0061MW1621REMSYN082AAXX  03184 82198 21697 83606 10260 20244 30038 40089 76296 8574/ 333 58006 69941;
0202821980999992004050400004-01717-045400FM-12+004499999V0200201N001510075019N0005001N1+02391+02331101181ADDAY191061AY261061GF108991051051008001021999KA1240M+03181MA1999999100671MD1999999+0131MW1631REMSYN100AAXX  04004 82198 21593 80203 10239 20233 30067 40118 76396 8552/ 333 10318 29093 55026 58013 60111;
0190821980999992004050412004-01717-045400FM-12+004499999V0201101N001510450019N0100001N1+02691+02481101231ADDAY161061AY221061GF107991041051008001021001KA1240N+02361MA1999999100721MD1999999+0041MW1031REMSYN088AAXX  04124 82198 21597 71103 10269 20248 30072 40123 70362 84520 333 20236 58004 60324;
0190821980999992004050512004-01717-045400FM-12+004499999V0201401N002610450019N0100001N1+02681+02581101291ADDAY161061AY221061GF106991031021004501041061KA1240N+02311MA1999999100781MD1999999+0061MW1021REMSYN088AAXX  05124 82198 21497 61405 10268 20258 30078 40129 70262 83246 333 20231 58006 60144;
0171821980999992004050518004-01717-045400FM-12+004499999V0200501N003110450019N0100001N1+02821+02501100971ADDAY161061AY221061GF106991031071008001021011MA1999999100461MD1999999-0051MW1151REMSYN082AAXX  05184 82198 21597 60506 10282 20250 30046 40097 71562 83721 333 59005 69961;
0226821980999992004050600004-01717-045400FM-12+004499999V0200701N003110450019N0040001N1+02611+02401101201ADDAA106000091AY121061AY221061GF106991031021008001031041KA1240M+03031MA1999999100691MD1999999-0011MW1131REMSYN094AAXX  06004 82198 31596 60706 10261 20240 30069 40120 71322 83234 333 10303 29088 55045 59001;EQDQ01  00002PRCP06
0190821980999992004050612004-01717-045400FM-12+004499999V0201101N001510450019N0100001N1+02681+02461101291ADDAY161061AY221061GF105991031021004501041011KA1240N+02421MA1999999100781MD1999999+0001MW1011REMSYN088AAXX  06124 82198 21497 51103 10268 20246 30078 40129 70162 83241 333 20242 58000 69994;
0171821980999992004050618004-01717-045400FM-12+004499999V0201401N001010450019N0040001N1+02891+02521100921ADDAY161061AY221061GF107991031031008001021011MA1999999100411MD1999999-0051MW1621REMSYN082AAXX  06184 82198 21596 71402 10289 20252 30041 40092 76262 83321 333 59005 60031;
0207821980999992004050700004-01717-045400FM-12+004499999V0200501N002610450019N0040001N1+02611+02461101241ADDAA106000021AY121061AY221061GF106991031011008001011061KA1240M+03051MA1999999100731MD1999999+0041MW1131REMSYN094AAXX  07004 82198 31596 60505 10261 20246 30073 40124 71322 83116 333 10305 29090 55037 58004;
0190821980999992004050712004-01717-045400FM-12+004499999V0201101N002112200019N0100001N1+02681+02391101351ADDAY161061AY211061GF104991021011004501041041KA1240N+02341MA1999999100831MD1999999+0051MW1211REMSYN088AAXX  07124 82198 21497 41104 10268 20239 30083 40135 72161 82144 333 20234 58005 60034;
0171821980999992004050718004-01717-045400FM-12+004499999V0200501N002610450019N0100001N1+03081+02631100931ADDAY111061AY221061GF106991031021008001061011MA1999999100421MD1999999+0011MW1601REMSYN082AAXX  07184 82198 21597 60505 10308 20263 30042 40093 76012 83261 333 58001 69931;
0207821980999992004050800004-01717-045400FM-12+004499999V0201101N001510450019N0040001N1+02701+02481101271ADDAA106000021AY121061AY221061GF106991031021008001011061KA1240M+03181MA1999999100761MD1999999+0031MW1131REMSYN094AAXX  08004 82198 31596 61103 10270 20248 30076 40127 71322 83216 333 10318 29084 55072 58003;
0190821980999992004050812004-01717-045400FM-12+004499999V0200701N001510450019N0100001N1+02831+02561101321ADDAY151061AY221061GF106991031021004501061041KA1240N+02381MA1999999100801MD1999999-0031MW1021REMSYN088AAXX  08124 82198 21497 60703 10283 20256 30080 40132 70252 83264 333 20238 59003 69954;
0171821980999992004050818004-01717-045400FM-12+004499999V0200701N003110450019N0100001N1+02751+02501101071ADDAY121061AY221061GF106991041071004501021011MA1999999100561MD1999999+0141MW1621REMSYN082AAXX  08184 82198 21497 60706 10275 20250 30056 40107 76222 84721 333 58014 60031;
0202821980999992004050900004-01717-045400FM-12+004499999V0200501N001512200019N0005001N1+02581+02491101291ADDAY161061AY221061GF104991021021008001061001KA1240M+03261MA1999999100781MD1999999+0021MW1131REMSYN100AAXX  09004 82198 21593 40503 10258 20249 30078 40129 71362 82260 333 10326 29090 55057 58002 60071;
0162821980999992004050912004-01717-045400FM-12+004499999V0200701N001510450019N0100001N1+02881+02601101261ADDGF106991041021004501061011KA1240N+02471MA1999999100751MD1999999-0051REMSYN082AAXX  09124 82198 22497 60703 10288 20260 30075 40126 84261 333 20247 59005 60094;
0167821980999992004050918004-01717-045400FM-12+004499999V0200501N003612200019N0100001N1+03271+02351100941ADDAA106000091GF105991021021004501001041MA1999999100431MD1999999-0131REMSYN070AAXX  09184 82198 32497 50507 10327 20235 30043 40094 82204 333 59013;EQDQ01  00002PRCP06
0186821980999992004051012004-01717-045400FM-12+004499999V0200701N002610450019N0100001N1+02951+02661101231ADDAA106000091GF106991031021008001011061KA1240N+02491MA1999999100721MD1999999-0031REMSYN076AAXX  10124 82198 32597 60705 10295 20266 30072 40123 83216 333 20249 59003;EQDQ01  00002PRCP06
0167821980999992004051018004-01717-045400FM-12+004499999V0200901N004610450019N0100001N1+03111+02311100951ADDAA106000091GF106991031021008001011061MA1999999100441MD1999999+0011REMSYN070AAXX  10184 82198 32597 60909 10311 20231 30044 40095 83216 333 58001;EQDQ01  00002PRCP06
0226821980999992004051100004-01717-045400FM-12+004499999V0200201N001512200019N0005001N1+02691+02391101221ADDAA106000091AY111061AY221061GF103991021011008001061001KA1240M+03201MA1999999100711MD1999999+0151MW1131REMSYN094AAXX  11004 82198 31593 30203 10269 20239 30071 40122 71312 82160 333 10320 29080 55056 58015;EQDQ01  00002PRCP06
0186821980999992004051112004-01717-045400FM-12+004499999V0200701N004610450019N0100001N1+02951+02561101311ADDAA106000091GF106991041021012501061011KA1240N+02471MA1999999100801MD1999999+0081REMSYN076AAXX  11124 82198 32697 60709 10295 20256 30080 40131 84261 333 20247 58008;EQDQ01  00002PRCP06
0171821980999992004051118004-01717-045400FM-12+004499999V0203201N001010450019N0100001N1+02811+02541100871ADDAY191061AY261061GF107991041011008001041031MA1999999100361MD1999999-0081MW1021REMSYN082AAXX  11184 82198 21597 73202 10281 20254 30036 40087 70296 84143 333 59008 60251;
0198821980999992004051200004-01717-045400FM-12+004499999V0200501N003112200019N0005001N1+02641+02411101251ADDAA106000091GF103991031001012501061001KA1240M+03071MA1999999100741MD1999999+0031REMSYN088AAXX  12004 82198 32693 30506 10264 20241 30074 40125 83060 333 10307 29085 55028 58003;EQDQ01  00002PRCP06
0162821980999992004051212004-01717-045400FM-12+004499999V0200701N003612200019N0100001N1+02951+02451101341ADDGF103991031011008001001001KA1240N+02401MA1999999100831MD1999999+0031REMSYN082AAXX  12124 82198 22597 30707 10295 20245 30083 40134 83100 333 20240 58003 60254;
0167821980999992004051218004-01717-045400FM-12+004499999V0200501N004612200019N0100001N1+02931+02411100971ADDAA106000091GF104991031021008001061001MA1999999100461MD1999999+0101REMSYN070AAXX  12184 82198 32597 40509 10293 20241 30046 40097 83260 333 58010;EQDQ01  00002PRCP06
0162821980999992004051312004-01717-045400FM-12+004499999V0200701N004110075019N0100001N1+02931+02491101241ADDGF105991051011008001001001KA1240N+02461MA1999999100731MD1999999-0101REMSYN082AAXX  13124 82198 22597 50708 10293 20249 30073 40124 85100 333 20246 59010 60034;
0167821980999992004051318004-01717-045400FM-12+004499999V0200901N005712200019N0100001N1+03121+02331100851ADDAA106000091GF103991031021012501001001MA1999999100341MD1999999-0121REMSYN070AAXX  13184 82198 32697 30911 10312 20233 30034 40085 83200 333 59012;EQDQ01  00002PRCP06
0208821980999992004051400004-01717-045400FM-12+004499999V0200701N003112200019N0005001N1+02621+02391101041ADDAA106000091GA1001+999999999GF100991001001999999001001KA1240M+03251MA1999999100531MD1999999-0191REMSYN082AAXX  14004 82198 32993 00706 10262 20239 30053 40104 333 10325 29078 55099 59019;EQDQ01  00002PRCP06
0186821980999992004051412004-01717-045400FM-12+004499999V0201101N004110075019N0100001N1+02921+02501101151ADDAA106000091GF105991051011008001001001KA1240N+02421MA1999999100641MD1999999-0091REMSYN076AAXX  14124 82198 32597 51108 10292 20250 30064 40115 85100 333 20242 59009;EQDQ01  00002PRCP06
0167821980999992004051418004-01717-045400FM-12+004499999V0200901N004112200019N0100001N1+03211+02271100721ADDAA106000091GF103991031021012501001001MA1999999100211MD1999999-0131REMSYN070AAXX  14184 82198 32697 30908 10321 20227 30021 40072 83200 333 59013;EQDQ01  00002PRCP06
0208821980999992004051500004-01717-045400FM-12+004499999V0200501N003112200019N0005001N1+02661+02411100991ADDAA106000091GA1001+999999999GF100991001001999999001001KA1240M+03331MA1999999100481MD1999999-0051REMSYN082AAXX  15004 82198 32993 00506 10266 20241 30048 40099 333 10333 29077 55100 59005;EQDQ01  00002PRCP06
0186821980999992004051512004-01717-045400FM-12+004499999V0200701N004110120019N0100001N1+02921+02501101171ADDAA106000091GF106991061021012501001001KA1240N+02441MA1999999100661MD1999999+0021REMSYN076AAXX  15124 82198 32697 60708 10292 20250 30066 40117 86200 333 20244 58002;EQDQ01  00002PRCP06
0167821980999992004051518004-01717-045400FM-12+004499999V0200701N004612200019N0100001N1+03201+02461100751ADDAA106000091GF104991041021008001001001MA1999999100241MD1999999+0031REMSYN070AAXX  15184 82198 32597 40709 10320 20246 30024 40075 84200 333 58003;EQDQ01  00002PRCP06
0208821980999992004051600004-01717-045400FM-12+004499999V0200501N002612200019N0005001N1+02671+02431100961ADDAA106000091GA1001+999999999GF100991001001999999001001KA1240M+03331MA1999999100451MD1999999-0031REMSYN082AAXX  16004 82198 32993 00505 10267 20243 30045 40096 333 10333 29079 55098 59003;EQDQ01  00002PRCP06
0186821980999992004051612004-01717-045400FM-12+004499999V0200701N004112200019N0100001N1+02891+02441101111ADDAA106000091GF104991041021012501001001KA1240N+02491MA1999999100601MD1999999-0061REMSYN076AAXX  16124 82198 32697 40708 10289 20244 30060 40111 84200 333 20249 59006;EQDQ01  00002PRCP06
0167821980999992004051618004-01717-045400FM-12+004499999V0200701N005110450019N0100001N1+03131+02361100771ADDAA106000091GF105991031021012501061011MA1999999100261MD1999999+0021REMSYN070AAXX  16184 82198 32697 50710 10313 20236 30026 40077 83261 333 58002;EQDQ01  00002PRCP06
0208821980999992004051700004-01717-045400FM-12+004499999V0200501N002112200019N0005001N1+02681+02431101021ADDAA106000091GA1001+999999999GF100991001001999999001001KA1240M+03281MA1999999100521MD1999999+0071REMSYN082AAXX  17004 82198 32993 00504 10268 20243 30052 40102 333 10328 29078 55103 58007;EQDQ01  00002PRCP06
0186821980999992004051712004-01717-045400FM-12+004499999V0200701N004112200019N0100001N1+02901+02501101161ADDAA106000091GF105991041021008001001011KA1240N+02501MA1999999100651MD1999999+0051REMSYN076AAXX  17124 82198 32597 50708 10290 20250 30065 40116 84201 333 20250 58005;EQDQ01  00002PRCP06
0167821980999992004051718004-01717-045400FM-12+004499999V0200501N003112200019N0100001N1+03161+02501100811ADDAA106000091GF104991041021012501001001MA1999999100301MD1999999+0041REMSYN070AAXX  17184 82198 32697 40506 10316 20250 30030 40081 84200 333 58004;EQDQ01  00002PRCP06
0208821980999992004051800004-01717-045400FM-12+004499999V0200501N002612200019N0005001N1+02661+02411101091ADDAA106000091GA1001+999999999GF100991001001999999001001KA1240M+03281MA1999999100581MD1999999+0061REMSYN082AAXX  18004 82198 32993 00505 10266 20241 30058 40109 333 10328 29080 55087 58006;EQDQ01  00002PRCP06
0186821980999992004051812004-01717-045400FM-12+004499999V0200701N003110042019N0100001N1+02961+02511101241ADDAA106000091GF106991061021004501001001KA1240N+02481MA1999999100731MD1999999+0081REMSYN076AAXX  18124 82198 32497 60706 10296 20251 30073 40124 86200 333 20248 58008;EQDQ01  00002PRCP06
0167821980999992004051818004-01717-045400FM-12+004499999V0200501N004110450019N0100001N1+03021+02461100831ADDAA106000091GF107991031071004501061011MA1999999100321MD1999999+0021REMSYN070AAXX  18184 82198 32497 70508 10302 20246 30032 40083 83761 333 58002;EQDQ01  00002PRCP06
0226821980999992004051900004-01717-045400FM-12+004499999V0200501N002612200019N0005001N1+02661+02441101261ADDAA106000091AY101061AY211061GF102991021011008001001001KA1240M+03331MA1999999100751MD1999999+0171MW1131REMSYN094AAXX  19004 82198 31593 20505 10266 20244 30075 40126 71301 82100 333 10333 29081 55068 58017;EQDQ01  00002PRCP06
0186821980999992004051912004-01717-045400FM-12+004499999V0200701N004610450019N0100001N1+02911+02461101441ADDAA106000091GF105991031021004501011011KA1240N+02531MA1999999100921MD1999999+0191REMSYN076AAXX  19124 82198 32497 50709 10291 20246 30092 40144 83211 333 20253 58019;EQDQ01  00002PRCP06
0167821980999992004051918004-01717-045400FM-12+004499999V0200701N006710042019N0100001N1+03171+02431101041ADDAA106000091GF105991051021004501001001MA1999999100531MD1999999+0211REMSYN070AAXX  19184 82198 32497 50713 10317 20243 30053 40104 85200 333 58021;EQDQ01  00002PRCP06
0226821980999992004052000004-01717-045400FM-12+004499999V0200701N003112200019N0005001N1+02671+02311101381ADDAA106000091AY101061AY211061GF102991021011008001001001KA1240M+03261MA1999999100871MD1999999+0121MW1131REMSYN094AAXX  20004 82198 31593 20706 10267 20231 30087 40138 71301 82100 333 10326 29077 55100 58012;EQDQ01  00002PRCP06
0186821980999992004052012004-01717-045400FM-12+004499999V0200701N003610450019N0100001N1+02931+02371101401ADDAA106000091GF106991031021008001041061KA1240N+02381MA1999999100981MD1999999+0061REMSYN076AAXX  20124 82198 32597 60707 10293 20237 30098 40140 83246 333 20238 58006;EQDQ01  00002PRCP06
0171821980999992004052018004-01717-045400FM-12+004499999V0201101N003110450019N0100001N1+03041+02431101131ADDAY161061AY221061GF105991031021004501041061MA1999999100621MD1999999+0091MW1211REMSYN082AAXX  20184 82198 21497 51106 10304 20243 30062 40113 72162 83246 333 58009 60021;
0207821980999992004052100004-01717-045400FM-12+004499999V0200501N003112200019N0005001N1+02621+02391101391ADDAA106000021AY101061AY211061GF103991021021008001061001KA1240M+03181MA1999999100871MD1999999+0001MW1131REMSYN094AAXX  21004 82198 31593 30506 10262 20239 30087 40139 71301 82260 333 10318 29079 55078 58000;
0190821980999992004052112004-01717-045400FM-12+004499999V0201601N003610450019N0100001N1+02471+02331101491ADDAY161061AY221061GF107991041031008001061001KA1240N+02371MA1999999100971MD1999999-0011MW1211REMSYN088AAXX  21124 82198 21597 71607 10247 20233 30097 40149 72162 84360 333 20237 59001 60174;
0171821980999992004052118004-01717-045400FM-12+004499999V0200701N002110450019N0100001N1+02831+02481101111ADDAY161061AY221061GF107991041071008001061011MA1999999100601MD1999999-0021MW1151REMSYN082AAXX  21184 82198 21597 70704 10283 20248 30060 40111 71562 84761 333 59002 60011;
0202821980999992004052200004-01717-045400FM-12+004499999V0200501N002112200019N0005001N1+02511+02401101261ADDAY161061AY221061GF104991031021008001061001KA1240M+02961MA1999999100751MD1999999-0121MW1131REMSYN100AAXX  22004 82198 21593 40504 10251 20240 30075 40126 71362 83260 333 10296 29092 55036 59012 69961;
0162821980999992004052212004-01717-045400FM-12+004499999V0200501N002110450019N0100001N1+02821+02461101241ADDGF106991031021008001031011KA1240N+02331MA1999999100731MD1999999-0241REMSYN082AAXX  22124 82198 22597 60504 10282 20246 30073 40124 83231 333 20233 59024 60024;
0171821980999992004052218004-01717-045400FM-12+004499999V0201801N005110450019N0040001N1+02581+02531101071ADDAY191061AY261061GF107991041031012501021001MA1999999100561MD1999999-0041MW1621REMSYN082AAXX  22184 82198 21696 71810 10258 20253 30056 40107 76296 84320 333 59004 60211;
0202821980999992004052300004-01717-045400FM-12+004499999V0200501N001012200019N0005001N1+02511+02451101271ADDAY161061AY221061GF102991021021008001001001KA1240M+03241MA1999999100761MD1999999+0011MW1131REMSYN100AAXX  23004 82198 21593 20502 10251 20245 30076 40127 71362 82200 333 10324 29096 55054 58001 60061;
0171821980999992004052318004-01717-045400FM-12+004499999V0203601N003610450019N0100001N1+02831+02441101111ADDAY161061AY221061GF106991041021008001061041MA1999999100601MD1999999+0041MW1211REMSYN082AAXX  23184 82198 21597 63607 10283 20244 30060 40111 72162 84264 333 58004 60071;
0202821980999992004052400004-01717-045400FM-12+004499999V0200501N003112200019N0005001N1+02591+02481101371ADDAY161061AY221061GF103991031011004501001001KA1240M+03111MA1999999100851MD1999999+0091MW1131REMSYN100AAXX  24004 82198 21493 30506 10259 20248 30085 40137 71362 83100 333 10311 29087 55072 58009 69931;
0162821980999992004052412004-01717-045400FM-12+004499999V0200701N001510450019N0100001N1+02841+02621101481ADDGF106991041021008001061001KA1240N+02371MA1999999100961MD1999999+0151REMSYN082AAXX  24124 82198 22597 60703 10284 20262 30096 40148 84260 333 20237 58015 60074;
0171821980999992004052418004-01717-045400FM-12+004499999V0200701N006210450019N0100001N1+03141+02501101121ADDAY161061AY221061GF106991041021004501061001MA1999999100611MD1999999+0011MW1021REMSYN082AAXX  24184 82198 21497 60712 10314 20250 30061 40112 70262 84260 333 58001 69941;
0226821980999992004052500004-01717-045400FM-12+004499999V0200501N003112200019N0040001N1+02661+02431101341ADDAA106000091AY121061AY211061GF103991031021008001001001KA1240M+03201MA1999999100821MD1999999+0031MW1131REMSYN094AAXX  25004 82198 31596 30506 10266 20243 30082 40134 71321 83200 333 10320 29082 55105 58003;EQDQ01  00002PRCP06
0190821980999992004052512004-01717-045400FM-12+004499999V0201401N002610450019N0100001N1+02761+02421101501ADDAY161061AY221061GF106991031021012501061001KA1240N+02451MA1999999100981MD1999999+0021MW1021REMSYN088AAXX  25124 82198 21697 61405 10276 20242 30098 40150 70262 83260 333 20245 58002 69964;
0171821980999992004052518004-01717-045400FM-12+004499999V0200701N006212200019N0100001N1+03061+02431101081ADDAY161061AY221061GF104991031021012501001011MA1999999100571MD1999999-0041MW1021REMSYN082AAXX  25184 82198 21697 40712 10306 20243 30057 40108 70262 83201 333 59004 60161;
0236821980999992004052600004-01717-045400FM-12+004499999V0200701N001512200019N0040001N1+02601+02351101291ADDAA106000091AY121061AY211061GA1001+999999999GF100991001001999999001001KA1240M+03181MA1999999100781MD1999999-0041MW1131REMSYN088AAXX  26004 82198 31996 00703 10260 20235 30078 40129 71321 333 10318 29081 55087 59004;EQDQ01  00002PRCP06
0162821980999992004052612004-01717-045400FM-12+004499999V0200901N002610120019N0100001N1+02911+02501101391ADDGF105991051021012501001001KA1240N+02271MA1999999100881MD1999999-0101REMSYN082AAXX  26124 82198 22697 50905 10291 20250 30088 40139 85200 333 20227 59010 60164;
0208821980999992004052700004-01717-045400FM-12+004499999V0200701N002612200019N0040001N1+02641+02421101271ADDAA106000091GA1001+999999999GF100991001001999999001001KA1240M+03261MA1999999100761MD1999999-0021REMSYN082AAXX  27004 82198 32996 00705 10264 20242 30076 40127 333 10326 29084 55102 59002;EQDQ01  00002PRCP06
0162821980999992004052712004-01717-045400FM-12+004499999V0200701N005112200019N0100001N1+02951+02511101311ADDGF104991041011008001001001KA1240N+02451MA1999999100801MD1999999-0081REMSYN082AAXX  27124 82198 22597 40710 10295 20251 30080 40131 84100 333 20245 59008 60024;
0167821980999992004052718004-01717-045400FM-12+004499999V0200701N004110450019N0100001N1+03201+02461100941ADDAA106000091GF106991041021012501061001MA1999999100431MD1999999-0041REMSYN070AAXX  27184 82198 32697 60708 10320 20246 30043 40094 84260 333 59004;EQDQ01  00002PRCP06
0198821980999992004052800004-01717-045400FM-12+004499999V0202701N001510450019N0040001N1+02481+02341101281ADDAA106000091GF106991041011008001061001KA1240M+03261MA1999999100761MD1999999+0001REMSYN088AAXX  28004 82198 32596 62703 10248 20234 30076 40128 84160 333 10326 29082 55077 58000;EQDQ01  00002PRCP06
0186821980999992004052812004-01717-045400FM-12+004499999V0200701N004612200019N0100001N1+02871+02461101451ADDAA106000091GF104991031011008001061001KA1240N+02411MA1999999100941MD1999999+0141REMSYN076AAXX  28124 82198 32597 40709 10287 20246 30094 40145 83160 333 20241 58014;EQDQ01  00002PRCP06
0171821980999992004052818004-01717-045400FM-12+004499999V0200701N002110450019N0100001N1+02681+02431101101ADDAY191061AY261061GF106991031071008001041011MA1999999100591MD1999999+0161MW1031REMSYN082AAXX  28184 82198 21597 60704 10268 20243 30059 40110 70396 83741 333 58016 60071;
0198821980999992004052900004-01717-045400FM-12+004499999V0200701N001510450019N0040001N1+02581+02441101341ADDAA106000091GF105991031011012501041001KA1240M+03071MA1999999100831MD1999999+0071REMSYN088AAXX  29004 82198 32696 50703 10258 20244 30083 40134 83140 333 10307 29087 55045 58007;EQDQ01  00002PRCP06
0162821980999992004052912004-01717-045400FM-12+004499999V0200701N002610450019N0100001N1+02771+02461101401ADDGF106991041011008001061001KA1240N+02471MA1999999100891MD1999999-0051REMSYN082AAXX  29124 82198 22597 60705 10277 20246 30089 40140 84160 333 20247 59005 60074;
0171821980999992004052918004-01717-045400FM-12+004499999V0200701N005710450019N0100001N1+03061+02301101041ADDAY161061AY221061GF106991031021017501061011MA1999999100531MD1999999-0061MW1021REMSYN082AAXX  29184 82198 21797 60711 10306 20230 30053 40104 70262 83261 333 59006 60011;
0162821980999992004053012004-01717-045400FM-12+004499999V0201601N003610450019N0040001N1+02731+02431101471ADDGF106991041011008001061001KA1240N+02271MA1999999100961MD1999999+0071REMSYN082AAXX  30124 82198 22596 61607 10273 20243 30096 40147 84160 333 20227 58007 60014;
0171821980999992004053018004-01717-045400FM-12+004499999V0200701N004610450019N0100001N1+03121+02361101061ADDAY161061AY221061GF105991031021012501061001MA1999999100551MD1999999+0021MW1021REMSYN082AAXX  30184 82198 21697 50709 10312 20236 30055 40106 70262 83260 333 58002 60111;
0208821980999992004053100004-01717-045400FM-12+004499999V0200501N002612200019N0040001N1+02621+02351101261ADDAA106000091GA1001+999999999GF100991001001999999001001KA1240M+03181MA1999999100751MD1999999-0091REMSYN082AAXX  31004 82198 32996 00505 10262 20235 30075 40126 333 10318 29080 55077 59009;EQDQ01  00002PRCP06
0162821980999992004053112004-01717-045400FM-12+004499999V02099999999990450019N0100001N1+02541+02231101441ADDGF106991021021012501061001KA1240N+02251MA1999999100931MD1999999-0031REMSYN082AAXX  31124 82198 22697 6//// 10254 20223 30093 40144 82260 333 20225 59003 60114;
0171821980999992004053118004-01717-045400FM-12+004499999V02099999999990450019N0100001N1+02611+02481101141ADDAY191061AY261061GF106991031031012501061071MA1999999100631MD1999999+0081MW1021REMSYN082AAXX  31184 82198 21697 6//// 10261 20248 30063 40114 70296 83367 333 58008 60141;
0198821980999992004060100004-01717-045400FM-12+004499999V02099999999992200019N0040001N1+02451+02301101291ADDAA106000091GF102991021001012501061001KA1240M+03161MA1999999100781MD1999999+0031REMSYN088AAXX  01004 82198 32696 2//// 10245 20230 30078 40129 82060 333 10316 29090 55035 58003;EQDQ01  00002PRCP06
0162821980999992004060112004-01717-045400FM-12+004499999V02099999999990450019N0100001N1+02831+02521101471ADDGF105991031011004501031011KA1240N+02271MA1999999100951MD1999999+0021REMSYN082AAXX  01124 82198 22497 5//// 10283 20252 30095 40147 83131 333 20227 58002 60144;
0171821980999992004060118004-01717-045400FM-12+004499999V02099999999990450019N0100001N1+02631+02461101091ADDAY161061AY221061GF105991031021008001011001MA1999999100581MD1999999-0051MW1211REMSYN082AAXX  01184 82198 21597 5//// 10263 20246 30058 40109 72162 83210 333 59005 60131;
0207821980999992004060200004-01717-045400FM-12+004499999V02099999999992200019N0040001N1+02551+02441101371ADDAA106000021AY121061AY211061GF103991021011004501001061KA1240M+03171MA1999999100851MD1999999+0101MW1131REMSYN094AAXX  02004 82198 31496 3//// 10255 20244 30085 40137 71321 82106 333 10317 29090 55060 58010;
0190821980999992004060212004-01717-045400FM-12+004499999V02099999999990450019N0100001N1+02801+02461101421ADDAY161061AY221061GF106991031021008001031011KA1240N+02361MA1999999100901MD1999999-0051MW1031REMSYN088AAXX  02124 82198 21597 6//// 10280 20246 30090 40142 70362 83231 333 20236 59005 60134;
0171821980999992004060218004-01717-045400FM-12+004499999V02099999999990450019N0040001N1+02901+02431101121ADDAY161061AY221061GF106991031021008001011041MA1999999100611MD1999999+0031MW1021REMSYN082AAXX  02184 82198 21596 6//// 10290 20243 30061 40112 70262 83214 333 58003 69921;
0198821980999992004060300004-01717-045400FM-12+004499999V02099999999992200019N0040001N1+02581+02381101401ADDAA106000091GF106991041011004501001011KA1240M+03131MA1999999100881MD1999999+0031REMSYN088AAXX  03004 82198 32496 6//// 10258 20238 30088 40140 84101 333 10313 29084 55075 58003;EQDQ01  00002PRCP06
0162821980999992004060312004-01717-045400FM-12+004499999V0200901N004110450019N0100001N1+02791+02421101481ADDGF106991031021008001011011KA1240N+02151MA1999999100961MD1999999+0061REMSYN082AAXX  03124 82198 22597 60908 10279 20242 30096 40148 83211 333 20215 58006 69924;
0167821980999992004060318004-01717-045400FM-12+004499999V0200701N004610450019N0100001N1+03181+02261101191ADDAA106000091GF106991031021008001011011MA1999999100681MD1999999+0071REMSYN070AAXX  03184 82198 32597 60709 10318 20226 30068 40119 83211 333 58007;EQDQ01  00002PRCP06
0230821980999992004060400004-01717-045400FM-12+004499999V0200701N001019999999N0040001N1+02621+02411101421ADDAA106000091GF106991999001017501011001KA1240M+99999MA1999999100901MD1999999+0021REMSYN088AAXX  04004 82198 32796 60702 10262 20241 30090 40142 82010 333 11032 29079 55102 58002;EQDQ01+000022SCOTLCQ02  00002PRCP06Q03 -00322ATMX  
0186821980999992004060412004-01717-045400FM-12+004499999V0200501N002610450019N0100001N1+02881+02411101461ADDAA106000091GF106991031011008001011011KA1240N+02401MA1999999100941MD1999999-0021REMSYN076AAXX  04124 82198 32597 60505 10288 20241 30094 40146 83111 333 20240 59002;EQDQ01  00002PRCP06
0167821980999992004060418004-01717-045400FM-12+004499999V0203601N005110450019N0100001N1+03071+02271101091ADDAA106000091GF106991031021008001011001MA1999999100581MD1999999-0101REMSYN070AAXX  04184 82198 32597 63610 10307 20227 30058 40109 83210 333 59010;EQDQ01  00002PRCP06
0186821980999992004060512004-01717-045400FM-12+004499999V0200501N002610450019N0100001N1+02831+02401101331ADDAA106000091GF105991031021008001031011KA1240N+02481MA1999999100811MD1999999-0131REMSYN076AAXX  05124 82198 32597 50505 10283 20240 30081 40133 83231 333 20248 59013;EQDQ01  00002PRCP06
0171821980999992004060518004-01717-045400FM-12+004499999V0200901N002610450019N0100001N1+02771+02541101171ADDAY161061AY221061GF106991031021008001011011MA1999999100661MD1999999+0081MW1031REMSYN082AAXX  05184 82198 21597 60905 10277 20254 30066 40117 70362 83211 333 58008 60251;
0198821980999992004060600004-01717-045400FM-12+004499999V0200901N002110450019N0040001N1+02551+02461101261ADDAA106000091GF105991031021008001041011KA1240M+02951MA1999999100751MD1999999-0041REMSYN088AAXX  06004 82198 32596 50904 10255 20246 30075 40126 83241 333 10295 29087 55023 59004;EQDQ01  00002PRCP06
0167821980999992004060618004-01717-045400FM-12+004499999V0200701N004610450019N0100001N1+03121+02331101091ADDAA106000091GF105991031021008001011011MA1999999100581MD1999999-0081REMSYN070AAXX  06184 82198 32597 50709 10312 20233 30058 40109 83211 333 59008;EQDQ01  00002PRCP06
0198821980999992004060700004-01717-045400FM-12+004499999V0200901N003612200019N0040001N1+02631+02371101381ADDAA106000091GF101991011001022501001011KA1240M+03221MA1999999100861MD1999999+0111REMSYN088AAXX  07004 82198 32896 10907 10263 20237 30086 40138 81001 333 10322 29080 55104 58011;EQDQ01  00002PRCP06
0186821980999992004060712004-01717-045400FM-12+004499999V0201101N003612200019N0100001N1+02691+02331101541ADDAA106000091GF104991021021008001041061KA1240N+02401MA1999999101021MD1999999+0211REMSYN076AAXX  07124 82198 32597 41107 10269 20233 30102 40154 82246 333 20240 58021;EQDQ01  00002PRCP06
0195821980999992004060718004-01717-045400FM-12+004499999V0201601N006710450019N0100001N1+02801+02311101241ADDAA106000091AY161061AY221061GF105991031021008001061001MA1999999100731MD1999999+0151MW1151REMSYN076AAXX  07184 82198 31597 51613 10280 20231 30073 40124 71562 83260 333 58015;EQDQ01  00002PRCP06
0198821980999992004060800004-01717-045400FM-12+004499999V0200501N001512200019N0005001N1+02561+02271101411ADDAA106000091GF102991021021008001001001KA1240M+03161MA1999999100891MD1999999+0031REMSYN088AAXX  08004 82198 32593 20503 10256 20227 30089 40141 82200 333 10316 29082 55103 58003;EQDQ01  00002PRCP06
0186821980999992004060812004-01717-045400FM-12+004499999V0201101N003610075019N0100001N1+02811+02361101491ADDAA106000091GF106991061021008001001001KA1240N+02401MA1999999100981MD1999999-0041REMSYN076AAXX  08124 82198 32597 61107 10281 20236 30098 40149 86200 333 20240 59004;EQDQ01  00002PRCP06
0171821980999992004060818004-01717-045400FM-12+004499999V0201101N005110450019N0100001N1+03071+02371101211ADDAY161061AY221061GF106991031021012501041011MA1999999100701MD1999999-0031MW1151REMSYN082AAXX  08184 82198 21697 61110 10307 20237 30070 40121 71562 83241 333 59003 60021;
0198821980999992004060900004-01717-045400FM-12+004499999V0200701N001512200019N0005001N1+02441+02281101491ADDAA106000091GF103991031001012501061001KA1240M+03091MA1999999100981MD1999999+0091REMSYN088AAXX  09004 82198 32693 30703 10244 20228 30098 40149 83060 333 10309 29081 55078 58009;EQDQ01  00002PRCP06
0162821980999992004060912004-01717-045400FM-12+004499999V0201401N003110450019N0100001N1+02701+02301101591ADDGF106991041051012501041001KA1240N+02411MA1999999101081MD1999999-0101REMSYN082AAXX  09124 82198 22697 61406 10270 20230 30108 40159 84540 333 20241 59010 60024;
0171821980999992004060918004-01717-045400FM-12+004499999V0201101N005712200019N0100001N1+03051+02201101231ADDAY161061AY221061GF102991021011012501001001MA1999999100721MD1999999+0021MW1011REMSYN082AAXX  09184 82198 21697 21111 10305 20220 30072 40123 70162 82100 333 58002 60011;
0208821980999992004061000004-01717-045400FM-12+004499999V0200701N003112200019N0005001N1+02621+02351101461ADDAA106000091GA1001+999999999GF100991001001999999001001KA1240M+03081MA1999999100941MD1999999-0041REMSYN082AAXX  10004 82198 32993 00706 10262 20235 30094 40146 333 10308 29078 55089 59004;EQDQ01  00002PRCP06
0162821980999992004061012004-01717-045400FM-12+004499999V0201101N004612200019N0100001N1+02891+02321101491ADDGF103991011011012501061001KA1240N+02461MA1999999100981MD1999999-0101REMSYN082AAXX  10124 82198 22697 31109 10289 20232 30098 40149 81160 333 20246 59010 60014;
0171821980999992004061018004-01717-045400FM-12+004499999V0200901N005112200019N0100001N1+02991+02331101131ADDAY161061AY221061GF105991031021008001001011MA1999999100621MD1999999-0101MW1021REMSYN082AAXX  10184 82198 21597 50910 10299 20233 30062 40113 70262 83201 333 59010 60061;
0162821980999992004061112004-01717-045400FM-12+004499999V0200701N004110075019N0100001N1+02901+02431101531ADDGF105991051021008001001001KA1240N+02431MA1999999101021MD1999999+0041REMSYN082AAXX  11124 82198 22597 50708 10290 20243 30102 40153 85200 333 20243 58004 60064;
0167821980999992004061118004-01717-045400FM-12+004499999V0200901N004112200019N0100001N1+03121+02331101271ADDAA106000091GF104991041021012501001001MA1999999100761MD1999999+0141REMSYN070AAXX  11184 82198 32697 40908 10312 20233 30076 40127 84200 333 58014;EQDQ01  00002PRCP06
0208821980999992004061200004-01717-045400FM-12+004499999V0200701N002112200019N0005001N1+02601+02351101531ADDAA106000091GA1001+999999999GF100991001001999999001001KA1240M+03201MA1999999101011MD1999999+0111REMSYN082AAXX  12004 82198 32993 00704 10260 20235 30101 40153 333 10320 29078 55108 58011;EQDQ01  00002PRCP06
0190821980999992004061212004-01717-045400FM-12+004499999V0201101N002110450019N0100001N1+02541+02311101741ADDAY121061AY201061GF106991031021012501061001KA1240N+02251MA1999999101221MD1999999+0201MW1211REMSYN088AAXX  12124 82198 21697 61104 10254 20231 30122 40174 72120 83260 333 20225 58020 69984;
0171821980999992004061218004-01717-045400FM-12+004499999V0200701N003612200019N0100001N1+03021+02311101411ADDAY161061AY221061GF104991021021012501061001MA1999999100901MD1999999+0141MW1021REMSYN082AAXX  12184 82198 21697 40707 10302 20231 30090 40141 70262 82260 333 58014 69951;
0202821980999992004061300004-01717-045400FM-12+004499999V0200201N001510450019N0005001N1+02431+02231101611ADDAY161061AY221061GF105991031051012501061001KA1240M+03061MA1999999101091MD1999999+0081MW1021REMSYN100AAXX  13004 82198 21693 50203 10243 20223 30109 40161 70262 83560 333 10306 29083 55087 58008 60041;
0162821980999992004061312004-01717-045400FM-12+004499999V0200901N001010450019N0100001N1+02741+02521101561ADDGF105991021021012501061001KA1240N+02271MA1999999101041MD1999999-0181REMSYN082AAXX  13124 82198 22697 50902 10274 20252 30104 40156 82260 333 20227 59018 60054;
0202821980999992004061400004-01717-045400FM-12+004499999V0209999C000010450019N0005001N1+02401+02311101481ADDAY161061AY221061GF105991031051012501061001KA1240M+03091MA1999999100961MD1999999-0131MW1151REMSYN100AAXX  14004 82198 21693 50000 10240 20231 30096 40148 71562 83560 333 10309 29088 55050 59013 60121;
0162821980999992004061412004-01717-045400FM-12+004499999V0201101N001012200019N0100001N1+02701+02451101581ADDGF104991011011012501061001KA1240N+02261MA1999999101071MD1999999+0031REMSYN082AAXX  14124 82198 22697 41102 10270 20245 30107 40158 81160 333 20226 58003 60164;
0171821980999992004061418004-01717-045400FM-12+004499999V0200701N001010450019N0100001N1+02511+02381101241ADDAY191061AY261061GF107991031021012501041001MA1999999100731MD1999999+0061MW1031REMSYN082AAXX  14184 82198 21697 70702 10251 20238 30073 40124 70396 83240 333 58006 60351;
0198821980999992004061500004-01717-045400FM-12+004499999V0202301N001512200019N0005001N1+02421+02331101481ADDAA106000091GF103991031001012501061001KA1240M+02921MA1999999100971MD1999999+0011REMSYN088AAXX  15004 82198 32693 32303 10242 20233 30097 40148 83060 333 10292 29092 55040 58001;EQDQ01  00002PRCP06
0190821980999992004061512004-01717-045400FM-12+004499999V0201401N002610450019N0100001N1+02701+02461101581ADDAY161061AY221061GF106991031021008001011011KA1240N+02231MA1999999101061MD1999999-0011MW1031REMSYN088AAXX  15124 82198 21597 61405 10270 20246 30106 40158 70362 83211 333 20223 59001 60394;
0171821980999992004061518004-01717-045400FM-12+004499999V0200901N004110450019N0040001N1+02661+02431101301ADDAY161061AY221061GF107991041051008001021001MA1999999100791MD1999999+0061MW1601REMSYN082AAXX  15184 82198 21596 70908 10266 20243 30079 40130 76062 84520 333 58006 60031;
0183821980999992004061600004-01717-045400FM-12+004499999V0200901N003112200019N0005001N1+02531+02341101521ADDAY161061AY231061GA1001+999999999GF100991001001999999001001MA1999999101001MW1001REMSYN092AAXX  16004 82198 21993 00906 10253 20234 30100 40152 7006333 10297 29089 55045 58003 69941;
0162821980999992004061612004-01717-045400FM-12+004499999V0200901N004610450019N0100001N1+02841+02381101441ADDGF106991031011004501011011KA1240N+02361MA1999999100921MD1999999-0141REMSYN082AAXX  16124 82198 22497 60909 10284 20238 30092 40144 83111 333 20236 59014 60034;
0167821980999992004061618004-01717-045400FM-12+004499999V0200701N005712200019N0100001N1+03071+02051101201ADDAA106000091GF105991031021008001001011MA1999999100691MD1999999-0101REMSYN070AAXX  16184 82198 32597 50711 10307 20205 30069 40120 83201 333 59010;EQDQ01  00002PRCP06
0208821980999992004061700004-01717-045400FM-12+004499999V0200701N002112200019N0005001N1+02561+02291101411ADDAA106000091GA1001+999999999GF100991001001999999001001KA1240M+03151MA1999999100891MD1999999-0111REMSYN082AAXX  17004 82198 32993 00704 10256 20229 30089 40141 333 10315 29076 55106 59011;EQDQ01  00002PRCP06
0186821980999992004061712004-01717-045400FM-12+004499999V0200901N004610042019N0100001N1+02841+02401101471ADDAA106000091GF105991051021004501001001KA1240N+02391MA1999999100951MD1999999+0031REMSYN076AAXX  17124 82198 32497 50909 10284 20240 30095 40147 85200 333 20239 58003;EQDQ01  00002PRCP06
0171821980999992004061718004-01717-045400FM-12+004499999V0200901N005112200019N0100001N1+03071+02271101141ADDAY161061AY221061GF106991031021008001001061MA1999999100631MD1999999-0061MW1031REMSYN082AAXX  17184 82198 21597 60910 10307 20227 30063 40114 70362 83206 333 59006 69941;
0226821980999992004061800004-01717-045400FM-12+004499999V0200501N002112200019N0005001N1+02621+02411101451ADDAA106000091AY121061AY211061GF103991021021008001061001KA1240M+03161MA1999999100931MD1999999+0041MW1131REMSYN094AAXX  18004 82198 31593 30504 10262 20241 30093 40145 71321 82260 333 10316 29080 55093 58004;EQDQ01  00002PRCP06
0190821980999992004061812004-01717-045400FM-12+004499999V0201401N002610450019N0100001N1+02421+02321101691ADDAY161061AY221061GF107991031031008001061001KA1240N+02381MA1999999101171MD1999999+0221MW1211REMSYN088AAXX  18124 82198 21597 71405 10242 20232 30117 40169 72162 83360 333 20238 58022 60014;
0171821980999992004061818004-01717-045400FM-12+004499999V0200201N001010450019N0100001N1+02441+02351101351ADDAY191061AY261061GF107991031071008001011011MA1999999100831MD1999999+0201MW1211REMSYN082AAXX  18184 82198 21597 70202 10244 20235 30083 40135 72196 83711 333 58020 60061;
0207821980999992004061900004-01717-045400FM-12+004499999V0200901N003112200019N0005001N1+02501+02401101571ADDAA106000021AY111061AY221061GF103991021021008001061001KA1240M+02911MA1999999101051MD1999999+0121MW1131REMSYN094AAXX  19004 82198 31593 30906 10250 20240 30105 40157 71312 82260 333 10291 29094 55021 58012;
0162821980999992004061912004-01717-045400FM-12+004499999V0201601N002110450019N0100001N1+02611+02311101511ADDGF106991031021008001061011KA1240N+02361MA1999999100991MD1999999-0181REMSYN082AAXX  19124 82198 22597 61604 10261 20231 30099 40151 83261 333 20236 59018 60064;
0171821980999992004061918004-01717-045400FM-12+004499999V02099999999990450019N0100001N1+02831+02291101391ADDAY161061AY221061GF106991031021008001041041MA1999999100871MD1999999+0041MW1021REMSYN082AAXX  19184 82198 21597 6//// 10283 20229 30087 40139 70262 83244 333 58004 60061;
0208821980999992004062000004-01717-045400FM-12+004499999V02099999999992200019N0005001N1+02501+02321101651ADDAA106000091GA1001+999999999GF100991001001999999001001KA1240M+02911MA1999999101131MD1999999+0081REMSYN082AAXX  20004 82198 32993 0//// 10250 20232 30113 40165 333 10291 29084 55067 58008;EQDQ01  00002PRCP06
0162821980999992004062012004-01717-045400FM-12+004499999V0201401N003610450019N0100001N1+02551+02421101571ADDGF107991031071008001061001KA1240N+02201MA1999999101051MD1999999+0061REMSYN082AAXX  20124 82198 22597 71407 10255 20242 30105 40157 83760 333 20220 58006 60064;
0167821980999992004062018004-01717-045400FM-12+004499999V0200901N004610075019N0100001N1+02941+02291101211ADDAA106000091GF106991061021008001001001MA1999999100701MD1999999-0171REMSYN070AAXX  20184 82198 32597 60909 10294 20229 30070 40121 86200 333 59017;EQDQ01  00002PRCP06
0208821980999992004062100004-01717-045400FM-12+004499999V0200901N003112200019N0005001N1+02591+02371101471ADDAA106000091GA1001+999999999GF100991001001999999001001KA1240M+03021MA1999999100951MD1999999+0181REMSYN082AAXX  21004 82198 32993 00906 10259 20237 30095 40147 333 10302 29083 55081 58018;EQDQ01  00002PRCP06
0190821980999992004062112004-01717-045400FM-12+004499999V0200901N003610450019N0100001N1+02621+02411101481ADDAY161061AY221061GF105991031021008001061001KA1240N+02311MA1999999100961MD1999999-0091MW1031REMSYN088AAXX  21124 82198 21597 50907 10262 20241 30096 40148 70362 83260 333 20231 59009 60024;
0171821980999992004062118004-01717-045400FM-12+004499999V0201101N004610450019N0100001N1+02971+02291101191ADDAY161061AY221061GF106991031021008001041041MA1999999100681MD1999999-0021MW1031REMSYN082AAXX  21184 82198 21597 61109 10297 20229 30068 40119 70362 83244 333 59002 60031;
0202821980999992004062200004-01717-045400FM-12+004499999V0200701N002112200019N0005001N1+02451+02281101461ADDAY161061AY221061GF103991021021008001061001KA1240M+03091MA1999999100941MD1999999-0011MW1011REMSYN100AAXX  22004 82198 21593 30704 10245 20228 30094 40146 70162 82260 333 10309 29085 55086 59001 60011;
0190821980999992004062212004-01717-045400FM-12+004499999V0201601N002610120019N0100001N1+02371+02291101681ADDAY191061AY261061GF108991061051012501041999KA1240N+02281MA1999999101171MD1999999+0211MW1201REMSYN088AAXX  22124 82198 21697 81605 10237 20229 30117 40168 72096 8654/ 333 20228 58021 60164;
0171821980999992004062218004-01717-045400FM-12+004499999V0200501N001510450019N0100001N1+02871+02371101371ADDAY161061AY221061GF106991031071012501041001MA1999999100861MD1999999+0181MW1021REMSYN082AAXX  22184 82198 21697 60503 10287 20237 30086 40137 70262 83740 333 58018 69931;
0208821980999992004062300004-01717-045400FM-12+004499999V0200901N002112200019N0020001N1+02521+02311101571ADDAA106000091GA1001+999999999GF100991001001999999001001KA1240M+03061MA1999999101051MD1999999+0111REMSYN082AAXX  23004 82198 32995 00904 10252 20231 30105 40157 333 10306 29086 55049 58011;EQDQ01  00002PRCP06
0162821980999992004062312004-01717-045400FM-12+004499999V0201401N002110450019N0100001N1+02701+02391101581ADDGF105991041011008001061001KA1240N+02171MA1999999101071MD1999999-0101REMSYN082AAXX  23124 82198 22597 51404 10270 20239 30107 40158 84160 333 20217 59010 69934;
0186821980999992004062412004-01717-045400FM-12+004499999V0200901N004112200019N0100001N1+02851+02441101481ADDAA106000091GF103991031021012501001001KA1240N+02391MA1999999100971MD1999999-0101REMSYN076AAXX  24124 82198 32697 30908 10285 20244 30097 40148 83200 333 20239 59010;EQDQ01  00002PRCP06
0171821980999992004062418004-01717-045400FM-12+004499999V0200701N005112200019N0100001N1+03051+02331101111ADDAY161061AY221061GF104991041021012501001001MA1999999100601MD1999999-0161MW1021REMSYN082AAXX  24184 82198 21697 40710 10305 20233 30060 40111 70262 84200 333 59016 69951;
0208821980999992004062500004-01717-045400FM-12+004499999V0200701N002612200019N0020001N1+02561+02331101381ADDAA106000091GA1001+999999999GF100991001001999999001001KA1240M+03211MA1999999100871MD1999999-0061REMSYN082AAXX  25004 82198 32995 00705 10256 20233 30087 40138 333 10321 29080 55095 59006;EQDQ01  00002PRCP06
0162821980999992004062512004-01717-045400FM-12+004499999V0200901N003610120019N0100001N1+02841+02421101411ADDGF105991051021012501001001KA1240N+02401MA1999999100901MD1999999-0071REMSYN082AAXX  25124 82198 22697 50907 10284 20242 30090 40141 85200 333 20240 59007 69954;
0171821980999992004062518004-01717-045400FM-12+004499999V0200901N006212200019N0100001N1+02911+02271101021ADDAY161061AY221061GF104991041021012501001001MA1999999100511MD1999999-0091MW1021REMSYN082AAXX  25184 82198 21697 40912 10291 20227 30051 40102 70262 84200 333 59009 69931;
0208821980999992004062600004-01717-045400FM-12+004499999V0200701N002612200019N0040001N1+02581+02401101321ADDAA106000091GA1001+999999999GF100991001001999999001001KA1240M+03141MA1999999100801MD1999999-0071REMSYN082AAXX  26004 82198 32996 00705 10258 20240 30080 40132 333 10314 29082 55104 59007;EQDQ01  00002PRCP06
0162821980999992004062612004-01717-045400FM-12+004499999V0200901N005710450019N0100001N1+02781+02381101391ADDGF106991031021012501061001KA1240N+02421MA1999999100881MD1999999-0021REMSYN082AAXX  26124 82198 22697 60911 10278 20238 30088 40139 83260 333 20242 59002 69934;
0167821980999992004062618004-01717-045400FM-12+004499999V0200701N004612200019N0100001N1+03071+02371101091ADDAA106000091GF104991041021012501001001MA1999999100581MD1999999+0071REMSYN070AAXX  26184 82198 32697 40709 10307 20237 30058 40109 84200 333 58007;EQDQ01  00002PRCP06
0186821980999992004062712004-01717-045400FM-12+004499999V0200701N004110450019N0100001N1+02791+02421101391ADDAA106000091GF107991041021012501061001KA1240N+02421MA1999999100881MD1999999+0001REMSYN076AAXX  27124 82198 32697 70708 10279 20242 30088 40139 84260 333 20242 58000;EQDQ01  00002PRCP06
0171821980999992004062718004-01717-045400FM-12+004499999V0200901N002610450019N0100001N1+02681+02411101081ADDAY161061AY221061GF106991041051012501041001MA1999999100571MD1999999-0011MW1021REMSYN082AAXX  27184 82198 21697 60905 10268 20241 30057 40108 70262 84540 333 59001 60051;
0202821980999992004062800004-01717-045400FM-12+004499999V0201101N001510450019N0040001N1+02571+02381101371ADDAY161061AY221061GF106991041071008001041001KA1240M+02861MA1999999100851MD1999999-0021MW1021REMSYN100AAXX  28004 82198 21596 61103 10257 20238 30085 40137 70262 84740 333 10286 29028 55004 59002 60021;
0162821980999992004062812004-01717-045400FM-12+004499999V0200701N001510120019N0100001N1+02791+02501101361ADDGF106991061021012501001001KA1240N+02231MA1999999100851MD1999999+0041REMSYN082AAXX  28124 82198 22697 60703 10279 20250 30085 40136 86200 333 20223 58004 60074;
0171821980999992004062818004-01717-045400FM-12+004499999V0200501N001510450019N0040001N1+02821+02421101081ADDAY161061AY221061GF106991031071008001021001MA1999999100571MD1999999+0071MW1161REMSYN082AAXX  28184 82198 21596 60503 10282 20242 30057 40108 71662 83720 333 58007 60101;
0202821980999992004062900004-01717-045400FM-12+004499999V0200901N002110450019N0020001N1+02531+02381101341ADDAY161061AY221061GF107991031011012501061001KA1240M+03081MA1999999100831MD1999999-0021MW1021REMSYN100AAXX  29004 82198 21695 70904 10253 20238 30083 40134 70262 83160 333 10308 29087 55067 59002 60011;
0162821980999992004062912004-01717-045400FM-12+004499999V0200901N002110450019N0100001N1+02781+02281101461ADDGF105991031021004501041091KA1240N+02431MA1999999100941MD1999999+0021REMSYN082AAXX  29124 82198 22497 50904 10278 20228 30094 40146 83249 333 20243 58002 60124;
0167821980999992004062918004-01717-045400FM-12+004499999V0200901N004612200019N0100001N1+03061+02271101131ADDAA106000091GF104991041011004501001001MA1999999100621MD1999999+0051REMSYN070AAXX  29184 82198 32497 40909 10306 20227 30062 40113 84100 333 58005;EQDQ01  00002PRCP06
0186821980999992004063012004-01717-045400FM-12+004499999V0200701N002610450019N0100001N1+02831+02461101391ADDAA106000091GF106991031021004501061001KA1240N+02411MA1999999100871MD1999999-0071REMSYN076AAXX  30124 82198 32497 60705 10283 20246 30087 40139 83260 333 20241 59007;EQDQ01  00002PRCP06
0171821980999992004063018004-01717-045400FM-12+004499999V0200901N006210450019N0100001N1+03051+02241101091ADDAY161061AY221061GF106991031021008001011011MA1999999100581MD1999999-0041MW1211REMSYN082AAXX  30184 82198 21597 60912 10305 20224 30058 40109 72162 83211 333 59004 60041;
0190821980999992004070112004-01717-045400FM-12+004499999V0201601N004110450019N0100001N1+02471+02261101391ADDAY161061AY221061GF107991031021008001041041KA1240N+02351MA1999999100871MD1999999+0001MW1621REMSYN088AAXX  01124 82198 21597 71608 10247 20226 30087 40139 76262 83244 333 20235 58000 60094;
0171821980999992004070118004-01717-045400FM-12+004499999V0200901N002110450019N0100001N1+02781+02481101141ADDAY161061AY221061GF106991031051008001041091MA1999999100631MD1999999+0051MW1211REMSYN082AAXX  01184 82198 21597 60904 10278 20248 30063 40114 72162 83549 333 58005 69941;
0179821980999992004070200004-01717-045400FM-12+004499999V0200701N003110450019N0040001N1+02521+02151101301ADDAA106000021GF106991031021008001041061KA1240M+02931MA1999999100791MD1999999-0031REMSYN088AAXX  02004 82198 32596 60706 10252 20215 30079 40130 83246 333 10293 29084 55057 59003;
0167821980999992004070218004-01717-045400FM-12+004499999V0200901N005110450019N0100001N1+02941+02331101061ADDAA106000091GF107991041071008001061041MA1999999100551MD1999999-0081REMSYN070AAXX  02184 82198 32597 70910 10294 20233 30055 40106 84764 333 59008;EQDQ01  00002PRCP06
0198821980999992004070300004-01717-045400FM-12+004499999V0200701N003110450019N0040001N1+02591+02251101271ADDAA106000091GF107991031071008001061001KA1240M+03101MA1999999100761MD1999999-0031REMSYN088AAXX  03004 82198 32596 70706 10259 20225 30076 40127 83760 333 10310 29076 55050 59003;EQDQ01  00002PRCP06
0186821980999992004070312004-01717-045400FM-12+004499999V0200701N003110450019N0100001N1+02841+02421101271ADDAA106000091GF106991031021008001061011KA1240N+02431MA1999999100761MD1999999-0091REMSYN076AAXX  03124 82198 32597 60706 10284 20242 30076 40127 83261 333 20243 59009;EQDQ01  00002PRCP06
0171821980999992004070318004-01717-045400FM-12+004499999V0200701N005110450019N0100001N1+03121+02251101031ADDAY151061AY221061GF106991031021008001061001MA1999999100521MD1999999-0031MW1021REMSYN082AAXX  03184 82198 21597 60710 10312 20225 30052 40103 70252 83260 333 59003 69921;
0190821980999992004070412004-01717-045400FM-12+004499999V0201101N004610450019N0100001N1+02471+02261101401ADDAY161061AY221061GF107991041071008001021001KA1240N+02431MA1999999100881MD1999999+0121MW1631REMSYN088AAXX  04124 82198 21597 71109 10247 20226 30088 40140 76362 84720 333 20243 58012 60014;
0171821980999992004070418004-01717-045400FM-12+004499999V0201101N005110450019N0100001N1+02421+02321101181ADDAY161061AY221061GF107991041031004501021001MA1999999100671MD1999999+0151MW1631REMSYN082AAXX  04184 82198 21497 71110 10242 20232 30067 40118 76362 84320 333 58015 60031;
0202821980999992004070500004-01717-045400FM-12+004499999V0201101N002610450019N0040001N1+02381+02221101291ADDAY161061AY221061GF107991041021008001031011KA1240M+02961MA1999999100781MD1999999+0031MW1021REMSYN100AAXX  05004 82198 21596 71105 10238 20222 30078 40129 70262 84231 333 10296 29092 55003 58003 60031;
0190821980999992004070512004-01717-045400FM-12+004499999V0200701N001512200019N0100001N1+02611+02421101401ADDAY161061AY241061GF101991011011004501001001KA1240N+02101MA1999999100981MD1999999+0101MW1601REMSYN088AAXX  05124 82198 21497 10703 10261 20242 30098 40140 76064 81100 333 20210 58010 60064;
0148821980999992004070518004-01717-045400FM-12+004499999V0200901N003110042019N0100001N1+03051+02221101261ADDAA106000021GF105991051021004501001001MA1999999100751MD1999999+0081REMSYN070AAXX  05184 82198 32497 50906 10305 20222 30075 40126 85200 333 58008;
0208821980999992004070600004-01717-045400FM-12+004499999V0200701N002612200019N0040001N1+02571+02311101401ADDAA106000091GA1001+999999999GF100991001001999999001001KA1240M+03191MA1999999100891MD1999999+0111REMSYN082AAXX  06004 82198 32996 00705 10257 20231 30089 40140 333 10319 29080 55096 58011;EQDQ01  00002PRCP06
0186821980999992004070612004-01717-045400FM-12+004499999V0200901N003110120019N0100001N1+02771+02421101401ADDAA106000091GF105991051021012501001001KA1240N+02321MA1999999100891MD1999999-0091REMSYN076AAXX  06124 82198 32697 50906 10277 20242 30089 40140 85200 333 20232 59009;EQDQ01  00002PRCP06
0171821980999992004070618004-01717-045400FM-12+004499999V0200701N003610450019N0100001N1+02961+02311101061ADDAY161061AY221061GF106991031071012501061001MA1999999100551MD1999999-0201MW1151REMSYN082AAXX  06184 82198 21697 60707 10296 20231 30055 40106 71562 83760 333 59020 60011;
0208821980999992004070700004-01717-045400FM-12+004499999V0200701N001512200019N0020001N1+02561+02361101261ADDAA106000091GA1001+999999999GF100991001001999999001001KA1240M+03141MA1999999100741MD1999999-0151REMSYN082AAXX  07004 82198 32995 00703 10256 20236 30074 40126 333 10314 29082 55064 59015;EQDQ01  00002PRCP06
0162821980999992004070712004-01717-045400FM-12+004499999V0200701N003610450019N0100001N1+02851+02401101251ADDGF105991041011008001061001KA1240N+02401MA1999999100741MD1999999-0151REMSYN082AAXX  07124 82198 22597 50707 10285 20240 30074 40125 84160 333 20240 59015 60014;
0171821980999992004070718004-01717-045400FM-12+004499999V0202901N001510120019N0040001N1+02451+02341100891ADDAY191061AY261061GF107991051051012501021001MA1999999100381MD1999999-0171MW1291REMSYN082AAXX  07184 82198 21696 72903 10245 20234 30038 40089 72996 85520 333 59017 60071;
0198821980999992004070800004-01717-045400FM-12+004499999V0200701N001512200019N0020001N1+02541+02381101161ADDAA106000091GF104991031071012501041001KA1240M+03121MA1999999100641MD1999999-0101REMSYN088AAXX  08004 82198 32695 40703 10254 20238 30064 40116 83740 333 10312 29088 55059 59010;EQDQ01  00002PRCP06
0190821980999992004070812004-01717-045400FM-12+004499999V0201801N003110450019N0040001N1+02271+02181101341ADDAY191061AY261061GF108991041041012501021999KA1240N+02201MA1999999100831MD1999999+0091MW1211REMSYN088AAXX  08124 82198 21696 81806 10227 20218 30083 40134 72196 8442/ 333 20220 58009 60194;
0181821980999992004070912004-01717-045400FM-12+004499999V0200701N004610075019N0100001N1+02821+02401101281ADDGF106991999021008001001001KA1240N+02251MA1999999100771MD1999999-0061REMSYN082AAXX  09124 82198 22597 60709 10282 20240 30077 40128 85200 333 20225 59006 60144;EQDQ01+000052SCOTLC
0167821980999992004070918004-01717-045400FM-12+004499999V0200701N006712200019N0100001N1+03061+02221101011ADDAA106000091GF104991041021012501001001MA1999999100501MD1999999-0141REMSYN070AAXX  09184 82198 32697 40713 10306 20222 30050 40101 84200 333 59014;EQDQ01  00002PRCP06
0208821980999992004071000004-01717-045400FM-12+004499999V0200501N002612200019N0005001N1+02541+02311101201ADDAA106000091GA1001+999999999GF100991001001999999001001KA1240M+03141MA1999999100691MD1999999-0031REMSYN082AAXX  10004 82198 32993 00505 10254 20231 30069 40120 333 10314 29078 55094 59003;EQDQ01  00002PRCP06
0186821980999992004071012004-01717-045400FM-12+004499999V0200701N004112200019N0100001N1+02841+02331101381ADDAA106000091GF104991041011008001001001KA1240N+02351MA1999999100871MD1999999+0101REMSYN076AAXX  10124 82198 32597 40708 10284 20233 30087 40138 84100 333 20235 58010;EQDQ01  00002PRCP06
0167821980999992004071018004-01717-045400FM-12+004499999V0200701N003612200019N0100001N1+03041+02311101041ADDAA106000091GF104991041021008001001001MA1999999100531MD1999999+0031REMSYN070AAXX  10184 82198 32597 40707 10304 20231 30053 40104 84200 333 58003;EQDQ01  00002PRCP06
0208821980999992004071100004-01717-045400FM-12+004499999V0200701N002612200019N0005001N1+02541+02401101291ADDAA106000091GA1001+999999999GF100991001001999999001001KA1240M+03121MA1999999100781MD1999999+0091REMSYN082AAXX  11004 82198 32993 00705 10254 20240 30078 40129 333 10312 29081 55100 58009;EQDQ01  00002PRCP06
0186821980999992004071112004-01717-045400FM-12+004499999V0200501N002610450019N0100001N1+02811+02401101391ADDAA106000091GF106991031021012501061001KA1240N+02321MA1999999100881MD1999999+0011REMSYN076AAXX  11124 82198 32697 60505 10281 20240 30088 40139 83260 333 20232 58001;EQDQ01  00002PRCP06
0171821980999992004071118004-01717-045400FM-12+004499999V0200501N005710450019N0100001N1+02711+02281101081ADDAY121061AY211061GF106991041021012501041001MA1999999100571MD1999999+0041MW1211REMSYN082AAXX  11184 82198 21697 60511 10271 20228 30057 40108 72121 84240 333 58004 69921;
0212821980999992004071200004-01717-045400FM-12+004499999V0200501N001512200019N0005001N1+02541+02381101161ADDAY161061AY211061GA1001+999999999GF100991001001999999001001KA1240M+03031MA1999999100651MD1999999-0131MW1021REMSYN094AAXX  12004 82198 21993 00503 10254 20238 30065 40116 70261 333 10303 29085 55088 59013 60071;
0162821980999992004071212004-01717-045400FM-12+004499999V0200701N003110150019N0100001N1+02831+02521101211ADDGF105991051021017501001001KA1240N+02401MA1999999100701MD1999999-0181REMSYN082AAXX  12124 82198 22797 50706 10283 20252 30070 40121 85200 333 20240 59018 60084;
0167821980999992004071218004-01717-045400FM-12+004499999V0200201N004110450019N0100001N1+02981+02351100951ADDAA106000091GF105991041021012501061001MA1999999100441MD1999999-0131REMSYN070AAXX  12184 82198 32697 50208 10298 20235 30044 40095 84260 333 59013;EQDQ01  00002PRCP06
0208821980999992004071300004-01717-045400FM-12+004499999V0200701N003112200019N0005001N1+02571+02441101171ADDAA106000091GA1001+999999999GF100991001001999999001001KA1240M+03141MA1999999100661MD1999999+0011REMSYN082AAXX  13004 82198 32993 00706 10257 20244 30066 40117 333 10314 29084 55084 58001;EQDQ01  00002PRCP06
0186821980999992004071312004-01717-045400FM-12+004499999V0200701N004112200019N0100001N1+02841+02381101261ADDAA106000091GF104991041021008001001001KA1240N+02411MA1999999100761MD1999999+0051REMSYN076AAXX  13124 82198 32597 40708 10284 20238 30076 40126 84200 333 20241 58005;EQDQ01  00002PRCP06
0186821980999992004071412004-01717-045400FM-12+004499999V0200701N003110450019N0100001N1+02881+02481101241ADDAA106000091GF106991041021004501061001KA1240N+02401MA1999999100731MD1999999-0021REMSYN076AAXX  14124 82198 32497 60706 10288 20248 30073 40124 84260 333 20240 59002;EQDQ01  00002PRCP06
0171821980999992004071418004-01717-045400FM-12+004499999V0200701N002610450019N0100001N1+02691+02331101061ADDAY161061AY221061GF107991031071008001061001MA1999999100551MD1999999+0191MW1171REMSYN082AAXX  14184 82198 21597 70705 10269 20233 30055 40106 71762 83760 333 58019 60071;
0202821980999992004071500004-01717-045400FM-12+004499999V0201401N003610450019N0005001N1+02261+02211101361ADDAY191061AY261061GF107991041031008001021001KA1240M+03161MA1999999100841MD1999999+0151MW1651REMSYN100AAXX  15004 82198 21593 71407 10226 20221 30084 40136 76596 84320 333 10316 29090 55041 58015 60351;
0190821980999992004071512004-01717-045400FM-12+004499999V0200901N004612200019N0100001N1+02771+02481101371ADDAY161061AY221061GF106991041021004501001061KA1240N+02221MA1999999100851MD1999999+0121MW1021REMSYN088AAXX  15124 82198 21497 60909 10277 20248 30085 40137 70262 84206 333 20222 58012 60694;
0171821980999992004071518004-01717-045400FM-12+004499999V0200701N004110450019N0100001N1+02891+02201101141ADDAY161061AY221061GF106991031021008001061001MA1999999100631MD1999999+0081MW1021REMSYN082AAXX  15184 82198 21597 60708 10289 20220 30063 40114 70262 83260 333 58008 69911;
0208821980999992004071600004-01717-045400FM-12+004499999V0200701N003112200019N0005001N1+02501+02271101361ADDAA106000091GA1001+999999999GF100991001001999999001001KA1240M+03091MA1999999100841MD1999999+0001REMSYN082AAXX  16004 82198 32993 00706 10250 20227 30084 40136 333 10309 29082 55074 58000;EQDQ01  00002PRCP06
0162821980999992004071612004-01717-045400FM-12+004499999V0200701N003612200019N0100001N1+02871+02381101411ADDGF105991031021008001001041KA1240N+02341MA1999999100891MD1999999+0041REMSYN082AAXX  16124 82198 22597 50707 10287 20238 30089 40141 83204 333 20234 58004 69924;
0167821980999992004071618004-01717-045400FM-12+004499999V0200901N004612200019N0100001N1+03071+02221101091ADDAA106000091GF104991031021008001001041MA1999999100581MD1999999-0051REMSYN070AAXX  16184 82198 32597 40909 10307 20222 30058 40109 83204 333 59005;EQDQ01  00002PRCP06
0208821980999992004071700004-01717-045400FM-12+004499999V0200501N002612200019N0005001N1+02581+02431101321ADDAA106000091GA1001+999999999GF100991001001999999001001KA1240M+03161MA1999999100801MD1999999-0041REMSYN082AAXX  17004 82198 32993 00505 10258 20243 30080 40132 333 10316 29078 55101 59004;EQDQ01  00002PRCP06
0190821980999992004071712004-01717-045400FM-12+004499999V0200501N001510450019N0100001N1+02381+02351101581ADDAY161061AY221061GF107991041051012501021001KA1240N+02361MA1999999101061MD1999999+0171MW1621REMSYN088AAXX  17124 82198 21697 70503 10238 20235 30106 40158 76262 84520 333 20236 58017 60044;
0171821980999992004071718004-01717-045400FM-12+004499999V0200501N002110450019N0100001N1+02701+02331101191ADDAY161061AY221061GF107991041031008001011001MA1999999100681MD1999999+0101MW1021REMSYN082AAXX  17184 82198 21597 70504 10270 20233 30068 40119 70262 84310 333 58010 60051;
0202821980999992004071800004-01717-045400FM-12+004499999V0201101N006710450019N0005001N1+02291+02171101501ADDAY161061AY221061GF107991041031008001021001KA1240M+02771MA1999999100981MD1999999+0181MW1621REMSYN100AAXX  18004 82198 21593 71113 10229 20217 30098 40150 76262 84320 333 10277 29094 55005 58018 60031;
0190821980999992004071812004-01717-045400FM-12+004499999V0200501N002110450019N0100001N1+02621+02351101521ADDAY161061AY221061GF107991041051008001041041KA1240N+02271MA1999999101001MD1999999-0061MW1021REMSYN088AAXX  18124 82198 21597 70504 10262 20235 30100 40152 70262 84544 333 20227 59006 60174;
0171821980999992004071818004-01717-045400FM-12+004499999V0201801N002610450019N0040001N1+02371+02331101321ADDAY161061AY221061GF107991031071008001061001MA1999999100801MD1999999+0121MW1621REMSYN082AAXX  18184 82198 21596 71805 10237 20233 30080 40132 76262 83760 333 58012 60091;
0162821980999992004071912004-01717-045400FM-12+004499999V0200701N002610450019N0100001N1+02731+02481101541ADDGF106991031021008001061011KA1240N+02211MA1999999101021MD1999999+0021REMSYN082AAXX  19124 82198 22597 60705 10273 20248 30102 40154 83261 333 20221 58002 60154;
0171821980999992004071918004-01717-045400FM-12+004499999V0202001N000510450019N0100001N1+02561+02491101221ADDAY161061AY221061GF106991031071008001061011MA1999999100711MD1999999-0091MW1621REMSYN082AAXX  19184 82198 21597 62001 10256 20249 30071 40122 76262 83761 333 59009 60071;
0202821980999992004072000004-01717-045400FM-12+004499999V0200501N002112200019N0005001N1+02501+02381101471ADDAY161061AY221061GF103991021021008001061001KA1240M+03181MA1999999100951MD1999999+0031MW1131REMSYN100AAXX  20004 82198 21593 30504 10250 20238 30095 40147 71362 82260 333 10318 29092 55052 58003 69961;
0162821980999992004072012004-01717-045400FM-12+004499999V0200501N004110450019N0100001N1+02821+02441101511ADDGF105991041021012501061001KA1240N+02271MA1999999101001MD1999999-0021REMSYN082AAXX  20124 82198 22697 50508 10282 20244 30100 40151 84260 333 20227 59002 60074;
0167821980999992004072018004-01717-045400FM-12+004499999V0200201N004110450019N0100001N1+02951+02401101191ADDAA106000091GF105991021021012501031001MA1999999100681MD1999999-0031REMSYN070AAXX  20184 82198 32697 50208 10295 20240 30068 40119 82230 333 59003;EQDQ01  00002PRCP06
0202821980999992004072100004-01717-045400FM-12+004499999V0200701N002112200019N0005001N1+02381+02331101351ADDAY161061AY221061GF104991021011012501041001KA1240M+03191MA1999999100831MD1999999-0121MW1021REMSYN100AAXX  21004 82198 21693 40704 10238 20233 30083 40135 70262 82140 333 10319 29086 55070 59012 60271;
0162821980999992004072112004-01717-045400FM-12+004499999V0200201N002110450019N0100001N1+02751+02521101371ADDGF107991041021012501061001KA1240N+02211MA1999999100861MD1999999-0141REMSYN082AAXX  21124 82198 22697 70204 10275 20252 30086 40137 84260 333 20221 59014 60274;
0195821980999992004072118004-01717-045400FM-12+004499999V0200701N003110450019N0100001N1+02611+02231101061ADDAA106000091AY121061AY221061GF107991041021012501041001MA1999999100551MD1999999-0151MW1171REMSYN076AAXX  21184 82198 31697 70706 10261 20223 30055 40106 71722 84240 333 59015;EQDQ01  00002PRCP06
0198821980999992004072200004-01717-045400FM-12+004499999V0202901N001512200019N0005001N1+02411+02241101161ADDAA106000091GF103991031001017501061001KA1240M+03181MA1999999100741MD1999999-0041REMSYN088AAXX  22004 82198 32793 32903 10241 20224 30074 40116 83060 333 10318 29086 55054 59004;EQDQ01  00002PRCP06
0186821980999992004072212004-01717-045400FM-12+004499999V0200501N002610120019N0100001N1+02861+02461101291ADDAA106000091GF105991051021012501001001KA1240N+02331MA1999999100781MD1999999-0081REMSYN076AAXX  22124 82198 32697 50505 10286 20246 30078 40129 85200 333 20233 59008;EQDQ01  00002PRCP06
0171821980999992004072218004-01717-045400FM-12+004499999V0200501N003110450019N0100001N1+02781+02231100991ADDAY191061AY261061GF107991041011012501041001MA1999999100481MD1999999-0071MW1151REMSYN082AAXX  22184 82198 21697 70506 10278 20223 30048 40099 71596 84140 333 59007 60031;
0208821980999992004072300004-01717-045400FM-12+004499999V0200501N002612200019N0020001N1+02501+02361101251ADDAA106000091GA1001+999999999GF100991001001999999001001KA1240M+03081MA1999999100741MD1999999+0001REMSYN082AAXX  23004 82198 32995 00505 10250 20236 30074 40125 333 10308 29084 55056 58000;EQDQ01  00002PRCP06
0162821980999992004072312004-01717-045400FM-12+004499999V0200701N002110075019N0100001N1+02811+02381101341ADDGF106991061021008001001001KA1240N+02361MA1999999100831MD1999999+0051REMSYN082AAXX  23124 82198 22597 60704 10281 20238 30083 40134 86200 333 20236 58005 60034;
0167821980999992004072318004-01717-045400FM-12+004499999V0203201N002110075019N0100001N1+02781+02501101071ADDAA106000091GF107991051051008001041001MA1999999100561MD1999999+0081REMSYN070AAXX  23184 82198 32597 73204 10278 20250 30056 40107 85540 333 58008;EQDQ01  00002PRCP06
0162821980999992004072412004-01717-045400FM-12+004499999V0200701N005110450019N0100001N1+02831+02421101491ADDGF106991031021012501061001KA1240N+02391MA1999999100981MD1999999+0161REMSYN082AAXX  24124 82198 22697 60710 10283 20242 30098 40149 83260 333 20239 58016 69964;
0171821980999992004072418004-01717-045400FM-12+004499999V0202501N001010075019N0100001N1+02601+02421101291ADDAY191061AY261061GF107991051071008001051001MA1999999100781MD1999999+0221MW1151REMSYN082AAXX  24184 82198 21597 72502 10260 20242 30078 40129 71596 85750 333 58022 60131;
0212821980999992004072500004-01717-045400FM-12+004499999V0200701N001512200019N0020001N1+02461+02301101451ADDAY161061AY201061GA1001+999999999GF100991001001999999001001KA1240M+03131MA1999999100931MD1999999+0061MW1011REMSYN094AAXX  25004 82198 21995 00703 10246 20230 30093 40145 70160 333 10313 29088 55057 58006 60061;
0162821980999992004072512004-01717-045400FM-12+004499999V0200901N003610075019N0100001N1+02801+02441101421ADDGF105991051011008001001001KA1240N+02371MA1999999100911MD1999999-0071REMSYN082AAXX  25124 82198 22597 50907 10280 20244 30091 40142 85100 333 20237 59007 60194;
0167821980999992004072518004-01717-045400FM-12+004499999V0200901N003612200019N0100001N1+03001+02321101231ADDAA106000091GF103991031021008001001001MA1999999100721MD1999999-0061REMSYN070AAXX  25184 82198 32597 30907 10300 20232 30072 40123 83200 333 59006;EQDQ01  00002PRCP06
0208821980999992004072600004-01717-045400FM-12+004499999V0200501N002612200019N0020001N1+02541+02291101361ADDAA106000091GA1001+999999999GF100991001001999999001001KA1240M+03081MA1999999100851MD1999999-0081REMSYN082AAXX  26004 82198 32995 00505 10254 20229 30085 40136 333 10308 29080 55096 59008;EQDQ01  00002PRCP06
0186821980999992004072612004-01717-045400FM-12+004499999V0200901N005110120019N0100001N1+02821+02501101411ADDAA106000091GF105991051021012501001001KA1240N+02391MA1999999100901MD1999999-0011REMSYN076AAXX  26124 82198 32697 50910 10282 20250 30090 40141 85200 333 20239 59001;EQDQ01  00002PRCP06
0167821980999992004072618004-01717-045400FM-12+004499999V0201101N004612200019N0100001N1+03091+02271101191ADDAA106000091GF103991031021008001001001MA1999999100681MD1999999-0041REMSYN070AAXX  26184 82198 32597 31109 10309 20227 30068 40119 83200 333 59004;EQDQ01  00002PRCP06
0198821980999992004072700004-01717-045400FM-12+004499999V0200901N003119999999N0020001N1+02631+02251101481ADDAA106000091GF106991061001012501061001KA1240M+03121MA1999999100971MD1999999+0121REMSYN088AAXX  27004 82198 32695 60906 10263 20225 30097 40148 86060 333 10312 29076 55091 58012;EQDQ01  00002PRCP06
0186821980999992004072712004-01717-045400FM-12+004499999V0200701N004110450019N0100001N1+02861+02371101511ADDAA106000091GF105991031021008001041041KA1240N+02411MA1999999100991MD1999999+0091REMSYN076AAXX  27124 82198 32597 50708 10286 20237 30099 40151 83244 333 20241 58009;EQDQ01  00002PRCP06
0171821980999992004072718004-01717-045400FM-12+004499999V0201801N002610450019N0100001N1+02701+02351101271ADDAY161061AY221061GF106991031021008001061011MA1999999100761MD1999999+0081MW1031REMSYN082AAXX  27184 82198 21597 61805 10270 20235 30076 40127 70362 83261 333 58008 60091;
0198821980999992004072800004-01717-045400FM-12+004499999V0200901N002110450019N0005001N1+02591+02291101421ADDAA106000091GF106991041021008001031001KA1240M+03021MA1999999100901MD1999999-0071REMSYN088AAXX  28004 82198 32593 60904 10259 20229 30090 40142 84230 333 10302 29080 55039 59007;EQDQ01  00002PRCP06
0167821980999992004072818004-01717-045400FM-12+004499999V0200901N002112200019N0100001N1+03101+02311101111ADDAA106000091GF104991031021004501001011MA1999999100601MD1999999-0161REMSYN070AAXX  28184 82198 32497 40904 10310 20231 30060 40111 83201 333 59016;EQDQ01  00002PRCP06
0202821980999992004072900004-01717-045400FM-12+004499999V0200701N001510450019N0040001N1+02521+02381101391ADDAY161061AY221061GF107991041021008001041041KA1240M+03181MA1999999100871MD1999999-0031MW1031REMSYN100AAXX  29004 82198 21596 70703 10252 20238 30087 40139 70362 84244 333 10318 29081 55082 59003 60061;
0162821980999992004072912004-01717-045400FM-12+004499999V0200701N003110450019N0100001N1+02771+02441101421ADDGF106991031021004501061011KA1240N+02371MA1999999100901MD1999999+0011REMSYN082AAXX  29124 82198 22497 60706 10277 20244 30090 40142 83261 333 20237 58001 60064;
0171821980999992004072918004-01717-045400FM-12+004499999V0200901N002110450019N0100001N1+02931+02391101171ADDAY161061AY221061GF106991031021008001061061MA1999999100661MD1999999+0061MW1021REMSYN082AAXX  29184 82198 21597 60904 10293 20239 30066 40117 70262 83266 333 58006 60111;
0198821980999992004073000004-01717-045400FM-12+004499999V0200901N001512200019N0040001N1+02581+02401101391ADDAA106000091GF103991011011008001031091KA1240M+03091MA1999999100871MD1999999+0001REMSYN088AAXX  30004 82198 32596 30903 10258 20240 30087 40139 81139 333 10309 29084 55061 58000;EQDQ01  00002PRCP06
0162821980999992004073012004-01717-045400FM-12+004499999V0201101N002610450019N0100001N1+02621+02441101551ADDGF106991041071008001061011KA1240N+02371MA1999999101031MD1999999+0131REMSYN082AAXX  30124 82198 22597 61105 10262 20244 30103 40155 84761 333 20237 58013 60114;
0167821980999992004073018004-01717-045400FM-12+004499999V0200901N007710450019N0100001N1+02991+02031101271ADDAA106000091GF105991031021008001041061MA1999999100751MD1999999+0091REMSYN070AAXX  30184 82198 32597 50915 10299 20203 30075 40127 83246 333 58009;EQDQ01  00002PRCP06
0186821980999992004073112004-01717-045400FM-12+004499999V0200701N005710075019N0100001N1+02811+02291101621ADDAA106000091GF105991051021008001001001KA1240N+02331MA1999999101101MD1999999+0071REMSYN076AAXX  31124 82198 32597 50711 10281 20229 30110 40162 85200 333 20233 58007;EQDQ01  00002PRCP06
0167821980999992004073118004-01717-045400FM-12+004499999V0200701N004612200019N0100001N1+03161+02051101301ADDAA106000091GF103991031021004501001001MA1999999100791MD1999999+0041REMSYN070AAXX  31184 82198 32497 30709 10316 20205 30079 40130 83200 333 58004;EQDQ01  00002PRCP06
0186821980999992004080112004-01717-045400FM-12+004499999V0200701N004112200019N0100001N1+02821+02331101541ADDAA106000091GF104991041021004501001001KA1240N+02291MA1999999101021MD1999999-0081REMSYN076AAXX  01124 82198 32497 40708 10282 20233 30102 40154 84200 333 20229 59008;EQDQ01  00002PRCP06
0167821980999992004080118004-01717-045400FM-12+004499999V0203601N005110450019N0100001N1+02951+02461101251ADDAA106000091GF106991041021008001061001MA1999999100741MD1999999-0051REMSYN070AAXX  01184 82198 32597 63610 10295 20246 30074 40125 84260 333 59005;EQDQ01  00002PRCP06
0198821980999992004080200004-01717-045400FM-12+004499999V0200501N002612200019N0040001N1+02571+02371101481ADDAA106000091GF101991011011004501001001KA1240M+03251MA1999999100961MD1999999-0031REMSYN088AAXX  02004 82198 32496 10505 10257 20237 30096 40148 81100 333 10325 29080 55078 59003;EQDQ01  00002PRCP06
0186821980999992004080212004-01717-045400FM-12+004499999V0200501N004110042019N0100001N1+02861+02541101481ADDAA106000091GF105991051021004501001001KA1240N+02401MA1999999100961MD1999999-0061REMSYN076AAXX  02124 82198 32497 50508 10286 20254 30096 40148 85200 333 20240 59006;EQDQ01  00002PRCP06
0171821980999992004080218004-01717-045400FM-12+004499999V0201801N003110450019N0100001N1+02351+02301101291ADDAY161061AY221061GF106991031071008001041041MA1999999100781MD1999999+0041MW1621REMSYN082AAXX  02184 82198 21597 61806 10235 20230 30078 40129 76262 83744 333 58004 60101;
0179821980999992004080300004-01717-045400FM-12+004499999V0200701N001519999999N0040001N1+02601+02231101421ADDAA106000021GF106991061001022501001061KA1240M+03101MA1999999100991MD1999999-0061REMSYN088AAXX  03004 82198 32896 60703 10260 20223 30099 40142 86006 333 10310 29084 55062 59006;
0162821980999992004080312004-01717-045400FM-12+004499999V0200701N003610075019N0100001N1+02801+02341101551ADDGF106991051011008001061001KA1240N+02271MA1999999101041MD1999999+0081REMSYN082AAXX  03124 82198 22597 60707 10280 20234 30104 40155 85160 333 20227 58008 60104;
0167821980999992004080318004-01717-045400FM-12+004499999V0200701N005112200019N0100001N1+03101+02291101241ADDAA106000091GF104991041021012501001001MA1999999100731MD1999999-0051REMSYN070AAXX  03184 82198 32697 40710 10310 20229 30073 40124 84200 333 59005;EQDQ01  00002PRCP06
0208821980999992004080400004-01717-045400FM-12+004499999V0200701N003612200019N0020001N1+02541+02311101441ADDAA106000091GA1001+999999999GF100991001001999999001001KA1240M+03151MA1999999100931MD1999999+0031REMSYN082AAXX  04004 82198 32995 00707 10254 20231 30093 40144 333 10315 29078 55094 58003;EQDQ01  00002PRCP06
0186821980999992004080412004-01717-045400FM-12+004499999V0200601N004610120019N0100001N1+02781+02301101551ADDAA106000091GF106991061021012501001001KA1240N+02401MA1999999101041MD1999999+0001REMSYN076AAXX  04124 82198 32697 60609 10278 20230 30104 40155 86200 333 20240 58000;EQDQ01  00002PRCP06
0137821980999992004080418004-01717-045400FM-12+004499999V0200701N005112200019N0100001N1+99999+99999999999ADDAA106000091GF103991999999012501999999REMSYN069AAXX  04184 82198 32697 30710 1294 20236 30068 40119 83200 333 59003;EQDQ01  00002PRCP06
0208821980999992004080500004-01717-045400FM-12+004499999V0200701N002112200019N0020001N1+02551+02331101451ADDAA106000091GA1001+999999999GF100991001001999999001001KA1240M+03151MA1999999100931MD1999999+0001REMSYN082AAXX  05004 82198 32995 00704 10255 20233 30093 40145 333 10315 29081 55091 58000;EQDQ01  00002PRCP06
0186821980999992004080512004-01717-045400FM-12+004499999V0200701N003612200019N0100001N1+02841+02441101471ADDAA106000091GF104991041011008001001001KA1240N+02401MA1999999100961MD1999999-0081REMSYN076AAXX  05124 82198 32597 40707 10284 20244 30096 40147 84100 333 20240 59008;EQDQ01  00002PRCP06
0162821980999992004080612004-01717-045400FM-12+004499999V0200701N003610450019N0100001N1+02761+02401101501ADDGF107991041021012501061001KA1240N+02391MA1999999100991MD1999999+0031REMSYN082AAXX  06124 82198 22697 70707 10276 20240 30099 40150 84260 333 20239 58003 60044;
0171821980999992004080618004-01717-045400FM-12+004499999V0200701N000510120019N0040001N1+02481+02391101281ADDAY161061AY221061GF107991051051012501041001MA1999999100771MD1999999+0071MW1621REMSYN082AAXX  06184 82198 21696 70701 10248 20239 30077 40128 76262 85540 333 58007 60121;
0202821980999992004080700004-01717-045400FM-12+004499999V0202301N002110450019N0005001N1+02431+02351101601ADDAY161061AY221061GF105991031071012501041001KA1240M+03081MA1999999101081MD1999999+0151MW1021REMSYN100AAXX  07004 82198 21693 52304 10243 20235 30108 40160 70262 83740 333 10308 29092 55041 58015 60021;
0190821980999992004080712004-01717-045400FM-12+004499999V0200701N005110450019N0100001N1+02661+02311101731ADDAY161061AY221061GF107991041051008001021001KA1240N+02351MA1999999101211MD1999999+0221MW1021REMSYN088AAXX  07124 82198 21597 70710 10266 20231 30121 40173 70262 84520 333 20235 58022 60144;
0171821980999992004080718004-01717-045400FM-12+004499999V0200901N005710450019N0100001N1+02821+02241101451ADDAY161061AY221061GF107991041021012501041001MA1999999100941MD1999999+0171MW1021REMSYN082AAXX  07184 82198 21697 70911 10282 20224 30094 40145 70262 84240 333 58017 60031;
0208821980999992004080800004-01717-045400FM-12+004499999V0202301N001012200019N0005001N1+02391+02261101681ADDAA106000091GA1001+999999999GF100991001001999999001001KA1240M+03021MA1999999101161MD1999999+0081REMSYN082AAXX  08004 82198 32993 02302 10239 20226 30116 40168 333 10302 29084 55061 58008;EQDQ01  00002PRCP06
0162821980999992004080812004-01717-045400FM-12+004499999V0200701N005110120019N0100001N1+02821+02461101641ADDGF105991051021012501001001KA1240N+02331MA1999999101131MD1999999-0081REMSYN082AAXX  08124 82198 22697 50710 10282 20246 30113 40164 85200 333 20233 59008 60034;
0171821980999992004080818004-01717-045400FM-12+004499999V0200901N005112200019N0100001N1+03021+02391101371ADDAY161061AY221061GF103991031021008001001001MA1999999100861MD1999999-0081MW1021REMSYN082AAXX  08184 82198 21597 30910 10302 20239 30086 40137 70262 83200 333 59008 69931;
0208821980999992004080900004-01717-045400FM-12+004499999V0200501N002112200019N0005001N1+02541+02351102531ADDAA106000091GA1001+999999999GF100991001001999999001001KA1240M+03131MA1999999101021MD1999999-0141REMSYN082AAXX  09004 82198 32993 00504 10254 20235 30102 40253 333 10313 29082 55084 59014;EQDQ01  00002PRCP06
0162821980999992004080912004-01720-045400FM-12+004499999V0200701N005110120019N0100001N1+02831+02481101621ADDGF105991051021012501001001KA1240N+02421MA1999999101111MD1999999-0021REMSYN082AAXX  09124 82198 22697 50710 10283 20248 30111 40162 85200 333 20242 59002 69934;
0167821980999992004080918004-01720-045400FM-12+004499999V0200701N004612200019N0100001N1+03081+02321101261ADDAA106000091GF104991041021012501001001MA1999999100751MD1999999-0111REMSYN070AAXX  09184 82198 32697 40709 10308 20232 30075 40126 84200 333 59011;EQDQ01  00002PRCP06
0186821980999992004081012004-01720-045400FM-12+004499999V0200701N004610450019N0100001N1+02901+02391101561ADDAA106000091GF105991031021004501061011KA1240N+02451MA1999999101041MD1999999-0071REMSYN076AAXX  10124 82198 32497 50709 10290 20239 30104 40156 83261 333 20245 59007;EQDQ01  00002PRCP06
0167821980999992004081018004-01720-045400FM-12+004499999V0200901N005110450019N0100001N1+03071+02291101241ADDAA106000091GF107991031071008001061001MA1999999100731MD1999999-0021REMSYN070AAXX  10184 82198 32597 70910 10307 20229 30073 40124 83760 333 59002;EQDQ01  00002PRCP06
0208821980999992004081100004-01720-045400FM-12+004499999V0200501N002112200019N0005001N1+02571+02371101561ADDAA106000091GA1001+999999999GF100991001001999999001001KA1240M+03141MA1999999101041MD1999999+0031REMSYN082AAXX  11004 82198 32993 00504 10257 20237 30104 40156 333 10314 29078 55077 58003;EQDQ01  00002PRCP06
0190821980999992004081112004-01717-045400FM-12+004499999V0200901N004110450019N0100001N1+02811+02401101611ADDAY161061AY221061GF106991031021008001061011KA1240N+02341MA1999999101091MD1999999+0051MW1031REMSYN088AAXX  11124 82198 21597 60908 10281 20240 30109 40161 70362 83261 333 20234 58005 60014;
0171821980999992004081118004-01717-045400FM-12+004499999V0200901N003610450019N0100001N1+02891+02251101271ADDAY161061AY221061GF106991031071008001061011MA1999999100761MD1999999+0031MW1211REMSYN082AAXX  11184 82198 21597 60907 10289 20225 30076 40127 72162 83761 333 58003 60051;
0189821980999992004081200004-01720-045400FM-12+004499999V0200501N002112200019N0005001N1+02551+02421101531ADDAA106000021GA1001+999999999GF100991001001999999001001KA1240M+02941MA1999999101011MD1999999-0031REMSYN082AAXX  12004 82198 32993 00504 10255 20242 30101 40153 333 10294 29082 55043 59003;
0190821980999992004081212004-01720-045400FM-12+004499999V0200501N001510450019N0100001N1+02701+02411101671ADDAY151061AY221061GF107991031071008001061001KA1240N+02351MA1999999101151MD1999999+0061MW1211REMSYN088AAXX  12124 82198 21597 70503 10270 20241 30115 40167 72152 83760 333 20235 58006 60044;
0171821980999992004081218004-01720-045400FM-12+004499999V0200701N004110450019N0100001N1+02891+02271101371ADDAY161061AY221061GF106991031051008001061011MA1999999100851MD1999999+0091MW1021REMSYN082AAXX  12184 82198 21597 60708 10289 20227 30085 40137 70262 83561 333 58009 60281;
0198821980999992004081300004-01720-045400FM-12+004499999V0200501N002612200019N0005001N1+02591+02371101601ADDAA106000091GF103991011021008001061001KA1240M+02931MA1999999101081MD1999999+0071REMSYN088AAXX  13004 82198 32593 30505 10259 20237 30108 40160 81260 333 10293 29082 55028 58007;EQDQ01  00002PRCP06
0162821980999992004081312004-01720-045400FM-12+004499999V0200501N003112200019N0100001N1+02891+02381101581ADDGF103991011011008001041011KA1240N+02261MA1999999101061MD1999999-0091REMSYN082AAXX  13124 82198 22597 30506 10289 20238 30106 40158 81141 333 20226 59009 60284;
0171821980999992004081318004-01720-045400FM-12+004499999V0202701N002610450019N0100001N1+02511+02341101271ADDAY161061AY221061GF106991031071008001061011MA1999999100761MD1999999-0091MW1031REMSYN082AAXX  13184 82198 21597 62705 10251 20234 30076 40127 70362 83761 333 59009 60111;
0208821980999992004081400004-01720-045400FM-12+004499999V0200501N003112200019N0005001N1+02501+02381101501ADDAA106000091GA1001+999999999GF100991001001999999001001KA1240M+03181MA1999999100981MD1999999-0101REMSYN082AAXX  14004 82198 32993 00506 10250 20238 30098 40150 333 10318 29088 55052 59010;EQDQ01  00002PRCP06
0162821980999992004081412004-01720-045400FM-12+004499999V0200701N002610450019N0100001N1+02841+02461101601ADDGF106991031021008001061011KA1240N+02381MA1999999101081MD1999999+0021REMSYN082AAXX  14124 82198 22597 60705 10284 20246 30108 40160 83261 333 20238 58002 60114;
0167821980999992004081418004-01720-045400FM-12+004499999V0200701N005712200019N0100001N1+03001+02321101271ADDAA106000091GF104991031021008001061001MA1999999100761MD1999999+0001REMSYN070AAXX  14184 82198 32597 40711 10300 20232 30076 40127 83260 333 58000;EQDQ01  00002PRCP06
0208821980999992004081500004-01720-045400FM-12+004499999V0200701N002612200019N0005001N1+02571+02391101471ADDAA106000091GA1001+999999999GF100991001001999999001001KA1240M+03211MA1999999100951MD1999999-0031REMSYN082AAXX  15004 82198 32993 00705 10257 20239 30095 40147 333 10321 29080 55075 59003;EQDQ01  00002PRCP06
0202821980999992004081512004-01720-045400FM-12+004499999V0200701N006219999999N0100001N1+02871+02441101591ADDAA106000091GF106991999041012501061001KA1240N+02371MA1999999101081MD1999999+0001REMSYN076AAXX  15124 82198 32697 60712 10287 20244 30108 40159 88460 333 20237 58000;EQDQ01+000082SCOTLCQ02  00002PRCP06
0167821980999992004081518004-01720-045400FM-12+004499999V0200901N005710120019N0100001N1+02991+02331101251ADDAA106000091GF105991051021012501001001MA1999999100741MD1999999-0021REMSYN070AAXX  15184 82198 32697 50911 10299 20233 30074 40125 85200 333 59002;EQDQ01  00002PRCP06
0208821980999992004081600004-01720-045400FM-12+004499999V0200701N003112200019N0005001N1+02571+02351101461ADDAA106000091GA1001+999999999GF100991001001999999001001KA1240M+03141MA1999999100951MD1999999+0001REMSYN082AAXX  16004 82198 32993 00706 10257 20235 30095 40146 333 10314 29079 55086 58000;EQDQ01  00002PRCP06
0186821980999992004081612004-01720-045400FM-12+004499999V0200701N002110450019N0100001N1+02741+02361101511ADDAA106000091GF107991041071012501061001KA1240N+02451MA1999999101001MD1999999-0081REMSYN076AAXX  16124 82198 32697 70704 10274 20236 30100 40151 84760 333 20245 59008;EQDQ01  00002PRCP06
0167821980999992004081618004-01720-045400FM-12+004499999V0200901N005712200019N0100001N1+03061+02351101151ADDAA106000091GF103991031021008001001001MA1999999100641MD1999999-0101REMSYN070AAXX  16184 82198 32597 30911 10306 20235 30064 40115 83200 333 59010;EQDQ01  00002PRCP06
0186821980999992004081712004-01720-045400FM-12+004499999V0200701N005710120019N0100001N1+02901+02341101501ADDAA106000091GF105991051021012501001001KA1240N+02401MA1999999100981MD1999999-0021REMSYN076AAXX  17124 82198 32697 50711 10290 20234 30098 40150 85200 333 20240 59002;EQDQ01  00002PRCP06
0208821980999992004081800004-01720-045400FM-12+004499999V0200901N002112200019N0005001N1+02541+02311101381ADDAA106000091GA1001+999999999GF100991001001999999001001KA1240M+03151MA1999999100871MD1999999+0011REMSYN082AAXX  18004 82198 32993 00904 10254 20231 30087 40138 333 10315 29078 55099 58001;EQDQ01  00002PRCP06
0162821980999992004081812004-01720-045400FM-12+004499999V0200701N005110120019N0100001N1+02901+02371101541ADDGF105991051021012501001001KA1240N+02451MA1999999101031MD1999999+0051REMSYN082AAXX  18124 82198 22697 50710 10290 20237 30103 40154 85200 333 20245 58005 69924;
0167821980999992004081818004-01720-045400FM-12+004499999V0200901N005712200019N0100001N1+03121+02301101311ADDAA106000091GF104991041021012501001001MA1999999100801MD1999999+0131REMSYN070AAXX  18184 82198 32697 40911 10312 20230 30080 40131 84200 333 58013;EQDQ01  00002PRCP06
0208821980999992004081900004-01720-045400FM-12+004499999V0200901N002112200019N0005001N1+02571+02331101551ADDAA106000091GA1001+999999999GF100991001001999999001001KA1240M+03181MA1999999101031MD1999999+0161REMSYN082AAXX  19004 82198 32993 00904 10257 20233 30103 40155 333 10318 29077 55096 58016;EQDQ01  00002PRCP06
0186821980999992004081912004-01720-045400FM-12+004499999V0200701N004110075019N0100001N1+02801+02401101641ADDAA106000091GF106991061021008001001001KA1240N+02391MA1999999101131MD1999999+0101REMSYN076AAXX  19124 82198 32597 60708 10280 20240 30113 40164 86200 333 20239 58010;EQDQ01  00002PRCP06
0167821980999992004081918004-01720-045400FM-12+004499999V0200701N004112200019N0100001N1+03201+02411101331ADDAA106000091GF104991041021008001001001MA1999999100821MD1999999+0021REMSYN070AAXX  19184 82198 32597 40708 10320 20241 30082 40133 84200 333 58002;EQDQ01  00002PRCP06
0208821980999992004082000004-01720-045400FM-12+004499999V0200701N002612200019N0005001N1+02581+02351101541ADDAA106000091GA1001+999999999GF100991001001999999001001KA1240M+03271MA1999999101021MD1999999-0011REMSYN082AAXX  20004 82198 32993 00705 10258 20235 30102 40154 333 10327 29079 55102 59001;EQDQ01  00002PRCP06
0186821980999992004082012004-01720-045400FM-12+004499999V0200701N004610120019N0100001N1+02761+02421101541ADDAA106000091GF108991061051012501061001KA1240N+02441MA1999999101031MD1999999-0101REMSYN076AAXX  20124 82198 32697 80709 10276 20242 30103 40154 86560 333 20244 59010;EQDQ01  00002PRCP06
0167821980999992004082018004-01720-045400FM-12+004499999V0200701N005112200019N0100001N1+03061+02351101171ADDAA106000091GF103991031021012501001001MA1999999100661MD1999999-0161REMSYN070AAXX  20184 82198 32697 30710 10306 20235 30066 40117 83200 333 59016;EQDQ01  00002PRCP06
0208821980999992004082100004-01720-045400FM-12+004499999V0200701N002112200019N0005001N1+02581+02331101371ADDAA106000091GA1001+999999999GF100991001001999999001001KA1240M+03201MA1999999100861MD1999999-0161REMSYN082AAXX  21004 82198 32993 00704 10258 20233 30086 40137 333 10320 29080 55071 59016;EQDQ01  00002PRCP06
0186821980999992004082112004-01720-045400FM-12+004499999V0200701N004110120019N0100001N1+02801+02341101501ADDAA106000091GF106991061021012501001001KA1240N+02421MA1999999100991MD1999999-0041REMSYN076AAXX  21124 82198 32697 60708 10280 20234 30099 40150 86200 333 20242 59004;EQDQ01  00002PRCP06
0208821980999992004082200004-01720-045400FM-12+004499999V0200701N002612200019N0020001N1+02581+02331101281ADDAA106000091GA1001+999999999GF100991001001999999001001KA1240M+03251MA1999999100771MD1999999-0091REMSYN082AAXX  22004 82198 32995 00705 10258 20233 30077 40128 333 10325 29076 55100 59009;EQDQ01  00002PRCP06
0186821980999992004082212004-01720-045400FM-12+004499999V0200701N004112200019N0100001N1+02891+02371101481ADDAA106000091GF104991031021017501001011KA1240N+02421MA1999999100971MD1999999-0021REMSYN076AAXX  22124 82198 32797 40708 10289 20237 30097 40148 83201 333 20242 59002;EQDQ01  00002PRCP06
0167821980999992004082218004-01720-045400FM-12+004499999V02099999999990120019N0100001N1+03101+02291101171ADDAA106000091GF105991051021012501001001MA1999999100661MD1999999-0041REMSYN070AAXX  22184 82198 32697 507// 10310 20229 30066 40117 85200 333 59004;EQDQ01  00002PRCP06
0208821980999992004082300004-01720-045400FM-12+004499999V02099999999992200019N0020001N1+02561+02291101391ADDAA106000091GA1001+999999999GF100991001001999999001001KA1240M+03261MA1999999100871MD1999999+0101REMSYN082AAXX  23004 82198 32995 005// 10256 20229 30087 40139 333 10326 29076 55100 58010;EQDQ01  00002PRCP06
0186821980999992004082312004-01720-045400FM-12+004499999V0200701N004610120019N0100001N1+02911+02431101631ADDAA106000091GF106991061021012501001001KA1240N+02441MA1999999101111MD1999999+0141REMSYN076AAXX  23124 82198 32697 60709 10291 20243 30111 40163 86200 333 20244 58014;EQDQ01  00002PRCP06
0208821980999992004082400004-01720-045400FM-12+004499999V0200501N002612200019N0020001N1+02581+02311101541ADDAA106000091GA1001+999999999GF100991001001999999001001KA1240M+03241MA1999999101021MD1999999+0151REMSYN082AAXX  24004 82198 32995 00505 10258 20231 30102 40154 333 10324 29082 55099 58015;EQDQ01  00002PRCP06
0162821980999992004082412004-01720-045400FM-12+004499999V0200501N004112200019N0100001N1+02891+02321101571ADDGF103991031011008001001001KA1240N+02401MA1999999101051MD1999999-0061REMSYN082AAXX  24124 82198 22597 30508 10289 20232 30105 40157 83100 333 20240 59006 69974;
0167821980999992004082418004-01720-045400FM-12+004499999V0200501N004612200019N0100001N1+02991+02331101311ADDAA106000091GF104991041021012501001001MA1999999100801MD1999999-0041REMSYN070AAXX  24184 82198 32697 40509 10299 20233 30080 40131 84200 333 59004;EQDQ01  00002PRCP06
0208821980999992004082500004-01720-045400FM-12+004499999V0200701N002112200019N0020001N1+02561+02291101401ADDAA106000091GA1001+999999999GF100991001001999999001001KA1240M+03081MA1999999100891MD1999999-0131REMSYN082AAXX  25004 82198 32995 00704 10256 20229 30089 40140 333 10308 29078 55099 59013;EQDQ01  00002PRCP06
0186821980999992004082512004-01720-045400FM-12+004499999V0200701N004112200019N0100001N1+02851+02311101361ADDAA106000091GF104991041011008001001001KA1240N+02401MA1999999100851MD1999999-0201REMSYN076AAXX  25124 82198 32597 40708 10285 20231 30085 40136 84100 333 20240 59020;EQDQ01  00002PRCP06
0167821980999992004082518004-01717-045400FM-12+004499999V0200701N005112200019N0100001N1+03121+02281101121ADDAA106000091GF103991031021012501001001MA1999999100611MD1999999-0191REMSYN070AAXX  25184 82198 32697 30710 10312 20228 30061 40112 83200 333 59019;EQDQ01  00002PRCP06
0208821980999992004082600004-01717-045400FM-12+004499999V0200501N003612200019N0020001N1+02541+02231101321ADDAA106000091GA1001+999999999GF100991001001999999001001KA1240M+03221MA1999999100801MD1999999-0091REMSYN082AAXX  26004 82198 32995 00507 10254 20223 30080 40132 333 10322 29075 55097 59009;EQDQ01  00002PRCP06
0186821980999992004082612004-01717-045400FM-12+004499999V0200701N004110120019N0100001N1+02761+02361101391ADDAA106000091GF108991061051012501061999KA1240N+02381MA1999999100881MD1999999+0031REMSYN076AAXX  26124 82198 32697 80708 10276 20236 30088 40139 8656/ 333 20238 58003;EQDQ01  00002PRCP06
0167821980999992004082618004-01717-045400FM-12+004499999V02099999999990120019N0100001N1+03011+02291101051ADDAA106000091GF105991051021012501001001MA1999999100541MD1999999-0071REMSYN070AAXX  26184 82198 32697 5//// 10301 20229 30054 40105 85200 333 59007;EQDQ01  00002PRCP06
0208821980999992004082700004-01717-045400FM-12+004499999V02099999999992200019N0020001N1+02581+02361101241ADDAA106000091GA1001+999999999GF100991001001999999001001KA1240M+03161MA1999999100721MD1999999-0081REMSYN082AAXX  27004 82198 32995 005// 10258 20236 30072 40124 333 10316 29079 55057 59008;EQDQ01  00002PRCP06
0186821980999992004082712004-01717-045400FM-12+004499999V02099999999990450019N0100001N1+02871+02351101371ADDAA106000091GF106991031021012501031001KA1240N+02461MA1999999100861MD1999999-0021REMSYN076AAXX  27124 82198 32697 609// 10287 20235 30086 40137 83230 333 20246 59002;EQDQ01  00002PRCP06
0167821980999992004082718004-01717-045400FM-12+004499999V02099999999992200019N0100001N1+03081+02291101031ADDAA106000091GF105991041021012501001011MA1999999100521MD1999999-0021REMSYN070AAXX  27184 82198 32697 5//// 10308 20229 30052 40103 84201 333 59002;EQDQ01  00002PRCP06
0208821980999992004082800004-01717-045400FM-12+004499999V02099999999992200019N0020001N1+02571+02331101281ADDAA106000091GA1001+999999999GF100991001001999999001001KA1240M+03141MA1999999100761MD1999999+0041REMSYN082AAXX  28004 82198 32995 0//// 10257 20233 30076 40128 333 10314 29077 55080 58004;EQDQ01  00002PRCP06
0186821980999992004082812004-01717-045400FM-12+004499999V02099999999992200019N0100001N1+02891+02351101491ADDAA106000091GF103991021011012501061001KA1240N+02491MA1999999100981MD1999999+0121REMSYN076AAXX  28124 82198 32697 3//// 10289 20235 30098 40149 82160 333 20249 58012;EQDQ01  00002PRCP06
0167821980999992004082818004-01720-045400FM-12+004499999V02099999999992200019N0100001N1+03041+02331101121ADDAA106000091GF104991041021012501001001MA1999999100611MD1999999+0091REMSYN070AAXX  28184 82198 32697 4//// 10304 20233 30061 40112 84200 333 58009;EQDQ01  00002PRCP06
0208821980999992004082900004-01720-045400FM-12+004499999V02099999999992200019N0020001N1+02601+02351101281ADDAA106000091GA1001+999999999GF100991001001999999001001KA1240M+03211MA1999999100771MD1999999+0011REMSYN082AAXX  29004 82198 32995 0//// 10260 20235 30077 40128 333 10321 29078 55067 58001;EQDQ01  00002PRCP06
0186821980999992004082912004-01720-045400FM-12+004499999V02099999999992200019N0100001N1+02891+02371101371ADDAA106000091GF104991041021012501001001KA1240N+02461MA1999999100861MD1999999-0121REMSYN076AAXX  29124 82198 32697 4//// 10289 20237 30086 40137 84200 333 20246 59012;EQDQ01  00002PRCP06
0167821980999992004082918004-01720-045400FM-12+004499999V02099999999992200019N0100001N1+03051+02381101131ADDAA106000091GF103991031021012501001001MA1999999100621MD1999999+0011REMSYN070AAXX  29184 82198 32697 3//// 10305 20238 30062 40113 83200 333 58001;EQDQ01  00002PRCP06
0208821980999992004083000004-01720-045400FM-12+004499999V02099999999992200019N0020001N1+02631+02371101311ADDAA106000091GA1001+999999999GF100991001001999999001001KA1240M+03171MA1999999100801MD1999999+0031REMSYN082AAXX  30004 82198 32995 0//// 10263 20237 30080 40131 333 10317 29078 55097 58003;EQDQ01  00002PRCP06
0186821980999992004083012004-01717-045400FM-12+004499999V02099999999990120019N0100001N1+02921+02471101391ADDAA106000091GF105991051021012501001001KA1240N+02471MA1999999100881MD1999999+0021REMSYN076AAXX  30124 82198 32697 5//// 10292 20247 30088 40139 85200 333 20247 58002;EQDQ01  00002PRCP06
0167821980999992004083018004-01717-045400FM-12+004499999V02099999999992200019N0100001N1+03001+02321101071ADDAA106000091GF103991031021012501001001MA1999999100561MD1999999-0061REMSYN070AAXX  30184 82198 32697 3//// 10300 20232 30056 40107 83200 333 59006;EQDQ01  00002PRCP06
0198821980999992004083100004-01717-045400FM-12+004499999V02099999999992200019N0020001N1+02641+02391101331ADDAA106000091GF103991031021012501001001KA1240M+03181MA1999999100821MD1999999+0021REMSYN088AAXX  31004 82198 32695 3//// 10264 20239 30082 40133 83200 333 10318 29079 55088 58002;EQDQ01  00002PRCP06
0186821980999992004083112004-01717-045400FM-12+004499999V02099999999990120019N0100001N1+02901+02341101481ADDAA106000091GF105991051021012501001001KA1240N+02481MA1999999100971MD1999999+0091REMSYN076AAXX  31124 82198 32697 5//// 10290 20234 30097 40148 85200 333 20248 58009;EQDQ01  00002PRCP06
0167821980999992004083118004-01717-045400FM-12+004499999V02099999999990450019N0100001N1+03081+02291101111ADDAA106000091GF105991041021012501061001MA1999999100601MD1999999+0041REMSYN070AAXX  31184 82198 32697 5//// 10308 20229 30060 40111 84260 333 58004;EQDQ01  00002PRCP06
0198821980999992004090100004-01717-045400FM-12+004499999V02099999999992200019N0020001N1+02611+02311101321ADDAA106000091GF103991021011012501061001KA1240M+03251MA1999999100811MD1999999-0011REMSYN088AAXX  01004 82198 32695 3//// 10261 20231 30081 40132 82160 333 10325 29076 55091 59001;EQDQ01  00002PRCP06
0186821980999992004090112004-01717-045400FM-12+004499999V0200901N004610450019N0040001N1+02881+02371101471ADDAA106000091GF106991031021008001061001KA1240N+02421MA1999999100951MD1999999-0021REMSYN076AAXX  01124 82198 32596 60909 10288 20237 30095 40147 83260 333 20242 59002;EQDQ01  00002PRCP06
0171821980999992004090118004-01717-045400FM-12+004499999V0200901N003610042019N0100001N1+02991+02341101221ADDAY161061AY221061GF105991051021004501001001MA1999999100711MD1999999+0111MW1601REMSYN082AAXX  01184 82198 21497 50907 10299 20234 30071 40122 76062 85200 333 58011 69981;
0189821980999992004090200004-01717-045400FM-12+004499999V0200501N003612200019N0040001N1+02561+02251101391ADDAA106000021GA1001+999999999GF100991001001999999001001KA1240M+03141MA1999999100871MD1999999+0051REMSYN082AAXX  02004 82198 32996 00507 10256 20225 30087 40139 333 10314 29077 55072 58005;
0162821980999992004090212004-01717-045400FM-12+004499999V0200901N007210450019N0040001N1+02901+02341101431ADDGF105991031021008001061001KA1240N+02421MA1999999100911MD1999999-0041REMSYN082AAXX  02124 82198 22596 50914 10290 20234 30091 40143 83260 333 20242 59004 69984;
0171821980999992004090218004-01717-045400FM-12+004499999V0201101N006210450019N0040001N1+02561+02211101221ADDAY161061AY221061GF106991031051008001061001MA1999999100711MD1999999+0001MW1601REMSYN082AAXX  02184 82198 21596 61112 10256 20221 30071 40122 76062 83560 333 58000 69961;
0189821980999992004090300004-01717-045400FM-12+004499999V0200501N002112200019N0005001N1+02561+02291101331ADDAA106000021GA1001+999999999GF100991001001999999001001KA1240M+03171MA1999999100811MD1999999-0061REMSYN082AAXX  03004 82198 32993 00504 10256 20229 30081 40133 333 10317 29080 55094 59006;
0162821980999992004090312004-01717-045400FM-12+004499999V0200701N003612200019N0020001N1+02881+02351101451ADDGF106991041021004501001011KA1240N+02391MA1999999100931MD1999999-0021REMSYN082AAXX  03124 82198 22495 60707 10288 20235 30093 40145 84201 333 20239 59002 69964;
0167821980999992004090318004-01717-045400FM-12+004499999V0200701N006212200019N0020001N1+03161+02081101251ADDAA106000091GF105991031011008001001011MA1999999100741MD1999999+0031REMSYN070AAXX  03184 82198 32595 50712 10316 20208 30074 40125 83101 333 58003;EQDQ01  00002PRCP06
0236821980999992004090400004-01717-045400FM-12+004499999V0200901N003112200019N0005001N1+02511+02231101361ADDAA106000091AY111061AY201061GA1001+999999999GF100991001001999999001001KA1240M+03211MA1999999100841MD1999999+0031MW1131REMSYN088AAXX  04004 82198 31993 00906 10251 20223 30084 40136 71310 333 10321 29074 55105 58003;EQDQ01  00002PRCP06
0186821980999992004090412004-01717-045400FM-12+004499999V0200701N004110450019N0020001N1+02911+02341101351ADDAA106000091GF106991031021008001061041KA1240N+02351MA1999999100831MD1999999-0101REMSYN076AAXX  04124 82198 32595 60708 10291 20234 30083 40135 83264 333 20235 59010;EQDQ01  00002PRCP06
0208821980999992004090500004-01717-045400FM-12+004499999V0200701N002612200019N0005001N1+02581+02311101291ADDAA106000091GA1001+999999999GF100991001001999999001001KA1240M+03281MA1999999100781MD1999999-0061REMSYN082AAXX  05004 82198 32993 00705 10258 20231 30078 40129 333 10328 29074 55079 59006;EQDQ01  00002PRCP06
0186821980999992004090512004-01717-045400FM-12+004499999V0200701N004110450019N0040001N1+02871+02341101221ADDAA106000091GF106991041021008001061001KA1240N+02371MA1999999100711MD1999999-0121REMSYN076AAXX  05124 82198 32596 60708 10287 20234 30071 40122 84260 333 20237 59012;EQDQ01  00002PRCP06
0186821980999992004090612004-01717-045400FM-12+004499999V0200701N006210450019N0020001N1+02861+02391101191ADDAA106000091GF106991041021008001061001KA1240N+02541MA1999999100681MD1999999-0031REMSYN076AAXX  06124 82198 32595 60712 10286 20239 30068 40119 84260 333 20254 59003;EQDQ01  00002PRCP06
0162821980999992004090812004-01717-045400FM-12+004499999V0200701N004610450019N0040001N1+02841+02351101431ADDGF106991041021008001061001KA1240N+02391MA1999999100911MD1999999+0291REMSYN082AAXX  08124 82198 22596 60709 10284 20235 30091 40143 84260 333 20239 58029 60024;
0195821980999992004090818004-01717-045400FM-12+004499999V0200701N004610450019N0005001N1+03191+02301100751ADDAA106000091AY121061AY221061GF106991031021008001011011MA1999999100241MD1999999-0051MW1141REMSYN076AAXX  08184 82198 31593 60709 10319 20230 30024 40075 71422 83211 333 59005;EQDQ01  00002PRCP06
0186821980999992004090912004-01717-045400FM-12+004499999V0200701N005710450019N0020001N1+02821+02241101181ADDAA106000091GF106991041021008001061001KA1240N+02461MA1999999100671MD1999999-0241REMSYN076AAXX  09124 82198 32595 60711 10282 20224 30067 40118 84260 333 20246 59024;EQDQ01  00002PRCP06
0167821980999992004090918004-01717-045400FM-12+004499999V0200701N006212200019N0020001N1+03151+02331100841ADDAA106000091GF106991041021008001001011MA1999999100331MD1999999+0091REMSYN070AAXX  09184 82198 32595 60712 10315 20233 30033 40084 84201 333 58009;EQDQ01  00002PRCP06
0186821980999992004091012004-01717-045400FM-12+004499999V0200701N004110450019N0020001N1+02881+02281101261ADDAA106000091GF106991041021008001061001KA1240N+02441MA1999999100751MD1999999+0081REMSYN076AAXX  10124 82198 32595 60708 10288 20228 30075 40126 84260 333 20244 58008;EQDQ01  00002PRCP06
0171821980999992004091018004-01717-045400FM-12+004499999V0200701N006210450019N0005001N1+03061+02301100921ADDAY161061AY221061GF106991031051008001061001MA1999999100411MD1999999+0081MW1211REMSYN082AAXX  10184 82198 21593 60712 10306 20230 30041 40092 72162 83560 333 58008 69931;
0162821980999992004091112004-01717-045400FM-12+004499999V0200701N006710450019N0020001N1+02911+02251101281ADDGF105991031051008001061001KA1240N+02421MA1999999100771MD1999999+0021REMSYN082AAXX  11124 82198 22595 50713 10291 20225 30077 40128 83560 333 20242 58002 69934;
0167821980999992004091118004-01717-045400FM-12+004499999V0200701N004110450019N0040001N1+03141+02241101011ADDAA106000091GF105991031021004501011001MA1999999100501MD1999999+0091REMSYN070AAXX  11184 82198 32496 50708 10314 20224 30050 40101 83210 333 58009;EQDQ01  00002PRCP06
0208821980999992004091200004-01717-045400FM-12+004499999V0200501N003612200019N0005001N1+02561+02251101321ADDAA106000091GA1001+999999999GF100991001001999999001001KA1240M+03231MA1999999100801MD1999999+0181REMSYN082AAXX  12004 82198 32993 00507 10256 20225 30080 40132 333 10323 29073 55093 58018;EQDQ01  00002PRCP06
0186821980999992004091212004-01720-045400FM-12+004499999V0200701N005710450019N0040001N1+02881+02321101461ADDAA106000091GF106991031021008001061001KA1240N+02451MA1999999100941MD1999999+0171REMSYN076AAXX  12124 82198 32596 60711 10288 20232 30094 40146 83260 333 20245 58017;EQDQ01  00002PRCP06
0167821980999992004091218004-01717-045400FM-12+004499999V02099999999990075019N0040001N1+03201+02301101151ADDAA106000091GF105991051011008001001001MA1999999100641MD1999999+0141REMSYN070AAXX  12184 82198 32596 5//// 10320 20230 30064 40115 85100 333 58014;EQDQ01  00002PRCP06
0208821980999992004091300004-01717-045400FM-12+004499999V02099999999992200019N0005001N1+02591+02311101411ADDAA106000091GA1001+999999999GF100991001001999999001001KA1240M+03241MA1999999100891MD1999999+0091REMSYN082AAXX  13004 82198 32993 0//// 10259 20231 30089 40141 333 10324 29074 55081 58009;EQDQ01  00002PRCP06
0186821980999992004091312004-01717-045400FM-12+004499999V02099999999990450019N0020001N1+02841+02441101661ADDAA106000091GF106991041051008001061001KA1240N+02461MA1999999101141MD1999999+0201REMSYN076AAXX  13124 82198 32595 6//// 10284 20244 30114 40166 84560 333 20246 58020;EQDQ01  00002PRCP06
0171821980999992004091318004-01717-045400FM-12+004499999V0200701N004610450019N0040001N1+02971+02371101191ADDAY161061AY221061GF106991031071008001061011MA1999999100681MD1999999+0041MW1021REMSYN082AAXX  13184 82198 21596 60709 10297 20237 30068 40119 70262 83761 333 58004 69951;
0208821980999992004091400004-01717-045400FM-12+004499999V0200501N003112200019N0005001N1+02591+02291101501ADDAA106000091GA1001+999999999GF100991001001999999001001KA1240M+03191MA1999999100981MD1999999+0091REMSYN082AAXX  14004 82198 32993 00506 10259 20229 30098 40150 333 10319 29078 55067 58009;EQDQ01  00002PRCP06
0162821980999992004091412004-01717-045400FM-12+004499999V0200701N005710450019N0020001N1+02891+02201101561ADDGF106991041051008001011001KA1240N+02471MA1999999101041MD1999999-0101REMSYN082AAXX  14124 82198 22595 60711 10289 20220 30104 40156 84510 333 20247 59010 69954;
0167821980999992004091418004-01717-045400FM-12+004499999V0200701N006210075019N0040001N1+03111+02461101241ADDAA106000091GF105991051021008001001001MA1999999100731MD1999999+0051REMSYN070AAXX  14184 82198 32596 50712 10311 20246 30073 40124 85200 333 58005;EQDQ01  00002PRCP06
0208821980999992004091500004-01717-045400FM-12+004499999V0200501N002612200019N0005001N1+02561+02231101381ADDAA106000091GA1001+999999999GF100991001001999999001001KA1240M+03181MA1999999100861MD1999999-0121REMSYN082AAXX  15004 82198 32993 00505 10256 20223 30086 40138 333 10318 29072 55096 59012;EQDQ01  00002PRCP06
0186821980999992004091512004-01717-045400FM-12+004499999V0200701N006710075019N0020001N1+02871+02221101551ADDAA106000091GF106991061021008001001001KA1240N+02431MA1999999101031MD1999999-0011REMSYN076AAXX  15124 82198 32595 60713 10287 20222 30103 40155 86200 333 20243 59001;EQDQ01  00002PRCP06
0195821980999992004091518004-01717-045400FM-12+004499999V0200701N005110450019N0020001N1+03121+02251101181ADDAA106000091AY121061AY221061GF105991031021008001011001MA1999999100671MD1999999-0061MW1141REMSYN076AAXX  15184 82198 31595 50710 10312 20225 30067 40118 71422 83210 333 59006;EQDQ01  00002PRCP06
0208821980999992004091600004-01717-045400FM-12+004499999V0200501N002612200019N0005001N1+02551+02331101341ADDAA106000091GA1001+999999999GF100991001001999999001001KA1240M+03231MA1999999100821MD1999999-0041REMSYN082AAXX  16004 82198 32993 00505 10255 20233 30082 40134 333 10323 29075 55096 59004;EQDQ01  00002PRCP06
0186821980999992004091612004-01717-045400FM-12+004499999V0200501N005110450019N0020001N1+02831+02251101441ADDAA106000091GF106991041051004501061001KA1240N+02401MA1999999100921MD1999999-0111REMSYN076AAXX  16124 82198 32495 60510 10283 20225 30092 40144 84560 333 20240 59011;EQDQ01  00002PRCP06
0171821980999992004091618004-01717-045400FM-12+004499999V0200701N005710450019N0005001N1+02971+02291101171ADDAY161061AY221061GF107991031021008001061001MA1999999100661MD1999999-0011MW1141REMSYN082AAXX  16184 82198 21593 70711 10297 20229 30066 40117 71462 83260 333 59001 60021;
0208821980999992004091700004-01717-045400FM-12+004499999V0200501N002612200019N0002001N1+02531+02211101361ADDAA106000091GA1001+999999999GF100991001001999999001001KA1240M+03211MA1999999100841MD1999999+0021REMSYN082AAXX  17004 82198 32992 00505 10253 20221 30084 40136 333 10321 29076 55084 58002;EQDQ01  00002PRCP06
0162821980999992004091712004-01717-045400FM-12+004499999V0200501N003610450019N0020001N1+02871+02221101511ADDGF106991031021004501061001KA1240N+02391MA1999999100991MD1999999+0021REMSYN082AAXX  17124 82198 22495 60507 10287 20222 30099 40151 83260 333 20239 58002 60024;
0195821980999992004091718004-01717-045400FM-12+004499999V0200501N004110450019N0005001N1+03021+02361101201ADDAA106000091AY121061AY221061GF106991041051008001011001MA1999999100691MD1999999+0031MW1141REMSYN076AAXX  17184 82198 31593 60508 10302 20236 30069 40120 71422 84510 333 58003;EQDQ01  00002PRCP06
0208821980999992004091800004-01717-045400FM-12+004499999V0200501N002612200019N0002001N1+02551+02371101381ADDAA106000091GA1001+999999999GF100991001001999999001001KA1240M+03221MA1999999100861MD1999999+0021REMSYN082AAXX  18004 82198 32992 00505 10255 20237 30086 40138 333 10322 29078 55070 58002;EQDQ01  00002PRCP06
0186821980999992004091812004-01717-045400FM-12+004499999V0200701N005710450019N0040001N1+02841+02351101411ADDAA106000091GF106991031051008001061001KA1240N+02421MA1999999100891MD1999999-0101REMSYN076AAXX  18124 82198 32596 60711 10284 20235 30089 40141 83560 333 20242 59010;EQDQ01  00002PRCP06
0195821980999992004091818004-01717-045400FM-12+004499999V0200901N004610075019N0005001N1+03151+02301101061ADDAA106000091AY121061AY221061GF105991051021008001001001MA1999999100551MD1999999-0141MW1141REMSYN076AAXX  18184 82198 31593 50909 10315 20230 30055 40106 71422 85200 333 59014;EQDQ01  00002PRCP06
0236821980999992004091900004-01720-045400FM-12+004499999V0200501N002612200019N0002001N1+02591+02351101271ADDAA106000091AY101061AY211061GA1001+999999999GF100991001001999999001001KA1240M+03261MA1999999100761MD1999999-0101MW1131REMSYN088AAXX  19004 82198 31992 00505 10259 20235 30076 40127 71301 333 10326 29076 55085 59010;EQDQ01  00002PRCP06
0214821980999992004091912004-01720-045400FM-12+004499999V0203601N005710450019N0040001N1+02891+02251101421ADDAA106000091AY121061AY221061GF106991041031008001061001KA1240N+02511MA1999999100901MD1999999+0011MW1141REMSYN082AAXX  19124 82198 31596 63611 10289 20225 30090 40142 71422 84360 333 20251 58001;EQDQ01  00002PRCP06
0171821980999992004091918004-01720-045400FM-12+004499999V0200901N005710450019N0040001N1+03171+02331100951ADDAY161061AY221061GF105991031021008001011001MA1999999100441MD1999999-0111MW1141REMSYN082AAXX  19184 82198 21596 50911 10317 20233 30044 40095 71462 83210 333 59011 69921;
0208821980999992004092000004-01720-045400FM-12+004499999V0200501N003112200019N0005001N1+02581+02291101191ADDAA106000091GA1001+999999999GF100991001001999999001001KA1240M+03241MA1999999100681MD1999999-0081REMSYN082AAXX  20004 82198 32993 00506 10258 20229 30068 40119 333 10324 29075 55086 59008;EQDQ01  00002PRCP06
0162821980999992004092012004-01717-045400FM-12+004499999V0200701N004110450019N0020001N1+02921+02501101391ADDGF106991041051008001061001KA1240N+02451MA1999999100871MD1999999-0031REMSYN082AAXX  20124 82198 22595 60708 10292 20250 30087 40139 84560 333 20245 59003 69924;
0167821980999992004092018004-01717-045400FM-12+004499999V0200901N005712200019N0040001N1+03131+02031101061ADDAA106000091GF102991021011004501001001MA1999999100541MD1999999-0101REMSYN070AAXX  20184 82198 32496 20911 10313 20203 30054 40106 82100 333 59010;EQDQ01  00002PRCP06
0208821980999992004092100004-01717-045400FM-12+004499999V0200501N002112200019N0005001N1+02591+02291101221ADDAA106000091GA1001+999999999GF100991001001999999001001KA1240M+03231MA1999999100711MD1999999+0031REMSYN082AAXX  21004 82198 32993 00504 10259 20229 30071 40122 333 10323 29075 55089 58003;EQDQ01  00002PRCP06
0186821980999992004092112004-01717-045400FM-12+004499999V0200701N005710450019N0040001N1+02981+02301101331ADDAA106000091GF106991031011004501061001KA1240N+02451MA1999999100821MD1999999-0051REMSYN076AAXX  21124 82198 32496 60711 10298 20230 30082 40133 83160 333 20245 59005;EQDQ01  00002PRCP06
0167821980999992004092118004-01717-045400FM-12+004499999V0200701N005110450019N0040001N1+03181+02191101121ADDAA106000091GF105991031021008001011001MA1999999100611MD1999999+0071REMSYN070AAXX  21184 82198 32596 50710 10318 20219 30061 40112 83210 333 58007;EQDQ01  00002PRCP06
0198821980999992004092200004-01717-045400FM-12+004499999V0200501N003612200019N0005001N1+02591+02291101351ADDAA106000091GF103991031001022501001011KA1240M+03241MA1999999100841MD1999999+0131REMSYN088AAXX  22004 82198 32893 30507 10259 20229 30084 40135 83001 333 10324 29072 55094 58013;EQDQ01  00002PRCP06
0186821980999992004092212004-01717-045400FM-12+004499999V0200501N004610450019N0040001N1+02861+02311101581ADDAA106000091GF106991041021008001061001KA1240N+02471MA1999999101061MD1999999+0241REMSYN076AAXX  22124 82198 32596 60509 10286 20231 30106 40158 84260 333 20247 58024;EQDQ01  00002PRCP06
0195821980999992004092218004-01717-045400FM-12+004499999V0200701N007211050019N0040001N1+03121+02671101321ADDAA106000091AY121061AY221061GF105991021011004501011011MA1999999100801MD1999999+0191MW1141REMSYN076AAXX  22184 82198 31496 50714 10312 20267 30080 40132 71422 82111 333 58019;EQDQ01  00002PRCP06
0198821980999992004092300004-01717-045400FM-12+004499999V0200501N003112200019N0020001N1+02591+02291101441ADDAA106000091GF102991011011004501001011KA1240M+03231MA1999999100921MD1999999+0081REMSYN088AAXX  23004 82198 32495 20506 10259 20229 30092 40144 81101 333 10323 29072 55098 58008;EQDQ01  00002PRCP06
0186821980999992004092312004-01717-045400FM-12+004499999V0200701N004610450019N0020001N1+02971+02391101571ADDAA106000091GF106991031051008001061001KA1240N+02431MA1999999101051MD1999999-0011REMSYN076AAXX  23124 82198 32595 60709 10297 20239 30105 40157 83560 333 20243 59001;EQDQ01  00002PRCP06
0195821980999992004092318004-01717-045400FM-12+004499999V0200701N007212200019N0040001N1+03191+02211101231ADDAA106000091AY121061AY221061GF104991031021008001001011MA1999999100721MD1999999-0081MW1141REMSYN076AAXX  23184 82198 31596 40714 10319 20221 30072 40123 71422 83201 333 59008;EQDQ01  00002PRCP06
0208821980999992004092400004-01717-045400FM-12+004499999V0200501N004112200019N0005001N1+02541+02211101371ADDAA106000091GA1001+999999999GF100991001001999999001001KA1240M+03251MA1999999100851MD1999999-0071REMSYN082AAXX  24004 82198 32993 00508 10254 20221 30085 40137 333 10325 29072 55102 59007;EQDQ01  00002PRCP06
0214821980999992004092412004-01717-045400FM-12+004499999V0200701N006710450019N0020001N1+02911+02251101441ADDAA106000091AY121061AY221061GF106991031011004501061091KA1240N+02401MA1999999100921MD1999999-0131MW1141REMSYN082AAXX  24124 82198 31495 60713 10291 20225 30092 40144 71422 83169 333 20240 59013;EQDQ01  00002PRCP06
0195821980999992004092418004-01717-045400FM-12+004499999V0200701N005710075019N0020001N1+03191+02241101091ADDAA106000091AY121061AY201061GF105991051021008001001001MA1999999100581MD1999999-0141MW1141REMSYN076AAXX  24184 82198 31595 50711 10319 20224 30058 40109 71420 85200 333 59014;EQDQ01  00002PRCP06
0198821980999992004092500004-01717-045400FM-12+004499999V0200501N003112200019N0040001N1+02591+02311101251ADDAA106000091GF103991021011004501001011KA1240M+03261MA1999999100741MD1999999-0111REMSYN088AAXX  25004 82198 32496 30506 10259 20231 30074 40125 82101 333 10326 29073 55097 59011;EQDQ01  00002PRCP06
0186821980999992004092512004-01717-045400FM-12+004499999V0200701N007210450019N0040001N1+02931+02251101361ADDAA106000091GF106991031051004501061001KA1240N+02431MA1999999100841MD1999999-0081REMSYN076AAXX  25124 82198 32496 60714 10293 20225 30084 40136 83560 333 20243 59008;EQDQ01  00002PRCP06
0167821980999992004092518004-01717-045400FM-12+004499999V0200901N007210075019N0040001N1+03151+02271101041ADDAA106000091GF105991051021008001001001MA1999999100531MD1999999-0051REMSYN070AAXX  25184 82198 32596 50914 10315 20227 30053 40104 85200 333 59005;EQDQ01  00002PRCP06
0198821980999992004092600004-01717-045400FM-12+004499999V0200501N003112200019N0040001N1+02601+02331101241ADDAA106000091GF102991011011004501001011KA1240M+03221MA1999999100731MD1999999-0011REMSYN088AAXX  26004 82198 32496 20506 10260 20233 30073 40124 81101 333 10322 29074 55088 59001;EQDQ01  00002PRCP06
0186821980999992004092612004-01720-045400FM-12+004499999V0200701N006210075019N0040001N1+03001+02321101471ADDAA106000091GF106991061021008001001001KA1240N+02491MA1999999100951MD1999999+0111REMSYN076AAXX  26124 82198 32596 60712 10300 20232 30095 40147 86200 333 20249 58011;EQDQ01  00002PRCP06
0195821980999992004092618004-01720-045400FM-12+004499999V0200701N006212200019N0040001N1+03181+02061101101ADDAA106000091AY121061AY221061GF104991041021008001001001MA1999999100591MD1999999+0061MW1141REMSYN076AAXX  26184 82198 31596 40712 10318 20206 30059 40110 71422 84200 333 58006;EQDQ01  00002PRCP06
0198821980999992004092700004-01720-045400FM-12+004499999V0200501N003112200019N0040001N1+02581+02371101291ADDAA106000091GF102991011011004501001011KA1240M+03251MA1999999100781MD1999999+0051REMSYN088AAXX  27004 82198 32496 20506 10258 20237 30078 40129 81101 333 10325 29074 55106 58005;EQDQ01  00002PRCP06
0186821980999992004092712004-01720-045400FM-12+004499999V0200701N004110450019N0020001N1+02941+02471101421ADDAA106000091GF106991031021004501031001KA1240N+02471MA1999999100901MD1999999-0051REMSYN076AAXX  27124 82198 32495 60708 10294 20247 30090 40142 83230 333 20247 59005;EQDQ01  00002PRCP06
0171821980999992004092718004-01717-045400FM-12+004499999V0200901N006710450019N0005001N1+02851+02391101121ADDAY161061AY221061GF107991031051008001041061MA1999999100611MD1999999+0021MW1211REMSYN082AAXX  27184 82198 21593 70913 10285 20239 30061 40112 72162 83546 333 58002 60041;
0179821980999992004092800004-01717-045400FM-12+004499999V0200201N001510150019N0040001N1+02571+02351101351ADDAA106000021GF107991061001017501011061KA1240M+03191MA1999999100831MD1999999+0051REMSYN088AAXX  28004 82198 32796 70203 10257 20235 30083 40135 86016 333 10319 29081 55056 58005;
0162821980999992004092812004-01717-045400FM-12+004499999V0200701N004110075019N0005001N1+02831+02361101351ADDGF107991061031008001011001KA1240N+02481MA1999999100831MD1999999-0071REMSYN082AAXX  28124 82198 22593 70708 10283 20236 30083 40135 86310 333 20248 59007 60044;
0167821980999992004092818004-01717-045400FM-12+004499999V0200501N006712200019N0020001N1+03151+02151101001ADDAA106000091GF104991031011004501041011MA1999999100491MD1999999-0121REMSYN070AAXX  28184 82198 32495 40513 10315 20215 30049 40100 83141 333 59012;EQDQ01  00002PRCP06
0198821980999992004092900004-01717-045400FM-12+004499999V0203601N003110450019N0040001N1+02661+02331101211ADDAA106000091GF105991031021004501061001KA1240M+03211MA1999999100701MD1999999-0131REMSYN088AAXX  29004 82198 32496 53606 10266 20233 30070 40121 83260 333 10321 29074 55055 59013;EQDQ01  00002PRCP06
0186821980999992004092912004-01717-045400FM-12+004499999V0200701N005710450019N0020001N1+02831+02341101291ADDAA106000091GF106991031021004501061011KA1240N+02491MA1999999100781MD1999999-0051REMSYN076AAXX  29124 82198 32495 60711 10283 20234 30078 40129 83261 333 20249 59005;EQDQ01  00002PRCP06
0167821980999992004092918004-01717-045400FM-12+004499999V0200701N005110450019N0020001N1+03321+02291100861ADDAA106000091GF105991031021008001061001MA1999999100351MD1999999-0141REMSYN070AAXX  29184 82198 32595 50710 10332 20229 30035 40086 83260 333 59014;EQDQ01  00002PRCP06
0198821980999992004093000004-01717-045400FM-12+004499999V0200701N002612200019N0040001N1+02601+02331100941ADDAA106000091GF103991011011017501001061KA1240M+03381MA1999999100431MD1999999-0271REMSYN088AAXX  30004 82198 32796 30705 10260 20233 30043 40094 81106 333 10338 29075 55103 59027;EQDQ01  00002PRCP06
0214821980999992004093012004-01717-045400FM-12+004499999V0200701N006210042019N0020001N1+02921+02271101221ADDAA106000091AY121061AY221061GF105991051021004501001001KA1240N+02461MA1999999100711MD1999999-0071MW1041REMSYN082AAXX  30124 82198 31495 50712 10292 20227 30071 40122 70422 85200 333 20246 59007;EQDQ01  00002PRCP06
0211821980999992004093018004-01717-045400FM-12+004499999V0200701N004612200019N0040001N1+03221+02081100911ADDAA106000091AY121061AY221061GF101991999021004501001001MA1999999100401MD1999999+0051MW1041REMSYN076AAXX  30184 82198 31496 10709 10322 20208 30040 40091 70422 84200 333 58005;EQDQ01+000042SCOTLCQ02  00002PRCP06
0198821980999992004100100004-01717-045400FM-12+004499999V0200501N002612200019N0040001N1+02591+02331101081ADDAA106000091GF102991021021004501001001KA1240M+03281MA1999999100571MD1999999+0141REMSYN088AAXX  01004 82198 32496 20505 10259 20233 30057 40108 82200 333 10328 29073 55093 58014;EQDQ01  00002PRCP06
0186821980999992004100112004-01717-045400FM-12+004499999V0200701N003610042019N0040001N1+02861+02351101271ADDAA106000091GF106991061021004501001001KA1240N+02471MA1999999100761MD1999999+0051REMSYN076AAXX  01124 82198 32496 60707 10286 20235 30076 40127 86200 333 20247 58005;EQDQ01  00002PRCP06
0167821980999992004100118004-01717-045400FM-12+004499999V0200701N006210075019N0040001N1+03201+02301100981ADDAA106000091GF105991051021008001001001MA1999999100471MD1999999+0071REMSYN070AAXX  01184 82198 32596 50712 10320 20230 30047 40098 85200 333 58007;EQDQ01  00002PRCP06
0208821980999992004100200004-01717-045400FM-12+004499999V0200701N002112200019N0020001N1+02561+02331101141ADDAA106000091GA1001+999999999GF100991001001999999001001KA1240M+03291MA1999999100631MD1999999+0061REMSYN082AAXX  02004 82198 32995 00704 10256 20233 30063 40114 333 10329 29077 55102 58006;EQDQ01  00002PRCP06
0186821980999992004100212004-01717-045400FM-12+004499999V0200701N007210075019N0100001N1+02981+02301101251ADDAA106000091GF106991051021008001061001KA1240N+02441MA1999999100741MD1999999-0021REMSYN076AAXX  02124 82198 32597 60714 10298 20230 30074 40125 85260 333 20244 59002;EQDQ01  00002PRCP06
0167821980999992004100218004-01717-045400FM-12+004499999V0200701N004612200019N0040001N1+03121+02221100931ADDAA106000091GF104991021021004501061001MA1999999100421MD1999999-0051REMSYN070AAXX  02184 82198 32496 40709 10312 20222 30042 40093 82260 333 59005;EQDQ01  00002PRCP06
0208821980999992004100300004-01717-045400FM-12+004499999V0200701N003612200019N0020001N1+02581+02311101081ADDAA106000091GA1001+999999999GF100991001001999999001001KA1240M+03181MA1999999100571MD1999999-0061REMSYN082AAXX  03004 82198 32995 00707 10258 20231 30057 40108 333 10318 29074 55081 59006;EQDQ01  00002PRCP06
0186821980999992004100312004-01717-045400FM-12+004499999V0200701N004110042019N0040001N1+02981+02351101271ADDAA106000091GF105991051021004501001001KA1240N+02421MA1999999100761MD1999999+0021REMSYN076AAXX  03124 82198 32496 50708 10298 20235 30076 40127 85200 333 20242 58002;EQDQ01  00002PRCP06
0167821980999992004100318004-01720-045400FM-12+004499999V0200701N004110075019N0040001N1+03021+02311100941ADDAA106000091GF105991051021008001001001MA1999999100431MD1999999+0011REMSYN070AAXX  03184 82198 32596 50708 10302 20231 30043 40094 85200 333 58001;EQDQ01  00002PRCP06
0186821980999992004100412004-01717-045400FM-12+004499999V0200701N004612200019N0100001N1+02981+02421101241ADDAA106000091GF104991021011004501031001KA1240N+02451MA1999999100731MD1999999-0031REMSYN076AAXX  04124 82198 32497 40709 10298 20242 30073 40124 82130 333 20245 59003;EQDQ01  00002PRCP06
0167821980999992004100418004-01717-045400FM-12+004499999V0200501N005112200019N0040001N1+03121+02171100981ADDAA106000091GF104991021021008001061001MA1999999100471MD1999999+0041REMSYN070AAXX  04184 82198 32596 40510 10312 20217 30047 40098 82260 333 58004;EQDQ01  00002PRCP06
0208821980999992004100500004-01717-045400FM-12+004499999V0200501N004112200019N0020001N1+02621+02271101091ADDAA106000091GA1001+999999999GF100991001001999999001001KA1240M+03391MA1999999100581MD1999999+0021REMSYN082AAXX  05004 82198 32995 00508 10262 20227 30058 40109 333 10339 29073 55090 58002;EQDQ01  00002PRCP06
0186821980999992004100512004-01717-045400FM-12+004499999V0200701N006710450019N0040001N1+02881+02321101241ADDAA106000091GF107991041031008001061001KA1240N+02481MA1999999100731MD1999999+0001REMSYN076AAXX  05124 82198 32596 70713 10288 20232 30073 40124 84360 333 20248 58000;EQDQ01  00002PRCP06
0167821980999992004100518004-01717-045400FM-12+004499999V0200201N002610450019N0040001N1+02981+02301101001ADDAA106000091GF105991031021008001061001MA1999999100491MD1999999+0021REMSYN070AAXX  05184 82198 32596 50205 10298 20230 30049 40100 83260 333 58002;EQDQ01  00002PRCP06
0198821980999992004100600004-01717-045400FM-12+004499999V0200701N003612200019N0005001N1+02601+02371101151ADDAA106000091GF103991021011004501061001KA1240M+03391MA1999999100641MD1999999+0061REMSYN088AAXX  06004 82198 32493 30707 10260 20237 30064 40115 82160 333 10339 29078 55032 58006;EQDQ01  00002PRCP06
0186821980999992004100612004-01717-045400FM-12+004499999V0200701N005712200019N0100001N1+02901+02271101291ADDAA106000091GF104991041021004501001001KA1240N+02461MA1999999100781MD1999999+0051REMSYN076AAXX  06124 82198 32497 40711 10290 20227 30078 40129 84200 333 20246 58005;EQDQ01  00002PRCP06
0167821980999992004100618004-01717-045400FM-12+004499999V0200701N005710450019N0100001N1+03021+02131101051ADDAA106000091GF105991021021004501061001MA1999999100541MD1999999+0051REMSYN070AAXX  06184 82198 32497 50711 10302 20213 30054 40105 82260 333 58005;EQDQ01  00002PRCP06
0208821980999992004100700004-01717-045400FM-12+004499999V0200701N002612200019N0005001N1+02521+02191101241ADDAA106000091GA1001+999999999GF100991001001999999001001KA1240M+03071MA1999999100731MD1999999+0091REMSYN082AAXX  07004 82198 32993 00705 10252 20219 30073 40124 333 10307 29073 55048 58009;EQDQ01  00002PRCP06
0186821980999992004100712004-01717-045400FM-12+004499999V0200501N005712200019N0100001N1+02991+02331101361ADDAA106000091GF105991041011004501001011KA1240N+02381MA1999999100851MD1999999+0071REMSYN076AAXX  07124 82198 32497 50511 10299 20233 30085 40136 84101 333 20238 58007;EQDQ01  00002PRCP06
0167821980999992004100718004-01717-045400FM-12+004499999V0200201N005112200019N0100001N1+03131+02081100941ADDAA106000091GF104991031021008001001011MA1999999100431MD1999999-0111REMSYN070AAXX  07184 82198 32597 40210 10313 20208 30043 40094 83201 333 59011;EQDQ01  00002PRCP06
0208821980999992004100800004-01717-045400FM-12+004499999V0200501N003112200019N0005001N1+02541+02311101211ADDAA106000091GA1001+999999999GF100991001001999999001001KA1240M+03361MA1999999100701MD1999999-0031REMSYN082AAXX  08004 82198 32993 00506 10254 20231 30070 40121 333 10336 29074 55105 59003;EQDQ01  00002PRCP06
0186821980999992004100812004-01717-045400FM-12+004499999V0200701N004612200019N0100001N1+02901+02271101331ADDAA106000091GF105991041011004501001011KA1240N+02421MA1999999100821MD1999999-0031REMSYN076AAXX  08124 82198 32497 50709 10290 20227 30082 40133 84101 333 20242 59003;EQDQ01  00002PRCP06
0167821980999992004100818004-01717-045400FM-12+004499999V0200701N004112200019N0100001N1+03081+02321100961ADDAA106000091GF104991031021008001061001MA1999999100451MD1999999+0021REMSYN070AAXX  08184 82198 32597 40708 10308 20232 30045 40096 83260 333 58002;EQDQ01  00002PRCP06
0208821980999992004100900004-01717-045400FM-12+004499999V0200501N002612200019N0005001N1+02561+02331101261ADDAA106000091GA1001+999999999GF100991001001999999001001KA1240M+03381MA1999999100751MD1999999+0051REMSYN082AAXX  09004 82198 32993 00505 10256 20233 30075 40126 333 10338 29077 55093 58005;EQDQ01  00002PRCP06
0186821980999992004100912004-01717-045400FM-12+004499999V0200701N007210042019N0040001N1+02971+02331101361ADDAA106000091GF105991051021004501001001KA1240N+02431MA1999999100851MD1999999+0031REMSYN076AAXX  09124 82198 32496 50714 10297 20233 30085 40136 85200 333 20243 58003;EQDQ01  00002PRCP06
0167821980999992004100918004-01717-045400FM-12+004499999V0200701N006212200019N0100001N1+03111+02061101081ADDAA106000091GF104991031021008001001011MA1999999100571MD1999999+0121REMSYN070AAXX  09184 82198 32597 40712 10311 20206 30057 40108 83201 333 58012;EQDQ01  00002PRCP06
0208821980999992004101000004-01717-045400FM-12+004499999V0200501N002112200019N0005001N1+02591+02291101261ADDAA106000091GA1001+999999999GF100991001001999999001001KA1240M+03311MA1999999100751MD1999999+0001REMSYN082AAXX  10004 82198 32993 00504 10259 20229 30075 40126 333 10331 29072 55105 58000;EQDQ01  00002PRCP06
0186821980999992004101012004-01717-045400FM-12+004499999V0200701N006710042019N0040001N1+02981+02231101361ADDAA106000091GF106991061021004501001001KA1240N+02441MA1999999100851MD1999999+0001REMSYN076AAXX  10124 82198 32496 60713 10298 20223 30085 40136 86200 333 20244 58000;EQDQ01  00002PRCP06
0167821980999992004101018004-01717-045400FM-12+004499999V0200701N007212200019N0100001N1+03111+02061101061ADDAA106000091GF103991031021008001001001MA1999999100551MD1999999-0021REMSYN070AAXX  10184 82198 32597 30714 10311 20206 30055 40106 83200 333 59002;EQDQ01  00002PRCP06
0208821980999992004101100004-01717-045400FM-12+004499999V0200701N002612200019N0005001N1+02601+02311101241ADDAA106000091GA1001+999999999GF100991001001999999001001KA1240M+03281MA1999999100731MD1999999-0021REMSYN082AAXX  11004 82198 32993 00705 10260 20231 30073 40124 333 10328 29072 55108 59002;EQDQ01  00002PRCP06
0186821980999992004101112004-01720-045400FM-12+004499999V0200701N008210075019N0040001N1+02931+02341101301ADDAA106000091GF105991051021008001001001KA1240N+02411MA1999999100791MD1999999-0061REMSYN076AAXX  11124 82198 32596 50716 10293 20234 30079 40130 85200 333 20241 59006;EQDQ01  00002PRCP06
0167821980999992004101118004-01720-045400FM-12+004499999V0200701N006712200019N0040001N1+03161+02081100941ADDAA106000091GF103991031011008001001001MA1999999100431MD1999999-0121REMSYN070AAXX  11184 82198 32596 30713 10316 20208 30043 40094 83100 333 59012;EQDQ01  00002PRCP06
0208821980999992004101200004-01720-045400FM-12+004499999V0200501N004112200019N0005001N1+02581+02271101141ADDAA106000091GA1001+999999999GF100991001001999999001001KA1240M+03251MA1999999100631MD1999999-0101REMSYN082AAXX  12004 82198 32993 00508 10258 20227 30063 40114 333 10325 29072 55106 59010;EQDQ01  00002PRCP06
0186821980999992004101212004-01720-045400FM-12+004499999V0200701N006710075019N0040001N1+02991+02251101241ADDAA106000091GF105991051021008001001001KA1240N+02371MA1999999100731MD1999999-0061REMSYN076AAXX  12124 82198 32596 50713 10299 20225 30073 40124 85200 333 20237 59006;EQDQ01  00002PRCP06
0208821980999992004101300004-01717-045400FM-12+004499999V0200701N003612200019N0005001N1+02601+02351101071ADDAA106000091GA1001+999999999GF100991001001999999001001KA1240M+03361MA1999999100561MD1999999-0071REMSYN082AAXX  13004 82198 32993 00707 10260 20235 30056 40107 333 10336 29072 55107 59007;EQDQ01  00002PRCP06
0170821980999992004101312004-01717-045400FM-12+004499999V0200701N004110075019N0100001N1+02981+02351101151ADDAA106000091GF106991051021008001001011KA1240N+02391MA1999999100641REMSYN074AAXX  13124 82198 32597 60708 10298 20235 30064 40115 85201 333 20239 009;EQDQ01  00002PRCP06
0167821980999992004101318004-01717-045400FM-12+004499999V0200701N004112200019N0040001N1+03271+02201100871ADDAA106000091GF104991041021004501001001MA1999999100361MD1999999-0081REMSYN070AAXX  13184 82198 32496 40708 10327 20220 30036 40087 84200 333 59008;EQDQ01  00002PRCP06
0208821980999992004101400004-01717-045400FM-12+004499999V0200201N004112200019N0005001N1+02641+02371101121ADDAA106000091GA1001+999999999GF100991001001999999001001KA1240M+03391MA1999999100611MD1999999+0051REMSYN082AAXX  14004 82198 32993 00208 10264 20237 30061 40112 333 10339 29073 55092 58005;EQDQ01  00002PRCP06
0186821980999992004101412004-01717-045400FM-12+004499999V0200701N005112200019N0100001N1+02961+02311101191ADDAA106000091GF104991041011004501001001KA1240N+02431MA1999999100681MD1999999+0041REMSYN076AAXX  14124 82198 32497 40710 10296 20231 30068 40119 84100 333 20243 58004;EQDQ01  00002PRCP06
0208821980999992004101500004-01717-045400FM-12+004499999V0200501N003612200019N0005001N1+02641+02331101131ADDAA106000091GA1001+999999999GF100991001001999999001001KA1240M+03341MA1999999100621MD1999999+0011REMSYN082AAXX  15004 82198 32993 00507 10264 20233 30062 40113 333 10334 29072 55107 58001;EQDQ01  00002PRCP06
0186821980999992004101512004-01717-045400FM-12+004499999V0200701N006710075019N0100001N1+03041+02361101171ADDAA106000091GF105991051021008001001001KA1240N+02481MA1999999100661MD1999999-0021REMSYN076AAXX  15124 82198 32597 50713 10304 20236 30066 40117 85200 333 20248 59002;EQDQ01  00002PRCP06
0167821980999992004101518004-01717-045400FM-12+004499999V0200701N005112200019N0040001N1+03161+02171100941ADDAA106000091GF104991041021008001001001MA1999999100431MD1999999+0051REMSYN070AAXX  15184 82198 32596 40710 10316 20217 30043 40094 84200 333 58005;EQDQ01  00002PRCP06
0208821980999992004101600004-01717-045400FM-12+004499999V0200501N003112200019N0005001N1+02621+02371101111ADDAA106000091GA1001+999999999GF100991001001999999001001KA1240M+03321MA1999999100611MD1999999-0011REMSYN082AAXX  16004 82198 32993 00506 10262 20237 30061 40111 333 10332 29074 55093 59001;EQDQ01  00002PRCP06
0186821980999992004101612004-01720-045400FM-12+004499999V0200501N004610075019N0100001N1+02921+02361101191ADDAA106000091GF106991061021008001001001KA1240N+02471MA1999999100681MD1999999+0021REMSYN076AAXX  16124 82198 32597 60509 10292 20236 30068 40119 86200 333 20247 58002;EQDQ01  00002PRCP06
0167821980999992004101618004-01720-045400FM-12+004499999V0200701N004110075019N0040001N1+02961+02261100931ADDAA106000091GF107991051041008001041001MA1999999100421MD1999999-0011REMSYN070AAXX  16184 82198 32596 70708 10296 20226 30042 40093 85440 333 59001;EQDQ01  00002PRCP06
0208821980999992004101700004-01720-045400FM-12+004499999V0200701N003112200019N0005001N1+02601+02311101091ADDAA106000091GA1001+999999999GF100991001001999999001001KA1240M+03131MA1999999100581MD1999999-0031REMSYN082AAXX  17004 82198 32993 00706 10260 20231 30058 40109 333 10313 29076 55039 59003;EQDQ01  00002PRCP06
0186821980999992004101712004-01720-045400FM-12+004499999V0200701N005112200019N0100001N1+02881+02301101241ADDAA106000091GF106991041021008001001011KA1240N+02461MA1999999100731MD1999999+0051REMSYN076AAXX  17124 82198 32597 60710 10288 20230 30073 40124 84201 333 20246 58005;EQDQ01  00002PRCP06
0167821980999992004101718004-01720-045400FM-12+004499999V0200701N005110042019N0040001N1+03101+02361100871ADDAA106000091GF105991051021004501001001MA1999999100361MD1999999+0061REMSYN070AAXX  17184 82198 32496 50710 10310 20236 30036 40087 85200 333 58006;EQDQ01  00002PRCP06
0208821980999992004101800004-01717-045400FM-12+004499999V0200701N003612200019N0005001N1+02601+02401101051ADDAA106000091GA1001+999999999GF100991001001999999001001KA1240M+03281MA1999999100541MD1999999-0041REMSYN082AAXX  18004 82198 32993 00707 10260 20240 30054 40105 333 10328 29078 55089 59004;EQDQ01  00002PRCP06
0186821980999992004101812004-01717-045400FM-12+004499999V0200501N005710075019N0040001N1+02901+02371101211ADDAA106000091GF106991051021008001001011KA1240N+02491MA1999999100701MD1999999-0031REMSYN076AAXX  18124 82198 32596 60511 10290 20237 30070 40121 85201 333 20249 59003;EQDQ01  00002PRCP06
0167821980999992004101818004-01717-045400FM-12+004499999V0200701N004610075019N0100001N1+03221+02371100931ADDAA106000091GF105991051021008001001001MA1999999100421MD1999999+0061REMSYN070AAXX  18184 82198 32597 50709 10322 20237 30042 40093 85200 333 58006;EQDQ01  00002PRCP06
0208821980999992004101900004-01717-045400FM-12+004499999V0200701N003112200019N0020001N1+02601+02371101051ADDAA106000091GA1001+999999999GF100991001001999999001001KA1240M+03371MA1999999100541MD1999999+0001REMSYN082AAXX  19004 82198 32995 00706 10260 20237 30054 40105 333 10337 29077 55100 58000;EQDQ01  00002PRCP06
0186821980999992004101912004-01717-045400FM-12+004499999V0200701N005712200019N0100001N1+02971+02351101201ADDAA106000091GF105991041021008001001011KA1240N+02481MA1999999100691MD1999999-0011REMSYN076AAXX  19124 82198 32597 50711 10297 20235 30069 40120 84201 333 20248 59001;EQDQ01  00002PRCP06
0167821980999992004101918004-01717-045400FM-12+004499999V0200701N005112200019N0100001N1+03221+02201101011ADDAA106000091GF104991031021008001001011MA1999999100501MD1999999+0081REMSYN070AAXX  19184 82198 32597 40710 10322 20220 30050 40101 83201 333 58008;EQDQ01  00002PRCP06
0208821980999992004102000004-01717-045400FM-12+004499999V0200501N003612200019N0020001N1+02631+02351101251ADDAA106000091GA1001+999999999GF100991001001999999001001KA1240M+03361MA1999999100741MD1999999+0201REMSYN082AAXX  20004 82198 32995 00507 10263 20235 30074 40125 333 10336 29074 55102 58020;EQDQ01  00002PRCP06
0186821980999992004102012004-01717-045400FM-12+004499999V0200701N004610450019N0040001N1+02891+02391101331ADDAA106000091GF107991041021008001041001KA1240N+02461MA1999999100821MD1999999+0131REMSYN076AAXX  20124 82198 32596 70709 10289 20239 30082 40133 84240 333 20246 58013;EQDQ01  00002PRCP06
0167821980999992004102018004-01717-045400FM-12+004499999V0200701N005712200019N0100001N1+03171+02251100911ADDAA106000091GF106991041021008001001011MA1999999100401MD1999999-0101REMSYN070AAXX  20184 82198 32597 60711 10317 20225 30040 40091 84201 333 59010;EQDQ01  00002PRCP06
0208821980999992004102100004-01717-045400FM-12+004499999V0200701N002612200019N0020001N1+02601+02401101081ADDAA106000091GA1001+999999999GF100991001001999999001001KA1240M+03341MA1999999100571MD1999999-0171REMSYN082AAXX  21004 82198 32995 00705 10260 20240 30057 40108 333 10334 29078 55064 59017;EQDQ01  00002PRCP06
0186821980999992004102112004-01717-045400FM-12+004499999V0200701N004110075019N0100001N1+02951+02381101281ADDAA106000091GF105991051021008001001001KA1240N+02481MA1999999100771MD1999999-0051REMSYN076AAXX  21124 82198 32597 50708 10295 20238 30077 40128 85200 333 20248 59005;EQDQ01  00002PRCP06
0167821980999992004102118004-01717-045400FM-12+004499999V0200501N004612200019N0100001N1+02961+02331100941ADDAA106000091GF104991031021004501061001MA1999999100451MD1999999+0031REMSYN070AAXX  21184 82198 32497 40509 10296 20233 30045 40094 83260 333 58003;EQDQ01  00002PRCP06
0208821980999992004102200004-01717-045400FM-12+004499999V0200501N003612200019N0020001N1+02601+02311101061ADDAA106000091GA1001+999999999GF100991001001999999001001KA1240M+03201MA1999999100551MD1999999-0021REMSYN082AAXX  22004 82198 32995 00507 10260 20231 30055 40106 333 10320 29077 55087 59002;EQDQ01  00002PRCP06
0186821980999992004102212004-01717-045400FM-12+004499999V0200501N006212200019N0100001N1+03001+02321101241ADDAA106000091GF105991041021008001001011KA1240N+02401MA1999999100731MD1999999-0041REMSYN076AAXX  22124 82198 32597 50512 10300 20232 30073 40124 84201 333 20240 59004;EQDQ01  00002PRCP06
0167821980999992004102218004-01717-045400FM-12+004499999V0200701N005712200019N0100001N1+03221+02291100951ADDAA106000091GF104991031021008001001011MA1999999100441MD1999999+0011REMSYN070AAXX  22184 82198 32597 40711 10322 20229 30044 40095 83201 333 58001;EQDQ01  00002PRCP06
0198821980999992004102300004-01717-045400FM-12+004499999V0200501N003112200019N0020001N1+02621+02361101091ADDAA106000091GF103991011011008001031001KA1240M+03281MA1999999100581MD1999999+0031REMSYN088AAXX  23004 82198 32595 30506 10262 20236 30058 40109 81130 333 10328 29074 55103 58003;EQDQ01  00002PRCP06
0186821980999992004102312004-01717-045400FM-12+004499999V0200701N004110450019N0040001N1+03011+02391101191ADDAA106000091GF105991041021004501061001KA1240N+02481MA1999999100681MD1999999-0051REMSYN076AAXX  23124 82198 32496 50708 10301 20239 30068 40119 84260 333 20248 59005;EQDQ01  00002PRCP06
0171821980999992004102318004-01717-045400FM-12+004499999V0200701N004610450019N0040001N1+03091+02351100841ADDAY161061AY221061GF106991041021008001061021MA1999999100331MD1999999-0111MW1031REMSYN082AAXX  23184 82198 21596 60709 10309 20235 30033 40084 70362 84262 333 59011 69981;
0198821980999992004102400004-01717-045400FM-12+004499999V0200501N004112200019N0020001N1+02611+02391101071ADDAA106000091GF103991021011004501001011KA1240M+03281MA1999999100561MD1999999-0021REMSYN088AAXX  24004 82198 32495 30508 10261 20239 30056 40107 82101 333 10328 29078 55070 59002;EQDQ01  00002PRCP06
0162821980999992004102412004-01717-045400FM-12+004499999V0200501N004110450019N0040001N1+02941+02471101101ADDGF105991031021008001061001KA1240N+02491MA1999999100591MD1999999-0091REMSYN082AAXX  24124 82198 22596 50508 10294 20247 30059 40110 83260 333 20249 59009 69984;
0167821980999992004102418004-01717-045400FM-12+004499999V0200701N005110450019N0100001N1+03081+02191100791ADDAA106000091GF105991031021008001061001MA1999999100281MD1999999-0051REMSYN070AAXX  24184 82198 32597 50710 10308 20219 30028 40079 83260 333 59005;EQDQ01  00002PRCP06
0198821980999992004102500004-01717-045400FM-12+004499999V0200701N003110450019N0020001N1+02621+02421100951ADDAA106000091GF105991031011008001061011KA1240M+03241MA1999999100441MD1999999-0121REMSYN088AAXX  25004 82198 32595 50706 10262 20242 30044 40095 83161 333 10324 29078 55068 59012;EQDQ01  00002PRCP06
0186821980999992004102512004-01717-045400FM-12+004499999V0200701N006712200019N0040001N1+03001+02391101191ADDAA106000091GF104991041021008001001001KA1240N+02501MA1999999100681MD1999999-0091REMSYN076AAXX  25124 82198 32596 40713 10300 20239 30068 40119 84200 333 20250 59009;EQDQ01  00002PRCP06
0167821980999992004102518004-01717-045400FM-12+004499999V0200501N005112200019N0040001N1+03041+02451100771ADDAA106000091GF103991021021008001061001MA1999999100261MD1999999-0021REMSYN070AAXX  25184 82198 32596 30510 10304 20245 30026 40077 82260 333 59002;EQDQ01  00002PRCP06
0214821980999992004102600004-01717-045400FM-12+004499999V0200701N003112200019N0020001N1+02591+02331100881ADDAA106000091GF103991999001017501061001KA1240M+03181MA1999999100371MD1999999-0071REMSYN088AAXX  26004 82198 32795 30706 10259 20233 30037 40088 82060 333 10318 29078 55096 59007;EQDQ01+000022SCOTLCQ02  00002PRCP06
0186821980999992004102612004-01717-045400FM-12+004499999V0200201N005112200019N0100001N1+02941+02401101171ADDAA106000091GF104991041021008001001001KA1240N+02431MA1999999100661MD1999999-0021REMSYN076AAXX  26124 82198 32597 40210 10294 20240 30066 40117 84200 333 20243 59002;EQDQ01  00002PRCP06
0198821980999992004102700004-01717-045400FM-12+004499999V0200501N003110450019N0020001N1+02641+02371101191ADDAA106000091GF106991031011004501061011KA1240M+03161MA1999999100681MD1999999+0311REMSYN088AAXX  27004 82198 32495 60506 10264 20237 30068 40119 83161 333 10316 29078 55091 58031;EQDQ01  00002PRCP06
0186821980999992004102712004-01717-045400FM-12+004499999V0200501N004610450019N0100001N1+02981+02401101401ADDAA106000091GF105991031021008001031011KA1240N+02291MA1999999100891MD1999999+0231REMSYN076AAXX  27124 82198 32597 50509 10298 20240 30089 40140 83231 333 20229 58023;EQDQ01  00002PRCP06
0198821980999992004102800004-01717-045400FM-12+004499999V0200701N002610450019N0100001N1+02621+02411101271ADDAA106000091GF106991031021008001031001KA1240M+03261MA1999999100761MD1999999+0081REMSYN088AAXX  28004 82198 32597 60705 10262 20241 30076 40127 83230 333 10326 29078 55077 58008;EQDQ01  00002PRCP06
0186821980999992004102812004-01717-045400FM-12+004499999V0200501N005110075019N0100001N1+03011+02461101311ADDAA106000091GF105991051021008001001001KA1240N+02451MA1999999100801MD1999999-0091REMSYN076AAXX  28124 82198 32597 50510 10301 20246 30080 40131 85200 333 20245 59009;EQDQ01  00002PRCP06
0167821980999992004102818004-01717-045400FM-12+004499999V0200901N005712200019N0100001N1+03261+02271100981ADDAA106000091GF102991021011004501001001MA1999999100471MD1999999-0101REMSYN070AAXX  28184 82198 32497 20911 10326 20227 30047 40098 82100 333 59010;EQDQ01  00002PRCP06
0208821980999992004102900004-01717-045400FM-12+004499999V0200701N002612200019N0020001N1+02621+02411100991ADDAA106000091GA1001+999999999GF100991001001999999001001KA1240M+03371MA1999999100481MD1999999-0281REMSYN082AAXX  29004 82198 32995 00705 10262 20241 30048 40099 333 10337 29076 55110 59028;EQDQ01  00002PRCP06
0186821980999992004102912004-01717-045400FM-12+004499999V0200701N005112200019N0040001N1+03021+02311101191ADDAA106000091GF104991041011008001001001KA1240N+02421MA1999999100681MD1999999-0121REMSYN076AAXX  29124 82198 32596 40710 10302 20231 30068 40119 84100 333 20242 59012;EQDQ01  00002PRCP06
0167821980999992004102918004-01717-045400FM-12+004499999V0200701N005712200019N0040001N1+03211+02271100931ADDAA106000091GF104991041021008001001001MA1999999100421MD1999999-0051REMSYN070AAXX  29184 82198 32596 40711 10321 20227 30042 40093 84200 333 59005;EQDQ01  00002PRCP06
0198821980999992004103000004-01717-045400FM-12+004499999V0200701N003112200019N0020001N1+02631+02331101051ADDAA106000091GF102991021011004501001001KA1240M+03341MA1999999100541MD1999999+0061REMSYN088AAXX  30004 82198 32495 20706 10263 20233 30054 40105 82100 333 10334 29073 55103 58006;EQDQ01  00002PRCP06
0186821980999992004103012004-01717-045400FM-12+004499999V0200701N006210075019N0040001N1+02841+02261101231ADDAA106000091GF107991051021008001041001KA1240N+02481MA1999999100721MD1999999+0041REMSYN076AAXX  30124 82198 32596 70712 10284 20226 30072 40123 85240 333 20248 58004;EQDQ01  00002PRCP06
0171821980999992004103018004-01717-045400FM-12+004499999V0200701N007212200019N0100001N1+03191+02071101041ADDAY161061AY221061GF103991021021008001001011MA1999999100531MD1999999+0111MW1021REMSYN082AAXX  30184 82198 21597 30714 10319 20207 30053 40104 70262 82201 333 58011 60011;
0186821980999992004110112004-01720-045400FM-12+004499999V0200501N004610450019N0040001N1+02951+02511101381ADDAA106000091GF106991031051008001061001KA1240N+02491MA1999999100861MD1999999+0051REMSYN076AAXX  01124 82198 32596 60509 10295 20251 30086 40138 83560 333 20249 58005;EQDQ01  00002PRCP06
0208821980999992004110200004-01717-045400FM-12+004499999V0200501N003112200019N0005001N1+02631+02251101071ADDAA106000091GA1001+999999999GF100991001001999999001001KA1240M+03361MA1999999100561MD1999999-0091REMSYN082AAXX  02004 82198 32993 00506 10263 20225 30056 40107 333 10336 29074 55101 59009;EQDQ01  00002PRCP06
0186821980999992004110212004-01717-045400FM-12+004499999V0200701N005710450019N0040001N1+02871+02201101161ADDAA106000091GF106991041051008001061001KA1240N+02441MA1999999100651MD1999999-0211REMSYN076AAXX  02124 82198 32596 60711 10287 20220 30065 40116 84560 333 20244 59021;EQDQ01  00002PRCP06
0167821980999992004110218004-01717-045400FM-12+004499999V0200701N005110075019N0040001N1+03141+02241100821ADDAA106000091GF105991051021008001001001MA1999999100311MD1999999-0151REMSYN070AAXX  02184 82198 32596 50710 10314 20224 30031 40082 85200 333 59015;EQDQ01  00002PRCP06
0208821980999992004110300004-01717-045400FM-12+004499999V0200501N002612200019N0005001N1+02621+02331100961ADDAA106000091GA1001+999999999GF100991001001999999001001KA1240M+03231MA1999999100451MD1999999-0111REMSYN082AAXX  03004 82198 32993 00505 10262 20233 30045 40096 333 10323 29074 55063 59011;EQDQ01  00002PRCP06
0186821980999992004110312004-01717-045400FM-12+004499999V0200701N006212200019N0020001N1+03111+02261101161ADDAA106000091GF106991031051008001001011KA1240N+02511MA1999999100651MD1999999+0001REMSYN076AAXX  03124 82198 32595 60712 10311 20226 30065 40116 83501 333 20251 58000;EQDQ01  00002PRCP06
0167821980999992004110318004-01717-045400FM-12+004499999V0200701N005110450019N0040001N1+03151+02351100851ADDAA106000091GF106991041021008001061001MA1999999100341MD1999999+0031REMSYN070AAXX  03184 82198 32596 60710 10315 20235 30034 40085 84260 333 58003;EQDQ01  00002PRCP06
0208821980999992004110400004-01717-045400FM-12+004499999V0200501N003112200019N0005001N1+02611+02251100961ADDAA106000091GA1001+999999999GF100991001001999999001001KA1240M+03211MA1999999100451MD1999999+0001REMSYN082AAXX  04004 82198 32993 00506 10261 20225 30045 40096 333 10321 29071 55058 58000;EQDQ01  00002PRCP06
0214821980999992004110412004-01717-045400FM-12+004499999V0200701N007210075019N0020001N1+02931+02201101141ADDAA106000091AY101061AY221061GF105991051021008001001001KA1240N+02451MA1999999100631MD1999999-0021MW1041REMSYN082AAXX  04124 82198 31595 50714 10293 20220 30063 40114 70402 85200 333 20245 59002;EQDQ01  00002PRCP06
0195821980999992004110418004-01717-045400FM-12+004499999V0200701N006712200019N0020001N1+03151+02191100901ADDAA106000091AY121061AY211061GF102991021021008001001001MA1999999100391MD1999999+0051MW1041REMSYN076AAXX  04184 82198 31595 20713 10315 20219 30039 40090 70421 82200 333 58005;EQDQ01  00002PRCP06
0208821980999992004110500004-01717-045400FM-12+004499999V0200501N002612200019N0005001N1+02601+02251101021ADDAA106000091GA1001+999999999GF100991001001999999001001KA1240M+03221MA1999999100511MD1999999+0061REMSYN082AAXX  05004 82198 32993 00505 10260 20225 30051 40102 333 10322 29070 55107 58006;EQDQ01  00002PRCP06
0214821980999992004110512004-01717-045400FM-12+004499999V0200701N006210450019N0020001N1+02951+02291101251ADDAA106000091AY101061AY221061GF107991041051008001061001KA1240N+02461MA1999999100741MD1999999+0111MW1041REMSYN082AAXX  05124 82198 31595 70712 10295 20229 30074 40125 70402 84560 333 20246 58011;EQDQ01  00002PRCP06
0195821980999992004110518004-01717-045400FM-12+004499999V0200701N004610075019N0040001N1+03141+02131100941ADDAA106000091AY121061AY221061GF105991051021008001001001MA1999999100431MD1999999+0041MW1041REMSYN076AAXX  05184 82198 31596 50709 10314 20213 30043 40094 70422 85200 333 58004;EQDQ01  00002PRCP06
0208821980999992004110600004-01717-045400FM-12+004499999V0200501N002112200019N0005001N1+02591+02311101151ADDAA106000091GA1001+999999999GF100991001001999999001001KA1240M+03261MA1999999100641MD1999999+0131REMSYN082AAXX  06004 82198 32993 00504 10259 20231 30064 40115 333 10326 29072 55095 58013;EQDQ01  00002PRCP06
0186821980999992004110612004-01717-045400FM-12+004499999V0200701N005710075019N0040001N1+03001+02241101181ADDAA106000091GF105991051021008001001001KA1240N+02441MA1999999100671MD1999999-0071REMSYN076AAXX  06124 82198 32596 50711 10300 20224 30067 40118 85200 333 20244 59007;EQDQ01  00002PRCP06
0195821980999992004110618004-01717-045400FM-12+004499999V0203601N005710075019N0040001N1+03151+02211100861ADDAA106000091AY121061AY221061GF106991061021008001001001MA1999999100351MD1999999-0081MW1041REMSYN076AAXX  06184 82198 31596 63611 10315 20221 30035 40086 70422 86200 333 59008;EQDQ01  00002PRCP06
0208821980999992004110700004-01717-045400FM-12+004499999V0200501N003112200019N0005001N1+02591+02291101051ADDAA106000091GA1001+999999999GF100991001001999999001001KA1240M+03281MA1999999100541MD1999999-0101REMSYN082AAXX  07004 82198 32993 00506 10259 20229 30054 40105 333 10328 29072 55109 59010;EQDQ01  00002PRCP06
0186821980999992004110712004-01717-045400FM-12+004499999V0200501N004612200019N0040001N1+02871+02151101201ADDAA106000091GF105991031021008001001011KA1240N+02521MA1999999100691MD1999999+0021REMSYN076AAXX  07124 82198 32596 50509 10287 20215 30069 40120 83201 333 20252 58002;EQDQ01  00002PRCP06
0195821980999992004110718004-01717-045400FM-12+004499999V0203601N005710075019N0040001N1+03051+02171100881ADDAA106000091AY121061AY221061GF105991051021008001001001MA1999999100371MD1999999+0021MW1041REMSYN076AAXX  07184 82198 31596 53611 10305 20217 30037 40088 70422 85200 333 58002;EQDQ01  00002PRCP06
0186821980999992004110812004-01720-045400FM-12+004499999V0200501N004110450019N0040001N1+02821+02421101161ADDAA106000091GF106991031071008001061011KA1240N+02471MA1999999100651MD1999999-0041REMSYN076AAXX  08124 82198 32596 60508 10282 20242 30065 40116 83761 333 20247 59004;EQDQ01  00002PRCP06
0171821980999992004110818004-01720-045400FM-12+004499999V0203601N004110450019N0040001N1+02951+02421100861ADDAY161061AY221061GF106991031051008001061001MA1999999100351MD1999999-0021MW1041REMSYN082AAXX  08184 82198 21596 63608 10295 20242 30035 40086 70462 83560 333 59002 69941;
0208821980999992004110900004-01717-045400FM-12+004499999V0200501N003112200019N0005001N1+02621+02371101061ADDAA106000091GA1001+999999999GF100991001001999999001001KA1240M+03051MA1999999100551MD1999999-0061REMSYN082AAXX  09004 82198 32993 00506 10262 20237 30055 40106 333 10305 29080 55060 59006;EQDQ01  00002PRCP06
0162821980999992004110912004-01717-045400FM-12+004499999V0200701N005710450019N0040001N1+02921+02221101221ADDGF107991041071008001061001KA1240N+02471MA1999999100711MD1999999+0061REMSYN082AAXX  09124 82198 22596 70711 10292 20222 30071 40122 84760 333 20247 58006 69944;
0167821980999992004110918004-01717-045400FM-12+004499999V0200701N005712200019N0040001N1+03181+02251100871ADDAA106000091GF104991041021008001001001MA1999999100361MD1999999+0011REMSYN070AAXX  09184 82198 32596 40711 10318 20225 30036 40087 84200 333 58001;EQDQ01  00002PRCP06
0208821980999992004111000004-01717-045400FM-12+004499999V0200501N002612200019N0005001N1+02601+02331101051ADDAA106000091GA1001+999999999GF100991001001999999001001KA1240M+03281MA1999999100541MD1999999-0011REMSYN082AAXX  10004 82198 32993 00505 10260 20233 30054 40105 333 10328 29073 55095 59001;EQDQ01  00002PRCP06
0186821980999992004111012004-01717-045400FM-12+004499999V0200701N003610450019N0040001N1+02871+02281101181ADDAA106000091GF106991041021008001061001KA1240N+02421MA1999999100671MD1999999-0041REMSYN076AAXX  10124 82198 32596 60707 10287 20228 30067 40118 84260 333 20242 59004;EQDQ01  00002PRCP06
0167821980999992004111018004-01717-045400FM-12+004499999V0200701N005110450019N0040001N1+03081+02271100931ADDAA106000091GF105991031021008001061001MA1999999100421MD1999999+0061REMSYN070AAXX  10184 82198 32596 50710 10308 20227 30042 40093 83260 333 58006;EQDQ01  00002PRCP06
0208821980999992004111100004-01717-045400FM-12+004499999V0200501N003112200019N0005001N1+02611+02291101091ADDAA106000091GA1001+999999999GF100991001001999999001001KA1240M+03321MA1999999100581MD1999999+0041REMSYN082AAXX  11004 82198 32993 00506 10261 20229 30058 40109 333 10332 29074 55087 58004;EQDQ01  00002PRCP06
0214821980999992004111112004-01717-045400FM-12+004499999V0200701N006710075019N0040001N1+02981+02231101141ADDAA106000091AY101061AY221061GF106991051021008001061011KA1240N+02401MA1999999100631MD1999999-0041MW1041REMSYN082AAXX  11124 82198 31596 60713 10298 20223 30063 40114 70402 85261 333 20240 59004;EQDQ01  00002PRCP06
0167821980999992004111118004-01717-045400FM-12+004499999V0200701N006710450019N0100001N1+03111+02091100861ADDAA106000091GF105991031021008001061011MA1999999100351MD1999999-0071REMSYN070AAXX  11184 82198 32597 50713 10311 20209 30035 40086 83261 333 59007;EQDQ01  00002PRCP06
0208821980999992004111200004-01717-045400FM-12+004499999V0200501N003112200019N0005001N1+02621+02331100931ADDAA106000091GA1001+999999999GF100991001001999999001001KA1240M+03331MA1999999100421MD1999999-0161REMSYN082AAXX  12004 82198 32993 00506 10262 20233 30042 40093 333 10333 29072 55099 59016;EQDQ01  00002PRCP06
0186821980999992004111212004-01717-045400FM-12+004499999V0200701N006712200019N0040001N1+03011+02221101031ADDAA106000091GF104991031021008001001011KA1240N+02461MA1999999100521MD1999999-0111REMSYN076AAXX  12124 82198 32596 40713 10301 20222 30052 40103 83201 333 20246 59011;EQDQ01  00002PRCP06
0167821980999992004111218004-01720-045400FM-12+004499999V0200701N005112200019N0040001N1+03231+02201100791ADDAA106000091GF103991031021008001001001MA1999999100281MD1999999-0071REMSYN070AAXX  12184 82198 32596 30710 10323 20220 30028 40079 83200 333 59007;EQDQ01  00002PRCP06
0208821980999992004111300004-01720-045400FM-12+004499999V0200501N003112200019N0005001N1+02601+02351100911ADDAA106000091GA1001+999999999GF100991001001999999001001KA1240M+03361MA1999999100401MD1999999-0021REMSYN082AAXX  13004 82198 32993 00506 10260 20235 30040 40091 333 10336 29072 55113 59002;EQDQ01  00002PRCP06
0167821980999992004111318004-01720-045400FM-12+004499999V0200701N004612200019N0040001N1+03201+02241100711ADDAA106000091GF103991021021008001001011MA1999999100201MD1999999-0081REMSYN070AAXX  13184 82198 32596 30709 10320 20224 30020 40071 82201 333 59008;EQDQ01  00002PRCP06
0208821980999992004111400004-01717-045400FM-12+004499999V0200501N002612200019N0005001N1+02561+02311100931ADDAA106000091GA1001+999999999GF100991001001999999001001KA1240M+03371MA1999999100421MD1999999+0021REMSYN082AAXX  14004 82198 32993 00505 10256 20231 30042 40093 333 10337 29073 55111 58002;EQDQ01  00002PRCP06
0186821980999992004111412004-01717-045400FM-12+004499999V0200701N005110450019N0040001N1+02931+02341101061ADDAA106000091GF106991041021008001061001KA1240N+02441MA1999999100551MD1999999-0011REMSYN076AAXX  14124 82198 32596 60710 10293 20234 30055 40106 84260 333 20244 59001;EQDQ01  00002PRCP06
0167821980999992004111418004-01717-045400FM-12+004499999V0200701N005110450019N0100001N1+03221+02261100791ADDAA106000091GF105991031021008001061011MA1999999100281MD1999999+0081REMSYN070AAXX  14184 82198 32597 50710 10322 20226 30028 40079 83261 333 58008;EQDQ01  00002PRCP06
0214821980999992004111512004-01717-045400FM-12+004499999V0200701N006710120019N0020001N1+02911+02411101171ADDAA106000091AY121061AY221061GF107991051081008001061001KA1240N+02481MA1999999100661MD1999999+0111MW1041REMSYN082AAXX  15124 82198 31595 70713 10291 20241 30066 40117 70422 85860 333 20248 58011;EQDQ01  00002PRCP06
0171821980999992004111518004-01717-045400FM-12+004499999V0200501N004612200019N0040001N1+03081+02351100931ADDAY161061AY221061GF105991041021008001001011MA1999999100421MD1999999+0141MW1011REMSYN082AAXX  15184 82198 21596 50509 10308 20235 30042 40093 70162 84201 333 58014 69951;
0208821980999992004111600004-01717-045400FM-12+004499999V0200701N003112200019N0005001N1+02611+02331101131ADDAA106000091GA1001+999999999GF100991001001999999001001KA1240M+03271MA1999999100621MD1999999+0191REMSYN082AAXX  16004 82198 32993 00706 10261 20233 30062 40113 333 10327 29078 55082 58019;EQDQ01  00002PRCP06
0190821980999992004111612004-01717-045400FM-12+004499999V0200501N003110450019N0020001N1+02951+02391101331ADDAY111061AY221061GF107991031051008001061001KA1240N+02441MA1999999100811MD1999999+0151MW1041REMSYN088AAXX  16124 82198 21595 70506 10295 20239 30081 40133 70412 83560 333 20244 58015 69954;
0195821980999992004111618004-01717-045400FM-12+004499999V0200701N005710450019N0020001N1+03181+02181101051ADDAA106000091AY121061AY221061GF106991031021008001011041MA1999999100541MD1999999+0121MW1041REMSYN076AAXX  16184 82198 31595 60711 10318 20218 30054 40105 70422 83214 333 58012;EQDQ01  00002PRCP06
0208821980999992004111700004-01717-045400FM-12+004499999V0200501N003612200019N0005001N1+02551+02291101161ADDAA106000091GA1001+999999999GF100991001001999999001001KA1240M+03221MA1999999100651MD1999999+0031REMSYN082AAXX  17004 82198 32993 00507 10255 20229 30065 40116 333 10322 29074 55095 58003;EQDQ01  00002PRCP06
0214821980999992004111712004-01717-045400FM-12+004499999V0200701N004612200019N0020001N1+02891+02291101241ADDAA106000091AY111061AY221061GF105991031011004501001041KA1240N+02401MA1999999100731MD1999999-0081MW1041REMSYN082AAXX  17124 82198 31495 50709 10289 20229 30073 40124 70412 83104 333 20240 59008;EQDQ01  00002PRCP06
0195821980999992004111718004-01717-045400FM-12+004499999V0200501N005112200019N0040001N1+03141+02321101091ADDAA106000091AY111061AY221061GF104991021021004501001011MA1999999100581MD1999999+0041MW1041REMSYN076AAXX  17184 82198 31496 40510 10314 20232 30058 40109 70412 82201 333 58004;EQDQ01  00002PRCP06
0214821980999992004111812004-01717-045400FM-12+004499999V0200701N006212200019N0020001N1+03161+02181101221ADDAA106000091AY111061AY221061GF104991031021008001001011KA1240N+02481MA1999999100711MD1999999-0021MW1041REMSYN082AAXX  18124 82198 31595 40712 10316 20218 30071 40122 70412 83201 333 20248 59002;EQDQ01  00002PRCP06
0195821980999992004111818004-01717-045400FM-12+004499999V0200501N004612200019N0040001N1+03301+02241100851ADDAA106000091AY121061AY221061GF104991041011004501001001MA1999999100341MD1999999-0241MW1041REMSYN076AAXX  18184 82198 31496 40509 10330 20224 30034 40085 70422 84100 333 59024;EQDQ01  00002PRCP06
0198821980999992004111900004-01717-045400FM-12+004499999V0200501N003112200019N0005001N1+02621+02351101121ADDAA106000091GF101991011011004501001001KA1240M+03421MA1999999100611MD1999999-0111REMSYN088AAXX  19004 82198 32493 10506 10262 20235 30061 40112 81100 333 10342 29070 55110 59011;EQDQ01  00002PRCP06
0214821980999992004111912004-01717-045400FM-12+004499999V0200701N004612200019N0020001N1+03091+02221101241ADDAA106000091AY111061AY221061GF104991031021004501001011KA1240N+02571MA1999999100731MD1999999+0021MW1041REMSYN082AAXX  19124 82198 31495 40709 10309 20222 30073 40124 70412 83201 333 20257 58002;EQDQ01  00002PRCP06
0195821980999992004111918004-01717-045400FM-12+004499999V0200501N005112200019N0040001N1+03181+02311101041ADDAA106000091AY111061AY221061GF103991031021004501001001MA1999999100531MD1999999+0191MW1041REMSYN076AAXX  19184 82198 31496 30510 10318 20231 30053 40104 70412 83200 333 58019;EQDQ01  00002PRCP06
0198821980999992004112100004-01720-045400FM-12+004499999V0200501N003612200019N0005001N1+02651+02311101251ADDAA106000091GF102991021001022501001011KA1240M+03221MA1999999100741MD1999999+0051REMSYN088AAXX  21004 82198 32893 20507 10265 20231 30074 40125 82001 333 10322 29077 55109 58005;EQDQ01  00002PRCP06
0214821980999992004112112004-01720-045400FM-12+004499999V0200701N003610075019N0020001N1+02981+02321101351ADDAA106000091AY111061AY221061GF105991051021008001001001KA1240N+02471MA1999999100831MD1999999+0051MW1041REMSYN082AAXX  21124 82198 31595 50707 10298 20232 30083 40135 70412 85200 333 20247 58005;EQDQ01  00002PRCP06
0211821980999992004112118004-01720-045400FM-12+004499999V0203601N005112200019N0040001N1+03151+02301101051ADDAA106000091AY121061AY211061GF103991021021008001001011MA1999999099542MD1999999+0091MW1041REMSYN076AAXX  21184 82198 31596 33610 10315 20230 39954 40105 70421 82201 333 58009;EQDQ01+099543APOSP Q02  00002PRCP06
0198821980999992004112200004-01717-045400FM-12+004499999V0200501N003112200019N0005001N1+02611+02271101201ADDAA106000091GF104991011011008001041061KA1240M+03361MA1999999100691MD1999999-0051REMSYN088AAXX  22004 82198 32593 40506 10261 20227 30069 40120 81146 333 10336 29074 55106 59005;EQDQ01  00002PRCP06
0214821980999992004112212004-01717-045400FM-12+004499999V0200701N005112200019N0020001N1+03041+02481101311ADDAA106000091AY111061AY221061GF105991031011004501001011KA1240N+02451MA1999999100801MD1999999-0031MW1041REMSYN082AAXX  22124 82198 31495 50710 10304 20248 30080 40131 70412 83101 333 20245 59003;EQDQ01  00002PRCP06
0195821980999992004112218004-01717-045400FM-12+004499999V0200701N004612200019N0020001N1+03321+02201100921ADDAA106000091AY111061AY221061GF104991041021008001001001MA1999999100411MD1999999-0131MW1041REMSYN076AAXX  22184 82198 31595 40709 10332 20220 30041 40092 70412 84200 333 59013;EQDQ01  00002PRCP06
0186821980999992004112312004-01717-045400FM-12+004499999V0200701N005112200019N0040001N1+02991+02331101241ADDAA106000091GF105991041021008001001011KA1240N+02491MA1999999100731MD1999999-0071REMSYN076AAXX  23124 82198 32596 50710 10299 20233 30073 40124 84201 333 20249 59007;EQDQ01  00002PRCP06
0195821980999992004112318004-01717-045400FM-12+004499999V0200701N005110450019N0020001N1+03151+02321100961ADDAA106000091AY121061AY211061GF105991031021008001061011MA1999999100451MD1999999+0041MW1041REMSYN076AAXX  23184 82198 31595 50710 10315 20232 30045 40096 70421 83261 333 58004;EQDQ01  00002PRCP06
0186821980999992004112412004-01717-045400FM-12+004499999V0200701N005110075019N0040001N1+03011+02291101241ADDAA106000091GF106991051021008001001011KA1240N+02481MA1999999100731MD1999999+0001REMSYN076AAXX  24124 82198 32596 60710 10301 20229 30073 40124 85201 333 20248 58000;EQDQ01  00002PRCP06
0195821980999992004112418004-01717-045400FM-12+004499999V0200701N005112200019N0020001N1+03161+02231100941ADDAA106000091AY121061AY211061GF104991041021008001001001MA1999999100431MD1999999-0051MW1041REMSYN076AAXX  24184 82198 31595 40710 10316 20223 30043 40094 70421 84200 333 59005;EQDQ01  00002PRCP06
0198821980999992004112500004-01717-045400FM-12+004499999V0200501N003112200019N0005001N1+02601+02311101131ADDAA106000091GF102991021011004501001001KA1240M+03251MA1999999100621MD1999999-0011REMSYN088AAXX  25004 82198 32493 20506 10260 20231 30062 40113 82100 333 10325 29073 55088 59001;EQDQ01  00002PRCP06
0186821980999992004112512004-01717-045400FM-12+004499999V0200201N003112200019N0040001N1+03011+02221101191ADDAA106000091GF104991031011004501001011KA1240N+02461MA1999999100681MD1999999-0051REMSYN076AAXX  25124 82198 32496 40206 10301 20222 30068 40119 83101 333 20246 59005;EQDQ01  00002PRCP06
0195821980999992004112518004-01717-045400FM-12+004499999V0200701N004612200019N0020001N1+03211+02331100891ADDAA106000091AY121061AY211061GF104991031021008001061001MA1999999100381MD1999999-0021MW1041REMSYN076AAXX  25184 82198 31595 40709 10321 20233 30038 40089 70421 83260 333 59002;EQDQ01  00002PRCP06
0198821980999992004112600004-01717-045400FM-12+004499999V0200501N004112200019N0020001N1+02651+02311101011ADDAA106000091GF104991031021008001061001KA1240M+03391MA1999999100501MD1999999-0121REMSYN088AAXX  26004 82198 32595 40508 10265 20231 30050 40101 83260 333 10339 29072 55094 59012;EQDQ01  00002PRCP06
0157821980999992004112612004-01717-045400FM-12+004499999V0200501N005119999999N0040001N1+99999+99999999999ADDAA106000091GF105991999999008001999999KA1240N+02501REMSYN076AAXX  26124 82198 32596 50510 20236 20294 30068 40119 85200 333 20250 58000;EQDQ01  00002PRCP06
0195821980999992004112618004-01717-045400FM-12+004499999V0200201N006710450019N0020001N1+02951+02281100891ADDAA106000091AY121061AY211061GF106991041021008001061001MA1999999100381MD1999999+0001MW1041REMSYN076AAXX  26184 82198 31595 60213 10295 20228 30038 40089 70421 84260 333 58000;EQDQ01  00002PRCP06
0198821980999992004112700004-01717-045400FM-12+004499999V0200701N005010450019N0020001N1+02621+02371101141ADDAA106000091GF105991031011008001061011KA1240M+03071MA1999999100631MD1999999+0131REMSYN088AAXX  2700  82198 32595 50705 10262 20237 30063 40114 83161 333 10307 29078 55048 58013;EQDQ01  00002PRCP06
0186821980999992004112712004-01717-045400FM-12+004499999V0200701N003612200019N0040001N1+02931+02241101231ADDAA106000091GF103991021011008001001011KA1240N+02381MA1999999100721MD1999999+0041REMSYN076AAXX  27124 82198 32596 30707 10293 20224 30072 40123 82101 333 20238 58004;EQDQ01  00002PRCP06
0167821980999992004112718004-01717-045400FM-12+004499999V0200201N006212200019N0040001N1+03081+02291100841ADDAA106000091GF103991031021008001001001MA1999999100331MD1999999-0051REMSYN070AAXX  27184 82198 32596 30212 10308 20229 30033 40084 83200 333 59005;EQDQ01  00002PRCP06
0208821980999992004112800004-01717-045400FM-12+004499999V0200501N003612200019N0020001N1+02621+02271101101ADDAA106000091GA1001+999999999GF100991001001999999001001KA1240M+03381MA1999999100591MD1999999-0041REMSYN082AAXX  28004 82198 32995 00507 10262 20227 30059 40110 333 10338 29073 55100 59004;EQDQ01  00002PRCP06
0186821980999992004112812004-01717-045400FM-12+004499999V0200701N004610450019N0100001N1+02991+02331101121ADDAA106000091GF106991041021008001061001KA1240N+02411MA1999999100611MD1999999-0111REMSYN076AAXX  28124 82198 32597 60709 10299 20233 30061 40112 84260 333 20241 59011;EQDQ01  00002PRCP06
0167821980999992004112818004-01717-045400FM-12+004499999V0200201N004110075019N0040001N1+03121+02281100841ADDAA106000091GF105991051021008001001001MA1999999100331MD1999999+0001REMSYN070AAXX  28184 82198 32596 50208 10312 20228 30033 40084 85200 333 58000;EQDQ01  00002PRCP06
0208821980999992004112900004-01717-045400FM-12+004499999V0200501N003612200019N0020001N1+02631+02291100971ADDAA106000091GA1001+999999999GF100991001001999999001001KA1240M+03331MA1999999100461MD1999999-0131REMSYN082AAXX  29004 82198 32995 00507 10263 20229 30046 40097 333 10333 29073 55071 59013;EQDQ01  00002PRCP06
0186821980999992004112912004-01717-045400FM-12+004499999V0200901N005110075019N0040001N1+03091+02471101181ADDAA106000091GF105991051021008001001001KA1240N+02461MA1999999100671MD1999999+0061REMSYN076AAXX  29124 82198 32596 50910 10309 20247 30067 40118 85200 333 20246 58006;EQDQ01  00002PRCP06
0208821980999992004113000004-01717-045400FM-12+004499999V0200701N002112200019N0005001N1+02641+02411101001ADDAA106000091GA1001+999999999GF100991001001999999001001KA1240M+03341MA1999999100491MD1999999+0021REMSYN082AAXX  30004 82198 32993 00704 10264 20241 30049 40100 333 10334 29075 55108 58002;EQDQ01  00002PRCP06
0214821980999992004113012004-01717-045400FM-12+004499999V0200701N005110075019N0020001N1+03011+02321101141ADDAA106000091AY121061AY211061GF106991061021008001001001KA1240N+02461MA1999999100631MD1999999-0041MW1041REMSYN082AAXX  30124 82198 31595 60710 10301 20232 30063 40114 70421 86200 333 20246 59004;EQDQ01  00002PRCP06
0195821980999992004113018004-01717-045400FM-12+004499999V0200501N003110450019N0020001N1+03101+02231101111ADDAA106000091AY121061AY221061GF106991031021008001061001MA1999999100601MD1999999+0281MW1041REMSYN076AAXX  30184 82198 31595 60506 10310 20223 30060 40111 70422 83260 333 58028;EQDQ01  00002PRCP06
0208821980999992004120100004-01717-045400FM-12+004499999V0200501N004112200019N0005001N1+02671+02251100991ADDAA106000091GA1001+999999999GF100991001001999999001001KA1240M+03341MA1999999100481MD1999999-0011REMSYN082AAXX  01004 82198 32993 00508 10267 20225 30048 40099 333 10334 29072 55096 59001;EQDQ01  00002PRCP06
0214821980999992004120112004-01717-045400FM-12+004499999V0200501N002619999999N0020001N1+03021+02311101061ADDAA106000091AY111061AY221061GF105991999021008001001001KA1240N+02551MA1999999100551MD1999999-0081MW1041REMSYN082AAXX  01124 82198 31595 50505 10302 20231 30055 40106 70412 84200 333 20255 59008;EQDQ01  00002PRCP06
0195821980999992004120118004-01717-045400FM-12+004499999V0200501N002110450019N0020001N1+03171+02271100771ADDAA106000091AY121061AY221061GF107991041051017501061001MA1999999100261MD1999999-0041MW1041REMSYN076AAXX  01184 82198 31795 70504 10317 20227 30026 40077 70422 84560 333 59004;EQDQ01  00002PRCP06
0236821980999992004120200004-01717-045400FM-12+004499999V0200501N003612200019N0005001N1+02661+02271100961ADDAA106000091AY101061AY211061GA1001+999999999GF100991001001999999001001KA1240M+03281MA1999999100451MD1999999-0081MW1131REMSYN088AAXX  02004 82198 31993 00507 10266 20227 30045 40096 71301 333 10328 29070 55072 59008;EQDQ01  00002PRCP06
0214821980999992004120212004-01717-045400FM-12+004499999V0200501N004610450019N0020001N1+02981+02321101111ADDAA106000091AY111061AY221061GF106991031021008001011011KA1240N+02491MA1999999100601MD1999999+0051MW1041REMSYN082AAXX  02124 82198 31595 60509 10298 20232 30060 40111 70412 83211 333 20249 58005;EQDQ01  00002PRCP06
0195821980999992004120218004-01717-045400FM-12+004499999V0203601N005110450019N0020001N1+02971+02341100871ADDAA106000091AY121061AY221061GF107991041051017501061001MA1999999100361MD1999999+0101MW1041REMSYN076AAXX  02184 82198 31795 73610 10297 20234 30036 40087 70422 84560 333 58010;EQDQ01  00002PRCP06
0208821980999992004120300004-01717-045400FM-12+004499999V0200501N003112200019N0005001N1+02651+02311101001ADDAA106000091GA1001+999999999GF100991001001999999001001KA1240M+03161MA1999999100491MD1999999+0041REMSYN082AAXX  03004 82198 32993 00506 10265 20231 30049 40100 333 10316 29077 55036 58004;EQDQ01  00002PRCP06
0214821980999992004120312004-01717-045400FM-12+004499999V0203601N005710450019N0005001N1+02811+02291101241ADDAA106000091AY101061AY221061GF107991041031008001041001KA1240N+02581MA1999999100731MD1999999+0131MW1041REMSYN082AAXX  03124 82198 31593 73611 10281 20229 30073 40124 70402 84340 333 20258 58013;EQDQ01  00002PRCP06
0171821980999992004120318004-01717-045400FM-12+004499999V0200501N004110042019N0005001N1+02961+02251100951ADDAY161061AY221061GF107991071021004501001001MA1999999100441MD1999999+0081MW1041REMSYN082AAXX  03184 82198 21493 70508 10296 20225 30044 40095 70462 87200 333 58008 60031;
0236821980999992004120400004-01717-045400FM-12+004499999V0200501N002612200019N0005001N1+02611+02311101031ADDAA106000091AY101061AY211061GA1001+999999999GF100991001001999999001001KA1240M+03001MA1999999100521MD1999999+0031MW1131REMSYN088AAXX  04004 82198 31993 00505 10261 20231 30052 40103 71301 333 10300 29078 55033 58003;EQDQ01  00002PRCP06
0190821980999992004120412004-01717-045400FM-12+004499999V0200901N004110450019N0020001N1+02891+02291101261ADDAY101061AY221061GF107991041031008001041001KA1240N+02451MA1999999100751MD1999999+0021MW1041REMSYN088AAXX  04124 82198 21595 70908 10289 20229 30075 40126 70402 84340 333 20245 58002 60034;
0195821980999992004120418004-01717-045400FM-12+004499999V0200701N004610075019N0020001N1+03241+02551101041ADDAA106000091AY121061AY221061GF106991061021008001001001MA1999999100531MD1999999+0091MW1041REMSYN076AAXX  04184 82198 31595 60709 10324 20255 30053 40104 70422 86200 333 58009;EQDQ01  00002PRCP06
0208821980999992004120500004-01717-045400FM-12+004499999V0200501N003612200019N0005001N1+02671+02331101211ADDAA106000091GA1001+999999999GF100991001001999999001001KA1240M+03281MA1999999100701MD1999999+0181REMSYN082AAXX  05004 82198 32993 00507 10267 20233 30070 40121 333 10328 29075 55093 58018;EQDQ01  00002PRCP06
0214821980999992004120512004-01717-045400FM-12+004499999V0203601N005710075019N0020001N1+02911+02271101261ADDAA106000091AY101061AY221061GF105991051021008001001001KA1240N+02481MA1999999100751MD1999999+0001MW1041REMSYN082AAXX  05124 82198 31595 53611 10291 20227 30075 40126 70402 85200 333 20248 58000;EQDQ01  00002PRCP06
0195821980999992004120518004-01717-045400FM-12+004499999V0203601N005712200019N0020001N1+03101+02341100981ADDAA106000091AY121061AY221061GF104991041021008001001001MA1999999100471MD1999999-0061MW1041REMSYN076AAXX  05184 82198 31595 43611 10310 20234 30047 40098 70422 84200 333 59006;EQDQ01  00002PRCP06
0208821980999992004120600004-01720-045400FM-12+004499999V0200501N004112200019N0005001N1+02661+02391101111ADDAA106000091GA1001+999999999GF100991001001999999001001KA1240M+03231MA1999999100601MD1999999-0101REMSYN082AAXX  06004 82198 32993 00508 10266 20239 30060 40111 333 10323 29076 55109 59010;EQDQ01  00002PRCP06
0214821980999992004120612004-01720-045400FM-12+004499999V0200501N003610075019N0020001N1+03031+02511101181ADDAA106000091AY101061AY221061GF106991061021008001001001KA1240N+02551MA1999999100671MD1999999-0081MW1041REMSYN082AAXX  06124 82198 31595 60507 10303 20251 30067 40118 70402 86200 333 20255 59008;EQDQ01  00002PRCP06
0195821980999992004120618004-01720-045400FM-12+004499999V0203601N008210450019N0020001N1+02991+02291100911ADDAA106000091AY121061AY221061GF106991031021008001011011MA1999999100401MD1999999-0071MW1041REMSYN076AAXX  06184 82198 31595 63616 10299 20229 30040 40091 70422 83211 333 59007;EQDQ01  00002PRCP06
0208821980999992004120700004-01717-045400FM-12+004499999V0200501N002112200019N0005001N1+02651+02351101041ADDAA106000091GA1001+999999999GF100991001001999999001001KA1240M+03231MA1999999100531MD1999999-0071REMSYN082AAXX  07004 82198 32993 00504 10265 20235 30053 40104 333 10323 29078 55089 59007;EQDQ01  00002PRCP06
0186821980999992004120712004-01717-045400FM-12+004499999V0200201N004112200019N0020001N1+02931+02271101271ADDAA106000091GF105991041021008001001011KA1240N+02501MA1999999100761MD1999999+0091REMSYN076AAXX  07124 82198 32595 50208 10293 20227 30076 40127 84201 333 20250 58009;EQDQ01  00002PRCP06
0195821980999992004120718004-01717-045400FM-12+004499999V0200201N005112200019N0020001N1+03051+02301100951ADDAA106000091AY121061AY211061GF104991031011008001061001MA1999999100441MD1999999+0041MW1041REMSYN076AAXX  07184 82198 31595 40210 10305 20230 30044 40095 70421 83160 333 58004;EQDQ01  00002PRCP06
0208821980999992004120800004-01717-045400FM-12+004499999V0200501N002112200019N0005001N1+02631+02351101111ADDAA106000091GA1001+999999999GF100991001001999999001001KA1240M+03291MA1999999100601MD1999999+0071REMSYN082AAXX  08004 82198 32993 00504 10263 20235 30060 40111 333 10329 29075 55085 58007;EQDQ01  00002PRCP06
0214821980999992004120812004-01717-045400FM-12+004499999V0200501N004110075019N0020001N1+03021+02311101271ADDAA106000091AY101061AY221061GF106991051021008001001011KA1240N+02521MA1999999100761MD1999999+0001MW1041REMSYN082AAXX  08124 82198 31595 60508 10302 20231 30076 40127 70402 85201 333 20252 58000;EQDQ01  00002PRCP06
0195821980999992004120818004-01717-045400FM-12+004499999V0200201N006210075019N0020001N1+03021+02211100961ADDAA106000091AY121061AY221061GF106991051021008001061001MA1999999100451MD1999999+0011MW1041REMSYN076AAXX  08184 82198 31595 60212 10302 20221 30045 40096 70422 85260 333 58001;EQDQ01  00002PRCP06
0186821980999992004120912004-01717-045400FM-12+004499999V0200701N005710450019N0040001N1+02931+02241101181ADDAA106000091GF106991041021008001061001KA1240N+02471MA1999999100671MD1999999-0091REMSYN076AAXX  09124 82198 32596 60711 10293 20224 30067 40118 84260 333 20247 59009;EQDQ01  00002PRCP06
0195821980999992004120918004-01717-045400FM-12+004499999V0200701N004612200019N0020001N1+03121+02301100871ADDAA106000091AY121061AY211061GF103991021021008001001011MA1999999100361MD1999999-0091MW1041REMSYN076AAXX  09184 82198 31595 30709 10312 20230 30036 40087 70421 82201 333 59009;EQDQ01  00002PRCP06
0208821980999992004121000004-01717-045400FM-12+004499999V0200501N002612200019N0005001N1+02631+02311100991ADDAA106000091GA1001+999999999GF100991001001999999001001KA1240M+03241MA1999999100481MD1999999-0091REMSYN082AAXX  10004 82198 32993 00505 10263 20231 30048 40099 333 10324 29074 55096 59009;EQDQ01  00002PRCP06
0186821980999992004121012004-01717-045400FM-12+004499999V0200201N005112200019N0040001N1+02841+02351101191ADDAA106000091GF104991031011008001061001KA1240N+02471MA1999999100681MD1999999+0011REMSYN076AAXX  10124 82198 32596 40210 10284 20235 30068 40119 83160 333 20247 58001;EQDQ01  00002PRCP06
0195821980999992004121018004-01717-045400FM-12+004499999V0200701N004610450019N0020001N1+03051+02201100861ADDAA106000091AY121061AY221061GF106991031021008001061011MA1999999100351MD1999999-0011MW1041REMSYN076AAXX  10184 82198 31595 60709 10305 20220 30035 40086 70422 83261 333 59001;EQDQ01  00002PRCP06
0186821980999992004121112004-01717-045400FM-12+004499999V0200201N005110075019N0040001N1+02841+02311101241ADDAA106000091GF105991051021008001001001KA1240N+02461MA1999999100731MD1999999+0051REMSYN076AAXX  11124 82198 32596 50210 10284 20231 30073 40124 85200 333 20246 58005;EQDQ01  00002PRCP06
0167821980999992004121118004-01717-045400FM-12+004499999V0200201N006212200019N0040001N1+03051+02251100911ADDAA106000091GF103991031021008001001001MA1999999100401MD1999999+0051REMSYN070AAXX  11184 82198 32596 30212 10305 20225 30040 40091 83200 333 58005;EQDQ01  00002PRCP06
0208821980999992004121200004-01720-045400FM-12+004499999V0200501N003612200019N0005001N1+02621+02311101031ADDAA106000091GA1001+999999999GF100991001001999999001001KA1240M+03201MA1999999100521MD1999999+0021REMSYN082AAXX  12004 82198 32993 00507 10262 20231 30052 40103 333 10320 29075 55092 58002;EQDQ01  00002PRCP06
0186821980999992004121212004-01720-045400FM-12+004499999V0200501N003110450019N0040001N1+02861+02371101241ADDAA106000091GF105991041021008001061001KA1240N+02461MA1999999100731MD1999999+0001REMSYN076AAXX  12124 82198 32596 50506 10286 20237 30073 40124 84260 333 20246 58000;EQDQ01  00002PRCP06
0167821980999992004121218004-01720-045400FM-12+004499999V0200501N004112200019N0040001N1+03281+02261100891ADDAA106000091GF104991041021008001001001MA1999999100381MD1999999-0021REMSYN070AAXX  12184 82198 32596 40508 10328 20226 30038 40089 84200 333 59002;EQDQ01  00002PRCP06
0208821980999992004121300004-01717-045400FM-12+004499999V0200501N002112200019N0005001N1+02651+02351101131ADDAA106000091GA1001+999999999GF100991001001999999001001KA1240M+03321MA1999999100621MD1999999+0101REMSYN082AAXX  13004 82198 32993 00504 10265 20235 30062 40113 333 10332 29074 55103 58010;EQDQ01  00002PRCP06
0186821980999992004121312004-01717-045400FM-12+004499999V0200701N004610450019N0040001N1+02991+02421101291ADDAA106000091GF106991021011008001031001KA1240N+02491MA1999999100781MD1999999-0051REMSYN076AAXX  13124 82198 32596 60709 10299 20242 30078 40129 82130 333 20249 59005;EQDQ01  00002PRCP06
0195821980999992004121318004-01717-045400FM-12+004499999V0200701N006212200019N0020001N1+03261+02181100971ADDAA106000091AY121061AY221061GF104991031021008001061001MA1999999100461MD1999999+0081MW1041REMSYN076AAXX  13184 82198 31595 40712 10326 20218 30046 40097 70422 83260 333 58008;EQDQ01  00002PRCP06
0208821980999992004121400004-01717-045400FM-12+004499999V0200501N004112200019N0005001N1+02681+02371101121ADDAA106000091GA1001+999999999GF100991001001999999001001KA1240M+03391MA1999999100611MD1999999-0011REMSYN082AAXX  14004 82198 32993 00508 10268 20237 30061 40112 333 10339 29074 55079 59001;EQDQ01  00002PRCP06
0214821980999992004121412004-01717-045400FM-12+004499999V0200701N003610450019N0020001N1+03031+02341101301ADDAA106000091AY111061AY221061GF106991031021008001061011KA1240N+02521MA1999999100791MD1999999+0011MW1041REMSYN082AAXX  14124 82198 31595 60707 10303 20234 30079 40130 70412 83261 333 20252 58001;EQDQ01  00002PRCP06
0208821980999992004121500004-01717-045400FM-12+004499999V0200501N002112200019N0005001N1+02661+02371101171ADDAA106000091GA1001+999999999GF100991001001999999001001KA1240M+03301MA1999999100661MD1999999+0051REMSYN082AAXX  15004 82198 32993 00504 10266 20237 30066 40117 333 10330 29074 55055 58005;EQDQ01  00002PRCP06
0214821980999992004121512004-01717-045400FM-12+004499999V0200701N007212200019N0020001N1+03031+02221101161ADDAA106000091AY101061AY221061GF105991031021008001001011KA1240N+02521MA1999999100651MD1999999+0171MW1041REMSYN082AAXX  15124 82198 31595 50714 10303 20222 30065 40116 70402 83201 333 20252 58017;EQDQ01  00002PRCP06
0195821980999992004121518004-01717-045400FM-12+004499999V0200501N005110450019N0005001N1+03091+02221100861ADDAA106000091AY121061AY221061GF106991041021008001011001MA1999999100351MD1999999-0131MW1041REMSYN076AAXX  15184 82198 31593 60510 10309 20222 30035 40086 70422 84210 333 59013;EQDQ01  00002PRCP06
0198821980999992004121600004-01717-045400FM-12+004499999V0200501N002612200019N0005001N1+02641+02311101011ADDAA106000091GF101991011001022501001011KA1240M+03261MA1999999100501MD1999999-0161REMSYN088AAXX  16004 82198 32893 10505 10264 20231 30050 40101 81001 333 10326 29072 55071 59016;EQDQ01  00002PRCP06
0214821980999992004121612004-01717-045400FM-12+004499999V0200501N005110042019N0020001N1+02971+02291101151ADDAA106000091AY101061AY221061GF105991051021004501001001KA1240N+02471MA1999999100641MD1999999-0011MW1041REMSYN082AAXX  16124 82198 31495 50510 10297 20229 30064 40115 70402 85200 333 20247 59001;EQDQ01  00002PRCP06
0195821980999992004121618004-01717-045400FM-12+004499999V0203601N006710075019N0005001N1+03091+02111100901ADDAA106000091AY121061AY221061GF105991051021008001001001MA1999999100391MD1999999+0041MW1041REMSYN076AAXX  16184 82198 31593 53613 10309 20211 30039 40090 70422 85200 333 58004;EQDQ01  00002PRCP06
0198821980999992004121700004-01717-045400FM-12+004499999V0200501N002612200019N0005001N1+02641+02331101011ADDAA106000091GF102991011011004501001011KA1240M+03241MA1999999100501MD1999999+0001REMSYN088AAXX  17004 82198 32493 20505 10264 20233 30050 40101 81101 333 10324 29073 55097 58000;EQDQ01  00002PRCP06
0214821980999992004121712004-01717-045400FM-12+004499999V0200501N004112200019N0020001N1+02921+02291101201ADDAA106000091AY101061AY221061GF105991031021004501001011KA1240N+02431MA1999999100691MD1999999+0051MW1041REMSYN082AAXX  17124 82198 31495 50508 10292 20229 30069 40120 70402 83201 333 20243 58005;EQDQ01  00002PRCP06
0195821980999992004121718004-01717-045400FM-12+004499999V0203601N005710450019N0020001N1+02941+02161100851ADDAA106000091AY121061AY221061GF105991031021008001061001MA1999999100341MD1999999-0051MW1041REMSYN076AAXX  17184 82198 31595 53611 10294 20216 30034 40085 70422 83260 333 59005;EQDQ01  00002PRCP06
0198821980999992004121800004-01717-045400FM-12+004499999V0200501N003112200019N0005001N1+02641+02311101021ADDAA106000091GF102991021011004501001001KA1240M+03111MA1999999100511MD1999999+0011REMSYN088AAXX  18004 82198 32493 20506 10264 20231 30051 40102 82100 333 10311 29074 55085 58001;EQDQ01  00002PRCP06
0214821980999992004121812004-01717-045400FM-12+004499999V0200501N005112200019N0020001N1+02921+02191101191ADDAA106000091AY101061AY221061GF105991031021008001001041KA1240N+02511MA1999999100681MD1999999-0011MW1041REMSYN082AAXX  18124 82198 31595 50510 10292 20219 30068 40119 70402 83204 333 20251 59001;EQDQ01  00002PRCP06
0195821980999992004121818004-01717-045400FM-12+004499999V0200501N004610450019N0005001N1+03111+02061101001ADDAA106000091AY121061AY221061GF106991031051008001011041MA1999999100491MD1999999+0151MW1041REMSYN076AAXX  18184 82198 31593 60509 10311 20206 30049 40100 70422 83514 333 58015;EQDQ01  00002PRCP06
0198821980999992004121900004-01720-045400FM-12+004499999V0200201N002112200019N0005001N1+02621+02211101191ADDAA106000091GF103991021011004501001011KA1240M+03341MA1999999100681MD1999999+0171REMSYN088AAXX  19004 82198 32493 30204 10262 20221 30068 40119 82101 333 10334 29069 55073 58017;EQDQ01  00002PRCP06
0214821980999992004121912004-01720-045400FM-12+004499999V0200901N003110450019N0020001N1+03021+02441101361ADDAA106000091AY101061AY221061GF106991031051004501061011KA1240N+02371MA1999999100841MD1999999+0161MW1041REMSYN082AAXX  19124 82198 31495 60906 10302 20244 30084 40136 70402 83561 333 20237 58016;EQDQ01  00002PRCP06
0195821980999992004121918004-01720-045400FM-12+004499999V0200701N004610450019N0005001N1+03341+02071100941ADDAA106000091AY121061AY221061GF106991031021008001011011MA1999999100431MD1999999-0061MW1041REMSYN076AAXX  19184 82198 31593 60709 10334 20207 30043 40094 70422 83211 333 59006;EQDQ01  00002PRCP06
0198821980999992004122000004-01717-045400FM-12+004499999V0200701N003110150019N0005001N1+02761+02361101251ADDAA106000091GF108991081001017501011001KA1240M+03411MA1999999100741MD1999999+0061REMSYN088AAXX  20004 82198 32793 80706 10276 20236 30074 40125 88010 333 10341 29071 55076 58006;EQDQ01  00002PRCP06
0214821980999992004122012004-01717-045400FM-12+004499999V0200701N004610450019N0020001N1+02931+02521101291ADDAA106000091AY101061AY221061GF107991041021004501031001KA1240N+02491MA1999999100781MD1999999-0061MW1041REMSYN082AAXX  20124 82198 31495 70709 10293 20252 30078 40129 70402 84230 333 20249 59006;EQDQ01  00002PRCP06
0195821980999992004122018004-01717-045400FM-12+004499999V0200701N004610450019N0005001N1+03171+02271101071ADDAA106000091AY121061AY221061GF107991041021008001031001MA1999999100561MD1999999+0131MW1041REMSYN076AAXX  20184 82198 31593 70709 10317 20227 30056 40107 70422 84230 333 58013;EQDQ01  00002PRCP06
0208821980999992004122100004-01717-045400FM-12+004499999V0200501N003112200019N0005001N1+02681+02391101141ADDAA106000091GA1001+999999999GF100991001001999999001001KA1240M+03301MA1999999100631MD1999999-0111REMSYN082AAXX  21004 82198 32993 00506 10268 20239 30063 40114 333 10330 29076 55059 59011;EQDQ01  00002PRCP06
0214821980999992004122112004-01717-045400FM-12+004499999V0200501N003610450019N0020001N1+02881+02371101171ADDAA106000091AY101061AY221061GF106991041021008001031001KA1240N+02521MA1999999100661MD1999999-0121MW1041REMSYN082AAXX  21124 82198 31595 60507 10288 20237 30066 40117 70402 84230 333 20252 59012;EQDQ01  00002PRCP06
0195821980999992004122118004-01717-045400FM-12+004499999V0200501N005710450019N0040001N1+03061+02221100891ADDAA106000091AY121061AY221061GF106991031021008001061001MA1999999100381MD1999999-0181MW1041REMSYN076AAXX  21184 82198 31596 60511 10306 20222 30038 40089 70422 83260 333 59018;EQDQ01  00002PRCP06
0208821980999992004122200004-01717-045400FM-12+004499999V0200501N002112200019N0005001N1+02651+02371101031ADDAA106000091GA1001+999999999GF100991001001999999001001KA1240M+03191MA1999999100521MD1999999-0111REMSYN082AAXX  22004 82198 32993 00504 10265 20237 30052 40103 333 10319 29076 55052 59011;EQDQ01  00002PRCP06
0214821980999992004122212004-01717-045400FM-12+004499999V0200201N002610075019N0020001N1+02891+02411101091ADDAA106000091AY121061AY201061GF107991051021008001061001KA1240N+02511MA1999999100581MD1999999-0081MW1041REMSYN082AAXX  22124 82198 31595 70205 10289 20241 30058 40109 70420 85260 333 20251 59008;EQDQ01  00002PRCP06
0195821980999992004122218004-01717-045400FM-12+004499999V0200201N006210450019N0020001N1+02991+02281100781ADDAA106000091AY121061AY221061GF107991041021008001061001MA1999999100271MD1999999-0111MW1041REMSYN076AAXX  22184 82198 31595 70212 10299 20228 30027 40078 70422 84260 333 59011;EQDQ01  00002PRCP06
0198821980999992004122300004-01717-045400FM-12+004499999V0200701N002610450019N0005001N1+02701+02391101051ADDAA106000091GF105991031011004501061011KA1240M+03131MA1999999100541MD1999999+0021REMSYN088AAXX  23004 82198 32493 50705 10270 20239 30054 40105 83161 333 10313 29077 55036 58002;EQDQ01  00002PRCP06
0214821980999992004122312004-01717-045400FM-12+004499999V0200501N003610450019N0020001N1+02971+02421101061ADDAA106000091AY121061AY221061GF106991041021008001061001KA1240N+02521MA1999999100551MD1999999-0031MW1041REMSYN082AAXX  23124 82198 31595 60507 10297 20242 30055 40106 70422 84260 333 20252 59003;EQDQ01  00002PRCP06
0195821980999992004122318004-01717-045400FM-12+004499999V0200201N005710450019N0020001N1+02991+02301100731ADDAA106000091AY121061AY221061GF107991041021008001061011MA1999999100221MD1999999-0021MW1041REMSYN076AAXX  23184 82198 31595 70211 10299 20230 30022 40073 70422 84261 333 59002;EQDQ01  00002PRCP06
0198821980999992004122400004-01717-045400FM-12+004499999V0200501N003112200019N0005001N1+02671+02391100871ADDAA106000091GF103991031021008001001001KA1240M+03141MA1999999100361MD1999999-0181REMSYN088AAXX  24004 82198 32593 30506 10267 20239 30036 40087 83200 333 10314 29077 55037 59018;EQDQ01  00002PRCP06
0214821980999992004122412004-01717-045400FM-12+004499999V0200701N005110450019N0040001N1+02901+02271100991ADDAA106000091AY121061AY221061GF105991031021008001061011KA1240N+02501MA1999999100481MD1999999-0071MW1041REMSYN082AAXX  24124 82198 31596 50710 10290 20227 30048 40099 70422 83261 333 20250 59007;EQDQ01  00002PRCP06
0195821980999992004122418004-01717-045400FM-12+004499999V0200201N005112200019N0020001N1+03061+02301100791ADDAA106000091AY121061AY201061GF104991031021008001001011MA1999999100281MD1999999+0061MW1041REMSYN076AAXX  24184 82198 31595 40210 10306 20230 30028 40079 70420 83201 333 58006;EQDQ01  00002PRCP06
0198821980999992004122500004-01717-045400FM-12+004499999V0200501N003612200019N0005001N1+02681+02311100951ADDAA106000091GF103991021011012501001021KA1240M+03291MA1999999100441MD1999999+0081REMSYN088AAXX  25004 82198 32693 30507 10268 20231 30044 40095 82102 333 10329 29073 55089 58008;EQDQ01  00002PRCP06
0186821980999992004122512004-01717-045400FM-12+004499999V0200701N003610450019N0040001N1+02821+02381101161ADDAA106000091GF107991041021008001061001KA1240N+02461MA1999999100651MD1999999+0171REMSYN076AAXX  25124 82198 32596 70707 10282 20238 30065 40116 84260 333 20246 58017;EQDQ01  00002PRCP06
0167821980999992004122518004-01717-045400FM-12+004499999V0200701N003610450019N0040001N1+03031+02181100761ADDAA106000091GF107991031011008001061011MA1999999100251MD1999999-0031REMSYN070AAXX  25184 82198 32596 70707 10303 20218 30025 40076 83161 333 59003;EQDQ01  00002PRCP06
0198821980999992004122600004-01720-045400FM-12+004499999V0200701N005112200019N0005001N1+02721+02391101021ADDAA106000091GF104991021011008001061011KA1240M+03211MA1999999100511MD1999999-0071REMSYN088AAXX  26004 82198 32593 40710 10272 20239 30051 40102 82161 333 10321 29076 55006 59007;EQDQ01  00002PRCP06
0207821980999992004122612004-01720-045400FM-12+004499999V0200901N002610450019N0040001N1+02601+02441101241ADDAA124006091AY161061AY221061GF107991031051008001041001KA1240N+02431MA1999999100731MD1999999+0081MW1021REMSYN094AAXX  26124 82198 21596 70905 10260 20244 30073 40124 70262 83540 333 20243 58008 60064 10062;
0167821980999992004122618004-01720-045400FM-12+004499999V0200901N005710450019N0040001N1+03081+02131100931ADDAA106000091GF107991041021008001041021MA1999999100431MD1999999+0171REMSYN070AAXX  26184 82198 32596 70911 10308 20213 30043 40093 84242 333 58017;EQDQ01  00002PRCP06
0198821980999992004122700004-01720-045400FM-12+004499999V0200501N002112200019N0005001N1+02641+02331101071ADDAA106000091GF103991011011008001001011KA1240M+03341MA1999999100561MD1999999+0051REMSYN088AAXX  27004 82198 32593 30504 10264 20233 30056 40107 81101 333 10334 29078 55036 58005;EQDQ01  00002PRCP06
0214821980999992004122712004-01720-045400FM-12+004499999V0200201N003110450019N0020001N1+02911+02481101181ADDAA106000091AY121061AY211061GF105991031021008001061011KA1240N+02501MA1999999100671MD1999999-0091MW1041REMSYN082AAXX  27124 82198 31595 50206 10291 20248 30067 40118 70421 83261 333 20250 59009;EQDQ01  00002PRCP06
0195821980999992004122718004-01720-045400FM-12+004499999V0200201N005112200019N0020001N1+03091+02271100871ADDAA106000091AY121061AY201061GF103991021021008001001011MA1999999100361MD1999999-0061MW1041REMSYN076AAXX  27184 82198 31595 30210 10309 20227 30036 40087 70420 82201 333 59006;EQDQ01  00002PRCP06
0198821980999992004122800004-01717-045400FM-12+004499999V0200201N005712200019N0005001N1+02721+02321101051ADDAA106000091GF103991031021004501001001KA1240M+03271MA1999999100541MD1999999-0021REMSYN088AAXX  28004 82198 32493 30211 10272 20232 30054 40105 83200 333 10327 29074 55097 59002;EQDQ01  00002PRCP06
0214821980999992004122812004-01717-045400FM-12+004499999V0203601N002610450019N0020001N1+02881+02411101241ADDAA106000091AY111061AY221061GF107991041071008001011011KA1240N+02511MA1999999100731MD1999999+0061MW1041REMSYN082AAXX  28124 82198 31595 73605 10288 20241 30073 40124 70412 84711 333 20251 58006;EQDQ01  00002PRCP06
0195821980999992004122818004-01717-045400FM-12+004499999V0203601N001510450019N0002001N1+02891+02271101071ADDAA106000091AY121061AY221061GF107991041051008001011041MA1999999100561MD1999999+0201MW1041REMSYN076AAXX  28184 82198 31592 73603 10289 20227 30056 40107 70422 84514 333 58020;EQDQ01  00002PRCP06
0202821980999992004122900004-01717-045400FM-12+004499999V0202901N001010450019N0002001N1+02401+02301101391ADDAY161061AY221061GF107991041011004501011011KA1240M+03051MA1999999100871MD1999999+0331MW1021REMSYN100AAXX  29004 82198 21492 72902 10240 20230 30087 40139 70262 84111 333 10305 29084 55006 58033 69991;
0162821980999992004122912004-01717-045400FM-12+004499999V0200501N000510450019N0020001N1+02601+02351101371ADDGF107991031021004501041041KA1240N+02271MA1999999100851MD1999999+0121REMSYN082AAXX  29124 82198 22495 70501 10260 20235 30085 40137 83244 333 20227 58012 69944;
0195821980999992004122918004-01717-045400FM-12+004499999V0203601N003612200019N0020001N1+03141+02321101111ADDAA106000091AY121061AY211061GF104991021021004501041041MA1999999100601MD1999999+0201MW1041REMSYN076AAXX  29184 82198 31495 43607 10314 20232 30060 40111 70421 82244 333 58020;EQDQ01  00002PRCP06
0198821980999992004123000004-01717-045400FM-12+004499999V0200501N004112200019N0005001N1+02651+02331101381ADDAA106000091GF103991021021004501011001KA1240M+03271MA1999999100861MD1999999-0011REMSYN088AAXX  30004 82198 32493 30508 10265 20233 30086 40138 82210 333 10327 29080 55060 59001;EQDQ01  00002PRCP06
0186821980999992004123012004-01717-045400FM-12+004499999V0200701N005710042019N0020001N1+02951+02391101371ADDAA106000091GF105991051021004501001001KA1240N+02451MA1999999100851MD1999999+0001REMSYN076AAXX  30124 82198 32495 50711 10295 20239 30085 40137 85200 333 20245 58000;EQDQ01  00002PRCP06
0195821980999992004123018004-01717-045400FM-12+004499999V0200501N004610042019N0020001N1+03181+02151101071ADDAA106000091AY121061AY221061GF105991051021004501001001MA1999999100561MD1999999-0041MW1041REMSYN076AAXX  30184 82198 31495 50509 10318 20215 30056 40107 70422 85200 333 59004;EQDQ01  00002PRCP06
0208821980999992004123100004-01717-045400FM-12+004499999V0200501N002612200019N0002001N1+02681+02351101141ADDAA106000091GA1001+999999999GF100991001001999999001001KA1240M+03341MA1999999100631MD1999999-0231REMSYN082AAXX  31004 82198 32992 00505 10268 20235 30063 40114 333 10334 29073 55108 59023;EQDQ01  00002PRCP06
0214821980999992004123112004-01717-045400FM-12+004499999V0200501N004112200019N0020001N1+02931+02251101311ADDAA106000091AY101061AY221061GF104991041021008001001001KA1240N+02541MA1999999100801MD1999999-0051MW1041REMSYN082AAXX  31124 82198 31595 40508 10293 20225 30080 40131 70402 84200 333 20254 59005;EQDQ01  00002PRCP06
0195821980999992004123118004-01717-045400FM-12+004499999V0203601N005712200019N0020001N1+03101+02291101051ADDAA106000091AY121061AY221061GF104991041021008001001001MA1999999100541MD1999999-0021MW1041REMSYN076AAXX  31184 82198 31595 43611 10310 20229 30054 40105 70422 84200 333 59002;EQDQ01  00002PRCP06
