0208823920999992004010100004-03700-040350FM-12+008399999V0200501N004612200019N0040001N1+02801+02311101061ADDAA106000091GA1001+999999999GF100991001001999999001001KA1240M+03821MA1999999100051MD1999999+0071REMSYN082AAXX  01004 82392 32996 00509 10280 20231 30005 40106 333 10382 29071 55111 58007;EQDQ01  00002PRCP06
0186823920999992004010112004-03700-040350FM-12+008399999V0200901N001510450019N0500001N1+02881+02181101271ADDAA106000091GF106991041051004501031001KA1240N+02491MA1999999100251MD1999999+0201REMSYN076AAXX  01124 82392 32499 60903 10288 20218 30025 40127 84530 333 20249 58020;EQDQ01  00002PRCP06
0153823920999992004010118004-03700-040350FM-12+008399999V0201401N000510042019N0500001N1+03501+02131100811ADDAA106000091GF106991051041004501031001MA1999999099801REMSYN070AAXX  01184 82392 32499 61401 10350 20213 39980 40081 85430 333 5////;EQDQ01  00002PRCP06
0208823920999992004010200004-03700-040350FM-12+008399999V0200501N003612200019N0040001N1+02781+02181101101ADDAA106000091GA1001+999999999GF100991001001999999001001KA1240M+03561MA1999999100081MD1999999+0031REMSYN082AAXX  02004 82392 32996 00507 10278 20218 30008 40110 333 10356 29063 55041 58003;EQDQ01  00002PRCP06
0186823920999992004010212004-03700-040350FM-12+008399999V0200501N001012200019N0500001N1+02901+02151101201ADDAA106000091GF103991031011004501001001KA1240N+02281MA1999999100181MD1999999-0071REMSYN076AAXX  02124 82392 32499 30502 10290 20215 30018 40120 83100 333 20228 59007;EQDQ01  00002PRCP06
0167823920999992004010218004-03700-040350FM-12+008399999V0200501N003110450019N0500001N1+03661+01861100691ADDAA106000091GF106991041021004501031001MA1999999099681MD1999999-0121REMSYN070AAXX  02184 82392 32499 60506 10366 20186 39968 40069 84230 333 59012;EQDQ01  00002PRCP06
0198823920999992004010300004-03700-040350FM-12+008399999V0200501N005710450019N0040001N1+02701+02331101021ADDAA106000091GF106991031051004501031001KA1240M+03701MA1999999100001MD1999999-0081REMSYN088AAXX  03004 82392 32496 60511 10270 20233 30000 40102 83530 333 10370 29087 55065 59008;EQDQ01  00002PRCP06
0186823920999992004010312004-03700-040350FM-12+008399999V0200901N002612200019N0500001N1+02881+02391101121ADDAA106000091GF104991041021004501001001KA1240N+02321MA1999999100001MD1999999-0181REMSYN076AAXX  03124 82392 32499 40905 10288 20239 30000 40112 84200 333 20232 59018;EQDQ01  00002PRCP06
0167823920999992004010318004-03700-040350FM-12+008399999V0202301N001010450019N0500001N1+03321+02001100601ADDAA106000091GF106991041041004501031001MA1999999099601MD1999999-0081REMSYN070AAXX  03184 82392 32499 62302 10332 20200 39960 40060 84430 333 59008;EQDQ01  00002PRCP06
0198823920999992004010400004-03700-040350FM-12+008399999V0200501N004119999999N0040001N1+02781+02361100871ADDAA106000091GF108991051071999999021999KA1240M+03601MA1999999099851MD1999999-0151REMSYN088AAXX  04004 82392 32996 80508 10278 20236 39985 40087 8572/ 333 10360 29069 55043 59015;EQDQ01  00002PRCP06
0186823920999992004010412004-03700-040350FM-12+008399999V0203201N000510450019N0500001N1+02801+02421101021ADDAA106000091GF108991041051004501031001KA1240N+02491MA1999999100001MD1999999+0001REMSYN076AAXX  04124 82392 32499 83201 10280 20242 30000 40102 84530 333 20249 58000;EQDQ01  00002PRCP06
0198823920999992004010500004-03700-040350FM-12+008399999V0200501N003112200019N0040001N1+02801+02081100821ADDAA106000091GF102991021001008001031001KA1240M+03661MA1999999099801MD1999999-0051REMSYN088AAXX  05004 82392 32596 20506 10280 20208 39980 40082 82030 333 10366 29062 55072 59005;EQDQ01  00002PRCP06
0186823920999992004010512004-03700-040350FM-12+008399999V0200901N004612200019N0500001N1+03061+02141101021ADDAA106000091GF102991021011004501001001KA1240N+02381MA1999999100011MD1999999+0011REMSYN076AAXX  05124 82392 32499 20909 10306 20214 30001 40102 82100 333 20238 58001;EQDQ01  00002PRCP06
0167823920999992004010518004-03700-040350FM-12+008399999V0200501N003112200019N0500001N1+03561+01641100521ADDAA106000091GF104991031021004501031001MA1999999099521MD1999999+0021REMSYN070AAXX  05184 82392 32499 40506 10356 20164 39952 40052 83230 333 58002;EQDQ01  00002PRCP06
0208823920999992004010600004-03700-040350FM-12+008399999V0200501N004112200019N0040001N1+02801+01751100851ADDAA106000091GA1001+999999999GF100991001001999999001001KA1240M+03681MA1999999099841MD1999999+0041REMSYN082AAXX  06004 82392 32996 00508 10280 20175 39984 40085 333 10368 29048 55105 58004;EQDQ01  00002PRCP06
0186823920999992004010612004-03700-040350FM-12+008399999V0200901N001012200019N0500001N1+02901+02101101071ADDAA106000091GF102991021011004501001001KA1240N+02301MA1999999100061MD1999999+0051REMSYN076AAXX  06124 82392 32499 20902 10290 20210 30006 40107 82100 333 20230 58005;EQDQ01  00002PRCP06
0167823920999992004010618004-03700-040350FM-12+008399999V0201401N001010042019N0500001N1+03641+01411100601ADDAA106000091GF105991051021004501001001MA1999999099601MD1999999+0081REMSYN070AAXX  06184 82392 32499 51402 10364 20141 39960 40060 85200 333 58008;EQDQ01  00002PRCP06
0208823920999992004010700004-03700-040350FM-12+008399999V0203601N001012200019N0040001N1+02861+02011100851ADDAA106000091GA1001+999999999GF100991001001999999001001KA1240M+03731MA1999999099841MD1999999+0001REMSYN082AAXX  07004 82392 32996 03602 10286 20201 39984 40085 333 10373 29052 55108 58000;EQDQ01  00002PRCP06
0186823920999992004010712004-03700-040350FM-12+008399999V0200901N001012200019N0500001N1+02901+02201101051ADDAA106000091GF104991041021004501001001KA1240N+02321MA1999999100041MD1999999-0021REMSYN076AAXX  07124 82392 32499 40902 10290 20220 30004 40105 84200 333 20232 59002;EQDQ01  00002PRCP06
0167823920999992004010718004-03700-040350FM-12+008399999V0200901N001012200019N0500001N1+03681+01641100671ADDAA106000091GF104991031011004501031001MA1999999099661MD1999999+0061REMSYN070AAXX  07184 82392 32499 40902 10368 20164 39966 40067 83130 333 58006;EQDQ01  00002PRCP06
0208823920999992004010800004-03700-040350FM-12+008399999V0203601N001012200019N0040001N1+02871+02031100911ADDAA106000091GA1001+999999999GF100991001001999999001001KA1240M+03761MA1999999099901MD1999999+0061REMSYN082AAXX  08004 82392 32996 03602 10287 20203 39990 40091 333 10376 29054 55106 58006;EQDQ01  00002PRCP06
0186823920999992004010812004-03700-040350FM-12+008399999V0200901N001010042019N0500001N1+02981+02121100971ADDAA106000091GF105991051021004501001001KA1240N+02281MA1999999099961MD1999999-0081REMSYN076AAXX  08124 82392 32499 50902 10298 20212 39996 40097 85200 333 20228 59008;EQDQ01  00002PRCP06
0167823920999992004010818004-03700-040350FM-12+008399999V0200901N001012200019N0500001N1+03701+01651100521ADDAA106000091GF104991041011004501001001MA1999999099521MD1999999-0141REMSYN070AAXX  08184 82392 32499 40902 10370 20165 39952 40052 84100 333 59014;EQDQ01  00002PRCP06
0208823920999992004010900004-03700-040350FM-12+008399999V0200501N003112200019N0040001N1+02801+02201100861ADDAA106000091GA1001+999999999GF100991001001999999001001KA1240M+03821MA1999999099851MD1999999-0051REMSYN082AAXX  09004 82392 32996 00506 10280 20220 39985 40086 333 10382 29057 55108 59005;EQDQ01  00002PRCP06
0186823920999992004010912004-03700-040350FM-12+008399999V0200901N001010450019N0500001N1+02921+02361101011ADDAA106000091GF105991041021004501031001KA1240N+02501MA1999999100001MD1999999+0041REMSYN076AAXX  09124 82392 32499 50902 10292 20236 30000 40101 84230 333 20250 58004;EQDQ01  00002PRCP06
0167823920999992004010918004-03700-040350FM-12+008399999V0203601N001010042019N0500001N1+03601+02071100531ADDAA106000091GF106991061021004501001001MA1999999099531MD1999999+0011REMSYN070AAXX  09184 82392 32499 63602 10360 20207 39953 40053 86200 333 58001;EQDQ01  00002PRCP06
0198823920999992004011000004-03700-040350FM-12+008399999V0200501N004110450019N0040001N1+02761+02501100981ADDAA106000091GF108991031051004501021999KA1240M+03641MA1999999099961MD1999999+0111REMSYN088AAXX  10004 82392 32496 80508 10276 20250 39996 40098 8352/ 333 10364 29071 55059 58011;EQDQ01  00002PRCP06
0186823920999992004011012004-03700-040350FM-12+008399999V0203601N000510042019N0500001N1+02841+02291101001ADDAA106000091GF106991051041004501001011KA1240N+02551MA1999999099981MD1999999-0021REMSYN076AAXX  10124 82392 32499 63601 10284 20229 39998 40100 85401 333 20255 59002;EQDQ01  00002PRCP06
0167823920999992004011018004-03700-040350FM-12+008399999V0203601N001010042019N0500001N1+03611+01831100521ADDAA106000091GF106991061021004501001001MA1999999099521MD1999999-0011REMSYN070AAXX  10184 82392 32499 63602 10361 20183 39952 40052 86200 333 59001;EQDQ01  00002PRCP06
0198823920999992004011100004-03700-040350FM-12+008399999V0200501N002610450019N0040001N1+02711+02241100951ADDAA106000091GF105991031041004501031011KA1240M+03681MA1999999099931MD1999999-0031REMSYN088AAXX  11004 82392 32496 50505 10271 20224 39993 40095 83431 333 10368 29065 55063 59003;EQDQ01  00002PRCP06
0186823920999992004011112004-03700-040350FM-12+008399999V0200501N001010450019N0500001N1+02881+02211101161ADDAA106000091GF106991041051004501031001KA1240N+02501MA1999999100141MD1999999+0161REMSYN076AAXX  11124 82392 32499 60502 10288 20221 30014 40116 84530 333 20250 58016;EQDQ01  00002PRCP06
0167823920999992004011118004-03700-040350FM-12+008399999V0200901N001012200019N0500001N1+03621+02001100721ADDAA106000091GF104991031021004501031001MA1999999099711MD1999999+0191REMSYN070AAXX  11184 82392 32499 40902 10362 20200 39971 40072 83230 333 58019;EQDQ01  00002PRCP06
0198823920999992004011200004-03700-040350FM-12+008399999V0200501N003110450019N0040001N1+02781+02381101121ADDAA106000091GF106991041041004501031001KA1240M+03661MA1999999100101MD1999999+0071REMSYN088AAXX  12004 82392 32496 60506 10278 20238 30010 40112 84430 333 10366 29066 55060 58007;EQDQ01  00002PRCP06
0190823920999992004011212004-03700-040350FM-12+008399999V0202301N000510450019N0500001N1+02621+02471101321ADDAY161061AY221061GF108991041071004501021999KA1240N+02481MA1999999100301MD1999999+0161MW1021REMSYN088AAXX  12124 82392 21499 82301 10262 20247 30030 40132 70262 8472/ 333 20248 58016 60044;
0167823920999992004011218004-03700-040350FM-12+008399999V0203601N002610450019N0500001N1+03041+01881100881ADDAA106000091GF106991041021004501031001MA1999999099861MD1999999+0151REMSYN070AAXX  12184 82392 32499 63605 10304 20188 39986 40088 84230 333 58015;EQDQ01  00002PRCP06
0198823920999992004011300004-03700-040350FM-12+008399999V0203601N002610450019N0040001N1+02761+02421101221ADDAA106000091GF106991041021004501031001KA1240M+03391MA1999999100201MD1999999+0101REMSYN088AAXX  13004 82392 32496 63605 10276 20242 30020 40122 84230 333 10339 29069 55038 58010;EQDQ01  00002PRCP06
0186823920999992004011312004-03700-040350FM-12+008399999V0203601N001012200019N0500001N1+02961+02261101171ADDAA106000091GF103991031021004501001001KA1240N+02511MA1999999100161MD1999999-0141REMSYN076AAXX  13124 82392 32499 33602 10296 20226 30016 40117 83200 333 20251 59014;EQDQ01  00002PRCP06
0167823920999992004011318004-03700-040350FM-12+008399999V0203601N002610450019N0500001N1+03471+02181100691ADDAA106000091GF106991041021004501031001MA1999999099681MD1999999-0181REMSYN070AAXX  13184 82392 32499 63605 10347 20218 39968 40069 84230 333 59018;EQDQ01  00002PRCP06
0198823920999992004011400004-03700-040350FM-12+008399999V0203601N002610042019N0040001N1+02821+02271101061ADDAA106000091GF108991051021004501021999KA1240M+03531MA1999999100051MD1999999-0151REMSYN088AAXX  14004 82392 32496 83605 10282 20227 30005 40106 8522/ 333 10353 29064 55058 59015;EQDQ01  00002PRCP06
0186823920999992004011412004-03700-040350FM-12+008399999V0200501N001510450019N0500001N1+02781+02361101181ADDAA106000091GF108991041041004501021999KA1240N+02501MA1999999100161MD1999999+0001REMSYN076AAXX  14124 82392 32499 80503 10278 20236 30016 40118 8442/ 333 20250 58000;EQDQ01  00002PRCP06
0171823920999992004011418004-03700-040350FM-12+008399999V0203201N001010450019N0500001N1+02701+02431100871ADDAY161061AY251061GF108991031061004501021999MA1999999099851MD1999999+0171MW1031REMSYN082AAXX  14184 82392 21499 83202 10270 20243 39985 40087 70365 8362/ 333 58017 60111;
0202823920999992004011500004-03700-040350FM-12+008399999V0202301N000510042019N0040001N1+02311+02291101321ADDAY161061AY261061GF108991051061004501021999KA1240M+03291MA1999999100301MD1999999+0251MW1201REMSYN100AAXX  15004 82392 21496 82301 10231 20229 30030 40132 72066 8562/ 333 10329 29090 55007 58025 60181;
0190823920999992004011512004-03700-040350FM-12+008399999V0201801N000510450019N0500001N1+02601+02211101211ADDAY161061AY261061GF106991021021004501031001KA1240N+02301MA1999999100181MD1999999+0021MW1021REMSYN088AAXX  15124 82392 21499 61801 10260 20221 30018 40121 70266 82230 333 20230 58002 60364;
0167823920999992004011518004-03700-040350FM-12+008399999V0203601N001010450019N0500001N1+03311+01971100781ADDAA106000091GF106991021021004501031001MA1999999099761MD1999999-0091REMSYN070AAXX  15184 82392 32499 63602 10331 20197 39976 40078 82230 333 59009;EQDQ01  00002PRCP06
0208823920999992004011600004-03700-040350FM-12+008399999V0200501N001512200019N0000001N1+02001+99999101021ADDAA106000091GA1001+999999999GF100991001001999999001001KA1240M+03321MA1999999100001MD1999999+0001REMSYN082AAXX  16004 82392 32990 00503 10200 20227 30000 40102 333 10332 29072 55001 59000;EQDQ01  00002PRCP06
0186823920999992004011612004-03700-040350FM-12+008399999V0200501N001012200019N0500001N1+02881+02411100901ADDAA106000091GF103991031011004501001001KA1240N+02301MA1999999099881MD1999999-0301REMSYN076AAXX  16124 82392 32499 30502 10288 20241 39988 40090 83100 333 20230 59030;EQDQ01  00002PRCP06
0167823920999992004011618004-03700-040350FM-12+008399999V0203601N000510450019N0500001N1+03281+02101100551ADDAA106000091GF106991041041004501031001MA1999999099541MD1999999-0221REMSYN070AAXX  16184 82392 32499 63601 10328 20210 39954 40055 84430 333 59022;EQDQ01  00002PRCP06
0208823920999992004011700004-03700-040350FM-12+008399999V0200501N001512200019N0040001N1+02601+02461100901ADDAA106000091GA1001+999999999GF100991001001999999001001KA1240M+03341MA1999999099881MD1999999-0121REMSYN082AAXX  17004 82392 32996 00503 10260 20246 39988 40090 333 10334 29033 55076 59012;EQDQ01  00002PRCP06
0186823920999992004011712004-03700-040350FM-12+008399999V0200901N001010450019N0500001N1+02701+02431100981ADDAA106000091GF108991041051004501011999KA1240N+02421MA1999999099961MD1999999+0081REMSYN076AAXX  17124 82392 32499 80902 10270 20243 39996 40098 8451/ 333 20242 58008;EQDQ01  00002PRCP06
0171823920999992004011718004-03700-040350FM-12+008399999V0203601N002110450019N0200001N1+02501+02431100771ADDAY121061AY261061GF108991041061004501021999MA1999999099741MD1999999+0201MW1511REMSYN082AAXX  17184 82392 21498 83604 10250 20243 39974 40077 75126 8462/ 333 58020 60021;
0202823920999992004011800004-03700-040350FM-12+008399999V0201401N000510450019N0040001N1+02301+02271101211ADDAY161061AY261061GF108991031061004501021999KA1240M+03261MA1999999100181MD1999999+0301MW1511REMSYN100AAXX  18004 82392 21496 81401 10230 20227 30018 40121 75166 8362/ 333 10326 29094 55003 58030 60071;
0190823920999992004011812004-03700-040350FM-12+008399999V0209999C000010450019N0500001N1+02461+02301101381ADDAY161061AY261061GF108991031051004501021999KA1240N+02221MA1999999100351MD1999999+0391MW1021REMSYN088AAXX  18124 82392 21499 80000 10246 20230 30035 40138 70266 8352/ 333 20222 58039 60124;
0198823920999992004011900004-03700-040350FM-12+008399999V0203601N000510450019N0040001N1+02531+02191101161ADDAA106000091GF108991031061004501021999KA1240M+02901MA1999999100131MD1999999-0051REMSYN088AAXX  19004 82392 32496 83601 10253 20219 30013 40116 8362/ 333 10290 29080 55000 59005;EQDQ01  00002PRCP06
0186823920999992004011912004-03700-040350FM-12+008399999V0203201N000510450019N0500001N1+02661+02111101201ADDAA106000091GF108991031051004501011001KA1240N+02291MA1999999100181MD1999999-0171REMSYN076AAXX  19124 82392 32499 83201 10266 20211 30018 40120 83510 333 20229 59017;EQDQ01  00002PRCP06
0171823920999992004011918004-03700-040350FM-12+008399999V0203201N001010450019N0500001N1+02661+02291100821ADDAY121061AY251061GF108991041061004501021999MA1999999099801MD1999999-0281MW1021REMSYN082AAXX  19184 82392 21499 83202 10266 20229 39980 40082 70225 8462/ 333 59028 69931;
0198823920999992004012000004-03700-040350FM-12+008399999V0203601N001010450019N0040001N1+02461+02361101141ADDAA106000091GF108991031051004501021999KA1240M+03161MA1999999100121MD1999999-0011REMSYN088AAXX  20004 82392 32496 83602 10246 20236 30012 40114 8352/ 333 10316 29085 55043 59001;EQDQ01  00002PRCP06
0162823920999992004012012004-03700-040350FM-12+008399999V0203601N000510450019N0500001N1+02681+02411101141ADDGF105991021021004501031001KA1240N+02361MA1999999100121MD1999999-0061REMSYN082AAXX  20124 82392 22499 53601 10268 20241 30012 40114 82230 333 20236 59006 69934;
0167823920999992004012018004-03700-040350FM-12+008399999V0203601N003110042019N0500001N1+02671+02391100951ADDAA106000091GF107991061061004501031001MA1999999099921MD1999999+0121REMSYN070AAXX  20184 82392 32499 73606 10267 20239 39992 40095 86630 333 58012;EQDQ01  00002PRCP06
0202823920999992004012100004-03700-040350FM-12+008399999V0209999C000010450019N0040001N1+02401+02331101141ADDAY161061AY261061GF106991031041004501021001KA1240M+03111MA1999999100111MD1999999-0011MW1201REMSYN100AAXX  21004 82392 21496 60000 10240 20233 30011 40114 72066 83420 333 10311 29090 55031 59001 60071;
0190823920999992004012112004-03700-040350FM-12+008399999V0200901N000510450019N0500001N1+02501+02431101181ADDAY161061AY251061GF108991041071004501021999KA1240N+02301MA1999999100161MD1999999+0041MW1021REMSYN088AAXX  21124 82392 21499 80901 10250 20243 30016 40118 70265 8472/ 333 20230 58004 60074;
0077823920999992004012118004-03700-040350FM-12+008399999V02099999999999999999N9999999N1+99999+99999999999REMSYN068AAXX  21184 82392 32499 736 10300 20227 39984 40086 84530 333 59008;
0198823920999992004012200004-03700-040350FM-12+008399999V0203601N001010042019N0040001N1+02531+02331101121ADDAA106000091GF108991051051004501031999KA1240M+03031MA1999999100091MD1999999-0021REMSYN088AAXX  22004 82392 32496 83602 10253 20233 30009 40112 8553/ 333 10303 29084 55020 59002;EQDQ01  00002PRCP06
0190823920999992004012212004-03700-040350FM-12+008399999V0200501N000510042019N0500001N1+02531+02421101061ADDAY151061AY251061GF108991051051004501021999KA1240N+02401MA1999999100031MD1999999-0131MW1021REMSYN088AAXX  22124 82392 21499 80501 10253 20242 30003 40106 70255 8552/ 333 20240 59013 60034;
0202823920999992004012300004-03700-040350FM-12+008399999V0209999C000010450019N0040001N1+02401+02331100971ADDAY151061AY251061GF108991031071004501021999KA1240M+02961MA1999999099941MD1999999-0151MW1031REMSYN100AAXX  23004 82392 21496 80000 10240 20233 39994 40097 70355 8372/ 333 10296 29090 55015 59015 69991;
0162823920999992004012312004-03700-040350FM-12+008399999V0200901N001010450019N0500001N1+02661+02441101031ADDGF108991041051004501021999KA1240N+02391MA1999999100001MD1999999-0031REMSYN082AAXX  23124 82392 22499 80902 10266 20244 30000 40103 8452/ 333 20239 59003 60024;
0167823920999992004012318004-03700-040350FM-12+008399999V0201801N001010450019N0500001N1+03101+02341100581ADDAA106000091GF107991041051004501031011MA1999999099571MD1999999-0111REMSYN070AAXX  23184 82392 32499 71802 10310 20234 39957 40058 84531 333 59011;EQDQ01  00002PRCP06
0202823920999992004012400004-03700-040350FM-12+008399999V0203201N001510450019N0040001N1+02201+02151101191ADDAY121061AY261061GF108991031081004501071999KA1240M+03101MA1999999100161MD1999999+0221MW1611REMSYN100AAXX  24004 82392 21496 83203 10220 20215 30016 40119 76126 8387/ 333 10310 29086 55036 58022 60161;
0190823920999992004012412004-03700-040350FM-12+008399999V0201801N000510450019N0500001N1+02591+02351101221ADDAY161061AY261061GF107991041041004501031001KA1240N+02241MA1999999100191MD1999999+0191MW1021REMSYN088AAXX  24124 82392 21499 71801 10259 20235 30019 40122 70266 84430 333 20224 58019 60264;
0167823920999992004012418004-03700-040350FM-12+008399999V0201801N001010450019N0500001N1+03001+02241100821ADDAA106000091GF106991031041004501031011MA1999999099801MD1999999+0231REMSYN070AAXX  24184 82392 32499 61802 10300 20224 39980 40082 83431 333 58023;EQDQ01  00002PRCP06
0202823920999992004012500004-03700-040350FM-12+008399999V0203601N001010042019N0040001N1+02321+02251101221ADDAY161061AY261061GF108991081061004501999999KA1240M+03061MA1999999100191MD1999999+0031MW1611REMSYN100AAXX  25004 82392 21496 83602 10232 20225 30019 40122 76166 886// 333 10306 29086 55017 58003 60061;
0209823920999992004012512004-03700-040350FM-12+008399999V0209999C000010042019N0500001N1+02401+02351101281ADDAY161061AY261061GF106991999041004501001001KA1240N+02201MA1999999100251MD1999999+0061MW1021REMSYN088AAXX  25124 82392 21499 60000 10240 20235 30025 40128 70266 85400 333 20220 58006 60354;EQDQ01+000052SCOTLC
0167823920999992004012518004-03700-040350FM-12+008399999V0203601N001010042019N0500001N1+03021+02181100821ADDAA106000091GF106991061041004501031001MA1999999099801MD1999999+0001REMSYN070AAXX  25184 82392 32499 63602 10302 20218 39980 40082 86430 333 58000;EQDQ01  00002PRCP06
0198823920999992004012600004-03700-040350FM-12+008399999V0200501N002110450019N0040001N1+02521+02451101081ADDAA106000091GF107991041051004501031001KA1240M+03061MA1999999100051MD1999999-0141REMSYN088AAXX  26004 82392 32496 70504 10252 20245 30005 40108 84530 333 10306 29087 55015 59014;EQDQ01  00002PRCP06
0190823920999992004012612004-03700-040350FM-12+008399999V0209999C000010450019N0200001N1+02421+02391101191ADDAY161061AY261061GF108991031071004501021999KA1240N+02291MA1999999100161MD1999999-0091MW1021REMSYN088AAXX  26124 82392 21498 80000 10242 20239 30016 40119 70266 8372/ 333 20229 59009 60234;
0167823920999992004012618004-03700-040350FM-12+008399999V0202301N002110450019N0500001N1+02821+02481100761ADDAA106000091GF108991041071004501021999MA1999999099741MD1999999-0061REMSYN070AAXX  26184 82392 32499 82304 10282 20248 39974 40076 8472/ 333 59006;EQDQ01  00002PRCP06
0202823920999992004012700004-03700-040350FM-12+008399999V0203601N000510042019N0040001N1+02481+02431101091ADDAY151061AY251061GF108991051071004501021999KA1240M+03061MA1999999100061MD1999999+0011MW1511REMSYN100AAXX  27004 82392 21496 83601 10248 20243 30006 40109 75155 8572/ 333 10306 29094 55023 58001 60021;
0190823920999992004012712004-03700-040350FM-12+008399999V0200901N000510450019N0200001N1+02441+02411101251ADDAY151061AY261061GF108991041081004501021999KA1240N+02381MA1999999100221MD1999999+0061MW1031REMSYN088AAXX  27124 82392 21498 80901 10244 20241 30022 40125 70356 8482/ 333 20238 58006 60064;
0167823920999992004012718004-03700-040350FM-12+008399999V0202701N000510450019N0500001N1+02631+02371100911ADDAA106000091GF107991031041004501021001MA1999999099881MD1999999+0141REMSYN070AAXX  27184 82392 32499 72701 10263 20237 39988 40091 83420 333 58014;EQDQ01  00002PRCP06
0202823920999992004012800004-03700-040350FM-12+008399999V0200501N000510042019N0040001N1+02391+02351101241ADDAY161061AY261061GF108991051071004501021999KA1240M+02881MA1999999100211MD1999999+0151MW1511REMSYN100AAXX  28004 82392 21496 80501 10239 20235 30021 40124 75166 8572/ 333 10288 29094 55008 58015 60051;
0190823920999992004012812004-03700-040350FM-12+008399999V0200501N000510450019N0500001N1+02481+02451101251ADDAY161061AY261061GF108991041071004501021999KA1240N+02381MA1999999100221MD1999999+0001MW1021REMSYN088AAXX  28124 82392 21499 80501 10248 20245 30022 40125 70266 8472/ 333 20238 58000 60104;
0167823920999992004012818004-03700-040350FM-12+008399999V0200501N001510450019N0500001N1+02761+02461100871ADDAA106000091GF107991031051004501011001MA1999999099851MD1999999-0031REMSYN070AAXX  28184 82392 32499 70503 10276 20246 39985 40087 83510 333 59003;EQDQ01  00002PRCP06
0198823920999992004012900004-03700-040350FM-12+008399999V0200501N001010450019N0040001N1+02461+02321101141ADDAA106000091GF106991031051004501011011KA1240M+02861MA1999999100111MD1999999-0101REMSYN088AAXX  29004 82392 32496 60502 10246 20232 30011 40114 83511 333 10286 29092 55009 59010;EQDQ01  00002PRCP06
0190823920999992004012912004-03700-040350FM-12+008399999V0209999C000010042019N0040001N1+02341+02311101291ADDAY161061AY261061GF108991081061004501999999KA1240N+02301MA1999999100261MD1999999+0041MW1611REMSYN088AAXX  29124 82392 21496 80000 10234 20231 30026 40129 76166 886// 333 20230 58004 60694;
0171823920999992004012918004-03700-040350FM-12+008399999V0200501N001010042019N0200001N1+02461+02301101041ADDAY161061AY261061GF108991061061004501011999MA1999999100011MD1999999+0161MW1021REMSYN082AAXX  29184 82392 21498 80502 10246 20230 30001 40104 70266 8661/ 333 58016 60301;
0198823920999992004013000004-03700-040350FM-12+008399999V0209999C000010450019N0040001N1+02361+02331101271ADDAA106000091GF108991041061004501021999KA1240M+02521MA1999999100241MD1999999+0131REMSYN088AAXX  30004 82392 32496 80000 10236 20233 30024 40127 8462/ 333 10252 29096 55000 58013;EQDQ01  00002PRCP06
0162823920999992004013012004-03700-040350FM-12+008399999V0202301N001010042019N0500001N1+02581+02371101231ADDGF106991051021004501031001KA1240N+02221MA1999999100201MD1999999-0061REMSYN082AAXX  30124 82392 22499 62302 10258 20237 30020 40123 85230 333 20222 59006 60304;
0167823920999992004013018004-03700-040350FM-12+008399999V0201801N001010450019N0500001N1+03091+02391100861ADDAA106000091GF106991041061004501011011MA1999999099841MD1999999-0171REMSYN070AAXX  30184 82392 32499 61802 10309 20239 39984 40086 84611 333 59017;EQDQ01  00002PRCP06
0202823920999992004013100004-03700-040350FM-12+008399999V0201801N001010450019N0040001N1+02321+02291101191ADDAY161061AY261061GF108991041071004501021001KA1240M+03101MA1999999100161MD1999999-0081MW1031REMSYN100AAXX  31004 82392 21496 81802 10232 20229 30016 40119 70366 84720 333 10310 29087 55066 59008 60311;
0162823920999992004013112004-03700-040350FM-12+008399999V0200901N000512200019N0500001N1+02681+02411101231ADDGF104991041021004501001001KA1240N+02241MA1999999100201MD1999999+0001REMSYN082AAXX  31124 82392 22499 40901 10268 20241 30020 40123 84200 333 20224 58000 60314;
0171823920999992004013118004-03700-040350FM-12+008399999V0203201N000510450019N0500001N1+02361+02331101031ADDAY121061AY221061GF108991031071004501021999MA1999999100001MD1999999+0161MW1211REMSYN082AAXX  31184 82392 21499 83201 10236 20233 30000 40103 72122 8372/ 333 58016 60241;
0202823920999992004020100004-03700-040350FM-12+008399999V0203201N000510450019N0040001N1+02401+02371101251ADDAY161061AY261061GF108991041071004501021999KA1240M+03101MA1999999100221MD1999999+0061MW1031REMSYN100AAXX  01004 82392 21496 83201 10240 20237 30022 40125 70366 8472/ 333 10310 29095 55065 58006 60061;
0162823920999992004020112004-03700-040350FM-12+008399999V0209999C000012200019N0500001N1+02681+02391101381ADDGF106991041041004501001011KA1240N+02261MA1999999100351MD1999999+0151REMSYN082AAXX  01124 82392 22499 60000 10268 20239 30035 40138 84401 333 20226 58015 60314;
0198823920999992004020200004-03700-040350FM-12+008399999V0203601N001010450019N0040001N1+02571+02421101191ADDAA106000091GF106991031061004501031001KA1240M+03081MA1999999100171MD1999999-0051REMSYN088AAXX  02004 82392 32496 63602 10257 20242 30017 40119 83630 333 10308 29083 55071 59005;EQDQ01  00002PRCP06
0186823920999992004020212004-03700-040350FM-12+008399999V0200901N000512200019N0500001N1+02781+02441101181ADDAA106000091GF104991031021004501031001KA1240N+02381MA1999999100161MD1999999-0191REMSYN076AAXX  02124 82392 32499 40901 10278 20244 30016 40118 83230 333 20238 59019;EQDQ01  00002PRCP06
0171823920999992004020218004-03700-040350FM-12+008399999V0203601N002610450019N0500001N1+02741+02561100841ADDAY121061AY261061GF108991041041004501021999MA1999999099821MD1999999-0111MW1021REMSYN082AAXX  02184 82392 21499 83605 10274 20256 39982 40084 70226 8442/ 333 59011 60121;
0198823920999992004020300004-03700-040350FM-12+008399999V0200901N000510450019N0040001N1+02481+02411101111ADDAA106000091GF106991021041004501011001KA1240M+02981MA1999999100141MD1999999-0031REMSYN088AAXX  03004 82392 32496 60901 10248 20241 30014 40111 82410 333 10298 29091 55055 59003;EQDQ01  00002PRCP06
0190823920999992004020312004-03700-040350FM-12+008399999V0200901N000510450019N0500001N1+02701+02431101081ADDAY161061AY261061GF106991041021004501031001KA1240N+02381MA1999999100061MD1999999-0101MW1021REMSYN088AAXX  03124 82392 21499 60901 10270 20243 30006 40108 70266 84230 333 20238 59010 60144;
0167823920999992004020318004-03700-040350FM-12+008399999V0203601N001010450019N0500001N1+03061+02401100691ADDAA106000091GF105991031041004501031011MA1999999099671MD1999999-0151REMSYN070AAXX  03184 82392 32499 53602 10306 20240 39967 40069 83431 333 59015;EQDQ01  00002PRCP06
0202823920999992004020400004-03700-040350FM-12+008399999V0209999C000010042019N0040001N1+02441+02391101111ADDAY161061AY261061GF108991061061004501021999KA1240M+03181MA1999999100091MD1999999-0051MW1511REMSYN100AAXX  04004 82392 21496 80000 10244 20239 30009 40111 75166 8662/ 333 10318 29087 55080 59005 60301;
0190823920999992004020412004-03700-040350FM-12+008399999V0202301N000510450019N0500001N1+02501+02471101191ADDAY161061AY251061GF108991031051004501021999KA1240N+02311MA1999999100161MD1999999+0101MW1021REMSYN088AAXX  04124 82392 21499 82301 10250 20247 30016 40119 70265 8352/ 333 20231 58010 60304;
0171823920999992004020418004-03700-040350FM-12+008399999V0200501N002610450019N0500001N1+02421+02371100891ADDAY121061AY251061GF108991041071004501011999MA1999999099861MD1999999+0191MW1021REMSYN082AAXX  04184 82392 21499 80505 10242 20237 39986 40089 70225 8471/ 333 58019 69971;
0214823920999992004020500004-03700-040350FM-12+008399999V0203601N000519999999N0040001N1+02471+02361101121ADDAA106000091GF108991999021008001001001KA1240M+02981MA1999999100091MD1999999+0001REMSYN088AAXX  05004 82392 32596 83601 10247 20236 30009 40112 83200 333 10298 29095 55019 58000;EQDQ01+000032SCOTLCQ02  00002PRCP06
0162823920999992004020512004-03700-040350FM-12+008399999V0209999C000010450019N0500001N1+02741+02341101141ADDGF106991041041004501031001KA1240N+02361MA1999999100121MD1999999-0141REMSYN082AAXX  05124 82392 22499 60000 10274 20234 30012 40114 84430 333 20236 59014 69974;
0171823920999992004020518004-03700-040350FM-12+008399999V0203601N000510450019N0005001N1+02711+02321100821ADDAY161061AY261061GF107991041061004501031001MA1999999099791MD1999999-0071MW1021REMSYN082AAXX  05184 82392 21493 73601 10271 20232 39979 40082 70266 84630 333 59007 60041;
0202823920999992004020600004-03700-040350FM-12+008399999V0209999C000010450019N0040001N1+02401+02331101141ADDAY161061AY251061GF108991041061004501021001KA1240M+03001MA1999999100121MD1999999+0031MW1021REMSYN100AAXX  06004 82392 21496 80000 10240 20233 30012 40114 70265 84620 333 10300 29087 55022 58003 69921;
0190823920999992004020612004-03700-040350FM-12+008399999V0202301N001010450019N0500001N1+02401+02261101131ADDAY151061AY251061GF108991031071004501021999KA1240N+02251MA1999999100101MD1999999-0021MW1021REMSYN088AAXX  06124 82392 21499 82302 10240 20226 30010 40113 70255 8372/ 333 20225 59002 60054;
0167823920999992004020618004-03700-040350FM-12+008399999V0203601N000510042019N0500001N1+02901+02341100791ADDAA106000091GF107991051061004501031001MA1999999099771MD1999999-0021REMSYN070AAXX  06184 82392 32499 73601 10290 20234 39977 40079 85630 333 59002;EQDQ01  00002PRCP06
0202823920999992004020700004-03700-040350FM-12+008399999V0209999C000010450019N0040001N1+02401+02351101011ADDAY121061AY261061GF108991041061004501021999KA1240M+02981MA1999999099981MD1999999-0141MW1021REMSYN100AAXX  07004 82392 21496 80000 10240 20235 39998 40101 70226 8462/ 333 10298 29089 55007 59014 60031;
0162823920999992004020712004-03700-040350FM-12+008399999V0201801N000510042019N0500001N1+02631+02421101081ADDGF106991051051004501031001KA1240N+02261MA1999999100051MD1999999-0051REMSYN082AAXX  07124 82392 22499 61801 10263 20242 30005 40108 85530 333 20226 59005 60034;
0171823920999992004020718004-03700-040350FM-12+008399999V0203601N001010075019N0100001N1+02461+02231100871ADDAY151061AY251061GF108991051051008001999999MA1999999099841MD1999999-0071MW1201REMSYN082AAXX  07184 82392 21597 83602 10246 20223 39984 40087 72055 855// 333 59007 60011;
0179823920999992004020800004-03700-040350FM-12+008399999V0200501N001010450019N0040001N1+02361+02201101171ADDAA106000021GF108991041061004501021001KA1240M+03091MA1999999100141MD1999999+0161REMSYN088AAXX  08004 82392 32496 80502 10236 20220 30014 40117 84620 333 10309 29090 55041 58016;
0181823920999992004020812004-03700-040350FM-12+008399999V0209999C000010042019N0500001N1+02501+02341101191ADDGF106991999021004501001001KA1240N+02281MA1999999100161MD1999999+0111REMSYN082AAXX  08124 82392 22499 60000 10250 20234 30016 40119 85200 333 20228 58011 60014;EQDQ01+000052SCOTLC
0190823920999992004020818004-03700-040350FM-12+008399999V0200501N001510042019N0500001N1+02641+02371101031ADDAY121061AY251061GF108991999071004501021001MA1999999100001MD1999999+0161MW1021REMSYN082AAXX  08184 82392 21499 80503 10264 20237 30000 40103 70225 88720 333 58016 60021;EQDQ01+000082SCOTLC
0202823920999992004020900004-03700-040350FM-12+008399999V0200501N001010450019N0040001N1+02341+02291101281ADDAY161061AY261061GF108991031071004501021001KA1240M+02941MA1999999100251MD1999999+0111MW1021REMSYN100AAXX  09004 82392 21496 80502 10234 20229 30025 40128 70266 83720 333 10294 29092 55033 58011 60031;
0190823920999992004020912004-03700-040350FM-12+008399999V0203601N001010450019N0500001N1+02541+02491101381ADDAY161061AY261061GF106991041041004501031001KA1240N+02241MA1999999100351MD1999999+0191MW1021REMSYN088AAXX  09124 82392 21499 63602 10254 20249 30035 40138 70266 84430 333 20224 58019 60074;
0167823920999992004020918004-03700-040350FM-12+008399999V0200501N002112200019N0500001N1+03001+02321100941ADDAA106000091GF104991011021004501031001MA1999999099921MD1999999-0081REMSYN070AAXX  09184 82392 32499 40504 10300 20232 39992 40094 81230 333 59008;EQDQ01  00002PRCP06
0221823920999992004021000004-03700-040350FM-12+008399999V0203201N000512200019N0040001N1+02401+02341101211ADDAY151061AY251061GF102991999021004501001001KA1240M+03121MA1999999100181MD1999999-0061MW1021REMSYN100AAXX  10004 82392 21496 23201 10240 20234 30018 40121 70255 83200 333 10312 29087 55073 59006 69971;EQDQ01+000032SCOTLC
0162823920999992004021012004-03700-040350FM-12+008399999V0201401N001012200019N0500001N1+02681+02431101171ADDGF104991031021004501031001KA1240N+02281MA1999999100141MD1999999-0211REMSYN082AAXX  10124 82392 22499 41402 10268 20243 30014 40117 83230 333 20228 59021 69974;
0167823920999992004021018004-03700-040350FM-12+008399999V0200901N000512200019N0500001N1+03181+02131100841ADDAA106000091GF102991021021004501001001MA1999999100821MD1999999-0101REMSYN070AAXX  10184 82392 32499 20901 10318 20213 30082 40084 82200 333 59010;EQDQ01  00002PRCP06
0208823920999992004021100004-03700-040350FM-12+008399999V0203601N000512200019N0500001N1+02581+02371101081ADDAA106000091GA1001+999999999GF100991001001999999001001KA1240M+03201MA1999999100061MD1999999-0121REMSYN082AAXX  11004 82392 32499 03601 10258 20237 30006 40108 333 10320 29079 55100 59012;EQDQ01  00002PRCP06
0186823920999992004021112004-03700-040350FM-12+008399999V0201401N001012200019N0500001N1+02701+02241101121ADDAA106000091GF102991021011004501001001KA1240N+02221MA1999999100101MD1999999-0041REMSYN076AAXX  11124 82392 32499 21402 10270 20224 30010 40112 82100 333 20222 59004;EQDQ01  00002PRCP06
0167823920999992004021118004-03700-040350FM-12+008399999V0200501N001012200019N0500001N1+03221+02051100841ADDAA106000091GF101991011011004501001001MA1999999099821MD1999999+0001REMSYN070AAXX  11184 82392 32499 10502 10322 20205 39982 40084 81100 333 58000;EQDQ01  00002PRCP06
0198823920999992004021200004-03700-040350FM-12+008399999V0203601N000512200019N0040001N1+02701+02371101121ADDAA106000091GF103991031021008001001001KA1240M+03261MA1999999100101MD1999999+0041REMSYN088AAXX  12004 82392 32596 33601 10270 20237 30010 40112 83200 333 10326 29073 55102 58004;EQDQ01  00002PRCP06
0186823920999992004021212004-03700-040350FM-12+008399999V0200901N000510450019N0500001N1+02791+02401101281ADDAA106000091GF106991041041004501031001KA1240N+02421MA1999999100261MD1999999+0161REMSYN076AAXX  12124 82392 32499 60901 10279 20240 30026 40128 84430 333 20242 58016;EQDQ01  00002PRCP06
0167823920999992004021218004-03700-040350FM-12+008399999V0200901N001010450019N0500001N1+03131+02271100931ADDAA106000091GF105991031041004501031011MA1999999099911MD1999999+0091REMSYN070AAXX  12184 82392 32499 50902 10313 20227 39991 40093 83431 333 58009;EQDQ01  00002PRCP06
0198823920999992004021300004-03700-040350FM-12+008399999V0203601N001512200019N0040001N1+02601+02461101221ADDAA106000091GF104991041021004501001001KA1240M+03181MA1999999100201MD1999999+0101REMSYN088AAXX  13004 82392 32496 43603 10260 20246 30020 40122 84200 333 10318 29081 55059 58010;EQDQ01  00002PRCP06
0186823920999992004021312004-03700-040350FM-12+008399999V0203201N000510450019N0500001N1+02621+02481101321ADDAA106000091GF107991041041004501031001KA1240N+02341MA1999999100301MD1999999+0041REMSYN076AAXX  13124 82392 32499 73201 10262 20248 30030 40132 84430 333 20234 58004;EQDQ01  00002PRCP06
0171823920999992004021318004-03700-040350FM-12+008399999V0203201N000510450019N0500001N1+02911+02541100941ADDAY161061AY261061GF106991041061004501031011MA1999999099921MD1999999+0011MW1021REMSYN082AAXX  13184 82392 21499 63201 10291 20254 39992 40094 70266 84631 333 58001 60071;
0198823920999992004021400004-03700-040350FM-12+008399999V0203601N000510450019N0040001N1+02601+02551101181ADDAA106000091GF108991041071004501021999KA1240M+03081MA1999999100161MD1999999-0041REMSYN088AAXX  14004 82392 32496 83601 10260 20255 30016 40118 8472/ 333 10308 29092 55058 59004;EQDQ01  00002PRCP06
0162823920999992004021412004-03700-040350FM-12+008399999V0200901N000510450019N0500001N1+02581+02311101271ADDGF106991041051004501031001KA1240N+02341MA1999999100251MD1999999-0051REMSYN082AAXX  14124 82392 22499 60901 10258 20231 30025 40127 84530 333 20234 59005 60074;
0167823920999992004021418004-03700-040350FM-12+008399999V0203601N001010450019N0500001N1+03061+02301100861ADDAA106000091GF105991041021004501031001MA1999999099841MD1999999-0081REMSYN070AAXX  14184 82392 32499 53602 10306 20230 39984 40086 84230 333 59008;EQDQ01  00002PRCP06
0208823920999992004021500004-03700-040350FM-12+008399999V0203601N001012200019N0040001N1+02541+02401101141ADDAA106000091GA1001+999999999GF100991001001999999001001KA1240M+03141MA1999999100121MD1999999-0041REMSYN082AAXX  15004 82392 32996 03602 10254 20240 30012 40114 333 10314 29083 55065 59004;EQDQ01  00002PRCP06
0202823920999992004021512004-03700-040350FM-12+008399999V0200901N001019999999N0500001N1+02821+02381101181ADDAA106000091GF105991999021008001001001KA1240N+02321MA1999999100161MD1999999-0091REMSYN076AAXX  15124 82392 32599 50902 10282 20238 30016 40118 83200 333 20232 59009;EQDQ01+000032SCOTLCQ02  00002PRCP06
0190823920999992004021518004-03700-040350FM-12+008399999V0203601N000510042019N0500001N1+02811+02541100811ADDAY151061AY251061GF107991999021004501001001MA1999999099791MD1999999-0051MW1021REMSYN082AAXX  15184 82392 21499 73601 10281 20254 39979 40081 70255 85200 333 59005 69981;EQDQ01+000052SCOTLC
0202823920999992004021600004-03700-040350FM-12+008399999V0203601N001010042019N0040001N1+02301+02251101251ADDAY161061AY261061GF108991081051004501999999KA1240M+03131MA1999999100231MD1999999+0111MW1611REMSYN100AAXX  16004 82392 21496 83602 10230 20225 30023 40125 76166 885// 333 10313 29089 55074 58011 60111;
0190823920999992004021612004-03700-040350FM-12+008399999V0203201N000510450019N0500001N1+02601+02421101281ADDAY161061AY261061GF106991041021004501031001KA1240N+02291MA1999999100251MD1999999+0091MW1021REMSYN088AAXX  16124 82392 21499 63201 10260 20242 30025 40128 70266 84230 333 20229 58009 60224;
0171823920999992004021618004-03700-040350FM-12+008399999V0200501N000510450019N0200001N1+02201+02131101041ADDAY121061AY221061GF108991031061004501021999MA1999999100011MD1999999+0221MW1621REMSYN082AAXX  16184 82392 21498 80501 10220 20213 30001 40104 76222 8362/ 333 58022 60401;
0179823920999992004021700004-03700-040350FM-12+008399999V0203601N000510042019N0040001N1+02361+02331101331ADDAA106000021GF105991051061004501001001KA1240M+03061MA1999999100301MD1999999+0071REMSYN088AAXX  17004 82392 32496 53601 10236 20233 30030 40133 85600 333 10306 29096 55035 58007;
0162823920999992004021712004-03700-040350FM-12+008399999V0202301N000510450019N0500001N1+02461+02391101331ADDGF108991031051004501021999KA1240N+02241MA1999999100301MD1999999+0051REMSYN082AAXX  17124 82392 22499 82301 10246 20239 30030 40133 8352/ 333 20224 58005 60404;
0171823920999992004021718004-03700-040350FM-12+008399999V0209999C000012200019N0500001N1+02921+02601100921ADDAY161061AY261061GF106991041051004501001011MA1999999099951MD1999999-0061MW1021REMSYN082AAXX  17184 82392 21499 60000 10292 20260 39995 40092 70266 84501 333 59006 60031;
0202823920999992004021800004-03700-040350FM-12+008399999V0203601N000510450019N0040001N1+02461+02411101261ADDAY161061AY261061GF106991041051004501021001KA1240M+03081MA1999999100231MD1999999-0071MW1021REMSYN100AAXX  18004 82392 21496 63601 10246 20241 30023 40126 70266 84520 333 10308 29093 55054 59007 60301;
0162823920999992004021812004-03700-040350FM-12+008399999V0202301N001012200019N0500001N1+02601+02551101271ADDGF103991031021004501001001KA1240N+02301MA1999999100241MD1999999-0061REMSYN082AAXX  18124 82392 22499 32302 10260 20255 30024 40127 83200 333 20230 59006 60334;
0167823920999992004021818004-03700-040350FM-12+008399999V0200901N001512200019N0500001N1+03121+02051100881ADDAA106000091GF102991021011004501001001MA1999999099861MD1999999-0091REMSYN070AAXX  18184 82392 32499 20903 10312 20205 39986 40088 82100 333 59009;EQDQ01  00002PRCP06
0186823920999992004021912004-03700-040350FM-12+008399999V0200501N001010450019N0500001N1+02741+02451101151ADDAA106000091GF106991041041004501031001KA1240N+02271MA1999999100131MD1999999-0111REMSYN076AAXX  19124 82392 32499 60502 10274 20245 30013 40115 84430 333 20227 59011;EQDQ01  00002PRCP06
0167823920999992004021918004-03700-040350FM-12+008399999V0200901N001010450019N0500001N1+03161+02201100781ADDAA106000091GF106991031021004501011011MA1999999099761MD1999999-0101REMSYN070AAXX  19184 82392 32499 60902 10316 20220 39976 40078 83211 333 59010;EQDQ01  00002PRCP06
0208823920999992004022000004-03700-040350FM-12+008399999V0200501N002112200019N0040001N1+02541+02401100881ADDAA106000091GA1001+999999999GF100991001001999999001001KA1240M+03161MA1999999099861MD1999999-0241REMSYN082AAXX  20004 82392 32996 00504 10254 20240 39986 40088 333 10316 29081 55093 59024;EQDQ01  00002PRCP06
0186823920999992004022012004-03700-040350FM-12+008399999V0200901N000512200019N0500001N1+02761+02481101021ADDAA106000091GF103991031021004501001001KA1240N+02291MA1999999100001MD1999999-0131REMSYN076AAXX  20124 82392 32499 30901 10276 20248 30000 40102 83200 333 20229 59013;EQDQ01  00002PRCP06
0167823920999992004022018004-03700-040350FM-12+008399999V0201801N000510450019N0500001N1+03211+02261100731ADDAA106000091GF105991041021004501011001MA1999999099711MD1999999-0051REMSYN070AAXX  20184 82392 32499 51801 10321 20226 39971 40073 84210 333 59005;EQDQ01  00002PRCP06
0198823920999992004022100004-03700-040350FM-12+008399999V0200501N002610450019N0040001N1+02601+02421101041ADDAA106000091GF106991041041004501031001KA1240M+03361MA1999999100021MD1999999+0161REMSYN088AAXX  21004 82392 32496 60505 10260 20242 30002 40104 84430 333 10336 29080 55094 58016;EQDQ01  00002PRCP06
0186823920999992004022112004-03700-040350FM-12+008399999V0200901N000510450019N0500001N1+02771+02481101201ADDAA106000091GF106991041041004501011001KA1240N+02381MA1999999100181MD1999999+0181REMSYN076AAXX  21124 82392 32499 60901 10277 20248 30018 40120 84410 333 20238 58018;EQDQ01  00002PRCP06
0167823920999992004022118004-03700-040350FM-12+008399999V0200901N000510450019N0500001N1+03171+02411100851ADDAA106000091GF106991041041004501011001MA1999999099831MD1999999+0121REMSYN070AAXX  21184 82392 32499 60901 10317 20241 39983 40085 84410 333 58012;EQDQ01  00002PRCP06
0198823920999992004022200004-03700-040350FM-12+008399999V0203601N001010450019N0040001N1+02541+02421101191ADDAA106000091GF106991031051004501021001KA1240M+03211MA1999999100171MD1999999+0151REMSYN088AAXX  22004 82392 32496 63602 10254 20242 30017 40119 83520 333 10321 29084 55081 58015;EQDQ01  00002PRCP06
0192823920999992004022212004-03700-040350FM-12+008399999V0200901N001012200019N0500001N1+02741+02401101241ADDAA106000091GF103991031021004501001001KA1240N+02341MA1999999100221MD1010001+0041REMSYN082AAXX  22124 82392 32499 30902 10274 20240 30022 40124 50000 83200 333 20234 58004;EQDQ01  00002PRCP06
0167823920999992004022218004-03700-040350FM-12+008399999V0200901N001012200019N0500001N1+03121+02221100881ADDAA106000091GF104991041021004501001001MA1999999099861MD1999999+0031REMSYN070AAXX  22184 82392 32499 40902 10312 20222 39986 40088 84200 333 58003;EQDQ01  00002PRCP06
0208823920999992004022300004-03700-040350FM-12+008399999V0203601N002112200019N0040001N1+02541+02291101181ADDAA106000091GA1001+999999999GF100991001001999999001001KA1240M+03181MA1999999100161MD1999999-0011REMSYN082AAXX  23004 82392 32996 03604 10254 20229 30016 40118 333 10318 29078 55097 59001;EQDQ01  00002PRCP06
0202823920999992004022400004-03700-040350FM-12+008399999V0203601N000510042019N0040001N1+02461+02411101291ADDAY161061AY261061GF108991061061004501021999KA1240M+03281MA1999999100271MD1999999+0111MW1211REMSYN100AAXX  24004 82392 21496 83601 10246 20241 30027 40129 72166 8662/ 333 10328 29084 55092 58011 60331;
0190823920999992004022412004-03700-040350FM-12+008399999V0202301N001010450019N0500001N1+02581+02511101281ADDAY161061AY261061GF106991041041004501031001KA1240N+02261MA1999999100251MD1999999+0001MW1021REMSYN088AAXX  24124 82392 21499 62302 10258 20251 30025 40128 70266 84430 333 20226 58000 60364;
0167823920999992004022418004-03700-040350FM-12+008399999V0201801N000510450019N0500001N1+02981+02421100931ADDAA106000091GF107991041051004501021011MA1999999099911MD1999999+0081REMSYN070AAXX  24184 82392 32499 71801 10298 20242 39991 40093 84521 333 58008;EQDQ01  00002PRCP06
0202823920999992004022500004-03700-040350FM-12+008399999V0202301N000510042019N0040001N1+02341+02291101161ADDAY161061AY261061GF108991051051004501021999KA1240M+03061MA1999999100131MD1999999-0141MW1021REMSYN100AAXX  25004 82392 21496 82301 10234 20229 30013 40116 70266 8552/ 333 10306 29091 55028 59014 60151;
0162823920999992004022512004-03700-040350FM-12+008399999V0202301N001010450019N0500001N1+02601+02461101181ADDGF107991031041004501031001KA1240N+02271MA1999999100151MD1999999-0101REMSYN082AAXX  25124 82392 22499 72302 10260 20246 30015 40118 83430 333 20227 59010 60144;
0167823920999992004022518004-03700-040350FM-12+008399999V0200501N001512200019N0500001N1+03121+02301100861ADDAA106000091GF103991031021004501001001MA1999999099841MD1999999-0071REMSYN070AAXX  25184 82392 32499 30503 10312 20230 39984 40086 83200 333 59007;EQDQ01  00002PRCP06
0198823920999992004022600004-03700-040350FM-12+008399999V0203601N000510450019N0040001N1+02561+02401101111ADDAA106000091GF106991031061004501011001KA1240M+03181MA1999999100091MD1999999-0041REMSYN088AAXX  26004 82392 32496 63601 10256 20240 30009 40111 83610 333 10318 29084 55047 59004;EQDQ01  00002PRCP06
0190823920999992004022612004-03700-040350FM-12+008399999V0209999C000010450019N0200001N1+02741+02471101331ADDAY151061AY251061GF106991041041004501031001KA1240N+02421MA1999999100311MD1999999+0161MW1021REMSYN088AAXX  26124 82392 21498 60000 10274 20247 30031 40133 70255 84430 333 20242 58016 69934;
0171823920999992004022618004-03700-040350FM-12+008399999V0200501N001010042019N0500001N1+02571+02371101111ADDAY161061AY261061GF108991051051004501021999MA1999999100081MD1999999+0241MW1021REMSYN082AAXX  26184 82392 21499 80502 10257 20237 30008 40111 70266 8552/ 333 58024 60011;
0202823920999992004022700004-03700-040350FM-12+008399999V0203601N001010450019N0040001N1+02321+02271101391ADDAY121061AY261061GF108991041071004501021999KA1240M+03101MA1999999100361MD1999999+0271MW1021REMSYN100AAXX  27004 82392 21496 83602 10232 20227 30036 40139 70226 8472/ 333 10310 29092 55032 58027 60101;
0162823920999992004022712004-03700-040350FM-12+008399999V0202301N000512200019N0500001N1+02661+02411101431ADDGF103991021011004501031001KA1240N+02201MA1999999100401MD1999999+0091REMSYN082AAXX  27124 82392 22499 32301 10266 20241 30040 40143 82130 333 20220 58009 60114;
0167823920999992004022718004-03700-040350FM-12+008399999V0209999C000010450019N0500001N1+03041+02411100921ADDAA106000091GF106991041061004501031021MA1999999099901MD1999999-0181REMSYN070AAXX  27184 82392 32499 60000 10304 20241 39990 40092 84632 333 59018;EQDQ01  00002PRCP06
0202823920999992004022800004-03700-040350FM-12+008399999V0209999C000010450019N0040001N1+02401+02351101281ADDAY121061AY261061GF108991041061004501021999KA1240M+03141MA1999999100251MD1999999-0111MW1631REMSYN100AAXX  28004 82392 21496 80000 10240 20235 30025 40128 76326 8462/ 333 10314 29087 55056 59011 60081;
0190823920999992004022812004-03700-040350FM-12+008399999V0200901N001012200019N0500001N1+02721+02431101161ADDAY161061AY261061GF104991041021004501001001KA1240N+02341MA1999999100141MD1999999-0261MW1021REMSYN088AAXX  28124 82392 21499 40902 10272 20243 30014 40116 70266 84200 333 20234 59026 60114;
0171823920999992004022818004-03700-040350FM-12+008399999V0203601N002610450019N0500001N1+02501+02431100791ADDAY121061AY221061GF108991041061004501021999MA1999999099761MD1999999-0141MW1211REMSYN082AAXX  28184 82392 21499 83605 10250 20243 39976 40079 72122 8462/ 333 59014 69971;
0179823920999992004022900004-03700-040350FM-12+008399999V0209999C000010450019N0040001N1+02501+02431101111ADDAA106000021GF108991041061004501011999KA1240M+03181MA1999999100091MD1999999-0161REMSYN088AAXX  29004 82392 32496 80000 10250 20243 30009 40111 8461/ 333 10318 29093 55068 59016;
0162823920999992004022912004-03700-040350FM-12+008399999V0200901N000510450019N0500001N1+02741+02381101201ADDGF106991041041004501031001KA1240N+02321MA1999999100181MD1999999+0041REMSYN082AAXX  29124 82392 22499 60901 10274 20238 30018 40120 84430 333 20232 58004 60014;
0171823920999992004022918004-03700-040350FM-12+008399999V0201401N000510042019N0040001N1+02381+02291101011ADDAY161061AY261061GF108991081051004501999999MA1999999099981MD1999999+0221MW1631REMSYN082AAXX  29184 82392 21496 81401 10238 20229 39998 40101 76366 885// 333 58022 60071;
0202823920999992004030100004-03700-040350FM-12+008399999V0209999C000010450019N0040001N1+02401+02331101161ADDAY161061AY261061GF108991031071004501021999KA1240M+02961MA1999999100141MD1999999+0051MW1021REMSYN100AAXX  01004 82392 21496 80000 10240 20233 30014 40116 70266 8372/ 333 10296 29092 55035 58005 60031;
0162823920999992004030112004-03700-040350FM-12+008399999V0201401N001012200019N0500001N1+02741+02471101221ADDGF104991021011004501031001KA1240N+02291MA1999999100201MD1999999+0021REMSYN082AAXX  01124 82392 22499 41402 10274 20247 30020 40122 82130 333 20229 58002 60104;
0167823920999992004030118004-03700-040350FM-12+008399999V0200901N001010450019N0500001N1+03121+02361100961ADDAA106000091GF106991041021004501031001MA1999999099941MD1999999-0041REMSYN070AAXX  01184 82392 32499 60902 10312 20236 39994 40096 84230 333 59004;EQDQ01  00002PRCP06
0198823920999992004030200004-03700-040350FM-12+008399999V0203601N000512200019N0040001N1+02531+02361101151ADDAA106000091GF102991021001008001011001KA1240M+03181MA1999999100131MD1999999-0011REMSYN088AAXX  02004 82392 32596 23601 10253 20236 30013 40115 82010 333 10318 29082 55106 59001;EQDQ01  00002PRCP06
0186823920999992004030212004-03700-040350FM-12+008399999V0201401N000512200019N0500001N1+02701+02431101141ADDAA106000091GF104991041021004501001001KA1240N+02301MA1999999100121MD1999999-0081REMSYN076AAXX  02124 82392 32499 41401 10270 20243 30012 40114 84200 333 20230 59008;EQDQ01  00002PRCP06
0167823920999992004030218004-03700-040350FM-12+008399999V0209999C000010450019N0500001N1+03181+02311100861ADDAA106000091GF106991031041004501011011MA1999999099841MD1999999-0101REMSYN070AAXX  02184 82392 32499 60000 10318 20231 39984 40086 83411 333 59010;EQDQ01  00002PRCP06
0167823920999992004030300004-03700-040350FM-12+008399999V0203601N000512200019N0040001N1+99999+99999999999ADDAA106000091GF103991999999004501999999KA1240M+03231REMSYN086AAXX  03004 82392 32496 336010256 20238 30016 40118 81411 333 10323 29081 55082 58003;EQDQ01  00002PRCP06
0186823920999992004030312004-03700-040350FM-12+008399999V0200901N001010450019N0500001N1+02661+02481101321ADDAA106000091GF106991041041004501031001KA1240N+02291MA1999999100301MD1999999+0181REMSYN076AAXX  03124 82392 32499 60902 10266 20248 30030 40132 84430 333 20229 58018;EQDQ01  00002PRCP06
0167823920999992004030318004-03700-040350FM-12+008399999V0200501N000512200019N0500001N1+03201+02271100921ADDAA106000091GF103991031011004501001001MA1999999099901MD1999999+0061REMSYN070AAXX  03184 82392 32499 30501 10320 20227 39990 40092 83100 333 58006;EQDQ01  00002PRCP06
0198823920999992004030400004-03700-040350FM-12+008399999V0203601N001010450019N0040001N1+02541+02351101021ADDAA106000091GF107991031041004501011001KA1240M+03231MA1999999100001MD1999999-0161REMSYN088AAXX  04004 82392 32496 73602 10254 20235 30000 40102 83410 333 10323 29082 55083 59016;EQDQ01  00002PRCP06
0186823920999992004030412004-03700-040350FM-12+008399999V0203601N000510450019N0500001N1+02761+02401101271ADDAA106000091GF106991031021004501031001KA1240N+02381MA1999999100251MD1999999-0051REMSYN076AAXX  04124 82392 32499 63601 10276 20240 30025 40127 83230 333 20238 59005;EQDQ01  00002PRCP06
0167823920999992004030418004-03700-040350FM-12+008399999V0209999C000010450019N0500001N1+03091+02441100881ADDAA106000091GF106991041041004501031001MA1999999099861MD1999999-0041REMSYN070AAXX  04184 82392 32499 60000 10309 20244 39986 40088 84430 333 59004;EQDQ01  00002PRCP06
0198823920999992004030500004-03700-040350FM-12+008399999V0203601N001012200019N0040001N1+02521+02431101121ADDAA106000091GF102991021001008001031001KA1240M+03201MA1999999100101MD1999999+0101REMSYN088AAXX  05004 82392 32596 23602 10252 20243 30010 40112 82030 333 10320 29085 55093 58010;EQDQ01  00002PRCP06
0186823920999992004030512004-03700-040350FM-12+008399999V0201401N001012200019N0500001N1+02741+02401101321ADDAA106000091GF102991021011004501001001KA1240N+02241MA1999999100301MD1999999+0051REMSYN076AAXX  05124 82392 32499 21402 10274 20240 30030 40132 82100 333 20224 58005;EQDQ01  00002PRCP06
0167823920999992004030518004-03700-040350FM-12+008399999V0203601N000510450019N0500001N1+03001+02461100901ADDAA106000091GF106991031051004501031011MA1999999099881MD1999999+0021REMSYN070AAXX  05184 82392 32499 63601 10300 20246 39988 40090 83531 333 58002;EQDQ01  00002PRCP06
0202823920999992004030600004-03700-040350FM-12+008399999V0200501N001010450019N0040001N1+02441+02351101221ADDAY121061AY261061GF106991041041004501031001KA1240M+03141MA1999999100201MD1999999+0101MW1021REMSYN100AAXX  06004 82392 21496 60502 10244 20235 30020 40122 70226 84430 333 10314 29086 55090 58010 60021;
0162823920999992004030612004-03700-040350FM-12+008399999V0200501N000510450019N0500001N1+02841+02441101231ADDGF105991031041004501031001KA1240N+02281MA1999999100211MD1999999-0091REMSYN082AAXX  06124 82392 22499 50501 10284 20244 30021 40123 83430 333 20228 59009 60024;
0171823920999992004030618004-03700-040350FM-12+008399999V0203601N001010042019N0500001N1+02621+02411100901ADDAY161061AY261061GF107991051061004501031001MA1999999099871MD1999999-0011MW1021REMSYN082AAXX  06184 82392 21499 73602 10262 20241 39987 40090 70266 85630 333 59001 60031;
0202823920999992004030700004-03700-040350FM-12+008399999V0202301N000510042019N0040001N1+02361+02311101241ADDAY161061AY261061GF108991051061004501031999KA1240M+03091MA1999999100221MD1999999+0021MW1021REMSYN100AAXX  07004 82392 21496 82301 10236 20231 30022 40124 70266 8563/ 333 10309 29090 55062 58002 60051;
0190823920999992004030712004-03700-040350FM-12+008399999V0200901N000510042019N0200001N1+02361+02331101411ADDAY161061AY261061GF108991051061004501021999KA1240N+02291MA1999999100381MD1999999+0171MW1511REMSYN088AAXX  07124 82392 21498 80901 10236 20233 30038 40141 75166 8562/ 333 20229 58017 60214;
0171823920999992004030718004-03700-040350FM-12+008399999V0202301N001010450019N0500001N1+02481+02431101081ADDAY161061AY261061GF108991041071004501021999MA1999999100051MD1999999+0181MW1021REMSYN082AAXX  07184 82392 21499 82302 10248 20243 30005 40108 70266 8472/ 333 58018 60081;
0198823920999992004030800004-03700-040350FM-12+008399999V0201801N000510450019N0040001N1+02381+02351101291ADDAA106000091GF108991031071004501021999KA1240M+02561MA1999999100261MD1999999+0041REMSYN088AAXX  08004 82392 32496 81801 10238 20235 30026 40129 8372/ 333 10256 29098 55001 58004;EQDQ01  00002PRCP06
0190823920999992004030812004-03700-040350FM-12+008399999V0201801N001010450019N0500001N1+02561+02461101381ADDAY161061AY251061GF108991041061004501021999KA1240N+02301MA1999999100351MD1999999-0031MW1021REMSYN088AAXX  08124 82392 21499 81802 10256 20246 30035 40138 70265 8462/ 333 20230 59003 60084;
0171823920999992004030818004-03700-040350FM-12+008399999V0200501N001510450019N0500001N1+02461+02391101131ADDAY161061AY261061GF108991041051004501021999MA1999999100101MD1999999+0051MW1021REMSYN082AAXX  08184 82392 21499 80503 10246 20239 30010 40113 70266 8452/ 333 58005 60021;
0202823920999992004030900004-03700-040350FM-12+008399999V0209999C000010450019N0040001N1+02381+02351101361ADDAY161061AY261061GF108991041051004501021999KA1240M+03061MA1999999100331MD1999999+0071MW1021REMSYN100AAXX  09004 82392 21496 80000 10238 20235 30033 40136 70266 8452/ 333 10306 29097 55039 58007 60051;
0162823920999992004030912004-03700-040350FM-12+008399999V0200901N000512200019N0500001N1+02641+02391101451ADDGF103991021021004501031001KA1240N+02211MA1999999100421MD1999999+0071REMSYN082AAXX  09124 82392 22499 30901 10264 20239 30042 40145 82230 333 20221 58007 60064;
0167823920999992004030918004-03700-040350FM-12+008399999V0200901N000510450019N0500001N1+03111+02281101051ADDAA106000091GF105991031021004501031011MA1999999100031MD1999999-0071REMSYN070AAXX  09184 82392 32499 50901 10311 20228 30003 40105 83231 333 59007;EQDQ01  00002PRCP06
0198823920999992004031000004-03700-040350FM-12+008399999V0203601N000510042019N0040001N1+02581+02441101311ADDAA106000091GF107991051061004501031001KA1240M+03161MA1999999100291MD1999999-0041REMSYN088AAXX  10004 82392 32496 73601 10258 20244 30029 40131 85630 333 10316 29083 55093 59004;EQDQ01  00002PRCP06
0190823920999992004031012004-03700-040350FM-12+008399999V0200501N000510450019N0200001N1+02501+02431101541ADDAY121061AY251061GF108991041061004501021999KA1240N+02341MA1999999100501MD1999999+0081MW1021REMSYN088AAXX  10124 82392 21498 80501 10250 20243 30050 40154 70225 8462/ 333 20234 58008 69934;
0171823920999992004031018004-03700-040350FM-12+008399999V0203601N002610042019N0500001N1+02901+02521101171ADDAY121061AY251061GF106991051041004501031001MA1999999100151MD1999999+0121MW1021REMSYN082AAXX  10184 82392 21499 63605 10290 20252 30015 40117 70225 85430 333 58012 69941;
0208823920999992004031100004-03700-040350FM-12+008399999V0200501N000512200019N0040001N1+02381+02291101341ADDAA106000091GA1001+999999999GF100991001001999999001001KA1240M+02961MA1999999100311MD1999999+0021REMSYN082AAXX  11004 82392 32996 00501 10238 20229 30031 40134 333 10296 29092 55015 58002;EQDQ01  00002PRCP06
0162823920999992004031112004-03700-040350FM-12+008399999V0201401N000510450019N0040001N1+02771+02461101261ADDGF106991041041004501031001KA1240N+02281MA1999999100241MD1999999-0261REMSYN082AAXX  11124 82392 22496 61401 10277 20246 30024 40126 84430 333 20228 59026 69944;
0171823920999992004031118004-03700-040350FM-12+008399999V0200501N000510450019N0500001N1+02861+02441100901ADDAY151061AY251061GF106991041061004501031001MA1999999099881MD1999999-0271MW1021REMSYN082AAXX  11184 82392 21499 60501 10286 20244 39988 40090 70255 84630 333 59027 69961;
0198823920999992004031200004-03700-040350FM-12+008399999V0203601N001010450019N0040001N1+02481+02411101071ADDAA106000091GF105991041041004501031001KA1240M+03141MA1999999100051MD1999999-0261REMSYN088AAXX  12004 82392 32496 53602 10248 20241 30005 40107 84430 333 10314 29088 55081 59026;EQDQ01  00002PRCP06
0162823920999992004031212004-03700-040350FM-12+008399999V0201801N000512200019N0500001N1+02721+02391101201ADDGF104991041021004501001001KA1240N+02241MA1999999100181MD1999999-0061REMSYN082AAXX  12124 82392 22499 41801 10272 20239 30018 40120 84200 333 20224 59006 69964;
0167823920999992004031218004-03700-040350FM-12+008399999V0203601N000510450019N0500001N1+03121+02431100781ADDAA106000091GF106991041041004501021011MA1999999099761MD1999999-0121REMSYN070AAXX  12184 82392 32499 63601 10312 20243 39976 40078 84421 333 59012;EQDQ01  00002PRCP06
0208823920999992004031300004-03700-040350FM-12+008399999V0203601N000512200019N0040001N1+02501+02411101131ADDAA106000091GA1001+999999999GF100991001001999999001001KA1240M+03161MA1999999100111MD1999999+0061REMSYN082AAXX  13004 82392 32996 03601 10250 20241 30011 40113 333 10316 29090 55102 58006;EQDQ01  00002PRCP06
0186823920999992004031312004-03700-040350FM-12+008399999V0201401N001012200019N0500001N1+02701+02501101171ADDAA106000091GF103991031041004501001001KA1240N+02281MA1999999100151MD1999999-0031REMSYN076AAXX  13124 82392 32499 31402 10270 20250 30015 40117 83400 333 20228 59003;EQDQ01  00002PRCP06
0167823920999992004031318004-03700-040350FM-12+008399999V0200501N002112200019N0500001N1+02981+02511100851ADDAA106000091GF102991021021004501001001MA1999999099831MD1999999+0071REMSYN070AAXX  13184 82392 32499 20504 10298 20251 39983 40085 82200 333 58007;EQDQ01  00002PRCP06
0198823920999992004031400004-03700-040350FM-12+008399999V0203601N001012200019N0040001N1+02481+99999101161ADDAA106000091GF102991021001004501031001KA1240M+03201MA1999999100141MD1999999+0031REMSYN088AAXX  14004 82392 32496 23602 10248 29024 30014 40116 82030 333 10320 29089 55091 58003;EQDQ01  00002PRCP06
0186823920999992004031412004-03700-040350FM-12+008399999V0209999C000012200019N0500001N1+02761+02431101241ADDAA106000091GF105991031021004501001011KA1240N+02161MA1999999100221MD1999999+0071REMSYN076AAXX  14124 82392 32499 50000 10276 20243 30022 40124 83201 333 20216 58007;EQDQ01  00002PRCP06
0167823920999992004031418004-03700-040350FM-12+008399999V0200901N000512200019N0500001N1+03171+01651100851ADDAA106000091GF105991041041004501001011MA1999999099831MD1999999+0001REMSYN070AAXX  14184 82392 32499 50901 10317 20165 39983 40085 84401 333 58000;EQDQ01  00002PRCP06
0208823920999992004031500004-03700-040350FM-12+008399999V0200501N000512200019N0040001N1+02481+02321101171ADDAA106000091GA1001+999999999GF100991001001999999001001KA1240M+03201MA1999999100151MD1999999+0011REMSYN082AAXX  15004 82392 32996 00501 10248 20232 30015 40117 333 10320 29077 55095 58001;EQDQ01  00002PRCP06
0186823920999992004031512004-03700-040350FM-12+008399999V0200901N000512200019N0500001N1+02721+02471101171ADDAA106000091GF104991041041004501001001KA1240N+02241MA1999999100151MD1999999-0071REMSYN076AAXX  15124 82392 32499 40901 10272 20247 30015 40117 84400 333 20224 59007;EQDQ01  00002PRCP06
0171823920999992004031518004-03700-040350FM-12+008399999V0200501N003110450019N0200001N1+02801+02541100871ADDAY121061AY261061GF108991041071004501021999MA1999999099851MD1999999+0021MW1021REMSYN082AAXX  15184 82392 21498 80506 10280 20254 39985 40087 70226 8472/ 333 58002 60081;
0212823920999992004031600004-03700-040350FM-12+008399999V0209999C000012200019N0040001N1+02431+02341101041ADDAY161061AY261061GA1001+999999999GF100991001001999999001001KA1240M+03081MA1999999100021MD1999999-0131MW1021REMSYN094AAXX  16004 82392 21996 00000 10243 20234 30002 40104 70266 333 10308 29090 55070 59013 60021;
0162823920999992004031612004-03700-040350FM-12+008399999V0201401N001012200019N0500001N1+02521+02471101171ADDGF103991031021004501001001KA1240N+02301MA1999999100141MD1999999-0011REMSYN082AAXX  16124 82392 22499 31402 10252 20247 30014 40117 83200 333 20230 59001 60104;
0171823920999992004031618004-03700-040350FM-12+008399999V0209999C000010450019N0500001N1+02561+02421100771ADDAY161061AY261061GF107991041051004501031001MA1999999099741MD1999999-0111MW1021REMSYN082AAXX  16184 82392 21499 70000 10256 20242 39974 40077 70266 84530 333 59011 60201;
0202823920999992004031700004-03700-040350FM-12+008399999V0209999C000010450019N0040001N1+02361+02331101011ADDAY161061AY261061GF105991021051004501021001KA1240M+02881MA1999999099981MD1999999-0041MW1021REMSYN100AAXX  17004 82392 21496 50000 10236 20233 39998 40101 70266 82520 333 10288 29096 55028 59004 60031;
0162823920999992004031712004-03700-040350FM-12+008399999V0201401N001510450019N0500001N1+02601+02531101031ADDGF106991041051004501031001KA1240N+02301MA1999999100001MD1999999-0141REMSYN082AAXX  17124 82392 22499 61403 10260 20253 30000 40103 84530 333 20230 59014 60224;
0167823920999992004031718004-03700-040350FM-12+008399999V0203601N001012200019N0500001N1+02881+02351100591ADDAA106000091GF104991041021004501001001MA1999999099581MD1999999-0161REMSYN070AAXX  17184 82392 32499 43602 10288 20235 39958 40059 84200 333 59016;EQDQ01  00002PRCP06
0202823920999992004031800004-03700-040350FM-12+008399999V0209999C000010450019N0040001N1+02441+02341100961ADDAY161061AY261061GF107991041051004501021001KA1240M+03101MA1999999099931MD1999999-0051MW1021REMSYN100AAXX  18004 82392 21496 70000 10244 20234 39993 40096 70266 84520 333 10310 29089 55055 59005 60131;
0162823920999992004031812004-03700-040350FM-12+008399999V0200901N000510450019N0500001N1+02791+02461101131ADDGF106991041041004501031001KA1240N+02201MA1999999100111MD1999999+0111REMSYN082AAXX  18124 82392 22499 60901 10279 20246 30011 40113 84430 333 20220 58011 60134;
0171823920999992004031818004-03700-040350FM-12+008399999V0200901N003110450019N0200001N1+02741+02141100701ADDAY101061AY221061GF106991041051004501021001MA1999999099671MD1999999+0091MW1631REMSYN082AAXX  18184 82392 21498 60906 10274 20214 39967 40070 76302 84520 333 58009 60031;
0167823920999992004031918004-03700-040350FM-12+008399999V0200901N001012200019N0500001N1+03231+02361100731ADDAA106000091GF104991041021004501001001MA1999999099711MD1999999+0041REMSYN070AAXX  19184 82392 32499 40902 10323 20236 39971 40073 84200 333 58004;EQDQ01  00002PRCP06
0208823920999992004032000004-03700-040350FM-12+008399999V0200501N002612200019N0040001N1+02461+02371100981ADDAA106000091GA1001+999999999GF100991001001999999001001KA1240M+03241MA1999999099961MD1999999-0041REMSYN082AAXX  20004 82392 32996 00505 10246 20237 39996 40098 333 10324 29083 55101 59004;EQDQ01  00002PRCP06
0186823920999992004032012004-03700-040350FM-12+008399999V0201401N000512200019N0500001N1+02761+02321101091ADDAA106000091GF103991031021004501001001KA1240N+02061MA1999999100071MD1999999-0091REMSYN076AAXX  20124 82392 32499 31401 10276 20232 30007 40109 83200 333 20206 59009;EQDQ01  00002PRCP06
0167823920999992004032018004-03700-040350FM-12+008399999V0201401N000512200019N0500001N1+03171+02311100731ADDAA106000091GF104991041021004501001001MA1999999099711MD1999999+0001REMSYN070AAXX  20184 82392 32499 41401 10317 20231 39971 40073 84200 333 58000;EQDQ01  00002PRCP06
0198823920999992004032100004-03700-040350FM-12+008399999V0200501N000512200019N0040001N1+02541+02311100901ADDAA106000091GF101991011001008001031001KA1240M+03201MA1999999099881MD1999999-0081REMSYN088AAXX  21004 82392 32596 10501 10254 20231 39988 40090 81030 333 10320 29078 55103 59008;EQDQ01  00002PRCP06
0186823920999992004032112004-03700-040350FM-12+008399999V0202301N000512200019N0500001N1+02721+02341101081ADDAA106000091GF101991011011004501001001KA1240N+02211MA1999999100061MD1999999-0011REMSYN076AAXX  21124 82392 32499 12301 10272 20234 30006 40108 81100 333 20221 59001;EQDQ01  00002PRCP06
0162823920999992004032212004-03700-040350FM-12+008399999V0200901N002112200019N0500001N1+02801+02461101081ADDGF103991031021004501001001KA1240N+02191MA1999999100061MD1999999+0001REMSYN082AAXX  22124 82392 22499 30904 10280 20246 30006 40108 83200 333 20219 58000 60034;
0171823920999992004032218004-03700-040350FM-12+008399999V0200901N002610450019N0500001N1+02781+02401100831ADDAY121061AY261061GF106991041041004501031001MA1999999099801MD1999999+0081MW1021REMSYN082AAXX  22184 82392 21499 60905 10278 20240 39980 40083 70226 84430 333 58008 60031;
0198823920999992004032300004-03700-040350FM-12+008399999V0209999C000012200019N0040001N1+02561+02461101031ADDAA106000091GF101991011021004501001001KA1240M+03101MA1999999100011MD1999999+0011REMSYN088AAXX  23004 82392 32496 10000 10256 20246 30001 40103 81200 333 10310 29088 55073 58001;EQDQ01  00002PRCP06
0162823920999992004032312004-03700-040350FM-12+008399999V0200501N000510450019N0500001N1+02661+02411101171ADDGF105991041021004501031001KA1240N+02231MA1999999100151MD1999999+0091REMSYN082AAXX  23124 82392 22499 50501 10266 20241 30015 40117 84230 333 20223 58009 60034;
0169823920999992004032318004-03700-040350FM-12+008399999V0200901N001019999999N0500001N1+03041+02411100711ADDAY161061AY261061GF106991999999004501999999MA1999999099691MD1999999-0111MW1021REMSYN080AAXX  23184 82392 21499 60902 10304 20241 39969 40071 70266 530 333 59011 60101;
0221823920999992004032400004-03700-040350FM-12+008399999V0209999C000010042019N0040001N1+02441+02411101061ADDAY161061AY261061GF107991999021004501001001KA1240M+03101MA1999999100041MD1999999+0031MW1021REMSYN100AAXX  24004 82392 21496 70000 10244 20241 30004 40106 70266 85200 333 10310 29088 55066 58003 60181;EQDQ01+000052SCOTLC
0162823920999992004032412004-03700-040350FM-12+008399999V0202301N002110450019N0500001N1+02641+02461101211ADDGF106991041021004501031001KA1240N+02301MA1999999100181MD1999999+0031REMSYN082AAXX  24124 82392 22499 62304 10264 20246 30018 40121 84230 333 20230 58003 60294;
0162823920999992004032512004-03700-040350FM-12+008399999V0200901N000510450019N0500001N1+02761+02461101041ADDGF106991031051004501031001KA1240N+02361MA1999999100021MD1999999-0161REMSYN082AAXX  25124 82392 22499 60901 10276 20246 30002 40104 83530 333 20236 59016 60024;
0167823920999992004032518004-03700-040350FM-12+008399999V0200501N001011050019N0500001N1+03171+02391100701ADDAA106000091GF105991021041004501011011MA1999999099681MD1999999-0121REMSYN070AAXX  25184 82392 32499 50502 10317 20239 39968 40070 82411 333 59012;EQDQ01  00002PRCP06
0202823920999992004032600004-03700-040350FM-12+008399999V0200501N002610450019N0040001N1+02401+02371101111ADDAY121061AY221061GF108991041061004501021999KA1240M+03241MA1999999100091MD1999999+0101MW1611REMSYN100AAXX  26004 82392 21496 80505 10240 20237 30009 40111 76122 8462/ 333 10324 29086 55069 58010 60011;
0167823920999992004032618004-03700-040350FM-12+008399999V0200901N001011050019N0500001N1+03101+02411100621ADDAA106000091GF106991031051004501001021MA1999999099611MD1999999-0071REMSYN070AAXX  26184 82392 32499 60902 10310 20241 39961 40062 83502 333 59007;EQDQ01  00002PRCP06
0202823920999992004032700004-03700-040350FM-12+008399999V0203601N001010450019N0040001N1+02301+02231100931ADDAY161061AY261061GF106991041051004501031001KA1240M+03161MA1999999099901MD1999999-0191MW1021REMSYN100AAXX  27004 82392 21496 63602 10230 20223 39990 40093 70266 84530 333 10316 29085 55060 59019 60301;
0162823920999992004032712004-03700-040350FM-12+008399999V0201401N001012200019N0500001N1+02701+02331100991ADDGF104991041021004501001001KA1240N+02291MA1999999099961MD1999999-0041REMSYN082AAXX  27124 82392 22499 41402 10270 20233 39996 40099 84200 333 20229 59004 60304;
0167823920999992004032718004-03700-040350FM-12+008399999V0200901N000510042019N0500001N1+03001+02271100741ADDAA106000091GF106991051041004501031001MA1999999099721MD1999999+0111REMSYN070AAXX  27184 82392 32499 60901 10300 20227 39972 40074 85430 333 58011;EQDQ01  00002PRCP06
0198823920999992004032800004-03700-040350FM-12+008399999V0203601N001510042019N0040001N1+02401+02231100921ADDAA106000091GF107991051051004501031001KA1240M+03081MA1999999099901MD1999999+0001REMSYN088AAXX  28004 82392 32496 73603 10240 20223 39990 40092 85530 333 10308 29081 55040 58000;EQDQ01  00002PRCP06
0202823920999992004032812004-03700-040350FM-12+008399999V0200501N000519999999N0500001N1+02761+02421101031ADDAA106000091GF105991999021004501001001KA1240N+02221MA1999999100011MD1999999+0051REMSYN076AAXX  28124 82392 32499 50501 10276 20242 30001 40103 83200 333 20222 58005;EQDQ01+000032SCOTLCQ02  00002PRCP06
0167823920999992004032818004-03700-040350FM-12+008399999V0200901N001010450019N0500001N1+03101+02361100681ADDAA106000091GF105991031051008001031011MA1999999099661MD1999999-0061REMSYN070AAXX  28184 82392 32599 50902 10310 20236 39966 40068 83531 333 59006;EQDQ01  00002PRCP06
0198823920999992004032900004-03700-040350FM-12+008399999V0209999C000012200019N0040001N1+02481+02431100931ADDAA106000091GF103991031021004501001001KA1240M+03201MA1999999099911MD1999999+0011REMSYN088AAXX  29004 82392 32496 30000 10248 20243 39991 40093 83200 333 10320 29085 55082 58001;EQDQ01  00002PRCP06
0186823920999992004032912004-03700-040350FM-12+008399999V0200901N001012200019N0500001N1+02781+02181101171ADDAA106000091GF102991021011004501001001KA1240N+02281MA1999999100151MD1999999+0141REMSYN076AAXX  29124 82392 32499 20902 10278 20218 30015 40117 82100 333 20228 58014;EQDQ01  00002PRCP06
0167823920999992004032918004-03700-040350FM-12+008399999V0201801N002112200019N0500001N1+03141+01971100981ADDAA106000091GF103991031021004501001001MA1999999099961MD1999999+0301REMSYN070AAXX  29184 82392 32499 31804 10314 20197 39996 40098 83200 333 58030;EQDQ01  00002PRCP06
0198823920999992004033000004-03700-040350FM-12+008399999V0200501N000512200019N0040001N1+02521+02271101221ADDAA106000091GF102991021001004501011001KA1240M+03201MA1999999100201MD1999999+0291REMSYN088AAXX  30004 82392 32496 20501 10252 20227 30020 40122 82010 333 10320 29073 55086 58029;EQDQ01  00002PRCP06
0186823920999992004033012004-03700-040350FM-12+008399999V0202301N000510450019N0500001N1+02601+02331101321ADDAA106000091GF106991041021004501031001KA1240N+02201MA1999999100301MD1999999+0151REMSYN076AAXX  30124 82392 32499 62301 10260 20233 30030 40132 84230 333 20220 58015;EQDQ01  00002PRCP06
0167823920999992004033018004-03700-040350FM-12+008399999V0200501N000510450019N0500001N1+03071+02291101041ADDAA106000091GF106991021021004501031001MA1999999100021MD1999999+0061REMSYN070AAXX  30184 82392 32499 60501 10307 20229 30002 40104 82230 333 58006;EQDQ01  00002PRCP06
0198823920999992004033100004-03700-040350FM-12+008399999V0200501N001010450019N0040001N1+02621+02291101361ADDAA106000091GF106991021091004501031001KA1240M+03221MA1999999100341MD1999999+0141REMSYN088AAXX  31004 82392 32496 60502 10262 20229 30034 40136 82930 333 10322 29078 55072 58014;EQDQ01  00002PRCP06
0186823920999992004033112004-03700-040350FM-12+008399999V0200901N002612200019N0500001N1+02861+02261101371ADDAA106000091GF102991021011004501001001KA1240N+02201MA1999999100351MD1999999+0051REMSYN076AAXX  31124 82392 32499 20905 10286 20226 30035 40137 82100 333 20220 58005;EQDQ01  00002PRCP06
0183823920999992004033118004-03700-040350FM-12+008399999V0200501N002112200019N0500001N1+03281+02101100931ADDAA106000091GF103991999021004501001001MA1999999099911MD1999999-0111REMSYN070AAXX  31184 82392 32499 30504 10328 20210 39991 40093 82200 333 59011;EQDQ01+000022SCOTLCQ02  00002PRCP06
0198823920999992004040100004-03700-040350FM-12+008399999V0200501N001010450019N0040001N1+02461+02321101211ADDAA106000091GF106991021051004501021011KA1240M+03401MA1999999100191MD1999999-0151REMSYN088AAXX  01004 82392 32496 60502 10246 20232 30019 40121 82521 333 10340 29076 55096 59015;EQDQ01  00002PRCP06
0186823920999992004040112004-03700-040350FM-12+008399999V0202701N000510450019N0500001N1+02681+02391101481ADDAA106000091GF106991041041004501031001KA1240N+02321MA1999999100451MD1999999+0101REMSYN076AAXX  01124 82392 32499 62701 10268 20239 30045 40148 84430 333 20232 58010;EQDQ01  00002PRCP06
0171823920999992004040118004-03700-040350FM-12+008399999V0203601N000511050019N0500001N1+03121+02461100941ADDAY151061AY251061GF106991041051004501001021MA1999999099921MD1999999+0011MW1021REMSYN082AAXX  01184 82392 21499 63601 10312 20246 39992 40094 70255 84502 333 58001 69911;
0171823920999992004040218004-03700-040350FM-12+008399999V0200501N000510042019N0500001N1+02501+02361101001ADDAY161061AY261061GF107991061051004501031001MA1999999099971MD1999999+0051MW1611REMSYN082AAXX  02184 82392 21499 70501 10250 20236 39997 40100 76166 86530 333 58005 60061;
0202823920999992004040300004-03700-040350FM-12+008399999V0203601N002610450019N0040001N1+02541+02401101261ADDAY161061AY251061GF105991041021004501031001KA1240M+03161MA1999999100241MD1999999-0011MW1021REMSYN100AAXX  03004 82392 21496 53605 10254 20240 30024 40126 70265 84230 333 10316 29088 55065 59001 69981;
0162823920999992004040512004-03700-040350FM-12+008399999V0201801N000510042019N0500001N1+02601+02501101431ADDGF107991051051004501031001KA1240N+02291MA1999999100401MD1999999-0051REMSYN082AAXX  05124 82392 22499 71801 10260 20250 30040 40143 85530 333 20229 59005 60024;
0171823920999992004040518004-03700-040350FM-12+008399999V0201801N001010450019N0500001N1+02581+02511101081ADDAY121061AY261061GF108991041071000751021999MA1999999100051MD1999999-0051MW1021REMSYN082AAXX  05184 82392 21199 81802 10258 20251 30005 40108 70226 8472/ 333 59005 60011;
0162823920999992004040612004-03700-040350FM-12+008399999V0200901N001012200019N0500001N1+02761+02381101321ADDGF103991031021004501001001KA1240N+02301MA1999999100301MD1999999-0101REMSYN082AAXX  06124 82392 22499 30902 10276 20238 30030 40132 83200 333 20230 59010 60014;
0167823920999992004040618004-03700-040350FM-12+008399999V0200901N000512200019N0500001N1+03081+02441100771ADDAA106000091GF104991031021004501031001MA1999999099751MD1999999-0301REMSYN070AAXX  06184 82392 32499 40901 10308 20244 39975 40077 83230 333 59030;EQDQ01  00002PRCP06
0162823920999992004040712004-03700-040350FM-12+008399999V0200901N000512200019N0500001N1+02801+02341101181ADDGF104991041021004501001001KA1240N+02321MA1999999100161MD1999999-0141REMSYN082AAXX  07124 82392 22499 40901 10280 20234 30016 40118 84200 333 20232 59014 69964;
0167823920999992004040718004-03700-040350FM-12+008399999V0200901N001010450019N0500001N1+03181+02131100801ADDAA106000091GF105991041021004501031001MA1999999099781MD1999999+0031REMSYN070AAXX  07184 82392 32499 50902 10318 20213 39978 40080 84230 333 58003;EQDQ01  00002PRCP06
0198823920999992004040800004-03700-040350FM-12+008399999V0200501N000510450019N0040001N1+02531+02361101091ADDAA106000091GF105991021021004501031001KA1240M+03281MA1999999100071MD1999999+0071REMSYN088AAXX  08004 82392 32496 50501 10253 20236 30007 40109 82230 333 10328 29078 55074 58007;EQDQ01  00002PRCP06
0186823920999992004040812004-03700-040350FM-12+008399999V0201801N000510450019N0500001N1+02801+02481101211ADDAA106000091GF107991031041004501011001KA1240N+02221MA1999999100191MD1999999+0031REMSYN076AAXX  08124 82392 32499 71801 10280 20248 30019 40121 83410 333 20222 58003;EQDQ01  00002PRCP06
0167823920999992004040818004-03700-040350FM-12+008399999V0203601N000510450019N0500001N1+02721+02431101011ADDAA106000091GF108991041051004501011999MA1999999099981MD1999999+0201REMSYN070AAXX  08184 82392 32499 83601 10272 20243 39998 40101 8451/ 333 58020;EQDQ01  00002PRCP06
0208823920999992004040900004-03700-040350FM-12+008399999V0200501N000512200019N0040001N1+02441+02371101301ADDAA106000091GA1001+999999999GF100991001001999999001001KA1240M+03041MA1999999100281MD1999999+0211REMSYN082AAXX  09004 82392 32996 00501 10244 20237 30028 40130 333 10304 29090 55013 58021;EQDQ01  00002PRCP06
0186823920999992004040912004-03700-040350FM-12+008399999V0200901N002112200019N0500001N1+02701+02431101291ADDAA106000091GF104991041021004501001001KA1240N+02311MA1999999100271MD1999999+0081REMSYN076AAXX  09124 82392 32499 40904 10270 20243 30027 40129 84200 333 20231 58008;EQDQ01  00002PRCP06
0167823920999992004040918004-03700-040350FM-12+008399999V0201401N000512200019N0500001N1+03261+02081100871ADDAA106000091GF104991031021004501001011MA1999999099851MD1999999-0131REMSYN070AAXX  09184 82392 32499 41401 10326 20208 39985 40087 83201 333 59013;EQDQ01  00002PRCP06
0208823920999992004041000004-03700-040350FM-12+008399999V0200501N002112200019N0040001N1+02501+02401101041ADDAA106000091GA1001+999999999GF100991001001999999001001KA1240M+03381MA1999999100021MD1999999-0261REMSYN082AAXX  10004 82392 32996 00504 10250 20240 30002 40104 333 10338 29081 55090 59026;EQDQ01  00002PRCP06
0186823920999992004041012004-03700-040350FM-12+008399999V0201801N000510450019N0500001N1+02681+02481101041ADDAA106000091GF105991041021004501031001KA1240N+02241MA1999999100021MD1999999-0251REMSYN076AAXX  10124 82392 32499 51801 10268 20248 30002 40104 84230 333 20224 59025;EQDQ01  00002PRCP06
0167823920999992004041018004-03700-040350FM-12+008399999V0203601N000510450019N0500001N1+03161+02121100611ADDAA106000091GF106991041021004501031001MA1999999099601MD1999999-0251REMSYN070AAXX  10184 82392 32499 63601 10316 20212 39960 40061 84230 333 59025;EQDQ01  00002PRCP06
0208823920999992004041100004-03700-040350FM-12+008399999V0203601N001012200019N0040001N1+02501+02361100821ADDAA106000091GA1001+999999999GF100991001001999999001001KA1240M+03301MA1999999099801MD1999999-0221REMSYN082AAXX  11004 82392 32996 03602 10250 20236 39980 40082 333 10330 29082 55090 59022;EQDQ01  00002PRCP06
0186823920999992004041112004-03700-040350FM-12+008399999V0200901N001010450019N0500001N1+02821+01971100841ADDAA106000091GF106991031041004501011011KA1240N+02121MA1999999099821MD1999999-0201REMSYN076AAXX  11124 82392 32499 60902 10282 20197 39982 40084 83411 333 20212 59020;EQDQ01  00002PRCP06
0167823920999992004041118004-03700-040350FM-12+008399999V0201401N000510450019N0500001N1+03271+02101100471ADDAA106000091GF106991031041004501011011MA1999999099461MD1999999-0141REMSYN070AAXX  11184 82392 32499 61401 10327 20210 39946 40047 83411 333 59014;EQDQ01  00002PRCP06
0208823920999992004041200004-03700-040350FM-12+008399999V0209999C000012200019N0040001N1+02581+02331100761ADDAA106000091GA1001+999999999GF100991001001999999001001KA1240M+03321MA1999999099741MD1999999-0061REMSYN082AAXX  12004 82392 32996 00000 10258 20233 39974 40076 333 10332 29071 55099 59006;EQDQ01  00002PRCP06
0186823920999992004041212004-03700-040350FM-12+008399999V0201401N002112200019N0500001N1+02861+02231100971ADDAA106000091GF103991031021004501001001KA1240N+02361MA1999999099951MD1999999+0131REMSYN076AAXX  12124 82392 32499 31404 10286 20223 39995 40097 83200 333 20236 58013;EQDQ01  00002PRCP06
0167823920999992004041218004-03700-040350FM-12+008399999V0201801N000510450019N0500001N1+03301+02121100701ADDAA106000091GF106991041021004501031001MA1999999099681MD1999999+0221REMSYN070AAXX  12184 82392 32499 61801 10330 20212 39968 40070 84230 333 58022;EQDQ01  00002PRCP06
0208823920999992004041300004-03700-040350FM-12+008399999V0203601N001012200019N0040001N1+02561+02291100881ADDAA106000091GA1001+999999999GF100991001001999999001001KA1240M+03301MA1999999099861MD1999999-0121REMSYN082AAXX  13004 82392 32996 03602 10256 20229 39986 40088 333 10330 29072 55099 59012;EQDQ01  00002PRCP06
0186823920999992004041312004-03700-040350FM-12+008399999V0200901N001512200019N0500001N1+02801+02291101261ADDAA106000091GF104991041021004501001001KA1240N+02201MA1999999100241MD1999999+0291REMSYN076AAXX  13124 82392 32499 40903 10280 20229 30024 40126 84200 333 20220 58029;EQDQ01  00002PRCP06
0167823920999992004041318004-03700-040350FM-12+008399999V0201401N000512200019N0500001N1+03211+02051100851ADDAA106000091GF106991011021004501001011MA1999999099831MD1999999+0151REMSYN070AAXX  13184 82392 32499 61401 10321 20205 39983 40085 81201 333 58015;EQDQ01  00002PRCP06
0208823920999992004041400004-03700-040350FM-12+008399999V0203601N001012200019N0040001N1+02531+02251101131ADDAA106000091GA1001+999999999GF100991001001999999001001KA1240M+03351MA1999999100111MD1999999+0251REMSYN082AAXX  14004 82392 32996 03602 10253 20225 30011 40113 333 10335 29073 55073 58025;EQDQ01  00002PRCP06
0186823920999992004041412004-03700-040350FM-12+008399999V0201401N001012200019N0500001N1+02561+02211101331ADDAA106000091GF104991041021004501001001KA1240N+02031MA1999999100301MD1999999+0061REMSYN076AAXX  14124 82392 32499 41402 10256 20221 30030 40133 84200 333 20203 58006;EQDQ01  00002PRCP06
0167823920999992004041418004-03700-040350FM-12+008399999V0203601N002112200019N0500001N1+03221+02051100881ADDAA106000091GF102991021011004501001001MA1999999099861MD1999999+0031REMSYN070AAXX  14184 82392 32499 23604 10322 20205 39986 40088 82100 333 58003;EQDQ01  00002PRCP06
0221823920999992004041500004-03700-040350FM-12+008399999V0203601N001012200019N0040001N1+02461+02371101131ADDAY161061AY261061GF101991999011008001001001KA1240M+03261MA1999999100101MD1999999-0011MW1021REMSYN100AAXX  15004 82392 21596 13602 10246 20237 30010 40113 70266 82100 333 10326 29080 55075 59001 60021;EQDQ01+000022SCOTLC
0181823920999992004041512004-03700-040350FM-12+008399999V0209999C000019999999N0500001N1+02781+02361101211ADDGF106991999021008001001001KA1240N+02281MA1999999100191MD1999999-0111REMSYN082AAXX  15124 82392 22599 60000 10278 20236 30019 40121 84200 333 20228 59011 60204;EQDQ01+000042SCOTLC
0183823920999992004041518004-03700-040350FM-12+008399999V0203601N001019999999N0500001N1+03281+02371100741ADDAA106000091GF106991999021008001001001MA1999999099721MD1999999-0141REMSYN070AAXX  15184 82392 32599 63602 10328 20237 39972 40074 83200 333 59014;EQDQ01+000032SCOTLCQ02  00002PRCP06
0208823920999992004041600004-03700-040350FM-12+008399999V0203601N001012200019N0040001N1+02501+02401101081ADDAA106000091GA1001+999999999GF100991001001999999001001KA1240M+03301MA1999999100061MD1999999-0041REMSYN082AAXX  16004 82392 32996 03602 10250 20240 30006 40108 333 10330 29081 55083 59004;EQDQ01  00002PRCP06
0186823920999992004041612004-03700-040350FM-12+008399999V0200901N002112200019N0500001N1+02761+02421101301ADDAA106000091GF104991031021004501031001KA1240N+02301MA1999999100281MD1999999+0091REMSYN076AAXX  16124 82392 32499 40904 10276 20242 30028 40130 83230 333 20230 58009;EQDQ01  00002PRCP06
0183823920999992004041618004-03700-040350FM-12+008399999V0201801N001010042019N0500001N1+03241+02311100841ADDAA106000091GF106991999021004501001001MA1999999099821MD1999999+0101REMSYN070AAXX  16184 82392 32499 61802 10324 20231 39982 40084 85200 333 58010;EQDQ01+000052SCOTLCQ02  00002PRCP06
0202823920999992004041700004-03700-040350FM-12+008399999V0209999C000010042019N0040001N1+02581+02511101251ADDAY121061AY261061GF106991051041004501031001KA1240M+03301MA1999999100231MD1999999+0171MW1021REMSYN100AAXX  17004 82392 21496 60000 10258 20251 30023 40125 70226 85430 333 10330 29083 55082 58017 60031;
0162823920999992004041712004-03700-040350FM-12+008399999V0201401N000510450019N0500001N1+02801+02271101351ADDGF106991041041004501031001KA1240N+02281MA1999999100331MD1999999+0051REMSYN082AAXX  17124 82392 22499 61401 10280 20227 30033 40135 84430 333 20228 58005 60034;
0167823920999992004041718004-03700-040350FM-12+008399999V0200501N000511050019N0500001N1+03261+02211100951ADDAA106000091GF105991021021004501031011MA1999999099931MD1999999+0111REMSYN070AAXX  17184 82392 32499 50501 10326 20221 39993 40095 82231 333 58011;EQDQ01  00002PRCP06
0198823920999992004041800004-03700-040350FM-12+008399999V0200501N000512200019N0040001N1+02561+02251101261ADDAA106000091GF104991011021004501011001KA1240M+03411MA1999999100241MD1999999+0011REMSYN088AAXX  18004 82392 32496 40501 10256 20225 30024 40126 81210 333 10341 29073 55088 58001;EQDQ01  00002PRCP06
0190823920999992004041812004-03700-040350FM-12+008399999V0200501N001012200019N0500001N1+02741+02381101381ADDAY121061AY261061GF104991041021004501001001KA1240N+02301MA1999999100361MD1999999+0031MW1021REMSYN088AAXX  18124 82392 21499 40502 10274 20238 30036 40138 70226 84200 333 20230 58003 69984;
0167823920999992004041818004-03700-040350FM-12+008399999V0202301N001010042019N0500001N1+02901+02431100921ADDAA106000091GF106991051051004501031001MA1999999099901MD1999999-0031REMSYN070AAXX  18184 82392 32499 62302 10290 20243 39990 40092 85530 333 59003;EQDQ01  00002PRCP06
0202823920999992004041900004-03700-040350FM-12+008399999V0209999C000010450019N0020001N1+02401+02331101181ADDAY121061AY261061GF108991041071004501021001KA1240M+03181MA1999999100161MD1999999-0081MW1021REMSYN100AAXX  19004 82392 21495 80000 10240 20233 30016 40118 70226 84720 333 10318 29087 55069 59008 60241;
0179823920999992004041912004-03700-040350FM-12+008399999V0202301N000510450019N0500001N1+02601+02331101281ADDAA124024091GF106991041041004501031001KA1240N+02291MA1999999100251MD1999999-0111REMSYN088AAXX  19124 82392 22499 62301 10260 20233 30025 40128 84430 333 20229 59011 60244 10238;
0183823920999992004041918004-03700-040350FM-12+008399999V0201401N000519999999N0500001N1+03101+02181100901ADDAA106000091GF105991999021004501001001MA1999999099881MD1999999-0021REMSYN070AAXX  19184 82392 32499 51401 10310 20218 39988 40090 84200 333 59002;EQDQ01+000042SCOTLCQ02  00002PRCP06
0198823920999992004042000004-03700-040350FM-12+008399999V0200501N000510450019N0040001N1+02601+02401101121ADDAA106000091GF106991031041004501021001KA1240M+03141MA1999999100101MD1999999-0061REMSYN088AAXX  20004 82392 32496 60501 10260 20240 30010 40112 83420 333 10314 29080 55071 59006;EQDQ01  00002PRCP06
0186823920999992004042012004-03700-040350FM-12+008399999V0201401N001012200019N0500001N1+02801+02311101221ADDAA106000091GF103991031021004501001001KA1240N+02401MA1999999100201MD1999999-0051REMSYN076AAXX  20124 82392 32499 31402 10280 20231 30020 40122 83200 333 20240 59005;EQDQ01  00002PRCP06
0167823920999992004042018004-03700-040350FM-12+008399999V0200501N001010450019N0500001N1+03201+02091100811ADDAA106000091GF106991031021004501011011MA1999999099791MD1999999-0091REMSYN070AAXX  20184 82392 32499 60502 10320 20209 39979 40081 83211 333 59009;EQDQ01  00002PRCP06
0198823920999992004042100004-03700-040350FM-12+008399999V0203601N000510450019N0040001N1+02581+02371101171ADDAA106000091GF106991031021004501011001KA1240M+03281MA1999999100151MD1999999+0051REMSYN088AAXX  21004 82392 32496 63601 10258 20237 30015 40117 83210 333 10328 29076 55090 58005;EQDQ01  00002PRCP06
0202823920999992004042112004-03700-040350FM-12+008399999V0209999C000019999999N0500001N1+02791+02481101121ADDAA106000091GF106991999021004501001001KA1240N+02281MA1999999100101MD1999999-0101REMSYN076AAXX  21124 82392 32499 60000 10279 20248 30010 40112 84200 333 20228 59010;EQDQ01+000042SCOTLCQ02  00002PRCP06
0183823920999992004042118004-03700-040350FM-12+008399999V0200901N000510042019N0500001N1+03341+02091100761ADDAA106000091GF106991999021004501001001MA1999999099741MD1999999-0051REMSYN070AAXX  21184 82392 32499 60901 10334 20209 39974 40076 85200 333 59005;EQDQ01+000052SCOTLCQ02  00002PRCP06
0198823920999992004042200004-03700-040350FM-12+008399999V0203601N001012200019N0040001N1+02581+02511101071ADDAA106000091GF102991021001004501031001KA1240M+03381MA1999999100051MD1999999-0101REMSYN088AAXX  22004 82392 32496 23602 10258 20251 30005 40107 82030 333 10338 29081 55096 59010;EQDQ01  00002PRCP06
0202823920999992004042212004-03700-040350FM-12+008399999V0209999C000019999999N0500001N1+02691+02371101141ADDAA106000091GF108991999021004501001001KA1240N+02331MA1999999100121MD1999999+0021REMSYN076AAXX  22124 82392 32499 80000 10269 20237 30012 40114 83200 333 20233 58002;EQDQ01+000032SCOTLCQ02  00002PRCP06
0183823920999992004042218004-03700-040350FM-12+008399999V0200901N001019999999N0500001N1+02961+02331100751ADDAA106000091GF106991999021008001001001MA1999999099731MD1999999-0011REMSYN070AAXX  22184 82392 32599 60902 10296 20233 39973 40075 83200 333 59001;EQDQ01+000032SCOTLCQ02  00002PRCP06
0198823920999992004042300004-03700-040350FM-12+008399999V0209999C000010450019N0040001N1+02501+02431101021ADDAA106000091GF105991041051004501031001KA1240M+03261MA1999999100001MD1999999-0051REMSYN088AAXX  23004 82392 32496 50000 10250 20243 30000 40102 84530 333 10326 29086 55057 59005;EQDQ01  00002PRCP06
0190823920999992004042312004-03700-040350FM-12+008399999V0201801N000510450019N0500001N1+02541+02401101031ADDAY161061AY221061GF108991041071004501021001KA1240N+02341MA1999999100001MD1999999-0121MW1021REMSYN088AAXX  23124 82392 21499 81801 10254 20240 30000 40103 70262 84720 333 20234 59012 60054;
0183823920999992004042318004-03700-040350FM-12+008399999V0202301N000519999999N0500001N1+03021+02411100671ADDAA106000091GF107991999021008001001001MA1999999099651MD1999999-0081REMSYN070AAXX  23184 82392 32599 72301 10302 20241 39965 40067 83200 333 59008;EQDQ01+000032SCOTLCQ02  00002PRCP06
0208823920999992004042400004-03700-040350FM-12+008399999V0202301N000512200019N0040001N1+02501+02291100891ADDAA106000091GA1001+999999999GF100991001001999999001001KA1240M+03081MA1999999099861MD1999999-0141REMSYN082AAXX  24004 82392 32996 02301 10250 20229 39986 40089 333 10308 29084 55027 59014;EQDQ01  00002PRCP06
0186823920999992004042412004-03700-040350FM-12+008399999V0200901N001010450019N0500001N1+02641+02271100951ADDAA106000091GF105991031021004501031001KA1240N+02101MA1999999099931MD1999999-0071REMSYN076AAXX  24124 82392 32499 50902 10264 20227 39993 40095 83230 333 20210 59007;EQDQ01  00002PRCP06
0167823920999992004042418004-03700-040350FM-12+008399999V0200501N000510450019N0500001N1+02801+02461100621ADDAA106000091GF108991031071004501021999MA1999999099601MD1999999-0051REMSYN070AAXX  24184 82392 32499 80501 10280 20246 39960 40062 8372/ 333 59005;EQDQ01  00002PRCP06
0198823920999992004042500004-03700-040350FM-12+008399999V0200501N001510450019N0040001N1+02501+02431100921ADDAA106000091GF107991041041004501031001KA1240M+03241MA1999999099901MD1999999+0041REMSYN088AAXX  25004 82392 32496 70503 10250 20243 39990 40092 84430 333 10324 29088 55057 58004;EQDQ01  00002PRCP06
0186823920999992004042512004-03700-040350FM-12+008399999V0209999C000010075019N0500001N1+02711+02481101171ADDAA106000091GF106991061021008001001001KA1240N+02321MA1999999100151MD1999999+0221REMSYN076AAXX  25124 82392 32599 60000 10271 20248 30015 40117 86200 333 20232 58022;EQDQ01  00002PRCP06
0190823920999992004042518004-03700-040350FM-12+008399999V0201801N001010042019N0040001N1+02381+02311101031ADDAY161061AY261061GF108991999021004501001001MA1999999100001MD1999999+0041MW1531REMSYN082AAXX  25184 82392 21496 81802 10238 20231 30000 40103 75366 85200 333 58004 60231;EQDQ01+000052SCOTLC
0202823920999992004042600004-03700-040350FM-12+008399999V0201801N000510450019N0040001N1+02341+02311101281ADDAY151061AY251061GF107991041051004501011001KA1240M+02881MA1999999100251MD1999999+0351MW1021REMSYN100AAXX  26004 82392 21496 71801 10234 20231 30025 40128 70255 84510 333 10288 29095 55016 58035 60031;
0162823920999992004042612004-03700-040350FM-12+008399999V0202301N000510042019N0500001N1+02501+02471101341ADDGF107991051051004501031001KA1240N+02201MA1999999100311MD1999999+0161REMSYN082AAXX  26124 82392 22499 72301 10250 20247 30031 40134 85530 333 20220 58016 60264;
0183823920999992004042618004-03700-040350FM-12+008399999V0209999C000019999999N0500001N1+02681+02311101031ADDAA106000091GF107991999061004501031011MA1999999100001MD1999999+0001REMSYN070AAXX  26184 82392 32499 70000 10268 20231 30000 40103 80631 333 58000;EQDQ01+000002SCOTLCQ02  00002PRCP06
0198823920999992004042700004-03700-040350FM-12+008399999V0200501N000510450019N0040001N1+02491+02431101371ADDAA106000091GF105991021041004501031001KA1240M+02961MA1999999100341MD1999999+0091REMSYN088AAXX  27004 82392 32496 50501 10249 20243 30034 40137 82430 333 10296 29093 55030 58009;EQDQ01  00002PRCP06
0202823920999992004042712004-03700-040350FM-12+008399999V0202301N000510042019N0500001N1+02581+02501101441ADDAA106000091GF106991999021004501001001KA1240N+02291MA1999999100401MD1999999+0101REMSYN076AAXX  27124 82392 32499 62301 10258 20250 30040 40144 85200 333 20229 58010;EQDQ01+000052SCOTLCQ02  00002PRCP06
0190823920999992004042718004-03700-040350FM-12+008399999V0209999C000019999999N0500001N1+02541+02331101051ADDAY161061AY261061GF106991999021004501001001MA1999999100021MD1999999+0021MW1021REMSYN082AAXX  27184 82392 21499 60000 10254 20233 30002 40105 70266 84200 333 58002 60161;EQDQ01+000042SCOTLC
0202823920999992004042800004-03700-040350FM-12+008399999V0209999C000010450019N0040001N1+02401+02351101401ADDAY161061AY261061GF106991041061004501011001KA1240M+02921MA1999999100371MD1999999+0031MW1291REMSYN100AAXX  28004 82392 21496 60000 10240 20235 30037 40140 72966 84610 333 10292 29095 55032 58003 60031;
0162823920999992004042812004-03700-040350FM-12+008399999V0200901N000512200019N0500001N1+02741+02401101461ADDGF102991021001004501031001KA1240N+02101MA1999999100441MD1999999+0031REMSYN082AAXX  28124 82392 22499 20901 10274 20240 30044 40146 82030 333 20210 58003 60194;
0167823920999992004042818004-03700-040350FM-12+008399999V0200901N001012200019N0500001N1+02961+02101101071ADDAA106000091GF104991031021004501031001MA1999999100051MD1999999+0031REMSYN070AAXX  28184 82392 32499 40902 10296 20210 30005 40107 83230 333 58003;EQDQ01  00002PRCP06
0198823920999992004042900004-03700-040350FM-12+008399999V0203601N000512200019N0040001N1+02481+02381101321ADDAA106000091GF102991011001008001011071KA1240M+03211MA1999999100301MD1999999-0071REMSYN088AAXX  29004 82392 32596 23601 10248 20238 30030 40132 81017 333 10321 29083 55066 59007;EQDQ01  00002PRCP06
0202823920999992004042912004-03700-040350FM-12+008399999V0209999C000019999999N0500001N1+02641+02371101431ADDAA106000091GF105991999031008001001001KA1240N+02041MA1999999100411MD1999999-0031REMSYN076AAXX  29124 82392 32599 50000 10264 20237 30041 40143 83300 333 20204 59003;EQDQ01+000032SCOTLCQ02  00002PRCP06
0167823920999992004042918004-03700-040350FM-12+008399999V0200901N000511050019N0500001N1+03141+02241100911ADDAA106000091GF105991021021004501001021MA1999999099891MD1999999-0161REMSYN070AAXX  29184 82392 32499 50901 10314 20224 39989 40091 82202 333 59016;EQDQ01  00002PRCP06
0198823920999992004043000004-03700-040350FM-12+008399999V0209999C000010450019N0040001N1+02421+02331101151ADDAA106000091GF105991041011004501031001KA1240M+03281MA1999999100121MD1999999-0181REMSYN088AAXX  30004 82392 32496 50000 10242 20233 30012 40115 84130 333 10328 29084 55095 59018;EQDQ01  00002PRCP06
0186823920999992004043012004-03700-040350FM-12+008399999V0201401N001012200019N0500001N1+02681+02311101171ADDAA106000091GF104991031011004501031001KA1240N+02121MA1999999100151MD1999999-0261REMSYN076AAXX  30124 82392 32499 41402 10268 20231 30015 40117 83130 333 20212 59026;EQDQ01  00002PRCP06
0183823920999992004043018004-03700-040350FM-12+008399999V0200901N001012200019N0500001N1+03141+01691100791ADDAA106000091GF104991999021008001001001MA1999999099771MD1999999-0121REMSYN070AAXX  30184 82392 32599 40902 10314 20169 39977 40079 83200 333 59012;EQDQ01+000032SCOTLCQ02  00002PRCP06
0198823920999992004050100004-03700-040350FM-12+008399999V0209999C000010450019N0040001N1+02501+02361101041ADDAA106000091GF106991041041004501031001KA1240M+03241MA1999999100021MD1999999-0101REMSYN088AAXX  01004 82392 32496 60000 10250 20236 30002 40104 84430 333 10324 29076 55080 59010;EQDQ01  00002PRCP06
0186823920999992004050112004-03700-040350FM-12+008399999V0201401N001012200019N0500001N1+02821+02241101201ADDAA106000091GF104991021011004501011001KA1240N+02301MA1999999100181MD1999999+0031REMSYN076AAXX  01124 82392 32499 41402 10282 20224 30018 40120 82110 333 20230 58003;EQDQ01  00002PRCP06
0167823920999992004050118004-03700-040350FM-12+008399999V0200901N000512200019N0500001N1+03191+02151100741ADDAA106000091GF104991021021004501011001MA1999999099721MD1999999-0051REMSYN070AAXX  01184 82392 32499 40901 10319 20215 39972 40074 82210 333 59005;EQDQ01  00002PRCP06
0198823920999992004050200004-03700-040350FM-12+008399999V0209999C000012200019N0040001N1+02441+02211101011ADDAA106000091GF101991011001008001011001KA1240M+03281MA1999999099991MD1999999-0031REMSYN088AAXX  02004 82392 32596 10000 10244 20221 39999 40101 81010 333 10328 29075 55092 59003;EQDQ01  00002PRCP06
0186823920999992004050212004-03700-040350FM-12+008399999V0209999C000012200019N0500001N1+02701+02131101151ADDAA106000091GF102991021011004501001001KA1240N+02161MA1999999100131MD1999999-0051REMSYN076AAXX  02124 82392 32499 20000 10270 20213 30013 40115 82100 333 20216 59005;EQDQ01  00002PRCP06
0167823920999992004050218004-03700-040350FM-12+008399999V0201401N001010450019N0500001N1+03201+01961100821ADDAA106000091GF106991041021004501031001MA1999999099801MD1999999+0081REMSYN070AAXX  02184 82392 32499 61402 10320 20196 39980 40082 84230 333 58008;EQDQ01  00002PRCP06
0198823920999992004050300004-03700-040350FM-12+008399999V0201401N000512200019N0040001N1+02681+01941101071ADDAA106000091GF104991031011004501031001KA1240M+03341MA1999999100051MD1999999+0061REMSYN088AAXX  03004 82392 32496 41401 10268 20194 30005 40107 83130 333 10334 29062 55096 58006;EQDQ01  00002PRCP06
0186823920999992004050312004-03700-040350FM-12+008399999V0202301N000512200019N0500001N1+02681+02201101231ADDAA106000091GF103991011011004501031001KA1240N+02191MA1999999100211MD1999999-0081REMSYN076AAXX  03124 82392 32499 32301 10268 20220 30021 40123 81130 333 20219 59008;EQDQ01  00002PRCP06
0183823920999992004050318004-03700-040350FM-12+008399999V0203201N000512200019N0500001N1+02961+02231100921ADDAA106000091GF102991999021004501001001MA1999999099901MD1999999+0101REMSYN070AAXX  03184 82392 32499 23201 10296 20223 39990 40092 84200 333 58010;EQDQ01+000042SCOTLCQ02  00002PRCP06
0198823920999992004050400004-03700-040350FM-12+008399999V0209999C000019999999N0040001N1+02441+02251101141ADDAA106000091GF106991061001008001031001KA1240M+02991MA1999999100121MD1999999+0071REMSYN088AAXX  04004 82392 32596 60000 10244 20225 30012 40114 86030 333 10299 29080 55032 58007;EQDQ01  00002PRCP06
0186823920999992004050412004-03700-040350FM-12+008399999V0202301N001010450019N0500001N1+02561+02351101191ADDAA106000091GF108991041071004501021001KA1240N+02091MA1999999100161MD1999999-0051REMSYN076AAXX  04124 82392 32499 82302 10256 20235 30016 40119 84720 333 20209 59005;EQDQ01  00002PRCP06
0202823920999992004050500004-03700-040350FM-12+008399999V0201801N000510042019N0040001N1+02361+02331101281ADDAY161061AY261061GF108991061051004501011999KA1240M+02921MA1999999100251MD1999999+0131MW1021REMSYN100AAXX  05004 82392 21496 81801 10236 20233 30025 40128 70266 8651/ 333 10292 29095 55004 58013 60191;
0190823920999992004050512004-03700-040350FM-12+008399999V0209999C000010450019N0500001N1+02421+02331101461ADDAY161061AY261061GF108991041061004501021999KA1240N+02241MA1999999100431MD1999999+0271MW1021REMSYN088AAXX  05124 82392 21499 80000 10242 20233 30043 40146 70266 8462/ 333 20224 58027 60334;
0167823920999992004050518004-03700-040350FM-12+008399999V0201401N001010042019N0500001N1+03041+02181100971ADDAA106000091GF107991051041004501031001MA1999999099951MD1999999-0021REMSYN070AAXX  05184 82392 32499 71402 10304 20218 39995 40097 85430 333 59002;EQDQ01  00002PRCP06
0198823920999992004050600004-03700-040350FM-12+008399999V0209999C000010450019N0040001N1+02561+02351101241ADDAA106000091GF106991011011004501031001KA1240M+03241MA1999999100211MD1999999-0041REMSYN088AAXX  06004 82392 32496 60000 10256 20235 30021 40124 81130 333 10324 29083 55057 59004;EQDQ01  00002PRCP06
0202823920999992004050612004-03700-040350FM-12+008399999V0200901N001012200019N0500001N1+02821+02361101371ADDAA106000091GF104991999021008001001001KA1240N+02221MA1999999100351MD1999999-0081REMSYN076AAXX  06124 82392 32599 40902 10282 20236 30035 40137 83200 333 20222 59008;EQDQ01+000032SCOTLCQ02  00002PRCP06
0183823920999992004050618004-03700-040350FM-12+008399999V0202701N000512200019N0500001N1+02861+02481101011ADDAA106000091GF104991999021008001001001MA1999999099991MD1999999-0051REMSYN070AAXX  06184 82392 32599 42701 10286 20248 39999 40101 83200 333 59005;EQDQ01+000032SCOTLCQ02  00002PRCP06
0198823920999992004050700004-03700-040350FM-12+008399999V0200501N000510450019N0040001N1+02521+02151101231ADDAA106000091GF107991041041004501031001KA1240M+03181MA1999999100211MD1999999+0001REMSYN088AAXX  07004 82392 32496 70501 10252 20215 30021 40123 84430 333 10318 29079 55087 58000;EQDQ01  00002PRCP06
0186823920999992004050712004-03700-040350FM-12+008399999V0200901N002612200019N0500001N1+02841+02241101421ADDAA106000091GF103991031021004501001001KA1240N+02311MA1999999100401MD1999999+0051REMSYN076AAXX  07124 82392 32499 30905 10284 20224 30040 40142 83200 333 20231 58005;EQDQ01  00002PRCP06
0171823920999992004050718004-03700-040350FM-12+008399999V0200901N000510075019N0500001N1+03041+02411101101ADDAY151061AY251061GF106991061021008001001001MA1999999099981MD1999999-0011MW1021REMSYN082AAXX  07184 82392 21599 60901 10304 20241 39998 40110 70255 86200 333 59001 69931;
0198823920999992004050800004-03700-040350FM-12+008399999V0200501N001012200019N0040001N1+02541+02271101271ADDAA106000091GF103991031001004501031001KA1240M+03301MA1999999100251MD1999999+0041REMSYN088AAXX  08004 82392 32496 30502 10254 20227 30025 40127 83030 333 10330 29077 55094 58004;EQDQ01  00002PRCP06
0186823920999992004050812004-03700-040350FM-12+008399999V0209999C000010450019N0500001N1+02681+02411101361ADDAA106000091GF106991041041004501031001KA1240N+02301MA1999999100341MD1999999-0061REMSYN076AAXX  08124 82392 32499 60000 10268 20241 30034 40136 84430 333 20230 59006;EQDQ01  00002PRCP06
0212823920999992004050900004-03700-040350FM-12+008399999V0203601N001512200019N0020001N1+02481+02381101221ADDAY161061AY261061GA1001+999999999GF100991001001999999001001KA1240M+03241MA1999999100201MD1999999-0051MW1021REMSYN094AAXX  09004 82392 21995 03603 10248 20238 30020 40122 70266 333 10324 29083 55071 59005 60141;
0162823920999992004050912004-03700-040350FM-12+008399999V0200901N000510450019N0500001N1+02541+02441101291ADDGF105991031041004501021001KA1240N+02221MA1999999100271MD1999999-0071REMSYN082AAXX  09124 82392 22499 50901 10254 20244 30027 40129 83420 333 20222 59007 60144;
0167823920999992004050918004-03700-040350FM-12+008399999V0209999C000012200019N0500001N1+03321+02261100821ADDAA106000091GF103991031021004501001001MA1999999099801MD1999999-0201REMSYN070AAXX  09184 82392 32499 30000 10332 20226 39980 40082 83200 333 59020;EQDQ01  00002PRCP06
0202823920999992004051000004-03700-040350FM-12+008399999V0203601N000512200019N0040001N1+02501+02381101181ADDAY161061AY261061GF104991031041004501021001KA1240M+03441MA1999999100161MD1999999-0041MW1021REMSYN100AAXX  10004 82392 21496 43601 10250 20238 30016 40118 70266 83420 333 10344 29081 55099 59004 60011;
0162823920999992004051012004-03700-040350FM-12+008399999V0201401N001010450019N0500001N1+02701+02431101321ADDGF105991031021004501031001KA1240N+02221MA1999999100301MD1999999+0031REMSYN082AAXX  10124 82392 22499 51402 10270 20243 30030 40132 83230 333 20222 58003 60014;
0167823920999992004051018004-03700-040350FM-12+008399999V0202301N000512200019N0500001N1+03281+02161100891ADDAA106000091GF104991041041004501001001MA1999999099871MD1999999+0071REMSYN070AAXX  10184 82392 32499 42301 10328 20216 39987 40089 84400 333 58007;EQDQ01  00002PRCP06
0198823920999992004051100004-03700-040350FM-12+008399999V0203601N000512200019N0040001N1+02471+02411101201ADDAA106000091GF102991011011004501011001KA1240M+03421MA1999999100181MD1999999+0021REMSYN088AAXX  11004 82392 32496 23601 10247 20241 30018 40120 81110 333 10342 29082 55096 58002;EQDQ01  00002PRCP06
0186823920999992004051112004-03700-040350FM-12+008399999V0201401N001512200019N0500001N1+02781+02361101371ADDAA106000091GF103991031021004501001001KA1240N+02201MA1999999100351MD1999999+0051REMSYN076AAXX  11124 82392 32499 31403 10278 20236 30035 40137 83200 333 20220 58005;EQDQ01  00002PRCP06
0171823920999992004051118004-03700-040350FM-12+008399999V0203601N000510450019N0500001N1+02961+02041100851ADDAY161061AY261061GF105991031061004501031001MA1999999099831MD1999999-0041MW1021REMSYN082AAXX  11184 82392 21499 53601 10296 20204 39983 40085 70266 83630 333 59004 60011;
0202823920999992004051200004-03700-040350FM-12+008399999V0209999C000010450019N0040001N1+02441+02391101191ADDAY161061AY261061GF106991021061004501011001KA1240M+03171MA1999999100171MD1999999-0011MW1021REMSYN100AAXX  12004 82392 21496 60000 10244 20239 30017 40119 70266 82610 333 10317 29086 55088 59001 60051;
0162823920999992004051212004-03700-040350FM-12+008399999V0200501N004112200019N0500001N1+02761+02281101371ADDGF103991011011004501031001KA1240N+02271MA1999999100351MD1999999+0001REMSYN082AAXX  12124 82392 22499 30508 10276 20228 30035 40137 81130 333 20227 58000 60064;
0167823920999992004051218004-03700-040350FM-12+008399999V0200501N000512200019N0500001N1+03281+02101100941ADDAA106000091GF102991021011004501001001MA1999999099921MD1999999+0091REMSYN070AAXX  12184 82392 32499 20501 10328 20210 39992 40094 82100 333 58009;EQDQ01  00002PRCP06
0202823920999992004051312004-03700-040350FM-12+008399999V0209999C000012200019N0500001N1+02721+02391101281ADDAA106000091GF104991999021004501001001KA1240N+02081MA1999999100261MD1999999-0091REMSYN076AAXX  13124 82392 32499 40000 10272 20239 30026 40128 83200 333 20208 59009;EQDQ01+000032SCOTLCQ02  00002PRCP06
0183823920999992004051318004-03700-040350FM-12+008399999V0202701N000519999999N0500001N1+03241+02311100841ADDAA106000091GF107991999021008001001001MA1999999099821MD1999999-0101REMSYN070AAXX  13184 82392 32599 72701 10324 20231 39982 40084 83200 333 59010;EQDQ01+000032SCOTLCQ02  00002PRCP06
0208823920999992004051400004-03700-040350FM-12+008399999V0203601N001512200019N0040001N1+02581+02401101121ADDAA106000091GA1001+999999999GF100991001001999999001001KA1240M+03361MA1999999100101MD1999999-0141REMSYN082AAXX  14004 82392 32996 03603 10258 20240 30010 40112 333 10336 29080 55094 59014;EQDQ01  00002PRCP06
0183823920999992004051418004-03700-040350FM-12+008399999V0201401N001012200019N0500001N1+03281+02131100711ADDAA106000091GF102991999021008001001001MA1999999099391MD1999999-0131REMSYN070AAXX  14184 82392 32599 21402 10328 20213 39939 40071 83200 333 59013;EQDQ01+000032SCOTLCQ02  00002PRCP06
0208823920999992004051500004-03700-040350FM-12+008399999V0203601N000512200019N0040001N1+02481+02381101071ADDAA106000091GA1001+999999999GF100991001001999999001001KA1240M+03401MA1999999100051MD1999999-0051REMSYN082AAXX  15004 82392 32996 03601 10248 20238 30005 40107 333 10340 29079 55098 59005;EQDQ01  00002PRCP06
0186823920999992004051512004-03700-040350FM-12+008399999V0200901N000510042019N0500001N1+02761+02381101251ADDAA106000091GF105991051021004501001001KA1240N+02101MA1999999100231MD1999999+0031REMSYN076AAXX  15124 82392 32499 50901 10276 20238 30023 40125 85200 333 20210 58003;EQDQ01  00002PRCP06
0167823920999992004051518004-03700-040350FM-12+008399999V0200901N000512200019N0500001N1+03241+02031100751ADDAA106000091GF102991021011004501001001MA1999999099731MD1999999+0041REMSYN070AAXX  15184 82392 32499 20901 10324 20203 39973 40075 82100 333 58004;EQDQ01  00002PRCP06
0208823920999992004051600004-03700-040350FM-12+008399999V0200501N000512200019N0040001N1+02521+02231101031ADDAA106000091GA1001+999999999GF100991001001999999001001KA1240M+03391MA1999999100011MD1999999-0041REMSYN082AAXX  16004 82392 32996 00501 10252 20223 30001 40103 333 10339 29074 55103 59004;EQDQ01  00002PRCP06
0186823920999992004051612004-03700-040350FM-12+008399999V0201801N000512200019N0500001N1+02721+02341101221ADDAA106000091GF103991021011004501031001KA1240N+02111MA1999999100201MD1999999-0031REMSYN076AAXX  16124 82392 32499 31801 10272 20234 30020 40122 82130 333 20211 59003;EQDQ01  00002PRCP06
0167823920999992004051618004-03700-040350FM-12+008399999V0200501N000512200019N0500001N1+03281+02101100761ADDAA106000091GF104991031021004501031001MA1999999099741MD1999999+0011REMSYN070AAXX  16184 82392 32499 40501 10328 20210 39974 40076 83230 333 58001;EQDQ01  00002PRCP06
0198823920999992004051700004-03700-040350FM-12+008399999V0203601N002612200019N0040001N1+02581+02441101071ADDAA106000091GF102991021001008001031001KA1240M+03461MA1999999100051MD1999999-0011REMSYN088AAXX  17004 82392 32596 23605 10258 20244 30005 40107 82030 333 10346 29078 55095 59001;EQDQ01  00002PRCP06
0186823920999992004051712004-03700-040350FM-12+008399999V0201401N002112200019N0500001N1+02701+02151101251ADDAA106000091GF102991021011004501001001KA1240N+02101MA1999999100231MD1999999+0031REMSYN076AAXX  17124 82392 32499 21404 10270 20215 30023 40125 82100 333 20210 58003;EQDQ01  00002PRCP06
0167823920999992004051718004-03700-040350FM-12+008399999V0201401N001512200019N0500001N1+03321+01781100771ADDAA106000091GF103991031021004501001001MA1999999099751MD1999999+0011REMSYN070AAXX  17184 82392 32499 31403 10332 20178 39975 40077 83200 333 58001;EQDQ01  00002PRCP06
0208823920999992004051800004-03700-040350FM-12+008399999V0200501N000512200019N0040001N1+02541+02251101111ADDAA106000091GA1001+999999999GF100991001001999999001001KA1240M+03381MA1999999100091MD1999999+0041REMSYN082AAXX  18004 82392 32996 00501 10254 20225 30009 40111 333 10338 29070 55099 58004;EQDQ01  00002PRCP06
0186823920999992004051812004-03700-040350FM-12+008399999V0200901N001010450019N0500001N1+02641+02371101331ADDAA106000091GF106991041021004501031001KA1240N+02301MA1999999100311MD1999999+0081REMSYN076AAXX  18124 82392 32499 60902 10264 20237 30031 40133 84230 333 20230 58008;EQDQ01  00002PRCP06
0183823920999992004051818004-03700-040350FM-12+008399999V0200901N001012200019N0500001N1+03291+02211100831ADDAA106000091GF104991999021008001001001MA1999999099811MD1999999+0061REMSYN070AAXX  18184 82392 32599 40902 10329 20221 39981 40083 83200 333 58006;EQDQ01+000032SCOTLCQ02  00002PRCP06
0208823920999992004051900004-03700-040350FM-12+008399999V0200501N000512200019N0040001N1+02561+02311101261ADDAA106000091GA1001+999999999GF100991001001999999001001KA1240M+03341MA1999999100241MD1999999+0151REMSYN082AAXX  19004 82392 32996 00501 10256 20231 30024 40126 333 10334 29078 55068 58015;EQDQ01  00002PRCP06
0186823920999992004051912004-03700-040350FM-12+008399999V0200901N001012200019N0500001N1+02701+02281101621ADDAA106000091GF104991041021004501001001KA1240N+02201MA1999999100591MD1999999+0281REMSYN076AAXX  19124 82392 32499 40902 10270 20228 30059 40162 84200 333 20220 58028;EQDQ01  00002PRCP06
0183823920999992004051918004-03700-040350FM-12+008399999V0201801N002619999999N0500001N1+03301+01971101101ADDAA106000091GF105991999021004501001001MA1999999100081MD1999999+0271REMSYN070AAXX  19184 82392 32499 51805 10330 20197 30008 40110 84200 333 58027;EQDQ01+000042SCOTLCQ02  00002PRCP06
0212823920999992004052000004-03700-040350FM-12+008399999V0200501N000512200019N0040001N1+02421+02281101441ADDAY161061AY261061GA1001+999999999GF100991001001999999001001KA1240M+03381MA1999999100421MD1999999+0181MW1021REMSYN094AAXX  20004 82392 21996 00501 10242 20228 30042 40144 70266 333 10338 29077 55087 58018 60011;
0162823920999992004052012004-03700-040350FM-12+008399999V0201801N001012200019N0500001N1+02691+02371101521ADDGF104991021021008001001011KA1240N+02081MA1999999100501MD1999999-0091REMSYN082AAXX  20124 82392 22599 41802 10269 20237 30050 40152 82201 333 20208 59009 69984;
0190823920999992004052018004-03700-040350FM-12+008399999V0200501N001019999999N0500001N1+02981+02421101081ADDAY161061AY261061GF105991999021004501001001MA1999999100061MD1999999-0021MW1021REMSYN082AAXX  20184 82392 21499 50502 10298 20242 30006 40108 70266 83200 333 59002 60041;EQDQ01+000032SCOTLC
0202823920999992004052100004-03700-040350FM-12+008399999V0209999C000010450019N0040001N1+02521+02431101371ADDAY161061AY261061GF108991031071004501021999KA1240M+03081MA1999999100351MD1999999-0071MW1021REMSYN100AAXX  21004 82392 21496 80000 10252 20243 30035 40137 70266 8372/ 333 10308 29086 55071 59007 60011;
0162823920999992004052112004-03700-040350FM-12+008399999V0202701N000512200019N0500001N1+02421+02151101491ADDGF103991031021004501001001KA1240N+02321MA1999999100451MD1999999-0051REMSYN082AAXX  21124 82392 22499 32701 10242 20215 30045 40149 83200 333 20232 59005 60054;
0183823920999992004052118004-03700-040350FM-12+008399999V0201801N002619999999N0500001N1+03041+02391100971ADDAA106000091GF105991999021004501001001MA1999999099951MD1999999-0111REMSYN070AAXX  21184 82392 32499 51805 10304 20239 39995 40097 83200 333 59011;EQDQ01+000032SCOTLCQ02  00002PRCP06
0198823920999992004052200004-03700-040350FM-12+008399999V0203601N000510450019N0040001N1+02601+02331101231ADDAA106000091GF105991041021004501031001KA1240M+03261MA1999999100201MD1999999-0151REMSYN088AAXX  22004 82392 32496 53601 10260 20233 30020 40123 84230 333 10326 29080 55059 59015;EQDQ01  00002PRCP06
0186823920999992004052312004-03700-040350FM-12+008399999V0201801N000510450019N0500001N1+02621+02371101451ADDAA106000091GF106991031041004501031011KA1240N+02071MA1999999100421MD1999999+0161REMSYN076AAXX  23124 82392 32499 61801 10262 20237 30042 40145 83431 333 20207 58016;EQDQ01  00002PRCP06
0167823920999992004052318004-03700-040350FM-12+008399999V0209999C000012200019N0500001N1+03241+02061101081ADDAA106000091GF105991031021004501001011MA1999999100061MD1999999+0021REMSYN070AAXX  23184 82392 32499 50000 10324 20206 30006 40108 83201 333 58002;EQDQ01  00002PRCP06
0198823920999992004052400004-03700-040350FM-12+008399999V0203601N000512200019N0040001N1+02601+02351101371ADDAA106000091GF104991021041004501031011KA1240M+03421MA1999999100351MD1999999+0151REMSYN088AAXX  24004 82392 32496 43601 10260 20235 30035 40137 82431 333 10342 29077 55080 58015;EQDQ01  00002PRCP06
0186823920999992004052412004-03700-040350FM-12+008399999V0200901N001012200019N0500001N1+02701+02131101531ADDAA106000091GF101991011011004501001001KA1240N+02091MA1999999100501MD1999999+0081REMSYN076AAXX  24124 82392 32499 10902 10270 20213 30050 40153 81100 333 20209 58008;EQDQ01  00002PRCP06
0167823920999992004052418004-03700-040350FM-12+008399999V0203601N000512200019N0500001N1+03261+02081101121ADDAA106000091GF103991031021004501001001MA1999999100101MD1999999+0041REMSYN070AAXX  24184 82392 32499 33601 10326 20208 30010 40112 83200 333 58004;EQDQ01  00002PRCP06
0202823920999992004052500004-03700-040350FM-12+008399999V0209999C000010450019N0040001N1+02401+02351101421ADDAY161061AY261061GF107991041051004501021001KA1240M+03281MA1999999100401MD1999999+0051MW1021REMSYN100AAXX  25004 82392 21496 70000 10240 20235 30040 40142 70266 84520 333 10328 29079 55085 58005 60041;
0162823920999992004052512004-03700-040350FM-12+008399999V0201401N001012200019N0500001N1+02701+02331101531ADDGF103991031021004501001001KA1240N+02241MA1999999100501MD1999999+0001REMSYN082AAXX  25124 82392 22499 31402 10270 20233 30050 40153 83200 333 20224 58000 60044;
0167823920999992004052518004-03700-040350FM-12+008399999V0203201N000512200019N0500001N1+03341+02121101031ADDAA106000091GF103991031021008001001001MA1999999100011MD1999999-0091REMSYN070AAXX  25184 82392 32599 33201 10334 20212 30001 40103 83200 333 59009;EQDQ01  00002PRCP06
0198823920999992004052600004-03700-040350FM-12+008399999V0203601N000512200019N0500001N1+02501+02271101341ADDAA106000091GF101991011011004501011001KA1240M+03341MA1999999100321MD1999999-0081REMSYN088AAXX  26004 82392 32499 13601 10250 20227 30032 40134 81110 333 10334 29076 55095 59008;EQDQ01  00002PRCP06
0186823920999992004052612004-03700-040350FM-12+008399999V0202301N000512200019N0500001N1+02601+02251101371ADDAA106000091GF101991011011004501001001KA1240N+02091MA1999999100351MD1999999-0151REMSYN076AAXX  26124 82392 32499 12301 10260 20225 30035 40137 81100 333 20209 59015;EQDQ01  00002PRCP06
0167823920999992004052618004-03700-040350FM-12+008399999V0203601N000512200019N0500001N1+03281+02101101021ADDAA106000091GF101991011011004501001001MA1999999100001MD1999999-0011REMSYN070AAXX  26184 82392 32499 13601 10328 20210 30000 40102 81100 333 59001;EQDQ01  00002PRCP06
0214823920999992004052700004-03700-040350FM-12+008399999V0203601N000519999999N0040001N1+02641+02291101291ADDAA106000091GF105991999021004501001001KA1240M+03381MA1999999100271MD1999999-0051REMSYN088AAXX  27004 82392 32496 53601 10264 20229 30027 40129 83200 333 10338 29073 55098 59005;EQDQ01+000032SCOTLCQ02  00002PRCP06
0186823920999992004052712004-03700-040350FM-12+008399999V0200501N004110075019N0500001N1+02821+02381101391ADDAA106000091GF106991061021008001001001KA1240N+02111MA1999999100341MD1999999+0021REMSYN076AAXX  27124 82392 32599 60508 10282 20238 30034 40139 86200 333 20211 58002;EQDQ01  00002PRCP06
0167823920999992004052718004-03700-040350FM-12+008399999V0209999C000010075019N0500001N1+03341+02251100921ADDAA106000091GF106991061021008001001001MA1999999099901MD1999999-0101REMSYN070AAXX  27184 82392 32599 60000 10334 20225 39990 40092 86200 333 59010;EQDQ01  00002PRCP06
0208823920999992004052800004-03700-040350FM-12+008399999V0200501N001012200019N0040001N1+02401+02131101321ADDAA106000091GA1001+999999999GF100991001001999999001001KA1240M+03421MA1999999100301MD1999999+0031REMSYN082AAXX  28004 82392 32996 00502 10240 20213 30030 40132 333 10342 29075 55077 58003;EQDQ01  00002PRCP06
0202823920999992004052812004-03700-040350FM-12+008399999V0201401N001019999999N0040001N1+02841+02441101541ADDAA106000091GF105991999021008001001001KA1240N+02141MA1999999100511MD1999999+0141REMSYN076AAXX  28124 82392 32596 51402 10284 20244 30051 40154 83200 333 20214 58014;EQDQ01+000032SCOTLCQ02  00002PRCP06
0167823920999992004052818004-03700-040350FM-12+008399999V0203601N001510075019N0500001N1+02801+02361101071ADDAA106000091GF106991061021008001001001MA1999999100041MD1999999+0151REMSYN070AAXX  28184 82392 32599 63603 10280 20236 30004 40107 86200 333 58015;EQDQ01  00002PRCP06
0208823920999992004052900004-03700-040350FM-12+008399999V0203601N001012200019N0040001N1+02441+02351101361ADDAA106000091GA1001+999999999GF100991001001999999001001KA1240M+03161MA1999999100341MD1999999+0041REMSYN082AAXX  29004 82392 32996 03602 10244 20235 30034 40136 333 10316 29086 55039 58004;EQDQ01  00002PRCP06
0186823920999992004052912004-03700-040350FM-12+008399999V0200501N000510450019N0500001N1+02741+02301101511ADDAA106000091GF106991041051004501031001KA1240N+02211MA1999999100481MD1999999-0021REMSYN076AAXX  29124 82392 32499 60501 10274 20230 30048 40151 84530 333 20221 59002;EQDQ01  00002PRCP06
0167823920999992004052918004-03700-040350FM-12+008399999V0200901N001010042019N0500001N1+03301+01841101051ADDAA106000091GF105991051021004501001001MA1999999100031MD1999999-0011REMSYN070AAXX  29184 82392 32499 50902 10330 20184 30003 40105 85200 333 59001;EQDQ01  00002PRCP06
0198823920999992004053000004-03700-040350FM-12+008399999V0200501N001010075019N0100001N1+02621+02411100771ADDAA106000091GF107991071021008001001001KA1240M+03261MA1999999100011MD1999999-0051REMSYN088AAXX  30004 82392 32597 70502 10262 20241 30001 40077 87200 333 10326 29085 55105 59005;EQDQ01  00002PRCP06
0186823920999992004053012004-03700-040350FM-12+008399999V0202301N001010450019N0500001N1+02741+02261101531ADDAA106000091GF106991041021004501031001KA1240N+02181MA1999999100501MD1999999+0021REMSYN076AAXX  30124 82392 32499 62302 10274 20226 30050 40153 84230 333 20218 58002;EQDQ01  00002PRCP06
0167823920999992004053018004-03700-040350FM-12+008399999V0200901N000512200019N0500001N1+03321+01781100981ADDAA106000091GF103991031021004501001001MA1999999099961MD1999999-0071REMSYN070AAXX  30184 82392 32499 30901 10332 20178 39996 40098 83200 333 59007;EQDQ01  00002PRCP06
0198823920999992004053100004-03700-040350FM-12+008399999V0200501N001010450019N0040001N1+02621+02291101361ADDAA106000091GF106991021091004501031001KA1240M+03221MA1999999100341MD1999999+0141REMSYN088AAXX  31004 82392 32496 60502 10262 20229 30034 40136 82930 333 10322 29078 55072 58014;EQDQ01  00002PRCP06
0186823920999992004053112004-03700-040350FM-12+008399999V0201401N002112200019N0500001N1+02721+02241101491ADDAA106000091GF102991021011004501001001KA1240N+02201MA1999999100461MD1999999-0041REMSYN076AAXX  31124 82392 32499 21404 10272 20224 30046 40149 82100 333 20220 59004;EQDQ01  00002PRCP06
0167823920999992004053118004-03700-040350FM-12+008399999V0203601N001012200019N0500001N1+03341+01871101071ADDAA106000091GF104991021011004501031001MA1999999100051MD1999999+0091REMSYN070AAXX  31184 82392 32499 43602 10334 20187 30005 40107 82130 333 58009;EQDQ01  00002PRCP06
0198823920999992004060100004-03700-040350FM-12+008399999V0203601N000510450019N0040001N1+02601+02241101291ADDAA106000091GF107991011011004501031001KA1240M+03401MA1999999100271MD1999999-0011REMSYN088AAXX  01004 82392 32496 73601 10260 20224 30027 40129 81130 333 10340 29070 55090 59001;EQDQ01  00002PRCP06
0186823920999992004060112004-03700-040350FM-12+008399999V0200901N000510450019N0500001N1+02781+02301101511ADDAA106000091GF106991041041004501031001KA1240N+02241MA1999999100481MD1999999+0021REMSYN076AAXX  01124 82392 32499 60901 10278 20230 30048 40151 84430 333 20224 58002;EQDQ01  00002PRCP06
0190823920999992004060118004-03700-040350FM-12+008399999V0209999C000010075019N0100001N1+02371+02351101261ADDAY161061AY261061GF108991999021008001001001MA1999999100231MD1999999+0181MW1601REMSYN082AAXX  01184 82392 21597 80000 10237 20235 30023 40126 76066 86200 333 58018 60101;EQDQ01+000062SCOTLC
0179823920999992004060200004-03700-040350FM-12+008399999V0209999C000010450019N0040001N1+02341+02291101461ADDAA106000021GF107991021051004501031001KA1240M+02901MA1999999100441MD1999999+0171REMSYN088AAXX  02004 82392 32496 70000 10234 20229 30044 40146 82530 333 10290 29092 55024 58017;
0162823920999992004060212004-03700-040350FM-12+008399999V0201401N000510450019N0500001N1+02541+02401101561ADDGF106991041051004501031001KA1240N+02021MA1999999100521MD1999999+0041REMSYN082AAXX  02124 82392 22499 61401 10254 20240 30052 40156 84530 333 20202 58004 60104;
0167823920999992004060218004-03700-040350FM-12+008399999V0200501N000512200019N0500001N1+03221+01691101161ADDAA106000091GF102991021011004501001001MA1999999100141MD1999999-0091REMSYN070AAXX  02184 82392 32499 20501 10322 20169 30014 40116 82100 333 59009;EQDQ01  00002PRCP06
0198823920999992004060300004-03700-040350FM-12+008399999V0203601N000512200019N0040001N1+02481+02271101431ADDAA106000091GF101991011001008001011001KA1240M+03241MA1999999100401MD1999999-0041REMSYN088AAXX  03004 82392 32596 13601 10248 20227 30040 40143 81010 333 10324 29077 55095 59004;EQDQ01  00002PRCP06
0186823920999992004060312004-03700-040350FM-12+008399999V0209999C000012200019N0500001N1+02741+02321101551ADDAA106000091GF101991011011004501001001KA1240N+01981MA1999999100521MD1999999+0001REMSYN076AAXX  03124 82392 32499 10000 10274 20232 30052 40155 81100 333 20198 58000;EQDQ01  00002PRCP06
0167823920999992004060318004-03700-040350FM-12+008399999V0209999C000012200019N0500001N1+03221+02111101101ADDAA106000091GF103991021021004501031001MA1999999100081MD1999999-0061REMSYN070AAXX  03184 82392 32499 30000 10322 20211 30008 40110 82230 333 59006;EQDQ01  00002PRCP06
0202823920999992004060400004-03700-040350FM-12+008399999V0209999C000012200019N0040001N1+02401+02331101461ADDAY121061AY261061GF103991031001004501031001KA1240M+03321MA1999999100441MD1999999+0041MW1021REMSYN100AAXX  04004 82392 21496 30000 10240 20233 30044 40146 70226 83030 333 10332 29080 55085 58004 60003;
0162823920999992004060412004-03700-040350FM-12+008399999V0200901N000512200019N0500001N1+02701+02331101491ADDGF101991011011004501001001KA1240N+02111MA1999999100461MD1999999-0061REMSYN082AAXX  04124 82392 22499 10901 10270 20233 30046 40149 81100 333 20211 59006 60034;
0151823920999992004060418004-03700-040350FM-12+008399999V0202701N000519999999N0500001N1+03261+02211999999ADDAA106000091GF106991999999004501999999MA1999999099981REMSYN068AAXX  04184 82392 32499 62701 10326 20221 39998 100 84500 333 59010;EQDQ01  00002PRCP06
0202823920999992004060500004-03700-040350FM-12+008399999V0209999C000010450019N0040001N1+02301+02221101331ADDAY121061AY261061GF106991041041004501031001KA1240M+03301MA1999999100301MD1999999-0141MW1021REMSYN100AAXX  05004 82392 21496 60000 10230 20222 30030 40133 70226 84430 333 10330 29081 55087 59014 60171;
0162823920999992004060512004-03700-040350FM-12+008399999V0201401N001012200019N0500001N1+02601+02231101431ADDGF104991041021004501001001KA1240N+02021MA1999999100401MD1999999-0061REMSYN082AAXX  05124 82392 22499 41402 10260 20223 30040 40143 84200 333 20202 59006 60174;
0167823920999992004060518004-03700-040350FM-12+008399999V0200501N002610450019N0500001N1+02881+02231101131ADDAA106000091GF105991041021004501031001MA1999999100101MD1999999+0021REMSYN070AAXX  05184 82392 32499 50505 10288 20223 30010 40113 84230 333 58002;EQDQ01  00002PRCP06
0198823920999992004060600004-03700-040350FM-12+008399999V0200501N002110042019N0040001N1+02381+02291101381ADDAA106000091GF106991051041004501031001KA1240M+03061MA1999999100351MD1999999+0051REMSYN088AAXX  06004 82392 32496 60504 10238 20229 30035 40138 85430 333 10306 29084 55065 58005;EQDQ01  00002PRCP06
0186823920999992004060612004-03700-040350FM-12+008399999V0201801N000512200019N0500001N1+02601+02231101471ADDAA106000091GF103991021021004501011001KA1240N+02061MA1999999100441MD1999999+0041REMSYN076AAXX  06124 82392 32499 31801 10260 20223 30044 40147 82210 333 20206 58004;EQDQ01  00002PRCP06
0167823920999992004060618004-03700-040350FM-12+008399999V0201401N001010450019N0500001N1+02961+02181101091ADDAA106000091GF105991031051004501031001MA1999999100071MD1999999-0031REMSYN070AAXX  06184 82392 32499 51402 10296 20218 30007 40109 83530 333 59003;EQDQ01  00002PRCP06
0198823920999992004060700004-03700-040350FM-12+008399999V0200501N000510450019N0040001N1+02461+02321101421ADDAA106000091GF107991031051004501031001KA1240M+03161MA1999999100391MD1999999+0041REMSYN088AAXX  07004 82392 32496 70501 10246 20232 30039 40142 83530 333 10316 29082 55087 58004;EQDQ01  00002PRCP06
0186823920999992004060712004-03700-040350FM-12+008399999V0200901N002112200019N0500001N1+02621+01961101681ADDAA106000091GF103991031021004501001001KA1240N+02081MA1999999100641MD1999999+0201REMSYN076AAXX  07124 82392 32499 30904 10262 20196 30064 40168 83200 333 20208 58020;EQDQ01  00002PRCP06
0167823920999992004060718004-03700-040350FM-12+008399999V0201801N000512200019N0500001N1+03301+01311101241ADDAA106000091GF101991011011004501001001MA1999999100221MD1999999+0151REMSYN070AAXX  07184 82392 32499 11801 10330 20131 30022 40124 81100 333 58015;EQDQ01  00002PRCP06
0202823920999992004060800004-03700-040350FM-12+008399999V0200501N000512200019N0040001N1+02431+02271101451ADDAY151061AY251061GF103991021051004501031001KA1240M+03281MA1999999100421MD1999999+0031MW1021REMSYN100AAXX  08004 82392 21496 30501 10243 20227 30042 40145 70255 82530 333 10328 29069 55099 58003 69951;
0190823920999992004060812004-03700-040350FM-12+008399999V0201801N002110450019N0500001N1+02561+02291101601ADDAY151061AY251061GF106991041021004501031001KA1240N+02201MA1999999100561MD1999999-0081MW1021REMSYN088AAXX  08124 82392 21499 61804 10256 20229 30056 40160 70255 84230 333 20220 59008 60014;
0208823920999992004060900004-03700-040350FM-12+008399999V0200501N001012200019N0040001N1+02231+01841101471ADDAA106000091GA1001+999999999GF100991001001999999001001KA1240M+03221MA1999999100441MD1999999+0021REMSYN082AAXX  09004 82392 32996 00502 10223 20184 30044 40147 333 10322 29073 55089 58002;EQDQ01  00002PRCP06
0186823920999992004060912004-03700-040350FM-12+008399999V0201401N001512200019N0500001N1+02721+01881101671ADDAA106000091GF104991031021004501031001KA1240N+02011MA1999999100631MD1999999+0071REMSYN076AAXX  09124 82392 32499 41403 10272 20188 30063 40167 83230 333 20201 58007;EQDQ01  00002PRCP06
0167823920999992004060918004-03700-040350FM-12+008399999V0202701N000510042019N0500001N1+03021+01921101321ADDAA106000091GF108991051051004501021999MA1999999100301MD1999999+0101REMSYN070AAXX  09184 82392 32499 82701 10302 20192 30030 40132 8552/ 333 58010;EQDQ01  00002PRCP06
0214823920999992004061000004-03700-040350FM-12+008399999V0200501N001019999999N0040001N1+02521+02091101501ADDAA106000091GF106991999021008001001001KA1240M+03081MA1999999100471MD1999999+0031REMSYN088AAXX  10004 82392 32596 60502 10252 20209 30047 40150 83200 333 10308 29067 55048 58003;EQDQ01+000032SCOTLCQ02  00002PRCP06
0190823920999992004061012004-03700-040350FM-12+008399999V0209999C000012200019N0500001N1+02681+02241101591ADDAY151061AY251061GF103991031021004501001001KA1240N+02101MA1999999100561MD1999999-0071MW1021REMSYN088AAXX  10124 82392 21499 30000 10268 20224 30056 40159 70255 83200 333 20210 59007 69944;
0167823920999992004061018004-03700-040350FM-12+008399999V0201401N001012200019N0500001N1+03271+01661101161ADDAA106000091GF103991031021004501001001MA1999999100141MD1999999-0161REMSYN070AAXX  10184 82392 32499 31402 10327 20166 30014 40116 83200 333 59016;EQDQ01  00002PRCP06
0208823920999992004061100004-03700-040350FM-12+008399999V0200501N002612200019N0040001N1+02401+01631101521ADDAA106000091GA1001+999999999GF100991001001999999001001KA1240M+03301MA1999999100481MD1999999+0011REMSYN082AAXX  11004 82392 32996 00505 10240 20163 30048 40152 333 10330 29097 55060 58001;EQDQ01  00002PRCP06
0186823920999992004061112004-03700-040350FM-12+008399999V0200901N000512200019N0500001N1+02521+01861101641ADDAA106000091GF101991011011004501001001KA1240N+01871MA1999999100601MD1999999+0041REMSYN076AAXX  11124 82392 32499 10901 10252 20186 30060 40164 81100 333 20187 58004;EQDQ01  00002PRCP06
0167823920999992004061118004-03700-040350FM-12+008399999V0201001N023610450019N0500001N1+02941+01881101381ADDAA106000091GF106991041041004501031001MA1999999100351MD1999999+0211REMSYN070AAXX  11184 82392 32499 61046 10294 20188 30035 40138 84430 333 58021;EQDQ01  00002PRCP06
0198823920999992004061200004-03700-040350FM-12+008399999V0209999C000012200019N0040001N1+02421+02171101621ADDAA106000091GF103991011021004501031001KA1240M+03121MA1999999100581MD1999999+0101REMSYN088AAXX  12004 82392 32496 30000 10242 20217 30058 40162 81230 333 10312 29073 55046 58010;EQDQ01  00002PRCP06
0186823920999992004061212004-03700-040350FM-12+008399999V0202301N000510450019N0500001N1+02581+02171101761ADDAA106000091GF106991021051004501031001KA1240N+02001MA1999999100721MD1999999+0121REMSYN076AAXX  12124 82392 32499 62301 10258 20217 30072 40176 82530 333 20200 58012;EQDQ01  00002PRCP06
0167823920999992004061218004-03700-040350FM-12+008399999V0203201N000510450019N0500001N1+02901+02221101421ADDAA106000091GF107991041061004501031001MA1999999100391MD1999999+0041REMSYN070AAXX  12184 82392 32499 73201 10290 20222 30039 40142 84630 333 58004;EQDQ01  00002PRCP06
0186823920999992004061312004-03700-040350FM-12+008399999V0200901N000512200019N0500001N1+02761+02191101631ADDAA106000091GF102991011021004501031001KA1240N+02201MA1999999100601MD1999999-0121REMSYN076AAXX  13124 82392 32499 20901 10276 20219 30060 40163 81230 333 20220 59012;EQDQ01  00002PRCP06
0167823920999992004061318004-03700-040350FM-12+008399999V0209999C000012200019N0500001N1+03241+01961101141ADDAA106000091GF104991031021004501031001MA1999999100121MD1999999-0271REMSYN070AAXX  13184 82392 32499 40000 10324 20196 30012 40114 83230 333 59027;EQDQ01  00002PRCP06
0208823920999992004061400004-03700-040350FM-12+008399999V0200501N001512200019N0040001N1+02481+02151101571ADDAA106000091GA1001+999999999GF100991001001999999001001KA1240M+03401MA1999999100541MD1999999-0101REMSYN082AAXX  14004 82392 32996 00503 10248 20215 30054 40157 333 10340 29070 55091 59010;EQDQ01  00002PRCP06
0171823920999992004061418004-03700-040350FM-12+008399999V0200501N001510042019N0500001N1+03201+02031101261ADDAY121061AY221061GF107991051051004501031001MA1999999100241MD1999999+0121MW1621REMSYN082AAXX  14184 82392 21499 70503 10320 20203 30024 40126 76222 85530 333 58012 60021;
0136823920999992004061500004-03700-040350FM-12+008399999V0202301N000512200019N0040001N1+02321+99999999999ADDGF102991999999008001999999REMSYN098AAXX  15004 82392 21596 22301 10232 220 30056 40160 70255 82010 333 10327 29078 55073 58002 69941;
0167823920999992004061518004-03700-040350FM-12+008399999V0200501N001510450019N0500001N1+03041+01941101301ADDAA106000091GF107991041051004501031001MA1999999100281MD1999999+0041REMSYN070AAXX  15184 82392 32499 70503 10304 20194 30028 40130 84530 333 58004;EQDQ01  00002PRCP06
0208823920999992004061600004-03700-040350FM-12+008399999V0200501N001012200019N0040001N1+02401+02131101691ADDAA106000091GA1001+999999999GF100991001001999999001001KA1240M+03161MA1999999100651MD1999999+0091REMSYN082AAXX  16004 82392 32996 00502 10240 20213 30065 40169 333 10316 29078 55031 58009;EQDQ01  00002PRCP06
0186823920999992004061612004-03700-040350FM-12+008399999V0201401N002110450019N0500001N1+02701+02131101591ADDAA106000091GF105991041021004501031001KA1240N+02111MA1999999100561MD1999999-0121REMSYN076AAXX  16124 82392 32499 51404 10270 20213 30056 40159 84230 333 20211 59012;EQDQ01  00002PRCP06
0167823920999992004061618004-03700-040350FM-12+008399999V0200901N002612200019N0500001N1+03381+01791101171ADDAA106000091GF104991041021004501001001MA1999999100151MD1999999-0131REMSYN070AAXX  16184 82392 32499 40905 10338 20179 30015 40117 84200 333 59013;EQDQ01  00002PRCP06
0198823920999992004061700004-03700-040350FM-12+008399999V0203601N000512200019N0040001N1+02491+02151101391ADDAA106000091GF101991011011004501001001KA1240M+03371MA1999999100371MD1999999-0281REMSYN088AAXX  17004 82392 32496 13601 10249 20215 30037 40139 81100 333 10337 29068 55094 59028;EQDQ01  00002PRCP06
0167823920999992004061718004-03700-040350FM-12+008399999V0201401N001012200019N0500001N1+03281+02261101171ADDAA106000091GF103991031021004501001001MA1999999100151MD1999999+0001REMSYN070AAXX  17184 82392 32499 31402 10328 20226 30015 40117 83200 333 58000;EQDQ01  00002PRCP06
0198823920999992004061800004-03700-040350FM-12+008399999V0209999C000012200019N0040001N1+02541+02401101481ADDAA106000091GF103991031001004501031001KA1240M+03301MA1999999100451MD1999999+0081REMSYN088AAXX  18004 82392 32496 30000 10254 20240 30045 40148 83030 333 10330 29077 55089 58008;EQDQ01  00002PRCP06
0186823920999992004061812004-03700-040350FM-12+008399999V0201801N002110450019N0500001N1+02501+02291101721ADDAA106000091GF106991041041004501031001KA1240N+02291MA1999999100681MD1999999+0171REMSYN076AAXX  18124 82392 32499 61804 10250 20229 30068 40172 84430 333 20229 58017;EQDQ01  00002PRCP06
0171823920999992004061818004-03700-040350FM-12+008399999V0200501N000510042019N0500001N1+02681+02261101431ADDAY161061AY261061GF108991051051004501031999MA1999999100401MD1999999+0251MW1021REMSYN082AAXX  18184 82392 21499 80501 10268 20226 30040 40143 70266 8553/ 333 58025 60101;
0198823920999992004061900004-03700-040350FM-12+008399999V0209999C000010450019N0040001N1+02341+02311101721ADDAA106000091GF106991041051004501031001KA1240M+02981MA1999999100681MD1999999+0231REMSYN088AAXX  19004 82392 32496 60000 10234 20231 30068 40172 84530 333 10298 29090 55016 58023;EQDQ01  00002PRCP06
0171823920999992004061918004-03700-040350FM-12+008399999V0200901N001512200019N0500001N1+03121+01951101361ADDAY121061AY261061GF103991031021004501001001MA1999999100341MD1999999-0061MW1021REMSYN082AAXX  19184 82392 21499 30903 10312 20195 30034 40136 70226 83200 333 59006 69961;
0190823920999992004062012004-03700-040350FM-12+008399999V0201801N000510450019N0500001N1+02521+02251101651ADDAY161061AY261061GF106991041041004501031001KA1240N+02161MA1999999100611MD1999999-0191MW1021REMSYN088AAXX  20124 82392 21499 61801 10252 20225 30061 40165 70266 84430 333 20216 59019 60024;
0167823920999992004062018004-03700-040350FM-12+008399999V0200901N000510450019N0500001N1+03171+01841101221ADDAA106000091GF106991031031004501031001MA1999999100201MD1999999+0141REMSYN070AAXX  20184 82392 32499 60901 10317 20184 30020 40122 83330 333 58014;EQDQ01  00002PRCP06
0198823920999992004062100004-03700-040350FM-12+008399999V0209999C000010450019N0500001N1+02561+02291101551ADDAA106000091GF106991021031004501031001KA1240M+03221MA1999999100511MD1999999-0151REMSYN088AAXX  21004 82392 32499 60000 10256 20229 30051 40155 82330 333 10322 29075 55082 59015;EQDQ01  00002PRCP06
0186823920999992004062112004-03700-040350FM-12+008399999V0202301N002110042019N0500001N1+02561+02111101611ADDAA106000091GF107991051051004501031001KA1240N+02241MA1999999100581MD1999999-0031REMSYN076AAXX  21124 82392 32499 72304 10256 20211 30058 40161 85530 333 20224 59003;EQDQ01  00002PRCP06
0171823920999992004062118004-03700-040350FM-12+008399999V0209999C000012200019N0500001N1+02681+02201101301ADDAY121061AY221061GF103991031011004501001001MA1999999100271MD1999999+0071MW1211REMSYN082AAXX  21184 82392 21499 30000 10268 20220 30027 40130 72122 83100 333 58007 69941;
0202823920999992004062200004-03700-040350FM-12+008399999V0209999C000010042019N0040001N1+02271+02231101531ADDAY161061AY261061GF108991081051004501999999KA1240M+03001MA1999999100491MD1999999-0021MW1021REMSYN100AAXX  22004 82392 21496 80000 10227 20223 30049 40153 70266 885// 333 10300 29086 55040 59002 60021;
0190823920999992004062212004-03700-040350FM-12+008399999V0203201N000510042019N0500001N1+02321+02291101741ADDAY161061AY261061GF108991051061004501021999KA1240N+02201MA1999999100701MD1999999+0121MW1611REMSYN088AAXX  22124 82392 21499 83201 10232 20229 30070 40174 76166 8562/ 333 20220 58012 60074;
0171823920999992004062218004-03700-040350FM-12+008399999V0209999C000010450019N0500001N1+02741+02141101401ADDAY151061AY251061GF106991041051004501031001MA1999999100371MD1999999+0101MW1021REMSYN082AAXX  22184 82392 21499 60000 10274 20214 30037 40140 70255 84530 333 58010 69961;
0198823920999992004062300004-03700-040350FM-12+008399999V0209999C000012200019N0040001N1+02381+02151101591ADDAA106000091GF102991011011004501031001KA1240M+02901MA1999999100551MD1999999+0061REMSYN088AAXX  23004 82392 32496 20000 10238 20215 30055 40159 81130 333 10290 29086 55011 58006;EQDQ01  00002PRCP06
0162823920999992004062312004-03700-040350FM-12+008399999V0202301N001512200019N0500001N1+02581+02101101671ADDGF101991011011004501001001KA1240N+02001MA1999999100631MD1999999-0071REMSYN082AAXX  23124 82392 22499 12303 10258 20210 30063 40167 81100 333 20200 59007 69964;
0202823920999992004062412004-03700-040350FM-12+008399999V0200901N001019999999N0500001N1+02661+02091101571ADDAA106000091GF105991999021004501001001KA1240N+02021MA1999999100541MD1999999-0091REMSYN076AAXX  24124 82392 32499 50902 10266 20209 30054 40157 83200 333 20202 59009;EQDQ01+000032SCOTLCQ02  00002PRCP06
0183823920999992004062418004-03700-040350FM-12+008399999V0209999C000019999999N0500001N1+03261+01961101121ADDAA106000091GF105991999021004501001001MA1999999100101MD1999999-0201REMSYN070AAXX  24184 82392 32499 50000 10326 20196 30010 40112 83200 333 59020;EQDQ01+000032SCOTLCQ02  00002PRCP06
0198823920999992004062500004-03700-040350FM-12+008399999V0200501N001012200019N0040001N1+02421+02151101541ADDAA106000091GF101991011001008001031001KA1240M+03361MA1999999100501MD1999999-0021REMSYN088AAXX  25004 82392 32596 10502 10242 20215 30050 40154 81030 333 10336 29072 55082 59002;EQDQ01  00002PRCP06
0183823920999992004062518004-03700-040350FM-12+008399999V0200501N001019999999N0500001N1+03311+01851101031ADDAA106000091GF105991999021004501001001MA1999999100011MD1999999-0091REMSYN070AAXX  25184 82392 32499 50502 10331 20185 30001 40103 83200 333 59009;EQDQ01+000032SCOTLCQ02  00002PRCP06
0186823920999992004062612004-03700-040350FM-12+008399999V0200901N001010450019N0500001N1+02761+02231101491ADDAA106000091GF105991031021004501031001KA1240N+02041MA1999999100461MD1999999-0041REMSYN076AAXX  26124 82392 32499 50902 10276 20223 30046 40149 83230 333 20204 59004;EQDQ01  00002PRCP06
0221823920999992004062700004-03700-040350FM-12+008399999V0203601N001010042019N0040001N1+02461+02321101411ADDAY161061AY261061GF108991999021004501001001KA1240M+03301MA1999999100391MD1999999+0041MW1021REMSYN100AAXX  27004 82392 21496 83602 10246 20232 30039 40141 70266 86200 333 10330 29079 55071 58004 60021;EQDQ01+000062SCOTLC
0167823920999992004062718004-03700-040350FM-12+008399999V0201401N001012200019N0500001N1+03121+01951101141ADDAA106000091GF104991041021004501001001MA1999999100121MD1999999+0091REMSYN070AAXX  27184 82392 32499 41402 10312 20195 30012 40114 84200 333 58009;EQDQ01  00002PRCP06
0198823920999992004062800004-03700-040350FM-12+008399999V0200501N002110450019N0040001N1+02421+02211101501ADDAA106000091GF108991041061004501021999KA1240M+03141MA1999999100461MD1999999+0071REMSYN088AAXX  28004 82392 32496 80504 10242 20221 30046 40150 8462/ 333 10314 29079 55048 58007;EQDQ01  00002PRCP06
0190823920999992004062812004-03700-040350FM-12+008399999V0203601N001010450019N0200001N1+02281+02261101601ADDAY161061AY221061GF108991031061004501021999KA1240N+02201MA1999999100561MD1999999+0021MW1201REMSYN088AAXX  28124 82392 21498 83602 10228 20226 30056 40160 72062 8362/ 333 20220 58002 60014;
0171823920999992004062818004-03700-040350FM-12+008399999V0202301N000510450019N0500001N1+02541+02211101251ADDAY161061AY261061GF106991041051004501031001MA1999999100221MD1999999+0101MW1021REMSYN082AAXX  28184 82392 21499 62301 10254 20221 30022 40125 70266 84530 333 58010 60111;
0198823920999992004062900004-03700-040350FM-12+008399999V0209999C000012200019N0040001N1+02241+02101101371ADDAA106000091GF101991011001008001031001KA1240M+02631MA1999999100341MD1999999-0121REMSYN088AAXX  29004 82392 32596 10000 10224 20210 30034 40137 81030 333 10263 29091 55005 59012;EQDQ01  00002PRCP06
0162823920999992004062912004-03700-040350FM-12+008399999V0201401N001512200019N0500001N1+02521+02151101561ADDGF104991041021004501001001KA1240N+02091MA1999999100521MD1999999-0041REMSYN082AAXX  29124 82392 22499 41403 10252 20215 30052 40156 84200 333 20209 59004 60114;
0167823920999992004062918004-03700-040350FM-12+008399999V0200901N002110450019N0500001N1+02961+01811101221ADDAA106000091GF108991031071004501021999MA1999999100201MD1999999-0021REMSYN070AAXX  29184 82392 32499 80904 10296 20181 30020 40122 8372/ 333 59002;EQDQ01  00002PRCP06
0198823920999992004063000004-03700-040350FM-12+008399999V0200501N000512200019N0040001N1+02421+02111101371ADDAA106000091GF102991021001008001031001KA1240M+03121MA1999999100341MD1999999+0001REMSYN088AAXX  30004 82392 32596 20501 10242 20211 30034 40137 82030 333 10312 29074 55057 58000;EQDQ01  00002PRCP06
0186823920999992004063012004-03700-040350FM-12+008399999V0200901N000512200019N0500001N1+02681+02091101431ADDAA106000091GF101991011001004501031001KA1240N+02001MA1999999100411MD1999999-0111REMSYN076AAXX  30124 82392 32499 10901 10268 20209 30041 40143 81030 333 20200 59011;EQDQ01  00002PRCP06
0167823920999992004063018004-03700-040350FM-12+008399999V0200901N001010450019N0500001N1+03131+01971101061ADDAA106000091GF106991011011004501031001MA1999999100041MD1999999-0161REMSYN070AAXX  30184 82392 32499 60902 10313 20197 30004 40106 81130 333 59016;EQDQ01  00002PRCP06
0202823920999992004070100004-03700-040350FM-12+008399999V0203601N000510042019N0040001N1+02391+02241101381ADDAY151061AY251061GF108991051061004501011999KA1240M+03201MA1999999100351MD1999999+0011MW1021REMSYN100AAXX  01004 82392 21496 83601 10239 20224 30035 40138 70255 8561/ 333 10320 29076 55084 58001 69941;
0162823920999992004070112004-03700-040350FM-12+008399999V0201801N000510450019N0500001N1+02741+02171101491ADDGF106991031021004501031001KA1240N+02281MA1999999100461MD1999999+0051REMSYN082AAXX  01124 82392 22499 61801 10274 20217 30046 40149 83230 333 20228 58005 69944;
0198823920999992004070300004-03700-040350FM-12+008399999V0200501N002110450019N0040001N1+02461+02291101351ADDAA106000091GF106991041041004501031001KA1240M+03301MA1999999100321MD1999999-0011REMSYN088AAXX  03004 82392 32496 60504 10246 20229 30032 40135 84430 333 10330 29088 55021 59001;EQDQ01  00002PRCP06
0186823920999992004070312004-03700-040350FM-12+008399999V0201801N001012200019N0500001N1+02601+02191101351ADDAA106000091GF104991041021004501001001KA1240N+02021MA1999999100321MD1999999-0081REMSYN076AAXX  03124 82392 32499 41802 10260 20219 30032 40135 84200 333 20202 59008;EQDQ01  00002PRCP06
0190823920999992004070412004-03700-040350FM-12+008399999V0201801N000510450019N0500001N1+02461+02301101501ADDAY161061AY261061GF106991041041004501031001KA1240N+02261MA1999999100461MD1999999+0141MW1021REMSYN088AAXX  04124 82392 21499 61801 10246 20230 30046 40150 70266 84430 333 20226 58014 60084;
0186823920999992004070612004-03700-040350FM-12+008399999V0202301N001012200019N0500001N1+02601+02231101431ADDAA106000091GF101991011011004501001001KA1240N+02021MA1999999100401MD1999999-0081REMSYN076AAXX  06124 82392 32499 12302 10260 20223 30040 40143 81100 333 20202 59008;EQDQ01  00002PRCP06
0208823920999992004070700004-03700-040350FM-12+008399999V0203601N001012200019N0040001N1+02401+02271101211ADDAA106000091GA1001+999999999GF100991001001999999001001KA1240M+03701MA1999999100191MD1999999-0161REMSYN082AAXX  07004 82392 32996 03602 10240 20227 30019 40121 333 10370 29082 55097 59016;EQDQ01  00002PRCP06
0221823920999992004070800004-03700-040350FM-12+008399999V0203601N001512200019N0040001N1+03481+02231101131ADDAY161061AY261061GF101991011001008001031001KA1240M+99999MA1999999101111MD1999999-0081MW1021REMSYN100AAXX  08004 82392 21596 13603 10348 20223 30111 40113 70266 81030 333 10323 29083 55080 59008 60031;EQDQ01 +03232ATMX  
0162823920999992004070812004-03700-040350FM-12+008399999V0201401N000510450019N0500001N1+02711+02321101331ADDGF106991041021004501031001KA1240N+02221MA1999999100311MD1999999+0021REMSYN082AAXX  08124 82392 22499 61401 10271 20232 30031 40133 84230 333 20222 58002 60034;
0208823920999992004070900004-03700-040350FM-12+008399999V0203601N000512200019N0040001N1+02481+02231101221ADDAA106000091GA1001+999999999GF100991001001999999001001KA1240M+03401MA1999999100201MD1999999+0091REMSYN082AAXX  09004 82392 32996 03601 10248 20223 30020 40122 333 10340 29084 55076 58009;EQDQ01  00002PRCP06
0186823920999992004070912004-03700-040350FM-12+008399999V0200901N001010450019N0500001N1+02741+02211101371ADDAA106000091GF106991041021004501031001KA1240N+02041MA1999999100351MD1999999+0041REMSYN076AAXX  09124 82392 32499 60902 10274 20221 30035 40137 84230 333 20204 58004;EQDQ01  00002PRCP06
0162823920999992004071012004-03700-040350FM-12+008399999V0201401N000510450019N0500001N1+02621+02251101471ADDGF106991031021004501031001KA1240N+02041MA1999999100441MD1999999+0091REMSYN082AAXX  10124 82392 22499 61401 10262 20225 30044 40147 83230 333 20204 58009 60044;
0202823920999992004071100004-03700-040350FM-12+008399999V0200501N000512200019N0040001N1+02311+02221101281ADDAY161061AY261061GF102991021061004501001001KA1240M+03281MA1999999100251MD1999999+0001MW1021REMSYN100AAXX  11004 82392 21496 20501 10231 20222 30025 40128 70266 82600 333 10328 29089 55086 58000 60041;
0208823920999992004071200004-03700-040350FM-12+008399999V0200501N001012200019N0040001N1+02531+02211101171ADDAA106000091GA1001+999999999GF100991001001999999001001KA1240M+03361MA1999999100151MD1999999-0101REMSYN082AAXX  12004 82392 32596 00502 10253 20221 30015 40117 333 10336 29092 55085 59010;EQDQ01  00002PRCP06
0186823920999992004071212004-03700-040350FM-12+008399999V0200901N001510042019N0500001N1+02861+01981101261ADDAA106000091GF105991051021004501001001KA1240N+02061MA1999999100241MD1999999-0201REMSYN076AAXX  12124 82392 32499 50903 10286 20198 30024 40126 85200 333 20206 59020;EQDQ01  00002PRCP06
0208823920999992004071300004-03700-040350FM-12+008399999V0200501N000512200019N0040001N1+02421+02171101221ADDAA106000091GA1001+999999999GF100991001001999999001001KA1240M+03341MA1999999100201MD1999999+0051REMSYN082AAXX  13004 82392 32996 00501 10242 20217 30020 40122 333 10334 29077 55105 58005;EQDQ01  00002PRCP06
0186823920999992004071312004-03700-040350FM-12+008399999V0201801N000512200019N0500001N1+02521+02071101331ADDAA106000091GF101991011021004501001001KA1240N+01941MA1999999100301MD1999999+0061REMSYN076AAXX  13124 82392 32499 11801 10252 20207 30030 40133 81200 333 20194 58006;EQDQ01  00002PRCP06
0208823920999992004071500004-03700-040350FM-12+008399999V0200901N000512200019N0040001N1+02511+02131101311ADDAA106000091GA1001+999999999GF100991001001999999001001KA1240M+03281MA1999999100291MD1999999+0161REMSYN082AAXX  15004 82392 32996 00901 10251 20213 30029 40131 333 10328 29074 55085 58016;EQDQ01  00002PRCP06
0186823920999992004071512004-03700-040350FM-12+008399999V0200901N000512200019N0500001N1+02801+02151101451ADDAA106000091GF104991041021004501001001KA1240N+02181MA1999999100431MD1999999+0071REMSYN076AAXX  15124 82392 32499 40901 10280 20215 30043 40145 84200 333 20218 58007;EQDQ01  00002PRCP06
0198823920999992004071600004-03700-040350FM-12+008399999V0209999C000019999999N0040001N1+02521+02131101361ADDAA106000091GF105991051001008001031001KA1240M+03161MA1999999100341MD1999999+0051REMSYN088AAXX  16004 82392 32596 50000 10252 20213 30034 40136 85030 333 10316 29075 55059 58005;EQDQ01  00002PRCP06
0221823920999992004071700004-03700-040350FM-12+008399999V0200501N000519999999N0040001N1+02271+02231101421ADDAY161061AY261061GF108991999021004501001001KA1240M+03281MA1999999100391MD1999999+0051MW1211REMSYN100AAXX  17004 82392 21496 80501 10227 20223 30039 40142 72166 83200 333 10328 29090 55056 58005 60171;EQDQ01+000032SCOTLC
0190823920999992004071712004-03700-040350FM-12+008399999V0201401N000510042019N0500001N1+02341+02271101621ADDAY161061AY261061GF108991081051004501999999KA1240N+02281MA1999999100581MD1999999+0121MW1511REMSYN088AAXX  17124 82392 21499 81401 10234 20227 30058 40162 75166 885// 333 20228 58012 60254;
0198823920999992004071800004-03700-040350FM-12+008399999V0209999C000010450019N0040001N1+02441+02211101401ADDAA106000091GF106991011021004501031001KA1240M+03021MA1999999100371MD1999999-0021REMSYN088AAXX  18004 82392 32496 60000 10244 20221 30037 40140 81230 333 10302 29090 55021 59002;EQDQ01  00002PRCP06
0186823920999992004071812004-03700-040350FM-12+008399999V0200501N000510450019N0500001N1+02641+02181101591ADDAA106000091GF106991041041004501031001KA1240N+02221MA1999999100551MD1999999-0031REMSYN076AAXX  18124 82392 32499 60501 10264 20218 30055 40159 84430 333 20222 59003;EQDQ01  00002PRCP06
0186823920999992004071912004-03700-040350FM-12+008399999V0200901N001010450019N0500001N1+02621+02291101581ADDAA106000091GF106991041041004501031001KA1240N+02121MA1999999100541MD1999999-0011REMSYN076AAXX  19124 82392 32499 60902 10262 20229 30054 40158 84430 333 20212 59001;EQDQ01  00002PRCP06
0198823920999992004072000004-03700-040350FM-12+008399999V0203601N000512200019N0040001N1+02601+02331101391ADDAA106000091GF102991021001008001031001KA1240M+03381MA1999999100371MD1999999-0011REMSYN088AAXX  20004 82392 32596 23601 10260 20233 30037 40139 82030 333 10338 29084 55092 59001;EQDQ01  00002PRCP06
0186823920999992004072012004-03700-040350FM-12+008399999V0200901N000510042019N0500001N1+02601+02331101551ADDAA106000091GF105991051021004501001001KA1240N+02221MA1999999100521MD1999999-0021REMSYN076AAXX  20124 82392 32499 50901 10260 20233 30052 40155 85200 333 20222 59002;EQDQ01  00002PRCP06
0208823920999992004072100004-03700-040350FM-12+008399999V0203601N001012200019N0040001N1+02531+02271101281ADDAA106000091GA1001+999999999GF100991001001999999001001KA1240M+03381MA1999999100261MD1999999-0111REMSYN082AAXX  21004 82392 32996 03602 10253 20227 30026 40128 333 10338 29081 55103 59011;EQDQ01  00002PRCP06
0186823920999992004072112004-03700-040350FM-12+008399999V0209999C000012200019N0500001N1+02661+02271101401ADDAA106000091GF104991021021004501031001KA1240N+02141MA1999999100381MD1999999-0141REMSYN076AAXX  21124 82392 32499 40000 10266 20227 30038 40140 82230 333 20214 59014;EQDQ01  00002PRCP06
0177823920999992004072200004-03700-040350FM-12+008399999V0203601N001012200019N0040001N1+02541+99999999999ADDAA106000091GA1001+999999999GF100991001001999999001001KA1240M+03441REMSYN080AAXX  22004 82392 32996 03602 10254 231 30011 40113 333 10344 29084 55100 59015;EQDQ01  00002PRCP06
0186823920999992004072212004-03700-040350FM-12+008399999V0201801N000510450019N0500001N1+02721+02281101341ADDAA106000091GF105991031021004501031001KA1240N+02241MA1999999100321MD1999999-0061REMSYN076AAXX  22124 82392 32499 51801 10272 20228 30032 40134 83230 333 20224 59006;EQDQ01  00002PRCP06
0198823920999992004072300004-03700-040350FM-12+008399999V0200501N000512200019N0040001N1+03491+02331101181ADDAA106000091GF101991011001008001031001KA1240M+03491MA1999999100161MD1999999+0051REMSYN088AAXX  23004 82392 32596 10501 10349 20233 30016 40118 81030 333 10349 29083 55103 58005;EQDQ01  00002PRCP06
0198823920999992004072400004-03700-040350FM-12+008399999V0203601N000510450019N0040001N1+02681+01991101341ADDAA106000091GF106991021021004501031001KA1240M+03421MA1999999100321MD1999999+0161REMSYN088AAXX  24004 82392 32496 63601 10268 20199 30032 40134 82230 333 10342 29066 55096 58016;EQDQ01  00002PRCP06
0186823920999992004072412004-03700-040350FM-12+008399999V0201801N001512200019N0500001N1+02681+01761101611ADDAA106000091GF102991011021004501031001KA1240N+02081MA1999999100581MD1999999+0141REMSYN076AAXX  24124 82392 32499 21803 10268 20176 30058 40161 81230 333 20208 58014;EQDQ01  00002PRCP06
0214823920999992004072500004-03700-040350FM-12+008399999V0209999C000012200019N0040001N1+02641+01771101441ADDAA106000091GF101991999021008001001001KA1240M+03481MA1999999100421MD1999999+0101REMSYN088AAXX  25004 82392 32596 10000 10264 20177 30042 40144 83200 333 10348 29058 55099 58010;EQDQ01+000032SCOTLCQ02  00002PRCP06
0186823920999992004072512004-03700-040350FM-12+008399999V0201801N001012200019N0500001N1+02721+01881101581ADDAA106000091GF103991021021004501031001KA1240N+01971MA1999999100551MD1999999-0031REMSYN076AAXX  25124 82392 32499 31802 10272 20188 30055 40158 82230 333 20197 59003;EQDQ01  00002PRCP06
0198823920999992004072600004-03700-040350FM-12+008399999V0209999C000010450019N0040001N1+02531+02131101411ADDAA106000091GF106991031051004501031001KA1240M+03201MA1999999100391MD1999999-0031REMSYN088AAXX  26004 82392 32496 60000 10253 20213 30039 40141 83530 333 10320 29072 55087 59003;EQDQ01  00002PRCP06
0198823920999992004072700004-03700-040350FM-12+008399999V0209999C000010450019N0040001N1+02731+02021101461ADDAA106000091GF106991021021004501031001KA1240M+03241MA1999999100441MD1999999+0051REMSYN088AAXX  27004 82392 32496 60000 10273 20202 30044 40146 82230 333 10324 29065 55078 58005;EQDQ01  00002PRCP06
0186823920999992004072712004-03700-040350FM-12+008399999V0201801N000510450019N0500001N1+02641+01981101641ADDAA106000091GF107991021021004501031001KA1240N+02421MA1999999100611MD1999999+0111REMSYN076AAXX  27124 82392 32499 71801 10264 20198 30061 40164 82230 333 20242 58011;EQDQ01  00002PRCP06
0186823920999992004072812004-03700-040350FM-12+008399999V0201801N001012200019N0500001N1+02781+01791101491ADDAA106000091GF102991011011004501031001KA1240N+01981MA1999999100461MD1999999-0151REMSYN076AAXX  28124 82392 32499 21802 10278 20179 30046 40149 81130 333 20198 59015;EQDQ01  00002PRCP06
0186823920999992004072912004-03700-040350FM-12+008399999V0201801N000510450019N0500001N1+02741+02071101531ADDAA106000091GF106991031041004501031001KA1240N+02141MA1999999100501MD1999999+0041REMSYN076AAXX  29124 82392 32499 61801 10274 20207 30050 40153 83430 333 20214 58004;EQDQ01  00002PRCP06
0198823920999992004073000004-03700-040350FM-12+008399999V0209999C000012200019N0040001N1+02581+02011101431ADDAA106000091GF104991041001008001031001KA1240M+03021MA1999999100411MD1999999+0021REMSYN088AAXX  30004 82392 32596 40000 10258 20201 30041 40143 84030 333 10302 29070 55018 58002;EQDQ01  00002PRCP06
0186823920999992004073012004-03700-040350FM-12+008399999V0201801N001012200019N0500001N1+02781+01911101651ADDAA106000091GF102991011011004501031001KA1240N+02131MA1999999100621MD1999999+0121REMSYN076AAXX  30124 82392 32499 21802 10278 20191 30062 40165 81130 333 20213 58012;EQDQ01  00002PRCP06
0208823920999992004073100004-03700-040350FM-12+008399999V0203601N000512200019N0040001N1+02461+01921101551ADDAA106000091GA1001+999999999GF100991001001999999001001KA1240M+03401MA1999999100521MD1999999+0111REMSYN082AAXX  31004 82392 32996 03601 10246 20192 30052 40155 333 10340 29068 55102 58011;EQDQ01  00002PRCP06
0186823920999992004073112004-03700-040350FM-12+008399999V0200501N000512200019N0500001N1+02761+01991101641ADDAA106000091GF103991031021004501001001KA1240N+01801MA1999999100611MD1999999-0011REMSYN076AAXX  31124 82392 32499 30501 10276 20199 30061 40164 83200 333 20180 59001;EQDQ01  00002PRCP06
0167823920999992004073118004-03700-040350FM-12+008399999V0200901N001012200019N0500001N1+03401+01401101171ADDAA106000091GF103991031021004501001001MA1999999100151MD1999999-0101REMSYN070AAXX  31184 82392 32499 30902 10340 20140 30015 40117 83200 333 59010;EQDQ01  00002PRCP06
0208823920999992004080100004-03700-040350FM-12+008399999V0200501N001012200019N0040001N1+02481+02191101431ADDAA106000091GA1001+999999999GF100991001001999999001001KA1240M+03531MA1999999100411MD1999999-0111REMSYN082AAXX  01004 82392 32596 00502 10248 20219 30041 40143 333 10353 29062 55100 59011;EQDQ01  00002PRCP06
0186823920999992004080112004-03700-040350FM-12+008399999V0201401N001010450019N0500001N1+02741+02121101601ADDAA106000091GF105991031021004501031001KA1240N+02071MA1999999100571MD1999999-0061REMSYN076AAXX  01124 82392 32499 51402 10274 20212 30057 40160 83230 333 20207 59006;EQDQ01  00002PRCP06
0167823920999992004080118004-03700-040350FM-12+008399999V0200901N001010042019N0500001N1+03341+01711101091ADDAA106000091GF106991061021004501001001MA1999999100071MD1999999-0081REMSYN070AAXX  01184 82392 32499 60902 10334 20171 30007 40109 86200 333 59008;EQDQ01  00002PRCP06
0208823920999992004080200004-03700-040350FM-12+008399999V0203601N000512200019N0040001N1+02541+02171101401ADDAA106000091GA1001+999999999GF100991001001999999001001KA1240M+03441MA1999999100381MD1999999-0031REMSYN082AAXX  02004 82392 32996 03601 10254 20217 30038 40140 333 10344 29067 55095 59003;EQDQ01  00002PRCP06
0208823920999992004080300004-03700-040350FM-12+008399999V0200501N000512200019N0040001N1+02491+01961101381ADDAA106000091GA1001+999999999GF100991001001999999001001KA1240M+03441MA1999999100361MD1999999-0021REMSYN082AAXX  03004 82392 32996 00501 10249 20196 30036 40138 333 10344 29061 55092 59002;EQDQ01  00002PRCP06
0186823920999992004080312004-03700-040350FM-12+008399999V0200901N002112200019N0500001N1+02741+01951101621ADDAA106000091GF102991021011004501001001KA1240N+01941MA1999999100591MD1999999-0021REMSYN076AAXX  03124 82392 32499 20904 10274 20195 30059 40162 82100 333 20194 59002;EQDQ01  00002PRCP06
0208823920999992004080400004-03700-040350FM-12+008399999V0203601N001512200019N0040001N1+02511+02071101391ADDAA106000091GA1001+999999999GF100991001001999999001001KA1240M+03491MA1999999100731MD1999999+0011REMSYN082AAXX  04004 82392 32996 03603 10251 20207 30073 40139 333 10349 29061 55107 58001;EQDQ01  00002PRCP06
0186823920999992004080412004-03700-040350FM-12+008399999V0201401N001510450019N0500001N1+02681+01841101631ADDAA106000091GF106991041021004501031001KA1240N+02081MA1999999100601MD1999999+0011REMSYN076AAXX  04124 82392 32499 61403 10268 20184 30060 40163 84230 333 20208 58001;EQDQ01  00002PRCP06
0208823920999992004080500004-03700-040350FM-12+008399999V0203601N000512200019N0040001N1+02481+01961101381ADDAA106000091GA1001+999999999GF100991001001999999001001KA1240M+03521MA1999999100361MD1999999-0011REMSYN082AAXX  05004 82392 32996 03601 10248 20196 30036 40138 333 10352 29060 55085 59001;EQDQ01  00002PRCP06
0167823920999992004080518004-03700-040350FM-12+008399999V0201801N000512200019N0500001N1+03371+01571101061ADDAA106000091GF104991041021004501001001MA1999999100041MD1999999-0081REMSYN070AAXX  05184 82392 32499 41801 10337 20157 30004 40106 84200 333 59008;EQDQ01  00002PRCP06
0198823920999992004080600004-03700-040350FM-12+008399999V0203601N000510450019N0040001N1+02631+01981101341ADDAA106000091GF106991021021004501031001KA1240M+03571MA1999999100321MD1999999-0041REMSYN088AAXX  06004 82392 32496 63601 10263 20198 30032 40134 82230 333 10357 29059 55057 59004;EQDQ01  00002PRCP06
0167823920999992004080618004-03700-040350FM-12+008399999V0200901N001010450019N0500001N1+03291+01641101141ADDAA106000091GF107991041051004501031001MA1999999100121MD1999999+0081REMSYN070AAXX  06184 82392 32499 70902 10329 20164 30012 40114 84530 333 58008;EQDQ01  00002PRCP06
0198823920999992004080700004-03700-040350FM-12+008399999V0200901N002112200019N0040001N1+02821+01911101501ADDAA106000091GF104991041051004501001001KA1240M+03421MA1999999100471MD1999999+0151REMSYN088AAXX  07004 82392 32496 40904 10282 20191 30047 40150 84500 333 10342 29053 55065 58015;EQDQ01  00002PRCP06
0186823920999992004080712004-03700-040350FM-12+008399999V0200501N000510450019N0500001N1+02791+01951101751ADDAA106000091GF106991031051004501031001KA1240N+02181MA1999999100721MD1999999+0241REMSYN076AAXX  07124 82392 32499 60501 10279 20195 30072 40175 83530 333 20218 58024;EQDQ01  00002PRCP06
0167823920999992004080718004-03700-040350FM-12+008399999V0200901N001010450019N0500001N1+03291+01641101301ADDAA106000091GF106991041021004501031001MA1999999100281MD1999999+0161REMSYN070AAXX  07184 82392 32499 60902 10329 20164 30028 40130 84230 333 58016;EQDQ01  00002PRCP06
0198823920999992004080800004-03700-040350FM-12+008399999V0200501N001012200019N0040001N1+02561+02061101661ADDAA106000091GF102991021021004501001001KA1240M+03421MA1999999100631MD1999999+0161REMSYN088AAXX  08004 82392 32496 20502 10256 20206 30063 40166 82200 333 10342 29061 55085 58016;EQDQ01  00002PRCP06
0183823920999992004080818004-03700-040350FM-12+008399999V0200901N001012200019N0500001N1+03481+01471101221ADDAA106000091GF104991999011017501001001MA1999999100201MD1999999-0081REMSYN070AAXX  08184 82392 32799 40902 10348 20147 30020 40122 82100 333 59008;EQDQ01+000022SCOTLCQ02  00002PRCP06
0208823920999992004080900004-03700-040350FM-12+008399999V0200501N001512200019N0040001N1+02561+01951101451ADDAA106000091GA1001+999999999GF100991001001999999001001KA1240M+03531MA1999999100431MD1999999-0201REMSYN082AAXX  09004 82392 32996 00503 10256 20195 30043 40145 333 10353 29056 55078 59020;EQDQ01  00002PRCP06
0186823920999992004080912004-03700-040350FM-12+008399999V0200901N001510042019N0500001N1+02841+02121101631ADDAA106000091GF107991051041004501031001KA1240N+02121MA1999999100601MD1999999-0051REMSYN076AAXX  09124 82392 32499 70903 10284 20212 30060 40163 85430 333 20212 59005;EQDQ01  00002PRCP06
0167823920999992004080918004-03700-040350FM-12+008399999V0200901N002110450019N0500001N1+03501+01771101141ADDAA106000091GF105991041021004501031001MA1999999100121MD1999999-0081REMSYN070AAXX  09184 82392 32499 50904 10350 20177 30012 40114 84230 333 59008;EQDQ01  00002PRCP06
0208823920999992004081000004-03700-040350FM-12+008399999V0200501N000512200019N0040001N1+02661+02161101451ADDAA106000091GA1001+999999999GF100991001001999999001001KA1240M+03631MA1999999100431MD1999999+0001REMSYN082AAXX  10004 82392 32996 00501 10266 20216 30043 40145 333 10363 29062 55087 58000;EQDQ01  00002PRCP06
0167823920999992004081018004-03700-040350FM-12+008399999V0201401N001510450019N0500001N1+03491+01481101101ADDAA106000091GF106991021021004501031001MA1999999100091MD1999999-0031REMSYN070AAXX  10184 82392 32499 61403 10349 20148 30009 40110 82230 333 59003;EQDQ01  00002PRCP06
0186823920999992004081112004-03700-040350FM-12+008399999V0201401N001010450019N0500001N1+02781+01991101731ADDAA106000091GF105991041021004501031001KA1240N+02101MA1999999100701MD1999999+0101REMSYN076AAXX  11124 82392 32499 51402 10278 20199 30070 40173 84230 333 20210 58010;EQDQ01  00002PRCP06
0167823920999992004081118004-03700-040350FM-12+008399999V0200501N001012200019N0500001N1+03481+01361101221ADDAA106000091GF104991041021004501001001MA1999999100201MD1999999+0111REMSYN070AAXX  11184 82392 32499 40502 10348 20136 30020 40122 84200 333 58011;EQDQ01  00002PRCP06
0198823920999992004081200004-03700-040350FM-12+008399999V0201401N000512200019N0040001N1+02771+01581101461ADDAA106000091GF102991021011004501001001KA1240M+03511MA1999999100441MD1999999-0081REMSYN088AAXX  12004 82392 32496 21401 10277 20158 30044 40146 82100 333 10351 29046 55095 59008;EQDQ01  00002PRCP06
0167823920999992004081218004-03700-040350FM-12+008399999V0200901N000510042019N0500001N1+03271+01491101251ADDAA106000091GF107991051051004501031001MA1999999100231MD1999999+0031REMSYN070AAXX  12184 82392 32499 70901 10327 20149 30023 40125 85530 333 58003;EQDQ01  00002PRCP06
0198823920999992004081300004-03700-040350FM-12+008399999V0200501N002612200019N0500001N1+02681+02091101591ADDAA106000091GF102991021001004501031001KA1240M+03381MA1999999100561MD1999999+0121REMSYN088AAXX  13004 82392 32499 20505 10268 20209 30056 40159 82030 333 10338 29057 55053 58012;EQDQ01  00002PRCP06
0186823920999992004081312004-03700-040350FM-12+008399999V0201401N001010042019N0500001N1+02681+01971101731ADDAA106000091GF106991051041004501031001KA1240N+02171MA1999999100701MD1999999-0011REMSYN076AAXX  13124 82392 32499 61402 10268 20197 30070 40173 85430 333 20217 59001;EQDQ01  00002PRCP06
0167823920999992004081318004-03700-040350FM-12+008399999V0201801N000512200019N0500001N1+03561+01531101121ADDAA106000091GF102991021011004501001001MA1999999100111MD1999999-0121REMSYN070AAXX  13184 82392 32499 21801 10356 20153 30011 40112 82100 333 59012;EQDQ01  00002PRCP06
0202823920999992004081400004-03700-040350FM-12+008399999V0203601N001012200019N0040001N1+02601+02191101421ADDAY151061AY251061GF102991021001008001031001KA1240M+03701MA1999999100401MD1999999-0161MW1021REMSYN100AAXX  14004 82392 21596 23602 10260 20219 30040 40142 70255 82030 333 10370 29063 55073 59016 69931;
0167823920999992004081418004-03700-040350FM-12+008399999V0200501N001512200019N0500001N1+03421+01411101211ADDAA106000091GF104991031021004501031001MA1999999100201MD1999999+0091REMSYN070AAXX  14184 82392 32499 40503 10342 20141 30020 40121 83230 333 58009;EQDQ01  00002PRCP06
0208823920999992004081500004-03700-040350FM-12+008399999V0200501N007712200019N0040001N1+02601+01761101571ADDAA106000091GA1001+999999999GF100991001001999999001001KA1240M+03621MA1999999100541MD1999999+0141REMSYN082AAXX  15004 82392 32996 00515 10260 20176 30054 40157 333 10362 29050 55099 58014;EQDQ01  00002PRCP06
0186823920999992004081512004-03700-040350FM-12+008399999V0201401N000510450019N0500001N1+02711+02081101701ADDAA106000091GF106991031021004501031001KA1240N+02181MA1999999100671MD1999999+0021REMSYN076AAXX  15124 82392 32499 61401 10271 20208 30067 40170 83230 333 20218 58002;EQDQ01  00002PRCP06
0167823920999992004081518004-03700-040350FM-12+008399999V0200901N001010450019N0500001N1+03241+01671101251ADDAA106000091GF107991041051004501021001MA1999999100231MD1999999+0031REMSYN070AAXX  15184 82392 32499 70902 10324 20167 30023 40125 84520 333 58003;EQDQ01  00002PRCP06
0198823920999992004081600004-03700-040350FM-12+008399999V0200501N000510450019N0040001N1+02761+01891101511ADDAA106000091GF105991021021004501031001KA1240M+03241MA1999999100481MD1999999-0061REMSYN088AAXX  16004 82392 32496 50501 10276 20189 30048 40151 82230 333 10324 29056 55036 59006;EQDQ01  00002PRCP06
0186823920999992004081612004-03700-040350FM-12+008399999V0201401N002112200019N0500001N1+02761+01891101661ADDAA106000091GF104991041021004501001001KA1240N+02191MA1999999100631MD1999999-0041REMSYN076AAXX  16124 82392 32499 41404 10276 20189 30063 40166 84200 333 20219 59004;EQDQ01  00002PRCP06
0167823920999992004081618004-03700-040350FM-12+008399999V0200901N002612200019N0500001N1+03401+01591101111ADDAA106000091GF103991031021004501001001MA1999999100101MD1999999-0131REMSYN070AAXX  16184 82392 32499 30905 10340 20159 30010 40111 83200 333 59013;EQDQ01  00002PRCP06
0198823920999992004081700004-03700-040350FM-12+008399999V0203601N001012200019N0040001N1+02621+02141101351ADDAA106000091GF101991011011004501001001KA1240M+03491MA1999999100331MD1999999-0151REMSYN088AAXX  17004 82392 32496 13602 10262 20214 30033 40135 81100 333 10349 29061 55078 59015;EQDQ01  00002PRCP06
0186823920999992004081712004-03700-040350FM-12+008399999V0200901N002612200019N0500001N1+02801+01951101631ADDAA106000091GF103991031021004501001001KA1240N+02171MA1999999100601MD1999999-0031REMSYN076AAXX  17124 82392 32499 30905 10280 20195 30060 40163 83200 333 20217 59003;EQDQ01  00002PRCP06
0167823920999992004081718004-03700-040350FM-12+008399999V0201801N001012200019N0500001N1+03471+01301101121ADDAA106000091GF103991031011004501001001MA1999999100111MD1999999+0011REMSYN070AAXX  17184 82392 32499 31802 10347 20130 30011 40112 83100 333 58001;EQDQ01  00002PRCP06
0208823920999992004081800004-03700-040350FM-12+008399999V0203601N001012200019N0040001N1+02621+01931101351ADDAA106000091GA1001+999999999GF100991001001999999001001KA1240M+03521MA1999999100301MD1999999+0001REMSYN082AAXX  18004 82392 32996 03602 10262 20193 30030 40135 333 10352 29054 55097 58000;EQDQ01  00002PRCP06
0186823920999992004081812004-03700-040350FM-12+008399999V0201801N001012200019N0500001N1+02641+02091101601ADDAA106000091GF104991041021004501001001KA1240N+02121MA1999999100571MD1999999-0031REMSYN076AAXX  18124 82392 32499 41802 10264 20209 30057 40160 84200 333 20212 59003;EQDQ01  00002PRCP06
0167823920999992004081818004-03700-040350FM-12+008399999V0200501N002612200019N0500001N1+03441+01431101171ADDAA106000091GF104991041021004501001001MA1999999100151MD1999999+0041REMSYN070AAXX  18184 82392 32499 40505 10344 20143 30015 40117 84200 333 58004;EQDQ01  00002PRCP06
0186823920999992004081912004-03700-040350FM-12+008399999V0201801N001012200019N0500001N1+02761+01941101721ADDAA106000091GF106991031021004501001011KA1240N+02121MA1999999100691MD1999999-0121REMSYN076AAXX  19124 82392 32499 61802 10276 20194 30069 40172 83201 333 20212 59012;EQDQ01  00002PRCP06
0167823920999992004081918004-03700-040350FM-12+008399999V0201401N002610450019N0500001N1+03401+01401101241ADDAA106000091GF106991041051004501031011MA1999999100221MD1999999+0071REMSYN070AAXX  19184 82392 32499 61405 10340 20140 30022 40124 84531 333 58007;EQDQ01  00002PRCP06
0198823920999992004082000004-03700-040350FM-12+008399999V0200501N002612200019N0040001N1+02621+02121101531ADDAA106000091GF101991011001008001031001KA1240M+03481MA1999999100501MD1999999+0041REMSYN088AAXX  20004 82392 32596 10505 10262 20212 30050 40153 81030 333 10348 29060 55074 58004;EQDQ01  00002PRCP06
0186823920999992004082012004-03700-040350FM-12+008399999V0200901N002112200019N0500001N1+02961+01711101671ADDAA106000091GF103991031011004501001001KA1240N+02101MA1999999100641MD1999999-0051REMSYN076AAXX  20124 82392 32499 30904 10296 20171 30064 40167 83100 333 20210 59005;EQDQ01  00002PRCP06
0167823920999992004082018004-03700-040350FM-12+008399999V0200901N001012200019N0500001N1+03611+01181101041ADDAA106000091GF101991011011004501001001MA1999999100031MD1999999-0191REMSYN070AAXX  20184 82392 32499 10902 10361 20118 30003 40104 81100 333 59019;EQDQ01  00002PRCP06
0208823920999992004082100004-03700-040350FM-12+008399999V0200501N002112200019N0040001N1+02561+01851101401ADDAA106000091GA1001+999999999GF100991001001999999001001KA1240M+03641MA1999999100381MD1999999-0121REMSYN082AAXX  21004 82392 32996 00504 10256 20185 30038 40140 333 10364 29050 55109 59012;EQDQ01  00002PRCP06
0186823920999992004082112004-03700-040350FM-12+008399999V0201801N001012200019N0500001N1+02881+01571101531ADDAA106000091GF101991011011004501001001KA1240N+02011MA1999999100501MD1999999-0141REMSYN076AAXX  21124 82392 32499 11802 10288 20157 30050 40153 81100 333 20201 59014;EQDQ01  00002PRCP06
0167823920999992004082118004-03700-040350FM-12+008399999V0200901N001012200019N0500001N1+03611+01111101011ADDAA106000091GF101991011011004501001001MA1999999100001MD1999999-0031REMSYN070AAXX  21184 82392 32499 10902 10361 20111 30000 40101 81100 333 59003;EQDQ01  00002PRCP06
0208823920999992004082200004-03700-040350FM-12+008399999V0200501N002612200019N0040001N1+02601+01761101321ADDAA106000091GA1001+999999999GF100991001001999999001001KA1240M+03721MA1999999100301MD1999999-0081REMSYN082AAXX  22004 82392 32996 00505 10260 20176 30030 40132 333 10372 29047 55109 59008;EQDQ01  00002PRCP06
0196823920999992004082212004-03700-040350FM-12+008399999V0200901N003112200019N0500001N1+02881+01731101551ADDAA106000091GA1001+999999999GF100991001001999999001001KA1240N+02001MA1999999100521MD1999999+0021REMSYN070AAXX  22124 82392 32999 00906 10288 20173 30052 40155 333 20200 58002;EQDQ01  00002PRCP06
0167823920999992004082218004-03700-040350FM-12+008399999V0201401N001012200019N0500001N1+03601+00951101051ADDAA106000091GF101991011011008001001001MA1999999100041MD1999999+0041REMSYN070AAXX  22184 82392 32599 11402 10360 20095 30004 40105 81100 333 58004;EQDQ01  00002PRCP06
0214823920999992004082300004-03700-040350FM-12+008399999V0203601N001012200019N0040001N1+02621+01861101381ADDAA106000091GF101991999021008001021021KA1240M+03361MA1999999100361MD1999999+0061REMSYN088AAXX  23004 82392 32596 13602 10262 20186 30036 40138 86222 333 10336 29049 55111 58006;EQDQ01+000062SCOTLCQ02  00002PRCP06
0186823920999992004082312004-03700-040350FM-12+008399999V0201401N001012200019N0500001N1+02821+01941101651ADDAA106000091GF103991031021004501001001KA1240N+02101MA1999999100621MD1999999+0101REMSYN076AAXX  23124 82392 32499 31402 10282 20194 30062 40165 83200 333 20210 58010;EQDQ01  00002PRCP06
0167823920999992004082318004-03700-040350FM-12+008399999V0200901N002612200019N0500001N1+03561+00991101221ADDAA106000091GF101991011011004501001001MA1999999100211MD1999999+0171REMSYN070AAXX  23184 82392 32499 10905 10356 20099 30021 40122 81100 333 58017;EQDQ01  00002PRCP06
0198823920999992004082400004-03700-040350FM-12+008399999V0203601N001010450019N0005001N1+02631+01881101501ADDAA106000091GF106991011011004501031001KA1240M+03611MA1999999100471MD1999999+0011REMSYN088AAXX  24004 82392 32493 63602 10263 20188 30047 40150 81130 333 10361 29052 55092 58001;EQDQ01  00002PRCP06
0167823920999992004082418004-03700-040350FM-12+008399999V0200901N000512200019N0500001N1+03461+01341101081ADDAA106000091GF103991031011004501001001MA1999999100061MD1999999-0151REMSYN070AAXX  24184 82392 32499 30901 10346 20134 30006 40108 83100 333 59015;EQDQ01  00002PRCP06
0198823920999992004082500004-03700-040350FM-12+008399999V0203601N001012200019N0040001N1+02481+02051101361ADDAA106000091GF101991011011004501001001KA1240M+03591MA1999999100341MD1999999-0131REMSYN088AAXX  25004 82392 32496 13602 10248 20205 30034 40136 81100 333 10359 29060 55107 59013;EQDQ01  00002PRCP06
0186823920999992004082512004-03700-040350FM-12+008399999V0200901N003110450019N0500001N1+02721+02121101481ADDAA106000091GF106991041041004501031001KA1240N+02261MA1999999100451MD1999999-0151REMSYN076AAXX  25124 82392 32499 60906 10272 20212 30045 40148 84430 333 20226 59015;EQDQ01  00002PRCP06
0167823920999992004082518004-03700-040350FM-12+008399999V0200501N001012200019N0500001N1+03581+01751100931ADDAA106000091GF102991021011004501001001MA1999999099921MD1999999-0141REMSYN070AAXX  25184 82392 32499 20502 10358 20175 39992 40093 82100 333 59014;EQDQ01  00002PRCP06
0198823920999992004082600004-03700-040350FM-12+008399999V0203601N001012200019N0040001N1+02561+02061101241ADDAA106000091GF101991011001008001011001KA1240M+03601MA1999999100221MD1999999-0121REMSYN088AAXX  26004 82392 32596 13602 10256 20206 30022 40124 81010 333 10360 29063 55087 59012;EQDQ01  00002PRCP06
0186823920999992004082612004-03700-040350FM-12+008399999V0200901N001010450019N0500001N1+02761+01971101441ADDAA106000091GF107991031021004501031001KA1240N+02261MA1999999100421MD1999999-0031REMSYN076AAXX  26124 82392 32499 70902 10276 20197 30042 40144 83230 333 20226 59003;EQDQ01  00002PRCP06
0167823920999992004082618004-03700-040350FM-12+008399999V0200901N001012200019N0500001N1+03541+01351100871ADDAA106000091GF102991021011004501001001MA1999999099861MD1999999-0061REMSYN070AAXX  26184 82392 32499 20902 10354 20135 39986 40087 82100 333 59006;EQDQ01  00002PRCP06
0186823920999992004082712004-03700-040350FM-12+008399999V0201401N001012200019N0500001N1+02761+01911101481ADDAA106000091GF102991021011004501001001KA1240N+02141MA1999999100451MD1999999+0031REMSYN076AAXX  27124 82392 32499 21402 10276 20191 30045 40148 82100 333 20214 58003;EQDQ01  00002PRCP06
0208823920999992004082800004-03700-040350FM-12+008399999V0200501N002112200019N0040001N1+02701+01861101271ADDAA106000091GA1001+999999999GF100991001001999999001001KA1240M+03601MA1999999100251MD1999999+0001REMSYN082AAXX  28004 82392 32996 00504 10270 20186 30025 40127 333 10360 29051 55096 58000;EQDQ01  00002PRCP06
0186823920999992004082812004-03700-040350FM-12+008399999V0200901N001512200019N0500001N1+02901+02041101571ADDAA106000091GF103991031021004501001001KA1240N+02201MA1999999100541MD1999999+0091REMSYN076AAXX  28124 82392 32499 30903 10290 20204 30054 40157 83200 333 20220 58009;EQDQ01  00002PRCP06
0167823920999992004082818004-03700-040350FM-12+008399999V0200501N002610450019N0500001N1+03601+01571100961ADDAA106000091GF105991041021004501031001MA1999999099951MD1999999+0121REMSYN070AAXX  28184 82392 32499 50505 10360 20157 39995 40096 84230 333 58012;EQDQ01  00002PRCP06
0198823920999992004082900004-03700-040350FM-12+008399999V0200501N004612200019N0040001N1+02601+02011101261ADDAA106000091GF101991011001008001031001KA1240M+03681MA1999999100241MD1999999-0011REMSYN088AAXX  29004 82392 32596 10509 10260 20201 30024 40126 81030 333 10368 29057 55097 59001;EQDQ01  00002PRCP06
0208823920999992004083000004-03700-040350FM-12+008399999V0203601N001512200019N0040001N1+02561+02061101361ADDAA106000091GA1001+999999999GF100991001001999999001001KA1240M+03541MA1999999100341MD1999999+0101REMSYN082AAXX  30004 82392 32996 03603 10256 20206 30034 40136 333 10354 29059 55102 58010;EQDQ01  00002PRCP06
0198823920999992004083100004-03700-040350FM-12+008399999V0203601N001512200019N0040001N1+02561+02131101311ADDAA106000091GF101991011001008001031001KA1240M+03721MA1999999100291MD1999999-0051REMSYN088AAXX  31004 82392 32596 13603 10256 20213 30029 40131 81030 333 10372 29064 55057 59005;EQDQ01  00002PRCP06
0186823920999992004083112004-03700-040350FM-12+008399999V0200901N002112200019N0500001N1+02941+02031101531ADDAA106000091GF104991041021004501001001KA1240N+02381MA1999999100501MD1999999+0031REMSYN076AAXX  31124 82392 32499 40904 10294 20203 30050 40153 84200 333 20238 58003;EQDQ01  00002PRCP06
0208823920999992004090100004-03700-040350FM-12+008399999V0200501N001012200019N0040001N1+02551+02081101301ADDAA106000091GA1001+999999999GF100991001001999999001001KA1240M+03891MA1999999100281MD1999999-0011REMSYN082AAXX  01004 82392 32996 00502 10255 20208 30028 40130 333 10389 29058 55101 59001;EQDQ01  00002PRCP06
0186823920999992004090112004-03700-040350FM-12+008399999V0200901N002612200019N0040001N1+02841+01731101631ADDAA106000091GF102991021011004501001001KA1240N+01931MA1999999100601MD1999999+0101REMSYN076AAXX  01124 82392 32496 20905 10284 20173 30060 40163 82100 333 20193 58010;EQDQ01  00002PRCP06
0198823920999992004090200004-03700-040350FM-12+008399999V0200501N000512200019N0040001N1+02671+01841101371ADDAA106000091GF104991011011004501011001KA1240M+03831MA1999999100351MD1999999+0071REMSYN088AAXX  02004 82392 32496 40501 10267 20184 30035 40137 81110 333 10383 29048 55095 58007;EQDQ01  00002PRCP06
0186823920999992004090212004-03700-040350FM-12+008399999V0201401N001010042019N0500001N1+02961+01841101531ADDAA106000091GF105991051021004501001001KA1240N+02321MA1999999100501MD1999999-0101REMSYN076AAXX  02124 82392 32499 51402 10296 20184 30050 40153 85200 333 20232 59010;EQDQ01  00002PRCP06
0167823920999992004090218004-03700-040350FM-12+008399999V0200501N003112200019N0500001N1+03441+01431101111ADDAA106000091GF104991041021004501001001MA1999999100101MD1999999+0051REMSYN070AAXX  02184 82392 32499 40506 10344 20143 30010 40111 84200 333 58005;EQDQ01  00002PRCP06
0208823920999992004090300004-03700-040350FM-12+008399999V0200501N001012200019N0040001N1+02741+01701101321ADDAA106000091GA1001+999999999GF100991001001999999001001KA1240M+03601MA1999999100311MD1999999-0041REMSYN082AAXX  03004 82392 32996 00502 10274 20170 30031 40132 333 10360 29047 55103 59004;EQDQ01  00002PRCP06
0186823920999992004090312004-03700-040350FM-12+008399999V0200901N002612200019N0500001N1+02821+01771101541ADDAA106000091GF101991011011004501001001KA1240N+02141MA1999999100511MD1999999+0011REMSYN076AAXX  03124 82392 32499 10905 10282 20177 30051 40154 81100 333 20214 58001;EQDQ01  00002PRCP06
0167823920999992004090318004-03700-040350FM-12+008399999V0201801N001010042019N0500001N1+03471+01301101031ADDAA106000091GF105991051021004501001001MA1999999100021MD1999999-0081REMSYN070AAXX  03184 82392 32499 51802 10347 20130 30002 40103 85200 333 59008;EQDQ01  00002PRCP06
0208823920999992004090400004-03700-040350FM-12+008399999V0200501N003112200019N0040001N1+02621+01961101371ADDAA106000091GA1001+999999999GF100991001001999999001001KA1240M+03641MA1999999100351MD1999999+0041REMSYN082AAXX  04004 82392 32996 00506 10262 20196 30035 40137 333 10364 29054 55104 58004;EQDQ01  00002PRCP06
0186823920999992004090412004-03700-040350FM-12+008399999V0201401N001012200019N0500001N1+99999+99999101351ADDAA106000091GF102991021011004501001001KA1240N+02071MA1999999100331MD1999999-0181REMSYN076AAXX  04124 82392 32499 21402 10596 20157 30033 40135 82100 333 20207 59018;EQDQ01  00002PRCP06
0208823920999992004090500004-03700-040350FM-12+008399999V0200501N003612200019N0040001N1+02641+01751101281ADDAA106000091GA1001+999999999GF100991001001999999001001KA1240M+03741MA1999999100261MD1999999-0091REMSYN082AAXX  05004 82392 32996 00507 10264 20175 30026 40128 333 10374 29046 55104 59009;EQDQ01  00002PRCP06
0186823920999992004090512004-03700-040350FM-12+008399999V0200901N001512200019N0500001N1+02961+01811101301ADDAA106000091GF101991011011004501001001KA1240N+02081MA1999999100281MD1999999-0051REMSYN076AAXX  05124 82392 32499 10903 10296 20181 30028 40130 81100 333 20208 59005;EQDQ01  00002PRCP06
0167823920999992004090518004-03700-040350FM-12+008399999V0200901N004112200019N0500001N1+03561+01061100811ADDAA106000091GF103991031021004501001001MA1999999099801MD1999999-0111REMSYN070AAXX  05184 82392 32499 30908 10356 20106 39980 40081 83200 333 59011;EQDQ01  00002PRCP06
0208823920999992004090600004-03700-040350FM-12+008399999V0203601N001012200019N0040001N1+02701+01911101101ADDAA106000091GA1001+999999999GF100991001001999999001001KA1240M+03711MA1999999100081MD1999999-0161REMSYN082AAXX  06004 82392 32996 03602 10270 20191 30008 40110 333 10371 29065 55105 59016;EQDQ01  00002PRCP06
0186823920999992004090612004-03700-040350FM-12+008399999V0200901N003112200019N0500001N1+02941+01811101301ADDAA106000091GF101991011011004501001001KA1240N+02101MA1999999100811MD1999999+0001REMSYN076AAXX  06124 82392 32499 10906 10294 20181 30081 40130 81100 333 20210 58000;EQDQ01  00002PRCP06
0198823920999992004090700004-03700-040350FM-12+008399999V0203601N001512200019N0040001N1+02701+01801100951ADDAA106000091GF102991021001008001031001KA1240M+03741MA1999999099931MD1999999-0151REMSYN088AAXX  07004 82392 32596 23603 10270 20180 39993 40095 82030 333 10374 29049 55096 59015;EQDQ01  00002PRCP06
0167823920999992004090718004-03700-040350FM-12+008399999V0201801N000512200019N0500001N1+03721+01191100551ADDAA106000091GF104991041011004501001001MA1999999099551MD1999999-0191REMSYN070AAXX  07184 82392 32499 41801 10372 20119 39955 40055 84100 333 59019;EQDQ01  00002PRCP06
0186823920999992004090812004-03700-040350FM-12+008399999V0201401N003112200019N0500001N1+02981+01731101051ADDAA106000091GF101991011011004501001001KA1240N+02081MA1999999100041MD1999999-0081REMSYN076AAXX  08124 82392 32499 11406 10298 20173 30004 40105 81100 333 20208 59008;EQDQ01  00002PRCP06
0208823920999992004090900004-03700-040350FM-12+008399999V0200501N004612200019N0040001N1+02601+01761100971ADDAA106000091GA1001+999999999GF100991001001999999001001KA1240M+03801MA1999999099951MD1999999+0081REMSYN082AAXX  09004 82392 32996 00509 10260 20176 39995 40097 333 10380 29047 55104 58008;EQDQ01  00002PRCP06
0186823920999992004090912004-03700-040350FM-12+008399999V0200501N000512200019N0500001N1+02901+01781101221ADDAA106000091GF102991011011004501001011KA1240N+02161MA1999999100201MD1999999+0161REMSYN076AAXX  09124 82392 32499 20501 10290 20178 30020 40122 81101 333 20216 58016;EQDQ01  00002PRCP06
0186823920999992004091012004-03700-040350FM-12+008399999V0200901N003112200019N0500001N1+02901+01871101301ADDAA106000091GF103991031021004501001001KA1240N+02221MA1999999100281MD1999999+0081REMSYN076AAXX  10124 82392 32499 30906 10290 20187 30028 40130 83200 333 20222 58008;EQDQ01  00002PRCP06
0167823920999992004091018004-03700-040350FM-12+008399999V0200901N001012200019N0500001N1+03501+01531100781ADDAA106000091GF104991031021004501001011MA1999999099771MD1999999+0061REMSYN070AAXX  10184 82392 32499 40902 10350 20153 39977 40078 83201 333 58006;EQDQ01  00002PRCP06
0208823920999992004091100004-03700-040350FM-12+008399999V0200501N002612200019N0040001N1+02601+02011101131ADDAA106000091GA1001+999999999GF100991001001999999001001KA1240M+03701MA1999999100111MD1999999-0021REMSYN082AAXX  11004 82392 32996 00505 10260 20201 30011 40113 333 10370 29056 55109 59002;EQDQ01  00002PRCP06
0186823920999992004091112004-03700-040350FM-12+008399999V0201401N001010450019N0500001N1+02901+02041101341ADDAA106000091GF105991041021004501031001KA1240N+02091MA1999999100321MD1999999+0041REMSYN076AAXX  11124 82392 32499 51402 10290 20204 30032 40134 84230 333 20209 58004;EQDQ01  00002PRCP06
0167823920999992004091118004-03700-040350FM-12+008399999V0209999C000010450019N0500001N1+03521+01501100761ADDAA106000091GF106991041021004501031001MA1999999099751MD1999999-0021REMSYN070AAXX  11184 82392 32499 60000 10352 20150 39975 40076 84230 333 59002;EQDQ01  00002PRCP06
0208823920999992004091200004-03700-040350FM-12+008399999V0200501N004612200019N0040001N1+02621+02141101251ADDAA106000091GA1001+999999999GF100991001001999999001001KA1240M+03721MA1999999100231MD1999999+0121REMSYN082AAXX  12004 82392 32996 00509 10262 20214 30023 40125 333 10372 29060 55105 58012;EQDQ01  00002PRCP06
0186823920999992004091212004-03700-040350FM-12+008399999V0201401N000510042019N0500001N1+02881+01971101601ADDAA106000091GF105991051021004501001001KA1240N+02301MA1999999100571MD1999999+0251REMSYN076AAXX  12124 82392 32499 51401 10288 20197 30057 40160 85200 333 20230 58025;EQDQ01  00002PRCP06
0167823920999992004091218004-03700-040350FM-12+008399999V0201401N000512200019N0500001N1+03681+01351100951ADDAA106000091GF102991021011004501001001MA1999999099941MD1999999+0191REMSYN070AAXX  12184 82392 32499 21401 10368 20135 39994 40095 82100 333 58019;EQDQ01  00002PRCP06
0208823920999992004091300004-03700-040350FM-12+008399999V0203601N002612200019N0040001N1+02641+02031101311ADDAA106000091GA1001+999999999GF100991001001999999001001KA1240M+03961MA1999999100261MD1999999+0061REMSYN082AAXX  13004 82392 32996 03605 10264 20203 30026 40131 333 10396 29055 55099 58006;EQDQ01  00002PRCP06
0186823920999992004091312004-03700-040350FM-12+008399999V0200901N001512200019N0500001N1+02901+02041101631ADDAA106000091GF104991041021004501001001KA1240N+02351MA1999999100601MD1999999+0031REMSYN076AAXX  13124 82392 32499 40903 10290 20204 30060 40163 84200 333 20235 58003;EQDQ01  00002PRCP06
0167823920999992004091318004-03700-040350FM-12+008399999V0200501N002612200019N0500001N1+03581+01601100991ADDAA106000091GF103991031021004501001001MA1999999099981MD1999999+0081REMSYN070AAXX  13184 82392 32499 30505 10358 20160 39998 40099 83200 333 58008;EQDQ01  00002PRCP06
0208823920999992004091400004-03700-040350FM-12+008399999V0200501N001012200019N0040001N1+02671+02091101321ADDAA106000091GA1001+999999999GF100991001001999999001001KA1240M+03761MA1999999100301MD1999999+0011REMSYN082AAXX  14004 82392 32996 00502 10267 20209 30030 40132 333 10376 29058 55107 58001;EQDQ01  00002PRCP06
0186823920999992004091412004-03700-040350FM-12+008399999V0201401N001012200019N0500001N1+02901+01961101641ADDAA106000091GF103991021011004501031001KA1240N+02271MA1999999100611MD1999999+0011REMSYN076AAXX  14124 82392 32499 31402 10290 20196 30061 40164 82130 333 20227 58001;EQDQ01  00002PRCP06
0167823920999992004091418004-03700-040350FM-12+008399999V0201401N001012200019N0500001N1+03671+01471101021ADDAA106000091GF104991041021004501001001MA1999999100011MD1999999+0031REMSYN070AAXX  14184 82392 32499 41402 10367 20147 30001 40102 84200 333 58003;EQDQ01  00002PRCP06
0208823920999992004091500004-03700-040350FM-12+008399999V0203601N001012200019N0040001N1+02681+01671101401ADDAA106000091GA1001+999999999GF100991001001999999001001KA1240M+03801MA1999999100381MD1999999+0081REMSYN082AAXX  15004 82392 32996 03602 10268 20167 30038 40140 333 10380 29048 55106 58008;EQDQ01  00002PRCP06
0186823920999992004091512004-03700-040350FM-12+008399999V0200901N002112200019N0500001N1+02961+02051101651ADDAA106000091GF102991021011004501001001KA1240N+02191MA1999999100621MD1999999+0011REMSYN076AAXX  15124 82392 32499 20904 10296 20205 30062 40165 82100 333 20219 58001;EQDQ01  00002PRCP06
0208823920999992004091600004-03700-040350FM-12+008399999V0203601N000512200019N0040001N1+02581+02061101331ADDAA106000091GA1001+999999999GF100991001001999999001001KA1240M+03791MA1999999100311MD1999999-0071REMSYN082AAXX  16004 82392 32996 03601 10258 20206 30031 40133 333 10379 29058 55107 59007;EQDQ01  00002PRCP06
0186823920999992004091612004-03700-040350FM-12+008399999V0201401N000512200019N0500001N1+02861+01921101431ADDAA106000091GF102991021011004501001001KA1240N+02121MA1999999100411MD1999999-0211REMSYN076AAXX  16124 82392 32499 21401 10286 20192 30041 40143 82100 333 20212 59021;EQDQ01  00002PRCP06
0167823920999992004091618004-03700-040350FM-12+008399999V0200901N000512200019N0500001N1+03601+01411100881ADDAA106000091GF102991021011004501001001MA1999999099861MD1999999-0081REMSYN070AAXX  16184 82392 32499 20901 10360 20141 39986 40088 82100 333 59008;EQDQ01  00002PRCP06
0208823920999992004091700004-03700-040350FM-12+008399999V0200501N003612200019N0040001N1+02601+02011101281ADDAA106000091GA1001+999999999GF100991001001999999001001KA1240M+03801MA1999999100261MD1999999-0051REMSYN082AAXX  17004 82392 32996 00507 10260 20201 30026 40128 333 10380 29056 55105 59005;EQDQ01  00002PRCP06
0167823920999992004091718004-03700-040350FM-12+008399999V0200901N000512200019N0500001N1+03761+01361100871ADDAA106000091GF104991041011004501001001MA1999999099871MD1999999+0011REMSYN070AAXX  17184 82392 32499 40901 10376 20136 39987 40087 84100 333 58001;EQDQ01  00002PRCP06
0208823920999992004091800004-03700-040350FM-12+008399999V0200501N005712200019N0040001N1+02601+02121101221ADDAA106000091GA1001+999999999GF100991001001999999001001KA1240M+03761MA1999999100201MD1999999-0061REMSYN082AAXX  18004 82392 32996 00511 10260 20212 30020 40122 333 10376 29058 55094 59006;EQDQ01  00002PRCP06
0167823920999992004091818004-03700-040350FM-12+008399999V0200901N001012200019N0500001N1+03741+01441100811ADDAA106000091GF104991041011004501001001MA1999999099801MD1999999-0071REMSYN070AAXX  18184 82392 32499 40902 10374 20144 39980 40081 84100 333 59007;EQDQ01  00002PRCP06
0208823920999992004091900004-03700-040350FM-12+008399999V0203601N001512200019N0000001N1+02721+02051101211ADDAA106000091GA1001+999999999GF100991001001999999001001KA1240M+03841MA1999999100191MD1999999-0011REMSYN082AAXX  19004 82392 32990 03603 10272 20205 30019 40121 333 10384 29054 55096 59001;EQDQ01  00002PRCP06
0186823920999992004091912004-03700-040350FM-12+008399999V0200901N001012200019N0500001N1+03021+01861101361ADDAA106000091GF101991011011004501001001KA1240N+02201MA1999999100351MD1999999-0061REMSYN076AAXX  19124 82392 32499 10902 10302 20186 30035 40136 81100 333 20220 59006;EQDQ01  00002PRCP06
0167823920999992004091918004-03700-040350FM-12+008399999V0200501N002612200019N0500001N1+03521+01601100861ADDAA106000091GF102991021021004501001001MA1999999099851MD1999999+0051REMSYN070AAXX  19184 82392 32499 20505 10352 20160 39985 40086 82200 333 58005;EQDQ01  00002PRCP06
0208823920999992004092000004-03700-040350FM-12+008399999V0203601N003112200019N0040001N1+02681+01891101151ADDAA106000091GA1001+999999999GF100991001001999999001001KA1240M+03781MA1999999100141MD1999999-0051REMSYN082AAXX  20004 82392 32996 03606 10268 20189 30014 40115 333 10378 29052 55102 59005;EQDQ01  00002PRCP06
0186823920999992004092012004-03700-040350FM-12+008399999V0200501N002612200019N0500001N1+02961+01961101381ADDAA106000091GF101991011011004501001001KA1240N+02171MA1999999100361MD1999999+0011REMSYN076AAXX  20124 82392 32499 10505 10296 20196 30036 40138 81100 333 20217 58001;EQDQ01  00002PRCP06
0167823920999992004092018004-03700-040350FM-12+008399999V0200501N003112200019N0500001N1+03601+01571100831ADDAA106000091GF102991021011004501001001MA1999999099821MD1999999-0031REMSYN070AAXX  20184 82392 32499 20506 10360 20157 39982 40083 82100 333 59003;EQDQ01  00002PRCP06
0198823920999992004092100004-03700-040350FM-12+008399999V0203601N000512200019N0040001N1+02731+02021101141ADDAA106000091GF101991011001008001011001KA1240M+03761MA1999999100131MD1999999-0011REMSYN088AAXX  21004 82392 32596 13601 10273 20202 30013 40114 81010 333 10376 29049 55103 59001;EQDQ01  00002PRCP06
0186823920999992004092112004-03700-040350FM-12+008399999V0200901N001512200019N0040001N1+02821+01971101461ADDAA106000091GF103991031021004501001001KA1240N+02151MA1999999100441MD1999999+0081REMSYN076AAXX  21124 82392 32496 30903 10282 20197 30044 40146 83200 333 20215 58008;EQDQ01  00002PRCP06
0171823920999992004092218004-03700-040350FM-12+008399999V0200501N002110450019N0500001N1+02801+02311101321ADDAY121061AY261061GF107991041041004501031001MA1999999100301MD1999999+0401MW1021REMSYN082AAXX  22184 82392 21499 70504 10280 20231 30030 40132 70226 84430 333 58040 60011;
0208823920999992004092300004-03700-040350FM-12+008399999V0203601N004112200019N0040001N1+02581+02121101461ADDAA106000091GA1001+999999999GF100991001001999999001001KA1240M+03271MA1999999100441MD1999999+0141REMSYN082AAXX  23004 82392 32996 03608 10258 20212 30044 40146 333 10327 29072 55050 58014;EQDQ01  00002PRCP06
0167823920999992004092318004-03700-040350FM-12+008399999V0200501N000512200019N0500001N1+03561+01251101001ADDAA106000091GF104991041011004501001001MA1999999099991MD1999999-0311REMSYN070AAXX  23184 82392 32499 40501 10356 20125 39999 40100 84100 333 59031;EQDQ01  00002PRCP06
0208823920999992004092400004-03700-040350FM-12+008399999V0203601N001012200019N0040001N1+02601+01711101401ADDAA106000091GA1001+999999999GF100991001001999999001001KA1240M+03721MA1999999100381MD1999999-0061REMSYN082AAXX  24004 82392 32996 03602 10260 20171 30038 40140 333 10372 29048 55102 59006;EQDQ01  00002PRCP06
0186823920999992004092412004-03700-040350FM-12+008399999V0201401N001012200019N0500001N1+02881+02031101531ADDAA106000091GF104991031021004501031001KA1240N+02041MA1999999100501MD1999999-0111REMSYN076AAXX  24124 82392 32499 41402 10288 20203 30050 40153 83230 333 20204 59011;EQDQ01  00002PRCP06
0208823920999992004092500004-03700-040350FM-12+008399999V0200501N002612200019N0040001N1+02601+01941101271ADDAA106000091GA1001+999999999GF100991001001999999001001KA1240M+03601MA1999999100251MD1999999-0131REMSYN082AAXX  25004 82392 32996 00505 10260 20194 30025 40127 333 10360 29056 55090 59013;EQDQ01  00002PRCP06
0186823920999992004092512004-03700-040350FM-12+008399999V0200901N001012200019N0500001N1+02901+02041101461ADDAA106000091GF102991021011004501001001KA1240N+02221MA1999999100441MD1999999-0061REMSYN076AAXX  25124 82392 32499 20902 10290 20204 30044 40146 82100 333 20222 59006;EQDQ01  00002PRCP06
0167823920999992004092518004-03700-040350FM-12+008399999V0201401N001512200019N0500001N1+03601+01461100871ADDAA106000091GF104991041021004501001001MA1999999099861MD1999999-0031REMSYN070AAXX  25184 82392 32499 41403 10360 20146 39986 40087 84200 333 59003;EQDQ01  00002PRCP06
0208823920999992004092600004-03700-040350FM-12+008399999V0200501N005112200019N0040001N1+02601+01821101221ADDAA106000091GA1001+999999999GF100991001001999999001001KA1240M+03741MA1999999100201MD1999999-0051REMSYN082AAXX  26004 82392 32996 00510 10260 20182 30020 40122 333 10374 29053 55107 59005;EQDQ01  00002PRCP06
0186823920999992004092612004-03700-040350FM-12+008399999V0200901N001010042019N0500001N1+02841+01851101501ADDAA106000091GF107991051041004501031001KA1240N+02181MA1999999100471MD1999999+0031REMSYN076AAXX  26124 82392 32499 70902 10284 20185 30047 40150 85430 333 20218 58003;EQDQ01  00002PRCP06
0167823920999992004092618004-03700-040350FM-12+008399999V0200901N001010450019N0500001N1+03591+01291100871ADDAA106000091GF106991041021004501011001MA1999999099861MD1999999+0001REMSYN070AAXX  26184 82392 32499 60902 10359 20129 39986 40087 84210 333 58000;EQDQ01  00002PRCP06
0198823920999992004092700004-03700-040350FM-12+008399999V0200501N001519999999N0040001N1+02701+01961101271ADDAA106000091GF107991071001004501051001KA1240M+03621MA1999999100251MD1999999+0051REMSYN088AAXX  27004 82392 32496 70503 10270 20196 30025 40127 87050 333 10362 29052 55095 58005;EQDQ01  00002PRCP06
0186823920999992004092712004-03700-040350FM-12+008399999V0200901N002612200019N0500001N1+02981+01831101381ADDAA106000091GF101991011011004501001001KA1240N+02391MA1999999100361MD1999999-0111REMSYN076AAXX  27124 82392 32499 10905 10298 20183 30036 40138 81100 333 20239 59011;EQDQ01  00002PRCP06
0167823920999992004092718004-03700-040350FM-12+008399999V0200901N002112200019N0500001N1+03621+00971100861ADDAA106000091GF104991031021004501031001MA1999999099851MD1999999-0011REMSYN070AAXX  27184 82392 32499 40904 10362 20097 39985 40086 83230 333 59001;EQDQ01  00002PRCP06
0208823920999992004092800004-03700-040350FM-12+008399999V0203601N003112200019N0040001N1+02621+02071101241ADDAA106000091GA1001+999999999GF100991001001999999001001KA1240M+03721MA1999999100221MD1999999-0031REMSYN082AAXX  28004 82392 32996 03606 10262 20207 30022 40124 333 10372 29054 55099 59003;EQDQ01  00002PRCP06
0186823920999992004092812004-03700-040350FM-12+008399999V0200901N002112200019N0500001N1+02981+01891101321ADDAA106000091GF101991011011004501001001KA1240N+02291MA1999999100301MD1999999+0061REMSYN076AAXX  28124 82392 32499 10904 10298 20189 30030 40132 81100 333 20229 58006;EQDQ01  00002PRCP06
0167823920999992004092818004-03700-040350FM-12+008399999V0200901N001512200019N0500001N1+03721+01321100711ADDAA106000091GF102991021011004501001001MA1999999099701MD1999999-0151REMSYN070AAXX  28184 82392 32499 20903 10372 20132 39970 40071 82100 333 59015;EQDQ01  00002PRCP06
0208823920999992004092900004-03700-040350FM-12+008399999V0200501N004612200019N0040001N1+02601+02061101121ADDAA106000091GA1001+999999999GF100991001001999999001001KA1240M+03761MA1999999100101MD1999999-0121REMSYN082AAXX  29004 82392 32996 00509 10260 20206 30010 40112 333 10376 29055 55109 59012;EQDQ01  00002PRCP06
0186823920999992004092912004-03700-040350FM-12+008399999V0200901N003112200019N0500001N1+02881+01891101321ADDAA106000091GF103991031021004501001001KA1240N+02241MA1999999100301MD1999999+0001REMSYN076AAXX  29124 82392 32499 30906 10288 20189 30030 40132 83200 333 20224 58000;EQDQ01  00002PRCP06
0167823920999992004092918004-03700-040350FM-12+008399999V0201401N001512200019N0500001N1+03641+01501100751ADDAA106000091GF101991011011004501001001MA1999999099741MD1999999+0041REMSYN070AAXX  29184 82392 32499 11403 10364 20150 39974 40075 81100 333 58004;EQDQ01  00002PRCP06
0167823920999992004093018004-03700-040350FM-12+008399999V0200501N002612200019N0500001N1+03561+01591100711ADDAA106000091GF103991031011004501001001MA1999999099701MD1999999-0041REMSYN070AAXX  30184 82392 32499 30505 10356 20159 39970 40071 83100 333 59004;EQDQ01  00002PRCP06
0208823920999992004100100004-03700-040350FM-12+008399999V0203601N003112200019N0040001N1+02681+01611101051ADDAA106000091GA1001+999999999GF100991001001999999001001KA1240M+03661MA1999999100031MD1999999+0031REMSYN082AAXX  01004 82392 32996 03606 10268 20161 30003 40105 333 10366 29049 55102 58003;EQDQ01  00002PRCP06
0186823920999992004100112004-03700-040350FM-12+008399999V0200901N001012200019N0500001N1+02901+01811101371ADDAA106000091GF101991011011004501001001KA1240N+02191MA1999999100351MD1999999+0101REMSYN076AAXX  01124 82392 32499 10902 10290 20181 30035 40137 81100 333 20219 58010;EQDQ01  00002PRCP06
0167823920999992004100118004-03700-040350FM-12+008399999V0201401N001512200019N0500001N1+03641+01261100811ADDAA106000091GF101991011011004501001001MA1999999099801MD1999999+0101REMSYN070AAXX  01184 82392 32499 11403 10364 20126 39980 40081 81100 333 58010;EQDQ01  00002PRCP06
0186823920999992004100212004-03700-040350FM-12+008399999V0200901N001012200019N0500001N1+02901+01961101341ADDAA106000091GF103991021011004501031001KA1240N+02201MA1999999100321MD1999999-0031REMSYN076AAXX  02124 82392 32499 30902 10290 20196 30032 40134 82130 333 20220 59003;EQDQ01  00002PRCP06
0167823920999992004100218004-03700-040350FM-12+008399999V0200501N001012200019N0500001N1+03621+01591100761ADDAA106000091GF102991021011004501001001MA1999999099751MD1999999-0051REMSYN070AAXX  02184 82392 32499 20502 10362 20159 39975 40076 82100 333 59005;EQDQ01  00002PRCP06
0208823920999992004100300004-03700-040350FM-12+008399999V0203601N005112200019N0040001N1+02621+02141101071ADDAA106000091GA1001+999999999GF100991001001999999001001KA1240M+03681MA1999999100051MD1999999-0091REMSYN082AAXX  03004 82392 32996 03610 10262 20214 30005 40107 333 10368 29059 55108 59009;EQDQ01  00002PRCP06
0186823920999992004100312004-03700-040350FM-12+008399999V0201801N001012200019N0500001N1+02901+02041101321ADDAA106000091GF104991041021004501001001KA1240N+02281MA1999999100301MD1999999-0021REMSYN076AAXX  03124 82392 32499 41802 10290 20204 30030 40132 84200 333 20228 59002;EQDQ01  00002PRCP06
0167823920999992004100318004-03700-040350FM-12+008399999V0201401N001012200019N0500001N1+03541+01761100811ADDAA106000091GF101991011011004501001001MA1999999099801MD1999999+0051REMSYN070AAXX  03184 82392 32499 11402 10354 20176 39980 40081 81100 333 58005;EQDQ01  00002PRCP06
0208823920999992004100400004-03700-040350FM-12+008399999V0200501N005712200019N0040001N1+02601+02011101121ADDAA106000091GA1001+999999999GF100991001001999999001001KA1240M+03641MA1999999100101MD1999999+0051REMSYN082AAXX  04004 82392 32996 00511 10260 20201 30010 40112 333 10364 29059 55087 58005;EQDQ01  00002PRCP06
0186823920999992004100412004-03700-040350FM-12+008399999V0200901N001510450019N0500001N1+02881+02031101271ADDAA106000091GF106991041021004501031001KA1240N+02181MA1999999100251MD1999999-0051REMSYN076AAXX  04124 82392 32499 60903 10288 20203 30025 40127 84230 333 20218 59005;EQDQ01  00002PRCP06
0167823920999992004100418004-03700-040350FM-12+008399999V0200901N001010042019N0500001N1+03611+01591100701ADDAA106000091GF106991061021004501001001MA1999999099691MD1999999-0111REMSYN070AAXX  04184 82392 32499 60902 10361 20159 39969 40070 86200 333 59011;EQDQ01  00002PRCP06
0208823920999992004100500004-03700-040350FM-12+008399999V0203601N001512200019N0040001N1+02601+02101101101ADDAA106000091GA1001+999999999GF100991001001999999001001KA1240M+03691MA1999999100081MD1999999-0021REMSYN082AAXX  05004 82392 32996 03603 10260 20210 30008 40110 333 10369 29060 55097 59002;EQDQ01  00002PRCP06
0186823920999992004100512004-03700-040350FM-12+008399999V0201401N002110042019N0500001N1+02801+02151101241ADDAA106000091GF107991051041004501031001KA1240N+02341MA1999999100221MD1999999-0031REMSYN076AAXX  05124 82392 32499 71404 10280 20215 30022 40124 85430 333 20234 59003;EQDQ01  00002PRCP06
0208823920999992004100600004-03700-040350FM-12+008399999V0203601N001012200019N0040001N1+02581+02121101171ADDAA106000091GA1001+999999999GF100991001001999999001001KA1240M+03641MA1999999100151MD1999999+0081REMSYN082AAXX  06004 82392 32996 03602 10258 20212 30015 40117 333 10364 29063 55081 58008;EQDQ01  00002PRCP06
0186823920999992004100612004-03700-040350FM-12+008399999V0200501N003612200019N0500001N1+02901+02041101321ADDAA106000091GF102991021011004501001001KA1240N+02251MA1999999100301MD1999999+0081REMSYN076AAXX  06124 82392 32499 20507 10290 20204 30030 40132 82100 333 20225 58008;EQDQ01  00002PRCP06
0167823920999992004100618004-03700-040350FM-12+008399999V0200501N004610450019N0500001N1+03381+01661100841ADDAA106000091GF106991041021004501031001MA1999999099821MD1999999+0111REMSYN070AAXX  06184 82392 32499 60509 10338 20166 39982 40084 84230 333 58011;EQDQ01  00002PRCP06
0208823920999992004100700004-03700-040350FM-12+008399999V0203601N001012200019N0040001N1+02561+01801101251ADDAA106000091GA1001+999999999GF100991001001999999001001KA1240M+03521MA1999999100231MD1999999+0081REMSYN082AAXX  07004 82392 32996 03602 10256 20180 30023 40125 333 10352 29056 55094 58008;EQDQ01  00002PRCP06
0186823920999992004100712004-03700-040350FM-12+008399999V0200501N001010450019N0500001N1+02861+01951101381ADDAA106000091GF106991041021004501011001KA1240N+02131MA1999999100361MD1999999+0061REMSYN076AAXX  07124 82392 32499 60502 10286 20195 30036 40138 84210 333 20213 58006;EQDQ01  00002PRCP06
0167823920999992004100718004-03700-040350FM-12+008399999V0200501N001012200019N0500001N1+03571+01331100731ADDAA106000091GF103991021011004501001011MA1999999099721MD1999999-0101REMSYN070AAXX  07184 82392 32499 30502 10357 20133 39972 40073 82101 333 59010;EQDQ01  00002PRCP06
0208823920999992004100800004-03700-040350FM-12+008399999V0203601N003112200019N0040001N1+02601+02011101171ADDAA106000091GA1001+999999999GF100991001001999999001001KA1240M+03621MA1999999100151MD1999999-0081REMSYN082AAXX  08004 82392 32996 03606 10260 20201 30015 40117 333 10362 29056 55077 59008;EQDQ01  00002PRCP06
0186823920999992004100812004-03700-040350FM-12+008399999V0200501N001010450019N0500001N1+02881+01911101321ADDAA106000091GF106991041021004501031001KA1240N+02011MA1999999100301MD1999999-0061REMSYN076AAXX  08124 82392 32499 60502 10288 20191 30030 40132 84230 333 20201 59006;EQDQ01  00002PRCP06
0167823920999992004100818004-03700-040350FM-12+008399999V0200901N002612200019N0500001N1+03581+01391100791ADDAA106000091GF102991011011004501001011MA1999999099781MD1999999+0061REMSYN070AAXX  08184 82392 32499 20905 10358 20139 39978 40079 81101 333 58006;EQDQ01  00002PRCP06
0208823920999992004100900004-03700-040350FM-12+008399999V0200501N003112200019N0040001N1+02661+01821101271ADDAA106000091GA1001+999999999GF100991001001999999001001KA1240M+03641MA1999999100251MD1999999+0101REMSYN082AAXX  09004 82392 32996 00506 10266 20182 30025 40127 333 10364 29051 55104 58010;EQDQ01  00002PRCP06
0186823920999992004100912004-03700-040350FM-12+008399999V0200501N004612200019N0500001N1+02941+01791101421ADDAA106000091GF103991031021004501001001KA1240N+02171MA1999999100401MD1999999+0101REMSYN076AAXX  09124 82392 32499 30509 10294 20179 30040 40142 83200 333 20217 58010;EQDQ01  00002PRCP06
0167823920999992004100918004-03700-040350FM-12+008399999V0200501N005112200019N0500001N1+03601+01461100891ADDAA106000091GF102991021011004501001001MA1999999099881MD1999999+0101REMSYN070AAXX  09184 82392 32499 20510 10360 20146 39988 40089 82100 333 58010;EQDQ01  00002PRCP06
0208823920999992004101000004-03700-040350FM-12+008399999V0200501N005712200019N0040001N1+02701+01801101321ADDAA106000091GA1001+999999999GF100991001001999999001001KA1240M+03641MA1999999100301MD1999999-0051REMSYN082AAXX  10004 82392 32996 00511 10270 20180 30030 40132 333 10364 29048 55102 59005;EQDQ01  00002PRCP06
0186823920999992004101012004-03700-040350FM-12+008399999V0200901N001512200019N0500001N1+03961+02181101481ADDAA106000091GF104991041021004501001001KA1240N+02241MA1999999100451MD1999999+0051REMSYN076AAXX  10124 82392 32499 40903 10396 20218 30045 40148 84200 333 20224 58005;EQDQ01  00002PRCP06
0208823920999992004101100004-03700-040350FM-12+008399999V0203601N001512200019N0040001N1+02701+01801101251ADDAA106000091GA1001+999999999GF100991001001999999001001KA1240M+03631MA1999999100231MD1999999-0071REMSYN082AAXX  11004 82392 32996 03603 10270 20180 30023 40125 333 10363 29048 55105 59007;EQDQ01  00002PRCP06
0186823920999992004101112004-03700-040350FM-12+008399999V0200901N004612200019N0500001N1+02941+01791101371ADDAA106000091GF102991021011004501001001KA1240N+02161MA1999999100351MD1999999-0101REMSYN076AAXX  11124 82392 32499 20909 10294 20179 30035 40137 82100 333 20216 59010;EQDQ01  00002PRCP06
0186823920999992004101212004-03700-040350FM-12+008399999V0201401N002112200019N0500001N1+02921+02061101261ADDAA106000091GF103991031021004501001001KA1240N+01991MA1999999100241MD1999999-0111REMSYN076AAXX  12124 82392 32499 31404 10292 20206 30024 40126 83200 333 20199 59011;EQDQ01  00002PRCP06
0167823920999992004101218004-03700-040350FM-12+008399999V0201401N001012200019N0500001N1+03721+00971100581ADDAA106000091GF101991011011004501001001MA1999999099581MD1999999-0131REMSYN070AAXX  12184 82392 32499 11402 10372 20097 39958 40058 81100 333 59013;EQDQ01  00002PRCP06
0208823920999992004101300004-03700-040350FM-12+008399999V0203601N005112200019N0040001N1+02621+02031101021ADDAA106000091GA1001+999999999GF100991001001999999001001KA1240M+03801MA1999999100001MD1999999-0111REMSYN082AAXX  13004 82392 32996 03610 10262 20203 30000 40102 333 10380 29055 55106 59011;EQDQ01  00002PRCP06
0186823920999992004101312004-03700-040350FM-12+008399999V0200901N001012200019N0500001N1+02941+01881101221ADDAA106000091GF102991021011004501001001KA1240N+02001MA1999999100201MD1999999-0041REMSYN076AAXX  13124 82392 32499 20902 10294 20188 30020 40122 82100 333 20200 59004;EQDQ01  00002PRCP06
0167823920999992004101318004-03700-040350FM-12+008399999V0201401N001012200019N0500001N1+03701+01311100661ADDAA106000091GF101991011011004501001001MA1999999099651MD1999999+0071REMSYN070AAXX  13184 82392 32499 11402 10370 20131 39965 40066 81100 333 58007;EQDQ01  00002PRCP06
0186823920999992004101412004-03700-040350FM-12+008399999V0201801N000510042019N0500001N1+02841+02041101281ADDAA106000091GF107991051041004501031001KA1240N+02181MA1999999100261MD1999999+0061REMSYN076AAXX  14124 82392 32499 71801 10284 20204 30026 40128 85430 333 20218 58006;EQDQ01  00002PRCP06
0167823920999992004101418004-03700-040350FM-12+008399999V0200901N001010042019N0500001N1+03641+01551100641ADDAA106000091GF105991051021004501001001MA1999999099641MD1999999-0011REMSYN070AAXX  14184 82392 32499 50902 10364 20155 39964 40064 85200 333 59001;EQDQ01  00002PRCP06
0208823920999992004101500004-03700-040350FM-12+008399999V0200501N002612200019N0040001N1+02661+02161101071ADDAA106000091GA1001+999999999GF100991001001999999001001KA1240M+03671MA1999999100051MD1999999-0051REMSYN082AAXX  15004 82392 32996 00505 10266 20216 30005 40107 333 10367 29060 55084 59005;EQDQ01  00002PRCP06
0186823920999992004101612004-03700-040350FM-12+008399999V0200901N001012200019N0500001N1+02981+01951101251ADDAA106000091GF103991031011004501001001KA1240N+02201MA1999999100231MD1999999+0031REMSYN076AAXX  16124 82392 32499 30902 10298 20195 30023 40125 83100 333 20220 58003;EQDQ01  00002PRCP06
0167823920999992004101618004-03700-040350FM-12+008399999V0200901N000512200019N0500001N1+03681+01531100661ADDAA106000091GF102991021011004501001001MA1999999099651MD1999999-0021REMSYN070AAXX  16184 82392 32499 20901 10368 20153 39965 40066 82100 333 59002;EQDQ01  00002PRCP06
0208823920999992004101700004-03700-040350FM-12+008399999V0203601N001012200019N0040001N1+02761+01831101041ADDAA106000091GA1001+999999999GF100991001001999999001001KA1240M+03781MA1999999100031MD1999999-0131REMSYN082AAXX  17004 82392 32996 03602 10276 20183 30003 40104 333 10378 29049 55107 59013;EQDQ01  00002PRCP06
0186823920999992004101712004-03700-040350FM-12+008399999V0201401N001512200019N0500001N1+02881+01891101201ADDAA106000091GF102991021011004501001001KA1240N+02141MA1999999100181MD1999999-0051REMSYN076AAXX  17124 82392 32499 21403 10288 20189 30018 40120 82100 333 20214 59005;EQDQ01  00002PRCP06
0208823920999992004101800004-03700-040350FM-12+008399999V0203601N004112200019N0040001N1+02761+01801100921ADDAA106000091GA1001+999999999GF100991001001999999001001KA1240M+03701MA1999999099901MD1999999-0131REMSYN082AAXX  18004 82392 32996 03608 10276 20180 39990 40092 333 10370 29048 55108 59013;EQDQ01  00002PRCP06
0186823920999992004101812004-03700-040350FM-12+008399999V0200901N002610042019N0500001N1+02901+01991101261ADDAA106000091GF107991051041004501031001KA1240N+02181MA1999999100241MD1999999+0061REMSYN076AAXX  18124 82392 32499 70905 10290 20199 30024 40126 85430 333 20218 58006;EQDQ01  00002PRCP06
0167823920999992004101818004-03700-040350FM-12+008399999V0200501N001512200019N0500001N1+03601+01521100761ADDAA106000091GF104991041021004501001001MA1999999099751MD1999999+0121REMSYN070AAXX  18184 82392 32499 40503 10360 20152 39975 40076 84200 333 58012;EQDQ01  00002PRCP06
0208823920999992004101900004-03700-040350FM-12+008399999V0203601N001012200019N0040001N1+02671+02021101121ADDAA106000091GA1001+999999999GF100991001001999999001001KA1240M+03711MA1999999100101MD1999999-0081REMSYN082AAXX  19004 82392 32996 03602 10267 20202 30010 40112 333 10371 29055 55075 59008;EQDQ01  00002PRCP06
0186823920999992004101912004-03700-040350FM-12+008399999V0201401N002612200019N0500001N1+02881+02031101271ADDAA106000091GF103991031011004501001001KA1240N+02091MA1999999100251MD1999999+0011REMSYN076AAXX  19124 82392 32499 31405 10288 20203 30025 40127 83100 333 20209 58001;EQDQ01  00002PRCP06
0167823920999992004101918004-03700-040350FM-12+008399999V0201401N000512200019N0500001N1+03691+01551100731ADDAA106000091GF102991021011004501001001MA1999999099721MD1999999-0031REMSYN070AAXX  19184 82392 32499 21401 10369 20155 39972 40073 82100 333 59003;EQDQ01  00002PRCP06
0198823920999992004102000004-03700-040350FM-12+008399999V0203601N003112200019N0040001N1+02641+02161101221ADDAA106000091GF101991011001008001031001KA1240M+03701MA1999999100201MD1999999+0101REMSYN088AAXX  20004 82392 32596 13606 10264 20216 30020 40122 81030 333 10370 29060 55098 58010;EQDQ01  00002PRCP06
0186823920999992004102012004-03700-040350FM-12+008399999V0200901N003110042019N0500001N1+03001+02031101321ADDAA106000091GF105991051021004501001001KA1240N+02361MA1999999100301MD1999999+0051REMSYN076AAXX  20124 82392 32499 50906 10300 20203 30030 40132 85200 333 20236 58005;EQDQ01  00002PRCP06
0167823920999992004102018004-03700-040350FM-12+008399999V0200501N003110450019N0500001N1+03561+01781100811ADDAA106000091GF105991041011004501031001MA1999999099801MD1999999+0081REMSYN070AAXX  20184 82392 32499 50506 10356 20178 39980 40081 84130 333 58008;EQDQ01  00002PRCP06
0208823920999992004102100004-03700-040350FM-12+008399999V0203601N002612200019N0040001N1+02621+02051101131ADDAA106000091GA1001+999999999GF100991001001999999001001KA1240M+03661MA1999999100111MD1999999-0091REMSYN082AAXX  21004 82392 32996 03605 10262 20205 30011 40113 333 10366 29058 55095 59009;EQDQ01  00002PRCP06
0186823920999992004102112004-03700-040350FM-12+008399999V0203601N001010450019N0500001N1+02821+02151101351ADDAA106000091GF106991041041004501031001KA1240N+02261MA1999999100331MD1999999+0031REMSYN076AAXX  21124 82392 32499 63602 10282 20215 30033 40135 84430 333 20226 58003;EQDQ01  00002PRCP06
0167823920999992004102118004-03700-040350FM-12+008399999V0200501N000512200019N0500001N1+03641+01551100781ADDAA106000091GF105991041021004501001011MA1999999099771MD1999999-0031REMSYN070AAXX  21184 82392 32499 50501 10364 20155 39977 40078 84201 333 59003;EQDQ01  00002PRCP06
0186823920999992004102212004-03700-040350FM-12+008399999V0200501N004610042019N0500001N1+02961+02111101271ADDAA106000091GF105991051021004501001001KA1240N+02101MA1999999100251MD1999999-0081REMSYN076AAXX  22124 82392 32499 50509 10296 20211 30025 40127 85200 333 20210 59008;EQDQ01  00002PRCP06
0167823920999992004102218004-03700-040350FM-12+008399999V0200901N001512200019N0500001N1+03641+01551100741ADDAA106000091GF103991031011004501001001MA1999999099731MD1999999-0041REMSYN070AAXX  22184 82392 32499 30903 10364 20155 39973 40074 83100 333 59004;EQDQ01  00002PRCP06
0208823920999992004102300004-03700-040350FM-12+008399999V0200501N005112200019N0040001N1+02661+02161101121ADDAA106000091GA1001+999999999GF100991001001999999001001KA1240M+03641MA1999999100101MD1999999-0031REMSYN082AAXX  23004 82392 32996 00510 10266 20216 30010 40112 333 10364 29059 55107 59003;EQDQ01  00002PRCP06
0186823920999992004102312004-03700-040350FM-12+008399999V0200901N002110450019N0500001N1+02861+02161101171ADDAA106000091GF107991041041004501031001KA1240N+02281MA1999999100151MD1999999-0101REMSYN076AAXX  23124 82392 32499 70904 10286 20216 30015 40117 84430 333 20228 59010;EQDQ01  00002PRCP06
0167823920999992004102318004-03700-040350FM-12+008399999V0201401N001512200019N0500001N1+03621+01831100641ADDAA106000091GF103991031011004501001001MA1999999099641MD1999999-0091REMSYN070AAXX  23184 82392 32499 31403 10362 20183 39964 40064 83100 333 59009;EQDQ01  00002PRCP06
0208823920999992004102400004-03700-040350FM-12+008399999V0203601N004612200019N0040001N1+02601+02251101021ADDAA106000091GA1001+999999999GF100991001001999999001001KA1240M+03681MA1999999100001MD1999999-0101REMSYN082AAXX  24004 82392 32996 03609 10260 20225 30000 40102 333 10368 29066 55092 59010;EQDQ01  00002PRCP06
0202823920999992004102412004-03700-040350FM-12+008399999V0200501N000510042019N0500001N1+02411+02211101161ADDAA106000091GF107991051041004501031001KA1240N+99999MA1999999101141MD1999999-0011REMSYN076AAXX  24124 82392 32499 70501 10241 20221 30114 40116 85430 333 20250 59001;EQDQ01  00002PRCP06Q02 +02502ATMN  
0183823920999992004102418004-03700-040350FM-12+008399999V0201401N000512200019N0500001N1+03671+01691100591ADDAA106000091GF104991041021004501001001MA1999999099592MD1999999-0051REMSYN070AAXX  24184 82392 32499 41401 10367 20169 39959 40059 84200 333 59005;EQDQ01+099593APOSP Q02  00002PRCP06
0198823920999992004102500004-03700-040350FM-12+008399999V0203601N002612200019N0040001N1+02601+02251101011ADDAA106000091GF101991011001008001031001KA1240M+03661MA1999999099991MD1999999-0011REMSYN088AAXX  25004 82392 32596 13605 10260 20225 39999 40101 81030 333 10366 29065 55074 59001;EQDQ01  00002PRCP06
0186823920999992004102512004-03700-040350FM-12+008399999V0200901N004610450019N0500001N1+02981+02151101261ADDAA106000091GF107991041051004501031001KA1240N+02481MA1999999100241MD1999999+0101REMSYN076AAXX  25124 82392 32499 70909 10298 20215 30024 40126 84530 333 20248 58010;EQDQ01  00002PRCP06
0167823920999992004102518004-03700-040350FM-12+008399999V0200501N005710450019N0500001N1+03381+01981100711ADDAA106000091GF106991041041004501031001MA1999999099701MD1999999+0111REMSYN070AAXX  25184 82392 32499 60511 10338 20198 39970 40071 84430 333 58011;EQDQ01  00002PRCP06
0208823920999992004102600004-03700-040350FM-12+008399999V0203601N000512200019N0040001N1+02611+02101100971ADDAA106000091GA1001+999999999GF100991001001999999001001KA1240M+03531MA1999999099951MD1999999-0041REMSYN082AAXX  26004 82392 32996 03601 10261 20210 39995 40097 333 10353 29063 55082 59004;EQDQ01  00002PRCP06
0186823920999992004102612004-03700-040350FM-12+008399999V0200901N002612200019N0500001N1+02841+02121101241ADDAA106000091GF103991021011004501031001KA1240N+02021MA1999999100221MD1999999-0021REMSYN076AAXX  26124 82392 32499 30905 10284 20212 30022 40124 82130 333 20202 59002;EQDQ01  00002PRCP06
0198823920999992004102700004-03700-040350FM-12+008399999V0203601N001012200019N0040001N1+02671+02061101181ADDAA106000091GF103991011011004501001071KA1240M+03641MA1999999100161MD1999999+0211REMSYN088AAXX  27004 82392 32496 33602 10267 20206 30016 40118 81107 333 10364 29059 55104 58021;EQDQ01  00002PRCP06
0186823920999992004102712004-03700-040350FM-12+008399999V0200901N001010450019N0500001N1+02801+02081101421ADDAA106000091GF106991041021004501031001KA1240N+02041MA1999999100401MD1999999+0181REMSYN076AAXX  27124 82392 32499 60902 10280 20208 30040 40142 84230 333 20204 58018;EQDQ01  00002PRCP06
0208823920999992004102800004-03700-040350FM-12+008399999V0203601N001012200019N0040001N1+02661+02161101211ADDAA106000091GA1001+999999999GF100991001001999999001001KA1240M+03681MA1999999100191MD1999999+0031REMSYN082AAXX  28004 82392 32996 03602 10266 20216 30019 40121 333 10368 29061 55099 58003;EQDQ01  00002PRCP06
0186823920999992004102812004-03700-040350FM-12+008399999V0200901N002610042019N0500001N1+02921+01981101411ADDAA106000091GF107991051041004501031001KA1240N+02381MA1999999100391MD1999999-0011REMSYN076AAXX  28124 82392 32499 70905 10292 20198 30039 40141 85430 333 20238 59001;EQDQ01  00002PRCP06
0167823920999992004102818004-03700-040350FM-12+008399999V0200501N000512200019N0500001N1+03521+01551100801ADDAA106000091GF104991041021004501001001MA1999999099791MD1999999-0071REMSYN070AAXX  28184 82392 32499 40501 10352 20155 39979 40080 84200 333 59007;EQDQ01  00002PRCP06
0208823920999992004102900004-03700-040350FM-12+008399999V0203601N003112200019N0040001N1+02621+02121101121ADDAA106000091GA1001+999999999GF100991001001999999001001KA1240M+03701MA1999999100101MD1999999-0091REMSYN082AAXX  29004 82392 32996 03606 10262 20212 30010 40112 333 10370 29059 55082 59009;EQDQ01  00002PRCP06
0186823920999992004102912004-03700-040350FM-12+008399999V0200901N001512200019N0500001N1+02921+02061101271ADDAA106000091GF102991021011004501001001KA1240N+02201MA1999999100251MD1999999-0141REMSYN076AAXX  29124 82392 32499 20903 10292 20206 30025 40127 82100 333 20220 59014;EQDQ01  00002PRCP06
0167823920999992004102918004-03700-040350FM-12+008399999V0200501N001012200019N0500001N1+03641+01501100691ADDAA106000091GF103991031011004501001001MA1999999099681MD1999999-0111REMSYN070AAXX  29184 82392 32499 30502 10364 20150 39968 40069 83100 333 59011;EQDQ01  00002PRCP06
0208823920999992004103000004-03700-040350FM-12+008399999V0203601N002612200019N0040001N1+02621+02121101161ADDAA106000091GA1001+999999999GF100991001001999999001001KA1240M+03681MA1999999100151MD1999999+0051REMSYN082AAXX  30004 82392 32996 03605 10262 20212 30015 40116 333 10368 29059 55104 58005;EQDQ01  00002PRCP06
0186823920999992004103012004-03700-040350FM-12+008399999V0201401N001510042019N0500001N1+02941+01941101321ADDAA106000091GF105991051021004501001001KA1240N+02281MA1999999100301MD1999999+0051REMSYN076AAXX  30124 82392 32499 51403 10294 20194 30030 40132 85200 333 20228 58005;EQDQ01  00002PRCP06
0167823920999992004103018004-03700-040350FM-12+008399999V0201401N000512200019N0500001N1+03671+01581100771ADDAA106000091GF102991021011004501001001MA1999999099761MD1999999+0081REMSYN070AAXX  30184 82392 32499 21401 10367 20158 39976 40077 82100 333 58008;EQDQ01  00002PRCP06
0208823920999992004103100004-03700-040350FM-12+008399999V0203601N002612200019N0040001N1+02711+02221101191ADDAA106000091GA1001+999999999GF100991001001999999001001KA1240M+03701MA1999999100171MD1999999+0021REMSYN082AAXX  31004 82392 32996 03605 10271 20222 30017 40119 333 10370 29058 55109 58002;EQDQ01  00002PRCP06
0208823920999992004110100004-03700-040350FM-12+008399999V0203601N003112200019N0040001N1+02701+01991101151ADDAA106000091GA1001+999999999GF100991001001999999001001KA1240M+03681MA1999999100141MD1999999-0031REMSYN082AAXX  01004 82392 32996 03606 10270 20199 30014 40115 333 10368 29055 55111 59003;EQDQ01  00002PRCP06
0186823920999992004110112004-03700-040350FM-12+008399999V0200901N002610042019N0500001N1+02901+02171101351ADDAA106000091GF106991061021004501001001KA1240N+02301MA1999999100331MD1999999-0011REMSYN076AAXX  01124 82392 32499 60905 10290 20217 30033 40135 86200 333 20230 59001;EQDQ01  00002PRCP06
0208823920999992004110200004-03700-040350FM-12+008399999V0203601N001512200019N0040001N1+02681+02021101051ADDAA106000091GA1001+999999999GF100991001001999999001001KA1240M+03671MA1999999100031MD1999999+0111REMSYN082AAXX  02004 82392 32996 03603 10268 20202 30003 40105 333 10367 29066 55092 58011;EQDQ01  00002PRCP06
0186823920999992004110212004-03700-040350FM-12+008399999V0200901N001010450019N0500001N1+02881+02181101181ADDAA106000091GF106991031041004501031001KA1240N+02341MA1999999100161MD1999999+0171REMSYN076AAXX  02124 82392 32499 60902 10288 20218 30016 40118 83430 333 20234 58017;EQDQ01  00002PRCP06
0208823920999992004110300004-03700-040350FM-12+008399999V0203601N001012200019N0040001N1+02641+02161101011ADDAA106000091GA1001+999999999GF100991001001999999001001KA1240M+03741MA1999999099991MD1999999-0041REMSYN082AAXX  03004 82392 32996 03602 10264 20216 39999 40101 333 10374 29072 55086 59004;EQDQ01  00002PRCP06
0186823920999992004110312004-03700-040350FM-12+008399999V0200901N001512200019N0500001N1+02981+01981101141ADDAA106000091GF102991021011004501001001KA1240N+02201MA1999999100121MD1999999-0041REMSYN076AAXX  03124 82392 32499 20903 10298 20198 30012 40114 82100 333 20220 59004;EQDQ01  00002PRCP06
0208823920999992004110400004-03700-040350FM-12+008399999V0203601N001012200019N0040001N1+02661+02021101041ADDAA106000091GA1001+999999999GF100991001001999999001001KA1240M+03631MA1999999100021MD1999999+0061REMSYN082AAXX  04004 82392 32996 03602 10266 20202 30002 40104 333 10363 29064 55108 58006;EQDQ01  00002PRCP06
0186823920999992004110412004-03700-040350FM-12+008399999V0200901N004612200019N0500001N1+03041+02031101151ADDAA106000091GF103991031011004501001001KA1240N+02251MA1999999100141MD1999999+0021REMSYN076AAXX  04124 82392 32499 30909 10304 20203 30014 40115 83100 333 20225 58002;EQDQ01  00002PRCP06
0208823920999992004110500004-03700-040350FM-12+008399999V0203601N003112200019N0040001N1+02601+02121101071ADDAA106000091GA1001+999999999GF100991001001999999001001KA1240M+03621MA1999999100051MD1999999+0031REMSYN082AAXX  05004 82392 32996 03606 10260 20212 30005 40107 333 10362 29068 55111 58003;EQDQ01  00002PRCP06
0186823920999992004110512004-03700-040350FM-12+008399999V0200501N001010450019N0500001N1+02981+02121101271ADDAA106000091GF106991041021004501031001KA1240N+02201MA1999999100251MD1999999+0111REMSYN076AAXX  05124 82392 32499 60502 10298 20212 30025 40127 84230 333 20220 58011;EQDQ01  00002PRCP06
0208823920999992004110600004-03700-040350FM-12+008399999V0203601N004112200019N0040001N1+02681+02091101101ADDAA106000091GA1001+999999999GF100991001001999999001001KA1240M+03641MA1999999100081MD1999999+0031REMSYN082AAXX  06004 82392 32996 03608 10268 20209 30008 40110 333 10364 29067 55102 58003;EQDQ01  00002PRCP06
0186823920999992004110612004-03700-040350FM-12+008399999V0201401N001012200019N0500001N1+02981+02121101181ADDAA106000091GF101991011011004501001001KA1240N+02031MA1999999100161MD1999999-0091REMSYN076AAXX  06124 82392 32499 11402 10298 20212 30016 40118 81100 333 20203 59009;EQDQ01  00002PRCP06
0208823920999992004110700004-03700-040350FM-12+008399999V0203601N004612200019N0040001N1+02601+02121100921ADDAA106000091GA1001+999999999GF100991001001999999001001KA1240M+03761MA1999999099901MD1999999-0181REMSYN082AAXX  07004 82392 32996 03609 10260 20212 39990 40092 333 10376 29070 55109 59018;EQDQ01  00002PRCP06
0186823920999992004110712004-03700-040350FM-12+008399999V0201401N001010042019N0500001N1+02861+02111101181ADDAA106000091GF105991051021004501001001KA1240N+02121MA1999999100161MD1999999+0001REMSYN076AAXX  07124 82392 32499 51402 10286 20211 30016 40118 85200 333 20212 58000;EQDQ01  00002PRCP06
0208823920999992004110800004-03700-040350FM-12+008399999V0203601N002612200019N0040001N1+02701+02221101021ADDAA106000091GA1001+999999999GF100991001001999999001001KA1240M+03661MA1999999100001MD1999999+0101REMSYN082AAXX  08004 82392 32996 03605 10270 20222 30000 40102 333 10366 29071 55087 58010;EQDQ01  00002PRCP06
0186823920999992004110812004-03700-040350FM-12+008399999V0200901N002610042019N0500001N1+02901+02041101161ADDAA106000091GF107991051051004501031001KA1240N+02401MA1999999100141MD1999999-0021REMSYN076AAXX  08124 82392 32499 70905 10290 20204 30014 40116 85530 333 20240 59002;EQDQ01  00002PRCP06
0208823920999992004110900004-03700-040350FM-12+008399999V0203601N002612200019N0040001N1+02641+02051101101ADDAA106000091GA1001+999999999GF100991001001999999001001KA1240M+03621MA1999999100081MD1999999+0081REMSYN082AAXX  09004 82392 32996 03605 10264 20205 30008 40110 333 10362 29067 55075 58008;EQDQ01  00002PRCP06
0186823920999992004110912004-03700-040350FM-12+008399999V0200501N003112200019N0500001N1+03001+01981101321ADDAA106000091GF102991021011004501001001KA1240N+02201MA1999999100301MD1999999+0161REMSYN076AAXX  09124 82392 32499 20506 10300 20198 30030 40132 82100 333 20220 58016;EQDQ01  00002PRCP06
0186823920999992004111012004-03700-040350FM-12+008399999V0200901N002612200019N0500001N1+03001+02001101231ADDAA106000091GF102991021011004501001001KA1240N+02221MA1999999100211MD1999999-0091REMSYN076AAXX  10124 82392 32499 20905 10300 20200 30021 40123 82100 333 20222 59009;EQDQ01  00002PRCP06
0208823920999992004111100004-03700-040350FM-12+008399999V0203601N004612200019N0040001N1+02681+02091101071ADDAA106000091GA1001+999999999GF100991001001999999001001KA1240M+03701MA1999999100051MD1999999-0051REMSYN082AAXX  11004 82392 32996 03609 10268 20209 30005 40107 333 10370 29065 55103 59005;EQDQ01  00002PRCP06
0186823920999992004111112004-03700-040350FM-12+008399999V0200901N001010042019N0500001N1+02901+02251101141ADDAA106000091GF107991051051004501031001KA1240N+02281MA1999999100121MD1999999-0091REMSYN076AAXX  11124 82392 32499 70902 10290 20225 30012 40114 85530 333 20228 59009;EQDQ01  00002PRCP06
0208823920999992004111200004-03700-040350FM-12+008399999V0200501N003112200019N0040001N1+02681+02201100961ADDAA106000091GA1001+999999999GF100991001001999999001001KA1240M+03661MA1999999099941MD1999999-0111REMSYN082AAXX  12004 82392 32996 00506 10268 20220 39994 40096 333 10366 29073 55083 59011;EQDQ01  00002PRCP06
0186823920999992004111212004-03700-040350FM-12+008399999V0200901N004112200019N0500001N1+03001+01941101071ADDAA106000091GF103991031011004501001001KA1240N+02201MA1999999100051MD1999999-0071REMSYN076AAXX  12124 82392 32499 30908 10300 20194 30005 40107 83100 333 20220 59007;EQDQ01  00002PRCP06
0208823920999992004111300004-03700-040350FM-12+008399999V0200501N004112200019N0040001N1+02701+02131100871ADDAA106000091GA1001+999999999GF100991001001999999001001KA1240M+03641MA1999999099861MD1999999-0081REMSYN082AAXX  13004 82392 32996 00508 10270 20213 39986 40087 333 10364 29065 55111 59008;EQDQ01  00002PRCP06
0186823920999992004111312004-03700-040350FM-12+008399999V0200901N001512200019N0500001N1+03041+02061101041ADDAA106000091GF104991031011004501031001KA1240N+02221MA1999999100031MD1999999-0021REMSYN076AAXX  13124 82392 32499 40903 10304 20206 30003 40104 83130 333 20222 59002;EQDQ01  00002PRCP06
0208823920999992004111400004-03700-040350FM-12+008399999V0200501N004112200019N0040001N1+02701+02241100941ADDAA106000091GA1001+999999999GF100991001001999999001001KA1240M+03721MA1999999099931MD1999999+0071REMSYN082AAXX  14004 82392 32996 00508 10270 20224 39993 40094 333 10372 29069 55108 58007;EQDQ01  00002PRCP06
0186823920999992004111412004-03700-040350FM-12+008399999V0200901N004612200019N0500001N1+03061+02081101061ADDAA106000091GF102991021011004501001001KA1240N+02341MA1999999100051MD1999999+0021REMSYN076AAXX  14124 82392 32499 20909 10306 20208 30005 40106 82100 333 20234 58002;EQDQ01  00002PRCP06
0208823920999992004111500004-03700-040350FM-12+008399999V0200501N003112200019N0040001N1+02681+02091100911ADDAA106000091GA1001+999999999GF100991001001999999001001KA1240M+03801MA1999999099901MD1999999-0031REMSYN082AAXX  15004 82392 32996 00506 10268 20209 39990 40091 333 10380 29065 55109 59003;EQDQ01  00002PRCP06
0186823920999992004111512004-03700-040350FM-12+008399999V0200901N001512200019N0500001N1+02961+02051101221ADDAA106000091GF104991041021004501001001KA1240N+02381MA1999999100201MD1999999+0151REMSYN076AAXX  15124 82392 32499 40903 10296 20205 30020 40122 84200 333 20238 58015;EQDQ01  00002PRCP06
0208823920999992004111600004-03700-040350FM-12+008399999V0203601N003112200019N0040001N1+02701+02111101121ADDAA106000091GA1001+999999999GF100991001001999999001001KA1240M+03661MA1999999100101MD1999999+0201REMSYN082AAXX  16004 82392 32996 03606 10270 20211 30010 40112 333 10366 29066 55087 58020;EQDQ01  00002PRCP06
0186823920999992004111612004-03700-040350FM-12+008399999V0200501N004112200019N0500001N1+02961+01871101321ADDAA106000091GF101991011001008001001011KA1240N+02081MA1999999100301MD1999999+0101REMSYN076AAXX  16124 82392 32599 10508 10296 20187 30030 40132 81001 333 20208 58010;EQDQ01  00002PRCP06
0186823920999992004111712004-03700-040350FM-12+008399999V0200901N004612200019N0500001N1+02901+02201101371ADDAA106000091GF104991041021004501001001KA1240N+01981MA1999999100351MD1999999+0051REMSYN076AAXX  17124 82392 32499 40909 10290 20220 30035 40137 84200 333 20198 58005;EQDQ01  00002PRCP06
0198823920999992004111800004-03700-040350FM-12+008399999V0200501N004612200019N0040001N1+02721+02121101271ADDAA106000091GF103991011011008001031001KA1240M+03721MA1999999100251MD1999999+0051REMSYN088AAXX  18004 82392 32596 30509 10272 20212 30025 40127 81130 333 10372 29069 55093 58005;EQDQ01  00002PRCP06
0186823920999992004111812004-03700-040350FM-12+008399999V0200501N002612200019N0500001N1+02961+02131101321ADDAA106000091GF104991041021004501001001KA1240N+02151MA1999999100301MD1999999-0051REMSYN076AAXX  18124 82392 32499 40505 10296 20213 30030 40132 84200 333 20215 59005;EQDQ01  00002PRCP06
0208823920999992004111900004-03700-040350FM-12+008399999V0200501N003112200019N0040001N1+02721+02031101171ADDAA106000091GA1001+999999999GF100991001001999999001001KA1240M+03741MA1999999100151MD1999999-0101REMSYN082AAXX  19004 82392 32996 00506 10272 20203 30015 40117 333 10374 29064 55107 59010;EQDQ01  00002PRCP06
0208823920999992004112100004-03700-040350FM-12+008399999V0200501N004612200019N0040001N1+02661+02181101221ADDAA106000091GA1001+999999999GF100991001001999999001001KA1240M+03641MA1999999100201MD1999999-0151REMSYN082AAXX  21004 82392 32996 00509 10266 20218 30020 40122 333 10364 29072 55101 59015;EQDQ01  00002PRCP06
0186823920999992004112112004-03700-040350FM-12+008399999V0200501N001512200019N0500001N1+02921+02061101371ADDAA106000091GF102991021011004501001001KA1240N+02181MA1999999100351MD1999999+0031REMSYN076AAXX  21124 82392 32499 20503 10292 20206 30035 40137 82100 333 20218 58003;EQDQ01  00002PRCP06
0208823920999992004112200004-03700-040350FM-12+008399999V0203601N003112200019N0040001N1+02701+01991101221ADDAA106000091GA1001+999999999GF100991001001999999001001KA1240M+03721MA1999999100201MD1999999+0001REMSYN082AAXX  22004 82392 32996 03606 10270 20199 30020 40122 333 10372 29063 55094 58000;EQDQ01  00002PRCP06
0186823920999992004112212004-03700-040350FM-12+008399999V0200501N001010450019N0500001N1+02781+02231101411ADDAA106000091GF106991041051004501031001KA1240N+02301MA1999999100391MD1999999+0041REMSYN076AAXX  22124 82392 32499 60502 10278 20223 30039 40141 84530 333 20230 58004;EQDQ01  00002PRCP06
0198823920999992004112300004-03700-040350FM-12+008399999V0203601N002612200019N0040001N1+02701+02151101171ADDAA106000091GF102991021001999999031001KA1240M+03621MA1999999100151MD1999999-0051REMSYN088AAXX  23004 82392 32996 23605 10270 20215 30015 40117 82030 333 10362 29072 55077 59005;EQDQ01  00002PRCP06
0186823920999992004112312004-03700-040350FM-12+008399999V0200901N001010006019N0000001N1+02761+02121101341ADDAA106000091GF107991051051000751031001KA1240N+02201MA1999999100321MD1999999-0071REMSYN076AAXX  23124 82392 32190 70902 10276 20212 30032 40134 85530 333 20220 59007;EQDQ01  00002PRCP06
0208823920999992004112400004-03700-040350FM-12+008399999V0203601N003112200019N0040001N1+02641+02051101171ADDAA106000091GA1001+999999999GF100991001001999999001001KA1240M+03641MA1999999100151MD1999999+0001REMSYN082AAXX  24004 82392 32996 03606 10264 20205 30015 40117 333 10364 29069 55084 58000;EQDQ01  00002PRCP06
0208823920999992004112500004-03700-040350FM-12+008399999V0200501N004612200019N0040001N1+02661+02071101121ADDAA106000091GA1001+999999999GF100991001001999999001001KA1240M+03661MA1999999100101MD1999999-0051REMSYN082AAXX  25004 82392 32996 00509 10266 20207 30010 40112 333 10366 29067 55102 59005;EQDQ01  00002PRCP06
0208823920999992004112600004-03700-040350FM-12+008399999V0203601N005112200019N0040001N1+02681+01841100981ADDAA106000091GA1001+999999999GF100991001001999999001001KA1240M+03681MA1999999099961MD1999999-0141REMSYN082AAXX  26004 82392 32996 03610 10268 20184 39996 40098 333 10368 29060 55105 59014;EQDQ01  00002PRCP06
0172823920999992004112612004-03700-040350FM-12+008399999V0200901N001510042019N0500001N1+02721+02171101221ADDAA106000091GF108991061051004501021999KA1240N+02241MA1999999100201REMSYN076AAXX  26124 82392 32499 80903 10272 20217 30020 40122 8652/ 333 20224 50000;EQDQ01  00002PRCP06
0208823920999992004112700004-03700-040350FM-12+008399999V0200501N005112200019N0040001N1+02641+02231101001ADDAA106000091GA1001+999999999GF100991001001999999001001KA1240M+03541MA1999999099981MD1999999+0021REMSYN082AAXX  27004 82392 32996 00510 10264 20223 39998 40100 333 10354 29076 55038 58002;EQDQ01  00002PRCP06
0186823920999992004112712004-03700-040350FM-12+008399999V0200501N002610450019N0500001N1+02861+02211101221ADDAA106000091GF106991041041004501031001KA1240N+02281MA1999999100201MD1999999+0001REMSYN076AAXX  27124 82392 32499 60505 10286 20221 30020 40122 84430 333 20228 58000;EQDQ01  00002PRCP06
0208823920999992004112800004-03700-040350FM-12+008399999V0200501N005712200019N0040001N1+02621+02141101081ADDAA106000091GA1001+999999999GF100991001001999999001001KA1240M+03641MA1999999100061MD1999999+0081REMSYN082AAXX  28004 82392 32996 00511 10262 20214 30006 40108 333 10364 29073 55054 58008;EQDQ01  00002PRCP06
0166823920999992004112812004-03700-040350FM-12+008399999V0200901N001512200019N0500001N1+02801+02081101221ADDAA106000091GF104991021011004501031001KA1999N+02121MA1999999100201REMSYN070AAXX  28124 82392 32499 40903 10280 20208 30020 40122 82130 333 20212;EQDQ01  00002PRCP06
0208823920999992004112900004-03700-040350FM-12+008399999V0200501N004612200019N0040001N1+02681+02111101021ADDAA106000091GA1001+999999999GF100991001001999999001001KA1240M+03741MA1999999100001MD1999999+0061REMSYN082AAXX  29004 82392 32996 00509 10268 20211 30000 40102 333 10374 29069 55081 58006;EQDQ01  00002PRCP06
0186823920999992004112912004-03700-040350FM-12+008399999V0203601N000510450019N0500001N1+02801+02061101221ADDAA106000091GF106991041021004501031001KA1240N+02181MA1999999100201MD1999999+0001REMSYN076AAXX  29124 82392 32499 63601 10280 20206 30020 40122 84230 333 20218 58000;EQDQ01  00002PRCP06
0208823920999992004113000004-03700-040350FM-12+008399999V0203601N004112200019N0040001N1+02601+01841101021ADDAA106000091GA1001+999999999GF100991001001999999001001KA1240M+03641MA1999999100001MD1999999+0001REMSYN082AAXX  30004 82392 32996 03608 10260 20184 30000 40102 333 10364 29061 55091 58000;EQDQ01  00002PRCP06
0186823920999992004113012004-03700-040350FM-12+008399999V0200901N002612200019N0500001N1+02961+02131101161ADDAA106000091GF103991031011004501001001KA1240N+02341MA1999999100141MD1999999-0061REMSYN076AAXX  30124 82392 32499 30905 10296 20213 30014 40116 83100 333 20234 59006;EQDQ01  00002PRCP06
0186823920999992004120112004-03700-040350FM-12+008399999V0201401N001012200019N0500001N1+02861+02011101141ADDAA106000091GF102991021021004501001001KA1240N+02021MA1999999100121MD1999999-0021REMSYN076AAXX  01124 82392 32499 21402 10286 20201 30012 40114 82200 333 20202 59002;EQDQ01  00002PRCP06
0208823920999992004120200004-03700-040350FM-12+008399999V0203601N004612200019N0040001N1+02781+01931100921ADDAA106000091GA1001+999999999GF100991001001999999001001KA1240M+03721MA1999999099901MD1999999-0101REMSYN082AAXX  02004 82392 32996 03609 10278 20193 39990 40092 333 10372 29050 55112 59010;EQDQ01  00002PRCP06
0186823920999992004120212004-03700-040350FM-12+008399999V0200501N001010450019N0500001N1+02971+02041101041ADDAA106000091GF106991031021004501031011KA1240N+02291MA1999999100031MD1999999-0091REMSYN076AAXX  02124 82392 32499 60502 10297 20204 30003 40104 83231 333 20229 59009;EQDQ01  00002PRCP06
0167823920999992004120218004-03700-040350FM-12+008399999V0201401N000510042019N0500001N1+03741+01691100531ADDAA106000091GF105991051021004501001001MA1999999099531MD1999999+0001REMSYN070AAXX  02184 82392 32499 51401 10374 20169 39953 40053 85200 333 58000;EQDQ01  00002PRCP06
0208823920999992004120300004-03700-040350FM-12+008399999V0200501N005112200019N0040001N1+02701+02151100961ADDAA106000091GA1001+999999999GF100991001001999999001001KA1240M+03741MA1999999099941MD1999999+0041REMSYN082AAXX  03004 82392 32996 00510 10270 20215 39994 40096 333 10374 29058 55102 58004;EQDQ01  00002PRCP06
0186823920999992004120312004-03700-040350FM-12+008399999V0200901N003610450019N0500001N1+02941+02081101221ADDAA106000091GF106991041021004501031001KA1240N+02381MA1999999100201MD1999999+0171REMSYN076AAXX  03124 82392 32499 60907 10294 20208 30020 40122 84230 333 20238 58017;EQDQ01  00002PRCP06
0167823920999992004120318004-03700-040350FM-12+008399999V0200901N000512200019N0500001N1+03681+01641100641ADDAA106000091GF104991031021004501001011MA1999999099641MD1999999+0111REMSYN070AAXX  03184 82392 32499 40901 10368 20164 39964 40064 83201 333 58011;EQDQ01  00002PRCP06
0208823920999992004120400004-03700-040350FM-12+008399999V0200501N004612200019N0040001N1+02701+02111101101ADDAA106000091GA1001+999999999GF100991001001999999001001KA1240M+03701MA1999999100081MD1999999+0141REMSYN082AAXX  04004 82392 32996 00509 10270 20211 30008 40110 333 10370 29058 55093 58014;EQDQ01  00002PRCP06
0186823920999992004120412004-03700-040350FM-12+008399999V0200901N001010042019N0500001N1+02941+02001101291ADDAA106000091GF106991061021004501001001KA1240N+02301MA1999999100271MD1999999+0071REMSYN076AAXX  04124 82392 32499 60902 10294 20200 30027 40129 86200 333 20230 58007;EQDQ01  00002PRCP06
0208823920999992004120500004-03700-040350FM-12+008399999V0200501N001012200019N0040001N1+02761+02021101181ADDAA106000091GA1001+999999999GF100991001001999999001001KA1240M+03731MA1999999100171MD1999999+0091REMSYN082AAXX  05004 82392 32996 00502 10276 20202 30017 40118 333 10373 29054 55108 58009;EQDQ01  00002PRCP06
0186823920999992004120512004-03700-040350FM-12+008399999V0200901N003110450019N0500001N1+03061+02051101311ADDAA106000091GF107991041041004501031001KA1240N+02201MA1999999100301MD1999999+0031REMSYN076AAXX  05124 82392 32499 70906 10306 20205 30030 40131 84430 333 20220 58003;EQDQ01  00002PRCP06
0167823920999992004120518004-03700-040350FM-12+008399999V0202301N001012200019N0500001N1+03691+01551100741ADDAA106000091GF103991031011004501001001MA1999999099731MD1999999-0041REMSYN070AAXX  05184 82392 32499 32302 10369 20155 39973 40074 83100 333 59004;EQDQ01  00002PRCP06
0208823920999992004120600004-03700-040350FM-12+008399999V0200501N004112200019N0040001N1+02701+02061101111ADDAA106000091GA1001+999999999GF100991001001999999001001KA1240M+03781MA1999999100101MD1999999-0071REMSYN082AAXX  06004 82392 32996 00508 10270 20206 30010 40111 333 10378 29055 55101 59007;EQDQ01  00002PRCP06
0186823920999992004120612004-03700-040350FM-12+008399999V0202301N000510450019N0500001N1+02821+02171101261ADDAA106000091GF106991041041004501031001KA1240N+02201MA1999999100241MD1999999-0061REMSYN076AAXX  06124 82392 32499 62301 10282 20217 30024 40126 84430 333 20220 59006;EQDQ01  00002PRCP06
0167823920999992004120618004-03700-040350FM-12+008399999V0200501N004612200019N0500001N1+03701+01651100671ADDAA106000091GF104991031021004501031001MA1999999099661MD1999999-0071REMSYN070AAXX  06184 82392 32499 40509 10370 20165 39966 40067 83230 333 59007;EQDQ01  00002PRCP06
0193823920999992004120700004-03700-040350FM-12+008399999V0203601N002612200019N0040001N1+02701+02031100991ADDAA106000091GA1001+999999999GF100991001001999999001001KA1240M+03741MA1999999099971REMSYN081AAXX  07004 82392 32996 03605 10270 20203 39997 40099 333 10374 9058 55085 59013;EQDQ01  00002PRCP06
0186823920999992004120712004-03700-040350FM-12+008399999V0200901N001010450019N0500001N1+02861+02161101261ADDAA106000091GF106991041051004501031001KA1240N+02291MA1999999100241MD1999999+0001REMSYN076AAXX  07124 82392 32499 60902 10286 20216 30024 40126 84530 333 20229 58000;EQDQ01  00002PRCP06
0167823920999992004120718004-03700-040350FM-12+008399999V0202301N001010042019N0500001N1+03691+01811100691ADDAA106000091GF106991051051004501031001MA1999999099681MD1999999+0021REMSYN070AAXX  07184 82392 32499 62302 10369 20181 39968 40069 85530 333 58002;EQDQ01  00002PRCP06
0208823920999992004120800004-03700-040350FM-12+008399999V0203601N001512200019N0040001N1+02701+02091101051ADDAA106000091GA1001+999999999GF100991001001999999001001KA1240M+03701MA1999999100031MD1999999+0061REMSYN082AAXX  08004 82392 32996 03603 10270 20209 30003 40105 333 10370 29059 55071 58006;EQDQ01  00002PRCP06
0186823920999992004120812004-03700-040350FM-12+008399999V0200901N003112200019N0500001N1+03001+01841101331ADDAA106000091GF104991041021004501001001KA1240N+02021MA1999999100321MD1999999+0081REMSYN076AAXX  08124 82392 32499 40906 10300 20184 30032 40133 84200 333 20202 58008;EQDQ01  00002PRCP06
0202823920999992004120900004-03700-040350FM-12+008399999V0203601N003112200019N0040001N1+02701+02031101101ADDAA106000091GA1001+999999999GF100991001001999999001001KA1240M+03541MA1999999100091MD1999999+0061REMSYN076AAXX  09004 82392 32996 03606 10270 20203 30009 40110 333 10354 29055 58006;EQDQ01  00002PRCP06
0186823920999992004120912004-03700-040350FM-12+008399999V0200501N001010042019N0500001N1+02861+02011101201ADDAA106000091GF107991061051004501031001KA1240N+02401MA1999999100181MD1999999-0141REMSYN076AAXX  09124 82392 32499 70502 10286 20201 30018 40120 86530 333 20240 59014;EQDQ01  00002PRCP06
0208823920999992004121000004-03700-040350FM-12+008399999V0200501N004112200019N0040001N1+02601+02141101021ADDAA106000091GA1001+999999999GF100991001001999999001001KA1240M+03561MA1999999100001MD1999999-0091REMSYN082AAXX  10004 82392 32996 00508 10260 20214 30000 40102 333 10356 29062 55067 59009;EQDQ01  00002PRCP06
0186823920999992004121012004-03700-040350FM-12+008399999V0200501N001512200019N0500001N1+02861+02161101241ADDAA106000091GF104991041021004501001001KA1240N+02201MA1999999100221MD1999999+0041REMSYN076AAXX  10124 82392 32499 40503 10286 20216 30022 40124 84200 333 20220 58004;EQDQ01  00002PRCP06
0208823920999992004121100004-03700-040350FM-12+008399999V0200501N004612200019N0500001N1+02601+02061101021ADDAA106000091GA1001+999999999GF100991001001999999001001KA1240M+03641MA1999999100001MD1999999+0001REMSYN082AAXX  11004 82392 32499 00509 10260 20206 30000 40102 333 10364 29061 55082 58000;EQDQ01  00002PRCP06
0186823920999992004121112004-03700-040350FM-12+008399999V0203601N003112200019N0500001N1+02881+02031101251ADDAA106000091GF101991011011004501001001KA1240N+02281MA1999999100231MD1999999+0011REMSYN076AAXX  11124 82392 32499 13606 10288 20203 30023 40125 81100 333 20228 58001;EQDQ01  00002PRCP06
0208823920999992004121200004-03700-040350FM-12+008399999V0200501N003112200019N0040001N1+02681+02261101041ADDAA106000091GA1001+999999999GF100991001001999999001001KA1240M+03741MA1999999100021MD1999999+0021REMSYN082AAXX  12004 82392 32996 00506 10268 20226 30002 40104 333 10374 29062 55108 58002;EQDQ01  00002PRCP06
0208823920999992004121300004-03700-040350FM-12+008399999V0203601N002612200019N0040001N1+02701+02031101091ADDAA106000091GA1001+999999999GF100991001001999999001001KA1240M+03641MA1999999100071MD1999999+0051REMSYN082AAXX  13004 82392 32996 03605 10270 20203 30007 40109 333 10364 29059 55069 58005;EQDQ01  00002PRCP06
0186823920999992004121312004-03700-040350FM-12+008399999V0200501N002112200019N0500001N1+03061+01961101311ADDAA106000091GF102991021011004501001001KA1240N+02281MA1999999100301MD1999999+0061REMSYN076AAXX  13124 82392 32499 20504 10306 20196 30030 40131 82100 333 20228 58006;EQDQ01  00002PRCP06
0167823920999992004121318004-03700-040350FM-12+008399999V0200901N001012200019N0500001N1+03481+01751100831ADDAA106000091GF103991031021004501001001MA1999999099821MD1999999+0151REMSYN070AAXX  13184 82392 32499 30902 10348 20175 39982 40083 83200 333 58015;EQDQ01  00002PRCP06
0186823920999992004121412004-03700-040350FM-12+008399999V0200901N002610450019N0500001N1+02801+02181101261ADDAA106000091GF106991041041004501031001KA1240N+02301MA1999999100241MD1999999-0061REMSYN076AAXX  14124 82392 32499 60905 10280 20218 30024 40126 84430 333 20230 59006;EQDQ01  00002PRCP06
0167823920999992004121418004-03700-040350FM-12+008399999V0200501N000512200019N0500001N1+03571+01841100751ADDAA106000091GF104991041021004501001001MA1999999099741MD1999999-0081REMSYN070AAXX  14184 82392 32499 40501 10357 20184 39974 40075 84200 333 59008;EQDQ01  00002PRCP06
0208823920999992004121500004-03700-040350FM-12+008399999V0203601N003112200019N0040001N1+02621+02121101121ADDAA106000091GA1001+999999999GF100991001001999999001001KA1240M+03611MA1999999100101MD1999999+0011REMSYN082AAXX  15004 82392 32996 03606 10262 20212 30010 40112 333 10361 29063 55084 58001;EQDQ01  00002PRCP06
0167823920999992004121518004-03700-040350FM-12+008399999V0201401N002112200019N0500001N1+03541+01801100711ADDAA106000091GF104991041021004501001001MA1999999099701MD1999999-0041REMSYN070AAXX  15184 82392 32499 41404 10354 20180 39970 40071 84200 333 59004;EQDQ01  00002PRCP06
0208823920999992004121600004-03700-040350FM-12+008399999V0203601N002612200019N0040001N1+03561+01921100971ADDAA106000091GA1001+999999999GF100991001001999999001001KA1240M+03571MA1999999099951MD1999999-0151REMSYN082AAXX  16004 82392 32996 03605 10356 20192 39995 40097 333 10357 29057 55081 59015;EQDQ01  00002PRCP06
0186823920999992004121612004-03700-040350FM-12+008399999V0200901N001010042019N0500001N1+02781+01961101161ADDAA106000091GF106991061051004501001001KA1240N+02201MA1999999100141MD1999999-0061REMSYN076AAXX  16124 82392 32499 60902 10278 20196 30014 40116 86500 333 20220 59006;EQDQ01  00002PRCP06
0208823920999992004121700004-03700-040350FM-12+008399999V0200501N005112200019N0040001N1+02661+02181100951ADDAA106000091GA1001+999999999GF100991001001999999001001KA1240M+03541MA1999999099931MD1999999-0011REMSYN082AAXX  17004 82392 32996 00510 10266 20218 39993 40095 333 10354 29061 55087 59001;EQDQ01  00002PRCP06
0186823920999992004121712004-03700-040350FM-12+008399999V0200501N002612200019N0500001N1+02881+02081101161ADDAA106000091GF104991041021004501001001KA1240N+02181MA1999999100141MD1999999+0001REMSYN076AAXX  17124 82392 32499 40505 10288 20208 30014 40116 84200 333 20218 58000;EQDQ01  00002PRCP06
0167823920999992004121718004-03700-040350FM-12+008399999V0200901N001512200019N0500001N1+03541+01621100601ADDAA106000091GF104991041021004501001001MA1999999099601MD1999999-0061REMSYN070AAXX  17184 82392 32499 40903 10354 20162 39960 40060 84200 333 59006;EQDQ01  00002PRCP06
0208823920999992004121800004-03700-040350FM-12+008399999V0200501N004612200019N0040001N1+02661+02111100961ADDAA106000091GA1001+999999999GF100991001001999999001001KA1240M+03621MA1999999099941MD1999999+0001REMSYN082AAXX  18004 82392 32996 00509 10266 20211 39994 40096 333 10362 29059 55094 58000;EQDQ01  00002PRCP06
0186823920999992004121812004-03700-040350FM-12+008399999V0200501N001010042019N0500001N1+02941+01941101221ADDAA106000091GF105991051021004501001001KA1240N+02141MA1999999100201MD1999999+0061REMSYN076AAXX  18124 82392 32499 50502 10294 20194 30020 40122 85200 333 20214 58006;EQDQ01  00002PRCP06
0167823920999992004121818004-03700-040350FM-12+008399999V0200901N001510450019N0500001N1+03481+01751100751ADDAA106000091GF106991041021004501011001MA1999999099741MD1999999+0141REMSYN070AAXX  18184 82392 32499 60903 10348 20175 39974 40075 84210 333 58014;EQDQ01  00002PRCP06
0198823920999992004121900004-03700-040350FM-12+008399999V0200501N001012200019N0040001N1+02791+02081101081ADDAA106000091GF104991041021008001001001KA1240M+03611MA1999999100071MD1999999+0131REMSYN088AAXX  19004 82392 32596 40502 10279 20208 30007 40108 84200 333 10361 29055 55087 58013;EQDQ01  00002PRCP06
0186823920999992004121912004-03700-040350FM-12+008399999V0200901N002610042019N0500001N1+02901+02121101321ADDAA106000091GF106991051021004501031001KA1240N+02461MA1999999100301MD1999999+0101REMSYN076AAXX  19124 82392 32499 60905 10290 20212 30030 40132 85230 333 20246 58010;EQDQ01  00002PRCP06
0167823920999992004121918004-03700-040350FM-12+008399999V0200901N002110450019N0500001N1+03621+01631100811ADDAA106000091GF106991041021004501031001MA1999999099801MD1999999+0061REMSYN070AAXX  19184 82392 32499 60904 10362 20163 39980 40081 84230 333 58006;EQDQ01  00002PRCP06
0208823920999992004122000004-03700-040350FM-12+008399999V0200501N004612200019N0040001N1+02801+01951101171ADDAA106000091GA1001+999999999GF100991001001999999001001KA1240M+03641MA1999999100161MD1999999+0091REMSYN082AAXX  20004 82392 32996 00509 10280 20195 30016 40117 333 10364 29055 55064 58009;EQDQ01  00002PRCP06
0186823920999992004122012004-03700-040350FM-12+008399999V0200501N005712200019N0500001N1+03021+02161101351ADDAA106000091GF102991021011004501001001KA1240N+02321MA1999999100341MD1999999+0041REMSYN076AAXX  20124 82392 32499 20511 10302 20216 30034 40135 82100 333 20232 58004;EQDQ01  00002PRCP06
0167823920999992004122018004-03700-040350FM-12+008399999V0200501N004112200019N0500001N1+03621+01591100811ADDAA106000091GF103991031021004501001001MA1999999099801MD1999999+0001REMSYN070AAXX  20184 82392 32499 30508 10362 20159 39980 40081 83200 333 58000;EQDQ01  00002PRCP06
0208823920999992004122100004-03700-040350FM-12+008399999V0200501N001012200019N0040001N1+02741+02001101081ADDAA106000091GA1001+999999999GF100991001001999999001001KA1240M+03691MA1999999100071MD1999999-0091REMSYN082AAXX  21004 82392 32996 00502 10274 20200 30007 40108 333 10369 29055 55093 59009;EQDQ01  00002PRCP06
0167823920999992004122118004-03700-040350FM-12+008399999V0203201N000510450019N0500001N1+03601+01771100631ADDAA106000091GF106991041021004501031001MA1999999099631MD1999999-0171REMSYN070AAXX  21184 82392 32499 63201 10360 20177 39963 40063 84230 333 59017;EQDQ01  00002PRCP06
0208823920999992004122200004-03700-040350FM-12+008399999V0203601N001012200019N0040001N1+02731+02001100951ADDAA106000091GA1001+999999999GF100991001001999999001001KA1240M+03641MA1999999099931MD1999999-0141REMSYN082AAXX  22004 82392 32996 03602 10273 20200 39993 40095 333 10364 29056 55085 59014;EQDQ01  00002PRCP06
0186823920999992004122212004-03700-040350FM-12+008399999V0201401N001010042019N0500001N1+02761+02251101101ADDAA106000091GF106991051041004501031001KA1240N+02301MA1999999100081MD1999999-0051REMSYN076AAXX  22124 82392 32499 61402 10276 20225 30008 40110 85430 333 20230 59005;EQDQ01  00002PRCP06
0167823920999992004122218004-03700-040350FM-12+008399999V0200501N001010450019N0500001N1+03501+01481100601ADDAA106000091GF106991041021004501031001MA1999999099601MD1999999-0031REMSYN070AAXX  22184 82392 32499 60502 10350 20148 39960 40060 84230 333 59003;EQDQ01  00002PRCP06
0208823920999992004122300004-03700-040350FM-12+008399999V0203601N001012200019N0040001N1+02671+02111100931ADDAA106000091GA1001+999999999GF100991001001999999001001KA1240M+03591MA1999999099911MD1999999-0021REMSYN082AAXX  23004 82392 32996 03602 10267 20211 39991 40093 333 10359 29062 55077 59002;EQDQ01  00002PRCP06
0186823920999992004122312004-03700-040350FM-12+008399999V0200501N000510042019N0500001N1+02961+01991101081ADDAA106000091GF106991061021004501001001KA1240N+02231MA1999999100061MD1999999-0021REMSYN076AAXX  23124 82392 32499 60501 10296 20199 30006 40108 86200 333 20223 59002;EQDQ01  00002PRCP06
0167823920999992004122318004-03700-040350FM-12+008399999V0200901N001010042019N0500001N1+03541+01761100541ADDAA106000091GF105991051021004501001001MA1999999099541MD1999999-0071REMSYN070AAXX  23184 82392 32499 50902 10354 20176 39954 40054 85200 333 59007;EQDQ01  00002PRCP06
0208823920999992004122400004-03700-040350FM-12+008399999V0200501N005112200019N0040001N1+02701+02011100861ADDAA106000091GA1001+999999999GF100991001001999999001001KA1240M+03601MA1999999099841MD1999999-0071REMSYN082AAXX  24004 82392 32996 00510 10270 20201 39984 40086 333 10360 29056 55100 59007;EQDQ01  00002PRCP06
0198823920999992004122500004-03700-040350FM-12+008399999V0200501N004112200019N0040001N1+02781+02061100881ADDAA106000091GF102991021011008001001001KA1240M+03701MA1999999094861MD1999999+0021REMSYN088AAXX  25004 82392 32596 20508 10278 20206 39486 40088 82100 333 10370 29055 55106 58002;EQDQ01  00002PRCP06
0167823920999992004122518004-03700-040350FM-12+008399999V0203601N004610450019N0500001N1+03421+02291100671ADDAA106000091GF106991041041004501031001MA1999999099661MD1999999+0181REMSYN070AAXX  25184 82392 32499 63609 10342 20229 39966 40067 84430 333 58018;EQDQ01  00002PRCP06
0202823920999992004122612004-03700-040350FM-12+008399999V0201401N001010042019N0500001N1+02941+02081101151ADDAA106000091GF106991999021004501001001KA1240N+02331MA1999999100131MD1999999+0031REMSYN076AAXX  26124 82392 32499 61402 10294 20208 30013 40115 85200 333 20233 58003;EQDQ01+000052SCOTLCQ02  00002PRCP06
0183823920999992004122618004-03700-040350FM-12+008399999V0200501N001019999999N0500001N1+03521+01741100721ADDAA106000091GF106991999011004501001001MA1999999099721MD1999999+0061REMSYN070AAXX  26184 82392 32499 60502 10352 20174 39972 40072 82100 333 58006;EQDQ01+000022SCOTLCQ02  00002PRCP06
0198823920999992004122700004-03700-040350FM-12+008399999V0203601N001010450019N0040001N1+02811+01801100971ADDAA106000091GF106991011011004501031011KA1240M+03591MA1999999099961MD1999999-0101REMSYN088AAXX  27004 82392 32496 63602 10281 20180 39996 40097 81131 333 10359 29051 55049 59010;EQDQ01  00002PRCP06
0186823920999992004122712004-03700-040350FM-12+008399999V0200901N001010450019N0500001N1+02921+02141101111ADDAA106000091GF105991041021004501031001KA1240N+02321MA1999999100101MD1999999-0031REMSYN076AAXX  27124 82392 32499 50902 10292 20214 30010 40111 84230 333 20232 59003;EQDQ01  00002PRCP06
0167823920999992004122718004-03700-040350FM-12+008399999V0200901N002612200019N0500001N1+03661+02041100661ADDAA106000091GF104991041021004501001001MA1999999099651MD1999999-0071REMSYN070AAXX  27184 82392 32499 40905 10366 20204 39965 40066 84200 333 59007;EQDQ01  00002PRCP06
0186823920999992004122912004-03700-040350FM-12+008399999V0200501N002612200019N0500001N1+02741+02261101371ADDAA106000091GF104991031011004501031001KA1240N+02121MA1999999100351MD1999999+0201REMSYN076AAXX  29124 82392 32499 40505 10274 20226 30035 40137 83130 333 20212 58020;EQDQ01  00002PRCP06
0186823920999992004123012004-03700-040350FM-12+008399999V0203601N000510042019N0500001N1+02971+02231101351ADDAA106000091GF106991061021004501001001KA1240N+02441MA1999999100341MD1999999-0011REMSYN076AAXX  30124 82392 32499 63601 10297 20223 30034 40135 86200 333 20244 59001;EQDQ01  00002PRCP06
0186823920999992004123112004-03700-040350FM-12+008399999V0200901N003112200019N0500001N1+02961+01961101281ADDAA106000091GF103991031011004501001001KA1240N+02121MA1999999100261MD1999999-0081REMSYN076AAXX  31124 82392 32499 30906 10296 20196 30026 40128 83100 333 20212 59008;EQDQ01  00002PRCP06
0167823920999992004123118004-03700-040350FM-12+008399999V0209999C001512200019N0500001N1+03511+01701100861ADDAA106000091GF103991031021004501001001MA1999999099841MD1999999+0051REMSYN070AAXX  31184 82392 32499 30003 10351 20170 39984 40086 83200 333 58005;EQDQ01  00002PRCP06
