0195825640999992004011618004-05533-047450FM-12+0131SBIZ V0201901N007712200019N0300001N1+02191+00941999999ADDAA106000091GA1011+010809089GF101991011011012501001001MA1999999090051MD1710141+0021REMSYN082AAXX  16184 82564 32680 11915 10219 20094 39005 57014 81100 333 56400 58002 81836;EQDQ01  00002PRCP06
0238825640999992004012308004-05533-047450FM-15+0131SBIZ V0200301N00411006001CN0080001N1+02401+02301999999ADDGA1021+004509999GA2041+006009999GA3021+007509099GA4081+024009999GF108991999999999999999999MA1100811999999MW1801MW2951REMMET074SBIZ 230800Z 03008KT 8000 -TSRA FEW015 SCT020 FEW025CB OVC080 24/23 Q1008;EQDQ01+000003PRSWM1Q02    003PRSWM1
0210825640999992004012309004-05533-047450FM-15+0131SBIZ V0209999C000010060019N0112651N1+02401+02301999999ADDGA1041+004509999GA2071+006009999GA3081+024009999GF108991999999999999999999MA1100911999999MW1611REMMET068SBIZ 230900Z 00000KT 9999 -RA SCT015 BKN020 OVC080 24/23 Q1009 RETS;EQDQ01+000003PRSWM1Q02    003PRSWM1
0185825640999992004012310004-05533-047450FM-15+0131SBIZ V0209999C000010060019N0112651N1+02401+02301999999ADDGA1041+004509999GA2071+006009999GA3081+024009999GF108991999999999999999999MA1101021999999MW1001REMMET059SBIZ 231000Z 00000KT 9999 SCT015 BKN020 OVC080 24/23 Q1010;EQDQ01+000000PRSWM2
0254825640999992004031612004-05533-047450FM-12+0131SBIZ V0209999C000010001519N0001001N1+01601+01601999999ADDAA106000091AY141061AY241061GA1091+000159999GF109991091999999999999999IA1019KA1240N+01401MA1999999080591MD1210061-0011MW1471REMSYN100AAXX  16124 82564 31001 90000 10160 20160 38059 52006 74744 89/// 333 20140 30/// 56999 59001 89/00;EQDQ01  00002PRCP06
0195825640999992004032318004-05533-047450FM-12+0131SBIZ V0209999C000010108019N0300001N1+02021+01261999999ADDAA106000091GA1051+010809089GF105991051021012501001001MA1999999080721MD1710121+0021REMSYN082AAXX  23184 82564 32680 50000 10202 20126 38072 57012 85200 333 56000 58002 85836;EQDQ01  00002PRCP06
0091825640999992004060610004-05533-047450FM-15+0131SBIZ V0209999C00001220001CN0099001N1+02301+02101999999ADDMA1101291999999MW1001REMMET039SBIZ 061000Z 00000KT CAVOK 23/21 Q1013;EQDQ01+000000PRSWM2
0091825640999992004060611004-05533-047450FM-15+0131SBIZ V0209999C00001220001CN0099001N1+02601+02201999999ADDMA1101391999999MW1001REMMET039SBIZ 061100Z 00000KT CAVOK 26/22 Q1014;EQDQ01+000000PRSWM2
0139825640999992004060612004-05533-047450FM-15+0131SBIZ V0200901N003112200019N0112651N1+02801+02301999999ADDGA1041+006009999GF104991999999999999999999MA1101491999999MW1001REMMET045SBIZ 061200Z 09006KT 9999 SCT020 28/23 Q1015;EQDQ01+000000PRSWM2
