0208825860999992004010100004-05200-039300FM-12+021199999V0201401N006712200019N0010001N1+02881+02621100791ADDAA106000091GA1001+999999999GF100991001001999999001001KA1240M+03711MA1999999098451MD1999999+0011REMSYN082AAXX  01004 82586 32994 01413 10288 20262 39845 40079 333 10371 29069 55113 58001;EQDQ01  00002PRCP06
0186825860999992004010112004-05200-039300FM-12+021199999V02099999999992200019N0200001N1+02821+02401101151ADDAA106000091GF107991021011008001001041KA1240N+02401MA1999999098791MD1999999+0211REMSYN076AAXX  01124 82586 32598 709// 10282 20240 39879 40115 82104 333 20240 58021;EQDQ01  00002PRCP06
0198825860999992004010200004-05200-039300FM-12+021199999V0200501N006712200019N0010001N1+02831+02331100831ADDAA106000091GF104991041021008001001001KA1240M+03531MA1999999098481MD1999999+0031REMSYN088AAXX  02004 82586 32594 40513 10283 20233 39848 40083 84200 333 10353 29071 55068 58003;EQDQ01  00002PRCP06
0186825860999992004010212004-05200-039300FM-12+021199999V02099999999990075019N0200001N1+02861+02641100961ADDAA106000091GF106991061041008001001001KA1240N+02401MA1999999098601MD1999999-0191REMSYN076AAXX  02124 82586 32598 614// 10286 20264 39860 40096 86400 333 20240 59019;EQDQ01  00002PRCP06
0167825860999992004010218004-05200-039300FM-12+021199999V02099999999992200019N0200001N1+03561+02111100731ADDAA106000091GF106991031021008001001041MA1999999098391MD1999999-0021REMSYN070AAXX  02184 82586 32598 614// 10356 20211 39839 40073 83204 333 59002;EQDQ01  00002PRCP06
0198825860999992004010300004-05200-039300FM-12+021199999V02099999999992200019N0010001N1+02881+02181100721ADDAA106000091GF104991001001999999001041KA1240M+03671MA1999999098381MD1999999-0101REMSYN088AAXX  03004 82586 32994 405// 10288 20218 39838 40072 80004 333 10367 29066 55087 59010;EQDQ01  00002PRCP06
0186825860999992004010312004-05200-039300FM-12+021199999V02099999999990075019N0200001N1+02941+02721100801ADDAA106000091GF106991061041008001001001KA1240N+02361MA1999999098451MD1999999-0151REMSYN076AAXX  03124 82586 32598 609// 10294 20272 39845 40080 86400 333 20236 59015;EQDQ01  00002PRCP06
0167825860999992004010318004-05200-039300FM-12+021199999V02099999999990075019N0200001N1+03561+02301100701ADDAA106000091GF106991061021008001001001MA1999999098361MD1999999-0031REMSYN070AAXX  03184 82586 32598 609// 10356 20230 39836 40070 86200 333 59003;EQDQ01  00002PRCP06
0198825860999992004010400004-05200-039300FM-12+021199999V0200501N005119999999N0010001N1+02901+02521100631ADDAA106000091GF106991061001012501051001KA1240M+03651MA1999999098291MD1999999-0091REMSYN088AAXX  04004 82586 32694 60510 10290 20252 39829 40063 86050 333 10365 29074 55065 59009;EQDQ01  00002PRCP06
0186825860999992004010412004-05200-039300FM-12+021199999V02099999999990075019N0200001N1+02761+02691100821ADDAA106000091GF107991071041008001001001KA1240N+02421MA1999999098471MD1999999+0021REMSYN076AAXX  04124 82586 32598 714// 10276 20269 39847 40082 87400 333 20242 58002;EQDQ01  00002PRCP06
0208825860999992004010500004-05200-039300FM-12+021199999V0200501N007712200019N0010001N1+02801+02501100631ADDAA106000091GA1001+999999999GF100991001001999999001001KA1240M+03631MA1999999098281MD1999999-0011REMSYN082AAXX  05004 82586 32994 00515 10280 20250 39828 40063 333 10363 29079 55097 59001;EQDQ01  00002PRCP06
0186825860999992004010512004-05200-039300FM-12+021199999V0200901N006710075019N0200001N1+02741+02381100881ADDAA106000091GF106991061041008001001001KA1240N+02501MA1999999098521MD1999999+0051REMSYN076AAXX  05124 82586 32598 60913 10274 20238 39852 40088 86400 333 20250 58005;EQDQ01  00002PRCP06
0167825860999992004010518004-05200-039300FM-12+021199999V0201401N005112200019N0200001N1+03441+02071100601ADDAA106000091GF104991041011008001001001MA1999999098271MD1999999+0051REMSYN070AAXX  05184 82586 32598 41410 10344 20207 39827 40060 84100 333 58005;EQDQ01  00002PRCP06
0208825860999992004010600004-05200-039300FM-12+021199999V0200501N008212200019N0010001N1+02911+02431100651ADDAA106000091GA1001+999999999GF100991001001999999001001KA1240M+03611MA1999999098301MD1999999+0021REMSYN082AAXX  06004 82586 32994 00516 10291 20243 39830 40065 333 10361 29070 55108 58002;EQDQ01  00002PRCP06
0186825860999992004010612004-05200-039300FM-12+021199999V0201401N006710075019N0200001N1+02821+02621100911ADDAA106000091GF105991051021008001001001KA1240N+02401MA1999999098561MD1999999+0041REMSYN076AAXX  06124 82586 32598 51413 10282 20262 39856 40091 85200 333 20240 58004;EQDQ01  00002PRCP06
0167825860999992004010618004-05200-039300FM-12+021199999V0200901N003612200019N0200001N1+03541+01961100591ADDAA106000091GF104991041021008001001001MA1999999098261MD1999999-0011REMSYN070AAXX  06184 82586 32598 40907 10354 20196 39826 40059 84200 333 59001;EQDQ01  00002PRCP06
0208825860999992004010700004-05200-039300FM-12+021199999V0200501N005112200019N0010001N1+03001+02141100711ADDAA106000091GA1001+999999999GF100991001001999999001001KA1240M+03641MA1999999098371MD1999999+0071REMSYN082AAXX  07004 82586 32994 00510 10300 20214 39837 40071 333 10364 29062 55109 58007;EQDQ01  00002PRCP06
0186825860999992004010712004-05200-039300FM-12+021199999V0201801N003612200019N0200001N1+02821+02561100901ADDAA106000091GF102991021011008001001001KA1240N+02501MA1999999098551MD1999999-0011REMSYN076AAXX  07124 82586 32598 21807 10282 20256 39855 40090 82100 333 20250 59001;EQDQ01  00002PRCP06
0167825860999992004010718004-05200-039300FM-12+021199999V0201401N005112200019N0200001N1+03611+02071100621ADDAA106000091GF104991041021008001001001MA1999999098601MD1999999+0041REMSYN070AAXX  07184 82586 32598 41410 10361 20207 39860 40062 84200 333 58004;EQDQ01  00002PRCP06
0208825860999992004010800004-05200-039300FM-12+021199999V0200501N006712200019N0010001N1+03001+02271100711ADDAA106000091GA1001+999999999GF100991001001999999001001KA1240M+03691MA1999999098371MD1999999+0001REMSYN082AAXX  08004 82586 32994 00513 10300 20227 39837 40071 333 10369 29064 55107 58000;EQDQ01  00002PRCP06
0186825860999992004010812004-05200-039300FM-12+021199999V0201401N003112200019N0200001N1+02861+02541100841ADDAA106000091GF102991021011008001001001KA1240N+02401MA1999999098501MD1999999-0051REMSYN076AAXX  08124 82586 32598 21406 10286 20254 39850 40084 82100 333 20240 59005;EQDQ01  00002PRCP06
0167825860999992004010818004-05200-039300FM-12+021199999V0200901N004112200019N0200001N1+03611+02031100531ADDAA106000091GF103991031011008001001001MA1999999098211MD1999999-0091REMSYN070AAXX  08184 82586 32598 30908 10361 20203 39821 40053 83100 333 59009;EQDQ01  00002PRCP06
0208825860999992004010900004-05200-039300FM-12+021199999V0200501N008212200019N0010001N1+02901+02641100711ADDAA106000091GA1001+999999999GF100991001001999999001001KA1240M+03671MA1999999098371MD1999999+0001REMSYN082AAXX  09004 82586 32994 00516 10290 20264 39837 40071 333 10367 29074 55112 58000;EQDQ01  00002PRCP06
0186825860999992004010912004-05200-039300FM-12+021199999V0201401N003110075019N0200001N1+02781+02751100871ADDAA106000091GF107991071071008001001001KA1240N+02501MA1999999098521MD1999999+0021REMSYN076AAXX  09124 82586 32598 71406 10278 20275 39852 40087 87700 333 20250 58002;EQDQ01  00002PRCP06
0167825860999992004010918004-05200-039300FM-12+021199999V0200901N002612200019N0200001N1+03541+02431100541ADDAA106000091GF104991041021008001001001MA1999999098221MD1999999+0011REMSYN070AAXX  09184 82586 32598 40905 10354 20243 39822 40054 84200 333 58001;EQDQ01  00002PRCP06
0198825860999992004011000004-05200-039300FM-12+021199999V0200501N008210075019N0010001N1+02841+02501100701ADDAA106000091GF106991061041008001001001KA1240M+03601MA1999999098351MD1999999-0021REMSYN088AAXX  10004 82586 32594 60516 10284 20250 39835 40070 86400 333 10360 29079 55061 59002;EQDQ01  00002PRCP06
0186825860999992004011012004-05200-039300FM-12+021199999V0200901N003110075019N0200001N1+02781+02581100841ADDAA106000091GF107991071071008001001001KA1240N+02501MA1999999098491MD1999999-0031REMSYN076AAXX  10124 82586 32598 70906 10278 20258 39849 40084 87700 333 20250 59003;EQDQ01  00002PRCP06
0167825860999992004011018004-05200-039300FM-12+021199999V0200901N003110075019N0200001N1+03451+02211100581ADDAA106000091GF106991061041008001001001MA1999999098251MD1999999+0031REMSYN070AAXX  10184 82586 32598 60906 10345 20221 39825 40058 86400 333 58003;EQDQ01  00002PRCP06
0198825860999992004011100004-05200-039300FM-12+021199999V0200501N006712200019N0010001N1+02761+02691100721ADDAA106000091GF104991001001999999001041KA1240M+03611MA1999999098361MD1999999+0011REMSYN088AAXX  11004 82586 32994 40513 10276 20269 39836 40072 80004 333 10361 29083 55085 58001;EQDQ01  00002PRCP06
0186825860999992004011112004-05200-039300FM-12+021199999V0200901N003610075019N0200001N1+02741+02651100961ADDAA106000091GF107991071071008001001001KA1240N+02431MA1999999098601MD1999999+0011REMSYN076AAXX  11124 82586 32598 70907 10274 20265 39860 40096 87700 333 20243 58001;EQDQ01  00002PRCP06
0167825860999992004011118004-05200-039300FM-12+021199999V0201801N001010075019N0200001N1+03361+02361100741ADDAA106000091GF106991061021008001001001MA1999999098401MD1999999+0151REMSYN070AAXX  11184 82586 32598 61802 10336 20236 39840 40074 86200 333 58015;EQDQ01  00002PRCP06
0198825860999992004011200004-05200-039300FM-12+021199999V0200901N001510075019N0010001N1+02801+02731100881ADDAA106000091GF106991061071008001001001KA1240M+03501MA1999999098521MD1999999+0161REMSYN088AAXX  12004 82586 32594 60903 10280 20273 39852 40088 86700 333 10350 29086 55026 58016;EQDQ01  00002PRCP06
0186825860999992004011212004-05200-039300FM-12+021199999V0200501N002610075019N0200001N1+02721+02631101071ADDAA106000091GF108991081071008001999999KA1240N+02451MA1999999098711MD1999999+0111REMSYN076AAXX  12124 82586 32598 80505 10272 20263 39871 40107 887// 333 20245 58011;EQDQ01  00002PRCP06
0167825860999992004011218004-05200-039300FM-12+021199999V0201801N002110075019N0200001N1+03061+02801100851ADDAA106000091GF108991081071008001999999MA1999999098491MD1999999+0091REMSYN070AAXX  12184 82586 32598 81804 10306 20280 39849 40085 887// 333 58009;EQDQ01  00002PRCP06
0198825860999992004011300004-05200-039300FM-12+021199999V0200901N003610075019N0010001N1+02761+02691100981ADDAA106000091GF106991061041008001001001KA1240M+03131MA1999999098621MD1999999+0101REMSYN088AAXX  13004 82586 32594 60907 10276 20269 39862 40098 86400 333 10313 29093 55000 58010;EQDQ01  00002PRCP06
0190825860999992004011312004-05200-039300FM-12+021199999V0200901N005110075019N0200001N1+02641+02591101071ADDAY161061AY221061GF107991071071008001001001KA1240N+02301MA1999999098711MD1999999+0001MW1031REMSYN088AAXX  13124 82586 21598 70910 10264 20259 39871 40107 70362 87700 333 20230 58000 60024;
0167825860999992004011318004-05200-039300FM-12+021199999V0200901N006710075019N0200001N1+03251+02361100691ADDAA106000091GF106991061041008001001001MA1999999098351MD1999999-0141REMSYN070AAXX  13184 82586 32598 60913 10325 20236 39835 40069 86400 333 59014;EQDQ01  00002PRCP06
0198825860999992004011400004-05200-039300FM-12+021199999V0200901N003610075019N0010001N1+02701+02631100811ADDAA106000091GF106991061041008001001001KA1240M+03451MA1999999098451MD1999999-0171REMSYN088AAXX  14004 82586 32594 60907 10270 20263 39845 40081 86400 333 10345 29087 55062 59017;EQDQ01  00002PRCP06
0190825860999992004011412004-05200-039300FM-12+021199999V0202701N001510075019N0200001N1+02521+02451100941ADDAY161061AY221061GF108991081071008001999999KA1240N+02161MA1999999098571MD1999999-0141MW1201REMSYN088AAXX  14124 82586 21598 82703 10252 20245 39857 40094 72062 887// 333 20216 59014 60024;
0171825860999992004011418004-05200-039300FM-12+021199999V0200901N003110075019N0200001N1+02481+02391100891ADDAY161061AY221061GF108991081071008001999999MA1999999098501MD1999999+0151MW1291REMSYN082AAXX  14184 82586 21598 80906 10248 20239 39850 40089 72962 887// 333 58015 60011;
0202825860999992004011500004-05200-039300FM-12+021199999V0201801N001010075019N0010001N1+02361+02341101071ADDAY161061AY221061GF108991081071008001999999KA1240M+02811MA1999999098671MD1999999+0221MW1611REMSYN100AAXX  15004 82586 21594 81802 10236 20234 39867 40107 76162 887// 333 10281 29097 55000 58022 60021;
0162825860999992004011512004-05200-039300FM-12+021199999V0200901N000512200019N0200001N1+02461+02321100911ADDGF104991041021008001001001KA1240N+02181MA1999999098521MD1999999-0051REMSYN082AAXX  15124 82586 22598 40901 10246 20232 39852 40091 84200 333 20218 59005 60034;
0167825860999992004011518004-05200-039300FM-12+021199999V0200901N005110075019N0200001N1+03281+02231100741ADDAA106000091GF106991061051008001001001MA1999999098391MD1999999-0111REMSYN070AAXX  15184 82586 32598 60910 10328 20223 39839 40074 86500 333 59011;EQDQ01  00002PRCP06
0198825860999992004011600004-05200-039300FM-12+021199999V0200501N004112200019N0010001N1+02801+02481100831ADDAA106000091GF104991041051008001001001KA1240M+03271MA1999999098471MD1999999-0201REMSYN088AAXX  16004 82586 32594 40508 10280 20248 39847 40083 84500 333 10327 29078 55066 59020;EQDQ01  00002PRCP06
0186825860999992004011612004-05200-039300FM-12+021199999V02099999999990075019N0200001N1+02741+02621100841ADDAA106000091GF106991061041008001001001KA1240N+02401MA1999999098481MD1999999-0041REMSYN076AAXX  16124 82586 32598 614// 10274 20262 39848 40084 86400 333 20240 59004;EQDQ01  00002PRCP06
0167825860999992004011618004-05200-039300FM-12+021199999V0200901N002110075019N0200001N1+03341+02311100571ADDAA106000091GF106991061071008001001001MA1999999098231MD1999999-0161REMSYN070AAXX  16184 82586 32598 60904 10334 20231 39823 40057 86700 333 59016;EQDQ01  00002PRCP06
0226825860999992004011700004-05200-039300FM-12+021199999V0200901N003112200019N0010001N1+02781+02671100791ADDAA106000091AY121061AY221061GF104991041031008001001001KA1240M+03451MA1999999098431MD1999999-0041MW1131REMSYN094AAXX  17004 82586 31594 40906 10278 20267 39843 40079 71322 84300 333 10345 29084 55072 59004;EQDQ01  00002PRCP06
0186825860999992004011712004-05200-039300FM-12+021199999V0201401N002110075019N0200001N1+02621+02481100841ADDAA106000091GF108991081071008001999999KA1240N+02481MA1999999098481MD1999999+0001REMSYN076AAXX  17124 82586 32598 81404 10262 20248 39848 40084 887// 333 20248 58000;EQDQ01  00002PRCP06
0167825860999992004011718004-05200-039300FM-12+021199999V0201401N002110075019N0200001N1+03141+02401100601ADDAA106000091GF107991071021008001001001MA1999999098251MD1999999+0021REMSYN070AAXX  17184 82586 32598 71404 10314 20240 39825 40060 87200 333 58002;EQDQ01  00002PRCP06
0198825860999992004011800004-05200-039300FM-12+021199999V0203601N005110075019N0010001N1+02741+02601100831ADDAA106000091GF106991061041008001001001KA1240M+03231MA1999999098471MD1999999+0041REMSYN088AAXX  18004 82586 32594 63610 10274 20260 39847 40083 86400 333 10323 29085 55002 58004;EQDQ01  00002PRCP06
0190825860999992004011812004-05200-039300FM-12+021199999V0203201N000510120019N0200001N1+02361+02281101101ADDAY161061AY221061GF108991081081008001999999KA1240N+02281MA1999999098721MD1999999+0241MW1611REMSYN088AAXX  18124 82586 21598 83201 10236 20228 39872 40110 76162 888// 333 20228 58024 60114;
0198825860999992004011900004-05200-039300FM-12+021199999V02099999999990075019N0010001N1+02501+02401101011ADDAA106000091GF108991081071008001999999KA1240M+02801MA1999999098611MD1999999+0141REMSYN088AAXX  19004 82586 32594 809// 10250 20240 39861 40101 887// 333 10280 29093 55000 58014;EQDQ01  00002PRCP06
0190825860999992004011912004-05200-039300FM-12+021199999V02099999999990075019N0200001N1+02601+02571100941ADDAY151061AY221061GF108991081071008001999999KA1240N+02261MA1999999098561MD1999999-0161MW1031REMSYN088AAXX  19124 82586 21598 827// 10260 20257 39856 40094 70352 887// 333 20226 59016 60014;
0195825860999992004011918004-05200-039300FM-12+021199999V02099999999990075019N0200001N1+03041+02181100771ADDAA106000091AY121061AY221061GF108991081071008001999999MA1999999098411MD1999999-0171MW1151REMSYN076AAXX  19184 82586 31598 836// 10304 20218 39841 40077 71522 887// 333 59017;EQDQ01  00002PRCP06
0202825860999992004012000004-05200-039300FM-12+021199999V0200501N001510075019N0010001N1+02301+02251100951ADDAY191061AY261061GF108991081091008001999999KA1240M+03271MA1999999098551MD1999999-0061MW1291REMSYN100AAXX  20004 82586 21594 80503 10230 20225 39855 40095 72996 889// 333 10327 29088 55053 59006 60161;
0190825860999992004012012004-05200-039300FM-12+021199999V02099999999990075019N0200001N1+02461+02371100971ADDAY161061AY251061GF108991081071008001999999KA1240N+02201MA1999999098571MD1999999+0011MW1031REMSYN088AAXX  20124 82586 21598 805// 10246 20237 39857 40097 70365 887// 333 20220 58001 60174;
0167825860999992004012018004-05200-039300FM-12+021199999V02099999999990075019N0200001N1+02881+02351100871ADDAA106000091GF108991081071008001999999MA1999999098511MD1999999+0101REMSYN070AAXX  20184 82586 32598 818// 10288 20235 39851 40087 887// 333 58010;EQDQ01  00002PRCP06
0202825860999992004012100004-05200-039300FM-12+021199999V02099999999990075019N0010001N1+02361+02281100971ADDAY161061AY221061GF106991061041008001001001KA1240M+03031MA1999999098571MD1999999+0021MW1031REMSYN100AAXX  21004 82586 21594 609// 10236 20228 39857 40097 70362 86400 333 10303 29090 55007 58002 60051;
0162825860999992004012112004-05200-039300FM-12+021199999V02099999999990075019N0200001N1+02491+02261100981ADDGF108991081071008001999999KA1240N+02261MA1999999098581MD1999999+0011REMSYN082AAXX  21124 82586 22598 814// 10249 20226 39858 40098 887// 333 20226 58001 60054;
0195825860999992004012118004-05200-039300FM-12+021199999V0200901N002610075019N0200001N1+02941+02521100841ADDAA106000091AY121061AY221061GF108991081071008001999999MA1999999098471MD1999999-0041MW1151REMSYN076AAXX  21184 82586 31598 80905 10294 20252 39847 40084 71522 887// 333 59004;EQDQ01  00002PRCP06
0202825860999992004012200004-05200-039300FM-12+021199999V0209999C000010075019N0010001N1+02381+02221100941ADDAY191061AY261061GF108991081091008001999999KA1240M+03091MA1999999098541MD1999999-0031MW1131REMSYN100AAXX  22004 82586 21594 80000 10238 20222 39854 40094 71396 889// 333 10309 29090 55015 59003 60121;
0190825860999992004012212004-05200-039300FM-12+021199999V0201401N000510075019N0200001N1+02401+02311100991ADDAY161061AY261061GF107991071041008001001001KA1240N+02201MA1999999098591MD1999999+0011MW1031REMSYN088AAXX  22124 82586 21598 71401 10240 20231 39859 40099 70366 87400 333 20220 58001 60324;
0202825860999992004012300004-05200-039300FM-12+021199999V02099999999990075019N0010001N1+02361+02291100811ADDAY161061AY221061GF106991061031008001001001KA1240M+03011MA1999999098421MD1999999-0121MW1131REMSYN100AAXX  23004 82586 21594 627// 10236 20229 39842 40081 71362 86300 333 10301 29093 55030 59012 60101;
0190825860999992004012312004-05200-039300FM-12+021199999V02099999999990075019N0200001N1+02481+02411100981ADDAY151061AY221061GF108991081041008001999999KA1240N+02301MA1999999098581MD1999999-0011MW1031REMSYN088AAXX  23124 82586 21598 809// 10248 20241 39858 40098 70352 884// 333 20230 59001 60104;
0171825860999992004012318004-05200-039300FM-12+021199999V0203601N002110075019N0200001N1+02621+02481100741ADDAY161061AY221061GF108991081071008001999999MA1999999098361MD1999999-0101MW1151REMSYN082AAXX  23184 82586 21598 83604 10262 20248 39836 40074 71562 887// 333 59010 60111;
0202825860999992004012400004-05200-039300FM-12+021199999V02099999999990075019N0010001N1+02401+02331100921ADDAY161061AY221061GF108991081071008001999999KA1240M+02911MA1999999098531MD1999999+0111MW1031REMSYN100AAXX  24004 82586 21594 836// 10240 20233 39853 40092 70362 887// 333 10291 29095 55003 58011 60051;
0190825860999992004012412004-05200-039300FM-12+021199999V0200901N002110075019N0200001N1+02321+02271101061ADDAY161061AY261061GF108991081071008001999999KA1240N+01861MA1999999098661MD1999999+0081MW1031REMSYN088AAXX  24124 82586 21598 80904 10232 20227 39866 40106 70366 887// 333 20186 58008 60704;
0167825860999992004012418004-05200-039300FM-12+021199999V0201401N003110075019N0200001N1+02841+02561100901ADDAA106000091GF107991071041008001001001MA1999999098521MD1999999+0161REMSYN070AAXX  24184 82586 32598 71406 10284 20256 39852 40090 87400 333 58016;EQDQ01  00002PRCP06
0202825860999992004012500004-05200-039300FM-12+021199999V0200901N001510075019N0010001N1+02281+02201100991ADDAY161061AY261061GF108991081071008001999999KA1240M+02971MA1999999098591MD1999999+0061MW1611REMSYN100AAXX  25004 82586 21594 80903 10228 20220 39859 40099 76166 887// 333 10297 29093 55016 58006 60141;
0190825860999992004012512004-05200-039300FM-12+021199999V0203601N001510075019N0200001N1+02501+02471101021ADDAY161061AY251061GF108991081071008001999999KA1240N+02261MA1999999098621MD1999999-0041MW1031REMSYN088AAXX  25124 82586 21598 83603 10250 20247 39862 40102 70365 887// 333 20226 59004 60244;
0195825860999992004012518004-05200-039300FM-12+021199999V0200901N003110120019N0040001N1+02531+02451100821ADDAA106000091AY121061AY221061GF108991081081008001999999MA1999999098421MD1999999-0101MW1151REMSYN076AAXX  25184 82586 31596 80906 10253 20245 39842 40082 71522 888// 333 59010;EQDQ01  00002PRCP06
0202825860999992004012600004-05200-039300FM-12+021199999V02099999999990075019N0010001N1+02261+02181100981ADDAY161061AY261061GF108991081071008001999999KA1240M+03031MA1999999098581MD1999999-0011MW1511REMSYN100AAXX  26004 82586 21594 8//// 10226 20218 39858 40098 75166 887// 333 10303 29096 55027 59001 60081;
0162825860999992004012612004-05200-039300FM-12+021199999V0201401N002610075019N0200001N1+02441+02391100981ADDGF108991081071008001999999KA1240N+02221MA1999999098581MD1999999-0041REMSYN082AAXX  26124 82586 22598 81405 10244 20239 39858 40098 887// 333 20222 59004 60084;
0167825860999992004012618004-05200-039300FM-12+021199999V0201401N001510075019N0200001N1+03061+02301100721ADDAA106000091GF106991061041008001001001MA1999999098561MD1999999-0061REMSYN070AAXX  26184 82586 32598 61403 10306 20230 39856 40072 86400 333 59006;EQDQ01  00002PRCP06
0226825860999992004012700004-05200-039300FM-12+021199999V0200501N003110075019N0010001N1+02641+02441100831ADDAA106000091AY121061AY221061GF106991061031008001001001KA1240M+03111MA1999999098451MD1999999-0131MW1131REMSYN094AAXX  27004 82586 31594 60506 10264 20244 39845 40083 71322 86300 333 10311 29085 55063 59013;EQDQ01  00002PRCP06
0190825860999992004012712004-05200-039300FM-12+021199999V02099999999990075019N0200001N1+02301+02251101061ADDAY161061AY261061GF108991081071008001999999KA1240N+02221MA1999999098661MD1999999+0081MW1611REMSYN088AAXX  27124 82586 21598 827// 10230 20225 39866 40106 76166 887// 333 20222 58008 60494;
0171825860999992004012718004-05200-039300FM-12+021199999V02099999999990075019N0200001N1+02741+02471100851ADDAY161061AY221061GF106991061041008001001001MA1999999098461MD1999999+0101MW1031REMSYN082AAXX  27184 82586 21598 609// 10274 20247 39846 40085 70362 86400 333 58010 60011;
0202825860999992004012800004-05200-039300FM-12+021199999V02099999999990075019N0010001N1+02281+02231100971ADDAY161061AY251061GF108991081071008001999999KA1240M+02751MA1999999098571MD1999999+0121MW1211REMSYN100AAXX  28004 82586 21594 805// 10228 20223 39857 40097 72165 887// 333 10275 29094 55004 58012 60291;
0190825860999992004012812004-05200-039300FM-12+021199999V02099999999990075019N0200001N1+02361+02331101011ADDAY161061AY261061GF108991081071008001999999KA1240N+02221MA1999999098611MD1999999-0051MW1031REMSYN088AAXX  28124 82586 21598 809// 10236 20233 39861 40101 70366 887// 333 20222 59005 60404;
0171825860999992004012818004-05200-039300FM-12+021199999V02099999999990075019N0200001N1+02681+02391100851ADDAY161061AY221061GF106991061041008001001001MA1999999098461MD1999999+0061MW1031REMSYN082AAXX  28184 82586 21598 609// 10268 20239 39846 40085 70362 86400 333 58006 60051;
0226825860999992004012900004-05200-039300FM-12+021199999V02099999999990075019N0010001N1+02501+02361100911ADDAA106000091AY121061AY221061GF106991061031008001001001KA1240M+02951MA1999999098521MD1999999-0051MW1131REMSYN094AAXX  29004 82586 31594 609// 10250 20236 39852 40091 71322 86300 333 10295 29092 55023 59005;EQDQ01  00002PRCP06
0190825860999992004012912004-05200-039300FM-12+021199999V02099999999990075019N0200001N1+02301+02271101071ADDAY161061AY261061GF108991081071008001999999KA1240N+02261MA1999999098671MD1999999+0061MW1511REMSYN088AAXX  29124 82586 21598 805// 10230 20227 39867 40107 75166 887// 333 20226 58006 60144;
0148825860999992004012918004-05200-039300FM-12+021199999V0200501N003610075019N0200001N1+02501+02431100961ADDAA106000021GF108991081041008001999999MA1999999098561MD1999999+0101REMSYN070AAXX  29184 82586 32598 80507 10250 20243 39856 40096 884// 333 58010;
0198825860999992004013000004-05200-039300FM-12+021199999V0202701N001510075019N0010001N1+02321+02251101071ADDAA106000091GF108991081041008001999999KA1240M+02531MA1999999098671MD1999999+0151REMSYN088AAXX  30004 82586 32594 82703 10232 20225 39867 40107 884// 333 10253 29097 55000 58015;EQDQ01  00002PRCP06
0186825860999992004013012004-05200-039300FM-12+021199999V02099999999990075019N0200001N1+03421+02281101061ADDAA106000091GF108991081041008001999999KA1240N+02161MA1999999098661MD1999999-0011REMSYN076AAXX  30124 82586 32598 814// 10342 20228 39866 40106 884// 333 20216 59001;EQDQ01  00002PRCP06
0171825860999992004013018004-05200-039300FM-12+021199999V02099999999990075019N0200001N1+02891+02701100811ADDAY161061AY221061GF108991081071008001999999MA1999999098431MD1999999-0131MW1151REMSYN082AAXX  30184 82586 21598 814// 10289 20270 39843 40081 71562 887// 333 59013 60011;
0202825860999992004013100004-05200-039300FM-12+021199999V0200901N001510075019N0010001N1+02261+02241101051ADDAY161061AY261061GF108991081071008001999999KA1240M+02991MA1999999098651MD1999999-0021MW1611REMSYN100AAXX  31004 82586 21594 80903 10226 20224 39865 40105 76166 887// 333 10299 29095 55029 59002 60131;
0190825860999992004013112004-05200-039300FM-12+021199999V02099999999990075019N0200001N1+02441+02391101061ADDAY161061AY221061GF108991081071008001999999KA1240N+02161MA1999999098661MD1999999+0001MW1031REMSYN088AAXX  31124 82586 21598 818// 10244 20239 39866 40106 70362 887// 333 20216 58000 60184;
0167825860999992004013118004-05200-039300FM-12+021199999V02099999999990075019N0200001N1+03021+02551100841ADDAA106000091GF106991051021008001021001MA1999999098471MD1999999+0041REMSYN070AAXX  31184 82586 32598 614// 10302 20255 39847 40084 85220 333 58004;EQDQ01  00002PRCP06
0202825860999992004020100004-05200-039300FM-12+021199999V02099999999990075019N0010001N1+02451+02371101071ADDAY161061AY221061GF108991081071008001999999KA1240M+03111MA1999999098671MD1999999+0021MW1031REMSYN100AAXX  01004 82586 21594 805// 10245 20237 39867 40107 70362 887// 333 10311 29091 55057 58002 60021;
0162825860999992004020112004-05200-039300FM-12+021199999V02099999999990075019N0200001N1+02491+02361101091ADDGF108991081071008001999999KA1240N+02221MA1999999098691MD1999999+0031REMSYN082AAXX  01124 82586 22598 814// 10249 20236 39869 40109 887// 333 20222 58003 60024;
0171825860999992004020118004-05200-039300FM-12+021199999V02099999999990450019N0020001N1+02501+02321100971ADDAY161061AY221061GF108991041021008001021999MA1999999098571MD1999999+0101MW1031REMSYN082AAXX  01184 82586 21595 814// 10250 20232 39857 40097 70362 8422/ 333 58010 60021;
0198825860999992004020200004-05200-039300FM-12+021199999V02099999999990075019N0010001N1+02341+02201101081ADDAA106000091GF107991071051008001001001KA1240M+02561MA1999999098681MD1999999+0011REMSYN088AAXX  02004 82586 32594 709// 10234 20220 39868 40108 87500 333 10256 29092 55002 58001;EQDQ01  00002PRCP06
0162825860999992004020212004-05200-039300FM-12+021199999V02099999999990075019N0200001N1+02521+02431100971ADDGF108991081071008001999999KA1240N+02221MA1999999098571MD1999999-0121REMSYN082AAXX  02124 82586 22598 809// 10252 20243 39857 40097 887// 333 20222 59012 60024;
0167825860999992004020218004-05200-039300FM-12+021199999V02099999999990075019N0200001N1+03041+02381100731ADDAA106000091GF106991061041008001001001MA1999999098371MD1999999-0201REMSYN070AAXX  02184 82586 32598 614// 10304 20238 39837 40073 86400 333 59020;EQDQ01  00002PRCP06
0198825860999992004020300004-05200-039300FM-12+021199999V02099999999990120019N0010001N1+02601+02511100831ADDAA106000091GF106991061001012501021001KA1240M+03131MA1999999098451MD1999999-0231REMSYN088AAXX  03004 82586 32694 609// 10260 20251 39845 40083 86020 333 10313 29088 55075 59023;EQDQ01  00002PRCP06
0186825860999992004020312004-05200-039300FM-12+021199999V02099999999990075019N0200001N1+02541+02361100931ADDAA106000091GF108991081071008001999999KA1240N+02281MA1999999098571MD1999999+0001REMSYN076AAXX  03124 82586 32598 814// 10254 20236 39857 40093 887// 333 20228 58000;EQDQ01  00002PRCP06
0171825860999992004020318004-05200-039300FM-12+021199999V02099999999990075019N0200001N1+02481+02451100851ADDAY161061AY261061GF108991081071008001999999MA1999999098461MD1999999+0071MW1151REMSYN082AAXX  03184 82586 21598 805// 10248 20245 39846 40085 71566 887// 333 58007 60051;
0198825860999992004020400004-05200-039300FM-12+021199999V02099999999990075019N0010001N1+02501+02401100871ADDAA106000091GF107991071041008001001001KA1240M+02861MA1999999098491MD1999999+0041REMSYN088AAXX  04004 82586 32594 709// 10250 20240 39849 40087 87400 333 10286 29094 55003 58004;EQDQ01  00002PRCP06
0190825860999992004020412004-05200-039300FM-12+021199999V02099999999990075019N0200001N1+02521+02381100941ADDAY161061AY261061GF108991081071008001999999KA1240N+02181MA1999999098551MD1999999-0021MW1031REMSYN088AAXX  04124 82586 21598 814// 10252 20238 39855 40094 70366 887// 333 20218 59002 60244;
0195825860999992004020418004-05200-039300FM-12+021199999V02099999999990075019N0200001N1+02941+02561100751ADDAA106000091AY121061AY221061GF108991081071008001999999MA1999999098381MD1999999-0081MW1151REMSYN076AAXX  04184 82586 31598 809// 10294 20256 39838 40075 71522 887// 333 59008;EQDQ01  00002PRCP06
0202825860999992004020500004-05200-039300FM-12+021199999V02099999999990075019N0010001N1+02421+02351100861ADDAY151061AY251061GF108991081071008001999999KA1240M+03021MA1999999098471MD1999999-0021MW1511REMSYN100AAXX  05004 82586 21594 814// 10242 20235 39847 40086 75155 887// 333 10302 29091 55034 59002 69971;
0190825860999992004020512004-05200-039300FM-12+021199999V02099999999990075019N0200001N1+02461+02431100971ADDAY161061AY251061GF106991061041008001001001KA1240N+02221MA1999999098571MD1999999+0021MW1031REMSYN088AAXX  05124 82586 21598 619// 10246 20243 39857 40097 70365 86400 333 20222 58002 60084;
0167825860999992004020518004-05200-039300FM-12+021199999V02099999999990075019N0200001N1+02881+02461100641ADDAA106000091GF107991071041008001001001MA1999999098301MD1999999-0081REMSYN070AAXX  05184 82586 32598 714// 10288 20246 39830 40064 87400 333 59008;EQDQ01  00002PRCP06
0202825860999992004020600004-05200-039300FM-12+021199999V02099999999990075019N0010001N1+02261+02181100871ADDAY161061AY261061GF108991081051008001999999KA1240M+02931MA1999999098471MD1999999+0001MW1611REMSYN100AAXX  06004 82586 21594 814// 10226 20218 39847 40087 76166 885// 333 10293 29092 55012 58000 60111;
0190825860999992004020612004-05200-039300FM-12+021199999V02099999999990075019N0200001N1+02401+02261100921ADDAY151061AY251061GF108991081071008001999999KA1240N+02241MA1999999098521MD1999999-0051MW1031REMSYN088AAXX  06124 82586 21598 836// 10240 20226 39852 40092 70355 887// 333 20224 59005 60154;
0171825860999992004020618004-05200-039300FM-12+021199999V02099999999990450019N0200001N1+02861+02681100641ADDAY161061AY221061GF105991031021008001021001MA1999999098281MD1999999-0021MW1031REMSYN082AAXX  06184 82586 21598 518// 10286 20268 39828 40064 70362 83220 333 59002 60031;
0198825860999992004020700004-05200-039300FM-12+021199999V02099999999990075019N0010001N1+02441+02321100871ADDAA106000091GF106991061051008001001001KA1240M+02931MA1999999098481MD1999999+0011REMSYN088AAXX  07004 82586 32594 609// 10244 20232 39848 40087 86500 333 10293 29092 55021 58001;EQDQ01  00002PRCP06
0190825860999992004020712004-05200-039300FM-12+021199999V0200901N001010075019N0200001N1+02361+02341100981ADDAY161061AY221061GF108991081041008001999999KA1240N+02201MA1999999098501MD1999999-0021MW1031REMSYN088AAXX  07124 82586 21598 80902 10236 20234 39850 40098 70362 884// 333 20220 59002 60134;
0167825860999992004020718004-05200-039300FM-12+021199999V02099999999990075019N0200001N1+02901+02431100641ADDAA106000091GF108991081071008001999999MA1999999098271MD1999999-0011REMSYN070AAXX  07184 82586 32598 814// 10290 20243 39827 40064 887// 333 59001;EQDQ01  00002PRCP06
0198825860999992004020800004-05200-039300FM-12+021199999V02099999999990075019N0010001N1+02521+02361100981ADDAA106000091GF106991061051008001001001KA1240M+03051MA1999999098421MD1999999-0061REMSYN088AAXX  08004 82586 32594 605// 10252 20236 39842 40098 86500 333 10305 29089 55022 59006;EQDQ01  00002PRCP06
0186825860999992004020812004-05200-039300FM-12+021199999V02099999999990075019N0200001N1+02521+02421100901ADDAA106000091GF108991081071008001999999KA1240N+02241MA1999999098521MD1999999+0021REMSYN076AAXX  08124 82586 32598 809// 10252 20242 39852 40090 887// 333 20224 58002;EQDQ01  00002PRCP06
0171825860999992004020818004-05200-039300FM-12+021199999V02099999999990075019N0200001N1+02501+02021100751ADDAY161061AY221061GF108991081071008001999999MA1999999098371MD1999999+0101MW1621REMSYN082AAXX  08184 82586 21598 836// 10250 20202 39837 40075 76262 887// 333 58010 60111;
0179825860999992004020900004-05200-039300FM-12+021199999V02099999999990075019N0010001N1+02421+02231100911ADDAA106000021GF106991061021008001001001KA1240M+03031MA1999999098521MD1999999+0101REMSYN088AAXX  09004 82586 32594 614// 10242 20223 39852 40091 86200 333 10303 29091 55058 58010;
0190825860999992004020912004-05200-039300FM-12+021199999V0200901N012910075019N0200001N1+02591+02511100941ADDAY161061AY221061GF106991061041008001001001KA1240N+02281MA1999999098551MD1999999+0031MW1031REMSYN088AAXX  09124 82586 21598 60925 10259 20251 39855 40094 70362 86400 333 20228 58003 60124;
0167825860999992004020918004-05200-039300FM-12+021199999V02099999999990075019N0200001N1+03081+02241100731ADDAA106000091GF105991051021008001001001MA1999999098371MD1999999+0001REMSYN070AAXX  09184 82586 32598 514// 10308 20224 39837 40073 85200 333 58000;EQDQ01  00002PRCP06
0198825860999992004021000004-05200-039300FM-12+021199999V02099999999990075019N0010001N1+02601+02501100741ADDAA106000091GF106991061041008001001001KA1240M+03031MA1999999098371MD1999999-0151REMSYN088AAXX  10004 82586 32594 605// 10260 20250 39837 40074 86400 333 10303 29086 55091 59015;EQDQ01  00002PRCP06
0186825860999992004021012004-05200-039300FM-12+021199999V02099999999992200019N0200001N1+02641+02371100831ADDAA106000091GF105991021011008001001041KA1240N+02381MA1999999098461MD1999999-0091REMSYN076AAXX  10124 82586 32598 509// 10264 20237 39846 40083 82104 333 20238 59009;EQDQ01  00002PRCP06
0167825860999992004021018004-05200-039300FM-12+021199999V02099999999992200019N0200001N1+03021+02071100641ADDAA106000091GF104991041011008001001001MA1999999098281MD1999999-0111REMSYN070AAXX  10184 82586 32598 414// 10302 20207 39828 40064 84100 333 59011;EQDQ01  00002PRCP06
0208825860999992004021100004-05200-039300FM-12+021199999V0203601N001012200019N0010001N1+02481+02381100711ADDAA106000091GA1001+999999999GF100991001001999999001001KA1240M+03151MA1999999098341MD1999999-0031REMSYN082AAXX  11004 82586 32994 03602 10248 20238 39834 40071 333 10315 29083 55107 59003;EQDQ01  00002PRCP06
0186825860999992004021112004-05200-039300FM-12+021199999V0201401N004110075019N0200001N1+02601+02151100851ADDAA106000091GF106991061041008001001001KA1240N+02321MA1999999098471MD1999999+0011REMSYN076AAXX  11124 82586 32598 61408 10260 20215 39847 40085 86400 333 20232 58001;EQDQ01  00002PRCP06
0167825860999992004021118004-05200-039300FM-12+021199999V0201401N004112200019N0200001N1+03121+02251100631ADDAA106000091GF102991021011008001001001MA1999999098271MD1999999-0011REMSYN070AAXX  11184 82586 32598 21408 10312 20225 39827 40063 82100 333 59001;EQDQ01  00002PRCP06
0208825860999992004021200004-05200-039300FM-12+021199999V0209999C000012200019N0010001N1+02481+02381100761ADDAA106000091GA1001+999999999GF100991001001999999001001KA1240M+03141MA1999999098381MD1999999+0041REMSYN082AAXX  12004 82586 32994 00000 10248 20238 39838 40076 333 10314 29085 55099 58004;EQDQ01  00002PRCP06
0186825860999992004021212004-05200-039300FM-12+021199999V0201401N001510075019N0200001N1+02621+02461100921ADDAA106000091GF108991081071008001999999KA1240N+02381MA1999999098541MD1999999+0071REMSYN076AAXX  12124 82586 32598 81403 10262 20246 39854 40092 887// 333 20238 58007;EQDQ01  00002PRCP06
0167825860999992004021218004-05200-039300FM-12+021199999V0201401N002110075019N0200001N1+03001+02391100681ADDAA106000091GF106991061041008001001001MA1999999098341MD1999999+0071REMSYN070AAXX  12184 82586 32598 61404 10300 20239 39834 40068 86400 333 58007;EQDQ01  00002PRCP06
0202825860999992004021300004-05200-039300FM-12+021199999V0200901N003110075019N0010001N1+02321+02291100921ADDAY161061AY221061GF108991081091008001999999KA1240M+03131MA1999999098531MD1999999+0151MW1291REMSYN100AAXX  13004 82586 21594 80906 10232 20229 39853 40092 72962 889// 333 10313 29089 55071 58015 60011;
0190825860999992004021312004-05200-039300FM-12+021199999V0201401N002610075019N0200001N1+02521+02471100981ADDAY161061AY221061GF108991081071008001999999KA1240N+02261MA1999999098581MD1999999+0041MW1031REMSYN088AAXX  13124 82586 21598 81405 10252 20247 39858 40098 70362 887// 333 20226 58004 60064;
0167825860999992004021318004-05200-039300FM-12+021199999V0200501N001510075019N0200001N1+02821+02441100731ADDAA106000091GF106991061041008001001001MA1999999098551MD1999999+0011REMSYN070AAXX  13184 82586 32598 60503 10282 20244 39855 40073 86400 333 58001;EQDQ01  00002PRCP06
0226825860999992004021400004-05200-039300FM-12+021199999V0200501N002110075019N0010001N1+02661+02571100791ADDAA106000091AY121061AY221061GF106991061031008001001001KA1240M+03111MA1999999098421MD1999999-0111MW1131REMSYN094AAXX  14004 82586 31594 60504 10266 20257 39842 40079 71322 86300 333 10311 29092 55078 59011;EQDQ01  00002PRCP06
0194825860999992004021412004-05200-039300FM-12+021199999V0201401N002110075019N0200001N1+02421+02371100951ADDAY161061AY221061GF107991071051008001001001KA1240N+02181MD1999999-0011MW1031REMSYN088AAXX  14124 82586 21598 71404 10242 20237 33985 40095 70362 87500 333 20218 59001 60174;EQDQ01+039851APOSP 
0167825860999992004021418004-05200-039300FM-12+021199999V0200901N004610075019N0200001N1+02861+01781100701ADDAA106000091GF106991061041008001001001MA1999999098331MD1999999-0021REMSYN070AAXX  14184 82586 32598 60909 10286 20178 39833 40070 86400 333 59002;EQDQ01  00002PRCP06
0198825860999992004021500004-05200-039300FM-12+021199999V0201401N003610075019N0010001N1+02481+02411100841ADDAA106000091GF106991061041008001001001KA1240M+02991MA1999999098451MD1999999+0031REMSYN088AAXX  15004 82586 32594 61407 10248 20241 39845 40084 86400 333 10299 29085 55053 58003;EQDQ01  00002PRCP06
0186825860999992004021512004-05200-039300FM-12+021199999V0200901N003110075019N0040001N1+02621+02521100851ADDAA106000091GF106991061041008001001001KA1240N+02241MA1999999098471MD1999999-0101REMSYN076AAXX  15124 82586 32596 60906 10262 20252 39847 40085 86400 333 20224 59010;EQDQ01  00002PRCP06
0211825860999992004021518004-05200-039300FM-12+021199999V0201401N004119999999N0200001N1+02841+02241100611ADDAA106000091AY121061AY221061GF106991999061008001001001MA1999999098231MD1999999-0101MW1151REMSYN076AAXX  15184 82586 31598 61408 10284 20224 39823 40061 71522 88600 333 59010;EQDQ01+000082SCOTLCQ02  00002PRCP06
0202825860999992004021600004-05200-039300FM-12+021199999V0200501N001010120019N0040001N1+02301+02271100851ADDAY191061AY261061GF108991081081008001999999KA1240M+03031MA1999999097461MD1999999+0011MW1611REMSYN100AAXX  16004 82586 21596 80502 10230 20227 39746 40085 76196 888// 333 10303 29090 55074 58001 60281;
0190825860999992004021612004-05200-039300FM-12+021199999V0201401N001510075019N0200001N1+02541+02421100841ADDAY161061AY261061GF106991061041008001001001KA1240N+02121MA1999999098451MD1999999-0021MW1031REMSYN088AAXX  16124 82586 21598 61403 10254 20242 39845 40084 70366 86400 333 20212 59002 60364;
0167825860999992004021618004-05200-039300FM-12+021199999V0200901N005110075019N0200001N1+02901+02271100751ADDAA106000091GF106991061021008001001001MA1999999098371MD1999999+0141REMSYN070AAXX  16184 82586 32598 60910 10290 20227 39837 40075 86200 333 58014;EQDQ01  00002PRCP06
0202825860999992004021700004-05200-039300FM-12+021199999V0200501N001510075019N0200001N1+02361+02281100861ADDAY151061AY221061GF108991081071008001999999KA1240M+03051MA1999999098471MD1999999+0011MW1031REMSYN100AAXX  17004 82586 21598 80503 10236 20228 39847 40086 70352 887// 333 10305 29088 55077 58001 69941;
0181825860999992004021712004-05200-039300FM-12+021199999V0200901N003119999999N0200001N1+02541+02521100921ADDGF106991999071008001999999KA1240N+02181MA1999999098531MD1999999+0081REMSYN082AAXX  17124 82586 22598 60906 10254 20252 39853 40092 887// 333 20218 58008 69944;EQDQ01+000082SCOTLC
0167825860999992004021718004-05200-039300FM-12+021199999V0201801N002112200019N0200001N1+02901+02321100741ADDAA106000091GF106991031021008001001041MA1999999098361MD1999999-0011REMSYN070AAXX  17184 82586 32598 61804 10290 20232 39836 40074 83204 333 59001;EQDQ01  00002PRCP06
0221825860999992004021800004-05200-039300FM-12+021199999V0200501N003112200019N0010001N1+02421+02251100821ADDAY161061AY221061GF104991999041008001001001KA1240M+03071MA1999999098441MD1999999-0031MW1031REMSYN100AAXX  18004 82586 21594 40506 10242 20225 39844 40082 70362 85400 333 10307 29088 55075 59003 60031;EQDQ01+000052SCOTLC
0162825860999992004021812004-05200-039300FM-12+021199999V0201401N003112200019N0200001N1+02641+02441100931ADDGF104991021011008001001041KA1240N+02281MA1999999098551MD1999999+0021REMSYN082AAXX  18124 82586 22598 41406 10264 20244 39855 40093 82104 333 20228 58002 60034;
0167825860999992004021818004-05200-039300FM-12+021199999V0201401N005112200019N0200001N1+03041+02411100731ADDAA106000091GF104991041021008001001001MA1999999098371MD1999999+0011REMSYN070AAXX  18184 82586 32598 41410 10304 20241 39837 40073 84200 333 58001;EQDQ01  00002PRCP06
0186825860999992004021912004-05200-039300FM-12+021199999V02099999999990075019N0200001N1+02641+02541100761ADDAA106000091GF106991061051008001001001KA1240N+02361MA1999999098381MD1999999-0171REMSYN076AAXX  19124 82586 32598 609// 10264 20254 39838 40076 86500 333 20236 59017;EQDQ01  00002PRCP06
0167825860999992004021918004-05200-039300FM-12+021199999V0200901N002112200019N0200001N1+03091+01981100571ADDAA106000091GF104991031011008001001011MA1999999098311MD1999999-0161REMSYN070AAXX  19184 82586 32598 40904 10309 20198 39831 40057 83101 333 59016;EQDQ01  00002PRCP06
0208825860999992004022000004-05200-039300FM-12+021199999V0200501N002112200019N0020001N1+02521+02331100611ADDAA106000091GA1001+999999999GF100991001001999999001001KA1240M+03131MA1999999098251MD1999999-0091REMSYN082AAXX  20004 82586 32995 00504 10252 20233 39825 40061 333 10313 29081 55103 59009;EQDQ01  00002PRCP06
0186825860999992004022012004-05200-039300FM-12+021199999V02099999999990075019N0200001N1+02581+02461100741ADDAA106000091GF106991061041008001001001KA1240N+02281MA1999999098371MD1999999-0011REMSYN076AAXX  20124 82586 32598 609// 10258 20246 39837 40074 86400 333 20228 59001;EQDQ01  00002PRCP06
0167825860999992004022018004-05200-039300FM-12+021199999V0201401N002110450019N0200001N1+02941+02261100571ADDAA106000091GF107991041021008001021001MA1999999098211MD1999999+0001REMSYN070AAXX  20184 82586 32598 71404 10294 20226 39821 40057 84220 333 58000;EQDQ01  00002PRCP06
0198825860999992004022100004-05200-039300FM-12+021199999V0200501N002112200019N0010001N1+02601+02191100611ADDAA106000091GF104991041001012501051001KA1240M+03001MA1999999098251MD1999999+0001REMSYN088AAXX  21004 82586 32694 40504 10260 20219 39825 40061 84050 333 10300 29079 55043 58000;EQDQ01  00002PRCP06
0190825860999992004022112004-05200-039300FM-12+021199999V0200901N003110075019N0200001N1+02621+02421100891ADDAY161061AY221061GF106991061041008001001001KA1240N+02321MA1999999098491MD1999999+0121MW1031REMSYN088AAXX  21124 82586 21598 60906 10262 20242 39849 40089 70362 86400 333 20232 58012 60024;
0167825860999992004022118004-05200-039300FM-12+021199999V0200901N003110075019N0200001N1+02991+01831100731ADDAA106000091GF106991061021008001001001MA1999999098351MD1999999+0141REMSYN070AAXX  21184 82586 32598 60906 10299 20183 39835 40073 86200 333 58014;EQDQ01  00002PRCP06
0226825860999992004022200004-05200-039300FM-12+021199999V0200501N002610075019N0010001N1+02641+02271100741ADDAA106000091AY121061AY221061GF106991061031008001001001KA1240M+03111MA1999999098381MD1999999+0131MW1131REMSYN094AAXX  22004 82586 31594 60505 10264 20227 39838 40074 71322 86300 333 10311 29075 55080 58013;EQDQ01  00002PRCP06
0192825860999992004022212004-05200-039300FM-12+021199999V0201401N005110075019N0200001N1+02621+02161100851ADDAA106000091GF106991061041008001001001KA1240N+02301MA1999999098491MD1010001+0001REMSYN082AAXX  22124 82586 32598 61410 10262 20216 39849 40085 50000 86400 333 20230 58000;EQDQ01  00002PRCP06
0167825860999992004022218004-05200-039300FM-12+021199999V0201401N002112200019N0200001N1+03031+01861100591ADDAA106000091GF104991041021008001001001MA1999999098231MD1999999-0121REMSYN070AAXX  22184 82586 32598 41404 10303 20186 39823 40059 84200 333 59012;EQDQ01  00002PRCP06
0226825860999992004022300004-05200-039300FM-12+021199999V0200501N001512200019N0010001N1+02521+02391100811ADDAA106000091AY121061AY221061GF104991041031008001001001KA1240M+03101MA1999999098431MD1999999+0051MW1131REMSYN094AAXX  23004 82586 31594 40503 10252 20239 39843 40081 71322 84300 333 10310 29083 55100 58005;EQDQ01  00002PRCP06
0226825860999992004022400004-05200-039300FM-12+021199999V0200501N003610075019N0010001N1+02621+02161100771ADDAA106000091AY121061AY221061GF105991051031008001001001KA1240M+03211MA1999999098411MD1999999-0021MW1131REMSYN094AAXX  24004 82586 32594 50507 10262 20216 39841 40077 71322 85300 333 10321 29072 55106 59002;EQDQ01  00002PRCP06
0190825860999992004022412004-05200-039300FM-12+021199999V0200501N002110075019N0200001N1+02541+02421100891ADDAY161061AY221061GF106991061041008001001001KA1240N+02321MA1999999098521MD1999999+0031MW1031REMSYN088AAXX  24124 82586 21598 60504 10254 20242 39852 40089 70362 86400 333 20232 58003 60034;
0167825860999992004022418004-05200-039300FM-12+021199999V0200501N001510075019N0200001N1+03021+02161100761ADDAA106000091GF106991061041008001001001MA1999999098401MD1999999+0131REMSYN070AAXX  24184 82586 32598 60503 10302 20216 39840 40076 86400 333 58013;EQDQ01  00002PRCP06
0202825860999992004022500004-05200-039300FM-12+021199999V0201801N003110075019N0010001N1+02321+02291100841ADDAY161061AY261061GF108991081071008001999999KA1240M+03071MA1999999098451MD1999999+0041MW1031REMSYN100AAXX  25004 82586 21594 81806 10232 20229 39845 40084 70366 887// 333 10307 29087 55069 58004 60361;
0190825860999992004022512004-05200-039300FM-12+021199999V0200901N001510075019N0200001N1+02441+02321100861ADDAY151061AY221061GF108991081071008001999999KA1240N+02221MA1999999098471MD1999999+0051MW1031REMSYN088AAXX  25124 82586 21598 80903 10244 20232 39847 40086 70352 887// 333 20222 58005 60374;
0167825860999992004022518004-05200-039300FM-12+021199999V02099999999990075019N0200001N1+03001+02001100681ADDAA106000091GF106991061041008001001001MA1999999098321MD1999999-0081REMSYN070AAXX  25184 82586 32598 605// 10300 20200 39832 40068 86400 333 59008;EQDQ01  00002PRCP06
0198825860999992004022600004-05200-039300FM-12+021199999V02099999999990075019N0010001N1+02501+02431100751ADDAA106000091GF106991061041008001001001KA1240M+03031MA1999999098371MD1999999+0081REMSYN088AAXX  26004 82586 32594 605// 10250 20243 39837 40075 86400 333 10303 29085 55049 58008;EQDQ01  00002PRCP06
0186825860999992004022612004-05200-039300FM-12+021199999V02099999999990075019N0200001N1+02521+02471100891ADDAA106000091GF108991081071008001999999KA1240N+02441MA1999999098511MD1999999+0041REMSYN076AAXX  26124 82586 32598 809// 10252 20247 39851 40089 887// 333 20244 58004;EQDQ01  00002PRCP06
0167825860999992004022618004-05200-039300FM-12+021199999V02099999999990450019N0200001N1+02951+01831100721ADDAA106000091GF106991041021008001021001MA1999999098361MD1999999+0041REMSYN070AAXX  26184 82586 32598 609// 10295 20183 39836 40072 84220 333 58004;EQDQ01  00002PRCP06
0226825860999992004022700004-05200-039300FM-12+021199999V02099999999990075019N0010001N1+02461+02091100851ADDAA106000091AY121061AY221061GF106991061031008001001001KA1240M+03051MA1999999098471MD1999999+0101MW1131REMSYN094AAXX  27004 82586 31594 605// 10246 20209 39847 40085 71322 86300 333 10305 29077 55052 58010;EQDQ01  00002PRCP06
0186825860999992004022712004-05200-039300FM-12+021199999V0201401N001510075019N0200001N1+02581+02461100971ADDAA106000091GF107991071041008001001001KA1240N+02121MA1999999098581MD1999999+0071REMSYN076AAXX  27124 82586 32598 71403 10258 20246 39858 40097 87400 333 20212 58007;EQDQ01  00002PRCP06
0171825860999992004022718004-05200-039300FM-12+021199999V02099999999990075019N0200001N1+02841+02621100691ADDAY161061AY221061GF106991061071008001001001MA1999999098311MD1999999-0051MW1151REMSYN082AAXX  27184 82586 21598 605// 10284 20262 39831 40069 71562 86700 333 59005 60011;
0226825860999992004022800004-05200-039300FM-12+021199999V02099999999990075019N0010001N1+02481+02341100851ADDAA106000091AY121061AY221061GF108991081091008001999999KA1240M+03111MA1999999098461MD1999999-0011MW1131REMSYN094AAXX  28004 82586 31594 809// 10248 20234 39846 40085 71322 889// 333 10311 29091 55043 59001;EQDQ01  00002PRCP06
0162825860999992004022812004-05200-039300FM-12+021199999V02099999999990075019N0200001N1+02681+02461100811ADDGF106991061041008001001001KA1240N+02321MA1999999098441MD1999999-0141REMSYN082AAXX  28124 82586 22598 609// 10268 20246 39844 40081 86400 333 20232 59014 60014;
0171825860999992004022818004-05200-039300FM-12+021199999V02099999999990075019N0200001N1+02561+02511100561ADDAY161061AY221061GF108991081091008001999999MA1999999098181MD1999999-0131MW1291REMSYN082AAXX  28184 82586 21598 836// 10256 20251 39818 40056 72962 889// 333 59013 60041;
0202825860999992004022900004-05200-039300FM-12+021199999V0200501N002610075019N0010001N1+02471+02431100721ADDAY121061AY221061GF108991081091008001999999KA1240M+03031MA1999999098351MD1999999-0111MW1131REMSYN100AAXX  29004 82586 21594 80505 10247 20243 39835 40072 71322 889// 333 10303 29095 55054 59011 60011;
0190825860999992004022912004-05200-039300FM-12+021199999V0201401N001510450019N0200001N1+02541+02491100861ADDAY161061AY221061GF108991041041008001021011KA1240N+02321MA1999999098481MD1999999+0041MW1031REMSYN088AAXX  29124 82586 21598 81403 10254 20249 39848 40086 70362 84421 333 20232 58004 60114;
0171825860999992004022918004-05200-039300FM-12+021199999V0201801N001510450019N0200001N1+02701+02561100691ADDAY161061AY261061GF108991031021008001021999MA1999999098311MD1999999+0131MW1031REMSYN082AAXX  29184 82586 21598 81803 10270 20256 39831 40069 70366 8322/ 333 58013 60291;
0202825860999992004030100004-05200-039300FM-12+021199999V0201801N000510075019N0010001N1+02361+02131100761ADDAY161061AY221061GF106991061051008001001001KA1240M+02831MA1999999098381MD1999999+0031MW1001REMSYN100AAXX  01004 82586 21594 61801 10236 20213 39838 40076 70062 86500 333 10283 29091 55004 58003 60031;
0162825860999992004030112004-05200-039300FM-12+021199999V0200901N004110075019N0200001N1+02581+02551100951ADDGF107991071041008001001001KA1240N+02121MA1999999098551MD1999999+0071REMSYN082AAXX  01124 82586 22598 70908 10258 20255 39855 40095 87400 333 20212 58007 60314;
0167825860999992004030118004-05200-039300FM-12+021199999V0201401N003111050019N0200001N1+02991+02251100721ADDAA106000091GF105991031011008001001021MA1999999098361MD1999999+0051REMSYN070AAXX  01184 82586 32598 51406 10299 20225 39836 40072 83102 333 58005;EQDQ01  00002PRCP06
0208825860999992004030200004-05200-039300FM-12+021199999V0203601N001012200019N0010001N1+02441+02011100801ADDAA106000091GA1001+999999999GF100991001001999999001001KA1240M+03061MA1999999098841MD1999999+0041REMSYN082AAXX  02004 82586 32994 03602 10244 20201 39884 40080 333 10306 29079 55104 58004;EQDQ01  00002PRCP06
0186825860999992004030212004-05200-039300FM-12+021199999V0200901N002112200019N0200001N1+02681+02461100811ADDAA106000091GF105991031011008001001041KA1240N+02181MA1999999098431MD1999999-0181REMSYN076AAXX  02124 82586 32598 50904 10268 20246 39843 40081 83104 333 20218 59018;EQDQ01  00002PRCP06
0167825860999992004030218004-05200-039300FM-12+021199999V0201801N001010075019N0200001N1+03091+02401100721ADDAA106000091GF106991061041008001001001MA1999999098361MD1999999+0001REMSYN070AAXX  02184 82586 32598 61802 10309 20240 39836 40072 86400 333 58000;EQDQ01  00002PRCP06
0198825860999992004030300004-05200-039300FM-12+021199999V0203601N002112200019N0010001N1+02561+02231100761ADDAA106000091GF102991001001999999001041KA1240M+03191MA1999999098391MD1999999-0031REMSYN088AAXX  03004 82586 32994 23604 10256 20223 39839 40076 80004 333 10319 29080 55099 59003;EQDQ01  00002PRCP06
0186825860999992004030312004-05200-039300FM-12+021199999V0200901N003110075019N0200001N1+02641+02551100901ADDAA106000091GF106991061041008001001001KA1240N+02181MA1999999098531MD1999999+0101REMSYN076AAXX  03124 82586 32598 60906 10264 20255 39853 40090 86400 333 20218 58010;EQDQ01  00002PRCP06
0195825860999992004030318004-05200-039300FM-12+021199999V0201801N003610075019N0200001N1+02941+02081100701ADDAA106000091AY121061AY221061GF107991071071008001001001MA1999999098231MD1999999-0031MW1131REMSYN076AAXX  03184 82586 31598 71807 10294 20208 39823 40070 71322 87700 333 59003;EQDQ01  00002PRCP06
0198825860999992004030400004-05200-039300FM-12+021199999V0203601N001512200019N0010001N1+02421+02191100701ADDAA106000091GF106991031011008001001041KA1240M+03011MA1999999098331MD1999999-0061REMSYN088AAXX  04004 82586 32594 63603 10242 20219 39833 40070 83104 333 10301 29082 55060 59006;EQDQ01  00002PRCP06
0186825860999992004030412004-05200-039300FM-12+021199999V0200901N001510075019N0200001N1+02641+02481100821ADDAA106000091GF106991061041008001001001KA1240N+02241MA1999999098441MD1999999-0091REMSYN076AAXX  04124 82586 32598 60903 10264 20248 39844 40082 86400 333 20224 59009;EQDQ01  00002PRCP06
0167825860999992004030418004-05200-039300FM-12+021199999V0200901N003111050019N0200001N1+03081+02271100651ADDAA106000091GF106991041021008001001021MA1999999098391MD1999999-0041REMSYN070AAXX  04184 82586 32598 60906 10308 20227 39839 40065 84202 333 59004;EQDQ01  00002PRCP06
0226825860999992004030500004-05200-039300FM-12+021199999V0200501N005110075019N0010001N1+02561+02471100721ADDAA106000091AY121061AY221061GF106991061031008001001001KA1240M+03071MA1999999098351MD1999999+0021MW1131REMSYN094AAXX  05004 82586 31594 60510 10256 20247 39835 40072 71322 86300 333 10307 29086 55102 58002;EQDQ01  00002PRCP06
0190825860999992004030512004-05200-039300FM-12+021199999V0200501N004110075019N0200001N1+02321+02221100911ADDAY161061AY221061GF106991061041008001001001KA1240N+02281MA1999999098531MD1999999+0091MW1031REMSYN088AAXX  05124 82586 21598 60508 10232 20222 39853 40091 70362 86400 333 20228 58009 60034;
0167825860999992004030518004-05200-039300FM-12+021199999V0200901N003110075019N0200001N1+02961+02311100731ADDAA106000091GF106991061021008001001001MA1999999098371MD1999999+0081REMSYN070AAXX  05184 82586 32598 60906 10296 20231 39837 40073 86200 333 58008;EQDQ01  00002PRCP06
0198825860999992004030600004-05200-039300FM-12+021199999V02099999999992200019N0010001N1+02501+02211100771ADDAA106000091GF104991041021008001001001KA1240M+03031MA1999999098381MD1999999+0031REMSYN088AAXX  06004 82586 32594 405// 10250 20221 39838 40077 84200 333 10303 29083 55063 58003;EQDQ01  00002PRCP06
0202825860999992004030612004-05200-039300FM-12+021199999V0200901N003610075019N0200001N1+02541+02441100831ADDAA106000091GF108991999071008001001001KA1240N+02321MA1999999098451MD1999999-0081REMSYN076AAXX  06124 82586 32598 80907 10254 20244 39845 40083 86700 333 20232 59008;EQDQ01+000062SCOTLCQ02  00002PRCP06
0167825860999992004030618004-05200-039300FM-12+021199999V0201401N003110075019N0200001N1+02981+02421100621ADDAA106000091GF106991061041008001001001MA1999999098261MD1999999-0111REMSYN070AAXX  06184 82586 32598 61406 10298 20242 39826 40062 86400 333 59011;EQDQ01  00002PRCP06
0221825860999992004030700004-05200-039300FM-12+021199999V0203601N001010120019N0010001N1+02501+02441100781ADDAY111061AY221061GF108991999081008001091999KA1240M+03071MA1999999098401MD1999999+0021MW1031REMSYN100AAXX  07004 82586 21594 83602 10250 20244 39840 40078 70312 8889/ 333 10307 29089 55059 58002 69981;EQDQ01+000082SCOTLC
0190825860999992004030712004-05200-039300FM-12+021199999V0200901N003110075019N0200001N1+02501+02431100911ADDAY191061AY261061GF108991081071008001999999KA1240N+02351MA1999999098531MD1999999+0081MW1031REMSYN088AAXX  07124 82586 21598 80906 10250 20243 39853 40091 70396 887// 333 20235 58008 60034;
0171825860999992004030718004-05200-039300FM-12+021199999V0201401N004610075019N0200001N1+02321+02271100821ADDAY161061AY261061GF108991081071008001999999MA1999999098421MD1999999+0161MW1291REMSYN082AAXX  07184 82586 21598 81409 10232 20227 39842 40082 72966 887// 333 58016 60401;
0202825860999992004030800004-05200-039300FM-12+021199999V0200901N002110075019N0010001N1+02301+02231100891ADDAY161061AY261061GF108991081071008001999999KA1240M+02631MA1999999098501MD1999999+0101MW1031REMSYN100AAXX  08004 82586 21594 80904 10230 20223 39850 40089 70366 887// 333 10263 29096 55000 58010 60061;
0190825860999992004030812004-05200-039300FM-12+021199999V02099999999990075019N0200001N1+02361+02291100991ADDAY161061AY221061GF108991081071008001999999KA1240N+02221MA1999999098591MD1999999+0061MW1031REMSYN088AAXX  08124 82586 21598 818// 10236 20229 39859 40099 70362 887// 333 20222 58006 60474;
0171825860999992004030818004-05200-039300FM-12+021199999V0201801N001510450019N0200001N1+02491+02421100811ADDAY161061AY261061GF107991041041008001021001MA1999999098421MD1999999+0001MW1031REMSYN082AAXX  08184 82586 21598 71803 10249 20242 39842 40081 70366 84420 333 58000 60051;
0202825860999992004030900004-05200-039300FM-12+021199999V0200901N001510075019N0010001N1+02301+02231100961ADDAY161061AY261061GF108991081071008001999999KA1240M+02711MA1999999098561MD1999999+0061MW1031REMSYN100AAXX  09004 82586 21594 80903 10230 20223 39856 40096 70366 887// 333 10271 29095 55006 58006 60081;
0190825860999992004030912004-05200-039300FM-12+021199999V0200901N003612200019N0200001N1+02561+02291100971ADDAY161061AY221061GF104991041011008001001001KA1240N+02201MA1999999098571MD1999999-0021MW1031REMSYN088AAXX  09124 82586 21598 40907 10256 20229 39857 40097 70362 84100 333 20220 59002 60144;
0167825860999992004030918004-05200-039300FM-12+021199999V0201401N003112200019N0200001N1+02981+02151100821ADDAA106000091GF102991021011008001001001MA1999999098451MD1999999+0031REMSYN070AAXX  09184 82586 32598 21406 10298 20215 39845 40082 82100 333 58003;EQDQ01  00002PRCP06
0214825860999992004031000004-05200-039300FM-12+021199999V0203601N000512200019N0010001N1+02441+02281100901ADDAA106000091GF104991999041008001001001KA1240M+03011MA1999999098521MD1999999-0041REMSYN088AAXX  10004 82586 32594 43601 10244 20228 39852 40090 86400 333 10301 29082 55105 59004;EQDQ01+000062SCOTLCQ02  00002PRCP06
0186825860999992004031012004-05200-039300FM-12+021199999V0200901N003110450019N0200001N1+02681+02311100911ADDAA106000091GF106991031021008001021001KA1240N+02311MA1999999098541MD1999999-0031REMSYN076AAXX  10124 82586 32598 60906 10268 20231 39854 40091 83220 333 20231 59003;EQDQ01  00002PRCP06
0167825860999992004031018004-05200-039300FM-12+021199999V0200901N003112200019N0200001N1+03091+02401100741ADDAA106000091GF105991031011008001001041MA1999999098381MD1999999-0071REMSYN070AAXX  10184 82586 32598 50906 10309 20240 39838 40074 83104 333 59007;EQDQ01  00002PRCP06
0202825860999992004031100004-05200-039300FM-12+021199999V0200901N004110075019N0010001N1+02341+02271100961ADDAY191061AY261061GF108991081091008001999999KA1240M+03111MA1999999098571MD1999999-0051MW1131REMSYN100AAXX  11004 82586 21594 80908 10234 20227 39857 40096 71396 889// 333 10311 29085 55099 59005 60021;
0190825860999992004031112004-05200-039300FM-12+021199999V0201401N001510075019N0200001N1+02641+02411100911ADDAY161061AY221061GF106991061041008001001001KA1240N+02281MA1999999098531MD1999999-0011MW1031REMSYN088AAXX  11124 82586 21598 61403 10264 20241 39853 40091 70362 86400 333 20228 59001 60044;
0167825860999992004031118004-05200-039300FM-12+021199999V0201401N002110450019N0200001N1+02861+02481100631ADDAA106000091GF107991041021008001021001MA1999999098251MD1999999-0131REMSYN070AAXX  11184 82586 32598 71404 10286 20248 39825 40063 84220 333 59013;EQDQ01  00002PRCP06
0198825860999992004031200004-05200-039300FM-12+021199999V0201401N001510075019N0010001N1+02421+02331100701ADDAA106000091GF106991061041008001001001KA1240M+03061MA1999999098321MD1999999-0241REMSYN088AAXX  12004 82586 32594 61403 10242 20233 39832 40070 86400 333 10306 29089 55068 59024;EQDQ01  00002PRCP06
0186825860999992004031212004-05200-039300FM-12+021199999V0200501N002610075019N0200001N1+02591+02311100891ADDAA106000091GF107991071071008001001001KA1240N+02281MA1999999098511MD1999999-0021REMSYN076AAXX  12124 82586 32598 70505 10259 20231 39851 40089 87700 333 20228 59002;EQDQ01  00002PRCP06
0171825860999992004031218004-05200-039300FM-12+021199999V0200901N001510075019N0200001N1+02941+02431100581ADDAY161061AY221061GF106991061041008001001001MA1999999098221MD1999999-0031MW1031REMSYN082AAXX  12184 82586 21598 60903 10294 20243 39822 40058 70362 86400 333 59003 60061;
0208825860999992004031300004-05200-039300FM-12+021199999V0200501N001512200019N0010001N1+02601+02421100691ADDAA106000091GA1001+999999999GF100991001001999999001001KA1240M+03111MA1999999098331MD1999999+0001REMSYN082AAXX  13004 82586 32594 00503 10260 20242 39833 40069 333 10311 29085 55044 58000;EQDQ01  00002PRCP06
0162825860999992004031312004-05200-039300FM-12+021199999V02099999999990075019N0200001N1+02541+02351100851ADDGF106991061041008001001001KA1240N+02381MA1999999098481MD1999999-0031REMSYN082AAXX  13124 82586 22598 609// 10254 20235 39848 40085 86400 333 20238 59003 60064;
0167825860999992004031318004-05200-039300FM-12+021199999V0200901N003612200019N0200001N1+03041+02361100641ADDAA106000091GF104991041011008001001001MA1999999098281MD1999999+0061REMSYN070AAXX  13184 82586 32598 40907 10304 20236 39828 40064 84100 333 58006;EQDQ01  00002PRCP06
0208825860999992004031400004-05200-039300FM-12+021199999V0200501N003612200019N0010001N1+02501+02291100851ADDAA106000091GA1001+999999999GF100991001001999999001001KA1240M+03111MA1999999098491MD1999999+0141REMSYN082AAXX  14004 82586 32994 00507 10250 20229 39849 40085 333 10311 29083 55087 58014;EQDQ01  00002PRCP06
0186825860999992004031412004-05200-039300FM-12+021199999V0200901N005112200019N0200001N1+02661+02371100831ADDAA106000091GF104991021011008001001041KA1240N+02241MA1999999098461MD1999999-0021REMSYN076AAXX  14124 82586 32598 40910 10266 20237 39846 40083 82104 333 20224 59002;EQDQ01  00002PRCP06
0167825860999992004031418004-05200-039300FM-12+021199999V0200901N005110075019N0200001N1+03041+02431100661ADDAA106000091GF105991051011008001001001MA1999999098301MD1999999+0021REMSYN070AAXX  14184 82586 32598 50910 10304 20243 39830 40066 85100 333 58002;EQDQ01  00002PRCP06
0198825860999992004031500004-05200-039300FM-12+021199999V0200501N001512200019N0010001N1+02561+02401100731ADDAA106000091GF102991021011008001001001KA1240M+03111MA1999999098391MD1999999-0081REMSYN088AAXX  15004 82586 32594 20503 10256 20240 39839 40073 82100 333 10311 29084 55102 59008;EQDQ01  00002PRCP06
0190825860999992004031512004-05200-039300FM-12+021199999V02099999999990075019N0200001N1+02661+02331100881ADDAY161061AY221061GF106991061041008001001001KA1240N+02321MA1999999098511MD1999999+0051MW1031REMSYN088AAXX  15124 82586 21598 605// 10266 20233 39851 40088 70362 86400 333 20232 58005 60054;
0167825860999992004031518004-05200-039300FM-12+021199999V0200901N001510075019N0200001N1+03021+02261100591ADDAA106000091GF106991061041008001001001MA1999999098231MD1999999-0071REMSYN070AAXX  15184 82586 32598 60903 10302 20226 39823 40059 86400 333 59007;EQDQ01  00002PRCP06
0226825860999992004031600004-05200-039300FM-12+021199999V0200901N001510075019N0010001N1+02541+02211100691ADDAA106000091AY121061AY221061GF107991071091008001001001KA1240M+03151MA1999999098331MD1999999-0061MW1131REMSYN094AAXX  16004 82586 31594 70903 10254 20221 39833 40069 71322 87900 333 10315 29078 55099 59006;EQDQ01  00002PRCP06
0190825860999992004031612004-05200-039300FM-12+021199999V0201401N001510075019N0200001N1+02441+02411100821ADDAY161061AY261061GF108991081071008001999999KA1240N+02321MA1999999098441MD1999999-0071MW1031REMSYN088AAXX  16124 82586 21598 81403 10244 20241 39844 40082 70366 887// 333 20232 59007 60174;
0167825860999992004031618004-05200-039300FM-12+021199999V0200501N003110075019N0200001N1+02821+02401100551ADDAA106000091GF106991061041008001001001MA1999999098191MD1999999-0041REMSYN070AAXX  16184 82586 32598 60506 10282 20240 39819 40055 86400 333 59004;EQDQ01  00002PRCP06
0202825860999992004031700004-05200-039300FM-12+021199999V0200501N001010075019N0010001N1+02391+02261100711ADDAY191061AY261061GF105991051041008001001001KA1240M+02991MA1999999098321MD1999999-0011MW1031REMSYN100AAXX  17004 82586 21594 50502 10239 20226 39832 40071 70396 85400 333 10299 29091 55026 59001 60131;
0190825860999992004031712004-05200-039300FM-12+021199999V0200501N004110075019N0200001N1+02541+02511100651ADDAY161061AY221061GF108991081071008001999999KA1240N+02281MA1999999098271MD1999999-0171MW1031REMSYN088AAXX  17124 82586 21598 80508 10254 20251 39827 40065 70362 887// 333 20228 59017 60154;
0167825860999992004031718004-05200-039300FM-12+021199999V0200901N002112200019N0200001N1+03021+02291100491ADDAA106000091GF104991041021008001001001MA1999999098131MD1999999-0061REMSYN070AAXX  17184 82586 32598 40904 10302 20229 39813 40049 84200 333 59006;EQDQ01  00002PRCP06
0198825860999992004031800004-05200-039300FM-12+021199999V0200501N003112200019N0010001N1+02531+02351100631ADDAA106000091GF103991031011008001001001KA1240M+03111MA1999999098261MD1999999-0061REMSYN088AAXX  18004 82586 32594 30506 10253 20235 39826 40063 83100 333 10311 29085 55076 59006;EQDQ01  00002PRCP06
0186825860999992004031812004-05200-039300FM-12+021199999V0200901N003110075019N0200001N1+02681+02481100751ADDAA106000091GF106991061041008001001001KA1240N+02261MA1999999098371MD1999999+0101REMSYN076AAXX  18124 82586 32598 60906 10268 20248 39837 40075 86400 333 20226 58010;EQDQ01  00002PRCP06
0183825860999992004031818004-05200-039300FM-12+021199999V0200901N003612200019N0200001N1+03041+02281100551ADDAA106000091GF104991999021008001001001MA1999999098191MD1999999+0061REMSYN070AAXX  18184 82586 32598 40907 10304 20228 39819 40055 85200 333 58006;EQDQ01+000052SCOTLCQ02  00002PRCP06
0202825860999992004031900004-05200-039300FM-12+021199999V0200501N001510075019N0010001N1+02441+02341100701ADDAY161061AY221061GF106991061041008001001001KA1240M+03131MA1999999098331MD1999999+0071MW1031REMSYN100AAXX  19004 82586 21594 60503 10244 20234 39833 40070 70362 86400 333 10313 29085 55086 58007 60051;
0190825860999992004031912004-05200-039300FM-12+021199999V0200501N004110075019N0200001N1+02621+02421100811ADDAY151061AY221061GF107991071071008001001001KA1240N+02051MA1999999098411MD1999999+0041MW1031REMSYN088AAXX  19124 82586 21598 70508 10262 20242 39841 40081 70352 87700 333 20205 58004 60054;
0167825860999992004031918004-05200-039300FM-12+021199999V0200501N002612200019N0200001N1+03041+02431100611ADDAA106000091GF104991041011008001001001MA1999999098241MD1999999+0051REMSYN070AAXX  19184 82586 32598 40505 10304 20243 39824 40061 84100 333 58005;EQDQ01  00002PRCP06
0198825860999992004032000004-05200-039300FM-12+021199999V0209999C000012200019N0010001N1+02421+02251100661ADDAA106000091GF103991031011008001001001KA1240M+03131MA1999999098281MD1999999-0051REMSYN088AAXX  20004 82586 32594 30000 10242 20225 39828 40066 83100 333 10313 29085 55095 59005;EQDQ01  00002PRCP06
0186825860999992004032012004-05200-039300FM-12+021199999V0200501N003610075019N0200001N1+02501+02391100861ADDAA106000091GF106991061041008001001001KA1240N+02021MA1999999098411MD1999999+0001REMSYN076AAXX  20124 82586 32598 60507 10250 20239 39841 40086 86400 333 20202 58000;EQDQ01  00002PRCP06
0167825860999992004032018004-05200-039300FM-12+021199999V0200501N003112200019N0200001N1+03021+02241100571ADDAA106000091GF104991041011008001001001MA1999999098211MD1999999-0031REMSYN070AAXX  20184 82586 32598 40506 10302 20224 39821 40057 84100 333 59003;EQDQ01  00002PRCP06
0198825860999992004032100004-05200-039300FM-12+021199999V0209999C000010075019N0010001N1+02501+02311100611ADDAA106000091GF106991061051008001001001KA1240M+03111MA1999999098231MD1999999-0051REMSYN088AAXX  21004 82586 32594 60000 10250 20231 39823 40061 86500 333 10311 29083 55093 59005;EQDQ01  00002PRCP06
0186825860999992004032112004-05200-039300FM-12+021199999V0200901N003110075019N0200001N1+02661+02221100741ADDAA106000091GF106991061051008001001001KA1240N+02451MA1999999098371MD1999999-0041REMSYN076AAXX  21124 82586 32598 60906 10266 20222 39837 40074 86500 333 20245 59004;EQDQ01  00002PRCP06
0162825860999992004032212004-05200-039300FM-12+021199999V0200501N004110075019N0200001N1+02681+02431100781ADDGF107991071041008001001001KA1240N+02141MA1999999098401MD1999999+0031REMSYN082AAXX  22124 82586 22598 70508 10268 20243 39840 40078 87400 333 20214 58003 60024;
0171825860999992004032218004-05200-039300FM-12+021199999V0203601N002610075019N0200001N1+02441+02411100581ADDAY161061AY221061GF107991071071008001001001MA1999999098191MD1999999-0011MW1611REMSYN082AAXX  22184 82586 21598 73605 10244 20241 39819 40058 76162 87700 333 59001 60091;
0207825860999992004032300004-05200-039300FM-12+021199999V0200501N000510075019N0010001N1+02461+02371100731ADDAA106000021AY121061AY221061GF106991061031008001001001KA1240M+03131MA1999999098351MD1999999+0081MW1131REMSYN094AAXX  23004 82586 31594 60501 10246 20237 39835 40073 71322 86300 333 10313 29093 55059 58008;
0162825860999992004032312004-05200-039300FM-12+021199999V0200901N003110075019N0200001N1+03691+02521100801ADDGF106991061041008001001001KA1240N+02101MA1999999098431MD1999999+0031REMSYN082AAXX  23124 82586 22598 60906 10369 20252 39843 40080 86400 333 20210 58003 60094;
0167825860999992004032318004-05200-039300FM-12+021199999V0200901N003110075019N0200001N1+02961+02211100601ADDAA106000091GF106991061041008001001001MA1999999098231MD1999999+0041REMSYN070AAXX  23184 82586 32598 60906 10296 20221 39823 40060 86400 333 58004;EQDQ01  00002PRCP06
0202825860999992004032400004-05200-039300FM-12+021199999V0201801N001512200019N0010001N1+02351+02271100761ADDAY161061AY221061GF104991041021008001001001KA1240M+03091MA1999999098321MD1999999+0031MW1031REMSYN100AAXX  24004 82586 21594 41803 10235 20227 39832 40076 70362 84200 333 10309 29087 55082 58003 60031;
0162825860999992004032412004-05200-039300FM-12+021199999V0201401N002610075019N0200001N1+02621+02371100911ADDGF106991061041008001001001KA1240N+02021MA1999999098511MD1999999+0081REMSYN082AAXX  24124 82586 22598 61405 10262 20237 39851 40091 86400 333 20202 58008 60034;
0186825860999992004032512004-05200-039300FM-12+021199999V0200901N005110075019N0200001N1+02701+02541100791ADDAA106000091GF106991061041008001001001KA1240N+02141MA1999999098411MD1999999-0101REMSYN076AAXX  25124 82586 32598 60910 10270 20254 39841 40079 86400 333 20214 59010;EQDQ01  00002PRCP06
0167825860999992004032518004-05200-039300FM-12+021199999V0200901N002612200019N0200001N1+03141+02211100661ADDAA106000091GF107991041041008001001041MA1999999098321MD1999999-0061REMSYN070AAXX  25184 82586 32598 70905 10314 20221 39832 40066 84404 333 59006;EQDQ01  00002PRCP06
0198825860999992004032600004-05200-039300FM-12+021199999V0200501N001010075019N0010001N1+02621+02311100691ADDAA106000091GF106991061041008001001001KA1240M+03111MA1999999098331MD1999999-0021REMSYN088AAXX  26004 82586 32594 60502 10262 20231 39833 40069 86400 333 10311 29079 55086 59002;EQDQ01  00002PRCP06
0167825860999992004032618004-05200-039300FM-12+021199999V0200901N001512200019N0200001N1+03041+02431100571ADDAA106000091GF105991031021008001001011MA1999999098211MD1999999-0111REMSYN070AAXX  26184 82586 32598 50903 10304 20243 39821 40057 83201 333 59011;EQDQ01  00002PRCP06
0202825860999992004032700004-05200-039300FM-12+021199999V0203601N001010075019N0010001N1+02321+02271100681ADDAY161061AY261061GF106991061071008001001001KA1240M+03091MA1999999098301MD1999999-0031MW1031REMSYN100AAXX  27004 82586 21594 63602 10232 20227 39830 40068 70366 86700 333 10309 29090 55093 59003 60121;
0162825860999992004032712004-05200-039300FM-12+021199999V0201401N002110075019N0200001N1+02561+02331100761ADDGF107991061041008001051001KA1240N+02101MA1999999098361MD1999999+0001REMSYN082AAXX  27124 82586 22598 71404 10256 20233 39836 40076 86450 333 20210 58000 60124;
0167825860999992004032718004-05200-039300FM-12+021199999V0200901N003610075019N0200001N1+02991+02301100591ADDAA106000091GF106991061041008001001001MA1999999098221MD1999999+0011REMSYN070AAXX  27184 82586 32598 60907 10299 20230 39822 40059 86400 333 58001;EQDQ01  00002PRCP06
0198825860999992004032800004-05200-039300FM-12+021199999V0203201N001012200019N0010001N1+02501+02071100621ADDAA106000091GF104991001001999999001041KA1240M+03091MA1999999098251MD1999999-0051REMSYN088AAXX  28004 82586 32994 43202 10250 20207 39825 40062 80004 333 10309 29077 55084 59005;EQDQ01  00002PRCP06
0202825860999992004032812004-05200-039300FM-12+021199999V02099999999999999999N0040001N1+02621+02211100791ADDAA106000091GF106991999021008001001001KA1240N+02201MA1999999098411MD1999999+0051REMSYN076AAXX  28124 82586 32596 609// 10262 20221 39841 40079 83200 333 20220 58005;EQDQ01+000032SCOTLCQ02  00002PRCP06
0167825860999992004032818004-05200-039300FM-12+021199999V0201401N003110450019N0200001N1+03021+02291100581ADDAA106000091GF106991041041008001021001MA1999999098221MD1999999+0021REMSYN070AAXX  28184 82586 32598 61406 10302 20229 39822 40058 84420 333 58002;EQDQ01  00002PRCP06
0208825860999992004032900004-05200-039300FM-12+021199999V0200501N001012200019N0010001N1+02521+02291100661ADDAA106000091GA1001+999999999GF100991001001999999001001KA1240M+03111MA1999999098291MD1999999+0041REMSYN082AAXX  29004 82586 32994 00502 10252 20229 39829 40066 333 10311 29079 55079 58004;EQDQ01  00002PRCP06
0186825860999992004032912004-05200-039300FM-12+021199999V0201401N005112200019N0200001N1+02621+02391100831ADDAA106000091GF104991031011008001001041KA1240N+02201MA1999999098451MD1999999+0041REMSYN076AAXX  29124 82586 32598 41410 10262 20239 39845 40083 83104 333 20220 58004;EQDQ01  00002PRCP06
0167825860999992004032918004-05200-039300FM-12+021199999V0201801N003110075019N0200001N1+03041+02331100721ADDAA106000091GF105991051011008001001001MA1999999098361MD1999999+0141REMSYN070AAXX  29184 82586 32598 51806 10304 20233 39836 40072 85100 333 58014;EQDQ01  00002PRCP06
0208825860999992004033000004-05200-039300FM-12+021199999V0203201N001512200019N0010001N1+02421+02231100871ADDAA106000091GA1001+999999999GF100991001001999999001001KA1240M+03121MA1999999098491MD1999999+0201REMSYN082AAXX  30004 82586 32994 03203 10242 20223 39849 40087 333 10312 29081 55096 58020;EQDQ01  00002PRCP06
0186825860999992004033012004-05200-039300FM-12+021199999V0201801N003110075019N0200001N1+02721+02371100911ADDAA106000091GF106991061051008001001001KA1240N+02261MA1999999098531MD1999999+0081REMSYN076AAXX  30124 82586 32598 61806 10272 20237 39853 40091 86500 333 20226 58008;EQDQ01  00002PRCP06
0167825860999992004033018004-05200-039300FM-12+021199999V0200901N004610075019N0200001N1+03141+02041100761ADDAA106000091GF106991061021008001001001MA1999999098401MD1999999+0041REMSYN070AAXX  30184 82586 32598 60909 10314 20204 39840 40076 86200 333 58004;EQDQ01  00002PRCP06
0198825860999992004033100004-05200-039300FM-12+021199999V0201401N001010075019N0010001N1+02691+02281100881ADDAA106000091GF106991061051008001001001KA1240M+03251MA1999999098521MD1999999-0031REMSYN088AAXX  31004 82586 32594 61402 10269 20228 39852 40088 86500 333 10325 29075 55069 59003;EQDQ01  00002PRCP06
0186825860999992004033112004-05200-039300FM-12+021199999V0200901N005110075019N0200001N1+02741+02381100951ADDAA106000091GF105991051021008001001001KA1240N+02281MA1999999098591MD1999999+0061REMSYN076AAXX  31124 82586 32598 50910 10274 20238 39859 40095 85200 333 20228 58006;EQDQ01  00002PRCP06
0167825860999992004033118004-05200-039300FM-12+021199999V0200901N001512200019N0200001N1+03121+02381100721ADDAA106000091GF104991041021008001001001MA1999999098361MD1999999-0041REMSYN070AAXX  31184 82586 32598 40903 10312 20238 39836 40072 84200 333 59004;EQDQ01  00002PRCP06
0208825860999992004040100004-05200-039300FM-12+021199999V0203601N001012200019N0010001N1+02501+02231100781ADDAA106000091GA1001+999999999GF100991001001999999001001KA1240M+03211MA1999999098421MD1999999-0101REMSYN082AAXX  01004 82586 32994 03602 10250 20223 39842 40078 333 10321 29079 55106 59010;EQDQ01  00002PRCP06
0186825860999992004040112004-05200-039300FM-12+021199999V02099999999990075019N0200001N1+02641+02291101021ADDAA106000091GF106991061041008001001001KA1240N+02301MA1999999098651MD1999999+0061REMSYN076AAXX  01124 82586 32598 609// 10264 20229 39865 40102 86400 333 20230 58006;EQDQ01  00002PRCP06
0167825860999992004040118004-05200-039300FM-12+021199999V0200501N001012200019N0200001N1+03081+02241100731ADDAA106000091GF105991031021008001001041MA1999999098371MD1999999+0011REMSYN070AAXX  01184 82586 32598 50502 10308 20224 39837 40073 83204 333 58001;EQDQ01  00002PRCP06
0167825860999992004040218004-05200-039300FM-12+021199999V0200901N002112200019N0200001N1+03121+02081100741ADDAA106000091GF104991041021008001001001MA1999999098371MD1999999+0001REMSYN070AAXX  02184 82586 32598 40904 10312 20208 39837 40074 84200 333 58000;EQDQ01  00002PRCP06
0198825860999992004040300004-05200-039300FM-12+021199999V0200901N003112200019N0010001N1+02631+02211100781ADDAA106000091GF103991031021008001001001KA1240M+03211MA1999999098421MD1999999-0051REMSYN088AAXX  03004 82586 32594 30906 10263 20221 39842 40078 83200 333 10321 29074 55086 59005;EQDQ01  00002PRCP06
0162825860999992004040512004-05200-039300FM-12+021199999V0201401N004610075019N0200001N1+02641+02141100961ADDGF106991061041008001001001KA1240N+02221MA1999999098581MD1999999-0011REMSYN082AAXX  05124 82586 22598 61409 10264 20214 39858 40096 86400 333 20222 59001 60074;
0162825860999992004040612004-05200-039300FM-12+021199999V0200901N003110075019N0200001N1+02621+02251100911ADDGF108991081071008001999999KA1240N+02161MA1999999098531MD1999999-0051REMSYN082AAXX  06124 82586 22598 80906 10262 20225 39853 40091 887// 333 20216 59005 60014;
0167825860999992004040618004-05200-039300FM-12+021199999V0200901N001511050019N0200001N1+02961+02071100651ADDAA106000091GF106991031021008001001021MA1999999098221MD1999999-0081REMSYN070AAXX  06184 82586 32598 60903 10296 20207 39822 40065 83202 333 59008;EQDQ01  00002PRCP06
0198825860999992004040700004-05200-039300FM-12+021199999V0200501N001510450019N0010001N1+02521+02341100761ADDAA106000091GF107991021011008001021001KA1240M+03111MA1999999098381MD1999999-0101REMSYN088AAXX  07004 82586 32594 70503 10252 20234 39838 40076 82120 333 10311 29081 55047 59010;EQDQ01  00002PRCP06
0186825860999992004040712004-05200-039300FM-12+021199999V0200901N003610075019N0200001N1+02641+02231100851ADDAA106000091GF107991071051008001001001KA1240N+02251MA1999999098481MD1999999-0051REMSYN076AAXX  07124 82586 32598 70907 10264 20223 39848 40085 87500 333 20225 59005;EQDQ01  00002PRCP06
0167825860999992004040718004-05200-039300FM-12+021199999V0200901N003110075019N0200001N1+03121+02171100741ADDAA106000091GF106991061041008001001001MA1999999098381MD1999999+0101REMSYN070AAXX  07184 82586 32598 60906 10312 20217 39838 40074 86400 333 58010;EQDQ01  00002PRCP06
0198825860999992004040800004-05200-039300FM-12+021199999V0200501N001010075019N0010001N1+02521+02361100751ADDAA106000091GF106991061041008001001001KA1240M+03211MA1999999098381MD1999999+0001REMSYN088AAXX  08004 82586 32594 60502 10252 20236 39838 40075 86400 333 10321 29079 55064 58000;EQDQ01  00002PRCP06
0186825860999992004040812004-05200-039300FM-12+021199999V0200501N005110450019N0200001N1+02761+02211100881ADDAA106000091GF105991021011008001051001KA1240N+02301MA1999999098521MD1999999+0041REMSYN076AAXX  08124 82586 32598 50510 10276 20221 39852 40088 82150 333 20230 58004;EQDQ01  00002PRCP06
0167825860999992004040818004-05200-039300FM-12+021199999V0200901N003112200019N0200001N1+03181+02331100681ADDAA106000091GF106991031021008001001041MA1999999098321MD1999999-0061REMSYN070AAXX  08184 82586 32598 60906 10318 20233 39832 40068 83204 333 59006;EQDQ01  00002PRCP06
0226825860999992004040900004-05200-039300FM-12+021199999V0200501N002110075019N0200001N1+02601+02461100891ADDAA106000091AY121061AY221061GF106991061031008001001001KA1240M+03231MA1999999098531MD1999999+0151MW1131REMSYN094AAXX  09004 82586 31598 60504 10260 20246 39853 40089 71322 86300 333 10323 29079 55094 58015;EQDQ01  00002PRCP06
0186825860999992004040912004-05200-039300FM-12+021199999V0201401N003110075019N0200001N1+02641+02271100951ADDAA106000091GF106991061041008001001001KA1240N+02351MA1999999098581MD1999999+0061REMSYN076AAXX  09124 82586 32598 61406 10264 20227 39858 40095 86400 333 20235 58006;EQDQ01  00002PRCP06
0167825860999992004040918004-05200-039300FM-12+021199999V0201401N001510075019N0200001N1+03101+02121100681ADDAA106000091GF105991051011008001001001MA1999999098321MD1999999+0001REMSYN070AAXX  09184 82586 32598 51403 10310 20212 39832 40068 85100 333 58000;EQDQ01  00002PRCP06
0208825860999992004041000004-05200-039300FM-12+021199999V0200501N004612200019N0010001N1+02501+02211100761ADDAA106000091GA1001+999999999GF100991001001999999001001KA1240M+03201MA1999999098381MD1999999-0151REMSYN082AAXX  10004 82586 32994 00509 10250 20221 39838 40076 333 10320 29076 55101 59015;EQDQ01  00002PRCP06
0186825860999992004041012004-05200-039300FM-12+021199999V0200901N003110075019N0200001N1+02721+02241100831ADDAA106000091GF105991051011008001001001KA1240N+02141MA1999999098461MD1999999-0121REMSYN076AAXX  10124 82586 32598 50906 10272 20224 39846 40083 85100 333 20214 59012;EQDQ01  00002PRCP06
0167825860999992004041018004-05200-039300FM-12+021199999V0201401N003112200019N0200001N1+03221+01981100461ADDAA106000091GF103991031011008001001001MA1999999098111MD1999999-0211REMSYN070AAXX  10184 82586 32598 31406 10322 20198 39811 40046 83100 333 59021;EQDQ01  00002PRCP06
0208825860999992004041100004-05200-039300FM-12+021199999V0200501N005112200019N0010001N1+02591+02171100541ADDAA106000091GA1001+999999999GF100991001001999999001001KA1240M+03211MA1999999098181MD1999999-0201REMSYN082AAXX  11004 82586 32994 00510 10259 20217 39818 40054 333 10321 29070 55105 59020;EQDQ01  00002PRCP06
0186825860999992004041112004-05200-039300FM-12+021199999V0201401N006210075019N0200001N1+02701+02221100611ADDAA106000091GF106991061041008001001001KA1240N+02101MA1999999098251MD1999999-0211REMSYN076AAXX  11124 82586 32598 61412 10270 20222 39825 40061 86400 333 20210 59021;EQDQ01  00002PRCP06
0167825860999992004041118004-05200-039300FM-12+021199999V0201401N002110075019N0200001N1+03121+02221100361ADDAA106000091GF106991061041008001001001MA1999999098011MD1999999-0101REMSYN070AAXX  11184 82586 32598 61404 10312 20222 39801 40036 86400 333 59010;EQDQ01  00002PRCP06
0208825860999992004041200004-05200-039300FM-12+021199999V0200501N005112200019N0010001N1+02611+02251100491ADDAA106000091GA1001+999999999GF100991001001999999001001KA1240M+03261MA1999999098131MD1999999-0051REMSYN082AAXX  12004 82586 32994 00510 10261 20225 39813 40049 333 10326 29074 55085 59005;EQDQ01  00002PRCP06
0202825860999992004041212004-05200-039300FM-12+021199999V0200901N003619999999N0200001N1+02581+02221100671ADDAA106000091GF106991999051008001001001KA1240N+02161MA1999999098311MD1999999+0061REMSYN076AAXX  12124 82586 32598 60907 10258 20222 39831 40067 87500 333 20216 58006;EQDQ01+000072SCOTLCQ02  00002PRCP06
0167825860999992004041218004-05200-039300FM-12+021199999V0201401N003610075019N0200001N1+03161+02141100491ADDAA106000091GF106991061041008001001001MA1999999098131MD1999999+0121REMSYN070AAXX  12184 82586 32598 61407 10316 20214 39813 40049 86400 333 58012;EQDQ01  00002PRCP06
0208825860999992004041300004-05200-039300FM-12+021199999V0200501N005112200019N0010001N1+02621+02311100641ADDAA106000091GA1001+999999999GF100991001001999999001001KA1240M+03211MA1999999098281MD1999999+0151REMSYN082AAXX  13004 82586 32994 00510 10262 20231 39828 40064 333 10321 29075 55093 58015;EQDQ01  00002PRCP06
0186825860999992004041312004-05200-039300FM-12+021199999V0200901N005112200019N0200001N1+02741+01951100841ADDAA106000091GF104991031011008001001041KA1240N+02201MA1999999098481MD1999999+0171REMSYN076AAXX  13124 82586 32598 40910 10274 20195 39848 40084 83104 333 20220 58017;EQDQ01  00002PRCP06
0167825860999992004041318004-05200-039300FM-12+021199999V0200901N003112200019N0200001N1+03281+02031100641ADDAA106000091GF104991031011008001001041MA1999999098311MD1999999+0181REMSYN070AAXX  13184 82586 32598 40906 10328 20203 39831 40064 83104 333 58018;EQDQ01  00002PRCP06
0208825860999992004041400004-05200-039300FM-12+021199999V0200901N005712200019N0010001N1+02541+02231100741ADDAA106000091GA1001+999999999GF100991001001999999001001KA1240M+03351MA1999999098381MD1999999+0101REMSYN082AAXX  14004 82586 32994 00911 10254 20223 39838 40074 333 10335 29069 55106 58010;EQDQ01  00002PRCP06
0186825860999992004041412004-05200-039300FM-12+021199999V0201401N005110075019N0200001N1+03741+01951100881ADDAA106000091GF106991061021008001001001KA1240N+02221MA1999999098521MD1999999+0041REMSYN076AAXX  14124 82586 32598 61410 10374 20195 39852 40088 86200 333 20222 58004;EQDQ01  00002PRCP06
0167825860999992004041418004-05200-039300FM-12+021199999V0200901N003110075019N0200001N1+03321+01851100621ADDAA106000091GF106991061021008001001001MA1999999098271MD1999999-0041REMSYN070AAXX  14184 82586 32598 60906 10332 20185 39827 40062 86200 333 59004;EQDQ01  00002PRCP06
0242825860999992004041500004-05200-039300FM-12+021199999V0200501N001512200019N0010001N1+02661+02091100721ADDAA106000091AY131061AY221061GF102991999021008001001001KA1240M+03231MA1999999098361MD1999999-0021MW1131REMSYN094AAXX  15004 82586 31594 20503 10266 20209 39836 40072 71332 83200 333 10323 29062 55105 59002;EQDQ01+000032SCOTLCQ02  00002PRCP06
0186825860999992004041512004-05200-039300FM-12+021199999V0201401N002110075019N0200001N1+02601+02391100821ADDAA106000091GF108991081041008001999999KA1240N+02001MA1999999098461MD1999999-0061REMSYN076AAXX  15124 82586 32598 81404 10260 20239 39846 40082 884// 333 20200 59006;EQDQ01  00002PRCP06
0167825860999992004041518004-05200-039300FM-12+021199999V0200501N001512200019N0200001N1+03241+02061100591ADDAA106000091GF104991041021008001001001MA1999999098231MD1999999-0041REMSYN070AAXX  15184 82586 32598 40503 10324 20206 39823 40059 84200 333 59004;EQDQ01  00002PRCP06
0226825860999992004041600004-05200-039300FM-12+021199999V0200501N002612200019N0010001N1+02581+02041100691ADDAA106000091AY121061AY221061GF103991031031008001001001KA1240M+03331MA1999999098331MD1999999-0031MW1131REMSYN094AAXX  16004 82586 31594 30505 10258 20204 39833 40069 71322 83300 333 10333 29071 55081 59003;EQDQ01  00002PRCP06
0190825860999992004041612004-05200-039300FM-12+021199999V02099999999990075019N0200001N1+02581+02381100891ADDAY151061AY221061GF108991081071008001999999KA1240N+02021MA1999999098521MD1999999+0061MW1031REMSYN088AAXX  16124 82586 21598 814// 10258 20238 39852 40089 70352 887// 333 20202 58006 69924;
0167825860999992004041618004-05200-039300FM-12+021199999V0201801N003110075019N0200001N1+03081+01951100661ADDAA106000091GF106991061041008001001001MA1999999098311MD1999999+0081REMSYN070AAXX  16184 82586 32598 61806 10308 20195 39831 40066 86400 333 58008;EQDQ01  00002PRCP06
0198825860999992004041700004-05200-039300FM-12+021199999V0200901N002110075019N0010001N1+02621+02311100831ADDAA106000091GF106991061041008001001001KA1240M+03231MA1999999098461MD1999999+0131REMSYN088AAXX  17004 82586 32594 60904 10262 20231 39846 40083 86400 333 10323 29075 55060 58013;EQDQ01  00002PRCP06
0186825860999992004041712004-05200-039300FM-12+021199999V0201401N006212200019N0200001N1+02821+01831100951ADDAA106000091GF104991041001008001071001KA1240N+02041MA1999999098591MD1999999+0071REMSYN076AAXX  17124 82586 32598 41412 10282 20183 39859 40095 84070 333 20204 58007;EQDQ01  00002PRCP06
0167825860999992004041718004-05200-039300FM-12+021199999V0201801N005112200019N0200001N1+03111+01801100751ADDAA106000091GF104991041021008001001001MA1999999098391MD1999999+0081REMSYN070AAXX  17184 82586 32598 41810 10311 20180 39839 40075 84200 333 58008;EQDQ01  00002PRCP06
0198825860999992004041800004-05200-039300FM-12+021199999V0200501N002610075019N0010001N1+02541+02211100871ADDAA106000091GF105991051021008001001001KA1240M+03331MA1999999098501MD1999999+0041REMSYN088AAXX  18004 82586 32594 50505 10254 20221 39850 40087 85200 333 10333 29066 55101 58004;EQDQ01  00002PRCP06
0186825860999992004041812004-05200-039300FM-12+021199999V0201401N002610075019N0200001N1+02721+02281100941ADDAA106000091GF106991061041008001001001KA1240N+02301MA1999999098581MD1999999-0011REMSYN076AAXX  18124 82586 32598 61405 10272 20228 39858 40094 86400 333 20230 59001;EQDQ01  00002PRCP06
0171825860999992004041818004-05200-039300FM-12+021199999V0201801N002610075019N0200001N1+02601+02461100731ADDAY151061AY221061GF106991061041008001001001MA1999999098371MD1999999-0021MW1031REMSYN082AAXX  18184 82586 21598 61805 10260 20246 39837 40073 70352 86400 333 59002 69961;
0202825860999992004041900004-05200-039300FM-12+021199999V0200501N005110120019N0010001N1+02161+02111100911ADDAY161061AY261061GF108991081081008001999999KA1240M+03211MA1999999098521MD1999999+0021MW1131REMSYN100AAXX  19004 82586 21594 80510 10216 20211 39852 40091 71366 888// 333 10321 29091 55005 58002 60231;
0207825860999992004041912004-05200-039300FM-12+021199999V0201801N001012200019N0200001N1+02661+02021100021ADDAA124026091AY161061AY221061GF104991041021008001001001KA1240N+02221MA1999999098511MD1999999-0071MW1031REMSYN094AAXX  19124 82586 21598 41802 10266 20202 39851 40002 70362 84200 333 20222 59007 60264 10261;
0183825860999992004041918004-05200-039300FM-12+021199999V0201401N002619999999N0200001N1+03091+01851100671ADDAA106000091GF105991999021008001001001MA1999999098311MD1999999-0061REMSYN070AAXX  19184 82586 32598 51405 10309 20185 39831 40067 83200 333 59006;EQDQ01+000032SCOTLCQ02  00002PRCP06
0198825860999992004042000004-05200-039300FM-12+021199999V0200501N001510075019N0010001N1+02491+02331100761ADDAA106000091GF106991061041008001001001KA1240M+03191MA1999999098381MD1999999-0141REMSYN088AAXX  20004 82586 32594 60503 10249 20233 39838 40076 86400 333 10319 29079 55089 59014;EQDQ01  00002PRCP06
0186825860999992004042012004-05200-039300FM-12+021199999V0201401N003110075019N0200001N1+02681+02021100881ADDAA106000091GF106991061041008001001001KA1240N+02081MA1999999098511MD1999999+0001REMSYN076AAXX  20124 82586 32598 61406 10268 20202 39851 40088 86400 333 20208 58000;EQDQ01  00002PRCP06
0167825860999992004042018004-05200-039300FM-12+021199999V0201401N003110450019N0200001N1+03081+01641100651ADDAA106000091GF106991031021008001051001MA1999999098291MD1999999-0021REMSYN070AAXX  20184 82586 32598 61406 10308 20164 39829 40065 83250 333 59002;EQDQ01  00002PRCP06
0208825860999992004042100004-05200-039300FM-12+021199999V0209999C000012200019N0010001N1+02521+02361100801ADDAA106000091GA1001+999999999GF100991001001999999001001KA1240M+03211MA1999999098431MD1999999+0051REMSYN082AAXX  21004 82586 32994 00000 10252 20236 39843 40080 333 10321 29073 55092 58005;EQDQ01  00002PRCP06
0186825860999992004042112004-05200-039300FM-12+021199999V0200901N004110075019N0200001N1+02681+02331100791ADDAA106000091GF106991061041008001001001KA1240N+02021MA1999999098421MD1999999-0091REMSYN076AAXX  21124 82586 32598 60908 10268 20233 39842 40079 86400 333 20202 59009;EQDQ01  00002PRCP06
0167825860999992004042118004-05200-039300FM-12+021199999V0200501N003110075019N0200001N1+03141+01841100651ADDAA106000091GF106991061041008001001001MA1999999098391MD1999999+0001REMSYN070AAXX  21184 82586 32598 60506 10314 20184 39839 40065 86400 333 58000;EQDQ01  00002PRCP06
0202825860999992004042200004-05200-039300FM-12+021199999V0200901N003110075019N0010001N1+02401+02301100861ADDAY191061AY261061GF108991081091008001999999KA1240M+03191MA1999999098481MD1999999+0051MW1131REMSYN100AAXX  22004 82586 21594 80906 10240 20230 39848 40086 71396 889// 333 10319 29079 55099 58005 60011;
0190825860999992004042212004-05200-039300FM-12+021199999V0200901N001010075019N0200001N1+02581+02121100811ADDAY161061AY221061GF106991061041008001001001KA1240N+02001MA1999999098431MD1999999+0011MW1031REMSYN088AAXX  22124 82586 21598 60902 10258 20212 39843 40081 70362 86400 333 20200 58001 60034;
0167825860999992004042218004-05200-039300FM-12+021199999V02099999999990075019N0200001N1+02821+01571100601ADDAA106000091GF108991081071008001999999MA1999999098221MD1999999-0071REMSYN070AAXX  22184 82586 32598 809// 10282 20157 39822 40060 887// 333 59007;EQDQ01  00002PRCP06
0202825860999992004042300004-05200-039300FM-12+021199999V02099999999990075019N0010001N1+02391+02351100761ADDAY161061AY261061GF108991081071008001999999KA1240M+03011MA1999999098381MD1999999-0101MW1611REMSYN100AAXX  23004 82586 21594 814// 10239 20235 39838 40076 76166 887// 333 10301 29080 55038 59010 60121;
0190825860999992004042312004-05200-039300FM-12+021199999V0201801N002110075019N0200001N1+02591+01741100701ADDAY161061AY261061GF106991061041008001001001KA1240N+02021MA1999999098341MD1999999-0091MW1031REMSYN088AAXX  23124 82586 21598 61804 10259 20174 39834 40070 70366 86400 333 20202 59009 60494;
0167825860999992004042318004-05200-039300FM-12+021199999V0201801N002610450019N0200001N1+02841+01581100581ADDAA106000091GF107991031021008001021001MA1999999098201MD1999999-0021REMSYN070AAXX  23184 82586 32598 71805 10284 20158 39820 40058 83220 333 59002;EQDQ01  00002PRCP06
0198825860999992004042400004-05200-039300FM-12+021199999V02099999999992200019N0010001N1+02381+02241100661ADDAA106000091GF103991031021008001001001KA1240M+03031MA1999999098271MD1999999-0111REMSYN088AAXX  24004 82586 32594 336// 10238 20224 39827 40066 83200 333 10303 29074 55050 59011;EQDQ01  00002PRCP06
0186825860999992004042412004-05200-039300FM-12+021199999V0201401N003110075019N0200001N1+02581+02331100681ADDAA106000091GF108991081071008001999999KA1240N+02151MA1999999098321MD1999999-0021REMSYN076AAXX  24124 82586 32598 81406 10258 20233 39832 40068 887// 333 20215 59002;EQDQ01  00002PRCP06
0171825860999992004042418004-05200-039300FM-12+021199999V0201401N003110450019N0200001N1+02901+01991100541ADDAY161061AY221061GF107991031021008001021001MA1999999098171MD1999999-0031MW1031REMSYN082AAXX  24184 82586 21598 71406 10290 20199 39817 40054 70362 83220 333 59003 60051;
0198825860999992004042500004-05200-039300FM-12+021199999V0200501N001010075019N0010001N1+02441+02251100671ADDAA106000091GF105991051021008001001001KA1240M+03001MA1999999098291MD1999999+0021REMSYN088AAXX  25004 82586 32594 50502 10244 20225 39829 40067 85200 333 10300 29081 55008 58002;EQDQ01  00002PRCP06
0181825860999992004042512004-05200-039300FM-12+021199999V0200901N003119999999N0200001N1+02701+02131100831ADDGF106991999021008001001001KA1240N+02341MA1999999098451MD1999999+0131REMSYN082AAXX  25124 82586 22598 60906 10270 20213 39845 40083 83200 333 20234 58013 60054;EQDQ01+000032SCOTLC
0167825860999992004042518004-05200-039300FM-12+021199999V0201401N003110075019N0200001N1+03001+02241100621ADDAA106000091GF108991051071008001999999MA1999999098261MD1999999+0091REMSYN070AAXX  25184 82586 32598 81406 10300 20224 39826 40062 857// 333 58009;EQDQ01  00002PRCP06
0198825860999992004042600004-05200-039300FM-12+021199999V0200501N003110075019N0010001N1+02441+02271100861ADDAA106000091GF106991061041008001001001KA1240M+03121MA1999999098481MD1999999+0191REMSYN088AAXX  26004 82586 32594 60506 10244 20227 39848 40086 86400 333 10312 29079 55078 58019;EQDQ01  00002PRCP06
0190825860999992004042612004-05200-039300FM-12+021199999V0201401N002610075019N0200001N1+02641+02331100901ADDAY161061AY221061GF107991071041008001001001KA1240N+02141MA1999999098511MD1999999+0061MW1031REMSYN088AAXX  26124 82586 21598 71405 10264 20233 39851 40090 70362 87400 333 20214 58006 60024;
0167825860999992004042618004-05200-039300FM-12+021199999V0200901N001512200019N0200001N1+02961+02131100671ADDAA106000091GF107991031021008001001041MA1999999098311MD1999999+0051REMSYN070AAXX  26184 82586 32598 70903 10296 20213 39831 40067 83204 333 58005;EQDQ01  00002PRCP06
0226825860999992004042700004-05200-039300FM-12+021199999V0200501N001010075019N0010001N1+02511+02341100911ADDAA106000091AY121061AY221061GF107991071031008001001001KA1240M+03051MA1999999098531MD1999999+0051MW1131REMSYN094AAXX  27004 82586 31594 70502 10251 20234 39853 40091 71322 87300 333 10305 29082 55058 58005;EQDQ01  00002PRCP06
0190825860999992004042712004-05200-039300FM-12+021199999V02099999999990450019N0200001N1+02591+02441100981ADDAY191061AY261061GF108991041021008001021011KA1240N+02141MA1999999098601MD1999999+0091MW1031REMSYN088AAXX  27124 82586 21598 809// 10259 20244 39860 40098 70396 84221 333 20214 58009 60294;
0190825860999992004042718004-05200-039300FM-12+021199999V02099999999999999999N0200001N1+02521+02091100821ADDAY191061AY261061GF105991999021008001001001MA1999999098441MD1999999+0131MW1031REMSYN082AAXX  27184 82586 21598 518// 10252 20209 39844 40082 70396 83200 333 58013 60011;EQDQ01+000032SCOTLC
0198825860999992004042800004-05200-039300FM-12+021199999V02099999999990075019N0010001N1+02321+02241100961ADDAA106000091GF106991061051008001001001KA1240M+03001MA1999999098571MD1999999+0041REMSYN088AAXX  28004 82586 32594 636// 10232 20224 39857 40096 86500 333 10300 29089 55036 58004;EQDQ01  00002PRCP06
0186825860999992004042812004-05200-039300FM-12+021199999V02099999999992200019N0200001N1+02701+02431101011ADDAA106000091GF104991041021008001001001KA1240N+02201MA1999999098631MD1999999+0031REMSYN076AAXX  28124 82586 32598 409// 10270 20243 39863 40101 84200 333 20220 58003;EQDQ01  00002PRCP06
0167825860999992004042818004-05200-039300FM-12+021199999V0200501N003112200019N0200001N1+02491+02351100841ADDAA106000091GF107991031011008001001041MA1999999098461MD1999999+0021REMSYN070AAXX  28184 82586 32598 70506 10249 20235 39846 40084 83104 333 58002;EQDQ01  00002PRCP06
0198825860999992004042900004-05200-039300FM-12+021199999V02099999999990120019N0010001N1+02421+02251100931ADDAA106000091GF105991051001012501021001KA1240M+03031MA1999999098551MD1999999-0021REMSYN088AAXX  29004 82586 32694 536// 10242 20225 39855 40093 85020 333 10303 29085 55063 59002;EQDQ01  00002PRCP06
0186825860999992004042912004-05200-039300FM-12+021199999V02099999999990075019N0200001N1+02501+02471101021ADDAA106000091GF108991071051008001999999KA1240N+02021MA1999999098621MD1999999-0011REMSYN076AAXX  29124 82586 32598 809// 10250 20247 39862 40102 875// 333 20202 59001;EQDQ01  00002PRCP06
0167825860999992004042918004-05200-039300FM-12+021199999V0201801N002111050019N0200001N1+02991+02091100661ADDAA106000091GF105991031011008001001021MA1999999098301MD1999999-0161REMSYN070AAXX  29184 82586 32598 51804 10299 20209 39830 40066 83102 333 59016;EQDQ01  00002PRCP06
0208825860999992004043000004-05200-039300FM-12+021199999V02099999999992200019N0010001N1+02381+02131100811ADDAA106000091GA1001+999999999GF100991001001999999001001KA1240M+03091MA1999999098431MD1999999-0121REMSYN082AAXX  30004 82586 32994 036// 10238 20213 39843 40081 333 10309 29082 55072 59012;EQDQ01  00002PRCP06
0186825860999992004043012004-05200-039300FM-12+021199999V02099999999991050019N0200001N1+02641+02251100891ADDAA106000091GF106991021011008001001051KA1240N+02151MA1999999098511MD1999999-0111REMSYN076AAXX  30124 82586 32598 609// 10264 20225 39851 40089 82105 333 20215 59011;EQDQ01  00002PRCP06
0167825860999992004043018004-05200-039300FM-12+021199999V0201401N003111050019N0200001N1+03021+02021100621ADDAA106000091GF105991031021008001001021MA1999999098261MD1999999-0041REMSYN070AAXX  30184 82586 32598 51406 10302 20202 39826 40062 83202 333 59004;EQDQ01  00002PRCP06
0198825860999992004050100004-05200-039300FM-12+021199999V0200901N005110075019N0010001N1+02341+02221100841ADDAA106000091GF108991081071008001999999KA1240M+03081MA1999999098461MD1999999+0031REMSYN088AAXX  01004 82586 32594 80910 10234 20222 39846 40084 887// 333 10308 29080 55097 58003;EQDQ01  00002PRCP06
0186825860999992004050112004-05200-039300FM-12+021199999V0201401N005110075019N0200001N1+02581+02331100891ADDAA106000091GF107991071041008001001001KA1240N+02301MA1999999098501MD1999999-0011REMSYN076AAXX  01124 82586 32598 71410 10258 20233 39850 40089 87400 333 20230 59001;EQDQ01  00002PRCP06
0167825860999992004050118004-05200-039300FM-12+021199999V0201401N004611050019N0200001N1+02941+02111100651ADDAA106000091GF105991041021008001001021MA1999999098291MD1999999+0031REMSYN070AAXX  01184 82586 32598 51409 10294 20211 39829 40065 84202 333 58003;EQDQ01  00002PRCP06
0198825860999992004050200004-05200-039300FM-12+021199999V02099999999992200019N0010001N1+02341+02001100811ADDAA106000091GF103991031021008001001001KA1240M+03061MA1999999098431MD1999999+0031REMSYN088AAXX  02004 82586 32594 336// 10234 20200 39843 40081 83200 333 10306 29077 55088 58003;EQDQ01  00002PRCP06
0186825860999992004050212004-05200-039300FM-12+021199999V0201401N005112200019N0200001N1+02601+02211100861ADDAA106000091GF103991031011008001001001KA1240N+02151MA1999999098471MD1999999-0031REMSYN076AAXX  02124 82586 32598 31410 10260 20221 39847 40086 83100 333 20215 59003;EQDQ01  00002PRCP06
0167825860999992004050218004-05200-039300FM-12+021199999V0201401N003112200019N0200001N1+03001+02111100661ADDAA106000091GF102991021011008001001001MA1999999098301MD1999999+0011REMSYN070AAXX  02184 82586 32598 21406 10300 20211 39830 40066 82100 333 58001;EQDQ01  00002PRCP06
0198825860999992004050300004-05200-039300FM-12+021199999V0203201N001512200019N0010001N1+02361+01931100741ADDAA106000091GF102991021001012501021001KA1240M+03091MA1999999098361MD1999999-0071REMSYN088AAXX  03004 82586 32694 23203 10236 20193 39836 40074 82020 333 10309 29073 55106 59007;EQDQ01  00002PRCP06
0186825860999992004050312004-05200-039300FM-12+021199999V0201801N002112200019N0200001N1+02621+02121100861ADDAA106000091GF106991031021008001001041KA1240N+02101MA1999999098481MD1999999+0011REMSYN076AAXX  03124 82586 32598 61804 10262 20212 39848 40086 83204 333 20210 58001;EQDQ01  00002PRCP06
0167825860999992004050318004-05200-039300FM-12+021199999V0201801N003119999999N0200001N1+02991+01831100731ADDAA106000091GF106991061001008001051001MA1999999098351MD1999999+0051REMSYN070AAXX  03184 82586 32598 61806 10299 20183 39835 40073 86050 333 58005;EQDQ01  00002PRCP06
0183825860999992004050400004-05200-039300FM-12+021199999V0203601N001010120019N0010001N1+02281+01881100841ADDAA106000091GF108991081001012501021999KA1240M+03051MA1999999098451REMSYN087AAXX  04004 82586 32694 83602 10228 20188 39845 40084 8802/ 333 10305 29070 55071 5809;EQDQ01  00002PRCP06
0186825860999992004050412004-05200-039300FM-12+021199999V0201801N003110075019N0200001N1+02541+02191100881ADDAA106000091GF108991051021008001021999KA1240N+02051MA1999999098491MD1999999+0011REMSYN076AAXX  04124 82586 32598 81806 10254 20219 39849 40088 8522/ 333 20205 58001;EQDQ01  00002PRCP06
0198825860999992004050500004-05200-039300FM-12+021199999V02099999999990075019N0010001N1+02521+02381100761ADDAA106000091GF108991081071008001999999KA1240M+02911MA1999999098381MD1999999-0071REMSYN088AAXX  05004 82586 32594 814// 10252 20238 39838 40076 887// 333 10291 29087 55019 59007;EQDQ01  00002PRCP06
0190825860999992004050512004-05200-039300FM-12+021199999V0200901N003110450019N0200001N1+02541+02251100991ADDAY161061AY221061GF106991041011008001051001KA1240N+02141MA1999999098611MD1999999+0121MW1031REMSYN088AAXX  05124 82586 21598 60906 10254 20225 39861 40099 70362 84150 333 20214 58012 60124;
0167825860999992004050518004-05200-039300FM-12+021199999V0200901N001510450019N0200001N1+02741+02001100801ADDAA106000091GF107991041011008001021001MA1999999098421MD1999999+0051REMSYN070AAXX  05184 82586 32598 70903 10274 20200 39842 40080 84120 333 58005;EQDQ01  00002PRCP06
0198825860999992004050600004-05200-039300FM-12+021199999V0202701N001010075019N0010001N1+02521+02361100921ADDAA106000091GF108991081071008001999999KA1240M+02911MA1999999098541MD1999999+0161REMSYN088AAXX  06004 82586 32594 82702 10252 20236 39854 40092 887// 333 10291 29083 55022 58016;EQDQ01  00002PRCP06
0186825860999992004050612004-05200-039300FM-12+021199999V02099999999990075019N0200001N1+02591+01871100981ADDAA106000091GF106991061021008001001001KA1240N+02001MA1999999098601MD1999999-0011REMSYN076AAXX  06124 82586 32598 609// 10259 20187 39860 40098 86200 333 20200 59001;EQDQ01  00002PRCP06
0167825860999992004050618004-05200-039300FM-12+021199999V0201401N003110075019N0200001N1+02991+02171100791ADDAA106000091GF106991061041008001001001MA1999999098481MD1999999+0001REMSYN070AAXX  06184 82586 32598 61406 10299 20217 39848 40079 86400 333 58000;EQDQ01  00002PRCP06
0198825860999992004050700004-05200-039300FM-12+021199999V0200901N002110075019N0010001N1+02521+02291100911ADDAA106000091GF106991061041008001001001KA1240M+03061MA1999999098531MD1999999-0011REMSYN088AAXX  07004 82586 32594 60904 10252 20229 39853 40091 86400 333 10306 29075 55049 59001;EQDQ01  00002PRCP06
0186825860999992004050712004-05200-039300FM-12+021199999V0200901N003110075019N0200001N1+02621+02141101061ADDAA106000091GF108991081071008001999999KA1240N+02021MA1999999098651MD1999999+0081REMSYN076AAXX  07124 82586 32598 80906 10262 20214 39865 40106 887// 333 20202 58008;EQDQ01  00002PRCP06
0167825860999992004050718004-05200-039300FM-12+021199999V0201401N003110075019N0200001N1+02981+02001100811ADDAA106000091GF106991061021008001001001MA1999999098421MD1999999+0021REMSYN070AAXX  07184 82586 32598 61406 10298 20200 39842 40081 86200 333 58002;EQDQ01  00002PRCP06
0198825860999992004050800004-05200-039300FM-12+021199999V0200901N002112200019N0010001N1+02511+02211100901ADDAA106000091GF102991021051008001001001KA1240M+03071MA1999999098521MD1999999-0011REMSYN088AAXX  08004 82586 32594 20904 10251 20221 39852 40090 82500 333 10307 29076 55076 59001;EQDQ01  00002PRCP06
0190825860999992004050812004-05200-039300FM-12+021199999V02099999999990075019N0200001N1+02721+02001100961ADDAY161061AY221061GF105991051021008001001001KA1240N+02081MA1999999098571MD1999999-0081MW1031REMSYN088AAXX  08124 82586 21598 514// 10272 20200 39857 40096 70362 85200 333 20208 59008 60034;
0242825860999992004050900004-05200-039300FM-12+021199999V0200501N001512200019N0010001N1+02601+02211100831ADDAA106000091AY121061AY221061GF103991999031008001001001KA1240M+03101MA1999999098471MD1999999-0021MW1131REMSYN094AAXX  09004 82586 31594 30503 10260 20221 39847 40083 71322 82300 333 10310 29068 55072 59002;EQDQ01+000022SCOTLCQ02  00002PRCP06
0186825860999992004050912004-05200-039300FM-12+021199999V0201401N003110075019N0200001N1+02601+02031100941ADDAA106000091GF107991071041008001001001KA1240N+02141MA1999999098571MD1999999+0001REMSYN076AAXX  09124 82586 32598 71406 10260 20203 39857 40094 87400 333 20214 58000;EQDQ01  00002PRCP06
0167825860999992004050918004-05200-039300FM-12+021199999V0201401N002112200019N0200001N1+03081+01361101601ADDAA106000091GF104991041021008001001001MA1999999098311MD1999999-0111REMSYN070AAXX  09184 82586 32598 41404 10308 20136 39831 40160 84200 333 59011;EQDQ01  00002PRCP06
0198825860999992004051000004-05200-039300FM-12+021199999V02099999999990075019N0010001N1+02541+02041100821ADDAA106000091GF105991051041008001001001KA1240M+03151MA1999999098451MD1999999-0021REMSYN088AAXX  10004 82586 32594 505// 10254 20204 39845 40082 85400 333 10315 29065 55076 59002;EQDQ01  00002PRCP06
0186825860999992004051012004-05200-039300FM-12+021199999V0200901N003610075019N0200001N1+02701+02281100881ADDAA106000091GF105991051021008001001001KA1240N+02241MA1999999098511MD1999999-0061REMSYN076AAXX  10124 82586 32598 50907 10270 20228 39851 40088 85200 333 20224 59006;EQDQ01  00002PRCP06
0183825860999992004051018004-05200-039300FM-12+021199999V0201401N004619999999N0200001N1+02941+02111100651ADDAA106000091GF105991999021008001001001MA1999999098291MD1999999+0031REMSYN070AAXX  10184 82586 32598 51409 10294 20211 39829 40065 84200 333 58003;EQDQ01+000042SCOTLCQ02  00002PRCP06
0198825860999992004051100004-05200-039300FM-12+021199999V02099999999992200019N0010001N1+02421+01991100861ADDAA106000091GF102991021021008001001001KA1240M+03191MA1999999098481MD1999999+0031REMSYN088AAXX  11004 82586 32594 205// 10242 20199 39848 40086 82200 333 10319 29073 55089 58003;EQDQ01  00002PRCP06
0186825860999992004051112004-05200-039300FM-12+021199999V0200901N005112200019N0200001N1+02661+02221100951ADDAA106000091GF104991041011008001001001KA1240N+02201MA1999999098571MD1999999+0061REMSYN076AAXX  11124 82586 32598 40910 10266 20222 39857 40095 84100 333 20220 58006;EQDQ01  00002PRCP06
0167825860999992004051118004-05200-039300FM-12+021199999V0200901N002110075019N0200001N1+02901+02341100721ADDAA106000091GF106991061041008001001001MA1999999098351MD1999999+0021REMSYN070AAXX  11184 82586 32598 60904 10290 20234 39835 40072 86400 333 58002;EQDQ01  00002PRCP06
0226825860999992004051200004-05200-039300FM-12+021199999V0200501N001012200019N0010001N1+02511+02341100801ADDAA106000091AY121061AY221061GF104991041031008001001001KA1240M+03051MA1999999098431MD1999999-0051MW1131REMSYN094AAXX  12004 82586 31594 40502 10251 20234 39843 40080 71322 84300 333 10305 29083 55079 59005;EQDQ01  00002PRCP06
0186825860999992004051212004-05200-039300FM-12+021199999V0200901N003612200019N0200001N1+02701+02131100951ADDAA106000091GF104991041021008001001001KA1240N+02101MA1999999098581MD1999999+0011REMSYN076AAXX  12124 82586 32598 40907 10270 20213 39858 40095 84200 333 20210 58001;EQDQ01  00002PRCP06
0183825860999992004051218004-05200-039300FM-12+021199999V0200901N002612200019N0200001N1+03021+01661100661ADDAA106000091GF102991999021008001001001MA1999999098301MD1999999-0051REMSYN070AAXX  12184 82586 32598 20905 10302 20166 39830 40066 83200 333 59005;EQDQ01+000032SCOTLCQ02  00002PRCP06
0186825860999992004051312004-05200-039300FM-12+021199999V0201401N003612200019N0200001N1+02641+02251100931ADDAA106000091GF104991041021008001001001KA1240N+02061MA1999999098551MD1999999-0031REMSYN076AAXX  13124 82586 32598 41407 10264 20225 39855 40093 84200 333 20206 59003;EQDQ01  00002PRCP06
0167825860999992004051318004-05200-039300FM-12+021199999V0201401N003112200019N0200001N1+03041+02031100701ADDAA106000091GF103991031011008001001001MA1999999098361MD1999999+0061REMSYN070AAXX  13184 82586 32598 31406 10304 20203 39836 40070 83100 333 58006;EQDQ01  00002PRCP06
0208825860999992004051400004-05200-039300FM-12+021199999V0200901N001512200019N0010001N1+02361+01991100811ADDAA106000091GA1001+999999999GF100991001001999999001001KA1240M+03151MA1999999098431MD1999999-0051REMSYN082AAXX  14004 82586 32994 00903 10236 20199 39843 40081 333 10315 29074 55103 59005;EQDQ01  00002PRCP06
0167825860999992004051418004-05200-039300FM-12+021199999V0201401N003612200019N0200001N1+02181+02131100581ADDAA106000091GF103991031021008001001001MA1999999098231MD1999999-0131REMSYN070AAXX  14184 82586 32598 31407 10218 20213 39823 40058 83200 333 59013;EQDQ01  00002PRCP06
0208825860999992004051500004-05200-039300FM-12+021199999V0202301N000512200019N0010001N1+02521+01931100721ADDAA106000091GA1001+999999999GF100991001001999999001001KA1240M+03261MA1999999098351MD1999999-0081REMSYN082AAXX  15004 82586 32994 02301 10252 20193 39835 40072 333 10326 29067 55097 59008;EQDQ01  00002PRCP06
0186825860999992004051512004-05200-039300FM-12+021199999V0201401N003112200019N0200001N1+02661+02161100871ADDAA106000091GF104991041011008001001001KA1240N+02121MA1999999098501MD1999999-0021REMSYN076AAXX  15124 82586 32598 41406 10266 20216 39850 40087 84100 333 20212 59002;EQDQ01  00002PRCP06
0167825860999992004051518004-05200-039300FM-12+021199999V0200901N002112200019N0200001N1+03101+01971100641ADDAA106000091GF103991031011008001001001MA1999999098281MD1999999+0051REMSYN070AAXX  15184 82586 32598 30904 10310 20197 39828 40064 83100 333 58005;EQDQ01  00002PRCP06
0208825860999992004051600004-05200-039300FM-12+021199999V0200501N003612200019N0010001N1+02461+01941100721ADDAA106000091GA1001+999999999GF100991001001999999001001KA1240M+03231MA1999999098351MD1999999+0001REMSYN082AAXX  16004 82586 32994 00507 10246 20194 39835 40072 333 10323 29068 55105 58000;EQDQ01  00002PRCP06
0186825860999992004051612004-05200-039300FM-12+021199999V0201401N003110075019N0200001N1+02591+02151100891ADDAA106000091GF106991061051008001001001KA1240N+02141MA1999999098511MD1999999+0011REMSYN076AAXX  16124 82586 32598 61406 10259 20215 39851 40089 86500 333 20214 58001;EQDQ01  00002PRCP06
0167825860999992004051618004-05200-039300FM-12+021199999V0201401N002612200019N0200001N1+03111+02031100621ADDAA106000091GF104991041011008001001001MA1999999098261MD1999999-0021REMSYN070AAXX  16184 82586 32598 41405 10311 20203 39826 40062 84100 333 59002;EQDQ01  00002PRCP06
0208825860999992004051700004-05200-039300FM-12+021199999V0202701N000512200019N0010001N1+02401+01841100751ADDAA106000091GA1001+999999999GF100991001001999999001001KA1240M+03231MA1999999098371MD1999999+0021REMSYN082AAXX  17004 82586 32994 02701 10240 20184 39837 40075 333 10323 29068 55090 58002;EQDQ01  00002PRCP06
0202825860999992004051712004-05200-039300FM-12+021199999V0200901N005112200019N0200001N1+02641+01981100881ADDAA106000091GF103991999021008001001001KA1240N+02201MA1999999098501MD1999999-0011REMSYN076AAXX  17124 82586 32598 30910 10264 20198 39850 40088 86200 333 20220 59001;EQDQ01+000062SCOTLCQ02  00002PRCP06
0167825860999992004051718004-05200-039300FM-12+021199999V0201401N002610075019N0200001N1+02991+02061100651ADDAA106000091GF106991061021008001001001MA1999999098291MD1999999+0031REMSYN070AAXX  17184 82586 32598 61405 10299 20206 39829 40065 86200 333 58003;EQDQ01  00002PRCP06
0208825860999992004051800004-05200-039300FM-12+021199999V0200901N001512200019N0010001N1+02421+01791100801ADDAA106000091GA1001+999999999GF100991001001999999001001KA1240M+03161MA1999999098421MD1999999+0051REMSYN082AAXX  18004 82586 32994 00903 10242 20179 39842 40080 333 10316 29065 55082 58005;EQDQ01  00002PRCP06
0202825860999992004051812004-05200-039300FM-12+021199999V0201401N005112200019N0200001N1+02711+02031100961ADDAA106000091GF104991999011008001001001KA1240N+02241MA1999999098581MD1999999+0081REMSYN076AAXX  18124 82586 32598 41410 10271 20203 39858 40096 82100 333 20224 58008;EQDQ01+000022SCOTLCQ02  00002PRCP06
0183825860999992004051818004-05200-039300FM-12+021199999V0200901N002112200019N0200001N1+03041+01971100721ADDAA106000091GF104991999021008001001001MA1999999098361MD1999999+0051REMSYN070AAXX  18184 82586 32598 40904 10304 20197 39836 40072 86200 333 58005;EQDQ01+000062SCOTLCQ02  00002PRCP06
0208825860999992004051900004-05200-039300FM-12+021199999V0200501N001512200019N0010001N1+02501+01911100901ADDAA106000091GA1001+999999999GF100991001001999999001001KA1240M+03211MA1999999098531MD1999999+0111REMSYN082AAXX  19004 82586 32994 00503 10250 20191 39853 40090 333 10321 29065 55084 58011;EQDQ01  00002PRCP06
0186825860999992004051912004-05200-039300FM-12+021199999V0200901N005112200019N0200001N1+02761+01831101091ADDAA106000091GF103991021011008001001041KA1240N+02251MA1999999098721MD1999999+0141REMSYN076AAXX  19124 82586 32598 30910 10276 20183 39872 40109 82104 333 20225 58014;EQDQ01  00002PRCP06
0183825860999992004051918004-05200-039300FM-12+021199999V02099999999999999999N0200001N1+03181+01981100831ADDAA106000091GF105991999021008001001001MA1999999098471MD1999999+0111REMSYN070AAXX  19184 82586 32598 514// 10318 20198 39847 40083 83200 333 58011;EQDQ01+000032SCOTLCQ02  00002PRCP06
0208825860999992004052000004-05200-039300FM-12+021199999V0200501N001512200019N0010001N1+02551+01811100981ADDAA106000091GA1001+999999999GF100991001001999999001001KA1240M+03271MA1999999098621MD1999999+0091REMSYN082AAXX  20004 82586 32994 00503 10255 20181 39862 40098 333 10327 29059 55105 58009;EQDQ01  00002PRCP06
0186825860999992004052012004-05200-039300FM-12+021199999V0201401N004610075019N0200001N1+02501+02251101111ADDAA106000091GF107991071021008001001001KA1240N+02201MA1999999098721MD1999999+0011REMSYN076AAXX  20124 82586 32598 71409 10250 20225 39872 40111 87200 333 20220 58001;EQDQ01  00002PRCP06
0183825860999992004052018004-05200-039300FM-12+021199999V0201401N001519999999N0200001N1+02901+02271100841ADDAA106000091GF107991999021008001001001MA1999999098481MD1999999+0011REMSYN070AAXX  20184 82586 32598 71403 10290 20227 39848 40084 83200 333 58001;EQDQ01+000032SCOTLCQ02  00002PRCP06
0202825860999992004052100004-05200-039300FM-12+021199999V0201801N004110075019N0010001N1+02321+02271101071ADDAY161061AY261061GF108991081071008001999999KA1240M+03191MA1999999098681MD1999999+0051MW1631REMSYN100AAXX  21004 82586 21594 81808 10232 20227 39868 40107 76366 887// 333 10319 29087 55057 58005 60351;
0190825860999992004052112004-05200-039300FM-12+021199999V0201801N002110075019N0200001N1+02601+02071101071ADDAY161061AY261061GF106991061021008001001001KA1240N+02101MA1999999098671MD1999999-0061MW1031REMSYN088AAXX  21124 82586 21598 61804 10260 20207 39867 40107 70366 86200 333 20210 59006 60514;
0183825860999992004052118004-05200-039300FM-12+021199999V0201401N002119999999N0200001N1+02881+02131100841ADDAA106000091GF108991999021008001001001MA1999999098481MD1999999+0001REMSYN070AAXX  21184 82586 32598 81404 10288 20213 39848 40084 84200 333 58000;EQDQ01+000042SCOTLCQ02  00002PRCP06
0208825860999992004052200004-05200-039300FM-12+021199999V0203201N000512200019N0010001N1+02321+02181100911ADDAA106000091GA1001+999999999GF100991001001999999001001KA1240M+02891MA1999999098521MD1999999-0151REMSYN082AAXX  22004 82586 32994 03201 10232 20218 39852 40091 333 10289 29084 55032 59015;EQDQ01  00002PRCP06
0167825860999992004052218004-05200-039300FM-12+021199999V02099999999990075019N0200001N1+02981+02171100741ADDAA106000091GF106991061021008001001001MA1999999098371MD1999999-0111REMSYN070AAXX  22184 82586 32598 614// 10298 20217 39837 40074 86200 333 59011;EQDQ01  00002PRCP06
0208825860999992004052300004-05200-039300FM-12+021199999V0202701N001012200019N0020001N1+02321+02151100941ADDAA106000091GA1001+999999999GF100991001001999999001001KA1240M+03051MA1999999098541MD1999999+0021REMSYN082AAXX  23004 82586 32695 02702 10232 20215 39854 40094 333 10305 29085 55069 58002;EQDQ01  00002PRCP06
0186825860999992004052312004-05200-039300FM-12+021199999V02099999999990075019N0200001N1+02541+02221101021ADDAA106000091GF106991061041008001001001KA1240N+02301MA1999999098621MD1999999+0051REMSYN076AAXX  23124 82586 32598 614// 10254 20222 39862 40102 86400 333 20230 58005;EQDQ01  00002PRCP06
0167825860999992004052318004-05200-039300FM-12+021199999V0201401N003112200019N0200001N1+02921+02041100851ADDAA106000091GF104991041021008001001001MA1999999098481MD1999999+0111REMSYN070AAXX  23184 82586 32598 41406 10292 20204 39848 40085 84200 333 58011;EQDQ01  00002PRCP06
0208825860999992004052400004-05200-039300FM-12+021199999V0203601N001512200019N0010001N1+02281+01881100991ADDAA106000091GA1001+999999999GF100991001001999999001001KA1240M+02951MA1999999098591MD1999999+0051REMSYN082AAXX  24004 82586 32994 03603 10228 20188 39859 40099 333 10295 29075 55082 58005;EQDQ01  00002PRCP06
0202825860999992004052412004-05200-039300FM-12+021199999V0200901N005112200019N0200001N1+02621+02231101101ADDAA106000091GF104991999021008001001001KA1240N+02251MA1999999098701MD1999999+0081REMSYN076AAXX  24124 82586 32598 40910 10262 20223 39870 40110 86200 333 20225 58008;EQDQ01+000062SCOTLCQ02  00002PRCP06
0167825860999992004052418004-05200-039300FM-12+021199999V0201401N002612200019N0200001N1+03011+02001101861ADDAA106000091GF103991031021008001001001MA1999999098501MD1999999+0021REMSYN070AAXX  24184 82586 32598 31405 10301 20200 39850 40186 83200 333 58002;EQDQ01  00002PRCP06
0198825860999992004052500004-05200-039300FM-12+021199999V0200501N004610075019N0010001N1+02541+02211100991ADDAA106000091GF106991061041008001001001KA1240M+03091MA1999999098621MD1999999+0031REMSYN088AAXX  25004 82586 32594 60509 10254 20221 39862 40099 86400 333 10309 29075 55098 58003;EQDQ01  00002PRCP06
0186825860999992004052512004-05200-039300FM-12+021199999V0200901N003110075019N0200001N1+02561+02351101071ADDAA106000091GF107991071021008001001001KA1240N+02251MA1999999098691MD1999999-0011REMSYN076AAXX  25124 82586 32598 70906 10256 20235 39869 40107 87200 333 20225 59001;EQDQ01  00002PRCP06
0167825860999992004052518004-05200-039300FM-12+021199999V0200901N001512200019N0200001N1+03041+02151100851ADDAA106000091GF104991041021008001001001MA1999999098491MD1999999-0011REMSYN070AAXX  25184 82586 32598 40903 10304 20215 39849 40085 84200 333 59001;EQDQ01  00002PRCP06
0208825860999992004052600004-05200-039300FM-12+021199999V0203601N002112200019N0010001N1+02401+02171100981ADDAA106000091GA1001+999999999GF100991001001999999001001KA1240M+03131MA1999999098591MD1999999-0031REMSYN082AAXX  26004 82586 32994 03604 10240 20217 39859 40098 333 10313 29080 55091 59003;EQDQ01  00002PRCP06
0186825860999992004052612004-05200-039300FM-12+021199999V0200901N003110120019N0200001N1+02541+02351101031ADDAA106000091GF107991071081008001001001KA1240N+02101MA1999999098631MD1999999-0061REMSYN076AAXX  26124 82586 32598 70906 10254 20235 39863 40103 87800 333 20210 59006;EQDQ01  00002PRCP06
0167825860999992004052618004-05200-039300FM-12+021199999V0201401N003112200019N0200001N1+03051+02061100801ADDAA106000091GF103991031021008001001001MA1999999098431MD1999999-0061REMSYN070AAXX  26184 82586 32598 31406 10305 20206 39843 40080 83200 333 59006;EQDQ01  00002PRCP06
0214825860999992004052700004-05200-039300FM-12+021199999V0200501N000512200019N0010001N1+02341+02171100911ADDAA106000091GF102991999021008001001001KA1240M+03131MA1999999098721MD1999999-0071REMSYN088AAXX  27004 82586 32594 20501 10234 20217 39872 40091 83200 333 10313 29081 55084 59007;EQDQ01+000032SCOTLCQ02  00002PRCP06
0186825860999992004052712004-05200-039300FM-12+021199999V0200501N003110075019N0200001N1+02461+02251101051ADDAA106000091GF108991071071008001999999KA1240N+02221MA1999999098651MD1999999+0021REMSYN076AAXX  27124 82586 32598 80506 10246 20225 39865 40105 877// 333 20222 58002;EQDQ01  00002PRCP06
0183825860999992004052718004-05200-039300FM-12+021199999V0200901N002612200019N0200001N1+03081+02131100761ADDAA106000091GF104991999021008001001001MA1999999098401MD1999999-0031REMSYN070AAXX  27184 82586 32598 40905 10308 20213 39840 40076 86200 333 59003;EQDQ01+000062SCOTLCQ02  00002PRCP06
0208825860999992004052800004-05200-039300FM-12+021199999V0200501N003112200019N0010001N1+02521+02131100921ADDAA106000091GA1001+999999999GF100991001001999999001001KA1240M+03191MA1999999098541MD1999999+0021REMSYN082AAXX  28004 82586 32994 00506 10252 20213 39854 40092 333 10319 29076 55071 58002;EQDQ01  00002PRCP06
0186825860999992004052812004-05200-039300FM-12+021199999V0200501N004610075019N0200001N1+02661+02221101071ADDAA106000091GF106991061021008001001001KA1240N+02331MA1999999098701MD1999999+0051REMSYN076AAXX  28124 82586 32598 60509 10266 20222 39870 40107 86200 333 20233 58005;EQDQ01  00002PRCP06
0167825860999992004052818004-05200-039300FM-12+021199999V0200901N001512200019N0200001N1+03121+01991100831ADDAA106000091GF104991041021008001001001MA1999999098471MD1999999+0071REMSYN070AAXX  28184 82586 32598 40903 10312 20199 39847 40083 84200 333 58007;EQDQ01  00002PRCP06
0198825860999992004052900004-05200-039300FM-12+021199999V0200501N005110075019N0010001N1+02621+02161100931ADDAA106000091GF106991061051008001001001KA1240M+03211MA1999999098571MD1999999+0031REMSYN088AAXX  29004 82586 32594 60510 10262 20216 39857 40093 86500 333 10321 29070 55105 58003;EQDQ01  00002PRCP06
0186825860999992004052912004-05200-039300FM-12+021199999V02099999999990075019N0200001N1+02601+02191101071ADDAA106000091GF105991051021008001001001KA1240N+02281MA1999999098701MD1999999+0001REMSYN076AAXX  29124 82586 32598 509// 10260 20219 39870 40107 85200 333 20228 58000;EQDQ01  00002PRCP06
0167825860999992004052918004-05200-039300FM-12+021199999V0200901N002112200019N0200001N1+03041+01941100831ADDAA106000091GF103991031021008001001001MA1999999098471MD1999999+0001REMSYN070AAXX  29184 82586 32598 30904 10304 20194 39847 40083 83200 333 58000;EQDQ01  00002PRCP06
0198825860999992004053000004-05200-039300FM-12+021199999V0203601N002112200019N0010001N1+02361+02131100961ADDAA106000091GF102991021051008001001001KA1240M+03111MA1999999098571MD1999999+0001REMSYN088AAXX  30004 82586 32594 23604 10236 20213 39857 40096 82500 333 10311 29076 55087 58000;EQDQ01  00002PRCP06
0190825860999992004053012004-05200-039300FM-12+021199999V0200901N003110075019N0200001N1+02501+02291101011ADDAY161061AY221061GF106991061041008001001001KA1240N+02381MA1999999098611MD1999999-0091MW1031REMSYN088AAXX  30124 82586 21598 60906 10250 20229 39861 40101 70362 86400 333 20238 59009 60044;
0167825860999992004053018004-05200-039300FM-12+021199999V0200901N003110075019N0200001N1+03041+02191100831ADDAA106000091GF105991051021008001001001MA1999999098471MD1999999+0001REMSYN070AAXX  30184 82586 32598 50906 10304 20219 39847 40083 85200 333 58000;EQDQ01  00002PRCP06
0198825860999992004053100004-05200-039300FM-12+021199999V0201401N001010075019N0010001N1+02691+02281100881ADDAA106000091GF106991061051008001001001KA1240M+03251MA1999999098521MD1999999-0031REMSYN088AAXX  31004 82586 32594 61402 10269 20228 39852 40088 86500 333 10325 29075 55069 59003;EQDQ01  00002PRCP06
0186825860999992004053112004-05200-039300FM-12+021199999V0201401N002112200019N0200001N1+02621+02191101091ADDAA106000091GF104991041011008001001001KA1240N+02221MA1999999098721MD1999999+0081REMSYN076AAXX  31124 82586 32598 41404 10262 20219 39872 40109 84100 333 20222 58008;EQDQ01  00002PRCP06
0183825860999992004053118004-05200-039300FM-12+021199999V0201801N002112200019N0200001N1+03101+01921100801ADDAA106000091GF104991999011008001001001MA1999999098441MD1999999-0031REMSYN070AAXX  31184 82586 32598 41804 10310 20192 39844 40080 82100 333 59003;EQDQ01+000022SCOTLCQ02  00002PRCP06
0198825860999992004060100004-05200-039300FM-12+021199999V0203601N001010075019N0010001N1+02531+02171100921ADDAA106000091GF107991071051008001001001KA1240M+03211MA1999999098551MD1999999+0001REMSYN088AAXX  01004 82586 32594 73602 10253 20217 39855 40092 87500 333 10321 29072 55102 58000;EQDQ01  00002PRCP06
0190825860999992004060112004-05200-039300FM-12+021199999V0201801N002110075019N0200001N1+02221+02171101111ADDAY161061AY261061GF108991081071008001999999KA1240N+02181MA1999999098711MD1999999+0011MW1611REMSYN088AAXX  01124 82586 21598 81804 10222 20217 39871 40111 76166 887// 333 20218 58001 60114;
0171825860999992004060118004-05200-039300FM-12+021199999V0201401N001010075019N0200001N1+02601+02211100981ADDAY161061AY251061GF107991071071008001001001MA1999999098581MD1999999+0141MW1031REMSYN082AAXX  01184 82586 21598 71402 10260 20221 39858 40098 70365 87700 333 58014 60071;
0198825860999992004060200004-05200-039300FM-12+021199999V02099999999990075019N0010001N1+02311+02141101021ADDAA106000091GF107991071051008001001001KA1240M+02711MA1999999098621MD1999999+0071REMSYN088AAXX  02004 82586 32594 736// 10231 20214 39862 40102 87500 333 10271 29090 55011 58007;EQDQ01  00002PRCP06
0181825860999992004060212004-05200-039300FM-12+021199999V0201801N003119999999N0200001N1+02361+02161101041ADDGF108991999011008001001001KA1240N+02151MA1999999098641MD1999999-0071REMSYN082AAXX  02124 82586 22598 81806 10236 20216 39864 40104 82100 333 20215 59007 60074;EQDQ01+000022SCOTLC
0199825860999992004060218004-05200-039300FM-12+021199999V0200901N002612200019N0200001N1+02941+02051100891ADDAA106000091GF104991041011008001001001MA1999999999999MD1999999-0061REMSYN070AAXX  02184 82586 32598 40905 10294 20205 39552 40089 84100 333 59006;EQDQ01+095523APOSP Q02  00002PRCP06Q03 095523APOSP 
0208825860999992004060300004-05200-039300FM-12+021199999V0209999C000012200019N0010001N1+02321+02151101021ADDAA106000091GA1001+999999999GF100991001001999999001001KA1240M+03111MA1999999098621MD1999999+0001REMSYN082AAXX  03004 82586 32994 00000 10232 20215 39862 40102 333 10311 29082 55080 58000;EQDQ01  00002PRCP06
0186825860999992004060312004-05200-039300FM-12+021199999V0200501N001510075019N0200001N1+02381+02291101001ADDAA106000091GF108991081071008001999999KA1240N+02281MA1999999098601MD1999999-0041REMSYN076AAXX  03124 82586 32598 80503 10238 20229 39860 40100 887// 333 20228 59004;EQDQ01  00002PRCP06
0167825860999992004060318004-05200-039300FM-12+021199999V0201801N000512200019N0200001N1+02941+02241100931ADDAA106000091GF104991041011008001001001MA1999999098561MD1999999+0041REMSYN070AAXX  03184 82586 32598 41801 10294 20224 39856 40093 84100 333 58004;EQDQ01  00002PRCP06
0214825860999992004060400004-05200-039300FM-12+021199999V0200501N001019999999N0010001N1+02281+02161101021ADDAA106000091GF106991999051008001001001KA1240M+03031MA1999999098621MD1999999+0001REMSYN088AAXX  04004 82586 32594 60502 10228 20216 39862 40102 88500 333 10303 29087 55071 58000;EQDQ01+000082SCOTLCQ02  00002PRCP06
0186825860999992004060412004-05200-039300FM-12+021199999V0201801N002110075019N0040001N1+02461+02271101041ADDAA106000091GF108991081071008001999999KA1240N+02271MA1999999098641MD1999999+0091REMSYN076AAXX  04124 82586 32596 81804 10246 20227 39864 40104 887// 333 20227 58009;EQDQ01  00002PRCP06
0167825860999992004060418004-05200-039300FM-12+021199999V0200901N002610075019N0200001N1+02821+02381100851ADDAA106000091GF105991051021008001001001MA1999999098471MD1999999-0091REMSYN070AAXX  04184 82586 32598 50905 10282 20238 39847 40085 85200 333 59009;EQDQ01  00002PRCP06
0198825860999992004060500004-05200-039300FM-12+021199999V0209999C000012200019N0010001N1+02321+02031100961ADDAA106000091GF104991041051008001001001KA1240M+03051MA1999999098561MD1999999-0061REMSYN088AAXX  05004 82586 32594 40000 10232 20203 39856 40096 84500 333 10305 29084 55073 59006;EQDQ01  00002PRCP06
0186825860999992004060512004-05200-039300FM-12+021199999V0200901N001510075019N0200001N1+02521+02211101011ADDAA106000091GF108991081071008001999999KA1240N+02151MA1999999098621MD1999999-0071REMSYN076AAXX  05124 82586 32598 80903 10252 20221 39862 40101 887// 333 20215 59007;EQDQ01  00002PRCP06
0171825860999992004060518004-05200-039300FM-12+021199999V0200501N002110075019N0200001N1+02821+02201100871ADDAY161061AY221061GF106991061041008001001001MA1999999098491MD1999999+0021MW1031REMSYN082AAXX  05184 82586 21598 60504 10282 20220 39849 40087 70362 86400 333 58002 60021;
0214825860999992004060600004-05200-039300FM-12+021199999V0200501N001512200019N0010001N1+02301+02161100971ADDAA106000091GF104991999021008001001001KA1240M+02941MA1999999098571MD1999999+0011REMSYN088AAXX  06004 82586 32594 40503 10230 20216 39857 40097 83200 333 10294 29084 55038 58001;EQDQ01+000032SCOTLCQ02  00002PRCP06
0186825860999992004060612004-05200-039300FM-12+021199999V0200901N005110075019N0200001N1+02521+02231101081ADDAA106000091GF106991061041008001001001KA1240N+02151MA1999999098681MD1999999+0061REMSYN076AAXX  06124 82586 32598 60910 10252 20223 39868 40108 86400 333 20215 58006;EQDQ01  00002PRCP06
0167825860999992004060618004-05200-039300FM-12+021199999V0200901N005112200019N0200001N1+02961+02021100901ADDAA106000091GF102991021021008001001001MA1999999098521MD1999999+0031REMSYN070AAXX  06184 82586 32598 20910 10296 20202 39852 40090 82200 333 58003;EQDQ01  00002PRCP06
0208825860999992004060700004-05200-039300FM-12+021199999V0201801N001012200019N0010001N1+02301+02071101021ADDAA106000091GA1001+999999999GF100991001001999999001001KA1240M+03011MA1999999098621MD1999999+0051REMSYN082AAXX  07004 82586 32994 01802 10230 20207 39862 40102 333 10301 29079 55098 58005;EQDQ01  00002PRCP06
0202825860999992004060712004-05200-039300FM-12+021199999V0201401N003612200019N0200001N1+02651+02131101201ADDAA106000091GF102991999011008001001001KA1240N+02301MA1999999098821MD1999999+0121REMSYN076AAXX  07124 82586 32598 21407 10265 20213 39882 40120 83100 333 20230 58012;EQDQ01+000032SCOTLCQ02  00002PRCP06
0167825860999992004060718004-05200-039300FM-12+021199999V0200901N005110075019N0200001N1+02961+02051100951ADDAA106000091GF105991051011008001001001MA1999999098591MD1999999+0071REMSYN070AAXX  07184 82586 32598 50910 10296 20205 39859 40095 85100 333 58007;EQDQ01  00002PRCP06
0208825860999992004060800004-05200-039300FM-12+021199999V0201401N000512200019N0010001N1+02241+02031101021ADDAA106000091GA1001+999999999GF100991001001999999001001KA1240M+03031MA1999999098671MD1999999+0051REMSYN082AAXX  08004 82586 32994 01401 10224 20203 39867 40102 333 10303 29078 55108 58005;EQDQ01  00002PRCP06
0186825860999992004060812004-05200-039300FM-12+021199999V0201401N004112200019N0200001N1+02421+02051101191ADDAA106000091GF103991031011008001001001KA1240N+02221MA1999999098791MD1999999-0011REMSYN076AAXX  08124 82586 32598 31408 10242 20205 39879 40119 83100 333 20222 59001;EQDQ01  00002PRCP06
0183825860999992004060818004-05200-039300FM-12+021199999V0200901N005112200019N0200001N1+02991+01981100961ADDAA106000091GF102991999031008001011001MA1999999098591MD1999999+0001REMSYN070AAXX  08184 82586 32598 20910 10299 20198 39859 40096 83310 333 58000;EQDQ01+000032SCOTLCQ02  00002PRCP06
0198825860999992004060900004-05200-039300FM-12+021199999V0209999C000010075019N0010001N1+02241+01961101071ADDAA106000091GF105991051041008001001001KA1240M+03091MA1999999098671MD1999999+0001REMSYN088AAXX  09004 82586 32594 50000 10224 20196 39867 40107 85400 333 10309 29075 55102 58000;EQDQ01  00002PRCP06
0202825860999992004060912004-05200-039300FM-12+021199999V0200901N003112200019N0200001N1+02501+02051101241ADDAA106000091GF103991999021008001001001KA1240N+02281MA1999999098841MD1999999+0051REMSYN076AAXX  09124 82586 32598 30906 10250 20205 39884 40124 84200 333 20228 58005;EQDQ01+000042SCOTLCQ02  00002PRCP06
0167825860999992004060918004-05200-039300FM-12+021199999V0200901N003112200019N0200001N1+02901+01871100941ADDAA106000091GF104991041011008001001001MA1999999098561MD1999999-0031REMSYN070AAXX  09184 82586 32598 40906 10290 20187 39856 40094 84100 333 59003;EQDQ01  00002PRCP06
0226825860999992004061000004-05200-039300FM-12+021199999V0200501N001010075019N0010001N1+02421+02111101081ADDAA106000091AY121061AY221061GF106991061021008001001001KA1240M+03031MA1999999098681MD1999999+0011MW1131REMSYN094AAXX  10004 82586 31594 60502 10242 20211 39868 40108 71322 86200 333 10303 29073 55097 58001;EQDQ01  00002PRCP06
0190825860999992004061012004-05200-039300FM-12+021199999V0201401N003110075019N0200001N1+02551+02171101181ADDAY161061AY221061GF106991061021008001001001KA1240N+02001MA1999999098781MD1999999-0061MW1031REMSYN088AAXX  10124 82586 21598 61406 10255 20217 39878 40118 70362 86200 333 20200 59006 60074;
0167825860999992004061018004-05200-039300FM-12+021199999V0200901N005112200019N0200001N1+03001+01611100951ADDAA106000091GF102991021011008001001001MA1999999098561MD1999999+0001REMSYN070AAXX  10184 82586 32598 20910 10300 20161 39856 40095 82100 333 58000;EQDQ01  00002PRCP06
0208825860999992004061100004-05200-039300FM-12+021199999V0203601N001512200019N0010001N1+02161+01931101021ADDAA106000091GA1001+999999999GF100991001001999999001001KA1240M+03041MA1999999098621MD1999999-0061REMSYN082AAXX  11004 82586 32994 03603 10216 20193 39862 40102 333 10304 29074 55104 59006;EQDQ01  00002PRCP06
0186825860999992004061112004-05200-039300FM-12+021199999V0201801N001511050019N0200001N1+02521+02131101201ADDAA106000091GF107991041021008001001021KA1240N+02081MA1999999098801MD1999999+0021REMSYN076AAXX  11124 82586 32598 71803 10252 20213 39880 40120 84202 333 20208 58002;EQDQ01  00002PRCP06
0185825860999992004061118004-05200-039300FM-12+021199999V0201401N003619999999N0200001N1+02721+99999999999ADDAA106000091GF108991999999008001999999MA1999999999999REMSYN070AAXX  11184 82586 32598 81407 10272 30224 39868 40105 887// 333 58012;EQDQ01+102243APOSP Q02  00002PRCP06Q03 102243APOSP 
0208825860999992004061200004-05200-039300FM-12+021199999V0203601N001512200019N0010001N1+02281+02091101171ADDAA106000091GA1001+999999999GF100991001001999999001001KA1240M+02791MA1999999098751MD1999999+0131REMSYN082AAXX  12004 82586 32994 03603 10228 20209 39875 40117 333 10279 29083 55021 58013;EQDQ01  00002PRCP06
0186825860999992004061212004-05200-039300FM-12+021199999V0201401N002610075019N0200001N1+02531+02131101271ADDAA106000091GF105991051021008001001001KA1240N+02121MA1999999098871MD1999999+0071REMSYN076AAXX  12124 82586 32598 51405 10253 20213 39887 40127 85200 333 20212 58007;EQDQ01  00002PRCP06
0167825860999992004061218004-05200-039300FM-12+021199999V0201801N002610075019N0200001N1+02921+02011100981ADDAA106000091GF106991061041008001001001MA1999999098601MD1999999-0081REMSYN070AAXX  12184 82586 32598 61805 10292 20201 39860 40098 86400 333 59008;EQDQ01  00002PRCP06
0198825860999992004061300004-05200-039300FM-12+021199999V0200501N001012200019N0010001N1+02401+02111101181ADDAA106000091GF104991041021008001001001KA1240M+03011MA1999999098781MD1999999+0031REMSYN088AAXX  13004 82586 32594 40502 10240 20211 39878 40118 84200 333 10301 29076 55061 58003;EQDQ01  00002PRCP06
0202825860999992004061312004-05200-039300FM-12+021199999V02099999999999999999N0200001N1+02481+02211101071ADDAA106000091GA1091+999999999GF109991091999999999999999KA1240N+02301MA1999999098671MD1999999-0021REMSYN076AAXX  13124 82586 32598 909// 10248 20221 39867 40107 887// 333 20230 59002;EQDQ01  00002PRCP06
0167825860999992004061318004-05200-039300FM-12+021199999V0200901N003112200019N0200001N1+03041+01821100941ADDAA106000091GF103991031011008001001001MA1999999098581MD1999999-0021REMSYN070AAXX  13184 82586 32598 30906 10304 20182 39858 40094 83100 333 59002;EQDQ01  00002PRCP06
0226825860999992004061400004-05200-039300FM-12+021199999V0209999C000012200019N0010001N1+02281+02091101071ADDAA106000091AY121061AY221061GF102991021031008001001001KA1240M+03111MA1999999098671MD1999999-0111MW1131REMSYN094AAXX  14004 82586 31594 20000 10228 20209 39867 40107 71322 82300 333 10311 29078 55064 59011;EQDQ01  00002PRCP06
0190825860999992004061412004-05200-039300FM-12+021199999V0201801N001510075019N0200001N1+02381+02281101211ADDAY161061AY221061GF108991081071008001999999KA1240N+02181MA1999999098811MD1999999+0141MW1031REMSYN088AAXX  14124 82586 21598 81803 10238 20228 39881 40121 70362 887// 333 20218 58014 60174;
0167825860999992004061418004-05200-039300FM-12+021199999V0201801N001512200019N0200001N1+02861+02261100991ADDAA106000091GF104991041011008001001001MA1999999098611MD1999999+0031REMSYN070AAXX  14184 82586 32598 41803 10286 20226 39861 40099 84100 333 58003;EQDQ01  00002PRCP06
0198825860999992004061500004-05200-039300FM-12+021199999V0203601N001510075019N0010001N1+02351+02261101121ADDAA106000091GF108991081071008001999999KA1240M+02991MA1999999098721MD1999999+0051REMSYN088AAXX  15004 82586 32594 83603 10235 20226 39872 40112 887// 333 10299 29089 55060 58005;EQDQ01  00002PRCP06
0190825860999992004061512004-05200-039300FM-12+021199999V0201401N001510075019N0200001N1+02381+02091101331ADDAY161061AY221061GF105991051021008001001001KA1240N+02251MA1999999098831MD1999999+0021MW1031REMSYN088AAXX  15124 82586 21598 51403 10238 20209 39883 40133 70362 85200 333 20225 58002 60104;
0183825860999992004061518004-05200-039300FM-12+021199999V0200501N003610075019N0200001N1+02801+02221101031ADDAA106000091GF108991999021008001001001MA1999999098661MD1999999+0051REMSYN070AAXX  15184 82586 32598 80507 10280 20222 39866 40103 86200 333 58005;EQDQ01+000062SCOTLCQ02  00002PRCP06
0208825860999992004061600004-05200-039300FM-12+021199999V0200501N001512200019N0010001N1+02361+02131101151ADDAA106000091GA1001+999999999GF100991001001999999001001KA1240M+02931MA1999999098751MD1999999+0031REMSYN082AAXX  16004 82586 32994 00503 10236 20213 39875 40115 333 10293 29082 55049 58003;EQDQ01  00002PRCP06
0190825860999992004061612004-05200-039300FM-12+021199999V0201401N004110075019N0200001N1+02631+02161101171ADDAY161061AY221061GF106991061041008001001001KA1240N+02251MA1999999098771MD1999999-0061MW1031REMSYN088AAXX  16124 82586 21598 61408 10263 20216 39877 40117 70362 86400 333 20225 59006 60014;
0183825860999992004061618004-05200-039300FM-12+021199999V0200901N003119999999N0200001N1+02891+02181100921ADDAA106000091GF105991999021008001001001MA1999999098541MD1999999-0121REMSYN070AAXX  16184 82586 32598 50906 10289 20218 39854 40092 88200 333 59012;EQDQ01+000082SCOTLCQ02  00002PRCP06
0198825860999992004061700004-05200-039300FM-12+021199999V0209999C000010075019N0010001N1+02371+02191101011ADDAA106000091GF105991051021008001001001KA1240M+03011MA1999999098621MD1999999-0131REMSYN088AAXX  17004 82586 32594 50000 10237 20219 39862 40101 85200 333 10301 29081 55097 59013;EQDQ01  00002PRCP06
0190825860999992004061712004-05200-039300FM-12+021199999V0201801N003110075019N0200001N1+02391+02241101131ADDAY161061AY221061GF106991061041008001001001KA1240N+02101MA1999999098731MD1999999-0041MW1031REMSYN088AAXX  17124 82586 21598 61806 10239 20224 39873 40113 70362 86400 333 20210 59004 60034;
0167825860999992004061718004-05200-039300FM-12+021199999V0201401N003112200019N0200001N1+02861+02121100901ADDAA106000091GF104991041021008001001001MA1999999098521MD1999999-0021REMSYN070AAXX  17184 82586 32598 41406 10286 20212 39852 40090 84200 333 59002;EQDQ01  00002PRCP06
0242825860999992004061800004-05200-039300FM-12+021199999V0201801N001512200019N0010001N1+02701+02231101031ADDAA106000091AY121061AY221061GF103991999031008001001001KA1240M+02931MA1999999098631MD1999999+0011MW1131REMSYN094AAXX  18004 82586 31594 31803 10270 20223 39863 40103 71322 84300 333 10293 29084 55050 58001;EQDQ01+000042SCOTLCQ02  00002PRCP06
0190825860999992004061812004-05200-039300FM-12+021199999V02099999999990075019N0200001N1+02201+02061101261ADDAY161061AY261061GF108991081071008001999999KA1240N+02051MA1999999098711MD1999999+0121MW1031REMSYN088AAXX  18124 82586 21598 818// 10220 20206 39871 40126 70366 887// 333 20205 58012 60874;
0171825860999992004061818004-05200-039300FM-12+021199999V0200501N001010075019N0200001N1+02281+02161101061ADDAY161061AY221061GF108991081071008001999999MA1999999098661MD1999999+0141MW1631REMSYN082AAXX  18184 82586 21598 80502 10228 20216 39866 40106 76362 887// 333 58014 60111;
0202825860999992004061900004-05200-039300FM-12+021199999V0209999C000010075019N0010001N1+02241+02161101241ADDAY151061AY221061GF108991081071008001999999KA1240M+02611MA1999999098821MD1999999+0191MW1031REMSYN100AAXX  19004 82586 21594 80000 10224 20216 39882 40124 70352 887// 333 10261 29094 55000 58019 69981;
0162825860999992004061912004-05200-039300FM-12+021199999V0201801N002610075019N0200001N1+02401+02261101311ADDGF107991071041008001001001KA1240N+02141MA1999999098901MD1999999+0051REMSYN082AAXX  19124 82586 22598 71805 10240 20226 39890 40131 87400 333 20214 58005 60124;
0167825860999992004061918004-05200-039300FM-12+021199999V0201801N002110075019N0200001N1+02641+02391101191ADDAA106000091GF106991061041008001001001MA1999999098791MD1999999+0071REMSYN070AAXX  19184 82586 32598 61804 10264 20239 39879 40119 86400 333 58007;EQDQ01  00002PRCP06
0221825860999992004062000004-05200-039300FM-12+021199999V0209999C000019999999N0010001N1+02311+02231101231ADDAY161061AY221061GF108991999021008001001001KA1240M+02831MA1999999098831MD1999999+0011MW1031REMSYN100AAXX  20004 82586 21594 80000 10231 20223 39883 40123 70362 84200 333 10283 29093 55038 58001 60061;EQDQ01+000042SCOTLC
0190825860999992004062012004-05200-039300FM-12+021199999V0201401N005110075019N0200001N1+02371+02131101211ADDAY161061AY261061GF106991061041008001001001KA1240N+02051MA1999999098811MD1999999-0091MW1031REMSYN088AAXX  20124 82586 21598 61410 10237 20213 39881 40121 70366 86400 333 20205 59009 60204;
0167825860999992004062018004-05200-039300FM-12+021199999V0200501N003610075019N0200001N1+02761+02041101011ADDAA106000091GF106991061041008001001001MA1999999098611MD1999999-0181REMSYN070AAXX  20184 82586 32598 60507 10276 20204 39861 40101 86400 333 59018;EQDQ01  00002PRCP06
0198825860999992004062100004-05200-039300FM-12+021199999V0209999C000012200019N0010001N1+02301+02161101071ADDAA106000091GF104991041021008001001001KA1240M+02931MA1999999098671MD1999999-0161REMSYN088AAXX  21004 82586 32594 40000 10230 20216 39867 40107 84200 333 10293 29084 55054 59016;EQDQ01  00002PRCP06
0190825860999992004062112004-05200-039300FM-12+021199999V0201801N003110120019N0040001N1+02241+02191101191ADDAY161061AY261061GF108991081081008001999999KA1240N+02101MA1999999098781MD1999999-0031MW1031REMSYN088AAXX  21124 82586 21596 81806 10224 20219 39878 40119 70366 888// 333 20210 59003 60104;
0183825860999992004062118004-05200-039300FM-12+021199999V0201401N003119999999N0040001N1+02781+02361101051ADDAA106000091GF106991999051008001001001MA1999999098651MD1999999+0041REMSYN070AAXX  21184 82586 32596 61406 10278 20236 39865 40105 84500 333 58004;EQDQ01+000042SCOTLCQ02  00002PRCP06
0202825860999992004062200004-05200-039300FM-12+021199999V0200501N005110075019N0010001N1+02281+02161101131ADDAY161061AY221061GF108991081071008001999999KA1240M+02891MA1999999098731MD1999999+0061MW1611REMSYN100AAXX  22004 82586 21594 80510 10228 20216 39873 40113 76162 887// 333 10289 29090 55040 58006 60031;
0190825860999992004062212004-05200-039300FM-12+021199999V0200901N003610075019N0200001N1+02441+02391101221ADDAY161061AY261061GF108991081071008001999999KA1240N+02081MA1999999098821MD1999999+0041MW1031REMSYN088AAXX  22124 82586 21598 80907 10244 20239 39882 40122 70366 887// 333 20208 58004 60134;
0195825860999992004062218004-05200-039300FM-12+021199999V0200501N003110075019N0200001N1+02621+02441101091ADDAA106000091AY121061AY221061GF108991081071008001999999MA1999999098691MD1999999+0041MW1151REMSYN076AAXX  22184 82586 31598 80506 10262 20244 39869 40109 71522 887// 333 58004;EQDQ01  00002PRCP06
0198825860999992004062300004-05200-039300FM-12+021199999V0209999C000010075019N0010001N1+02361+02131101191ADDAA106000091GF108991081071008001999999KA1240M+02831MA1999999098791MD1999999+0061REMSYN088AAXX  23004 82586 32594 80000 10236 20213 39879 40119 887// 333 10283 29090 55025 58006;EQDQ01  00002PRCP06
0190825860999992004062312004-05200-039300FM-12+021199999V0200501N003112200019N0200001N1+02521+02051101231ADDAY161061AY221061GF103991031011008001001001KA1240N+02231MA1999999098831MD1999999+0011MW1031REMSYN088AAXX  23124 82586 21598 30506 10252 20205 39883 40123 70362 83100 333 20223 58001 60054;
0186825860999992004062412004-05200-039300FM-12+021199999V0200901N004610075019N0200001N1+02461+02361101171ADDAA106000091GF106991061021008001001001KA1240N+02381MA1999999098771MD1999999-0061REMSYN076AAXX  24124 82586 32598 60909 10246 20236 39877 40117 86200 333 20238 59006;EQDQ01  00002PRCP06
0167825860999992004062418004-05200-039300FM-12+021199999V0200501N002110075019N0200001N1+02881+02281100951ADDAA106000091GF105991051021008001001001MA1999999098571MD1999999-0101REMSYN070AAXX  24184 82586 32598 50504 10288 20228 39857 40095 85200 333 59010;EQDQ01  00002PRCP06
0208825860999992004062500004-05200-039300FM-12+021199999V0209999C000012200019N0010001N1+02341+02111101071ADDAA106000091GA1001+999999999GF100991001001999999001001KA1240M+02991MA1999999098671MD1999999-0051REMSYN082AAXX  25004 82586 32594 00000 10234 20211 39867 40107 333 10299 29085 55100 59005;EQDQ01  00002PRCP06
0167825860999992004062518004-05200-039300FM-12+021199999V0200901N002112200019N0200001N1+02921+02121100881ADDAA106000091GF104991041021008001001001MA1999999098521MD1999999-0051REMSYN070AAXX  25184 82586 32598 40904 10292 20212 39852 40088 84200 333 59005;EQDQ01  00002PRCP06
0208825860999992004062600004-05200-039300FM-12+021199999V0209999C000012200019N0010001N1+02281+02091100981ADDAA106000091GA1001+999999999GF100991001001999999001001KA1240M+03011MA1999999098581MD1999999-0091REMSYN082AAXX  26004 82586 32994 00000 10228 20209 39858 40098 333 10301 29080 55098 59009;EQDQ01  00002PRCP06
0190825860999992004062612004-05200-039300FM-12+021199999V0209999C000010075019N0200001N1+02341+02321101071ADDAY161061AY221061GF108991081071008001999999KA1240N+02121MA1999999098671MD1999999-0051MW1031REMSYN088AAXX  26124 82586 21598 80000 10234 20232 39867 40107 70362 887// 333 20212 59005 60104;
0167825860999992004062618004-05200-039300FM-12+021199999V0200901N005110075019N0200001N1+02801+02381100911ADDAA106000091GF107991071021008001001001MA1999999098531MD1999999+0011REMSYN070AAXX  26184 82586 32598 70910 10280 20238 39853 40091 87200 333 58001;EQDQ01  00002PRCP06
0202825860999992004062700004-05200-039300FM-12+021199999V0209999C000010075019N0100001N1+02271+02211100971ADDAY161061AY221061GF108991051021008001999999KA1240M+02911MA1999999098571MD1999999-0011MW1021REMSYN100AAXX  27004 82586 21597 80000 10227 20221 39857 40097 70262 852// 333 10291 29091 55004 59001 60081;
0190825860999992004062712004-05200-039300FM-12+021199999V02099999999990075019N0200001N1+02281+02141101121ADDAY161061AY261061GF108991081071008001999999KA1240N+02121MA1999999098721MD1999999+0051MW1031REMSYN088AAXX  27124 82586 21598 8//// 10228 20214 39872 40112 70366 887// 333 20212 58005 60114;
0171825860999992004062718004-05200-039300FM-12+021199999V0201401N001510075019N0200001N1+02761+02091100891ADDAY151061AY221061GF106991061021008001001001MA1999999098501MD1999999-0031MW1031REMSYN082AAXX  27184 82586 21598 61403 10276 20209 39850 40089 70352 86200 333 59003 69941;
0198825860999992004062800004-05200-039300FM-12+021199999V0200501N001019999999N0010001N1+02421+02111100981ADDAA106000091GF108991081001008001999999KA1240M+02881MA1999999098581MD1999999+0011REMSYN088AAXX  28004 82586 32594 80502 10242 20211 39858 40098 880// 333 10288 29082 55028 58001;EQDQ01  00002PRCP06
0190825860999992004062812004-05200-039300FM-12+021199999V0200901N002110075019N0200001N1+02461+02171101061ADDAY161061AY221061GF108991081071008001999999KA1240N+02151MA1999999098661MD1999999-0061MW1031REMSYN088AAXX  28124 82586 21598 80904 10246 20217 39866 40106 70362 887// 333 20215 59006 60024;
0167825860999992004062818004-05200-039300FM-12+021199999V0200901N002110075019N0200001N1+02691+02261100981ADDAA106000091GF106991061051008001001001MA1999999098581MD1999999+0081REMSYN070AAXX  28184 82586 32598 60904 10269 20226 39858 40098 86500 333 58008;EQDQ01  00002PRCP06
0214825860999992004062900004-05200-039300FM-12+021199999V0209999C000010075019N0010001N1+02341+02151101021ADDAA106000091GF107991071051008001001001KA1240M+99999MA1999999098621MD1999999+0041REMSYN088AAXX  29004 82586 32594 70000 10234 20215 39862 40102 87500 333 10223 29085 55016 58004;EQDQ01  00002PRCP06Q02 +02232ATMX  
0186825860999992004062912004-05200-039300FM-12+021199999V0200901N003110075019N0200001N1+02441+02281101171ADDAA106000091GF108991081071008001999999KA1240N+02201MA1999999098771MD1999999+0111REMSYN076AAXX  29124 82586 32598 80906 10244 20228 39877 40117 887// 333 20220 58011;EQDQ01  00002PRCP06
0167825860999992004062918004-05200-039300FM-12+021199999V0200901N001510075019N0200001N1+02841+02291100861ADDAA106000091GF106991061021008001001001MA1999999098501MD1999999-0081REMSYN070AAXX  29184 82586 32598 60903 10284 20229 39850 40086 86200 333 59008;EQDQ01  00002PRCP06
0198825860999992004063000004-05200-039300FM-12+021199999V0200501N002112200019N0010001N1+02251+01881101051ADDAA106000091GF102991021051008001001001KA1240M+02911MA1999999098651MD1999999+0031REMSYN088AAXX  30004 82586 32594 20504 10225 20188 39865 40105 82500 333 10291 29081 55053 58003;EQDQ01  00002PRCP06
0186825860999992004063012004-05200-039300FM-12+021199999V0201401N003610075019N0200001N1+02441+02301101021ADDAA106000091GF106991061041008001001001KA1240N+02201MA1999999098621MD1999999-0151REMSYN076AAXX  30124 82586 32598 61407 10244 20230 39862 40102 86400 333 20220 59015;EQDQ01  00002PRCP06
0167825860999992004063018004-05200-039300FM-12+021199999V0200901N003110450019N0200001N1+02861+01721100851ADDAA106000091GF106991031021008001051001MA1999999098471MD1999999-0031REMSYN070AAXX  30184 82586 32598 60906 10286 20172 39847 40085 83250 333 59003;EQDQ01  00002PRCP06
0198825860999992004070100004-05200-039300FM-12+021199999V0200501N005710075019N0010001N1+02421+02171101021ADDAA106000091GF106991061051008001001001KA1240M+03031MA1999999098621MD1999999-0031REMSYN088AAXX  01004 82586 32594 60511 10242 20217 39862 40102 86500 333 10303 29083 55063 59003;EQDQ01  00002PRCP06
0186825860999992004070112004-05200-039300FM-12+021199999V0201401N004112200019N0200001N1+02541+02291101071ADDAA106000091GF104991041021008001001001KA1240N+02221MA1999999098681MD1999999+0061REMSYN076AAXX  01124 82586 32598 41408 10254 20229 39868 40107 84200 333 20222 58006;EQDQ01  00002PRCP06
0167825860999992004070118004-05200-039300FM-12+021199999V0200901N003112200019N0200001N1+02861+02281100881ADDAA106000091GF103991031021008001001001MA1999999098511MD1999999+0041REMSYN070AAXX  01184 82586 32598 30906 10286 20228 39851 40088 83200 333 58004;EQDQ01  00002PRCP06
0208825860999992004070200004-05200-039300FM-12+021199999V0209999C000012200019N0010001N1+02241+02031100991ADDAA106000091GA1001+999999999GF100991001001999999001001KA1240M+02931MA1999999098591MD1999999-0031REMSYN082AAXX  02004 82586 32994 00000 10224 20203 39859 40099 333 10293 29083 55093 59003;EQDQ01  00002PRCP06
0167825860999992004070218004-05200-039300FM-12+021199999V0201401N004612200019N0200001N1+02941+02371100861ADDAA106000091GF102991021011008001001001MA1999999098481MD1999999-0031REMSYN070AAXX  02184 82586 32598 21409 10294 20237 39848 40086 82100 333 59003;EQDQ01  00002PRCP06
0198825860999992004070300004-05200-039300FM-12+021199999V0200501N004612200019N0010001N1+02361+02131100971ADDAA106000091GF102991021011008001001001KA1240M+03031MA1999999098571MD1999999-0021REMSYN088AAXX  03004 82586 32594 20509 10236 20213 39857 40097 82100 333 10303 29078 55102 59002;EQDQ01  00002PRCP06
0186825860999992004070312004-05200-039300FM-12+021199999V02099999999990075019N0200001N1+02421+02331101031ADDAA106000091GF108991081071008001999999KA1240N+02191MA1999999098631MD1999999-0061REMSYN076AAXX  03124 82586 32598 814// 10242 20233 39863 40103 887// 333 20219 59006;EQDQ01  00002PRCP06
0167825860999992004070318004-05200-039300FM-12+021199999V0201401N001010075019N0200001N1+02561+02421100891ADDAA106000091GF108991081071008001999999MA1999999098501MD1999999+0021REMSYN070AAXX  03184 82586 32598 81402 10256 20242 39850 40089 887// 333 58002;EQDQ01  00002PRCP06
0221825860999992004070400004-05200-039300FM-12+021199999V0200901N003619999999N0010001N1+02181+02141101031ADDAY161061AY291061GF108991999021008001001001KA1240M+02931MA1999999098631MD1999999+0021MW1191REMSYN100AAXX  04004 82586 21594 80907 10218 20214 39863 40103 71969 83200 333 10293 29095 55036 58002 60171;EQDQ01+000032SCOTLC
0190825860999992004070412004-05200-039300FM-12+021199999V0201401N003110075019N0200001N1+02321+02151101111ADDAY161061AY261061GF108991081071008001999999KA1240N+02121MA1999999098711MD1999999+0081MW1031REMSYN088AAXX  04124 82586 21598 81406 10232 20215 39871 40111 70366 887// 333 20212 58008 60214;
0167825860999992004070418004-05200-039300FM-12+021199999V0200501N004112200019N0200001N1+02861+02061100941ADDAA106000091GF103991031021008001001001MA1999999098551MD1999999+0051REMSYN070AAXX  04184 82586 32598 30508 10286 20206 39855 40094 83200 333 58005;EQDQ01  00002PRCP06
0198825860999992004070500004-05200-039300FM-12+021199999V0203601N002612200019N0010001N1+02281+02091100981ADDAA106000091GF102991021021008001001001KA1240M+02971MA1999999098581MD1999999-0051REMSYN088AAXX  05004 82586 32594 23605 10228 20209 39858 40098 82200 333 10297 29083 55071 59005;EQDQ01  00002PRCP06
0186825860999992004070512004-05200-039300FM-12+021199999V0201401N003110075019N0200001N1+02421+02331101111ADDAA106000091GF106991061041008001001001KA1240N+02171MA1999999098711MD1999999+0001REMSYN076AAXX  05124 82586 32598 61406 10242 20233 39871 40111 86400 333 20217 58000;EQDQ01  00002PRCP06
0167825860999992004070518004-05200-039300FM-12+021199999V0200901N003612200019N0200001N1+02921+01891100991ADDAA106000091GF102991021021008001001001MA1999999098611MD1999999+0061REMSYN070AAXX  05184 82586 32598 20907 10292 20189 39861 40099 82200 333 58006;EQDQ01  00002PRCP06
0208825860999992004070600004-05200-039300FM-12+021199999V0203601N001512200019N0010001N1+02281+02091101081ADDAA106000091GA1001+999999999GF100991001001999999001001KA1240M+03011MA1999999098681MD1999999+0101REMSYN082AAXX  06004 82586 32994 03603 10228 20209 39868 40108 333 10301 29082 55092 58010;EQDQ01  00002PRCP06
0186825860999992004070612004-05200-039300FM-12+021199999V02099999999990075019N0200001N1+02581+02421101031ADDAA106000091GF106991061041008001001001KA1240N+02271MA1999999098641MD1999999+0071REMSYN076AAXX  06124 82586 32598 609// 10258 20242 39864 40103 86400 333 20227 58007;EQDQ01  00002PRCP06
0149825860999992004070618004-05200-039300FM-12+021199999V0201401N004612200019N0200001N1+02991+02121100841ADDAA106000091GF102991021011008001001001MA1999999098471REMSYN066AAXX  06184 82586 32598 21409 10299 20212 39847 40084 59014 82100;EQDQ01  00002PRCP06
0208825860999992004070700004-05200-039300FM-12+021199999V0203601N001512200019N0010001N1+02241+02101100971ADDAA106000091GA1001+999999999GF100991001001999999001001KA1240M+03031MA1999999098571MD1999999-0111REMSYN082AAXX  07004 82586 32994 03603 10224 20210 39857 40097 333 10303 29084 55099 59011;EQDQ01  00002PRCP06
0186825860999992004070712004-05200-039300FM-12+021199999V0200901N003110075019N0200001N1+02761+02211100951ADDAA106000091GF106991061041008001001001KA1240N+02271MA1999999098591MD1999999-0051REMSYN076AAXX  07124 82586 32598 60906 10276 20221 39859 40095 86400 333 20227 59005;EQDQ01  00002PRCP06
0167825860999992004070718004-05200-039300FM-12+021199999V0201401N004112200019N0200001N1+02941+02001100801ADDAA106000091GF102991021011008001001001MA1999999098431MD1999999-0041REMSYN070AAXX  07184 82586 32598 21408 10294 20200 39843 40080 82100 333 59004;EQDQ01  00002PRCP06
0208825860999992004070800004-05200-039300FM-12+021199999V0203601N003612200019N0010001N1+02331+02131100851ADDAA106000091GA1001+999999999GF100991001001999999001001KA1240M+03031MA1999999098471MD1999999-0101REMSYN082AAXX  08004 82586 32994 03607 10233 20213 39847 40085 333 10303 29077 55099 59010;EQDQ01  00002PRCP06
0186825860999992004070812004-05200-039300FM-12+021199999V02099999999990075019N0200001N1+02541+02091101021ADDAA106000091GF106991061041008001001001KA1240N+02231MA1999999098621MD1999999+0031REMSYN076AAXX  08124 82586 32598 609// 10254 20209 39862 40102 86400 333 20223 58003;EQDQ01  00002PRCP06
0208825860999992004070900004-05200-039300FM-12+021199999V0203601N005112200019N0010001N1+02441+02091100901ADDAA106000091GA1001+999999999GF100991001001999999001001KA1240M+03031MA1999999098591MD1999999+0091REMSYN082AAXX  09004 82586 32994 03610 10244 20209 39859 40090 333 10303 29076 55091 58009;EQDQ01  00002PRCP06
0186825860999992004070912004-05200-039300FM-12+021199999V02099999999990075019N0200001N1+02541+02191101011ADDAA106000091GF106991061041008001001001KA1240N+02351MA1999999098621MD1999999+0001REMSYN076AAXX  09124 82586 32598 605// 10254 20219 39862 40101 86400 333 20235 58000;EQDQ01  00002PRCP06
0167825860999992004070918004-05200-039300FM-12+021199999V0201401N001512200019N0200001N1+02961+02101100851ADDAA106000091GF104991041021008001001001MA1999999098491MD1999999+0091REMSYN070AAXX  09184 82586 32598 41403 10296 20210 39849 40085 84200 333 58009;EQDQ01  00002PRCP06
0208825860999992004071000004-05200-039300FM-12+021199999V0203601N005112200019N0010001N1+02461+02131100891ADDAA106000091GA1001+999999999GF100991001001999999001001KA1240M+03031MA1999999098511MD1999999+0001REMSYN082AAXX  10004 82586 32994 03610 10246 20213 39851 40089 333 10303 29076 55101 58000;EQDQ01  00002PRCP06
0186825860999992004071012004-05200-039300FM-12+021199999V0203601N001510075019N0200001N1+02481+02361101081ADDAA106000091GF108991081051008001999999KA1240N+02231MA1999999098681MD1999999+0061REMSYN076AAXX  10124 82586 32598 83603 10248 20236 39868 40108 885// 333 20223 58006;EQDQ01  00002PRCP06
0167825860999992004071018004-05200-039300FM-12+021199999V0200501N001512200019N0200001N1+02981+02041100821ADDAA106000091GF103991031011008001001001MA1999999098451MD1999999-0041REMSYN070AAXX  10184 82586 32598 30503 10298 20204 39845 40082 83100 333 59004;EQDQ01  00002PRCP06
0208825860999992004071100004-05200-039300FM-12+021199999V0200501N004112200019N0010001N1+02421+02171100911ADDAA106000091GA1001+999999999GF100991001001999999001001KA1240M+03961MA1999999098521MD1999999+0011REMSYN082AAXX  11004 82586 32994 00508 10242 20217 39852 40091 333 10396 29081 55078 58001;EQDQ01  00002PRCP06
0167825860999992004071118004-05200-039300FM-12+021199999V0200501N002112200019N0200001N1+03021+02131100791ADDAA106000091GF102991021011008001001001MA1999999098421MD1999999-0031REMSYN070AAXX  11184 82586 32598 20504 10302 20213 39842 40079 82100 333 59003;EQDQ01  00002PRCP06
0208825860999992004071200004-05200-039300FM-12+021199999V0209999C000012200019N0020001N1+02301+02141100871ADDAA106000091GA1001+999999999GF100991001001999999001001KA1240M+03101MA1999999098481MD1999999-0041REMSYN082AAXX  12004 82586 32995 00000 10230 20214 39848 40087 333 10310 29081 55063 59004;EQDQ01  00002PRCP06
0202825860999992004071212004-05200-039300FM-12+021199999V0200901N003112200019N0200001N1+02521+02151100991ADDAA106000091GF101991999051008001001001KA1240N+02251MA1999999098591MD1999999-0091REMSYN076AAXX  12124 82586 32598 10906 10252 20215 39859 40099 86500 333 20225 59009;EQDQ01+000062SCOTLCQ02  00002PRCP06
0167825860999992004071218004-05200-039300FM-12+021199999V0201401N003112200019N0200001N1+02961+01571100791ADDAA106000091GF102991021011008001001001MA1999999098421MD1999999+0001REMSYN070AAXX  12184 82586 32598 21406 10296 20157 39842 40079 82100 333 58000;EQDQ01  00002PRCP06
0208825860999992004071300004-05200-039300FM-12+021199999V0209999C000012200019N0010001N1+02101+01801100891ADDAA106000091GA1001+999999999GF100991001001999999001001KA1240M+03011MA1999999098491MD1999999+0011REMSYN082AAXX  13004 82586 32994 00000 10210 20180 39849 40089 333 10301 29072 55106 58001;EQDQ01  00002PRCP06
0202825860999992004071312004-05200-039300FM-12+021199999V0201401N001019999999N0200001N1+02381+01951101021ADDAA106000091GF105991999021008001001001KA1240N+02101MA1999999098621MD1999999+0031REMSYN076AAXX  13124 82586 32598 51402 10238 20195 39862 40102 88200 333 20210 58003;EQDQ01+000082SCOTLCQ02  00002PRCP06
0183825860999992004071318004-05200-039300FM-12+021199999V0201401N002612200019N0200001N1+02991+01731100801ADDAA106000091GF102991999011008001001001MA1999999098421MD1999999+0001REMSYN070AAXX  13184 82586 32598 21405 10299 20173 39842 40080 83100 333 58000;EQDQ01+000032SCOTLCQ02  00002PRCP06
0208825860999992004071400004-05200-039300FM-12+021199999V0200501N002112200019N0010001N1+02481+02111100921ADDAA106000091GA1001+999999999GF100991001001999999001001KA1240M+03051MA1999999098531MD1999999+0041REMSYN082AAXX  14004 82586 32994 00504 10248 20211 39853 40092 333 10305 29071 55100 58004;EQDQ01  00002PRCP06
0190825860999992004071412004-05200-039300FM-12+021199999V02099999999990075019N0200001N1+02321+02001101031ADDAY151061AY221061GF108991081071008001999999KA1240N+02121MA1999999098631MD1999999+0011MW1031REMSYN088AAXX  14124 82586 21598 818// 10232 20200 39863 40103 70352 887// 333 20212 58001 69944;
0167825860999992004071418004-05200-039300FM-12+021199999V0201401N002610450019N0200001N1+02781+01761100901ADDAA106000091GF106991031041008001021001MA1999999098511MD1999999+0091REMSYN070AAXX  14184 82586 32598 61405 10278 20176 39851 40090 83420 333 58009;EQDQ01  00002PRCP06
0208825860999992004071500004-05200-039300FM-12+021199999V0201401N001012200019N0010001N1+02261+02031100971ADDAA106000091GA1001+999999999GF100991001001999999001001KA1240M+02911MA1999999098571MD1999999+0041REMSYN082AAXX  15004 82586 32994 01402 10226 20203 39857 40097 333 10291 29078 55027 58004;EQDQ01  00002PRCP06
0186825860999992004071512004-05200-039300FM-12+021199999V0201401N004612200019N0200001N1+02541+02091101111ADDAA106000091GF104991041021008001001001KA1240N+02271MA1999999098701MD1999999+0071REMSYN076AAXX  15124 82586 32598 41409 10254 20209 39870 40111 84200 333 20227 58007;EQDQ01  00002PRCP06
0167825860999992004071518004-05200-039300FM-12+021199999V0200901N002610075019N0200001N1+02821+02121100881ADDAA106000091GF108991081071008001999999MA1999999098511MD1999999+0001REMSYN070AAXX  15184 82586 32598 80905 10282 20212 39851 40088 887// 333 58000;EQDQ01  00002PRCP06
0198825860999992004071600004-05200-039300FM-12+021199999V0200501N002119999999N0010001N1+02461+02091100971ADDAA106000091GF106991061041999999001001KA1240M+03041MA1999999098581MD1999999+0011REMSYN088AAXX  16004 82586 32994 60504 10246 20209 39858 40097 86400 333 10304 29075 55072 58001;EQDQ01  00002PRCP06
0190825860999992004071612004-05200-039300FM-12+021199999V0201401N003610450019N0200001N1+02341+02261101081ADDAY161061AY221061GF106991031011008001051001KA1240N+02081MA1999999098681MD1999999-0021MW1031REMSYN088AAXX  16124 82586 21598 61407 10234 20226 39868 40108 70362 83150 333 20208 59002 60024;
0167825860999992004071618004-05200-039300FM-12+021199999V0201401N001510075019N0200001N1+02801+02081100891ADDAA106000091GF106991061041008001001001MA1999999098501MD1999999-0011REMSYN070AAXX  16184 82586 32598 61403 10280 20208 39850 40089 86400 333 59001;EQDQ01  00002PRCP06
0221825860999992004071700004-05200-039300FM-12+021199999V0201401N002110075019N0010001N1+02381+02221101021ADDAY151061AY221061GF108991999021008001001001KA1240M+02971MA1999999098621MD1999999+0041MW1031REMSYN100AAXX  17004 82586 21594 81404 10238 20222 39862 40102 70352 85200 333 10297 29087 55049 58004 69961;EQDQ01+000052SCOTLC
0190825860999992004071712004-05200-039300FM-12+021199999V0200501N002110075019N0200001N1+02341+01871101161ADDAY161061AY221061GF108991081071008001999999KA1240N+02121MA1999999098761MD1999999+0081MW1031REMSYN088AAXX  17124 82586 21598 80504 10234 20187 39876 40116 70362 887// 333 20212 58008 60084;
0167825860999992004071718004-05200-039300FM-12+021199999V0202701N001510075019N0200001N1+02701+02081100971ADDAA106000091GF106991061041008001001001MA1999999098671MD1999999+0071REMSYN070AAXX  17184 82586 32598 62703 10270 20208 39867 40097 86400 333 58007;EQDQ01  00002PRCP06
0198825860999992004071800004-05200-039300FM-12+021199999V0209999C000010075019N0010001N1+02241+02161100981ADDAA106000091GF106991061041008001001001KA1240M+02801MA1999999098581MD1999999-0041REMSYN088AAXX  18004 82586 32594 60000 10224 20216 39858 40098 86400 333 10280 29084 55027 59004;EQDQ01  00002PRCP06
0186825860999992004071812004-05200-039300FM-12+021199999V0201401N002610075019N0200001N1+02521+02131101161ADDAA106000091GF106991061021008001001001KA1240N+02141MA1999999098761MD1999999+0001REMSYN076AAXX  18124 82586 32598 61405 10252 20213 39876 40116 86200 333 20214 58000;EQDQ01  00002PRCP06
0167825860999992004071818004-05200-039300FM-12+021199999V0200501N001510075019N0200001N1+02861+02161100981ADDAA106000091GF105991051021008001001001MA1999999098591MD1999999+0021REMSYN070AAXX  18184 82586 32598 50503 10286 20216 39859 40098 85200 333 58002;EQDQ01  00002PRCP06
0224825860999992004071900004-05200-039300FM-12+021199999V0200501N001012200019N0010001N1+02321+02151101021ADDAA106000091GA1001+999999999GF100991001001999999001001KA1240M+02971MA1999999999999MD1999999+0041REMSYN082AAXX  19004 82586 32994 00502 10232 20215 39062 40102 333 10297 29081 55098 58004;EQDQ01  00002PRCP06Q02 090623APOSP 
0186825860999992004071912004-05200-039300FM-12+021199999V0200901N003110075019N0200001N1+02501+02071101181ADDAA106000091GF106991061021008001001001KA1240N+02241MA1999999098781MD1999999+0021REMSYN076AAXX  19124 82586 32598 60906 10250 20207 39878 40118 86200 333 20224 58002;EQDQ01  00002PRCP06
0167825860999992004071918004-05200-039300FM-12+021199999V0201801N003110075019N0200001N1+02921+01831100951ADDAA106000091GF106991061041008001001001MA1999999098581MD1999999-0011REMSYN070AAXX  19184 82586 32598 61806 10292 20183 39858 40095 86400 333 59001;EQDQ01  00002PRCP06
0208825860999992004072000004-05200-039300FM-12+021199999V0201401N003112200019N0010001N1+02181+01921101021ADDAA106000091GA1001+999999999GF100991001001999999001001KA1240M+03031MA1999999098671MD1999999+0051REMSYN082AAXX  20004 82586 32994 01406 10218 20192 39867 40102 333 10303 29075 55101 58005;EQDQ01  00002PRCP06
0186825860999992004072012004-05200-039300FM-12+021199999V0201401N005112200019N0200001N1+02461+02171101121ADDAA106000091GF104991041021008001001001KA1240N+02101MA1999999098721MD1999999-0061REMSYN076AAXX  20124 82586 32598 41410 10246 20217 39872 40112 84200 333 20210 59006;EQDQ01  00002PRCP06
0167825860999992004072018004-05200-039300FM-12+021199999V0201801N003112200019N0200001N1+02991+01891100891ADDAA106000091GF102991021011008001001001MA1999999098521MD1999999-0061REMSYN070AAXX  20184 82586 32598 21806 10299 20189 39852 40089 82100 333 59006;EQDQ01  00002PRCP06
0208825860999992004072100004-05200-039300FM-12+021199999V0209999C000012200019N0010001N1+02141+01931100941ADDAA106000091GA1001+999999999GF100991001001999999001001KA1240M+03061MA1999999098541MD1999999-0131REMSYN082AAXX  21004 82586 32994 00000 10214 20193 39854 40094 333 10306 29078 55098 59013;EQDQ01  00002PRCP06
0186825860999992004072112004-05200-039300FM-12+021199999V0200901N001510075019N0200001N1+02521+01931101021ADDAA106000091GF105991051011008001001001KA1240N+02051MA1999999098621MD1999999-0101REMSYN076AAXX  21124 82586 32598 50903 10252 20193 39862 40102 85100 333 20205 59010;EQDQ01  00002PRCP06
0167825860999992004072118004-05200-039300FM-12+021199999V0201801N002612200019N0200001N1+03021+01891100771ADDAA106000091GF103991031011008001001001MA1999999098391MD1999999-0131REMSYN070AAXX  21184 82586 32598 31805 10302 20189 39839 40077 83100 333 59013;EQDQ01  00002PRCP06
0208825860999992004072200004-05200-039300FM-12+021199999V0201801N001512200019N0010001N1+02321+02001100841ADDAA106000091GA1001+999999999GF100991001001999999001001KA1240M+03051MA1999999098451MD1999999-0091REMSYN082AAXX  22004 82586 32994 01803 10232 20200 39845 40084 333 10305 29071 55100 59009;EQDQ01  00002PRCP06
0186825860999992004072212004-05200-039300FM-12+021199999V0201401N003110075019N0200001N1+02611+02141100991ADDAA106000091GF106991061041008001001001KA1240N+02151MA1999999098601MD1999999-0021REMSYN076AAXX  22124 82586 32598 61406 10261 20214 39860 40099 86400 333 20215 59002;EQDQ01  00002PRCP06
0167825860999992004072218004-05200-039300FM-12+021199999V0201401N002612200019N0200001N1+02031+01891100791ADDAA106000091GF104991041021008001001001MA1999999098421MD1999999+0031REMSYN070AAXX  22184 82586 32598 41405 10203 20189 39842 40079 84200 333 58003;EQDQ01  00002PRCP06
0186825860999992004072312004-05200-039300FM-12+021199999V0201801N003112200019N0200001N1+02421+01821101101ADDAA106000091GF102991021011008001001001KA1240N+02181MA1999999098701MD1999999+0101REMSYN076AAXX  23124 82586 32598 21806 10242 20182 39870 40110 82100 333 20218 58010;EQDQ01  00002PRCP06
0167825860999992004072318004-05200-039300FM-12+021199999V0201801N003112200019N0200001N1+03041+01601100721ADDAA106000091GF101991011011008001001001MA1999999098351MD1999999-0071REMSYN070AAXX  23184 82586 32598 11806 10304 20160 39835 40072 81100 333 59007;EQDQ01  00002PRCP06
0198825860999992004072400004-05200-039300FM-12+021199999V0209999C000010075019N0010001N1+02271+01861100921ADDAA106000091GF106991061051008001001001KA1240M+03071MA1999999098521MD1999999+0021REMSYN088AAXX  24004 82586 32594 60000 10227 20186 39852 40092 86500 333 10307 29067 55108 58002;EQDQ01  00002PRCP06
0186825860999992004072412004-05200-039300FM-12+021199999V0201801N005112200019N0200001N1+02401+01891101161ADDAA106000091GF101991011011008001001001KA1240N+02001MA1999999098721MD1999999+0061REMSYN076AAXX  24124 82586 32598 11810 10240 20189 39872 40116 81100 333 20200 58006;EQDQ01  00002PRCP06
0167825860999992004072418004-05200-039300FM-12+021199999V0201401N003612200019N0200001N1+03041+02001100981ADDAA106000091GF102991021011008001001001MA1999999098591MD1999999+0241REMSYN070AAXX  24184 82586 32598 21407 10304 20200 39859 40098 82100 333 58024;EQDQ01  00002PRCP06
0198825860999992004072500004-05200-039300FM-12+021199999V0201801N002610075019N0010001N1+02581+02041101091ADDAA106000091GF106991061021008001001001KA1240M+03111MA1999999098701MD1999999+0181REMSYN088AAXX  25004 82586 32594 61805 10258 20204 39870 40109 86200 333 10311 29068 55101 58018;EQDQ01  00002PRCP06
0186825860999992004072512004-05200-039300FM-12+021199999V0201801N004612200019N0200001N1+02381+01951101201ADDAA106000091GF102991021011008001001001KA1240N+02201MA1999999098811MD1999999+0051REMSYN076AAXX  25124 82586 32598 21809 10238 20195 39881 40120 82100 333 20220 58005;EQDQ01  00002PRCP06
0167825860999992004072518004-05200-039300FM-12+021199999V0201401N005110075019N0200001N1+02901+01871100981ADDAA106000091GF106991061041008001001001MA1999999098591MD1999999+0001REMSYN070AAXX  25184 82586 32598 61410 10290 20187 39859 40098 86400 333 58000;EQDQ01  00002PRCP06
0198825860999992004072600004-05200-039300FM-12+021199999V0201401N003110075019N0010001N1+02581+02041101041ADDAA106000091GF108991081071008001999999KA1240M+02991MA1999999098651MD1999999-0071REMSYN088AAXX  26004 82586 32594 81406 10258 20204 39865 40104 887// 333 10299 29069 55075 59007;EQDQ01  00002PRCP06
0186825860999992004072612004-05200-039300FM-12+021199999V0201801N005112200019N0200001N1+02421+01881101151ADDAA106000091GF103991031011008001001001KA1240N+02271MA1999999098761MD1999999-0051REMSYN076AAXX  26124 82586 32598 31810 10242 20188 39876 40115 83100 333 20227 59005;EQDQ01  00002PRCP06
0198825860999992004072700004-05200-039300FM-12+021199999V0201801N001010075019N0010001N1+02541+02151101101ADDAA106000091GF108991081071008001999999KA1240M+03031MA1999999098711MD1999999-0061REMSYN088AAXX  27004 82586 32594 81802 10254 20215 39871 40110 887// 333 10303 29071 55084 59006;EQDQ01  00002PRCP06
0186825860999992004072712004-05200-039300FM-12+021199999V0201401N005110075019N0200001N1+02331+01911101241ADDAA106000091GF106991061051008001001001KA1240N+02101MA1999999098841MD1999999+0081REMSYN076AAXX  27124 82586 32598 61410 10233 20191 39884 40124 86500 333 20210 58008;EQDQ01  00002PRCP06
0167825860999992004072718004-05200-039300FM-12+021199999V0201801N004110075019N0200001N1+02821+01911101031ADDAA106000091GF107991071051008001001001MA1999999098651MD1999999+0041REMSYN070AAXX  27184 82586 32598 71808 10282 20191 39865 40103 87500 333 58004;EQDQ01  00002PRCP06
0186825860999992004072812004-05200-039300FM-12+021199999V0201401N005712200019N0200001N1+02501+02071101131ADDAA106000091GF103991021011008001001051KA1240N+02161MA1999999098751MD1999999-0091REMSYN076AAXX  28124 82586 32598 31411 10250 20207 39875 40113 82105 333 20216 59009;EQDQ01  00002PRCP06
0167825860999992004072818004-05200-039300FM-12+021199999V0201401N004610075019N0200001N1+02921+02341100881ADDAA106000091GF108991081071008001999999MA1999999098501MD1999999-0151REMSYN070AAXX  28184 82586 32598 81409 10292 20234 39850 40088 887// 333 59015;EQDQ01  00002PRCP06
0198825860999992004072900004-05200-039300FM-12+021199999V0200901N002110075019N0010001N1+02501+02211101021ADDAA106000091GF108991081071008001999999KA1240M+03051MA1999999098631MD1999999-0061REMSYN088AAXX  29004 82586 32594 80904 10250 20221 39863 40102 887// 333 10305 29079 55050 59006;EQDQ01  00002PRCP06
0186825860999992004072912004-05200-039300FM-12+021199999V0201401N004612200019N0200001N1+02511+01801101111ADDAA106000091GF106991031011008001001041KA1240N+02301MA1999999098721MD1999999-0031REMSYN076AAXX  29124 82586 32598 61409 10251 20180 39872 40111 83104 333 20230 59003;EQDQ01  00002PRCP06
0167825860999992004072918004-05200-039300FM-12+021199999V0200901N003110075019N0200001N1+02681+02111101031ADDAA106000091GF108991081071008001999999MA1999999098631MD1999999+0131REMSYN070AAXX  29184 82586 32598 80906 10268 20211 39863 40103 887// 333 58013;EQDQ01  00002PRCP06
0198825860999992004073000004-05200-039300FM-12+021199999V0209999C000010075019N0010001N1+02481+02231101051ADDAA106000091GF108991081071008001999999KA1240M+02791MA1999999098661MD1999999+0031REMSYN088AAXX  30004 82586 32594 80000 10248 20223 39866 40105 887// 333 10279 29077 55009 58003;EQDQ01  00002PRCP06
0190825860999992004073012004-05200-039300FM-12+021199999V0201401N005110450019N0200001N1+02401+01841101121ADDAY161061AY221061GF107991041041008001021001KA1240N+02171MA1999999098821MD1999999+0101MW1031REMSYN088AAXX  30124 82586 21598 71410 10240 20184 39882 40112 70362 84420 333 20217 58010 60024;
0167825860999992004073018004-05200-039300FM-12+021199999V0201401N003612200019N0200001N1+02911+01831100941ADDAA106000091GF104991041011008001001001MA1999999098561MD1999999-0071REMSYN070AAXX  30184 82586 32598 41407 10291 20183 39856 40094 84100 333 59007;EQDQ01  00002PRCP06
0208825860999992004073100004-05200-039300FM-12+021199999V0203601N003112200019N0010001N1+02241+01881101101ADDAA106000091GA1001+999999999GF100991001001999999001001KA1240M+03051MA1999999098701MD1999999+0041REMSYN082AAXX  31004 82586 32994 03606 10224 20188 39870 40110 333 10305 29071 55076 58004;EQDQ01  00002PRCP06
0186825860999992004073112004-05200-039300FM-12+021199999V0200901N003110075019N0200001N1+02441+02131101221ADDAA106000091GF106991061041008001001001KA1240N+02181MA1999999098821MD1999999+0001REMSYN076AAXX  31124 82586 32598 60906 10244 20213 39882 40122 86400 333 20218 58000;EQDQ01  00002PRCP06
0167825860999992004073118004-05200-039300FM-12+021199999V0201401N002110075019N0200001N1+03061+01991100951ADDAA106000091GF105991051021008001001001MA1999999098581MD1999999+0021REMSYN070AAXX  31184 82586 32598 51404 10306 20199 39858 40095 85200 333 58002;EQDQ01  00002PRCP06
0208825860999992004080100004-05200-039300FM-12+021199999V0203601N001012200019N0010001N1+02231+02031101041ADDAA106000091GA1001+999999999GF100991001001999999001001KA1240M+03171MA1999999098641MD1999999-0061REMSYN082AAXX  01004 82586 32994 03602 10223 20203 39864 40104 333 10317 29079 55099 59006;EQDQ01  00002PRCP06
0186825860999992004080112004-05200-039300FM-12+021199999V0200901N003610075019N0200001N1+02421+02231101161ADDAA106000091GF106991061041008001001001KA1240N+02151MA1999999098761MD1999999-0061REMSYN076AAXX  01124 82586 32598 60907 10242 20223 39876 40116 86400 333 20215 59006;EQDQ01  00002PRCP06
0167825860999992004080118004-05200-039300FM-12+021199999V0201401N001512200019N0200001N1+02931+01861100951ADDAA106000091GF104991041011008001001001MA1999999098571MD1999999-0011REMSYN070AAXX  01184 82586 32598 41403 10293 20186 39857 40095 84100 333 59001;EQDQ01  00002PRCP06
0208825860999992004080200004-05200-039300FM-12+021199999V0209999C000012200019N0010001N1+02321+02091101001ADDAA106000091GA1001+999999999GF100991001001999999001001KA1240M+03071MA1999999098601MD1999999-0041REMSYN082AAXX  02004 82586 32994 00000 10232 20209 39860 40100 333 10307 29079 55055 59004;EQDQ01  00002PRCP06
0186825860999992004080212004-05200-039300FM-12+021199999V0201401N003110075019N0200001N1+02511+01871101191ADDAA106000091GF105991051021008001001001KA1240N+02231MA1999999098791MD1999999+0031REMSYN076AAXX  02124 82586 32598 51406 10251 20187 39879 40119 85200 333 20223 58003;EQDQ01  00002PRCP06
0198825860999992004080300004-05200-039300FM-12+021199999V0203601N002612200019N0010001N1+02261+01881101011ADDAA106000091GF102991021051008001001001KA1240M+03211MA1999999098611MD1999999+0011REMSYN088AAXX  03004 82586 32594 23605 10226 20188 39861 40101 82500 333 10321 29065 55089 58001;EQDQ01  00002PRCP06
0186825860999992004080312004-05200-039300FM-12+021199999V0200901N003612200019N0200001N1+02621+02001101171ADDAA106000091GF104991041011008001001001KA1240N+02261MA1999999098771MD1999999-0021REMSYN076AAXX  03124 82586 32598 40907 10262 20200 39877 40117 84100 333 20226 59002;EQDQ01  00002PRCP06
0167825860999992004080318004-05200-039300FM-12+021199999V0201401N005112200019N0200001N1+03181+01351100881ADDAA106000091GF104991041021008001001001MA1999999098521MD1999999-0061REMSYN070AAXX  03184 82586 32598 41410 10318 20135 39852 40088 84200 333 59006;EQDQ01  00002PRCP06
0208825860999992004080400004-05200-039300FM-12+021199999V0203601N006712200019N0010001N1+02491+01941100991ADDAA106000091GA1001+999999999GF100991001001999999001001KA1240M+03231MA1999999098601MD1999999-0011REMSYN082AAXX  04004 82586 32994 03613 10249 20194 39860 40099 333 10323 29061 55108 59001;EQDQ01  00002PRCP06
0190825860999992004080412004-05200-039300FM-12+021199999V0201401N003110075019N0200001N1+02441+01811101161ADDAY151061AY221061GF105991051021008001001001KA1240N+02181MA1999999098761MD1999999-0011MW1031REMSYN088AAXX  04124 82586 21598 51406 10244 20181 39876 40116 70352 85200 333 20218 59001 69924;
0167825860999992004080418004-05200-039300FM-12+021199999V0201401N004612200019N0200001N1+03121+01681100881ADDAA106000091GF102991021021008001001001MA1999999098521MD1999999+0001REMSYN070AAXX  04184 82586 32598 21409 10312 20168 39852 40088 82200 333 58000;EQDQ01  00002PRCP06
0208825860999992004080500004-05200-039300FM-12+021199999V0209999C000012200019N0010001N1+02301+02011100981ADDAA106000091GA1001+999999999GF100991001001999999001001KA1240M+03201MA1999999098581MD1999999-0021REMSYN082AAXX  05004 82586 32994 00000 10230 20201 39858 40098 333 10320 29070 55095 59002;EQDQ01  00002PRCP06
0186825860999992004080512004-05200-039300FM-12+021199999V0201801N003112200019N0200001N1+02511+02001101121ADDAA106000091GF104991041011008001001001KA1240N+02251MA1999999098721MD1999999-0041REMSYN076AAXX  05124 82586 32598 41806 10251 20200 39872 40112 84100 333 20225 59004;EQDQ01  00002PRCP06
0167825860999992004080518004-05200-039300FM-12+021199999V0201401N003610075019N0200001N1+03041+01941100881ADDAA106000091GF106991061011008001001001MA1999999098521MD1999999+0041REMSYN070AAXX  05184 82586 32598 61407 10304 20194 39852 40088 86100 333 58004;EQDQ01  00002PRCP06
0198825860999992004080600004-05200-039300FM-12+021199999V0203601N000510075019N0010001N1+02551+02021100971ADDAA106000091GF106991061041008001001001KA1240M+03231MA1999999098591MD1999999+0011REMSYN088AAXX  06004 82586 32594 63601 10255 20202 39859 40097 86400 333 10323 29065 55087 58001;EQDQ01  00002PRCP06
0186825860999992004080612004-05200-039300FM-12+021199999V0201401N003112200019N0200001N1+02681+01671101071ADDAA106000091GF104991041021008001001001KA1240N+02331MA1999999098701MD1999999-0021REMSYN076AAXX  06124 82586 32598 41406 10268 20167 39870 40107 84200 333 20233 59002;EQDQ01  00002PRCP06
0167825860999992004080618004-05200-039300FM-12+021199999V0201401N004110075019N0200001N1+03141+01911100871ADDAA106000091GF105991051021008001001001MA1999999098511MD1999999+0031REMSYN070AAXX  06184 82586 32598 51408 10314 20191 39851 40087 85200 333 58003;EQDQ01  00002PRCP06
0198825860999992004080700004-05200-039300FM-12+021199999V0201401N003110075019N0010001N1+02401+02261101091ADDAA106000091GF108991081071008001999999KA1240M+03261MA1999999098711MD1999999+0121REMSYN088AAXX  07004 82586 32594 81406 10240 20226 39871 40109 887// 333 10326 29072 55088 58012;EQDQ01  00002PRCP06
0209825860999992004080712004-05200-039300FM-12+021199999V0200901N003610075019N0200001N1+02421+02051101171ADDAY161061AY261061GF108991081071008001999999KA1240N+99999MA1999999098771MD1999999+0071MW1031REMSYN088AAXX  07124 82586 21598 80907 10242 20205 39877 40117 70366 887// 333 20258 58007 60234;EQDQ01 +02582ATMN  
0167825860999992004080718004-05200-039300FM-12+021199999V0201801N005110075019N0200001N1+03031+01761101011ADDAA106000091GF106991061041008001001001MA1999999098641MD1999999+0131REMSYN070AAXX  07184 82586 32598 61810 10303 20176 39864 40101 86400 333 58013;EQDQ01  00002PRCP06
0198825860999992004080800004-05200-039300FM-12+021199999V0203601N003110075019N0010001N1+02521+02191101151ADDAA106000091GF105991051021008001001001KA1240M+03191MA1999999098751MD1999999+0041REMSYN088AAXX  08004 82586 32594 53606 10252 20219 39875 40115 85200 333 10319 29073 55070 58004;EQDQ01  00002PRCP06
0183825860999992004080818004-05200-039300FM-12+021199999V0201801N003119999999N0200001N1+03201+01781100951ADDAA106000091GF106991999021008001001001MA1999999098561MD1999999-0051REMSYN070AAXX  08184 82586 32598 61806 10320 20178 39856 40095 83200 333 59005;EQDQ01+000032SCOTLCQ02  00002PRCP06
0208825860999992004080900004-05200-039300FM-12+021199999V0203601N006212200019N0010001N1+02501+02191101061ADDAA106000091GA1001+999999999GF100991001001999999001001KA1240M+03231MA1999999098671MD1999999-0081REMSYN082AAXX  09004 82586 32994 03612 10250 20219 39867 40106 333 10323 29071 55104 59008;EQDQ01  00002PRCP06
0186825860999992004080912004-05200-039300FM-12+021299999V0200901N005712200019N0200001N1+02621+02231101181ADDAA106000091GF102991021011008001001001KA1240N+02351MA1999999098801MD1999999-0021REMSYN076AAXX  09124 82586 32598 20911 10262 20223 39880 40118 82100 333 20235 59002;EQDQ01  00002PRCP06
0167825860999992004080918004-05200-039300FM-12+021299999V0200901N003112200019N0200001N1+03211+03051100871ADDAA106000091GF103991031011008001001001MA1999999098521MD1999999-0071REMSYN070AAXX  09184 82586 32598 30906 10321 20305 39852 40087 83100 333 59007;EQDQ01  00002PRCP06
0208825860999992004081000004-05200-039300FM-12+021299999V0203601N005112200019N0010001N1+02661+02181100981ADDAA106000091GA1001+999999999GF100991001001999999001001KA1240M+03261MA1999999098621MD1999999-0051REMSYN082AAXX  10004 82586 32994 03610 10266 20218 39862 40098 333 10326 29065 55106 59005;EQDQ01  00002PRCP06
0186825860999992004081012004-05200-039300FM-12+021299999V0200501N004112200019N0200001N1+02621+01671101181ADDAA106000091GF103991031021008001001001KA1240N+02291MA1999999098811MD1999999+0011REMSYN076AAXX  10124 82586 32598 30508 10262 20167 39881 40118 83200 333 20229 58001;EQDQ01  00002PRCP06
0167825860999992004081018004-05200-039300FM-12+021299999V0201401N003112200019N0200001N1+03301+01841100881ADDAA106000091GF104991031011008001001041MA1999999098531MD1999999+0011REMSYN070AAXX  10184 82586 32598 41406 10330 20184 39853 40088 83104 333 58001;EQDQ01  00002PRCP06
0198825860999992004081100004-05200-039300FM-12+021299999V0201801N002112200019N0010001N1+02621+02121101061ADDAA106000091GF102991021021008001001001KA1240M+03341MA1999999098691MD1999999+0071REMSYN088AAXX  11004 82586 32594 21804 10262 20212 39869 40106 82200 333 10334 29062 55094 58007;EQDQ01  00002PRCP06
0186825860999992004081112004-05200-039300FM-12+021199999V0201401N004110075019N0200001N1+02521+01931101271ADDAA106000091GF107991071041008001001001KA1240N+02301MA1999999098891MD1999999+0081REMSYN076AAXX  11124 82586 32598 71408 10252 20193 39889 40127 87400 333 20230 58008;EQDQ01  00002PRCP06
0167825860999992004081118004-05200-039300FM-12+021199999V0201401N003110075019N0200001N1+03081+01881100931ADDAA106000091GF105991051021008001001001MA1999999098571MD1999999+0041REMSYN070AAXX  11184 82586 32598 51406 10308 20188 39857 40093 85200 333 58004;EQDQ01  00002PRCP06
0198825860999992004081200004-05200-039300FM-12+021299999V0201801N001512200019N0010001N1+02551+02041101051ADDAA106000091GF102991021021008001001001KA1240M+03161MA1999999098671MD1999999-0021REMSYN088AAXX  12004 82586 32594 21803 10255 20204 39867 40105 82200 333 10316 29067 55088 59002;EQDQ01  00002PRCP06
0186825860999992004081212004-05200-039300FM-12+021299999V0201801N003112200019N0200001N1+02501+01801101261ADDAA106000091GF101991011011008001001001KA1240N+02321MA1999999098881MD1999999-0011REMSYN076AAXX  12124 82586 32598 11806 10250 20180 39888 40126 81100 333 20232 59001;EQDQ01  00002PRCP06
0167825860999992004081218004-05200-039300FM-12+021299999V0201801N002610075019N0200001N1+03121+01921100931ADDAA106000091GF106991061051008001001001MA1999999098571MD1999999+0001REMSYN070AAXX  12184 82586 32598 61805 10312 20192 39857 40093 86500 333 58000;EQDQ01  00002PRCP06
0198825860999992004081300004-05200-039300FM-12+021299999V0203601N001510075019N0010001N1+02641+02071101061ADDAA106000091GF106991061021008001001001KA1240M+03291MA1999999098681MD1999999+0011REMSYN088AAXX  13004 82586 32594 63603 10264 20207 39868 40106 86200 333 10329 29064 55088 58001;EQDQ01  00002PRCP06
0202825860999992004081312004-05200-039300FM-12+021299999V0201801N003119999999N0200001N1+02431+01701101251ADDAA106000091GF105991999051008001001001KA1240N+02301MA1999999098871MD1999999-0011REMSYN076AAXX  13124 82586 32598 51806 10243 20170 39887 40125 84500 333 20230 59001;EQDQ01+000042SCOTLCQ02  00002PRCP06
0167825860999992004081318004-05200-039300FM-12+021299999V0201401N004612200019N0200001N1+03181+01691100881ADDAA106000091GF101991011011008001001001MA1999999098521MD1999999-0051REMSYN070AAXX  13184 82586 32598 11409 10318 20169 39852 40088 81100 333 59005;EQDQ01  00002PRCP06
0208825860999992004081400004-05200-039300FM-12+021299999V0209999C000012200019N0010001N1+02421+01951101011ADDAA106000091GA1001+999999999GF100991001001999999001001KA1240M+03291MA1999999098691MD1999999-0071REMSYN082AAXX  14004 82586 32994 00000 10242 20195 39869 40101 333 10329 29064 55096 59007;EQDQ01  00002PRCP06
0196825860999992004081412004-05200-039300FM-12+021299999V0201801N003112200019N0200001N1+02441+01921101261ADDAA106000091GA1001+999999999GF100991001001999999001001KA1240N+02391MA1999999098861MD1999999-0011REMSYN070AAXX  14124 82586 32598 01806 10244 20192 39886 40126 333 20239 59001;EQDQ01  00002PRCP06
0167825860999992004081418004-05200-039300FM-12+021299999V0201401N002112200019N0200001N1+03201+01121100941ADDAA106000091GF102991011011008001001041MA1999999098581MD1999999+0061REMSYN070AAXX  14184 82586 32598 21404 10320 20112 39858 40094 81104 333 58006;EQDQ01  00002PRCP06
0214825860999992004081500004-05200-039300FM-12+021299999V0203601N004612200019N0010001N1+02581+01971101071ADDAA106000091GF104991999011008001001001KA1240M+03291MA1999999098681MD1999999+0071REMSYN088AAXX  15004 82586 32594 43609 10258 20197 39868 40107 82100 333 10329 29061 55110 58007;EQDQ01+000022SCOTLCQ02  00002PRCP06
0186825860999992004081512004-05200-039300FM-12+021299999V0200501N003612200019N0200001N1+02621+02121101231ADDAA106000091GF102991021021008001001001KA1240N+02341MA1999999098851MD1999999-0011REMSYN076AAXX  15124 82586 32598 20507 10262 20212 39885 40123 82200 333 20234 59001;EQDQ01  00002PRCP06
0167825860999992004081518004-05200-039300FM-12+021299999V0201401N003110075019N0200001N1+03001+02321100961ADDAA106000091GF108991081071008001999999MA1999999098601MD1999999+0021REMSYN070AAXX  15184 82586 32598 81406 10300 20232 39860 40096 887// 333 58002;EQDQ01  00002PRCP06
0198825860999992004081600004-05200-039300FM-12+021299999V0200501N003110075019N0010001N1+02661+02141101081ADDAA106000091GF106991061041008001001001KA1240M+03201MA1999999098681MD1999999+0001REMSYN088AAXX  16004 82586 32594 60506 10266 20214 39868 40108 86400 333 10320 29072 55056 58000;EQDQ01  00002PRCP06
0186825860999992004081612004-05200-039300FM-12+021299999V0201401N004610075019N0200001N1+02611+02031101191ADDAA106000091GF106991061041008001001001KA1240N+02201MA1999999098811MD1999999-0041REMSYN076AAXX  16124 82586 32598 61409 10261 20203 39881 40119 86400 333 20220 59004;EQDQ01  00002PRCP06
0167825860999992004081618004-05200-039300FM-12+021299999V0200901N005110075019N0200001N1+03101+01701100921ADDAA106000091GF106991061011008001001001MA1999999098521MD1999999-0081REMSYN070AAXX  16184 82586 32598 60910 10310 20170 39852 40092 86100 333 59008;EQDQ01  00002PRCP06
0198825860999992004081700004-05200-039300FM-12+021299999V0201401N001510075019N0010001N1+02471+02171101001ADDAA106000091GF105991051021008001001001KA1240M+03211MA1999999098621MD1999999-0061REMSYN088AAXX  17004 82586 32594 51403 10247 20217 39862 40100 85200 333 10321 29074 55096 59006;EQDQ01  00002PRCP06
0190825860999992004081712004-05200-039300FM-12+021299999V0201401N004610075019N0200001N1+02401+02151101191ADDAY161061AY221061GF106991061021008001001001KA1240N+02281MA1999999098791MD1999999-0021MW1031REMSYN088AAXX  17124 82586 21598 61409 10240 20215 39879 40119 70362 86200 333 20228 59002 60044;
0167825860999992004081718004-05200-039300FM-12+021299999V0201801N003612200019N0200001N1+03241+01291100861ADDAA106000091GF102991021011008001001001MA1999999098501MD1999999-0021REMSYN070AAXX  17184 82586 32598 21807 10324 20129 39850 40086 82100 333 59002;EQDQ01  00002PRCP06
0208825860999992004081800004-05200-039300FM-12+021299999V0201401N001012200019N0010001N1+02381+01951100951ADDAA106000091GA1001+999999999GF100991001001999999001001KA1240M+03331MA1999999098551MD1999999-0071REMSYN082AAXX  18004 82586 32994 01402 10238 20195 39855 40095 333 10333 29068 55099 59007;EQDQ01  00002PRCP06
0186825860999992004081812004-05200-039300FM-12+021299999V0200901N005110075019N0200001N1+02691+01941101151ADDAA106000091GF105991051041008001001001KA1240N+02331MA1999999098771MD1999999-0021REMSYN076AAXX  18124 82586 32598 50910 10269 20194 39877 40115 85400 333 20233 59002;EQDQ01  00002PRCP06
0167825860999992004081818004-05200-039300FM-12+021299999V0201401N004612200019N0200001N1+03281+01661100851ADDAA106000091GF102991021011008001001001MA1999999098501MD1999999+0001REMSYN070AAXX  18184 82586 32598 21409 10328 20166 39850 40085 82100 333 58000;EQDQ01  00002PRCP06
0208825860999992004081900004-05200-039300FM-12+021299999V0200501N006712200019N0010001N1+02661+02071100991ADDAA106000091GA1001+999999999GF100991001001999999001001KA1240M+03391MA1999999098631MD1999999+0081REMSYN082AAXX  19004 82586 32994 00513 10266 20207 39863 40099 333 10339 29061 55104 58008;EQDQ01  00002PRCP06
0186825860999992004081912004-05200-039300FM-12+021299999V0201401N003110075019N0200001N1+02621+02161101251ADDAA106000091GF105991051021008001001001KA1240N+02421MA1999999098871MD1999999+0101REMSYN076AAXX  19124 82586 32598 51406 10262 20216 39887 40125 85200 333 20242 58010;EQDQ01  00002PRCP06
0167825860999992004081918004-05200-039300FM-12+021299999V0201801N005112200019N0200001N1+03301+01841100931ADDAA106000091GF105991031021008001001041MA1999999098571MD1999999+0071REMSYN070AAXX  19184 82586 32598 51810 10330 20184 39857 40093 83204 333 58007;EQDQ01  00002PRCP06
0208825860999992004082000004-05200-039300FM-12+021299999V0203601N004612200019N0010001N1+02601+02141101021ADDAA106000091GA1001+999999999GF100991001001999999001001KA1240M+03331MA1999999098651MD1999999+0021REMSYN082AAXX  20004 82586 32994 03609 10260 20214 39865 40102 333 10333 29068 55105 58002;EQDQ01  00002PRCP06
0202825860999992004082012004-05200-039300FM-12+021299999V0200901N004612200019N0200001N1+02781+01611101191ADDAA106000091GF103991999021008001001001KA1240N+02501MA1999999098821MD1999999-0051REMSYN076AAXX  20124 82586 32598 30909 10278 20161 39882 40119 84200 333 20250 59005;EQDQ01+000042SCOTLCQ02  00002PRCP06
0177825860999992004082018004-05200-039300FM-12+021299999V0200501N005112200019N0200001N1+03341+01411100841ADDAA106000091GA1001+999999999GF100991001001999999001001MA1999999098501MD1999999-0071REMSYN064AAXX  20184 82586 32998 00510 10334 20141 39850 40084 333 59007;EQDQ01  00002PRCP06
0208825860999992004082100004-05200-039300FM-12+021299999V0203601N002112200019N0010001N1+02491+01781100941ADDAA106000091GA1001+999999999GF100991001001999999001001KA1240M+03431MA1999999098581MD1999999-0071REMSYN082AAXX  21004 82586 32994 03604 10249 20178 39858 40094 333 10343 29053 55108 59007;EQDQ01  00002PRCP06
0186825860999992004082112004-05200-039300FM-12+021299999V0200901N005712200019N0200001N1+02721+01821101151ADDAA106000091GF101991011001008001001001KA1240N+02301MA1999999098771MD1999999-0051REMSYN076AAXX  21124 82586 32598 10911 10272 20182 39877 40115 81000 333 20230 59005;EQDQ01  00002PRCP06
0177825860999992004082118004-05200-039300FM-12+021299999V0200901N005112200019N0010001N1+03301+01721100831ADDAA106000091GA1001+999999999GF100991001001999999001001MA1999999098481MD1999999-0021REMSYN064AAXX  21184 82586 32994 00910 10330 20172 39848 40083 333 59002;EQDQ01  00002PRCP06
0198825860999992004082200004-05200-039300FM-12+021299999V0203601N001512200019N0010001N1+02461+01851100921ADDAA106000091GF102991021051008001001001KA1240M+03401MA1999999098551MD1999999-0031REMSYN088AAXX  22004 82586 32594 23603 10246 20185 39855 40092 82500 333 10340 29059 55108 59003;EQDQ01  00002PRCP06
0186825860999992004082212004-05200-039300FM-12+021299999V0200501N005712200019N0200001N1+02701+01881101101ADDAA106000091GF101991011011008001001001KA1240N+02251MA1999999098731MD1999999-0041REMSYN076AAXX  22124 82586 32598 10511 10270 20188 39873 40110 81100 333 20225 59004;EQDQ01  00002PRCP06
0167825860999992004082218004-05200-039300FM-12+021299999V0200901N005712200019N0200001N1+03301+01841100811ADDAA106000091GF103991031021008001001001MA1999999098451MD1999999-0031REMSYN070AAXX  22184 82586 32598 30911 10330 20184 39845 40081 83200 333 59003;EQDQ01  00002PRCP06
0208825860999992004082300004-05200-039300FM-12+021299999V0200501N004112200019N0010001N1+02541+02001100951ADDAA106000091GA1001+999999999GF100991001001999999001001KA1240M+03421MA1999999098581MD1999999-0031REMSYN082AAXX  23004 82586 32994 00508 10254 20200 39858 40095 333 10342 29062 55109 59003;EQDQ01  00002PRCP06
0186825860999992004082312004-05200-039300FM-12+021299999V0200901N005112200019N0200001N1+02711+02001101171ADDAA106000091GF101991011011008001001001KA1240N+02301MA1999999098791MD1999999+0061REMSYN076AAXX  23124 82586 32598 10910 10271 20200 39879 40117 81100 333 20230 58006;EQDQ01  00002PRCP06
0167825860999992004082318004-05200-039300FM-12+021299999V0200501N004612200019N0200001N1+03321+01821100861ADDAA106000091GF101991011051008001001001MA1999999098501MD1999999+0051REMSYN070AAXX  23184 82586 32598 10509 10332 20182 39850 40086 81500 333 58005;EQDQ01  00002PRCP06
0198825860999992004082400004-05200-039300FM-12+021299999V0203601N004612200019N0010001N1+02661+01951100991ADDAA106000091GF102991021051008001001001KA1240M+03431MA1999999098631MD1999999+0051REMSYN088AAXX  24004 82586 32594 23609 10266 20195 39863 40099 82500 333 10343 29059 55109 58005;EQDQ01  00002PRCP06
0186825860999992004082412004-05200-039300FM-12+021299999V0203601N004112200019N0200001N1+02541+02041101161ADDAA106000091GF102991021011008001001001KA1240N+02281MA1999999098781MD1999999-0011REMSYN076AAXX  24124 82586 32598 23608 10254 20204 39878 40116 82100 333 20228 59001;EQDQ01  00002PRCP06
0167825860999992004082418004-05200-039300FM-12+021299999V0203601N003612200019N0200001N1+03441+01581100751ADDAA106000091GF101991011011008001001001MA1999999098411MD1999999-0091REMSYN070AAXX  24184 82586 32598 13607 10344 20158 39841 40075 81100 333 59009;EQDQ01  00002PRCP06
0208825860999992004082500004-05200-039300FM-12+021299999V0203601N005112200019N0010001N1+02571+01971100841ADDAA106000091GA1001+999999999GF100991001001999999001001KA1240M+03541MA1999999098461MD1999999-0171REMSYN082AAXX  25004 82586 32994 03610 10257 20197 39846 40084 333 10354 29062 55100 59017;EQDQ01  00002PRCP06
0186825860999992004082512004-05200-039300FM-12+021299999V0200501N004110075019N0200001N1+02611+01681101041ADDAA106000091GF106991061041008001001001KA1240N+02301MA1999999098671MD1999999-0111REMSYN076AAXX  25124 82586 32598 60508 10261 20168 39867 40104 86400 333 20230 59011;EQDQ01  00002PRCP06
0167825860999992004082518004-05200-039300FM-12+021199999V0200901N005112200019N0200001N1+03331+01851100731ADDAA106000091GF101991011011008001001001MA1999999098371MD1999999-0041REMSYN070AAXX  25184 82586 32598 10910 10333 20185 39837 40073 81100 333 59004;EQDQ01  00002PRCP06
0208825860999992004082600004-05200-039300FM-12+021199999V0200501N005712200019N0010001N1+02611+02011100821ADDAA106000091GA1001+999999999GF100991001001999999001001KA1240M+03421MA1999999098451MD1999999-0011REMSYN082AAXX  26004 82586 32994 00511 10261 20201 39845 40082 333 10342 29060 55101 59001;EQDQ01  00002PRCP06
0186825860999992004082612004-05200-039300FM-12+021199999V0200901N005110075019N0200001N1+02661+01971101011ADDAA106000091GF105991051021008001001001KA1240N+02261MA1999999098651MD1999999-0021REMSYN076AAXX  26124 82586 32598 50910 10266 20197 39865 40101 85200 333 20226 59002;EQDQ01  00002PRCP06
0167825860999992004082618004-05200-039300FM-12+021199999V0200901N004112200019N0200001N1+03321+01821100721ADDAA106000091GF101991011011008001001001MA1999999098561MD1999999-0011REMSYN070AAXX  26184 82586 32598 10908 10332 20182 39856 40072 81100 333 59001;EQDQ01  00002PRCP06
0208825860999992004082700004-05200-039300FM-12+021199999V0203601N007712200019N0010001N1+02641+02071100821ADDAA106000091GA1001+999999999GF100991001001999999001001KA1240M+03431MA1999999098461MD1999999-0011REMSYN082AAXX  27004 82586 32994 03615 10264 20207 39846 40082 333 10343 29062 55097 59001;EQDQ01  00002PRCP06
0202825860999992004082712004-05200-039300FM-12+021199999V0200901N006212200019N0200001N1+02631+02141101001ADDAA106000091GF102991999011008001001001KA1240N+02481MA1999999098631MD1999999-0021REMSYN076AAXX  27124 82586 32598 20912 10263 20214 39863 40100 83100 333 20248 59002;EQDQ01+000032SCOTLCQ02  00002PRCP06
0183825860999992004082718004-05200-039300FM-12+021199999V0200501N003612200019N0200001N1+03361+01771100721ADDAA106000091GF102991999011008001001001MA1999999098361MD1999999+0001REMSYN070AAXX  27184 82586 32598 20507 10336 20177 39836 40072 83100 333 58000;EQDQ01+000032SCOTLCQ02  00002PRCP06
0208825860999992004082800004-05200-039300FM-12+021199999V0200501N005712200019N0010001N1+02731+01821100831ADDAA106000091GA1001+999999999GF100991001001999999001001KA1240M+03441MA1999999098471MD1999999+0011REMSYN082AAXX  28004 82586 32994 00511 10273 20182 39847 40083 333 10344 29058 55098 58001;EQDQ01  00002PRCP06
0186825860999992004082812004-05200-039300FM-12+021199999V0200901N005112200019N0200001N1+02801+01901101051ADDAA106000091GF102991021051008001001001KA1240N+02301MA1999999098681MD1999999+0051REMSYN076AAXX  28124 82586 32598 20910 10280 20190 39868 40105 82500 333 20230 58005;EQDQ01  00002PRCP06
0183825860999992004082818004-05200-039300FM-12+021299999V0200901N003112200019N0200001N1+03421+01311100671ADDAA106000091GF102991999011008001001001MA1999999098331MD1999999-0031REMSYN070AAXX  28184 82586 32598 20906 10342 20131 39833 40067 83100 333 59003;EQDQ01+000032SCOTLCQ02  00002PRCP06
0208825860999992004082900004-05200-039300FM-12+021299999V0203601N006712200019N0010001N1+02681+01671100771ADDAA106000091GA1001+999999999GF100991001001999999001001KA1240M+03511MA1999999098411MD1999999-0061REMSYN082AAXX  29004 82586 32994 03613 10268 20167 39841 40077 333 10351 29049 55104 59006;EQDQ01  00002PRCP06
0186825860999992004082912004-05200-039300FM-12+021299999V0200501N003110075019N0200001N1+02701+01991100971ADDAA106000091GF106991061011008001001001KA1240N+02281MA1999999098611MD1999999-0071REMSYN076AAXX  29124 82586 32598 60506 10270 20199 39861 40097 86100 333 20228 59007;EQDQ01  00002PRCP06
0167825860999992004082918004-05200-039300FM-12+021299999V0201401N002112200019N0200001N1+03371+01771100871ADDAA106000091GF104991041021008001001001MA1999999098321MD1999999-0011REMSYN070AAXX  29184 82586 32598 41404 10337 20177 39832 40087 84200 333 59001;EQDQ01  00002PRCP06
0208825860999992004083000004-05200-039300FM-12+021299999V0203601N001512200019N0010001N1+02621+01981100761ADDAA106000091GA1001+999999999GF100991001001999999001001KA1240M+03491MA1999999098371MD1999999-0041REMSYN082AAXX  30004 82586 32994 03603 10262 20198 39837 40076 333 10349 29060 55105 59004;EQDQ01  00002PRCP06
0186825860999992004083012004-05200-039300FM-12+021199999V0200901N003110075019N0200001N1+02601+02121101031ADDAA106000091GF106991061041008001001001KA1240N+02331MA1999999098661MD1999999+0051REMSYN076AAXX  30124 82586 32598 60906 10260 20212 39866 40103 86400 333 20233 58005;EQDQ01  00002PRCP06
0167825860999992004083018004-05200-039300FM-12+021199999V0200901N004112200019N0200001N1+03321+01571100641ADDAA106000091GF102991021021008001001001MA1999999098591MD1999999-0031REMSYN070AAXX  30184 82586 32598 20908 10332 20157 39859 40064 82200 333 59003;EQDQ01  00002PRCP06
0208825860999992004083100004-05200-039300FM-12+021199999V0203601N003112200019N0010001N1+02621+02211100871ADDAA106000091GA1001+999999999GF100991001001999999001001KA1240M+03481MA1999999098431MD1999999+0061REMSYN082AAXX  31004 82586 32994 03606 10262 20221 39843 40087 333 10348 29066 55086 58006;EQDQ01  00002PRCP06
0186825860999992004083112004-05200-039300FM-12+021199999V0200501N005110075019N0200001N1+02661+02091101051ADDAA106000091GF106991061041008001001001KA1240N+02351MA1999999098691MD1999999+0031REMSYN076AAXX  31124 82586 32598 60510 10266 20209 39869 40105 86400 333 20235 58003;EQDQ01  00002PRCP06
0167825860999992004083118004-05200-039300FM-12+021199999V0201401N006712200019N0200001N1+03421+01741100721ADDAA106000091GF101991011021008001001001MA1999999098361MD1999999+0071REMSYN070AAXX  31184 82586 32598 11413 10342 20174 39836 40072 81200 333 58007;EQDQ01  00002PRCP06
0208825860999992004090100004-05200-039300FM-12+021199999V0200501N006212200019N0010001N1+02541+01881100841ADDAA106000091GA1001+999999999GF100991001001999999001001KA1240M+03431MA1999999098471MD1999999+0041REMSYN082AAXX  01004 82586 32994 00512 10254 20188 39847 40084 333 10343 29060 55098 58004;EQDQ01  00002PRCP06
0202825860999992004090112004-05200-039300FM-12+021199999V0201401N003612200019N0200001N1+02721+01791101131ADDAA106000091GF101991999011008001001001KA1240N+02381MA1999999098751MD1999999+0061REMSYN076AAXX  01124 82586 32598 11407 10272 20179 39875 40113 82100 333 20238 58006;EQDQ01+000022SCOTLCQ02  00002PRCP06
0198825860999992004090200004-05200-039300FM-12+021199999V0200501N004119999999N0010001N1+02711+02031100891ADDAA106000091GF105991051001012501051001KA1240M+03531MA1999999098531MD1999999+0061REMSYN088AAXX  02004 82586 32694 50508 10271 20203 39853 40089 85050 333 10353 29055 55108 58006;EQDQ01  00002PRCP06
0186825860999992004090212004-05200-039300FM-12+021199999V0201401N006710075019N0200001N1+02741+01841101041ADDAA106000091GF107991071041008001001001KA1240N+02501MA1999999098681MD1999999-0071REMSYN076AAXX  02124 82586 32598 71413 10274 20184 39868 40104 87400 333 20250 59007;EQDQ01  00002PRCP06
0167825860999992004090218004-05200-039300FM-12+021199999V0201401N005712200019N0200001N1+03481+01411100771ADDAA106000091GF104991041021008001001001MA1999999098431MD1999999-0041REMSYN070AAXX  02184 82586 32598 41411 10348 20141 39843 40077 84200 333 59004;EQDQ01  00002PRCP06
0198825860999992004090300004-05200-039300FM-12+021199999V0203601N005712200019N0010001N1+02741+02021100861ADDAA106000091GF102991021021008001001001KA1240M+03471MA1999999098501MD1999999-0031REMSYN088AAXX  03004 82586 32594 23611 10274 20202 39850 40086 82200 333 10347 29054 55105 59003;EQDQ01  00002PRCP06
0186825860999992004090312004-05200-039300FM-12+021199999V0200901N005112200019N0200001N1+02621+01941101041ADDAA106000091GF104991041021008001001001KA1240N+02401MA1999999098681MD1999999+0001REMSYN076AAXX  03124 82586 32598 40910 10262 20194 39868 40104 84200 333 20240 58000;EQDQ01  00002PRCP06
0167825860999992004090318004-05200-039300FM-12+021199999V0201401N005112200019N0200001N1+03441+01711100721ADDAA106000091GF104991041021008001001001MA1999999098381MD1999999-0051REMSYN070AAXX  03184 82586 32598 41410 10344 20171 39838 40072 84200 333 59005;EQDQ01  00002PRCP06
0208825860999992004090400004-05200-039300FM-12+021199999V0203601N006712200019N0010001N1+02621+02011100841ADDAA106000091GA1001+999999999GF100991001001999999001001KA1240M+03431MA1999999098471MD1999999-0031REMSYN082AAXX  04004 82586 32994 03613 10262 20201 39847 40084 333 10343 29061 55108 59003;EQDQ01  00002PRCP06
0186825860999992004090412004-05200-039300FM-12+021199999V0201401N004112200019N0200001N1+02741+01611100731ADDAA106000091GF103991031021008001001001KA1240N+02301MA1999999098571MD1999999-0111REMSYN076AAXX  04124 82586 32598 31408 10274 20161 39857 40073 83200 333 20230 59011;EQDQ01  00002PRCP06
0167825860999992004090418004-05200-039300FM-12+021199999V0200901N003112200019N0200001N1+03341+01491100651ADDAA106000091GF104991011021008001001041MA1999999098291MD1999999-0091REMSYN070AAXX  04184 82586 32598 40906 10334 20149 39829 40065 81204 333 59009;EQDQ01  00002PRCP06
0208825860999992004090500004-05200-039300FM-12+021199999V0200501N005112200019N0010001N1+02591+01901100731ADDAA106000091GA1001+999999999GF100991001001999999001001KA1240M+03491MA1999999098371MD1999999-0101REMSYN082AAXX  05004 82586 32994 00510 10259 20190 39837 40073 333 10349 29054 55105 59010;EQDQ01  00002PRCP06
0186825860999992004090512004-05200-039300FM-12+021199999V0201401N004610075019N0200001N1+02831+01741100821ADDAA106000091GF105991051021008001001001KA1240N+02321MA1999999098461MD1999999-0111REMSYN076AAXX  05124 82586 32598 51409 10283 20174 39846 40082 85200 333 20232 59011;EQDQ01  00002PRCP06
0167825860999992004090518004-05200-039300FM-12+021199999V0201401N006710075019N0200001N1+03381+01621100511ADDAA106000091GF105991051041008001001001MA1999999098171MD1999999-0121REMSYN070AAXX  05184 82586 32598 51413 10338 20162 39817 40051 85400 333 59012;EQDQ01  00002PRCP06
0208825860999992004090600004-05200-039300FM-12+021199999V0203601N006712200019N0010001N1+02681+02161100731ADDAA106000091GA1001+999999999GF100991001001999999001001KA1240M+03501MA1999999098341MD1999999-0031REMSYN082AAXX  06004 82586 32994 03613 10268 20216 39834 40073 333 10350 29058 55098 59003;EQDQ01  00002PRCP06
0186825860999992004090612004-05200-039300FM-12+021199999V0201801N003112200019N0200001N1+02731+01951100791ADDAA106000091GF104991041021008001001001KA1240N+02351MA1999999098431MD1999999-0031REMSYN076AAXX  06124 82586 32598 41806 10273 20195 39843 40079 84200 333 20235 59003;EQDQ01  00002PRCP06
0167825860999992004090618004-05200-039300FM-12+021199999V0201401N003610075019N0200001N1+03381+01711100511ADDAA106000091GF105991051021008001001001MA1999999098171MD1999999+0001REMSYN070AAXX  06184 82586 32598 51407 10338 20171 39817 40051 85200 333 58000;EQDQ01  00002PRCP06
0208825860999992004090700004-05200-039300FM-12+021199999V0200501N003112200019N0010001N1+02721+01791100651ADDAA106000091GA1001+999999999GF100991001001999999001001KA1240M+03491MA1999999098291MD1999999-0051REMSYN082AAXX  07004 82586 32994 00506 10272 20179 39829 40065 333 10349 29054 55086 59005;EQDQ01  00002PRCP06
0186825860999992004090712004-05200-039300FM-12+021199999V0201401N005712200019N0200001N1+02801+01751100821ADDAA106000091GF104991021011008001001011KA1240N+02381MA1999999098461MD1999999+0031REMSYN076AAXX  07124 82586 32598 41411 10280 20175 39846 40082 82101 333 20238 58003;EQDQ01  00002PRCP06
0167825860999992004090718004-05200-039300FM-12+021199999V0201401N004112200019N0200001N1+03421+01561100561ADDAA106000091GF101991011021008001001001MA1999999098221MD1999999+0051REMSYN070AAXX  07184 82586 32598 11408 10342 20156 39822 40056 81200 333 58005;EQDQ01  00002PRCP06
0186825860999992004090812004-05200-039300FM-12+021199999V0201401N005112200019N0200001N1+02741+01781100791ADDAA106000091GF102991021021008001001001KA1240N+02351MA1999999098431MD1999999-0031REMSYN076AAXX  08124 82586 32598 21410 10274 20178 39843 40079 82200 333 20235 59003;EQDQ01  00002PRCP06
0167825860999992004090818004-05200-039300FM-12+021199999V0201401N004612200019N0200001N1+03461+01171100421ADDAA106000091GF101991011021008001001001MA1999999098081MD1999999-0141REMSYN070AAXX  08184 82586 32598 11409 10346 20117 39808 40042 81200 333 59014;EQDQ01  00002PRCP06
0208825860999992004090900004-05200-039300FM-12+021199999V0200501N008212200019N0010001N1+02661+01851100681ADDAA106000091GA1001+999999999GF100991001001999999001001KA1240M+03531MA1999999098321MD1999999+0061REMSYN082AAXX  09004 82586 32994 00516 10266 20185 39832 40068 333 10353 29048 55104 58006;EQDQ01  00002PRCP06
0186825860999992004090912004-05200-039300FM-12+021199999V0200901N004612200019N0200001N1+02741+01811100851ADDAA106000091GF104991041021008001001001KA1240N+02451MA1999999098491MD1999999+0061REMSYN076AAXX  09124 82586 32598 40909 10274 20181 39849 40085 84200 333 20245 58006;EQDQ01  00002PRCP06
0167825860999992004090918004-05200-039300FM-12+021199999V0201401N003110075019N0200001N1+03341+01451100561ADDAA106000091GF105991051021008001001001MA1999999098221MD1999999+0161REMSYN070AAXX  09184 82586 32598 51406 10334 20145 39822 40056 85200 333 58016;EQDQ01  00002PRCP06
0186825860999992004091012004-05200-039300FM-12+021199999V0201401N006210075019N0200001N1+02721+01791100951ADDAA106000091GF105991051021008001001001KA1240N+02301MA1999999098591MD1999999+0101REMSYN076AAXX  10124 82586 32598 51412 10272 20179 39859 40095 85200 333 20230 58010;EQDQ01  00002PRCP06
0167825860999992004091018004-05200-039300FM-12+021199999V0200901N005112200019N0200001N1+03281+01661100621ADDAA106000091GF104991041011008001001001MA1999999098371MD1999999+0051REMSYN070AAXX  10184 82586 32598 40910 10328 20166 39837 40062 84100 333 58005;EQDQ01  00002PRCP06
0208825860999992004091100004-05200-039300FM-12+021199999V0203601N006712200019N0010001N1+02701+01991100751ADDAA106000091GA1001+999999999GF100991001001999999001001KA1240M+03341MA1999999098391MD1999999+0021REMSYN082AAXX  11004 82586 32994 03613 10270 20199 39839 40075 333 10334 29056 55107 58002;EQDQ01  00002PRCP06
0186825860999992004091112004-05200-039300FM-12+021199999V0201401N005110075019N0200001N1+02821+01941100941ADDAA106000091GF106991061041008001001001KA1240N+02381MA1999999098581MD1999999-0011REMSYN076AAXX  11124 82586 32598 61410 10282 20194 39858 40094 86400 333 20238 59001;EQDQ01  00002PRCP06
0167825860999992004091118004-05200-039300FM-12+021199999V0201801N002610075019N0200001N1+03321+01851100621ADDAA106000091GF105991051021008001001001MA1999999098281MD1999999+0011REMSYN070AAXX  11184 82586 32598 51805 10332 20185 39828 40062 85200 333 58001;EQDQ01  00002PRCP06
0198825860999992004091200004-05200-039300FM-12+021199999V0200501N008212200019N0010001N1+02691+02041100831ADDAA106000091GF102991021021008001001001KA1240M+03451MA1999999098471MD1999999+0081REMSYN088AAXX  12004 82586 32594 20516 10269 20204 39847 40083 82200 333 10345 29059 55091 58008;EQDQ01  00002PRCP06
0186825860999992004091212004-05200-039300FM-12+021299999V0201401N005112200019N0200001N1+02711+01961101081ADDAA106000091GF104991041021008001001001KA1240N+02401MA1999999098721MD1999999+0141REMSYN076AAXX  12124 82586 32598 41410 10271 20196 39872 40108 84200 333 20240 58014;EQDQ01  00002PRCP06
0167825860999992004091218004-05200-039300FM-12+021199999V0201401N002112200019N0200001N1+03461+01641100721ADDAA106000091GF102991021011008001001001MA1999999098381MD1999999+0101REMSYN070AAXX  12184 82586 32598 21404 10346 20164 39838 40072 82100 333 58010;EQDQ01  00002PRCP06
0208825860999992004091300004-05200-039300FM-12+021199999V0200501N006712200019N0010001N1+02541+02041100891ADDAA106000091GA1001+999999999GF100991001001999999001001KA1240M+03531MA1999999098531MD1999999+0061REMSYN082AAXX  13004 82586 32994 00513 10254 20204 39853 40089 333 10353 29062 55104 58006;EQDQ01  00002PRCP06
0186825860999992004091312004-05200-039300FM-12+021199999V0200901N006710075019N0200001N1+02721+01821101171ADDAA106000091GF105991051021008001001001KA1240N+02351MA1999999098791MD1999999+0071REMSYN076AAXX  13124 82586 32598 50913 10272 20182 39879 40117 85200 333 20235 58007;EQDQ01  00002PRCP06
0167825860999992004091318004-05200-039300FM-12+021199999V0201401N005112200019N0200001N1+03381+01621100831ADDAA106000091GF104991021021008001001041MA1999999098481MD1999999+0101REMSYN070AAXX  13184 82586 32598 41410 10338 20162 39848 40083 82204 333 58010;EQDQ01  00002PRCP06
0208825860999992004091400004-05200-039300FM-12+021199999V0203601N006712200019N0010001N1+02721+02101100911ADDAA106000091GA1001+999999999GF100991001001999999001001KA1240M+03481MA1999999098551MD1999999+0021REMSYN082AAXX  14004 82586 32994 03613 10272 20210 39855 40091 333 10348 29058 55106 58002;EQDQ01  00002PRCP06
0186825860999992004091412004-05200-039300FM-12+021199999V0200901N008212200019N0200001N1+02821+01741101161ADDAA106000091GF104991041021008001001001KA1240N+02321MA1999999098801MD1999999+0011REMSYN076AAXX  14124 82586 32598 40916 10282 20174 39880 40116 84200 333 20232 58001;EQDQ01  00002PRCP06
0167825860999992004091418004-05200-039300FM-12+021199999V0201401N005112200019N0200001N1+03421+01671100821ADDAA106000091GF102991021021008001001001MA1999999098471MD1999999-0011REMSYN070AAXX  14184 82586 32598 21410 10342 20167 39847 40082 82200 333 59001;EQDQ01  00002PRCP06
0208825860999992004091500004-05200-039300FM-12+021199999V0200501N005112200019N0010001N1+02651+02031100941ADDAA106000091GA1001+999999999GF100991001001999999001001KA1240M+03491MA1999999098581MD1999999+0031REMSYN082AAXX  15004 82586 32994 00510 10265 20203 39858 40094 333 10349 29056 55103 58003;EQDQ01  00002PRCP06
0186825860999992004091512004-05200-039300FM-12+021199999V0201401N005112200019N0200001N1+02791+02041101141ADDAA106000091GF101991011011008001001001KA1240N+02451MA1999999098781MD1999999-0021REMSYN076AAXX  15124 82586 32598 11410 10279 20204 39878 40114 81100 333 20245 59002;EQDQ01  00002PRCP06
0167825860999992004091518004-05200-039300FM-12+021199999V0201401N003112200019N0200001N1+03381+01921100731ADDAA106000091GF101991011011008001001001MA1999999098391MD1999999-0081REMSYN070AAXX  15184 82586 32598 11406 10338 20192 39839 40073 81100 333 59008;EQDQ01  00002PRCP06
0208825860999992004091600004-05200-039300FM-12+021199999V0200501N005112200019N0010001N1+02671+02091100841ADDAA106000091GA1001+999999999GF100991001001999999001001KA1240M+03411MA1999999098481MD1999999-0101REMSYN082AAXX  16004 82586 32994 00510 10267 20209 39848 40084 333 10341 29061 55102 59010;EQDQ01  00002PRCP06
0186825860999992004091612004-05200-039300FM-12+021199999V0201401N003112200019N0200001N1+02741+01811100971ADDAA106000091GF104991041021008001001001KA1240N+02321MA1999999098611MD1999999-0171REMSYN076AAXX  16124 82586 32598 41406 10274 20181 39861 40097 84200 333 20232 59017;EQDQ01  00002PRCP06
0167825860999992004091618004-05200-039300FM-12+021199999V0200901N001512200019N0200001N1+03421+01651100641ADDAA106000091GF101991011021008001001001MA1999999098301MD1999999-0091REMSYN070AAXX  16184 82586 32598 10903 10342 20165 39830 40064 81200 333 59009;EQDQ01  00002PRCP06
0208825860999992004091700004-05200-039300FM-12+021199999V0200501N006212200019N0010001N1+02721+02031100811ADDAA106000091GA1001+999999999GF100991001001999999001001KA1240M+03491MA1999999098451MD1999999-0031REMSYN082AAXX  17004 82586 32994 00512 10272 20203 39845 40081 333 10349 29056 55101 59003;EQDQ01  00002PRCP06
0186825860999992004091712004-05200-039300FM-12+021199999V0200901N005112200019N0200001N1+02791+02061101051ADDAA106000091GF101991011021008001001001KA1240N+02401MA1999999098691MD1999999+0081REMSYN076AAXX  17124 82586 32598 10910 10279 20206 39869 40105 81200 333 20240 58008;EQDQ01  00002PRCP06
0167825860999992004091718004-05200-039300FM-12+021199999V0201401N004612200019N0200001N1+03521+01391100691ADDAA106000091GF101991011021008001001001MA1999999098351MD1999999+0051REMSYN070AAXX  17184 82586 32598 11409 10352 20139 39835 40069 81200 333 58005;EQDQ01  00002PRCP06
0208825860999992004091800004-05200-039300FM-12+021199999V0203601N005712200019N0010001N1+02681+02021100811ADDAA106000091GA1001+999999999GF100991001001999999001001KA1240M+03531MA1999999098451MD1999999+0001REMSYN082AAXX  18004 82586 32994 03611 10268 20202 39845 40081 333 10353 29057 55095 58000;EQDQ01  00002PRCP06
0167825860999992004091818004-05200-039300FM-12+021199999V0200901N003112200019N0200001N1+03481+01611100641ADDAA106000091GF101991011021008001001001MA1999999098301MD1999999-0051REMSYN070AAXX  18184 82586 32598 10906 10348 20161 39830 40064 81200 333 59005;EQDQ01  00002PRCP06
0208825860999992004091900004-05200-039300FM-12+021299999V0203601N004112200019N0010001N1+02761+01971100821ADDAA106000091GA1001+999999999GF100991001001999999001001KA1240M+03531MA1999999098461MD1999999+0011REMSYN082AAXX  19004 82586 32994 03608 10276 20197 39846 40082 333 10353 29055 55100 58001;EQDQ01  00002PRCP06
0186825860999992004091912004-05200-039300FM-12+021299999V0201401N006212200019N0200001N1+02861+01921100981ADDAA106000091GF104991041021008001001001KA1240N+02451MA1999999098621MD1999999-0031REMSYN076AAXX  19124 82586 32598 41412 10286 20192 39862 40098 84200 333 20245 59003;EQDQ01  00002PRCP06
0183825860999992004091918004-05200-039300FM-12+021299999V0201401N006712200019N0200001N1+03401+01811100062ADDAA106000091GF103991031021008001001001MA1999999098311MD1999999+0011REMSYN070AAXX  19184 82586 32598 31413 10340 20181 39831 40006 83200 333 58001;EQDQ01+100063APOSLPQ02  00002PRCP06
0208825860999992004092000004-05200-039300FM-12+021299999V0203601N005112200019N0010001N1+02741+02001100771ADDAA106000091GA1001+999999999GF100991001001999999001001KA1240M+03501MA1999999098421MD1999999-0041REMSYN082AAXX  20004 82586 32994 03610 10274 20200 39842 40077 333 10350 29056 55103 59004;EQDQ01  00002PRCP06
0186825860999992004092012004-05200-039300FM-12+021199999V0201401N003112200019N0200001N1+02841+01761100921ADDAA106000091GF104991041021008001001001KA1240N+02451MA1999999098561MD1999999-0061REMSYN076AAXX  20124 82586 32598 41406 10284 20176 39856 40092 84200 333 20245 59006;EQDQ01  00002PRCP06
0151825860999992004092018004-05200-039300FM-12+021199999V0201401N005119999999N0200001N1+03481+01791100681ADDAA106000091GF105991021001008001001041MA1999999098391REMSYN068AAXX  20184 82586 32598 51410 10348 20179 39839 40068 82004 333 592;EQDQ01  00002PRCP06
0208825860999992004092100004-05200-039300FM-12+021199999V0200501N007212200019N0010001N1+02761+01971100811ADDAA106000091GA1001+999999999GF100991001001999999001001KA1240M+03541MA1999999098461MD1999999+0041REMSYN082AAXX  21004 82586 32994 00514 10276 20197 39846 40081 333 10354 29053 55099 58004;EQDQ01  00002PRCP06
0186825860999992004092112004-05200-039300FM-12+021199999V0200901N006710075019N0200001N1+02721+01951100981ADDAA106000091GF105991051021008001001001KA1240N+02381MA1999999098621MD1999999+0061REMSYN076AAXX  21124 82586 32598 50913 10272 20195 39862 40098 85200 333 20238 58006;EQDQ01  00002PRCP06
0167825860999992004092118004-05200-039300FM-12+021199999V0200901N005712200019N0200001N1+03421+01651100691ADDAA106000091GF104991041021008001001001MA1999999098351MD1999999+0061REMSYN070AAXX  21184 82586 32598 40911 10342 20165 39835 40069 84200 333 58006;EQDQ01  00002PRCP06
0208825860999992004092200004-05200-039300FM-12+021199999V0200501N007212200019N0010001N1+02681+01991100831ADDAA106000091GA1001+999999999GF100991001001999999001001KA1240M+03491MA1999999098471MD1999999+0011REMSYN082AAXX  22004 82586 32994 00514 10268 20199 39847 40083 333 10349 29058 55107 58001;EQDQ01  00002PRCP06
0186825860999992004092212004-05200-039300FM-12+021199999V0200901N005110075019N0200001N1+02701+01631101121ADDAA106000091GF106991061041008001001001KA1240N+02301MA1999999098751MD1999999+0131REMSYN076AAXX  22124 82586 32598 60910 10270 20163 39875 40112 86400 333 20230 58013;EQDQ01  00002PRCP06
0167825860999992004092218004-05200-039300FM-12+021199999V0200901N004110075019N0200001N1+03221+01911100851ADDAA106000091GF105991051021008001001001MA1999999098501MD1999999+0151REMSYN070AAXX  22184 82586 32598 50908 10322 20191 39850 40085 85200 333 58015;EQDQ01  00002PRCP06
0198825860999992004092300004-05200-039300FM-12+021199999V0203601N006712200019N0010001N1+02701+01961100931ADDAA106000091GF102991021051008001001001KA1240M+03451MA1999999098571MD1999999+0101REMSYN088AAXX  23004 82586 32594 23613 10270 20196 39857 40093 82500 333 10345 29059 55068 58010;EQDQ01  00002PRCP06
0186825860999992004092312004-05200-039300FM-12+021199999V0200901N006712200019N0200001N1+02821+01861101131ADDAA106000091GF102991021021008001001001KA1240N+02301MA1999999098771MD1999999+0021REMSYN076AAXX  23124 82586 32598 20913 10282 20186 39877 40113 82200 333 20230 58002;EQDQ01  00002PRCP06
0167825860999992004092318004-05200-039300FM-12+021199999V0201401N003112200019N0200001N1+03381+01871100791ADDAA106000091GF102991021021008001001001MA1999999098441MD1999999-0061REMSYN070AAXX  23184 82586 32598 21406 10338 20187 39844 40079 82200 333 59006;EQDQ01  00002PRCP06
0198825860999992004092400004-05200-039300FM-12+021199999V0203601N005712200019N0010001N1+02721+02001100891ADDAA106000091GF104991041011008001001001KA1240M+03451MA1999999098531MD1999999-0041REMSYN088AAXX  24004 82586 32594 43611 10272 20200 39853 40089 84100 333 10345 29057 55104 59004;EQDQ01  00002PRCP06
0186825860999992004092412004-05200-039300FM-12+021199999V0201401N004112200019N0200001N1+02721+01981101051ADDAA106000091GF104991041021008001001001KA1240N+02391MA1999999098691MD1999999-0081REMSYN076AAXX  24124 82586 32598 41408 10272 20198 39869 40105 84200 333 20239 59008;EQDQ01  00002PRCP06
0167825860999992004092418004-05200-039300FM-12+021199999V0201401N003612200019N0200001N1+03441+01801100661ADDAA106000091GF102991021021008001001001MA1999999098321MD1999999-0121REMSYN070AAXX  24184 82586 32598 21407 10344 20180 39832 40066 82200 333 59012;EQDQ01  00002PRCP06
0208825860999992004092500004-05200-039300FM-12+021199999V0203601N006712200019N0010001N1+02641+01981100841ADDAA106000091GA1001+999999999GF100991001001999999001001KA1240M+03501MA1999999098481MD1999999-0051REMSYN082AAXX  25004 82586 32994 03613 10264 20198 39848 40084 333 10350 29059 55096 59005;EQDQ01  00002PRCP06
0186825860999992004092512004-05200-039300FM-12+021199999V0201401N005110075019N0200001N1+02721+01881101011ADDAA106000091GF105991051021008001001001KA1240N+02331MA1999999098651MD1999999-0041REMSYN076AAXX  25124 82586 32598 51410 10272 20188 39865 40101 85200 333 20233 59004;EQDQ01  00002PRCP06
0167825860999992004092518004-05200-039300FM-12+021199999V0201401N004610075019N0200001N1+01421+01411100651ADDAA106000091GF105991051011008001001001MA1999999098311MD1999999-0011REMSYN070AAXX  25184 82586 32598 51409 10142 20141 39831 40065 85100 333 59001;EQDQ01  00002PRCP06
0198825860999992004092600004-05200-039300FM-12+021199999V0203601N006712200019N0010001N1+02541+02041100811ADDAA106000091GF102991021011008001001001KA1240M+03511MA1999999098431MD1999999-0031REMSYN088AAXX  26004 82586 32594 23613 10254 20204 39843 40081 82100 333 10351 29060 55091 59003;EQDQ01  00002PRCP06
0186825860999992004092612004-05200-039300FM-12+021299999V0200901N004610075019N0200001N1+02741+02021101051ADDAA106000091GF106991061041008001001001KA1240N+02431MA1999999098681MD1999999+0031REMSYN076AAXX  26124 82586 32598 60909 10274 20202 39868 40105 86400 333 20243 58003;EQDQ01  00002PRCP06
0167825860999992004092618004-05200-039300FM-12+021299999V0200501N002612200019N0200001N1+03361+01651100721ADDAA106000091GF104991041021008001001001MA1999999098381MD1999999+0071REMSYN070AAXX  26184 82586 32598 40505 10336 20165 39838 40072 84200 333 58007;EQDQ01  00002PRCP06
0198825860999992004092700004-05200-039300FM-12+021299999V0203601N005712200019N0010001N1+02621+02051100881ADDAA106000091GF102991021021008001001001KA1240M+03491MA1999999098621MD1999999+0071REMSYN088AAXX  27004 82586 32594 23611 10262 20205 39862 40088 82200 333 10349 29061 55103 58007;EQDQ01  00002PRCP06
0186825860999992004092712004-05200-039300FM-12+021299999V0201401N004112200019N0200001N1+02841+01761100981ADDAA106000091GF104991041021008001001001KA1240N+02301MA1999999098621MD1999999-0061REMSYN076AAXX  27124 82586 32598 41408 10284 20176 39862 40098 84200 333 20230 59006;EQDQ01  00002PRCP06
0167825860999992004092718004-05200-039300FM-12+021199999V0200901N005112200019N0200001N1+03521+01601100711ADDAA106000091GF105991031021008001001041MA1999999098371MD1999999-0011REMSYN070AAXX  27184 82586 32598 50910 10352 20160 39837 40071 83204 333 59001;EQDQ01  00002PRCP06
0198825860999992004092800004-05200-039300FM-12+021199999V0200501N005110120019N0010001N1+02661+02161100941ADDAA106000091GF105991051001012501021001KA1240M+03571MA1999999098581MD1999999+0061REMSYN088AAXX  28004 82586 32694 50510 10266 20216 39858 40094 85020 333 10357 29058 55100 58006;EQDQ01  00002PRCP06
0186825860999992004092812004-05200-039300FM-12+021199999V0200901N004612200019N0200001N1+02661+01921100931ADDAA106000091GF102991011021008001001051KA1240N+02361MA1999999098571MD1999999-0051REMSYN076AAXX  28124 82586 32598 20909 10266 20192 39857 40093 81205 333 20236 59005;EQDQ01  00002PRCP06
0168825860999992004092818004-05200-039300FM-12+021199999V0201401N005112200019N0200001N1+03541+01621100501ADDAA106000091GF102991021021008001001001MD1999999-0201REMSYN070AAXX  28184 82586 32598 21410 10354 20162 33916 40050 82200 333 59020;EQDQ01+039161APOSP Q02  00002PRCP06
0208825860999992004092900004-05200-039300FM-12+021199999V0200501N006712200019N0010001N1+02661+02041100991ADDAA106000091GA1001+999999999GF100991001001999999001001KA1240M+03571MA1999999098331MD1999999-0251REMSYN082AAXX  29004 82586 32994 00513 10266 20204 39833 40099 333 10357 29057 55107 59025;EQDQ01  00002PRCP06
0186825860999992004092912004-05200-039300FM-12+021199999V0200501N005112200019N0200001N1+02801+01901100911ADDAA106000091GF102991021021008001001001KA1240N+02401MA1999999098551MD1999999-0021REMSYN076AAXX  29124 82586 32598 20510 10280 20190 39855 40091 82200 333 20240 59002;EQDQ01  00002PRCP06
0167825860999992004092918004-05200-039300FM-12+021199999V0201401N003112200019N0200001N1+03461+01641100531ADDAA106000091GF101991011011008001001001MA1999999098191MD1999999+0031REMSYN070AAXX  29184 82586 32598 11406 10346 20164 39819 40053 81100 333 58003;EQDQ01  00002PRCP06
0208825860999992004093000004-05200-039300FM-12+021199999V0200501N007212200019N0010001N1+02661+02001100631ADDAA106000091GA1001+999999999GF100991001001999999001001KA1240M+03561MA1999999098271MD1999999-0061REMSYN082AAXX  30004 82586 32994 00514 10266 20200 39827 40063 333 10356 29057 55107 59006;EQDQ01  00002PRCP06
0196825860999992004093012004-05200-039300FM-12+021199999V0200901N005112200019N0200001N1+02781+01841100841ADDAA106000091GA1001+999999999GF100991001001999999001001KA1240N+02321MA1999999098481MD1999999-0071REMSYN070AAXX  30124 82586 32998 00910 10278 20184 39848 40084 333 20232 59007;EQDQ01  00002PRCP06
0167825860999992004093018004-05200-039300FM-12+021199999V0200901N005112200019N0200001N1+03541+01301100511ADDAA106000091GF101991011021008001001001MA1999999098171MD1999999-0021REMSYN070AAXX  30184 82586 32598 10910 10354 20130 39817 40051 81200 333 59002;EQDQ01  00002PRCP06
0224825860999992004100100004-05200-039300FM-12+021199999V0200501N007712200019N0010001N1+02661+02001100661ADDAA106000091GA1001+999999999GF100991001001999999001001KA1240M+03581MA1999999999999MD1999999+0031REMSYN082AAXX  01004 82586 32994 00515 10266 20200 39430 40066 333 10358 29054 55106 58003;EQDQ01  00002PRCP06Q02 094303APOSP 
0186825860999992004100112004-05200-039300FM-12+021199999V0200901N005112200019N0200001N1+02741+01781100891ADDAA106000091GF101991011021008001001001KA1240N+02351MA1999999098531MD1999999+0051REMSYN076AAXX  01124 82586 32598 10910 10274 20178 39853 40089 81200 333 20235 58005;EQDQ01  00002PRCP06
0167825860999992004100118004-05200-039300FM-12+021199999V0201401N003612200019N0200001N1+03491+01791100541ADDAA106000091GF102991021021008001001001MA1999999098201MD1999999-0031REMSYN070AAXX  01184 82586 32598 21407 10349 20179 39820 40054 82200 333 59003;EQDQ01  00002PRCP06
0208825860999992004100200004-05200-039300FM-12+021199999V0200501N006712200019N0010001N1+02521+02071100691ADDAA106000091GA1001+999999999GF100991001001999999001001KA1240M+03531MA1999999098331MD1999999+0031REMSYN082AAXX  02004 82586 32994 00513 10252 20207 39833 40069 333 10353 29061 55105 58003;EQDQ01  00002PRCP06
0186825860999992004100212004-05200-039300FM-12+021199999V0200901N005712200019N0200001N1+02821+01771100871ADDAA106000091GF103991031021008001001001KA1240N+02301MA1999999098511MD1999999-0021REMSYN076AAXX  02124 82586 32598 30911 10282 20177 39851 40087 83200 333 20230 59002;EQDQ01  00002PRCP06
0167825860999992004100218004-05200-039300FM-12+021199999V0200901N003112200019N0200001N1+03421+01651100511ADDAA106000091GF103991031021008001001001MA1999999098171MD1999999-0031REMSYN070AAXX  02184 82586 32598 30906 10342 20165 39817 40051 83200 333 59003;EQDQ01  00002PRCP06
0208825860999992004100300004-05200-039300FM-12+021199999V0200501N006712200019N0010001N1+02621+02011100651ADDAA106000091GA1001+999999999GF100991001001999999001001KA1240M+03561MA1999999098291MD1999999-0041REMSYN082AAXX  03004 82586 32994 00513 10262 20201 39829 40065 333 10356 29057 55103 59004;EQDQ01  00002PRCP06
0186825860999992004100312004-05200-039300FM-12+021199999V0200501N004610075019N0200001N1+02641+02121100881ADDAA106000091GF108991081071008001999999KA1240N+02351MA1999999098521MD1999999+0011REMSYN076AAXX  03124 82586 32598 80509 10264 20212 39852 40088 887// 333 20235 58001;EQDQ01  00002PRCP06
0167825860999992004100318004-05200-039300FM-12+021299999V0200901N003612200019N0200001N1+03321+01851100551ADDAA106000091GF104991041021008001001001MA1999999098211MD1999999+0041REMSYN070AAXX  03184 82586 32598 40907 10332 20185 39821 40055 84200 333 58004;EQDQ01  00002PRCP06
0214825860999992004100400004-05200-039300FM-12+021299999V0200501N008212200019N0010001N1+02551+02021100691ADDAA106000091GF102991999021008001001001KA1240M+03501MA1999999098331MD1999999+0041REMSYN088AAXX  04004 82586 32594 20516 10255 20202 39833 40069 86200 333 10350 29066 55068 58004;EQDQ01+000062SCOTLCQ02  00002PRCP06
0186825860999992004100412004-05200-039300FM-12+021199999V0200901N005110075019N0200001N1+02701+02171100831ADDAA106000091GF108991081071008001999999KA1240N+02431MA1999999098471MD1999999-0051REMSYN076AAXX  04124 82586 32598 80910 10270 20217 39847 40083 887// 333 20243 59005;EQDQ01  00002PRCP06
0167825860999992004100418004-05200-039300FM-12+021199999V0201401N002112200019N0200001N1+03501+01721100551ADDAA106000091GF104991041021008001001001MA1999999098211MD1999999+0001REMSYN070AAXX  04184 82586 32598 41404 10350 20172 39821 40055 84200 333 58000;EQDQ01  00002PRCP06
0208825860999992004100500004-05200-039300FM-12+021199999V0200501N008212200019N0010001N1+02541+02041100731ADDAA106000091GA1001+999999999GF100991001001999999001001KA1240M+03571MA1999999098361MD1999999+0031REMSYN082AAXX  05004 82586 32994 00516 10254 20204 39836 40073 333 10357 29063 55086 58003;EQDQ01  00002PRCP06
0186825860999992004100512004-05200-039300FM-12+021199999V0200901N003110075019N0200001N1+02621+02161100841ADDAA106000091GF106991061021008001001001KA1240N+02331MA1999999098471MD1999999+0011REMSYN076AAXX  05124 82586 32598 60906 10262 20216 39847 40084 86200 333 20233 58001;EQDQ01  00002PRCP06
0167825860999992004100518004-05200-039300FM-12+021199999V0201401N004612200019N0200001N1+03501+01581100051ADDAA106000091GF103991031021008001001001MA1999999098221MD1999999+0011REMSYN070AAXX  05184 82586 32598 31409 10350 20158 39822 40005 83200 333 58001;EQDQ01  00002PRCP06
0208825860999992004100600004-05200-039300FM-12+021199999V0200501N009812200019N0010001N1+02501+02051100691ADDAA106000091GA1001+999999999GF100991001001999999001001KA1240M+03551MA1999999098321MD1999999-0041REMSYN082AAXX  06004 82586 32994 00519 10250 20205 39832 40069 333 10355 29065 55083 59004;EQDQ01  00002PRCP06
0186825860999992004100612004-05200-039300FM-12+021199999V0200501N006710075019N0040001N1+02701+01831100941ADDAA106000091GF106991061041008001001001KA1240N+02301MA1999999098571MD1999999+0101REMSYN076AAXX  06124 82586 32596 60513 10270 20183 39857 40094 86400 333 20230 58010;EQDQ01  00002PRCP06
0183825860999992004100618004-05200-039300FM-12+021199999V0203601N003119999999N0200001N1+03281+01741100631ADDAA106000091GF105991999021008001001001MA1999999098271MD1999999+0051REMSYN070AAXX  06184 82586 32598 53606 10328 20174 39827 40063 84200 333 58005;EQDQ01+000042SCOTLCQ02  00002PRCP06
0208825860999992004100700004-05200-039300FM-12+021199999V0203601N006212200019N0010001N1+02621+02011100791ADDAA106000091GA1001+999999999GF100991001001999999001001KA1240M+03491MA1999999098431MD1999999-0111REMSYN082AAXX  07004 82586 32994 03612 10262 20201 39843 40079 333 10349 29059 55093 59011;EQDQ01  00002PRCP06
0186825860999992004100712004-05200-039300FM-12+021199999V0200901N005112200019N0200001N1+02821+01581100941ADDAA106000091GF104991041021008001001001KA1240N+02321MA1999999098581MD1999999+0011REMSYN076AAXX  07124 82586 32598 40910 10282 20158 39858 40094 84200 333 20232 58001;EQDQ01  00002PRCP06
0167825860999992004100718004-05200-039300FM-12+021199999V0200901N005112200019N0200001N1+03441+01611100671ADDAA106000091GF105991031021008001001041MA1999999098331MD1999999+0061REMSYN070AAXX  07184 82586 32598 50910 10344 20161 39833 40067 83204 333 58006;EQDQ01  00002PRCP06
0208825860999992004100800004-05200-039300FM-12+021199999V0200501N006712200019N0010001N1+02571+01991100741ADDAA106000091GA1001+999999999GF100991001001999999001001KA1240M+03531MA1999999098381MD1999999-0051REMSYN082AAXX  08004 82586 32994 00513 10257 20199 39838 40074 333 10353 29056 55102 59005;EQDQ01  00002PRCP06
0186825860999992004100812004-05200-039300FM-12+021199999V0200501N005110075019N0200001N1+02401+02151100951ADDAA106000091GF108991081071008001999999KA1240N+02201MA1999999098561MD1999999-0021REMSYN076AAXX  08124 82586 32598 80510 10240 20215 39856 40095 887// 333 20220 59002;EQDQ01  00002PRCP06
0167825860999992004100818004-05200-039300FM-12+021199999V0200901N005712200019N0200001N1+03481+01751100631ADDAA106000091GF103991021011008001001041MA1999999098281MD1999999-0051REMSYN070AAXX  08184 82586 32598 30911 10348 20175 39828 40063 82104 333 59005;EQDQ01  00002PRCP06
0208825860999992004100900004-05200-039300FM-12+021199999V0200501N006212200019N0010001N1+02621+01861100971ADDAA106000091GA1001+999999999GF100991001001999999001001KA1240M+03571MA1999999098581MD1999999+0201REMSYN082AAXX  09004 82586 32994 00512 10262 20186 39858 40097 333 10357 29062 55074 58020;EQDQ01  00002PRCP06
0186825860999992004100912004-05200-039300FM-12+021199999V0200501N005110075019N0200001N1+02881+01861100981ADDAA106000091GF105991051021008001001001KA1240N+02381MA1999999098621MD1999999+0061REMSYN076AAXX  09124 82586 32598 50510 10288 20186 39862 40098 85200 333 20238 58006;EQDQ01  00002PRCP06
0167825860999992004100918004-05200-039300FM-12+021199999V0200901N005112200019N0200001N1+03441+01581100651ADDAA106000091GF104991041021008001001001MA1999999098311MD1999999+0031REMSYN070AAXX  09184 82586 32598 40910 10344 20158 39831 40065 84200 333 58003;EQDQ01  00002PRCP06
0208825860999992004101000004-05200-039300FM-12+021199999V0203601N006212200019N0010001N1+02651+02031100841ADDAA106000091GA1001+999999999GF100991001001999999001001KA1240M+03551MA1999999098481MD1999999-0101REMSYN082AAXX  10004 82586 32994 03612 10265 20203 39848 40084 333 10355 29056 55096 59010;EQDQ01  00002PRCP06
0186825860999992004101012004-05200-039300FM-12+021199999V0200901N005710075019N0200001N1+02861+01841101011ADDAA106000091GF106991061021008001001001KA1240N+02401MA1999999098651MD1999999+0031REMSYN076AAXX  10124 82586 32598 60911 10286 20184 39865 40101 86200 333 20240 58003;EQDQ01  00002PRCP06
0208825860999992004101100004-05200-039300FM-12+021199999V0203601N007212200019N0010001N1+02731+01931100821ADDAA106000091GA1001+999999999GF100991001001999999001001KA1240M+03571MA1999999098471MD1999999-0011REMSYN082AAXX  11004 82586 32994 03614 10273 20193 39847 40082 333 10357 29053 55106 59001;EQDQ01  00002PRCP06
0186825860999992004101112004-05200-039300FM-12+021299999V0200501N005710075019N0200001N1+02941+01911100931ADDAA106000091GF105991051021008001001001KA1240N+02331MA1999999098571MD1999999-0081REMSYN076AAXX  11124 82586 32598 50511 10294 20191 39857 40093 85200 333 20233 59008;EQDQ01  00002PRCP06
0167825860999992004101118004-05200-039300FM-12+021299999V0200901N005712200019N0200001N1+03491+01881100561ADDAA106000091GF102991021021008001001001MA1999999098221MD1999999-0121REMSYN070AAXX  11184 82586 32598 20911 10349 20188 39822 40056 82200 333 59012;EQDQ01  00002PRCP06
0186825860999992004101212004-05200-039300FM-12+021199999V0200901N006212200019N0200001N1+02761+01831100931ADDAA106000091GF102991021021008001001001KA1240N+02401MA1999999098581MD1999999+0011REMSYN076AAXX  12124 82586 32598 20912 10276 20183 39858 40093 82200 333 20240 58001;EQDQ01  00002PRCP06
0183825860999992004101218004-05200-039300FM-12+021199999V0201401N005112200019N0200001N1+03541+01571100541ADDAA106000091GF102991001001999999001041MA1999999098201MD1999999-0021REMSYN070AAXX  12184 82586 32598 21410 10354 20157 39820 40054 80004 333 59002;EQDQ01+008002SCOLCBQ02  00002PRCP06
0208825860999992004101300004-05200-039300FM-12+021199999V0203601N006712200019N0010001N1+02551+01951100681ADDAA106000091GA1001+999999999GF100991001001999999001001KA1240M+03591MA1999999098321MD1999999-0041REMSYN082AAXX  13004 82586 32994 03613 10255 20195 39832 40068 333 10359 29057 55108 59004;EQDQ01  00002PRCP06
0186825860999992004101312004-05200-039300FM-12+021199999V0201401N003112200019N0200001N1+02841+01651100891ADDAA106000091GF102991021011008001001001KA1240N+02501MA1999999098531MD1999999-0051REMSYN076AAXX  13124 82586 32598 21406 10284 20165 39853 40089 82100 333 20250 59005;EQDQ01  00002PRCP06
0177825860999992004101318004-05200-039300FM-12+021199999V0200401N004112200019N0200001N1+03481+01661100521ADDAA106000091GA1001+999999999GF100991001001999999001001MA1999999098181MD1999999-0021REMSYN064AAXX  13184 82586 32998 00408 10348 20166 39818 40052 333 59002;EQDQ01  00002PRCP06
0208825860999992004101400004-05200-039300FM-12+021199999V0203601N009312200019N0010001N1+02601+02031100721ADDAA106000091GA1001+999999999GF100991001001999999001001KA1240M+03531MA1999999098361MD1999999+0041REMSYN082AAXX  14004 82586 32994 03618 10260 20203 39836 40072 333 10353 29056 55109 58004;EQDQ01  00002PRCP06
0202825860999992004101412004-05200-039300FM-12+021199999V0201401N005712200019N0200001N1+02821+01891100881ADDAA106000091GF103991999021008001001001KA1240N+02301MA1999999098521MD1999999-0011REMSYN076AAXX  14124 82586 32598 31411 10282 20189 39852 40088 84200 333 20230 59001;EQDQ01+000042SCOTLCQ02  00002PRCP06
0183825860999992004101418004-05200-039300FM-12+021199999V0200901N004612200019N0200001N1+03461+01911100571ADDAA106000091GF102991999021008001001001MA1999999098231MD1999999+0051REMSYN070AAXX  14184 82586 32598 20909 10346 20191 39823 40057 83200 333 58005;EQDQ01+000032SCOTLCQ02  00002PRCP06
0208825860999992004101500004-05200-039300FM-12+021199999V0203601N005712200019N0010001N1+02621+02011100721ADDAA106000091GA1001+999999999GF100991001001999999001001KA1240M+03551MA1999999098631MD1999999+0001REMSYN082AAXX  15004 82586 32994 03611 10262 20201 39863 40072 333 10355 29058 55104 58000;EQDQ01  00002PRCP06
0186825860999992004101512004-05200-039300FM-12+021199999V0200901N005110075019N0200001N1+02721+02051100891ADDAA106000091GF106991061021008001001001KA1240N+02401MA1999999098531MD1999999+0011REMSYN076AAXX  15124 82586 32598 60910 10272 20205 39853 40089 86200 333 20240 58001;EQDQ01  00002PRCP06
0208825860999992004101600004-05200-039300FM-12+021199999V0200501N008212200019N0010001N1+02611+01921100771ADDAA106000091GA1001+999999999GF100991001001999999001001KA1240M+03641MA1999999098411MD1999999+0051REMSYN082AAXX  16004 82586 32994 00516 10261 20192 39841 40077 333 10364 29057 55100 58005;EQDQ01  00002PRCP06
0186825860999992004101612004-05200-039300FM-12+021299999V0201401N007712200019N0200001N1+02941+01641100861ADDAA106000091GF101991011011008001001001KA1240N+02351MA1999999098511MD1999999-0021REMSYN076AAXX  16124 82586 32598 11415 10294 20164 39851 40086 81100 333 20235 59002;EQDQ01  00002PRCP06
0167825860999992004101618004-05200-039300FM-12+021299999V0201401N005112200019N0200001N1+03511+01531100531ADDAA106000091GF101991011021008001001001MA1999999098191MD1999999-0021REMSYN070AAXX  16184 82586 32598 11410 10351 20153 39819 40053 81200 333 59002;EQDQ01  00002PRCP06
0208825860999992004101700004-05200-039300FM-12+021299999V0203601N006712200019N0010001N1+02701+01881100711ADDAA106000091GA1001+999999999GF100991001001999999001001KA1240M+03631MA1999999098361MD1999999-0051REMSYN082AAXX  17004 82586 32994 03613 10270 20188 39836 40071 333 10363 29050 55108 59005;EQDQ01  00002PRCP06
0186825860999992004101712004-05200-039300FM-12+021299999V0200501N004112200019N0200001N1+02881+01701100861ADDAA106000091GF101991011011008001001001KA1240N+02421MA1999999098511MD1999999+0001REMSYN076AAXX  17124 82586 32598 10508 10288 20170 39851 40086 81100 333 20242 58000;EQDQ01  00002PRCP06
0167825860999992004101718004-05200-039300FM-12+021299999V0200501N004612200019N0200001N1+03511+01481100511ADDAA106000091GF102991021021008001001001MA1999999098171MD1999999-0021REMSYN070AAXX  17184 82586 32598 20509 10351 20148 39817 40051 82200 333 59002;EQDQ01  00002PRCP06
0208825860999992004101800004-05200-039300FM-12+021199999V0200501N006712200019N0010001N1+02751+02001100641ADDAA106000091GA1001+999999999GF100991001001999999001001KA1240M+03591MA1999999098301MD1999999-0061REMSYN082AAXX  18004 82586 32994 00513 10275 20200 39830 40064 333 10359 29052 55110 59006;EQDQ01  00002PRCP06
0186825860999992004101812004-05200-039300FM-12+021199999V0200501N004612200019N0200001N1+02791+01911100911ADDAA106000091GF104991041021008001001001KA1240N+02331MA1999999098551MD1999999+0041REMSYN076AAXX  18124 82586 32598 40509 10279 20191 39855 40091 84200 333 20233 58004;EQDQ01  00002PRCP06
0167825860999992004101818004-05200-039300FM-12+021199999V0200501N004612200019N0200001N1+03491+01711100611ADDAA106000091GF104991041021008001001001MA1999999098271MD1999999+0101REMSYN070AAXX  18184 82586 32598 40509 10349 20171 39827 40061 84200 333 58010;EQDQ01  00002PRCP06
0208825860999992004101900004-05200-039300FM-12+021199999V0200501N006712200019N0010001N1+02661+02071100731ADDAA106000091GA1001+999999999GF100991001001999999001001KA1240M+03581MA1999999098371MD1999999+0071REMSYN082AAXX  19004 82586 32994 00513 10266 20207 39837 40073 333 10358 29059 55109 58007;EQDQ01  00002PRCP06
0186825860999992004101912004-05200-039300FM-12+021199999V0200901N003110075019N0200001N1+02701+02011100891ADDAA106000091GF106991061041008001001001KA1240N+02361MA1999999098531MD1999999-0021REMSYN076AAXX  19124 82586 32598 60906 10270 20201 39853 40089 86400 333 20236 59002;EQDQ01  00002PRCP06
0167825860999992004101918004-05200-039300FM-12+021199999V0200501N021112200019N0200001N1+03471+01941100591ADDAA106000091GF102991011021008001001041MA1999999098251MD1999999-0021REMSYN070AAXX  19184 82586 32598 20541 10347 20194 39825 40059 81204 333 59002;EQDQ01  00002PRCP06
0208825860999992004102000004-05200-039300FM-12+021199999V0203601N006712200019N0010001N1+02631+02031100731ADDAA106000091GA1001+999999999GF100991001001999999001001KA1240M+03541MA1999999098371MD1999999+0001REMSYN082AAXX  20004 82586 32994 03613 10263 20203 39837 40073 333 10354 29062 55094 58000;EQDQ01  00002PRCP06
0186825860999992004102012004-05200-039300FM-12+021199999V0200901N006712200019N0200001N1+02901+01901100881ADDAA106000091GF102991021021008001001001KA1240N+02361MA1999999098521MD1999999-0011REMSYN076AAXX  20124 82586 32598 20913 10290 20190 39852 40088 82200 333 20236 59001;EQDQ01  00002PRCP06
0167825860999992004102018004-05200-039300FM-12+021199999V0200901N006712200019N0200001N1+03501+01811100561ADDAA106000091GF103991031021008001001001MA1999999098221MD1999999-0031REMSYN070AAXX  20184 82586 32598 30913 10350 20181 39822 40056 83200 333 59003;EQDQ01  00002PRCP06
0208825860999992004102100004-05200-039300FM-12+021199999V0200501N008712200019N0010001N1+02591+01901100741ADDAA106000091GA1001+999999999GF100991001001999999001001KA1240M+03541MA1999999098381MD1999999-0011REMSYN082AAXX  21004 82586 32994 00517 10259 20190 39838 40074 333 10354 29055 55094 59001;EQDQ01  00002PRCP06
0186825860999992004102112004-05200-039300FM-12+021199999V0200901N005710075019N0200001N1+02751+02001100941ADDAA106000091GF106991061041008001001001KA1240N+02321MA1999999098581MD1999999+0061REMSYN076AAXX  21124 82586 32598 60911 10275 20200 39858 40094 86400 333 20232 58006;EQDQ01  00002PRCP06
0167825860999992004102118004-05200-039300FM-12+021199999V0200901N003610075019N0200001N1+03301+01421100611ADDAA106000091GF106991061041008001001001MA1999999098261MD1999999+0041REMSYN070AAXX  21184 82586 32598 60907 10330 20142 39826 40061 86400 333 58004;EQDQ01  00002PRCP06
0208825860999992004102200004-05200-039300FM-12+021199999V0203601N008212200019N0010001N1+02681+01991100771ADDAA106000091GA1001+999999999GF100991001001999999001001KA1240M+03431MA1999999098411MD1999999+0031REMSYN082AAXX  22004 82586 32994 03616 10268 20199 39841 40077 333 10343 29058 55079 58003;EQDQ01  00002PRCP06
0186825860999992004102212004-05200-039300FM-12+021199999V0201401N005110075019N0200001N1+02861+01681100871ADDAA106000091GF105991051021008001001001KA1240N+02331MA1999999098521MD1999999-0061REMSYN076AAXX  22124 82586 32598 51410 10286 20168 39852 40087 85200 333 20233 59006;EQDQ01  00002PRCP06
0167825860999992004102218004-05200-039300FM-12+021199999V0201401N003112200019N0200001N1+03461+01781100521ADDAA106000091GF104991041021008001001001MA1999999098171MD1999999-0091REMSYN070AAXX  22184 82586 32598 41406 10346 20178 39817 40052 84200 333 59009;EQDQ01  00002PRCP06
0208825860999992004102300004-05200-039300FM-12+021199999V0200501N006712200019N0010001N1+02721+01821100681ADDAA106000091GA1001+999999999GF100991001001999999001001KA1240M+03561MA1999999098331MD1999999-0081REMSYN082AAXX  23004 82586 32594 00513 10272 20182 39833 40068 333 10356 29051 55111 59008;EQDQ01  00002PRCP06
0186825860999992004102312004-05200-039300FM-12+021199999V0201401N005110075019N0200001N1+02881+01971100781ADDAA106000091GF106991061011008001001001KA1240N+02361MA1999999098431MD1999999-0091REMSYN076AAXX  23124 82586 32598 61410 10288 20197 39843 40078 86100 333 20236 59009;EQDQ01  00002PRCP06
0167825860999992004102318004-05200-039300FM-12+021199999V0200901N002112200019N0200001N1+03521+01741100391ADDAA106000091GF104991041021008001001001MA1999999098061MD1999999-0111REMSYN070AAXX  23184 82586 32598 40904 10352 20174 39806 40039 84200 333 59011;EQDQ01  00002PRCP06
0208825860999992004102400004-05200-039300FM-12+021199999V0203601N007212200019N0010001N1+02601+02161100611ADDAA106000091GA1001+999999999GF100991001001999999001001KA1240M+03591MA1999999098251MD1999999-0081REMSYN082AAXX  24004 82586 32994 03614 10260 20216 39825 40061 333 10359 29061 55105 59008;EQDQ01  00002PRCP06
0186825860999992004102412004-05200-039300FM-12+021199999V0200901N004110075019N0200001N1+02681+01991100791ADDAA106000091GF108991081071008001999999KA1240N+02381MA1999999098431MD1999999+0001REMSYN076AAXX  24124 82586 32598 80908 10268 20199 39843 40079 887// 333 20238 58000;EQDQ01  00002PRCP06
0167825860999992004102418004-05200-039300FM-12+021199999V0200501N001512200019N0200001N1+03371+01801100461ADDAA106000091GF104991041021008001001001MA1999999098131MD1999999+0071REMSYN070AAXX  24184 82586 32598 40503 10337 20180 39813 40046 84200 333 58007;EQDQ01  00002PRCP06
0208825860999992004102500004-05200-039300FM-12+021199999V0203601N007212200019N0010001N1+02531+02091100611ADDAA106000091GA1001+999999999GF100991001001999999001001KA1240M+03481MA1999999098251MD1999999+0001REMSYN082AAXX  25004 82586 32994 03614 10253 20209 39825 40061 333 10348 29065 55056 58000;EQDQ01  00002PRCP06
0186825860999992004102512004-05200-039300FM-12+021199999V0200501N006712200019N0200001N1+02881+01941100831ADDAA106000091GF104991041021008001001001KA1240N+02451MA1999999098471MD1999999+0041REMSYN076AAXX  25124 82586 32598 40513 10288 20194 39847 40083 84200 333 20245 58004;EQDQ01  00002PRCP06
0167825860999992004102518004-05200-039300FM-12+021199999V0200501N005110075019N0200001N1+03301+01841100571ADDAA106000091GF105991051011008001001001MA1999999098231MD1999999+0101REMSYN070AAXX  25184 82586 32598 50510 10330 20184 39823 40057 85100 333 58010;EQDQ01  00002PRCP06
0208825860999992004102600004-05200-039300FM-12+021199999V0200501N007212200019N0010001N1+02551+01881100601ADDAA106000091GA1001+999999999GF100991001001999999001001KA1240M+03491MA1999999098241MD1999999-0011REMSYN082AAXX  26004 82586 32994 00514 10255 20188 39824 40060 333 10349 29058 55103 59001;EQDQ01  00002PRCP06
0186825860999992004102612004-05200-039300FM-12+021199999V0200501N006710075019N0200001N1+02821+01911100811ADDAA106000091GF105991051021008001001001KA1240N+02301MA1999999098451MD1999999-0021REMSYN076AAXX  26124 82586 32598 50513 10282 20191 39845 40081 85200 333 20230 59002;EQDQ01  00002PRCP06
0167825860999992004102618004-05200-039300FM-12+021199999V0200501N005712200019N0200001N1+03491+01971100531ADDAA106000091GF102991021021008001001001MA1999999098191MD1999999-0041REMSYN070AAXX  26184 82586 32598 20511 10349 20197 39819 40053 82200 333 59004;EQDQ01  00002PRCP06
0208825860999992004102700004-05200-039300FM-12+021199999V0203601N006712200019N0010001N1+02621+01961100741ADDAA106000091GA1001+999999999GF100991001001999999001001KA1240M+03551MA1999999098381MD1999999+0141REMSYN082AAXX  27004 82586 32994 03613 10262 20196 39838 40074 333 10355 29058 55103 58014;EQDQ01  00002PRCP06
0186825860999992004102712004-05200-039300FM-12+021199999V0200501N004110075019N0200001N1+02681+02131100961ADDAA106000091GF106991061041008001001001KA1240N+02391MA1999999098601MD1999999+0151REMSYN076AAXX  27124 82586 32598 60508 10268 20213 39860 40096 86400 333 20239 58015;EQDQ01  00002PRCP06
0208825860999992004102800004-05200-039300FM-12+021199999V0200501N007212200019N0010001N1+02721+01981100831ADDAA106000091GA1001+999999999GF100991001001999999001001KA1240M+03551MA1999999098471MD1999999+0091REMSYN082AAXX  28004 82586 32994 00514 10272 20198 39847 40083 333 10355 29060 55065 58009;EQDQ01  00002PRCP06
0186825860999992004102812004-05200-039300FM-12+021199999V0200901N006710075019N0200001N1+02771+02121100991ADDAA106000091GF105991051021008001001001KA1240N+02421MA1999999098631MD1999999+0031REMSYN076AAXX  28124 82586 32598 50913 10277 20212 39863 40099 85200 333 20242 58003;EQDQ01  00002PRCP06
0167825860999992004102818004-05200-039300FM-12+021199999V0200901N003112200019N0200001N1+03441+01921100631ADDAA106000091GF104991041021008001001001MA1999999098291MD1999999+0011REMSYN070AAXX  28184 82586 32598 40906 10344 20192 39829 40063 84200 333 58001;EQDQ01  00002PRCP06
0208825860999992004102900004-05200-039300FM-12+021199999V0203601N007212200019N0010001N1+02701+01991100711ADDAA106000091GA1001+999999999GF100991001001999999001001KA1240M+03551MA1999999098351MD1999999-0121REMSYN082AAXX  29004 82586 32994 03614 10270 20199 39835 40071 333 10355 29060 55088 59012;EQDQ01  00002PRCP06
0202825860999992004102912004-05200-039300FM-12+021199999V0201401N005119999999N0200001N1+02741+02021100901ADDAA106000091GF105991999041008001001001KA1240N+02401MA1999999098541MD1999999-0091REMSYN076AAXX  29124 82586 32598 51410 10274 20202 39854 40090 86400 333 20240 59009;EQDQ01+000062SCOTLCQ02  00002PRCP06
0183825860999992004102918004-05200-039300FM-12+021199999V0200901N003112200019N0200001N1+03491+02011100541ADDAA106000091GF103991999021008001001001MA1999999098211MD1999999-0081REMSYN070AAXX  29184 82586 32598 30906 10349 20201 39821 40054 82200 333 59008;EQDQ01+000022SCOTLCQ02  00002PRCP06
0208825860999992004103000004-05200-039300FM-12+021199999V0203601N007212200019N0010001N1+02621+02141100671ADDAA106000091GA1001+999999999GF100991001001999999001001KA1240M+03561MA1999999098311MD1999999-0041REMSYN082AAXX  30004 82586 32994 03614 10262 20214 39831 40067 333 10356 29064 55099 59004;EQDQ01  00002PRCP06
0167825860999992004103018004-05200-039300FM-12+021199999V0201401N005112200019N0200001N1+03471+01781100601ADDAA106000091GF102991021021008001001001MA1999999098271MD1999999+0061REMSYN070AAXX  30184 82586 32598 21410 10347 20178 39827 40060 82200 333 58006;EQDQ01  00002PRCP06
0208825860999992004103100004-05200-039300FM-12+021299999V0203601N007712200019N0010001N1+02721+02001100741ADDAA106000091GA1001+999999999GF100991001001999999001001KA1240M+03561MA1999999098391MD1999999+0081REMSYN082AAXX  31004 82586 32994 03615 10272 20200 39839 40074 333 10356 29054 55111 58008;EQDQ01  00002PRCP06
0186825860999992004103112004-05200-039300FM-12+021299999V0201401N003112200019N0200001N1+02901+01841100951ADDAA106000091GF102991021021008001001001KA1240N+02431MA1999999098591MD1999999+0021REMSYN076AAXX  31124 82586 32598 21406 10290 20184 39859 40095 82200 333 20243 58002;EQDQ01  00002PRCP06
0167825860999992004103118004-05200-039300FM-12+021299999V0200901N006711050019N0200001N1+03501+01591100611ADDAA106000091GF106991021021008001001021MA1999999098271MD1999999+0001REMSYN070AAXX  31184 82586 32598 60913 10350 20159 39827 40061 82202 333 58000;EQDQ01  00002PRCP06
0208825860999992004110100004-05200-039300FM-12+021299999V0203601N007212200019N0010001N1+02801+02081100711ADDAA106000091GA1001+999999999GF100991001001999999001001KA1240M+03611MA1999999098371MD1999999-0021REMSYN082AAXX  01004 82586 32994 03614 10280 20208 39837 40071 333 10361 29054 55110 59002;EQDQ01  00002PRCP06
0186825860999992004110112004-05200-039300FM-12+021299999V0200901N005112200019N0200001N1+02921+02011100921ADDAA106000091GF104991041021008001001001KA1240N+02451MA1999999098571MD1999999-0021REMSYN076AAXX  01124 82586 32598 40910 10292 20201 39857 40092 84200 333 20245 59002;EQDQ01  00002PRCP06
0167825860999992004110118004-05200-039300FM-12+021299999V0200901N003612200019N0200001N1+03541+01711100631ADDAA106000091GF104991041021008001001001MA1999999098301MD1999999+0031REMSYN070AAXX  01184 82586 32598 40907 10354 20171 39830 40063 84200 333 58003;EQDQ01  00002PRCP06
0208825860999992004110200004-05200-039300FM-12+021199999V0200501N006712200019N0010001N1+02621+02031100991ADDAA106000091GA1001+999999999GF100991001001999999001001KA1240M+03571MA1999999098331MD1999999-0041REMSYN082AAXX  02004 82586 32994 00513 10262 20203 39833 40099 333 10357 29058 55110 59004;EQDQ01  00002PRCP06
0186825860999992004110212004-05200-039300FM-12+021199999V0200901N005112200019N0200001N1+02841+02041100821ADDAA106000091GF102991021021008001001001KA1240N+02531MA1999999098471MD1999999-0101REMSYN076AAXX  02124 82586 32598 20910 10284 20204 39847 40082 82200 333 20253 59010;EQDQ01  00002PRCP06
0167825860999992004110218004-05200-039300FM-12+021199999V0201401N004612200019N0200001N1+03531+01701100501ADDAA106000091GF103991031021008001001001MA1999999098171MD1999999-0131REMSYN070AAXX  02184 82586 32598 31409 10353 20170 39817 40050 83200 333 59013;EQDQ01  00002PRCP06
0208825860999992004110300004-05200-039300FM-12+021199999V0203601N008212200019N0010001N1+02631+02031100721ADDAA106000091GA1001+999999999GF100991001001999999001001KA1240M+03531MA1999999098361MD1999999+0031REMSYN082AAXX  03004 82586 32994 03616 10263 20203 39836 40072 333 10353 29059 55111 58003;EQDQ01  00002PRCP06
0186825860999992004110312004-05200-039300FM-12+021199999V0201401N008212200019N0200001N1+02801+02001100831ADDAA106000091GF104991041011008001001001KA1240N+02371MA1999999098471MD1999999+0001REMSYN076AAXX  03124 82586 32598 41416 10280 20200 39847 40083 84100 333 20237 58000;EQDQ01  00002PRCP06
0167825860999992004110318004-05200-039300FM-12+021199999V0200901N005112200019N0200001N1+03341+01831100531ADDAA106000091GF103991031021008001001001MA1999999098191MD1999999+0021REMSYN070AAXX  03184 82586 32598 30910 10334 20183 39819 40053 83200 333 58002;EQDQ01  00002PRCP06
0208825860999992004110400004-05200-039300FM-12+021199999V0200501N008212200019N0010001N1+02661+02001100681ADDAA106000091GA1001+999999999GF100991001001999999001001KA1240M+03531MA1999999098321MD1999999-0041REMSYN082AAXX  04004 82586 32994 00516 10266 20200 39832 40068 333 10353 29059 55106 59004;EQDQ01  00002PRCP06
0186825860999992004110412004-05200-039300FM-12+021199999V0200901N006712200019N0200001N1+02901+02041100821ADDAA106000091GF101991011021008001001001KA1240N+02401MA1999999098471MD1999999+0001REMSYN076AAXX  04124 82586 32598 10913 10290 20204 39847 40082 81200 333 20240 58000;EQDQ01  00002PRCP06
0167825860999992004110418004-05200-039300FM-12+021199999V0201401N005112200019N0200001N1+03501+01901100531ADDAA106000091GF101991011021008001001001MA1999999098191MD1999999+0001REMSYN070AAXX  04184 82586 32598 11410 10350 20190 39819 40053 81200 333 58000;EQDQ01  00002PRCP06
0208825860999992004110500004-05200-039300FM-12+021199999V0200501N007212200019N0010001N1+02621+02011100701ADDAA106000091GA1001+999999999GF100991001001999999001001KA1240M+03551MA1999999098541MD1999999+0021REMSYN082AAXX  05004 82586 32994 00514 10262 20201 39854 40070 333 10355 29059 55110 58002;EQDQ01  00002PRCP06
0186825860999992004110512004-05200-039300FM-12+021199999V0200901N005712200019N0200001N1+02901+02031100861ADDAA106000091GF102991021021008001001001KA1240N+02421MA1999999098501MD1999999+0031REMSYN076AAXX  05124 82586 32598 20911 10290 20203 39850 40086 82200 333 20242 58003;EQDQ01  00002PRCP06
0167825860999992004110518004-05200-039300FM-12+021199999V0201401N004112200019N0200001N1+03551+01851100491ADDAA106000091GF101991011011008001001001MA1999999098161MD1999999-0031REMSYN070AAXX  05184 82586 32598 11408 10355 20185 39816 40049 81100 333 59003;EQDQ01  00002PRCP06
0208825860999992004110600004-05200-039300FM-12+021199999V0200501N008212200019N0010001N1+02661+02001100651ADDAA106000091GA1001+999999999GF100991001001999999001001KA1240M+03571MA1999999098301MD1999999-0041REMSYN082AAXX  06004 82586 32994 00516 10266 20200 39830 40065 333 10357 29057 55112 59004;EQDQ01  00002PRCP06
0186825860999992004110612004-05200-039300FM-12+021199999V0200901N004612200019N0200001N1+02861+02051100831ADDAA106000091GF103991031021008001001001KA1240N+02401MA1999999098471MD1999999-0031REMSYN076AAXX  06124 82586 32598 30909 10286 20205 39847 40083 83200 333 20240 59003;EQDQ01  00002PRCP06
0167825860999992004110618004-05200-039300FM-12+021199999V0201401N003612200019N0200001N1+03561+01811100441ADDAA106000091GF103991031021008001001001MA1999999098111MD1999999-0051REMSYN070AAXX  06184 82586 32598 31407 10356 20181 39811 40044 83200 333 59005;EQDQ01  00002PRCP06
0208825860999992004110700004-05200-039300FM-12+021199999V0203601N006712200019N0010001N1+02701+02001100651ADDAA106000091GA1001+999999999GF100991001001999999001001KA1240M+03701MA1999999098301MD1999999+0001REMSYN082AAXX  07004 82586 32994 03613 10270 20200 39830 40065 333 10370 29057 55109 58000;EQDQ01  00002PRCP06
0186825860999992004110712004-05200-039300FM-12+021199999V0201401N005712200019N0200001N1+02981+02011100731ADDAA106000091GF103991031021008001001001KA1240N+02501MA1999999098391MD1999999-0081REMSYN076AAXX  07124 82586 32598 31411 10298 20201 39839 40073 83200 333 20250 59008;EQDQ01  00002PRCP06
0167825860999992004110718004-05200-039300FM-12+021199999V0201401N003610075019N0200001N1+03611+01861100381ADDAA106000091GF105991051011008001001001MA1999999098061MD1999999-0051REMSYN070AAXX  07184 82586 32598 51407 10361 20186 39806 40038 85100 333 59005;EQDQ01  00002PRCP06
0198825860999992004110800004-05200-039300FM-12+021299999V0203601N003610075019N0010001N1+02741+02171100761ADDAA106000091GF106991061041008001001001KA1240M+03711MA1999999098421MD1999999+0121REMSYN088AAXX  08004 82586 32594 63607 10274 20217 39842 40076 86400 333 10371 29059 55111 58012;EQDQ01  00002PRCP06
0186825860999992004110812004-05200-039300FM-12+021299999V0200901N006710075019N0200001N1+02941+02241100701ADDAA106000091GF106991061011008001001001KA1240N+02551MA1999999098361MD1999999-0031REMSYN076AAXX  08124 82586 32598 60913 10294 20224 39836 40070 86100 333 20255 59003;EQDQ01  00002PRCP06
0167825860999992004110818004-05200-039300FM-12+021299999V0200901N004112200019N0200001N1+03541+01711100441ADDAA106000091GF102991021021008001001001MA1999999098111MD1999999+0051REMSYN070AAXX  08184 82586 32598 20908 10354 20171 39811 40044 82200 333 58005;EQDQ01  00002PRCP06
0208825860999992004110900004-05200-039300FM-12+021199999V0203601N007712200019N0010001N1+02731+02101100631ADDAA106000091GA1001+999999999GF100991001001999999001001KA1240M+03701MA1999999098291MD1999999-0131REMSYN082AAXX  09004 82586 32994 03615 10273 20210 39829 40063 333 10370 29060 55099 59013;EQDQ01  00002PRCP06
0186825860999992004110912004-05200-039300FM-12+021199999V0200901N007212200019N0200001N1+02891+01911100821ADDAA106000091GF102991021011008001001001KA1240N+02551MA1999999098471MD1999999+0111REMSYN076AAXX  09124 82586 32598 20914 10289 20191 39847 40082 82100 333 20255 58011;EQDQ01  00002PRCP06
0167825860999992004110918004-05200-039300FM-12+021199999V0201401N003612200019N0200001N1+03501+01941100461ADDAA106000091GF101991011011008001001001MA1999999098131MD1999999+0021REMSYN070AAXX  09184 82586 32598 11407 10350 20194 39813 40046 81100 333 58002;EQDQ01  00002PRCP06
0208825860999992004111000004-05200-039300FM-12+021199999V0200501N006712200019N0010001N1+02731+02051100591ADDAA106000091GA1001+999999999GF100991001001999999001001KA1240M+03571MA1999999098251MD1999999-0041REMSYN082AAXX  10004 82586 32994 00513 10273 20205 39825 40059 333 10357 29058 55110 59004;EQDQ01  00002PRCP06
0202825860999992004111012004-05200-039300FM-12+021199999V0200901N006712200019N0200001N1+02901+01871100771ADDAA106000091GF101991999021008001001001KA1240N+02381MA1999999098421MD1999999-0051REMSYN076AAXX  10124 82586 32598 10913 10290 20187 39842 40077 82200 333 20238 59005;EQDQ01+000022SCOTLCQ02  00002PRCP06
0167825860999992004111018004-05200-039300FM-12+021199999V0200901N003612200019N0200001N1+03501+01861100461ADDAA106000091GF102991021021008001001001MA1999999098121MD1999999-0011REMSYN070AAXX  10184 82586 32598 20907 10350 20186 39812 40046 82200 333 59001;EQDQ01  00002PRCP06
0186825860999992004111112004-05200-039300FM-12+021199999V0200901N005712200019N0200001N1+02921+01871100781ADDAA106000091GF104991041021008001001001KA1240N+02431MA1999999098431MD1999999+0021REMSYN076AAXX  11124 82586 32598 40911 10292 20187 39843 40078 84200 333 20243 58002;EQDQ01  00002PRCP06
0183825860999992004111118004-05200-039300FM-12+021199999V0200901N005112200019N0200001N1+03561+01871100391ADDAA106000091GF102991999021008001001001MA1999999098061MD1999999-0061REMSYN070AAXX  11184 82586 32598 20910 10356 20187 39806 40039 83200 333 59006;EQDQ01+000032SCOTLCQ02  00002PRCP06
0208825860999992004111200004-05200-039300FM-12+021199999V0200501N009312200019N0010001N1+02721+01981100571ADDAA106000091GA1001+999999999GF100991001001999999001001KA1240M+03701MA1999999098221MD1999999-0081REMSYN082AAXX  12004 82586 32994 00518 10272 20198 39822 40057 333 10370 29055 55108 59008;EQDQ01  00002PRCP06
0186825860999992004111212004-05200-039300FM-12+021199999V0200501N006712200019N0200001N1+03961+01661100701ADDAA106000091GF104991041021008001001001KA1240N+02431MA1999999098361MD1999999-0071REMSYN076AAXX  12124 82586 32598 40513 10396 20166 39836 40070 84200 333 20243 59007;EQDQ01  00002PRCP06
0167825860999992004111218004-05200-039300FM-12+021299999V0200501N005112200019N0200001N1+03501+01671100381ADDAA106000091GF102991011021008001001041MA1999999098051MD1999999-0011REMSYN070AAXX  12184 82586 32598 20510 10350 20167 39805 40038 81204 333 59001;EQDQ01  00002PRCP06
0208825860999992004111300004-05200-039300FM-12+021299999V0200501N003612200019N0010001N1+02671+02141100521ADDAA106000091GA1001+999999999GF100991001001999999001001KA1240M+03591MA1999999098171MD1999999-0051REMSYN082AAXX  13004 82586 32994 00507 10267 20214 39817 40052 333 10359 29057 55101 59005;EQDQ01  00002PRCP06
0186825860999992004111312004-05200-039300FM-12+021299999V0200501N006210075019N0200001N1+02921+02151100681ADDAA106000091GF105991051041008001001001KA1240N+02521MA1999999098331MD1999999-0021REMSYN076AAXX  13124 82586 32598 50512 10292 20215 39833 40068 85400 333 20252 59002;EQDQ01  00002PRCP06
0167825860999992004111318004-05200-039300FM-12+021299999V0200901N003112200019N0200001N1+02941+01761100371ADDAA106000091GF103991031011008001001001MA1999999098041MD1999999-0011REMSYN070AAXX  13184 82586 32598 30906 10294 20176 39804 40037 83100 333 59001;EQDQ01  00002PRCP06
0208825860999992004111400004-05200-039300FM-12+021199999V0203601N007212200019N0010001N1+02711+02081100581ADDAA106000091GA1001+999999999GF100991001001999999001001KA1240M+03701MA1999999098231MD1999999+0061REMSYN082AAXX  14004 82586 32994 03614 10271 20208 39823 40058 333 10370 29059 55109 58006;EQDQ01  00002PRCP06
0186825860999992004111412004-05200-039300FM-12+021199999V0200501N006712200019N0200001N1+02921+02041100681ADDAA106000091GF101991011021008001001001KA1240N+02451MA1999999098331MD1999999+0001REMSYN076AAXX  14124 82586 32598 10513 10292 20204 39833 40068 81200 333 20245 58000;EQDQ01  00002PRCP06
0193825860999992004111500004-05200-039300FM-12+021199999V0203601N007212200019N0010001N1+02661+02091100661ADDAA106000091GA1001+999999999GF100991001001999999001001KA1240M+03731MA1999999098311REMSYN081AAXX  15004 82586 32994 03614 10266 20209 39831 40066 333 10373 2958 55112 58008;EQDQ01  00002PRCP06
0186825860999992004111512004-05200-039300FM-12+021199999V0200901N007212200019N0200001N1+02881+01941100821ADDAA106000091GF103991031021008001001001KA1240N+02361MA1999999098461MD1999999+0131REMSYN076AAXX  15124 82586 32598 30914 10288 20194 39846 40082 83200 333 20236 58013;EQDQ01  00002PRCP06
0167825860999992004111518004-05200-039300FM-12+021199999V0200901N005710450019N0200001N1+03501+01631100501ADDAA106000091GF108991031021008001021999MA1999999098161MD1999999+0141REMSYN070AAXX  15184 82586 32598 80911 10350 20163 39816 40050 8322/ 333 58014;EQDQ01  00002PRCP06
0208825860999992004111600004-05200-039300FM-12+021199999V0203601N006712200019N0010001N1+02681+02061100651ADDAA106000091GA1001+999999999GF100991001001999999001001KA1240M+03571MA1999999098301MD1999999-0011REMSYN082AAXX  16004 82586 32994 03613 10268 20206 39830 40065 333 10357 29057 55101 59001;EQDQ01  00002PRCP06
0186825860999992004111612004-05200-039300FM-12+021199999V0200901N005112200019N0200001N1+02901+01751100871ADDAA106000091GF101991011021008001001001KA1240N+02361MA1999999098531MD1999999+0071REMSYN076AAXX  16124 82586 32598 10910 10290 20175 39853 40087 81200 333 20236 58007;EQDQ01  00002PRCP06
0208825860999992004111700004-05200-039300FM-12+021199999V0203601N006712200019N0010001N1+02721+01881100721ADDAA106000091GA1001+999999999GF100991001001999999001001KA1240M+03531MA1999999098371MD1999999+0071REMSYN082AAXX  17004 82586 32994 03613 10272 20188 39837 40072 333 10353 29051 55109 58007;EQDQ01  00002PRCP06
0186825860999992004111712004-05200-039300FM-12+021199999V0200901N005112200019N0200001N1+02941+01911100931ADDAA106000091GF101991011011008001001001KA1240N+02381MA1999999098571MD1999999+0041REMSYN076AAXX  17124 82586 32598 10910 10294 20191 39857 40093 81100 333 20238 58004;EQDQ01  00002PRCP06
0167825860999992004111718004-05200-039300FM-12+021199999V0200901N005112200019N0200001N1+03541+01711100621ADDAA106000091GF105991031021008001001041MA1999999098281MD1999999-0011REMSYN070AAXX  17184 82586 32598 50910 10354 20171 39828 40062 83204 333 59001;EQDQ01  00002PRCP06
0198825860999992004111800004-05200-039300FM-12+021199999V0203601N006712200019N0010001N1+02701+01991100801ADDAA106000091GF103991001001999999001041KA1240M+03631MA1999999098451MD1999999+0081REMSYN088AAXX  18004 82586 32994 33613 10270 20199 39845 40080 80004 333 10363 29055 55111 58008;EQDQ01  00002PRCP06
0186825860999992004111812004-05200-039300FM-12+021199999V0200901N005110075019N0200001N1+02881+02131100871ADDAA106000091GF105991051011008001001001KA1240N+02341MA1999999098521MD1999999-0051REMSYN076AAXX  18124 82586 32598 50910 10288 20213 39852 40087 85100 333 20234 59005;EQDQ01  00002PRCP06
0167825860999992004111818004-05200-039300FM-12+021199999V0200901N005112200019N0200001N1+03481+01921100551ADDAA106000091GF103991031011008001001001MA1999999098211MD1999999-0071REMSYN070AAXX  18184 82586 32598 30910 10348 20192 39821 40055 83100 333 59007;EQDQ01  00002PRCP06
0208825860999992004111900004-05200-039300FM-12+021199999V0203601N005712200019N0010001N1+02701+02011100781ADDAA106000091GA1001+999999999GF100991001001999999001001KA1240M+03611MA1999999098431MD1999999-0021REMSYN082AAXX  19004 82586 32994 03611 10270 20201 39843 40078 333 10361 29059 55095 59002;EQDQ01  00002PRCP06
0186825860999992004111912004-05200-039300FM-12+021199999V0203601N003112200019N0200001N1+02941+02081100871ADDAA106000091GF104991041011008001001001KA1240N+02401MA1999999098521MD1999999+0001REMSYN076AAXX  19124 82586 32598 43606 10294 20208 39852 40087 84100 333 20240 58000;EQDQ01  00002PRCP06
0167825860999992004111918004-05200-039300FM-12+021199999V02099999999992200019N0200001N1+03561+01591100501ADDAA106000091GF104991021021008001001041MA1999999098161MD1999999-0051REMSYN070AAXX  19184 82586 32598 405// 10356 20159 39816 40050 82204 333 59005;EQDQ01  00002PRCP06
0208825860999992004112100004-05200-039300FM-12+021299999V0200501N007712200019N0010001N1+02621+02011100751ADDAA106000091GA1001+999999999GF100991001001999999001001KA1240M+03611MA1999999098391MD1999999-0021REMSYN082AAXX  21004 82586 32994 00515 10262 20201 39839 40075 333 10361 29060 55091 59002;EQDQ01  00002PRCP06
0186825860999992004112112004-05200-039300FM-12+021299999V0200501N003610075019N0200001N1+02761+02121100891ADDAA106000091GF106991061041008001001001KA1240N+02301MA1999999098531MD1999999+0011REMSYN076AAXX  21124 82586 32598 60507 10276 20212 39853 40089 86400 333 20230 58001;EQDQ01  00002PRCP06
0167825860999992004112118004-05200-039300FM-12+021299999V0200501N004110075019N0200001N1+03461+01981100611ADDAA106000091GF106991061011008001001001MA1999999098271MD1999999+0081REMSYN070AAXX  21184 82586 32598 60508 10346 20198 39827 40061 86100 333 58008;EQDQ01  00002PRCP06
0208825860999992004112200004-05200-039300FM-12+021199999V0200501N006712200019N0010001N1+02721+02121100731ADDAA106000091GA1001+999999999GF100991001001999999001001KA1240M+03561MA1999999098371MD1999999-0021REMSYN082AAXX  22004 82586 32994 00513 10272 20212 39837 40073 333 10356 29063 55075 59002;EQDQ01  00002PRCP06
0186825860999992004112212004-05200-039300FM-12+021199999V0200501N005110075019N0200001N1+02781+02161100911ADDAA106000091GF108991081071008001999999KA1240N+02381MA1999999098551MD1999999+0021REMSYN076AAXX  22124 82586 32598 80510 10278 20216 39855 40091 887// 333 20238 58002;EQDQ01  00002PRCP06
0167825860999992004112218004-05200-039300FM-12+021199999V0200501N003610075019N0200001N1+03341+01831100561ADDAA106000091GF106991061021008001001001MA1999999098221MD1999999-0051REMSYN070AAXX  22184 82586 32598 60507 10334 20183 39822 40056 86200 333 59005;EQDQ01  00002PRCP06
0214825860999992004112300004-05200-039300FM-12+021199999V0200501N006219999999N0010001N1+02641+02201100711ADDAA106000091GF105991999041008001001001KA1240M+03501MA1999999098351MD1999999-0021REMSYN088AAXX  23004 82586 32594 50512 10264 20220 39835 40071 86400 333 10350 29066 55060 59002;EQDQ01+000062SCOTLCQ02  00002PRCP06
0186825860999992004112312004-05200-039300FM-12+021199999V0200501N005110075019N0200001N1+02581+02151100941ADDAA106000091GF108991081071008001999999KA1240N+02351MA1999999098571MD1999999+0021REMSYN076AAXX  23124 82586 32598 80510 10258 20215 39857 40094 887// 333 20235 58002;EQDQ01  00002PRCP06
0167825860999992004112318004-05200-039300FM-12+021199999V0200901N004612200019N0200001N1+03421+01981100581ADDAA106000091GF104991041021008001001001MA1999999098241MD1999999+0021REMSYN070AAXX  23184 82586 32598 40909 10342 20198 39824 40058 84200 333 58002;EQDQ01  00002PRCP06
0208825860999992004112400004-05200-039300FM-12+021199999V0200501N006712200019N0010001N1+02621+02011100721ADDAA106000091GA1001+999999999GF100991001001999999001001KA1240M+03551MA1999999098351MD1999999+0001REMSYN082AAXX  24004 82586 32994 00513 10262 20201 39835 40072 333 10355 29065 55067 58000;EQDQ01  00002PRCP06
0186825860999992004112412004-05200-039300FM-12+021199999V0200901N004610075019N0200001N1+02541+02171100901ADDAA106000091GF108991081071008001999999KA1240N+02301MA1999999098531MD1999999-0041REMSYN076AAXX  24124 82586 32598 80909 10254 20217 39853 40090 887// 333 20230 59004;EQDQ01  00002PRCP06
0167825860999992004112418004-05200-039300FM-12+021199999V0201401N004112200019N0200001N1+03411+01891100611ADDAA106000091GF104991041021008001001001MA1999999098271MD1999999+0031REMSYN070AAXX  24184 82586 32598 41408 10341 20189 39827 40061 84200 333 58003;EQDQ01  00002PRCP06
0208825860999992004112500004-05200-039300FM-12+021199999V0203601N005712200019N0010001N1+02681+02161100681ADDAA106000091GA1001+999999999GF100991001001999999001001KA1240M+03551MA1999999098321MD1999999-0031REMSYN082AAXX  25004 82586 32994 03611 10268 20216 39832 40068 333 10355 29068 55068 59003;EQDQ01  00002PRCP06
0202825860999992004112512004-05200-039300FM-12+021199999V0200901N003110075019N0200001N1+02741+02121100841ADDAA106000091GF107991999041008001001001KA1240N+02381MA1999999098481MD1999999-0051REMSYN076AAXX  25124 82586 32598 70906 10274 20212 39848 40084 86400 333 20238 59005;EQDQ01+000062SCOTLCQ02  00002PRCP06
0167825860999992004112518004-05200-039300FM-12+021199999V0200901N003112200019N0200001N1+03391+02041100531ADDAA106000091GF106991041021008001001041MA1999999098181MD1999999-0091REMSYN070AAXX  25184 82586 32598 60906 10339 20204 39818 40053 84204 333 59009;EQDQ01  00002PRCP06
0208825860999992004112600004-05200-039300FM-12+021199999V0200501N009812200019N0010001N1+02721+01981100581ADDAA106000091GA1001+999999999GF100991001001999999001001KA1240M+03521MA1999999098221MD1999999-0101REMSYN082AAXX  26004 82586 32994 00519 10272 20198 39822 40058 333 10352 29060 55080 59010;EQDQ01  00002PRCP06
0186825860999992004112612004-05200-039300FM-12+021199999V0200501N005710075019N0200001N1+02791+02111100791ADDAA106000091GF106991061021008001001001KA1240N+02361MA1999999098431MD1999999-0051REMSYN076AAXX  26124 82586 32598 60511 10279 20211 39843 40079 86200 333 20236 59005;EQDQ01  00002PRCP06
0153825860999992004112618004-05200-039300FM-12+021199999V0200501N004610075019N0200001N1+03331+01801100421ADDAA106000091GF105991051011008001001001MA1999999098081REMSYN070AAXX  26184 82586 32598 50509 10333 20180 39808 40042 85100 333 5901O;EQDQ01  00002PRCP06
0208825860999992004112700004-05200-039300FM-12+021199999V0203601N005712200019N0010001N1+02701+01991100591ADDAA106000091GA1001+999999999GF100991001001999999001001KA1240M+03521MA1999999098231MD1999999+0011REMSYN082AAXX  27004 82586 32994 03611 10270 20199 39823 40059 333 10352 29060 55087 58001;EQDQ01  00002PRCP06
0186825860999992004112712004-05200-039300FM-12+021199999V0200901N005110075019N0200001N1+02801+02081100791ADDAA106000091GF107991071011008001001001KA1240N+02331MA1999999098431MD1999999+0001REMSYN076AAXX  27124 82586 32598 70910 10280 20208 39843 40079 87100 333 20233 58000;EQDQ01  00002PRCP06
0167825860999992004112718004-05200-039300FM-12+021199999V0200501N003110075019N0200001N1+03311+01801100471ADDAA106000091GF105991051021008001001001MA1999999098121MD1999999+0041REMSYN070AAXX  27184 82586 32598 50506 10331 20180 39812 40047 85200 333 58004;EQDQ01  00002PRCP06
0208825860999992004112800004-05200-039300FM-12+021199999V0200501N005112200019N0010001N1+02701+01991100591ADDAA106000091GA1001+999999999GF100991001001999999001001KA1240M+03501MA1999999098231MD1999999+0001REMSYN082AAXX  28004 82586 32994 00510 10270 20199 39823 40059 333 10350 29059 55067 58000;EQDQ01  00002PRCP06
0186825860999992004112812004-05200-039300FM-12+021199999V0200901N005110075019N0200001N1+02821+02101100761ADDAA106000091GF106991061041008001001001KA1240N+02471MA1999999098401MD1999999-0031REMSYN076AAXX  28124 82586 32598 60910 10282 20210 39840 40076 86400 333 20247 59003;EQDQ01  00002PRCP06
0167825860999992004112818004-05200-039300FM-12+021199999V0200501N002612200019N0200001N1+03381+01791100471ADDAA106000091GF104991041021008001001001MA1999999098141MD1999999+0021REMSYN070AAXX  28184 82586 32598 40505 10338 20179 39814 40047 84200 333 58002;EQDQ01  00002PRCP06
0208825860999992004112900004-05200-039300FM-12+021199999V0200501N006712200019N0010001N1+02721+02121100531ADDAA106000091GA1001+999999999GF100991001001999999001001KA1240M+03511MA1999999098171MD1999999-0061REMSYN082AAXX  29004 82586 32594 00513 10272 20212 39817 40053 333 10351 29061 55090 59006;EQDQ01  00002PRCP06
0167825860999992004113018004-05200-039300FM-12+021199999V0200501N004612200019N0200001N1+03401+01811100561ADDAA106000091GF104991041021008001001001MA1999999098221MD1999999+0091REMSYN070AAXX  30184 82586 32598 40509 10340 20181 39822 40056 84200 333 58009;EQDQ01  00002PRCP06
0208825860999992004120100004-05200-039300FM-12+021199999V0203601N007712200019N0010001N1+02681+02021100611ADDAA106000091GA1001+999999999GF100991001001999999001001KA1240M+03531MA1999999098251MD1999999+0021REMSYN082AAXX  01004 82586 32994 03615 10268 20202 39825 40061 333 10353 29062 55076 58002;EQDQ01  00002PRCP06
0186825860999992004120112004-05200-039300FM-12+021199999V0200501N005112200019N0200001N1+02791+01791100751ADDAA106000091GF104991041021008001001001KA1240N+02401MA1999999098391MD1999999-0031REMSYN076AAXX  01124 82586 32598 40510 10279 20179 39839 40075 84200 333 20240 59003;EQDQ01  00002PRCP06
0167825860999992004120118004-05200-039300FM-12+021199999V0201401N003112200019N0200001N1+03491+01921100411ADDAA106000091GF102991011021008001001041MA1999999098081MD1999999-0141REMSYN070AAXX  01184 82586 32598 21406 10349 20192 39808 40041 81204 333 59014;EQDQ01  00002PRCP06
0208825860999992004120200004-05200-039300FM-12+021199999V0200501N006712200019N0010001N1+02741+02171100531ADDAA106000091GA1001+999999999GF100991001001999999001001KA1240M+03551MA1999999098171MD1999999-0081REMSYN082AAXX  02004 82586 32994 00513 10274 20217 39817 40053 333 10355 29061 55100 59008;EQDQ01  00002PRCP06
0186825860999992004120212004-05200-039300FM-12+021199999V0200901N006712200019N0200001N1+02841+01781100661ADDAA106000091GF104991011021008001001041KA1240N+02301MA1999999098311MD1999999-0081REMSYN076AAXX  02124 82586 32598 40913 10284 20178 39831 40066 81204 333 20230 59008;EQDQ01  00002PRCP06
0167825860999992004120218004-05200-039300FM-12+021199999V0200901N005112200019N0200001N1+03601+01671100421ADDAA106000091GF103991011021008001001041MA1999999098091MD1999999+0011REMSYN070AAXX  02184 82586 32598 30910 10360 20167 39809 40042 81204 333 58001;EQDQ01  00002PRCP06
0208825860999992004120300004-05200-039300FM-12+021199999V0203601N006712200019N0010001N1+02721+02121100531ADDAA106000091GA1001+999999999GF100991001001999999001001KA1240M+03631MA1999999098171MD1999999+0001REMSYN082AAXX  03004 82586 32994 03613 10272 20212 39817 40053 333 10363 29059 55110 58000;EQDQ01  00002PRCP06
0186825860999992004120312004-05200-039300FM-12+021199999V0201401N005112200019N0200001N1+03041+02151100751ADDAA106000091GF103991031021008001001001KA1240N+02421MA1999999098411MD1999999+0101REMSYN076AAXX  03124 82586 32598 31410 10304 20215 39841 40075 83200 333 20242 58010;EQDQ01  00002PRCP06
0167825860999992004120318004-05200-039300FM-12+021199999V0201401N005112200019N0200001N1+03641+01571100411ADDAA106000091GF104991041021008001001001MA1999999098081MD1999999-0011REMSYN070AAXX  03184 82586 32598 41410 10364 20157 39808 40041 84200 333 59001;EQDQ01  00002PRCP06
0208825860999992004120400004-05200-039300FM-12+021199999V0203601N008212200019N0010001N1+02701+02131100631ADDAA106000091GA1001+999999999GF100991001001999999001001KA1240M+03591MA1999999098291MD1999999+0121REMSYN082AAXX  04004 82586 32994 03616 10270 20213 39829 40063 333 10359 29058 55110 58012;EQDQ01  00002PRCP06
0202825860999992004120412004-05200-039300FM-12+021199999V0201401N005710075019N0200001N1+02091+01601100881ADDAA106000091GF106991061041008001001001KA1240N+99999MA1999999098531MD1999999+0121REMSYN076AAXX  04124 82586 32598 61411 10209 20160 39853 40088 86400 333 20232 58012;EQDQ01  00002PRCP06Q02 +02322ATMN  
0167825860999992004120418004-05200-039300FM-12+021199999V0200901N005112200019N0200001N1+03581+01701100561ADDAA106000091GF104991041021008001001001MA1999999098221MD1999999+0161REMSYN070AAXX  04184 82586 32598 40910 10358 20170 39822 40056 84200 333 58016;EQDQ01  00002PRCP06
0208825860999992004120500004-05200-039300FM-12+021199999V0203601N005112200019N0010001N1+02761+02041100751ADDAA106000091GA1001+999999999GF100991001001999999001001KA1240M+03671MA1999999098411MD1999999+0121REMSYN082AAXX  05004 82586 32994 03610 10276 20204 39841 40075 333 10367 29052 55103 58012;EQDQ01  00002PRCP06
0186825860999992004120512004-05200-039300FM-12+021199999V0201401N005112200019N0200001N1+02861+02061100861ADDAA106000091GF104991041021008001001001KA1240N+02421MA1999999098511MD1999999-0021REMSYN076AAXX  05124 82586 32598 41410 10286 20206 39851 40086 84200 333 20242 59002;EQDQ01  00002PRCP06
0167825860999992004120518004-05200-039300FM-12+021199999V0201401N003112200019N0200001N1+03551+01671100561ADDAA106000091GF103991031021008001001001MA1999999098611MD1999999-0061REMSYN070AAXX  05184 82586 32598 31406 10355 20167 39861 40056 83200 333 59006;EQDQ01  00002PRCP06
0208825860999992004120600004-05200-039300FM-12+021299999V0203601N008212200019N0010001N1+02801+02001100601ADDAA106000091GA1001+999999999GF100991001001999999001001KA1240M+03661MA1999999098361MD1999999-0151REMSYN082AAXX  06004 82586 32994 03616 10280 20200 39836 40060 333 10366 29055 55112 59015;EQDQ01  00002PRCP06
0186825860999992004120612004-05200-039300FM-12+021299999V0200901N003610075019N0200001N1+02741+01951100871ADDAA106000091GF106991061041008001001001KA1240N+02431MA1999999098421MD1999999+0011REMSYN076AAXX  06124 82586 32598 60907 10274 20195 39842 40087 86400 333 20243 58001;EQDQ01  00002PRCP06
0167825860999992004120618004-05200-039300FM-12+021299999V0200901N004112200019N0200001N1+03591+01701100491ADDAA106000091GF104991041021008001001001MA1999999098151MD1999999-0011REMSYN070AAXX  06184 82586 32598 40908 10359 20170 39815 40049 84200 333 59001;EQDQ01  00002PRCP06
0208825860999992004120700004-05200-039300FM-12+021199999V0203601N005112200019N0010001N1+02821+02071100561ADDAA106000091GA1001+999999999GF100991001001999999001001KA1240M+03611MA1999999098211MD1999999-0051REMSYN082AAXX  07004 82586 32994 03610 10282 20207 39821 40056 333 10361 29056 55079 59005;EQDQ01  00002PRCP06
0186825860999992004120712004-05200-039300FM-12+021199999V0200901N005110075019N0200001N1+99999+99999100821ADDAA106000091GF106991061041008001001001KA1240N+02431MA1999999098471MD1999999-0051REMSYN076AAXX  07124 82586 32598 60910 19284 20219 39847 40082 86400 333 20243 59005;EQDQ01  00002PRCP06
0143825860999992004120718004-05200-039300FM-12+021199999V0200501N003112200019N0200001N1+03541+01891100551ADDAA106000091GF104991041021008001001001MA1999999098221REMSYN060AAXX  07184 82586 32598 40506 10354 20189 39822 40055 84200;EQDQ01  00002PRCP06
0208825860999992004120800004-05200-039300FM-12+021199999V0203601N006712200019N0010001N1+02771+02041100641ADDAA106000091GA1001+999999999GF100991001001999999001001KA1240M+03601MA1999999098291MD1999999+0081REMSYN082AAXX  08004 82586 32994 03613 10277 20204 39829 40064 333 10360 29054 55079 58008;EQDQ01  00002PRCP06
0214825860999992004120812004-05200-039300FM-12+021199999V0200501N004610075019N0200001N1+02871+02211100881ADDAA106000091AY161061AY221061GF106991061041008001001001KA1240N+02401MA1999999098531MD1999999+0061MW1031REMSYN082AAXX  08124 82586 31598 60509 10287 20221 39853 40088 70362 86400 333 20240 58006;EQDQ01  00002PRCP06
0167825860999992004120818004-05200-039300FM-12+021199999V0201401N003110075019N0200001N1+03391+01791100621ADDAA106000091GF105991051011008001001001MA1999999098281MD1999999+0061REMSYN070AAXX  08184 82586 32598 51406 10339 20179 39828 40062 85100 333 58006;EQDQ01  00002PRCP06
0208825860999992004120900004-05200-039300FM-12+021199999V0203601N005112200019N0010001N1+02681+02001100651ADDAA106000091GA1001+999999999GF100991001001999999001001KA1240M+03501MA1999999098291MD1999999+0001REMSYN082AAXX  09004 82586 32994 03610 10268 20200 39829 40065 333 10350 29059 55073 58000;EQDQ01  00002PRCP06
0186825860999992004120912004-05200-039300FM-12+021199999V0200901N005110075019N0200001N1+02741+02031100781ADDAA106000091GF106991061041008001001001KA1240N+02401MA1999999098421MD1999999-0111REMSYN076AAXX  09124 82586 32598 60910 10274 20203 39842 40078 86400 333 20240 59011;EQDQ01  00002PRCP06
0167825860999992004120918004-05200-039300FM-12+021199999V0200901N003112200019N0200001N1+03321+01331100541ADDAA106000091GF104991041021008001001001MA1999999098191MD1999999-0091REMSYN070AAXX  09184 82586 32598 40906 10332 20133 39819 40054 84200 333 59009;EQDQ01  00002PRCP06
0208825860999992004121000004-05200-039300FM-12+021199999V0203601N006712200019N0010001N1+02661+02001100631ADDAA106000091GA1001+999999999GF100991001001999999001001KA1240M+03411MA1999999098271MD1999999-0021REMSYN082AAXX  10004 82586 32994 03613 10266 20200 39827 40063 333 10341 29058 55054 59002;EQDQ01  00002PRCP06
0186825860999992004121012004-05200-039300FM-12+021199999V0200901N005112200019N0200001N1+02881+01941100771ADDAA106000091GF103991031021008001001001KA1240N+02401MA1999999098431MD1999999+0011REMSYN076AAXX  10124 82586 32598 30910 10288 20194 39843 40077 83200 333 20240 58001;EQDQ01  00002PRCP06
0167825860999992004121018004-05200-039300FM-12+021199999V0200501N006212200019N0200001N1+03421+01651100461ADDAA106000091GF103991999021008001001001MA1999999098121MD1999999-0071REMSYN070AAXX  10184 82586 32598 30512 10342 20165 39812 40046 82200 333 59007;EQDQ01  00002PRCP06
0208825860999992004121100004-05200-039300FM-12+021199999V0203601N005112200019N0010001N1+02621+01981100601ADDAA106000091GA1001+999999999GF100991001001999999001001KA1240M+03551MA1999999098241MD1999999-0031REMSYN082AAXX  11004 82586 32994 03610 10262 20198 39824 40060 333 10355 29057 55101 59003;EQDQ01  00002PRCP06
0186825860999992004121112004-05200-039300FM-12+021199999V0200501N004110075019N0200001N1+02811+02081100841ADDAA106000091GF106991061041008001001001KA1240N+02351MA1999999098481MD1999999+0051REMSYN076AAXX  11124 82586 32598 60508 10281 20208 39848 40084 86400 333 20235 58005;EQDQ01  00002PRCP06
0167825860999992004121118004-05200-039300FM-12+021199999V0200501N003112200019N0200001N1+03491+01921100461ADDAA106000091GF106991031021008001001041MA1999999098131MD1999999+0011REMSYN070AAXX  11184 82586 32598 60506 10349 20192 39813 40046 83204 333 58001;EQDQ01  00002PRCP06
0208825860999992004121200004-05200-039300FM-12+021299999V0203601N006712200019N0010001N1+02781+01961100581ADDAA106000091GA1001+999999999GF100991001001999999001001KA1240M+03611MA1999999098231MD1999999-0011REMSYN082AAXX  12004 82586 32994 03613 10278 20196 39823 40058 333 10361 29058 55085 59001;EQDQ01  00002PRCP06
0186825860999992004121212004-05200-039300FM-12+021299999V0200901N003110075019N0200001N1+02821+02241100821ADDAA106000091GF106991061041008001001001KA1240N+02401MA1999999098471MD1999999-0011REMSYN076AAXX  12124 82586 32598 60906 10282 20224 39847 40082 86400 333 20240 59001;EQDQ01  00002PRCP06
0167825860999992004121218004-05200-039300FM-12+021299999V0203601N002112200019N0200001N1+03491+01961100521ADDAA106000091GF102991021021008001001001MA1999999098181MD1999999+0051REMSYN070AAXX  12184 82586 32598 23604 10349 20196 39818 40052 82200 333 58005;EQDQ01  00002PRCP06
0208825860999992004121300004-05200-039300FM-12+021199999V0203601N008212200019N0010001N1+02681+02021100691ADDAA106000091GA1001+999999999GF100991001001999999001001KA1240M+03611MA1999999098331MD1999999+0101REMSYN082AAXX  13004 82586 32994 03616 10268 20202 39833 40069 333 10361 29062 55084 58010;EQDQ01  00002PRCP06
0186825860999992004121312004-05200-039300FM-12+021199999V0200901N005110075019N0200001N1+02701+02031100921ADDAA106000091GF108991081071008001999999KA1240N+02321MA1999999098561MD1999999+0091REMSYN076AAXX  13124 82586 32598 80910 10270 20203 39856 40092 887// 333 20232 58009;EQDQ01  00002PRCP06
0167825860999992004121318004-05200-039300FM-12+021199999V0201401N003112200019N0200001N1+03401+01851100571ADDAA106000091GF102991021021008001001001MA1999999098231MD1999999+0051REMSYN070AAXX  13184 82586 32598 21406 10340 20185 39823 40057 82200 333 58005;EQDQ01  00002PRCP06
0186825860999992004121412004-05200-039300FM-12+021199999V0201401N000510450019N0200001N1+02841+01891100881ADDAA106000091GF107991041021008001021001KA1240N+02421MA1999999098531MD1999999-0031REMSYN076AAXX  14124 82586 32598 71401 10284 20189 39853 40088 84220 333 20242 59003;EQDQ01  00002PRCP06
0167825860999992004121418004-05200-039300FM-12+021199999V0200901N003112200019N0200001N1+03441+01581100521ADDAA106000091GF104991041021008001001001MA1999999098181MD1999999-0051REMSYN070AAXX  14184 82586 32598 40906 10344 20158 39818 40052 84200 333 59005;EQDQ01  00002PRCP06
0208825860999992004121500004-05200-039300FM-12+021199999V0203601N005112200019N0010001N1+02621+02241100711ADDAA106000091GA1001+999999999GF100991001001999999001001KA1240M+03511MA1999999098351MD1999999-0031REMSYN082AAXX  15004 82586 32994 03610 10262 20224 39835 40071 333 10351 29060 55086 59003;EQDQ01  00002PRCP06
0167825860999992004121518004-05200-039300FM-12+021199999V0200501N002612200019N0200001N1+03261+01721100561ADDAA106000091GF104991041021008001001001MA1999999098211MD1999999+0031REMSYN070AAXX  15184 82586 32598 40505 10326 20172 39821 40056 84200 333 58003;EQDQ01  00002PRCP06
0208825860999992004121600004-05200-039300FM-12+021199999V0203601N005112200019N0010001N1+02741+01951100531ADDAA106000091GA1001+999999999GF100991001001999999001001KA1240M+03401MA1999999098171MD1999999-0181REMSYN082AAXX  16004 82586 32994 03610 10274 20195 39817 40053 333 10340 29055 55072 59018;EQDQ01  00002PRCP06
0156825860999992004121612004-05200-039300FM-12+021199999V0200901N006212200019N0200001N1+02791+01911999999ADDAA106000091GF104991999999008001999999KA1240N+02341REMSYN075AAXX  16124 82586 32598 40912 10279 20191 9841 40077 84200 333 20234 59006;EQDQ01  00002PRCP06
0167825860999992004121618004-05200-039300FM-12+021199999V0200901N004612200019N0200001N1+03391+01791100471ADDAA106000091GF103991021021008001001041MA1999999098131MD1999999-0081REMSYN070AAXX  16184 82586 32598 30909 10339 20179 39813 40047 82204 333 59008;EQDQ01  00002PRCP06
0208825860999992004121700004-05200-039300FM-12+021199999V0203601N005112200019N0010001N1+02701+01961100611ADDAA106000091GA1001+999999999GF100991001001999999001001KA1240M+03511MA1999999098251MD1999999+0081REMSYN082AAXX  17004 82586 32994 03610 10270 20196 39825 40061 333 10351 29057 55102 58008;EQDQ01  00002PRCP06
0186825860999992004121712004-05200-039300FM-12+021199999V0200901N004110075019N0200001N1+02641+02031100791ADDAA106000091GF108991081071008001999999KA1240N+02401MA1999999098431MD1999999+0021REMSYN076AAXX  17124 82586 32598 80908 10264 20203 39843 40079 887// 333 20240 58002;EQDQ01  00002PRCP06
0167825860999992004121718004-05200-039300FM-12+021199999V0200901N004612200019N0200001N1+03491+01921100411ADDAA106000091GF104991021021008001001041MA1999999098081MD1999999-0051REMSYN070AAXX  17184 82586 32598 40909 10349 20192 39808 40041 82204 333 59005;EQDQ01  00002PRCP06
0198825860999992004121800004-05200-039300FM-12+021199999V0203601N006719999999N0010001N1+02701+02031100591ADDAA106000091GF105991051001012501051001KA1240M+03561MA1999999098231MD1999999-0021REMSYN088AAXX  18004 82586 32694 53613 10270 20203 39823 40059 85050 333 10356 29061 55066 59002;EQDQ01  00002PRCP06
0186825860999992004121812004-05200-039300FM-12+021199999V0200901N006212200019N0200001N1+02881+01771100811ADDAA106000091GF102991011021008001001041KA1240N+02401MA1999999098461MD1999999+0031REMSYN076AAXX  18124 82586 32598 20912 10288 20177 39846 40081 81204 333 20240 58003;EQDQ01  00002PRCP06
0167825860999992004121818004-05200-039300FM-12+021199999V0200901N005110450019N0200001N1+03401+01961100581ADDAA106000091GF108991041021008001021999MA1999999098231MD1999999+0151REMSYN070AAXX  18184 82586 32598 80910 10340 20196 39823 40058 8422/ 333 58015;EQDQ01  00002PRCP06
0198825860999992004121900004-05200-039300FM-12+021299999V0203601N006710120019N0010001N1+02821+02151100721ADDAA106000091GF106991061021012501001001KA1240M+03511MA1999999098381MD1999999+0151REMSYN088AAXX  19004 82586 32694 63613 10282 20215 39838 40072 86200 333 10351 29057 55060 58015;EQDQ01  00002PRCP06
0186825860999992004121912004-05200-039300FM-12+021299999V02099999999990075019N0200001N1+02821+02241100921ADDAA106000091GF108991081071008001999999KA1240N+02331MA1999999098571MD1999999+0111REMSYN076AAXX  19124 82586 32598 805// 10282 20224 39857 40092 887// 333 20233 58011;EQDQ01  00002PRCP06
0167825860999992004121918004-05200-039300FM-12+021299999V0200901N004610075019N0200001N1+03401+01961100631ADDAA106000091GF106991061011008001001001MA1999999098291MD1999999+0061REMSYN070AAXX  19184 82586 32598 60909 10340 20196 39829 40063 86100 333 58006;EQDQ01  00002PRCP06
0198825860999992004122000004-05200-039300FM-12+021199999V0203601N006712200019N0010001N1+02741+02081100751ADDAA106000091GF104991041001008001051001KA1240M+03561MA1999999098401MD1999999+0021REMSYN088AAXX  20004 82586 32594 43613 10274 20208 39840 40075 84050 333 10356 29063 55071 58002;EQDQ01  00002PRCP06
0186825860999992004122012004-05200-039300FM-12+021199999V0200901N008210075019N0200001N1+02841+02171100931ADDAA106000091GF106991061041008001001001KA1240N+02431MA1999999098571MD1999999+0001REMSYN076AAXX  20124 82586 32598 60916 10284 20217 39857 40093 86400 333 20243 58000;EQDQ01  00002PRCP06
0183825860999992004122018004-05200-039300FM-12+021199999V0200901N005710075019N0200001N1+03341+01831100181ADDAA106000091GF106991999021008001001001MA1999999098231MD1999999-0061REMSYN070AAXX  20184 82586 32598 60911 10334 20183 39823 40018 85200 333 59006;EQDQ01+000052SCOTLCQ02  00002PRCP06
0208825860999992004122100004-05200-039300FM-12+021199999V0203601N005112200019N0010001N1+02791+02091100671ADDAA106000091GA1001+999999999GF100991001001999999001001KA1240M+03541MA1999999098321MD1999999-0081REMSYN082AAXX  21004 82586 32994 03610 10279 20209 39832 40067 333 10354 29060 55079 59008;EQDQ01  00002PRCP06
0186825860999992004122112004-05200-039300FM-12+021199999V0200901N006212200019N0200001N1+02781+02011100731ADDAA106000091GF104991041021008001001001KA1240N+02401MA1999999098381MD1999999-0191REMSYN076AAXX  21124 82586 32598 40912 10278 20201 39838 40073 84200 333 20240 59019;EQDQ01  00002PRCP06
0167825860999992004122118004-05200-039300FM-12+021199999V0200901N004612200019N0200001N1+03501+01851100511ADDAA106000091GF103991031021008001001001MA1999999098171MD1999999-0061REMSYN070AAXX  21184 82586 32598 30909 10350 20185 39817 40051 83200 333 59006;EQDQ01  00002PRCP06
0208825860999992004122200004-05200-039300FM-12+021199999V0200501N008212200019N0010001N1+02801+01921100531ADDAA106000091GA1001+999999999GF100991001001999999001001KA1240M+03551MA1999999098181MD1999999-0141REMSYN082AAXX  22004 82586 32994 00516 10280 20192 39818 40053 333 10355 29055 55107 59014;EQDQ01  00002PRCP06
0186825860999992004122212004-05200-039300FM-12+021199999V0200901N005710075019N0200001N1+02821+01771100681ADDAA106000091GF106991061041008001001001KA1240N+02401MA1999999098331MD1999999-0081REMSYN076AAXX  22124 82586 32598 60911 10282 20177 39833 40068 86400 333 20240 59008;EQDQ01  00002PRCP06
0137825860999992004122218004-05200-039300FM-12+021199999V0200501N005112200019N0200001N1+99999+99999999999ADDAA106000091GF104991999999008001999999REMSYN069AAXX  22184 82586 32598 40510 1052 20174 39803 40036 84200 333 59014;EQDQ01  00002PRCP06
0208825860999992004122300004-05200-039300FM-12+021199999V0203601N007712200019N0010001N1+02741+01921100541ADDAA106000091GA1001+999999999GF100991001001999999001001KA1240M+03551MA1999999098191MD1999999+0011REMSYN082AAXX  23004 82586 32994 03615 10274 20192 39819 40054 333 10355 29053 55103 58001;EQDQ01  00002PRCP06
0186825860999992004122312004-05200-039300FM-12+021199999V0200501N006710075019N0200001N1+02801+01811100671ADDAA106000091GF106991061041008001001001KA1240N+02231MA1999999098831MD1999999-0011REMSYN076AAXX  23124 82586 32598 60513 10280 20181 39883 40067 86400 333 20223 59001;EQDQ01  00002PRCP06
0183825860999992004122318004-05200-039300FM-12+021199999V0200901N005710075019N0200001N1+03491+01611100351ADDAA106000091GF105991051021008001001001MA1999999098012MD1999999-0021REMSYN070AAXX  23184 82586 32598 50911 10349 20161 39801 40035 85200 333 59002;EQDQ01+098013APOSP Q02  00002PRCP06
0208825860999992004122400004-05200-039300FM-12+021199999V0203601N007712200019N0010001N1+02741+01951100461ADDAA106000091GA1001+999999999GF100991001001999999001001KA1240M+03571MA1999999098111MD1999999-0081REMSYN082AAXX  24004 82586 32994 03615 10274 20195 39811 40046 333 10357 29053 55104 59008;EQDQ01  00002PRCP06
0186825860999992004122412004-05200-039300FM-12+021199999V0200901N005110075019N0200001N1+02741+01971100661ADDAA106000091GF106991061041008001001001KA1240N+02351MA1999999098301MD1999999-0021REMSYN076AAXX  24124 82586 32598 60910 10274 20197 39830 40066 86400 333 20235 59002;EQDQ01  00002PRCP06
0167825860999992004122418004-05200-039300FM-12+021199999V0200901N004612200019N0200001N1+03501+01631100361ADDAA106000091GF102991021011008001001001MA1999999098031MD1999999+0021REMSYN070AAXX  24184 82586 32598 20909 10350 20163 39803 40036 82100 333 58002;EQDQ01  00002PRCP06
0208825860999992004122500004-05200-039300FM-12+021199999V0200501N005712200019N0010001N1+02871+02061100451ADDAA106000091GA1001+999999999GF100991001001999999001001KA1240M+03561MA1999999098111MD1999999+0001REMSYN082AAXX  25004 82586 32994 00511 10287 20206 39811 40045 333 10356 29056 55105 58000;EQDQ01  00002PRCP06
0186825860999992004122512004-05200-039300FM-12+021199999V0200901N005110075019N0200001N1+02941+02031100711ADDAA106000091GF106991061041008001001001KA1240N+02371MA1999999098371MD1999999+0071REMSYN076AAXX  25124 82586 32598 60910 10294 20203 39837 40071 86400 333 20237 58007;EQDQ01  00002PRCP06
0167825860999992004122518004-05200-039300FM-12+021199999V0200901N004112200019N0200001N1+03471+01821100391ADDAA106000091GF104991041041008001001001MA1999999098061MD1999999+0031REMSYN070AAXX  25184 82586 32598 40908 10347 20182 39806 40039 84400 333 58003;EQDQ01  00002PRCP06
0202825860999992004122600004-05200-039300FM-12+021299999V0200501N005719999999N0010001N1+02741+02171100611ADDAY161061AY221061GF106991061001008001051001KA1240M+03581MA1999999098271MD1999999+0161MW1031REMSYN100AAXX  26004 82586 21594 60511 10274 20217 39827 40061 70362 86050 333 10358 29060 55090 58016 60031;
0181825860999992004122612004-05200-039300FM-12+021299999V0200901N003110075019N0200001N1+02641+02181100751ADDGF108991999051008001001001KA1240N+02431MA1999999098391MD1999999+0021REMSYN082AAXX  26124 82586 22598 80906 10264 20218 39839 40075 87500 333 20243 58002 60034;EQDQ01+000072SCOTLC
0183825860999992004122618004-05200-039300FM-12+021299999V0201401N003619999999N0200001N1+03401+01851100461ADDAA106000091GF107991999021008001001001MA1999999098131MD1999999+0071REMSYN070AAXX  26184 82586 32598 71407 10340 20185 39813 40046 83200 333 58007;EQDQ01+000032SCOTLCQ02  00002PRCP06
0214825860999992004122700004-05200-039300FM-12+021299999V0200501N005119999999N0010001N1+02921+02011100541ADDAA106000091GF106991999021008001001001KA1240M+03531MA1999999098191MD1999999-0081REMSYN088AAXX  27004 82586 32594 60510 10292 20201 39819 40054 83200 333 10353 29058 55054 59008;EQDQ01+000032SCOTLCQ02  00002PRCP06
0186825860999992004122712004-05200-039300FM-12+021299999V0200901N005710075019N0200001N1+02881+02031100641ADDAA106000091GF106991061041008001001001KA1240N+02551MA1999999098301MD1999999-0091REMSYN076AAXX  27124 82586 32598 60911 10288 20203 39830 40064 86400 333 20255 59009;EQDQ01  00002PRCP06
0167825860999992004122718004-05200-039300FM-12+021299999V0200901N003112200019N0200001N1+03421+01721100401ADDAA106000091GF107991031021008001001041MA1999999098071MD1999999-0061REMSYN070AAXX  27184 82586 32598 70906 10342 20172 39807 40040 83204 333 59006;EQDQ01  00002PRCP06
0198825860999992004122800004-05200-039300FM-12+021199999V0200901N006712200019N0010001N1+02821+02101100501ADDAA106000091GF103991001001999999001041KA1240M+03561MA1999999098161MD1999999-0031REMSYN088AAXX  28004 82586 32994 30913 10282 20210 39816 40050 80004 333 10356 29057 55088 59003;EQDQ01  00002PRCP06
0186825860999992004122812004-05200-039300FM-12+021199999V0200501N005110075019N0200001N1+02901+02151100711ADDAA106000091GF106991061021008001001001KA1240N+02481MA1999999098371MD1999999+0071REMSYN076AAXX  28124 82586 32598 60510 10290 20215 39837 40071 86200 333 20248 58007;EQDQ01  00002PRCP06
0167825860999992004122818004-05200-039300FM-12+021199999V0200901N001510075019N0200001N1+03331+01851100501ADDAA106000091GF107991071041008001001001MA1999999098161MD1999999+0111REMSYN070AAXX  28184 82586 32598 70903 10333 20185 39816 40050 87400 333 58011;EQDQ01  00002PRCP06
0186825860999992004122912004-05200-039300FM-12+021199999V02099999999990075019N0200001N1+02781+02041100961ADDAA106000091GF107991071041008001001001KA1240N+02411MA1999999098601MD1999999+0231REMSYN076AAXX  29124 82586 32598 709// 10278 20204 39860 40096 87400 333 20241 58023;EQDQ01  00002PRCP06
0167825860999992004122918004-05200-039300FM-12+021199999V0200901N002110075019N0200001N1+03201+01981100731ADDAA106000091GF107991071071008001001001MA1999999098381MD1999999+0221REMSYN070AAXX  29184 82586 32598 70904 10320 20198 39838 40073 87700 333 58022;EQDQ01  00002PRCP06
0198825860999992004123000004-05200-039300FM-12+021199999V0200501N005710120019N0010001N1+02821+02071100831ADDAA106000091GF105991051001012501021001KA1240M+03351MA1999999098481MD1999999+0111REMSYN088AAXX  30004 82586 32694 50511 10282 20207 39848 40083 85020 333 10335 29060 55051 58011;EQDQ01  00002PRCP06
0186825860999992004123012004-05200-039300FM-12+021199999V0200501N004110075019N0200001N1+02761+01801100881ADDAA106000091GF108991081071008001999999KA1240N+02361MA1999999098531MD1999999-0071REMSYN076AAXX  30124 82586 32598 80508 10276 20180 39853 40088 887// 333 20236 59007;EQDQ01  00002PRCP06
0167825860999992004123018004-05200-039300FM-12+021199999V0200901N003610075019N0200001N1+03421+01981100551ADDAA106000091GF107991071041008001001001MA1999999098211MD1999999-0171REMSYN070AAXX  30184 82586 32598 70907 10342 20198 39821 40055 87400 333 59017;EQDQ01  00002PRCP06
0162825860999992004123112004-05200-039300FM-12+021199999V0200901N007212200019N0200001N1+02811+01921100831ADDGF104991041021008001001001KA1240N+02501MA1999999098471MD1999999-0061REMSYN082AAXX  31124 82586 22598 40914 10281 20192 39847 40083 84200 333 20250 59006 69964;
0167825860999992004123118004-05200-039300FM-12+021199999V02099999999992200019N0200001N1+03501+01681100561ADDAA106000091GF102991021021008001001001MA1999999098231MD1999999+0021REMSYN070AAXX  31184 82586 32598 205// 10350 20168 39823 40056 82200 333 58002;EQDQ01  00002PRCP06
