0172825830999992004010112004-05167-040667FM-12+029999999V0200901N006212200019N0500001N1+02961+01871999999ADDAA106000091GF106991031011008001001011KA1240N+02461MA1999999097861REMSYN076AAXX  01124 82583 32599 60912 10296 20187 39786 4//// 83101 333 20246 5////;EQDQ01  00002PRCP06
0184825830999992004010200004-05167-040667FM-12+029999999V0200501N002612200019N0040001N1+03051+01791100831ADDAA106000091GF103991011011008001001041KA1240M+03731MA1999999097511REMSYN088AAXX  02004 82583 32596 30505 10305 20179 39751 40083 81104 333 10373 29042 55083 5////;EQDQ01  00002PRCP06
0186825830999992004010212004-05167-040667FM-12+029999999V0200901N004611050019N0500001N1+02991+01941101071ADDAA106000091GF106991021011008001001021KA1240N+02491MA1999999097751MD1999999-0111REMSYN076AAXX  02124 82583 32599 60909 10299 20194 39775 40107 82102 333 20249 59011;EQDQ01  00002PRCP06
0202825830999992004010300004-05167-040667FM-12+029999999V0203201N002110075019N0040001N1+02931+01971100761ADDAY161061AY261061GF108991081051008001999999KA1240M+03641MA1999999097441MD1999999-0071MW1021REMSYN100AAXX  03004 82583 21596 83204 10293 20197 39744 40076 70266 885// 333 10364 29050 55069 59007 60021;
0162825830999992004010312004-05167-040667FM-12+029999999V0200901N002110075019N0500001N1+02811+02021100971ADDGF106991051021008001001011KA1240N+02541MA1999999097631MD1999999-0121REMSYN082AAXX  03124 82583 22599 60904 10281 20202 39763 40097 85201 333 20254 59012 60024;
0190825830999992004010412004-05167-040667FM-12+029999999V0200901N003110075019N0500001N1+03001+01971100891ADDAY161061AY261061GF106991061021008001001001KA1240N+02621MA1999999097571MD1999999-0061MW1021REMSYN088AAXX  04124 82583 21599 60906 10300 20197 39757 40089 70266 86200 333 20262 59006 69924;
0198825830999992004010500004-05167-040667FM-12+029999999V0200901N001012200019N0040001N1+03061+01661100691ADDAA106000091GF102991021011008001001001KA1240M+03601MA1999999097371MD1999999+0021REMSYN088AAXX  05004 82583 32596 20902 10306 20166 39737 40069 82100 333 10360 29042 55079 58002;EQDQ01  00002PRCP06
0202825830999992004010512004-05167-040667FM-12+029999999V0200901N006712200019N0500001N1+02931+01881100941ADDAA106000091GF104991999011008001001001KA1240N+02571MA1999999097621MD1999999+0051REMSYN076AAXX  05124 82583 32599 40913 10293 20188 39762 40094 83100 333 20257 58005;EQDQ01+000032SCOTLCQ02  00002PRCP06
0198825830999992004010600004-05167-040667FM-12+029999999V0200901N001512200019N0040001N1+03061+01511100681ADDAA106000091GF101991011011008001001001KA1240M+03611MA1999999097321MD1999999-0051REMSYN088AAXX  06004 82583 32596 10903 10306 20151 39732 40068 81100 333 10361 29040 55105 59005;EQDQ01  00002PRCP06
0186825830999992004010612004-05167-040667FM-12+029999999V0200901N005712200019N0500001N1+02971+01861101001ADDAA106000091GF103991031011008001001001KA1240N+02451MA1999999097681MD1999999+0061REMSYN076AAXX  06124 82583 32599 30911 10297 20186 39768 40100 83100 333 20245 58006;EQDQ01  00002PRCP06
0198825830999992004010700004-05167-040667FM-12+029999999V0200901N001512200019N0040001N1+03041+01371100701ADDAA106000091GF101991011011008001001001KA1240M+03681MA1999999097381MD1999999+0061REMSYN088AAXX  07004 82583 32596 10903 10304 20137 39738 40070 81100 333 10368 29038 55103 58006;EQDQ01  00002PRCP06
0186825830999992004010712004-05167-040667FM-12+029999999V0200901N004610120019N0500001N1+02941+01911100951ADDAA106000091GF107991071081008001001001KA1240N+02521MA1999999097631MD1999999-0051REMSYN076AAXX  07124 82583 32599 70909 10294 20191 39763 40095 87800 333 20252 59005;EQDQ01  00002PRCP06
0186825830999992004010812004-05167-040667FM-12+029999999V0200901N002112200019N0500001N1+03061+01901100901ADDAA106000091GF101991011011008001001001KA1240N+02431MA1999999097591MD1999999-0041REMSYN076AAXX  08124 82583 32599 10904 10306 20190 39759 40090 81100 333 20243 59004;EQDQ01  00002PRCP06
0198825830999992004010900004-05167-040667FM-12+029999999V0200501N001512200019N0040001N1+03161+01431100681ADDAA106000091GF101991011011008001001001KA1240M+03761MA1999999097361MD1999999+0021REMSYN088AAXX  09004 82583 32596 10503 10316 20143 39736 40068 81100 333 10376 29037 55107 58002;EQDQ01  00002PRCP06
0186825830999992004010912004-05167-040667FM-12+029999999V0200901N004612200019N0500001N1+03061+02141100901ADDAA106000091GF103991031011008001001001KA1240N+02561MA1999999097591MD1999999+0001REMSYN076AAXX  09124 82583 32599 30909 10306 20214 39759 40090 83100 333 20256 58000;EQDQ01  00002PRCP06
0226825830999992004011000004-05167-040667FM-12+029999999V0203201N005710120019N0040001N1+02761+02071100811ADDAA106000091AY121061AY211061GF108991081081008001999999KA1240M+03711MA1999999097481MD1999999+0121MW1131REMSYN094AAXX  10004 82583 31596 83211 10276 20207 39748 40081 71321 888// 333 10371 29058 55084 58012;EQDQ01  00002PRCP06
0190825830999992004011012004-05167-040667FM-12+029999999V0203201N001510120019N0500001N1+02731+02211100901ADDAY161061AY261061GF108991081081008001999999KA1240N+02471MA1999999097551MD1999999-0041MW1021REMSYN088AAXX  10124 82583 21599 83203 10273 20221 39755 40090 70266 888// 333 20247 59004 69964;
0202825830999992004011100004-05167-040667FM-12+029999999V0203601N002112200019N0040001N1+03001+02001100841ADDAY161061AY261061GF102991021081008001001001KA1240M+03581MA1999999097511MD1999999+0031MW1021REMSYN100AAXX  11004 82583 21596 23604 10300 20200 39751 40084 70266 82800 333 10358 29052 55044 58003 60011;
0162825830999992004011112004-05167-040667FM-12+029999999V0200501N002110120019N0500001N1+02741+02171101081ADDGF108991081081008001999999KA1240N+02451MA1999999097741MD1999999+0191REMSYN082AAXX  11124 82583 22599 80504 10274 20217 39774 40108 888// 333 20245 58019 60014;
0198825830999992004011200004-05167-040667FM-12+029999999V0201801N002112200019N0040001N1+02941+02081100961ADDAA106000091GF101991011011008001001001KA1240M+03281MA1999999097581MD1999999+0171REMSYN088AAXX  12004 82583 32596 11804 10294 20208 39758 40096 81100 333 10328 29056 55013 58017;EQDQ01  00002PRCP06
0190825830999992004011212004-05167-040667FM-12+029999999V0201801N000510042019N0100001N1+02321+02271101351ADDAY191061AY261061GF108991081051004501999999KA1240N+02141MA1999999097971MD1999999+0231MW1531REMSYN088AAXX  12124 82583 21497 81801 10232 20227 39797 40135 75396 885// 333 20214 58023 61134;
0202825830999992004011300004-05167-040667FM-12+029999999V0201801N002110075019N0040001N1+02611+02311101101ADDAY151061AY251061GF106991061051008001001001KA1240M+02991MA1999999097721MD1999999+0041MW1021REMSYN100AAXX  13004 82583 21596 61804 10261 20231 39772 40110 70255 86500 333 10299 29082 55000 58004 69941;
0190825830999992004011312004-05167-040667FM-12+029999999V0200501N003610075019N0500001N1+02731+02211101121ADDAY161061AY261061GF106991051021008001001011KA1240N+02321MA1999999097761MD1999999-0211MW1021REMSYN088AAXX  13124 82583 21599 60507 10273 20221 39776 40112 70266 85201 333 20232 59021 60024;
0202825830999992004011400004-05167-040667FM-12+029999999V0203601N002110120019N0040001N1+02741+02171100961ADDAY161061AY261061GF107991071081008001001001KA1240M+03371MA1999999097611MD1999999-0111MW1031REMSYN100AAXX  14004 82583 21596 73604 10274 20217 39761 40096 70366 87800 333 10337 29064 55066 59011 69921;
0190825830999992004011412004-05167-040667FM-12+029999999V0203601N000510075019N0500001N1+02601+02271101171ADDAY151061AY251061GF108991081051008001999999KA1240N+02481MA1999999097811MD1999999+0051MW1021REMSYN088AAXX  14124 82583 21599 83601 10260 20227 39781 40117 70255 885// 333 20248 58005 69974;
0202825830999992004011500004-05167-040667FM-12+029999999V0203601N001010090019N0010001N1+02251+02211101291ADDAY161061AY261061GF108991081081004501999999KA1240M+03151MA1999999097891MD1999999+0281MW1631REMSYN100AAXX  15004 82583 21494 83602 10225 20221 39789 40129 76366 888// 333 10315 29094 55013 58028 60701;
0190825830999992004011512004-05167-040667FM-12+029999999V0200901N001012200019N0500001N1+02611+02251101101ADDAY151061AY251061GF104991041021008001001001KA1240N+02231MA1999999097721MD1999999-0071MW1021REMSYN088AAXX  15124 82583 21599 40902 10261 20225 39772 40110 70255 84200 333 20223 59007 60714;
0198825830999992004011600004-05167-040667FM-12+029999999V0200901N002110075019N0040001N1+02671+02281100941ADDAA106000091GF106991061021008001001001KA1240M+03341MA1999999097581MD1999999-0311REMSYN088AAXX  16004 82583 32596 60904 10267 20228 39758 40094 86200 333 10334 29070 55097 59031;EQDQ01  00002PRCP06
0186825830999992004011612004-05167-040667FM-12+029999999V0200901N002610120019N0500001N1+02711+02281100911ADDAA106000091GF107991061081008001001011KA1240N+02431MA1999999097551MD1999999-0171REMSYN076AAXX  16124 82583 32599 70905 10271 20228 39755 40091 86801 333 20243 59017;EQDQ01  00002PRCP06
0198825830999992004011700004-05167-040667FM-12+029999999V0203601N005110075019N0040001N1+02901+02301100711ADDAA106000091GF107991071051008001001001KA1240M+03371MA1999999097371MD1999999-0211REMSYN088AAXX  17004 82583 32596 73610 10290 20230 39737 40071 87500 333 10337 29064 55060 59021;EQDQ01  00002PRCP06
0190825830999992004011712004-05167-040667FM-12+029999999V0201401N000510120019N0500001N1+02601+02311101021ADDAY151061AY251061GF108991081081008001999999KA1240N+02461MA1999999097661MD1999999+0111MW1021REMSYN088AAXX  17124 82583 21599 81401 10260 20231 39766 40102 70255 888// 333 20246 58011 69914;
0202825830999992004011800004-05167-040667FM-12+029999999V0203601N003110042019N0020001N1+02321+02271101131ADDAY161061AY261061GF108991081051004501999999KA1240M+03121MA1999999097751MD1999999+0381MW1631REMSYN100AAXX  18004 82583 21495 83606 10232 20227 39775 40113 76366 885// 333 10312 29081 55004 58038 60111;
0190825830999992004011812004-05167-040667FM-12+029999999V0203201N002110075019N0500001N1+02501+02071101311ADDAY161061AY261061GF108991081051008001999999KA1240N+02111MA1999999097911MD1999999+0251MW1021REMSYN088AAXX  18124 82583 21599 83204 10250 20207 39791 40131 70266 885// 333 20211 58025 60364;
0198825830999992004011900004-05167-040667FM-12+029999999V0203601N001512200019N0040001N1+02571+02121101101ADDAA106000091GF102991021021008001001001KA1240M+02871MA1999999097721MD1999999-0031REMSYN088AAXX  19004 82583 32596 23603 10257 20212 39772 40110 82200 333 10287 29071 55000 59003;EQDQ01  00002PRCP06
0190825830999992004011912004-05167-040667FM-12+029999999V0203601N000510075019N0500001N1+02501+02121101121ADDAY151061AY251061GF106991061051008001001001KA1240N+02291MA1999999097751MD1999999-0161MW1021REMSYN088AAXX  19124 82583 21599 63601 10250 20212 39775 40112 70255 86500 333 20229 59016 69914;
0202825830999992004012000004-05167-040667FM-12+029999999V0203201N003110042019N0020001N1+02471+02291101031ADDAY121061AY221061GF108991081051004501999999KA1240M+03171MA1999999097651MD1999999-0071MW1631REMSYN100AAXX  20004 82583 21495 83206 10247 20229 39765 40103 76322 885// 333 10317 29074 55039 59007 69991;
0190825830999992004012012004-05167-040667FM-12+029999999V0203601N001510450019N0500001N1+02661+02311101091ADDAY161061AY261061GF106991041021012501031001KA1240N+02361MA1999999097711MD1999999-0041MW1031REMSYN088AAXX  20124 82583 21699 63603 10266 20231 39771 40109 70366 84230 333 20236 59004 60014;
0202825830999992004012100004-05167-040667FM-12+029999999V0203601N000510075019N0020001N1+02391+02311101071ADDAY121061AY221061GF108991051061008001021999KA1240M+02891MA1999999097691MD1999999+0041MW1631REMSYN100AAXX  21004 82583 21595 83601 10239 20231 39769 40107 76322 8562/ 333 10289 29083 55012 58004 60031;
0162825830999992004012112004-05167-040667FM-12+029999999V0201401N002110120019N0500001N1+02411+02261101201ADDGF108991081081008001999999KA1240N+02291MA1999999097801MD1999999+0091REMSYN082AAXX  21124 82583 22599 81404 10241 20226 39780 40120 888// 333 20229 58009 60034;
0198825830999992004012200004-05167-040667FM-12+029999999V0200901N002119999999N0040001N1+02551+02351101061ADDAA106000091GF108991081999008001999999KA1240M+03101MA1999999097681MD1999999-0121REMSYN088AAXX  22004 82583 32596 80904 10255 20235 39768 40106 88/// 333 10310 29080 55028 59012;EQDQ01  00002PRCP06
0190825830999992004012212004-05167-040667FM-12+029999999V0200901N001510075019N0200001N1+02431+02321101011ADDAY161061AY261061GF108991081051008001999999KA1240N+02261MA1999999097631MD1999999-0171MW1201REMSYN088AAXX  22124 82583 21598 80903 10243 20232 39763 40101 72066 885// 333 20226 59017 60704;
0202825830999992004012300004-05167-040667FM-12+029999999V0201801N001010075019N0040001N1+02381+02261100931ADDAY161061AY261061GF108991081051008001999999KA1240M+02941MA1999999097541MD1999999-0141MW1021REMSYN100AAXX  23004 82583 21596 81802 10238 20226 39754 40093 70266 885// 333 10294 29084 55025 59014 60011;
0190825830999992004012312004-05167-040667FM-12+029999999V0200901N001010075019N0500001N1+02471+02251100991ADDAY161061AY261061GF108991081051008001999999KA1240N+02141MA1999999097601MD1999999-0031MW1031REMSYN088AAXX  23124 82583 21599 80902 10247 20225 39760 40099 70366 885// 333 20214 59003 60404;
0202825830999992004012400004-05167-040667FM-12+029999999V0202301N000510042019N0020001N1+02301+02131101101ADDAY161061AY261061GF108991081051004501999999KA1240M+02971MA1999999097711MD1999999+0171MW1611REMSYN100AAXX  24004 82583 21495 82301 10230 20213 39771 40110 76166 885// 333 10297 29083 55024 58017 60041;
0190825830999992004012412004-05167-040667FM-12+029999999V0202701N000510075019N0500001N1+02471+02171101161ADDAY151061AY251061GF108991081051008001999999KA1240N+02261MA1999999097761MD1999999+0101MW1021REMSYN088AAXX  24124 82583 21599 82701 10247 20217 39776 40116 70255 885// 333 20226 58010 60044;
0190825830999992004012512004-05167-040667FM-12+029999999V0203201N002110075019N0500001N1+02471+02171101191ADDAY161061AY261061GF108991081051008001999999KA1240N+02121MA1999999097781MD1999999+0021MW1021REMSYN088AAXX  25124 82583 21599 83204 10247 20217 39778 40119 70266 885// 333 20212 58002 60634;
0202825830999992004012600004-05167-040667FM-12+029999999V0200501N001010042019N0010001N1+02281+02161101141ADDAY161061AY261061GF108991081051004501999999KA1240M+02681MA1999999097741MD1999999-0081MW1631REMSYN100AAXX  26004 82583 21494 80502 10228 20216 39774 40114 76366 885// 333 10268 29088 55000 59008 60421;
0190825830999992004012612004-05167-040667FM-12+029999999V0200901N001510120019N0500001N1+02481+02251101141ADDAY161061AY261061GF107991061081008001031999KA1240N+02211MA1999999097741MD1999999-0041MW1021REMSYN088AAXX  26124 82583 21599 70903 10248 20225 39774 40114 70266 8683/ 333 20221 59004 60534;
0202825830999992004012700004-05167-040667FM-12+029999999V0203601N001510042019N0010001N1+02461+02361100981ADDAY121061AY221061GF108991081051004501999999KA1240M+03101MA1999999097601MD1999999-0141MW1631REMSYN100AAXX  27004 82583 21494 83603 10246 20236 39760 40098 76322 885// 333 10310 29082 55061 59014 60051;
0190825830999992004012712004-05167-040667FM-12+029999999V0200901N002110075019N0500001N1+02391+02281101201ADDAY161061AY261061GF108991071051008001021999KA1240N+02211MA1999999097801MD1999999+0061MW1031REMSYN088AAXX  27124 82583 21599 80904 10239 20228 39780 40120 70366 8752/ 333 20221 58006 60654;
0202825830999992004012800004-05167-040667FM-12+029999999V0202701N001010090019N0020001N1+02361+02261101231ADDAY161061AY261061GF108991081081004501999999KA1240M+02761MA1999999097831MD1999999+0231MW1611REMSYN100AAXX  28004 82583 21495 82702 10236 20226 39783 40123 76166 888// 333 10276 29095 55005 58023 60091;
0190825830999992004012812004-05167-040667FM-12+029999999V0202701N001510075019N0500001N1+02331+02201101281ADDAY161061AY261061GF107991071091008001001001KA1240N+02081MA1999999097871MD1999999+0071MW1021REMSYN088AAXX  28124 82583 21599 72703 10233 20220 39787 40128 70266 87900 333 20208 58007 60324;
0198825830999992004012900004-05167-040667FM-12+029999999V0202701N000512200019N0040001N1+02521+02331101061ADDAA106000091GF103991031021008001001001KA1240M+02971MA1999999097671MD1999999-0161REMSYN088AAXX  29004 82583 32596 32701 10252 20233 39767 40106 83200 333 10297 29080 55043 59016;EQDQ01  00002PRCP06
0202825830999992004013000004-05167-040667FM-12+029999999V0203601N000510042019N0020001N1+02221+02171101321ADDAY161061AY261061GF108991081051004501999999KA1240M+02601MA1999999097911MD1999999+0241MW1631REMSYN100AAXX  30004 82583 21495 83601 10222 20217 39791 40132 76366 885// 333 10260 29096 55000 58024 60331;
0190825830999992004013012004-05167-040667FM-12+029999999V0201401N002110075019N0500001N1+02531+02251101261ADDAY161061AY261061GF106991051021008001001011KA1240N+02191MA1999999097861MD1999999+0041MW1021REMSYN088AAXX  30124 82583 21599 61404 10253 20225 39786 40126 70266 85201 333 20219 58004 60354;
0202825830999992004013100004-05167-040667FM-12+029999999V0200501N001010090019N0020001N1+02401+02281101181ADDAY161061AY261061GF108991081081004501999999KA1240M+03041MA1999999097791MD1999999-0121MW1501REMSYN100AAXX  31004 82583 21495 80502 10240 20228 39779 40118 75066 888// 333 10304 29082 55080 59012 60141;
0162825830999992004013112004-05167-040667FM-12+029999999V0201401N002110120019N0500001N1+02581+02191101261ADDGF107991071081008001001001KA1240N+02161MA1999999097871MD1999999+0011REMSYN082AAXX  31124 82583 22599 71404 10258 20219 39787 40126 87800 333 20216 58001 60144;
0202825830999992004020100004-05167-040667FM-12+029999999V0203201N001010120019N0040001N1+02401+02261101211ADDAY121061AY221061GF108991081081008001999999KA1240M+03171MA1999999097831MD1999999-0041MW1211REMSYN100AAXX  01004 82583 21596 83202 10240 20226 39783 40121 72122 888// 333 10317 29076 55085 59004 69941;
0162825830999992004020112004-05167-040667FM-12+029999999V0200901N002110075019N0500001N1+02591+02271101371ADDGF106991061021008001001001KA1240N+02311MA1999999097981MD1999999+0111REMSYN082AAXX  01124 82583 22599 60904 10259 20227 39798 40137 86200 333 20231 58011 69944;
0198825830999992004020200004-05167-040667FM-12+029999999V0200901N003611050019N0040001N1+02481+02151101171ADDAA106000091GF106991021021008001001021KA1240M+03101MA1999999097791MD1999999-0041REMSYN088AAXX  02004 82583 32596 60907 10248 20215 39779 40117 82202 333 10310 29075 55072 59004;EQDQ01  00002PRCP06
0186825830999992004020212004-05167-040667FM-12+029999999V0202301N000510450019N0500001N1+02541+02151101211ADDAA106000091GF107991041021008001031021KA1240N+02261MA1999999097831MD1999999-0151REMSYN076AAXX  02124 82583 32599 72301 10254 20215 39783 40121 84232 333 20226 59015;EQDQ01  00002PRCP06
0202825830999992004020300004-05167-040667FM-12+029999999V0203601N001510120019N0040001N1+02351+02221101121ADDAY191061AY261061GF108991081081008001999999KA1240M+03091MA1999999097741MD1999999-0051MW1021REMSYN100AAXX  03004 82583 21596 83603 10235 20222 39774 40112 70296 888// 333 10309 29080 55039 59005 60031;
0162825830999992004020312004-05167-040667FM-12+029999999V0200501N000510075019N0500001N1+02631+02231101091ADDGF106991051021008001001011KA1240N+02261MA1999999097711MD1999999-0121REMSYN082AAXX  03124 82583 22599 60501 10263 20223 39771 40109 85201 333 20226 59012 60034;
0202825830999992004020400004-05167-040667FM-12+029999999V0203201N000510075019N0040001N1+02441+02391101031ADDAY191061AY261061GF106991051021008001031001KA1240M+03011MA1999999097651MD1999999-0091MW1021REMSYN100AAXX  04004 82583 21596 63201 10244 20239 39765 40103 70296 85230 333 10301 29083 55060 59009 60241;
0190825830999992004020412004-05167-040667FM-12+029999999V0200901N002110120019N0500001N1+02631+02271101171ADDAY161061AY261061GF106991051081008001031001KA1240N+02301MA1999999097791MD1999999+0081MW1021REMSYN088AAXX  04124 82583 21599 60904 10263 20227 39779 40117 70266 85830 333 20230 58008 60244;
0202825830999992004020500004-05167-040667FM-12+029999999V0209999C000010042019N0020001N1+02281+02141101141ADDAY161061AY261061GF108991081051004501999999KA1240M+03041MA1999999097751MD1999999+0101MW1611REMSYN100AAXX  05004 82583 21495 81400 10228 20214 39775 40114 76166 885// 333 10304 29080 55051 58010 60161;
0190825830999992004020512004-05167-040667FM-12+029999999V0201401N001010090019N0500001N1+02501+02211101121ADDAY161061AY251061GF108991081081004501999999KA1240N+02261MA1999999097731MD1999999-0061MW1021REMSYN088AAXX  05124 82583 21499 81402 10250 20221 39773 40112 70265 888// 333 20226 59006 60174;
0202825830999992004020600004-05167-040667FM-12+029999999V0203601N001510042019N0020001N1+02331+02291101131ADDAY161061AY261061GF108991051051004501999999KA1240M+02951MA1999999097741MD1999999-0011MW1611REMSYN100AAXX  06004 82583 21495 83603 10233 20229 39774 40113 76166 855// 333 10295 29086 55006 59001 60111;
0190825830999992004020612004-05167-040667FM-12+029999999V0201401N002610450019N0500001N1+02531+02231101111ADDAY161061AY261061GF106991041021008001031001KA1240N+02131MA1999999097731MD1999999+0001MW1031REMSYN088AAXX  06124 82583 21599 61405 10253 20223 39773 40111 70366 84230 333 20213 58000 60174;
0202825830999992004020700004-05167-040667FM-12+029999999V0201401N001010120019N0040001N1+02481+02261100961ADDAY121061AY221061GF108991081081008001999999KA1240M+03091MA1999999097581MD1999999-0161MW1611REMSYN100AAXX  07004 82583 21596 81402 10248 20226 39758 40096 76122 888// 333 10309 29080 55090 59016 69951;
0190825830999992004020712004-05167-040667FM-12+029999999V0200901N000510075019N0500001N1+02481+02151101041ADDAY151061AY251061GF108991081061008001999999KA1240N+02211MA1999999097661MD1999999-0071MW1031REMSYN088AAXX  07124 82583 21599 80901 10248 20215 39766 40104 70355 886// 333 20221 59007 60024;
0202825830999992004020800004-05167-040667FM-12+029999999V0203601N001510120019N0040001N1+02301+02111101101ADDAY161061AY261061GF106991061081008001001001KA1240M+03011MA1999999097711MD1999999+0131MW1021REMSYN100AAXX  08004 82583 21596 63603 10230 20211 39771 40110 70266 86800 333 10301 29084 55010 58013 60031;
0162825830999992004020812004-05167-040667FM-12+029999999V0200501N001010075019N0500001N1+02611+02271101221ADDGF106991061021008001001001KA1240N+02221MA1999999097831MD1999999+0171REMSYN082AAXX  08124 82583 22599 60502 10261 20227 39783 40122 86200 333 20222 58017 60034;
0202825830999992004020900004-05167-040667FM-12+029999999V0203201N001512200019N0040001N1+02291+02201101271ADDAY161061AY261061GF103991031041008001001001KA1240M+03001MA1999999097871MD1999999+0161MW1011REMSYN100AAXX  09004 82583 21596 33203 10229 20220 39787 40127 70166 83400 333 10300 29091 55044 58016 60041;
0162825830999992004020912004-05167-040667FM-12+029999999V0200501N002610120019N0500001N1+02561+02251101361ADDGF106991061081008001001001KA1240N+02211MA1999999097961MD1999999+0131REMSYN082AAXX  09124 82583 22599 60505 10256 20225 39796 40136 86800 333 20221 58013 60044;
0198825830999992004021000004-05167-040667FM-12+029999999V0203601N001512200019N0040001N1+02601+02311101101ADDAA106000091GF102991021021008001001001KA1240M+03151MA1999999097731MD1999999-0141REMSYN088AAXX  10004 82583 32596 23603 10260 20231 39773 40110 82200 333 10315 29074 55084 59014;EQDQ01  00002PRCP06
0186825830999992004021012004-05167-040667FM-12+029999999V0200501N002110075019N0500001N1+02651+02161101181ADDAA106000091GF105991051021008001001001KA1240N+02261MA1999999097811MD1999999-0151REMSYN076AAXX  10124 82583 32599 50504 10265 20216 39781 40118 85200 333 20226 59015;EQDQ01  00002PRCP06
0198825830999992004021100004-05167-040667FM-12+029999999V0200901N001012200019N0040001N1+02531+02171101041ADDAA106000091GF101991011011008001001001KA1240M+03141MA1999999097671MD1999999-0061REMSYN088AAXX  11004 82583 32596 10902 10253 20217 39767 40104 81100 333 10314 29070 55096 59006;EQDQ01  00002PRCP06
0186825830999992004021112004-05167-040667FM-12+029999999V0200901N003112200019N0500001N1+02741+02301101091ADDAA106000091GF102991021011008001001001KA1240N+02201MA1999999097731MD1999999-0081REMSYN076AAXX  11124 82583 32599 20906 10274 20230 39773 40109 82100 333 20220 59008;EQDQ01  00002PRCP06
0208825830999992004021200004-05167-040667FM-12+029999999V0200901N001512200019N0040001N1+02521+02071101051ADDAA106000091GA1001+999999999GF100991001001999999001001KA1240M+03161MA1999999097691MD1999999+0021REMSYN082AAXX  12004 82583 32596 00903 10252 20207 39769 40105 333 10316 29067 55109 58002;EQDQ01  00002PRCP06
0186825830999992004021212004-05167-040667FM-12+029999999V0200901N003112200019N0500001N1+02811+02201101171ADDAA106000091GF102991011011008001041001KA1240N+02211MA1999999097811MD1999999+0081REMSYN076AAXX  12124 82583 32599 20906 10281 20220 39781 40117 81140 333 20221 58008;EQDQ01  00002PRCP06
0208825830999992004021300004-05167-040667FM-12+029999999V0201401N001012200019N0040001N1+02521+02291101151ADDAA106000091GA1001+999999999GF100991001001999999001001KA1240M+03101MA1999999097791MD1999999+0101REMSYN082AAXX  13004 82583 32596 01402 10252 20229 39779 40115 333 10310 29075 55095 58010;EQDQ01  00002PRCP06
0190825830999992004021312004-05167-040667FM-12+029999999V0200901N004110120019N0500001N1+02641+02271101271ADDAY161061AY261061GF106991061081008001001001KA1240N+02221MA1999999097891MD1999999+0081MW1021REMSYN088AAXX  13124 82583 21599 60908 10264 20227 39789 40127 70266 86800 333 20222 58008 60024;
0198825830999992004021400004-05167-040667FM-12+029999999V0200901N000512200019N0040001N1+02631+02331101081ADDAA106000091GF101991011011008001001001KA1240M+03051MA1999999097721MD1999999-0071REMSYN088AAXX  14004 82583 32596 10901 10263 20233 39772 40108 81100 333 10305 29075 55068 59007;EQDQ01  00002PRCP06
0190825830999992004021412004-05167-040667FM-12+029999999V0200901N002110075019N0500001N1+02441+02231101251ADDAY161061AY251061GF107991051061008001021999KA1240N+02211MA1999999097871MD1999999-0021MW1031REMSYN088AAXX  14124 82583 21599 70904 10244 20223 39787 40125 70365 8562/ 333 20221 59002 60124;
0198825830999992004021500004-05167-040667FM-12+029999999V0200501N000512200019N0040001N1+02601+02291101081ADDAA106000091GF102991021011008001001001KA1240M+03041MA1999999097701MD1999999-0021REMSYN088AAXX  15004 82583 32596 20501 10260 20229 39770 40108 82100 333 10304 29076 55051 59002;EQDQ01  00002PRCP06
0186825830999992004021512004-05167-040667FM-12+029999999V0200901N002110075019N0500001N1+02581+02251101211ADDAA106000091GF107991071021008001001001KA1240N+02241MA1999999097841MD1999999-0031REMSYN076AAXX  15124 82583 32599 70904 10258 20225 39784 40121 87200 333 20224 59003;EQDQ01  00002PRCP06
0202825830999992004021600004-05167-040667FM-12+029999999V0200901N005710090019N0005001N1+02271+02251101241ADDAY161061AY261061GF108991081081004501999999KA1240M+03051MA1999999097841MD1999999+0141MW1971REMSYN100AAXX  16004 82583 21493 80911 10227 20225 39784 40124 79766 888// 333 10305 29083 55048 58014 60461;
0190825830999992004021612004-05167-040667FM-12+029999999V0201401N002110120019N0500001N1+02471+02251101201ADDAY161061AY261061GF108991051081008001041999KA1240N+02231MA1999999097901MD1999999+0061MW1021REMSYN088AAXX  16124 82583 21599 81404 10247 20225 39790 40120 70266 8584/ 333 20223 58006 60494;
0202825830999992004021700004-05167-040667FM-12+029999999V0203601N002112200019N0040001N1+02331+02261101361ADDAY161061AY261061GF103991031021008001001001KA1240M+03071MA1999999097861MD1999999+0021MW1011REMSYN100AAXX  17004 82583 21596 33604 10233 20226 39786 40136 70166 83200 333 10307 29084 55066 58002 60031;
0119825830999992004021712004-05167-040667FM-12+029999999V0200901N002110075019N0500001N1+00261+99999101281ADDGF108991081051008001999999MA1999999097881REMSYN066AAXX  17124 82583 22599 80904 10026 20222 39788 40128 59002 885//;
0186825830999992004021812004-05167-040667FM-12+029999999V0200501N003610120019N0500001N1+02681+02281101261ADDAA106000091GF106991061081008001001001KA1240N+02311MA1999999097881MD1999999+0001REMSYN076AAXX  18124 82583 32599 60507 10268 20228 39788 40126 86800 333 20231 58000;EQDQ01  00002PRCP06
0186825830999992004021912004-05167-040667FM-12+029999999V0200901N003110075019N0500001N1+02651+02111101091ADDAA106000091GF106991061021008001001001KA1240N+02231MA1999999097711MD1999999-0171REMSYN076AAXX  19124 82583 32599 60906 10265 20211 39771 40109 86200 333 20223 59017;EQDQ01  00002PRCP06
0208825830999992004022000004-05167-040667FM-12+029999999V0200901N001512200019N0040001N1+02471+02171100871ADDAA106000091GA1001+999999999GF100991001001999999001001KA1240M+03161MA1999999097511MD1999999-0161REMSYN082AAXX  20004 82583 32996 00903 10247 20217 39751 40087 333 10316 29070 55102 59016;EQDQ01  00002PRCP06
0186825830999992004022012004-05167-040667FM-12+029999999V0200501N002110075019N0500001N1+02691+02281101061ADDAA106000091GF106991051021008001001011KA1240N+02201MA1999999097691MD1999999-0021REMSYN076AAXX  20124 82583 32599 60504 10269 20228 39769 40106 85201 333 20220 59002;EQDQ01  00002PRCP06
0198825830999992004022100004-05167-040667FM-12+029999999V0200501N001012200019N0040001N1+02611+02161100951ADDAA106000091GF101991011011008001001001KA1240M+03191MA1999999097591MD1999999+0081REMSYN088AAXX  21004 82583 32596 10502 10261 20216 39759 40095 81100 333 10319 29068 55099 58008;EQDQ01  00002PRCP06
0186825830999992004022112004-05167-040667FM-12+029999999V0200501N002610075019N0500001N1+02651+02311101151ADDAA106000091GF106991061021008001001001KA1240N+02341MA1999999097791MD1999999+0101REMSYN076AAXX  21124 82583 32599 60505 10265 20231 39779 40115 86200 333 20234 58010;EQDQ01  00002PRCP06
0208825830999992004022200004-05167-040667FM-12+029999999V0200901N001512200019N0040001N1+02561+02311101111ADDAA106000091GA1001+999999999GF100991001001999999001001KA1240M+03041MA1999999097741MD1999999+0151REMSYN082AAXX  22004 82583 32996 00903 10256 20231 39774 40111 333 10304 29078 55080 58015;EQDQ01  00002PRCP06
0192825830999992004022212004-05167-040667FM-12+029999999V0200901N004610075019N0500001N1+02701+02261101261ADDAA106000091GF106991061011008001001001KA1240N+02341MA1999999097881MD1010001+0091REMSYN082AAXX  22124 82583 32599 60909 10270 20226 39788 40126 50000 86100 333 20234 58009;EQDQ01  00002PRCP06
0198825830999992004022300004-05167-040667FM-12+029999999V0200901N001512200019N0040001N1+02501+02271101121ADDAA106000091GF101991011021008001001001KA1240M+03011MA1999999097751MD1999999+0011REMSYN088AAXX  23004 82583 32596 10903 10250 20227 39775 40112 81200 333 10301 29075 55082 58001;EQDQ01  00002PRCP06
0186825830999992004022412004-05167-040667FM-12+029999999V0203201N000510075019N0500001N1+02541+02171101251ADDAA106000091GF108991081051008001999999KA1240N+02261MA1999999097871MD1999999+0001REMSYN076AAXX  24124 82583 32599 83201 10254 20217 39787 40125 885// 333 20226 58000;EQDQ01  00002PRCP06
0202825830999992004022500004-05167-040667FM-12+029999999V0200501N002110090019N0040001N1+02231+02171101181ADDAY121061AY221061GF108991081081004501999999KA1240M+02991MA1999999097781MD1999999+0071MW1951REMSYN100AAXX  25004 82583 21496 80504 10223 20217 39778 40118 79522 888// 333 10299 29085 55010 58007 60031;
0190825830999992004022512004-05167-040667FM-12+029999999V0201401N002110120019N0500001N1+02541+02271101221ADDAY151061AY251061GF106991051081008001001011KA1240N+02211MA1999999097821MD1999999-0051MW1021REMSYN088AAXX  25124 82583 21599 61404 10254 20227 39782 40122 70255 85801 333 20221 59005 60034;
0202825830999992004022600004-05167-040667FM-12+029999999V0200901N002611050019N0040001N1+02531+02251101011ADDAY151061AY251061GF107991031021008001001021KA1240M+03101MA1999999097631MD1999999-0151MW1031REMSYN100AAXX  26004 82583 21596 70905 10253 20225 39763 40101 70355 83202 333 10310 29079 55045 59015 69911;
0162825830999992004022612004-05167-040667FM-12+029999999V0203201N001010120019N0500001N1+02531+02351101301ADDGF107991061081008001001011KA1240N+02371MA1999999097921MD1999999+0101REMSYN082AAXX  26124 82583 22599 73202 10253 20235 39792 40130 86801 333 20237 58010 69914;
0186825830999992004022712004-05167-040667FM-12+029999999V0201401N002110075019N0500001N1+02551+02311101331ADDAA106000091GF107991061051008001021001KA1240N+02261MA1999999097931MD1999999+0011REMSYN076AAXX  27124 82583 32599 71404 10255 20231 39793 40133 86520 333 20226 58001;EQDQ01  00002PRCP06
0202825830999992004022800004-05167-040667FM-12+029999999V0202301N001010042019N0020001N1+02351+02311101201ADDAY161061AY261061GF108991081051004501999999KA1240M+03131MA1999999097811MD1999999-0191MW1611REMSYN100AAXX  28004 82583 21495 82302 10235 20231 39781 40120 76166 885// 333 10313 29086 55057 59019 60521;
0190825830999992004022812004-05167-040667FM-12+029999999V0200901N002612200019N0500001N1+02651+02371101071ADDAY151061AY251061GF105991021051008001001011KA1240N+02291MA1999999097691MD1999999-0231MW1021REMSYN088AAXX  28124 82583 21599 50905 10265 20237 39769 40107 70255 82501 333 20229 59023 60534;
0190825830999992004022912004-05167-040667FM-12+029999999V0200901N003610075019N0500001N1+02621+02311101221ADDAY191061AY291061GF107991071051008001001001KA1240N+02281MA1999999097841MD1999999+0151MW1021REMSYN088AAXX  29124 82583 21599 70907 10262 20231 39784 40122 70299 87500 333 20228 58015 60064;
0202825830999992004030100004-05167-040667FM-12+029999999V0200501N001012200019N0020001N1+02371+02281101071ADDAY161061AY261061GF103991031011004501001001KA1240M+03141MA1999999097691MD1999999+0011MW1021REMSYN100AAXX  01004 82583 21495 30502 10237 20228 39769 40107 70266 83100 333 10314 29082 55007 58001 60041;
0162825830999992004030112004-05167-040667FM-12+029999999V0200501N004110075019N0500001N1+02591+02211101171ADDGF106991061021008001001001KA1240N+02291MA1999999097791MD1999999-0051REMSYN082AAXX  01124 82583 22599 60508 10259 20221 39779 40117 86200 333 20229 59005 60044;
0198825830999992004030200004-05167-040667FM-12+029999999V0200901N002112200019N0040001N1+02481+02151101101ADDAA106000091GF101991001001999999001011KA1240M+03051MA1999999097721MD1999999+0031REMSYN088AAXX  02004 82583 32996 10904 10248 20215 39772 40110 80001 333 10305 29074 55081 58003;EQDQ01  00002PRCP06
0186825830999992004030212004-05167-040667FM-12+029999999V0200501N002610075019N0500001N1+02731+02211101091ADDAA106000091GF107991051021008001001011KA1240N+02201MA1999999097721MD1999999-0071REMSYN076AAXX  02124 82583 32599 70505 10273 20221 39772 40109 85201 333 20220 59007;EQDQ01  00002PRCP06
0198825830999992004030300004-05167-040667FM-12+029999999V0200501N001512200019N0040001N1+02541+02271100991ADDAA106000091GF106991011011008001001011KA1240M+03161MA1999999097631MD1999999-0091REMSYN088AAXX  03004 82583 32596 60503 10254 20227 39763 40099 81101 333 10316 29074 55093 59009;EQDQ01  00002PRCP06
0186825830999992004030312004-05167-040667FM-12+029999999V0203601N002112200019N0500001N1+02671+02351101211ADDAA106000091GF106991041021008001001011KA1240N+02371MA1999999097841MD1999999+0121REMSYN076AAXX  03124 82583 32599 63604 10267 20235 39784 40121 84201 333 20237 58012;EQDQ01  00002PRCP06
0214825830999992004030400004-05167-040667FM-12+029999999V0200501N001012200019N0040001N1+02491+02211100971ADDAA106000091GF104991001001999999001021KA1240M+03141MA1999999097601MD1999999-0031REMSYN088AAXX  04004 82583 32896 40502 10249 20221 39760 40097 80002 333 10314 29076 55047 59003;EQDQ01+022502SCOLCBQ02  00002PRCP06
0186825830999992004030412004-05167-040667FM-12+029999999V0200901N002610075019N0500001N1+02611+02271101221ADDAA106000091GF106991061021008001001001KA1240N+02311MA1999999097841MD1999999+0001REMSYN076AAXX  04124 82583 32599 60905 10261 20227 39784 40122 86200 333 20231 58000;EQDQ01  00002PRCP06
0198825830999992004030500004-05167-040667FM-12+029999999V0203601N001512200019N0040001N1+02441+02211101071ADDAA106000091GF101991011011008001001001KA1240M+03161MA1999999097691MD1999999+0091REMSYN088AAXX  05004 82583 32596 13603 10244 20221 39769 40107 81100 333 10316 29076 55073 58009;EQDQ01  00002PRCP06
0186825830999992004030512004-05167-040667FM-12+029999999V0200501N003110075019N0500001N1+02621+02251101261ADDAA106000091GF107991071021008001001001KA1240N+02261MA1999999097881MD1999999+0041REMSYN076AAXX  05124 82583 32599 70506 10262 20225 39788 40126 87200 333 20226 58004;EQDQ01  00002PRCP06
0198825830999992004030600004-05167-040667FM-12+029999999V0200901N001012200019N0040001N1+02741+02161101141ADDAA106000091GF101991011011008001001001KA1240M+03071MA1999999097781MD1999999+0091REMSYN088AAXX  06004 82583 32596 10902 10274 20216 39778 40114 81100 333 10307 29069 55087 58009;EQDQ01  00002PRCP06
0186825830999992004030612004-05167-040667FM-12+029999999V0200501N002110075019N0500001N1+02641+02291101191ADDAA106000091GF107991071021008001001001KA1240N+02291MA1999999097811MD1999999-0071REMSYN076AAXX  06124 82583 32599 70504 10264 20229 39781 40119 87200 333 20229 59007;EQDQ01  00002PRCP06
0198825830999992004030700004-05167-040667FM-12+029999999V0203601N002612200019N0040001N1+02391+02241101151ADDAA106000091GF104991041011008001001001KA1240M+03191MA1999999097771MD1999999-0011REMSYN088AAXX  07004 82583 32596 43605 10239 20224 39777 40115 84100 333 10319 29078 55086 59001;EQDQ01  00002PRCP06
0190825830999992004030712004-05167-040667FM-12+029999999V0201401N001010120019N0500001N1+02291+02201101381ADDAY161061AY261061GF108991081081008001999999KA1240N+02241MA1999999097961MD1999999+0151MW1621REMSYN088AAXX  07124 82583 21599 81402 10229 20220 39796 40138 76266 888// 333 20224 58015 60214;
0202825830999992004030800004-05167-040667FM-12+029999999V0200901N001012200019N0040001N1+02341+01211101301ADDAY161061AY261061GF103991031081008001001001KA1240M+03191MA1999999097891MD1999999+0121MW1021REMSYN100AAXX  08004 82583 21596 30902 10234 20121 39789 40130 70266 83800 333 10319 29062 55006 58012 60041;
0190825830999992004030812004-05167-040667FM-12+029999999V0200901N003110120019N0500001N1+02531+02211101321ADDAY151061AY251061GF107991061081008001031001KA1240N+02291MA1999999097921MD1999999-0041MW1021REMSYN088AAXX  08124 82583 21599 70906 10253 20221 39792 40132 70255 86830 333 20229 59004 60044;
0202825830999992004030900004-05167-040667FM-12+029999999V0203601N002110120019N0040001N1+02371+02291101311ADDAY161061AY261061GF108991081081008001999999KA1240M+02951MA1999999097911MD1999999+0021MW1021REMSYN100AAXX  09004 82583 21596 83604 10237 20229 39791 40131 70266 888// 333 10295 29082 55047 58002 69961;
0162825830999992004030912004-05167-040667FM-12+029999999V0200901N002610450019N0500001N1+02671+02241101331ADDGF105991041021008001021001KA1240N+02241MA1999999097941MD1999999+0021REMSYN082AAXX  09124 82583 22599 50905 10267 20224 39794 40133 84220 333 20224 58002 69964;
0202825830999992004031000004-05167-040667FM-12+029999999V0200901N002612200019N0040001N1+02451+02231101271ADDAY161061AY261061GF102991011011008001001011KA1240M+03031MA1999999097871MD1999999-0041MW1021REMSYN100AAXX  10004 82583 21596 20905 10245 20223 39787 40127 70266 81101 333 10303 29077 55079 59004 69911;
0162825830999992004031012004-05167-040667FM-12+029999999V0200901N003110075019N0500001N1+02611+02271101381ADDGF107991061051008001041001KA1240N+02261MA1999999098001MD1999999+0061REMSYN082AAXX  10124 82583 22599 70906 10261 20227 39800 40138 86540 333 20226 58006 69914;
0198825830999992004031100004-05167-040667FM-12+029999999V0200501N001510120019N0040001N1+02521+02231101281ADDAA106000091GF106991061081008001001001KA1240M+03111MA1999999097901MD1999999+0031REMSYN088AAXX  11004 82583 32596 60503 10252 20223 39790 40128 86800 333 10311 29076 55058 58003;EQDQ01  00002PRCP06
0190825830999992004031112004-05167-040667FM-12+029999999V0200901N002110075019N0500001N1+02631+02271101241ADDAY161061AY251061GF106991051021008001031001KA1240N+02261MA1999999097861MD1999999-0141MW1021REMSYN088AAXX  11124 82583 21599 60904 10263 20227 39786 40124 70265 85230 333 20226 59014 69954;
0198825830999992004031200004-05167-040667FM-12+029999999V0203601N001512200019N0040001N1+02561+02291101001ADDAA106000091GF103991031011008001001001KA1240M+03121MA1999999097631MD1999999-0271REMSYN088AAXX  12004 82583 32596 33603 10256 20229 39763 40100 83100 333 10312 29075 55064 59027;EQDQ01  00002PRCP06
0186825830999992004031212004-05167-040667FM-12+029999999V0200501N002612200019N0500001N1+02721+02191101081ADDAA106000091GF106991031011008001001011KA1240N+02291MA1999999097721MD1999999-0141REMSYN076AAXX  12124 82583 32599 60505 10272 20219 39772 40108 83101 333 20229 59014;EQDQ01  00002PRCP06
0198825830999992004031300004-05167-040667FM-12+029999999V0203601N001012200019N0040001N1+02491+02271101011ADDAA106000091GF102991021021008001001001KA1240M+03121MA1999999097641MD1999999+0011REMSYN088AAXX  13004 82583 32596 23602 10249 20227 39764 40101 82200 333 10312 29075 55093 58001;EQDQ01  00002PRCP06
0186825830999992004031312004-05167-040667FM-12+029999999V0200501N003610120019N0500001N1+02711+02241101121ADDAA106000091GF107991061081008001041001KA1240N+02351MA1999999097751MD1999999+0031REMSYN076AAXX  13124 82583 32599 70507 10271 20224 39775 40112 86840 333 20235 58003;EQDQ01  00002PRCP06
0186825830999992004031412004-05167-040667FM-12+029999999V0200901N004110075019N0500001N1+02721+02051101241ADDAA106000091GF105991051021008001001001KA1240N+02121MA1999999097861MD1999999+0111REMSYN076AAXX  14124 82583 32599 50908 10272 20205 39786 40124 85200 333 20212 58011;EQDQ01  00002PRCP06
0208825830999992004031500004-05167-040667FM-12+029999999V0200901N003112200019N0040001N1+02461+02131101101ADDAA106000091GA1001+999999999GF100991001001999999001001KA1240M+03181MA1999999097731MD1999999+0041REMSYN082AAXX  15004 82583 32596 00906 10246 20213 39773 40110 333 10318 29/// 55101 58004;EQDQ01  00002PRCP06
0186825830999992004031512004-05167-040667FM-12+029999999V0200501N002610075019N0500001N1+02661+02291101101ADDAA106000091GF105991051021008001001001KA1240N+02231MA1999999097721MD1999999-0141REMSYN076AAXX  15124 82583 32599 50505 10266 20229 39772 40110 85200 333 20223 59014;EQDQ01  00002PRCP06
0198825830999992004031600004-05167-040667FM-12+029999999V0203601N001512200019N0040001N1+02521+02271101001ADDAA106000091GF104991041021008001001001KA1240M+03181MA1999999097631MD1999999-0101REMSYN088AAXX  16004 82583 32596 43603 10252 20227 39763 40100 84200 333 10318 29075 55085 59010;EQDQ01  00002PRCP06
0186825830999992004031612004-05167-040667FM-12+029999999V0200901N003110120019N0500001N1+02641+02251101081ADDAA106000091GF107991051081008001031001KA1240N+02301MA1999999097711MD1999999-0011REMSYN076AAXX  16124 82583 32599 70906 10264 20225 39771 40108 85830 333 20230 59001;EQDQ01  00002PRCP06
0202825830999992004031700004-05167-040667FM-12+029999999V0200901N000519999999N0040001N1+02411+02371100951ADDAY161061AY251061GF108991081999004501999999KA1240M+03071MA1999999097571MD1999999-0061MW1031REMSYN100AAXX  17004 82583 21496 80901 10241 20237 39757 40095 70365 88/// 333 10307 29082 55016 59006 60151;
0162825830999992004031712004-05167-040667FM-12+029999999V0200901N004112200019N0500001N1+02691+02301100981ADDGF105991041021008001001011KA1240N+02281MA1999999097601MD1999999-0111REMSYN082AAXX  17124 82583 22599 50908 10269 20230 39760 40098 84201 333 20228 59011 60154;
0202825830999992004031800004-05167-040667FM-12+029999999V0200901N001010120019N0040001N1+02521+02231100951ADDAY161061AY261061GF108991081081008001999999KA1240M+03121MA1999999097581MD1999999+0011MW1021REMSYN100AAXX  18004 82583 21596 80902 10252 20223 39758 40095 70266 888// 333 10312 29075 55044 58001 60041;
0162825830999992004031812004-05167-040667FM-12+029999999V0200501N004610075019N0500001N1+02701+02241101071ADDGF106991051021008001001011KA1240N+02271MA1999999097701MD1999999+0101REMSYN082AAXX  18124 82583 22599 60509 10270 20224 39770 40107 85201 333 20227 58010 60044;
0198825830999992004031900004-05167-040667FM-12+029999999V0200901N001510120019N0040001N1+02551+02251100961ADDAA106000091GF107991061081008001001011KA1240M+03171MA1999999097591MD1999999+0011REMSYN088AAXX  19004 82583 32596 70903 10255 20225 39759 40096 86801 333 10317 29072 55076 58001;EQDQ01  00002PRCP06
0186825830999992004031912004-05167-040667FM-12+029999999V0200901N003610120019N0500001N1+02661+02271101111ADDAA106000091GF107991051081008001031001KA1240N+02221MA1999999097741MD1999999+0041REMSYN076AAXX  19124 82583 32599 70907 10266 20227 39774 40111 85830 333 20222 58004;EQDQ01  00002PRCP06
0198825830999992004032000004-05167-040667FM-12+029999999V0200901N001512200019N0040001N1+02441+02171100941ADDAA106000091GF101991011011008001001001KA1240M+03101MA1999999097561MD1999999-0031REMSYN088AAXX  20004 82583 32596 10903 10244 20217 39756 40094 81100 333 10310 29/// 55075 59003;EQDQ01  00002PRCP06
0186825830999992004032012004-05167-040667FM-12+029999999V0200901N004612200019N0500001N1+02661+02201101111ADDAA106000091GF103991031021008001001001KA1240N+02221MA1999999097731MD1999999-0011REMSYN076AAXX  20124 82583 32599 30909 10266 20220 39773 40111 83200 333 20222 59001;EQDQ01  00002PRCP06
0198825830999992004032100004-05167-040667FM-12+029999999V0200901N001512200019N0040001N1+02421+02191100911ADDAA106000091GF101991011011008001001001KA1240M+03121MA1999999097541MD1999999-0021REMSYN088AAXX  21004 82583 32596 10903 10242 20219 39754 40091 81100 333 10312 29/// 55103 59002;EQDQ01  00002PRCP06
0186825830999992004032112004-05167-040667FM-12+029999999V0200901N003110075019N0500001N1+02621+02251101011ADDAA106000091GF107991071021008001001001KA1240N+02211MA1999999097631MD1999999-0101REMSYN076AAXX  21124 82583 32599 70906 10262 20225 39763 40101 87200 333 20221 59010;EQDQ01  00002PRCP06
0186825830999992004032212004-05167-040667FM-12+029999999V0200901N005110075019N0500001N1+02771+02301101011ADDAA106000091GF106991061021008001001001KA1240N+02231MA1999999097651MD1999999+0021REMSYN076AAXX  22124 82583 32599 60910 10277 20230 39765 40101 86200 333 20223 58002;EQDQ01  00002PRCP06
0198825830999992004032300004-05167-040667FM-12+029999999V0201401N001012200019N0040001N1+02551+02191101051ADDAA106000091GF101991011011008001001001KA1240M+03261MA1999999097691MD1999999+0181REMSYN088AAXX  23004 82583 32596 11402 10255 20219 39769 40105 81100 333 10326 29/// 55076 58018;EQDQ01  00002PRCP06
0186825830999992004032312004-05167-040667FM-12+029999999V0200901N003610120019N0500001N1+02731+02381101091ADDAA106000091GF106991061081008001001001KA1240N+02261MA1999999097721MD1999999+0071REMSYN076AAXX  23124 82583 32599 60907 10273 20238 39772 40109 86800 333 20226 58007;EQDQ01  00002PRCP06
0202825830999992004032400004-05167-040667FM-12+029999999V0200501N001510120019N0040001N1+02421+02231101001ADDAY161061AY261061GF107991071081008001001001KA1240M+03211MA1999999097631MD1999999-0061MW1021REMSYN100AAXX  24004 82583 21596 70503 10242 20223 39763 40100 70266 87800 333 10321 29/// 55075 59006 69991;
0162825830999992004032412004-05167-040667FM-12+029999999V0200901N003610120019N0500001N1+02671+02281101141ADDGF108991061081008001071999KA1240N+02311MA1999999097761MD1999999+0041REMSYN082AAXX  24124 82583 22599 80907 10267 20228 39776 40114 8687/ 333 20231 58004 69994;
0186825830999992004032512004-05167-040667FM-12+029999999V0200901N001010120019N0500001N1+02651+02331101001ADDAA106000091GF107991061081008001021001KA1240N+02341MA1999999097631MD1999999-0131REMSYN076AAXX  25124 82583 32599 70902 10265 20233 39763 40100 86820 333 20234 59013;EQDQ01  00002PRCP06
0198825830999992004032600004-05167-040667FM-12+029999999V0200901N000512200019N0040001N1+02561+02251100971ADDAA106000091GF101991011011008001001001KA1240M+03321MA1999999097601MD1999999-0021REMSYN088AAXX  26004 82583 32596 10901 10256 20225 39760 40097 81100 333 10332 29/// 55048 59002;EQDQ01  00002PRCP06
0198825830999992004032700004-05167-040667FM-12+029999999V0203201N001012200019N0040001N1+02551+02311100941ADDAA106000091GF102991021011008001001001KA1240M+02551MA1999999097571MD1999999-0031REMSYN088AAXX  27004 82583 32596 23202 10255 20231 39757 40094 82100 333 10255 29/// 55081 59003;EQDQ01  00002PRCP06
0190825830999992004032712004-05167-040667FM-12+029999999V0200901N000510075019N0500001N1+02581+02331101011ADDAY161061AY261061GF106991061021008001001001KA1240N+02181MA1999999097641MD1999999+0041MW1021REMSYN088AAXX  27124 82583 21599 60901 10258 20233 39764 40101 70266 86200 333 20218 58004 60194;
0198825830999992004032800004-05167-040667FM-12+029999999V0200901N001512200019N0040001N1+02521+02291100871ADDAA106000091GF101991011011008001001001KA1240M+03081MA1999999097511MD1999999-0061REMSYN088AAXX  28004 82583 32596 10903 10252 20229 39751 40087 81100 333 10308 29/// 55030 59006;EQDQ01  00002PRCP06
0186825830999992004032812004-05167-040667FM-12+029999999V0201401N001010075019N0040001N1+02621+02271101051ADDAA106000091GF106991061021008001001001KA1240N+02181MA1999999097681MD1999999+0041REMSYN076AAXX  28124 82583 32596 61402 10262 20227 39768 40105 86200 333 20218 58004;EQDQ01  00002PRCP06
0198825830999992004032900004-05167-040667FM-12+029999999V0201401N001012200019N0040001N1+02461+02251100931ADDAA106000091GF101991011011008001001001KA1240M+03131MA1999999097551MD1999999+0041REMSYN088AAXX  29004 82583 32596 11402 10246 20225 39755 40093 81100 333 10313 29/// 55070 58004;EQDQ01  00002PRCP06
0186825830999992004032912004-05167-040667FM-12+029999999V0200901N005110120019N0500001N1+02691+02331101141ADDAA106000091GF107991061081008001001011KA1240N+02191MA1999999097771MD1999999+0091REMSYN076AAXX  29124 82583 32599 70910 10269 20233 39777 40114 86801 333 20219 58009;EQDQ01  00002PRCP06
0198825830999992004033000004-05167-040667FM-12+029999999V0200901N001512200019N0040001N1+02441+02071101241ADDAA106000091GF101991011011008001001001KA1240M+03031MA1999999097861MD1999999+0311REMSYN088AAXX  30004 82583 32596 10903 10244 20207 39786 40124 81100 333 10303 29/// 55056 58031;EQDQ01  00002PRCP06
0186825830999992004033012004-05167-040667FM-12+029999999V0201401N003112200019N0500001N1+02601+02211101231ADDAA106000091GF104991011011008001051001KA1240N+02051MA1999999097851MD1999999+0081REMSYN076AAXX  30124 82583 32599 41406 10260 20221 39785 40123 81150 333 20205 58008;EQDQ01  00002PRCP06
0198825830999992004033100004-05167-040667FM-12+029999999V0203601N001512200019N0040001N1+02651+02221101271ADDAA106000091GF102991021011008001001001KA1240M+03281MA1999999097891MD1999999+0031REMSYN088AAXX  31004 82583 32596 23603 10265 20222 39789 40127 82100 333 10328 29078 55094 58003;EQDQ01  00002PRCP06
0186825830999992004033112004-05167-040667FM-12+029999999V0201401N002610075019N0500001N1+02721+02321101281ADDAA106000091GF106991061021008001001001KA1240N+02221MA1999999097921MD1999999+0071REMSYN076AAXX  31124 82583 32599 61405 10272 20232 39792 40128 86200 333 20222 58007;EQDQ01  00002PRCP06
0198825830999992004040100004-05167-040667FM-12+029999999V0201801N001012200019N0040001N1+02601+02171101121ADDAA106000091GF103991031011008001001001KA1240M+03271MA1999999097761MD1999999-0131REMSYN088AAXX  01004 82583 32596 31802 10260 20217 39776 40112 83100 333 10327 29078 55099 59013;EQDQ01  00002PRCP06
0186825830999992004040112004-05167-040667FM-12+029999999V0201401N002110120019N0500001N1+02561+02311101371ADDAA106000091GF108991081081008001999999KA1240N+02201MA1999999098011MD1999999+0091REMSYN076AAXX  01124 82583 32599 81404 10256 20231 39801 40137 888// 333 20220 58009;EQDQ01  00002PRCP06
0198825830999992004040300004-05167-040667FM-12+029999999V0201401N001012200019N0040001N1+02591+02271101251ADDAA106000091GF102991021011008001001001KA1240M+03261MA1999999097871MD1999999-0051REMSYN088AAXX  03004 82583 32596 21402 10259 20227 39787 40125 82100 333 10326 29082 55066 59005;EQDQ01  00002PRCP06
0186825830999992004040512004-05167-040667FM-12+029999999V0200901N003610120019N0500001N1+02681+02241101361ADDAA106000091GF107991071081008001001001KA1240N+02291MA1999999097981MD1999999-0021REMSYN076AAXX  05124 82583 32599 70907 10268 20224 39798 40136 87800 333 20229 59002;EQDQ01  00002PRCP06
0186825830999992004040612004-05167-040667FM-12+029999999V0200901N005112200019N0500001N1+02831+02221101191ADDAA106000091GF103991021011008001001011KA1240N+02381MA1999999097831MD1999999-0151REMSYN076AAXX  06124 82583 32599 30910 10283 20222 39783 40119 82101 333 20238 59015;EQDQ01  00002PRCP06
0198825830999992004040700004-05167-040667FM-12+029999999V0200901N000512200019N0040001N1+02641+02351100991ADDAA106000091GF101991011011008001001001KA1240M+03241MA1999999097631MD1999999-0131REMSYN088AAXX  07004 82583 32596 10901 10264 20235 39763 40099 81100 333 10324 29071 55070 59013;EQDQ01  00002PRCP06
0190825830999992004040712004-05167-040667FM-12+029999999V0201401N001010120019N0500001N1+02521+02361101191ADDAY161061AY261061GF108991081081008001999999KA1240N+02351MA1999999097821MD1999999-0011MW1031REMSYN088AAXX  07124 82583 21599 81402 10252 20236 39782 40119 70366 888// 333 20235 59001 60144;
0198825830999992004040800004-05167-040667FM-12+029999999V0202701N000512200019N0040001N1+02561+02381101061ADDAA106000091GF102991021011008001001001KA1240M+03021MA1999999097681MD1999999+0051REMSYN088AAXX  08004 82583 32596 22701 10256 20238 39768 40106 82100 333 10302 29085 55028 58005;EQDQ01  00002PRCP06
0190825830999992004040812004-05167-040667FM-12+029999999V0200901N001510075019N0500001N1+02691+02411101191ADDAY161061AY251061GF106991051021008001001011KA1240N+02351MA1999999097821MD1999999+0001MW1021REMSYN088AAXX  08124 82583 21599 60903 10269 20241 39782 40119 70265 85201 333 20235 58000 60034;
0198825830999992004040900004-05167-040667FM-12+029999999V0202701N001012200019N0040001N1+02471+02271101171ADDAA106000091GF102991021011008001001001KA1240M+03181MA1999999097801MD1999999-0141REMSYN088AAXX  09004 82583 32596 22702 10247 20227 39780 40117 82100 333 10318 29056 55057 59014;EQDQ01  00002PRCP06
0186825830999992004040912004-05167-040667FM-12+029999999V0200901N005712200019N0500001N1+02811+02121101261ADDAA106000091GF102991011011008001001011KA1240N+02361MA1999999097891MD1999999+0071REMSYN076AAXX  09124 82583 32599 20911 10281 20212 39789 40126 81101 333 20236 58007;EQDQ01  00002PRCP06
0208825830999992004041000004-05167-040667FM-12+029999999V0200901N001512200019N0040001N1+02501+02211101011ADDAA106000091GA1001+999999999GF100991001001999999001001KA1240M+03171MA1999999097651MD1999999-0151REMSYN082AAXX  10004 82583 32596 00903 10250 20221 39765 40101 333 10317 29070 55095 59015;EQDQ01  00002PRCP06
0186825830999992004041012004-05167-040667FM-12+029999999V0200901N001510120019N0500001N1+02551+02251101021ADDAA106000091GF108991081081008001999999KA1240N+02221MA1999999097641MD1999999-0251REMSYN076AAXX  10124 82583 32599 80903 10255 20225 39764 40102 888// 333 20222 59025;EQDQ01  00002PRCP06
0208825830999992004041100004-05167-040667FM-12+029999999V0200901N001512200019N0040001N1+02561+02191100741ADDAA106000091GA1001+999999999GF100991001001999999001001KA1240M+03251MA1999999097381MD1999999-0271REMSYN082AAXX  11004 82583 32596 00903 10256 20219 39738 40074 333 10325 29071 55086 59027;EQDQ01  00002PRCP06
0186825830999992004041112004-05167-040667FM-12+029999999V0200901N003110075019N0500001N1+02631+02181100961ADDAA106000091GF107991071021008001001001KA1240N+02131MA1999999097591MD1999999-0051REMSYN076AAXX  11124 82583 32599 70906 10263 20218 39759 40096 87200 333 20213 59005;EQDQ01  00002PRCP06
0198825830999992004041200004-05167-040667FM-12+029999999V0201401N000512200019N0040001N1+02641+02231100641ADDAA106000091GF101991011011008001001001KA1240M+03241MA1999999097281MD1999999-0101REMSYN088AAXX  12004 82583 32596 11401 10264 20223 39728 40064 81100 333 10324 29068 55062 59010;EQDQ01  00002PRCP06
0186825830999992004041212004-05167-040667FM-12+029999999V0200501N004110120019N0500001N1+02701+02151100941ADDAA106000091GF108991081081008001999999KA1240N+02211MA1999999097581MD1999999-0011REMSYN076AAXX  12124 82583 32599 80508 10270 20215 39758 40094 888// 333 20221 59001;EQDQ01  00002PRCP06
0208825830999992004041300004-05167-040667FM-12+029999999V0200901N001512200019N0040001N1+02561+02151100871ADDAA106000091GA1001+999999999GF100991001001999999001001KA1240M+03331MA1999999097511MD1999999+0131REMSYN082AAXX  13004 82583 32596 00903 10256 20215 39751 40087 333 10333 29068 55067 58013;EQDQ01  00002PRCP06
0186825830999992004041312004-05167-040667FM-12+029999999V0200901N003612200019N0500001N1+02771+02251101161ADDAA106000091GF103991021021008001001011KA1240N+02201MA1999999097801MD1999999+0221REMSYN076AAXX  13124 82583 32599 30907 10277 20225 39780 40116 82201 333 20220 58022;EQDQ01  00002PRCP06
0198825830999992004041400004-05167-040667FM-12+029999999V0201401N001512200019N0040001N1+02531+02111101131ADDAA106000091GF101991011011008001001001KA1240M+03371MA1999999097771MD1999999+0261REMSYN088AAXX  14004 82583 32596 11403 10253 20211 39777 40113 81100 333 10337 29067 55077 58026;EQDQ01  00002PRCP06
0186825830999992004041412004-05167-040667FM-12+029999999V0200901N004112200019N0500001N1+02761+02021101191ADDAA106000091GF102991011011008001001011KA1240N+02071MA1999999097831MD1999999+0031REMSYN076AAXX  14124 82583 32599 20908 10276 20202 39783 40119 81101 333 20207 58003;EQDQ01  00002PRCP06
0208825830999992004041500004-05167-040667FM-12+029999999V0203601N002112200019N0040001N1+02641+02001101041ADDAA106000091GA1001+999999999GF100991001001999999001001KA1240M+03291MA1999999097681MD1999999-0091REMSYN082AAXX  15004 82583 32596 03604 10264 20200 39768 40104 333 10329 29060 55103 59009;EQDQ01  00002PRCP06
0202825830999992004041512004-05167-040667FM-12+029999999V0200901N002110075019N0500001N1+02651+02181101141ADDAA106000091GF106991999021008001001001KA1240N+02261MA1999999097781MD1999999-0051REMSYN076AAXX  15124 82583 32599 60904 10265 20218 39778 40114 85200 333 20226 59005;EQDQ01+000052SCOTLCQ02  00002PRCP06
0198825830999992004041600004-05167-040667FM-12+029999999V0209999C000012200019N0040001N1+02541+02171101001ADDAA106000091GF101991011011008001001001KA1240M+03291MA1999999097631MD1999999-0051REMSYN088AAXX  16004 82583 32596 13200 10254 20217 39763 40100 81100 333 10329 29069 55086 59005;EQDQ01  00002PRCP06
0186825830999992004041612004-05167-040667FM-12+029999999V0201401N001510120019N0500001N1+02601+02231101261ADDAA106000091GF108991081081008001999999KA1240N+02261MA1999999097881MD1999999+0101REMSYN076AAXX  16124 82583 32599 81403 10260 20223 39788 40126 888// 333 20226 58010;EQDQ01  00002PRCP06
0208825830999992004041700004-05167-040667FM-12+029999999V0200501N001012200019N0040001N1+02511+02361101161ADDAA106000091GA1001+999999999GF100991001001999999001001KA1240M+03081MA1999999097781MD1999999+0151REMSYN082AAXX  17004 82583 32596 00502 10251 20236 39778 40116 333 10308 29078 55034 58015;EQDQ01  00002PRCP06
0186825830999992004041712004-05167-040667FM-12+029999999V0200901N003612200019N0500001N1+02841+02261101271ADDAA106000091GF104991041021008001001001KA1240N+02291MA1999999097911MD1999999+0031REMSYN076AAXX  17124 82583 32599 40907 10284 20226 39791 40127 84200 333 20229 58003;EQDQ01  00002PRCP06
0198825830999992004041800004-05167-040667FM-12+029999999V0201401N000512200019N0040001N1+02541+02041101211ADDAA106000091GF101991011011008001001001KA1240M+03081MA1999999097851MD1999999+0071REMSYN088AAXX  18004 82583 32596 11401 10254 20204 39785 40121 81100 333 10308 29063 55089 58007;EQDQ01  00002PRCP06
0186825830999992004041812004-05167-040667FM-12+029999999V0201401N001510075019N0500001N1+02561+02291101451ADDAA106000091GF107991071021008001001001KA1240N+02181MA1999999098071MD1999999+0161REMSYN076AAXX  18124 82583 32599 71403 10256 20229 39807 40145 87200 333 20218 58016;EQDQ01  00002PRCP06
0202825830999992004041900004-05167-040667FM-12+029999999V0200901N002110075019N0040001N1+02661+02221101131ADDAY161061AY261061GF105991051011008001001001KA1240M+03471MA1999999097771MD1999999-0081MW1021REMSYN100AAXX  19004 82583 21596 50904 10266 20222 39777 40113 70266 85100 333 10347 29067 55073 59008 60031;
0226825830999992004041912004-05167-040667FM-12+029999999V0201401N004612200019N0500001N1+02731+02261101191ADDAA124004091AY161061AY261061GF103991999011008001001001KA1240N+02261MA1999999097831MD1999999-0241MW1021REMSYN094AAXX  19124 82583 21599 31409 10273 20226 39783 40119 70266 82100 333 20226 59024 60044 10035;EQDQ01+000022SCOTLC
0208825830999992004042000004-05167-040667FM-12+029999999V0201401N001512200019N0040001N1+02581+01691101131ADDAA106000091GA1001+999999999GF100991001001999999001001KA1240M+03361MA1999999097771MD1999999+0001REMSYN082AAXX  20004 82583 32596 01403 10258 20169 39777 40113 333 10336 29062 55076 58000;EQDQ01  00002PRCP06
0190825830999992004042012004-05167-040667FM-12+029999999V0201401N002610075019N0500001N1+02701+02261101161ADDAY151061AY251061GF106991061021008001001001KA1240N+02241MA1999999097801MD1999999-0031MW1021REMSYN088AAXX  20124 82583 21599 61405 10270 20226 39780 40116 70255 86200 333 20224 59003 69924;
0198825830999992004042100004-05167-040667FM-12+029999999V0203601N000512200019N0040001N1+02531+02251101101ADDAA106000091GF103991031011008001001001KA1240M+03331MA1999999097731MD1999999-0041REMSYN088AAXX  21004 82583 32596 33601 10253 20225 39773 40110 83100 333 10333 29072 55074 59004;EQDQ01  00002PRCP06
0186825830999992004042112004-05167-040667FM-12+029999999V0200901N003110075019N0500001N1+02701+02301101141ADDAA106000091GF107991071021008001001001KA1240N+02371MA1999999097771MD1999999-0031REMSYN076AAXX  21124 82583 32599 70906 10270 20230 39777 40114 87200 333 20237 59003;EQDQ01  00002PRCP06
0212825830999992004042200004-05167-040667FM-12+029999999V0200901N001512200019N0040001N1+02471+02271101071ADDAY161061AY261061GA1001+999999999GF100991001001999999001001KA1240M+03191MA1999999097701MD1999999-0031MW1021REMSYN094AAXX  22004 82583 21596 00903 10247 20227 39770 40107 70266 333 10319 29076 55039 59003 69951;
0209825830999992004042212004-05167-040667FM-12+029999999V0200901N004610075019N0500001N1+02761+02281101121ADDAY161061AY261061GF106991999061008001001001KA1240N+02181MA1999999097751MD1999999-0021MW1021REMSYN088AAXX  22124 82583 21599 60909 10276 20228 39775 40112 70266 85600 333 20218 59002 60014;EQDQ01+000052SCOTLC
0202825830999992004042300004-05167-040667FM-12+029999999V0203601N002610120019N0040001N1+02291+02231101101ADDAY161061AY261061GF108991081081008001999999KA1240M+03281MA1999999097721MD1999999+0021MW1211REMSYN100AAXX  23004 82583 21596 83605 10229 20223 39772 40110 72166 888// 333 10328 29076 55049 58002 60091;
0190825830999992004042312004-05167-040667FM-12+029999999V0200901N001510120019N0500001N1+02451+02281101021ADDAY161061AY261061GF108991081081008001999999KA1240N+02281MA1999999097621MD1999999-0131MW1211REMSYN088AAXX  23124 82583 21599 80903 10245 20228 39762 40102 72166 888// 333 20228 59013 60114;
0208825830999992004042400004-05167-040667FM-12+029999999V0200901N001012200019N0040001N1+02441+02281100881ADDAA106000091GA1001+999999999GF100991001001999999001001KA1240M+03191MA1999999097481MD1999999-0241REMSYN082AAXX  24004 82583 32596 00902 10244 20228 39748 40088 333 10319 29079 55044 59024;EQDQ01  00002PRCP06
0186825830999992004042412004-05167-040667FM-12+029999999V0201401N002110450019N0500001N1+02571+02231100981ADDAA106000091GF108991041081008001021999KA1240N+02131MA1999999097601MD1999999-0021REMSYN076AAXX  24124 82583 32599 81404 10257 20223 39760 40098 8482/ 333 20213 59002;EQDQ01  00002PRCP06
0198825830999992004042500004-05167-040667FM-12+029999999V0201401N002112200019N0040001N1+02461+02211100981ADDAA106000091GF101991011011008001001001KA1240M+03091MA1999999097601MD1999999+0121REMSYN088AAXX  25004 82583 32596 11404 10246 20221 39760 40098 81100 333 10309 29076 55024 58012;EQDQ01  00002PRCP06
0186825830999992004042512004-05167-040667FM-12+029999999V0200501N001010075019N0500001N1+02601+02251101141ADDAA106000091GF107991071021008001001001KA1240N+02231MA1999999097761MD1999999+0161REMSYN076AAXX  25124 82583 32599 70502 10260 20225 39776 40114 87200 333 20223 58016;EQDQ01  00002PRCP06
0198825830999992004042600004-05167-040667FM-12+029999999V0203201N001512200019N0040001N1+02341+00791101261ADDAA106000091GF104991041011008001001001KA1240M+03091MA1999999097871MD1999999+0271REMSYN088AAXX  26004 82583 32596 43203 10234 20079 39787 40126 84100 333 10309 29051 55026 58027;EQDQ01  00002PRCP06
0202825830999992004042612004-05167-040667FM-12+029999999V0201401N001510120019N0500001N1+02641+02201101301ADDAA106000091GF107991999081008001001001KA1240N+02271MA1999999097901MD1999999+0141REMSYN076AAXX  26124 82583 32599 71403 10264 20220 39790 40130 86800 333 20227 58014;EQDQ01+000062SCOTLCQ02  00002PRCP06
0202825830999992004042700004-05167-040667FM-12+029999999V0201801N000510120019N0040001N1+02331+02291101291ADDAY161061AY261061GF108991081081008001999999KA1240M+03001MA1999999097901MD1999999+0031MW1021REMSYN100AAXX  27004 82583 21596 81801 10233 20229 39790 40129 70266 888// 333 10300 29083 55023 58003 60141;
0190825830999992004042712004-05167-040667FM-12+029999999V0200501N002110120019N0500001N1+02461+02321101411ADDAY161061AY261061GF108991081081008001999999KA1240N+02281MA1999999098011MD1999999+0111MW1021REMSYN088AAXX  27124 82583 21599 80504 10246 20232 39801 40141 70266 888// 333 20228 58011 60154;
0198825830999992004042800004-05167-040667FM-12+029999999V0203201N001012200019N0040001N1+02551+02231101351ADDAA106000091GF104991041081008001001001KA1240M+03001MA1999999097961MD1999999+0061REMSYN088AAXX  28004 82583 32596 43202 10255 20223 39796 40135 84800 333 10300 29079 55020 58006;EQDQ01  00002PRCP06
0186825830999992004042812004-05167-040667FM-12+029999999V0201401N000510120019N0500001N1+02631+02251101421ADDAA106000091GF107991071081008001001001KA1240N+02181MA1999999098041MD1999999+0031REMSYN076AAXX  28124 82583 32599 71401 10263 20225 39804 40142 87800 333 20218 58003;EQDQ01  00002PRCP06
0198825830999992004042900004-05167-040667FM-12+029999999V0203601N001012200019N0040001N1+02401+02171101271ADDAA106000091GF102991021011008001001001KA1240M+03191MA1999999097881MD1999999-0081REMSYN088AAXX  29004 82583 32596 23602 10240 20217 39788 40127 82100 333 10319 29076 55080 59008;EQDQ01  00002PRCP06
0202825830999992004042912004-05167-040667FM-12+029999999V0201401N000519999999N0500001N1+02561+02231101381ADDAA106000091GF105991999021008001001001KA1240N+02131MA1999999097991MD1999999-0051REMSYN076AAXX  29124 82583 32599 51401 10256 20223 39799 40138 84200 333 20213 59005;EQDQ01+000042SCOTLCQ02  00002PRCP06
0208825830999992004043000004-05167-040667FM-12+029999999V0200901N002112200019N0040001N1+02331+02001101151ADDAA106000091GA1001+999999999GF100991001001999999001001KA1240M+03191MA1999999097751MD1999999-0131REMSYN082AAXX  30004 82583 32596 00904 10233 20200 39775 40115 333 10319 29075 55098 59013;EQDQ01  00002PRCP06
0202825830999992004043012004-05167-040667FM-12+029999999V0201401N001519999999N0500001N1+02571+02121101261ADDAA106000091GF107991999011008001001001KA1240N+02071MA1999999097861MD1999999-0131REMSYN076AAXX  30124 82583 32599 71403 10257 20212 39786 40126 81100 333 20207 59013;EQDQ01+000012SCOTLCQ02  00002PRCP06
0198825830999992004050100004-05167-040667FM-12+029999999V0200901N001012200019N0200001N1+02281+01861101121ADDAA106000091GF101991011011008001001001KA1240M+03221MA1999999097731MD1999999-0021REMSYN088AAXX  01004 82583 32598 10902 10228 20186 39773 40112 81100 333 10322 29071 55080 59002;EQDQ01  00002PRCP06
0186825830999992004050112004-05167-040667FM-12+029999999V0200901N005112200019N0500001N1+02821+02151101171ADDAA106000091GF103991021011008001001011KA1240N+02161MA1999999097791MD1999999-0071REMSYN076AAXX  01124 82583 32599 30910 10282 20215 39779 40117 82101 333 20216 59007;EQDQ01  00002PRCP06
0224825830999992004050200004-05167-040667FM-12+029999999V0200901N001512200019N0040001N1+02401+01911999999ADDAA106000091GA1001+999999999GF100991001001999999001001KA1240M+03271MA1999999097631MD1999999-0101REMSYN082AAXX  02004 82583 32596 00903 10240 20191 39763 40337 333 10327 29062 55096 59010;EQDQ01  00002PRCP06Q02 103373APOSLP
0186825830999992004050212004-05167-040667FM-12+029999999V0200901N003610075019N0500001N1+02661+02041101261ADDAA106000091GF105991051021008001001001KA1240N+02051MA1999999097871MD1999999+0081REMSYN076AAXX  02124 82583 32599 50907 10266 20204 39787 40126 85200 333 20205 58008;EQDQ01  00002PRCP06
0198825830999992004050300004-05167-040667FM-12+029999999V0200901N002112200019N0040001N1+02451+01901101091ADDAA106000091GF101991011011008001001001KA1240M+03331MA1999999097711MD1999999+0081REMSYN088AAXX  03004 82583 32596 10904 10245 20190 39771 40109 81100 333 10333 29063 55102 58008;EQDQ01  00002PRCP06
0186825830999992004050312004-05167-040667FM-12+029999999V0200901N005711050019N0500001N1+02761+01891101211ADDAA106000091GF105991011011008001001021KA1240N+02001MA1999999097841MD1999999-0031REMSYN076AAXX  03124 82583 32599 50911 10276 20189 39784 40121 81102 333 20200 59003;EQDQ01  00002PRCP06
0198825830999992004050400004-05167-040667FM-12+029999999V0200901N001510075019N0040001N1+02451+01941101061ADDAA106000091GF106991061011008001001001KA1240M+03311MA1999999097691MD1999999-0021REMSYN088AAXX  04004 82583 32596 60903 10245 20194 39769 40106 86100 333 10331 29061 55077 59002;EQDQ01  00002PRCP06
0186825830999992004050412004-05167-040667FM-12+029999999V0201401N002112200019N0500001N1+02601+01941101201ADDAA106000091GF102991011011008001001011KA1240N+01941MA1999999097821MD1999999-0021REMSYN076AAXX  04124 82583 32599 21404 10260 20194 39782 40120 81101 333 20194 59002;EQDQ01  00002PRCP06
0198825830999992004050500004-05167-040667FM-12+029999999V0200501N003610120019N0040001N1+02511+02231101231ADDAA106000091GF108991081081008001999999KA1240M+03211MA1999999097851MD1999999+0161REMSYN088AAXX  05004 82583 32596 80507 10251 20223 39785 40123 888// 333 10321 29069 55037 58016;EQDQ01  00002PRCP06
0190825830999992004050512004-05167-040667FM-12+029999999V0201401N001510075019N0500001N1+02531+02211101361ADDAY161061AY261061GF106991061051008001001001KA1240N+02221MA1999999097971MD1999999+0151MW1011REMSYN088AAXX  05124 82583 21599 61403 10253 20221 39797 40136 70166 86500 333 20222 58015 60014;
0202825830999992004050600004-05167-040667FM-12+029999999V0200901N001510075019N0040001N1+02441+02271101221ADDAY161061AY261061GF106991061011008001001001KA1240M+02991MA1999999097841MD1999999-0011MW1021REMSYN100AAXX  06004 82583 21596 60903 10244 20227 39784 40122 70266 86100 333 10299 29080 55012 59001 69921;
0162825830999992004050612004-05167-040667FM-12+029999999V0200901N002110120019N0500001N1+02731+02301101331ADDGF106991061081008001001001KA1240N+02261MA1999999097951MD1999999-0021REMSYN082AAXX  06124 82583 22599 60904 10273 20230 39795 40133 86800 333 20226 59002 69924;
0198825830999992004050700004-05167-040667FM-12+029999999V0200901N001512200019N0040001N1+02551+02211101241ADDAA106000091GF102991021011008001001001KA1240M+03231MA1999999097861MD1999999+0021REMSYN088AAXX  07004 82583 32596 20903 10255 20221 39786 40124 82100 333 10323 29072 55026 58002;EQDQ01  00002PRCP06
0186825830999992004050712004-05167-040667FM-12+029999999V0200901N003110075019N0500001N1+02761+02191101381ADDAA106000091GF106991061021008001001001KA1240N+02351MA1999999098001MD1999999+0051REMSYN076AAXX  07124 82583 32599 60906 10276 20219 39800 40138 86200 333 20235 58005;EQDQ01  00002PRCP06
0198825830999992004050800004-05167-040667FM-12+029999999V0200901N002112200019N0040001N1+02611+02071101191ADDAA106000091GF101991011011008001001001KA1240M+03461MA1999999097831MD1999999-0031REMSYN088AAXX  08004 82583 32596 10904 10261 20207 39783 40119 81100 333 10346 29065 55084 59003;EQDQ01  00002PRCP06
0186825830999992004050812004-05167-040667FM-12+029999999V0200901N004610450019N0500001N1+02701+02131101291ADDAA106000091GF105991041021008001041001KA1240N+02221MA1999999097921MD1999999-0081REMSYN076AAXX  08124 82583 32599 50909 10270 20213 39792 40129 84240 333 20222 59008;EQDQ01  00002PRCP06
0208825830999992004050900004-05167-040667FM-12+029999999V0201401N000512200019N0040001N1+02611+02181101191ADDAA106000091GA1001+999999999GF100991001001999999001001KA1240M+02591MA1999999097831MD1999999+0001REMSYN082AAXX  09004 82583 32596 01401 10261 20218 39783 40119 333 10259 29070 55045 58000;EQDQ01  00002PRCP06
0186825830999992004050912004-05167-040667FM-12+029999999V0200501N003610075019N0500001N1+02421+02181101281ADDAA106000091GF106991061021008001001001KA1240N+02361MA1999999097891MD1999999-0031REMSYN076AAXX  09124 82583 32599 60507 10242 20218 39789 40128 86200 333 20236 59003;EQDQ01  00002PRCP06
0202825830999992004051012004-05167-040667FM-12+029999999V0200901N003610075019N0500001N1+02771+02301101231ADDAA106000091GF107991999021008001001001KA1240N+02251MA1999999097871MD1999999-0021REMSYN076AAXX  10124 82583 32599 70907 10277 20230 39787 40123 86200 333 20225 59002;EQDQ01+000062SCOTLCQ02  00002PRCP06
0198825830999992004051100004-05167-040667FM-12+029999999V0203201N001512200019N0040001N1+02431+02171101181ADDAA106000091GF101991011011008001001001KA1240M+03381MA1999999097811MD1999999-0091REMSYN088AAXX  11004 82583 32596 13203 10243 20217 39781 40118 81100 333 10338 29073 55056 59009;EQDQ01  00002PRCP06
0186825830999992004051112004-05167-040667FM-12+029999999V0200901N000510075019N0500001N1+02631+02181101341ADDAA106000091GF106991061021008001001001KA1240N+02231MA1999999097961MD1999999-0091REMSYN076AAXX  11124 82583 32599 60901 10263 20218 39796 40134 86200 333 20223 59009;EQDQ01  00002PRCP06
0214825830999992004051200004-05167-040667FM-12+029999999V0201401N001012200019N0040001N1+02551+02251101151ADDAA106000091GF104991999081008001001001KA1240M+03291MA1999999097781MD1999999-0031REMSYN088AAXX  12004 82583 32596 41402 10255 20225 39778 40115 85800 333 10329 29076 55046 59003;EQDQ01+000052SCOTLCQ02  00002PRCP06
0190825830999992004051212004-05167-040667FM-12+029999999V0200901N003110075019N0500001N1+02721+02081101291ADDAY161061AY261061GF108991081051008001001001KA1240N+02421MA1999999097921MD1999999-0041MW1021REMSYN088AAXX  12124 82583 21599 80906 10272 20208 39792 40129 70266 88500 333 20242 59004 69914;
0186825830999992004051312004-05167-040667FM-12+029999999V0200901N003610075019N0500001N1+02701+02061101291ADDAA106000091GF105991051021008001001001KA1240N+02061MA1999999097921MD1999999+0001REMSYN076AAXX  13124 82583 32599 50907 10270 20206 39792 40129 85200 333 20206 58000;EQDQ01  00002PRCP06
0208825830999992004051400004-05167-040667FM-12+029999999V0200901N001012200019N0040001N1+02591+01871101071ADDAA106000091GA1001+999999999GF100991001001999999001001KA1240M+03421MA1999999097711MD1999999-0121REMSYN082AAXX  14004 82583 32596 00902 10259 20187 39771 40107 333 10342 29057 55094 59012;EQDQ01  00002PRCP06
0208825830999992004051500004-05167-040667FM-12+029999999V0200901N001512200019N0040001N1+02511+01931100991ADDAA106000091GA1001+999999999GF100991001001999999001001KA1240M+03411MA1999999097631MD1999999-0081REMSYN082AAXX  15004 82583 32996 00903 10251 20193 39763 40099 333 10341 29061 55101 59008;EQDQ01  00002PRCP06
0186825830999992004051512004-05167-040667FM-12+029999999V0200501N003112200019N0500001N1+02891+02071101091ADDAA106000091GF104991041021008001001001KA1240N+02151MA1999999097731MD1999999-0081REMSYN076AAXX  15124 82583 32599 40506 10289 20207 39773 40109 84200 333 20215 59008;EQDQ01  00002PRCP06
0208825830999992004051600004-05167-040667FM-12+029999999V0200901N000512200019N0040001N1+02561+01881100971ADDAA106000091GA1001+999999999GF100991001001999999001001KA1240M+03441MA1999999097601MD1999999-0031REMSYN082AAXX  16004 82583 32996 00901 10256 20188 39760 40097 333 10344 29057 55086 59003;EQDQ01  00002PRCP06
0202825830999992004051612004-05167-040667FM-12+029999999V0200901N005112200019N0500001N1+02291+02091101201ADDAA106000091GF104991041021008001001001KA1240N+99999MA1999999097841MD1999999+0111REMSYN076AAXX  16124 82583 32599 40910 10229 20209 39784 40120 84200 333 20254 58011;EQDQ01  00002PRCP06Q02 +02542ATMN  
0186825830999992004051712004-05167-040667FM-12+029999999V0200901N003112200019N0500001N1+02831+02041101151ADDAA106000091GF102991011011008001001011KA1240N+02031MA1999999097791MD1999999-0051REMSYN076AAXX  17124 82583 32599 20906 10283 20204 39779 40115 81101 333 20203 59005;EQDQ01  00002PRCP06
0198825830999992004051800004-05167-040667FM-12+029999999V0200901N002612200019N0040001N1+02571+02041101071ADDAA106000091GF101991011011008001001001KA1240M+03491MA1999999097711MD1999999+0081REMSYN088AAXX  18004 82583 32596 10905 10257 20204 39771 40107 81100 333 10349 29061 55080 58008;EQDQ01  00002PRCP06
0190825830999992004051812004-05167-040667FM-12+029999999V0200901N002110120019N0500001N1+02571+02311101311ADDAY121061AY221061GF107991071081008001001001KA1240N+02261MA1999999097931MD1999999+0141MW1211REMSYN088AAXX  18124 82583 21599 70904 10257 20231 39793 40131 72122 87800 333 20226 58014 69954;
0198825830999992004051900004-05167-040667FM-12+029999999V0200901N001512200019N0040001N1+02451+02011101241ADDAA106000091GF101991011011008001001001KA1240M+03281MA1999999097851MD1999999+0141REMSYN088AAXX  19004 82583 32596 10903 10245 20201 39785 40124 81100 333 10328 29070 55046 58014;EQDQ01  00002PRCP06
0186825830999992004051912004-05167-040667FM-12+029999999V0200901N003112200019N0500001N1+02821+02121101541ADDAA106000091GF103991021021008001001011KA1240N+02031MA1999999098161MD1999999+0231REMSYN076AAXX  19124 82583 32599 30906 10282 20212 39816 40154 82201 333 20203 58023;EQDQ01  00002PRCP06
0208825830999992004052000004-05167-040667FM-12+029999999V0201401N001512200019N0040001N1+02571+01941101361ADDAA106000091GA1001+999999999GF100991001001999999001001KA1240M+03451MA1999999097991MD1999999+0141REMSYN082AAXX  20004 82583 32996 01403 10257 20194 39799 40136 333 10345 29058 55094 58014;EQDQ01  00002PRCP06
0186825830999992004052012004-05167-040667FM-12+029999999V0200901N002110120019N0500001N1+02591+02211101521ADDAA106000091GF108991081081008001999999KA1240N+02351MA1999999098141MD1999999+0021REMSYN076AAXX  20124 82583 32599 80904 10259 20221 39814 40152 888// 333 20235 58002;EQDQ01  00002PRCP06
0202825830999992004052100004-05167-040667FM-12+029999999V0201401N003110075019N0040001N1+02311+02241101461ADDAY161061AY261061GF108991081051008001999999KA1240M+02901MA1999999098061MD1999999+0071MW1631REMSYN100AAXX  21004 82583 21596 81406 10231 20224 39806 40146 76366 885// 333 10290 29078 55002 58007 60111;
0190825830999992004052112004-05167-040667FM-12+029999999V0200901N002610120019N0500001N1+02571+02271101441ADDAY161061AY261061GF106991051081008001041001KA1240N+02221MA1999999098051MD1999999-0091MW1021REMSYN088AAXX  21124 82583 21599 60905 10257 20227 39805 40144 70266 85840 333 20222 59009 60154;
0208825830999992004052200004-05167-040667FM-12+029999999V0200901N000512200019N0040001N1+02391+02311101221ADDAA106000091GA1001+999999999GF100991001001999999001001KA1240M+02961MA1999999097841MD1999999-0221REMSYN082AAXX  22004 82583 32996 00901 10239 20231 39784 40122 333 10296 29079 55029 59022;EQDQ01  00002PRCP06
0198825830999992004052300004-05167-040667FM-12+029999999V0201401N002112200019N0040001N1+02401+01991101191ADDAA106000091GF101991011011008001001001KA1240M+03241MA1999999097811MD1999999-0031REMSYN088AAXX  23004 82583 32596 11404 10240 20199 39781 40119 81100 333 10324 29066 55096 59003;EQDQ01  00002PRCP06
0186825830999992004052312004-05167-040667FM-12+029999999V0201801N003110120019N0500001N1+02541+02111101471ADDAA106000091GF106991061081008001001001KA1240N+02021MA1999999098071MD1999999+0161REMSYN076AAXX  23124 82583 32599 61806 10254 20211 39807 40147 86800 333 20202 58016;EQDQ01  00002PRCP06
0208825830999992004052400004-05167-040667FM-12+029999999V0200901N000512200019N0040001N1+02381+01931101381ADDAA106000091GA1001+999999999GF100991001001999999001001KA1240M+03181MA1999999097981MD1999999+0171REMSYN082AAXX  24004 82583 32996 00901 10238 20193 39798 40138 333 10318 29070 55052 58017;EQDQ01  00002PRCP06
0186825830999992004052412004-05167-040667FM-12+029999999V0200901N004110075019N0500001N1+02701+02131101531ADDAA106000091GF106991061021008001001001KA1240N+01911MA1999999098141MD1999999+0071REMSYN076AAXX  24124 82583 32599 60908 10270 20213 39814 40153 86200 333 20191 58007;EQDQ01  00002PRCP06
0198825830999992004052500004-05167-040667FM-12+029999999V0200901N002612200019N0040001N1+02581+02081101301ADDAA106000091GF102991021011008001001001KA1240M+03271MA1999999097921MD1999999-0061REMSYN088AAXX  25004 82583 32596 20905 10258 20208 39792 40130 82100 333 10327 29068 55085 59006;EQDQ01  00002PRCP06
0186825830999992004052512004-05167-040667FM-12+029999999V0201401N002110120019N0500001N1+02561+02191101481ADDAA106000091GF108991081081008001999999KA1240N+02351MA1999999098091MD1999999-0051REMSYN076AAXX  25124 82583 32599 81404 10256 20219 39809 40148 888// 333 20235 59005;EQDQ01  00002PRCP06
0202825830999992004052600004-05167-040667FM-12+029999999V0201401N001512200019N0040001N1+02521+02191101341ADDAY161061AY261061GF103991031011008001001001KA1240M+03171MA1999999097961MD1999999+0041MW1021REMSYN100AAXX  26004 82583 21596 31403 10252 20219 39796 40134 70266 83100 333 10317 29075 55051 58004 60161;
0162825830999992004052612004-05167-040667FM-12+029999999V0201401N002112200019N0500001N1+02561+02191101371ADDGF103991031011008001001001KA1240N+02141MA1999999097991MD1999999-0101REMSYN082AAXX  26124 82583 22599 31404 10256 20219 39799 40137 83100 333 20214 59010 60164;
0208825830999992004052700004-05167-040667FM-12+029999999V0200901N001512200019N0040001N1+02561+02081101231ADDAA106000091GA1001+999999999GF100991001001999999001001KA1240M+03341MA1999999097851MD1999999-0111REMSYN082AAXX  27004 82583 32996 00903 10256 20208 39785 40123 333 10334 29068 55087 59011;EQDQ01  00002PRCP06
0186825830999992004052712004-05167-040667FM-12+029999999V0200901N002110075019N0500001N1+02671+02181101361ADDAA106000091GF105991051021008001001001KA1240N+02161MA1999999097981MD1999999-0011REMSYN076AAXX  27124 82583 32599 50904 10267 20218 39798 40136 85200 333 20216 59001;EQDQ01  00002PRCP06
0198825830999992004052800004-05167-040667FM-12+029999999V0200901N000512200019N0040001N1+02591+02121101261ADDAA106000091GF102991021011008001001001KA1240M+03341MA1999999097881MD1999999+0031REMSYN088AAXX  28004 82583 32596 20901 10259 20212 39788 40126 82100 333 10334 29067 55087 58003;EQDQ01  00002PRCP06
0186825830999992004052812004-05167-040667FM-12+029999999V0200901N005112200019N0500001N1+02831+02121101451ADDAA106000091GF103991031011008001001001KA1240N+02261MA1999999098081MD1999999+0101REMSYN076AAXX  28124 82583 32599 30910 10283 20212 39808 40145 83100 333 20226 58010;EQDQ01  00002PRCP06
0214825830999992004052900004-05167-040667FM-12+029999999V0203601N002112200019N0040001N1+02531+01831101281ADDAA106000091GF101991011011008001001001KA1240M+99999MA1999999097921MD1999999+0041REMSYN088AAXX  29004 82583 32596 13604 10253 20183 39792 40128 81100 333 10128 29061 55091 58004;EQDQ01  00002PRCP06Q02 +01282ATMX  
0190825830999992004052912004-05167-040667FM-12+029999999V0200901N003110075019N0500001N1+02621+02211101471ADDAY161061AY261061GF106991051021008001041001KA1240N+02291MA1999999098091MD1999999+0011MW1021REMSYN088AAXX  29124 82583 21599 60906 10262 20221 39809 40147 70266 85240 333 20229 58001 69964;
0208825830999992004053000004-05167-040667FM-12+029999999V0200901N001012200019N0040001N1+02441+01901101341ADDAA106000091GA1001+999999999GF100991001001999999001001KA1240M+03251MA1999999097961MD1999999+0041REMSYN082AAXX  30004 82583 32996 00902 10244 20190 39796 40134 333 10325 29069 55073 58004;EQDQ01  00002PRCP06
0190825830999992004053012004-05167-040667FM-12+029999999V0201801N003110075019N0500001N1+02411+02191101571ADDAY161061AY261061GF108991081051008001999999KA1240N+02071MA1999999098161MD1999999+0071MW1021REMSYN088AAXX  30124 82583 21599 81806 10241 20219 39816 40157 70266 885// 333 20207 58007 60054;
0198825830999992004053100004-05167-040667FM-12+029999999V0203601N001512200019N0040001N1+02651+02221101271ADDAA106000091GF102991021011008001001001KA1240M+03281MA1999999097891MD1999999+0031REMSYN088AAXX  31004 82583 32596 23603 10265 20222 39789 40127 82100 333 10328 29078 55094 58003;EQDQ01  00002PRCP06
0186825830999992004053112004-05167-040667FM-12+029999999V0201401N003112200019N0500001N1+02681+02161101431ADDAA106000091GF103991031021008001001001KA1240N+02151MA1999999098051MD1999999-0111REMSYN076AAXX  31124 82583 32599 31406 10268 20216 39805 40143 83200 333 20215 59011;EQDQ01  00002PRCP06
0198825830999992004060100004-05167-040667FM-12+029999999V0200901N001510120019N0040001N1+02571+01921101251ADDAA106000091GF107991051081008001031001KA1240M+03291MA1999999097871MD1999999-0011REMSYN088AAXX  01004 82583 32596 70903 10257 20192 39787 40125 85830 333 10329 29060 55078 59001;EQDQ01  00002PRCP06
0190825830999992004060112004-05167-040667FM-12+029999999V0200901N003110042019N0100001N1+02291+02221101571ADDAY121061AY221061GF108991081051004501999999KA1240N+02291MA1999999098171MD1999999+0121MW1601REMSYN088AAXX  01124 82583 21497 80906 10229 20222 39817 40157 76022 885// 333 20229 58012 69984;
0202825830999992004060200004-05167-040667FM-12+029999999V0200501N000510075019N0040001N1+02381+02151101511ADDAY161061AY261061GF108991081051008001999999KA1240M+02821MA1999999098091MD1999999+0221MW1021REMSYN100AAXX  02004 82583 21596 80501 10238 20215 39809 40151 70266 885// 333 10282 29081 55008 58022 60031;
0162825830999992004060212004-05167-040667FM-12+029999999V0200901N003112200019N0500001N1+02561+02131101561ADDGF104991041021008001001001KA1240N+02111MA1999999098161MD1999999-0011REMSYN082AAXX  02124 82583 22599 40906 10256 20213 39816 40156 84200 333 20211 59001 60034;
0208825830999992004060300004-05167-040667FM-12+029999999V0201401N001512200019N0040001N1+02321+01961101421ADDAA106000091GA1001+999999999GF100991001001999999001001KA1240M+03151MA1999999098021MD1999999-0071REMSYN082AAXX  03004 82583 32996 01403 10232 20196 39802 40142 333 10315 29068 55092 59007;EQDQ01  00002PRCP06
0202825830999992004060312004-05167-040667FM-12+029999999V0200901N002612200019N0500001N1+02631+02091101511ADDAA106000091GF102991999011008001001001KA1240N+01931MA1999999098111MD1999999-0051REMSYN076AAXX  03124 82583 32599 20905 10263 20209 39811 40151 81100 333 20193 59005;EQDQ01+000012SCOTLCQ02  00002PRCP06
0198825830999992004060400004-05167-040667FM-12+029999999V0201401N001012200019N0040001N1+02371+01891101421ADDAA106000091GF102991021011008001001001KA1240M+03101MA1999999098101MD1999999+0081REMSYN088AAXX  04004 82583 32596 21402 10237 20189 39810 40142 82100 333 10310 29074 55088 58008;EQDQ01  00002PRCP06
0186825830999992004060412004-05167-040667FM-12+029999999V0200901N003112200019N0500001N1+02671+02061101471ADDAA106000091GF102991021011008001001001KA1240N+02001MA1999999098071MD1999999-0091REMSYN076AAXX  04124 82583 32599 20906 10267 20206 39807 40147 82100 333 20200 59009;EQDQ01  00002PRCP06
0198825830999992004060500004-05167-040667FM-12+029999999V0201401N001512200019N0040001N1+02481+01981101281ADDAA106000091GF102991021011008001001001KA1240M+03351MA1999999097901MD1999999-0201REMSYN088AAXX  05004 82583 32596 21403 10248 20198 39790 40128 82100 333 10335 29064 55090 59020;EQDQ01  00002PRCP06
0186825830999992004060512004-05167-040667FM-12+029999999V0200901N003110075019N0500001N1+02601+02121101361ADDAA106000091GF106991061021008001001001KA1240N+02041MA1999999097981MD1999999-0091REMSYN076AAXX  05124 82583 32599 60906 10260 20212 39798 40136 86200 333 20204 59009;EQDQ01  00002PRCP06
0198825830999992004060600004-05167-040667FM-12+029999999V0200501N002112200019N0040001N1+02651+02111101361ADDAA106000091GF102991021011008001001001KA1240M+03281MA1999999097981MD1999999+0081REMSYN088AAXX  06004 82583 32596 20504 10265 20211 39798 40136 82100 333 10328 29064 55068 58008;EQDQ01  00002PRCP06
0186825830999992004060612004-05167-040667FM-12+029999999V0200901N004610075019N0500001N1+02651+02041101471ADDAA106000091GF106991061021008001001001KA1240N+02101MA1999999098091MD1999999+0111REMSYN076AAXX  06124 82583 32599 60909 10265 20204 39809 40147 86200 333 20210 58011;EQDQ01  00002PRCP06
0208825830999992004060700004-05167-040667FM-12+029999999V0200901N001012200019N0040001N1+02461+02011101371ADDAA106000091GA1001+999999999GF100991001001999999001001KA1240M+03231MA1999999097991MD1999999+0011REMSYN082AAXX  07004 82583 32996 00902 10246 20201 39799 40137 333 10323 29066 55075 58001;EQDQ01  00002PRCP06
0186825830999992004060712004-05167-040667FM-12+029999999V0200901N005710075019N0500001N1+02771+02091101561ADDAA106000091GF106991051021008001001011KA1240N+02061MA1999999098171MD1999999+0081REMSYN076AAXX  07124 82583 32599 60911 10277 20209 39817 40156 85201 333 20206 58008;EQDQ01  00002PRCP06
0198825830999992004060800004-05167-040667FM-12+029999999V0201401N001512200019N0040001N1+02411+01771101421ADDAA106000091GF101991011011008001001001KA1240M+03301MA1999999098041MD1999999+0051REMSYN088AAXX  08004 82583 32596 11403 10241 20177 39804 40142 81100 333 10330 29058 55101 58005;EQDQ01  00002PRCP06
0186825830999992004060812004-05167-040667FM-12+029999999V0201401N003612200019N0500001N1+02561+02081101571ADDAA106000091GF104991041011008001001001KA1240N+01911MA1999999098171MD1999999+0001REMSYN076AAXX  08124 82583 32599 41407 10256 20208 39817 40157 84100 333 20191 58000;EQDQ01  00002PRCP06
0198825830999992004060900004-05167-040667FM-12+029999999V0200901N001512200019N0040001N1+02311+01621101511ADDAA106000091GF101991011011008001001001KA1240M+03231MA1999999098111MD1999999+0071REMSYN088AAXX  09004 82583 32596 10903 10231 20162 39811 40151 81100 333 10323 29055 55097 58007;EQDQ01  00002PRCP06
0186825830999992004060912004-05167-040667FM-12+029999999V0200901N006712200019N0500001N1+02681+01861101621ADDAA106000091GF102991021011008001001001KA1240N+02061MA1999999098221MD1999999+0051REMSYN076AAXX  09124 82583 32599 20913 10268 20186 39822 40162 82100 333 20206 58005;EQDQ01  00002PRCP06
0208825830999992004061000004-05167-040667FM-12+029999999V0200901N001512200019N0040001N1+02411+01881101471ADDAA106000091GA1001+999999999GF100991001001999999001001KA1240M+03121MA1999999098081MD1999999-0031REMSYN082AAXX  10004 82583 32996 00903 10241 20188 39808 40147 333 10312 29064 55061 59003;EQDQ01  00002PRCP06
0186825830999992004061012004-05167-040667FM-12+029999999V0201401N004610075019N0500001N1+02671+02061101531ADDAA106000091GF106991061021008001001001KA1240N+02131MA1999999098141MD1999999-0091REMSYN076AAXX  10124 82583 32599 61409 10267 20206 39814 40153 86200 333 20213 59009;EQDQ01  00002PRCP06
0208825830999992004061100004-05167-040667FM-12+029999999V0201401N002112200019N0040001N1+02371+01531101481ADDAA106000091GA1001+999999999GF100991001001999999001001KA1240M+03281MA1999999098081MD1999999+0001REMSYN082AAXX  11004 82583 32996 01404 10237 20153 39808 40148 333 10328 29054 55099 58000;EQDQ01  00002PRCP06
0186825830999992004061112004-05167-040667FM-12+029999999V0201401N004612200019N0500001N1+02641+01771101571ADDAA106000091GF103991031011008001001001KA1240N+01901MA1999999098171MD1999999+0031REMSYN076AAXX  11124 82583 32599 31409 10264 20177 39817 40157 83100 333 20190 58003;EQDQ01  00002PRCP06
0208825830999992004061200004-05167-040667FM-12+029999999V0201401N000512200019N0040001N1+02471+01851101471ADDAA106000091GA1001+999999999GF100991001001999999001001KA1240M+03171MA1999999098091MD1999999+0011REMSYN082AAXX  12004 82583 32596 01401 10247 20185 39809 40147 333 10317 29058 55066 58001;EQDQ01  00002PRCP06
0186825830999992004061212004-05167-040667FM-12+029999999V0200901N004612200019N0500001N1+02691+01881101741ADDAA106000091GF101991011011008001001001KA1240N+01981MA1999999098351MD1999999+0181REMSYN076AAXX  12124 82583 32599 10909 10269 20188 39835 40174 81100 333 20198 58018;EQDQ01  00002PRCP06
0208825830999992004061300004-05167-040667FM-12+029999999V0201801N001512200019N0040001N1+02521+01711101631ADDAA106000091GA1001+999999999GF100991001001999999001001KA1240M+03321MA1999999098241MD1999999+0151REMSYN082AAXX  13004 82583 32996 01803 10252 20171 39824 40163 333 10332 29052 55100 58015;EQDQ01  00002PRCP06
0186825830999992004061312004-05167-040667FM-12+029999999V0201401N004112200019N0500001N1+02741+01841101581ADDAA106000091GF103991031021008001001001KA1240N+01971MA1999999098201MD1999999-0151REMSYN076AAXX  13124 82583 32599 31408 10274 20184 39820 40158 83200 333 20197 59015;EQDQ01  00002PRCP06
0198825830999992004061400004-05167-040667FM-12+029999999V0200901N002112200019N0040001N1+02551+01931101481ADDAA106000091GF101991011011008001001001KA1240M+03361MA1999999098101MD1999999-0141REMSYN088AAXX  14004 82583 32596 10904 10255 20193 39810 40148 81100 333 10336 29057 55086 59014;EQDQ01  00002PRCP06
0186825830999992004061412004-05167-040667FM-12+029999999V0201401N005710075019N0500001N1+02491+01981101621ADDAA106000091GF108991081051008001999999KA1240N+02091MA1999999098221MD1999999+0021REMSYN076AAXX  14124 82583 32599 81411 10249 20198 39822 40162 885// 333 20209 58002;EQDQ01  00002PRCP06
0198825830999992004061500004-05167-040667FM-12+029999999V0200901N003112200019N0040001N1+02621+01961101451ADDAA106000091GF101991011011008001001001KA1240M+03201MA1999999098061MD1999999-0041REMSYN088AAXX  15004 82583 32596 10906 10262 20196 39806 40145 81100 333 10320 29063 55048 59004;EQDQ01  00002PRCP06
0190825830999992004061512004-05167-040667FM-12+029999999V0200901N004612200019N0500001N1+02491+02051101651ADDAY161061AY251061GF103991021011008001001011KA1240N+02081MA1999999098251MD1999999+0031MW1011REMSYN088AAXX  15124 82583 21599 30909 10249 20205 39825 40165 70165 82101 333 20208 58003 60144;
0208825830999992004061600004-05167-040667FM-12+029999999V0200901N001512200019N0040001N1+02511+02021101561ADDAA106000091GA1001+999999999GF100991001001999999001001KA1240M+03091MA1999999098161MD1999999+0101REMSYN082AAXX  16004 82583 32996 00903 10251 20202 39816 40156 333 10309 29066 55065 58010;EQDQ01  00002PRCP06
0186825830999992004061612004-05167-040667FM-12+029999999V0200901N006212200019N0500001N1+02651+02021101511ADDAA106000091GF104991041021008001001001KA1240N+02261MA1999999098131MD1999999-0121REMSYN076AAXX  16124 82583 32599 40912 10265 20202 39813 40151 84200 333 20226 59012;EQDQ01  00002PRCP06
0198825830999992004061700004-05167-040667FM-12+029999999V0200901N002112200019N0040001N1+02481+02111101451ADDAA106000091GF102991021011008001001001KA1240M+03101MA1999999098071MD1999999-0091REMSYN088AAXX  17004 82583 32596 20904 10248 20211 39807 40145 82100 333 10310 29068 55069 59009;EQDQ01  00002PRCP06
0190825830999992004061712004-05167-040667FM-12+029999999V0201401N003610075019N0500001N1+02511+02191101531ADDAY161061AY261061GF106991061021008001001001KA1240N+02171MA1999999098131MD1999999+0001MW1021REMSYN088AAXX  17124 82583 21599 61407 10251 20219 39813 40153 70266 86200 333 20217 58000 60044;
0198825830999992004061800004-05167-040667FM-12+029999999V0201801N002112200019N0040001N1+02431+02151101471ADDAA106000091GF102991021011008001001001KA1240M+03011MA1999999098071MD1999999+0001REMSYN088AAXX  18004 82583 32596 21804 10243 20215 39807 40147 82100 333 10301 29075 55045 58000;EQDQ01  00002PRCP06
0190825830999992004061812004-05167-040667FM-12+029999999V0200901N003110120019N0500001N1+02381+02011101681ADDAY161061AY261061GF107991071081008001001001KA1240N+02131MA1999999098261MD1999999+0131MW1021REMSYN088AAXX  18124 82583 21599 70906 10238 20201 39826 40168 70266 87800 333 20213 58013 69914;
0202825830999992004061900004-05167-040667FM-12+029999999V0200501N003110075019N0040001N1+02271+02161101721ADDAY121061AY221061GF108991081051008001999999KA1240M+02971MA1999999098301MD1999999+0231MW1201REMSYN100AAXX  19004 82583 21596 80506 10227 20216 39830 40172 72022 885// 333 10297 29080 55052 58023 69921;
0190825830999992004061912004-05167-040667FM-12+029999999V0201401N002610120019N0500001N1+02481+02191101801ADDAY161061AY251061GF107991071081008001001001KA1240N+02191MA1999999098361MD1999999+0121MW1021REMSYN088AAXX  19124 82583 21599 71405 10248 20219 39836 40180 70265 87800 333 20219 58012 60024;
0322825830999992004061918004-05167-040667FM-12+029999999V0202701N00601004201CN0180001N1+99999+99999999999ADDAA100001091AY181061AY281061GA1041+004809099GF108991061091004501021999KA1240M+00841MA1999999098921MD1110021+9999MW1801REMSYN094AAXX  19181 82583 11468 82706 10056 20044 39892 49970 51002 60010 78088 8692/ 333 10084 84916;EQDQ01+000563ATOT  Q02+000443ATOD  Q03+099703APOSLPQ04 +00563ATOT  Q05 +00443ATOD  Q06 099703APOSLP
0212825830999992004062000004-05167-040667FM-12+029999999V0201801N000512200019N0040001N1+02311+02201101721ADDAY161061AY261061GA1001+999999999GF100991001001999999001001KA1240M+02861MA1999999098311MD1999999+0011MW1021REMSYN094AAXX  20004 82583 21596 01801 10231 20220 39831 40172 70266 333 10286 29083 55020 58001 60021;
0162825830999992004062012004-05167-040667FM-12+029999999V0200901N007712200019N0500001N1+02521+02001101631ADDGF103991031021008001001001KA1240N+02561MA1999999098221MD1999999-0161REMSYN082AAXX  20124 82583 22599 30915 10252 20200 39822 40163 83200 333 20256 59016 60024;
0208825830999992004062100004-05167-040667FM-12+029999999V0200501N002112200019N0040001N1+02401+02031101501ADDAA106000091GA1001+999999999GF100991001001999999001001KA1240M+03121MA1999999098101MD1999999-0211REMSYN082AAXX  21004 82583 32996 00504 10240 20203 39810 40150 333 10312 29068 55089 59021;EQDQ01  00002PRCP06
0190825830999992004062112004-05167-040667FM-12+029999999V0201401N005710120019N0500001N1+02431+01971101571ADDAY161061AY261061GF107991071081008001001001KA1240N+02091MA1999999098161MD1999999-0061MW1021REMSYN088AAXX  21124 82583 21599 71411 10243 20197 39816 40157 70266 87800 333 20209 59006 60024;
0198825830999992004062200004-05167-040667FM-12+029999999V0200901N001512200019N0040001N1+02471+02031101481ADDAA106000091GF103991031011008001001001KA1240M+02961MA1999999098081MD1999999-0021REMSYN088AAXX  22004 82583 32596 30903 10247 20203 39808 40148 83100 333 10296 29069 55027 59002;EQDQ01  00002PRCP06
0190825830999992004062212004-05167-040667FM-12+029999999V0201401N004110075019N0100001N1+02351+02051101691ADDAY151061AY251061GF108991081051008001999999KA1240N+02001MA1999999098281MD1999999+0121MW1151REMSYN088AAXX  22124 82583 21597 81408 10235 20205 39828 40169 71555 885// 333 20200 58012 69984;
0198825830999992004062300004-05167-040667FM-12+029999999V0200901N002112200019N0040001N1+02461+01971101571ADDAA106000091GF102991021011008001001001KA1240M+02871MA1999999098161MD1999999+0081REMSYN088AAXX  23004 82583 32596 20904 10246 20197 39816 40157 82100 333 10287 29076 55020 58008;EQDQ01  00002PRCP06
0186825830999992004062312004-05167-040667FM-12+029999999V0201801N002610120019N0500001N1+02411+02071101651ADDAA106000091GF107991061081008001041001KA1240N+02151MA1999999098251MD1999999-0031REMSYN076AAXX  23124 82583 32599 71805 10241 20207 39825 40165 86840 333 20215 59003;EQDQ01  00002PRCP06
0186825830999992004062412004-05167-040667FM-12+029999999V0201401N003610075019N0500001N1+02541+01951101541ADDAA106000091GF106991061021008001001001KA1240N+02041MA1999999098151MD1999999-0101REMSYN076AAXX  24124 82583 32599 61407 10254 20195 39815 40154 86200 333 20204 59010;EQDQ01  00002PRCP06
0198825830999992004062500004-05167-040667FM-12+029999999V0200901N001012200019N0040001N1+02471+01961101401ADDAA106000091GF103991031011008001001001KA1240M+03151MA1999999098011MD1999999-0181REMSYN088AAXX  25004 82583 32596 30902 10247 20196 39801 40140 83100 333 10315 29063 55070 59018;EQDQ01  00002PRCP06
0208825830999992004062600004-05167-040667FM-12+029999999V0200901N001512200019N0200001N1+02341+01921101191ADDAA106000091GA1001+999999999GF100991001001999999001001KA1240M+03211MA1999999097811MD1999999-0201REMSYN082AAXX  26004 82583 32998 00903 10234 20192 39781 40119 333 10321 29084 55097 59020;EQDQ01  00002PRCP06
0202825830999992004062612004-05167-040667FM-12+029999999V0200901N002119999999N0500001N1+02471+02111101491ADDAA106000091GF107991999071008001081001KA1240N+01991MA1999999098091MD1999999+0031REMSYN076AAXX  26124 82583 32599 70904 10247 20211 39809 40149 88780 333 20199 58003;EQDQ01+000082SCOTLCQ02  00002PRCP06
0198825830999992004062700004-05167-040667FM-12+029999999V0201801N001012200019N0040001N1+02491+02051101381ADDAA106000091GF104991041021008001001001KA1240M+03101MA1999999097991MD1999999+0181REMSYN088AAXX  27004 82583 32596 41802 10249 20205 39799 40138 84200 333 10310 29076 55030 58018;EQDQ01  00002PRCP06
0186825830999992004062712004-05167-040667FM-12+029999999V0200901N005110075019N0500001N1+02611+01911101501ADDAA106000091GF107991071021008001001001KA1240N+02291MA1999999098111MD1999999+0021REMSYN076AAXX  27124 82583 32599 70910 10261 20191 39811 40150 87200 333 20229 58002;EQDQ01  00002PRCP06
0198825830999992004062800004-05167-040667FM-12+029999999V0200501N001510075019N0040001N1+02581+01931101311ADDAA106000091GF106991061011008001001001KA1240M+03081MA1999999097931MD1999999-0061REMSYN088AAXX  28004 82583 32596 60503 10258 20193 39793 40131 86100 333 10308 29064 55062 59006;EQDQ01  00002PRCP06
0190825830999992004062812004-05167-040667FM-12+029999999V0201401N005110450019N0500001N1+02531+01951101471ADDAY161061AY261061GF106991041011008001031001KA1240N+02061MA1999999098081MD1999999-0031MW1021REMSYN088AAXX  28124 82583 21599 61410 10253 20195 39808 40147 70266 84130 333 20206 59003 60074;
0198825830999992004062900004-05167-040667FM-12+029999999V0200501N001510075019N0040001N1+02451+01991101311ADDAA106000091GF107991071011008001001001KA1240M+03061MA1999999097921MD1999999-0011REMSYN088AAXX  29004 82583 32596 70503 10245 20199 39792 40131 87100 333 10306 29064 55032 59001;EQDQ01  00002PRCP06
0186825830999992004062912004-05167-040667FM-12+029999999V0200901N002110120019N0500001N1+02441+02071101531ADDAA106000091GF108991081081008001999999KA1240N+02201MA1999999098131MD1999999+0051REMSYN076AAXX  29124 82583 32599 80904 10244 20207 39813 40153 888// 333 20220 58005;EQDQ01  00002PRCP06
0208825830999992004063000004-05167-040667FM-12+029999999V0200901N002112200019N0040001N1+02341+01871101351ADDAA106000091GA1001+999999999GF100991001001999999001001KA1240M+03051MA1999999097951MD1999999+0031REMSYN082AAXX  30004 82583 32996 00904 10234 20187 39795 40135 333 10305 29068 55035 58003;EQDQ01  00002PRCP06
0186825830999992004063012004-05167-040667FM-12+029999999V0200901N005110075019N0500001N1+02571+01921101441ADDAA106000091GF107991071051008001001001KA1240N+01931MA1999999098041MD1999999-0091REMSYN076AAXX  30124 82583 32599 70910 10257 20192 39804 40144 87500 333 20193 59009;EQDQ01  00002PRCP06
0198825830999992004070100004-05167-040667FM-12+029999999V0200901N001012200019N0040001N1+02471+01961101321ADDAA106000091GF101991011011008001001001KA1240M+03191MA1999999097931MD1999999-0021REMSYN088AAXX  01004 82583 32596 10902 10247 20196 39793 40132 81100 333 10319 29062 55098 59002;EQDQ01  00002PRCP06
0190825830999992004070112004-05167-040667FM-12+029999999V0200901N003610075019N0500001N1+02281+02071101501ADDAY161061AY261061GF107991061051008001041999KA1240N+02161MA1999999098091MD1999999+0051MW1031REMSYN088AAXX  01124 82583 21599 70907 10228 20207 39809 40150 70366 8654/ 333 20216 58005 69964;
0198825830999992004070200004-05167-040667FM-12+029999999V0200501N001510075019N0040001N1+02501+01911101201ADDAA106000091GF106991061041008001001001KA1240M+03181MA1999999097801MD1999999-0131REMSYN088AAXX  02004 82583 32596 60503 10250 20191 39780 40120 86400 333 10318 29066 55075 59013;EQDQ01  00002PRCP06
0198825830999992004070300004-05167-040667FM-12+029999999V0200501N001012200019N0500001N1+02471+01801101231ADDAA106000091GF102991021051008001001001KA1240M+03211MA1999999097851MD1999999+0051REMSYN088AAXX  03004 82583 32599 20502 10247 20180 39785 40123 82500 333 10321 29057 55088 58005;EQDQ01  00002PRCP06
0186825830999992004070312004-05167-040667FM-12+029999999V0200901N003110450019N0500001N1+02701+02081101301ADDAA106000091GF106991041021008001031001KA1240N+02001MA1999999097921MD1999999-0021REMSYN076AAXX  03124 82583 32599 60906 10270 20208 39792 40130 84230 333 20200 59002;EQDQ01  00002PRCP06
0214825830999992004070400004-05167-040667FM-12+029999999V0200901N003110120019N0040001N1+02621+01931101251ADDAA106000091GF107991999081008001001001KA1240M+03031MA1999999097871MD1999999+0021REMSYN088AAXX  04004 82583 32596 70906 10262 20193 39787 40125 85800 333 10303 29062 55039 58002;EQDQ01+000052SCOTLCQ02  00002PRCP06
0190825830999992004070412004-05167-040667FM-12+029999999V0200901N005110075019N0500001N1+02391+02131101541ADDAY161061AY261061GF108991081051008001001001KA1240N+01951MA1999999098141MD1999999+0221MW1021REMSYN088AAXX  04124 82583 21599 80910 10239 20213 39814 40154 70266 88500 333 20195 58022 60024;
0180825830999992004070500004-05167-040667FM-12+029999999V0200901N000512200019N0040001N1+02381+02071101261ADDAA106000091GA1001+999999999GF100991001001999999001001MA1999999097861REMSYN081AAXX  05004 82583 32996 00901 10238 20207 39786 40126 333 1031 29081 55061 59001;EQDQ01  00002PRCP06
0186825830999992004070512004-05167-040667FM-12+029999999V0200901N004112200019N0500001N1+02671+02061101461ADDAA106000091GF102991021011008001001001KA1240N+02011MA1999999098061MD1999999-0081REMSYN076AAXX  05124 82583 32599 20908 10267 20206 39806 40146 82100 333 20201 59008;EQDQ01  00002PRCP06
0208825830999992004070600004-05167-040667FM-12+029999999V0200901N001512200019N0040001N1+02441+01881101341ADDAA106000091GA1001+999999999GF100991001001999999001001KA1240M+03251MA1999999097961MD1999999+0101REMSYN082AAXX  06004 82583 32996 00903 10244 20188 39796 40134 333 10325 29061 55098 58010;EQDQ01  00002PRCP06
0186825830999992004070612004-05167-040667FM-12+029999999V0200901N004110075019N0500001N1+02641+02121101431ADDAA106000091GF106991061021008001001001KA1240N+01941MA1999999098051MD1999999-0011REMSYN076AAXX  06124 82583 32599 60908 10264 20212 39805 40143 86200 333 20194 59001;EQDQ01  00002PRCP06
0208825830999992004070700004-05167-040667FM-12+029999999V0200901N001512200019N0040001N1+02521+02001101201ADDAA106000091GA1001+999999999GF100991001001999999001001KA1240M+02521MA1999999097831MD1999999-0131REMSYN082AAXX  07004 82583 32996 00903 10252 20200 39783 40120 333 10252 29062 55086 59013;EQDQ01  00002PRCP06
0186825830999992004070712004-05167-040667FM-12+029999999V0200901N003110075019N0500001N1+02631+02141101271ADDAA106000091GF106991061021008001001001KA1240N+02131MA1999999097891MD1999999-0161REMSYN076AAXX  07124 82583 32599 60906 10263 20214 39789 40127 86200 333 20213 59016;EQDQ01  00002PRCP06
0208825830999992004070800004-05167-040667FM-12+029999999V0200901N001512200019N0040001N1+02531+01911101141ADDAA106000091GA1001+999999999GF100991001001999999001001KA1240M+03381MA1999999097761MD1999999-0071REMSYN082AAXX  08004 82583 32996 00903 10253 20191 39776 40114 333 10338 29061 55094 59007;EQDQ01  00002PRCP06
0186825830999992004070812004-05167-040667FM-12+029999999V0200901N002610120019N0500001N1+02601+02121101301ADDAA106000091GF107991071081008001001001KA1240N+02071MA1999999097921MD1999999+0031REMSYN076AAXX  08124 82583 32599 70905 10260 20212 39792 40130 87800 333 20207 58003;EQDQ01  00002PRCP06
0198825830999992004070900004-05167-040667FM-12+029999999V0200901N001512200019N0040001N1+02531+01981101151ADDAA106000091GF101991011011008001001001KA1240M+03321MA1999999097781MD1999999+0021REMSYN088AAXX  09004 82583 32596 10903 10253 20198 39778 40115 81100 333 10332 29063 55068 58002;EQDQ01  00002PRCP06
0186825830999992004070912004-05167-040667FM-12+029999999V0200901N002610075019N0500001N1+02691+01991101351ADDAA106000091GF106991061021008001001001KA1240N+02241MA1999999097971MD1999999+0051REMSYN076AAXX  09124 82583 32599 60905 10269 20199 39797 40135 86200 333 20224 58005;EQDQ01  00002PRCP06
0198825830999992004071000004-05167-040667FM-12+029999999V0200901N001512200019N0040001N1+02501+01941101121ADDAA106000091GF101991011011008001001001KA1240M+03251MA1999999097751MD1999999-0031REMSYN088AAXX  10004 82583 32596 10903 10250 20194 39775 40112 81100 333 10325 29062 55075 59003;EQDQ01  00002PRCP06
0186825830999992004071012004-05167-040667FM-12+029999999V0200501N003610075019N0500001N1+02701+02011101401ADDAA106000091GF105991051021008001001001KA1240N+02121MA1999999098021MD1999999-0051REMSYN076AAXX  10124 82583 32599 50507 10270 20201 39802 40140 85200 333 20212 59005;EQDQ01  00002PRCP06
0208825830999992004071100004-05167-040667FM-12+029999999V0200901N002612200019N0040001N1+02601+01991101161ADDAA106000091GA1001+999999999GF100991001001999999001001KA1240M+03321MA1999999097801MD1999999+0051REMSYN082AAXX  11004 82583 32996 00905 10260 20199 39780 40116 333 10332 29059 55080 58005;EQDQ01  00002PRCP06
0214825830999992004071200004-05167-040667FM-12+029999999V0201401N001512200019N0040001N1+02571+02101101111ADDAA106000091GF101991999011008001001001KA1240M+03391MA1999999097741MD1999999-0061REMSYN088AAXX  12004 82583 32596 11403 10257 20210 39774 40111 82100 333 10339 29064 55078 59006;EQDQ01+000022SCOTLCQ02  00002PRCP06
0186825830999992004071212004-05167-040667FM-12+029999999V0200501N003112200019N0500001N1+02641+01901101271ADDAA106000091GF103991031011008001001001KA1240N+02091MA1999999097891MD1999999-0151REMSYN076AAXX  12124 82583 32599 30506 10264 20190 39789 40127 83100 333 20209 59015;EQDQ01  00002PRCP06
0198825830999992004071300004-05167-040667FM-12+029999999V0200501N001512200019N0040001N1+02491+01821101181ADDAA106000091GF101991011011008001001001KA1240M+03291MA1999999097801MD1999999+0061REMSYN088AAXX  13004 82583 32596 10503 10249 20182 39780 40118 81100 333 10329 29056 55095 58006;EQDQ01  00002PRCP06
0186825830999992004071312004-05167-040667FM-12+029999999V0200901N003612200019N0500001N1+02731+01811101291ADDAA106000091GF101991011011008001001001KA1240N+01841MA1999999097911MD1999999+0021REMSYN076AAXX  13124 82583 32599 10907 10273 20181 39791 40129 81100 333 20184 58002;EQDQ01  00002PRCP06
0198825830999992004071400004-05167-040667FM-12+029999999V0200901N001512200019N0040001N1+02611+01811101181ADDAA106000091GF102991021011008001001001KA1240M+03341MA1999999097821MD1999999+0021REMSYN088AAXX  14004 82583 32596 20903 10261 20181 39782 40118 82100 333 10334 29051 55026 58002;EQDQ01  00002PRCP06
0186825830999992004071412004-05167-040667FM-12+029999999V0200901N005112200019N0500001N1+02691+02011101361ADDAA106000091GF103991021011008001041001KA1240N+02231MA1999999097981MD1999999+0071REMSYN076AAXX  14124 82583 32599 30910 10269 20201 39798 40136 82140 333 20223 58007;EQDQ01  00002PRCP06
0208825830999992004071500004-05167-040667FM-12+029999999V0200901N001512200019N0040001N1+02491+01771101321ADDAA106000091GA1001+999999999GF100991001001999999001001KA1240M+03211MA1999999097941MD1999999+0121REMSYN082AAXX  15004 82583 32996 00903 10249 20177 39794 40132 333 10321 29057 55080 58012;EQDQ01  00002PRCP06
0186825830999992004071512004-05167-040667FM-12+029999999V0200901N005710075019N0500001N1+02631+01901101411ADDAA106000091GF106991051021008001021001KA1240N+02101MA1999999098031MD1999999+0051REMSYN076AAXX  15124 82583 32599 60911 10263 20190 39803 40141 85220 333 20210 58005;EQDQ01  00002PRCP06
0198825830999992004071600004-05167-040667FM-12+029999999V0200901N003112200019N0040001N1+02601+01921101311ADDAA106000091GF102991021011008001001001KA1240M+03161MA1999999097931MD1999999-0011REMSYN088AAXX  16004 82583 32596 20906 10260 20192 39793 40131 82100 333 10316 29058 55068 59001;EQDQ01  00002PRCP06
0186825830999992004071612004-05167-040667FM-12+029999999V0201401N002110120019N0500001N1+02561+02041101421ADDAA106000091GF108991081081008001999999KA1240N+02291MA1999999098041MD1999999+0011REMSYN076AAXX  16124 82583 32599 81404 10256 20204 39804 40142 888// 333 20229 58001;EQDQ01  00002PRCP06
0198825830999992004071700004-05167-040667FM-12+029999999V0200901N002112200019N0040001N1+02601+01941101301ADDAA106000091GF102991021011008001001001KA1240M+03181MA1999999097921MD1999999-0011REMSYN088AAXX  17004 82583 32596 20904 10260 20194 39792 40130 82100 333 10318 29063 55022 59001;EQDQ01  00002PRCP06
0186825830999992004071712004-05167-040667FM-12+029999999V0200901N005110075019N0500001N1+02531+01911101491ADDAA106000091GF107991061051008001001021KA1240N+02321MA1999999098101MD1999999+0061REMSYN076AAXX  17124 82583 32599 70910 10253 20191 39810 40149 86502 333 20232 58006;EQDQ01  00002PRCP06
0208825830999992004071800004-05167-040667FM-12+029999999V0200901N001512200019N0040001N1+02541+01931101361ADDAA106000091GA1001+999999999GF100991001001999999001001KA1240M+03101MA1999999097971MD1999999+0051REMSYN082AAXX  18004 82583 32996 00903 10254 20193 39797 40136 333 10310 29062 55006 58005;EQDQ01  00002PRCP06
0186825830999992004071812004-05167-040667FM-12+029999999V0201401N004610075019N0500001N1+02691+01991101541ADDAA106000091GF106991061021008001001001KA1240N+02151MA1999999098151MD1999999+0051REMSYN076AAXX  18124 82583 32599 61409 10269 20199 39815 40154 86200 333 20215 58005;EQDQ01  00002PRCP06
0208825830999992004071900004-05167-040667FM-12+029999999V0200901N002112200019N0040001N1+02521+01931101341ADDAA106000091GA1001+999999999GF100991001001999999001001KA1240M+03331MA1999999097961MD1999999-0011REMSYN082AAXX  19004 82583 32996 00904 10252 20193 39796 40134 333 10333 29061 55084 59001;EQDQ01  00002PRCP06
0186825830999992004071912004-05167-040667FM-12+029999999V0201401N003610075019N0500001N1+02661+01971101521ADDAA106000091GF106991061021008001001001KA1240N+02121MA1999999098141MD1999999-0011REMSYN076AAXX  19124 82583 32599 61407 10266 20197 39814 40152 86200 333 20212 59001;EQDQ01  00002PRCP06
0198825830999992004072000004-05167-040667FM-12+029999999V0200901N000512200019N0040001N1+02501+01701101311ADDAA106000091GF101991011011008001001001KA1240M+03281MA1999999097931MD1999999-0031REMSYN088AAXX  20004 82583 32596 10901 10250 20170 39793 40131 81100 333 10328 29055 55085 59003;EQDQ01  00002PRCP06
0186825830999992004072012004-05167-040667FM-12+029999999V0201401N005712200019N0500001N1+02721+01521101491ADDAA106000091GF101991011011008001001001KA1240N+01921MA1999999098111MD1999999-0031REMSYN076AAXX  20124 82583 32599 11411 10272 20152 39811 40149 81100 333 20192 59003;EQDQ01  00002PRCP06
0198825830999992004072100004-05167-040667FM-12+029999999V0201801N001012200019N0040001N1+02641+01721101141ADDAA106000091GF103991031011008001001001KA1240M+03411MA1999999097781MD1999999-0151REMSYN088AAXX  21004 82583 32596 31802 10264 20172 39778 40114 83100 333 10341 29047 55107 59015;EQDQ01  00002PRCP06
0186825830999992004072112004-05167-040667FM-12+029999999V0200901N002612200019N0500001N1+02731+01571101331ADDAA106000091GF102991011011008001001011KA1240N+01891MA1999999097961MD1999999-0151REMSYN076AAXX  21124 82583 32599 20905 10273 20157 39796 40133 81101 333 20189 59015;EQDQ01  00002PRCP06
0208825830999992004072200004-05167-040667FM-12+029999999V0200901N002112200019N0040001N1+02661+01791101121ADDAA106000091GA1001+999999999GF100991001001999999001001KA1240M+03501MA1999999097761MD1999999+0021REMSYN082AAXX  22004 82583 32996 00904 10266 20179 39776 40112 333 10350 29048 55107 58002;EQDQ01  00002PRCP06
0186825830999992004072212004-05167-040667FM-12+029999999V0200901N004112200019N0500001N1+02771+01931101291ADDAA106000091GF102991021011008001001001KA1240N+02061MA1999999097931MD1999999-0031REMSYN076AAXX  22124 82583 32599 20908 10277 20193 39793 40129 82100 333 20206 59003;EQDQ01  00002PRCP06
0208825830999992004072300004-05167-040667FM-12+029999999V0200901N001012200019N0040001N1+02651+01681101151ADDAA106000091GA1001+999999999GF100991001001999999001001KA1240M+03471MA1999999097791MD1999999+0031REMSYN082AAXX  23004 82583 32996 00902 10265 20168 39779 40115 333 10347 29049 55096 58003;EQDQ01  00002PRCP06
0196825830999992004072312004-05167-040667FM-12+029999999V0201401N006212200019N0500001N1+02611+01561101461ADDAA106000091GA1001+999999999GF100991001001999999001001KA1240N+02071MA1999999098081MD1999999+0151REMSYN070AAXX  23124 82583 32999 01412 10261 20156 39808 40146 333 20207 58015;EQDQ01  00002PRCP06
0198825830999992004072400004-05167-040667FM-12+029999999V0200901N002112200019N0040001N1+02641+01421101311ADDAA106000091GF102991021051008001001001KA1240M+03361MA1999999097931MD1999999+0141REMSYN088AAXX  24004 82583 32596 20904 10264 20142 39793 40131 82500 333 10336 29044 55099 58014;EQDQ01  00002PRCP06
0186825830999992004072412004-05167-040667FM-12+029999999V0201401N005112200019N0500001N1+02611+01531101581ADDAA106000091GF101991001001999999001021KA1240N+01961MA1999999098191MD1999999+0111REMSYN076AAXX  24124 82583 32999 11410 10261 20153 39819 40158 80002 333 20196 58011;EQDQ01  00002PRCP06
0198825830999992004072500004-05167-040667FM-12+029999999V0201401N002612200019N0040001N1+02671+01581101491ADDAA106000091GF101991011011008001001001KA1240M+03331MA1999999098111MD1999999+0181REMSYN088AAXX  25004 82583 32596 11405 10267 20158 39811 40149 81100 333 10333 29046 55103 58018;EQDQ01  00002PRCP06
0186825830999992004072512004-05167-040667FM-12+029999999V0201401N005712200019N0500001N1+02601+01631101551ADDAA106000091GF101991011011008001001001KA1240N+02141MA1999999098171MD1999999-0021REMSYN076AAXX  25124 82583 32599 11411 10260 20163 39817 40155 81100 333 20214 59002;EQDQ01  00002PRCP06
0198825830999992004072600004-05167-040667FM-12+029999999V0201401N000510075019N0040001N1+02631+01661101371ADDAA106000091GF108991081051008001999999KA1240M+03301MA1999999097991MD1999999-0121REMSYN088AAXX  26004 82583 32596 81401 10263 20166 39799 40137 885// 333 10330 29052 55107 59012;EQDQ01  00002PRCP06
0186825830999992004072612004-05167-040667FM-12+029999999V0201401N007710075019N0500001N1+02551+01561101501ADDAA106000091GF106991061051008001001001KA1240N+02201MA1999999098121MD1999999-0051REMSYN076AAXX  26124 82583 32599 61415 10255 20156 39812 40150 86500 333 20220 59005;EQDQ01  00002PRCP06
0198825830999992004072700004-05167-040667FM-12+029999999V0201401N002110075019N0040001N1+02681+01611101451ADDAA106000091GF107991071051008001001001KA1240M+03131MA1999999098071MD1999999+0081REMSYN088AAXX  27004 82583 32596 71404 10268 20161 39807 40145 87500 333 10313 29050 55064 58008;EQDQ01  00002PRCP06
0186825830999992004072712004-05167-040667FM-12+029999999V0201401N005712200019N0500001N1+02681+01581101551ADDAA106000091GF101991011011008001001001KA1240N+02271MA1999999098171MD1999999+0051REMSYN076AAXX  27124 82583 32599 11411 10268 20158 39817 40155 81100 333 20227 58005;EQDQ01  00002PRCP06
0186825830999992004072812004-05167-040667FM-12+029999999V0201401N005712200019N0500001N1+02631+01481101491ADDAA106000091GF101991011001017501041001KA1240N+01931MA1999999098101MD1999999-0071REMSYN076AAXX  28124 82583 32799 11411 10263 20148 39810 40149 81040 333 20193 59007;EQDQ01  00002PRCP06
0198825830999992004072900004-05167-040667FM-12+029999999V0201401N002610075019N0040001N1+02791+01561101391ADDAA106000091GF106991061051008001001001KA1240M+03291MA1999999098021MD1999999-0031REMSYN088AAXX  29004 82583 32596 61405 10279 20156 39802 40139 86500 333 10329 29044 55081 59003;EQDQ01  00002PRCP06
0186825830999992004072912004-05167-040667FM-12+029999999V0201401N006210075019N0500001N1+02681+01551101451ADDAA106000091GF106991061051008001001001KA1240N+02261MA1999999098091MD1999999-0011REMSYN076AAXX  29124 82583 32599 61412 10268 20155 39809 40145 86500 333 20226 59001;EQDQ01  00002PRCP06
0198825830999992004073000004-05167-040667FM-12+029999999V0201401N002110075019N0040001N1+02601+01741101441ADDAA106000091GF106991061051008001001001KA1240M+03031MA1999999098061MD1999999+0041REMSYN088AAXX  30004 82583 32596 61404 10260 20174 39806 40144 86500 333 10303 29054 55021 58004;EQDQ01  00002PRCP06
0190825830999992004073012004-05167-040667FM-12+029999999V0200901N007710075019N0500001N1+02551+01831101581ADDAY161061AY251061GF106991061021008001001001KA1240N+02091MA1999999098191MD1999999+0101MW1021REMSYN088AAXX  30124 82583 21599 60915 10255 20183 39819 40158 70265 86200 333 20209 58010 60014;
0208825830999992004073100004-05167-040667FM-12+029999999V0200901N000512200019N0040001N1+02391+01601101541ADDAA106000091GA1001+999999999GF100991001001999999001001KA1240M+03081MA1999999098101MD1999999+0081REMSYN082AAXX  31004 82583 32996 00901 10239 20160 39810 40154 333 10308 29055 55063 58008;EQDQ01  00002PRCP06
0186825830999992004073112004-05167-040667FM-12+029999999V0200901N005712200019N0500001N1+02681+01811101621ADDAA106000091GF101991011011008001001001KA1240N+01851MA1999999098221MD1999999+0031REMSYN076AAXX  31124 82583 32599 10911 10268 20181 39822 40162 81100 333 20185 58003;EQDQ01  00002PRCP06
0198825830999992004080100004-05167-040667FM-12+029999999V0200901N001012200019N0040001N1+02561+01621101411ADDAA106000091GF101991011011008001001001KA1240M+03341MA1999999098031MD1999999-0111REMSYN088AAXX  01004 82583 32596 10902 10256 20162 39803 40141 81100 333 10334 29049 55101 59011;EQDQ01  00002PRCP06
0186825830999992004080112004-05167-040667FM-12+029999999V0200901N002110075019N0500001N1+02581+01941101601ADDAA106000091GF107991071051008001001001KA1240N+02591MA1999999098201MD1999999-0021REMSYN076AAXX  01124 82583 32599 70904 10258 20194 39820 40160 87500 333 20259 59002;EQDQ01  00002PRCP06
0198825830999992004080200004-05167-040667FM-12+029999999V0200901N002112200019N0040001N1+02591+01871101391ADDAA106000091GF101991011011008001001001KA1240M+03341MA1999999098011MD1999999-0031REMSYN088AAXX  02004 82583 32596 10904 10259 20187 39801 40139 81100 333 10334 29057 55076 59003;EQDQ01  00002PRCP06
0186825830999992004080212004-05167-040667FM-12+029999999V0200901N006210075019N0500001N1+02631+01981101561ADDAA106000091GF107991061021008001031001KA1240N+02161MA1999999098171MD1999999-0031REMSYN076AAXX  02124 82583 32599 70912 10263 20198 39817 40156 86230 333 20216 59003;EQDQ01  00002PRCP06
0208825830999992004080300004-05167-040667FM-12+029999999V0200901N003112200019N0040001N1+02571+01741101391ADDAA106000091GA1001+999999999GF100991001001999999001001KA1240M+03291MA1999999098011MD1999999+0001REMSYN082AAXX  03004 82583 32996 00906 10257 20174 39801 40139 333 10329 29056 55064 58000;EQDQ01  00002PRCP06
0186825830999992004080312004-05167-040667FM-12+029999999V0201401N003112200019N0500001N1+02761+01911101541ADDAA106000091GF103991031011008001001001KA1240N+01961MA1999999098161MD1999999-0011REMSYN076AAXX  03124 82583 32599 31406 10276 20191 39816 40154 83100 333 20196 59001;EQDQ01  00002PRCP06
0208825830999992004080400004-05167-040667FM-12+029999999V0200901N002112200019N0040001N1+02571+01461101291ADDAA106000091GA1001+999999999GF100991001001999999001001KA1240M+03411MA1999999097931MD1999999-0081REMSYN082AAXX  04004 82583 32996 00904 10257 20146 39793 40129 333 10341 29046 55107 59008;EQDQ01  00002PRCP06
0186825830999992004080412004-05167-040667FM-12+029999999V0201401N005112200019N0500001N1+02741+01641101521ADDAA106000091GF101991011011008001001001KA1240N+02071MA1999999098141MD1999999-0021REMSYN076AAXX  04124 82583 32599 11410 10274 20164 39814 40152 81100 333 20207 59002;EQDQ01  00002PRCP06
0208825830999992004080500004-05167-040667FM-12+029999999V0200901N001512200019N0040001N1+02531+01331101341ADDAA106000091GA1001+999999999GF100991001001999999001001KA1240M+03361MA1999999097961MD1999999+0031REMSYN082AAXX  05004 82583 32696 00903 10253 20133 39796 40134 333 10336 29041 55106 58003;EQDQ01  00002PRCP06
0186825830999992004080512004-05167-040667FM-12+029999999V0201401N003612200019N0500001N1+02721+01521101511ADDAA106000091GF101991011011008001001001KA1240N+01871MA1999999098131MD1999999-0011REMSYN076AAXX  05124 82583 32599 11407 10272 20152 39813 40151 81100 333 20187 59001;EQDQ01  00002PRCP06
0198825830999992004080600004-05167-040667FM-12+029999999V0201401N003112200019N0040001N1+02731+01611101331ADDAA106000091GF102991021011008001001001KA1240M+03351MA1999999097961MD1999999+0001REMSYN088AAXX  06004 82583 32596 21406 10273 20161 39796 40133 82100 333 10335 29044 55101 58000;EQDQ01  00002PRCP06
0186825830999992004080612004-05167-040667FM-12+029999999V0201401N006212200019N0500001N1+02901+01751101421ADDAA106000091GF101991011011008001001001KA1240N+02231MA1999999098061MD1999999-0071REMSYN076AAXX  06124 82583 32599 11412 10290 20175 39806 40142 81100 333 20223 59007;EQDQ01  00002PRCP06
0198825830999992004080700004-05167-040667FM-12+029999999V0201401N002112200019N0040001N1+02651+01621101401ADDAA106000091GF102991021011008001001001KA1240M+03331MA1999999098041MD1999999+0081REMSYN088AAXX  07004 82583 32596 21404 10265 20162 39804 40140 82100 333 10333 29048 55069 58008;EQDQ01  00002PRCP06
0190825830999992004080712004-05167-040667FM-12+029999999V0200501N004610075019N0500001N1+02591+02121101731ADDAY161061AY261061GF107991071051008001001001KA1240N+02101MA1999999098341MD1999999+0281MW1021REMSYN088AAXX  07124 82583 21599 70509 10259 20212 39834 40173 70266 87500 333 20210 58028 69964;
0198825830999992004080900004-05167-040667FM-12+029999999V0200901N001012200019N0040001N1+02621+01591101411ADDAA106000091GF101991011011008001001001KA1240M+03381MA1999999098031MD1999999-0161REMSYN088AAXX  09004 82583 32596 10902 10262 20159 39803 40141 81100 333 10338 29051 55065 59016;EQDQ01  00002PRCP06
0186825830999992004080912004-05170-040670FM-12+029999999V0201401N003610075019N0500001N1+02831+02071101541ADDAA106000091GF106991061021008001001001KA1240N+02131MA1999999098181MD1999999-0101REMSYN076AAXX  09124 82583 32599 61407 10283 20207 39818 40154 86200 333 20213 59010;EQDQ01  00002PRCP06
0212825830999992004081000004-05170-040670FM-12+029999999V0200901N001512200019N0040001N1+02591+02121101401ADDAY161061AY261061GA1001+999999999GF100991001001999999001001KA1240M+03451MA1999999098031MD1999999+0001MW1021REMSYN094AAXX  10004 82583 21596 00903 10259 20212 39803 40140 70266 333 10345 29061 55079 58000 60051;
0162825830999992004081012004-05170-040670FM-12+029999999V0201401N005712200019N0500001N1+02811+01801101591ADDGF102991021011008001001001KA1240N+02181MA1999999098211MD1999999-0031REMSYN082AAXX  10124 82583 22599 21411 10281 20180 39821 40159 82100 333 20218 59003 60054;
0208825830999992004081100004-05170-040670FM-12+029999999V0201401N001512200019N0040001N1+02691+01661101431ADDAA106000091GA1001+999999999GF100991001001999999001001KA1240M+03471MA1999999098071MD1999999-0221REMSYN082AAXX  11004 82583 32996 01403 10269 20166 39807 40143 333 10347 29046 55096 59022;EQDQ01  00002PRCP06
0186825830999992004081112004-05167-040667FM-12+029999999V0201401N005112200019N0500001N1+02611+01731101701ADDAA106000091GF103991031011008001001001KA1240N+02221MA1999999098321MD1999999+0111REMSYN076AAXX  11124 82583 32599 31410 10261 20173 39832 40170 83100 333 20222 58011;EQDQ01  00002PRCP06
0208825830999992004081200004-05170-040670FM-12+029999999V0201801N002112200019N0040001N1+02621+01561101521ADDAA106000091GA1001+999999999GF100991001001999999001001KA1240M+03271MA1999999098141MD1999999+0071REMSYN082AAXX  12004 82583 32996 01804 10262 20156 39814 40152 333 10327 29049 55102 58007;EQDQ01  00002PRCP06
0186825830999992004081212004-05170-040670FM-12+029999999V0201401N004612200019N0500001N1+02691+01601101671ADDAA106000091GF101991011011008001001001KA1240N+02151MA1999999098291MD1999999-0031REMSYN076AAXX  12124 82583 32599 11409 10269 20160 39829 40167 81100 333 20215 59003;EQDQ01  00002PRCP06
0198825830999992004081300004-05170-040670FM-12+029999999V0200901N001512200019N0040001N1+02781+01611101491ADDAA106000091GF101991011011008001001001KA1240M+03491MA1999999098121MD1999999-0021REMSYN088AAXX  13004 82583 32596 10903 10278 20161 39812 40149 81100 333 10349 29044 55083 59002;EQDQ01  00002PRCP06
0186825830999992004081312004-05170-040670FM-12+029999999V0201401N004612200019N0500001N1+02721+01521101641ADDAA106000091GF101991011011008001001001KA1240N+02301MA1999999098261MD1999999-0031REMSYN076AAXX  13124 82583 32599 11409 10272 20152 39826 40164 81100 333 20230 59003;EQDQ01  00002PRCP06
0208825830999992004081400004-05170-040670FM-12+029999999V0200901N002112200019N0040001N1+02821+01581101371ADDAA106000091GA1001+999999999GF100991001001999999001001KA1240M+03501MA1999999098011MD1999999-0111REMSYN082AAXX  14004 82583 32996 00904 10282 20158 39801 40137 333 10350 29043 55106 59011;EQDQ01  00002PRCP06
0196825830999992004081412004-05170-040670FM-12+029999999V0201401N005112200019N0500001N1+02631+01281101661ADDAA106000091GA1001+999999999GF100991001001999999001001KA1240N+02191MA1999999098281MD1999999+0021REMSYN070AAXX  14124 82583 32999 01410 10263 20128 39828 40166 333 20219 58002;EQDQ01  00002PRCP06
0198825830999992004081500004-05170-040670FM-12+029999999V0200901N002112200019N0040001N1+02801+01501101391ADDAA106000091GF101991011011008001001001KA1240M+03391MA1999999098021MD1999999+0011REMSYN088AAXX  15004 82583 32596 10904 10280 20150 39802 40139 81100 333 10339 29041 55108 58001;EQDQ01  00002PRCP06
0186825830999992004081512004-05170-040670FM-12+029999999V0201401N004612200019N0500001N1+02781+01611101661ADDAA106000091GF101991011011008001001001KA1240N+02141MA1999999098291MD1999999+0011REMSYN076AAXX  15124 82583 32599 11409 10278 20161 39829 40166 81100 333 20214 58001;EQDQ01  00002PRCP06
0198825830999992004081600004-05170-040670FM-12+029999999V0200901N003112200019N0040001N1+02861+01681101441ADDAA106000091GF101991011011008001001001KA1240M+03421MA1999999098081MD1999999+0061REMSYN088AAXX  16004 82583 32596 10906 10286 20168 39808 40144 81100 333 10342 29045 55082 58006;EQDQ01  00002PRCP06
0186825830999992004081612004-05170-040670FM-12+029999999V0201401N006210075019N0500001N1+02731+01671101581ADDAA106000091GF106991061021008001001001KA1240N+02171MA1999999098221MD1999999-0071REMSYN076AAXX  16124 82583 32599 61412 10273 20167 39822 40158 86200 333 20217 59007;EQDQ01  00002PRCP06
0208825830999992004081700004-05170-040670FM-12+029999999V0201401N002112200019N0040001N1+02731+01671101351ADDAA106000091GA1001+999999999GF100991001001999999001001KA1240M+03401MA1999999097991MD1999999-0081REMSYN082AAXX  17004 82583 32996 01404 10273 20167 39799 40135 333 10340 29048 55106 59008;EQDQ01  00002PRCP06
0186825830999992004081712004-05170-040670FM-12+029999999V0201401N008212200019N0500001N1+02751+01721101491ADDAA106000091GF102991021011008001001001KA1240N+02131MA1999999098131MD1999999-0091REMSYN076AAXX  17124 82583 32599 21416 10275 20172 39813 40149 82100 333 20213 59009;EQDQ01  00002PRCP06
0208825830999992004081800004-05170-040670FM-12+029999999V0201401N002112200019N0040001N1+02651+01301101271ADDAA106000091GA1001+999999999GF100991001001999999001001KA1240M+03421MA1999999097911MD1999999-0081REMSYN082AAXX  18004 82583 32996 01404 10265 20130 39791 40127 333 10342 29041 55101 59008;EQDQ01  00002PRCP06
0186825830999992004081812004-05170-040670FM-12+029999999V0200901N006212200019N0500001N1+02821+01891101471ADDAA106000091GF102991021011008001001001KA1240N+02181MA1999999098111MD1999999-0021REMSYN076AAXX  18124 82583 32599 20912 10282 20189 39811 40147 82100 333 20218 59002;EQDQ01  00002PRCP06
0198825830999992004081900004-05170-040670FM-12+029999999V0200901N001012200019N0040001N1+02751+01491101411ADDAA106000091GF101991011011008001001001KA1240M+03471MA1999999098051MD1999999+0141REMSYN088AAXX  19004 82583 32596 10902 10275 20149 39805 40141 81100 333 10347 29045 55104 58014;EQDQ01  00002PRCP06
0186825830999992004081912004-05170-040670FM-12+029999999V0201401N003612200019N0500001N1+02811+01891101611ADDAA106000091GF103991021011008001001011KA1240N+02231MA1999999098251MD1999999+0141REMSYN076AAXX  19124 82583 32599 31407 10281 20189 39825 40161 82101 333 20223 58014;EQDQ01  00002PRCP06
0208825830999992004082000004-05170-040670FM-12+029999999V0200901N002612200019N0040001N1+02801+01531101411ADDAA106000091GA1001+999999999GF100991001001999999001001KA1240M+03521MA1999999098051MD1999999+0001REMSYN082AAXX  20004 82583 32996 00905 10280 20153 39805 40141 333 10352 29045 55106 58000;EQDQ01  00002PRCP06
0186825830999992004082012004-05170-040670FM-12+029999999V0201401N005712200019N0500001N1+02841+01911101501ADDAA106000091GF102991021011008001001001KA1240N+02291MA1999999098141MD1999999-0111REMSYN076AAXX  20124 82583 32599 21411 10284 20191 39814 40150 82100 333 20229 59011;EQDQ01  00002PRCP06
0208825830999992004082100004-05170-040670FM-12+029999999V0200901N003112200019N0040001N1+02821+00951101301ADDAA106000091GA1001+999999999GF100991001001999999001001KA1240M+03521MA1999999097931MD1999999+0121REMSYN082AAXX  21004 82583 32996 00906 10282 20095 39793 40130 333 10352 29038 55107 58012;EQDQ01  00002PRCP06
0196825830999992004082112004-05170-040670FM-12+029999999V0201401N005712200019N0500001N1+02891+01521101431ADDAA106000091GA1001+999999999GF100991001001999999001001KA1240N+02231MA1999999098071MD1999999-0071REMSYN070AAXX  21124 82583 32999 01411 10289 20152 39807 40143 333 20223 59007;EQDQ01  00002PRCP06
0208825830999992004082200004-05170-040670FM-12+029999999V0200901N003112200019N0040001N1+02781+00961101211ADDAA106000091GA1001+999999999GF100991001001999999001001KA1240M+03561MA1999999097871MD1999999-0061REMSYN082AAXX  22004 82583 32996 00906 10278 20096 39787 40121 333 10356 29033 55107 59006;EQDQ01  00002PRCP06
0186825830999992004082212004-05170-040670FM-12+029999999V0201401N004112200019N0500001N1+02921+01601101431ADDAA106000091GF101991011011008001001001KA1240N+02111MA1999999098071MD1999999+0001REMSYN076AAXX  22124 82583 32599 11408 10292 20160 39807 40143 81100 333 20211 58000;EQDQ01  00002PRCP06
0186825830999992004082312004-05170-040670FM-12+029999999V0200901N003610075019N0500001N1+02641+01951101541ADDAA106000091GF106991061021008001001001KA1240N+02201MA1999999098171MD1999999+0101REMSYN076AAXX  23124 82583 32599 60907 10264 20195 39817 40154 86200 333 20220 58010;EQDQ01  00002PRCP06
0208825830999992004082400004-05170-040670FM-12+029999999V0200501N001512200019N0040001N1+02801+01071101301ADDAA106000091GA1001+999999999GF100991001001999999001001KA1240M+03591MA1999999097941MD1999999+0071REMSYN082AAXX  24004 82583 32996 00503 10280 20107 39794 40130 333 10359 29030 55087 58007;EQDQ01  00002PRCP06
0186825830999992004082412004-05170-040670FM-12+029999999V0200901N002610075019N0500001N1+02741+01841101471ADDAA106000091GF105991051021008001001001KA1240N+02131MA1999999098111MD1999999-0061REMSYN076AAXX  24124 82583 32599 50905 10274 20184 39811 40147 85200 333 20213 59006;EQDQ01  00002PRCP06
0198825830999992004082500004-05170-040670FM-12+029999999V0200501N003112200019N0040001N1+02961+01641101091ADDAA106000091GF102991021011008001001001KA1240M+03591MA1999999097751MD1999999-0191REMSYN088AAXX  25004 82583 32596 20506 10296 20164 39775 40109 82100 333 10359 29032 55089 59019;EQDQ01  00002PRCP06
0186825830999992004082512004-05170-040670FM-12+029999999V0200601N004110075019N0500001N1+02811+01911101341ADDAA106000091GF106991061021008001001001KA1240N+02321MA1999999097991MD1999999-0121REMSYN076AAXX  25124 82583 32599 60608 10281 20191 39799 40134 86200 333 20232 59012;EQDQ01  00002PRCP06
0198825830999992004082600004-05167-040667FM-12+029999999V0200501N001512200019N0040001N1+02921+01861101101ADDAA106000091GF101991011011008001001001KA1240M+03541MA1999999097761MD1999999+0011REMSYN088AAXX  26004 82583 32596 10503 10292 20186 39776 40110 81100 333 10354 29048 55103 58001;EQDQ01  00002PRCP06
0186825830999992004082612004-05167-040667FM-12+029999999V0200901N005110075019N0500001N1+02801+01871101271ADDAA106000091GF105991051021008001001001KA1240N+02221MA1999999097931MD1999999-0061REMSYN076AAXX  26124 82583 32599 50910 10280 20187 39793 40127 85200 333 20222 59006;EQDQ01  00002PRCP06
0208825830999992004082700004-05167-040667FM-12+029999999V0200501N001012200019N0040001N1+02901+01591101021ADDAA106000091GA1001+999999999GF100991001001999999001001KA1240M+03501MA1999999097681MD1999999-0081REMSYN082AAXX  27004 82583 32996 00502 10290 20159 39768 40102 333 10350 29044 55103 59008;EQDQ01  00002PRCP06
0186825830999992004082712004-05167-040667FM-12+029999999V0200901N003610075019N0500001N1+02641+01931101331ADDAA106000091GF108991081051008001999999KA1240N+02371MA1999999097971MD1999999+0041REMSYN076AAXX  27124 82583 32599 80907 10264 20193 39797 40133 885// 333 20237 58004;EQDQ01  00002PRCP06
0208825830999992004082800004-05167-040667FM-12+029999999V0200901N002612200019N0040001N1+02831+01391101121ADDAA106000091GA1001+999999999GF100991001001999999001001KA1240M+03451MA1999999097761MD1999999+0081REMSYN082AAXX  28004 82583 32996 00905 10283 20139 39776 40112 333 10345 29045 55077 58008;EQDQ01  00002PRCP06
0186825830999992004082812004-05167-040667FM-12+029999999V0200901N004112200019N0500001N1+02851+01721101451ADDAA106000091GF101991011011008001001001KA1240N+02261MA1999999098091MD1999999+0121REMSYN076AAXX  28124 82583 32599 10908 10285 20172 39809 40145 81100 333 20226 58012;EQDQ01  00002PRCP06
0208825830999992004082900004-05170-040670FM-12+029999999V0200901N002112200019N0040001N1+02951+01611101021ADDAA106000091GA1001+999999999GF100991001001999999001001KA1240M+03611MA1999999097681MD1999999+0081REMSYN082AAXX  29004 82583 32996 00904 10295 20161 39768 40102 333 10361 29040 55102 58008;EQDQ01  00002PRCP06
0186825830999992004082912004-05170-040670FM-12+029999999V0200501N002112200019N0500001N1+02741+01781101361ADDAA106000091GF101991011011008001001001KA1240N+02211MA1999999097991MD1999999-0101REMSYN076AAXX  29124 82583 32599 10504 10274 20178 39799 40136 81100 333 20221 59010;EQDQ01  00002PRCP06
0198825830999992004083000004-05170-040670FM-12+029999999V0200501N002610075019N0040001N1+03021+01591101081ADDAA106000091GF105991051041008001001001KA1240M+03591MA1999999097741MD1999999+0061REMSYN088AAXX  30004 82583 32596 50505 10302 20159 39774 40108 85400 333 10359 29042 55105 58006;EQDQ01  00002PRCP06
0186825830999992004083012004-05167-040667FM-12+029999999V0200501N002610075019N0500001N1+02661+02021101361ADDAA106000091GF106991061011008001001001KA1240N+02231MA1999999098001MD1999999+0011REMSYN076AAXX  30124 82583 32599 60505 10266 20202 39800 40136 86100 333 20223 58001;EQDQ01  00002PRCP06
0208825830999992004083100004-05167-040667FM-12+029999999V0200901N003112200019N0040001N1+03001+01711101061ADDAA106000091GA1001+999999999GF100991001001999999001001KA1240M+03651MA1999999097721MD1999999-0021REMSYN082AAXX  31004 82583 32996 00906 10300 20171 39772 40106 333 10365 29046 55088 59002;EQDQ01  00002PRCP06
0190825830999992004083112004-05167-040667FM-12+029999999V0200901N003110075019N0500001N1+02851+01981101441ADDAY161061AY261061GF106991061021008001001001KA1240N+02121MA1999999098091MD1999999+0091MW1011REMSYN088AAXX  31124 82583 21599 60906 10285 20198 39809 40144 70166 86200 333 20212 58009 69934;
0198825830999992004090100004-05167-040667FM-12+029999999V0200901N002612200019N0040001N1+02981+01621101161ADDAA106000091GF101991011011008001001001KA1240M+03651MA1999999097821MD1999999+0101REMSYN088AAXX  01004 82583 32596 10905 10298 20162 39782 40116 81100 333 10365 29042 55084 58010;EQDQ01  00002PRCP06
0186825830999992004090112004-05167-040667FM-12+029999999V0200901N004612200019N0500001N1+02771+01821101511ADDAA106000091GF103991021011008001001011KA1240N+02181MA1999999098161MD1999999+0071REMSYN076AAXX  01124 82583 32599 30909 10277 20182 39816 40151 82101 333 20218 58007;EQDQ01  00002PRCP06
0186825830999992004090212004-05167-040667FM-12+029999999V0201401N007212200019N0500001N1+02831+01791101481ADDAA106000091GF104991041021008001001001KA1240N+02241MA1999999098121MD1999999-0041REMSYN076AAXX  02124 82583 32599 41414 10283 20179 39812 40148 84200 333 20224 59004;EQDQ01  00002PRCP06
0198825830999992004090300004-05167-040667FM-12+029999999V0201401N002110075019N0040001N1+03011+01551101191ADDAA106000091GF106991061051008001001001KA1240M+03481MA1999999097851MD1999999-0041REMSYN088AAXX  03004 82583 32596 61404 10301 20155 39785 40119 86500 333 10348 29040 55095 59004;EQDQ01  00002PRCP06
0186825830999992004090312004-05167-040667FM-12+029999999V0201401N006212200019N0500001N1+02781+01851101411ADDAA106000091GF103991031021008001001001KA1240N+02371MA1999999098061MD1999999-0061REMSYN076AAXX  03124 82583 32599 31412 10278 20185 39806 40141 83200 333 20237 59006;EQDQ01  00002PRCP06
0208825830999992004090400004-05167-040667FM-12+029999999V0200901N002112200019N0040001N1+02751+01351101191ADDAA106000091GA1001+999999999GF100991001001999999001001KA1240M+03471MA1999999097831MD1999999-0021REMSYN082AAXX  04004 82583 32996 00904 10275 20135 39783 40119 333 10347 29040 55102 59002;EQDQ01  00002PRCP06
0186825830999992004090412004-05167-040667FM-12+029999999V0200901N004610120019N0500001N1+02671+01891101291ADDAA106000091GF108991081081008001999999KA1240N+02181MA1999999097931MD1999999-0131REMSYN076AAXX  04124 82583 32599 80909 10267 20189 39793 40129 888// 333 20218 59013;EQDQ01  00002PRCP06
0208825830999992004090500004-05167-040667FM-12+029999999V0200901N003112200019N0040001N1+02791+00981101121ADDAA106000091GA1001+999999999GF100991001001999999001001KA1240M+03501MA1999999097761MD1999999-0071REMSYN082AAXX  05004 82583 32996 00906 10279 20098 39776 40112 333 10350 29037 55083 59007;EQDQ01  00002PRCP06
0186825830999992004090512004-05167-040667FM-12+029999999V0200901N005110075019N0500001N1+02831+01851101181ADDAA106000091GF106991061021008001001001KA1240N+02111MA1999999097831MD1999999-0101REMSYN076AAXX  05124 82583 32599 60910 10283 20185 39783 40118 86200 333 20211 59010;EQDQ01  00002PRCP06
0208825830999992004090600004-05167-040667FM-12+029999999V0200901N001512200019N0040001N1+02841+01461100981ADDAA106000091GA1001+999999999GF100991001001999999001001KA1240M+03481MA1999999097641MD1999999-0121REMSYN082AAXX  06004 82583 32996 00903 10284 20146 39764 40098 333 10348 29032 55099 59012;EQDQ01  00002PRCP06
0186825830999992004090612004-05167-040667FM-12+029999999V0200901N004610075019N0500001N1+02731+01811101141ADDAA106000091GF106991061021008001001001KA1240N+02341MA1999999097791MD1999999-0041REMSYN076AAXX  06124 82583 32599 60909 10273 20181 39779 40114 86200 333 20234 59004;EQDQ01  00002PRCP06
0208825830999992004090700004-05167-040667FM-12+029999999V0200901N003612200019N0040001N1+03031+01451100811ADDAA106000091GA1001+999999999GF100991001001999999001001KA1240M+03501MA1999999097471MD1999999-0171REMSYN082AAXX  07004 82583 32996 00907 10303 20145 39747 40081 333 10350 29039 55098 59017;EQDQ01  00002PRCP06
0186825830999992004090712004-05167-040667FM-12+029999999V0201401N005112200019N0500001N1+02801+01691101081ADDAA106000091GF102991011011008001001011KA1240N+02311MA1999999097741MD1999999-0051REMSYN076AAXX  07124 82583 32599 21410 10280 20169 39774 40108 81101 333 20231 59005;EQDQ01  00002PRCP06
0186825830999992004090812004-05167-040667FM-12+029999999V0200901N005712200019N0500001N1+02891+01651101051ADDAA106000091GF101991001001999999001011KA1240N+02131MA1999999097711MD1999999-0031REMSYN076AAXX  08124 82583 32999 10911 10289 20165 39771 40105 80001 333 20213 59003;EQDQ01  00002PRCP06
0208825830999992004090900004-05167-040667FM-12+029999999V0200901N003112200019N0040001N1+02911+01301100871ADDAA106000091GA1001+999999999GF100991001001999999001001KA1240M+03551MA1999999097541MD1999999+0071REMSYN082AAXX  09004 82583 32996 00906 10291 20130 39754 40087 333 10355 29036 55106 58007;EQDQ01  00002PRCP06
0186825830999992004090912004-05167-040667FM-12+029999999V0200901N005710075019N0500001N1+02811+01831101101ADDAA106000091GF105991051021008001001001KA1240N+02291MA1999999097761MD1999999+0051REMSYN076AAXX  09124 82583 32599 50911 10281 20183 39776 40110 85200 333 20229 58005;EQDQ01  00002PRCP06
0186825830999992004091012004-05167-040667FM-12+029999999V0200901N006712200019N0500001N1+02861+01781101231ADDAA106000091GF104991041011008001001001KA1240N+02261MA1999999097891MD1999999+0131REMSYN076AAXX  10124 82583 32599 40913 10286 20178 39789 40123 84100 333 20226 58013;EQDQ01  00002PRCP06
0198825830999992004091100004-05167-040667FM-12+029999999V0200901N002612200019N0040001N1+02911+01521100921ADDAA106000091GF101991011011008001001001KA1240M+03521MA1999999097621MD1999999-0031REMSYN088AAXX  11004 82583 32596 10905 10291 20152 39762 40092 81100 333 10352 29043 55102 59003;EQDQ01  00002PRCP06
0186825830999992004091112004-05167-040667FM-12+029999999V0200901N005110075019N0500001N1+02741+01871101251ADDAA106000091GF107991071021008001001001KA1240N+02401MA1999999097901MD1999999+0011REMSYN076AAXX  11124 82583 32599 70910 10274 20187 39790 40125 87200 333 20240 58001;EQDQ01  00002PRCP06
0208825830999992004091200004-05167-040667FM-12+029999999V0200501N002112200019N0040001N1+02941+01441101081ADDAA106000091GA1001+999999999GF100991001001999999001001KA1240M+03581MA1999999097741MD1999999-0121REMSYN082AAXX  12004 82583 32996 00504 10294 20144 39774 40108 333 10358 29042 55078 59012;EQDQ01  00002PRCP06
0186825830999992004091212004-05170-040670FM-12+029999999V0200901N003610075019N0500001N1+02751+01971101511ADDAA106000091GF106991061021008001001001KA1240N+02401MA1999999098151MD1999999+0251REMSYN076AAXX  12124 82583 32599 60907 10275 20197 39815 40151 86200 333 20240 58025;EQDQ01  00002PRCP06
0214825830999992004091300004-05167-040667FM-12+029999999V0200901N002112200019N0040001N1+02971+01591101201ADDAA106000091GF102991999021008001001001KA1240M+03561MA1999999097861MD1999999+0121REMSYN088AAXX  13004 82583 32596 20904 10297 20159 39786 40120 83200 333 10356 29044 55085 58012;EQDQ01+000032SCOTLCQ02  00002PRCP06
0186825830999992004091312004-05167-040667FM-12+029999999V0200901N004610120019N0500001N1+02681+01921101571ADDAA106000091GF107991071081008001001001KA1240N+02271MA1999999098211MD1999999+0061REMSYN076AAXX  13124 82583 32599 70909 10268 20192 39821 40157 87800 333 20227 58006;EQDQ01  00002PRCP06
0208825830999992004091400004-05167-040667FM-12+029999999V0200901N002112200019N0040001N1+02911+01531101221ADDAA106000091GA1001+999999999GF100991001001999999001001KA1240M+03561MA1999999097871MD1999999+0011REMSYN082AAXX  14004 82583 32996 00904 10291 20153 39787 40122 333 10356 29044 55073 58001;EQDQ01  00002PRCP06
0186825830999992004091412004-05167-040667FM-12+029999999V0200901N005112200019N0500001N1+02911+01771101531ADDAA106000091GF102991021011008001001001KA1240N+02381MA1999999098181MD1999999-0031REMSYN076AAXX  14124 82583 32599 20910 10291 20177 39818 40153 82100 333 20238 59003;EQDQ01  00002PRCP06
0198825830999992004091500004-05167-040667FM-12+029999999V0200901N002612200019N0040001N1+02921+01341101231ADDAA106000091GF101991011011008001001001KA1240M+03601MA1999999097891MD1999999+0021REMSYN088AAXX  15004 82583 32596 10905 10292 20134 39789 40123 81100 333 10360 29038 55102 58002;EQDQ01  00002PRCP06
0186825830999992004091512004-05167-040667FM-12+029999999V0200901N004610075019N0500001N1+02761+01891101551ADDAA106000091GF106991061021008001001001KA1240N+02371MA1999999098191MD1999999+0011REMSYN076AAXX  15124 82583 32599 60909 10276 20189 39819 40155 86200 333 20237 58001;EQDQ01  00002PRCP06
0208825830999992004091600004-05167-040667FM-12+029999999V0200901N002112200019N0040001N1+02921+01341101141ADDAA106000091GA1001+999999999GF100991001001999999001001KA1240M+03521MA1999999097801MD1999999-0091REMSYN082AAXX  16004 82583 32996 00904 10292 20134 39780 40114 333 10352 29040 55107 59009;EQDQ01  00002PRCP06
0186825830999992004091612004-05167-040667FM-12+029999999V0200901N004112200019N0500001N1+02831+01851101311ADDAA106000091GF103991031011008001001001KA1240N+02221MA1999999097961MD1999999-0231REMSYN076AAXX  16124 82583 32599 30908 10283 20185 39796 40131 83100 333 20222 59023;EQDQ01  00002PRCP06
0208825830999992004091700004-05167-040667FM-12+029999999V0200501N001512200019N0040001N1+02951+01461101081ADDAA106000091GA1001+999999999GF100991001001999999001001KA1240M+03611MA1999999097741MD1999999-0061REMSYN082AAXX  17004 82583 32996 00503 10295 20146 39774 40108 333 10361 29041 55105 59006;EQDQ01  00002PRCP06
0186825830999992004091712004-05167-040667FM-12+029999999V0200901N004610075019N0500001N1+02781+01911101451ADDAA106000091GF106991061021008001001001KA1240N+02291MA1999999098091MD1999999+0131REMSYN076AAXX  17124 82583 32599 60909 10278 20191 39809 40145 86200 333 20229 58013;EQDQ01  00002PRCP06
0198825830999992004091800004-05167-040667FM-12+029999999V0200901N002612200019N0040001N1+02991+01411101051ADDAA106000091GF101991011011008001001001KA1240M+03611MA1999999097711MD1999999-0031REMSYN088AAXX  18004 82583 32596 10905 10299 20141 39771 40105 81100 333 10361 29040 55094 59003;EQDQ01  00002PRCP06
0208825830999992004091900004-05170-040670FM-12+029999999V0201401N002112200019N0040001N1+02861+01291101091ADDAA106000091GA1001+999999999GF100991001001999999001001KA1240M+03651MA1999999097751MD1999999+0041REMSYN082AAXX  19004 82583 32996 01404 10286 20129 39775 40109 333 10365 29039 55095 58004;EQDQ01  00002PRCP06
0186825830999992004091912004-05170-040670FM-12+029999999V0200901N007712200019N0500001N1+02951+01781101321ADDAA106000091GF102991021011008001001001KA1240N+02301MA1999999097971MD1999999-0031REMSYN076AAXX  19124 82583 32599 20915 10295 20178 39797 40132 82100 333 20230 59003;EQDQ01  00002PRCP06
0208825830999992004092000004-05170-040670FM-12+029999999V0201401N002112200019N0040001N1+02861+01521101021ADDAA106000091GA1001+999999999GF100991001001999999001001KA1240M+03551MA1999999097681MD1999999-0071REMSYN082AAXX  20004 82583 32596 01404 10286 20152 39768 40102 333 10355 29042 55101 59007;EQDQ01  00002PRCP06
0186825830999992004092012004-05167-040667FM-12+029999999V0200901N003612200019N0500001N1+02901+01871101221ADDAA106000091GF102991011011008001001011KA1240N+02341MA1999999097881MD1999999-0091REMSYN076AAXX  20124 82583 32599 20907 10290 20187 39788 40122 81101 333 20234 59009;EQDQ01  00002PRCP06
0208825830999992004092100004-05167-040667FM-12+029999999V0200901N002612200019N0040001N1+03031+01411100961ADDAA106000091GA1001+999999999GF100991001001999999001001KA1240M+03651MA1999999097641MD1999999-0041REMSYN082AAXX  21004 82583 32996 00905 10303 20141 39764 40096 333 10365 29039 55102 59004;EQDQ01  00002PRCP06
0186825830999992004092112004-05167-040667FM-12+029999999V0200901N005110120019N0500001N1+02731+01871101531ADDAA106000091GF107991071081008001001001KA1240N+02381MA1999999098001MD1999999+0121REMSYN076AAXX  21124 82583 32599 70910 10273 20187 39800 40153 87800 333 20238 58012;EQDQ01  00002PRCP06
0186825830999992004092212004-05167-040667FM-12+029999999V0200901N007212200019N0500001N1+03001+01971101461ADDAA106000091GF104991041021008001001001KA1240N+02481MA1999999098211MD1999999+0121REMSYN076AAXX  22124 82583 32599 40914 10300 20197 39821 40146 84200 333 20248 58012;EQDQ01  00002PRCP06
0198825830999992004092300004-05167-040667FM-12+029999999V0203601N003112200019N0040001N1+02751+02021101271ADDAA106000091GF102991021011008001001001KA1240M+03541MA1999999097931MD1999999+0101REMSYN088AAXX  23004 82583 32596 23606 10275 20202 39793 40127 82100 333 10354 29054 55081 58010;EQDQ01  00002PRCP06
0186825830999992004092312004-05167-040667FM-12+029999999V0200901N005110075019N0500001N1+02821+01831101541ADDAA106000091GF107991071021008001001001KA1240N+02371MA1999999098181MD1999999+0061REMSYN076AAXX  23124 82583 32599 70910 10282 20183 39818 40154 87200 333 20237 58006;EQDQ01  00002PRCP06
0208825830999992004092400004-05167-040667FM-12+029999999V0201401N002112200019N0040001N1+02871+01641101171ADDAA106000091GA1001+999999999GF100991001001999999001001KA1240M+03481MA1999999097831MD1999999+0101REMSYN082AAXX  24004 82583 32996 01404 10287 20164 39783 40117 333 10348 29046 55083 58010;EQDQ01  00002PRCP06
0186825830999992004092412004-05167-040667FM-12+029999999V0200901N004610075019N0500001N1+02761+01911101401ADDAA106000091GF108991081051008001999999KA1240N+02301MA1999999098041MD1999999-0141REMSYN076AAXX  24124 82583 32599 80909 10276 20191 39804 40140 885// 333 20230 59014;EQDQ01  00002PRCP06
0198825830999992004092500004-05167-040667FM-12+029999999V0200901N001012200019N0040001N1+02921+01601101081ADDAA106000091GF101991011011008001001001KA1240M+03581MA1999999097741MD1999999+0091REMSYN088AAXX  25004 82583 32596 10902 10292 20160 39774 40108 81100 333 10358 29045 55076 58009;EQDQ01  00002PRCP06
0186825830999992004092512004-05167-040667FM-12+029999999V0200901N004610075019N0500001N1+02651+01901101401ADDAA106000091GF108991081051008001999999KA1240N+02411MA1999999098041MD1999999+0001REMSYN076AAXX  25124 82583 32599 80909 10265 20190 39804 40140 885// 333 20241 58000;EQDQ01  00002PRCP06
0186825830999992004092612004-05170-040670FM-12+029999999V0200901N004110075019N0500001N1+02851+01811101421ADDAA106000091GF106991061021008001001001KA1240N+02401MA1999999098071MD1999999+0031REMSYN076AAXX  26124 82583 32599 60908 10285 20181 39807 40142 86200 333 20240 58003;EQDQ01  00002PRCP06
0198825830999992004092700004-05170-040670FM-12+029999999V0200901N002112200019N0040001N1+02891+01441101151ADDAA106000091GF101991011011008001001001KA1240M+03511MA1999999097811MD1999999+0111REMSYN088AAXX  27004 82583 32596 10904 10289 20144 39781 40115 81100 333 10351 29042 55080 58011;EQDQ01  00002PRCP06
0186825830999992004092712004-05170-040670FM-12+029999999V0200901N004112200019N0500001N1+02941+01941101301ADDAA106000091GF104991041011008001001001KA1240N+02311MA1999999097951MD1999999-0121REMSYN076AAXX  27124 82583 32599 40908 10294 20194 39795 40130 84100 333 20231 59012;EQDQ01  00002PRCP06
0198825830999992004092800004-05167-040667FM-12+029999999V0200901N003112200019N0040001N1+03031+01491101091ADDAA106000091GF102991021011008001001001KA1240M+03691MA1999999097761MD1999999-0051REMSYN088AAXX  28004 82583 32596 20906 10303 20149 39776 40109 82100 333 10369 29039 55096 59005;EQDQ01  00002PRCP06
0186825830999992004092812004-05167-040667FM-12+029999999V0200901N005712200019N0500001N1+02991+01841101191ADDAA106000091GF102991011011008001031001KA1240N+02341MA1999999097851MD1999999-0101REMSYN076AAXX  28124 82583 32599 20911 10299 20184 39785 40119 81130 333 20234 59010;EQDQ01  00002PRCP06
0208825830999992004092900004-05167-040667FM-12+029999999V0200901N003112200019N0040001N1+03071+01021100841ADDAA106000091GA1001+999999999GF100991001001999999001001KA1240M+03731MA1999999097521MD1999999-0241REMSYN082AAXX  29004 82583 32996 00906 10307 20102 39752 40084 333 10373 29032 55107 59024;EQDQ01  00002PRCP06
0186825830999992004092912004-05167-040667FM-12+029999999V0200901N004610075019N0500001N1+02801+01841101211ADDAA106000091GF106991061021008001001001KA1240N+02441MA1999999097871MD1999999+0021REMSYN076AAXX  29124 82583 32599 60909 10280 20184 39787 40121 86200 333 20244 58002;EQDQ01  00002PRCP06
0198825830999992004093000004-05167-040667FM-12+029999999V0200901N002612200019N0040001N1+03051+01381100801ADDAA106000091GF101991011011008001001001KA1240M+03661MA1999999097471MD1999999-0051REMSYN088AAXX  30004 82583 32596 10905 10305 20138 39747 40080 81100 333 10366 29039 55101 59005;EQDQ01  00002PRCP06
0186825830999992004093012004-05167-040667FM-12+029999999V0200501N003612200019N0500001N1+02921+01801101091ADDAA106000091GF102991011011008001001011KA1240N+02361MA1999999097761MD1999999-0111REMSYN076AAXX  30124 82583 32599 20507 10292 20180 39776 40109 81101 333 20236 59011;EQDQ01  00002PRCP06
0186825830999992004100112004-05167-040667FM-12+029999999V0200901N005110075019N0500001N1+02791+01871101221ADDAA106000091GF106991061021008001001001KA1240N+02391MA1999999097881MD1999999+0121REMSYN076AAXX  01124 82583 32599 60910 10279 20187 39788 40122 86200 333 20239 58012;EQDQ01  00002PRCP06
0208825830999992004100200004-05167-040667FM-12+029999999V0200901N003112200019N0040001N1+03061+01421100891ADDAA106000091GA1001+999999999GF100991001001999999001001KA1240M+03641MA1999999097561MD1999999-0111REMSYN082AAXX  02004 82583 32996 00906 10306 20142 39756 40089 333 10364 29040 55080 59011;EQDQ01  00002PRCP06
0186825830999992004100212004-05167-040667FM-12+029999999V0200901N005712200019N0500001N1+02891+01841101201ADDAA106000091GF102991021011008001001001KA1240N+02391MA1999999097861MD1999999-0021REMSYN076AAXX  02124 82583 32599 20911 10289 20184 39786 40120 82100 333 20239 59002;EQDQ01  00002PRCP06
0208825830999992004100300004-05167-040667FM-12+029999999V0200901N003112200019N0040001N1+02031+01411100801ADDAA106000091GA1001+999999999GF100991001001999999001001KA1240M+03611MA1999999097481MD1999999-0081REMSYN082AAXX  03004 82583 32996 00906 10203 20141 39748 40080 333 10361 29039 55101 59008;EQDQ01  00002PRCP06
0186825830999992004100312004-05167-040667FM-12+029999999V0200901N003610075019N0500001N1+02601+01891101241ADDAA106000091GF108991081051008001999999KA1240N+02461MA1999999097891MD1999999+0031REMSYN076AAXX  03124 82583 32599 80907 10260 20189 39789 40124 885// 333 20246 58003;EQDQ01  00002PRCP06
0214825830999992004100400004-05170-040670FM-12+029999999V0200901N001012200019N0040001N1+02901+01651100871ADDAA106000091GF101991999011008001001001KA1240M+03481MA1999999097531MD1999999+0051REMSYN088AAXX  04004 82583 32596 10902 10290 20165 39753 40087 82100 333 10348 29048 55059 58005;EQDQ01+000022SCOTLCQ02  00002PRCP06
0186825830999992004100412004-05167-040667FM-12+029999999V0200901N004610075019N0500001N1+02701+01881101181ADDAA106000091GF108991081051008001999999KA1240N+02371MA1999999097831MD1999999-0061REMSYN076AAXX  04124 82583 32599 80909 10270 20188 39783 40118 885// 333 20237 59006;EQDQ01  00002PRCP06
0208825830999992004100500004-05167-040667FM-12+029999999V0200501N001012200019N0040001N1+03081+01641100851ADDAA106000091GA1001+999999999GF100991001001999999001001KA1240M+03581MA1999999097521MD1999999-0011REMSYN082AAXX  05004 82583 32996 00502 10308 20164 39752 40085 333 10358 29044 55072 59001;EQDQ01  00002PRCP06
0186825830999992004100512004-05167-040667FM-12+029999999V0200901N004610120019N0500001N1+02591+01961101101ADDAA106000091GF108991081081008001999999KA1240N+02431MA1999999097801MD1999999-0031REMSYN076AAXX  05124 82583 32599 80909 10259 20196 39780 40110 888// 333 20243 59003;EQDQ01  00002PRCP06
0208825830999992004100600004-05167-040667FM-12+029999999V0200901N002612200019N0040001N1+03081+01601100871ADDAA106000091GA1001+999999999GF100991001001999999001001KA1240M+03621MA1999999097531MD1999999+0011REMSYN082AAXX  06004 82583 32996 00905 10308 20160 39753 40087 333 10362 29046 55072 58001;EQDQ01  00002PRCP06
0186825830999992004100612004-05167-040667FM-12+029999999V0200901N006210075019N0500001N1+02691+01881101211ADDAA106000091GF107991071021008001001001KA1240N+02341MA1999999097871MD1999999+0071REMSYN076AAXX  06124 82583 32599 70912 10269 20188 39787 40121 87200 333 20234 58007;EQDQ01  00002PRCP06
0198825830999992004100700004-05167-040667FM-12+029999999V0200501N002112200019N0040001N1+02911+01671101021ADDAA106000091GF101991011011008001001001KA1240M+03491MA1999999097671MD1999999+0141REMSYN088AAXX  07004 82583 32596 10504 10291 20167 39767 40102 81100 333 10349 29048 55084 58014;EQDQ01  00002PRCP06
0208825830999992004100800004-05167-040667FM-12+029999999V0201401N002112200019N0040001N1+02971+01501100931ADDAA106000091GA1001+999999999GF100991001001999999001001KA1240M+03571MA1999999097601MD1999999-0071REMSYN082AAXX  08004 82583 32996 01404 10297 20150 39760 40093 333 10357 29043 55091 59007;EQDQ01  00002PRCP06
0186825830999992004100812004-05167-040667FM-12+029999999V0200901N003110075019N0500001N1+02751+01971101221ADDAA106000091GF106991061021008001001001KA1240N+02451MA1999999097881MD1999999+0021REMSYN076AAXX  08124 82583 32599 60906 10275 20197 39788 40122 86200 333 20245 58002;EQDQ01  00002PRCP06
0208825830999992004100900004-05167-040667FM-12+029999999V0200901N003112200019N0040001N1+03001+01331101001ADDAA106000091GA1001+999999999GF100991001001999999001001KA1240M+03581MA1999999097661MD1999999+0061REMSYN082AAXX  09004 82583 32996 00906 10300 20133 39766 40100 333 10358 29040 55080 58006;EQDQ01  00002PRCP06
0186825830999992004100912004-05167-040667FM-12+029999999V0200901N006710075019N0500001N1+02761+01911101371ADDAA106000091GF106991051021008001001011KA1240N+02401MA1999999098021MD1999999+0141REMSYN076AAXX  09124 82583 32599 60913 10276 20191 39802 40137 85201 333 20240 58014;EQDQ01  00002PRCP06
0208825830999992004101000004-05167-040667FM-12+029999999V0200901N001512200019N0040001N1+02941+01281101041ADDAA106000091GA1001+999999999GF100991001001999999001001KA1240M+03641MA1999999097701MD1999999+0041REMSYN082AAXX  10004 82583 32996 00903 10294 20128 39770 40104 333 10364 29039 55096 58004;EQDQ01  00002PRCP06
0186825830999992004101012004-05167-040667FM-12+029999999V0200901N006212200019N0500001N1+02981+01691101351ADDAA106000091GF102991021011008001001001KA1240N+02421MA1999999098011MD1999999-0011REMSYN076AAXX  10124 82583 32599 20912 10298 20169 39801 40135 82100 333 20242 59001;EQDQ01  00002PRCP06
0198825830999992004101100004-05167-040667FM-12+029999999V0200901N002112200019N0040001N1+02921+01341101041ADDAA106000091GF101991011011008001001001KA1240M+03501MA1999999097711MD1999999+0011REMSYN088AAXX  11004 82583 32596 10904 10292 20134 39771 40104 81100 333 10350 29037 55108 58001;EQDQ01  00002PRCP06
0186825830999992004101112004-05170-040670FM-12+029999999V0200901N007712200019N0500001N1+02931+01721101251ADDAA106000091GF101991011011008001001001KA1240N+02351MA1999999097911MD1999999-0101REMSYN076AAXX  11124 82583 32599 10915 10293 20172 39791 40125 81100 333 20235 59010;EQDQ01  00002PRCP06
0186825830999992004101212004-05167-040667FM-12+029999999V0200901N005112200019N0500001N1+02871+01731101231ADDAA106000091GF101991011011008001001001KA1240N+02381MA1999999097891MD1999999-0021REMSYN076AAXX  12124 82583 32599 10910 10287 20173 39789 40123 81100 333 20238 59002;EQDQ01  00002PRCP06
0208825830999992004101300004-05167-040667FM-12+029999999V0201401N001512200019N0040001N1+02871+00791100831ADDAA106000091GA1001+999999999GF100991001001999999001001KA1240M+03681MA1999999097491MD1999999+0111REMSYN082AAXX  13004 82583 32996 01403 10287 20079 39749 40083 333 10368 29062 55097 58011;EQDQ01  00002PRCP06
0186825830999992004101312004-05167-040667FM-12+029999999V0201401N004612200019N0500001N1+02891+01751101181ADDAA106000091GF101991011011008001001001KA1240N+02171MA1999999097841MD1999999-0051REMSYN076AAXX  13124 82583 32599 11409 10289 20175 39784 40118 81100 333 20217 59005;EQDQ01  00002PRCP06
0208825830999992004101400004-05167-040667FM-12+029999999V0200901N002112200019N0040001N1+03001+01151100871ADDAA106000091GA1001+999999999GF100991001001999999001001KA1240M+03691MA1999999097541MD1999999+0051REMSYN082AAXX  14004 82583 32996 00904 10300 20115 39754 40087 333 10369 29036 55109 58005;EQDQ01  00002PRCP06
0186825830999992004101412004-05167-040667FM-12+029999999V0201401N005710075019N0500001N1+02831+01881101221ADDAA106000091GF106991061051008001001001KA1240N+02321MA1999999097881MD1999999+0041REMSYN076AAXX  14124 82583 32599 61411 10283 20188 39788 40122 86500 333 20232 58004;EQDQ01  00002PRCP06
0198825830999992004101500004-05167-040667FM-12+029999999V0200901N002612200019N0040001N1+03061+01511100841ADDAA106000091GF101991011011008001001001KA1240M+03651MA1999999097511MD1999999-0031REMSYN088AAXX  15004 82583 32596 10905 10306 20151 39751 40084 81100 333 10365 29041 55092 59003;EQDQ01  00002PRCP06
0186825830999992004101512004-05167-040667FM-12+029999999V0200901N005710075019N0500001N1+02841+01821101181ADDAA106000091GF106991061021008001001001KA1240N+02431MA1999999097841MD1999999-0041REMSYN076AAXX  15124 82583 32599 60911 10284 20182 39784 40118 86200 333 20243 59004;EQDQ01  00002PRCP06
0198825830999992004101600004-05167-040667FM-12+029999999V0200901N003112200019N0040001N1+03131+01451100891ADDAA106000091GF101991011011008001001001KA1240M+03701MA1999999097571MD1999999+0061REMSYN088AAXX  16004 82583 32596 10906 10313 20145 39757 40089 81100 333 10370 29039 55089 58006;EQDQ01  00002PRCP06
0186825830999992004101612004-05170-040670FM-12+029999999V0200901N006712200019N0500001N1+02931+01551101171ADDAA106000091GF101991011011008001001001KA1240N+02361MA1999999097851MD1999999+0011REMSYN076AAXX  16124 82583 32599 10913 10293 20155 39785 40117 81100 333 20236 58001;EQDQ01  00002PRCP06
0186825830999992004101712004-05170-040670FM-12+029999999V0200901N005712200019N0500001N1+02911+01711101171ADDAA106000091GF102991021011008001001001KA1240N+02381MA1999999097831MD1999999-0021REMSYN076AAXX  17124 82583 32599 20911 10291 20171 39783 40117 82100 333 20238 59002;EQDQ01  00002PRCP06
0208825830999992004101800004-05167-040667FM-12+029999999V0200901N003112200019N0040001N1+03031+01371100641ADDAA106000091GA1001+999999999GF100991001001999999001001KA1240M+03661MA1999999097331MD1999999-0181REMSYN082AAXX  18004 82583 32996 00906 10303 20137 39733 40064 333 10366 29037 55109 59018;EQDQ01  00002PRCP06
0186825830999992004101812004-05167-040667FM-12+029999999V0200901N006710075019N0500001N1+02901+01751101191ADDAA106000091GF106991061021008001001001KA1240N+02341MA1999999097851MD1999999+0021REMSYN076AAXX  18124 82583 32599 60913 10290 20175 39785 40119 86200 333 20234 58002;EQDQ01  00002PRCP06
0198825830999992004101900004-05167-040667FM-12+029999999V0200901N002112200019N0040001N1+03011+01511100891ADDAA106000091GF101991011011008001001001KA1240M+03601MA1999999097571MD1999999+0241REMSYN088AAXX  19004 82583 32596 10904 10301 20151 39757 40089 81100 333 10360 29041 55103 58024;EQDQ01  00002PRCP06
0186825830999992004101912004-05167-040667FM-12+029999999V0200901N005710075019N0500001N1+02731+01781101181ADDAA106000091GF107991071051008001001001KA1240N+02351MA1999999097841MD1999999-0011REMSYN076AAXX  19124 82583 32599 70911 10273 20178 39784 40118 87500 333 20235 59001;EQDQ01  00002PRCP06
0198825830999992004102000004-05167-040667FM-12+029999999V0200901N002112200019N0040001N1+03091+01581100891ADDAA106000091GF102991021011008001001001KA1240M+03651MA1999999097561MD1999999-0011REMSYN088AAXX  20004 82583 32596 20904 10309 20158 39756 40089 82100 333 10365 29042 55086 59001;EQDQ01  00002PRCP06
0186825830999992004102012004-05167-040667FM-12+029999999V0200901N006212200019N0500001N1+03031+01641101181ADDAA106000091GF102991011011008001001011KA1240N+02511MA1999999097861MD1999999+0021REMSYN076AAXX  20124 82583 32599 20912 10303 20164 39786 40118 81101 333 20251 58002;EQDQ01  00002PRCP06
0198825830999992004102100004-05167-040667FM-12+029999999V0200901N003612200019N0040001N1+03141+01661100771ADDAA106000091GF102991001001999999001011KA1240M+03471MA1999999097461MD1999999-0101REMSYN088AAXX  21004 82583 32996 20907 10314 20166 39746 40077 80001 333 10347 29038 55107 59010;EQDQ01  00002PRCP06
0186825830999992004102112004-05167-040667FM-12+029999999V0200901N005712200019N0500001N1+02891+01841101201ADDAA106000091GF102991011011008001001011KA1240N+02401MA1999999097871MD1999999+0011REMSYN076AAXX  21124 82583 32599 20911 10289 20184 39787 40120 81101 333 20240 58001;EQDQ01  00002PRCP06
0198825830999992004102200004-05167-040667FM-12+029999999V0200901N003112200019N0040001N1+02971+01661101001ADDAA106000091GF101991011011008001001001KA1240M+03501MA1999999097661MD1999999+0201REMSYN088AAXX  22004 82583 32596 10906 10297 20166 39766 40100 81100 333 10350 29045 55101 58020;EQDQ01  00002PRCP06
0186825830999992004102212004-05167-040667FM-12+029999999V0200901N005112200019N0500001N1+02961+01741101181ADDAA106000091GF102991021011008001001001KA1240N+02291MA1999999097841MD1999999-0031REMSYN076AAXX  22124 82583 32599 20910 10296 20174 39784 40118 82100 333 20229 59003;EQDQ01  00002PRCP06
0208825830999992004102300004-05167-040667FM-12+029999999V0200901N003612200019N0040001N1+03591+01501100871ADDAA106000091GA1001+999999999GF100991001001999999001001KA1240M+03541MA1999999097551MD1999999-0111REMSYN082AAXX  23004 82583 32996 00907 10359 20150 39755 40087 333 10354 29042 55105 59011;EQDQ01  00002PRCP06
0186825830999992004102312004-05167-040667FM-12+029999999V0201401N003612200019N0500001N1+02951+01871101051ADDAA106000091GF102991021011008001001001KA1240N+02361MA1999999097721MD1999999-0121REMSYN076AAXX  23124 82583 32599 21407 10295 20187 39772 40105 82100 333 20236 59012;EQDQ01  00002PRCP06
0208825830999992004102400004-05167-040667FM-12+029999999V0201401N003612200019N0040001N1+03041+00701100781ADDAA106000091GA1001+999999999GF100991001001999999001001KA1240M+03771MA1999999097461MD1999999-0091REMSYN082AAXX  24004 82583 32996 01407 10304 20070 39746 40078 333 10377 29033 55108 59009;EQDQ01  00002PRCP06
0186825830999992004102412004-05167-040667FM-12+029999999V0200901N004610075019N0500001N1+02901+01931101231ADDAA106000091GF106991061021008001001001KA1240N+02431MA1999999097711MD1999999-0011REMSYN076AAXX  24124 82583 32599 60909 10290 20193 39771 40123 86200 333 20243 59001;EQDQ01  00002PRCP06
0208825830999992004102500004-05167-040667FM-12+029999999V0200501N001512200019N0040001N1+03031+01681100731ADDAA106000091GA1001+999999999GF100991001001999999001001KA1240M+03581MA1999999097411MD1999999-0051REMSYN082AAXX  25004 82583 32996 00503 10303 20168 39741 40073 333 10358 29045 55088 59005;EQDQ01  00002PRCP06
0186825830999992004102512004-05167-040667FM-12+029999999V0200901N004610120019N0500001N1+02961+01901101101ADDAA106000091GF107991071081008001001001KA1240N+02471MA1999999097761MD1999999+0051REMSYN076AAXX  25124 82583 32599 70909 10296 20190 39776 40110 87800 333 20247 58005;EQDQ01  00002PRCP06
0208825830999992004102600004-05167-040667FM-12+029999999V0200901N003612200019N0040001N1+02921+01831100731ADDAA106000091GA1001+999999999GF100991001001999999001001KA1240M+03551MA1999999097411MD1999999+0001REMSYN082AAXX  26004 82583 32996 00907 10292 20183 39741 40073 333 10355 29047 55083 58000;EQDQ01  00002PRCP06
0202825830999992004102612004-05167-040667FM-12+029999999V0200901N006212200019N0500001N1+02851+01781101071ADDAA106000091GF104991999011008001001001KA1240N+02261MA1999999097731MD1999999-0031REMSYN076AAXX  26124 82583 32599 40912 10285 20178 39773 40107 85100 333 20226 59003;EQDQ01+000052SCOTLCQ02  00002PRCP06
0198825830999992004102700004-05167-040667FM-12+029999999V0200501N003112200019N0500001N1+03031+01531100971ADDAA106000091GF104991011011008001001011KA1240M+03651MA1999999097651MD1999999+0241REMSYN088AAXX  27004 82583 32599 40506 10303 20153 39765 40097 81101 333 10365 29040 55076 58024;EQDQ01  00002PRCP06
0186825830999992004102712004-05167-040667FM-12+029999999V0200901N004610075019N0500001N1+02711+01851101361ADDAA106000091GF106991061021008001001001KA1240N+02331MA1999999098001MD1999999+0271REMSYN076AAXX  27124 82583 32599 60909 10271 20185 39800 40136 86200 333 20233 58027;EQDQ01  00002PRCP06
0198825830999992004102800004-05167-040667FM-12+029999999V0200901N001512200019N0040001N1+03121+01681101031ADDAA106000091GF104991041011008001001001KA1240M+03591MA1999999097691MD1999999+0051REMSYN088AAXX  28004 82583 32596 40903 10312 20168 39769 40103 84100 333 10359 29042 55086 58005;EQDQ01  00002PRCP06
0186825830999992004102812004-05167-040667FM-12+029999999V0200501N000510075019N0500001N1+02761+01971101261ADDAA106000091GF107991071021008001001001KA1240N+02461MA1999999097921MD1999999-0081REMSYN076AAXX  28124 82583 32599 70501 10276 20197 39792 40126 87200 333 20246 59008;EQDQ01  00002PRCP06
0208825830999992004102900004-05167-040667FM-12+029999999V0200901N001512200019N0040001N1+02851+01481100921ADDAA106000091GA1001+999999999GF100991001001999999001001KA1240M+03531MA1999999097581MD1999999-0111REMSYN082AAXX  29004 82583 32996 00903 10285 20148 39758 40092 333 10353 29044 55087 59011;EQDQ01  00002PRCP06
0186825830999992004102912004-05167-040667FM-12+029999999V0200901N006212200019N0500001N1+02831+01881101231ADDAA106000091GF103991031011008001001001KA1240N+02371MA1999999097891MD1999999-0031REMSYN076AAXX  29124 82583 32599 30912 10283 20188 39789 40123 83100 333 20237 59003;EQDQ01  00002PRCP06
0198825830999992004103000004-05167-040667FM-12+029999999V0200501N002112200019N0040001N1+03021+01261100821ADDAA106000091GF101991011011008001001001KA1240M+03671MA1999999097491MD1999999-0091REMSYN088AAXX  30004 82583 32596 10504 10302 20126 39749 40082 81100 333 10367 29037 55097 59009;EQDQ01  00002PRCP06
0208825830999992004103100004-05170-040670FM-12+029999999V0200901N003612200019N0040001N1+03071+01491100971ADDAA106000091GA1001+999999999GF100991001001999999001001KA1240M+03651MA1999999097651MD1999999+0161REMSYN082AAXX  31004 82583 32996 00907 10307 20149 39765 40097 333 10365 29066 55111 58016;EQDQ01  00002PRCP06
0186825830999992004103112004-05170-040670FM-12+029999999V0201401N005112200019N0500001N1+03001+01711101241ADDAA106000091GF102991021011008001001001KA1240N+02351MA1999999097921MD1999999+0071REMSYN076AAXX  31124 82583 32599 21410 10300 20171 39792 40124 82100 333 20235 58007;EQDQ01  00002PRCP06
0198825830999992004110100004-05170-040670FM-12+029999999V0200901N002612200019N0040001N1+02991+01201100901ADDAA106000091GF101991001001999999001011KA1240M+03681MA1999999097581MD1999999-0071REMSYN088AAXX  01004 82583 32996 10905 10299 20120 39758 40090 80001 333 10368 29034 55016 59007;EQDQ01  00002PRCP06
0186825830999992004110112004-05170-040670FM-12+029999999V0200901N005712200019N0500001N1+02991+01881101191ADDAA106000091GF103991031011008001001001KA1240N+02491MA1999999097861MD1999999-0061REMSYN076AAXX  01124 82583 32599 30911 10299 20188 39786 40119 83100 333 20249 59006;EQDQ01  00002PRCP06
0208825830999992004110200004-05167-040667FM-12+029999999V0200901N002612200019N0040001N1+03121+01521100791ADDAA106000091GA1001+999999999GF100991001001999999001001KA1240M+03711MA1999999097471MD1999999-0111REMSYN082AAXX  02004 82583 32996 00905 10312 20152 39747 40079 333 10371 29039 55096 59011;EQDQ01  00002PRCP06
0186825830999992004110212004-05167-040667FM-12+029999999V0201401N003612200019N0500001N1+02941+01821101031ADDAA106000091GF102991021011008001001001KA1240N+02421MA1999999097711MD1999999-0151REMSYN076AAXX  02124 82583 32599 21407 10294 20182 39771 40103 82100 333 20242 59015;EQDQ01  00002PRCP06
0208825830999992004110300004-05167-040667FM-12+029999999V0200901N001512200019N0040001N1+03031+01321100671ADDAA106000091GA1001+999999999GF100991001001999999001001KA1240M+03711MA1999999097351MD1999999-0121REMSYN082AAXX  03004 82583 32996 00903 10303 20132 39735 40067 333 10371 29036 55101 59012;EQDQ01  00002PRCP06
0186825830999992004110312004-05167-040667FM-12+029999999V0201401N006712200019N0500001N1+02891+01751101071ADDAA106000091GF102991021011008001001001KA1240N+02401MA1999999097741MD1999999-0031REMSYN076AAXX  03124 82583 32599 21413 10289 20175 39774 40107 82100 333 20240 59003;EQDQ01  00002PRCP06
0198825830999992004110400004-05167-040667FM-12+029999999V0200901N003112200019N0040001N1+03031+01371100841ADDAA106000091GF101991011011008001001001KA1240M+03641MA1999999097521MD1999999+0171REMSYN088AAXX  04004 82583 32596 10906 10303 20137 39752 40084 81100 333 10364 29037 55111 58017;EQDQ01  00002PRCP06
0186825830999992004110412004-05167-040667FM-12+029999999V0200901N007712200019N0500001N1+02921+01571101051ADDAA106000091GF101991011011008001001001KA1240N+02381MA1999999097731MD1999999-0011REMSYN076AAXX  04124 82583 32599 10915 10292 20157 39773 40105 81100 333 20238 59001;EQDQ01  00002PRCP06
0198825830999992004110500004-05167-040667FM-12+029999999V0200901N001512200019N0040001N1+02971+01231100831ADDAA106000091GF101991011011008001001001KA1240M+03671MA1999999097511MD1999999-0011REMSYN088AAXX  05004 82583 32596 10903 10297 20123 39751 40083 81100 333 10367 29034 55111 59001;EQDQ01  00002PRCP06
0186825830999992004110512004-05167-040667FM-12+029999999V0200901N005712200019N0500001N1+02991+01571101111ADDAA106000091GF101991011011008001001001KA1240N+02331MA1999999097781MD1999999+0051REMSYN076AAXX  05124 82583 32599 10911 10299 20157 39778 40111 81100 333 20233 58005;EQDQ01  00002PRCP06
0208825830999992004110600004-05167-040667FM-12+029999999V0201401N002112200019N0040001N1+02991+01151100851ADDAA106000091GA1001+999999999GF100991001001999999001001KA1240M+03711MA1999999097531MD1999999+0021REMSYN082AAXX  06004 82583 32996 01404 10299 20115 39753 40085 333 10371 29031 55112 58002;EQDQ01  00002PRCP06
0186825830999992004120312004-05167-040667FM-12+029999999V0201401N006712200019N0500001N1+02891+01751101071ADDAA106000091GF102991021011008001001001KA1240N+02401MA1999999097741MD1999999-0031REMSYN076AAXX  03124 82583 32599 21413 10289 20175 39774 40107 82100 333 20240 59003;EQDQ01  00002PRCP06
0172825830999992004120612004-05170-040670FM-12+029999999V0200901N006712200019N0500001N1+02921+01861101031ADDAA106000091GF104991041021008001001001KA1240N+02301MA1999999097711REMSYN076AAXX  06124 82583 32599 40913 10292 20186 39771 40103 84200 333 20230 5////;EQDQ01  00002PRCP06
0208825830999992004120700004-05167-040667FM-12+029999999V0200501N001012200019N0040001N1+03011+01471100751ADDAA106000091GA1001+999999999GF100991001001999999001001KA1240M+03611MA1999999097431MD1999999-0091REMSYN082AAXX  07004 82583 32996 00502 10301 20147 39743 40075 333 10361 29039 55091 59009;EQDQ01  00002PRCP06
0186825830999992004120712004-05167-040667FM-12+029999999V0200501N003110075019N0500001N1+02991+01941101111ADDAA106000091GF106991061021008001001001KA1240N+02441MA1999999097781MD1999999+0071REMSYN076AAXX  07124 82583 32599 60506 10299 20194 39778 40111 86200 333 20244 58007;EQDQ01  00002PRCP06
0208825830999992004120800004-05167-040667FM-12+029999999V0201401N001012200019N0500001N1+02981+01611100831ADDAA106000091GA1001+999999999GF100991001001999999001001KA1240M+03551MA1999999097511MD1999999+0081REMSYN082AAXX  08004 82583 32599 01402 10298 20161 39751 40083 333 10355 29042 55066 58008;EQDQ01  00002PRCP06
0186825830999992004120812004-05167-040667FM-12+029999999V0200901N004610075019N0500001N1+02921+01861101211ADDAA106000091GF106991051021008001001011KA1240N+02471MA1999999097871MD1999999+0091REMSYN076AAXX  08124 82583 32599 60909 10292 20186 39787 40121 85201 333 20247 58009;EQDQ01  00002PRCP06
0208825830999992004120900004-05167-040667FM-12+029999999V0200501N001012200019N0040001N1+02941+01591100871ADDAA106000091GA1001+999999999GF100991001001999999001001KA1240M+03531MA1999999097541MD1999999+0031REMSYN082AAXX  09004 82583 32996 00502 10294 20159 39754 40087 333 10353 29043 55084 58003;EQDQ01  00002PRCP06
0186825830999992004120912004-05167-040667FM-12+029999999V0200901N003110120019N0500001N1+02831+01931101131ADDAA106000091GF107991071081008001001001KA1240N+02481MA1999999097781MD1999999-0081REMSYN076AAXX  09124 82583 32599 70906 10283 20193 39778 40113 87800 333 20248 59008;EQDQ01  00002PRCP06
0208825830999992004121000004-05167-040667FM-12+029999999V0200501N002612200019N0040001N1+02931+01661100771ADDAA106000091GA1001+999999999GF100991001001999999001001KA1240M+03411MA1999999097441MD1999999-0101REMSYN082AAXX  10004 82583 32996 00505 10293 20166 39744 40077 333 10341 29046 55054 59010;EQDQ01  00002PRCP06
0186825830999992004121012004-05167-040667FM-12+029999999V0203201N000510075019N0500001N1+02631+02001101111ADDAA106000091GF108991081051008001999999KA1240N+02431MA1999999097761MD1999999-0031REMSYN076AAXX  10124 82583 32599 83201 10263 20200 39776 40111 885// 333 20243 59003;EQDQ01  00002PRCP06
0208825830999992004121100004-05167-040667FM-12+029999999V0200501N001512200019N0040001N1+03001+01681100861ADDAA106000091GA1001+999999999GF100991001001999999001001KA1240M+03621MA1999999097521MD1999999+0081REMSYN082AAXX  11004 82583 32996 00503 10300 20168 39752 40086 333 10362 29047 55046 58008;EQDQ01  00002PRCP06
0186825830999992004121112004-05167-040667FM-12+029999999V0200501N003112200019N0500001N1+02841+01791101111ADDAA106000091GF102991011011008001001011KA1240N+02261MA1999999097771MD1999999+0011REMSYN076AAXX  11124 82583 32599 20506 10284 20179 39777 40111 81101 333 20226 58001;EQDQ01  00002PRCP06
0198825830999992004121200004-05170-040670FM-12+029999999V0200501N001512200019N0040001N1+03101+01461100771ADDAA106000091GF102991021011008001001001KA1240M+03661MA1999999097541MD1999999+0021REMSYN088AAXX  12004 82583 32596 20503 10310 20146 39754 40077 82100 333 10366 29037 55098 58002;EQDQ01  00002PRCP06
0186825830999992004121212004-05170-040670FM-12+029999999V0200901N001510120019N0500001N1+02751+01971101171ADDAA106000091GF107991071081008001001001KA1240N+02311MA1999999097831MD1999999+0061REMSYN076AAXX  12124 82583 32599 70903 10275 20197 39783 40117 87800 333 20231 58006;EQDQ01  00002PRCP06
0208825830999992004121300004-05167-040667FM-12+029999999V0203601N003112200019N0040001N1+03051+01381100821ADDAA106000091GA1001+999999999GF100991001001999999001001KA1240M+03681MA1999999097491MD1999999+0041REMSYN082AAXX  13004 82583 32996 03606 10305 20138 39749 40082 333 10368 29039 55090 58004;EQDQ01  00002PRCP06
0186825830999992004121312004-05167-040667FM-12+029999999V0200901N004610075019N0500001N1+02791+02001101251ADDAA106000091GF108991081051008001999999KA1240N+02481MA1999999097911MD1999999+0081REMSYN076AAXX  13124 82583 32599 80909 10279 20200 39791 40125 885// 333 20248 58008;EQDQ01  00002PRCP06
0186825830999992004121412004-05167-040667FM-12+029999999V0200901N003610120019N0500001N1+02751+01991101211ADDAA106000091GF108991081081008001999999KA1240N+02431MA1999999097871MD1999999-0041REMSYN076AAXX  14124 82583 32599 80907 10275 20199 39787 40121 888// 333 20243 59004;EQDQ01  00002PRCP06
0208825830999992004121500004-05167-040667FM-12+029999999V0200501N001012200019N0040001N1+03041+01571100821ADDAA106000091GA1001+999999999GF100991001001999999001001KA1240M+03651MA1999999097491MD1999999-0091REMSYN082AAXX  15004 82583 32996 00502 10304 20157 39749 40082 333 10365 29043 55080 59009;EQDQ01  00002PRCP06
0186825830999992004121512004-05167-040667FM-12+029999999V0200501N004110120019N0500001N1+02741+01971101131ADDAA106000091GF107991071081008001001001KA1240N+02391MA1999999097791MD1999999-0081REMSYN076AAXX  15124 82583 32599 70508 10274 20197 39779 40113 87800 333 20239 59008;EQDQ01  00002PRCP06
0208825830999992004121600004-05167-040667FM-12+029999999V0200901N002112200019N0040001N1+02951+01611100861ADDAA106000091GA1001+999999999GF100991001001999999001001KA1240M+03441MA1999999097521MD1999999+0031REMSYN082AAXX  16004 82583 32996 00904 10295 20161 39752 40086 333 10344 29046 55048 58003;EQDQ01  00002PRCP06
0186825830999992004121612004-05167-040667FM-12+029999999V0200901N004610075019N0500001N1+02761+01991101011ADDAA106000091GF106991051021008001001011KA1240N+02301MA1999999097671MD1999999-0121REMSYN076AAXX  16124 82583 32599 60909 10276 20199 39767 40101 85201 333 20230 59012;EQDQ01  00002PRCP06
0208825830999992004121700004-05167-040667FM-12+029999999V0200901N002612200019N0040001N1+02931+01321100751ADDAA106000091GA1001+999999999GF100991001001999999001001KA1240M+03551MA1999999097411MD1999999-0111REMSYN082AAXX  17004 82583 32996 00905 10293 20132 39741 40075 333 10355 29042 55066 59011;EQDQ01  00002PRCP06
0186825830999992004121712004-05167-040667FM-12+029999999V0200901N004610075019N0500001N1+02811+01861101051ADDAA106000091GF107991061021008001031001KA1240N+02311MA1999999097711MD1999999+0041REMSYN076AAXX  17124 82583 32599 70909 10281 20186 39771 40105 86230 333 20231 58004;EQDQ01  00002PRCP06
0208825830999992004121800004-05167-040667FM-12+029999999V0200901N003112200019N0040001N1+03021+01431100741ADDAA106000091GA1001+999999999GF100991001001999999001001KA1240M+03601MA1999999097411MD1999999+0001REMSYN082AAXX  18004 82583 32996 00906 10302 20143 39741 40074 333 10360 29038 55074 58000;EQDQ01  00002PRCP06
0186825830999992004121812004-05167-040667FM-12+029999999V0200501N005110075019N0500001N1+02861+01721101151ADDAA106000091GF106991061021008001001001KA1240N+02361MA1999999097811MD1999999+0101REMSYN076AAXX  18124 82583 32599 60510 10286 20172 39781 40115 86200 333 20236 58010;EQDQ01  00002PRCP06
0214825830999992004121900004-05170-040670FM-12+029999999V0200901N003112200019N0040001N1+03081+01481100951ADDAA106000091GF103991999031008001001001KA1240M+03521MA1999999097631MD1999999+0221REMSYN088AAXX  19004 82583 32596 30906 10308 20148 39763 40095 88300 333 10352 29038 55052 58022;EQDQ01+000082SCOTLCQ02  00002PRCP06
0186825830999992004121912004-05170-040670FM-12+029999999V0200901N005110075019N0500001N1+02831+01881101361ADDAA106000091GF106991061021008001001001KA1240N+02551MA1999999097981MD1999999+0171REMSYN076AAXX  19124 82583 32599 60910 10283 20188 39798 40136 86200 333 20255 58017;EQDQ01  00002PRCP06
0198825830999992004122000004-05167-040667FM-12+029999999V0200501N002112200019N0040001N1+03011+01591100951ADDAA106000091GF104991041001017501031001KA1240M+03631MA1999999097621MD1999999-0011REMSYN088AAXX  20004 82583 32796 40504 10301 20159 39762 40095 84030 333 10363 29042 55087 59001;EQDQ01  00002PRCP06
0186825830999992004122012004-05167-040667FM-12+029999999V0200901N004610120019N0500001N1+02761+01971101281ADDAA106000091GF108991081081008001999999KA1240N+02451MA1999999097941MD1999999-0041REMSYN076AAXX  20124 82583 32599 80909 10276 20197 39794 40128 888// 333 20245 59004;EQDQ01  00002PRCP06
0208825830999992004122100004-05167-040667FM-12+029999999V0200901N003612200019N0040001N1+03021+01511100851ADDAA106000091GA1001+999999999GF100991001001999999001001KA1240M+03581MA1999999097521MD1999999-0101REMSYN082AAXX  21004 82583 32996 00907 10302 20151 39752 40085 333 10358 29044 55076 59010;EQDQ01  00002PRCP06
0186825830999992004122112004-05167-040667FM-12+029999999V0200901N004110075019N0500001N1+02871+01911101031ADDAA106000091GF106991061021008001001001KA1240N+02421MA1999999097701MD1999999-0241REMSYN076AAXX  21124 82583 32599 60908 10287 20191 39770 40103 86200 333 20242 59024;EQDQ01  00002PRCP06
0208825830999992004122200004-05167-040667FM-12+029999999V0200901N003612200019N0040001N1+03071+01521100671ADDAA106000091GA1001+999999999GF100991001001999999001001KA1240M+03651MA1999999097351MD1999999-0171REMSYN082AAXX  22004 82583 32996 00907 10307 20152 39735 40067 333 10365 29042 55088 59017;EQDQ01  00002PRCP06
0186825830999992004122212004-05167-040667FM-12+029999999V0200501N003610075019N0500001N1+02781+01911100981ADDAA106000091GF106991061021008001001001KA1240N+02401MA1999999097651MD1999999-0051REMSYN076AAXX  22124 82583 32599 60507 10278 20191 39765 40098 86200 333 20240 59005;EQDQ01  00002PRCP06
0198825830999992004122300004-05167-040667FM-12+029999999V0200501N002112200019N0040001N1+03031+01711100731ADDAA106000091GF102991001001999999001021KA1240M+03561MA1999999097401MD1999999+0051REMSYN088AAXX  23004 82583 32996 20504 10303 20171 39740 40073 80002 333 10356 29046 55071 58005;EQDQ01  00002PRCP06
0186825830999992004122312004-05167-040667FM-12+029999999V0200901N004612200019N0500001N1+02841+01821100971ADDAA106000091GF102991021011008001001001KA1240N+02421MA1999999097651MD1999999+0001REMSYN076AAXX  23124 82583 32599 20909 10284 20182 39765 40097 82100 333 20242 58000;EQDQ01  00002PRCP06
0208825830999992004122400004-05167-040667FM-12+029999999V0200901N002112200019N0040001N1+03051+01471100611ADDAA106000091GA1001+999999999GF100991001001999999001001KA1240M+03611MA1999999097291MD1999999-0111REMSYN082AAXX  24004 82583 32996 00904 10305 20147 39729 40061 333 10361 29041 55104 59011;EQDQ01  00002PRCP06
0186825830999992004122412004-05167-040667FM-12+029999999V0200901N006712200019N0500001N1+02941+01721100891ADDAA106000091GF103991031011008001001001KA1240N+02311MA1999999097571MD1999999-0081REMSYN076AAXX  24124 82583 32599 30913 10294 20172 39757 40089 83100 333 20231 59008;EQDQ01  00002PRCP06
0208825830999992004122500004-05167-040667FM-12+029999999V0200901N004112200019N0040001N1+03071+01361100641ADDAA106000091GA1001+999999999GF100991001001999999001001KA1240M+03671MA1999999097331MD1999999+0041REMSYN082AAXX  25004 82583 32996 00908 10307 20136 39733 40064 333 10367 29036 55096 58004;EQDQ01  00002PRCP06
0186825830999992004122512004-05167-040667FM-12+029999999V0200901N003110120019N0500001N1+02801+01981101041ADDAA106000091GF107991071081008001001001KA1240N+02421MA1999999097711MD1999999+0141REMSYN076AAXX  25124 82583 32599 70906 10280 20198 39771 40104 87800 333 20242 58014;EQDQ01  00002PRCP06
0226825830999992004122600004-05170-040670FM-12+029999999V0203601N002610075019N0040001N1+02691+02081100951ADDAA106000091AY191061AY291061GF105991051001008001021001KA1240M+03641MA1999999097601MD1999999+0271MW1031REMSYN094AAXX  26004 82583 31596 53605 10269 20208 39760 40095 70399 85020 333 10364 29059 55071 58027;EQDQ01  00002PRCP06
0186825830999992004122612004-05170-040670FM-12+029999999V0200901N005110075019N0500001N1+02781+01911101121ADDAA106000091GF107991071021008001001001KA1240N+02431MA1999999097761MD1999999+0051REMSYN076AAXX  26124 82583 32599 70910 10278 20191 39776 40112 87200 333 20243 58005;EQDQ01  00002PRCP06
0202825830999992004122700004-05170-040670FM-12+029999999V0200901N000512200019N0040001N1+02711+02261100811ADDAY161061AY261061GF103991011001008001031021KA1240M+03551MA1999999097471MD1999999-0131MW1011REMSYN100AAXX  27004 82583 21596 30901 10271 20226 39747 40081 70166 81032 333 10355 29062 55038 59013 60061;
0162825830999992004122712004-05170-040670FM-12+029999999V0200901N003112200019N0500001N1+02791+01981101051ADDGF102991011011008001001011KA1240N+02311MA1999999097691MD1999999-0071REMSYN082AAXX  27124 82583 22599 20906 10279 20198 39769 40105 81101 333 20231 59007 60064;
0198825830999992004122800004-05167-040667FM-12+029999999V0203601N002112200019N0040001N1+03021+01861100661ADDAA106000091GF102991011011008001001011KA1240M+03661MA1999999097341MD1999999-0131REMSYN088AAXX  28004 82583 32596 23604 10302 20186 39734 40066 81101 333 10366 29047 55103 59013;EQDQ01  00002PRCP06
0186825830999992004122812004-05167-040667FM-12+029999999V0203601N001510075019N0500001N1+02651+02041101021ADDAA106000091GF108991081051008001999999KA1240N+02431MA1999999097681MD1999999-0011REMSYN076AAXX  28124 82583 32599 83603 10265 20204 39768 40102 885// 333 20243 59001;EQDQ01  00002PRCP06
0162825830999992004122912004-05167-040667FM-12+029999999V0203601N000510075019N0500001N1+02641+02161101351ADDGF107991051021008001001041KA1240N+02301MA1999999097961MD1999999+0281REMSYN082AAXX  29124 82583 22599 73601 10264 20216 39796 40135 85204 333 20230 58028 60114;
0198825830999992004123000004-05167-040667FM-12+029999999V0200901N000510075019N0040001N1+02901+01991101121ADDAA106000091GF106991061051008001001001KA1240M+03341MA1999999097761MD1999999+0001REMSYN088AAXX  30004 82583 32596 60901 10290 20199 39776 40112 86500 333 10334 29054 55056 58000;EQDQ01  00002PRCP06
0186825830999992004123012004-05167-040667FM-12+029999999V0200501N003110075019N0500001N1+02811+02051101231ADDAA106000091GF106991061021008001001001KA1240N+02451MA1999999097891MD1999999-0071REMSYN076AAXX  30124 82583 32599 60506 10281 20205 39789 40123 86200 333 20245 59007;EQDQ01  00002PRCP06
0162825830999992004123112004-05167-040667FM-12+029999999V0200901N004612200019N0500001N1+02871+01771101191ADDGF101991011011008001001001KA1240N+02401MA1999999097851MD1999999-0041REMSYN082AAXX  31124 82583 22599 10909 10287 20177 39785 40119 81100 333 20240 59004 69914;
