0208826780999992004010100004-06767-043017FM-12+013899999V0209999C000012200019N0040001N1+02641+02031101121ADDAA106000091GA1001+999999999GF100991001001999999001001KA1240M+03431MA1999999099561MD1999999-0091REMSYN082AAXX  01004 82678 32996 00000 10264 20203 39956 40112 333 10343 29058 55044 59009;EQDQ01  00002PRCP06
0196826780999992004010112004-06767-043017FM-12+013899999V0203201N001512200019N0040001N1+02841+02091101421ADDAA106000091GA1001+999999999GF100991001001999999001001KA1240N+02221MA1999999099851MD1999999+0101REMSYN070AAXX  01124 82678 32996 03203 10284 20209 39985 40142 333 20222 58010;EQDQ01  00002PRCP06
0167826780999992004010118004-06767-043017FM-12+013899999V0203601N001512200019N0040001N1+03521+02291100961ADDAA106000091GF104991021011008001001011MA1999999099411MD1999999-0061REMSYN070AAXX  01184 82678 32596 43603 10352 20229 39941 40096 82101 333 59006;EQDQ01  00002PRCP06
0208826780999992004010200004-06767-043017FM-12+013899999V0209999C000012200019N0002001N1+02881+02371101131ADDAA106000091GA1001+999999999GF100991001001999999001001KA1240M+03641MA1999999099571MD1999999-0011REMSYN082AAXX  02004 82678 32992 00000 10288 20237 39957 40113 333 10364 29065 55086 59001;EQDQ01  00002PRCP06
0186826780999992004010212004-06767-043017FM-12+013899999V0203601N000510450019N0040001N1+02701+02261101451ADDAA106000091GF108991041051008001021999KA1240N+02581MA1999999099881MD1999999+0031REMSYN076AAXX  02124 82678 32596 83601 10270 20226 39988 40145 8452/ 333 20258 58003;EQDQ01  00002PRCP06
0167826780999992004010218004-06767-043017FM-12+013899999V0201801N001010450019N0040001N1+03021+02261101081ADDAA106000091GF108991041051008001021999MA1999999099521MD1999999+0111REMSYN070AAXX  02184 82678 32596 81802 10302 20226 39952 40108 8452/ 333 58011;EQDQ01  00002PRCP06
0198826780999992004010300004-06767-043017FM-12+013899999V0209999C000010450019N0020001N1+02801+02341101101ADDAA106000091GF108991041051008001031021KA1240M+03111MA1999999099531MD1999999-0041REMSYN088AAXX  03004 82678 32595 80000 10280 20234 39953 40110 84532 333 10311 29073 55000 59004;EQDQ01  00002PRCP06
0186826780999992004010312004-06767-043017FM-12+013899999V0202701N000510075019N0040001N1+02581+02191101451ADDAA106000091GF108991081051008001999999KA1240N+02461MA1999999099871MD1999999-0011REMSYN076AAXX  03124 82678 32596 82701 10258 20219 39987 40145 885// 333 20246 59001;EQDQ01  00002PRCP06
0171826780999992004010318004-06767-043017FM-12+013899999V0201801N000510075019N0040001N1+02301+02271101271ADDAY161061AY291061GF108991061051008001021999MA1999999099681MD1999999+0161MW1611REMSYN082AAXX  03184 82678 21596 81801 10230 20227 39968 40127 76169 8652/ 333 58016 60341;
0202826780999992004010400004-06767-043017FM-12+013899999V0209999C000010075019N0002001N1+02461+02321101081ADDAY161061AY221061GF108991051051008001031999KA1240M+02821MA1999999099491MD1999999-0041MW1021REMSYN100AAXX  04004 82678 21592 80000 10246 20232 39949 40108 70262 8553/ 333 10282 29090 55000 59004 69931;
0162826780999992004010412004-06767-043017FM-12+013899999V0202301N000510450019N0040001N1+02541+02311101271ADDGF108991041041008001061051KA1240N+02231MA1999999099681MD1999999-0191REMSYN082AAXX  04124 82678 22596 82301 10254 20231 39968 40127 84465 333 20223 59019 60354;
0202826780999992004010500004-06767-043017FM-12+013899999V0209999C000010450019N0002001N1+02461+02271100961ADDAY161061AY221061GF106991041061008001011001KA1240M+03331MA1999999099381MD1999999-0111MW1021REMSYN100AAXX  05004 82678 21592 60000 10246 20227 39938 40096 70262 84610 333 10333 29087 55040 59011 69931;
0162826780999992004010512004-06767-043017FM-12+013899999V0203601N001011050019N0040001N1+02741+02321101281ADDGF105991021021008001031011KA1240N+02261MA1999999099701MD1999999+0021REMSYN082AAXX  05124 82678 22596 53602 10274 20232 39970 40128 82231 333 20226 58002 60014;
0167826780999992004010518004-06767-043017FM-12+013899999V0201401N002112200019N0040001N1+03441+02181100781ADDAA106000091GF105991041021008001001011MA1999999099231MD1999999+0021REMSYN070AAXX  05184 82678 32596 51404 10344 20218 39923 40078 84201 333 58002;EQDQ01  00002PRCP06
0198826780999992004010600004-06767-043017FM-12+013899999V0202301N000512200019N0002001N1+02891+02461100901ADDAA106000091GF103991011051008001031001KA1240M+03511MA1999999099341MD1999999-0041REMSYN088AAXX  06004 82678 32592 32301 10289 20246 39934 40090 81530 333 10351 29070 55108 59004;EQDQ01  00002PRCP06
0186826780999992004010612004-06767-043017FM-12+013899999V0200501N001012200019N0040001N1+02921+02241101291ADDAA106000091GF101991011001017501031001KA1240N+02381MA1999999099731MD1999999+0031REMSYN076AAXX  06124 82678 32796 10502 10292 20224 39973 40129 81030 333 20238 58003;EQDQ01  00002PRCP06
0167826780999992004010618004-06767-043017FM-12+013899999V0201401N003112200019N0040001N1+03431+02021100901ADDAA106000091GF102991011021008001031001MA1999999099351MD1999999+0121REMSYN070AAXX  06184 82678 32596 21406 10343 20202 39935 40090 81230 333 58012;EQDQ01  00002PRCP06
0198826780999992004010700004-06767-043017FM-12+013899999V0209999C000012200019N0002001N1+02841+02291100981ADDAA106000091GF101991011001017501031001KA1240M+03511MA1999999099421MD1999999+0081REMSYN088AAXX  07004 82678 32792 10000 10284 20229 39942 40098 81030 333 10351 29064 55112 58008;EQDQ01  00002PRCP06
0196826780999992004010712004-06767-043017FM-12+013899999V0201401N003112200019N0040001N1+02941+01691101281ADDAA106000091GA1001+999999999GF100991001001999999001001KA1240N+02201MA1999999099721MD1999999-0011REMSYN070AAXX  07124 82678 32996 01406 10294 20169 39972 40128 333 20220 59001;EQDQ01  00002PRCP06
0167826780999992004010718004-06767-043017FM-12+013899999V0200901N002611050019N0040001N1+03501+01901100931ADDAA106000091GF105991021021008001001021MA1999999099381MD1999999+0031REMSYN070AAXX  07184 82678 32596 50905 10350 20190 39938 40093 82202 333 58003;EQDQ01  00002PRCP06
0198826780999992004010800004-06767-043017FM-12+013899999V0201401N000512200019N0002001N1+02921+02091100971ADDAA106000091GF102991011001017501031011KA1240M+03611MA1999999099421MD1999999+0001REMSYN088AAXX  08004 82678 32792 21401 10292 20209 39942 40097 81031 333 10361 29052 55115 58000;EQDQ01  00002PRCP06
0196826780999992004010812004-06767-043017FM-12+013899999V0200501N001512200019N0040001N1+03061+02051101281ADDAA106000091GA1001+999999999GF100991001001999999001001KA1240N+02381MA1999999099721MD1999999+0001REMSYN070AAXX  08124 82678 32996 00503 10306 20205 39972 40128 333 20238 58000;EQDQ01  00002PRCP06
0167826780999992004010818004-06767-043017FM-12+013899999V0200501N001012200019N0040001N1+03601+02031100791ADDAA106000091GF102991011011008001001011MA1999999099251MD1999999-0131REMSYN070AAXX  08184 82678 32596 20502 10360 20203 39925 40079 81101 333 59013;EQDQ01  00002PRCP06
0208826780999992004010900004-06767-043017FM-12+013899999V0209999C000012200019N0002001N1+02961+02221100901ADDAA106000091GA1001+999999999GF100991001001999999001001KA1240M+03681MA1999999099351MD1999999-0071REMSYN082AAXX  09004 82678 32992 00000 10296 20222 39935 40090 333 10368 29055 55114 59007;EQDQ01  00002PRCP06
0190826780999992004010912004-06767-043017FM-12+013899999V0209999C000010075019N0040001N1+02721+02301101311ADDAY161061AY221061GF108991081051008001999999KA1240N+02581MA1999999099741MD1999999+0021MW1031REMSYN088AAXX  09124 82678 21596 80000 10272 20230 39974 40131 70362 885// 333 20258 58002 69924;
0171826780999992004010918004-06767-043017FM-12+013899999V0202301N001510075019N0040001N1+02521+02311101011ADDAY161061AY221061GF108991081051008001999999MA1999999099431MD1999999+0181MW1031REMSYN082AAXX  09184 82678 21596 82303 10252 20231 39943 40101 70362 885// 333 58018 60221;
0198826780999992004011000004-06767-043017FM-12+013899999V0209999C000010075019N0002001N1+02481+02381101101ADDAA106000091GF108991081071008001999999KA1240M+02981MA1999999099521MD1999999+0171REMSYN088AAXX  10004 82678 32592 80000 10248 20238 39952 40110 887// 333 10298 29088 55000 58017;EQDQ01  00002PRCP06
0190826780999992004011012004-06767-043017FM-12+013899999V0202301N001510075019N0040001N1+02401+02331101341ADDAY161061AY231061GF108991081071008001999999KA1240N+02241MA1999999099751MD1999999+0011MW1031REMSYN088AAXX  10124 82678 21596 82303 10240 20233 39975 40134 70363 887// 333 20224 58001 61324;
0171826780999992004011018004-06767-043017FM-12+013899999V0202301N001512200019N0040001N1+02721+02451101021ADDAY161061AY231061GF108991041051008001001011MA1999999099451MD1999999+0021MW1631REMSYN082AAXX  10184 82678 21596 82303 10272 20245 39945 40102 76363 84501 333 58002 60011;
0179826780999992004011100004-06767-043017FM-12+013899999V0209999C000010075019N0040001N1+02561+02441101101ADDAA106000021GF108991051031008001001021KA1240M+02871MA1999999099511MD1999999-0011REMSYN088AAXX  11004 82678 32596 80000 10256 20244 39951 40110 85302 333 10287 29092 55003 59001;
0162826780999992004011112004-06767-043017FM-12+013899999V0209999C000010075019N0040001N1+02601+02391101411ADDGF108991081051008001999999KA1240N+02381MA1999999099851MD1999999+0101REMSYN082AAXX  11124 82678 22596 80000 10260 20239 39985 40141 885// 333 20238 58010 60014;
0167826780999992004011118004-06767-043017FM-12+013899999V0209999C000010075019N0040001N1+02881+02461101221ADDAA106000091GF108991081051008001999999MA1999999099651MD1999999+0201REMSYN070AAXX  11184 82678 32596 80000 10288 20246 39965 40122 885// 333 58020;EQDQ01  00002PRCP06
0198826780999992004011200004-06767-043017FM-12+013899999V0209999C000010075019N0002001N1+02441+02301101471ADDAA106000091GF108991061051008001001011KA1240M+02991MA1999999099881MD1999999+0371REMSYN088AAXX  12004 82678 32592 80000 10244 20230 39988 40147 86501 333 10299 29088 55009 58037;EQDQ01  00002PRCP06
0162826780999992004011212004-06767-043017FM-12+013899999V0200501N001510120019N0040001N1+02601+02271101541ADDGF108991051081008001031021KA1240N+02301MA1999999099951MD1999999+0101REMSYN082AAXX  12124 82678 22596 80503 10260 20227 39995 40154 85832 333 20230 58010 69924;
0167826780999992004011218004-06767-043017FM-12+013899999V0203601N002610120019N0040001N1+03161+02391101191ADDAA106000091GF107991061081008001031001MA1999999099621MD1999999-0031REMSYN070AAXX  12184 82678 32596 73605 10316 20239 39962 40119 86830 333 59003;EQDQ01  00002PRCP06
0198826780999992004011300004-06767-043017FM-12+013899999V0201401N000512200019N0002001N1+02701+02431101311ADDAA106000091GF103991031001017501021001KA1240M+03251MA1999999099731MD1999999-0151REMSYN088AAXX  13004 82678 32792 31401 10270 20243 39973 40131 83020 333 10325 29079 55060 59015;EQDQ01  00002PRCP06
0186826780999992004011312004-06767-043017FM-12+013899999V0203601N001010450019N0040001N1+02901+02321101381ADDAA106000091GF106991021021008001031011KA1240N+02421MA1999999099811MD1999999-0141REMSYN076AAXX  13124 82678 32596 63602 10290 20232 39981 40138 82231 333 20242 59014;EQDQ01  00002PRCP06
0167826780999992004011318004-06767-043017FM-12+013899999V0203601N001510450019N0040001N1+03421+02321100851ADDAA106000091GF106991031081008001031011MA1999999099301MD1999999-0321REMSYN070AAXX  13184 82678 32596 63603 10342 20232 39930 40085 83831 333 59032;EQDQ01  00002PRCP06
0198826780999992004011400004-06767-043017FM-12+013899999V0201401N001010075019N0002001N1+02801+02381101101ADDAA106000091GF108991051041008001011999KA1240M+03591MA1999999099541MD1999999-0191REMSYN088AAXX  14004 82678 32592 81402 10280 20238 39954 40110 8541/ 333 10359 29070 55087 59019;EQDQ01  00002PRCP06
0190826780999992004011412004-06767-043017FM-12+013899999V0202301N001010075019N0040001N1+02381+02351101661ADDAY161061AY261061GF108991081051008001999999KA1240N+02261MA1999999100071MD1999999+0261MW1631REMSYN088AAXX  14124 82678 21596 82302 10238 20235 30007 40166 76366 885// 333 20226 58026 61114;
0171826780999992004011418004-06767-043017FM-12+013899999V0209999C000010075019N0040001N1+02601+02351101331ADDAY161061AY261061GF108991081051008001999999MA1999999099741MD1999999+0441MW1631REMSYN082AAXX  14184 82678 21596 80000 10260 20235 39974 40133 76366 885// 333 58044 60021;
0179826780999992004011500004-06767-043017FM-12+013899999V0209999C000010075019N0002001N1+02521+02381101511ADDAA106000021GF108991051051008001999999KA1240M+02871MA1999999099911MD1999999+0371REMSYN088AAXX  15004 82678 32592 80000 10252 20238 39991 40151 855// 333 10287 29092 55000 58037;
0190826780999992004011512004-06767-043017FM-12+013899999V0209999C000010075019N0040001N1+02621+02311101461ADDAY101061AY221061GF108991051031008001001011KA1240N+02281MA1999999099871MD1999999-0201MW1621REMSYN088AAXX  15124 82678 21596 80000 10262 20231 39987 40146 76202 85301 333 20228 59020 60034;
0148826780999992004011518004-06767-043017FM-12+013899999V0200501N001511050019N0040001N1+03261+02461100971ADDAA106000021GF108991041021008001001021MA1999999099411MD1999999-0331REMSYN070AAXX  15184 82678 32596 80503 10326 20246 39941 40097 84202 333 59033;
0195826780999992004011600004-06767-043017FM-12+013899999V0209999C000012200019N0002001N1+02781+02541101051ADDAA106000091AA224607092GF105991031021008001001011KA1240M+03341MA1999999099481REMSYN088AAXX  16004 82678 32592 50000 10278 20254 39948 40105 83201 333 10334 29080 66074 59043;EQDQ01  00002PRCP06
0186826780999992004011612004-06767-043017FM-12+013899999V0200901N001010150019N0040001N1+02881+02321101171ADDAA106000091GF108991051001017501021011KA1240N+02461MA1999999099611MD1999999-0261REMSYN076AAXX  16124 82678 32796 80902 10288 20232 39961 40117 85021 333 20246 59026;EQDQ01  00002PRCP06
0167826780999992004011618004-06767-043017FM-12+013899999V0202301N001010450019N0040001N1+03181+02281100771ADDAA106000091GF108991031031008001021021MA1999999099221MD1999999-0191REMSYN070AAXX  16184 82678 32596 82302 10318 20228 39922 40077 83322 333 59019;EQDQ01  00002PRCP06
0198826780999992004011700004-06767-043017FM-12+013899999V0200901N001012200019N0002001N1+02781+02421101051ADDAA106000091GF102991021041008001001001KA1240M+03331MA1999999099491MD1999999+0011REMSYN088AAXX  17004 82678 32592 20902 10278 20242 39949 40105 82400 333 10333 29073 55053 58001;EQDQ01  00002PRCP06
0186826780999992004011712004-06767-043017FM-12+013899999V0200501N001010075019N0040001N1+02581+02421101391ADDAA106000091GF108991081041008001999999KA1240N+02461MA1999999099811MD1999999+0201REMSYN076AAXX  17124 82678 32596 80502 10258 20242 39981 40139 884// 333 20246 58020;EQDQ01  00002PRCP06
0167826780999992004011718004-06767-043017FM-12+013899999V0200501N001510120019N0040001N1+03011+02371100921ADDAA106000091GF108991051081008001021021MA1999999099361MD1999999+0141REMSYN070AAXX  17184 82678 32596 80503 10301 20237 39936 40092 85822 333 58014;EQDQ01  00002PRCP06
0215826780999992004011800004-06767-043017FM-12+013899999V0209999C000010075019N0040001N1+02421+02391101421ADDAY161061AY231061GF108991081051008001999999KA1240M+03071MA1999999099831MD1999999+0341REMSYN100AAXX  18004 82678 21596 80000 10242 20239 39983 40142 76663 885// 333 10307 29089 55011 58034 60611;EQDQ01+000662PRSWM1
0190826780999992004011812004-06767-043017FM-12+013899999V0203601N000510075019N0040001N1+02441+02271101511ADDAY161061AY221061GF108991081051008001999999KA1240N+02221MA1999999099911MD1999999+0101MW1031REMSYN088AAXX  18124 82678 21596 83601 10244 20227 39991 40151 70362 885// 333 20222 58010 60704;
0212826780999992004011900004-06767-043017FM-12+013899999V0200501N001012200019N0002001N1+02501+02341101411ADDAY121061AY261061GA1001+999999999GF100991001001999999001001KA1240M+02841MA1999999099821MD1999999-0011MW1021REMSYN094AAXX  19004 82678 21592 00502 10250 20234 39982 40141 70226 333 10284 29089 55000 59001 69931;
0162826780999992004011912004-06767-043017FM-12+013899999V0203601N001012200019N0040001N1+02821+02461101401ADDGF105991031031008001001011KA1240N+02321MA1999999099821MD1999999-0091REMSYN082AAXX  19124 82678 22596 53602 10282 20246 39982 40140 83301 333 20232 59009 69934;
0171826780999992004011918004-06767-043017FM-12+013899999V0209999C000010075019N0040001N1+02541+02381101061ADDAY161061AY211061GF108991081041008001999999MA1999999099471MD1999999-0201MW1021REMSYN082AAXX  19184 82678 21596 80000 10254 20238 39947 40106 70261 884// 333 59020 60251;
0198826780999992004012000004-06767-043017FM-12+013899999V0209999C000012200019N0002001N1+02481+02391101201ADDAA106000091GF103991021051008001001011KA1240M+03121MA1999999099621MD1999999-0201REMSYN088AAXX  20004 82678 32592 30000 10248 20239 39962 40120 82501 333 10312 29090 55045 59020;EQDQ01  00002PRCP06
0190826780999992004012012004-06767-043017FM-12+013899999V0200901N001010075019N0040001N1+02251+00211101491ADDAY161061AY261061GF108991061041008001021999KA1240N+02141MA1999999099891MD1999999+0071MW1511REMSYN088AAXX  20124 82678 21596 80902 10225 20021 39989 40149 75166 8642/ 333 20214 58007 60294;
0162826780999992004012018004-06767-043017FM-12+013899999V0200501N001510450019N0040001N1+02781+02342101141ADDGF108991041081008001031021MA1999999099561MD1999999+0091REMSYN076AAXX  20184 82678 22596 80503 10278 20234 39956 40114 84832 333 58009 69911;EQDQ01+002343ATOD  
0198826780999992004012100004-06767-043017FM-12+013899999V0209999C000010075019N0002001N1+02621+02441101271ADDAA106000091GF108991081041008001999999KA1240M+02951MA1999999099681MD1999999+0061REMSYN088AAXX  21004 82678 32592 80000 10262 20244 39968 40127 884// 333 10295 29088 55020 58006;EQDQ01  00002PRCP06
0190826780999992004012112004-06767-043017FM-12+013899999V0200501N001010075019N0040001N1+02331+02271101471ADDAY161061AY261061GF108991081041008001999999KA1240N+02201MA1999999099861MD1999999-0011MW1611REMSYN088AAXX  21124 82678 21596 80502 10233 20227 39986 40147 76166 884// 333 20220 59001 60284;
0171826780999992004012118004-06767-043017FM-12+013899999V0203601N000510075019N0040001N1+02691+02461101091ADDAY161061AY261061GF108991061041008001021999MA1999999099511MD1999999-0051MW1021REMSYN082AAXX  21184 82678 21596 83601 10269 20246 39951 40109 70266 8642/ 333 59005 60091;
0198826780999992004012200004-06767-043017FM-12+013899999V0200901N000510075019N0002001N1+02561+02461101281ADDAA106000091GF108991051041008001011999KA1240M+02811MA1999999099691MD1999999+0011REMSYN088AAXX  22004 82678 32592 80901 10256 20246 39969 40128 8541/ 333 10281 29093 55000 58001;EQDQ01  00002PRCP06
0162826780999992004012212004-06767-043017FM-12+013899999V0203601N001010075019N0040001N1+02561+02311101311ADDGF108991051041008001021999KA1240N+02281MA1999999099721MD1999999-0161REMSYN082AAXX  22124 82678 22596 83602 10256 20231 39972 40131 8542/ 333 20228 59016 60094;
0190826780999992004012312004-06767-043017FM-12+013899999V0202301N001510075019N0040001N1+02401+02301101371ADDAY161061AY261061GF108991081051008001999999KA1240N+02141MA1999999099781MD1999999+0061MW1611REMSYN088AAXX  23124 82678 21596 82303 10240 20230 39978 40137 76166 885// 333 20214 58006 60704;
0171826780999992004012318004-06767-043017FM-12+013899999V0209999C000010075019N0040001N1+02521+02191101131ADDAY161061AY221061GF108991081071008001999999MA1999999099531MD1999999+0181MW1021REMSYN082AAXX  23184 82678 21596 80000 10252 20219 39953 40113 70262 887// 333 58018 69921;
0198826780999992004012400004-06767-043017FM-12+013899999V0209999C000010450019N0002001N1+02421+02281101401ADDAA106000091GF108991031041008001011999KA1240M+02711MA1999999099801MD1999999+0271REMSYN088AAXX  24004 82678 32592 80000 10242 20228 39980 40140 8341/ 333 10271 29090 55000 58027;EQDQ01  00002PRCP06
0162826780999992004012412004-06767-043017FM-12+013899999V0209999C000010075019N0040001N1+02581+02311101471ADDGF108991051031008001001021KA1240N+02281MA1999999099881MD1999999+0101REMSYN082AAXX  24124 82678 22596 80000 10258 20231 39988 40147 85302 333 20228 58010 69924;
0171826780999992004012418004-06767-043017FM-12+013899999V0201401N001510075019N0040001N1+02541+02331101211ADDAY161061AY211061GF108991081051008001999999MA1999999099621MD1999999+0091MW1611REMSYN082AAXX  24184 82678 21596 81403 10254 20233 39962 40121 76161 885// 333 58009 60091;
0202826780999992004012500004-06767-043017FM-12+013899999V0209999C000010075019N0002001N1+02541+02441101371ADDAY161061AY221061GF108991061051008001021999KA1240M+02981MA1999999099781MD1999999-0021MW1031REMSYN100AAXX  25004 82678 21592 80000 10254 20244 39978 40137 70362 8652/ 333 10298 29090 55030 59002 69931;
0190826780999992004012512004-06767-043017FM-12+013899999V0202301N001010075019N0040001N1+02431+02211101591ADDAY121061AY261061GF108991081041008001999999KA1240N+02231MA1999999100001MD1999999+0121MW1021REMSYN088AAXX  25124 82678 21596 82302 10243 20221 30000 40159 70226 884// 333 20223 58012 60154;
0167826780999992004012518004-06767-043017FM-12+013899999V0203201N001010450019N0040001N1+03071+02171101021ADDAA106000091GF108991041081008001031021MA1999999099451MD1999999-0171REMSYN070AAXX  25184 82678 32596 83202 10307 20217 39945 40102 84832 333 59017;EQDQ01  00002PRCP06
0198826780999992004012600004-06767-043017FM-12+013899999V0200901N001512200019N0002001N1+02681+02391101301ADDAA106000091GF104991021041008001011001KA1240M+03161MA1999999099711MD1999999-0071REMSYN088AAXX  26004 82678 32592 40903 10268 20239 39971 40130 82410 333 10316 29079 55031 59007;EQDQ01  00002PRCP06
0186826780999992004012612004-06767-043017FM-12+013899999V0200501N000510120019N0040001N1+02641+02331101421ADDAA106000091GF108991061081008001031021KA1240N+02331MA1999999099841MD1999999-0161REMSYN076AAXX  26124 82678 32596 80501 10264 20233 39984 40142 86832 333 20233 59016;EQDQ01  00002PRCP06
0167826780999992004012618004-06767-043017FM-12+013899999V0201401N001510120019N0040001N1+03201+02181100971ADDAA106000091GF108991051081008001021021MA1999999099411MD1999999-0041REMSYN070AAXX  26184 82678 32596 81403 10320 20218 39941 40097 85822 333 59004;EQDQ01  00002PRCP06
0198826780999992004012700004-06767-043017FM-12+013899999V0200901N000512200019N0002001N1+02561+02361101281ADDAA106000091GF103991011031008001031011KA1240M+03261MA1999999099701MD1999999-0011REMSYN088AAXX  27004 82678 32592 30901 10256 20236 39970 40128 81331 333 10326 29079 55057 59001;EQDQ01  00002PRCP06
0190826780999992004012712004-06767-043017FM-12+013899999V0202301N001510075019N0040001N1+02601+02311101531ADDAY161061AY221061GF108991051031008001021011KA1240N+02341MA1999999099931MD1999999+0091MW1031REMSYN088AAXX  27124 82678 21596 82303 10260 20231 39993 40153 70362 85321 333 20234 58009 60034;
0167826780999992004012718004-06767-043017FM-12+013899999V0200501N002110075019N0040001N1+02501+02311101261ADDAA106000091GF108991081041008001999999MA1999999099671MD1999999+0261REMSYN070AAXX  27184 82678 32596 80504 10250 20231 39967 40126 884// 333 58026;EQDQ01  00002PRCP06
0198826780999992004012800004-06767-043017FM-12+013899999V0209999C000012200019N0002001N1+02401+02311101441ADDAA106000091GF105991031031008001001011KA1240M+02751MA1999999099851MD1999999+0151REMSYN088AAXX  28004 82678 32592 50000 10240 20231 39985 40144 83301 333 10275 29091 55001 58015;EQDQ01  00002PRCP06
0162826780999992004012812004-06767-043017FM-12+013899999V0200501N001510120019N0040001N1+02621+02311101591ADDGF108991051081008001021021KA1240N+02281MA1999999100011MD1999999+0081REMSYN082AAXX  28124 82678 22596 80503 10262 20231 30001 40159 85822 333 20228 58008 69914;
0171826780999992004012818004-06767-043017FM-12+013899999V0201401N001010075019N0040001N1+03021+02241101131ADDAY161061AY221061GF108991051031008001011021MA1999999099561MD1999999-0111MW1021REMSYN082AAXX  28184 82678 21596 81402 10302 20224 39956 40113 70262 85312 333 59011 60021;
0198826780999992004012900004-06767-043017FM-12+013899999V0202301N001010450019N0002001N1+02631+02411101311ADDAA106000091GF108991021031008001011011KA1240M+03151MA1999999099731MD1999999-0121REMSYN088AAXX  29004 82678 32592 82302 10263 20241 39973 40131 82311 333 10315 29080 55040 59012;EQDQ01  00002PRCP06
0190826780999992004012912004-06767-043017FM-12+013899999V0202301N001510075019N0040001N1+02261+02211101581ADDAY161061AY261061GF108991081071008001999999KA1240N+02071MA1999999099981MD1999999-0031MW1511REMSYN088AAXX  29124 82678 21596 82303 10226 20221 39998 40158 75166 887// 333 20207 59003 60754;
0148826780999992004012918004-06767-043017FM-12+013899999V0203201N001510450019N0040001N1+02901+02221101101ADDAA106000021GF108991041081008001021021MA1999999099531MD1999999-0031REMSYN070AAXX  29184 82678 32596 83203 10290 20222 39953 40110 84822 333 59003;
0202826780999992004013000004-06767-043017FM-12+013899999V0200501N000510075019N0002001N1+02201+02151101521ADDAY191061AY221061GF108991081071008001999999KA1240M+03031MA1999999099911MD1999999+0181MW1611REMSYN100AAXX  30004 82678 21592 80501 10220 20215 39991 40152 76192 887// 333 10303 29090 55030 58018 60391;
0190826780999992004013012004-06767-043017FM-12+013899999V0209999C000010075019N0040001N1+02501+02291101581ADDAY161061AY211061GF108991081071008001999999KA1240N+02141MA1999999099981MD1999999+0001MW1611REMSYN088AAXX  30124 82678 21596 80000 10250 20229 39998 40158 76161 887// 333 20214 58000 60454;
0148826780999992004013018004-06767-043017FM-12+013899999V0209999C000012200019N0040001N1+03081+02231101101ADDAA106000021GF104991021081008001021011MA1999999099521MD1999999-0011REMSYN070AAXX  30184 82678 32596 40000 10308 20223 39952 40110 82821 333 59001;
0202826780999992004013100004-06767-043017FM-12+013899999V0209999C000010075019N0002001N1+02481+02391101411ADDAY161061AY211061GF108991081071008001999999KA1240M+03171MA1999999099821MD1999999-0091MW1021REMSYN100AAXX  31004 82678 21592 80000 10248 20239 39982 40141 70261 887// 333 10317 29084 55048 59009 60011;
0190826780999992004013112004-06767-043017FM-12+013899999V0202701N001010075019N0040001N1+02481+02301101671ADDAY161061AY261061GF108991051051008001021999KA1240N+02221MA1999999100071MD1999999+0091MW1511REMSYN088AAXX  31124 82678 21596 82702 10248 20230 30007 40167 75166 8552/ 333 20222 58009 60264;
0148826780999992004013118004-06767-043017FM-12+013899999V0202301N001510075019N0040001N1+02841+02351101321ADDAA106000021GF108991051071008001021021MA1999999099741MD1999999+0221REMSYN070AAXX  31184 82678 32596 82303 10284 20235 39974 40132 85722 333 58022;
0198826780999992004020100004-06767-043017FM-12+013899999V0209999C000010450019N0040001N1+02561+02401101481ADDAA106000091GF105991031051008001031021KA1240M+02951MA1999999099891MD1999999+0021REMSYN088AAXX  01004 82678 32596 50000 10256 20240 39989 40148 83532 333 10295 29087 55042 58002;EQDQ01  00002PRCP06
0186826780999992004020112004-06767-043017FM-12+013899999V0200901N002610075019N0040001N1+02661+02221101631ADDAA106000091GF108991081051008001999999KA1240N+02211MA1999999100041MD1999999-0031REMSYN076AAXX  01124 82678 32596 80905 10266 20222 30004 40163 885// 333 20221 59003;EQDQ01  00002PRCP06
0206826780999992004020118004-06767-043017FM-12+013899999V0200901N002610075019N0200001N1+02521+02431101181ADDAY161061AY211061GF108991051021008001061001MA1999999999999MD1999999+0091MW1031REMSYN082AAXX  01184 82678 21598 80905 10252 20243 39665 40118 70361 85260 333 58009 69961;EQDQ01+096653APOSP Q02 096653APOSP 
0198826780999992004020200004-06767-043017FM-12+013899999V0209999C000010450019N0002001N1+02471+02341101461ADDAA106000091GF108991041041008001021021KA1240M+02911MA1999999099871MD1999999-0021REMSYN088AAXX  02004 82678 32592 80000 10247 20234 39987 40146 84422 333 10291 29090 55018 59002;EQDQ01  00002PRCP06
0162826780999992004020212004-06767-043017FM-12+013899999V0200501N002110075019N0040001N1+02681+02351101521ADDGF108991051021008001031011KA1240N+02311MA1999999099931MD1999999-0111REMSYN082AAXX  02124 82678 22596 80504 10268 20235 39993 40152 85231 333 20231 59011 60014;
0167826780999992004020218004-06767-043017FM-12+013899999V0200501N001510450019N0040001N1+03251+02191101001ADDAA106000091GF106991031021008001021011MA1999999099431MD1999999-0261REMSYN070AAXX  02184 82678 32596 60503 10325 20219 39943 40100 83221 333 59026;EQDQ01  00002PRCP06
0202826780999992004020300004-06767-043017FM-12+013899999V0201401N001510075019N0002001N1+02521+02381101341ADDAY121061AY221061GF108991061071008001021999KA1240M+03351MA1999999099761MD1999999-0111MW1601REMSYN100AAXX  03004 82678 21592 81403 10252 20238 39976 40134 76022 8672/ 333 10335 29080 55080 59011 60031;
0190826780999992004020312004-06767-043017FM-12+013899999V0200901N001510075019N0040001N1+02521+02291101521ADDAY161061AY211061GF108991081051008001999999KA1240N+02311MA1999999099931MD1999999+0001MW1031REMSYN088AAXX  03124 82678 21596 80903 10252 20229 39993 40152 70361 885// 333 20231 58000 60104;
0171826780999992004020318004-06767-043017FM-12+013899999V0209999C000010450019N0040001N1+03061+02381101021ADDAY161061AY211061GF108991041021008001031011MA1999999099451MD1999999+0021MW1021REMSYN082AAXX  03184 82678 21596 80000 10306 20238 39945 40102 70261 84231 333 58002 69911;
0198826780999992004020400004-06767-043017FM-12+013899999V0209999C000012200019N0002001N1+02601+02291101271ADDAA106000091GF104991021021008001001021KA1240M+03131MA1999999099681MD1999999-0081REMSYN088AAXX  04004 82678 32592 40000 10260 20229 39968 40127 82202 333 10313 29080 55035 59008;EQDQ01  00002PRCP06
0162826780999992004020412004-06767-043017FM-12+013899999V0200901N001510075019N0040001N1+02561+02351101521ADDGF108991081071008001999999KA1240N+02361MA1999999099931MD1999999+0001REMSYN082AAXX  04124 82678 22596 80903 10256 20235 39993 40152 887// 333 20236 58000 69914;
0167826780999992004020418004-06767-043017FM-12+013899999V0200901N003110450019N0040001N1+03101+02231101031ADDAA106000091GF108991041081008001031021MA1999999099461MD1999999+0011REMSYN070AAXX  04184 82678 32596 80906 10310 20223 39946 40103 84832 333 58001;EQDQ01  00002PRCP06
0214826780999992004020500004-06767-043017FM-12+013899999V0209999C000019999999N0002001N1+02491+02251101321ADDAA106000091GF108991999021017501001001KA1240M+03171MA1999999099731MD1999999+0051REMSYN088AAXX  05004 82678 32792 80000 10249 20225 39973 40132 84200 333 10317 29080 55035 58005;EQDQ01+000042SCOTLCQ02  00002PRCP06
0190826780999992004020512004-06767-043017FM-12+013899999V0202701N001010075019N0040001N1+02521+02311101521ADDAY121061AY221061GF108991051071008001021021KA1240N+02321MA1999999099931MD1999999+0001MW1501REMSYN088AAXX  05124 82678 21596 82702 10252 20231 39993 40152 75022 85722 333 20232 58000 69914;
0148826780999992004020518004-06767-043017FM-12+013899999V0202301N001510450019N0040001N1+02901+02301101071ADDAA106000021GF108991041081008001021021MA1999999099491MD1999999+0031REMSYN070AAXX  05184 82678 32596 82303 10290 20230 39949 40107 84822 333 58003;
0198826780999992004020600004-06767-043017FM-12+013899999V0200501N002110450019N0002001N1+02451+02321101261ADDAA106000091GF108991041041008001031021KA1240M+02991MA1999999099671MD1999999-0061REMSYN088AAXX  06004 82678 32592 80504 10245 20232 39967 40126 84432 333 10299 29086 55012 59006;EQDQ01  00002PRCP06
0186826780999992004020612004-06767-043017FM-12+013899999V0209999C000010075019N0040001N1+02501+02271101351ADDAA106000091GF108991081051008001999999KA1240N+02281MA1999999099761MD1999999-0171REMSYN076AAXX  06124 82678 32596 80000 10250 20227 39976 40135 885// 333 20228 59017;EQDQ01  00002PRCP06
0167826780999992004020618004-06767-043017FM-12+013899999V0209999C000010450019N0040001N1+03021+02211100821ADDAA106000091GF108991041051008001021011MA1999999099251MD1999999-0241REMSYN070AAXX  06184 82678 32596 80000 10302 20221 39925 40082 84521 333 59024;EQDQ01  00002PRCP06
0198826780999992004020700004-06767-043017FM-12+013899999V0200501N000510450019N0002001N1+02641+02441101171ADDAA106000091GF106991031041008001021011KA1240M+03221MA1999999099591MD1999999-0081REMSYN088AAXX  07004 82678 32592 60501 10264 20244 39959 40117 83421 333 10322 29082 55039 59008;EQDQ01  00002PRCP06
0190826780999992004020712004-06767-043017FM-12+013899999V0203601N002110075019N0040001N1+02461+02301101411ADDAY161061AY211061GF108991081071008001999999KA1240N+02261MA1999999099821MD1999999+0061MW1511REMSYN088AAXX  07124 82678 21596 83604 10246 20230 39982 40141 75161 887// 333 20226 58006 60094;
0148826780999992004020718004-06767-043017FM-12+013899999V0203601N001510075019N0040001N1+02921+02411101031ADDAA106000021GF108991081051008001999999MA1999999099451MD1999999+0201REMSYN070AAXX  07184 82678 32596 83603 10292 20241 39945 40103 885// 333 58020;
0198826780999992004020800004-06767-043017FM-12+013899999V0209999C000010450019N0040001N1+02621+02461101381ADDAA106000091GF108991031041008001021001KA1240M+03331MA1999999099791MD1999999+0201REMSYN088AAXX  08004 82678 32596 80000 10262 20246 39979 40138 83420 333 10333 29087 55022 58020;EQDQ01  00002PRCP06
0190826780999992004020812004-06767-043017FM-12+013899999V0209999C000010075019N0040001N1+02421+02251101391ADDAY161061AY221061GF108991081061008001001001KA1240N+02221MA1999999099801MD1999999-0021MW1601REMSYN088AAXX  08124 82678 21596 80000 10242 20225 39980 40139 76062 88600 333 20222 59002 60094;
0171826780999992004020818004-06767-043017FM-12+013899999V0200901N001010075019N0040001N1+02741+02401101131ADDAY161061AY221061GF107991071051008001001001MA1999999099551MD1999999+0101MW1021REMSYN082AAXX  08184 82678 21596 70902 10274 20240 39955 40113 70262 87500 333 58010 60031;
0202826780999992004020900004-06767-043017FM-12+013899999V0200901N000510075019N0002001N1+02381+02291101371ADDAY161061AY221061GF108991061051008001021001KA1240M+03091MA1999999099771MD1999999-0021MW1031REMSYN100AAXX  09004 82678 21592 80901 10238 20229 39977 40137 70362 86520 333 10309 29091 55020 59002 60081;
0190826780999992004020912004-06767-043017FM-12+013899999V0203601N000510075019N0040001N1+02501+02291101601ADDAY161061AY221061GF108991081051008001999999KA1240N+02201MA1999999100001MD1999999+0201MW1031REMSYN088AAXX  09124 82678 21596 83601 10250 20229 30000 40160 70362 885// 333 20220 58020 60114;
0167826780999992004020918004-06767-043017FM-12+013899999V0200501N001010450019N0040001N1+03041+02331101141ADDAA106000091GF107991041051008001071021MA1999999099571MD1999999+0021REMSYN070AAXX  09184 82678 32596 70502 10304 20233 39957 40114 84572 333 58002;EQDQ01  00002PRCP06
0202826780999992004021000004-06767-043017FM-12+013899999V0203601N000510075019N0002001N1+02421+02331101271ADDAY161061AY221061GF106991061051008001001001KA1240M+03091MA1999999099681MD1999999-0091MW1011REMSYN100AAXX  10004 82678 21592 63601 10242 20233 39968 40127 70162 86500 333 10309 29086 55016 59009 60021;
0162826780999992004021012004-06767-043017FM-12+013899999V0209999C000010450019N0040001N1+02521+02311101521ADDGF108991041051008001021011KA1240N+02221MA1999999099921MD1999999-0081REMSYN082AAXX  10124 82678 22596 80000 10252 20231 39992 40152 84521 333 20222 59008 60024;
0167826780999992004021018004-06767-043017FM-12+013899999V0201401N000512200019N0040001N1+03141+02241101081ADDAA106000091GF105991031021008001001011MA1999999099511MD1999999-0061REMSYN070AAXX  10184 82678 32596 51401 10314 20224 39951 40108 83201 333 59006;EQDQ01  00002PRCP06
0208826780999992004021100004-06767-043017FM-12+013899999V0209999C000012200019N0002001N1+02661+02431101291ADDAA106000091GA1001+999999999GF100991001001999999001001KA1240M+03231MA1999999099711MD1999999+0031REMSYN082AAXX  11004 82678 32992 00000 10266 20243 39971 40129 333 10323 29080 55071 58003;EQDQ01  00002PRCP06
0190826780999992004021112004-06767-043017FM-12+013899999V0200901N001012200019N0040001N1+02841+02261101391ADDAY161061AY221061GF104991021011008001001011KA1240N+02301MA1999999099821MD1999999+0101MW1031REMSYN088AAXX  11124 82678 21596 40902 10284 20226 39982 40139 70362 82101 333 20230 58010 60014;
0167826780999992004021118004-06767-043017FM-12+013899999V0201401N001512200019N0040001N1+03301+02241101091ADDAA106000091GF105991041021008001001011MA1999999099531MD1999999+0021REMSYN070AAXX  11184 82678 32596 51403 10330 20224 39953 40109 84201 333 58002;EQDQ01  00002PRCP06
0208826780999992004021200004-06767-043017FM-12+013899999V0200901N001512200019N0002001N1+02741+02051101301ADDAA106000091GA1001+999999999GF100991001001999999001001KA1240M+03331MA1999999099731MD1999999+0021REMSYN082AAXX  12004 82678 32992 00903 10274 20205 39973 40130 333 10333 29064 55111 58002;EQDQ01  00002PRCP06
0196826780999992004021212004-06767-043017FM-12+013899999V0201401N001012200019N0040001N1+02701+02111101411ADDAA106000091GA1001+999999999GF100991001001999999001001KA1240N+02121MA1999999099831MD1999999+0011REMSYN070AAXX  12124 82678 32996 01402 10270 20211 39983 40141 333 20212 58001;EQDQ01  00002PRCP06
0167826780999992004021218004-06767-043017FM-12+013899999V0200901N001510075019N0040001N1+03221+02051101221ADDAA106000091GF106991061051008001001001MA1999999099651MD1999999+0121REMSYN070AAXX  12184 82678 32596 60903 10322 20205 39965 40122 86500 333 58012;EQDQ01  00002PRCP06
0198826780999992004021300004-06767-043017FM-12+013899999V0201401N001012200019N0002001N1+02861+02261101271ADDAA106000091GF104991041001017501031001KA1240M+03291MA1999999099701MD1999999-0031REMSYN088AAXX  13004 82678 32792 41402 10286 20226 39970 40127 84030 333 10329 29065 55110 59003;EQDQ01  00002PRCP06
0186826780999992004021312004-06767-043017FM-12+013899999V0201401N002612200019N0040001N1+02841+02261101431ADDAA106000091GF103991011011008001031021KA1240N+02321MA1999999099861MD1999999+0031REMSYN076AAXX  13124 82678 32596 31405 10284 20226 39986 40143 81132 333 20232 58003;EQDQ01  00002PRCP06
0167826780999992004021318004-06767-043017FM-12+013899999V0200901N003110450019N0040001N1+03201+02241101151ADDAA106000091GF105991031051008001031011MA1999999099591MD1999999-0061REMSYN070AAXX  13184 82678 32596 50906 10320 20224 39959 40115 83531 333 59006;EQDQ01  00002PRCP06
0208826780999992004021400004-06767-043017FM-12+013899999V0209999C000012200019N0002001N1+02701+02371101281ADDAA106000091GA1001+999999999GF100991001001999999001001KA1240M+03261MA1999999099711MD1999999+0011REMSYN082AAXX  14004 82678 32992 00000 10270 20237 39971 40128 333 10326 29073 55112 58001;EQDQ01  00002PRCP06
0196826780999992004021412004-06767-043017FM-12+013899999V0200901N002612200019N0040001N1+02821+02071101481ADDAA106000091GA1001+999999999GF100991001001999999001001KA1240N+02411MA1999999099901MD1999999+0041REMSYN070AAXX  14124 82678 32996 00905 10282 20207 39990 40148 333 20241 58004;EQDQ01  00002PRCP06
0167826780999992004021418004-06767-043017FM-12+013899999V0201401N001512200019N0040001N1+03281+02201101051ADDAA106000091GF105991031021008001001011MA1999999099501MD1999999-0091REMSYN070AAXX  14184 82678 32596 51403 10328 20220 39950 40105 83201 333 59009;EQDQ01  00002PRCP06
0198826780999992004021500004-06767-043017FM-12+013899999V0200901N001012200019N0002001N1+02661+02431101191ADDAA106000091GF103991031021008001001011KA1240M+03331MA1999999099621MD1999999-0091REMSYN088AAXX  15004 82678 32592 30902 10266 20243 39962 40119 83201 333 10333 29073 55112 59009;EQDQ01  00002PRCP06
0209826780999992004021512004-06767-043017FM-12+013899999V0202701N001010075019N0040001N1+02721+02391101491ADDAY161061AY221061GF108991999031008001001001KA1240N+02381MA1999999099911MD1999999-0011MW1021REMSYN088AAXX  15124 82678 21596 82702 10272 20239 39991 40149 70262 85300 333 20238 59001 60034;EQDQ01+000052SCOTLC
0183826780999992004021518004-06767-043017FM-12+013899999V0200501N002110075019N0040001N1+03101+02491101091ADDAA106000091GF108991999021008001001001MA1999999099521MD1999999+0021REMSYN070AAXX  15184 82678 32596 80504 10310 20249 39952 40109 85200 333 58002;EQDQ01+000052SCOTLCQ02  00002PRCP06
0202826780999992004021600004-06767-043017FM-12+013899999V0209999C000012200019N0002001N1+02561+02421101361ADDAY161061AY221061GF104991021051008001021011KA1240M+03251MA1999999099781MD1999999-0121MW1021REMSYN100AAXX  16004 82678 21592 40000 10256 20242 39978 40136 70262 82521 333 10325 29084 55083 59012 60071;
0190826780999992004021612004-06767-043017FM-12+013899999V0200901N001010075019N0040001N1+02561+02361101551ADDAY161061AY221061GF108991061051008001021999KA1240N+02281MA1999999099961MD1999999+0051MW1021REMSYN088AAXX  16124 82678 21596 80902 10256 20236 39996 40155 70262 8652/ 333 20228 58005 60354;
0167826780999992004021618004-06767-043017FM-12+013899999V0203601N001510450019N0040001N1+03021+02241101021ADDAA106000091GF107991041051008001031021MA1999999099451MD1999999-0071REMSYN070AAXX  16184 82678 32596 73603 10302 20224 39945 40102 84532 333 59007;EQDQ01  00002PRCP06
0202826780999992004021700004-06767-043017FM-12+013899999V0209999C000010450019N0002001N1+02561+02421101341ADDAY161061AY221061GF105991031051008001031001KA1240M+03091MA1999999099751MD1999999-0031MW1021REMSYN100AAXX  17004 82678 21592 50000 10256 20242 39975 40134 70262 83530 333 10309 29084 55020 59003 60031;
0190826780999992004021712004-06767-043017FM-12+013899999V0202701N000510075019N0040001N1+02521+02311101461ADDAY161061AY221061GF107991061051008001001021KA1240N+02261MA1999999099871MD1999999-0091MW1021REMSYN088AAXX  17124 82678 21596 72701 10252 20231 39987 40146 70262 86502 333 20226 59009 60214;
0167826780999992004021718004-06767-043017FM-12+013899999V0202701N001510075019N0040001N1+03161+02321101221ADDAA106000091GF105991051051008001001001MA1999999099641MD1999999+0191REMSYN070AAXX  17184 82678 32596 52703 10316 20232 39964 40122 85500 333 58019;EQDQ01  00002PRCP06
0202826780999992004021800004-06767-043017FM-12+013899999V0209999C000010075019N0002001N1+02541+02441101331ADDAY161061AY221061GF106991061051008001001001KA1240M+03291MA1999999099741MD1999999-0011MW1021REMSYN100AAXX  18004 82678 21592 60000 10254 20244 39974 40133 70262 86500 333 10329 29084 55073 59001 60051;
0162826780999992004021812004-06767-043017FM-12+013899999V0200901N001012200019N0040001N1+02841+02401101561ADDGF103991021011008001001011KA1240N+02321MA1999999099971MD1999999+0101REMSYN082AAXX  18124 82678 22596 30902 10284 20240 39997 40156 82101 333 20232 58010 60054;
0167826780999992004021818004-06767-043017FM-12+013899999V0200501N001512200019N0040001N1+03301+02331101031ADDAA106000091GF104991021021008001001011MA1999999099471MD1999999-0171REMSYN070AAXX  18184 82678 32596 40503 10330 20233 39947 40103 82201 333 59017;EQDQ01  00002PRCP06
0186826780999992004021912004-06767-043017FM-12+013899999V0203601N000512200019N0040001N1+02781+02381101381ADDAA106000091GF103991021011008001001011KA1240N+02311MA1999999099771MD1999999-0201REMSYN076AAXX  19124 82678 32596 33601 10278 20238 39977 40138 82101 333 20231 59020;EQDQ01  00002PRCP06
0167826780999992004021918004-06767-043017FM-12+013899999V0200901N001512200019N0040001N1+03281+02261100971ADDAA106000091GF104991031021008001001011MA1999999099411MD1999999-0061REMSYN070AAXX  19184 82678 32596 40903 10328 20226 39941 40097 83201 333 59006;EQDQ01  00002PRCP06
0208826780999992004022000004-06767-043017FM-12+013899999V0209999C000012200019N0002001N1+02761+02401101091ADDAA106000091GA1001+999999999GF100991001001999999001001KA1240M+03361MA1999999099521MD1999999-0111REMSYN082AAXX  20004 82678 32992 00000 10276 20240 39952 40109 333 10336 29074 55096 59011;EQDQ01  00002PRCP06
0190826780999992004022012004-06767-043017FM-12+013899999V0200501N000510450019N0040001N1+02701+02301101241ADDAY161061AY221061GF107991041051008001071001KA1240N+02301MA1999999099671MD1999999-0101MW1021REMSYN088AAXX  20124 82678 21596 70501 10270 20230 39967 40124 70262 84570 333 20230 59010 69954;
0167826780999992004022018004-06767-043017FM-12+013899999V0203601N001510450019N0040001N1+03221+02201100971ADDAA106000091GF105991041021008001031001MA1999999099411MD1999999+0001REMSYN070AAXX  20184 82678 32596 53603 10322 20220 39941 40097 84230 333 58000;EQDQ01  00002PRCP06
0208826780999992004022100004-06767-043017FM-12+013899999V0209999C000012200019N0002001N1+02701+02461101031ADDAA106000091GA1001+999999999GF100991001001999999001001KA1240M+03291MA1999999099461MD1999999-0061REMSYN082AAXX  21004 82678 32992 00000 10270 20246 39946 40103 333 10329 29077 55073 59006;EQDQ01  00002PRCP06
0186826780999992004022112004-06767-043017FM-12+013899999V0200901N000510075019N0040001N1+02701+02461101351ADDAA106000091GF107991071051008001001001KA1240N+02311MA1999999099771MD1999999+0101REMSYN076AAXX  21124 82678 32596 70901 10270 20246 39977 40135 87500 333 20231 58010;EQDQ01  00002PRCP06
0167826780999992004022118004-06767-043017FM-12+013899999V0203601N002610450019N0040001N1+03121+02361101021ADDAA106000091GF106991031051008001071001MA1999999099451MD1999999+0041REMSYN070AAXX  21184 82678 32596 63605 10312 20236 39945 40102 83570 333 58004;EQDQ01  00002PRCP06
0198826780999992004022200004-06767-043017FM-12+013899999V0203601N001010075019N0002001N1+02741+02521101201ADDAA106000091GF107991071051008001001001KA1240M+03181MA1999999099631MD1999999+0171REMSYN088AAXX  22004 82678 32592 73602 10274 20252 39963 40120 87500 333 10318 29082 55059 58017;EQDQ01  00002PRCP06
0192826780999992004022212004-06767-043017FM-12+013899999V0200901N001510075019N0040001N1+02761+02341101491ADDAA106000091GF108991051021008001001021KA1240N+02381MA1999999099911MD1010001+0141REMSYN082AAXX  22124 82678 32596 80903 10276 20234 39991 40149 50000 85202 333 20238 58014;EQDQ01  00002PRCP06
0167826780999992004022218004-06767-043017FM-12+013899999V0203601N001510075019N0040001N1+03141+02481101521ADDAA106000091GF108991051051008001031001MA1999999099591MD1999999+0141REMSYN070AAXX  22184 82678 32596 83603 10314 20248 39959 40152 85530 333 58014;EQDQ01  00002PRCP06
0202826780999992004022300004-06767-043017FM-12+013899999V0209999C000012200019N0002001N1+02701+02501101401ADDAY161061AY211061GF104991031051008001031011KA1240M+03331MA1999999099831MD1999999-0201MW1021REMSYN100AAXX  23004 82678 21592 40000 10270 20250 39983 40140 70261 83531 333 10333 29081 55069 59020 69911;
0208826780999992004022400004-06767-043017FM-12+013899999V0209999C000012200019N0002001N1+02581+02371101341ADDAA106000091GA1001+999999999GF100991001001999999001001KA1240M+03331MA1999999099761MD1999999-0071REMSYN082AAXX  24004 82678 32992 00000 10258 20237 39976 40134 333 10333 29079 55079 59007;EQDQ01  00002PRCP06
0190826780999992004022412004-06767-043017FM-12+013899999V0202701N000510075019N0040001N1+02261+02181101511ADDAY161061AY221061GF108991081051008001999999KA1240N+02101MA1999999099911MD1999999-0141MW1031REMSYN088AAXX  24124 82678 21596 82701 10226 20218 39991 40151 70362 885// 333 20210 59014 60244;
0167826780999992004022418004-06767-043017FM-12+013899999V0203601N001010450019N0040001N1+02961+02311101181ADDAA106000091GF106991031051008001071021MA1999999099601MD1999999+0071REMSYN070AAXX  24184 82678 32596 63602 10296 20231 39960 40118 83572 333 58007;EQDQ01  00002PRCP06
0208826780999992004022500004-06767-043017FM-12+013899999V0209999C000012200019N0040001N1+02601+02461101191ADDAA106000091GA1001+999999999GF100991001001999999001001KA1240M+03071MA1999999099601MD1999999-0161REMSYN082AAXX  25004 82678 32996 00000 10260 20246 39960 40119 333 10307 29087 55018 59016;EQDQ01  00002PRCP06
0186826780999992004022512004-06767-043017FM-12+013899999V0200901N000510450019N0040001N1+02581+02421101411ADDAA106000091GF107991041051008001031021KA1240N+02201MA1999999099831MD1999999-0081REMSYN076AAXX  25124 82678 32596 70901 10258 20242 39983 40141 84532 333 20220 59008;EQDQ01  00002PRCP06
0167826780999992004022518004-06767-043017FM-12+013899999V0201401N003110075019N0040001N1+03081+02291101131ADDAA106000091GF108991051051008001031021MA1999999099561MD1999999-0041REMSYN070AAXX  25184 82678 32596 81406 10308 20229 39956 40113 85532 333 59004;EQDQ01  00002PRCP06
0198826780999992004022600004-06767-043017FM-12+013899999V0209999C000012200019N0040001N1+02681+02461101241ADDAA106000091GF104991041051008001001001KA1240M+03131MA1999999099661MD1999999+0061REMSYN088AAXX  26004 82678 32596 40000 10268 20246 39966 40124 84500 333 10313 29082 55054 58006;EQDQ01  00002PRCP06
0190826780999992004022612004-06767-043017FM-12+013899999V0202301N000510075019N0040001N1+02701+02301101641ADDAY161061AY221061GF108991051051008001031021KA1240N+02211MA1999999100061MD1999999+0231MW1031REMSYN088AAXX  26124 82678 21596 82301 10270 20230 30006 40164 70362 85532 333 20221 58023 60024;
0167826780999992004022618004-06767-043017FM-12+013899999V0201401N001010450019N0040001N1+03181+02331101201ADDAA106000091GF108991041051008001031001MA1999999099631MD1999999+0071REMSYN070AAXX  26184 82678 32596 81402 10318 20233 39963 40120 84530 333 58007;EQDQ01  00002PRCP06
0202826780999992004022700004-06767-043017FM-12+013899999V0203601N000510075019N0002001N1+02461+02251101721ADDAY161061AY211061GF108991081071008001999999KA1240M+03231MA1999999100131MD1999999+0471MW1611REMSYN100AAXX  27004 82678 21592 83601 10246 20225 30013 40172 76161 887// 333 10323 29079 55054 58047 60161;
0190826780999992004022712004-06767-043017FM-12+013899999V0209999C000010075019N0040001N1+02461+02151101571ADDAY161061AY221061GF108991081051008001999999KA1240N+02311MA1999999099971MD1999999-0091MW1611REMSYN088AAXX  27124 82678 21596 80000 10246 20215 39997 40157 76162 885// 333 20231 59009 60224;
0148826780999992004022718004-06767-043017FM-12+013899999V0201401N001512200019N0040001N1+02941+02291101281ADDAA106000021GF105991031051008001001011MA1999999099691MD1999999+0061REMSYN070AAXX  27184 82678 32596 51403 10294 20229 39969 40128 83501 333 58006;
0198826780999992004022800004-06767-043017FM-12+013899999V0209999C000010450019N0002001N1+02601+02441101341ADDAA106000091GF105991041051008001031001KA1240M+03011MA1999999099751MD1999999-0381REMSYN088AAXX  28004 82678 32592 50000 10260 20244 39975 40134 84530 333 10301 29083 55049 59038;EQDQ01  00002PRCP06
0186826780999992004022812004-06767-043017FM-12+013899999V0200901N000510075019N0040001N1+02701+02371101331ADDAA106000091GF107991061051008001031001KA1240N+02311MA1999999099751MD1999999-0221REMSYN076AAXX  28124 82678 32596 70901 10270 20237 39975 40133 86530 333 20231 59022;EQDQ01  00002PRCP06
0167826780999992004022818004-06767-043017FM-12+013899999V0203601N000512200019N0040001N1+03221+02291100821ADDAA106000091GF104991041051008001001001MA1999999099261MD1999999-0431REMSYN070AAXX  28184 82678 32596 43601 10322 20229 39926 40082 84500 333 59043;EQDQ01  00002PRCP06
0198826780999992004022900004-06767-043017FM-12+013899999V0209999C000010450019N0002001N1+02741+02471101011ADDAA106000091GF105991031051008001031001KA1240M+03311MA1999999099441MD1999999-0311REMSYN088AAXX  29004 82678 32592 50000 10274 20247 39944 40101 83530 333 10331 29078 55087 59031;EQDQ01  00002PRCP06
0190826780999992004022912004-06767-043017FM-12+013899999V0200901N001010075019N0040001N1+02461+02361101471ADDAY161061AY221061GF108991081051008001999999KA1240N+02281MA1999999099881MD1999999+0131MW1031REMSYN088AAXX  29124 82678 21596 80902 10246 20236 39988 40147 70362 885// 333 20228 58013 60194;
0167826780999992004022918004-06767-043017FM-12+013899999V0200901N001010075019N0040001N1+03001+02391101041ADDAA106000091GF107991061051008001001021MA1999999099461MD1999999+0201REMSYN070AAXX  29184 82678 32596 70902 10300 20239 39946 40104 86502 333 58020;EQDQ01  00002PRCP06
0198826780999992004030100004-06767-043017FM-12+013899999V0209999C000010450019N0002001N1+02521+02331101341ADDAA106000091GF105991031051008001031001KA1240M+03121MA1999999099751MD1999999+0311REMSYN088AAXX  01004 82678 32592 50000 10252 20233 39975 40134 83530 333 10312 29086 55044 58031;EQDQ01  00002PRCP06
0186826780999992004030112004-06767-043017FM-12+013899999V0200901N001010075019N0040001N1+02621+02291101461ADDAA106000091GF106991051051008001001021KA1240N+02221MA1999999099871MD1999999-0011REMSYN076AAXX  01124 82678 32596 60902 10262 20229 39987 40146 85502 333 20222 59001;EQDQ01  00002PRCP06
0167826780999992004030118004-06767-043017FM-12+013899999V0201401N001511050019N0040001N1+03221+02261101141ADDAA106000091GF106991041051008001001021MA1999999099571MD1999999+0111REMSYN070AAXX  01184 82678 32596 61403 10322 20226 39957 40114 84502 333 58011;EQDQ01  00002PRCP06
0202826780999992004030200004-06767-043017FM-12+013899999V0209999C000010075019N0002001N1+02621+02461101271ADDAY161061AY221061GF106991061051008001001001KA1240M+03251MA1999999099691MD1999999-0061MW1021REMSYN100AAXX  02004 82678 21592 60000 10262 20246 39969 40127 70262 86500 333 10325 29080 55074 59006 60031;
0162826780999992004030212004-06767-043017FM-12+013899999V0202701N000511050019N0040001N1+02621+02411101341ADDGF106991041051008001001021KA1240N+02281MA1999999099761MD1999999-0111REMSYN082AAXX  02124 82678 22596 62701 10262 20241 39976 40134 84502 333 20228 59011 60034;
0167826780999992004030218004-06767-043017FM-12+013899999V0200901N000510075019N0040001N1+03201+02381101141ADDAA106000091GF108991051051008001031021MA1999999099571MD1999999+0001REMSYN070AAXX  02184 82678 32596 80901 10320 20238 39957 40114 85532 333 58000;EQDQ01  00002PRCP06
0198826780999992004030300004-06767-043017FM-12+013899999V0209999C000012200019N0002001N1+02621+02361101221ADDAA106000091GF103991001001999999001021KA1240M+03281MA1999999099641MD1999999-0051REMSYN088AAXX  03004 82678 32992 30000 10262 20236 39964 40122 80002 333 10328 29082 55049 59005;EQDQ01  00002PRCP06
0186826780999992004030312004-06767-043017FM-12+013899999V0202701N000510450019N0040001N1+02561+02271101491ADDAA106000091GF107991031051008001031021KA1240N+02281MA1999999099901MD1999999+0141REMSYN076AAXX  03124 82678 32596 72701 10256 20227 39990 40149 83532 333 20228 58014;EQDQ01  00002PRCP06
0167826780999992004030318004-06767-043017FM-12+013899999V0200501N000511050019N0040001N1+03281+02451101081ADDAA106000091GF105991021051008001031011MA1999999099511MD1999999-0061REMSYN070AAXX  03184 82678 32596 50501 10328 20245 39951 40108 82531 333 59006;EQDQ01  00002PRCP06
0198826780999992004030400004-06767-043017FM-12+013899999V0209999C000012200019N0002001N1+02721+02371101061ADDAA106000091GF103991031001017501031001KA1240M+03391MA1999999099481MD1999999-0161REMSYN088AAXX  04004 82678 32792 30000 10272 20237 39948 40106 83030 333 10339 29077 55084 59016;EQDQ01  00002PRCP06
0190826780999992004030412004-06767-043017FM-12+013899999V0200501N001010450019N0040001N1+02701+02351101401ADDAY161061AY221061GF107991031011008001071021KA1240N+02261MA1999999099821MD1999999-0081MW1021REMSYN088AAXX  04124 82678 21596 70502 10270 20235 39982 40140 70262 83172 333 20226 59008 60044;
0167826780999992004030418004-06767-043017FM-12+013899999V0201401N001511050019N0040001N1+03241+02311101101ADDAA106000091GF106991031021008001001021MA1999999099531MD1999999+0021REMSYN070AAXX  04184 82678 32596 61403 10324 20231 39953 40110 83202 333 58002;EQDQ01  00002PRCP06
0198826780999992004030500004-06767-043017FM-12+013899999V0209999C000012200019N0002001N1+02641+02421101251ADDAA106000091GF103991021001017501031021KA1240M+03311MA1999999099671MD1999999+0191REMSYN088AAXX  05004 82678 32792 30000 10264 20242 39967 40125 82032 333 10331 29079 55096 58019;EQDQ01  00002PRCP06
0190826780999992004030512004-06767-043017FM-12+013899999V0200501N001010075019N0040001N1+02601+02461101541ADDAY161061AY221061GF108991081051008001999999KA1240N+02361MA1999999099951MD1999999+0131MW1021REMSYN088AAXX  05124 82678 21596 80502 10260 20246 39995 40154 70262 885// 333 20236 58013 60024;
0171826780999992004030518004-06767-043017FM-12+013899999V0200901N001010075019N0040001N1+03121+02481101141ADDAY161061AY221061GF108991051021008001001021MA1999999099571MD1999999+0041MW1021REMSYN082AAXX  05184 82678 21596 80902 10312 20248 39957 40114 70262 85202 333 58004 60031;
0202826780999992004030600004-06767-043017FM-12+013899999V0209999C000010075019N0002001N1+02541+02381101371ADDAY161061AY221061GF108991051051008001001021KA1240M+03261MA1999999099791MD1999999-0121MW1021REMSYN100AAXX  06004 82678 21592 80000 10254 20238 39979 40137 70262 85502 333 10326 29086 55044 59012 69911;
0162826780999992004030612004-06767-043017FM-12+013899999V0201401N002112200019N0040001N1+02781+02271101531ADDGF105991031021008001001011KA1240N+02321MA1999999099901MD1999999+0001REMSYN082AAXX  06124 82678 22596 51404 10278 20227 39990 40153 83201 333 20232 58000 60034;
0167826780999992004030618004-06767-043017FM-12+013899999V0200901N001511050019N0040001N1+03241+02221101121ADDAA106000091GF105991031021008001001021MA1999999099551MD1999999-0021REMSYN070AAXX  06184 82678 32596 50903 10324 20222 39955 40112 83202 333 59002;EQDQ01  00002PRCP06
0198826780999992004030700004-06767-043017FM-12+013899999V0209999C000012200019N0002001N1+02641+02441101281ADDAA106000091GF103991031001017501031001KA1240M+03251MA1999999099701MD1999999-0091REMSYN088AAXX  07004 82678 32792 30000 10264 20244 39970 40128 83030 333 10325 29077 55091 59009;EQDQ01  00002PRCP06
0186826780999992004030712004-06767-043017FM-12+013899999V0201801N000511050019N0040001N1+02741+02321101501ADDAA106000091GF105991031011008001001021KA1240N+02321MA1999999099921MD1999999-0031REMSYN076AAXX  07124 82678 32596 51801 10274 20232 39992 40150 83102 333 20232 59003;EQDQ01  00002PRCP06
0167826780999992004030718004-06767-043017FM-12+013899999V0201401N002610075019N0040001N1+03221+02291101181ADDAA106000091GF105991051021008001001001MA1999999099611MD1999999+0061REMSYN070AAXX  07184 82678 32596 51405 10322 20229 39961 40118 85200 333 58006;EQDQ01  00002PRCP06
0198826780999992004030800004-06767-043017FM-12+013899999V0209999C000012200019N0002001N1+02661+02501101341ADDAA106000091GF103991001001999999001021KA1240M+03251MA1999999099761MD1999999+0061REMSYN088AAXX  08004 82678 32992 30000 10266 20250 39976 40134 80002 333 10325 29080 55105 58006;EQDQ01  00002PRCP06
0186826780999992004030812004-06767-043017FM-12+013899999V0200901N001510450019N0040001N1+02661+02271101601ADDAA106000091GF108991041051008001031021KA1240N+02321MA1999999100021MD1999999+0101REMSYN076AAXX  08124 82678 32596 80903 10266 20227 30002 40160 84532 333 20232 58010;EQDQ01  00002PRCP06
0167826780999992004030818004-06767-043017FM-12+013899999V0201401N003111050019N0040001N1+03141+02101101251ADDAA106000091GF105991021021008001031011MA1999999099671MD1999999+0061REMSYN070AAXX  08184 82678 32596 51406 10314 20210 39967 40125 82231 333 58006;EQDQ01  00002PRCP06
0198826780999992004030900004-06767-043017FM-12+013899999V0209999C000010450019N0002001N1+02581+02331101331ADDAA106000091GF106991031051008001031021KA1240M+03211MA1999999099751MD1999999-0011REMSYN088AAXX  09004 82678 32592 60000 10258 20233 39975 40133 83532 333 10321 29076 55078 59001;EQDQ01  00002PRCP06
0186826780999992004030912004-06767-043017FM-12+013899999V0201401N002110450019N0040001N1+02781+02131101651ADDAA106000091GF105991031051008001031011KA1240N+02261MA1999999100071MD1999999+0051REMSYN076AAXX  09124 82678 32596 51404 10278 20213 30007 40165 83531 333 20226 58005;EQDQ01  00002PRCP06
0167826780999992004030918004-06767-043017FM-12+013899999V0201401N002110450019N0040001N1+03121+02251101371ADDAA106000091GF108991041021008001031011MA1999999099791MD1999999+0121REMSYN070AAXX  09184 82678 32596 81404 10312 20225 39979 40137 84231 333 58012;EQDQ01  00002PRCP06
0202826780999992004031000004-06767-043017FM-12+013899999V0209999C000010075019N0002001N1+02601+02461101511ADDAY161061AY221061GF108991061051008001021999KA1240M+03151MA1999999099931MD1999999+0181MW1021REMSYN100AAXX  10004 82678 21592 80000 10260 20246 39993 40151 70262 8652/ 333 10315 29078 55060 58018 69941;
0162826780999992004031012004-06767-043017FM-12+013899999V0200501N001512200019N0040001N1+02841+02401101651ADDGF103991021021008001001011KA1240N+02351MA1999999100071MD1999999+0001REMSYN082AAXX  10124 82678 22596 30503 10284 20240 30007 40165 82201 333 20235 58000 69944;
0167826780999992004031018004-06767-043017FM-12+013899999V0200901N001012200019N0040001N1+03221+02201101321ADDAA106000091GF104991031021008001001021MA1999999099751MD1999999-0041REMSYN070AAXX  10184 82678 32596 40902 10322 20220 39975 40132 83202 333 59004;EQDQ01  00002PRCP06
0198826780999992004031100004-06767-043017FM-12+013899999V0201401N005110075019N0002001N1+02481+02231101551ADDAA106000091GF108991081051008001999999KA1240M+03241MA1999999099971MD1999999+0041REMSYN088AAXX  11004 82678 32592 81410 10248 20223 39997 40155 885// 333 10324 29076 55068 58004;EQDQ01  00002PRCP06
0190826780999992004031112004-06767-043017FM-12+013899999V0203601N001510075019N0040001N1+02581+02421101451ADDAY161061AY221061GF107991061051008001001021KA1240N+02321MA1999999099861MD1999999-0211MW1021REMSYN088AAXX  11124 82678 21596 73603 10258 20242 39986 40145 70262 86502 333 20232 59021 60044;
0167826780999992004031118004-06767-043017FM-12+013899999V0201401N000510075019N0040001N1+03141+02381101041ADDAA106000091GF108991061051008001001021MA1999999099471MD1999999-0281REMSYN070AAXX  11184 82678 32596 81401 10314 20238 39947 40104 86502 333 59028;EQDQ01  00002PRCP06
0198826780999992004031200004-06767-043017FM-12+013899999V0209999C000019999999N0002001N1+02541+02351101081ADDAA106000091GF105991051051999999001001KA1240M+03251MA1999999099501MD1999999-0471REMSYN088AAXX  12004 82678 32992 50000 10254 20235 39950 40108 85500 333 10325 29083 55039 59047;EQDQ01  00002PRCP06
0186826780999992004031212004-06767-043017FM-12+013899999V0203601N001010450019N0040001N1+02781+02421101321ADDAA106000091GF107991041051008001071011KA1240N+02391MA1999999099741MD1999999-0121REMSYN076AAXX  12124 82678 32596 73602 10278 20242 39974 40132 84571 333 20239 59012;EQDQ01  00002PRCP06
0167826780999992004031218004-06767-043017FM-12+013899999V0203601N001012200019N0040001N1+03301+02391100891ADDAA106000091GF105991031021008001001011MA1999999099331MD1999999-0141REMSYN070AAXX  12184 82678 32596 53602 10330 20239 39933 40089 83201 333 59014;EQDQ01  00002PRCP06
0208826780999992004031300004-06767-043017FM-12+013899999V0200501N001012200019N0002001N1+02661+02431101221ADDAA106000091GA1001+999999999GF100991001001999999001001KA1240M+03451MA1999999099651MD1999999+0151REMSYN082AAXX  13004 82678 32792 00502 10266 20243 39965 40122 333 10345 29078 55090 58015;EQDQ01  00002PRCP06
0186826780999992004031312004-06767-043017FM-12+013899999V0200501N001010075019N0040001N1+02641+02411101431ADDAA106000091GF108991061041008001021999KA1240N+02301MA1999999099851MD1999999+0111REMSYN076AAXX  13124 82678 32596 80502 10264 20241 39985 40143 8642/ 333 20230 58011;EQDQ01  00002PRCP06
0167826780999992004031318004-06767-043017FM-12+013899999V0200901N000510120019N0040001N1+03051+02361101071ADDAA106000091GF108991051081008001021999MA1999999099501MD1999999+0171REMSYN070AAXX  13184 82678 32596 80901 10305 20236 39950 40107 8582/ 333 58017;EQDQ01  00002PRCP06
0198826780999992004031400004-06767-043017FM-12+013899999V0209999C000010150019N0002001N1+02661+02501101281ADDAA106000091GF108991051001017501021011KA1240M+03151MA1999999099701MD1999999+0051REMSYN088AAXX  14004 82678 32792 80000 10266 20250 39970 40128 85021 333 10315 29084 55015 58005;EQDQ01  00002PRCP06
0186826780999992004031412004-06767-043017FM-12+013899999V0200501N001010450019N0002001N1+02761+02201101521ADDAA106000091GF108991041041008001031011KA1240N+02311MA1999999099941MD1999999+0091REMSYN076AAXX  14124 82678 32592 80502 10276 20220 39994 40152 84431 333 20231 58009;EQDQ01  00002PRCP06
0167826780999992004031418004-06767-043017FM-12+013899999V0203601N002110450019N0040001N1+03171+02421101281ADDAA106000091GF106991031021008001021011MA1999999099711MD1999999+0211REMSYN070AAXX  14184 82678 32596 63604 10317 20242 39971 40128 83221 333 58021;EQDQ01  00002PRCP06
0198826780999992004031500004-06767-043017FM-12+013899999V0200901N000512200019N0002001N1+02681+02451101311ADDAA106000091GF103991021001017501031011KA1240M+03291MA1999999099731MD1999999+0031REMSYN088AAXX  15004 82678 32792 30901 10268 20245 39973 40131 82031 333 10329 29079 55082 58003;EQDQ01  00002PRCP06
0186826780999992004031512004-06767-043017FM-12+013899999V0200501N001012200019N0040001N1+02721+02481101351ADDAA106000091GF103991021011008001001011KA1240N+02281MA1999999099771MD1999999-0171REMSYN076AAXX  15124 82678 32596 30502 10272 20248 39977 40135 82101 333 20228 59017;EQDQ01  00002PRCP06
0167826780999992004031518004-06767-043017FM-12+013899999V0203601N001012200019N0040001N1+03381+02221100971ADDAA106000091GF104991031021008001001021MA1999999099411MD1999999-0301REMSYN070AAXX  15184 82678 32596 43602 10338 20222 39941 40097 83202 333 59030;EQDQ01  00002PRCP06
0198826780999992004031600004-06767-043017FM-12+013899999V0209999C000012200019N0002001N1+02601+02291101211ADDAA106000091GF102991011011008001001011KA1240M+03451MA1999999099631MD1999999-0101REMSYN088AAXX  16004 82678 32592 20000 10260 20229 39963 40121 81101 333 10345 29076 55091 59010;EQDQ01  00002PRCP06
0190826780999992004031612004-06767-043017FM-12+013899999V0209999C000011050019N0040001N1+02761+02401101331ADDAY161061AY221061GF105991031021008001001021KA1240N+02301MA1999999099751MD1999999-0021MW1021REMSYN088AAXX  16124 82678 21596 50000 10276 20240 39975 40133 70262 83202 333 20230 59002 60054;
0167826780999992004031618004-06767-043017FM-12+013899999V0200501N001010075019N0040001N1+02961+02511100911ADDAA106000091GF108991051031008001001021MA1999999099341MD1999999-0071REMSYN070AAXX  16184 82678 32596 80502 10296 20251 39934 40091 85302 333 59007;EQDQ01  00002PRCP06
0208826780999992004031700004-06767-043017FM-12+013899999V0209999C000012200019N0002001N1+02641+02421101121ADDAA106000091GA1001+999999999GF100991001001999999001001KA1240M+03231MA1999999099551MD1999999-0031REMSYN082AAXX  17004 82678 32792 00000 10264 20242 39955 40112 333 10323 29084 55045 59003;EQDQ01  00002PRCP06
0190826780999992004031712004-06767-043017FM-12+013899999V0200501N001010450019N0040001N1+02621+02461101181ADDAY161061AY221061GF106991031021008001031001KA1240N+02241MA1999999099601MD1999999-0151MW1021REMSYN088AAXX  17124 82678 21596 60502 10262 20246 39960 40118 70262 83230 333 20224 59015 60104;
0167826780999992004031718004-06767-043017FM-12+013899999V0209999C000012200019N0040001N1+03241+02311100791ADDAA106000091GF105991041051008001001011MA1999999099231MD1999999-0111REMSYN070AAXX  17184 82678 32596 50000 10324 20231 39923 40079 84501 333 59011;EQDQ01  00002PRCP06
0202826780999992004031800004-06767-043017FM-12+013899999V0200901N000510075019N0002001N1+02561+02421101071ADDAY161061AY221061GF108991061051008001021999KA1240M+03311MA1999999099491MD1999999-0061MW1031REMSYN100AAXX  18004 82678 21592 80901 10256 20242 39949 40107 70362 8652/ 333 10331 29083 55073 59006 60021;
0190826780999992004031812004-06767-043017FM-12+013899999V0203601N001010075019N0040001N1+02641+02391101281ADDAY161061AY221061GF108991051051008001031021KA1240N+02301MA1999999099701MD1999999+0101MW1021REMSYN088AAXX  18124 82678 21596 83602 10264 20239 39970 40128 70262 85532 333 20230 58010 60074;
0167826780999992004031818004-06767-043017FM-12+013899999V0203601N000510075019N0040001N1+03081+02401100881ADDAA106000091GF107991071051008001001001MA1999999099311MD1999999+0081REMSYN070AAXX  18184 82678 32596 73601 10308 20240 39931 40088 87500 333 58008;EQDQ01  00002PRCP06
0202826780999992004031900004-06767-043017FM-12+013899999V0203201N000510075019N0002001N1+02441+02301101341ADDAY161061AY221061GF108991061051008001021999KA1240M+03231MA1999999099751MD1999999+0261MW1021REMSYN100AAXX  19004 82678 21592 83201 10244 20230 39975 40134 70262 8652/ 333 10323 29084 55030 58026 69991;
0162826780999992004031912004-06767-043017FM-12+013899999V0201801N000510075019N0040001N1+02551+02331101471ADDGF108991061051008001021999KA1240N+02361MA1999999099881MD1999999+0181REMSYN082AAXX  19124 82678 22596 81801 10255 20233 39988 40147 8652/ 333 20236 58018 69914;
0167826780999992004031918004-06767-043017FM-12+013899999V0200501N001510450019N0040001N1+03181+02191100951ADDAA106000091GF106991031021008001031031MA1999999099391MD1999999+0081REMSYN070AAXX  19184 82678 32596 60503 10318 20219 39939 40095 83233 333 58008;EQDQ01  00002PRCP06
0198826780999992004032000004-06767-043017FM-12+013899999V0202301N000512200019N0002001N1+02681+02461101161ADDAA106000091GF101991011001017501031001KA1240M+03311MA1999999099581MD1999999-0171REMSYN088AAXX  20004 82678 32792 12301 10268 20246 39958 40116 81030 333 10331 29080 55046 59017;EQDQ01  00002PRCP06
0186826780999992004032012004-06767-043017FM-12+013899999V0203601N001012200019N0040001N1+02801+02341101341ADDAA106000091GF102991001001999999001011KA1240N+02241MA1999999099771MD1999999-0111REMSYN076AAXX  20124 82678 32996 23602 10280 20234 39977 40134 80001 333 20224 59011;EQDQ01  00002PRCP06
0167826780999992004032018004-06767-043017FM-12+013899999V0200901N002610450019N0040001N1+03291+02161100941ADDAA106000091GF106991041081008001031001MA1999999099381MD1999999-0011REMSYN070AAXX  20184 82678 32596 60905 10329 20216 39938 40094 84830 333 59001;EQDQ01  00002PRCP06
0208826780999992004032100004-06767-043017FM-12+013899999V0201401N000512200019N0002001N1+02621+02371101151ADDAA106000091GA1001+999999999GF100991001001999999001001KA1240M+03451MA1999999099581MD1999999+0001REMSYN082AAXX  21004 82678 32992 01401 10262 20237 39958 40115 333 10345 29075 55094 58000;EQDQ01  00002PRCP06
0196826780999992004032112004-06767-043017FM-12+013899999V0200501N001512200019N0040001N1+02881+02281101181ADDAA106000091GA1001+999999999GF100991001001999999001001KA1240N+02221MA1999999099111MD1999999-0161REMSYN070AAXX  21124 82678 32796 00503 10288 20228 39911 40118 333 20222 59016;EQDQ01  00002PRCP06
0190826780999992004032212004-06767-043017FM-12+013899999V0200501N001512200019N0040001N1+02861+02391101261ADDAY161061AY221061GF102991011001017501031011KA1240N+02301MA1999999099691MD1999999+0081MW1011REMSYN088AAXX  22124 82678 21796 20503 10286 20239 39969 40126 70162 81031 333 20230 58008 60024;
0167826780999992004032218004-06767-043017FM-12+013899999V0203601N001512200019N0040001N1+03381+02321100861ADDAA106000091GF105991031051008001001011MA1999999099301MD1999999-0031REMSYN070AAXX  22184 82678 32596 53603 10338 20232 39930 40086 83501 333 59003;EQDQ01  00002PRCP06
0212826780999992004032300004-06767-043017FM-12+013899999V0201801N000512200019N0002001N1+02681+02451101081ADDAY161061AY221061GA1001+999999999GF100991001001999999001001KA1240M+03451MA1999999099511MD1999999+0021MW1011REMSYN094AAXX  23004 82678 21992 01801 10268 20245 39951 40108 70162 333 10345 29076 55086 58002 69941;
0162826780999992004032312004-06767-043017FM-12+013899999V0202701N000512200019N0040001N1+02881+02411101281ADDGF105991011011008001001011KA1240N+02301MA1999999099711MD1999999+0021REMSYN082AAXX  23124 82678 22596 52701 10288 20241 39971 40128 81101 333 20230 58002 69944;
0171826780999992004032318004-06767-043017FM-12+013899999V0203601N000510075019N0040001N1+02981+02471100951ADDAY161061AY221061GF108991061051008001021999MA1999999099381MD1999999+0081MW1611REMSYN082AAXX  23184 82678 21596 83601 10298 20247 39938 40095 76162 8652/ 333 58008 69921;
0221826780999992004032400004-06767-043017FM-12+013899999V0209999C000010075019N0010001N1+02601+02501101211ADDAY161061AY221061GF108991999021008001001001KA1240M+03381MA1999999099641MD1999999+0131MW1021REMSYN100AAXX  24004 82678 21594 80000 10260 20250 39964 40121 70262 85200 333 10338 29084 55066 58013 60061;EQDQ01+000052SCOTLC
0162826780999992004032412004-06767-043017FM-12+013899999V0202701N001510075019N0040001N1+02531+02311101521ADDGF108991061041008001021999KA1240N+02331MA1999999099931MD1999999+0221REMSYN082AAXX  24124 82678 22596 82703 10253 20231 39993 40152 8642/ 333 20233 58022 60064;
0190826780999992004032512004-06767-043017FM-12+013899999V0200501N001010450019N0040001N1+02611+02391101351ADDAY121061AY261061GF108991041081008001031021KA1240N+02261MA1999999099761MD1999999-0171MW1021REMSYN088AAXX  25124 82678 21596 80502 10261 20239 39976 40135 70226 84832 333 20226 59017 60164;
0167826780999992004032518004-06767-043017FM-12+013899999V0200901N001510450019N0040001N1+03201+02271100931ADDAA106000091GF106991031021008001031021MA1999999099371MD1999999+0101REMSYN070AAXX  25184 82678 32596 60903 10320 20227 39937 40093 83232 333 58010;EQDQ01  00002PRCP06
0202826780999992004032600004-06767-043017FM-12+013899999V0202701N001010075019N0002001N1+02461+02301101271ADDAY191061AY221061GF108991051051008001021999KA1240M+03291MA1999999099681MD1999999-0081MW1021REMSYN100AAXX  26004 82678 21592 82702 10246 20230 39968 40127 70292 8552/ 333 10329 29082 55056 59008 60011;
0167826780999992004032618004-06767-043017FM-12+013899999V0201401N001510075019N0040001N1+03061+02351100991ADDAA106000091GF108991051021008001031011MA1999999099421MD1999999+0051REMSYN070AAXX  26184 82678 32596 81403 10306 20235 39942 40099 85231 333 58005;EQDQ01  00002PRCP06
0198826780999992004032700004-06767-043017FM-12+013899999V0209999C000012200019N0040001N1+02621+02461101121ADDAA106000091GF103991021011008001001021KA1240M+03131MA1999999099541MD1999999-0141REMSYN088AAXX  27004 82678 32596 30000 10262 20246 39954 40112 82102 333 10313 29083 55042 59014;EQDQ01  00002PRCP06
0186826780999992004032712004-06767-043017FM-12+013899999V0209999C000012200019N0040001N1+02781+02361101261ADDAA106000091GF104991031021008001001011KA1240N+02361MA1999999099681MD1999999+0011REMSYN076AAXX  27124 82678 32596 40000 10278 20236 39968 40126 83201 333 20236 58001;EQDQ01  00002PRCP06
0167826780999992004032718004-06767-043017FM-12+013899999V0201401N001510450019N0040001N1+02981+02351100981ADDAA106000091GF108991041051008001031021MA1999999099411MD1999999-0011REMSYN070AAXX  27184 82678 32596 81403 10298 20235 39941 40098 84532 333 59001;EQDQ01  00002PRCP06
0221826780999992004032800004-06767-043017FM-12+013899999V0209999C000012200019N0002001N1+02461+02361101141ADDAY161061AY221061GF103991999051008001999999KA1240M+03071MA1999999099561MD1999999+0021MW1011REMSYN100AAXX  28004 82678 21592 30000 10246 20236 39956 40114 70162 885// 333 10307 29084 55017 58002 60021;EQDQ01+000082SCOTLC
0181826780999992004032812004-06767-043017FM-12+013899999V0200901N001519999999N0040001N1+02701+02391101321ADDGF108991999021008001001001KA1240N+02281MA1999999099741MD1999999+0061REMSYN082AAXX  28124 82678 22596 80903 10270 20239 39974 40132 84200 333 20228 58006 60024;EQDQ01+000042SCOTLC
0167826780999992004032818004-06767-043017FM-12+013899999V0201401N001510450019N0040001N1+03201+02341100981ADDAA106000091GF108991031051008001021011MA1999999099411MD1999999+0001REMSYN070AAXX  28184 82678 32596 81403 10320 20234 39941 40098 83521 333 58000;EQDQ01  00002PRCP06
0208826780999992004032900004-06767-043017FM-12+013899999V0209999C000012200019N0002001N1+02581+02371101221ADDAA106000091GA1001+999999999GF100991001001999999001001KA1240M+03331MA1999999099641MD1999999+0081REMSYN082AAXX  29004 82678 32992 00000 10258 20237 39964 40122 333 10333 29079 55081 58008;EQDQ01  00002PRCP06
0186826780999992004032912004-06767-043017FM-12+013899999V0200901N002611050019N0040001N1+02761+02041101441ADDAA106000091GF107991011011008001001021KA1240N+02201MA1999999099861MD1999999+0121REMSYN076AAXX  29124 82678 32596 70905 10276 20204 39986 40144 81102 333 20220 58012;EQDQ01  00002PRCP06
0167826780999992004032918004-06767-043017FM-12+013899999V0200901N001511050019N0040001N1+03161+02121101111ADDAA106000091GF107991021011008001001021MA1999999099541MD1999999+0131REMSYN070AAXX  29184 82678 32596 70903 10316 20212 39954 40111 82102 333 58013;EQDQ01  00002PRCP06
0198826780999992004033000004-06767-043017FM-12+013899999V0209999C000019999999N0002001N1+02501+02291101321ADDAA106000091GF105991001001999999001021KA1240M+03211MA1999999099741MD1999999+0101REMSYN088AAXX  30004 82678 32992 50000 10250 20229 39974 40132 80002 333 10321 29074 55082 58010;EQDQ01  00002PRCP06
0186826780999992004033012004-06767-043017FM-12+013899999V0200901N003111050019N0040001N1+02801+02181101521ADDAA106000091GF107991031001017501031021KA1240N+02181MA1999999099941MD1999999+0081REMSYN076AAXX  30124 82678 32796 70906 10280 20218 39994 40152 83032 333 20218 58008;EQDQ01  00002PRCP06
0167826780999992004033018004-06767-043017FM-12+013899999V0200901N003119999999N0040001N1+03101+02181101301ADDAA106000091GF105991001001999999001021MA1999999099721MD1999999+0181REMSYN070AAXX  30184 82678 32996 50906 10310 20218 39972 40130 80002 333 58018;EQDQ01  00002PRCP06
0198826780999992004033100004-06767-043017FM-12+013899999V0201801N000512200019N0002001N1+02581+02251101441ADDAA106000091GF103991001001999999001021KA1240M+03201MA1999999099861MD1999999+0121REMSYN088AAXX  31004 82678 32992 31801 10258 20225 39986 40144 80002 333 10320 29074 55093 58012;EQDQ01  00002PRCP06
0186826780999992004033112004-06767-043017FM-12+013899999V0200901N001510150019N0040001N1+02771+02161101611ADDAA106000091GF107991051001017501021011KA1240N+02321MA1999999100031MD1999999+0091REMSYN076AAXX  31124 82678 32796 70903 10277 20216 30003 40161 85021 333 20232 58009;EQDQ01  00002PRCP06
0167826780999992004033118004-06767-043017FM-12+013899999V0201401N002610450019N0040001N1+03271+02111101171ADDAA106000091GF108991041021008001021011MA1999999099611MD1999999-0111REMSYN070AAXX  31184 82678 32596 81405 10327 20211 39961 40117 84221 333 59011;EQDQ01  00002PRCP06
0198826780999992004040100004-06767-043017FM-12+013899999V0201801N000512200019N0002001N1+02641+02251101421ADDAA106000091GF102991021011017501021011KA1240M+03391MA1999999099841MD1999999-0021REMSYN088AAXX  01004 82678 32792 21801 10264 20225 39984 40142 82121 333 10339 29070 55069 59002;EQDQ01  00002PRCP06
0186826780999992004040112004-06767-043017FM-12+013899999V0202301N001012200019N0040001N1+02851+02171101681ADDAA106000091GF108991041001017501031011KA1240N+02321MA1999999100101MD1999999+0071REMSYN076AAXX  01124 82678 32796 82302 10285 20217 30010 40168 84031 333 20232 58007;EQDQ01  00002PRCP06
0167826780999992004040118004-06767-043017FM-12+013899999V0201401N002610450019N0040001N1+03341+02091101191ADDAA106000091GF106991021021008001031011MA1999999099631MD1999999+0021REMSYN070AAXX  01184 82678 32596 61405 10334 20209 39963 40119 82231 333 58002;EQDQ01  00002PRCP06
0167826780999992004040218004-06767-043017FM-12+013899999V0200901N001512200019N0040001N1+03361+02211101191ADDAA106000091GF103991021021008001001011MA1999999099631MD1999999+0001REMSYN070AAXX  02184 82678 32596 30903 10336 20221 39963 40119 82201 333 58000;EQDQ01  00002PRCP06
0198826780999992004040300004-06767-043017FM-12+013899999V0209999C000010075019N0002001N1+02721+02501101361ADDAA106000091GF108991051051008001031021KA1240M+03431MA1999999099781MD1999999-0021REMSYN088AAXX  03004 82678 32592 80000 10272 20250 39978 40136 85532 333 10343 29078 55070 59002;EQDQ01  00002PRCP06
0186826780999992004040512004-06767-043017FM-12+013899999V0209999C000010450019N0040001N1+02721+02501101601ADDAA106000091GF108991041051008001031021KA1240N+02401MA1999999100021MD1999999+0021REMSYN076AAXX  05124 82678 32596 80000 10272 20250 30002 40160 84532 333 20240 58002;EQDQ01  00002PRCP06
0186826780999992004040612004-06767-043017FM-12+013899999V0203201N001010075019N0040001N1+02711+02391101551ADDAA106000091GF108991061041008001021999KA1240N+02481MA1999999099971MD1999999-0051REMSYN076AAXX  06124 82678 32596 83202 10271 20239 39997 40155 8642/ 333 20248 59005;EQDQ01  00002PRCP06
0167826780999992004040618004-06767-043017FM-12+013899999V0200901N002110450019N0040001N1+03101+02341101031ADDAA106000091GF106991031031008001021021MA1999999099461MD1999999-0171REMSYN070AAXX  06184 82678 32596 60904 10310 20234 39946 40103 83322 333 59017;EQDQ01  00002PRCP06
0198826780999992004040700004-06767-043017FM-12+013899999V0201401N000512200019N0002001N1+02681+02461101311ADDAA106000091GF106991021001017501031011KA1240M+03311MA1999999099731MD1999999+0051REMSYN088AAXX  07004 82678 32792 61401 10268 20246 39973 40131 82031 333 10331 29081 55046 58005;EQDQ01  00002PRCP06
0186826780999992004040712004-06767-043017FM-12+013899999V0202301N000510450019N0040001N1+02761+02481101501ADDAA106000091GF108991041041008001021011KA1240N+02421MA1999999099921MD1999999-0051REMSYN076AAXX  07124 82678 32596 82301 10276 20248 39992 40150 84421 333 20242 59005;EQDQ01  00002PRCP06
0137826780999992004040718004-06767-043017FM-12+013899999V0203601N001010120019N0040001N1+02771+02401101141ADDGF108991051081008001021999MA1999999099531MD1999999+0101REMSYN070AAXX  07184 82678 22596 83602 10277 20240 39953 40114 8582/ 333 58010;
0198826780999992004040800004-06767-043017FM-12+013899999V0209999C000010450019N0002001N1+02501+02341101361ADDAA106000091GF108991041041008001021999KA1240M+03361MA1999999099781MD1999999+0051REMSYN088AAXX  08004 82678 32592 80000 10250 20234 39978 40136 8442/ 333 10336 29087 55036 58005;EQDQ01  00002PRCP06
0186826780999992004040812004-06767-043017FM-12+013899999V0209999C000010450019N0040001N1+02661+02221101531ADDAA106000091GF108991041031008001021011KA1240N+02281MA1999999099941MD1999999+0021REMSYN076AAXX  08124 82678 32596 80000 10266 20222 39994 40153 84321 333 20228 58002;EQDQ01  00002PRCP06
0171826780999992004040818004-06767-043017FM-12+013899999V0209999C000010075019N0040001N1+02501+02451101241ADDAY161061AY211061GF108991081071008001999999MA1999999099651MD1999999+0091MW1611REMSYN082AAXX  08184 82678 21596 80000 10250 20245 39965 40124 76161 887// 333 58009 60221;
0202826780999992004040900004-06767-043017FM-12+013899999V0209999C000010075019N0002001N1+02441+02391101531ADDAY161061AY221061GF108991081051008001999999KA1240M+02761MA1999999099941MD1999999+0161MW1021REMSYN100AAXX  09004 82678 21592 80000 10244 20239 39994 40153 70262 885// 333 10276 29092 55005 58016 69941;
0162826780999992004040912004-06767-043017FM-12+013899999V0209999C000010075019N0040001N1+02601+02331101591ADDGF108991051051008001001021KA1240N+02281MA1999999100001MD1999999+0061REMSYN082AAXX  09124 82678 22596 80000 10260 20233 30000 40159 85502 333 20228 58006 60224;
0167826780999992004040918004-06767-043017FM-12+013899999V0201401N001010450019N0040001N1+03101+02391101161ADDAA106000091GF105991031031008001021011MA1999999099591MD1999999-0061REMSYN070AAXX  09184 82678 32596 51402 10310 20239 39959 40116 83321 333 59006;EQDQ01  00002PRCP06
0202826780999992004041000004-06767-043017FM-12+013899999V0209999C000010075019N0002001N1+02461+02361101361ADDAY161061AY221061GF108991081051008001999999KA1240M+03231MA1999999099771MD1999999-0171MW1021REMSYN100AAXX  10004 82678 21592 80000 10246 20236 39977 40136 70262 885// 333 10323 29085 55045 59017 69941;
0162826780999992004041012004-06767-043017FM-12+013899999V0201401N001012200019N0040001N1+02801+02361101201ADDGF103991021001008001031021KA1240N+02181MA1999999099621MD1999999-0381REMSYN082AAXX  10124 82678 22596 31402 10280 20236 39962 40120 82032 333 20218 59038 69944;
0167826780999992004041018004-06767-043017FM-12+013899999V0200901N000512200019N0040001N1+03241+02311100881ADDAA106000091GF104991041021008001001001MA1999999099311MD1999999-0281REMSYN070AAXX  10184 82678 32596 40901 10324 20231 39931 40088 84200 333 59028;EQDQ01  00002PRCP06
0208826780999992004041100004-06767-043017FM-12+013899999V0209999C000012200019N0002001N1+02661+02501100811ADDAA106000091GA1001+999999999GF100991001001999999001001KA1240M+03311MA1999999099251MD1999999-0521REMSYN082AAXX  11004 82678 32992 00000 10266 20250 39925 40081 333 10331 29079 55102 59052;EQDQ01  00002PRCP06
0186826780999992004041112004-06767-043017FM-12+013899999V0200901N001011050019N0040001N1+02881+02301101031ADDAA106000091GF105991021011008001001021KA1240N+02301MA1999999099461MD1999999-0161REMSYN076AAXX  11124 82678 32596 50902 10288 20230 39946 40103 82102 333 20230 59016;EQDQ01  00002PRCP06
0167826780999992004041118004-06767-043017FM-12+013899999V0200901N001011050019N0040001N1+03261+02151100731ADDAA106000091GF106991041051008001001021MA1999999099181MD1999999-0131REMSYN070AAXX  11184 82678 32596 60902 10326 20215 39918 40073 84502 333 59013;EQDQ01  00002PRCP06
0208826780999992004041200004-06767-043017FM-12+013899999V0209999C000012200019N0002001N1+02681+02451100801ADDAA106000091GA1001+999999999GF100991001001999999001001KA1240M+03321MA1999999099241MD1999999-0011REMSYN082AAXX  12004 82678 32992 00000 10268 20245 39924 40080 333 10332 29074 55087 59001;EQDQ01  00002PRCP06
0186826780999992004041212004-06767-043017FM-12+013899999V0200901N002110075019N0040001N1+02701+02301101241ADDAA106000091GF108991061051008001001011KA1240N+02271MA1999999099661MD1999999+0201REMSYN076AAXX  12124 82678 32596 80904 10270 20230 39966 40124 86501 333 20227 58020;EQDQ01  00002PRCP06
0167826780999992004041218004-06767-043017FM-12+013899999V0200501N001510450019N0040001N1+03391+02221100801ADDAA106000091GF107991041021008001021011MA1999999099251MD1999999+0071REMSYN070AAXX  12184 82678 32596 70503 10339 20222 39925 40080 84221 333 58007;EQDQ01  00002PRCP06
0208826780999992004041300004-06767-043017FM-12+013899999V0209999C000012200019N0002001N1+02741+02501101071ADDAA106000091GA1001+999999999GF100991001001999999001001KA1240M+03431MA1999999099491MD1999999+0251REMSYN082AAXX  13004 82678 32592 00000 10274 20250 39949 40107 333 10343 29076 55062 58025;EQDQ01  00002PRCP06
0190826780999992004041312004-06767-043017FM-12+013899999V0200901N001510075019N0040001N1+02421+02321101501ADDAY161061AY221061GF108991081071008001999999KA1240N+02381MA1999999099911MD1999999+0251MW1631REMSYN088AAXX  13124 82678 21596 80903 10242 20232 39991 40150 76362 887// 333 20238 58025 60404;
0143826780999992004041318004-06767-043017FM-12+013899999V0202701N001510075019N0040001N1+02461+02371101281ADDGF108991081071008001999999MA1999999099691MD1999999+0441REMSYN076AAXX  13184 82678 22596 82703 10246 20237 39969 40128 887// 333 58044 60481;
0198826780999992004041400004-06767-043017FM-12+013899999V0209999C000010075019N0002001N1+02401+02351101321ADDAA106000091GF106991061051008001001001KA1240M+02791MA1999999099721MD1999999+0231REMSYN088AAXX  14004 82678 32592 60000 10240 20235 39972 40132 86500 333 10279 29096 55000 58023;EQDQ01  00002PRCP06
0162826780999992004041412004-06767-043017FM-12+013899999V0209999C000010075019N0040001N1+02481+02341101581ADDGF108991081051008001999999KA1240N+02281MA1999999099981MD1999999+0071REMSYN082AAXX  14124 82678 22596 80000 10248 20234 39998 40158 885// 333 20228 58007 60484;
0167826780999992004041418004-06767-043017FM-12+013899999V0203201N001012200019N0040001N1+03201+02521101111ADDAA106000091GF104991021021008001001021MA1999999099541MD1999999-0151REMSYN070AAXX  14184 82678 32596 43202 10320 20252 39954 40111 82202 333 59015;EQDQ01  00002PRCP06
0198826780999992004041500004-06767-043017FM-12+013899999V0209999C000012200019N0002001N1+02681+02461101311ADDAA106000091GF103991031041008001001001KA1240M+03331MA1999999099731MD1999999+0011REMSYN088AAXX  15004 82678 32592 30000 10268 20246 39973 40131 83400 333 10333 29084 55065 58001;EQDQ01  00002PRCP06
0190826780999992004041512004-06767-043017FM-12+013899999V0209999C000010075019N0040001N1+02621+02351101471ADDAY161061AY221061GF108991081051008001999999KA1240N+02341MA1999999099891MD1999999-0091MW1021REMSYN088AAXX  15124 82678 21596 80000 10262 20235 39989 40147 70262 885// 333 20234 59009 60014;
0167826780999992004041518004-06767-043017FM-12+013899999V0200901N001510450019N0040001N1+03201+02381101061ADDAA106000091GF105991031031008001021011MA1999999099491MD1999999-0051REMSYN070AAXX  15184 82678 32596 50903 10320 20238 39949 40106 83321 333 59005;EQDQ01  00002PRCP06
0208826780999992004041600004-06767-043017FM-12+013899999V0209999C000012200019N0002001N1+02621+02351101251ADDAA106000091GA1001+999999999GF100991001001999999001001KA1240M+03321MA1999999099671MD1999999-0061REMSYN082AAXX  16004 82678 32992 00000 10262 20235 39967 40125 333 10332 29079 55051 59006;EQDQ01  00002PRCP06
0186826780999992004041612004-06767-043017FM-12+013899999V0200901N002612200019N0002001N1+02741+02121101541ADDAA106000091GF104991011011008001031011KA1240N+02241MA1999999099961MD1999999+0071REMSYN076AAXX  16124 82678 32592 40905 10274 20212 39996 40154 81131 333 20224 58007;EQDQ01  00002PRCP06
0167826780999992004041618004-06767-043017FM-12+013899999V0200901N001512200019N0040001N1+03221+02081101171ADDAA106000091GF104991021021008001001011MA1999999099601MD1999999+0111REMSYN070AAXX  16184 82678 32596 40903 10322 20208 39960 40117 82201 333 58011;EQDQ01  00002PRCP06
0208826780999992004041700004-06767-043017FM-12+013899999V0209999C000012200019N0002001N1+02621+02351101331ADDAA106000091GA1001+999999999GF100991001001999999001001KA1240M+03211MA1999999099751MD1999999+0081REMSYN082AAXX  17004 82678 32992 00000 10262 20235 39975 40133 333 10321 29072 55094 58008;EQDQ01  00002PRCP06
0186826780999992004041712004-06767-043017FM-12+013899999V0200901N001512200019N0040001N1+02801+02341101611ADDAA106000091GF104991021001017501031021KA1240N+02241MA1999999100031MD1999999+0281REMSYN076AAXX  17124 82678 32796 40903 10280 20234 30003 40161 82032 333 20224 58028;EQDQ01  00002PRCP06
0167826780999992004041718004-06767-043017FM-12+013899999V0200901N002611050019N0040001N1+03221+02291101281ADDAA106000091GF105991031021008001001021MA1999999099711MD1999999-0041REMSYN070AAXX  17184 82678 32596 50905 10322 20229 39971 40128 83202 333 59004;EQDQ01  00002PRCP06
0208826780999992004041800004-06767-043017FM-12+013899999V0209999C000012200019N0002001N1+02681+02451101421ADDAA106000091GA1001+999999999GF100991001001999999001001KA1240M+03251MA1999999099851MD1999999+0101REMSYN082AAXX  18004 82678 32992 00000 10268 20245 39985 40142 333 10325 29077 55104 58010;EQDQ01  00002PRCP06
0202826780999992004041812004-06767-043017FM-12+013899999V0200901N002619999999N0040001N1+02821+02151101661ADDAA106000091GF105991999021017501031021KA1240N+02241MA1999999100081MD1999999+0051REMSYN076AAXX  18124 82678 32796 50905 10282 20215 30008 40166 80232 333 20224 58005;EQDQ01+000002SCOTLCQ02  00002PRCP06
0167826780999992004041818004-06767-043017FM-12+013899999V0200901N001011050019N0040001N1+03241+02131101261ADDAA106000091GF105991021021008001001021MA1999999099691MD1999999-0021REMSYN070AAXX  18184 82678 32596 50902 10324 20213 39969 40126 82202 333 59002;EQDQ01  00002PRCP06
0198826780999992004041900004-06767-043017FM-12+013899999V0209999C000010450019N0002001N1+02661+02371101301ADDAA106000091GF107991041051008001031001KA1240M+03311MA1999999099731MD1999999-0121REMSYN088AAXX  19004 82678 32592 70000 10266 20237 39973 40130 84530 333 10331 29072 55104 59012;EQDQ01  00002PRCP06
0186826780999992004041912004-06767-043017FM-12+013899999V0200901N003110075019N0040001N1+02801+02151101531ADDAA106000091GF105991051021008001001001KA1240N+02361MA1999999099951MD1999999-0131REMSYN076AAXX  19124 82678 32596 50906 10280 20215 39995 40153 85200 333 20236 59013;EQDQ01  00002PRCP06
0183826780999992004041918004-06767-043017FM-12+013899999V0200901N003119999999N0040001N1+03121+02281101181ADDAA106000091GF106991999021008001001001MA1999999099611MD1999999-0081REMSYN070AAXX  19184 82678 32596 60906 10312 20228 39961 40118 83200 333 59008;EQDQ01+000032SCOTLCQ02  00002PRCP06
0208826780999992004042000004-06767-043017FM-12+013899999V0200901N000512200019N0002001N1+02541+02381101271ADDAA106000091GA1001+999999999GF100991001001999999001001KA1240M+03211MA1999999099691MD1999999-0041REMSYN082AAXX  20004 82678 32992 00901 10254 20238 39969 40127 333 10321 29078 55092 59004;EQDQ01  00002PRCP06
0186826780999992004042012004-06767-043017FM-12+013899999V0200901N001512200019N0040001N1+02861+02001101491ADDAA106000091GF103991031021008001001001KA1240N+02361MA1999999099911MD1999999-0041REMSYN076AAXX  20124 82678 32596 30903 10286 20200 39991 40149 83200 333 20236 59004;EQDQ01  00002PRCP06
0167826780999992004042018004-06767-043017FM-12+013899999V0201401N002110075019N0040001N1+03301+02021101111ADDAA106000091GF108991051011008001001021MA1999999099541MD1999999-0071REMSYN070AAXX  20184 82678 32596 81404 10330 20202 39954 40111 85102 333 59007;EQDQ01  00002PRCP06
0208826780999992004042100004-06767-043017FM-12+013899999V0209999C000012200019N0002001N1+02541+02251101271ADDAA106000091GA1001+999999999GF100991001001999999001001KA1240M+03341MA1999999099691MD1999999+0001REMSYN082AAXX  21004 82678 32992 00000 10254 20225 39969 40127 333 10334 29068 55108 58000;EQDQ01  00002PRCP06
0202826780999992004042112004-06767-043017FM-12+013899999V0209999C000010075019N0040001N1+02581+02011101481ADDAA106000091GF108991999001008001021001KA1240N+02121MA1999999099891MD1999999-0021REMSYN076AAXX  21124 82678 32596 80000 10258 20201 39989 40148 85020 333 20212 59002;EQDQ01+000052SCOTLCQ02  00002PRCP06
0167826780999992004042118004-06767-043017FM-12+013899999V0200901N001510450019N0040001N1+03101+02121101231ADDAA106000091GF105991031011008001031011MA1999999099651MD1999999+0111REMSYN070AAXX  21184 82678 32596 50903 10310 20212 39965 40123 83131 333 58011;EQDQ01  00002PRCP06
0208826780999992004042200004-06767-043017FM-12+013899999V0209999C000012200019N0040001N1+02561+02351101331ADDAA106000091GA1001+999999999GF100991001001999999001001KA1240M+03331MA1999999099751MD1999999+0061REMSYN082AAXX  22004 82678 32996 00000 10256 20235 39975 40133 333 10333 29076 55056 58006;EQDQ01  00002PRCP06
0186826780999992004042212004-06767-043017FM-12+013899999V0200901N003112200019N0040001N1+02781+02061101361ADDAA106000091GF103991011001017501031011KA1240N+02161MA1999999099781MD1999999-0111REMSYN076AAXX  22124 82678 32796 30906 10278 20206 39978 40136 81031 333 20216 59011;EQDQ01  00002PRCP06
0167826780999992004042218004-06767-043017FM-12+013899999V0200901N002612200019N0040001N1+03221+02201101081ADDAA106000091GF105991031021008001001011MA1999999099511MD1999999-0141REMSYN070AAXX  22184 82678 32596 50905 10322 20220 39951 40108 83201 333 59014;EQDQ01  00002PRCP06
0208826780999992004042300004-06767-043017FM-12+013899999V0209999C000012200019N0002001N1+02601+02391101081ADDAA106000091GA1001+999999999GF100991001001999999001001KA1240M+03291MA1999999099511MD1999999-0241REMSYN082AAXX  23004 82678 32992 00000 10260 20239 39951 40108 333 10329 29074 55101 59024;EQDQ01  00002PRCP06
0186826780999992004042312004-06767-043017FM-12+013899999V0201401N001010075019N0040001N1+02721+02121101331ADDAA106000091GF108991071051008001031001KA1240N+02401MA1999999099751MD1999999+0031REMSYN076AAXX  23124 82678 32596 81402 10272 20212 39975 40133 87530 333 20240 58003;EQDQ01  00002PRCP06
0167826780999992004042318004-06767-043017FM-12+013899999V0200901N001511050019N0040001N1+03221+02201100941ADDAA106000091GF107991031011008001001021MA1999999099381MD1999999-0131REMSYN070AAXX  23184 82678 32596 70903 10322 20220 39938 40094 83102 333 59013;EQDQ01  00002PRCP06
0208826780999992004042400004-06767-043017FM-12+013899999V0209999C000012200019N0002001N1+02641+02421101021ADDAA106000091GA1001+999999999GF100991001001999999001001KA1240M+03311MA1999999099451MD1999999-0061REMSYN082AAXX  24004 82678 32992 00000 10264 20242 39945 40102 333 10331 29075 55067 59006;EQDQ01  00002PRCP06
0186826780999992004042412004-06767-043017FM-12+013899999V0201401N001019999999N0040001N1+02561+02061101251ADDAA106000091GF108991051001008001031011KA1240N+02141MA1999999099671MD1999999-0081REMSYN076AAXX  24124 82678 32596 81402 10256 20206 39967 40125 85031 333 20214 59008;EQDQ01  00002PRCP06
0167826780999992004042418004-06767-043017FM-12+013899999V0200901N001011050019N0040001N1+03101+02151100971ADDAA106000091GF108991031011008001001021MA1999999099401MD1999999+0021REMSYN070AAXX  24184 82678 32596 80902 10310 20215 39940 40097 83102 333 58002;EQDQ01  00002PRCP06
0198826780999992004042500004-06767-043017FM-12+013899999V0209999C000011050019N0002001N1+02561+02361101021ADDAA106000091GF107991041051008001001021KA1240M+03111MA1999999099441MD1999999-0011REMSYN088AAXX  25004 82678 32592 70000 10256 20236 39944 40102 84502 333 10311 29077 55000 59001;EQDQ01  00002PRCP06
0186826780999992004042512004-06767-043017FM-12+013899999V0200901N000510075019N0040001N1+02641+02331101431ADDAA106000091GF108991071051008001031001KA1240N+02261MA1999999099851MD1999999+0181REMSYN076AAXX  25124 82678 32596 80901 10264 20233 39985 40143 87530 333 20226 58018;EQDQ01  00002PRCP06
0167826780999992004042518004-06767-043017FM-12+013899999V0202701N000510075019N0040001N1+03201+02271101091ADDAA106000091GF108991051051008001001021MA1999999099521MD1999999+0121REMSYN070AAXX  25184 82678 32596 82701 10320 20227 39952 40109 85502 333 58012;EQDQ01  00002PRCP06
0198826780999992004042600004-06767-043017FM-12+013899999V0203601N000510075019N0002001N1+02701+02281101371ADDAA106000091GF107991071051008001001001KA1240M+03211MA1999999099791MD1999999+0351REMSYN088AAXX  26004 82678 32592 73601 10270 20228 39979 40137 87500 333 10321 29074 55040 58035;EQDQ01  00002PRCP06
0190826780999992004042612004-06767-043017FM-12+013899999V0202701N001510450019N0020001N1+02681+02241101541ADDAY161061AY221061GF105991031021008001031011KA1240N+02281MA1999999099961MD1999999+0111MW1621REMSYN088AAXX  26124 82678 21595 52703 10268 20224 39996 40154 76262 83231 333 20228 58011 60054;
0167826780999992004042618004-06767-043017FM-12+013899999V0201401N001519999999N0040001N1+03141+02271101181ADDAA106000021GF105991999021008001001001MA1999999099611MD1999999+0091REMSYN070AAXX  26184 82678 32596 51403 10314 20227 39961 40118 84200 333 58009;EQDQ01+000042SCOTLC
0208826780999992004042700004-06767-043017FM-12+013899999V0209999C000012200019N0002001N1+02681+02481101531ADDAA106000091GA1001+999999999GF100991001001999999001001KA1240M+03231MA1999999099951MD1999999+0161REMSYN082AAXX  27004 82678 32992 00000 10268 20248 39995 40153 333 10323 29079 55064 58016;EQDQ01  00002PRCP06
0186826780999992004042712004-06767-043017FM-12+013899999V0203601N001510075019N0040001N1+02621+02311101751ADDAA106000091GF108991051051008001001021KA1240N+02341MA1999999100161MD1999999+0201REMSYN076AAXX  27124 82678 32596 83603 10262 20231 30016 40175 85502 333 20234 58020;EQDQ01  00002PRCP06
0171826780999992004042718004-06767-043017FM-12+013899999V0202301N001010075019N0040001N1+02501+02341101451ADDAY161061AY221061GF108991081051008001999999MA1999999099861MD1999999+0251MW1621REMSYN082AAXX  27184 82678 21596 82302 10250 20234 39986 40145 76262 885// 333 58025 60131;
0179826780999992004042800004-06767-043017FM-12+013899999V0202301N001510075019N0002001N1+02381+02291101711ADDAA106000021GF108991081051008001999999KA1240M+02731MA1999999100111MD1999999+0161REMSYN088AAXX  28004 82678 32592 82303 10238 20229 30011 40171 885// 333 10273 29091 55000 58016;
0162826780999992004042812004-06767-043017FM-12+013899999V0200901N000510075019N0040001N1+02381+02241101821ADDGF108991051051008001999999KA1240N+02201MA1999999100221MD1999999+0061REMSYN082AAXX  28124 82678 22596 80901 10238 20224 30022 40182 855// 333 20220 58006 60134;
0183826780999992004042818004-06767-043017FM-12+013899999V0200901N000519999999N0040001N1+02901+02391101521ADDAA106000091GF105991999021008001001001MA1999999099821MD1999999-0041REMSYN070AAXX  28184 82678 32596 50901 10290 20239 39982 40152 83200 333 59004;EQDQ01+000032SCOTLCQ02  00002PRCP06
0198826780999992004042900004-06767-043017FM-12+013899999V0209999C000012200019N0002001N1+02561+02421101481ADDAA106000091GF102991021001017501031001KA1240M+03011MA1999999099881MD1999999-0231REMSYN088AAXX  29004 82678 32792 20000 10256 20242 39988 40148 82030 333 10301 29088 55017 59023;EQDQ01  00002PRCP06
0186826780999992004042912004-06767-043017FM-12+013899999V0200901N001010075019N0040001N1+02541+02351101651ADDAA106000091GF108991051051008001999999KA1240N+02281MA1999999100061MD1999999-0161REMSYN076AAXX  29124 82678 32596 80902 10254 20235 30006 40165 855// 333 20228 59016;EQDQ01  00002PRCP06
0167826780999992004042918004-06767-043017FM-12+013899999V0200901N002612200019N0040001N1+03201+02241101211ADDAA106000091GF103991021021008001001011MA1999999099641MD1999999-0181REMSYN070AAXX  29184 82678 32596 30905 10320 20224 39964 40121 82201 333 59018;EQDQ01  00002PRCP06
0208826780999992004043000004-06767-043017FM-12+013899999V0209999C000012200019N0002001N1+02601+02401101351ADDAA106000091GA1001+999999999GF100991001001999999001001KA1240M+03231MA1999999099761MD1999999-0121REMSYN082AAXX  30004 82678 32992 00000 10260 20240 39976 40135 333 10323 29081 55067 59012;EQDQ01  00002PRCP06
0186826780999992004043012004-06767-043017FM-12+013899999V0200901N003610450019N0040001N1+02741+02071101561ADDAA106000091GF105991031031008001021011KA1240N+02301MA1999999099981MD1999999+0081REMSYN076AAXX  30124 82678 32596 50907 10274 20207 39998 40156 83321 333 20230 58008;EQDQ01  00002PRCP06
0167826780999992004043018004-06767-043017FM-12+013899999V0200901N001511050019N0040001N1+03201+02271101041ADDAA106000091GF105991031021008001001021MA1999999099461MD1999999+0181REMSYN070AAXX  30184 82678 32596 50903 10320 20227 39946 40104 83202 333 58018;EQDQ01  00002PRCP06
0208826780999992004050100004-06767-043017FM-12+013899999V0209999C000012200019N0002001N1+02501+02311101281ADDAA106000091GA1001+999999999GF100991001001999999001001KA1240M+03251MA1999999099701MD1999999-0061REMSYN082AAXX  01004 82678 32992 00000 10250 20231 39970 40128 333 10325 29076 55104 59006;EQDQ01  00002PRCP06
0196826780999992004050112004-06767-043017FM-12+013899999V0200901N004112200019N0040001N1+02761+02121101551ADDAA106000091GA1001+999999999GF100991001001999999001001KA1240N+02111MA1999999099971MD1999999-0011REMSYN070AAXX  01124 82678 32996 00908 10276 20212 39997 40155 333 20211 59001;EQDQ01  00002PRCP06
0167826780999992004050118004-06767-043017FM-12+013899999V0200901N001510075019N0040001N1+03201+02301101081ADDAA106000091GF105991051051008001001001MA1999999099511MD1999999+0051REMSYN070AAXX  01184 82678 32596 50903 10320 20230 39951 40108 85500 333 58005;EQDQ01  00002PRCP06
0208826780999992004050200004-06767-043017FM-12+013899999V0209999C000012200019N0002001N1+02581+02371101131ADDAA106000091GA1001+999999999GF100991001001999999001001KA1240M+03261MA1999999099551MD1999999-0151REMSYN082AAXX  02004 82678 32592 00000 10258 20237 39955 40113 333 10326 29076 55107 59015;EQDQ01  00002PRCP06
0196826780999992004050212004-06767-043017FM-12+013899999V0200901N004112200019N0040001N1+02781+02111101471ADDAA106000091GA1001+999999999GF100991001001999999001001KA1240N+02181MA1999999099891MD1999999-0081REMSYN070AAXX  02124 82678 32996 00908 10278 20211 39989 40147 333 20218 59008;EQDQ01  00002PRCP06
0167826780999992004050218004-06767-043017FM-12+013899999V0200901N003112200019N0040001N1+03201+02151101201ADDAA106000091GF104991031021008001001011MA1999999099631MD1999999+0121REMSYN070AAXX  02184 82678 32596 40906 10320 20215 39963 40120 83201 333 58012;EQDQ01  00002PRCP06
0208826780999992004050300004-06767-043017FM-12+013899999V0209999C000012200019N0002001N1+02501+02171101381ADDAA106000091GA1001+999999999GF100991001001999999001001KA1240M+03231MA1999999099801MD1999999+0251REMSYN082AAXX  03004 82678 32992 00000 10250 20217 39980 40138 333 10323 29071 55105 58025;EQDQ01  00002PRCP06
0186826780999992004050312004-06767-043017FM-12+013899999V0201401N003612200019N0040001N1+02661+01771101561ADDAA106000091GF103991021011008001001011KA1240N+02121MA1999999099981MD1999999+0091REMSYN076AAXX  03124 82678 32596 31407 10266 20177 39998 40156 82101 333 20212 58009;EQDQ01  00002PRCP06
0167826780999992004050318004-06767-043017FM-12+013899999V0201401N003112200019N0040001N1+03181+01801101201ADDAA106000091GF104991021011008001001021MA1999999099631MD1999999+0001REMSYN070AAXX  03184 82678 32596 41406 10318 20180 39963 40120 82102 333 58000;EQDQ01  00002PRCP06
0198826780999992004050400004-06767-043017FM-12+013899999V0209999C000012200019N0002001N1+02361+02071101411ADDAA106000091GF104991021031008001001021KA1240M+03231MA1999999099821MD1999999+0021REMSYN088AAXX  04004 82678 32592 40000 10236 20207 39982 40141 82302 333 10323 29068 55107 58002;EQDQ01  00002PRCP06
0186826780999992004050412004-06767-043017FM-12+013899999V0200901N001512200019N0040001N1+02661+01821101571ADDAA106000091GF104991011001017501031021KA1240N+01901MA1999999099981MD1999999+0001REMSYN076AAXX  04124 82678 32796 40903 10266 20182 39998 40157 81032 333 20190 58000;EQDQ01  00002PRCP06
0198826780999992004050500004-06767-043017FM-12+013899999V0209999C000010450019N0002001N1+02561+02191101341ADDAA106000091GF107991031051008001031001KA1240M+03261MA1999999099761MD1999999-0061REMSYN088AAXX  05004 82678 32592 70000 10256 20219 39976 40134 83530 333 10326 29067 55104 59006;EQDQ01  00002PRCP06
0202826780999992004050512004-06767-043017FM-12+013899999V0200901N001019999999N0040001N1+02701+02111101641ADDAA106000091GF108991999021008001001001KA1240N+02201MA1999999100061MD1999999+0081REMSYN076AAXX  05124 82678 32596 80902 10270 20211 30006 40164 83200 333 20220 58008;EQDQ01+000032SCOTLCQ02  00002PRCP06
0167826780999992004050518004-06767-043017FM-12+013899999V0200901N003110075019N0040001N1+03181+02131101271ADDAA106000091GF107991051051008001031011MA1999999099701MD1999999+0041REMSYN070AAXX  05184 82678 32596 70906 10318 20213 39970 40127 85531 333 58004;EQDQ01  00002PRCP06
0198826780999992004050600004-06767-043017FM-12+013899999V0209999C000010075019N0002001N1+02761+02321101381ADDAA106000091GF108991081051008001999999KA1240M+03231MA1999999099811MD1999999+0051REMSYN088AAXX  06004 82678 32592 80000 10276 20232 39981 40138 885// 333 10323 29070 55061 58005;EQDQ01  00002PRCP06
0186826780999992004050612004-06767-043017FM-12+013899999V0201401N001510450019N0040001N1+02681+02261101681ADDAA106000091GF108991041051008001031001KA1240N+02511MA1999999100081MD1999999+0021REMSYN076AAXX  06124 82678 32596 81403 10268 20226 30008 40168 84530 333 20251 58002;EQDQ01  00002PRCP06
0167826780999992004050618004-06767-043017FM-12+013899999V0200901N002112200019N0040001N1+03161+02141101301ADDAA106000091GF104991021021008001001011MA1999999099741MD1999999+0041REMSYN070AAXX  06184 82678 32596 40904 10316 20214 39974 40130 82201 333 58004;EQDQ01  00002PRCP06
0208826780999992004050700004-06767-043017FM-12+013899999V0209999C000012200019N0002001N1+02601+02311101501ADDAA106000091GA1001+999999999GF100991001001999999001001KA1240M+03331MA1999999099921MD1999999+0111REMSYN082AAXX  07004 82678 32992 00000 10260 20231 39992 40150 333 10333 29075 55031 58011;EQDQ01  00002PRCP06
0186826780999992004050712004-06767-043017FM-12+013899999V0200901N004112200019N0040001N1+02901+02271101701ADDAA106000091GF103991021011008001001011KA1240N+02441MA1999999100121MD1999999+0041REMSYN076AAXX  07124 82678 32596 30908 10290 20227 30012 40170 82101 333 20244 58004;EQDQ01  00002PRCP06
0167826780999992004050718004-06767-043017FM-12+013899999V0200901N001511050019N0040001N1+03261+02381101241ADDAA106000091GF105991031021008001001021MA1999999099641MD1999999-0071REMSYN070AAXX  07184 82678 32596 50903 10326 20238 39964 40124 83202 333 59007;EQDQ01  00002PRCP06
0198826780999992004050800004-06767-043017FM-12+013899999V0209999C000012200019N0002001N1+02801+02311101501ADDAA106000091GF104991021031008001021011KA1240M+03331MA1999999099931MD1999999+0011REMSYN088AAXX  08004 82678 32592 40000 10280 20231 39993 40150 82321 333 10333 29070 55088 58001;EQDQ01  00002PRCP06
0186826780999992004050812004-06767-043017FM-12+013899999V0200901N003112200019N0040001N1+02921+02061101571ADDAA106000091GF103991011011008001001011KA1240N+02341MA1999999100001MD1999999-0121REMSYN076AAXX  08124 82678 32596 30906 10292 20206 30000 40157 81101 333 20234 59012;EQDQ01  00002PRCP06
0208826780999992004050900004-06767-043017FM-12+013899999V0209999C000012200019N0002001N1+02701+02301101411ADDAA106000091GA1001+999999999GF100991001001999999001001KA1240M+03311MA1999999099841MD1999999-0091REMSYN082AAXX  09004 82678 32992 00000 10270 20230 39984 40141 333 10331 29068 55082 59009;EQDQ01  00002PRCP06
0186826780999992004050912004-06767-043017FM-12+013899999V0200501N001012200019N0040001N1+02821+02171101561ADDAA106000091GF103991011011008001031011KA1240N+02181MA1999999099981MD1999999-0021REMSYN076AAXX  09124 82678 32596 30502 10282 20217 39998 40156 81131 333 20218 59002;EQDQ01  00002PRCP06
0167826780999992004050918004-06767-043017FM-12+013899999V0200501N000512200019N0040001N1+03381+02091101141ADDAA106000091GF103991021011008001031001MA1999999099581MD1999999-0191REMSYN070AAXX  09184 82678 32596 30501 10338 20209 39958 40114 82130 333 59019;EQDQ01  00002PRCP06
0208826780999992004051000004-06767-043017FM-12+013899999V0209999C000012200019N0002001N1+02601+02291101291ADDAA106000091GA1001+999999999GF100991001001999999001001KA1240M+03441MA1999999099711MD1999999-0131REMSYN082AAXX  10004 82678 32992 00000 10260 20229 39971 40129 333 10344 29070 55103 59013;EQDQ01  00002PRCP06
0186826780999992004051012004-06767-043017FM-12+013899999V0203601N001010450019N0040001N1+02691+02241101551ADDAA106000091GF108991041081008001031001KA1240N+02261MA1999999099971MD1999999-0011REMSYN076AAXX  10124 82678 32596 83602 10269 20224 39997 40155 84830 333 20226 59001;EQDQ01  00002PRCP06
0183826780999992004051018004-06767-043017FM-12+013899999V0202701N001510075019N0040001N1+03431+02131101101ADDAA106000091GF106991999021008001001001MA1999999099541MD1999999-0041REMSYN070AAXX  10184 82678 32596 62703 10343 20213 39954 40110 85200 333 59004;EQDQ01+000052SCOTLCQ02  00002PRCP06
0208826780999992004051100004-06767-043017FM-12+013899999V0200901N001012200019N0002001N1+02751+02401101331ADDAA106000091GA1001+999999999GF100991001001999999001001KA1240M+03491MA1999999099751MD1999999+0041REMSYN082AAXX  11004 82678 32992 00902 10275 20240 39975 40133 333 10349 29072 55082 58004;EQDQ01  00002PRCP06
0186826780999992004051112004-06767-043017FM-12+013899999V0200901N001512200019N0040001N1+02861+02111101571ADDAA106000091GF101991011001017501031001KA1240N+02301MA1999999100001MD1999999+0031REMSYN076AAXX  11124 82678 32796 10903 10286 20211 30000 40157 81030 333 20230 58003;EQDQ01  00002PRCP06
0167826780999992004051118004-06767-043017FM-12+013899999V0200901N001512200019N0040001N1+03361+02001101091ADDAA106000091GF105991031021008001001011MA1999999099531MD1999999-0011REMSYN070AAXX  11184 82678 32596 50903 10336 20200 39953 40109 83201 333 59001;EQDQ01  00002PRCP06
0208826780999992004051200004-06767-043017FM-12+013899999V0209999C000012200019N0002001N1+02601+02141101291ADDAA106000091GA1001+999999999GF100991001001999999001001KA1240M+03411MA1999999099721MD1999999-0031REMSYN082AAXX  12004 82678 32992 00000 10260 20214 39972 40129 333 10341 29065 55104 59003;EQDQ01  00002PRCP06
0202826780999992004051212004-06767-043017FM-12+013899999V0202701N001519999999N0040001N1+02881+02371101621ADDAA106000091GF106991999021008001001001KA1240N+02391MA1999999100041MD1999999+0041REMSYN076AAXX  12124 82678 32596 62703 10288 20237 30004 40162 83200 333 20239 58004;EQDQ01+000032SCOTLCQ02  00002PRCP06
0171826780999992004051218004-06767-043017FM-12+013899999V0200901N001010450019N0040001N1+03231+02171101091ADDAY121061AY261061GF106991031021008001031021MA1999999099531MD1999999+0001MW1021REMSYN082AAXX  12184 82678 21596 60902 10323 20217 39953 40109 70226 83232 333 58000 60091;
0181826780999992004051312004-06767-043017FM-12+013899999V0200501N001510075019N0040001N1+02801+02251101551ADDGF108991999001008001021001KA1240N+02311MA1999999099981MD1999999-0061REMSYN082AAXX  13124 82678 22596 80503 10280 20225 39998 40155 85020 333 20231 59006 60094;EQDQ01+000052SCOTLC
0183826780999992004051318004-06767-043017FM-12+013899999V0200501N002119999999N0040001N1+03351+02121101041ADDAA106000091GF105991999021008001001001MA1999999099481MD1999999-0051REMSYN070AAXX  13184 82678 32596 50504 10335 20212 39948 40104 83200 333 59005;EQDQ01+000032SCOTLCQ02  00002PRCP06
0208826780999992004051400004-06767-043017FM-12+013899999V0200901N001012200019N0002001N1+02621+02411101261ADDAA106000091GA1001+999999999GF100991001001999999001001KA1240M+03441MA1999999099681MD1999999-0151REMSYN082AAXX  14004 82678 32992 00902 10262 20241 39968 40126 333 10344 29074 55087 59015;EQDQ01  00002PRCP06
0167826780999992004051418004-06767-043017FM-12+013899999V0200901N001512200019N0040001N1+03281+02101100951ADDAA106000091GF105991031021008001001011MA1999999099391MD1999999-0091REMSYN070AAXX  14184 82678 32596 50903 10328 20210 39939 40095 83201 333 59009;EQDQ01  00002PRCP06
0208826780999992004051500004-06767-043017FM-12+013899999V0209999C000012200019N0002001N1+02701+02301101101ADDAA106000091GA1001+999999999GF100991001001999999001001KA1240M+03431MA1999999099531MD1999999-0151REMSYN082AAXX  15004 82678 32992 00000 10270 20230 39953 40110 333 10343 29068 55098 59015;EQDQ01  00002PRCP06
0186826780999992004051512004-06767-043017FM-12+013899999V0209999C000010075019N0040001N1+02901+02271101441ADDAA106000091GF108991051031008001001021KA1240N+02241MA1999999099871MD1999999-0041REMSYN076AAXX  15124 82678 32596 80000 10290 20227 39987 40144 85302 333 20224 59004;EQDQ01  00002PRCP06
0167826780999992004051518004-06767-043017FM-12+013899999V0200901N001512200019N0040001N1+03381+02191100991ADDAA106000091GF105991031021008001001011MA1999999099431MD1999999+0041REMSYN070AAXX  15184 82678 32596 50903 10338 20219 39943 40099 83201 333 58004;EQDQ01  00002PRCP06
0208826780999992004051600004-06767-043017FM-12+013899999V0209999C000012200019N0002001N1+02721+02301101321ADDAA106000091GA1001+999999999GF100991001001999999001001KA1240M+03451MA1999999099751MD1999999+0221REMSYN082AAXX  16004 82678 32992 00000 10272 20230 39975 40132 333 10345 29069 55095 58022;EQDQ01  00002PRCP06
0186826780999992004051612004-06767-043017FM-12+013899999V0200901N002611050019N0040001N1+02921+02091101441ADDAA106000091GF105991031001017501031021KA1240N+02241MA1999999099871MD1999999+0001REMSYN076AAXX  16124 82678 32796 50905 10292 20209 39987 40144 83032 333 20224 58000;EQDQ01  00002PRCP06
0167826780999992004051618004-06767-043017FM-12+013899999V0200901N001511050019N0040001N1+03381+02091101071ADDAA106000091GF106991031011008001001021MA1999999099511MD1999999+0081REMSYN070AAXX  16184 82678 32596 60903 10338 20209 39951 40107 83102 333 58008;EQDQ01  00002PRCP06
0208826780999992004051700004-06767-043017FM-12+013899999V0209999C000012200019N0002001N1+02641+02391101201ADDAA106000091GA1001+999999999GF100991001001999999001001KA1240M+03451MA1999999099631MD1999999-0121REMSYN082AAXX  17004 82678 32992 00000 10264 20239 39963 40120 333 10345 29070 55092 59012;EQDQ01  00002PRCP06
0186826780999992004051712004-06767-043017FM-12+013899999V0200901N001512200019N0040001N1+02841+02071101491ADDAA106000091GF102991011001017501031011KA1240N+02121MA1999999099911MD1999999+0041REMSYN076AAXX  17124 82678 32796 20903 10284 20207 39991 40149 81031 333 20212 58004;EQDQ01  00002PRCP06
0183826780999992004051718004-06767-043017FM-12+013899999V0200901N001519999999N0040001N1+03401+01961101061ADDAA106000091GF105991999021008001001001MA1999999099501MD1999999-0011REMSYN070AAXX  17184 82678 32596 50903 10340 20196 39950 40106 84200 333 59001;EQDQ01+000042SCOTLCQ02  00002PRCP06
0208826780999992004051800004-06767-043017FM-12+013899999V0209999C000012200019N0002001N1+02701+02281101241ADDAA106000091GA1001+999999999GF100991001001999999001001KA1240M+03471MA1999999099671MD1999999+0041REMSYN082AAXX  18004 82678 32992 00000 10270 20228 39967 40124 333 10347 29066 55104 58004;EQDQ01  00002PRCP06
0202826780999992004051812004-06767-043017FM-12+013899999V0200901N003110075019N0040001N1+02851+02141101591ADDAA106000091GF107991999041008001001001KA1240N+02361MA1999999100021MD1999999+0181REMSYN076AAXX  18124 82678 32596 70906 10285 20214 30002 40159 85400 333 20236 58018;EQDQ01+000052SCOTLCQ02  00002PRCP06
0167826780999992004051818004-06767-043017FM-12+013899999V0200901N003110450019N0040001N1+03181+02071101141ADDAA106000091GF105991031021008001031011MA1999999099571MD1999999+0071REMSYN070AAXX  18184 82678 32596 50906 10318 20207 39957 40114 83231 333 58007;EQDQ01  00002PRCP06
0208826780999992004051900004-06767-043017FM-12+013899999V0200901N000512200019N0002001N1+02641+02181101421ADDAA106000091GA1001+999999999GF100991001001999999001001KA1240M+03351MA1999999099851MD1999999+0181REMSYN082AAXX  19004 82678 32992 00901 10264 20218 39985 40142 333 10335 29068 55077 58018;EQDQ01  00002PRCP06
0186826780999992004051912004-06767-043017FM-12+013899999V0201401N003119999999N0040001N1+02751+01921101861ADDAA106000091GF106991001001999999001011KA1240N+02071MA1999999100271MD1999999+0251REMSYN076AAXX  19124 82678 32996 61406 10275 20192 30027 40186 80001 333 20207 58025;EQDQ01  00002PRCP06
0183826780999992004051918004-06767-043017FM-12+013899999V0200901N002619999999N0040001N1+03161+01891101261ADDAA106000091GF108991999021008001001001MA1999999099881MD1999999+0311REMSYN070AAXX  19184 82678 32596 80905 10316 20189 39988 40126 84200 333 58031;EQDQ01+000042SCOTLCQ02  00002PRCP06
0208826780999992004052000004-06767-043017FM-12+013899999V0201801N001012200019N0002001N1+02461+02031101631ADDAA106000091GA1001+999999999GF100991001001999999001001KA1240M+03261MA1999999100041MD1999999+0191REMSYN082AAXX  20004 82678 32992 01802 10246 20203 30004 40163 333 10326 29066 55091 58019;EQDQ01  00002PRCP06
0186826780999992004052012004-06767-043017FM-12+013899999V0200901N003112200019N0040001N1+02781+02041101891ADDAA106000091GF104991041001017501031001KA1240N+02101MA1999999100301MD1999999+0031REMSYN076AAXX  20124 82678 32796 40906 10278 20204 30030 40189 84030 333 20210 58003;EQDQ01  00002PRCP06
0167826780999992004052018004-06767-043017FM-12+013899999V0200901N001010075019N0040001N1+03041+02061101521ADDAA106000091GF108991051021008001031011MA1999999099931MD1999999+0051REMSYN070AAXX  20184 82678 32596 80902 10304 20206 39993 40152 85231 333 58005;EQDQ01  00002PRCP06
0208826780999992004052100004-06767-043017FM-12+013899999V0209999C000012200019N0002001N1+02721+02301101631ADDAA106000091GA1001+999999999GF100991001001999999001001KA1240M+03121MA1999999100051MD1999999+0011REMSYN082AAXX  21004 82678 32992 00000 10272 20230 30005 40163 333 10312 29069 55054 58001;EQDQ01  00002PRCP06
0186826780999992004052112004-06767-043017FM-12+013899999V0200901N002610075019N0040001N1+02761+02141101771ADDAA106000091GF108991051021008001021011KA1240N+02281MA1999999100161MD1999999-0111REMSYN076AAXX  21124 82678 32596 80905 10276 20214 30016 40177 85221 333 20228 59011;EQDQ01  00002PRCP06
0167826780999992004052118004-06767-043017FM-12+013899999V0201401N001512200019N0040001N1+03241+02061101301ADDAA106000091GF105991031021008001001011MA1999999099731MD1999999-0201REMSYN070AAXX  21184 82678 32596 51403 10324 20206 39973 40130 83201 333 59020;EQDQ01  00002PRCP06
0208826780999992004052200004-06767-043017FM-12+013899999V0209999C000012200019N0002001N1+02561+02191101431ADDAA106000091GA1001+999999999GF100991001001999999001001KA1240M+03321MA1999999099851MD1999999-0201REMSYN082AAXX  22004 82678 32992 00000 10256 20219 39985 40143 333 10332 29070 55056 59020;EQDQ01  00002PRCP06
0167826780999992004052218004-06767-043017FM-12+013899999V0200901N003110075019N0040001N1+03301+02021101241ADDAA106000091GF105991051021008001001001MA1999999099671MD1999999-0061REMSYN070AAXX  22184 82678 32596 50906 10330 20202 39967 40124 85200 333 59006;EQDQ01  00002PRCP06
0208826780999992004052300004-06767-043017FM-12+013899999V0209999C000012200019N0002001N1+02441+01971101441ADDAA106000091GA1001+999999999GF100991001001999999001001KA1240M+03371MA1999999099851MD1999999+0001REMSYN082AAXX  23004 82678 32992 00000 10244 20197 39985 40144 333 10337 29065 55104 58000;EQDQ01  00002PRCP06
0186826780999992004052312004-06767-043017FM-12+013899999V0200901N004112200019N0040001N1+02701+02061101711ADDAA106000091GF101991011001017501031001KA1240N+01941MA1999999100121MD1999999+0081REMSYN076AAXX  23124 82678 32796 10908 10270 20206 30012 40171 81030 333 20194 58008;EQDQ01  00002PRCP06
0167826780999992004052318004-06767-043017FM-12+013899999V0200501N001010075019N0040001N1+03261+02021101411ADDAA106000091GF105991051021008001001001MA1999999099831MD1999999+0161REMSYN070AAXX  23184 82678 32596 50502 10326 20202 39983 40141 85200 333 58016;EQDQ01  00002PRCP06
0208826780999992004052400004-06767-043017FM-12+013899999V0209999C000012200019N0002001N1+02541+02231101581ADDAA106000091GA1001+999999999GF100991001001999999001001KA1240M+03411MA1999999099991MD1999999+0141REMSYN082AAXX  24004 82678 32992 00000 10254 20223 39999 40158 333 10341 29070 55092 58014;EQDQ01  00002PRCP06
0196826780999992004052412004-06767-043017FM-12+013899999V0201401N004612200019N0040001N1+02791+01961101831ADDAA106000091GA1001+999999999GF100991001001999999001001KA1240N+02121MA1999999100241MD1999999+0121REMSYN070AAXX  24124 82678 32996 01409 10279 20196 30024 40183 333 20212 58012;EQDQ01  00002PRCP06
0167826780999992004052418004-06767-043017FM-12+013899999V0200901N001510075019N0040001N1+03281+01861101361ADDAA106000091GF105991051021008001001001MA1999999099791MD1999999-0041REMSYN070AAXX  24184 82678 32596 50903 10328 20186 39979 40136 85200 333 59004;EQDQ01  00002PRCP06
0208826780999992004052500004-06767-043017FM-12+013899999V0209999C000012200019N0002001N1+02541+02111101521ADDAA106000091GA1001+999999999GF100991001001999999001001KA1240M+03441MA1999999099941MD1999999-0051REMSYN082AAXX  25004 82678 32992 00000 10254 20211 39994 40152 333 10344 29064 55094 59005;EQDQ01  00002PRCP06
0186826780999992004052512004-06767-043017FM-12+013899999V0200901N002611050019N0040001N1+02861+02061101791ADDAA106000091GF105991021011008001041041KA1240N+02231MA1999999100211MD1999999-0031REMSYN076AAXX  25124 82678 32596 50905 10286 20206 30021 40179 82144 333 20223 59003;EQDQ01  00002PRCP06
0183826780999992004052518004-06767-043017FM-12+013899999V0201401N003119999999N0040001N1+03081+02101101481ADDAA106000091GF106991999021008001001001MA1999999099901MD1999999+0111REMSYN070AAXX  25184 82678 32596 61406 10308 20210 39990 40148 84200 333 58011;EQDQ01+000042SCOTLCQ02  00002PRCP06
0198826780999992004052600004-06767-043017FM-12+013899999V0209999C000010075019N0002001N1+02671+02331101601ADDAA106000091GF108991081041008001999999KA1240M+03351MA1999999100021MD1999999+0081REMSYN088AAXX  26004 82678 32592 80000 10267 20233 30002 40160 884// 333 10335 29070 55066 58008;EQDQ01  00002PRCP06
0196826780999992004052612004-06767-043017FM-12+013899999V0200901N002612200019N0040001N1+02881+02081101611ADDAA106000091GA1001+999999999GF100991001001999999001001KA1240N+02181MA1999999100111MD1999999-0101REMSYN070AAXX  26124 82678 32996 00905 10288 20208 30011 40161 333 20218 59010;EQDQ01  00002PRCP06
0167826780999992004052618004-06767-043017FM-12+013899999V0201401N001012200019N0040001N1+03421+01981101221ADDAA106000091GF103991021021008001001011MA1999999099661MD1999999-0241REMSYN070AAXX  26184 82678 32596 31402 10342 20198 39966 40122 82201 333 59024;EQDQ01  00002PRCP06
0208826780999992004052700004-06767-043017FM-12+013899999V0209999C000012200019N0002001N1+02661+02141101441ADDAA106000091GA1001+999999999GF100991001001999999001001KA1240M+03451MA1999999099871MD1999999-0151REMSYN082AAXX  27004 82678 32992 00000 10266 20214 39987 40144 333 10345 29063 55100 59015;EQDQ01  00002PRCP06
0196826780999992004052712004-06767-043017FM-12+013899999V0203601N000512200019N0040001N1+02821+02241101641ADDAA106000091GA1001+999999999GF100991001001999999001001KA1240N+02121MA1999999100061MD1999999-0051REMSYN070AAXX  27124 82678 32996 03601 10282 20224 30006 40164 333 20212 59005;EQDQ01  00002PRCP06
0167826780999992004052718004-06767-043017FM-12+013899999V0201401N001512200019N0040001N1+03521+01831101221ADDAA106000091GF104991041021008001001001MA1999999099661MD1999999+0001REMSYN070AAXX  27184 82678 32596 41403 10352 20183 39966 40122 84200 333 58000;EQDQ01  00002PRCP06
0198826780999992004052800004-06767-043017FM-12+013899999V0209999C000012200019N0002001N1+02621+02251101401ADDAA106000091GF103991031001017501031001KA1240M+03551MA1999999099821MD1999999-0051REMSYN088AAXX  28004 82678 32792 30000 10262 20225 39982 40140 83030 333 10355 29067 55106 59005;EQDQ01  00002PRCP06
0186826780999992004052812004-06767-043017FM-12+013899999V0200501N001512200019N0040001N1+02961+02211101751ADDAA106000091GF103991011011008001041011KA1240N+02211MA1999999100171MD1999999+0111REMSYN076AAXX  28124 82678 32596 30503 10296 20221 30017 40175 81141 333 20221 58011;EQDQ01  00002PRCP06
0152826780999992004052818004-06767-043017FM-12+013899999V0201401N001512200019N0040001N1+03461+01981101361ADDAA106000091GF101991999999008001999999MA1999999099781REMSYN069AAXX  28184 82678 32596 11403 10346 20198 39978 40136 8420 333 58012;EQDQ01  00002PRCP06
0198826780999992004052900004-06767-043017FM-12+013899999V0209999C000012200019N0002001N1+02641+02161101491ADDAA106000091GF103991031001017501031001KA1240M+03511MA1999999099921MD1999999+0101REMSYN088AAXX  29004 82678 32792 30000 10264 20216 39992 40149 83030 333 10351 29064 55103 58010;EQDQ01  00002PRCP06
0186826780999992004052912004-06767-043017FM-12+013899999V0201401N001510075019N0040001N1+02721+02151101821ADDAA106000091GF108991051021008001041999KA1240N+02241MA1999999100241MD1999999+0071REMSYN076AAXX  29124 82678 32596 81403 10272 20215 30024 40182 8524/ 333 20224 58007;EQDQ01  00002PRCP06
0167826780999992004052918004-06767-043017FM-12+013899999V0200901N003111050019N0040001N1+03261+02081101381ADDAA106000091GF105991031021008001001021MA1999999099811MD1999999+0031REMSYN070AAXX  29184 82678 32596 50906 10326 20208 39981 40138 83202 333 58003;EQDQ01  00002PRCP06
0208826780999992004053000004-06767-043017FM-12+013899999V0209999C000012200019N0002001N1+02481+02031101591ADDAA106000091GA1001+999999999GF100991001001999999001001KA1240M+03321MA1999999100011MD1999999+0091REMSYN082AAXX  30004 82678 32992 00000 10248 20203 30001 40159 333 10332 29068 55058 58009;EQDQ01  00002PRCP06
0196826780999992004053012004-06767-043017FM-12+013899999V0200901N005112200019N0040001N1+02721+01931101851ADDAA106000091GA1001+999999999GF100991001001999999001001KA1240N+02301MA1999999100261MD1999999+0021REMSYN070AAXX  30124 82678 32996 00910 10272 20193 30026 40185 333 20230 58002;EQDQ01  00002PRCP06
0167826780999992004053018004-06767-043017FM-12+013899999V0201401N004112200019N0040001N1+03231+01841101331ADDAA106000091GF104991041021008001001001MA1999999099761MD1999999-0051REMSYN070AAXX  30184 82678 32596 41408 10323 20184 39976 40133 84200 333 59005;EQDQ01  00002PRCP06
0198826780999992004053100004-06767-043017FM-12+013899999V0201801N000512200019N0002001N1+02581+02251101441ADDAA106000091GF103991001001999999001021KA1240M+03201MA1999999099861MD1999999+0121REMSYN088AAXX  31004 82678 32992 31801 10258 20225 39986 40144 80002 333 10320 29074 55093 58012;EQDQ01  00002PRCP06
0202826780999992004053112004-06767-043017FM-12+013899999V0201401N004119999999N0040001N1+02841+01961101801ADDAA106000091GF105991999011008001001001KA1240N+02341MA1999999100221MD1999999-0041REMSYN076AAXX  31124 82678 32596 51408 10284 20196 30022 40180 82100 333 20234 59004;EQDQ01+000022SCOTLCQ02  00002PRCP06
0183826780999992004053118004-06767-043017FM-12+013899999V0201401N001012200019N0040001N1+03291+01741101311ADDAA106000091GF104991999021008001001001MA1999999099741MD1999999-0021REMSYN070AAXX  31184 82678 32596 41402 10329 20174 39974 40131 86200 333 59002;EQDQ01+000062SCOTLCQ02  00002PRCP06
0208826780999992004060100004-06767-043017FM-12+013899999V0200901N001012200019N0002001N1+02481+01981101451ADDAA106000091GA1001+999999999GF100991001001999999001001KA1240M+03371MA1999999099871MD1999999-0021REMSYN082AAXX  01004 82678 32992 00902 10248 20198 39987 40145 333 10337 29062 55099 59002;EQDQ01  00002PRCP06
0186826780999992004060112004-06767-043017FM-12+013899999V0201401N002612200019N0040001N1+02821+01941101851ADDAA106000091GF104991021021008001001011KA1240N+02051MA1999999100261MD1999999+0041REMSYN076AAXX  01124 82678 32596 41405 10282 20194 30026 40185 82201 333 20205 58004;EQDQ01  00002PRCP06
0183826780999992004060118004-06767-043017FM-12+013899999V0201401N001012200019N0040001N1+03321+02001101331ADDAA106000091GF104991999021999999001001MA1999999099751MD1999999+0011REMSYN070AAXX  01184 82678 32996 41402 10332 20200 39975 40133 83200 333 58001;EQDQ01+000032SCOTLCQ02  00002PRCP06
0198826780999992004060200004-06767-043017FM-12+013899999V0209999C000010450019N0002001N1+02721+02051101641ADDAA106000091GF108991031051008001031011KA1240M+03371MA1999999100051MD1999999+0181REMSYN088AAXX  02004 82678 32592 80000 10272 20205 30005 40164 83531 333 10337 29060 55084 58018;EQDQ01  00002PRCP06
0186826780999992004060212004-06767-043017FM-12+013899999V0201401N001512200019N0040001N1+02821+01971101761ADDAA106000091GF103991031021008001001001KA1240N+02311MA1999999100181MD1999999-0081REMSYN076AAXX  02124 82678 32596 31403 10282 20197 30018 40176 83200 333 20231 59008;EQDQ01  00002PRCP06
0167826780999992004060218004-06767-043017FM-12+013899999V0200901N003112200019N0040001N1+03381+01711101341ADDAA106000091GF104991021021008001001011MA1999999099781MD1999999+0031REMSYN070AAXX  02184 82678 32596 40906 10338 20171 39978 40134 82201 333 58003;EQDQ01  00002PRCP06
0199826780999992004060300004-06767-043017FM-12+013899999V0209999C000011050019N0002001N1+02581+02011101581ADDAA106000091GF105991021031008001001021KA1240M+03431MD1999999-0051REMSYN088AAXX  03004 82678 32592 50000 10258 20201 31000 40158 82302 333 10343 29060 55104 59005;EQDQ01+010001APOSP Q02  00002PRCP06
0196826780999992004060312004-06767-043017FM-12+013899999V0201401N003112200019N0040001N1+02761+02021101881ADDAA106000091GA1001+999999999GF100991001001999999001001KA1240N+02381MA1999999100291MD1999999+0111REMSYN070AAXX  03124 82678 32996 01406 10276 20202 30029 40188 333 20238 58011;EQDQ01  00002PRCP06
0167826780999992004060318004-06767-043017FM-12+013899999V0201401N002612200019N0040001N1+03301+01911101501ADDAA106000091GF105991041021008001001011MA1999999099931MD1999999+0151REMSYN070AAXX  03184 82678 32596 51405 10330 20191 39993 40150 84201 333 58015;EQDQ01  00002PRCP06
0208826780999992004060400004-06767-043017FM-12+013899999V0209999C000012200019N0002001N1+02561+02111101581ADDAA106000091GA1001+999999999GF100991001001999999001001KA1240M+03411MA1999999100001MD1999999+0001REMSYN082AAXX  04004 82678 32992 00000 10256 20211 30000 40158 333 10341 29065 55104 58000;EQDQ01  00002PRCP06
0186826780999992004060412004-06767-043017FM-12+013899999V0200901N003112200019N0040001N1+02781+02041101821ADDAA106000091GF102991021001017501031001KA1240N+02041MA1999999100231MD1999999-0061REMSYN076AAXX  04124 82678 32796 20906 10278 20204 30023 40182 82030 333 20204 59006;EQDQ01  00002PRCP06
0167826780999992004060418004-06767-043017FM-12+013899999V0201401N000510075019N0040001N1+03441+01761101311ADDAA106000091GF105991051021008001001001MA1999999099731MD1999999-0201REMSYN070AAXX  04184 82678 32596 51401 10344 20176 39973 40131 85200 333 59020;EQDQ01  00002PRCP06
0198826780999992004060500004-06767-043017FM-12+013899999V0209999C000012200019N0002001N1+02681+02111101441ADDAA106000091GF102991021001017501031001KA1240M+03531MA1999999099851MD1999999-0141REMSYN088AAXX  05004 82678 32792 20000 10268 20211 39985 40144 82030 333 10353 29061 55104 59014;EQDQ01  00002PRCP06
0186826780999992004060512004-06767-043017FM-12+013899999V0201401N001012200019N0040001N1+02861+02061101621ADDAA106000091GF103991011001017501031011KA1240N+02151MA1999999100041MD1999999-0191REMSYN076AAXX  05124 82678 32796 31402 10286 20206 30004 40162 81031 333 20215 59019;EQDQ01  00002PRCP06
0167826780999992004060518004-06767-043017FM-12+013899999V0201401N001512200019N0040001N1+03381+01751101241ADDAA106000091GF105991021011008001001011MA1999999099671MD1999999-0061REMSYN070AAXX  05184 82678 32596 51403 10338 20175 39967 40124 82101 333 59006;EQDQ01  00002PRCP06
0208826780999992004060600004-06767-043017FM-12+013899999V0200901N001012200019N0002001N1+02641+01951101371ADDAA106000091GA1001+999999999GF100991001001999999001001KA1240M+03541MA1999999099801MD1999999-0061REMSYN082AAXX  06004 82678 32992 00902 10264 20195 39980 40137 333 10354 29058 55102 59006;EQDQ01  00002PRCP06
0190826780999992004060612004-06767-043017FM-12+013899999V0203201N000512200019N0040001N1+02631+02211101821ADDAY161061AY221061GF104991021021008001031021KA1240N+02211MA1999999100231MD1999999+0191MW1021REMSYN088AAXX  06124 82678 21596 43201 10263 20221 30023 40182 70262 82232 333 20221 58019 60044;
0171826780999992004060618004-06767-043017FM-12+013899999V0200901N001510450019N0040001N1+03071+02081101351ADDAY161061AY221061GF108991041081008001021021MA1999999099801MD1999999+0131MW1021REMSYN082AAXX  06184 82678 21596 80903 10307 20208 39980 40135 70262 84822 333 58013 60011;
0208826780999992004060700004-06767-043017FM-12+013899999V0209999C000012200019N0002001N1+02561+02081101581ADDAA106000091GA1001+999999999GF100991001001999999001001KA1240M+03231MA1999999099991MD1999999+0191REMSYN082AAXX  07004 82678 32992 00000 10256 20208 39999 40158 333 10323 29071 55025 58019;EQDQ01  00002PRCP06
0162826780999992004060712004-06767-043017FM-12+013899999V0201401N002610450019N0040001N1+02681+02061101581ADDGF108991041021008001031011KA1240N+02041MA1999999100301MD1999999+0071REMSYN082AAXX  07124 82678 22596 81405 10268 20206 30030 40158 84231 333 20204 58007 60014;
0208826780999992004060800004-06767-043017FM-12+013899999V0209999C000012200019N0002001N1+02401+02091101651ADDAA106000091GA1001+999999999GF100991001001999999001001KA1240M+03251MA1999999100061MD1999999+0071REMSYN082AAXX  08004 82678 32992 00000 10240 20209 30006 40165 333 10325 29071 55081 58007;EQDQ01  00002PRCP06
0186826780999992004060812004-06767-043017FM-12+013899999V0201401N003112200019N0040001N1+02721+01881101901ADDAA106000091GF103991021011008001001011KA1240N+02051MA1999999100301MD1999999+0001REMSYN076AAXX  08124 82678 32596 31406 10272 20188 30030 40190 82101 333 20205 58000;EQDQ01  00002PRCP06
0199826780999992004060818004-06767-043017FM-12+013899999V0201401N999992200019N0040001N1+03221+01571101501ADDAA106000091GF104991021011008001001021MA1999999099911MD1999999-0041REMSYN070AAXX  08184 82678 32596 41460 10322 20157 39991 40150 82102 333 59004;EQDQ01+003083WOSPD Q02  00002PRCP06Q030003083WOSPD 
0208826780999992004060900004-06767-043017FM-12+013899999V0209999C000012200019N0002001N1+02301+01801101691ADDAA106000091GA1001+999999999GF100991001001999999001001KA1240M+03291MA1999999100091MD1999999+0031REMSYN082AAXX  09004 82678 32992 00000 10230 20180 30009 40169 333 10329 29062 55098 58003;EQDQ01  00002PRCP06
0186826780999992004060912004-06767-043017FM-12+013899999V0201401N003112200019N0040001N1+02661+01711102081ADDAA106000091GF102991001001999999001011KA1240N+01741MA1999999100481MD1999999+0181REMSYN076AAXX  09124 82678 32996 21406 10266 20171 30048 40208 80001 333 20174 58018;EQDQ01  00002PRCP06
0167826780999992004060918004-06767-043017FM-12+013899999V0200901N003110075019N0040001N1+03181+01691101641ADDAA106000091GF105991051021008001001001MA1999999100051MD1999999+0141REMSYN070AAXX  09184 82678 32596 50906 10318 20169 30005 40164 85200 333 58014;EQDQ01  00002PRCP06
0198826780999992004061000004-06767-043017FM-12+013899999V0209999C000012200019N0002001N1+02541+02001101711ADDAA106000091GF103991031011017501031001KA1240M+03291MA1999999100121MD1999999+0031REMSYN088AAXX  10004 82678 32792 30000 10254 20200 30012 40171 83130 333 10329 29060 55101 58003;EQDQ01  00002PRCP06
0186826780999992004061012004-06767-043017FM-12+013899999V0201401N003612200019N0040001N1+02761+01911101901ADDAA106000091GF101991011011008001001001KA1240N+01981MA1999999100311MD1999999-0171REMSYN076AAXX  10124 82678 32596 11407 10276 20191 30031 40190 81100 333 20198 59017;EQDQ01  00002PRCP06
0167826780999992004061018004-06767-043017FM-12+013899999V0200901N003110075019N0500001N1+03351+01711101441ADDAA106000091GF105991051021008001001001MA1999999099861MD1999999-0191REMSYN070AAXX  10184 82678 32599 50906 10335 20171 39986 40144 85200 333 59019;EQDQ01  00002PRCP06
0208826780999992004061100004-06767-043017FM-12+013899999V0209999C000012200019N0002001N1+02441+01791101661ADDAA106000091GA1001+999999999GF100991001001999999001001KA1240M+03421MA1999999100071MD1999999-0051REMSYN082AAXX  11004 82678 32992 00000 10244 20179 30007 40166 333 10342 29058 55104 59005;EQDQ01  00002PRCP06
0186826780999992004061112004-06767-043017FM-12+013899999V0201401N004110075019N0040001N1+02751+02001101921ADDAA106000091GF105991051051008001001001KA1240N+02051MA1999999100331MD1999999+0021REMSYN076AAXX  11124 82678 32596 51408 10275 20200 30033 40192 85500 333 20205 58002;EQDQ01  00002PRCP06
0167826780999992004061118004-06767-043017FM-12+013899999V0201401N003110075019N0040001N1+03241+01671101551ADDAA106000091GF105991051021008001001001MA1999999099971MD1999999+0111REMSYN070AAXX  11184 82678 32596 51406 10324 20167 39997 40155 85200 333 58011;EQDQ01  00002PRCP06
0208826780999992004061200004-06767-043017FM-12+013899999V0201401N000512200019N0002001N1+02381+01751101801ADDAA106000091GA1001+999999999GF100991001001999999001001KA1240M+03321MA1999999100211MD1999999+0141REMSYN082AAXX  12004 82678 32992 01401 10238 20175 30021 40180 333 10332 29060 55094 58014;EQDQ01  00002PRCP06
0196826780999992004061212004-06767-043017FM-12+013899999V0201401N004112200019N0040001N1+02641+01601102181ADDAA106000091GA1001+999999999GF100991001001999999001001KA1240N+01881MA1999999100581MD1999999+0251REMSYN070AAXX  12124 82678 32996 01408 10264 20160 30058 40218 333 20188 58025;EQDQ01  00002PRCP06
0208826780999992004061300004-06767-043017FM-12+013899999V0209999C000012200019N0002001N1+02521+01861101881ADDAA106000091GA1001+999999999GF100991001001999999001001KA1240M+03391MA1999999099291MD1999999+0081REMSYN082AAXX  13004 82678 32992 00000 10252 20186 39929 40188 333 10339 29058 55104 58008;EQDQ01  00002PRCP06
0196826780999992004061312004-06767-043017FM-12+013899999V0201401N005112200019N0040001N1+02701+01691102001ADDAA106000091GA1001+999999999GF100991001001999999001001KA1240N+01981MA1999999100411MD1999999-0171REMSYN070AAXX  13124 82678 32996 01410 10270 20169 30041 40200 333 20198 59017;EQDQ01  00002PRCP06
0167826780999992004061318004-06767-043017FM-12+013899999V0201401N003112200019N0040001N1+03381+01791101521ADDAA106000091GF102991021011008001001001MA1999999099941MD1999999-0281REMSYN070AAXX  13184 82678 32596 21406 10338 20179 39994 40152 82100 333 59028;EQDQ01  00002PRCP06
0208826780999992004061400004-06767-043017FM-12+013899999V0209999C000012200019N0002001N1+02461+01941101701ADDAA106000091GA1001+999999999GF100991001001999999001001KA1240M+03411MA1999999100111MD1999999-0181REMSYN082AAXX  14004 82678 32992 00000 10246 20194 30011 40170 333 10341 29060 55104 59018;EQDQ01  00002PRCP06
0186826780999992004061412004-06767-043017FM-12+013899999V0201401N003110450019N0040001N1+02561+01801102041ADDAA106000091GF108991041051008001031999KA1240N+02121MA1999999100441MD1999999+0031REMSYN076AAXX  14124 82678 32596 81406 10256 20180 30044 40204 8453/ 333 20212 58003;EQDQ01  00002PRCP06
0167826780999992004061418004-06767-043017FM-12+013899999V0201401N002612200019N0040001N1+03361+01731101531ADDAA106000091GF104991041011008001001001MA1999999099961MD1999999+0021REMSYN070AAXX  14184 82678 32596 41405 10336 20173 39996 40153 84100 333 58002;EQDQ01  00002PRCP06
0208826780999992004061500004-06767-043017FM-12+013899999V0200901N000512200019N0002001N1+02561+01991101741ADDAA106000091GA1001+999999999GF100991001001999999001001KA1240M+03451MA1999999100151MD1999999+0041REMSYN082AAXX  15004 82678 32992 00901 10256 20199 30015 40174 333 10345 29061 55079 58004;EQDQ01  00002PRCP06
0186826780999992004061512004-06767-043017FM-12+013899999V0200901N004112200019N0040001N1+02761+01971102051ADDAA106000091GF103991011011008001031011KA1240N+02121MA1999999100461MD1999999+0021REMSYN076AAXX  15124 82678 32596 30908 10276 20197 30046 40205 81131 333 20212 58002;EQDQ01  00002PRCP06
0183826780999992004061518004-06767-043017FM-12+013899999V0200901N001519999999N0040001N1+03321+01851101591ADDAA106000091GF105991999021008001001001MA1999999100011MD1999999+0051REMSYN070AAXX  15184 82678 32596 50903 10332 20185 30001 40159 83200 333 58005;EQDQ01+000032SCOTLCQ02  00002PRCP06
0208826780999992004061600004-06767-043017FM-12+013899999V0201401N001012200019N0002001N1+02861+01921101731ADDAA106000091GA1001+999999999GF100991001001999999001001KA1240M+03391MA1999999100151MD1999999+0001REMSYN082AAXX  16004 82678 32992 01402 10286 20192 30015 40173 333 10339 29054 55101 58000;EQDQ01  00002PRCP06
0186826780999992004061612004-06767-043017FM-12+013899999V0201401N003112200019N0040001N1+02761+01971101841ADDAA106000091GF102991011011008001001011KA1240N+02281MA1999999100261MD1999999-0201REMSYN076AAXX  16124 82678 32596 21406 10276 20197 30026 40184 81101 333 20228 59020;EQDQ01  00002PRCP06
0167826780999992004061618004-06767-043017FM-12+013899999V0200901N003111050019N0040001N1+03321+02071101401ADDAA106000091GF105991031021008001001021MA1999999099831MD1999999-0181REMSYN070AAXX  16184 82678 32596 50906 10332 20207 39983 40140 83202 333 59018;EQDQ01  00002PRCP06
0198826780999992004061700004-06767-043017FM-12+013899999V0201401N001012200019N0002001N1+02861+01921101591ADDAA106000091GF103991031001017501031001KA1240M+03391MA1999999100021MD1999999-0131REMSYN088AAXX  17004 82678 32792 31402 10286 20192 30002 40159 83030 333 10339 29056 55086 59013;EQDQ01  00002PRCP06
0186826780999992004061712004-06767-043017FM-12+013899999V0201401N004110450019N0040001N1+02901+01961101791ADDAA106000091GF106991021011008001031021KA1240N+02601MA1999999100221MD1999999-0041REMSYN076AAXX  17124 82678 32596 61408 10290 20196 30022 40179 82132 333 20260 59004;EQDQ01  00002PRCP06
0167826780999992004061718004-06767-043017FM-12+013899999V0201401N003610450019N0040001N1+03301+01801101371ADDAA106000091GF107991041051008001031001MA1999999099811MD1999999-0021REMSYN070AAXX  17184 82678 32596 71407 10330 20180 39981 40137 84530 333 59002;EQDQ01  00002PRCP06
0198826780999992004061800004-06767-043017FM-12+013899999V0201401N003112200019N0002001N1+02861+01781101651ADDAA106000091GF102991021001017501031001KA1240M+03441MA1999999100081MD1999999+0061REMSYN088AAXX  18004 82678 32792 21406 10286 20178 30008 40165 82030 333 10344 29050 55063 58006;EQDQ01  00002PRCP06
0186826780999992004061812004-06767-043017FM-12+013899999V0201401N003610075019N0040001N1+02701+01801101971ADDAA106000091GF108991051051008001031091KA1240N+02301MA1999999100391MD1999999+0171REMSYN076AAXX  18124 82678 32596 81407 10270 20180 30039 40197 85539 333 20230 58017;EQDQ01  00002PRCP06
0167826780999992004061818004-06767-043017FM-12+013899999V0200901N003110075019N0040001N1+03231+01651101531ADDAA106000091GF108991061051008001021021MA1999999099961MD1999999+0151REMSYN070AAXX  18184 82678 32596 80906 10323 20165 39996 40153 86522 333 58015;EQDQ01  00002PRCP06
0198826780999992004061900004-06767-043017FM-12+013899999V0209999C000010075019N0002001N1+02831+01941101761ADDAA106000091GF108991061051008001001021KA1240M+03351MA1999999100181MD1999999+0101REMSYN088AAXX  19004 82678 32592 80000 10283 20194 30018 40176 86502 333 10335 29054 55007 58010;EQDQ01  00002PRCP06
0186826780999992004061912004-06767-043017FM-12+013899999V0201801N001010450019N0040001N1+02881+02131101861ADDAA106000091GF105991031051008001031011KA1240N+02311MA1999999100281MD1999999-0111REMSYN076AAXX  19124 82678 32596 51802 10288 20213 30028 40186 83531 333 20231 59011;EQDQ01  00002PRCP06
0167826780999992004061918004-06767-043017FM-12+013899999V0201401N001510075019N0040001N1+03021+02161101721ADDAA106000091GF108991081051008001999999MA1999999100141MD1999999+0181REMSYN070AAXX  19184 82678 32596 81403 10302 20216 30014 40172 885// 333 58018;EQDQ01  00002PRCP06
0214826780999992004062000004-06767-043017FM-12+013899999V0209999C000019999999N0002001N1+02641+02271101931ADDAA106000091GF105991999021008001001001KA1240M+03131MA1999999100351MD1999999+0181REMSYN088AAXX  20004 82678 32592 50000 10264 20227 30035 40193 83200 333 10313 29071 55033 58018;EQDQ01+000032SCOTLCQ02  00002PRCP06
0186826780999992004062012004-06767-043017FM-12+013899999V0201401N003112200019N0040001N1+02681+01841101981ADDAA106000091GF104991021011008001001011KA1240N+02281MA1999999100391MD1999999+0111REMSYN076AAXX  20124 82678 32596 41406 10268 20184 30039 40198 82101 333 20228 58011;EQDQ01  00002PRCP06
0167826780999992004062018004-06767-043017FM-12+013899999V0201401N002611050019N0040001N1+03241+01781101521ADDAA106000091GF105991031021008001001021MA1999999099951MD1999999-0191REMSYN070AAXX  20184 82678 32596 51405 10324 20178 39995 40152 83202 333 59019;EQDQ01  00002PRCP06
0208826780999992004062100004-06767-043017FM-12+013899999V0201401N001012200019N0002001N1+02721+01741101751ADDAA106000091GA1001+999999999GF100991001001999999001001KA1240M+03371MA1999999100171MD1999999-0181REMSYN082AAXX  21004 82678 32792 01402 10272 20174 30017 40175 333 10337 29053 55080 59018;EQDQ01  00002PRCP06
0186826780999992004062112004-06767-043017FM-12+013899999V0201401N002612200019N0040001N1+02681+01731102021ADDAA106000091GF102991021001017501031001KA1240N+02081MA1999999100431MD1999999+0041REMSYN076AAXX  21124 82678 32796 21405 10268 20173 30043 40202 82030 333 20208 58004;EQDQ01  00002PRCP06
0167826780999992004062118004-06767-043017FM-12+013899999V0200901N003110075019N0040001N1+03261+01761101591ADDAA106000091GF105991051021008001001001MA1999999100021MD1999999+0071REMSYN070AAXX  21184 82678 32596 50906 10326 20176 30002 40159 85200 333 58007;EQDQ01  00002PRCP06
0198826780999992004062200004-06767-043017FM-12+013899999V0201401N001510450019N0002001N1+02801+01841101721ADDAA106000091GF106991041051008001031001KA1240M+03311MA1999999100141MD1999999-0031REMSYN088AAXX  22004 82678 32592 61403 10280 20184 30014 40172 84530 333 10331 29052 55101 59003;EQDQ01  00002PRCP06
0186826780999992004062212004-06767-043017FM-12+013899999V0201401N005112200019N0040001N1+02621+01761101971ADDAA106000091GF102991021011008001001001KA1240N+02221MA1999999100381MD1999999-0051REMSYN076AAXX  22124 82678 32596 21410 10262 20176 30038 40197 82100 333 20222 59005;EQDQ01  00002PRCP06
0167826780999992004062218004-06767-043017FM-12+013899999V0200901N003110450019N0040001N1+03161+01891101691ADDAA106000091GF107991041051008001031021MA1999999100121MD1999999+0101REMSYN070AAXX  22184 82678 32596 70906 10316 20189 30012 40169 84532 333 58010;EQDQ01  00002PRCP06
0198826780999992004062300004-06767-043017FM-12+013899999V0209999C000010450019N0002001N1+02741+01951101731ADDAA106000091GF105991041051008001031001KA1240M+03251MA1999999100151MD1999999+0011REMSYN088AAXX  23004 82678 32592 50000 10274 20195 30015 40173 84530 333 10325 29058 55066 58001;EQDQ01  00002PRCP06
0186826780999992004062312004-06767-043017FM-12+013899999V0201401N004112200019N0040001N1+02781+01611101901ADDAA106000091GF102991001001999999001011KA1240N+02441MA1999999100321MD1999999-0061REMSYN076AAXX  23124 82678 32996 21408 10278 20161 30032 40190 80001 333 20244 59006;EQDQ01  00002PRCP06
0196826780999992004062412004-06767-043017FM-12+013899999V0201401N002612200019N0040001N1+02751+01761101881ADDAA106000091GA1001+999999999GF100991001001999999001001KA1240N+02041MA1999999100291MD1999999-0031REMSYN070AAXX  24124 82678 32996 01405 10275 20176 30029 40188 333 20204 59003;EQDQ01  00002PRCP06
0167826780999992004062418004-06767-043017FM-12+013899999V0201401N001510075019N0040001N1+03361+01601101361ADDAA106000091GF105991051021008001001001MA1999999099791MD1999999-0151REMSYN070AAXX  24184 82678 32596 51403 10336 20160 39979 40136 85200 333 59015;EQDQ01  00002PRCP06
0208826780999992004062500004-06767-043017FM-12+013899999V0209999C000012200019N0002001N1+02511+01841101561ADDAA106000091GA1001+999999999GF100991001001999999001001KA1240M+03431MA1999999099981MD1999999-0111REMSYN082AAXX  25004 82678 32992 00000 10251 20184 39998 40156 333 10343 29056 55099 59011;EQDQ01  00002PRCP06
0183826780999992004062518004-06767-043017FM-12+013899999V0201401N002119999999N0040001N1+03301+01841101311ADDAA106000091GF105991999021008001001001MA1999999099731MD1999999-0061REMSYN070AAXX  25184 82678 32596 51404 10330 20184 39973 40131 83200 333 59006;EQDQ01+000032SCOTLCQ02  00002PRCP06
0198826780999992004062600004-06767-043017FM-12+013899999V0209999C000011050019N0002001N1+02601+01991101531ADDAA106000091GF105991031021008001001021KA1240M+03421MA1999999099951MD1999999-0031REMSYN088AAXX  26004 82678 32592 50000 10260 20199 39995 40153 83202 333 10342 29060 55101 59003;EQDQ01  00002PRCP06
0196826780999992004062612004-06767-043017FM-12+013899999V0201401N001512200019N0040001N1+02821+01891101741ADDAA106000091GA1001+999999999GF100991001001999999001001KA1240N+02081MA1999999100161MD1999999-0081REMSYN070AAXX  26124 82678 32996 01403 10282 20189 30016 40174 333 20208 59008;EQDQ01  00002PRCP06
0167826780999992004062618004-06767-043017FM-12+013899999V0200901N001010450019N0040001N1+03321+01891101311ADDAA106000091GF108991041051008001021011MA1999999099741MD1999999+0011REMSYN070AAXX  26184 82678 32596 80902 10332 20189 39974 40131 84521 333 58001;EQDQ01  00002PRCP06
0198826780999992004062700004-06767-043017FM-12+013899999V0200901N003110075019N0002001N1+02981+01831101551ADDAA106000091GF108991081051008001999999KA1240M+03491MA1999999099981MD1999999+0031REMSYN088AAXX  27004 82678 32592 80906 10298 20183 39998 40155 885// 333 10349 29050 55076 58003;EQDQ01  00002PRCP06
0186826780999992004062712004-06767-043017FM-12+013899999V0201401N003110450019N0040001N1+02681+01991101791ADDAA106000091GF106991031051008001031001KA1240N+02421MA1999999100221MD1999999+0061REMSYN076AAXX  27124 82678 32596 61406 10268 20199 30022 40179 83530 333 20242 58006;EQDQ01  00002PRCP06
0167826780999992004062718004-06767-043017FM-12+013899999V0201401N003110075019N0040001N1+03261+01881101391ADDAA106000091GF107991071051008001001001MA1999999099831MD1999999+0091REMSYN070AAXX  27184 82678 32596 71406 10326 20188 39983 40139 87500 333 58009;EQDQ01  00002PRCP06
0198826780999992004062800004-06767-043017FM-12+013899999V0201401N001010450019N0002001N1+02881+01861101581ADDAA106000091GF106991031051008001031001KA1240M+03391MA1999999100011MD1999999+0031REMSYN088AAXX  28004 82678 32592 61402 10288 20186 30001 40158 83530 333 10339 29054 55036 58003;EQDQ01  00002PRCP06
0186826780999992004062812004-06767-043017FM-12+013899999V0201401N004112200019N0040001N1+02761+01941101801ADDAA106000091GF102991021001017501031001KA1240N+02321MA1999999100221MD1999999+0001REMSYN076AAXX  28124 82678 32796 21408 10276 20194 30022 40180 82030 333 20232 58000;EQDQ01  00002PRCP06
0167826780999992004062818004-06767-043017FM-12+013899999V0201401N001510450019N0040001N1+03281+01821101371ADDAA106000091GF105991031011008001031001MA1999999099811MD1999999-0021REMSYN070AAXX  28184 82678 32596 51403 10328 20182 39981 40137 83130 333 59002;EQDQ01  00002PRCP06
0198826780999992004062900004-06767-043017FM-12+013899999V0201401N000510150019N0002001N1+02721+01931101461ADDAA106000091GF107991071001017501031001KA1240M+03311MA1999999099881MD1999999-0131REMSYN088AAXX  29004 82678 32792 71401 10272 20193 39988 40146 87030 333 10331 29057 55096 59013;EQDQ01  00002PRCP06
0186826780999992004062912004-06767-043017FM-12+013899999V0201401N005112200019N0040001N1+02781+01881101821ADDAA106000091GF102991021001017501031001KA1240N+02091MA1999999100241MD1999999+0021REMSYN076AAXX  29124 82678 32796 21410 10278 20188 30024 40182 82030 333 20209 58002;EQDQ01  00002PRCP06
0167826780999992004062918004-06767-043017FM-12+013899999V0200901N002610450019N0040001N1+03281+01661101401ADDAA106000091GF106991031021008001031011MA1999999099831MD1999999+0021REMSYN070AAXX  29184 82678 32596 60905 10328 20166 39983 40140 83231 333 58002;EQDQ01  00002PRCP06
0198826780999992004063000004-06767-043017FM-12+013899999V0201401N000512200019N0002001N1+02601+01741101531ADDAA106000091GF106991021001017501031011KA1240M+03411MA1999999099951MD1999999+0071REMSYN088AAXX  30004 82678 32792 61401 10260 20174 39995 40153 82031 333 10341 29054 55100 58007;EQDQ01  00002PRCP06
0196826780999992004063012004-06767-043017FM-12+013899999V0201401N004112200019N0040001N1+02771+01661101801ADDAA106000091GA1001+999999999GF100991001001999999001001KA1240N+01981MA1999999100221MD1999999-0021REMSYN070AAXX  30124 82678 32996 01408 10277 20166 30022 40180 333 20198 59002;EQDQ01  00002PRCP06
0167826780999992004063018004-06767-043017FM-12+013899999V0201401N002610075019N0040001N1+03261+01801101341ADDAA106000091GF107991071051008001001001MA1999999099761MD1999999-0071REMSYN070AAXX  30184 82678 32596 71405 10326 20180 39976 40134 87500 333 59007;EQDQ01  00002PRCP06
0198826780999992004070100004-06767-043017FM-12+013899999V0201801N000510450019N0002001N1+02601+01891101541ADDAA106000091GF106991041051008001031001KA1240M+03421MA1999999099961MD1999999+0011REMSYN088AAXX  01004 82678 32592 61801 10260 20189 39996 40154 84530 333 10342 29056 55088 58001;EQDQ01  00002PRCP06
0186826780999992004070112004-06767-043017FM-12+013899999V0201401N004112200019N0040001N1+02741+01841101821ADDAA106000091GF103991031011008001001001KA1240N+02301MA1999999100231MD1999999+0011REMSYN076AAXX  01124 82678 32596 31408 10274 20184 30023 40182 83100 333 20230 58001;EQDQ01  00002PRCP06
0167826780999992004070118004-06767-043017FM-12+013899999V0201401N001510075019N0040001N1+03341+01801101321ADDAA106000091GF105991051021008001001001MA1999999099761MD1999999+0001REMSYN070AAXX  01184 82678 32596 51403 10334 20180 39976 40132 85200 333 58000;EQDQ01  00002PRCP06
0198826780999992004070200004-06767-043017FM-12+013899999V0209999C000010450019N0002001N1+02661+01871101451ADDAA106000091GF107991041051008001031001KA1240M+03451MA1999999099871MD1999999-0091REMSYN088AAXX  02004 82678 32592 70000 10266 20187 39987 40145 84530 333 10345 29056 55102 59009;EQDQ01  00002PRCP06
0167826780999992004070218004-06767-043017FM-12+013899999V0201401N001512200019N0040001N1+03391+01751101271ADDAA106000091GF105991041021008001001011MA1999999099711MD1999999-0051REMSYN070AAXX  02184 82678 32596 51403 10339 20175 39971 40127 84201 333 59005;EQDQ01  00002PRCP06
0198826780999992004070300004-06767-043017FM-12+013899999V0209999C000012200019N0002001N1+02581+01921101381ADDAA106000091GF108991011011008001001011KA1240M+03481MA1999999099801MD1999999-0071REMSYN088AAXX  03004 82678 32592 80000 10258 20192 39980 40138 81101 333 10348 29058 55097 59007;EQDQ01  00002PRCP06
0186826780999992004070312004-06767-043017FM-12+013899999V0201401N004110075019N0040001N1+02761+01991101711ADDAA106000091GF106991061021008001001001KA1240N+02251MA1999999100121MD1999999-0051REMSYN076AAXX  03124 82678 32596 61408 10276 20199 30012 40171 86200 333 20225 59005;EQDQ01  00002PRCP06
0167826780999992004070318004-06767-043017FM-12+013899999V0201401N001510075019N0040001N1+03381+01791101251ADDAA106000091GF105991051021008001001001MA1999999099691MD1999999-0021REMSYN070AAXX  03184 82678 32596 51403 10338 20179 39969 40125 85200 333 59002;EQDQ01  00002PRCP06
0246826780999992004070400004-06767-043017FM-12+013899999V0209999C000019999999N0040001N1+02601+01861101321ADDAA106000091GF107991999051008001001001KA1240M+99999MA1999999999999MD1999999+0071REMSYN088AAXX  04004 82678 32596 70000 10260 20186 39486 40132 84500 333 10249 29057 55084 58007;EQDQ01+000042SCOTLCQ02  00002PRCP06Q03 094863APOSP Q04 +02492ATMX  
0186826780999992004070412004-06767-043017FM-12+013899999V0201401N001510450019N0040001N1+02781+01731101711ADDAA106000091GF107991031051008001031021KA1240N+02501MA1999999100131MD1999999+0011REMSYN076AAXX  04124 82678 32596 71403 10278 20173 30013 40171 83532 333 20250 58001;EQDQ01  00002PRCP06
0167826780999992004070418004-06767-043017FM-12+013899999V0201401N003111050019N0040001N1+03201+01891101351ADDAA106000091GF107991041051008001001021MA1999999099791MD1999999+0101REMSYN070AAXX  04184 82678 32596 71406 10320 20189 39979 40135 84502 333 58010;EQDQ01  00002PRCP06
0208826780999992004070500004-06767-043017FM-12+013899999V0209999C000012200019N0002001N1+02681+01991101491ADDAA106000091GA1001+999999999GF100991001001999999001001KA1240M+03291MA1999999099911MD1999999+0061REMSYN082AAXX  05004 82678 32992 00000 10268 20199 39991 40149 333 10329 29058 55044 58006;EQDQ01  00002PRCP06
0186826780999992004070512004-06767-043017FM-12+013899999V0200901N003612200019N0040001N1+02761+01891101811ADDAA106000091GF102991011001017501031021KA1240N+01921MA1999999100231MD1999999+0101REMSYN076AAXX  05124 82678 32796 20907 10276 20189 30023 40181 81032 333 20192 58010;EQDQ01  00002PRCP06
0167826780999992004070518004-06767-043017FM-12+013899999V0200901N002112200019N0040001N1+03361+01601101421ADDAA106000091GF104991041021008001001001MA1999999099851MD1999999+0061REMSYN070AAXX  05184 82678 32596 40904 10336 20160 39985 40142 84200 333 58006;EQDQ01  00002PRCP06
0208826780999992004070600004-06767-043017FM-12+013899999V0209999C000012200019N0002001N1+02561+01801101531ADDAA106000091GA1001+999999999GF100991001001999999001001KA1240M+03501MA1999999099951MD1999999+0041REMSYN082AAXX  06004 82678 32992 00000 10256 20180 39995 40153 333 10350 29055 55091 58004;EQDQ01  00002PRCP06
0186826780999992004070612004-06767-043017FM-12+013899999V0202301N001512200019N0040001N1+02501+01871101691ADDAA106000091GF103991001001999999001011KA1240N+02001MA1999999100111MD1999999-0121REMSYN076AAXX  06124 82678 32996 32303 10250 20187 30011 40169 80001 333 20200 59012;EQDQ01  00002PRCP06
0167826780999992004070618004-06767-043017FM-12+013899999V0200901N001010450019N0040001N1+03481+01791101181ADDAA106000091GF105991041021008001081001MA1999999099621MD1999999-0231REMSYN070AAXX  06184 82678 32596 50902 10348 20179 39962 40118 84280 333 59023;EQDQ01  00002PRCP06
0208826780999992004070700004-06767-043017FM-12+013899999V0202701N001012200019N0002001N1+02731+01981101331ADDAA106000091GA1001+999999999GF100991001001999999001001KA1240M+03591MA1999999099761MD1999999-0191REMSYN082AAXX  07004 82678 32992 02702 10273 20198 39976 40133 333 10359 29056 55100 59019;EQDQ01  00002PRCP06
0186826780999992004070712004-06767-043017FM-12+013899999V0201401N002112200019N0040001N1+02861+01921101601ADDAA106000091GF103991021021008001001011KA1240N+02241MA1999999100031MD1999999-0081REMSYN076AAXX  07124 82678 32596 31404 10286 20192 30003 40160 82201 333 20224 59008;EQDQ01  00002PRCP06
0167826780999992004070718004-06767-043017FM-12+013899999V0201401N001512200019N0040001N1+03501+01811101081ADDAA106000091GF104991031021008001001021MA1999999099531MD1999999-0091REMSYN070AAXX  07184 82678 32596 41403 10350 20181 39953 40108 83202 333 59009;EQDQ01  00002PRCP06
0208826780999992004070800004-06767-043017FM-12+013899999V0209999C000012200019N0002001N1+02621+01861101251ADDAA106000091GA1001+999999999GF100991001001999999001001KA1240M+03561MA1999999099681MD1999999-0081REMSYN082AAXX  08004 82678 32992 00000 10262 20186 39968 40125 333 10356 29055 55103 59008;EQDQ01  00002PRCP06
0196826780999992004070812004-06767-043017FM-12+013899999V0200901N003112200019N0040001N1+02781+01881101651ADDAA106000091GA1001+999999999GF100991001001999999001001KA1240N+01981MA1999999100071MD1999999+0041REMSYN070AAXX  08124 82678 32596 00906 10278 20188 30007 40165 333 20198 58004;EQDQ01  00002PRCP06
0208826780999992004070900004-06767-043017FM-12+013899999V0209999C000012200019N0002001N1+02621+01861101281ADDAA106000091GA1001+999999999GF100991001001999999001001KA1240M+03571MA1999999099711MD1999999+0031REMSYN082AAXX  09004 82678 32992 00000 10262 20186 39971 40128 333 10357 29055 55105 58003;EQDQ01  00002PRCP06
0186826780999992004070912004-06767-043017FM-12+013899999V0203601N000510075019N0040001N1+02621+01981101631ADDAA106000091GF106991061051008001001001KA1240N+02081MA1999999100031MD1999999-0031REMSYN076AAXX  09124 82678 32596 63601 10262 20198 30003 40163 86500 333 20208 59003;EQDQ01  00002PRCP06
0199826780999992004070918004-06767-043017FM-12+013899999V0200501N999990075019N0040001N1+03421+01911101191ADDAA106000091GF105991051021008001001001MA1999999099621MD1999999+0001REMSYN070AAXX  09184 82678 32596 50550 10342 20191 39962 40119 85200 333 58000;EQDQ01+002573WOSPD Q02  00002PRCP06Q030002573WOSPD 
0208826780999992004071000004-06767-043017FM-12+013899999V0209999C000012200019N0002001N1+02721+01931101201ADDAA106000091GA1001+999999999GF100991001001999999001001KA1240M+03531MA1999999099621MD1999999-0091REMSYN082AAXX  10004 82678 32992 00000 10272 20193 39962 40120 333 10353 29058 55086 59009;EQDQ01  00002PRCP06
0186826780999992004071012004-06767-043017FM-12+013899999V0203201N000511050019N0040001N1+02641+02071101621ADDAA106000091GF105991021051008001031011KA1240N+02181MA1999999100041MD1999999+0001REMSYN076AAXX  10124 82678 32596 53201 10264 20207 30004 40162 82531 333 20218 58000;EQDQ01  00002PRCP06
0167826780999992004071018004-06767-043017FM-12+013899999V0202701N000510075019N0040001N1+03461+01821101221ADDAA106000091GF105991051021008001001001MA1999999099661MD1999999+0041REMSYN070AAXX  10184 82678 32596 52701 10346 20182 39966 40122 85200 333 58004;EQDQ01  00002PRCP06
0208826780999992004071100004-06767-043017FM-12+013899999V0209999C000012200019N0002001N1+02641+01931101341ADDAA106000091GA1001+999999999GF100991001001999999001001KA1240M+03531MA1999999099761MD1999999+0141REMSYN082AAXX  11004 82678 32992 00000 10264 20193 39976 40134 333 10353 29060 55077 58014;EQDQ01  00002PRCP06
0167826780999992004071118004-06767-043017FM-12+013899999V0200501N002610075019N0040001N1+03501+01581101141ADDAA106000091GF105991051021008001001001MA1999999099571MD1999999-0091REMSYN070AAXX  11184 82678 32596 50505 10350 20158 39957 40114 85200 333 59009;EQDQ01  00002PRCP06
0208826780999992004071200004-06767-043017FM-12+013899999V0209999C000012200019N0002001N1+02601+01711101201ADDAA106000091GA1001+999999999GF100991001001999999001001KA1240M+03641MA1999999099621MD1999999-0141REMSYN082AAXX  12004 82678 32992 00000 10260 20171 39962 40120 333 10364 29054 55100 59014;EQDQ01  00002PRCP06
0196826780999992004071212004-06767-043017FM-12+013899999V0203201N001012200019N0040001N1+02781+01791101551ADDAA106000091GA1001+999999999GF100991001001999999001001KA1240N+01981MA1999999099971MD1999999-0131REMSYN070AAXX  12124 82678 32996 03202 10278 20179 39997 40155 333 20198 59013;EQDQ01  00002PRCP06
0167826780999992004071218004-06767-043017FM-12+013899999V0201401N003112200019N0040001N1+03471+01571101101ADDAA106000091GF104991041011008001001001MA1999999099531MD1999999-0041REMSYN070AAXX  12184 82678 32596 41406 10347 20157 39953 40110 84100 333 59004;EQDQ01  00002PRCP06
0208826780999992004071300004-06767-043017FM-12+013899999V0201401N001512200019N0002001N1+02761+01281101351ADDAA106000091GA1001+999999999GF100991001001999999001001KA1240M+03541MA1999999099781MD1999999+0161REMSYN082AAXX  13004 82678 32992 01403 10276 20128 39978 40135 333 10354 29042 55104 58016;EQDQ01  00002PRCP06
0186826780999992004071312004-06767-043017FM-12+013899999V0201401N005112200019N0040001N1+02661+01821101621ADDAA106000091GF101991011001017501031001KA1240N+01981MA1999999100041MD1999999+0071REMSYN076AAXX  13124 82678 32796 11410 10266 20182 30004 40162 81030 333 20198 58007;EQDQ01  00002PRCP06
0177826780999992004071318004-06767-043017FM-12+013899999V0201401N002612200019N0040001N1+03421+01511101171ADDAA106000091GA1001+999999999GF100991001001999999001001MA1999999099601MD1999999+0071REMSYN064AAXX  13184 82678 32996 01405 10342 20151 39960 40117 333 58007;EQDQ01  00002PRCP06
0208826780999992004071400004-06767-043017FM-12+013899999V0209999C000012200019N0002001N1+02581+01741101311ADDAA106000091GA1001+999999999GF100991001001999999001001KA1240M+03431MA1999999099731MD1999999-0051REMSYN082AAXX  14004 82678 32992 00000 10258 20174 39973 40131 333 10343 29053 55105 59005;EQDQ01  00002PRCP06
0186826780999992004071412004-06767-043017FM-12+013899999V0201401N002612200019N0040001N1+02651+01751101751ADDAA106000091GF101991011001017501031001KA1240N+02341MA1999999100161MD1999999+0121REMSYN076AAXX  14124 82678 32796 11405 10265 20175 30016 40175 81030 333 20234 58012;EQDQ01  00002PRCP06
0167826780999992004071418004-06767-043017FM-12+013899999V0200901N003112200019N0040001N1+03361+01931101261ADDAA106000091GF101991001001999999001011MA1999999099701MD1999999+0101REMSYN070AAXX  14184 82678 32996 10906 10336 20193 39970 40126 80001 333 58010;EQDQ01  00002PRCP06
0208826780999992004071500004-06767-043017FM-12+013899999V0201401N002612200019N0040001N1+02821+01891101511ADDAA106000091GA1001+999999999GF100991001001999999001001KA1240M+03411MA1999999099931MD1999999+0201REMSYN082AAXX  15004 82678 32996 01405 10282 20189 39993 40151 333 10341 29054 55099 58020;EQDQ01  00002PRCP06
0186826780999992004071512004-06767-043017FM-12+013899999V0201401N005112200019N0040001N1+02771+01801101751ADDAA106000091GF104991011011008001041011KA1240N+02141MA1999999100171MD1999999+0011REMSYN076AAXX  15124 82678 32596 41410 10277 20180 30017 40175 81141 333 20214 58001;EQDQ01  00002PRCP06
0167826780999992004071518004-06767-043017FM-12+013899999V0200901N003110450019N0040001N1+03251+01751101361ADDAA106000091GF106991041051008001011011MA1999999099801MD1999999+0101REMSYN070AAXX  15184 82678 32596 60906 10325 20175 39980 40136 84511 333 58010;EQDQ01  00002PRCP06
0198826780999992004071600004-06767-043017FM-12+013899999V0209999C000010075019N0002001N1+02661+02001101521ADDAA106000091GF105991051051008001001001KA1240M+03311MA1999999099941MD1999999+0011REMSYN088AAXX  16004 82678 32592 50000 10266 20200 39994 40152 85500 333 10331 29058 55083 58001;EQDQ01  00002PRCP06
0186826780999992004071612004-06767-043017FM-12+013899999V0201401N005112200019N0040001N1+02781+01911101811ADDAA106000091GF103991011011008001031001KA1240N+02321MA1999999100231MD1999999+0061REMSYN076AAXX  16124 82678 32596 31410 10278 20191 30023 40181 81130 333 20232 58006;EQDQ01  00002PRCP06
0167826780999992004071618004-06767-043017FM-12+013899999V0200901N002610075019N0040001N1+03311+01641101331ADDAA106000091GF106991051021008001031001MA1999999099771MD1999999-0031REMSYN070AAXX  16184 82678 32596 60905 10331 20164 39977 40133 85230 333 59003;EQDQ01  00002PRCP06
0208826780999992004071700004-06767-043017FM-12+013899999V0209999C000012200019N0002001N1+02681+01761101461ADDAA106000091GA1001+999999999GF100991001001999999001001KA1240M+03391MA1999999099881MD1999999-0061REMSYN082AAXX  17004 82678 32992 00000 10268 20176 39988 40146 333 10339 29052 55089 59006;EQDQ01  00002PRCP06
0186826780999992004071712004-06767-043017FM-12+013899999V0201401N004112200019N0040001N1+02741+01781101741ADDAA106000091GF102991021001017501031001KA1240N+02021MA1999999100161MD1999999-0071REMSYN076AAXX  17124 82678 32796 21408 10274 20178 30016 40174 82030 333 20202 59007;EQDQ01  00002PRCP06
0167826780999992004071718004-06767-043017FM-12+013899999V0201401N003110075019N0040001N1+03421+01701101341ADDAA106000091GF105991051021008001001001MA1999999099771MD1999999+0001REMSYN070AAXX  17184 82678 32596 51406 10342 20170 39977 40134 85200 333 58000;EQDQ01  00002PRCP06
0208826780999992004071800004-06767-043017FM-12+013899999V0209999C000012200019N0002001N1+02801+01631101421ADDAA106000091GA1001+999999999GF100991001001999999001001KA1240M+03511MA1999999099851MD1999999-0031REMSYN082AAXX  18004 82678 32992 00000 10280 20163 39985 40142 333 10351 29048 55080 59003;EQDQ01  00002PRCP06
0186826780999992004071812004-06767-043017FM-12+013899999V0201401N004112200019N0040001N1+02761+01801101771ADDAA106000091GF103991031001017501031001KA1240N+02161MA1999999100191MD1999999+0031REMSYN076AAXX  18124 82678 32796 31408 10276 20180 30019 40177 83030 333 20216 58003;EQDQ01  00002PRCP06
0167826780999992004071818004-06767-043017FM-12+013899999V0201401N002610075019N0040001N1+03421+01741101411ADDAA106000091GF105991051021008001001001MA1999999099841MD1999999+0071REMSYN070AAXX  18184 82678 32596 51405 10342 20174 39984 40141 85200 333 58007;EQDQ01  00002PRCP06
0198826780999992004071900004-06767-043017FM-12+013899999V0209999C000012200019N0002001N1+02721+01741101481ADDAA106000091GF102991021001017501031001KA1240M+03511MA1999999099901MD1999999+0051REMSYN088AAXX  19004 82678 32792 20000 10272 20174 39990 40148 82030 333 10351 29051 55089 58005;EQDQ01  00002PRCP06
0196826780999992004071912004-06767-043017FM-12+013899999V0201401N004612200019N0040001N1+02721+01651101891ADDAA106000091GA1001+999999999GF100991001001999999001001KA1240N+02261MA1999999100301MD1999999+0111REMSYN070AAXX  19124 82678 32996 01409 10272 20165 30030 40189 333 20226 58011;EQDQ01  00002PRCP06
0167826780999992004071918004-06767-043017FM-12+013899999V0200901N002112200019N0040001N1+03481+01411101331ADDAA106000091GF102991021011008001001001MA1999999099771MD1999999-0071REMSYN070AAXX  19184 82678 32596 20904 10348 20141 39977 40133 82100 333 59007;EQDQ01  00002PRCP06
0208826780999992004072000004-06767-043017FM-12+013899999V0200901N000512200019N0002001N1+02741+01511101541ADDAA106000091GA1001+999999999GF100991001001999999001001KA1240M+03531MA1999999099961MD1999999+0061REMSYN082AAXX  20004 82678 32992 00901 10274 20151 39996 40154 333 10353 29044 55104 58006;EQDQ01  00002PRCP06
0186826780999992004072012004-06767-043017FM-12+013899999V0201401N003112200019N0040001N1+02761+01531101861ADDAA106000091GF101991001001999999001011KA1240N+01991MA1999999100281MD1999999-0021REMSYN076AAXX  20124 82678 32996 11406 10276 20153 30028 40186 80001 333 20199 59002;EQDQ01  00002PRCP06
0167826780999992004072018004-06767-043017FM-12+013899999V0201801N002112200019N0040001N1+03501+01381101311ADDAA106000091GF102991011011008001001011MA1999999099741MD1999999-0031REMSYN070AAXX  20184 82678 32596 21804 10350 20138 39974 40131 81101 333 59003;EQDQ01  00002PRCP06
0208826780999992004072100004-06767-043017FM-12+013899999V0201401N000512200019N0002001N1+02601+01651101431ADDAA106000091GA1001+999999999GF100991001001999999001001KA1240M+03551MA1999999099851MD1999999-0111REMSYN082AAXX  21004 82678 32992 01401 10260 20165 39985 40143 333 10355 29047 55105 59011;EQDQ01  00002PRCP06
0186826780999992004072112004-06767-043017FM-12+013899999V0201401N003112200019N0040001N1+02761+01621101651ADDAA106000091GF105991021001017501031011KA1240N+02021MA1999999100071MD1999999-0211REMSYN076AAXX  21124 82678 32796 51406 10276 20162 30007 40165 82031 333 20202 59021;EQDQ01  00002PRCP06
0167826780999992004072118004-06767-043017FM-12+013899999V0201801N001512200019N0040001N1+03521+01391101091ADDAA106000091GF108991041011008001001011MA1999999099541MD1999999-0201REMSYN070AAXX  21184 82678 32596 81803 10352 20139 39954 40109 84101 333 59020;EQDQ01  00002PRCP06
0198826780999992004072200004-06767-043017FM-12+013899999V0201401N000512200019N0002001N1+02661+01651101331ADDAA106000091GF103991031021008001001001KA1240M+03601MA1999999099751MD1999999-0101REMSYN088AAXX  22004 82678 32592 31401 10266 20165 39975 40133 83200 333 10360 29046 55103 59010;EQDQ01  00002PRCP06
0196826780999992004072212004-06767-043017FM-12+013899999V0201401N004112200019N0040001N1+02721+01711101661ADDAA106000091GA1001+999999999GF100991001001999999001001KA1240N+02141MA1999999100081MD1999999+0011REMSYN070AAXX  22124 82678 32996 01408 10272 20171 30008 40166 333 20214 58001;EQDQ01  00002PRCP06
0167826780999992004072218004-06767-043017FM-12+013899999V0201401N002610075019N0040001N1+03381+01571101241ADDAA106000091GF105991051021008001001001MA1999999099671MD1999999+0131REMSYN070AAXX  22184 82678 32596 51405 10338 20157 39967 40124 85200 333 58013;EQDQ01  00002PRCP06
0208826780999992004072300004-06767-043017FM-12+013899999V0201801N001012200019N0002001N1+02781+01551101451ADDAA106000091GA1001+999999999GF100991001001999999001001KA1240M+03571MA1999999099871MD1999999+0121REMSYN082AAXX  23004 82678 32992 01802 10278 20155 39987 40145 333 10357 29046 55105 58012;EQDQ01  00002PRCP06
0196826780999992004072312004-06767-043017FM-12+013899999V0201401N005112200019N0040001N1+02571+01351101871ADDAA106000091GA1001+999999999GF100991001001999999001001KA1240N+02101MA1999999100281MD1999999+0201REMSYN070AAXX  23124 82678 32996 01410 10257 20135 30028 40187 333 20210 58020;EQDQ01  00002PRCP06
0177826780999992004072318004-06767-043017FM-12+013899999V0201401N002612200019N0040001N1+03291+01291101351ADDAA106000091GA1001+999999999GF100991001001999999001001MA1999999099791MD1999999+0121REMSYN064AAXX  23184 82678 32996 01405 10329 20129 39979 40135 333 58012;EQDQ01  00002PRCP06
0208826780999992004072400004-06767-043017FM-12+013899999V0209999C000012200019N0002001N1+02531+01401101611ADDAA106000091GA1001+999999999GF100991001001999999001001KA1240M+03351MA1999999100021MD1999999+0151REMSYN082AAXX  24004 82678 32992 00000 10253 20140 30002 40161 333 10335 29044 55105 58015;EQDQ01  00002PRCP06
0186826780999992004072412004-06767-043017FM-12+013899999V0201401N004612200019N0040001N1+02611+01381102001ADDAA106000091GF102991001001999999001011KA1240N+02141MA1999999100401MD1999999+0121REMSYN076AAXX  24124 82678 32996 21409 10261 20138 30040 40200 80001 333 20214 58012;EQDQ01  00002PRCP06
0167826780999992004072418004-06767-043017FM-12+013899999V0201401N003112200019N0200001N1+03301+01411101621ADDAA106000091GF101991011011008001001001MA1999999100051MD1999999+0261REMSYN070AAXX  24184 82678 32598 11406 10330 20141 30005 40162 81100 333 58026;EQDQ01  00002PRCP06
0208826780999992004072500004-06767-043017FM-12+013899999V0201401N001512200019N0002001N1+02801+01391101721ADDAA106000091GA1001+999999999GF100991001001999999001001KA1240M+03371MA1999999100141MD1999999+0121REMSYN082AAXX  25004 82678 32992 01403 10280 20139 30014 40172 333 10337 29041 55106 58012;EQDQ01  00002PRCP06
0186826780999992004072512004-06767-043017FM-12+013899999V0201401N004112200019N0040001N1+02441+01661101951ADDAA106000091GF103991021011008001001011KA1240N+02161MA1999999100361MD1999999-0041REMSYN076AAXX  25124 82678 32596 31408 10244 20166 30036 40195 82101 333 20216 59004;EQDQ01  00002PRCP06
0167826780999992004072518004-06767-043017FM-12+013899999V0201401N001512200019N0040001N1+03321+01381101471ADDAA106000091GF101991011011008001001001MA1999999099901MD1999999-0151REMSYN070AAXX  25184 82678 32596 11403 10332 20138 39990 40147 81100 333 59015;EQDQ01  00002PRCP06
0208826780999992004072600004-06767-043017FM-12+013899999V0201801N001512200019N0002001N1+02761+01491101631ADDAA106000091GA1001+999999999GF100991001001999999001001KA1240M+03391MA1999999100041MD1999999-0101REMSYN082AAXX  26004 82678 32992 01803 10276 20149 30004 40163 333 10339 29046 55106 59010;EQDQ01  00002PRCP06
0196826780999992004072612004-06767-043017FM-12+013899999V0201401N005712200019N0040001N1+02521+01371101931ADDAA106000091GA1001+999999999GF100991001001999999001001KA1240N+02161MA1999999100341MD1999999-0021REMSYN070AAXX  26124 82678 32996 01411 10252 20137 30034 40193 333 20216 59002;EQDQ01  00002PRCP06
0198826780999992004072700004-06767-043017FM-12+013899999V0201401N002612200019N0002001N1+02861+01481101741ADDAA106000091GF103991031001017501031001KA1240M+03331MA1999999100161MD1999999+0121REMSYN088AAXX  27004 82678 32792 31405 10286 20148 30016 40174 83030 333 10333 29043 55107 58012;EQDQ01  00002PRCP06
0202826780999992004072712004-06767-043017FM-12+013899999V0201401N005112200019N0040001N1+02561+01351102081ADDAA106000091GF101991999001999999011001KA1240N+02111MA1999999100491MD1999999+0151REMSYN076AAXX  27124 82678 32996 11410 10256 20135 30049 40208 80010 333 20211 58015;EQDQ01+000002SCOTLCQ02  00002PRCP06
0167826780999992004072718004-06767-043017FM-12+013899999V0201401N003612200019N0040001N1+03321+01111101511ADDAA106000091GF101991001001999999001011MA1999999099931MD1999999-0031REMSYN070AAXX  27184 82678 32996 11407 10332 20111 39993 40151 80001 333 59003;EQDQ01  00002PRCP06
0186826780999992004072812004-06767-043017FM-12+013899999V0201401N005712200019N0040001N1+02591+01461101911ADDAA106000091GF101991011011008001001001KA1240N+02071MA1999999100321MD1999999-0171REMSYN076AAXX  28124 82678 32596 11411 10259 20146 30032 40191 81100 333 20207 59017;EQDQ01  00002PRCP06
0167826780999992004072818004-06767-043017FM-12+013899999V0201401N003112200019N0040001N1+03301+01311101421ADDAA106000091GF104991041011008001001001MA1999999099851MD1999999-0081REMSYN070AAXX  28184 82678 32596 41406 10330 20131 39985 40142 84100 333 59008;EQDQ01  00002PRCP06
0208826780999992004072900004-06767-043017FM-12+013899999V0201401N003112200019N0002001N1+02821+01411101701ADDAA106000091GA1001+999999999GF100991001001999999001001KA1240M+03421MA1999999100121MD1999999+0031REMSYN082AAXX  29004 82678 32992 01406 10282 20141 30012 40170 333 10342 29041 55105 58003;EQDQ01  00002PRCP06
0196826780999992004072912004-06767-043017FM-12+013899999V0201401N005112200019N0040001N1+02531+01241101951ADDAA106000091GA1001+999999999GF100991001001999999001001KA1240N+02181MA1999999100361MD1999999+0041REMSYN070AAXX  29124 82678 32996 01410 10253 20124 30036 40195 333 20218 58004;EQDQ01  00002PRCP06
0167826780999992004072918004-06767-043017FM-12+013899999V0201401N004112200019N0040001N1+03261+01511101491ADDAA106000091GF103991031011008001001001MA1999999099911MD1999999+0061REMSYN070AAXX  29184 82678 32596 31408 10326 20151 39991 40149 83100 333 58006;EQDQ01  00002PRCP06
0198826780999992004073000004-06767-043017FM-12+013899999V0201401N001510150019N0002001N1+02881+01461101641ADDAA106000091GF105991051001017501031001KA1240M+03331MA1999999100061MD1999999-0061REMSYN088AAXX  30004 82678 32792 51403 10288 20146 30006 40164 85030 333 10333 29041 55107 59006;EQDQ01  00002PRCP06
0186826780999992004073012004-06767-043017FM-12+013899999V0201401N005110450019N0040001N1+02721+01771101911ADDAA106000091GF107991041051008001031001KA1240N+02481MA1999999100331MD1999999-0031REMSYN076AAXX  30124 82678 32596 71410 10272 20177 30033 40191 84530 333 20248 59003;EQDQ01  00002PRCP06
0167826780999992004073018004-06767-043017FM-12+013899999V0201401N002610075019N0040001N1+03121+01711101561ADDAA106000091GF108991061051008001031999MA1999999099991MD1999999+0081REMSYN070AAXX  30184 82678 32596 81405 10312 20171 39999 40156 8653/ 333 58008;EQDQ01  00002PRCP06
0198826780999992004073100004-06767-043017FM-12+013899999V0201401N001510450019N0002001N1+02721+01681101741ADDAA106000091GF105991031051008001031001KA1240M+03291MA1999999100161MD1999999+0101REMSYN088AAXX  31004 82678 32592 51403 10272 20168 30016 40174 83530 333 10329 29051 55057 58010;EQDQ01  00002PRCP06
0186826780999992004073112004-06767-043017FM-12+013899999V0201401N004112200019N0040001N1+02731+01791101961ADDAA106000091GF102991011011008001041001KA1240N+02181MA1999999100371MD1999999+0041REMSYN076AAXX  31124 82678 32596 21408 10273 20179 30037 40196 81140 333 20218 58004;EQDQ01  00002PRCP06
0167826780999992004073118004-06767-043017FM-12+013899999V0200501N002112200019N0040001N1+03451+01481101441ADDAA106000091GF104991041011008001001001MA1999999099871MD1999999-0121REMSYN070AAXX  31184 82678 32596 40504 10345 20148 39987 40144 84100 333 59012;EQDQ01  00002PRCP06
0214826780999992004080100004-06767-043017FM-12+013899999V0209999C000019999999N0002001N1+02631+01621101571ADDAA106000091GF107991999021008001001001KA1240M+03551MA1999999099991MD1999999-0171REMSYN088AAXX  01004 82678 32592 70000 10263 20162 39999 40157 84200 333 10355 29049 55108 59017;EQDQ01+000042SCOTLCQ02  00002PRCP06
0186826780999992004080112004-06767-043017FM-12+013899999V0201401N002612200019N0040001N1+02721+01931101861ADDAA106000091GF103991031001017501031001KA1240N+02341MA1999999100271MD1999999-0101REMSYN076AAXX  01124 82678 32796 31405 10272 20193 30027 40186 83030 333 20234 59010;EQDQ01  00002PRCP06
0167826780999992004080118004-06767-043017FM-12+013899999V0200901N003612200019N0040001N1+03441+01581101331ADDAA106000091GF104991041021008001001001MA1999999099761MD1999999-0111REMSYN070AAXX  01184 82678 32596 40907 10344 20158 39976 40133 84200 333 59011;EQDQ01  00002PRCP06
0198826780999992004080200004-06767-043017FM-12+013899999V0201401N001512200019N0002001N1+02931+01641101531ADDAA106000091GF102991011051008001031001KA1240M+03551MA1999999099961MD1999999-0031REMSYN088AAXX  02004 82678 32592 21403 10293 20164 39996 40153 81530 333 10355 29047 55105 59003;EQDQ01  00002PRCP06
0186826780999992004080212004-06767-043017FM-12+013899999V0201401N002612200019N0040001N1+02701+01881101881ADDAA106000091GF101991011011008001001001KA1240N+02281MA1999999100301MD1999999+0031REMSYN076AAXX  02124 82678 32596 11405 10270 20188 30030 40188 81100 333 20228 58003;EQDQ01  00002PRCP06
0208826780999992004080300004-06767-043017FM-12+013899999V0209999C000012200019N0002001N1+02881+01531101501ADDAA106000091GA1001+999999999GF100991001001999999001001KA1240M+03551MA1999999099931MD1999999-0031REMSYN082AAXX  03004 82678 32992 00000 10288 20153 39993 40150 333 10355 29046 55107 59003;EQDQ01  00002PRCP06
0186826780999992004080312004-06767-043017FM-12+013899999V0201401N003112200019N0040001N1+02781+01821101801ADDAA106000091GF101991011001017501031001KA1240N+02361MA1999999100231MD1999999-0071REMSYN076AAXX  03124 82678 32796 11406 10278 20182 30023 40180 81030 333 20236 59007;EQDQ01  00002PRCP06
0167826780999992004080318004-06767-043017FM-12+013899999V0201401N002612200019N0040001N1+03561+01431101331ADDAA106000091GF104991021011008001001011MA1999999099781MD1999999-0031REMSYN070AAXX  03184 82678 32596 41405 10356 20143 39978 40133 82101 333 59003;EQDQ01  00002PRCP06
0208826780999992004080400004-06767-043017FM-12+013899999V0209999C000012200019N0002001N1+02701+01471101481ADDAA106000091GA1001+999999999GF100991001001999999001001KA1240M+03611MA1999999099901MD1999999-0031REMSYN082AAXX  04004 82678 32992 00000 10270 20147 39990 40148 333 10361 29044 55108 59003;EQDQ01  00002PRCP06
0196826780999992004080412004-06767-043017FM-12+013899999V0201401N004112200019N0040001N1+02741+01481101911ADDAA106000091GA1001+999999999GF100991001001999999001001KA1240N+02341MA1999999100321MD1999999+0091REMSYN070AAXX  04124 82678 32996 01408 10274 20148 30032 40191 333 20234 58009;EQDQ01  00002PRCP06
0177826780999992004080418004-06767-043017FM-12+013899999V0201401N002612200019N0040001N1+03481+00991101391ADDAA106000091GA1001+999999999GF100991001001999999001001MA1999999099831MD1999999+0051REMSYN064AAXX  04184 82678 32996 01405 10348 20099 39983 40139 333 58005;EQDQ01  00002PRCP06
0208826780999992004080500004-06767-043017FM-12+013899999V0200901N001512200019N0002001N1+02531+01281101541ADDAA106000091GA1001+999999999GF100991001001999999001001KA1240M+03551MA1999999099961MD1999999+0061REMSYN082AAXX  05004 82678 32992 00903 10253 20128 39996 40154 333 10355 29040 55108 58006;EQDQ01  00002PRCP06
0196826780999992004080512004-06767-043017FM-12+013899999V0201401N004612200019N0040001N1+02681+01611101841ADDAA106000091GA1001+999999999GF100991001001999999001001KA1240N+02271MA1999999100251MD1999999-0071REMSYN070AAXX  05124 82678 32996 01409 10268 20161 30025 40184 333 20227 59007;EQDQ01  00002PRCP06
0167826780999992004080518004-06767-043017FM-12+013899999V0201401N002610075019N0040001N1+03441+01211101371ADDAA106000091GF105991051011008001001001MA1999999099811MD1999999-0021REMSYN070AAXX  05184 82678 32596 51405 10344 20121 39981 40137 85100 333 59002;EQDQ01  00002PRCP06
0198826780999992004080600004-06767-043017FM-12+013899999V0201401N001012200019N0002001N1+02741+01511101581ADDAA106000091GF104991041051008001001001KA1240M+03511MA1999999100001MD1999999+0041REMSYN088AAXX  06004 82678 32592 41402 10274 20151 30000 40158 84500 333 10351 29043 55105 58004;EQDQ01  00002PRCP06
0196826780999992004080612004-06767-043017FM-12+013899999V0201401N003112200019N0040001N1+02761+01771101831ADDAA106000091GA1001+999999999GF100991001001999999001001KA1240N+02441MA1999999100251MD1999999+0001REMSYN070AAXX  06124 82678 32996 01406 10276 20177 30025 40183 333 20244 58000;EQDQ01  00002PRCP06
0167826780999992004080618004-06767-043017FM-12+013899999V0201401N002610075019N0040001N1+03481+01571101361ADDAA106000091GF105991051021008001001001MA1999999099811MD1999999+0001REMSYN070AAXX  06184 82678 32596 51405 10348 20157 39981 40136 85200 333 58000;EQDQ01  00002PRCP06
0198826780999992004080700004-06767-043017FM-12+013899999V0201401N002612200019N0002001N1+03081+01561101611ADDAA106000091GF103991031051008001001001KA1240M+03551MA1999999100041MD1999999+0041REMSYN088AAXX  07004 82678 32592 31405 10308 20156 30004 40161 83500 333 10355 29042 55108 58004;EQDQ01  00002PRCP06
0186826780999992004080712004-06767-043017FM-12+013899999V0200901N004612200019N0040001N1+02781+01731102001ADDAA106000091GF102991021001017501031001KA1240N+02441MA1999999100431MD1999999+0181REMSYN076AAXX  07124 82678 32796 20909 10278 20173 30043 40200 82030 333 20244 58018;EQDQ01  00002PRCP06
0167826780999992004080718004-06767-043017FM-12+013899999V0201401N003110075019N0040001N1+03541+01801101511ADDAA106000091GF105991051021008001001001MA1999999099961MD1999999+0151REMSYN070AAXX  07184 82678 32596 51406 10354 20180 39996 40151 85200 333 58015;EQDQ01  00002PRCP06
0208826780999992004080800004-06767-043017FM-12+013899999V0201401N001512200019N0002001N1+03021+01511101711ADDAA106000091GA1001+999999999GF100991001001999999001001KA1240M+03591MA1999999100141MD1999999+0101REMSYN082AAXX  08004 82678 32992 01403 10302 20151 30014 40171 333 10359 29042 55107 58010;EQDQ01  00002PRCP06
0167826780999992004080818004-06767-043017FM-12+013899999V0200901N004110075019N0040001N1+03601+01721101401ADDAA106000091GF105991051021008001001001MA1999999099851MD1999999-0111REMSYN070AAXX  08184 82678 32596 50908 10360 20172 39985 40140 85200 333 59011;EQDQ01  00002PRCP06
0208826780999992004080900004-06767-043017FM-12+013899999V0201401N001012200019N0002001N1+03031+01621101611ADDAA106000091GA1001+999999999GF100991001001999999001001KA1240M+03671MA1999999100041MD1999999-0101REMSYN082AAXX  09004 82678 32992 01402 10303 20162 30004 40161 333 10367 29043 55105 59010;EQDQ01  00002PRCP06
0196826780999992004080912004-06770-043020FM-12+012799999V0201401N004112200019N0040001N1+02941+01821101861ADDAA106000091GA1001+999999999GF100991001001999999001001KA1240N+02261MA1999999100291MD1999999-0021REMSYN070AAXX  09124 82678 32996 01408 10294 20182 30029 40186 333 20226 59002;EQDQ01  00002PRCP06
0167826780999992004080918004-06770-043020FM-12+012799999V0201401N003110075019N0040001N1+03601+01521101291ADDAA106000091GF105991051021008001001001MA1999999099741MD1999999-0111REMSYN070AAXX  09184 82678 32596 51406 10360 20152 39974 40129 85200 333 59011;EQDQ01  00002PRCP06
0208826780999992004081000004-06770-043020FM-12+012799999V0200901N000512200019N0002001N1+02911+01721101551ADDAA106000091GA1001+999999999GF100991001001999999001001KA1240M+03691MA1999999099981MD1999999-0061REMSYN082AAXX  10004 82678 32992 00901 10291 20172 39998 40155 333 10369 29044 55108 59006;EQDQ01  00002PRCP06
0202826780999992004081012004-06770-043020FM-12+012799999V0201401N004112200019N0040001N1+02141+01791101901ADDAA106000091GF103991031011008001001001KA1240N+99999MA1999999100331MD1999999+0041REMSYN076AAXX  10124 82678 32596 31408 10214 20179 30033 40190 83100 333 20252 58004;EQDQ01  00002PRCP06Q02 +02522ATMN  
0167826780999992004081018004-06770-043020FM-12+012799999V0201401N003110075019N0040001N1+03561+01641101361ADDAA106000091GF105991051021008001001001MA1999999099811MD1999999+0071REMSYN070AAXX  10184 82678 32596 51406 10356 20164 39981 40136 85200 333 58007;EQDQ01  00002PRCP06
0208826780999992004081100004-06770-043020FM-12+012799999V0201401N002612200019N0002001N1+03081+01441101611ADDAA106000091GA1001+999999999GF100991001001999999001001KA1240M+03601MA1999999100051MD1999999+0071REMSYN082AAXX  11004 82678 32992 01405 10308 20144 30005 40161 333 10360 29040 55105 58007;EQDQ01  00002PRCP06
0186826780999992004081112004-06767-043017FM-12+013899999V0201401N004111050019N0040001N1+02621+01621102011ADDAA106000091GF106991021001017501031021KA1240N+02281MA1999999100431MD1999999+0101REMSYN076AAXX  11124 82678 32796 61408 10262 20162 30043 40201 82032 333 20228 58010;EQDQ01  00002PRCP06
0167826780999992004081118004-06767-043017FM-12+013899999V0201401N001511050019N0040001N1+03361+01601101481ADDAA106000091GF107991031051008001001021MA1999999099921MD1999999+0111REMSYN070AAXX  11184 82678 32596 71403 10336 20160 39992 40148 83502 333 58011;EQDQ01  00002PRCP06
0198826780999992004081200004-06770-043020FM-12+012799999V0201401N001510450019N0002001N1+02941+01481101651ADDAA106000091GF107991041051008001031001KA1240M+03391MA1999999100071MD1999999+0021REMSYN088AAXX  12004 82678 32592 71403 10294 20148 30007 40165 84530 333 10339 29043 55072 58002;EQDQ01  00002PRCP06
0196826780999992004081212004-06770-043020FM-12+012799999V0201401N004612200019N0040001N1+02691+01491102031ADDAA106000091GA1001+999999999GF100991001001999999001001KA1240N+02191MA1999999100451MD1999999+0021REMSYN070AAXX  12124 82678 32996 01409 10269 20149 30045 40203 333 20219 58002;EQDQ01  00002PRCP06
0167826780999992004081218004-06770-043020FM-12+012799999V0201401N002612200019N0040001N1+03481+01361101441ADDAA106000091GF103991031011008001001001MA1999999099881MD1999999-0041REMSYN070AAXX  12184 82678 32596 31405 10348 20136 39988 40144 83100 333 59004;EQDQ01  00002PRCP06
0208826780999992004081300004-06770-043020FM-12+012799999V0209999C000012200019N0002001N1+02751+01481101671ADDAA106000091GA1001+999999999GF100991001001999999001001KA1240M+03561MA1999999100091MD1999999+0021REMSYN082AAXX  13004 82678 32992 00000 10275 20148 30009 40167 333 10356 29042 55107 58002;EQDQ01  00002PRCP06
0196826780999992004081312004-06770-043020FM-12+012799999V0201401N005112200019N0040001N1+02701+01541101931ADDAA106000091GA1001+999999999GF100991001001999999001001KA1240N+02381MA1999999100341MD1999999-0111REMSYN070AAXX  13124 82678 32996 01410 10270 20154 30034 40193 333 20238 59011;EQDQ01  00002PRCP06
0167826780999992004081318004-06770-043020FM-12+012799999V0201401N003112200019N0040001N1+03401+01591101471ADDAA106000091GF102991021011008001001001MA1999999099911MD1999999+0031REMSYN070AAXX  13184 82678 32596 21406 10340 20159 39991 40147 82100 333 58003;EQDQ01  00002PRCP06
0208826780999992004081400004-06770-043020FM-12+012799999V0209999C000012200019N0002001N1+02671+01441101711ADDAA106000091GA1001+999999999GF100991001001999999001001KA1240M+03511MA1999999100131MD1999999+0041REMSYN082AAXX  14004 82678 32992 00000 10267 20144 30013 40171 333 10351 29044 55107 58004;EQDQ01  00002PRCP06
0186826780999992004081412004-06770-043020FM-12+012799999V0201401N004112200019N0040001N1+02581+01231101971ADDAA106000091GF102991021001017501031001KA1240N+02281MA1999999100381MD1999999+0041REMSYN076AAXX  14124 82678 32796 21408 10258 20123 30038 40197 82030 333 20228 58004;EQDQ01  00002PRCP06
0167826780999992004081418004-06770-043020FM-12+012799999V0201401N002612200019N0040001N1+03381+01221101531ADDAA106000091GF102991021001017501031001MA1999999099961MD1999999+0051REMSYN070AAXX  14184 82678 32796 21405 10338 20122 39996 40153 82030 333 58005;EQDQ01  00002PRCP06
0208826780999992004081500004-06770-043020FM-12+012799999V0201401N001012200019N0002001N1+02841+01191101671ADDAA106000091GA1001+999999999GF100991001001999999001001KA1240M+03411MA1999999100091MD1999999-0041REMSYN082AAXX  15004 82678 32992 01402 10284 20119 30009 40167 333 10341 29036 55107 59004;EQDQ01  00002PRCP06
0186826780999992004081512004-06770-043020FM-12+012799999V0201401N003112200019N0040001N1+02601+01601102031ADDAA106000091GF102991011001017501031011KA1240N+02281MA1999999100441MD1999999+0061REMSYN076AAXX  15124 82678 32796 21406 10260 20160 30044 40203 81031 333 20228 58006;EQDQ01  00002PRCP06
0167826780999992004081518004-06770-043020FM-12+012799999V0201401N001512200019N0040001N1+03381+01621101491ADDAA106000091GF103991011011008001001011MA1999999099921MD1999999-0041REMSYN070AAXX  15184 82678 32596 31403 10338 20162 39992 40149 81101 333 59004;EQDQ01  00002PRCP06
0198826780999992004081600004-06770-043020FM-12+012799999V0201401N001012200019N0002001N1+02941+01481101591ADDAA106000091GF102991021011008001001001KA1240M+03471MA1999999100011MD1999999-0091REMSYN088AAXX  16004 82678 32592 21402 10294 20148 30001 40159 82100 333 10347 29043 55107 59009;EQDQ01  00002PRCP06
0186826780999992004081612004-06770-043020FM-12+012799999V0201401N005112200019N0040001N1+02821+01611101871ADDAA106000091GF101991011001017501031001KA1240N+02461MA1999999100301MD1999999-0141REMSYN076AAXX  16124 82678 32796 11410 10282 20161 30030 40187 81030 333 20246 59014;EQDQ01  00002PRCP06
0167826780999992004081618004-06770-043020FM-12+012799999V0201401N003110075019N0040001N1+03481+01571101281ADDAA106000091GF105991051021008001001001MA1999999099731MD1999999-0191REMSYN070AAXX  16184 82678 32596 51406 10348 20157 39973 40128 85200 333 59019;EQDQ01  00002PRCP06
0198826780999992004081700004-06770-043020FM-12+012799999V0201401N001510150019N0002001N1+03121+01391101421ADDAA106000091GF105991051001017501031001KA1240M+03601MA1999999099861MD1999999-0151REMSYN088AAXX  17004 82678 32792 51403 10312 20139 39986 40142 85030 333 10360 29038 55104 59015;EQDQ01  00002PRCP06
0186826780999992004081712004-06770-043020FM-12+012799999V0201401N004112200019N0040001N1+02871+01721101801ADDAA106000091GF101991011001017501031001KA1240N+02261MA1999999100241MD1999999-0061REMSYN076AAXX  17124 82678 32796 11408 10287 20172 30024 40180 81030 333 20226 59006;EQDQ01  00002PRCP06
0167826780999992004081718004-06770-043020FM-12+012799999V0201401N002610075019N0040001N1+03561+01641101291ADDAA106000091GF106991051021008001031001MA1999999099731MD1999999+0001REMSYN070AAXX  17184 82678 32596 61405 10356 20164 39973 40129 85230 333 58000;EQDQ01  00002PRCP06
0198826780999992004081800004-06770-043020FM-12+012799999V0201401N003112200019N0002001N1+03121+01521101531ADDAA106000091GF102991021001017501031001KA1240M+03621MA1999999099971MD1999999+0111REMSYN088AAXX  18004 82678 32792 21406 10312 20152 39997 40153 82030 333 10362 29040 55094 58011;EQDQ01  00002PRCP06
0196826780999992004081812004-06770-043020FM-12+012799999V0200901N004112200019N0040001N1+02891+01731101761ADDAA106000091GA1001+999999999GF100991001001999999001001KA1240N+02361MA1999999100201MD1999999-0041REMSYN070AAXX  18124 82678 32996 00908 10289 20173 30020 40176 333 20236 59004;EQDQ01  00002PRCP06
0167826780999992004081818004-06770-043020FM-12+012799999V0201401N003112200019N0040001N1+03621+01421101301ADDAA106000091GF104991041021008001001001MA1999999099741MD1999999+0011REMSYN070AAXX  18184 82678 32596 41406 10362 20142 39974 40130 84200 333 58001;EQDQ01  00002PRCP06
0198826780999992004081900004-06770-043020FM-12+012799999V0201401N003612200019N0002001N1+03141+01271101611ADDAA106000091GF101991011001017501031001KA1240M+03701MA1999999100051MD1999999+0081REMSYN088AAXX  19004 82678 32792 11407 10314 20127 30005 40161 81030 333 10370 29035 55105 58008;EQDQ01  00002PRCP06
0196826780999992004081912004-06770-043020FM-12+012799999V0201401N003612200019N0040001N1+03001+01571101801ADDAA106000091GA1001+999999999GF100991001001999999001001KA1240N+02391MA1999999100241MD1999999+0041REMSYN070AAXX  19124 82678 32996 01407 10300 20157 30024 40180 333 20239 58004;EQDQ01  00002PRCP06
0167826780999992004081918004-06770-043020FM-12+012799999V0201401N001512200019N0040001N1+03761+01601101361ADDAA106000091GF104991041021008001001001MA1999999099821MD1999999+0081REMSYN070AAXX  19184 82678 32596 41403 10376 20160 39982 40136 84200 333 58008;EQDQ01  00002PRCP06
0208826780999992004082000004-06770-043020FM-12+012799999V0201401N001512200019N0002001N1+03141+01021101611ADDAA106000091GA1001+999999999GF100991001001999999001001KA1240M+03841MA1999999100051MD1999999+0001REMSYN082AAXX  20004 82678 32992 01403 10314 20102 30005 40161 333 10384 29031 55107 58000;EQDQ01  00002PRCP06
0196826780999992004082012004-06770-043020FM-12+012799999V0201401N003612200019N0040001N1+02881+01831101861ADDAA106000091GA1001+999999999GF100991001001999999001001KA1240N+02511MA1999999100291MD1999999+0051REMSYN070AAXX  20124 82678 32996 01407 10288 20183 30029 40186 333 20251 58005;EQDQ01  00002PRCP06
0167826780999992004082018004-06770-043020FM-12+012799999V0201401N001512200019N0040001N1+03621+01591101291ADDAA106000091GF104991021021008001001011MA1999999099741MD1999999-0081REMSYN070AAXX  20184 82678 32596 41403 10362 20159 39974 40129 82201 333 59008;EQDQ01  00002PRCP06
0208826780999992004082100004-06770-043020FM-12+012799999V0201401N002112200019N0002001N1+03081+01271101471ADDAA106000091GA1001+999999999GF100991001001999999001001KA1240M+03721MA1999999099911MD1999999-0141REMSYN082AAXX  21004 82678 32992 01404 10308 20127 39991 40147 333 10372 29037 55108 59014;EQDQ01  00002PRCP06
0196826780999992004082112004-06770-043020FM-12+012799999V0201401N004112200019N0040001N1+02901+01651101671ADDAA106000091GA1001+999999999GF100991001001999999001001KA1240N+02481MA1999999100111MD1999999-0181REMSYN070AAXX  21124 82678 32996 01408 10290 20165 30011 40167 333 20248 59018;EQDQ01  00002PRCP06
0167826780999992004082118004-06770-043020FM-12+012799999V0201401N001512200019N0040001N1+03681+01351101201ADDAA106000091GF104991021011008001001011MA1999999099661MD1999999-0081REMSYN070AAXX  21184 82678 32596 41403 10368 20135 39966 40120 82101 333 59008;EQDQ01  00002PRCP06
0208826780999992004082200004-06770-043020FM-12+012799999V0201401N001012200019N0002001N1+03021+01301101301ADDAA106000091GA1001+999999999GF100991001001999999001001KA1240M+03721MA1999999099741MD1999999-0171REMSYN082AAXX  22004 82678 32992 01402 10302 20130 39974 40130 333 10372 29036 55108 59017;EQDQ01  00002PRCP06
0196826780999992004082212004-06770-043020FM-12+012799999V0201401N003112200019N0040001N1+02881+01891101671ADDAA106000091GA1001+999999999GF100991001001999999001001KA1240N+02401MA1999999100101MD1999999-0011REMSYN070AAXX  22124 82678 32996 01406 10288 20189 30010 40167 333 20240 59001;EQDQ01  00002PRCP06
0167826780999992004082218004-06770-043020FM-12+012799999V0202701N001510075019N0040001N1+03701+01491101121ADDAA106000091GF105991051021008001001001MA1999999099581MD1999999-0081REMSYN070AAXX  22184 82678 32596 52703 10370 20149 39958 40112 85200 333 59008;EQDQ01  00002PRCP06
0208826780999992004082300004-06770-043020FM-12+012799999V0201401N001512200019N0002001N1+03141+01411101321ADDAA106000091GA1001+999999999GF100991001001999999001001KA1240M+03721MA1999999099761MD1999999+0021REMSYN082AAXX  23004 82678 32592 01403 10314 20141 39976 40132 333 10372 29038 55109 58002;EQDQ01  00002PRCP06
0196826780999992004082312004-06770-043020FM-12+012799999V0201401N002112200019N0040001N1+03001+01751101771ADDAA106000091GA1001+999999999GF100991001001999999001001KA1240N+02651MA1999999100211MD1999999+0111REMSYN070AAXX  23124 82678 32996 01404 10300 20175 30021 40177 333 20265 58011;EQDQ01  00002PRCP06
0167826780999992004082318004-06770-043020FM-12+012799999V0201801N001010075019N0040001N1+03731+01391101251ADDAA106000091GF105991051021008001001001MA1999999099711MD1999999+0131REMSYN070AAXX  23184 82678 32596 51802 10373 20139 39971 40125 85200 333 58013;EQDQ01  00002PRCP06
0198826780999992004082400004-06770-043020FM-12+012799999V0201801N000510150019N0002001N1+02971+01811101421ADDAA106000091GF106991061001017501031001KA1240M+03801MA1999999099861MD1999999+0101REMSYN088AAXX  24004 82678 32792 61801 10297 20181 39986 40142 86030 333 10380 29043 55088 58010;EQDQ01  00002PRCP06
0196826780999992004082412004-06770-043020FM-12+012799999V0200501N002112200019N0040001N1+02991+01951101731ADDAA106000091GA1001+999999999GF100991001001999999001001KA1240N+02201MA1999999100171MD1999999-0041REMSYN070AAXX  24124 82678 32996 00504 10299 20195 30017 40173 333 20220 59004;EQDQ01  00002PRCP06
0167826780999992004082418004-06770-043020FM-12+012799999V0200901N002110075019N0040001N1+03701+01491101141ADDAA106000091GF105991051021008001001001MA1999999099601MD1999999-0111REMSYN070AAXX  24184 82678 32596 50904 10370 20149 39960 40114 85200 333 59011;EQDQ01  00002PRCP06
0208826780999992004082500004-06770-043020FM-12+012799999V0201401N000512200019N0002001N1+03061+01551101261ADDAA106000091GA1001+999999999GF100991001001999999001001KA1240M+03821MA1999999099681MD1999999-0181REMSYN082AAXX  25004 82678 32992 01401 10306 20155 39968 40126 333 10382 29040 55108 59018;EQDQ01  00002PRCP06
0186826780999992004082512004-06770-043020FM-12+012799999V0209999C000012200019N0040001N1+02761+01911101731ADDAA106000091GF103991021021008001001031KA1240N+02321MA1999999100161MD1999999-0011REMSYN076AAXX  25124 82678 32596 30000 10276 20191 30016 40173 82203 333 20232 59001;EQDQ01  00002PRCP06
0167826780999992004082518004-06767-043017FM-12+013899999V0201401N001511050019N0040001N1+03461+01901101111ADDAA106000091GF105991041021008001001021MA1999999099561MD1999999-0041REMSYN070AAXX  25184 82678 32596 51403 10346 20190 39956 40111 84202 333 59004;EQDQ01  00002PRCP06
0208826780999992004082600004-06767-043017FM-12+013899999V0209999C000012200019N0002001N1+02961+01991101331ADDAA106000091GA1001+999999999GF100991001001999999001001KA1240M+03621MA1999999099761MD1999999+0081REMSYN082AAXX  26004 82678 32992 00000 10296 20199 39976 40133 333 10362 29053 55073 58008;EQDQ01  00002PRCP06
0186826780999992004082612004-06767-043017FM-12+013899999V0201401N002612200019N0040001N1+03061+01551101621ADDAA106000091GF102991011011008001001011KA1240N+02381MA1999999100061MD1999999-0101REMSYN076AAXX  26124 82678 32596 21405 10306 20155 30006 40162 81101 333 20238 59010;EQDQ01  00002PRCP06
0167826780999992004082618004-06767-043017FM-12+013899999V0200901N001010450019N0040001N1+03581+01501101111ADDAA106000091GF108991041021008001031021MA1999999099561MD1999999+0001REMSYN070AAXX  26184 82678 32596 80902 10358 20150 39956 40111 84232 333 58000;EQDQ01  00002PRCP06
0208826780999992004082700004-06767-043017FM-12+013899999V0201401N001512200019N0002001N1+02981+01311101261ADDAA106000091GA1001+999999999GF100991001001999999001001KA1240M+03621MA1999999099701MD1999999-0061REMSYN082AAXX  27004 82678 32992 01403 10298 20131 39970 40126 333 10362 29035 55071 59006;EQDQ01  00002PRCP06
0186826780999992004082712004-06767-043017FM-12+013899999V0200901N004612200019N0040001N1+03121+01391101541ADDAA106000091GF102991001001999999001021KA1240N+02421MA1999999099981MD1999999-0081REMSYN076AAXX  27124 82678 32996 20909 10312 20139 39998 40154 80002 333 20242 59008;EQDQ01  00002PRCP06
0167826780999992004082718004-06767-043017FM-12+013899999V0201401N001512200019N0040001N1+03661+01621101041ADDAA106000091GF105991021011008001001011MA1999999099501MD1999999-0061REMSYN070AAXX  27184 82678 32596 51403 10366 20162 39950 40104 82101 333 59006;EQDQ01  00002PRCP06
0198826780999992004082800004-06767-043017FM-12+013899999V0209999C000010075019N0002001N1+03141+01621101171ADDAA106000091GF108991081051008001999999KA1240M+03801MA1999999099631MD1999999-0071REMSYN088AAXX  28004 82678 32592 80000 10314 20162 39963 40117 885// 333 10380 29036 55104 59007;EQDQ01  00002PRCP06
0209826780999992004082812004-06767-043017FM-12+013899999V0200501N001512200019N9999999N1+03101+01701101571ADDAY101061AY261061GF101991011011008001001001KA1240N+02461MA1999999100021MD1999999+0041MW1001REMSYN088AAXX  28124 82678 21596 10503 10310 20170 30002 40157 70006 81100 333 20246 58004 60014;EQDQ01+040002VODIS 
0167826780999992004082818004-06770-043020FM-12+012799999V0200501N001010075019N0040001N1+03661+01721101101ADDAA106000091GF106991061021008001001001MA1999999099561MD1999999+0061REMSYN070AAXX  28184 82678 32596 60502 10366 20172 39956 40110 86200 333 58006;EQDQ01  00002PRCP06
0198826780999992004082900004-06770-043020FM-12+012799999V0209999C000012200019N0002001N1+02961+01711101161ADDAA106000091GF101991011001017501031001KA1240M+03801MA1999999099611MD1999999-0021REMSYN088AAXX  29004 82678 32792 10000 10296 20171 39961 40116 81030 333 10380 29042 55102 59002;EQDQ01  00002PRCP06
0196826780999992004082912004-06770-043020FM-12+012799999V0203601N003112200019N0040001N1+03031+01861101521ADDAA106000091GA1001+999999999GF100991001001999999001001KA1240N+02461MA1999999099961MD1999999-0061REMSYN070AAXX  29124 82678 32996 03606 10303 20186 39996 40152 333 20246 59006;EQDQ01  00002PRCP06
0167826780999992004082918004-06770-043020FM-12+012799999V0200501N001510075019N0040001N1+03661+01821101061ADDAA106000091GF105991051051008001001001MA1999999099521MD1999999-0041REMSYN070AAXX  29184 82678 32596 50503 10366 20182 39952 40106 85500 333 59004;EQDQ01  00002PRCP06
0198826780999992004083000004-06770-043020FM-12+012799999V0203601N001512200019N0002001N1+03141+01801101261ADDAA106000091GF101991011001017501031001KA1240M+03761MA1999999099711MD1999999+0101REMSYN088AAXX  30004 82678 32792 13603 10314 20180 39971 40126 81030 333 10376 29044 55103 58010;EQDQ01  00002PRCP06
0186826780999992004083012004-06767-043017FM-12+013899999V0200501N002112200019N0040001N1+02941+02031101611ADDAA106000091GF103991021001017501041011KA1240N+02441MA1999999100051MD1999999+0091REMSYN076AAXX  30124 82678 32796 30504 10294 20203 30005 40161 82041 333 20244 58009;EQDQ01  00002PRCP06
0167826780999992004083018004-06767-043017FM-12+013899999V0200501N001512200019N0040001N1+03631+01741101061ADDAA106000091GF104991041021008001001001MA1999999099511MD1999999-0011REMSYN070AAXX  30184 82678 32596 40503 10363 20174 39951 40106 84200 333 59001;EQDQ01  00002PRCP06
0198826780999992004083100004-06767-043017FM-12+013899999V0200501N001511050019N0002001N1+03101+01841101241ADDAA106000091GF105991041041008001001021KA1240M+03751MA1999999099681MD1999999-0031REMSYN088AAXX  31004 82678 32592 50503 10310 20184 39968 40124 84402 333 10375 29046 55102 59003;EQDQ01  00002PRCP06
0209826780999992004083112004-06767-043017FM-12+013899999V0203601N001512200019N9999999N1+02901+02151101731ADDAY101061AY261061GF103991011051008001031011KA1240N+02441MA1999999100171MD1999999+0121MW1001REMSYN088AAXX  31124 82678 21596 33603 10290 20215 30017 40173 70006 81531 333 20244 58012 69914;EQDQ01+040002VODIS 
0167826780999992004083118004-06767-043017FM-12+013899999V0201401N001011050019N0040001N1+03561+01681101151ADDAA106000091GF105991031021008001001021MA1999999099601MD1999999+0091REMSYN070AAXX  31184 82678 32596 51402 10356 20168 39960 40115 83202 333 58009;EQDQ01  00002PRCP06
0198826780999992004090100004-06767-043017FM-12+013899999V0202301N001010450019N0002001N1+02961+01991101411ADDAA106000091GF105991031051008001031011KA1240M+03711MA1999999099851MD1999999+0171REMSYN088AAXX  01004 82678 32592 52302 10296 20199 39985 40141 83531 333 10371 29051 55082 58017;EQDQ01  00002PRCP06
0196826780999992004090112004-06767-043017FM-12+013899999V0201401N003612200019N0040001N1+02921+01641101861ADDAA106000091GA1001+999999999GF100991001001999999001001KA1240N+02641MA1999999100291MD1999999+0121REMSYN070AAXX  01124 82678 32996 01407 10292 20164 30029 40186 333 20264 58012;EQDQ01  00002PRCP06
0208826780999992004090200004-06767-043017FM-12+013899999V0201401N001512200019N0002001N1+02981+01041101481ADDAA106000091GA1001+999999999GF100991001001999999001001KA1240M+03591MA1999999099921MD1999999+0071REMSYN082AAXX  02004 82678 32992 01403 10298 20104 39992 40148 333 10359 29034 55108 58007;EQDQ01  00002PRCP06
0186826780999992004090212004-06767-043017FM-12+013899999V0201401N004612200019N0040001N1+02881+01701101821ADDAA106000091GF105991031011008001001011KA1240N+02481MA1999999100251MD1999999-0041REMSYN076AAXX  02124 82678 32596 51409 10288 20170 30025 40182 83101 333 20248 59004;EQDQ01  00002PRCP06
0167826780999992004090218004-06767-043017FM-12+013899999V0201401N002610450019N0040001N1+03481+01471101351ADDAA106000091GF106991041021008001031001MA1999999099801MD1999999+0021REMSYN070AAXX  02184 82678 32596 61405 10348 20147 39980 40135 84230 333 58002;EQDQ01  00002PRCP06
0208826780999992004090300004-06767-043017FM-12+013899999V0201401N002612200019N0002001N1+03041+01571101561ADDAA106000091GA1001+999999999GF100991001001999999001001KA1240M+03571MA1999999100001MD1999999+0081REMSYN082AAXX  03004 82678 32992 01405 10304 20157 30000 40156 333 10357 29040 55107 58008;EQDQ01  00002PRCP06
0186826780999992004090312004-06767-043017FM-12+013899999V0201401N004112200019N0040001N1+02781+01581101841ADDAA106000091GF104991031021008001001011KA1240N+02481MA1999999100271MD1999999+0021REMSYN076AAXX  03124 82678 32596 41408 10278 20158 30027 40184 83201 333 20248 58002;EQDQ01  00002PRCP06
0167826780999992004090318004-06767-043017FM-12+013899999V0201401N003110075019N0040001N1+03521+01701101321ADDAA106000091GF105991051021008001001001MA1999999099771MD1999999-0031REMSYN070AAXX  03184 82678 32596 51406 10352 20170 39977 40132 85200 333 59003;EQDQ01  00002PRCP06
0208826780999992004090400004-06767-043017FM-12+013899999V0201401N001512200019N0002001N1+03001+01241101381ADDAA106000091GA1001+999999999GF100991001001999999001001KA1240M+03571MA1999999099811MD1999999-0181REMSYN082AAXX  04004 82678 32992 01403 10300 20124 39981 40138 333 10357 29038 55086 59018;EQDQ01  00002PRCP06
0196826780999992004090412004-06767-043017FM-12+013899999V0201401N004112200019N0040001N1+02931+01571101611ADDAA106000091GA1001+999999999GF100991001001999999001001KA1240N+02201MA1999999100051MD1999999-0221REMSYN070AAXX  04124 82678 32996 01408 10293 20157 30005 40161 333 20220 59022;EQDQ01  00002PRCP06
0198826780999992004090500004-06767-043017FM-12+013899999V0201401N001512200019N0002001N1+03091+01221101301ADDAA106000091GF103991031001017501031001KA1240M+03671MA1999999099741MD1999999-0081REMSYN088AAXX  05004 82678 32792 31403 10309 20122 39974 40130 83030 333 10367 29033 55108 59008;EQDQ01  00002PRCP06
0186826780999992004090512004-06767-043017FM-12+013899999V0201401N002619999999N0040001N1+02841+01431101471ADDAA106000091GF105991001001999999001011KA1240N+02201MA1999999099911MD1999999-0141REMSYN076AAXX  05124 82678 32996 51405 10284 20143 39991 40147 80001 333 20220 59014;EQDQ01  00002PRCP06
0167826780999992004090518004-06767-043017FM-12+013899999V0201401N003111050019N0040001N1+03601+01461100971ADDAA106000091GF107991011011008001001021MA1999999099411MD1999999-0131REMSYN070AAXX  05184 82678 32596 71406 10360 20146 39941 40097 81102 333 59013;EQDQ01  00002PRCP06
0208826780999992004090600004-06767-043017FM-12+013899999V0201401N001012200019N0002001N1+03101+01581101171ADDAA106000091GA1001+999999999GF100991001001999999001001KA1240M+03611MA1999999099611MD1999999-0131REMSYN082AAXX  06004 82678 32992 01402 10310 20158 39961 40117 333 10361 29038 55102 59013;EQDQ01  00002PRCP06
0196826780999992004090612004-06767-043017FM-12+013899999V0201401N003612200019N0040001N1+02861+01371101511ADDAA106000091GA1001+999999999GF100991001001999999001001KA1240N+02181MA1999999099951MD1999999+0041REMSYN070AAXX  06124 82678 32996 01407 10286 20137 39995 40151 333 20218 58004;EQDQ01  00002PRCP06
0199826780999992004090618004-06767-043017FM-12+013899999V0201401N001512200019N0040001N1+03581+99999100861ADDAA106000091GF103991021011008001001011MA1999999099321MD1999999-0091REMSYN070AAXX  06184 82678 32596 31403 10358 20338 39932 40086 82101 333 59009;EQDQ01+003383ATOD  Q02  00002PRCP06Q03 +03383ATOD  
0208826780999992004090700004-06767-043017FM-12+013899999V0209999C000012200019N0002001N1+02881+01601101071ADDAA106000091GA1001+999999999GF100991001001999999001001KA1240M+03641MA1999999099511MD1999999-0101REMSYN082AAXX  07004 82678 32992 00000 10288 20160 39951 40107 333 10364 29040 55094 59010;EQDQ01  00002PRCP06
0196826780999992004090712004-06767-043017FM-12+013899999V0201401N002612200019N0040001N1+02841+01351101441ADDAA106000091GA1001+999999999GF100991001001999999001001KA1240N+02521MA1999999099871MD1999999-0081REMSYN070AAXX  07124 82678 32796 01405 10284 20135 39987 40144 333 20252 59008;EQDQ01  00002PRCP06
0177826780999992004090718004-06767-043017FM-12+013899999V0201401N002612200019N0040001N1+03081+01591100901ADDAA106000091GA1001+999999999GF100991001001999999001001MA1999999099341MD1999999+0021REMSYN064AAXX  07184 82678 32996 01405 10308 20159 39934 40090 333 58002;EQDQ01  00002PRCP06
0186826780999992004090812004-06767-043017FM-12+013899999V0201401N003112200019N0040001N1+02861+01681101331ADDAA106000091GF102991001001999999001011KA1240N+02481MA1999999099771MD1999999-0101REMSYN076AAXX  08124 82678 32996 21406 10286 20168 39977 40133 80001 333 20248 59010;EQDQ01  00002PRCP06
0167826780999992004090818004-06767-043017FM-12+013899999V0201401N001512200019N0040001N1+03621+01421100851ADDAA106000091GF102991001001999999001011MA1999999099311MD1999999-0031REMSYN070AAXX  08184 82678 32996 21403 10362 20142 39931 40085 80001 333 59003;EQDQ01  00002PRCP06
0208826780999992004090900004-06767-043017FM-12+013899999V0201401N001012200019N0002001N1+03061+01201101061ADDAA106000091GA1001+999999999GF100991001001999999001001KA1240M+03661MA1999999099501MD1999999-0021REMSYN082AAXX  09004 82678 32992 01402 10306 20120 39950 40106 333 10366 29035 55107 59002;EQDQ01  00002PRCP06
0186826780999992004090912004-06767-043017FM-12+013899999V0201401N004112200019N0040001N1+02871+01721101431ADDAA106000091GF105991011011008001001011KA1240N+02441MA1999999099871MD1999999+0101REMSYN076AAXX  09124 82678 32596 51408 10287 20172 39987 40143 81101 333 20244 58010;EQDQ01  00002PRCP06
0167826780999992004090918004-06767-043017FM-12+013899999V0200901N002611050019N0040001N1+03621+01531100951ADDAA106000091GF105991031011008001001021MA1999999099411MD1999999+0101REMSYN070AAXX  09184 82678 32596 50905 10362 20153 39941 40095 83102 333 58010;EQDQ01  00002PRCP06
0186826780999992004091012004-06767-043017FM-12+013899999V0200901N004612200019N0200001N1+02961+01711101531ADDAA106000091GF103991001001999999001011KA1240N+02571MA1999999099981MD1999999+0111REMSYN076AAXX  10124 82678 32998 30909 10296 20171 39998 40153 80001 333 20257 58011;EQDQ01  00002PRCP06
0167826780999992004091018004-06767-043017FM-12+013899999V0201401N003112200019N0040001N1+03651+01501100891ADDAA106000091GF108991041011008001001011MA1999999099351MD1999999-0061REMSYN070AAXX  10184 82678 32596 81406 10365 20150 39935 40089 84101 333 59006;EQDQ01  00002PRCP06
0208826780999992004091100004-06767-043017FM-12+013899999V0201401N003112200019N0002001N1+03221+01481101161ADDAA106000091GA1001+999999999GF100991001001999999001001KA1240M+03741MA1999999099611MD1999999-0011REMSYN082AAXX  11004 82678 32992 01406 10322 20148 39961 40116 333 10374 29036 55109 59001;EQDQ01  00002PRCP06
0186826780999992004091112004-06767-043017FM-12+013899999V0201401N004112200019N0040001N1+02861+01781101571ADDAA106000091GF105991041011008001001011KA1240N+02541MA1999999100011MD1999999+0031REMSYN076AAXX  11124 82678 32596 51408 10286 20178 30001 40157 84101 333 20254 58003;EQDQ01  00002PRCP06
0167826780999992004091118004-06767-043017FM-12+013899999V0201401N001510075019N0040001N1+03581+01881100981ADDAA106000091GF105991051021008001001001MA1999999099441MD1999999+0091REMSYN070AAXX  11184 82678 32596 51403 10358 20188 39944 40098 85200 333 58009;EQDQ01  00002PRCP06
0208826780999992004091200004-06767-043017FM-12+013899999V0201401N002112200019N0002001N1+03181+01491101261ADDAA106000091GA1001+999999999GF100991001001999999001001KA1240M+03661MA1999999099701MD1999999+0091REMSYN082AAXX  12004 82678 32992 01404 10318 20149 39970 40126 333 10366 29040 55102 58009;EQDQ01  00002PRCP06
0196826780999992004091212004-06770-043020FM-12+012799999V0201401N003112200019N0040001N1+03101+01581101701ADDAA106000091GA1001+999999999GF100991001001999999001001KA1240N+02261MA1999999100151MD1999999+0141REMSYN070AAXX  12124 82678 32996 01406 10310 20158 30015 40170 333 20226 58014;EQDQ01  00002PRCP06
0167826780999992004091218004-06767-043017FM-12+013899999V0200901N002612200019N0040001N1+03601+01621101201ADDAA106000091GF104991999999008001999999MA1999999099651MD1999999+0211REMSYN070AAXX  12184 82678 32596 40905 10360 20162 39965 40120 8//// 333 58021;EQDQ01  00002PRCP06
0208826780999992004091300004-06767-043017FM-12+013899999V0209999C000012200019N0002001N1+02921+01711101501ADDAA106000091GA1001+999999999GF100991001001999999001001KA1240M+03661MA1999999099941MD1999999+0241REMSYN082AAXX  13004 82678 32992 00000 10292 20171 39994 40150 333 10366 29042 55106 58024;EQDQ01  00002PRCP06
0186826780999992004091312004-06767-043017FM-12+013899999V0201401N003612200019N0040001N1+02881+01671101911ADDAA106000091GF104991021001008001021011KA1240N+02421MA1999999100341MD1999999+0191REMSYN076AAXX  13124 82678 32596 41407 10288 20167 30034 40191 82021 333 20242 58019;EQDQ01  00002PRCP06
0167826780999992004091318004-06767-043017FM-12+013899999V0201401N002612200019N0040001N1+03481+01881101311ADDAA106000091GF103991011011008001001011MA1999999099751MD1999999+0101REMSYN070AAXX  13184 82678 32596 31405 10348 20188 39975 40131 81101 333 58010;EQDQ01  00002PRCP06
0208826780999992004091400004-06767-043017FM-12+013899999V0201401N001512200019N0002001N1+03021+01171101461ADDAA106000091GA1001+999999999GF100991001001999999001001KA1240M+03621MA1999999099901MD1999999-0041REMSYN082AAXX  14004 82678 32992 01403 10302 20117 39990 40146 333 10362 29038 55082 59004;EQDQ01  00002PRCP06
0186826780999992004091412004-06767-043017FM-12+013899999V0201401N002612200019N0040001N1+02901+01651101841ADDAA106000091GF103991001001999999001011KA1240N+02521MA1999999100271MD1999999-0071REMSYN076AAXX  14124 82678 32996 31405 10290 20165 30027 40184 80001 333 20252 59007;EQDQ01  00002PRCP06
0167826780999992004091418004-06767-043017FM-12+013899999V0201401N002612200019N0040001N1+03661+01671101271ADDAA106000091GF104991041011008001001001MA1999999099721MD1999999-0031REMSYN070AAXX  14184 82678 32596 41405 10366 20167 39972 40127 84100 333 59003;EQDQ01  00002PRCP06
0208826780999992004091500004-06767-043017FM-12+013899999V0201401N001012200019N0002001N1+03081+01311101411ADDAA106000091GA1001+999999999GF100991001001999999001001KA1240M+03701MA1999999099851MD1999999-0051REMSYN082AAXX  15004 82678 32992 01402 10308 20131 39985 40141 333 10370 29036 55110 59005;EQDQ01  00002PRCP06
0186826780999992004091512004-06767-043017FM-12+013899999V0201401N004112200019N0040001N1+02921+01741101871ADDAA106000091GF102991021011008001001001KA1240N+02581MA1999999100301MD1999999+0031REMSYN076AAXX  15124 82678 32596 21408 10292 20174 30030 40187 82100 333 20258 58003;EQDQ01  00002PRCP06
0167826780999992004091518004-06767-043017FM-12+013899999V0201401N001010075019N0040001N1+03621+01691101181ADDAA106000091GF105991051011008001001001MA1999999099641MD1999999-0081REMSYN070AAXX  15184 82678 32596 51402 10362 20169 39964 40118 85100 333 59008;EQDQ01  00002PRCP06
0208826780999992004091600004-06767-043017FM-12+013899999V0209999C000012200019N0002001N1+02961+01571101331ADDAA106000091GA1001+999999999GF100991001001999999001001KA1240M+03721MA1999999099771MD1999999-0081REMSYN082AAXX  16004 82678 32992 00000 10296 20157 39977 40133 333 10372 29042 55102 59008;EQDQ01  00002PRCP06
0186826780999992004091612004-06767-043017FM-12+013899999V0201401N003619999999N0040001N1+02981+01471101641ADDAA106000091GF105991001001999999001011KA1240N+02401MA1999999100071MD1999999-0031REMSYN076AAXX  16124 82678 32996 51407 10298 20147 30007 40164 80001 333 20240 59003;EQDQ01  00002PRCP06
0167826780999992004091618004-06767-043017FM-12+013899999V0203601N001012200019N0040001N1+03771+01291101041ADDAA106000091GF105991031011008001001011MA1999999099501MD1999999-0141REMSYN070AAXX  16184 82678 32596 53602 10377 20129 39950 40104 83101 333 59014;EQDQ01  00002PRCP06
0208826780999992004091700004-06767-043017FM-12+013899999V0209999C000012200019N0002001N1+02971+01461101261ADDAA106000091GA1001+999999999GF100991001001999999001001KA1240M+03821MA1999999099701MD1999999-0071REMSYN082AAXX  17004 82678 32992 00000 10297 20146 39970 40126 333 10382 29036 55108 59007;EQDQ01  00002PRCP06
0186826780999992004091712004-06767-043017FM-12+013899999V0201401N001012200019N0040001N1+03021+01511101731ADDAA106000091GF102991011011008001001011KA1240N+02301MA1999999100171MD1999999+0101REMSYN076AAXX  17124 82678 32596 21402 10302 20151 30017 40173 81101 333 20230 58010;EQDQ01  00002PRCP06
0167826780999992004091718004-06767-043017FM-12+013899999V0200901N001512200019N0040001N1+03791+01241101101ADDAA106000091GF103991031011008001001001MA1999999099561MD1999999+0061REMSYN070AAXX  17184 82678 32596 30903 10379 20124 39956 40110 83100 333 58006;EQDQ01  00002PRCP06
0208826780999992004091800004-06767-043017FM-12+013899999V0201401N000512200019N0002001N1+02861+01291101251ADDAA106000091GA1001+999999999GF100991001001999999001001KA1240M+03861MA1999999099691MD1999999-0011REMSYN082AAXX  18004 82678 32992 01401 10286 20129 39969 40125 333 10386 29034 55103 59001;EQDQ01  00002PRCP06
0167826780999992004091818004-06767-043017FM-12+013899999V0201401N002112200019N0040001N1+03701+01601101101ADDAA106000091GF103991021021008001001011MA1999999099561MD1999999+0001REMSYN070AAXX  18184 82678 32596 31404 10370 20160 39956 40110 82201 333 58000;EQDQ01  00002PRCP06
0208826780999992004091900004-06770-043020FM-12+012799999V0201401N001512200019N0002001N1+03221+01691101291ADDAA106000091GA1001+999999999GF100991001001999999001001KA1240M+03741MA1999999099741MD1999999+0051REMSYN082AAXX  19004 82678 32992 01403 10322 20169 39974 40129 333 10374 29039 55104 58005;EQDQ01  00002PRCP06
0196826780999992004091912004-06770-043020FM-12+012799999V0201401N001512200019N0040001N1+03001+01571101661ADDAA106000091GA1001+999999999GF100991001001999999001001KA1240N+02621MA1999999100101MD1999999-0011REMSYN070AAXX  19124 82678 32996 01403 10300 20157 30010 40166 333 20262 59001;EQDQ01  00002PRCP06
0167826780999992004091918004-06770-043020FM-12+012799999V0200901N002612200019N0040001N1+03761+01361101001ADDAA106000091GF103991021011008001001011MA1999999099471MD1999999-0091REMSYN070AAXX  19184 82678 32596 30905 10376 20136 39947 40100 82101 333 59009;EQDQ01  00002PRCP06
0208826780999992004092000004-06770-043020FM-12+012799999V0201401N001012200019N0002001N1+03201+01281101221ADDAA106000091GA1001+999999999GF100991001001999999001001KA1240M+03811MA1999999099671MD1999999-0071REMSYN082AAXX  20004 82678 32992 01402 10320 20128 39967 40122 333 10381 29032 55106 59007;EQDQ01  00002PRCP06
0186826780999992004092012004-06767-043017FM-12+013899999V0200901N002612200019N0040001N1+03021+01861101511ADDAA106000091GF103991001001999999001021KA1240N+02621MA1999999099961MD1999999-0141REMSYN076AAXX  20124 82678 32996 30905 10302 20186 39996 40151 80002 333 20262 59014;EQDQ01  00002PRCP06
0167826780999992004092018004-06767-043017FM-12+013899999V0201401N001511050019N0040001N1+03801+01521100991ADDAA106000091GF106991041021008001001021MA1999999099461MD1999999-0011REMSYN070AAXX  20184 82678 32596 61403 10380 20152 39946 40099 84202 333 59001;EQDQ01  00002PRCP06
0198826780999992004092100004-06767-043017FM-12+013899999V0201401N001012200019N0002001N1+03221+01341101181ADDAA106000091GF102991001001999999001011KA1240M+03881MA1999999099631MD1999999-0041REMSYN088AAXX  21004 82678 32992 21402 10322 20134 39963 40118 80001 333 10388 29035 55099 59004;EQDQ01  00002PRCP06
0196826780999992004092112004-06767-043017FM-12+013899999V0201401N003112200019N0040001N1+03041+01601101621ADDAA106000091GA1001+999999999GF100991001001999999001001KA1240N+02581MA1999999100071MD1999999+0111REMSYN070AAXX  21124 82678 32996 01406 10304 20160 30007 40162 333 20258 58011;EQDQ01  00002PRCP06
0167826780999992004092118004-06767-043017FM-12+013899999V0200901N003610075019N0040001N1+03651+01501101131ADDAA106000091GF105991051021008001001001MA1999999099591MD1999999+0131REMSYN070AAXX  21184 82678 32596 50907 10365 20150 39959 40113 85200 333 58013;EQDQ01  00002PRCP06
0208826780999992004092200004-06767-043017FM-12+013899999V0209999C000012200019N0002001N1+02961+01501101361ADDAA106000091GA1001+999999999GF100991001001999999001001KA1240M+03681MA1999999099801MD1999999+0171REMSYN082AAXX  22004 82678 32992 00000 10296 20150 39980 40136 333 10368 29038 55105 58017;EQDQ01  00002PRCP06
0186826780999992004092212004-06767-043017FM-12+013899999V0201401N004110450019N0040001N1+03081+01881101811ADDAA106000091GF105991031011008001031011KA1240N+02401MA1999999100251MD1999999+0181REMSYN076AAXX  22124 82678 32596 51408 10308 20188 30025 40181 83131 333 20240 58018;EQDQ01  00002PRCP06
0167826780999992004092218004-06767-043017FM-12+013899999V0201401N002610075019N0040001N1+03721+01391101241ADDAA106000091GF105991051021008001001001MA1999999099691MD1999999+0101REMSYN070AAXX  22184 82678 32596 51405 10372 20139 39969 40124 85200 333 58010;EQDQ01  00002PRCP06
0198826780999992004092300004-06767-043017FM-12+013899999V0201401N003112200019N0002001N1+03261+01641101491ADDAA106000091GF101991011001017501031001KA1240M+03821MA1999999099941MD1999999+0141REMSYN088AAXX  23004 82678 32792 11406 10326 20164 39994 40149 81030 333 10382 29038 55101 58014;EQDQ01  00002PRCP06
0186826780999992004092312004-06767-043017FM-12+013899999V0201401N004610450019N0040001N1+02951+01881101831ADDAA106000091GF106991031051008001031011KA1240N+02601MA1999999100271MD1999999+0021REMSYN076AAXX  23124 82678 32596 61409 10295 20188 30027 40183 83531 333 20260 58002;EQDQ01  00002PRCP06
0167826780999992004092318004-06767-043017FM-12+013899999V0201401N002110075019N0040001N1+03611+01571101191ADDAA106000091GF108991051021008001001011MA1999999099651MD1999999-0041REMSYN070AAXX  23184 82678 32596 81404 10361 20157 39965 40119 85201 333 59004;EQDQ01  00002PRCP06
0198826780999992004092400004-06767-043017FM-12+013899999V0209999C000012200019N0002001N1+03081+01681101341ADDAA106000091GF103991031001999999031001KA1240M+03701MA1999999099781MD1999999-0161REMSYN088AAXX  24004 82678 32992 30000 10308 20168 39978 40134 83030 333 10370 29042 55086 59016;EQDQ01  00002PRCP06
0196826780999992004092412004-06767-043017FM-12+013899999V0201401N005112200019N0040001N1+03001+01811101701ADDAA106000091GA1001+999999999GF100991001001999999001001KA1240N+02321MA1999999100141MD1999999-0131REMSYN070AAXX  24124 82678 32996 01410 10300 20181 30014 40170 333 20232 59013;EQDQ01  00002PRCP06
0167826780999992004092418004-06767-043017FM-12+013899999V0201401N001512200019N0040001N1+03681+01741101081ADDAA106000091GF104991031021008001001021MA1999999099531MD1999999-0121REMSYN070AAXX  24184 82678 32596 41403 10368 20174 39953 40108 83202 333 59012;EQDQ01  00002PRCP06
0208826780999992004092500004-06767-043017FM-12+013899999V0209999C000012200019N0002001N1+03081+01561101271ADDAA106000091GA1001+999999999GF100991001001999999001001KA1240M+03781MA1999999099721MD1999999-0061REMSYN082AAXX  25004 82678 32992 00000 10308 20156 39972 40127 333 10378 29040 55106 59006;EQDQ01  00002PRCP06
0196826780999992004092512004-06767-043017FM-12+013899999V0201401N005112200019N0040001N1+03081+01561101661ADDAA106000091GA1001+999999999GF100991001001999999001001KA1240N+02631MA1999999100101MD1999999-0041REMSYN070AAXX  25124 82678 32796 01410 10308 20156 30010 40166 333 20263 59004;EQDQ01  00002PRCP06
0167826780999992004092518004-06767-043017FM-12+013899999V0201401N001512200019N0040001N1+03721+01561101001ADDAA106000091GF102991011011008001001011MA1999999099461MD1999999-0071REMSYN070AAXX  25184 82678 32596 21403 10372 20156 39946 40100 81101 333 59007;EQDQ01  00002PRCP06
0208826780999992004092600004-06767-043017FM-12+013899999V0209999C000012200019N0002001N1+03201+01711101091ADDAA106000091GA1001+999999999GF100991001001999999001001KA1240M+03781MA1999999099551MD1999999-0171REMSYN082AAXX  26004 82678 32992 00000 10320 20171 39955 40109 333 10378 29038 55106 59017;EQDQ01  00002PRCP06
0186826780999992004092612004-06770-043020FM-12+012799999V0200901N003112200019N0040001N1+03041+01681101701ADDAA106000091GF105991021011008001001011KA1240N+02461MA1999999100141MD1999999+0041REMSYN076AAXX  26124 82678 32596 50906 10304 20168 30014 40170 82101 333 20246 58004;EQDQ01  00002PRCP06
0167826780999992004092618004-06770-043020FM-12+012799999V0201401N001011050019N0040001N1+03641+01701101171ADDAA106000091GF106991031021008001001021MA1999999099621MD1999999+0161REMSYN070AAXX  26184 82678 32596 61402 10364 20170 39962 40117 83202 333 58016;EQDQ01  00002PRCP06
0198826780999992004092700004-06770-043020FM-12+012799999V0201401N001011050019N0002001N1+03161+01471101321ADDAA106000091GF107991021001017501031021KA1240M+03741MA1999999099771MD1999999+0221REMSYN088AAXX  27004 82678 32792 71402 10316 20147 39977 40132 82032 333 10374 29037 55107 58022;EQDQ01  00002PRCP06
0186826780999992004092712004-06770-043020FM-12+012799999V0201401N003119999999N0040001N1+03021+01761101641ADDAA106000091GF105991001001999999001041KA1240N+02581MA1999999100081MD1999999-0061REMSYN076AAXX  27124 82678 32996 51406 10302 20176 30008 40164 80004 333 20258 59006;EQDQ01  00002PRCP06
0167826780999992004092718004-06767-043017FM-12+013899999V0200901N001510075019N0040001N1+03661+01571101151ADDAA106000091GF107991051021008001001021MA1999999099611MD1999999-0011REMSYN070AAXX  27184 82678 32596 70903 10366 20157 39961 40115 85202 333 59001;EQDQ01  00002PRCP06
0198826780999992004092800004-06767-043017FM-12+013899999V0209999C000010150019N0002001N1+03161+01631101281ADDAA106000091GF107991051001017501031021KA1240M+03701MA1999999099731MD1999999-0041REMSYN088AAXX  28004 82678 32792 70000 10316 20163 39973 40128 85032 333 10370 29039 55102 59004;EQDQ01  00002PRCP06
0196826780999992004092812004-06767-043017FM-12+013899999V0200901N004112200019N0040001N1+03201+01751101481ADDAA106000091GA1001+999999999GF100991001001999999001001KA1240N+02751MA1999999099931MD1999999-0151REMSYN070AAXX  28124 82678 32996 00908 10320 20175 39993 40148 333 20275 59015;EQDQ01  00002PRCP06
0167826780999992004092818004-06767-043017FM-12+013899999V0200901N003112200019N0040001N1+03791+01311100851ADDAA106000091GF104991041021008001001001MA1999999099321MD1999999-0291REMSYN070AAXX  28184 82678 32596 40906 10379 20131 39932 40085 84200 333 59029;EQDQ01  00002PRCP06
0198826780999992004092900004-06767-043017FM-12+013899999V0201401N001512200019N0002001N1+03301+01411101001ADDAA106000091GF105991031001017501031011KA1240M+03901MA1999999099461MD1999999-0271REMSYN088AAXX  29004 82678 32792 51403 10330 20141 39946 40100 83031 333 10390 29032 55111 59027;EQDQ01  00002PRCP06
0186826780999992004092912004-06767-043017FM-12+013899999V0200901N001510075019N0040001N1+03161+02021101441ADDAA106000091GF106991061021008001001001KA1240N+02621MA1999999099901MD1999999-0031REMSYN076AAXX  29124 82678 32596 60903 10316 20202 39990 40144 86200 333 20262 59003;EQDQ01  00002PRCP06
0168826780999992004092918004-06767-043017FM-12+013899999V0200501N001510075019N0040001N1+03691+01691100861ADDAA106000091GF106991061021008001001001MD1999999+0001REMSYN070AAXX  29184 82678 32596 60503 10369 20169 33993 40086 86200 333 58000;EQDQ01+039931APOSP Q02  00002PRCP06
0208826780999992004093000004-06767-043017FM-12+013899999V0200501N001012200019N0002001N1+03001+01811100941ADDAA106000091GA1001+999999999GF100991001001999999001001KA1240M+03801MA1999999099401MD1999999-0061REMSYN082AAXX  30004 82678 32992 00502 10300 20181 39940 40094 333 10380 29045 55093 59006;EQDQ01  00002PRCP06
0196826780999992004093012004-06767-043017FM-12+013899999V0200901N001512200019N0040001N1+03121+01991101371ADDAA106000091GA1001+999999999GF100991001001999999001001KA1240N+02381MA1999999099821MD1999999-0081REMSYN070AAXX  30124 82678 32796 00903 10312 20199 39982 40137 333 20238 59008;EQDQ01  00002PRCP06
0167826780999992004093018004-06767-043017FM-12+013899999V0202701N001512200019N0040001N1+03861+01501100771ADDAA106000091GF106991031021008001001011MA1999999099231MD1999999-0091REMSYN070AAXX  30184 82678 32596 62703 10386 20150 39923 40077 83201 333 59009;EQDQ01  00002PRCP06
0208826780999992004100100004-06767-043017FM-12+013899999V0209999C000012200019N0002001N1+03081+01561100961ADDAA106000091GA1001+999999999GF100991001001999999001001KA1240M+03941MA1999999099421MD1999999+0021REMSYN082AAXX  01004 82678 32992 00000 10308 20156 39942 40096 333 10394 29039 55100 58002;EQDQ01  00002PRCP06
0186826780999992004100112004-06767-043017FM-12+013899999V0201401N002612200019N0040001N1+03121+01711101491ADDAA106000091GF104991021021008001031011KA1240N+02761MA1999999099941MD1999999+0121REMSYN076AAXX  01124 82678 32596 41405 10312 20171 39994 40149 82231 333 20276 58012;EQDQ01  00002PRCP06
0167826780999992004100118004-06767-043017FM-12+013899999V0201401N002112200019N0040001N1+03671+01461100931ADDAA106000091GF105991031011008001001011MA1999999099401MD1999999+0171REMSYN070AAXX  01184 82678 32596 51404 10367 20146 39940 40093 83101 333 58017;EQDQ01  00002PRCP06
0208826780999992004100200004-06767-043017FM-12+013899999V0201401N002612200019N0002001N1+03171+01241101121ADDAA106000091GA1001+999999999GF100991001001999999001001KA1240M+03741MA1999999099581MD1999999+0161REMSYN082AAXX  02004 82678 32992 01405 10317 20124 39958 40112 333 10374 29033 55100 58016;EQDQ01  00002PRCP06
0186826780999992004100212004-06767-043017FM-12+013899999V0200901N005112200019N0040001N1+03121+01681101431ADDAA106000091GF102991011001017501031011KA1240N+02701MA1999999099881MD1999999-0061REMSYN076AAXX  02124 82678 32796 20910 10312 20168 39988 40143 81031 333 20270 59006;EQDQ01  00002PRCP06
0167826780999992004100218004-06767-043017FM-12+013899999V0201401N001011050019N0040001N1+03681+01741100891ADDAA106000091GF106991041021008001001021MA1999999099361MD1999999-0041REMSYN070AAXX  02184 82678 32596 61402 10368 20174 39936 40089 84202 333 59004;EQDQ01  00002PRCP06
0208826780999992004100300004-06767-043017FM-12+013899999V0209999C000012200019N0002001N1+03121+01601101011ADDAA106000091GA1001+999999999GF100991001001999999001001KA1240M+03711MA1999999099461MD1999999-0121REMSYN082AAXX  03004 82678 32992 00000 10312 20160 39946 40101 333 10371 29038 55101 59012;EQDQ01  00002PRCP06
0186826780999992004100312004-06767-043017FM-12+013899999V0200901N001512200019N0040001N1+03221+01571101451ADDAA106000091GF103991021021008001001011KA1240N+02711MA1999999099901MD1999999+0021REMSYN076AAXX  03124 82678 32596 30903 10322 20157 39990 40145 82201 333 20271 58002;EQDQ01  00002PRCP06
0167826780999992004100318004-06770-043020FM-12+012799999V0201401N003110075019N0040001N1+03721+01721100891ADDAA106000091GF105991051021008001001001MA1999999099361MD1999999+0001REMSYN070AAXX  03184 82678 32596 51406 10372 20172 39936 40089 85200 333 58000;EQDQ01  00002PRCP06
0208826780999992004100400004-06770-043020FM-12+012799999V0209999C000012200019N0002001N1+03181+01771101541ADDAA106000091GA1001+999999999GF100991001001999999001001KA1240M+03761MA1999999099461MD1999999+0001REMSYN082AAXX  04004 82678 32992 00000 10318 20177 39946 40154 333 10376 29038 55101 58000;EQDQ01  00002PRCP06
0186826780999992004100412004-06767-043017FM-12+013899999V0202701N001010450019N0040001N1+03051+01911101341ADDAA106000091GF108991041051008001031011KA1240N+02651MA1999999099791MD1999999-0111REMSYN076AAXX  04124 82678 32596 82702 10305 20191 39979 40134 84531 333 20265 59011;EQDQ01  00002PRCP06
0167826780999992004100418004-06767-043017FM-12+013899999V0200901N001510120019N0040001N1+03781+01771100821ADDAA106000091GF108991051081008001031011MA1999999099291MD1999999-0071REMSYN070AAXX  04184 82678 32596 80903 10378 20177 39929 40082 85831 333 59007;EQDQ01  00002PRCP06
0208826780999992004100500004-06767-043017FM-12+013899999V0200501N001012200019N0002001N1+03071+01991101031ADDAA106000091GA1001+999999999GF100991001001999999001001KA1240M+03241MA1999999099481MD1999999+0021REMSYN082AAXX  05004 82678 32992 00502 10307 20199 39948 40103 333 10324 29046 55039 58002;EQDQ01  00002PRCP06
0186826780999992004100512004-06767-043017FM-12+013899999V0200501N000510450019N0040001N1+03161+02051101311ADDAA106000091GF106991021021008001031011KA1240N+02521MA1999999099761MD1999999-0031REMSYN076AAXX  05124 82678 32596 60501 10316 20205 39976 40131 82231 333 20252 59003;EQDQ01  00002PRCP06
0167826780999992004100518004-06767-043017FM-12+013899999V0203601N002112200019N0040001N1+03721+01821100841ADDAA106000091GF106991041021008001001011MA1999999099311MD1999999+0021REMSYN070AAXX  05184 82678 32596 63604 10372 20182 39931 40084 84201 333 58002;EQDQ01  00002PRCP06
0208826780999992004100600004-06767-043017FM-12+013899999V0209999C000012200019N0002001N1+03221+01911101001ADDAA106000091GA1001+999999999GF100991001001999999001001KA1240M+03901MA1999999099461MD1999999-0021REMSYN082AAXX  06004 82678 32992 00000 10322 20191 39946 40100 333 10390 29044 55092 59002;EQDQ01  00002PRCP06
0186826780999992004100612004-06767-043017FM-12+013899999V0209999C000010075019N0040001N1+02881+02161101551ADDAA106000091GF108991051021008001031021KA1240N+02581MA1999999099991MD1999999-0231REMSYN076AAXX  06124 82678 32596 80000 10288 20216 39999 40155 85232 333 20258 59023;EQDQ01  00002PRCP06
0167826780999992004100618004-06767-043017FM-12+013899999V0200501N001510075019N0040001N1+03621+01721100941ADDAA106000091GF108991061021008001001021MA1999999099411MD1999999+0101REMSYN070AAXX  06184 82678 32596 80503 10362 20172 39941 40094 86202 333 58010;EQDQ01  00002PRCP06
0198826780999992004100700004-06767-043017FM-12+013899999V0202301N002110450019N0040001N1+03161+02141101181ADDAA106000091GF105991031021008001031011KA1240M+03741MA1999999099631MD1999999+0171REMSYN088AAXX  07004 82678 32596 52304 10316 20214 39963 40118 83231 333 10374 29052 55063 58017;EQDQ01  00002PRCP06
0167826780999992004100718004-06767-043017FM-12+013899999V0203201N001011050019N0040001N1+03441+01951101031ADDAA106000091GF105991031021008001001021MA1999999099481MD1999999+0071REMSYN070AAXX  07184 82678 32596 53202 10344 20195 39948 40103 83202 333 58007;EQDQ01  00002PRCP06
0208826780999992004100800004-06767-043017FM-12+013899999V0209999C000012200019N0002001N1+02981+02201101221ADDAA106000091GA1001+999999999GF100991001001999999001001KA1240M+03531MA1999999099651MD1999999+0021REMSYN082AAXX  08004 82678 32992 00000 10298 20220 39965 40122 333 10353 29066 55044 58002;EQDQ01  00002PRCP06
0186826780999992004100812004-06767-043017FM-12+013899999V0202701N001010450019N0040001N1+02981+02151101471ADDAA106000091GF106991031051008001031011KA1240N+02501MA1999999099911MD1999999-0141REMSYN076AAXX  08124 82678 32596 62702 10298 20215 39991 40147 83531 333 20250 59014;EQDQ01  00002PRCP06
0167826780999992004100818004-06767-043017FM-12+013899999V0203601N001012200019N0040001N1+03661+01861100941ADDAA106000091GF106991041051008001001011MA1999999099401MD1999999-0081REMSYN070AAXX  08184 82678 32596 63602 10366 20186 39940 40094 84501 333 59008;EQDQ01  00002PRCP06
0198826780999992004100900004-06767-043017FM-12+013899999V0209999C000011050019N0002001N1+03181+02011101221ADDAA106000091GF108991041051008001001021KA1240M+03771MA1999999099671MD1999999+0021REMSYN088AAXX  09004 82678 32592 80000 10318 20201 39967 40122 84502 333 10377 29049 55088 58002;EQDQ01  00002PRCP06
0186826780999992004100912004-06767-043017FM-12+013899999V0200901N001511050019N0040001N1+03061+02111101581ADDAA106000091GF107991041011008001001021KA1240N+02561MA1999999100021MD1999999+0111REMSYN076AAXX  09124 82678 32596 70903 10306 20211 30002 40158 84102 333 20256 58011;EQDQ01  00002PRCP06
0167826780999992004100918004-06767-043017FM-12+013899999V0200901N002612200019N0040001N1+03661+01821101041ADDAA106000091GF107991041021008001001041MA1999999099501MD1999999+0101REMSYN070AAXX  09184 82678 32596 70905 10366 20182 39950 40104 84204 333 58010;EQDQ01  00002PRCP06
0208826780999992004101000004-06767-043017FM-12+013899999V0209999C000012200019N0002001N1+03081+01951101151ADDAA106000091GA1001+999999999GF100991001001999999001001KA1240M+03781MA1999999099601MD1999999-0071REMSYN082AAXX  10004 82678 32992 00000 10308 20195 39960 40115 333 10378 29048 55100 59007;EQDQ01  00002PRCP06
0186826780999992004101012004-06767-043017FM-12+013899999V0200501N001512200019N0040001N1+03101+01701101591ADDAA106000091GF102991021011008001001001KA1240N+02521MA1999999100041MD1999999+0021REMSYN076AAXX  10124 82678 32596 20503 10310 20170 30004 40159 82100 333 20252 58002;EQDQ01  00002PRCP06
0208826780999992004101100004-06767-043017FM-12+013899999V0200901N000512200019N0002001N1+03011+01531101161ADDAA106000091GA1001+999999999GF100991001001999999001001KA1240M+03881MA1999999099611MD1999999+0011REMSYN082AAXX  11004 82678 32992 00901 10301 20153 39961 40116 333 10388 29037 55107 58001;EQDQ01  00002PRCP06
0196826780999992004101112004-06770-043020FM-12+012799999V0200901N003612200019N0040001N1+03191+01731101411ADDAA106000091GA1001+999999999GF100991001001999999001001KA1240N+02241MA1999999099861MD1999999-0181REMSYN070AAXX  11124 82678 32996 00907 10319 20173 39986 40141 333 20224 59018;EQDQ01  00002PRCP06
0167826780999992004101118004-06770-043020FM-12+012799999V0201401N001512200019N0040001N1+03901+01341100761ADDAA106000091GF106991041021008001001011MA1999999099221MD1999999-0191REMSYN070AAXX  11184 82678 32596 61403 10390 20134 39922 40076 84201 333 59019;EQDQ01  00002PRCP06
0196826780999992004101212004-06767-043017FM-12+013899999V0200501N001512200019N0040001N1+03221+01691101321ADDAA106000091GA1001+999999999GF100991001001999999001001KA1240N+02241MA1999999099781MD1999999-0081REMSYN070AAXX  12124 82678 32996 00503 10322 20169 39978 40132 333 20224 59008;EQDQ01  00002PRCP06
0167826780999992004101218004-06767-043017FM-12+013899999V0201401N003612200019N0040001N1+03981+01331100711ADDAA106000091GF103991021021008001001011MA1999999099181MD1999999-0041REMSYN070AAXX  12184 82678 32596 31407 10398 20133 39918 40071 82201 333 59004;EQDQ01  00002PRCP06
0208826780999992004101300004-06767-043017FM-12+013899999V0209999C000012200019N0002001N1+03341+02051100951ADDAA106000091GA1001+999999999GF100991001001999999001001KA1240M+04011MA1999999099421MD1999999-0061REMSYN082AAXX  13004 82678 32792 00000 10334 20205 39942 40095 333 10401 29039 55109 59006;EQDQ01  00002PRCP06
0196826780999992004101312004-06767-043017FM-12+013899999V0200901N004112200019N0040001N1+03181+01491101381ADDAA106000091GA1001+999999999GF100991001001999999001001KA1240N+02741MA1999999099841MD1999999+0061REMSYN070AAXX  13124 82678 32796 00908 10318 20149 39984 40138 333 20274 58006;EQDQ01  00002PRCP06
0177826780999992004101318004-06767-043017FM-12+013899999V0201401N001512200019N0040001N1+03861+01091100801ADDAA106000091GA1001+999999999GF100991001001999999001001MA1999999099261MD1999999+0081REMSYN064AAXX  13184 82678 32796 01403 10386 20109 39926 40080 333 58008;EQDQ01  00002PRCP06
0208826780999992004101400004-06767-043017FM-12+013899999V0201401N001512200019N0002001N1+03281+01021100981ADDAA106000091GA1001+999999999GF100991001001999999001001KA1240M+03921MA1999999099451MD1999999+0031REMSYN082AAXX  14004 82678 32792 01403 10328 20102 39945 40098 333 10392 29026 55112 58003;EQDQ01  00002PRCP06
0186826780999992004101412004-06767-043017FM-12+013899999V0200901N003112200019N0040001N1+03081+01521101361ADDAA106000091GF104991001001999999001021KA1240N+02421MA1999999099821MD1999999-0021REMSYN076AAXX  14124 82678 32996 40906 10308 20152 39982 40136 80002 333 20242 59002;EQDQ01  00002PRCP06
0167826780999992004101418004-06767-043017FM-12+013899999V0200901N001011050019N0040001N1+03801+01451100861ADDAA106000091GF105991011011008001001021MA1999999099321MD1999999+0061REMSYN070AAXX  14184 82678 32596 50902 10380 20145 39932 40086 81102 333 58006;EQDQ01  00002PRCP06
0208826780999992004101500004-06767-043017FM-12+013899999V0209999C000012200019N0002001N1+03061+01581100971ADDAA106000091GA1001+999999999GF100991001001999999001001KA1240M+03901MA1999999099421MD1999999-0031REMSYN082AAXX  15004 82678 32992 00000 10306 20158 39942 40097 333 10390 29036 55103 59003;EQDQ01  00002PRCP06
0186826780999992004101512004-06767-043017FM-12+013899999V0203601N000512200019N0040001N1+03081+01981101421ADDAA106000091GF102991011011008001001011KA1240N+02481MA1999999099861MD1999999+0041REMSYN076AAXX  15124 82678 32596 23601 10308 20198 39986 40142 81101 333 20248 58004;EQDQ01  00002PRCP06
0208826780999992004101600004-06767-043017FM-12+013899999V0209999C000012200019N0002001N1+03061+01581100971ADDAA106000091GA1001+999999999GF100991001001999999001001KA1240M+03901MA1999999099421MD1999999+0001REMSYN082AAXX  16004 82678 32992 00000 10306 20158 39942 40097 333 10390 29040 55106 58000;EQDQ01  00002PRCP06
0186826780999992004101612004-06770-043020FM-12+012799999V0200901N003612200019N0040001N1+03261+01841101401ADDAA106000091GF104991031021008001001011KA1240N+02601MA1999999099851MD1999999-0011REMSYN076AAXX  16124 82678 32596 40907 10326 20184 39985 40140 83201 333 20260 59001;EQDQ01  00002PRCP06
0167826780999992004101618004-06770-043020FM-12+012799999V0201401N001510075019N0040001N1+03771+01541100761ADDAA106000091GF105991051021008001001001MA1999999099241MD1999999-0161REMSYN070AAXX  16184 82678 32596 51403 10377 20154 39924 40076 85200 333 59016;EQDQ01  00002PRCP06
0208826780999992004101700004-06770-043020FM-12+012799999V0201401N000512200019N0002001N1+03011+01491100961ADDAA106000091GA1001+999999999GF100991001001999999001001KA1240M+03871MA1999999099421MD1999999+0001REMSYN082AAXX  17004 82678 32992 01401 10301 20149 39942 40096 333 10387 29038 55103 58000;EQDQ01  00002PRCP06
0186826780999992004101712004-06770-043020FM-12+012799999V0200901N003112200019N0040001N1+03261+01511101341ADDAA106000091GF108991021011008001001011KA1240N+02781MA1999999099791MD1999999-0061REMSYN076AAXX  17124 82678 32596 80906 10326 20151 39979 40134 82101 333 20278 59006;EQDQ01  00002PRCP06
0167826780999992004101718004-06770-043020FM-12+012799999V0200901N002612200019N0040001N1+03821+01411100721ADDAA106000091GF106991031021008001001011MA1999999099201MD1999999-0041REMSYN070AAXX  17184 82678 32596 60905 10382 20141 39920 40072 83201 333 59004;EQDQ01  00002PRCP06
0198826780999992004101800004-06767-043017FM-12+013899999V0209999C000010075019N0002001N1+03221+01481100861ADDAA106000091GF106991061041008001001001KA1240M+03861MA1999999099331MD1999999-0091REMSYN088AAXX  18004 82678 32592 60000 10322 20148 39933 40086 86400 333 10386 29032 55104 59009;EQDQ01  00002PRCP06
0186826780999992004101812004-06767-043017FM-12+013899999V0202701N001012200019N0040001N1+03161+02051101361ADDAA106000091GF104991021021008001001011KA1240N+02741MA1999999099821MD1999999+0031REMSYN076AAXX  18124 82678 32596 42702 10316 20205 39982 40136 82201 333 20274 58003;EQDQ01  00002PRCP06
0167826780999992004101818004-06767-043017FM-12+013899999V0201401N001511050019N0040001N1+03761+01811100901ADDAA106000091GF105991031021008001001021MA1999999099371MD1999999+0171REMSYN070AAXX  18184 82678 32596 51403 10376 20181 39937 40090 83202 333 58017;EQDQ01  00002PRCP06
0208826780999992004101900004-06767-043017FM-12+013899999V0209999C000012200019N0002001N1+03021+01921101061ADDAA106000091GA1001+999999999GF100991001001999999001001KA1240M+03811MA1999999099511MD1999999+0181REMSYN082AAXX  19004 82678 32992 00000 10302 20192 39951 40106 333 10381 29048 55083 58018;EQDQ01  00002PRCP06
0196826780999992004101912004-06767-043017FM-12+013899999V0209999C000012200019N0040001N1+03221+01881101351ADDAA106000091GA1001+999999999GF100991001001999999001001KA1240N+02541MA1999999099801MD1999999-0021REMSYN070AAXX  19124 82678 32796 00000 10322 20188 39980 40135 333 20254 59002;EQDQ01  00002PRCP06
0167826780999992004101918004-06767-043017FM-12+013899999V0209999C000012200019N0040001N1+03881+01521100901ADDAA106000091GF104991031021008001001011MA1999999099391MD1999999+0021REMSYN070AAXX  19184 82678 32596 40000 10388 20152 39939 40090 83201 333 58002;EQDQ01  00002PRCP06
0198826780999992004102000004-06767-043017FM-12+013899999V0209999C000012200019N0002001N1+03361+01811101181ADDAA106000091GF104991031051008001031999KA1240M+03941MA1999999099651MD1999999+0141REMSYN088AAXX  20004 82678 32592 40000 10336 20181 39965 40118 8353/ 333 10394 29038 55101 58014;EQDQ01  00002PRCP06
0190826780999992004102012004-06767-043017FM-12+013899999V0203601N001010075019N0040001N1+02981+01591101451ADDAY161061AY221061GF108991061051008001001021KA1240N+02501MA1999999099901MD1999999+0101MW1031REMSYN088AAXX  20124 82678 21596 83602 10298 20159 39990 40145 70362 86502 333 20250 58010 60024;
0183826780999992004102018004-06767-043017FM-12+013899999V0200501N000519999999N0040001N1+03721+01771100901ADDAA106000091GF105991999021008001001001MA1999999099371MD1999999-0021REMSYN070AAXX  20184 82678 32596 50501 10372 20177 39937 40090 83200 333 59002;EQDQ01+000032SCOTLCQ02  00002PRCP06
0208826780999992004102100004-06767-043017FM-12+013899999V0209999C000012200019N0002001N1+03161+01961100981ADDAA106000091GA1001+999999999GF100991001001999999001001KA1240M+03821MA1999999099431MD1999999-0221REMSYN082AAXX  21004 82678 32992 00000 10316 20196 39943 40098 333 10382 29043 55103 59022;EQDQ01  00002PRCP06
0190826780999992004102112004-06767-043017FM-12+013899999V0203601N000510075019N0040001N1+02741+02121101501ADDAY161061AY221061GF108991061051008001001021KA1240N+02381MA1999999099941MD1999999+0041MW1021REMSYN088AAXX  21124 82678 21596 83601 10274 20212 39994 40150 70262 86502 333 20238 58004 60064;
0167826780999992004102118004-06767-043017FM-12+013899999V0200501N001511050019N0040001N1+03501+02051101021ADDAA106000091GF107991041051008001001021MA1999999099461MD1999999+0091REMSYN070AAXX  21184 82678 32596 70503 10350 20205 39946 40102 84502 333 58009;EQDQ01  00002PRCP06
0198826780999992004102200004-06767-043017FM-12+013899999V0209999C000012200019N0002001N1+02981+01981101111ADDAA106000091GF103991001001999999001021KA1240M+03591MA1999999099551MD1999999+0121REMSYN088AAXX  22004 82678 32992 30000 10298 20198 39955 40111 80002 333 10359 29056 55060 58012;EQDQ01  00002PRCP06
0186826780999992004102212004-06767-043017FM-12+013899999V0200901N001010450019N0040001N1+02931+01921101471ADDAA106000091GF108991021081008001011021KA1240N+02381MA1999999099911MD1999999-0031REMSYN076AAXX  22124 82678 32596 80902 10293 20192 39991 40147 82812 333 20238 59003;EQDQ01  00002PRCP06
0167826780999992004102218004-06767-043017FM-12+013899999V0200501N001010450019N0040001N1+03641+01501100901ADDAA106000091GF107991041021008001021011MA1999999099351MD1999999-0111REMSYN070AAXX  22184 82678 32596 70502 10364 20150 39935 40090 84221 333 59011;EQDQ01  00002PRCP06
0198826780999992004102300004-06767-043017FM-12+013899999V0209999C000012200019N0002001N1+02901+01621101101ADDAA106000091GF103991001001999999001021KA1240M+03781MA1999999099541MD1999999-0011REMSYN088AAXX  23004 82678 32992 30000 10290 20162 39954 40110 80002 333 10378 29044 55051 59001;EQDQ01  00002PRCP06
0186826780999992004102312004-06767-043017FM-12+013899999V0201401N003612200019N0040001N1+03161+01631101361ADDAA106000091GF103991011011008001001011KA1240N+02741MA1999999099811MD1999999-0101REMSYN076AAXX  23124 82678 32596 31407 10316 20163 39981 40136 81101 333 20274 59010;EQDQ01  00002PRCP06
0167826780999992004102318004-06767-043017FM-12+013899999V0201401N002112200019N0040001N1+03781+01371100721ADDAA106000091GF104991041021008001001001MA1999999099201MD1999999-0151REMSYN070AAXX  23184 82678 32596 41404 10378 20137 39920 40072 84200 333 59015;EQDQ01  00002PRCP06
0198826780999992004102400004-06767-043017FM-12+013899999V0209999C000010150019N0002001N1+02941+01691100971ADDAA106000091GF106991061021017501001001KA1240M+03841MA1999999099421MD1999999-0121REMSYN088AAXX  24004 82678 32792 60000 10294 20169 39942 40097 86200 333 10384 29040 55110 59012;EQDQ01  00002PRCP06
0196826780999992004102412004-06767-043017FM-12+013899999V0201401N001012200019N0040001N1+03101+01901101561ADDAA106000091GA1001+999999999GF100991001001999999001001KA1240N+02341MA1999999099791MD1999999-0021REMSYN070AAXX  24124 82678 32796 01402 10310 20190 39979 40156 333 20234 59002;EQDQ01  00002PRCP06
0183826780999992004102418004-06767-043017FM-12+013899999V0203601N001012200019N0040001N1+03721+01721100722ADDAA106000091GF104991031021008001001011MA1999999099181MD1999999-0021REMSYN070AAXX  24184 82678 32596 43602 10372 20172 39918 40072 83201 333 59002;EQDQ01+100723APOSLPQ02  00002PRCP06
0208826780999992004102500004-06767-043017FM-12+013899999V0209999C000012200019N0002001N1+03121+01891100921ADDAA106000091GA1001+999999999GF100991001001999999001001KA1240M+03821MA1999999099381MD1999999-0041REMSYN082AAXX  25004 82678 32792 00000 10312 20189 39938 40092 333 10382 29044 55104 59004;EQDQ01  00002PRCP06
0186826780999992004102512004-06767-043017FM-12+013899999V0203601N001511050019N0040001N1+02961+02211101381ADDAA106000091GF105991031051008001001031KA1240N+02381MA1999999099831MD1999999+0041REMSYN076AAXX  25124 82678 32596 53603 10296 20221 39983 40138 83503 333 20238 58004;EQDQ01  00002PRCP06
0167826780999992004102518004-06767-043017FM-12+013899999V0203601N002112200019N0040001N1+03621+01961100721ADDAA106000091GF104991021021008001001011MA1999999099181MD1999999+0001REMSYN070AAXX  25184 82678 32596 43604 10362 20196 39918 40072 82201 333 58000;EQDQ01  00002PRCP06
0198826780999992004102600004-06767-043017FM-12+013899999V0209999C000011050019N0002001N1+03181+02071100841ADDAA106000091GF105991031021008001001021KA1240M+03741MA1999999099291MD1999999-0091REMSYN088AAXX  26004 82678 32592 50000 10318 20207 39929 40084 83202 333 10374 29052 55092 59009;EQDQ01  00002PRCP06
0190826780999992004102612004-06767-043017FM-12+013899999V0202701N000510075019N0040001N1+02781+02301101341ADDAY161061AY221061GF108991071051008001021999KA1240N+02401MA1999999099781MD1999999-0051MW1031REMSYN088AAXX  26124 82678 21596 82701 10278 20230 39978 40134 70362 8752/ 333 20240 59005 60014;
0167826780999992004102618004-06767-043017FM-12+013899999V0202701N002610075019N0040001N1+02761+02281101241ADDAA106000091GF108991061051008001071999MA1999999099671MD1999999+0491REMSYN070AAXX  26184 82678 32596 82705 10276 20228 39967 40124 8657/ 333 58049;EQDQ01  00002PRCP06
0198826780999992004102700004-06767-043017FM-12+013899999V0202701N001510075019N0100001N1+02461+02251101371ADDAA106000091GF107991061051008001001021KA1240M+03071MA1999999099791MD1999999+0501REMSYN088AAXX  27004 82678 32597 72703 10246 20225 39979 40137 86502 333 10307 29082 55002 58050;EQDQ01  00002PRCP06
0186826780999992004102712004-06767-043017FM-12+013899999V0202301N000510075019N0040001N1+02701+02111101651ADDAA106000091GF108991081051008001999999KA1240N+02241MA1999999100061MD1999999+0281REMSYN076AAXX  27124 82678 32596 82301 10270 20211 30006 40165 885// 333 20224 58028;EQDQ01  00002PRCP06
0198826780999992004102800004-06767-043017FM-12+013899999V0202301N000510450019N0002001N1+02431+02251101441ADDAA106000091GF106991021051008001031011KA1240M+03351MA1999999099851MD1999999+0061REMSYN088AAXX  28004 82678 32592 62301 10243 20225 39985 40144 82531 333 10335 29082 55027 58006;EQDQ01  00002PRCP06
0162826780999992004102812004-06767-043017FM-12+013899999V0203601N001010075019N0040001N1+02691+02241101601ADDGF108991061051008001011999KA1240N+02281MA1999999100011MD1999999-0051REMSYN082AAXX  28124 82678 22596 83602 10269 20224 30001 40160 8651/ 333 20228 59005 60144;
0167826780999992004102818004-06767-043017FM-12+013899999V0203201N001510450019N0040001N1+03541+01931101011ADDAA106000091GF105991041021008001011001MA1999999099541MD1999999-0241REMSYN070AAXX  28184 82678 32596 53203 10354 20193 39954 40101 84210 333 59024;EQDQ01  00002PRCP06
0208826780999992004102900004-06767-043017FM-12+013899999V0209999C000012200019N0002001N1+02941+02211101091ADDAA106000091GA1001+999999999GF100991001001999999001001KA1240M+03601MA1999999099521MD1999999-0331REMSYN082AAXX  29004 82678 32992 00000 10294 20221 39952 40109 333 10360 29062 55074 59033;EQDQ01  00002PRCP06
0202826780999992004102912004-06767-043017FM-12+013899999V0200901N003112200019N0040001N1+03161+01891101391ADDAA106000091GF102991999001017501041001KA1240N+02321MA1999999099841MD1999999-0171REMSYN076AAXX  29124 82678 32796 20906 10316 20189 39984 40139 81040 333 20232 59017;EQDQ01+000012SCOTLCQ02  00002PRCP06
0167826780999992004102918004-06767-043017FM-12+013899999V0200901N003110075019N0040001N1+03841+01551100791ADDAA106000091GF106991051021008001001011MA1999999099251MD1999999-0201REMSYN070AAXX  29184 82678 32596 60906 10384 20155 39925 40079 85201 333 59020;EQDQ01  00002PRCP06
0198826780999992004103000004-06767-043017FM-12+013899999V0201801N000510075019N0002001N1+02781+02211101051ADDAA106000091GF108991081041008001999999KA1240M+03881MA1999999099201MD1999999-0021REMSYN088AAXX  30004 82678 32592 81801 10278 20221 39920 40105 884// 333 10388 29054 55109 59002;EQDQ01  00002PRCP06
0167826780999992004103018004-06767-043017FM-12+013899999V0201401N001512200019N0040001N1+03661+01821101041ADDAA106000091GF104991021021008001001021MA1999999099501MD1999999+0251REMSYN070AAXX  30184 82678 32596 41403 10366 20182 39950 40104 82202 333 58025;EQDQ01  00002PRCP06
0198826780999992004103100004-06770-043020FM-12+012799999V0209999C000012200019N0040001N1+03021+01831101181ADDAA106000091GF103991021021008001001011KA1240M+03761MA1999999099621MD1999999+0121REMSYN088AAXX  31004 82678 32596 30000 10302 20183 39962 40118 82201 333 10376 29046 55078 58012;EQDQ01  00002PRCP06
0186826780999992004103112004-06770-043020FM-12+012799999V0200501N001512200019N0040001N1+03161+01961101491ADDAA106000091GF104991031021008001001021KA1240N+02621MA1999999099941MD1999999+0051REMSYN076AAXX  31124 82678 32596 40503 10316 20196 39994 40149 83202 333 20262 58005;EQDQ01  00002PRCP06
0167826780999992004103118004-06770-043020FM-12+012799999V0200501N001019999999N0040001N1+03741+01741100951ADDAA106000091GF105991021001008001001021MA1999999099421MD1999999-0081REMSYN070AAXX  31184 82678 32596 50502 10374 20174 39942 40095 82002 333 59008;EQDQ01  00002PRCP06
0198826780999992004110100004-06770-043020FM-12+012799999V0209999C000010075019N0002001N1+03181+01871101111ADDAA106000091GF108991081051008001999999KA1240M+03781MA1999999099571MD1999999-0051REMSYN088AAXX  01004 82678 32592 80000 10318 20187 39957 40111 885// 333 10378 29043 55093 59005;EQDQ01  00002PRCP06
0186826780999992004110112004-06770-043020FM-12+012799999V0200501N000512200019N0040001N1+03121+02051101501ADDAA106000091GF106991041021008001001011KA1240N+02641MA1999999099951MD1999999+0011REMSYN076AAXX  01124 82678 32596 60501 10312 20205 39995 40150 84201 333 20264 58001;EQDQ01  00002PRCP06
0167826780999992004110118004-06770-043020FM-12+012799999V0202701N001012200019N0040001N1+03681+01581100911ADDAA106000091GF106991041081008001001011MA1999999099381MD1999999-0041REMSYN070AAXX  01184 82678 32596 62702 10368 20158 39938 40091 84801 333 59004;EQDQ01  00002PRCP06
0208826780999992004110200004-06767-043017FM-12+013899999V0209999C000012200019N0002001N1+03081+01881100961ADDAA106000091GA1001+999999999GF100991001001999999001001KA1240M+03801MA1999999099421MD1999999-0151REMSYN082AAXX  02004 82678 32992 00000 10308 20188 39942 40096 333 10380 29045 55097 59015;EQDQ01  00002PRCP06
0186826780999992004110212004-06767-043017FM-12+013899999V0209999C000012200019N0040001N1+03101+02151101291ADDAA106000091GF105991031051008001001011KA1240N+02621MA1999999099741MD1999999-0211REMSYN076AAXX  02124 82678 32596 50000 10310 20215 39974 40129 83501 333 20262 59021;EQDQ01  00002PRCP06
0167826780999992004110218004-06767-043017FM-12+013899999V0201401N001010075019N0040001N1+03801+01571100751ADDAA106000091GF105991051021008001001001MA1999999099221MD1999999-0161REMSYN070AAXX  02184 82678 32596 51402 10380 20157 39922 40075 85200 333 59016;EQDQ01  00002PRCP06
0208826780999992004110300004-06767-043017FM-12+013899999V0201401N002612200019N0002001N1+03301+01461100851ADDAA106000091GA1001+999999999GF100991001001999999001001KA1240M+03861MA1999999099311MD1999999-0111REMSYN082AAXX  03004 82678 32992 01405 10330 20146 39931 40085 333 10386 29038 55102 59011;EQDQ01  00002PRCP06
0186826780999992004110312004-06767-043017FM-12+013899999V0200901N003110075019N0040001N1+03191+01531101341ADDAA106000091GF105991051021008001001001KA1240N+02761MA1999999099801MD1999999+0061REMSYN076AAXX  03124 82678 32596 50906 10319 20153 39980 40134 85200 333 20276 58006;EQDQ01  00002PRCP06
0167826780999992004110318004-06767-043017FM-12+013899999V0200901N002110450019N0040001N1+03701+01431100821ADDAA106000091GF105991041021008001031001MA1999999099281MD1999999+0061REMSYN070AAXX  03184 82678 32596 50904 10370 20143 39928 40082 84230 333 58006;EQDQ01  00002PRCP06
0208826780999992004110400004-06767-043017FM-12+013899999V0201401N001512200019N0002001N1+03201+01281100951ADDAA106000091GA1001+999999999GF100991001001999999001001KA1240M+03761MA1999999099411MD1999999+0101REMSYN082AAXX  04004 82678 32992 01403 10320 20128 39941 40095 333 10376 29031 55111 58010;EQDQ01  00002PRCP06
0196826780999992004110412004-06767-043017FM-12+013899999V0200901N004112200019N0040001N1+03201+01591101291ADDAA106000091GA1001+999999999GF100991001001999999001001KA1240N+02551MA1999999099751MD1999999-0051REMSYN070AAXX  04124 82678 32996 00908 10320 20159 39975 40129 333 20255 59005;EQDQ01  00002PRCP06
0167826780999992004110418004-06767-043017FM-12+013899999V0200901N002610075019N0040001N1+03821+01471100751ADDAA106000091GF105991051021008001001001MA1999999099221MD1999999-0061REMSYN070AAXX  04184 82678 32596 50905 10382 20147 39922 40075 85200 333 59006;EQDQ01  00002PRCP06
0198826780999992004110500004-06767-043017FM-12+013899999V0209999C000012200019N0002001N1+03161+01711100921ADDAA106000091GF102991021011008001001001KA1240M+03881MA1999999099381MD1999999-0031REMSYN088AAXX  05004 82678 32592 20000 10316 20171 39938 40092 82100 333 10388 29037 55107 59003;EQDQ01  00002PRCP06
0196826780999992004110512004-06767-043017FM-12+013899999V0200901N002612200019N0040001N1+03221+01771101371ADDAA106000091GA1001+999999999GF100991001001999999001001KA1240N+02481MA1999999099831MD1999999+0081REMSYN070AAXX  05124 82678 32796 00905 10322 20177 39983 40137 333 20248 58008;EQDQ01  00002PRCP06
0167826780999992004110518004-06767-043017FM-12+013899999V0200901N002612200019N0040001N1+03841+01671100821ADDAA106000091GF104991021021008001001021MA1999999099281MD1999999+0061REMSYN070AAXX  05184 82678 32596 40905 10384 20167 39928 40082 82202 333 58006;EQDQ01  00002PRCP06
0208826780999992004110600004-06767-043017FM-12+013899999V0209999C000012200019N0002001N1+03121+01521101071ADDAA106000091GA1001+999999999GF100991001001999999001001KA1240M+03921MA1999999099531MD1999999+0151REMSYN082AAXX  06004 82678 32792 00000 10312 20152 39953 40107 333 10392 29036 55108 58015;EQDQ01  00002PRCP06
0196826780999992004110612004-06767-043017FM-12+013899999V0200901N002612200019N0040001N1+03261+01601101281ADDAA106000091GA1001+999999999GF100991001001999999001001KA1240N+02341MA1999999099741MD1999999-0091REMSYN070AAXX  06124 82678 32796 00905 10326 20160 39974 40128 333 20234 59009;EQDQ01  00002PRCP06
0167826780999992004110618004-06767-043017FM-12+013899999V0209999C000011050019N0040001N1+03861+01621100961ADDAA106000091GF105991031021008001001021MA1999999099171MD1999999-0111REMSYN070AAXX  06184 82678 32596 50000 10386 20162 39917 40096 83202 333 59011;EQDQ01  00002PRCP06
0208826780999992004110700004-06767-043017FM-12+013899999V0201401N001512200019N0002001N1+03421+01201100841ADDAA106000091GA1001+999999999GF100991001001999999001001KA1240M+03921MA1999999099311MD1999999-0221REMSYN082AAXX  07004 82678 32992 01403 10342 20120 39931 40084 333 10392 29029 55110 59022;EQDQ01  00002PRCP06
0186826780999992004110712004-06767-043017FM-12+013899999V0201801N000512200019N0040001N1+03061+02051101301ADDAA106000091GF101991011011008001001001KA1240N+02421MA1999999099761MD1999999+0021REMSYN076AAXX  07124 82678 32596 11801 10306 20205 39976 40130 81100 333 20242 58002;EQDQ01  00002PRCP06
0167826780999992004110718004-06767-043017FM-12+013899999V0202701N000510075019N0040001N1+03921+01551100741ADDAA106000091GF105991051021008001001001MA1999999099211MD1999999+0041REMSYN070AAXX  07184 82678 32596 52701 10392 20155 39921 40074 85200 333 58004;EQDQ01  00002PRCP06
0198826780999992004110800004-06770-043020FM-12+012799999V0202301N000512200019N0002001N1+03261+01721100911ADDAA106000091GF103991031001017501031001KA1240M+04001MA1999999099371MD1999999+0061REMSYN088AAXX  08004 82678 32792 32301 10326 20172 39937 40091 83030 333 10400 29040 55104 58006;EQDQ01  00002PRCP06
0186826780999992004110812004-06770-043020FM-12+012799999V0203201N001010450019N0040001N1+03121+02141101271ADDAA106000091GF105991031051008001031001KA1240N+02741MA1999999099731MD1999999-0031REMSYN076AAXX  08124 82678 32596 53202 10312 20214 39973 40127 83530 333 20274 59003;EQDQ01  00002PRCP06
0167826780999992004110818004-06770-043020FM-12+012799999V0200901N003110450019N0040001N1+03801+01631100671ADDAA106000091GF106991031031008001031011MA1999999099141MD1999999-0071REMSYN070AAXX  08184 82678 32596 60906 10380 20163 39914 40067 83331 333 59007;EQDQ01  00002PRCP06
0198826780999992004110900004-06767-043017FM-12+013899999V0203201N001010075019N0002001N1+02661+02071101101ADDAA106000091GF108991081051008001999999KA1240M+03901MA1999999099541MD1999999+0171REMSYN088AAXX  09004 82678 32592 83202 10266 20207 39954 40110 885// 333 10390 29056 55080 58017;EQDQ01  00002PRCP06
0186826780999992004110912004-06767-043017FM-12+013899999V0203201N001510075019N0040001N1+02991+01861101441ADDAA106000091GF108991051021008001001021KA1240N+02421MA1999999099871MD1999999+0141REMSYN076AAXX  09124 82678 32596 83203 10299 20186 39987 40144 85202 333 20242 58014;EQDQ01  00002PRCP06
0167826780999992004110918004-06767-043017FM-12+013899999V0201401N003112200019N0040001N1+03681+01231100851ADDAA106000091GF106991041021008001001011MA1999999099311MD1999999+0171REMSYN070AAXX  09184 82678 32596 61406 10368 20123 39931 40085 84201 333 58017;EQDQ01  00002PRCP06
0208826780999992004111000004-06767-043017FM-12+013899999V0209999C000012200019N0002001N1+02901+01441101001ADDAA106000091GA1001+999999999GF100991001001999999001001KA1240M+03821MA1999999099451MD1999999-0091REMSYN082AAXX  10004 82678 32992 00000 10290 20144 39945 40100 333 10382 29039 55102 59009;EQDQ01  00002PRCP06
0186826780999992004111012004-06767-043017FM-12+013899999V0201401N004119999999N0040001N1+03141+01361101361ADDAA106000091GF105991001001999999001011KA1240N+02501MA1999999099801MD1999999-0071REMSYN076AAXX  10124 82678 32996 51408 10314 20136 39980 40136 80001 333 20250 59007;EQDQ01  00002PRCP06
0167826780999992004111018004-06767-043017FM-12+013899999V0200901N001512200019N0040001N1+03781+01241100811ADDAA106000091GF104991031011008001001011MA1999999099281MD1999999-0031REMSYN070AAXX  10184 82678 32596 40903 10378 20124 39928 40081 83101 333 59003;EQDQ01  00002PRCP06
0198826780999992004111100004-06767-043017FM-12+013899999V0209999C000012200019N0002001N1+03031+01471100991ADDAA106000091GF102991001001999999001021KA1240M+03821MA1999999099451MD1999999+0001REMSYN088AAXX  11004 82678 32992 20000 10303 20147 39945 40099 80002 333 10382 29034 55112 58000;EQDQ01  00002PRCP06
0186826780999992004111112004-06767-043017FM-12+013899999V0201401N001010075019N0040001N1+03001+02111101301ADDAA106000091GF108991051051008001001011KA1240N+02621MA1999999099741MD1999999-0061REMSYN076AAXX  11124 82678 32596 81402 10300 20211 39974 40130 85501 333 20262 59006;EQDQ01  00002PRCP06
0167826780999992004111118004-06767-043017FM-12+013899999V0201401N001511050019N0040001N1+03781+01871100741ADDAA106000091GF105991031021008001001021MA1999999099211MD1999999-0071REMSYN070AAXX  11184 82678 32596 51403 10378 20187 39921 40074 83202 333 59007;EQDQ01  00002PRCP06
0208826780999992004111200004-06767-043017FM-12+013899999V0209999C000012200019N0002001N1+03161+01511100821ADDAA106000091GA1001+999999999GF100991001001999999001001KA1240M+03821MA1999999099281MD1999999-0171REMSYN082AAXX  12004 82678 32992 00000 10316 20151 39928 40082 333 10382 29041 55078 59017;EQDQ01  00002PRCP06
0196826780999992004111212004-06767-043017FM-12+013899999V0203601N001512200019N0040001N1+03101+02151101211ADDAA106000091GA1001+999999999GF100991001001999999001001KA1240N+02541MA1999999099661MD1999999-0081REMSYN070AAXX  12124 82678 32796 03603 10310 20215 39966 40121 333 20254 59008;EQDQ01  00002PRCP06
0167826780999992004111218004-06770-043020FM-12+012799999V0200901N001512200019N0040001N1+03801+01631100581ADDAA106000091GF104991031021008001001021MA1999999099051MD1999999-0161REMSYN070AAXX  12184 82678 32596 40903 10380 20163 39905 40058 83202 333 59016;EQDQ01  00002PRCP06
0208826780999992004111300004-06770-043020FM-12+012799999V0209999C000012200019N0002001N1+03261+01471100821ADDAA106000091GA1001+999999999GF100991001001999999001001KA1240M+04021MA1999999099281MD1999999+0001REMSYN082AAXX  13004 82678 32792 00000 10326 20147 39928 40082 333 10402 29038 55105 58000;EQDQ01  00002PRCP06
0196826780999992004111312004-06770-043020FM-12+012799999V0203201N000512200019N0040001N1+03101+01901101101ADDAA106000091GA1001+999999999GF100991001001999999001001KA1240N+02461MA1999999099561MD1999999-0101REMSYN070AAXX  13124 82678 32996 03201 10310 20190 39956 40110 333 20246 59010;EQDQ01  00002PRCP06
0167826780999992004111318004-06770-043020FM-12+012799999V0200901N002612200019N0040001N1+03901+01661100561ADDAA106000091GF104991041021008001001001MA1999999099031MD1999999-0021REMSYN070AAXX  13184 82678 32596 40905 10390 20166 39903 40056 84200 333 59002;EQDQ01  00002PRCP06
0202826780999992004111400004-06767-043017FM-12+013899999V0209999C000012200019N0002001N1+03201+02031100771ADDAY161061AY201061GF104991041051008001001001KA1240M+04061MA1999999099231MD1999999-0051MW1021REMSYN100AAXX  14004 82678 21592 40000 10320 20203 39923 40077 70260 84500 333 10406 29044 55107 59005 69931;
0162826780999992004111412004-06767-043017FM-12+013899999V0200901N000511050019N0040001N1+03241+02061101121ADDGF105991021011008001001021KA1240N+02681MA1999999099581MD1999999+0021REMSYN082AAXX  14124 82678 22596 50901 10324 20206 39958 40112 82102 333 20268 58002 69934;
0198826780999992004111500004-06767-043017FM-12+013899999V0209999C000010075019N0002001N1+03481+01301100691ADDAA106000091GF106991061051008001001001KA1240M+04141MA1999999099171MD1999999-0061REMSYN088AAXX  15004 82678 32592 60000 10348 20130 39917 40069 86500 333 10414 29033 55108 59006;EQDQ01  00002PRCP06
0186826780999992004111512004-06767-043017FM-12+013899999V0200501N001510450019N0040001N1+03161+02021101331ADDAA106000091GF108991041051008001011011KA1240N+02761MA1999999099791MD1999999+0211REMSYN076AAXX  15124 82678 32596 80503 10316 20202 39979 40133 84511 333 20276 58021;EQDQ01  00002PRCP06
0167826780999992004111518004-06767-043017FM-12+013899999V0200901N001510450019N0040001N1+03661+01671100801ADDAA106000091GF108991041021008001011011MA1999999099271MD1999999+0201REMSYN070AAXX  15184 82678 32596 80903 10366 20167 39927 40080 84211 333 58020;EQDQ01  00002PRCP06
0198826780999992004111600004-06767-043017FM-12+013899999V0209999C000012200019N0002001N1+02921+01421101011ADDAA106000091GF102991001001999999001011KA1240M+03761MA1999999099461MD1999999+0291REMSYN088AAXX  16004 82678 32992 20000 10292 20142 39946 40101 80001 333 10376 29040 55072 58029;EQDQ01  00002PRCP06
0186826780999992004111612004-06767-043017FM-12+013899999V0200501N001512200019N0040001N1+03101+02061101471ADDAA106000091GF104991031021008001001011KA1240N+02421MA1999999099911MD1999999+0121REMSYN076AAXX  16124 82678 32596 40503 10310 20206 39991 40147 83201 333 20242 58012;EQDQ01  00002PRCP06
0208826780999992004111700004-06767-043017FM-12+013899999V0209999C000012200019N0002001N1+03061+01301101031ADDAA106000091GA1001+999999999GF100991001001999999001001KA1240M+03881MA1999999099481MD1999999+0021REMSYN082AAXX  17004 82678 32992 00000 10306 20130 39948 40103 333 10388 29037 55109 58002;EQDQ01  00002PRCP06
0196826780999992004111712004-06767-043017FM-12+013899999V0203601N001512200019N0040001N1+02981+01951101511ADDAA106000091GA1001+999999999GF100991001001999999001001KA1240N+02341MA1999999099951MD1999999+0041REMSYN070AAXX  17124 82678 32796 03603 10298 20195 39995 40151 333 20234 58004;EQDQ01  00002PRCP06
0167826780999992004111718004-06767-043017FM-12+013899999V0203601N002112200019N0040001N1+03501+01521100981ADDAA106000091GF103991021021008001001011MA1999999099441MD1999999+0031REMSYN070AAXX  17184 82678 32596 33604 10350 20152 39944 40098 82201 333 58003;EQDQ01  00002PRCP06
0208826780999992004111800004-06767-043017FM-12+013899999V0209999C000012200019N0002001N1+03121+01601101131ADDAA106000091GA1001+999999999GF100991001001999999001001KA1240M+03941MA1999999099581MD1999999+0101REMSYN082AAXX  18004 82678 32992 00000 10312 20160 39958 40113 333 10394 29040 55112 58010;EQDQ01  00002PRCP06
0196826780999992004111812004-06767-043017FM-12+013899999V0200501N001512200019N0040001N1+03101+02031101371ADDAA106000091GA1001+999999999GF100991001001999999001001KA1240N+02541MA1999999099821MD1999999-0131REMSYN070AAXX  18124 82678 32996 00503 10310 20203 39982 40137 333 20254 59013;EQDQ01  00002PRCP06
0167826780999992004111818004-06767-043017FM-12+013899999V0200501N001512200019N0040001N1+03981+01891100701ADDAA106000091GF104991021021008001001011MA1999999099181MD1999999-0261REMSYN070AAXX  18184 82678 32596 40503 10398 20189 39918 40070 82201 333 59026;EQDQ01  00002PRCP06
0208826780999992004111900004-06767-043017FM-12+013899999V0209999C000012200019N0002001N1+03301+01721100931ADDAA106000091GA1001+999999999GF100991001001999999001001KA1240M+04041MA1999999099391MD1999999-0191REMSYN082AAXX  19004 82678 32992 00000 10330 20172 39939 40093 333 10404 29040 55108 59019;EQDQ01  00002PRCP06
0186826780999992004111912004-06767-043017FM-12+013899999V0203601N000512200019N0040001N1+03081+02041101341ADDAA106000091GF105991031001017501031011KA1240N+02701MA1999999099801MD1999999-0021REMSYN076AAXX  19124 82678 32796 53601 10308 20204 39980 40134 83031 333 20270 59002;EQDQ01  00002PRCP06
0167826780999992004111918004-06767-043017FM-12+013899999V0203601N001012200019N0040001N1+03841+01831100831ADDAA106000091GF105991041021008001001011MA1999999099311MD1999999+0131REMSYN070AAXX  19184 82678 32596 53602 10384 20183 39931 40083 84201 333 58013;EQDQ01  00002PRCP06
0202826780999992004112100004-06770-043020FM-12+012799999V0209999C000010075019N0002001N1+02441+02131101221ADDAY161061AY291061GF108991061051008001021999KA1240M+03631MA1999999099641MD1999999+0111MW1921REMSYN100AAXX  21004 82678 21592 80000 10244 20213 39964 40122 79269 8652/ 333 10363 29067 55031 58011 60091;
0190826780999992004112112004-06770-043020FM-12+012799999V0202301N001510075019N0040001N1+02451+02341101611ADDAY161061AY261061GF108991061071008001021999KA1240N+02441MA1999999100011MD1999999+0231MW1601REMSYN088AAXX  21124 82678 21596 82303 10245 20234 30001 40161 76066 8672/ 333 20244 58023 60164;
0148826780999992004112118004-06770-043020FM-12+012799999V0201801N001510075019N0040001N1+02841+02291101331ADDAA106000021GF108991051051008001021999MA1999999099751MD1999999+0381REMSYN070AAXX  21184 82678 32596 81803 10284 20229 39975 40133 8552/ 333 58038;
0198826780999992004112200004-06767-043017FM-12+013899999V0201401N000510450019N0002001N1+02581+02371101491ADDAA106000091GF108991041051008001011999KA1240M+02881MA1999999099901MD1999999+0261REMSYN088AAXX  22004 82678 32592 81401 10258 20237 39990 40149 8451/ 333 10288 29086 55000 58026;EQDQ01  00002PRCP06
0190826780999992004112212004-06767-043017FM-12+013899999V0200901N000510120019N0040001N1+02731+02221101571ADDAY161061AY221061GF108991051081008001021011KA1240N+02371MA1999999099991MD1999999-0021MW1021REMSYN088AAXX  22124 82678 21596 80901 10273 20222 39999 40157 70262 85821 333 20237 59002 60014;
0167826780999992004112218004-06767-043017FM-12+013899999V0202301N001010450019N0040001N1+03361+02041100941ADDAA106000091GF108991041031008001031011MA1999999099381MD1999999-0371REMSYN070AAXX  22184 82678 32596 82302 10336 20204 39938 40094 84331 333 59037;EQDQ01  00002PRCP06
0198826780999992004112300004-06767-043017FM-12+013899999V0202301N000510450019N0002001N1+02901+02251101221ADDAA106000091GF105991041051008001031001KA1240M+03541MA1999999099651MD1999999-0251REMSYN088AAXX  23004 82678 32592 52301 10290 20225 39965 40122 84530 333 10354 29064 55058 59025;EQDQ01  00002PRCP06
0207826780999992004112312004-06767-043017FM-12+013899999V0209999C000010075019N0040001N1+02341+02241101621ADDAA199025091AY161061AY211061GF108991081051008001999999KA1240N+02221MA1999999100031MD1999999+0031MW1611REMSYN094AAXX  23124 82678 21596 80000 10234 20224 30003 40162 76161 885// 333 20222 58003 60250 10246;
0148826780999992004112318004-06767-043017FM-12+013899999V0202701N001510450019N0040001N1+03241+02251101081ADDAA106000021GF108991041051008001031021MA1999999099521MD1999999+0141REMSYN070AAXX  23184 82678 32596 82703 10324 20225 39952 40108 84532 333 58014;
0198826780999992004112400004-06767-043017FM-12+013899999V0209999C000010075019N0002001N1+02621+02351101461ADDAA106000091GF108991081051008001999999KA1240M+03361MA1999999099871MD1999999+0221REMSYN088AAXX  24004 82678 32592 80000 10262 20235 39987 40146 885// 333 10336 29080 55046 58022;EQDQ01  00002PRCP06
0186826780999992004112412004-06767-043017FM-12+013899999V0200901N003111050019N0040001N1+02881+02281100931ADDAA106000091GF105991031021008001001021KA1240N+02341MA1999999099851MD1999999-0181REMSYN076AAXX  24124 82678 32596 50906 10288 20228 39985 40093 83202 333 20234 59018;EQDQ01  00002PRCP06
0167826780999992004112418004-06767-043017FM-12+013899999V0201401N001512200019N0040001N1+03481+02071100931ADDAA106000091GF105991021021008001001011MA1999999099381MD1999999-0141REMSYN070AAXX  24184 82678 32596 51403 10348 20207 39938 40093 82201 333 59014;EQDQ01  00002PRCP06
0208826780999992004112500004-06767-043017FM-12+013899999V0209999C000012200019N0002001N1+02761+02281101141ADDAA106000091GA1001+999999999GF100991001001999999001001KA1240M+03641MA1999999099571MD1999999-0301REMSYN082AAXX  25004 82678 32992 00000 10276 20228 39957 40114 333 10364 29066 55098 59030;EQDQ01  00002PRCP06
0186826780999992004112512004-06767-043017FM-12+013899999V0200901N003110075019N0040001N1+03021+02161101351ADDAA106000091GF107991071051008001001001KA1240N+02521MA1999999099791MD1999999-0061REMSYN076AAXX  25124 82678 32596 70906 10302 20216 39979 40135 87500 333 20252 59006;EQDQ01  00002PRCP06
0167826780999992004112518004-06767-043017FM-12+013899999V0203601N001012200019N0040001N1+03481+02041100861ADDAA106000091GF106991041051008001001011MA1999999099311MD1999999-0071REMSYN070AAXX  25184 82678 32596 63602 10348 20204 39931 40086 84501 333 59007;EQDQ01  00002PRCP06
0202826780999992004112600004-06767-043017FM-12+013899999V0200501N000510075019N0002001N1+02701+02301101081ADDAY161061AY291061GF108991061051008001021999KA1240M+03541MA1999999099521MD1999999-0051MW1511REMSYN100AAXX  26004 82678 21592 80501 10270 20230 39952 40108 75169 8652/ 333 10354 29065 55087 59005 69971;
0122826780999992004112612004-06767-043017FM-12+013899999V0200901N004119999999N0040001N1+02981+01981999999ADDGF108991999999008001999999REMSYN084AAXX  26124 82678 22596 80908 10298 20198 10007 20258 39973 40130 59006 69974 85531;
0171826780999992004112618004-06767-043017FM-12+013899999V0203601N001510450019N0040001N1+02681+02131101081ADDAY161061AY221061GF107991031051008001071011MA1999999099501MD1999999+0191MW1021REMSYN082AAXX  26184 82678 21596 73603 10268 20213 39950 40108 70262 83571 333 58019 60021;
0198826780999992004112700004-06767-043017FM-12+013899999V0209999C000010075019N0002001N1+02521+02131101221ADDAA106000091GF108991081051008001999999KA1240M+03211MA1999999099651MD1999999+0131REMSYN088AAXX  27004 82678 32592 80000 10252 20213 39965 40122 885// 333 10321 29071 55030 58013;EQDQ01  00002PRCP06
0162826780999992004112712004-06767-043017FM-12+013899999V0203201N000510075019N0040001N1+02511+02321101431ADDGF108991061051008001021999KA1240N+02331MA1999999099841MD1999999+0111REMSYN082AAXX  27124 82678 22596 83201 10251 20232 39984 40143 8652/ 333 20233 58011 60074;
0167826780999992004112718004-06767-043017FM-12+013899999V0201701N002610120019N0040001N1+03071+02301100981ADDAA106000091GF108991051081008001031011MA1999999099411MD1999999-0091REMSYN070AAXX  27184 82678 32596 81705 10307 20230 39941 40098 85831 333 59009;EQDQ01  00002PRCP06
0137826780999992004112800004-06767-043017FM-12+013899999V0202701N001019999999N0002001N1+02461+02361999999ADDGF108991999999008001999999REMSYN099AAXX  28004 82678 21592 82702 10246 20236 3996 40127 76169 83531 333 10315 29086 55027 58003 60021;
0162826780999992004112812004-06767-043017FM-12+013899999V0203201N001510120019N0040001N1+02641+02371101401ADDGF108991051081008001031011KA1240N+02401MA1999999099811MD1999999-0031REMSYN082AAXX  28124 82678 22596 83203 10264 20237 39981 40140 85831 333 20240 59003 60024;
0167826780999992004112818004-06767-043017FM-12+013899999V0203601N001010450019N0040001N1+03381+02121100851ADDAA106000091GF108991031081008001021011MA1999999099301MD1999999-0111REMSYN070AAXX  28184 82678 32596 83602 10338 20212 39930 40085 83821 333 59011;EQDQ01  00002PRCP06
0198826780999992004112900004-06767-043017FM-12+013899999V0202301N000512200019N0002001N1+02801+02361101021ADDAA106000091GF101991011001017501031001KA1240M+03521MA1999999099451MD1999999-0231REMSYN088AAXX  29004 82678 32792 12301 10280 20236 39945 40102 81030 333 10352 29072 55061 59023;EQDQ01  00002PRCP06
0167826780999992004113018004-06767-043017FM-12+013899999V0209999C000012200019N0040001N1+03581+02341100811ADDAA106000091GF104991031021008001001011MA1999999099261MD1999999-0061REMSYN070AAXX  30184 82678 32596 40000 10358 20234 39926 40081 83201 333 59006;EQDQ01  00002PRCP06
0208826780999992004120100004-06767-043017FM-12+013899999V0209999C000012200019N0002001N1+03081+02351100971ADDAA106000091GA1001+999999999GF100991001001999999001001KA1240M+03641MA1999999099421MD1999999-0031REMSYN082AAXX  01004 82678 32992 00000 10308 20235 39942 40097 333 10364 29061 55109 59003;EQDQ01  00002PRCP06
0186826780999992004120112004-06767-043017FM-12+013899999V0202701N000510075019N0040001N1+02861+02311101321ADDAA106000091GF108991071051008001001021KA1240N+02601MA1999999099761MD1999999+0031REMSYN076AAXX  01124 82678 32596 82701 10286 20231 39976 40132 87502 333 20260 58003;EQDQ01  00002PRCP06
0167826780999992004120118004-06767-043017FM-12+013899999V0202701N001012200019N0040001N1+03481+02251100791ADDAA106000091GF105991031021008001001011MA1999999099251MD1999999-0011REMSYN070AAXX  01184 82678 32596 52702 10348 20225 39925 40079 83201 333 59001;EQDQ01  00002PRCP06
0208826780999992004120200004-06767-043017FM-12+013899999V0202301N000512200019N0002001N1+03021+02241100881ADDAA106000091GA1001+999999999GF100991001001999999001001KA1240M+03631MA1999999099331MD1999999-0091REMSYN082AAXX  02004 82678 32992 02301 10302 20224 39933 40088 333 10363 29062 55082 59009;EQDQ01  00002PRCP06
0186826780999992004120212004-06767-043017FM-12+013899999V0202701N000510450019N0040001N1+02861+02311101251ADDAA106000091GF108991031051008001071021KA1240N+02561MA1999999099691MD1999999-0071REMSYN076AAXX  02124 82678 32596 82701 10286 20231 39969 40125 83572 333 20256 59007;EQDQ01  00002PRCP06
0167826780999992004120218004-06767-043017FM-12+013899999V0202301N000511050019N0040001N1+03401+02071100901ADDAA106000091GF107991011011008001001021MA1999999099351MD1999999+0101REMSYN070AAXX  02184 82678 32596 72301 10340 20207 39935 40090 81102 333 58010;EQDQ01  00002PRCP06
0208826780999992004120300004-06767-043017FM-12+013899999V0209999C000012200019N0002001N1+02921+02241101021ADDAA106000091GA1001+999999999GF100991001001999999001001KA1240M+03511MA1999999099461MD1999999+0131REMSYN082AAXX  03004 82678 32992 00000 10292 20224 39946 40102 333 10351 29063 55068 58013;EQDQ01  00002PRCP06
0186826780999992004120312004-06767-043017FM-12+013899999V0203601N000512200019N0040001N1+03001+02221101331ADDAA106000091GF106991031021008001001011KA1240N+02591MA1999999099771MD1999999+0081REMSYN076AAXX  03124 82678 32596 63601 10300 20222 39977 40133 83201 333 20259 58008;EQDQ01  00002PRCP06
0167826780999992004120318004-06767-043017FM-12+013899999V0203201N002112200019N0040001N1+03551+02011100831ADDAA106000091GF107991041081008001001011MA1999999099291MD1999999-0061REMSYN070AAXX  03184 82678 32596 73204 10355 20201 39929 40083 84801 333 59006;EQDQ01  00002PRCP06
0198826780999992004120400004-06767-043017FM-12+013899999V0202301N000512200019N0002001N1+02981+02281101041ADDAA106000091GF104991041041008001001001KA1240M+03641MA1999999099491MD1999999+0031REMSYN088AAXX  04004 82678 32592 42301 10298 20228 39949 40104 84400 333 10364 29059 55108 58003;EQDQ01  00002PRCP06
0186826780999992004120412004-06767-043017FM-12+013899999V0203601N001510450019N0040001N1+02851+02331101521ADDAA106000091GF106991011021008001031011KA1240N+02471MA1999999099951MD1999999+0181REMSYN076AAXX  04124 82678 32596 63603 10285 20233 39995 40152 81231 333 20247 58018;EQDQ01  00002PRCP06
0167826780999992004120418004-06767-043017FM-12+013899999V0200901N003112200019N0040001N1+03621+02141101051ADDAA106000091GF104991021021008001001021MA1999999099501MD1999999+0211REMSYN070AAXX  04184 82678 32596 40906 10362 20214 39950 40105 82202 333 58021;EQDQ01  00002PRCP06
0208826780999992004120500004-06767-043017FM-12+013899999V0201401N001512200019N0002001N1+03181+01731101221ADDAA106000091GA1001+999999999GF100991001001999999001001KA1240M+03761MA1999999099661MD1999999+0171REMSYN082AAXX  05004 82678 32992 01403 10318 20173 39966 40122 333 10376 29050 55092 58017;EQDQ01  00002PRCP06
0196826780999992004120512004-06767-043017FM-12+013899999V0200901N003112200019N0040001N1+03081+01601101461ADDAA106000091GA1001+999999999GF100991001001999999001001KA1240N+02441MA1999999099911MD1999999-0041REMSYN070AAXX  05124 82678 32996 00906 10308 20160 39991 40146 333 20244 59004;EQDQ01  00002PRCP06
0167826780999992004120518004-06767-043017FM-12+013899999V0201401N002612200019N0040001N1+03661+01821100961ADDAA106000091GF104991031021008001001021MA1999999099421MD1999999-0081REMSYN070AAXX  05184 82678 32596 41405 10366 20182 39942 40096 83202 333 59008;EQDQ01  00002PRCP06
0208826780999992004120600004-06770-043020FM-12+012799999V0201801N001512200019N0002001N1+03081+01641101131ADDAA106000091GA1001+999999999GF100991001001999999001001KA1240M+03781MA1999999099581MD1999999-0081REMSYN082AAXX  06004 82678 32992 01803 10308 20164 39958 40113 333 10378 29040 55114 59008;EQDQ01  00002PRCP06
0186826780999992004120612004-06770-043020FM-12+012799999V0200901N001512200019N0040001N1+03081+01601101261ADDAA106000091GF102991021001017501001011KA1240N+02461MA1999999099711MD1999999-0201REMSYN076AAXX  06124 82678 32796 20903 10308 20160 39971 40126 82001 333 20246 59020;EQDQ01  00002PRCP06
0167826780999992004120618004-06770-043020FM-12+012799999V0203601N001512200019N0040001N1+03681+01931100831ADDAA106000091GF104991021021008001031011MA1999999099281MD1999999-0141REMSYN070AAXX  06184 82678 32596 43603 10368 20193 39928 40083 82231 333 59014;EQDQ01  00002PRCP06
0208826780999992004120700004-06767-043017FM-12+013899999V0209999C000012200019N0002001N1+03101+02061101031ADDAA106000091GA1001+999999999GF100991001001999999001001KA1240M+03761MA1999999099481MD1999999-0101REMSYN082AAXX  07004 82678 32792 00000 10310 20206 39948 40103 333 10376 29046 55106 59010;EQDQ01  00002PRCP06
0186826780999992004120712004-06767-043017FM-12+013899999V0203201N000510450019N0040001N1+02881+02281101421ADDAA106000091GF106991031011008001071011KA1240N+02521MA1999999099861MD1999999+0151REMSYN076AAXX  07124 82678 32596 63201 10288 20228 39986 40142 83171 333 20252 58015;EQDQ01  00002PRCP06
0167826780999992004120718004-06767-043017FM-12+013899999V0200501N001510075019N0040001N1+03391+02161100961ADDAA106000091GF108991051051008001031021MA1999999099411MD1999999+0131REMSYN070AAXX  07184 82678 32596 80503 10339 20216 39941 40096 85532 333 58013;EQDQ01  00002PRCP06
0198826780999992004120800004-06767-043017FM-12+013899999V0209999C000012200019N0002001N1+02741+02261101121ADDAA106000091GF102991021001017501031001KA1240M+03571MA1999999099551MD1999999+0071REMSYN088AAXX  08004 82678 32792 20000 10274 20226 39955 40112 82030 333 10357 29067 55075 58007;EQDQ01  00002PRCP06
0209826780999992004120812004-06767-043017FM-12+013899999V0203601N000512200019N0040001N1+02901+02251101441ADDAY161061AY211061GF103991999021008001001011KA1240N+02541MA1999999099871MD1999999+0011MW1021REMSYN088AAXX  08124 82678 21596 33601 10290 20225 39987 40144 70261 85201 333 20254 58001 69934;EQDQ01+000052SCOTLC
0167826780999992004120818004-06767-043017FM-12+013899999V0203601N001011050019N0040001N1+03441+02141100991ADDAA106000091GF106991031051008001001021MA1999999099441MD1999999+0031REMSYN070AAXX  08184 82678 32596 63602 10344 20214 39944 40099 83502 333 58003;EQDQ01  00002PRCP06
0208826780999992004120900004-06767-043017FM-12+013899999V0209999C000012200019N0002001N1+02961+02181101131ADDAA106000091GA1001+999999999GF100991001001999999001001KA1240M+03571MA1999999099571MD1999999+0021REMSYN082AAXX  09004 82678 32992 00000 10296 20218 39957 40113 333 10357 29060 55093 58002;EQDQ01  00002PRCP06
0186826780999992004120912004-06767-043017FM-12+013899999V0203601N001510075019N0040001N1+02701+02261101461ADDAA106000091GF108991081051008001999999KA1240N+02501MA1999999099891MD1999999+0021REMSYN076AAXX  09124 82678 32596 83603 10270 20226 39989 40146 885// 333 20250 58002;EQDQ01  00002PRCP06
0167826780999992004120918004-06767-043017FM-12+013899999V0202301N002110450019N0040001N1+03141+02161100991ADDAA106000091GF108991031021008001011011MA1999999099431MD1999999-0011REMSYN070AAXX  09184 82678 32596 82304 10314 20216 39943 40099 83211 333 59001;EQDQ01  00002PRCP06
0208826780999992004121000004-06767-043017FM-12+013899999V0201801N000512200019N0002001N1+02781+02251101071ADDAA106000091GA1001+999999999GF100991001001999999001001KA1240M+03331MA1999999099501MD1999999-0071REMSYN082AAXX  10004 82678 32992 01801 10278 20225 39950 40107 333 10333 29070 55048 59007;EQDQ01  00002PRCP06
0186826780999992004121012004-06767-043017FM-12+013899999V0203201N002610450019N0040001N1+02921+02291101311ADDAA106000091GF108991031021008001021011KA1240N+02361MA1999999099741MD1999999-0151REMSYN076AAXX  10124 82678 32596 83205 10292 20229 39974 40131 83221 333 20236 59015;EQDQ01  00002PRCP06
0167826780999992004121018004-06767-043017FM-12+013899999V0200501N002112200019N0040001N1+03551+02131100731ADDAA106000091GF108991041021008001001011MA1999999099181MD1999999-0251REMSYN070AAXX  10184 82678 32596 80504 10355 20213 39918 40073 84201 333 59025;EQDQ01  00002PRCP06
0208826780999992004121100004-06767-043017FM-12+013899999V0202301N001512200019N0002001N1+03021+02181100991ADDAA106000091GA1001+999999999GF100991001001999999001001KA1240M+03591MA1999999099441MD1999999-0061REMSYN082AAXX  11004 82678 32992 02303 10302 20218 39944 40099 333 10359 29059 55090 59006;EQDQ01  00002PRCP06
0190826780999992004121112004-06767-043017FM-12+013899999V0200501N002110075019N0040001N1+02741+02171101371ADDAY161061AY221061GF108991081051008001999999KA1240N+02551MA1999999099811MD1999999+0071MW1021REMSYN088AAXX  11124 82678 21596 80504 10274 20217 39981 40137 70262 885// 333 20255 58007 69964;
0167826780999992004121118004-06767-043017FM-12+013899999V0201401N001510450019N0040001N1+03191+02221100981ADDAA106000091GF108991031021008001021021MA1999999099421MD1999999+0241REMSYN070AAXX  11184 82678 32596 81403 10319 20222 39942 40098 83222 333 58024;EQDQ01  00002PRCP06
0212826780999992004121200004-06770-043020FM-12+012799999V0209999C000012200019N0002001N1+02521+02331101131ADDAY161061AY291061GA1001+999999999GF100991001001999999001001KA1240M+03271MA1999999099551MD1999999+0111MW1001REMSYN094AAXX  12004 82678 21992 00000 10252 20233 39955 40113 70069 333 10327 29076 55008 58011 60101;
0162826780999992004121212004-06770-043020FM-12+012799999V0200901N000511050019N0040001N1+02801+02271101431ADDGF106991031051008001001021KA1240N+02381MA1999999099851MD1999999+0041REMSYN082AAXX  12124 82678 22596 60901 10280 20227 39985 40143 83502 333 20238 58004 60104;
0167826780999992004121218004-06770-043020FM-12+012799999V0203601N001010450019N0040001N1+03481+02071100971ADDAA106000091GF106991031021008001031001MA1999999099421MD1999999+0001REMSYN070AAXX  12184 82678 32596 63602 10348 20207 39942 40097 83230 333 58000;EQDQ01  00002PRCP06
0214826780999992004121300004-06767-043017FM-12+013899999V0202701N001012200019N0040001N1+03101+02121101061ADDAA106000091GF104991999021008001001001KA1240M+03601MA1999999099501MD1999999-0051REMSYN088AAXX  13004 82678 32596 42702 10310 20212 39950 40106 83200 333 10360 29057 55087 59005;EQDQ01+000032SCOTLCQ02  00002PRCP06
0190826780999992004121312004-06767-043017FM-12+013899999V0202701N001010075019N0040001N1+02721+02281101521ADDAY161061AY221061GF108991081051008001999999KA1240N+02541MA1999999099951MD1999999+0101MW1031REMSYN088AAXX  13124 82678 21596 82702 10272 20228 39995 40152 70362 885// 333 20254 58010 60014;
0171826780999992004121318004-06767-043017FM-12+013899999V0202301N000511050019N0040001N1+03261+02351101031ADDAY161061AY221061GF106991031021008001001021MA1999999099471MD1999999+0051MW1021REMSYN082AAXX  13184 82678 21596 62301 10326 20235 39947 40103 70262 83202 333 58005 60051;
0162826780999992004121412004-06767-043017FM-12+013899999V0209999C000010075019N0040001N1+02661+02181101461ADDGF108991071051008001061999KA1240N+02381MA1999999099891MD1999999-0061REMSYN082AAXX  14124 82678 22596 80000 10266 20218 39989 40146 8756/ 333 20238 59006 60054;
0167826780999992004121418004-06767-043017FM-12+013899999V0200901N001011050019N0040001N1+03441+02141100961ADDAA106000091GF107991031051008001001021MA1999999099401MD1999999-0071REMSYN070AAXX  14184 82678 32596 70902 10344 20214 39940 40096 83502 333 59007;EQDQ01  00002PRCP06
0208826780999992004121500004-06767-043017FM-12+013899999V0209999C000012200019N0002001N1+02701+02221101091ADDAA106000091GA1001+999999999GF100991001001999999001001KA1240M+03491MA1999999099521MD1999999-0011REMSYN082AAXX  15004 82678 32992 00000 10270 20222 39952 40109 333 10349 29068 55067 59001;EQDQ01  00002PRCP06
0186826780999992004121512004-06767-043017FM-12+013899999V0200501N001010075019N0040001N1+02541+02131101431ADDAA106000091GF108991061051008001021999KA1240N+02501MA1999999099851MD1999999-0041REMSYN076AAXX  15124 82678 32596 80502 10254 20213 39985 40143 8652/ 333 20250 59004;EQDQ01  00002PRCP06
0167826780999992004121518004-06767-043017FM-12+013899999V0202301N000510450019N0040001N1+03041+02231101011ADDAA106000091GF108991021021008001021999MA1999999099441MD1999999+0041REMSYN070AAXX  15184 82678 32596 82301 10304 20223 39944 40101 8222/ 333 58004;EQDQ01  00002PRCP06
0208826780999992004121600004-06767-043017FM-12+013899999V0209999C000012200019N0002001N1+02781+02321101001ADDAA106000091GA1001+999999999GF100991001001999999001001KA1240M+03251MA1999999099431MD1999999-0091REMSYN082AAXX  16004 82678 32992 00000 10278 20232 39943 40100 333 10325 29073 55017 59009;EQDQ01  00002PRCP06
0186826780999992004121612004-06767-043017FM-12+013899999V0203601N001010450019N0040001N1+02761+02231101271ADDAA106000091GF108991041051008001021011KA1240N+02521MA1999999099701MD1999999-0151REMSYN076AAXX  16124 82678 32596 83602 10276 20223 39970 40127 84521 333 20252 59015;EQDQ01  00002PRCP06
0167826780999992004121618004-06767-043017FM-12+013899999V0203601N001010450019N0040001N1+03081+02211101001ADDAA106000091GF108991021021008001031011MA1999999099441MD1999999+0001REMSYN070AAXX  16184 82678 32596 83602 10308 20221 39944 40100 82231 333 58000;EQDQ01  00002PRCP06
0208826780999992004121700004-06767-043017FM-12+013899999V0209999C000012200019N0002001N1+02721+02371101161ADDAA106000091GA1001+999999999GF100991001001999999001001KA1240M+03191MA1999999099591MD1999999+0161REMSYN082AAXX  17004 82678 32792 00000 10272 20237 39959 40116 333 10319 29074 55023 58016;EQDQ01  00002PRCP06
0190826780999992004121712004-06767-043017FM-12+013899999V0209999C000010075019N0040001N1+02521+02361101381ADDAY161061AY211061GF108991081051008001999999KA1240N+02381MA1999999099801MD1999999+0101MW1611REMSYN088AAXX  17124 82678 21596 80000 10252 20236 39980 40138 76161 885// 333 20238 58010 60094;
0148826780999992004121718004-06767-043017FM-12+013899999V0200901N001010450019N0040001N1+02741+02071100981ADDAA106000021GF108991041051008001021999MA1999999099401MD1999999-0041REMSYN070AAXX  17184 82678 32596 80902 10274 20207 39940 40098 8452/ 333 59004;
0198826780999992004121800004-06767-043017FM-12+013899999V0209999C000012200019N0002001N1+02561+02291101071ADDAA106000091GF104991021051008001031999KA1240M+03021MA1999999099491MD1999999-0101REMSYN088AAXX  18004 82678 32592 40000 10256 20229 39949 40107 8253/ 333 10302 29082 55001 59010;EQDQ01  00002PRCP06
0186826780999992004121812004-06767-043017FM-12+013899999V0203201N001510075019N0040001N1+02481+02321101501ADDAA106000091GF108991081051008001999999KA1240N+02441MA1999999099911MD1999999+0111REMSYN076AAXX  18124 82678 32596 83203 10248 20232 39991 40150 885// 333 20244 58011;EQDQ01  00002PRCP06
0171826780999992004121818004-06767-043017FM-12+013899999V0202301N002110075019N0040001N1+02321+02201101281ADDAY161061AY211061GF108991081051008001999999MA1999999099681MD1999999+0281MW1021REMSYN082AAXX  18184 82678 21596 82304 10232 20220 39968 40128 70261 885// 333 58028 60151;
0198826780999992004121900004-06770-043020FM-12+012799999V0209999C000010075019N0002001N1+02321+02151101361ADDAA106000091GF108991051051008001021999KA1240M+02651MA1999999099761MD1999999+0271REMSYN088AAXX  19004 82678 32592 80000 10232 20215 39976 40136 8552/ 333 10265 29091 55/// 58027;EQDQ01  00002PRCP06
0161826780999992004121912004-06770-043020FM-12+012799999V0203601N000512200019N0040001N1+02581+02101999999ADDGF103991999999008001999999KA1240N+02081MA1999999100041MD1999999+0131REMSYN081AAXX  19124 82678 22596 33601 10258 20210 30004 4064 81130 333 20208 58013 60154;
0167826780999992004121918004-06770-043020FM-12+012799999V0202301N001012200019N0040001N1+03321+02001101111ADDAA106000091GF103991011011008001031011MA1999999099541MD1999999-0141REMSYN070AAXX  19184 82678 32596 32302 10332 20200 39954 40111 81131 333 59014;EQDQ01  00002PRCP06
0198826780999992004122000004-06767-043017FM-12+013899999V0209999C000012200019N0002001N1+02641+02311101191ADDAA106000091GF102991021001017501031001KA1240M+03411MA1999999099611MD1999999-0151REMSYN088AAXX  20004 82678 32792 20000 10264 20231 39961 40119 82030 333 10341 29071 55095 59015;EQDQ01  00002PRCP06
0186826780999992004122012004-06767-043017FM-12+013899999V0200501N000510075019N0040001N1+02661+02311101501ADDAA106000091GF108991081051008001999999KA1240N+02321MA1999999099921MD1999999-0121REMSYN076AAXX  20124 82678 32596 80501 10266 20231 39992 40150 885// 333 20232 59012;EQDQ01  00002PRCP06
0167826780999992004122018004-06767-043017FM-12+013899999V0201401N000511050019N0040001N1+03461+02061100941ADDAA106000091GF105991031021008001001021MA1999999099381MD1999999-0161REMSYN070AAXX  20184 82678 32596 51401 10346 20206 39938 40094 83202 333 59016;EQDQ01  00002PRCP06
0198826780999992004122100004-06767-043017FM-12+013899999V0200901N001510075019N0002001N1+02981+02301101031ADDAA106000091GF108991081051008001999999KA1240M+03571MA1999999099461MD1999999-0151REMSYN088AAXX  21004 82678 32592 80903 10298 20230 39946 40103 885// 333 10357 29065 55093 59015;EQDQ01  00002PRCP06
0186826780999992004122112004-06767-043017FM-12+013899999V0200501N001010120019N0040001N1+02851+02241101321ADDAA106000091GF108991051081008001021011KA1240N+02501MA1999999099761MD1999999-0161REMSYN076AAXX  21124 82678 32596 80502 10285 20224 39976 40132 85821 333 20250 59016;EQDQ01  00002PRCP06
0167826780999992004122118004-06767-043017FM-12+013899999V0200501N002110450019N0040001N1+03441+02001100871ADDAA106000091GF107991031021008001011021MA1999999099321MD1999999-0061REMSYN070AAXX  21184 82678 32596 70504 10344 20200 39932 40087 83212 333 59006;EQDQ01  00002PRCP06
0198826780999992004122200004-06767-043017FM-12+013899999V0202301N001012200019N0002001N1+02881+02321100981ADDAA106000091GF102991011001017501021011KA1240M+03581MA1999999099421MD1999999-0041REMSYN088AAXX  22004 82678 32792 22302 10288 20232 39942 40098 81021 333 10358 29064 55078 59004;EQDQ01  00002PRCP06
0186826780999992004122212004-06767-043017FM-12+013899999V0203201N001510075019N0040001N1+02681+02351101291ADDAA106000091GF108991051051008001021021KA1240N+02601MA1999999099721MD1999999-0041REMSYN076AAXX  22124 82678 32596 83203 10268 20235 39972 40129 85522 333 20260 59004;EQDQ01  00002PRCP06
0167826780999992004122218004-06767-043017FM-12+013899999V0203201N001010450019N0040001N1+02901+02271100981ADDAA106000091GF108991031041008001031021MA1999999099411MD1999999+0091REMSYN070AAXX  22184 82678 32596 83202 10290 20227 39941 40098 83432 333 58009;EQDQ01  00002PRCP06
0198826780999992004122300004-06767-043017FM-12+013899999V0202301N000519999999N0002001N1+02701+02301101061ADDAA106000091GF106991001001999999001011KA1240M+03111MA1999999099461MD1999999+0071REMSYN088AAXX  23004 82678 32992 62301 10270 20230 39946 40106 80001 333 10311 29077 55028 58007;EQDQ01  00002PRCP06
0186826780999992004122312004-06767-043017FM-12+013899999V0201401N001519999999N0040001N1+02621+02251101271ADDAA106000091GF108991041051999999031021KA1240N+02321MA1999999099951MD1999999-0031REMSYN076AAXX  23124 82678 32996 81403 10262 20225 39995 40127 84532 333 20232 59003;EQDQ01  00002PRCP06
0167826780999992004122318004-06767-043017FM-12+013899999V0202301N001510450019N0040001N1+03321+02261100841ADDAA106000091GF108991031041008001021011MA1999999099281MD1999999-0131REMSYN070AAXX  23184 82678 32596 82303 10332 20226 39928 40084 83421 333 59013;EQDQ01  00002PRCP06
0198826780999992004122400004-06767-043017FM-12+013899999V0202301N001512200019N0002001N1+02861+02391100891ADDAA106000091GF104991031021008001001021KA1240M+03391MA1999999099321MD1999999-0171REMSYN088AAXX  24004 82678 32592 42303 10286 20239 39932 40089 83202 333 10339 29072 55058 59017;EQDQ01  00002PRCP06
0190826780999992004122412004-06767-043017FM-12+013899999V0203601N001510075019N0040001N1+02761+02281101161ADDAY161061AY221061GF108991051051008001021999KA1240N+02501MA1999999099591MD1999999-0101MW1021REMSYN088AAXX  24124 82678 21596 83603 10276 20228 39959 40116 70262 8552/ 333 20250 59010 60024;
0167826780999992004122418004-06767-043017FM-12+013899999V0202701N001011050019N0040001N1+03361+02241100791ADDAA106000091GF105991031021008001001021MA1999999099241MD1999999-0041REMSYN070AAXX  24184 82678 32596 52702 10336 20224 39924 40079 83202 333 59004;EQDQ01  00002PRCP06
0198826780999992004122500004-06767-043017FM-12+013899999V0203601N001512200019N0040001N1+02701+02371100961ADDAA106000091GF103991021021008001011001KA1240M+03451MA1999999099391MD1999999+0071REMSYN088AAXX  25004 82678 32596 33603 10270 20237 39939 40096 82210 333 10345 29073 55057 58007;EQDQ01  00002PRCP06
0186826780999992004122512004-06767-043017FM-12+013899999V0203601N001011050019N0040001N1+02761+02191101321ADDAA106000091GF108991031011008001001021KA1240N+02421MA1999999099751MD1999999+0161REMSYN076AAXX  25124 82678 32596 83602 10276 20219 39975 40132 83102 333 20242 58016;EQDQ01  00002PRCP06
0167826780999992004122518004-06767-043017FM-12+013899999V0202301N000512200019N0040001N1+03341+02251100891ADDAA106000091GF105991031011008001001011MA1999999099331MD1999999+0091REMSYN070AAXX  25184 82678 32596 52301 10334 20225 39933 40089 83101 333 58009;EQDQ01  00002PRCP06
0208826780999992004122600004-06770-043020FM-12+012799999V0209999C000012200019N0002001N1+02881+02251100981ADDAA106000091GA1001+999999999GF100991001001999999001001KA1240M+03471MA1999999099421MD1999999+0031REMSYN082AAXX  26004 82678 32992 00000 10288 20225 39942 40098 333 10347 29066 55074 58003;EQDQ01  00002PRCP06
0202826780999992004122612004-06770-043020FM-12+012799999V0209999C000012200019N0040001N1+02861+02141101321ADDAA106000091GF104991999021008001001001KA1240N+02361MA1999999099751MD1999999+0001REMSYN076AAXX  26124 82678 32596 40000 10286 20214 39975 40132 85200 333 20236 58000;EQDQ01+000052SCOTLCQ02  00002PRCP06
0183826780999992004122618004-06770-043020FM-12+012799999V0201401N000519999999N0040001N1+03441+02071100921ADDAA106000091GF107991999011008001001001MA1999999099371MD1999999+0041REMSYN070AAXX  26184 82678 32596 71401 10344 20207 39937 40092 82100 333 58004;EQDQ01+000022SCOTLCQ02  00002PRCP06
0214826780999992004122700004-06770-043020FM-12+012799999V0200901N000519999999N0002001N1+02941+02191100981ADDAA106000091GF107991999021008001001001KA1240M+03531MA1999999099421MD1999999+0001REMSYN088AAXX  27004 82678 32592 70901 10294 20219 39942 40098 84200 333 10353 29060 55064 58000;EQDQ01+000042SCOTLCQ02  00002PRCP06
0186826780999992004122712004-06770-043020FM-12+012799999V0202701N002112200019N0040001N1+02991+02251101281ADDAA106000091GF104991001001999999001011KA1240N+02501MA1999999099721MD1999999-0031REMSYN076AAXX  27124 82678 32996 42704 10299 20225 39972 40128 80001 333 20250 59003;EQDQ01  00002PRCP06
0167826780999992004122718004-06770-043020FM-12+012799999V0202701N001510450019N0040001N1+03421+02231100811ADDAA106000091GF108991041031008001021011MA1999999099261MD1999999-0111REMSYN070AAXX  27184 82678 32596 82703 10342 20223 39926 40081 84321 333 59011;EQDQ01  00002PRCP06
0226826780999992004122800004-06767-043017FM-12+013899999V0202301N001019999999N0002001N1+03021+02391100921ADDAA106000091AY121061AY291061GF105991001001999999001011KA1240M+03631MA1999999099371MD1999999-0051MW1011REMSYN094AAXX  28004 82678 31992 52302 10302 20239 39937 40092 70129 80001 333 10363 29063 55085 59005;EQDQ01  00002PRCP06
0190826780999992004122812004-06767-043017FM-12+013899999V0203201N002110075019N0040001N1+02581+02311101351ADDAY161061AY221061GF108991061051008001021999KA1240N+02461MA1999999099781MD1999999+0061MW1021REMSYN088AAXX  28124 82678 21596 83204 10258 20231 39978 40135 70262 8652/ 333 20246 58006 60044;
0171826780999992004122818004-06767-043017FM-12+013899999V0202301N001010075019N0040001N1+02281+02161101361ADDAY161061AY261061GF108991081051008001999999MA1999999099771MD1999999+0511MW1021REMSYN082AAXX  28184 82678 21596 82302 10228 20216 39977 40136 70266 885// 333 58051 60831;
0162826780999992004122912004-06767-043017FM-12+013899999V0209999C000010075019N0040001N1+02381+02151101701ADDGF108991051051008001021999KA1240N+02061MA1999999100091MD1999999+0311REMSYN082AAXX  29124 82678 22596 80000 10238 20215 30009 40170 8552/ 333 20206 58031 60834;
0167826780999992004122918004-06767-043017FM-12+013899999V0201401N001512200019N0040001N1+03081+02211101401ADDAA106000091GF104991021021008001001021MA1999999099811MD1999999+0041REMSYN070AAXX  29184 82678 32596 41403 10308 20221 39981 40140 82202 333 58004;EQDQ01  00002PRCP06
0208826780999992004123000004-06767-043017FM-12+013899999V0209999C000012200019N0002001N1+02601+02351101501ADDAA106000091GA1001+999999999GF100991001001999999001001KA1240M+03171MA1999999099911MD1999999-0101REMSYN082AAXX  30004 82678 32992 00000 10260 20235 39991 40150 333 10317 29080 55062 59010;EQDQ01  00002PRCP06
0186826780999992004123012004-06767-043017FM-12+013899999V0209999C000012200019N0040001N1+02801+02311101621ADDAA106000091GF104991021021008001001011KA1240N+02401MA1999999100041MD1999999-0051REMSYN076AAXX  30124 82678 32596 40000 10280 20231 30004 40162 82201 333 20240 59005;EQDQ01  00002PRCP06
0167826780999992004123018004-06767-043017FM-12+013899999V0209999C000012200019N0040001N1+03281+02231101191ADDAA106000091GF103991021021008001001021MA1999999099631MD1999999-0181REMSYN070AAXX  30184 82678 32596 30000 10328 20223 39963 40119 82202 333 59018;EQDQ01  00002PRCP06
0186826780999992004123112004-06767-043017FM-12+013899999V0200501N000510450019N0040001N1+02801+02311101501ADDAA106000091GF107991041051008001031021KA1240N+02401MA1999999099931MD1999999-0111REMSYN076AAXX  31124 82678 32596 70501 10280 20231 39993 40150 84532 333 20240 59011;EQDQ01  00002PRCP06
0167826780999992004123118004-06767-043017FM-12+013899999V0200901N000511050019N0040001N1+03301+02241101171ADDAA106000091GF105991031051008001001021MA1999999099611MD1999999-0021REMSYN070AAXX  31184 82678 32596 50901 10330 20224 39961 40117 83502 333 59002;EQDQ01  00002PRCP06
