0208827650999992004010100004-07333-047467FM-12+021299999V0209999C000012200019N0200001N1+03001+02681101161ADDAA106000091GA1001+999999999GF100991001001999999001001KA1240M+03501MA1999999098801MD1999999-0011REMSYN082AAXX  01004 82765 32998 00000 10300 20268 39880 40116 333 10350 29075 55/// 59001;EQDQ01  00002PRCP06
0190827650999992004010112004-07333-047467FM-12+021299999V0200501N000510120019N0200001N1+02661+02481101491ADDAY151061AY251061GF108991061081008001021999KA1240N+02571MA1999999099111MD1999999+0011MW1001REMSYN088AAXX  01124 82765 21598 80501 10266 20248 39911 40149 70055 8682/ 333 20257 58001 69914;
0190827650999992004010118004-07333-047467FM-12+021299999V0201601N001519999999N0100001N1+02261+02231101301ADDAY191061AY261061GF105991999081008001021999MA1999999098881MD1999999+0171MW1001REMSYN082AAXX  01184 82765 21597 51603 10226 20223 39888 40130 70096 8682/ 333 58017 60191;EQDQ01+000062SCOTLC
0198827650999992004010200004-07333-047467FM-12+021299999V0201101N001010120019N0200001N1+02341+02241101501ADDAA106000091GF108991061081008001021999KA1240M+03001MA1999999099091MD1999999+0191REMSYN088AAXX  02004 82765 32598 81102 10234 20224 39909 40150 8682/ 333 10300 29094 55/// 58019;EQDQ01  00002PRCP06
0162827650999992004010212004-07333-047467FM-12+021299999V0201601N001010120019N0200001N1+02401+02311101551ADDGF108991071081008001021999KA1240N+02171MA1999999099131MD1999999+0031REMSYN082AAXX  02124 82765 22598 81602 10240 20231 39913 40155 8782/ 333 20217 58003 60194;
0167827650999992004010218004-07333-047467FM-12+021299999V0201401N001010450019N0200001N1+03041+02521101141ADDAA106000091GF106991041021008001041001MA1999999098751MD1999999-0131REMSYN070AAXX  02184 82765 32598 61402 10304 20252 39875 40114 84240 333 59013;EQDQ01  00002PRCP06
0202827650999992004010300004-07333-047467FM-12+021299999V0201101N000510075019N0200001N1+02421+02331101401ADDAY191061AY261061GF108991071051008001021999KA1240M+03181MA1999999098981MD1999999-0111MW1511REMSYN100AAXX  03004 82765 21598 81101 10242 20233 39898 40140 75196 8752/ 333 10318 29090 55/// 59011 60371;
0190827650999992004010312004-07333-047467FM-12+021299999V0209999C000010450019N0200001N1+02561+02381101441ADDAY191061AY261061GF106991021011008001041001KA1240N+02371MA1999999099031MD1999999-0101MW1001REMSYN088AAXX  03124 82765 21598 60000 10256 20238 39903 40144 70096 82140 333 20237 59010 60394;
0195827650999992004010318004-07333-047467FM-12+021299999V0203601N003610075019N0200001N1+03021+02441100961ADDAA106000091AY191061AY291061GF106991051031008001061001MA1999999098581MD1999999-0171MW1001REMSYN076AAXX  03184 82765 31598 63607 10302 20244 39858 40096 70099 85360 333 59017;EQDQ01  00002PRCP06
0198827650999992004010400004-07333-047467FM-12+021299999V0200701N001510075019N0200001N1+02521+02381101151ADDAA106000091GF105991051001008001021001KA1240M+03201MA1999999098751MD1999999-0231REMSYN088AAXX  04004 82765 32598 50703 10252 20238 39875 40115 85020 333 10320 29086 55/// 59023;EQDQ01  00002PRCP06
0190827650999992004010412004-07333-047467FM-12+021299999V0209999C000010450019N0200001N1+02681+02391101331ADDAY151061AY251061GF106991021081008001041001KA1240N+02391MA1999999098931MD1999999-0101MW1001REMSYN088AAXX  04124 82765 21598 60000 10268 20239 39893 40133 70055 82840 333 20239 59010 69914;
0202827650999992004010500004-07333-047467FM-12+021299999V0201401N000510450019N0200001N1+02541+02401101051ADDAY161061AY261061GF105991031051008001041001KA1240M+03301MA1999999098661MD1999999-0091MW1001REMSYN100AAXX  05004 82765 21598 51401 10254 20240 39866 40105 70066 83540 333 10330 29083 55/// 59009 60111;
0162827650999992004010512004-07333-047467FM-12+021299999V0202501N001510450019N0200001N1+02601+02421101371ADDGF105991031021008001061001KA1240N+02391MA1999999098921MD1999999-0011REMSYN082AAXX  05124 82765 22598 52503 10260 20242 39892 40137 83260 333 20239 59001 60114;
0195827650999992004010518004-07333-047467FM-12+021299999V0203201N000510450019N0200001N1+03221+02601100911ADDAA106000091AY101061AY201061GF106991031021008001011001MA1999999098541MD1999999+0011MW1171REMSYN076AAXX  05184 82765 31598 63201 10322 20260 39854 40091 71700 83210 333 58001;EQDQ01  00002PRCP06
0202827650999992004010600004-07333-047467FM-12+021299999V0209999C000012200019N0200001N1+02481+02411101081ADDAY191061AY261061GF101991011061008001001001KA1240M+03281MA1999999098681MD1999999+0021MW1001REMSYN100AAXX  06004 82765 21598 10000 10248 20241 39868 40108 70096 81600 333 10328 29088 55/// 58002 60061;
0203827650999992004010612004-07333-047467FM-12+021299999V0203601N003110075019N0200001N1+02621+02461101451ADDAY101061AY201061GF108991061051008001021999KA1240N+02331MA1999999099051MD1999999+0131REMSYN088AAXX  06124 82765 21598 83606 10262 20246 39905 40145 76600 8652/ 333 20233 58013 60134;EQDQ01+000662PRSWM1
0171827650999992004010618004-07333-047467FM-12+021299999V0201401N001010120019N0200001N1+02861+02501101121ADDAY151061AY251061GF106991051081008001041001MA1999999098731MD1999999+0191MW1001REMSYN082AAXX  06184 82765 21598 61402 10286 20250 39873 40112 70055 85840 333 58019 60011;
0198827650999992004010700004-07333-047467FM-12+021299999V0209999C000012200019N0200001N1+02701+02591101191ADDAA106000091GF104991011011008001041001KA1240M+02921MA1999999098801MD1999999+0121REMSYN088AAXX  07004 82765 32598 40000 10270 20259 39880 40119 81140 333 10292 29089 55/// 58012;EQDQ01  00002PRCP06
0162827650999992004010712004-07333-047467FM-12+021299999V0201601N001012200019N0200001N1+02541+02401101381ADDGF104991021011008001041001KA1240N+02391MA1999999098991MD1999999-0061REMSYN082AAXX  07124 82765 22598 41602 10254 20240 39899 40138 82140 333 20239 59006 60014;
0167827650999992004010718004-07333-047467FM-12+021299999V0201101N001010450019N0200001N1+03261+02441101061ADDAA106000091GF105991031021008001041001MA1999999098691MD1999999-0041REMSYN070AAXX  07184 82765 32598 51102 10326 20244 39869 40106 83240 333 59004;EQDQ01  00002PRCP06
0208827650999992004010800004-07333-047467FM-12+021299999V0202501N000512200019N0200001N1+02961+02701101111ADDAA106000091GA1001+999999999GF100991001001999999001001KA1240M+03441MA1999999098731MD1999999-0071REMSYN082AAXX  08004 82765 32998 02501 10296 20270 39873 40111 333 10344 29081 55/// 59007;EQDQ01  00002PRCP06
0156827650999992004010812004-07333-047467FM-12+021299999V0209999C000019999999N0200001N1+02761+99999999999ADDAA106000091GF106991999999008001999999KA1240N+02451REMSYN075AAXX  08124 82765 32598 60000 10276 2056 39902 40139 83140 333 20245 58003;EQDQ01  00002PRCP06
0171827650999992004010818004-07333-047467FM-12+021299999V0200501N002610120019N0200001N1+02561+02361101251ADDAY191061AY261061GF107991051081008001021001MA1999999098851MD1999999+0161MW1001REMSYN082AAXX  08184 82765 21598 70505 10256 20236 39885 40125 70096 85820 333 58016 60021;
0162827650999992004010912004-07333-047467FM-12+021299999V0202701N000510120019N0200001N1+02621+02411101411ADDGF106991051081008001041001KA1240N+02411MA1999999099001MD1999999-0021REMSYN082AAXX  09124 82765 22598 62701 10262 20241 39900 40141 85840 333 20241 59002 60024;
0167827650999992004010918004-07333-047467FM-12+021299999V0203601N003610075019N0200001N1+03141+02431101021ADDAA106000091GF106991051021008001041001MA1999999098651MD1999999-0201REMSYN070AAXX  09184 82765 32598 63607 10314 20243 39865 40102 85240 333 59020;EQDQ01  00002PRCP06
0236827650999992004011000004-07333-047467FM-12+021299999V0209999C000019999999N0200001N1+02581+02371101261ADDAA106000091AY191061AY291061GA1091+999999999GF109991091999999999999999KA1240M+03301MA1999999098861MD1999999+0021MW1001REMSYN088AAXX  10004 82765 31/98 93600 10258 20237 39886 40126 70099 333 10330 29082 55/// 58002;EQDQ01  00002PRCP06
0190827650999992004011012004-07333-047467FM-12+021299999V0203601N002110075019N0200001N1+02361+02311101471ADDAY161061AY261061GF108991081071008001999999KA1240N+02371MA1999999099061MD1999999+0061MW1211REMSYN088AAXX  10124 82765 21598 83604 10236 20231 39906 40147 72166 887// 333 20237 58006 60454;
0171827650999992004011018004-07333-047467FM-12+021299999V0203201N001510120019N0200001N1+02721+02191101101ADDAY161061AY261061GF106991061081008001001001MA1999999098701MD1999999+0051MW1001REMSYN082AAXX  10184 82765 21598 63203 10272 20219 39870 40110 70066 86800 333 58005 60121;
0207827650999992004011112004-07333-047467FM-12+021299999V0203601N001510075019N0200001N1+02421+02331101591ADDAA124014091AY161061AY261061GF108991081071008001999999KA1240N+02351MA1999999099181MD1999999+0121MW1501REMSYN094AAXX  11124 82765 21598 83603 10242 20233 39918 40159 75066 887// 333 20235 58012 60144 10141;
0171827650999992004011118004-07333-047467FM-12+021299999V0202701N002110450019N0200001N1+02681+02391101311ADDAY161061AY261061GF107991031081008001011001MA1999999098901MD1999999+0201MW1001REMSYN082AAXX  11184 82765 21598 72704 10268 20239 39890 40131 70066 83810 333 58020 60051;
0208827650999992004011200004-07333-047467FM-12+021299999V0200901N001519999999N0200001N1+02521+02431101491ADDAA106000091GA1091+999999999GF109991091999999999999999KA1240M+02761MA1999999099081MD1999999+0201REMSYN082AAXX  12004 82765 32/98 90903 10252 20243 39908 40149 333 10276 29092 55/// 58020;EQDQ01  00002PRCP06
0190827650999992004011212004-07333-047467FM-12+021299999V0201101N000510120019N0200001N1+02561+02421101651ADDAY151061AY251061GF107991051081008001041001KA1240N+02411MA1999999099241MD1999999+0061MW1001REMSYN088AAXX  12124 82765 21598 71101 10256 20242 39924 40165 70055 85840 333 20241 58006 60064;
0171827650999992004011218004-07333-047467FM-12+021299999V0203201N002110450019N0200001N1+03061+02611101211ADDAY161061AY261061GF106991041081008001041001MA1999999098831MD1999999-0071MW1001REMSYN082AAXX  12184 82765 21598 63204 10306 20261 39883 40121 70066 84840 333 59007 60081;
0162827650999992004011312004-07333-047467FM-12+021299999V0200501N000510120019N0200001N1+02721+02451101461ADDGF108991061081008001041999KA1240N+02451MA1999999099061MD1999999-0181REMSYN082AAXX  13124 82765 22598 80501 10272 20245 39906 40146 8684/ 333 20245 59018 60084;
0167827650999992004011318004-07333-047467FM-12+021299999V0203601N001010120019N0200001N1+02901+02561101171ADDAA106000091GF108991061081008001041999MA1999999098791MD1999999-0041REMSYN070AAXX  13184 82765 32598 83602 10290 20256 39879 40117 8684/ 333 59004;EQDQ01  00002PRCP06
0202827650999992004011400004-07333-047467FM-12+021299999V0201801N001510075019N0200001N1+02461+02431101541ADDAY191061AY261061GF108991061051008001021999KA1240M+02981MA1999999099141MD1999999+0291MW1001REMSYN100AAXX  14004 82765 21598 81803 10246 20243 39914 40154 70096 8652/ 333 10298 29091 55/// 58029 60091;
0190827650999992004011412004-07333-047467FM-12+021299999V0203201N001510120019N0200001N1+02501+02361101701ADDAY151061AY251061GF108991061081008001021999KA1240N+02371MA1999999099281MD1999999+0221MW1001REMSYN088AAXX  14124 82765 21598 83203 10250 20236 39928 40170 70055 8682/ 333 20237 58022 60104;
0171827650999992004011418004-07333-047467FM-12+021299999V0201601N001010120019N0200001N1+02901+02521101231ADDAY151061AY251061GF107991051081008001041001MA1999999098841MD1999999+0051MW1001REMSYN082AAXX  14184 82765 21598 71602 10290 20252 39884 40123 70055 85840 333 58005 69971;
0198827650999992004011500004-07333-047467FM-12+021299999V0200201N000512200019N0200001N1+02561+02471101421ADDAA106000091GF103991021021008001041001KA1240M+03081MA1999999099021MD1999999-0121REMSYN088AAXX  15004 82765 32598 30201 10256 20247 39902 40142 82240 333 10308 29090 55/// 59012;EQDQ01  00002PRCP06
0166827650999992004011512004-07333-047467FM-12+021299999V0200501N001019999999N0200001N1+02561+02361101421ADDGF105991999999008001999999KA1240N+02391MA1999999099021MD1999999-0261REMSYN086AAXX  15124 82765 21598 50502 10256 20236 39902 40142 766 83830 333 20239 59026 69974;
0195827650999992004011518004-07333-047467FM-12+021299999V0203401N004110450019N0200001N1+02841+02331101071ADDAA106000091AY101061AY201061GF106991031071008001061001MA1999999098681MD1999999-0161MW1161REMSYN076AAXX  15184 82765 31598 63408 10284 20233 39868 40107 71600 83760 333 59016;EQDQ01  00002PRCP06
0202827650999992004011600004-07333-047467FM-12+021299999V0203601N000510450019N0200001N1+02661+02411101191ADDAY151061AY251061GF106991041081008001011001KA1240M+03221MA1999999098801MD1999999-0221MW1001REMSYN100AAXX  16004 82765 21598 63601 10266 20241 39880 40119 70055 84810 333 10322 29084 55/// 59022 69911;
0190827650999992004011612004-07333-047467FM-12+021299999V0209999C000010450019N0200001N1+02721+02471101331ADDAY151061AY251061GF106991041081008001061001KA1240N+02511MA1999999098941MD1999999-0081MW1001REMSYN088AAXX  16124 82765 21598 62700 10272 20247 39894 40133 70055 84860 333 20251 59008 69914;
0167827650999992004011618004-07333-047467FM-12+021299999V0203401N002610450019N0200001N1+03201+02461100851ADDAA106000091GF106991021021008001011001MA1999999098491MD1999999-0191REMSYN070AAXX  16184 82765 32598 63405 10320 20246 39849 40085 82210 333 59019;EQDQ01  00002PRCP06
0226827650999992004011700004-07333-047467FM-12+021299999V0201801N001010075019N0200001N1+02521+02341101261ADDAA106000091AY191061AY221061GF108991081061008001999999KA1240M+03261MA1999999098861MD1999999+0061MW1171REMSYN094AAXX  17004 82765 31598 81802 10252 20234 39886 40126 71792 886// 333 10326 29083 55/// 58006;EQDQ01  00002PRCP06
0171827650999992004011718004-07333-047467FM-12+021299999V0203601N001010075019N0200001N1+02441+02341101311ADDAY161061AY261061GF108991081071008001999999MA1999999098901MD1999999+0411MW1001REMSYN082AAXX  17184 82765 21598 83602 10244 20234 39890 40131 70066 887// 333 58041 60131;
0226827650999992004011800004-07333-047467FM-12+021299999V0203601N000510075019N0040001N1+02401+02351101381ADDAA106000091AY121061AY221061GF108991081071008001999999KA1240M+02701MA1999999098971MD1999999+0111MW1001REMSYN094AAXX  18004 82765 31596 83601 10240 20235 39897 40138 70022 887// 333 10270 29095 55/// 58011;EQDQ01  00002PRCP06
0190827650999992004011812004-07333-047467FM-12+021299999V0203201N001510120019N0200001N1+02501+02311101501ADDAY161061AY261061GF108991051081008001021001KA1240N+02351MA1999999099081MD1999999-0041MW1001REMSYN088AAXX  18124 82765 21598 83203 10250 20231 39908 40150 70066 85820 333 20235 59004 60134;
0198827650999992004011900004-07333-047467FM-12+021299999V0203601N001512200019N0200001N1+02641+02351101421ADDAA106000091GF102991021011008001001001KA1240M+03061MA1999999099021MD1999999+0051REMSYN088AAXX  19004 82765 32598 23603 10264 20235 39902 40142 82100 333 10306 29082 55/// 58005;EQDQ01  00002PRCP06
0186827650999992004011912004-07333-047467FM-12+021299999V0201101N000510450019N0200001N1+02581+02381101511ADDAA106000091GF106991031011008001041001KA1240N+02351MA1999999099111MD1999999+0031REMSYN076AAXX  19124 82765 32598 61101 10258 20238 39911 40151 83140 333 20235 58003;EQDQ01  00002PRCP06
0167827650999992004011918004-07333-047467FM-12+021299999V0200701N001510450019N0200001N1+02961+02401101141ADDAA106000091GF107991041021008001021001MA1999999098761MD1999999-0071REMSYN070AAXX  19184 82765 32598 70703 10296 20240 39876 40114 84220 333 59007;EQDQ01  00002PRCP06
0198827650999992004012000004-07333-047467FM-12+021299999V0209999C000012200019N0200001N1+02641+02481101321ADDAA106000091GF102991021011008001001001KA1240M+03041MA1999999098921MD1999999-0101REMSYN088AAXX  20004 82765 32598 20000 10264 20248 39892 40132 82100 333 10304 29086 55/// 59010;EQDQ01  00002PRCP06
0190827650999992004012012004-07333-047467FM-12+021299999V0200501N002110120019N0200001N1+02661+02431101441ADDAY151061AY251061GF107991051081008001041001KA1240N+02511MA1999999099051MD1999999-0061MW1001REMSYN088AAXX  20124 82765 21598 70504 10266 20243 39905 40144 70055 85840 333 20251 59006 69924;
0167827650999992004012018004-07333-047467FM-12+021299999V0203201N001010120019N0200001N1+02941+02401101111ADDAA106000091GF108991061081008001021999MA1999999098731MD1999999-0031REMSYN070AAXX  20184 82765 32598 83202 10294 20240 39873 40111 8682/ 333 59003;EQDQ01  00002PRCP06
0202827650999992004012100004-07333-047467FM-12+021299999V0201401N001010120019N0200001N1+02541+02381101361ADDAY191061AY251061GF108991061081008001021999KA1240M+03041MA1999999098961MD1999999+0041MW1001REMSYN100AAXX  21004 82765 21598 81402 10254 20238 39896 40136 70095 8682/ 333 10304 29085 55/// 58004 69911;
0190827650999992004012112004-07333-047467FM-12+021299999V0203601N001010120019N0200001N1+02481+02381101441ADDAY151061AY251061GF107991051081008001021001KA1240N+02351MA1999999099031MD1999999-0021MW1001REMSYN088AAXX  21124 82765 21598 73602 10248 20238 39903 40144 70055 85820 333 20235 59002 69914;
0167827650999992004012118004-07333-047467FM-12+021299999V0202901N002110450019N0200001N1+02921+02431101141ADDAA106000091GF105991031081008001021001MA1999999098751MD1999999+0021REMSYN070AAXX  21184 82765 32598 52904 10292 20243 39875 40114 83820 333 58002;EQDQ01  00002PRCP06
0198827650999992004012200004-07333-047467FM-12+021299999V0209999C000010450019N0200001N1+02701+02461101341ADDAA106000091GF106991041081008001021001KA1240M+03001MA1999999098941MD1999999-0021REMSYN088AAXX  22004 82765 32598 60000 10270 20246 39894 40134 84820 333 10300 29086 55/// 59002;EQDQ01  00002PRCP06
0186827650999992004012212004-07333-047467FM-12+021299999V0200201N002112200019N0200001N1+02781+02421101291ADDAA106000091GF103991031081008001001001KA1240N+02451MA1999999098911MD1999999-0121REMSYN076AAXX  22124 82765 32598 30204 10278 20242 39891 40129 83800 333 20245 59012;EQDQ01  00002PRCP06
0198827650999992004012300004-07333-047467FM-12+021299999V0209999C000010450019N0200001N1+02821+02661101151ADDAA106000091GF105991021081008001021001KA1240M+03221MA1999999098781MD1999999-0161REMSYN088AAXX  23004 82765 32598 50000 10282 20266 39878 40115 82820 333 10322 29083 55/// 59016;EQDQ01  00002PRCP06
0190827650999992004012312004-07333-047467FM-12+021299999V0209999C000010075019N0200001N1+02301+02271101421ADDAY161061AY261061GF108991081071008001999999KA1240N+02311MA1999999099021MD1999999+0111MW1211REMSYN088AAXX  23124 82765 21598 80000 10230 20227 39902 40142 72166 887// 333 20231 58011 60284;
0171827650999992004012318004-07333-047467FM-12+021299999V0209999C000010075019N0200001N1+02461+02321101211ADDAY161061AY261061GF108991081061008001999999MA1999999098801MD1999999+0271MW1001REMSYN082AAXX  23184 82765 21598 80000 10246 20232 39880 40121 70066 886// 333 58027 60111;
0208827650999992004012400004-07333-047467FM-12+021299999V0200901N001010024019N0100001N1+02481+02411101481ADDAA106000091GA1091+999999999GF109991091999999999999999KA1240M+02741MA1999999099061MD1999999+0281REMSYN082AAXX  24004 82765 32/97 90902 10248 20241 39906 40148 333 10274 29096 55/// 58028;EQDQ01  00002PRCP06
0190827650999992004012412004-07333-047467FM-12+021299999V0201401N000510075019N0200001N1+02481+02341101611ADDAY161061AY261061GF107991051061008001021001KA1240N+02311MA1999999099201MD1999999+0181MW1001REMSYN088AAXX  24124 82765 21598 71401 10248 20234 39920 40161 70066 85620 333 20231 58018 60114;
0171827650999992004012418004-07333-047467FM-12+021299999V0200201N002110450019N0200001N1+02841+02381101221ADDAY151061AY251061GF106991031081008001011001MA1999999098821MD1999999+0021MW1001REMSYN082AAXX  24184 82765 21598 60204 10284 20238 39882 40122 70055 83810 333 58002 69921;
0202827650999992004012500004-07333-047467FM-12+021299999V0203601N003110075019N0200001N1+02561+02381101401ADDAY191061AY261061GF108991081071008001999999KA1240M+02961MA1999999098991MD1999999-0071MW1291REMSYN100AAXX  25004 82765 21598 83606 10256 20238 39899 40140 72996 887// 333 10296 29087 55/// 59007 60031;
0190827650999992004012512004-07333-047467FM-12+021299999V0200901N000510120019N0200001N1+02441+02301101691ADDAY191061AY261061GF106991051081008001041001KA1240N+02231MA1999999099271MD1999999+0071MW1001REMSYN088AAXX  25124 82765 21598 60901 10244 20230 39927 40169 70096 85840 333 20223 58007 61384;
0167827650999992004012518004-07333-047467FM-12+021299999V0200201N001010450019N0200001N1+03061+02351101121ADDAA106000091GF106991041021008001041001MA1999999098731MD1999999-0091REMSYN070AAXX  25184 82765 32598 60202 10306 20235 39873 40112 84240 333 59009;EQDQ01  00002PRCP06
0202827650999992004012600004-07333-047467FM-12+021299999V0209999C000010450019N0200001N1+02621+02481101361ADDAY151061AY251061GF105991031021008001041001KA1240M+03181MA1999999098961MD1999999-0031MW1001REMSYN100AAXX  26004 82765 21598 50000 10262 20248 39896 40136 70055 83240 333 10318 29085 55/// 59003 69951;
0190827650999992004012612004-07333-047467FM-12+021299999V0200201N000510120019N0200001N1+02461+02411101571ADDAY151061AY251061GF108991061081008001021999KA1240N+02431MA1999999099161MD1999999-0111MW1001REMSYN088AAXX  26124 82765 21598 80201 10246 20241 39916 40157 70055 8682/ 333 20243 59011 69974;
0171827650999992004012618004-07333-047467FM-12+021299999V0203201N001510120019N0200001N1+02761+02441101271ADDAY101061AY201061GF108991071081008001021999MA1999999098811MD1999999+0141MW1291REMSYN082AAXX  26184 82765 21598 83203 10276 20244 39881 40127 72900 8782/ 333 58014 69911;
0215827650999992004012700004-07333-047467FM-12+021299999V0209999C000010120019N0200001N1+02341+02271101511ADDAY101061AY201061GF108991061081008001021999KA1240M+03061MA1999999099091MD1999999+0131REMSYN100AAXX  27004 82765 21598 80000 10234 20227 39909 40151 76600 8682/ 333 10306 29093 55/// 58013 60071;EQDQ01+000662PRSWM1
0190827650999992004012712004-07333-047467FM-12+021299999V0209999C000010450019N0200001N1+02381+02291101631ADDAY161061AY261061GF106991041051008001021001KA1240N+02241MA1999999099201MD1999999+0041MW1001REMSYN088AAXX  27124 82765 21598 60000 10238 20229 39920 40163 70066 84520 333 20224 58004 60084;
0171827650999992004012718004-07333-047467FM-12+021299999V0203201N001510075019N0200001N1+02581+02371101281ADDAY161061AY221061GF106991051051008001021001MA1999999098861MD1999999-0011MW1001REMSYN082AAXX  27184 82765 21598 63203 10258 20237 39886 40128 70062 85520 333 59001 60111;
0202827650999992004012800004-07333-047467FM-12+021299999V0201601N001010075019N0200001N1+02581+02481101471ADDAY151061AY251061GF108991081071008001999999KA1240M+03041MA1999999099061MD1999999-0031MW1131REMSYN100AAXX  28004 82765 21598 81602 10258 20248 39906 40147 71355 887// 333 10304 29093 55/// 59003 69911;
0209827650999992004012812004-07333-047467FM-12+021299999V0203601N001510075019N9999999N1+02261+02211101881ADDAY191061AY261061GF108991081071008001999999KA1240N+02251MA1999999099451MD1999999+0251MW1551REMSYN088AAXX  28124 82765 21598 83603 10226 20221 39945 40188 75596 887// 333 20225 58025 60564;EQDQ01+200002VODIS 
0171827650999992004012818004-07333-047467FM-12+021299999V0209999C000010450019N0200001N1+02721+02451101311ADDAY161061AY261061GF106991041051008001021001MA1999999098901MD1999999+0041MW1001REMSYN082AAXX  28184 82765 21598 60000 10272 20245 39890 40131 70066 84520 333 58004 60031;
0202827650999992004012900004-07333-047467FM-12+021299999V0209999C000010075019N0200001N1+02521+02381101521ADDAY151061AY221061GF108991081071008001999999KA1240M+02801MA1999999099101MD1999999+0041MW1551REMSYN100AAXX  29004 82765 21598 80000 10252 20238 39910 40152 75552 887// 333 10280 29092 55/// 58004 69981;
0190827650999992004012912004-07333-047467FM-12+021299999V0201301N001010075019N0200001N1+02381+02291101721ADDAY161061AY261061GF108991061071008001021999KA1240N+02271MA1999999099301MD1999999-0151MW1031REMSYN088AAXX  29124 82765 21598 81302 10238 20229 39930 40172 70366 8672/ 333 20227 59015 60054;
0171827650999992004012918004-07333-047467FM-12+021299999V0202701N000510450019N0200001N1+02801+02271101261ADDAY161061AY261061GF105991041021008001061001MA1999999098861MD1999999-0041MW1001REMSYN082AAXX  29184 82765 21598 52701 10280 20227 39886 40126 70066 84260 333 59004 60031;
0198827650999992004013000004-07333-047467FM-12+021299999V0201401N001010075019N0200001N1+02461+02321101511ADDAA106000091GF107991051061008001021001KA1240M+02981MA1999999099091MD1999999-0011REMSYN088AAXX  30004 82765 32598 71402 10246 20232 39909 40151 85620 333 10298 29088 55/// 59001;EQDQ01  00002PRCP06
0162827650999992004013012004-07333-047467FM-12+021299999V0200501N000510120019N0200001N1+02461+02341101671ADDGF108991061081008001021999KA1240N+02271MA1999999099251MD1999999-0051REMSYN082AAXX  30124 82765 22598 80501 10246 20234 39925 40167 8682/ 333 20227 59005 60034;
0171827650999992004013018004-07333-047467FM-12+021299999V0203201N002112200019N0200001N1+02921+02321101261ADDAY161061AY251061GF104991021011008001041001MA1999999098871MD1999999+0011MW1001REMSYN082AAXX  30184 82765 21598 43204 10292 20232 39887 40126 70065 82140 333 58001 60031;
0198827650999992004013100004-07333-047467FM-12+021299999V0203201N001010450019N0200001N1+02641+02331101421ADDAA106000091GF106991041011008001041001KA1240M+03061MA1999999099021MD1999999-0071REMSYN088AAXX  31004 82765 32598 63202 10264 20233 39902 40142 84140 333 10306 29082 55/// 59007;EQDQ01  00002PRCP06
0162827650999992004013112004-07333-047467FM-12+021299999V0200501N000510120019N0200001N1+02481+02381101731ADDGF108991061081008001021999KA1240N+02391MA1999999099321MD1999999+0071REMSYN082AAXX  31124 82765 22598 80501 10248 20238 39932 40173 8682/ 333 20239 58007 60034;
0226827650999992004020100004-07333-047467FM-12+021299999V0203601N001010450019N0200001N1+02661+02521101521ADDAA106000091AY101061AY201061GF105991031021008001041001KA1240M+03141MA1999999099121MD1999999+0101MW1131REMSYN094AAXX  01004 82765 31598 53602 10266 20252 39912 40152 71300 83240 333 10314 29087 55/// 58010;EQDQ01  00002PRCP06
0190827650999992004020112004-07333-047467FM-12+021299999V0202301N001010042019N0200001N1+02481+02381101741ADDAY161061AY221061GF108991061071004501021999KA1240N+02361MA1999999099331MD1999999+0011MW1031REMSYN088AAXX  01124 82765 21498 82302 10248 20238 39933 40174 70362 8672/ 333 20236 58001 60064;
0171827650999992004020118004-07333-047467FM-12+021299999V0202901N002110450019N0200001N1+02561+02441101361ADDAY161061AY221061GF107991041031008001021001MA1999999098951MD1999999+0051MW1031REMSYN082AAXX  01184 82765 21598 72904 10256 20244 39895 40136 70362 84320 333 58005 60121;
0202827650999992004020200004-07333-047467FM-12+021299999V0200701N001010075019N0200001N1+02431+02331101511ADDAY161061AY221061GF108991051021008001011999KA1240M+03111MA1999999099091MD1999999-0031MW1001REMSYN100AAXX  02004 82765 21598 80702 10243 20233 39909 40151 70062 8521/ 333 10311 29094 55015 59003 69971;
0162827650999992004020212004-07333-047467FM-12+021299999V0200201N000510450019N0200001N1+02461+02341101601ADDGF107991041061008001061001KA1240N+02351MA1999999099181MD1999999-0151REMSYN082AAXX  02124 82765 22598 70201 10246 20234 39918 40160 84660 333 20235 59015 60134;
0171827650999992004020218004-07333-047467FM-12+021299999V0202701N001010450019N0200001N1+02801+02341101181ADDAY161061AY221061GF106991041031008001061041MA1999999098791MD1999999-0161MW1031REMSYN082AAXX  02184 82765 21598 62702 10280 20234 39879 40118 70362 84364 333 59016 69931;
0202827650999992004020300004-07333-047467FM-12+021299999V0200501N001510120019N0200001N1+02541+02401101391ADDAY151061AY251061GF107991051081008001041001KA1240M+03181MA1999999098981MD1999999-0111MW1001REMSYN100AAXX  03004 82765 21598 70503 10254 20240 39898 40139 70055 85840 333 10318 29088 55026 59011 69911;
0162827650999992004020312004-07333-047467FM-12+021299999V0203601N001010450019N0200001N1+02621+02421101531ADDGF106991041021008001031001KA1240N+02401MA1999999099131MD1999999-0051REMSYN082AAXX  03124 82765 22598 63602 10262 20242 39913 40153 84230 333 20240 59005 69944;
0171827650999992004020318004-07333-047467FM-12+021299999V0202301N001010042019N0200001N1+02461+02391101231ADDAY161061AY221061GF107991051071004501021001MA1999999098821MD1999999+0031MW1031REMSYN082AAXX  03184 82765 21498 72302 10246 20239 39882 40123 70362 85720 333 58003 60101;
0198827650999992004020400004-07333-047467FM-12+021299999V0202901N000510450019N0200001N1+02361+02281101361ADDAA106000091GF106991031011008001011001KA1240M+02841MA1999999098951MD1999999-0031REMSYN088AAXX  04004 82765 32598 62901 10236 20228 39895 40136 83110 333 10284 29094 55013 59003;EQDQ01  00002PRCP06
0166827650999992004020412004-07333-047467FM-12+021299999V0209999C000019999999N0200001N1+02441+02341101651ADDGF107991999999008001999999KA1240N+02271MA1999999099231MD1999999+0101REMSYN086AAXX  04124 82765 21598 70000 10244 20234 39923 401650066 85810 333 20227 58010 60104;
0171827650999992004020418004-07333-047467FM-12+021299999V0203201N001010450019N0200001N1+02801+02361101131ADDAY151061AY251061GF106991041081008001061001MA1999999098731MD1999999-0091MW1001REMSYN082AAXX  04184 82765 21598 63202 10280 20236 39873 40113 70055 84860 333 59009 69951;
0202827650999992004020500004-07333-047467FM-12+021299999V0200501N001510075019N0200001N1+02321+02201101531ADDAY191061AY261061GF108991061051008001021999KA1240M+03021MA1999999099141MD1999999+0191MW1531REMSYN100AAXX  05004 82765 21598 80503 10232 20220 39914 40153 75396 8652/ 333 10302 29089 55042 58019 60121;
0190827650999992004020512004-07333-047467FM-12+021299999V0203601N001510120019N0200001N1+02461+02281101611ADDAY161061AY261061GF107991071081008001001001KA1240N+02291MA1999999099191MD1999999-0041MW1001REMSYN088AAXX  05124 82765 21598 73603 10246 20228 39919 40161 70066 87800 333 20229 59004 60234;
0171827650999992004020518004-07333-047467FM-12+021299999V0203601N002110120019N0200001N1+02481+02341101301ADDAY161061AY261061GF108991061081008001011999MA1999999098881MD1999999+0151MW1501REMSYN082AAXX  05184 82765 21598 83604 10248 20234 39888 40130 75066 8681/ 333 58015 60161;
0179827650999992004020600004-07333-047467FM-12+021299999V0209999C000010120019N0200001N1+02521+02431101431ADDAA106000021GF108991061081008001021999KA1240M+02921MA1999999099021MD1999999-0121REMSYN088AAXX  06004 82765 32598 80000 10252 20243 39902 40143 8682/ 333 10292 29093 55018 59012;
0190827650999992004020612004-07333-047467FM-12+021299999V0209999C000010450019N0200001N1+02561+02361101541ADDAY161061AY261061GF106991041081008001061001KA1240N+02311MA1999999099131MD1999999-0061MW1001REMSYN088AAXX  06124 82765 21598 60000 10256 20236 39913 40154 70066 84860 333 20231 59006 60164;
0195827650999992004020618004-07333-047467FM-12+021299999V0200901N003110120019N0200001N1+03021+02391101071ADDAA106000091AY101061AY201061GF107991051081008001021001MA1999999098691MD1999999-0191MW1161REMSYN076AAXX  06184 82765 31598 70906 10302 20239 39869 40107 71600 85820 333 59019;EQDQ01  00002PRCP06
0202827650999992004020700004-07333-047467FM-12+021299999V0203601N001012200019N0200001N1+02461+02321101281ADDAY161061AY261061GF103991031081008001001001KA1240M+03241MA1999999098871MD1999999-0151MW1001REMSYN100AAXX  07004 82765 21598 33602 10246 20232 39887 40128 70066 83800 333 10324 29086 55062 59015 60151;
0190827650999992004020712004-07333-047467FM-12+021299999V0203601N002612200019N0200001N1+02601+02311101441ADDAY161061AY261061GF104991031081008001041001KA1240N+02311MA1999999099041MD1999999-0091MW1001REMSYN088AAXX  07124 82765 21598 43605 10260 20231 39904 40144 70066 83840 333 20231 59009 60154;
0171827650999992004020718004-07333-047467FM-12+021299999V0202701N002610021019N0010001N1+02491+02341101311ADDAY161061AY251061GF108991081071002501999999MA1999999098891MD1999999+0201MW1631REMSYN082AAXX  07184 82765 21394 82705 10249 20234 39889 40131 76365 887// 333 58020 60031;
0202827650999992004020800004-07333-047467FM-12+021299999V0209999C000010450019N0200001N1+02431+02351101441ADDAY161061AY221061GF107991041021008001061001KA1240M+02901MA1999999099031MD1999999+0161MW1021REMSYN100AAXX  08004 82765 21598 70000 10243 20235 39903 40144 70262 84260 333 10290 29092 55021 58016 60171;
0162827650999992004020812004-07333-047467FM-12+021299999V0200201N002610120019N0200001N1+02541+02291101691ADDGF107991051081008001041001KA1240N+02371MA1999999099271MD1999999-0241REMSYN082AAXX  08124 82765 22598 70205 10254 20229 39927 40169 85840 333 20237 59024 60204;
0171827650999992004020818004-07333-047467FM-12+021299999V0203601N001010450019N0200001N1+02641+02481101341ADDAY161061AY261061GF106991041081008001041001MA1999999098931MD1999999-0041MW1001REMSYN082AAXX  08184 82765 21598 63602 10264 20248 39893 40134 70066 84840 333 59004 60141;
0202827650999992004020900004-07333-047467FM-12+021299999V0209999C000010075019N0200001N1+02441+02421101631ADDAY151061AY251061GF108991061051008001021999KA1240M+03061MA1999999099221MD1999999+0191MW1511REMSYN100AAXX  09004 82765 21598 80000 10244 20242 39922 40163 75155 8652/ 333 10306 29094 55029 58019 69911;
0190827650999992004020912004-07333-047467FM-12+021299999V0200201N001010075019N0040001N1+02201+02171101961ADDAY161061AY261061GF108991061051008001021999KA1240N+02191MA1999999099521MD1999999+0251MW1631REMSYN088AAXX  09124 82765 21596 80202 10220 20217 39952 40196 76366 8652/ 333 20219 58025 61164;
0171827650999992004020918004-07333-047467FM-12+021299999V0200501N001010120019N0200001N1+02541+02381101551ADDAY161061AY261061GF108991061081008001021999MA1999999099111MD1999999+0181MW1001REMSYN082AAXX  09184 82765 21598 80502 10254 20238 39911 40155 70066 8682/ 333 58018 60191;
0198827650999992004021000004-07333-047467FM-12+021299999V0209999C000010120019N0200001N1+02441+02391101601ADDAA106000091GF108991061081008001021999KA1240M+02621MA1999999099171MD1999999-0051REMSYN088AAXX  10004 82765 32598 80000 10244 20239 39917 40160 8682/ 333 10262 29090 55000 59005;EQDQ01  00002PRCP06
0190827650999992004021012004-07333-047467FM-12+021299999V0209999C000010090019N0200001N1+02441+02341101621ADDAY151061AY221061GF107991061081004501031001KA1240N+02211MA1999999099201MD1999999-0321MW1031REMSYN088AAXX  10124 82765 21498 70000 10244 20234 39920 40162 70352 86830 333 20221 59032 60194;
0171827650999992004021018004-07333-047467FM-12+021299999V0200501N005110042019N0010001N1+03061+02451101341ADDAY191061AY261061GF108991081071004501999999MA1999999098951MD1999999-0161MW1631REMSYN082AAXX  10184 82765 21494 80510 10306 20245 39895 40134 76396 887// 333 59016 60191;
0190827650999992004021112004-07333-047467FM-12+021299999V0201401N001012200019N0200001N1+02471+02361101571ADDAY151061AY241061GF104991041021004501001001KA1240N+02251MA1999999099151MD1999999-0051MW1011REMSYN088AAXX  11124 82765 21498 41402 10247 20236 39915 40157 70154 84200 333 20225 59005 60324;
0167827650999992004021118004-07333-047467FM-12+021299999V0203201N001010450019N0200001N1+03061+02431101141ADDAA106000091GF105991031021008001041001MA1999999098751MD1999999-0201REMSYN070AAXX  11184 82765 32598 53202 10306 20243 39875 40114 83240 333 59020;EQDQ01  00002PRCP06
0212827650999992004021200004-07333-047467FM-12+021299999V0209999C000010024019N0100001N1+02611+02511101331ADDAY161061AY221061GA1091+999999999GF109991091999999999999999KA1240M+03191MA1999999098931MD1999999-0201MW1001REMSYN094AAXX  12004 82765 21/97 90000 10261 20251 39893 40133 70062 333 10319 29088 55067 59020 60181;
0162827650999992004021212004-07333-047467FM-12+021299999V0209999C000012200019N0200001N1+02651+02461101601ADDGF104991021011008001041011KA1240N+02401MA1999999099201MD1999999+0051REMSYN082AAXX  12124 82765 22598 40000 10265 20246 39920 40160 82141 333 20240 58005 60184;
0167827650999992004021218004-07333-047467FM-12+021299999V0200501N002610450019N0200001N1+03231+02171101321ADDAA106000091GF105991031021008001011041MA1999999098951MD1999999+0201REMSYN070AAXX  12184 82765 32598 50505 10323 20217 39895 40132 83214 333 58020;EQDQ01  00002PRCP06
0208827650999992004021300004-07333-047467FM-12+021299999V0209999C000010024019N0100001N1+02831+02541101491ADDAA106000091GA1091+999999999GF109991091999999999999999KA1240M+03331MA1999999099101MD1999999+0171REMSYN082AAXX  13004 82765 32/97 90000 10283 20254 39910 40149 333 10333 29078 55098 58017;EQDQ01  00002PRCP06
0186827650999992004021312004-07333-047467FM-12+021299999V0203601N000512200019N0200001N1+02581+02371101681ADDAA106000091GF104991041081008001001001KA1240N+02411MA1999999099281MD1999999+0081REMSYN076AAXX  13124 82765 32598 43601 10258 20237 39928 40168 84800 333 20241 58008;EQDQ01  00002PRCP06
0167827650999992004021318004-07333-047467FM-12+021299999V0200901N003112200019N0200001N1+03261+02301101181ADDAA106000091GF103991021081008001041001MA1999999098911MD1999999-0141REMSYN070AAXX  13184 82765 32598 30906 10326 20230 39891 40118 82840 333 59014;EQDQ01  00002PRCP06
0236827650999992004021400004-07333-047467FM-12+021299999V0200501N001512200019N0200001N1+02901+02521101291ADDAA106000091AY191061AY291061GA1001+999999999GF100991001001999999001001KA1240M+03401MA1999999098911MD1999999-0091MW1001REMSYN088AAXX  14004 82765 31998 00503 10290 20252 39891 40129 70099 333 10340 29076 55094 59009;EQDQ01  00002PRCP06
0190827650999992004021412004-07333-047467FM-12+021299999V0209999C000010450019N0200001N1+02661+02461101541ADDAY161061AY261061GF106991011081008001011001KA1240N+02551MA1999999099161MD1999999-0121MW1001REMSYN088AAXX  14124 82765 21598 60000 10266 20246 39916 40154 70066 81810 333 20255 59012 60014;
0167827650999992004021418004-07333-047467FM-12+021299999V0202701N002110450019N0200001N1+03281+02261101171ADDAA106000091GF106991041081008001051001MA1999999098811MD1999999+0001REMSYN070AAXX  14184 82765 32598 62704 10328 20226 39881 40117 84850 333 58000;EQDQ01  00002PRCP06
0208827650999992004021500004-07333-047467FM-12+021299999V0203201N001512200019N0200001N1+02881+02521101221ADDAA106000091GA1001+999999999GF100991001001999999001001KA1240M+03381MA1999999098851MD1999999-0061REMSYN082AAXX  15004 82765 32998 03203 10288 20252 39885 40122 333 10338 29077 55043 59006;EQDQ01  00002PRCP06
0190827650999992004021512004-07333-047467FM-12+021299999V0202701N001010450019N0200001N1+02601+02351101611ADDAY191061AY261061GF106991021081008001011001KA1240N+02331MA1999999099221MD1999999+0061MW1001REMSYN088AAXX  15124 82765 21598 62702 10260 20235 39922 40161 70096 82810 333 20233 58006 60024;
0171827650999992004021518004-07333-047467FM-12+021299999V0203601N001010120019N0200001N1+02701+02411101271ADDAY161061AY261061GF107991051081008001011001MA1999999098861MD1999999+0051MW1001REMSYN082AAXX  15184 82765 21598 73602 10270 20241 39886 40127 70066 85810 333 58005 60081;
0226827650999992004021600004-07333-047467FM-12+021299999V0209999C000010120019N0200001N1+02681+02481101461ADDAA106000091AY101061AY201061GF107991051081008001011001KA1240M+02941MA1999999099061MD1999999+0211MW1131REMSYN094AAXX  16004 82765 31598 70000 10268 20248 39906 40146 71300 85810 333 10294 29087 55042 58021;EQDQ01  00002PRCP06
0190827650999992004021612004-07333-047467FM-12+021299999V0209999C000010120019N0200001N1+02581+02421101661ADDAY151061AY251061GF108991061081008001021999KA1240N+02511MA1999999099261MD1999999+0041MW1001REMSYN088AAXX  16124 82765 21598 80000 10258 20242 39926 40166 70055 8682/ 333 20251 58004 60084;
0167827650999992004021618004-07333-047467FM-12+021299999V0201401N000510075019N0200001N1+02901+02411101291ADDAA106000091GF107991051021008001041001MA1999999098901MD1999999+0041REMSYN070AAXX  16184 82765 32598 71401 10290 20241 39890 40129 85240 333 58004;EQDQ01  00002PRCP06
0190827650999992004021712004-07333-047467FM-12+021299999V0201401N000510075019N0200001N1+02381+02291101851ADDAY161061AY221061GF108991071051008001021999KA1240N+02331MA1999999099431MD1999999+0171MW1001REMSYN088AAXX  17124 82765 21598 81401 10238 20229 39943 40185 70062 8752/ 333 20233 58017 60164;
0167827650999992004021718004-07333-047467FM-12+021299999V0201401N001010075019N0200001N1+02801+02361101381ADDAA106000091GF107991051021008001041001MA1999999098981MD1999999+0081REMSYN070AAXX  17184 82765 32598 71402 10280 20236 39898 40138 85240 333 58008;EQDQ01  00002PRCP06
0208827650999992004021800004-07333-047467FM-12+021299999V0209999C000012200019N0200001N1+02621+02531101591ADDAA106000091GA1001+999999999GF100991001001999999001001KA1240M+02921MA1999999099181MD1999999+0001REMSYN082AAXX  18004 82765 32998 00000 10262 20253 39918 40159 333 10292 29090 55000 58000;EQDQ01  00002PRCP06
0190827650999992004021812004-07333-047467FM-12+021299999V0201801N001010075019N0200001N1+02301+02251101751ADDAY161061AY261061GF107991051021008001041001KA1240N+02231MA1999999099331MD1999999-0101MW1001REMSYN088AAXX  18124 82765 21598 71802 10230 20225 39933 40175 70066 85240 333 20223 59010 60384;
0167827650999992004021818004-07333-047467FM-12+021299999V0200501N001510450019N0200001N1+02641+02391101251ADDAA106000091GF106991041081008001041001MA1999999099851MD1999999-0131REMSYN070AAXX  18184 82765 32598 60503 10264 20239 39985 40125 84840 333 59013;EQDQ01  00002PRCP06
0186827650999992004021912004-07333-047467FM-12+021299999V0201801N000512200019N0200001N1+02651+02391101471ADDAA106000091GF104991021031008001041041KA1240N+02341MA1999999099071MD1999999-0261REMSYN076AAXX  19124 82765 32598 41801 10265 20239 39907 40147 82344 333 20234 59026;EQDQ01  00002PRCP06
0171827650999992004021918004-07333-047467FM-12+021299999V0203601N001010450019N0200001N1+02421+02301101221ADDAY161061AY221061GF108991031071004501021999MA1999999098811MD1999999-0041MW1021REMSYN082AAXX  19184 82765 21498 83602 10242 20230 39881 40122 70262 8372/ 333 59004 60341;
0212827650999992004022000004-07333-047467FM-12+021299999V0209999C000010024019N0100001N1+02301+02271101371ADDAY161061AY251061GA1091+999999999GF109991091999999999999999KA1240M+03121MA1999999098961MD1999999-0081MW1001REMSYN094AAXX  20004 82765 21/97 90000 10230 20227 39896 40137 70065 333 10312 29094 55048 59008 69921;
0162827650999992004022012004-07333-047467FM-12+021299999V0209999C000010450019N0200001N1+02441+02281101591ADDGF105991031021008001041041KA1240N+02291MA1999999099161MD1999999+0091REMSYN082AAXX  20124 82765 22598 50000 10244 20228 39916 40159 83244 333 20229 58009 60344;
0167827650999992004022018004-07333-047467FM-12+021299999V0202301N002112200019N0200001N1+03061+02431101101ADDAA106000091GF104991021021008001041041MA1999999098711MD1999999-0101REMSYN070AAXX  20184 82765 32598 42304 10306 20243 39871 40110 82244 333 59010;EQDQ01  00002PRCP06
0236827650999992004022100004-07333-047467FM-12+021299999V0209999C000010024019N0100001N1+02851+02601101301ADDAA106000091AY121061AY211061GA1091+999999999GF109991091999999999999999KA1240M+03271MA1999999098911MD1999999-0051MW1131REMSYN088AAXX  21004 82765 31/97 90000 10285 20260 39891 40130 71321 333 10327 29084 55084 59005;EQDQ01  00002PRCP06
0186827650999992004022112004-07333-047467FM-12+021299999V0209999C000010450019N0200001N1+02621+02421101591ADDAA106000091GF106991031021008001031041KA1240N+02451MA1999999099201MD1999999+0041REMSYN076AAXX  21124 82765 32598 60000 10262 20242 39920 40159 83234 333 20245 58004;EQDQ01  00002PRCP06
0171827650999992004022118004-07333-047467FM-12+021299999V0203601N002610090019N0100001N1+02571+02401101201ADDAY191061AY261061GF108991051081004501021999MA1999999098801MD1999999+0091MW1501REMSYN082AAXX  21184 82765 21497 83605 10257 20240 39880 40120 75096 8582/ 333 58009 60141;
0212827650999992004022200004-07333-047467FM-12+021299999V0209999C000010024019N0100001N1+02541+02471101231ADDAY151061AY221061GA1091+999999999GF109991091999999999999999KA1240M+03211MA1999999099131MD1999999+0221MW1001REMSYN094AAXX  22004 82765 21/97 90000 10254 20247 39913 40123 70052 333 10321 29093 55059 58022 69911;
0209827650999992004022212004-07333-047467FM-12+021299999V0201401N001010450019N0200001N1+02381+02331101741ADDAY161061AY261061GF108991041081008001011999KA1240N+99999MA1999999099321MD1999999+0121MW1501REMSYN088AAXX  22124 82765 21598 81402 10238 20233 39932 40174 75066 8481/ 333 20249 58012 60264;EQDQ01 +02492ATMN  
0171827650999992004022218004-07333-047467FM-12+021299999V0201801N001510450019N0200001N1+02801+02421101331ADDAY161061AY261061GF106991041081008001061001MA1999999098931MD1999999+0131MW1001REMSYN082AAXX  22184 82765 21598 61803 10280 20242 39893 40133 70066 84860 333 58013 60271;
0226827650999992004022300004-07333-047467FM-12+021299999V0203401N002610075019N0200001N1+02561+02421101691ADDAA106000091AY191061AY291061GF108991081071008001999999KA1240M+02981MA1999999099271MD1999999+0141MW1031REMSYN094AAXX  23004 82765 31598 83405 10256 20242 39927 40169 70399 887// 333 10298 29090 55043 58014;EQDQ01  00002PRCP06
0190827650999992004022312004-07333-047467FM-12+021299999V0200201N001510450019N0100001N1+02481+02341101761ADDAY161061AY261061GF108991021081008001021999KA1240N+02351MA1999999099341MD1999999+0021MW1511REMSYN088AAXX  23124 82765 21597 80203 10248 20234 39934 40176 75166 8282/ 333 20235 58002 60274;
0171827650999992004022318004-07333-047467FM-12+021299999V0200201N001010450019N0200001N1+02561+02361101431ADDAY161061AY261061GF108991041081008001021999MA1999999099021MD1999999+0091MW1001REMSYN082AAXX  23184 82765 21598 80202 10256 20236 39902 40143 70066 8482/ 333 58009 60091;
0208827650999992004022400004-07333-047467FM-12+021299999V0209999C000010024019N0100001N1+02401+02351101571ADDAA106000091GA1091+999999999GF109991091999999999999999KA1240M+02621MA1999999099151MD1999999-0121REMSYN082AAXX  24004 82765 32/97 90000 10240 20235 39915 40157 333 10262 29094 55000 59012;EQDQ01  00002PRCP06
0190827650999992004022412004-07333-047467FM-12+021299999V0209999C000010450019N0200001N1+02501+02361101671ADDAY161061AY261061GF105991031081008001061001KA1240N+02251MA1999999099251MD1999999-0091MW1001REMSYN088AAXX  24124 82765 21598 50000 10250 20236 39925 40167 70066 83860 333 20225 59009 60094;
0195827650999992004022418004-07333-047467FM-12+021299999V0200201N005710450019N0200001N1+02901+02271101201ADDAA106000091AY191061AY291061GF107991031081008001021001MA1999999098811MD1999999-0211MW1161REMSYN076AAXX  24184 82765 31598 70211 10290 20227 39881 40120 71699 83820 333 59021;EQDQ01  00002PRCP06
0202827650999992004022500004-07333-047467FM-12+021299999V0202301N001510075019N0200001N1+02401+02311101571ADDAY191061AY261061GF108991081071008001999999KA1240M+03221MA1999999099151MD1999999+0001MW1501REMSYN100AAXX  25004 82765 21598 82303 10240 20231 39915 40157 75096 887// 333 10322 29088 55060 58000 60031;
0207827650999992004022512004-07333-047467FM-12+021299999V0201101N000510450019N0200001N1+02521+02341101681ADDAA124003091AY151061AY251061GF105991031021008001041001KA1240N+02331MA1999999099251MD1999999+0001MW1001REMSYN094AAXX  25124 82765 21598 51101 10252 20234 39925 40168 70055 83240 333 20233 58000 60034 10031;
0167827650999992004022518004-07333-047467FM-12+021299999V0201401N001510450019N0200001N1+03221+02341101141ADDAA106000091GF105991021021008001041001MA1999999098771MD1999999-0041REMSYN070AAXX  25184 82765 32598 51403 10322 20234 39877 40114 82240 333 59004;EQDQ01  00002PRCP06
0198827650999992004022600004-07333-047467FM-12+021299999V0200201N000512200019N0200001N1+02821+02561101431ADDAA106000091GF103991011011008001041001KA1240M+03321MA1999999099041MD1999999-0111REMSYN088AAXX  26004 82765 32598 30201 10282 20256 39904 40143 81140 333 10332 29080 55077 59011;EQDQ01  00002PRCP06
0190827650999992004022612004-07333-047467FM-12+021299999V0201101N001510120019N0200001N1+02461+02341101891ADDAY161061AY261061GF108991061081008001021999KA1240N+02271MA1999999099481MD1999999-0231MW1001REMSYN088AAXX  26124 82765 21598 81103 10246 20234 39948 40189 70066 8682/ 333 20227 59023 60344;
0171827650999992004022618004-07333-047467FM-12+021299999V0200201N003110450019N0200001N1+02621+02311101611ADDAY151061AY251061GF107991041021008001021001MA1999999099191MD1999999+0421MW1001REMSYN082AAXX  26184 82765 21598 70206 10262 20231 39919 40161 70055 84220 333 58042 69921;
0198827650999992004022700004-07333-047467FM-12+021299999V0209999C000010120019N0200001N1+02521+02381101791ADDAA106000091GF108991061081008001021999KA1240M+02891MA1999999099371MD1999999+0331REMSYN088AAXX  27004 82765 32598 80000 10252 20238 39937 40179 8682/ 333 10289 29090 55020 58033;EQDQ01  00002PRCP06
0190827650999992004022712004-07333-047467FM-12+021299999V0200501N001012200019N0200001N1+02561+02331101791ADDAY161061AY261061GF104991021011008001041001KA1240N+02351MA1999999099381MD1999999-0101MW1001REMSYN088AAXX  27124 82765 21598 40502 10256 20233 39938 40179 70066 82140 333 20235 59010 60144;
0167827650999992004022718004-07333-047467FM-12+021299999V0200501N002110450019N0200001N1+03221+02371101271ADDAA106000091GF105991031011008001041001MA1999999098891MD1999999-0301REMSYN070AAXX  27184 82765 32598 50504 10322 20237 39889 40127 83140 333 59030;EQDQ01  00002PRCP06
0198827650999992004022800004-07333-047467FM-12+021299999V0203601N001010450019N0200001N1+02741+02381101401ADDAA106000091GF105991031021008001061001KA1240M+03311MA1999999099011MD1999999-0361REMSYN088AAXX  28004 82765 32598 53602 10274 20238 39901 40140 83260 333 10331 29078 55081 59036;EQDQ01  00002PRCP06
0186827650999992004022812004-07333-047467FM-12+021299999V0203601N002610450019N0200001N1+02551+02311101531ADDAA106000091GF107991041081008001031001KA1240N+02461MA1999999099131MD1999999-0251REMSYN076AAXX  28124 82765 32598 73605 10255 20231 39913 40153 84830 333 20246 59025;EQDQ01  00002PRCP06
0167827650999992004022818004-07333-047467FM-12+021299999V0202701N001010450019N0200001N1+03161+02391101031ADDAA106000091GF106991041021008001041091MA1999999098661MD1999999-0231REMSYN070AAXX  28184 82765 32598 62702 10316 20239 39866 40103 84249 333 59023;EQDQ01  00002PRCP06
0186827650999992004022912004-07333-047467FM-12+021299999V0200501N001510450019N0200001N1+02541+02381101541ADDAA106000091GF106991041021008001031041KA1240N+02441MA1999999099151MD1999999+0021REMSYN076AAXX  29124 82765 32598 60503 10254 20238 39915 40154 84234 333 20244 58002;EQDQ01  00002PRCP06
0167827650999992004022918004-07333-047467FM-12+021299999V0200901N003110450019N0200001N1+03101+02441101151ADDAA106000091GF106991041031008001031001MA1999999098771MD1999999+0111REMSYN070AAXX  29184 82765 32598 60906 10310 20244 39877 40115 84330 333 58011;EQDQ01  00002PRCP06
0198827650999992004030100004-07333-047467FM-12+021299999V0209999C000010120019N0200001N1+02671+02481101421ADDAA106000091GF108991081081008001999999KA1240M+03201MA1999999099021MD1999999+0211REMSYN088AAXX  01004 82765 32598 80000 10267 20248 39902 40142 888// 333 10320 29085 55026 58021;EQDQ01  00002PRCP06
0186827650999992004030112004-07333-047467FM-12+021299999V0202301N001510450019N0200001N1+02721+02411101601ADDAA106000091GF106991041031008001041091KA1240N+02511MA1999999099211MD1999999+0061REMSYN076AAXX  01124 82765 32598 62303 10272 20241 39921 40160 84349 333 20251 58006;EQDQ01  00002PRCP06
0171827650999992004030118004-07333-047467FM-12+021299999V0209999C000010450019N0200001N1+02531+02381101341ADDAY161061AY221061GF107991041031008001021001MA1999999098931MD1999999+0161MW1031REMSYN082AAXX  01184 82765 21598 70000 10253 20238 39893 40134 70362 84320 333 58016 60151;
0198827650999992004030200004-07333-047467FM-12+021299999V0200501N001512200019N0200001N1+02561+02471101521ADDAA106000091GF103991011011008001041001KA1240M+03241MA1999999099121MD1999999+0101REMSYN088AAXX  02004 82765 32598 30503 10256 20247 39912 40152 81140 333 10324 29091 55042 58010;EQDQ01  00002PRCP06
0190827650999992004030212004-07333-047467FM-12+021299999V0201401N001010450019N0200001N1+02501+02411101631ADDAY161061AY221061GF108991031081008001021999KA1240N+02451MA1999999099221MD1999999+0011MW1031REMSYN088AAXX  02124 82765 21598 81402 10250 20241 39922 40163 70362 8382/ 333 20245 58001 60154;
0195827650999992004030218004-07333-047467FM-12+021299999V0200201N002110120019N0200001N1+03001+02491101261ADDAA106000091AY121061AY221061GF108991061081008001021999MA1999999098881MD1999999-0051MW1031REMSYN076AAXX  02184 82765 31598 80204 10300 20249 39888 40126 70322 8682/ 333 59005;EQDQ01  00002PRCP06
0202827650999992004030300004-07333-047467FM-12+021299999V0200901N001512200019N0200001N1+02481+02381101491ADDAY191061AY261061GF103991031081008001001001KA1240M+03081MA1999999099081MD1999999-0041MW1131REMSYN100AAXX  03004 82765 21598 30903 10248 20238 39908 40149 71396 83800 333 10308 29089 55010 59004 60041;
0190827650999992004030312004-07333-047467FM-12+021299999V0200901N001510120019N0200001N1+02441+02351101641ADDAY161061AY241061GF107991051081008001021001KA1240N+02291MA1999999099221MD1999999+0001MW1001REMSYN088AAXX  03124 82765 21598 70903 10244 20235 39922 40164 70064 85820 333 20229 58000 60044;
0167827650999992004030318004-07333-047467FM-12+021299999V0203601N001010450019N0200001N1+03181+02411101111ADDAA106000091GF106991041081008001051001MA1999999098731MD1999999-0151REMSYN070AAXX  03184 82765 32598 63602 10318 20241 39873 40111 84850 333 59015;EQDQ01  00002PRCP06
0198827650999992004030400004-07333-047467FM-12+021299999V0202701N001012200019N0200001N1+02721+02471101241ADDAA106000091GF104991041081008001001001KA1240M+03281MA1999999098851MD1999999-0231REMSYN088AAXX  04004 82765 32598 42702 10272 20247 39885 40124 84800 333 10328 29083 55062 59023;EQDQ01  00002PRCP06
0214827650999992004030412004-07333-047467FM-12+021299999V0201801N001510450019N0200001N1+02601+02371101591ADDAA106000091AY191061AY291061GF106991041081008001061001KA1240N+02431MA1999999099191MD1999999-0031MW1001REMSYN082AAXX  04124 82765 31598 61803 10260 20237 39919 40159 70099 84860 333 20243 59003;EQDQ01  00002PRCP06
0171827650999992004030418004-07333-047467FM-12+021299999V0203201N003110450019N0200001N1+02841+02381101201ADDAY191061AY261061GF106991021081008001051001MA1999999098811MD1999999+0081MW1001REMSYN082AAXX  04184 82765 21598 63206 10284 20238 39881 40120 70096 82850 333 58008 60031;
0198827650999992004030500004-07333-047467FM-12+021299999V0200901N001510450019N0200001N1+02521+02401101331ADDAA106000091GF108991021081008001011999KA1240M+03081MA1999999098931MD1999999+0081REMSYN088AAXX  05004 82765 32598 80903 10252 20240 39893 40133 8281/ 333 10308 29087 55060 58008;EQDQ01  00002PRCP06
0162827650999992004030512004-07333-047467FM-12+021299999V0201801N000512200019N0200001N1+02641+02441101621ADDGF104991021011008001041001KA1240N+02331MA1999999099221MD1999999+0031REMSYN082AAXX  05124 82765 22598 41801 10264 20244 39922 40162 82140 333 20233 58003 60034;
0158827650999992004030518004-07333-047467FM-12+021299999V0200501N001512200019N0200001N1+03021+02441101171ADDAA106000091GF104991999999008001999999MA1999999098791REMSYN075AAXX  05184 82765 31598 40503 10302 20244 39879 40117 7099 82240 333 59002;EQDQ01  00002PRCP06
0198827650999992004030600004-07333-047467FM-12+021299999V0200501N002612200019N0200001N1+02591+02351101431ADDAA106000091GF103991011021008001031091KA1240M+03151MA1999999099031MD1999999+0101REMSYN088AAXX  06004 82765 32598 30505 10259 20235 39903 40143 81239 333 10315 29084 55075 58010;EQDQ01  00002PRCP06
0186827650999992004030612004-07333-047467FM-12+021299999V0209999C000012200019N0200001N1+02641+02441101601ADDAA106000091GF104991021081008001051001KA1240N+02381MA1999999099201MD1999999-0021REMSYN076AAXX  06124 82765 32598 40000 10264 20244 39920 40160 82850 333 20238 59002;EQDQ01  00002PRCP06
0167827650999992004030618004-07333-047467FM-12+021299999V0202301N001510120019N0200001N1+03101+02561101151ADDAA106000091GF106991061081008001001001MA1999999098771MD1999999-0021REMSYN070AAXX  06184 82765 32598 62303 10310 20256 39877 40115 86800 333 59002;EQDQ01  00002PRCP06
0226827650999992004030700004-07333-047467FM-12+021299999V0209999C000010075019N0200001N1+02841+02601101391ADDAA106000091AY191061AY291061GF108991081021008001999999KA1240M+02841MA1999999099011MD1999999-0021MW1131REMSYN094AAXX  07004 82765 31598 80000 10284 20260 39901 40139 71399 882// 333 10284 29084 55075 59002;EQDQ01  00002PRCP06
0190827650999992004030712004-07333-047467FM-12+021299999V0201401N001510450019N0200001N1+02601+02371101741ADDAY151061AY251061GF106991041081008001041001KA1240N+02391MA1999999099341MD1999999+0141MW1001REMSYN088AAXX  07124 82765 21598 61403 10260 20237 39934 40174 70055 84840 333 20239 58014 69924;
0167827650999992004030718004-07333-047467FM-12+021299999V0201601N002610450019N0200001N1+03181+02411101201ADDAA106000091GF106991041021008001041001MA1999999098851MD1999999+0081REMSYN070AAXX  07184 82765 32598 61605 10318 20241 39885 40120 84240 333 58008;EQDQ01  00002PRCP06
0202827650999992004030800004-07333-047467FM-12+021299999V0200201N001510450019N0200001N1+02441+02341101531ADDAY191061AY261061GF106991041081008001041001KA1240M+03281MA1999999099121MD1999999+0111MW1131REMSYN100AAXX  08004 82765 21598 60203 10244 20234 39912 40153 71396 84840 333 10328 29085 55076 58011 60121;
0162827650999992004030812004-07333-047467FM-12+021299999V0201401N000510450019N0200001N1+02521+02381101741ADDGF107991041021008001011041KA1240N+02371MA1999999099321MD1999999-0021REMSYN082AAXX  08124 82765 22598 71401 10252 20238 39932 40174 84214 333 20237 59002 60124;
0167827650999992004030818004-07333-047467FM-12+021299999V0200501N003610075019N0200001N1+03181+02411101271ADDAA106000091GF107991051031008001021041MA1999999098901MD1999999+0051REMSYN070AAXX  08184 82765 32598 70507 10318 20241 39890 40127 85324 333 58005;EQDQ01  00002PRCP06
0202827650999992004030900004-07333-047467FM-12+021299999V0200501N001510450019N0200001N1+02741+02601101431ADDAY151061AY251061GF106991041021008001041001KA1240M+03261MA1999999099041MD1999999-0081MW1001REMSYN100AAXX  09004 82765 21598 60503 10274 20260 39904 40143 70055 84240 333 10326 29085 55076 59008 69981;
0162827650999992004030912004-07333-047467FM-12+021299999V0209999C000010450019N0200001N1+02671+02441101761ADDGF106991041081008001011041KA1240N+02491MA1999999099361MD1999999+0041REMSYN082AAXX  09124 82765 22598 60000 10267 20244 39936 40176 84814 333 20249 58004 69984;
0167827650999992004030918004-07333-047467FM-12+021299999V0201401N002110450019N0200001N1+03151+02381101371ADDAA106000091GF106991041021008001031041MA1999999099001MD1999999+0101REMSYN070AAXX  09184 82765 32598 61404 10315 20238 39900 40137 84234 333 58010;EQDQ01  00002PRCP06
0208827650999992004031000004-07333-047467FM-12+021299999V0200501N002112200019N0200001N1+02831+02501101491ADDAA106000091GA1001+999999999GF100991001001999999001001KA1240M+03271MA1999999099101MD1999999+0061REMSYN082AAXX  10004 82765 32998 00504 10283 20250 39910 40149 333 10327 29080 55081 58006;EQDQ01  00002PRCP06
0186827650999992004031012004-07333-047467FM-12+021299999V0203201N001010450019N0200001N1+02721+02391101801ADDAA106000091GF105991031021008001061041KA1240N+02341MA1999999099411MD1999999+0051REMSYN076AAXX  10124 82765 32598 53202 10272 20239 39941 40180 83264 333 20234 58005;EQDQ01  00002PRCP06
0167827650999992004031018004-07333-047467FM-12+021299999V0209999C000010450019N0200001N1+03051+02481101391ADDAA106000091GF105991031031008001021041MA1999999099011MD1999999+0011REMSYN070AAXX  10184 82765 32598 50000 10305 20248 39901 40139 83324 333 58001;EQDQ01  00002PRCP06
0208827650999992004031100004-07333-047467FM-12+021299999V0209999C000019999999N0200001N1+02831+02501101501ADDAA106000091GA1091+999999999GF109991091999999999999999KA1240M+03311MA1999999099121MD1999999+0021REMSYN082AAXX  11004 82765 32/98 90000 10283 20250 39912 40150 333 10331 29080 55077 58002;EQDQ01  00002PRCP06
0190827650999992004031112004-07333-047467FM-12+021299999V0209999C000010450019N0200001N1+02521+02381101601ADDAY161061AY261061GF106991041081008001011001KA1240N+02291MA1999999099201MD1999999-0211MW1001REMSYN088AAXX  11124 82765 21598 60000 10252 20238 39920 40160 70066 84810 333 20229 59021 60034;
0167827650999992004031118004-07333-047467FM-12+021299999V0200601N001510450019N0200001N1+03181+02441101141ADDAA106000091GF106991041081008001051001MA1999999098761MD1999999-0251REMSYN070AAXX  11184 82765 32598 60603 10318 20244 39876 40114 84850 333 59025;EQDQ01  00002PRCP06
0208827650999992004031200004-07333-047467FM-12+021299999V0209999C000012200019N0200001N1+02701+02501101271ADDAA106000091GA1001+999999999GF100991001001999999001001KA1240M+03261MA1999999098871MD1999999-0251REMSYN082AAXX  12004 82765 32998 00000 10270 20250 39887 40127 333 10326 29084 55047 59025;EQDQ01  00002PRCP06
0186827650999992004031212004-07333-047467FM-12+021299999V0203601N002112200019N0200001N1+02861+02441101401ADDAA106000091GF103991021081008001051001KA1240N+02491MA1999999099021MD1999999-0181REMSYN076AAXX  12124 82765 32598 33604 10286 20244 39902 40140 82850 333 20249 59018;EQDQ01  00002PRCP06
0171827650999992004031218004-07333-047467FM-12+021299999V0201601N002110450019N0200001N1+02841+02401101081ADDAY191061AY261061GF108991021081008001021001MA1999999098691MD1999999-0071MW1031REMSYN082AAXX  12184 82765 21598 81604 10284 20240 39869 40108 70396 82820 333 59007 60031;
0226827650999992004031300004-07333-047467FM-12+021299999V0209999C000010450019N0200001N1+02661+02521101231ADDAA106000091AY101061AY201061GF108991021031008001011999KA1240M+03281MA1999999098851MD1999999-0021MW1131REMSYN094AAXX  13004 82765 31598 80000 10266 20252 39885 40123 71300 8231/ 333 10328 29085 55059 59002;EQDQ01  00002PRCP06
0190827650999992004031312004-07333-047467FM-12+021299999V0201801N001510075019N0200001N1+02521+02431101621ADDAY191061AY261061GF108991081071008001999999KA1240N+02471MA1999999099221MD1999999+0201MW1131REMSYN088AAXX  13124 82765 21598 81803 10252 20243 39922 40162 71396 887// 333 20247 58020 60034;
0171827650999992004031318004-07333-047467FM-12+021299999V0202301N001510450019N0200001N1+02801+02461101201ADDAY161061AY261061GF106991031081008001051001MA1999999098811MD1999999+0121MW1001REMSYN082AAXX  13184 82765 21598 62303 10280 20246 39881 40120 70066 83850 333 58012 60041;
0236827650999992004031400004-07333-047467FM-12+021299999V0200201N001012200019N0200001N1+02741+02581101371ADDAA106000091AY101061AY201061GA1001+999999999GF100991001001999999001001KA1240M+03101MA1999999098981MD1999999+0131MW1131REMSYN088AAXX  14004 82765 31998 00202 10274 20258 39898 40137 71300 333 10310 29089 55041 58013;EQDQ01  00002PRCP06
0162827650999992004031412004-07333-047467FM-12+021299999V0201601N000510120019N0200001N1+02541+02401101641ADDGF107991051081008001041001KA1240N+02371MA1999999099241MD1999999+0021REMSYN082AAXX  14124 82765 22598 71601 10254 20240 39924 40164 85840 333 20237 58002 60044;
0171827650999992004031418004-07333-047467FM-12+021299999V0201801N001510120019N0200001N1+02681+02371101281ADDAY161061AY251061GF107991061081008001041001MA1999999098881MD1999999+0071MW1001REMSYN082AAXX  14184 82765 21598 71803 10268 20237 39888 40128 70065 86840 333 58007 60011;
0226827650999992004031500004-07333-047467FM-12+021299999V0209999C000010450019N0200001N1+02541+02441101441ADDAA106000091AY101061AY201061GF105991031021008001041001KA1240M+03181MA1999999099041MD1999999+0061MW1131REMSYN094AAXX  15004 82765 31598 50000 10254 20244 39904 40144 71300 83240 333 10318 29091 55029 58006;EQDQ01  00002PRCP06
0162827650999992004031512004-07333-047467FM-12+021299999V0201601N001510450019N0200001N1+02521+02381101571ADDGF106991041081008001041001KA1240N+02371MA1999999099161MD1999999-0081REMSYN082AAXX  15124 82765 22598 61603 10252 20238 39916 40157 84840 333 20237 59008 60014;
0171827650999992004031518004-07333-047467FM-12+021299999V0201801N001510075019N0200001N1+03061+02501101091ADDAY161061AY251061GF106991051021008001041001MA1999999098711MD1999999-0171MW1001REMSYN082AAXX  15184 82765 21598 61803 10306 20250 39871 40109 70065 85240 333 59017 60021;
0208827650999992004031600004-07333-047467FM-12+021299999V0209999C000012200019N0200001N1+02741+02631101311ADDAA106000091GA1001+999999999GF100991001001999999001001KA1240M+03141MA1999999098921MD1999999-0121REMSYN082AAXX  16004 82765 32998 00000 10274 20263 39892 40131 333 10314 29088 55069 59012;EQDQ01  00002PRCP06
0162827650999992004031612004-07333-047467FM-12+021299999V0200501N001510450019N0200001N1+02761+02381101421ADDGF106991031011008001041001KA1240N+02411MA1999999099031MD1999999-0131REMSYN082AAXX  16124 82765 22598 60503 10276 20238 39903 40142 83140 333 20241 59013 60024;
0171827650999992004031618004-07333-047467FM-12+021299999V0203601N000512200019N0200001N1+03181+02541100871ADDAY151061AY251061GF103991021011008001041001MA1999999098511MD1999999-0201MW1001REMSYN082AAXX  16184 82765 21598 33601 10318 20254 39851 40087 70055 82140 333 59020 69911;
0226827650999992004031700004-07333-047467FM-12+021299999V0203201N002110450019N0200001N1+02901+02581101221ADDAA106000091AY101061AY201061GF106991021031008001041001KA1240M+03341MA1999999098851MD1999999-0071MW1291REMSYN094AAXX  17004 82765 31598 63204 10290 20258 39885 40122 72900 82340 333 10334 29079 55091 59007;EQDQ01  00002PRCP06
0190827650999992004031712004-07333-047467FM-12+021299999V0200501N001010090019N0200001N1+02451+02281101441ADDAY161061AY221061GF108991051081004501011999KA1240N+02371MA1999999099051MD1999999+0021MW1031REMSYN088AAXX  17124 82765 21498 80502 10245 20228 39905 40144 70362 8581/ 333 20237 58002 60054;
0176827650999992004031718004-07333-047467FM-12+021299999V0203201N001010450019N0100001N1+03091+02491100981ADDAA106000021AY121061AY221061GF107991041031008001011001MA1999999098611MD1999999+0101MW1551REMSYN076AAXX  17184 82765 31597 73202 10309 20249 39861 40098 75522 84310 333 58010;
0212827650999992004031800004-07333-047467FM-12+021299999V0209999C000010024019N0100001N1+02581+02491101311ADDAY161061AY221061GA1091+999999999GF109991091999999999999999KA1240M+03161MA1999999098901MD1999999+0051MW1001REMSYN094AAXX  18004 82765 21/97 90000 10258 20249 39890 40131 70062 333 10316 29088 55029 58005 60011;
0190827650999992004031812004-07333-047467FM-12+021299999V0209999C000010042019N0100001N1+02341+02271101571ADDAY161061AY221061GF108991051071004501021999KA1240N+02251MA1999999099151MD1999999+0101MW1201REMSYN088AAXX  18124 82765 21497 80000 10234 20227 39915 40157 72062 8572/ 333 20225 58010 60234;
0171827650999992004031818004-07333-047467FM-12+021299999V0209999C000010450019N0200001N1+02871+02421101061ADDAY161061AY221061GF106991031021008001061041MA1999999098681MD1999999+0071MW1031REMSYN082AAXX  18184 82765 21598 60000 10287 20242 39868 40106 70362 83264 333 58007 60021;
0202827650999992004031900004-07333-047467FM-12+021299999V0203201N000510042019N0100001N1+02571+02421101361ADDAY161061AY221061GF108991081071004501999999KA1240M+03111MA1999999098951MD1999999+0051MW1631REMSYN100AAXX  19004 82765 21497 83201 10257 20242 39895 40136 76362 887// 333 10311 29089 55020 58005 60071;
0190827650999992004031912004-07333-047467FM-12+021299999V0209999C000010042019N0200001N1+02411+02351101551ADDAY161061AY221061GF108991051071004501021999KA1240N+02361MA1999999099141MD1999999-0011MW1011REMSYN088AAXX  19124 82765 21498 80000 10241 20235 39914 40155 70162 8572/ 333 20236 59001 60144;
0195827650999992004031918004-07333-047467FM-12+021299999V0203201N004110450019N0100001N1+03091+02521101051ADDAA106000091AY121061AY221061GF107991041021008001061001MA1999999098671MD1999999-0011MW1151REMSYN076AAXX  19184 82765 31597 73208 10309 20252 39867 40105 71522 84260 333 59001;EQDQ01  00002PRCP06
0208827650999992004032000004-07333-047467FM-12+021299999V0209999C000010024019N0100001N1+02711+02581101341ADDAA106000091GA1091+999999999GF109991091999999999999999KA1240M+03181MA1999999098951MD1999999+0001REMSYN082AAXX  20004 82765 32097 90000 10271 20258 39895 40134 333 10318 29089 55035 58000;EQDQ01  00002PRCP06
0190827650999992004032012004-07333-047467FM-12+021299999V0209999C000010450019N0200001N1+02461+02411101481ADDAY161061AY261061GF107991021081008001011001KA1240N+02291MA1999999099081MD1999999-0061MW1001REMSYN088AAXX  20124 82765 21598 70000 10246 20241 39908 40148 70066 82810 333 20229 59006 60154;
0167827650999992004032018004-07333-047467FM-12+021299999V0203201N000510450019N0200001N1+03141+02551100951ADDAA106000091GF105991031081008001071001MA1999999098571MD1999999-0101REMSYN070AAXX  20184 82765 32598 53201 10314 20255 39857 40095 83870 333 59010;EQDQ01  00002PRCP06
0202827650999992004032100004-07333-047467FM-12+021299999V0203601N003110075019N0200001N1+02361+02281101331ADDAY191061AY261061GF108991081071008001999999KA1240M+03221MA1999999098911MD1999999-0041MW1611REMSYN100AAXX  21004 82765 21598 83606 10236 20228 39891 40133 76196 887// 333 10322 29090 55030 59004 60031;
0190827650999992004032112004-07333-047467FM-12+021299999V0201801N001010450019N0200001N1+02541+02401101321ADDAY161061AY261061GF106991021081008001041001KA1240N+02351MA1999999098911MD1999999-0171MW1001REMSYN088AAXX  21124 82765 21598 61802 10254 20240 39891 40132 70066 82840 333 20235 59017 60094;
0190827650999992004032212004-07333-047467FM-12+021299999V0209999C000010450019N0200001N1+02681+02521101381ADDAY161061AY261061GF106991031081008001041001KA1240N+02491MA1999999098981MD1999999+0071MW1001REMSYN088AAXX  22124 82765 21598 60000 10268 20252 39898 40138 70066 83840 333 20249 58007 60114;
0167827650999992004032218004-07333-047467FM-12+021299999V0202701N001510450019N0200001N1+03221+02601100891ADDAA106000091GF106991041081008001021001MA1999999098531MD1999999-0151REMSYN070AAXX  22184 82765 32598 62703 10322 20260 39853 40089 84820 333 59015;EQDQ01  00002PRCP06
0212827650999992004032300004-07333-047467FM-12+021299999V0209999C000010024019N0100001N1+02541+02441101331ADDAY191061AY261061GA1091+999999999GF109991091999999999999999KA1240M+03281MA1999999098931MD1999999+0161MW1001REMSYN094AAXX  23004 82765 21/97 90000 10254 20244 39893 40133 70096 333 10328 29087 55027 58016 60161;
0190827650999992004032312004-07333-047467FM-12+021299999V0202701N001510120019N0200001N1+02541+02441101511ADDAY151061AY251061GF108991071081008001021999KA1240N+02491MA1999999099101MD1999999+0121MW1001REMSYN088AAXX  23124 82765 21598 82703 10254 20244 39910 40151 70055 8782/ 333 20249 58012 60164;
0167827650999992004032318004-07333-047467FM-12+021299999V0201801N001010120019N0200001N1+02721+02471101211ADDAA106000091GF108991061081008001021999MA1999999098821MD1999999+0291REMSYN070AAXX  23184 82765 32598 81802 10272 20247 39882 40121 8682/ 333 58029;EQDQ01  00002PRCP06
0198827650999992004032400004-07333-047467FM-12+021299999V0209999C000010120019N0200001N1+02521+02431101411ADDAA106000091GF108991071081008001021999KA1240M+03101MA1999999099011MD1999999+0081REMSYN088AAXX  24004 82765 32598 80000 10252 20243 39901 40141 8782/ 333 10310 29092 55024 58008;EQDQ01  00002PRCP06
0190827650999992004032412004-07333-047467FM-12+021299999V0200901N000510075019N0200001N1+02261+02231101701ADDAY161061AY221061GF108991071051008001021999KA1240N+02211MA1999999099271MD1999999+0171MW1511REMSYN088AAXX  24124 82765 21598 80901 10226 20223 39927 40170 75162 8752/ 333 20221 58017 60274;
0190827650999992004032512004-07333-047467FM-12+021299999V0203201N001010120019N0200001N1+02341+02221101501ADDAY161061AY261061GF108991071081008001021999KA1240N+02251MA1999999099091MD1999999-0181MW1001REMSYN088AAXX  25124 82765 21598 83202 10234 20222 39909 40150 70066 8782/ 333 20225 59018 60214;
0167827650999992004032518004-07333-047467FM-12+021299999V0203201N001510450019N0200001N1+02951+02431101091ADDAA106000091GF107991041021008001011091MA1999999098711MD1999999-0121REMSYN070AAXX  25184 82765 32598 73203 10295 20243 39871 40109 84219 333 59012;EQDQ01  00002PRCP06
0226827650999992004032600004-07333-047467FM-12+021299999V0209999C000012200019N0200001N1+02701+02591101331ADDAA106000091AY101061AY201061GF102991011011008001041001KA1240M+03061MA1999999098921MD1999999-0051MW1131REMSYN094AAXX  26004 82765 31598 20000 10270 20259 39892 40133 71300 81140 333 10306 29088 55021 59005;EQDQ01  00002PRCP06
0190827650999992004032612004-07333-047467FM-12+021299999V0203601N001010090019N0200001N1+02291+02201101511ADDAY161061AY221061GF108991051081004501021999KA1240N+02281MA1999999099101MD1999999+0011MW1031REMSYN088AAXX  26124 82765 21498 83602 10229 20220 39910 40151 70362 8582/ 333 20228 58001 60374;
0167827650999992004032618004-07333-047467FM-12+021299999V0200901N001010450019N0200001N1+02731+02281101201ADDAA106000091GF107991041021008001061001MA1999999098801MD1999999+0091REMSYN070AAXX  26184 82765 32598 70902 10273 20228 39880 40120 84260 333 58009;EQDQ01  00002PRCP06
0198827650999992004032700004-07333-047467FM-12+021299999V0201401N000512200019N0200001N1+02471+02361101231ADDAA106000091GF104991021021008001061001KA1240M+02821MA1999999098821MD1999999-0101REMSYN088AAXX  27004 82765 32598 41401 10247 20236 39882 40123 82260 333 10282 29090 55007 59010;EQDQ01  00002PRCP06
0234827650999992004032712004-07333-047467FM-12+021299999V0209999C000010012019N0020001N1+02411+02351101371ADDAA106000091AY141061AY221061GA1091+999999999GF109991091999999999999999KA1240N+02311MA1999999098961MD1999999-0141REMSYN076AAXX  27124 82765 31/95 90000 10241 20235 39896 40137 74942 333 20231 59014;EQDQ01+000492PRSWM1Q02  00002PRCP06
0167827650999992004032718004-07333-047467FM-12+021299999V0201401N003110450019N0200001N1+03071+02381100961ADDAA106000091GF106991041021008001061001MA1999999098581MD1999999-0221REMSYN070AAXX  27184 82765 32598 61406 10307 20238 39858 40096 84260 333 59022;EQDQ01  00002PRCP06
0212827650999992004032800004-07333-047467FM-12+021299999V0209999C000010024019N0100001N1+02531+02401101191ADDAY161061AY221061GA1091+999999999GF109991091999999999999999KA1240M+03221MA1999999098781MD1999999-0041MW1001REMSYN094AAXX  28004 82765 21/97 90000 10253 20240 39878 40119 70062 333 10322 29088 55042 59004 69991;
0162827650999992004032812004-07333-047467FM-12+021299999V0209999C000010075019N0200001N1+02551+02331101381ADDGF107991051011008001031041KA1240N+02431MA1999999098981MD1999999+0021REMSYN082AAXX  28124 82765 22598 70000 10255 20233 39898 40138 85134 333 20243 58002 69994;
0167827650999992004032818004-07333-047467FM-12+021299999V0202701N001010450019N0200001N1+02711+02371101081ADDAA106000091GF107991041021008001021041MA1999999098681MD1999999+0101REMSYN070AAXX  28184 82765 32598 72702 10271 20237 39868 40108 84224 333 58010;EQDQ01  00002PRCP06
0198827650999992004032900004-07333-047467FM-12+021299999V0203201N000510450019N0200001N1+02611+02391101311ADDAA106000091GF106991041021008001061001KA1240M+03151MA1999999098911MD1999999+0131REMSYN088AAXX  29004 82765 32598 63201 10261 20239 39891 40131 84260 333 10315 29086 55020 58013;EQDQ01  00002PRCP06
0190827650999992004032912004-07333-047467FM-12+021299999V0202301N001010450019N0200001N1+02421+02331101631ADDAY191061AY261061GF108991041081008001011999KA1240N+02351MA1999999099221MD1999999+0241MW1001REMSYN088AAXX  29124 82765 21598 82302 10242 20233 39922 40163 70096 8481/ 333 20235 58024 60164;
0167827650999992004032918004-07333-047467FM-12+021299999V0201801N001512200019N0200001N1+03121+02381101291ADDAA106000091GF103991021081008001051001MA1999999098911MD1999999+0231REMSYN070AAXX  29184 82765 32598 31803 10312 20238 39891 40129 82850 333 58023;EQDQ01  00002PRCP06
0208827650999992004033000004-07333-047467FM-12+021299999V0209999C000012200019N0200001N1+02781+02581101481ADDAA106000091GA1001+999999999GF100991001001999999001001KA1240M+03261MA1999999099081MD1999999+0171REMSYN082AAXX  30004 82765 32998 00000 10278 20258 39908 40148 333 10326 29085 55070 58017;EQDQ01  00002PRCP06
0186827650999992004033012004-07333-047467FM-12+021299999V0209999C000012200019N0200001N1+02601+02251101701ADDAA106000091GF101991011081008001001001KA1240N+02291MA1999999099301MD1999999+0081REMSYN076AAXX  30124 82765 32598 10000 10260 20225 39930 40170 81800 333 20229 58008;EQDQ01  00002PRCP06
0167827650999992004033018004-07333-047467FM-12+021299999V0201601N002112200019N0200001N1+03321+02231101291ADDAA106000091GF103991031081008001001001MA1999999098911MD1999999+0001REMSYN070AAXX  30184 82765 32598 31604 10332 20223 39891 40129 83800 333 58000;EQDQ01  00002PRCP06
0198827650999992004033100004-07333-047467FM-12+021299999V0203601N001012200019N0200001N1+02881+02501101521ADDAA106000091GF101991011011008001001001KA1240M+03421MA1999999099131MD1999999+0051REMSYN088AAXX  31004 82765 32598 13602 10288 20250 39913 40152 81100 333 10342 29075 55106 58005;EQDQ01  00002PRCP06
0186827650999992004033112004-07333-047467FM-12+021299999V0201801N001510450019N0200001N1+02601+02311101701ADDAA106000091GF106991041081008001051001KA1240N+02371MA1999999099311MD1999999+0011REMSYN076AAXX  31124 82765 32598 61803 10260 20231 39931 40170 84850 333 20237 58001;EQDQ01  00002PRCP06
0167827650999992004033118004-07333-047467FM-12+021299999V0201401N001010450019N0200001N1+03281+02481101261ADDAA106000091GF106991041081008001051001MA1999999098891MD1999999-0021REMSYN070AAXX  31184 82765 32598 61402 10328 20248 39889 40126 84850 333 59002;EQDQ01  00002PRCP06
0198827650999992004040100004-07333-047467FM-12+021299999V0200901N001010450019N0200001N1+02821+02561101421ADDAA106000091GF105991021081008001051001KA1240M+03421MA1999999099031MD1999999-0101REMSYN088AAXX  01004 82765 32598 50902 10282 20256 39903 40142 82850 333 10342 29080 55079 59010;EQDQ01  00002PRCP06
0186827650999992004040112004-07333-047467FM-12+021299999V0200501N000512200019N0200001N1+02841+02521101751ADDAA106000091GF102991021011008001001001KA1240N+02411MA1999999099371MD1999999+0061REMSYN076AAXX  01124 82765 32598 20501 10284 20252 39937 40175 82100 333 20241 58006;EQDQ01  00002PRCP06
0167827650999992004040118004-07333-047467FM-12+021299999V0201801N002112200019N0200001N1+03381+02551101161ADDAA106000091GF104991021021008001061001MA1999999098811MD1999999-0081REMSYN070AAXX  01184 82765 32598 41804 10338 20255 39881 40116 82260 333 59008;EQDQ01  00002PRCP06
0195827650999992004040218004-07333-047467FM-12+021299999V0203601N002110450019N0200001N1+03361+02451101151ADDAA106000091AY101061AY201061GF105991031031008001041001MA1999999098791MD1999999-0021MW1291REMSYN076AAXX  02184 82765 31598 53604 10336 20245 39879 40115 72900 83340 333 59002;EQDQ01  00002PRCP06
0198827650999992004040300004-07333-047467FM-12+021299999V0209999C000012200019N0200001N1+02641+02481101411ADDAA106000091GF103991021011008001001011KA1240M+03441MA1999999099031MD1999999+0021REMSYN088AAXX  03004 82765 32598 30000 10264 20248 39903 40141 82101 333 10344 29079 55090 58002;EQDQ01  00002PRCP06
0186827650999992004040512004-07333-047467FM-12+021299999V0203601N000510450019N0200001N1+02811+02401101651ADDAA106000091GF106991041021008001061001KA1240N+02481MA1999999099271MD1999999+0021REMSYN076AAXX  05124 82765 32598 63601 10281 20240 39927 40165 84260 333 20248 58002;EQDQ01  00002PRCP06
0171827650999992004040518004-07333-047467FM-12+021299999V0203201N001510450019N0200001N1+02771+02521101261ADDAY161061AY221061GF106991041031008001011081MA1999999098861MD1999999+0051MW1031REMSYN082AAXX  05184 82765 21598 63203 10277 20252 39886 40126 70362 84318 333 58005 60091;
0162827650999992004040612004-07333-047467FM-12+021299999V0200901N001010450019N0200001N1+02601+02461101651ADDGF107991041081008001011001KA1240N+02441MA1999999099251MD1999999+0001REMSYN082AAXX  06124 82765 22598 70902 10260 20246 39925 40165 84810 333 20244 58000 60094;
0167827650999992004040618004-07333-047467FM-12+021299999V0201801N001010450019N0200001N1+03021+02611101081ADDAA106000091GF106991041031008001061041MA1999999098711MD1999999-0151REMSYN070AAXX  06184 82765 32598 61802 10302 20261 39871 40108 84364 333 59015;EQDQ01  00002PRCP06
0226827650999992004040700004-07333-047467FM-12+021299999V0201401N002110450019N0200001N1+02701+02461101371ADDAA106000091AY121061AY211061GF108991041021008001021999KA1240M+03181MA1999999098981MD1999999-0041MW1291REMSYN094AAXX  07004 82765 31598 81404 10270 20246 39898 40137 72921 8422/ 333 10318 29086 55040 59004;EQDQ01  00002PRCP06
0167827650999992004040718004-07333-047467FM-12+021299999V0200501N001510450019N0200001N1+03001+02531101171ADDAA106000091GF106991041021008001041001MA1999999098781MD1999999+0071REMSYN070AAXX  07184 82765 32598 60503 10300 20253 39878 40117 84240 333 58007;EQDQ01  00002PRCP06
0199827650999992004040800004-07333-047467FM-12+021299999V0200901N001510120019N0200001N1+02701+02521101461ADDAA106000091GF106991061081008001001001KA1240M+03161MD1999999+0071REMSYN088AAXX  08004 82765 32598 60903 10270 20252 33990 40146 86800 333 10316 29088 55038 58007;EQDQ01+039901APOSP Q02  00002PRCP06
0186827650999992004040812004-07333-047467FM-12+021299999V0200501N000510450019N0200001N1+02601+02401101621ADDAA106000091GF105991031011008001041011KA1240N+02371MA1999999099221MD1999999-0011REMSYN076AAXX  08124 82765 32598 50501 10260 20240 39922 40162 83141 333 20237 59001;EQDQ01  00002PRCP06
0167827650999992004040818004-07333-047467FM-12+021299999V0201801N000510450019N0200001N1+03001+02491101261ADDAA106000091GF106991021021008001041011MA1999999098871MD1999999+0091REMSYN070AAXX  08184 82765 32598 61801 10300 20249 39887 40126 82241 333 58009;EQDQ01  00002PRCP06
0186827650999992004040912004-07333-047467FM-12+021299999V0200901N001010450019N0200001N1+02541+02291101681ADDAA106000091GF106991041021008001041001KA1240N+02371MA1999999099271MD1999999+0051REMSYN076AAXX  09124 82765 32598 60902 10254 20229 39927 40168 84240 333 20237 58005;EQDQ01  00002PRCP06
0167827650999992004040918004-07333-047467FM-12+021299999V0202301N002110075019N0200001N1+03101+02541101191ADDAA106000091GF107991051021008001041011MA1999999098821MD1999999-0051REMSYN070AAXX  09184 82765 32598 72304 10310 20254 39882 40119 85241 333 59005;EQDQ01  00002PRCP06
0198827650999992004041000004-07333-047467FM-12+021299999V0202301N000510450019N0200001N1+02621+02501101361ADDAA106000091GF108991041021008001041001KA1240M+03221MA1999999098961MD1999999+0201REMSYN088AAXX  10004 82765 32598 82301 10262 20250 39896 40136 84240 333 10322 29086 55054 58020;EQDQ01  00002PRCP06
0162827650999992004041012004-07333-047467FM-12+021299999V0200501N000510450019N0200001N1+02661+02481101401ADDGF107991041021008001041071KA1240N+02411MA1999999099001MD1999999-0271REMSYN082AAXX  10124 82765 22598 70501 10266 20248 39900 40140 84247 333 20241 59027 69924;
0195827650999992004041018004-07333-047467FM-12+021299999V0202301N000510450019N0200001N1+03061+02591100901ADDAA106000091AY101061AY201061GF106991021031008001041001MA1999999098531MD1999999-0291MW1291REMSYN076AAXX  10184 82765 31598 62301 10306 20259 39853 40090 72900 82340 333 59029;EQDQ01  00002PRCP06
0226827650999992004041100004-07333-047467FM-12+021299999V0209999C000012200019N0200001N1+02661+02571101031ADDAA106000091AY101061AY201061GF102991021011008001001001KA1240M+03141MA1999999098651MD1999999-0311MW1131REMSYN094AAXX  11004 82765 31598 20000 10266 20257 39865 40103 71300 82100 333 10314 29089 55032 59031;EQDQ01  00002PRCP06
0190827650999992004041112004-07333-047467FM-12+021299999V0202701N000510120019N0200001N1+02361+02311101301ADDAY161061AY261061GF108991061081008001021999KA1240N+02211MA1999999098891MD1999999-0111MW1001REMSYN088AAXX  11124 82765 21598 82701 10236 20231 39889 40130 70066 8682/ 333 20221 59011 60904;
0167827650999992004041118004-07333-047467FM-12+021299999V0202301N001010450019N0200001N1+02881+02481100871ADDAA106000091GF107991041021008001021001MA1999999098491MD1999999-0041REMSYN070AAXX  11184 82765 32598 72302 10288 20248 39849 40087 84220 333 59004;EQDQ01  00002PRCP06
0198827650999992004041200004-07333-047467FM-12+021299999V0209999C000010120019N0200001N1+02641+02541101101ADDAA106000091GF108991061081008001021999KA1240M+03001MA1999999098701MD1999999+0051REMSYN088AAXX  12004 82765 32598 80000 10264 20254 39870 40110 8682/ 333 10300 29091 55014 58005;EQDQ01  00002PRCP06
0190827650999992004041212004-07333-047467FM-12+021299999V0209999C000010120019N0200001N1+02361+02331101401ADDAY161061AY261061GF108991061081008001021999KA1240N+02251MA1999999098991MD1999999+0101MW1001REMSYN088AAXX  12124 82765 21598 80000 10236 20233 39899 40140 70066 8682/ 333 20225 58010 60084;
0167827650999992004041218004-07333-047467FM-12+021299999V0202701N001510075019N0200001N1+03001+02531100971ADDAA106000091GF107991051021008001041041MA1999999098601MD1999999+0111REMSYN070AAXX  12184 82765 32598 72703 10300 20253 39860 40097 85244 333 58011;EQDQ01  00002PRCP06
0198827650999992004041300004-07333-047467FM-12+021299999V0200901N000510120019N0200001N1+02641+02541101371ADDAA106000091GF108991061081008001021999KA1240M+03081MA1999999098961MD1999999+0261REMSYN088AAXX  13004 82765 32598 80901 10264 20254 39896 40137 8682/ 333 10308 29090 55018 58026;EQDQ01  00002PRCP06
0190827650999992004041312004-07333-047467FM-12+021299999V0201801N002610450019N0100001N1+02241+02171101691ADDAY161061AY221061GF108991041071004501021999KA1240N+02231MA1999999099271MD1999999+0281MW1011REMSYN088AAXX  13124 82765 21497 81805 10224 20217 39927 40169 70162 8472/ 333 20223 58028 60054;
0167827650999992004041318004-07333-047467FM-12+021299999V0200501N002610450019N0200001N1+03011+02371101231ADDAA106000091GF106991031021008001031091MA1999999098851MD1999999+0251REMSYN070AAXX  13184 82765 32598 60505 10301 20237 39885 40123 83239 333 58025;EQDQ01  00002PRCP06
0208827650999992004041400004-07333-047467FM-12+021299999V0209999C000010024019N0100001N1+02551+02421101501ADDAA106000091GA1091+999999999GF109991091999999999999999KA1240M+03121MA1999999099081MD1999999+0121REMSYN082AAXX  14004 82765 32/97 90000 10255 20242 39908 40150 333 10312 29088 55041 58012;EQDQ01  00002PRCP06
0186827650999992004041412004-07333-047467FM-12+021299999V0209999C000010450019N0200001N1+02631+02411101571ADDAA106000091GF106991041021008001031001KA1240N+02271MA1999999099171MD1999999-0101REMSYN076AAXX  14124 82765 32598 60000 10263 20241 39917 40157 84230 333 20227 59010;EQDQ01  00002PRCP06
0171827650999992004041418004-07333-047467FM-12+021299999V0201801N001510450019N0200001N1+02611+02401101221ADDAY161061AY221061GF106991031021008001021041MA1999999098811MD1999999-0041MW1031REMSYN082AAXX  14184 82765 21598 61803 10261 20240 39881 40122 70362 83224 333 59004 60131;
0198827650999992004041500004-07333-047467FM-12+021299999V0200501N000510120019N0200001N1+02571+02461101431ADDAA106000091GF108991081081008001999999KA1240M+03211MA1999999099031MD1999999-0051REMSYN088AAXX  15004 82765 32598 80501 10257 20246 39903 40143 888// 333 10321 29091 55055 59005;EQDQ01  00002PRCP06
0162827650999992004041512004-07333-047467FM-12+021299999V0200501N001010450019N0200001N1+02541+02451101571ADDGF105991041021008001031001KA1240N+02411MA1999999099161MD1999999-0011REMSYN082AAXX  15124 82765 22598 50502 10254 20245 39916 40157 84230 333 20241 59001 60134;
0167827650999992004041518004-07333-047467FM-12+021299999V0209999C000011050019N0200001N1+03131+02531101061ADDAA106000091GF105991021021008001061041MA1999999098691MD1999999-0121REMSYN070AAXX  15184 82765 32598 50000 10313 20253 39869 40106 82264 333 59012;EQDQ01  00002PRCP06
0186827650999992004041612004-07333-047467FM-12+021299999V0209999C000010450019N0200001N1+02641+02391101611ADDAA106000091GF105991021081008001041001KA1240N+02371MA1999999099201MD1999999+0041REMSYN076AAXX  16124 82765 32598 50000 10264 20239 39920 40161 82840 333 20237 58004;EQDQ01  00002PRCP06
0167827650999992004041618004-07333-047467FM-12+021299999V0200901N000510450019N0200001N1+03121+02511101201ADDAA106000091GF106991041081008001051001MA1999999098821MD1999999+0231REMSYN070AAXX  16184 82765 32598 60901 10312 20251 39882 40120 84850 333 58023;EQDQ01  00002PRCP06
0186827650999992004041912004-07333-047467FM-12+021299999V0201401N000512200019N0200001N1+02701+02451101601ADDAA106000091GF102991021011008001001001KA1240N+02351MA1999999099221MD1999999-0061REMSYN076AAXX  19124 82765 32598 21401 10270 20245 39922 40160 82100 333 20235 59006;EQDQ01  00002PRCP06
0167827650999992004041918004-07333-047467FM-12+021299999V0200901N000512200019N0200001N1+03261+02381101171ADDAA106000091GF102991021011008001001001MA1999999098811MD1999999-0071REMSYN070AAXX  19184 82765 32598 20901 10326 20238 39881 40117 82100 333 59007;EQDQ01  00002PRCP06
0208827650999992004042000004-07333-047467FM-12+021299999V0200501N000512200019N0200001N1+02861+02541101281ADDAA106000091GA1001+999999999GF100991001001999999001001KA1240M+03281MA1999999098901MD1999999-0101REMSYN082AAXX  20004 82765 32998 00501 10286 20254 39890 40128 333 10328 29078 55109 59010;EQDQ01  00002PRCP06
0186827650999992004042012004-07333-047467FM-12+021299999V0201801N000510450019N0200001N1+02641+02481101621ADDAA106000091GF106991021011008001041001KA1240N+02431MA1999999099221MD1999999+0001REMSYN076AAXX  20124 82765 32598 61801 10264 20248 39922 40162 82140 333 20243 58000;EQDQ01  00002PRCP06
0167827650999992004042018004-07333-047467FM-12+021299999V0200901N002610450019N0200001N1+03321+02261101111ADDAA106000091GF106991031011008001041001MA1999999098751MD1999999-0061REMSYN070AAXX  20184 82765 32598 60905 10332 20226 39875 40111 83140 333 59006;EQDQ01  00002PRCP06
0186827650999992004042112004-07333-047467FM-12+021299999V0200901N000510450019N0200001N1+02521+02341101521ADDAA106000091GF107991021011008001041001KA1240N+02371MA1999999099131MD1999999-0091REMSYN076AAXX  21124 82765 32598 70901 10252 20234 39913 40152 82140 333 20237 59009;EQDQ01  00002PRCP06
0167827650999992004042118004-07333-047467FM-12+021299999V0200901N003110450019N0200001N1+03121+02281101241ADDAA106000091GF107991021011008001011001MA1999999098861MD1999999+0211REMSYN070AAXX  21184 82765 32598 70906 10312 20228 39886 40124 82110 333 58021;EQDQ01  00002PRCP06
0186827650999992004042212004-07333-047467FM-12+021299999V0200901N001011050019N0200001N1+02431+02191101531ADDAA106000091GF105991021011012501061041KA1240N+02151MA1999999099121MD1999999-0011REMSYN076AAXX  22124 82765 32698 50902 10243 20219 39912 40153 82164 333 20215 59001;EQDQ01  00002PRCP06
0167827650999992004042218004-07333-047467FM-12+021299999V0201401N002612200019N0200001N1+03281+02321101081ADDAA106000091GF104991021011008001061041MA1999999098701MD1999999-0161REMSYN070AAXX  22184 82765 32598 41405 10328 20232 39870 40108 82164 333 59016;EQDQ01  00002PRCP06
0208827650999992004042300004-07333-047467FM-12+021299999V0209999C000019999999N0200001N1+02891+02521101191ADDAA106000091GA1091+999999999GF109991091999999999999999KA1240M+03381MA1999999098801MD1999999-0201REMSYN082AAXX  23004 82765 32/98 90000 10289 20252 39880 40119 333 10338 29076 55101 59020;EQDQ01  00002PRCP06
0236827650999992004042400004-07333-047467FM-12+021299999V0209999C000019999999N0200001N1+02901+02581101081ADDAA106000091AY111061AY211061GA1091+999999999GF109991091999999999999999KA1240M+03391MA1999999098721MD1999999-0081MW1131REMSYN088AAXX  24004 82765 31/98 90000 10290 20258 39872 40108 71311 333 10339 29074 55093 59008;EQDQ01  00002PRCP06
0186827650999992004042412004-07333-047467FM-12+021299999V0202301N000510450019N0200001N1+02631+02411101261ADDAA106000091GF107991041011008001061001KA1240N+02421MA1999999098881MD1999999-0171REMSYN076AAXX  24124 82765 32598 72301 10263 20241 39888 40126 84160 333 20242 59017;EQDQ01  00002PRCP06
0167827650999992004042418004-07333-047467FM-12+021299999V0201801N002110450019N0200001N1+03161+02341101021ADDAA106000091GF107991041021008001011001MA1999999098651MD1999999+0021REMSYN070AAXX  24184 82765 32598 71804 10316 20234 39865 40102 84210 333 58002;EQDQ01  00002PRCP06
0208827650999992004042500004-07333-047467FM-12+021299999V0200501N000512200019N0200001N1+02701+02451101111ADDAA106000091GA1001+999999999GF100991001001999999001001KA1240M+03241MA1999999098741MD1999999-0061REMSYN082AAXX  25004 82765 32998 00501 10270 20245 39874 40111 333 10324 29081 55066 59006;EQDQ01  00002PRCP06
0186827650999992004042512004-07333-047467FM-12+021299999V0200501N001010450019N0200001N1+02701+02451101561ADDAA106000091GF107991041081008001021001KA1240N+02411MA1999999099171MD1999999+0291REMSYN076AAXX  25124 82765 32598 70502 10270 20245 39917 40156 84820 333 20241 58029;EQDQ01  00002PRCP06
0167827650999992004042518004-07333-047467FM-12+021299999V0200501N001010450019N0200001N1+03121+02381101171ADDAA106000091GF106991031011008001021001MA1999999098791MD1999999+0141REMSYN070AAXX  25184 82765 32598 60502 10312 20238 39879 40117 83120 333 58014;EQDQ01  00002PRCP06
0208827650999992004042600004-07333-047467FM-12+021299999V0209999C000012200019N0200001N1+02701+02451101451ADDAA106000091GA1001+999999999GF100991001001999999001001KA1240M+03281MA1999999099061MD1999999+0321REMSYN082AAXX  26004 82765 32998 00000 10270 20245 39906 40145 333 10328 29081 55075 58032;EQDQ01  00002PRCP06
0186827650999992004042612004-07333-047467FM-12+021299999V0203401N001012200019N0200001N1+02621+02371101671ADDAA106000091GF104991021021008001031001KA1240N+02471MA1999999099271MD1999999+0101REMSYN076AAXX  26124 82765 32598 43402 10262 20237 39927 40167 82230 333 20247 58010;EQDQ01  00002PRCP06
0195827650999992004042618004-07333-047467FM-12+021299999V0201801N001010450019N0200001N1+03201+02411101181ADDAA106000091AY101061AY201061GF107991021031008001021001MA1999999098811MD1999999+0021MW1291REMSYN076AAXX  26184 82765 31598 71802 10320 20241 39881 40118 72900 82320 333 58002;EQDQ01  00002PRCP06
0208827650999992004042700004-07333-047467FM-12+021299999V0200901N001019999999N0200001N1+02541+02401101671ADDAA106000091GA1091+999999999GF109991091999999999999999KA1240M+03301MA1999999099261MD1999999+0201REMSYN082AAXX  27004 82765 32/98 90902 10254 20240 39926 40167 333 10330 29083 55042 58020;EQDQ01  00002PRCP06
0190827650999992004042712004-07333-047467FM-12+021299999V0201801N001510450019N0200001N1+02481+02411101881ADDAY161061AY261061GF107991021081008001021001KA1240N+02381MA1999999099461MD1999999+0191MW1001REMSYN088AAXX  27124 82765 21598 71803 10248 20241 39946 40188 70066 82820 333 20238 58019 60054;
0167827650999992004042718004-07333-047467FM-12+021299999V0202701N002610450019N0200001N1+02961+02401101441ADDAA106000091GF106991031031008001041001MA1999999099051MD1999999+0241REMSYN070AAXX  27184 82765 32598 62705 10296 20240 39905 40144 83340 333 58024;EQDQ01  00002PRCP06
0202827650999992004042800004-07333-047467FM-12+021299999V0200201N002610075019N0200001N1+02281+02201101891ADDAY191061AY261061GF108991081071008001999999KA1240M+03041MA1999999099461MD1999999+0201MW1131REMSYN100AAXX  28004 82765 21598 80205 10228 20220 39946 40189 71396 887// 333 10304 29090 55036 58020 60091;
0167827650999992004042818004-07333-047467FM-12+021299999V0201801N000510450019N0200001N1+03081+02441101341ADDAA106000091GF106991031021008001041001MA1999999098941MD1999999-0111REMSYN070AAXX  28184 82765 32598 61801 10308 20244 39894 40134 83240 333 59011;EQDQ01  00002PRCP06
0198827650999992004042900004-07333-047467FM-12+021299999V0200501N001010450019N0200001N1+02821+02521101621ADDAA106000091GF106991041081008001041001KA1240M+03261MA1999999099221MD1999999-0241REMSYN088AAXX  29004 82765 32598 60502 10282 20252 39922 40162 84840 333 10326 29081 55096 59024;EQDQ01  00002PRCP06
0190827650999992004042912004-07333-047467FM-12+021299999V0200501N002110450019N0200001N1+02761+02481101721ADDAY191061AY261061GF105991031021008001041001KA1240N+02411MA1999999099331MD1999999-0071MW1001REMSYN088AAXX  29124 82765 21598 50504 10276 20248 39933 40172 70096 83240 333 20241 59007 60094;
0195827650999992004042918004-07333-047467FM-12+021299999V0200501N004110450019N0200001N1+03001+02391101271ADDAA106000091AY101061AY201061GF106991021031008001041001MA1999999098881MD1999999-0061MW1291REMSYN076AAXX  29184 82765 31598 60508 10300 20239 39888 40127 72900 82340 333 59006;EQDQ01  00002PRCP06
0202827650999992004043000004-07333-047467FM-12+021299999V0203601N000510450019N0200001N1+02561+02421101531ADDAY161061AY251061GF106991041081008001021001KA1240M+03201MA1999999099131MD1999999-0091MW1131REMSYN100AAXX  30004 82765 21598 63601 10256 20242 39913 40153 71365 84820 333 10320 29085 55073 59009 60011;
0181827650999992004043012004-07333-047467FM-12+021299999V0201801N001010120019N0200001N1+02561+02381101751ADDGF106991051081008001021001KA1240N+02431MA1999999999999MD1999999+0011REMSYN082AAXX  30124 82765 22598 61802 10256 20238 39234 40175 85820 333 20243 58001 60014;EQDQ01 092343APOSP 
0183827650999992004043018004-07333-047467FM-12+021299999V0202301N002110450019N0200001N1+02921+02561101191ADDAA106000091GF105991021021008001041001MA1999999098802MD1999999-0081REMSYN070AAXX  30184 82765 32598 52304 10292 20256 39880 40119 82240 333 59008;EQDQ01+098803APOSP Q02  00002PRCP06
0198827650999992004050100004-07333-047467FM-12+021299999V0200501N000512200019N0200001N1+02641+02351101361ADDAA106000091GF104991021021008001041001KA1240M+03041MA1999999098961MD1999999-0171REMSYN088AAXX  01004 82765 32598 40501 10264 20235 39896 40136 82240 333 10304 29085 55041 59017;EQDQ01  00002PRCP06
0186827650999992004050112004-07333-047467FM-12+021299999V0200501N001012200019N0200001N1+02731+02431101491ADDAA106000091GF102991021001017501061001KA1240N+02441MA1999999099101MD1999999-0241REMSYN076AAXX  01124 82765 32798 20502 10273 20243 39910 40149 82060 333 20244 59024;EQDQ01  00002PRCP06
0167827650999992004050118004-07333-047467FM-12+021299999V0201401N002112200019N0200001N1+03231+02261100991ADDAA106000091GF103991031011008001001001MA1999999098631MD1999999-0171REMSYN070AAXX  01184 82765 32598 31404 10323 20226 39863 40099 83100 333 59017;EQDQ01  00002PRCP06
0198827650999992004050200004-07333-047467FM-12+021299999V0200501N001012200019N0200001N1+02701+02351101231ADDAA106000091GF101991011011012501001001KA1240M+03381MA1999999098851MD1999999-0111REMSYN088AAXX  02004 82765 32698 10502 10270 20235 39885 40123 81100 333 10338 29076 55107 59011;EQDQ01  00002PRCP06
0202827650999992004050212004-07333-047467FM-12+021299999V0201401N000512200019N0200001N1+02671+02311101521ADDAA106000091GF102991001001999999001041KA1240N+02281MA1999999099131MD1999999+0031REMSYN076AAXX  02124 82765 32998 21401 10267 20231 39913 40152 82004 333 20228 58003;EQDQ01+000022SCOTLCQ02  00002PRCP06
0167827650999992004050218004-07333-047467FM-12+021299999V0200901N002612200019N0200001N1+03261+02111101181ADDAA106000091GF104991031021008001061001MA1999999098811MD1999999+0181REMSYN070AAXX  02184 82765 32598 40905 10326 20211 39881 40118 83260 333 58018;EQDQ01  00002PRCP06
0198827650999992004050300004-07333-047467FM-12+021299999V0200501N001012200019N0200001N1+02801+02441101361ADDAA106000091GF101991011011008001001001KA1240M+03401MA1999999098981MD1999999+0131REMSYN088AAXX  03004 82765 32598 10502 10280 20244 39898 40136 81100 333 10340 29074 55110 58013;EQDQ01  00002PRCP06
0186827650999992004050312004-07333-047467FM-12+021299999V0200901N001512200019N0200001N1+02651+02231101591ADDAA106000091GF103991021001017501041041KA1240N+02271MA1999999099201MD1999999+0071REMSYN076AAXX  03124 82765 32798 30903 10265 20223 39920 40159 82044 333 20227 58007;EQDQ01  00002PRCP06
0167827650999992004050318004-07333-047467FM-12+021299999V0200901N001512200019N0200001N1+03211+02181101241ADDAA106000091GF104991021011008001041041MA1999999098861MD1999999+0051REMSYN070AAXX  03184 82765 32598 40903 10321 20218 39886 40124 82144 333 58005;EQDQ01  00002PRCP06
0198827650999992004050400004-07333-047467FM-12+021299999V0200501N001012200019N0200001N1+02661+02331101441ADDAA106000091GF102991021011008001001001KA1240M+03301MA1999999099031MD1999999+0051REMSYN088AAXX  04004 82765 32598 20502 10266 20233 39903 40144 82100 333 10330 29074 55109 58005;EQDQ01  00002PRCP06
0186827650999992004050412004-07333-047467FM-12+021299999V0209999C000012200019N0200001N1+02441+02111101711ADDAA106000091GF101991011001008001041001KA1240N+02091MA1999999099301MD1999999+0301REMSYN076AAXX  04124 82765 32598 10000 10244 20211 39930 40171 81040 333 20209 58030;EQDQ01  00002PRCP06
0198827650999992004050500004-07333-047467FM-12+021299999V0200501N000512200019N0200001N1+02661+02351101451ADDAA106000091GF103991031001008001041001KA1240M+03281MA1999999099051MD1999999+0021REMSYN088AAXX  05004 82765 32598 30501 10266 20235 39905 40145 83040 333 10328 29075 55106 58002;EQDQ01  00002PRCP06
0186827650999992004050512004-07333-047467FM-12+021299999V0201401N001510450019N0200001N1+02481+02151101751ADDAA106000091GF106991031011008001041001KA1240N+02101MA1999999099341MD1999999+0041REMSYN076AAXX  05124 82765 32598 61403 10248 20215 39934 40175 83140 333 20210 58004;EQDQ01  00002PRCP06
0167827650999992004050518004-07333-047467FM-12+021299999V0201401N002110450019N0200001N1+03201+02121101261ADDAA106000091GF106991021021008001041001MA1999999098871MD1999999+0001REMSYN070AAXX  05184 82765 32598 61404 10320 20212 39887 40126 82240 333 58000;EQDQ01  00002PRCP06
0198827650999992004050600004-07333-047467FM-12+021299999V0200501N000510450019N0200001N1+02901+02561101461ADDAA106000091GF108991041051008001031999KA1240M+03341MA1999999099071MD1999999+0021REMSYN088AAXX  06004 82765 32598 80501 10290 20256 39907 40146 8453/ 333 10334 29075 55077 58002;EQDQ01  00002PRCP06
0186827650999992004050612004-07333-047467FM-12+021299999V0201801N001010450019N0200001N1+02741+02431101621ADDAA106000091GF105991031011008001041001KA1240N+02571MA1999999099241MD1999999-0101REMSYN076AAXX  06124 82765 32598 51802 10274 20243 39924 40162 83140 333 20257 59010;EQDQ01  00002PRCP06
0167827650999992004050618004-07333-047467FM-12+021299999V0201801N001010450019N0200001N1+03221+02431101271ADDAA106000091GF107991041021008001041001MA1999999098901MD1999999+0031REMSYN070AAXX  06184 82765 32598 71802 10322 20243 39890 40127 84240 333 58003;EQDQ01  00002PRCP06
0198827650999992004050700004-07333-047467FM-12+021299999V0200501N000510075019N0200001N1+02881+02521101501ADDAA106000091GF108991051041008001041999KA1240M+03321MA1999999099121MD1999999+0051REMSYN088AAXX  07004 82765 32598 80501 10288 20252 39912 40150 8544/ 333 10332 29077 55016 58005;EQDQ01  00002PRCP06
0190827650999992004050712004-07333-047467FM-12+021299999V0202701N000512200019N0200001N1+02741+02481101751ADDAY161061AY261061GF104991031011008001041001KA1240N+02431MA1999999099361MD1999999+0121MW1001REMSYN088AAXX  07124 82765 21598 42701 10274 20248 39936 40175 70066 83140 333 20243 58012 60044;
0167827650999992004050718004-07333-047467FM-12+021299999V0201401N002110450019N0200001N1+03321+02351101321ADDAA106000091GF105991031021008001041001MA1999999098951MD1999999+0051REMSYN070AAXX  07184 82765 32598 51404 10332 20235 39895 40132 83240 333 58005;EQDQ01  00002PRCP06
0198827650999992004050800004-07333-047467FM-12+021299999V0200501N000510450019N0200001N1+02861+02501101631ADDAA106000091GF105991031021008001041001KA1240M+03401MA1999999099151MD1999999+0031REMSYN088AAXX  08004 82765 32598 50501 10286 20250 39915 40163 83240 333 10340 29076 55088 58003;EQDQ01  00002PRCP06
0186827650999992004050812004-07333-047467FM-12+021299999V0202301N000512200019N0200001N1+02841+02441101691ADDAA106000091GF102991021011008001001001KA1240N+02531MA1999999099311MD1999999-0051REMSYN076AAXX  08124 82765 32598 22301 10284 20244 39931 40169 82100 333 20253 59005;EQDQ01  00002PRCP06
0167827650999992004050818004-07333-047467FM-12+021299999V0201801N002110450019N0200001N1+03361+02361101221ADDAA106000091GF105991031021008001041001MA1999999098861MD1999999-0091REMSYN070AAXX  08184 82765 32598 51804 10336 20236 39886 40122 83240 333 59009;EQDQ01  00002PRCP06
0226827650999992004050900004-07333-047467FM-12+021299999V0209999C000012200019N0200001N1+02921+02681101461ADDAA106000091AY101061AY201061GF103991021021008001041001KA1240M+03461MA1999999099091MD1999999-0061MW1131REMSYN094AAXX  09004 82765 31598 30000 10292 20268 39909 40146 71300 82240 333 10346 29077 55089 59006;EQDQ01  00002PRCP06
0186827650999992004050912004-07333-047467FM-12+021299999V0200901N001010450019N0200001N1+02621+02501101611ADDAA106000091GF106991031021008001041001KA1240N+02471MA1999999099231MD1999999-0081REMSYN076AAXX  09124 82765 32598 60902 10262 20250 39923 40161 83240 333 20247 59008;EQDQ01  00002PRCP06
0167827650999992004050918004-07333-047467FM-12+021299999V0200501N001010450019N0200001N1+03141+02531101201ADDAA106000091GF106991041021008001041001MA1999999098821MD1999999-0041REMSYN070AAXX  09184 82765 32598 60502 10314 20253 39882 40120 84240 333 59004;EQDQ01  00002PRCP06
0190827650999992004051012004-07333-047467FM-12+021299999V0202701N001012200019N0200001N1+02611+02401101601ADDAY161061AY221061GF103991011011008001041041KA1240N+02341MA1999999099211MD1999999-0021MW1021REMSYN088AAXX  10124 82765 21598 32702 10261 20240 39921 40160 70262 81144 333 20234 59002 60564;
0167827650999992004051018004-07333-047467FM-12+021299999V0202701N001512200019N0200001N1+03291+02431101151ADDAA106000091GF104991021021008001041041MA1999999098781MD1999999-0041REMSYN070AAXX  10184 82765 32598 42703 10329 20243 39878 40115 82244 333 59004;EQDQ01  00002PRCP06
0208827650999992004051100004-07333-047467FM-12+021299999V0203201N000512200019N0200001N1+02861+02581101371ADDAA106000091GA1001+999999999GF100991001001999999001001KA1240M+03461MA1999999098991MD1999999+0011REMSYN082AAXX  11004 82765 32998 03201 10286 20258 39899 40137 333 10346 29080 55092 58001;EQDQ01  00002PRCP06
0186827650999992004051112004-07333-047467FM-12+021299999V0209999C000012200019N0200001N1+02761+02471101561ADDAA106000091GF103991021001017501041041KA1240N+02451MA1999999099181MD1999999-0031REMSYN076AAXX  11124 82765 32798 30000 10276 20247 39918 40156 82044 333 20245 59003;EQDQ01  00002PRCP06
0167827650999992004051118004-07333-047467FM-12+021299999V0200501N001010450019N0200001N1+03281+02401101091ADDAA106000091GF105991031021008001041041MA1999999098721MD1999999-0061REMSYN070AAXX  11184 82765 32598 50502 10328 20240 39872 40109 83244 333 59006;EQDQ01  00002PRCP06
0208827650999992004051200004-07333-047467FM-12+021299999V0203601N000512200019N0200001N1+02781+02561101381ADDAA106000091GA1001+999999999GF100991001001999999001001KA1240M+03381MA1999999099001MD1999999+0011REMSYN082AAXX  12004 82765 32998 03601 10278 20256 39900 40138 333 10338 29080 55084 58001;EQDQ01  00002PRCP06
0186827650999992004051212004-07333-047467FM-12+021299999V0209999C000011050019N0200001N1+02681+02411101651ADDAA106000091GF106991021011008001041041KA1240N+02451MA1999999099261MD1999999+0081REMSYN076AAXX  12124 82765 32598 60000 10268 20241 39926 40165 82144 333 20245 58008;EQDQ01  00002PRCP06
0167827650999992004051218004-07333-047467FM-12+021299999V0200501N001010450019N0200001N1+03231+02371101231ADDAA106000091GF106991031021008001041041MA1999999098861MD1999999+0141REMSYN070AAXX  12184 82765 32598 60502 10323 20237 39886 40123 83244 333 58014;EQDQ01  00002PRCP06
0190827650999992004051312004-07333-047467FM-12+021299999V0200201N002610450019N0200001N1+02761+02441101611ADDAY161061AY261061GF106991021021008001041001KA1240N+02361MA1999999099211MD1999999-0051MW1001REMSYN088AAXX  13124 82765 21598 60205 10276 20244 39921 40161 70066 82240 333 20236 59005 60194;
0167827650999992004051318004-07333-047467FM-12+021299999V0200901N001510450019N0200001N1+03041+02381101181ADDAA106000091GF106991041021008001041001MA1999999098801MD1999999-0061REMSYN070AAXX  13184 82765 32598 60903 10304 20238 39880 40118 84240 333 59006;EQDQ01  00002PRCP06
0198827650999992004051400004-07333-047467FM-12+021299999V0209999C000012200019N0200001N1+02781+02621101351ADDAA106000091GF103991031001008001041001KA1240M+03221MA1999999098971MD1999999-0091REMSYN088AAXX  14004 82765 32598 30000 10278 20262 39897 40135 83040 333 10322 29083 55093 59009;EQDQ01  00002PRCP06
0190827650999992004051412004-07333-047467FM-12+021299999V0200501N001010450019N0200001N1+02481+02461101581ADDAY161061AY261061GF106991031061008001031001KA1240N+02511MA1999999099181MD1999999-0031MW1001REMSYN088AAXX  14124 82765 21598 60502 10248 20246 39918 40158 70066 83630 333 20251 59003 60044;
0167827650999992004051418004-07333-047467FM-12+021299999V0201801N002610450019N0200001N1+03281+02451101031ADDAA106000091GF105991031021008001041001MA1999999098671MD1999999-0131REMSYN070AAXX  14184 82765 32598 51805 10328 20245 39867 40103 83240 333 59013;EQDQ01  00002PRCP06
0208827650999992004051500004-07333-047467FM-12+021299999V0200901N001012200019N0200001N1+02821+02621101191ADDAA106000091GA1001+999999999GF100991001001999999001001KA1240M+03421MA1999999098801MD1999999-0171REMSYN082AAXX  15004 82765 32998 00902 10282 20262 39880 40119 333 10342 29085 55079 59017;EQDQ01  00002PRCP06
0186827650999992004051512004-07333-047467FM-12+021299999V0200901N000512200019N0200001N1+02881+02481101461ADDAA106000091GF101991011001008001041001KA1240N+02511MA1999999099081MD1999999-0101REMSYN076AAXX  15124 82765 32598 10901 10288 20248 39908 40146 81040 333 20251 59010;EQDQ01  00002PRCP06
0167827650999992004051518004-07333-047467FM-12+021299999V0200501N000510450019N0200001N1+03301+02631101011ADDAA106000091GF106991031021008001041001MA1999999098651MD1999999-0021REMSYN070AAXX  15184 82765 32598 60501 10330 20263 39865 40101 83240 333 59002;EQDQ01  00002PRCP06
0208827650999992004051600004-07333-047467FM-12+021299999V0209999C000012200019N0200001N1+02821+02561101231ADDAA106000091GA1001+999999999GF100991001001999999001001KA1240M+03421MA1999999098861MD1999999+0061REMSYN082AAXX  16004 82765 32998 00000 10282 20256 39886 40123 333 10342 29080 55087 58006;EQDQ01  00002PRCP06
0186827650999992004051612004-07333-047467FM-12+021299999V0200901N000510450019N0200001N1+02721+02501101501ADDAA106000091GF106991031011008001021001KA1240N+02511MA1999999099121MD1999999+0041REMSYN076AAXX  16124 82765 32598 60901 10272 20250 39912 40150 83120 333 20251 58004;EQDQ01  00002PRCP06
0167827650999992004051618004-07333-047467FM-12+021299999V0201801N002110450019N0200001N1+03221+02461101081ADDAA106000091GF107991031021008001041001MA1999999098711MD1999999+0061REMSYN070AAXX  16184 82765 32598 71804 10322 20246 39871 40108 83240 333 58006;EQDQ01  00002PRCP06
0224827650999992004051700004-07333-047467FM-12+021299999V0209999C000012200019N0200001N1+02841+99999103282ADDAA106000091GA1001+999999999GF100991001001999999001001KA1240M+03281MA1999999999999MD1999999+0041REMSYN082AAXX  17004 82765 32998 00000 10284 29890 30128 40328 333 10328 29081 55051 58004;EQDQ01  00002PRCP06Q02 101283APOSP 
0186827650999992004051712004-07333-047467FM-12+021299999V0202301N001010450019N0200001N1+02801+02561101501ADDAA106000091GF106991031021008001041001KA1240N+02471MA1999999099121MD1999999+0001REMSYN076AAXX  17124 82765 32598 62302 10280 20256 39912 40150 83240 333 20247 58000;EQDQ01  00002PRCP06
0167827650999992004051718004-07333-047467FM-12+021299999V0201801N002110450019N0200001N1+03281+02321101101ADDAA106000091GF105991031011008001041001MA1999999098741MD1999999+0031REMSYN070AAXX  17184 82765 32598 51804 10328 20232 39874 40110 83140 333 58003;EQDQ01  00002PRCP06
0208827650999992004051800004-07333-047467FM-12+021299999V0200501N000512200019N0200001N1+02841+02541101371ADDAA106000091GA1001+999999999GF100991001001999999001001KA1240M+03381MA1999999098981MD1999999+0081REMSYN082AAXX  18004 82765 32998 00501 10284 20254 39898 40137 333 10338 29078 55106 58008;EQDQ01  00002PRCP06
0186827650999992004051812004-07333-047467FM-12+021299999V0201801N001511050019N0200001N1+02741+02361101601ADDAA106000091GF105991021011008001001071KA1240N+02371MA1999999099201MD1999999+0081REMSYN076AAXX  18124 82765 32598 51803 10274 20236 39920 40160 82107 333 20237 58008;EQDQ01  00002PRCP06
0167827650999992004051818004-07333-047467FM-12+021299999V0200901N000512200019N0200001N1+03221+02321101231ADDAA106000091GF104991021011008001041001MA1999999098811MD1999999+0071REMSYN070AAXX  18184 82765 32598 40901 10322 20232 39881 40123 82140 333 58007;EQDQ01  00002PRCP06
0208827650999992004051900004-07333-047467FM-12+021299999V0209999C000012200019N0200001N1+02841+02581101441ADDAA106000091GA1001+999999999GF100991001001999999001001KA1240M+03441MA1999999099061MD1999999+0081REMSYN082AAXX  19004 82765 32998 00000 10284 20258 39906 40144 333 10344 29077 55100 58008;EQDQ01  00002PRCP06
0186827650999992004051912004-07333-047467FM-12+021299999V0200501N001012200019N0200001N1+02741+02361101831ADDAA106000091GF106991031001017501041041KA1240N+02461MA1999999099441MD1999999+0241REMSYN076AAXX  19124 82765 32798 60502 10274 20236 39944 40183 83044 333 20246 58024;EQDQ01  00002PRCP06
0167827650999992004051918004-07333-047467FM-12+021299999V0200901N001512200019N0200001N1+03261+02211101421ADDAA106000091GF104991021011008001051041MA1999999099051MD1999999+0241REMSYN070AAXX  19184 82765 32598 40903 10326 20221 39905 40142 82154 333 58024;EQDQ01  00002PRCP06
0208827650999992004052000004-07333-047467FM-12+021299999V0209999C000012200019N0200001N1+02781+02401101651ADDAA106000091GA1001+999999999GF100991001001999999001001KA1240M+03401MA1999999099261MD1999999+0201REMSYN082AAXX  20004 82765 32998 00000 10278 20240 39926 40165 333 10340 29074 55105 58020;EQDQ01  00002PRCP06
0186827650999992004052012004-07333-047467FM-12+021299999V0201401N001012200019N0200001N1+02541+02061101891ADDAA106000091GF103991021001017501051041KA1240N+02231MA1999999099481MD1999999+0041REMSYN076AAXX  20124 82765 32798 31402 10254 20206 39948 40189 82054 333 20223 58004;EQDQ01  00002PRCP06
0167827650999992004052018004-07333-047467FM-12+021299999V0201601N003112200019N0200001N1+03271+02111101481ADDAA106000091GF104991021011008001041041MA1999999099101MD1999999+0051REMSYN070AAXX  20184 82765 32598 41606 10327 20211 39910 40148 82144 333 58005;EQDQ01  00002PRCP06
0208827650999992004052100004-07333-047467FM-12+021299999V0209999C000012200019N0200001N1+02751+02431101611ADDAA106000091GA1001+999999999GF100991001001999999001001KA1240M+03411MA1999999099211MD1999999-0051REMSYN082AAXX  21004 82765 32998 00000 10275 20243 39921 40161 333 10341 29073 55109 59005;EQDQ01  00002PRCP06
0186827650999992004052112004-07333-047467FM-12+021299999V0201401N000512200019N0200001N1+02611+02251101811ADDAA106000091GF104991031011008001001061KA1240N+02261MA1999999099411MD1999999-0071REMSYN076AAXX  21124 82765 32598 41401 10261 20225 39941 40181 83106 333 20226 59007;EQDQ01  00002PRCP06
0167827650999992004052118004-07333-047467FM-12+021299999V0201401N002112200019N0200001N1+03171+02261101391ADDAA106000091GF103991011021008001011061MA1999999099011MD1999999-0091REMSYN070AAXX  21184 82765 32598 31404 10317 20226 39901 40139 81216 333 59009;EQDQ01  00002PRCP06
0208827650999992004052200004-07333-047467FM-12+021299999V0209999C000012200019N0200001N1+02761+02421101491ADDAA106000091GA1001+999999999GF100991001001999999001001KA1240M+03311MA1999999099101MD1999999-0111REMSYN082AAXX  22004 82765 32998 00000 10276 20242 39910 40149 333 10331 29076 55103 59011;EQDQ01  00002PRCP06
0186827650999992004052212004-07333-047467FM-12+021299999V0201801N001512200019N0200001N1+02641+02331101721ADDAA106000091GF102991021001008001061001KA1240N+02181MA1999999099381MD1999999-0091REMSYN076AAXX  22124 82765 32598 21803 10264 20233 39938 40172 82060 333 20218 59009;EQDQ01  00002PRCP06
0167827650999992004052218004-07333-047467FM-12+021299999V0201101N002612200019N0200001N1+03201+02121101321ADDAA106000091GF103991031021008001001001MA1999999098931MD1999999-0081REMSYN070AAXX  22184 82765 32598 31105 10320 20212 39893 40132 83200 333 59008;EQDQ01  00002PRCP06
0208827650999992004052300004-07333-047467FM-12+021299999V0200901N000512200019N0200001N1+02761+02381101491ADDAA106000091GA1001+999999999GF100991001001999999001001KA1240M+03341MA1999999099101MD1999999+0001REMSYN082AAXX  23004 82765 32998 00901 10276 20238 39910 40149 333 10334 29074 55110 58000;EQDQ01  00002PRCP06
0186827650999992004052312004-07333-047467FM-12+021299999V0200701N002612200019N0200001N1+02721+02151101741ADDAA106000091GF101991011001008001051001KA1240N+02371MA1999999099351MD1999999+0031REMSYN076AAXX  23124 82765 32598 10705 10272 20215 39935 40174 81050 333 20237 58003;EQDQ01  00002PRCP06
0167827650999992004052318004-07333-047467FM-12+021299999V0201101N003612200019N0200001N1+03261+02021101381ADDAA106000091GF103991021021008001051001MA1999999099001MD1999999+0071REMSYN070AAXX  23184 82765 32598 31107 10326 20202 39900 40138 82250 333 58007;EQDQ01  00002PRCP06
0186827650999992004052412004-07333-047467FM-12+021299999V0201101N002112200019N0200001N1+02701+02151101851ADDAA106000091GF101991011001008001041001KA1240N+02221MA1999999099451MD1999999+0101REMSYN076AAXX  24124 82765 32598 11104 10270 20215 39945 40185 81040 333 20222 58010;EQDQ01  00002PRCP06
0167827650999992004052418004-07333-047467FM-12+021299999V0200901N002610075019N0200001N1+03261+02301101421ADDAA106000091GF105991051021008001001001MA1999999099041MD1999999+0041REMSYN070AAXX  24184 82765 32598 50905 10326 20230 39904 40142 85200 333 58004;EQDQ01  00002PRCP06
0208827650999992004052500004-07333-047467FM-12+021299999V0200501N000512200019N0200001N1+02761+02381101541ADDAA106000091GA1001+999999999GF100991001001999999001001KA1240M+03401MA1999999099151MD1999999-0041REMSYN082AAXX  25004 82765 32998 00501 10276 20238 39915 40154 333 10340 29072 55111 59004;EQDQ01  00002PRCP06
0186827650999992004052512004-07333-047467FM-12+021299999V0200501N000512200019N0200001N1+02741+02211101831ADDAA106000091GF102991021011008001001001KA1240N+02231MA1999999099441MD1999999-0011REMSYN076AAXX  25124 82765 32598 20501 10274 20221 39944 40183 82100 333 20223 59001;EQDQ01  00002PRCP06
0167827650999992004052518004-07333-047467FM-12+021299999V0201401N003112200019N0200001N1+03301+02241101391ADDAA106000091GF102991021011008001001001MA1999999099021MD1999999-0021REMSYN070AAXX  25184 82765 32598 21406 10330 20224 39902 40139 82100 333 59002;EQDQ01  00002PRCP06
0208827650999992004052600004-07333-047467FM-12+021299999V0200501N000512200019N0200001N1+02801+02461101571ADDAA106000091GA1001+999999999GF100991001001999999001001KA1240M+03421MA1999999099181MD1999999+0031REMSYN082AAXX  26004 82765 32998 00501 10280 20246 39918 40157 333 10342 29073 55102 58003;EQDQ01  00002PRCP06
0186827650999992004052612004-07333-047467FM-12+021299999V0202701N000512200019N0200001N1+02661+02331101781ADDAA106000091GF102991021011008001001001KA1240N+02271MA1999999099391MD1999999-0051REMSYN076AAXX  26124 82765 32598 22701 10266 20233 39939 40178 82100 333 20227 59005;EQDQ01  00002PRCP06
0167827650999992004052618004-07333-047467FM-12+021299999V0201801N001512200019N0200001N1+03361+02211101341ADDAA106000091GF103991031011008001001001MA1999999098971MD1999999-0051REMSYN070AAXX  26184 82765 32598 31803 10336 20221 39897 40134 83100 333 59005;EQDQ01  00002PRCP06
0208827650999992004052700004-07333-047467FM-12+021299999V0209999C000012200019N0200001N1+02841+02541101521ADDAA106000091GA1001+999999999GF100991001001999999001001KA1240M+03441MA1999999099131MD1999999-0051REMSYN082AAXX  27004 82765 32998 00000 10284 20254 39913 40152 333 10344 29075 55110 59005;EQDQ01  00002PRCP06
0196827650999992004052712004-07333-047467FM-12+021299999V0202701N001012200019N0200001N1+02701+02421101681ADDAA106000091GA1001+999999999GF100991001001999999001001KA1240N+02371MA1999999099291MD1999999-0101REMSYN070AAXX  27124 82765 32998 02702 10270 20242 39929 40168 333 20237 59010;EQDQ01  00002PRCP06
0167827650999992004052718004-07333-047467FM-12+021299999V0201801N001510450019N0200001N1+03401+02241101271ADDAA106000091GF106991041011008001041001MA1999999098901MD1999999-0071REMSYN070AAXX  27184 82765 32598 61803 10340 20224 39890 40127 84140 333 59007;EQDQ01  00002PRCP06
0198827650999992004052800004-07333-047467FM-12+021299999V0200501N001512200019N0200001N1+02921+02501101431ADDAA106000091GF102991021011008001001001KA1240M+03541MA1999999099081MD1999999-0081REMSYN088AAXX  28004 82765 32598 20503 10292 20250 39908 40143 82100 333 10354 29072 55110 59008;EQDQ01  00002PRCP06
0186827650999992004052812004-07333-047467FM-12+021299999V0202301N001512200019N0200001N1+02621+02351101691ADDAA106000091GF104991011011008001051061KA1240N+02351MA1999999099301MD1999999+0011REMSYN076AAXX  28124 82765 32598 42303 10262 20235 39930 40169 81156 333 20235 58001;EQDQ01  00002PRCP06
0167827650999992004052818004-07333-047467FM-12+021299999V0201801N001010450019N0200001N1+03331+02351101281ADDAA106000091GF105991041021008001041001MA1999999098921MD1999999+0021REMSYN070AAXX  28184 82765 32598 51802 10333 20235 39892 40128 84240 333 58002;EQDQ01  00002PRCP06
0186827650999992004052912004-07333-047467FM-12+021299999V0200501N001510120019N0200001N1+02751+02341101841ADDAA106000091GF106991061081008001001001KA1240N+02311MA1999999099441MD1999999+0141REMSYN076AAXX  29124 82765 32598 60503 10275 20234 39944 40184 86800 333 20231 58014;EQDQ01  00002PRCP06
0167827650999992004052918004-07333-047467FM-12+021299999V0201401N002612200019N0200001N1+03261+02111101381ADDAA106000091GF104991021011008001011011MA1999999099001MD1999999+0081REMSYN070AAXX  29184 82765 32598 41405 10326 20211 39900 40138 82111 333 58008;EQDQ01  00002PRCP06
0190827650999992004053012004-07333-047467FM-12+021299999V0200901N003112200019N0200001N1+02721+02301101911ADDAY161061AY211061GF103991031001017501061001KA1240N+02461MA1999999099511MD1999999+0071MW1011REMSYN088AAXX  30124 82765 21798 30906 10272 20230 39951 40191 70161 83060 333 20246 58007 69934;
0167827650999992004053018004-07333-047467FM-12+021299999V0201401N002612200019N0200001N1+03261+01981101391ADDAA106000091GF103991031011008001001001MA1999999099021MD1999999+0021REMSYN070AAXX  30184 82765 32598 31405 10326 20198 39902 40139 83100 333 58002;EQDQ01  00002PRCP06
0186827650999992004053112004-07333-047467FM-12+021299999V0201101N001510450019N0200001N1+02661+02221101831ADDAA106000091GF105991021051008001041001KA1240N+02281MA1999999099431MD1999999-0081REMSYN076AAXX  31124 82765 32598 51103 10266 20222 39943 40183 82540 333 20228 59008;EQDQ01  00002PRCP06
0167827650999992004053118004-07333-047467FM-12+021299999V0201601N002610075019N0200001N1+03341+02051101351ADDAA106000091GF105991051021008001001001MA1999999098981MD1999999-0041REMSYN070AAXX  31184 82765 32598 51605 10334 20205 39898 40135 85200 333 59004;EQDQ01  00002PRCP06
0198827650999992004060100004-07333-047467FM-12+021299999V0200501N000512200019N0200001N1+02741+02301101481ADDAA106000091GF101991011001008001041001KA1240M+03481MA1999999099091MD1999999-0091REMSYN088AAXX  01004 82765 32598 10501 10274 20230 39909 40148 81040 333 10348 29070 55105 59009;EQDQ01  00002PRCP06
0186827650999992004060112004-07333-047467FM-12+021299999V0200901N001012200019N0200001N1+02681+02221101821ADDAA106000091GF103991021051008001041001KA1240N+02231MA1999999099421MD1999999-0011REMSYN076AAXX  01124 82765 32598 30902 10268 20222 39942 40182 82540 333 20223 59001;EQDQ01  00002PRCP06
0167827650999992004060118004-07333-047467FM-12+021299999V0200901N002612200019N0200001N1+03261+02081101361ADDAA106000091GF102991021021008001041001MA1999999098981MD1999999+0001REMSYN070AAXX  01184 82765 32598 20905 10326 20208 39898 40136 82240 333 58000;EQDQ01  00002PRCP06
0208827650999992004060200004-07333-047467FM-12+021299999V0200501N000512200019N0200001N1+02721+02301101571ADDAA106000091GA1001+999999999GF100991001001999999001001KA1240M+03401MA1999999099181MD1999999+0091REMSYN082AAXX  02004 82765 32598 00501 10272 20230 39918 40157 333 10340 29070 55106 58009;EQDQ01  00002PRCP06
0186827650999992004060212004-07333-047467FM-12+021299999V0201401N000512200019N0200001N1+02501+02151101831ADDAA106000091GF102991021011008001001001KA1240N+02141MA1999999099421MD1999999+0001REMSYN076AAXX  02124 82765 32598 21401 10250 20215 39942 40183 82100 333 20214 58000;EQDQ01  00002PRCP06
0167827650999992004060218004-07333-047467FM-12+021299999V0201101N002610075019N0200001N1+03281+02131101431ADDAA106000091GF105991051021008001001001MA1999999099041MD1999999+0061REMSYN070AAXX  02184 82765 32598 51105 10328 20213 39904 40143 85200 333 58006;EQDQ01  00002PRCP06
0208827650999992004060300004-07333-047467FM-12+021299999V0200901N001512200019N0200001N1+02801+02341101601ADDAA106000091GA1001+999999999GF100991001001999999001001KA1240M+03401MA1999999099201MD1999999+0021REMSYN082AAXX  03004 82765 32998 00903 10280 20234 39920 40160 333 10340 29071 55097 58002;EQDQ01  00002PRCP06
0190827650999992004060312004-07333-047467FM-12+021299999V0200501N001510450019N0200001N1+02721+02321101891ADDAY151061AY251061GF105991031021008001041001KA1240N+02391MA1999999099491MD1999999+0071MW1001REMSYN088AAXX  03124 82765 21598 50503 10272 20232 39949 40189 70055 83240 333 20239 58007 60014;
0167827650999992004060318004-07333-047467FM-12+021299999V0200901N001510450019N0200001N1+03281+02371101481ADDAA106000091GF106991031021008001021001MA1999999099101MD1999999+0061REMSYN070AAXX  03184 82765 32598 60903 10328 20237 39910 40148 83220 333 58006;EQDQ01  00002PRCP06
0226827650999992004060400004-07333-047467FM-12+021299999V0200501N001012200019N0200001N1+02821+02461101641ADDAA106000091AY101061AY201061GF104991021011008001041011KA1240M+03361MA1999999099251MD1999999+0051MW1131REMSYN094AAXX  04004 82765 31598 40502 10282 20246 39925 40164 71300 82141 333 10336 29075 55078 58005;EQDQ01  00002PRCP06
0196827650999992004060412004-07333-047467FM-12+021299999V0202301N000512200019N0200001N1+02601+02271101841ADDAA106000091GA1001+999999999GF100991001001999999001001KA1240N+02291MA1999999099441MD1999999-0051REMSYN070AAXX  04124 82765 32998 02301 10260 20227 39944 40184 333 20229 59005;EQDQ01  00002PRCP06
0167827650999992004060418004-07333-047467FM-12+021299999V0200501N000510450019N0200001N1+03301+02361101371ADDAA106000091GF106991031021008001041001MA1999999098991MD1999999-0111REMSYN070AAXX  04184 82765 32598 60501 10330 20236 39899 40137 83240 333 59011;EQDQ01  00002PRCP06
0198827650999992004060500004-07333-047467FM-12+021299999V0209999C000010450019N0200001N1+02761+02481101571ADDAA106000091GF106991021021008001041001KA1240M+03401MA1999999099181MD1999999-0071REMSYN088AAXX  05004 82765 32598 60000 10276 20248 39918 40157 82240 333 10340 29077 55081 59007;EQDQ01  00002PRCP06
0186827650999992004060512004-07333-047467FM-12+021299999V0203601N001012200019N0200001N1+02561+02361101701ADDAA106000091GF104991021011008001041001KA1240N+02291MA1999999099301MD1999999-0141REMSYN076AAXX  05124 82765 32598 43602 10256 20236 39930 40170 82140 333 20229 59014;EQDQ01  00002PRCP06
0167827650999992004060518004-07333-047467FM-12+021299999V0200501N003110450019N0200001N1+02901+02221101331ADDAA106000091GF105991031021008001041001MA1999999098941MD1999999-0051REMSYN070AAXX  05184 82765 32598 50506 10290 20222 39894 40133 83240 333 59005;EQDQ01  00002PRCP06
0208827650999992004060600004-07333-047467FM-12+021299999V0200501N000512200019N0200001N1+02621+02351101501ADDAA106000091GA1001+999999999GF100991001001999999001001KA1240M+03381MA1999999099101MD1999999-0081REMSYN082AAXX  06004 82765 32998 00501 10262 20235 39910 40150 333 10338 29081 55059 59008;EQDQ01  00002PRCP06
0186827650999992004060612004-07333-047467FM-12+021299999V0209999C000012200019N0200001N1+02641+02331101731ADDAA106000091GF103991021011008001011001KA1240N+02261MA1999999099331MD1999999+0031REMSYN076AAXX  06124 82765 32598 30000 10264 20233 39933 40173 82110 333 20226 58003;EQDQ01  00002PRCP06
0167827650999992004060618004-07333-047467FM-12+021299999V0202301N001510450019N0200001N1+03091+02321101411ADDAA106000091GF106991041021008001011001MA1999999099021MD1999999+0081REMSYN070AAXX  06184 82765 32598 62303 10309 20232 39902 40141 84210 333 58008;EQDQ01  00002PRCP06
0208827650999992004060700004-07333-047467FM-12+021299999V0200901N001512200019N0200001N1+02691+02331101661ADDAA106000091GA1001+999999999GF100991001001999999001001KA1240M+03311MA1999999099261MD1999999+0161REMSYN082AAXX  07004 82765 32998 00903 10269 20233 39926 40166 333 10331 29077 55083 58016;EQDQ01  00002PRCP06
0186827650999992004060712004-07333-047467FM-12+021299999V0201401N002612200019N0200001N1+02701+02241101881ADDAA106000091GF103991021011008001031001KA1240N+02331MA1999999099481MD1999999+0151REMSYN076AAXX  07124 82765 32598 31405 10270 20224 39948 40188 82130 333 20233 58015;EQDQ01  00002PRCP06
0167827650999992004060718004-07333-047467FM-12+021299999V0201401N004610450019N0200001N1+03261+01951101511ADDAA106000091GF105991031021008001011081MA1999999099121MD1999999+0101REMSYN070AAXX  07184 82765 32598 51409 10326 20195 39912 40151 83218 333 58010;EQDQ01  00002PRCP06
0208827650999992004060800004-07333-047467FM-12+021299999V0200901N000512200019N0200001N1+02761+02301101721ADDAA106000091GA1001+999999999GF100991001001999999001001KA1240M+03421MA1999999099331MD1999999+0071REMSYN082AAXX  08004 82765 32998 00901 10276 20230 39933 40172 333 10342 29069 55097 58007;EQDQ01  00002PRCP06
0196827650999992004060812004-07333-047467FM-12+021299999V0201401N001012200019N0200001N1+02591+02121101881ADDAA106000091GA1001+999999999GF100991001001999999001001KA1240N+02281MA1999999099481MD1999999+0001REMSYN070AAXX  08124 82765 32998 01402 10259 20212 39948 40188 333 20228 58000;EQDQ01  00002PRCP06
0167827650999992004060818004-07333-047467FM-12+021299999V0201401N003110075019N0200001N1+03231+02011101481ADDAA106000091GF106991061011008001001001MA1999999099091MD1999999-0031REMSYN070AAXX  08184 82765 32598 61406 10323 20201 39909 40148 86100 333 59003;EQDQ01  00002PRCP06
0208827650999992004060900004-07333-047467FM-12+021299999V0200501N001512200019N0200001N1+02701+02151101771ADDAA106000091GA1001+999999999GF100991001001999999001001KA1240M+03391MA1999999099371MD1999999+0041REMSYN082AAXX  09004 82765 32998 00503 10270 20215 39937 40177 333 10339 29067 55109 58004;EQDQ01  00002PRCP06
0196827650999992004060912004-07333-047467FM-12+021299999V0201101N002612200019N0200001N1+02581+01971102051ADDAA106000091GA1001+999999999GF100991001001999999001001KA1240N+02111MA1999999099641MD1999999+0161REMSYN070AAXX  09124 82765 32998 01105 10258 20197 39964 40205 333 20211 58016;EQDQ01  00002PRCP06
0167827650999992004060918004-07333-047467FM-12+021299999V0201601N002612200019N0200001N1+03201+02301101581ADDAA106000091GF104991041021008001001001MA1999999099181MD1999999+0091REMSYN070AAXX  09184 82765 32598 41605 10320 20230 39918 40158 84200 333 58009;EQDQ01  00002PRCP06
0208827650999992004061000004-07333-047467FM-12+021299999V0200701N001512200019N0200001N1+02601+02061101811ADDAA106000091GA1001+999999999GF100991001001999999001001KA1240M+03341MA1999999099401MD1999999+0031REMSYN082AAXX  10004 82765 32998 00703 10260 20206 39940 40181 333 10334 29068 55106 58003;EQDQ01  00002PRCP06
0186827650999992004061012004-07333-047467FM-12+021299999V0201401N001512200019N0200001N1+02401+01861102041ADDAA106000091GF102991021011008001001001KA1240N+02011MA1999999099621MD1999999-0021REMSYN076AAXX  10124 82765 32598 21403 10240 20186 39962 40204 82100 333 20201 59002;EQDQ01  00002PRCP06
0167827650999992004061018004-07333-047467FM-12+021299999V0200901N003110075019N0200001N1+03241+02031101571ADDAA106000091GF105991051011008001001001MA1999999099171MD1999999-0011REMSYN070AAXX  10184 82765 32598 50906 10324 20203 39917 40157 85100 333 59001;EQDQ01  00002PRCP06
0196827650999992004061112004-07333-047467FM-12+021299999V0201101N000512200019N0200001N1+02461+02031102011ADDAA106000091GA1001+999999999GF100991001001999999001001KA1240N+02011MA1999999099591MD1999999-0031REMSYN070AAXX  11124 82765 32998 01101 10246 20203 39959 40201 333 20201 59003;EQDQ01  00002PRCP06
0167827650999992004061118004-07333-047467FM-12+021299999V0201101N002619999999N0200001N1+03181+02071101611ADDAA106000091GF106991061001008001071001MA1999999099211MD1999999+0041REMSYN070AAXX  11184 82765 32598 61105 10318 20207 39921 40161 86070 333 58004;EQDQ01  00002PRCP06
0198827650999992004061200004-07333-047467FM-12+021299999V0200901N001019999999N0200001N1+02801+02311101871ADDAA106000091GF106991061001008001071001KA1240M+03361MA1999999099461MD1999999+0061REMSYN088AAXX  12004 82765 32598 60902 10280 20231 39946 40187 86070 333 10336 29070 55088 58006;EQDQ01  00002PRCP06
0196827650999992004061212004-07333-047467FM-12+021299999V0200901N001512200019N0200001N1+02621+02051102201ADDAA106000091GA1001+999999999GF100991001001999999001001KA1240N+02121MA1999999099791MD1999999+0201REMSYN070AAXX  12124 82765 32998 00903 10262 20205 39979 40220 333 20212 58020;EQDQ01  00002PRCP06
0167827650999992004061218004-07333-047467FM-12+021299999V0201101N003112200019N0200001N1+03221+01431101821ADDAA106000091GF101991011001008001041001MA1999999099421MD1999999+0211REMSYN070AAXX  12184 82765 32598 11106 10322 20143 39942 40182 81040 333 58021;EQDQ01  00002PRCP06
0208827650999992004061300004-07333-047467FM-12+021299999V0200701N001512200019N0200001N1+02561+02081101911ADDAA106000091GA1001+999999999GF100991001001999999001001KA1240M+03381MA1999999099501MD1999999+0041REMSYN082AAXX  13004 82765 32998 00703 10256 20208 39950 40191 333 10338 29064 55108 58004;EQDQ01  00002PRCP06
0196827650999992004061312004-07333-047467FM-12+021299999V0201801N001512200019N0200001N1+02261+01641102071ADDAA106000091GA1001+999999999GF100991001001999999001001KA1240N+01691MA1999999099641MD1999999-0151REMSYN070AAXX  13124 82765 32998 01803 10226 20164 39964 40207 333 20169 59015;EQDQ01  00002PRCP06
0167827650999992004061318004-07333-047467FM-12+021299999V0201401N001512200019N0200001N1+03201+01781101571ADDAA106000091GF102991021011008001001001MA1999999099161MD1999999-0261REMSYN070AAXX  13184 82765 32598 21403 10320 20178 39916 40157 82100 333 59026;EQDQ01  00002PRCP06
0208827650999992004061400004-07333-047467FM-12+021299999V0200501N001012200019N0200001N1+02621+02141101851ADDAA106000091GA1001+999999999GF100991001001999999001001KA1240M+03361MA1999999099431MD1999999-0071REMSYN082AAXX  14004 82765 32998 00502 10262 20214 39943 40185 333 10336 29062 55109 59007;EQDQ01  00002PRCP06
0186827650999992004061412004-07333-047467FM-12+021299999V0200501N000512200019N0200001N1+02621+02061102001ADDAA106000091GF102991021011008001001001KA1240N+02091MA1999999099591MD1999999-0051REMSYN076AAXX  14124 82765 32598 20501 10262 20206 39959 40200 82100 333 20209 59005;EQDQ01  00002PRCP06
0167827650999992004061418004-07333-047467FM-12+021299999V0201401N002112200019N0200001N1+03281+01891101531ADDAA106000091GF103991021011008001041001MA1999999099131MD1999999-0031REMSYN070AAXX  14184 82765 32598 31404 10328 20189 39913 40153 82140 333 59003;EQDQ01  00002PRCP06
0208827650999992004061500004-07333-047467FM-12+021299999V0200501N000512200019N0200001N1+02641+02231101811ADDAA106000091GA1001+999999999GF100991001001999999001001KA1240M+03421MA1999999099401MD1999999-0031REMSYN082AAXX  15004 82765 32998 00501 10264 20223 39940 40181 333 10342 29069 55107 59003;EQDQ01  00002PRCP06
0186827650999992004061512004-07333-047467FM-12+021299999V0200901N001012200019N0200001N1+02531+01981101981ADDAA106000091GF104991031011008001031001KA1240N+02131MA1999999099571MD1999999-0021REMSYN076AAXX  15124 82765 32598 40902 10253 20198 39957 40198 83130 333 20213 59002;EQDQ01  00002PRCP06
0167827650999992004061518004-07333-047467FM-12+021299999V0200901N002612200019N0200001N1+03261+02051101571ADDAA106000091GF103991031011008001001001MA1999999099181MD1999999+0051REMSYN070AAXX  15184 82765 32598 30905 10326 20205 39918 40157 83100 333 58005;EQDQ01  00002PRCP06
0208827650999992004061600004-07333-047467FM-12+021299999V0200901N001512200019N0200001N1+02751+02171101791ADDAA106000091GA1001+999999999GF100991001001999999001001KA1240M+03431MA1999999099391MD1999999-0011REMSYN082AAXX  16004 82765 32998 00903 10275 20217 39939 40179 333 10343 29066 55095 59001;EQDQ01  00002PRCP06
0186827650999992004061612004-07333-047467FM-12+021299999V0200901N002112200019N0200001N1+02451+02031101851ADDAA106000091GF103991011011012501031091KA1240N+02161MA1999999099441MD1999999-0131REMSYN076AAXX  16124 82765 32698 30904 10245 20203 39944 40185 81139 333 20216 59013;EQDQ01  00002PRCP06
0167827650999992004061618004-07333-047467FM-12+021299999V0201401N003112200019N0200001N1+03271+01981101461ADDAA106000091GF104991021021008001011041MA1999999099071MD1999999-0111REMSYN070AAXX  16184 82765 32598 41406 10327 20198 39907 40146 82214 333 59011;EQDQ01  00002PRCP06
0186827650999992004061712004-07333-047467FM-12+021299999V0200901N001010450019N0200001N1+02371+02051101891ADDAA106000091GF106991041081008001041001KA1240N+02201MA1999999099471MD1999999+0031REMSYN076AAXX  17124 82765 32598 60902 10237 20205 39947 40189 84840 333 20220 58003;EQDQ01  00002PRCP06
0167827650999992004061718004-07333-047467FM-12+021299999V0200901N003112200019N0200001N1+03271+01981101481ADDAA106000091GF104991041021008001001001MA1999999099091MD1999999+0021REMSYN070AAXX  17184 82765 32598 40906 10327 20198 39909 40148 84200 333 58002;EQDQ01  00002PRCP06
0208827650999992004061800004-07333-047467FM-12+021299999V0200501N000512200019N0200001N1+02751+02261101741ADDAA106000091GA1001+999999999GF100991001001999999001001KA1240M+03431MA1999999099331MD1999999+0011REMSYN082AAXX  18004 82765 32998 00501 10275 20226 39933 40174 333 10343 29070 55079 58001;EQDQ01  00002PRCP06
0186827650999992004061812004-07333-047467FM-12+021299999V0201101N001012200019N0200001N1+02681+02061101941ADDAA106000091GF101991011001008001041001KA1240N+02181MA1999999099541MD1999999+0071REMSYN076AAXX  18124 82765 32598 11102 10268 20206 39954 40194 81040 333 20218 58007;EQDQ01  00002PRCP06
0167827650999992004061818004-07333-047467FM-12+021299999V0200701N002612200019N0200001N1+03341+02981101551ADDAA106000091GF101991011011008001041001MA1999999099161MD1999999+0071REMSYN070AAXX  18184 82765 32598 10705 10334 20298 39916 40155 81140 333 58007;EQDQ01  00002PRCP06
0198827650999992004061900004-07333-047467FM-12+021299999V0200901N001512200019N0200001N1+02801+02151101781ADDAA106000091GF103991031001008001001041KA1240M+03481MA1999999099391MD1999999+0061REMSYN088AAXX  19004 82765 32598 30903 10280 20215 39939 40178 83004 333 10348 29063 55109 58006;EQDQ01  00002PRCP06
0186827650999992004061912004-07333-047467FM-12+021299999V0201401N000510120019N0200001N1+02521+02021102071ADDAA106000091GF106991051081008001021001KA1240N+02171MA1999999099661MD1999999+0121REMSYN076AAXX  19124 82765 32598 61401 10252 20202 39966 40207 85820 333 20217 58012;EQDQ01  00002PRCP06
0167827650999992004061918004-07333-047467FM-12+021299999V0200901N001510120019N0200001N1+03001+02171101771ADDAA106000091GF107991071081008001001001MA1999999099361MD1999999+0201REMSYN070AAXX  19184 82765 32598 70903 10300 20217 39936 40177 87800 333 58020;EQDQ01  00002PRCP06
0198827650999992004062000004-07333-047467FM-12+021299999V0200901N001510075019N0200001N1+02701+02221101921ADDAA106000091GF108991081071008001999999KA1240M+03121MA1999999099511MD1999999+0121REMSYN088AAXX  20004 82765 32598 80903 10270 20222 39951 40192 887// 333 10312 29071 55021 58012;EQDQ01  00002PRCP06
0186827650999992004062012004-07333-047467FM-12+021299999V0200901N003112200019N0200001N1+02761+02091101981ADDAA106000091GF104991021011008001041001KA1240N+02331MA1999999099581MD1999999-0081REMSYN076AAXX  20124 82765 32598 40906 10276 20209 39958 40198 82140 333 20233 59008;EQDQ01  00002PRCP06
0167827650999992004062018004-07333-047467FM-12+021299999V0201101N002610450019N0200001N1+03141+01911101641ADDAA106000091GF107991021021008001011001MA1999999099251MD1999999-0111REMSYN070AAXX  20184 82765 32598 71105 10314 20191 39925 40164 82210 333 59011;EQDQ01  00002PRCP06
0198827650999992004062100004-07333-047467FM-12+021299999V0201401N001012200019N0200001N1+02601+01991101861ADDAA106000091GF103991031001008001011001KA1240M+03261MA1999999099461MD1999999-0051REMSYN088AAXX  21004 82765 32598 31402 10260 20199 39946 40186 83010 333 10326 29063 55066 59005;EQDQ01  00002PRCP06
0196827650999992004062112004-07333-047467FM-12+021299999V0200501N002112200019N0200001N1+02521+01981102011ADDAA106000091GA1001+999999999GF100991001001999999001001KA1240N+02011MA1999999099591MD1999999+0011REMSYN070AAXX  21124 82765 32998 00504 10252 20198 39959 40201 333 20201 58001;EQDQ01  00002PRCP06
0167827650999992004062118004-07333-047467FM-12+021299999V0200901N001512200019N0200001N1+03261+01801101611ADDAA106000091GF102991021011008001001001MA1999999099221MD1999999-0031REMSYN070AAXX  21184 82765 32598 20903 10326 20180 39922 40161 82100 333 59003;EQDQ01  00002PRCP06
0208827650999992004062200004-07333-047467FM-12+021299999V0200901N001512200019N0200001N1+02721+02051101851ADDAA106000091GA1001+999999999GF100991001001999999001001KA1240M+03381MA1999999099441MD1999999-0021REMSYN082AAXX  22004 82765 32998 00903 10272 20205 39944 40185 333 10338 29062 55109 59002;EQDQ01  00002PRCP06
0196827650999992004062212004-07333-047467FM-12+021299999V0201401N001512200019N0200001N1+02561+01831102101ADDAA106000091GA1001+999999999GF100991001001999999001001KA1240N+02011MA1999999099641MD1999999+0051REMSYN070AAXX  22124 82765 32998 01403 10256 20183 39964 40210 333 20201 58005;EQDQ01  00002PRCP06
0167827650999992004062218004-07333-047467FM-12+021299999V0201801N001512200019N0200001N1+03261+01881101731ADDAA106000091GF104991041011008001001001MA1999999099321MD1999999+0101REMSYN070AAXX  22184 82765 32598 41803 10326 20188 39932 40173 84100 333 58010;EQDQ01  00002PRCP06
0208827650999992004062300004-07333-047467FM-12+021299999V0200501N000512200019N0200001N1+02721+02191101821ADDAA106000091GA1001+999999999GF100991001001999999001001KA1240M+03441MA1999999099421MD1999999-0021REMSYN082AAXX  23004 82765 32998 00501 10272 20219 39942 40182 333 10344 29063 55108 59002;EQDQ01  00002PRCP06
0186827650999992004062312004-07333-047467FM-12+021299999V0201801N001012200019N0200001N1+02541+02061102021ADDAA106000091GF102991021011008001001001KA1240N+02011MA1999999099611MD1999999-0031REMSYN076AAXX  23124 82765 32598 21802 10254 20206 39961 40202 82100 333 20201 59003;EQDQ01  00002PRCP06
0186827650999992004062412004-07333-047467FM-12+021299999V0201401N000512200019N0200001N1+02541+01951101891ADDAA106000091GF101991001001999999001041KA1240N+02071MA1999999099481MD1999999-0131REMSYN076AAXX  24124 82765 32998 11401 10254 20195 39948 40189 80004 333 20207 59013;EQDQ01  00002PRCP06
0167827650999992004062418004-07333-047467FM-12+021299999V0201401N003112200019N0200001N1+03291+01781101441ADDAA106000091GF102991021011012501001001MA1999999099051MD1999999-0201REMSYN070AAXX  24184 82765 32698 21406 10329 20178 39905 40144 82100 333 59020;EQDQ01  00002PRCP06
0208827650999992004062500004-07333-047467FM-12+021299999V0200501N001012200019N0200001N1+02731+02121101641ADDAA106000091GA1001+999999999GF100991001001999999001001KA1240M+03431MA1999999099241MD1999999-0191REMSYN082AAXX  25004 82765 32998 00502 10273 20212 39924 40164 333 10343 29063 55106 59019;EQDQ01  00002PRCP06
0196827650999992004062512004-07333-047467FM-12+021299999V0200501N001012200019N0200001N1+02491+01961101801ADDAA106000091GA1001+999999999GF100991001001999999001001KA1240N+02101MA1999999099391MD1999999-0091REMSYN070AAXX  25124 82765 32998 00502 10249 20196 39939 40180 333 20210 59009;EQDQ01  00002PRCP06
0167827650999992004062518004-07333-047467FM-12+021299999V0201401N002612200019N0200001N1+03311+01911101321ADDAA106000091GF104991041011008001001001MA1999999098941MD1999999-0151REMSYN070AAXX  25184 82765 32598 41405 10331 20191 39894 40132 84100 333 59015;EQDQ01  00002PRCP06
0208827650999992004062600004-07333-047467FM-12+021299999V0200201N000512200019N0200001N1+02691+02131101591ADDAA106000091GA1001+999999999GF100991001001999999001001KA1240M+03481MA1999999099191MD1999999-0051REMSYN082AAXX  26004 82765 32998 00201 10269 20213 39919 40159 333 10348 29065 55106 59005;EQDQ01  00002PRCP06
0196827650999992004062612004-07333-047467FM-12+021299999V0201401N001012200019N0200001N1+02441+01861101811ADDAA106000091GA1001+999999999GF100991001001999999001001KA1240N+02071MA1999999099401MD1999999+0011REMSYN070AAXX  26124 82765 32998 01402 10244 20186 39940 40181 333 20207 58001;EQDQ01  00002PRCP06
0167827650999992004062618004-07333-047467FM-12+021299999V0201401N002112200019N0200001N1+03391+01951101381ADDAA106000091GF104991041011008001001001MA1999999099001MD1999999+0061REMSYN070AAXX  26184 82765 32598 41404 10339 20195 39900 40138 84100 333 58006;EQDQ01  00002PRCP06
0167827650999992004062700004-07333-047467FM-12+021299999V0201401N002112200019N0200001N1+03391+01951101381ADDAA106000091GF104991041011008001001001MA1999999099001MD1999999+0061REMSYN070AAXX  27004 82765 32598 41404 10339 20195 39900 40138 84100 333 58006;EQDQ01  00002PRCP06
0186827650999992004062712004-07333-047467FM-12+021299999V0209999C000012200019N0200001N1+02641+02001101861ADDAA106000091GF103991021081008001041001KA1240N+02171MA1999999099461MD1999999+0061REMSYN076AAXX  27124 82765 32598 30000 10264 20200 39946 40186 82840 333 20217 58006;EQDQ01  00002PRCP06
0137827650999992004062718004-07333-047467FM-12+021299999V0200901N001519999999N0200001N1+03301+01981999999ADDAA106000091GF106991999999008001999999REMSYN069AAXX  27184 82765 32598 60903 10330 20198 3901 40139 84840 333 58001;EQDQ01  00002PRCP06
0198827650999992004062800004-07333-047467FM-12+021299999V0200901N000512200019N0200001N1+02821+02331101571ADDAA106000091GF103991031001008001041001KA1240M+03461MA1999999099181MD1999999+0011REMSYN088AAXX  28004 82765 32598 30901 10282 20233 39918 40157 83040 333 10346 29066 55081 58001;EQDQ01  00002PRCP06
0186827650999992004062812004-07333-047467FM-12+021299999V0201601N000519999999N0200001N1+02541+02151101741ADDAA106000091GF105991051001008001041001KA1240N+02381MA1999999099341MD1999999-0121REMSYN076AAXX  28124 82765 32598 51601 10254 20215 39934 40174 85040 333 20238 59012;EQDQ01  00002PRCP06
0167827650999992004062818004-07333-047467FM-12+021299999V0201601N003110450019N0200001N1+03381+01951101301ADDAA106000091GF105991041021008001041001MA1999999098931MD1999999-0081REMSYN070AAXX  28184 82765 32598 51606 10338 20195 39893 40130 84240 333 59008;EQDQ01  00002PRCP06
0198827650999992004062900004-07333-047467FM-12+021299999V0201101N001010075019N0200001N1+02821+02241101521ADDAA106000091GF106991061051008001001001KA1240M+03521MA1999999099131MD1999999-0051REMSYN088AAXX  29004 82765 32598 61102 10282 20224 39913 40152 86500 333 10352 29066 55086 59005;EQDQ01  00002PRCP06
0186827650999992004062912004-07333-047467FM-12+021299999V0200901N002612200019N0200001N1+02661+02021101771ADDAA106000091GF102991021001008001041001KA1240N+02351MA1999999099381MD1999999+0041REMSYN076AAXX  29124 82765 32598 20905 10266 20202 39938 40177 82040 333 20235 58004;EQDQ01  00002PRCP06
0167827650999992004062918004-07333-047467FM-12+021299999V0200901N002110075019N0200001N1+03321+02041101371ADDAA106000091GF106991061021008001001001MA1999999099001MD1999999+0071REMSYN070AAXX  29184 82765 32598 60904 10332 20204 39900 40137 86200 333 58007;EQDQ01  00002PRCP06
0198827650999992004063000004-07333-047467FM-12+021299999V0201401N001512200019N0200001N1+02861+02211101601ADDAA106000091GF102991011021008001041001KA1240M+03501MA1999999099211MD1999999+0081REMSYN088AAXX  30004 82765 32598 21403 10286 20221 39921 40160 81240 333 10350 29063 55098 58008;EQDQ01  00002PRCP06
0196827650999992004063012004-07333-047467FM-12+021299999V0201401N001512200019N0200001N1+02561+02061101871ADDAA106000091GA1001+999999999GF100991001001999999001001KA1240N+02151MA1999999099471MD1999999+0091REMSYN070AAXX  30124 82765 32998 01403 10256 20206 39947 40187 333 20215 58009;EQDQ01  00002PRCP06
0167827650999992004063018004-07333-047467FM-12+021299999V0200501N003112200019N0200001N1+03381+01831101371ADDAA106000091GF103991031011008001001001MA1999999099011MD1999999+0011REMSYN070AAXX  30184 82765 32598 30506 10338 20183 39901 40137 83100 333 58001;EQDQ01  00002PRCP06
0196827650999992004070112004-07333-047467FM-12+021299999V0201401N002612200019N0200001N1+02721+02031101821ADDAA106000091GA1001+999999999GF100991001001999999001001KA1240N+02171MA1999999099431MD1999999-0041REMSYN070AAXX  01124 82765 32998 01405 10272 20203 39943 40182 333 20217 59004;EQDQ01  00002PRCP06
0136827650999992004070118004-07333-047467FM-12+021299999V0201401N001519999999N0200001N1+03321+99999999999ADDAA106000091GF105991999999008001999999REMSYN068AAXX  01184 82765 32598 51403 103320195 39897 40135 85100 333 59004;EQDQ01  00002PRCP06
0208827650999992004070200004-07333-047467FM-12+021299999V0200501N000512200019N0200001N1+02841+02261101501ADDAA106000091GA1001+999999999GF100991001001999999001001KA1240M+03501MA1999999099121MD1999999-0081REMSYN082AAXX  02004 82765 32998 00501 10284 20226 39912 40150 333 10350 29063 55107 59008;EQDQ01  00002PRCP06
0167827650999992004070218004-07333-047467FM-12+021299999V0201401N001010075019N0200001N1+03361+02001101271ADDAA106000091GF105991051011008001001001MA1999999098891MD1999999-0081REMSYN070AAXX  02184 82765 32598 51402 10336 20200 39889 40127 85100 333 59008;EQDQ01  00002PRCP06
0208827650999992004070300004-07333-047467FM-12+021299999V0200501N000512200019N0200001N1+02821+02151101441ADDAA106000091GA1001+999999999GF100991001001999999001001KA1240M+03521MA1999999099041MD1999999-0081REMSYN082AAXX  03004 82765 32998 00501 10282 20215 39904 40144 333 10352 29065 55091 59008;EQDQ01  00002PRCP06
0186827650999992004070312004-07333-047467FM-12+021299999V0201401N001512200019N0200001N1+02471+01971101671ADDAA106000091GF103991031011012501001001KA1240N+02091MA1999999099271MD1999999-0131REMSYN076AAXX  03124 82765 32698 31403 10247 20197 39927 40167 83100 333 20209 59013;EQDQ01  00002PRCP06
0167827650999992004070318004-07333-047467FM-12+021299999V0200501N001512200019N0200001N1+03361+02001101341ADDAA106000091GF104991021011008001031091MA1999999098951MD1999999+0061REMSYN070AAXX  03184 82765 32598 40503 10336 20200 39895 40134 82139 333 58006;EQDQ01  00002PRCP06
0196827650999992004070412004-07333-047467FM-12+021299999V0201401N004112200019N0200001N1+02601+01791101721ADDAA106000091GA1001+999999999GF100991001001999999001001KA1240N+02121MA1999999099321MD1999999+0051REMSYN070AAXX  04124 82765 32998 01408 10260 20179 39932 40172 333 20212 58005;EQDQ01  00002PRCP06
0167827650999992004070418004-07333-047467FM-12+021299999V0200501N003112200019N0200001N1+03361+01851101271ADDAA106000091GF102991021011012501001001MA1999999098881MD1999999+0071REMSYN070AAXX  04184 82765 32698 20506 10336 20185 39888 40127 82100 333 58007;EQDQ01  00002PRCP06
0208827650999992004070500004-07333-047467FM-12+021299999V0200501N001512200019N0200001N1+02891+02211101421ADDAA106000091GA1001+999999999GF100991001001999999001001KA1240M+03561MA1999999099041MD1999999-0061REMSYN082AAXX  05004 82765 32998 00503 10289 20221 39904 40142 333 10356 29059 55104 59006;EQDQ01  00002PRCP06
0186827650999992004070512004-07333-047467FM-12+021299999V0209999C000010150019N0200001N1+02571+02111101821ADDAA106000091GF105991051001017501031001KA1240N+02461MA1999999099431MD1999999+0111REMSYN076AAXX  05124 82765 32798 50000 10257 20211 39943 40182 85030 333 20246 58011;EQDQ01  00002PRCP06
0167827650999992004070518004-07333-047467FM-12+021299999V0200901N001012200019N0200001N1+03331+01971101471ADDAA106000091GF104991041011008001001001MA1999999099091MD1999999+0211REMSYN070AAXX  05184 82765 32598 40902 10333 20197 39909 40147 84100 333 58021;EQDQ01  00002PRCP06
0208827650999992004070600004-07333-047467FM-12+021299999V0200901N001010024019N0100001N1+02921+02191101661ADDAA106000091GA1091+999999999GF109991091999999999999999KA1240M+03551MA1999999099271MD1999999+0231REMSYN082AAXX  06004 82765 32/97 90902 10292 20219 39927 40166 333 10355 29084 55082 58023;EQDQ01  00002PRCP06
0186827650999992004070612004-07333-047467FM-12+021299999V0202301N000512200019N0200001N1+02561+02061101751ADDAA106000091GF102991021001008001041001KA1240N+02221MA1999999099361MD1999999-0071REMSYN076AAXX  06124 82765 32598 22301 10256 20206 39936 40175 82040 333 20222 59007;EQDQ01  00002PRCP06
0167827650999992004070618004-07333-047467FM-12+021299999V0201101N001510075019N0200001N1+03421+01831101301ADDAA106000091GF106991061021008001001001MA1999999098921MD1999999-0171REMSYN070AAXX  06184 82765 32598 61103 10342 20183 39892 40130 86200 333 59017;EQDQ01  00002PRCP06
0208827650999992004070700004-07333-047467FM-12+021299999V0209999C000012200019N0200001N1+02881+02231101411ADDAA106000091GA1001+999999999GF100991001001999999001001KA1240M+03601MA1999999099901MD1999999-0251REMSYN082AAXX  07004 82765 32998 00000 10288 20223 30990 40141 333 10360 29062 55102 59025;EQDQ01  00002PRCP06
0186827650999992004070712004-07333-047467FM-12+021299999V0209999C000010450019N0200001N1+02321+01981101631ADDAA106000091GF106991021081008001041001KA1240N+02211MA1999999099231MD1999999-0131REMSYN076AAXX  07124 82765 32598 60000 10232 20198 39923 40163 82840 333 20221 59013;EQDQ01  00002PRCP06
0167827650999992004070718004-07333-047467FM-12+021299999V0201101N001510450019N0200001N1+03261+02081101151ADDAA106000091GF106991041021008001031001MA1999999098771MD1999999-0151REMSYN070AAXX  07184 82765 32598 61103 10326 20208 39877 40115 84230 333 59015;EQDQ01  00002PRCP06
0208827650999992004070800004-07333-047467FM-12+021299999V0200901N001012200019N0200001N1+02781+02271101361ADDAA106000091GA1001+999999999GF100991001001999999001001KA1240M+03501MA1999999098961MD1999999-0061REMSYN082AAXX  08004 82765 32998 00902 10278 20227 39896 40136 333 10350 29070 55058 59006;EQDQ01  00002PRCP06
0166827650999992004070812004-07333-047467FM-12+021299999V0200501N000512200019N0200001N1+02701+02131101621ADDAA106000091GF102991021011008001001001KA1999N+02151MA1999999099231REMSYN070AAXX  08124 82765 32598 20501 10270 20213 39923 40162 82100 333 20215;EQDQ01  00002PRCP06
0186827650999992004070912004-07333-047467FM-12+021299999V0200201N002612200019N0200001N1+02861+02281101591ADDAA106000091GF103991031001008001041001KA1240N+02371MA1999999099221MD1999999-0011REMSYN076AAXX  09124 82765 32598 30205 10286 20228 39922 40159 83040 333 20237 59001;EQDQ01  00002PRCP06
0167827650999992004070918004-07333-047467FM-12+021299999V0209999C000010450019N0200001N1+03281+02261101211ADDAA106000091GF106991021021008001031001MA1999999098841MD1999999+0061REMSYN070AAXX  09184 82765 32598 60000 10328 20226 39884 40121 82230 333 58006;EQDQ01  00002PRCP06
0208827650999992004071000004-07333-047467FM-12+021299999V0209999C000012200019N0200001N1+02941+02471101361ADDAA106000091GA1001+999999999GF100991001001999999001001KA1240M+03421MA1999999098991MD1999999+0031REMSYN082AAXX  10004 82765 32998 00000 10294 20247 39899 40136 333 10342 29070 55089 58003;EQDQ01  00002PRCP06
0186827650999992004071012004-07333-047467FM-12+021299999V0203601N001510450019N0200001N1+02701+02151101681ADDAA106000091GF106991041031008001041001KA1240N+02391MA1999999099291MD1999999+0071REMSYN076AAXX  10124 82765 32598 63603 10270 20215 39929 40168 84340 333 20239 58007;EQDQ01  00002PRCP06
0167827650999992004071018004-07333-047467FM-12+021299999V0203201N001010450019N0200001N1+03241+02221101431ADDAA106000091GF106991041021008001041001MA1999999099051MD1999999+0211REMSYN070AAXX  10184 82765 32598 63202 10324 20222 39905 40143 84240 333 58021;EQDQ01  00002PRCP06
0208827650999992004071100004-07333-047467FM-12+021299999V0209999C000012200019N0200001N1+02881+02481101471ADDAA106000091GA1001+999999999GF100991001001999999001001KA1240M+03421MA1999999099091MD1999999+0101REMSYN082AAXX  11004 82765 32998 00000 10288 20248 39909 40147 333 10342 29076 55073 58010;EQDQ01  00002PRCP06
0186827650999992004071112004-07333-047467FM-12+021299999V0209999C000010450019N0200001N1+02761+02301101721ADDAA106000091GF105991031011008001041001KA1240N+02371MA1999999099341MD1999999+0051REMSYN076AAXX  11124 82765 32598 50000 10276 20230 39934 40172 83140 333 20237 58005;EQDQ01  00002PRCP06
0195827650999992004071118004-07333-047467FM-12+021299999V0200501N002610450019N0200001N1+02961+02331101311ADDAA106000091AY191061AY291061GF106991041041008001011001MA1999999098921MD1999999-0131MW1001REMSYN076AAXX  11184 82765 31598 60505 10296 20233 39892 40131 70099 84410 333 59013;EQDQ01  00002PRCP06
0212827650999992004071200004-07333-047467FM-12+021299999V0201401N001512200019N0200001N1+02381+02171101411ADDAY151061AY251061GA1001+999999999GF100991001001999999001001KA1240M+03241MA1999999099011MD1999999-0081MW1001REMSYN094AAXX  12004 82765 21998 01403 10238 20217 39901 40141 70055 333 10324 29080 55056 59008 60011;
0162827650999992004071212004-07333-047467FM-12+021299999V0209999C000012200019N0200001N1+02541+02231101631ADDGF102991021001017501031001KA1240N+02131MA1999999099211MD1999999-0131REMSYN082AAXX  12124 82765 22798 20000 10254 20223 39921 40163 82030 333 20213 59013 60014;
0167827650999992004071218004-07333-047467FM-12+021299999V0202301N004110450019N0200001N1+02691+02091101311ADDAA106000091GF107991041021008001021001MA1999999098891MD1999999-0031REMSYN070AAXX  12184 82765 32598 72308 10269 20209 39889 40131 84220 333 59003;EQDQ01  00002PRCP06
0208827650999992004071300004-07333-047467FM-12+021299999V0209999C000010024019N0100001N1+02461+02271101501ADDAA106000091GA1091+999999999GF109991091999999999999999KA1240M+03251MA1999999099091MD1999999+0081REMSYN082AAXX  13004 82765 32/97 90000 10246 20227 39909 40150 333 10325 29083 55068 58008;EQDQ01  00002PRCP06
0196827650999992004071312004-07333-047467FM-12+021299999V0201401N003112200019N0200001N1+02611+01821101711ADDAA106000091GA1001+999999999GF100991001001999999001001KA1240N+02131MA1999999099301MD1999999+0091REMSYN070AAXX  13124 82765 32998 01406 10261 20182 39930 40171 333 20213 58009;EQDQ01  00002PRCP06
0167827650999992004071318004-07333-047467FM-12+021299999V0200901N001012200019N0200001N1+03251+01541101211ADDAA106000091GF102991011011012501011001MA1999999098831MD1999999-0061REMSYN070AAXX  13184 82765 32698 20902 10325 20154 39883 40121 81110 333 59006;EQDQ01  00002PRCP06
0208827650999992004071400004-07333-047467FM-12+021299999V0200501N001510024019N0100001N1+02701+02061101431ADDAA106000091GA1091+999999999GF109991091999999999999999KA1240M+03431MA1999999099041MD1999999-0051REMSYN082AAXX  14004 82765 32/97 90503 10270 20206 39904 40143 333 10343 29060 55099 59005;EQDQ01  00002PRCP06
0196827650999992004071412004-07333-047467FM-12+021299999V0200901N005112200019N0200001N1+02701+01781101741ADDAA106000091GA1001+999999999GF100991001001999999001001KA1240N+02021MA1999999099341MD1999999+0041REMSYN070AAXX  14124 82765 32998 00910 10270 20178 39934 40174 333 20202 58004;EQDQ01  00002PRCP06
0167827650999992004071418004-07333-047467FM-12+021299999V0200501N002612200019N0200001N1+03311+01801101301ADDAA106000091GF104991041011008001001001MA1999999098911MD1999999+0081REMSYN070AAXX  14184 82765 32598 40505 10331 20180 39891 40130 84100 333 58008;EQDQ01  00002PRCP06
0208827650999992004071500004-07333-047467FM-12+021299999V0200901N001010024019N0100001N1+02761+02121101561ADDAA106000091GA1091+999999999GF109991091999999999999999KA1240M+03451MA1999999099171MD1999999+0131REMSYN082AAXX  15004 82765 32/97 90902 10276 20212 39917 40156 333 10345 29058 55105 58013;EQDQ01  00002PRCP06
0196827650999992004071512004-07333-047467FM-12+021299999V0200501N004112200019N0200001N1+02701+01761101791ADDAA106000091GA1001+999999999GF100991001001999999001001KA1240N+02051MA1999999099401MD1999999+0061REMSYN070AAXX  15124 82765 32998 00508 10270 20176 39940 40179 333 20205 58006;EQDQ01  00002PRCP06
0167827650999992004071518004-07333-047467FM-12+021299999V0200501N003112200019N0200001N1+03321+01971101471ADDAA106000091GF104991041011008001001001MA1999999099081MD1999999+0171REMSYN070AAXX  15184 82765 32598 40506 10332 20197 39908 40147 84100 333 58017;EQDQ01  00002PRCP06
0208827650999992004071600004-07333-047467FM-12+021299999V0209999C000012200019N0200001N1+02841+02191101561ADDAA106000091GA1001+999999999GF100991001001999999001001KA1240M+03481MA1999999099181MD1999999+0051REMSYN082AAXX  16004 82765 32998 00000 10284 20219 39918 40156 333 10348 29059 55108 58005;EQDQ01  00002PRCP06
0196827650999992004071612004-07333-047467FM-12+021299999V0200501N004112200019N0200001N1+02801+01811101871ADDAA106000091GA1001+999999999GF100991001001999999001001KA1240N+02171MA1999999099481MD1999999+0081REMSYN070AAXX  16124 82765 32998 00508 10280 20181 39948 40187 333 20217 58008;EQDQ01  00002PRCP06
0167827650999992004071618004-07333-047467FM-12+021299999V0200901N001510075019N0200001N1+03341+01831101431ADDAA106000091GF106991061021008001001001MA1999999099051MD1999999-0031REMSYN070AAXX  16184 82765 32598 60903 10334 20183 39905 40143 86200 333 59003;EQDQ01  00002PRCP06
0208827650999992004071700004-07333-047467FM-12+021299999V0209999C000012200019N0200001N1+02821+02241101541ADDAA106000091GA1001+999999999GF100991001001999999001001KA1240M+03521MA1999999099161MD1999999-0021REMSYN082AAXX  17004 82765 32998 00000 10282 20224 39916 40154 333 10352 29059 55094 59002;EQDQ01  00002PRCP06
0186827650999992004071712004-07333-047467FM-12+021299999V0202301N000510450019N0200001N1+02441+02071101851ADDAA106000091GF105991031011008001041001KA1240N+02171MA1999999099451MD1999999-0031REMSYN076AAXX  17124 82765 32598 52301 10244 20207 39945 40185 83140 333 20217 59003;EQDQ01  00002PRCP06
0167827650999992004071718004-07333-047467FM-12+021299999V0201401N001512200019N0200001N1+03361+01851101381ADDAA106000091GF104991041011008001001001MA1999999099001MD1999999-0051REMSYN070AAXX  17184 82765 32598 41403 10336 20185 39900 40138 84100 333 59005;EQDQ01  00002PRCP06
0208827650999992004071800004-07333-047467FM-12+021299999V0200501N000512200019N0200001N1+02841+02141101571ADDAA106000091GA1001+999999999GF100991001001999999001001KA1240M+03541MA1999999099171MD1999999+0011REMSYN082AAXX  18004 82765 32998 00501 10284 20214 39917 40157 333 10354 29063 55087 58001;EQDQ01  00002PRCP06
0186827650999992004071812004-07333-047467FM-12+021299999V0200501N000512200019N0200001N1+02621+02141101911ADDAA106000091GF103991021011008001041001KA1240N+02151MA1999999099511MD1999999+0061REMSYN076AAXX  18124 82765 32598 30501 10262 20214 39951 40191 82140 333 20215 58006;EQDQ01  00002PRCP06
0167827650999992004071818004-07333-047467FM-12+021299999V0201801N001010450019N0200001N1+03261+02081101461ADDAA106000091GF105991031011008001041001MA1999999099071MD1999999+0071REMSYN070AAXX  18184 82765 32598 51802 10326 20208 39907 40146 83140 333 58007;EQDQ01  00002PRCP06
0198827650999992004071900004-07333-047467FM-12+021299999V0200501N000512200019N0200001N1+02901+02341101631ADDAA106000091GF103991021011008001041001KA1240M+03401MA1999999099241MD1999999+0071REMSYN088AAXX  19004 82765 32598 30501 10290 20234 39924 40163 82140 333 10340 29067 55080 58007;EQDQ01  00002PRCP06
0186827650999992004071912004-07333-047467FM-12+021299999V0202701N001510450019N0200001N1+02761+02191101911ADDAA106000091GF105991031011008001041001KA1240N+02331MA1999999099521MD1999999+0011REMSYN076AAXX  19124 82765 32598 52703 10276 20219 39952 40191 83140 333 20233 58001;EQDQ01  00002PRCP06
0167827650999992004071918004-07333-047467FM-12+021299999V0200501N000510450019N0200001N1+03301+02021101481ADDAA106000091GF106991031011008001041001MA1999999099101MD1999999+0031REMSYN070AAXX  19184 82765 32598 60501 10330 20202 39910 40148 83140 333 58003;EQDQ01  00002PRCP06
0208827650999992004072000004-07333-047467FM-12+021299999V0209999C000012200019N0200001N1+02781+02181101661ADDAA106000091GA1001+999999999GF100991001001999999001001KA1240M+03481MA1999999099271MD1999999+0031REMSYN082AAXX  20004 82765 32998 00000 10278 20218 39927 40166 333 10348 29064 55086 58003;EQDQ01  00002PRCP06
0196827650999992004072012004-07333-047467FM-12+021299999V0200901N001012200019N0200001N1+02661+02111101931ADDAA106000091GA1001+999999999GF100991001001999999001001KA1240N+02091MA1999999099531MD1999999+0011REMSYN070AAXX  20124 82765 32998 00902 10266 20211 39953 40193 333 20209 58001;EQDQ01  00002PRCP06
0167827650999992004072018004-07333-047467FM-12+021299999V0200501N001512200019N0200001N1+03361+01971101451ADDAA106000091GF102991021011008001001001MA1999999099061MD1999999-0041REMSYN070AAXX  20184 82765 32598 20503 10336 20197 39906 40145 82100 333 59004;EQDQ01  00002PRCP06
0208827650999992004072100004-07333-047467FM-12+021299999V0209999C000012200019N0200001N1+02801+02151101571ADDAA106000091GA1001+999999999GF100991001001999999001001KA1240M+03561MA1999999099181MD1999999-0091REMSYN082AAXX  21004 82765 32998 00000 10280 20215 39918 40157 333 10356 29063 55103 59009;EQDQ01  00002PRCP06
0196827650999992004072112004-07333-047467FM-12+021299999V0200901N001012200019N0200001N1+02551+01861101721ADDAA106000091GA1001+999999999GF100991001001999999001001KA1240N+02021MA1999999099321MD1999999-0211REMSYN070AAXX  21124 82765 32998 00902 10255 20186 39932 40172 333 20202 59021;EQDQ01  00002PRCP06
0167827650999992004072118004-07333-047467FM-12+021299999V0201801N001012200019N0200001N1+03421+01741101231ADDAA106000091GF104991041011008001001001MA1999999098851MD1999999-0211REMSYN070AAXX  21184 82765 32598 41802 10342 20174 39885 40123 84100 333 59021;EQDQ01  00002PRCP06
0208827650999992004072200004-07333-047467FM-12+021299999V0209999C000012200019N0200001N1+02821+02071101431ADDAA106000091GA1001+999999999GF100991001001999999001001KA1240M+03621MA1999999099041MD1999999-0141REMSYN082AAXX  22004 82765 32998 00000 10282 20207 39904 40143 333 10362 29058 55102 59014;EQDQ01  00002PRCP06
0186827650999992004072212004-07333-047467FM-12+021299999V0200501N001012200019N0200001N1+02661+01871101701ADDAA106000091GF103991021011008001001041KA1240N+02081MA1999999099311MD1999999-0011REMSYN076AAXX  22124 82765 32598 30502 10266 20187 39931 40170 82104 333 20208 59001;EQDQ01  00002PRCP06
0167827650999992004072218004-07333-047467FM-12+021299999V0200501N001512200019N0200001N1+03401+01891101251ADDAA106000091GF104991041021008001001001MA1999999098871MD1999999+0021REMSYN070AAXX  22184 82765 32598 40503 10340 20189 39887 40125 84200 333 58002;EQDQ01  00002PRCP06
0208827650999992004072300004-07333-047467FM-12+021299999V0201401N001512200019N0200001N1+02911+01991101471ADDAA106000091GA1001+999999999GF100991001001999999001001KA1240M+03541MA1999999099091MD1999999+0051REMSYN082AAXX  23004 82765 32998 01403 10291 20199 39909 40147 333 10354 29055 55091 58005;EQDQ01  00002PRCP06
0186827650999992004072312004-07333-047467FM-12+021299999V0200901N001012200019N0200001N1+02551+01781101791ADDAA106000091GF102991021011008001001001KA1240N+02231MA1999999099401MD1999999+0091REMSYN076AAXX  23124 82765 32598 20902 10255 20178 39940 40179 82100 333 20223 58009;EQDQ01  00002PRCP06
0167827650999992004072318004-07333-047467FM-12+021299999V0201401N001512200019N0200001N1+03231+01801101421ADDAA106000091GF103991031011008001001001MA1999999099041MD1999999+0171REMSYN070AAXX  23184 82765 32598 31403 10323 20180 39904 40142 83100 333 58017;EQDQ01  00002PRCP06
0208827650999992004072400004-07333-047467FM-12+021299999V0200901N001012200019N0200001N1+02771+02021101621ADDAA106000091GA1001+999999999GF100991001001999999001001KA1240M+03421MA1999999099221MD1999999+0131REMSYN082AAXX  24004 82765 32998 00902 10277 20202 39922 40162 333 10342 29058 55100 58013;EQDQ01  00002PRCP06
0186827650999992004072412004-07333-047467FM-12+021299999V0201101N002612200019N0200001N1+02481+01461101981ADDAA106000091GF101991011001008001041001KA1240N+02051MA1999999099571MD1999999+0171REMSYN076AAXX  24124 82765 32598 11105 10248 20146 39957 40198 81040 333 20205 58017;EQDQ01  00002PRCP06
0137827650999992004072418004-07333-047467FM-12+021299999V0201101N003112200019N0200001N1+99999+99999999999ADDAA106000091GF101991999999008001999999REMSYN069AAXX  24184 82765 32598 11106 1324 20167 39921 40161 81040 333 58017;EQDQ01  00002PRCP06
0192827650999992004072500004-07333-047467FM-12+021299999V0200901N000512200019N0200001N1+02701+01961101751ADDAA106000091GA1001+999999999GF100991001001999999001001KA1240M+03401MA1999999099341REMSYN080AAXX  25004 82765 32998 00901 10270 20196 39934 40175 333 10340 29055 55104 580;EQDQ01  00002PRCP06
0186827650999992004072512004-07333-047467FM-12+021299999V0201101N002612200019N0200001N1+02481+01571101951ADDAA106000091GF101991011001008001041001KA1240N+01991MA1999999099541MD1999999-0031REMSYN076AAXX  25124 82765 32598 11105 10248 20157 39954 40195 81040 333 20199 59003;EQDQ01  00002PRCP06
0167827650999992004072518004-07333-047467FM-12+021299999V0200901N002612200019N0200001N1+03261+01801101491ADDAA106000091GF102991021001008001041001MA1999999099091MD1999999-0121REMSYN070AAXX  25184 82765 32598 20905 10326 20180 39909 40149 82040 333 59012;EQDQ01  00002PRCP06
0208827650999992004072600004-07333-047467FM-12+021299999V0201601N001012200019N0200001N1+02661+02041101671ADDAA106000091GA1001+999999999GF100991001001999999001001KA1240M+03441MA1999999099261MD1999999-0081REMSYN082AAXX  26004 82765 32998 01602 10266 20204 39926 40167 333 10344 29059 55107 59008;EQDQ01  00002PRCP06
0196827650999992004072612004-07333-047467FM-12+021299999V0201101N003112200019N0200001N1+02421+01151101951ADDAA106000091GA1001+999999999GF100991001001999999001001KA1240N+02191MA1999999099531MD1999999-0011REMSYN070AAXX  26124 82765 32998 01106 10242 20115 39953 40195 333 20219 59001;EQDQ01  00002PRCP06
0167827650999992004072618004-07333-047467FM-12+021299999V0200901N002112200019N0200001N1+03241+01751101561ADDAA106000091GF102991021011008001001001MA1999999099171MD1999999+0081REMSYN070AAXX  26184 82765 32598 20904 10324 20175 39917 40156 82100 333 58008;EQDQ01  00002PRCP06
0198827650999992004072700004-07333-047467FM-12+021299999V0201101N000512200019N0200001N1+02801+02081101821ADDAA106000091GF104991041011008001001001KA1240M+03421MA1999999099411MD1999999+0151REMSYN088AAXX  27004 82765 32598 41101 10280 20208 39941 40182 84100 333 10342 29058 55108 58015;EQDQ01  00002PRCP06
0196827650999992004072712004-07333-047467FM-12+021299999V0201401N004112200019N0200001N1+02561+01591101061ADDAA106000091GA1001+999999999GF100991001001999999001001KA1240N+02171MA1999999098681MD1999999+0151REMSYN070AAXX  27124 82765 32998 01408 10256 20159 39868 40106 333 20217 58015;EQDQ01  00002PRCP06
0177827650999992004072718004-07333-047467FM-12+021299999V0200501N003112200019N0200001N1+03221+01731101601ADDAA106000091GA1001+999999999GF100991001001999999001001MA1999999099211MD1999999+0041REMSYN064AAXX  27184 82765 32998 00506 10322 20173 39921 40160 333 58004;EQDQ01  00002PRCP06
0208827650999992004072800004-07333-047467FM-12+021299999V0200501N000512200019N0200001N1+02701+02031101781ADDAA106000091GA1001+999999999GF100991001001999999001001KA1240M+03361MA1999999099381MD1999999-0031REMSYN082AAXX  28004 82765 32998 00501 10270 20203 39938 40178 333 10336 29057 55109 59003;EQDQ01  00002PRCP06
0177827650999992004072818004-07333-047467FM-12+021299999V0200501N001512200019N0200001N1+03241+01671101521ADDAA106000091GA1001+999999999GF100991001001999999001001MA1999999099111MD1999999-0101REMSYN064AAXX  28184 82765 32998 00503 10324 20167 39911 40152 333 59010;EQDQ01  00002PRCP06
0208827650999992004072900004-07333-047467FM-12+021299999V0200501N003612200019N0200001N1+02721+02031101751ADDAA106000091GA1001+999999999GF100991001001999999001001KA1240M+03421MA1999999099341MD1999999-0041REMSYN082AAXX  29004 82765 32998 00507 10272 20203 39934 40175 333 10342 29056 55108 59004;EQDQ01  00002PRCP06
0196827650999992004072912004-07333-047467FM-12+021299999V0200501N003112200019N0200001N1+02481+01601101941ADDAA106000091GA1001+999999999GF100991001001999999001001KA1240N+01971MA1999999099541MD1999999-0011REMSYN070AAXX  29124 82765 32998 00506 10248 20160 39954 40194 333 20197 59001;EQDQ01  00002PRCP06
0177827650999992004072918004-07333-047467FM-12+021299999V0200501N003612200019N0200001N1+03261+01761101471ADDAA106000091GA1001+999999999GF100991001001999999001001MA1999999099071MD1999999-0041REMSYN064AAXX  29184 82765 32998 00507 10326 20176 39907 40147 333 59004;EQDQ01  00002PRCP06
0208827650999992004073000004-07333-047467FM-12+021299999V0200501N001512200019N0200001N1+02721+01791101751ADDAA106000091GA1001+999999999GF100991001001999999001001KA1240M+03461MA1999999099341MD1999999+0001REMSYN082AAXX  30004 82765 32998 00503 10272 20179 39934 40175 333 10346 29053 55109 58000;EQDQ01  00002PRCP06
0186827650999992004073012004-07333-047467FM-12+021299999V0200501N005712200019N0200001N1+02641+01691102021ADDAA106000091GF102991021011008001001001KA1240N+02031MA1999999099621MD1999999-0081REMSYN076AAXX  30124 82765 32598 20511 10264 20169 39962 40202 82100 333 20203 59008;EQDQ01  00002PRCP06
0167827650999992004073018004-07333-047467FM-12+021299999V0200501N001010075019N0200001N1+03301+01801101571ADDAA106000091GF105991051011008001001001MA1999999099171MD1999999+0101REMSYN070AAXX  30184 82765 32598 50502 10330 20180 39917 40157 85100 333 58010;EQDQ01  00002PRCP06
0198827650999992004073100004-07333-047467FM-12+021299999V0200501N001012200019N0200001N1+02841+02141101771ADDAA106000091GF102991021011008001001001KA1240M+03521MA1999999099381MD1999999+0041REMSYN088AAXX  31004 82765 32598 20502 10284 20214 39938 40177 82100 333 10352 29057 55107 58004;EQDQ01  00002PRCP06
0196827650999992004073112004-07333-047467FM-12+021299999V0200501N003112200019N0200001N1+02701+01881101971ADDAA106000091GA1001+999999999GF100991001001999999001001KA1240N+02171MA1999999099571MD1999999-0051REMSYN070AAXX  31124 82765 32998 00506 10270 20188 39957 40197 333 20217 59005;EQDQ01  00002PRCP06
0167827650999992004073118004-07333-047467FM-12+021299999V0200501N001010075019N0200001N1+03321+01931101491ADDAA106000091GF105991051011008001001001MA1999999099101MD1999999-0071REMSYN070AAXX  31184 82765 32598 50502 10332 20193 39910 40149 85100 333 59007;EQDQ01  00002PRCP06
0198827650999992004080100004-07333-047467FM-12+021299999V0200501N000510075019N0200001N1+02961+02181101671ADDAA106000091GF105991051011008001001001KA1240M+03621MA1999999099291MD1999999-0091REMSYN088AAXX  01004 82765 32598 50501 10296 20218 39929 40167 85100 333 10362 29058 55102 59009;EQDQ01  00002PRCP06
0186827650999992004080112004-07333-047467FM-12+021299999V0202701N001012200019N0200001N1+02611+01961101841ADDAA106000091GF101991011011008001001001KA1240N+02241MA1999999099451MD1999999-0121REMSYN076AAXX  01124 82765 32598 12702 10261 20196 39945 40184 81100 333 20224 59012;EQDQ01  00002PRCP06
0078827650999992004080118004-07333-047467FM-12+021299999V02099999999999999999N9999999N1+99999+99999999999REMSYN069AAXX  01184 82765 32598 5140 10346 20186 39906 40144 85100 333 59004;
0208827650999992004080200004-07333-047467FM-12+021299999V0209999C000012200019N0200001N1+02891+02081101641ADDAA106000091GA1001+999999999GF100991001001999999001001KA1240M+03661MA1999999099251MD1999999-0041REMSYN082AAXX  02004 82765 32998 00000 10289 20208 39925 40164 333 10366 29058 55100 59004;EQDQ01  00002PRCP06
0186827650999992004080212004-07333-047467FM-12+021299999V0201801N000510450019N0200001N1+02581+01941101821ADDAA106000091GF106991031011008001041001KA1240N+02151MA1999999099431MD1999999-0021REMSYN076AAXX  02124 82765 32598 61801 10258 20194 39943 40182 83140 333 20215 59002;EQDQ01  00002PRCP06
0167827650999992004080218004-07333-047467FM-12+021299999V0200501N001010450019N0200001N1+03401+02141101351ADDAA106000091GF106991041011008001041001MA1999999098971MD1999999-0041REMSYN070AAXX  02184 82765 32598 60502 10340 20214 39897 40135 84140 333 59004;EQDQ01  00002PRCP06
0198827650999992004080300004-07333-047467FM-12+021299999V0209999C000012200019N0200001N1+02841+02241101581ADDAA106000091GF102991021011008001001001KA1240M+03641MA1999999099191MD1999999-0061REMSYN088AAXX  03004 82765 32598 20000 10284 20224 39919 40158 82100 333 10364 29064 55083 59006;EQDQ01  00002PRCP06
0186827650999992004080312004-07333-047467FM-12+021299999V0203601N000512200019N0200001N1+02821+02051101851ADDAA106000091GF103991031001008001041001KA1240N+02241MA1999999099461MD1999999+0031REMSYN076AAXX  03124 82765 32598 33601 10282 20205 39946 40185 83040 333 20224 58003;EQDQ01  00002PRCP06
0167827650999992004080318004-07333-047467FM-12+021299999V0200901N001010450019N0200001N1+03441+01841101371ADDAA106000091GF105991041011008001041001MA1999999099001MD1999999+0031REMSYN070AAXX  03184 82765 32598 50902 10344 20184 39900 40137 84140 333 58003;EQDQ01  00002PRCP06
0208827650999992004080400004-07333-047467FM-12+021299999V0200901N000512200019N0200001N1+02901+02121101551ADDAA106000091GA1001+999999999GF100991001001999999001001KA1240M+03601MA1999999099171MD1999999-0021REMSYN082AAXX  04004 82765 32998 00901 10290 20212 39917 40155 333 10360 29057 55106 59002;EQDQ01  00002PRCP06
0186827650999992004080412004-07333-047467FM-12+021299999V0200901N001512200019N0200001N1+02681+01551101881ADDAA106000091GF104991041011008001001001KA1240N+02071MA1999999099491MD1999999+0031REMSYN076AAXX  04124 82765 32598 40903 10268 20155 39949 40188 84100 333 20207 58003;EQDQ01  00002PRCP06
0167827650999992004080418004-07333-047467FM-12+021299999V0201401N001512200019N0200001N1+03421+01681101431ADDAA106000091GF102991011011008001041001MA1999999099051MD1999999+0051REMSYN070AAXX  04184 82765 32598 21403 10342 20168 39905 40143 81140 333 58005;EQDQ01  00002PRCP06
0208827650999992004080500004-07333-047467FM-12+021299999V0200901N000512200019N0200001N1+02881+01941101591ADDAA106000091GA1001+999999999GF100991001001999999001001KA1240M+03581MA1999999099211MD1999999+0041REMSYN082AAXX  05004 82765 32998 00901 10288 20194 39921 40159 333 10358 29049 55107 58004;EQDQ01  00002PRCP06
0196827650999992004080512004-07333-047467FM-12+021299999V0200501N005112200019N0200001N1+02561+01501101891ADDAA106000091GA1001+999999999GF100991001001999999001001KA1240N+01871MA1999999099491MD1999999+0001REMSYN070AAXX  05124 82765 32998 00510 10256 20150 39949 40189 333 20187 58000;EQDQ01  00002PRCP06
0208827650999992004080600004-07333-047467FM-12+021299999V0200501N001012200019N0200001N1+02741+02021101711ADDAA106000091GA1001+999999999GF100991001001999999001001KA1240M+03521MA1999999099301MD1999999+0091REMSYN082AAXX  06004 82765 32998 00502 10274 20202 39930 40171 333 10352 29056 55108 58009;EQDQ01  00002PRCP06
0196827650999992004080612004-07333-047467FM-12+021299999V0200501N001512200019N0200001N1+02701+01691101851ADDAA106000091GA1001+999999999GF100991001001999999001001KA1240N+01911MA1999999099451MD1999999-0041REMSYN070AAXX  06124 82765 32998 00503 10270 20169 39945 40185 333 20191 59004;EQDQ01  00002PRCP06
0167827650999992004080618004-07333-047467FM-12+021299999V0200501N002612200019N0200001N1+03501+01981101471ADDAA106000091GF104991041011008001001001MA1999999099081MD1999999-0041REMSYN070AAXX  06184 82765 32598 40505 10350 20198 39908 40147 84100 333 59004;EQDQ01  00002PRCP06
0208827650999992004080700004-07333-047467FM-12+021299999V0200901N000512200019N0200001N1+02901+02381101711ADDAA106000091GA1001+999999999GF100991001001999999001001KA1240M+03601MA1999999099321MD1999999+0021REMSYN082AAXX  07004 82765 32998 00901 10290 20238 39932 40171 333 10360 29100 55052 58002;EQDQ01  00002PRCP06
0186827650999992004080712004-07333-047467FM-12+021299999V0200501N004112200019N0200001N1+02741+01731102011ADDAA106000091GF102991021011008001001001KA1240N+02131MA1999999099621MD1999999+0171REMSYN076AAXX  07124 82765 32598 20508 10274 20173 39962 40201 82100 333 20213 58017;EQDQ01  00002PRCP06
0167827650999992004080718004-07333-047467FM-12+021299999V0200501N003110450019N0200001N1+03341+01831101601ADDAA106000091GF106991041021008001041001MA1999999099211MD1999999+0131REMSYN070AAXX  07184 82765 32598 60506 10334 20183 39921 40160 84240 333 58013;EQDQ01  00002PRCP06
0208827650999992004080800004-07333-047467FM-12+021299999V0200501N001012200019N0200001N1+03021+02161101791ADDAA106000091GA1001+999999999GF100991001001999999001001KA1240M+03561MA1999999099411MD1999999+0091REMSYN082AAXX  08004 82765 32998 00502 10302 20216 39941 40179 333 10356 29054 55085 58009;EQDQ01  00002PRCP06
0196827650999992004080812004-07333-047467FM-12+021299999V0203201N001012200019N0200001N1+02591+01921101921ADDAA106000091GA1001+999999999GF100991001001999999001001KA1240N+02181MA1999999099531MD1999999-0091REMSYN070AAXX  08124 82765 32998 03202 10259 20192 39953 40192 333 20218 59009;EQDQ01  00002PRCP06
0167827650999992004080818004-07333-047467FM-12+021299999V0200901N001510075019N0200001N1+03401+01931101501ADDAA106000091GF105991051011008001001001MA1999999099121MD1999999-0091REMSYN070AAXX  08184 82765 32598 50903 10340 20193 39912 40150 85100 333 59009;EQDQ01  00002PRCP06
0208827650999992004080900004-07333-047467FM-12+021299999V0209999C000012200019N0200001N1+02921+02091101671ADDAA106000091GA1001+999999999GF100991001001999999001001KA1240M+03641MA1999999099281MD1999999-0191REMSYN082AAXX  09004 82765 32998 00000 10292 20209 39928 40167 333 10364 29058 55096 59019;EQDQ01  00002PRCP06
0186827650999992004080912004-07330-047470FM-12+019399999V0200501N001012200019N0200001N1+02971+01901101861ADDAA106000091GF104991041001017501031001KA1240N+02151MA1999999099481MD1999999-0051REMSYN076AAXX  09124 82765 32798 40502 10297 20190 39948 40186 84030 333 20215 59005;EQDQ01  00002PRCP06
0167827650999992004080918004-07330-047470FM-12+019399999V0201801N001010075019N0200001N1+03501+01721101331ADDAA106000091GF105991051011008001001001MA1999999098961MD1999999-0161REMSYN070AAXX  09184 82765 32598 51802 10350 20172 39896 40133 85100 333 59016;EQDQ01  00002PRCP06
0208827650999992004081000004-07330-047470FM-12+019399999V0209999C000012200019N0200001N1+03001+02171101581ADDAA106000091GA1001+999999999GF100991001001999999001001KA1240M+03741MA1999999099221MD1999999-0061REMSYN082AAXX  10004 82765 32998 00000 10300 20217 39922 40158 333 10374 29053 55102 59006;EQDQ01  00002PRCP06
0190827650999992004081012004-07330-047470FM-12+019399999V0203201N000510450019N0200001N1+02531+02131101931ADDAY161061AY221061GF105991031011008001031001KA1240N+02321MA1999999099531MD1999999+0051MW1021REMSYN088AAXX  10124 82765 21598 53201 10253 20213 39953 40193 70262 83130 333 20232 58005 69984;
0167827650999992004081018004-07330-047470FM-12+019399999V0201401N001012200019N0200001N1+03511+01981101351ADDAA106000091GF104991021011008001051041MA1999999098981MD1999999+0021REMSYN070AAXX  10184 82765 32598 41402 10351 20198 39898 40135 82154 333 58002;EQDQ01  00002PRCP06
0236827650999992004081100004-07330-047470FM-12+019399999V0201401N002610024019N0100001N1+03031+02161101681ADDAA106000091AY101061AY201061GA1091+999999999GF109991091999999999999999KA1240M+03701MA1999999099291MD1999999+0071MW1131REMSYN088AAXX  11004 82765 31/97 91405 10303 20216 39929 40168 71300 333 10370 29060 55079 58007;EQDQ01  00002PRCP06
0186827650999992004081112004-07333-047467FM-12+021299999V0201101N001519999999N0200001N1+02721+01741102061ADDAA106000091GF106991061001008001041001KA1240N+02271MA1999999099671MD1999999+0141REMSYN076AAXX  11124 82765 32598 61103 10272 20174 39967 40206 86040 333 20227 58014;EQDQ01  00002PRCP06
0167827650999992004081118004-07333-047467FM-12+021299999V0200901N001010450019N0200001N1+03161+01751101591ADDAA106000091GF107991021011008001031001MA1999999099201MD1999999+0221REMSYN070AAXX  11184 82765 32598 70902 10316 20175 39920 40159 82130 333 58022;EQDQ01  00002PRCP06
0208827650999992004081200004-07330-047470FM-12+019399999V0209999C000012200019N0200001N1+02721+02101101791ADDAA106000091GA1001+999999999GF100991001001999999001001KA1240M+03301MA1999999099391MD1999999+0101REMSYN082AAXX  12004 82765 32998 00000 10272 20210 39939 40179 333 10330 29059 55056 58010;EQDQ01  00002PRCP06
0186827650999992004081212004-07330-047470FM-12+019399999V0201101N001512200019N0200001N1+02621+01671102011ADDAA106000091GF102991011011008001031001KA1240N+01981MA1999999099611MD1999999-0061REMSYN076AAXX  12124 82765 32598 21103 10262 20167 39961 40201 81130 333 20198 59006;EQDQ01  00002PRCP06
0167827650999992004081218004-07330-047470FM-12+019399999V0200501N000512200019N0200001N1+03441+01761101571ADDAA106000091GF104991021011008001031001MA1999999099181MD1999999-0021REMSYN070AAXX  12184 82765 32598 40501 10344 20176 39918 40157 82130 333 59002;EQDQ01  00002PRCP06
0208827650999992004081300004-07330-047470FM-12+019399999V0209999C000012200019N0200001N1+02921+02121101741ADDAA106000091GA1001+999999999GF100991001001999999001001KA1240M+03611MA1999999099351MD1999999-0041REMSYN082AAXX  13004 82765 32998 00000 10292 20212 39935 40174 333 10361 29054 55109 59004;EQDQ01  00002PRCP06
0186827650999992004081312004-07330-047470FM-12+019399999V0201601N001012200019N0200001N1+02721+01561102061ADDAA106000091GF102991021001008001041001KA1240N+02111MA1999999099661MD1999999+0051REMSYN076AAXX  13124 82765 32598 21602 10272 20156 39966 40206 82040 333 20211 58005;EQDQ01  00002PRCP06
0167827650999992004081318004-07330-047470FM-12+019399999V0200701N001012200019N0200001N1+03421+02131101501ADDAA106000091GF102991011011008001031001MA1999999099111MD1999999-0071REMSYN070AAXX  13184 82765 32598 20702 10342 20213 39911 40150 81130 333 59007;EQDQ01  00002PRCP06
0208827650999992004081400004-07330-047470FM-12+019399999V0200501N000512200019N0200001N1+02881+01971101701ADDAA106000091GA1001+999999999GF100991001001999999001001KA1240M+03701MA1999999099291MD1999999-0061REMSYN082AAXX  14004 82765 32998 00501 10288 20197 39929 40170 333 10370 29053 55109 59006;EQDQ01  00002PRCP06
0186827650999992004081412004-07330-047470FM-12+019399999V0201101N002112200019N0200001N1+02601+01381102011ADDAA106000091GF103991011011008001031001KA1240N+02071MA1999999099611MD1999999-0051REMSYN076AAXX  14124 82765 32598 31104 10260 20138 39961 40201 81130 333 20207 59005;EQDQ01  00002PRCP06
0167827650999992004081418004-07330-047470FM-12+019399999V0203601N001012200019N0200001N1+03321+01571101541ADDAA106000091GF102991021001008001031001MA1999999099151MD1999999+0041REMSYN070AAXX  14184 82765 32598 23602 10332 20157 39915 40154 82030 333 58004;EQDQ01  00002PRCP06
0208827650999992004081500004-07330-047470FM-12+019399999V0200901N001012200019N0200001N1+02821+01911101771ADDAA106000091GA1001+999999999GF100991001001999999001001KA1240M+03581MA1999999099371MD1999999+0081REMSYN082AAXX  15004 82765 32998 00902 10282 20191 39937 40177 333 10358 29048 55107 58008;EQDQ01  00002PRCP06
0186827650999992004081512004-07330-047470FM-12+019399999V0201601N001512200019N0200001N1+02621+01431101921ADDAA106000091GF101991011001008001031001KA1240N+01991MA1999999099581MD1999999-0031REMSYN076AAXX  15124 82765 32598 11603 10262 20143 39958 40192 81030 333 20199 59003;EQDQ01  00002PRCP06
0177827650999992004081518004-07330-047470FM-12+019399999V0200701N001012200019N0200001N1+03361+01731101541ADDAA106000091GA1001+999999999GF100991001001999999001001MA1999999099151MD1999999+0001REMSYN064AAXX  15184 82765 32998 00702 10336 20173 39915 40154 333 58000;EQDQ01  00002PRCP06
0208827650999992004081600004-07330-047470FM-12+019399999V0200901N001012200019N0200001N1+02941+02081102651ADDAA106000091GA1001+999999999GF100991001001999999001001KA1240M+03561MA1999999099261MD1999999-0111REMSYN082AAXX  16004 82765 32998 00902 10294 20208 39926 40265 333 10356 29052 55110 59011;EQDQ01  00002PRCP06
0196827650999992004081612004-07330-047470FM-12+019399999V0200501N004112200019N0200001N1+02761+01721101861ADDAA106000091GA1001+999999999GF100991001001999999001001KA1240N+02111MA1999999099471MD1999999-0111REMSYN070AAXX  16124 82765 32998 00508 10276 20172 39947 40186 333 20211 59011;EQDQ01  00002PRCP06
0167827650999992004081618004-07330-047470FM-12+019399999V0200501N003110075019N0200001N1+03461+01941101461ADDAA106000091GF106991061011008001001001MA1999999099081MD1999999-0071REMSYN070AAXX  16184 82765 32598 60506 10346 20194 39908 40146 86100 333 59007;EQDQ01  00002PRCP06
0186827650999992004081712004-07330-047470FM-12+019399999V0201101N000512200019N0200001N1+02761+01831101781ADDAA106000091GF102991021021008001001001KA1240N+02151MA1999999099391MD1999999-0081REMSYN076AAXX  17124 82765 32598 21101 10276 20183 39939 40178 82200 333 20215 59008;EQDQ01  00002PRCP06
0208827650999992004081800004-07330-047470FM-12+019399999V0200901N000512200019N0200001N1+03061+02141101521ADDAA106000091GA1001+999999999GF100991001001999999001001KA1240M+03761MA1999999099151MD1999999-0061REMSYN082AAXX  18004 82765 32998 00901 10306 20214 39915 40152 333 10376 29052 55098 59006;EQDQ01  00002PRCP06
0186827650999992004081812004-07330-047470FM-12+019399999V0200701N000512200019N0200001N1+02901+01841101761ADDAA106000091GF101991011011008001001001KA1240N+02261MA1999999099391MD1999999+0001REMSYN076AAXX  18124 82765 32598 10701 10290 20184 39939 40176 81100 333 20226 58000;EQDQ01  00002PRCP06
0167827650999992004081818004-07330-047470FM-12+019399999V0200701N001010075019N0200001N1+03501+01861101431ADDAA106000091GF107991071021008001001001MA1999999099061MD1999999+0091REMSYN070AAXX  18184 82765 32598 70702 10350 20186 39906 40143 87200 333 58009;EQDQ01  00002PRCP06
0208827650999992004081900004-07330-047470FM-12+019399999V0200501N000512200019N0200001N1+03001+02111101571ADDAA106000091GA1001+999999999GF100991001001999999001001KA1240M+03741MA1999999099201MD1999999+0051REMSYN082AAXX  19004 82765 32998 00501 10300 20211 39920 40157 333 10374 29052 55099 58005;EQDQ01  00002PRCP06
0196827650999992004081912004-07330-047470FM-12+019399999V0201101N000512200019N0200001N1+03061+02051102041ADDAA106000091GA1001+999999999GF100991001001999999001001KA1240N+02471MA1999999099671MD1999999+0281REMSYN070AAXX  19124 82765 32998 01101 10306 20205 39967 40204 333 20247 58028;EQDQ01  00002PRCP06
0167827650999992004081918004-07330-047470FM-12+019399999V0203601N001010075019N0200001N1+03701+01811101431ADDAA106000091GF106991061021008001001001MA1999999099081MD1999999+0021REMSYN070AAXX  19184 82765 32598 63602 10370 20181 39908 40143 86200 333 58002;EQDQ01  00002PRCP06
0208827650999992004082000004-07330-047470FM-12+019399999V0209999C000012200019N0200001N1+03061+02191101711ADDAA106000091GA1001+999999999GF100991001001999999001001KA1240M+03821MA1999999099351MD1999999+0151REMSYN082AAXX  20004 82765 32998 00000 10306 20219 39935 40171 333 10382 29052 55102 58015;EQDQ01  00002PRCP06
0196827650999992004082012004-07330-047470FM-12+019399999V0200501N003112200019N0200001N1+03021+01961101811ADDAA106000091GA1001+999999999GF100991001001999999001001KA1240N+02271MA1999999099451MD1999999-0221REMSYN070AAXX  20124 82765 32998 00506 10302 20196 39945 40181 333 20227 59022;EQDQ01  00002PRCP06
0167827650999992004082018004-07330-047470FM-12+019399999V0200501N001010075019N0200001N1+03581+01811101331ADDAA106000091GF105991051021008001001001MA1999999098961MD1999999-0121REMSYN070AAXX  20184 82765 32598 50502 10358 20181 39896 40133 85200 333 59012;EQDQ01  00002PRCP06
0208827650999992004082100004-07330-047470FM-12+019399999V0209999C000012200019N0200001N1+02981+02061101511ADDAA106000091GA1001+999999999GF100991001001999999001001KA1240M+03781MA1999999099151MD1999999-0201REMSYN082AAXX  21004 82765 32998 00000 10298 20206 39915 40151 333 10378 29051 55103 59020;EQDQ01  00002PRCP06
0186827650999992004082112004-07330-047470FM-12+019399999V0200201N001010450019N0200001N1+02981+01791101761ADDAA106000091GF105991041021008001041001KA1240N+02321MA1999999099391MD1999999-0061REMSYN076AAXX  21124 82765 32598 50202 10298 20179 39939 40176 84240 333 20232 59006;EQDQ01  00002PRCP06
0198827650999992004082200004-07330-047470FM-12+019399999V0200901N001512200019N0200001N1+03041+01941101411ADDAA106000091GF103991021011008001041001KA1240M+03461MA1999999099051MD1999999-0101REMSYN088AAXX  22004 82765 32598 30903 10304 20194 39905 40141 82140 333 10346 29048 55092 59010;EQDQ01  00002PRCP06
0186827650999992004082212004-07330-047470FM-12+019399999V0203601N000510450019N0200001N1+02741+01971101861ADDAA106000091GF105991031011008001041001KA1240N+02271MA1999999099481MD1999999+0091REMSYN076AAXX  22124 82765 32598 53601 10274 20197 39948 40186 83140 333 20227 58009;EQDQ01  00002PRCP06
0167827650999992004082218004-07330-047470FM-12+019399999V0200501N001010450019N0200001N1+03561+01871101291ADDAA106000091GF105991031011008001041001MA1999999098921MD1999999-0051REMSYN070AAXX  22184 82765 32598 50502 10356 20187 39892 40129 83140 333 59005;EQDQ01  00002PRCP06
0208827650999992004082300004-07330-047470FM-12+019399999V0200501N001012200019N0200001N1+02981+02151101421ADDAA106000091GA1001+999999999GF100991001001999999001001KA1240M+03701MA1999999099051MD1999999+0001REMSYN082AAXX  23004 82765 32998 00502 10298 20215 39905 40142 333 10370 29055 55095 58000;EQDQ01  00002PRCP06
0084827650999992004082312004-07330-047470FM-12+019399999V02099999999999999999N9999999N1+99999+99999999999REMSYN075AAXX  23124 82765 32598 3004 10294 20197 39946 40184 82240 333 20227 59002;
0167827650999992004082318004-07330-047470FM-12+019399999V0203601N001510075019N0200001N1+02541+01931101421ADDAA106000091GF106991061021008001001001MA1999999099051MD1999999+0131REMSYN070AAXX  23184 82765 32598 63603 10254 20193 39905 40142 86200 333 58013;EQDQ01  00002PRCP06
0198827650999992004082400004-07330-047470FM-12+019399999V0209999C000012200019N0200001N1+03021+02311101531ADDAA106000091GF102991021011008001001001KA1240M+03701MA1999999099171MD1999999+0121REMSYN088AAXX  24004 82765 32598 20000 10302 20231 39917 40153 82100 333 10370 29057 55099 58012;EQDQ01  00002PRCP06
0196827650999992004082412004-07330-047470FM-12+019399999V0200201N001512200019N0200001N1+02901+02041101731ADDAA106000091GA1001+999999999GF100991001001999999001001KA1240N+02401MA1999999099361MD1999999-0101REMSYN070AAXX  24124 82765 32998 00203 10290 20204 39936 40173 333 20240 59010;EQDQ01  00002PRCP06
0167827650999992004082418004-07330-047470FM-12+019399999V0203601N001510075019N0200001N1+03481+02561101231ADDAA106000091GF106991061021008001001001MA1999999098871MD1999999-0181REMSYN070AAXX  24184 82765 32598 63603 10348 20256 39887 40123 86200 333 59018;EQDQ01  00002PRCP06
0208827650999992004082500004-07330-047470FM-12+019399999V0209999C000012200019N0200001N1+03061+02271101321ADDAA106000091GA1001+999999999GF100991001001999999001001KA1240M+03681MA1999999098961MD1999999-0211REMSYN082AAXX  25004 82765 32998 00000 10306 20227 39896 40132 333 10368 29058 55107 59021;EQDQ01  00002PRCP06
0186827650999992004082512004-07330-047470FM-12+019399999V0203601N001012200019N0200001N1+02881+02001101681ADDAA106000091GF102991011011008001041001KA1240N+02641MA1999999099311MD1999999-0051REMSYN076AAXX  25124 82765 32598 23602 10288 20200 39931 40168 81140 333 20264 59005;EQDQ01  00002PRCP06
0167827650999992004082518004-07333-047467FM-12+021299999V0200501N000510450019N0200001N1+03461+02131101201ADDAA106000091GF106991031081008001041001MA1999999098851MD1999999-0021REMSYN070AAXX  25184 82765 32598 60501 10346 20213 39885 40120 83840 333 59002;EQDQ01  00002PRCP06
0198827650999992004082600004-07333-047467FM-12+021299999V0209999C000010450019N0200001N1+02681+02261101471ADDAA106000091GF108991031081008001041999KA1240M+03541MA1999999099091MD1999999+0131REMSYN088AAXX  26004 82765 32598 80000 10268 20226 39909 40147 8384/ 333 10354 29065 55078 58013;EQDQ01  00002PRCP06
0186827650999992004082612004-07333-047467FM-12+021299999V0200501N000512200019N0200001N1+02761+02281101731ADDAA106000091GF104991021041008001041001KA1240N+02471MA1999999099331MD1999999+0021REMSYN076AAXX  26124 82765 32598 40501 10276 20228 39933 40173 82440 333 20247 58002;EQDQ01  00002PRCP06
0171827650999992004082618004-07333-047467FM-12+021299999V0203201N000510450019N0200001N1+02501+02311101381ADDAY161061AY261061GF107991031041008001021001MA1999999098971MD1999999+0121MW1001REMSYN082AAXX  26184 82765 21598 73201 10250 20231 39897 40138 70066 83420 333 58012 60281;
0198827650999992004082700004-07333-047467FM-12+021299999V0209999C000010450019N0200001N1+02461+02321101461ADDAA106000091GF105991031011008001011001KA1240M+03161MA1999999099061MD1999999-0031REMSYN088AAXX  27004 82765 32598 50000 10246 20232 39906 40146 83110 333 10316 29087 55022 59003;EQDQ01  00002PRCP06
0162827650999992004082712004-07333-047467FM-12+021299999V0200501N000512200019N0200001N1+02581+02331101681ADDGF102991021011008001001001KA1240N+02171MA1999999099261MD1999999-0071REMSYN082AAXX  27124 82765 22598 20501 10258 20233 39926 40168 82100 333 20217 59007 60284;
0202827650999992004082800004-07333-047467FM-12+021299999V0202301N000512200019N0200001N1+02821+02271101441ADDAY151061AY251061GF103991031011008001041001KA1240M+03541MA1999999099051MD1999999-0011MW1001REMSYN100AAXX  28004 82765 21598 32301 10282 20227 39905 40144 70055 83140 333 10354 29074 55094 59001 69921;
0172827650999992004082812004-07333-047467FM-12+021299999V0200901N000512200019N0200001N1+02801+02341101681ADDAY151061AY251061GA1001+999999999GF100991001001999999001001MA1999999099291MW1001REMSYN081AAXX  28124 82765 21598 00901 10280 20234 39929 40168 70055 33 20237 58003 69924;
0167827650999992004082818004-07330-047470FM-12+019399999V0203601N001510450019N0200001N1+03541+02161101211ADDAA106000091GF106991041021008001041001MA1999999098851MD1999999+0031REMSYN070AAXX  28184 82765 32598 63603 10354 20216 39885 40121 84240 333 58003;EQDQ01  00002PRCP06
0208827650999992004082900004-07330-047470FM-12+019399999V0200501N000512200019N0200001N1+02921+02361101331ADDAA106000091GA1001+999999999GF100991001001999999001001KA1240M+03741MA1999999098961MD1999999-0091REMSYN082AAXX  29004 82765 32998 00501 10292 20236 39896 40133 333 10374 29066 55096 59009;EQDQ01  00002PRCP06
0196827650999992004082912004-07330-047470FM-12+019399999V0202901N000512200019N0200001N1+02801+02111101661ADDAA106000091GA1001+999999999GF100991001001999999001001KA1240N+02411MA1999999099281MD1999999-0011REMSYN070AAXX  29124 82765 32998 02901 10280 20211 39928 40166 333 20241 59001;EQDQ01  00002PRCP06
0167827650999992004082918004-07330-047470FM-12+019399999V0202701N000512200019N0200001N1+03461+02091101131ADDAA106000091GF104991041021008001001001MA1999999098781MD1999999-0071REMSYN070AAXX  29184 82765 32598 42701 10346 20209 39878 40113 84200 333 59007;EQDQ01  00002PRCP06
0208827650999992004083000004-07330-047470FM-12+019399999V0203201N000512200019N0200001N1+03081+02401101351ADDAA106000091GA1001+999999999GF100991001001999999001001KA1240M+03721MA1999999098991MD1999999+0031REMSYN082AAXX  30004 82765 32998 03201 10308 20240 39899 40135 333 10372 29061 55102 58003;EQDQ01  00002PRCP06
0186827650999992004083012004-07333-047467FM-12+021299999V0203601N002112200019N0200001N1+02941+02211101551ADDAA106000091GF102991021011008001001001KA1240N+02631MA1999999099191MD1999999-0091REMSYN076AAXX  30124 82765 32598 23604 10294 20221 39919 40155 82100 333 20263 59009;EQDQ01  00002PRCP06
0167827650999992004083018004-07333-047467FM-12+021299999V0202501N001510450019N0200001N1+03481+02221101151ADDAA106000091GF106991031021008001041001MA1999999098801MD1999999+0021REMSYN070AAXX  30184 82765 32598 62503 10348 20222 39880 40115 83240 333 58002;EQDQ01  00002PRCP06
0202827650999992004083100004-07333-047467FM-12+021299999V0202901N002110450019N0200001N1+02581+02271101461ADDAY191061AY261061GF106991021081008001011001KA1240M+03721MA1999999099071MD1999999+0081MW1001REMSYN100AAXX  31004 82765 21598 62904 10258 20227 39907 40146 70096 82810 333 10372 29070 55098 58008 60111;
0190827650999992004083112004-07333-047467FM-12+021299999V0209999C000010450019N0200001N1+02381+02291101881ADDAY191061AY261061GF108991031081008001021999KA1240N+02401MA1999999099461MD1999999+0271MW1501REMSYN088AAXX  31124 82765 21598 80000 10238 20229 39946 40188 75096 8382/ 333 20240 58027 60294;
0171827650999992004083118004-07333-047467FM-12+021299999V0203201N001010450019N0200001N1+02921+02411101531ADDAY161061AY261061GF107991041081008001011001MA1999999099131MD1999999+0331MW1001REMSYN082AAXX  31184 82765 21598 73202 10292 20241 39913 40153 70066 84810 333 58033 60081;
0226827650999992004090100004-07333-047467FM-12+021299999V0202901N002110450019N0200001N1+02601+02371101611ADDAA106000091AY101061AY201061GF105991021011008001041001KA1240M+03061MA1999999099201MD1999999+0131MW1131REMSYN094AAXX  01004 82765 31598 52904 10260 20237 39920 40161 71300 82140 333 10306 29086 55030 58013;EQDQ01  00002PRCP06
0162827650999992004090112004-07333-047467FM-12+021299999V0200901N001010450019N0200001N1+02601+02251101911ADDGF105991021011008001041001KA1240N+02271MA1999999099501MD1999999+0041REMSYN082AAXX  01124 82765 22598 50902 10260 20225 39950 40191 82140 333 20227 58004 60084;
0167827650999992004090118004-07333-047467FM-12+021299999V0200501N002110450019N0200001N1+03281+02031101371ADDAA106000091GF105991031011008001041001MA1999999098991MD1999999-0141REMSYN070AAXX  01184 82765 32598 50504 10328 20203 39899 40137 83140 333 59014;EQDQ01  00002PRCP06
0198827650999992004090200004-07333-047467FM-12+021299999V0203601N001012200019N0200001N1+02861+02441101511ADDAA106000091GF103991021011008001041001KA1240M+03441MA1999999099121MD1999999-0081REMSYN088AAXX  02004 82765 32598 33602 10286 20244 39912 40151 82140 333 10344 29071 55093 59008;EQDQ01  00002PRCP06
0166827650999992004090212004-07333-047467FM-12+021299999V0200501N003112200019N0200001N1+99999+99999999999ADDAA106000091GA1001+999999999GF100991001001999999001001KA1240N+02291REMSYN069AAXX  02124 82765 32998 00506 1266 20162 39942 40181 333 20229 59008;EQDQ01  00002PRCP06
0167827650999992004090218004-07333-047467FM-12+021299999V0200501N003112200019N0200001N1+03321+01781101501ADDAA106000091GF103991031011008001001001MA1999999099071MD1999999+0081REMSYN070AAXX  02184 82765 32598 30506 10332 20178 39907 40150 83100 333 58008;EQDQ01  00002PRCP06
0208827650999992004090300004-07333-047467FM-12+021299999V0200901N000512200019N0200001N1+02841+02261101561ADDAA106000091GA1001+999999999GF100991001001999999001001KA1240M+03481MA1999999099171MD1999999+0051REMSYN082AAXX  03004 82765 32998 00901 10284 20226 39917 40156 333 10348 29060 55104 58005;EQDQ01  00002PRCP06
0186827650999992004090312004-07333-047467FM-12+021299999V0200501N005112200019N0200001N1+02821+01681101791ADDAA106000091GF102991021011008001001001KA1240N+02231MA1999999099411MD1999999-0011REMSYN076AAXX  03124 82765 32598 20510 10282 20168 39941 40179 82100 333 20223 59001;EQDQ01  00002PRCP06
0167827650999992004090318004-07333-047467FM-12+021299999V0200901N002610450019N0200001N1+03421+01941101401ADDAA106000091GF106991041011008001041001MA1999999099021MD1999999-0051REMSYN070AAXX  03184 82765 32598 60905 10342 20194 39902 40140 84140 333 59005;EQDQ01  00002PRCP06
0208827650999992004090400004-07333-047467FM-12+021299999V0209999C000012200019N0200001N1+02901+02271101461ADDAA106000091GA1001+999999999GF100991001001999999001001KA1240M+03621MA1999999099081MD1999999-0091REMSYN082AAXX  04004 82765 32998 00000 10290 20227 39908 40146 333 10362 29057 55103 59009;EQDQ01  00002PRCP06
0186827650999992004090412004-07333-047467FM-12+021299999V0201801N001012200019N0200001N1+02711+01961101601ADDAA106000091GF103991031021008001001001KA1240N+02311MA1999999099221MD1999999-0191REMSYN076AAXX  04124 82765 32598 31802 10271 20196 39922 40160 83200 333 20231 59019;EQDQ01  00002PRCP06
0208827650999992004090500004-07333-047467FM-12+021299999V0201401N000512200019N0200001N1+03011+02111101391ADDAA106000091GA1001+999999999GF100991001001999999001001KA1240M+03671MA1999999099021MD1999999-0061REMSYN082AAXX  05004 82765 32998 01401 10301 20211 39902 40139 333 10367 29054 55095 59006;EQDQ01  00002PRCP06
0202827650999992004090512004-07333-047467FM-12+021299999V0200501N002112200019N0200001N1+02831+01941101471ADDAA106000091GF102991001001999999001021KA1240N+02361MA1999999099101MD1999999-0121REMSYN076AAXX  05124 82765 32998 20504 10283 20194 39910 40147 82002 333 20236 59012;EQDQ01+000022SCOTLCQ02  00002PRCP06
0208827650999992004090600004-07333-047467FM-12+021299999V0200901N000512200019N0200001N1+02841+02241101271ADDAA106000091GA1001+999999999GF100991001001999999001001KA1240M+03671MA1999999098901MD1999999-0121REMSYN082AAXX  06004 82765 32998 00901 10284 20224 39890 40127 333 10367 29056 55102 59012;EQDQ01  00002PRCP06
0186827650999992004090612004-07333-047467FM-12+021299999V0200901N004112200019N0200001N1+02751+01441101511ADDAA106000091GF103991031001017501041001KA1240N+02131MA1999999099131MD1999999+0031REMSYN076AAXX  06124 82765 32798 30908 10275 20144 39913 40151 83040 333 20213 58003;EQDQ01  00002PRCP06
0186827650999992004090812004-07333-047467FM-12+021299999V0200501N000512200019N0200001N1+02681+01761101311ADDAA106000091GF102991021001008001041001KA1240N+02121MA1999999098931MD1999999-0111REMSYN076AAXX  08124 82765 32598 20501 10268 20176 39893 40131 82040 333 20212 59011;EQDQ01  00002PRCP06
0167827650999992004090818004-07333-047467FM-12+021299999V0200501N001512200019N0200001N1+03601+01771100841ADDAA106000091GF104991031011008001041001MA1999999098481MD1999999-0101REMSYN070AAXX  08184 82765 32598 40503 10360 20177 39848 40084 83140 333 59010;EQDQ01  00002PRCP06
0208827650999992004090900004-07333-047467FM-12+021299999V0200501N001012200019N0200001N1+02981+02121101121ADDAA106000091GA1001+999999999GF100991001001999999001001KA1240M+03731MA1999999098751MD1999999+0031REMSYN082AAXX  09004 82765 32998 00502 10298 20212 39875 40112 333 10373 29053 55096 58003;EQDQ01  00002PRCP06
0186827650999992004090912004-07333-047467FM-12+021299999V0200701N006712200019N0200001N1+02861+01481101451ADDAA106000091GF103991031001008001041001KA1240N+02271MA1999999099081MD1999999+0151REMSYN076AAXX  09124 82765 32598 30713 10286 20148 39908 40145 83040 333 20227 58015;EQDQ01  00002PRCP06
0167827650999992004090918004-07333-047467FM-12+021299999V0201101N002112200019N0200001N1+03541+01761100971ADDAA106000091GF101991011001008001041001MA1999999098611MD1999999+0131REMSYN070AAXX  09184 82765 32598 11104 10354 20176 39861 40097 81040 333 58013;EQDQ01  00002PRCP06
0186827650999992004091012004-07333-047467FM-12+021299999V0200501N006211050019N0200001N1+03041+01711101521ADDAA106000091GF105991021011008001041011KA1240N+02571MA1999999099161MD1999999+0081REMSYN076AAXX  10124 82765 32598 50512 10304 20171 39916 40152 82141 333 20257 58008;EQDQ01  00002PRCP06
0167827650999992004091018004-07333-047467FM-12+021299999V0200901N000512200019N0200001N1+03641+01851100951ADDAA106000091GF103991021011008001041001MA1999999099611MD1999999+0001REMSYN070AAXX  10184 82765 32598 30901 10364 20185 39961 40095 82140 333 58000;EQDQ01  00002PRCP06
0186827650999992004091112004-07333-047467FM-12+021299999V0209999C000010450019N0200001N1+02861+02031101491ADDAA106000091GF105991041041008001041001KA1240N+02511MA1999999099131MD1999999-0031REMSYN076AAXX  11124 82765 32598 50000 10286 20203 39913 40149 84440 333 20251 59003;EQDQ01  00002PRCP06
0167827650999992004091118004-07333-047467FM-12+021299999V0200501N001510450019N0200001N1+03561+02111101051ADDAA106000091GF106991041011008001041011MA1999999098701MD1999999+0091REMSYN070AAXX  11184 82765 32598 60503 10356 20211 39870 40105 84141 333 58009;EQDQ01  00002PRCP06
0208827650999992004091200004-07333-047467FM-12+021299999V0200501N000519999999N0200001N1+03101+02411101341ADDAA106000091GA1091+999999999GF109991091999999999999999KA1240M+03701MA1999999098981MD1999999+0201REMSYN082AAXX  12004 82765 32/98 90501 10310 20241 39898 40134 333 10370 29059 55072 58020;EQDQ01  00002PRCP06
0186827650999992004091212004-07330-047470FM-12+019399999V0200501N001510120019N0200001N1+02821+02271101721ADDAA106000091GF108991061081008001021999KA1240N+02571MA1999999099351MD1999999+0221REMSYN076AAXX  12124 82765 32598 80503 10282 20227 39935 40172 8682/ 333 20257 58022;EQDQ01  00002PRCP06
0171827650999992004091218004-07333-047467FM-12+021299999V0202301N001510120019N0200001N1+03001+02371101351ADDAY151061AY251061GF108991071081008001021999MA1999999098971MD1999999+0271MW1001REMSYN082AAXX  12184 82765 21598 82303 10300 20237 39897 40135 70055 8782/ 333 58027 60011;
0198827650999992004091300004-07333-047467FM-12+021299999V0202301N001010120019N0200001N1+02681+02561101641ADDAA106000091GF108991061081008001021999KA1240M+03121MA1999999099251MD1999999+0271REMSYN088AAXX  13004 82765 32598 82302 10268 20256 39925 40164 8682/ 333 10312 29077 55000 58027;EQDQ01  00002PRCP06
0162827650999992004091312004-07333-047467FM-12+021299999V0201401N001510090019N0200001N1+02571+02251101921ADDGF108991081081004501999999KA1240N+02401MA1999999099511MD1999999+0161REMSYN082AAXX  13124 82765 22498 81403 10257 20225 39951 40192 888// 333 20240 58016 60024;
0183827650999992004091318004-07333-047467FM-12+021299999V0203201N002119999999N0200001N1+03001+02321101291ADDAA106000091GF108991999001008001081001MA1999999098901MD1999999-0071REMSYN070AAXX  13184 82765 32598 83204 10300 20232 39890 40129 87080 333 59007;EQDQ01+000072SCOTLCQ02  00002PRCP06
0186827650999992004091412004-07333-047467FM-12+021299999V0203201N002612200019N0200001N1+02811+02221101831ADDAA106000091GF104991021011008001041011KA1240N+02251MA1999999099441MD1999999-0051REMSYN076AAXX  14124 82765 32598 43205 10281 20222 39944 40183 82141 333 20225 59005;EQDQ01  00002PRCP06
0167827650999992004091418004-07333-047467FM-12+021299999V0200501N002612200019N0200001N1+03451+01671101331ADDAA106000091GF104991021011008001041041MA1999999098971MD1999999+0071REMSYN070AAXX  14184 82765 32598 40505 10345 20167 39897 40133 82144 333 58007;EQDQ01  00002PRCP06
0208827650999992004091500004-07333-047467FM-12+021299999V0201401N000512200019N0200001N1+02971+02151101481ADDAA106000091GA1001+999999999GF100991001001999999001001KA1240M+03681MA1999999099111MD1999999-0081REMSYN082AAXX  15004 82765 32998 01401 10297 20215 39911 40148 333 10368 29058 55102 59008;EQDQ01  00002PRCP06
0186827650999992004091512004-07333-047467FM-12+021299999V0201401N001010450019N0200001N1+02491+01981101911ADDAA106000091GF105991031021008001031001KA1240N+02311MA1999999099511MD1999999+0071REMSYN076AAXX  15124 82765 32598 51402 10249 20198 39951 40191 83230 333 20231 58007;EQDQ01  00002PRCP06
0167827650999992004091518004-07333-047467FM-12+021299999V0202001N001012200019N0200001N1+03561+01991101211ADDAA106000091GF104991041021008001001001MA1999999098871MD1999999-0101REMSYN070AAXX  15184 82765 32598 42002 10356 20199 39887 40121 84200 333 59010;EQDQ01  00002PRCP06
0208827650999992004091600004-07333-047467FM-12+021299999V0209999C000012200019N0200001N1+02991+02151101381ADDAA106000091GA1001+999999999GF100991001001999999001001KA1240M+03741MA1999999099001MD1999999-0111REMSYN082AAXX  16004 82765 32998 00000 10299 20215 39900 40138 333 10374 29059 55081 59011;EQDQ01  00002PRCP06
0186827650999992004091612004-07333-047467FM-12+021299999V0203201N001012200019N0200001N1+02841+01991101671ADDAA106000091GF103991021011008001041001KA1240N+02331MA1999999099291MD1999999-0221REMSYN076AAXX  16124 82765 32598 33202 10284 20199 39929 40167 82140 333 20233 59022;EQDQ01  00002PRCP06
0167827650999992004091618004-07333-047467FM-12+021299999V0203201N000510075019N0200001N1+03601+02141101141ADDAA106000091GF107991051021008001041001MA1999999098781MD1999999-0091REMSYN070AAXX  16184 82765 32598 73201 10360 20214 39878 40114 85240 333 59009;EQDQ01  00002PRCP06
0208827650999992004091700004-07333-047467FM-12+021299999V0203401N000512200019N0200001N1+03021+02241101351ADDAA106000091GA1001+999999999GF100991001001999999001001KA1240M+03781MA1999999098991MD1999999-0011REMSYN082AAXX  17004 82765 32998 03401 10302 20224 39899 40135 333 10378 29056 55079 59001;EQDQ01  00002PRCP06
0186827650999992004091712004-07333-047467FM-12+021299999V0202301N001512200019N0200001N1+02861+02311101711ADDAA106000091GF103991031001008001041001KA1240N+02531MA1999999099341MD1999999+0051REMSYN076AAXX  17124 82765 32598 32303 10286 20231 39934 40171 83040 333 20253 58005;EQDQ01  00002PRCP06
0167827650999992004091718004-07333-047467FM-12+021299999V0200201N002110450019N0200001N1+03461+02161101231ADDAA106000091GF106991041021008001041001MA1999999098881MD1999999+0101REMSYN070AAXX  17184 82765 32598 60204 10346 20216 39888 40123 84240 333 58010;EQDQ01  00002PRCP06
0208827650999992004091800004-07333-047467FM-12+021299999V0202701N001512200019N0200001N1+02921+02321101491ADDAA106000091GA1001+999999999GF100991001001999999001001KA1240M+03581MA1999999099121MD1999999+0131REMSYN082AAXX  18004 82765 32998 02703 10292 20232 39912 40149 333 10358 29065 55047 58013;EQDQ01  00002PRCP06
0186827650999992004091812004-07333-047467FM-12+021299999V0200201N002612200019N0200001N1+03001+02141101601ADDAA106000091GF102991021001008001041001KA1240N+02411MA1999999099231MD1999999-0111REMSYN076AAXX  18124 82765 32598 20205 10300 20214 39923 40160 82040 333 20241 59011;EQDQ01  00002PRCP06
0167827650999992004091818004-07333-047467FM-12+021299999V0200501N001510075019N0200001N1+03601+01991101141ADDAA106000091GF106991051021008001041001MA1999999098801MD1999999-0081REMSYN070AAXX  18184 82765 32598 60503 10360 20199 39880 40114 85240 333 59008;EQDQ01  00002PRCP06
0208827650999992004091900004-07330-047470FM-12+019399999V0203401N000512200019N0200001N1+03041+02381101341ADDAA106000091GA1001+999999999GF100991001001999999001001KA1240M+03741MA1999999098981MD1999999-0141REMSYN082AAXX  19004 82765 32998 03401 10304 20238 39898 40134 333 10374 29059 55097 59014;EQDQ01  00002PRCP06
0186827650999992004091912004-07330-047470FM-12+019399999V0200501N003112200019N0200001N1+03061+02251101711ADDAA106000091GF102991021011008001001001KA1240N+02511MA1999999099351MD1999999+0121REMSYN076AAXX  19124 82765 32598 20506 10306 20225 39935 40171 82100 333 20251 58012;EQDQ01  00002PRCP06
0167827650999992004091918004-07330-047470FM-12+019399999V0203601N001010075019N0200001N1+03541+01971101111ADDAA106000091GF106991051021008001041001MA1999999098771MD1999999-0031REMSYN070AAXX  19184 82765 32598 63602 10354 20197 39877 40111 85240 333 59003;EQDQ01  00002PRCP06
0169827650999992004092000004-07330-047470FM-12+019399999V0203601N000512200019N0200001N1+03141+02321101271ADDAA106000091GF103991021011008001041001MA1999999098921REMSYN086AAXX  20004 82765 32598 33601 10314 20232 39892 40127 82140 333 100 29056 55085 59006;EQDQ01  00002PRCP06
0214827650999992004092012004-07333-047467FM-12+021299999V0200501N003112200019N0100001N1+03021+02211101561ADDAA106000091AY101061AY201061GF103991021011008001041001KA1240N+02471MA1999999099211MD1999999-0141MW1041REMSYN082AAXX  20124 82765 31597 30506 10302 20221 39921 40156 70400 82140 333 20247 59014;EQDQ01  00002PRCP06
0167827650999992004092018004-07333-047467FM-12+021299999V0200501N001510450019N0200001N1+03601+02031101091ADDAA106000091GF106991041021008001041001MA1999999098751MD1999999-0021REMSYN070AAXX  20184 82765 32598 60503 10360 20203 39875 40109 84240 333 59002;EQDQ01  00002PRCP06
0198827650999992004092100004-07333-047467FM-12+021299999V0203201N001012200019N0200001N1+03001+02171101331ADDAA106000091GF103991021011008001041001KA1240M+03781MA1999999098971MD1999999-0051REMSYN088AAXX  21004 82765 32598 33202 10300 20217 39897 40133 82140 333 10378 29056 55081 59005;EQDQ01  00002PRCP06
0186827650999992004092112004-07333-047467FM-12+021299999V0200501N001512200019N0200001N1+03021+02161101641ADDAA106000091GF102991021011008001001001KA1240N+02511MA1999999099271MD1999999+0061REMSYN076AAXX  21124 82765 32598 20503 10302 20216 39927 40164 82100 333 20251 58006;EQDQ01  00002PRCP06
0167827650999992004092118004-07333-047467FM-12+021299999V0201801N001510450019N0200001N1+03601+02071101131ADDAA106000091GF106991041021008001041001MA1999999098781MD1999999+0031REMSYN070AAXX  21184 82765 32598 61803 10360 20207 39878 40113 84240 333 58003;EQDQ01  00002PRCP06
0208827650999992004092200004-07333-047467FM-12+021299999V0200501N001012200019N0200001N1+02961+02231101351ADDAA106000091GA1001+999999999GF100991001001999999001001KA1240M+03741MA1999999098991MD1999999+0021REMSYN082AAXX  22004 82765 32998 00502 10296 20223 39899 40135 333 10374 29058 55077 58002;EQDQ01  00002PRCP06
0214827650999992004092212004-07333-047467FM-12+021299999V0200501N005712200019N0040001N1+03011+02141101811ADDAA106000091AY111061AY211061GF102991021001017501041001KA1240N+02511MA1999999099441MD1999999+0171MW1051REMSYN082AAXX  22124 82765 31796 20511 10301 20214 39944 40181 70511 82040 333 20251 58017;EQDQ01  00002PRCP06
0195827650999992004092218004-07333-047467FM-12+021299999V0200901N003110075019N0100001N1+03601+01901101291ADDAA106000091AY121061AY211061GF105991051021008001001001MA1999999098931MD1999999+0151MW1051REMSYN076AAXX  22184 82765 31597 50906 10360 20190 39893 40129 70521 85200 333 58015;EQDQ01  00002PRCP06
0208827650999992004092300004-07333-047467FM-12+021299999V0200901N000512200019N0200001N1+03071+02141101401ADDAA106000091GA1001+999999999GF100991001001999999001001KA1240M+03761MA1999999099051MD1999999+0061REMSYN082AAXX  23004 82765 32998 00901 10307 20214 39905 40140 333 10376 29053 55088 58006;EQDQ01  00002PRCP06
0190827650999992004092312004-07333-047467FM-12+021299999V0203601N003110075019N0040001N1+02941+02191101851ADDAY161061AY221061GF105991051021008001001001KA1240N+02611MA1999999099481MD1999999+0041MW1051REMSYN088AAXX  23124 82765 21596 53606 10294 20219 39948 40185 70562 85200 333 20261 58004 69954;
0195827650999992004092318004-07333-047467FM-12+021299999V0200901N002610450019N0100001N1+03561+02031101261ADDAA106000091AY121061AY211061GF106991031021008001011041MA1999999098911MD1999999-0021MW1051REMSYN076AAXX  23184 82765 31597 60905 10356 20203 39891 40126 70521 83214 333 59002;EQDQ01  00002PRCP06
0208827650999992004092400004-07333-047467FM-12+021299999V0203201N001012200019N0200001N1+03091+02071101391ADDAA106000091GA1001+999999999GF100991001001999999001001KA1240M+03711MA1999999099031MD1999999-0021REMSYN082AAXX  24004 82765 32998 03202 10309 20207 39903 40139 333 10371 29054 55077 59002;EQDQ01  00002PRCP06
0190827650999992004092412004-07333-047467FM-12+021299999V0203601N001510450019N0200001N1+02351+02151101761ADDAY161061AY221061GF107991041021004501021001KA1240N+02351MA1999999099361MD1999999-0121MW1021REMSYN088AAXX  24124 82765 21498 73603 10235 20215 39936 40176 70262 84220 333 20235 59012 60124;
0167827650999992004092418004-07333-047467FM-12+021299999V0202701N001010450019N0200001N1+03371+02331101131ADDAA106000091GF105991031021008001031001MA1999999098781MD1999999-0131REMSYN070AAXX  24184 82765 32598 52702 10337 20233 39878 40113 83230 333 59013;EQDQ01  00002PRCP06
0198827650999992004092500004-07333-047467FM-12+021299999V0209999C000010150019N0200001N1+02851+02501101351ADDAA106000091GF105991051001017501011001KA1240M+03551MA1999999098951MD1999999-0081REMSYN088AAXX  25004 82765 32798 50000 10285 20250 39895 40135 85010 333 10355 29077 55061 59008;EQDQ01  00002PRCP06
0186827650999992004092512004-07333-047467FM-12+021299999V0200201N003112200019N0200001N1+02961+02181101591ADDAA106000091GF101991011001008001041001KA1240N+02421MA1999999099221MD1999999-0141REMSYN076AAXX  25124 82765 32598 10206 10296 20218 39922 40159 81040 333 20242 59014;EQDQ01  00002PRCP06
0167827650999992004092518004-07333-047467FM-12+021299999V0203401N001510450019N0200001N1+03561+02031101081ADDAA106000091GF106991041021008001041001MA1999999098731MD1999999-0051REMSYN070AAXX  25184 82765 32598 63403 10356 20203 39873 40108 84240 333 59005;EQDQ01  00002PRCP06
0198827650999992004092600004-07333-047467FM-12+021299999V0203201N001510150019N0200001N1+02981+02301101211ADDAA106000091GF107991071001017501011001KA1240M+03661MA1999999098851MD1999999-0101REMSYN088AAXX  26004 82765 32798 73203 10298 20230 39885 40121 87010 333 10366 29060 55085 59010;EQDQ01  00002PRCP06
0186827650999992004092612004-07330-047470FM-12+019399999V0200201N004110450019N0200001N1+02801+02201101741ADDAA106000091GF106991041081008001041001KA1240N+02491MA1999999099361MD1999999+0141REMSYN076AAXX  26124 82765 32598 60208 10280 20220 39936 40174 84840 333 20249 58014;EQDQ01  00002PRCP06
0167827650999992004092618004-07330-047470FM-12+019399999V0200501N002610450019N0200001N1+03561+01991101171ADDAA106000091GF105991041021008001041001MA1999999098821MD1999999+0091REMSYN070AAXX  26184 82765 32598 50505 10356 20199 39882 40117 84240 333 58009;EQDQ01  00002PRCP06
0198827650999992004092700004-07330-047470FM-12+019399999V0209999C000019999999N0200001N1+03101+02231101361ADDAA106000091GF105991051001008001041001KA1240M+03681MA1999999099001MD1999999+0151REMSYN088AAXX  27004 82765 32598 50000 10310 20223 39900 40136 85040 333 10368 29058 55083 58015;EQDQ01  00002PRCP06
0186827650999992004092712004-07330-047470FM-12+019399999V0203201N001019999999N0200001N1+02801+02111101671ADDAA106000091GF105991051001008001041001KA1240N+02371MA1999999099301MD1999999-0061REMSYN076AAXX  27124 82765 32598 53202 10280 20211 39930 40167 85040 333 20237 59006;EQDQ01  00002PRCP06
0167827650999992004092718004-07333-047467FM-12+021299999V0201401N001510450019N0200001N1+03581+01971101171ADDAA106000091GF106991031011008001041001MA1999999098821MD1999999+0001REMSYN070AAXX  27184 82765 32598 61403 10358 20197 39882 40117 83140 333 58000;EQDQ01  00002PRCP06
0198827650999992004092800004-07333-047467FM-12+021299999V0209999C000019999999N0200001N1+03101+02441101311ADDAA106000091GF106991061001008001041001KA1240M+03761MA1999999098951MD1999999-0051REMSYN088AAXX  28004 82765 32598 60000 10310 20244 39895 40131 86040 333 10376 29060 55086 59005;EQDQ01  00002PRCP06
0186827650999992004092812004-07333-047467FM-12+021299999V0200501N002610450019N0200001N1+02921+02221101631ADDAA106000091GF106991041011008001041001KA1240N+02511MA1999999099261MD1999999-0041REMSYN076AAXX  28124 82765 32598 60505 10292 20222 39926 40163 84140 333 20251 59004;EQDQ01  00002PRCP06
0167827650999992004092818004-07333-047467FM-12+021299999V0203601N003110450019N0200001N1+03441+02641101061ADDAA106000091GF106991041021008001041001MA1999999098711MD1999999+0111REMSYN070AAXX  28184 82765 32598 63606 10344 20264 39871 40106 84240 333 58011;EQDQ01  00002PRCP06
0198827650999992004092900004-07333-047467FM-12+021299999V0202301N000512200019N0200001N1+03091+02421101181ADDAA106000091GF104991041021008001001001KA1240M+03591MA1999999098831MD1999999-0121REMSYN088AAXX  29004 82765 32598 42301 10309 20242 39883 40118 84200 333 10359 29062 55075 59012;EQDQ01  00002PRCP06
0190827650999992004092912004-07333-047467FM-12+021299999V0200901N002110450019N0200001N1+02241+02031101761ADDAY101061AY201061GF108991021031008001021999KA1240N+02211MA1999999099361MD1999999-0171MW1951REMSYN088AAXX  29124 82765 21598 80904 10224 20203 39936 40176 79500 8232/ 333 20221 59017 60104;
0190827650999992004092918004-07333-047467FM-12+021299999V0201401N000510450019N9999999N1+02961+02151101181ADDAY151061AY251061GF106991021011008001041011MA1999999098801MD1999999-0091MW1001REMSYN082AAXX  29184 82765 21593 61401 10296 20215 39880 40118 70055 82141 333 59009 60021;EQDQ01+005002VODIS 
0208827650999992004093000004-07333-047467FM-12+021299999V0209999C000012200019N0200001N1+02761+02561101171ADDAA106000091GA1001+999999999GF100991001001999999001001KA1240M+03161MA1999999098771MD1999999+0061REMSYN082AAXX  30004 82765 32998 00000 10276 20256 39877 40117 333 10316 29082 55047 58006;EQDQ01  00002PRCP06
0162827650999992004093012004-07333-047467FM-12+021299999V0200501N003110450019N0200001N1+02821+02271101451ADDGF106991041021008001041001KA1240N+02231MA1999999099071MD1999999-0291REMSYN082AAXX  30124 82765 22598 60506 10282 20227 39907 40145 84240 333 20223 59029 60024;
0167827650999992004093018004-07333-047467FM-12+021299999V0200501N000512200019N0200001N1+03301+02451101071ADDAA106000091GF104991021021008001041001MA1999999098701MD1999999-0101REMSYN070AAXX  30184 82765 32598 40501 10330 20245 39870 40107 82240 333 59010;EQDQ01  00002PRCP06
0198827650999992004100100004-07333-047467FM-12+021299999V0201801N001510450019N0200001N1+02761+02161101201ADDAA106000091GF106991021011008001041001KA1240M+03421MA1999999098831MD1999999+0061REMSYN088AAXX  01004 82765 32598 61803 10276 20216 39883 40120 82140 333 10342 29068 55065 58006;EQDQ01  00002PRCP06
0186827650999992004100112004-07333-047467FM-12+021299999V0200501N002110450019N0200001N1+02531+02131101611ADDAA106000091GF107991041021004501071001KA1240N+02381MA1999999099211MD1999999+0141REMSYN076AAXX  01124 82765 32498 70504 10253 20213 39921 40161 84270 333 20238 58014;EQDQ01  00002PRCP06
0171827650999992004100118004-07333-047467FM-12+021299999V0202301N000510450019N0040001N1+02481+02251101311ADDAY161061AY221061GF107991041021004501021001MA1999999098901MD1999999+0201MW1611REMSYN082AAXX  01184 82765 21496 72301 10248 20225 39890 40131 76162 84220 333 58020 60041;
0212827650999992004100200004-07333-047467FM-12+021299999V0200501N000512200019N0200001N1+02421+02321101321ADDAY161061AY221061GA1001+999999999GF100991001001999999001001KA1240M+03151MA1999999098911MD1999999+0081MW1001REMSYN094AAXX  02004 82765 21998 00501 10242 20232 39891 40132 70062 333 10315 29088 55017 58008 69991;
0162827650999992004100212004-07333-047467FM-12+021299999V0200501N001510450019N0200001N1+02631+02391101601ADDGF105991031021008001041041KA1240N+02251MA1999999099191MD1999999-0021REMSYN082AAXX  02124 82765 22598 50503 10263 20239 39919 40160 83244 333 20225 59002 60054;
0167827650999992004100218004-07333-047467FM-12+021299999V0200901N001512200019N0200001N1+03331+02261101011ADDAA106000091GF104991031011008001041001MA1999999098641MD1999999-0261REMSYN070AAXX  02184 82765 32598 40903 10333 20226 39864 40101 83140 333 59026;EQDQ01  00002PRCP06
0208827650999992004100300004-07333-047467FM-12+021299999V0209999C000012200019N0200001N1+02901+02521101111ADDAA106000091GA1001+999999999GF100991001001999999001001KA1240M+03501MA1999999098731MD1999999-0181REMSYN082AAXX  03004 82765 32998 00000 10290 20252 39873 40111 333 10350 29075 55098 59018;EQDQ01  00002PRCP06
0214827650999992004100312004-07333-047467FM-12+021299999V0203201N003112200019N0040001N1+02861+02261101481ADDAA106000091AY121061AY211061GF104991031001017501041041KA1240N+02421MA1999999099111MD1999999-0081MW1051REMSYN082AAXX  03124 82765 31796 43206 10286 20226 39911 40148 70521 83044 333 20242 59008;EQDQ01  00002PRCP06
0195827650999992004100318004-07330-047470FM-12+019399999V0203601N001510450019N0100001N1+03431+02231101011ADDAA106000091AY121061AY211061GF105991031021008001011041MA1999999098651MD1999999+0011MW1051REMSYN076AAXX  03184 82765 31597 53603 10343 20223 39865 40101 70521 83214 333 58001;EQDQ01  00002PRCP06
0190827650999992004100412004-07333-047467FM-12+021299999V0203201N001519999999N0200001N1+02561+02361101601ADDAY161061AY261061GF108991081071999999999999KA1240N+02481MA1999999099201MD1999999+0091MW1001REMSYN088AAXX  04124 82765 21998 83203 10256 20236 39920 40160 70066 887// 333 20248 58009 60044;
0167827650999992004100418004-07333-047467FM-12+021299999V0200501N003110450019N0200001N1+02721+02371101291ADDAA106000091GF108991041081012501011999MA1999999098901MD1999999+0251REMSYN070AAXX  04184 82765 32698 80506 10272 20237 39890 40129 8481/ 333 58025;EQDQ01  00002PRCP06
0208827650999992004100500004-07333-047467FM-12+021299999V0209999C000012200019N0200001N1+02601+02461101311ADDAA106000091GA1001+999999999GF100991001001999999001001KA1240M+02981MA1999999098911MD1999999+0111REMSYN082AAXX  05004 82765 32998 00000 10260 20246 39891 40131 333 10298 29088 55006 58011;EQDQ01  00002PRCP06
0186827650999992004100512004-07333-047467FM-12+021299999V0200201N000519999999N0200001N1+02701+02331101441ADDAA106000091GF105991051001008001041001KA1240N+02311MA1999999099051MD1999999-0151REMSYN076AAXX  05124 82765 32598 50201 10270 20233 39905 40144 85040 333 20231 59015;EQDQ01  00002PRCP06
0167827650999992004100518004-07333-047467FM-12+021299999V0200201N001510075019N0200001N1+03461+02301101991ADDAA106000091GF106991051021008001041001MA1999999098631MD1999999-0271REMSYN070AAXX  05184 82765 32598 60203 10346 20230 39863 40199 85240 333 59027;EQDQ01  00002PRCP06
0190827650999992004100612004-07333-047467FM-12+021299999V0203401N001510120019N0200001N1+02621+02421101531ADDAY191061AY261061GF108991061081008001021999KA1240N+02371MA1999999099141MD1999999+0091MW1001REMSYN088AAXX  06124 82765 21598 83403 10262 20242 39914 40153 70096 8682/ 333 20237 58009 60094;
0078827650999992004100618004-07333-047467FM-12+021299999V02099999999999999999N9999999N1+99999+99999999999REMSYN069AAXX  06184 82765 2598 82005 10280 20240 39891 40131 8672/ 333 59028;
0202827650999992004100700004-07333-047467FM-12+021299999V0202001N001010075019N0100001N1+02241+02171101581ADDAY161061AY261061GF108991081071008001999999KA1240M+02921MA1999999099161MD1999999+0301MW1001REMSYN100AAXX  07004 82765 21597 82002 10224 20217 39916 40158 70066 887// 333 10292 29090 55001 58030 60051;
0167827650999992004100718004-07333-047467FM-12+021299999V0203201N002610120019N0200001N1+03121+02361101171ADDAA106000091GF107991051081008001041001MA1999999098781MD1999999-0131REMSYN070AAXX  07184 82765 32598 73205 10312 20236 39878 40117 85840 333 59013;EQDQ01  00002PRCP06
0202827650999992004100800004-07333-047467FM-12+021299999V0200501N005110075019N0200001N1+02521+02251101591ADDAY191061AY291061GF108991061051008001021999KA1240M+03241MA1999999099221MD1999999+0101MW1641REMSYN100AAXX  08004 82765 21598 80510 10252 20225 39922 40159 76499 8652/ 333 10324 29080 55046 58010 60121;
0190827650999992004100812004-07333-047467FM-12+021299999V0209999C000010120019N0200001N1+02361+02281101661ADDAY161061AY251061GF108991061081008001021999KA1240N+02271MA1999999099241MD1999999+0011MW1001REMSYN088AAXX  08124 82765 21598 80000 10236 20228 39924 40166 70065 8682/ 333 20227 58001 60134;
0167827650999992004100818004-07333-047467FM-12+021299999V0200501N001010450019N0200001N1+03121+02381101181ADDAA106000091GF106991041021008001021001MA1999999098791MD1999999+0011REMSYN070AAXX  08184 82765 32598 60502 10312 20238 39879 40118 84220 333 58001;EQDQ01  00002PRCP06
0198827650999992004100900004-07333-047467FM-12+021299999V0209999C000012200019N0200001N1+02741+02431101361ADDAA106000091GF103991021011008001041001KA1240M+03221MA1999999098961MD1999999-0261REMSYN088AAXX  09004 82765 32598 30000 10274 20243 39896 40136 82140 333 10322 29081 55033 59026;EQDQ01  00002PRCP06
0186827650999992004100912004-07333-047467FM-12+021299999V0200501N001510120019N0200001N1+02641+02351101691ADDAA106000091GF108991061081008001021999KA1240N+02411MA1999999099291MD1999999+0051REMSYN076AAXX  09124 82765 32598 80503 10264 20235 39929 40169 8682/ 333 20241 58005;EQDQ01  00002PRCP06
0167827650999992004100918004-07333-047467FM-12+021299999V0202301N002110120019N0200001N1+03041+02451101181ADDAA106000091GF108991051081008001021999MA1999999098891MD1999999+0101REMSYN070AAXX  09184 82765 32598 82304 10304 20245 39889 40118 8582/ 333 58010;EQDQ01  00002PRCP06
0198827650999992004101000004-07333-047467FM-12+021299999V0201801N001510120019N0200001N1+02741+02451101431ADDAA106000091GF108991061081008001021999KA1240M+03141MA1999999099041MD1999999+0081REMSYN088AAXX  10004 82765 32598 81803 10274 20245 39904 40143 8682/ 333 10314 29081 55004 58008;EQDQ01  00002PRCP06
0162827650999992004101012004-07333-047467FM-12+021299999V0200501N001510450019N0200001N1+02651+02371101731ADDGF107991041081004501021001KA1240N+02421MA1999999099331MD1999999+0041REMSYN082AAXX  10124 82765 22498 70503 10265 20237 39933 40173 84820 333 20242 58004 69914;
0167827650999992004101018004-07333-047467FM-12+021299999V0200501N001510075019N0200001N1+03321+02351101201ADDAA106000091GF106991061031008001001001MA1999999098831MD1999999-0061REMSYN070AAXX  10184 82765 32598 60503 10332 20235 39883 40120 86300 333 59006;EQDQ01  00002PRCP06
0208827650999992004101100004-07333-047467FM-12+021299999V0200501N000512200019N0200001N1+02921+02581101341ADDAA106000091GA1001+999999999GF100991001001999999001001KA1240M+03481MA1999999098961MD1999999-0081REMSYN082AAXX  11004 82765 32998 00501 10292 20258 39896 40134 333 10348 29076 55064 59008;EQDQ01  00002PRCP06
0208827650999992004101112004-07330-047470FM-12+019399999V0203601N003110024019N0040001N1+02831+02201101521ADDAA106000091GA1091+999999999GF109991091999999999999999KA1240N+02461MA1999999099151MD1999999-0181MW1051REMSYN076AAXX  11124 82765 31/96 93606 10283 20220 39915 40152 705// 333 20246 59018;EQDQ01  00002PRCP06
0195827650999992004101118004-07330-047470FM-12+019399999V0203601N002110075019N0100001N1+03431+02161101011ADDAA106000091AY111061AY211061GF105991051021008001001001MA1999999098651MD1999999-0181MW1051REMSYN076AAXX  11184 82765 31597 53604 10343 20216 39865 40101 70511 85200 333 59018;EQDQ01  00002PRCP06
0208827650999992004101200004-07330-047470FM-12+019399999V0209999C000012200019N0200001N1+03011+02571101211ADDAA106000091GA1001+999999999GF100991001001999999001001KA1240M+03531MA1999999098851MD1999999-0111REMSYN082AAXX  12004 82765 32998 00000 10301 20257 39885 40121 333 10353 29068 55093 59011;EQDQ01  00002PRCP06
0208827650999992004101300004-07333-047467FM-12+021299999V0209999C000012200019N0200001N1+03111+02601101051ADDAA106000091GA1001+999999999GF100991001001999999001001KA1240M+03591MA1999999098701MD1999999-0151REMSYN082AAXX  13004 82765 32998 00000 10311 20260 39870 40105 333 10359 29067 55094 59015;EQDQ01  00002PRCP06
0214827650999992004101312004-07333-047467FM-12+021299999V0203201N001510075019N0020001N1+02821+02401101461ADDAA106000021AY101061AY251061GF108991051021008001011999KA1240N+02511MA1999999099091MD1999999-0041MW1221REMSYN082AAXX  13124 82765 31595 83203 10282 20240 39909 40146 72205 8521/ 333 20251 59004;EQDQ01+000002PRSWM1
0195827650999992004101318004-07333-047467FM-12+021299999V0202301N003119999999N0020001N1+03161+02391101071ADDAA106000021AY101061AY251061GF105991051001008001041001MA1999999098701MD1999999+0141MW1221REMSYN076AAXX  13184 82765 31595 52306 10316 20239 39870 40107 72205 85040 333 58014;EQDQ01+000002PRSWM1
0189827650999992004101400004-07333-047467FM-12+021299999V0202701N002112200019N0200001N1+02701+02221101231ADDAA106000021GA1001+999999999GF100991001001999999001001KA1240M+03361MA1999999098851MD1999999+0151REMSYN082AAXX  14004 82765 32998 02704 10270 20222 39885 40123 333 10336 29073 55011 58015;
0214827650999992004101412004-07333-047467FM-12+021299999V0200501N001510450019N0020001N1+02721+02411101491ADDAA106000091AY121061AY221061GF106991031021008001011001KA1240N+02431MA1999999099101MD1999999+0011MW1101REMSYN082AAXX  14124 82765 31595 60503 10272 20241 39910 40149 71022 83210 333 20243 58001;EQDQ01  00002PRCP06
0208827650999992004101500004-07333-047467FM-12+021299999V0200501N000512200019N0200001N1+02761+02501101151ADDAA106000091GA1001+999999999GF100991001001999999001001KA1240M+03281MA1999999098771MD1999999-0081REMSYN082AAXX  15004 82765 32998 00501 10276 20250 39877 40115 333 10328 29082 55009 59008;EQDQ01  00002PRCP06
0224827650999992004101512004-07333-047467FM-12+021299999V0203601N000512200019N0100001N1+02821+02421101471ADDAA106000091AY101061AY201061GA1001+999999999GF100991001001999999001001KA1240N+02331MA1999999099091MD1999999-0011MW1041REMSYN076AAXX  15124 82765 31997 03601 10282 20242 39909 40147 70400 333 20233 59001;EQDQ01  00002PRCP06
0195827650999992004101518004-07333-047467FM-12+021299999V0200501N002110450019N0100001N1+03441+02281101111ADDAA106000091AY101061AY201061GF106991041021008001041001MA1999999098741MD1999999+0021MW1041REMSYN076AAXX  15184 82765 31597 60504 10344 20228 39874 40111 70400 84240 333 58002;EQDQ01  00002PRCP06
0208827650999992004101600004-07333-047467FM-12+021299999V0209999C000012200019N0200001N1+03001+02621101171ADDAA106000091GA1001+999999999GF100991001001999999001001KA1240M+03541MA1999999098811MD1999999+0051REMSYN082AAXX  16004 82765 32998 00000 10300 20262 39881 40117 333 10354 29072 55058 58005;EQDQ01  00002PRCP06
0214827650999992004101612004-07330-047470FM-12+019399999V0200901N002610120019N0100001N1+02761+02381101481ADDAA106000091AY101061AY201061GF107991051081008001021001KA1240N+02391MA1999999099111MD1999999+0021MW1041REMSYN082AAXX  16124 82765 31597 70905 10276 20238 39911 40148 70400 85820 333 20239 58002;EQDQ01  00002PRCP06
0195827650999992004101618004-07330-047470FM-12+019399999V0203201N001510120019N0100001N1+03261+02381101001ADDAA106000091AY101061AY201061GF108991061081008001021999MA1999999098641MD1999999-0101MW1041REMSYN076AAXX  16184 82765 31597 83203 10326 20238 39864 40100 70400 8682/ 333 59010;EQDQ01  00002PRCP06
0226827650999992004101700004-07330-047470FM-12+019399999V0203201N000512200019N0100001N1+02741+02361101221ADDAA106000091AY101061AY201061GF102991011011008001041001KA1240M+03441MA1999999098841MD1999999+0031MW1041REMSYN094AAXX  17004 82765 31597 23201 10274 20236 39884 40122 70400 81140 333 10344 29075 55028 58003;EQDQ01  00002PRCP06
0190827650999992004101712004-07330-047470FM-12+019399999V0201801N002610120019N0200001N1+02461+02171101561ADDAY101061AY201061GF108991061081008001021999KA1240N+02431MA1999999099161MD1999999+0051MW1961REMSYN088AAXX  17124 82765 21598 81805 10246 20217 39916 40156 79600 8682/ 333 20243 58005 60024;
0171827650999992004101718004-07330-047470FM-12+019399999V0203201N001010120019N0100001N1+03021+02441101051ADDAY151061AY251061GF108991061081008001021999MA1999999098671MD1999999+0031MW1041REMSYN082AAXX  17184 82765 21597 83202 10302 20244 39867 40105 70455 8682/ 333 58003 69911;
0198827650999992004101800004-07333-047467FM-12+021299999V0209999C000010120019N0200001N1+02741+02501101131ADDAA106000091GF108991061081008001021999KA1240M+03061MA1999999098741MD1999999-0101REMSYN088AAXX  18004 82765 32598 80000 10274 20250 39874 40113 8682/ 333 10306 29082 55017 59010;EQDQ01  00002PRCP06
0162827650999992004101812004-07333-047467FM-12+021299999V0201401N001510120019N0200001N1+02641+02481101631ADDGF108991061081008001021999KA1240N+02391MA1999999099241MD1999999+0081REMSYN082AAXX  18124 82765 22598 81403 10264 20248 39924 40163 8682/ 333 20239 58008 69914;
0195827650999992004101818004-07333-047467FM-12+021299999V0200901N001510450019N0100001N1+03241+02361101131ADDAA106000091AY101061AY201061GF106991041021008001041001MA1999999098761MD1999999+0091MW1041REMSYN076AAXX  18184 82765 31597 60903 10324 20236 39876 40113 70400 84240 333 58009;EQDQ01  00002PRCP06
0208827650999992004101900004-07333-047467FM-12+021299999V0209999C000012200019N0200001N1+02821+02541101241ADDAA106000091GA1001+999999999GF100991001001999999001001KA1240M+03321MA1999999098861MD1999999+0121REMSYN082AAXX  19004 82765 32998 00000 10282 20254 39886 40124 333 10332 29080 55030 58012;EQDQ01  00002PRCP06
0224827650999992004101912004-07333-047467FM-12+021299999V0202701N001010024019N0040001N1+02761+02491101541ADDAA106000091AY111061AY211061GA1091+999999999GF109991091999999999999999KA1240N+02401MA1999999099161MD1999999-0081MW1051REMSYN076AAXX  19124 82765 31/96 92702 10276 20249 39916 40154 70511 333 20240 59008;EQDQ01  00002PRCP06
0195827650999992004101918004-07333-047467FM-12+021299999V0202701N001012200019N0040001N1+03341+02311101181ADDAA106000091AY121061AY211061GF104991031021008001011001MA1999999098811MD1999999+0051MW1051REMSYN076AAXX  19184 82765 31596 42702 10334 20231 39881 40118 70521 83210 333 58005;EQDQ01  00002PRCP06
0208827650999992004102000004-07333-047467FM-12+021299999V0209999C000012200019N0200001N1+02961+02561101371ADDAA106000091GA1001+999999999GF100991001001999999001001KA1240M+03521MA1999999099001MD1999999+0141REMSYN082AAXX  20004 82765 32998 00000 10296 20256 39900 40137 333 10352 29073 55058 58014;EQDQ01  00002PRCP06
0214827650999992004102012004-07333-047467FM-12+021299999V0200501N004610042019N0020001N1+02631+02331101631ADDAA106000091AY121061AY221061GF108991051071004501021999KA1240N+02531MA1999999099251MD1999999+0091MW1161REMSYN082AAXX  20124 82765 31495 80509 10263 20233 39925 40163 71622 8572/ 333 20253 58009;EQDQ01  00002PRCP06
0171827650999992004102018004-07333-047467FM-12+021299999V0202301N001010450019N0040001N1+03081+02421101111ADDAY161061AY221061GF107991041021008001011001MA1999999098731MD1999999-0081MW1051REMSYN082AAXX  20184 82765 21596 72302 10308 20242 39873 40111 70562 84210 333 59008 60141;
0208827650999992004102100004-07333-047467FM-12+021299999V0202301N001019999999N0200001N1+02461+02251101331ADDAA106000091GA1091+999999999GF109991091999999999999999KA1240M+03211MA1999999098931MD1999999-0071REMSYN082AAXX  21004 82765 32/98 92302 10246 20225 39893 40133 333 10321 29082 55024 59007;EQDQ01  00002PRCP06
0162827650999992004102112004-07333-047467FM-12+021299999V0203601N001010450019N0200001N1+02651+02271101581ADDGF108991041071004501021999KA1240N+02381MA1999999099171MD1999999-0081REMSYN082AAXX  21124 82765 22498 83602 10265 20227 39917 40158 8472/ 333 20238 59008 60144;
0167827650999992004102118004-07333-047467FM-12+021299999V0201801N002110120019N0200001N1+02571+02231101281ADDAA106000091GF108991051081008001011999MA1999999098861MD1999999+0131REMSYN070AAXX  21184 82765 32598 81804 10257 20223 39886 40128 8581/ 333 58013;EQDQ01  00002PRCP06
0198827650999992004102200004-07333-047467FM-12+021299999V0201801N001510120019N0200001N1+02351+02221101391ADDAA106000091GF105991051081008001001001KA1240M+02781MA1999999098981MD1999999+0051REMSYN088AAXX  22004 82765 32598 51803 10235 20222 39898 40139 85800 333 10278 29087 55000 58005;EQDQ01  00002PRCP06
0186827650999992004102212004-07333-047467FM-12+021299999V0201401N001010120019N0200001N1+02321+02201101721ADDAA106000091GF108991051081008001021999KA1240N+02251MA1999999099291MD1999999+0121REMSYN076AAXX  22124 82765 32598 81402 10232 20220 39929 40172 8582/ 333 20225 58012;EQDQ01  00002PRCP06
0167827650999992004102218004-07333-047467FM-12+021299999V0202301N003110450019N0200001N1+03081+02351101231ADDAA106000091GF106991041021008001041001MA1999999098841MD1999999-0021REMSYN070AAXX  22184 82765 32598 62306 10308 20235 39884 40123 84240 333 59002;EQDQ01  00002PRCP06
0226827650999992004102300004-07333-047467FM-12+021299999V0209999C000012200019N0200001N1+02801+02541101321ADDAA106000091AY101061AY201061GF102991021031008001001001KA1240M+03261MA1999999098921MD1999999-0061MW1131REMSYN094AAXX  23004 82765 31598 20000 10280 20254 39892 40132 71300 82300 333 10326 29082 55057 59006;EQDQ01  00002PRCP06
0186827650999992004102312004-07333-047467FM-12+021299999V0202701N001012200019N0200001N1+02821+02401101511ADDAA106000091GF103991021011008001041001KA1240N+02351MA1999999099131MD1999999-0161REMSYN076AAXX  23124 82765 32598 32702 10282 20240 39913 40151 82140 333 20235 59016;EQDQ01  00002PRCP06
0167827650999992004102318004-07333-047467FM-12+021299999V0203201N001510450019N0200001N1+03241+02391101011ADDAA106000091GF106991041021008001021001MA1999999098641MD1999999-0201REMSYN070AAXX  23184 82765 32598 63203 10324 20239 39864 40101 84220 333 59020;EQDQ01  00002PRCP06
0208827650999992004102400004-07333-047467FM-12+021299999V0203601N001012200019N0200001N1+02861+02441101171ADDAA106000091GA1001+999999999GF100991001001999999001001KA1240M+03391MA1999999098801MD1999999-0121REMSYN082AAXX  24004 82765 32998 03602 10286 20244 39880 40117 333 10339 29074 55063 59012;EQDQ01  00002PRCP06
0186827650999992004102412004-07333-047467FM-12+021299999V0200501N001510450019N0200001N1+02841+02381101421ADDAA106000091GF106991031021008001021001KA1240N+02411MA1999999099051MD1999999-0081REMSYN076AAXX  24124 82765 32598 60503 10284 20238 39905 40142 83220 333 20241 59008;EQDQ01  00002PRCP06
0195827650999992004102418004-07333-047467FM-12+021299999V0203601N002110075019N0100001N1+03221+02341100971ADDAA106000091AY101061AY201061GF107991051021008001021001MA1999999098611MD1999999-0031MW1041REMSYN076AAXX  24184 82765 31597 73604 10322 20234 39861 40097 70400 85220 333 59003;EQDQ01  00002PRCP06
0198827650999992004102500004-07333-047467FM-12+021299999V0203201N001510075019N0200001N1+02761+02481101181ADDAA106000091GF107991051021008001021001KA1240M+03281MA1999999098811MD1999999+0011REMSYN088AAXX  25004 82765 32598 73203 10276 20248 39881 40118 85220 333 10328 29076 55050 58001;EQDQ01  00002PRCP06
0186827650999992004102512004-07333-047467FM-12+021299999V0200501N001510120019N0200001N1+02721+02411101471ADDAA106000091GF108991061081008001021999KA1240N+02431MA1999999099081MD1999999+0031REMSYN076AAXX  25124 82765 32598 80503 10272 20241 39908 40147 8682/ 333 20243 58003;EQDQ01  00002PRCP06
0167827650999992004102518004-07333-047467FM-12+021299999V0203601N001510120019N0200001N1+03281+02341100911ADDAA106000091GF107991051081008001041001MA1999999098551MD1999999-0061REMSYN070AAXX  25184 82765 32598 73603 10328 20234 39855 40091 85840 333 59006;EQDQ01  00002PRCP06
0202827650999992004102600004-07333-047467FM-12+021299999V0201801N000512200019N0200001N1+02541+01381101141ADDAY191061AY251061GF104991021021008001021001KA1240M+03341MA1999999098751MD1999999-0061MW1001REMSYN100AAXX  26004 82765 21598 41801 10254 20138 39875 40114 70095 82220 333 10334 29081 55025 59006 60021;
0162827650999992004102612004-07333-047467FM-12+021299999V0202301N004110120019N0200001N1+02461+02281101571ADDGF108991061081008001021999KA1240N+02451MA1999999099161MD1999999+0081REMSYN082AAXX  26124 82765 22598 82308 10246 20228 39916 40157 8682/ 333 20245 58008 60024;
0171827650999992004102618004-07333-047467FM-12+021299999V0200501N002110120019N0200001N1+02301+02221101491ADDAY191061AY261061GF108991061081008001021999MA1999999099061MD1999999+0511MW1001REMSYN082AAXX  26184 82765 21598 80504 10230 20222 39906 40149 70096 8682/ 333 58051 60201;
0198827650999992004102700004-07333-047467FM-12+021299999V0200501N000519999999N0200001N1+02221+02151101461ADDAA106000091GF108991081001008001011001KA1240M+02581MA1999999099041MD1999999+0291REMSYN088AAXX  27004 82765 32598 80501 10222 20215 39904 40146 88010 333 10258 29094 55000 58029;EQDQ01  00002PRCP06
0162827650999992004102712004-07333-047467FM-12+021299999V0200501N000510120019N0200001N1+02421+02251101791ADDGF108991061081008001021999KA1240N+02171MA1999999099351MD1999999+0191REMSYN082AAXX  27124 82765 22598 80501 10242 20225 39935 40179 8682/ 333 20217 58019 60204;
0186827650999992004102812004-07333-047467FM-12+021299999V0209999C000010450019N0200001N1+02671+02241101641ADDAA106000091GF106991041021008001031001KA1240N+02361MA1999999099251MD1999999-0101REMSYN076AAXX  28124 82765 32598 60000 10267 20224 39925 40164 84230 333 20236 59010;EQDQ01  00002PRCP06
0119827650999992004102818004-07333-047467FM-12+021299999V0203601N003619999999N0200001N1+03101+99999999999ADDGF106991999999008001999999REMSYN081AAXX  28184 82765 21598 63607 10310 2029 39881 40119 70362 85310 333 59009 69941;
0198827650999992004102900004-07333-047467FM-12+021299999V0209999C000010450019N0200001N1+02731+02501101341ADDAA106000091GF107991041081008001011001KA1240M+03271MA1999999098951MD1999999-0181REMSYN088AAXX  29004 82765 32598 70000 10273 20250 39895 40134 84810 333 10327 29081 55079 59018;EQDQ01  00002PRCP06
0162827650999992004102912004-07333-047467FM-12+021299999V0201401N001512200019N0200001N1+02821+02331101491ADDGF103991021011008001041001KA1240N+02351MA1999999099111MD1999999-0141REMSYN082AAXX  29124 82765 22598 31403 10282 20233 39911 40149 82140 333 20235 59014 69944;
0195827650999992004102918004-07333-047467FM-12+021299999V0201401N001510450019N0200001N1+02831+02151101171ADDAA106000091AY121061AY221061GF105991031031004501021999MA1999999098771MD1999999-0041MW1291REMSYN076AAXX  29184 82765 31498 51403 10283 20215 39877 40117 72922 8332/ 333 59004;EQDQ01  00002PRCP06
0198827650999992004103000004-07333-047467FM-12+021299999V0202701N001010450019N0200001N1+02541+02311101271ADDAA106000091GF106991041011008001011001KA1240M+03441MA1999999098881MD1999999-0071REMSYN088AAXX  30004 82765 32598 62702 10254 20231 39888 40127 84110 333 10344 29079 55057 59007;EQDQ01  00002PRCP06
0171827650999992004103018004-07333-047467FM-12+021299999V0203201N001010450019N0200001N1+02861+02521101241ADDAY161061AY221061GF107991041031008001061041MA1999999098841MD1999999+0071MW1031REMSYN082AAXX  30184 82765 21598 73202 10286 20252 39884 40124 70362 84364 333 58007 60051;
0186827650999992004110112004-07330-047470FM-12+019399999V0201801N001012200019N0200001N1+02821+02401101591ADDAA106000091GF103991021011008001041001KA1240N+02391MA1999999099211MD1999999-0151REMSYN076AAXX  01124 82765 32598 31802 10282 20240 39921 40159 82140 333 20239 59015;EQDQ01  00002PRCP06
0208827650999992004110200004-07333-047467FM-12+021299999V0209999C000012200019N0200001N1+02921+02621101201ADDAA106000091GA1001+999999999GF100991001001999999001001KA1240M+03401MA1999999098831MD1999999-0091REMSYN082AAXX  02004 82765 32598 00000 10292 20262 39883 40120 333 10340 29078 55079 59009;EQDQ01  00002PRCP06
0186827650999992004110212004-07333-047467FM-12+021299999V0203201N001512200019N0200001N1+02881+02371101401ADDAA106000091GF104991041021008001001001KA1240N+02411MA1999999099031MD1999999-0181REMSYN076AAXX  02124 82765 32598 43203 10288 20237 39903 40140 84200 333 20241 59018;EQDQ01  00002PRCP06
0167827650999992004110218004-07333-047467FM-12+021299999V0203601N001510450019N0200001N1+03101+02341100981ADDAA106000091GF106991031021008001011001MA1999999098611MD1999999-0121REMSYN070AAXX  02184 82765 32598 63603 10310 20234 39861 40098 83210 333 59012;EQDQ01  00002PRCP06
0208827650999992004110300004-07333-047467FM-12+021299999V0209999C000010024019N0100001N1+02761+02541101061ADDAA106000091GA1091+999999999GF109991091999999999999999KA1240M+03251MA1999999098691MD1999999-0141REMSYN082AAXX  03004 82765 32/97 90000 10276 20254 39869 40106 333 10325 29079 55047 59014;EQDQ01  00002PRCP06
0186827650999992004110312004-07333-047467FM-12+021299999V0202701N001510120019N0200001N1+02801+02271101421ADDAA106000091GF106991051081008001041001KA1240N+02371MA1999999099041MD1999999+0011REMSYN076AAXX  03124 82765 32598 62703 10280 20227 39904 40142 85840 333 20237 58001;EQDQ01  00002PRCP06
0171827650999992004110318004-07333-047467FM-12+021299999V0200901N002110450019N0200001N1+03241+02391100941ADDAY161061AY261061GF105991031021008001041001MA1999999098971MD1999999-0041MW1001REMSYN082AAXX  03184 82765 21598 50904 10324 20239 39897 40094 70066 83240 333 59004 60101;
0198827650999992004110400004-07333-047467FM-12+021299999V0202301N001012200019N0200001N1+02861+02501101131ADDAA106000091GF102991011011008001041001KA1240M+03401MA1999999098761MD1999999+0071REMSYN088AAXX  04004 82765 32598 22302 10286 20250 39876 40113 81140 333 10340 29074 55079 58007;EQDQ01  00002PRCP06
0162827650999992004110412004-07333-047467FM-12+021299999V0200901N001012200019N0200001N1+02801+02461101351ADDGF102991021011008001001001KA1240N+02271MA1999999098981MD1999999-0061REMSYN082AAXX  04124 82765 22598 20902 10280 20246 39898 40135 82100 333 20227 59006 60104;
0167827650999992004110418004-07333-047467FM-12+021299999V0201401N000510075019N0200001N1+03461+02301100991ADDAA106000091GF105991051011008001001001MA1999999098631MD1999999+0061REMSYN070AAXX  04184 82765 32598 51401 10346 20230 39863 40099 85100 333 58006;EQDQ01  00002PRCP06
0208827650999992004110500004-07333-047467FM-12+021299999V0203601N001012200019N0200001N1+02901+02411101081ADDAA106000091GA1001+999999999GF100991001001999999001001KA1240M+03601MA1999999098711MD1999999-0081REMSYN082AAXX  05004 82765 32998 03602 10290 20241 39871 40108 333 10360 29071 55108 59008;EQDQ01  00002PRCP06
0214827650999992004110512004-07333-047467FM-12+021299999V0203601N003112200019N0200001N1+02941+02361101461ADDAA106000091AY101061AY201061GF103991031011008001001001KA1240N+02451MA1999999099091MD1999999+0111MW1041REMSYN082AAXX  05124 82765 31598 33606 10294 20236 39909 40146 70400 83100 333 20245 58011;EQDQ01  00002PRCP06
0195827650999992004110518004-07333-047467FM-12+021299999V0203601N002112200019N0200001N1+03421+02261100991ADDAA106000091AY101061AY201061GF104991031021008001041001MA1999999098631MD1999999+0001MW1041REMSYN076AAXX  05184 82765 31598 43604 10342 20226 39863 40099 70400 83240 333 58000;EQDQ01  00002PRCP06
0226827650999992004110600004-07333-047467FM-12+021299999V0203601N000512200019N0200001N1+03021+02531101171ADDAA106000091AY101061AY201061GF102991021011008001001001KA1240M+03561MA1999999098821MD1999999+0111MW1131REMSYN094AAXX  06004 82765 31598 23601 10302 20253 39882 40117 71300 82100 333 10356 29068 55095 58011;EQDQ01  00002PRCP06
0214827650999992004110612004-07333-047467FM-12+021299999V0203201N001012200019N0040001N1+02881+02301101371ADDAA106000091AY141061AY211061GF103991031021008001001001KA1240N+02461MA1999999099011MD1999999-0081MW1051REMSYN082AAXX  06124 82765 31596 33202 10288 20230 39901 40137 70541 83200 333 20246 59008;EQDQ01  00002PRCP06
0195827650999992004110618004-07333-047467FM-12+021299999V0201401N001510075019N0040001N1+03421+02391100941ADDAA106000091AY141061AY221061GF106991061021008001001001MA1999999098591MD1999999-0041MW1051REMSYN076AAXX  06184 82765 31596 61403 10342 20239 39859 40094 70542 86200 333 59004;EQDQ01  00002PRCP06
0208827650999992004110700004-07333-047467FM-12+021299999V0203201N001010024019N0100001N1+02961+02401101071ADDAA106000091GA1091+999999999GF109991091999999999999999KA1240M+03551MA1999999098711MD1999999-0111REMSYN082AAXX  07004 82765 32/97 93202 10296 20240 39871 40107 333 10355 29068 55092 59011;EQDQ01  00002PRCP06
0186827650999992004110712004-07333-047467FM-12+021299999V0200501N002110120019N0200001N1+02721+02391101451ADDAA106000091GF107991051081008001021001KA1240N+02571MA1999999099071MD1999999+0061REMSYN076AAXX  07124 82765 32598 70504 10272 20239 39907 40145 85820 333 20257 58006;EQDQ01  00002PRCP06
0167827650999992004110718004-07333-047467FM-12+021299999V0202501N002110450019N0200001N1+03241+02361101061ADDAA106000091GF108991031021008001021999MA1999999098701MD1999999+0111REMSYN070AAXX  07184 82765 32598 82504 10324 20236 39870 40106 8322/ 333 58011;EQDQ01  00002PRCP06
0214827650999992004110812004-07330-047470FM-12+019399999V0202301N001510450019N0100001N1+02611+02251101491ADDAA106000091AY121061AY221061GF108991041081004501011999KA1240N+02281MA1999999099081MD1999999+0011MW1041REMSYN082AAXX  08124 82765 31497 82303 10261 20225 39908 40149 70422 8481/ 333 20228 58001;EQDQ01  00002PRCP06
0171827650999992004110818004-07330-047470FM-12+019399999V0203601N001510450019N0200001N1+02541+02291101201ADDAY161061AY221061GF107991041021008001011001MA1999999098791MD1999999+0091MW1021REMSYN082AAXX  08184 82765 21598 73603 10254 20229 39879 40120 70262 84210 333 58009 60041;
0261827650999992004110900004-07333-047467FM-12+021299999V0209999C000012200019N0100001N1+02401+99999999999ADDAA106000091AY111061AY221061GA1001+999999999GF100991001001999999001001KA1240M+03121MA1999999999999MD1999999+0071ME1103999MW1031REMSYN088AAXX  09004 82765 31/97 00000 10240 29888 30129 41399 70312 333 10312 29089 55015 58007;EQDQ01  00002PRCP06Q02 101293APOSP 
0190827650999992004110912004-07333-047467FM-12+021299999V0200701N001510450019N0200001N1+02501+02361101601ADDAY161061AY261061GF107991041081008001011001KA1240N+02331MA1999999099181MD1999999+0101MW1001REMSYN088AAXX  09124 82765 21598 70703 10250 20236 39918 40160 70066 84810 333 20233 58010 60064;
0195827650999992004110918004-07333-047467FM-12+021299999V0200701N001510450019N0200001N1+02841+02261101111ADDAA106000091AY191061AY291061GF106991041051008001011001MA1999999098721MD1999999-0071MW1001REMSYN076AAXX  09184 82765 31598 60703 10284 20226 39872 40111 70099 84510 333 59007;EQDQ01  00002PRCP06
0208827650999992004111000004-07333-047467FM-12+021299999V0203201N000512200019N0200001N1+02621+02351101331ADDAA106000091GA1001+999999999GF100991001001999999001001KA1240M+03121MA1999999098931MD1999999+0051REMSYN082AAXX  10004 82765 32998 03201 10262 20235 39893 40133 333 10312 29083 55020 58005;EQDQ01  00002PRCP06
0202827650999992004111012004-07333-047467FM-12+021299999V0201101N001012200019N0200001N1+02721+02411101561ADDAA106000091GF104991999021008001001001KA1240N+02311MA1999999099161MD1999999-0021REMSYN076AAXX  10124 82765 32598 41102 10272 20241 39916 40156 83200 333 20231 59002;EQDQ01+000032SCOTLCQ02  00002PRCP06
0167827650999992004111018004-07333-047467FM-12+021299999V0200201N002610450019N0200001N1+03341+02281101021ADDAA106000091GF105991031021008001041001MA1999999098651MD1999999-0071REMSYN070AAXX  10184 82765 32598 50205 10334 20228 39865 40102 83240 333 59007;EQDQ01  00002PRCP06
0208827650999992004111100004-07333-047467FM-12+021299999V0202901N002612200019N0200001N1+02801+02421101231ADDAA106000091GA1001+999999999GF100991001001999999001001KA1240M+03481MA1999999098851MD1999999-0081REMSYN082AAXX  11004 82765 32998 02905 10280 20242 39885 40123 333 10348 29074 55081 59008;EQDQ01  00002PRCP06
0214827650999992004111112004-07333-047467FM-12+021299999V0200201N002610042019N0100001N1+02741+02341101431ADDAA106000091AY121061AY221061GF106991051021004501041001KA1240N+02361MA1999999099051MD1999999-0111MW1041REMSYN082AAXX  11124 82765 31497 60205 10274 20234 39905 40143 70422 85240 333 20236 59011;EQDQ01  00002PRCP06
0195827650999992004111118004-07333-047467FM-12+021299999V0203601N002112200019N0100001N1+03241+02281100991ADDAA106000091AY121061AY221061GF104991041021004501001001MA1999999098621MD1999999-0031MW1041REMSYN076AAXX  11184 82765 31497 43604 10324 20228 39862 40099 70422 84200 333 59003;EQDQ01  00002PRCP06
0208827650999992004111200004-07333-047467FM-12+021299999V0203601N000512200019N0200001N1+02801+02421101061ADDAA106000091GA1001+999999999GF100991001001999999001001KA1240M+03321MA1999999098681MD1999999-0171REMSYN082AAXX  12004 82765 32998 03601 10280 20242 39868 40106 333 10332 29074 55070 59017;EQDQ01  00002PRCP06
0214827650999992004111212004-07333-047467FM-12+021299999V0203201N001510450019N0100001N1+02841+02401101271ADDAA106000091AY101061AY201061GF106991041021008001041001KA1240N+02511MA1999999098891MD1999999-0161MW1041REMSYN082AAXX  12124 82765 31597 63203 10284 20240 39889 40127 70400 84240 333 20251 59016;EQDQ01  00002PRCP06
0167827650999992004111218004-07330-047470FM-12+019399999V0200501N002610450019N0200001N1+03301+02301100901ADDAA106000091GF105991031021008001041001MA1999999098541MD1999999-0081REMSYN070AAXX  12184 82765 32598 50505 10330 20230 39854 40090 83240 333 59008;EQDQ01  00002PRCP06
0198827650999992004111300004-07330-047470FM-12+019399999V0209999C000012200019N0200001N1+02941+02561101091ADDAA106000091GF103991021021008001041001KA1240M+03381MA1999999098731MD1999999+0051REMSYN088AAXX  13004 82765 32598 30000 10294 20256 39873 40109 82240 333 10338 29073 55061 58005;EQDQ01  00002PRCP06
0195827650999992004111318004-07330-047470FM-12+019399999V0202301N001510450019N0100001N1+03041+02361100991ADDAA106000091AY101061AY201061GF105991031021008001041001MA1999999098621MD1999999+0081MW1041REMSYN076AAXX  13184 82765 31597 52303 10304 20236 39862 40099 70400 83240 333 58008;EQDQ01  00002PRCP06
0198827650999992004111400004-07333-047467FM-12+021299999V0209999C000010450019N0200001N1+02781+02561101161ADDAA106000091GF106991041021008001041001KA1240M+03201MA1999999098781MD1999999+0051REMSYN088AAXX  14004 82765 32598 60000 10278 20256 39878 40116 84240 333 10320 29081 55000 58005;EQDQ01  00002PRCP06
0186827650999992004111412004-07333-047467FM-12+021299999V0200501N000510120019N0200001N1+02721+02421101381ADDAA106000091GF107991051081008001041001KA1240N+02411MA1999999099001MD1999999+0021REMSYN076AAXX  14124 82765 32598 70501 10272 20242 39900 40138 85840 333 20241 58002;EQDQ01  00002PRCP06
0190827650999992004111418004-07333-047467FM-12+021299999V0202701N001519999999N0100001N1+03361+02331101851ADDAY151061AY251061GF105991999021008001001001MA1999999098491MD1999999-0131MW1041REMSYN082AAXX  14184 82765 21597 52703 10336 20233 39849 40185 70455 84200 333 59013 69921;EQDQ01+000042SCOTLC
0190827650999992004111512004-07333-047467FM-12+021299999V0200901N000510450019N0200001N1+02471+02171101481ADDAY161061AY221061GF107991041021004501041041KA1240N+02341MA1999999099091MD1999999+0091MW1011REMSYN088AAXX  15124 82765 21498 70901 10247 20217 39909 40148 70162 84244 333 20234 58009 60094;
0171827650999992004111518004-07333-047467FM-12+021299999V0203601N001510090019N0200001N1+02671+02411101211ADDAY161061AY221061GF107991051081004501021001MA1999999098821MD1999999+0331MW1011REMSYN082AAXX  15184 82765 21498 73603 10267 20241 39882 40121 70162 85820 333 58033 60141;
0198827650999992004111600004-07333-047467FM-12+021299999V0202701N001510090019N0200001N1+02561+02401101421ADDAA106000091GF108991081081004501999999KA1240M+03141MA1999999099011MD1999999+0261REMSYN088AAXX  16004 82765 32498 82703 10256 20240 39901 40142 888// 333 10314 29088 55032 58026;EQDQ01  00002PRCP06
0162827650999992004111612004-07333-047467FM-12+021299999V0200501N001512200019N0200001N1+02731+02391101631ADDGF103991021011008001031001KA1240N+02321MA1999999099231MD1999999+0141REMSYN082AAXX  16124 82765 22598 30503 10273 20239 39923 40163 82130 333 20232 58014 60144;
0167827650999992004111618004-07333-047467FM-12+021299999V0202301N001510450019N0200001N1+03201+02411101231ADDAA106000091GF108991041031008001011999MA1999999098851MD1999999+0031REMSYN070AAXX  16184 82765 32598 82303 10320 20241 39885 40123 8431/ 333 58003;EQDQ01  00002PRCP06
0208827650999992004111700004-07333-047467FM-12+021299999V0209999C000012200019N0200001N1+02641+02411101291ADDAA106000091GA1001+999999999GF100991001001999999001001KA1240M+03321MA1999999098901MD1999999-0111REMSYN082AAXX  17004 82765 32998 00000 10264 20241 39890 40129 333 10332 29080 55059 59011;EQDQ01  00002PRCP06
0186827650999992004111712004-07333-047467FM-12+021299999V0201401N000510450019N0200001N1+02631+02391101621ADDAA106000091GF107991041021004501041001KA1240N+02321MA1999999099221MD1999999-0011REMSYN076AAXX  17124 82765 32498 71401 10263 20239 39922 40162 84240 333 20232 59001;EQDQ01  00002PRCP06
0167827650999992004111718004-07333-047467FM-12+021299999V0200501N002612200019N0200001N1+03051+02481101211ADDAA106000091GF104991041021008001001001MA1999999098831MD1999999-0021REMSYN070AAXX  17184 82765 32598 40505 10305 20248 39883 40121 84200 333 59002;EQDQ01  00002PRCP06
0208827650999992004111800004-07333-047467FM-12+021299999V0203201N001012200019N0200001N1+02831+02521101311ADDAA106000091GA1001+999999999GF100991001001999999001001KA1240M+03321MA1999999098931MD1999999+0031REMSYN082AAXX  18004 82765 32998 03202 10283 20252 39893 40131 333 10332 29082 55071 58003;EQDQ01  00002PRCP06
0186827650999992004111812004-07333-047467FM-12+021299999V0203601N003112200019N0200001N1+02861+02141101501ADDAA106000091GF102991021011008001001001KA1240N+02371MA1999999099121MD1999999-0101REMSYN076AAXX  18124 82765 32598 23606 10286 20214 39912 40150 82100 333 20237 59010;EQDQ01  00002PRCP06
0167827650999992004111818004-07333-047467FM-12+021299999V0202301N001510075019N0200001N1+03221+02321101091ADDAA106000091GF105991051021008001001001MA1999999098721MD1999999-0111REMSYN070AAXX  18184 82765 32598 52303 10322 20232 39872 40109 85200 333 59011;EQDQ01  00002PRCP06
0208827650999992004111900004-07333-047467FM-12+021299999V0203401N000512200019N0200001N1+02921+02411101251ADDAA106000091GA1001+999999999GF100991001001999999001001KA1240M+03461MA1999999098881MD1999999-0051REMSYN082AAXX  19004 82765 32998 03401 10292 20241 39888 40125 333 10346 29068 55106 59005;EQDQ01  00002PRCP06
0186827650999992004111912004-07333-047467FM-12+021299999V0200501N003110075019N0200001N1+02701+02371101541ADDAA106000091GF107991051051008001021001KA1240N+02531MA1999999099161MD1999999+0041REMSYN076AAXX  19124 82765 32598 70506 10270 20237 39916 40154 85520 333 20253 58004;EQDQ01  00002PRCP06
0195827650999992004111918004-07333-047467FM-12+021299999V0203201N001510042019N0040001N1+03211+02381101161ADDAA106000091AY141061AY221061GF106991061031004501001001MA1999999098791MD1999999+0071MW1051REMSYN076AAXX  19184 82765 31496 63203 10321 20238 39879 40116 70542 86300 333 58007;EQDQ01  00002PRCP06
0198827650999992004112100004-07330-047470FM-12+019399999V0203601N000510075019N0200001N1+02521+02341101531ADDAA106000091GF108991061061008001011999KA1240M+03061MA1999999099131MD1999999+0151REMSYN088AAXX  21004 82765 32598 83601 10252 20234 39913 40153 8661/ 333 10306 29084 55000 58015;EQDQ01  00002PRCP06
0214827650999992004112112004-07330-047470FM-12+019399999V0202701N000510450019N0100001N1+02561+02331101671ADDAA106000091AY101061AY201061GF106991041081008001041001KA1240N+02291MA1999999099261MD1999999+0161MW1041REMSYN082AAXX  21124 82765 31597 62701 10256 20233 39926 40167 70400 84840 333 20229 58016;EQDQ01  00002PRCP06
0195827650999992004112118004-07330-047470FM-12+019399999V0200501N002610450019N0100001N1+03161+02371101231ADDAA106000091AY101061AY201061GF107991041081008001041001MA1999999098851MD1999999+0131MW1041REMSYN076AAXX  21184 82765 31597 70505 10316 20237 39885 40123 70400 84840 333 58013;EQDQ01  00002PRCP06
0226827650999992004112200004-07333-047467FM-12+021299999V0202301N002110450019N0100001N1+02761+02481101381ADDAA106000091AY101061AY201061GF105991031021008001021001KA1240M+03241MA1999999098991MD1999999+0111MW1041REMSYN094AAXX  22004 82765 31597 52304 10276 20248 39899 40138 70400 83220 333 10324 29080 55013 58011;EQDQ01  00002PRCP06
0214827650999992004112212004-07333-047467FM-12+021299999V0200501N001510120019N0100001N1+02661+02391101651ADDAA106000091AY101061AY201061GF108991061081008001021999KA1240N+02471MA1999999099241MD1999999-0021MW1041REMSYN082AAXX  22124 82765 31597 80503 10266 20239 39924 40165 70400 8682/ 333 20247 59002;EQDQ01  00002PRCP06
0195827650999992004112218004-07333-047467FM-12+021299999V0202301N001510120019N0100001N1+02961+02261101281ADDAA106000091AY101061AY201061GF108991071081008001021999MA1999999098891MD1999999+0041MW1041REMSYN076AAXX  22184 82765 31597 82303 10296 20226 39889 40128 70400 8782/ 333 58004;EQDQ01  00002PRCP06
0212827650999992004112300004-07333-047467FM-12+021299999V0209999C000019999999N0100001N1+02521+02381101571ADDAA106000091AY151061AY201061GF108991999999008001999999KA1240M+03161MA1999999099181MW1041REMSYN094AAXX  23004 82765 31597 80000 10252 20238 39918 40157 70450 7682/ 333 10316 29084 55000 58019;EQDQ01  00002PRCP06
0190827650999992004112312004-07333-047467FM-12+021299999V0201801N000510120019N0200001N1+02501+02361101641ADDAY151061AY251061GF108991061081008001021999KA1240N+02411MA1999999099231MD1999999-0011MW1001REMSYN088AAXX  23124 82765 21598 81801 10250 20236 39923 40164 70055 8682/ 333 20241 59001 69944;
0171827650999992004112318004-07333-047467FM-12+021299999V0200501N002610075019N0200001N1+02541+02401101401ADDAY101061AY201061GF108991071051008001021999MA1999999098981MD1999999+0091MW1961REMSYN082AAXX  23184 82765 21598 80505 10254 20240 39898 40140 79600 8752/ 333 58009 60271;
0202827650999992004112400004-07333-047467FM-12+021299999V0200501N000512200019N0200001N1+02501+02411101471ADDAY191061AY261061GF104991031011008001041001KA1240M+03241MA1999999099061MD1999999+0121MW1001REMSYN100AAXX  24004 82765 21598 40501 10250 20241 39906 40147 70096 83140 333 10324 29093 55023 58012 60101;
0162827650999992004112412004-07333-047467FM-12+021299999V0201401N001512200019N0200001N1+02731+02471101511ADDGF102991011011008001041001KA1240N+02281MA1999999099111MD1999999-0121REMSYN082AAXX  24124 82765 22598 21403 10273 20247 39911 40151 81140 333 20228 59012 60374;
0167827650999992004112418004-07333-047467FM-12+021299999V0200901N000510075019N0200001N1+03211+02431101101ADDAA106000091GF106991051031008001051001MA1999999098721MD1999999-0261REMSYN070AAXX  24184 82765 32598 60901 10321 20243 39872 40110 85350 333 59026;EQDQ01  00002PRCP06
0198827650999992004112500004-07333-047467FM-12+021299999V0209999C000012200019N0200001N1+02721+02521101251ADDAA106000091GF101991011001008001051001KA1240M+03341MA1999999098861MD1999999-0201REMSYN088AAXX  25004 82765 32598 10000 10272 20252 39886 40125 81050 333 10334 29082 55065 59020;EQDQ01  00002PRCP06
0186827650999992004112512004-07333-047467FM-12+021299999V0201401N001510060019N0200001N1+02611+02401101551ADDAA106000091GF108991051081002501021999KA1240N+02441MA1999999099151MD1999999+0041REMSYN076AAXX  25124 82765 32398 81403 10261 20240 39915 40155 8582/ 333 20244 58004;EQDQ01  00002PRCP06
0171827650999992004112518004-07333-047467FM-12+021299999V0200501N004110450019N0020001N1+02941+02361101121ADDAY161061AY241061GF106991041021004501041001MA1999999098731MD1999999+0011MW1051REMSYN082AAXX  25184 82765 21495 60508 10294 20236 39873 40112 70564 84240 333 58001 69931;
0198827650999992004112600004-07333-047467FM-12+021299999V0209999C000010120019N0200001N1+02651+02461101311ADDAA106000091GF108991051081008001021999KA1240M+03001MA1999999098921MD1999999+0061REMSYN088AAXX  26004 82765 32598 80000 10265 20246 39892 40131 8582/ 333 10300 29085 55017 58006;EQDQ01  00002PRCP06
0179827650999992004112612004-07333-047467FM-12+021299999V0202301N001512200019N0200001N1+02661+02431101421ADDAA124000391GF104991021011008001011001KA1240N+02441MA1999999099031MD1999999-0121REMSYN088AAXX  26124 82765 22598 42303 10266 20243 39903 40142 82110 333 20244 59012 69934 10003;
0171827650999992004112618004-07333-047467FM-12+021299999V0202301N002610042019N0040001N1+02321+02251101251ADDAY161061AY221061GF108991051071004501021999MA1999999098831MD1999999+0101MW1551REMSYN082AAXX  26184 82765 21496 82305 10232 20225 39883 40125 75562 8572/ 333 58010 60491;
0221827650999992004112700004-07333-047467FM-12+021299999V0209999C050020042019N0040001N1+02241+02211101571ADDAY161061AY221061GF108991081071004501999999KA1240M+02921MA1999999099151MD1999999+0231MW1551REMSYN100AAXX  2700  82765 21496 80050 10224 20221 39915 40157 75562 887// 333 10292 29095 55019 58023 60161;EQDQ01+005003WOSPD 
0190827650999992004112712004-07333-047467FM-12+021299999V0200501N001010075019N0200001N1+02381+02261101581ADDAY161061AY221061GF108991061061008001021999KA1240N+02211MA1999999099151MD1999999+0121MW1001REMSYN088AAXX  27124 82765 21598 80502 10238 20226 39915 40158 70062 8662/ 333 20221 58012 60674;
0171827650999992004112718004-07333-047467FM-12+021299999V0209999C000010450019N0200001N1+02541+02311101151ADDAY151061AY201061GF106991021091008001041001MA1999999098731MD1999999-0101MW1001REMSYN082AAXX  27184 82765 21598 60000 10254 20231 39873 40115 70050 82940 333 59010 60011;
0198827650999992004112800004-07333-047467FM-12+021299999V0201401N001012200019N0200001N1+02641+02391101301ADDAA106000091GF104991041001008001041001KA1240M+03021MA1999999098891MD1999999-0261REMSYN088AAXX  28004 82765 32598 41402 10264 20239 39889 40130 84040 333 10302 29088 55049 59026;EQDQ01  00002PRCP06
0162827650999992004112812004-07333-047467FM-12+021299999V0200501N000512200019N0200001N1+02621+02421101391ADDGF101991011001008001041001KA1240N+02341MA1999999099001MD1999999-0151REMSYN082AAXX  28124 82765 22598 10501 10262 20242 39900 40139 81040 333 20234 59015 60014;
0167827650999992004112818004-07333-047467FM-12+021299999V0200201N001010450019N0200001N1+03321+02411100881ADDAA106000091GF106991031021008001041001MA1999999098521MD1999999-0211REMSYN070AAXX  28184 82765 32598 60202 10332 20241 39852 40088 83240 333 59021;EQDQ01  00002PRCP06
0198827650999992004112900004-07333-047467FM-12+021299999V0209999C000012200019N0200001N1+02621+02421101171ADDAA106000091GF102991021001008001041001KA1240M+03421MA1999999098781MD1999999-0111REMSYN088AAXX  29004 82765 32598 20000 10262 20242 39878 40117 82040 333 10342 29082 55096 59011;EQDQ01  00002PRCP06
0167827650999992004113018004-07333-047467FM-12+021299999V0200501N001510450019N0200001N1+03321+02681100921ADDAA106000091GF106991041021008001041001MA1999999098561MD1999999+0031REMSYN070AAXX  30184 82765 32598 60503 10332 20268 39856 40092 84240 333 58003;EQDQ01  00002PRCP06
0208827650999992004120100004-07333-047467FM-12+021299999V0209999C000012200019N0200001N1+02901+02601101161ADDAA106000091GA1001+999999999GF100991001001999999001001KA1240M+03381MA1999999098791MD1999999-0061REMSYN082AAXX  01004 82765 32998 00000 10290 20260 39879 40116 333 10338 29078 55091 59006;EQDQ01  00002PRCP06
0186827650999992004120112004-07333-047467FM-12+021299999V0202301N001010450019N0200001N1+02801+02461101371ADDAA106000091GF106991041081008001041001KA1240N+02431MA1999999099001MD1999999-0011REMSYN076AAXX  01124 82765 32598 62302 10280 20246 39900 40137 84840 333 20243 59001;EQDQ01  00002PRCP06
0195827650999992004120118004-07333-047467FM-12+021299999V0200501N001010450019N0200001N1+02701+02331101171ADDAA106000091AY101061AY201061GF108991041031008001021999MA1999999098781MD1999999+0221MW1291REMSYN076AAXX  01184 82765 31598 80502 10270 20233 39878 40117 72900 8432/ 333 58022;EQDQ01  00002PRCP06
0198827650999992004120200004-07333-047467FM-12+021299999V0200501N000510120019N0200001N1+02421+02251101301ADDAA106000091GF108991061081008001021999KA1240M+03301MA1999999098901MD1999999+0111REMSYN088AAXX  02004 82765 32598 80501 10242 20225 39890 40130 8682/ 333 10330 29085 55041 58011;EQDQ01  00002PRCP06
0186827650999992004120212004-07333-047467FM-12+021299999V0200901N001510450019N0200001N1+02621+02351101471ADDAA106000091GF106991041011008001061001KA1240N+02311MA1999999099061MD1999999+0061REMSYN076AAXX  02124 82765 32598 60903 10262 20235 39906 40147 84160 333 20231 58006;EQDQ01  00002PRCP06
0171827650999992004120218004-07333-047467FM-12+021299999V0202301N001510450019N0200001N1+02861+02501101141ADDAY151061AY211061GF106991021081008001081001MA1999999098741MD1999999-0041MW1001REMSYN082AAXX  02184 82765 21598 62303 10286 20250 39874 40114 70051 82880 333 59004 69961;
0198827650999992004120300004-07333-047467FM-12+021299999V0202301N000512200019N0200001N1+02801+02561101201ADDAA106000091GF102991011011008001041001KA1240M+03201MA1999999098821MD1999999-0081REMSYN088AAXX  03004 82765 32598 22301 10280 20256 39882 40120 81140 333 10320 29085 55/// 59008;EQDQ01  00002PRCP06
0162827650999992004120312004-07333-047467FM-12+021299999V0201401N000510450019N0200001N1+02851+02461101371ADDGF105991031021008001051041KA1240N+02491MA1999999098991MD1999999-0071REMSYN082AAXX  03124 82765 22598 51401 10285 20246 39899 40137 83254 333 20249 59007 69964;
0167827650999992004120318004-07333-047467FM-12+021299999V0203601N001010450019N0200001N1+02581+02271101111ADDAA106000091GF108991041011008001011999MA1999999098711MD1999999-0031REMSYN070AAXX  03184 82765 32598 83602 10258 20227 39871 40111 8411/ 333 59003;EQDQ01  00002PRCP06
0208827650999992004120400004-07333-047467FM-12+021299999V0200501N000510024019N0100001N1+02531+02381101281ADDAA106000091GA1091+999999999GF109991091999999999999999KA1240M+03211MA1999999098891MD1999999+0071REMSYN082AAXX  04004 82765 32/97 90501 10253 20238 39889 40128 333 10321 29087 55/// 58007;EQDQ01  00002PRCP06
0202827650999992004120412004-07333-047467FM-12+021299999V0200901N001510450019N0200001N1+02631+02421101641ADDAA106000091GF106991041081008001011001KA1240N+02321MA1999999999999MD1999999+0251REMSYN076AAXX  04124 82765 32598 60903 10263 20242 39092 40164 84810 333 20232 58025;EQDQ01  00002PRCP06Q02 090923APOSP 
0183827650999992004120418004-07333-047467FM-12+021299999V0200501N001510450019N0200001N1+03281+02341101241ADDAA106000091GF105991031031008001061001MA1999999098862MD1999999+0151REMSYN070AAXX  04184 82765 32598 50503 10328 20234 39886 40124 83360 333 58015;EQDQ01+098863APOSP Q02  00002PRCP06
0208827650999992004120500004-07333-047467FM-12+021299999V0200501N001012200019N0200001N1+02881+02561101371ADDAA106000091GA1001+999999999GF100991001001999999001001KA1240M+03421MA1999999098991MD1999999+0101REMSYN082AAXX  05004 82765 32998 00502 10288 20256 39899 40137 333 10342 29078 55/// 58010;EQDQ01  00002PRCP06
0186827650999992004120512004-07333-047467FM-12+021299999V0200501N001010450019N0200001N1+02621+02421101541ADDAA106000091GF106991041011008001061001KA1240N+02381MA1999999099151MD1999999-0091REMSYN076AAXX  05124 82765 32598 60502 10262 20242 39915 40154 84160 333 20238 59009;EQDQ01  00002PRCP06
0167827650999992004120518004-07333-047467FM-12+021299999V0201401N001510450019N0200001N1+03341+02151101111ADDAA106000091GF106991041021008001061001MA1999999098741MD1999999-0121REMSYN070AAXX  05184 82765 32598 61403 10334 20215 39874 40111 84260 333 59012;EQDQ01  00002PRCP06
0208827650999992004120600004-07330-047470FM-12+019399999V0209999C000012200019N0200001N1+02861+02441101231ADDAA106000091GA1001+999999999GF100991001001999999001001KA1240M+03521MA1999999098851MD1999999-0141REMSYN082AAXX  06004 82765 32998 00000 10286 20244 39885 40123 333 10352 29074 55/// 59014;EQDQ01  00002PRCP06
0186827650999992004120612004-07330-047470FM-12+019399999V0200501N004112200019N0200001N1+02781+02341101441ADDAA106000091GF103991031011008001001001KA1240N+02371MA1999999099061MD1999999-0091REMSYN076AAXX  06124 82765 32598 30508 10278 20234 39906 40144 83100 333 20237 59009;EQDQ01  00002PRCP06
0167827650999992004120618004-07330-047470FM-12+019399999V0202601N003110450019N0200001N1+03021+02261101081ADDAA106000091GF106991021071008001021001MA1999999098701MD1999999-0041REMSYN070AAXX  06184 82765 32598 62606 10302 20226 39870 40108 82720 333 59004;EQDQ01  00002PRCP06
0208827650999992004120700004-07333-047467FM-12+021299999V0202901N001012200019N0200001N1+02761+02441101151ADDAA106000091GA1001+999999999GF100991001001999999001001KA1240M+03381MA1999999098771MD1999999-0081REMSYN082AAXX  07004 82765 32998 02902 10276 20244 39877 40115 333 10338 29077 55/// 59008;EQDQ01  00002PRCP06
0186827650999992004120712004-07333-047467FM-12+021299999V0203601N000510450019N0200001N1+02801+02421101471ADDAA106000091GF106991021021008001011001KA1240N+02391MA1999999099091MD1999999+0031REMSYN076AAXX  07124 82765 32598 63601 10280 20242 39909 40147 82210 333 20239 58003;EQDQ01  00002PRCP06
0167827650999992004120718004-07333-047467FM-12+021299999V0203601N003110450019N0200001N1+03261+02331101071ADDAA106000091GF107991031021008001041001MA1999999098701MD1999999+0001REMSYN070AAXX  07184 82765 32598 73606 10326 20233 39870 40107 83240 333 58000;EQDQ01  00002PRCP06
0198827650999992004120800004-07333-047467FM-12+021299999V0200901N000510450019N0200001N1+02781+02421101311ADDAA106000091GF108991031021008001021999KA1240M+03341MA1999999098931MD1999999+0161REMSYN088AAXX  08004 82765 32598 80901 10278 20242 39893 40131 8322/ 333 10334 29075 55/// 58016;EQDQ01  00002PRCP06
0186827650999992004120812004-07333-047467FM-12+021299999V0203601N001012200019N0200001N1+02841+02401101551ADDAA106000091GF104991021021008001041001KA1240N+02451MA1999999099171MD1999999+0081REMSYN076AAXX  08124 82765 32598 43602 10284 20240 39917 40155 82240 333 20245 58008;EQDQ01  00002PRCP06
0167827650999992004120818004-07333-047467FM-12+021299999V0200201N002110075019N0200001N1+03321+02321101071ADDAA106000091GF105991051021008001001001MA1999999098711MD1999999+0011REMSYN070AAXX  08184 82765 32598 50204 10332 20232 39871 40107 85200 333 58001;EQDQ01  00002PRCP06
0208827650999992004120900004-07333-047467FM-12+021299999V0200501N001012200019N0200001N1+02881+02481101231ADDAA106000091GA1001+999999999GF100991001001999999001001KA1240M+03401MA1999999098861MD1999999-0071REMSYN082AAXX  09004 82765 32998 00502 10288 20248 39886 40123 333 10340 29073 55/// 59007;EQDQ01  00002PRCP06
0214827650999992004120912004-07333-047467FM-12+021299999V0203601N001510450019N0100001N1+02841+02351101501ADDAA106000091AY101061AY201061GF105991031011008001041001KA1240N+02511MA1999999099121MD1999999-0051MW1041REMSYN082AAXX  09124 82765 31597 53603 10284 20235 39912 40150 70400 83140 333 20251 59005;EQDQ01  00002PRCP06
0195827650999992004120918004-07333-047467FM-12+021299999V0200501N001010450019N0100001N1+03301+02391101001ADDAA106000091AY101061AY201061GF106991041021008001041001MA1999999098641MD1999999-0071MW1041REMSYN076AAXX  09184 82765 31597 60502 10330 20239 39864 40100 70400 84240 333 59007;EQDQ01  00002PRCP06
0226827650999992004121000004-07333-047467FM-12+021299999V0202301N001010450019N0100001N1+02961+02491101261ADDAA106000091AY101061AY201061GF106991031031008001041001KA1240M+03401MA1999999098891MD1999999+0031MW1291REMSYN094AAXX  10004 82765 31597 62302 10296 20249 39889 40126 72900 83340 333 10340 29072 55/// 58003;EQDQ01  00002PRCP06
0190827650999992004121012004-07333-047467FM-12+021299999V0201801N000510120019N0100001N1+02741+02431101481ADDAY161061AY251061GF108991061081008001041999KA1240N+02411MA1999999099101MD1999999-0021MW1041REMSYN088AAXX  10124 82765 21597 81801 10274 20243 39910 40148 70465 8684/ 333 20241 59002 60044;
0171827650999992004121018004-07333-047467FM-12+021299999V0203201N000510450019N0200001N1+03081+02541100961ADDAY151061AY251061GF108991041031008001021999MA1999999098591MD1999999-0051MW1291REMSYN082AAXX  10184 82765 21598 83201 10308 20254 39859 40096 72955 8432/ 333 59005 69931;
0162827650999992004121112004-07333-047467FM-12+021299999V0209999C000010090019N0200001N1+02521+02311101541ADDGF108991051081004501021999KA1240N+02271MA1999999099121MD1999999+0021REMSYN082AAXX  11124 82765 22498 80000 10252 20231 39912 40154 8582/ 333 20227 58002 60244;
0167827650999992004121118004-07333-047467FM-12+021299999V0203601N002610450019N0200001N1+03001+02371101091ADDAA106000091GF105991031011008001031001MA1999999098701MD1999999+0111REMSYN070AAXX  11184 82765 32598 53605 10300 20237 39870 40109 83130 333 58011;EQDQ01  00002PRCP06
0198827650999992004121200004-07330-047470FM-12+019399999V0209999C000010120019N0200001N1+02761+02581101311ADDAA106000091GF108991061081008001021999KA1240M+03121MA1999999099891MD1999999+0021REMSYN088AAXX  12004 82765 32598 80000 10276 20258 30989 40131 8682/ 333 10312 29084 55/// 58002;EQDQ01  00002PRCP06
0186827650999992004121212004-07330-047470FM-12+019399999V0201401N001012200019N0200001N1+02681+02391101461ADDAA106000091GF104991021011008001031001KA1240N+02421MA1999999099071MD1999999-0051REMSYN076AAXX  12124 82765 32598 41402 10268 20239 39907 40146 82130 333 20242 59005;EQDQ01  00002PRCP06
0167827650999992004121218004-07330-047470FM-12+019399999V0200901N001010450019N0200001N1+03271+02351101091ADDAA106000091GF105991031021008001031001MA1999999098721MD1999999+0021REMSYN070AAXX  12184 82765 32598 50902 10327 20235 39872 40109 83230 333 58002;EQDQ01  00002PRCP06
0214827650999992004121300004-07333-047467FM-12+021299999V0209999C000010024019N0100001N1+02871+02581101371ADDAA106000091GA1091+999999999GF109991091999999999999999KA1240M+03381MA1999999098991MD1999999-0091REMSYN088AAXX  13004 82765 32/97 90000 10287 20258 39899 40137 8//// 333 10338 29078 55/// 59009;EQDQ01  00002PRCP06
0186827650999992004121312004-07333-047467FM-12+021299999V0200501N001510075019N0200001N1+02861+02421101551ADDAA106000091GF107991051021008001061001KA1240N+02561MA1999999099171MD1999999+0101REMSYN076AAXX  13124 82765 32598 70503 10286 20242 39917 40155 85260 333 20256 58010;EQDQ01  00002PRCP06
0195827650999992004121318004-07333-047467FM-12+021299999V0200501N001510075019N0200001N1+03211+02431101141ADDAA106000091AY191061AY221061GF107991051031008001011001MA1999999098781MD1999999+0061MW1291REMSYN076AAXX  13184 82765 31598 70503 10321 20243 39878 40114 72992 85310 333 58006;EQDQ01  00002PRCP06
0242827650999992004121400004-07333-047467FM-12+021299999V0200901N001512200019N0200001N1+02701+02391101401ADDAA106000091AY101061AY201061GF104991999061008001001001KA1240M+03401MA1999999099021MD1999999+0031MW1131REMSYN094AAXX  14004 82765 31598 40903 10270 20239 39902 40140 71300 82600 333 10340 29077 55/// 58003;EQDQ01+000022SCOTLCQ02  00002PRCP06
0186827650999992004121412004-07333-047467FM-12+021299999V0202301N001510450019N0200001N1+02531+02151101631ADDAA106000091GF107991041081008001061001KA1240N+02301MA1999999099231MD1999999+0061REMSYN076AAXX  14124 82765 32598 72303 10253 20215 39923 40163 84860 333 20230 58006;EQDQ01  00002PRCP06
0171827650999992004121418004-07333-047467FM-12+021299999V0201801N002110090019N0040001N1+02561+02291101471ADDAY121061AY221061GF108991051081004501021999MA1999999099051MD1999999+0271MW1511REMSYN082AAXX  14184 82765 21496 81804 10256 20229 39905 40147 75122 8582/ 333 58027 69954;
0212827650999992004121500004-07333-047467FM-12+021299999V0200901N000510024019N0100001N1+02301+02231101511ADDAY161061AY251061GA1091+999999999GF109991091999999999999999KA1240M+02751MA1999999099091MD1999999+0071MW1001REMSYN094AAXX  15004 82765 21/97 90901 10230 20223 39909 40151 70065 333 10275 29089 55007 58007 60251;
0162827650999992004121512004-07333-047467FM-12+021299999V0200701N001510450019N0200001N1+02381+02281101551ADDGF106991031021008001041001KA1240N+02231MA1999999099121MD1999999-0111REMSYN082AAXX  15124 82765 22598 60703 10238 20228 39912 40155 83240 333 20223 59011 60264;
0167827650999992004121518004-07333-047467FM-12+021299999V0203401N000510075019N0200001N1+03101+02491101111ADDAA106000091GF106991051021008001041001MA1999999098731MD1999999-0321REMSYN070AAXX  15184 82765 32598 63401 10310 20249 39873 40111 85240 333 59032;EQDQ01  00002PRCP06
0202827650999992004121600004-07333-047467FM-12+021299999V0201801N000512200019N0200001N1+02421+02331101211ADDAY191061AY261061GF102991021001008001041001KA1240M+03181MA1999999098801MD1999999-0291MW1001REMSYN100AAXX  16004 82765 21598 21801 10242 20233 39880 40121 70096 82040 333 10318 29088 55044 59029 60241;
0162827650999992004121612004-07333-047467FM-12+021299999V0203601N001012200019N0200001N1+02521+02341101401ADDGF104991021011008001041001KA1240N+02271MA1999999098991MD1999999-0131REMSYN082AAXX  16124 82765 22598 43602 10252 20234 39899 40140 82140 333 20227 59013 60244;
0167827650999992004121618004-07333-047467FM-12+021299999V0202501N000510450019N0200001N1+03021+02661101071ADDAA106000091GF106991031021008001021001MA1999999098681MD1999999-0051REMSYN070AAXX  16184 82765 32598 62501 10302 20266 39868 40107 83220 333 59005;EQDQ01  00002PRCP06
0214827650999992004121700004-07333-047467FM-12+021299999V0203401N001510024019N0100001N1+02601+02421101251ADDAA106000091GA1091+999999999GF109991091999999999999999KA1240M+03201MA1999999098851MD1999999+0051REMSYN088AAXX  17004 82765 32/97 93403 10260 20242 39885 40125 80320 333 10320 29086 55071 58005;EQDQ01  00002PRCP06
0186827650999992004121712004-07333-047467FM-12+021299999V0200901N001510450019N0200001N1+02641+02371101391ADDAA106000091GF107991041081008001061001KA1240N+02441MA1999999098991MD1999999+0001REMSYN076AAXX  17124 82765 32598 70903 10264 20237 39899 40139 84860 333 20244 58000;EQDQ01  00002PRCP06
0167827650999992004121718004-07333-047467FM-12+021299999V0202701N001510450019N0200001N1+03171+02391100961ADDAA106000091GF105991041031008001011001MA1999999098591MD1999999-0091REMSYN070AAXX  17184 82765 32598 52703 10317 20239 39859 40096 84310 333 59009;EQDQ01  00002PRCP06
0202827650999992004121800004-07333-047467FM-12+021299999V0200901N000510090019N0100001N1+02251+02161101411ADDAY161061AY221061GF108991081081004501999999KA1240M+03341MA1999999099001MD1999999+0151MW1031REMSYN100AAXX  18004 82765 21497 80901 10225 20216 39900 40141 70362 888// 333 10334 29085 55063 58015 60051;
0190827650999992004121812004-07333-047467FM-12+021299999V0209999C000010120019N0200001N1+02461+02271101611ADDAY151061AY251061GF108991061081008001041999KA1240N+02271MA1999999099181MD1999999+0191MW1001REMSYN088AAXX  18124 82765 21598 80000 10246 20227 39918 40161 70055 8684/ 333 20227 58019 60064;
0167827650999992004121818004-07333-047467FM-12+021299999V0200501N000510450019N0200001N1+03021+02441101271ADDAA106000091GF107991041081008001041001MA1999999098881MD1999999+0291REMSYN070AAXX  18184 82765 32598 70501 10302 20244 39888 40127 84840 333 58029;EQDQ01  00002PRCP06
0226827650999992004121900004-07330-047470FM-12+019399999V0201101N002110042019N0100001N1+02521+02311101601ADDAA106000091AY121061AY221061GF108991061071004501021999KA1240M+03081MA1999999099191MD1999999+0191MW1131REMSYN094AAXX  19004 82765 31497 81104 10252 20231 39919 40160 71322 8672/ 333 10308 29084 55026 58019;EQDQ01  00002PRCP06
0190827650999992004121912004-07330-047470FM-12+019399999V0209999C000010450019N0200001N1+02541+02401101681ADDAY161061AY251061GF106991041081008001041001KA1240N+02351MA1999999099271MD1999999+0091MW1001REMSYN088AAXX  19124 82765 21598 60000 10254 20240 39927 40168 70065 84840 333 20235 58009 60024;
0171827650999992004121918004-07330-047470FM-12+019399999V0202701N001510075019N0200001N1+02521+02311101301ADDAY191061AY261061GF107991051041008001041001MA1999999098881MD1999999+0001MW1291REMSYN082AAXX  19184 82765 21598 72703 10252 20231 39888 40130 72996 85440 333 58000 60221;
0226827650999992004122000004-07333-047467FM-12+021299999V0202301N023612200019N0200001N1+02461+02371101401ADDAA106000091AY191061AY291061GF102991021011008001001001KA1240M+03241MA1999999098991MD1999999-0201MW1001REMSYN094AAXX  20004 82765 31598 22346 10246 20237 39899 40140 70099 82100 333 10324 29092 55035 59020;EQDQ01  00002PRCP06
0162827650999992004122012004-07333-047467FM-12+021299999V0200501N001012200019N0200001N1+02661+02411101631ADDGF104991021011008001041001KA1240N+02371MA1999999099221MD1999999-0051REMSYN082AAXX  20124 82765 22598 40502 10266 20241 39922 40163 82140 333 20237 59005 60224;
0167827650999992004122018004-07333-047467FM-12+021299999V0203601N003110450019N0200001N1+03221+02431101121ADDAA106000091GF106991041021008001041001MA1999999098751MD1999999-0131REMSYN070AAXX  20184 82765 32598 63606 10322 20243 39875 40112 84240 333 59013;EQDQ01  00002PRCP06
0226827650999992004122100004-07333-047467FM-12+021299999V0200901N002110450019N0200001N1+02541+02291101361ADDAA106000091AY101061AY201061GF105991031021008001041001KA1240M+03311MA1999999098961MD1999999-0031MW1291REMSYN094AAXX  21004 82765 31598 50904 10254 20229 39896 40136 72900 83240 333 10331 29080 55078 59003;EQDQ01  00002PRCP06
0186827650999992004122112004-07333-047467FM-12+021299999V0200501N000510450019N0200001N1+02581+02371101491ADDAA106000091GF107991041021008001031001KA1240N+02421MA1999999099081MD1999999-0141REMSYN076AAXX  21124 82765 32598 70501 10258 20237 39908 40149 84230 333 20242 59014;EQDQ01  00002PRCP06
0167827650999992004122118004-07333-047467FM-12+021299999V0202701N001510450019N0200001N1+03031+02311101091ADDAA106000091GF106991041021008001011001MA1999999098711MD1999999-0041REMSYN070AAXX  21184 82765 32598 62703 10303 20231 39871 40109 84210 333 59004;EQDQ01  00002PRCP06
0226827650999992004122200004-07333-047467FM-12+021299999V0200901N004110090019N0100001N1+02651+02441101381ADDAA106000091AY121061AY221061GF108991081081004501999999KA1240M+03171MA1999999098981MD1999999+0021MW1131REMSYN094AAXX  22004 82765 31497 80908 10265 20244 39898 40138 71322 888// 333 10317 29083 55028 58002;EQDQ01  00002PRCP06
0190827650999992004122212004-07333-047467FM-12+021299999V0202001N002110042019N0100001N1+02481+02381101481ADDAY191061AY261061GF108991071071004501021999KA1240N+02311MA1999999099071MD1999999-0011MW1031REMSYN088AAXX  22124 82765 21497 82004 10248 20238 39907 40148 70396 8772/ 333 20231 59001 60234;
0171827650999992004122218004-07333-047467FM-12+021299999V0203401N004110042019N0100001N1+02561+02381101181ADDAY191061AY261061GF108991071071004501021999MA1999999098771MD1999999+0061MW1631REMSYN082AAXX  22184 82765 21497 83408 10256 20238 39877 40118 76396 8772/ 333 58006 60061;
0202827650999992004122300004-07333-047467FM-12+021299999V0201401N001010042019N0100001N1+02321+02251101431ADDAY191061AY261061GF108991071071004501021081KA1240M+02941MA1999999099011MD1999999+0031MW1501REMSYN100AAXX  23004 82765 21497 81402 10232 20225 39901 40143 75096 87728 333 10294 29093 55010 58003 60351;
0190827650999992004122312004-07333-047467FM-12+021299999V0200501N000510450019N0200001N1+02381+02331101411ADDAY161061AY261061GF106991031081008001041001KA1240N+02261MA1999999098991MD1999999-0081MW1001REMSYN088AAXX  23124 82765 21598 60501 10238 20233 39899 40141 70066 83840 333 20226 59008 60404;
0167827650999992004122318004-07333-047467FM-12+021299999V0202701N001512200019N0200001N1+03021+02361100871ADDAA106000091GF104991031021008001041001MA1999999098491MD1999999-0281REMSYN070AAXX  23184 82765 32598 42703 10302 20236 39849 40087 83240 333 59028;EQDQ01  00002PRCP06
0202827650999992004122400004-07333-047467FM-12+021299999V0209999C000010075019N0200001N1+02521+02431101141ADDAY161061AY261061GF108991071061008001011999KA1240M+03181MA1999999098731MD1999999-0281MW1001REMSYN100AAXX  24004 82765 21598 80000 10252 20243 39873 40114 70066 8761/ 333 10318 29089 55042 59028 60011;
0162827650999992004122412004-07333-047467FM-12+021299999V0203601N000510090019N0100001N1+02481+02381101341ADDGF108991071081004501021999KA1240N+02301MA1999999098931MD1999999-0061REMSYN082AAXX  24124 82765 22497 83601 10248 20238 39893 40134 8782/ 333 20230 59006 60014;
0167827650999992004122418004-07333-047467FM-12+021299999V0202901N002610075019N0200001N1+03081+02401100921ADDAA106000091GF106991061021008001001001MA1999999098541MD1999999-0051REMSYN070AAXX  24184 82765 32598 62905 10308 20240 39854 40092 86200 333 59005;EQDQ01  00002PRCP06
0212827650999992004122500004-07333-047467FM-12+021299999V0202901N001510024019N0100001N1+02201+02101101331ADDAY191061AY261061GA1091+999999999GF109991091999999999999999KA1240M+03161MA1999999098911MD1999999+0181MW1611REMSYN094AAXX  25004 82765 21/97 92903 10220 20210 39891 40133 76196 333 10316 29087 55041 58018 60371;
0189827650999992004122512004-07333-047467FM-12+021299999V0200201N001519999999N0100001N1+02241+02131101571ADDAY191061AY261061GF108991999999004501999999KA1240N+02171MA1999999099131MD1999999+0201MW1031REMSYN087AAXX  25124 82765 21497 80203 10224 20213 39913 40157 70396 8782 333 20217 58020 60384;
0171827650999992004122518004-07333-047467FM-12+021299999V0201801N002110450019N0200001N1+02721+02411101171ADDAY161061AY261061GF106991041081008001041001MA1999999098761MD1999999+0221MW1001REMSYN082AAXX  25184 82765 21598 61804 10272 20241 39876 40117 70066 84840 333 58022 60131;
0198827650999992004122600004-07330-047470FM-12+019399999V0209999C000012200019N0200001N1+02481+02381101221ADDAA106000091GF101991011001008001051001KA1240M+02961MA1999999098801MD1999999-0111REMSYN088AAXX  26004 82765 32598 10000 10248 20238 39880 40122 81050 333 10296 29096 55/// 59011;EQDQ01  00002PRCP06
0179827650999992004122612004-07330-047470FM-12+019399999V0201801N001012200019N0200001N1+02681+02431101451ADDAA124013091GF103991031001008001041001KA1240N+02211MA1999999099051MD1999999-0081REMSYN088AAXX  26124 82765 22598 31802 10268 20243 39905 40145 83040 333 20221 59008 60134 10126;
0167827650999992004122618004-07330-047470FM-12+019399999V0200901N002112200019N0200001N1+03241+02501101111ADDAA106000091GF104991031021008001041001MA1999999098731MD1999999-0031REMSYN070AAXX  26184 82765 32598 40904 10324 20250 39873 40111 83240 333 59003;EQDQ01  00002PRCP06
0208827650999992004122700004-07330-047470FM-12+019399999V0203601N000512200019N0200001N1+02861+02641101221ADDAA106000091GA1001+999999999GF100991001001999999001001KA1240M+03421MA1999999098841MD1999999+0041REMSYN082AAXX  27004 82765 32998 03601 10286 20264 39884 40122 333 10342 29082 55/// 58004;EQDQ01  00002PRCP06
0186827650999992004122712004-07330-047470FM-12+019399999V0209999C000010120019N0200001N1+02561+02421101511ADDAA106000091GF106991051081008001041001KA1240N+02491MA1999999099121MD1999999+0071REMSYN076AAXX  27124 82765 32598 60000 10256 20242 39912 40151 85840 333 20249 58007;EQDQ01  00002PRCP06
0171827650999992004122718004-07330-047470FM-12+019399999V0209999C000010450019N0200001N1+02461+02271101081ADDAY191061AY261061GF106991041021008001021001MA1999999098671MD1999999-0061MW1001REMSYN082AAXX  27184 82765 21598 60000 10246 20227 39867 40108 70096 84220 333 59006 60181;
0198827650999992004122800004-07333-047467FM-12+021299999V0203601N000510450019N0200001N1+02581+02441101241ADDAA106000091GF105991031011008001011001KA1240M+02881MA1999999098851MD1999999+0011REMSYN088AAXX  28004 82765 32598 53601 10258 20244 39885 40124 83110 333 10288 29091 55/// 58001;EQDQ01  00002PRCP06
0162827650999992004122812004-07333-047467FM-12+021299999V0203601N002110120019N0200001N1+02361+02221101611ADDGF108991061081008001021999KA1240N+02231MA1999999099201MD1999999+0081REMSYN082AAXX  28124 82765 22598 83604 10236 20222 39920 40161 8682/ 333 20223 58008 60184;
0171827650999992004122818004-07333-047467FM-12+021299999V0200901N001010075019N0200001N1+02301+02251101551ADDAY161061AY261061GF108991061051008001021999MA1999999099121MD1999999+0451MW1001REMSYN082AAXX  28184 82765 21598 80902 10230 20225 39912 40155 70066 8652/ 333 58045 60191;
0198827650999992004122900004-07333-047467FM-12+021299999V0200901N001510120019N0200001N1+02261+02211101581ADDAA106000091GF108991061081008001021999KA1240M+02581MA1999999099151MD1999999+0301REMSYN088AAXX  29004 82765 32598 80903 10226 20221 39915 40158 8682/ 333 10258 29096 55/// 58030;EQDQ01  00002PRCP06
0162827650999992004122912004-07333-047467FM-12+021299999V0200901N000510075019N0200001N1+02321+02201101761ADDGF106991051021008001041001KA1240N+02131MA1999999099321MD1999999+0121REMSYN082AAXX  29124 82765 22598 60901 10232 20220 39932 40176 85240 333 20213 58012 60194;
0167827650999992004122918004-07333-047467FM-12+021299999V0200501N001510450019N0200001N1+02981+02371101471ADDAA106000091GF105991031021008001041001MA1999999099061MD1999999-0061REMSYN070AAXX  29184 82765 32598 50503 10298 20237 39906 40147 83240 333 59006;EQDQ01  00002PRCP06
0208827650999992004123000004-07333-047467FM-12+021299999V0200901N000512200019N0200001N1+02541+02441101601ADDAA106000091GA1001+999999999GF100991001001999999001001KA1240M+03041MA1999999099181MD1999999+0031REMSYN082AAXX  30004 82765 32998 00901 10254 20244 39918 40160 333 10304 29088 55/// 58003;EQDQ01  00002PRCP06
0162827650999992004123012004-07333-047467FM-12+021299999V0200501N000512200019N0200001N1+02601+02401101621ADDGF102991021011008001001001KA1240N+02311MA1999999099221MD1999999-0101REMSYN082AAXX  30124 82765 22598 20501 10260 20240 39922 40162 82100 333 20231 59010 69934;
0171827650999992004123018004-07333-047467FM-12+021299999V0201401N000510450019N0200001N1+03081+02581101261ADDAY151061AY251061GF105991031021008001041001MA1999999098871MD1999999-0191MW1001REMSYN082AAXX  30184 82765 21598 51401 10308 20258 39887 40126 70055 83240 333 59019 69971;
0208827650999992004123100004-07333-047467FM-12+021299999V0209999C000012200019N0200001N1+02661+02541101341ADDAA106000091GA1001+999999999GF100991001001999999001001KA1240M+03221MA1999999098951MD1999999+0231REMSYN082AAXX  31004 82765 32998 00000 10266 20254 39895 40134 333 10322 29087 55/// 58023;EQDQ01  00002PRCP06
0162827650999992004123112004-07333-047467FM-12+021299999V0209999C000012200019N0200001N1+02861+02421101541ADDGF102991021011008001001001KA1240N+02351MA1999999099151MD1999999-0071REMSYN082AAXX  31124 82765 22598 20000 10286 20242 39915 40154 82100 333 20235 59007 69974;
0171827650999992004123118004-07333-047467FM-12+021299999V0201801N000510120019N0200001N1+02721+02601101301ADDAY191061AY261061GF107991051081008001021001MA1999999098901MD1999999+0031MW1001REMSYN082AAXX  31184 82765 21598 71801 10272 20260 39890 40130 70096 85820 333 58003 60061;
