0208827840999992004010100004-07317-039300FM-12+040999999V0209999C000012200019N0020001N1+02831+02381101101ADDAA106000091GA1001+999999999GF100991001001999999001001KA1240M+03581MA1999999096471MD1999999-0081REMSYN082AAXX  01004 82784 32995 00000 10283 20238 39647 40110 333 10358 29059 55116 59008;EQDQ01  00002PRCP06
0186827840999992004010112004-07317-039300FM-12+040999999V0200501N002112200019N0200001N1+02801+01901101431ADDAA106000091GF103991021021008001001011KA1240N+02521MA1999999096791MD1999999+0131REMSYN076AAXX  01124 82784 32598 30504 10280 20190 39679 40143 82201 333 20252 58013;EQDQ01  00002PRCP06
0167827840999992004010118004-07317-039300FM-12+040999999V0203601N001510450019N0200001N1+03341+02021100901ADDAA106000091GF106991021021008001011001MA1999999096291MD1999999+0181REMSYN070AAXX  01184 82784 32598 63603 10334 20202 39629 40090 82210 333 58018;EQDQ01  00002PRCP06
0198827840999992004010200004-07317-039300FM-12+040999999V0202701N000512200019N0020001N1+02781+02361101091ADDAA106000091GF104991011021008001031001KA1240M+03461MA1999999096461MD1999999-0011REMSYN088AAXX  02004 82784 32595 42701 10278 20236 39646 40109 81230 333 10346 29065 55080 59001;EQDQ01  00002PRCP06
0186827840999992004010212004-07317-039300FM-12+040999999V0200901N002110075019N0200001N1+02621+02071101401ADDAA106000091GF108991081061008001999999KA1240N+02521MA1999999096751MD1999999-0041REMSYN076AAXX  02124 82784 32598 80904 10262 20207 39675 40140 886// 333 20252 59004;EQDQ01  00002PRCP06
0167827840999992004010218004-07317-039300FM-12+040999999V0203201N002110450019N0200001N1+03321+02101100831ADDAA106000091GF106991041021008001031001MA1999999096221MD1999999-0071REMSYN070AAXX  02184 82784 32598 63204 10332 20210 39622 40083 84230 333 59007;EQDQ01  00002PRCP06
0198827840999992004010300004-07317-039300FM-12+040999999V0209999C000019999999N0020001N1+02731+02521100971ADDAA106000091GF106991061001008001051001KA1240M+03421MA1999999096341MD1999999-0121REMSYN088AAXX  03004 82784 32595 60000 10273 20252 39634 40097 86050 333 10342 29074 55059 59012;EQDQ01  00002PRCP06
0186827840999992004010312004-07317-039300FM-12+040999999V0200501N001510075019N0200001N1+02661+02041101291ADDAA106000091GF108991081041008001999999KA1240N+02471MA1999999096651MD1999999-0101REMSYN076AAXX  03124 82784 32598 80503 10266 20204 39665 40129 884// 333 20247 59010;EQDQ01  00002PRCP06
0167827840999992004010318004-07317-039300FM-12+040999999V0203201N001510450019N0200001N1+03441+02141100691ADDAA106000091GF105991031021008001021001MA1999999096091MD1999999-0131REMSYN070AAXX  03184 82784 32598 53203 10344 20214 39609 40069 83220 333 59013;EQDQ01  00002PRCP06
0198827840999992004010400004-07317-039300FM-12+040999999V0209999C000012200019N0020001N1+02641+02251100861ADDAA106000091GF101991011011008001001001KA1240M+03541MA1999999096231MD1999999-0111REMSYN088AAXX  04004 82784 32595 10000 10264 20225 39623 40086 81100 333 10354 29068 55067 59011;EQDQ01  00002PRCP06
0186827840999992004010412004-07317-039300FM-12+040999999V0200901N001510075019N0200001N1+02841+02171101101ADDAA106000091GF106991061021008001001001KA1240N+02421MA1999999096471MD1999999-0181REMSYN076AAXX  04124 82784 32598 60903 10284 20217 39647 40110 86200 333 20242 59018;EQDQ01  00002PRCP06
0186827840999992004010512004-07317-039300FM-12+040999999V0201401N002110075019N0200001N1+02621+02051101251ADDAA106000091GF108991081041008001999999KA1240N+02561MA1999999096621MD1999999+0151REMSYN076AAXX  05124 82784 32598 81404 10262 20205 39662 40125 884// 333 20256 58015;EQDQ01  00002PRCP06
0167827840999992004010518004-07317-039300FM-12+040999999V0200501N003112200019N0200001N1+03381+01831100741ADDAA106000091GF104991041021008001001001MA1999999096151MD1999999+0141REMSYN070AAXX  05184 82784 32598 40506 10338 20183 39615 40074 84200 333 58014;EQDQ01  00002PRCP06
0198827840999992004010600004-07317-039300FM-12+040999999V0201801N001012200019N0020001N1+02741+02121100891ADDAA106000091GF103991021021008001031001KA1240M+03521MA1999999096261MD1999999+0031REMSYN088AAXX  06004 82784 32595 31802 10274 20212 39626 40089 82230 333 10352 29062 55083 58003;EQDQ01  00002PRCP06
0167827840999992004010618004-07317-039300FM-12+040999999V0200501N002610075019N0200001N1+03461+01451100771ADDAA106000091GF105991051011008001001001MA1999999096171MD1999999+0021REMSYN070AAXX  06184 82784 32598 50505 10346 20145 39617 40077 85100 333 58002;EQDQ01  00002PRCP06
0198827840999992004010700004-07317-039300FM-12+040999999V0209999C000010075019N0020001N1+03021+02311100961ADDAA106000091GF106991061031008001001001KA1240M+03631MA1999999096351MD1999999+0091REMSYN088AAXX  07004 82784 32595 60000 10302 20231 39635 40096 86300 333 10363 29054 55117 58009;EQDQ01  00002PRCP06
0186827840999992004010712004-07317-039300FM-12+040999999V0200901N002110075019N0200001N1+02841+01991101241ADDAA106000091GF106991061021008001001001KA1240N+02541MA1999999096621MD1999999-0071REMSYN076AAXX  07124 82784 32598 60904 10284 20199 39662 40124 86200 333 20254 59007;EQDQ01  00002PRCP06
0167827840999992004010718004-07317-039300FM-12+040999999V0201401N002110450019N0200001N1+03551+01641100771ADDAA106000091GF105991041021008001021001MA1999999096181MD1999999+0011REMSYN070AAXX  07184 82784 32598 51404 10355 20164 39618 40077 84220 333 58001;EQDQ01  00002PRCP06
0198827840999992004010800004-07317-039300FM-12+040999999V0201801N002610450019N0020001N1+03101+01731100961ADDAA106000091GF106991041021008001031001KA1240M+03681MA1999999096351MD1999999+0001REMSYN088AAXX  08004 82784 32595 61805 10310 20173 39635 40096 84230 333 10368 29045 55099 58000;EQDQ01  00002PRCP06
0186827840999992004010812004-07317-039300FM-12+040999999V0200501N002112200019N0200001N1+02901+02021101131ADDAA106000091GF104991041021008001001001KA1240N+02531MA1999999096521MD1999999-0101REMSYN076AAXX  08124 82784 32598 40504 10290 20202 39652 40113 84200 333 20253 59010;EQDQ01  00002PRCP06
0167827840999992004010818004-07317-039300FM-12+040999999V0201801N001512200019N0200001N1+03541+01971100661ADDAA106000091GF103991031021008001001001MA1999999096071MD1999999-0111REMSYN070AAXX  08184 82784 32598 31803 10354 20197 39607 40066 83200 333 59011;EQDQ01  00002PRCP06
0202827840999992004010900004-07317-039300FM-12+040999999V0201401N003110120019N0020001N1+02971+02091100981ADDAY111061AY211061GF107991061081008001031001KA1240M+03701MA1999999096371MD1999999+0021MW1611REMSYN100AAXX  09004 82784 21595 71406 10297 20209 39637 40098 76111 86830 333 10370 29052 55103 58002 60011;
0190827840999992004010912004-07317-039300FM-12+040999999V0203601N000510075019N0200001N1+02661+02291101171ADDAY161061AY221061GF108991081041008001999999KA1240N+02481MA1999999096541MD1999999+0021MW1021REMSYN088AAXX  09124 82784 21598 83601 10266 20229 39654 40117 70262 884// 333 20248 58002 60034;
0167827840999992004010918004-07317-039300FM-12+040999999V0201401N001510450019N0200001N1+03361+02071100711ADDAA106000091GF106991021021008001031001MA1999999096111MD1999999+0041REMSYN070AAXX  09184 82784 32598 61403 10336 20207 39611 40071 82230 333 58004;EQDQ01  00002PRCP06
0198827840999992004011000004-07317-039300FM-12+040999999V0209999C000011050019N0020001N1+02811+02221100981ADDAA106000091GF106991041001017501071091KA1240M+03481MA1999999096351MD1999999-0021REMSYN088AAXX  10004 82784 32795 60000 10281 20222 39635 40098 84079 333 10348 29067 55054 59002;EQDQ01  00002PRCP06
0190827840999992004011012004-07317-039300FM-12+040999999V0203601N001010075019N0200001N1+02521+02311101141ADDAY191061AY261061GF108991081071008001999999KA1240N+02261MA1999999096501MD1999999-0041MW1021REMSYN088AAXX  10124 82784 21598 83602 10252 20231 39650 40114 70296 887// 333 20226 59004 60094;
0167827840999992004011018004-07317-039300FM-12+040999999V0202701N001510450019N0200001N1+03211+02311100691ADDAA106000091GF107991031021008001031001MA1999999096071MD1999999-0041REMSYN070AAXX  10184 82784 32598 72703 10321 20231 39607 40069 83230 333 59004;EQDQ01  00002PRCP06
0214827840999992004011100004-07317-039300FM-12+040999999V0201801N001010120019N0200001N1+02801+02541100911ADDAA106000091GF108991999081008001071999KA1240M+03421MA1999999096281MD1999999-0071REMSYN088AAXX  11004 82784 32598 81802 10280 20254 39628 40091 8887/ 333 10342 29080 55070 59007;EQDQ01+000082SCOTLCQ02  00002PRCP06
0190827840999992004011112004-07317-039300FM-12+040999999V0201801N001510150019N0200001N1+02431+02321101381ADDAY191061AY221061GF108991081001017501071999KA1240N+02421MA1999999096721MD1999999+0221MW1201REMSYN088AAXX  11124 82784 21798 81803 10243 20232 39672 40138 72092 8807/ 333 20242 58022 69974;
0199827840999992004011118004-07317-039300FM-12+040999999V0202701N999992200019N0200001N1+02661+02311101091ADDAA106000021GF103991999001008001071999MA1999999096451MD1999999+0381REMSYN070AAXX  11184 82784 32598 32798 10266 20231 39645 40109 8807/ 333 58038;EQDQ01+005043WOSPD Q02+000082SCOTLCQ030005043WOSPD 
0198827840999992004011200004-07317-039300FM-12+040999999V0209999C000010150019N0020001N1+02541+02451101261ADDAA106000091GF107991071001017501071001KA1240M+02821MA1999999096601MD1999999+0321REMSYN088AAXX  12004 82784 32795 70000 10254 20245 39660 40126 87070 333 10282 29091 55000 58032;EQDQ01  00002PRCP06
0190827840999992004011212004-07317-039300FM-12+040999999V0202701N001510075019N0200001N1+02241+02141101571ADDAY161061AY221061GF108991081071008001999999KA1240N+02141MA1999999096881MD1999999+0161MW1511REMSYN088AAXX  12124 82784 21598 82703 10224 20214 39688 40157 75162 887// 333 20214 58016 60054;
0171827840999992004011218004-07317-039300FM-12+040999999V0202301N001010075019N0200001N1+02761+02301101111ADDAY101061AY251061GF107991071041008001001001MA1999999096451MD1999999+0001MW1021REMSYN082AAXX  12184 82784 21598 72302 10276 20230 39645 40111 70205 87400 333 58000 69921;
0198827840999992004011300004-07317-039300FM-12+040999999V0202301N001012200019N0020001N1+02531+02401101401ADDAA106000091GF102991021001017501021001KA1240M+02941MA1999999096721MD1999999+0121REMSYN088AAXX  13004 82784 32795 22302 10253 20240 39672 40140 82020 333 10294 29089 55007 58012;EQDQ01  00002PRCP06
0190827840999992004011312004-07317-039300FM-12+040999999V0203601N001510075019N0200001N1+02541+02291101361ADDAY161061AY221061GF108991081041008001999999KA1240N+02241MA1999999096701MD1999999-0181MW1021REMSYN088AAXX  13124 82784 21598 83603 10254 20229 39670 40136 70262 884// 333 20224 59018 69944;
0167827840999992004011318004-07317-039300FM-12+040999999V0201401N001510075019N0200001N1+03141+02211100841ADDAA106000091GF106991061021008001031001MA1999999096221MD1999999-0231REMSYN070AAXX  13184 82784 32598 61403 10314 20221 39622 40084 86230 333 59023;EQDQ01  00002PRCP06
0198827840999992004011400004-07317-039300FM-12+040999999V0200901N000512200019N0020001N1+02711+02371101081ADDAA106000091GF102991021001017501021001KA1240M+03271MA1999999096441MD1999999-0281REMSYN088AAXX  14004 82784 32795 20901 10271 20237 39644 40108 82020 333 10327 29076 55042 59028;EQDQ01  00002PRCP06
0190827840999992004011412004-07317-039300FM-12+040999999V0201801N002110075019N0200001N1+02281+02261101461ADDAY191061AY261061GF108991081071008001999999KA1240N+02201MA1999999096791MD1999999+0091MW1621REMSYN088AAXX  14124 82784 21598 81804 10228 20226 39679 40146 76296 887// 333 20220 58009 60874;
0171827840999992004011418004-07317-039300FM-12+040999999V0202701N001510075019N0200001N1+02461+02151101111ADDAY161061AY221061GF108991081071008001999999MA1999999096431MD1999999+0211MW1021REMSYN082AAXX  14184 82784 21598 82703 10246 20215 39643 40111 70262 887// 333 58021 60281;
0202827840999992004011500004-07317-039300FM-12+040999999V0200901N001510075019N0020001N1+02231+02141101541ADDAY161061AY221061GF108991081061008001999999KA1240M+02761MA1999999096841MD1999999+0401MW1201REMSYN100AAXX  15004 82784 21595 80903 10223 20214 39684 40154 72062 886// 333 10276 29093 55000 58040 69921;
0162827840999992004011512004-07317-039300FM-12+040999999V0203201N001010075019N0200001N1+02501+02251101311ADDGF107991071021008001001001KA1240N+02161MA1999999096631MD1999999-0161REMSYN082AAXX  15124 82784 22598 73202 10250 20225 39663 40131 87200 333 20216 59016 60284;
0167827840999992004011518004-07317-039300FM-12+040999999V0203201N002110450019N0200001N1+03061+02171100901ADDAA106000091GF105991021041008001031001MA1999999096261MD1999999-0171REMSYN070AAXX  15184 82784 32598 53204 10306 20217 39626 40090 82430 333 59017;EQDQ01  00002PRCP06
0198827840999992004011600004-07317-039300FM-12+040999999V0200901N001012200019N0020001N1+02661+02331101151ADDAA106000091GF103991031041008001001001KA1240M+03141MA1999999096501MD1999999-0341REMSYN088AAXX  16004 82784 32595 30902 10266 20233 39650 40115 83400 333 10314 29077 55072 59034;EQDQ01  00002PRCP06
0190827840999992004011612004-07317-039300FM-12+040999999V0203601N000510075019N0200001N1+02551+02271101131ADDAY161061AY211061GF107991071021008001001001KA1240N+02211MA1999999096481MD1999999-0151MW1021REMSYN088AAXX  16124 82784 21598 73601 10255 20227 39648 40113 70261 87200 333 20221 59015 60064;
0167827840999992004011618004-07317-039300FM-12+040999999V0203601N001511050019N0200001N1+03161+02341100681ADDAA106000091GF107991041021008001001051MA1999999096061MD1999999-0201REMSYN070AAXX  16184 82784 32598 73603 10316 20234 39606 40068 84205 333 59020;EQDQ01  00002PRCP06
0202827840999992004011700004-07317-039300FM-12+040999999V0201801N002610075019N0020001N1+02691+02311100911ADDAY121061AY221061GF108991081041008001999999KA1240M+03241MA1999999096271MD1999999-0231MW1201REMSYN100AAXX  17004 82784 21595 81805 10269 20231 39627 40091 72022 884// 333 10324 29076 55068 59023 69921;
0190827840999992004011712004-07317-039300FM-12+040999999V0201801N001010075019N0200001N1+02261+02231101371ADDAY191061AY221061GF108991081041008001999999KA1240N+02201MA1999999096701MD1999999+0221MW1211REMSYN088AAXX  17124 82784 21598 81802 10226 20223 39670 40137 72192 884// 333 20220 58022 60764;
0171827840999992004011718004-07317-039300FM-12+040999999V0202701N001010075019N0200001N1+02451+02211100891ADDAY161061AY221061GF108991081041008001999999MA1999999096231MD1999999+0171MW1211REMSYN082AAXX  17184 82784 21598 82702 10245 20221 39623 40089 72162 884// 333 58017 60021;
0179827840999992004011800004-07317-039300FM-12+040999999V0209999C000010075019N0020001N1+02361+02291101221ADDAA106000021GF107991071041008001001001KA1240M+02711MA1999999096541MD1999999+0271REMSYN088AAXX  18004 82784 32595 70000 10236 20229 39654 40122 87400 333 10271 29094 55006 58027;
0190827840999992004011812004-07317-039300FM-12+040999999V0203601N000510075019N0200001N1+02181+01971101471ADDAY161061AY221061GF108991081071008001999999KA1240N+02191MA1999999096771MD1999999+0071MW1611REMSYN088AAXX  18124 82784 21598 83601 10218 20197 39677 40147 76162 887// 333 20219 58007 60194;
0202827840999992004011900004-07317-039300FM-12+040999999V0200901N000510075019N0020001N1+02261+02211101471ADDAY161061AY221061GF108991081071008001999999KA1240M+02531MA1999999096761MD1999999+0221MW1021REMSYN100AAXX  19004 82784 21595 80901 10226 20221 39676 40147 70262 887// 333 10253 29092 55000 58022 66011;
0162827840999992004011912004-07317-039300FM-12+040999999V0202701N001010075019N0200001N1+02401+02111101321ADDGF108991081051008001999999KA1240N+02161MA1999999096641MD1999999-0131REMSYN082AAXX  19124 82784 22598 82702 10240 20211 39664 40132 885// 333 20216 59013 60024;
0167827840999992004011918004-07317-039300FM-12+040999999V0200501N001510450019N0200001N1+02911+02141100931ADDAA106000091GF106991041081008001021091MA1999999096281MD1999999-0261REMSYN070AAXX  19184 82784 32598 60503 10291 20214 39628 40093 84829 333 59026;EQDQ01  00002PRCP06
0221827840999992004012000004-07317-039300FM-12+040999999V0209999C000019999999N0020001N1+02401+02371101261ADDAY121061AY221061GF107991999071008001041001KA1240M+03001MA1999999096591MD1999999-0171MW1211REMSYN100AAXX  20004 82784 21595 70000 10240 20237 39659 40126 72122 88740 333 10300 29086 55024 59017 60051;EQDQ01+000082SCOTLC
0190827840999992004012012004-07317-039300FM-12+040999999V0202701N000510075019N0200001N1+02221+02191101411ADDAY161061AY221061GF108991081071008001999999KA1240N+02221MA1999999096721MD1999999+0081MW1621REMSYN088AAXX  20124 82784 21598 82701 10222 20219 39672 40141 76262 887// 333 20222 58008 60164;
0171827840999992004012018004-07317-039300FM-12+040999999V0203201N001510075019N0200001N1+02381+02151101201ADDAY161061AY221061GF108991081071008001999999MA1999999096521MD1999999+0241MW1511REMSYN082AAXX  20184 82784 21598 83203 10238 20215 39652 40120 75162 887// 333 58024 60071;
0202827840999992004012100004-07317-039300FM-12+040999999V0209999C000010075019N0020001N1+02241+02191101361ADDAY161061AY221061GF108991081061008001999999KA1240M+02451MA1999999096671MD1999999+0081MW1201REMSYN100AAXX  21004 82784 21595 80000 10224 20219 39667 40136 72062 886// 333 10245 29095 55000 58008 69931;
0162827840999992004012112004-07317-039300FM-12+040999999V0202701N000510075019N0200001N1+02431+02191101451ADDGF107991051021008001031001KA1240N+02201MA1999999096761MD1999999+0041REMSYN082AAXX  21124 82784 22598 72701 10243 20219 39676 40145 85230 333 20220 58004 60074;
0167827840999992004012118004-07317-039300FM-12+040999999V0201801N000510075019N0200001N1+02511+02291101021ADDAA106000091GF108991081071008001999999MA1999999096351MD1999999-0171REMSYN070AAXX  21184 82784 32598 81801 10251 20229 39635 40102 887// 333 59017;EQDQ01  00002PRCP06
0202827840999992004012200004-07317-039300FM-12+040999999V0202701N003110075019N0020001N1+02321+02241101321ADDAY191061AY221061GF108991081071008001999999KA1240M+03001MA1999999096641MD1999999-0031MW1211REMSYN100AAXX  22004 82784 21595 82706 10232 20224 39664 40132 72192 887// 333 10300 29091 55026 59003 60091;
0190827840999992004012212004-07317-039300FM-12+040999999V0202701N001010450019N0200001N1+02421+02211101211ADDAY161061AY221061GF106991031021008001031001KA1240N+02161MA1999999096541MD1999999-0221MW1021REMSYN088AAXX  22124 82784 21598 62702 10242 20221 39654 40121 70262 83230 333 20216 59022 60144;
0202827840999992004012300004-07317-039300FM-12+040999999V0209999C000010075019N0020001N1+02361+02261101091ADDAY151061AY221061GF108991081071008001999999KA1240M+02881MA1999999096431MD1999999-0211MW1201REMSYN100AAXX  23004 82784 21595 80000 10236 20226 39643 40109 72052 887// 333 10288 29092 55035 59021 69991;
0190827840999992004012312004-07317-039300FM-12+040999999V0201401N000510075019N0200001N1+02281+02251101231ADDAY161061AY221061GF108991081071008001999999KA1240N+02141MA1999999096551MD1999999+0011MW1021REMSYN088AAXX  23124 82784 21598 81401 10228 20225 39655 40123 70262 887// 333 20214 58001 60214;
0171827840999992004012318004-07317-039300FM-12+040999999V0202701N001010120019N0200001N1+02551+02251100971ADDAY161061AY241061GF108991081081008001999999MA1999999096311MD1999999+0211MW1211REMSYN082AAXX  23184 82784 21598 82702 10255 20225 39631 40097 72164 888// 333 58021 60061;
0179827840999992004012400004-07317-039300FM-12+040999999V0200901N001010120019N0020001N1+02331+02291101261ADDAA106000021GF108991081081008001999999KA1240M+02621MA1999999096581MD1999999+0151REMSYN088AAXX  24004 82784 32595 80902 10233 20229 39658 40126 888// 333 10262 29094 55000 58015;
0190827840999992004012412004-07317-039300FM-12+040999999V0202701N000510075019N0200001N1+02341+02181101491ADDAY161061AY221061GF108991081061008001999999KA1240N+02161MA1999999096841MD1999999+0251MW1021REMSYN088AAXX  24124 82784 21598 82701 10234 20218 39684 40149 70262 886// 333 20216 58025 60204;
0171827840999992004012418004-07317-039300FM-12+040999999V0200901N001010075019N0200001N1+02471+02301101031ADDAY161061AY221061GF108991081041008001999999MA1999999096351MD1999999+0041MW1021REMSYN082AAXX  24184 82784 21598 80902 10247 20230 39635 40103 70262 884// 333 58004 60051;
0198827840999992004012500004-07317-039300FM-12+040999999V0200901N000510075019N0020001N1+02321+02241101281ADDAA106000091GF108991081071008001999999KA1240M+02711MA1999999096601MD1999999+0021REMSYN088AAXX  25004 82784 32595 80901 10232 20224 39660 40128 887// 333 10271 29093 55003 58002;EQDQ01  00002PRCP06
0190827840999992004012512004-07317-039300FM-12+040999999V0202301N000510120019N0200001N1+02391+02231101411ADDAY121061AY221061GF108991081081008001999999KA1240N+02161MA1999999096731MD1999999-0071MW1211REMSYN088AAXX  25124 82784 21598 82301 10239 20223 39673 40141 72122 888// 333 20216 59007 60234;
0190827840999992004012518004-07317-039300FM-12+040999999V0200501N002119999999N0200001N1+02641+02251101011ADDAY161061AY221061GF106991999021008001001001MA1999999096351MD1999999+0001MW1211REMSYN082AAXX  25184 82784 21598 60504 10264 20225 39635 40101 72162 84200 333 58000 60091;EQDQ01+000042SCOTLC
0202827840999992004012600004-07317-039300FM-12+040999999V0200901N001010075019N0020001N1+02201+02171101411ADDAY161061AY221061GF108991081071008001999999KA1240M+02761MA1999999096721MD1999999+0121MW1211REMSYN100AAXX  26004 82784 21595 80902 10220 20217 39672 40141 72162 887// 333 10276 29091 55020 58012 60171;
0190827840999992004012612004-07317-039300FM-12+040999999V0203601N002110075019N0200001N1+02421+02231101381ADDAY161061AY221061GF108991081071008001999999KA1240N+02201MA1999999096691MD1999999+0041MW1601REMSYN088AAXX  26124 82784 21598 83604 10242 20223 39669 40138 76062 887// 333 20220 58004 60294;
0171827840999992004012618004-07317-039300FM-12+040999999V0201801N001510075019N0200001N1+02931+02311100861ADDAY161061AY221061GF107991071021008001071001MA1999999096221MD1999999-0131MW1021REMSYN082AAXX  26184 82784 21598 71803 10293 20231 39622 40086 70262 87270 333 59013 60021;
0202827840999992004012700004-07317-039300FM-12+040999999V0203601N002110450019N0020001N1+02441+02231101241ADDAY161061AY221061GF106991021041008001021001KA1240M+03011MA1999999096571MD1999999-0151MW1201REMSYN100AAXX  27004 82784 21595 63604 10244 20223 39657 40124 72062 82420 333 10301 29084 55036 59015 69921;
0190827840999992004012712004-07317-039300FM-12+040999999V0200501N001510075019N0200001N1+02461+02281101361ADDAY161061AY221061GF108991081071008001999999KA1240N+02421MA1999999096691MD1999999+0001MW1021REMSYN088AAXX  27124 82784 21598 80503 10246 20228 39669 40136 70262 887// 333 20242 58000 60194;
0171827840999992004012718004-07317-039300FM-12+040999999V0203201N001510120019N0200001N1+02791+02381100961ADDAY161061AY221061GF106991051081008001031001MA1999999096311MD1999999+0091MW1211REMSYN082AAXX  27184 82784 21598 63203 10279 20238 39631 40096 72162 85830 333 58009 60061;
0202827840999992004012800004-07317-039300FM-12+040999999V0203601N000510075019N0020001N1+02301+01111101441ADDAY161061AY221061GF108991081071008001999999KA1240M+02861MA1999999096761MD1999999+0191MW1921REMSYN100AAXX  28004 82784 21595 83601 10230 20111 39676 40144 79262 887// 333 10286 29086 55034 58019 60481;
0190827840999992004012812004-07317-039300FM-12+040999999V0200501N001510075019N0200001N1+02441+02111101481ADDAY161061AY221061GF108991081071008001999999KA1240N+02121MA1999999096791MD1999999+0101MW1021REMSYN088AAXX  28124 82784 21598 80503 10244 20211 39679 40148 70262 887// 333 20212 58010 60624;
0167827840999992004012818004-07317-039300FM-12+040999999V0203201N000510075019N0200001N1+02781+02341101021ADDAA106000091GF106991061021008001001001MA1999999096361MD1999999+0051REMSYN070AAXX  28184 82784 32598 63201 10278 20234 39636 40102 86200 333 58005;EQDQ01  00002PRCP06
0198827840999992004012900004-07317-039300FM-12+040999999V0201401N002110075019N0020001N1+02351+02191101401ADDAA106000091GF108991081071008001999999KA1240M+03031MA1999999096721MD1999999-0041REMSYN088AAXX  29004 82784 32595 81404 10235 20219 39672 40140 887// 333 10303 29085 55072 59004;EQDQ01  00002PRCP06
0186827840999992004012912004-07317-039300FM-12+040999999V0200901N002610075019N0200001N1+02401+02091101431ADDAA106000091GF108991081071008001999999KA1240N+02121MA1999999096751MD1999999-0041REMSYN076AAXX  29124 82784 32598 80905 10240 20209 39675 40143 887// 333 20212 59004;EQDQ01  00002PRCP06
0171827840999992004012918004-07317-039300FM-12+040999999V0202701N001510075019N0200001N1+02351+02261101181ADDAY121061AY221061GF108991081071008001999999MA1999999096491MD1999999+0131MW1211REMSYN082AAXX  29184 82784 21598 82703 10235 20226 39649 40118 72122 887// 333 58013 60121;
0202827840999992004013000004-07317-039300FM-12+040999999V0209999C000010075019N0020001N1+02311+02291101511ADDAY161061AY221061GF108991081091008001999999KA1240M+02691MA1999999096821MD1999999+0101MW1201REMSYN100AAXX  30004 82784 21595 80000 10231 20229 39682 40151 72062 889// 333 10269 29093 55015 58010 69931;
0190827840999992004013012004-07317-039300FM-12+040999999V0200901N001510075019N0200001N1+02511+02191101441ADDAY161061AY221061GF106991061021008001031001KA1240N+02141MA1999999096761MD1999999+0011MW1021REMSYN088AAXX  30124 82784 21598 60903 10251 20219 39676 40144 70262 86230 333 20214 58001 60014;
0167827840999992004013018004-07317-039300FM-12+040999999V0200901N001510075019N0200001N1+02941+02161100971ADDAA106000091GF106991051021008001031001MA1999999096331MD1999999-0161REMSYN070AAXX  30184 82784 32598 60903 10294 20216 39633 40097 85230 333 59016;EQDQ01  00002PRCP06
0202827840999992004013100004-07317-039300FM-12+040999999V0209999C000010120019N0020001N1+02281+02251101371ADDAY121061AY221061GF108991081081008001999999KA1240M+03021MA1999999096691MD1999999-0131MW1211REMSYN100AAXX  31004 82784 21595 80000 10228 20225 39669 40137 72122 888// 333 10302 29085 55066 59013 60121;
0190827840999992004013112004-07317-039300FM-12+040999999V0203601N001510450019N0200001N1+02451+02211101461ADDAY161061AY221061GF106991021021008001031091KA1240N+02131MA1999999096771MD1999999+0011MW1211REMSYN088AAXX  31124 82784 21598 63603 10245 20221 39677 40146 72162 82239 333 20213 58001 60374;
0148827840999992004013118004-07317-039300FM-12+040999999V0200501N002110450019N0200001N1+02871+02261101081ADDAA106000021GF107991041081008001021091MA1999999096431MD1999999+0101REMSYN070AAXX  31184 82784 32598 70504 10287 20226 39643 40108 84829 333 58010;
0202827840999992004020100004-07317-039300FM-12+040999999V0200901N001010075019N0020001N1+02491+02391101451ADDAY121061AY221061GF107991071091008001001001KA1240M+03071MA1999999096771MD1999999+0081MW1211REMSYN100AAXX  01004 82784 21595 70902 10249 20239 39677 40145 72122 87900 333 10307 29087 55060 58008 60021;
0190827840999992004020112004-07317-039300FM-12+040999999V0200901N001510075019N0200001N1+02461+02271101551ADDAY161061AY221061GF108991081041008001999999KA1240N+02271MA1999999096871MD1999999+0101MW1021REMSYN088AAXX  01124 82784 21598 80903 10246 20227 39687 40155 70262 884// 333 20227 58010 60044;
0171827840999992004020118004-07317-039300FM-12+040999999V0203601N004610075019N0200001N1+02831+02331101181ADDAY121061AY221061GF108991081071008001999999MA1999999096511MD1999999+0081MW1651REMSYN082AAXX  01184 82784 21598 83609 10283 20233 39651 40118 76522 887// 333 58008 60041;
0202827840999992004020200004-07317-039300FM-12+040999999V0201401N000510075019N0020001N1+02381+02331101431ADDAY161061AY221061GF108991081071008001999999KA1240M+02911MA1999999096751MD1999999-0021MW1511REMSYN100AAXX  02004 82784 21595 81401 10238 20233 39675 40143 75162 887// 333 10291 29030 55090 59002 60101;
0190827840999992004020212004-07317-039300FM-12+040999999V0203601N001010075019N0200001N1+02241+02141101481ADDAY161061AY221061GF108991081071008001999999KA1240N+02241MA1999999096791MD1999999-0081MW1021REMSYN088AAXX  02124 82784 21598 83602 10224 20214 39679 40148 70262 887// 333 20224 59008 60534;
0167827840999992004020218004-07317-039300FM-12+040999999V0203201N001010450019N0200001N1+02861+02281101011ADDAA106000091GF105991031041008001021001MA1999999096371MD1999999-0141REMSYN070AAXX  02184 82784 32598 53202 10286 20228 39637 40101 83420 333 59014;EQDQ01  00002PRCP06
0202827840999992004020300004-07317-039300FM-12+040999999V0202701N000510075019N0020001N1+02411+02331101291ADDAY121061AY221061GF107991071071008001001001KA1240M+03011MA1999999096611MD1999999-0141MW1201REMSYN100AAXX  03004 82784 21595 72701 10241 20233 39661 40129 72022 87700 333 10301 29089 55033 59014 69941;
0190827840999992004020312004-07317-039300FM-12+040999999V0209999C000010075019N0200001N1+02241+02171101431ADDAY161061AY221061GF108991081071008001999999KA1240N+02161MA1999999096741MD1999999-0051MW1021REMSYN088AAXX  03124 82784 21598 80000 10224 20217 39674 40143 70262 887// 333 20216 59005 60264;
0167827840999992004020318004-07317-039300FM-12+040999999V0200901N001510075019N0200001N1+02901+02221100881ADDAA106000091GF106991061021008001031001MA1999999096231MD1999999-0141REMSYN070AAXX  03184 82784 32598 60903 10290 20222 39623 40088 86230 333 59014;EQDQ01  00002PRCP06
0198827840999992004020400004-07317-039300FM-12+040999999V0202701N001510075019N0020001N1+02551+02351101241ADDAA106000091GF108991081071008001999999KA1240M+03091MA1999999096571MD1999999-0041REMSYN088AAXX  04004 82784 32595 82703 10255 20235 39657 40124 887// 333 10309 29085 55062 59004;EQDQ01  00002PRCP06
0190827840999992004020412004-07317-039300FM-12+040999999V0200901N001010450019N0200001N1+02331+02271101321ADDAY191061AY261061GF108991031021008001031999KA1240N+02141MA1999999096651MD1999999-0091MW1021REMSYN088AAXX  04124 82784 21598 80902 10233 20227 39665 40132 70296 8323/ 333 20214 59009 60784;
0167827840999992004020418004-07317-039300FM-12+040999999V0201401N001010075019N0200001N1+02521+02251101071ADDAA106000091GF108991081071008001999999MA1999999096391MD1999999+0161REMSYN070AAXX  04184 82784 32598 81402 10252 20225 39639 40107 887// 333 58016;EQDQ01  00002PRCP06
0221827840999992004020500004-07317-039300FM-12+040999999V0203601N000519999999N0020001N1+02341+02311101361ADDAY121061AY221061GF107991999071008001999999KA1240M+02901MA1999999096681MD1999999+0111MW1201REMSYN100AAXX  05004 82784 21595 73601 10234 20231 39668 40136 72022 887// 333 10290 29094 55022 58011 69931;EQDQ01+000082SCOTLC
0190827840999992004020512004-07317-039300FM-12+040999999V0209999C000010150019N0200001N1+02411+02131101261ADDAY161061AY221061GF108991081001017501071999KA1240N+02121MA1999999096591MD1999999-0061MW1021REMSYN088AAXX  05124 82784 21798 80000 10241 20213 39659 40126 70262 8807/ 333 20212 59006 60194;
0167827840999992004020518004-07317-039300FM-12+040999999V0203601N001010075019N0200001N1+02811+02221101931ADDAA106000091GF108991081041008001999999MA1999999096281MD1999999-0111REMSYN070AAXX  05184 82784 32598 83602 10281 20222 39628 40193 884// 333 59011;EQDQ01  00002PRCP06
0198827840999992004020600004-07317-039300FM-12+040999999V0200901N000510075019N0020001N1+02501+02341101271ADDAA106000091GF108991081091008001999999KA1240M+02931MA1999999096601MD1999999-0081REMSYN088AAXX  06004 82784 32595 80901 10250 20234 39660 40127 889// 333 10293 29084 55020 59008;EQDQ01  00002PRCP06
0190827840999992004020612004-07317-039300FM-12+040999999V0209999C000010075019N0200001N1+02261+02161101381ADDAY161061AY221061GF108991081071008001999999KA1240N+02131MA1999999096631MD1999999+0041MW1021REMSYN088AAXX  06124 82784 21598 80000 10226 20216 39663 40138 70262 887// 333 20213 58004 60224;
0167827840999992004020618004-07317-039300FM-12+040999999V0200501N002110450019N0200001N1+02811+02081100931ADDAA106000091GF106991031021008001031091MA1999999096281MD1999999+0001REMSYN070AAXX  06184 82784 32598 60504 10281 20208 39628 40093 83239 333 58000;EQDQ01  00002PRCP06
0198827840999992004020700004-07317-039300FM-12+040999999V0202701N000510450019N0020001N1+02411+02241101181ADDAA106000091GF107991041061008001051001KA1240M+02941MA1999999096511MD1999999-0091REMSYN088AAXX  07004 82784 32595 72701 10241 20224 39651 40118 84650 333 10294 29085 55021 59009;EQDQ01  00002PRCP06
0186827840999992004020712004-07317-039300FM-12+040999999V0201401N000510075019N0200001N1+02501+02271101221ADDAA106000091GF106991061021008001001001KA1240N+02161MA1999999096551MD1999999-0081REMSYN076AAXX  07124 82784 32598 61401 10250 20227 39655 40122 86200 333 20216 59008;EQDQ01  00002PRCP06
0208827840999992004020800004-07317-039300FM-12+040999999V0202301N000512200019N0020001N1+02431+02331101211ADDAA106000091GA1001+999999999GF100991001001999999001001KA1240M+03071MA1999999096541MD1999999+0031REMSYN082AAXX  08004 82784 32995 02301 10243 20233 39654 40121 333 10307 29084 55089 58003;EQDQ01  00002PRCP06
0190827840999992004020812004-07317-039300FM-12+040999999V0200501N001510450019N0200001N1+02511+02271101401ADDAY161061AY201061GF106991031021008001031091KA1240N+02091MA1999999096731MD1999999+0181MW1211REMSYN088AAXX  08124 82784 21598 60503 10251 20227 39673 40140 72160 83239 333 20209 58018 60084;
0167827840999992004020818004-07317-039300FM-12+040999999V0200501N002119999999N0200001N1+02991+02191101031ADDAA106000021GF105991999021008001001001MA1999999096391MD1999999+0141REMSYN070AAXX  08184 82784 32598 50504 10299 20219 39639 40103 83200 333 58014;EQDQ01+000032SCOTLC
0198827840999992004020900004-07317-039300FM-12+040999999V0209999C000010075019N0020001N1+02571+02441101351ADDAA106000091GF106991061041008001001001KA1240M+03061MA1999999096691MD1999999+0151REMSYN088AAXX  09004 82784 32595 60000 10257 20244 39669 40135 86400 333 10306 29083 55088 58015;EQDQ01  00002PRCP06
0186827840999992004020912004-07317-039300FM-12+040999999V0203601N001510075019N0200001N1+02501+02211101551ADDAA106000091GF107991071021008001001001KA1240N+02311MA1999999096881MD1999999+0151REMSYN076AAXX  09124 82784 32598 73603 10250 20221 39688 40155 87200 333 20231 58015;EQDQ01  00002PRCP06
0167827840999992004020918004-07317-039300FM-12+040999999V0203601N002612200019N0200001N1+02961+02021101061ADDAA106000091GF104991041021008001001001MA1999999096431MD1999999+0041REMSYN070AAXX  09184 82784 32598 43605 10296 20202 39643 40106 84200 333 58004;EQDQ01  00002PRCP06
0208827840999992004021000004-07317-039300FM-12+040999999V0209999C000012200019N0020001N1+02411+02151101351ADDAA106000091GA1001+999999999GF100991001001999999001001KA1240M+03071MA1999999096681MD1999999-0011REMSYN082AAXX  10004 82784 32995 00000 10241 20215 39668 40135 333 10307 29078 55088 59001;EQDQ01  00002PRCP06
0186827840999992004021012004-07317-039300FM-12+040999999V0203601N001010075019N0200001N1+02521+02211101431ADDAA106000091GF106991061021008001001001KA1240N+02061MA1999999096751MD1999999-0131REMSYN076AAXX  10124 82784 32598 63602 10252 20221 39675 40143 86200 333 20206 59013;EQDQ01  00002PRCP06
0167827840999992004021018004-07317-039300FM-12+040999999V0200501N002112200019N0200001N1+03101+01581101021ADDAA106000091GF102991011021008001021001MA1999999096371MD1999999-0061REMSYN070AAXX  10184 82784 32598 20504 10310 20158 39637 40102 81220 333 59006;EQDQ01  00002PRCP06
0208827840999992004021100004-07317-039300FM-12+040999999V0202301N000512200019N0020001N1+02401+02131101321ADDAA106000091GA1001+999999999GF100991001001999999001001KA1240M+03171MA1999999096651MD1999999-0031REMSYN082AAXX  11004 82784 32995 02301 10240 20213 39665 40132 333 10317 29073 55096 59003;EQDQ01  00002PRCP06
0196827840999992004021112004-07317-039300FM-12+040999999V0201401N001512200019N0200001N1+02711+01711101361ADDAA106000091GA1001+999999999GF100991001001999999001001KA1240N+02081MA1999999096701MD1999999-0051REMSYN070AAXX  11124 82784 32998 01403 10271 20171 39670 40136 333 20208 59005;EQDQ01  00002PRCP06
0167827840999992004021118004-07317-039300FM-12+040999999V0201401N001512200019N0200001N1+03071+01871101031ADDAA106000091GF102991021011008001001001MA1999999096401MD1999999+0031REMSYN070AAXX  11184 82784 32598 21403 10307 20187 39640 40103 82100 333 58003;EQDQ01  00002PRCP06
0198827840999992004021200004-07317-039300FM-12+040999999V0209999C000012200019N0020001N1+02481+02011101321ADDAA106000091GF102991021011008001001001KA1240M+03141MA1999999096661MD1999999+0011REMSYN088AAXX  12004 82784 32595 20000 10248 20201 39666 40132 82100 333 10314 29063 55115 58001;EQDQ01  00002PRCP06
0186827840999992004021212004-07317-039300FM-12+040999999V0200901N001510075019N0200001N1+02691+01991101461ADDAA106000091GF107991071051008001001001KA1240N+02301MA1999999096801MD1999999+0101REMSYN076AAXX  12124 82784 32598 70903 10269 20199 39680 40146 87500 333 20230 58010;EQDQ01  00002PRCP06
0167827840999992004021218004-07317-039300FM-12+040999999V0201401N001510075019N0200001N1+02931+02191101151ADDAA106000091GF107991071051008001001001MA1999999096511MD1999999+0111REMSYN070AAXX  12184 82784 32598 71403 10293 20219 39651 40115 87500 333 58011;EQDQ01  00002PRCP06
0202827840999992004021300004-07317-039300FM-12+040999999V0202701N000510075019N0020001N1+02171+02151101581ADDAY121061AY221061GF108991081061008001999999KA1240M+03141MA1999999096901MD1999999+0241MW1921REMSYN100AAXX  13004 82784 21595 82701 10217 20215 39690 40158 79222 886// 333 10314 29082 55061 58024 60351;
0190827840999992004021312004-07317-039300FM-12+040999999V0200901N001512200019N0200001N1+02651+01981101551ADDAY161061AY211061GF103991031021008001001001KA1240N+02101MA1999999096861MD1999999+0061MW1031REMSYN088AAXX  13124 82784 21598 30903 10265 20198 39686 40155 70361 83200 333 20210 58006 60404;
0167827840999992004021318004-07317-039300FM-12+040999999V0201401N002111050019N0200001N1+02981+01921101151ADDAA106000091GF105991041021008001001091MA1999999096501MD1999999-0011REMSYN070AAXX  13184 82784 32598 51404 10298 20192 39650 40115 84209 333 59001;EQDQ01  00002PRCP06
0208827840999992004021400004-07317-039300FM-12+040999999V0209999C000012200019N0020001N1+02421+02191101331ADDAA106000091GA1001+999999999GF100991001001999999001001KA1240M+03151MA1999999096671MD1999999-0231REMSYN082AAXX  14004 82784 32995 00000 10242 20219 39667 40133 333 10315 29074 55105 59023;EQDQ01  00002PRCP06
0186827840999992004021412004-07317-039300FM-12+040999999V0200501N002112200019N0200001N1+02631+02031101511ADDAA106000091GF104991021021008001031091KA1240N+02281MA1999999096841MD1999999-0021REMSYN076AAXX  14124 82784 32598 40504 10263 20203 39684 40151 82239 333 20228 59002;EQDQ01  00002PRCP06
0167827840999992004021418004-07317-039300FM-12+040999999V0200501N003110075019N0200001N1+02921+02091101111ADDAA106000091GF105991051021008001001001MA1999999096461MD1999999-0041REMSYN070AAXX  14184 82784 32598 50506 10292 20209 39646 40111 85200 333 59004;EQDQ01  00002PRCP06
0198827840999992004021500004-07317-039300FM-12+040999999V0209999C000012200019N0020001N1+02501+02271101311ADDAA106000091GF101991011001008001021001KA1240M+03091MA1999999096651MD1999999-0021REMSYN088AAXX  15004 82784 32595 10000 10250 20227 39665 40131 81020 333 10309 29076 55104 59002;EQDQ01  00002PRCP06
0209827840999992004021512004-07317-039300FM-12+040999999V0200901N002110075019N0200001N1+02681+02221101391ADDAY161061AY211061GF108991999021008001001001KA1240N+02221MA1999999096731MD1999999-0111MW1021REMSYN088AAXX  15124 82784 21598 80904 10268 20222 39673 40139 70261 86200 333 20222 59011 60054;EQDQ01+000062SCOTLC
0167827840999992004021518004-07317-039300FM-12+040999999V0200501N001010075019N0200001N1+03041+02281100931ADDAA106000091GF106991061021008001001001MA1999999096301MD1999999-0161REMSYN070AAXX  15184 82784 32598 60502 10304 20228 39630 40093 86200 333 59016;EQDQ01  00002PRCP06
0214827840999992004021600004-07317-039300FM-12+040999999V0203201N000510075019N0020001N1+02511+02341101271ADDAA106000091GF108991999021008001001001KA1240M+03171MA1999999096621MD1999999-0031REMSYN088AAXX  16004 82784 32595 83201 10251 20234 39662 40127 86200 333 10317 29080 55103 59003;EQDQ01+000062SCOTLCQ02  00002PRCP06
0190827840999992004021612004-07317-039300FM-12+040999999V0202701N001519999999N0200001N1+02231+01271101571ADDAY161061AY221061GF108991081001008001031999KA1240N+02201MA1999999096881MD1999999+0151MW1021REMSYN088AAXX  16124 82784 21598 82703 10223 20127 39688 40157 70262 8803/ 333 20220 58015 60944;
0167827840999992004021618004-07317-039300FM-12+040999999V0200501N001010450019N0200001N1+02931+02331101031ADDAA106000091GF106991031021008001021001MA1999999096381MD1999999+0081REMSYN070AAXX  16184 82784 32598 60502 10293 20233 39638 40103 83220 333 58008;EQDQ01  00002PRCP06
0208827840999992004021700004-07317-039300FM-12+040999999V0209999C000012200019N0020001N1+02481+02431101391ADDAA106000091GA1001+999999999GF100991001001999999001001KA1240M+03021MA1999999096711MD1999999+0091REMSYN082AAXX  17004 82784 32995 00000 10248 20243 39671 40139 333 10302 29090 55051 58009;EQDQ01  00002PRCP06
0186827840999992004021712004-07317-039300FM-12+040999999V0200901N001510075019N0200001N1+02631+02291101441ADDAA106000091GF107991051021008001031001KA1240N+02221MA1999999096771MD1999999-0011REMSYN076AAXX  17124 82784 32598 70903 10263 20229 39677 40144 85230 333 20222 59001;EQDQ01  00002PRCP06
0167827840999992004021718004-07317-039300FM-12+040999999V0201401N002619999999N0200001N1+02961+01931101161ADDAA106000091GF108991081001008001031999MA1999999096521MD1999999+0141REMSYN070AAXX  17184 82784 32598 81405 10296 20193 39652 40116 8803/ 333 58014;EQDQ01  00002PRCP06
0208827840999992004021800004-07317-039300FM-12+040999999V0209999C000012200019N0020001N1+02491+02291101441ADDAA106000091GA1001+999999999GF100991001001999999001001KA1240M+03111MA1999999096771MD1999999+0061REMSYN082AAXX  18004 82784 32995 00000 10249 20229 39677 40144 333 10311 29078 55092 58006;EQDQ01  00002PRCP06
0186827840999992004021812004-07317-039300FM-12+040999999V0200901N002112200019N0200001N1+02711+02121101461ADDAA106000091GF101991011021008001001001KA1240N+02181MA1999999096801MD1999999+0031REMSYN076AAXX  18124 82784 32598 10904 10271 20212 39680 40146 81200 333 20218 58003;EQDQ01  00002PRCP06
0167827840999992004021818004-07317-039300FM-12+040999999V0201401N003112200019N0200001N1+03011+01911101071ADDAA106000091GF102991021021008001001001MA1999999096431MD1999999-0091REMSYN070AAXX  18184 82784 32598 21406 10301 20191 39643 40107 82200 333 59009;EQDQ01  00002PRCP06
0186827840999992004021912004-07317-039300FM-12+040999999V0203601N001010075019N0200001N1+02501+02191101341ADDAA106000091GF108991081021008001999999KA1240N+02101MA1999999096671MD1999999-0131REMSYN076AAXX  19124 82784 32598 83602 10250 20219 39667 40134 882// 333 20210 59013;EQDQ01  00002PRCP06
0167827840999992004021918004-07317-039300FM-12+040999999V0200501N003110075019N0200001N1+03011+02191100901ADDAA106000091GF106991061021008001001001MA1999999096261MD1999999-0171REMSYN070AAXX  19184 82784 32598 60506 10301 20219 39626 40090 86200 333 59017;EQDQ01  00002PRCP06
0208827840999992004022000004-07317-039300FM-12+040999999V0201801N000512200019N0020001N1+02501+02251101121ADDAA106000091GA1001+999999999GF100991001001999999001001KA1240M+03111MA1999999096461MD1999999-0161REMSYN082AAXX  20004 82784 32995 01801 10250 20225 39646 40112 333 10311 29079 55089 59016;EQDQ01  00002PRCP06
0186827840999992004022012004-07317-039300FM-12+040999999V0201401N001010075019N0200001N1+02671+02161101291ADDAA106000091GF106991061021008001001001KA1240N+02111MA1999999096641MD1999999-0031REMSYN076AAXX  20124 82784 32598 61402 10267 20216 39664 40129 86200 333 20211 59003;EQDQ01  00002PRCP06
0167827840999992004022018004-07317-039300FM-12+040999999V0200501N002112200019N0200001N1+03011+02241100931ADDAA106000091GF103991021021008001021001MA1999999096291MD1999999+0031REMSYN070AAXX  20184 82784 32598 30504 10301 20224 39629 40093 82220 333 58003;EQDQ01  00002PRCP06
0208827840999992004022100004-07317-039300FM-12+040999999V0209999C000012200019N0020001N1+02551+02441101201ADDAA106000091GA1001+999999999GF100991001001999999001001KA1240M+03111MA1999999096551MD1999999+0091REMSYN082AAXX  21004 82784 32995 00000 10255 20244 39655 40120 333 10311 29081 55102 58009;EQDQ01  00002PRCP06
0190827840999992004022112004-07317-039300FM-12+040999999V0200501N002610075019N0200001N1+02661+02141101411ADDAY151061AY211061GF108991081021008001999999KA1240N+02261MA1999999096751MD1999999+0111MW1021REMSYN088AAXX  21124 82784 21598 80505 10266 20214 39675 40141 70251 882// 333 20226 58011 69954;
0167827840999992004022118004-07317-039300FM-12+040999999V0200501N002610075019N0200001N1+03091+02101101011ADDAA106000091GF106991061021008001001001MA1999999096381MD1999999+0091REMSYN070AAXX  21184 82784 32598 60505 10309 20210 39638 40101 86200 333 58009;EQDQ01  00002PRCP06
0198827840999992004022200004-07317-039300FM-12+040999999V0209999C000012200019N0020001N1+02541+02381101281ADDAA106000091GF103991031021008001001001KA1240M+03191MA1999999096631MD1999999+0081REMSYN088AAXX  22004 82784 32595 30000 10254 20238 39663 40128 83200 333 10319 29078 55106 58008;EQDQ01  00002PRCP06
0215827840999992004022212004-07317-039300FM-12+040999999V0200901N002110075019N0200001N1+02451+02091101521ADDAY111061AY211061GF107991071041008001001001KA1240N+99999MA1999999096851MD1010001+0101MW1211REMSYN094AAXX  22124 82784 21598 70904 10245 20209 39685 40152 50000 72111 87400 333 20259 58010 60254;EQDQ01 +02592ATMN  
0148827840999992004022218004-07317-039300FM-12+040999999V0201401N001512200019N0200001N1+03001+02081101081ADDAA106000021GF103991031021008001001001MA1999999096441MD1999999+0061REMSYN070AAXX  22184 82784 32598 31403 10300 20208 39644 40108 83200 333 58006;
0198827840999992004022300004-07317-039300FM-12+040999999V0201801N000512200019N0020001N1+02561+02401101381ADDAA106000091GF102991021021008001001001KA1240M+03111MA1999999096711MD1999999+0081REMSYN088AAXX  23004 82784 32595 21801 10256 20240 39671 40138 82200 333 10311 29080 55085 58008;EQDQ01  00002PRCP06
0198827840999992004022400004-07317-039300FM-12+040999999V0202701N000510120019N0020001N1+02581+02441101311ADDAA106000091GF105991051081008001001001KA1240M+03121MA1999999096651MD1999999-0061REMSYN088AAXX  24004 82784 32595 52701 10258 20244 39665 40131 85800 333 10312 29082 55063 59006;EQDQ01  00002PRCP06
0190827840999992004022412004-07317-039300FM-12+040999999V0200501N000510075019N0200001N1+02281+02251101551ADDAY191061AY261061GF108991081071008001999999KA1240N+02241MA1999999096871MD1999999+0111MW1511REMSYN088AAXX  24124 82784 21598 80501 10228 20225 39687 40155 75196 887// 333 20224 58011 60094;
0171827840999992004022418004-07317-039300FM-12+040999999V0203601N001510450019N0200001N1+02531+02311101191ADDAY191061AY261061GF106991031021008001021001MA1999999096521MD1999999+0101MW1211REMSYN082AAXX  24184 82784 21598 63603 10253 20231 39652 40119 72196 83220 333 58010 60021;
0179827840999992004022500004-07317-039300FM-12+040999999V0201801N001012200019N0020001N1+02371+02311101411ADDAA106000021GF101991011001017501041001KA1240M+02621MA1999999096721MD1999999+0071REMSYN088AAXX  25004 82784 32795 11802 10237 20231 39672 40141 81040 333 10262 29094 55000 58007;
0162827840999992004022512004-07317-039300FM-12+040999999V0200501N000519999999N0200001N1+02441+02301101591ADDGF108991081001008001031999KA1240N+02201MA1999999096901MD1999999+0031REMSYN082AAXX  25124 82784 22598 80501 10244 20230 39690 40159 8803/ 333 20220 58003 60024;
0167827840999992004022518004-07317-039300FM-12+040999999V0200901N002110450019N0200001N1+02851+02291101081ADDAA106000091GF108991021021008001031999MA1999999096431MD1999999-0091REMSYN070AAXX  25184 82784 32598 80904 10285 20229 39643 40108 8223/ 333 59009;EQDQ01  00002PRCP06
0198827840999992004022600004-07317-039300FM-12+040999999V0201801N001510075019N0020001N1+02571+02271101301ADDAA106000091GF107991071061008001001001KA1240M+02981MA1999999096641MD1999999-0081REMSYN088AAXX  26004 82784 32595 71803 10257 20227 39664 40130 87600 333 10298 29082 55041 59008;EQDQ01  00002PRCP06
0186827840999992004022612004-07317-039300FM-12+040999999V0200901N002110075019N0200001N1+02601+02191101461ADDAA106000091GF108991081021008001999999KA1240N+02261MA1999999096801MD1999999-0101REMSYN076AAXX  26124 82784 32598 80904 10260 20219 39680 40146 882// 333 20226 59010;EQDQ01  00002PRCP06
0167827840999992004022618004-07317-039300FM-12+040999999V0202301N001510450019N0200001N1+02981+02331101151ADDAA106000091GF106991041021008001051091MA1999999096511MD1999999+0081REMSYN070AAXX  26184 82784 32598 62303 10298 20233 39651 40115 84259 333 58008;EQDQ01  00002PRCP06
0202827840999992004022700004-07317-039300FM-12+040999999V0202701N001010075019N0020001N1+02441+02371101451ADDAY121061AY221061GF107991071071008001001001KA1240M+03081MA1999999096781MD1999999+0141MW1801REMSYN100AAXX  27004 82784 21595 72702 10244 20237 39678 40145 78022 87700 333 10308 29084 55072 58014 69971;
0190827840999992004022712004-07317-039300FM-12+040999999V0200901N000519999999N0200001N1+02401+02261101601ADDAY191061AY261061GF108991081001008001031999KA1240N+02131MA1999999096911MD1999999+0111MW1021REMSYN088AAXX  27124 82784 21598 80901 10240 20226 39691 40160 70296 8803/ 333 20213 58011 60504;
0167827840999992004022718004-07317-039300FM-12+040999999V0200901N001510450019N0200001N1+02961+02311101021ADDAA106000091GF106991041021008001031001MA1999999096371MD1999999-0141REMSYN070AAXX  27184 82784 32598 60903 10296 20231 39637 40102 84230 333 59014;EQDQ01  00002PRCP06
0198827840999992004022800004-07317-039300FM-12+040999999V0203601N002610075019N0020001N1+02471+02231101351ADDAA106000091GF108991081091008001999999KA1240M+03041MA1999999096681MD1999999-0101REMSYN088AAXX  28004 82784 32595 83605 10247 20223 39668 40135 889// 333 10304 29084 55059 59010;EQDQ01  00002PRCP06
0190827840999992004022812004-07317-039300FM-12+040999999V0200901N000510450019N0200001N1+02471+02131101341ADDAY121061AY221061GF106991041051008001031001KA1240N+02141MA1999999096671MD1999999-0241MW1211REMSYN088AAXX  28124 82784 21598 60901 10247 20213 39667 40134 72122 84530 333 20214 59024 60234;
0148827840999992004022818004-07317-039300FM-12+040999999V0200501N001510450019N0200001N1+02831+02271100881ADDAA106000021GF105991031041008001021001MA1999999096241MD1999999-0131REMSYN070AAXX  28184 82784 32598 50503 10283 20227 39624 40088 83420 333 59013;
0202827840999992004022900004-07317-039300FM-12+040999999V0209999C000010075019N0020001N1+02451+02411101231ADDAY121061AY221061GF106991061001008001021001KA1240M+02941MA1999999096561MD1999999-0121MW1801REMSYN100AAXX  29004 82784 21595 60000 10245 20241 39656 40123 78022 86020 333 10294 29088 55071 59012 60031;
0190827840999992004022912004-07317-039300FM-12+040999999V0200501N001510075019N0200001N1+02531+02311101471ADDAY161061AY221061GF108991081041008001999999KA1240N+02291MA1999999096801MD1999999+0131MW1021REMSYN088AAXX  29124 82784 21598 80503 10253 20231 39680 40147 70262 884// 333 20229 58013 60034;
0167827840999992004022918004-07317-039300FM-12+040999999V0200901N001010120019N0200001N1+02971+02251101051ADDAA106000091GF108991081081008001999999MA1999999096411MD1999999+0171REMSYN070AAXX  29184 82784 32598 80902 10297 20225 39641 40105 888// 333 58017;EQDQ01  00002PRCP06
0202827840999992004030100004-07317-039300FM-12+040999999V0209999C000012200019N0020001N1+02401+02371101371ADDAY151061AY211061GF102991021061008001001001KA1240M+03051MA1999999096691MD1999999+0131MW1011REMSYN100AAXX  01004 82784 21595 20000 10240 20237 39669 40137 70151 82600 333 10305 29087 55031 58013 69981;
0190827840999992004030112004-07317-039300FM-12+040999999V0200501N002110075019N0200001N1+02581+02291101371ADDAY151061AY211061GF105991051021008001001001KA1240N+02261MA1999999096701MD1999999-0101MW1011REMSYN088AAXX  01124 82784 21598 50504 10258 20229 39670 40137 70151 85200 333 20226 59010 69984;
0167827840999992004030118004-07317-039300FM-12+040999999V0200501N003112200019N0200001N1+03031+02081101081ADDAA106000091GF104991041021008001001001MA1999999096451MD1999999+0041REMSYN070AAXX  01184 82784 32598 40506 10303 20208 39645 40108 84200 333 58004;EQDQ01  00002PRCP06
0198827840999992004030200004-07317-039300FM-12+040999999V0203601N000512200019N0020001N1+02591+02441101341ADDAA106000091GF101991011011008001001001KA1240M+03101MA1999999096681MD1999999-0011REMSYN088AAXX  02004 82784 32595 13601 10259 20244 39668 40134 81100 333 10310 29081 55092 59001;EQDQ01  00002PRCP06
0186827840999992004030212004-07317-039300FM-12+040999999V0200901N001010075019N0200001N1+02681+02181101271ADDAA106000091GF105991051021008001001001KA1240N+02201MA1999999096621MD1999999-0081REMSYN076AAXX  02124 82784 32598 50902 10268 20218 39662 40127 85200 333 20220 59008;EQDQ01  00002PRCP06
0167827840999992004030218004-07317-039300FM-12+040999999V0201801N002110075019N0200001N1+03151+02051100931ADDAA106000091GF106991061021008001001001MA1999999096301MD1999999-0151REMSYN070AAXX  02184 82784 32598 61804 10315 20205 39630 40093 86200 333 59015;EQDQ01  00002PRCP06
0198827840999992004030300004-07317-039300FM-12+040999999V0201801N001012200019N0020001N1+02511+02341101251ADDAA106000091GF102991011011008001021001KA1240M+03221MA1999999096601MD1999999-0081REMSYN088AAXX  03004 82784 32595 21802 10251 20234 39660 40125 81120 333 10322 29076 55106 59008;EQDQ01  00002PRCP06
0186827840999992004030312004-07317-039300FM-12+040999999V0201401N000510450019N0200001N1+02501+02251101441ADDAA106000091GF106991031021008001031091KA1240N+02251MA1999999096771MD1999999+0151REMSYN076AAXX  03124 82784 32598 61401 10250 20225 39677 40144 83239 333 20225 58015;EQDQ01  00002PRCP06
0171827840999992004030318004-07317-039300FM-12+040999999V0202701N001010075019N0200001N1+02891+02501101061ADDAY191061AY261061GF106991061021008001031001MA1999999096421MD1999999+0121MW1021REMSYN082AAXX  03184 82784 21598 62702 10289 20250 39642 40106 70296 86230 333 58012 60051;
0198827840999992004030400004-07317-039300FM-12+040999999V0209999C000012200019N0020001N1+02481+02411101161ADDAA106000091GF103991021011008001021001KA1240M+02971MA1999999096501MD1999999-0101REMSYN088AAXX  04004 82784 32595 30000 10248 20241 39650 40116 82120 333 10297 29090 55047 59010;EQDQ01  00002PRCP06
0190827840999992004030412004-07317-039300FM-12+040999999V0209999C000010075019N0200001N1+02441+02281101441ADDAY151061AY211061GF108991081021008001999999KA1240N+02171MA1999999096761MD1999999-0011MW1021REMSYN088AAXX  04124 82784 21598 80000 10244 20228 39676 40144 70251 882// 333 20217 59001 60054;
0167827840999992004030418004-07317-039300FM-12+040999999V0203601N001010075019N0200001N1+02521+02271101211ADDAA106000091GF108991081041008001999999MA1999999096541MD1999999+0121REMSYN070AAXX  04184 82784 32598 83602 10252 20227 39654 40121 884// 333 58012;EQDQ01  00002PRCP06
0198827840999992004030500004-07317-039300FM-12+040999999V0201801N000510075019N0020001N1+02421+02331101281ADDAA106000091GF107991071041008001001001KA1240M+02841MA1999999096611MD1999999+0111REMSYN088AAXX  05004 82784 32595 71801 10242 20233 39661 40128 87400 333 10284 29092 55034 58011;EQDQ01  00002PRCP06
0190827840999992004030512004-07317-039300FM-12+040999999V0203601N000510075019N0200001N1+02201+02181101611ADDAY121061AY221061GF108991081061008001999999KA1240N+02161MA1999999096911MD1999999+0151MW1521REMSYN088AAXX  05124 82784 21598 83601 10220 20218 39691 40161 75222 886// 333 20216 58015 60204;
0171827840999992004030518004-07317-039300FM-12+040999999V0203601N001010075019N0200001N1+02731+02341101211ADDAY151061AY221061GF108991081041008001999999MA1999999096551MD1999999+0011MW1021REMSYN082AAXX  05184 82784 21598 83602 10273 20234 39655 40121 70252 884// 333 58001 69931;
0198827840999992004030600004-07317-039300FM-12+040999999V0209999C000012200019N0020001N1+02361+02331101351ADDAA106000091GF101991011011008001001001KA1240M+02801MA1999999096661MD1999999+0051REMSYN088AAXX  06004 82784 32595 10000 10236 20233 39666 40135 81100 333 10280 29094 55008 58005;EQDQ01  00002PRCP06
0162827840999992004030612004-07317-039300FM-12+040999999V0203601N000510075019N0200001N1+02361+02191101481ADDGF108991081071008001999999KA1240N+02181MA1999999096791MD1999999+0121REMSYN082AAXX  06124 82784 22598 83601 10236 20219 39679 40148 887// 333 20218 58012 69934;
0167827840999992004030618004-07317-039300FM-12+040999999V0201801N002610450019N0200001N1+02881+02211101071ADDAA106000091GF107991031021008001031001MA1999999096421MD1999999-0131REMSYN070AAXX  06184 82784 32598 71805 10288 20221 39642 40107 83230 333 59013;EQDQ01  00002PRCP06
0214827840999992004030700004-07317-039300FM-12+040999999V0200501N001019999999N0020001N1+02381+02211101371ADDAA106000091GF105991999051017501031001KA1240M+03001MA1999999096691MD1999999+0031REMSYN088AAXX  07004 82784 32795 50502 10238 20221 39669 40137 88530 333 10300 29084 55021 58003;EQDQ01+000082SCOTLCQ02  00002PRCP06
0186827840999992004030712004-07317-039300FM-12+040999999V0201401N001510075019N0200001N1+02521+02211101531ADDAA106000091GF106991051021008001031001KA1240N+02221MA1999999096851MD1999999+0061REMSYN076AAXX  07124 82784 32598 61403 10252 20221 39685 40153 85230 333 20222 58006;EQDQ01  00002PRCP06
0167827840999992004030718004-07317-039300FM-12+040999999V0201401N001510450019N0200001N1+02861+02211101091ADDAA106000091GF106991041021008001021001MA1999999096451MD1999999+0031REMSYN070AAXX  07184 82784 32598 61403 10286 20221 39645 40109 84220 333 58003;EQDQ01  00002PRCP06
0198827840999992004030800004-07317-039300FM-12+040999999V0201801N000510075019N0020001N1+02551+02461101421ADDAA106000091GF108991081061008001999999KA1240M+03001MA1999999096751MD1999999+0061REMSYN088AAXX  08004 82784 32595 81801 10255 20246 39675 40142 886// 333 10300 29085 55036 58006;EQDQ01  00002PRCP06
0190827840999992004030812004-07317-039300FM-12+040999999V0201801N001010450019N0200001N1+02471+02131101591ADDAY161061AY221061GF108991031021008001031999KA1240N+02061MA1999999096911MD1999999+0061MW1021REMSYN088AAXX  08124 82784 21598 81802 10247 20213 39691 40159 70262 8323/ 333 20206 58006 60534;
0167827840999992004030818004-07317-039300FM-12+040999999V0201401N002110450019N0200001N1+02911+01891101151ADDAA106000091GF106991031021008001031001MA1999999096501MD1999999+0051REMSYN070AAXX  08184 82784 32598 61404 10291 20189 39650 40115 83230 333 58005;EQDQ01  00002PRCP06
0198827840999992004030900004-07317-039300FM-12+040999999V0200901N000510120019N0020001N1+02441+02191101471ADDAA106000091GF107991071081008001001001KA1240M+02981MA1999999096791MD1999999+0041REMSYN088AAXX  09004 82784 32595 70901 10244 20219 39679 40147 87800 333 10298 29077 55078 58004;EQDQ01  00002PRCP06
0190827840999992004030912004-07317-039300FM-12+040999999V0201401N001512200019N0200001N1+02661+01951101581ADDAY121061AY221061GF103991021021008001021001KA1240N+02231MA1999999096911MD1999999+0001MW1201REMSYN088AAXX  09124 82784 21598 31403 10266 20195 39691 40158 72022 82220 333 20223 58000 69924;
0148827840999992004030918004-07317-039300FM-12+040999999V0200901N001012200019N0200001N1+03001+02031101251ADDAA106000021GF102991021021008001001001MA1999999096601MD1999999+0101REMSYN070AAXX  09184 82784 32598 20902 10300 20203 39660 40125 82200 333 58010;
0214827840999992004031000004-07317-039300FM-12+040999999V0209999C000012200019N0020001N1+02411+02261101511ADDAA106000091GF101991001001999999001091KA1240M+03091MA1999999096841MD1999999+0051REMSYN088AAXX  10004 82784 32995 10000 10241 20226 39684 40151 81009 333 10309 29076 55098 58005;EQDQ01+000012SCOTLCQ02  00002PRCP06
0186827840999992004031012004-07317-039300FM-12+040999999V0201801N001512200019N0200001N1+02671+02021101591ADDAA106000091GF102991021011008001001001KA1240N+02181MA1999999096921MD1999999-0011REMSYN076AAXX  10124 82784 32598 21803 10267 20202 39692 40159 82100 333 20218 59001;EQDQ01  00002PRCP06
0167827840999992004031018004-07317-039300FM-12+040999999V0203201N001510450019N0200001N1+02941+02211101231ADDAA106000091GF107991031021008001031001MA1999999096571MD1999999-0031REMSYN070AAXX  10184 82784 32598 73203 10294 20221 39657 40123 83230 333 59003;EQDQ01  00002PRCP06
0202827840999992004031100004-07317-039300FM-12+040999999V0200901N001010120019N0020001N1+02311+02161101501ADDAY121061AY221061GF107991071081008001001001KA1240M+03111MA1999999096831MD1999999-0011MW1201REMSYN100AAXX  11004 82784 21595 70902 10231 20216 39683 40150 72022 87800 333 10311 29079 55078 59001 69931;
0190827840999992004031112004-07317-039300FM-12+040999999V0209999C000010075019N0200001N1+02471+02251101461ADDAY151061AY221061GF106991061031008001001001KA1240N+02231MA1999999096781MD1999999-0141MW1201REMSYN088AAXX  11124 82784 21598 60000 10247 20225 39678 40146 72052 86300 333 20223 59014 69974;
0148827840999992004031118004-07317-039300FM-12+040999999V0203601N002110450019N0200001N1+02901+02151101001ADDAA106000021GF106991041021008001031001MA1999999096361MD1999999-0211REMSYN070AAXX  11184 82784 32598 63604 10290 20215 39636 40100 84230 333 59021;
0208827840999992004031200004-07317-039300FM-12+040999999V0200901N000512200019N0020001N1+02411+02261101221ADDAA106000091GA1001+999999999GF100991001001999999001001KA1240M+02991MA1999999096551MD1999999-0281REMSYN082AAXX  12004 82784 32995 00901 10241 20226 39655 40122 333 10299 29084 55072 59028;EQDQ01  00002PRCP06
0186827840999992004031212004-07317-039300FM-12+040999999V0200501N002110075019N0200001N1+02621+02311101331ADDAA106000091GF108991081021008001999999KA1240N+02141MA1999999096661MD1999999-0121REMSYN076AAXX  12124 82784 32598 80504 10262 20231 39666 40133 882// 333 20214 59012;EQDQ01  00002PRCP06
0167827840999992004031218004-07317-039300FM-12+040999999V0200501N002110450019N0200001N1+03001+02341100891ADDAA106000091GF108991031021008001031999MA1999999096251MD1999999-0111REMSYN070AAXX  12184 82784 32598 80504 10300 20234 39625 40089 8323/ 333 59011;EQDQ01  00002PRCP06
0208827840999992004031300004-07317-039300FM-12+040999999V0203201N001012200019N0020001N1+02451+02351101231ADDAA106000091GA1001+999999999GF100991001001999999001001KA1240M+03131MA1999999096571MD1999999+0021REMSYN082AAXX  13004 82784 32995 03202 10245 20235 39657 40123 333 10313 29085 55070 58002;EQDQ01  00002PRCP06
0190827840999992004031312004-07317-039300FM-12+040999999V0203601N001510075019N0200001N1+02331+02261101421ADDAY101061AY201061GF107991071041008001001001KA1240N+02051MA1999999096741MD1999999+0081MW1211REMSYN088AAXX  13124 82784 21598 73603 10233 20226 39674 40142 72100 87400 333 20205 58008 60564;
0148827840999992004031318004-07317-039300FM-12+040999999V0200901N002110120019N0200001N1+02641+02171101121ADDAA106000021GF107991071081008001001001MA1999999096461MD1999999+0211REMSYN070AAXX  13184 82784 32598 70904 10264 20217 39646 40112 87800 333 58021;
0198827840999992004031400004-07317-039300FM-12+040999999V0209999C000010150019N0020001N1+02421+02371101331ADDAA106000091GF105991051001017501031001KA1240M+02921MA1999999096651MD1999999+0081REMSYN088AAXX  14004 82784 32795 50000 10242 20237 39665 40133 85030 333 10292 29093 55028 58008;EQDQ01  00002PRCP06
0186827840999992004031412004-07317-039300FM-12+040999999V0203601N001512200019N0200001N1+02581+01971101491ADDAA106000091GF102991011021008001001091KA1240N+02201MA1999999096821MD1999999+0081REMSYN076AAXX  14124 82784 32598 23603 10258 20197 39682 40149 81209 333 20220 58008;EQDQ01  00002PRCP06
0167827840999992004031418004-07317-039300FM-12+040999999V0203601N001510075019N0200001N1+02961+02151101071ADDAA106000091GF106991061021008001001001MA1999999096431MD1999999-0031REMSYN070AAXX  14184 82784 32598 63603 10296 20215 39643 40107 86200 333 59003;EQDQ01  00002PRCP06
0208827840999992004031500004-07317-039300FM-12+040999999V0209999C000012200019N0020001N1+02441+02341101281ADDAA106000091GA1001+999999999GF100991001001999999001001KA1240M+03031MA1999999096621MD1999999+0031REMSYN082AAXX  15004 82784 32995 00000 10244 20234 39662 40128 333 10303 29080 55103 58003;EQDQ01  00002PRCP06
0186827840999992004031512004-07317-039300FM-12+040999999V0200901N000510075019N0200001N1+02571+02251101311ADDAA106000091GF105991051031008001001001KA1240N+02131MA1999999096651MD1999999-0171REMSYN076AAXX  15124 82784 32598 50901 10257 20225 39665 40131 85300 333 20213 59017;EQDQ01  00002PRCP06
0167827840999992004031518004-07317-039300FM-12+040999999V0200901N001510075019N0200001N1+03071+01991100941ADDAA106000091GF106991061021008001001001MA1999999096301MD1999999-0131REMSYN070AAXX  15184 82784 32598 60903 10307 20199 39630 40094 86200 333 59013;EQDQ01  00002PRCP06
0198827840999992004031600004-07317-039300FM-12+040999999V0209999C000012200019N0020001N1+02561+02401101161ADDAA106000091GF101991011011008001001001KA1240M+03171MA1999999096511MD1999999-0111REMSYN088AAXX  16004 82784 32595 10000 10256 20240 39651 40116 81100 333 10317 29079 55102 59011;EQDQ01  00002PRCP06
0190827840999992004031612004-07317-039300FM-12+040999999V0209999C000010075019N0200001N1+02501+02311101261ADDAY161061AY211061GF108991081021008001999999KA1240N+02181MA1999999096631MD1999999-0021MW1021REMSYN088AAXX  16124 82784 21598 80000 10250 20231 39663 40126 70261 882// 333 20218 59002 60154;
0167827840999992004031618004-07317-039300FM-12+040999999V0202701N001010450019N0200001N1+02781+02341100811ADDAA106000091GF107991041021008001031001MA1999999096171MD1999999-0131REMSYN070AAXX  16184 82784 32598 72702 10278 20234 39617 40081 84230 333 59013;EQDQ01  00002PRCP06
0198827840999992004031700004-07317-039300FM-12+040999999V0202701N000512200019N0020001N1+02441+02301101141ADDAA106000091GF102991021041008001001001KA1240M+02881MA1999999096481MD1999999-0031REMSYN088AAXX  17004 82784 32595 22701 10244 20230 39648 40114 82400 333 10288 29088 55049 59003;EQDQ01  00002PRCP06
0190827840999992004031712004-07317-039300FM-12+040999999V0200501N001010120019N0200001N1+02401+02301101241ADDAY111061AY211061GF107991071081008001001001KA1240N+02161MA1999999096571MD1999999-0061MW1211REMSYN088AAXX  17124 82784 21598 70502 10240 20230 39657 40124 72111 87800 333 20216 59006 60134;
0171827840999992004031718004-07317-039300FM-12+040999999V0202701N001510075019N0200001N1+02461+02341100881ADDAY161061AY221061GF108991081041008001999999MA1999999096211MD1999999+0041MW1201REMSYN082AAXX  17184 82784 21598 82703 10246 20234 39621 40088 72062 884// 333 58004 60041;
0179827840999992004031800004-07317-039300FM-12+040999999V0200901N000512200019N0020001N1+02401+02351101191ADDAA106000021GF103991031021008001001001KA1240M+02771MA1999999096521MD1999999+0041REMSYN088AAXX  18004 82784 32595 30901 10240 20235 39652 40119 83200 333 10277 29095 55019 58004;
0162827840999992004031812004-07317-039300FM-12+040999999V0200901N001510075019N0200001N1+02491+02131101331ADDGF108991081021008001999999KA1240N+02191MA1999999096661MD1999999+0091REMSYN082AAXX  18124 82784 22598 80903 10249 20213 39666 40133 882// 333 20219 58009 60044;
0167827840999992004031818004-07317-039300FM-12+040999999V0203601N002610450019N0200001N1+02921+02041100871ADDAA106000091GF106991041021008001031001MA1999999096231MD1999999+0021REMSYN070AAXX  18184 82784 32598 63605 10292 20204 39623 40087 84230 333 58002;EQDQ01  00002PRCP06
0198827840999992004031900004-07317-039300FM-12+040999999V0209999C000012200019N0020001N1+02421+02301101221ADDAA106000091GF103991031001017501021001KA1240M+03001MA1999999096551MD1999999+0031REMSYN088AAXX  19004 82784 32795 30000 10242 20230 39655 40122 83020 333 10300 29082 55085 58003;EQDQ01  00002PRCP06
0186827840999992004031912004-07317-039300FM-12+040999999V0200501N001510075019N0200001N1+02501+02321101371ADDAA106000091GF106991061021008001001001KA1240N+02181MA1999999096701MD1999999+0061REMSYN076AAXX  19124 82784 32598 60503 10250 20232 39670 40137 86200 333 20218 58006;EQDQ01  00002PRCP06
0167827840999992004031918004-07317-039300FM-12+040999999V0200501N003110075019N0200001N1+02961+02101100931ADDAA106000091GF105991051021008001001001MA1999999096291MD1999999+0061REMSYN070AAXX  19184 82784 32598 50506 10296 20210 39629 40093 85200 333 58006;EQDQ01  00002PRCP06
0208827840999992004032000004-07317-039300FM-12+040999999V0201801N000512200019N0020001N1+02371+02291101171ADDAA106000091GA1001+999999999GF100991001001999999001001KA1240M+03031MA1999999096511MD1999999-0041REMSYN082AAXX  20004 82784 32995 01801 10237 20229 39651 40117 333 10303 29085 55080 59004;EQDQ01  00002PRCP06
0186827840999992004032012004-07317-039300FM-12+040999999V0200901N002112200019N0200001N1+02531+01981101331ADDAA106000091GF102991021011008001001001KA1240N+01941MA1999999096661MD1999999-0041REMSYN076AAXX  20124 82784 32598 20904 10253 20198 39666 40133 82100 333 20194 59004;EQDQ01  00002PRCP06
0167827840999992004032018004-07317-039300FM-12+040999999V0203601N002112200019N0200001N1+02941+01971100951ADDAA106000091GF102991021011008001001001MA1999999096301MD1999999+0011REMSYN070AAXX  20184 82784 32598 23604 10294 20197 39630 40095 82100 333 58001;EQDQ01  00002PRCP06
0208827840999992004032100004-07317-039300FM-12+040999999V0209999C000012200019N0020001N1+02371+02241101111ADDAA106000091GA1001+999999999GF100991001001999999001001KA1240M+03021MA1999999096451MD1999999-0061REMSYN082AAXX  21004 82784 32995 00000 10237 20224 39645 40111 333 10302 29078 55108 59006;EQDQ01  00002PRCP06
0186827840999992004032112004-07317-039300FM-12+040999999V0201401N001012200019N0200001N1+02601+02011101211ADDAA106000091GF101991011011008001001001KA1240N+01941MA1999999096551MD1999999-0111REMSYN076AAXX  21124 82784 32598 11402 10260 20201 39655 40121 81100 333 20194 59011;EQDQ01  00002PRCP06
0190827840999992004032212004-07317-039300FM-12+040999999V0200501N002110075019N0200001N1+02561+02291101251ADDAY161061AY211061GF108991081021008001999999KA1240N+02171MA1999999096591MD1999999+0041MW1021REMSYN088AAXX  22124 82784 21598 80504 10256 20229 39659 40125 70261 882// 333 20217 58004 60124;
0167827840999992004032218004-07317-039300FM-12+040999999V0200501N002610075019N0200001N1+03001+02291100851ADDAA106000091GF106991061041008001001001MA1999999096221MD1999999-0021REMSYN070AAXX  22184 82784 32598 60505 10300 20229 39622 40085 86400 333 59002;EQDQ01  00002PRCP06
0198827840999992004032300004-07317-039300FM-12+040999999V0201801N000512200019N0020001N1+02531+02491101231ADDAA106000091GF103991031001017501031001KA1240M+03111MA1999999096571MD1999999+0071REMSYN088AAXX  23004 82784 32795 31801 10253 20249 39657 40123 83030 333 10311 29086 55090 58007;EQDQ01  00002PRCP06
0186827840999992004032312004-07317-039300FM-12+040999999V0200501N002110075019N0200001N1+02671+02311101331ADDAA106000091GF106991061021008001001001KA1240N+02371MA1999999096671MD1999999+0081REMSYN076AAXX  23124 82784 32598 60504 10267 20231 39667 40133 86200 333 20237 58008;EQDQ01  00002PRCP06
0167827840999992004032318004-07317-039300FM-12+040999999V0203601N003111050019N0200001N1+02981+02251100911ADDAA106000091GF106991041021008001001091MA1999999096281MD1999999+0061REMSYN070AAXX  23184 82784 32598 63606 10298 20225 39628 40091 84209 333 58006;EQDQ01  00002PRCP06
0208827840999992004032400004-07317-039300FM-12+040999999V0209999C000012200019N0020001N1+02461+02321101151ADDAA106000091GA1001+999999999GF100991001001999999001001KA1240M+03091MA1999999096501MD1999999-0071REMSYN082AAXX  24004 82784 32595 00000 10246 20232 39650 40115 333 10309 29082 55098 59007;EQDQ01  00002PRCP06
0190827840999992004032412004-07317-039300FM-12+040999999V0203601N001510075019N0200001N1+02601+02251101341ADDAY161061AY211061GF108991081021008001999999KA1240N+02181MA1999999096681MD1999999+0011MW1021REMSYN088AAXX  24124 82784 21598 83603 10260 20225 39668 40134 70261 882// 333 20218 58001 60034;
0190827840999992004032512004-07317-039300FM-12+040999999V0200501N003110450019N0200001N1+02641+02161101231ADDAY101061AY201061GF105991031021008001031091KA1240N+02221MA1999999096581MD1999999-0101MW1211REMSYN088AAXX  25124 82784 21598 50506 10264 20216 39658 40123 72100 83239 333 20222 59010 60064;
0148827840999992004032518004-07317-039300FM-12+040999999V0203601N002110450019N0200001N1+03011+01941100941ADDAA106000021GF106991041021008001031001MA1999999096301MD1999999-0041REMSYN070AAXX  25184 82784 32598 63604 10301 20194 39630 40094 84230 333 59004;
0198827840999992004032600004-07317-039300FM-12+040999999V0201801N000510075019N0020001N1+02561+02351101201ADDAA106000091GF106991061041008001001001KA1240M+03121MA1999999096551MD1999999-0051REMSYN088AAXX  26004 82784 32595 61801 10256 20235 39655 40120 86400 333 10312 29076 55090 59005;EQDQ01  00002PRCP06
0167827840999992004032618004-07317-039300FM-12+040999999V0200501N002610075019N0200001N1+02791+02131100901ADDAA106000091GF108991081041008001999999MA1999999096261MD1999999-0041REMSYN070AAXX  26184 82784 32598 80505 10279 20213 39626 40090 884// 333 59004;EQDQ01  00002PRCP06
0198827840999992004032700004-07317-039300FM-12+040999999V0209999C000010075019N0020001N1+02521+02381101011ADDAA106000091GF108991081041008001999999KA1240M+03081MA1999999096371MD1999999-0181REMSYN088AAXX  27004 82784 32595 80000 10252 20238 39637 40101 884// 333 10308 29080 55074 59018;EQDQ01  00002PRCP06
0190827840999992004032712004-07317-039300FM-12+040999999V0200901N001012200019N0200001N1+02651+02141101161ADDAY161061AY211061GF103991031021008001001001KA1240N+02141MA1999999096511MD1999999-0061MW1021REMSYN088AAXX  27124 82784 21598 30902 10265 20214 39651 40116 70261 83200 333 20214 59006 60244;
0167827840999992004032718004-07317-039300FM-12+040999999V0200901N001010075019N0200001N1+02941+02211100911ADDAA106000091GF106991051021008001031001MA1999999096271MD1999999+0011REMSYN070AAXX  27184 82784 32598 60902 10294 20221 39627 40091 85230 333 58001;EQDQ01  00002PRCP06
0208827840999992004032800004-07317-039300FM-12+040999999V0209999C000012200019N0020001N1+02371+02261101091ADDAA106000091GA1001+999999999GF100991001001999999001001KA1240M+03051MA1999999096441MD1999999+0071REMSYN082AAXX  28004 82784 32995 00000 10237 20226 39644 40109 333 10305 29081 55098 58007;EQDQ01  00002PRCP06
0186827840999992004032812004-07317-039300FM-12+040999999V0200901N002610075019N0200001N1+02591+01991101351ADDAA106000091GF105991051001008001021001KA1240N+01941MA1999999096681MD1999999+0171REMSYN076AAXX  28124 82784 32598 50905 10259 20199 39668 40135 85020 333 20194 58017;EQDQ01  00002PRCP06
0167827840999992004032818004-07317-039300FM-12+040999999V0201401N002112200019N0200001N1+02961+01931100981ADDAA106000091GF103991021021008001021001MA1999999096331MD1999999+0061REMSYN070AAXX  28184 82784 32598 31404 10296 20193 39633 40098 82220 333 58006;EQDQ01  00002PRCP06
0209827840999992004032900004-07317-039300FM-12+040999999V0202301N000512200019N0020001N1+02331+02271101141ADDAA106000091GA1001+999999999GF100991001001999999001001KA1240M+03041MD1999999+0041REMSYN082AAXX  29004 82784 32995 02301 10233 20227 33964 40114 333 10304 29079 55106 58004;EQDQ01+039641APOSP Q02  00002PRCP06
0186827840999992004032912004-07317-039300FM-12+040999999V0201401N002112200019N0200001N1+02631+01861101421ADDAA106000091GF104991041001017501021001KA1240N+01941MA1999999096751MD1999999+0071REMSYN076AAXX  29124 82784 32798 41404 10263 20186 39675 40142 84020 333 20194 58007;EQDQ01  00002PRCP06
0167827840999992004032918004-07317-039300FM-12+040999999V0200501N001512200019N0200001N1+02961+02071101091ADDAA106000091GF104991041021008001001001MA1999999096451MD1999999+0121REMSYN070AAXX  29184 82784 32598 40503 10296 20207 39645 40109 84200 333 58012;EQDQ01  00002PRCP06
0198827840999992004033000004-07317-039300FM-12+040999999V0201801N001012200019N0020001N1+02351+02221101381ADDAA106000091GF102991021011008001001001KA1240M+03071MA1999999096711MD1999999+0231REMSYN088AAXX  30004 82784 32595 21802 10235 20222 39671 40138 82100 333 10307 29076 55107 58023;EQDQ01  00002PRCP06
0186827840999992004033012004-07317-039300FM-12+040999999V0201401N000510150019N0200001N1+02581+02191101551ADDAA106000091GF108991081001017501031999KA1240N+02141MA1999999096871MD1999999+0121REMSYN076AAXX  30124 82784 32798 81401 10258 20219 39687 40155 8803/ 333 20214 58012;EQDQ01  00002PRCP06
0167827840999992004033018004-07317-039300FM-12+040999999V0201801N002110075019N0200001N1+03051+02061101301ADDAA106000091GF106991061021008001001001MA1999999096651MD1999999+0201REMSYN070AAXX  30184 82784 32598 61804 10305 20206 39665 40130 86200 333 58020;EQDQ01  00002PRCP06
0198827840999992004033100004-07317-039300FM-12+040999999V0201801N000512200019N0020001N1+02321+02221101491ADDAA106000091GF102991021001017501031001KA1240M+03141MA1999999096811MD1999999+0101REMSYN088AAXX  31004 82784 32795 21801 10232 20222 39681 40149 82030 333 10314 29081 55096 58010;EQDQ01  00002PRCP06
0186827840999992004033112004-07317-039300FM-12+040999999V0200501N001012200019N0200001N1+02671+02161101601ADDAA106000091GF102991011021008001001051KA1240N+02061MA1999999096921MD1999999+0051REMSYN076AAXX  31124 82784 32598 20502 10267 20216 39692 40160 81205 333 20206 58005;EQDQ01  00002PRCP06
0167827840999992004033118004-07317-039300FM-12+040999999V0203601N001512200019N0200001N1+03101+02151101081ADDAA106000091GF103991021021008001031001MA1999999096441MD1999999-0211REMSYN070AAXX  31184 82784 32598 33603 10310 20215 39644 40108 82230 333 59021;EQDQ01  00002PRCP06
0208827840999992004040100004-07317-039300FM-12+040999999V0209999C000012200019N0020001N1+02421+02281101341ADDAA106000091GA1001+999999999GF100991001001999999001001KA1240M+03221MA1999999096681MD1999999-0131REMSYN082AAXX  01004 82784 32995 00000 10242 20228 39668 40134 333 10322 29079 55107 59013;EQDQ01  00002PRCP06
0186827840999992004040112004-07317-039300FM-12+040999999V0200901N001510075019N0200001N1+02711+02191101591ADDAA106000091GF108991081021008001999999KA1240N+02141MA1999999096921MD1999999+0001REMSYN076AAXX  01124 82784 32598 80903 10271 20219 39692 40159 882// 333 20214 58000;EQDQ01  00002PRCP06
0167827840999992004040118004-07317-039300FM-12+040999999V0200501N002110450019N0200001N1+03101+02261101111ADDAA106000091GF107991041021008001031001MA1999999096461MD1999999+0021REMSYN070AAXX  01184 82784 32598 70504 10310 20226 39646 40111 84230 333 58002;EQDQ01  00002PRCP06
0171827840999992004040218004-07317-039300FM-12+040999999V0202701N001510075019N0200001N1+02931+02491101171ADDAY161061AY221061GF106991051021008001031001MA1999999096521MD1999999+0061MW1011REMSYN082AAXX  02184 82784 21598 62703 10293 20249 39652 40117 70162 85230 333 58006 60091;
0208827840999992004040300004-07317-039300FM-12+040999999V0209999C000012200019N0020001N1+02461+02361101381ADDAA106000091GA1001+999999999GF100991001001999999001001KA1240M+03051MA1999999096701MD1999999+0031REMSYN082AAXX  03004 82784 32995 00000 10246 20236 39670 40138 333 10305 29090 55042 58003;EQDQ01  00002PRCP06
0190827840999992004040512004-07317-039300FM-12+040999999V0200501N002610075019N0200001N1+02631+02231101541ADDAY151061AY211061GF106991061021008001001001KA1240N+02301MA1999999096871MD1999999-0121MW1021REMSYN088AAXX  05124 82784 21598 60505 10263 20223 39687 40154 70251 86200 333 20230 59012 69924;
0167827840999992004040518004-07317-039300FM-12+040999999V0200501N002110075019N0200001N1+03111+02141101101ADDAA106000091GF107991051021008001031001MA1999999096461MD1999999-0081REMSYN070AAXX  05184 82784 32598 70504 10311 20214 39646 40110 85230 333 59008;EQDQ01  00002PRCP06
0190827840999992004040612004-07317-039300FM-12+040999999V0203601N001510120019N0200001N1+02491+02321101461ADDAY121061AY221061GF107991071081008001001001KA1240N+02221MA1999999096791MD1999999-0081MW1211REMSYN088AAXX  06124 82784 21598 73603 10249 20232 39679 40146 72122 87800 333 20222 59008 60104;
0148827840999992004040618004-07317-039300FM-12+040999999V0202701N001510075019N0200001N1+02721+02341101031ADDAA106000021GF108991081041008001999999MA1999999096381MD1999999-0081REMSYN070AAXX  06184 82784 32598 82703 10272 20234 39638 40103 884// 333 59008;
0198827840999992004040700004-07317-039300FM-12+040999999V0201801N000510150019N0020001N1+02441+02411101221ADDAA106000091GF106991061001017501021001KA1240M+02921MA1999999096551MD1999999-0111REMSYN088AAXX  07004 82784 32795 61801 10244 20241 39655 40122 86020 333 10292 29092 55023 59011;EQDQ01  00002PRCP06
0186827840999992004040712004-07317-039300FM-12+040999999V0200901N002110075019N0200001N1+02521+02341101431ADDAA106000091GF108991081041008001999999KA1240N+02301MA1999999096761MD1999999-0031REMSYN076AAXX  07124 82784 32598 80904 10252 20234 39676 40143 884// 333 20230 59003;EQDQ01  00002PRCP06
0167827840999992004040718004-07317-039300FM-12+040999999V0203601N002110450019N0200001N1+02911+02431100961ADDAA106000091GF108991031021008001031999MA1999999096331MD1999999-0051REMSYN070AAXX  07184 82784 32598 83604 10291 20243 39633 40096 8323/ 333 59005;EQDQ01  00002PRCP06
0198827840999992004040800004-07317-039300FM-12+040999999V0201801N000512200019N0020001N1+02511+02471101261ADDAA106000091GF102991021001017501021001KA1240M+03081MA1999999096601MD1999999+0051REMSYN088AAXX  08004 82784 32795 21801 10251 20247 39660 40126 82020 333 10308 29090 55040 58005;EQDQ01  00002PRCP06
0190827840999992004040812004-07317-039300FM-12+040999999V0209999C000010450019N0200001N1+02271+02241101511ADDAY111061AY211061GF106991041041008001031001KA1240N+02141MA1999999096831MD1999999+0071MW1921REMSYN088AAXX  08124 82784 21598 60000 10227 20224 39683 40151 79211 84430 333 20214 58007 60334;
0148827840999992004040818004-07317-039300FM-12+040999999V0203601N001510450019N0200001N1+02881+02281101091ADDAA106000021GF106991041021008001031001MA1999999096451MD1999999+0121REMSYN070AAXX  08184 82784 32598 63603 10288 20228 39645 40109 84230 333 58012;
0202827840999992004040900004-07317-039300FM-12+040999999V0202301N002112200019N0020001N1+02281+02251101431ADDAY121061AY221061GF102991021051008001001001KA1240M+03021MA1999999096741MD1999999+0141MW1211REMSYN100AAXX  09004 82784 21595 22304 10228 20225 39674 40143 72122 82500 333 10302 29091 55036 58014 60021;
0190827840999992004040912004-07317-039300FM-12+040999999V0200901N001510075019N0200001N1+02621+02211101521ADDAY161061AY211061GF107991071021008001001001KA1240N+02111MA1999999096841MD1999999+0011MW1021REMSYN088AAXX  09124 82784 21598 70903 10262 20221 39684 40152 70261 87200 333 20211 58001 60014;
0167827840999992004040918004-07317-039300FM-12+040999999V0200901N002110450019N0200001N1+03021+02341101041ADDAA106000091GF105991031021008001031001MA1999999096401MD1999999-0051REMSYN070AAXX  09184 82784 32598 50904 10302 20234 39640 40104 83230 333 59005;EQDQ01  00002PRCP06
0198827840999992004041000004-07317-039300FM-12+040999999V0201801N000512200019N0020001N1+02491+02391101251ADDAA106000091GF103991031031008001001001KA1240M+03111MA1999999096591MD1999999-0151REMSYN088AAXX  10004 82784 32595 31801 10249 20239 39659 40125 83300 333 10311 29084 55096 59015;EQDQ01  00002PRCP06
0190827840999992004041012004-07317-039300FM-12+040999999V0200901N001510450019N0200001N1+02601+02141101271ADDAY111061AY211061GF105991041021008001021001KA1240N+02211MA1999999096611MD1999999-0231MW1211REMSYN088AAXX  10124 82784 21598 50903 10260 20214 39661 40127 72111 84220 333 20221 59023 60034;
0148827840999992004041018004-07317-039300FM-12+040999999V0200501N002112200019N0200001N1+03071+02111100721ADDAA106000021GF102991011021008001021001MA1999999096101MD1999999-0301REMSYN070AAXX  10184 82784 32598 20504 10307 20211 39610 40072 81220 333 59030;
0208827840999992004041100004-07317-039300FM-12+040999999V0203601N000512200019N0020001N1+02491+02391100921ADDAA106000091GA1001+999999999GF100991001001999999001001KA1240M+03171MA1999999096281MD1999999-0311REMSYN082AAXX  11004 82784 32995 03601 10249 20239 39628 40092 333 10317 29081 55103 59031;EQDQ01  00002PRCP06
0186827840999992004041112004-07317-039300FM-12+040999999V0200501N001010075019N0020001N1+02561+02251101071ADDAA106000091GF108991081021008001999999KA1240N+02181MA1999999096421MD1999999+0191REMSYN076AAXX  11124 82784 32595 80502 10256 20225 39642 40107 882// 333 20218 58019;EQDQ01  00002PRCP06
0167827840999992004041118004-07317-039300FM-12+040999999V0200501N003112200019N0200001N1+03061+02171100661ADDAA106000091GF103991031021008001001001MA1999999096041MD1999999-0061REMSYN070AAXX  11184 82784 32598 30506 10306 20217 39604 40066 83200 333 59006;EQDQ01  00002PRCP06
0208827840999992004041200004-07317-039300FM-12+040999999V0209999C000012200019N0020001N1+02401+02331100861ADDAA106000091GA1001+999999999GF100991001001999999001001KA1240M+03151MA1999999096221MD1999999-0061REMSYN082AAXX  12004 82784 32995 00000 10240 20233 39622 40086 333 10315 29084 55083 59006;EQDQ01  00002PRCP06
0190827840999992004041212004-07317-039300FM-12+040999999V0201401N002110075019N0200001N1+02611+02271101151ADDAY111061AY211061GF106991061021008001001001KA1240N+02321MA1999999096491MD1999999+0071MW1211REMSYN088AAXX  12124 82784 21598 61404 10261 20227 39649 40115 72111 86200 333 20232 58007 69994;
0148827840999992004041218004-07317-039300FM-12+040999999V0200501N001010075019N0200001N1+03121+02301100721ADDAA106000021GF106991061021008001001001MA1999999096111MD1999999+0071REMSYN070AAXX  12184 82784 32598 60502 10312 20230 39611 40072 86200 333 58007;
0198827840999992004041300004-07317-039300FM-12+040999999V0202701N001012200019N0020001N1+02551+02471101061ADDAA106000091GF104991041031008001001001KA1240M+03291MA1999999096421MD1999999+0201REMSYN088AAXX  13004 82784 32595 42702 10255 20247 39642 40106 84300 333 10329 29084 55088 58020;EQDQ01  00002PRCP06
0190827840999992004041312004-07317-039300FM-12+040999999V0200901N002110075019N0200001N1+02711+02101101421ADDAY151061AY211061GF105991051021008001001001KA1240N+02221MA1999999096761MD1999999+0271MW1021REMSYN088AAXX  13124 82784 21598 50904 10271 20210 39676 40142 70251 85200 333 20222 58027 69924;
0183827840999992004041318004-07317-039300FM-12+040999999V0200501N003110450019N0500001N1+03091+02201999999ADDAA106000091GF105991041011008001041001MA1999999096371MD1999999+0261REMSYN070AAXX  13184 82784 32599 50506 10309 20220 39637 40046 84140 333 58026;EQDQ01+100463APOSLPQ02  00002PRCP06
0198827840999992004041400004-07317-039300FM-12+040999999V0209999C000012200019N0020001N1+02491+02391101261ADDAA106000091GF101991011021008001001001KA1240M+03211MA1999999096611MD1999999+0191REMSYN088AAXX  14004 82784 32595 10000 10249 20239 39661 40126 81200 333 10321 29080 55087 58019;EQDQ01  00002PRCP06
0190827840999992004041412004-07317-039300FM-12+040999999V0200901N002110075019N0200001N1+02491+02231101491ADDAY111061AY211061GF106991061021008001001001KA1240N+02301MA1999999096821MD1999999+0061MW1201REMSYN088AAXX  14124 82784 21598 60904 10249 20223 39682 40149 72011 86200 333 20230 58006 69914;
0148827840999992004041418004-07317-039300FM-12+040999999V0200501N000512200019N0200001N1+02941+02051100941ADDAA106000021GF104991031011008001051001MA1999999096301MD1999999-0071REMSYN070AAXX  14184 82784 32598 40501 10294 20205 39630 40094 83150 333 59007;
0198827840999992004041500004-07317-039300FM-12+040999999V0202301N001012200019N0020001N1+02421+02261101261ADDAA106000091GF101991011001017501021001KA1240M+03081MA1999999096591MD1999999-0021REMSYN088AAXX  15004 82784 32795 12302 10242 20226 39659 40126 81020 333 10308 29082 55060 59002;EQDQ01  00002PRCP06
0190827840999992004041512004-07317-039300FM-12+040999999V0201401N001010075019N0200001N1+02501+02291101401ADDAY161061AY221061GF108991081051008001999999KA1240N+02101MA1999999096731MD1999999-0091MW1021REMSYN088AAXX  15124 82784 21598 81402 10250 20229 39673 40140 70262 885// 333 20210 59009 60034;
0183827840999992004041518004-07317-039300FM-12+040999999V0201401N001010075019N0200001N1+03001+02271100961ADDAA106000091GF106991999021008001001001MA1999999096321MD1999999+0021REMSYN070AAXX  15184 82784 32598 61402 10300 20227 39632 40096 85200 333 58002;EQDQ01+000052SCOTLCQ02  00002PRCP06
0208827840999992004041600004-07317-039300FM-12+040999999V0209999C000012200019N0020001N1+02361+02241101171ADDAA106000091GA1001+999999999GF100991001001999999001001KA1240M+03151MA1999999096511MD1999999-0081REMSYN082AAXX  16004 82784 32995 00000 10236 20224 39651 40117 333 10315 29085 55084 59008;EQDQ01  00002PRCP06
0186827840999992004041612004-07317-039300FM-12+040999999V0201401N001510075019N0200001N1+02601+02081101511ADDAA106000091GF107991071021008001001001KA1240N+02201MA1999999096841MD1999999+0111REMSYN076AAXX  16124 82784 32598 71403 10260 20208 39684 40151 87200 333 20220 58011;EQDQ01  00002PRCP06
0183827840999992004041618004-07317-039300FM-12+040999999V0201401N001519999999N0200001N1+02991+02321101091ADDAA106000091GF105991999021008001001001MA1999999096451MD1999999+0131REMSYN070AAXX  16184 82784 32598 51403 10299 20232 39645 40109 84200 333 58013;EQDQ01+000042SCOTLCQ02  00002PRCP06
0208827840999992004041700004-07317-039300FM-12+040999999V0200901N001512200019N0020001N1+02481+02011101401ADDAA106000091GA1001+999999999GF100991001001999999001001KA1240M+03121MA1999999096741MD1999999+0231REMSYN082AAXX  17004 82784 32995 00903 10248 20201 39674 40140 333 10312 29070 55098 58023;EQDQ01  00002PRCP06
0186827840999992004041712004-07317-039300FM-12+040999999V0201401N003110075019N0200001N1+02711+02001101591ADDAA106000091GF106991061021008001031001KA1240N+02161MA1999999096921MD1999999+0081REMSYN076AAXX  17124 82784 32598 61406 10271 20200 39692 40159 86230 333 20216 58008;EQDQ01  00002PRCP06
0167827840999992004041718004-07317-039300FM-12+040999999V0201401N001510075019N0200001N1+03041+02151101211ADDAA106000091GF106991061021008001001001MA1999999096561MD1999999+0111REMSYN070AAXX  17184 82784 32598 61403 10304 20215 39656 40121 86200 333 58011;EQDQ01  00002PRCP06
0208827840999992004041800004-07317-039300FM-12+040999999V0209999C000012200019N0020001N1+02321+02271101461ADDAA106000091GA1001+999999999GF100991001001999999001001KA1240M+03141MA1999999096791MD1999999+0051REMSYN082AAXX  18004 82784 32995 00000 10232 20227 39679 40146 333 10314 29080 55104 58005;EQDQ01  00002PRCP06
0186827840999992004041812004-07317-039300FM-12+040999999V0203601N001510075019N0500001N1+02581+02061101671ADDAA106000091GF106991061011008001001001KA1240N+01961MA1999999096981MD1999999+0061REMSYN076AAXX  18124 82784 32599 63603 10258 20206 39698 40167 86100 333 20196 58006;EQDQ01  00002PRCP06
0167827840999992004041818004-07317-039300FM-12+040999999V0201401N002612200019N0200001N1+03051+02121101151ADDAA106000091GF103991031011008001001001MA1999999096501MD1999999-0061REMSYN070AAXX  18184 82784 32598 31405 10305 20212 39650 40115 83100 333 59006;EQDQ01  00002PRCP06
0202827840999992004041912004-07317-039300FM-12+040999999V0201401N001512200019N0200001N1+02681+01991101491ADDAA106000091GF103991999011008001001001KA1240N+02201MA1999999096831MD1999999-0151REMSYN076AAXX  19124 82784 32598 31403 10268 20199 39683 40149 82100 333 20220 59015;EQDQ01+000022SCOTLCQ02  00002PRCP06
0183827840999992004041918004-07317-039300FM-12+040999999V0201401N002112200019N0200001N1+03041+01911101111ADDAA106000091GF103991999011008001001001MA1999999096471MD1999999-0031REMSYN070AAXX  19184 82784 32598 31404 10304 20191 39647 40111 82100 333 59003;EQDQ01+000022SCOTLCQ02  00002PRCP06
0198827840999992004042000004-07317-039300FM-12+040999999V0201801N000512200019N0020001N1+02321+02301101241ADDAA106000091GF101991011001017501021001KA1240M+03151MA1999999096581MD1999999-0281REMSYN088AAXX  20004 82784 32795 11801 10232 20230 39658 40124 81020 333 10315 29074 55107 59028;EQDQ01  00002PRCP06
0186827840999992004042012004-07317-039300FM-12+040999999V0201401N002110450019N0200001N1+02551+01751101501ADDAA106000091GF106991021011008001031001KA1240N+02121MA1999999096821MD1999999-0011REMSYN076AAXX  20124 82784 32598 61404 10255 20175 39682 40150 82130 333 20212 59001;EQDQ01  00002PRCP06
0167827840999992004042018004-07317-039300FM-12+040999999V0200901N000510450019N0200001N1+03061+01931101121ADDAA106000091GF106991021011008001041001MA1999999096481MD1999999+0011REMSYN070AAXX  20184 82784 32598 60901 10306 20193 39648 40112 82140 333 58001;EQDQ01  00002PRCP06
0208827840999992004042100004-07317-039300FM-12+040999999V0201801N001512200019N0020001N1+02331+02181101331ADDAA106000091GA1001+999999999GF100991001001999999001001KA1240M+03281MA1999999096661MD1999999+0081REMSYN082AAXX  21004 82784 32995 01803 10233 20218 39666 40133 333 10328 29074 55079 58008;EQDQ01  00002PRCP06
0186827840999992004042112004-07317-039300FM-12+040999999V0200901N000510150019N0200001N1+02561+02171101431ADDAA106000091GF108991051021017501999999KA1240N+02021MA1999999096751MD1999999-0071REMSYN076AAXX  21124 82784 32798 80901 10256 20217 39675 40143 852// 333 20202 59007;EQDQ01  00002PRCP06
0167827840999992004042118004-07317-039300FM-12+040999999V0200901N002610150019N0200001N1+02941+02061101101ADDAA106000091GF108991081051017501999999MA1999999096441MD1999999-0041REMSYN070AAXX  21184 82784 32798 80905 10294 20206 39644 40110 885// 333 59004;EQDQ01  00002PRCP06
0198827840999992004042200004-07317-039300FM-12+040999999V0201801N001010075019N0020001N1+02591+02351101331ADDAA106000091GF106991061041008001001001KA1240M+03031MA1999999096671MD1999999+0011REMSYN088AAXX  22004 82784 32595 61802 10259 20235 39667 40133 86400 333 10303 29078 55022 58001;EQDQ01  00002PRCP06
0202827840999992004042212004-07317-039300FM-12+040999999V0200901N003119999999N0200001N1+02691+02301101311ADDAA106000091GF105991999021008001001001KA1240N+02261MA1999999096661MD1999999-0091REMSYN076AAXX  22124 82784 32598 50906 10269 20230 39666 40131 83200 333 20226 59009;EQDQ01+000032SCOTLCQ02  00002PRCP06
0183827840999992004042218004-07317-039300FM-12+040999999V0200901N002610075019N0200001N1+03021+02161100931ADDAA106000091GF108991999021008001001001MA1999999096291MD1999999-0151REMSYN070AAXX  22184 82784 32598 80905 10302 20216 39629 40093 85200 333 59015;EQDQ01+000052SCOTLCQ02  00002PRCP06
0198827840999992004042300004-07317-039300FM-12+040999999V0201801N000512200019N0020001N1+02501+02251101161ADDAA106000091GF103991031031008001001001KA1240M+03121MA1999999096511MD1999999-0161REMSYN088AAXX  23004 82784 32595 31801 10250 20225 39651 40116 83300 333 10312 29075 55083 59016;EQDQ01  00002PRCP06
0202827840999992004042312004-07317-039300FM-12+040999999V0201401N003110075019N0200001N1+02521+01981101231ADDAA106000091GF106991999021008001001001KA1240N+02021MA1999999096571MD1999999-0091REMSYN076AAXX  23124 82784 32598 61406 10252 20198 39657 40123 85200 333 20202 59009;EQDQ01+000052SCOTLCQ02  00002PRCP06
0183827840999992004042318004-07317-039300FM-12+040999999V0200901N002119999999N0200001N1+03001+02001100821ADDAA106000091GF106991999021008001001001MA1999999096191MD1999999-0101REMSYN070AAXX  23184 82784 32598 60904 10300 20200 39619 40082 83200 333 59010;EQDQ01+000032SCOTLCQ02  00002PRCP06
0208827840999992004042400004-07317-039300FM-12+040999999V0201801N001512200019N0020001N1+02311+02031101061ADDAA106000091GA1001+999999999GF100991001001999999001001KA1240M+03161MA1999999096401MD1999999-0111REMSYN082AAXX  24004 82784 32995 01803 10231 20203 39640 40106 333 10316 29074 55103 59011;EQDQ01  00002PRCP06
0186827840999992004042412004-07317-039300FM-12+040999999V0200501N000510042019N0200001N1+02461+02181101181ADDAA106000091GF108991081051004501999999KA1240N+02121MA1999999096511MD1999999-0061REMSYN076AAXX  24124 82784 32498 80501 10246 20218 39651 40118 885// 333 20212 59006;EQDQ01  00002PRCP06
0167827840999992004042418004-07317-039300FM-12+040999999V0200501N002110450019N0200001N1+02941+02211100821ADDAA106000091GF108991031011008001041011MA1999999096611MD1999999-0011REMSYN070AAXX  24184 82784 32598 80504 10294 20221 39661 40082 83141 333 59001;EQDQ01  00002PRCP06
0208827840999992004042500004-07317-039300FM-12+040999999V0200901N000512200019N0020001N1+02381+02311101101ADDAA106000091GA1001+999999999GF100991001001999999001001KA1240M+03091MA1999999096441MD1999999+0041REMSYN082AAXX  25004 82784 32995 00901 10238 20231 39644 40110 333 10309 29086 55056 58004;EQDQ01  00002PRCP06
0190827840999992004042512004-07317-039300FM-12+040999999V0200501N001510042019N0200001N1+02481+02291101191ADDAY161061AY221061GF108991081051004501999999KA1240N+02211MA1999999096531MD1999999+0021MW1021REMSYN088AAXX  25124 82784 21498 80503 10248 20229 39653 40119 70262 885// 333 20221 58002 60094;
0167827840999992004042518004-07317-039300FM-12+040999999V0200901N002612200019N0500001N1+03061+02271100931ADDAA106000091GF106991041011008001001011MA1999999096301MD1999999+0121REMSYN070AAXX  25184 82784 32599 60905 10306 20227 39630 40093 84101 333 58012;EQDQ01  00002PRCP06
0226827840999992004042600004-07317-039300FM-12+040999999V0209999C000012200019N0020001N1+02401+02371101191ADDAA106000091AY111061AY211061GF102991021011008001001001KA1240M+03781MA1999999096521MD1999999+0081MW1131REMSYN094AAXX  26004 82784 31595 20000 10240 20237 39652 40119 71311 82100 333 10378 29087 55047 58008;EQDQ01  00002PRCP06
0190827840999992004042612004-07317-039300FM-12+040999999V0203601N000510075019N0200001N1+02361+02241101511ADDAY111061AY211061GF106991061041008001001001KA1240N+02161MA1999999096831MD1999999+0301MW1211REMSYN088AAXX  26124 82784 21598 63601 10236 20224 39683 40151 72111 86400 333 20216 58030 60304;
0190827840999992004042618004-07317-039300FM-12+040999999V0200501N000519999999N0200001N1+02941+02311100971ADDAY151061AY221061GF106991999021008001001001MA1999999096341MD1999999+0021MW1021REMSYN082AAXX  26184 82784 21598 60501 10294 20231 39634 40097 70252 84200 333 58002 69911;EQDQ01+000042SCOTLC
0198827840999992004042700004-07317-039300FM-12+040999999V0209999C000010075019N0020001N1+02521+02401101391ADDAA106000091GF107991071041008001001001KA1240M+03071MA1999999096721MD1999999+0201REMSYN088AAXX  27004 82784 32595 70000 10252 20240 39672 40139 87400 333 10307 29087 55051 58020;EQDQ01  00002PRCP06
0190827840999992004042712004-07317-039300FM-12+040999999V0203601N000510075019N0200001N1+02501+02291100161ADDAY161061AY221061GF108991081051008001999999KA1240N+02201MA1999999096921MD1999999+0091MW1021REMSYN088AAXX  27124 82784 21598 83601 10250 20229 39692 40016 70262 885// 333 20220 58009 60014;
0183827840999992004042718004-07317-039300FM-12+040999999V0200901N002110075019N0200001N1+02991+02291101172ADDAA106000091GF106991051021008001031001MA1999999096521MD1999999+0201REMSYN070AAXX  27184 82784 32598 60904 10299 20229 39652 40117 85230 333 58020;EQDQ01+101173APOSLPQ02  00002PRCP06
0208827840999992004042800004-07317-039300FM-12+040999999V0209999C000012200019N0020001N1+02461+02331101541ADDAA106000091GA1001+999999999GF100991001001999999001001KA1240M+03081MA1999999096861MD1999999+0141REMSYN082AAXX  28004 82784 32995 00000 10246 20233 39686 40154 333 10308 29086 55088 58014;EQDQ01  00002PRCP06
0190827840999992004042812004-07317-039300FM-12+040999999V0203601N001010075019N0200001N1+02601+02231101651ADDAY151061AY211061GF107991071021008001001001KA1240N+02181MA1999999096971MD1999999+0051MW1021REMSYN088AAXX  28124 82784 21598 73602 10260 20223 39697 40165 70251 87200 333 20218 58005 69964;
0183827840999992004042818004-07317-039300FM-12+040999999V0200501N002619999999N0200001N1+03071+02141101211ADDAA106000091GF106991999021008001001001MA1999999096561MD1999999+0041REMSYN070AAXX  28184 82784 32598 60505 10307 20214 39656 40121 83200 333 58004;EQDQ01+000032SCOTLCQ02  00002PRCP06
0198827840999992004042900004-07317-039300FM-12+040999999V0201801N001510150019N0020001N1+02501+02381101511ADDAA106000091GF105991051001017501021001KA1240M+03171MA1999999096841MD1999999-0021REMSYN088AAXX  29004 82784 32795 51803 10250 20238 39684 40151 85020 333 10317 29081 55094 59002;EQDQ01  00002PRCP06
0202827840999992004042912004-07317-039300FM-12+040999999V0200901N001010075019N0200001N1+02611+02171101581ADDAA106000091GF106991999021008001001001KA1240N+02141MA1999999096911MD1999999-0061REMSYN076AAXX  29124 82784 32598 60902 10261 20217 39691 40158 85200 333 20214 59006;EQDQ01+000052SCOTLCQ02  00002PRCP06
0167827840999992004042918004-07317-039300FM-12+040999999V0200901N001512200019N0200001N1+03021+02021101041ADDAA106000091GF103991031021008001001001MA1999999096391MD1999999-0171REMSYN070AAXX  29184 82784 32598 30903 10302 20202 39639 40104 83200 333 59017;EQDQ01  00002PRCP06
0198827840999992004043000004-07317-039300FM-12+040999999V0209999C000010075019N0020001N1+02441+02301101361ADDAA106000091GF106991061041008001001001KA1240M+03131MA1999999096691MD1999999-0151REMSYN088AAXX  30004 82784 32595 60000 10244 20230 39669 40136 86400 333 10313 29079 55096 59015;EQDQ01  00002PRCP06
0186827840999992004043012004-07317-039300FM-12+040999999V0200501N002612200019N0200001N1+02541+01931101461ADDAA106000091GF108991011011008001001011KA1240N+01921MA1999999096791MD1999999-0121REMSYN076AAXX  30124 82784 32598 80505 10254 20193 39679 40146 81101 333 20192 59012;EQDQ01  00002PRCP06
0167827840999992004043018004-07317-039300FM-12+040999999V0201401N002112200019N0200001N1+02971+01951100971ADDAA106000091GF108991031011008001001011MA1999999096331MD1999999-0061REMSYN070AAXX  30184 82784 32598 81404 10297 20195 39633 40097 83101 333 59006;EQDQ01  00002PRCP06
0198827840999992004050100004-07317-039300FM-12+040999999V0209999C000010075019N0020001N1+02321+02251101311ADDAA106000091GF105991051021008001001001KA1240M+03091MA1999999096641MD1999999-0051REMSYN088AAXX  01004 82784 32595 50000 10232 20225 39664 40131 85200 333 10309 29079 55107 59005;EQDQ01  00002PRCP06
0190827840999992004050112004-07317-039300FM-12+040999999V0200901N002612200019N0200001N1+02521+02111101461ADDAY151061AY211061GF103991031011008001001001KA1240N+02191MA1999999096781MD1999999-0011MW1021REMSYN088AAXX  01124 82784 21598 30905 10252 20211 39678 40146 70251 83100 333 20219 59001 69994;
0167827840999992004050118004-07317-039300FM-12+040999999V0201401N001512200019N0200001N1+02941+02001100911ADDAA106000091GF103991031011008001001001MA1999999096311MD1999999-0021REMSYN070AAXX  01184 82784 32598 31403 10294 20200 39631 40091 83100 333 59002;EQDQ01  00002PRCP06
0208827840999992004050200004-07317-039300FM-12+040999999V0201801N000512200019N0020001N1+02251+02051101251ADDAA106000091GA1001+999999999GF100991001001999999001001KA1240M+03051MA1999999096581MD1999999-0061REMSYN082AAXX  02004 82784 32995 01801 10225 20205 39658 40125 333 10305 29078 55099 59006;EQDQ01  00002PRCP06
0186827840999992004050212004-07317-039300FM-12+040999999V0200901N001512200019N0200001N1+02481+01941101471ADDAA106000091GF101991011011008001001001KA1240N+02301MA1999999096781MD1999999+0001REMSYN076AAXX  02124 82784 32598 10903 10248 20194 39678 40147 81100 333 20230 58000;EQDQ01  00002PRCP06
0167827840999992004050218004-07317-039300FM-12+040999999V0200901N002112200019N0200001N1+02981+01921101121ADDAA106000091GF102991021011008001001001MA1999999096461MD1999999+0151REMSYN070AAXX  02184 82784 32598 20904 10298 20192 39646 40112 82100 333 58015;EQDQ01  00002PRCP06
0198827840999992004050300004-07317-039300FM-12+040999999V0200901N000510120019N0020001N1+02291+02161101261ADDAA106000091GF106991061001012501021001KA1240M+03071MA1999999096591MD1999999+0011REMSYN088AAXX  03004 82784 32695 60901 10229 20216 39659 40126 86020 333 10307 29078 55105 58001;EQDQ01  00002PRCP06
0186827840999992004050312004-07317-039300FM-12+040999999V0201401N003110450019N0200001N1+02561+01851101561ADDAA106000091GF105991031021008001021001KA1240N+02171MA1999999096871MD1999999+0091REMSYN076AAXX  03124 82784 32598 51406 10256 20185 39687 40156 83220 333 20217 58009;EQDQ01  00002PRCP06
0183827840999992004050318004-07317-039300FM-12+040999999V0201801N003119999999N0200001N1+02821+01891101201ADDAA106000091GF107991999001012501041001MA1999999096521MD1999999+0061REMSYN070AAXX  03184 82784 32698 71806 10282 20189 39652 40120 86040 333 58006;EQDQ01+000062SCOTLCQ02  00002PRCP06
0198827840999992004050400004-07317-039300FM-12+040999999V0201801N000510150019N0020001N1+02231+01991101341ADDAA106000091GF106991061001017501071001KA1240M+02911MA1999999096661MD1999999+0071REMSYN088AAXX  04004 82784 32795 61801 10223 20199 39666 40134 86070 333 10291 29074 55048 58007;EQDQ01  00002PRCP06
0186827840999992004050412004-07317-039300FM-12+040999999V0201801N002619999999N0200001N1+02281+01881101511ADDAA106000091GF106991061001012501041001KA1240N+02131MA1999999096811MD1999999-0061REMSYN076AAXX  04124 82784 32698 61805 10228 20188 39681 40151 86040 333 20213 59006;EQDQ01  00002PRCP06
0198827840999992004050500004-07317-039300FM-12+040999999V0200901N000510120019N0020001N1+02521+02171101381ADDAA106000091GF106991061081008001001001KA1240M+03091MA1999999096701MD1999999+0041REMSYN088AAXX  05004 82784 32595 60901 10252 20217 39670 40138 86800 333 10309 29072 55081 58004;EQDQ01  00002PRCP06
0186827840999992004050512004-07317-039300FM-12+040999999V0201401N001510075019N0200001N1+02571+02061101551ADDAA106000091GF107991071021008001001001KA1240N+02141MA1999999096881MD1999999+0071REMSYN076AAXX  05124 82784 32598 71403 10257 20206 39688 40155 87200 333 20214 58007;EQDQ01  00002PRCP06
0167827840999992004050518004-07317-039300FM-12+040999999V0200501N001519999999N0200001N1+02901+02121101321ADDAA106000091GF108991071999008001999999MA1999999096661MD1999999+0211REMSYN070AAXX  05184 82784 32598 80503 10290 20212 39666 40132 87/// 333 58021;EQDQ01  00002PRCP06
0198827840999992004050600004-07317-039300FM-12+040999999V0202701N000511050019N0020001N1+02441+02321101451ADDAA106000091GF106991031001017501031081KA1240M+03051MA1999999096711MD1999999+0081REMSYN088AAXX  06004 82784 32795 62701 10244 20232 39671 40145 83038 333 10305 29080 55033 58008;EQDQ01  00002PRCP06
0202827840999992004050612004-07317-039300FM-12+040999999V0203201N000510150019N0200001N1+02501+02091101661ADDAA106000091GF107991999021017501001001KA1240N+02291MA1999999096971MD1999999+0091REMSYN076AAXX  06124 82784 32798 73201 10250 20209 39697 40166 86200 333 20229 58009;EQDQ01+000062SCOTLCQ02  00002PRCP06
0167827840999992004050618004-07317-039300FM-12+040999999V0200901N001510075019N0200001N1+03121+01921101171ADDAA106000091GF106991061021008001001001MA1999999096531MD1999999-0131REMSYN070AAXX  06184 82784 32598 60903 10312 20192 39653 40117 86200 333 59013;EQDQ01  00002PRCP06
0198827840999992004050700004-07317-039300FM-12+040999999V0209999C000010075019N0020001N1+02491+02251101431ADDAA106000091GF106991061051008001001001KA1240M+03241MA1999999096761MD1999999-0021REMSYN088AAXX  07004 82784 32595 60000 10249 20225 39676 40143 86500 333 10324 29075 55040 59002;EQDQ01  00002PRCP06
0186827840999992004050712004-07317-039300FM-12+040999999V0200901N002610075019N0200001N1+02721+02121101601ADDAA106000091GF106991061021008001001001KA1240N+02221MA1999999096931MD1999999-0071REMSYN076AAXX  07124 82784 32598 60905 10272 20212 39693 40160 86200 333 20222 59007;EQDQ01  00002PRCP06
0167827840999992004050718004-07317-039300FM-12+040999999V0203601N002110075019N0200001N1+03041+02231101201ADDAA106000091GF106991061041008001001001MA1999999096551MD1999999+0021REMSYN070AAXX  07184 82784 32598 63604 10304 20223 39655 40120 86400 333 58002;EQDQ01  00002PRCP06
0198827840999992004050800004-07317-039300FM-12+040999999V0201801N000512200019N0020001N1+02461+02391101421ADDAA106000091GF104991041021008001001001KA1240M+03191MA1999999096761MD1999999+0001REMSYN088AAXX  08004 82784 32595 41801 10246 20239 39676 40142 84200 333 10319 29081 55087 58000;EQDQ01  00002PRCP06
0190827840999992004050812004-07317-039300FM-12+040999999V0201801N001010075019N0200001N1+02661+02111101551ADDAY161061AY211061GF106991061021008001001001KA1240N+02241MA1999999096881MD1999999-0051MW1021REMSYN088AAXX  08124 82784 21598 61802 10266 20211 39688 40155 70261 86200 333 20224 59005 60124;
0214827840999992004050900004-07317-039300FM-12+040999999V0200501N000512200019N0020001N1+02491+02271101391ADDAA106000091GF101991999011008001001001KA1240M+03191MA1999999096731MD1999999-0031REMSYN088AAXX  09004 82784 32595 10501 10249 20227 39673 40139 82100 333 10319 29077 55101 59003;EQDQ01+000022SCOTLCQ02  00002PRCP06
0190827840999992004050912004-07317-039300FM-12+040999999V0202701N002110075019N0200001N1+02301+02251101561ADDAY161061AY211061GF108991081071008001999999KA1240N+02111MA1999999096871MD1999999-0011MW1021REMSYN088AAXX  09124 82784 21598 82704 10230 20225 39687 40156 70261 887// 333 20211 59001 60104;
0167827840999992004050918004-07317-039300FM-12+040999999V0200501N001512200019N0200001N1+02901+02251101061ADDAA106000091GF102991011021008001031001MA1999999096411MD1999999+0141REMSYN070AAXX  09184 82784 32598 20503 10290 20225 39641 40106 81230 333 58014;EQDQ01  00002PRCP06
0198827840999992004051000004-07317-039300FM-12+040999999V0209999C000012200019N0200001N1+02401+02311101321ADDAA106000091GF104991041041008001001001KA1240M+03011MA1999999096641MD1999999-0091REMSYN088AAXX  10004 82784 32598 40000 10240 20231 39664 40132 84400 333 10301 29089 55031 59009;EQDQ01  00002PRCP06
0190827840999992004051012004-07317-039300FM-12+040999999V0200901N001510075019N0200001N1+02221+02191101641ADDAY121061AY221061GF108991081091008001999999KA1240N+02171MA1999999096941MD1999999+0071MW1601REMSYN088AAXX  10124 82784 21598 80903 10222 20219 39694 40164 76022 889// 333 20217 58007 60524;
0190827840999992004051018004-07317-039300FM-12+040999999V0202701N001019999999N0200001N1+02681+02261101181ADDAY161061AY221061GF108991999021008001001001MA1999999096521MD1999999+0111MW1021REMSYN082AAXX  10184 82784 21598 82702 10268 20226 39652 40118 70262 83200 333 58011 60131;EQDQ01+000032SCOTLC
0198827840999992004051100004-07317-039300FM-12+040999999V0209999C000012200019N0020001N1+02441+02391101391ADDAA106000091GF102991021041008001001001KA1240M+02781MA1999999096711MD1999999+0071REMSYN088AAXX  11004 82784 32595 20000 10244 20239 39671 40139 82400 333 10278 29092 55003 58007;EQDQ01  00002PRCP06
0190827840999992004051112004-07317-039300FM-12+040999999V0202701N001010075019N0200001N1+02371+02311101581ADDAY161061AY211061GF108991081071008001999999KA1240N+02121MA1999999096891MD1999999-0051MW1021REMSYN088AAXX  11124 82784 21598 82702 10237 20231 39689 40158 70261 887// 333 20212 59005 60124;
0167827840999992004051118004-07317-039300FM-12+040999999V0200501N002110075019N0200001N1+02951+02261101131ADDAA106000091GF106991061021008001001001MA1999999096471MD1999999-0051REMSYN070AAXX  11184 82784 32598 60504 10295 20226 39647 40113 86200 333 59005;EQDQ01  00002PRCP06
0208827840999992004051200004-07317-039300FM-12+040999999V0209999C000012200019N0020001N1+02401+02371101361ADDAA106000091GA1001+999999999GF100991001001999999001001KA1240M+03081MA1999999096681MD1999999-0031REMSYN082AAXX  12004 82784 32995 00000 10240 20237 39668 40136 333 10308 29090 55065 59003;EQDQ01  00002PRCP06
0190827840999992004051212004-07317-039300FM-12+040999999V0203201N001010075019N0040001N1+02401+02371101511ADDAY161061AY221061GF108991081051008001999999KA1240N+02181MA1999999096831MD1999999-0061MW1021REMSYN088AAXX  12124 82784 21596 83202 10240 20237 39683 40151 70262 885// 333 20218 59006 60144;
0171827840999992004051218004-07317-039300FM-12+040999999V0202701N002110042019N0200001N1+02801+02421101101ADDAY161061AY221061GF107991051031004501051001MA1999999096451MD1999999-0021MW1021REMSYN082AAXX  12184 82784 21498 72704 10280 20242 39645 40110 70262 85350 333 59002 60051;
0190827840999992004051312004-07317-039300FM-12+040999999V0202301N001510042019N0200001N1+02401+02211101541ADDAY151061AY221061GF107991071021004501001001KA1240N+02221MA1999999096851MD1999999+0021MW1031REMSYN088AAXX  13124 82784 21498 72303 10240 20221 39685 40154 70352 87200 333 20222 58002 60074;
0183827840999992004051318004-07317-039300FM-12+040999999V0203601N002119999999N0200001N1+02901+02121101051ADDAA106000091GF105991999011008001001001MA1999999096401MD1999999-0051REMSYN070AAXX  13184 82784 32598 53604 10290 20212 39640 40105 83100 333 59005;EQDQ01+000032SCOTLCQ02  00002PRCP06
0208827840999992004051400004-07317-039300FM-12+040999999V0209999C000012200019N0020001N1+02151+02041101361ADDAA106000091GA1001+999999999GF100991001001999999001001KA1240M+02981MA1999999096671MD1999999-0091REMSYN082AAXX  14004 82784 32995 00000 10215 20204 39667 40136 333 10298 29084 55083 59009;EQDQ01  00002PRCP06
0167827840999992004051418004-07317-039300FM-12+040999999V0203601N002612200019N0200001N1+02961+02261101501ADDAA106000091GF103991031011008001001001MA1999999096851MD1999999+0451REMSYN070AAXX  14184 82784 32598 33605 10296 20226 39685 40150 83100 333 58045;EQDQ01  00002PRCP06
0202827840999992004051500004-07317-039300FM-12+040999999V0201401N002110075019N0020001N1+02451+02251101281ADDAY121061AY221061GF106991061061008001001001KA1240M+03091MA1999999096611MD1999999-0061MW1601REMSYN100AAXX  15004 82784 21595 61404 10245 20225 39661 40128 76022 86600 333 10309 29082 55088 59006 60021;
0190827840999992004051512004-07317-039300FM-12+040999999V0200901N001512200019N0200001N1+02601+02191101421ADDAY161061AY211061GF102991021021008001001001KA1240N+02141MA1999999096751MD1999999-0011MW1021REMSYN088AAXX  15124 82784 21598 20903 10260 20219 39675 40142 70261 82200 333 20214 59001 60044;
0167827840999992004051518004-07317-039300FM-12+040999999V0200501N002112200019N0200001N1+02931+02141100951ADDAA106000091GF102991021021008001001001MA1999999096311MD1999999-0541REMSYN070AAXX  15184 82784 32598 20504 10293 20214 39631 40095 82200 333 59054;EQDQ01  00002PRCP06
0214827840999992004051600004-07317-039300FM-12+040999999V0201801N001012200019N0020001N1+02361+02311101161ADDAA106000091GF102991999021008001001001KA1240M+03041MA1999999096531MD1999999-0081REMSYN088AAXX  16004 82784 32595 21802 10236 20231 39653 40116 83200 333 10304 29084 55102 59008;EQDQ01+000032SCOTLCQ02  00002PRCP06
0186827840999992004051612004-07317-039300FM-12+040999999V0200901N001510075019N0200001N1+02611+02081101481ADDAA106000091GF107991071021008001001001KA1240N+02241MA1999999096811MD1999999+0061REMSYN076AAXX  16124 82784 32598 70903 10261 20208 39681 40148 87200 333 20224 58006;EQDQ01  00002PRCP06
0183827840999992004051618004-07317-039300FM-12+040999999V0200901N001019999999N0200001N1+03011+02051100971ADDAA106000091GF105991999021008001001001MA1999999096331MD1999999+0021REMSYN070AAXX  16184 82784 32598 50902 10301 20205 39633 40097 83200 333 58002;EQDQ01+000032SCOTLCQ02  00002PRCP06
0208827840999992004051700004-07317-039300FM-12+040999999V0200901N000512200019N0020001N1+02361+02281101291ADDAA106000091GA1001+999999999GF100991001001999999001001KA1240M+03151MA1999999096631MD1999999+0101REMSYN082AAXX  17004 82784 32995 00901 10236 20228 39663 40129 333 10315 29080 55097 58010;EQDQ01  00002PRCP06
0186827840999992004051712004-07317-039300FM-12+040999999V0203201N001010075019N0200001N1+02421+02211101491ADDAA106000091GF107991071021008001001001KA1240N+02221MA1999999096811MD1999999+0001REMSYN076AAXX  17124 82784 32598 73202 10242 20221 39681 40149 87200 333 20222 58000;EQDQ01  00002PRCP06
0167827840999992004051718004-07317-039300FM-12+040999999V0200501N001010075019N0200001N1+02821+02151101121ADDAA106000091GF108991081051008001999999MA1999999096471MD1999999+0141REMSYN070AAXX  17184 82784 32598 80502 10282 20215 39647 40112 885// 333 58014;EQDQ01  00002PRCP06
0202827840999992004051800004-07317-039300FM-12+040999999V0202701N001012200019N0020001N1+02421+02281101321ADDAY121061AY221061GF102991021041008001001001KA1240M+03001MA1999999096651MD1999999+0021MW1201REMSYN100AAXX  18004 82784 21595 22702 10242 20228 39665 40132 72022 82400 333 10300 29085 55038 58002 69921;
0162827840999992004051812004-07317-039300FM-12+040999999V0201401N001510042019N0200001N1+02461+02001101671ADDGF108991081051004501999999KA1240N+02281MA1999999096981MD1999999+0171REMSYN082AAXX  18124 82784 22498 81403 10246 20200 39698 40167 885// 333 20228 58017 69924;
0167827840999992004051818004-07317-039300FM-12+040999999V0201401N001010450019N0200001N1+02961+01801101211ADDAA106000091GF106991031011008001041001MA1999999096561MD1999999+0091REMSYN070AAXX  18184 82784 32598 61402 10296 20180 39656 40121 83140 333 58009;EQDQ01  00002PRCP06
0198827840999992004051900004-07317-039300FM-12+040999999V0201801N001512200019N0020001N1+02151+01951101521ADDAA106000091GF101991011001017501021001KA1240M+03071MA1999999096831MD1999999+0181REMSYN088AAXX  19004 82784 32795 11803 10215 20195 39683 40152 81020 333 10307 29076 55054 58018;EQDQ01  00002PRCP06
0186827840999992004051912004-07317-039300FM-12+040999999V0201401N002612200019N0200001N1+02561+02121101891ADDAA106000091GF103991031021008001001001KA1240N+01831MA1999999097191MD1999999+0211REMSYN076AAXX  19124 82784 32598 31405 10256 20212 39719 40189 83200 333 20183 58021;EQDQ01  00002PRCP06
0156827840999992004051918004-07317-039300FM-12+040999999V0200501N001512200019N0200001N1+02901+02121101401ADDGF104991999011008001001001MA1999999096691MD1999999+0131REMSYN070AAXX  19184 82784 21598 40503 10290 20212 39669 40140 83100 333 58013;EQDQ01+000032SCOTLC
0202827840999992004052000004-07317-039300FM-12+040999999V0201801N001010042019N0020001N1+02361+02241101681ADDAY121061AY221061GF105991051041004501001001KA1240M+03071MA1999999096991MD1999999+0161MW1211REMSYN100AAXX  20004 82784 21495 51802 10236 20224 39699 40168 72122 85400 333 10307 29081 55103 58016 60021;
0190827840999992004052012004-07317-039300FM-12+040999999V0201401N002610042019N0200001N1+02481+02171101831ADDAY161061AY221061GF108991081051004501999999KA1240N+02181MA1999999097131MD1999999-0061MW1021REMSYN088AAXX  20124 82784 21498 81405 10248 20217 39713 40183 70262 885// 333 20218 59006 60054;
0171827840999992004052018004-07317-039300FM-12+040999999V0201401N003110075019N0200001N1+02641+02141101431ADDAY151061AY221061GF107991071051008001001001MA1999999096751MD1999999+0061MW1021REMSYN082AAXX  20184 82784 21598 71406 10264 20214 39675 40143 70252 87500 333 58006 69991;
0198827840999992004052100004-07317-039300FM-12+040999999V0209999C000010075019N0020001N1+02321+02251101671ADDAA106000091GF108991081061008001999999KA1240M+02721MA1999999096981MD1999999-0011REMSYN088AAXX  21004 82784 32595 80000 10232 20225 39698 40167 886// 333 10272 29087 55000 59001;EQDQ01  00002PRCP06
0181827840999992004052112004-07317-039300FM-12+040999999V0200901N003119999999N0200001N1+02521+01961101701ADDGF105991999021008001001001KA1240N+02081MA1999999097011MD1999999-0121REMSYN082AAXX  21124 82784 22598 50906 10252 20196 39701 40170 84200 333 20208 59012 69994;EQDQ01+000042SCOTLC
0183827840999992004052118004-07317-039300FM-12+040999999V0200901N003112200019N0200001N1+02941+01941101341ADDAA106000091GF103991999011008001001001MA1999999096671MD1999999-0081REMSYN070AAXX  21184 82784 32598 30906 10294 20194 39667 40134 82100 333 59008;EQDQ01+000022SCOTLCQ02  00002PRCP06
0208827840999992004052200004-07317-039300FM-12+040999999V0200901N001512200019N0020001N1+02321+01791101451ADDAA106000091GA1001+999999999GF100991001001999999001001KA1240M+03051MA1999999096771MD1999999-0211REMSYN082AAXX  22004 82784 32995 00903 10232 20179 39677 40145 333 10305 29068 55097 59021;EQDQ01  00002PRCP06
0167827840999992004052218004-07317-039300FM-12+040999999V0201401N002610075019N0200001N1+02901+01901101191ADDAA106000091GF106991061021008001001001MA1999999096531MD1999999-0141REMSYN070AAXX  22184 82784 32598 61405 10290 20190 39653 40119 86200 333 59014;EQDQ01  00002PRCP06
0198827840999992004052300004-07317-039300FM-12+040999999V0201801N001012200019N0020001N1+02201+01941101521ADDAA106000091GF102991021041008001001001KA1240M+03001MA1999999096831MD1999999+0061REMSYN088AAXX  23004 82784 32595 21802 10220 20194 39683 40152 82400 333 10300 29074 55103 58006;EQDQ01  00002PRCP06
0186827840999992004052312004-07317-039300FM-12+040999999V0201401N002110120019N0200001N1+02431+02051101691ADDAA106000091GF108991081081008001999999KA1240N+02161MA1999999096991MD1999999+0111REMSYN076AAXX  23124 82784 32598 81404 10243 20205 39699 40169 888// 333 20216 58011;EQDQ01  00002PRCP06
0167827840999992004052318004-07317-039300FM-12+040999999V0200501N001512200019N0200001N1+02901+01931101441ADDAA106000091GF103991031021008001001001MA1999999096771MD1999999+0241REMSYN070AAXX  23184 82784 32598 30503 10290 20193 39677 40144 83200 333 58024;EQDQ01  00002PRCP06
0208827840999992004052400004-07317-039300FM-12+040999999V0209999C000012200019N0020001N1+02151+02041101701ADDAA106000091GA1001+999999999GF100991001001999999001001KA1240M+03011MA1999999097001MD1999999+0171REMSYN082AAXX  24004 82784 32995 00000 10215 20204 39700 40170 333 10301 29080 55069 58017;EQDQ01  00002PRCP06
0186827840999992004052412004-07317-039300FM-12+040999999V0200901N002112200019N0200001N1+02561+02111101771ADDAA106000091GF104991041021008001001001KA1240N+01871MA1999999097071MD1999999+0081REMSYN076AAXX  24124 82784 32598 40904 10256 20211 39707 40177 84200 333 20187 58008;EQDQ01  00002PRCP06
0183827840999992004052418004-07317-039300FM-12+040999999V0200901N002619999999N0200001N1+02981+02141101291ADDAA106000091GF105991999021008001001001MA1999999096591MD1999999-0181REMSYN070AAXX  24184 82784 32598 50905 10298 20214 39659 40129 86200 333 59018;EQDQ01+000062SCOTLCQ02  00002PRCP06
0198827840999992004052500004-07317-039300FM-12+040999999V0201401N001012200019N0020001N1+02441+02231101591ADDAA106000091GF103991031001017501021001KA1240M+03131MA1999999096911MD1999999-0091REMSYN088AAXX  25004 82784 32795 31402 10244 20223 39691 40159 83020 333 10313 29078 55090 59009;EQDQ01  00002PRCP06
0190827840999992004052512004-07317-039300FM-12+040999999V0201801N000510075019N0200001N1+02161+01921101901ADDAY161061AY221061GF107991071051008001001001KA1240N+02081MA1999999097191MD1999999+0161MW1211REMSYN088AAXX  25124 82784 21598 71801 10216 20192 39719 40190 72162 87500 333 20208 58016 60214;
0148827840999992004052518004-07317-039300FM-12+040999999V0201401N002610075019N0200001N1+02651+02201101291ADDAA106000021GF107991071031008001001001MA1999999096621MD1999999+0031REMSYN070AAXX  25184 82784 32598 71405 10265 20220 39662 40129 87300 333 58003;
0198827840999992004052600004-07317-039300FM-12+040999999V0200501N001512200019N0020001N1+02301+02181101711ADDAA106000091GF104991041041008001001001KA1240M+02891MA1999999097001MD1999999+0091REMSYN088AAXX  26004 82784 32595 40503 10230 20218 39700 40171 84400 333 10289 29087 55061 58009;EQDQ01  00002PRCP06
0186827840999992004052612004-07317-039300FM-12+040999999V0200901N003610075019N0200001N1+02561+02131101681ADDAA106000091GF105991051011008001001001KA1240N+02121MA1999999096991MD1999999-0201REMSYN076AAXX  26124 82784 32598 50907 10256 20213 39699 40168 85100 333 20212 59020;EQDQ01  00002PRCP06
0167827840999992004052618004-07317-039300FM-12+040999999V0200901N001012200019N0200001N1+02961+02181101231ADDAA106000091GF104991041011008001001001MA1999999096571MD1999999-0051REMSYN070AAXX  26184 82784 32598 40902 10296 20218 39657 40123 84100 333 59005;EQDQ01  00002PRCP06
0198827840999992004052700004-07317-039300FM-12+040999999V0209999C000010450019N0020001N1+02371+02281101531ADDAA106000091GF105991031041008001031001KA1240M+03061MA1999999096851MD1999999-0151REMSYN088AAXX  27004 82784 32595 50000 10237 20228 39685 40153 83430 333 10306 29082 55100 59015;EQDQ01  00002PRCP06
0186827840999992004052712004-07317-039300FM-12+040999999V0203601N000510075019N0200001N1+02431+02111101611ADDAA106000091GF108991081041008001999999KA1240N+02061MA1999999096921MD1999999-0071REMSYN076AAXX  27124 82784 32598 83601 10243 20211 39692 40161 884// 333 20206 59007;EQDQ01  00002PRCP06
0167827840999992004052718004-07317-039300FM-12+040999999V0200501N002110075019N0200001N1+02991+02111101171ADDAA106000091GF106991061021008001001001MA1999999096521MD1999999-0051REMSYN070AAXX  27184 82784 32598 60504 10299 20211 39652 40117 86200 333 59005;EQDQ01  00002PRCP06
0198827840999992004052800004-07317-039300FM-12+040999999V0201801N000512200019N0020001N1+02381+02281101551ADDAA106000091GF102991011041008001031001KA1240M+03091MA1999999096861MD1999999+0011REMSYN088AAXX  28004 82784 32595 21801 10238 20228 39686 40155 81430 333 10309 29083 55071 58001;EQDQ01  00002PRCP06
0186827840999992004052812004-07317-039300FM-12+040999999V0203601N001012200019N0200001N1+02531+02021101761ADDAA106000091GF104991041021008001001001KA1240N+01841MA1999999097071MD1999999+0151REMSYN076AAXX  28124 82784 32598 43602 10253 20202 39707 40176 84200 333 20184 58015;EQDQ01  00002PRCP06
0183827840999992004052818004-07317-039300FM-12+040999999V0203601N002119999999N0200001N1+02931+02161101321ADDAA106000091GF105991999021008001001001MA1999999096651MD1999999+0131REMSYN070AAXX  28184 82784 32598 53604 10293 20216 39665 40132 84200 333 58013;EQDQ01+000042SCOTLCQ02  00002PRCP06
0198827840999992004052900004-07317-039300FM-12+040999999V0209999C000010450019N0020001N1+02361+02241101571ADDAA106000091GF106991041021008001021001KA1240M+03021MA1999999096891MD1999999+0031REMSYN088AAXX  29004 82784 32595 60000 10236 20224 39689 40157 84220 333 10302 29080 55105 58003;EQDQ01  00002PRCP06
0186827840999992004052912004-07317-039300FM-12+040999999V0201401N002612200019N0200001N1+02541+01911101881ADDAA106000091GF103991031011008001001001KA1240N+02181MA1999999097181MD1999999+0111REMSYN076AAXX  29124 82784 32598 31405 10254 20191 39718 40188 83100 333 20218 58011;EQDQ01  00002PRCP06
0167827840999992004052918004-07317-039300FM-12+040999999V0200101N003112200019N0200001N1+02921+02011101401ADDAA106000091GF104991041021008001001001MA1999999096741MD1999999+0091REMSYN070AAXX  29184 82784 32598 40106 10292 20201 39674 40140 84200 333 58009;EQDQ01  00002PRCP06
0198827840999992004053000004-07317-039300FM-12+040999999V0201401N002112200019N0020001N1+02461+01941101591ADDAA106000091GF102991021021008001001001KA1240M+03041MA1999999096911MD1999999+0021REMSYN088AAXX  30004 82784 32595 21404 10246 20194 39691 40159 82200 333 10304 29068 55103 58002;EQDQ01  00002PRCP06
0186827840999992004053012004-07317-039300FM-12+040999999V0201401N002110075019N0200001N1+02561+01961101781ADDAA106000091GF106991061021008001001001KA1240N+02221MA1999999097101MD1999999-0081REMSYN076AAXX  30124 82784 32598 61404 10256 20196 39710 40178 86200 333 20222 59008;EQDQ01  00002PRCP06
0167827840999992004053018004-07317-039300FM-12+040999999V0200901N002112200019N0200001N1+02981+01941101271ADDAA106000091GF104991031011008001051001MA1999999096621MD1999999-0121REMSYN070AAXX  30184 82784 32598 40904 10298 20194 39662 40127 83150 333 59012;EQDQ01  00002PRCP06
0198827840999992004053100004-07317-039300FM-12+040999999V0201801N000512200019N0020001N1+02321+02221101491ADDAA106000091GF102991021001017501031001KA1240M+03141MA1999999096811MD1999999+0101REMSYN088AAXX  31004 82784 32795 21801 10232 20222 39681 40149 82030 333 10314 29081 55096 58010;EQDQ01  00002PRCP06
0202827840999992004053112004-07317-039300FM-12+040999999V0201401N001519999999N0200001N1+02561+02021101751ADDAA106000091GF105991999021008001001001KA1240N+01821MA1999999097061MD1999999-0041REMSYN076AAXX  31124 82784 32598 51403 10256 20202 39706 40175 83200 333 20182 59004;EQDQ01+000032SCOTLCQ02  00002PRCP06
0183827840999992004053118004-07317-039300FM-12+040999999V0201801N002610075019N0200001N1+02891+01961101251ADDAA106000091GF106991999021008001001001MA1999999096591MD1999999+0031REMSYN070AAXX  31184 82784 32598 61805 10289 20196 39659 40125 85200 333 58003;EQDQ01+000052SCOTLCQ02  00002PRCP06
0198827840999992004060100004-07317-039300FM-12+040999999V0200901N000512200019N0020001N1+02371+01911101521ADDAA106000091GF101991011021008001001001KA1240M+03001MA1999999096841MD1999999-0041REMSYN088AAXX  01004 82784 32595 10901 10237 20191 39684 40152 81200 333 10300 29070 55090 59004;EQDQ01  00002PRCP06
0202827840999992004060112004-07317-039300FM-12+040999999V0200901N001519999999N0200001N1+02341+01831101721ADDAA106000091GF108991999021008001001001KA1240N+02181MA1999999097021MD1999999-0041REMSYN076AAXX  01124 82784 32598 80903 10234 20183 39702 40172 83200 333 20218 59004;EQDQ01+000032SCOTLCQ02  00002PRCP06
0167827840999992004060118004-07317-039300FM-12+040999999V0202301N000510075019N0200001N1+02741+02261101391ADDAA106000091GF106991061031008001001001MA1999999096721MD1999999+0131REMSYN070AAXX  01184 82784 32598 62301 10274 20226 39672 40139 86300 333 58013;EQDQ01  00002PRCP06
0202827840999992004060200004-07317-039300FM-12+040999999V0201401N003110075019N0020001N1+02301+01791101751ADDAY121061AY221061GF107991071071008001001001KA1240M+02831MA1999999097051MD1999999+0211MW1201REMSYN100AAXX  02004 82784 21595 71406 10230 20179 39705 40175 72022 87700 333 10283 29074 55006 58021 69931;
0181827840999992004060212004-07317-039300FM-12+040999999V0201401N001010210019N0200001N1+02591+01921101741ADDGF107991999021022501001001KA1240N+02041MA1999999097051MD1999999+0031REMSYN082AAXX  02124 82784 22898 71402 10259 20192 39705 40174 85200 333 20204 58003 69934;EQDQ01+000052SCOTLC
0167827840999992004060218004-07317-039300FM-12+040999999V0201801N002110075019N0200001N1+02911+02031101361ADDAA106000091GF105991051011008001001001MA1999999096691MD1999999-0031REMSYN070AAXX  02184 82784 32598 51804 10291 20203 39669 40136 85100 333 59003;EQDQ01  00002PRCP06
0198827840999992004060300004-07317-039300FM-12+040999999V0200901N000510120019N0020001N1+02361+02111101681ADDAA106000091GF106991061081008001001001KA1240M+03011MA1999999096991MD1999999-0061REMSYN088AAXX  03004 82784 32595 60901 10236 20211 39699 40168 86800 333 10301 29075 55075 59006;EQDQ01  00002PRCP06
0186827840999992004060312004-07317-039300FM-12+040999999V0201401N002110075019N0100001N1+02541+01981101781ADDAA106000091GF107991071021008001001001KA1240N+02071MA1999999097091MD1999999+0041REMSYN076AAXX  03124 82784 32597 71404 10254 20198 39709 40178 87200 333 20207 58004;EQDQ01  00002PRCP06
0167827840999992004060318004-07317-039300FM-12+040999999V0201801N002612200019N0200001N1+02861+02091101381ADDAA106000091GF104991041021008001001001MA1999999096711MD1999999+0021REMSYN070AAXX  03184 82784 32598 41805 10286 20209 39671 40138 84200 333 58002;EQDQ01  00002PRCP06
0198827840999992004060400004-07317-039300FM-12+040999999V0201401N001512200019N0020001N1+02371+01971101671ADDAA106000091GF102991011021008001001091KA1240M+03001MA1999999096951MD1999999-0011REMSYN088AAXX  04004 82784 32595 21403 10237 20197 39695 40167 81209 333 10300 29073 55097 59001;EQDQ01  00002PRCP06
0186827840999992004060412004-07317-039300FM-12+040999999V0201401N002112200019N0200001N1+02531+01811101731ADDAA106000091GF103991011011008001031001KA1240N+01851MA1999999097041MD1999999-0051REMSYN076AAXX  04124 82784 32598 31404 10253 20181 39704 40173 81130 333 20185 59005;EQDQ01  00002PRCP06
0167827840999992004060418004-07317-039300FM-12+040999999V0201401N002610450019N0200001N1+02941+01761101301ADDAA106000091GF105991021011008001051001MA1999999096641MD1999999-0071REMSYN070AAXX  04184 82784 32598 51405 10294 20176 39664 40130 82150 333 59007;EQDQ01  00002PRCP06
0208827840999992004060500004-07317-039300FM-12+040999999V0202701N000512200019N0020001N1+02091+01891101581ADDAA106000091GA1001+999999999GF100991001001999999001001KA1240M+03071MA1999999096881MD1999999-0101REMSYN082AAXX  05004 82784 32995 02701 10209 20189 39688 40158 333 10307 29074 55106 59010;EQDQ01  00002PRCP06
0186827840999992004060512004-07317-039300FM-12+040999999V0200501N002112200019N0200001N1+02521+02001101661ADDAA106000091GF103991021021008001021001KA1240N+01641MA1999999096961MD1999999-0081REMSYN076AAXX  05124 82784 32598 30504 10252 20200 39696 40166 82220 333 20164 59008;EQDQ01  00002PRCP06
0167827840999992004060518004-07317-039300FM-12+040999999V0200501N003110450019N0200001N1+02931+02111101261ADDAA106000091GF105991031021008001031051MA1999999096581MD1999999-0061REMSYN070AAXX  05184 82784 32598 50506 10293 20211 39658 40126 83235 333 59006;EQDQ01  00002PRCP06
0198827840999992004060600004-07317-039300FM-12+040999999V0209999C000012200019N0020001N1+02281+02161101551ADDAA106000091GF104991031021008001031001KA1240M+03021MA1999999096861MD1999999-0021REMSYN088AAXX  06004 82784 32595 40000 10228 20216 39686 40155 83230 333 10302 29080 55097 59002;EQDQ01  00002PRCP06
0190827840999992004060612004-07317-039300FM-12+040999999V0200901N003110120019N0200001N1+02401+02111101771ADDAY161061AY211061GF108991061081008001031999KA1240N+02101MA1999999097071MD1999999+0111MW1021REMSYN088AAXX  06124 82784 21598 80906 10240 20211 39707 40177 70261 8683/ 333 20210 58011 60044;
0167827840999992004060618004-07317-039300FM-12+040999999V0200901N001510075019N0200001N1+02881+02051101341ADDAA106000091GF106991051021008001031001MA1999999096681MD1999999+0101REMSYN070AAXX  06184 82784 32598 60903 10288 20205 39668 40134 85230 333 58010;EQDQ01  00002PRCP06
0198827840999992004060700004-07317-039300FM-12+040999999V0201401N003112200019N0020001N1+02361+02071101631ADDAA106000091GF103991031021008001001001KA1240M+03001MA1999999096941MD1999999+0081REMSYN088AAXX  07004 82784 32595 31406 10236 20207 39694 40163 83200 333 10300 29078 55073 58008;EQDQ01  00002PRCP06
0202827840999992004060712004-07317-039300FM-12+040999999V0200901N003112200019N0200001N1+02501+01861101871ADDAA106000091GF103991999021008001001001KA1240N+02101MA1999999097171MD1999999+0101REMSYN076AAXX  07124 82784 32598 30906 10250 20186 39717 40187 86200 333 20210 58010;EQDQ01+000062SCOTLCQ02  00002PRCP06
0167827840999992004060718004-07317-039300FM-12+040999999V0200901N002610075019N0200001N1+02901+01841101481ADDAA106000091GF106991061021008001001001MA1999999096811MD1999999+0131REMSYN070AAXX  07184 82784 32598 60905 10290 20184 39681 40148 86200 333 58013;EQDQ01  00002PRCP06
0208827840999992004060800004-07317-039300FM-12+040999999V0209999C000012200019N0020001N1+02181+01971101631ADDAA106000091GA1001+999999999GF100991001001999999001001KA1240M+03021MA1999999096941MD1999999+0001REMSYN082AAXX  08004 82784 32995 00000 10218 20197 39694 40163 333 10302 29074 55104 58000;EQDQ01  00002PRCP06
0202827840999992004060812004-07317-039300FM-12+040999999V0200901N004112200019N0200001N1+02771+01831101881ADDAA106000091GF102991999021008001001001KA1240N+02281MA1999999097171MD1999999+0001REMSYN076AAXX  08124 82784 32598 20908 10277 20183 39717 40188 86200 333 20228 58000;EQDQ01+000062SCOTLCQ02  00002PRCP06
0167827840999992004060818004-07317-039300FM-12+040999999V0200901N003112200019N0200001N1+02881+01461101461ADDAA106000091GF104991011001008001031051MA1999999096791MD1999999-0021REMSYN070AAXX  08184 82784 32598 40906 10288 20146 39679 40146 81035 333 59002;EQDQ01  00002PRCP06
0198827840999992004060900004-07317-039300FM-12+040999999V0209999C000012200019N0020001N1+02181+01991101791ADDAA106000091GF101991011011008001001001KA1240M+02981MA1999999097081MD1999999+0141REMSYN088AAXX  09004 82784 32595 10000 10218 20199 39708 40179 81100 333 10298 29072 55104 58014;EQDQ01  00002PRCP06
0186827840999992004060912004-07317-039300FM-12+040999999V0200901N003112200019N0200001N1+02501+01871101911ADDAA106000091GF102991021011008001001001KA1240N+02201MA1999999097201MD1999999+0031REMSYN076AAXX  09124 82784 32598 20906 10250 20187 39720 40191 82100 333 20220 58003;EQDQ01  00002PRCP06
0167827840999992004060918004-07317-039300FM-12+040999999V0200901N003110075019N0200001N1+02861+01921101531ADDAA106000091GF106991061021008001001001MA1999999096851MD1999999+0061REMSYN070AAXX  09184 82784 32598 60906 10286 20192 39685 40153 86200 333 58006;EQDQ01  00002PRCP06
0198827840999992004061000004-07317-039300FM-12+040999999V0209999C000012200019N0020001N1+02201+02051101741ADDAA106000091GF102991021021008001001001KA1240M+02941MA1999999097041MD1999999-0041REMSYN088AAXX  10004 82784 32595 20000 10220 20205 39704 40174 82200 333 10294 29077 55099 59004;EQDQ01  00002PRCP06
0186827840999992004061012004-07317-039300FM-12+040999999V0201401N002612200019N0200001N1+02461+01781101891ADDAA106000091GF101991011011008001001001KA1240N+02081MA1999999097181MD1999999-0021REMSYN076AAXX  10124 82784 32598 11405 10246 20178 39718 40189 81100 333 20208 59002;EQDQ01  00002PRCP06
0183827840999992004061018004-07317-039300FM-12+040999999V0201401N003119999999N0200001N1+02941+01761101421ADDAA106000091GF106991999021008001001001MA1999999096751MD1999999-0101REMSYN070AAXX  10184 82784 32598 61406 10294 20176 39675 40142 83200 333 59010;EQDQ01+000032SCOTLCQ02  00002PRCP06
0198827840999992004061100004-07317-039300FM-12+040999999V0201401N002110075019N0020001N1+02421+01951101711ADDAA106000091GF106991061041008001001001KA1240M+03031MA1999999097021MD1999999-0021REMSYN088AAXX  11004 82784 32595 61404 10242 20195 39702 40171 86400 333 10303 29066 55107 59002;EQDQ01  00002PRCP06
0186827840999992004061112004-07317-039300FM-12+040999999V0201801N002612200019N0200001N1+02441+01831101921ADDAA106000091GF102991021011008001001001KA1240N+02051MA1999999097221MD1999999+0041REMSYN076AAXX  11124 82784 32598 21805 10244 20183 39722 40192 82100 333 20205 58004;EQDQ01  00002PRCP06
0167827840999992004061118004-07317-039300FM-12+040999999V0200901N002110075019N0200001N1+02921+01711101551ADDAA106000091GF106991051021008001031001MA1999999096871MD1999999+0121REMSYN070AAXX  11184 82784 32598 60904 10292 20171 39687 40155 85230 333 58012;EQDQ01  00002PRCP06
0208827840999992004061200004-07317-039300FM-12+040999999V0201801N001512200019N0020001N1+02121+01861101831ADDAA106000091GA1001+999999999GF100991001001999999001001KA1240M+03001MA1999999097121MD1999999+0101REMSYN082AAXX  12004 82784 32995 01803 10212 20186 39712 40183 333 10300 29072 55106 58010;EQDQ01  00002PRCP06
0186827840999992004061212004-07317-039300FM-12+040999999V0201401N003110075019N0200001N1+02421+01931102021ADDAA106000091GF105991051021008001001001KA1240N+02041MA1999999097301MD1999999+0081REMSYN076AAXX  12124 82784 32598 51406 10242 20193 39730 40202 85200 333 20204 58008;EQDQ01  00002PRCP06
0167827840999992004061218004-07317-039300FM-12+040999999V0201801N002610075019N0200001N1+02741+01971101681ADDAA106000091GF107991071021008001001001MA1999999096991MD1999999+0121REMSYN070AAXX  12184 82784 32598 71805 10274 20197 39699 40168 87200 333 58012;EQDQ01  00002PRCP06
0198827840999992004061300004-07317-039300FM-12+040999999V0201401N001010075019N0020001N1+02391+01911101911ADDAA106000091GF106991061021008001001001KA1240M+02851MA1999999097211MD1999999+0091REMSYN088AAXX  13004 82784 32595 61402 10239 20191 39721 40191 86200 333 10285 29071 55075 58009;EQDQ01  00002PRCP06
0186827840999992004061312004-07317-039300FM-12+040999999V0201401N001512200019N0200001N1+02481+01851101851ADDAA106000091GF101991011011008001001001KA1240N+01821MA1999999097151MD1999999-0151REMSYN076AAXX  13124 82784 32598 11403 10248 20185 39715 40185 81100 333 20182 59015;EQDQ01  00002PRCP06
0167827840999992004061318004-07317-039300FM-12+040999999V0201801N003112200019N0200001N1+02921+01711101431ADDAA106000091GF104991041011008001001001MA1999999096761MD1999999-0231REMSYN070AAXX  13184 82784 32598 41806 10292 20171 39676 40143 84100 333 59023;EQDQ01  00002PRCP06
0208827840999992004061400004-07317-039300FM-12+040999999V0201401N001512200019N0020001N1+02171+01781101791ADDAA106000091GA1001+999999999GF100991001001999999001001KA1240M+03021MA1999999097081MD1999999-0131REMSYN082AAXX  14004 82784 32995 01403 10217 20178 39708 40179 333 10302 29068 55103 59013;EQDQ01  00002PRCP06
0186827840999992004061412004-07317-039300FM-12+040999999V0201401N002110075019N0200001N1+02411+01951102001ADDAA106000091GF106991061021008001001001KA1240N+02101MA1999999097281MD1999999+0131REMSYN076AAXX  14124 82784 32598 61404 10241 20195 39728 40200 86200 333 20210 58013;EQDQ01  00002PRCP06
0167827840999992004061418004-07317-039300FM-12+040999999V0201801N002110075019N0200001N1+02621+02051101571ADDAA106000091GF106991061021008001001001MA1999999096891MD1999999+0031REMSYN070AAXX  14184 82784 32598 61804 10262 20205 39689 40157 86200 333 58003;EQDQ01  00002PRCP06
0198827840999992004061500004-07317-039300FM-12+040999999V0201401N002112200019N0020001N1+02421+01931101891ADDAA106000091GF104991041001017501021001KA1240M+03021MA1999999097191MD1999999+0111REMSYN088AAXX  15004 82784 32795 41404 10242 20193 39719 40189 84020 333 10302 29074 55043 58011;EQDQ01  00002PRCP06
0202827840999992004061512004-07317-039300FM-12+040999999V0201801N003119999999N0200001N1+02541+01861101901ADDAA106000091GF107991999021008001001001KA1240N+02081MA1999999097211MD1999999-0071REMSYN076AAXX  15124 82784 32598 71806 10254 20186 39721 40190 83200 333 20208 59007;EQDQ01+000032SCOTLCQ02  00002PRCP06
0167827840999992004061518004-07317-039300FM-12+040999999V0200901N003110075019N0200001N1+02901+01871101501ADDAA106000091GF107991071021008001001001MA1999999096831MD1999999+0061REMSYN070AAXX  15184 82784 32598 70906 10290 20187 39683 40150 87200 333 58006;EQDQ01  00002PRCP06
0198827840999992004061600004-07317-039300FM-12+040999999V0200901N000510075019N0020001N1+02261+02121101811ADDAA106000091GF106991061041008001001001KA1240M+03011MA1999999097111MD1999999-0081REMSYN088AAXX  16004 82784 32595 60901 10226 20212 39711 40181 86400 333 10301 29076 55084 59008;EQDQ01  00002PRCP06
0186827840999992004061612004-07317-039300FM-12+040999999V0201401N003110075019N0200001N1+02401+01991101831ADDAA106000091GF107991071021008001001001KA1240N+02001MA1999999097131MD1999999+0081REMSYN076AAXX  16124 82784 32598 71406 10240 20199 39713 40183 87200 333 20200 58008;EQDQ01  00002PRCP06
0167827840999992004061618004-07317-039300FM-12+040999999V0201401N002110075019N0200001N1+02751+01971101381ADDAA106000091GF106991061021008001001001MA1999999096711MD1999999-0121REMSYN070AAXX  16184 82784 32598 61404 10275 20197 39671 40138 86200 333 59012;EQDQ01  00002PRCP06
0198827840999992004061700004-07317-039300FM-12+040999999V0201401N002110075019N0020001N1+02401+02011101731ADDAA106000091GF107991071061008001001001KA1240M+02931MA1999999097041MD1999999-0071REMSYN088AAXX  17004 82784 32595 71404 10240 20201 39704 40173 87600 333 10293 29074 55064 59007;EQDQ01  00002PRCP06
0190827840999992004061712004-07317-039300FM-12+040999999V0201401N002110042019N0200001N1+02421+02051101811ADDAY161061AY221061GF107991071021004501001001KA1240N+02161MA1999999097111MD1999999-0021MW1021REMSYN088AAXX  17124 82784 21498 71404 10242 20205 39711 40181 70262 87200 333 20216 59002 60014;
0167827840999992004061718004-07317-039300FM-12+040999999V0201401N002610075019N0200001N1+02601+02061101421ADDAA106000091GF106991061021008001001001MA1999999096791MD1999999+0081REMSYN070AAXX  17184 82784 32598 61405 10260 20206 39679 40142 86200 333 58008;EQDQ01  00002PRCP06
0198827840999992004061800004-07317-039300FM-12+040999999V0201401N002110075019N0020001N1+02341+01981101791ADDAA106000091GF107991071061008001001001KA1240M+02781MA1999999097091MD1999999+0051REMSYN088AAXX  18004 82784 32595 71404 10234 20198 39709 40179 87600 333 10278 29078 55078 58005;EQDQ01  00002PRCP06
0186827840999992004061812004-07317-039300FM-12+040999999V0201801N003110075019N0200001N1+02401+01861101941ADDAA106000091GF108991081041008001999999KA1240N+02171MA1999999097231MD1999999+0121REMSYN076AAXX  18124 82784 32598 81806 10240 20186 39723 40194 884// 333 20217 58012;EQDQ01  00002PRCP06
0167827840999992004061818004-07317-039300FM-12+040999999V0201801N001510075019N0200001N1+02611+02061101661ADDAA106000091GF108991081071008001999999MA1999999096971MD1999999+0181REMSYN070AAXX  18184 82784 32598 81803 10261 20206 39697 40166 887// 333 58018;EQDQ01  00002PRCP06
0198827840999992004061900004-07317-039300FM-12+040999999V0200901N000510075019N0020001N1+02331+02181101891ADDAA106000091GF108991081061008001999999KA1240M+02811MA1999999097181MD1999999+0091REMSYN088AAXX  19004 82784 32595 80901 10233 20218 39718 40189 886// 333 10281 29082 55022 58009;EQDQ01  00002PRCP06
0190827840999992004061912004-07317-039300FM-12+040999999V0200901N002610075019N0200001N1+02321+01941102071ADDAY101061AY201061GF108991081071008001999999KA1240N+02071MA1999999097351MD1999999+0121MW1211REMSYN088AAXX  19124 82784 21598 80905 10232 20194 39735 40207 72100 887// 333 20207 58012 60024;
0148827840999992004061918004-07317-039300FM-12+040999999V0201801N002110075019N0200001N1+02681+01991101691ADDAA106000021GF108991081041008001999999MA1999999097001MD1999999+0031REMSYN070AAXX  19184 82784 32598 81804 10268 20199 39700 40169 884// 333 58003;
0208827840999992004062000004-07317-039300FM-12+040999999V0201801N002112200019N0020001N1+02261+01861101951ADDAA106000091GA1001+999999999GF100991001001999999001001KA1240M+02821MA1999999097241MD1999999+0061REMSYN082AAXX  20004 82784 32595 01804 10226 20186 39724 40195 333 10282 29075 55018 58006;EQDQ01  00002PRCP06
0186827840999992004062012004-07317-039300FM-12+040999999V0201801N003610120019N0200001N1+02401+01891101931ADDAA106000091GF108991051081008001021999KA1240N+02101MA1999999097221MD1999999-0131REMSYN076AAXX  20124 82784 32598 81807 10240 20189 39722 40193 8582/ 333 20210 59013;EQDQ01  00002PRCP06
0167827840999992004062018004-07317-039300FM-12+040999999V0201801N003112200019N0200001N1+02781+01961101541ADDAA106000091GF102991021021008001001001MA1999999096861MD1999999-0141REMSYN070AAXX  20184 82784 32598 21806 10278 20196 39686 40154 82200 333 59014;EQDQ01  00002PRCP06
0208827840999992004062100004-07317-039300FM-12+040999999V0201801N001012200019N0020001N1+02261+02031101801ADDAA106000091GA1001+999999999GF100991001001999999001001KA1240M+02931MA1999999097101MD1999999-0141REMSYN082AAXX  21004 82784 32995 01802 10226 20203 39710 40180 333 10293 29077 55059 59014;EQDQ01  00002PRCP06
0186827840999992004062112004-07317-039300FM-12+040999999V0201401N003610075019N0200001N1+02351+02011101881ADDAA106000091GF106991051021008001021001KA1240N+02101MA1999999097171MD1999999-0051REMSYN076AAXX  21124 82784 32598 61407 10235 20201 39717 40188 85220 333 20210 59005;EQDQ01  00002PRCP06
0167827840999992004062118004-07317-039300FM-12+040999999V0201401N002110075019N0200001N1+02631+02031101561ADDAA106000091GF107991071071008001001001MA1999999096871MD1999999+0011REMSYN070AAXX  21184 82784 32598 71404 10263 20203 39687 40156 87700 333 58001;EQDQ01  00002PRCP06
0198827840999992004062200004-07317-039300FM-12+040999999V0201401N001510075019N0020001N1+02331+02001101771ADDAA106000091GF105991051051008001001001KA1240M+02851MA1999999097071MD1999999-0031REMSYN088AAXX  22004 82784 32595 51403 10233 20200 39707 40177 85500 333 10285 29078 55038 59003;EQDQ01  00002PRCP06
0202827840999992004062212004-07317-039300FM-12+040999999V0200901N002112200019N0200001N1+02501+01561101901ADDAA106000091GF104991999001017501031001KA1240N+01961MA1999999097201MD1999999+0031REMSYN076AAXX  22124 82784 32798 40904 10250 20156 39720 40190 85030 333 20196 58003;EQDQ01+000052SCOTLCQ02  00002PRCP06
0167827840999992004062218004-07317-039300FM-12+040999999V0201401N002110450019N0200001N1+02901+01691101521ADDAA106000091GF105991041021008001021001MA1999999096851MD1999999-0021REMSYN070AAXX  22184 82784 32598 51404 10290 20169 39685 40152 84220 333 59002;EQDQ01  00002PRCP06
0198827840999992004062300004-07317-039300FM-12+040999999V0209999C000010075019N0020001N1+02441+02111101801ADDAA106000091GF106991061041008001001001KA1240M+03001MA1999999097111MD1999999+0041REMSYN088AAXX  23004 82784 32595 60000 10244 20211 39711 40180 86400 333 10300 29067 55090 58004;EQDQ01  00002PRCP06
0186827840999992004062312004-07317-039300FM-12+040999999V0200901N002612200019N0200001N1+02551+01831101901ADDAA106000091GF103991031021008001001001KA1240N+01921MA1999999097211MD1999999+0011REMSYN076AAXX  23124 82784 32598 30905 10255 20183 39721 40190 83200 333 20192 58001;EQDQ01  00002PRCP06
0186827840999992004062412004-07317-039300FM-12+040999999V0201801N003112200019N0200001N1+02501+01621101791ADDAA106000091GF101991011011008001001001KA1240N+01901MA1999999097101MD1999999-0111REMSYN076AAXX  24124 82784 32598 11806 10250 20162 39710 40179 81100 333 20190 59011;EQDQ01  00002PRCP06
0167827840999992004062418004-07317-039300FM-12+040999999V0201401N002610075019N0200001N1+02971+01591101331ADDAA106000091GF106991061011008001001001MA1999999096661MD1999999-0151REMSYN070AAXX  24184 82784 32598 61405 10297 20159 39666 40133 86100 333 59015;EQDQ01  00002PRCP06
0198827840999992004062500004-07317-039300FM-12+040999999V0209999C000010075019N0020001N1+02391+02051101681ADDAA106000091GF106991061021008001001001KA1240M+03071MA1999999096991MD1999999-0101REMSYN088AAXX  25004 82784 32595 60000 10239 20205 39699 40168 86200 333 10307 29066 55108 59010;EQDQ01  00002PRCP06
0186827840999992004062512004-07317-039300FM-12+040999999V0201801N002612200019N0200001N1+02521+01961101691ADDAA106000091GF104991041011008001001001KA1240N+01851MA1999999097001MD1999999-0101REMSYN076AAXX  25124 82784 32598 41805 10252 20196 39700 40169 84100 333 20185 59010;EQDQ01  00002PRCP06
0167827840999992004062518004-07317-039300FM-12+040999999V0201401N002110075019N0200001N1+02951+01931101341ADDAA106000091GF106991061021008001001001MA1999999096681MD1999999+0021REMSYN070AAXX  25184 82784 32598 61404 10295 20193 39668 40134 86200 333 58002;EQDQ01  00002PRCP06
0214827840999992004062600004-07317-039300FM-12+040999999V0201401N005110006019N0010001N1+02901+01941101581ADDAA106000091GA1091+999999999GF109991091999999999999999KA1240M+03081MA1999999098902MD1999999-0091REMSYN088AAXX  26004 82784 32994 91410 10290 20194 39890 40158 86200 333 10308 29074 55101 59009;EQDQ01  00002PRCP06
0186827840999992004062612004-07317-039300FM-12+040999999V0201801N002610042019N0200001N1+02421+01881101711ADDAA106000091GF108991081051004501999999KA1240N+02141MA1999999097011MD1999999+0011REMSYN076AAXX  26124 82784 32498 81805 10242 20188 39701 40171 885// 333 20214 58001;EQDQ01  00002PRCP06
0167827840999992004062618004-07317-039300FM-12+040999999V0201801N004110075019N0500001N1+02691+01941101471ADDAA106000091GF108991081051008001999999MA1999999096791MD1999999+0111REMSYN070AAXX  26184 82784 32599 81808 10269 20194 39679 40147 885// 333 58011;EQDQ01  00002PRCP06
0214827840999992004062700004-07317-039300FM-12+040999999V0201401N001519999999N0020001N1+02351+01891101661ADDAA106000091GF107991999021008001001001KA1240M+02801MA1999999096971MD1999999+0071REMSYN088AAXX  27004 82784 32595 71403 10235 20189 39697 40166 84200 333 10280 29071 55007 58007;EQDQ01+000042SCOTLCQ02  00002PRCP06
0186827840999992004062712004-07317-039300FM-12+040999999V0201401N003110450019N0200001N1+02471+01851101751ADDAA106000091GF106991041011008001051001KA1240N+02081MA1999999097051MD1999999+0041REMSYN076AAXX  27124 82784 32598 61406 10247 20185 39705 40175 84150 333 20208 58004;EQDQ01  00002PRCP06
0167827840999992004062718004-07317-039300FM-12+040999999V0201801N002110075019N0200001N1+02811+01871101311ADDAA106000091GF107991071021008001001001MA1999999096651MD1999999-0141REMSYN070AAXX  27184 82784 32598 71804 10281 20187 39665 40131 87200 333 59014;EQDQ01  00002PRCP06
0198827840999992004062800004-07317-039300FM-12+040999999V0201401N003610120019N0020001N1+02461+01851101581ADDAA106000091GF106991061081008001001001KA1240M+03001MA1999999096901MD1999999-0071REMSYN088AAXX  28004 82784 32595 61407 10246 20185 39690 40158 86800 333 10300 29065 55055 59007;EQDQ01  00002PRCP06
0186827840999992004062812004-07317-039300FM-12+040999999V0201801N002112200019N0200001N1+02461+01711101701ADDAA106000091GF103991021021008001031001KA1240N+02001MA1999999097011MD1999999-0041REMSYN076AAXX  28124 82784 32598 31804 10246 20171 39701 40170 82230 333 20200 59004;EQDQ01  00002PRCP06
0167827840999992004062818004-07317-039300FM-12+040999999V0201401N002110075019N0200001N1+03001+01531101311ADDAA106000091GF105991051011008001001001MA1999999096651MD1999999+0001REMSYN070AAXX  28184 82784 32598 51404 10300 20153 39665 40131 85100 333 58000;EQDQ01  00002PRCP06
0198827840999992004062900004-07317-039300FM-12+040999999V0201401N001510075019N0020001N1+02421+01931101491ADDAA106000091GF106991061021008001001001KA1240M+03151MA1999999096811MD1999999+0011REMSYN088AAXX  29004 82784 32595 61403 10242 20193 39681 40149 86200 333 10315 29063 55099 58001;EQDQ01  00002PRCP06
0186827840999992004062912004-07317-039300FM-12+040999999V0201401N002610450019N0200001N1+02421+01791101871ADDAA106000091GF108991041011008001041001KA1240N+02051MA1999999097171MD1999999+0161REMSYN076AAXX  29124 82784 32598 81405 10242 20179 39717 40187 84140 333 20205 58016;EQDQ01  00002PRCP06
0183827840999992004062918004-07317-039300FM-12+040999999V0201401N003112200019N0200001N1+02841+01851101371ADDAA106000091GF103991999051008001001001MA1999999096721MD1999999+0071REMSYN070AAXX  29184 82784 32598 31406 10284 20185 39672 40137 87500 333 58007;EQDQ01+000072SCOTLCQ02  00002PRCP06
0198827840999992004063000004-07317-039300FM-12+040999999V0201801N002612200019N0020001N1+02471+01811101581ADDAA106000091GF102991021001017501021001KA1240M+03011MA1999999096901MD1999999+0091REMSYN088AAXX  30004 82784 32795 21805 10247 20181 39690 40158 82020 333 10301 29026 55069 58009;EQDQ01  00002PRCP06
0186827840999992004063012004-07317-039300FM-12+040999999V0200901N003110075019N0200001N1+02411+01951101731ADDAA106000091GF108991081021008001999999KA1240N+02061MA1999999097041MD1999999-0131REMSYN076AAXX  30124 82784 32598 80906 10241 20195 39704 40173 882// 333 20206 59013;EQDQ01  00002PRCP06
0167827840999992004063018004-07317-039300FM-12+040999999V0201401N001510075019N0200001N1+02981+01951101271ADDAA106000091GF106991061021008001001001MA1999999096611MD1999999-0111REMSYN070AAXX  30184 82784 32598 61403 10298 20195 39661 40127 86200 333 59011;EQDQ01  00002PRCP06
0198827840999992004070100004-07317-039300FM-12+040999999V0201401N002110075019N0020001N1+02351+01991101681ADDAA106000091GF106991061021008001001001KA1240M+03091MA1999999096991MD1999999+0091REMSYN088AAXX  01004 82784 32595 61404 10235 20199 39699 40168 86200 333 10309 29072 55064 58009;EQDQ01  00002PRCP06
0186827840999992004070112004-07317-039300FM-12+040999999V0201801N003612200019N0200001N1+02491+01831101791ADDAA106000091GF104991041021008001001001KA1240N+02021MA1999999097091MD1999999+0051REMSYN076AAXX  01124 82784 32598 41807 10249 20183 39709 40179 84200 333 20202 58005;EQDQ01  00002PRCP06
0167827840999992004070118004-07317-039300FM-12+040999999V0200901N001010075019N0200001N1+02921+01741101291ADDAA106000091GF106991061021008001001001MA1999999096631MD1999999+0021REMSYN070AAXX  01184 82784 32598 60902 10292 20174 39663 40129 86200 333 58002;EQDQ01  00002PRCP06
0198827840999992004070200004-07317-039300FM-12+040999999V0201801N001010450019N0020001N1+02371+02151101541ADDAA106000091GF106991041021008001031001KA1240M+03021MA1999999096861MD1999999-0131REMSYN088AAXX  02004 82784 32595 61802 10237 20215 39686 40154 84230 333 10302 29072 55100 59013;EQDQ01  00002PRCP06
0167827840999992004070218004-07317-039300FM-12+040999999V0203601N002112200019N0200001N1+03081+01751101821ADDAA106000091GF102991021021008001001001MA1999999096581MD1999999-0051REMSYN070AAXX  02184 82784 32598 23604 10308 20175 39658 40182 82200 333 59005;EQDQ01  00002PRCP06
0198827840999992004070300004-07317-039300FM-12+040999999V0209999C000012200019N0020001N1+02421+02031101481ADDAA106000091GF102991021011008001001001KA1240M+03171MA1999999096811MD1999999-0051REMSYN088AAXX  03004 82784 32595 20000 10242 20203 39681 40148 82100 333 10317 29068 55106 59005;EQDQ01  00002PRCP06
0186827840999992004070312004-07317-039300FM-12+040999999V0201401N002110075019N0200001N1+02461+01811101681ADDAA106000091GF107991051011008001051001KA1240N+02101MA1999999097001MD1999999+0011REMSYN076AAXX  03124 82784 32598 71404 10246 20181 39700 40168 85150 333 20210 58001;EQDQ01  00002PRCP06
0167827840999992004070318004-07317-039300FM-12+040999999V0201401N002110075019N0200001N1+02931+01831101231ADDAA106000091GF107991071021008001001001MA1999999096571MD1999999-0011REMSYN070AAXX  03184 82784 32598 71404 10293 20183 39657 40123 87200 333 59001;EQDQ01  00002PRCP06
0214827840999992004070400004-07317-039300FM-12+040999999V0209999C000010075019N0020001N1+02481+02091101501ADDAA106000091GF107991999041008001001001KA1240M+03031MA1999999096821MD1999999+0011REMSYN088AAXX  04004 82784 32595 70000 10248 20209 39682 40150 86400 333 10303 29069 55053 58001;EQDQ01+000062SCOTLCQ02  00002PRCP06
0190827840999992004070412004-07317-039300FM-12+040999999V0203201N001012200019N0200001N1+02101+01981101781ADDAY161061AY221061GF106991041011008001001011KA1240N+01871MA1999999097071MD1999999+0071MW1021REMSYN088AAXX  04124 82784 21598 63202 10210 20198 39707 40178 70262 84101 333 20187 58007 60034;
0167827840999992004070418004-07317-039300FM-12+040999999V0200501N001510075019N0200001N1+02651+02051101351ADDAA106000091GF106991061021008001001001MA1999999096691MD1999999+0121REMSYN070AAXX  04184 82784 32598 60503 10265 20205 39669 40135 86200 333 58012;EQDQ01  00002PRCP06
0198827840999992004070500004-07317-039300FM-12+040999999V0209999C000012200019N0020001N1+02081+02001101441ADDAA106000091GF102991021011008001001001KA1240M+02821MA1999999096731MD1999999-0091REMSYN088AAXX  05004 82784 32595 20000 10208 20200 39673 40144 82100 333 10282 29088 55053 59009;EQDQ01  00002PRCP06
0186827840999992004070512004-07317-039300FM-12+040999999V0201401N001510075019N0200001N1+02561+02131101741ADDAA106000091GF105991051021008001001001KA1240N+01871MA1999999097041MD1999999-0031REMSYN076AAXX  05124 82784 32598 51403 10256 20213 39704 40174 85200 333 20187 59003;EQDQ01  00002PRCP06
0167827840999992004070518004-07317-039300FM-12+040999999V0209999C000010450019N0200001N1+03071+01951101361ADDAA106000091GF106991041021008001051001MA1999999096701MD1999999+0011REMSYN070AAXX  05184 82784 32598 60000 10307 20195 39670 40136 84250 333 58001;EQDQ01  00002PRCP06
0198827840999992004070600004-07317-039300FM-12+040999999V0209999C000010075019N0020001N1+02331+02201101571ADDAA106000091GF107991071041008001001001KA1240M+03171MA1999999096891MD1999999+0161REMSYN088AAXX  06004 82784 32595 70000 10233 20220 39689 40157 87400 333 10317 29078 55091 58016;EQDQ01  00002PRCP06
0186827840999992004070612004-07317-039300FM-12+040999999V0201401N001010075019N0200001N1+02571+01821101581ADDAA106000091GF106991061021008001001001KA1240N+02061MA1999999096901MD1999999+0141REMSYN076AAXX  06124 82784 32598 61402 10257 20182 39690 40158 86200 333 20206 58014;EQDQ01  00002PRCP06
0163827840999992004070618004-07317-039300FM-12+040999999V0201801N002110075019N0200001N1+03051+02091101721ADDAA106000091GF106991061021008001001001MA1999999097041MD1810041+9999REMSYN066AAXX  06184 82784 32598 61804 10305 20209 39704 40172 58004 86200;EQDQ01  00002PRCP06
0198827840999992004070700004-07317-039300FM-12+040999999V0209999C000010075019N0020001N1+02411+02171101511ADDAA106000091GF108991081041008001999999KA1240M+03231MA1999999096841MD1999999-0051REMSYN088AAXX  07004 82784 32595 80000 10241 20217 39684 40151 884// 333 10323 29074 55067 59005;EQDQ01  00002PRCP06
0186827840999992004070712004-07317-039300FM-12+040999999V0201801N002612200019N0200001N1+02601+01841101491ADDAA106000091GF103991031011008001001001KA1240N+02051MA1999999096821MD1999999-0081REMSYN076AAXX  07124 82784 32598 31805 10260 20184 39682 40149 83100 333 20205 59008;EQDQ01  00002PRCP06
0167827840999992004070718004-07317-039300FM-12+040999999V0201801N002610075019N0200001N1+03061+01771101071ADDAA106000091GF105991051011008001011001MA1999999096431MD1999999-0611REMSYN070AAXX  07184 82784 32598 51805 10306 20177 39643 40107 85110 333 59061;EQDQ01  00002PRCP06
0198827840999992004070800004-07317-039300FM-12+040999999V0201801N001512200019N0020001N1+02421+01971101381ADDAA106000091GF102991021011008001001001KA1240M+03181MA1999999096711MD1999999-0131REMSYN088AAXX  08004 82784 32595 21803 10242 20197 39671 40138 82100 333 10318 29065 55101 59013;EQDQ01  00002PRCP06
0186827840999992004070812004-07317-039300FM-12+040999999V0201801N001510075019N0200001N1+02371+02051101601ADDAA106000091GF107991071051008001001001KA1240N+01901MA1999999096911MD1999999+0091REMSYN076AAXX  08124 82784 32598 71803 10237 20205 39691 40160 87500 333 20190 58009;EQDQ01  00002PRCP06
0198827840999992004070900004-07317-039300FM-12+040999999V0201801N001512200019N0020001N1+02181+01991101381ADDAA106000091GF102991021011008001001001KA1240M+03101MA1999999096691MD1999999-0021REMSYN088AAXX  09004 82784 32595 21803 10218 20199 39669 40138 82100 333 10310 29079 55072 59002;EQDQ01  00002PRCP06
0190827840999992004070912004-07317-039300FM-12+040999999V0200901N001510075019N0200001N1+02441+02051101631ADDAY161061AY211061GF108991081021008001999999KA1240N+02071MA1999999096931MD1999999+0021MW1021REMSYN088AAXX  09124 82784 21598 80903 10244 20205 39693 40163 70261 882// 333 20207 58002 60024;
0167827840999992004070918004-07317-039300FM-12+040999999V0200501N002110075019N0200001N1+03021+02241101141ADDAA106000091GF107991051021008001031001MA1999999096491MD1999999-0091REMSYN070AAXX  09184 82784 32598 70504 10302 20224 39649 40114 85230 333 59009;EQDQ01  00002PRCP06
0198827840999992004071000004-07317-039300FM-12+040999999V0209999C000010075019N0200001N1+02421+02191101411ADDAA106000091GF108991081041008001999999KA1240M+03211MA1999999096741MD1999999+0051REMSYN088AAXX  10004 82784 32598 80000 10242 20219 39674 40141 884// 333 10321 29079 55092 58005;EQDQ01  00002PRCP06
0186827840999992004071012004-07317-039300FM-12+040999999V0203601N002110075019N0200001N1+02521+02091101611ADDAA106000091GF108991081041008001999999KA1240N+02101MA1999999096931MD1999999+0001REMSYN076AAXX  10124 82784 32598 83604 10252 20209 39693 40161 884// 333 20210 58000;EQDQ01  00002PRCP06
0167827840999992004071018004-07317-039300FM-12+040999999V0201801N001512200019N0200001N1+03091+01951101131ADDAA106000091GF103991031021008001001001MA1999999096481MD1999999-0011REMSYN070AAXX  10184 82784 32598 31803 10309 20195 39648 40113 83200 333 59001;EQDQ01  00002PRCP06
0208827840999992004071100004-07317-039300FM-12+040999999V0209999C000012200019N0020001N1+02421+02051101451ADDAA106000091GA1001+999999999GF100991001001999999001001KA1240M+03231MA1999999096771MD1999999+0031REMSYN082AAXX  11004 82784 32995 00000 10242 20205 39677 40145 333 10323 29072 55090 58003;EQDQ01  00002PRCP06
0167827840999992004071118004-07317-039300FM-12+040999999V0201401N002112200019N0200001N1+03021+01891101181ADDAA106000091GF102991021011008001001001MA1999999096571MD1999999+0061REMSYN070AAXX  11184 82784 32598 21404 10302 20189 39657 40118 82100 333 58006;EQDQ01  00002PRCP06
0198827840999992004071200004-07317-039300FM-12+040999999V0209999C000012200019N0020001N1+02171+01891101381ADDAA106000091GF102991011011008001021001KA1240M+03141MA1999999096691MD1999999-0081REMSYN088AAXX  12004 82784 32595 20000 10217 20189 39669 40138 81120 333 10314 29072 55095 59008;EQDQ01  00002PRCP06
0202827840999992004071212004-07317-039300FM-12+040999999V0200501N001512200019N0200001N1+02411+01841101561ADDAA106000091GF101991001001999999001091KA1240N+01561MA1999999096861MD1999999-0121REMSYN076AAXX  12124 82784 32998 10503 10241 20184 39686 40156 81009 333 20156 59012;EQDQ01+000012SCOTLCQ02  00002PRCP06
0177827840999992004071218004-07317-039300FM-12+040999999V0201801N003612200019N0200001N1+03041+01041101151ADDAA106000091GA1001+999999999GF100991001001999999001001MA1999999096481MD1999999-0091REMSYN064AAXX  12184 82784 32998 01807 10304 20104 39648 40115 333 59009;EQDQ01  00002PRCP06
0208827840999992004071300004-07317-039300FM-12+040999999V0209999C000012200019N0020001N1+02081+01471101501ADDAA106000091GA1001+999999999GF100991001001999999001001KA1240M+03151MA1999999096801MD1999999+0111REMSYN082AAXX  13004 82784 32995 00000 10208 20147 39680 40150 333 10315 29059 55105 58011;EQDQ01  00002PRCP06
0202827840999992004071312004-07317-039300FM-12+040999999V0200901N002112200019N0200001N1+02581+01901101571ADDAA106000091GF104991999001017501031001KA1240N+01881MA1999999096881MD1999999+0021REMSYN076AAXX  13124 82784 32798 40904 10258 20190 39688 40157 83030 333 20188 58002;EQDQ01+000032SCOTLCQ02  00002PRCP06
0167827840999992004071318004-07317-039300FM-12+040999999V0201801N004612200019N0200001N1+03021+01731101181ADDAA106000091GF102991021021008001001001MA1999999096531MD1999999+0051REMSYN070AAXX  13184 82784 32598 21809 10302 20173 39653 40118 82200 333 58005;EQDQ01  00002PRCP06
0198827840999992004071400004-07317-039300FM-12+040999999V0201401N003112200019N0020001N1+02401+01951101581ADDAA106000091GF102991021021008001001001KA1240M+03171MA1999999096901MD1999999+0101REMSYN088AAXX  14004 82784 32595 21406 10240 20195 39690 40158 82200 333 10317 29066 55098 58010;EQDQ01  00002PRCP06
0186827840999992004071412004-07317-039300FM-12+040999999V0201801N003610450019N0200001N1+02421+01651101721ADDAA106000091GF107991021011008001031001KA1240N+02021MA1999999097031MD1999999-0151REMSYN076AAXX  14124 82784 32598 71807 10242 20165 39703 40172 82130 333 20202 59015;EQDQ01  00002PRCP06
0167827840999992004071418004-07317-039300FM-12+040999999V0201801N003110450019N0200001N1+02921+01571101331ADDAA106000091GF107991041021008001031091MA1999999096661MD1999999+0131REMSYN070AAXX  14184 82784 32598 71806 10292 20157 39666 40133 84239 333 58013;EQDQ01  00002PRCP06
0198827840999992004071500004-07317-039300FM-12+040999999V0201401N002112200019N0020001N1+02391+01861101601ADDAA106000091GF102991021001017501021001KA1240M+03011MA1999999096921MD1999999+0021REMSYN088AAXX  15004 82784 32795 21404 10239 20186 39692 40160 82020 333 10301 29062 55067 58002;EQDQ01  00002PRCP06
0186827840999992004071512004-07317-039300FM-12+040999999V0201801N002112200019N0200001N1+02521+01771101691ADDAA106000091GF101991011011008001001001KA1240N+02521MA1999999097001MD1999999-0031REMSYN076AAXX  15124 82784 32598 11804 10252 20177 39700 40169 81100 333 20252 59003;EQDQ01  00002PRCP06
0167827840999992004071518004-07317-039300FM-12+040999999V0201801N002110450019N0200001N1+02981+01661101301ADDAA106000091GF105991031021008001031001MA1999999096651MD1999999-0011REMSYN070AAXX  15184 82784 32598 51804 10298 20166 39665 40130 83230 333 59001;EQDQ01  00002PRCP06
0198827840999992004071600004-07317-039300FM-12+040999999V0201401N001512200019N0020001N1+02521+01841101571ADDAA106000091GF102991021041008001001001KA1240M+03091MA1999999096891MD1999999-0031REMSYN088AAXX  16004 82784 32595 21403 10252 20184 39689 40157 82400 333 10309 29060 55095 59003;EQDQ01  00002PRCP06
0190827840999992004071612004-07317-039300FM-12+040999999V0201401N003110450019N0200001N1+02571+01771101751ADDAY111061AY211061GF105991021021008001031001KA1240N+02041MA1999999097071MD1999999+0181MW1201REMSYN088AAXX  16124 82784 21598 51406 10257 20177 39707 40175 72011 82230 333 20204 58018 69924;
0148827840999992004071618004-07317-039300FM-12+040999999V0201801N003110075019N0200001N1+02741+01971101391ADDAA106000021GF108991081041008001999999MA1999999096721MD1999999+0071REMSYN070AAXX  16184 82784 32598 81806 10274 20197 39672 40139 884// 333 58007;
0198827840999992004071700004-07317-039300FM-12+040999999V0201401N001010075019N0020001N1+02401+01911101611ADDAA106000091GF106991061041008001001001KA1240M+02871MA1999999096921MD1999999+0031REMSYN088AAXX  17004 82784 32595 61402 10240 20191 39692 40161 86400 333 10287 29067 55055 58003;EQDQ01  00002PRCP06
0186827840999992004071712004-07317-039300FM-12+040999999V0200901N001010450019N0200001N1+02311+01871101781ADDAA106000091GF108991011011008001031999KA1240N+02151MA1999999097081MD1999999+0011REMSYN076AAXX  17124 82784 32598 80902 10231 20187 39708 40178 8113/ 333 20215 58001;EQDQ01  00002PRCP06
0167827840999992004071718004-07317-039300FM-12+040999999V0201801N003110450019N0200001N1+02761+01771101401ADDAA106000091GF108991021071008001021999MA1999999096731MD1999999+0011REMSYN070AAXX  17184 82784 32598 81806 10276 20177 39673 40140 8272/ 333 58001;EQDQ01  00002PRCP06
0214827840999992004071800004-07317-039300FM-12+040999999V0201401N001512200019N0020001N1+02111+01821101631ADDAA106000091GF102991001001999999001091KA1240M+02921MA1999999096901MD1999999-0021REMSYN088AAXX  18004 82784 32995 21403 10211 20182 39690 40163 82009 333 10292 29074 55021 59002;EQDQ01+000022SCOTLCQ02  00002PRCP06
0186827840999992004071812004-07317-039300FM-12+040999999V0201801N002110075019N0200001N1+02481+01341101711ADDAA106000091GF106991061021008001001001KA1240N+01891MA1999999097011MD1999999-0071REMSYN076AAXX  18124 82784 32598 61804 10248 20134 39701 40171 86200 333 20189 59007;EQDQ01  00002PRCP06
0198827840999992004071900004-07317-039300FM-12+040999999V0201401N001519999999N0020001N1+02521+01841101581ADDAA106000091GF106991061001012501041001KA1240M+03161MA1999999096901MD1999999+0001REMSYN088AAXX  19004 82784 32695 61403 10252 20184 39690 40158 86040 333 10316 29056 55090 58000;EQDQ01  00002PRCP06
0186827840999992004071912004-07317-039300FM-12+040999999V0201401N002610075019N0200001N1+02381+01751101911ADDAA106000091GF106991061021008001001001KA1240N+01941MA1999999097211MD1999999+0201REMSYN076AAXX  19124 82784 32598 61405 10238 20175 39721 40191 86200 333 20194 58020;EQDQ01  00002PRCP06
0167827840999992004071918004-07317-039300FM-12+040999999V0201801N004112200019N0200001N1+02831+01611101461ADDAA106000091GF103991031011008001001001MA1999999096781MD1999999+0081REMSYN070AAXX  19184 82784 32598 31808 10283 20161 39678 40146 83100 333 58008;EQDQ01  00002PRCP06
0208827840999992004072000004-07317-039300FM-12+040999999V0201401N001012200019N0020001N1+02161+01701101601ADDAA106000091GA1001+999999999GF100991001001999999001001KA1240M+02961MA1999999096921MD1999999+0021REMSYN082AAXX  20004 82784 32995 01402 10216 20170 39692 40160 333 10296 29066 55095 58002;EQDQ01  00002PRCP06
0186827840999992004072012004-07317-039300FM-12+040999999V0201401N002112200019N0200001N1+02401+01601101881ADDAA106000091GF101991011011008001001001KA1240N+01711MA1999999097171MD1999999-0041REMSYN076AAXX  20124 82784 32598 11404 10240 20160 39717 40188 81100 333 20171 59004;EQDQ01  00002PRCP06
0177827840999992004072018004-07317-039300FM-12+040999999V0201801N003612200019N0200001N1+03061+01341101351ADDAA106000091GA1001+999999999GF100991001001999999001001MA1999999096691MD1999999-0091REMSYN064AAXX  20184 82784 32998 01807 10306 20134 39669 40135 333 59009;EQDQ01  00002PRCP06
0208827840999992004072100004-07317-039300FM-12+040999999V0201801N002112200019N0020001N1+02181+01701101581ADDAA106000091GA1001+999999999GF100991001001999999001001KA1240M+03191MA1999999096881MD1999999-0041REMSYN082AAXX  21004 82784 32995 01804 10218 20170 39688 40158 333 10319 29061 55107 59004;EQDQ01  00002PRCP06
0186827840999992004072112004-07317-039300FM-12+040999999V0201401N002112200019N0200001N1+02461+01711101531ADDAA106000091GF107991011011008001001011KA1240N+01821MA1999999096841MD1999999-0331REMSYN076AAXX  21124 82784 32598 71404 10246 20171 39684 40153 81101 333 20182 59033;EQDQ01  00002PRCP06
0167827840999992004072118004-07317-039300FM-12+040999999V0201401N002112200019N0200001N1+03061+01471101051ADDAA106000091GF104991041001017501001011MA1999999096401MD1999999-0291REMSYN070AAXX  21184 82784 32798 41404 10306 20147 39640 40105 84001 333 59029;EQDQ01  00002PRCP06
0208827840999992004072200004-07317-039300FM-12+040999999V0201401N002112200019N0020001N1+02391+01471101431ADDAA106000091GA1001+999999999GF100991001001999999001001KA1240M+03211MA1999999096751MD1999999-0131REMSYN082AAXX  22004 82784 32995 01404 10239 20147 39675 40143 333 10321 29053 55105 59013;EQDQ01  00002PRCP06
0186827840999992004072212004-07317-039300FM-12+040999999V0201801N004112200019N0200001N1+02491+01701101591ADDAA106000091GF102991021011008001001001KA1240N+02141MA1999999096911MD1999999+0071REMSYN076AAXX  22124 82784 32598 21808 10249 20170 39691 40159 82100 333 20214 58007;EQDQ01  00002PRCP06
0167827840999992004072218004-07317-039300FM-12+040999999V0201801N003612200019N0200001N1+02951+01591100901ADDAA106000091GF104991041011008001001001MA1999999097591MD1999999+1191REMSYN070AAXX  22184 82784 32598 41807 10295 20159 39759 40090 84100 333 58119;EQDQ01  00002PRCP06
0208827840999992004072300004-07317-039300FM-12+040999999V0201801N003112200019N0020001N1+02151+01661101641ADDAA106000091GA1001+999999999GF100991001001999999001001KA1240M+03051MA1999999096941MD1999999+0191REMSYN082AAXX  23004 82784 32995 01806 10215 20166 39694 40164 333 10305 29063 55108 58019;EQDQ01  00002PRCP06
0186827840999992004072312004-07317-039300FM-12+040999999V0201801N003112200019N0200001N1+02361+01491101811ADDAA106000091GF104991041021008001001001KA1240N+01901MA1999999097131MD1999999+0221REMSYN076AAXX  23124 82784 32598 41806 10236 20149 39713 40181 84200 333 20190 58022;EQDQ01  00002PRCP06
0177827840999992004072318004-07317-039300FM-12+040999999V0201801N004112200019N0200001N1+02931+01791101361ADDAA106000091GA1001+999999999GF100991001001999999001001MA1999999096691MD1999999+0101REMSYN064AAXX  23184 82784 32998 01808 10293 20179 39669 40136 333 58010;EQDQ01  00002PRCP06
0208827840999992004072400004-07317-039300FM-12+040999999V0201801N002612200019N0020001N1+02191+01541101771ADDAA106000091GA1001+999999999GF100991001001999999001001KA1240M+02991MA1999999097061MD1999999+0121REMSYN082AAXX  24004 82784 32995 01805 10219 20154 39706 40177 333 10299 29060 55106 58012;EQDQ01  00002PRCP06
0186827840999992004072412004-07317-039300FM-12+040999999V0201801N004610075019N0200001N1+02331+01601102021ADDAA106000091GF108991081021008001001001KA1240N+02381MA1999999097301MD1999999+0171REMSYN076AAXX  24124 82784 32598 81809 10233 20160 39730 40202 88200 333 20238 58017;EQDQ01  00002PRCP06
0167827840999992004072418004-07317-039300FM-12+040999999V0201801N004112200019N0200001N1+02761+01591101661ADDAA106000091GF102991021011008001001001MA1999999096961MD1999999+0271REMSYN070AAXX  24184 82784 32598 21808 10276 20159 39696 40166 82100 333 58027;EQDQ01  00002PRCP06
0214827840999992004072500004-07317-039300FM-12+040999999V0201401N002112200019N0010001N1+02351+01711101891ADDAA106000091GF101991999011008001001001KA1240M+02831MA1999999097181MD1999999+0121REMSYN088AAXX  25004 82784 32594 11404 10235 20171 39718 40189 82100 333 10283 29062 55101 58012;EQDQ01+000022SCOTLCQ02  00002PRCP06
0186827840999992004072512004-07317-039300FM-12+040999999V0201801N004112200019N0200001N1+02411+01631101941ADDAA106000091GF102991021011008001001001KA1240N+01961MA1999999097241MD1999999-0061REMSYN076AAXX  25124 82784 32598 21808 10241 20163 39724 40194 82100 333 20196 59006;EQDQ01  00002PRCP06
0167827840999992004072518004-07317-039300FM-12+040999999V0201801N003610075019N0200001N1+02571+01741101651ADDAA106000091GF108991081071008001999999MA1999999096951MD1999999-0011REMSYN070AAXX  25184 82784 32598 81807 10257 20174 39695 40165 887// 333 59001;EQDQ01  00002PRCP06
0198827840999992004072600004-07317-039300FM-12+040999999V0200901N002110150019N0020001N1+02261+01731101861ADDAA106000091GF107991071001017501051001KA1240M+02851MA1999999097151MD1999999-0031REMSYN088AAXX  26004 82784 32795 70904 10226 20173 39715 40186 87050 333 10285 29066 55074 59003;EQDQ01  00002PRCP06
0186827840999992004072612004-07317-039300FM-12+040999999V0201401N005110075019N0200001N1+02241+01571101961ADDAA106000091GF107991071021008001001001KA1240N+01901MA1999999097241MD1999999+0001REMSYN076AAXX  26124 82784 32598 71410 10224 20157 39724 40196 87200 333 20190 58000;EQDQ01  00002PRCP06
0198827840999992004072700004-07317-039300FM-12+040999999V0201801N002110075019N0020001N1+02221+01761101971ADDAA106000091GF107991071041008001001001KA1240M+02611MA1999999097251MD1999999+0101REMSYN088AAXX  27004 82784 32595 71804 10222 20176 39725 40197 87400 333 10261 29070 55025 58010;EQDQ01  00002PRCP06
0186827840999992004072712004-07317-039300FM-12+040999999V0201801N005712200019N0200001N1+02351+01611101911ADDAA106000091GF102991011021008001031001KA1240N+01801MA1999999097201MD1999999-0041REMSYN076AAXX  27124 82784 32598 21811 10235 20161 39720 40191 81230 333 20180 59004;EQDQ01  00002PRCP06
0167827840999992004072718004-07317-039300FM-12+040999999V0201801N002110450019N0200001N1+02891+01671101551ADDAA106000091GF108991021021008001031999MA1999999096861MD1999999-0091REMSYN070AAXX  27184 82784 32598 81804 10289 20167 39686 40155 8223/ 333 59009;EQDQ01  00002PRCP06
0186827840999992004072812004-07317-039300FM-12+040999999V0201801N003612200019N0200001N1+02401+01551101741ADDAA106000091GF103991031011008001001001KA1240N+02401MA1999999097041MD1999999-0161REMSYN076AAXX  28124 82784 32598 31807 10240 20155 39704 40174 83100 333 20240 59016;EQDQ01  00002PRCP06
0167827840999992004072818004-07317-039300FM-12+040999999V0201801N004110075019N0200001N1+02851+01481101471ADDAA106000091GF106991061011008001001001MA1999999096791MD1999999-0071REMSYN070AAXX  28184 82784 32598 61808 10285 20148 39679 40147 86100 333 59007;EQDQ01  00002PRCP06
0198827840999992004072900004-07317-039300FM-12+040999999V0201401N001510075019N0020001N1+02451+01641101781ADDAA106000091GF108991061041008001031999KA1240M+02951MA1999999097081MD1999999-0031REMSYN088AAXX  29004 82784 32595 81403 10245 20164 39708 40178 8643/ 333 10295 29056 55086 59003;EQDQ01  00002PRCP06
0186827840999992004072912004-07317-039300FM-12+040999999V0201801N004610042019N0200001N1+02261+01641101771ADDAA106000091GF108991081051004501999999KA1240N+01951MA1999999097071MD1999999+0031REMSYN076AAXX  29124 82784 32498 81809 10226 20164 39707 40177 885// 333 20195 58003;EQDQ01  00002PRCP06
0167827840999992004072918004-07317-039300FM-12+040999999V0201801N003610075019N0200001N1+02541+01861101511ADDAA106000091GF107991071021008001001001MA1999999096811MD1999999+0021REMSYN070AAXX  29184 82784 32598 71807 10254 20186 39681 40151 87200 333 58002;EQDQ01  00002PRCP06
0198827840999992004073000004-07317-039300FM-12+040999999V0201401N001510450019N0020001N1+02271+01921101801ADDAA106000091GF106991021011008001021001KA1240M+02691MA1999999097091MD1999999+0011REMSYN088AAXX  30004 82784 32595 61403 10227 20192 39709 40180 82120 333 10269 29074 55034 58001;EQDQ01  00002PRCP06
0186827840999992004073012004-07317-039300FM-12+040999999V0201801N003610075019N0200001N1+02281+01831101971ADDAA106000091GF107991061021008001041001KA1240N+02021MA1999999097251MD1999999-0021REMSYN076AAXX  30124 82784 32598 71807 10228 20183 39725 40197 86240 333 20202 59002;EQDQ01  00002PRCP06
0167827840999992004073018004-07317-039300FM-12+040999999V0201801N003110075019N0200001N1+02881+01831101431ADDAA106000091GF106991061021008001001001MA1999999096761MD1999999-0051REMSYN070AAXX  30184 82784 32598 61806 10288 20183 39676 40143 86200 333 59005;EQDQ01  00002PRCP06
0198827840999992004073100004-07317-039300FM-12+040999999V0201401N001010075019N0020001N1+02411+01841101751ADDAA106000091GF106991061021008001001001KA1240M+03061MA1999999097051MD1999999-0041REMSYN088AAXX  31004 82784 32595 61402 10241 20184 39705 40175 86200 333 10306 29068 55056 59004;EQDQ01  00002PRCP06
0186827840999992004073112004-07317-039300FM-12+040999999V0200501N001510075019N0200001N1+02411+01821101911ADDAA106000091GF107991071021008001001001KA1240N+01751MA1999999097211MD1999999-0041REMSYN076AAXX  31124 82784 32598 70503 10241 20182 39721 40191 87200 333 20175 59004;EQDQ01  00002PRCP06
0167827840999992004073118004-07317-039300FM-12+040999999V0201801N002610075019N0200001N1+02881+01801101421ADDAA106000091GF107991071021008001001001MA1999999096741MD1999999-0021REMSYN070AAXX  31184 82784 32598 71805 10288 20180 39674 40142 87200 333 59002;EQDQ01  00002PRCP06
0198827840999992004080100004-07317-039300FM-12+040999999V0201801N000510075019N0020001N1+02421+02211101771ADDAA106000091GF107991071041008001001001KA1240M+03091MA1999999097071MD1999999+0021REMSYN088AAXX  01004 82784 32595 71801 10242 20221 39707 40177 87400 333 10309 29074 55066 58002;EQDQ01  00002PRCP06
0190827840999992004080112004-07317-039300FM-12+040999999V0200901N001510075019N0200001N1+02401+02051101821ADDAY161061AY221061GF107991071021008001001001KA1240N+01751MA1999999097121MD1999999-0091MW1021REMSYN088AAXX  01124 82784 21598 70903 10240 20205 39712 40182 70262 87200 333 20175 59009 60034;
0167827840999992004080118004-07317-039300FM-12+040999999V0201401N002610075019N0200001N1+03001+01881101351ADDAA106000091GF106991061021008001001001MA1999999096681MD1999999-0061REMSYN070AAXX  01184 82784 32598 61405 10300 20188 39668 40135 86200 333 59006;EQDQ01  00002PRCP06
0198827840999992004080200004-07317-039300FM-12+040999999V0201401N002112200019N0020001N1+02401+01871101561ADDAA106000091GF103991031011008001001001KA1240M+03151MA1999999096961MD1999999-0111REMSYN088AAXX  02004 82784 32595 31404 10240 20187 39696 40156 83100 333 10315 29072 55061 59011;EQDQ01  00002PRCP06
0190827840999992004080212004-07317-039300FM-12+040999999V0200901N000510075019N0200001N1+02021+01951101971ADDAY111061AY211061GF107991071041008001001001KA1240N+01931MA1999999097251MD1999999+0131MW1211REMSYN088AAXX  02124 82784 21598 70901 10202 20195 39725 40197 72111 87400 333 20193 58013 60034;
0198827840999992004080300004-07317-039300FM-12+040999999V0201401N001512200019N0020001N1+02331+01811101721ADDAA106000091GF102991011011008001031001KA1240M+02971MA1999999097001MD1999999+0041REMSYN088AAXX  03004 82784 32595 21403 10233 20181 39700 40172 81130 333 10297 29073 55031 58004;EQDQ01  00002PRCP06
0186827840999992004080312004-07317-039300FM-12+040999999V0201801N004612200019N0200001N1+02491+01701101851ADDAA106000091GF101991011011008001001001KA1240N+02001MA1999999097151MD1999999-0101REMSYN076AAXX  03124 82784 32598 11809 10249 20170 39715 40185 81100 333 20200 59010;EQDQ01  00002PRCP06
0167827840999992004080318004-07317-039300FM-12+040999999V0201801N003112200019N0200001N1+03091+01681101391ADDAA106000091GF102991021011008001001001MA1999999096731MD1999999-0071REMSYN070AAXX  03184 82784 32598 21806 10309 20168 39673 40139 82100 333 59007;EQDQ01  00002PRCP06
0208827840999992004080400004-07317-039300FM-12+040999999V0201401N002612200019N0020001N1+02421+01651101721ADDAA106000091GA1001+999999999GF100991001001999999001001KA1240M+03191MA1999999097031MD1999999+0031REMSYN082AAXX  04004 82784 32995 01405 10242 20165 39703 40172 333 10319 29057 55108 58003;EQDQ01  00002PRCP06
0186827840999992004080412004-07317-039300FM-12+040999999V0201801N003112200019N0200001N1+02341+01551101881ADDAA106000091GF101991011011008001001001KA1240N+01841MA1999999097181MD1999999+0031REMSYN076AAXX  04124 82784 32598 11806 10234 20155 39718 40188 81100 333 20184 58003;EQDQ01  00002PRCP06
0177827840999992004080418004-07317-039300FM-12+040999999V0201801N001012200019N0200001N1+02981+01441101431ADDAA106000091GA1001+999999999GF100991001001999999001001MA1999999096761MD1999999+0031REMSYN064AAXX  04184 82784 32998 01802 10298 20144 39676 40143 333 58003;EQDQ01  00002PRCP06
0208827840999992004080500004-07317-039300FM-12+040999999V0201801N001512200019N0020001N1+02241+01451101741ADDAA106000091GA1001+999999999GF100991001001999999001001KA1240M+03081MA1999999097041MD1999999+0011REMSYN082AAXX  05004 82784 32995 01803 10224 20145 39704 40174 333 10308 29056 55109 58001;EQDQ01  00002PRCP06
0186827840999992004080512004-07317-039300FM-12+040999999V0201801N002612200019N0200001N1+02501+01621101841ADDAA106000091GF102991021021008001001001KA1240N+02001MA1999999097141MD1999999-0041REMSYN076AAXX  05124 82784 32598 21805 10250 20162 39714 40184 82200 333 20200 59004;EQDQ01  00002PRCP06
0167827840999992004080518004-07317-039300FM-12+040999999V0201801N005110075019N0200001N1+02961+01871101401ADDAA106000091GF107991071021008001001001MA1999999096731MD1999999-0031REMSYN070AAXX  05184 82784 32598 71810 10296 20187 39673 40140 87200 333 59003;EQDQ01  00002PRCP06
0186827840999992004080612004-07317-039300FM-12+040999999V0201801N002610075019N0200001N1+02481+01731101861ADDAA106000091GF107991071021008001001001KA1240N+02121MA1999999097161MD1999999+0021REMSYN076AAXX  06124 82784 32598 71805 10248 20173 39716 40186 87200 333 20212 58002;EQDQ01  00002PRCP06
0167827840999992004080618004-07317-039300FM-12+040999999V0201801N003110075019N0200001N1+02921+01671101521ADDAA106000091GF107991071061008001001001MA1999999096841MD1999999+0111REMSYN070AAXX  06184 82784 32598 71806 10292 20167 39684 40152 87600 333 58011;EQDQ01  00002PRCP06
0198827840999992004080700004-07317-039300FM-12+040999999V0201401N001510075019N0020001N1+02401+01801101811ADDAA106000091GF105991051041008001001001KA1240M+03011MA1999999097121MD1999999+0091REMSYN088AAXX  07004 82784 32595 51403 10240 20180 39712 40181 85400 333 10301 29062 55087 58009;EQDQ01  00002PRCP06
0186827840999992004080712004-07317-039300FM-12+040999999V0201801N004110075019N0200001N1+02541+01861102041ADDAA106000091GF107991071051008001001001KA1240N+02161MA1999999097841MD1999999+0181REMSYN076AAXX  07124 82784 32598 71808 10254 20186 39784 40204 87500 333 20216 58018;EQDQ01  00002PRCP06
0183827840999992004080718004-07317-039300FM-12+040999999V0201801N003110075019N0200001N1+02761+01771101681ADDAA106000091GF107991071021008001001001MA1999999097002MD1999999+0161REMSYN070AAXX  07184 82784 32598 71806 10276 20177 39700 40168 87200 333 58016;EQDQ01+097003APOSP Q02  00002PRCP06
0198827840999992004080800004-07317-039300FM-12+040999999V0200901N001012200019N0020001N1+02421+01911101891ADDAA106000091GF102991021031008001001001KA1240M+02891MA1999999097201MD1999999+0081REMSYN088AAXX  08004 82784 32595 20902 10242 20191 39720 40189 82300 333 10289 29067 55027 58008;EQDQ01  00002PRCP06
0183827840999992004080818004-07317-039300FM-12+040999999V0201401N003119999999N0200001N1+03091+01701101461ADDAA106000091GF107991999021008001001001MA1999999096801MD1999999-0201REMSYN070AAXX  08184 82784 32598 71406 10309 20170 39680 40146 83200 333 59020;EQDQ01+000032SCOTLCQ02  00002PRCP06
0208827840999992004080900004-07317-039300FM-12+040999999V0201801N001512200019N0020001N1+02901+01521101661ADDAA106000091GA1001+999999999GF100991001001999999001001KA1240M+03191MA1999999096991MD1999999-0011REMSYN082AAXX  09004 82784 32995 01803 10290 20152 39699 40166 333 10319 29049 55072 59001;EQDQ01  00002PRCP06
0186827840999992004080912004-07320-039300FM-12+040999999V0201801N002112200019N0200001N1+02561+01831101861ADDAA106000091GF104991041021008001001001KA1240N+02031MA1999999097211MD1999999+0061REMSYN076AAXX  09124 82784 32598 41804 10256 20183 39721 40186 84200 333 20203 58006;EQDQ01  00002PRCP06
0177827840999992004080918004-07320-039300FM-12+040999999V0201401N003112200019N0200001N1+03261+00971101441ADDAA106000091GA1001+999999999GF100991001001999999001001MA1999999096791MD1999999-0011REMSYN064AAXX  09184 82784 32998 01406 10326 20097 39679 40144 333 59001;EQDQ01  00002PRCP06
0208827840999992004081000004-07320-039300FM-12+040999999V0201401N001512200019N0020001N1+02561+01751101751ADDAA106000091GA1001+999999999GF100991001001999999001001KA1240M+03361MA1999999097071MD1999999+0081REMSYN082AAXX  10004 82784 32995 01403 10256 20175 39707 40175 333 10336 29052 55105 58008;EQDQ01  00002PRCP06
0186827840999992004081012004-07320-039300FM-12+040999999V0201801N004612200019N0200001N1+02501+02111102021ADDAA106000091GF104991041011008001001001KA1240N+02041MA1999999097321MD1999999+0111REMSYN076AAXX  10124 82784 32598 41809 10250 20211 39732 40202 84100 333 20204 58011;EQDQ01  00002PRCP06
0167827840999992004081018004-07320-039300FM-12+040999999V0201801N004110075019N0200001N1+02961+01781101541ADDAA106000091GF105991051011008001001001MA1999999096871MD1999999+0081REMSYN070AAXX  10184 82784 32598 51808 10296 20178 39687 40154 85100 333 58008;EQDQ01  00002PRCP06
0208827840999992004081100004-07320-039300FM-12+040999999V0201401N002612200019N0020001N1+02481+01781101901ADDAA106000091GA1001+999999999GF100991001001999999001001KA1240M+03071MA1999999097211MD1999999+0141REMSYN082AAXX  11004 82784 32995 01405 10248 20178 39721 40190 333 10307 29064 55106 58014;EQDQ01  00002PRCP06
0186827840999992004081112004-07317-039300FM-12+040999999V0201801N005110075019N0200001N1+02431+01861102031ADDAA106000091GF106991051021008001051001KA1240N+02051MA1999999097331MD1999999+0011REMSYN076AAXX  11124 82784 32598 61810 10243 20186 39733 40203 85250 333 20205 58001;EQDQ01  00002PRCP06
0167827840999992004081118004-07317-039300FM-12+040999999V0201801N003110042019N0200001N1+02601+01631101661ADDAA106000091GF107991071051004501001001MA1999999096981MD1999999+0111REMSYN070AAXX  11184 82784 32498 71806 10260 20163 39698 40166 87500 333 58011;EQDQ01  00002PRCP06
0214827840999992004081200004-07320-039300FM-12+040999999V0201401N002610075019N0020001N1+02291+01681101971ADDAA106000091GF106991999041008001001001KA1240M+02711MA1999999097261MD1999999+0051REMSYN088AAXX  12004 82784 32595 61405 10229 20168 39726 40197 85400 333 10271 29066 55052 58005;EQDQ01+000052SCOTLCQ02  00002PRCP06
0186827840999992004081212004-07320-039300FM-12+040999999V0201801N003610150019N0200001N1+02391+01731102041ADDAA106000091GF107991071001017501031001KA1240N+02001MA1999999097331MD1999999+0001REMSYN076AAXX  12124 82784 32798 71807 10239 20173 39733 40204 87030 333 20200 58000;EQDQ01  00002PRCP06
0167827840999992004081218004-07320-039300FM-12+040999999V0201801N002612200019N0200001N1+03021+01591101501ADDAA106000091GF104991041021008001001001MA1999999096831MD1999999-0151REMSYN070AAXX  12184 82784 32598 41805 10302 20159 39683 40150 84200 333 59015;EQDQ01  00002PRCP06
0208827840999992004081300004-07320-039300FM-12+040999999V0201401N002112200019N0020001N1+02371+01631101891ADDAA106000091GA1001+999999999GF100991001001999999001001KA1240M+03211MA1999999097191MD1999999-0071REMSYN082AAXX  13004 82784 32995 01404 10237 20163 39719 40189 333 10321 29058 55067 59007;EQDQ01  00002PRCP06
0186827840999992004081312004-07320-039300FM-12+040999999V0201801N004112200019N0200001N1+02441+01561102081ADDAA106000091GF102991021021008001001001KA1240N+01941MA1999999097371MD1999999+0041REMSYN076AAXX  13124 82784 32598 21808 10244 20156 39737 40208 82200 333 20194 58004;EQDQ01  00002PRCP06
0177827840999992004081318004-07320-039300FM-12+040999999V0201801N005112200019N0200001N1+03021+01431101461ADDAA106000091GA1001+999999999GF100991001001999999001001MA1999999096781MD1999999-0051REMSYN064AAXX  13184 82784 32998 01810 10302 20143 39678 40146 333 59005;EQDQ01  00002PRCP06
0208827840999992004081400004-07320-039300FM-12+040999999V0201401N003112200019N0020001N1+02351+01381101871ADDAA106000091GA1001+999999999GF100991001001999999001001KA1240M+03131MA1999999097171MD1999999-0021REMSYN082AAXX  14004 82784 32995 01406 10235 20138 39717 40187 333 10313 29051 55110 59002;EQDQ01  00002PRCP06
0186827840999992004081412004-07320-039300FM-12+040999999V0201801N004112200019N0200001N1+02461+01521101841ADDAA106000091GF101991011011008001001001KA1240N+01841MA1999999097141MD1999999-0231REMSYN076AAXX  14124 82784 32598 11808 10246 20152 39714 40184 81100 333 20184 59023;EQDQ01  00002PRCP06
0167827840999992004081418004-07320-039300FM-12+040999999V0201401N002112200019N0200001N1+02981+01731101561ADDAA106000091GF102991021011008001001001MA1999999096881MD1999999+0101REMSYN070AAXX  14184 82784 32598 21404 10298 20173 39688 40156 82100 333 58010;EQDQ01  00002PRCP06
0208827840999992004081500004-07320-039300FM-12+040999999V0201401N001012200019N0020001N1+02351+01711101831ADDAA106000091GA1001+999999999GF100991001001999999001001KA1240M+03111MA1999999097131MD1999999-0041REMSYN082AAXX  15004 82784 32995 01402 10235 20171 39713 40183 333 10311 29060 55106 59004;EQDQ01  00002PRCP06
0167827840999992004081518004-07320-039300FM-12+040999999V0201801N003110075019N0200001N1+02931+01711101531ADDAA106000091GF107991071021008001001001MA1999999096851MD1999999-0031REMSYN070AAXX  15184 82784 32598 71806 10293 20171 39685 40153 87200 333 59003;EQDQ01  00002PRCP06
0198827840999992004081600004-07320-039300FM-12+040999999V0201801N001510120019N0020001N1+02531+01691101791ADDAA106000091GF106991061081008001001001KA1240M+03091MA1999999097191MD1999999+0061REMSYN088AAXX  16004 82784 32595 61803 10253 20169 39719 40179 86800 333 10309 29056 55082 58006;EQDQ01  00002PRCP06
0186827840999992004081612004-07320-039300FM-12+040999999V0201401N002612200019N0200001N1+02561+01591101911ADDAA106000091GF103991031021008001001001KA1240N+01961MA1999999097221MD1999999+0031REMSYN076AAXX  16124 82784 32598 31405 10256 20159 39722 40191 83200 333 20196 58003;EQDQ01  00002PRCP06
0167827840999992004081618004-07320-039300FM-12+040999999V0200901N003110075019N0200001N1+02761+01771101501ADDAA106000091GF106991061021008001001001MA1999999096821MD1999999-0031REMSYN070AAXX  16184 82784 32598 60906 10276 20177 39682 40150 86200 333 59003;EQDQ01  00002PRCP06
0198827840999992004081700004-07320-039300FM-12+040999999V0201401N001510075019N0020001N1+02421+01841101791ADDAA106000091GF107991071041008001001001KA1240M+02931MA1999999097101MD1999999-0091REMSYN088AAXX  17004 82784 32595 71403 10242 20184 39710 40179 87400 333 10293 29062 55070 59009;EQDQ01  00002PRCP06
0186827840999992004081712004-07320-039300FM-12+040999999V0201801N004610075019N0200001N1+02481+01731101921ADDAA106000091GF108991081021008001999999KA1240N+02061MA1999999097221MD1999999+0001REMSYN076AAXX  17124 82784 32598 81809 10248 20173 39722 40192 882// 333 20206 58000;EQDQ01  00002PRCP06
0167827840999992004081718004-07320-039300FM-12+040999999V0201801N005112200019N0200001N1+03131+01541101361ADDAA106000091GF102991021021008001001001MA1999999096711MD1999999-0111REMSYN070AAXX  17184 82784 32598 21810 10313 20154 39671 40136 82200 333 59011;EQDQ01  00002PRCP06
0208827840999992004081800004-07320-039300FM-12+040999999V0201401N001512200019N0020001N1+02521+01791101621ADDAA106000091GA1001+999999999GF100991001001999999001001KA1240M+03251MA1999999096941MD1999999-0161REMSYN082AAXX  18004 82784 32995 01403 10252 20179 39694 40162 333 10325 29057 55102 59016;EQDQ01  00002PRCP06
0186827840999992004081812004-07320-039300FM-12+040999999V0201801N003110075019N0200001N1+02351+01781101941ADDAA106000091GF108991081021008001999999KA1240N+02071MA1999999097241MD1999999+0021REMSYN076AAXX  18124 82784 32598 81806 10235 20178 39724 40194 882// 333 20207 58002;EQDQ01  00002PRCP06
0167827840999992004081818004-07320-039300FM-12+040999999V0201801N002612200019N0200001N1+03151+01551101391ADDAA106000091GF103991031021008001001001MA1999999096741MD1999999+0031REMSYN070AAXX  18184 82784 32598 31805 10315 20155 39674 40139 83200 333 58003;EQDQ01  00002PRCP06
0208827840999992004081900004-07320-039300FM-12+040999999V0201801N001512200019N0020001N1+02521+01491101731ADDAA106000091GA1001+999999999GF100991001001999999001001KA1240M+03271MA1999999097041MD1999999+0101REMSYN082AAXX  19004 82784 32995 01803 10252 20149 39704 40173 333 10327 29054 55096 58010;EQDQ01  00002PRCP06
0186827840999992004081912004-07320-039300FM-12+040999999V0201401N003112200019N0200001N1+02641+01831101971ADDAA106000091GF102991011011008001001091KA1240N+02001MA1999999097281MD1999999+0041REMSYN076AAXX  19124 82784 32598 21406 10264 20183 39728 40197 81109 333 20200 58004;EQDQ01  00002PRCP06
0167827840999992004081918004-07320-039300FM-12+040999999V0201801N003110075019N0200001N1+03241+01501101461ADDAA106000091GF105991051021008001001001MA1999999096811MD1999999+0071REMSYN070AAXX  19184 82784 32598 51806 10324 20150 39681 40146 85200 333 58007;EQDQ01  00002PRCP06
0198827840999992004082000004-07320-039300FM-12+040999999V0201401N001512200019N0020001N1+02571+01971101751ADDAA106000091GF102991021041008001001001KA1240M+03411MA1999999097071MD1999999+0031REMSYN088AAXX  20004 82784 32595 21403 10257 20197 39707 40175 82400 333 10341 29058 55111 58003;EQDQ01  00002PRCP06
0186827840999992004082012004-07320-039300FM-12+040999999V0201401N003612200019N0200001N1+02531+01681101931ADDAA106000091GF101991011011008001001001KA1240N+02131MA1999999097241MD1999999-0041REMSYN076AAXX  20124 82784 32598 11407 10253 20168 39724 40193 81100 333 20213 59004;EQDQ01  00002PRCP06
0167827840999992004082018004-07320-039300FM-12+040999999V0201801N003112200019N0200001N1+03181+02011101241ADDAA106000091GF101991011011008001001001MA1999999096601MD1999999-0211REMSYN070AAXX  20184 82784 32598 11806 10318 20201 39660 40124 81100 333 59021;EQDQ01  00002PRCP06
0208827840999992004082100004-07320-039300FM-12+040999999V0201401N002112200019N0020001N1+02521+01521101661ADDAA106000091GA1001+999999999GF100991001001999999001001KA1240M+03311MA1999999096981MD1999999-0091REMSYN082AAXX  21004 82784 32995 01404 10252 20152 39698 40166 333 10331 29054 55110 59009;EQDQ01  00002PRCP06
0186827840999992004082112004-07320-039300FM-12+040999999V0201401N002110075019N0200001N1+02451+01791101861ADDAA106000091GF106991061021008001001001KA1240N+02001MA1999999097171MD1999999-0071REMSYN076AAXX  21124 82784 32598 61404 10245 20179 39717 40186 86200 333 20200 59007;EQDQ01  00002PRCP06
0167827840999992004082118004-07320-039300FM-12+040999999V0201401N003110075019N0200001N1+03111+01641101361ADDAA106000091GF106991061021008001001001MA1999999096701MD1999999+0101REMSYN070AAXX  21184 82784 32598 61406 10311 20164 39670 40136 86200 333 58010;EQDQ01  00002PRCP06
0208827840999992004082200004-07320-039300FM-12+040999999V0201801N002112200019N0020001N1+02361+01851101531ADDAA106000091GA1001+999999999GF100991001001999999001001KA1240M+03211MA1999999096851MD1999999-0131REMSYN082AAXX  22004 82784 32995 01804 10236 20185 39685 40153 333 10321 29064 55110 59013;EQDQ01  00002PRCP06
0186827840999992004082212004-07320-039300FM-12+040999999V0201401N002610075019N0200001N1+02651+01831101801ADDAA106000091GF106991061021008001001001KA1240N+02021MA1999999097111MD1999999-0061REMSYN076AAXX  22124 82784 32598 61405 10265 20183 39711 40180 86200 333 20202 59006;EQDQ01  00002PRCP06
0167827840999992004082218004-07320-039300FM-12+040999999V0201401N003110075019N0200001N1+02981+01921101301ADDAA106000091GF107991071021008001001001MA1999999096651MD1999999-0051REMSYN070AAXX  22184 82784 32598 71406 10298 20192 39665 40130 87200 333 59005;EQDQ01  00002PRCP06
0196827840999992004082312004-07320-039300FM-12+040999999V0200901N001512200019N0200001N1+02631+01671101791ADDAA106000091GA1001+999999999GF100991001001999999001001KA1240N+01871MA1999999097101MD1999999-0011REMSYN070AAXX  23124 82784 32998 00903 10263 20167 39710 40179 333 20187 59001;EQDQ01  00002PRCP06
0167827840999992004082318004-07320-039300FM-12+040999999V0200901N002610075019N0200001N1+03281+01821101291ADDAA106000091GF106991061021008001001001MA1999999096651MD1999999+0001REMSYN070AAXX  23184 82784 32598 60905 10328 20182 39665 40129 86200 333 58000;EQDQ01  00002PRCP06
0198827840999992004082400004-07320-039300FM-12+040999999V0200901N001012200019N0020001N1+02611+02191101621ADDAA106000091GF104991041021008001001001KA1240M+03531MA1999999096951MD1999999+0011REMSYN088AAXX  24004 82784 32595 40902 10261 20219 39695 40162 84200 333 10353 29064 55109 58001;EQDQ01  00002PRCP06
0186827840999992004082412004-07320-039300FM-12+040999999V0201801N001512200019N0200001N1+02561+02061101681ADDAA106000091GF102991021011008001001001KA1240N+01801MA1999999097081MD1999999-0021REMSYN076AAXX  24124 82784 32598 21803 10256 20206 39708 40168 82100 333 20180 59002;EQDQ01  00002PRCP06
0167827840999992004082418004-07320-039300FM-12+040999999V0201801N002112200019N0200001N1+03401+01931101161ADDAA106000091GF103991031011008001001001MA1999999096521MD1999999-0031REMSYN070AAXX  24184 82784 32598 31804 10340 20193 39652 40116 83100 333 59003;EQDQ01  00002PRCP06
0198827840999992004082500004-07320-039300FM-12+040999999V0201401N001512200019N0020001N1+02541+01811101371ADDAA106000091GF103991031021008001001001KA1240M+03581MA1999999096711MD1999999-0241REMSYN088AAXX  25004 82784 32595 31403 10254 20181 39671 40137 83200 333 10358 29061 55110 59024;EQDQ01  00002PRCP06
0186827840999992004082512004-07320-039300FM-12+040999999V0201401N001512200019N0200001N1+02601+02081101671ADDAA106000091GF104991041011008001001001KA1240N+01781MA1999999096981MD1999999-0101REMSYN076AAXX  25124 82784 32598 41403 10260 20208 39698 40167 84100 333 20178 59010;EQDQ01  00002PRCP06
0167827840999992004082518004-07317-039300FM-12+040999999V0201801N002612200019N0200001N1+03301+01801101081ADDAA106000091GF104991041011008001001001MA1999999096441MD1999999-0081REMSYN070AAXX  25184 82784 32598 41805 10330 20180 39644 40108 84100 333 59008;EQDQ01  00002PRCP06
0198827840999992004082600004-07317-039300FM-12+040999999V0201401N002112200019N0020001N1+02661+01621101431ADDAA106000091GF102991021011008001001001KA1240M+03521MA1999999096771MD1999999+0061REMSYN088AAXX  26004 82784 32595 21404 10266 20162 39677 40143 82100 333 10352 29055 55108 58006;EQDQ01  00002PRCP06
0186827840999992004082612004-07317-039300FM-12+040999999V0201801N002612200019N0200001N1+02601+01741101641ADDAA106000091GF102991011011008001001011KA1240N+01901MA1999999096971MD1999999-0011REMSYN076AAXX  26124 82784 32598 21805 10260 20174 39697 40164 81101 333 20190 59001;EQDQ01  00002PRCP06
0167827840999992004082618004-07317-039300FM-12+040999999V0201401N003612200019N0200001N1+03321+01741101071ADDAA106000091GF102991021011008001001001MA1999999096431MD1999999-0011REMSYN070AAXX  26184 82784 32598 21407 10332 20174 39643 40107 82100 333 59001;EQDQ01  00002PRCP06
0198827840999992004082700004-07317-039300FM-12+040999999V0201801N005112200019N0020001N1+02741+01761101331ADDAA106000091GF101991011011008001001001KA1240M+03421MA1999999096681MD1999999-0091REMSYN088AAXX  27004 82784 32595 11810 10274 20176 39668 40133 81100 333 10342 29052 55107 59009;EQDQ01  00002PRCP06
0186827840999992004082712004-07317-039300FM-12+040999999V0201401N002110075019N0200001N1+02481+01921101641ADDAA106000091GF106991061021008001001001KA1240N+02061MA1999999096971MD1999999+0001REMSYN076AAXX  27124 82784 32598 61404 10248 20192 39697 40164 86200 333 20206 58000;EQDQ01  00002PRCP06
0167827840999992004082718004-07317-039300FM-12+040999999V0203601N002610075019N0200001N1+03271+01781101071ADDAA106000091GF105991051011008001001001MA1999999096441MD1999999+0011REMSYN070AAXX  27184 82784 32598 53605 10327 20178 39644 40107 85100 333 58001;EQDQ01  00002PRCP06
0198827840999992004082800004-07317-039300FM-12+040999999V0201401N001010075019N0020001N1+02751+02071101411ADDAA106000091GF106991061021008001001001KA1240M+03451MA1999999096751MD1999999+0071REMSYN088AAXX  28004 82784 32595 61402 10275 20207 39675 40141 86200 333 10345 29061 55084 58007;EQDQ01  00002PRCP06
0186827840999992004082812004-07317-039300FM-12+040999999V0200901N002112200019N0200001N1+02581+01851101631ADDAA106000091GF101991011011008001001001KA1240N+01941MA1999999096961MD1999999-0011REMSYN076AAXX  28124 82784 32598 10904 10258 20185 39696 40163 81100 333 20194 59001;EQDQ01  00002PRCP06
0167827840999992004082818004-07320-039300FM-12+040999999V0200901N001512200019N0200001N1+03281+01701101051ADDAA106000091GF103991031011008001001001MA1999999096421MD1999999-0021REMSYN070AAXX  28184 82784 32598 30903 10328 20170 39642 40105 83100 333 59002;EQDQ01  00002PRCP06
0198827840999992004082900004-07320-039300FM-12+040999999V0202701N001012200019N0020001N1+02411+01971101301ADDAA106000091GF102991021021008001001001KA1240M+03441MA1999999096641MD1999999-0111REMSYN088AAXX  29004 82784 32595 22702 10241 20197 39664 40130 82200 333 10344 29064 55107 59011;EQDQ01  00002PRCP06
0186827840999992004082912004-07320-039300FM-12+040999999V0200501N001510075019N0200001N1+02441+01971101591ADDAA106000091GF108991081041008001999999KA1240N+01801MA1999999096901MD1999999-0061REMSYN076AAXX  29124 82784 32598 80503 10244 20197 39690 40159 884// 333 20180 59006;EQDQ01  00002PRCP06
0167827840999992004082918004-07320-039300FM-12+040999999V0200901N001012200019N0200001N1+03261+02241101061ADDAA106000091GF101991011021008001001001MA1999999096411MD1999999-0011REMSYN070AAXX  29184 82784 32598 10902 10326 20224 39641 40106 81200 333 59001;EQDQ01  00002PRCP06
0208827840999992004083000004-07320-039300FM-12+040999999V0201801N000512200019N0020001N1+02501+02171101351ADDAA106000091GA1001+999999999GF100991001001999999001001KA1240M+03371MA1999999096681MD1999999+0041REMSYN082AAXX  30004 82784 32995 01801 10250 20217 39668 40135 333 10337 29074 55068 58004;EQDQ01  00002PRCP06
0186827840999992004083012004-07317-039300FM-12+040999999V0200501N001510075019N0200001N1+02611+02061101601ADDAA106000091GF106991061021008001001001KA1240N+02001MA1999999096931MD1999999+0031REMSYN076AAXX  30124 82784 32598 60503 10261 20206 39693 40160 86200 333 20200 58003;EQDQ01  00002PRCP06
0167827840999992004083018004-07317-039300FM-12+040999999V0200901N002612200019N0200001N1+03341+01871101031ADDAA106000091GF101991011011008001001001MA1999999096391MD1999999-0021REMSYN070AAXX  30184 82784 32598 10905 10334 20187 39639 40103 81100 333 59002;EQDQ01  00002PRCP06
0198827840999992004083100004-07317-039300FM-12+040999999V0201401N001012200019N0020001N1+02641+02051101361ADDAA106000091GF102991021021008001001001KA1240M+03501MA1999999096701MD1999999+0021REMSYN088AAXX  31004 82784 32595 21402 10264 20205 39670 40136 82200 333 10350 29064 55092 58002;EQDQ01  00002PRCP06
0186827840999992004083112004-07317-039300FM-12+040999999V0200901N001510075019N0200001N1+02601+02251101721ADDAA106000091GF105991051021008001001001KA1240N+01941MA1999999097051MD1999999+0121REMSYN076AAXX  31124 82784 32598 50903 10260 20225 39705 40172 85200 333 20194 58012;EQDQ01  00002PRCP06
0167827840999992004083118004-07317-039300FM-12+040999999V0201801N003112200019N0200001N1+03381+01711101151ADDAA106000091GF101991011011008001001001MA1999999096531MD1999999+0141REMSYN070AAXX  31184 82784 32598 11806 10338 20171 39653 40115 81100 333 58014;EQDQ01  00002PRCP06
0208827840999992004090100004-07317-039300FM-12+040999999V0201401N003112200019N0020001N1+02701+01801101541ADDAA106000091GA1001+999999999GF100991001001999999001001KA1240M+03501MA1999999096881MD1999999+0181REMSYN082AAXX  01004 82784 32995 01406 10270 20180 39688 40154 333 10350 29058 55107 58018;EQDQ01  00002PRCP06
0186827840999992004090112004-07317-039300FM-12+040999999V0200901N002612200019N0200001N1+02571+01741101891ADDAA106000091GF101991011011008001001001KA1240N+01801MA1999999097211MD1999999+0161REMSYN076AAXX  01124 82784 32598 10905 10257 20174 39721 40189 81100 333 20180 58016;EQDQ01  00002PRCP06
0198827840999992004090200004-07317-039300FM-12+040999999V0201101N003112200019N0020001N1+02731+01441101591ADDAA106000091GF101991011011008001001001KA1240M+03371MA1999999096931MD1999999+0051REMSYN088AAXX  02004 82784 32595 11106 10273 20144 39693 40159 81100 333 10337 29046 55110 58005;EQDQ01  00002PRCP06
0186827840999992004090212004-07317-039300FM-12+040999999V0201801N003110075019N0200001N1+02561+01881101841ADDAA106000091GF107991071041008001001001KA1240N+02081MA1999999097161MD1999999-0051REMSYN076AAXX  02124 82784 32598 71806 10256 20188 39716 40184 87400 333 20208 59005;EQDQ01  00002PRCP06
0167827840999992004090218004-07317-039300FM-12+040999999V0201401N005110075019N0200001N1+02841+01821101451ADDAA106000091GF106991061041008001001001MA1999999096771MD1999999-0071REMSYN070AAXX  02184 82784 32598 61410 10284 20182 39677 40145 86400 333 59007;EQDQ01  00002PRCP06
0198827840999992004090300004-07317-039300FM-12+040999999V0201401N003112200019N0020001N1+02511+01741101651ADDAA106000091GF101991011021008001001001KA1240M+03041MA1999999096971MD1999999+0041REMSYN088AAXX  03004 82784 32595 11406 10251 20174 39697 40165 81200 333 10304 29061 55083 58004;EQDQ01  00002PRCP06
0186827840999992004090312004-07317-039300FM-12+040999999V0201801N004110075019N0200001N1+02571+01701101781ADDAA106000091GF106991061021008001001001KA1240N+02061MA1999999097181MD1999999+0021REMSYN076AAXX  03124 82784 32598 61808 10257 20170 39718 40178 86200 333 20206 58002;EQDQ01  00002PRCP06
0167827840999992004090318004-07317-039300FM-12+040999999V0201401N002610075019N0200001N1+03061+01581101361ADDAA106000091GF106991061021008001001001MA1999999096701MD1999999-0071REMSYN070AAXX  03184 82784 32598 61405 10306 20158 39670 40136 86200 333 59007;EQDQ01  00002PRCP06
0208827840999992004090400004-07317-039300FM-12+040999999V0201401N002612200019N0020001N1+02531+01711101531ADDAA106000091GA1001+999999999GF100991001001999999001001KA1240M+03171MA1999999096861MD1999999-0111REMSYN082AAXX  04004 82784 32995 01405 10253 20171 39686 40153 333 10317 29055 55105 59011;EQDQ01  00002PRCP06
0208827840999992004090500004-07317-039300FM-12+040999999V0201401N001512200019N0020001N1+02551+01851101391ADDAA106000091GA1001+999999999GF100991001001999999001001KA1240M+03411MA1999999096731MD1999999+0131REMSYN082AAXX  05004 82784 32995 01403 10255 20185 39673 40139 333 10341 29054 55108 58013;EQDQ01  00002PRCP06
0186827840999992004090512004-07317-039300FM-12+040999999V0201801N003112200019N0200001N1+02561+01661101541ADDAA106000091GF102991021011008001001001KA1240N+02041MA1999999096871MD1999999-0021REMSYN076AAXX  05124 82784 32598 21806 10256 20166 39687 40154 82100 333 20204 59002;EQDQ01  00002PRCP06
0167827840999992004090518004-07317-039300FM-12+040999999V0200901N002612200019N0200001N1+02561+01621101011ADDAA106000091GF103991031011008001001001MA1999999096411MD1999999-0041REMSYN070AAXX  05184 82784 32598 30905 10256 20162 39641 40101 83100 333 59004;EQDQ01  00002PRCP06
0208827840999992004090600004-07317-039300FM-12+040999999V0201401N003612200019N0020001N1+02561+01841101331ADDAA106000091GA1001+999999999GF100991001001999999001001KA1240M+03221MA1999999096671MD1999999-0061REMSYN082AAXX  06004 82784 32995 01407 10256 20184 39667 40133 333 10322 29057 55102 59006;EQDQ01  00002PRCP06
0196827840999992004090612004-07317-039300FM-12+040999999V0201401N002612200019N0020001N1+02481+01511101551ADDAA106000091GA1001+999999999GF100991001001999999001001KA1240N+01981MA1999999096871MD1999999+0001REMSYN070AAXX  06124 82784 32995 01405 10248 20151 39687 40155 333 20198 58000;EQDQ01  00002PRCP06
0208827840999992004090700004-07317-039300FM-12+040999999V0201401N003612200019N0020001N1+02561+01381101201ADDAA106000091GA1001+999999999GF100991001001999999001001KA1240M+03251MA1999999096541MD1999999-0131REMSYN082AAXX  07004 82784 32995 01407 10256 20138 39654 40120 333 10325 29047 55104 59013;EQDQ01  00002PRCP06
0186827840999992004090712004-07317-039300FM-12+040999999V0201801N003112200019N0200001N1+02561+01311101451ADDAA106000091GF104991041001017501001011KA1240N+02041MA1999999096781MD1999999-0091REMSYN076AAXX  07124 82784 32798 41806 10256 20131 39678 40145 84001 333 20204 59009;EQDQ01  00002PRCP06
0167827840999992004090718004-07317-039300FM-12+040999999V0201801N005112200019N0200001N1+03181+01261100911ADDAA106000091GF104991041001017501001011MA1999999096271MD1999999-0071REMSYN070AAXX  07184 82784 32798 41810 10318 20126 39627 40091 84001 333 59007;EQDQ01  00002PRCP06
0186827840999992004090812004-07317-039300FM-12+040999999V0201801N004110075019N0200001N1+02471+01711101411ADDAA106000091GF108991081021008001999999KA1240N+02081MA1999999096741MD1999999-0041REMSYN076AAXX  08124 82784 32598 81808 10247 20171 39674 40141 882// 333 20208 59004;EQDQ01  00002PRCP06
0167827840999992004090818004-07317-039300FM-12+040999999V0201401N004612200019N0200001N1+03121+01521100921ADDAA106000091GF101991011001008001001011MA1999999096281MD1999999+0011REMSYN070AAXX  08184 82784 32598 11409 10312 20152 39628 40092 81001 333 58001;EQDQ01  00002PRCP06
0208827840999992004090900004-07317-039300FM-12+040999999V0201401N002612200019N0020001N1+02561+01731101251ADDAA106000091GA1001+999999999GF100991001001999999001001KA1240M+03231MA1999999096591MD1999999+0031REMSYN082AAXX  09004 82784 32995 01405 10256 20173 39659 40125 333 10323 29055 55109 58003;EQDQ01  00002PRCP06
0186827840999992004090912004-07317-039300FM-12+040999999V0200901N003110075019N0200001N1+02581+01791101461ADDAA106000091GF108991081021008001999999KA1240N+02161MA1999999096791MD1999999+0051REMSYN076AAXX  09124 82784 32598 80906 10258 20179 39679 40146 882// 333 20216 58005;EQDQ01  00002PRCP06
0167827840999992004090918004-07317-039300FM-12+040999999V0201401N003112200019N0200001N1+03081+01711101011ADDAA106000091GF104991041021008001001001MA1999999096371MD1999999+0091REMSYN070AAXX  09184 82784 32598 41406 10308 20171 39637 40101 84200 333 58009;EQDQ01  00002PRCP06
0186827840999992004091012004-07317-039300FM-12+040999999V0200901N002610075019N0200001N1+02461+01811101871ADDAA106000091GF108991081041008001999999KA1240N+02021MA1999999098991MD1999999+0201REMSYN076AAXX  10124 82784 32598 80905 10246 20181 39899 40187 884// 333 20202 58020;EQDQ01  00002PRCP06
0199827840999992004091018004-07317-039300FM-12+040999999V0201401N002610075019N0200001N1+03171+01801101012ADDAA106000091GF105991051021008001001001MA1999999096372MD1999999+0001REMSYN070AAXX  10184 82784 32598 51405 10317 20180 39637 40101 85200 333 58000;EQDQ01+096373APOSP Q02+101013APOSLPQ03  00002PRCP06
0198827840999992004091100004-07317-039300FM-12+040999999V0201401N003112200019N0020001N1+02641+01851101341ADDAA106000091GF102991021021008001001001KA1240M+03321MA1999999096681MD1999999-0011REMSYN088AAXX  11004 82784 32595 21406 10264 20185 39668 40134 82200 333 10332 29059 55054 59001;EQDQ01  00002PRCP06
0186827840999992004091112004-07317-039300FM-12+040999999V0201401N003110075019N0200001N1+02541+01831101611ADDAA106000091GF107991071021008001001001KA1240N+02181MA1999999096941MD1999999-0051REMSYN076AAXX  11124 82784 32598 71406 10254 20183 39694 40161 87200 333 20218 59005;EQDQ01  00002PRCP06
0167827840999992004091118004-07317-039300FM-12+040999999V0201801N003610075019N0200001N1+03061+01801101151ADDAA106000091GF106991061021008001001001MA1999999096501MD1999999+0131REMSYN070AAXX  11184 82784 32598 61807 10306 20180 39650 40115 86200 333 58013;EQDQ01  00002PRCP06
0208827840999992004091200004-07317-039300FM-12+040999999V0201801N002112200019N0020001N1+02411+01801101481ADDAA106000091GA1001+999999999GF100991001001999999001001KA1240M+03211MA1999999096801MD1999999+0121REMSYN082AAXX  12004 82784 32995 01804 10241 20180 39680 40148 333 10321 29062 55049 58012;EQDQ01  00002PRCP06
0186827840999992004091212004-07320-039300FM-12+040999999V0200901N003110075019N0200001N1+02611+01841101831ADDAA106000091GF107991071021008001001001KA1240N+02101MA1999999097141MD1999999+0201REMSYN076AAXX  12124 82784 32598 70906 10261 20184 39714 40183 87200 333 20210 58020;EQDQ01  00002PRCP06
0167827840999992004091218004-07317-039300FM-12+040999999V0201401N003110075019N0200001N1+03281+01701101211ADDAA106000091GF105991051021008001001001MA1999999096571MD1999999+0071REMSYN070AAXX  12184 82784 32598 51406 10328 20170 39657 40121 85200 333 58007;EQDQ01  00002PRCP06
0208827840999992004091300004-07317-039300FM-12+040999999V0200901N003112200019N0020001N1+02611+01601101601ADDAA106000091GA1001+999999999GF100991001001999999001001KA1240M+03471MA1999999096931MD1999999+0131REMSYN082AAXX  13004 82784 32995 00906 10261 20160 39693 40160 333 10347 29052 55087 58013;EQDQ01  00002PRCP06
0186827840999992004091312004-07317-039300FM-12+040999999V0201401N003110450019N0200001N1+02591+01821101961ADDAA106000091GF105991031021008001021001KA1240N+02041MA1999999097271MD1999999+0131REMSYN076AAXX  13124 82784 32598 51406 10259 20182 39727 40196 83220 333 20204 58013;EQDQ01  00002PRCP06
0167827840999992004091318004-07317-039300FM-12+040999999V0201401N002612200019N0200001N1+03101+01801101331ADDAA106000091GF104991031011008001041001MA1999999096671MD1999999+0101REMSYN070AAXX  13184 82784 32598 41405 10310 20180 39667 40133 83140 333 58010;EQDQ01  00002PRCP06
0168827840999992004091400004-07317-039300FM-12+040999999V0201401N002612200019N0020001N1+02591+01741999999ADDAA106000091GF102991999999008001999999KA1240M+03281REMSYN087AAXX  14004 82784 32595 21405 10259 20174 3992 40159 81120 333 10328 29056 55109 59001;EQDQ01  00002PRCP06
0186827840999992004091412004-07317-039300FM-12+040999999V0201401N003112200019N0200001N1+02661+01561102951ADDAA106000091GF102991021011008001001001KA1240N+01901MA1999999098221MD1999999-0051REMSYN076AAXX  14124 82784 32598 21406 10266 20156 39822 40295 82100 333 20190 59005;EQDQ01  00002PRCP06
0199827840999992004091418004-07317-039300FM-12+040999999V0201401N001512200019N0200001N1+03251+01711101332ADDAA106000091GF103991031011008001001001MA1999999096682MD1999999+0011REMSYN070AAXX  14184 82784 32598 31403 10325 20171 39668 40133 83100 333 58001;EQDQ01+096683APOSP Q02+101333APOSLPQ03  00002PRCP06
0198827840999992004091500004-07317-039300FM-12+040999999V0201401N001512200019N0020001N1+02751+01691101561ADDAA106000091GF102991021021008001001001KA1240M+03451MA1999999096901MD1999999-0021REMSYN088AAXX  15004 82784 32595 21403 10275 20169 39690 40156 82200 333 10345 29049 55107 59002;EQDQ01  00002PRCP06
0186827840999992004091512004-07317-039300FM-12+040999999V0201401N002110075019N0200001N1+02641+01751102911ADDAA106000091GF105991051011008001001001KA1240N+02001MA1999999098191MD1999999-0031REMSYN076AAXX  15124 82784 32598 51404 10264 20175 39819 40291 85100 333 20200 59003;EQDQ01  00002PRCP06
0199827840999992004091518004-07317-039300FM-12+040999999V0201801N003112200019N0200001N1+03101+01501101202ADDAA106000091GF104991041011008001001001MA1999999096552MD1999999-0131REMSYN070AAXX  15184 82784 32598 41806 10310 20150 39655 40120 84100 333 59013;EQDQ01+096553APOSP Q02+101203APOSLPQ03  00002PRCP06
0214827840999992004091600004-07317-039300FM-12+040999999V0201401N002612200019N0020001N1+02661+01401101461ADDAA106000091GF101991999011017501001001KA1240M+03371MA1999999096801MD1999999-0101REMSYN088AAXX  16004 82784 32795 11405 10266 20140 39680 40146 82100 333 10337 29047 55099 59010;EQDQ01+000022SCOTLCQ02  00002PRCP06
0196827840999992004091612004-07317-039300FM-12+040999999V0201801N000512200019N0200001N1+02641+01601101581ADDAA106000091GA1001+999999999GF100991001001999999001001KA1240N+01841MA1999999096921MD1999999-0271REMSYN070AAXX  16124 82784 32998 01801 10264 20160 39692 40158 333 20184 59027;EQDQ01  00002PRCP06
0167827840999992004091618004-07317-039300FM-12+040999999V0201401N003112200019N0200001N1+03301+01411101081ADDAA106000091GF101991011011008001001001MA1999999096471MD1999999-0101REMSYN070AAXX  16184 82784 32598 11406 10330 20141 39647 40108 81100 333 59010;EQDQ01  00002PRCP06
0208827840999992004091700004-07317-039300FM-12+040999999V0201401N002612200019N0020001N1+02711+01521101411ADDAA106000091GA1001+999999999GF100991001001999999001001KA1240M+03491MA1999999096751MD1999999-0051REMSYN082AAXX  17004 82784 32995 01405 10271 20152 39675 40141 333 10349 29045 55109 59005;EQDQ01  00002PRCP06
0186827840999992004091712004-07317-039300FM-12+040999999V0201801N002112200019N0200001N1+02671+01921101731ADDAA106000091GF102991021011008001001001KA1240N+01961MA1999999097061MD1999999+0141REMSYN076AAXX  17124 82784 32598 21804 10267 20192 39706 40173 82100 333 20196 58014;EQDQ01  00002PRCP06
0167827840999992004091718004-07317-039300FM-12+040999999V0201801N003112200019N0200001N1+03361+01691101161ADDAA106000091GF103991031011008001001001MA1999999096521MD1999999+0071REMSYN070AAXX  17184 82784 32598 31806 10336 20169 39652 40116 83100 333 58007;EQDQ01  00002PRCP06
0208827840999992004091800004-07317-039300FM-12+040999999V0201401N002112200019N0020001N1+02811+01661101381ADDAA106000091GA1001+999999999GF100991001001999999001001KA1240M+03511MA1999999096741MD1999999-0011REMSYN082AAXX  18004 82784 32995 01404 10281 20166 39674 40138 333 10351 29050 55105 59001;EQDQ01  00002PRCP06
0167827840999992004091818004-07317-039300FM-12+040999999V0201401N003612200019N0200001N1+03181+01531101181ADDAA106000091GF101991011021008001001001MA1999999096541MD1999999+0021REMSYN070AAXX  18184 82784 32598 11407 10318 20153 39654 40118 81200 333 58002;EQDQ01  00002PRCP06
0208827840999992004091900004-07320-039300FM-12+040999999V0201401N002112200019N0020001N1+02671+01651101461ADDAA106000091GA1001+999999999GF100991001001999999001001KA1240M+03371MA1999999096801MD1999999+0061REMSYN082AAXX  19004 82784 32995 01404 10267 20165 39680 40146 333 10337 29050 55103 58006;EQDQ01  00002PRCP06
0186827840999992004091912004-07320-039300FM-12+040999999V0201801N004110120019N0200001N1+02571+01721101741ADDAA106000091GF108991081081008001999999KA1240N+02141MA1999999097061MD1999999-0021REMSYN076AAXX  19124 82784 32598 81808 10257 20172 39706 40174 888// 333 20214 59002;EQDQ01  00002PRCP06
0167827840999992004091918004-07320-039300FM-12+040999999V0201401N003610075019N0200001N1+03041+01711101171ADDAA106000091GF106991061021008001001001MA1999999096521MD1999999-0021REMSYN070AAXX  19184 82784 32598 61407 10304 20171 39652 40117 86200 333 59002;EQDQ01  00002PRCP06
0208827840999992004092000004-07320-039300FM-12+040999999V0200901N001012200019N0020001N1+02631+01701101381ADDAA106000091GA1001+999999999GF100991001001999999001001KA1240M+03191MA1999999096721MD1999999-0081REMSYN082AAXX  20004 82784 32995 00902 10263 20170 39672 40138 333 10319 29054 55047 59008;EQDQ01  00002PRCP06
0186827840999992004092012004-07317-039300FM-12+040999999V0201401N003110450019N0200001N1+02741+01811101591ADDAA106000091GF106991011011008001021001KA1240N+02051MA1999999096931MD1999999-0131REMSYN076AAXX  20124 82784 32598 61406 10274 20181 39693 40159 81120 333 20205 59013;EQDQ01  00002PRCP06
0167827840999992004092018004-07317-039300FM-12+040999999V0200901N002112200019N0200001N1+03261+01331101041ADDAA106000091GF101991011011008001001001MA1999999096411MD1999999-0111REMSYN070AAXX  20184 82784 32598 10904 10326 20133 39641 40104 81100 333 59011;EQDQ01  00002PRCP06
0208827840999992004092100004-07317-039300FM-12+040999999V0201401N002112200019N0020001N1+02721+01651101351ADDAA106000091GA1001+999999999GF100991001001999999001001KA1240M+03491MA1999999096711MD1999999-0011REMSYN082AAXX  21004 82784 32995 01404 10272 20165 39671 40135 333 10349 29048 55107 59001;EQDQ01  00002PRCP06
0186827840999992004092112004-07317-039300FM-12+040999999V0201801N003112200019N0200001N1+02641+01851101701ADDAA106000091GF104991041021008001001001KA1240N+02071MA1999999097041MD1999999+0111REMSYN076AAXX  21124 82784 32598 41806 10264 20185 39704 40170 84200 333 20207 58011;EQDQ01  00002PRCP06
0167827840999992004092118004-07317-039300FM-12+040999999V0200901N003112200019N0200001N1+03161+01791101181ADDAA106000091GF104991041021008001001001MA1999999096541MD1999999+0131REMSYN070AAXX  21184 82784 32598 40906 10316 20179 39654 40118 84200 333 58013;EQDQ01  00002PRCP06
0198827840999992004092200004-07317-039300FM-12+040999999V0201801N001510075019N0020001N1+02541+02151101471ADDAA106000091GF106991061041008001001001KA1240M+03401MA1999999096811MD1999999+0101REMSYN088AAXX  22004 82784 32595 61803 10254 20215 39681 40147 86400 333 10340 29066 55094 58010;EQDQ01  00002PRCP06
0186827840999992004092212004-07317-039300FM-12+040999999V0200901N002110075019N0200001N1+02681+02021101821ADDAA106000091GF108991081021008001999999KA1240N+02381MA1999999097141MD1999999+0101REMSYN076AAXX  22124 82784 32598 80904 10268 20202 39714 40182 882// 333 20238 58010;EQDQ01  00002PRCP06
0167827840999992004092218004-07317-039300FM-12+040999999V0201401N003110075019N0200001N1+03141+02041101331ADDAA106000091GF108991081021008001999999MA1999999096691MD1999999+0151REMSYN070AAXX  22184 82784 32598 81406 10314 20204 39669 40133 882// 333 58015;EQDQ01  00002PRCP06
0198827840999992004092300004-07317-039300FM-12+040999999V0200901N001510075019N0020001N1+02581+02061101721ADDAA106000091GF106991061041008001001001KA1240M+03311MA1999999097051MD1999999+0241REMSYN088AAXX  23004 82784 32595 60903 10258 20206 39705 40172 86400 333 10331 29066 55040 58024;EQDQ01  00002PRCP06
0186827840999992004092312004-07317-039300FM-12+040999999V0201401N002610075019N0200001N1+02621+01861101861ADDAA106000091GF106991061021008001001001KA1240N+02301MA1999999097181MD1999999+0041REMSYN076AAXX  23124 82784 32598 61405 10262 20186 39718 40186 86200 333 20230 58004;EQDQ01  00002PRCP06
0167827840999992004092318004-07317-039300FM-12+040999999V0201801N003110075019N0200001N1+03141+01911101291ADDAA106000091GF107991071021008001001001MA1999999096651MD1999999-0041REMSYN070AAXX  23184 82784 32598 71806 10314 20191 39665 40129 87200 333 59004;EQDQ01  00002PRCP06
0208827840999992004092400004-07317-039300FM-12+040999999V0200901N001512200019N0020001N1+02611+01961101511ADDAA106000091GA1001+999999999GF100991001001999999001001KA1240M+03281MA1999999096851MD1999999-0201REMSYN082AAXX  24004 82784 32995 00903 10261 20196 39685 40151 333 10328 29062 55064 59020;EQDQ01  00002PRCP06
0186827840999992004092412004-07317-039300FM-12+040999999V0201401N002610075019N0200001N1+02561+01731101791ADDAA106000091GF106991061021008001001001KA1240N+02121MA1999999097111MD1999999-0071REMSYN076AAXX  24124 82784 32598 61405 10256 20173 39711 40179 86200 333 20212 59007;EQDQ01  00002PRCP06
0167827840999992004092418004-07317-039300FM-12+040999999V0200901N003110075019N0200001N1+03251+01821101131ADDAA106000091GF106991061011008001001001MA1999999096491MD1999999-0161REMSYN070AAXX  24184 82784 32598 60906 10325 20182 39649 40113 86100 333 59016;EQDQ01  00002PRCP06
0198827840999992004092500004-07317-039300FM-12+040999999V0201801N004112200019N0020001N1+02691+01881101411ADDAA106000091GF101991011011008001001001KA1240M+03391MA1999999096751MD1999999-0101REMSYN088AAXX  25004 82784 32595 11808 10269 20188 39675 40141 81100 333 10339 29056 55094 59010;EQDQ01  00002PRCP06
0186827840999992004092512004-07317-039300FM-12+040999999V0201401N002610075019N0200001N1+02641+01801101631ADDAA106000091GF105991051011008001001001KA1240N+02041MA1999999096961MD1999999-0151REMSYN076AAXX  25124 82784 32598 51405 10264 20180 39696 40163 85100 333 20204 59015;EQDQ01  00002PRCP06
0167827840999992004092518004-07317-039300FM-12+040999999V0201401N003610075019N0200001N1+03241+01751101061ADDAA106000091GF105991051011008001001001MA1999999096431MD1999999-0061REMSYN070AAXX  25184 82784 32598 51407 10324 20175 39643 40106 85100 333 59006;EQDQ01  00002PRCP06
0198827840999992004092600004-07317-039300FM-12+040999999V0200901N001012200019N0020001N1+02461+01711101331ADDAA106000091GF103991031011008001001001KA1240M+03411MA1999999096651MD1999999-0081REMSYN088AAXX  26004 82784 32595 30902 10246 20171 39665 40133 83100 333 10341 29057 55084 59008;EQDQ01  00002PRCP06
0186827840999992004092612004-07320-039300FM-12+040999999V0200901N002610075019N0200001N1+02701+01781101741ADDAA106000091GF106991061021008001001001KA1240N+02141MA1999999097061MD1999999+0101REMSYN076AAXX  26124 82784 32598 60905 10270 20178 39706 40174 86200 333 20214 58010;EQDQ01  00002PRCP06
0167827840999992004092618004-07320-039300FM-12+040999999V0201401N002110075019N0200001N1+03261+01801101681ADDAA106000091GF106991051021008001011001MA1999999097021MD1999999+0591REMSYN070AAXX  26184 82784 32598 61404 10326 20180 39702 40168 85210 333 58059;EQDQ01  00002PRCP06
0198827840999992004092700004-07320-039300FM-12+040999999V0201801N003610075019N0020001N1+02801+01601101421ADDAA106000091GF105991051011008001001001KA1240M+03461MA1999999096771MD1999999+0101REMSYN088AAXX  27004 82784 32595 51807 10280 20160 39677 40142 85100 333 10346 29049 55104 58010;EQDQ01  00002PRCP06
0186827840999992004092712004-07320-039300FM-12+040999999V0201801N002610075019N0200001N1+02741+01841101621ADDAA106000091GF106991061021008001001001KA1240N+02191MA1999999096961MD1999999-0101REMSYN076AAXX  27124 82784 32598 61805 10274 20184 39696 40162 86200 333 20219 59010;EQDQ01  00002PRCP06
0167827840999992004092718004-07317-039300FM-12+040999999V0201401N002110075019N0200001N1+03301+01801101161ADDAA106000091GF106991061021008001001001MA1999999096541MD1999999-0481REMSYN070AAXX  27184 82784 32598 61404 10330 20180 39654 40116 86200 333 59048;EQDQ01  00002PRCP06
0198827840999992004092800004-07317-039300FM-12+040999999V0201401N002612200019N0020001N1+02831+01681101421ADDAA106000091GF103991011021008001021091KA1240M+03431MA1999999096781MD1999999+0011REMSYN088AAXX  28004 82784 32595 31405 10283 20168 39678 40142 81229 333 10343 29050 55089 58001;EQDQ01  00002PRCP06
0186827840999992004092812004-07317-039300FM-12+040999999V0201401N002112200019N0200001N1+02751+01801101541ADDAA106000091GF101991011011008001001001KA1240N+02181MA1999999096891MD1999999-0071REMSYN076AAXX  28124 82784 32598 11404 10275 20180 39689 40154 81100 333 20218 59007;EQDQ01  00002PRCP06
0167827840999992004092818004-07317-039300FM-12+040999999V0201401N002612200019N0200001N1+03401+01811100881ADDAA106000091GF102991021011008001001001MA1999999096261MD1999999-0281REMSYN070AAXX  28184 82784 32598 21405 10340 20181 39626 40088 82100 333 59028;EQDQ01  00002PRCP06
0186827840999992004092912004-07317-039300FM-12+040999999V0201401N001512200019N0200001N1+02751+01801101461ADDAA106000091GF101991011021008001001001KA1240N+02141MA1999999096821MD1999999-0071REMSYN076AAXX  29124 82784 32598 11403 10275 20180 39682 40146 81200 333 20214 59007;EQDQ01  00002PRCP06
0167827840999992004092918004-07317-039300FM-12+040999999V0201801N002112200019N0200001N1+03501+01721100861ADDAA106000091GF102991021021008001001001MA1999999096251MD1999999-0011REMSYN070AAXX  29184 82784 32598 21804 10350 20172 39625 40086 82200 333 59001;EQDQ01  00002PRCP06
0198827840999992004093000004-07317-039300FM-12+040999999V0201401N002112200019N0020001N1+02821+01651101071ADDAA106000091GF101991011031008001001001KA1240M+03611MA1999999096451MD1999999-0111REMSYN088AAXX  30004 82784 32595 11404 10282 20165 39645 40107 81300 333 10361 29047 55110 59011;EQDQ01  00002PRCP06
0196827840999992004093012004-07317-039300FM-12+040999999V0200501N002612200019N0200001N1+02681+01811101331ADDAA106000091GA1001+999999999GF100991001001999999001001KA1240N+01991MA1999999096691MD1999999-0131REMSYN070AAXX  30124 82784 32998 00505 10268 20181 39669 40133 333 20199 59013;EQDQ01  00002PRCP06
0167827840999992004093018004-07317-039300FM-12+040999999V0200901N002612200019N0200001N1+03581+01551100801ADDAA106000091GF102991021021008001001001MA1999999096201MD1999999-0051REMSYN070AAXX  30184 82784 32598 20905 10358 20155 39620 40080 82200 333 59005;EQDQ01  00002PRCP06
0186827840999992004100112004-07317-039300FM-12+040999999V0200901N003110075019N0200001N1+02691+01811101521ADDAA106000091GF108991081021008001999999KA1240N+02201MA1999999096871MD1999999+0181REMSYN076AAXX  01124 82784 32598 80906 10269 20181 39687 40152 882// 333 20220 58018;EQDQ01  00002PRCP06
0167827840999992004100118004-07317-039300FM-12+040999999V0200901N002612200019N0200001N1+03321+01821100951ADDAA106000091GF102991021011008001001001MA1999999096331MD1999999+0131REMSYN070AAXX  01184 82784 32598 20905 10332 20182 39633 40095 82100 333 58013;EQDQ01  00002PRCP06
0198827840999992004100200004-07317-039300FM-12+040999999V0201801N005112200019N0020001N1+02781+01761101201ADDAA106000091GF102991021021008001001001KA1240M+03451MA1999999096561MD1999999+0091REMSYN088AAXX  02004 82784 32595 21810 10278 20176 39656 40120 82200 333 10345 29052 55105 58009;EQDQ01  00002PRCP06
0186827840999992004100212004-07317-039300FM-12+040999999V0200901N004112200019N0200001N1+02741+01761101481ADDAA106000091GF101991011021008001001001KA1240N+02201MA1999999096831MD1999999-0041REMSYN076AAXX  02124 82784 32598 10908 10274 20176 39683 40148 81200 333 20220 59004;EQDQ01  00002PRCP06
0167827840999992004100218004-07317-039300FM-12+040999999V0201801N003112200019N0200001N1+03411+01721100881ADDAA106000091GF102991021021008001001001MA1999999096271MD1999999-0061REMSYN070AAXX  02184 82784 32598 21806 10341 20172 39627 40088 82200 333 59006;EQDQ01  00002PRCP06
0198827840999992004100300004-07317-039300FM-12+040999999V0203601N000512200019N0020001N1+02731+02051101131ADDAA106000091GF101991011021008001001001KA1240M+03521MA1999999096501MD1999999-0061REMSYN088AAXX  03004 82784 32595 13601 10273 20205 39650 40113 81200 333 10352 29056 55107 59006;EQDQ01  00002PRCP06
0186827840999992004100312004-07317-039300FM-12+040999999V0201401N002110075019N0200001N1+02681+01841101441ADDAA106000091GF106991061011008001001001KA1240N+02381MA1999999096781MD1999999-0051REMSYN076AAXX  03124 82784 32598 61404 10268 20184 39678 40144 86100 333 20238 59005;EQDQ01  00002PRCP06
0167827840999992004100318004-07320-039300FM-12+040999999V0202301N002110075019N0200001N1+03201+01861100941ADDAA106000091GF106991061021008001001001MA1999999096321MD1999999+0051REMSYN070AAXX  03184 82784 32598 62304 10320 20186 39632 40094 86200 333 58005;EQDQ01  00002PRCP06
0198827840999992004100400004-07320-039300FM-12+040999999V0200901N001012200019N0020001N1+02581+01901101251ADDAA106000091GF102991021011999999001001KA1240M+03381MA1999999096631MD1999999+0131REMSYN088AAXX  04004 82784 32995 20902 10258 20190 39663 40125 82100 333 10338 29059 55096 58013;EQDQ01  00002PRCP06
0186827840999992004100412004-07317-039300FM-12+040999999V0200501N002112200019N0200001N1+02721+02051101411ADDAA106000091GF103991031021008001001001KA1240N+02191MA1999999096751MD1999999-0031REMSYN076AAXX  04124 82784 32598 30504 10272 20205 39675 40141 83200 333 20219 59003;EQDQ01  00002PRCP06
0167827840999992004100418004-07317-039300FM-12+040999999V0201401N001510075019N0200001N1+03461+01731100841ADDAA106000091GF106991061011008001001001MA1999999096231MD1999999-0091REMSYN070AAXX  04184 82784 32598 61403 10346 20173 39623 40084 86100 333 59009;EQDQ01  00002PRCP06
0198827840999992004100500004-07317-039300FM-12+040999999V0201401N002110075019N0020001N1+02921+01641101161ADDAA106000091GF105991051041008001001001KA1240M+03621MA1999999096531MD1999999-0101REMSYN088AAXX  05004 82784 32595 51404 10292 20164 39653 40116 85400 333 10362 29049 55110 59010;EQDQ01  00002PRCP06
0186827840999992004100512004-07317-039300FM-12+040999999V0201401N002610075019N0200001N1+02581+01921101381ADDAA106000091GF106991061021008001001001KA1240N+02301MA1999999096741MD1999999-0011REMSYN076AAXX  05124 82784 32598 61405 10258 20192 39674 40138 86200 333 20230 59001;EQDQ01  00002PRCP06
0167827840999992004100518004-07317-039300FM-12+040999999V0201401N003112200019N0200001N1+03501+01431100901ADDAA106000091GF105991021011008001001011MA1999999096301MD1999999+0031REMSYN070AAXX  05184 82784 32598 51406 10350 20143 39630 40090 82101 333 58003;EQDQ01  00002PRCP06
0208827840999992004100600004-07317-039300FM-12+040999999V0201801N002112200019N0020001N1+02771+01581101211ADDAA106000091GA1001+999999999GF100991001001999999001001KA1240M+03631MA1999999096561MD1999999+0031REMSYN082AAXX  06004 82784 32995 01804 10277 20158 39656 40121 333 10363 29048 55085 58003;EQDQ01  00002PRCP06
0186827840999992004100612004-07317-039300FM-12+040999999V0203601N003110075019N0200001N1+02601+01821101451ADDAA106000091GF107991051021008001011001KA1240N+02291MA1999999096801MD1999999+0061REMSYN076AAXX  06124 82784 32598 73606 10260 20182 39680 40145 85210 333 20229 58006;EQDQ01  00002PRCP06
0167827840999992004100618004-07317-039300FM-12+040999999V0200501N003112200019N0200001N1+03181+01841100931ADDAA106000091GF104991031011008001011001MA1999999096311MD1999999+0011REMSYN070AAXX  06184 82784 32598 40506 10318 20184 39631 40093 83110 333 58001;EQDQ01  00002PRCP06
0198827840999992004100700004-07317-039300FM-12+040999999V0202701N001012200019N0020001N1+02571+02061101211ADDAA106000091GF101991011001017501021001KA1240M+03391MA1999999096561MD1999999+0001REMSYN088AAXX  07004 82784 32795 12702 10257 20206 39656 40121 81020 333 10339 29063 55090 58000;EQDQ01  00002PRCP06
0186827840999992004100712004-07317-039300FM-12+040999999V0200901N002610042019N0200001N1+02681+01921101501ADDAA106000091GF108991081051004501999999KA1240N+02251MA1999999096841MD1999999+0041REMSYN076AAXX  07124 82784 32498 80905 10268 20192 39684 40150 885// 333 20225 58004;EQDQ01  00002PRCP06
0167827840999992004100718004-07317-039300FM-12+040999999V0200501N001510075019N0200001N1+03301+01841100861ADDAA106000091GF107991051011008001011001MA1999999096261MD1999999-0051REMSYN070AAXX  07184 82784 32598 70503 10330 20184 39626 40086 85110 333 59005;EQDQ01  00002PRCP06
0198827840999992004100800004-07317-039300FM-12+040999999V0201801N000512200019N0020001N1+02731+02141101211ADDAA106000091GF101991011001017501021001KA1240M+03411MA1999999096571MD1999999+0011REMSYN088AAXX  08004 82784 32795 11801 10273 20214 39657 40121 81020 333 10341 29061 55060 58001;EQDQ01  00002PRCP06
0186827840999992004100812004-07317-039300FM-12+040999999V0200901N003110075019N0200001N1+02491+01961101671ADDAA106000091GF108991081041008001999999KA1240N+02341MA1999999097001MD1999999+0161REMSYN076AAXX  08124 82784 32598 80906 10249 20196 39700 40167 884// 333 20234 58016;EQDQ01  00002PRCP06
0167827840999992004100818004-07317-039300FM-12+040999999V0200901N001512200019N0200001N1+03281+02071100961ADDAA106000091GF102991021021008001001001MA1999999096341MD1999999+0081REMSYN070AAXX  08184 82784 32598 20903 10328 20207 39634 40096 82200 333 58008;EQDQ01  00002PRCP06
0198827840999992004100900004-07317-039300FM-12+040999999V0201801N001012200019N0020001N1+02711+02121101281ADDAA106000091GF101991011001017501021001KA1240M+03401MA1999999096631MD1999999+0061REMSYN088AAXX  09004 82784 32795 11802 10271 20212 39663 40128 81020 333 10340 29066 55060 58006;EQDQ01  00002PRCP06
0186827840999992004100912004-07317-039300FM-12+040999999V0200901N003112200019N0200001N1+02681+01731101711ADDAA106000091GF103991021021008001031001KA1240N+02081MA1999999097051MD1999999+0061REMSYN076AAXX  09124 82784 32598 30906 10268 20173 39705 40171 82230 333 20208 58006;EQDQ01  00002PRCP06
0167827840999992004100918004-07317-039300FM-12+040999999V0200901N003110150019N0200001N1+03331+01541101051ADDAA106000091GF108991081001017501021999MA1999999096431MD1999999+0091REMSYN070AAXX  09184 82784 32798 80906 10333 20154 39643 40105 8802/ 333 58009;EQDQ01  00002PRCP06
0198827840999992004101000004-07317-039300FM-12+040999999V0209999C000012200019N0020001N1+02671+01821101351ADDAA106000091GF103991021021008001031001KA1240M+03501MA1999999096701MD1999999+0071REMSYN088AAXX  10004 82784 32595 30000 10267 20182 39670 40135 82230 333 10350 29052 55074 58007;EQDQ01  00002PRCP06
0186827840999992004101012004-07317-039300FM-12+040999999V0200901N003612200019N0200001N1+02741+01781101671ADDAA106000091GF101991011021008001001001KA1240N+02121MA1999999097011MD1999999-0041REMSYN076AAXX  10124 82784 32598 10907 10274 20178 39701 40167 81200 333 20212 59004;EQDQ01  00002PRCP06
0208827840999992004101100004-07317-039300FM-12+040999999V0209999C000012200019N0020001N1+02651+02201101311ADDAA106000091GA1001+999999999GF100991001001999999001001KA1240M+03511MA1999999096661MD1999999-0041REMSYN082AAXX  11004 82784 32595 00000 10265 20220 39666 40131 333 10351 29062 55110 59004;EQDQ01  00002PRCP06
0186827840999992004101112004-07320-039300FM-12+040999999V0201401N001512200019N0200001N1+02731+01811101591ADDAA106000091GF102991021011008001001001KA1240N+01901MA1999999096931MD1999999-0081REMSYN076AAXX  11124 82784 32598 21403 10273 20181 39693 40159 82100 333 20190 59008;EQDQ01  00002PRCP06
0177827840999992004101118004-07320-039300FM-12+040999999V0200501N004612200019N0200001N1+03461+01231100911ADDAA106000091GA1001+999999999GF100991001001999999001001MA1999999096291MD1999999-0151REMSYN064AAXX  11184 82784 32998 00509 10346 20123 39629 40091 333 59015;EQDQ01  00002PRCP06
0196827840999992004101212004-07317-039300FM-12+040999999V0200901N002612200019N0200001N1+02721+01951101531ADDAA106000091GA1001+999999999GF100991001001999999001001KA1240N+01851MA1999999096871MD1999999-0051REMSYN070AAXX  12124 82784 32998 00905 10272 20195 39687 40153 333 20185 59005;EQDQ01  00002PRCP06
0177827840999992004101218004-07317-039300FM-12+040999999V0200901N004612200019N0200001N1+03481+01471100811ADDAA106000091GA1001+999999999GF100991001001999999001001MA1999999096201MD1999999-0091REMSYN064AAXX  12184 82784 32998 00909 10348 20147 39620 40081 333 59009;EQDQ01  00002PRCP06
0208827840999992004101300004-07317-039300FM-12+040999999V0203201N001012200019N0020001N1+02611+01871101141ADDAA106000091GA1001+999999999GF100991001001999999001001KA1240M+03571MA1999999096501MD1999999-0071REMSYN082AAXX  13004 82784 32995 03202 10261 20187 39650 40114 333 10357 29055 55112 59007;EQDQ01  00002PRCP06
0186827840999992004101312004-07317-039300FM-12+040999999V0201401N002612200019N0200001N1+02721+01561101501ADDAA106000091GF101991011011008001001001KA1240N+02101MA1999999096841MD1999999-0031REMSYN076AAXX  13124 82784 32598 11405 10272 20156 39684 40150 81100 333 20210 59003;EQDQ01  00002PRCP06
0167827840999992004101318004-07317-039300FM-12+040999999V0201801N002612200019N0200001N1+03481+01521100881ADDAA106000091GF102991021001008001011001MA1999999096281MD1999999+0071REMSYN070AAXX  13184 82784 32598 21805 10348 20152 39628 40088 82010 333 58007;EQDQ01  00002PRCP06
0208827840999992004101400004-07317-039300FM-12+040999999V0203601N001512200019N0020001N1+02451+01691101181ADDAA106000091GA1001+999999999GF100991001001999999001001KA1240M+03571MA1999999096531MD1999999+0031REMSYN082AAXX  14004 82784 32995 03603 10245 20169 39653 40118 333 10357 29052 55112 58003;EQDQ01  00002PRCP06
0186827840999992004101412004-07317-039300FM-12+040999999V0201401N001012200019N0200001N1+02701+01891101491ADDAA106000091GF104991041011008001001001KA1240N+02181MA1999999096821MD1999999-0021REMSYN076AAXX  14124 82784 32598 41402 10270 20189 39682 40149 84100 333 20218 59002;EQDQ01  00002PRCP06
0167827840999992004101418004-07317-039300FM-12+040999999V0201401N002112200019N0200001N1+03391+01851101031ADDAA106000091GF104991041011008001001001MA1999999096411MD1999999+0141REMSYN070AAXX  14184 82784 32598 41404 10339 20185 39641 40103 84100 333 58014;EQDQ01  00002PRCP06
0198827840999992004101500004-07317-039300FM-12+040999999V0201801N001012200019N0020001N1+02601+01961101171ADDAA106000091GF102991021011008001001001KA1240M+03541MA1999999096531MD1999999+0001REMSYN088AAXX  15004 82784 32595 21802 10260 20196 39653 40117 82100 333 10354 29060 55101 58000;EQDQ01  00002PRCP06
0186827840999992004101512004-07317-039300FM-12+040999999V0201401N003112200019N0200001N1+02781+01821101461ADDAA106000091GF102991021011008001001001KA1240N+02101MA1999999096811MD1999999-0011REMSYN076AAXX  15124 82784 32598 21406 10278 20182 39681 40146 82100 333 20210 59001;EQDQ01  00002PRCP06
0198827840999992004101600004-07317-039300FM-12+040999999V0201401N002110075019N0020001N1+03111+01601101211ADDAA106000091GF108991081041008001001001KA1240M+03681MA1999999096591MD1999999+0061REMSYN088AAXX  16004 82784 32595 81404 10311 20160 39659 40121 88400 333 10368 29043 55111 58006;EQDQ01  00002PRCP06
0186827840999992004101612004-07320-039300FM-12+040999999V0201401N002612200019N0200001N1+02791+01871101461ADDAA106000091GF102991021011008001001001KA1240N+02411MA1999999096781MD1999999-0031REMSYN076AAXX  16124 82784 32598 21405 10279 20187 39678 40146 82100 333 20241 59003;EQDQ01  00002PRCP06
0167827840999992004101618004-07320-039300FM-12+040999999V0201401N003110075019N0200001N1+03541+01621100841ADDAA106000091GF106991061011008001001001MA1999999096241MD1999999-0011REMSYN070AAXX  16184 82784 32598 61406 10354 20162 39624 40084 86100 333 59001;EQDQ01  00002PRCP06
0198827840999992004101700004-07320-039300FM-12+040999999V0201801N003110120019N0020001N1+02971+01591101141ADDAA106000091GF106991061081008001001001KA1240M+03541MA1999999096521MD1999999-0071REMSYN088AAXX  17004 82784 32595 61806 10297 20159 39652 40114 86800 333 10354 29044 55105 59007;EQDQ01  00002PRCP06
0186827840999992004101712004-07320-039300FM-12+040999999V0201401N003112200019N0200001N1+02801+01601101441ADDAA106000091GF102991021001017501001011KA1240N+02241MA1999999096811MD1999999+0031REMSYN076AAXX  17124 82784 32798 21406 10280 20160 39681 40144 82001 333 20224 58003;EQDQ01  00002PRCP06
0167827840999992004101718004-07320-039300FM-12+040999999V0201801N003110075019N0200001N1+03481+01711100781ADDAA106000091GF106991061011008001001001MA1999999096181MD1999999-0061REMSYN070AAXX  17184 82784 32598 61806 10348 20171 39618 40078 86100 333 59006;EQDQ01  00002PRCP06
0192827840999992004101800004-07317-039300FM-12+040999999V0201401N001512200019N0020001N1+02761+01661999999ADDAA106000091GA1001+999999999GF100991001001999999001001KA1240M+03611MA1999999096421REMSYN080AAXX  18004 82784 32995 01403 10276 20166 39642 404 333 10361 29046 55110 59010;EQDQ01  00002PRCP06
0196827840999992004101812004-07317-039300FM-12+040999999V0200501N002612200019N0200001N1+02811+01431101441ADDAA106000091GA1001+999999999GF100991001001999999001001KA1240N+01861MA1999999096801MD1999999-0011REMSYN070AAXX  18124 82784 32998 00505 10281 20143 39680 40144 333 20186 59001;EQDQ01  00002PRCP06
0167827840999992004101818004-07317-039300FM-12+040999999V0200901N003112200019N0200001N1+03501+01381100931ADDAA106000091GF101991011011008001001001MA1999999096311MD1999999+0131REMSYN070AAXX  18184 82784 32598 10906 10350 20138 39631 40093 81100 333 58013;EQDQ01  00002PRCP06
0198827840999992004101900004-07317-039300FM-12+040999999V0203601N000510075019N0020001N1+02801+01901101151ADDAA106000091GF105991051041008001001001KA1240M+03611MA1999999096521MD1999999+0101REMSYN088AAXX  19004 82784 32595 53601 10280 20190 39652 40115 85400 333 10361 29047 55114 58010;EQDQ01  00002PRCP06
0186827840999992004101912004-07317-039300FM-12+040999999V0200901N003112200019N0200001N1+02851+01931101371ADDAA106000091GF101991011001017501021001KA1240N+02301MA1999999096731MD1999999-0071REMSYN076AAXX  19124 82784 32798 10906 10285 20193 39673 40137 81020 333 20230 59007;EQDQ01  00002PRCP06
0167827840999992004101918004-07317-039300FM-12+040999999V0200901N002610075019N0200001N1+03521+01741100891ADDAA106000091GF105991051011008001001001MA1999999096291MD1999999-0021REMSYN070AAXX  19184 82784 32598 50905 10352 20174 39629 40089 85100 333 59002;EQDQ01  00002PRCP06
0198827840999992004102000004-07317-039300FM-12+040999999V0201801N001512200019N0020001N1+02961+01781101241ADDAA106000091GF102991021041008001001001KA1240M+03591MA1999999096621MD1999999+0101REMSYN088AAXX  20004 82784 32595 21803 10296 20178 39662 40124 82400 333 10359 29048 55111 58010;EQDQ01  00002PRCP06
0186827840999992004102012004-07317-039300FM-12+040999999V0200501N003112200019N0200001N1+02721+01981101441ADDAA106000091GF101991011011008001001001KA1240N+02241MA1999999096801MD1999999+0071REMSYN076AAXX  20124 82784 32598 10506 10272 20198 39680 40144 81100 333 20224 58007;EQDQ01  00002PRCP06
0167827840999992004102018004-07317-039300FM-12+040999999V0200901N001512200019N0200001N1+03481+02071100821ADDAA106000091GF102991021011008001001001MA1999999096221MD1999999-0071REMSYN070AAXX  20184 82784 32598 20903 10348 20207 39622 40082 82100 333 59007;EQDQ01  00002PRCP06
0198827840999992004102100004-07317-039300FM-12+040999999V0201801N001510120019N0020001N1+02891+02231101091ADDAA106000091GF106991061081008001001001KA1240M+03671MA1999999096461MD1999999-0161REMSYN088AAXX  21004 82784 32595 61803 10289 20223 39646 40109 86800 333 10367 29061 55112 59016;EQDQ01  00002PRCP06
0186827840999992004102112004-07317-039300FM-12+040999999V0200901N002610075019N0200001N1+02721+01901101491ADDAA106000091GF108991081021008001999999KA1240N+02421MA1999999096851MD1999999+0051REMSYN076AAXX  21124 82784 32598 80905 10272 20190 39685 40149 882// 333 20242 58005;EQDQ01  00002PRCP06
0167827840999992004102118004-07317-039300FM-12+040999999V0200901N001512200019N0200001N1+03321+01931100971ADDAA106000091GF103991031021008001001001MA1999999096351MD1999999+0131REMSYN070AAXX  21184 82784 32598 30903 10332 20193 39635 40097 83200 333 58013;EQDQ01  00002PRCP06
0198827840999992004102200004-07317-039300FM-12+040999999V0200901N001012200019N0020001N1+02881+01861101271ADDAA106000091GF102991011011008001021001KA1240M+03501MA1999999096641MD1999999+0181REMSYN088AAXX  22004 82784 32595 20902 10288 20186 39664 40127 81120 333 10350 29053 55082 58018;EQDQ01  00002PRCP06
0186827840999992004102212004-07317-039300FM-12+040999999V0201801N003612200019N0200001N1+02861+02011101451ADDAA106000091GF103991021021008001001091KA1240N+02341MA1999999096811MD1999999-0041REMSYN076AAXX  22124 82784 32598 31807 10286 20201 39681 40145 82209 333 20234 59004;EQDQ01  00002PRCP06
0167827840999992004102218004-07317-039300FM-12+040999999V0201801N004610150019N0200001N1+03381+01661100941ADDAA106000091GF108991081001017501021999MA1999999096331MD1999999-0021REMSYN070AAXX  22184 82784 32798 81809 10338 20166 39633 40094 8802/ 333 59002;EQDQ01  00002PRCP06
0186827840999992004102312004-07317-039300FM-12+040999999V0201801N004612200019N0200001N1+02651+01651101371ADDAA106000091GF102991021011008001001001KA1240N+02041MA1999999096721MD1999999-0091REMSYN076AAXX  23124 82784 32598 21809 10265 20165 39672 40137 82100 333 20204 59009;EQDQ01  00002PRCP06
0167827840999992004102318004-07317-039300FM-12+040999999V0201801N003112200019N0200001N1+03391+01501100731ADDAA106000091GF103991031011008001001001MA1999999096121MD1999999-0211REMSYN070AAXX  23184 82784 32598 31806 10339 20150 39612 40073 83100 333 59021;EQDQ01  00002PRCP06
0198827840999992004102400004-07317-039300FM-12+040999999V0201401N002112200019N0020001N1+02831+01741101131ADDAA106000091GF102991011011008001031001KA1240M+03551MA1999999096501MD1999999-0091REMSYN088AAXX  24004 82784 32595 21404 10283 20174 39650 40113 81130 333 10355 29048 55114 59009;EQDQ01  00002PRCP06
0186827840999992004102412004-07317-039300FM-12+040999999V0201801N001512200019N0200001N1+02801+01811101241ADDAA106000091GF102991021001012501051001KA1240N+02041MA1999999096611MD1999999+0111REMSYN076AAXX  24124 82784 32698 21803 10280 20181 39661 40124 82050 333 20204 58011;EQDQ01  00002PRCP06
0167827840999992004102418004-07317-039300FM-12+040999999V0201401N002110075019N0200001N1+03521+01791100761ADDAA106000091GF105991051011008001001001MA1999999096161MD1999999+0041REMSYN070AAXX  24184 82784 32598 51404 10352 20179 39616 40076 85100 333 58004;EQDQ01  00002PRCP06
0198827840999992004102500004-07317-039300FM-12+040999999V0201401N001012200019N0020001N1+02841+01731100931ADDAA106000091GF102991011011008001001011KA1240M+03611MA1999999096321MD1999999-0181REMSYN088AAXX  25004 82784 32595 21402 10284 20173 39632 40093 81101 333 10361 29048 55111 59018;EQDQ01  00002PRCP06
0186827840999992004102512004-07317-039300FM-12+040999999V0200501N002110075019N0200001N1+02641+01951101341ADDAA106000091GF106991061021008001001001KA1240N+02361MA1999999096701MD1999999+0111REMSYN076AAXX  25124 82784 32598 60504 10264 20195 39670 40134 86200 333 20236 58011;EQDQ01  00002PRCP06
0198827840999992004102600004-07317-039300FM-12+040999999V0203601N000512200019N0020001N1+02831+02101100951ADDAA106000091GF103991021001017501041091KA1240M+03521MA1999999096331MD1999999+0011REMSYN088AAXX  26004 82784 32795 33601 10283 20210 39633 40095 82049 333 10352 29060 55099 58001;EQDQ01  00002PRCP06
0186827840999992004102612004-07317-039300FM-12+040999999V0200501N002110075019N0200001N1+02741+01951101281ADDAA106000091GF105991051011008001001001KA1240N+02301MA1999999096651MD1999999-0071REMSYN076AAXX  26124 82784 32598 50504 10274 20195 39665 40128 85100 333 20230 59007;EQDQ01  00002PRCP06
0167827840999992004102618004-07317-039300FM-12+040999999V0203601N001510075019N0200001N1+03501+01771100851ADDAA106000091GF105991051011008001001001MA1999999096251MD1999999+0161REMSYN070AAXX  26184 82784 32598 53603 10350 20177 39625 40085 85100 333 58016;EQDQ01  00002PRCP06
0198827840999992004102700004-07317-039300FM-12+040999999V0201801N000510120019N0020001N1+02761+01861101161ADDAA106000091GF107991051081008001041001KA1240M+03601MA1999999096531MD1999999+0201REMSYN088AAXX  27004 82784 32595 71801 10276 20186 39653 40116 85840 333 10360 29054 55102 58020;EQDQ01  00002PRCP06
0186827840999992004102712004-07317-039300FM-12+040999999V0200901N002110075019N0200001N1+02721+01901101551ADDAA106000091GF106991061021008001001001KA1240N+02191MA1999999096891MD1999999+0241REMSYN076AAXX  27124 82784 32598 60904 10272 20190 39689 40155 86200 333 20219 58024;EQDQ01  00002PRCP06
0208827840999992004102800004-07317-039300FM-12+040999999V0209999C000012200019N0020001N1+02681+02221101331ADDAA106000091GA1001+999999999GF100991001001999999001001KA1240M+03431MA1999999096681MD1999999+0151REMSYN082AAXX  28004 82784 32995 00000 10268 20222 39668 40133 333 10343 29064 55082 58015;EQDQ01  00002PRCP06
0186827840999992004102812004-07317-039300FM-12+040999999V0200501N002110075019N0200001N1+02701+02131101551ADDAA106000091GF108991081021008001999999KA1240N+02231MA1999999096891MD1999999+0001REMSYN076AAXX  28124 82784 32598 80504 10270 20213 39689 40155 882// 333 20223 58000;EQDQ01  00002PRCP06
0167827840999992004102818004-07317-039300FM-12+040999999V0200901N002112200019N0200001N1+03371+01911100961ADDAA106000091GF103991031021008001001001MA1999999096341MD1999999+0021REMSYN070AAXX  28184 82784 32598 30904 10337 20191 39634 40096 83200 333 58002;EQDQ01  00002PRCP06
0208827840999992004102900004-07317-039300FM-12+040999999V0201801N000512200019N0020001N1+02661+02201101171ADDAA106000091GA1001+999999999GF100991001001999999001001KA1240M+03501MA1999999096531MD1999999-0151REMSYN082AAXX  29004 82784 32995 01801 10266 20220 39653 40117 333 10350 29066 55074 59015;EQDQ01  00002PRCP06
0196827840999992004102912004-07317-039300FM-12+040999999V0200901N003112200019N0200001N1+02851+01791101451ADDAA106000091GA1001+999999999GF100991001001999999001001KA1240N+02341MA1999999096801MD1999999-0091REMSYN070AAXX  29124 82784 32998 00906 10285 20179 39680 40145 333 20234 59009;EQDQ01  00002PRCP06
0167827840999992004102918004-07317-039300FM-12+040999999V0201801N003112200019N0200001N1+03581+01971100921ADDAA106000091GF104991041021008001001001MA1999999096321MD1999999-0021REMSYN070AAXX  29184 82784 32598 41806 10358 20197 39632 40092 84200 333 59002;EQDQ01  00002PRCP06
0198827840999992004103000004-07317-039300FM-12+040999999V0201401N002112200019N0020001N1+03101+01801101121ADDAA106000091GF103991031081008001001001KA1240M+03711MA1999999096511MD1999999-0021REMSYN088AAXX  30004 82784 32595 31404 10310 20180 39651 40112 83800 333 10371 29046 55102 59002;EQDQ01  00002PRCP06
0167827840999992004103018004-07317-039300FM-12+040999999V0200901N002112200019N0200001N1+03431+01911100961ADDAA106000091GF102991021021008001001001MA1999999096351MD1999999+0031REMSYN070AAXX  30184 82784 32598 20904 10343 20191 39635 40096 82200 333 58003;EQDQ01  00002PRCP06
0198827840999992004103100004-07320-039300FM-12+040999999V0209999C000010120019N0020001N1+02861+02281101231ADDAA106000091GF106991061081008001001001KA1240M+03571MA1999999096601MD1999999+0091REMSYN088AAXX  31004 82784 32595 60000 10286 20228 39660 40123 86800 333 10357 29061 55112 58009;EQDQ01  00002PRCP06
0196827840999992004103112004-07320-039300FM-12+040999999V0200901N003112200019N0200001N1+02861+01751101531ADDAA106000091GA1001+999999999GF100991001001999999001001KA1240N+02241MA1999999096891MD1999999+0021REMSYN070AAXX  31124 82784 32998 00906 10286 20175 39689 40153 333 20224 58002;EQDQ01  00002PRCP06
0167827840999992004103118004-07320-039300FM-12+040999999V0203601N001512200019N0200001N1+03401+01681100931ADDAA106000091GF102991021021008001001001MA1999999096331MD1999999-0021REMSYN070AAXX  31184 82784 32598 23603 10340 20168 39633 40093 82200 333 59002;EQDQ01  00002PRCP06
0198827840999992004110100004-07320-039300FM-12+040999999V0209999C000012200019N0200001N1+02721+02051101181ADDAA106000091GF101991011081008001001001KA1240M+03571MA1999999096551MD1999999-0051REMSYN088AAXX  01004 82784 32598 10000 10272 20205 39655 40118 81800 333 10357 29055 55105 59005;EQDQ01  00002PRCP06
0186827840999992004110112004-07320-039300FM-12+040999999V0200901N003112200019N0200001N1+02801+01921101541ADDAA106000091GF102991021011008001001001KA1240N+02211MA1999999096891MD1999999+0001REMSYN076AAXX  01124 82784 32598 20906 10280 20192 39689 40154 82100 333 20221 58000;EQDQ01  00002PRCP06
0167827840999992004110118004-07320-039300FM-12+040999999V0201401N001512200019N0200001N1+03491+01571100901ADDAA106000091GF102991021021008001001001MA1999999096311MD1999999-0021REMSYN070AAXX  01184 82784 32598 21403 10349 20157 39631 40090 82200 333 59002;EQDQ01  00002PRCP06
0198827840999992004110200004-07317-039300FM-12+040999999V0201401N000510120019N0020001N1+02741+01781101121ADDAA106000091GF105991051081008001001001KA1240M+03671MA1999999096491MD1999999-0061REMSYN088AAXX  02004 82784 32595 51401 10274 20178 39649 40112 85800 333 10367 29051 55114 59006;EQDQ01  00002PRCP06
0186827840999992004110212004-07317-039300FM-12+040999999V0201401N002612200019N0200001N1+02831+01741101271ADDAA106000091GF101991011011008001001001KA1240N+02181MA1999999096641MD1999999-0251REMSYN076AAXX  02124 82784 32598 11405 10283 20174 39664 40127 81100 333 20218 59025;EQDQ01  00002PRCP06
0167827840999992004110218004-07317-039300FM-12+040999999V0201801N002610075019N0200001N1+03501+01721100771ADDAA106000091GF106991061011008001001001MA1999999096171MD1999999-0141REMSYN070AAXX  02184 82784 32598 61805 10350 20172 39617 40077 86100 333 59014;EQDQ01  00002PRCP06
0198827840999992004110300004-07317-039300FM-12+040999999V0201401N003112200019N0020001N1+02951+01571100991ADDAA106000091GF101991011011008001001001KA1240M+03731MA1999999096381MD1999999-0111REMSYN088AAXX  03004 82784 32595 11406 10295 20157 39638 40099 81100 333 10373 29043 55112 59011;EQDQ01  00002PRCP06
0186827840999992004110312004-07317-039300FM-12+040999999V0201401N003112200019N0200001N1+02711+01541101361ADDAA106000091GF101991011011008001001001KA1240N+02041MA1999999096731MD1999999+0101REMSYN076AAXX  03124 82784 32598 11406 10271 20154 39673 40136 81100 333 20204 58010;EQDQ01  00002PRCP06
0167827840999992004110318004-07317-039300FM-12+040999999V0201401N002610075019N0200001N1+03431+01561100801ADDAA106000091GF105991051011008001001001MA1999999096191MD1999999+0021REMSYN070AAXX  03184 82784 32598 51405 10343 20156 39619 40080 85100 333 58002;EQDQ01  00002PRCP06
0198827840999992004110400004-07317-039300FM-12+040999999V0201801N001010075019N0020001N1+02901+02121101111ADDAA106000091GF105991051041008001001001KA1240M+03571MA1999999096481MD1999999+0101REMSYN088AAXX  04004 82784 32595 51802 10290 20212 39648 40111 85400 333 10357 29052 55103 58010;EQDQ01  00002PRCP06
0186827840999992004110412004-07317-039300FM-12+040999999V0200901N003112200019N0200001N1+02791+02041101331ADDAA106000091GF102991011011008001011001KA1240N+02091MA1999999096701MD1999999-0031REMSYN076AAXX  04124 82784 32598 20906 10279 20204 39670 40133 81110 333 20209 59003;EQDQ01  00002PRCP06
0167827840999992004110418004-07317-039300FM-12+040999999V0201401N002612200019N0200001N1+03561+01641100791ADDAA106000091GF104991041011008001001001MA1999999096191MD1999999+0001REMSYN070AAXX  04184 82784 32598 41405 10356 20164 39619 40079 84100 333 58000;EQDQ01  00002PRCP06
0198827840999992004110500004-07317-039300FM-12+040999999V0209999C000012200019N0020001N1+02801+02311101111ADDAA106000091GF102991021041008001001001KA1240M+03651MA1999999096481MD1999999+0001REMSYN088AAXX  05004 82784 32595 20000 10280 20231 39648 40111 82400 333 10365 29062 55114 58000;EQDQ01  00002PRCP06
0186827840999992004110512004-07317-039300FM-12+040999999V0201401N004112200019N0200001N1+02821+01651101381ADDAA106000091GF102991021011008001001001KA1240N+02021MA1999999096741MD1999999+0041REMSYN076AAXX  05124 82784 32598 21408 10282 20165 39674 40138 82100 333 20202 58004;EQDQ01  00002PRCP06
0167827840999992004110518004-07317-039300FM-12+040999999V0201401N002110075019N0200001N1+03401+01641100901ADDAA106000091GF106991061011008001001001MA1999999096291MD1999999+0101REMSYN070AAXX  05184 82784 32598 61404 10340 20164 39629 40090 86100 333 58010;EQDQ01  00002PRCP06
0198827840999992004110600004-07317-039300FM-12+040999999V0201801N001512200019N0020001N1+02641+01771101151ADDAA106000091GF102991021021008001001001KA1240M+03531MA1999999096521MD1999999+0041REMSYN088AAXX  06004 82784 32595 21803 10264 20177 39652 40115 82200 333 10353 29050 55114 58004;EQDQ01  00002PRCP06
0186827840999992004110612004-07317-039300FM-12+040999999V0201401N002110075019N0200001N1+02721+01881101351ADDAA106000091GF106991061021008001001001KA1240N+02101MA1999999096701MD1999999-0041REMSYN076AAXX  06124 82784 32598 61404 10272 20188 39670 40135 86200 333 20210 59004;EQDQ01  00002PRCP06
0199827840999992004110618004-07317-039300FM-12+040999999V0201801N002612200019N0200001N1+03461+01601100791ADDAA106000091GF103991021011008001011001MA1999999999999MD1999999-0111REMSYN070AAXX  06184 82784 32598 31805 10346 20160 39318 40079 82110 333 59011;EQDQ01+093183APOSP Q02  00002PRCP06Q03 093183APOSP 
0214827840999992004110700004-07317-039300FM-12+040999999V0209999C000012200019N0020001N1+02741+01951100951ADDAA106000091GF102991999021008001001001KA1240M+03581MA1999999096331MD1999999-0191REMSYN088AAXX  07004 82784 32595 20000 10274 20195 39633 40095 83200 333 10358 29054 55089 59019;EQDQ01+000032SCOTLCQ02  00002PRCP06
0186827840999992004110712004-07317-039300FM-12+040999999V0200901N002112200019N0200001N1+02981+02091101261ADDAA106000091GF102991021021008001001001KA1240N+02341MA1999999096641MD1999999-0061REMSYN076AAXX  07124 82784 32598 20904 10298 20209 39664 40126 82200 333 20234 59006;EQDQ01  00002PRCP06
0167827840999992004110718004-07317-039300FM-12+040999999V0201801N002112200019N0200001N1+03511+01791100741ADDAA106000091GF102991021021008001001001MA1999999096151MD1999999-0031REMSYN070AAXX  07184 82784 32598 21804 10351 20179 39615 40074 82200 333 59003;EQDQ01  00002PRCP06
0212827840999992004110800004-07320-039300FM-12+040999999V0209999C000012200019N0020001N1+02461+02231101141ADDAY161061AY201061GA1001+999999999GF100991001001999999001001KA1240M+03631MA1999999096501MD1999999+0171MW1011REMSYN094AAXX  08004 82784 21995 00000 10246 20223 39650 40114 70160 333 10363 29067 55111 58017 69961;
0190827840999992004110812004-07320-039300FM-12+040999999V0201401N002110075019N0200001N1+02741+02001101381ADDAY101061AY251061GF105991051021008001001001KA1240N+02201MA1999999096721MD1999999+0081MW1211REMSYN088AAXX  08124 82784 21598 51404 10274 20200 39672 40138 72105 85200 333 20220 58008 60034;
0148827840999992004110818004-07320-039300FM-12+040999999V0200901N003112200019N0200001N1+03431+01611100811ADDAA106000021GF103991031021008001001001MA1999999096201MD1999999+0051REMSYN070AAXX  08184 82784 32598 30906 10343 20161 39620 40081 83200 333 58005;
0208827840999992004110900004-07317-039300FM-12+040999999V0201401N004612200019N0020001N1+03011+01611101151ADDAA106000091GA1001+999999999GF100991001001999999001001KA1240M+03581MA1999999096531MD1999999+0031REMSYN082AAXX  09004 82784 32995 01409 10301 20161 39653 40115 333 10358 29046 55100 58003;EQDQ01  00002PRCP06
0186827840999992004110912004-07317-039300FM-12+040999999V0201801N003612200019N0200001N1+02771+01911101441ADDAA106000091GF101991011011008001001001KA1240N+02191MA1999999096811MD1999999-0091REMSYN076AAXX  09124 82784 32598 11807 10277 20191 39681 40144 81100 333 20219 59009;EQDQ01  00002PRCP06
0167827840999992004110918004-07317-039300FM-12+040999999V0201801N004612200019N0200001N1+03361+01691100861ADDAA106000091GF101991011021008001001001MA1999999096251MD1999999+0051REMSYN070AAXX  09184 82784 32598 11809 10336 20169 39625 40086 81200 333 58005;EQDQ01  00002PRCP06
0208827840999992004111000004-07317-039300FM-12+040999999V0201801N001512200019N0020001N1+02701+01511101191ADDAA106000091GA1001+999999999GF100991001001999999001001KA1240M+03491MA1999999096551MD1999999+0021REMSYN082AAXX  10004 82784 32995 01803 10270 20151 39655 40119 333 10349 29048 55112 58002;EQDQ01  00002PRCP06
0196827840999992004111012004-07317-039300FM-12+040999999V0200901N002612200019N0200001N1+02701+01801101371ADDAA106000091GA1001+999999999GF100991001001999999001001KA1240N+02011MA1999999096721MD1999999-0091REMSYN070AAXX  10124 82784 32998 00905 10270 20180 39672 40137 333 20201 59009;EQDQ01  00002PRCP06
0167827840999992004111018004-07317-039300FM-12+040999999V0200901N002612200019N0200001N1+03401+01641100821ADDAA106000091GF101991011011008001001001MA1999999096211MD1999999-0041REMSYN070AAXX  10184 82784 32598 10905 10340 20164 39621 40082 81100 333 59004;EQDQ01  00002PRCP06
0208827840999992004111100004-07317-039300FM-12+040999999V0201801N000512200019N0020001N1+02631+01981101161ADDAA106000091GA1001+999999999GF100991001001999999001001KA1240M+03561MA1999999096541MD1999999-0031REMSYN082AAXX  11004 82784 32995 01801 10263 20198 39654 40116 333 10356 29057 55116 59003;EQDQ01  00002PRCP06
0186827840999992004111112004-07317-039300FM-12+040999999V0200901N002612200019N0200001N1+02821+01711101331ADDAA106000091GF101991011001008001001051KA1240N+02171MA1999999096681MD1999999-0041REMSYN076AAXX  11124 82784 32598 10905 10282 20171 39668 40133 81005 333 20217 59004;EQDQ01  00002PRCP06
0167827840999992004111118004-07317-039300FM-12+040999999V0200901N002112200019N0200001N1+03471+02021100701ADDAA106000091GF101991011021008001001001MA1999999096111MD1999999-0011REMSYN070AAXX  11184 82784 32598 10904 10347 20202 39611 40070 81200 333 59001;EQDQ01  00002PRCP06
0208827840999992004111200004-07317-039300FM-12+040999999V0201801N001012200019N0020001N1+02641+01851100931ADDAA106000091GA1001+999999999GF100991001001999999001001KA1240M+03591MA1999999096311MD1999999-0211REMSYN082AAXX  12004 82784 32995 01802 10264 20185 39631 40093 333 10359 29054 55107 59021;EQDQ01  00002PRCP06
0186827840999992004111212004-07317-039300FM-12+040999999V0201401N002112200019N0200001N1+02821+01801101251ADDAA106000091GF102991011011008001001011KA1240N+02051MA1999999096611MD1999999-0071REMSYN076AAXX  12124 82784 32598 21404 10282 20180 39661 40125 81101 333 20205 59007;EQDQ01  00002PRCP06
0167827840999992004111218004-07320-039300FM-12+040999999V0201401N004612200019N0200001N1+03581+01501100621ADDAA106000091GF101991011011008001001001MA1999999096021MD1999999-0091REMSYN070AAXX  12184 82784 32598 11409 10358 20150 39602 40062 81100 333 59009;EQDQ01  00002PRCP06
0208827840999992004111300004-07320-039300FM-12+040999999V0200901N000512200019N0020001N1+02861+01981100951ADDAA106000091GA1001+999999999GF100991001001999999001001KA1240M+03691MA1999999096341MD1999999+0031REMSYN082AAXX  13004 82784 32995 00901 10286 20198 39634 40095 333 10369 29050 55116 58003;EQDQ01  00002PRCP06
0186827840999992004111312004-07320-039300FM-12+040999999V0203601N002110075019N0200001N1+02741+02051101161ADDAA106000091GF106991061021008001001001KA1240N+02341MA1999999096541MD1999999-0071REMSYN076AAXX  13124 82784 32598 63604 10274 20205 39654 40116 86200 333 20234 59007;EQDQ01  00002PRCP06
0167827840999992004111318004-07320-039300FM-12+040999999V0200501N003110075019N0200001N1+03451+01631100681ADDAA106000091GF106991061011008001001001MA1999999096091MD1999999+0071REMSYN070AAXX  13184 82784 32598 60506 10345 20163 39609 40068 86100 333 58007;EQDQ01  00002PRCP06
0198827840999992004111400004-07317-039300FM-12+040999999V0201801N001512200019N0020001N1+02901+01811100971ADDAA106000091GF102991021041008001001001KA1240M+03681MA1999999096351MD1999999+0011REMSYN088AAXX  14004 82784 32595 21803 10290 20181 39635 40097 82400 333 10368 29052 55101 58001;EQDQ01  00002PRCP06
0186827840999992004111412004-07317-039300FM-12+040999999V0200901N002112200019N0200001N1+02801+02031101251ADDAA106000091GF102991011011008001001011KA1240N+02131MA1999999096621MD1999999-0081REMSYN076AAXX  14124 82784 32598 20904 10280 20203 39662 40125 81101 333 20213 59008;EQDQ01  00002PRCP06
0198827840999992004111500004-07317-039300FM-12+040999999V0201401N001510042019N0020001N1+02961+01871100951ADDAA106000091GF106991061021004501001001KA1240M+03811MA1999999096341MD1999999-0011REMSYN088AAXX  15004 82784 32495 61403 10296 20187 39634 40095 86200 333 10381 29049 55109 59001;EQDQ01  00002PRCP06
0186827840999992004111512004-07317-039300FM-12+040999999V0201401N003110450019N0200001N1+02791+01721101431ADDAA106000091GF105991031021008001021001KA1240N+02181MA1999999096801MD1999999+0181REMSYN076AAXX  15124 82784 32598 51406 10279 20172 39680 40143 83220 333 20218 58018;EQDQ01  00002PRCP06
0167827840999992004111518004-07317-039300FM-12+040999999V0200901N002610075019N0200001N1+03471+01361100841ADDAA106000091GF105991051011008001001001MA1999999096241MD1999999+0161REMSYN070AAXX  15184 82784 32598 50905 10347 20136 39624 40084 85100 333 58016;EQDQ01  00002PRCP06
0198827840999992004111600004-07317-039300FM-12+040999999V0201801N001510075019N0020001N1+02801+01751101151ADDAA106000091GF105991051021008001001001KA1240M+03511MA1999999096521MD1999999+0181REMSYN088AAXX  16004 82784 32595 51803 10280 20175 39652 40115 85200 333 10351 29046 55110 58018;EQDQ01  00002PRCP06
0186827840999992004111612004-07317-039300FM-12+040999999V0201401N003619999999N0200001N1+02801+01461101481ADDAA106000091GF106991061001012501041011KA1240N+02081MA1999999096841MD1999999+0041REMSYN076AAXX  16124 82784 32698 61407 10280 20146 39684 40148 86041 333 20208 58004;EQDQ01  00002PRCP06
0208827840999992004111700004-07317-039300FM-12+040999999V0201801N001012200019N0020001N1+02681+01701101241ADDAA106000091GA1001+999999999GF100991001001999999001001KA1240M+03591MA1999999096601MD1999999+0081REMSYN082AAXX  17004 82784 32995 01802 10268 20170 39660 40124 333 10359 29045 55118 58008;EQDQ01  00002PRCP06
0186827840999992004111712004-07317-039300FM-12+040999999V0200501N002112200019N0200001N1+02771+01981101541ADDAA106000091GF101991011011008001001001KA1240N+01921MA1999999096881MD1999999+0041REMSYN076AAXX  17124 82784 32598 10504 10277 20198 39688 40154 81100 333 20192 58004;EQDQ01  00002PRCP06
0183827840999992004111718004-07317-039300FM-12+040999999V0200501N002112200019N0200001N1+03461+01601100102ADDAA106000091GF101991011001008001001051MA1999999096371MD1999999-0021REMSYN070AAXX  17184 82784 32598 10504 10346 20160 39637 40010 81005 333 59002;EQDQ01+100103APOSLPQ02  00002PRCP06
0198827840999992004111800004-07317-039300FM-12+040999999V0201401N001510075019N0020001N1+02661+01741101241ADDAA106000091GF106991061041008001001001KA1240M+03581MA1999999096601MD1999999+0001REMSYN088AAXX  18004 82784 32595 61403 10266 20174 39660 40124 86400 333 10358 29052 55116 58000;EQDQ01  00002PRCP06
0196827840999992004111812004-07317-039300FM-12+040999999V0200501N002612200019N0200001N1+02851+02091101431ADDAA106000091GA1001+999999999GF100991001001999999001001KA1240N+02011MA1999999096781MD1999999-0011REMSYN070AAXX  18124 82784 32998 00505 10285 20209 39678 40143 333 20201 59001;EQDQ01  00002PRCP06
0167827840999992004111818004-07317-039300FM-12+040999999V0200501N002612200019N0200001N1+03521+01651100871ADDAA106000091GF102991021011008001001001MA1999999096261MD1999999-0111REMSYN070AAXX  18184 82784 32598 20505 10352 20165 39626 40087 82100 333 59011;EQDQ01  00002PRCP06
0198827840999992004111900004-07317-039300FM-12+040999999V0201801N001012200019N0020001N1+02851+02011101141ADDAA106000091GF102991021011008001001001KA1240M+03651MA1999999096521MD1999999-0081REMSYN088AAXX  19004 82784 32595 21802 10285 20201 39652 40114 82100 333 10365 29055 55117 59008;EQDQ01  00002PRCP06
0196827840999992004111912004-07317-039300FM-12+040999999V0200901N003112200019N0200001N1+02841+01931101361ADDAA106000091GA1001+999999999GF100991001001999999001001KA1240N+02111MA1999999096731MD1999999-0051REMSYN070AAXX  19124 82784 32998 00906 10284 20193 39673 40136 333 20211 59005;EQDQ01  00002PRCP06
0167827840999992004111918004-07317-039300FM-12+040999999V0200901N002112200019N0200001N1+03541+01931100821ADDAA106000091GF101991011021008001001001MA1999999096211MD1999999-0051REMSYN070AAXX  19184 82784 32598 10904 10354 20193 39621 40082 81200 333 59005;EQDQ01  00002PRCP06
0208827840999992004112100004-07320-039300FM-12+040999999V0209999C000012200019N0020001N1+02851+02171101171ADDAA106000091GA1001+999999999GF100991001001999999001001KA1240M+03471MA1999999096531MD1999999+0041REMSYN082AAXX  21004 82784 32995 00000 10285 20217 39653 40117 333 10347 29062 55072 58004;EQDQ01  00002PRCP06
0186827840999992004112112004-07320-039300FM-12+040999999V0203601N002110075019N0200001N1+02611+99999101471ADDAA106000091GF108991081041008001999999KA1240N+02261MA1999999096821MD1999999+0081REMSYN076AAXX  21124 82784 32598 83604 10261 2//// 39682 40147 884// 333 20226 58008;EQDQ01  00002PRCP06
0167827840999992004112118004-07320-039300FM-12+040999999V0203601N002612200019N0200001N1+03081+02101101061ADDAA106000091GF103991031021008001001001MA1999999096431MD1999999+0191REMSYN070AAXX  21184 82784 32598 33605 10308 20210 39643 40106 83200 333 58019;EQDQ01  00002PRCP06
0198827840999992004112200004-07317-039300FM-12+040999999V0202301N000510150019N0200001N1+02721+02301101331ADDAA106000091GF108991081001017501021999KA1240M+03181MA1999999096681MD1999999+0151REMSYN088AAXX  22004 82784 32798 82301 10272 20230 39668 40133 8802/ 333 10318 29070 55038 58015;EQDQ01  00002PRCP06
0190827840999992004112212004-07317-039300FM-12+040999999V0201401N001510120019N0200001N1+02441+02071101571ADDAY121061AY221061GF108991081081008001999999KA1240N+02291MA1999999096901MD1999999+0081MW1201REMSYN088AAXX  22124 82784 21598 81403 10244 20207 39690 40157 72022 888// 333 20229 58008 69914;
0148827840999992004112218004-07317-039300FM-12+040999999V0201401N002110075019N0200001N1+03221+02011100951ADDAA106000021GF107991051021008001041001MA1999999096331MD1999999-0101REMSYN070AAXX  22184 82784 32598 71404 10322 20201 39633 40095 85240 333 59010;
0198827840999992004112300004-07317-039300FM-12+040999999V0201801N001512200019N0020001N1+02731+01971101281ADDAA106000091GF102991021001017501031001KA1240M+03361MA1999999096631MD1999999-0051REMSYN088AAXX  23004 82784 32795 21803 10273 20197 39663 40128 82030 333 10336 29064 55045 59005;EQDQ01  00002PRCP06
0160827840999992004112312004-07317-039300FM-12+040999999V0201401N002119999999N0200001N1+02561+02041101391ADDAA106000091KA1240N+02341MA1999999096741MD1999999-0161REMSYN076AAXX  23124 82784 32498 /1404 10256 20204 39674 40139 87500 333 20234 59016;EQDQ01  00002PRCP06
0167827840999992004112318004-07317-039300FM-12+040999999V0203601N002610075019N0200001N1+03381+02021100921ADDAA106000091GF105991051011008001001001MA1999999096311MD1999999-0021REMSYN070AAXX  23184 82784 32598 53605 10338 20202 39631 40092 85100 333 59002;EQDQ01  00002PRCP06
0190827840999992004112412004-07317-039300FM-12+040999999V0200501N001510042019N0200001N1+02551+02171101501ADDAY151061AY221061GF107991071051004501001001KA1240N+02301MA1999999096841MD1999999+0101MW1021REMSYN088AAXX  24124 82784 21498 70503 10255 20217 39684 40150 70252 87500 333 20230 58010 60014;
0167827840999992004112418004-07317-039300FM-12+040999999V0200501N002610450019N0200001N1+03441+01631100831ADDAA106000091GF106991041011008001011001MA1999999096221MD1999999-0091REMSYN070AAXX  24184 82784 32598 60505 10344 20163 39622 40083 84110 333 59009;EQDQ01  00002PRCP06
0198827840999992004112500004-07317-039300FM-12+040999999V0201801N002110120019N0020001N1+02981+01831101211ADDAA106000091GF108991081081008001999999KA1240M+03551MA1999999096511MD1999999-0141REMSYN088AAXX  25004 82784 32595 81804 10298 20183 39651 40121 888// 333 10355 29054 55083 59014;EQDQ01  00002PRCP06
0190827840999992004112512004-07317-039300FM-12+040999999V0202701N001510075019N0200001N1+02361+02191101431ADDAY161061AY251061GF107991071021008001001001KA1240N+02121MA1999999096771MD1999999-0071MW1021REMSYN088AAXX  25124 82784 21598 72703 10236 20219 39677 40143 70265 87200 333 20212 59007 60224;
0167827840999992004112518004-07317-039300FM-12+040999999V0202701N001510042019N0200001N1+03121+02141100881ADDAA106000091GF107991051031004501041001MA1999999096261MD1999999+0041REMSYN070AAXX  25184 82784 32498 72703 10312 20214 39626 40088 85340 333 58004;EQDQ01  00002PRCP06
0198827840999992004112600004-07317-039300FM-12+040999999V0201401N001010120019N0020001N1+02781+02041101071ADDAA106000091GF105991051081008001001001KA1240M+03241MA1999999096421MD1999999-0091REMSYN088AAXX  26004 82784 32595 51402 10278 20204 39642 40107 85800 333 10324 29068 55049 59009;EQDQ01  00002PRCP06
0207827840999992004112612004-07317-039300FM-12+040999999V0202701N001010120019N0200001N1+02381+02111101381ADDAA124005091AY161061AY221061GF107991051081008001011001KA1240N+02081MA1999999096721MD1999999-0051MW1021REMSYN094AAXX  26124 82784 21598 72702 10238 20211 39672 40138 70262 85810 333 20208 59005 60054 10052;
0167827840999992004112618004-07317-039300FM-12+040999999V0200901N001510075019N0200001N1+03091+01941100841ADDAA106000091GF106991061031008001001001MA1999999096231MD1999999-0031REMSYN070AAXX  26184 82784 32598 60903 10309 20194 39623 40084 86300 333 59003;EQDQ01  00002PRCP06
0214827840999992004112700004-07317-039300FM-12+040999999V0209999C000019999999N0020001N1+02521+02251101091ADDAA106000091GF107991051081999999031001KA1240M+99999MA1999999096431MD1999999+0011REMSYN088AAXX  27004 82784 32995 70000 10252 20225 39643 40109 85830 333 11032 29076 55027 58001;EQDQ01  00002PRCP06Q02 -00322ATMX  
0190827840999992004112712004-07317-039300FM-12+040999999V0200901N003610075019N0200001N1+02361+02131101381ADDAY151061AY201061GF108991081071008001999999KA1240N+02241MA1999999096711MD1999999-0011MW1021REMSYN088AAXX  27124 82784 21598 80907 10236 20213 39671 40138 70250 887// 333 20224 59001 69934;
0171827840999992004112718004-07317-039300FM-12+040999999V0203601N002610075019N0200001N1+03181+02071100781ADDAY161061AY221061GF107991061021008001031001MA1999999096171MD1999999-0061MW1021REMSYN082AAXX  27184 82784 21598 73605 10318 20207 39617 40078 70262 86230 333 59006 60011;
0198827840999992004112800004-07317-039300FM-12+040999999V0201801N001510120019N0020001N1+02771+02301101121ADDAA106000091GF107991051081008001001091KA1240M+03291MA1999999096471MD1999999+0041REMSYN088AAXX  28004 82784 32595 71803 10277 20230 39647 40112 85809 333 10329 29072 55060 58004;EQDQ01  00002PRCP06
0162827840999992004112812004-07317-039300FM-12+040999999V0200501N002110075019N0200001N1+02501+02031101341ADDGF108991081041008001999999KA1240N+02201MA1999999096691MD1999999-0021REMSYN082AAXX  28124 82784 22598 80504 10250 20203 39669 40134 884// 333 20220 59002 60014;
0167827840999992004112818004-07317-039300FM-12+040999999V0200501N001012200019N0200001N1+03211+02061100831ADDAA106000091GF103991031021008001001001MA1999999096221MD1999999+0051REMSYN070AAXX  28184 82784 32598 30502 10321 20206 39622 40083 83200 333 58005;EQDQ01  00002PRCP06
0208827840999992004112900004-07317-039300FM-12+040999999V0209999C000012200019N0020001N1+02601+02371101001ADDAA106000091GA1001+999999999GF100991001001999999001001KA1240M+03391MA1999999096351MD1999999-0121REMSYN082AAXX  29004 82784 32995 00000 10260 20237 39635 40100 333 10339 29055 55068 59012;EQDQ01  00002PRCP06
0167827840999992004113018004-07317-039300FM-12+040999999V0203601N002112200019N0200001N1+03361+02041100741ADDAA106000091GF102991021021008001001001MA1999999096141MD1999999+0001REMSYN070AAXX  30184 82784 32598 23604 10336 20204 39614 40074 82200 333 58000;EQDQ01  00002PRCP06
0208827840999992004120100004-07317-039300FM-12+040999999V0201801N000512200019N0020001N1+02721+02261101061ADDAA106000091GA1001+999999999GF100991001001999999001001KA1240M+03471MA1999999096431MD1999999+0011REMSYN082AAXX  01004 82784 32995 01801 10272 20226 39643 40106 333 10347 29068 55077 58001;EQDQ01  00002PRCP06
0186827840999992004120112004-07317-039300FM-12+040999999V0200901N001512200019N0200001N1+02681+01991101311ADDAA106000091GF101991011021008001001001KA1240N+02181MA1999999096661MD1999999-0101REMSYN076AAXX  01124 82784 32598 10903 10268 20199 39666 40131 81200 333 20218 59010;EQDQ01  00002PRCP06
0167827840999992004120118004-07317-039300FM-12+040999999V0200901N002612200019N0200001N1+03501+01531100671ADDAA106000091GF101991011001008001001051MA1999999096071MD1999999-0071REMSYN070AAXX  01184 82784 32598 10905 10350 20153 39607 40067 81005 333 59007;EQDQ01  00002PRCP06
0208827840999992004120200004-07317-039300FM-12+040999999V0201801N001512200019N0020001N1+02661+01971100951ADDAA106000091GA1001+999999999GF100991001001999999001001KA1240M+03621MA1999999096321MD1999999-0111REMSYN082AAXX  02004 82784 32995 01803 10266 20197 39632 40095 333 10362 29057 55095 59011;EQDQ01  00002PRCP06
0186827840999992004120212004-07317-039300FM-12+040999999V0201401N001519999999N0200001N1+02821+01911101201ADDAA106000091GF106991061001017501001011KA1240N+01991MA1999999096561MD1999999-0101REMSYN076AAXX  02124 82784 32798 61403 10282 20191 39656 40120 86001 333 20199 59010;EQDQ01  00002PRCP06
0183827840999992004120218004-07317-039300FM-12+040999999V0201401N002110075019N0200001N1+03581+01331100651ADDAA106000091GF108991999011008001001011MA1999999096051MD1999999+0021REMSYN070AAXX  02184 82784 32598 81404 10358 20133 39605 40065 88101 333 58002;EQDQ01+000082SCOTLCQ02  00002PRCP06
0198827840999992004120300004-07317-039300FM-12+040999999V0201401N003110075019N0020001N1+02931+01661101031ADDAA106000091GF106991061041008001001001KA1240M+03621MA1999999096411MD1999999+0091REMSYN088AAXX  03004 82784 32595 61406 10293 20166 39641 40103 86400 333 10362 29044 55116 58009;EQDQ01  00002PRCP06
0186827840999992004120312004-07317-039300FM-12+040999999V0201401N003112200019N0200001N1+02831+01691101341ADDAA106000091GF103991021011008001011001KA1240N+02001MA1999999096711MD1999999+0151REMSYN076AAXX  03124 82784 32598 31406 10283 20169 39671 40134 82110 333 20200 58015;EQDQ01  00002PRCP06
0167827840999992004120318004-07317-039300FM-12+040999999V0201401N002110450019N0200001N1+03521+01601100781ADDAA106000091GF105991041011008001011001MA1999999096191MD1999999+0141REMSYN070AAXX  03184 82784 32598 51404 10352 20160 39619 40078 84110 333 58014;EQDQ01  00002PRCP06
0198827840999992004120400004-07317-039300FM-12+040999999V0200901N000512200019N0020001N1+02871+01841101081ADDAA106000091GF102991021041008001001001KA1240M+03651MA1999999096461MD1999999+0051REMSYN088AAXX  04004 82784 32595 20901 10287 20184 39646 40108 82400 333 10365 29048 55118 58005;EQDQ01  00002PRCP06
0186827840999992004120412004-07317-039300FM-12+040999999V0201401N004110075019N0200001N1+02881+01861101661ADDAA106000091GF106991061011008001001001KA1240N+02341MA1999999096821MD1999999+0111REMSYN076AAXX  04124 82784 32598 61408 10288 20186 39682 40166 86100 333 20234 58011;EQDQ01  00002PRCP06
0183827840999992004120418004-07317-039300FM-12+040999999V0200901N003112200019N0200001N1+03581+01701100862ADDAA106000091GF106991041011008001001011MA1999999096361MD1999999+0171REMSYN070AAXX  04184 82784 32598 60906 10358 20170 39636 40086 84101 333 58017;EQDQ01+100863APOSLPQ02  00002PRCP06
0198827840999992004120500004-07317-039300FM-12+040999999V0200901N001010075019N0020001N1+03011+01491101251ADDAA106000091GF106991061091008001001001KA1240M+03611MA1999999096621MD1999999+0161REMSYN088AAXX  05004 82784 32595 60902 10301 20149 39662 40125 86900 333 10361 29042 55109 58016;EQDQ01  00002PRCP06
0186827840999992004120512004-07317-039300FM-12+040999999V0201401N003112200019N0200001N1+02831+01611101441ADDAA106000091GF101991011011008001001001KA1240N+02281MA1999999096811MD1999999-0011REMSYN076AAXX  05124 82784 32598 11406 10283 20161 39681 40144 81100 333 20228 59001;EQDQ01  00002PRCP06
0167827840999992004120518004-07317-039300FM-12+040999999V0201801N003612200019N0500001N1+03461+01111100891ADDAA106000091GF102991021011008001001001MA1999999096291MD1999999-0071REMSYN070AAXX  05184 82784 32599 21807 10346 20111 39629 40089 82100 333 59007;EQDQ01  00002PRCP06
0198827840999992004120600004-07320-039300FM-12+040999999V0201801N004612200019N0020001N1+02951+01641101111ADDAA106000091GF102991021021008001001001KA1240M+03561MA1999999096491MD1999999-0131REMSYN088AAXX  06004 82784 32595 21809 10295 20164 39649 40111 82200 333 10356 29040 55117 59013;EQDQ01  00002PRCP06
0186827840999992004120612004-07320-039300FM-12+040999999V0200501N001010075019N0020001N1+02761+01891101301ADDAA106000091GF105991051021008001001001KA1240N+02281MA1999999096671MD1999999-0141REMSYN076AAXX  06124 82784 32595 50502 10276 20189 39667 40130 85200 333 20228 59014;EQDQ01  00002PRCP06
0167827840999992004120618004-07320-039300FM-12+040999999V0201401N001510075019N0200001N1+03541+01621100791ADDAA106000091GF106991061021008001001001MA1999999096201MD1999999-0091REMSYN070AAXX  06184 82784 32598 61403 10354 20162 39620 40079 86200 333 59009;EQDQ01  00002PRCP06
0198827840999992004120700004-07317-039300FM-12+040999999V0201801N003110075019N0020001N1+03001+01681101011ADDAA106000091GF106991061041008001001001KA1240M+03601MA1999999096401MD1999999-0091REMSYN088AAXX  07004 82784 32595 61806 10300 20168 39640 40101 86400 333 10360 29045 55107 59009;EQDQ01  00002PRCP06
0186827840999992004120712004-07317-039300FM-12+040999999V0200901N002110075019N0200001N1+02811+02111101331ADDAA106000091GF107991071021008001001001KA1240N+02401MA1999999096701MD1999999+0031REMSYN076AAXX  07124 82784 32598 70904 10281 20211 39670 40133 87200 333 20240 58003;EQDQ01  00002PRCP06
0167827840999992004120718004-07317-039300FM-12+040999999V0201401N002112200019N0200001N1+03491+01611100791ADDAA106000091GF102991021021008001001001MA1999999096201MD1999999+0001REMSYN070AAXX  07184 82784 32598 21404 10349 20161 39620 40079 82200 333 58000;EQDQ01  00002PRCP06
0198827840999992004120800004-07317-039300FM-12+040999999V0203201N000510075019N0020001N1+02981+02201101091ADDAA106000091GF108991081041008001999999KA1240M+03641MA1999999096471MD1999999+0071REMSYN088AAXX  08004 82784 32595 83201 10298 20220 39647 40109 884// 333 10364 29056 55080 58007;EQDQ01  00002PRCP06
0186827840999992004120812004-07317-039300FM-12+040999999V0200901N001510075019N0200001N1+02791+02061101401ADDAA106000091GF108991081021008001999999KA1240N+02451MA1999999096771MD1999999+0071REMSYN076AAXX  08124 82784 32598 80903 10279 20206 39677 40140 882// 333 20245 58007;EQDQ01  00002PRCP06
0167827840999992004120818004-07317-039300FM-12+040999999V0201401N002112200019N0200001N1+03421+01911100921ADDAA106000091GF101991011021008001001001MA1999999096321MD1999999+0121REMSYN070AAXX  08184 82784 32598 11404 10342 20191 39632 40092 81200 333 58012;EQDQ01  00002PRCP06
0198827840999992004120900004-07317-039300FM-12+040999999V0201801N000510075019N0020001N1+02851+02221101061ADDAA106000091GF106991061041008001001001KA1240M+03551MA1999999096441MD1999999-0031REMSYN088AAXX  09004 82784 32595 61801 10285 20222 39644 40106 86400 333 10355 29061 55090 59003;EQDQ01  00002PRCP06
0186827840999992004120912004-07317-039300FM-12+040999999V0200901N002112200019N0200001N1+02711+02051101301ADDAA106000091GF103991031021008001001001KA1240N+02391MA1999999096661MD1999999-0111REMSYN076AAXX  09124 82784 32598 30904 10271 20205 39666 40130 83200 333 20239 59011;EQDQ01  00002PRCP06
0167827840999992004120918004-07317-039300FM-12+040999999V0203601N001512200019N0200001N1+03441+02001100751ADDAA106000091GF102991021021008001001001MA1999999096151MD1999999-0171REMSYN070AAXX  09184 82784 32598 23603 10344 20200 39615 40075 82200 333 59017;EQDQ01  00002PRCP06
0198827840999992004121000004-07317-039300FM-12+040999999V0202701N000512200019N0020001N1+02941+02361100961ADDAA106000091GF102991021041008001001001KA1240M+03561MA1999999096341MD1999999-0101REMSYN088AAXX  10004 82784 32595 22701 10294 20236 39634 40096 82400 333 10356 29063 55085 59010;EQDQ01  00002PRCP06
0186827840999992004121012004-07317-039300FM-12+040999999V0203601N001510075019N0200001N1+02661+02141100951ADDAA106000091GF108991081041008001999999KA1240N+02421MA1999999096331MD1999999-0331REMSYN076AAXX  10124 82784 32598 83603 10266 20214 39633 40095 884// 333 20242 59033;EQDQ01  00002PRCP06
0167827840999992004121018004-07317-039300FM-12+040999999V0203601N001012200019N0200001N1+03351+01851100661ADDAA106000091GF102991011021008001001091MA1999999096061MD1999999-0091REMSYN070AAXX  10184 82784 32598 23602 10335 20185 39606 40066 81209 333 59009;EQDQ01  00002PRCP06
0198827840999992004121100004-07317-039300FM-12+040999999V0200901N001012200019N0020001N1+02941+02141100941ADDAA106000091GF103991031041008001001001KA1240M+03561MA1999999096321MD1999999-0021REMSYN088AAXX  11004 82784 32595 30902 10294 20214 39632 40094 83400 333 10356 29060 55065 59002;EQDQ01  00002PRCP06
0186827840999992004121112004-07317-039300FM-12+040999999V0200501N001510075019N0200001N1+02521+01961101361ADDAA106000091GF108991081041008001999999KA1240N+02201MA1999999096721MD1999999+0391REMSYN076AAXX  11124 82784 32598 80503 10252 20196 39672 40136 884// 333 20220 58039;EQDQ01  00002PRCP06
0167827840999992004121118004-07317-039300FM-12+040999999V0203201N002119999999N0200001N1+03281+01861100831ADDAA106000091GF108991081001008001001051MA1999999096221MD1999999+0161REMSYN070AAXX  11184 82784 32598 83204 10328 20186 39622 40083 88005 333 58016;EQDQ01  00002PRCP06
0208827840999992004121200004-07320-039300FM-12+040999999V0209999C000012200019N0020001N1+02671+02001101041ADDAA106000091GA1001+999999999GF100991001001999999001001KA1240M+03381MA1999999096401MD1999999+0081REMSYN082AAXX  12004 82784 32995 00000 10267 20200 39640 40104 333 10338 29062 55059 58008;EQDQ01  00002PRCP06
0186827840999992004121212004-07320-039300FM-12+040999999V0203601N001010075019N0200001N1+02691+02131101341ADDAA106000091GF106991061021008001001001KA1240N+02141MA1999999096691MD1999999-0031REMSYN076AAXX  12124 82784 32598 63602 10269 20213 39669 40134 86200 333 20214 59003;EQDQ01  00002PRCP06
0167827840999992004121218004-07320-039300FM-12+040999999V0203601N002110075019N0200001N1+03461+01821100821ADDAA106000091GF105991051011008001001001MA1999999096211MD1999999-0011REMSYN070AAXX  12184 82784 32598 53604 10346 20182 39621 40082 85100 333 59001;EQDQ01  00002PRCP06
0198827840999992004121300004-07317-039300FM-12+040999999V0201801N001012200019N0020001N1+03461+01951101061ADDAA106000091GF103991031021008001001001KA1240M+03541MA1999999096741MD1999999+0051REMSYN088AAXX  13004 82784 32595 31802 10346 20195 39674 40106 83200 333 10354 29058 55094 58005;EQDQ01  00002PRCP06
0186827840999992004121312004-07317-039300FM-12+040999999V0200501N001510075019N0200001N1+02561+02131101531ADDAA106000091GF108991081041008001001001KA1240N+02371MA1999999096871MD1999999+0181REMSYN076AAXX  13124 82784 32598 80503 10256 20213 39687 40153 88400 333 20237 58018;EQDQ01  00002PRCP06
0167827840999992004121318004-07317-039300FM-12+040999999V0200501N002612200019N0200001N1+03221+01731100941ADDAA106000091GF102991021011008001001001MA1999999096431MD1999999+0111REMSYN070AAXX  13184 82784 32598 20505 10322 20173 39643 40094 82100 333 58011;EQDQ01  00002PRCP06
0186827840999992004121412004-07317-039300FM-12+040999999V0201801N002110075019N0200001N1+02701+02131101421ADDAA106000091GF107991071021008001001001KA1240N+02091MA1999999096771MD1999999-0101REMSYN076AAXX  14124 82784 32598 71804 10270 20213 39677 40142 87200 333 20209 59010;EQDQ01  00002PRCP06
0167827840999992004121418004-07317-039300FM-12+040999999V0201401N002610450019N0200001N1+03481+01571100911ADDAA106000091GF107991031011008001041001MA1999999096301MD1999999-0021REMSYN070AAXX  14184 82784 32598 71405 10348 20157 39630 40091 83140 333 59002;EQDQ01  00002PRCP06
0198827840999992004121500004-07317-039300FM-12+040999999V0202301N000512200019N0020001N1+02751+01691101071ADDAA106000091GF102991021031008001001001KA1240M+03601MA1999999096441MD1999999-0091REMSYN088AAXX  15004 82784 32595 22301 10275 20169 39644 40107 82300 333 10360 29052 55068 59009;EQDQ01  00002PRCP06
0186827840999992004121512004-07317-039300FM-12+040999999V0201401N001510075019N0200001N1+02601+02061101391ADDAA106000091GF107991051021008001011001KA1240N+02321MA1999999096741MD1999999-0031REMSYN076AAXX  15124 82784 32598 71403 10260 20206 39674 40139 85210 333 20232 59003;EQDQ01  00002PRCP06
0167827840999992004121518004-07317-039300FM-12+040999999V0200901N001010450019N0200001N1+03341+01831100811ADDAA106000091GF107991041021008001031001MA1999999096201MD1999999-0101REMSYN070AAXX  15184 82784 32598 70902 10334 20183 39620 40081 84230 333 59010;EQDQ01  00002PRCP06
0208827840999992004121600004-07317-039300FM-12+040999999V0209999C000012200019N0020001N1+02671+02141100961ADDAA106000091GA1001+999999999GF100991001001999999001001KA1240M+03441MA1999999096331MD1999999-0111REMSYN082AAXX  16004 82784 32595 00000 10267 20214 39633 40096 333 10344 29065 55071 59011;EQDQ01  00002PRCP06
0186827840999992004121612004-07317-039300FM-12+040999999V0200901N001010075019N0200001N1+02631+02011101281ADDAA106000091GF106991061021008001001001KA1240N+02281MA1999999096631MD1999999-0111REMSYN076AAXX  16124 82784 32598 60902 10263 20201 39663 40128 86200 333 20228 59011;EQDQ01  00002PRCP06
0167827840999992004121618004-07317-039300FM-12+040999999V0200901N001512200019N0200001N1+03381+01751100821ADDAA106000091GF108991041011008001001011MA1999999096211MD1999999+0011REMSYN070AAXX  16184 82784 32598 80903 10338 20175 39621 40082 84101 333 58001;EQDQ01  00002PRCP06
0198827840999992004121700004-07317-039300FM-12+040999999V0201401N001010450019N0020001N1+02791+01921101051ADDAA106000091GF107991031011004501031001KA1240M+03531MA1999999096421MD1999999+0091REMSYN088AAXX  17004 82784 32495 71402 10279 20192 39642 40105 83130 333 10353 29056 55078 58009;EQDQ01  00002PRCP06
0186827840999992004121712004-07317-039300FM-12+040999999V0203601N002112200019N0200001N1+02701+01941101261ADDAA106000091GF102991021021008001001001KA1240N+02141MA1999999096621MD1999999-0011REMSYN076AAXX  17124 82784 32598 23604 10270 20194 39662 40126 82200 333 20214 59001;EQDQ01  00002PRCP06
0167827840999992004121718004-07317-039300FM-12+040999999V0200901N001512200019N0200001N1+03461+01601100671ADDAA106000091GF102991021021008001001001MA1999999096071MD1999999-0141REMSYN070AAXX  17184 82784 32598 20903 10346 20160 39607 40067 82200 333 59014;EQDQ01  00002PRCP06
0208827840999992004121800004-07317-039300FM-12+040999999V0209999C000012200019N0020001N1+02771+01301101011ADDAA106000091GA1001+999999999GF100991001001999999001001KA1240M+03641MA1999999096381MD1999999-0041REMSYN082AAXX  18004 82784 32995 00000 10277 20130 39638 40101 333 10364 29044 55099 59004;EQDQ01  00002PRCP06
0186827840999992004121812004-07317-039300FM-12+040999999V0200501N002112200019N0200001N1+02751+01891101371ADDAA106000091GF102991011011008001001091KA1240N+02281MA1999999096731MD1999999+0111REMSYN076AAXX  18124 82784 32598 20504 10275 20189 39673 40137 81109 333 20228 58011;EQDQ01  00002PRCP06
0167827840999992004121818004-07317-039300FM-12+040999999V0200501N002611050019N0200001N1+03521+01451100871ADDAA106000091GF105991011011008001031011MA1999999096261MD1999999+0191REMSYN070AAXX  18184 82784 32598 50505 10352 20145 39626 40087 81131 333 58019;EQDQ01  00002PRCP06
0198827840999992004121900004-07320-039300FM-12+040999999V0209999C000012200019N0020001N1+02771+01701101261ADDAA106000091GF102991021001017501031001KA1240M+03611MA1999999096621MD1999999+0241REMSYN088AAXX  19004 82784 32795 20000 10277 20170 39662 40126 82030 333 10361 29048 55110 58024;EQDQ01  00002PRCP06
0186827840999992004121912004-07320-039300FM-12+040999999V0200901N002112200019N0200001N1+02821+01831101491ADDAA106000091GF102991011021008001031001KA1240N+02201MA1999999096851MD1999999+0121REMSYN076AAXX  19124 82784 32598 20904 10282 20183 39685 40149 81230 333 20220 58012;EQDQ01  00002PRCP06
0167827840999992004121918004-07320-039300FM-12+040999999V0200901N002112200019N0200001N1+03431+01561100981ADDAA106000091GF103991031081008001001001MA1999999096361MD1999999+0101REMSYN070AAXX  19184 82784 32598 30904 10343 20156 39636 40098 83800 333 58010;EQDQ01  00002PRCP06
0198827840999992004122000004-07317-039300FM-12+040999999V0201801N001012200019N0200001N1+02881+01801101151ADDAA106000091GF101991011041008001001001KA1240M+03551MA1999999096531MD1999999-0091REMSYN088AAXX  20004 82784 32598 11802 10288 20180 39653 40115 81400 333 10355 29048 55099 59009;EQDQ01  00002PRCP06
0186827840999992004122012004-07317-039300FM-12+040999999V0201401N003110075019N0200001N1+02831+01771101541ADDAA106000091GF105991051021008001001001KA1240N+02381MA1999999096901MD1999999+0051REMSYN076AAXX  20124 82784 32598 51406 10283 20177 39690 40154 85200 333 20238 58005;EQDQ01  00002PRCP06
0167827840999992004122018004-07317-039300FM-12+040999999V0200501N002112200019N0200001N1+03361+01601100891ADDAA106000091GF103991031021008001001001MA1999999096291MD1999999+0071REMSYN070AAXX  20184 82784 32598 30504 10336 20160 39629 40089 83200 333 58007;EQDQ01  00002PRCP06
0186827840999992004122112004-07317-039300FM-12+040999999V0200901N003112200019N0200001N1+02741+01781101271ADDAA106000091GF101991011021008001001001KA1240N+02281MA1999999096641MD1999999-0261REMSYN076AAXX  21124 82784 32598 10906 10274 20178 39664 40127 81200 333 20228 59026;EQDQ01  00002PRCP06
0167827840999992004122118004-07317-039300FM-12+040999999V0201801N001512200019N0200001N1+03371+01661100761ADDAA106000091GF103991031021008001001001MA1999999096161MD1999999-0131REMSYN070AAXX  21184 82784 32598 31803 10337 20166 39616 40076 83200 333 59013;EQDQ01  00002PRCP06
0198827840999992004122200004-07317-039300FM-12+040999999V0201801N001012200019N0020001N1+02871+01781100931ADDAA106000091GF102991021001017501031001KA1240M+03571MA1999999096311MD1999999-0081REMSYN088AAXX  22004 82784 32795 21802 10287 20178 39631 40093 82030 333 10357 29049 55113 59008;EQDQ01  00002PRCP06
0186827840999992004122212004-07317-039300FM-12+040999999V0200501N003112200019N0200001N1+02751+01801101231ADDAA106000091GF102991011011008001011001KA1240N+02211MA1999999096601MD1999999-0041REMSYN076AAXX  22124 82784 32598 20506 10275 20180 39660 40123 81110 333 20221 59004;EQDQ01  00002PRCP06
0167827840999992004122218004-07317-039300FM-12+040999999V0200501N002610075019N0200001N1+03441+01631100701ADDAA106000091GF106991051011008001011001MA1999999096101MD1999999-0061REMSYN070AAXX  22184 82784 32598 60505 10344 20163 39610 40070 85110 333 59006;EQDQ01  00002PRCP06
0198827840999992004122300004-07317-039300FM-12+040999999V0202701N000512200019N0020001N1+02921+01831101021ADDAA106000091GF102991021011008001001001KA1240M+03531MA1999999096401MD1999999+0091REMSYN088AAXX  23004 82784 32595 22701 10292 20183 39640 40102 82100 333 10353 29048 55109 58009;EQDQ01  00002PRCP06
0186827840999992004122312004-07317-039300FM-12+040999999V0200901N001512200019N0200001N1+02721+01711101231ADDAA106000091GF103991031001017501001011KA1240N+02191MA1999999096601MD1999999+0001REMSYN076AAXX  23124 82784 32798 30903 10272 20171 39660 40123 83001 333 20219 58000;EQDQ01  00002PRCP06
0167827840999992004122318004-07317-039300FM-12+040999999V0200901N001010075019N0200001N1+03381+01711100611ADDAA106000091GF106991061021008001001001MA1999999096021MD1999999-0081REMSYN070AAXX  23184 82784 32598 60902 10338 20171 39602 40061 86200 333 59008;EQDQ01  00002PRCP06
0198827840999992004122400004-07317-039300FM-12+040999999V0201801N001512200019N0020001N1+02721+01771100841ADDAA106000091GF101991011001017501021001KA1240M+03531MA1999999096221MD1999999-0181REMSYN088AAXX  24004 82784 32795 11803 10272 20177 39622 40084 81020 333 10353 29051 55110 59018;EQDQ01  00002PRCP06
0186827840999992004122412004-07317-039300FM-12+040999999V0200901N003110075019N0200001N1+02741+01671101271ADDAA106000091GF106991061021008001001001KA1240N+02301MA1999999096631MD1999999+0031REMSYN076AAXX  24124 82784 32598 60906 10274 20167 39663 40127 86200 333 20230 58003;EQDQ01  00002PRCP06
0167827840999992004122418004-07317-039300FM-12+040999999V0201401N002612200019N0200001N1+03481+01361100591ADDAA106000091GF104991041011008001001001MA1999999096051MD1999999-0021REMSYN070AAXX  24184 82784 32598 41405 10348 20136 39605 40059 84100 333 59002;EQDQ01  00002PRCP06
0208827840999992004122500004-07317-039300FM-12+040999999V0201801N001512200019N0020001N1+02751+01491100871ADDAA106000091GA1001+999999999GF100991001001999999001001KA1240M+03621MA1999999096251MD1999999+0031REMSYN082AAXX  25004 82784 32995 01803 10275 20149 39625 40087 333 10362 29045 55107 58003;EQDQ01  00002PRCP06
0209827840999992004122512004-07317-039300FM-12+040999999V0201401N002110075019N0200001N1+02821+01971101251ADDAY151061AY221061GF106991061021008001001001KA1240N+02271MA1999999999999MD1999999-0011MW1021REMSYN088AAXX  25124 82784 21598 61404 10282 20197 39062 40125 70252 86200 333 20227 59001 69944;EQDQ01 090623APOSP 
0183827840999992004122518004-07317-039300FM-12+040999999V0201401N001010450019N0200001N1+03441+01801100711ADDAA106000091GF105991041011008001051001MA1999999096112MD1999999+0111REMSYN070AAXX  25184 82784 32598 51402 10344 20180 39611 40071 84150 333 58011;EQDQ01+096113APOSP Q02  00002PRCP06
0198827840999992004122600004-07320-039300FM-12+040999999V0202701N002110120019N0020001N1+02601+02121101171ADDAA106000091GF108991081081008001999999KA1240M+03621MA1999999096531MD1999999+0281REMSYN088AAXX  26004 82784 32595 82704 10260 20212 39653 40117 888// 333 10362 29062 55087 58028;EQDQ01  00002PRCP06
0186827840999992004122612004-07320-039300FM-12+040999999V0201401N001510075019N0200001N1+02771+01961101321ADDAA106000091GF108991051021008001041001KA1240N+02221MA1999999097441MD1999999+0051REMSYN076AAXX  26124 82784 32598 81403 10277 20196 39744 40132 85240 333 20222 58005;EQDQ01  00002PRCP06
0199827840999992004122618004-07320-039300FM-12+040999999V0200901N002119999999N0200001N1+03401+01721100821ADDAA106000091GF108991999021008001001001MA1999999096212MD1999999+0101REMSYN070AAXX  26184 82784 32598 80904 10340 20172 39621 40082 84200 333 58010;EQDQ01+000042SCOTLCQ02+096213APOSP Q03  00002PRCP06
0198827840999992004122700004-07320-039300FM-12+040999999V0200901N001010120019N0020001N1+02901+01901101051ADDAA106000091GF107991071081008001001001KA1240M+03531MA1999999096431MD1999999-0101REMSYN088AAXX  27004 82784 32595 70902 10290 20190 39643 40105 87800 333 10353 29052 55062 59010;EQDQ01  00002PRCP06
0186827840999992004122712004-07320-039300FM-12+040999999V0200901N002110120019N0200001N1+02811+02061101251ADDAA106000091GF107991071081008001001001KA1240N+02151MA1999999096621MD1999999-0051REMSYN076AAXX  27124 82784 32598 70904 10281 20206 39662 40125 87800 333 20215 59005;EQDQ01  00002PRCP06
0167827840999992004122718004-07320-039300FM-12+040999999V0200901N002110075019N0200001N1+03381+01911100681ADDAA106000091GF107991071021008001001001MA1999999096081MD1999999-0131REMSYN070AAXX  27184 82784 32598 70904 10338 20191 39608 40068 87200 333 59013;EQDQ01  00002PRCP06
0198827840999992004122800004-07317-039300FM-12+040999999V0201401N000512200019N0020001N1+02751+01891100901ADDAA106000091GF102991021021008001001001KA1240M+03551MA1999999096281MD1999999-0151REMSYN088AAXX  28004 82784 32595 21401 10275 20189 39628 40090 82200 333 10355 29056 55085 59015;EQDQ01  00002PRCP06
0186827840999992004122812004-07317-039300FM-12+040999999V0200901N002110075019N0200001N1+02591+02081101241ADDAA106000091GF108991081041008001999999KA1240N+02181MA1999999096591MD1999999-0031REMSYN076AAXX  28124 82784 32598 80904 10259 20208 39659 40124 884// 333 20218 59003;EQDQ01  00002PRCP06
0167827840999992004122818004-07317-039300FM-12+040999999V0200901N001512200019N0200001N1+03251+01931100881ADDAA106000091GF103991021021008001001091MA1999999096271MD1999999+0191REMSYN070AAXX  28184 82784 32598 30903 10325 20193 39627 40088 82209 333 58019;EQDQ01  00002PRCP06
0190827840999992004122912004-07317-039300FM-12+040999999V0200901N000510042019N0200001N1+02301+02001101681ADDAY161061AY221061GF108991081051004501999999KA1240N+02311MA1999999097001MD1999999+0411MW1021REMSYN088AAXX  29124 82784 21498 80901 10230 20200 39700 40168 70262 885// 333 20231 58041 60024;
0167827840999992004122918004-07317-039300FM-12+040999999V0201401N002110120019N0200001N1+02771+01881101311ADDAA106000091GF106991061081008001001001MA1999999096701MD1999999+0431REMSYN070AAXX  29184 82784 32598 61404 10277 20188 39670 40131 86800 333 58043;EQDQ01  00002PRCP06
0198827840999992004123000004-07317-039300FM-12+040999999V0209999C000010120019N0020001N1+02411+02031101501ADDAA106000091GF107991071081008001001001KA1240M+02891MA1999999096811MD1999999+0281REMSYN088AAXX  30004 82784 32595 70000 10241 20203 39681 40150 87800 333 10289 29075 55004 58028;EQDQ01  00002PRCP06
0190827840999992004123012004-07317-039300FM-12+040999999V0201801N001510042019N0020001N1+02331+02051101621ADDAY161061AY221061GF108991081071004501999999KA1240N+02201MA1999999096931MD1999999-0071MW1021REMSYN088AAXX  30124 82784 21495 81803 10233 20205 39693 40162 70262 887// 333 20220 59007 60034;
0167827840999992004123018004-07317-039300FM-12+040999999V0201401N002110042019N0200001N1+03021+01961101211ADDAA106000091GF106991061021004501001001MA1999999096561MD1999999-0141REMSYN070AAXX  30184 82784 32498 61404 10302 20196 39656 40121 86200 333 59014;EQDQ01  00002PRCP06
0190827840999992004123112004-07317-039300FM-12+040999999V0200901N002110075019N0200001N1+02551+02081101501ADDAY151061AY211061GF107991071021008001001001KA1240N+02241MA1999999096831MD1999999-0101MW1021REMSYN088AAXX  31124 82784 21598 70904 10255 20208 39683 40150 70251 87200 333 20224 59010 69924;
0167827840999992004123118004-07317-039300FM-12+040999999V0200901N002112200019N0200001N1+03241+01821101021ADDAA106000091GF103991031021008001001001MA1999999096391MD1999999-0171REMSYN070AAXX  31184 82784 32598 30904 10324 20182 39639 40102 83200 333 59017;EQDQ01  00002PRCP06
