0198827950999992004010100004-07217-035883FM-12+0560SBKG V0200901N003112200019N0010001N1+02291+01921101491ADDAA106000091GF103991031021008001001001KA1240M+03041MA1999999095351MD1999999+0011REMSYN088AAXX  01004 82795 32594 30906 10229 20192 39535 40149 83200 333 10304 29069 55076 58001;EQDQ01  00002PRCP06
0186827950999992004010112004-07217-035883FM-12+0560SBKG V0201401N003112200019N0100001N1+02591+01841101471ADDAA106000091GF106991041021008001001011KA1240N+02051MA1999999095341MD1999999+0051REMSYN076AAXX  01124 82795 32597 61406 10259 20184 39534 40147 84201 333 20205 58005;EQDQ01  00002PRCP06
0167827950999992004010118004-07217-035883FM-12+0560SBKG V0201401N003110075019N0100001N1+02641+01931101241ADDAA106000091GF106991061071008001001001MA1999999095101MD1999999+0161REMSYN070AAXX  01184 82795 32597 61406 10264 20193 39510 40124 86700 333 58016;EQDQ01  00002PRCP06
0198827950999992004010200004-07217-035883FM-12+0560SBKG V0200901N004112200019N0010001N1+02281+01981101371ADDAA106000091GF104991031021008001001011KA1240M+02731MA1999999095251MD1999999-0101REMSYN088AAXX  02004 82795 32594 40908 10228 20198 39525 40137 83201 333 10273 29074 55057 59010;EQDQ01  00002PRCP06
0186827950999992004010212004-07217-035883FM-12+0560SBKG V0200501N002612200019N0100001N1+02521+01911101471ADDAA106000091GF105991031021008001001011KA1240N+02061MA1999999095331MD1999999-0011REMSYN076AAXX  02124 82795 32597 50505 10252 20191 39533 40147 83201 333 20206 59001;EQDQ01  00002PRCP06
0167827950999992004010218004-07217-035883FM-12+0560SBKG V0200501N003111050019N0100001N1+02641+01951101011ADDAA106000091GF106991031031008001001021MA1999999094881MD1999999-0221REMSYN070AAXX  02184 82795 32597 60506 10264 20195 39488 40101 83302 333 59022;EQDQ01  00002PRCP06
0214827950999992004010300004-07217-035883FM-12+0560SBKG V0201401N004119999999N0010001N1+02361+02111101011ADDAA106000091GF105991999061008001001001KA1240M+03121MA1999999094881MD1999999-0221REMSYN088AAXX  03004 82795 32594 51408 10236 20211 39488 40101 86600 333 10312 29076 55092 59022;EQDQ01+000062SCOTLCQ02  00002PRCP06
0186827950999992004010312004-07217-035883FM-12+0560SBKG V0201401N005110075019N0100001N1+02691+01971101261ADDAA106000091GF105991051021008001001001KA1240N+01081MA1999999095161MD1999999-0171REMSYN076AAXX  03124 82795 32597 51410 10269 20197 39516 40126 85200 333 20108 59017;EQDQ01  00002PRCP06
0167827950999992004010318004-07217-035883FM-12+0560SBKG V0201401N004612200019N0100001N1+03131+01791100851ADDAA106000091GF104991041021008001001001MA1999999094811MD1999999-0071REMSYN070AAXX  03184 82795 32597 41409 10313 20179 39481 40085 84200 333 59007;EQDQ01  00002PRCP06
0214827950999992004010400004-07217-035883FM-12+0560SBKG V0200401N003612200019N0010001N1+02311+02071101081ADDAA106000091GF104991999031008001001001KA1240M+03261MA1999999094991MD1999999-0041REMSYN088AAXX  04004 82795 32594 40407 10231 20207 39499 40108 83300 333 10326 29071 55105 59004;EQDQ01+000032SCOTLCQ02  00002PRCP06
0186827950999992004010412004-07217-035883FM-12+0560SBKG V0201401N006210075019N0100001N1+02541+01971101231ADDAA106000091GF105991051021008001001001KA1240N+02211MA1999999095111MD1999999-0051REMSYN076AAXX  04124 82795 32597 51412 10254 20197 39511 40123 85200 333 20221 59005;EQDQ01  00002PRCP06
0198827950999992004010500004-07217-035883FM-12+0560SBKG V0201401N003612200019N0010001N1+02331+02051101181ADDAA106000091GF104991041061008001001001KA1240M+03191MA1999999095061MD1999999+0071REMSYN088AAXX  05004 82795 32594 41407 10233 20205 39506 40118 84600 333 10319 29071 55098 58007;EQDQ01  00002PRCP06
0186827950999992004010512004-07217-035883FM-12+0560SBKG V0201401N004612200019N0100001N1+02581+01851101271ADDAA106000091GF104991041021008001001001KA1240N+02121MA1999999095151MD1999999+0041REMSYN076AAXX  05124 82795 32597 41409 10258 20185 39515 40127 84200 333 20212 58004;EQDQ01  00002PRCP06
0167827950999992004010518004-07217-035883FM-12+0560SBKG V0201401N003612200019N0100001N1+03101+01501100871ADDAA106000091GF102991021021008001001001MA1999999094821MD1999999+0011REMSYN070AAXX  05184 82795 32597 21407 10310 20150 39482 40087 82200 333 58001;EQDQ01  00002PRCP06
0208827950999992004010600004-07217-035883FM-12+0560SBKG V0201401N003612200019N0010001N1+02331+01851101281ADDAA106000091GA1001+999999999GF100991001001999999001001KA1240M+03181MA1999999095161MD1999999+0101REMSYN082AAXX  06004 82795 32994 01407 10233 20185 39516 40128 333 10318 29064 55104 58010;EQDQ01  00002PRCP06
0190827950999992004010612004-07217-035883FM-12+0560SBKG V0201401N002610075019N0100001N1+02791+02001101381ADDAY161061AY221061GF105991051031008001001001KA1240N+02041MA1999999095241MD1999999+0091MW1021REMSYN088AAXX  06124 82795 21597 51405 10279 20200 39524 40138 70262 85300 333 20204 58009 60024;
0167827950999992004010618004-07217-035883FM-12+0560SBKG V0201401N004610075019N0100001N1+03071+01901101041ADDAA106000091GF105991051031008001001001MA1999999094931MD1999999+0131REMSYN070AAXX  06184 82795 32597 51409 10307 20190 39493 40104 85300 333 58013;EQDQ01  00002PRCP06
0198827950999992004010700004-07217-035883FM-12+0560SBKG V0201401N005712200019N0010001N1+02321+02021101331ADDAA106000091GF104991021061008001001011KA1240M+03161MA1999999095181MD1999999+0041REMSYN088AAXX  07004 82795 32594 41411 10232 20202 39518 40133 82601 333 10316 29072 55092 58004;EQDQ01  00002PRCP06
0186827950999992004010712004-07217-035883FM-12+0560SBKG V0201401N003112200019N0100001N1+02711+01911101361ADDAA106000091GF104991041021008001001001KA1240N+02071MA1999999095251MD1999999+0011REMSYN076AAXX  07124 82795 32597 41406 10271 20191 39525 40136 84200 333 20207 58001;EQDQ01  00002PRCP06
0167827950999992004010718004-07217-035883FM-12+0560SBKG V0201401N004612200019N0100001N1+03131+01681100961ADDAA106000091GF105991011021008001001011MA1999999094901MD1999999-0031REMSYN070AAXX  07184 82795 32597 51409 10313 20168 39490 40096 81201 333 59003;EQDQ01  00002PRCP06
0198827950999992004010800004-07217-035883FM-12+0560SBKG V0201401N005110075019N0010001N1+02401+02091101311ADDAA106000091GF106991061021008001001001KA1240M+03211MA1999999095221MD1999999+0021REMSYN088AAXX  08004 82795 32594 61410 10240 20209 39522 40131 86200 333 10321 29070 55111 58002;EQDQ01  00002PRCP06
0190827950999992004010812004-07217-035883FM-12+0560SBKG V0201401N002610450019N0100001N1+02411+02111101231ADDAY151061AY221061GF106991031071008001021001KA1240N+02161MA1999999095111MD1999999-0141MW1021REMSYN088AAXX  08124 82795 21597 61405 10241 20211 39511 40123 70252 83720 333 20216 59014 69954;
0167827950999992004010818004-07217-035883FM-12+0560SBKG V0201401N004611050019N0100001N1+03021+02071100891ADDAA106000091GF107991041041008001001021MA1999999094831MD1999999-0071REMSYN070AAXX  08184 82795 32597 71409 10302 20207 39483 40089 84402 333 59007;EQDQ01  00002PRCP06
0198827950999992004010900004-07217-035883FM-12+0560SBKG V0201401N005710075019N0010001N1+02331+02111101291ADDAA106000091GF106991061051008001001001KA1240M+03171MA1999999095151MD1999999-0071REMSYN088AAXX  09004 82795 32594 61411 10233 20211 39515 40129 86500 333 10317 29079 55069 59007;EQDQ01  00002PRCP06
0186827950999992004010912004-07217-035883FM-12+0560SBKG V0201401N004610075019N0100001N1+02621+01761101191ADDAA106000091GF105991051021008001001001KA1240N+02201MA1999999095081MD1999999-0031REMSYN076AAXX  09124 82795 32597 51409 10262 20176 39508 40119 85200 333 20220 59003;EQDQ01  00002PRCP06
0167827950999992004010918004-07217-035883FM-12+0560SBKG V0201401N003112200019N0100001N1+03161+01711100811ADDAA106000091GF103991031011008001001001MA1999999094771MD1999999-0061REMSYN070AAXX  09184 82795 32597 31406 10316 20171 39477 40081 83100 333 59006;EQDQ01  00002PRCP06
0208827950999992004011000004-07217-035883FM-12+0560SBKG V0201401N004112200019N0010001N1+02331+01911101211ADDAA106000091GA1001+999999999GF100991001001999999001001KA1240M+03231MA1999999095111MD1999999-0111REMSYN082AAXX  10004 82795 32994 01408 10233 20191 39511 40121 333 10323 29064 55101 59011;EQDQ01  00002PRCP06
0190827950999992004011012004-07217-035883FM-12+0560SBKG V0200501N002110075019N0100001N1+02321+02181101221ADDAY161061AY221061GF108991081071008001999999KA1240N+02161MA1999999095071MD1999999-0011MW1021REMSYN088AAXX  10124 82795 21597 80504 10232 20218 39507 40122 70262 887// 333 20216 59001 60014;
0167827950999992004011018004-07217-035883FM-12+0560SBKG V0201401N001510075019N0100001N1+03041+01911100831ADDAA106000091GF105991051041008001001001MA1999999094761MD1999999-0011REMSYN070AAXX  10184 82795 32597 51403 10304 20191 39476 40083 85400 333 59001;EQDQ01  00002PRCP06
0198827950999992004011100004-07217-035883FM-12+0560SBKG V0201401N004610075019N0010001N1+02371+02131101201ADDAA106000091GF105991051061008001001001KA1240M+03111MA1999999095061MD1999999-0051REMSYN088AAXX  11004 82795 32594 51409 10237 20213 39506 40120 85600 333 10311 29079 55051 59005;EQDQ01  00002PRCP06
0186827950999992004011112004-07217-035883FM-12+0560SBKG V0200901N003610450019N0100001N1+02611+02031101381ADDAA106000091GF106991041031008001031001KA1240N+02211MA1999999095271MD1999999+0201REMSYN076AAXX  11124 82795 32597 60907 10261 20203 39527 40138 84330 333 20221 58020;EQDQ01  00002PRCP06
0167827950999992004011118004-07217-035883FM-12+0560SBKG V0201401N004110450019N0100001N1+02851+02041101081ADDAA106000091GF108991031041008001081051MA1999999094991MD1999999+0231REMSYN070AAXX  11184 82795 32597 81408 10285 20204 39499 40108 83485 333 58023;EQDQ01  00002PRCP06
0221827950999992004011200004-07217-035883FM-12+0560SBKG V0200901N003619999999N0010001N1+02341+02221101381ADDAY151061AY221061GF106991999071008001999999KA1240M+03101MA1999999095261MD1999999+0201MW1021REMSYN100AAXX  12004 82795 21594 60907 10234 20222 39526 40138 70252 887// 333 10310 29079 55027 58020 69911;EQDQ01+000082SCOTLC
0190827950999992004011212004-07217-035883FM-12+0560SBKG V0201401N002610075019N0100001N1+02441+02111101441ADDAY151061AY221061GF108991051071008001021999KA1240N+02241MA1999999095301MD1999999+0091MW1021REMSYN088AAXX  12124 82795 21597 81405 10244 20211 39530 40144 70252 8572/ 333 20224 58009 69944;
0195827950999992004011218004-07217-035883FM-12+0560SBKG V0201401N004610450019N0040001N1+02861+02141101031ADDAA106000091AY121061AY221061GF107991041081008001031001MA1999999094951MD1999999-0041MW1161REMSYN076AAXX  12184 82795 31596 71409 10286 20214 39495 40103 71622 84830 333 59004;EQDQ01  00002PRCP06
0202827950999992004011300004-07217-035883FM-12+0560SBKG V0201401N003110075019N0010001N1+02261+02231101471ADDAY161061AY221061GF108991081071008001999999KA1240M+03041MA1999999095331MD1999999+0071MW1611REMSYN100AAXX  13004 82795 21594 81406 10226 20223 39533 40147 76162 887// 333 10304 29085 55025 58007 60141;
0181827950999992004011312004-07217-035883FM-12+0560SBKG V0200501N002119999999N0100001N1+02541+02151101421ADDGF106991999021008001061021KA1240N+02141MA1999999095281MD1999999-0021REMSYN082AAXX  13124 82795 22597 60504 10254 20215 39528 40142 80262 333 20214 59002 60154;EQDQ01+000002SCOTLC
0195827950999992004011318004-07217-035883FM-12+0560SBKG V0201401N005110450019N0040001N1+02871+02191100931ADDAA106000091AY121061AY221061GF108991041071008001031999MA1999999094861MD1999999-0091MW1011REMSYN076AAXX  13184 82795 31596 81410 10287 20219 39486 40093 70122 8473/ 333 59009;EQDQ01  00002PRCP06
0198827950999992004011400004-07217-035883FM-12+0560SBKG V0201401N002110075019N0010001N1+02361+02151101281ADDAA106000091GF105991051061008001001001KA1240M+03001MA1999999095151MD1999999-0111REMSYN088AAXX  14004 82795 32594 51404 10236 20215 39515 40128 85600 333 10300 29080 55049 59011;EQDQ01  00002PRCP06
0190827950999992004011412004-07217-035883FM-12+0560SBKG V0201401N004610450019N0100001N1+02441+02191101331ADDAY151061AY221061GF106991031071008001021001KA1240N+02111MA1999999095201MD1999999-0081MW1021REMSYN088AAXX  14124 82795 21597 61409 10244 20219 39520 40133 70252 83720 333 20211 59008 69934;
0171827950999992004011418004-07217-035883FM-12+0560SBKG V0200901N003110120019N0100001N1+02381+02011101181ADDAY161061AY251061GF108991081081008001999999MA1999999095031MD1999999+0171MW1201REMSYN082AAXX  14184 82795 21597 80906 10238 20201 39503 40118 72065 888// 333 58017 60061;
0202827950999992004011500004-07217-035883FM-12+0560SBKG V0202701N000510120019N0010001N1+02131+02071101531ADDAY161061AY251061GF108991081081008001999999KA1240M+02591MA1999999095391MD1999999+0241MW1511REMSYN100AAXX  15004 82795 21594 82701 10213 20207 39539 40153 75165 888// 333 10259 29090 55016 58024 60071;
0162827950999992004011512004-07217-035883FM-12+0560SBKG V0201401N003110450019N0100001N1+02341+02151101351ADDGF106991031071008001021001KA1240N+02061MA1999999095171MD1999999-0031REMSYN082AAXX  15124 82795 22597 61406 10234 20215 39517 40135 83720 333 20206 59003 60144;
0167827950999992004011518004-07217-035883FM-12+0560SBKG V0200901N003110450019N0100001N1+02881+02001100941ADDAA106000091GF107991041041008001031011MA1999999094861MD1999999-0171REMSYN070AAXX  15184 82795 32597 70906 10288 20200 39486 40094 84431 333 59017;EQDQ01  00002PRCP06
0202827950999992004011600004-07217-035883FM-12+0560SBKG V0200501N003110075019N0010001N1+02291+02181101351ADDAY161061AY221061GF105991051061008001001001KA1240M+02901MA1999999095191MD1999999-0201MW1021REMSYN100AAXX  16004 82795 21594 50506 10229 20218 39519 40135 70262 85600 333 10290 29082 55029 59020 60061;
0190827950999992004011612004-07217-035883FM-12+0560SBKG V0201401N003610075019N0100001N1+02381+02171101151ADDAY161061AY221061GF106991061071008001001001KA1240N+02051MA1999999095011MD1999999-0161MW1021REMSYN088AAXX  16124 82795 21597 61407 10238 20217 39501 40115 70262 86700 333 20205 59016 60054;
0167827950999992004011618004-07217-035883FM-12+0560SBKG V0201401N003110450019N0100001N1+02721+02131100831ADDAA106000091GF108991041051008001051999MA1999999094751MD1999999-0111REMSYN070AAXX  16184 82795 32597 81406 10272 20213 39475 40083 8455/ 333 59011;EQDQ01  00002PRCP06
0198827950999992004011700004-07217-035883FM-12+0560SBKG V0201401N004612200019N0010001N1+02331+02131101081ADDAA106000091GF104991041061008001001001KA1240M+02751MA1999999094951MD1999999-0241REMSYN088AAXX  17004 82795 32594 41409 10233 20213 39495 40108 84600 333 10275 29084 55024 59024;EQDQ01  00002PRCP06
0186827950999992004011712004-07217-035883FM-12+0560SBKG V0201401N003610450019N0100001N1+02601+02101101191ADDAA106000091GF106991031051008001031001KA1240N+02161MA1999999095081MD1999999+0071REMSYN076AAXX  17124 82795 32597 61407 10260 20210 39508 40119 83530 333 20216 58007;EQDQ01  00002PRCP06
0167827950999992004011718004-07217-035883FM-12+0560SBKG V0201401N001510450019N0100001N1+03021+01861100781ADDAA106000091GF107991041081008001031041MA1999999094731MD1999999-0081REMSYN070AAXX  17184 82795 32597 71403 10302 20186 39473 40078 84834 333 59008;EQDQ01  00002PRCP06
0202827950999992004011800004-07217-035883FM-12+0560SBKG V0201401N002110075019N0010001N1+02341+02151101161ADDAY161061AY221061GF108991081071008001999999KA1240M+03021MA1999999095051MD1999999+0101MW1021REMSYN100AAXX  18004 82795 21594 81404 10234 20215 39505 40116 70262 887// 333 10302 29075 55057 58010 60101;
0190827950999992004011812004-07217-035883FM-12+0560SBKG V0200501N001510120019N0100001N1+02471+02091101341ADDAY161061AY221061GF108991081081008001999999KA1240N+02251MA1999999095201MD1999999+0131MW1021REMSYN088AAXX  18124 82795 21597 80503 10247 20209 39520 40134 70262 888// 333 20225 58013 60104;
0202827950999992004011900004-07217-035883FM-12+0560SBKG V0209999C000010120019N0010001N1+02221+02071101511ADDAY161061AY251061GF108991081081008001999999KA1240M+02721MA1999999095351MD1999999+0301MW1501REMSYN100AAXX  19004 82795 21594 83200 10222 20207 39535 40151 75065 888// 333 10272 29087 55003 58030 60021;
0162827950999992004011912004-07217-035883FM-12+0560SBKG V0200501N002110450019N0100001N1+02721+01681101231ADDGF106991031031008001041001KA1240N+02041MA1999999095121MD1999999-0021REMSYN082AAXX  19124 82795 22597 60504 10272 20168 39512 40123 83340 333 20204 59002 60054;
0171827950999992004011918004-07217-035883FM-12+0560SBKG V0203201N003110450019N0020001N1+02481+02051101001ADDAY121061AY221061GF108991041071004501051999MA1999999094851MD1999999-0221MW1211REMSYN082AAXX  19184 82795 21495 83206 10248 20205 39485 40100 72122 8475/ 333 59022 60021;
0202827950999992004012000004-07217-035883FM-12+0560SBKG V0201401N003110090019N0010001N1+02241+02031101501ADDAY161061AY291061GF108991081081004501999999KA1240M+02981MA1999999095341MD1999999-0011MW1951REMSYN100AAXX  20004 82795 21494 81406 10224 20203 39534 40150 79569 888// 333 10298 29078 55022 59001 60021;
0190827950999992004012012004-07217-035883FM-12+0560SBKG V0201401N001510075019N0100001N1+02311+02051101351ADDAY161061AY221061GF108991051071008001011999KA1240N+02231MA1999999095181MD1999999+0061MW1021REMSYN088AAXX  20124 82795 21597 81403 10231 20205 39518 40135 70262 8571/ 333 20223 58006 60174;
0171827950999992004012018004-07217-035883FM-12+0560SBKG V0200901N002610120019N0100001N1+02601+02011100921ADDAY151061AY221061GF108991081081008001999999MA1999999094811MD1999999-0041MW1021REMSYN082AAXX  20184 82795 21597 80905 10260 20201 39481 40092 70252 888// 333 59004 69951;
0202827950999992004012100004-07217-035883FM-12+0560SBKG V0200901N000510090019N0010001N1+02031+01951101561ADDAY161061AY261061GF108991081081004501999999KA1240M+02681MA1999999095301MD1999999+0161MW1631REMSYN100AAXX  21004 82795 21494 80901 10203 20195 39530 40156 76366 888// 333 10268 29087 55008 58016 60321;
0190827950999992004012112004-07217-035883FM-12+0560SBKG V0202301N002110450019N0100001N1+02491+02231101361ADDAY161061AY221061GF106991021041008001031011KA1240N+02331MA1999999095181MD1999999+0001MW1021REMSYN088AAXX  21124 82795 21597 62304 10249 20223 39518 40136 70262 82431 333 20233 58000 60394;
0167827950999992004012118004-07217-035883FM-12+0560SBKG V0202301N001510450019N0100001N1+02851+01911101011ADDAA106000091GF107991041051008001031021MA1999999094801MD1999999-0011REMSYN070AAXX  21184 82795 32597 72303 10285 20191 39480 40101 84532 333 59001;EQDQ01  00002PRCP06
0202827950999992004012200004-07217-035883FM-12+0560SBKG V0200501N001510450019N0010001N1+02221+01951101251ADDAY161061AY221061GF108991041051008001051999KA1240M+02861MA1999999095131MD1999999-0171MW1021REMSYN100AAXX  22004 82795 21594 80503 10222 20195 39513 40125 70262 8455/ 333 10286 29079 55057 59017 60011;
0190827950999992004012212004-07217-035883FM-12+0560SBKG V0200501N001010075019N0100001N1+02631+01981101201ADDAY161061AY221061GF108991051071008001021999KA1240N+02061MA1999999095081MD1999999-0101MW1021REMSYN088AAXX  22124 82795 21597 80502 10263 20198 39508 40120 70262 8572/ 333 20206 59010 60084;
0202827950999992004012300004-07217-035883FM-12+0560SBKG V0200901N001510075019N0010001N1+02171+02011101201ADDAY161061AY251061GF108991081071008001999999KA1240M+02711MA1999999095081MD1999999+0051MW1501REMSYN100AAXX  23004 82795 21594 80903 10217 20201 39508 40120 75065 887// 333 10271 29086 55038 58005 60051;
0181827950999992004012309004-07217-035883FM-15+0560SBKG V0201301N003110030019N0050001N1+02101+02101999999ADDGA1071+003009999GA2071+004509999GF107991999999999999999999MA1101291999999MW1101REMMET055SBKG 230900Z 13006KT 5000 BR BKN010 BKN015 21/21 Q1013;EQDQ01+000003PRSWM1Q02    003PRSWM1
0185827950999992004012310004-07217-035883FM-15+0560SBKG V0201001N003110045019N0112651N1+02201+02201999999ADDGA1041+003609999GA2071+004509999GA3071+024009999GF107991999999999999999999MA1101291999999MW1001REMMET059SBKG 231000Z 10006KT 9999 SCT012 BKN015 BKN080 22/22 Q1013;EQDQ01+000000PRSWM2
0190827950999992004012312004-07217-035883FM-12+0560SBKG V0200501N001510450019N0100001N1+02171+02101101241ADDAY161061AY221061GF106991041051008001031001KA1240N+02151MA1999999095061MD1999999-0021MW1021REMSYN088AAXX  23124 82795 21597 60503 10217 20210 39506 40124 70262 84530 333 20215 59002 60494;
0167827950999992004012318004-07217-035883FM-12+0560SBKG V0201401N005110120019N0100001N1+02651+01931100911ADDAA106000091GF107991051081008001031001MA1999999094791MD1999999+0041REMSYN070AAXX  23184 82795 32597 71410 10265 20193 39479 40091 85830 333 58004;EQDQ01  00002PRCP06
0198827950999992004012400004-07217-035883FM-12+0560SBKG V0201401N003110075019N0010001N1+02261+02181101301ADDAA106000091GF106991061061008001001001KA1240M+02721MA1999999095121MD1999999+0041REMSYN088AAXX  24004 82795 32594 61406 10226 20218 39512 40130 86600 333 10272 29088 55034 58004;EQDQ01  00002PRCP06
0186827950999992004012412004-07217-035883FM-12+0560SBKG V0201401N002110450019N0100001N1+02411+01991101331ADDAA106000091GF106991031081008001031001KA1240N+02131MA1999999095151MD1999999+0111REMSYN076AAXX  24124 82795 32597 61404 10241 20199 39515 40133 83830 333 20213 58011;EQDQ01  00002PRCP06
0167827950999992004012418004-07217-035883FM-12+0560SBKG V0201401N003111050019N0100001N1+02821+01751100951ADDAA106000091GF106991031031008001001021MA1999999094871MD1999999+0081REMSYN070AAXX  24184 82795 32597 61406 10282 20175 39487 40095 83302 333 58008;EQDQ01  00002PRCP06
0198827950999992004012500004-07217-035883FM-12+0560SBKG V0201401N003112200019N0010001N1+02311+02031101281ADDAA106000091GF104991041061008001001001KA1240M+02871MA1999999095141MD1999999+0021REMSYN088AAXX  25004 82795 32594 41406 10231 20203 39514 40128 84600 333 10287 29075 55076 58002;EQDQ01  00002PRCP06
0190827950999992004012512004-07217-035883FM-12+0560SBKG V0201401N002110450019N0100001N1+02351+02111101361ADDAY161061AY221061GF106991031081008001021001KA1240N+02041MA1999999095201MD1999999+0031MW1021REMSYN088AAXX  25124 82795 21597 61404 10235 20211 39520 40136 70262 83820 333 20204 58003 60244;
0190827950999992004012518004-07217-035883FM-12+0560SBKG V0201401N003119999999N0100001N1+02711+02061100991ADDAY161061AY221061GF106991999021008001001001MA1999999094861MD1999999-0011MW1021REMSYN082AAXX  25184 82795 21597 61406 10271 20206 39486 40099 70262 84200 333 59001 60011;EQDQ01+000042SCOTLC
0202827950999992004012600004-07217-035883FM-12+0560SBKG V0201401N001510090019N0010001N1+02181+02081101371ADDAY161061AY251061GF108991081081004501999999KA1240M+02741MA1999999095201MD1999999+0061MW1501REMSYN100AAXX  26004 82795 21494 81403 10218 20208 39520 40137 75065 888// 333 10274 29085 55042 58006 60011;
0190827950999992004012612004-07217-035883FM-12+0560SBKG V0200501N002110450019N0100001N1+02321+02051101331ADDAY161061AY221061GF106991041081008001061001KA1240N+02051MA1999999095161MD1999999-0041MW1021REMSYN088AAXX  26124 82795 21597 60504 10232 20205 39516 40133 70262 84860 333 20205 59004 60204;
0167827950999992004012618004-07217-035883FM-12+0560SBKG V0201401N003610450019N0100001N1+02881+02031100971ADDAA106000091GF107991041061008001031001MA1999999094871MD1999999+0011REMSYN070AAXX  26184 82795 32597 71407 10288 20203 39487 40097 84630 333 58001;EQDQ01  00002PRCP06
0202827950999992004012700004-07217-035883FM-12+0560SBKG V0201401N003610075019N0010001N1+02241+02101101201ADDAY161061AY221061GF105991051061008001001001KA1240M+02901MA1999999095041MD1999999-0181MW1021REMSYN100AAXX  27004 82795 21594 51407 10224 20210 39504 40120 70262 85600 333 10290 29082 55038 59018 60041;
0190827950999992004012712004-07217-035883FM-12+0560SBKG V0201401N001510120019N0100001N1+02171+02111101391ADDAY161061AY221061GF108991081081008001999999KA1240N+02141MA1999999095211MD1999999+0051MW1021REMSYN088AAXX  27124 82795 21597 81403 10217 20211 39521 40139 70262 888// 333 20214 58005 60124;
0171827950999992004012718004-07217-035883FM-12+0560SBKG V0200901N001510042019N0020001N1+02221+02141101191ADDAY161061AY251061GF108991081071004501999999MA1999999095011MD1999999+0141MW1511REMSYN082AAXX  27184 82795 21495 80903 10222 20214 39501 40119 75165 887// 333 58014 60141;
0202827950999992004012800004-07217-035883FM-12+0560SBKG V0200501N003110042019N0010001N1+02121+02071101461ADDAY111061AY261061GF108991081071004501999999KA1240M+02591MA1999999095261MD1999999+0221MW1251REMSYN100AAXX  28004 82795 21494 80506 10212 20207 39526 40146 72516 887// 333 10259 29097 55000 58022 60041;
0190827950999992004012812004-07217-035883FM-12+0560SBKG V0201401N001010075019N0100001N1+02321+02051101461ADDAY161061AY221061GF107991051051008001021001KA1240N+02031MA1999999095311MD1999999+0101MW1021REMSYN088AAXX  28124 82795 21597 71402 10232 20205 39531 40146 70262 85520 333 20203 58010 60234;
0171827950999992004012818004-07217-035883FM-12+0560SBKG V0200901N003110120019N0040001N1+02211+02141101291ADDAY161061AY251061GF108991081081008001999999MA1999999095091MD1999999+0081MW1201REMSYN082AAXX  28184 82795 21596 80906 10221 20214 39509 40129 72065 888// 333 58008 60131;
0202827950999992004012900004-07217-035883FM-12+0560SBKG V0201401N001510075019N0010001N1+02081+02031101541ADDAY161061AY251061GF108991081071008001999999KA1240M+02631MA1999999095341MD1999999+0081MW1021REMSYN100AAXX  29004 82795 21594 81403 10208 20203 39534 40154 70265 887// 333 10263 29097 55024 58008 60111;
0190827950999992004012912004-07217-035883FM-12+0560SBKG V0201401N003610450019N0100001N1+02221+01921101471ADDAY161061AY221061GF106991041041008001081001KA1240N+02031MA1999999095271MD1999999-0041MW1021REMSYN088AAXX  29124 82795 21597 61407 10222 20192 39527 40147 70262 84480 333 20203 59004 60264;
0167827950999992004012918004-07217-035883FM-12+0560SBKG V0201401N005110075019N0100001N1+02531+02051101161ADDAA106000091GF107991051041008001031001MA1999999095001MD1999999-0091REMSYN070AAXX  29184 82795 32597 71410 10253 20205 39500 40116 85430 333 59009;EQDQ01  00002PRCP06
0202827950999992004013000004-07217-035883FM-12+0560SBKG V0201401N003610075019N0010001N1+02221+02101101411ADDAY151061AY221061GF105991051061008001001001KA1240M+02791MA1999999095251MD1999999-0111MW1021REMSYN100AAXX  30004 82795 21594 51407 10222 20210 39525 40141 70252 85600 333 10279 29086 55039 59011 69921;
0190827950999992004013012004-07217-035883FM-12+0560SBKG V0201401N003110075019N0100001N1+02331+02111101471ADDAY141061AY221061GF106991051051008001021001KA1240N+02101MA1999999095201MD1999999+0021MW1021REMSYN088AAXX  30124 82795 21597 61406 10233 20211 39520 40147 70242 85520 333 20210 58002 60044;
0171827950999992004013018004-07217-035883FM-12+0560SBKG V0201401N003110450019N0100001N1+02611+02101101131ADDAY151061AY221061GF107991041041008001051001MA1999999095001MD1999999+0001MW1021REMSYN082AAXX  30184 82795 21597 71406 10261 20210 39500 40113 70252 84450 333 58000 60011;
0198827950999992004013100004-07217-035883FM-12+0560SBKG V0201401N002110075019N0010001N1+02261+02141101501ADDAA106000091GF106991061061008001001001KA1240M+02731MA1999999095321MD1999999+0091REMSYN088AAXX  31004 82795 32594 61404 10226 20214 39532 40150 86600 333 10273 29084 55032 58009;EQDQ01  00002PRCP06
0190827950999992004013112004-07217-035883FM-12+0560SBKG V0201401N003111050019N0100001N1+02471+02071101321ADDAY161061AY221061GF106991041081008001001031KA1240N+02121MA1999999095181MD1999999-0111MW1021REMSYN088AAXX  31124 82795 21597 61406 10247 20207 39518 40132 70262 84803 333 20212 59011 60024;
0171827950999992004013118004-07217-035883FM-12+0560SBKG V0201401N003110075019N0100001N1+02311+02181101281ADDAY161061AY251061GF107991051071008001021001MA1999999095091MD1999999+0091MW1201REMSYN082AAXX  31184 82795 21597 71406 10231 20218 39509 40128 72065 85720 333 58009 60091;
0202827950999992004020100004-07217-035883FM-12+0560SBKG V0201401N001510075019N0010001N1+02201+02121101421ADDAY161061AY251061GF108991081071008001999999KA1240M+02721MA1999999095261MD1999999-0061MW1501REMSYN100AAXX  01004 82795 21594 81403 10220 20212 39526 40142 75065 887// 333 10272 29090 55035 59006 60141;
0190827950999992004020112004-07217-035883FM-12+0560SBKG V0200901N002610450019N0100001N1+02161+02091101581ADDAY161061AY221061GF106991021041008001041001KA1240N+01991MA1999999095371MD1999999+0191MW1021REMSYN088AAXX  01124 82795 21597 60905 10216 20209 39537 40158 70262 82440 333 20199 58019 60764;
0167827950999992004020118004-07217-035883FM-12+0560SBKG V0201401N001510120019N0100001N1+02731+02001101231ADDAA106000091GF105991051081008001001001MA1999999095091MD1999999+0001REMSYN070AAXX  01184 82795 32597 51403 10273 20200 39509 40123 85800 333 58000;EQDQ01  00002PRCP06
0202827950999992004020200004-07217-035883FM-12+0560SBKG V0201401N003110075019N0010001N1+02231+02071101501ADDAY151061AY221061GF105991051061008001001001KA1240M+02781MA1999999095311MD1999999+0051MW1021REMSYN100AAXX  02004 82795 21594 51406 10223 20207 39531 40150 70252 85600 333 10278 29085 55055 58005 69941;
0190827950999992004020212004-07217-035883FM-12+0560SBKG V0201401N003110075019N0100001N1+02521+02091101421ADDAY161061AY221061GF106991061021008001001001KA1240N+02061MA1999999095271MD1999999-0101MW1021REMSYN088AAXX  02124 82795 21597 61406 10252 20209 39527 40142 70262 86200 333 20206 59010 60044;
0171827950999992004020218004-07217-035883FM-12+0560SBKG V0201401N000510075019N0100001N1+02441+02111101061ADDAY161061AY251061GF107991051041008001081001MA1999999094961MD1999999-0131MW1211REMSYN082AAXX  02184 82795 21597 71401 10244 20211 39496 40106 72165 85480 333 59013 60041;
0179827950999992004020300004-07217-035883FM-12+0560SBKG V0200901N002110075019N0010001N1+02221+02151101381ADDAA106000021GF108991081071008001999999KA1240M+02841MA1999999095231MD1999999-0081REMSYN088AAXX  03004 82795 32594 80904 10222 20215 39523 40138 887// 333 10284 29088 55062 59008;
0162827950999992004020312004-07217-035883FM-12+0560SBKG V0201401N000510075019N0100001N1+02431+01991101261ADDGF106991061021008001001001KA1240N+02141MA1999999095111MD1999999-0161REMSYN082AAXX  03124 82795 22597 61401 10243 20199 39511 40126 86200 333 20214 59016 60044;
0171827950999992004020318004-07217-035883FM-12+0560SBKG V0201401N005110075019N0100001N1+02341+02261101061ADDAY161061AY251061GF108991081071008001999999MA1999999094911MD1999999+0051MW1611REMSYN082AAXX  03184 82795 21597 81410 10234 20226 39491 40106 76165 887// 333 58005 60051;
0202827950999992004020400004-07217-035883FM-12+0560SBKG V0200901N004110075019N0010001N1+02261+02161101351ADDAY161061AY221061GF108991081071008001999999KA1240M+02931MA1999999095211MD1999999-0021MW1021REMSYN100AAXX  04004 82795 21594 80908 10226 20216 39521 40135 70262 887// 333 10293 29090 55046 59002 60011;
0190827950999992004020412004-07217-035883FM-12+0560SBKG V0201401N003110075019N0100001N1+02461+02211101331ADDAY161061AY221061GF107991071071008001001001KA1240N+02091MA1999999095191MD1999999+0081MW1021REMSYN088AAXX  04124 82795 21597 71406 10246 20221 39519 40133 70262 87700 333 20209 58008 60114;
0171827950999992004020418004-07217-035883FM-12+0560SBKG V0201401N002110075019N0100001N1+02421+02251101081ADDAY161061AY291061GF108991081071008001999999MA1999999094931MD1999999+0021MW1951REMSYN082AAXX  04184 82795 21597 81404 10242 20225 39493 40108 79569 887// 333 58002 60051;
0202827950999992004020500004-07217-035883FM-12+0560SBKG V0200901N000510120019N0002001N1+02201+02151101371ADDAY191061AY261061GF108991081081008001999999KA1240M+02821MA1999999095211MD1999999+0061MW1611REMSYN100AAXX  05004 82795 21592 80901 10220 20215 39521 40137 76196 888// 333 10282 29092 55029 58006 60501;
0190827950999992004020512004-07217-035883FM-12+0560SBKG V0201401N001510075019N0040001N1+02341+02271101281ADDAY161061AY251061GF108991081071008001999999KA1240N+02131MA1999999095121MD1999999-0071MW1501REMSYN088AAXX  05124 82795 21596 81403 10234 20227 39512 40128 75065 887// 333 20213 59007 60584;
0171827950999992004020518004-07217-035883FM-12+0560SBKG V0201401N003110075019N0040001N1+02211+02081101091ADDAY161061AY251061GF108991081071008001999999MA1999999094911MD1999999-0021MW1511REMSYN082AAXX  05184 82795 21596 81406 10221 20208 39491 40109 75165 887// 333 59002 60011;
0202827950999992004020600004-07217-035883FM-12+0560SBKG V0200901N000510075019N0010001N1+02241+02191101331ADDAY161061AY251061GF108991081071008001999999KA1240M+02691MA1999999095171MD1999999-0041MW1021REMSYN100AAXX  06004 82795 21594 80901 10224 20219 39517 40133 70265 887// 333 10269 29096 55000 59004 60091;
0190827950999992004020612004-07217-035883FM-12+0560SBKG V0200901N002110075019N0100001N1+02391+02211101261ADDAY161061AY221061GF107991071071008001001001KA1240N+02081MA1999999095111MD1999999-0011MW1021REMSYN088AAXX  06124 82795 21597 70904 10239 20221 39511 40126 70262 87700 333 20208 59001 60164;
0167827950999992004020618004-07217-035883FM-12+0560SBKG V0200501N003110450019N0100001N1+02731+02081101061ADDAA106000091GF106991031081008001031001MA1999999094941MD1999999-0041REMSYN070AAXX  06184 82795 32597 60506 10273 20208 39494 40106 83830 333 59004;EQDQ01  00002PRCP06
0198827950999992004020700004-07217-035883FM-12+0560SBKG V0200901N002110450019N0010001N1+02291+02161101241ADDAA106000091GF107991041021008001051001KA1240M+02771MA1999999095101MD1999999-0071REMSYN088AAXX  07004 82795 32594 70904 10229 20216 39510 40124 84250 333 10277 29086 55037 59007;EQDQ01  00002PRCP06
0186827950999992004020712004-07217-035883FM-12+0560SBKG V0200901N004110075019N0100001N1+02491+02091101211ADDAA106000091GF106991061061008001001001KA1240N+02161MA1999999095091MD1999999-0021REMSYN076AAXX  07124 82795 32597 60908 10249 20209 39509 40121 86600 333 20216 59002;EQDQ01  00002PRCP06
0171827950999992004020718004-07217-035883FM-12+0560SBKG V0200901N001510450019N0020001N1+02501+02341101031ADDAY161061AY221061GF107991041031008001081021MA1999999094891MD1999999-0051MW1601REMSYN082AAXX  07184 82795 21595 70903 10250 20234 39489 40103 76062 84382 333 59005 69961;
0198827950999992004020800004-07217-035883FM-12+0560SBKG V0200901N002610075019N0010001N1+02351+02261101291ADDAA106000021GF106991999061008001001001KA1240M+02861MA1999999095161MD1999999+0061REMSYN088AAXX  08004 82795 32594 60905 10235 20226 39516 40129 85600 333 10286 29097 55074 58006;EQDQ01+000052SCOTLC
0162827950999992004020812004-07217-035883FM-12+0560SBKG V0201401N003110075019N0100001N1+02471+02091101391ADDGF106991061021008001001001KA1240N+02511MA1999999095251MD1999999+0161REMSYN082AAXX  08124 82795 22597 61406 10247 20209 39525 40139 86200 333 20251 58016 69964;
0167827950999992004020818004-07217-035883FM-12+0560SBKG V0200901N004110075019N0100001N1+02861+02141101111ADDAA106000091GF106991061021008001001001MA1999999095021MD1999999+0131REMSYN070AAXX  08184 82795 32597 60908 10286 20214 39502 40111 86200 333 58013;EQDQ01  00002PRCP06
0198827950999992004020900004-07217-035883FM-12+0560SBKG V0200901N003612200019N0010001N1+02341+02151101421ADDAA106000091GF104991041021008001001001KA1240M+02911MA1999999095281MD1999999+0161REMSYN088AAXX  09004 82795 32594 40907 10234 20215 39528 40142 84200 333 10291 29081 55090 58016;EQDQ01  00002PRCP06
0186827950999992004020912004-07217-035883FM-12+0560SBKG V0201401N003610075019N0100001N1+02521+02021101521ADDAA106000091GF106991061021008001001001KA1240N+02131MA1999999095381MD1999999+0131REMSYN076AAXX  09124 82795 32597 61407 10252 20202 39538 40152 86200 333 20213 58013;EQDQ01  00002PRCP06
0167827950999992004020918004-07217-035883FM-12+0560SBKG V0201401N003612200019N0100001N1+02851+01791101161ADDAA106000091GF103991031021008001001001MA1999999095061MD1999999+0041REMSYN070AAXX  09184 82795 32597 31407 10285 20179 39506 40116 83200 333 58004;EQDQ01  00002PRCP06
0208827950999992004021000004-07217-035883FM-12+0560SBKG V0200901N001512200019N0010001N1+02291+01941101421ADDAA106000091GA1001+999999999GF100991001001999999001001KA1240M+02881MA1999999095281MD1999999+0001REMSYN082AAXX  10004 82795 32594 00903 10229 20194 39528 40142 333 10288 29072 55098 58000;EQDQ01  00002PRCP06
0190827950999992004021012004-07217-035883FM-12+0560SBKG V0201401N003612200019N0100001N1+02491+01981101441ADDAY161061AY221061GF106991041021008001001011KA1240N+02021MA1999999095301MD1999999-0081MW1021REMSYN088AAXX  10124 82795 21597 61407 10249 20198 39530 40144 70262 84201 333 20202 59008 69914;
0167827950999992004021018004-07217-035883FM-12+0560SBKG V0201401N004110075019N0100001N1+02891+01891101201ADDAA106000091GF105991051021008001001001MA1999999095091MD1999999+0031REMSYN070AAXX  10184 82795 32597 51408 10289 20189 39509 40120 85200 333 58003;EQDQ01  00002PRCP06
0198827950999992004021100004-07217-035883FM-12+0560SBKG V0200901N002610075019N0010001N1+02301+02071101411ADDAA106000091GF106991061021008001001001KA1240M+02921MA1999999095271MD1999999-0011REMSYN088AAXX  11004 82795 32594 60905 10230 20207 39527 40141 86200 333 10292 29076 55109 59001;EQDQ01  00002PRCP06
0186827950999992004021112004-07217-035883FM-12+0560SBKG V0201401N004110075019N0100001N1+02361+01911101441ADDAA106000091GF105991051021008001001001KA1240N+01961MA1999999095281MD1999999-0021REMSYN076AAXX  11124 82795 32597 51408 10236 20191 39528 40144 85200 333 20196 59002;EQDQ01  00002PRCP06
0167827950999992004021118004-07217-035883FM-12+0560SBKG V0201401N005112200019N0100001N1+02841+01701101241ADDAA106000091GF103991031021008001001001MA1999999095131MD1999999+0041REMSYN070AAXX  11184 82795 32597 31410 10284 20170 39513 40124 83200 333 58004;EQDQ01  00002PRCP06
0198827950999992004021200004-07217-035883FM-12+0560SBKG V0201401N003110075019N0010001N1+02451+01921101421ADDAA106000091GF106991061021008001001001KA1240M+02901MA1999999095281MD1999999+0011REMSYN088AAXX  12004 82795 32594 61406 10245 20192 39528 40142 86200 333 10290 29068 55112 58001;EQDQ01  00002PRCP06
0190827950999992004021212004-07217-035883FM-12+0560SBKG V0201401N003610075019N0020001N1+02201+02151101461ADDAY161061AY251061GF108991051071008001021999KA1240N+02081MA1999999095301MD1999999+0021MW1551REMSYN088AAXX  12124 82795 21595 81407 10220 20215 39530 40146 75565 8572/ 333 20208 58002 60074;
0171827950999992004021218004-07217-035883FM-12+0560SBKG V0201401N003610120019N0040001N1+02421+02251101311ADDAY161061AY251061GF108991081081008001999999MA1999999095141MD1999999+0011MW1021REMSYN082AAXX  12184 82795 21596 81407 10242 20225 39514 40131 70265 888// 333 58001 60151;
0198827950999992004021300004-07217-035883FM-12+0560SBKG V0200901N001010075019N0010001N1+02231+02081101571ADDAA106000091GF106991061061008001001001KA1240M+02951MA1999999095371MD1999999+0091REMSYN088AAXX  13004 82795 32594 60902 10223 20208 39537 40157 86600 333 10295 29093 55000 58009;EQDQ01  00002PRCP06
0162827950999992004021312004-07217-035883FM-12+0560SBKG V0201401N003110075019N0100001N1+02361+01971101611ADDGF106991061061008001001001KA1240N+02011MA1999999095431MD1999999+0131REMSYN082AAXX  13124 82795 22597 61406 10236 20197 39543 40161 86600 333 20201 58013 60154;
0167827950999992004021318004-07217-035883FM-12+0560SBKG V0201401N003611050019N0100001N1+02751+01841101241ADDAA106000091GF106991031041008001001021MA1999999095121MD1999999-0021REMSYN070AAXX  13184 82795 32597 61407 10275 20184 39512 40124 83402 333 59002;EQDQ01  00002PRCP06
0208827950999992004021400004-07217-035883FM-12+0560SBKG V0200901N003112200019N0010001N1+02221+01941101541ADDAA106000091GA1001+999999999GF100991001001999999001001KA1240M+02841MA1999999095371MD1999999+0001REMSYN082AAXX  14004 82795 32994 00906 10222 20194 39537 40154 333 10284 29076 55077 58000;EQDQ01  00002PRCP06
0186827950999992004021412004-07217-035883FM-12+0560SBKG V0201401N001510075019N0100001N1+02391+02031101561ADDAA106000091GF106991061021008001001001KA1240N+02031MA1999999095391MD1999999-0041REMSYN076AAXX  14124 82795 32597 61403 10239 20203 39539 40156 86200 333 20203 59004;EQDQ01  00002PRCP06
0171827950999992004021418004-07217-035883FM-12+0560SBKG V0200901N002610075019N0040001N1+02481+02191101261ADDAY161061AY221061GF107991061031008001061001MA1999999095101MD1999999-0021MW1211REMSYN082AAXX  14184 82795 21596 70905 10248 20219 39510 40126 72162 86360 333 59002 69951;
0221827950999992004021500004-07217-035883FM-12+0560SBKG V0200901N003110075019N0010001N1+02281+02171101461ADDAY161061AY221061GF108991999031008001001001KA1240M+02771MA1999999095301MD1999999-0071MW1021REMSYN100AAXX  15004 82795 21594 80906 10228 20217 39530 40146 70262 87300 333 10277 29089 55057 59007 60181;EQDQ01+000072SCOTLC
0190827950999992004021512004-07217-035883FM-12+0560SBKG V0201401N003610075019N0100001N1+02321+02181101401ADDAY161061AY251061GF108991051071008001011001KA1240N+02151MA1999999095231MD1999999-0161MW1021REMSYN088AAXX  15124 82795 21597 81407 10232 20218 39523 40140 70265 85710 333 20215 59016 60224;
0190827950999992004021518004-07217-035883FM-12+0560SBKG V0201401N003610075019N0040001N1+02571+02351101121ADDAY161061AY221061GF107991999031008001001001MA1999999094991MD1999999-0111MW1601REMSYN082AAXX  15184 82795 21596 71407 10257 20235 39499 40112 76062 86300 333 59011 60011;EQDQ01+000062SCOTLC
0202827950999992004021600004-07217-035883FM-12+0560SBKG V0200901N003610075019N0010001N1+02311+02181101411ADDAY161061AY221061GF107991051031008001051001KA1240M+02711MA1999999095211MD1999999-0051MW1021REMSYN100AAXX  16004 82795 21594 70907 10231 20218 39521 40141 70262 85350 333 10271 29091 55020 59005 60021;
0162827950999992004021612004-07217-035883FM-12+0560SBKG V0201401N003610075019N0100001N1+02451+02111101441ADDGF106991061021008001001001KA1240N+02161MA1999999095291MD1999999+0061REMSYN082AAXX  16124 82795 22597 61407 10245 20211 39529 40144 86200 333 20216 58006 60034;
0167827950999992004021618004-07217-035883FM-12+0560SBKG V0201401N002112200019N0100001N1+02891+01901101101ADDAA106000091GF104991041031008001001001MA1999999095011MD1999999+0021REMSYN070AAXX  16184 82795 32597 41404 10289 20190 39501 40110 84300 333 58002;EQDQ01  00002PRCP06
0186827950999992004021712004-07217-035883FM-12+0560SBKG V0201401N002610075019N0100001N1+02401+02031101531ADDAA106000091GF106991061021008001001001KA1240N+02061MA1999999095371MD1999999+0081REMSYN076AAXX  17124 82795 32597 61405 10240 20203 39537 40153 86200 333 20206 58008;EQDQ01  00002PRCP06
0077827950999992004021718004-07217-035883FM-12+0560SBKG V02099999999999999999N9999999N1+99999+99999999999REMSYN068AAXX  17184 82795 397 51409 10283 20177 39511 40122 82201 333 58010;
0208827950999992004021800004-07217-035883FM-12+0560SBKG V0200901N003112200019N0010001N1+02271+02031101541ADDAA106000091GA1001+999999999GF100991001001999999001001KA1240M+02911MA1999999095321MD1999999+0051REMSYN082AAXX  18004 82795 32994 00906 10227 20203 39532 40154 333 10291 29077 55093 58005;EQDQ01  00002PRCP06
0186827950999992004021812004-07217-035883FM-12+0560SBKG V0201401N004110075019N0100001N1+02501+01961101481ADDAA106000091GF106991051021008001021001KA1240N+02051MA1999999095331MD1999999-0041REMSYN076AAXX  18124 82795 32597 61408 10250 20196 39533 40148 85220 333 20205 59004;EQDQ01  00002PRCP06
0171827950999992004021818004-07217-035883FM-12+0560SBKG V0201401N002610120019N0020001N1+02461+02191101251ADDAY151061AY221061GF108991081081008001999999MA1999999095091MD1999999-0021MW1201REMSYN082AAXX  18184 82795 21595 81405 10246 20219 39509 40125 72052 888// 333 59002 69951;
0181827950999992004021912004-07217-035883FM-12+0560SBKG V0201401N003110075019N0100001N1+02451+02011101381ADDGF108991999021008001001001KA1240N+01981MA1999999095231MD1999999-0101REMSYN082AAXX  19124 82795 22597 81406 10245 20201 39523 40138 86200 333 20198 59010 69974;EQDQ01+000062SCOTLC
0167827950999992004021918004-07217-035883FM-12+0560SBKG V0201401N002610075019N0100001N1+02831+01801101101ADDAA106000091GF105991051031008001001001MA1999999094981MD1999999-0111REMSYN070AAXX  19184 82795 32597 51405 10283 20180 39498 40110 85300 333 59011;EQDQ01  00002PRCP06
0198827950999992004022000004-07217-035883FM-12+0560SBKG V0200901N003112200019N0010001N1+02321+02131101201ADDAA106000091GF104991021021008001001011KA1240M+02951MA1999999095061MD1999999-0181REMSYN088AAXX  20004 82795 32594 40906 10232 20213 39506 40120 82201 333 10295 29077 55085 59018;EQDQ01  00002PRCP06
0190827950999992004022012004-07217-035883FM-12+0560SBKG V0201401N002110075019N0100001N1+02371+02131101331ADDAY161061AY221061GF106991061061008001001001KA1240N+02131MA1999999095171MD1999999-0061MW1021REMSYN088AAXX  20124 82795 21597 61404 10237 20213 39517 40133 70262 86600 333 20213 59006 69914;
0171827950999992004022018004-07217-035883FM-12+0560SBKG V0201401N002119999999N0100001N1+02421+02011101171ADDAY151061AY221061GF107991071001008001071001MA1999999095011MD1999999+0031MW1021REMSYN082AAXX  20184 82795 21597 71404 10242 20201 39501 40117 70252 87070 333 58003 69961;
0198827950999992004022100004-07217-035883FM-12+0560SBKG V0200901N004610120019N0010001N1+02261+02111101321ADDAA106000091GF107991071081008001001001KA1240M+02771MA1999999095161MD1999999+0101REMSYN088AAXX  21004 82795 32594 70909 10226 20211 39516 40132 87800 333 10277 29086 55033 58010;EQDQ01  00002PRCP06
0190827950999992004022112004-07217-035883FM-12+0560SBKG V0201401N003610075019N0100001N1+02371+02071101511ADDAY161061AY221061GF108991081071008001999999KA1240N+02061MA1999999095341MD1999999+0171MW1021REMSYN088AAXX  21124 82795 21597 81407 10237 20207 39534 40151 70262 887// 333 20206 58017 69984;
0167827950999992004022118004-07217-035883FM-12+0560SBKG V0201401N004610075019N0100001N1+02761+02041101191ADDAA106000091GF106991061021008001001001MA1999999095081MD1999999+0071REMSYN070AAXX  21184 82795 32597 61409 10276 20204 39508 40119 86200 333 58007;EQDQ01  00002PRCP06
0198827950999992004022200004-07217-035883FM-12+0560SBKG V0200901N003610075019N0010001N1+02321+02001101391ADDAA106000091GF106991061021008001001001KA1240M+02861MA1999999095241MD1999999+0081REMSYN088AAXX  22004 82795 32594 60907 10232 20200 39524 40139 86200 333 10286 29078 55082 58008;EQDQ01  00002PRCP06
0192827950999992004022212004-07217-035883FM-12+0560SBKG V0201401N003610075019N0100001N1+02461+01991101451ADDAA106000091GF105991051021008001001001KA1240N+02051MA1999999095311MD1010001-0031REMSYN082AAXX  22124 82795 32597 51407 10246 20199 39531 40145 50000 85200 333 20205 59003;EQDQ01  00002PRCP06
0167827950999992004022218004-07217-035883FM-12+0560SBKG V0200901N003112200019N0100001N1+02921+01921101111ADDAA106000091GF103991031021008001001001MA1999999095021MD1999999-0061REMSYN070AAXX  22184 82795 32597 30906 10292 20192 39502 40111 83200 333 59006;EQDQ01  00002PRCP06
0198827950999992004022300004-07217-035883FM-12+0560SBKG V0200901N004610075019N0010001N1+02371+02111101441ADDAA106000091GF106991061021008001001001KA1240M+02941MA1999999095301MD1999999+0061REMSYN088AAXX  23004 82795 32594 60909 10237 20211 39530 40144 86200 333 10294 29075 55101 58006;EQDQ01  00002PRCP06
0162827950999992004022412004-07217-035883FM-12+0560SBKG V0201401N003610075019N0100001N1+02401+02051101511ADDGF106991061061008001001001KA1240N+02161MA1999999095351MD1999999-0031REMSYN082AAXX  24124 82795 22597 61407 10240 20205 39535 40151 86600 333 20216 59003 60034;
0167827950999992004022418004-07217-035883FM-12+0560SBKG V0200901N003110450019N0100001N1+02911+01921101101ADDAA106000091GF105991031021008001061021MA1999999095021MD1999999-0031REMSYN070AAXX  24184 82795 32597 50906 10291 20192 39502 40110 83262 333 59003;EQDQ01  00002PRCP06
0198827950999992004022500004-07217-035883FM-12+0560SBKG V0200901N002610075019N0010001N1+02331+02071101401ADDAA106000091GF106991051021008001061001KA1240M+02931MA1999999095251MD1999999+0011REMSYN088AAXX  25004 82795 32594 60905 10233 20207 39525 40140 85260 333 10293 29076 55058 58001;EQDQ01  00002PRCP06
0186827950999992004022512004-07217-035883FM-12+0560SBKG V0201401N003610075019N0100001N1+02391+02031101501ADDAA106000091GF107991071071008001001001KA1240N+02131MA1999999095271MD1999999-0081REMSYN076AAXX  25124 82795 32597 71407 10239 20203 39527 40150 87700 333 20213 59008;EQDQ01  00002PRCP06
0167827950999992004022518004-07217-035883FM-12+0560SBKG V0201401N002610450019N0100001N1+02861+01921101141ADDAA106000091GF108991041021008001081071MA1999999095041MD1999999+0021REMSYN070AAXX  25184 82795 32597 81405 10286 20192 39504 40114 84287 333 58002;EQDQ01  00002PRCP06
0198827950999992004022600004-07217-035883FM-12+0560SBKG V0200901N003112200019N0010001N1+02321+02051101401ADDAA106000091GF104991031021008001041001KA1240M+02911MA1999999095261MD1999999+0011REMSYN088AAXX  26004 82795 32594 40906 10232 20205 39526 40140 83240 333 10291 29077 55057 58001;EQDQ01  00002PRCP06
0186827950999992004022612004-07217-035883FM-12+0560SBKG V0201401N002110075019N0100001N1+02481+02011101511ADDAA106000091GF105991051021008001001001KA1240N+02061MA1999999095371MD1999999+0101REMSYN076AAXX  26124 82795 32597 51404 10248 20201 39537 40151 85200 333 20206 58010;EQDQ01  00002PRCP06
0167827950999992004022618004-07217-035883FM-12+0560SBKG V0200901N003610120019N0100001N1+02811+02001101201ADDAA106000091GF107991071081008001001001MA1999999095131MD1999999+0091REMSYN070AAXX  26184 82795 32597 70907 10281 20200 39513 40120 87800 333 58009;EQDQ01  00002PRCP06
0198827950999992004022700004-07217-035883FM-12+0560SBKG V0200901N002110120019N0010001N1+02281+02141101501ADDAA106000091GF107991071081008001001001KA1240M+02881MA1999999095341MD1999999+0081REMSYN088AAXX  27004 82795 32594 70904 10228 20214 39534 40150 87800 333 10288 29080 55068 58008;EQDQ01  00002PRCP06
0186827950999992004022712004-07217-035883FM-12+0560SBKG V0201801N001511050019N0100001N1+02471+02091101531ADDAA106000091GF106991031021008001001051KA1240N+02151MA1999999095371MD1999999+0001REMSYN076AAXX  27124 82795 32597 61803 10247 20209 39537 40153 83205 333 20215 58000;EQDQ01  00002PRCP06
0167827950999992004022718004-07217-035883FM-12+0560SBKG V0200901N004110450019N0100001N1+02811+02111101091ADDAA106000091GF107991041021008001061061MA1999999095001MD1999999-0131REMSYN070AAXX  27184 82795 32597 70908 10281 20211 39500 40109 84266 333 59013;EQDQ01  00002PRCP06
0202827950999992004022800004-07217-035883FM-12+0560SBKG V0200901N002610042019N0005001N1+02281+02231101391ADDAY191061AY261061GF108991081031004501999999KA1240M+02941MA1999999095241MD1999999-0101MW1611REMSYN100AAXX  28004 82795 21493 80905 10228 20223 39524 40139 76196 883// 333 10294 29085 55054 59010 60221;
0190827950999992004022812004-07217-035883FM-12+0560SBKG V0200901N002110075019N0100001N1+02471+02111101361ADDAY161061AY221061GF106991061061008001001001KA1240N+02131MA1999999095221MD1999999-0151MW1021REMSYN088AAXX  28124 82795 21597 60904 10247 20211 39522 40136 70262 86600 333 20213 59015 60234;
0171827950999992004022818004-07217-035883FM-12+0560SBKG V0200901N004110075019N0040001N1+02481+02231101081ADDAY161061AY221061GF108991081031008001999999MA1999999094941MD1999999-0061MW1211REMSYN082AAXX  28184 82795 21596 80908 10248 20223 39494 40108 72162 883// 333 59006 69931;
0179827950999992004022900004-07217-035883FM-12+0560SBKG V0200901N002611050019N0010001N1+02291+02131101281ADDAA106000021GF108991031021008001001071KA1240M+02951MA1999999095141MD1999999-0101REMSYN088AAXX  29004 82795 32594 80905 10229 20213 39514 40128 83207 333 10295 29087 55062 59010;
0162827950999992004022912004-07217-035883FM-12+0560SBKG V0200901N003612200019N0100001N1+02471+02091101491ADDGF106991041021008001001011KA1240N+02141MA1999999095331MD1999999+0111REMSYN082AAXX  29124 82795 22597 60907 10247 20209 39533 40149 84201 333 20214 58011 69934;
0167827950999992004022918004-07217-035883FM-12+0560SBKG V0200901N002110450019N0100001N1+02641+02161101151ADDAA106000091GF106991041031008001061021MA1999999095031MD1999999+0091REMSYN070AAXX  29184 82795 32597 60904 10264 20216 39503 40115 84362 333 58009;EQDQ01  00002PRCP06
0198827950999992004030100004-07217-035883FM-12+0560SBKG V0200901N003110075019N0010001N1+02341+02171101411ADDAA106000091GF106991051021008001061001KA1240M+02841MA1999999095271MD1999999+0131REMSYN088AAXX  01004 82795 32594 60906 10234 20217 39527 40141 85260 333 10284 29084 55077 58013;EQDQ01  00002PRCP06
0186827950999992004030112004-07217-035883FM-12+0560SBKG V0200901N004110075019N0100001N1+02411+02011101451ADDAA106000091GF106991061021008001001001KA1240N+02051MA1999999095301MD1999999-0031REMSYN076AAXX  01124 82795 32597 60908 10241 20201 39530 40145 86200 333 20205 59003;EQDQ01  00002PRCP06
0167827950999992004030118004-07217-035883FM-12+0560SBKG V0200901N004610075019N0100001N1+02811+01921101151ADDAA106000091GF105991051011008001001001MA1999999095031MD1999999-0031REMSYN070AAXX  01184 82795 32597 50909 10281 20192 39503 40115 85100 333 59003;EQDQ01  00002PRCP06
0214827950999992004030200004-07217-035883FM-12+0560SBKG V0200901N002612200019N0010001N1+02381+02071101391ADDAA106000091GF103991999011012501041021KA1240M+02891MA1999999095251MD1999999-0021REMSYN088AAXX  02004 82795 32694 30905 10238 20207 39525 40139 88142 333 10289 29076 55092 59002;EQDQ01+000082SCOTLCQ02  00002PRCP06
0190827950999992004030212004-07217-035883FM-12+0560SBKG V0201401N004112200019N0100001N1+02561+01951101281ADDAY161061AY221061GF105991031021008001001011KA1240N+02061MA1999999095161MD1999999-0141MW1021REMSYN088AAXX  02124 82795 21597 51408 10256 20195 39516 40128 70262 83201 333 20206 59014 60014;
0167827950999992004030218004-07217-035883FM-12+0560SBKG V0201401N002112200019N0100001N1+02801+01951101061ADDAA106000091GF105991031011008001001011MA1999999094941MD1999999-0091REMSYN070AAXX  02184 82795 32597 51404 10280 20195 39494 40106 83101 333 59009;EQDQ01  00002PRCP06
0198827950999992004030300004-07217-035883FM-12+0560SBKG V0200901N003112200019N0010001N1+02321+02071101331ADDAA106000091GF102991011011008001001011KA1240M+02921MA1999999095211MD1999999-0041REMSYN088AAXX  03004 82795 32594 20906 10232 20207 39521 40133 81101 333 10292 29075 55105 59004;EQDQ01  00002PRCP06
0186827950999992004030312004-07217-035883FM-12+0560SBKG V0201401N001510075019N0100001N1+02501+02001101451ADDAA106000091GF106991061021008001001001KA1240N+02161MA1999999095311MD1999999+0151REMSYN076AAXX  03124 82795 32597 61403 10250 20200 39531 40145 86200 333 20216 58015;EQDQ01  00002PRCP06
0167827950999992004030318004-07217-035883FM-12+0560SBKG V0201401N001510450019N0100001N1+02961+01871101031ADDAA106000091GF106991031021008001031041MA1999999094951MD1999999+0011REMSYN070AAXX  03184 82795 32597 61403 10296 20187 39495 40103 83234 333 58001;EQDQ01  00002PRCP06
0198827950999992004030400004-07217-035883FM-12+0560SBKG V0200901N003610075019N0010001N1+02341+02111101201ADDAA106000091GF106991061021008001001001KA1240M+02981MA1999999095081MD1999999-0131REMSYN088AAXX  04004 82795 32594 60907 10234 20211 39508 40120 86200 333 10298 29075 55099 59013;EQDQ01  00002PRCP06
0186827950999992004030412004-07217-035883FM-12+0560SBKG V0200901N004111050019N0100001N1+02511+01961101451ADDAA106000091GF106991021011008001001051KA1240N+02151MA1999999095311MD1999999+0001REMSYN076AAXX  04124 82795 32597 60908 10251 20196 39531 40145 82105 333 20215 58000;EQDQ01  00002PRCP06
0167827950999992004030418004-07217-035883FM-12+0560SBKG V0200901N004110450019N0100001N1+02911+01901101121ADDAA106000091GF106991031021008001061041MA1999999095041MD1999999+0041REMSYN070AAXX  04184 82795 32597 60908 10291 20190 39504 40112 83264 333 58004;EQDQ01  00002PRCP06
0198827950999992004030500004-07217-035883FM-12+0560SBKG V0200901N003610450019N0010001N1+02371+01951101341ADDAA106000091GF106991041021008001061001KA1240M+02931MA1999999095221MD1999999+0141REMSYN088AAXX  05004 82795 32594 60907 10237 20195 39522 40134 84260 333 10293 29070 55097 58014;EQDQ01  00002PRCP06
0186827950999992004030512004-07217-035883FM-12+0560SBKG V0201401N004110075019N0100001N1+02511+02071101511ADDAA106000091GF106991051021008001001011KA1240N+02131MA1999999095381MD1999999+0071REMSYN076AAXX  05124 82795 32597 61408 10251 20207 39538 40151 85201 333 20213 58007;EQDQ01  00002PRCP06
0167827950999992004030518004-07217-035883FM-12+0560SBKG V0201401N004610075019N0100001N1+02881+02081101241ADDAA106000091GF107991071071008001001001MA1999999095141MD1999999+0101REMSYN070AAXX  05184 82795 32597 71409 10288 20208 39514 40124 87700 333 58010;EQDQ01  00002PRCP06
0198827950999992004030600004-07217-035883FM-12+0560SBKG V0200901N005110075019N0010001N1+02321+02131101431ADDAA106000091GF107991061021008001061001KA1240M+02981MA1999999095291MD1999999+0071REMSYN088AAXX  06004 82795 32594 70910 10232 20213 39529 40143 86260 333 10298 29079 55092 58007;EQDQ01  00002PRCP06
0186827950999992004030612004-07217-035883FM-12+0560SBKG V0201401N003610075019N0100001N1+02421+02051101481ADDAA106000091GF108991081071008001999999KA1240N+02131MA1999999095321MD1999999-0061REMSYN076AAXX  06124 82795 32597 81407 10242 20205 39532 40148 887// 333 20213 59006;EQDQ01  00002PRCP06
0171827950999992004030618004-07217-035883FM-12+0560SBKG V0201401N003110450019N0100001N1+02821+02751101081ADDAY161061AY221061GF107991031021008001051061MA1999999094991MD1999999-0151MW1021REMSYN082AAXX  06184 82795 21597 71406 10282 20275 39499 40108 70262 83256 333 59015 69911;
0202827950999992004030700004-07217-035883FM-12+0560SBKG V0201401N004110075019N0002001N1+02381+02201101381ADDAY161061AY221061GF107991051021008001051001KA1240M+02931MA1999999095241MD1999999-0051MW1601REMSYN100AAXX  07004 82795 21592 71408 10238 20220 39524 40138 76062 85250 333 10293 29079 55041 59005 69931;
0190827950999992004030712004-07217-035883FM-12+0560SBKG V0201401N003610075019N0100001N1+02401+02051101461ADDAY161061AY221061GF106991061061008001001001KA1240N+02031MA1999999095321MD1999999+0001MW1021REMSYN088AAXX  07124 82795 21597 61407 10240 20205 39532 40146 70262 86600 333 20203 58000 60274;
0167827950999992004030718004-07217-035883FM-12+0560SBKG V0201401N002110450019N0100001N1+02541+02061101161ADDAA106000091GF107991031021008001071001MA1999999095021MD1999999+0031REMSYN070AAXX  07184 82795 32597 71404 10254 20206 39502 40116 83270 333 58003;EQDQ01  00002PRCP06
0202827950999992004030800004-07217-035883FM-12+0560SBKG V0201401N002610075019N0200001N1+02141+02091101541ADDAY161061AY221061GF108991081071008001999999KA1240M+02611MA1999999095361MD1999999+0121MW1601REMSYN100AAXX  08004 82795 21598 81405 10214 20209 39536 40154 76062 887// 333 10261 29088 55029 58012 60031;
0190827950999992004030812004-07217-035883FM-12+0560SBKG V0201401N004610075019N0100001N1+02391+02151101581ADDAY161061AY221061GF107991071071008001001001KA1240N+02041MA1999999095401MD1999999+0081MW1021REMSYN088AAXX  08124 82795 21597 71409 10239 20215 39540 40158 70262 87700 333 20204 58008 60054;
0167827950999992004030818004-07217-035883FM-12+0560SBKG V0201401N004610075019N0100001N1+02651+02051101281ADDAA106000091GF106991061071008001001001MA1999999095131MD1999999+0011REMSYN070AAXX  08184 82795 32597 61409 10265 20205 39513 40128 86700 333 58001;EQDQ01  00002PRCP06
0202827950999992004030900004-07217-035883FM-12+0560SBKG V0200901N002119999999N0010001N1+02211+01941101571ADDAY161061AY221061GF106991041001008001031081KA1240M+02841MA1999999095401MD1999999+0041MW1031REMSYN100AAXX  09004 82795 21594 60904 10221 20194 39540 40157 70362 84038 333 10284 29080 55044 58004 69901;
0162827950999992004030912004-07217-035883FM-12+0560SBKG V0201401N004112200019N0100001N1+02481+01921101671ADDGF104991031011008001001011KA1240N+01951MA1999999095491MD1999999+0091REMSYN082AAXX  09124 82795 22597 41408 10248 20192 39549 40167 83101 333 20195 58009 69914;
0167827950999992004030918004-07217-035883FM-12+0560SBKG V0201401N005112200019N0100001N1+02821+01971101321ADDAA106000091GF105991021021008001001011MA1999999095201MD1999999+0071REMSYN070AAXX  09184 82795 32597 51410 10282 20197 39520 40132 82201 333 58007;EQDQ01  00002PRCP06
0198827950999992004031000004-07217-035883FM-12+0560SBKG V0200901N003610075019N0010001N1+02291+02131101591ADDAA106000091GF106991061021008001001001KA1240M+02861MA1999999095431MD1999999+0031REMSYN088AAXX  10004 82795 32594 60907 10229 20213 39543 40159 86200 333 10286 29078 55112 58003;EQDQ01  00002PRCP06
0186827950999992004031012004-07217-035883FM-12+0560SBKG V0201401N003110075019N0100001N1+02341+02151101631ADDAA106000091GF108991081071008001999999KA1240N+02111MA1999999095451MD1999999-0041REMSYN076AAXX  10124 82795 32597 81406 10234 20215 39545 40163 887// 333 20211 59004;EQDQ01  00002PRCP06
0171827950999992004031018004-07217-035883FM-12+0560SBKG V0201401N003110075019N0100001N1+02661+02071101341ADDAY161061AY221061GF108991081071008001999999MA1999999095201MD1999999+0001MW1021REMSYN082AAXX  10184 82795 21597 81406 10266 20207 39520 40134 70262 887// 333 58000 60021;
0202827950999992004031100004-07217-035883FM-12+0560SBKG V0200901N002110120019N0010001N1+02291+02111101561ADDAY161061AY221061GF107991071081008001001001KA1240M+02871MA1999999095391MD1999999-0041MW1021REMSYN100AAXX  11004 82795 21594 70904 10229 20211 39539 40156 70262 87800 333 10287 29085 55028 59004 60031;
0162827950999992004031112004-07217-035883FM-12+0560SBKG V0201401N001510075019N0100001N1+02441+02071101441ADDGF106991061061008001001001KA1240N+02061MA1999999095291MD1999999-0161REMSYN082AAXX  11124 82795 22597 61403 10244 20207 39529 40144 86600 333 20206 59016 60054;
0167827950999992004031118004-07217-035883FM-12+0560SBKG V0200501N001510450019N0100001N1+02821+02101100991ADDAA106000091GF106991021081008001041001MA1999999094891MD1999999-0311REMSYN070AAXX  11184 82795 32597 60503 10282 20210 39489 40099 82840 333 59031;EQDQ01  00002PRCP06
0198827950999992004031200004-07217-035883FM-12+0560SBKG V0200901N002610075019N0010001N1+02331+02181101221ADDAA106000091GF106991051021008001001011KA1240M+02901MA1999999095081MD1999999-0311REMSYN088AAXX  12004 82795 32594 60905 10233 20218 39508 40122 85201 333 10290 29082 55088 59031;EQDQ01  00002PRCP06
0186827950999992004031212004-07217-035883FM-12+0560SBKG V0201401N002610450019N0100001N1+02531+02091101351ADDAA106000091GF106991041021008001031001KA1240N+02181MA1999999095221MD1999999-0071REMSYN076AAXX  12124 82795 32597 61405 10253 20209 39522 40135 84230 333 20218 59007;EQDQ01  00002PRCP06
0167827950999992004031218004-07217-035883FM-12+0560SBKG V0201401N003112200019N0100001N1+02841+01961101081ADDAA106000091GF104991041081008001001001MA1999999094991MD1999999+0101REMSYN070AAXX  12184 82795 32597 41406 10284 20196 39499 40108 84800 333 58010;EQDQ01  00002PRCP06
0214827950999992004031300004-07217-035883FM-12+0560SBKG V0200901N003119999999N0010001N1+02361+02111101251ADDAA106000091GF106991999021008001001001KA1240M+02931MA1999999095131MD1999999+0051REMSYN088AAXX  13004 82795 32594 60906 10236 20211 39513 40125 83200 333 10293 29077 55091 58005;EQDQ01+000032SCOTLCQ02  00002PRCP06
0186827950999992004031312004-07217-035883FM-12+0560SBKG V0201401N003610075019N0100001N1+02511+02001101461ADDAA106000091GF105991051031008001001001KA1240N+02141MA1999999095311MD1999999+0091REMSYN076AAXX  13124 82795 32597 51407 10251 20200 39531 40146 85300 333 20214 58009;EQDQ01  00002PRCP06
0167827950999992004031318004-07217-035883FM-12+0560SBKG V0200901N003112200019N0100001N1+02851+01991101131ADDAA106000091GF103991031021008001001001MA1999999095031MD1999999+0041REMSYN070AAXX  13184 82795 32597 30906 10285 20199 39503 40113 83200 333 58004;EQDQ01  00002PRCP06
0198827950999992004031400004-07217-035883FM-12+0560SBKG V0200401N002612200019N0010001N1+02231+01961101441ADDAA106000091GF102991021061008001001001KA1240M+02901MA1999999095291MD1999999+0161REMSYN088AAXX  14004 82795 32594 20405 10223 20196 39529 40144 82600 333 10290 29075 55103 58016;EQDQ01  00002PRCP06
0186827950999992004031412004-07217-035883FM-12+0560SBKG V0201401N003110075019N0100001N1+02481+02051101481ADDAA106000091GF105991051041008001001001KA1240N+02131MA1999999095331MD1999999+0031REMSYN076AAXX  14124 82795 32597 51406 10248 20205 39533 40148 85400 333 20213 58003;EQDQ01  00002PRCP06
0167827950999992004031418004-07217-035883FM-12+0560SBKG V0200901N003612200019N0100001N1+02891+01941101121ADDAA106000091GF104991041021008001001001MA1999999095021MD1999999-0011REMSYN070AAXX  14184 82795 32597 40907 10289 20194 39502 40112 84200 333 59001;EQDQ01  00002PRCP06
0198827950999992004031500004-07217-035883FM-12+0560SBKG V0201401N004610075019N0010001N1+02331+02051101411ADDAA106000091GF106991061071008001001001KA1240M+02981MA1999999095271MD1999999-0021REMSYN088AAXX  15004 82795 32594 61409 10233 20205 39527 40141 86700 333 10298 29076 55098 59002;EQDQ01  00002PRCP06
0186827950999992004031512004-07217-035883FM-12+0560SBKG V0201401N002610450019N0100001N1+02541+02021101391ADDAA106000091GF106991041021008001031001KA1240N+02061MA1999999095251MD1999999-0081REMSYN076AAXX  15124 82795 32597 61405 10254 20202 39525 40139 84230 333 20206 59008;EQDQ01  00002PRCP06
0171827950999992004031518004-07217-035883FM-12+0560SBKG V0201401N002610450019N0100001N1+02401+02231101111ADDAY161061AY221061GF106991031041008001081001MA1999999094951MD1999999-0071MW1021REMSYN082AAXX  15184 82795 21597 61405 10240 20223 39495 40111 70262 83480 333 59007 60031;
0202827950999992004031600004-07217-035883FM-12+0560SBKG V0201401N002110075019N0010001N1+02131+02001101331ADDAY161061AY251061GF108991081071008001999999KA1240M+02731MA1999999095191MD1999999-0081MW1511REMSYN100AAXX  16004 82795 21594 81404 10213 20200 39519 40133 75165 887// 333 10273 29089 55053 59008 60081;
0190827950999992004031612004-07217-035883FM-12+0560SBKG V0200901N001510450019N0100001N1+02471+02111101361ADDAY161061AY221061GF106991021031008001041001KA1240N+02081MA1999999095201MD1999999-0051MW1021REMSYN088AAXX  16124 82795 21597 60903 10247 20211 39520 40136 70262 82340 333 20208 59005 60124;
0167827950999992004031618004-07217-035883FM-12+0560SBKG V0201401N003110450019N0100001N1+02641+02091100921ADDAA106000091GF107991031041008001031041MA1999999094801MD1999999-0151REMSYN070AAXX  16184 82795 32597 71406 10264 20209 39480 40092 83434 333 59015;EQDQ01  00002PRCP06
0198827950999992004031700004-07217-035883FM-12+0560SBKG V0200901N002110075019N0010001N1+02281+02161101181ADDAA106000091GF107991071021008001001001KA1240M+02691MA1999999095041MD1999999-0151REMSYN088AAXX  17004 82795 32594 70904 10228 20216 39504 40118 87200 333 10269 29085 55036 59015;EQDQ01  00002PRCP06
0190827950999992004031712004-07217-035883FM-12+0560SBKG V0201401N002610120019N0100001N1+02461+02131101231ADDAY161061AY251061GF107991071081008001001001KA1240N+02101MA1999999095091MD1999999-0111MW1021REMSYN088AAXX  17124 82795 21597 71405 10246 20213 39509 40123 70265 87800 333 20210 59011 60074;
0171827950999992004031718004-07217-035883FM-12+0560SBKG V0201401N002610120019N0100001N1+02531+02151101041ADDAY151061AY221061GF106991061081008001001001MA1999999094911MD1999999+0111MW1021REMSYN082AAXX  17184 82795 21597 61405 10253 20215 39491 40104 70252 86800 333 58011 69991;
0202827950999992004031800004-07217-035883FM-12+0560SBKG V0201401N003110075019N0010001N1+02251+02101101231ADDAY161061AY221061GF106991061021008001001001KA1240M+02771MA1999999095091MD1999999+0051MW1021REMSYN100AAXX  18004 82795 21594 61406 10225 20210 39509 40123 70262 86200 333 10277 29087 55065 58005 60021;
0162827950999992004031812004-07217-035883FM-12+0560SBKG V0201401N003110075019N0100001N1+02431+02371101281ADDGF106991061061008001001001KA1240N+02131MA1999999095161MD1999999+0071REMSYN082AAXX  18124 82795 22597 61406 10243 20237 39516 40128 86600 333 20213 58007 60034;
0190827950999992004031818004-07217-035883FM-12+0560SBKG V0200901N003619999999N0100001N1+02631+02161101071ADDAY161061AY251061GF107991999081008001999999MA1999999094951MD1999999+0141MW1511REMSYN082AAXX  18184 82795 21597 70907 10263 20216 39495 40107 75165 888// 333 58014 60011;EQDQ01+000082SCOTLC
0202827950999992004031900004-07217-035883FM-12+0560SBKG V0200901N002610075019N0010001N1+02291+02131101271ADDAY161061AY221061GF106991051021008001001021KA1240M+02861MA1999999095131MD1999999+0041MW1021REMSYN100AAXX  19004 82795 21594 60905 10229 20213 39513 40127 70262 85202 333 10286 29089 55064 58004 69941;
0190827950999992004031912004-07217-035883FM-12+0560SBKG V0201401N004110075019N0100001N1+02471+02011101411ADDAY121061AY221061GF107991051021008001001061KA1240N+02151MA1999999095261MD1999999+0101MW1021REMSYN088AAXX  19124 82795 21597 71408 10247 20201 39526 40141 70222 85206 333 20215 58010 60024;
0167827950999992004031918004-07217-035883FM-12+0560SBKG V0201401N004112200019N0100001N1+02821+01871101001ADDAA106000091GF104991011021008001001011MA1999999094921MD1999999-0071REMSYN070AAXX  19184 82795 32597 41408 10282 20187 39492 40100 81201 333 59007;EQDQ01  00002PRCP06
0198827950999992004032000004-07217-035883FM-12+0560SBKG V0200901N003110075019N0010001N1+02311+02021101271ADDAA106000091GF106991061021008001001001KA1240M+02841MA1999999095141MD1999999+0011REMSYN088AAXX  20004 82795 32594 60906 10231 20202 39514 40127 86200 333 10284 29075 55095 58001;EQDQ01  00002PRCP06
0186827950999992004032012004-07217-035883FM-12+0560SBKG V0201401N003610075019N0100001N1+02471+02031101331ADDAA106000091GF106991061021008001001001KA1240N+02031MA1999999095201MD1999999-0061REMSYN076AAXX  20124 82795 32597 61407 10247 20203 39520 40133 86200 333 20203 59006;EQDQ01  00002PRCP06
0167827950999992004032018004-07217-035883FM-12+0560SBKG V0200901N004112200019N0100001N1+02941+01791100991ADDAA106000091GF104991031021008001001011MA1999999094911MD1999999-0011REMSYN070AAXX  20184 82795 32597 40908 10294 20179 39491 40099 83201 333 59001;EQDQ01  00002PRCP06
0198827950999992004032100004-07217-035883FM-12+0560SBKG V0200901N003111050019N0010001N1+02281+02031101261ADDAA106000091GF106991041021008001001021KA1240M+02971MA1999999095121MD1999999-0021REMSYN088AAXX  21004 82795 32594 60906 10228 20203 39512 40126 84202 333 10297 29075 55100 59002;EQDQ01  00002PRCP06
0186827950999992004032112004-07217-035883FM-12+0560SBKG V0201401N004610450019N0100001N1+02481+02031101281ADDAA106000091GF106991041021008001031001KA1240N+02131MA1999999095141MD1999999-0061REMSYN076AAXX  21124 82795 32597 61409 10248 20203 39514 40128 84230 333 20213 59006;EQDQ01  00002PRCP06
0186827950999992004032212004-07217-035883FM-12+0560SBKG V0201401N004110075019N0100001N1+02501+02091101261ADDAA106000091GF106991061061008001001001KA1240N+02211MA1999999095141MD1999999+0001REMSYN076AAXX  22124 82795 32597 61408 10250 20209 39514 40126 86600 333 20221 58000;EQDQ01  00002PRCP06
0171827950999992004032218004-07217-035883FM-12+0560SBKG V0201401N002610450019N0100001N1+02621+02111100981ADDAY151061AY221061GF106991031041008001081001MA1999999094871MD1999999+0051MW1021REMSYN082AAXX  22184 82795 21597 61405 10262 20211 39487 40098 70252 83480 333 58005 69931;
0202827950999992004032300004-07217-035883FM-12+0560SBKG V0200901N003610075019N0010001N1+02311+02201101281ADDAY161061AY221061GF107991071031008001001001KA1240M+02781MA1999999095151MD1999999+0041MW1211REMSYN100AAXX  23004 82795 21594 70907 10231 20220 39515 40128 72162 87300 333 10278 29085 55049 58004 60021;
0162827950999992004032312004-07217-035883FM-12+0560SBKG V0201401N004110075019N0100001N1+02501+02151101331ADDGF107991071071008001001001KA1240N+02131MA1999999095201MD1999999+0061REMSYN082AAXX  23124 82795 22597 71408 10250 20215 39520 40133 87700 333 20213 58006 60024;
0183827950999992004032318004-07217-035883FM-12+0560SBKG V0201401N004112200019N0100001N1+02791+02011101091ADDAA106000091GF104991999081008001001001MA1999999094991MD1999999+0121REMSYN070AAXX  23184 82795 32597 41408 10279 20201 39499 40109 86800 333 58012;EQDQ01+000062SCOTLCQ02  00002PRCP06
0198827950999992004032400004-07217-035883FM-12+0560SBKG V0201401N003610075019N0020001N1+02301+02181101301ADDAA106000091GF108991081061008001999999KA1240M+02891MA1999999095171MD1999999+0021REMSYN088AAXX  24004 82795 32595 81407 10230 20218 39517 40130 886// 333 10289 29082 55072 58002;EQDQ01  00002PRCP06
0186827950999992004032412004-07217-035883FM-12+0560SBKG V0201401N004112200019N0100001N1+02451+01991101381ADDAA106000091GF106991041021008001001011KA1240N+02101MA1999999095231MD1999999+0031REMSYN076AAXX  24124 82795 32597 61408 10245 20199 39523 40138 84201 333 20210 58003;EQDQ01  00002PRCP06
0186827950999992004032512004-07217-035883FM-12+0560SBKG V0201401N004612200019N0100001N1+02511+02031101281ADDAA106000091GF106991041021008001001011KA1240N+02061MA1999999095151MD1999999-0081REMSYN076AAXX  25124 82795 32597 61409 10251 20203 39515 40128 84201 333 20206 59008;EQDQ01  00002PRCP06
0167827950999992004032518004-07217-035883FM-12+0560SBKG V0201401N003111050019N0100001N1+02931+01891100961ADDAA106000091GF105991021031008001001031MA1999999094881MD1999999-0051REMSYN070AAXX  25184 82795 32597 51406 10293 20189 39488 40096 82303 333 59005;EQDQ01  00002PRCP06
0198827950999992004032600004-07217-035883FM-12+0560SBKG V0201401N002610075019N0010001N1+02331+02151101361ADDAA106000091GF106991061021008001001001KA1240M+02971MA1999999095231MD1999999+0011REMSYN088AAXX  26004 82795 32594 61405 10233 20215 39523 40136 86200 333 10297 29077 55089 58001;EQDQ01  00002PRCP06
0167827950999992004032618004-07217-035883FM-12+0560SBKG V0201401N003111050019N0100001N1+02931+01861100911ADDAA106000091GF105991031031008001001021MA1999999094831MD1999999-0051REMSYN070AAXX  26184 82795 32597 51406 10293 20186 39483 40091 83302 333 59005;EQDQ01  00002PRCP06
0198827950999992004032700004-07217-035883FM-12+0560SBKG V0200901N003110075019N0010001N1+02351+02091101201ADDAA106000091GF106991061021008001001001KA1240M+02931MA1999999095081MD1999999-0151REMSYN088AAXX  27004 82795 32594 60906 10235 20209 39508 40120 86200 333 10293 29074 55063 59015;EQDQ01  00002PRCP06
0186827950999992004032712004-07217-035883FM-12+0560SBKG V0201401N005710075019N0100001N1+02561+01851101181ADDAA106000091GF105991051011008001001001KA1240N+02091MA1999999095071MD1999999-0051REMSYN076AAXX  27124 82795 32597 51411 10256 20185 39507 40118 85100 333 20209 59005;EQDQ01  00002PRCP06
0167827950999992004032718004-07217-035883FM-12+0560SBKG V0201401N005112200019N0100001N1+02961+01741100951ADDAA106000091GF104991031021008001001011MA1999999094871MD1999999+0041REMSYN070AAXX  27184 82795 32597 41410 10296 20174 39487 40095 83201 333 58004;EQDQ01  00002PRCP06
0198827950999992004032800004-07217-035883FM-12+0560SBKG V0201401N003112200019N0010001N1+02351+01931101231ADDAA106000091GF106991041021008001001011KA1240M+02971MA1999999095121MD1999999+0041REMSYN088AAXX  28004 82795 32594 61406 10235 20193 39512 40123 84201 333 10297 29067 55092 58004;EQDQ01  00002PRCP06
0186827950999992004032812004-07217-035883FM-12+0560SBKG V0201401N004610075019N0100001N1+02481+02051101281ADDAA106000091GF108991081071008001999999KA1240N+02101MA1999999095151MD1999999+0081REMSYN076AAXX  28124 82795 32597 81409 10248 20205 39515 40128 887// 333 20210 58008;EQDQ01  00002PRCP06
0183827950999992004032818004-07217-035883FM-12+0560SBKG V0201401N004619999999N0100001N1+02851+01671100981ADDAA106000091GF106991999041008001001001MA1999999094901MD1999999+0031REMSYN070AAXX  28184 82795 32597 61409 10285 20167 39490 40098 83400 333 58003;EQDQ01+000032SCOTLCQ02  00002PRCP06
0214827950999992004032900004-07217-035883FM-12+0560SBKG V0201401N002610075019N0010001N1+02291+01941101301ADDAA106000091GF106991999021008001001001KA1240M+02921MA1999999095161MD1999999+0041REMSYN088AAXX  29004 82795 32594 61405 10229 20194 39516 40130 85200 333 10292 29072 55085 58004;EQDQ01+000052SCOTLCQ02  00002PRCP06
0186827950999992004032912004-07217-035883FM-12+0560SBKG V0201401N004110075019N0100001N1+02431+01951101471ADDAA106000091GF106991061021008001001001KA1240N+02001MA1999999095321MD1999999+0171REMSYN076AAXX  29124 82795 32597 61408 10243 20195 39532 40147 86200 333 20200 58017;EQDQ01  00002PRCP06
0167827950999992004032918004-07217-035883FM-12+0560SBKG V0201401N004610075019N0100001N1+02911+01771101081ADDAA106000091GF105991051021008001001021MA1999999094991MD1999999+0181REMSYN070AAXX  29184 82795 32597 51409 10291 20177 39499 40108 85202 333 58018;EQDQ01  00002PRCP06
0198827950999992004033000004-07217-035883FM-12+0560SBKG V0201401N002612200019N0010001N1+02331+01931101511ADDAA106000091GF102991011011008001001011KA1240M+03011MA1999999095351MD1999999+0191REMSYN088AAXX  30004 82795 32594 21405 10233 20193 39535 40151 81101 333 10301 29070 55099 58019;EQDQ01  00002PRCP06
0186827950999992004033012004-07217-035883FM-12+0560SBKG V0201401N004112200019N0100001N1+02501+01911101591ADDAA106000091GF106991041021008001001011KA1240N+01931MA1999999095441MD1999999+0121REMSYN076AAXX  30124 82795 32597 61408 10250 20191 39544 40159 84201 333 20193 58012;EQDQ01  00002PRCP06
0167827950999992004033018004-07217-035883FM-12+0560SBKG V0201401N004112200019N0100001N1+02981+01731101211ADDAA106000091GF105991031021008001001011MA1999999095131MD1999999+0141REMSYN070AAXX  30184 82795 32597 51408 10298 20173 39513 40121 83201 333 58014;EQDQ01  00002PRCP06
0198827950999992004033100004-07217-035883FM-12+0560SBKG V0200901N002610450019N0010001N1+02381+01951101581ADDAA106000091GF105991031021008001051001KA1240M+03041MA1999999095441MD1999999+0091REMSYN088AAXX  31004 82795 32594 50905 10238 20195 39544 40158 83250 333 10304 29068 55103 58009;EQDQ01  00002PRCP06
0186827950999992004033112004-07217-035883FM-12+0560SBKG V0201401N002112200019N0100001N1+02541+02041101591ADDAA106000091GF106991031011008001001011KA1240N+02071MA1999999095451MD1999999+0011REMSYN076AAXX  31124 82795 32597 61404 10254 20204 39545 40159 83101 333 20207 58001;EQDQ01  00002PRCP06
0167827950999992004033118004-07217-035883FM-12+0560SBKG V0201401N001512200019N0100001N1+02971+01841101121ADDAA106000091GF105991031021008001001011MA1999999095041MD1999999+0191REMSYN070AAXX  31184 82795 32597 51403 10297 20184 39504 40112 83201 333 58019;EQDQ01  00002PRCP06
0198827950999992004040100004-07217-035883FM-12+0560SBKG V0200901N004110075019N0010001N1+02361+02131101421ADDAA106000091GF106991061021008001001001KA1240M+03051MA1999999095301MD1999999-0141REMSYN088AAXX  01004 82795 32594 60908 10236 20213 39530 40142 86200 333 10305 29075 55086 59014;EQDQ01  00002PRCP06
0186827950999992004040112004-07217-035883FM-12+0560SBKG V0201401N004110075019N0100001N1+02601+02121101681ADDAA106000091GF106991061061008001001001KA1240N+02111MA1999999095441MD1999999-0011REMSYN076AAXX  01124 82795 32597 61408 10260 20212 39544 40168 86600 333 20211 59001;EQDQ01  00002PRCP06
0167827950999992004040118004-07217-035883FM-12+0560SBKG V0201401N003110450019N0100001N1+02931+01891101231ADDAA106000091GF106991041081008001051001MA1999999095131MD1999999+0131REMSYN070AAXX  01184 82795 32597 61406 10293 20189 39513 40123 84850 333 58013;EQDQ01  00002PRCP06
0167827950999992004040218004-07217-035883FM-12+0560SBKG V0200501N003112200019N0100001N1+03041+01781101181ADDAA106000091GF104991041031008001001001MA1999999095081MD1999999-0051REMSYN070AAXX  02184 82795 32597 40506 10304 20178 39508 40118 84300 333 59005;EQDQ01  00002PRCP06
0198827950999992004040300004-07217-035883FM-12+0560SBKG V0200901N003610075019N0010001N1+02371+02091101471ADDAA106000091GF106991061021008001001001KA1240M+03101MA1999999095341MD1999999+0001REMSYN088AAXX  03004 82795 32594 60907 10237 20209 39534 40147 86200 333 10310 29072 55101 58000;EQDQ01  00002PRCP06
0190827950999992004040512004-07217-035883FM-12+0560SBKG V0201401N002612200019N0100001N1+02471+01971101581ADDAY161061AY221061GF106991041021008001001011KA1240N+02131MA1999999095431MD1999999-0091MW1021REMSYN088AAXX  05124 82795 21597 61405 10247 20197 39543 40158 70262 84201 333 20213 59009 69924;
0195827950999992004040518004-07217-035883FM-12+0560SBKG V0201401N003110450019N0100001N1+02701+02081101221ADDAA106000091AY121061AY221061GF106991031081008001081001MA1999999095101MD1999999-0141MW1151REMSYN076AAXX  05184 82795 31597 61406 10270 20208 39510 40122 71522 83880 333 59014;EQDQ01  00002PRCP06
0190827950999992004040612004-07217-035883FM-12+0560SBKG V0201401N003610075019N0100001N1+02421+02071101511ADDAY161061AY221061GF106991061021008001001001KA1240N+02131MA1999999095351MD1999999-0081MW1021REMSYN088AAXX  06124 82795 21597 61407 10242 20207 39535 40151 70262 86200 333 20213 59008 69924;
0167827950999992004040618004-07217-035883FM-12+0560SBKG V0201401N003112200019N0100001N1+02821+01911101171ADDAA106000091GF104991041021008001001001MA1999999095071MD1999999-0071REMSYN070AAXX  06184 82795 32597 41406 10282 20191 39507 40117 84200 333 59007;EQDQ01  00002PRCP06
0198827950999992004040700004-07217-035883FM-12+0560SBKG V0200901N004610075019N0010001N1+02331+02111101381ADDAA106000091GF107991051021008001061001KA1240M+02921MA1999999095231MD1999999-0101REMSYN088AAXX  07004 82795 32594 70909 10233 20211 39523 40138 85260 333 10292 29078 55081 59010;EQDQ01  00002PRCP06
0190827950999992004040712004-07217-035883FM-12+0560SBKG V0201401N004610075019N0100001N1+02461+02071101421ADDAY161061AY221061GF106991061061008001001001KA1240N+02111MA1999999095281MD1999999-0071MW1021REMSYN088AAXX  07124 82795 21597 61409 10246 20207 39528 40142 70262 86600 333 20211 59007 69914;
0167827950999992004040718004-07217-035883FM-12+0560SBKG V0201401N003111050019N0100001N1+02861+01951101041ADDAA106000091GF106991021081008001001021MA1999999094491MD1999999-0081REMSYN070AAXX  07184 82795 32597 61406 10286 20195 39449 40104 82802 333 59008;EQDQ01  00002PRCP06
0198827950999992004040800004-07217-035883FM-12+0560SBKG V0200901N002112200019N0010001N1+02341+02091101351ADDAA106000091GF102991011011008001001011KA1240M+02311MA1999999095221MD1999999-0011REMSYN088AAXX  08004 82795 32594 20904 10234 20209 39522 40135 81101 333 10231 29078 55060 59001;EQDQ01  00002PRCP06
0190827950999992004040812004-07217-035883FM-12+0560SBKG V0201401N003610075019N0100001N1+02461+02171101491ADDAY161061AY221061GF106991051021008001001011KA1240N+02151MA1999999095351MD1999999+0071MW1021REMSYN088AAXX  08124 82795 21597 61407 10246 20217 39535 40149 70262 85201 333 20215 58007 69934;
0211827950999992004040818004-07217-035883FM-12+0560SBKG V0201401N004619999999N0100001N1+02621+02061101261ADDAA106000091AY121061AY221061GF106991999071008001001001MA1999999095141MD1999999+0151MW1151REMSYN076AAXX  08184 82795 31597 61409 10262 20206 39514 40126 71522 87700 333 58015;EQDQ01+000072SCOTLCQ02  00002PRCP06
0202827950999992004040900004-07217-035883FM-12+0560SBKG V0200901N003110075019N0010001N1+02271+02181101551ADDAY161061AY221061GF108991081061008001999999KA1240M+02991MA1999999095391MD1999999+0171MW1021REMSYN100AAXX  09004 82795 21594 80906 10227 20218 39539 40155 70262 886// 333 10299 29087 55073 58017 60041;
0162827950999992004040912004-07217-035883FM-12+0560SBKG V0201401N004110075019N0100001N1+02401+02131101531ADDGF106991061061008001001001KA1240N+02081MA1999999095361MD1999999+0011REMSYN082AAXX  09124 82795 22597 61408 10240 20213 39536 40153 86600 333 20208 58001 60044;
0167827950999992004040918004-07217-035883FM-12+0560SBKG V0201401N004611050019N0100001N1+02841+02011101251ADDAA106000091GF106991011041008001031031MA1999999095101MD1999999+0001REMSYN070AAXX  09184 82795 32597 61409 10284 20201 39510 40125 81433 333 58000;EQDQ01  00002PRCP06
0198827950999992004041000004-07217-035883FM-12+0560SBKG V0200901N003110075019N0010001N1+02271+02111101331ADDAA106000091GF106991061021008001001001KA1240M+02891MA1999999095191MD1999999-0201REMSYN088AAXX  10004 82795 32594 60906 10227 20211 39519 40133 86200 333 10289 29082 55063 59020;EQDQ01  00002PRCP06
0186827950999992004041012004-07217-035883FM-12+0560SBKG V0201401N003110075019N0100001N1+02411+01991101311ADDAA106000091GF106991061021008001001001KA1240N+01991MA1999999095151MD1999999-0211REMSYN076AAXX  10124 82795 32597 61406 10241 20199 39515 40131 86200 333 20199 59021;EQDQ01  00002PRCP06
0167827950999992004041018004-07217-035883FM-12+0560SBKG V0200901N003111050019N0100001N1+02771+02161100881ADDAA106000091GF106991041021008001001021MA1999999094771MD1999999-0371REMSYN070AAXX  10184 82795 32597 60906 10277 20216 39477 40088 84202 333 59037;EQDQ01  00002PRCP06
0198827950999992004041100004-07217-035883FM-12+0560SBKG V0200901N003110120019N0010001N1+02201+02071101101ADDAA106000091GF106991051021012501061001KA1240M+02861MA1999999094971MD1999999-0221REMSYN088AAXX  11004 82795 32694 60906 10220 20207 39497 40110 85260 333 10286 29081 55062 59022;EQDQ01  00002PRCP06
0186827950999992004041112004-07217-035883FM-12+0560SBKG V0200901N004110075019N0100001N1+02471+02051101121ADDAA106000091GF106991061021008001001001KA1240N+02161MA1999999094991MD1999999-0161REMSYN076AAXX  11124 82795 32597 60908 10247 20205 39499 40112 86200 333 20216 59016;EQDQ01  00002PRCP06
0167827950999992004041118004-07217-035883FM-12+0560SBKG V0200901N002612200019N0100001N1+02911+02221100661ADDAA106000091GF104991031021008001001021MA1999999094611MD1999999-0161REMSYN070AAXX  11184 82795 32597 40905 10291 20222 39461 40066 83202 333 59016;EQDQ01  00002PRCP06
0198827950999992004041200004-07217-035883FM-12+0560SBKG V0200901N003610075019N0010001N1+02311+02151101071ADDAA106000091GF106991061021008001001001KA1240M+02981MA1999999094951MD1999999-0021REMSYN088AAXX  12004 82795 32594 60907 10231 20215 39495 40107 86200 333 10298 29081 55082 59002;EQDQ01  00002PRCP06
0186827950999992004041212004-07217-035883FM-12+0560SBKG V0200901N004110075019N0100001N1+02611+02141101171ADDAA106000091GF105991051021008001001001KA1240N+02181MA1999999095061MD1999999+0071REMSYN076AAXX  12124 82795 32597 50908 10261 20214 39506 40117 85200 333 20218 58007;EQDQ01  00002PRCP06
0171827950999992004041218004-07217-035883FM-12+0560SBKG V0201401N002610075019N0100001N1+02521+02131100981ADDAY161061AY221061GF108991081071008001999999MA1999999094841MD1999999+0231MW1161REMSYN082AAXX  12184 82795 21597 81405 10252 20213 39484 40098 71662 887// 333 58023 60041;
0202827950999992004041300004-07217-035883FM-12+0560SBKG V0200901N003110075019N0010001N1+02291+02131101231ADDAY161061AY221061GF107991071061008001001001KA1240M+02821MA1999999095121MD1999999+0171MW1021REMSYN100AAXX  13004 82795 21594 70906 10229 20213 39512 40123 70262 87600 333 10282 29084 55052 58017 69951;
0162827950999992004041312004-07217-035883FM-12+0560SBKG V0201401N003111050019N0100001N1+02501+01951101401ADDGF106991041021008001001021KA1240N+02031MA1999999095261MD1999999+0201REMSYN082AAXX  13124 82795 22597 61406 10250 20195 39526 40140 84202 333 20203 58020 60044;
0167827950999992004041318004-07217-035883FM-12+0560SBKG V0201401N003111050019N0100001N1+02841+02041101061ADDAA106000091GF106991031041008001001031MA1999999094971MD1999999+0131REMSYN070AAXX  13184 82795 32597 61406 10284 20204 39497 40106 83403 333 58013;EQDQ01  00002PRCP06
0202827950999992004041400004-07217-035883FM-12+0560SBKG V0200901N001510075019N0010001N1+02281+02161101421ADDAY181061AY261061GF107991071031008001001001KA1240M+02901MA1999999095281MD1999999+0161MW1021REMSYN100AAXX  14004 82795 21594 70903 10228 20216 39528 40142 70286 87300 333 10290 29080 55083 58016 60111;
0162827950999992004041412004-07217-035883FM-12+0560SBKG V0201401N002112200019N0100001N1+02541+02061101491ADDGF105991021031008001001011KA1240N+02141MA1999999095351MD1999999+0091REMSYN082AAXX  14124 82795 22597 51404 10254 20206 39535 40149 82301 333 20214 58009 60104;
0167827950999992004041418004-07217-035883FM-12+0560SBKG V0201401N003112200019N0100001N1+02831+02001101161ADDAA106000091GF103991031031008001001011MA1999999095061MD1999999+0091REMSYN070AAXX  14184 82795 32597 31406 10283 20200 39506 40116 83301 333 58009;EQDQ01  00002PRCP06
0198827950999992004041500004-07217-035883FM-12+0560SBKG V0200901N003610075019N0010001N1+02351+02191101291ADDAA106000091GF106991061021008001001001KA1240M+02321MA1999999095171MD1999999-0111REMSYN088AAXX  15004 82795 32594 60907 10235 20219 39517 40129 86200 333 10232 29079 55067 59011;EQDQ01  00002PRCP06
0186827950999992004041512004-07217-035883FM-12+0560SBKG V0201801N002610075019N0100001N1+02501+02111101401ADDAA106000091GF106991061021008001001001KA1240N+02011MA1999999095261MD1999999-0091REMSYN076AAXX  15124 82795 32597 61805 10250 20211 39526 40140 86200 333 20201 59009;EQDQ01  00002PRCP06
0167827950999992004041518004-07217-035883FM-12+0560SBKG V0201401N004110450019N0100001N1+02841+02011101231ADDAA106000091GF106991031021008001031001MA1999999095071MD1999999+0101REMSYN070AAXX  15184 82795 32597 61408 10284 20201 39507 40123 83230 333 58010;EQDQ01  00002PRCP06
0198827950999992004041600004-07217-035883FM-12+0560SBKG V0200901N003610075019N0010001N1+02301+02071101281ADDAA106000091GF107991051021008001061001KA1240M+03011MA1999999095151MD1999999-0021REMSYN088AAXX  16004 82795 32594 70907 10230 20207 39515 40128 85260 333 10301 29078 55069 59002;EQDQ01  00002PRCP06
0202827950999992004041612004-07217-035883FM-12+0560SBKG V0201401N002119999999N0100001N1+02491+02071101481ADDAA106000091GF106991999021008001001001KA1240N+02011MA1999999095341MD1999999+0081REMSYN076AAXX  16124 82795 32597 61404 10249 20207 39534 40148 84200 333 20201 58008;EQDQ01+000042SCOTLCQ02  00002PRCP06
0171827950999992004041618004-07217-035883FM-12+0560SBKG V0201401N003610450019N0100001N1+02761+02161101151ADDAY161061AY221061GF106991041031008001041001MA1999999095011MD1999999-0061MW1021REMSYN082AAXX  16184 82795 21597 61407 10276 20216 39501 40115 70262 84340 333 59006 69911;
0202827950999992004041700004-07217-035883FM-12+0560SBKG V0200901N002110075019N0010001N1+02341+02071101571ADDAY161061AY221061GF106991061021008001041001KA1240M+02921MA1999999095431MD1999999+0281MW1021REMSYN100AAXX  17004 82795 21594 60904 10234 20207 39543 40157 70262 86240 333 10292 29080 55068 58028 69911;
0190827950999992004041712004-07217-035883FM-12+0560SBKG V0201401N003110075019N0100001N1+02411+02191101591ADDAY161061AY221061GF108991051071008001011999KA1240N+02131MA1999999095431MD1999999+0091MW1021REMSYN088AAXX  17124 82795 21597 81406 10241 20219 39543 40159 70262 8571/ 333 20213 58009 69964;
0167827950999992004041718004-07217-035883FM-12+0560SBKG V0201401N003611050019N0100001N1+02911+01901101231ADDAA106000091GF106991041021008001001021MA1999999095131MD1999999+0121REMSYN070AAXX  17184 82795 32597 61407 10291 20190 39513 40123 84202 333 58012;EQDQ01  00002PRCP06
0198827950999992004041800004-07217-035883FM-12+0560SBKG V0201401N003610450019N0010001N1+02361+02171101591ADDAA106000091GF106991041021008001061001KA1240M+02971MA1999999095431MD1999999+0001REMSYN088AAXX  18004 82795 32594 61407 10236 20217 39543 40159 84260 333 10297 29080 55073 58000;EQDQ01  00002PRCP06
0190827950999992004041812004-07217-035883FM-12+0560SBKG V0201401N003610075019N0100001N1+02561+02151101591ADDAY161061AY221061GF106991051021008001001011KA1240N+02091MA1999999095451MD1999999+0021MW1021REMSYN088AAXX  18124 82795 21597 61407 10256 20215 39545 40159 70262 85201 333 20209 58002 60034;
0171827950999992004041818004-07217-035883FM-12+0560SBKG V0200901N002610075019N0100001N1+02451+02271101281ADDAY161061AY221061GF108991071031008001031999MA1999999095131MD1999999+0001MW1021REMSYN082AAXX  18184 82795 21597 80905 10245 20227 39513 40128 70262 8733/ 333 58000 69991;
0198827950999992004041900004-07217-035883FM-12+0560SBKG V0200901N001010075019N0010001N1+02261+02051101561ADDAA106000091GF105991051021008001001001KA1240M+02931MA1999999095421MD1999999-0011REMSYN088AAXX  19004 82795 32594 50902 10226 20205 39542 40156 85200 333 10293 29086 55075 59001;EQDQ01  00002PRCP06
0188827950999992004041912004-07217-035883FM-12+0560SBKG V0201401N004110075019N0100001N1+02401+02051101561ADDAA124001091AY161061AY221061GF108991051071008001011001MA1999999095391MD1999999-0061MW1021REMSYN088AAXX  19124 82795 21597 81408 10240 20205 39539 40156 70262 85710 333 59006 60014 10010;
0167827950999992004041918004-07217-035883FM-12+0560SBKG V0201401N004610450019N0100001N1+02771+02181101141ADDAA106000091GF108991041051008001021001MA1999999095021MD1999999-0111REMSYN070AAXX  19184 82795 32597 81409 10277 20218 39502 40114 84520 333 59011;EQDQ01  00002PRCP06
0202827950999992004042000004-07217-035883FM-12+0560SBKG V0201401N003112200019N0010001N1+02251+02011101461ADDAY161061AY221061GF104991021041008001001021KA1240M+02271MA1999999095301MD1999999-0121MW1011REMSYN100AAXX  20004 82795 21594 41406 10225 20201 39530 40146 70162 82402 333 10227 29081 55037 59012 69931;
0162827950999992004042012004-07217-035883FM-12+0560SBKG V0201401N002610075019N0100001N1+02331+02001101571ADDGF107991071071008001001001KA1240N+01991MA1999999095371MD1999999-0021REMSYN082AAXX  20124 82795 22597 71405 10233 20200 39537 40157 87700 333 20199 59002 69934;
0167827950999992004042018004-07217-035883FM-12+0560SBKG V0201401N003110450019N0100001N1+02651+02001101191ADDAA106000091GF108991041051008001051001MA1999999095041MD1999999+0021REMSYN070AAXX  20184 82795 32597 81406 10265 20200 39504 40119 84550 333 58002;EQDQ01  00002PRCP06
0198827950999992004042100004-07217-035883FM-12+0560SBKG V0200901N003110075019N0010001N1+02211+02061101481ADDAA106000091GF108991081051008001999999KA1240M+02751MA1999999095301MD1999999+0001REMSYN088AAXX  21004 82795 32594 80906 10221 20206 39530 40148 885// 333 10275 29083 55025 58000;EQDQ01  00002PRCP06
0190827950999992004042112004-07217-035883FM-12+0560SBKG V0201401N002610075019N0100001N1+02471+02151101471ADDAY161061AY221061GF108991081071008001999999KA1240N+02081MA1999999095321MD1999999-0051MW1021REMSYN088AAXX  21124 82795 21597 81405 10247 20215 39532 40147 70262 887// 333 20208 59005 69944;
0190827950999992004042118004-07217-035883FM-12+0560SBKG V0201401N002119999999N0100001N1+02421+02161101251ADDAY151061AY221061GF108991999051008001001001MA1999999095091MD1999999+0051MW1021REMSYN082AAXX  21184 82795 21597 81404 10242 20216 39509 40125 70252 84500 333 58005 69971;EQDQ01+000042SCOTLC
0202827950999992004042200004-07217-035883FM-12+0560SBKG V0201801N002610042019N0002001N1+02101+02051101531ADDAY161061AY221061GF108991081071004501999999KA1240M+02741MA1999999095351MD1999999+0051MW1611REMSYN100AAXX  22004 82795 21492 81805 10210 20205 39535 40153 76162 887// 333 10274 29090 55020 58005 60141;
0190827950999992004042212004-07217-035883FM-12+0560SBKG V0201401N002110042019N0040001N1+02151+02111101461ADDAY161061AY251061GF108991051051004501999999KA1240N+01961MA1999999095241MD1999999-0081MW1511REMSYN088AAXX  22124 82795 21496 81404 10215 20211 39524 40146 75165 855// 333 20196 59008 60314;
0171827950999992004042218004-07217-035883FM-12+0560SBKG V0201401N001010450019N0100001N1+02351+02171101101ADDAY161061AY221061GF106991031051008001081001MA1999999094921MD1999999-0171MW1021REMSYN082AAXX  22184 82795 21597 61402 10235 20217 39492 40110 70262 83580 333 59017 60021;
0198827950999992004042300004-07217-035883FM-12+0560SBKG V0201401N002110075019N0010001N1+02191+02081101371ADDAA106000091GF105991051021008001001001KA1240M+02961MA1999999095171MD1999999-0181REMSYN088AAXX  23004 82795 32594 51404 10219 20208 39517 40137 85200 333 10296 29093 55004 59018;EQDQ01  00002PRCP06
0209827950999992004042312004-07217-035883FM-12+0560SBKG V0201401N003110075019N0040001N1+02281+02201101211ADDAY101061AY221061GF108991999051008001001001KA1240N+01961MA1999999095031MD1999999-0121MW1511REMSYN088AAXX  23124 82795 21596 81406 10228 20220 39503 40121 75102 87500 333 20196 59012 60024;EQDQ01+000072SCOTLC
0171827950999992004042318004-07217-035883FM-12+0560SBKG V0201401N002110075019N0100001N1+02581+02211100931ADDAY161061AY221061GF107991071071008001001001MA1999999094801MD1999999-0121MW1161REMSYN082AAXX  23184 82795 21597 71404 10258 20221 39480 40093 71662 87700 333 59012 60011;
0202827950999992004042400004-07217-035883FM-12+0560SBKG V0200901N004110042019N0002001N1+02161+02111101251ADDAY161061AY221061GF108991081071004501999999KA1240M+02671MA1999999095071MD1999999-0101MW1601REMSYN100AAXX  24004 82795 21492 80908 10216 20211 39507 40125 76062 887// 333 10267 29092 55026 59010 60121;
0190827950999992004042412004-07217-035883FM-12+0560SBKG V0201401N003110450019N0100001N1+02231+02151101281ADDAY161061AY221061GF108991041071008001021999KA1240N+02051MA1999999095101MD1999999+0131MW1021REMSYN088AAXX  24124 82795 21597 81406 10223 20215 39510 40128 70262 8472/ 333 20205 58013 60134;
0195827950999992004042418004-07217-035883FM-12+0560SBKG V0201401N003110450019N0100001N1+02591+02101100971ADDAA106000091AY121061AY221061GF107991041071008001021001MA1999999094841MD1999999+0041MW1151REMSYN076AAXX  24184 82795 31597 71406 10259 20210 39484 40097 71522 84720 333 58004;EQDQ01  00002PRCP06
0202827950999992004042500004-07217-035883FM-12+0560SBKG V0201401N002110450019N0010001N1+02211+02151101281ADDAY151061AY221061GF106991041051008001021001KA1240M+02641MA1999999095101MD1999999+0031MW1021REMSYN100AAXX  25004 82795 21594 61404 10221 20215 39510 40128 70252 84520 333 10264 29091 55035 58003 69971;
0162827950999992004042512004-07217-035883FM-12+0560SBKG V0201401N003110075019N0100001N1+02481+02091101251ADDGF106991061041008001001001KA1240N+02041MA1999999095211MD1999999+0111REMSYN082AAXX  25124 82795 22597 61406 10248 20209 39521 40125 86400 333 20204 58011 69974;
0167827950999992004042518004-07217-035883FM-12+0560SBKG V0201401N003112200019N0100001N1+02831+02101101121ADDAA106000091GF106991041041008001001011MA1999999095021MD1999999+0181REMSYN070AAXX  25184 82795 32597 61406 10283 20210 39502 40112 84401 333 58018;EQDQ01  00002PRCP06
0202827950999992004042600004-07217-035883FM-12+0560SBKG V0200901N003110075019N0010001N1+02261+02211101401ADDAY161061AY221061GF108991081071008001999999KA1240M+02851MA1999999095251MD1999999+0151MW1031REMSYN100AAXX  26004 82795 21594 80906 10226 20221 39525 40140 70362 887// 333 10285 29084 55093 58015 60051;
0162827950999992004042612004-07217-035883FM-12+0560SBKG V0201401N002110075019N0100001N1+02561+02171101451ADDGF106991061021008001001001KA1240N+02121MA1999999095311MD1999999+0141REMSYN082AAXX  26124 82795 22597 61404 10256 20217 39531 40145 86200 333 20212 58014 60054;
0183827950999992004042618004-07217-035883FM-12+0560SBKG V0201401N003619999999N0100001N1+02791+01941101121ADDAA106000091GF106991999031008001001001MA1999999095031MD1999999+0011REMSYN070AAXX  26184 82795 32597 61407 10279 20194 39503 40112 84300 333 58001;EQDQ01+000042SCOTLCQ02  00002PRCP06
0198827950999992004042700004-07217-035883FM-12+0560SBKG V0200901N003110120019N0010001N1+02351+02201101441ADDAA106000091GF107991071081008001001001KA1240M+02911MA1999999095321MD1999999+0071REMSYN088AAXX  27004 82795 32594 70906 10235 20220 39532 40144 87800 333 10291 29083 55083 58007;EQDQ01  00002PRCP06
0209827950999992004042712004-07217-035883FM-12+0560SBKG V0201401N003610075019N0100001N1+02491+02071101601ADDAY161061AY221061GF106991999021008001001001KA1240N+02131MA1999999095451MD1999999+0141MW1021REMSYN088AAXX  27124 82795 21597 61407 10249 20207 39545 40160 70262 85200 333 20213 58014 60014;EQDQ01+000052SCOTLC
0167827950999992004042718004-07217-035883FM-12+0560SBKG V0201401N003111050019N0100001N1+02831+02021101271ADDAA106000091GF106991021031008001001021MA1999999095151MD1999999+0121REMSYN070AAXX  27184 82795 32597 61406 10283 20202 39515 40127 82302 333 58012;EQDQ01  00002PRCP06
0198827950999992004042800004-07217-035883FM-12+0560SBKG V0200901N002612200019N0010001N1+02211+01971101631ADDAA106000091GF102991011001012501041011KA1240M+02871MA1999999095471MD1999999+0151REMSYN088AAXX  28004 82795 32694 20905 10221 20197 39547 40163 81041 333 10287 29078 55087 58015;EQDQ01  00002PRCP06
0202827950999992004042812004-07217-035883FM-12+0560SBKG V0201401N001519999999N0100001N1+02471+01971101721ADDAA106000091GF106991999011008001001001KA1240N+02061MA1999999095551MD1999999+0101REMSYN076AAXX  28124 82795 32597 61403 10247 20197 39555 40172 84100 333 20206 58010;EQDQ01+000042SCOTLCQ02  00002PRCP06
0167827950999992004042818004-07217-035883FM-12+0560SBKG V0201401N003112200019N0100001N1+02781+01911101421ADDAA106000091GF105991021021008001001011MA1999999095301MD1999999+0051REMSYN070AAXX  28184 82795 32597 51406 10278 20191 39530 40142 82201 333 58005;EQDQ01  00002PRCP06
0198827950999992004042900004-07217-035883FM-12+0560SBKG V0200901N003110120019N0010001N1+02311+02151101631ADDAA106000091GF107991071081008001001001KA1240M+02811MA1999999095481MD1999999+0011REMSYN088AAXX  29004 82795 32594 70906 10231 20215 39548 40163 87800 333 10281 29078 55097 58001;EQDQ01  00002PRCP06
0186827950999992004042912004-07217-035883FM-12+0560SBKG V0201401N004112200019N0100001N1+02481+01961101641ADDAA106000091GF105991031011008001001011KA1240N+02031MA1999999095491MD1999999-0061REMSYN076AAXX  29124 82795 32597 51408 10248 20196 39549 40164 83101 333 20203 59006;EQDQ01  00002PRCP06
0167827950999992004042918004-07217-035883FM-12+0560SBKG V0201401N004612200019N0100001N1+02791+01911101281ADDAA106000091GF104991021021008001001021MA1999999095161MD1999999+0151REMSYN070AAXX  29184 82795 32597 41409 10279 20191 39516 40128 82202 333 58015;EQDQ01  00002PRCP06
0198827950999992004043000004-07217-035883FM-12+0560SBKG V0200901N002612200019N0010001N1+02261+01991101531ADDAA106000091GF104991041021008001001001KA1240M+02821MA1999999095371MD1999999-0111REMSYN088AAXX  30004 82795 32594 40905 10226 20199 39537 40153 84200 333 10282 29076 55092 59011;EQDQ01  00002PRCP06
0190827950999992004043012004-07217-035883FM-12+0560SBKG V0201401N003110075019N0040001N1+02841+02101101551ADDAY161061AY221061GF108991051071008001021001KA1240N+02011MA1999999095371MD1999999-0121MW1501REMSYN088AAXX  30124 82795 21596 81406 10284 20210 39537 40155 75062 85720 333 20201 59012 69914;
0171827950999992004043018004-07217-035883FM-12+0560SBKG V0201401N001510075019N0040001N1+02411+02151101221ADDAY161061AY221061GF108991071071008001999999MA1999999095061MD1999999-0101MW1511REMSYN082AAXX  30184 82795 21596 81403 10241 20215 39506 40122 75162 877// 333 59010 60021;
0202827950999992004050100004-07217-035883FM-12+0560SBKG V0200901N002110075019N0010001N1+02221+02121101511ADDAY161061AY251061GF108991081061008001999999KA1240M+02561MA1999999095321MD1999999-0051MW1021REMSYN100AAXX  01004 82795 21594 80904 10222 20212 39532 40151 70265 886// 333 10256 29092 55018 59005 69991;
0190827950999992004050112004-07217-035883FM-12+0560SBKG V0201401N003112200019N0100001N1+02401+01971101561ADDAY161061AY221061GF106991041021008001001011KA1240N+02041MA1999999095391MD1999999+0021MW1021REMSYN088AAXX  01124 82795 21597 61406 10240 20197 39539 40156 70262 84201 333 20204 58002 60034;
0167827950999992004050118004-07217-035883FM-12+0560SBKG V0200901N004610450019N0100001N1+02511+02021101191ADDAA106000091GF108991041021008001071999MA1999999095041MD1999999-0021REMSYN070AAXX  01184 82795 32597 80909 10251 20202 39504 40119 8427/ 333 59002;EQDQ01  00002PRCP06
0198827950999992004050200004-07217-035883FM-12+0560SBKG V0200901N002110450019N0010001N1+02261+02091101421ADDAA106000091GF107991041021008001071001KA1240M+02801MA1999999095261MD1999999-0061REMSYN088AAXX  02004 82795 32594 70904 10226 20209 39526 40142 84270 333 10280 29083 55069 59006;EQDQ01  00002PRCP06
0186827950999992004050212004-07217-035883FM-12+0560SBKG V0201401N005710075019N0100001N1+02501+02001101441ADDAA106000091GF106991061021008001001001KA1240N+02031MA1999999095291MD1999999-0101REMSYN076AAXX  02124 82795 32597 61411 10250 20200 39529 40144 86200 333 20203 59010;EQDQ01  00002PRCP06
0167827950999992004050218004-07217-035883FM-12+0560SBKG V0201401N004612200019N0100001N1+02791+01841101121ADDAA106000091GF104991021021008001001021MA1999999095011MD1999999-0031REMSYN070AAXX  02184 82795 32597 41409 10279 20184 39501 40112 82202 333 59003;EQDQ01  00002PRCP06
0198827950999992004050300004-07217-035883FM-12+0560SBKG V0201401N003112200019N0010001N1+02811+01971101451ADDAA106000091GF102991021011008001001001KA1240M+02871MA1999999095371MD1999999+0041REMSYN088AAXX  03004 82795 32594 21406 10281 20197 39537 40145 82100 333 10287 29074 55098 58004;EQDQ01  00002PRCP06
0186827950999992004050312004-07217-035883FM-12+0560SBKG V0201401N003610450019N0100001N1+02401+01911101521ADDAA106000091GF107991021021008001061011KA1240N+01881MA1999999095351MD1999999+0061REMSYN076AAXX  03124 82795 32597 71407 10240 20191 39535 40152 82261 333 20188 58006;EQDQ01  00002PRCP06
0167827950999992004050318004-07217-035883FM-12+0560SBKG V0201401N004610450019N0100001N1+02591+01941101231ADDAA106000091GF108991041051008001051001MA1999999095071MD1999999+0061REMSYN070AAXX  03184 82795 32597 81409 10259 20194 39507 40123 84550 333 58006;EQDQ01  00002PRCP06
0198827950999992004050400004-07217-035883FM-12+0560SBKG V0200901N002611050019N0010001N1+02291+02031101461ADDAA106000091GF108991041021008001001071KA1240M+02711MA1999999095301MD1999999+0001REMSYN088AAXX  04004 82795 32594 80905 10229 20203 39530 40146 84207 333 10271 29080 55021 58000;EQDQ01  00002PRCP06
0186827950999992004050412004-07217-035883FM-12+0560SBKG V0201801N003110450019N0100001N1+02511+01861101421ADDAA106000091GF107991021011008001051051KA1240N+02031MA1999999095271MD1999999-0081REMSYN076AAXX  04124 82795 32597 71806 10251 20186 39527 40142 82155 333 20203 59008;EQDQ01  00002PRCP06
0202827950999992004050500004-07217-035883FM-12+0560SBKG V0200901N001010075019N0010001N1+02211+02101101471ADDAY151061AY221061GF108991081071008001999999KA1240M+02771MA1999999095321MD1999999+0021MW1021REMSYN100AAXX  05004 82795 21594 80902 10221 20210 39532 40147 70252 887// 333 10277 29082 55011 58002 69911;
0190827950999992004050512004-07217-035883FM-12+0560SBKG V0200901N002110042019N0005001N1+02211+02081101711ADDAY161061AY221061GF108991081071004501999999KA1240N+02051MA1999999095511MD1999999+0241MW1501REMSYN088AAXX  05124 82795 21493 80904 10221 20208 39551 40171 75062 887// 333 20205 58024 60154;
0171827950999992004050518004-07217-035883FM-12+0560SBKG V0201401N002110075019N0040001N1+02391+02151101361ADDAY161061AY221061GF108991051071008001011999MA1999999095181MD1999999+0131MW1031REMSYN082AAXX  05184 82795 21596 81404 10239 20215 39518 40136 70362 8571/ 333 58013 60071;
0202827950999992004050600004-07217-035883FM-12+0560SBKG V0200901N002110075019N0010001N1+02121+02051101561ADDAY161061AY221061GF108991061061008001071999KA1240M+02421MA1999999095351MD1999999+0031MW1021REMSYN100AAXX  06004 82795 21594 80904 10212 20205 39535 40156 70262 8667/ 333 10242 29093 55000 58003 69921;
0162827950999992004050612004-07217-035883FM-12+0560SBKG V0201401N002110075019N0100001N1+02281+02111101721ADDGF108991081071008001999999KA1240N+01991MA1999999095511MD1999999+0001REMSYN082AAXX  06124 82795 22597 81404 10228 20211 39551 40172 887// 333 20199 58000 60084;
0190827950999992004050618004-07217-035883FM-12+0560SBKG V0201401N002119999999N0100001N1+02431+02231101541ADDAY161061AY221061GF107991999071008001999999MA1999999095341MD1999999+0161MW1161REMSYN082AAXX  06184 82795 21597 71404 10243 20223 39534 40154 71662 887// 333 58016 60031;EQDQ01+000082SCOTLC
0202827950999992004050700004-07217-035883FM-12+0560SBKG V0200901N002110450019N0010001N1+02181+02131101661ADDAY191061AY261061GF107991041061008001071001KA1240M+02461MA1999999095461MD1999999+0111MW1021REMSYN100AAXX  07004 82795 21594 70904 10218 20213 39546 40166 70296 84670 333 10246 29093 55010 58011 60061;
0209827950999992004050712004-07217-035883FM-12+0560SBKG V0201401N002110075019N0100001N1+02251+02141101711ADDAY161061AY251061GF108991999021008001001001KA1240N+02061MA1999999095511MD1999999+0001MW1021REMSYN088AAXX  07124 82795 21597 81404 10225 20214 39551 40171 70265 85200 333 20206 58000 60104;EQDQ01+000052SCOTLC
0171827950999992004050718004-07217-035883FM-12+0560SBKG V0201401N003610075019N0100001N1+02261+02201101481ADDAY161061AY221061GF108991081071008001999999MA1999999095281MD1999999-0061MW1501REMSYN082AAXX  07184 82795 21597 81407 10226 20220 39528 40148 75062 887// 333 59006 60021;
0202827950999992004050800004-07217-035883FM-12+0560SBKG V0200901N001510075019N0010001N1+02201+02131101631ADDAY151061AY251061GF107991051061008001081001KA1240M+02591MA1999999095431MD1999999-0031MW1021REMSYN100AAXX  08004 82795 21594 70903 10220 20213 39543 40163 70255 85680 333 10259 29096 55004 59003 69931;
0162827950999992004050812004-07217-035883FM-12+0560SBKG V0201401N003110075019N0100001N1+02361+02131101651ADDGF107991071071008001001001KA1240N+02081MA1999999095461MD1999999-0051REMSYN082AAXX  08124 82795 22597 71406 10236 20213 39546 40165 87700 333 20208 59005 60024;
0202827950999992004050900004-07217-035883FM-12+0560SBKG V0200901N002110075019N0010001N1+02191+02131101531ADDAY161061AY261061GF108991081061008001001001KA1240M+02591MA1999999095351MD1999999-0081MW1021REMSYN100AAXX  09004 82795 21594 80904 10219 20213 39535 40153 70266 88600 333 10259 29093 55008 59008 60011;
0190827950999992004050912004-07217-035883FM-12+0560SBKG V0200901N001510075019N0100001N1+02451+02171101541ADDAY161061AY221061GF106991061061008001001001KA1240N+02051MA1999999095371MD1999999-0091MW1021REMSYN088AAXX  09124 82795 21597 60903 10245 20217 39537 40154 70262 86600 333 20205 59009 60104;
0167827950999992004050918004-07217-035883FM-12+0560SBKG V0200901N002612200019N0100001N1+02711+02191101111ADDAA106000091GF103991021021008001061001MA1999999094991MD1999999-0201REMSYN070AAXX  09184 82795 32597 30905 10271 20219 39499 40111 82260 333 59020;EQDQ01  00002PRCP06
0202827950999992004051000004-07217-035883FM-12+0560SBKG V0200901N003110075019N0010001N1+02321+02221101431ADDAY161061AY221061GF107991071031008001001001KA1240M+02791MA1999999095281MD1999999-0071MW1211REMSYN100AAXX  10004 82795 21594 70906 10232 20222 39528 40143 72162 87300 333 10279 29086 55082 59007 69911;
0190827950999992004051012004-07217-035883FM-12+0560SBKG V0200501N003110450019N0100001N1+02561+02191101501ADDAY161061AY221061GF106991021021008001041011KA1240N+02121MA1999999095361MD1999999-0011MW1021REMSYN088AAXX  10124 82795 21597 60506 10256 20219 39536 40150 70262 82241 333 20212 59001 69924;
0195827950999992004051018004-07217-035883FM-12+0560SBKG V0201401N004110075019N0100001N1+02371+02131101231ADDAA106000091AY121061AY221061GF108991081051008001999999MA1999999095081MD1999999+0081MW1161REMSYN076AAXX  10184 82795 31597 81408 10237 20213 39508 40123 71622 885// 333 58008;EQDQ01  00002PRCP06
0202827950999992004051100004-07217-035883FM-12+0560SBKG V0200901N002610042019N0005001N1+02301+02231101431ADDAY161061AY221061GF108991071031004501071999KA1240M+02861MA1999999095291MD1999999+0011MW1601REMSYN100AAXX  11004 82795 21493 80905 10230 20223 39529 40143 76062 8737/ 333 10286 29090 55062 58001 60071;
0190827950999992004051112004-07217-035883FM-12+0560SBKG V0200901N001510450019N0100001N1+02401+02151101581ADDAY161061AY251061GF107991031021008001021011KA1240N+01971MA1999999095421MD1999999+0061MW1021REMSYN088AAXX  11124 82795 21597 70903 10240 20215 39542 40158 70265 83221 333 20197 58006 60464;
0167827950999992004051118004-07217-035883FM-12+0560SBKG V0200901N003612200019N0100001N1+02741+02121101121ADDAA106000091GF103991021021008001011001MA1999999094991MD1999999-0091REMSYN070AAXX  11184 82795 32597 30907 10274 20212 39499 40112 82210 333 59009;EQDQ01  00002PRCP06
0198827950999992004051200004-07217-035883FM-12+0560SBKG V0200901N002610075019N0010001N1+02271+02111101411ADDAA106000091GF107991071021008001001001KA1240M+02761MA1999999095261MD1999999-0031REMSYN088AAXX  12004 82795 32594 70905 10227 20211 39526 40141 87200 333 10276 29084 55068 59003;EQDQ01  00002PRCP06
0202827950999992004051212004-07217-035883FM-12+0560SBKG V0200901N003610075019N0100001N1+02491+02051101561ADDAA106000091GF106991999021008001001001KA1240N+02111MA1999999095401MD1999999-0021REMSYN076AAXX  12124 82795 32597 60907 10249 20205 39540 40156 85200 333 20211 59002;EQDQ01+000052SCOTLCQ02  00002PRCP06
0167827950999992004051218004-07217-035883FM-12+0560SBKG V0201401N002611050019N0100001N1+02731+02031101241ADDAA106000091GF106991041041008001001031MA1999999095121MD1999999+0131REMSYN070AAXX  12184 82795 32597 61405 10273 20203 39512 40124 84403 333 58013;EQDQ01  00002PRCP06
0083827950999992004051312004-07217-035883FM-12+0560SBKG V02099999999999999999N9999999N1+99999+99999999999REMSYN074AAXX  13124 82795 32597 504 10239 20199 39537 40154 85200 333 20206 59003;
0167827950999992004051318004-07217-035883FM-12+0560SBKG V0201401N002112200019N0100001N1+02721+01931101161ADDAA106000091GF103991031021008001001001MA1999999095041MD1999999-0081REMSYN070AAXX  13184 82795 32597 31404 10272 20193 39504 40116 83200 333 59008;EQDQ01  00002PRCP06
0208827950999992004051400004-07217-035883FM-12+0560SBKG V0200901N002612200019N0010001N1+02231+02011101431ADDAA106000091GA1001+999999999GF100991001001999999001001KA1240M+02781MA1999999095271MD1999999-0101REMSYN082AAXX  14004 82795 32994 00905 10223 20201 39527 40143 333 10278 29079 55082 59010;EQDQ01  00002PRCP06
0167827950999992004051418004-07217-035883FM-12+0560SBKG V0201401N003612200019N0100001N1+02751+01891101081ADDAA106000091GF102991021021008001001001MA1999999094961MD1999999-0081REMSYN070AAXX  14184 82795 32597 21407 10275 20189 39496 40108 82200 333 59008;EQDQ01  00002PRCP06
0208827950999992004051500004-07217-035883FM-12+0560SBKG V0200901N004112200019N0010001N1+02201+02011101411ADDAA106000091GA1001+999999999GF100991001001999999001001KA1240M+02821MA1999999095251MD1999999-0021REMSYN082AAXX  15004 82795 32994 00908 10220 20201 39525 40141 333 10282 29080 55087 59002;EQDQ01  00002PRCP06
0186827950999992004051512004-07217-035883FM-12+0560SBKG V0201401N003110075019N0100001N1+02441+02191101541ADDAA106000091GF105991051031008001001001KA1240N+01621MA1999999095371MD1999999+0021REMSYN076AAXX  15124 82795 32597 51406 10244 20219 39537 40154 85300 333 20162 58002;EQDQ01  00002PRCP06
0167827950999992004051518004-07217-035883FM-12+0560SBKG V0201401N002112200019N0100001N1+02691+01991101091ADDAA106000091GF103991031031008001001001MA1999999094961MD1999999+0001REMSYN070AAXX  15184 82795 32597 31404 10269 20199 39496 40109 83300 333 58000;EQDQ01  00002PRCP06
0198827950999992004051600004-07217-035883FM-12+0560SBKG V0201401N002112200019N0010001N1+02231+02121101421ADDAA106000091GF104991041061008001001001KA1240M+02811MA1999999095261MD1999999+0011REMSYN088AAXX  16004 82795 32594 41404 10223 20212 39526 40142 84600 333 10281 29081 55096 58001;EQDQ01  00002PRCP06
0186827950999992004051612004-07217-035883FM-12+0560SBKG V0201401N003110450019N0100001N1+02431+01971101461ADDAA106000091GF106991021031008001041001KA1240N+02031MA1999999095301MD1999999-0071REMSYN076AAXX  16124 82795 32597 61406 10243 20197 39530 40146 82340 333 20203 59007;EQDQ01  00002PRCP06
0167827950999992004051618004-07217-035883FM-12+0560SBKG V0201401N001510075019N0100001N1+02651+02091101131ADDAA106000091GF106991061031008001001001MA1999999095001MD1999999+0041REMSYN070AAXX  16184 82795 32597 61403 10265 20209 39500 40113 86300 333 58004;EQDQ01  00002PRCP06
0198827950999992004051700004-07217-035883FM-12+0560SBKG V0201401N002612200019N0010001N1+02391+02171101441ADDAA106000091GF104991041061008001001001KA1240M+02721MA1999999095301MD1999999+0041REMSYN088AAXX  17004 82795 32594 41405 10239 20217 39530 40144 84600 333 10272 29080 55067 58004;EQDQ01  00002PRCP06
0190827950999992004051712004-07217-035883FM-12+0560SBKG V0201401N003112200019N0100001N1+02411+02051101461ADDAY161061AY221061GF106991041021008001001011KA1240N+02001MA1999999095321MD1999999+0021MW1021REMSYN088AAXX  17124 82795 21597 61406 10241 20205 39532 40146 70262 84201 333 20200 58002 60044;
0183827950999992004051718004-07217-035883FM-12+0560SBKG V0201401N003112200019N0100001N1+02631+01981101121ADDAA106000091GF103991999021008001001001MA1999999094991MD1999999-0011REMSYN070AAXX  17184 82795 32597 31406 10263 20198 39499 40112 84200 333 59001;EQDQ01+000042SCOTLCQ02  00002PRCP06
0198827950999992004051800004-07217-035883FM-12+0560SBKG V0200901N002612200019N0010001N1+02241+02101101481ADDAA106000091GF104991041021008001001001KA1240M+02751MA1999999095321MD1999999+0021REMSYN088AAXX  18004 82795 32594 40905 10224 20210 39532 40148 84200 333 10275 29083 55090 58002;EQDQ01  00002PRCP06
0190827950999992004051812004-07217-035883FM-12+0560SBKG V0201401N002110075019N0100001N1+02321+02021101641ADDAY161061AY221061GF106991061021008001001001KA1240N+01951MA1999999095451MD1999999+0131MW1021REMSYN088AAXX  18124 82795 21597 61404 10232 20202 39545 40164 70262 86200 333 20195 58013 60044;
0167827950999992004051818004-07217-035883FM-12+0560SBKG V0201401N001511050019N0100001N1+02641+01901101241ADDAA106000091GF105991021021008001001031MA1999999095101MD1999999+0111REMSYN070AAXX  18184 82795 32597 51403 10264 20190 39510 40124 82203 333 58011;EQDQ01  00002PRCP06
0198827950999992004051900004-07217-035883FM-12+0560SBKG V0200901N002612200019N0010001N1+02221+02071101651ADDAA106000091GF102991021021008001001001KA1240M+02711MA1999999095461MD1999999+0141REMSYN088AAXX  19004 82795 32594 20905 10222 20207 39546 40165 82200 333 10271 29082 55080 58014;EQDQ01  00002PRCP06
0190827950999992004051912004-07217-035883FM-12+0560SBKG V0201401N002610042019N0005001N1+02281+02161101851ADDAY161061AY251061GF108991081071004501999999KA1240N+02071MA1999999095651MD1999999+0201MW1601REMSYN088AAXX  19124 82795 21493 81405 10228 20216 39565 40185 76065 887// 333 20207 58020 69984;
0171827950999992004051918004-07217-035883FM-12+0560SBKG V0201401N001510450019N0100001N1+02321+02131101631ADDAY161061AY221061GF106991031031008001021001MA1999999095401MD1999999+0331MW1021REMSYN082AAXX  19184 82795 21597 61403 10232 20213 39540 40163 70262 83320 333 58033 60041;
0202827950999992004052000004-07217-035883FM-12+0560SBKG V0200901N003110042019N0002001N1+02201+02151101791ADDAY161061AY221061GF108991081071004501999999KA1240M+02661MA1999999095591MD1999999+0131MW1601REMSYN100AAXX  20004 82795 21492 80906 10220 20215 39559 40179 76062 887// 333 10266 29094 55033 58013 60031;
0190827950999992004052012004-07217-035883FM-12+0560SBKG V0201401N002110075019N0100001N1+02251+02121101821ADDAY161061AY221061GF108991061071008001011999KA1240N+01961MA1999999095621MD1999999-0031MW1021REMSYN088AAXX  20124 82795 21597 81404 10225 20212 39562 40182 70262 8671/ 333 20196 59003 60164;
0171827950999992004052018004-07217-035883FM-12+0560SBKG V0201401N003110075019N0100001N1+02521+02091101491ADDAY161061AY221061GF107991071071008001001001MA1999999095301MD1999999+0101MW1161REMSYN082AAXX  20184 82795 21597 71406 10252 20209 39530 40149 71662 87700 333 58010 60011;
0202827950999992004052100004-07217-035883FM-12+0560SBKG V0201401N000510450019N0010001N1+02151+02081101841ADDAY161061AY221061GF106991041021008001081001KA1240M+02531MA1999999095631MD1999999+0041MW1011REMSYN100AAXX  21004 82795 21594 61401 10215 20208 39563 40184 70162 84280 333 10253 29090 55013 58004 69961;
0162827950999992004052112004-07217-035883FM-12+0560SBKG V0201401N003110075019N0100001N1+02331+02051101691ADDGF106991061061008001001001KA1240N+02031MA1999999095501MD1999999-0121REMSYN082AAXX  21124 82795 22597 61406 10233 20205 39550 40169 86600 333 20203 59012 60024;
0167827950999992004052118004-07217-035883FM-12+0560SBKG V0201401N003112200019N0100001N1+02691+01991101311ADDAA106000091GF103991031021008001001001MA1999999095171MD1999999-0161REMSYN070AAXX  21184 82795 32597 31406 10269 20199 39517 40131 83200 333 59016;EQDQ01  00002PRCP06
0198827950999992004052200004-07217-035883FM-12+0560SBKG V0200901N002610450019N0010001N1+02191+02011101521ADDAA106000091GF105991031021008001061001KA1240M+02701MA1999999095341MD1999999-0291REMSYN088AAXX  22004 82795 32594 50905 10219 20201 39534 40152 83260 333 10270 29082 55061 59029;EQDQ01  00002PRCP06
0171827950999992004052218004-07217-035883FM-12+0560SBKG V0201401N002610075019N0100001N1+02471+02031101311ADDAY161061AY221061GF106991051031008001061001MA1999999095131MD1999999-0041MW1021REMSYN082AAXX  22184 82795 21597 61405 10247 20203 39513 40131 70262 85360 333 59004 69921;
0198827950999992004052300004-07217-035883FM-12+0560SBKG V0201401N003112200019N0010001N1+02191+02011101361ADDAA106000091GF104991041021008001001001KA1240M+02561MA1999999095431MD1999999+0091REMSYN088AAXX  23004 82795 32594 41406 10219 20201 39543 40136 84200 333 10256 29087 55058 58009;EQDQ01  00002PRCP06
0162827950999992004052312004-07217-035883FM-12+0560SBKG V0201401N003610075019N0100001N1+02301+02011101751ADDGF105991051021008001001001KA1240N+01961MA1999999095551MD1999999+0141REMSYN082AAXX  23124 82795 22597 51407 10230 20201 39555 40175 85200 333 20196 58014 69924;
0167827950999992004052318004-07217-035883FM-12+0560SBKG V0200901N002112200019N0100001N1+02681+02021101421ADDAA106000091GF102991021021008001001001MA1999999095261MD1999999+0131REMSYN070AAXX  23184 82795 32597 20904 10268 20202 39526 40142 82200 333 58013;EQDQ01  00002PRCP06
0208827950999992004052400004-07217-035883FM-12+0560SBKG V0200901N002112200019N0010001N1+02241+01981101691ADDAA106000091GA1001+999999999GF100991001001999999001001KA1240M+02721MA1999999095501MD1999999+0071REMSYN082AAXX  24004 82795 32994 00904 10224 20198 39550 40169 333 10272 29080 55086 58007;EQDQ01  00002PRCP06
0190827950999992004052412004-07217-035883FM-12+0560SBKG V0201401N003110075019N0020001N1+02191+02151101621ADDAY161061AY251061GF108991051071008001021001KA1240N+02031MA1999999095611MD1999999+0061MW1501REMSYN088AAXX  24124 82795 21595 81406 10219 20215 39561 40162 75065 85720 333 20203 58006 60014;
0190827950999992004052418004-07217-035883FM-12+0560SBKG V0201401N001519999999N0040001N1+02211+02081101581ADDAY161061AY221061GF108991999021008001001001MA1999999095371MD1999999+0111MW1501REMSYN082AAXX  24184 82795 21596 81403 10221 20208 39537 40158 75062 83200 333 58011 60061;EQDQ01+000032SCOTLC
0179827950999992004052500004-07217-035883FM-12+0560SBKG V0201401N000510075019N0010001N1+02121+02071101771ADDAA106000021GF108991051021008001041001KA1240M+02271MA1999999095521MD1999999+0021REMSYN088AAXX  25004 82795 32594 81401 10212 20207 39552 40177 85240 333 10227 29096 55000 58002;
0162827950999992004052512004-07217-035883FM-12+0560SBKG V0200901N002110075019N0100001N1+02371+02071101791ADDGF106991061061008001001001KA1240N+02021MA1999999095591MD1999999-0021REMSYN082AAXX  25124 82795 22597 60904 10237 20207 39559 40179 86600 333 20202 59002 60064;
0195827950999992004052518004-07217-035883FM-12+0560SBKG V0201401N002110075019N0100001N1+02511+02071101471ADDAA106000091AY121061AY221061GF108991051041008001021001MA1999999095311MD1999999-0061MW1141REMSYN076AAXX  25184 82795 31597 81404 10251 20207 39531 40147 71422 85420 333 59006;EQDQ01  00002PRCP06
0202827950999992004052600004-07217-035883FM-12+0560SBKG V0200901N001512200019N0010001N1+02151+02061101691ADDAY161061AY221061GF103991021011008001041001KA1240M+02571MA1999999095501MD1999999-0021MW1011REMSYN100AAXX  26004 82795 21594 30903 10215 20206 39550 40169 70162 82140 333 10257 29087 55003 59002 60021;
0181827950999992004052612004-07217-035883FM-12+0560SBKG V0201401N004110075019N0100001N1+02381+02111101691ADDGF106991999021008001001001KA1240N+01911MA1999999095501MD1999999-0091REMSYN082AAXX  26124 82795 22597 61408 10238 20211 39550 40169 85200 333 20191 59009 60024;EQDQ01+000052SCOTLC
0167827950999992004052618004-07217-035883FM-12+0560SBKG V0201401N000510450019N0100001N1+02621+02121101381ADDAA106000091GF105991031051008001021001MA1999999095221MD1999999-0091REMSYN070AAXX  26184 82795 32597 51401 10262 20212 39522 40138 83520 333 59009;EQDQ01  00002PRCP06
0202827950999992004052700004-07217-035883FM-12+0560SBKG V0200901N002610075019N0010001N1+02201+02061101611ADDAY161061AY221061GF106991061021008001001001KA1240M+02681MA1999999095431MD1999999-0071MW1021REMSYN100AAXX  27004 82795 21594 60905 10220 20206 39543 40161 70262 86200 333 10268 29085 55084 59007 69921;
0162827950999992004052712004-07217-035883FM-12+0560SBKG V0201401N003110075019N0100001N1+02431+02051101681ADDGF106991061021008001001001KA1240N+02011MA1999999095501MD1999999+0001REMSYN082AAXX  27124 82795 22597 61406 10243 20205 39550 40168 86200 333 20201 58000 69924;
0167827950999992004052718004-07217-035883FM-12+0560SBKG V0201401N003112200019N0100001N1+02731+01821101341ADDAA106000091GF104991041041008001001001MA1999999095211MD1999999-0011REMSYN070AAXX  27184 82795 32597 41406 10273 20182 39521 40134 84400 333 59001;EQDQ01  00002PRCP06
0198827950999992004052800004-07217-035883FM-12+0560SBKG V0200901N001510075019N0010001N1+02241+02101101651ADDAA106000091GF106991061021008001001001KA1240M+02791MA1999999095491MD1999999+0061REMSYN088AAXX  28004 82795 32594 60903 10224 20210 39549 40165 86200 333 10279 29080 55092 58006;EQDQ01  00002PRCP06
0186827950999992004052812004-07217-035883FM-12+0560SBKG V0201401N002110075019N0100001N1+02401+02011101871ADDAA106000091GF106991061021008001001001KA1240N+02001MA1999999095671MD1999999+0181REMSYN076AAXX  28124 82795 32597 61404 10240 20201 39567 40187 86200 333 20200 58018;EQDQ01  00002PRCP06
0171827950999992004052818004-07217-035883FM-12+0560SBKG V0200901N002110075019N0040001N1+02141+02071101621ADDAY161061AY221061GF108991081071008001999999MA1999999095401MD1999999+0191MW1621REMSYN082AAXX  28184 82795 21596 80904 10214 20207 39540 40162 76262 887// 333 58019 60121;
0202827950999992004052900004-07217-035883FM-12+0560SBKG V0200901N003610075019N0010001N1+02201+02131101731ADDAY161061AY221061GF108991081061008001999999KA1240M+02621MA1999999095551MD1999999+0061MW1021REMSYN100AAXX  29004 82795 21594 80907 10220 20213 39555 40173 70262 886// 333 10262 29094 55038 58006 69971;
0162827950999992004052912004-07217-035883FM-12+0560SBKG V0201401N003610075019N0100001N1+02381+02071101781ADDGF106991061061008001001001KA1240N+01931MA1999999095601MD1999999-0081REMSYN082AAXX  29124 82795 22597 61407 10238 20207 39560 40178 86600 333 20193 59008 60124;
0167827950999992004052918004-07217-035883FM-12+0560SBKG V0201401N002610450019N0100001N1+02511+02001101511ADDAA106000091GF106991041021008001061001MA1999999095331MD1999999-0071REMSYN070AAXX  29184 82795 32597 61405 10251 20200 39533 40151 84260 333 59007;EQDQ01  00002PRCP06
0198827950999992004053000004-07217-035883FM-12+0560SBKG V0201401N003110075019N0010001N1+02171+01991101781ADDAA106000091GF107991051021008001061001KA1240M+02711MA1999999095581MD1999999+0021REMSYN088AAXX  30004 82795 32594 71406 10217 20199 39558 40178 85260 333 10271 29084 55078 58002;EQDQ01  00002PRCP06
0190827950999992004053012004-07217-035883FM-12+0560SBKG V0200901N003110075019N0100001N1+02061+01961101841ADDAY161061AY251061GF107991071071008001001001KA1240N+01941MA1999999095601MD1999999+0001MW1021REMSYN088AAXX  30124 82795 21597 70906 10206 20196 39560 40184 70265 87700 333 20194 58000 60084;
0171827950999992004053018004-07217-035883FM-12+0560SBKG V0200901N003110450019N0100001N1+02361+02051101441ADDAY161061AY221061GF105991041021008001061001MA1999999095241MD1999999-0091MW1011REMSYN082AAXX  30184 82795 21597 50906 10236 20205 39524 40144 70162 84260 333 59009 69931;
0198827950999992004053100004-07217-035883FM-12+0560SBKG V0200901N002610450019N0010001N1+02381+01951101581ADDAA106000091GF105991031021008001051001KA1240M+03041MA1999999095441MD1999999+0091REMSYN088AAXX  31004 82795 32594 50905 10238 20195 39544 40158 83250 333 10304 29068 55103 58009;EQDQ01  00002PRCP06
0162827950999992004053112004-07217-035883FM-12+0560SBKG V0202301N001510075019N0100001N1+02291+02011101711ADDGF106991061021008001001001KA1240N+01961MA1999999095511MD1999999-0091REMSYN082AAXX  31124 82795 22597 62303 10229 20201 39551 40171 86200 333 20196 59009 60034;
0171827950999992004053118004-07217-035883FM-12+0560SBKG V0201401N001510120019N0100001N1+02531+02171101351ADDAY151061AY221061GF105991051081008001001001MA1999999095181MD1999999-0061MW1021REMSYN082AAXX  31184 82795 21597 51403 10253 20217 39518 40135 70252 85800 333 59006 69991;
0198827950999992004060100004-07217-035883FM-12+0560SBKG V0201401N002110450019N0010001N1+02181+02061101601ADDAA106000091GF107991011021008001081021KA1240M+02671MA1999999095421MD1999999+0011REMSYN088AAXX  01004 82795 32594 71404 10218 20206 39542 40160 81282 333 10267 29088 55054 58001;EQDQ01  00002PRCP06
0190827950999992004060112004-07217-035883FM-12+0560SBKG V0201801N001510075019N0100001N1+02151+02081101721ADDAY161061AY251061GF108991051071008001011999KA1240N+02041MA1999999095501MD1999999-0011MW1021REMSYN088AAXX  01124 82795 21597 81803 10215 20208 39550 40172 70265 8571/ 333 20204 59001 60034;
0167827950999992004060118004-07217-035883FM-12+0560SBKG V0201401N002610075019N0100001N1+02411+02011101471ADDAA106000091GF108991051071008001011999MA1999999095281MD1999999+0181REMSYN070AAXX  01184 82795 32597 81405 10241 20201 39528 40147 8571/ 333 58018;EQDQ01  00002PRCP06
0198827950999992004060200004-07217-035883FM-12+0560SBKG V0200901N001510450019N0010001N1+02191+02081101751ADDAA106000091GF107991031021008001081001KA1240M+02501MA1999999095531MD1999999+0111REMSYN088AAXX  02004 82795 32594 70903 10219 20208 39553 40175 83280 333 10250 29090 55001 58011;EQDQ01  00002PRCP06
0186827950999992004060212004-07217-035883FM-12+0560SBKG V0202301N002110075019N0100001N1+02361+02071101771ADDAA106000091GF106991061021008001001001KA1240N+01961MA1999999095571MD1999999+0071REMSYN076AAXX  02124 82795 32597 62304 10236 20207 39557 40177 86200 333 20196 58007;EQDQ01  00002PRCP06
0167827950999992004060218004-07217-035883FM-12+0560SBKG V0201401N003112200019N0100001N1+02691+02041101441ADDAA106000091GF103991031021008001001001MA1999999095301MD1999999+0031REMSYN070AAXX  02184 82795 32597 31406 10269 20204 39530 40144 83200 333 58003;EQDQ01  00002PRCP06
0208827950999992004060300004-07217-035883FM-12+0560SBKG V0200901N001512200019N0010001N1+02221+02101101741ADDAA106000091GA1001+999999999GF100991001001999999001001KA1240M+02741MA1999999095561MD1999999+0031REMSYN082AAXX  03004 82795 32994 00903 10222 20210 39556 40174 333 10274 29084 55084 58003;EQDQ01  00002PRCP06
0190827950999992004060312004-07217-035883FM-12+0560SBKG V0201801N002110042019N0040001N1+02211+02121101781ADDAY161061AY221061GF108991051071004501011999KA1240N+02071MA1999999095571MD1999999+0001MW1501REMSYN088AAXX  03124 82795 21496 81804 10221 20212 39557 40178 75062 8571/ 333 20207 58000 69914;
0171827950999992004060318004-07217-035883FM-12+0560SBKG V0201401N004110450019N0100001N1+02591+02081101451ADDAY161061AY221061GF105991031051008001061001MA1999999095311MD1999999+0011MW1021REMSYN082AAXX  03184 82795 21597 51408 10259 20208 39531 40145 70262 83560 333 58001 60011;
0198827950999992004060400004-07217-035883FM-12+0560SBKG V0201401N002112200019N0010001N1+02121+01841101741ADDAA106000091GF104991041001012501031001KA1240M+02671MA1999999095521MD1999999-0041REMSYN088AAXX  04004 82795 32694 41404 10212 20184 39552 40174 84030 333 10267 29084 55047 59004;EQDQ01  00002PRCP06
0162827950999992004060412004-07217-035883FM-12+0560SBKG V0201401N002612200019N0100001N1+02321+01981101761ADDGF103991011031008001001021KA1240N+01831MA1999999095551MD1999999-0021REMSYN082AAXX  04124 82795 22597 31405 10232 20198 39555 40176 81302 333 20183 59002 60014;
0167827950999992004060418004-07217-035883FM-12+0560SBKG V0201401N003110450019N0100001N1+02531+02041101741ADDAA106000091GF108991041031008001091999MA1999999095551MD1999999-0011REMSYN070AAXX  04184 82795 32597 81406 10253 20204 39555 40174 8439/ 333 59001;EQDQ01  00002PRCP06
0202827950999992004060500004-07217-035883FM-12+0560SBKG V0209999C000010075019N0010001N1+02121+02071101681ADDAY161061AY221061GF108991081071008001999999KA1240M+02691MA1999999095481MD1999999-0041MW1211REMSYN100AAXX  05004 82795 21594 81400 10212 20207 39548 40168 72162 887// 333 10269 29087 55065 59004 60021;
0190827950999992004060512004-07217-035883FM-12+0560SBKG V0201401N003610075019N0100001N1+02211+02081101691ADDAY161061AY221061GF108991051071008001011999KA1240N+02021MA1999999095471MD1999999-0081MW1031REMSYN088AAXX  05124 82795 21597 81407 10221 20208 39547 40169 70362 8571/ 333 20202 59008 60114;
0171827950999992004060518004-07217-035883FM-12+0560SBKG V0201401N002110120019N0100001N1+02191+02081101491ADDAY161061AY221061GF108991081081008001999999MA1999999095281MD1999999-0031MW1021REMSYN082AAXX  05184 82795 21597 81404 10219 20208 39528 40149 70262 888// 333 59003 60081;
0202827950999992004060600004-07217-035883FM-12+0560SBKG V0201401N002110120019N0010001N1+02111+01951101591ADDAY161061AY221061GF108991081081008001999999KA1240M+02511MA1999999095381MD1999999-0101MW1021REMSYN100AAXX  06004 82795 21594 81404 10211 20195 39538 40159 70262 888// 333 10251 29092 55023 59010 60081;
0185827950999992004060610004-07217-035883FM-15+0560SBKG V0201201N002110030019N0112651N1+02201+02101999999ADDGA1041+001209999GA2071+003009999GA3071+004509999GF107991999999999999999999MA1101801999999MW1001REMMET059SBKG 061000Z 12004KT 9999 SCT004 BKN010 BKN015 22/21 Q1018;EQDQ01+000000PRSWM2
0162827950999992004060612004-07217-035883FM-12+0560SBKG V0201401N003610120019N0100001N1+02321+02021101801ADDGF105991051081008001001001KA1240N+02011MA1999999095591MD1999999+0121REMSYN082AAXX  06124 82795 22597 51407 10232 20202 39559 40180 85800 333 20201 58012 60164;
0167827950999992004060618004-07217-035883FM-12+0560SBKG V0201401N003612200019N0100001N1+02591+02041101471ADDAA106000091GF103991031031008001001001MA1999999095311MD1999999+0041REMSYN070AAXX  06184 82795 32597 31407 10259 20204 39531 40147 83300 333 58004;EQDQ01  00002PRCP06
0208827950999992004060700004-07217-035883FM-12+0560SBKG V0201401N002112200019N0010001N1+02031+01831101871ADDAA106000091GA1001+999999999GF100991001001999999001001KA1240M+02681MA1999999095641MD1999999+0161REMSYN082AAXX  07004 82795 32994 01404 10203 20183 39564 40187 333 10268 29085 55081 58016;EQDQ01  00002PRCP06
0190827950999992004060712004-07217-035883FM-12+0560SBKG V0201801N002110075019N0100001N1+02211+02011102001ADDAY161061AY221061GF106991061061008001001001KA1240N+01881MA1999999095751MD1999999+0161MW1021REMSYN088AAXX  07124 82795 21597 61804 10221 20201 39575 40200 70262 86600 333 20188 58016 69934;
0171827950999992004060718004-07217-035883FM-12+0560SBKG V0201401N003110450019N0100001N1+02731+01991101671ADDAY161061AY221061GF105991021051008001061001MA1999999095431MD1999999+0121MW1021REMSYN082AAXX  07184 82795 21597 51406 10273 20199 39543 40167 70262 82560 333 58012 60021;
0198827950999992004060800004-07217-035883FM-12+0560SBKG V0201401N001510075019N0010001N1+02151+01931101861ADDAA106000091GF105991051021008001001001KA1240M+02611MA1999999095641MD1999999+0001REMSYN088AAXX  08004 82795 32594 51403 10215 20193 39564 40186 85200 333 10261 29085 55049 58000;EQDQ01  00002PRCP06
0190827950999992004060812004-07217-035883FM-12+0560SBKG V0201401N002610075019N0100001N1+02131+02061101861ADDAY161061AY221061GF107991071071008001001001KA1240N+01841MA1999999095631MD1999999-0121MW1021REMSYN088AAXX  08124 82795 21597 71405 10213 20206 39563 40186 70262 87700 333 20184 59012 60024;
0171827950999992004060818004-07217-035883FM-12+0560SBKG V0201401N002612200019N0100001N1+02441+02011101631ADDAY161061AY221061GF104991041041008001001001MA1999999095421MD1999999-0011MW1021REMSYN082AAXX  08184 82795 21597 41405 10244 20201 39542 40163 70262 84400 333 59001 60021;
0202827950999992004060900004-07217-035883FM-12+0560SBKG V0201401N001510075019N0010001N1+02121+02041101871ADDAY151061AY221061GF108991081061008001999999KA1240M+02521MA1999999095631MD1999999-0011MW1021REMSYN100AAXX  09004 82795 21594 81403 10212 20204 39563 40187 70252 886// 333 10252 29090 55035 59001 69911;
0190827950999992004060912004-07217-035883FM-12+0560SBKG V0201401N003110075019N0100001N1+02241+02101101951ADDAY161061AY221061GF107991071071008001001001KA1240N+01951MA1999999095741MD1999999+0111MW1021REMSYN088AAXX  09124 82795 21597 71406 10224 20210 39574 40195 70262 87700 333 20195 58011 60024;
0171827950999992004060918004-07217-035883FM-12+0560SBKG V0201401N003610450019N0100001N1+02511+01941101641ADDAY161061AY221061GF105991021041008001061001MA1999999095451MD1999999+0031MW1021REMSYN082AAXX  09184 82795 21597 51407 10251 20194 39545 40164 70262 82460 333 58003 60021;
0198827950999992004061000004-07217-035883FM-12+0560SBKG V0201401N002110120019N0010001N1+02131+01971101911ADDAA106000091GF107991071081008001001001KA1240M+02521MA1999999095681MD1999999+0051REMSYN088AAXX  10004 82795 32594 71404 10213 20197 39568 40191 87800 333 10252 29086 55046 58005;EQDQ01  00002PRCP06
0162827950999992004061012004-07217-035883FM-12+0560SBKG V0201401N003610075019N0100001N1+02301+02011101921ADDGF106991061021008001001001KA1240N+01901MA1999999095701MD1999999-0041REMSYN082AAXX  10124 82795 22597 61407 10230 20201 39570 40192 86200 333 20190 59004 60024;
0167827950999992004061018004-07217-035883FM-12+0560SBKG V0201401N005112200019N0100001N1+02621+01861101561ADDAA106000091GF102991021021008001001001MA1999999095381MD1999999-0071REMSYN070AAXX  10184 82795 32597 21410 10262 20186 39538 40156 82200 333 59007;EQDQ01  00002PRCP06
0202827950999992004061100004-07217-035883FM-12+0560SBKG V0201401N002610042019N0010001N1+02121+02071101801ADDAY161061AY221061GF108991081071004501999999KA1240M+02651MA1999999095591MD1999999-0091MW1211REMSYN100AAXX  11004 82795 21494 81405 10212 20207 39559 40180 72162 887// 333 10265 29085 55090 59009 60021;
0190827950999992004061112004-07217-035883FM-12+0560SBKG V0201401N002110075019N0100001N1+02211+01951101921ADDAY161061AY221061GF106991061021008001001001KA1240N+01911MA1999999095691MD1999999-0011MW1021REMSYN088AAXX  11124 82795 21597 61404 10221 20195 39569 40192 70262 86200 333 20191 59001 60034;
0167827950999992004061118004-07217-035883FM-12+0560SBKG V0201401N003112200019N0100001N1+02581+01851101691ADDAA106000091GF101991011011008001001001MA1999999095481MD1999999+0121REMSYN070AAXX  11184 82795 32597 11406 10258 20185 39548 40169 81100 333 58012;EQDQ01  00002PRCP06
0198827950999992004061200004-07217-035883FM-12+0560SBKG V0201401N001512200019N0010001N1+02131+01901101911ADDAA106000091GF103991011011008001041001KA1240M+02691MA1999999095681MD1999999+0091REMSYN088AAXX  12004 82795 32594 31403 10213 20190 39568 40191 81140 333 10269 29080 55073 58009;EQDQ01  00002PRCP06
0186827950999992004061212004-07217-035883FM-12+0560SBKG V0201401N002610075019N0100001N1+02331+02011101981ADDAA106000091GF106991061021008001001001KA1240N+01911MA1999999095761MD1999999+0071REMSYN076AAXX  12124 82795 32597 61405 10233 20201 39576 40198 86200 333 20191 58007;EQDQ01  00002PRCP06
0171827950999992004061218004-07217-035883FM-12+0560SBKG V0201401N001510075019N0100001N1+02441+02131101741ADDAY161061AY221061GF107991051021008001061001MA1999999095521MD1999999+0041MW1021REMSYN082AAXX  12184 82795 21597 71403 10244 20213 39552 40174 70262 85260 333 58004 69951;
0162827950999992004061312004-07217-035883FM-12+0560SBKG V0201401N003110075019N0100001N1+02201+01991101921ADDGF107991071071008001001001KA1240N+01811MA1999999095691MD1999999-0081REMSYN082AAXX  13124 82795 22597 71406 10220 20199 39569 40192 87700 333 20181 59008 60064;
0167827950999992004061318004-07217-035883FM-12+0560SBKG V0201401N002110075019N0100001N1+02571+02101101591ADDAA106000091GF106991061021008001001001MA1999999095391MD1999999-0131REMSYN070AAXX  13184 82795 32597 61404 10257 20210 39539 40159 86200 333 59013;EQDQ01  00002PRCP06
0202827950999992004061400004-07217-035883FM-12+0560SBKG V0201401N002110075019N0010001N1+02161+02111101901ADDAY161061AY221061GF107991071061008001001001KA1240M+02621MA1999999095671MD1999999-0101MW1021REMSYN100AAXX  14004 82795 21594 71404 10216 20211 39567 40190 70262 87600 333 10262 29089 55061 59010 60041;
0171827950999992004061418004-07217-035883FM-12+0560SBKG V0201401N003610120019N0100001N1+02411+01991101651ADDAY151061AY221061GF106991061081008001001001MA1999999095451MD1999999+0061MW1021REMSYN082AAXX  14184 82795 21597 61407 10241 20199 39545 40165 70252 86800 333 58006 69931;
0198827950999992004061500004-07217-035883FM-12+0560SBKG V0201401N001512200019N0010001N1+02131+02041101981ADDAA106000091GF104991041021008001001001KA1240M+02451MA1999999095741MD1999999+0071REMSYN088AAXX  15004 82795 32594 41403 10213 20204 39574 40198 84200 333 10245 29090 55011 58007;EQDQ01  00002PRCP06
0162827950999992004061512004-07217-035883FM-12+0560SBKG V0201401N001510075019N0100001N1+02251+02011101951ADDGF106991061021008001001001KA1240N+01931MA1999999095751MD1999999-0011REMSYN082AAXX  15124 82795 22597 61403 10225 20201 39575 40195 86200 333 20193 59001 69934;
0171827950999992004061518004-07217-035883FM-12+0560SBKG V0201401N002110120019N0100001N1+02151+02001101811ADDAY161061AY221061GF108991081081008001999999MA1999999095551MD1999999+0031MW1021REMSYN082AAXX  15184 82795 21597 81404 10215 20200 39555 40181 70262 888// 333 58003 60031;
0198827950999992004061600004-07217-035883FM-12+0560SBKG V0201401N001510120019N0010001N1+02121+02021101971ADDAA106000091GF107991071081008001001001KA1240M+02461MA1999999095731MD1999999-0011REMSYN088AAXX  16004 82795 32594 71403 10212 20202 39573 40197 87800 333 10246 29092 55042 59001;EQDQ01  00002PRCP06
0162827950999992004061612004-07217-035883FM-12+0560SBKG V0201401N001510075019N0100001N1+02281+02031101911ADDGF106991061021008001001001KA1240N+01951MA1999999095671MD1999999-0081REMSYN082AAXX  16124 82795 22597 61403 10228 20203 39567 40191 86200 333 20195 59008 60034;
0171827950999992004061618004-07217-035883FM-12+0560SBKG V0201401N003610075019N0040001N1+02311+02111101551ADDAY161061AY221061GF108991081071008001999999MA1999999095341MD1999999-0161MW1601REMSYN082AAXX  16184 82795 21596 81407 10231 20211 39534 40155 76062 887// 333 59016 60081;
0202827950999992004061700004-07217-035883FM-12+0560SBKG V0201801N002610042019N0005001N1+02101+02051101741ADDAY161061AY261061GF108991081071004501999999KA1240M+02561MA1999999095521MD1999999-0211MW1601REMSYN100AAXX  17004 82795 21493 81805 10210 20205 39552 40174 76066 887// 333 10256 29093 55038 59021 60041;
0171827950999992004061718004-07217-035883FM-12+0560SBKG V0201401N003610075019N0040001N1+02131+02071101601ADDAY161061AY221061GF108991081071008001999999MA1999999095351MD1999999+0011MW1031REMSYN082AAXX  17184 82795 21596 81407 10213 20207 39535 40160 70362 887// 333 58001 60121;
0202827950999992004061800004-07217-035883FM-12+0560SBKG V0201401N002110042019N0005001N1+02081+02031101791ADDAY151061AY221061GF108991081071004501999999KA1240M+02351MA1999999095571MD1999999+0051MW1501REMSYN100AAXX  18004 82795 21493 81404 10208 20203 39557 40179 75052 887// 333 10235 29096 55006 58005 69961;
0190827950999992004061812004-07217-035883FM-12+0560SBKG V0201401N002610042019N0020001N1+02041+01991102011ADDAY161061AY251061GF108991051071004501021999KA1240N+01811MA1999999095751MD1999999+0231MW1551REMSYN088AAXX  18124 82795 21495 81405 10204 20199 39575 40201 75565 8572/ 333 20181 58023 60234;
0171827950999992004061818004-07217-035883FM-12+0560SBKG V0201401N002110075019N0100001N1+02231+02051101761ADDAY161061AY251061GF107991051071008001071001MA1999999095521MD1999999+0171MW1021REMSYN082AAXX  18184 82795 21597 71404 10223 20205 39552 40176 70265 85770 333 58017 60021;
0202827950999992004061900004-07217-035883FM-12+0560SBKG V0201401N001510075019N0010001N1+02021+01951102031ADDAY161061AY251061GF108991081071008001999999KA1240M+02271MA1999999095751MD1999999+0181MW1201REMSYN100AAXX  19004 82795 21594 81403 10202 20195 39575 40203 72065 887// 333 10227 29095 55000 58018 60031;
0167827950999992004061918004-07217-035883FM-12+0560SBKG V0201401N002610075019N0100001N1+02391+02051101801ADDAA106000091GF106991051061008001071001MA1999999095581MD1999999+0061REMSYN070AAXX  19184 82795 32597 61405 10239 20205 39558 40180 85670 333 58006;EQDQ01  00002PRCP06
0190827950999992004062012004-07217-035883FM-12+0560SBKG V0201801N003119999999N0100001N1+02191+01971101991ADDAY161061AY221061GF106991061001008001081001KA1240N+01861MA1999999095751MD1999999-0041MW1021REMSYN088AAXX  20124 82795 21597 61806 10219 20197 39575 40199 70262 86080 333 20186 59004 60044;
0171827950999992004062018004-07217-035883FM-12+0560SBKG V0201801N003110075019N0100001N1+02421+01991101661ADDAY161061AY221061GF107991051021008001021001MA1999999095441MD1999999-0141MW1031REMSYN082AAXX  20184 82795 21597 71806 10242 20199 39544 40166 70362 85220 333 59014 69991;
0202827950999992004062100004-07217-035883FM-12+0560SBKG V0201001N003610075019N0010001N1+02101+02031101881ADDAY161061AY221061GF107991071061008001001001KA1240M+02571MA1999999095641MD1999999-0181MW1021REMSYN100AAXX  21004 82795 21594 71007 10210 20203 39564 40188 70262 87600 333 10257 29089 55052 59018 69941;
0190827950999992004062112004-07217-035883FM-12+0560SBKG V0201401N003610075019N0100001N1+02221+02071101871ADDAY161061AY221061GF108991061071008001011999KA1240N+01961MA1999999095641MD1999999-0111MW1021REMSYN088AAXX  21124 82795 21597 81407 10222 20207 39564 40187 70262 8671/ 333 20196 59011 60044;
0171827950999992004062118004-07217-035883FM-12+0560SBKG V0201401N002610075019N0100001N1+02321+02071101671ADDAY161061AY251061GF108991061071008001011999MA1999999095441MD1999999+0001MW1021REMSYN082AAXX  21184 82795 21597 81405 10232 20207 39544 40167 70265 8671/ 333 58000 60021;
0202827950999992004062200004-07217-035883FM-12+0560SBKG V0201801N002110042019N0002001N1+02021+01971101851ADDAY161061AY251061GF108991081071004501999999KA1240M+02331MA1999999095611MD1999999-0031MW1501REMSYN100AAXX  22004 82795 21492 81804 10202 20197 39561 40185 75065 887// 333 10233 29093 55006 59003 60051;
0190827950999992004062212004-07217-035883FM-12+0560SBKG V0201401N002610075019N0040001N1+02031+01991102011ADDAY161061AY251061GF108991051071008001021999KA1240N+01811MA1999999095731MD1999999+0091MW1501REMSYN088AAXX  22124 82795 21596 81405 10203 20199 39573 40201 75065 8572/ 333 20181 58009 60144;
0171827950999992004062218004-07217-035883FM-12+0560SBKG V0201401N003110090019N0040001N1+02181+01971101741ADDAY161061AY251061GF108991081081004501999999MA1999999095501MD1999999+0061MW1161REMSYN082AAXX  22184 82795 21496 81406 10218 20197 39550 40174 71665 888// 333 58006 60021;
0202827950999992004062300004-07217-035883FM-12+0560SBKG V0201401N001510075019N0010001N1+01951+01861102011ADDAY161061AY251061GF107991071061008001001001KA1240M+02421MA1999999095731MD1999999+0121MW1021REMSYN100AAXX  23004 82795 21594 71403 10195 20186 39573 40201 70265 87600 333 10242 29094 55009 58012 60051;
0162827950999992004062312004-07217-035883FM-12+0560SBKG V0201401N002610075019N0100001N1+02151+01951101991ADDGF106991061061008001001001KA1240N+01811MA1999999095731MD1999999+0001REMSYN082AAXX  23124 82795 22597 61405 10215 20195 39573 40199 86600 333 20181 58000 60074;
0162827950999992004062412004-07217-035883FM-12+0560SBKG V0201401N003110075019N0100001N1+02111+01881101941ADDGF106991061061008001001001KA1240N+01781MA1999999095691MD1999999+0071REMSYN082AAXX  24124 82795 22597 61406 10211 20188 39569 40194 86600 333 20178 58007 60014;
0167827950999992004062418004-07217-035883FM-12+0560SBKG V0201401N003110075019N0100001N1+02431+01951101581ADDAA106000091GF105991051021008001001001MA1999999095361MD1999999+0141REMSYN070AAXX  24184 82795 32597 51406 10243 20195 39536 40158 85200 333 58014;EQDQ01  00002PRCP06
0198827950999992004062500004-07217-035883FM-12+0560SBKG V0201401N002110450019N0010001N1+02111+01931101851ADDAA106000091GF106991031021008001061001KA1240M+02461MA1999999095611MD1999999-0101REMSYN088AAXX  25004 82795 32594 61404 10211 20193 39561 40185 83260 333 10246 29085 55050 59010;EQDQ01  00002PRCP06
0190827950999992004062518004-07217-035883FM-12+0560SBKG V0201401N002619999999N0100001N1+02421+02051101451ADDAY161061AY221061GF106991999021008001001001MA1999999095261MD1999999-0101MW1021REMSYN082AAXX  25184 82795 21597 61405 10242 20205 39526 40145 70262 83200 333 59010 60011;EQDQ01+000032SCOTLC
0202827950999992004062600004-07217-035883FM-12+0560SBKG V0201801N001510042019N0005001N1+02091+02031101751ADDAY181061AY221061GF108991081071004501999999KA1240M+02511MA1999999095521MD1999999-0091MW1601REMSYN100AAXX  26004 82795 21493 81803 10209 20203 39552 40175 76082 887// 333 10251 29090 55038 59009 60021;
0190827950999992004062612004-07217-035883FM-12+0560SBKG V0201801N003610075019N0100001N1+02021+01951101971ADDAY161061AY251061GF108991051071008001021999KA1240N+01811MA1999999095641MD1999999+0081MW1021REMSYN088AAXX  26124 82795 21597 81807 10202 20195 39564 40197 70265 8572/ 333 20181 58008 60154;
0171827950999992004062618004-07217-035883FM-12+0560SBKG V0201801N003119999999N0005001N1+02131+02091101641ADDAY151061AY221061GF108991071999004501999999MA1999999095391MD1999999+0131MW1511REMSYN082AAXX  26184 82795 21493 81806 10213 20209 39539 40164 75152 87/// 333 58013 60011;
0221827950999992004062700004-07217-035883FM-12+0560SBKG V0201401N003119999999N0005001N1+01981+01911101761ADDAY151061AY251061GF108991999021004501001001KA1240M+02361MA1999999095501MD1999999-0021MW1501REMSYN100AAXX  27004 82795 21493 81406 10198 20191 39550 40176 75055 83200 333 10236 29096 55001 59002 60021;EQDQ01+000032SCOTLC
0171827950999992004062718004-07217-035883FM-12+0560SBKG V0201801N003110075019N0040001N1+02141+01931101511ADDAY161061AY221061GF108991081071008001999999MA1999999095361MD1999999-0031MW1601REMSYN082AAXX  27184 82795 21596 81806 10214 20193 39536 40151 76062 887// 333 59003 69981;
0179827950999992004062800004-07217-035883FM-12+0560SBKG V0201801N001510075019N0010001N1+02071+01721101801ADDAA106000021GF107991071051008001001001KA1240M+02411MA1999999095551MD1999999+0051REMSYN088AAXX  28004 82795 32594 71803 10207 20172 39555 40180 87500 333 10241 29085 55000 58005;
0162827950999992004062812004-07217-035883FM-12+0560SBKG V0201801N002610075019N0100001N1+02111+01911101771ADDGF106991061061008001001001KA1240N+01741MA1999999095531MD1999999-0011REMSYN082AAXX  28124 82795 22597 61805 10211 20191 39553 40177 86600 333 20174 59001 69984;
0167827950999992004062818004-07217-035883FM-12+0560SBKG V0201401N003610075019N0100001N1+02631+01881101441ADDAA106000091GF105991051021008001001001MA1999999095241MD1999999-0121REMSYN070AAXX  28184 82795 32597 51407 10263 20188 39524 40144 85200 333 59012;EQDQ01  00002PRCP06
0198827950999992004062900004-07217-035883FM-12+0560SBKG V0201401N002112200019N0010001N1+02121+01891101711ADDAA106000091GF103991031041008001001001KA1240M+02641MA1999999095481MD1999999-0071REMSYN088AAXX  29004 82795 32594 31404 10212 20189 39548 40171 83400 333 10264 29082 55060 59007;EQDQ01  00002PRCP06
0186827950999992004062912004-07217-035883FM-12+0560SBKG V0202301N002610075019N0100001N1+02131+01951101871ADDAA106000091GF108991081071008001999999KA1240N+01901MA1999999095631MD1999999+0101REMSYN076AAXX  29124 82795 32597 82305 10213 20195 39563 40187 887// 333 20190 58010;EQDQ01  00002PRCP06
0171827950999992004062918004-07217-035883FM-12+0560SBKG V0201401N001010450019N0100001N1+02441+01951101541ADDAY151061AY221061GF106991031021008001081001MA1999999095341MD1999999+0101MW1011REMSYN082AAXX  29184 82795 21597 61402 10244 20195 39534 40154 70152 83280 333 58010 69911;
0202827950999992004063000004-07217-035883FM-12+0560SBKG V0201401N003110075019N0010001N1+02071+02041100721ADDAY161061AY221061GF108991081071008001999999KA1240M+02461MA1999999095501MD1999999+0021MW1021REMSYN100AAXX  30004 82795 21594 81406 10207 20204 39550 40072 70262 887// 333 10246 29087 55002 58002 69921;
0203827950999992004063012004-07217-035883FM-12+0560SBKG V0201401N049320075019N0100001N1+02321+02051101761ADDAY161061AY221061GF108991081071008001999999KA1240N+01911MA1999999095561MD1999999-0071MW1021REMSYN082AAXX  30124 82795 21597 81496 10232 20205 39556 40176 70262 887// 333 20191 59007;EQDQ01+004933WOSPD 
0171827950999992004063018004-07217-035883FM-12+0560SBKG V0201401N002610075019N0100001N1+02151+01901101541ADDAY161061AY221061GF108991081071008001999999MA1999999095331MD1999999-0031MW1211REMSYN082AAXX  30184 82795 21597 81405 10215 20190 39533 40154 72162 887// 333 59003 60051;
0179827950999992004070100004-07217-035883FM-12+0560SBKG V0201401N002110450019N0010001N1+02061+01891101741ADDAA106000021GF105991031021008001041001KA1240M+02371MA1999999095531MD1999999+0031REMSYN088AAXX  01004 82795 32594 51404 10206 20189 39553 40174 83240 333 10237 29088 55016 58003;
0171827950999992004070218004-07217-035883FM-12+0560SBKG V0200901N001510042019N0020001N1+02281+02081101501ADDAY151061AY221061GF108991081071004501999999MA1999999095271MD1999999-0021MW1501REMSYN082AAXX  02184 82795 21495 80903 10228 20208 39527 40150 75052 887// 333 59002 69941;
0202827950999992004070300004-07217-035883FM-12+0560SBKG V0201401N003110042019N0005001N1+02061+02031101711ADDAY151061AY251061GF108991081071004501999999KA1240M+02571MA1999999095471MD1999999+0001MW1501REMSYN100AAXX  03004 82795 21493 81406 10206 20203 39547 40171 75055 887// 333 10257 29096 55014 58000 60021;
0190827950999992004070312004-07217-035883FM-12+0560SBKG V0201401N003110075019N0040001N1+02041+01941101701ADDAY161061AY221061GF108991081071008001999999KA1240N+01881MA1999999095461MD1999999-0071MW1031REMSYN088AAXX  03124 82795 21596 81406 10204 20194 39546 40170 70362 887// 333 20188 59007 60124;
0171827950999992004070318004-07217-035883FM-12+0560SBKG V0201401N004610075019N0040001N1+02051+01901101511ADDAY161061AY221061GF108991081071008001999999MA1999999095251MD1999999-0021MW1501REMSYN082AAXX  03184 82795 21596 81409 10205 20190 39525 40151 75062 887// 333 59002 60041;
0190827950999992004070412004-07217-035883FM-12+0560SBKG V0201401N000510450019N0100001N1+02121+01931101831ADDAY161061AY221061GF106991041041008001051001KA1240N+01851MA1999999095581MD1999999+0121MW1021REMSYN088AAXX  04124 82795 21597 61401 10212 20193 39558 40183 70262 84450 333 20185 58012 60114;
0183827950999992004070418004-07217-035883FM-12+0560SBKG V0201401N003619999999N0100001N1+02511+01981101401ADDAA106000091GF106991999051008001001001MA1999999095241MD1999999-0011REMSYN070AAXX  04184 82795 32597 61407 10251 20198 39524 40140 83500 333 59001;EQDQ01+000032SCOTLCQ02  00002PRCP06
0198827950999992004070500004-07217-035883FM-12+0560SBKG V0201401N001510075019N0010001N1+02191+02081101641ADDAA106000091GF105991051061008001001001KA1240M+02551MA1999999095431MD1999999-0081REMSYN088AAXX  05004 82795 32594 51403 10219 20208 39543 40164 85600 333 10255 29087 55037 59008;EQDQ01  00002PRCP06
0190827950999992004070612004-07217-035883FM-12+0560SBKG V0201401N002110075019N0100001N1+02291+02031101681ADDAY161061AY221061GF106991061021008001001001KA1240N+01921MA1999999095481MD1999999-0061MW1021REMSYN088AAXX  06124 82795 21597 61404 10229 20203 39548 40168 70262 86200 333 20192 59006 60094;
0149827950999992004070618004-07217-035883FM-12+0560SBKG V0201401N003110075019N0100001N1+02631+01831101371ADDAA106000091GF105991051021008001001001MA1999999095231REMSYN066AAXX  06184 82795 32597 51406 10263 20183 39523 40137 59013 85200;EQDQ01  00002PRCP06
0198827950999992004070700004-07217-035883FM-12+0560SBKG V0200901N003110075019N0010001N1+02181+02081101641ADDAA106000091GF106991061021008001001001KA1240M+02681MA1999999095451MD1999999-0021REMSYN088AAXX  07004 82795 32594 60906 10218 20208 39545 40164 86200 333 10268 29084 55080 59002;EQDQ01  00002PRCP06
0183827950999992004070718004-07217-035883FM-12+0560SBKG V0201401N002619999999N0100001N1+02651+01931101261ADDAA106000091GF105991999051008001001001MA1999999095111MD1999999-0121REMSYN070AAXX  07184 82795 32597 51405 10265 20193 39511 40126 88500 333 59012;EQDQ01+000082SCOTLCQ02  00002PRCP06
0198827950999992004070800004-07217-035883FM-12+0560SBKG V0200901N002610075019N0010001N1+02181+02061101541ADDAA106000091GF106991061021008001001001KA1240M+02701MA1999999095341MD1999999-0111REMSYN088AAXX  08004 82795 32594 60905 10218 20206 39534 40154 86200 333 10270 29083 55079 59011;EQDQ01  00002PRCP06
0190827950999992004070812004-07217-035883FM-12+0560SBKG V0201401N002610075019N0100001N1+02231+02031101621ADDAY161061AY221061GF107991071071008001001001KA1240N+02031MA1999999095421MD1999999+0041MW1021REMSYN088AAXX  08124 82795 21597 71405 10223 20203 39542 40162 70262 87700 333 20203 58004 60024;
0202827950999992004070900004-07217-035883FM-12+0560SBKG V0200901N002110075019N0010001N1+02081+02021101571ADDAY161061AY221061GF108991081061008001999999KA1240M+02621MA1999999095361MD1999999+0021MW1021REMSYN100AAXX  09004 82795 21594 80904 10208 20202 39536 40157 70262 886// 333 10262 29094 55038 58002 69931;
0162827950999992004070912004-07217-035883FM-12+0560SBKG V0201401N002610075019N0100001N1+02211+01971101691ADDGF107991071071008001001001KA1240N+01981MA1999999095471MD1999999+0051REMSYN082AAXX  09124 82795 22597 71405 10221 20197 39547 40169 87700 333 20198 58005 60024;
0167827950999992004070918004-07217-035883FM-12+0560SBKG V0201401N003112200019N0100001N1+02661+01771101331ADDAA106000091GF104991021011008001001011MA1999999095171MD1999999-0061REMSYN070AAXX  09184 82795 32597 41406 10266 20177 39517 40133 82101 333 59006;EQDQ01  00002PRCP06
0186827950999992004071012004-07217-035883FM-12+0560SBKG V0201401N002610075019N0100001N1+02201+01901101721ADDAA106000091GF106991061021008001001001KA1240N+01931MA1999999095501MD1999999+0031REMSYN076AAXX  10124 82795 32597 61405 10220 20190 39550 40172 86200 333 20193 58003;EQDQ01  00002PRCP06
0167827950999992004071018004-07217-035883FM-12+0560SBKG V0201401N002112200019N0100001N1+02681+01841101341ADDAA106000091GF102991021021008001001001MA1999999095181MD1999999+0011REMSYN070AAXX  10184 82795 32597 21404 10268 20184 39518 40134 82200 333 58001;EQDQ01  00002PRCP06
0198827950999992004071100004-07217-035883FM-12+0560SBKG V0200901N002110075019N0010001N1+02191+02051101631ADDAA106000091GF106991061021008001001001KA1240M+02691MA1999999095431MD1999999+0081REMSYN088AAXX  11004 82795 32594 60904 10219 20205 39543 40163 86200 333 10269 29081 55085 58008;EQDQ01  00002PRCP06
0167827950999992004071118004-07217-035883FM-12+0560SBKG V0201401N002112200019N0100001N1+02651+01541101371ADDAA106000091GF101991011011008001001001MA1999999095211MD1999999+0031REMSYN070AAXX  11184 82795 32597 11404 10265 20154 39521 40137 81100 333 58003;EQDQ01  00002PRCP06
0208827950999992004071200004-07217-035883FM-12+0560SBKG V0200901N002112200019N0010001N1+02071+01621101831ADDAA106000091GA1001+999999999GF100991001001999999001001KA1240M+02681MA1999999095361MD1999999-0071REMSYN082AAXX  12004 82795 32994 00904 10207 20162 39536 40183 333 10268 29070 55088 59007;EQDQ01  00002PRCP06
0167827950999992004071218004-07217-035883FM-12+0560SBKG V0201401N002112200019N0100001N1+02581+02011101351ADDAA106000091GF103991031021008001001001MA1999999095151MD1999999-0081REMSYN070AAXX  12184 82795 32597 31404 10258 20201 39515 40135 83200 333 59008;EQDQ01  00002PRCP06
0198827950999992004071300004-07217-035883FM-12+0560SBKG V0201401N002612200019N0010001N1+02141+01901101551ADDAA106000091GF104991021021008001061001KA1240M+02631MA1999999095341MD1999999-0021REMSYN088AAXX  13004 82795 32594 41405 10214 20190 39534 40155 82260 333 10263 29081 55092 59002;EQDQ01  00002PRCP06
0209827950999992004071312004-07217-035883FM-12+0560SBKG V0201801N001510042019N0020001N1+02001+01931101681ADDAY161061AY251061GF108991999071004501021999KA1240N+01951MA1999999095441MD1999999+0031MW1551REMSYN088AAXX  13124 82795 21495 81803 10200 20193 39544 40168 75565 8872/ 333 20195 58003 60034;EQDQ01+000082SCOTLC
0171827950999992004071318004-07217-035883FM-12+0560SBKG V0201401N003110120019N0040001N1+02121+01971101611ADDAY161061AY221061GF108991071081008001999999MA1999999095361MD1999999+0231MW1031REMSYN082AAXX  13184 82795 21596 81406 10212 20197 39536 40161 70362 878// 333 58023 60011;
0162827950999992004071412004-07217-035883FM-12+0560SBKG V0201401N003111050019N0100001N1+02171+01941101811ADDGF106991021021008001041061KA1240N+01751MA1999999095561MD1999999+0121REMSYN082AAXX  14124 82795 22597 61406 10217 20194 39556 40181 82246 333 20175 58012 60094;
0167827950999992004071418004-07217-035883FM-12+0560SBKG V0201401N003110450019N0100001N1+02271+01901101131ADDAA106000091GF108991031031008001081051MA1999999095301MD1999999-0061REMSYN070AAXX  14184 82795 32597 81406 10227 20190 39530 40113 83385 333 59006;EQDQ01  00002PRCP06
0198827950999992004071500004-07217-035883FM-12+0560SBKG V0201401N002610450019N0010001N1+02041+01911101741ADDAA106000091GF105991031021008001041001KA1240M+02421MA1999999095511MD1999999+0071REMSYN088AAXX  15004 82795 32594 51405 10204 20191 39551 40174 83240 333 10242 29088 55016 58007;EQDQ01  00002PRCP06
0190827950999992004071512004-07217-035883FM-12+0560SBKG V0201401N002110075019N0040001N1+02161+02021101801ADDAY151061AY221061GF108991081071008001999999KA1240N+01881MA1999999095561MD1999999+0001MW1021REMSYN088AAXX  15124 82795 21596 81404 10216 20202 39556 40180 70252 887// 333 20188 58000 69914;
0171827950999992004071518004-07217-035883FM-12+0560SBKG V0201401N003110075019N0040001N1+02111+02021101591ADDAY161061AY221061GF108991081071008001999999MA1999999095341MD1999999+0041MW1501REMSYN082AAXX  15184 82795 21596 81406 10211 20202 39534 40159 75062 887// 333 58004 60051;
0202827950999992004071600004-07217-035883FM-12+0560SBKG V0201401N002610042019N0002001N1+02041+01971101781ADDAY161061AY261061GF108991081071004501999999KA1240M+02271MA1999999095541MD1999999+0031MW1611REMSYN100AAXX  16004 82795 21492 81405 10204 20197 39554 40178 76166 887// 333 10227 29095 55002 58003 60261;
0171827950999992004071618004-07217-035883FM-12+0560SBKG V0201401N001010042019N0010001N1+02121+01981101601ADDAY161061AY261061GF108991081071004501999999MA1999999095361MD1999999+0021MW1611REMSYN082AAXX  16184 82795 21494 81402 10212 20198 39536 40160 76166 887// 333 58002 60081;
0202827950999992004071700004-07217-035883FM-12+0560SBKG V0201401N003110042019N0002001N1+01961+01911101791ADDAY161061AY261061GF108991081051004501999999KA1240M+02341MA1999999095541MD1999999+0001MW1611REMSYN100AAXX  17004 82795 21492 81406 10196 20191 39554 40179 76166 885// 333 10234 29096 55001 58000 60081;
0190827950999992004071712004-07217-035883FM-12+0560SBKG V0201401N003110450019N0100001N1+02141+01971101821ADDAY161061AY221061GF106991031021008001041001KA1240N+01781MA1999999095581MD1999999-0021MW1021REMSYN088AAXX  17124 82795 21597 61406 10214 20197 39558 40182 70262 83240 333 20178 59002 60184;
0171827950999992004071718004-07217-035883FM-12+0560SBKG V0201401N003110450019N0100001N1+02431+01991101551ADDAY161061AY221061GF106991041021008001041001MA1999999095331MD1999999-0031MW1021REMSYN082AAXX  17184 82795 21597 61406 10243 20199 39533 40155 70262 84240 333 59003 69961;
0198827950999992004071800004-07217-035883FM-12+0560SBKG V0200901N001510450019N0010001N1+02071+01981101791ADDAA106000091GF105991031021008001041001KA1240M+02461MA1999999095551MD1999999+0011REMSYN088AAXX  18004 82795 32594 50903 10207 20198 39555 40179 83240 333 10246 29089 55018 58001;EQDQ01  00002PRCP06
0190827950999992004071812004-07217-035883FM-12+0560SBKG V0201401N002610075019N0100001N1+02061+02011102031ADDAY161061AY221061GF108991081071008001999999KA1240N+01811MA1999999095771MD1999999+0191MW1021REMSYN088AAXX  18124 82795 21597 81405 10206 20201 39577 40203 70262 887// 333 20181 58019 60174;
0171827950999992004071818004-07217-035883FM-12+0560SBKG V0201401N001510075019N0100001N1+02451+02011101621ADDAY161061AY221061GF106991061021008001001001MA1999999095411MD1999999+0081MW1021REMSYN082AAXX  18184 82795 21597 61403 10245 20201 39541 40162 70262 86200 333 58008 69911;
0162827950999992004071912004-07217-035883FM-12+0560SBKG V0201401N002610075019N0100001N1+02091+01821101941ADDGF106991061021008001001001KA1240N+01691MA1999999095681MD1999999-0091REMSYN082AAXX  19124 82795 22597 61405 10209 20182 39568 40194 86200 333 20169 59009 69964;
0167827950999992004071918004-07217-035883FM-12+0560SBKG V0201401N003110075019N0100001N1+02491+01851101571ADDAA106000091GF105991051031008001001001MA1999999095361MD1999999-0051REMSYN070AAXX  19184 82795 32597 51406 10249 20185 39536 40157 85300 333 59005;EQDQ01  00002PRCP06
0208827950999992004072000004-07217-035883FM-12+0560SBKG V0201401N001512200019N0010001N1+01991+01851101821ADDAA106000091GA1001+999999999GF100991001001999999001001KA1240M+02551MA1999999095571MD1999999-0011REMSYN082AAXX  20004 82795 32994 01403 10199 20185 39557 40182 333 10255 29084 55087 59001;EQDQ01  00002PRCP06
0186827950999992004072012004-07217-035883FM-12+0560SBKG V0202301N001510075019N0100001N1+02121+01781101881ADDAA106000091GF106991061021008001001001KA1240N+01591MA1999999095621MD1999999-0061REMSYN076AAXX  20124 82795 32597 62303 10212 20178 39562 40188 86200 333 20159 59006;EQDQ01  00002PRCP06
0198827950999992004072100004-07217-035883FM-12+0560SBKG V0200901N002610075019N0010001N1+02121+01951101671ADDAA106000091GF105991051021008001001001KA1240M+02641MA1999999095441MD1999999-0131REMSYN088AAXX  21004 82795 32594 50905 10212 20195 39544 40167 85200 333 10264 29081 55100 59013;EQDQ01  00002PRCP06
0186827950999992004072112004-07217-035883FM-12+0560SBKG V0201801N001512200019N0100001N1+02201+01841101651ADDAA106000091GF106991021011008001001011KA1240N+01781MA1999999095431MD1999999-0191REMSYN076AAXX  21124 82795 32597 61803 10220 20184 39543 40165 82101 333 20178 59019;EQDQ01  00002PRCP06
0167827950999992004072118004-07217-035883FM-12+0560SBKG V0201401N002612200019N0100001N1+02521+01861101321ADDAA106000091GF104991041041008001001001MA1999999095141MD1999999-0141REMSYN070AAXX  21184 82795 32597 41405 10252 20186 39514 40132 84400 333 59014;EQDQ01  00002PRCP06
0198827950999992004072200004-07217-035883FM-12+0560SBKG V0200901N002610075019N0010001N1+02181+01991101541ADDAA106000091GF105991051021008001001001KA1240M+02581MA1999999095341MD1999999-0101REMSYN088AAXX  22004 82795 32594 50905 10218 20199 39534 40154 85200 333 10258 29081 55087 59010;EQDQ01  00002PRCP06
0186827950999992004072212004-07217-035883FM-12+0560SBKG V0202301N002610075019N0100001N1+02171+01841101641ADDAA106000091GF105991051011008001001001KA1240N+01681MA1999999095421MD1999999-0011REMSYN076AAXX  22124 82795 32597 52305 10217 20184 39542 40164 85100 333 20168 59001;EQDQ01  00002PRCP06
0167827950999992004072218004-07217-035883FM-12+0560SBKG V0201801N003112200019N0100001N1+02631+01781101351ADDAA106000091GF103991031031008001001001MA1999999095171MD1999999+0061REMSYN070AAXX  22184 82795 32597 31806 10263 20178 39517 40135 83300 333 58006;EQDQ01  00002PRCP06
0198827950999992004072300004-07217-035883FM-12+0560SBKG V0201801N002612200019N0010001N1+02061+01821101621ADDAA106000091GF102991021011008001001001KA1240M+02671MA1999999095401MD1999999+0061REMSYN088AAXX  23004 82795 32594 21805 10206 20182 39540 40162 82100 333 10267 29078 55099 58006;EQDQ01  00002PRCP06
0167827950999992004072318004-07217-035883FM-12+0560SBKG V0201401N003112200019N0100001N1+02521+01401101561ADDAA106000091GF102991021021008001001001MA1999999095351MD1999999+0181REMSYN070AAXX  23184 82795 32597 21406 10252 20140 39535 40156 82200 333 58018;EQDQ01  00002PRCP06
0198827950999992004072400004-07217-035883FM-12+0560SBKG V0201801N001512200019N0010001N1+02131+01741101791ADDAA106000091GF104991021021004501041001KA1240M+02631MA1999999095551MD1999999+0151REMSYN088AAXX  24004 82795 32494 41803 10213 20174 39555 40179 82240 333 10263 29072 55100 58015;EQDQ01  00002PRCP06
0186827950999992004072412004-07217-035883FM-12+0560SBKG V0201801N003610450019N0100001N1+02221+01761101931ADDAA106000091GF106991041071008001021001KA1240N+01661MA1999999095701MD1999999+0101REMSYN076AAXX  24124 82795 32597 61807 10222 20176 39570 40193 84720 333 20166 58010;EQDQ01  00002PRCP06
0195827950999992004072418004-07217-035883FM-12+0560SBKG V0201801N003610075019N0100001N1+02491+02011101741ADDAA106000091AY121061AY221061GF107991071071008001001001MA1999999095521MD1999999+0171MW1151REMSYN076AAXX  24184 82795 31597 71807 10249 20201 39552 40174 71522 87700 333 58017;EQDQ01  00002PRCP06
0214827950999992004072500004-07217-035883FM-12+0560SBKG V0201401N003610042019N0010001N1+02011+01951101041ADDAA106000091GF107991999021004501001001KA1240M+02501MA1999999095791MD1999999+0241REMSYN088AAXX  25004 82795 32494 71407 10201 20195 39579 40104 85200 333 10250 29083 55053 58024;EQDQ01+000052SCOTLCQ02  00002PRCP06
0190827950999992004072512004-07217-035883FM-12+0560SBKG V0201801N003110075019N0040001N1+01931+01891102051ADDAY151061AY221061GF108991081071008001999999KA1240N+01931MA1999999095761MD1999999+0061MW1501REMSYN088AAXX  25124 82795 21596 81806 10193 20189 39576 40205 75052 887// 333 20193 58006 69934;
0171827950999992004072518004-07217-035883FM-12+0560SBKG V0201801N003610075019N0100001N1+02091+01841101831ADDAY151061AY221061GF108991081071008001999999MA1999999095551MD1999999+0031MW1031REMSYN082AAXX  25184 82795 21597 81807 10209 20184 39555 40183 70352 887// 333 58003 69911;
0198827950999992004072600004-07217-035883FM-12+0560SBKG V0201801N002110075019N0010001N1+01911+01701101841ADDAA106000091GF106991061061008001001001KA1240M+02211MA1999999095681MD1999999-0111REMSYN088AAXX  26004 82795 32594 61804 10191 20170 39568 40184 86600 333 10221 29090 55000 59011;EQDQ01  00002PRCP06
0198827950999992004072700004-07217-035883FM-12+0560SBKG V0201801N001510075019N0010001N1+02011+01831102031ADDAA106000091GF108991081061008001999999KA1240M+02281MA1999999095741MD1999999+0061REMSYN088AAXX  27004 82795 32594 81803 10201 20183 39574 40203 886// 333 10228 29088 55000 58006;EQDQ01  00002PRCP06
0190827950999992004072712004-07217-035883FM-12+0560SBKG V0201801N003110075019N0100001N1+01951+01741102021ADDAY161061AY221061GF108991081071008001999999KA1240N+01771MA1999999095731MD1999999-0031MW1021REMSYN088AAXX  27124 82795 21597 81806 10195 20174 39573 40202 70262 887// 333 20177 59003 69974;
0171827950999992004072718004-07217-035883FM-12+0560SBKG V0201401N003110075019N0100001N1+01991+01781101831ADDAY151061AY221061GF108991081071008001999999MA1999999095541MD1999999-0041MW1031REMSYN082AAXX  27184 82795 21597 81406 10199 20178 39554 40183 70352 887// 333 59004 69921;
0162827950999992004072812004-07217-035883FM-12+0560SBKG V0201801N004610075019N0100001N1+02131+01661101891ADDGF106991061071008001001001KA1240N+01661MA1999999095621MD1999999-0111REMSYN082AAXX  28124 82795 22597 61809 10213 20166 39562 40189 86700 333 20166 59011 69934;
0167827950999992004072818004-07217-035883FM-12+0560SBKG V0201401N002119999999N0100001N1+02191+01701101571ADDAA106000091GF108991081001008001071999MA1999999095311MD1999999+0211REMSYN070AAXX  28184 82795 32597 81404 10219 20170 39531 40157 8807/ 333 58021;EQDQ01  00002PRCP06
0215827950999992004072900004-07217-035883FM-12+0560SBKG V0201801N002610042019N0005001N1+01861+01831101921ADDAY101061AY251061GF108991081071004501999999KA1240M+02471MA1999999095651MD1999999-0041REMSYN100AAXX  29004 82795 21493 81805 10186 20183 39565 40192 77505 887// 333 10247 29086 55014 59004 69951;EQDQ01+000752PRSWM1
0190827950999992004072912004-07217-035883FM-12+0560SBKG V0201401N001510075019N0100001N1+02021+01921101891ADDAY161061AY221061GF108991081071008001999999KA1240N+01711MA1999999095611MD1999999-0011MW1021REMSYN088AAXX  29124 82795 21597 81403 10202 20192 39561 40189 70262 887// 333 20171 59001 60034;
0171827950999992004072918004-07217-035883FM-12+0560SBKG V0201401N006710075019N0100001N1+01891+01851101721ADDAY161061AY221061GF108991081071008001999999MA1999999095441MD1999999+0041MW1021REMSYN082AAXX  29184 82795 21597 81413 10189 20185 39544 40172 70262 887// 333 58004 60031;
0202827950999992004073000004-07217-035883FM-12+0560SBKG V0200901N001510075019N0010001N1+01981+01901101871ADDAY161061AY221061GF108991081061008001999999KA1240M+02431MA1999999095611MD1999999-0041MW1021REMSYN100AAXX  30004 82795 21594 80903 10198 20190 39561 40187 70262 886// 333 10243 29094 55001 59004 69961;
0162827950999992004073012004-07217-035883FM-12+0560SBKG V0201401N003110075019N0100001N1+02111+01821102001ADDGF106991061051008001001001KA1240N+01731MA1999999095741MD1999999+0131REMSYN082AAXX  30124 82795 22597 61406 10211 20182 39574 40200 86500 333 20173 58013 60044;
0167827950999992004073018004-07217-035883FM-12+0560SBKG V0201401N003612200019N0100001N1+02581+01901101621ADDAA106000091GF104991041031008001001001MA1999999095451MD1999999+0011REMSYN070AAXX  30184 82795 32597 41407 10258 20190 39545 40162 84300 333 58001;EQDQ01  00002PRCP06
0198827950999992004073100004-07217-035883FM-12+0560SBKG V0200901N001512200019N0010001N1+02081+01891101881ADDAA106000091GF103991011021008001041001KA1240M+02581MA1999999095641MD1999999+0031REMSYN088AAXX  31004 82795 32594 30903 10208 20189 39564 40188 81240 333 10258 29082 55084 58003;EQDQ01  00002PRCP06
0190827950999992004073112004-07217-035883FM-12+0560SBKG V0201801N000510075019N0100001N1+02261+01901101951ADDAY161061AY221061GF105991051021008001001001KA1240N+01711MA1999999095711MD1999999+0031MW1021REMSYN088AAXX  31124 82795 21597 51801 10226 20190 39571 40195 70262 85200 333 20171 58003 69914;
0167827950999992004073118004-07217-035883FM-12+0560SBKG V0201401N002610450019N0100001N1+02651+01851101631ADDAA106000091GF106991021021008001051001MA1999999095431MD1999999+0011REMSYN070AAXX  31184 82795 32597 61405 10265 20185 39543 40163 82250 333 58001;EQDQ01  00002PRCP06
0214827950999992004080100004-07217-035883FM-12+0560SBKG V0200901N003619999999N0010001N1+02071+01941101871ADDAA106000091GF107991999011008001001001KA1240M+02701MA1999999095641MD1999999+0001REMSYN088AAXX  01004 82795 32594 70907 10207 20194 39564 40187 83100 333 10270 29082 55085 58000;EQDQ01+000032SCOTLCQ02  00002PRCP06
0186827950999992004080112004-07217-035883FM-12+0560SBKG V0201401N004110075019N0100001N1+02141+01821101931ADDAA106000091GF107991071071008001999999KA1240N+01811MA1999999095691MD1999999-0021REMSYN076AAXX  01124 82795 32597 71408 10214 20182 39569 40193 877// 333 20181 59002;EQDQ01  00002PRCP06
0167827950999992004080118004-07217-035883FM-12+0560SBKG V0200901N003610450019N0100001N1+02611+01761101571ADDAA106000091GF105991031021008001061001MA1999999095371MD1999999-0061REMSYN070AAXX  01184 82795 32597 50907 10261 20176 39537 40157 83260 333 59006;EQDQ01  00002PRCP06
0198827950999992004080200004-07217-035883FM-12+0560SBKG V0201401N002610450019N0010001N1+02091+01871101861ADDAA106000091GF106991031021008001061001KA1240M+02651MA1999999095621MD1999999-0021REMSYN088AAXX  02004 82795 32594 61405 10209 20187 39562 40186 83260 333 10265 29080 55074 59002;EQDQ01  00002PRCP06
0198827950999992004080300004-07217-035883FM-12+0560SBKG V0201401N002612200019N0010001N1+02091+01861101891ADDAA106000091GF102991021021008001001001KA1240M+02681MA1999999095661MD1999999+0041REMSYN088AAXX  03004 82795 32594 21405 10209 20186 39566 40189 82200 333 10268 29078 55084 58004;EQDQ01  00002PRCP06
0162827950999992004080309004-07217-035883FM-15+0560SBKG V0201801N002110270019N0060001N1+01901+01801999999ADDGA1041+004509999GA2071+027009999GF107991999999999999999999MA1101901999999MW1001REMMET052SBKG 030900Z 18004KT 6000 SCT015 BKN090 19/18 Q1019;EQDQ01+000000PRSWM2
0186827950999992004080312004-07217-035883FM-12+0560SBKG V0201401N004110075019N0100001N1+02171+01651101941ADDAA106000091GF106991061021008001001001KA1240N+01801MA1999999095701MD1999999-0011REMSYN076AAXX  03124 82795 32597 61408 10217 20165 39570 40194 86200 333 20180 59001;EQDQ01  00002PRCP06
0167827950999992004080318004-07217-035883FM-12+0560SBKG V0201401N003612200019N0100001N1+02621+01781101691ADDAA106000091GF103991031031008001001001MA1999999095521MD1999999+0011REMSYN070AAXX  03184 82795 32597 31407 10262 20178 39552 40169 83300 333 58001;EQDQ01  00002PRCP06
0198827950999992004080400004-07217-035883FM-12+0560SBKG V0200901N002612200019N0010001N1+02051+01871101931ADDAA106000091GF101991011011008001001001KA1240M+02671MA1999999095691MD1999999+0031REMSYN088AAXX  04004 82795 32594 10905 10205 20187 39569 40193 81100 333 10267 29080 55082 58003;EQDQ01  00002PRCP06
0186827950999992004080412004-07217-035883FM-12+0560SBKG V0201401N003110075019N0100001N1+02121+01781101961ADDAA106000091GF106991061061008001001001KA1240N+01731MA1999999095701MD1999999+0001REMSYN076AAXX  04124 82795 32597 61406 10212 20178 39570 40196 86600 333 20173 58000;EQDQ01  00002PRCP06
0221827950999992004080500004-07217-035883FM-12+0560SBKG V0201401N002110075019N0010001N1+02021+01941101911ADDAY161061AY221061GF108991999031008001001001KA1240M+02621MA1999999095651MD1999999-0041MW1211REMSYN100AAXX  05004 82795 21594 81404 10202 20194 39565 40191 72162 86300 333 10262 29085 55059 59004 60011;EQDQ01+000062SCOTLC
0167827950999992004080518004-07217-035883FM-12+0560SBKG V0201401N005110450019N0100001N1+02451+01761101611ADDAA106000091GF107991031021008001061001MA1999999095391MD1999999-0111REMSYN070AAXX  05184 82795 32597 71410 10245 20176 39539 40161 83260 333 59011;EQDQ01  00002PRCP06
0198827950999992004080600004-07217-035883FM-12+0560SBKG V0200901N003110450019N0010001N1+02131+01951101871ADDAA106000091GF107991031021008001051001KA1240M+02601MA1999999095641MD1999999-0011REMSYN088AAXX  06004 82795 32594 70906 10213 20195 39564 40187 83250 333 10260 29081 55055 59001;EQDQ01  00002PRCP06
0171827950999992004080618004-07217-035883FM-12+0560SBKG V0201401N002610075019N0100001N1+02121+02041101691ADDAY151061AY221061GF107991071071008001001001MA1999999095451MD1999999+0061MW1021REMSYN082AAXX  06184 82795 21597 71405 10212 20204 39545 40169 70252 87700 333 58006 69951;
0202827950999992004080700004-07217-035883FM-12+0560SBKG V0201401N002610075019N0010001N1+02081+02011101941ADDAY161061AY221061GF108991061031008001051999KA1240M+02611MA1999999095701MD1999999+0061MW1211REMSYN100AAXX  07004 82795 21594 81405 10208 20201 39570 40194 72162 8635/ 333 10261 29093 55039 58006 60061;
0190827950999992004080712004-07217-035883FM-12+0560SBKG V0201401N002610075019N0100001N1+02121+01981102121ADDAY161061AY221061GF108991081071008001999999KA1240N+01881MA1999999095861MD1999999+0181MW1021REMSYN088AAXX  07124 82795 21597 81405 10212 20198 39586 40212 70262 887// 333 20188 58018 60104;
0167827950999992004080718004-07217-035883FM-12+0560SBKG V0201401N005112200019N0100001N1+02621+01911101751ADDAA106000091GF106991041021008001001061MA1999999095551MD1999999+0101REMSYN070AAXX  07184 82795 32597 61410 10262 20191 39555 40175 84206 333 58010;EQDQ01  00002PRCP06
0198827950999992004080800004-07217-035883FM-12+0560SBKG V0201401N003112200019N0010001N1+02061+01911102031ADDAA106000091GF103991031021008001001001KA1240M+02661MA1999999095781MD1999999+0081REMSYN088AAXX  08004 82795 32594 31406 10206 20191 39578 40203 83200 333 10266 29085 55056 58008;EQDQ01  00002PRCP06
0183827950999992004080818004-07217-035883FM-12+0560SBKG V0201401N002619999999N0100001N1+02551+02041101671ADDAA106000091GF106991999021008001001001MA1999999095451MD1999999-0101REMSYN070AAXX  08184 82795 32597 61405 10255 20204 39545 40167 83200 333 59010;EQDQ01+000032SCOTLCQ02  00002PRCP06
0198827950999992004080900004-07217-035883FM-12+0560SBKG V0201401N003610075019N0010001N1+02171+01971101881ADDAA106000091GF107991051021008001061001KA1240M+02671MA1999999095661MD1999999-0121REMSYN088AAXX  09004 82795 32594 71407 10217 20197 39566 40188 85260 333 10267 29083 55056 59012;EQDQ01  00002PRCP06
0186827950999992004080912004-07220-035880FM-12+0548SBKG V0201801N003110450019N0100001N1+02181+01781101951ADDAA106000091GF106991031021008001051001KA1240N+01841MA1999999095721MD1999999-0031REMSYN076AAXX  09124 82795 32597 61806 10218 20178 39572 40195 83250 333 20184 59003;EQDQ01  00002PRCP06
0167827950999992004080918004-07220-035880FM-12+0548SBKG V0201401N003110075019N0100001N1+02741+01861101431ADDAA106000091GF105991051021008001001001MA1999999095371MD1999999-0081REMSYN070AAXX  09184 82795 32597 51406 10274 20186 39537 40143 85200 333 59008;EQDQ01  00002PRCP06
0198827950999992004081000004-07220-035880FM-12+0548SBKG V0201401N002110075019N0010001N1+02111+01861101991ADDAA106000091GF106991061021008001001001KA1240M+02771MA1999999095751MD1999999+0091REMSYN088AAXX  10004 82795 32594 61404 10211 20186 39575 40199 86200 333 10277 29078 55079 58009;EQDQ01  00002PRCP06
0167827950999992004081018004-07220-035880FM-12+0548SBKG V0201801N004110450019N0100001N1+02711+01711101651ADDAA106000091GF106991031021008001031001MA1999999095471MD1999999+0101REMSYN070AAXX  10184 82795 32597 61808 10271 20171 39547 40165 83230 333 58010;EQDQ01  00002PRCP06
0198827950999992004081100004-07220-035880FM-12+0548SBKG V0201401N002612200019N0010001N1+02121+01741102001ADDAA106000091GF102991001001999999001021KA1240M+02761MA1999999095761MD1999999+0011REMSYN088AAXX  11004 82795 32994 21405 10212 20174 39576 40200 80002 333 10276 29072 55097 58001;EQDQ01  00002PRCP06
0186827950999992004081112004-07217-035883FM-12+0560SBKG V0201801N004610075019N0100001N1+02021+01811102151ADDAA106000091GF108991071071008001999999KA1240N+01841MA1999999095871MD1999999+0001REMSYN076AAXX  11124 82795 32597 81809 10202 20181 39587 40215 877// 333 20184 58000;EQDQ01  00002PRCP06
0171827950999992004081118004-07217-035883FM-12+0560SBKG V0201801N004110120019N0100001N1+02091+01961101791ADDAY121061AY221061GF108991081081008001999999MA1999999095531MD1999999+0061MW1611REMSYN082AAXX  11184 82795 21597 81808 10209 20196 39553 40179 76122 888// 333 58006 60031;
0202827950999992004081200004-07220-035880FM-12+0548SBKG V0201801N002610075019N0010001N1+01911+01821102051ADDAY161061AY221061GF108991081071008001999999KA1240M+02381MA1999999095761MD1999999+0001MW1021REMSYN100AAXX  12004 82795 21594 81805 10191 20182 39576 40205 70262 887// 333 10238 29092 55010 58000 60021;
0167827950999992004081218004-07220-035880FM-12+0548SBKG V0201801N004110120019N0100001N1+02411+01731101811ADDAA106000091GF108991051081008001031001MA1999999095551MD1999999-0021REMSYN070AAXX  12184 82795 32597 81808 10241 20173 39555 40181 85830 333 59002;EQDQ01  00002PRCP06
0198827950999992004081300004-07220-035880FM-12+0548SBKG V0201801N001510075019N0010001N1+02031+01761102081ADDAA106000091GF107991051021008001061001KA1240M+02481MA1999999095801MD1999999+0041REMSYN088AAXX  13004 82795 32594 71803 10203 20176 39580 40208 85260 333 10248 29079 55028 58004;EQDQ01  00002PRCP06
0186827950999992004081312004-07220-035880FM-12+0548SBKG V0201801N003612200019N0100001N1+02181+01631102041ADDAA106000091GF104991041011008001001001KA1240N+01551MA1999999095791MD1999999-0041REMSYN076AAXX  13124 82795 32597 41807 10218 20163 39579 40204 84100 333 20155 59004;EQDQ01  00002PRCP06
0167827950999992004081318004-07220-035880FM-12+0548SBKG V0201401N003619999999N0100001N1+02441+01761101631ADDAA106000091GF107991071001008001071001MA1999999095491MD1999999-0041REMSYN070AAXX  13184 82795 32597 71407 10244 20176 39549 40163 87070 333 59004;EQDQ01  00002PRCP06
0198827950999992004081400004-07220-035880FM-12+0548SBKG V0201401N003110450019N0010001N1+01951+01661102011ADDAA106000091GF106991021021008001051071KA1240M+02551MA1999999095751MD1999999-0051REMSYN088AAXX  14004 82795 32594 61406 10195 20166 39575 40201 82257 333 10255 29076 55090 59005;EQDQ01  00002PRCP06
0139827950999992004081408004-07220-035880FM-15+0548SBKG V0202701N001012200019N0112651N1+01801+01501999999ADDGA1021+004509999GF102991999999999999999999MA1101901999999MW1001REMMET045SBKG 140800Z 27002KT 9999 FEW015 18/15 Q1019;EQDQ01+000000PRSWM2
0091827950999992004081409004-07220-035880FM-15+0548SBKG V0202601N00211220001CN0099001N1+01701+01501999999ADDMA1102001999999MW1001REMMET039SBKG 140900Z 26004KT CAVOK 17/15 Q1020;EQDQ01+000000PRSWM2
0167827950999992004081418004-07220-035880FM-12+0548SBKG V0201401N003612200019N0100001N1+02631+01731101721ADDAA106000091GF103991031021008001001001MA1999999095501MD1999999+0011REMSYN070AAXX  14184 82795 32597 31407 10263 20173 39550 40172 83200 333 58001;EQDQ01  00002PRCP06
0208827950999992004081500004-07220-035880FM-12+0548SBKG V0201401N001512200019N0010001N1+02011+01681102061ADDAA106000091GA1001+999999999GF100991001001999999001001KA1240M+02701MA1999999095801MD1999999+0051REMSYN082AAXX  15004 82795 32994 01403 10201 20168 39580 40206 333 10270 29074 55108 58005;EQDQ01  00002PRCP06
0186827950999992004081512004-07220-035880FM-12+0548SBKG V0201801N002610075019N0100001N1+02121+01681102301ADDAA106000091GF108991051071008001051021KA1240N+01731MA1999999095831MD1999999+0041REMSYN076AAXX  15124 82795 32597 81805 10212 20168 39583 40230 85752 333 20173 58004;EQDQ01  00002PRCP06
0190827950999992004081518004-07220-035880FM-12+0548SBKG V0209999C000019999999N0100001N1+02211+01861101811ADDAY151061AY221061GF106991999071008001001001MA1999999095551MD1999999+0051MW1021REMSYN082AAXX  15184 82795 21597 61400 10221 20186 39555 40181 70252 87700 333 58005 69941;EQDQ01+000072SCOTLC
0202827950999992004081600004-07220-035880FM-12+0548SBKG V0201401N001510075019N0010001N1+01941+01891102161ADDAY161061AY221061GF105991051061008001001001KA1240M+02281MA1999999095891MD1999999+0091MW1021REMSYN100AAXX  16004 82795 21594 51403 10194 20189 39589 40216 70262 85600 333 10228 29088 55008 58009 60031;
0190827950999992004081612004-07220-035880FM-12+0548SBKG V0201401N002610075019N0040001N1+01961+01891102031ADDAY161061AY251061GF108991051071008001011999KA1240N+01791MA1999999095741MD1999999-0091MW1511REMSYN088AAXX  16124 82795 21596 81405 10196 20189 39574 40203 75165 8571/ 333 20179 59009 60064;
0171827950999992004081618004-07220-035880FM-12+0548SBKG V0201401N003610075019N0100001N1+02181+02131101701ADDAY161061AY221061GF108991081071008001999999MA1999999095441MD1999999-0081MW1021REMSYN082AAXX  16184 82795 21597 81407 10218 20213 39544 40170 70262 887// 333 59008 60051;
0202827950999992004081700004-07220-035880FM-12+0548SBKG V0201401N003110075019N0010001N1+02001+01951101931ADDAY161061AY221061GF108991081061008001999999KA1240M+02271MA1999999095661MD1999999-0231MW1021REMSYN100AAXX  17004 82795 21594 81406 10200 20195 39566 40193 70262 886// 333 10227 29096 55007 59023 60031;
0162827950999992004081712004-07220-035880FM-12+0548SBKG V0201401N003110075019N0100001N1+02151+01881102041ADDGF108991081071008001999999KA1240N+01641MA1999999095781MD1999999+0041REMSYN082AAXX  17124 82795 22597 81406 10215 20188 39578 40204 887// 333 20164 58004 60084;
0167827950999992004081718004-07220-035880FM-12+0548SBKG V0201401N003110075019N0100001N1+02471+02051101631ADDAA106000091GF105991051041008001001001MA1999999095411MD1999999-0031REMSYN070AAXX  17184 82795 32597 51406 10247 20205 39541 40163 85400 333 59003;EQDQ01  00002PRCP06
0198827950999992004081800004-07220-035880FM-12+0548SBKG V0201401N001510120019N0010001N1+02111+02001101841ADDAA106000091GF106991061081008001001001KA1240M+02551MA1999999095601MD1999999-0061REMSYN088AAXX  18004 82795 32594 61403 10211 20200 39560 40184 86800 333 10255 29087 55054 59006;EQDQ01  00002PRCP06
0190827950999992004081812004-07220-035880FM-12+0548SBKG V0201801N003610075019N0100001N1+02091+01821101931ADDAY161061AY221061GF108991081071008001999999KA1240N+01731MA1999999095691MD1999999-0091MW1021REMSYN088AAXX  18124 82795 21597 81807 10209 20182 39569 40193 70262 887// 333 20173 59009 60034;
0167827950999992004081818004-07220-035880FM-12+0548SBKG V0201401N002612200019N0100001N1+02671+01901101571ADDAA106000091GF104991041021008001001001MA1999999095391MD1999999-0021REMSYN070AAXX  18184 82795 32597 41405 10267 20190 39539 40157 84200 333 59002;EQDQ01  00002PRCP06
0190827950999992004081912004-07220-035880FM-12+0548SBKG V0201401N004110075019N0100001N1+02201+01951102071ADDAY161061AY221061GF106991061061008001001001KA1240N+01811MA1999999095831MD1999999+0141MW1021REMSYN088AAXX  19124 82795 21597 61408 10220 20195 39583 40207 70262 86600 333 20181 58014 60034;
0167827950999992004081918004-07220-035880FM-12+0548SBKG V0201401N004612200019N0100001N1+02701+01661101781ADDAA106000091GF104991041031008001001001MA1999999095601MD1999999+0211REMSYN070AAXX  19184 82795 32597 41409 10270 20166 39560 40178 84300 333 58021;EQDQ01  00002PRCP06
0198827950999992004082000004-07220-035880FM-12+0548SBKG V0201401N003612200019N0010001N1+02091+01931102021ADDAA106000091GF103991031021008001001001KA1240M+02751MA1999999095781MD1999999+0101REMSYN088AAXX  20004 82795 32594 31407 10209 20193 39578 40202 83200 333 10275 29080 55075 58010;EQDQ01  00002PRCP06
0186827950999992004082012004-07220-035880FM-12+0548SBKG V0201401N003610075019N0100001N1+02291+01791102001ADDAA106000091GF105991051021008001001001KA1240N+01811MA1999999095781MD1999999-0051REMSYN076AAXX  20124 82795 32597 51407 10229 20179 39578 40200 85200 333 20181 59005;EQDQ01  00002PRCP06
0167827950999992004082018004-07220-035880FM-12+0548SBKG V0201401N005112200019N0100001N1+02611+01601101611ADDAA106000091GF102991021011008001001001MA1999999095431MD1999999+0171REMSYN070AAXX  20184 82795 32597 21410 10261 20160 39543 40161 82100 333 58017;EQDQ01  00002PRCP06
0198827950999992004082100004-07220-035880FM-12+0548SBKG V0201401N002612200019N0010001N1+02021+01721101871ADDAA106000091GF102991021011008001001001KA1240M+02701MA1999999095641MD1999999-0141REMSYN088AAXX  21004 82795 32594 21405 10202 20172 39564 40187 82100 333 10270 29073 55106 59014;EQDQ01  00002PRCP06
0186827950999992004082112004-07220-035880FM-12+0548SBKG V0201401N003610075019N0100001N1+02301+01921101861ADDAA106000091GF106991061061008001001001KA1240N+01791MA1999999095661MD1999999-0121REMSYN076AAXX  21124 82795 32597 61407 10230 20192 39566 40186 86600 333 20179 59012;EQDQ01  00002PRCP06
0167827950999992004082118004-07220-035880FM-12+0548SBKG V0201401N004612200019N0100001N1+02691+01641101521ADDAA106000091GF102991011021008001001011MA1999999095341MD1999999-0091REMSYN070AAXX  21184 82795 32597 21409 10269 20164 39534 40152 81201 333 59009;EQDQ01  00002PRCP06
0208827950999992004082200004-07220-035880FM-12+0548SBKG V0201401N003112200019N0010001N1+02011+01721101771ADDAA106000091GA1001+999999999GF100991001001999999001001KA1240M+02721MA1999999095551MD1999999-0091REMSYN082AAXX  22004 82795 32994 01406 10201 20172 39555 40177 333 10272 29075 55085 59009;EQDQ01  00002PRCP06
0190827950999992004082212004-07220-035880FM-12+0548SBKG V0201401N004610075019N0040001N1+02051+01961101901ADDAY161061AY251061GF108991051071008001021999KA1240N+01791MA1999999095631MD1999999-0031MW1501REMSYN088AAXX  22124 82795 21596 81409 10205 20196 39563 40190 75065 8572/ 333 20179 59003 60024;
0171827950999992004082218004-07220-035880FM-12+0548SBKG V0201401N004612200019N0100001N1+02681+01701101541ADDAY161061AY251061GF104991041021008001001001MA1999999095361MD1999999+0021MW1011REMSYN082AAXX  22184 82795 21597 41409 10268 20170 39536 40154 70165 84200 333 58002 60011;
0214827950999992004082300004-07220-035880FM-12+0548SBKG V0200901N002612200019N0010001N1+02061+01841101831ADDAA106000091GF102991999021008001001001KA1240M+02731MA1999999095571MD1999999+0031REMSYN088AAXX  23004 82795 32594 20905 10206 20184 39557 40183 83200 333 10273 29088 55053 58003;EQDQ01+000032SCOTLCQ02  00002PRCP06
0162827950999992004082312004-07220-035880FM-12+0548SBKG V0201401N002610075019N0100001N1+02291+01921101891ADDGF106991061061008001001001KA1240N+01741MA1999999095671MD1999999+0031REMSYN082AAXX  23124 82795 22597 61405 10229 20192 39567 40189 86600 333 20174 58003 60014;
0167827950999992004082318004-07220-035880FM-12+0548SBKG V0201401N004612200019N0100001N1+02631+01761101651ADDAA106000091GF103991031021008001001001MA1999999095451MD1999999+0091REMSYN070AAXX  23184 82795 32597 31409 10263 20176 39545 40165 83200 333 58009;EQDQ01  00002PRCP06
0208827950999992004082400004-07220-035880FM-12+0548SBKG V0200901N002612200019N0010001N1+02041+01871101871ADDAA106000091GA1001+999999999GF100991001001999999001001KA1240M+02731MA1999999095641MD1999999+0061REMSYN082AAXX  24004 82795 32994 00905 10204 20187 39564 40187 333 10273 29080 55078 58006;EQDQ01  00002PRCP06
0183827950999992004082418004-07220-035880FM-12+0548SBKG V0201401N004112200019N0100001N1+02731+01881101481ADDAA106000091GF104991999021008001001001MA1999999095291MD1999999-0161REMSYN070AAXX  24184 82795 32597 41408 10273 20188 39529 40148 82200 333 59016;EQDQ01+000022SCOTLCQ02  00002PRCP06
0208827950999992004082500004-07220-035880FM-12+0548SBKG V0201401N002112200019N0010001N1+02081+01841101721ADDAA106000091GA1001+999999999GF100991001001999999001001KA1240M+02791MA1999999095491MD1999999-0151REMSYN082AAXX  25004 82795 32994 01404 10208 20184 39549 40172 333 10279 29078 55105 59015;EQDQ01  00002PRCP06
0170827950999992004082512004-07220-035880FM-12+0548SBKG V0201401N004610075019N0100001N1+02301+01921101781ADDAA106000091GF106991061021008001001001KA1240N+01751MA1999999095571REMSYN074AAXX  25124 82795 32597 61409 10230 20192 39557 40178 86200 333 20175 590;EQDQ01  00002PRCP06
0167827950999992004082518004-07217-035883FM-12+0560SBKG V0201401N003112200019N0100001N1+02701+01801101371ADDAA106000091GF102991021021008001001001MA1999999095201MD1999999-0091REMSYN070AAXX  25184 82795 32597 21406 10270 20180 39520 40137 82200 333 59009;EQDQ01  00002PRCP06
0198827950999992004082600004-07217-035883FM-12+0560SBKG V0200901N003610075019N0010001N1+02091+01891101751ADDAA106000091GF105991051021008001001001KA1240M+02801MA1999999095541MD1999999+0051REMSYN088AAXX  26004 82795 32594 50907 10209 20189 39554 40175 85200 333 10280 29079 55089 58005;EQDQ01  00002PRCP06
0186827950999992004082612004-07217-035883FM-12+0560SBKG V0201401N003610075019N0100001N1+02231+01841101811ADDAA106000091GF106991061021008001001001KA1240N+01841MA1999999095591MD1999999+0021REMSYN076AAXX  26124 82795 32597 61407 10223 20184 39559 40181 86200 333 20184 58002;EQDQ01  00002PRCP06
0183827950999992004082618004-07217-035883FM-12+0560SBKG V0201401N005112200019N0100001N1+02731+01791101341ADDAA106000091GF104991999021008001001001MA1999999095181MD1999999-0021REMSYN070AAXX  26184 82795 32597 41410 10273 20179 39518 40134 82200 333 59002;EQDQ01+000022SCOTLCQ02  00002PRCP06
0190827950999992004082712004-07217-035883FM-12+0560SBKG V0201401N003610075019N0100001N1+02221+01921101761ADDAY161061AY221061GF106991061061008001001001KA1240N+01781MA1999999095541MD1999999-0051MW1021REMSYN088AAXX  27124 82795 21597 61407 10222 20192 39554 40176 70262 86600 333 20178 59005 69914;
0198827950999992004082800004-07217-035883FM-12+0560SBKG V0200901N002612200019N0010001N1+02091+01821101751ADDAA106000091GF103991031011008001001001KA1240M+02801MA1999999095531MD1999999+0011REMSYN088AAXX  28004 82795 32594 30905 10209 20182 39553 40175 83100 333 10280 29078 55067 58001;EQDQ01  00002PRCP06
0190827950999992004082812004-07217-035883FM-12+0560SBKG V0201401N003110075019N0100001N1+02151+02041101821ADDAY161061AY221061GF108991081071008001999999KA1240N+01981MA1999999095581MD1999999+0041MW1021REMSYN088AAXX  28124 82795 21597 81406 10215 20204 39558 40182 70262 887// 333 20198 58004 60014;
0139827950999992004082816004-07217-035883FM-15+0560SBKG V0201301N003112200019N0112651N1+02801+01801999999ADDGA1041+007809999GF104991999999999999999999MA1101491999999MW1001REMMET045SBKG 281600Z 13006KT 9999 SCT026 28/18 Q1015;EQDQ01+000000PRSWM2
0167827950999992004082818004-07220-035880FM-12+0548SBKG V0200901N003612200019N0100001N1+02761+01861101291ADDAA106000091GF103991031021008001001001MA1999999095151MD1999999-0071REMSYN070AAXX  28184 82795 32597 30907 10276 20186 39515 40129 83200 333 59007;EQDQ01  00002PRCP06
0198827950999992004082900004-07220-035880FM-12+0548SBKG V0200901N004610075019N0010001N1+02141+02001101561ADDAA106000091GF106991061021008001001001KA1240M+02811MA1999999095351MD1999999-0181REMSYN088AAXX  29004 82795 32594 60909 10214 20200 39535 40156 86200 333 10281 29084 55070 59018;EQDQ01  00002PRCP06
0198827950999992004083000004-07220-035880FM-12+0548SBKG V0200901N003610075019N0010001N1+02121+01971101551ADDAA106000091GF106991061021008001001001KA1240M+02891MA1999999095351MD1999999+0001REMSYN088AAXX  30004 82795 32594 60907 10212 20197 39535 40155 86200 333 10289 29078 55093 58000;EQDQ01  00002PRCP06
0181827950999992004083007004-07217-035883FM-15+0560SBKG V0201201N002110060019N0030001N1+02001+01901999999ADDGA1041+001509999GA2071+006009999GF107991999999999999999999MA1101591999999MW1101REMMET055SBKG 300700Z 12004KT 3000 BR SCT005 BKN020 20/19 Q1016;EQDQ01+000003PRSWM1Q02    003PRSWM1
0198827950999992004090100004-07217-035883FM-12+0560SBKG V0200901N003612200019N0010001N1+02041+01821101851ADDAA106000091GF105991041021008001001011KA1240M+02751MA1999999095611MD1999999+0171REMSYN088AAXX  01004 82795 32594 50907 10204 20182 39561 40185 84201 333 10275 29080 55093 58017;EQDQ01  00002PRCP06
0186827950999992004090112004-07217-035883FM-12+0560SBKG V0201401N003112200019N0100001N1+02431+01931101981ADDAA106000091GF106991041021008001001011KA1240N+01731MA1999999095771MD1999999+0091REMSYN076AAXX  01124 82795 32597 61406 10243 20193 39577 40198 84201 333 20173 58009;EQDQ01  00002PRCP06
0198827950999992004090200004-07217-035883FM-12+0560SBKG V0201401N003110450019N0010001N1+02201+01941101881ADDAA106000091GF106991041021008001061001KA1240M+02841MA1999999095691MD1999999+0081REMSYN088AAXX  02004 82795 32594 61406 10220 20194 39569 40188 84260 333 10284 29075 55100 58008;EQDQ01  00002PRCP06
0190827950999992004090212004-07217-035883FM-12+0560SBKG V0201401N003610075019N0020001N1+02131+02061101941ADDAY161061AY251061GF108991051071008001021999KA1240N+01971MA1999999095711MD1999999-0061MW1501REMSYN088AAXX  02124 82795 21595 81407 10213 20206 39571 40194 75065 8572/ 333 20197 59006 60104;
0171827950999992004090218004-07217-035883FM-12+0560SBKG V0201401N003110075019N0100001N1+02531+01771101681ADDAY151061AY221061GF105991051031008001001001MA1999999095501MD1999999+0061MW1021REMSYN082AAXX  02184 82795 21597 51406 10253 20177 39550 40168 70252 85300 333 58006 69991;
0198827950999992004090300004-07217-035883FM-12+0560SBKG V0201401N001510075019N0010001N1+02101+01931101921ADDAA106000091GF106991061021008001001001KA1240M+02731MA1999999095681MD1999999-0011REMSYN088AAXX  03004 82795 32594 61403 10210 20193 39568 40192 86200 333 10273 29085 55056 59001;EQDQ01  00002PRCP06
0186827950999992004090312004-07217-035883FM-12+0560SBKG V0201401N003610075019N0100001N1+02371+01821101851ADDAA106000091GF106991061021008001001001KA1240N+01851MA1999999095631MD1999999-0081REMSYN076AAXX  03124 82795 32597 61407 10237 20182 39563 40185 86200 333 20185 59008;EQDQ01  00002PRCP06
0167827950999992004090318004-07217-035883FM-12+0560SBKG V0201401N005712200019N0100001N1+02731+01791101481ADDAA106000091GF103991031021008001001001MA1999999095301MD1999999-0201REMSYN070AAXX  03184 82795 32597 31411 10273 20179 39530 40148 83200 333 59020;EQDQ01  00002PRCP06
0198827950999992004090400004-07217-035883FM-12+0560SBKG V0201401N003110075019N0010001N1+02121+01841101751ADDAA106000091GF106991061021008001001001KA1240M+02851MA1999999095551MD1999999-0131REMSYN088AAXX  04004 82795 32594 61406 10212 20184 39555 40175 86200 333 10285 29074 55100 59013;EQDQ01  00002PRCP06
0186827950999992004090412004-07217-035883FM-12+0560SBKG V0201401N004110075019N0100001N1+02251+01841101731ADDAA106000091GF105991051041008001001001KA1240N+01801MA1999999095511MD1999999-0121REMSYN076AAXX  04124 82795 32597 51408 10225 20184 39551 40173 85400 333 20180 59012;EQDQ01  00002PRCP06
0208827950999992004090500004-07217-035883FM-12+0560SBKG V0201401N001512200019N0010001N1+02031+01851101711ADDAA106000091GA1001+999999999GF100991001001999999001001KA1240M+02801MA1999999095491MD1999999-0061REMSYN082AAXX  05004 82795 32994 01403 10203 20185 39549 40171 333 10280 29078 55092 59006;EQDQ01  00002PRCP06
0202827950999992004090512004-07217-035883FM-12+0560SBKG V0201401N003119999999N0100001N1+02811+01821101671ADDAA106000091GF107991999051008001001001KA1240N+01781MA1999999095441MD1999999-0111REMSYN076AAXX  05124 82795 32597 71406 10281 20182 39544 40167 84500 333 20178 59011;EQDQ01+000042SCOTLCQ02  00002PRCP06
0167827950999992004090518004-07217-035883FM-12+0560SBKG V0201401N004610450019N0100001N1+02621+01831101321ADDAA106000091GF106991031031008001051021MA1999999095141MD1999999-0141REMSYN070AAXX  05184 82795 32597 61409 10262 20183 39514 40132 83352 333 59014;EQDQ01  00002PRCP06
0208827950999992004090600004-07217-035883FM-12+0560SBKG V0201401N002612200019N0010001N1+02041+01761101641ADDAA106000091GA1001+999999999GF100991001001999999001001KA1240M+02761MA1999999095411MD1999999-0081REMSYN082AAXX  06004 82795 32994 01405 10204 20176 39541 40164 333 10276 29077 55071 59008;EQDQ01  00002PRCP06
0186827950999992004090612004-07217-035883FM-12+0560SBKG V0201801N003110075019N0100001N1+02131+01741101631ADDAA106000091GF106991061051008001001001KA1240N+01631MA1999999095381MD1999999-0061REMSYN076AAXX  06124 82795 32597 61806 10213 20174 39538 40163 86500 333 20163 59006;EQDQ01  00002PRCP06
0208827950999992004090700004-07217-035883FM-12+0560SBKG V0201401N002612200019N0010001N1+02081+01821101531ADDAA106000091GA1001+999999999GF100991001001999999001001KA1240M+02681MA1999999095311MD1999999-0101REMSYN082AAXX  07004 82795 32994 01405 10208 20182 39531 40153 333 10268 29077 55021 59010;EQDQ01  00002PRCP06
0167827950999992004090718004-07217-035883FM-12+0560SBKG V0201401N004110075019N0100001N1+02681+01781101151ADDAA106000091GF105991051041008001001001MA1999999094981MD1999999-0091REMSYN070AAXX  07184 82795 32597 51408 10268 20178 39498 40115 85400 333 59009;EQDQ01  00002PRCP06
0186827950999992004090812004-07217-035883FM-12+0560SBKG V0201401N004610075019N0100001N1+02311+01791101461ADDAA106000091GF106991061021008001001001KA1240N+01681MA1999999095301MD1999999-0061REMSYN076AAXX  08124 82795 32597 61409 10231 20179 39530 40146 86200 333 20168 59006;EQDQ01  00002PRCP06
0198827950999992004090900004-07217-035883FM-12+0560SBKG V0201401N003112200019N0010001N1+02081+01761101551ADDAA106000091GF103991011011008001001021KA1240M+02851MA1999999095351MD1999999+0071REMSYN088AAXX  09004 82795 32594 31406 10208 20176 39535 40155 81102 333 10285 29074 55094 58007;EQDQ01  00002PRCP06
0186827950999992004090912004-07217-035883FM-12+0560SBKG V0201401N004110075019N0100001N1+02251+01841101601ADDAA106000091GF108991081071008001999999KA1240N+01811MA1999999095391MD1999999+0091REMSYN076AAXX  09124 82795 32597 81408 10225 20184 39539 40160 887// 333 20181 58009;EQDQ01  00002PRCP06
0190827950999992004091012004-07217-035883FM-12+0560SBKG V0201401N003110075019N0100001N1+02241+01991101701ADDAY161061AY221061GF106991061061008001001001KA1240N+01911MA1999999095481MD1999999+0091MW1021REMSYN088AAXX  10124 82795 21597 61406 10224 20199 39548 40170 70262 86600 333 20191 58009 60024;
0171827950999992004091018004-07217-035883FM-12+0560SBKG V0201401N004110075019N0100001N1+02241+02071101431ADDAY161061AY221061GF108991081071008001999999MA1999999095211MD1999999+0091MW1021REMSYN082AAXX  10184 82795 21597 81408 10224 20207 39521 40143 70262 887// 333 58009 60011;
0202827950999992004091100004-07217-035883FM-12+0560SBKG V0201401N003110075019N0010001N1+02041+01991101671ADDAY161061AY221061GF108991081071008001999999KA1240M+02461MA1999999095451MD1999999+0041MW1021REMSYN100AAXX  11004 82795 21594 81406 10204 20199 39545 40167 70262 887// 333 10246 29092 55016 58004 60031;
0190827950999992004091112004-07217-035883FM-12+0560SBKG V0201401N003612200019N0100001N1+02201+01921101711ADDAY161061AY221061GF108991041021008001001011KA1240N+01881MA1999999095481MD1999999+0001MW1021REMSYN088AAXX  11124 82795 21597 81407 10220 20192 39548 40171 70262 84201 333 20188 58000 60074;
0167827950999992004091118004-07217-035883FM-12+0560SBKG V0201401N003112200019N0100001N1+02761+01831101271ADDAA106000091GF105991041021008001001011MA1999999095131MD1999999-0081REMSYN070AAXX  11184 82795 32597 51406 10276 20183 39513 40127 84201 333 59008;EQDQ01  00002PRCP06
0198827950999992004091200004-07217-035883FM-12+0560SBKG V0200901N003610075019N0010001N1+02761+01971101741ADDAA106000091GF106991051021008001061001KA1240M+02811MA1999999095521MD1999999+0071REMSYN088AAXX  12004 82795 32594 60907 10276 20197 39552 40174 85260 333 10281 29087 55087 58007;EQDQ01  00002PRCP06
0186827950999992004091212004-07220-035880FM-12+0548SBKG V0201401N005710075019N0100001N1+02281+01811101841ADDAA106000091GF106991061021008001001001KA1240N+01851MA1999999095701MD1999999+0221REMSYN076AAXX  12124 82795 32597 61411 10228 20181 39570 40184 86200 333 20185 58022;EQDQ01  00002PRCP06
0167827950999992004091218004-07217-035883FM-12+0560SBKG V0201401N003610075019N0100001N1+02851+01791101511ADDAA106000091GF105991051021008001001001MA1999999095351MD1999999+0221REMSYN070AAXX  12184 82795 32597 51407 10285 20179 39535 40151 85200 333 58022;EQDQ01  00002PRCP06
0198827950999992004091300004-07217-035883FM-12+0560SBKG V0201401N003610075019N0010001N1+02101+01861101891ADDAA106000091GF106991061021008001001001KA1240M+02891MA1999999095671MD1999999+0151REMSYN088AAXX  13004 82795 32594 61407 10210 20186 39567 40189 86200 333 10289 29075 55092 58015;EQDQ01  00002PRCP06
0186827950999992004091312004-07217-035883FM-12+0560SBKG V0201401N003610075019N0100001N1+02381+01871102021ADDAA106000091GF106991061021008001001001KA1240N+01911MA1999999095811MD1999999+0091REMSYN076AAXX  13124 82795 32597 61407 10238 20187 39581 40202 86200 333 20191 58009;EQDQ01  00002PRCP06
0167827950999992004091318004-07217-035883FM-12+0560SBKG V0201401N004610075019N0100001N1+02731+01791101591ADDAA106000091GF105991051021008001001001MA1999999095451MD1999999-0041REMSYN070AAXX  13184 82795 32597 51409 10273 20179 39545 40159 85200 333 59004;EQDQ01  00002PRCP06
0198827950999992004091400004-07217-035883FM-12+0560SBKG V0201401N003610450019N0010001N1+02121+01841101901ADDAA106000091GF106991031021008001061001KA1240M+02841MA1999999095701MD1999999+0031REMSYN088AAXX  14004 82795 32594 61407 10212 20184 39570 40190 83260 333 10284 29074 55094 58003;EQDQ01  00002PRCP06
0186827950999992004091412004-07217-035883FM-12+0560SBKG V0201401N003610075019N0100001N1+02371+01841101961ADDAA106000091GF106991061021008001001001KA1240N+01891MA1999999095741MD1999999-0071REMSYN076AAXX  14124 82795 32597 61407 10237 20184 39574 40196 86200 333 20189 59007;EQDQ01  00002PRCP06
0167827950999992004091418004-07217-035883FM-12+0560SBKG V0201401N006712200019N0100001N1+02731+01881101591ADDAA106000091GF104991041021008001001001MA1999999095421MD1999999+0031REMSYN070AAXX  14184 82795 32597 41413 10273 20188 39542 40159 84200 333 58003;EQDQ01  00002PRCP06
0198827950999992004091500004-07217-035883FM-12+0560SBKG V0201401N003110075019N0010001N1+02121+01881101861ADDAA106000091GF106991061021008001001001KA1240M+02881MA1999999095661MD1999999-0041REMSYN088AAXX  15004 82795 32594 61406 10212 20188 39566 40186 86200 333 10288 29076 55103 59004;EQDQ01  00002PRCP06
0186827950999992004091512004-07217-035883FM-12+0560SBKG V0201401N003112200019N0100001N1+02341+01761101981ADDAA106000091GF106991041021008001001011KA1240N+01861MA1999999095761MD1999999+0021REMSYN076AAXX  15124 82795 32597 61406 10234 20176 39576 40198 84201 333 20186 58002;EQDQ01  00002PRCP06
0208827950999992004091600004-07217-035883FM-12+0560SBKG V0201401N004112200019N0010001N1+02091+01821101791ADDAA106000091GA1001+999999999GF100991001001999999001001KA1240M+02881MA1999999095581MD1999999-0081REMSYN082AAXX  16004 82795 32994 01408 10209 20182 39558 40179 333 10288 29075 55090 59008;EQDQ01  00002PRCP06
0186827950999992004091612004-07217-035883FM-12+0560SBKG V0201401N004610075019N0100001N1+02401+01801101741ADDAA106000091GF105991051011008001001001KA1240N+01741MA1999999095541MD1999999-0221REMSYN076AAXX  16124 82795 32597 51409 10240 20180 39554 40174 85100 333 20174 59022;EQDQ01  00002PRCP06
0167827950999992004091618004-07217-035883FM-12+0560SBKG V0201401N005110075019N0100001N1+02711+01881101241ADDAA106000091GF105991051021008001001001MA1999999095171MD1999999-0121REMSYN070AAXX  16184 82795 32597 51410 10271 20188 39517 40124 85200 333 59012;EQDQ01  00002PRCP06
0198827950999992004091700004-07217-035883FM-12+0560SBKG V0201401N003612200019N0010001N1+02171+01951101671ADDAA106000091GF104991041021008001001001KA1240M+02831MA1999999095481MD1999999-0101REMSYN088AAXX  17004 82795 32594 41407 10217 20195 39548 40167 84200 333 10283 29076 55092 59010;EQDQ01  00002PRCP06
0167827950999992004091718004-07217-035883FM-12+0560SBKG V0201401N004612200019N0100001N1+02711+01861101511ADDAA106000091GF104991041041008001001001MA1999999095341MD1999999+0171REMSYN070AAXX  17184 82795 32597 41409 10271 20186 39534 40151 84400 333 58017;EQDQ01  00002PRCP06
0198827950999992004091800004-07217-035883FM-12+0560SBKG V0201401N003612200019N0010001N1+02161+01841101691ADDAA106000091GF103991031011008001001001KA1240M+02791MA1999999095511MD1999999+0031REMSYN088AAXX  18004 82795 32594 31407 10216 20184 39551 40169 83100 333 10279 29074 55088 58003;EQDQ01  00002PRCP06
0167827950999992004091818004-07217-035883FM-12+0560SBKG V0201401N005712200019N0100001N1+02761+01721101381ADDAA106000091GF103991031011008001001001MA1999999095231MD1999999-0111REMSYN070AAXX  18184 82795 32597 31411 10276 20172 39523 40138 83100 333 59011;EQDQ01  00002PRCP06
0198827950999992004091900004-07220-035880FM-12+0548SBKG V0201401N004110450019N0010001N1+02251+01961101651ADDAA106000091GF106991041021008001041001KA1240M+02931MA1999999095471MD1999999-0041REMSYN088AAXX  19004 82795 32594 61408 10225 20196 39547 40165 84240 333 10293 29074 55100 59004;EQDQ01  00002PRCP06
0190827950999992004091912004-07220-035880FM-12+0548SBKG V0201401N004610075019N0100001N1+02401+01971101701ADDAY161061AY221061GF106991061021008001001001KA1240N+01921MA1999999095531MD1999999+0011MW1021REMSYN088AAXX  19124 82795 21597 61409 10240 20197 39553 40170 70262 86200 333 20192 58001 60024;
0167827950999992004091918004-07220-035880FM-12+0548SBKG V0201401N004612200019N0100001N1+02831+01741101291ADDAA106000091GF102991021011008001001001MA1999999095151MD1999999-0081REMSYN070AAXX  19184 82795 32597 21409 10283 20174 39515 40129 82100 333 59008;EQDQ01  00002PRCP06
0198827950999992004092000004-07220-035880FM-12+0548SBKG V0201401N003612200019N0010001N1+02111+01951101661ADDAA106000091GF102991011011008001001011KA1240M+02871MA1999999095471MD1999999+0001REMSYN088AAXX  20004 82795 32594 21407 10211 20195 39547 40166 81101 333 10287 29077 55089 58000;EQDQ01  00002PRCP06
0186827950999992004092012004-07217-035883FM-12+0560SBKG V0201401N003610075019N0100001N1+02351+01851101661ADDAA106000091GF105991051021008001001001KA1240N+01761MA1999999095461MD1999999-0071REMSYN076AAXX  20124 82795 32597 51407 10235 20185 39546 40166 85200 333 20176 59007;EQDQ01  00002PRCP06
0167827950999992004092018004-07217-035883FM-12+0560SBKG V0201401N004112200019N0100001N1+02821+01861101321ADDAA106000091GF103991031021008001001001MA1999999095181MD1999999+0031REMSYN070AAXX  20184 82795 32597 31408 10282 20186 39518 40132 83200 333 58003;EQDQ01  00002PRCP06
0198827950999992004092100004-07217-035883FM-12+0560SBKG V0201401N003110075019N0010001N1+02181+01971101681ADDAA106000091GF106991061021008001001001KA1240M+02881MA1999999095491MD1999999+0021REMSYN088AAXX  21004 82795 32594 61406 10218 20197 39549 40168 86200 333 10288 29076 55099 58002;EQDQ01  00002PRCP06
0186827950999992004092112004-07217-035883FM-12+0560SBKG V0200901N003610075019N0100001N1+02331+02001101791ADDAA106000091GF108991081071008001999999KA1240N+01931MA1999999095591MD1999999+0131REMSYN076AAXX  21124 82795 32597 80907 10233 20200 39559 40179 887// 333 20193 58013;EQDQ01  00002PRCP06
0167827950999992004092218004-07217-035883FM-12+0560SBKG V0201401N005110450019N0100001N1+02581+01901101631ADDAA106000091GF105991021041008001051001MA1999999095451MD1999999+0191REMSYN070AAXX  22184 82795 32597 51410 10258 20190 39545 40163 82450 333 58019;EQDQ01  00002PRCP06
0167827950999992004092318004-07217-035883FM-12+0560SBKG V0201401N002610075019N0100001N1+02821+01891101511ADDAA106000091GF105991051021008001001001MA1999999095351MD1999999-0051REMSYN070AAXX  23184 82795 32597 51405 10282 20189 39535 40151 85200 333 59005;EQDQ01  00002PRCP06
0198827950999992004092400004-07217-035883FM-12+0560SBKG V0201401N003610075019N0100001N1+02151+02021101821ADDAA106000091GF106991061021008001001001KA1240M+02861MA1999999095621MD1999999-0081REMSYN088AAXX  24004 82795 32597 61407 10215 20202 39562 40182 86200 333 10286 29079 55091 59008;EQDQ01  00002PRCP06
0190827950999992004092412004-07217-035883FM-12+0560SBKG V0201401N003110120019N0100001N1+02301+01941101851ADDAY151061AY221061GF107991071081008001001001KA1240N+01871MA1999999095631MD1999999-0081MW1021REMSYN088AAXX  24124 82795 21597 71406 10230 20194 39563 40185 70252 87800 333 20187 59008 69984;
0198827950999992004092500004-07217-035883FM-12+0560SBKG V0200901N004110120019N0010001N1+01981+01931101711ADDAA106000091GF107991071081008001001001KA1240M+02811MA1999999095491MD1999999-0131REMSYN088AAXX  25004 82795 32594 70908 10198 20193 39549 40171 87800 333 10281 29086 55065 59013;EQDQ01  00002PRCP06
0186827950999992004092512004-07217-035883FM-12+0560SBKG V0201401N003612200019N0100001N1+02341+01851101691ADDAA106000091GF104991041031008001001001KA1240N+01841MA1999999095471MD1999999-0161REMSYN076AAXX  25124 82795 32597 41407 10234 20185 39547 40169 84300 333 20184 59016;EQDQ01  00002PRCP06
0167827950999992004092518004-07217-035883FM-12+0560SBKG V0201401N005112200019N0100001N1+02641+01851101371ADDAA106000091GF104991041021008001001001MA1999999095201MD1999999-0061REMSYN070AAXX  25184 82795 32597 41410 10264 20185 39520 40137 84200 333 59006;EQDQ01  00002PRCP06
0208827950999992004092600004-07217-035883FM-12+0560SBKG V0201401N003112200019N0010001N1+02041+01891101681ADDAA106000091GA1001+999999999GF100991001001999999001001KA1240M+02781MA1999999095481MD1999999-0011REMSYN082AAXX  26004 82795 32994 01406 10204 20189 39548 40168 333 10278 29062 55099 59001;EQDQ01  00002PRCP06
0190827950999992004092612004-07220-035880FM-12+0548SBKG V0201401N003110120019N0100001N1+02021+01941101961ADDAY151061AY221061GF108991051081008001021999KA1240N+01811MA1999999095691MD1999999+0201MW1021REMSYN088AAXX  26124 82795 21597 81406 10202 20194 39569 40196 70252 8582/ 333 20181 58020 69984;
0171827950999992004092618004-07220-035880FM-12+0548SBKG V0201401N003610120019N0100001N1+02511+01891101481ADDAY151061AY221061GF105991051081008001001001MA1999999095291MD1999999+0091MW1021REMSYN082AAXX  26184 82795 21597 51407 10251 20189 39529 40148 70252 85800 333 58009 69981;
0202827950999992004092700004-07220-035880FM-12+0548SBKG V0201401N002110075019N0010001N1+02011+01971101311ADDAY151061AY221061GF108991081071008001999999KA1240M+02701MA1999999095671MD1999999+0191MW1501REMSYN100AAXX  27004 82795 21594 81404 10201 20197 39567 40131 75052 887// 333 10270 29090 55036 58019 69921;
0190827950999992004092712004-07220-035880FM-12+0548SBKG V0201401N002610075019N0100001N1+02321+01941101781ADDAY161061AY221061GF106991061021008001001001KA1240N+01881MA1999999095561MD1999999-0131MW1021REMSYN088AAXX  27124 82795 21597 61405 10232 20194 39556 40178 70262 86200 333 20188 59013 60014;
0167827950999992004092718004-07217-035883FM-12+0560SBKG V0201401N003110075019N0100001N1+02781+01761101441ADDAA106000091GF105991051021008001001001MA1999999095261MD1999999+0001REMSYN070AAXX  27184 82795 32597 51406 10278 20176 39526 40144 85200 333 58000;EQDQ01  00002PRCP06
0198827950999992004092800004-07217-035883FM-12+0560SBKG V0200901N003612200019N0010001N1+02071+01991101791ADDAA106000091GF102991021011008001001001KA1240M+02831MA1999999095581MD1999999-0091REMSYN088AAXX  28004 82795 32594 20907 10207 20199 39558 40179 82100 333 10283 29081 55099 59009;EQDQ01  00002PRCP06
0190827950999992004092812004-07217-035883FM-12+0560SBKG V0201401N003610075019N0100001N1+02211+02101101731ADDAY161061AY221061GF107991071071008001001001KA1240N+01931MA1999999095511MD1999999-0051MW1021REMSYN088AAXX  28124 82795 21597 71407 10221 20210 39551 40173 70262 87700 333 20193 59005 69964;
0167827950999992004092818004-07217-035883FM-12+0560SBKG V0201401N003110075019N0100001N1+02681+01811101221ADDAA106000091GF105991051021008001001001MA1999999095081MD1999999-0211REMSYN070AAXX  28184 82795 32597 51406 10268 20181 39508 40122 85200 333 59021;EQDQ01  00002PRCP06
0198827950999992004092900004-07217-035883FM-12+0560SBKG V0200901N003612200019N0010001N1+02071+01931101591ADDAA106000091GF104991041021008001001001KA1240M+02791MA1999999095381MD1999999-0201REMSYN088AAXX  29004 82795 32594 40907 10207 20193 39538 40159 84200 333 10279 29084 55067 59020;EQDQ01  00002PRCP06
0186827950999992004092912004-07217-035883FM-12+0560SBKG V0201401N002610075019N0100001N1+02321+01871101661ADDAA106000091GF106991061021008001001001KA1240N+01851MA1999999095461MD1999999-0051REMSYN076AAXX  29124 82795 32597 61405 10232 20187 39546 40166 86200 333 20185 59005;EQDQ01  00002PRCP06
0167827950999992004092918004-07217-035883FM-12+0560SBKG V0201401N004112200019N0100001N1+02751+01801101181ADDAA106000091GF104991041021008001001001MA1999999095031MD1999999-0051REMSYN070AAXX  29184 82795 32597 41408 10275 20180 39503 40118 84200 333 59005;EQDQ01  00002PRCP06
0167827950999992004093018004-07217-035883FM-12+0560SBKG V0201401N003612200019N0100001N1+02871+01871101191ADDAA106000091GF104991041021008001001001MA1999999095051MD1999999+0021REMSYN070AAXX  30184 82795 32597 41407 10287 20187 39505 40119 84200 333 58002;EQDQ01  00002PRCP06
0198827950999992004100100004-07217-035883FM-12+0560SBKG V0200901N005110450019N0010001N1+02081+01961101541ADDAA106000091GF106991041021008001041001KA1240M+02941MA1999999095361MD1999999+0061REMSYN088AAXX  01004 82795 32594 60910 10208 20196 39536 40154 84240 333 10294 29078 55106 58006;EQDQ01  00002PRCP06
0186827950999992004100112004-07217-035883FM-12+0560SBKG V0201401N004612200019N0100001N1+02591+01941101631ADDAA106000091GF104991041011008001001001KA1240N+01861MA1999999095451MD1999999+0111REMSYN076AAXX  01124 82795 32597 41409 10259 20194 39545 40163 84100 333 20186 58011;EQDQ01  00002PRCP06
0186827950999992004100212004-07217-035883FM-12+0560SBKG V0201401N004112200019N0100001N1+02441+01981101591ADDAA106000091GF104991041011008001001001KA1240N+01901MA1999999095411MD1999999-0041REMSYN076AAXX  02124 82795 32597 41408 10244 20198 39541 40159 84100 333 20190 59004;EQDQ01  00002PRCP06
0167827950999992004100218004-07217-035883FM-12+0560SBKG V0201401N005112200019N0100001N1+02791+01951101201ADDAA106000091GF104991041021008001001001MA1999999095061MD1999999-0091REMSYN070AAXX  02184 82795 32597 41410 10279 20195 39506 40120 84200 333 59009;EQDQ01  00002PRCP06
0198827950999992004100300004-07217-035883FM-12+0560SBKG V0201401N005110075019N0010001N1+02171+02031101501ADDAA106000091GF106991061021008001001001KA1240M+02901MA1999999095331MD1999999-0081REMSYN088AAXX  03004 82795 32594 61410 10217 20203 39533 40150 86200 333 10290 29078 55094 59008;EQDQ01  00002PRCP06
0186827950999992004100312004-07217-035883FM-12+0560SBKG V0201801N003610075019N0100001N1+02291+01881101611ADDAA106000091GF108991081071008001999999KA1240N+01901MA1999999095411MD1999999+0001REMSYN076AAXX  03124 82795 32597 81807 10229 20188 39541 40161 887// 333 20190 58000;EQDQ01  00002PRCP06
0167827950999992004100318004-07220-035880FM-12+0548SBKG V0201401N003612200019N0100001N1+02831+01801101141ADDAA106000091GF103991031021008001001001MA1999999095011MD1999999-0051REMSYN070AAXX  03184 82795 32597 31407 10283 20180 39501 40114 83200 333 59005;EQDQ01  00002PRCP06
0198827950999992004100400004-07220-035880FM-12+0548SBKG V0200901N003612200019N0010001N1+02151+01971101511ADDAA106000091GF103991031021008001001001KA1240M+02791MA1999999095321MD1999999-0011REMSYN088AAXX  04004 82795 32594 30907 10215 20197 39532 40151 83200 333 10279 29077 55065 59001;EQDQ01  00002PRCP06
0203827950999992004100412004-07217-035883FM-12+0560SBKG V0201401N002610042019N0040001N1+02221+02071101601ADDAY161061AY221061GF108991051071004501011999KA1240N+01961MA1999999095391MD1999999-0021REMSYN088AAXX  04124 82795 21496 81405 10222 20207 39539 40160 77562 8571/ 333 20196 59002 69944;EQDQ01+000752PRSWM1
0171827950999992004100418004-07217-035883FM-12+0560SBKG V0201401N005112200019N0100001N1+02811+02001101171ADDAY151061AY221061GF104991041031008001001001MA1999999095051MD1999999+0041MW1021REMSYN082AAXX  04184 82795 21597 41410 10281 20200 39505 40117 70252 84300 333 58004 69951;
0198827950999992004100500004-07217-035883FM-12+0560SBKG V0201401N004610120019N0010001N1+02141+01951101501ADDAA106000091GF107991071081008001001001KA1240M+02831MA1999999095301MD1999999-0021REMSYN088AAXX  05004 82795 32594 71409 10214 20195 39530 40150 87800 333 10283 29083 55049 59002;EQDQ01  00002PRCP06
0162827950999992004100512004-07217-035883FM-12+0560SBKG V0201401N005110075019N0100001N1+02331+01871101531ADDGF106991061021008001001001KA1240N+01961MA1999999095331MD1999999-0061REMSYN082AAXX  05124 82795 22597 61410 10233 20187 39533 40153 86200 333 20196 59006 69954;
0198827950999992004100600004-07217-035883FM-12+0560SBKG V0200901N003110075019N0100001N1+02091+01961101601ADDAA106000091GF106991061021008001001001KA1240M+02831MA1999999095401MD1999999+0101REMSYN088AAXX  06004 82795 32597 60906 10209 20196 39540 40160 86200 333 10283 29079 55091 58010;EQDQ01  00002PRCP06
0186827950999992004100612004-07217-035883FM-12+0560SBKG V0201401N003610075019N0100001N1+02411+01821101581ADDAA106000091GF106991061021008001001001KA1240N+01931MA1999999095401MD1999999+0071REMSYN076AAXX  06124 82795 32597 61407 10241 20182 39540 40158 86200 333 20193 58007;EQDQ01  00002PRCP06
0167827950999992004100618004-07217-035883FM-12+0560SBKG V0200501N003112200019N0100001N1+02891+01971101161ADDAA106000091GF106991031011008001001011MA1999999095011MD1999999-0041REMSYN070AAXX  06184 82795 32597 60506 10289 20197 39501 40116 83101 333 59004;EQDQ01  00002PRCP06
0198827950999992004100700004-07217-035883FM-12+0560SBKG V0200901N004112200019N0010001N1+02121+01971101471ADDAA106000091GF104991041021008001001001KA1240M+02981MA1999999095291MD1999999-0111REMSYN088AAXX  07004 82795 32594 40908 10212 20197 39529 40147 84200 333 10298 29078 55090 59011;EQDQ01  00002PRCP06
0186827950999992004100712004-07217-035883FM-12+0560SBKG V0201401N003110075019N0100001N1+02381+02031101591ADDAA106000091GF108991081071008001999999KA1240N+01951MA1999999095411MD1999999+0011REMSYN076AAXX  07124 82795 32597 81406 10238 20203 39541 40159 887// 333 20195 58001;EQDQ01  00002PRCP06
0167827950999992004100718004-07217-035883FM-12+0560SBKG V0201401N003110075019N0100001N1+02811+02031101201ADDAA106000091GF106991061051008001001001MA1999999095081MD1999999+0011REMSYN070AAXX  07184 82795 32597 61406 10281 20203 39508 40120 86500 333 58001;EQDQ01  00002PRCP06
0198827950999992004100800004-07217-035883FM-12+0560SBKG V0200901N003110075019N0010001N1+02121+02021101501ADDAA106000091GF106991061021008001001001KA1240M+02861MA1999999095321MD1999999+0031REMSYN088AAXX  08004 82795 32594 60906 10212 20202 39532 40150 86200 333 10286 29083 55058 58003;EQDQ01  00002PRCP06
0186827950999992004100812004-07217-035883FM-12+0560SBKG V0201801N003610075019N0100001N1+02381+01911101641ADDAA106000091GF107991071071008001001001KA1240N+01951MA1999999095451MD1999999+0041REMSYN076AAXX  08124 82795 32597 71807 10238 20191 39545 40164 87700 333 20195 58004;EQDQ01  00002PRCP06
0167827950999992004100818004-07217-035883FM-12+0560SBKG V0201401N002612200019N0100001N1+02921+01831101191ADDAA106000091GF102991021021008001001001MA1999999095081MD1999999+0001REMSYN070AAXX  08184 82795 32597 21405 10292 20183 39508 40119 82200 333 58000;EQDQ01  00002PRCP06
0198827950999992004100900004-07217-035883FM-12+0560SBKG V0201401N003110075019N0010001N1+02191+02031101601ADDAA106000091GF105991051021008001001001KA1240M+02971MA1999999095421MD1999999+0101REMSYN088AAXX  09004 82795 32594 51406 10219 20203 39542 40160 85200 333 10297 29077 55086 58010;EQDQ01  00002PRCP06
0186827950999992004100912004-07217-035883FM-12+0560SBKG V0201801N004110075019N0100001N1+02421+01991101741ADDAA106000091GF106991061021008001001001KA1240N+01971MA1999999095561MD1999999+0111REMSYN076AAXX  09124 82795 32597 61808 10242 20199 39556 40174 86200 333 20197 58011;EQDQ01  00002PRCP06
0167827950999992004100918004-07217-035883FM-12+0560SBKG V0201401N004619999999N0100001N1+02921+01891101301ADDAA106000091GF105991031001008001001021MA1999999095181MD1999999+0101REMSYN070AAXX  09184 82795 32597 51409 10292 20189 39518 40130 83002 333 58010;EQDQ01  00002PRCP06
0198827950999992004101000004-07217-035883FM-12+0560SBKG V0201401N004112200019N0010001N1+02211+01951101661ADDAA106000091GF102991011011008001001021KA1240M+02991MA1999999095481MD1999999+0061REMSYN088AAXX  10004 82795 32594 21408 10221 20195 39548 40166 81102 333 10299 29076 55099 58006;EQDQ01  00002PRCP06
0186827950999992004101012004-07217-035883FM-12+0560SBKG V0201401N003610075019N0100001N1+02431+01951101781ADDAA106000091GF106991061021008001001001KA1240N+02031MA1999999095601MD1999999+0041REMSYN076AAXX  10124 82795 32597 61407 10243 20195 39560 40178 86200 333 20203 58004;EQDQ01  00002PRCP06
0208827950999992004101100004-07217-035883FM-12+0560SBKG V0201401N003112200019N0010001N1+02261+01961101611ADDAA106000091GA1001+999999999GF100991001001999999001001KA1240M+03011MA1999999095451MD1999999-0031REMSYN082AAXX  11004 82795 32994 01406 10226 20196 39545 40161 333 10301 29074 55089 59003;EQDQ01  00002PRCP06
0202827950999992004101112004-07220-035880FM-12+0548SBKG V0201401N003610075019N0100001N1+02371+01891101721ADDAA106000091GF108991999061008001001001KA1240N+01991MA1999999095521MD1999999-0081REMSYN076AAXX  11124 82795 32597 81407 10237 20189 39552 40172 86600 333 20199 59008;EQDQ01+000062SCOTLCQ02  00002PRCP06
0186827950999992004101212004-07217-035883FM-12+0560SBKG V0201401N004610075019N0100001N1+02361+01851101721ADDAA106000091GF106991061021008001001001KA1240N+01861MA1999999095521MD1999999+0001REMSYN076AAXX  12124 82795 32597 61409 10236 20185 39552 40172 86200 333 20186 58000;EQDQ01  00002PRCP06
0167827950999992004101218004-07217-035883FM-12+0560SBKG V0201401N004612200019N0100001N1+02921+01801101211ADDAA106000091GF102991021011008001001001MA1999999095091MD1999999+0041REMSYN070AAXX  12184 82795 32597 21409 10292 20180 39509 40121 82100 333 58004;EQDQ01  00002PRCP06
0198827950999992004101300004-07217-035883FM-12+0560SBKG V0201401N003112200019N0010001N1+02211+01761101531ADDAA106000091GF102991021011008001001001KA1240M+03001MA1999999095351MD1999999-0051REMSYN088AAXX  13004 82795 32594 21406 10221 20176 39535 40153 82100 333 10300 29069 55103 59005;EQDQ01  00002PRCP06
0186827950999992004101312004-07217-035883FM-12+0560SBKG V0201401N003610075019N0100001N1+02461+01941101561ADDAA106000091GF106991061021008001001001KA1240N+01811MA1999999095391MD1999999-0131REMSYN076AAXX  13124 82795 32597 61407 10246 20194 39539 40156 86200 333 20181 59013;EQDQ01  00002PRCP06
0167827950999992004101318004-07217-035883FM-12+0560SBKG V0201401N004612200019N0100001N1+02831+01941101211ADDAA106000091GF103991031021008001001001MA1999999095061MD1999999-0031REMSYN070AAXX  13184 82795 32597 31409 10283 20194 39506 40121 83200 333 59003;EQDQ01  00002PRCP06
0186827950999992004101412004-07217-035883FM-12+0560SBKG V0201401N004110075019N0100001N1+02571+01941101551ADDAA106000091GF106991061021008001001001KA1240N+01951MA1999999095391MD1999999+0001REMSYN076AAXX  14124 82795 32597 61408 10257 20194 39539 40155 86200 333 20195 58000;EQDQ01  00002PRCP06
0167827950999992004101418004-07217-035883FM-12+0560SBKG V0201401N004612200019N0100001N1+02821+01971101181ADDAA106000091GF101991011011008001001001MA1999999095061MD1999999+0001REMSYN070AAXX  14184 82795 32597 11409 10282 20197 39506 40118 81100 333 58000;EQDQ01  00002PRCP06
0198827950999992004101500004-07217-035883FM-12+0560SBKG V0200901N005110075019N0010001N1+02141+02001101491ADDAA106000091GF105991051021008001001001KA1240M+03051MA1999999095331MD1999999-0041REMSYN088AAXX  15004 82795 32594 50910 10214 20200 39533 40149 85200 333 10305 29078 55099 59004;EQDQ01  00002PRCP06
0190827950999992004101612004-07220-035880FM-12+0548SBKG V0201401N003110075019N0100001N1+02081+01981101741ADDAY151061AY221061GF105991051051008001001001KA1240N+01931MA1999999095501MD1999999+0071MW1021REMSYN088AAXX  16124 82795 21597 51406 10208 20198 39550 40174 70252 85500 333 20193 58007 69934;
0167827950999992004101618004-07220-035880FM-12+0548SBKG V0201401N003112200019N0100001N1+02821+01861101181ADDAA106000091GF103991031021008001001001MA1999999095061MD1999999-0031REMSYN070AAXX  16184 82795 32597 31406 10282 20186 39506 40118 83200 333 59003;EQDQ01  00002PRCP06
0208827950999992004101700004-07220-035880FM-12+0548SBKG V0201401N003112200019N0010001N1+02031+01781101621ADDAA106000091GA1001+999999999GF100991001001999999001001KA1240M+02921MA1999999095381MD1999999-0041REMSYN082AAXX  17004 82795 32994 01406 10203 20178 39538 40162 333 10292 29080 55088 59004;EQDQ01  00002PRCP06
0186827950999992004101712004-07220-035880FM-12+0548SBKG V0201401N003612200019N0100001N1+02451+01611101581ADDAA106000091GF103991031021008001001001KA1240N+01811MA1999999095401MD1999999-0101REMSYN076AAXX  17124 82795 32597 31407 10245 20161 39540 40158 83200 333 20181 59010;EQDQ01  00002PRCP06
0208827950999992004101800004-07217-035883FM-12+0560SBKG V0201401N003612200019N0010001N1+02091+01741101441ADDAA106000091GA1001+999999999GF100991001001999999001001KA1240M+03021MA1999999095261MD1999999-0121REMSYN082AAXX  18004 82795 32994 01407 10209 20174 39526 40144 333 10302 29068 55111 59012;EQDQ01  00002PRCP06
0186827950999992004101812004-07217-035883FM-12+0560SBKG V0201401N004110075019N0100001N1+02461+02011101561ADDAA106000091GF106991061061008001001001KA1240N+01911MA1999999095381MD1999999-0021REMSYN076AAXX  18124 82795 32597 61408 10246 20201 39538 40156 86600 333 20191 59002;EQDQ01  00002PRCP06
0167827950999992004101818004-07217-035883FM-12+0560SBKG V0201401N005112200019N0100001N1+02941+02031101181ADDAA106000091GF101991011011008001001001MA1999999095061MD1999999+0111REMSYN070AAXX  18184 82795 32597 11410 10294 20203 39506 40118 81100 333 58011;EQDQ01  00002PRCP06
0198827950999992004101900004-07217-035883FM-12+0560SBKG V0200901N005112200019N0010001N1+02151+01991101541ADDAA106000091GF103991031021008001001001KA1240M+03011MA1999999095371MD1999999+0111REMSYN088AAXX  19004 82795 32594 30910 10215 20199 39537 40154 83200 333 10301 29078 55093 58011;EQDQ01  00002PRCP06
0186827950999992004101912004-07217-035883FM-12+0560SBKG V0201801N003110075019N0100001N1+02491+01921101511ADDAA106000091GF106991061021008001001001KA1240N+02031MA1999999095341MD1999999-0041REMSYN076AAXX  19124 82795 32597 61806 10249 20192 39534 40151 86200 333 20203 59004;EQDQ01  00002PRCP06
0167827950999992004101918004-07217-035883FM-12+0560SBKG V0201401N005112200019N0100001N1+02891+01771101191ADDAA106000091GF102991021021008001001001MA1999999095081MD1999999+0021REMSYN070AAXX  19184 82795 32597 21410 10289 20177 39508 40119 82200 333 58002;EQDQ01  00002PRCP06
0198827950999992004102000004-07217-035883FM-12+0560SBKG V0200901N004110075019N0010001N1+02141+01991101581ADDAA106000091GF106991061021008001001001KA1240M+03031MA1999999095411MD1999999+0041REMSYN088AAXX  20004 82795 32594 60908 10214 20199 39541 40158 86200 333 10303 29076 55097 58004;EQDQ01  00002PRCP06
0186827950999992004102012004-07217-035883FM-12+0560SBKG V0201401N003610075019N0100001N1+02561+01901101551ADDAA106000091GF106991061021008001001001KA1240N+01981MA1999999095391MD1999999+0051REMSYN076AAXX  20124 82795 32597 61407 10256 20190 39539 40155 86200 333 20198 58005;EQDQ01  00002PRCP06
0198827950999992004102100004-07217-035883FM-12+0560SBKG V0200901N004110075019N0100001N1+02181+02031101441ADDAA106000091GF105991051021008001001001KA1240M+03101MA1999999095291MD1999999-0121REMSYN088AAXX  21004 82795 32597 50908 10218 20203 39529 40144 85200 333 10310 29075 55100 59012;EQDQ01  00002PRCP06
0186827950999992004102112004-07217-035883FM-12+0560SBKG V0201401N003610075019N0100001N1+02491+01901101651ADDAA106000091GF106991061061008001001001KA1240N+01951MA1999999095471MD1999999+0081REMSYN076AAXX  21124 82795 32597 61407 10249 20190 39547 40165 86600 333 20195 58008;EQDQ01  00002PRCP06
0167827950999992004102118004-07217-035883FM-12+0560SBKG V0201401N004112200019N0100001N1+02921+01901101301ADDAA106000091GF103991031021008001001001MA1999999095181MD1999999+0121REMSYN070AAXX  21184 82795 32597 31408 10292 20190 39518 40130 83200 333 58012;EQDQ01  00002PRCP06
0186827950999992004102212004-07217-035883FM-12+0560SBKG V0201401N002110075019N0100001N1+02521+01961101561ADDAA106000091GF106991061021008001001001KA1240N+01931MA1999999095401MD1999999-0071REMSYN076AAXX  22124 82795 32597 61404 10252 20196 39540 40156 86200 333 20193 59007;EQDQ01  00002PRCP06
0167827950999992004102218004-07217-035883FM-12+0560SBKG V0201401N005712200019N0100001N1+02891+01941101121ADDAA106000091GF105991031021008001001011MA1999999095021MD1999999-0161REMSYN070AAXX  22184 82795 32597 51411 10289 20194 39502 40112 83201 333 59016;EQDQ01  00002PRCP06
0198827950999992004102300004-07217-035883FM-12+0560SBKG V0201401N003610075019N0010001N1+02201+02081101511ADDAA106000091GF106991061021008001001001KA1240M+03071MA1999999095351MD1999999-0041REMSYN088AAXX  23004 82795 32594 61407 10220 20208 39535 40151 86200 333 10307 29078 55093 59004;EQDQ01  00002PRCP06
0190827950999992004102312004-07217-035883FM-12+0560SBKG V0201401N002610075019N0100001N1+02361+02051101491ADDAY161061AY221061GF107991071071008001001001KA1240N+02011MA1999999095311MD1999999-0091MW1021REMSYN088AAXX  23124 82795 21597 71405 10236 20205 39531 40149 70262 87700 333 20201 59009 69914;
0167827950999992004102318004-07217-035883FM-12+0560SBKG V0201401N005110075019N0100001N1+02721+02051101081ADDAA106000091GF106991061021008001001001MA1999999094951MD1999999-0071REMSYN070AAXX  23184 82795 32597 61410 10272 20205 39495 40108 86200 333 59007;EQDQ01  00002PRCP06
0186827950999992004102412004-07217-035883FM-12+0560SBKG V0201401N003110075019N0100001N1+02391+01861101411ADDAA106000091GF106991061021008001001001KA1240N+01961MA1999999095231MD1999999-0081REMSYN076AAXX  24124 82795 32597 61406 10239 20186 39523 40141 86200 333 20196 59008;EQDQ01  00002PRCP06
0167827950999992004102418004-07217-035883FM-12+0560SBKG V0201401N003112200019N0100001N1+03021+01591100951ADDAA106000091GF102991021011008001001001MA1999999094871MD1999999-0081REMSYN070AAXX  24184 82795 32597 21406 10302 20159 39487 40095 82100 333 59008;EQDQ01  00002PRCP06
0208827950999992004102500004-07217-035883FM-12+0560SBKG V0200901N003612200019N0010001N1+02151+01901101321ADDAA106000091GA1001+999999999GF100991001001999999001001KA1240M+03071MA1999999095151MD1999999-0121REMSYN082AAXX  25004 82795 32994 00907 10215 20190 39515 40132 333 10307 29071 55086 59012;EQDQ01  00002PRCP06
0190827950999992004102512004-07217-035883FM-12+0560SBKG V0201801N004610075019N0100001N1+02311+02071101521ADDAY161061AY221061GF107991071071008001001001KA1240N+02001MA1999999095321MD1999999+0091MW1021REMSYN088AAXX  25124 82795 21597 71809 10231 20207 39532 40152 70262 87700 333 20200 58009 60034;
0167827950999992004102518004-07217-035883FM-12+0560SBKG V0200501N003110075019N0100001N1+02731+01951101061ADDAA106000091GF105991051041008001001001MA1999999094931MD1999999+0061REMSYN070AAXX  25184 82795 32597 50506 10273 20195 39493 40106 85400 333 58006;EQDQ01  00002PRCP06
0198827950999992004102600004-07217-035883FM-12+0560SBKG V0200901N003610075019N0010001N1+02111+01981101331ADDAA106000091GF105991051021008001001001KA1240M+02851MA1999999095151MD1999999+0001REMSYN088AAXX  26004 82795 32594 50907 10211 20198 39515 40133 85200 333 10285 29083 55084 58000;EQDQ01  00002PRCP06
0186827950999992004102612004-07217-035883FM-12+0560SBKG V0201401N003610075019N0100001N1+02401+01861101511ADDAA106000091GF106991061021008001001001KA1240N+01911MA1999999095331MD1999999+0011REMSYN076AAXX  26124 82795 32597 61407 10240 20186 39533 40151 86200 333 20191 58001;EQDQ01  00002PRCP06
0198827950999992004102700004-07217-035883FM-12+0560SBKG V0200901N004112200019N0010001N1+02171+02111101501ADDAA106000091GF104991041021008001001001KA1240M+03001MA1999999095321MD1999999+0171REMSYN088AAXX  27004 82795 32594 40908 10217 20211 39532 40150 84200 333 10300 29079 55100 58017;EQDQ01  00002PRCP06
0186827950999992004102712004-07217-035883FM-12+0560SBKG V0200901N003110075019N0100001N1+02571+02011101641ADDAA106000091GF106991061021008001001001KA1240N+02001MA1999999095481MD1999999+0151REMSYN076AAXX  27124 82795 32597 60906 10257 20201 39548 40164 86200 333 20200 58015;EQDQ01  00002PRCP06
0198827950999992004102800004-07217-035883FM-12+0560SBKG V0200901N004610075019N0010001N1+02211+02061101521ADDAA106000091GF105991051021008001001001KA1240M+03151MA1999999095381MD1999999+0061REMSYN088AAXX  28004 82795 32594 50909 10221 20206 39538 40152 85200 333 10315 29076 55097 58006;EQDQ01  00002PRCP06
0186827950999992004102812004-07217-035883FM-12+0560SBKG V0200901N004610075019N0100001N1+02561+01831101611ADDAA106000091GF106991061021008001001001KA1240N+01991MA1999999095451MD1999999+0031REMSYN076AAXX  28124 82795 32597 60909 10256 20183 39545 40161 86200 333 20199 58003;EQDQ01  00002PRCP06
0167827950999992004102818004-07217-035883FM-12+0560SBKG V0201401N004112200019N0100001N1+02971+01841101271ADDAA106000091GF102991021021008001001001MA1999999095181MD1999999+0021REMSYN070AAXX  28184 82795 32597 21408 10297 20184 39518 40127 82200 333 58002;EQDQ01  00002PRCP06
0198827950999992004102900004-07217-035883FM-12+0560SBKG V0200901N003610075019N0010001N1+02221+02031101521ADDAA106000091GF105991051021008001001001KA1240M+03121MA1999999095381MD1999999+0001REMSYN088AAXX  29004 82795 32594 50907 10222 20203 39538 40152 85200 333 10312 29073 55103 58000;EQDQ01  00002PRCP06
0186827950999992004102912004-07217-035883FM-12+0560SBKG V0200901N006210075019N0100001N1+02561+01901101571ADDAA106000091GF105991051021008001001001KA1240N+02031MA1999999095421MD1999999-0031REMSYN076AAXX  29124 82795 32597 50912 10256 20190 39542 40157 85200 333 20203 59003;EQDQ01  00002PRCP06
0167827950999992004102918004-07217-035883FM-12+0560SBKG V0201401N005112200019N0100001N1+02881+01831101191ADDAA106000091GF104991011021008001001011MA1999999095081MD1999999-0111REMSYN070AAXX  29184 82795 32597 41410 10288 20183 39508 40119 81201 333 59011;EQDQ01  00002PRCP06
0198827950999992004103000004-07217-035883FM-12+0560SBKG V0201401N003112200019N0010001N1+02191+02031101561ADDAA106000091GF102991021011008001001001KA1240M+03051MA1999999095401MD1999999+0021REMSYN088AAXX  30004 82795 32594 21406 10219 20203 39540 40156 82100 333 10305 29075 55103 58002;EQDQ01  00002PRCP06
0186827950999992004103012004-07217-035883FM-12+0560SBKG V0201401N005110075019N0100001N1+02531+01981101611ADDAA106000091GF106991061021008001001001KA1240N+02021MA1999999095451MD1999999+0031REMSYN076AAXX  30124 82795 32597 61410 10253 20198 39545 40161 86200 333 20202 58003;EQDQ01  00002PRCP06
0167827950999992004103018004-07217-035883FM-12+0560SBKG V0201401N005112200019N0100001N1+02941+01821101261ADDAA106000091GF104991041021008001001001MA1999999095141MD1999999+0061REMSYN070AAXX  30184 82795 32597 41410 10294 20182 39514 40126 84200 333 58006;EQDQ01  00002PRCP06
0198827950999992004103100004-07220-035880FM-12+0548SBKG V0201401N003112200019N0010001N1+02171+01951101621ADDAA106000091GF102991021021008001001001KA1240M+03011MA1999999095461MD1999999+0061REMSYN088AAXX  31004 82795 32594 21406 10217 20195 39546 40162 82200 333 10301 29074 55098 58006;EQDQ01  00002PRCP06
0167827950999992004103118004-07220-035880FM-12+0548SBKG V0201401N004110075019N0100001N1+02501+02031101421ADDAA106000091GF107991071051008001001001MA1999999095241MD1999999+0101REMSYN070AAXX  31184 82795 32597 71408 10250 20203 39524 40142 87500 333 58010;EQDQ01  00002PRCP06
0214827950999992004110100004-07220-035880FM-12+0548SBKG V0200901N003119999999N0010001N1+02121+01981101561ADDAA106000091GF105991999051008001001001KA1240M+02741MA1999999095381MD1999999-0081REMSYN088AAXX  01004 82795 32594 50906 10212 20198 39538 40156 83500 333 10274 29084 55024 59008;EQDQ01+000032SCOTLCQ02  00002PRCP06
0186827950999992004110112004-07220-035880FM-12+0548SBKG V0201401N004610075019N0100001N1+02481+01831101671ADDAA106000091GF106991061021008001001001KA1240N+01931MA1999999095491MD1999999+0031REMSYN076AAXX  01124 82795 32597 61409 10248 20183 39549 40167 86200 333 20193 58003;EQDQ01  00002PRCP06
0167827950999992004110118004-07220-035880FM-12+0548SBKG V0201401N004112200019N0100001N1+02951+01941101191ADDAA106000091GF103991031021008001001001MA1999999095081MD1999999-0171REMSYN070AAXX  01184 82795 32597 31408 10295 20194 39508 40119 83200 333 59017;EQDQ01  00002PRCP06
0198827950999992004110200004-07217-035883FM-12+0560SBKG V0200901N005110075019N0010001N1+02131+01971101511ADDAA106000091GF106991061021008001001001KA1240M+03081MA1999999095341MD1999999-0041REMSYN088AAXX  02004 82795 32594 60910 10213 20197 39534 40151 86200 333 10308 29075 55104 59004;EQDQ01  00002PRCP06
0186827950999992004110212004-07217-035883FM-12+0560SBKG V0201401N003610075019N0100001N1+02381+01841101531ADDAA106000091GF106991061021008001001001KA1240N+01851MA1999999095351MD1999999-0141REMSYN076AAXX  02124 82795 32597 61407 10238 20184 39535 40153 86200 333 20185 59014;EQDQ01  00002PRCP06
0183827950999992004110218004-07217-035883FM-12+0560SBKG V0201401N005112200019N0100001N1+02831+01881101161ADDAA106000091GF101991999021008001001001MA1999999095031MD1999999-0051REMSYN070AAXX  02184 82795 32597 11410 10283 20188 39503 40116 84200 333 59005;EQDQ01+000042SCOTLCQ02  00002PRCP06
0198827950999992004110300004-07217-035883FM-12+0560SBKG V0200901N004112200019N0010001N1+02151+01931101441ADDAA106000091GF103991031021008001001001KA1240M+03041MA1999999095261MD1999999-0081REMSYN088AAXX  03004 82795 32594 30908 10215 20193 39526 40144 83200 333 10304 29074 55100 59008;EQDQ01  00002PRCP06
0186827950999992004110312004-07217-035883FM-12+0560SBKG V0201401N006210075019N0100001N1+02531+01731101461ADDAA106000091GF105991051021008001001001KA1240N+01941MA1999999095311MD1999999-0041REMSYN076AAXX  03124 82795 32597 51412 10253 20173 39531 40146 85200 333 20194 59004;EQDQ01  00002PRCP06
0167827950999992004110318004-07217-035883FM-12+0560SBKG V0201401N006712200019N0100001N1+02791+01821101171ADDAA106000091GF103991031021008001001001MA1999999095061MD1999999+0031REMSYN070AAXX  03184 82795 32597 31413 10279 20182 39506 40117 83200 333 58003;EQDQ01  00002PRCP06
0198827950999992004110400004-07217-035883FM-12+0560SBKG V0201401N003612200019N0010001N1+02171+01921101521ADDAA106000091GF102991001001999999001011KA1240M+02961MA1999999095361MD1999999+0101REMSYN088AAXX  04004 82795 32994 21407 10217 20192 39536 40152 80001 333 10296 29072 55097 58010;EQDQ01  00002PRCP06
0186827950999992004110412004-07217-035883FM-12+0560SBKG V0201401N006712200019N0100001N1+02601+01791101461ADDAA106000091GF105991031021008001001011KA1240N+01931MA1999999095301MD1999999-0011REMSYN076AAXX  04124 82795 32597 51413 10260 20179 39530 40146 83201 333 20193 59001;EQDQ01  00002PRCP06
0167827950999992004110418004-07217-035883FM-12+0560SBKG V0201401N005112200019N0100001N1+02931+01801101091ADDAA106000091GF103991031021008001001001MA1999999094991MD1999999-0071REMSYN070AAXX  04184 82795 32597 31410 10293 20180 39499 40109 83200 333 59007;EQDQ01  00002PRCP06
0198827950999992004110500004-07217-035883FM-12+0560SBKG V0200901N003612200019N0010001N1+02211+02011101501ADDAA106000091GF102991021011008001001001KA1240M+03031MA1999999095361MD1999999+0001REMSYN088AAXX  05004 82795 32594 20907 10221 20201 39536 40150 82100 333 10303 29072 55111 58000;EQDQ01  00002PRCP06
0186827950999992004110512004-07217-035883FM-12+0560SBKG V0201401N003610075019N0100001N1+02511+01981101491ADDAA106000091GF106991061021008001001001KA1240N+01961MA1999999095331MD1999999+0031REMSYN076AAXX  05124 82795 32597 61407 10251 20198 39533 40149 86200 333 20196 58003;EQDQ01  00002PRCP06
0167827950999992004110518004-07217-035883FM-12+0560SBKG V0201401N006212200019N0100001N1+02941+01971101101ADDAA106000091GF103991031021008001001001MA1999999095001MD1999999+0011REMSYN070AAXX  05184 82795 32597 31412 10294 20197 39500 40110 83200 333 58001;EQDQ01  00002PRCP06
0198827950999992004110600004-07217-035883FM-12+0560SBKG V0200901N004110075019N0010001N1+02251+02051101421ADDAA106000091GF106991061021008001001001KA1240M+03131MA1999999095271MD1999999-0091REMSYN088AAXX  06004 82795 32594 60908 10225 20205 39527 40142 86200 333 10313 29076 55097 59009;EQDQ01  00002PRCP06
0186827950999992004110612004-07217-035883FM-12+0560SBKG V0201401N005112200019N0100001N1+02621+01961101451ADDAA106000091GF104991041021008001001001KA1240N+02001MA1999999095311MD1999999-0041REMSYN076AAXX  06124 82795 32597 41410 10262 20196 39531 40145 84200 333 20200 59004;EQDQ01  00002PRCP06
0167827950999992004110618004-07217-035883FM-12+0560SBKG V0201401N005112200019N0100001N1+03121+01821100971ADDAA106000091GF102991021021008001001001MA1999999094901MD1999999-0101REMSYN070AAXX  06184 82795 32597 21410 10312 20182 39490 40097 82200 333 59010;EQDQ01  00002PRCP06
0198827950999992004110700004-07217-035883FM-12+0560SBKG V0201401N005112200019N0010001N1+02321+02111101341ADDAA106000091GF104991041051008001001001KA1240M+03181MA1999999095221MD1999999-0051REMSYN088AAXX  07004 82795 32594 41410 10232 20211 39522 40134 84500 333 10318 29062 55104 59005;EQDQ01  00002PRCP06
0190827950999992004110712004-07217-035883FM-12+0560SBKG V0201401N003110075019N0100001N1+02391+02131101431ADDAY161061AY201061GF107991061031008001021001KA1240N+02031MA1999999095281MD1999999-0031MW1021REMSYN088AAXX  07124 82795 21597 71406 10239 20213 39528 40143 70260 86320 333 20203 59003 60044;
0167827950999992004110718004-07217-035883FM-12+0560SBKG V0201401N004612200019N0100001N1+02931+02051101071ADDAA106000091GF104991041031008001001001MA1999999094981MD1999999+0081REMSYN070AAXX  07184 82795 32597 41409 10293 20205 39498 40107 84300 333 58008;EQDQ01  00002PRCP06
0198827950999992004110800004-07220-035880FM-12+0548SBKG V0201401N003112200019N0010001N1+02181+02081101481ADDAA106000091GF104991041041008001001001KA1240M+03101MA1999999095301MD1999999+0081REMSYN088AAXX  08004 82795 32594 41406 10218 20208 39530 40148 84400 333 10310 29084 55079 58008;EQDQ01  00002PRCP06
0186827950999992004110812004-07220-035880FM-12+0548SBKG V0201401N005110075019N0100001N1+02571+01971101461ADDAA106000091GF106991061021008001001001KA1240N+01931MA1999999095311MD1999999+0031REMSYN076AAXX  08124 82795 32597 61410 10257 20197 39531 40146 86200 333 20193 58003;EQDQ01  00002PRCP06
0167827950999992004110818004-07220-035880FM-12+0548SBKG V0201401N005112200019N0100001N1+02931+01771101081ADDAA106000091GF102991021021008001001001MA1999999094981MD1999999+0001REMSYN070AAXX  08184 82795 32597 21410 10293 20177 39498 40108 82200 333 58000;EQDQ01  00002PRCP06
0198827950999992004110900004-07217-035883FM-12+0560SBKG V0201401N003112200019N0010001N1+02221+02011101471ADDAA106000091GF102991021021008001001001KA1240M+03071MA1999999095331MD1999999+0031REMSYN088AAXX  09004 82795 32594 21406 10222 20201 39533 40147 82200 333 10307 29074 55099 58003;EQDQ01  00002PRCP06
0186827950999992004110912004-07217-035883FM-12+0560SBKG V0201401N005110075019N0100001N1+02551+01881101521ADDAA106000091GF106991061021008001001001KA1240N+01931MA1999999095361MD1999999+0051REMSYN076AAXX  09124 82795 32597 61410 10255 20188 39536 40152 86200 333 20193 58005;EQDQ01  00002PRCP06
0167827950999992004110918004-07217-035883FM-12+0560SBKG V0201401N003112200019N0100001N1+02981+01731101081ADDAA106000091GF104991041021008001001001MA1999999094941MD1999999-0041REMSYN070AAXX  09184 82795 32597 41406 10298 20173 39494 40108 84200 333 59004;EQDQ01  00002PRCP06
0186827950999992004111012004-07217-035883FM-12+0560SBKG V0201401N003610075019N0100001N1+02591+01941101491ADDAA106000091GF105991051021008001001001KA1240N+01881MA1999999095351MD1999999-0011REMSYN076AAXX  10124 82795 32597 51407 10259 20194 39535 40149 85200 333 20188 59001;EQDQ01  00002PRCP06
0167827950999992004111018004-07217-035883FM-12+0560SBKG V0200901N004612200019N0100001N1+02911+01841101141ADDAA106000091GF104991021021008001001011MA1999999095011MD1999999+0071REMSYN070AAXX  10184 82795 32597 40909 10291 20184 39501 40114 82201 333 58007;EQDQ01  00002PRCP06
0198827950999992004111100004-07217-035883FM-12+0560SBKG V0200901N003112200019N0010001N1+02211+01991101491ADDAA106000091GF102991021011008001001001KA1240M+03051MA1999999095351MD1999999-0011REMSYN088AAXX  11004 82795 32594 20906 10221 20199 39535 40149 82100 333 10305 29074 55107 59001;EQDQ01  00002PRCP06
0186827950999992004111112004-07217-035883FM-12+0560SBKG V0201401N003612200019N0100001N1+02631+01861101471ADDAA106000091GF104991041011008001001001KA1240N+01951MA1999999095331MD1999999-0021REMSYN076AAXX  11124 82795 32597 41407 10263 20186 39533 40147 84100 333 20195 59002;EQDQ01  00002PRCP06
0167827950999992004111118004-07217-035883FM-12+0560SBKG V0201401N000512200019N0100001N1+03011+01811101001ADDAA106000091GF102991021021008001001001MA1999999094921MD1999999-0091REMSYN070AAXX  11184 82795 32597 21401 10301 20181 39492 40100 82200 333 59009;EQDQ01  00002PRCP06
0198827950999992004111200004-07217-035883FM-12+0560SBKG V0200901N003612200019N0010001N1+02251+02031101301ADDAA106000091GF101991011011008001001001KA1240M+03111MA1999999095181MD1999999-0171REMSYN088AAXX  12004 82795 32594 10907 10225 20203 39518 40130 81100 333 10311 29072 55103 59017;EQDQ01  00002PRCP06
0186827950999992004111212004-07217-035883FM-12+0560SBKG V0201401N004610075019N0100001N1+02511+01931101321ADDAA106000091GF107991071071008001001001KA1240N+01991MA1999999095181MD1999999-0151REMSYN076AAXX  12124 82795 32597 71409 10251 20193 39518 40132 87700 333 20199 59015;EQDQ01  00002PRCP06
0167827950999992004111218004-07220-035880FM-12+0548SBKG V0200501N003110450019N0100001N1+02631+02181101081ADDAA106000091GF107991041081008001021001MA1999999094941MD1999999+0021REMSYN070AAXX  12184 82795 32597 70506 10263 20218 39494 40108 84820 333 58002;EQDQ01  00002PRCP06
0202827950999992004111300004-07220-035880FM-12+0548SBKG V0200901N001510075019N0010001N1+02201+02121101331ADDAY161061AY221061GF106991051021008001041001KA1240M+02931MA1999999095191MD1999999+0011MW1011REMSYN100AAXX  13004 82795 21594 60903 10220 20212 39519 40133 70162 85240 333 10293 29084 55049 58001 69901;
0190827950999992004111312004-07220-035880FM-12+0548SBKG V0200901N004610075019N0100001N1+02171+02111101351ADDAY161061AY221061GF106991061061008001001001KA1240N+02031MA1999999095151MD1999999-0031MW1021REMSYN088AAXX  13124 82795 21597 60909 10217 20211 39515 40135 70262 86600 333 20203 59003 69914;
0167827950999992004111318004-07220-035880FM-12+0548SBKG V0201401N006212200019N0100001N1+02961+02151100981ADDAA106000091GF104991041011008001001001MA1999999094901MD1999999-0041REMSYN070AAXX  13184 82795 32597 41412 10296 20215 39490 40098 84100 333 59004;EQDQ01  00002PRCP06
0198827950999992004111400004-07217-035883FM-12+0560SBKG V0200901N003110075019N0010001N1+02191+02061101361ADDAA106000091GF106991061021008001001001KA1240M+03061MA1999999095201MD1999999+0011REMSYN088AAXX  14004 82795 32594 60906 10219 20206 39520 40136 86200 333 10306 29082 55086 58001;EQDQ01  00002PRCP06
0186827950999992004111412004-07217-035883FM-12+0560SBKG V0200901N004610075019N0100001N1+02481+02051101431ADDAA106000091GF106991061021008001001001KA1240N+02041MA1999999095271MD1999999+0121REMSYN076AAXX  14124 82795 32597 60909 10248 20205 39527 40143 86200 333 20204 58012;EQDQ01  00002PRCP06
0198827950999992004111500004-07217-035883FM-12+0560SBKG V0201401N004112200019N0010001N1+02261+01981101441ADDAA106000091GF103991011011008001041001KA1240M+03111MA1999999095291MD1999999+0091REMSYN088AAXX  15004 82795 32594 31408 10226 20198 39529 40144 81140 333 10311 29074 55096 58009;EQDQ01  00002PRCP06
0186827950999992004111512004-07217-035883FM-12+0560SBKG V0201401N006210075019N0100001N1+02511+01891101461ADDAA106000091GF106991061021008001001001KA1240N+01931MA1999999095311MD1999999+0041REMSYN076AAXX  15124 82795 32597 61412 10251 20189 39531 40146 86200 333 20193 58004;EQDQ01  00002PRCP06
0167827950999992004111518004-07217-035883FM-12+0560SBKG V0201401N004112200019N0100001N1+02881+01701101141ADDAA106000091GF104991011011008001001011MA1999999095021MD1999999+0091REMSYN070AAXX  15184 82795 32597 41408 10288 20170 39502 40114 81101 333 58009;EQDQ01  00002PRCP06
0208827950999992004111600004-07217-035883FM-12+0560SBKG V0200901N003612200019N0010001N1+02181+01991101511ADDAA106000091GA1001+999999999GF100991001001999999001001KA1240M+03021MA1999999095351MD1999999+0061REMSYN082AAXX  16004 82795 32994 00907 10218 20199 39535 40151 333 10302 29074 55102 58006;EQDQ01  00002PRCP06
0186827950999992004111612004-07217-035883FM-12+0560SBKG V0201401N004110075019N0100001N1+02431+01841101601ADDAA106000091GF106991061021008001001001KA1240N+01911MA1999999095421MD1999999+0111REMSYN076AAXX  16124 82795 32597 61408 10243 20184 39542 40160 86200 333 20191 58011;EQDQ01  00002PRCP06
0091827950999992004111621004-07217-035883FM-15+0560SBKG V0201201N00511220001CN0099001N1+02601+01801999999ADDMA1101391999999MW1001REMMET039SBKG 162100Z 12010KT CAVOK 26/18 Q1014;EQDQ01+000000PRSWM2
0186827950999992004111712004-07217-035883FM-12+0560SBKG V0201401N003612200019N0100001N1+02421+01861101631ADDAA106000091GF104991041021008001001001KA1240N+01811MA1999999095451MD1999999+0031REMSYN076AAXX  17124 82795 32597 41407 10242 20186 39545 40163 84200 333 20181 58003;EQDQ01  00002PRCP06
0167827950999992004111718004-07217-035883FM-12+0560SBKG V0201401N003111050019N0100001N1+03051+01881101231ADDAA106000091GF105991031041008001001021MA1999999095111MD1999999-0041REMSYN070AAXX  17184 82795 32597 51406 10305 20188 39511 40123 83402 333 59004;EQDQ01  00002PRCP06
0198827950999992004111800004-07217-035883FM-12+0560SBKG V0200501N003612200019N0010001N1+02261+01981101581ADDAA106000091GF102991001001999999001021KA1240M+03111MA1999999095421MD1999999+0031REMSYN088AAXX  18004 82795 32994 20507 10226 20198 39542 40158 80002 333 10311 29072 55106 58003;EQDQ01  00002PRCP06
0186827950999992004111812004-07217-035883FM-12+0560SBKG V0200501N003610075019N0100001N1+02531+01961101591ADDAA106000091GF105991051021008001001001KA1240N+01991MA1999999095441MD1999999-0011REMSYN076AAXX  18124 82795 32597 50507 10253 20196 39544 40159 85200 333 20199 59001;EQDQ01  00002PRCP06
0167827950999992004111818004-07217-035883FM-12+0560SBKG V0200501N005112200019N0100001N1+02961+01931101161ADDAA106000091GF102991021021008001001001MA1999999095051MD1999999-0061REMSYN070AAXX  18184 82795 32597 20510 10296 20193 39505 40116 82200 333 59006;EQDQ01  00002PRCP06
0198827950999992004112100004-07220-035880FM-12+0548SBKG V0200501N004110075019N0010001N1+02261+01981101281ADDAA106000091GF105991051021008001001001KA1240M+03041MA1999999095141MD1999999-0071REMSYN088AAXX  21004 82795 32594 50508 10226 20198 39514 40128 85200 333 10304 29071 55124 59007;EQDQ01  00002PRCP06
0186827950999992004112112004-07220-035880FM-12+0548SBKG V0200501N003610075019N0100001N1+02591+01991101511ADDAA106000091GF106991061061008001001001KA1240N+02031MA1999999095371MD1999999+0041REMSYN076AAXX  21124 82795 32597 60507 10259 20199 39537 40151 86600 333 20203 58004;EQDQ01  00002PRCP06
0167827950999992004112118004-07220-035880FM-12+0548SBKG V0200901N002611050019N0100001N1+02941+02291101151ADDAA106000091GF106991041021008001001051MA1999999095051MD1999999+0101REMSYN070AAXX  21184 82795 32597 60905 10294 20229 39505 40115 84205 333 58010;EQDQ01  00002PRCP06
0198827950999992004112200004-07217-035883FM-12+0560SBKG V0200901N004111050019N0010001N1+02211+02011101441ADDAA106000091GF106991031021008001001051KA1240M+03031MA1999999095301MD1999999+0161REMSYN088AAXX  22004 82795 32594 60908 10221 20201 39530 40144 83205 333 10303 29079 55068 58016;EQDQ01  00002PRCP06
0186827950999992004112212004-07217-035883FM-12+0560SBKG V0200501N004611050019N0100001N1+02401+02051101581ADDAA106000091GF106991031021008001001031KA1240N+02041MA1999999095411MD1999999+0041REMSYN076AAXX  22124 82795 32597 60509 10240 20205 39541 40158 83203 333 20204 58004;EQDQ01  00002PRCP06
0198827950999992004112300004-07217-035883FM-12+0560SBKG V0200901N004612200019N0010001N1+02231+02051101461ADDAA106000091GF104991021021008001031001KA1240M+03081MA1999999095301MD1999999+0001REMSYN088AAXX  23004 82795 32594 40909 10223 20205 39530 40146 82230 333 10308 29078 55074 58000;EQDQ01  00002PRCP06
0186827950999992004112312004-07217-035883FM-12+0560SBKG V0200901N003610075019N0100001N1+02461+01921101621ADDAA106000091GF106991061021008001001001KA1240N+01991MA1999999095461MD1999999+0051REMSYN076AAXX  23124 82795 32597 60907 10246 20192 39546 40162 86200 333 20199 58005;EQDQ01  00002PRCP06
0167827950999992004112318004-07217-035883FM-12+0560SBKG V0200901N002612200019N0100001N1+03101+02031101121ADDAA106000091GF102991021011008001001001MA1999999095021MD1999999+0051REMSYN070AAXX  23184 82795 32597 20905 10310 20203 39502 40112 82100 333 58005;EQDQ01  00002PRCP06
0198827950999992004112400004-07217-035883FM-12+0560SBKG V0200901N003612200019N0010001N1+02241+02031101501ADDAA106000091GF103991031021008001001001KA1240M+03141MA1999999095341MD1999999+0041REMSYN088AAXX  24004 82795 32594 30907 10224 20203 39534 40150 83200 333 10314 29075 55082 58004;EQDQ01  00002PRCP06
0167827950999992004112418004-07217-035883FM-12+0560SBKG V0201401N006212200019N0100001N1+02921+02041101061ADDAA106000091GF103991031031008001001001MA1999999094961MD1999999-0061REMSYN070AAXX  24184 82795 32597 31412 10292 20204 39496 40106 83300 333 59006;EQDQ01  00002PRCP06
0198827950999992004112500004-07217-035883FM-12+0560SBKG V0200901N003612200019N0010001N1+02251+02091101381ADDAA106000091GF102991021011008001001001KA1240M+03051MA1999999095241MD1999999-0101REMSYN088AAXX  25004 82795 32594 20907 10225 20209 39524 40138 82100 333 10305 29078 55093 59010;EQDQ01  00002PRCP06
0167827950999992004112518004-07217-035883FM-12+0560SBKG V0201401N003611050019N0100001N1+02971+01681101011ADDAA106000091GF106991031031008001001021MA1999999094961MD1999999-0031REMSYN070AAXX  25184 82795 32597 61407 10297 20168 39496 40101 83302 333 59003;EQDQ01  00002PRCP06
0198827950999992004112600004-07217-035883FM-12+0560SBKG V0200901N004110075019N0010001N1+02261+02031101311ADDAA106000091GF106991061021008001001001KA1240M+03031MA1999999095171MD1999999-0071REMSYN088AAXX  26004 82795 32594 60908 10226 20203 39517 40131 86200 333 10303 29075 55074 59007;EQDQ01  00002PRCP06
0186827950999992004112612004-07217-035883FM-12+0560SBKG V0201401N002610075019N0100001N1+02551+01931101311ADDAA106000091GF105991051011008001001001KA1240N+01961MA1999999095261MD1999999-0071REMSYN076AAXX  26124 82795 32597 51405 10255 20193 39526 40131 85100 333 20196 59007;EQDQ01  00002PRCP06
0167827950999992004112618004-07217-035883FM-12+0560SBKG V0200101N003112200019N0100001N1+03051+01751101001ADDAA106000091GF102991021011008001001001MA1999999094911MD1999999-0041REMSYN070AAXX  26184 82795 32597 20106 10305 20175 39491 40100 82100 333 59004;EQDQ01  00002PRCP06
0198827950999992004112700004-07217-035883FM-12+0560SBKG V0200901N004612200019N0010001N1+02221+01901101251ADDAA106000091GF102991021001012501041001KA1240M+03061MA1999999095111MD1999999-0061REMSYN088AAXX  27004 82795 32694 20909 10222 20190 39511 40125 82040 333 10306 29070 55109 59006;EQDQ01  00002PRCP06
0186827950999992004112712004-07217-035883FM-12+0560SBKG V0201401N003612200019N0100001N1+02431+01911101421ADDAA106000091GF103991031041008001001001KA1240N+01971MA1999999095261MD1999999+0001REMSYN076AAXX  27124 82795 32597 31407 10243 20191 39526 40142 83400 333 20197 58000;EQDQ01  00002PRCP06
0167827950999992004112718004-07217-035883FM-12+0560SBKG V0201401N004610075019N0100001N1+02991+02011101421ADDAA106000091GF105991051031008001001001MA1999999095261MD1999999-0021REMSYN070AAXX  27184 82795 32597 51409 10299 20201 39526 40142 85300 333 59002;EQDQ01  00002PRCP06
0198827950999992004112800004-07217-035883FM-12+0560SBKG V0200501N003112200019N0010001N1+02201+02051101241ADDAA106000091GF102991021021008001001001KA1240M+03031MA1999999095101MD1999999-0021REMSYN088AAXX  28004 82795 32594 20506 10220 20205 39510 40124 82200 333 10303 29077 55106 59002;EQDQ01  00002PRCP06
0186827950999992004112812004-07217-035883FM-12+0560SBKG V0200901N003610450019N0100001N1+02451+02051101391ADDAA106000091GF105991021031008001021001KA1240N+02051MA1999999095231MD1999999-0031REMSYN076AAXX  28124 82795 32597 50907 10245 20205 39523 40139 82320 333 20205 59003;EQDQ01  00002PRCP06
0167827950999992004112818004-07217-035883FM-12+0560SBKG V0200501N003612200019N0100001N1+03101+02091100911ADDAA106000091GF104991041031008001001001MA1999999095431MD1999999-0071REMSYN070AAXX  28184 82795 32597 40507 10310 20209 39543 40091 84300 333 59007;EQDQ01  00002PRCP06
0198827950999992004112900004-07217-035883FM-12+0560SBKG V0200901N003612200019N0010001N1+02231+02031101241ADDAA106000091GF103991031011008001001001KA1240M+03181MA1999999095131MD1999999+0041REMSYN088AAXX  29004 82795 32594 30907 10223 20203 39513 40124 83100 333 10318 29078 55091 58004;EQDQ01  00002PRCP06
0190827950999992004112912004-07217-035883FM-12+0560SBKG V0200901N003610075019N0100001N1+02431+02151101421ADDAY161061AY221061GF106991061071008001001001KA1240N+02071MA1999999095261MD1999999+0031MW1021REMSYN088AAXX  29124 82795 21597 60907 10243 20215 39526 40142 70262 86700 333 20207 58003 60044;
0167827950999992004112918004-07217-035883FM-12+0560SBKG V0201401N003612200019N0100001N1+03031+02181100931ADDAA106000091GF104991041021008001001001MA1999999094951MD1999999+0021REMSYN070AAXX  29184 82795 32597 41407 10303 20218 39495 40093 84200 333 58002;EQDQ01  00002PRCP06
0198827950999992004113000004-07217-035883FM-12+0560SBKG V0200901N004110075019N0010001N1+02281+02131101251ADDAA106000091GF105991051021008001001001KA1240M+03131MA1999999095111MD1999999-0011REMSYN088AAXX  30004 82795 32594 50908 10228 20213 39511 40125 85200 333 10313 29082 55084 59001;EQDQ01  00002PRCP06
0186827950999992004113012004-07217-035883FM-12+0560SBKG V0200901N003610075019N0100001N1+02491+01981101351ADDAA106000091GF106991061021008001001001KA1240N+02051MA1999999095211MD1999999-0051REMSYN076AAXX  30124 82795 32597 60907 10249 20198 39521 40135 86200 333 20205 59005;EQDQ01  00002PRCP06
0186827950999992004120112004-07217-035883FM-12+0560SBKG V0200901N004110075019N0100001N1+02441+01881101351ADDAA106000091GF105991051021008001001001KA1240N+01931MA1999999095211MD1999999+0001REMSYN076AAXX  01124 82795 32597 50908 10244 20188 39521 40135 85200 333 20193 58000;EQDQ01  00002PRCP06
0198827950999992004120200004-07217-035883FM-12+0560SBKG V0200901N003612200019N0010001N1+02251+02071101251ADDAA106000091GF104991021021008001001021KA1240M+03081MA1999999095111MD1999999-0071REMSYN088AAXX  02004 82795 32594 40907 10225 20207 39511 40125 82202 333 10308 29076 55095 59007;EQDQ01  00002PRCP06
0186827950999992004120212004-07217-035883FM-12+0560SBKG V0201401N003610075019N0100001N1+02471+02031101371ADDAA106000091GF107991071071008001001001KA1240N+01931MA1999999095221MD1999999+0011REMSYN076AAXX  02124 82795 32597 71407 10247 20203 39522 40137 87700 333 20193 58001;EQDQ01  00002PRCP06
0167827950999992004120218004-07217-035883FM-12+0560SBKG V0201401N003611050019N0100001N1+03061+01961100991ADDAA106000091GF105991031021008001001031MA1999999094911MD1999999+0071REMSYN070AAXX  02184 82795 32597 51407 10306 20196 39491 40099 83203 333 58007;EQDQ01  00002PRCP06
0208827950999992004120300004-07217-035883FM-12+0560SBKG V0200901N002612200019N0010001N1+02331+01981101371ADDAA106000091GA1001+999999999GF100991001001999999001001KA1240M+03131MA1999999095231MD1999999+0121REMSYN082AAXX  03004 82795 32994 00905 10233 20198 39523 40137 333 10313 29072 55090 58012;EQDQ01  00002PRCP06
0186827950999992004120312004-07217-035883FM-12+0560SBKG V0201401N003610075019N0100001N1+02541+02001101421ADDAA106000091GF106991061021008001001001KA1240N+02081MA1999999095281MD1999999+0061REMSYN076AAXX  03124 82795 32597 61407 10254 20200 39528 40142 86200 333 20208 58006;EQDQ01  00002PRCP06
0167827950999992004120318004-07217-035883FM-12+0560SBKG V0201401N003112200019N0100001N1+02931+02091101091ADDAA106000091GF105991021021008001001011MA1999999095001MD1999999+0091REMSYN070AAXX  03184 82795 32597 51406 10293 20209 39500 40109 82201 333 58009;EQDQ01  00002PRCP06
0198827950999992004120400004-07217-035883FM-12+0560SBKG V0200901N003110075019N0010001N1+02321+02091101461ADDAA106000091GF106991061021008001001001KA1240M+03071MA1999999095321MD1999999+0091REMSYN088AAXX  04004 82795 32594 60906 10232 20209 39532 40146 86200 333 10307 29077 55083 58009;EQDQ01  00002PRCP06
0190827950999992004120412004-07217-035883FM-12+0560SBKG V0201401N003610075019N0100001N1+02351+02091101681ADDAY161061AY221061GF107991071071008001999999KA1240N+02031MA1999999095501MD1999999+0221MW1021REMSYN088AAXX  04124 82795 21597 71407 10235 20209 39550 40168 70262 877// 333 20203 58022 60024;
0198827950999992004120500004-07217-035883FM-12+0560SBKG V0201401N003610075019N0010001N1+02251+02071101621ADDAA106000091GF105991051021008001001001KA1240M+03311MA1999999095431MD1999999+0111REMSYN088AAXX  05004 82795 32594 51407 10225 20207 39543 40162 85200 333 10331 29078 55054 58011;EQDQ01  00002PRCP06
0162827950999992004120512004-07217-035883FM-12+0560SBKG V0201401N004610075019N0100001N1+02511+01961101531ADDGF105991051021008001001001KA1240N+01861MA1999999095371MD1999999-0131REMSYN082AAXX  05124 82795 22597 51409 10251 20196 39537 40153 85200 333 20186 59013 60014;
0167827950999992004120518004-07217-035883FM-12+0560SBKG V0201401N004112200019N0100001N1+03061+01871101121ADDAA106000091GF103991031021008001001001MA1999999095021MD1999999-0151REMSYN070AAXX  05184 82795 32597 31408 10306 20187 39502 40112 83200 333 59015;EQDQ01  00002PRCP06
0208827950999992004120600004-07220-035880FM-12+0548SBKG V0200901N004612200019N0010001N1+02251+02031101431ADDAA106000091GA1001+999999999GF100991001001999999001001KA1240M+03171MA1999999095281MD1999999-0151REMSYN082AAXX  06004 82795 32994 00909 10225 20203 39528 40143 333 10317 29074 55105 59015;EQDQ01  00002PRCP06
0186827950999992004120612004-07220-035880FM-12+0548SBKG V0201401N004610075019N0100001N1+02501+01941101441ADDAA106000091GF106991061021008001001001KA1240N+01931MA1999999095291MD1999999-0081REMSYN076AAXX  06124 82795 32597 61409 10250 20194 39529 40144 86200 333 20193 59008;EQDQ01  00002PRCP06
0167827950999992004120618004-07220-035880FM-12+0548SBKG V0201401N003612200019N0100001N1+02921+01921101101ADDAA106000091GF102991021011008001001001MA1999999094981MD1999999-0041REMSYN070AAXX  06184 82795 32597 21407 10292 20192 39498 40110 82100 333 59004;EQDQ01  00002PRCP06
0198827950999992004120700004-07217-035883FM-12+0560SBKG V0200901N005110075019N0010001N1+02301+02111101331ADDAA106000091GF106991061021008001001001KA1240M+03161MA1999999095201MD1999999-0081REMSYN088AAXX  07004 82795 32594 60910 10230 20211 39520 40133 86200 333 10316 29076 55110 59008;EQDQ01  00002PRCP06
0186827950999992004120712004-07217-035883FM-12+0560SBKG V0201401N003110075019N0100001N1+02411+01951101491ADDAA106000091GF106991061021008001001001KA1240N+01951MA1999999095331MD1999999+0041REMSYN076AAXX  07124 82795 32597 61406 10241 20195 39533 40149 86200 333 20195 58004;EQDQ01  00002PRCP06
0167827950999992004120718004-07217-035883FM-12+0560SBKG V0201401N003610075019N0100001N1+03061+01901101041ADDAA106000091GF105991051011008001001001MA1999999094951MD1999999-0031REMSYN070AAXX  07184 82795 32597 51407 10306 20190 39495 40104 85100 333 59003;EQDQ01  00002PRCP06
0198827950999992004120800004-07217-035883FM-12+0560SBKG V0200901N004612200019N0010001N1+02291+02071101401ADDAA106000091GF102991021011008001001001KA1240M+03161MA1999999095251MD1999999+0051REMSYN088AAXX  08004 82795 32594 20909 10229 20207 39525 40140 82100 333 10316 29076 55096 58005;EQDQ01  00002PRCP06
0186827950999992004120812004-07217-035883FM-12+0560SBKG V0200901N004610075019N0100001N1+02451+01921101551ADDAA106000091GF106991061021008001001001KA1240N+02031MA1999999095391MD1999999+0061REMSYN076AAXX  08124 82795 32597 60909 10245 20192 39539 40155 86200 333 20203 58006;EQDQ01  00002PRCP06
0198827950999992004120900004-07217-035883FM-12+0560SBKG V0200901N004612200019N0010001N1+02271+02011101351ADDAA106000091GF101991011011008001001001KA1240M+03131MA1999999095211MD1999999-0041REMSYN088AAXX  09004 82795 32594 10909 10227 20201 39521 40135 81100 333 10313 29075 55094 59004;EQDQ01  00002PRCP06
0186827950999992004120912004-07217-035883FM-12+0560SBKG V0201401N003610075019N0100001N1+02551+01901101381ADDAA106000091GF105991051021008001001001KA1240N+02061MA1999999095241MD1999999-0151REMSYN076AAXX  09124 82795 32597 51407 10255 20190 39524 40138 85200 333 20206 59015;EQDQ01  00002PRCP06
0198827950999992004121000004-07217-035883FM-12+0560SBKG V0200901N004610075019N0010001N1+02221+02031101301ADDAA106000091GF105991051021008001001001KA1240M+03141MA1999999095161MD1999999-0051REMSYN088AAXX  10004 82795 32594 50909 10222 20203 39516 40130 85200 333 10314 29075 55102 59005;EQDQ01  00002PRCP06
0186827950999992004121012004-07217-035883FM-12+0560SBKG V0200901N004610075019N0100001N1+02491+01941101311ADDAA106000091GF105991051021008001001001KA1240N+01991MA1999999095171MD1999999-0071REMSYN076AAXX  10124 82795 32597 50909 10249 20194 39517 40131 85200 333 20199 59007;EQDQ01  00002PRCP06
0198827950999992004121100004-07217-035883FM-12+0560SBKG V0200901N004112200019N0010001N1+02241+02051101181ADDAA106000091GF101991011011008001001001KA1240M+03071MA1999999095041MD1999999-0121REMSYN088AAXX  11004 82795 32594 10908 10224 20205 39504 40118 81100 333 10307 29077 55097 59012;EQDQ01  00002PRCP06
0186827950999992004121112004-07217-035883FM-12+0560SBKG V0200501N004612200019N0100001N1+02541+01931101401ADDAA106000091GF104991041011008001001001KA1240N+02031MA1999999095261MD1999999+0091REMSYN076AAXX  11124 82795 32597 40509 10254 20193 39526 40140 84100 333 20203 58009;EQDQ01  00002PRCP06
0198827950999992004121200004-07220-035880FM-12+0548SBKG V0200901N003610075019N0010001N1+02361+02151101131ADDAA106000091GF105991051021008001001001KA1240M+03231MA1999999094951MD1999999-0091REMSYN088AAXX  12004 82795 32594 50907 10236 20215 39495 40113 85200 333 10323 29074 55096 59009;EQDQ01  00002PRCP06
0198827950999992004121300004-07217-035883FM-12+0560SBKG V0200901N004610075019N0010001N1+02271+02011101391ADDAA106000091GF105991051021008001001001KA1240M+03191MA1999999095251MD1999999+0301REMSYN088AAXX  13004 82795 32594 50909 10227 20201 39525 40139 85200 333 10319 29074 55102 58030;EQDQ01  00002PRCP06
0186827950999992004121312004-07217-035883FM-12+0560SBKG V0200901N003610075019N0100001N1+02431+02031101541ADDAA106000091GF106991061061008001001001KA1240N+02061MA1999999095381MD1999999+0091REMSYN076AAXX  13124 82795 32597 60907 10243 20203 39538 40154 86600 333 20206 58009;EQDQ01  00002PRCP06
0167827950999992004121318004-07217-035883FM-12+0560SBKG V0201401N004112200019N0100001N1+03071+02021101111ADDAA106000091GF104991041021008001001001MA1999999095031MD1999999+0101REMSYN070AAXX  13184 82795 32597 41408 10307 20202 39503 40111 84200 333 58010;EQDQ01  00002PRCP06
0186827950999992004121412004-07217-035883FM-12+0560SBKG V0201401N004110075019N0100001N1+02481+02091101541ADDAA106000091GF106991061021008001001001KA1240N+02061MA1999999095381MD1999999+0001REMSYN076AAXX  14124 82795 32597 61408 10248 20209 39538 40154 86200 333 20206 58000;EQDQ01  00002PRCP06
0167827950999992004121418004-07217-035883FM-12+0560SBKG V0201401N004610075019N0100001N1+02891+01941101141ADDAA106000091GF105991051011008001001001MA1999999095041MD1999999+0011REMSYN070AAXX  14184 82795 32597 51409 10289 20194 39504 40114 85100 333 58001;EQDQ01  00002PRCP06
0198827950999992004121500004-07217-035883FM-12+0560SBKG V0200901N004610075019N0010001N1+02281+02011101421ADDAA106000091GF105991051021008001001001KA1240M+03101MA1999999095271MD1999999-0021REMSYN088AAXX  15004 82795 32594 50909 10228 20201 39527 40142 85200 333 10310 29076 55085 59002;EQDQ01  00002PRCP06
0190827950999992004121512004-07217-035883FM-12+0560SBKG V0201401N004110075019N0100001N1+02441+02051101511ADDAY161061AY221061GF107991061021008001041001KA1240N+02021MA1999999095351MD1999999-0031MW1021REMSYN088AAXX  15124 82795 21597 71408 10244 20205 39535 40151 70262 86240 333 20202 59003 69901;
0167827950999992004121518004-07217-035883FM-12+0560SBKG V0200901N003612200019N0100001N1+03011+01921101061ADDAA106000091GF104991011011008001001021MA1999999094981MD1999999-0041REMSYN070AAXX  15184 82795 32597 40907 10301 20192 39498 40106 81102 333 59004;EQDQ01  00002PRCP06
0208827950999992004121600004-07217-035883FM-12+0560SBKG V0200901N005112200019N0010001N1+02181+01841101161ADDAA106000091GA1001+999999999GF100991001001999999001001KA1240M+03111MA1999999095021MD1999999-0151REMSYN082AAXX  16004 82795 32994 00910 10218 20184 39502 40116 333 10311 29073 55092 59015;EQDQ01  00002PRCP06
0186827950999992004121612004-07217-035883FM-12+0560SBKG V0201401N004610075019N0100001N1+02531+01911101351ADDAA106000091GF106991061021008001001001KA1240N+01941MA1999999095211MD1999999-0141REMSYN076AAXX  16124 82795 32597 61409 10253 20191 39521 40135 86200 333 20194 59014;EQDQ01  00002PRCP06
0198827950999992004121700004-07217-035883FM-12+0560SBKG V0200901N004612200019N0010001N1+02251+01991101281ADDAA106000091GF102991021011008001001001KA1240M+03121MA1999999095151MD1999999+0131REMSYN088AAXX  17004 82795 32594 20909 10225 20199 39515 40128 82100 333 10312 29072 55102 58013;EQDQ01  00002PRCP06
0186827950999992004121712004-07217-035883FM-12+0560SBKG V0201401N003612200019N0100001N1+02531+01861101351ADDAA106000091GF104991041021008001001001KA1240N+01921MA1999999095221MD1999999+0011REMSYN076AAXX  17124 82795 32597 41407 10253 20186 39522 40135 84200 333 20192 58001;EQDQ01  00002PRCP06
0167827950999992004121718004-07217-035883FM-12+0560SBKG V0201401N003112200019N0100001N1+03011+01941100911ADDAA106000091GF104991011011008001001021MA1999999094821MD1999999-0161REMSYN070AAXX  17184 82795 32597 41406 10301 20194 39482 40091 81102 333 59016;EQDQ01  00002PRCP06
0198827950999992004121800004-07217-035883FM-12+0560SBKG V0200901N003612200019N0010001N1+02231+01991101361ADDAA106000091GF102991021021008001001001KA1240M+03131MA1999999095221MD1999999+0071REMSYN088AAXX  18004 82795 32594 20907 10223 20199 39522 40136 82200 333 10313 29073 55101 58007;EQDQ01  00002PRCP06
0186827950999992004121812004-07217-035883FM-12+0560SBKG V0201401N003610075019N0100001N1+02601+01871101501ADDAA106000091GF105991051021008001001001KA1240N+01991MA1999999095361MD1999999+0141REMSYN076AAXX  18124 82795 32597 51407 10260 20187 39536 40150 85200 333 20199 58014;EQDQ01  00002PRCP06
0167827950999992004121818004-07217-035883FM-12+0560SBKG V0201401N003612200019N0100001N1+02941+02031101101ADDAA106000091GF104991011021008001001011MA1999999095001MD1999999+0181REMSYN070AAXX  18184 82795 32597 41407 10294 20203 39500 40110 81201 333 58018;EQDQ01  00002PRCP06
0198827950999992004121900004-07220-035880FM-12+0548SBKG V0201401N005112200019N0010001N1+02311+02091101451ADDAA106000091GF104991041011008001001001KA1240M+03051MA1999999095341MD1999999+0121REMSYN088AAXX  19004 82795 32594 41410 10231 20209 39534 40145 84100 333 10305 29074 55096 58012;EQDQ01  00002PRCP06
0186827950999992004121912004-07220-035880FM-12+0548SBKG V0201401N003110075019N0100001N1+02611+01991101151ADDAA106000091GF105991051021008001001001KA1240N+02131MA1999999095421MD1999999+0061REMSYN076AAXX  19124 82795 32597 51406 10261 20199 39542 40115 85200 333 20213 58006;EQDQ01  00002PRCP06
0167827950999992004121918004-07220-035880FM-12+0548SBKG V0201401N004611050019N0100001N1+03011+02111101201ADDAA106000091GF106991021031008001001031MA1999999095101MD1999999+0101REMSYN070AAXX  19184 82795 32597 61409 10301 20211 39510 40120 82303 333 58010;EQDQ01  00002PRCP06
0198827950999992004122000004-07217-035883FM-12+0560SBKG V0200901N004112200019N0010001N1+02291+02031101491ADDAA106000091GF104991041011008001001001KA1240M+03101MA1999999095361MD1999999+0021REMSYN088AAXX  20004 82795 32594 40908 10229 20203 39536 40149 84100 333 10310 29077 55096 58002;EQDQ01  00002PRCP06
0186827950999992004122012004-07217-035883FM-12+0560SBKG V0201401N005110075019N0100001N1+02601+02121101611ADDAA106000091GF106991061021008001001001KA1240N+02131MA1999999095471MD1999999+0051REMSYN076AAXX  20124 82795 32597 61410 10260 20212 39547 40161 86200 333 20213 58005;EQDQ01  00002PRCP06
0167827950999992004122018004-07217-035883FM-12+0560SBKG V0201401N001512200019N0100001N1+03001+02001101261ADDAA106000091GF103991031021008001001001MA1999999095161MD1999999+0061REMSYN070AAXX  20184 82795 32597 31403 10300 20200 39516 40126 83200 333 58006;EQDQ01  00002PRCP06
0198827950999992004122100004-07217-035883FM-12+0560SBKG V0200901N004112200019N0010001N1+02301+02111101411ADDAA106000091GF104991041021008001001001KA1240M+03131MA1999999095291MD1999999-0071REMSYN088AAXX  21004 82795 32594 40908 10230 20211 39529 40141 84200 333 10313 29077 55096 59007;EQDQ01  00002PRCP06
0167827950999992004122118004-07217-035883FM-12+0560SBKG V0201401N005712200019N0100001N1+03011+01881101011ADDAA106000091GF102991021011008001001001MA1999999094931MD1999999-0231REMSYN070AAXX  21184 82795 32597 21411 10301 20188 39493 40101 82100 333 59023;EQDQ01  00002PRCP06
0198827950999992004122200004-07217-035883FM-12+0560SBKG V0200901N003612200019N0010001N1+02271+02011101271ADDAA106000091GF103991031021022501001001KA1240M+03121MA1999999095141MD1999999-0151REMSYN088AAXX  22004 82795 32894 30907 10227 20201 39514 40127 83200 333 10312 29073 55106 59015;EQDQ01  00002PRCP06
0186827950999992004122212004-07217-035883FM-12+0560SBKG V0200901N004610075019N0100001N1+02521+01861101271ADDAA106000091GF105991051021008001001001KA1240N+01961MA1999999095141MD1999999-0131REMSYN076AAXX  22124 82795 32597 50909 10252 20186 39514 40127 85200 333 20196 59013;EQDQ01  00002PRCP06
0167827950999992004122218004-07217-035883FM-12+0560SBKG V0201401N006212200019N0100001N1+02961+01841100951ADDAA106000091GF103991031021008001001001MA1999999094871MD1999999-0061REMSYN070AAXX  22184 82795 32597 31412 10296 20184 39487 40095 83200 333 59006;EQDQ01  00002PRCP06
0198827950999992004122300004-07217-035883FM-12+0560SBKG V0200901N004612200019N0010001N1+02271+01981101221ADDAA106000091GF102991021011008001001001KA1240M+03111MA1999999095101MD1999999-0041REMSYN088AAXX  23004 82795 32594 20909 10227 20198 39510 40122 82100 333 10311 29072 55101 59004;EQDQ01  00002PRCP06
0186827950999992004122312004-07217-035883FM-12+0560SBKG V0200901N003610075019N0100001N1+02601+01921101301ADDAA106000091GF106991061021008001001001KA1240N+02011MA1999999095171MD1999999+0031REMSYN076AAXX  23124 82795 32597 60907 10260 20192 39517 40130 86200 333 20201 58003;EQDQ01  00002PRCP06
0167827950999992004122318004-07217-035883FM-12+0560SBKG V0201401N004612200019N0100001N1+03091+01821100891ADDAA106000091GF101991011011008001001001MA1999999094821MD1999999-0051REMSYN070AAXX  23184 82795 32597 11409 10309 20182 39482 40089 81100 333 59005;EQDQ01  00002PRCP06
0198827950999992004122400004-07217-035883FM-12+0560SBKG V0200901N005112200019N0010001N1+02261+01991101181ADDAA106000091GF102991021011008001001001KA1240M+03161MA1999999095061MD1999999-0041REMSYN088AAXX  24004 82795 32594 20910 10226 20199 39506 40118 82100 333 10316 29071 55097 59004;EQDQ01  00002PRCP06
0198827950999992004122500004-07217-035883FM-12+0560SBKG V0200901N004612200019N0010001N1+02291+02111101211ADDAA106000091GF103991031021008001001001KA1240M+03081MA1999999095101MD1999999+0041REMSYN088AAXX  25004 82795 32594 30909 10229 20211 39510 40121 83200 333 10308 29078 55084 58004;EQDQ01  00002PRCP06
0167827950999992004122518004-07217-035883FM-12+0560SBKG V0201401N003610075019N0100001N1+02671+02011101131ADDAA106000091GF106991061021008001001001MA1999999095011MD1999999+0051REMSYN070AAXX  25184 82795 32597 61407 10267 20201 39501 40113 86200 333 58005;EQDQ01  00002PRCP06
0202827950999992004122612004-07220-035880FM-12+0548SBKG V0201401N004619999999N0100001N1+02481+01981101441ADDAA106000091GF106991999021008001001001KA1240N+02051MA1999999095291MD1999999+0021REMSYN076AAXX  26124 82795 32597 61409 10248 20198 39529 40144 84200 333 20205 58002;EQDQ01+000042SCOTLCQ02  00002PRCP06
0183827950999992004122618004-07220-035880FM-12+0548SBKG V0201401N004119999999N0100001N1+03051+02031101011ADDAA106000091GF106991999021008001001001MA1999999094931MD1999999-0081REMSYN070AAXX  26184 82795 32597 61408 10305 20203 39493 40101 83200 333 59008;EQDQ01+000032SCOTLCQ02  00002PRCP06
0214827950999992004122700004-07220-035880FM-12+0548SBKG V0200901N003619999999N0010001N1+02301+01941101291ADDAA106000091GF105991999021008001001001KA1240M+03091MA1999999095161MD1999999-0111REMSYN088AAXX  27004 82795 32594 50907 10230 20194 39516 40129 83200 333 10309 29072 55083 59011;EQDQ01+000032SCOTLCQ02  00002PRCP06
0186827950999992004122712004-07220-035880FM-12+0548SBKG V0201401N002612200019N0100001N1+02551+01901101301ADDAA106000091GF103991011011008001001011KA1240N+01931MA1999999095171MD1999999-0121REMSYN076AAXX  27124 82795 32597 31405 10255 20190 39517 40130 81101 333 20193 59012;EQDQ01  00002PRCP06
0167827950999992004122718004-07220-035880FM-12+0548SBKG V0201401N002612200019N0100001N1+03141+02041100831ADDAA106000091GF101991011011008001001001MA1999999094751MD1999999-0181REMSYN070AAXX  27184 82795 32597 11405 10314 20204 39475 40083 81100 333 59018;EQDQ01  00002PRCP06
0186827950999992004122912004-07217-035883FM-12+0560SBKG V0200901N002612200019N0100001N1+02561+01991101551ADDAA106000091GF104991041021008001001001KA1240N+02051MA1999999095421MD1999999+0161REMSYN076AAXX  29124 82795 32597 40905 10256 20199 39542 40155 84200 333 20205 58016;EQDQ01  00002PRCP06
0186827950999992004123012004-07217-035883FM-12+0560SBKG V0201401N003610075019N0100001N1+02531+02021101531ADDAA106000091GF106991061021008001001001KA1240N+02101MA1999999095391MD1999999-0031REMSYN076AAXX  30124 82795 32597 61407 10253 20202 39539 40153 86200 333 20210 59003;EQDQ01  00002PRCP06
0186827950999992004123112004-07217-035883FM-12+0560SBKG V0200901N003112200019N0100001N1+02441+01881101581ADDAA106000091GF104991041011008001001001KA1240N+02001MA1999999095421MD1999999+0031REMSYN076AAXX  31124 82795 32597 40906 10244 20188 39542 40158 84100 333 20200 58003;EQDQ01  00002PRCP06
0167827950999992004123118004-07217-035883FM-12+0560SBKG V0201401N003612200019N0100001N1+03171+01961101101ADDAA106000091GF102991021021008001001001MA1999999095031MD1999999-0051REMSYN070AAXX  31184 82795 32597 21407 10317 20196 39503 40110 82200 333 59005;EQDQ01  00002PRCP06
