0139827980999992004012304004-07100-034867FM-15+0007SBJP V0202401N001512200019N0112651N1+02301+02301999999ADDGA1041+005109999GF104991999999999999999999MA1101021999999MW1001REMMET045SBJP 230400Z 24003KT 9999 SCT017 23/23 Q1010;EQDQ01+000000PRSWM2
0139827980999992004012305004-07100-034867FM-15+0007SBJP V0202201N002112200019N0112651N1+02301+02301999999ADDGA1041+005109999GF104991999999999999999999MA1101021999999MW1001REMMET045SBJP 230500Z 22004KT 9999 SCT017 23/23 Q1010;EQDQ01+000000PRSWM2
0162827980999992004012306004-07100-034867FM-15+0007SBJP V0209999C000010048019N0112651N1+02301+02301999999ADDGA1041+001209999GA2071+004809999GF107991999999999999999999MA1101021999999MW1001REMMET052SBJP 230600Z 00000KT 9999 SCT004 BKN016 23/23 Q1010;EQDQ01+000000PRSWM2
0162827980999992004012307004-07100-034867FM-15+0007SBJP V0202201N002612200019N0112651N1+02301+02301999999ADDGA1041+003009999GA2041+005109999GF104991999999999999999999MA1101021999999MW1001REMMET052SBJP 230700Z 22005KT 9999 SCT010 SCT017 23/23 Q1010;EQDQ01+000000PRSWM2
0162827980999992004012308004-07100-034867FM-15+0007SBJP V0202401N001012200019N0112651N1+02201+02201999999ADDGA1041+005109999GA2041+024009999GF104991999999999999999999MA1101021999999MW1001REMMET052SBJP 230800Z 24002KT 9999 SCT017 SCT080 22/22 Q1010;EQDQ01+000000PRSWM2
0162827980999992004012309004-07100-034867FM-15+0007SBJP V0202501N001510240019N0112651N1+02301+02301999999ADDGA1041+005109999GA2071+024009999GF107991999999999999999999MA1101021999999MW1001REMMET052SBJP 230900Z 25003KT 9999 SCT017 BKN080 23/23 Q1010;EQDQ01+000000PRSWM2
0162827980999992004012310004-07100-034867FM-15+0007SBJP V0202001N002612200019N0112651N1+02401+02401999999ADDGA1021+005109999GA2041+024009999GF104991999999999999999999MA1101081999999MW1001REMMET052SBJP 231000Z 20005KT 9999 FEW017 SCT080 24/24 Q1011;EQDQ01+000000PRSWM2
0139827980999992004060610004-07100-034867FM-15+0007SBJP V0209999C000012200019N0112651N1+02301+02201999999ADDGA1041+006009999GF104991999999999999999999MA1101591999999MW1001REMMET045SBJP 061000Z 00000KT 9999 SCT020 23/22 Q1016;EQDQ01+000000PRSWM2
0139827980999992004060611004-07100-034867FM-15+0007SBJP V0201001N004112200019N0112651N1+02701+02301999999ADDGA1041+006009999GF104991999999999999999999MA1101591999999MW1001REMMET045SBJP 061100Z 10008KT 9999 SCT020 27/23 Q1016;EQDQ01+000000PRSWM2
0139827980999992004060612004-07100-034867FM-15+0007SBJP V0201201N005712200019N0112651N1+02701+02301999999ADDGA1041+006009999GF104991999999999999999999MA1101691999999MW1001REMMET045SBJP 061200Z 12011KT 9999 SCT020 27/23 Q1017;EQDQ01+000000PRSWM2
0091827980999992004081408004-07100-034870FM-15+0007SBJP V0202001N00261220001CN0099001N1+01901+01801999999ADDMA1101691999999MW1001REMMET039SBJP 140800Z 20005KT CAVOK 19/18 Q1017;EQDQ01+000000PRSWM2
0091827980999992004081411004-07100-034870FM-15+0007SBJP V0201801N00671220001CN0099001N1+02401+01901999999ADDMA1101901999999MW1001REMMET039SBJP 141100Z 18013KT CAVOK 24/19 Q1019;EQDQ01+000000PRSWM2
