0208829860999992004010100004-09400-038217FM-12+0252SBUF V0201401N005112200019N0020001N1+02731+01711101291ADDAA106000091GA1001+999999999GF100991001001999999001001KA1240M+03441MA1999999098461MD1999999-0021REMSYN082AAXX  01004 82986 32995 01410 10273 20171 39846 40129 333 10344 29052 55086 59002;EQDQ01  00002PRCP06
0186829860999992004010112004-09400-038217FM-12+0252SBUF V0201401N002612200019N0200001N1+02811+01841101351ADDAA106000091GF104991031011012501001091KA1240N+02201MA1999999098521MD1999999-0021REMSYN076AAXX  01124 82986 32698 41405 10281 20184 39852 40135 83109 333 20220 59002;EQDQ01  00002PRCP06
0167829860999992004010118004-09400-038217FM-12+0252SBUF V0201801N002612200019N0100001N1+03531+01341100801ADDAA106000091GF104991041011012501001081MA1999999098001MD1999999-0011REMSYN070AAXX  01184 82986 32697 41805 10353 20134 39800 40080 84108 333 59001;EQDQ01  00002PRCP06
0208829860999992004010200004-09400-038217FM-12+0252SBUF V0201401N007712200019N0020001N1+03031+01861100941ADDAA106000091GA1001+999999999GF100991001001999999001001KA1240M+03601MA1999999098141MD1999999-0321REMSYN082AAXX  02004 82986 32995 01415 10303 20186 39814 40094 333 10360 29046 55110 59032;EQDQ01  00002PRCP06
0214829860999992004010212004-09400-038217FM-12+0252SBUF V0201801N001512200019N0100001N1+02771+01991101841ADDAA106000091AY141061AY211061GF102991021011012501001061KA1240N+02361MA1999999098431MD1999999-0091MW1051REMSYN082AAXX  02124 82986 31697 21803 10277 20199 39843 40184 70541 82106 333 20236 59009;EQDQ01  00002PRCP06
0183829860999992004010218004-09400-038217FM-12+0252SBUF V0201801N001512200019N0200001N1+03721+01671100582ADDAA106000091GF104991021011012501001021MA1999999097801MD1999999-0201REMSYN070AAXX  02184 82986 32698 41803 10372 20167 39780 40058 82102 333 59020;EQDQ01+100583APOSLPQ02  00002PRCP06
0208829860999992004010300004-09400-038217FM-12+0252SBUF V0201401N007212200019N0020001N1+02921+02121100801ADDAA106000091GA1001+999999999GF100991001001999999001001KA1240M+03741MA1999999098001MD1999999-0141REMSYN082AAXX  03004 82986 32995 01414 10292 20212 39800 40080 333 10374 29054 55100 59014;EQDQ01  00002PRCP06
0214829860999992004010312004-09400-038217FM-12+0252SBUF V0203201N001512200019N0100001N1+02891+02081101071ADDAA106000091AY141061AY211061GF106991021011012501001061KA1240N+02441MA1999999098271MD1999999-0161MW1051REMSYN082AAXX  03124 82986 31697 63203 10289 20208 39827 40107 70541 82106 333 20244 59016;EQDQ01  00002PRCP06
0167829860999992004010318004-09400-038217FM-12+0252SBUF V0200901N005112200019N0200001N1+03621+01641100581ADDAA106000091GF105991021011012501001061MA1999999097801MD1999999+0001REMSYN070AAXX  03184 82986 32698 50910 10362 20164 39780 40058 82106 333 58000;EQDQ01  00002PRCP06
0186829860999992004010412004-09400-038217FM-12+0252SBUF V0200901N004610450019N0040001N1+02771+01991101091ADDAA106000091GF106991031021004501081001KA1240N+02441MA1999999098291MD1999999+0021REMSYN076AAXX  04124 82986 32496 60909 10277 20199 39829 40109 83280 333 20244 58002;EQDQ01  00002PRCP06
0208829860999992004010500004-09400-038217FM-12+0252SBUF V0201401N005712200019N0020001N1+02811+01841100961ADDAA106000091GA1001+999999999GF100991001001999999001001KA1240M+03581MA1999999098151MD1999999+0101REMSYN082AAXX  05004 82986 32995 01411 10281 20184 39815 40096 333 10358 29052 55105 58010;EQDQ01  00002PRCP06
0186829860999992004010512004-09400-038217FM-12+0252SBUF V0201401N005110450019N0040001N1+02761+01971101201ADDAA106000091GF106991041021004501081001KA1240N+02351MA1999999098381MD1999999+0091REMSYN076AAXX  05124 82986 32496 61410 10276 20197 39838 40120 84280 333 20235 58009;EQDQ01  00002PRCP06
0167829860999992004010518004-09400-038217FM-12+0252SBUF V0201401N005112200019N0200001N1+03451+01481100721ADDAA106000091GF103991031011012501001001MA1999999097921MD1999999+0061REMSYN070AAXX  05184 82986 32698 31410 10345 20148 39792 40072 83100 333 58006;EQDQ01  00002PRCP06
0208829860999992004010600004-09400-038217FM-12+0252SBUF V0201401N005112200019N0020001N1+02791+01641101021ADDAA106000091GA1001+999999999GF100991001001999999001001KA1240M+03511MA1999999098201MD1999999+0051REMSYN082AAXX  06004 82986 32995 01410 10279 20164 39820 40102 333 10351 29048 55109 58005;EQDQ01  00002PRCP06
0186829860999992004010612004-09400-038217FM-12+0252SBUF V0201401N005710075019N0100001N1+02811+01921101301ADDAA106000091GF105991051021008001001011KA1240N+02281MA1999999098481MD1999999+0101REMSYN076AAXX  06124 82986 32597 51411 10281 20192 39848 40130 85201 333 20228 58010;EQDQ01  00002PRCP06
0167829860999992004010618004-09400-038217FM-12+0252SBUF V0201401N003112200019N0200001N1+03451+01531100881ADDAA106000091GF104991041011012501001001MA1999999098081MD1999999-0301REMSYN070AAXX  06184 82986 32698 41406 10345 20153 39808 40088 84100 333 59030;EQDQ01  00002PRCP06
0208829860999992004010700004-09400-038217FM-12+0252SBUF V0201401N009312200019N0020001N1+02771+01991101081ADDAA106000091GA1001+999999999GF100991001001999999001001KA1240M+03501MA1999999098261MD1999999+0061REMSYN082AAXX  07004 82986 32995 01418 10277 20199 39826 40108 333 10350 29054 55113 58006;EQDQ01  00002PRCP06
0213829860999992004010712004-09400-038217FM-12+0252SBUF V0201401N005710042019N0040001N1+02751+02021101301ADDAA106000091AY121061AY221061GF107991051021004501081011KA1999N+02401MA1999999098471MD1999999+0011MW1151REMSYN081AAXX  07124 82986 31496 71411 10275 20202 39847 40130 71522 85281333 20240 58001;EQDQ01  00002PRCP06
0167829860999992004010718004-09400-038217FM-12+0252SBUF V0201401N005710450019N0200001N1+03491+01571100841ADDAA106000091GF106991031021012501041081MA1999999098051MD1999999-0031REMSYN070AAXX  07184 82986 32698 61411 10349 20157 39805 40084 83248 333 59003;EQDQ01  00002PRCP06
0198829860999992004010800004-09400-038217FM-12+0252SBUF V0201401N006712200019N0020001N1+02831+01941100981ADDAA106000091GF104991021011012501021001KA1240M+03501MA1999999098171MD1999999+0091REMSYN088AAXX  08004 82986 32695 41413 10283 20194 39817 40098 82120 333 10350 29054 55073 58009;EQDQ01  00002PRCP06
0186829860999992004010812004-09400-038217FM-12+0252SBUF V0201801N004110450019N0100001N1+02751+02071101151ADDAA106000091GF106991031021008001081001KA1240N+02421MA1999999098331MD1999999-0141REMSYN076AAXX  08124 82986 32597 61808 10275 20207 39833 40115 83280 333 20242 59014;EQDQ01  00002PRCP06
0167829860999992004010818004-09400-038217FM-12+0252SBUF V0200901N004112200019N0200001N1+03491+01751100811ADDAA106000091GF104991031021008001001011MA1999999098021MD1999999-0031REMSYN070AAXX  08184 82986 32598 40908 10349 20175 39802 40081 83201 333 59003;EQDQ01  00002PRCP06
0198829860999992004010900004-09400-038217FM-12+0252SBUF V0200901N005112200019N0020001N1+02821+01911101041ADDAA106000091GF102991011001012501041011KA1240M+03561MA1999999098231MD1999999+0061REMSYN088AAXX  09004 82986 32695 20910 10282 20191 39823 40104 81041 333 10356 29055 55086 58006;EQDQ01  00002PRCP06
0186829860999992004010912004-09400-038217FM-12+0252SBUF V0200901N003110450019N0040001N1+02751+02071101091ADDAA106000091GF107991041021008001071999KA1240N+02381MA1999999098271MD1999999-0061REMSYN076AAXX  09124 82986 32596 70906 10275 20207 39827 40109 8427/ 333 20238 59006;EQDQ01  00002PRCP06
0167829860999992004010918004-09400-038217FM-12+0252SBUF V0200901N003110450019N0200001N1+03361+01771100711ADDAA106000091GF106991031021008001051011MA1999999097911MD1999999-0111REMSYN070AAXX  09184 82986 32598 60906 10336 20177 39791 40071 83251 333 59011;EQDQ01  00002PRCP06
0198829860999992004011000004-09400-038217FM-12+0252SBUF V0200901N005112200019N0020001N1+02911+01961100981ADDAA106000091GF103991031001012501051001KA1240M+03431MA1999999098401MD1999999-0091REMSYN088AAXX  10004 82986 32695 30910 10291 20196 39840 40098 83050 333 10343 29055 55076 59009;EQDQ01  00002PRCP06
0186829860999992004011012004-09400-038217FM-12+0252SBUF V0203201N001512200019N0200001N1+02761+02041101011ADDAA106000091GF102991021001012501041001KA1240N+02341MA1999999098201MD1999999-0071REMSYN076AAXX  10124 82986 32698 23203 10276 20204 39820 40101 82040 333 20234 59007;EQDQ01  00002PRCP06
0167829860999992004011018004-09400-038217FM-12+0252SBUF V0202301N002112200019N0200001N1+03661+01511100501ADDAA106000091GF102991011011012501001021MA1999999097721MD1999999-0191REMSYN070AAXX  10184 82986 32698 22304 10366 20151 39772 40050 81102 333 59019;EQDQ01  00002PRCP06
0190829860999992004011112004-09400-038217FM-12+0252SBUF V0202701N001510042019N0040001N1+02511+02341101221ADDAY161061AY251061GF107991051071004501081001KA1240N+02291MA1999999098391MD1999999+0191MW1031REMSYN088AAXX  11124 82986 21496 72703 10251 20234 39839 40122 70365 85780 333 20229 58019 60564;
0167829860999992004011118004-09400-038217FM-12+0252SBUF V0203201N002110450019N0100001N1+02941+02401100861ADDAA106000091GF107991011041012501091081MA1999999098031MD1999999+0311REMSYN070AAXX  11184 82986 32697 73204 10294 20240 39803 40086 81498 333 58031;EQDQ01  00002PRCP06
0186829860999992004011212004-09400-038217FM-12+0252SBUF V0203201N001510450019N0100001N1+02651+02231101291ADDAA106000091GF106991011041008001051001KA1240N+02361MA1999999098451MD1999999+0061REMSYN076AAXX  12124 82986 32597 63203 10265 20223 39845 40129 81450 333 20236 58006;EQDQ01  00002PRCP06
0195829860999992004011218004-09400-038217FM-12+0252SBUF V0203601N001510450019N0200001N1+03171+02021100841ADDAA106000091AY121061AY221061GF105991031021012501051081MA1999999098031MD1999999+0001MW1151REMSYN076AAXX  12184 82986 31698 53603 10317 20202 39803 40084 71522 83258 333 58000;EQDQ01  00002PRCP06
0208829860999992004011300004-09400-038217FM-12+0252SBUF V0201801N005112200019N0020001N1+02731+02051101191ADDAA106000091GA1001+999999999GF100991001001999999001001KA1240M+03211MA1999999098361MD1999999-0101REMSYN082AAXX  13004 82986 32995 01810 10273 20205 39836 40119 333 10321 29066 55017 59010;EQDQ01  00002PRCP06
0186829860999992004011312004-09400-038217FM-12+0252SBUF V0203201N001510450019N0100001N1+02791+02211101241ADDAA106000091GF106991021041004501031081KA1240N+02481MA1999999098411MD1999999-0041REMSYN076AAXX  13124 82986 32497 63203 10279 20221 39841 40124 82438 333 20248 59004;EQDQ01  00002PRCP06
0167829860999992004011318004-09400-038217FM-12+0252SBUF V0203201N001510450019N0200001N1+03231+01801100771ADDAA106000091GF106991031021008001031001MA1999999097971MD1999999-0061REMSYN070AAXX  13184 82986 32598 63203 10323 20180 39797 40077 83230 333 59006;EQDQ01  00002PRCP06
0198829860999992004011400004-09400-038217FM-12+0252SBUF V0201801N006710450019N0020001N1+02771+02381100991ADDAA106000091GF106991031051012501071001KA1240M+03331MA1999999098181MD1999999-0181REMSYN088AAXX  14004 82986 32695 61813 10277 20238 39818 40099 83570 333 10333 29068 55039 59018;EQDQ01  00002PRCP06
0195829860999992004011412004-09400-038217FM-12+0252SBUF V0202301N001510450019N0040001N1+02611+02291101201ADDAA106000021AY151061AY221061GF108991041071008001091999KA1240N+02481MA1999999098731MD1999999-0041MW1501REMSYN082AAXX  14124 82986 31596 82303 10261 20229 39873 40120 75052 8479/ 333 20248 59004;
0171829860999992004011418004-09400-038217FM-12+0252SBUF V0203201N003110090019N0040001N1+02401+02211101161ADDAY161061AY221061GF108991081081004501999999MA1999999098301MD1999999+0331MW1501REMSYN082AAXX  14184 82986 21496 83206 10240 20221 39830 40116 75062 888// 333 58033 60011;
0202829860999992004011500004-09400-038217FM-12+0252SBUF V0201801N001510450019N0010001N1+02441+02281101321ADDAY161061AY221061GF106991031061004501081001KA1240M+02811MA1999999098471MD1999999+0291MW1031REMSYN100AAXX  15004 82986 21494 61803 10244 20228 39847 40132 70362 83680 333 10281 29088 55000 58029 69961;
0190829860999992004011512004-09400-038217FM-12+0252SBUF V0200501N002112200019N0100001N1+02631+02211101101ADDAY161061AY221061GF103991011011012501031081KA1240N+02301MA1999999098251MD1999999-0121MW1051REMSYN088AAXX  15124 82986 21697 30504 10263 20221 39825 40110 70562 81138 333 20230 59012 60054;
0196829860999992004011518004-09400-038217FM-12+0252SBUF V0203601N001510450019N0100001N1+03291+02031100701ADDAA106000091AY121061AY221061GF106991031021008001051011MD1999999-0401MW1151REMSYN076AAXX  15184 82986 31597 63603 10329 20203 33979 40070 71522 83251 333 59040;EQDQ01+039791APOSP Q02  00002PRCP06
0198829860999992004011600004-09400-038217FM-12+0252SBUF V0200901N001519999999N0020001N1+02771+02191100921ADDAA106000091GF106991061001012501051001KA1240M+03301MA1999999098101MD1999999-0371REMSYN088AAXX  16004 82986 32695 60903 10277 20219 39810 40092 86050 333 10330 29067 55056 59037;EQDQ01  00002PRCP06
0209829860999992004011612004-09400-038217FM-12+0252SBUF V0201801N001510042019N0040001N1+02611+02291101031ADDAY161061AY251061GF108991999071004501081999KA1240N+02441MA1999999098201MD1999999-0051MW1031REMSYN088AAXX  16124 82986 21496 81803 10261 20229 39820 40103 70365 8878/ 333 20244 59005 60014;EQDQ01+000082SCOTLC
0167829860999992004011618004-09400-038217FM-12+0252SBUF V0201801N002110450019N0200001N1+03351+02091100511ADDAA106000091GF106991031021008001031081MA1999999097721MD1999999-0181REMSYN070AAXX  16184 82986 32598 61804 10335 20209 39772 40051 83238 333 59018;EQDQ01  00002PRCP06
0226829860999992004011700004-09400-038217FM-12+0252SBUF V0201801N001510450019N0020001N1+02661+02241100911ADDAA106000091AY121061AY221061GF108991031021008001071999KA1240M+03411MA1999999098081MD1999999-0021MW1131REMSYN094AAXX  17004 82986 31595 81803 10266 20224 39808 40091 71322 8327/ 333 10341 29072 55064 59002;EQDQ01  00002PRCP06
0190829860999992004011712004-09400-038217FM-12+0252SBUF V0202701N001510060019N0020001N1+02371+02261101201ADDAY161061AY261061GF108991081081002501999999KA1240N+02241MA1999999098351MD1999999+0151MW1601REMSYN088AAXX  17124 82986 21395 82703 10237 20226 39835 40120 76066 888// 333 20224 58015 60454;
0171829860999992004011718004-09400-038217FM-12+0252SBUF V0203201N002110450019N0200001N1+02831+02271100711ADDAY161061AY221061GF106991021041008001031021MA1999999097881MD1999999+0161MW1021REMSYN082AAXX  17184 82986 21598 63204 10283 20227 39788 40071 70262 82432 333 58016 69991;
0190829860999992004011912004-09400-038217FM-12+0252SBUF V0203201N002110450019N0100001N1+02571+02111101161ADDAY161061AY221061GF107991021071004501091999KA1240N+02281MA1999999098301MD1999999+0141MW1021REMSYN088AAXX  19124 82986 21497 73204 10257 20211 39830 40116 70262 8279/ 333 20228 58014 60564;
0171829860999992004011918004-09400-038217FM-12+0252SBUF V0201801N001510042019N0020001N1+02451+02281100941ADDAY151061AY221061GF108991081071004501999999MA1999999098081MD1999999-0081MW1601REMSYN082AAXX  19184 82986 21495 81803 10245 20228 39808 40094 76052 887// 333 59008 60031;
0202829860999992004012000004-09400-038217FM-12+0252SBUF V0201801N003110120019N0020001N1+02391+02281101111ADDAY161061AY221061GF108991061071012501999999KA1240M+02831MA1999999098321MD1999999-0131MW1501REMSYN100AAXX  20004 82986 21695 81806 10239 20228 39832 40111 75062 867// 333 10283 29089 55004 59013 60011;
0190829860999992004012012004-09400-038217FM-12+0252SBUF V0201801N001510120019N0100001N1+02391+02241101201ADDAY161061AY221061GF108991051081008001091999KA1240N+02221MA1999999098341MD1999999+0041MW1021REMSYN088AAXX  20124 82986 21597 81803 10239 20224 39834 40120 70262 8589/ 333 20222 58004 60174;
0211829860999992004012018004-09400-038217FM-12+0252SBUF V0203601N001510042019N0100001N1+02861+02261100881ADDAA106000091AY121061AY221061GF108991999021004501081999MA1999999098051MD1999999-0031MW1151REMSYN076AAXX  20184 82986 31497 83603 10286 20226 39805 40088 71522 8828/ 333 59003;EQDQ01+000082SCOTLCQ02  00002PRCP06
0202829860999992004012100004-09400-038217FM-12+0252SBUF V0201801N001010090019N0010001N1+02321+02201101111ADDAY161061AY251061GF108991081081004501999999KA1240M+02901MA1999999098241MD1999999-0081MW1201REMSYN100AAXX  21004 82986 21494 81802 10232 20220 39824 40111 72065 888// 333 10290 29087 55010 59008 60061;
0190829860999992004012112004-09400-038217FM-12+0252SBUF V0203201N003110450019N0100001N1+02471+02091101141ADDAY161061AY221061GF106991031041012501051001KA1240N+02241MA1999999098281MD1999999-0061MW1011REMSYN088AAXX  21124 82986 21697 63206 10247 20209 39828 40114 70162 83450 333 20224 59006 60074;
0195829860999992004012118004-09400-038217FM-12+0252SBUF V0202301N002110042019N0040001N1+02641+02231100951ADDAA106000091AY121061AY221061GF107991051071004501081001MA1999999098101MD1999999+0051MW1151REMSYN076AAXX  21184 82986 31496 72304 10264 20223 39810 40095 71522 85780 333 58005;EQDQ01  00002PRCP06
0226829860999992004012200004-09400-038217FM-12+0252SBUF V0202301N001010450019N0020001N1+02451+02251101091ADDAA106000091AY101061AY201061GF105991031051008001051001KA1240M+02921MA1999999098231MD1999999-0011MW1131REMSYN094AAXX  22004 82986 31595 52302 10245 20225 39823 40109 71300 83550 333 10292 29084 55010 59001;EQDQ01  00002PRCP06
0186829860999992004012212004-09400-038217FM-12+0252SBUF V0201801N001510450019N0100001N1+02571+02251101061ADDAA106000091GF106991031011008001081091KA1240N+02351MA1999999098211MD1999999-0071REMSYN076AAXX  22124 82986 32597 61803 10257 20225 39821 40106 83189 333 20235 59007;EQDQ01  00002PRCP06
0226829860999992004012300004-09400-038217FM-12+0252SBUF V0201801N003610450019N0020001N1+02531+02211100981ADDAA106000091AY121061AY221061GF105991021021012501081001KA1240M+03211MA1999999098141MD1999999-0091MW1131REMSYN094AAXX  23004 82986 31695 51807 10253 20221 39814 40098 71322 82280 333 10321 29076 55081 59009;EQDQ01  00002PRCP06
0162829860999992004012310004-09400-038217FM-15+0252SBUF V0201301N002610210019N0112651N1+02401+02201999999ADDGA1041+004509999GA2071+021009999GF107991999999999999999999MA1101191999999MW1001REMMET052SBUF 231000Z 13005KT 9999 SCT015 BKN070 24/22 Q1012;EQDQ01+000000PRSWM2
0202829860999992004012312004-09400-038217FM-12+0252SBUF V0201801N001510042019N0040001N1+02541+02171101121ADDAA106000091GF108991999071004501081999KA1240N+02341MA1999999098271MD1999999+0061REMSYN076AAXX  23124 82986 32496 81803 10254 20217 39827 40112 8878/ 333 20234 58006;EQDQ01+000082SCOTLCQ02  00002PRCP06
0167829860999992004012318004-09400-038217FM-12+0252SBUF V0203601N002610450019N0100001N1+02851+02291100781ADDAA106000091GF108991041041004501071999MA1999999097951MD1999999+0111REMSYN070AAXX  23184 82986 32497 83605 10285 20229 39795 40078 8447/ 333 58011;EQDQ01  00002PRCP06
0214829860999992004012400004-09400-038217FM-12+0252SBUF V0201801N003610012019N0020001N1+02501+02191101071ADDAA106000091GA1091+999999999GF109991091999999999999999KA1240M+02971MA1999999098221MD1999999+0081REMSYN088AAXX  24004 82986 32695 91807 10250 20219 39822 40107 89/// 333 10297 29080 55018 58008;EQDQ01  00002PRCP06
0186829860999992004012412004-09400-038217FM-12+0252SBUF V0201801N002610450019N0100001N1+02611+02141101271ADDAA106000091GF106991041021008001081021KA1240N+02331MA1999999098421MD1999999+0151REMSYN076AAXX  24124 82986 32597 61805 10261 20214 39842 40127 84282 333 20233 58015;EQDQ01  00002PRCP06
0167829860999992004012418004-09400-038217FM-12+0252SBUF V0201401N003612200019N0200001N1+03091+02041100791ADDAA106000091GF104991041021012501001001MA1999999097981MD1999999-0291REMSYN070AAXX  24184 82986 32698 41407 10309 20204 39798 40079 84200 333 59029;EQDQ01  00002PRCP06
0214829860999992004012512004-09400-038217FM-12+0252SBUF V0201801N003110075019N0100001N1+02611+02191101261ADDAA106000091AY151061AY221061GF106991051021008001081021KA1240N+02281MA1999999098421MD1999999+0001MW1031REMSYN082AAXX  25124 82986 31597 61806 10261 20219 39842 40126 70352 85282 333 20228 58000;EQDQ01  00002PRCP06
0171829860999992004012518004-09400-038217FM-12+0252SBUF V0202301N003110450019N0200001N1+02951+02051100881ADDAY151061AY221061GF106991041021008001071061MA1999999098061MD1999999+0081MW1511REMSYN082AAXX  25184 82986 21598 62306 10295 20205 39806 40088 75152 84276 333 58008 69911;
0195829860999992004012600004-09400-038217FM-12+0252SBUF V0201401N005110012019N0020001N1+02651+02141101121ADDAA106000021GA1091+999999999GF109991091999999999999999KA1240M+03071MA1999999098291MD1999999-0061REMSYN088AAXX  26004 82986 32695 91410 10265 20214 39829 40112 89/// 333 10307 29071 55059 59006;
0209829860999992004012612004-09400-038217FM-12+0252SBUF V0201401N000510075019N0100001N1+02571+02151101241ADDAY151061AY221061GF107991051071008001081999KA1240N+02361MA1999999098411MD1999999-0011MW1221REMSYN088AAXX  26124 82986 21597 71401 10257 20215 39841 40124 72252 8578/ 333 20236 59001 69914;EQDQ01+000002PRSWM1
0148829860999992004012618004-09400-038217FM-12+0252SBUF V0201401N003110450019N0200001N1+03061+02081100811ADDAA106000021GF105991031021008001031011MA1999999098001MD1999999-0061REMSYN070AAXX  26184 82986 32598 51406 10306 20208 39800 40081 83231 333 59006;
0198829860999992004012700004-09400-038217FM-12+0252SBUF V0201401N005110450019N0020001N1+02651+02231101091ADDAA106000091GF106991041021008001081001KA1240M+03141MA1999999098251MD1999999-0041REMSYN088AAXX  27004 82986 32595 61410 10265 20223 39825 40109 84280 333 10314 29072 55053 59004;EQDQ01  00002PRCP06
0190829860999992004012712004-09400-038217FM-12+0252SBUF V0201401N004610075019N0100001N1+02651+02291101221ADDAY151061AY221061GF106991061021008001001041KA1240N+02361MA1999999098381MD1999999-0031MW1011REMSYN088AAXX  27124 82986 21597 61409 10265 20229 39838 40122 70152 86204 333 20236 59003 69934;
0195829860999992004012718004-09400-038217FM-12+0252SBUF V0201401N003112200019N0200001N1+03091+02161100811ADDAA106000091AY121061AY221061GF106991041021008001001011MA1999999098001MD1999999+0001MW1151REMSYN076AAXX  27184 82986 31598 61406 10309 20216 39800 40081 71522 84201 333 58000;EQDQ01  00002PRCP06
0202829860999992004012800004-09400-038217FM-12+0252SBUF V0201401N002610450019N0010001N1+02381+02331101291ADDAY161061AY251061GF106991041021004501081001KA1240M+03171MA1999999098431MD1999999+0181MW1031REMSYN100AAXX  28004 82986 21494 61405 10238 20233 39843 40129 70365 84280 333 10317 29083 55085 58018 60081;
0190829860999992004012812004-09400-038217FM-12+0252SBUF V0201801N003110042019N0040001N1+02531+02231101401ADDAY161061AY221061GF106991061021004501001001KA1240N+02281MA1999999098541MD1999999+0161MW1021REMSYN088AAXX  28124 82986 21496 61806 10253 20223 39854 40140 70262 86200 333 20228 58016 60094;
0195829860999992004012818004-09400-038217FM-12+0252SBUF V0201401N003110075019N0200001N1+03051+02261100981ADDAA106000091AY121061AY221061GF106991051021008001001021MA1999999098151MD1999999+0151MW1151REMSYN076AAXX  28184 82986 31598 61406 10305 20226 39815 40098 71522 85202 333 58015;EQDQ01  00002PRCP06
0202829860999992004012900004-09400-038217FM-12+0252SBUF V0201401N002610450019N0020001N1+02301+02141101371ADDAY181061AY221061GF107991041081004501091999KA1240M+03111MA1999999098501MD1999999+0071MW1021REMSYN100AAXX  29004 82986 21495 71405 10230 20214 39850 40137 70282 8489/ 333 10311 29082 55084 58007 60031;
0162829860999992004012912004-09400-038217FM-12+0252SBUF V0201801N001510042019N0040001N1+02571+02251101401ADDGF107991051021004501081001KA1240N+02231MA1999999098541MD1999999+0001REMSYN082AAXX  29124 82986 22496 71803 10257 20225 39854 40140 85280 333 20223 58000 60034;
0167829860999992004012918004-09400-038217FM-12+0252SBUF V0201401N003610450019N0200001N1+02991+02041100941ADDAA106000091GF106991041081004501071021MA1999999098111MD1999999-0041REMSYN070AAXX  29184 82986 32498 61407 10299 20204 39811 40094 84872 333 59004;EQDQ01  00002PRCP06
0202829860999992004013000004-09400-038217FM-12+0252SBUF V0201401N004110060019N0020001N1+02311+02251102862ADDAY181061AY221061GF108991081081002501999999KA1240M+03071MA1999999098461MD1999999-0041MW1201REMSYN100AAXX  30004 82986 21395 81408 10231 20225 39846 40286 72082 888// 333 10307 29084 55041 59004 60151;
0190829860999992004013012004-09400-038217FM-12+0252SBUF V0201801N001510450019N0100001N1+02431+02131101401ADDAY181061AY251061GF107991031071002501071999KA1240N+02221MA1999999098521MD1999999-0021MW1021REMSYN088AAXX  30124 82986 21397 71803 10243 20213 39852 40140 70285 8377/ 333 20222 59002 60234;
0167829860999992004013018004-09400-038217FM-12+0252SBUF V0201401N002610120019N0200001N1+02971+02071100921ADDAA106000091GF105991051021012501001061MA1999999098091MD1999999-0021REMSYN070AAXX  30184 82986 32698 51405 10297 20207 39809 40092 85206 333 59002;EQDQ01  00002PRCP06
0226829860999992004013100004-09400-038217FM-12+0252SBUF V0201401N003110075019N0020001N1+02471+02271101321ADDAA106000091AY121061AY211061GF106991061071008001001001KA1240M+03031MA1999999098461MD1999999+0001MW1151REMSYN094AAXX  31004 82986 31595 61406 10247 20227 39846 40132 71521 86700 333 10303 29080 55044 58000;EQDQ01  00002PRCP06
0190829860999992004013112004-09400-038217FM-12+0252SBUF V0201401N005110021019N0100001N1+02511+02211101391ADDAY151061AY221061GF106991051071002501051999KA1240N+02321MA1999999098531MD1999999+0011MW1011REMSYN088AAXX  31124 82986 21397 61410 10251 20221 39853 40139 70152 8575/ 333 20232 58001 69914;
0169829860999992004013118004-09400-038217FM-12+0252SBUF V0201401N007719999999N0040001N1+02631+02411101161ADDAY191061AY281061GF108991999999002501999999MA1999999098311MD1999999+0221MW1611REMSYN080AAXX  31184 82986 21396 81415 10263 20241 39831 40116 76198687/ 333 58022 60031;
0190829860999992004020112004-09400-038217FM-12+0252SBUF V0201401N002610450019N0100001N1+02471+02171101541ADDAY161061AY211061GF106991041071012501071001KA1240N+02241MA1999999098671MD1999999+0141MW1501REMSYN088AAXX  01124 82986 21697 61405 10247 20217 39867 40154 75061 84770 333 20224 58014 60044;
0171829860999992004020118004-09400-038217FM-12+0252SBUF V0201801N002611050019N0200001N1+03031+02261101081ADDAY151061AY221061GF105991041021008001001021MA1999999098251MD1999999-0061MW1021REMSYN082AAXX  01184 82986 21598 51805 10303 20226 39825 40108 70252 84202 333 59006 69961;
0198829860999992004020200004-09400-038217FM-12+0252SBUF V0201401N003110450019N0020001N1+02391+02281101361ADDAA106000091GF106991041051008001081001KA1240M+03061MA1999999098501MD1999999-0071REMSYN088AAXX  02004 82986 32595 61406 10239 20228 39850 40136 84580 333 10306 29084 55047 59007;EQDQ01  00002PRCP06
0190829860999992004020212004-09400-038217FM-12+0252SBUF V0200901N006210021019N0020001N1+02331+02301101341ADDAY161061AY221061GF107991051071002501071999KA1240N+02221MA1999999098461MD1999999-0211MW1021REMSYN088AAXX  02124 82986 21395 70912 10233 20230 39846 40134 70262 8577/ 333 20222 59021 60064;
0171829860999992004020218004-09400-038217FM-12+0252SBUF V0201401N005110450019N0100001N1+02681+02221101051ADDAY151061AY221061GF106991031061004501071001MA1999999098201MD1999999-0051MW1021REMSYN082AAXX  02184 82986 21497 61410 10268 20222 39820 40105 70252 83670 333 59005 69921;
0202829860999992004020300004-09400-038217FM-12+0252SBUF V0201801N001510075019N0020001N1+02441+02251101311ADDAY151061AY221061GF107991051061008001081999KA1240M+02741MA1999999098441MD1999999-0061MW1201REMSYN100AAXX  03004 82986 21595 71803 10244 20225 39844 40131 72052 8568/ 333 10274 29088 55014 59006 69941;
0162829860999992004020312004-09400-038217FM-12+0252SBUF V0201801N003111050019N0100001N1+02651+02201101331ADDGF105991041011008001001021KA1240N+02201MA1999999098481MD1999999+0021REMSYN082AAXX  03124 82986 22597 51806 10265 20220 39848 40133 84102 333 20220 58002 69964;
0167829860999992004020318004-09400-038217FM-12+0252SBUF V0201401N003110450019N0200001N1+02991+01981100921ADDAA106000091GF105991031011008001051021MA1999999098101MD1999999-0101REMSYN070AAXX  03184 82986 32598 51406 10299 20198 39810 40092 83152 333 59010;EQDQ01  00002PRCP06
0198829860999992004020400004-09400-038217FM-12+0252SBUF V0201401N005112200019N0020001N1+02561+02061101201ADDAA106000091GF104991001001999999001061KA1240M+03031MA1999999098361MD1999999-0081REMSYN088AAXX  04004 82986 32995 41410 10256 20206 39836 40120 80006 333 10303 29070 55104 59008;EQDQ01  00002PRCP06
0186829860999992004020412004-09400-038217FM-12+0252SBUF V0201801N003110450019N0100001N1+02611+02191101351ADDAA106000091GF106991041021008001031001KA1240N+02301MA1999999098501MD1999999+0021REMSYN076AAXX  04124 82986 32597 61806 10261 20219 39850 40135 84230 333 20230 58002;EQDQ01  00002PRCP06
0167829860999992004020418004-09400-038217FM-12+0252SBUF V0201401N005110450019N0200001N1+03041+02261100881ADDAA106000091GF106991041021008001031011MA1999999098061MD1999999-0041REMSYN070AAXX  04184 82986 32598 61410 10304 20226 39806 40088 84231 333 59004;EQDQ01  00002PRCP06
0198829860999992004020500004-09400-038217FM-12+0252SBUF V0201801N002610090019N0020001N1+02541+02311101211ADDAA106000091GF107991051081004501091999KA1240M+03091MA1999999098371MD1999999+0011REMSYN088AAXX  05004 82986 32495 71805 10254 20231 39837 40121 8589/ 333 10309 29078 55076 58001;EQDQ01  00002PRCP06
0186829860999992004020512004-09400-038217FM-12+0252SBUF V0201801N003110120019N0100001N1+02611+02291101221ADDAA106000091GF106991061081008001001001KA1240N+02341MA1999999098381MD1999999-0121REMSYN076AAXX  05124 82986 32597 61806 10261 20229 39838 40122 86800 333 20234 59012;EQDQ01  00002PRCP06
0167829860999992004020518004-09400-038217FM-12+0252SBUF V0201401N002612200019N0200001N1+03071+02051100811ADDAA106000091GF103991031021012501001021MA1999999098001MD1999999-0061REMSYN070AAXX  05184 82986 32698 31405 10307 20205 39800 40081 83202 333 59006;EQDQ01  00002PRCP06
0198829860999992004020600004-09400-038217FM-12+0252SBUF V0201401N006210450019N0020001N1+02511+02191101151ADDAA106000091GF106991021011008001051001KA1240M+03091MA1999999098301MD1999999-0071REMSYN088AAXX  06004 82986 32595 61412 10251 20219 39830 40115 82150 333 10309 29076 55094 59007;EQDQ01  00002PRCP06
0186829860999992004020612004-09400-038217FM-12+0252SBUF V0203601N001510450019N0100001N1+02591+02121101191ADDAA106000091GF107991041021008001071061KA1240N+02381MA1999999098341MD1999999-0041REMSYN076AAXX  06124 82986 32597 73603 10259 20212 39834 40119 84276 333 20238 59004;EQDQ01  00002PRCP06
0167829860999992004020618004-09400-038217FM-12+0252SBUF V0201401N001510450019N0200001N1+03071+01991100771ADDAA106000091GF106991031031012501051061MA1999999097961MD1999999-0041REMSYN070AAXX  06184 82986 32698 61403 10307 20199 39796 40077 83356 333 59004;EQDQ01  00002PRCP06
0226829860999992004020700004-09400-038217FM-12+0252SBUF V0200901N001010450019N0020001N1+02551+02151101031ADDAA106000091AY151061AY211061GF107991031051008001071999KA1240M+03151MA1999999098191MD1999999-0111MW1021REMSYN094AAXX  07004 82986 31595 70902 10255 20215 39819 40103 70251 8357/ 333 10315 29072 55065 59011;EQDQ01  00002PRCP06
0186829860999992004020712004-09400-038217FM-12+0252SBUF V0203201N001511050019N0100001N1+02651+02141101091ADDAA106000091GF105991021021012501031011KA1240N+02321MA1999999098251MD1999999-0091REMSYN076AAXX  07124 82986 32697 53203 10265 20214 39825 40109 82231 333 20232 59009;EQDQ01  00002PRCP06
0195829860999992004020718004-09400-038217FM-12+0252SBUF V0201801N001510450019N0100001N1+02991+02041100771ADDAA106000091AY151061AY221061GF106991031021008001071001MA1999999097951MD1999999-0011MW1151REMSYN076AAXX  07184 82986 31597 61803 10299 20204 39795 40077 71552 83270 333 59001;EQDQ01  00002PRCP06
0198829860999992004020800004-09400-038217FM-12+0252SBUF V0201801N000519999999N0020001N1+02681+02281101051ADDAA106000091GF105991051001012501051001KA1240M+03241MA1999999098221MD1999999+0031REMSYN088AAXX  08004 82986 32695 51801 10268 20228 39822 40105 85050 333 10324 29072 55062 58003;EQDQ01  00002PRCP06
0186829860999992004020812004-09400-038217FM-12+0252SBUF V0203201N001512200019N0100001N1+02731+02301101201ADDAA106000091GF104991021021012501051011KA1240N+02401MA1999999098371MD1999999+0121REMSYN076AAXX  08124 82986 32697 43203 10273 20230 39837 40120 82251 333 20240 58012;EQDQ01  00002PRCP06
0167829860999992004020818004-09400-038217FM-12+0252SBUF V0200901N003112200019N0200001N1+03181+02101100881ADDAA106000091GF105991031021008001001061MA1999999098071MD1999999+0121REMSYN070AAXX  08184 82986 32598 50906 10318 20210 39807 40088 83206 333 58012;EQDQ01  00002PRCP06
0198829860999992004020900004-09400-038217FM-12+0252SBUF V0201801N001512200019N0020001N1+02731+02241101181ADDAA106000091GF103991031051008001001001KA1240M+03241MA1999999098361MD1999999+0141REMSYN088AAXX  09004 82986 32595 31803 10273 20224 39836 40118 83500 333 10324 29070 55094 58014;EQDQ01  00002PRCP06
0214829860999992004020912004-09400-038217FM-12+0252SBUF V0200901N001510075019N0100001N1+02701+02111101421ADDAA106000091AY141061AY201061GF105991051021008001001001KA1240N+02371MA1999999098581MD1999999+0211MW1051REMSYN082AAXX  09124 82986 31597 50903 10270 20211 39858 40142 70540 85200 333 20237 58021;EQDQ01  00002PRCP06
0167829860999992004020918004-09400-038217FM-12+0252SBUF V0200901N003112200019N0200001N1+03171+01791100971ADDAA106000091GF106991021011012501001061MA1999999098161MD1999999+0091REMSYN070AAXX  09184 82986 32698 60906 10317 20179 39816 40097 82106 333 58009;EQDQ01  00002PRCP06
0208829860999992004021000004-09400-038217FM-12+0252SBUF V0201801N002112200019N0020001N1+02601+02081101211ADDAA106000091GA1001+999999999GF100991001001999999001001KA1240M+03191MA1999999098371MD1999999+0011REMSYN082AAXX  10004 82986 32995 01804 10260 20208 39837 40121 333 10319 29065 55104 58001;EQDQ01  00002PRCP06
0214829860999992004021012004-09400-038217FM-12+0252SBUF V0201801N001512200019N0100001N1+02491+02091101361ADDAA106000091AY141061AY201061GF104991041011012501001001KA1240N+02181MA1999999098511MD1999999-0071MW1051REMSYN082AAXX  10124 82986 31697 41803 10249 20209 39851 40136 70540 84100 333 20218 59007;EQDQ01  00002PRCP06
0167829860999992004021018004-09400-038217FM-12+0252SBUF V0201401N005112200019N0200001N1+03091+02101100981ADDAA106000091GF104991021011012501001011MA1999999098151MD1999999-0011REMSYN070AAXX  10184 82986 32698 41410 10309 20210 39815 40098 82101 333 59001;EQDQ01  00002PRCP06
0208829860999992004021100004-09400-038217FM-12+0252SBUF V0201801N003112200019N0020001N1+02681+02041101291ADDAA106000091GA1001+999999999GF100991001001999999001001KA1240M+03131MA1999999098451MD1999999+0081REMSYN082AAXX  11004 82986 32995 01806 10268 20204 39845 40129 333 10313 29068 55109 58008;EQDQ01  00002PRCP06
0186829860999992004021112004-09400-038217FM-12+0252SBUF V0201801N005110075019N0100001N1+02521+02051101371ADDAA106000091GF106991061021008001001001KA1240N+02141MA1999999098521MD1999999+0011REMSYN076AAXX  11124 82986 32597 61810 10252 20205 39852 40137 86200 333 20214 58001;EQDQ01  00002PRCP06
0167829860999992004021118004-09400-038217FM-12+0252SBUF V0201401N005110120019N0200001N1+03131+01851101031ADDAA106000091GF106991061021012501001011MA1999999098201MD1999999+0051REMSYN070AAXX  11184 82986 32698 61410 10313 20185 39820 40103 86201 333 58005;EQDQ01  00002PRCP06
0208829860999992004021200004-09400-038217FM-12+0252SBUF V0201401N006212200019N0020001N1+02571+01831101331ADDAA106000091GA1001+999999999GF100991001001999999001001KA1240M+03151MA1999999098481MD1999999+0031REMSYN082AAXX  12004 82986 32995 01412 10257 20183 39848 40133 333 10315 29063 55096 58003;EQDQ01  00002PRCP06
0190829860999992004021212004-09400-038217FM-12+0252SBUF V0201801N003610090019N0040001N1+02391+02191101491ADDAY151061AY221061GF108991081081004501999999KA1240N+02221MA1999999098631MD1999999+0111MW1501REMSYN088AAXX  12124 82986 21496 81807 10239 20219 39863 40149 75052 888// 333 20222 58011 69914;
0171829860999992004021218004-09400-038217FM-12+0252SBUF V0201401N003610120019N0200001N1+03031+02131101071ADDAY161061AY221061GF106991061031012501001051MA1999999098241MD1999999+0041MW1011REMSYN082AAXX  12184 82986 21698 61407 10303 20213 39824 40107 70162 86305 333 58004 69981;
0212829860999992004021300004-09400-038217FM-12+0252SBUF V0201801N003112200019N0020001N1+02391+02151101451ADDAY161061AY221061GA1001+999999999GF100991001001999999001001KA1240M+03111MA1999999098581MD1999999+0101MW1001REMSYN094AAXX  13004 82986 21995 01806 10239 20215 39858 40145 70062 333 10311 29081 55037 58010 60191;
0190829860999992004021312004-09400-038217FM-12+0252SBUF V0201401N004610450019N0100001N1+02471+02151101551ADDAY141061AY211061GF106991041031008001031031KA1240N+02181MA1999999098681MD1999999+0051MW1051REMSYN088AAXX  13124 82986 21597 61409 10247 20215 39868 40155 70541 84333 333 20218 58005 60204;
0167829860999992004021318004-09400-038217FM-12+0252SBUF V0200901N003612200019N0200001N1+03011+02031101141ADDAA106000091GF105991041021008001001011MA1999999098301MD1999999+0061REMSYN070AAXX  13184 82986 32598 50907 10301 20203 39830 40114 84201 333 58006;EQDQ01  00002PRCP06
0208829860999992004021400004-09400-038217FM-12+0252SBUF V0201401N004612200019N0020001N1+02551+01831101381ADDAA106000091GA1001+999999999GF100991001001999999001001KA1240M+03021MA1999999098521MD1999999-0061REMSYN082AAXX  14004 82986 32995 01409 10255 20183 39852 40138 333 10302 29067 55106 59006;EQDQ01  00002PRCP06
0186829860999992004021412004-09400-038217FM-12+0252SBUF V0201401N002110450019N0100001N1+02511+02111101471ADDAA106000091GF105991031031012501031001KA1240N+02101MA1999999098621MD1999999-0061REMSYN076AAXX  14124 82986 32697 51404 10251 20211 39862 40147 83330 333 20210 59006;EQDQ01  00002PRCP06
0167829860999992004021418004-09400-038217FM-12+0252SBUF V0201401N002610450019N0200001N1+03001+01881101041ADDAA106000091GF105991031011008001061041MA1999999098201MD1999999+0201REMSYN070AAXX  14184 82986 32598 51405 10300 20188 39820 40104 83164 333 58020;EQDQ01  00002PRCP06
0198829860999992004021500004-09400-038217FM-12+0252SBUF V0201401N005112200019N0020001N1+02641+02181101241ADDAA106000091GF103991031001017501051001KA1240M+03071MA1999999098401MD1999999-0121REMSYN088AAXX  15004 82986 32795 31410 10264 20218 39840 40124 83050 333 10307 29071 55108 59012;EQDQ01  00002PRCP06
0186829860999992004021512004-09400-038217FM-12+0252SBUF V0201401N002110450019N0100001N1+02611+02211101331ADDAA106000091GF106991031011008001081001KA1240N+02331MA1999999098491MD1999999-0131REMSYN076AAXX  15124 82986 32597 61404 10261 20221 39849 40133 83180 333 20233 59013;EQDQ01  00002PRCP06
0167829860999992004021518004-09400-038217FM-12+0252SBUF V0201801N004110450019N0200001N1+03091+02191100891ADDAA106000091GF106991031021008001041061MA1999999098071MD1999999-0131REMSYN070AAXX  15184 82986 32598 61808 10309 20219 39807 40089 83246 333 59013;EQDQ01  00002PRCP06
0198829860999992004021600004-09400-038217FM-12+0252SBUF V0201401N003612200019N0020001N1+02611+02271101241ADDAA106000091GF101991011011012501001001KA1240M+03151MA1999999098401MD1999999+0001REMSYN088AAXX  16004 82986 32695 11407 10261 20227 39840 40124 81100 333 10315 29076 55090 58000;EQDQ01  00002PRCP06
0186829860999992004021612004-09400-038217FM-12+0252SBUF V0201401N004110075019N0100001N1+02691+02201101391ADDAA106000091GF105991051021008001001001KA1240N+02361MA1999999098551MD1999999-0061REMSYN076AAXX  16124 82986 32597 51408 10269 20220 39855 40139 85200 333 20236 59006;EQDQ01  00002PRCP06
0195829860999992004021618004-09400-038217FM-12+0252SBUF V0201401N004112200019N0040001N1+03171+02141100881ADDAA106000091AY141061AY211061GF104991031021008001001011MA1999999098071MD1999999+0001MW1051REMSYN076AAXX  16184 82986 31596 41408 10317 20214 39807 40088 70541 83201 333 58000;EQDQ01  00002PRCP06
0208829860999992004021700004-09400-038217FM-12+0252SBUF V0201401N004112200019N0020001N1+02731+02121101211ADDAA106000091GA1001+999999999GF100991001001999999001001KA1240M+03211MA1999999098381MD1999999-0021REMSYN082AAXX  17004 82986 32995 01408 10273 20212 39838 40121 333 10321 29068 55095 59002;EQDQ01  00002PRCP06
0214829860999992004021712004-09400-038217FM-12+0252SBUF V0201801N001511050019N0040001N1+02621+02141101391ADDAA106000091AY141061AY221061GF106991041021008001001021KA1240N+02341MA1999999098561MD1999999+0011MW1051REMSYN082AAXX  17124 82986 31596 61803 10262 20214 39856 40139 70542 84202 333 20234 58001;EQDQ01  00002PRCP06
0195829860999992004021718004-09400-038217FM-12+0252SBUF V0201401N004111050019N0200001N1+03091+01881101071ADDAA106000091AY141061AY201061GF106991021011012501001081MA1999999098251MD1999999+0181MW1051REMSYN076AAXX  17184 82986 31698 61408 10309 20188 39825 40107 70540 82108 333 58018;EQDQ01  00002PRCP06
0208829860999992004021800004-09400-038217FM-12+0252SBUF V0201401N005712200019N0020001N1+02611+02061101261ADDAA106000091GA1001+999999999GF100991001001999999001001KA1240M+03171MA1999999098421MD1999999+0031REMSYN082AAXX  18004 82986 32995 01411 10261 20206 39842 40126 333 10317 29067 55086 58003;EQDQ01  00002PRCP06
0214829860999992004021812004-09400-038217FM-12+0252SBUF V0201801N002610075019N0040001N1+02601+02191101481ADDAA106000091AY141061AY221061GF106991051021008001061001KA1240N+02261MA1999999098631MD1999999+0071MW1051REMSYN082AAXX  18124 82986 31596 61805 10260 20219 39863 40148 70542 85260 333 20226 58007;EQDQ01  00002PRCP06
0195829860999992004021818004-09400-038217FM-12+0252SBUF V0201401N005710450019N0200001N1+03111+01191101041ADDAA106000091AY141061AY221061GF105991021011012501031051MA1999999098211MD1999999-0041MW1051REMSYN076AAXX  18184 82986 31698 51411 10311 20119 39821 40104 70542 82135 333 59004;EQDQ01  00002PRCP06
0214829860999992004021912004-09400-038217FM-12+0252SBUF V0201801N002110450019N0100001N1+02531+02091101281ADDAA106000091AY141061AY221061GF106991031041012501031081KA1240N+02321MA1999999098441MD1999999-0191MW1051REMSYN082AAXX  19124 82986 31697 61804 10253 20209 39844 40128 70542 83438 333 20232 59019;EQDQ01  00002PRCP06
0167829860999992004021918004-09400-038217FM-12+0252SBUF V0201401N002612200019N0200001N1+03211+01931100811ADDAA106000091GF104991031021008001001011MA1999999098001MD1999999-0211REMSYN070AAXX  19184 82986 32598 41405 10321 20193 39800 40081 83201 333 59021;EQDQ01  00002PRCP06
0208829860999992004022000004-09400-038217FM-12+0252SBUF V0201801N005112200019N0020001N1+02721+01981101011ADDAA106000091GA1001+999999999GF100991001001999999001001KA1240M+03231MA1999999098181MD1999999-0211REMSYN082AAXX  20004 82986 32995 01810 10272 20198 39818 40101 333 10323 29063 55103 59021;EQDQ01  00002PRCP06
0214829860999992004022012004-09400-038217FM-12+0252SBUF V0201801N004110450019N0100001N1+02591+02171101211ADDAA106000091AY141061AY221061GF106991041041008001061011KA1240N+02301MA1999999098371MD1999999-0091MW1051REMSYN082AAXX  20124 82986 31597 61808 10259 20217 39837 40121 70542 84461 333 20230 59009;EQDQ01  00002PRCP06
0167829860999992004022018004-09400-038217FM-12+0252SBUF V0201401N002112200019N0200001N1+03201+01931100821ADDAA106000091GF104991021021012501001021MA1999999098011MD1999999+0011REMSYN070AAXX  20184 82986 32698 41404 10320 20193 39801 40082 82202 333 58001;EQDQ01  00002PRCP06
0208829860999992004022100004-09400-038217FM-12+0252SBUF V0201401N005112200019N0020001N1+02651+02121101131ADDAA106000091GA1001+999999999GF100991001001999999001001KA1240M+03241MA1999999098291MD1999999+0111REMSYN082AAXX  21004 82986 32995 01410 10265 20212 39829 40113 333 10324 29068 55095 58011;EQDQ01  00002PRCP06
0186829860999992004022112004-09400-038217FM-12+0252SBUF V0201801N003610450019N0100001N1+02631+02071101371ADDAA106000091GF105991031011008001061011KA1240N+02261MA1999999098531MD1999999+0161REMSYN076AAXX  21124 82986 32597 51807 10263 20207 39853 40137 83161 333 20226 58016;EQDQ01  00002PRCP06
0167829860999992004022118004-09400-038217FM-12+0252SBUF V0201401N004110450019N0200001N1+03191+01771101011ADDAA106000091GF106991041011008001051011MA1999999098181MD1999999+0171REMSYN070AAXX  21184 82986 32598 61408 10319 20177 39818 40101 84151 333 58017;EQDQ01  00002PRCP06
0186829860999992004022212004-09400-038217FM-12+0252SBUF V0201401N005110450019N0100001N1+02571+02081101431ADDAA106000091GF106991041011008001081001KA1240N+02161MA1999999098591MD1999999+0061REMSYN076AAXX  22124 82986 32597 61410 10257 20208 39859 40143 84180 333 20216 58006;EQDQ01  00002PRCP06
0167829860999992004022218004-09400-038217FM-12+0252SBUF V0201401N004112200019N0200001N1+03211+01751100991ADDAA106000091GF104991041011012501001001MA1999999098161MD1999999-0021REMSYN070AAXX  22184 82986 32698 41408 10321 20175 39816 40099 84100 333 59002;EQDQ01  00002PRCP06
0186829860999992004022312004-09400-038217FM-12+0252SBUF V0201401N005110075019N0100001N1+02711+02111101361ADDAA106000091GF106991051021008001051011KA1240N+02381MA1999999098531MD1999999-0061REMSYN076AAXX  23124 82986 32597 61410 10271 20211 39853 40136 85251 333 20238 59006;EQDQ01  00002PRCP06
0167829860999992004022318004-09400-038217FM-12+0252SBUF V0201401N003110450019N0200001N1+03271+01911100941ADDAA106000091GF105991031021012501031041MA1999999098131MD1999999-0031REMSYN070AAXX  23184 82986 32698 51406 10327 20191 39813 40094 83234 333 59003;EQDQ01  00002PRCP06
0186829860999992004022412004-09400-038217FM-12+0252SBUF V0201801N003110021019N0040001N1+02551+02271101381ADDAA106000091GF108991061071002501081999KA1240N+02421MA1999999098551MD1999999+0021REMSYN076AAXX  24124 82986 32396 81806 10255 20227 39855 40138 8678/ 333 20242 58002;EQDQ01  00002PRCP06
0167829860999992004022418004-09400-038217FM-12+0252SBUF V0201401N003110450019N0200001N1+03271+01881100881ADDAA106000091GF105991031021008001031051MA1999999098081MD1999999-0051REMSYN070AAXX  24184 82986 32598 51406 10327 20188 39808 40088 83235 333 59005;EQDQ01  00002PRCP06
0186829860999992004022512004-09400-038217FM-12+0252SBUF V0201401N001510021019N0040001N1+02511+02191101371ADDAA106000091GF108991051071002501071999KA1240N+02441MA1999999098541MD1999999-0011REMSYN076AAXX  25124 82986 32396 81403 10251 20219 39854 40137 8577/ 333 20244 59001;EQDQ01  00002PRCP06
0167829860999992004022518004-09400-038217FM-12+0252SBUF V0201801N003110042019N0100001N1+02851+02011101131ADDAA106000091GF108991061021004501081999MA1999999098301MD1999999+0221REMSYN070AAXX  25184 82986 32497 81806 10285 20201 39830 40113 8628/ 333 58022;EQDQ01  00002PRCP06
0208829860999992004022600004-09400-038217FM-12+0252SBUF V0201401N003112200019N0020001N1+02611+02101101261ADDAA106000091GA1001+999999999GF100991001001999999001001KA1240M+02911MA1999999098411MD1999999+0101REMSYN082AAXX  26004 82986 32995 01406 10261 20210 39841 40126 333 10291 29073 55000 58010;EQDQ01  00002PRCP06
0186829860999992004022612004-09400-038217FM-12+0252SBUF V0201401N004110450019N0100001N1+02591+02121101481ADDAA106000091GF106991041041004501031081KA1240N+02301MA1999999098631MD1999999+0091REMSYN076AAXX  26124 82986 32497 61408 10259 20212 39863 40148 84438 333 20230 58009;EQDQ01  00002PRCP06
0167829860999992004022618004-09400-038217FM-12+0252SBUF V0201401N004112200019N0200001N1+03291+01661101061ADDAA106000091GF105991041011008001001011MA1999999098251MD1999999-0051REMSYN070AAXX  26184 82986 32598 51408 10329 20166 39825 40106 84101 333 59005;EQDQ01  00002PRCP06
0208829860999992004022700004-09400-038217FM-12+0252SBUF V0201401N005112200019N0020001N1+02731+02001101341ADDAA106000091GA1001+999999999GF100991001001999999001001KA1240M+03321MA1999999098501MD1999999+0091REMSYN082AAXX  27004 82986 32995 01410 10273 20200 39850 40134 333 10332 29061 55096 58009;EQDQ01  00002PRCP06
0186829860999992004022712004-09400-038217FM-12+0252SBUF V0201801N003110450019N0100001N1+02591+02171101441ADDAA106000091GF106991031031008001051001KA1240N+02281MA1999999098601MD1999999-0031REMSYN076AAXX  27124 82986 32597 61806 10259 20217 39860 40144 83350 333 20228 59003;EQDQ01  00002PRCP06
0167829860999992004022718004-09400-038217FM-12+0252SBUF V0200501N001512200019N0200001N1+03381+01911100831ADDAA106000091GF104991031011012501001061MA1999999098021MD1999999-0231REMSYN070AAXX  27184 82986 32698 40503 10338 20191 39802 40083 83106 333 59023;EQDQ01  00002PRCP06
0214829860999992004022800004-09400-038217FM-12+0252SBUF V0201401N005110012019N0020001N1+02851+02171101151ADDAA106000091GA1091+999999999GF109991091999999999999999KA1240M+03421MA1999999098321MD1999999-0181REMSYN088AAXX  28004 82986 32/95 91410 10285 20217 39832 40115 89/// 333 10342 29064 55094 59018;EQDQ01  00002PRCP06
0186829860999992004022812004-09400-038217FM-12+0252SBUF V0203201N003110042019N0040001N1+02691+02181101151ADDAA106000091GF107991051071004501081001KA1240N+02431MA1999999098331MD1999999-0271REMSYN076AAXX  28124 82986 32496 73206 10269 20218 39833 40115 85780 333 20243 59027;EQDQ01  00002PRCP06
0195829860999992004022818004-09400-038217FM-12+0252SBUF V0203601N001510042019N0100001N1+03331+02171100591ADDAA106000091AY121061AY221061GF106991051021004501061011MA1999999097791MD1999999-0231MW1151REMSYN076AAXX  28184 82986 31497 63603 10333 20217 39779 40059 71522 85261 333 59023;EQDQ01  00002PRCP06
0226829860999992004022900004-09400-038217FM-12+0252SBUF V0201801N002610450019N0020001N1+02601+02311100991ADDAA106000091AY151061AY221061GF107991021041008001091999KA1240M+03411MA1999999098161MD1999999-0161MW1131REMSYN094AAXX  29004 82986 31595 71805 10260 20231 39816 40099 71352 8249/ 333 10341 29075 55059 59016;EQDQ01  00002PRCP06
0190829860999992004022912004-09400-038217FM-12+0252SBUF V0201801N004110450019N0040001N1+02591+02291101381ADDAY161061AY221061GF108991021041002501071999KA1240N+02391MA1999999098531MD1999999+0201MW1101REMSYN088AAXX  29124 82986 21396 81808 10259 20229 39853 40138 71062 8247/ 333 20239 58020 60094;
0167829860999992004022918004-09400-038217FM-12+0252SBUF V0202301N003610075019N0200001N1+02831+02151101051ADDAA106000091GF107991051011008001051081MA1999999098211MD1999999+0421REMSYN070AAXX  29184 82986 32598 72307 10283 20215 39821 40105 85158 333 58042;EQDQ01  00002PRCP06
0214829860999992004030100004-09400-038217FM-12+0252SBUF V0201801N003119999999N0020001N1+02531+02211101201ADDAA106000091GF106991999041012501001001KA1240M+02971MA1999999098351MD1999999+0191REMSYN088AAXX  01004 82986 32695 61806 10253 20221 39835 40120 83400 333 10297 29079 55006 58019;EQDQ01+000032SCOTLCQ02  00002PRCP06
0214829860999992004030112004-09400-038217FM-12+0252SBUF V0201801N002610042019N0040001N1+02651+02271101331ADDAA106000091AY121061AY221061GF106991061021004501001001KA1240N+02341MA1999999098481MD1999999-0051MW1101REMSYN082AAXX  01124 82986 31496 61805 10265 20227 39848 40133 71022 86200 333 20234 59005;EQDQ01  00002PRCP06
0167829860999992004030118004-09400-038217FM-12+0252SBUF V0201401N005110450019N0200001N1+03271+02021100981ADDAA106000091GF105991031031012501031001MA1999999098171MD1999999-0041REMSYN070AAXX  01184 82986 32698 51410 10327 20202 39817 40098 83330 333 59004;EQDQ01  00002PRCP06
0208829860999992004030200004-09400-038217FM-12+0252SBUF V0201801N004612200019N0020001N1+02791+02061101141ADDAA106000091GA1001+999999999GF100991001001999999001001KA1240M+03331MA1999999098311MD1999999-0041REMSYN082AAXX  02004 82986 32695 01809 10279 20206 39831 40114 333 10333 29064 55086 59004;EQDQ01  00002PRCP06
0186829860999992004030212004-09400-038217FM-12+0252SBUF V0201801N004112200019N0100001N1+02691+02181101241ADDAA106000091GF104991021011012501031011KA1240N+02281MA1999999098411MD1999999-0071REMSYN076AAXX  02124 82986 32697 41808 10269 20218 39841 40124 82131 333 20228 59007;EQDQ01  00002PRCP06
0167829860999992004030218004-09400-038217FM-12+0252SBUF V0201401N005110450019N0200001N1+03211+01821100821ADDAA106000091GF106991031011008001061011MA1999999098001MD1999999-0171REMSYN070AAXX  02184 82986 32598 61410 10321 20182 39800 40082 83161 333 59017;EQDQ01  00002PRCP06
0198829860999992004030300004-09400-038217FM-12+0252SBUF V0201401N006212200019N0020001N1+02791+02041101151ADDAA106000091GF103991021021012501031001KA1240M+03341MA1999999098331MD1999999+0021REMSYN088AAXX  03004 82986 32695 31412 10279 20204 39833 40115 82230 333 10334 29062 55098 58002;EQDQ01  00002PRCP06
0186829860999992004030312004-09400-038217FM-12+0252SBUF V0201401N003110450019N0100001N1+02591+02101101291ADDAA106000091GF105991031021012501031011KA1240N+02281MA1999999098461MD1999999+0051REMSYN076AAXX  03124 82986 32697 51406 10259 20210 39846 40129 83231 333 20228 58005;EQDQ01  00002PRCP06
0167829860999992004030318004-09400-038217FM-12+0252SBUF V0201401N003112200019N0200001N1+03311+01641100861ADDAA106000091GF104991021021012501041011MA1999999098051MD1999999+0051REMSYN070AAXX  03184 82986 32698 41406 10331 20164 39805 40086 82241 333 58005;EQDQ01  00002PRCP06
0198829860999992004030400004-09400-038217FM-12+0252SBUF V0201401N005712200019N0020001N1+02851+02011100981ADDAA106000091GF103991031001012501031001KA1240M+03361MA1999999098161MD1999999-0171REMSYN088AAXX  04004 82986 32695 31411 10285 20201 39816 40098 83030 333 10336 29059 55104 59017;EQDQ01  00002PRCP06
0186829860999992004030412004-09400-038217FM-12+0252SBUF V0201401N005112200019N0100001N1+02731+02051101331ADDAA106000091GF104991041021008001001001KA1240N+02281MA1999999098511MD1999999+0051REMSYN076AAXX  04124 82986 32597 41410 10273 20205 39851 40133 84200 333 20228 58005;EQDQ01  00002PRCP06
0167829860999992004030418004-09400-038217FM-12+0252SBUF V0201401N002611050019N0200001N1+03351+01671100921ADDAA106000091GF106991021021008001001081MA1999999098111MD1999999+0061REMSYN070AAXX  04184 82986 32598 61405 10335 20167 39811 40092 82208 333 58006;EQDQ01  00002PRCP06
0198829860999992004030500004-09400-038217FM-12+0252SBUF V0201401N006210120019N0020001N1+02741+02001101211ADDAA106000091GF105991051051012501001001KA1240M+03381MA1999999098381MD1999999+0221REMSYN088AAXX  05004 82986 32695 51412 10274 20200 39838 40121 85500 333 10338 29059 55100 58022;EQDQ01  00002PRCP06
0186829860999992004030512004-09400-038217FM-12+0252SBUF V0200901N005110075019N0100001N1+02661+02091101451ADDAA106000091GF105991051021008001001001KA1240N+02241MA1999999098611MD1999999+0101REMSYN076AAXX  05124 82986 32597 50910 10266 20209 39861 40145 85200 333 20224 58010;EQDQ01  00002PRCP06
0167829860999992004030518004-09400-038217FM-12+0252SBUF V0201401N003110075019N0200001N1+03261+01561101011ADDAA106000091GF106991051021008001041001MA1999999098201MD1999999+0091REMSYN070AAXX  05184 82986 32598 61406 10326 20156 39820 40101 85240 333 58009;EQDQ01  00002PRCP06
0198829860999992004030600004-09400-038217FM-12+0252SBUF V0201401N006210150019N0020001N1+02651+02031101271ADDAA106000091GF106991061001017501051001KA1240M+03411MA1999999098431MD1999999+0051REMSYN088AAXX  06004 82986 32795 61412 10265 20203 39843 40127 86050 333 10341 29061 55105 58005;EQDQ01  00002PRCP06
0186829860999992004030612004-09400-038217FM-12+0252SBUF V0201401N004610450019N0100001N1+02541+02151101411ADDAA106000091GF106991041021004501071061KA1240N+02341MA1999999098561MD1999999-0051REMSYN076AAXX  06124 82986 32497 61409 10254 20215 39856 40141 84276 333 20234 59005;EQDQ01  00002PRCP06
0167829860999992004030618004-09400-038217FM-12+0252SBUF V0201401N003610450019N0200001N1+03171+01921101031ADDAA106000091GF106991041021012501031061MA1999999098211MD1999999+0011REMSYN070AAXX  06184 82986 32698 61407 10317 20192 39821 40103 84236 333 58001;EQDQ01  00002PRCP06
0198829860999992004030700004-09400-038217FM-12+0252SBUF V0201401N005112200019N0020001N1+02711+01961101231ADDAA106000091GF104991011011008001001041KA1240M+03251MA1999999098391MD1999999-0041REMSYN088AAXX  07004 82986 32595 41410 10271 20196 39839 40123 81104 333 10325 29064 55046 59004;EQDQ01  00002PRCP06
0186829860999992004030712004-09400-038217FM-12+0252SBUF V0201401N003110075019N0100001N1+02611+02141101431ADDAA106000091GF108991061021008001061081KA1240N+02271MA1999999098591MD1999999+0031REMSYN076AAXX  07124 82986 32597 81406 10261 20214 39859 40143 86268 333 20227 58003;EQDQ01  00002PRCP06
0167829860999992004030718004-09400-038217FM-12+0252SBUF V0202301N002610120019N0200001N1+03211+01821100981ADDAA106000091GF106991051021012501031081MA1999999098161MD1999999-0051REMSYN070AAXX  07184 82986 32698 62305 10321 20182 39816 40098 85238 333 59005;EQDQ01  00002PRCP06
0226829860999992004030800004-09400-038217FM-12+0252SBUF V0201401N005710450019N0020001N1+02531+02021101331ADDAA106000091AY151061AY221061GF106991031071004501071999KA1240M+03351MA1999999098481MD1999999+0091MW1031REMSYN094AAXX  08004 82986 31495 61411 10253 20202 39848 40133 70352 8377/ 333 10335 29067 55071 58009;EQDQ01  00002PRCP06
0214829860999992004030812004-09400-038217FM-12+0252SBUF V0201801N003110450019N0100001N1+02411+02091101551ADDAA106000091AY151061AY221061GF106991031041008001071061KA1240N+02181MA1999999098681MD1999999+0091MW1021REMSYN082AAXX  08124 82986 31597 61806 10241 20209 39868 40155 70252 83476 333 20218 58009;EQDQ01  00002PRCP06
0167829860999992004030818004-09400-038217FM-12+0252SBUF V0201401N003111050019N0200001N1+03111+01801101131ADDAA106000091GF106991031021008001001081MA1999999098301MD1999999+0141REMSYN070AAXX  08184 82986 32598 61406 10311 20180 39830 40113 83208 333 58014;EQDQ01  00002PRCP06
0186829860999992004030912004-09400-038217FM-12+0252SBUF V0201801N006210450019N0100001N1+02571+02061101521ADDAA106000091GF107991021021012501091081KA1240N+02141MA1999999098671MD1999999-0011REMSYN076AAXX  09124 82986 32697 71812 10257 20206 39867 40152 82298 333 20214 59001;EQDQ01  00002PRCP06
0167829860999992004030918004-09400-038217FM-12+0252SBUF V0201401N004611050019N0200001N1+03291+01741101131ADDAA106000091GF105991031021012501001051MA1999999098311MD1999999+0011REMSYN070AAXX  09184 82986 32698 51409 10329 20174 39831 40113 83205 333 58001;EQDQ01  00002PRCP06
0198829860999992004031000004-09400-038217FM-12+0252SBUF V0201401N006710150019N0020001N1+02791+01911101401ADDAA106000091GF105991051001017501051001KA1240M+03381MA1999999098571MD1999999-0031REMSYN088AAXX  10004 82986 32795 51413 10279 20191 39857 40140 85050 333 10338 29059 55073 59003;EQDQ01  00002PRCP06
0186829860999992004031012004-09400-038217FM-12+0252SBUF V0201401N004110075019N0100001N1+02651+02161101531ADDAA106000091GF106991051021008001031001KA1240N+02271MA1999999098691MD1999999+0021REMSYN076AAXX  10124 82986 32597 61408 10265 20216 39869 40153 85230 333 20227 58002;EQDQ01  00002PRCP06
0167829860999992004031018004-09400-038217FM-12+0252SBUF V0201401N001010450019N0200001N1+03291+01821101101ADDAA106000091GF108991031031008001071999MA1999999098281MD1999999-0031REMSYN070AAXX  10184 82986 32598 81402 10329 20182 39828 40110 8337/ 333 59003;EQDQ01  00002PRCP06
0230829860999992004031100004-09400-038217FM-12+0252SBUF V0209999C000012200019N0200001N1+02941+02331101281ADDAA106000091GF104991999021008001001001KA1240M+03241MA1999999999999MD1999999+0121REMSYN088AAXX  11004 82986 32598 40000 10294 20233 39569 40128 83200 333 10324 29075 55010 58012;EQDQ01+000032SCOTLCQ02  00002PRCP06Q03 095693APOSP 
0186829860999992004031112004-09400-038217FM-12+0252SBUF V0201401N003110450019N0100001N1+02631+02121101291ADDAA106000091GF106991031031008001061011KA1240N+02301MA1999999098451MD1999999-0241REMSYN076AAXX  11124 82986 32597 61406 10263 20212 39845 40129 83361 333 20230 59024;EQDQ01  00002PRCP06
0176829860999992004031118004-09400-038217FM-12+0252SBUF V0202701N001010450019N0200001N1+03041+01971100841ADDAA106000021AY121061AY221061GF106991031021008001051001MA1999999098021MD1999999-0261MW1201REMSYN076AAXX  11184 82986 31598 62702 10304 20197 39802 40084 72022 83250 333 59026;
0179829860999992004031200004-09400-038217FM-12+0252SBUF V0201401N006712200019N0020001N1+02721+02191101071ADDAA106000021GF101991011001017501041001KA1240M+03201MA1999999098241MD1999999-0351REMSYN088AAXX  12004 82986 32795 11413 10272 20219 39824 40107 81040 333 10320 29068 55042 59035;
0186829860999992004031212004-09400-038217FM-12+0252SBUF V0201801N001010042019N0100001N1+02651+02231101211ADDAA106000091GF108991061051004501081999KA1240N+02441MA1999999098381MD1999999-0071REMSYN076AAXX  12124 82986 32497 81802 10265 20223 39838 40121 8658/ 333 20244 59007;EQDQ01  00002PRCP06
0167829860999992004031218004-09400-038217FM-12+0252SBUF V0200501N002112200019N0200001N1+03431+01981100671ADDAA106000091GF103991031021012501001061MA1999999097881MD1999999-0141REMSYN070AAXX  12184 82986 32698 30504 10343 20198 39788 40067 83206 333 59014;EQDQ01  00002PRCP06
0202829860999992004031300004-09400-038217FM-12+0252SBUF V0201801N002610021019N0020001N1+02351+02291101121ADDAY191061AY221061GF108991051071002501071999KA1240M+03501MA1999999098271MD1999999+0031MW1651REMSYN100AAXX  13004 82986 21395 81805 10235 20229 39827 40112 76592 8577/ 333 10350 29079 55075 58003 60701;
0162829860999992004031312004-09400-038217FM-12+0252SBUF V0202301N001010450019N0100001N1+02791+02301101241ADDGF106991041021008001051061KA1240N+02331MA1999999098391MD1999999+0011REMSYN082AAXX  13124 82986 22597 62302 10279 20230 39839 40124 84256 333 20233 58001 60704;
0167829860999992004031318004-09400-038217FM-12+0252SBUF V0201801N001010450019N0200001N1+03331+02101100751ADDAA106000091GF106991031021008001031021MA1999999097951MD1999999+0071REMSYN070AAXX  13184 82986 32598 61802 10333 20210 39795 40075 83232 333 58007;EQDQ01  00002PRCP06
0226829860999992004031400004-09400-038217FM-12+0252SBUF V0201801N000510450019N0020001N1+02751+02361101081ADDAA106000091AY151061AY221061GF106991031071008001071999KA1240M+03541MA1999999098261MD1999999-0011MW1021REMSYN094AAXX  14004 82986 31595 61801 10275 20236 39826 40108 70252 8377/ 333 10354 29071 55079 59001;EQDQ01  00002PRCP06
0186829860999992004031412004-09400-038217FM-12+0252SBUF V0201801N002112200019N0100001N1+02831+01941101321ADDAA106000091GF104991021011012501051021KA1240N+02421MA1999999098501MD1999999+0111REMSYN076AAXX  14124 82986 32697 41804 10283 20194 39850 40132 82152 333 20242 58011;EQDQ01  00002PRCP06
0167829860999992004031418004-09400-038217FM-12+0252SBUF V0203601N001510450019N0100001N1+03351+01751100851ADDAA106000091GF106991021021008001051051MA1999999098061MD1999999+0111REMSYN070AAXX  14184 82986 32597 63603 10335 20175 39806 40085 82255 333 58011;EQDQ01  00002PRCP06
0208829860999992004031500004-09400-038217FM-12+0252SBUF V0201401N005112200019N0020001N1+02791+02061101081ADDAA106000091GA1001+999999999GF100991001001999999001001KA1240M+03351MA1999999098271MD1999999+0011REMSYN082AAXX  15004 82986 32995 01410 10279 20206 39827 40108 333 10335 29057 55100 58001;EQDQ01  00002PRCP06
0186829860999992004031512004-09400-038217FM-12+0252SBUF V0201801N002112200019N0100001N1+02591+02171101241ADDAA106000091GF102991021011012501001001KA1240N+02241MA1999999098411MD1999999-0091REMSYN076AAXX  15124 82986 32697 21804 10259 20217 39841 40124 82100 333 20224 59009;EQDQ01  00002PRCP06
0167829860999992004031518004-09400-038217FM-12+0252SBUF V0200901N001512200019N0200001N1+03371+01771100761ADDAA106000091GF104991031011012501001011MA1999999097961MD1999999-0101REMSYN070AAXX  15184 82986 32698 40903 10337 20177 39796 40076 83101 333 59010;EQDQ01  00002PRCP06
0198829860999992004031600004-09400-038217FM-12+0252SBUF V0201401N006712200019N0020001N1+02791+02161101001ADDAA106000091GF102991021001017501031001KA1240M+03381MA1999999098181MD1999999-0091REMSYN088AAXX  16004 82986 32795 21413 10279 20216 39818 40100 82030 333 10338 29064 55111 59009;EQDQ01  00002PRCP06
0186829860999992004031612004-09400-038217FM-12+0252SBUF V0201801N002610450019N0100001N1+02681+02181101161ADDAA106000091GF105991031011008001061001KA1240N+02371MA1999999098341MD1999999-0071REMSYN076AAXX  16124 82986 32597 51805 10268 20218 39834 40116 83160 333 20237 59007;EQDQ01  00002PRCP06
0167829860999992004031618004-09400-038217FM-12+0252SBUF V0201401N003610075019N0200001N1+03371+01851100591ADDAA106000091GF106991061021008001001001MA1999999097801MD1999999-0161REMSYN070AAXX  16184 82986 32598 61407 10337 20185 39780 40059 86200 333 59016;EQDQ01  00002PRCP06
0208829860999992004031700004-09400-038217FM-12+0252SBUF V0201401N005712200019N0020001N1+02811+01981100931ADDAA106000091GA1001+999999999GF100991001001999999001001KA1240M+03411MA1999999098081MD1999999-0101REMSYN082AAXX  17004 82986 32995 01411 10281 20198 39808 40093 333 10341 29059 55100 59010;EQDQ01  00002PRCP06
0186829860999992004031712004-09400-038217FM-12+0252SBUF V0202701N001012200019N0100001N1+02681+02161101061ADDAA106000091GF103991031011012501001001KA1240N+02321MA1999999098241MD1999999-0101REMSYN076AAXX  17124 82986 32697 32702 10268 20216 39824 40106 83100 333 20232 59010;EQDQ01  00002PRCP06
0176829860999992004031718004-09400-038217FM-12+0252SBUF V0200501N001510075019N0200001N1+03271+02081100551ADDAA106000021AY101061AY201061GF106991051021008001081061MA1999999097751MD1999999-0051MW1511REMSYN076AAXX  17184 82986 31598 60503 10327 20208 39775 40055 75100 85286 333 59005;
0179829860999992004031800004-09400-038217FM-12+0252SBUF V0201801N004619999999N0020001N1+02931+02171100941ADDAA106000021GF106991061001008001051001KA1240M+03371MA1999999098131MD1999999+0051REMSYN088AAXX  18004 82986 32595 61809 10293 20217 39813 40094 86050 333 10337 29061 55091 58005;
0186829860999992004031812004-09400-038217FM-12+0252SBUF V0203201N001512200019N0100001N1+02801+02291101101ADDAA106000091GF104991031011008001001021KA1240N+02421MA1999999098291MD1999999+0051REMSYN076AAXX  18124 82986 32597 43203 10280 20229 39829 40110 83102 333 20242 58005;EQDQ01  00002PRCP06
0167829860999992004031818004-09400-038217FM-12+0252SBUF V0203201N001510450019N0200001N1+03371+01931100591ADDAA106000091GF105991031021012501031031MA1999999097791MD1999999+0041REMSYN070AAXX  18184 82986 32698 53203 10337 20193 39779 40059 83233 333 58004;EQDQ01  00002PRCP06
0198829860999992004031900004-09400-038217FM-12+0252SBUF V0201801N003112200019N0020001N1+02931+02171100931ADDAA106000091GF104991041001008001021001KA1240M+03421MA1999999098131MD1999999+0001REMSYN088AAXX  19004 82986 32595 41806 10293 20217 39813 40093 84020 333 10342 29061 55091 58000;EQDQ01  00002PRCP06
0214829860999992004031912004-09400-038217FM-12+0252SBUF V0201801N001511050019N0040001N1+02701+02281101211ADDAA106000091AY141061AY221061GF106991041051008001001081KA1240N+02351MA1999999098391MD1999999+0101MW1051REMSYN082AAXX  19124 82986 31596 61803 10270 20228 39839 40121 70542 84508 333 20235 58010;EQDQ01  00002PRCP06
0167829860999992004031918004-09400-038217FM-12+0252SBUF V0203601N002110075019N0200001N1+03211+01931100771ADDAA106000091GF105991051031008001001061MA1999999097961MD1999999+0171REMSYN070AAXX  19184 82986 32598 53604 10321 20193 39796 40077 85306 333 58017;EQDQ01  00002PRCP06
0208829860999992004032000004-09400-038217FM-12+0252SBUF V0201801N004612200019N0020001N1+02891+02321100941ADDAA106000091GA1001+999999999GF100991001001999999001001KA1240M+03371MA1999999098131MD1999999+0001REMSYN082AAXX  20004 82986 32695 01809 10289 20232 39813 40094 333 10337 29067 55057 58000;EQDQ01  00002PRCP06
0186829860999992004032012004-09400-038217FM-12+0252SBUF V0200901N003119999999N0100001N1+02631+01761101241ADDAA106000091GF105991011001012501041061KA1240N+02101MA1999999098411MD1999999+0021REMSYN076AAXX  20124 82986 32697 50906 10263 20176 39841 40124 81046 333 20210 58002;EQDQ01  00002PRCP06
0167829860999992004032018004-09400-038217FM-12+0252SBUF V0203201N001019999999N0200001N1+03231+01691100751ADDAA106000091GF105991021001012501041061MA1999999097931MD1999999-0031REMSYN070AAXX  20184 82986 32698 53202 10323 20169 39793 40075 82046 333 59003;EQDQ01  00002PRCP06
0208829860999992004032100004-09400-038217FM-12+0252SBUF V0201401N005112200019N0020001N1+02941+01851100951ADDAA106000091GA1001+999999999GF100991001001999999001001KA1240M+03341MA1999999098141MD1999999+0011REMSYN082AAXX  21004 82986 32995 01410 10294 20185 39814 40095 333 10334 29051 55096 58001;EQDQ01  00002PRCP06
0186829860999992004032112004-09400-038217FM-12+0252SBUF V0201801N002112200019N0100001N1+02631+02051101131ADDAA106000091GF102991011011012501031001KA1240N+02161MA1999999098311MD1999999-0101REMSYN076AAXX  21124 82986 32697 21804 10263 20205 39831 40113 81130 333 20216 59010;EQDQ01  00002PRCP06
0214829860999992004032212004-09400-038217FM-12+0252SBUF V0201401N002612200019N0100001N1+02691+02161101121ADDAA106000091AY141061AY211061GF104991021011008001021001KA1240N+02321MA1999999098301MD1999999-0011MW1051REMSYN082AAXX  22124 82986 31597 41405 10269 20216 39830 40112 70541 82120 333 20232 59001;EQDQ01  00002PRCP06
0167829860999992004032218004-09400-038217FM-12+0252SBUF V0201401N003110075019N0200001N1+03381+01911100641ADDAA106000091GF106991051021008001061001MA1999999097851MD1999999-0011REMSYN070AAXX  22184 82986 32598 61406 10338 20191 39785 40064 85260 333 59001;EQDQ01  00002PRCP06
0208829860999992004032300004-09400-038217FM-12+0252SBUF V0201401N007212200019N0020001N1+02811+02221101011ADDAA106000091GA1001+999999999GF100991001001999999001001KA1240M+03461MA1999999098191MD1999999+0051REMSYN082AAXX  23004 82986 32995 01414 10281 20222 39819 40101 333 10346 29064 55090 58005;EQDQ01  00002PRCP06
0230829860999992004032312004-09400-038217FM-12+0252SBUF V0201401N002612200019N0100001N1+02701+02131101241ADDAA106000091AY141061AY221061GF104991999031012501001061KA1240N+02341MA1999999098411MD1999999+0111MW1051REMSYN082AAXX  23124 82986 31697 41405 10270 20213 39841 40124 70542 88306 333 20234 58011;EQDQ01+000082SCOTLCQ02  00002PRCP06
0195829860999992004032318004-09400-038217FM-12+0252SBUF V0201401N004112200019N0040001N1+03391+01711100721ADDAA106000091AY141061AY221061GF104991031011008001061021MA1999999097931MD1999999+0081MW1051REMSYN076AAXX  23184 82986 31596 41408 10339 20171 39793 40072 70542 83162 333 58008;EQDQ01  00002PRCP06
0208829860999992004032400004-09400-038217FM-12+0252SBUF V0201401N006712200019N0020001N1+02791+01961101101ADDAA106000091GA1001+999999999GF100991001001999999001001KA1240M+03421MA1999999098281MD1999999+0091REMSYN082AAXX  24004 82986 32995 01413 10279 20196 39828 40110 333 10342 29058 55092 58009;EQDQ01  00002PRCP06
0214829860999992004032412004-09400-038217FM-12+0252SBUF V0201401N004110450019N0040001N1+02731+02031101241ADDAA106000091AY141061AY221061GF107991041081004501051999KA1240N+02451MA1999999098411MD1999999+0001MW1051REMSYN082AAXX  24124 82986 31496 71408 10273 20203 39841 40124 70542 8485/ 333 20245 58000;EQDQ01  00002PRCP06
0186829860999992004032512004-09400-038217FM-12+0252SBUF V0201401N005110090019N0040001N1+02611+02141101221ADDAA106000091GF106991051081004501051001KA1240N+02301MA1999999098391MD1999999-0021REMSYN076AAXX  25124 82986 32496 61410 10261 20214 39839 40122 85850 333 20230 59002;EQDQ01  00002PRCP06
0167829860999992004032518004-09400-038217FM-12+0252SBUF V0201401N003610450019N0200001N1+03291+01581100781ADDAA106000091GF105991031021008001031021MA1999999097981MD1999999-0021REMSYN070AAXX  25184 82986 32598 51407 10329 20158 39798 40078 83232 333 59002;EQDQ01  00002PRCP06
0208829860999992004032600004-09400-038217FM-12+0252SBUF V0201801N004612200019N0020001N1+02751+02101101161ADDAA106000091GA1001+999999999GF100991001001999999001001KA1240M+03351MA1999999098331MD1999999+0051REMSYN082AAXX  26004 82986 32995 01809 10275 20210 39833 40116 333 10335 29062 55088 58005;EQDQ01  00002PRCP06
0186829860999992004032612004-09400-038217FM-12+0252SBUF V0201401N005710450019N0100001N1+02691+02161101201ADDAA106000091GF105991031021012501031011KA1240N+02381MA1999999098371MD1999999-0021REMSYN076AAXX  26124 82986 32697 51411 10269 20216 39837 40120 83231 333 20238 59002;EQDQ01  00002PRCP06
0167829860999992004032618004-09400-038217FM-12+0252SBUF V0200901N003610450019N0200001N1+03381+01791100731ADDAA106000091GF105991031021008001051011MA1999999097941MD1999999-0041REMSYN070AAXX  26184 82986 32598 50907 10338 20179 39794 40073 83251 333 59004;EQDQ01  00002PRCP06
0208829860999992004032700004-09400-038217FM-12+0252SBUF V0201401N006212200019N0020001N1+02661+02081101101ADDAA106000091GA1001+999999999GF100991001001999999001001KA1240M+03411MA1999999098271MD1999999-0061REMSYN082AAXX  27004 82986 32995 01412 10266 20208 39827 40110 333 10341 29063 55092 59006;EQDQ01  00002PRCP06
0186829860999992004032712004-09400-038217FM-12+0252SBUF V0201401N007210450019N0100001N1+02731+02101101111ADDAA106000091GF105991031021008001031011KA1240N+02341MA1999999098281MD1999999-0091REMSYN076AAXX  27124 82986 32597 51414 10273 20210 39828 40111 83231 333 20234 59009;EQDQ01  00002PRCP06
0167829860999992004032718004-09400-038217FM-12+0252SBUF V0201401N004612200019N0200001N1+03401+01591100711ADDAA106000091GF104991021011008001041011MA1999999097921MD1999999-0021REMSYN070AAXX  27184 82986 32598 41409 10340 20159 39792 40071 82141 333 59002;EQDQ01  00002PRCP06
0208829860999992004032800004-09400-038217FM-12+0252SBUF V0201401N006212200019N0020001N1+02751+02051101061ADDAA106000091GA1001+999999999GF100991001001999999001001KA1240M+03411MA1999999098241MD1999999-0031REMSYN082AAXX  28004 82986 32995 01412 10275 20205 39824 40106 333 10341 29059 55094 59003;EQDQ01  00002PRCP06
0186829860999992004032812004-09400-038217FM-12+0252SBUF V0201401N005110450019N0100001N1+02691+01971101291ADDAA106000091GF105991021021008001051051KA1240N+02261MA1999999098461MD1999999+0181REMSYN076AAXX  28124 82986 32597 51410 10269 20197 39846 40129 82255 333 20226 58018;EQDQ01  00002PRCP06
0167829860999992004032818004-09400-038217FM-12+0252SBUF V0201401N005712200019N0200001N1+03281+01491100831ADDAA106000091GF104991031011008001001021MA1999999098021MD1999999+0101REMSYN070AAXX  28184 82986 32598 41411 10328 20149 39802 40083 83102 333 58010;EQDQ01  00002PRCP06
0208829860999992004032900004-09400-038217FM-12+0252SBUF V0201801N006712200019N0020001N1+02711+01721101121ADDAA106000091GA1001+999999999GF100991001001999999001001KA1240M+03331MA1999999098291MD1999999+0051REMSYN082AAXX  29004 82986 32995 01813 10271 20172 39829 40112 333 10333 29052 55098 58005;EQDQ01  00002PRCP06
0190829860999992004032912004-09400-038217FM-12+0252SBUF V0201401N003110450019N0040001N1+02481+02271101381ADDAY151061AY221061GF106991031021004501081011KA1240N+02221MA1999999098531MD1999999+0071MW1031REMSYN088AAXX  29124 82986 21496 61406 10248 20227 39853 40138 70352 83281 333 20222 58007 69924;
0167829860999992004032918004-09400-038217FM-12+0252SBUF V0201401N006710075019N0200001N1+03251+01751100971ADDAA106000091GF105991051021008001001001MA1999999098161MD1999999+0141REMSYN070AAXX  29184 82986 32598 51413 10325 20175 39816 40097 85200 333 58014;EQDQ01  00002PRCP06
0208829860999992004033000004-09400-038217FM-12+0252SBUF V0201401N005712200019N0020001N1+02691+01781101341ADDAA106000091GA1001+999999999GF100991001001999999001001KA1240M+03331MA1999999098491MD1999999+0201REMSYN082AAXX  30004 82986 32995 01411 10269 20178 39849 40134 333 10333 29061 55054 58020;EQDQ01  00002PRCP06
0186829860999992004033012004-09400-038217FM-12+0252SBUF V0201401N003611050019N0100001N1+02691+02041101531ADDAA106000091GF106991041021008001001081KA1240N+02281MA1999999098691MD1999999+0161REMSYN076AAXX  30124 82986 32597 61407 10269 20204 39869 40153 84208 333 20228 58016;EQDQ01  00002PRCP06
0167829860999992004033018004-09400-038217FM-12+0252SBUF V0201801N003110075019N0200001N1+03291+01621101071ADDAA106000091GF106991051011008001001081MA1999999098261MD1999999+0101REMSYN070AAXX  30184 82986 32598 61806 10329 20162 39826 40107 85108 333 58010;EQDQ01  00002PRCP06
0208829860999992004033100004-09400-038217FM-12+0252SBUF V0201801N005112200019N0020001N1+02731+02001101401ADDAA106000091GA1001+999999999GF100991001001999999001001KA1240M+03351MA1999999098561MD1999999+0071REMSYN082AAXX  31004 82986 32995 01810 10273 20200 39856 40140 333 10335 29059 55080 58007;EQDQ01  00002PRCP06
0186829860999992004033112004-09400-038217FM-12+0252SBUF V0201801N003112200019N0200001N1+02711+01991101481ADDAA106000091GF104991041011008001001001KA1240N+02201MA1999999098661MD1999999-0031REMSYN076AAXX  31124 82986 32598 41806 10271 20199 39866 40148 84100 333 20220 59003;EQDQ01  00002PRCP06
0208829860999992004040100004-09400-038217FM-12+0252SBUF V0201401N008212200019N0020001N1+02771+02091101251ADDAA106000091GA1001+999999999GF100991001001999999001001KA1240M+03501MA1999999098421MD1999999-0141REMSYN082AAXX  01004 82986 32995 01416 10277 20209 39842 40125 333 10350 29086 55111 59014;EQDQ01  00002PRCP06
0186829860999992004040112004-09400-038217FM-12+0252SBUF V0201401N003110450019N0100001N1+02671+02181101491ADDAA106000091GF105991031021012501051011KA1240N+02381MA1999999098651MD1999999-0011REMSYN076AAXX  01124 82986 32697 51406 10267 20218 39865 40149 83251 333 20238 59001;EQDQ01  00002PRCP06
0167829860999992004040118004-09400-038217FM-12+0252SBUF V0202701N002112200019N0200001N1+03421+01741100921ADDAA106000091GF104991031021012501001011MA1999999098121MD1999999+0001REMSYN070AAXX  01184 82986 32698 42704 10342 20174 39812 40092 83201 333 58000;EQDQ01  00002PRCP06
0167829860999992004040218004-09400-038217FM-12+0252SBUF V0201801N001512200019N0200001N1+03391+01751101001ADDAA106000091GF104991031021012501001021MA1999999098191MD1999999+0071REMSYN070AAXX  02184 82986 32698 41803 10339 20175 39819 40100 83202 333 58007;EQDQ01  00002PRCP06
0208829860999992004040300004-09400-038217FM-12+0252SBUF V0201401N006712200019N0020001N1+02801+01951101251ADDAA106000091GA1001+999999999GF100991001001999999001001KA1240M+03441MA1999999098431MD1999999+0011REMSYN082AAXX  03004 82986 32995 01413 10280 20195 39843 40125 333 10344 29059 55092 58001;EQDQ01  00002PRCP06
0186829860999992004040512004-09400-038217FM-12+0252SBUF V0201401N003610075019N0100001N1+02771+02121101461ADDAA106000091GF106991051021008001061001KA1240N+02261MA1999999098631MD1999999-0101REMSYN076AAXX  05124 82986 32597 61407 10277 20212 39863 40146 85260 333 20226 59010;EQDQ01  00002PRCP06
0167829860999992004040518004-09400-038217FM-12+0252SBUF V0201401N004110450019N0200001N1+03171+01941101051ADDAA106000091GF105991041021012501081011MA1999999098241MD1999999+0071REMSYN070AAXX  05184 82986 32698 51408 10317 20194 39824 40105 84281 333 58007;EQDQ01  00002PRCP06
0186829860999992004040612004-09400-038217FM-12+0252SBUF V0201401N003611050019N0100001N1+02671+02021101411ADDAA106000091GF106991041041008001001081KA1240N+02311MA1999999098561MD1999999-0071REMSYN076AAXX  06124 82986 32597 61407 10267 20202 39856 40141 84408 333 20231 59007;EQDQ01  00002PRCP06
0167829860999992004040618004-09400-038217FM-12+0252SBUF V0200501N001012200019N0200001N1+03291+01741100901ADDAA106000091GF104991031021012501041011MA1999999098101MD1999999-0141REMSYN070AAXX  06184 82986 32698 40502 10329 20174 39810 40090 83241 333 59014;EQDQ01  00002PRCP06
0198829860999992004040700004-09400-038217FM-12+0252SBUF V0201401N006719999999N0020001N1+02791+02301101111ADDAA106000091GF106991001001999999001081KA1240M+03421MA1999999098291MD1999999-0171REMSYN088AAXX  07004 82986 32995 61413 10279 20230 39829 40111 80008 333 10342 29064 55067 59017;EQDQ01  00002PRCP06
0186829860999992004040712004-09400-038217FM-12+0252SBUF V0201801N005710450019N0100001N1+02751+02101101291ADDAA106000091GF106991041021012501031041KA1240N+02341MA1999999098461MD1999999-0101REMSYN076AAXX  07124 82986 32697 61811 10275 20210 39846 40129 84234 333 20234 59010;EQDQ01  00002PRCP06
0167829860999992004040718004-09400-038217FM-12+0252SBUF V0201401N003110450019N0200001N1+03441+01841100851ADDAA106000091GF105991031021012501031041MA1999999098051MD1999999-0051REMSYN070AAXX  07184 82986 32698 51406 10344 20184 39805 40085 83234 333 59005;EQDQ01  00002PRCP06
0198829860999992004040800004-09400-038217FM-12+0252SBUF V0201401N005112200019N0020001N1+02791+02061101141ADDAA106000091GF102991001001999999001041KA1240M+03451MA1999999098321MD1999999+0031REMSYN088AAXX  08004 82986 32995 21410 10279 20206 39832 40114 80004 333 10345 29059 55103 58003;EQDQ01  00002PRCP06
0186829860999992004040812004-09400-038217FM-12+0252SBUF V0201801N004110450019N0100001N1+02911+02041101331ADDAA106000091GF106991041021008001031041KA1240N+02441MA1999999098511MD1999999+0051REMSYN076AAXX  08124 82986 32597 61808 10291 20204 39851 40133 84234 333 20244 58005;EQDQ01  00002PRCP06
0167829860999992004040818004-09400-038217FM-12+0252SBUF V0201401N002612200019N0200001N1+03431+01911100921ADDAA106000091GF104991031021012501001021MA1999999098131MD1999999+0081REMSYN070AAXX  08184 82986 32698 41405 10343 20191 39813 40092 83202 333 58008;EQDQ01  00002PRCP06
0208829860999992004040900004-09400-038217FM-12+0252SBUF V0201401N005112200019N0020001N1+02801+02081101281ADDAA106000091GA1001+999999999GF100991001001999999001001KA1240M+03471MA1999999098461MD1999999+0141REMSYN082AAXX  09004 82986 32995 01410 10280 20208 39846 40128 333 10347 29058 55073 58014;EQDQ01  00002PRCP06
0186829860999992004040912004-09400-038217FM-12+0252SBUF V0201801N004112200019N0100001N1+02671+02091101431ADDAA106000091GF106991041041008001001041KA1240N+02331MA1999999098601MD1999999+0091REMSYN076AAXX  09124 82986 32597 61808 10267 20209 39860 40143 84404 333 20233 58009;EQDQ01  00002PRCP06
0167829860999992004040918004-09400-038217FM-12+0252SBUF V0200901N002111050019N0200001N1+03251+01711100941ADDAA106000091GF106991031041008001001081MA1999999098131MD1999999+0001REMSYN070AAXX  09184 82986 32598 60904 10325 20171 39813 40094 83408 333 58000;EQDQ01  00002PRCP06
0208829860999992004041000004-09400-038217FM-12+0252SBUF V0201801N005712200019N0020001N1+02751+01951101151ADDAA106000091GA1001+999999999GF100991001001999999001001KA1240M+03341MA1999999098321MD1999999-0141REMSYN082AAXX  10004 82986 32995 01811 10275 20195 39832 40115 333 10334 29059 55054 59014;EQDQ01  00002PRCP06
0186829860999992004041012004-09400-038217FM-12+0252SBUF V0201801N004612200019N0100001N1+02791+01981101171ADDAA106000091GF104991021011008001031001KA1240N+02261MA1999999098351MD1999999-0251REMSYN076AAXX  10124 82986 32597 41809 10279 20198 39835 40117 82130 333 20226 59025;EQDQ01  00002PRCP06
0167829860999992004041018004-09400-038217FM-12+0252SBUF V0201401N004112200019N0200001N1+03411+01721100571ADDAA106000091GF104991041011012501001001MA1999999097771MD1999999-0361REMSYN070AAXX  10184 82986 32698 41408 10341 20172 39777 40057 84100 333 59036;EQDQ01  00002PRCP06
0198829860999992004041100004-09400-038217FM-12+0252SBUF V0201401N008212200019N0020001N1+02771+02091100801ADDAA106000091GF102991021001017501041001KA1240M+03521MA1999999097791MD1999999-0331REMSYN088AAXX  11004 82986 32795 21416 10277 20209 39779 40080 82040 333 10352 29058 55104 59033;EQDQ01  00002PRCP06
0186829860999992004041112004-09400-038217FM-12+0252SBUF V0201801N002110075019N0200001N1+02751+02101100991ADDAA106000091GF106991051051008001001011KA1240N+02401MA1999999098171MD1999999-0181REMSYN076AAXX  11124 82986 32598 61804 10275 20210 39817 40099 85501 333 20240 59018;EQDQ01  00002PRCP06
0167829860999992004041118004-09400-038217FM-12+0252SBUF V0201401N003112200019N0200001N1+03491+01791100491ADDAA106000091GF104991031021012501031001MA1999999097711MD1999999-0061REMSYN070AAXX  11184 82986 32698 41406 10349 20179 39771 40049 83230 333 59006;EQDQ01  00002PRCP06
0186829860999992004041212004-09400-038217FM-12+0252SBUF V0200901N004110075019N0100001N1+02771+02091101051ADDAA106000091GF106991051021008001001011KA1240N+02491MA1999999098241MD1999999+0071REMSYN076AAXX  12124 82986 32597 60908 10277 20209 39824 40105 85201 333 20249 58007;EQDQ01  00002PRCP06
0167829860999992004041218004-09400-038217FM-12+0252SBUF V0201401N002612200019N0200001N1+03511+01631100581ADDAA106000091GF103991031021012501001011MA1999999097801MD1999999+0091REMSYN070AAXX  12184 82986 32698 31405 10351 20163 39780 40058 83201 333 58009;EQDQ01  00002PRCP06
0208829860999992004041300004-09400-038217FM-12+0252SBUF V0201801N006212200019N0020001N1+02791+02231101011ADDAA106000091GA1001+999999999GF100991001001999999001001KA1240M+03501MA1999999098201MD1999999+0221REMSYN082AAXX  13004 82986 32995 01812 10279 20223 39820 40101 333 10350 29061 55091 58022;EQDQ01  00002PRCP06
0186829860999992004041312004-09400-038217FM-12+0252SBUF V0201801N003610450019N0100001N1+02651+02051101341ADDAA106000091GF106991041021008001071061KA1240N+02281MA1999999098511MD1999999+0271REMSYN076AAXX  13124 82986 32597 61807 10265 20205 39851 40134 84276 333 20228 58027;EQDQ01  00002PRCP06
0167829860999992004041318004-09400-038217FM-12+0252SBUF V0201401N005112200019N0200001N1+03401+01891100901ADDAA106000091GF104991021021012501031011MA1999999098101MD1999999+0301REMSYN070AAXX  13184 82986 32698 41410 10340 20189 39810 40090 82231 333 58030;EQDQ01  00002PRCP06
0208829860999992004041400004-09400-038217FM-12+0252SBUF V0201401N005112200019N0020001N1+02671+02201101291ADDAA106000091GA1001+999999999GF100991001001999999001001KA1240M+03441MA1999999098451MD1999999+0151REMSYN082AAXX  14004 82986 32995 01410 10267 20220 39845 40129 333 10344 29066 55081 58015;EQDQ01  00002PRCP06
0186829860999992004041412004-09400-038217FM-12+0252SBUF V0200901N004610450019N0100001N1+02571+02111101411ADDAA106000091GF106991031011008001031041KA1240N+02241MA1999999098561MD1999999+0051REMSYN076AAXX  14124 82986 32597 60909 10257 20211 39856 40141 83134 333 20224 58005;EQDQ01  00002PRCP06
0167829860999992004041418004-09400-038217FM-12+0252SBUF V0201401N003110450019N0100001N1+03131+01791100971ADDAA106000091GF106991031031008001051001MA1999999098151MD1999999+0051REMSYN070AAXX  14184 82986 32597 61406 10313 20179 39815 40097 83350 333 58005;EQDQ01  00002PRCP06
0208829860999992004041500004-09400-038217FM-12+0252SBUF V0201801N005112200019N0020001N1+02711+02031101181ADDAA106000091GA1001+999999999GF100991001001999999001001KA1240M+03201MA1999999098351MD1999999-0101REMSYN082AAXX  15004 82986 32995 01810 10271 20203 39835 40118 333 10320 29064 55035 59010;EQDQ01  00002PRCP06
0186829860999992004041512004-09400-038217FM-12+0252SBUF V0201801N001512200019N0100001N1+02701+01911101351ADDAA106000091GF104991031011008001001011KA1240N+02251MA1999999098521MD1999999-0041REMSYN076AAXX  15124 82986 32597 41803 10270 20191 39852 40135 83101 333 20225 59004;EQDQ01  00002PRCP06
0167829860999992004041518004-09400-038217FM-12+0252SBUF V0201401N004612200019N0200001N1+03311+01681100851ADDAA106000091GF102991011011012501041011MA1999999098031MD1999999-0121REMSYN070AAXX  15184 82986 32698 21409 10331 20168 39803 40085 81141 333 59012;EQDQ01  00002PRCP06
0208829860999992004041600004-09400-038217FM-12+0252SBUF V0201401N007712200019N0020001N1+02671+01851101151ADDAA106000091GA1001+999999999GF100991001001999999001001KA1240M+03371MA1999999098321MD1999999-0031REMSYN082AAXX  16004 82986 32995 01415 10267 20185 39832 40115 333 10337 29056 55107 59003;EQDQ01  00002PRCP06
0186829860999992004041612004-09400-038217FM-12+0252SBUF V0201401N005110450019N0100001N1+02711+01961101401ADDAA106000091GF106991031021008001081001KA1240N+02281MA1999999098571MD1999999+0051REMSYN076AAXX  16124 82986 32597 61410 10271 20196 39857 40140 83280 333 20228 58005;EQDQ01  00002PRCP06
0167829860999992004041618004-09400-038217FM-12+0252SBUF V0201801N005710450019N0200001N1+03281+01821101031ADDAA106000091GF106991041021008001041011MA1999999098211MD1999999+0181REMSYN070AAXX  16184 82986 32598 61811 10328 20182 39821 40103 84241 333 58018;EQDQ01  00002PRCP06
0198829860999992004041700004-09400-038217FM-12+0252SBUF V0201801N003612200019N0020001N1+02571+02111101421ADDAA106000091GF101991011041008001001001KA1240M+03331MA1999999098581MD1999999+0261REMSYN088AAXX  17004 82986 32595 11807 10257 20211 39858 40142 81400 333 10333 29064 55079 58026;EQDQ01  00002PRCP06
0190829860999992004041712004-09400-038217FM-12+0252SBUF V0200901N006210060019N0040001N1+02751+02191101531ADDAY151061AY221061GF107991051081002501081061KA1240N+02301MA1999999098681MD1999999+0111MW1151REMSYN088AAXX  17124 82986 21396 70912 10275 20219 39868 40153 71552 85886 333 20230 58011 69914;
0167829860999992004041718004-09400-038217FM-12+0252SBUF V0201401N003611050019N0200001N1+03211+01891101121ADDAA106000091GF106991031021012501001081MA1999999098301MD1999999+0091REMSYN070AAXX  17184 82986 32698 61407 10321 20189 39830 40112 83208 333 58009;EQDQ01  00002PRCP06
0208829860999992004041800004-09400-038217FM-12+0252SBUF V0201401N004612200019N0020001N1+02671+01951101461ADDAA106000091GA1001+999999999GF100991001001999999001001KA1240M+03371MA1999999098621MD1999999+0041REMSYN082AAXX  18004 82986 32995 01409 10267 20195 39862 40146 333 10337 29062 55079 58004;EQDQ01  00002PRCP06
0186829860999992004041812004-09400-038217FM-12+0252SBUF V0201401N005110450019N0100001N1+02671+02091101511ADDAA106000091GF106991041021008001031001KA1240N+02161MA1999999098711MD1999999+0031REMSYN076AAXX  18124 82986 32597 61410 10267 20209 39871 40151 84230 333 20216 58003;EQDQ01  00002PRCP06
0167829860999992004041818004-09400-038217FM-12+0252SBUF V0201801N004112200019N0200001N1+03071+02111101121ADDAA106000091GF103991021021012501061041MA1999999098281MD1999999-0021REMSYN070AAXX  18184 82986 32698 31808 10307 20211 39828 40112 82264 333 59002;EQDQ01  00002PRCP06
0208829860999992004041900004-09400-038217FM-12+0252SBUF V0201801N006212200019N0020001N1+02571+02171101461ADDAA106000091GA1001+999999999GF100991001001999999001001KA1240M+03551MA1999999098611MD1999999-0011REMSYN082AAXX  19004 82986 32995 01812 10257 20217 39861 40146 333 10355 29072 55084 59001;EQDQ01  00002PRCP06
0186829860999992004041912004-09400-038217FM-12+0252SBUF V0201801N005710450019N0100001N1+02451+02111101541ADDAA106000091GF106991031071002501091041KA1240N+02201MA1999999098681MD1999999-0031REMSYN076AAXX  19124 82986 32397 61811 10245 20211 39868 40154 83794 333 20220 59003;EQDQ01  00002PRCP06
0167829860999992004041918004-09400-038217FM-12+0252SBUF V0201801N004610450019N0200001N1+03061+01931101091ADDAA106000091GF105991031021008001051011MA1999999098261MD1999999-0021REMSYN070AAXX  19184 82986 32598 51809 10306 20193 39826 40109 83251 333 59002;EQDQ01  00002PRCP06
0208829860999992004042000004-09400-038217FM-12+0252SBUF V0201401N003112200019N0020001N1+02541+01931101311ADDAA106000091GA1001+999999999GF100991001001999999001001KA1240M+03131MA1999999098451MD1999999-0161REMSYN082AAXX  20004 82986 32995 01406 10254 20193 39845 40131 333 10313 29068 55031 59016;EQDQ01  00002PRCP06
0186829860999992004042012004-09400-038217FM-12+0252SBUF V0201801N005710450019N0100001N1+02451+02071101491ADDAA106000091GF106991031021008001051031KA1240N+02081MA1999999098631MD1999999-0051REMSYN076AAXX  20124 82986 32597 61811 10245 20207 39863 40149 83253 333 20208 59005;EQDQ01  00002PRCP06
0167829860999992004042018004-09400-038217FM-12+0252SBUF V0201401N004111050019N0200001N1+03121+01521101051ADDAA106000091GF105991021021008001051061MA1999999098211MD1999999-0051REMSYN070AAXX  20184 82986 32598 51408 10312 20152 39821 40105 82256 333 59005;EQDQ01  00002PRCP06
0208829860999992004042100004-09400-038217FM-12+0252SBUF V0200901N003112200019N0020001N1+02551+01601101311ADDAA106000091GA1001+999999999GF100991001001999999001001KA1240M+03241MA1999999098451MD1999999+0001REMSYN082AAXX  21004 82986 32995 00906 10255 20160 39845 40131 333 10324 29058 55079 58000;EQDQ01  00002PRCP06
0186829860999992004042112004-09400-038217FM-12+0252SBUF V0201801N005110450019N0100001N1+02571+01991101461ADDAA106000091GF106991031011008001061051KA1240N+02181MA1999999098611MD1999999-0021REMSYN076AAXX  21124 82986 32597 61810 10257 20199 39861 40146 83165 333 20218 59002;EQDQ01  00002PRCP06
0167829860999992004042118004-09400-038217FM-12+0252SBUF V0201801N003110450019N0200001N1+03271+01801101021ADDAA106000091GF105991021021008001061051MA1999999098201MD1999999-0011REMSYN070AAXX  21184 82986 32598 51806 10327 20180 39820 40102 82265 333 59001;EQDQ01  00002PRCP06
0208829860999992004042200004-09400-038217FM-12+0252SBUF V0201401N005112200019N0020001N1+02631+01981101421ADDAA106000091GA1001+999999999GF100991001001999999001001KA1240M+03381MA1999999098571MD1999999+0121REMSYN082AAXX  22004 82986 32995 01410 10263 20198 39857 40142 333 10338 29062 55082 58012;EQDQ01  00002PRCP06
0186829860999992004042212004-09400-038217FM-12+0252SBUF V0201401N005710450019N0040001N1+02651+02071101311ADDAA106000091GF106991041021004501081001KA1240N+02291MA1999999098471MD1999999-0161REMSYN076AAXX  22124 82986 32496 61411 10265 20207 39847 40131 84280 333 20229 59016;EQDQ01  00002PRCP06
0195829860999992004042218004-09400-038217FM-12+0252SBUF V0201401N004610450019N0200001N1+03111+01941101911ADDAA106000091AY151061AY221061GF106991031021008001051001MA1999999098091MD1999999-0111MW1021REMSYN076AAXX  22184 82986 31598 61409 10311 20194 39809 40191 70252 83250 333 59011;EQDQ01  00002PRCP06
0208829860999992004042300004-09400-038217FM-12+0252SBUF V0201401N004612200019N0020001N1+02581+01941101231ADDAA106000091GA1001+999999999GF100991001001999999001001KA1240M+03211MA1999999098371MD1999999-0201REMSYN082AAXX  23004 82986 32995 01409 10258 20194 39837 40123 333 10321 29064 55046 59020;EQDQ01  00002PRCP06
0190829860999992004042312004-09400-038217FM-12+0252SBUF V0201801N003110075019N0100001N1+02671+02001101191ADDAY151061AY221061GF106991051021008001061001KA1240N+02221MA1999999098351MD1999999-0121MW1021REMSYN088AAXX  23124 82986 21597 61806 10267 20200 39835 40119 70252 85260 333 20222 59012 69914;
0167829860999992004042318004-09400-038217FM-12+0252SBUF V0201401N002112200019N0200001N1+03311+01591100701ADDAA106000091GF103991021011012501031011MA1999999097891MD1999999-0201REMSYN070AAXX  23184 82986 32698 31404 10331 20159 39789 40070 82131 333 59020;EQDQ01  00002PRCP06
0208829860999992004042400004-09400-038217FM-12+0252SBUF V0201801N006212200019N0020001N1+02611+02031101031ADDAA106000091GA1001+999999999GF100991001001999999001001KA1240M+03391MA1999999098201MD1999999-0171REMSYN082AAXX  24004 82986 32995 01812 10261 20203 39820 40103 333 10339 29061 55097 59017;EQDQ01  00002PRCP06
0186829860999992004042412004-09400-038217FM-12+0252SBUF V0201801N003110075019N0100001N1+02691+02061101121ADDAA106000091GF106991051021008001061051KA1240N+02261MA1999999098291MD1999999-0061REMSYN076AAXX  24124 82986 32597 61806 10269 20206 39829 40112 85265 333 20226 59006;EQDQ01  00002PRCP06
0167829860999992004042418004-09400-038217FM-12+0252SBUF V0201401N002612200019N0200001N1+03371+01651100641ADDAA106000091GF104991021021012501001081MA1999999097841MD1999999-0051REMSYN070AAXX  24184 82986 32698 41405 10337 20165 39784 40064 82208 333 59005;EQDQ01  00002PRCP06
0208829860999992004042500004-09400-038217FM-12+0252SBUF V0201401N005112200019N0020001N1+02751+02021100981ADDAA106000091GA1001+999999999GF100991001001999999001001KA1240M+03421MA1999999098151MD1999999-0051REMSYN082AAXX  25004 82986 32995 01410 10275 20202 39815 40098 333 10342 29059 55092 59005;EQDQ01  00002PRCP06
0186829860999992004042512004-09400-038217FM-12+0252SBUF V0201801N005110450019N0100001N1+02651+02241101241ADDAA106000091GF106991041041008001031001KA1240N+02281MA1999999098411MD1999999+0121REMSYN076AAXX  25124 82986 32597 61810 10265 20224 39841 40124 84430 333 20228 58012;EQDQ01  00002PRCP06
0167829860999992004042518004-09400-038217FM-12+0252SBUF V0201401N001512200019N0200001N1+03351+01751100831ADDAA106000091GF103991021011008001031001MA1999999098031MD1999999-0191REMSYN070AAXX  25184 82986 32598 31403 10335 20175 39803 40083 82130 333 59019;EQDQ01  00002PRCP06
0208829860999992004042600004-09400-038217FM-12+0252SBUF V0201801N005112200019N0020001N1+02801+02061101151ADDAA106000091GA1001+999999999GF100991001001999999001001KA1240M+03391MA1999999098331MD1999999+0181REMSYN082AAXX  26004 82986 32995 01810 10280 20206 39833 40115 333 10339 29061 55101 58018;EQDQ01  00002PRCP06
0186829860999992004042612004-09400-038217FM-12+0252SBUF V0201801N002610450019N0100001N1+02711+02081101361ADDAA106000091GF106991031021012501031091KA1240N+02301MA1999999098531MD1999999+0111REMSYN076AAXX  26124 82986 32697 61805 10271 20208 39853 40136 83239 333 20230 58011;EQDQ01  00002PRCP06
0167829860999992004042618004-09400-038217FM-12+0252SBUF V0201401N002612200019N0200001N1+03431+01701100881ADDAA106000091GF104991021021008001041011MA1999999098081MD1999999+0051REMSYN070AAXX  26184 82986 32598 41405 10343 20170 39808 40088 82241 333 58005;EQDQ01  00002PRCP06
0208829860999992004042700004-09400-038217FM-12+0252SBUF V0201801N005712200019N0020001N1+02811+02181101291ADDAA106000091GA1001+999999999GF100991001001999999001001KA1240M+03511MA1999999098461MD1999999+0131REMSYN082AAXX  27004 82986 32995 01811 10281 20218 39846 40129 333 10351 29061 55101 58013;EQDQ01  00002PRCP06
0186829860999992004042712004-09400-038217FM-12+0252SBUF V0201801N003112200019N0100001N1+02671+02111101481ADDAA106000091GF106991041021008001001041KA1240N+02381MA1999999098651MD1999999+0121REMSYN076AAXX  27124 82986 32597 61806 10267 20211 39865 40148 84204 333 20238 58012;EQDQ01  00002PRCP06
0167829860999992004042718004-09400-038217FM-12+0252SBUF V0201401N002612200019N0200001N1+03491+01611100941ADDAA106000091GF104991031021008001001061MA1999999098151MD1999999+0071REMSYN070AAXX  27184 82986 32598 41405 10349 20161 39815 40094 83206 333 58007;EQDQ01  00002PRCP06
0198829860999992004042800004-09400-038217FM-12+0252SBUF V0201401N005712200019N0020001N1+02691+02091101441ADDAA106000091GF103991011041008001081051KA1240M+03501MA1999999098601MD1999999+0141REMSYN088AAXX  28004 82986 32595 31411 10269 20209 39860 40144 81485 333 10350 29061 55085 58014;EQDQ01  00002PRCP06
0186829860999992004042812004-09400-038217FM-12+0252SBUF V0201801N003112200019N0100001N1+02771+01891101581ADDAA106000091GF103991011011012501041011KA1240N+02311MA1999999098751MD1999999+0101REMSYN076AAXX  28124 82986 32697 31806 10277 20189 39875 40158 81141 333 20231 58010;EQDQ01  00002PRCP06
0167829860999992004042818004-09400-038217FM-12+0252SBUF V0201401N004610450019N0200001N1+03351+01711101061ADDAA106000091GF105991031021012501041061MA1999999098251MD1999999+0101REMSYN070AAXX  28184 82986 32698 51409 10335 20171 39825 40106 83246 333 58010;EQDQ01  00002PRCP06
0198829860999992004042900004-09400-038217FM-12+0252SBUF V0201401N006212200019N0020001N1+02711+02111101451ADDAA106000091GF101991011011012501001001KA1240M+03431MA1999999098621MD1999999+0021REMSYN088AAXX  29004 82986 32695 11412 10271 20211 39862 40145 81100 333 10343 29059 55104 58002;EQDQ01  00002PRCP06
0186829860999992004042912004-09400-038217FM-12+0252SBUF V0201401N005710075019N0100001N1+02751+01951101561ADDAA106000091GF106991051021008001001011KA1240N+02261MA1999999098731MD1999999-0021REMSYN076AAXX  29124 82986 32597 61411 10275 20195 39873 40156 85201 333 20226 59002;EQDQ01  00002PRCP06
0167829860999992004042918004-09400-038217FM-12+0252SBUF V0201801N004112200019N0200001N1+03311+01641100961ADDAA106000091GF104991021021012501031041MA1999999098151MD1999999-0101REMSYN070AAXX  29184 82986 32698 41808 10331 20164 39815 40096 82234 333 59010;EQDQ01  00002PRCP06
0208829860999992004043000004-09400-038217FM-12+0252SBUF V0201801N006212200019N0020001N1+02671+01681101371ADDAA106000091GA1001+999999999GF100991001001999999001001KA1240M+03351MA1999999098541MD1999999-0081REMSYN082AAXX  30004 82986 32995 01812 10267 20168 39854 40137 333 10335 29052 55097 59008;EQDQ01  00002PRCP06
0186829860999992004043012004-09400-038217FM-12+0252SBUF V0201801N003610075019N0100001N1+02561+02041101491ADDAA106000091GF106991061021008001001001KA1240N+02241MA1999999098641MD1999999-0091REMSYN076AAXX  30124 82986 32597 61807 10256 20204 39864 40149 86200 333 20224 59009;EQDQ01  00002PRCP06
0167829860999992004043018004-09400-038217FM-12+0252SBUF V0201801N005110450019N0200001N1+03131+01851100961ADDAA106000091GF106991041021004501031001MA1999999098131MD1999999-0031REMSYN070AAXX  30184 82986 32498 61810 10313 20185 39813 40096 84230 333 59003;EQDQ01  00002PRCP06
0208829860999992004050100004-09400-038217FM-12+0252SBUF V0201401N006212200019N0020001N1+02571+02111101331ADDAA106000091GA1001+999999999GF100991001001999999001001KA1240M+03211MA1999999098481MD1999999-0061REMSYN082AAXX  01004 82986 32995 01412 10257 20211 39848 40133 333 10321 29068 55080 59006;EQDQ01  00002PRCP06
0186829860999992004050112004-09400-038217FM-12+0252SBUF V0201801N004110075019N0100001N1+02631+02051101461ADDAA106000091GF105991051021008001001001KA1240N+02301MA1999999098611MD1999999-0031REMSYN076AAXX  01124 82986 32597 51808 10263 20205 39861 40146 85200 333 20230 59003;EQDQ01  00002PRCP06
0167829860999992004050118004-09400-038217FM-12+0252SBUF V0201401N005110120019N0200001N1+03261+01761100891ADDAA106000091GF105991051021012501001001MA1999999098081MD1999999-0051REMSYN070AAXX  01184 82986 32698 51410 10326 20176 39808 40089 85200 333 59005;EQDQ01  00002PRCP06
0208829860999992004050200004-09400-038217FM-12+0252SBUF V0201801N003112200019N0020001N1+02601+02081101241ADDAA106000091GA1001+999999999GF100991001001999999001001KA1240M+03381MA1999999098401MD1999999-0081REMSYN082AAXX  02004 82986 32995 01806 10260 20208 39840 40124 333 10338 29065 55083 59008;EQDQ01  00002PRCP06
0186829860999992004050212004-09400-038217FM-12+0252SBUF V0201401N007712200019N0100001N1+02711+01991101371ADDAA106000091GF103991031021008001001001KA1240N+02241MA1999999098531MD1999999-0081REMSYN076AAXX  02124 82986 32597 31415 10271 20199 39853 40137 83200 333 20224 59008;EQDQ01  00002PRCP06
0167829860999992004050218004-09400-038217FM-12+0252SBUF V0201401N004612200019N0200001N1+03311+01551101021ADDAA106000091GF103991031011012501001001MA1999999098211MD1999999-0131REMSYN070AAXX  02184 82986 32698 31409 10331 20155 39821 40102 83100 333 59013;EQDQ01  00002PRCP06
0208829860999992004050300004-09400-038217FM-12+0252SBUF V0201401N006212200019N0020001N1+02571+01781101391ADDAA106000091GA1001+999999999GF100991001001999999001001KA1240M+03321MA1999999098551MD1999999+0151REMSYN082AAXX  03004 82986 32995 01412 10257 20178 39855 40139 333 10332 29056 55097 58015;EQDQ01  00002PRCP06
0190829860999992004050312004-09400-038217FM-12+0252SBUF V0201401N004111050019N0100001N1+02331+02091101571ADDAY151061AY221061GF105991041041008001001021KA1240N+02181MA1999999098701MD1999999+0171MW1021REMSYN088AAXX  03124 82986 21597 51408 10233 20209 39870 40157 70252 84402 333 20218 58017 69924;
0195829860999992004050318004-09400-038217FM-12+0252SBUF V0201801N005112200019N0200001N1+03181+01491101101ADDAA106000091AY151061AY221061GF105991031011008001001081MA1999999098271MD1999999+0061MW1021REMSYN076AAXX  03184 82986 31598 51810 10318 20149 39827 40110 70252 83108 333 58006;EQDQ01  00002PRCP06
0198829860999992004050400004-09400-038217FM-12+0252SBUF V0201401N005110075019N0020001N1+02551+01571101371ADDAA106000091GF107991071051008001999999KA1240M+03241MA1999999098511MD1999999-0041REMSYN088AAXX  04004 82986 32595 71410 10255 20157 39851 40137 875// 333 10324 29058 55067 59004;EQDQ01  00002PRCP06
0186829860999992004050412004-09400-038217FM-12+0252SBUF V0201401N005110450019N0100001N1+02591+02011101461ADDAA106000091GF106991041021008001031051KA1240N+02101MA1999999098611MD1999999-0091REMSYN076AAXX  04124 82986 32597 61410 10259 20201 39861 40146 84235 333 20210 59009;EQDQ01  00002PRCP06
0208829860999992004050500004-09400-038217FM-12+0252SBUF V0201801N006712200019N0020001N1+02671+01951101311ADDAA106000091GA1001+999999999GF100991001001999999001001KA1240M+03341MA1999999098471MD1999999-0041REMSYN082AAXX  05004 82986 32995 01813 10267 20195 39847 40131 333 10334 29058 55088 59004;EQDQ01  00002PRCP06
0186829860999992004050512004-09400-038217FM-12+0252SBUF V0201401N004610075019N0100001N1+02771+02021101511ADDAA106000091GF106991051021008001061051KA1240N+02301MA1999999098671MD1999999+0061REMSYN076AAXX  05124 82986 32597 61409 10277 20202 39867 40151 85265 333 20230 58006;EQDQ01  00002PRCP06
0167829860999992004050518004-09400-038217FM-12+0252SBUF V0200901N004112200019N0200001N1+03311+01501101041ADDAA106000091GF105991031011012501001081MA1999999098231MD1999999+0101REMSYN070AAXX  05184 82986 32698 50908 10331 20150 39823 40104 83108 333 58010;EQDQ01  00002PRCP06
0214829860999992004050600004-09400-038217FM-12+0252SBUF V0201801N006219999999N0020001N1+02651+01801101401ADDAA106000091GF105991001001999999001081KA1240M+03331MA1999999098561MD1999999+0091REMSYN088AAXX  06004 82986 32695 51812 10265 20180 39856 40140 80008 333 10333 29054 55096 58009;EQDQ01+012502SCOLCBQ02  00002PRCP06
0186829860999992004050612004-09400-038217FM-12+0252SBUF V0201801N003110075019N0100001N1+02631+01831101521ADDAA106000091GF106991051021008001001011KA1240N+02161MA1999999098671MD1999999+0001REMSYN076AAXX  06124 82986 32597 61806 10263 20183 39867 40152 85201 333 20216 58000;EQDQ01  00002PRCP06
0167829860999992004050618004-09400-038217FM-12+0252SBUF V0201401N004612200019N0200001N1+03311+01461101131ADDAA106000091GF103991021011012501041001MA1999999098311MD1999999+0081REMSYN070AAXX  06184 82986 32698 31409 10331 20146 39831 40113 82140 333 58008;EQDQ01  00002PRCP06
0208829860999992004050700004-09400-038217FM-12+0252SBUF V0201801N008212200019N0020001N1+02671+02041101441ADDAA106000091GA1001+999999999GF100991001001999999001001KA1240M+03331MA1999999098601MD1999999+0041REMSYN082AAXX  07004 82986 32995 01816 10267 20204 39860 40144 333 10333 29058 55093 58004;EQDQ01  00002PRCP06
0186829860999992004050712004-09400-038217FM-12+0252SBUF V0201801N004610042019N0100001N1+02731+02031101591ADDAA106000091GF106991061071004501001001KA1240N+02301MA1999999098751MD1999999+0081REMSYN076AAXX  07124 82986 32497 61809 10273 20203 39875 40159 86700 333 20230 58008;EQDQ01  00002PRCP06
0167829860999992004050718004-09400-038217FM-12+0252SBUF V0200901N003612200019N0200001N1+03331+01611101111ADDAA106000091GF104991041021008001001001MA1999999098291MD1999999-0021REMSYN070AAXX  07184 82986 32598 40907 10333 20161 39829 40111 84200 333 59002;EQDQ01  00002PRCP06
0208829860999992004050800004-09400-038217FM-12+0252SBUF V0201401N006712200019N0020001N1+02631+01981101441ADDAA106000091GA1001+999999999GF100991001001999999001001KA1240M+03381MA1999999098601MD1999999+0001REMSYN082AAXX  08004 82986 32995 01413 10263 20198 39860 40144 333 10338 29060 55085 58000;EQDQ01  00002PRCP06
0186829860999992004050812004-09400-038217FM-12+0252SBUF V0201401N005110075019N0100001N1+02551+02131101561ADDAA106000091GF105991051041008001001001KA1240N+02301MA1999999098711MD1999999-0041REMSYN076AAXX  08124 82986 32597 51410 10255 20213 39871 40156 85400 333 20230 59004;EQDQ01  00002PRCP06
0167829860999992004050818004-09400-038217FM-12+0252SBUF V0201401N003112200019N0200001N1+03311+01591101121ADDAA106000091GF104991041011008001001001MA1999999098301MD1999999+0011REMSYN070AAXX  08184 82986 32598 41406 10331 20159 39830 40112 84100 333 58001;EQDQ01  00002PRCP06
0208829860999992004050900004-09400-038217FM-12+0252SBUF V0201401N006212200019N0020001N1+02681+01891101361ADDAA106000091GA1001+999999999GF100991001001999999001001KA1240M+03381MA1999999098511MD1999999-0091REMSYN082AAXX  09004 82986 32995 01412 10268 20189 39851 40136 333 10338 29060 55083 59009;EQDQ01  00002PRCP06
0202829860999992004050912004-09400-038217FM-12+0252SBUF V0201801N003110075019N0100001N1+02691+01941101451ADDAA106000091GF106991999011008001001001KA1240N+02181MA1999999098611MD1999999-0101REMSYN076AAXX  09124 82986 32597 61806 10269 20194 39861 40145 85100 333 20218 59010;EQDQ01+000052SCOTLCQ02  00002PRCP06
0167829860999992004050918004-09400-038217FM-12+0252SBUF V0201401N002112200019N0200001N1+03391+01571100851ADDAA106000091GF104991041011012501001001MA1999999098051MD1999999-0261REMSYN070AAXX  09184 82986 32698 41404 10339 20157 39805 40085 84100 333 59026;EQDQ01  00002PRCP06
0208829860999992004051000004-09400-038217FM-12+0252SBUF V0201801N006712200019N0020001N1+02771+01911101211ADDAA106000091GA1001+999999999GF100991001001999999001001KA1240M+03421MA1999999098381MD1999999-0131REMSYN082AAXX  10004 82986 32995 01813 10277 20191 39838 40121 333 10342 29055 55099 59013;EQDQ01  00002PRCP06
0186829860999992004051012004-09400-038217FM-12+0252SBUF V0201401N005110075019N0100001N1+02701+02061101431ADDAA106000091GF105991051041008001001001KA1240N+02321MA1999999098601MD1999999-0011REMSYN076AAXX  10124 82986 32597 51410 10270 20206 39860 40143 85400 333 20232 59001;EQDQ01  00002PRCP06
0167829860999992004051018004-09400-038217FM-12+0252SBUF V0201801N003112200019N0200001N1+03351+01541100921ADDAA106000091GF103991021011012501001091MA1999999098121MD1999999+0081REMSYN070AAXX  10184 82986 32698 31806 10335 20154 39812 40092 82109 333 58008;EQDQ01  00002PRCP06
0208829860999992004051100004-09400-038217FM-12+0252SBUF V0201401N005712200019N0020001N1+02721+02101101271ADDAA106000091GA1001+999999999GF100991001001999999001001KA1240M+03411MA1999999098441MD1999999+0061REMSYN082AAXX  11004 82986 32995 01411 10272 20210 39844 40127 333 10341 29060 55090 58006;EQDQ01  00002PRCP06
0195829860999992004051112004-09400-038217FM-12+0252SBUF V0201801N002610060019N0040001N1+02431+02231101481ADDAA106000021AY151061AY221061GF107991051081002501081999KA1240N+02281MA1999999098631MD1999999+0031MW1501REMSYN082AAXX  11124 82986 31396 71805 10243 20223 39863 40148 75052 8588/ 333 20228 58003;
0171829860999992004051118004-09400-038217FM-12+0252SBUF V0202301N000510450019N0200001N1+03011+02111100951ADDAY151061AY221061GF106991041021008001031001MA1999999098121MD1999999+0001MW1031REMSYN082AAXX  11184 82986 21598 62301 10301 20211 39812 40095 70352 84230 333 58000 69921;
0198829860999992004051200004-09400-038217FM-12+0252SBUF V0201801N003610450019N0020001N1+02571+02231101271ADDAA106000091GF106991031071008001071999KA1240M+03071MA1999999098411MD1999999-0031REMSYN088AAXX  12004 82986 32595 61807 10257 20223 39841 40127 8377/ 333 10307 29078 55029 59003;EQDQ01  00002PRCP06
0190829860999992004051212004-09400-038217FM-12+0252SBUF V0209999C000010012019N0010001N1+02311+02271101501ADDAY161061AY261061GF108991081071001501999999KA1240N+02281MA1999999098631MD1999999+0001MW1631REMSYN088AAXX  12124 82986 21294 81800 10231 20227 39863 40150 76366 887// 333 20228 58000 60814;
0171829860999992004051218004-09400-038217FM-12+0252SBUF V0202701N001010450019N0200001N1+02771+02301101041ADDAY161061AY221061GF106991031081004501091999MA1999999098201MD1999999+0081MW1031REMSYN082AAXX  12184 82986 21498 62702 10277 20230 39820 40104 70362 8389/ 333 58008 60021;
0190829860999992004051312004-09400-038217FM-12+0252SBUF V0201801N001010042019N0100001N1+02491+02191101461ADDAY161061AY221061GF107991071071004501999999KA1240N+02281MA1999999098591MD1999999-0041MW1101REMSYN088AAXX  13124 82986 21497 71802 10249 20219 39859 40146 71062 877// 333 20228 59004 60054;
0167829860999992004051318004-09400-038217FM-12+0252SBUF V0202701N001510450019N0200001N1+03101+02001101021ADDAA106000091GF105991031021008001031091MA1999999098201MD1999999+0001REMSYN070AAXX  13184 82986 32598 52703 10310 20200 39820 40102 83239 333 58000;EQDQ01  00002PRCP06
0198829860999992004051400004-09400-038217FM-12+0252SBUF V0201801N002610042019N0020001N1+02501+02211101311ADDAA106000091GF106991061071004501999999KA1240M+03161MA1999999098451MD1999999-0021REMSYN088AAXX  14004 82986 32495 61805 10250 20221 39845 40131 867// 333 10316 29076 55051 59002;EQDQ01  00002PRCP06
0186829860999992004051412004-09400-038217FM-12+0252SBUF V0201801N003610042019N0100001N1+02611+02121101431ADDAA106000091GF107991051071004501071999KA1240N+02341MA1999999098581MD1999999+0011REMSYN076AAXX  14124 82986 32497 71807 10261 20212 39858 40143 8577/ 333 20234 58001;EQDQ01  00002PRCP06
0167829860999992004051418004-09400-038217FM-12+0252SBUF V0201401N003110450019N0200001N1+03121+01921100941ADDAA106000091GF105991041021008001031001MA1999999098121MD1999999-0081REMSYN070AAXX  14184 82986 32598 51406 10312 20192 39812 40094 84230 333 59008;EQDQ01  00002PRCP06
0208829860999992004051500004-09400-038217FM-12+0252SBUF V0201801N005112200019N0020001N1+02611+02101101191ADDAA106000091GA1001+999999999GF100991001001999999001001KA1240M+03181MA1999999098351MD1999999-0101REMSYN082AAXX  15004 82986 32995 01810 10261 20210 39835 40119 333 10318 29068 55082 59010;EQDQ01  00002PRCP06
0186829860999992004051512004-09400-038217FM-12+0252SBUF V0201401N002612200019N0100001N1+02571+02021101401ADDAA106000091GF103991011011008001061011KA1240N+02201MA1999999098551MD1999999-0031REMSYN076AAXX  15124 82986 32597 31405 10257 20202 39855 40140 81161 333 20220 59003;EQDQ01  00002PRCP06
0167829860999992004051518004-09400-038217FM-12+0252SBUF V0201401N002610075019N0200001N1+03151+01801100861ADDAA106000091GF105991051021008001001001MA1999999098041MD1999999-0081REMSYN070AAXX  15184 82986 32598 51405 10315 20180 39804 40086 85200 333 59008;EQDQ01  00002PRCP06
0208829860999992004051600004-09400-038217FM-12+0252SBUF V0201401N005712200019N0020001N1+02591+01941101181ADDAA106000091GA1001+999999999GF100991001001999999001001KA1240M+03251MA1999999098341MD1999999-0011REMSYN082AAXX  16004 82986 32995 01411 10259 20194 39834 40118 333 10325 29063 55095 59001;EQDQ01  00002PRCP06
0186829860999992004051612004-09400-038217FM-12+0252SBUF V0200901N001510450019N0100001N1+02541+02041101401ADDAA106000091GF105991031011008001061021KA1240N+02181MA1999999098551MD1999999+0001REMSYN076AAXX  16124 82986 32597 50903 10254 20204 39855 40140 83162 333 20218 58000;EQDQ01  00002PRCP06
0167829860999992004051618004-09400-038217FM-12+0252SBUF V0201801N003110450019N0200001N1+03111+01841100941ADDAA106000091GF107991041051008001081999MA1999999098111MD1999999+0071REMSYN070AAXX  16184 82986 32598 71806 10311 20184 39811 40094 8458/ 333 58007;EQDQ01  00002PRCP06
0208829860999992004051700004-09400-038217FM-12+0252SBUF V0201401N005112200019N0020001N1+02601+02141101281ADDAA106000091GA1001+999999999GF100991001001999999001001KA1240M+03191MA1999999098431MD1999999+0091REMSYN082AAXX  17004 82986 32995 01410 10260 20214 39843 40128 333 10319 29068 55081 58009;EQDQ01  00002PRCP06
0214829860999992004051712004-09400-038217FM-12+0252SBUF V0201801N003110042019N0100001N1+02541+02211101391ADDAA106000091AY151061AY221061GF107991051071004501061999KA1240N+02281MA1999999098541MD1999999-0011MW1011REMSYN082AAXX  17124 82986 31497 71806 10254 20221 39854 40139 70152 8576/ 333 20228 59001;EQDQ01  00002PRCP06
0167829860999992004051718004-09400-038217FM-12+0252SBUF V0201401N005110450019N0200001N1+02751+02121101031ADDAA106000091GF107991041081004501091999MA1999999098181MD1999999+0071REMSYN070AAXX  17184 82986 32498 71410 10275 20212 39818 40103 8489/ 333 58007;EQDQ01  00002PRCP06
0198829860999992004051800004-09400-038217FM-12+0252SBUF V0201801N002110450019N0020001N1+02391+02291101391ADDAA106000091GF107991041061008001071999KA1240M+02951MA1999999098531MD1999999+0101REMSYN088AAXX  18004 82986 32595 71804 10239 20229 39853 40139 8467/ 333 10295 29085 55023 58010;EQDQ01  00002PRCP06
0190829860999992004051812004-09400-038217FM-12+0252SBUF V0201401N004611050019N0100001N1+02551+02061101571ADDAY161061AY221061GF106991041021008001001051KA1240N+02201MA1999999098701MD1999999+0161MW1011REMSYN088AAXX  18124 82986 21597 61409 10255 20206 39870 40157 70162 84205 333 20220 58016 60014;
0167829860999992004051818004-09400-038217FM-12+0252SBUF V0201401N003112200019N0200001N1+03051+01451101071ADDAA106000091GF104991031011012501001041MA1999999098241MD1999999+0061REMSYN070AAXX  18184 82986 32698 41406 10305 20145 39824 40107 83104 333 58006;EQDQ01  00002PRCP06
0208829860999992004051900004-09400-038217FM-12+0252SBUF V0201801N006212200019N0020001N1+02531+01981101371ADDAA106000091GA1001+999999999GF100991001001999999001001KA1240M+03071MA1999999098521MD1999999-0011REMSYN082AAXX  19004 82986 32995 01812 10253 20198 39852 40137 333 10307 29064 55086 59001;EQDQ01  00002PRCP06
0186829860999992004051912004-09400-038217FM-12+0252SBUF V0201801N004110450019N0100001N1+02511+02071101791ADDAA106000091GF107991041071004501091999KA1240N+02201MA1999999098921MD1999999+0171REMSYN076AAXX  19124 82986 32497 71808 10251 20207 39892 40179 8479/ 333 20220 58017;EQDQ01  00002PRCP06
0167829860999992004051918004-09400-038217FM-12+0252SBUF V0201401N002610450019N0200001N1+03021+01891101341ADDAA106000091GF106991031021008001051011MA1999999098501MD1999999+0261REMSYN070AAXX  19184 82986 32598 61405 10302 20189 39850 40134 83251 333 58026;EQDQ01  00002PRCP06
0208829860999992004052000004-09400-038217FM-12+0252SBUF V0201401N004612200019N0020001N1+02551+02021101671ADDAA106000091GA1001+999999999GF100991001001999999001001KA1240M+03171MA1999999098811MD1999999+0291REMSYN082AAXX  20004 82986 32995 01409 10255 20202 39881 40167 333 10317 29068 55083 58029;EQDQ01  00002PRCP06
0190829860999992004052012004-09400-038217FM-12+0252SBUF V0201401N004110021019N0100001N1+02351+02111101831ADDAY161061AY221061GF108991051071002501071999KA1240N+02181MA1999999098951MD1999999+0031MW1031REMSYN088AAXX  20124 82986 21397 81408 10235 20211 39895 40183 70362 8577/ 333 20218 58003 60074;
0195829860999992004052018004-09400-038217FM-12+0252SBUF V0201401N003110450019N0100001N1+02691+02161101361ADDAA106000091AY121061AY221061GF106991031021004501081011MA1999999098501MD1999999+0001MW1151REMSYN076AAXX  20184 82986 31497 61406 10269 20216 39850 40136 71522 83281 333 58000;EQDQ01  00002PRCP06
0208829860999992004052100004-09400-038217FM-12+0252SBUF V0201401N003112200019N0020001N1+02411+02111101621ADDAA106000091GA1001+999999999GF100991001001999999001001KA1240M+02921MA1999999098741MD1999999-0071REMSYN082AAXX  21004 82986 32995 01406 10241 20211 39874 40162 333 10292 29082 55025 59007;EQDQ01  00002PRCP06
0186829860999992004052112004-09400-038217FM-12+0252SBUF V0201401N002610075019N0100001N1+02411+01971101711ADDAA106000091GF105991051021008001001001KA1240N+01981MA1999999098831MD1999999-0121REMSYN076AAXX  21124 82986 32597 51405 10241 20197 39883 40171 85200 333 20198 59012;EQDQ01  00002PRCP06
0167829860999992004052118004-09400-038217FM-12+0252SBUF V0201401N005110450019N0200001N1+03031+01801101201ADDAA106000091GF105991031011008001041001MA1999999098351MD1999999-0151REMSYN070AAXX  21184 82986 32598 51410 10303 20180 39835 40120 83140 333 59015;EQDQ01  00002PRCP06
0208829860999992004052200004-09400-038217FM-12+0252SBUF V0201401N003612200019N0020001N1+02451+01921101351ADDAA106000091GA1001+999999999GF100991001001999999001001KA1240M+03051MA1999999098581MD1999999-0161REMSYN082AAXX  22004 82986 32995 01407 10245 20192 39858 40135 333 10305 29068 55096 59016;EQDQ01  00002PRCP06
0190829860999992004052212004-09400-038217FM-12+0252SBUF V0201801N003110075019N0100001N1+02361+02031101591ADDAY161061AY221061GF105991051021008001001001KA1240N+02141MA1999999098711MD1999999-0121MW1011REMSYN088AAXX  22124 82986 21597 51806 10236 20203 39871 40159 70162 85200 333 20214 59012 60044;
0167829860999992004052218004-09400-038217FM-12+0252SBUF V0201401N004610450019N0200001N1+03031+01801101121ADDAA106000091GF106991041021008001041051MA1999999098281MD1999999-0071REMSYN070AAXX  22184 82986 32598 61409 10303 20180 39828 40112 84245 333 59007;EQDQ01  00002PRCP06
0198829860999992004052300004-09400-038217FM-12+0252SBUF V0201401N004610021019N0020001N1+02451+02031101521ADDAA106000091GF108991051071002501071999KA1240M+03071MA1999999098651MD1999999+0071REMSYN088AAXX  23004 82986 32395 81409 10245 20203 39865 40152 8577/ 333 10307 29072 55079 58007;EQDQ01  00002PRCP06
0186829860999992004052312004-09400-038217FM-12+0252SBUF V0201801N003610042019N0100001N1+02541+02041101671ADDAA106000091GF106991051021004501081001KA1240N+02181MA1999999098801MD1999999+0091REMSYN076AAXX  23124 82986 32497 61807 10254 20204 39880 40167 85280 333 20218 58009;EQDQ01  00002PRCP06
0195829860999992004052318004-09400-038217FM-12+0252SBUF V0201801N003110042019N0100001N1+02511+02111101371ADDAA106000091AY121061AY221061GF107991051071004501081999MA1999999098491MD1999999+0211MW1151REMSYN076AAXX  23184 82986 31497 71806 10251 20211 39849 40137 71522 8578/ 333 58021;EQDQ01  00002PRCP06
0202829860999992004052400004-09400-038217FM-12+0252SBUF V0201801N003110021019N0020001N1+02251+02191101661ADDAY161061AY221061GF108991051071002501071999KA1240M+02791MA1999999098781MD1999999+0131MW1611REMSYN100AAXX  24004 82986 21395 81806 10225 20219 39878 40166 76162 8577/ 333 10279 29087 55026 58013 60141;
0190829860999992004052412004-09400-038217FM-12+0252SBUF V0201801N003110090019N0100001N1+02451+02111101771ADDAY161061AY251061GF106991051081004501061001KA1240N+02181MA1999999098881MD1999999+0081MW1021REMSYN088AAXX  24124 82986 21497 61806 10245 20211 39888 40177 70265 85860 333 20218 58008 60174;
0167829860999992004052418004-09400-038217FM-12+0252SBUF V0201801N002112200019N0200001N1+02851+02041101321ADDAA106000091GF103991031021012501001001MA1999999098501MD1999999+0011REMSYN070AAXX  24184 82986 32698 31804 10285 20204 39850 40132 83200 333 58001;EQDQ01  00002PRCP06
0198829860999992004052500004-09400-038217FM-12+0252SBUF V0201801N005112200019N0020001N1+02451+02151101601ADDAA106000091GF103991031001012501071001KA1240M+02931MA1999999098731MD1999999-0051REMSYN088AAXX  25004 82986 32695 31810 10245 20215 39873 40160 83070 333 10293 29078 55057 59005;EQDQ01  00002PRCP06
0190829860999992004052512004-09400-038217FM-12+0252SBUF V0201801N004610450019N0100001N1+02391+02151101771ADDAY161061AY221061GF106991031021008001091001KA1240N+02181MA1999999098891MD1999999+0011MW1021REMSYN088AAXX  25124 82986 21597 61809 10239 20215 39889 40177 70262 83290 333 20218 58001 60044;
0077829860999992004052518004-09400-038217FM-12+0252SBUF V02099999999999999999N9999999N1+99999+99999999999REMSYN068AAXX  25184 829862598 41406 10288 20186 39850 40135 84200 333 58000;
0208829860999992004052600004-09400-038217FM-12+0252SBUF V0201801N002612200019N0020001N1+02331+01851101581ADDAA106000091GA1001+999999999GF100991001001999999001001KA1240M+02891MA1999999098701MD1999999-0031REMSYN082AAXX  26004 82986 32995 01805 10233 20185 39870 40158 333 10289 29073 55037 59003;EQDQ01  00002PRCP06
0186829860999992004052612004-09400-038217FM-12+0252SBUF V0201401N002610450019N0100001N1+02311+02111101651ADDAA106000091GF106991031071004501071999KA1240N+02081MA1999999098761MD1999999-0131REMSYN076AAXX  26124 82986 32497 61405 10231 20211 39876 40165 8377/ 333 20208 59013;EQDQ01  00002PRCP06
0167829860999992004052618004-09400-038217FM-12+0252SBUF V0201401N002612200019N0200001N1+02991+01791101211ADDAA106000091GF104991041021008001001001MA1999999098361MD1999999-0141REMSYN070AAXX  26184 82986 32598 41405 10299 20179 39836 40121 84200 333 59014;EQDQ01  00002PRCP06
0208829860999992004052700004-09400-038217FM-12+0252SBUF V0201801N005112200019N0020001N1+02491+02051101491ADDAA106000091GA1001+999999999GF100991001001999999001001KA1240M+03051MA1999999098621MD1999999-0081REMSYN082AAXX  27004 82986 32995 01810 10249 20205 39862 40149 333 10305 29073 55079 59008;EQDQ01  00002PRCP06
0186829860999992004052712004-09400-038217FM-12+0252SBUF V0201401N001510120019N0100001N1+02401+02071101611ADDAA106000091GF107991071081008001001001KA1240N+02181MA1999999098741MD1999999-0021REMSYN076AAXX  27124 82986 32597 71403 10240 20207 39874 40161 87800 333 20218 59002;EQDQ01  00002PRCP06
0167829860999992004052718004-09400-038217FM-12+0252SBUF V0201401N003112200019N0200001N1+03051+01971101131ADDAA106000091GF102991021011012501001001MA1999999098301MD1999999-0061REMSYN070AAXX  27184 82986 32698 21406 10305 20197 39830 40113 82100 333 59006;EQDQ01  00002PRCP06
0208829860999992004052800004-09400-038217FM-12+0252SBUF V0201801N002612200019N0020001N1+02491+01941101491ADDAA106000091GA1001+999999999GF100991001001999999001001KA1240M+03081MA1999999098621MD1999999+0001REMSYN082AAXX  28004 82986 32995 01805 10249 20194 39862 40149 333 10308 29070 55071 58000;EQDQ01  00002PRCP06
0186829860999992004052812004-09400-038217FM-12+0252SBUF V0201401N004110075019N0100001N1+02551+02091101691ADDAA106000091GF106991061021008001001001KA1240N+02201MA1999999098821MD1999999+0081REMSYN076AAXX  28124 82986 32597 61408 10255 20209 39882 40169 86200 333 20220 58008;EQDQ01  00002PRCP06
0195829860999992004052818004-09400-038217FM-12+0252SBUF V0200901N002610075019N0100001N1+03101+02061101211ADDAA106000091AY121061AY221061GF106991051021008001001011MA1999999098371MD1999999+0071MW1151REMSYN076AAXX  28184 82986 31597 60905 10310 20206 39837 40121 71522 85201 333 58007;EQDQ01  00002PRCP06
0198829860999992004052900004-09400-038217FM-12+0252SBUF V0201401N003110120019N0020001N1+02441+02111101601ADDAA106000091GF108991081081008001999999KA1240M+03121MA1999999098741MD1999999+0121REMSYN088AAXX  29004 82986 32595 81406 10244 20211 39874 40160 888// 333 10312 29074 55068 58012;EQDQ01  00002PRCP06
0190829860999992004052912004-09400-038217FM-12+0252SBUF V0201401N003610090019N0040001N1+02571+02151101741ADDAY151061AY221061GF106991061081004501001001KA1240N+02211MA1999999098871MD1999999+0051MW1101REMSYN088AAXX  29124 82986 21496 61407 10257 20215 39887 40174 71052 86800 333 20221 58005 69934;
0171829860999992004052918004-09400-038217FM-12+0252SBUF V0201401N003610075019N0200001N1+02981+02011101321ADDAY181061AY221061GF105991051021008001001001MA1999999098481MD1999999+0111MW1011REMSYN082AAXX  29184 82986 21598 51407 10298 20201 39848 40132 70182 85200 333 58011 60021;
0198829860999992004053000004-09400-038217FM-12+0252SBUF V0201401N004110042019N0020001N1+02421+01991101681ADDAA106000091GF106991061071004501001001KA1240M+02991MA1999999098811MD1999999+0071REMSYN088AAXX  30004 82986 32495 61408 10242 20199 39881 40168 86700 333 10299 29072 55076 58007;EQDQ01  00002PRCP06
0190829860999992004053012004-09400-038217FM-12+0252SBUF V0201401N003110042019N0040001N1+02381+02191101731ADDAY151061AY221061GF106991051071004501041001KA1240N+02201MA1999999098851MD1999999-0021MW1551REMSYN088AAXX  30124 82986 21496 61406 10238 20219 39885 40173 75552 85740 333 20220 59002 60024;
0171829860999992004053018004-09400-038217FM-12+0252SBUF V0201401N005710450019N0100001N1+02741+02001101281ADDAY161061AY251061GF106991041021008001041001MA1999999098121MD1999999-0061MW1011REMSYN082AAXX  30184 82986 21597 61411 10274 20200 39812 40128 70165 84240 333 59006 69971;
0208829860999992004053100004-09400-038217FM-12+0252SBUF V0201401N004112200019N0020001N1+02381+01481101511ADDAA106000091GA1001+999999999GF100991001001999999001001KA1240M+02871MA1999999098641MD1999999-0171REMSYN082AAXX  31004 82986 32995 01408 10238 20148 39864 40151 333 10287 29067 55071 59017;EQDQ01  00002PRCP06
0162829860999992004053112004-09400-038217FM-12+0252SBUF V0201401N001010450019N0100001N1+02401+02031101711ADDGF106991031071004501071001KA1240N+02041MA1999999098831MD1999999-0021REMSYN082AAXX  31124 82986 22497 61402 10240 20203 39883 40171 83770 333 20204 59002 69974;
0167829860999992004053118004-09400-038217FM-12+0252SBUF V0200901N002610450019N0100001N1+02701+02011101291ADDAA106000091GF107991041071008001081001MA1999999098431MD1999999+0311REMSYN070AAXX  31184 82986 32597 70905 10270 20201 39843 40129 84780 333 58031;EQDQ01  00002PRCP06
0198829860999992004060100004-09400-038217FM-12+0252SBUF V0201401N002110075019N0020001N1+02331+02001101571ADDAA106000091GF106991061051008001001001KA1240M+02861MA1999999098691MD1999999+0051REMSYN088AAXX  01004 82986 32595 61404 10233 20200 39869 40157 86500 333 10286 29078 55024 58005;EQDQ01  00002PRCP06
0186829860999992004060112004-09400-038217FM-12+0252SBUF V0200901N005710450019N0100001N1+02421+02051101701ADDAA106000091GF107991041071004501071999KA1240N+02161MA1999999098821MD1999999-0011REMSYN076AAXX  01124 82986 32497 70911 10242 20205 39882 40170 8477/ 333 20216 59001;EQDQ01  00002PRCP06
0171829860999992004060118004-09400-038217FM-12+0252SBUF V0201801N001510120019N0100001N1+02351+02181101451ADDAY161061AY251061GF108991081081008001999999MA1999999098571MD1999999+0141MW1031REMSYN082AAXX  01184 82986 21597 81803 10235 20218 39857 40145 70365 888// 333 58014 69961;
0198829860999992004060200004-09400-038217FM-12+0252SBUF V0209999C000010450019N0020001N1+02231+01941101691ADDAA106000091GF106991031051008001051001KA1240M+02441MA1999999098811MD1999999+0121REMSYN088AAXX  02004 82986 32595 60900 10223 20194 39881 40169 83550 333 10244 29085 55000 58012;EQDQ01  00002PRCP06
0190829860999992004060212004-09400-038217FM-12+0252SBUF V0201401N004110042019N0040001N1+02371+02241101741ADDAY161061AY221061GF107991051071004501081001KA1240N+01821MA1999999098851MD1999999+0031MW1151REMSYN088AAXX  02124 82986 21496 71408 10237 20224 39885 40174 71562 85780 333 20182 58003 69964;
0171829860999992004060218004-09400-038217FM-12+0252SBUF V0201401N003110042019N0100001N1+02731+02121101391ADDAY161061AY221061GF106991051051004501041001MA1999999098531MD1999999-0041MW1151REMSYN082AAXX  02184 82986 21497 61406 10273 20212 39853 40139 71562 85540 333 59004 60011;
0198829860999992004060300004-09400-038217FM-12+0252SBUF V0200901N002612200019N0020001N1+02241+02141101741ADDAA106000091GF103991031001017501051001KA1240M+02751MA1999999098851MD1999999+0041REMSYN088AAXX  03004 82986 32795 30905 10224 20214 39885 40174 83050 333 10275 29088 55034 58004;EQDQ01  00002PRCP06
0162829860999992004060312004-09400-038217FM-12+0252SBUF V0201401N003110042019N0100001N1+02491+02091101731ADDGF106991051071004501081001KA1240N+02131MA1999999098851MD1999999+0001REMSYN082AAXX  03124 82986 22497 61406 10249 20209 39885 40173 85780 333 20213 58000 60014;
0171829860999992004060318004-09400-038217FM-12+0252SBUF V0201401N002610450019N0200001N1+02821+02361101391ADDAY151061AY221061GF105991031021008001041001MA1999999098531MD1999999+0001MW1021REMSYN082AAXX  03184 82986 21598 51405 10282 20236 39853 40139 70252 83240 333 58000 69911;
0198829860999992004060400004-09400-038217FM-12+0252SBUF V0201401N002612200019N0020001N1+02341+01931101621ADDAA106000091GF102991021001017501041001KA1240M+02851MA1999999098741MD1999999-0111REMSYN088AAXX  04004 82986 32795 21405 10234 20193 39874 40162 82040 333 10285 29078 55055 59011;EQDQ01  00002PRCP06
0190829860999992004060412004-09400-038217FM-12+0252SBUF V0201401N002110075019N0200001N1+02361+02071101721ADDAY121061AY221061GF106991061021008001001001KA1240N+02141MA1999999098841MD1999999-0011MW1101REMSYN088AAXX  04124 82986 21598 61404 10236 20207 39884 40172 71022 86200 333 20214 59001 69914;
0167829860999992004060418004-09400-038217FM-12+0252SBUF V0200901N005112200019N0200001N1+02461+01921101231ADDAA106000091GF102991011011008001041001MA1999999098361MD1999999-0171REMSYN070AAXX  04184 82986 32598 20910 10246 20192 39836 40123 81140 333 59017;EQDQ01  00002PRCP06
0208829860999992004060500004-09400-038217FM-12+0252SBUF V0200901N003112200019N0020001N1+02361+01831101531ADDAA106000091GA1001+999999999GF100991001001999999001001KA1240M+02971MA1999999098651MD1999999-0091REMSYN082AAXX  05004 82986 32995 00906 10236 20183 39865 40153 333 10297 29075 55077 59009;EQDQ01  00002PRCP06
0186829860999992004060512004-09400-038217FM-12+0252SBUF V0200901N004110075019N0100001N1+02501+02131101591ADDAA106000091GF107991051051008001051001KA1240N+02121MA1999999098721MD1999999-0121REMSYN076AAXX  05124 82986 32597 70908 10250 20213 39872 40159 85550 333 20212 59012;EQDQ01  00002PRCP06
0167829860999992004060518004-09400-038217FM-12+0252SBUF V0200901N002612200019N0200001N1+03021+01891101191ADDAA106000091GF103991021021008001041001MA1999999098351MD1999999-0011REMSYN070AAXX  05184 82986 32598 30905 10302 20189 39835 40119 82240 333 59001;EQDQ01  00002PRCP06
0198829860999992004060600004-09400-038217FM-12+0252SBUF V0200901N004112200019N0020001N1+02601+02141101421ADDAA106000091GF103991031051004501001001KA1240M+03051MA1999999098571MD1999999-0081REMSYN088AAXX  06004 82986 32495 30908 10260 20214 39857 40142 83500 333 10305 29071 55062 59008;EQDQ01  00002PRCP06
0162829860999992004060610004-09400-038217FM-15+0252SBUF V0201401N003610210019N0112651N1+02401+02201999999ADDGA1021+004509999GA2071+021009999GF107991999999999999999999MA1101691999999MW1001REMMET052SBUF 061000Z 14007KT 9999 FEW015 BKN070 24/22 Q1017;EQDQ01+000000PRSWM2
0162829860999992004060611004-09400-038217FM-15+0252SBUF V0201301N003612200019N0112651N1+02501+02201999999ADDGA1021+005109999GA2041+021009999GF104991999999999999999999MA1101801999999MW1001REMMET052SBUF 061100Z 13007KT 9999 FEW017 SCT070 25/22 Q1018;EQDQ01+000000PRSWM2
0314829860999992004060612004-09400-038217SY-MT+0252SBUF V0201401N00261024001CN0100001N1+02521+02131101651ADDAA106000091GA1041+005409999GA2071+024009999GF199999041021008001051001KA1240N+02061MA1101901098791MD1999999+0071MW1001REMSYN076AAXX  06124 82986 32597 61405 10252 20213 39879 40165 84250 333 20206 58007;MET052SBUF 061200Z 11007KT 9999 SCT018 BKN080 27/22 Q1019;EQDQ01+000062SCOTCVQ02+000000PRSWM2Q03  00002PRCP06
0167829860999992004060618004-09400-038217FM-12+0252SBUF V0201401N003111050019N0200001N1+02981+01891101271ADDAA106000091GF105991021021008001041011MA1999999098441MD1999999+0091REMSYN070AAXX  06184 82986 32598 51406 10298 20189 39844 40127 82241 333 58009;EQDQ01  00002PRCP06
0190829860999992004060712004-09400-038217FM-12+0252SBUF V0201401N004110450019N0040001N1+02421+02151101841ADDAY161061AY221061GF106991041021008001031001KA1240N+02161MA1999999098981MD1999999+0171MW1021REMSYN088AAXX  07124 82986 21596 61408 10242 20215 39898 40184 70262 84230 333 20216 58017 60054;
0195829860999992004060718004-09400-038217FM-12+0252SBUF V0201401N002610450019N0200001N1+02821+01941101481ADDAA106000091AY121061AY221061GF106991031021008001051001MA1999999098631MD1999999+0191MW1151REMSYN076AAXX  07184 82986 31598 61405 10282 20194 39863 40148 71522 83250 333 58019;EQDQ01  00002PRCP06
0198829860999992004060800004-09400-038217FM-12+0252SBUF V0201401N002110150019N0020001N1+02301+01981101721ADDAA106000091GF105991051001017501051001KA1240M+02931MA1999999098841MD1999999+0071REMSYN088AAXX  08004 82986 32795 51404 10230 20198 39884 40172 85050 333 10293 29077 55060 58007;EQDQ01  00002PRCP06
0190829860999992004060812004-09400-038217FM-12+0252SBUF V0201401N003110450019N0100001N1+02401+02111101821ADDAY151061AY221061GF106991031021008001081001KA1240N+02141MA1999999098931MD1999999-0051MW1151REMSYN088AAXX  08124 82986 21597 61406 10240 20211 39893 40182 71552 83280 333 20214 59005 69904;
0167829860999992004060818004-09400-038217FM-12+0252SBUF V0201401N004612200019N0200001N1+02981+01441101421ADDAA106000091GF102991021011012501001001MA1999999098571MD1999999-0061REMSYN070AAXX  08184 82986 32698 21409 10298 20144 39857 40142 82100 333 59006;EQDQ01  00002PRCP06
0208829860999992004060900004-09400-038217FM-12+0252SBUF V0201401N003612200019N0020001N1+02421+01881101721ADDAA106000091GA1001+999999999GF100991001001999999001001KA1240M+02991MA1999999098841MD1999999+0001REMSYN082AAXX  09004 82986 32995 01407 10242 20188 39884 40172 333 10299 29067 55083 58000;EQDQ01  00002PRCP06
0186829860999992004060912004-09400-038217FM-12+0252SBUF V0201401N003610075019N0100001N1+02441+02031101881ADDAA106000091GF105991051021008001001001KA1240N+01981MA1999999099001MD1999999+0071REMSYN076AAXX  09124 82986 32597 51407 10244 20203 39900 40188 85200 333 20198 58007;EQDQ01  00002PRCP06
0167829860999992004060918004-09400-038217FM-12+0252SBUF V0200901N003610450019N0200001N1+03001+01911101461ADDAA106000091GF106991041021008001051001MA1999999098611MD1999999+0041REMSYN070AAXX  09184 82986 32598 60907 10300 20191 39861 40146 84250 333 58004;EQDQ01  00002PRCP06
0198829860999992004061000004-09400-038217FM-12+0252SBUF V0200901N000512200019N0020001N1+02461+01991101781ADDAA106000091GF102991021021008001001001KA1240M+03011MA1999999098901MD1999999+0061REMSYN088AAXX  10004 82986 32595 20901 10246 20199 39890 40178 82200 333 10301 29070 55091 58006;EQDQ01  00002PRCP06
0214829860999992004061012004-09400-038217FM-12+0252SBUF V0201401N003610042019N0100001N1+02431+01991101831ADDAA106000091AY121061AY221061GF107991051071004501081001KA1240N+02051MA1999999098951MD1999999-0051MW1151REMSYN082AAXX  10124 82986 31497 71407 10243 20199 39895 40183 71522 85780 333 20205 59005;EQDQ01  00002PRCP06
0171829860999992004061018004-09400-038217FM-12+0252SBUF V0201401N006210021019N0002001N1+02341+02221101541ADDAY161061AY221061GF108991081091002501999999MA1999999098701MD1999999+0091MW1811REMSYN082AAXX  10184 82986 21392 81412 10234 20222 39870 40154 78162 889// 333 58009 60161;
0202829860999992004061100004-09400-038217FM-12+0252SBUF V0201401N004110021019N0010001N1+02281+02161101751ADDAY161061AY221061GF108991081091002501999999KA1240M+02811MA1999999098861MD1999999-0041MW1031REMSYN100AAXX  11004 82986 21394 81408 10228 20216 39886 40175 70362 889// 333 10281 29089 55046 59004 60091;
0190829860999992004061112004-09400-038217FM-12+0252SBUF V0201401N004610450019N0040001N1+02411+01951101901ADDAY161061AY261061GF106991041091004501041001KA1240N+02001MA1999999099011MD1999999+0061MW1151REMSYN088AAXX  11124 82986 21496 61409 10241 20195 39901 40190 71566 84940 333 20200 58006 60304;
0183829860999992004061118004-09400-038217FM-12+0252SBUF V0201401N006219999999N0500001N1+02861+01651101551ADDAA106000091GF105991999021012501001001MA1999999099691MD1999999-0011REMSYN070AAXX  11184 82986 32699 51412 10286 20165 39969 40155 86200 333 59001;EQDQ01+000062SCOTLCQ02  00002PRCP06
0186829860999992004061212004-09400-038217FM-12+0252SBUF V0201401N005710450019N0100001N1+02441+01901101931ADDAA106000091GF105991031041008001031001KA1240N+02061MA1999999099081MD1999999+0071REMSYN076AAXX  12124 82986 32597 51411 10244 20190 39908 40193 83430 333 20206 58007;EQDQ01  00002PRCP06
0186829860999992004061312004-09400-038217FM-12+0252SBUF V0201401N003610042019N0100001N1+02261+01991101911ADDAA106000091GF106991061041004501001001KA1240N+01941MA1999999099021MD1999999-0061REMSYN076AAXX  13124 82986 32497 61407 10226 20199 39902 40191 86400 333 20194 59006;EQDQ01  00002PRCP06
0167829860999992004061318004-09400-038217FM-12+0252SBUF V0201401N002119999999N0500001N1+02871+01681101461ADDAA106000091GF105991999021012501001001MA1999999098591MD1999999-0181REMSYN070AAXX  13184 82986 32699 51404 10287 20168 39859 40146 86200 333 59018;EQDQ01  00002PRCP06
0186829860999992004061412004-09400-038217FM-12+0252SBUF V0201401N003110075019N0100001N1+02401+01911101911ADDAA106000091GF106991061021008001001001KA1240N+02081MA1999999099031MD1999999+0011REMSYN076AAXX  14124 82986 32597 61406 10240 20191 39903 40191 86200 333 20208 58001;EQDQ01  00002PRCP06
0167829860999992004061418004-09400-038217FM-12+0252SBUF V0200901N004610450019N0200001N1+02861+01841101461ADDAA106000091GF106991031021008001051001MA1999999098611MD1999999+0021REMSYN070AAXX  14184 82986 32598 60909 10286 20184 39861 40146 83250 333 58002;EQDQ01  00002PRCP06
0198829860999992004061500004-09400-038217FM-12+0252SBUF V0200901N002612200019N0020001N1+02321+02021101891ADDAA106000091GF103991031011008001001001KA1240M+02891MA1999999099001MD1999999+0101REMSYN088AAXX  15004 82986 32595 30905 10232 20202 39900 40189 83100 333 10289 29074 55047 58010;EQDQ01  00002PRCP06
0186829860999992004061512004-09400-038217FM-12+0252SBUF V0200901N002610075019N0100001N1+02371+02091101901ADDAA106000091GF106991061071008001001001KA1240N+02061MA1999999099011MD1999999-0021REMSYN076AAXX  15124 82986 32597 60905 10237 20209 39901 40190 86700 333 20206 59002;EQDQ01  00002PRCP06
0195829860999992004061518004-09400-038217FM-12+0252SBUF V0202301N002110042019N0040001N1+02681+02111101561ADDAA106000091AY121061AY221061GF107991051091004501071001MA1999999098691MD1999999+0081MW1151REMSYN076AAXX  15184 82986 31496 72304 10268 20211 39869 40156 71522 85970 333 58008;EQDQ01  00002PRCP06
0202829860999992004061600004-09400-038217FM-12+0252SBUF V0200901N002610042019N0020001N1+02231+01991101921ADDAY161061AY251061GF108991051051004501071999KA1240M+02771MA1999999099021MD1999999+0021MW1031REMSYN100AAXX  16004 82986 21495 80905 10223 20199 39902 40192 70365 8557/ 333 10277 29082 55059 58002 69941;
0190829860999992004061612004-09400-038217FM-12+0252SBUF V0201401N003110042019N0040001N1+02341+02241101821ADDAY161061AY251061GF107991061071004501071001KA1240N+02121MA1999999098931MD1999999-0081MW1161REMSYN088AAXX  16124 82986 21496 71406 10234 20224 39893 40182 71665 86770 333 20212 59008 60014;
0171829860999992004061618004-09400-038217FM-12+0252SBUF V0200901N002610450019N0100001N1+02461+02171101421ADDAY161061AY251061GF107991041081004501081001MA1999999098541MD1999999-0151MW1161REMSYN082AAXX  16184 82986 21497 70905 10246 20217 39854 40142 71665 84880 333 59015 60041;
0198829860999992004061700004-09400-038217FM-12+0252SBUF V0200901N004119999999N0020001N1+02281+02071101721ADDAA106000091GF105991051001004501071001KA1240M+02591MA1999999098831MD1999999-0191REMSYN088AAXX  17004 82986 32495 50908 10228 20207 39883 40172 85070 333 10259 29089 55011 59019;EQDQ01  00002PRCP06
0190829860999992004061712004-09400-038217FM-12+0252SBUF V0201401N005710450019N0100001N1+02361+01951101821ADDAY151061AY221061GF107991031071004501071001KA1240N+02081MA1999999098931MD1999999+0001MW1021REMSYN088AAXX  17124 82986 21497 71411 10236 20195 39893 40182 70252 83770 333 20208 58000 60044;
0167829860999992004061718004-09400-038217FM-12+0252SBUF V0201401N003110450019N0100001N1+02501+01981101521ADDAA106000091GF108991041071004501071001MA1999999098641MD1999999+0101REMSYN070AAXX  17184 82986 32497 81406 10250 20198 39864 40152 84770 333 58010;EQDQ01  00002PRCP06
0198829860999992004061800004-09400-038217FM-12+0252SBUF V0200901N001519999999N0020001N1+02141+01991101821ADDAA106000091GF107991071001012501071001KA1240M+02671MA1999999098921MD1999999+0091REMSYN088AAXX  18004 82986 32695 70903 10214 20199 39892 40182 87070 333 10267 29083 55001 58009;EQDQ01  00002PRCP06
0162829860999992004061812004-09400-038217FM-12+0252SBUF V0201401N005710450019N0100001N1+02381+02051101911ADDGF106991031021008001041001KA1240N+02081MA1999999099011MD1999999+0081REMSYN082AAXX  18124 82986 22597 61411 10238 20205 39901 40191 83240 333 20208 58008 69904;
0183829860999992004061818004-09400-038217FM-12+0252SBUF V0201401N003110075019N0200001N1+02751+01871101561ADDAA106000091GF108991999071008001071999MA1999999098691MD1999999+0051REMSYN070AAXX  18184 82986 32598 81406 10275 20187 39869 40156 8877/ 333 58005;EQDQ01+000082SCOTLCQ02  00002PRCP06
0198829860999992004061900004-09400-038217FM-12+0252SBUF V0200901N002610150019N0020001N1+02411+01971101841ADDAA106000091GF106991061001017501071001KA1240M+02751MA1999999098961MD1999999+0041REMSYN088AAXX  19004 82986 32795 60905 10241 20197 39896 40184 86070 333 10275 29074 55031 58004;EQDQ01  00002PRCP06
0186829860999992004061912004-09400-038217FM-12+0252SBUF V0201401N003610450019N0100001N1+02361+02011102031ADDAA106000091GF107991041071004501071001KA1240N+02121MA1999999099141MD1999999+0131REMSYN076AAXX  19124 82986 32497 71407 10236 20201 39914 40203 84770 333 20212 58013;EQDQ01  00002PRCP06
0167829860999992004061918004-09400-038217FM-12+0252SBUF V0201401N003111050019N0200001N1+02821+01771101671ADDAA106000091GF106991031021008001001081MA1999999098801MD1999999+0111REMSYN070AAXX  19184 82986 32598 61406 10282 20177 39880 40167 83208 333 58011;EQDQ01  00002PRCP06
0167829860999992004062018004-09400-038217FM-12+0252SBUF V0201401N008711050019N0200001N1+02821+01711101511ADDAA106000091GF106991031021008001001081MA1999999098651MD1999999-0151REMSYN070AAXX  20184 82986 32598 61417 10282 20171 39865 40151 83208 333 59015;EQDQ01  00002PRCP06
0190829860999992004062112004-09400-038217FM-12+0252SBUF V0201801N001510090019N0040001N1+02181+01911101911ADDAY161061AY251061GF108991081081004501999999KA1240N+02061MA1999999099001MD1999999-0081MW1611REMSYN088AAXX  21124 82986 21496 81803 10218 20191 39900 40191 76165 888// 333 20206 59008 60014;
0171829860999992004062118004-09400-038217FM-12+0252SBUF V0200901N005710042019N0020001N1+02271+02091101641ADDAY181061AY261061GF108991081071004501999999MA1999999098741MD1999999+0091MW1511REMSYN082AAXX  21184 82986 21495 80911 10227 20209 39874 40164 75186 887// 333 58009 60041;
0196829860999992004062200004-09400-038217FM-12+0252SBUF V0201401N003112200019N0020001N1+02191+01901101841ADDAY161061AY221061GF102991999999999999999999KA1240M+02531MA1999999098931MD1999999-0021MW1021REMSYN094AAXX  22004 82986 21995 21406 10219 20190 39893 40184 70262 333 10253 29087 55005 59002 69931;
0190829860999992004062212004-09400-038217FM-12+0252SBUF V0200901N005110042019N0100001N1+02261+01981101871ADDAY151061AY221061GF106991061051004501001001KA1240N+01981MA1999999098971MD1999999-0031MW1101REMSYN088AAXX  22124 82986 21497 60910 10226 20198 39897 40187 71052 86500 333 20198 59003 60044;
0167829860999992004062218004-09400-038217FM-12+0252SBUF V0201401N004610450019N0200001N1+02801+01431101571ADDAA106000091GF106991031011008001061001MA1999999098691MD1999999-0051REMSYN070AAXX  22184 82986 32598 61409 10280 20143 39869 40157 83160 333 59005;EQDQ01  00002PRCP06
0208829860999992004062300004-09400-038217FM-12+0252SBUF V0200901N004612200019N0020001N1+02281+01811101821ADDAA106000091GA1001+999999999GF100991001001999999001001KA1240M+02811MA1999999098921MD1999999-0011REMSYN082AAXX  23004 82986 32995 00909 10228 20181 39892 40182 333 10281 29069 55084 59001;EQDQ01  00002PRCP06
0190829860999992004062312004-09400-038217FM-12+0252SBUF V0200901N003610042019N0100001N1+02251+01921101971ADDAY151061AY221061GF108991081071004501999999KA1240N+01921MA1999999099061MD1999999+0091MW1031REMSYN088AAXX  23124 82986 21497 80907 10225 20192 39906 40197 70352 887// 333 20192 58009 69904;
0186829860999992004062412004-09400-038217FM-12+0252SBUF V0200901N004610450019N0100001N1+02341+01931101891ADDAA106000091GF106991031021008001031001KA1240N+01841MA1999999098991MD1999999-0071REMSYN076AAXX  24124 82986 32597 60909 10234 20193 39899 40189 83230 333 20184 59007;EQDQ01  00002PRCP06
0167829860999992004062418004-09400-038217FM-12+0252SBUF V0200901N003110075019N0200001N1+02851+01671101421ADDAA106000091GF105991051021008001001001MA1999999098551MD1999999-0121REMSYN070AAXX  24184 82986 32598 50906 10285 20167 39855 40142 85200 333 59012;EQDQ01  00002PRCP06
0198829860999992004062500004-09400-038217FM-12+0252SBUF V0200901N003119999999N0020001N1+02341+01811101721ADDAA106000091GF105991051001012501071001KA1240M+02861MA1999999098841MD1999999-0121REMSYN088AAXX  25004 82986 32695 50906 10234 20181 39884 40172 85070 333 10286 29068 55101 59012;EQDQ01  00002PRCP06
0167829860999992004062518004-09400-038217FM-12+0252SBUF V0201401N002112200019N0200001N1+02921+01771101291ADDAA106000091GF104991031021008001041001MA1999999098421MD1999999-0131REMSYN070AAXX  25184 82986 32598 41404 10292 20177 39842 40129 83240 333 59013;EQDQ01  00002PRCP06
0214829860999992004062612004-09400-038217FM-12+0252SBUF V0201401N005710042019N0100001N1+02371+01891101791ADDAA106000091AY121061AY221061GF108991081071004501999999KA1240N+02111MA1999999098911MD1999999+0021MW1151REMSYN082AAXX  26124 82986 31497 81411 10237 20189 39891 40179 71522 887// 333 20211 58002;EQDQ01  00002PRCP06
0171829860999992004062618004-09400-038217FM-12+0252SBUF V0200901N003110075019N0100001N1+02621+01961101431ADDAY151061AY221061GF108991061051008001071999MA1999999098561MD1999999+0141MW1151REMSYN082AAXX  26184 82986 21597 80906 10262 20196 39856 40143 71552 8657/ 333 58014 69901;
0202829860999992004062700004-09400-038217FM-12+0252SBUF V0201401N005110042019N0020001N1+02221+01921101721ADDAY151061AY221061GF108991081071004501999999KA1240M+02681MA1999999098831MD1999999+0061MW1021REMSYN100AAXX  27004 82986 21495 81410 10222 20192 39883 40172 70252 887// 333 10268 29077 55003 58006 69921;
0190829860999992004062712004-09400-038217FM-12+0252SBUF V0201401N003110450019N0100001N1+02281+02031101761ADDAY161061AY251061GF106991041021004501081001KA1240N+02081MA1999999098861MD1999999-0051MW1031REMSYN088AAXX  27124 82986 21497 61406 10228 20203 39886 40176 70365 84280 333 20208 59005 69944;
0171829860999992004062718004-09400-038217FM-12+0252SBUF V0201401N004610042019N0040001N1+02621+02011101451ADDAY181061AY221061GF107991061051004501071001MA1999999098581MD1999999+0021MW1601REMSYN082AAXX  27184 82986 21496 71409 10262 20201 39858 40145 76082 86570 333 58002 60021;
0202829860999992004062800004-09400-038217FM-12+0252SBUF V0200901N004110150019N0020001N1+02281+01901101711ADDAY151061AY221061GF107991071001017501051001KA1240M+02651MA1999999098821MD1999999-0011MW1031REMSYN100AAXX  28004 82986 21795 70908 10228 20190 39882 40171 70352 87050 333 10265 29078 55019 59001 69911;
0190829860999992004062812004-09400-038217FM-12+0252SBUF V0201401N004610021019N0040001N1+02301+02031101721ADDAY151061AY221061GF108991081071002501999999KA1240N+02011MA1999999098831MD1999999-0031MW1161REMSYN088AAXX  28124 82986 21396 81409 10230 20203 39883 40172 71652 887// 333 20201 59003 60024;
0167829860999992004062818004-09400-038217FM-12+0252SBUF V0201401N005110450019N0200001N1+02661+01901101331ADDAA106000091GF106991041021008001041001MA1999999098451MD1999999-0131REMSYN070AAXX  28184 82986 32598 61410 10266 20190 39845 40133 84240 333 59013;EQDQ01  00002PRCP06
0198829860999992004062900004-09400-038217FM-12+0252SBUF V0201401N003110021019N0020001N1+02301+01921101671ADDAA106000091GF108991081071002501999999KA1240M+02791MA1999999098791MD1999999-0031REMSYN088AAXX  29004 82986 32395 81406 10230 20192 39879 40167 887// 333 10279 29077 55048 59003;EQDQ01  00002PRCP06
0186829860999992004062912004-09400-038217FM-12+0252SBUF V0201401N004110075019N0200001N1+02321+01891101821ADDAA106000091GF106991051021008001001091KA1240N+01941MA1999999098931MD1999999+0141REMSYN076AAXX  29124 82986 32598 61408 10232 20189 39893 40182 85209 333 20194 58014;EQDQ01  00002PRCP06
0167829860999992004062918004-09400-038217FM-12+0252SBUF V0201401N005110042019N0200001N1+02761+01691101411ADDAA106000091GF108991081071004501999999MA1999999098531MD1999999+0081REMSYN070AAXX  29184 82986 32498 81410 10276 20169 39853 40141 887// 333 58008;EQDQ01  00002PRCP06
0198829860999992004063000004-09400-038217FM-12+0252SBUF V0201401N002110021019N0020001N1+02161+02021101661ADDAA106000091GF108991081071002501999999KA1240M+02891MA1999999098761MD1999999-0031REMSYN088AAXX  30004 82986 32395 81404 10216 20202 39876 40166 887// 333 10289 29078 55056 59003;EQDQ01  00002PRCP06
0190829860999992004063012004-09400-038217FM-12+0252SBUF V0201401N004610450019N0040001N1+02241+02091101761ADDAY161061AY221061GF107991041071002501091001KA1240N+02121MA1999999098851MD1999999-0081MW1031REMSYN088AAXX  30124 82986 21396 71409 10224 20209 39885 40176 70362 84790 333 20212 59008 60014;
0171829860999992004063018004-09400-038217FM-12+0252SBUF V0201801N002610090019N0100001N1+02391+01961101491ADDAY151061AY221061GF108991081081004501999999MA1999999098561MD1999999+0031MW1031REMSYN082AAXX  30184 82986 21497 81805 10239 20196 39856 40149 70352 888// 333 58003 69921;
0202829860999992004070100004-09400-038217FM-12+0252SBUF V0201401N001510450019N0020001N1+02251+02031101711ADDAY161061AY221061GF106991031061008001051001KA1240M+02631MA1999999098811MD1999999+0051MW1021REMSYN100AAXX  01004 82986 21595 61403 10225 20203 39881 40171 70262 83650 333 10263 29086 55001 58005 69941;
0162829860999992004070112004-09400-038217FM-12+0252SBUF V0201401N003110450019N0100001N1+02261+01981101761ADDGF107991041071004501071999KA1240N+01881MA1999999098861MD1999999+0011REMSYN082AAXX  01124 82986 22497 71406 10226 20198 39886 40176 8477/ 333 20188 58001 69964;
0167829860999992004070118004-09400-038217FM-12+0252SBUF V0200901N003112200019N0200001N1+02911+01781101291ADDAA106000091GF104991041021008001001001MA1999999098421MD1999999-0141REMSYN070AAXX  01184 82986 32598 40906 10291 20178 39842 40129 84200 333 59014;EQDQ01  00002PRCP06
0198829860999992004070200004-09400-038217FM-12+0252SBUF V0201401N003611050019N0020001N1+02431+01951101561ADDAA106000091GF105991021021008001051011KA1240M+02921MA1999999098681MD1999999-0131REMSYN088AAXX  02004 82986 32595 51407 10243 20195 39868 40156 82251 333 10292 29071 55087 59013;EQDQ01  00002PRCP06
0167829860999992004070218004-09400-038217FM-12+0252SBUF V0200901N003112200019N0200001N1+02821+01941101301ADDAA106000091GF104991041021008001001001MA1999999098441MD1999999+0021REMSYN070AAXX  02184 82986 32598 40906 10282 20194 39844 40130 84200 333 58002;EQDQ01  00002PRCP06
0198829860999992004070300004-09400-038217FM-12+0252SBUF V0201401N002612200019N0020001N1+02291+01921101591ADDAA106000091GF102991011041012501031001KA1240M+02871MA1999999098711MD1999999+0031REMSYN088AAXX  03004 82986 32695 21405 10229 20192 39871 40159 81430 333 10287 29074 55083 58003;EQDQ01  00002PRCP06
0190829860999992004070312004-09400-038217FM-12+0252SBUF V0201401N003110075019N0100001N1+02341+01871101691ADDAY151061AY221061GF106991061021008001001001KA1240N+01901MA1999999098751MD1999999-0051MW1021REMSYN088AAXX  03124 82986 21597 61406 10234 20187 39875 40169 70252 86200 333 20190 59005 69904;
0167829860999992004070318004-09400-038217FM-12+0252SBUF V0200901N003610450019N0200001N1+02871+01751101231ADDAA106000091GF106991031051008001041081MA1999999098371MD1999999-0071REMSYN070AAXX  03184 82986 32598 60907 10287 20175 39837 40123 83548 333 59007;EQDQ01  00002PRCP06
0198829860999992004070400004-09400-038217FM-12+0252SBUF V0201401N005110150019N0020001N1+02421+01791101551ADDAA106000091GF107991071001017501071001KA1240M+02911MA1999999098671MD1999999-0041REMSYN088AAXX  04004 82986 32795 71410 10242 20179 39867 40155 87070 333 10291 29066 55071 59004;EQDQ01  00002PRCP06
0214829860999992004070412004-09400-038217FM-12+0252SBUF V0201401N003610075019N0040001N1+02361+01931101721ADDAA106000091AY121061AY221061GF108991081051008001999999KA1240N+02141MA1999999098841MD1999999+0091MW1161REMSYN082AAXX  04124 82986 31596 81407 10236 20193 39884 40172 71622 885// 333 20214 58009;EQDQ01  00002PRCP06
0167829860999992004070418004-09400-038217FM-12+0252SBUF V0201401N002610450019N0200001N1+02701+01961101301ADDAA106000091GF108991041041008001071999MA1999999098431MD1999999+0061REMSYN070AAXX  04184 82986 32598 81405 10270 20196 39843 40130 8447/ 333 58006;EQDQ01  00002PRCP06
0198829860999992004070500004-09400-038217FM-12+0252SBUF V0201401N003119999999N0020001N1+02301+02051101511ADDAA106000091GF106991061001012501071001KA1240M+02811MA1999999098631MD1999999-0041REMSYN088AAXX  05004 82986 32695 61406 10230 20205 39863 40151 86070 333 10281 29078 55033 59004;EQDQ01  00002PRCP06
0186829860999992004070512004-09400-038217FM-12+0252SBUF V0201401N002610042019N0100001N1+02321+02051101711ADDAA106000091GF108991081071004501999999KA1240N+02141MA1999999098821MD1999999-0021REMSYN076AAXX  05124 82986 32497 81405 10232 20205 39882 40171 887// 333 20214 59002;EQDQ01  00002PRCP06
0167829860999992004070518004-09400-038217FM-12+0252SBUF V0200901N001512200019N0200001N1+02961+01841101341ADDAA106000091GF103991031021008001001001MA1999999098491MD1999999+0061REMSYN070AAXX  05184 82986 32598 30903 10296 20184 39849 40134 83200 333 58006;EQDQ01  00002PRCP06
0198829860999992004070600004-09400-038217FM-12+0252SBUF V0201401N005710075019N0020001N1+02501+02001101571ADDAA106000091GF105991051021008001001001KA1240M+03031MA1999999098691MD1999999+0061REMSYN088AAXX  06004 82986 32595 51411 10250 20200 39869 40157 85200 333 10303 29071 55062 58006;EQDQ01  00002PRCP06
0186829860999992004070612004-09400-038217FM-12+0252SBUF V0201401N002610450019N0100001N1+02341+02071101681ADDAA106000091GF107991041051004501051999KA1240N+02161MA1999999098771MD1999999-0051REMSYN076AAXX  06124 82986 32497 71405 10234 20207 39877 40168 8455/ 333 20216 59005;EQDQ01  00002PRCP06
0167829860999992004070618004-09400-038217FM-12+0252SBUF V0201401N002112200019N0200001N1+02971+01811101181ADDAA106000091GF104991041021008001001001MA1999999098341MD1999999-0151REMSYN070AAXX  06184 82986 32598 41404 10297 20181 39834 40118 84200 333 59015;EQDQ01  00002PRCP06
0208829860999992004070700004-09400-038217FM-12+0252SBUF V0201401N003112200019N0020001N1+02301+01901101511ADDAA106000091GA1001+999999999GF100991001001999999001001KA1240M+02981MA1999999098631MD1999999-0061REMSYN082AAXX  07004 82986 32995 01406 10230 20190 39863 40151 333 10298 29073 55062 59006;EQDQ01  00002PRCP06
0190829860999992004070712004-09400-038217FM-12+0252SBUF V0201401N002110450019N0010001N1+02221+02121101601ADDAY121061AY221061GF108991041091002501091999KA1240N+02121MA1999999098711MD1999999-0061MW1551REMSYN088AAXX  07124 82986 21394 81404 10222 20212 39871 40160 75522 8499/ 333 20212 59006 60014;
0148829860999992004070718004-09400-038217FM-12+0252SBUF V0201401N002610450019N0200001N1+03011+01881101101ADDAA106000021GF105991031021008001031021MA1999999098261MD1999999-0081REMSYN070AAXX  07184 82986 32598 51405 10301 20188 39826 40110 83232 333 59008;
0198829860999992004070800004-09400-038217FM-12+0252SBUF V0201401N004112200019N0020001N1+02421+02051101411ADDAA106000091GF103991031001017501041001KA1240M+03021MA1999999098531MD1999999-0101REMSYN088AAXX  08004 82986 32795 31408 10242 20205 39853 40141 83040 333 10302 29076 55049 59010;EQDQ01  00002PRCP06
0190829860999992004070812004-09400-038217FM-12+0252SBUF V0201401N001511050019N0100001N1+02371+02131101541ADDAY161061AY221061GF106991041021008001001081KA1240N+02141MA1999999098661MD1999999-0051MW1151REMSYN088AAXX  08124 82986 21597 61403 10237 20213 39866 40154 71562 84208 333 20214 59005 69934;
0202829860999992004070900004-09400-038217FM-12+0252SBUF V0201401N003112200019N0020001N1+02281+02091101401ADDAY151061AY221061GF103991011071008001051001KA1240M+03021MA1999999098521MD1999999-0011MW1011REMSYN100AAXX  09004 82986 21595 31406 10228 20209 39852 40140 70152 81750 333 10302 29080 55056 59001 69911;
0181829860999992004070912004-09400-038217FM-12+0252SBUF V0201401N001510042019N0040001N1+02401+02071101581ADDGF108991999071004501071999KA1240N+02161MA1999999098701MD1999999+0041REMSYN082AAXX  09124 82986 22496 81403 10240 20207 39870 40158 8877/ 333 20216 58004 69974;EQDQ01+000082SCOTLC
0167829860999992004070918004-09400-038217FM-12+0252SBUF V0201401N003610450019N0200001N1+02941+01911101121ADDAA106000091GF105991031021008001031001MA1999999098281MD1999999+0021REMSYN070AAXX  09184 82986 32598 51407 10294 20191 39828 40112 83230 333 58002;EQDQ01  00002PRCP06
0208829860999992004071000004-09400-038217FM-12+0252SBUF V0200901N003112200019N0020001N1+02461+02011101391ADDAA106000091GA1001+999999999GF100991001001999999001001KA1240M+03011MA1999999098531MD1999999+0011REMSYN082AAXX  10004 82986 32995 00906 10246 20201 39853 40139 333 10301 29072 55056 58001;EQDQ01  00002PRCP06
0186829860999992004071012004-09400-038217FM-12+0252SBUF V0200901N003110042019N0100001N1+02351+02031101611ADDAA106000091GF108991081071004501999999KA1240N+02061MA1999999098731MD1999999+0031REMSYN076AAXX  10124 82986 32497 80906 10235 20203 39873 40161 887// 333 20206 58003;EQDQ01  00002PRCP06
0167829860999992004071018004-09400-038217FM-12+0252SBUF V0201401N005112200019N0200001N1+02981+01751101181ADDAA106000091GF104991031011008001001011MA1999999098331MD1999999+0051REMSYN070AAXX  10184 82986 32598 41410 10298 20175 39833 40118 83101 333 58005;EQDQ01  00002PRCP06
0208829860999992004071100004-09400-038217FM-12+0252SBUF V0200901N003112200019N0020001N1+02461+02051101381ADDAA106000091GA1001+999999999GF100991001001999999001001KA1240M+03031MA1999999098511MD1999999-0021REMSYN082AAXX  11004 82986 32995 00906 10246 20205 39851 40138 333 10303 29072 55071 59002;EQDQ01  00002PRCP06
0167829860999992004071118004-09400-038217FM-12+0252SBUF V0201401N004112200019N0200001N1+02961+01641101161ADDAA106000091GF103991021011008001001011MA1999999098311MD1999999-0021REMSYN070AAXX  11184 82986 32598 31408 10296 20164 39831 40116 82101 333 59002;EQDQ01  00002PRCP06
0208829860999992004071200004-09400-038217FM-12+0252SBUF V0200901N003612200019N0020001N1+02461+01761101421ADDAA106000091GA1001+999999999GF100991001001999999001001KA1240M+02991MA1999999098551MD1999999+0041REMSYN082AAXX  12004 82986 32995 00907 10246 20176 39855 40142 333 10299 29062 55067 58004;EQDQ01  00002PRCP06
0186829860999992004071212004-09400-038217FM-12+0252SBUF V0201401N003610450019N0200001N1+02241+01751101611ADDAA106000091GF105991031041008001031001KA1240N+01821MA1999999098731MD1999999-0031REMSYN076AAXX  12124 82986 32598 51407 10224 20175 39873 40161 83430 333 20182 59003;EQDQ01  00002PRCP06
0167829860999992004071218004-09400-038217FM-12+0252SBUF V0201401N003110075019N0200001N1+02851+01531101161ADDAA106000091GF105991051021008001001001MA1999999098301MD1999999-0011REMSYN070AAXX  12184 82986 32598 51406 10285 20153 39830 40116 85200 333 59001;EQDQ01  00002PRCP06
0208829860999992004071300004-09400-038217FM-12+0252SBUF V0201401N005112200019N0020001N1+02401+01751101521ADDAA106000091GA1001+999999999GF100991001001999999001001KA1240M+02971MA1999999098641MD1999999+0091REMSYN082AAXX  13004 82986 32995 01410 10240 20175 39864 40152 333 10297 29063 55101 58009;EQDQ01  00002PRCP06
0214829860999992004071312004-09400-038217FM-12+0252SBUF V0201401N001510042019N0040001N1+02201+02101101611ADDAA106000091AY121061AY221061GF108991051071004501071001KA1240N+02021MA1999999098721MD1999999-0011MW1101REMSYN082AAXX  13124 82986 31496 81403 10220 20210 39872 40161 71022 85770 333 20202 59001;EQDQ01  00002PRCP06
0171829860999992004071318004-09400-038217FM-12+0252SBUF V0201401N005110060019N0010001N1+02281+02161101391ADDAY161061AY261061GF108991081081002501999999MA1999999098501MD1999999+0201MW1621REMSYN082AAXX  13184 82986 21394 81410 10228 20216 39850 40139 76266 888// 333 58020 60051;
0212829860999992004071400004-09400-038217FM-12+0252SBUF V0201801N001512200019N0020001N1+02121+01861101661ADDAY161061AY211061GA1001+999999999GF100991001001999999001001KA1240M+02551MA1999999098751MD1999999+0111MW1021REMSYN094AAXX  14004 82986 21995 01803 10212 20186 39875 40166 70261 333 10255 29089 55014 58011 60021;
0162829860999992004071412004-09400-038217FM-12+0252SBUF V0201401N002110450019N0040001N1+02121+01951101731ADDGF106991041071004501071001KA1240N+01821MA1999999098821MD1999999+0101REMSYN082AAXX  14124 82986 22496 61404 10212 20195 39882 40173 84770 333 20182 58010 60074;
0167829860999992004071418004-09400-038217FM-12+0252SBUF V0201401N005710450019N0200001N1+02701+01941101371ADDAA106000091GF106991041051004501061001MA1999999098491MD1999999-0011REMSYN070AAXX  14184 82986 32498 61411 10270 20194 39849 40137 84560 333 59001;EQDQ01  00002PRCP06
0202829860999992004071500004-09400-038217FM-12+0252SBUF V0201401N005112200019N0020001N1+02321+01871101661ADDAY181061AY221061GF102991021051008001001001KA1240M+02771MA1999999098761MD1999999+0011MW1021REMSYN100AAXX  15004 82986 21595 21410 10232 20187 39876 40166 70282 82500 333 10277 29076 55052 58001 69981;
0162829860999992004071512004-09400-038217FM-12+0252SBUF V0201401N002110042019N0040001N1+02321+01981101751ADDGF106991061071004501001001KA1240N+02001MA1999999098861MD1999999+0041REMSYN082AAXX  15124 82986 22496 61404 10232 20198 39886 40175 86700 333 20200 58004 69984;
0171829860999992004071518004-09400-038217FM-12+0252SBUF V0200901N005710042019N0100001N1+02681+01891101441ADDAY151061AY221061GF107991051051004501081001MA1999999098561MD1999999+0071MW1151REMSYN082AAXX  15184 82986 21497 70911 10268 20189 39856 40144 71552 85580 333 58007 69901;
0202829860999992004071600004-09400-038217FM-12+0252SBUF V0200901N002110075019N0020001N1+02121+02001101741ADDAY151061AY221061GF108991081071008001999999KA1240M+02831MA1999999098841MD1999999+0081MW1201REMSYN100AAXX  16004 82986 21595 80904 10212 20200 39884 40174 72052 887// 333 10283 29083 55056 58008 69921;
0190829860999992004071612004-09400-038217FM-12+0252SBUF V0201401N003110042019N0040001N1+02351+02051101811ADDAY181061AY241061GF107991051051004501081001KA1240N+02081MA1999999098911MD1999999+0051MW1101REMSYN088AAXX  16124 82986 21496 71406 10235 20205 39891 40181 71084 85580 333 20208 58005 60024;
0167829860999992004071618004-09400-038217FM-12+0252SBUF V0201401N004110450019N0100001N1+02741+01811101421ADDAA106000091GF108991031051004501081001MA1999999098551MD1999999-0011REMSYN070AAXX  16184 82986 32497 81408 10274 20181 39855 40142 83580 333 59001;EQDQ01  00002PRCP06
0208829860999992004071700004-09400-038217FM-12+0252SBUF V0201401N003612200019N0020001N1+02241+01921101671ADDAA106000091GA1001+999999999GF100991001001999999001001KA1240M+02791MA1999999098761MD1999999-0081REMSYN082AAXX  17004 82986 32995 01407 10224 20192 39876 40167 333 10279 29076 55002 59008;EQDQ01  00002PRCP06
0214829860999992004071712004-09400-038217FM-12+0252SBUF V0201401N003110042019N0040001N1+02331+01961101751ADDAA106000091AY141061AY221061GF106991051051004501051001KA1240N+02101MA1999999098861MD1999999-0051MW1101REMSYN082AAXX  17124 82986 31496 61406 10233 20196 39886 40175 71042 85550 333 20210 59005;EQDQ01  00002PRCP06
0167829860999992004071718004-09400-038217FM-12+0252SBUF V0201401N004611050019N0200001N1+02981+01691101321ADDAA106000091GF106991021011008001001081MA1999999098461MD1999999-0091REMSYN070AAXX  17184 82986 32598 61409 10298 20169 39846 40132 82108 333 59009;EQDQ01  00002PRCP06
0208829860999992004071800004-09400-038217FM-12+0252SBUF V0201401N005112200019N0020001N1+02381+01971101581ADDAA106000091GA1001+999999999GF100991001001999999001001KA1240M+02951MA1999999098701MD1999999-0061REMSYN082AAXX  18004 82986 32995 01410 10238 20197 39870 40158 333 10295 29070 55067 59006;EQDQ01  00002PRCP06
0186829860999992004071812004-09400-038217FM-12+0252SBUF V0201401N004110450019N0100001N1+02371+01891101871ADDAA106000091GF106991031071004501071001KA1240N+02061MA1999999098981MD1999999+0121REMSYN076AAXX  18124 82986 32497 61408 10237 20189 39898 40187 83770 333 20206 58012;EQDQ01  00002PRCP06
0171829860999992004071818004-09400-038217FM-12+0252SBUF V0201401N002610075019N0200001N1+02901+01751101431ADDAY151061AY221061GF105991051021008001001001MA1999999098571MD1999999+0111MW1011REMSYN082AAXX  18184 82986 21598 51405 10290 20175 39857 40143 70152 85200 333 58011 69911;
0208829860999992004071900004-09400-038217FM-12+0252SBUF V0201401N005112200019N0020001N1+02331+01791101721ADDAA106000091GA1001+999999999GF100991001001999999001001KA1240M+02931MA1999999098841MD1999999+0141REMSYN082AAXX  19004 82986 32995 01410 10233 20179 39884 40172 333 10293 29067 55073 58014;EQDQ01  00002PRCP06
0162829860999992004071912004-09400-038217FM-12+0252SBUF V0201401N004610450019N0200001N1+02321+01791101871ADDGF106991031041008001061001KA1240N+01861MA1999999098971MD1999999-0011REMSYN082AAXX  19124 82986 22598 61409 10232 20179 39897 40187 83460 333 20186 59001 69914;
0167829860999992004071918004-09400-038217FM-12+0252SBUF V0201401N003112200019N0200001N1+02781+01581101461ADDAA106000091GF104991041011008001001001MA1999999098581MD1999999+0011REMSYN070AAXX  19184 82986 32598 41406 10278 20158 39858 40146 84100 333 58001;EQDQ01  00002PRCP06
0208829860999992004072000004-09400-038217FM-12+0252SBUF V0201401N003112200019N0020001N1+02301+01531101691ADDAA106000091GA1001+999999999GF100991001001999999001001KA1240M+02921MA1999999098801MD1999999-0041REMSYN082AAXX  20004 82986 32995 01406 10230 20153 39880 40169 333 10292 29061 55099 59004;EQDQ01  00002PRCP06
0186829860999992004072012004-09400-038217FM-12+0252SBUF V0201401N001510075019N0100001N1+02201+01781101841ADDAA106000091GF105991051041008001001001KA1240N+01741MA1999999098941MD1999999-0031REMSYN076AAXX  20124 82986 32597 51403 10220 20178 39894 40184 85400 333 20174 59003;EQDQ01  00002PRCP06
0167829860999992004072018004-09400-038217FM-12+0252SBUF V0201801N003110075019N0200001N1+02931+01341101301ADDAA106000091GF105991051011008001001001MA1999999098431MD1999999-0151REMSYN070AAXX  20184 82986 32598 51806 10293 20134 39843 40130 85100 333 59015;EQDQ01  00002PRCP06
0208829860999992004072100004-09400-038217FM-12+0252SBUF V0200901N004612200019N0020001N1+02361+01711101561ADDAA106000091GA1001+999999999GF100991001001999999001001KA1240M+03001MA1999999098671MD1999999-0131REMSYN082AAXX  21004 82986 32995 00909 10236 20171 39867 40156 333 10300 29062 55089 59013;EQDQ01  00002PRCP06
0186829860999992004072112004-09400-038217FM-12+0252SBUF V0201401N002110075019N0100001N1+02371+01711101641ADDAA106000091GF106991061021008001001001KA1240N+01901MA1999999098761MD1999999-0181REMSYN076AAXX  21124 82986 32597 61404 10237 20171 39876 40164 86200 333 20190 59018;EQDQ01  00002PRCP06
0167829860999992004072118004-09400-038217FM-12+0252SBUF V0201801N003610075019N0200001N1+02901+01521101151ADDAA106000091GF106991061051008001001001MA1999999098291MD1999999-0141REMSYN070AAXX  21184 82986 32598 61807 10290 20152 39829 40115 86500 333 59014;EQDQ01  00002PRCP06
0198829860999992004072200004-09400-038217FM-12+0252SBUF V0201401N002610075019N0020001N1+02321+01851101501ADDAA106000091GF106991061051008001001001KA1240M+02991MA1999999098621MD1999999-0051REMSYN088AAXX  22004 82986 32595 61405 10232 20185 39862 40150 86500 333 10299 29065 55084 59005;EQDQ01  00002PRCP06
0190829860999992004072212004-09400-038217FM-12+0252SBUF V0201801N003610042019N0100001N1+02121+01861101731ADDAY151061AY221061GF107991051051004501051001KA1240N+02001MA1999999098831MD1999999+0071MW1201REMSYN088AAXX  22124 82986 21497 71807 10212 20186 39883 40173 72052 85550 333 20200 58007 69904;
0148829860999992004072218004-09400-038217FM-12+0252SBUF V0201801N004110450019N0200001N1+02641+01601101371ADDAA106000021GF105991021041008001051001MA1999999098491MD1999999+0201REMSYN070AAXX  22184 82986 32598 51808 10264 20160 39849 40137 82450 333 58020;
0198829860999992004072300004-09400-038217FM-12+0252SBUF V0201401N005112200019N0020001N1+02301+01631101701ADDAA106000091GF103991031001012501021001KA1240M+02691MA1999999098801MD1999999+0181REMSYN088AAXX  23004 82986 32695 31410 10230 20163 39880 40170 83020 333 10269 29068 55050 58018;EQDQ01  00002PRCP06
0186829860999992004072312004-09400-038217FM-12+0252SBUF V0201401N006210075019N0100001N1+02211+01311101881ADDAA106000091GF106991061051008001001001KA1240N+01761MA1999999098981MD1999999+0151REMSYN076AAXX  23124 82986 32597 61412 10221 20131 39898 40188 86500 333 20176 58015;EQDQ01  00002PRCP06
0167829860999992004072318004-09400-038217FM-12+0252SBUF V0201801N005710450019N0200001N1+02761+01621101451ADDAA106000091GF105991031021008001031001MA1999999098561MD1999999+0071REMSYN070AAXX  23184 82986 32598 51811 10276 20162 39856 40145 83230 333 58007;EQDQ01  00002PRCP06
0186829860999992004072412004-09400-038217FM-12+0252SBUF V0201401N005110450019N0100001N1+02301+01721102031ADDAA106000091GF106991031051004501071001KA1240N+01881MA1999999099111MD1999999+0131REMSYN076AAXX  24124 82986 32497 61410 10230 20172 39911 40203 83570 333 20188 58013;EQDQ01  00002PRCP06
0167829860999992004072418004-09400-038217FM-12+0252SBUF V0201801N005110450019N0200001N1+02581+01741101741ADDAA106000091GF105991031031008001061001MA1999999098841MD1999999+0281REMSYN070AAXX  24184 82986 32598 51810 10258 20174 39884 40174 83360 333 58028;EQDQ01  00002PRCP06
0202829860999992004072500004-09400-038217FM-12+0252SBUF V0201801N003110450019N0020001N1+02031+01761102081ADDAY151061AY221061GF106991041061008001081001KA1240M+02671MA1999999099141MD1999999+0171MW1031REMSYN100AAXX  25004 82986 21595 61806 10203 20176 39914 40208 70352 84680 333 10267 29075 55065 58017 69911;
0162829860999992004072512004-09400-038217FM-12+0252SBUF V0201401N006210450019N0100001N1+02191+01671102051ADDGF108991041071004501071001KA1240N+01861MA1999999099131MD1999999+0021REMSYN082AAXX  25124 82986 22497 81412 10219 20167 39913 40205 84770 333 20186 58002 69914;
0167829860999992004072518004-09400-038217FM-12+0252SBUF V0201401N006710042019N0100001N1+02471+01631101741ADDAA106000091GF108991081071004501999999MA1999999098841MD1999999+0001REMSYN070AAXX  25184 82986 32497 81413 10247 20163 39884 40174 887// 333 58000;EQDQ01  00002PRCP06
0198829860999992004072600004-09400-038217FM-12+0252SBUF V0201401N003619999999N0020001N1+02231+01461101941ADDAA106000091GF106991061001012501051001KA1240M+02591MA1999999099031MD1999999-0111REMSYN088AAXX  26004 82986 32695 61407 10223 20146 39903 40194 86050 333 10259 29064 55011 59011;EQDQ01  00002PRCP06
0186829860999992004072612004-09400-038217FM-12+0252SBUF V0201401N006710042019N0100001N1+02221+01551101931ADDAA106000091GF108991081071004501999999KA1240N+01941MA1999999099031MD1999999-0101REMSYN076AAXX  26124 82986 32497 81413 10222 20155 39903 40193 887// 333 20194 59010;EQDQ01  00002PRCP06
0167829860999992004072618004-09400-038217FM-12+0252SBUF V0201401N004110075019N0100001N1+02491+01571101691ADDAA106000091GF108991061051008001081999MA1999999098791MD1999999-0051REMSYN070AAXX  26184 82986 32597 81408 10249 20157 39879 40169 8658/ 333 59005;EQDQ01  00002PRCP06
0198829860999992004072700004-09400-038217FM-12+0252SBUF V0201401N005110150019N0020001N1+02241+01531102011ADDAA106000091GF106991061001017501051001KA1240M+02571MA1999999099101MD1999999+0071REMSYN088AAXX  27004 82986 32795 61410 10224 20153 39910 40201 86050 333 10257 29063 55008 58007;EQDQ01  00002PRCP06
0186829860999992004072712004-09400-038217FM-12+0252SBUF V0201401N003110450019N0100001N1+02271+01421102051ADDAA106000091GF105991031051008001051001KA1240N+01841MA1999999099141MD1999999+0111REMSYN076AAXX  27124 82986 32597 51406 10227 20142 39914 40205 83550 333 20184 58011;EQDQ01  00002PRCP06
0198829860999992004072800004-09400-038217FM-12+0252SBUF V0201401N004610450019N0020001N1+02281+01561101861ADDAA106000091GF106991021041008001051001KA1240M+02881MA1999999098961MD1999999-0141REMSYN088AAXX  28004 82986 32595 61409 10228 20156 39896 40186 82450 333 10288 29056 55072 59014;EQDQ01  00002PRCP06
0190829860999992004072812004-09400-038217FM-12+0252SBUF V0201401N004610450019N0040001N1+02141+01841101951ADDAY161061AY251061GF106991041071002501081001KA1240N+01861MA1999999099041MD1999999-0101MW1151REMSYN088AAXX  28124 82986 21396 61409 10214 20184 39904 40195 71565 84780 333 20186 59010 69994;
0171829860999992004072818004-09400-038217FM-12+0252SBUF V0201401N009310450019N0200001N1+02781+01481101551ADDAY161061AY221061GF105991031041008001031001MA1999999098671MD1999999-0051MW1011REMSYN082AAXX  28184 82986 21598 51418 10278 20148 39867 40155 70162 83430 333 59005 69931;
0198829860999992004072900004-09400-038217FM-12+0252SBUF V0201401N005712200019N0020001N1+02181+01631101901ADDAA106000091GF103991031001012501051001KA1240M+02851MA1999999098991MD1999999+0031REMSYN088AAXX  29004 82986 32695 31411 10218 20163 39899 40190 83050 333 10285 29068 55062 58003;EQDQ01  00002PRCP06
0162829860999992004072912004-09400-038217FM-12+0252SBUF V0201401N005710042019N0100001N1+02271+01711101851ADDGF108991061071004501071999KA1240N+02021MA1999999098941MD1999999-0101REMSYN082AAXX  29124 82986 22497 81411 10227 20171 39894 40185 8677/ 333 20202 59010 69934;
0171829860999992004072918004-09400-038217FM-12+0252SBUF V0201401N005110042019N0200001N1+02261+02051101591ADDAY161061AY221061GF108991051071004501071999MA1999999098681MD1999999+0011MW1611REMSYN082AAXX  29184 82986 21498 81410 10226 20205 39868 40159 76162 8577/ 333 58001 69931;
0202829860999992004073000004-09400-038217FM-12+0252SBUF V0201401N003610042019N0020001N1+02041+01891101841ADDAY161061AY221061GF108991081071004501001001KA1240M+02531MA1999999098931MD1999999-0061MW1031REMSYN100AAXX  30004 82986 21495 81407 10204 20189 39893 40184 70362 88700 333 10253 29085 55005 59006 60011;
0190829860999992004073012004-09400-038217FM-12+0252SBUF V0201401N005710042019N0100001N1+02241+01981101911ADDAY161061AY221061GF106991061071004501001001KA1240N+01941MA1999999099001MD1999999+0061MW1031REMSYN088AAXX  30124 82986 21497 61411 10224 20198 39900 40191 70362 86700 333 20194 58006 60044;
0167829860999992004073018004-09400-038217FM-12+0252SBUF V0200901N003110450019N0100001N1+02721+01881101511ADDAA106000091GF106991011051004501021021MA1999999098631MD1999999-0051REMSYN070AAXX  30184 82986 32497 60906 10272 20188 39863 40151 81522 333 59005;EQDQ01  00002PRCP06
0202829860999992004073100004-09400-038217FM-12+0252SBUF V0200901N001510450019N0020001N1+02211+02081101861ADDAY161061AY251061GF107991041051004501071001KA1240M+02811MA1999999098951MD1999999+0021MW1031REMSYN100AAXX  31004 82986 21495 70903 10221 20208 39895 40186 70365 84570 333 10281 29083 55035 58002 60011;
0190829860999992004073112004-09400-038217FM-12+0252SBUF V0201401N002610450019N0040001N1+02141+01971101941ADDAY161061AY221061GF108991041071002501071999KA1240N+02001MA1999999099031MD1999999+0031MW1031REMSYN088AAXX  31124 82986 21396 81405 10214 20197 39903 40194 70362 8477/ 333 20200 58003 60024;
0171829860999992004073118004-09400-038217FM-12+0252SBUF V0201401N001510450019N0040001N1+02231+02141101571ADDAY161061AY261061GF106991041071002501051001MA1999999098661MD1999999+0031MW1641REMSYN082AAXX  31184 82986 21396 61403 10223 20214 39866 40157 76466 84750 333 58003 60071;
0202829860999992004080100004-09400-038217FM-12+0252SBUF V0201401N003110090019N0020001N1+02181+02081101781ADDAY151061AY221061GF108991081081004501999999KA1240M+02651MA1999999098871MD1999999-0081MW1201REMSYN100AAXX  01004 82986 21495 81406 10218 20208 39887 40178 72052 888// 333 10265 29093 55000 59008 69921;
0190829860999992004080112004-09400-038217FM-12+0252SBUF V0200901N001510060019N0010001N1+02141+02061101911ADDAY161061AY261061GF108991081081002501999999KA1240N+02041MA1999999099001MD1999999-0031MW1621REMSYN088AAXX  01124 82986 21394 80903 10214 20206 39900 40191 76266 888// 333 20204 59003 60074;
0171829860999992004080118004-09400-038217FM-12+0252SBUF V0201401N004610060019N0040001N1+02211+02061101611ADDAY161061AY251061GF108991081081002501999999MA1999999098701MD1999999+0141MW1611REMSYN082AAXX  01184 82986 21396 81409 10221 20206 39870 40161 76165 888// 333 58014 69981;
0202829860999992004080200004-09400-038217FM-12+0252SBUF V0200901N001510090019N0020001N1+02041+01971101911ADDAY161061AY261061GF108991081081004501999999KA1240M+02591MA1999999098991MD1999999+0121MW1021REMSYN100AAXX  02004 82986 21495 80903 10204 20197 39899 40191 70266 888// 333 10259 29092 55000 58012 60041;
0190829860999992004080212004-09400-038217FM-12+0252SBUF V0200901N001510042019N0040001N1+02261+02051101911ADDAY161061AY251061GF106991061071004501999999KA1240N+01921MA1999999099001MD1999999+0001MW1031REMSYN088AAXX  02124 82986 21496 60903 10226 20205 39900 40191 70365 867// 333 20192 58000 60054;
0167829860999992004080218004-09400-038217FM-12+0252SBUF V0201401N003110450019N0200001N1+02761+01801101521ADDAA106000091GF106991031021008001051001MA1999999098651MD1999999-0051REMSYN070AAXX  02184 82986 32598 61406 10276 20180 39865 40152 83250 333 59005;EQDQ01  00002PRCP06
0198829860999992004080300004-09400-038217FM-12+0252SBUF V0201401N004112200019N0020001N1+02261+01881101801ADDAA106000091GF102991021001017501041001KA1240M+02791MA1999999098901MD1999999-0091REMSYN088AAXX  03004 82986 32795 21408 10226 20188 39890 40180 82040 333 10279 29076 55033 59009;EQDQ01  00002PRCP06
0186829860999992004080312004-09400-038217FM-12+0252SBUF V0201401N004110075019N0100001N1+02261+01881101901ADDAA106000091GF106991051021008001061001KA1240N+02021MA1999999099001MD1999999+0001REMSYN076AAXX  03124 82986 32597 61408 10226 20188 39900 40190 85260 333 20202 58000;EQDQ01  00002PRCP06
0167829860999992004080318004-09400-038217FM-12+0252SBUF V0201401N006212200019N0200001N1+02861+01551101491ADDAA106000091GF103991031011008001001001MA1999999098631MD1999999-0021REMSYN070AAXX  03184 82986 32598 31412 10286 20155 39863 40149 83100 333 59002;EQDQ01  00002PRCP06
0208829860999992004080400004-09400-038217FM-12+0252SBUF V0201401N004612200019N0020001N1+02241+01711101861ADDAA106000091GA1001+999999999GF100991001001999999001001KA1240M+02871MA1999999098961MD1999999+0061REMSYN082AAXX  04004 82986 32995 01409 10224 20171 39896 40186 333 10287 29067 55094 58006;EQDQ01  00002PRCP06
0186829860999992004080412004-09400-038217FM-12+0252SBUF V0201801N004110075019N0200001N1+02251+01751101951ADDAA106000091GF106991061051008001001001KA1240N+01721MA1999999099051MD1999999+0051REMSYN076AAXX  04124 82986 32598 61808 10225 20175 39905 40195 86500 333 20172 58005;EQDQ01  00002PRCP06
0167829860999992004080418004-09400-038217FM-12+0252SBUF V0201401N005112200019N0200001N1+02901+01551101531ADDAA106000091GF104991041021008001001001MA1999999098651MD1999999+0021REMSYN070AAXX  04184 82986 32598 41410 10290 20155 39865 40153 84200 333 58002;EQDQ01  00002PRCP06
0208829860999992004080500004-09400-038217FM-12+0252SBUF V0201401N004612200019N0020001N1+02281+01831101831ADDAA106000091GA1001+999999999GF100991001001999999001001KA1240M+02911MA1999999098931MD1999999-0031REMSYN082AAXX  05004 82986 32995 01409 10228 20183 39893 40183 333 10291 29068 55097 59003;EQDQ01  00002PRCP06
0214829860999992004080512004-09400-038217FM-12+0252SBUF V0201401N003110450019N0200001N1+02291+01811101851ADDAA106000091AY121061AY211061GF106991031081004501071001KA1240N+02041MA1999999098951MD1999999-0101MW1151REMSYN082AAXX  05124 82986 31498 61406 10229 20181 39895 40185 71521 83870 333 20204 59010;EQDQ01  00002PRCP06
0208829860999992004080600004-09400-038217FM-12+0252SBUF V0201401N003112200019N0020001N1+02361+01761101781ADDAA106000091GA1001+999999999GF100991001001999999001001KA1240M+02741MA1999999098891MD1999999-0041REMSYN082AAXX  06004 82986 32995 01406 10236 20176 39889 40178 333 10274 29068 55037 59004;EQDQ01  00002PRCP06
0186829860999992004080612004-09400-038217FM-12+0252SBUF V0201401N005110450019N0200001N1+02341+01871101881ADDAA106000091GF107991041051004501071999KA1240N+02001MA1999999098991MD1999999+0041REMSYN076AAXX  06124 82986 32498 71410 10234 20187 39899 40188 8457/ 333 20200 58004;EQDQ01  00002PRCP06
0171829860999992004080618004-09400-038217FM-12+0252SBUF V0200901N003110060019N0020001N1+02281+02111101651ADDAY161061AY261061GF108991081081002501999999MA1999999098741MD1999999-0121MW1611REMSYN082AAXX  06184 82986 21395 80906 10228 20211 39874 40165 76166 888// 333 59012 69921;
0190829860999992004080712004-09400-038217FM-12+0252SBUF V0201801N001510090019N0040001N1+02251+01901102031ADDAY121061AY221061GF108991081081004501999999KA1240N+02001MA1999999099121MD1999999+0131MW1201REMSYN088AAXX  07124 82986 21496 81803 10225 20190 39912 40203 72022 888// 333 20200 58013 60034;
0171829860999992004080718004-09400-038217FM-12+0252SBUF V0201401N003610450019N0040001N1+02431+02131101741ADDAY151061AY221061GF106991041081004501081001MA1999999098841MD1999999+0101MW1601REMSYN082AAXX  07184 82986 21496 61407 10243 20213 39884 40174 76052 84880 333 58010 69921;
0202829860999992004080800004-09400-038217FM-12+0252SBUF V0201401N001510021019N0020001N1+02121+02041101961ADDAY181061AY221061GF106991061071002501001001KA1240M+02711MA1999999099051MD1999999+0081MW1011REMSYN100AAXX  08004 82986 21395 61403 10212 20204 39905 40196 70182 86700 333 10271 29089 55030 58008 60031;
0190829860999992004080812004-09400-038217FM-12+0252SBUF V0201401N001010042019N0040001N1+02141+02091101971ADDAY161061AY251061GF107991051071004501081001KA1240N+02071MA1999999099071MD1999999-0051MW1031REMSYN088AAXX  08124 82986 21496 71402 10214 20209 39907 40197 70365 85780 333 20207 59005 60084;
0195829860999992004080818004-09400-038217FM-12+0252SBUF V0200901N002610075019N0100001N1+02751+02021101571ADDAA106000091AY121061AY221061GF107991051051008001081001MA1999999098691MD1999999-0151MW1151REMSYN076AAXX  08184 82986 31597 70905 10275 20202 39869 40157 71522 85580 333 59015;EQDQ01  00002PRCP06
0202829860999992004080900004-09400-038217FM-12+0252SBUF V0201401N001510060019N0020001N1+02181+02111101811ADDAY161061AY251061GF108991081081002501999999KA1240M+02771MA1999999098901MD1999999-0051MW1201REMSYN100AAXX  09004 82986 21395 81403 10218 20211 39890 40181 72065 888// 333 10277 29088 55020 59005 69981;
0190829860999992004080912004-09400-038220FM-12+0253SBUF V0200901N002610075019N0100001N1+02401+01931101911ADDAY151061AY221061GF106991061021008001001001KA1240N+02081MA1999999099011MD1999999-0061MW1021REMSYN088AAXX  09124 82986 21597 60905 10240 20193 39901 40191 70252 86200 333 20208 59006 69994;
0167829860999992004080918004-09400-038220FM-12+0253SBUF V0201401N003110450019N0200001N1+02761+01941101521ADDAA106000091GF106991041051008001071999MA1999999098651MD1999999-0041REMSYN070AAXX  09184 82986 32598 61406 10276 20194 39865 40152 8457/ 333 59004;EQDQ01  00002PRCP06
0190829860999992004081012004-09400-038220FM-12+0253SBUF V0201401N005110090019N0040001N1+02281+02001102041ADDAY151061AY221061GF106991051081004501081001KA1240N+02021MA1999999099121MD1999999+0111MW1611REMSYN088AAXX  10124 82986 21496 61410 10228 20200 39912 40204 76152 85880 333 20202 58011 60014;
0171829860999992004081018004-09400-038220FM-12+0253SBUF V0201401N005710450019N0200001N1+02701+01781101641ADDAY151061AY221061GF106991041021008001031001MA1999999098761MD1999999+0111MW1021REMSYN082AAXX  10184 82986 21598 61411 10270 20178 39876 40164 70252 84230 333 58011 69911;
0198829860999992004081100004-09400-038220FM-12+0253SBUF V0201401N005110042019N0020001N1+02101+01861102061ADDAA106000091GF105991051061004501001001KA1240M+02831MA1999999099151MD1999999+0101REMSYN088AAXX  11004 82986 32495 51410 10210 20186 39915 40206 85600 333 10283 29078 55079 58010;EQDQ01  00002PRCP06
0190829860999992004081112004-09400-038217FM-12+0252SBUF V0201401N003110450019N0040001N1+02091+01821102161ADDAY161061AY221061GF108991041071002501071999KA1240N+01921MA1999999099231MD1999999+0111MW1031REMSYN088AAXX  11124 82986 21396 81406 10209 20182 39923 40216 70362 8477/ 333 20192 58011 60014;
0195829860999992004081118004-09400-038217FM-12+0252SBUF V0201401N003110450019N0100001N1+02471+01631101721ADDAA106000091AY121061AY221061GF108991041071004501071999MA1999999098821MD1999999+0081MW1151REMSYN076AAXX  11184 82986 31497 81406 10247 20163 39882 40172 71522 8477/ 333 58008;EQDQ01  00002PRCP06
0198829860999992004081200004-09400-038220FM-12+0253SBUF V0201401N003119999999N0020001N1+02181+01561102061ADDAA106000091GF105991051001012501051001KA1240M+02501MA1999999099141MD1999999-0011REMSYN088AAXX  12004 82986 32695 51406 10218 20156 39914 40206 85050 333 10250 29070 55007 59001;EQDQ01  00002PRCP06
0186829860999992004081212004-09400-038220FM-12+0253SBUF V0201401N006210450019N0200001N1+02221+01671102141ADDAA106000091GF106991031021008001031011KA1240N+01861MA1999999099231MD1999999+0001REMSYN076AAXX  12124 82986 32598 61412 10222 20167 39923 40214 83231 333 20186 58000;EQDQ01  00002PRCP06
0167829860999992004081218004-09400-038220FM-12+0253SBUF V0200901N003110450019N0200001N1+02651+01541101701ADDAA106000091GF107991041041008001071001MA1999999098811MD1999999-0011REMSYN070AAXX  12184 82986 32598 70906 10265 20154 39881 40170 84470 333 59001;EQDQ01  00002PRCP06
0198829860999992004081300004-09400-038220FM-12+0253SBUF V0201401N003112200019N0020001N1+02141+01661102061ADDAA106000091GF103991031001012501031001KA1240M+02711MA1999999099151MD1999999+0011REMSYN088AAXX  13004 82986 32695 31406 10214 20166 39915 40206 83030 333 10271 29067 55059 58001;EQDQ01  00002PRCP06
0186829860999992004081312004-09400-038220FM-12+0253SBUF V0201801N003112200019N0100001N1+02321+01311102141ADDAA106000091GF104991021011008001051001KA1240N+01861MA1999999099231MD1999999+0001REMSYN076AAXX  13124 82986 32597 41806 10232 20131 39923 40214 82150 333 20186 58000;EQDQ01  00002PRCP06
0167829860999992004081318004-09400-038220FM-12+0253SBUF V0201401N006211050019N0200001N1+02621+01501101621ADDAA106000091GF106991031041008001001081MA1999999098731MD1999999-0081REMSYN070AAXX  13184 82986 32598 61412 10262 20150 39873 40162 83408 333 59008;EQDQ01  00002PRCP06
0208829860999992004081400004-09400-038220FM-12+0253SBUF V0201401N004112200019N0020001N1+02091+01421102011ADDAA106000091GA1001+999999999GF100991001001999999001001KA1240M+02771MA1999999099101MD1999999-0051REMSYN082AAXX  14004 82986 32995 01408 10209 20142 39910 40201 333 10277 29059 55099 59005;EQDQ01  00002PRCP06
0162829860999992004081411004-09400-038220FM-15+0253SBUF V0201701N004110210019N0112651N1+02001+01801999999ADDGA1041+004509999GA2071+021009999GF107991999999999999999999MA1102301999999MW1001REMMET052SBUF 141100Z 17008KT 9999 SCT015 BKN070 20/18 Q1023;EQDQ01+000000PRSWM2
0202829860999992004081412004-09400-038220FM-12+0253SBUF V0201401N004610042019N0040001N1+02071+01641102161ADDAA106000091GF108991999071004501071999KA1240N+01771MA1999999099231MD1999999+0001REMSYN076AAXX  14124 82986 32496 81409 10207 20164 39923 40216 8877/ 333 20177 58000;EQDQ01+000082SCOTLCQ02  00002PRCP06
0167829860999992004081418004-09400-038220FM-12+0253SBUF V0201401N005110075019N0200001N1+02661+01591101671ADDAA106000091GF106991061021008001001001MA1999999098781MD1999999+0051REMSYN070AAXX  14184 82986 32598 61410 10266 20159 39878 40167 86200 333 58005;EQDQ01  00002PRCP06
0198829860999992004081500004-09400-038220FM-12+0253SBUF V0201401N007710150019N0020001N1+02181+01701102031ADDAA106000091GF106991061001017501051001KA1240M+02751MA1999999099111MD1999999+0011REMSYN088AAXX  15004 82986 32795 61415 10218 20170 39911 40203 86050 333 10275 29069 55064 58001;EQDQ01  00002PRCP06
0190829860999992004081512004-09400-038220FM-12+0253SBUF V0200901N004110042019N0040001N1+02101+01841102121ADDAY121061AY221061GF108991081071004501999999KA1240N+01881MA1999999099201MD1999999-0031MW1201REMSYN088AAXX  15124 82986 21496 80908 10210 20184 39920 40212 72022 887// 333 20188 59003 69904;
0148829860999992004081518004-09400-038220FM-12+0253SBUF V0201401N003110450019N0200001N1+02681+01701101661ADDAA106000021GF106991031041008001041001MA1999999098771MD1999999-0011REMSYN070AAXX  15184 82986 32598 61406 10268 20170 39877 40166 83440 333 59001;
0208829860999992004081600004-09400-038220FM-12+0253SBUF V0201401N006712200019N0020001N1+02321+01651101971ADDAA106000091GA1001+999999999GF100991001001999999001001KA1240M+02811MA1999999099061MD1999999-0051REMSYN082AAXX  16004 82986 32995 01413 10232 20165 39906 40197 333 10281 29068 55063 59005;EQDQ01  00002PRCP06
0186829860999992004081612004-09400-038220FM-12+0253SBUF V0201401N006210075019N0100001N1+02381+01781101951ADDAA106000091GF106991061051008001001001KA1240N+01901MA1999999099061MD1999999-0141REMSYN076AAXX  16124 82986 32597 61412 10238 20178 39906 40195 86500 333 20190 59014;EQDQ01  00002PRCP06
0167829860999992004081618004-09400-038220FM-12+0253SBUF V0201401N005110450019N0200001N1+02641+01801101561ADDAA106000091GF107991041051008001071999MA1999999098671MD1999999-0101REMSYN070AAXX  16184 82986 32598 71410 10264 20180 39867 40156 8457/ 333 59010;EQDQ01  00002PRCP06
0198829860999992004081700004-09400-038220FM-12+0253SBUF V0201401N003119999999N0020001N1+02161+01931101831ADDAA106000091GF106991061001012501071001KA1240M+02771MA1999999098931MD1999999-0131REMSYN088AAXX  17004 82986 32695 61406 10216 20193 39893 40183 86070 333 10277 29076 55039 59013;EQDQ01  00002PRCP06
0190829860999992004081712004-09400-038220FM-12+0253SBUF V0201401N005110450019N0100001N1+02281+01901101931ADDAY161061AY221061GF108991041071004501071999KA1240N+02001MA1999999099021MD1999999-0041MW1151REMSYN088AAXX  17124 82986 21497 81410 10228 20190 39902 40193 71562 8477/ 333 20200 59004 69984;
0167829860999992004081718004-09400-038220FM-12+0253SBUF V0200901N001510450019N0200001N1+02841+01791101471ADDAA106000091GF106991031031008001071001MA1999999098601MD1999999-0071REMSYN070AAXX  17184 82986 32598 60903 10284 20179 39860 40147 83370 333 59007;EQDQ01  00002PRCP06
0208829860999992004081800004-09400-038220FM-12+0253SBUF V0200901N002112200019N0020001N1+02251+01941101761ADDAA106000091GA1001+999999999GF100991001001999999001001KA1240M+02851MA1999999098861MD1999999-0071REMSYN082AAXX  18004 82986 32995 00904 10225 20194 39886 40176 333 10285 29074 55041 59007;EQDQ01  00002PRCP06
0186829860999992004081812004-09400-038220FM-12+0253SBUF V0200901N005110450019N0100001N1+02341+01831101931ADDAA106000091GF106991041021008001051001KA1240N+01901MA1999999099031MD1999999+0011REMSYN076AAXX  18124 82986 32597 60910 10234 20183 39903 40193 84250 333 20190 58001;EQDQ01  00002PRCP06
0167829860999992004081818004-09400-038220FM-12+0253SBUF V0200901N001512200019N0200001N1+02981+01591101451ADDAA106000091GF104991031011008001041001MA1999999098581MD1999999-0021REMSYN070AAXX  18184 82986 32598 40903 10298 20159 39858 40145 83140 333 59002;EQDQ01  00002PRCP06
0208829860999992004081900004-09400-038220FM-12+0253SBUF V0200901N002112200019N0020001N1+02441+01901101771ADDAA106000091GA1001+999999999GF100991001001999999001001KA1240M+03011MA1999999098891MD1999999+0031REMSYN082AAXX  19004 82986 32995 00904 10244 20190 39889 40177 333 10301 29065 55095 58003;EQDQ01  00002PRCP06
0190829860999992004081912004-09400-038220FM-12+0253SBUF V0200901N001510042019N0100001N1+02231+02031102011ADDAY151061AY221061GF106991061071004501001001KA1240N+02061MA1999999099121MD1999999+0091MW1151REMSYN088AAXX  19124 82986 21497 60903 10223 20203 39912 40201 71552 86700 333 20206 58009 69914;
0171829860999992004081918004-09400-038220FM-12+0253SBUF V0200901N004610450019N0200001N1+02941+01821101581ADDAY161061AY221061GF106991041021008001031001MA1999999098721MD1999999-0311MW1021REMSYN082AAXX  19184 82986 21598 60909 10294 20182 39872 40158 70262 84230 333 59031 69921;
0198829860999992004082000004-09400-038220FM-12+0253SBUF V0201401N005110042019N0020001N1+02341+02001101931ADDAA106000091GF108991061071004501071999KA1240M+02981MA1999999099041MD1999999+0151REMSYN088AAXX  20004 82986 32495 81410 10234 20200 39904 40193 8677/ 333 10298 29074 55062 58015;EQDQ01  00002PRCP06
0190829860999992004082012004-09400-038220FM-12+0253SBUF V0200901N003610075019N0100001N1+02441+01831101961ADDAY161061AY221061GF105991051021008001001001KA1240N+02041MA1999999099071MD1999999-0051MW1021REMSYN088AAXX  20124 82986 21597 50907 10244 20183 39907 40196 70262 85200 333 20204 59005 69964;
0167829860999992004082018004-09400-038220FM-12+0253SBUF V0200901N006210075019N0200001N1+03001+01571101471ADDAA106000091GF105991051021008001001001MA1999999098621MD1999999-0101REMSYN070AAXX  20184 82986 32598 50912 10300 20157 39862 40147 85200 333 59010;EQDQ01  00002PRCP06
0208829860999992004082100004-09400-038220FM-12+0253SBUF V0201401N005112200019N0020001N1+02381+01681101761ADDAA106000091GA1001+999999999GF100991001001999999001001KA1240M+03031MA1999999098881MD1999999-0161REMSYN082AAXX  21004 82986 32995 01410 10238 20168 39888 40176 333 10303 29060 55100 59016;EQDQ01  00002PRCP06
0186829860999992004082112004-09400-038220FM-12+0253SBUF V0201401N002610450019N0100001N1+02451+01861101801ADDAA106000091GF107991031041008001051001KA1240N+01981MA1999999098921MD1999999-0151REMSYN076AAXX  21124 82986 32597 71405 10245 20186 39892 40180 83450 333 20198 59015;EQDQ01  00002PRCP06
0167829860999992004082118004-09400-038220FM-12+0253SBUF V0201401N004110450019N0200001N1+02841+01961101431ADDAA106000091GF106991031021008001061011MA1999999098561MD1999999-0061REMSYN070AAXX  21184 82986 32598 61408 10284 20196 39856 40143 83261 333 59006;EQDQ01  00002PRCP06
0198829860999992004082200004-09400-038220FM-12+0253SBUF V0201401N004112200019N0020001N1+02261+01991101671ADDAA106000091GF104991041001012501021001KA1240M+02891MA1999999098791MD1999999-0091REMSYN088AAXX  22004 82986 32695 41408 10226 20199 39879 40167 84020 333 10289 29075 55062 59009;EQDQ01  00002PRCP06
0190829860999992004082212004-09400-038220FM-12+0253SBUF V0201801N003610042019N0100001N1+02261+02051101861ADDAY161061AY251061GF108991081071004501999999KA1240N+02041MA1999999098961MD1999999+0041MW1211REMSYN088AAXX  22124 82986 21497 81807 10226 20205 39896 40186 72165 887// 333 20204 58004 60034;
0171829860999992004082218004-09400-038220FM-12+0253SBUF V0201401N005110450019N0200001N1+02721+01981101461ADDAY161061AY221061GF105991031021008001031001MA1999999098591MD1999999+0031MW1011REMSYN082AAXX  22184 82986 21598 51410 10272 20198 39859 40146 70162 83230 333 58003 69961;
0208829860999992004082300004-09400-038220FM-12+0253SBUF V0201401N004112200019N0020001N1+02341+01871101691ADDAA106000091GA1001+999999999GF100991001001999999001001KA1240M+02811MA1999999098801MD1999999+0011REMSYN082AAXX  23004 82986 32995 01408 10234 20187 39880 40169 333 10281 29076 55043 58001;EQDQ01  00002PRCP06
0162829860999992004082312004-09400-038220FM-12+0253SBUF V0200901N004110075019N0100001N1+02361+01951101851ADDGF105991051041008001001001KA1240N+01901MA1999999098971MD1999999+0011REMSYN082AAXX  23124 82986 22597 50908 10236 20195 39897 40185 85400 333 20190 58001 69964;
0167829860999992004082318004-09400-038220FM-12+0253SBUF V0200901N002612200019N0200001N1+02941+01911101361ADDAA106000091GF104991041041008001001001MA1999999098501MD1999999-0091REMSYN070AAXX  23184 82986 32598 40905 10294 20191 39850 40136 84400 333 59009;EQDQ01  00002PRCP06
0208829860999992004082400004-09400-038220FM-12+0253SBUF V0200901N002612200019N0020001N1+02371+01991101681ADDAA106000091GA1001+999999999GF100991001001999999001001KA1240M+02971MA1999999098801MD1999999+0001REMSYN082AAXX  24004 82986 32995 00905 10237 20199 39880 40168 333 10297 29073 55089 58000;EQDQ01  00002PRCP06
0196829860999992004082412004-09400-038220FM-12+0253SBUF V0201401N002112200019N0200001N1+02371+01871101711ADDAA106000091GA1001+999999999GF100991001001999999001001KA1240N+01961MA1999999098811MD1999999-0141REMSYN070AAXX  24124 82986 32998 01404 10237 20187 39881 40171 333 20196 59014;EQDQ01  00002PRCP06
0167829860999992004082418004-09400-038220FM-12+0253SBUF V0201401N001512200019N0200001N1+03181+01691101151ADDAA106000091GF102991021011008001001001MA1999999098311MD1999999-0191REMSYN070AAXX  24184 82986 32598 21403 10318 20169 39831 40115 82100 333 59019;EQDQ01  00002PRCP06
0208829860999992004082500004-09400-038220FM-12+0253SBUF V0200901N004612200019N0020001N1+02591+01901101451ADDAA106000091GA1001+999999999GF100991001001999999001001KA1240M+03181MA1999999098591MD1999999-0211REMSYN082AAXX  25004 82986 32995 00909 10259 20190 39859 40145 333 10318 29062 55097 59021;EQDQ01  00002PRCP06
0186829860999992004082512004-09400-038220FM-12+0253SBUF V0200901N004110075019N0100001N1+02411+01751101671ADDAA106000091GF106991061021008001001001KA1240N+01981MA1999999098801MD1999999-0011REMSYN076AAXX  25124 82986 32597 60908 10241 20175 39880 40167 86200 333 20198 59001;EQDQ01  00002PRCP06
0167829860999992004082518004-09400-038217FM-12+0252SBUF V0200901N005110075019N0200001N1+03001+01571101181ADDAA106000091GF105991051011008001001001MA1999999098331MD1999999+0021REMSYN070AAXX  25184 82986 32598 50910 10300 20157 39833 40118 85100 333 58002;EQDQ01  00002PRCP06
0208829860999992004082600004-09400-038217FM-12+0252SBUF V0200901N004112200019N0020001N1+02401+01821101631ADDAA106000091GA1001+999999999GF100991001001999999001001KA1240M+03091MA1999999098751MD1999999+0161REMSYN082AAXX  26004 82986 32995 00908 10240 20182 39875 40163 333 10309 29062 55104 58016;EQDQ01  00002PRCP06
0186829860999992004082612004-09400-038217FM-12+0252SBUF V0201401N003110075019N0100001N1+02391+01731101721ADDAA106000091GF106991061021008001001001KA1240N+02061MA1999999098841MD1999999+0041REMSYN076AAXX  26124 82986 32597 61406 10239 20173 39884 40172 86200 333 20206 58004;EQDQ01  00002PRCP06
0167829860999992004082618004-09400-038217FM-12+0252SBUF V0200901N004612200019N0200001N1+03081+01601101141ADDAA106000091GF104991041011008001001001MA1999999098301MD1999999-0031REMSYN070AAXX  26184 82986 32598 40909 10308 20160 39830 40114 84100 333 59003;EQDQ01  00002PRCP06
0208829860999992004082700004-09400-038217FM-12+0252SBUF V0201401N005112200019N0020001N1+02401+01931101511ADDAA106000091GA1001+999999999GF100991001001999999001001KA1240M+03081MA1999999098641MD1999999-0111REMSYN082AAXX  27004 82986 32995 01410 10240 20193 39864 40151 333 10308 29064 55105 59011;EQDQ01  00002PRCP06
0186829860999992004082712004-09400-038217FM-12+0252SBUF V0201401N003610075019N0100001N1+02451+01901101671ADDAA106000091GF106991061051008001001001KA1240N+02151MA1999999098791MD1999999-0051REMSYN076AAXX  27124 82986 32597 61407 10245 20190 39879 40167 86500 333 20215 59005;EQDQ01  00002PRCP06
0167829860999992004082718004-09400-038217FM-12+0252SBUF V0201401N005112200019N0200001N1+03101+01581101131ADDAA106000091GF103991031011008001001001MA1999999098301MD1999999+0001REMSYN070AAXX  27184 82986 32598 31410 10310 20158 39830 40113 83100 333 58000;EQDQ01  00002PRCP06
0198829860999992004082800004-09400-038217FM-12+0252SBUF V0201401N006710075019N0020001N1+02501+01941101511ADDAA106000091GF106991061041008001001999KA1240M+03131MA1999999098651MD1999999+0011REMSYN088AAXX  28004 82986 32595 61413 10250 20194 39865 40151 8640/ 333 10313 29064 55092 58001;EQDQ01  00002PRCP06
0186829860999992004082812004-09400-038217FM-12+0252SBUF V0200901N003610075019N0100001N1+02501+01891101691ADDAA106000091GF106991051021008001061001KA1240N+02021MA1999999098821MD1999999+0031REMSYN076AAXX  28124 82986 32597 60907 10250 20189 39882 40169 85260 333 20202 58003;EQDQ01  00002PRCP06
0167829860999992004082818004-09400-038220FM-12+0253SBUF V0201401N003612200019N0200001N1+03121+01601101081ADDAA106000091GF101991011001012501081001MA1999999098241MD1999999-0061REMSYN070AAXX  28184 82986 32698 11407 10312 20160 39824 40108 81080 333 59006;EQDQ01  00002PRCP06
0208829860999992004082900004-09400-038220FM-12+0253SBUF V0201401N006212200019N0020001N1+02581+01921101261ADDAA106000091GA1001+999999999GF100991001001999999001001KA1240M+03151MA1999999098411MD1999999-0241REMSYN082AAXX  29004 82986 32995 01412 10258 20192 39841 40126 333 10315 29061 55092 59024;EQDQ01  00002PRCP06
0186829860999992004082912004-09400-038220FM-12+0253SBUF V0200501N001010075019N0200001N1+02301+01981101461ADDAA106000091GF105991051051008001001001KA1240N+02101MA1999999098591MD1999999-0231REMSYN076AAXX  29124 82986 32598 50502 10230 20198 39859 40146 85500 333 20210 59023;EQDQ01  00002PRCP06
0167829860999992004082918004-09400-038220FM-12+0253SBUF V0203601N001012200019N0200001N1+03351+01581100861ADDAA106000091GF103991031021012501001061MA1999999098051MD1999999-0191REMSYN070AAXX  29184 82986 32698 33602 10335 20158 39805 40086 83206 333 59019;EQDQ01  00002PRCP06
0208829860999992004083000004-09400-038220FM-12+0253SBUF V0200901N001512200019N0020001N1+02781+01701101231ADDAA106000091GA1001+999999999GF100991001001999999001001KA1240M+03441MA1999999098381MD1999999-0031REMSYN082AAXX  30004 82986 32995 00903 10278 20170 39838 40123 333 10344 29055 55084 59003;EQDQ01  00002PRCP06
0186829860999992004083012004-09400-038217FM-12+0252SBUF V0201401N001510450019N0200001N1+02461+01991101551ADDAA106000091GF106991041051008001021001KA1240N+02201MA1999999098701MD1999999+0111REMSYN076AAXX  30124 82986 32598 61403 10246 20199 39870 40155 84520 333 20220 58011;EQDQ01  00002PRCP06
0167829860999992004083018004-09400-038217FM-12+0252SBUF V0200901N002112200019N0200001N1+03221+01731101041ADDAA106000091GF103991021001012501041011MA1999999098211MD1999999+0161REMSYN070AAXX  30184 82986 32698 30904 10322 20173 39821 40104 82041 333 58016;EQDQ01  00002PRCP06
0208829860999992004083100004-09400-038217FM-12+0252SBUF V0201401N006712200019N0020001N1+02501+01801101511ADDAA106000091GA1001+999999999GF100991001001999999001001KA1240M+03241MA1999999098651MD1999999+0271REMSYN082AAXX  31004 82986 32995 01413 10250 20180 39865 40151 333 10324 29062 55078 58027;EQDQ01  00002PRCP06
0186829860999992004083112004-09400-038217FM-12+0252SBUF V0201401N003110075019N0100001N1+02471+01921101721ADDAA106000091GF106991061041008001001001KA1240N+02061MA1999999098851MD1999999+0151REMSYN076AAXX  31124 82986 32597 61406 10247 20192 39885 40172 86400 333 20206 58015;EQDQ01  00002PRCP06
0167829860999992004083118004-09400-038217FM-12+0252SBUF V0201401N005710075019N0200001N1+03061+01701101321ADDAA106000091GF105991051041008001001001MA1999999098471MD1999999+0261REMSYN070AAXX  31184 82986 32598 51411 10306 20170 39847 40132 85400 333 58026;EQDQ01  00002PRCP06
0198829860999992004090100004-09400-038217FM-12+0252SBUF V0200901N005112200019N0020001N1+02361+01641101721ADDAA106000091GF102991021001017501041001KA1240M+03091MA1999999098841MD1999999+0191REMSYN088AAXX  01004 82986 32795 20910 10236 20164 39884 40172 82040 333 10309 29061 55075 58019;EQDQ01  00002PRCP06
0186829860999992004090112004-09400-038217FM-12+0252SBUF V0200901N005110450019N0100001N1+02531+01861101951ADDAA106000091GF105991041021008001031001KA1240N+01941MA1999999099071MD1999999+0221REMSYN076AAXX  01124 82986 32597 50910 10253 20186 39907 40195 84230 333 20194 58022;EQDQ01  00002PRCP06
0167829860999992004090118004-09400-038217FM-12+0252SBUF V0201401N003112200019N0200001N1+03121+01441101411ADDAA106000091GF105991031021008001001011MA1999999098561MD1999999+0091REMSYN070AAXX  01184 82986 32598 51406 10312 20144 39856 40141 83201 333 58009;EQDQ01  00002PRCP06
0198829860999992004090200004-09400-038217FM-12+0252SBUF V0201401N005112200019N0020001N1+02361+02011101891ADDAA106000091GF102991011041008001001051KA1240M+03181MA1999999099011MD1999999+0171REMSYN088AAXX  02004 82986 32595 21410 10236 20201 39901 40189 81405 333 10318 29066 55088 58017;EQDQ01  00002PRCP06
0190829860999992004090212004-09400-038217FM-12+0252SBUF V0201401N006210042019N0100001N1+02461+01831101871ADDAY121061AY221061GF108991061021004501081999KA1240N+02141MA1999999098991MD1999999+0081MW1211REMSYN088AAXX  02124 82986 21497 81412 10246 20183 39899 40187 72122 8628/ 333 20214 58008 69914;
0148829860999992004090218004-09400-038217FM-12+0252SBUF V0201401N008212200019N0200001N1+03161+01421101451ADDAA106000021GF103991021011008001031001MA1999999098601MD1999999+0041REMSYN070AAXX  02184 82986 32598 31416 10316 20142 39860 40145 82130 333 58004;
0208829860999992004090300004-09400-038217FM-12+0252SBUF V0201401N005112200019N0020001N1+02341+01811101841ADDAA106000091GA1001+999999999GF100991001001999999001001KA1240M+03111MA1999999098961MD1999999-0051REMSYN082AAXX  03004 82986 32995 01410 10234 20181 39896 40184 333 10311 29062 55061 59005;EQDQ01  00002PRCP06
0214829860999992004090312004-09400-038217FM-12+0252SBUF V0201401N005112200019N0100001N1+02501+01621101851ADDAA106000091AY141061AY211061GF103991031011008001001001KA1240N+02081MA1999999098971MD1999999-0021MW1051REMSYN082AAXX  03124 82986 31597 31410 10250 20162 39897 40185 70541 83100 333 20208 59002;EQDQ01  00002PRCP06
0167829860999992004090318004-09400-038217FM-12+0252SBUF V0200901N006210450019N0200001N1+02881+01531101421ADDAA106000091GF106991041051008001041001MA1999999098561MD1999999-0041REMSYN070AAXX  03184 82986 32598 60912 10288 20153 39856 40142 84540 333 59004;EQDQ01  00002PRCP06
0208829860999992004090400004-09400-038217FM-12+0252SBUF V0200901N005712200019N0020001N1+02461+01521101671ADDAA106000091GA1001+999999999GF100991001001999999001001KA1240M+02951MA1999999098801MD1999999-0161REMSYN082AAXX  04004 82986 32995 00911 10246 20152 39880 40167 333 10295 29055 55061 59016;EQDQ01  00002PRCP06
0186829860999992004090412004-09400-038217FM-12+0252SBUF V0201401N003610075019N0100001N1+02441+01811101661ADDAA106000091GF105991051041008001001001KA1240N+01881MA1999999098791MD1999999-0181REMSYN076AAXX  04124 82986 32597 51407 10244 20181 39879 40166 85400 333 20188 59018;EQDQ01  00002PRCP06
0208829860999992004090500004-09400-038217FM-12+0252SBUF V0201401N008212200019N0020001N1+02411+01751101511ADDAA106000091GA1001+999999999GF100991001001999999001001KA1240M+03171MA1999999098641MD1999999-0161REMSYN082AAXX  05004 82986 32995 01416 10241 20175 39864 40151 333 10317 29060 55087 59016;EQDQ01  00002PRCP06
0186829860999992004090512004-09400-038217FM-12+0252SBUF V0201401N004610450019N0100001N1+02441+01881101651ADDAA106000091GF106991031021008001031011KA1240N+02021MA1999999098771MD1999999-0021REMSYN076AAXX  05124 82986 32597 61409 10244 20188 39877 40165 83231 333 20202 59002;EQDQ01  00002PRCP06
0167829860999992004090518004-09400-038217FM-12+0252SBUF V0201401N001512200019N0200001N1+03051+01371101081ADDAA106000091GF104991021011008001031011MA1999999098251MD1999999-0081REMSYN070AAXX  05184 82986 32598 41403 10305 20137 39825 40108 82131 333 59008;EQDQ01  00002PRCP06
0186829860999992004090612004-09400-038217FM-12+0252SBUF V0201401N003110075019N0100001N1+02381+01731101591ADDAA106000091GF105991051021008001001001KA1240N+01901MA1999999098711MD1999999-0061REMSYN076AAXX  06124 82986 32597 51406 10238 20173 39871 40159 85200 333 20190 59006;EQDQ01  00002PRCP06
0153829860999992004090618004-09400-038217FM-12+0252SBUF V0201401N004619999999N0200001N1+02981+01351101061ADDAA106000091GF105991999031008001001001REMSYN069AAXX  06184 82986 32598 51409 10298 20135 40106 83300 9821 333 59004;EQDQ01+000032SCOTLCQ02  00002PRCP06
0208829860999992004090700004-09400-038217FM-12+0252SBUF V0201401N005112200019N0020001N1+02341+01621101421ADDAA106000091GA1001+999999999GF100991001001999999001001KA1240M+03051MA1999999098541MD1999999-0111REMSYN082AAXX  07004 82986 32995 01410 10234 20162 39854 40142 333 10305 29058 55088 59011;EQDQ01  00002PRCP06
0186829860999992004090712004-09400-038217FM-12+0252SBUF V0200901N005112200019N0100001N1+02461+01731101501ADDAA106000091GF106991041021008001001011KA1240N+01861MA1999999098631MD1999999-0081REMSYN076AAXX  07124 82986 32597 60910 10246 20173 39863 40150 84201 333 20186 59008;EQDQ01  00002PRCP06
0167829860999992004090718004-09400-038217FM-12+0252SBUF V0201401N006711050019N0200001N1+03061+01301100991ADDAA106000091GF106991031011008001001081MA1999999098141MD1999999-0071REMSYN070AAXX  07184 82986 32598 61413 10306 20130 39814 40099 83108 333 59007;EQDQ01  00002PRCP06
0198829860999992004090800004-09400-038217FM-12+0252SBUF V0201401N005712200019N0020001N1+02401+01751101371ADDAA106000091GF102991021041008001001001KA1240M+03151MA1999999098511MD1999999-0031REMSYN088AAXX  08004 82986 32595 21411 10240 20175 39851 40137 82400 333 10315 29058 55100 59003;EQDQ01  00002PRCP06
0214829860999992004090812004-09400-038217FM-12+0252SBUF V0201401N005710042019N0040001N1+02421+01771101471ADDAA106000091AY121061AY221061GF108991051071004501071999KA1240N+02021MA1999999098601MD1999999-0031MW1151REMSYN082AAXX  08124 82986 31496 81411 10242 20177 39860 40147 71522 8577/ 333 20202 59003;EQDQ01  00002PRCP06
0171829860999992004090818004-09400-038217FM-12+0252SBUF V0201401N005110450019N0100001N1+02701+01941101091ADDAY161061AY221061GF106991041071004501041999MA1999999098231MD1999999+0091MW1151REMSYN082AAXX  08184 82986 21497 61410 10270 20194 39823 40109 71562 8474/ 333 58009 69931;
0190829860999992004090912004-09400-038217FM-12+0252SBUF V0200901N004110042019N0040001N1+02241+02091101561ADDAY161061AY261061GF107991051071004501081001KA1240N+01981MA1999999098661MD1999999+0061MW1201REMSYN088AAXX  09124 82986 21496 70908 10224 20209 39866 40156 72066 85780 333 20198 58006 60034;
0143829860999992004090918004-09400-038217FM-12+0252SBUF V0201401N005110450019N0200001N1+02941+01591101091ADDGF106991041021008001041011MA1999999098241MD1999999+0011REMSYN076AAXX  09184 82986 21598 61410 10294 20159 39824 40109 84241 333 58001 69921;
0208829860999992004091000004-09400-038217FM-12+0252SBUF V0201401N005112200019N0020001N1+02321+01811101581ADDAA106000091GA1001+999999999GF100991001001999999001001KA1240M+03011MA1999999098691MD1999999+0091REMSYN082AAXX  10004 82986 32995 01410 10232 20181 39869 40158 333 10301 29070 55057 58009;EQDQ01  00002PRCP06
0162829860999992004091012004-09400-038217FM-12+0252SBUF V0200901N005710042019N0100001N1+02461+01891101701ADDGF108991051071004501071999KA1240N+02021MA1999999098821MD1999999+0161REMSYN082AAXX  10124 82986 22497 80911 10246 20189 39882 40170 8577/ 333 20202 58016 69924;
0167829860999992004091018004-09400-038217FM-12+0252SBUF V0200901N005110450019N0200001N1+02721+01931101271ADDAA106000091GF106991031021008001071011MA1999999098371MD1999999+0131REMSYN070AAXX  10184 82986 32598 60910 10272 20193 39837 40127 83271 333 58013;EQDQ01  00002PRCP06
0198829860999992004091100004-09400-038217FM-12+0252SBUF V0201401N005110150019N0020001N1+02321+01811101491ADDAA106000091GF105991051001017501051001KA1240M+02951MA1999999098611MD1999999-0081REMSYN088AAXX  11004 82986 32795 51410 10232 20181 39861 40149 85050 333 10295 29071 55045 59008;EQDQ01  00002PRCP06
0186829860999992004091112004-09400-038217FM-12+0252SBUF V0201401N005110450019N0100001N1+02411+01801101651ADDAA106000091GF107991041071004501071999KA1240N+01961MA1999999098771MD1999999-0051REMSYN076AAXX  11124 82986 32497 71410 10241 20180 39877 40165 8477/ 333 20196 59005;EQDQ01  00002PRCP06
0167829860999992004091118004-09400-038217FM-12+0252SBUF V0201401N005110450019N0100001N1+02861+01681101201ADDAA106000091GF106991031051004501071001MA1999999098341MD1999999-0031REMSYN070AAXX  11184 82986 32497 61410 10286 20168 39834 40120 83570 333 59003;EQDQ01  00002PRCP06
0208829860999992004091200004-09400-038217FM-12+0252SBUF V0201401N003112200019N0020001N1+02391+01781101601ADDAA106000091GA1001+999999999GF100991001001999999001001KA1240M+02931MA1999999098721MD1999999+0111REMSYN082AAXX  12004 82986 32995 01406 10239 20178 39872 40160 333 10293 29064 55040 58011;EQDQ01  00002PRCP06
0186829860999992004091212004-09400-038220FM-12+0253SBUF V0201401N003110450019N0100001N1+02421+01771101841ADDAA106000091GF106991031021008001051011KA1240N+01981MA1999999098961MD1999999+0191REMSYN076AAXX  12124 82986 32597 61406 10242 20177 39896 40184 83251 333 20198 58019;EQDQ01  00002PRCP06
0167829860999992004091218004-09400-038217FM-12+0252SBUF V0201401N004610450019N0200001N1+03081+01471101361ADDAA106000091GF105991031021008001051061MA1999999098511MD1999999-0261REMSYN070AAXX  12184 82986 32598 51409 10308 20147 39851 40136 83256 333 59026;EQDQ01  00002PRCP06
0198829860999992004091300004-09400-038217FM-12+0252SBUF V0201401N006212200019N0020001N1+02361+01801101861ADDAA106000091GF103991031041008001001001KA1240M+03121MA1999999098981MD1999999+0261REMSYN088AAXX  13004 82986 32595 31412 10236 20180 39898 40186 83400 333 10312 29062 55086 58026;EQDQ01  00002PRCP06
0186829860999992004091312004-09400-038217FM-12+0252SBUF V0201401N003110450019N0100001N1+02401+01751102041ADDAA106000091GF106991031021008001061021KA1240N+01641MA1999999099151MD1999999+0191REMSYN076AAXX  13124 82986 32597 61406 10240 20175 39915 40204 83262 333 20164 58019;EQDQ01  00002PRCP06
0167829860999992004091318004-09400-038217FM-12+0252SBUF V0201401N006710450019N0200001N1+02961+01461101461ADDAA106000091GF106991041021008001061021MA1999999098601MD1999999+0091REMSYN070AAXX  13184 82986 32598 61413 10296 20146 39860 40146 84262 333 58009;EQDQ01  00002PRCP06
0208829860999992004091400004-09400-038217FM-12+0252SBUF V0201401N005112200019N0020001N1+02361+01661101801ADDAA106000091GA1001+999999999GF100991001001999999001001KA1240M+03081MA1999999098921MD1999999-0061REMSYN082AAXX  14004 82986 32995 01410 10236 20166 39892 40180 333 10308 29059 55083 59006;EQDQ01  00002PRCP06
0186829860999992004091412004-09400-038217FM-12+0252SBUF V0200901N004110450019N0100001N1+02501+01801101901ADDAA106000091GF106991041051008001051001KA1240N+01941MA1999999099021MD1999999-0121REMSYN076AAXX  14124 82986 32597 60908 10250 20180 39902 40190 84550 333 20194 59012;EQDQ01  00002PRCP06
0167829860999992004091418004-09400-038217FM-12+0252SBUF V0201401N005710450019N0200001N1+03101+01701101391ADDAA106000091GF105991031021008001031001MA1999999098541MD1999999-0061REMSYN070AAXX  14184 82986 32598 51411 10310 20170 39854 40139 83230 333 59006;EQDQ01  00002PRCP06
0198829860999992004091500004-09400-038217FM-12+0252SBUF V0201401N003112200019N0020001N1+02381+01911101831ADDAA106000091GF103991031041008001001001KA1240M+03151MA1999999098951MD1999999+0031REMSYN088AAXX  15004 82986 32595 31406 10238 20191 39895 40183 83400 333 10315 29064 55080 58003;EQDQ01  00002PRCP06
0186829860999992004091512004-09400-038217FM-12+0252SBUF V0200901N008210075019N0200001N1+02551+01711101921ADDAA106000091GF105991051021008001001001KA1240N+02081MA1999999099041MD1999999+0021REMSYN076AAXX  15124 82986 32598 50916 10255 20171 39904 40192 85200 333 20208 58002;EQDQ01  00002PRCP06
0167829860999992004091518004-09400-038217FM-12+0252SBUF V0201401N005712200019N0200001N1+03161+01471101381ADDAA106000091GF103991031011008001001001MA1999999098541MD1999999+0001REMSYN070AAXX  15184 82986 32598 31411 10316 20147 39854 40138 83100 333 58000;EQDQ01  00002PRCP06
0208829860999992004091600004-09400-038217FM-12+0252SBUF V0200901N003112200019N0020001N1+02421+01651101661ADDAA106000091GA1001+999999999GF100991001001999999001001KA1240M+03241MA1999999098791MD1999999-0161REMSYN082AAXX  16004 82986 32995 00906 10242 20165 39879 40166 333 10324 29055 55103 59016;EQDQ01  00002PRCP06
0186829860999992004091612004-09400-038217FM-12+0252SBUF V0201401N005712200019N0200001N1+02501+01641101691ADDAA106000091GF103991031011008001031001KA1240N+01901MA1999999098821MD1999999-0221REMSYN076AAXX  16124 82986 32598 31411 10250 20164 39882 40169 83130 333 20190 59022;EQDQ01  00002PRCP06
0167829860999992004091618004-09400-038217FM-12+0252SBUF V0201401N005112200019N0200001N1+03151+01411101161ADDAA106000091GF102991021011008001001001MA1999999098311MD1999999-0121REMSYN070AAXX  16184 82986 32598 21410 10315 20141 39831 40116 82100 333 59012;EQDQ01  00002PRCP06
0208829860999992004091700004-09400-038217FM-12+0252SBUF V0201401N006212200019N0020001N1+02501+01321101521ADDAA106000091GA1001+999999999GF100991001001999999001001KA1240M+03191MA1999999098661MD1999999-0131REMSYN082AAXX  17004 82986 32995 01412 10250 20132 39866 40152 333 10319 29048 55103 59013;EQDQ01  00002PRCP06
0186829860999992004091712004-09400-038217FM-12+0252SBUF V0201401N005110450019N0100001N1+02601+01891101831ADDAA106000091GF106991041041004501031001KA1240N+02121MA1999999098961MD1999999+0141REMSYN076AAXX  17124 82986 32497 61410 10260 20189 39896 40183 84430 333 20212 58014;EQDQ01  00002PRCP06
0167829860999992004091718004-09400-038217FM-12+0252SBUF V0201401N003112200019N0200001N1+03211+01421101231ADDAA106000091GF103991021001012501041021MA1999999098401MD1999999+0091REMSYN070AAXX  17184 82986 32698 31406 10321 20142 39840 40123 82042 333 58009;EQDQ01  00002PRCP06
0208829860999992004091800004-09400-038217FM-12+0252SBUF V0201401N006712200019N0020001N1+02471+01811101641ADDAA106000091GA1001+999999999GF100991001001999999001001KA1240M+03221MA1999999098781MD1999999+0121REMSYN082AAXX  18004 82986 32995 01413 10247 20181 39878 40164 333 10322 29058 55087 58012;EQDQ01  00002PRCP06
0167829860999992004091818004-09400-038217FM-12+0252SBUF V0201401N007212200019N0200001N1+03061+01511101271ADDAA106000091GF104991041041008001001001MA1999999098441MD1999999+0041REMSYN070AAXX  18184 82986 32598 41414 10306 20151 39844 40127 84400 333 58004;EQDQ01  00002PRCP06
0208829860999992004091900004-09400-038220FM-12+0253SBUF V0201401N004612200019N0020001N1+02451+01691101641ADDAA106000091GA1001+999999999GF100991001001999999001001KA1240M+03171MA1999999098761MD1999999-0021REMSYN082AAXX  19004 82986 32995 01409 10245 20169 39876 40164 333 10317 29056 55085 59002;EQDQ01  00002PRCP06
0186829860999992004091912004-09400-038220FM-12+0253SBUF V0201401N005110042019N0100001N1+02501+01841101701ADDAA106000091GF108991081071004501999999KA1240N+02161MA1999999098831MD1999999-0061REMSYN076AAXX  19124 82986 32497 81410 10250 20184 39883 40170 887// 333 20216 59006;EQDQ01  00002PRCP06
0167829860999992004091918004-09400-038220FM-12+0253SBUF V0201401N006210450019N0200001N1+02901+01841101221ADDAA106000091GF106991021041004501051001MA1999999098371MD1999999-0071REMSYN070AAXX  19184 82986 32498 61412 10290 20184 39837 40122 82450 333 59007;EQDQ01  00002PRCP06
0198829860999992004092000004-09400-038220FM-12+0253SBUF V0200901N006210450019N0020001N1+02441+01831101561ADDAA106000091GF106991031071004501051001KA1240M+03011MA1999999098691MD1999999-0071REMSYN088AAXX  20004 82986 32495 60912 10244 20183 39869 40156 83750 333 10301 29064 55055 59007;EQDQ01  00002PRCP06
0186829860999992004092012004-09400-038217FM-12+0252SBUF V0201401N006210042019N0100001N1+02651+01691101601ADDAA106000091GF106991051021004501081001KA1240N+02201MA1999999098741MD1999999-0091REMSYN076AAXX  20124 82986 32497 61412 10265 20169 39874 40160 85280 333 20220 59009;EQDQ01  00002PRCP06
0167829860999992004092018004-09400-038217FM-12+0252SBUF V0201401N006212200019N0200001N1+03061+01581101141ADDAA106000091GF104991031021008001041001MA1999999098311MD1999999-0061REMSYN070AAXX  20184 82986 32598 41412 10306 20158 39831 40114 83240 333 59006;EQDQ01  00002PRCP06
0208829860999992004092100004-09400-038217FM-12+0252SBUF V0201401N007212200019N0020001N1+02481+01781101581ADDAA106000091GA1001+999999999GF100991001001999999001001KA1240M+03231MA1999999098721MD1999999+0031REMSYN082AAXX  21004 82986 32995 01414 10248 20178 39872 40158 333 10323 29057 55088 58003;EQDQ01  00002PRCP06
0167829860999992004092118004-09400-038217FM-12+0252SBUF V0201401N003612200019N0200001N1+03281+01581101201ADDAA106000091GF103991031021008001001001MA1999999098371MD1999999+0061REMSYN070AAXX  21184 82986 32598 31407 10328 20158 39837 40120 83200 333 58006;EQDQ01  00002PRCP06
0198829860999992004092200004-09400-038217FM-12+0252SBUF V0200901N006710021019N0020001N1+02341+02001101711ADDAA106000091GF106991061071002501001001KA1240M+03291MA1999999098841MD1999999+0121REMSYN088AAXX  22004 82986 32395 60913 10234 20200 39884 40171 86700 333 10329 29066 55090 58012;EQDQ01  00002PRCP06
0190829860999992004092212004-09400-038217FM-12+0252SBUF V0201401N005710450019N0040001N1+02321+02021101911ADDAY161061AY221061GF107991041071002501071999KA1240N+02061MA1999999099021MD1999999+0161MW1031REMSYN088AAXX  22124 82986 21396 71411 10232 20202 39902 40191 70362 8477/ 333 20206 58016 60044;
0171829860999992004092218004-09400-038217FM-12+0252SBUF V0201401N003610450019N0100001N1+02571+01991101591ADDAY151061AY221061GF106991031071004501071999MA1999999098701MD1999999+0331MW1031REMSYN082AAXX  22184 82986 21497 61407 10257 20199 39870 40159 70352 8377/ 333 58033 69911;
0198829860999992004092300004-09400-038217FM-12+0252SBUF V0200901N001519999999N0020001N1+02201+02011101881ADDAA106000091GF108991081071999999999999KA1240M+02731MA1999999098981MD1999999+0141REMSYN088AAXX  23004 82986 32995 80903 10220 20201 39898 40188 887// 333 10273 29083 55020 58014;EQDQ01  00002PRCP06
0162829860999992004092312004-09400-038217FM-12+0252SBUF V0201401N004610450019N0100001N1+02501+01941101881ADDGF106991031041004501051001KA1240N+02161MA1999999098991MD1999999-0031REMSYN082AAXX  23124 82986 22497 61409 10250 20194 39899 40188 83450 333 20216 59003 69914;
0167829860999992004092318004-09400-038217FM-12+0252SBUF V0201401N006710450019N0200001N1+02921+01891101401ADDAA106000091GF105991031041004501051011MA1999999098551MD1999999-0151REMSYN070AAXX  23184 82986 32498 51413 10292 20189 39855 40140 83451 333 59015;EQDQ01  00002PRCP06
0208829860999992004092400004-09400-038217FM-12+0252SBUF V0201401N003112200019N0020001N1+02281+01791101701ADDAA106000091GA1001+999999999GF100991001001999999001001KA1240M+03101MA1999999098821MD1999999-0161REMSYN082AAXX  24004 82986 32995 01406 10228 20179 39882 40170 333 10310 29068 55059 59016;EQDQ01  00002PRCP06
0186829860999992004092412004-09400-038217FM-12+0252SBUF V0201401N004610075019N0100001N1+02481+01171101791ADDAA106000091GF106991061021008001001001KA1240N+02011MA1999999098911MD1999999-0081REMSYN076AAXX  24124 82986 32597 61409 10248 20117 39891 40179 86200 333 20201 59008;EQDQ01  00002PRCP06
0167829860999992004092418004-09400-038217FM-12+0252SBUF V0201401N004610075019N0200001N1+03121+01561101201ADDAA106000091GF105991051011008001001001MA1999999098361MD1999999-0191REMSYN070AAXX  24184 82986 32598 51409 10312 20156 39836 40120 85100 333 59019;EQDQ01  00002PRCP06
0208829860999992004092500004-09400-038217FM-12+0252SBUF V0201401N005712200019N0020001N1+02401+01771101591ADDAA106000091GA1001+999999999GF100991001001999999001001KA1240M+03141MA1999999098721MD1999999-0101REMSYN082AAXX  25004 82986 32995 01411 10240 20177 39872 40159 333 10314 29059 55098 59010;EQDQ01  00002PRCP06
0186829860999992004092512004-09400-038217FM-12+0252SBUF V0201401N005110450019N0100001N1+02531+01771101651ADDAA106000091GF106991041051008001051001KA1240N+02051MA1999999098781MD1999999-0131REMSYN076AAXX  25124 82986 32597 61410 10253 20177 39878 40165 84550 333 20205 59013;EQDQ01  00002PRCP06
0167829860999992004092518004-09400-038217FM-12+0252SBUF V0201401N004112200019N0200001N1+03081+01681101151ADDAA106000091GF104991031021008001061001MA1999999098311MD1999999-0051REMSYN070AAXX  25184 82986 32598 41408 10308 20168 39831 40115 83260 333 59005;EQDQ01  00002PRCP06
0208829860999992004092600004-09400-038217FM-12+0252SBUF V0201401N005712200019N0020001N1+02401+01841101511ADDAA106000091GA1001+999999999GF100991001001999999001001KA1240M+03161MA1999999098641MD1999999-0081REMSYN082AAXX  26004 82986 32995 01411 10240 20184 39864 40151 333 10316 29062 55065 59008;EQDQ01  00002PRCP06
0190829860999992004092612004-09400-038220FM-12+0253SBUF V0200901N005110450019N0100001N1+02601+01761101761ADDAY151061AY221061GF106991041021008001031001KA1240N+02081MA1999999098891MD1999999+0111MW1021REMSYN088AAXX  26124 82986 21597 60910 10260 20176 39889 40176 70252 84230 333 20208 58011 69914;
0167829860999992004092618004-09400-038220FM-12+0253SBUF V0201401N004612200019N0200001N1+03261+01471101211ADDAA106000091GF103991021021008001031001MA1999999098381MD1999999+0071REMSYN070AAXX  26184 82986 32598 31409 10326 20147 39838 40121 82230 333 58007;EQDQ01  00002PRCP06
0208829860999992004092700004-09400-038220FM-12+0253SBUF V0201401N007212200019N0020001N1+02381+01841101691ADDAA106000091GA1001+999999999GF100991001001999999001001KA1240M+03291MA1999999098821MD1999999+0181REMSYN082AAXX  27004 82986 32995 01414 10238 20184 39882 40169 333 10329 29060 55093 58018;EQDQ01  00002PRCP06
0214829860999992004092712004-09400-038220FM-12+0253SBUF V0200901N006210075019N0100001N1+02621+01861101691ADDAA106000091AY121061AY221061GF107991051071008001051001KA1240N+02101MA1999999098821MD1999999-0071MW1151REMSYN082AAXX  27124 82986 31597 70912 10262 20186 39882 40169 71522 85750 333 20210 59007;EQDQ01  00002PRCP06
0167829860999992004092718004-09400-038217FM-12+0252SBUF V0201401N003612200019N0200001N1+03281+01801101201ADDAA106000091GF104991031021008001031001MA1999999098371MD1999999-0011REMSYN070AAXX  27184 82986 32598 41407 10328 20180 39837 40120 83230 333 59001;EQDQ01  00002PRCP06
0198829860999992004092800004-09400-038217FM-12+0252SBUF V0201401N006710075019N0020001N1+02481+02011101601ADDAA106000091GF105991051041008001001001KA1240M+03291MA1999999098741MD1999999-0081REMSYN088AAXX  28004 82986 32595 51413 10248 20201 39874 40160 85400 333 10329 29060 55076 59008;EQDQ01  00002PRCP06
0186829860999992004092812004-09400-038217FM-12+0252SBUF V0201401N006210021019N0100001N1+02501+02151101631ADDAA106000091GF108991051071002501071999KA1240N+02201MA1999999098761MD1999999-0061REMSYN076AAXX  28124 82986 32397 81412 10250 20215 39876 40163 8577/ 333 20220 59006;EQDQ01  00002PRCP06
0167829860999992004092818004-09400-038217FM-12+0252SBUF V0201401N004610450019N0200001N1+03261+01641100971ADDAA106000091GF105991031021008001031001MA1999999098161MD1999999-0211REMSYN070AAXX  28184 82986 32598 51409 10326 20164 39816 40097 83230 333 59021;EQDQ01  00002PRCP06
0198829860999992004092900004-09400-038217FM-12+0252SBUF V0201401N006710450019N0020001N1+02481+01941101371ADDAA106000091GF106991031041008001071001KA1240M+03281MA1999999098511MD1999999-0231REMSYN088AAXX  29004 82986 32595 61413 10248 20194 39851 40137 83470 333 10328 29066 55069 59023;EQDQ01  00002PRCP06
0186829860999992004092912004-09400-038217FM-12+0252SBUF V0201401N005112200019N0200001N1+02661+01871101511ADDAA106000091GF103991021041008001031001KA1240N+02181MA1999999098661MD1999999-0101REMSYN076AAXX  29124 82986 32598 31410 10266 20187 39866 40151 82430 333 20218 59010;EQDQ01  00002PRCP06
0167829860999992004092918004-09400-038217FM-12+0252SBUF V0200901N001512200019N0200001N1+03291+01491100891ADDAA106000091GF104991041011008001001001MA1999999098071MD1999999-0091REMSYN070AAXX  29184 82986 32598 40903 10329 20149 39807 40089 84100 333 59009;EQDQ01  00002PRCP06
0208829860999992004093000004-09400-038217FM-12+0252SBUF V0200901N005712200019N0020001N1+02531+01741101201ADDAA106000091GA1001+999999999GF100991001001999999001001KA1240M+03331MA1999999098361MD1999999-0151REMSYN082AAXX  30004 82986 32995 00911 10253 20174 39836 40120 333 10333 29055 55101 59015;EQDQ01  00002PRCP06
0214829860999992004093012004-09400-038217FM-12+0252SBUF V0201401N003112200019N0200001N1+02571+01751101371ADDAA106000091AY141061AY211061GF103991031011008001001001KA1240N+02031MA1999999098521MD1999999-0141MW1051REMSYN082AAXX  30124 82986 31598 31406 10257 20175 39852 40137 70541 83100 333 20203 59014;EQDQ01  00002PRCP06
0183829860999992004093018004-09400-038217FM-12+0252SBUF V0201301N005112200019N0200001N1+03311+01361100891ADDAA106000091GF104991999011008001001001MA1999999098071MD1999999+0001REMSYN070AAXX  30184 82986 32598 41310 10331 20136 39807 40089 83100 333 58000;EQDQ01+000032SCOTLCQ02  00002PRCP06
0198829860999992004100100004-09400-038217FM-12+0252SBUF V0200901N006712200019N0020001N1+02501+01841101371ADDAA106000091GF102991021041008001001001KA1240M+03391MA1999999098521MD1999999+0161REMSYN088AAXX  01004 82986 32595 20913 10250 20184 39852 40137 82400 333 10339 29057 55101 58016;EQDQ01  00002PRCP06
0186829860999992004100112004-09400-038217FM-12+0252SBUF V0201401N003610075019N0100001N1+02721+01791101551ADDAA106000091GF105991051041008001001001KA1240N+02141MA1999999098701MD1999999+0181REMSYN076AAXX  01124 82986 32597 51407 10272 20179 39870 40155 85400 333 20214 58018;EQDQ01  00002PRCP06
0198829860999992004100200004-09400-038217FM-12+0252SBUF V0201401N006712200019N0020001N1+02421+01821101451ADDAA106000091GF101991011041008001001001KA1240M+03291MA1999999098601MD1999999+0081REMSYN088AAXX  02004 82986 32595 11413 10242 20182 39860 40145 81400 333 10329 29058 55092 58008;EQDQ01  00002PRCP06
0186829860999992004100212004-09400-038217FM-12+0252SBUF V0200901N004610075019N0100001N1+02601+01891101491ADDAA106000091GF106991051021008001061001KA1240N+02221MA1999999098631MD1999999-0071REMSYN076AAXX  02124 82986 32597 60909 10260 20189 39863 40149 85260 333 20222 59007;EQDQ01  00002PRCP06
0167829860999992004100218004-09400-038217FM-12+0252SBUF V0201401N004110450019N0200001N1+03261+01471100921ADDAA106000091GF105991031021008001031001MA1999999098101MD1999999-0111REMSYN070AAXX  02184 82986 32598 51408 10326 20147 39810 40092 83230 333 59011;EQDQ01  00002PRCP06
0208829860999992004100300004-09400-038217FM-12+0252SBUF V0201401N006712200019N0020001N1+02461+01811101321ADDAA106000091GA1001+999999999GF100991001001999999001001KA1240M+03351MA1999999098471MD1999999-0231REMSYN082AAXX  03004 82986 32995 01413 10246 20181 39847 40132 333 10335 29058 55094 59023;EQDQ01  00002PRCP06
0186829860999992004100312004-09400-038217FM-12+0252SBUF V0201401N005110450019N0100001N1+02651+01801101471ADDAA106000091GF106991031041008001051001KA1240N+02181MA1999999098621MD1999999-0011REMSYN076AAXX  03124 82986 32597 61410 10265 20180 39862 40147 83450 333 20218 59001;EQDQ01  00002PRCP06
0167829860999992004100318004-09400-038220FM-12+0253SBUF V0201401N003110450019N0200001N1+03181+01531100931ADDAA106000091GF106991041041008001041001MA1999999098111MD1999999+0011REMSYN070AAXX  03184 82986 32598 61406 10318 20153 39811 40093 84440 333 58001;EQDQ01  00002PRCP06
0208829860999992004100400004-09400-038220FM-12+0253SBUF V0201401N005712200019N0020001N1+02581+01821101201ADDAA106000091GA1001+999999999GF100991001001999999001001KA1240M+03231MA1999999098361MD1999999-0111REMSYN082AAXX  04004 82986 32995 01411 10258 20182 39836 40120 333 10323 29056 55071 59011;EQDQ01  00002PRCP06
0186829860999992004100412004-09400-038217FM-12+0252SBUF V0201401N004110450019N0200001N1+02601+01891101411ADDAA106000091GF106991041021008001031001KA1240N+02101MA1999999098561MD1999999-0061REMSYN076AAXX  04124 82986 32598 61408 10260 20189 39856 40141 84230 333 20210 59006;EQDQ01  00002PRCP06
0167829860999992004100418004-09400-038217FM-12+0252SBUF V0200901N005112200019N0200001N1+03391+01621100871ADDAA106000091GF103991021011008001031001MA1999999098061MD1999999-0051REMSYN070AAXX  04184 82986 32598 30910 10339 20162 39806 40087 82130 333 59005;EQDQ01  00002PRCP06
0208829860999992004100500004-09400-038217FM-12+0252SBUF V0201401N005712200019N0020001N1+02681+01841101241ADDAA106000091GA1001+999999999GF100991001001999999001001KA1240M+03381MA1999999098401MD1999999+0041REMSYN082AAXX  05004 82986 32995 01411 10268 20184 39840 40124 333 10338 29055 55105 58004;EQDQ01  00002PRCP06
0186829860999992004100512004-09400-038217FM-12+0252SBUF V0201401N006210450019N0200001N1+02681+01781101351ADDAA106000091GF106991041041008001031001KA1240N+02161MA1999999098521MD1999999-0041REMSYN076AAXX  05124 82986 32598 61412 10268 20178 39852 40135 84430 333 20216 59004;EQDQ01  00002PRCP06
0167829860999992004100518004-09400-038217FM-12+0252SBUF V0200901N004112200019N0200001N1+03261+01561100921ADDAA106000091GF103991021011008001001051MA1999999098111MD1999999+0051REMSYN070AAXX  05184 82986 32598 30908 10326 20156 39811 40092 82105 333 58005;EQDQ01  00002PRCP06
0208829860999992004100600004-09400-038217FM-12+0252SBUF V0201401N006712200019N0020001N1+02661+01871101231ADDAA106000091GA1001+999999999GF100991001001999999001001KA1240M+03301MA1999999098391MD1999999-0011REMSYN082AAXX  06004 82986 32995 01413 10266 20187 39839 40123 333 10330 29054 55093 59001;EQDQ01  00002PRCP06
0214829860999992004100612004-09400-038217FM-12+0252SBUF V0203201N001512200019N0100001N1+02591+01921101361ADDAA106000091AY141061AY211061GF103991021001012501061021KA1240N+02131MA1999999098511MD1999999-0011MW1051REMSYN082AAXX  06124 82986 31697 33203 10259 20192 39851 40136 70541 82062 333 20213 59001;EQDQ01  00002PRCP06
0167829860999992004100618004-09400-038217FM-12+0252SBUF V0202301N002612200019N0200001N1+03451+01581100801ADDAA106000091GF103991021011012501001011MA1999999098001MD1999999-0111REMSYN070AAXX  06184 82986 32698 32305 10345 20158 39800 40080 82101 333 59011;EQDQ01  00002PRCP06
0208829860999992004100700004-09400-038217FM-12+0252SBUF V0201401N007712200019N0020001N1+02781+02061101071ADDAA106000091GA1001+999999999GF100991001001999999001001KA1240M+03481MA1999999098241MD1999999-0151REMSYN082AAXX  07004 82986 32995 01415 10278 20206 39824 40107 333 10348 29058 55106 59015;EQDQ01  00002PRCP06
0214829860999992004100712004-09400-038217FM-12+0252SBUF V0203201N001512200019N0100001N1+02711+01861101381ADDAA106000091AY141061AY211061GF103991031001012501061001KA1240N+02211MA1999999098551MD1999999+0041MW1051REMSYN082AAXX  07124 82986 31697 33203 10271 20186 39855 40138 70541 83060 333 20221 58004;EQDQ01  00002PRCP06
0167829860999992004100718004-09400-038217FM-12+0252SBUF V0202301N002112200019N0200001N1+03501+01681100761ADDAA106000091GF103991021011008001001021MA1999999097961MD1999999-0041REMSYN070AAXX  07184 82986 32598 32304 10350 20168 39796 40076 82102 333 59004;EQDQ01  00002PRCP06
0214829860999992004100800004-09400-038217FM-12+0252SBUF V0201401N005110012019N0020001N1+02881+01971101091ADDAA106000091GA1091+999999999GF109991091999999999999999KA1240M+03501MA1999999099272MD1999999+0031REMSYN088AAXX  08004 82986 32995 91410 10288 20197 39927 40109 80350 333 10350 29052 55107 58003;EQDQ01  00002PRCP06
0186829860999992004100812004-09400-038217FM-12+0252SBUF V0203201N001512200019N0200001N1+02721+01881101341ADDAA106000091GF102991011001017501031071KA1240N+02341MA1999999098521MD1999999-0031REMSYN076AAXX  08124 82986 32798 23203 10272 20188 39852 40134 81037 333 20234 59003;EQDQ01  00002PRCP06
0167829860999992004100818004-09400-038217FM-12+0252SBUF V0201401N003111050019N0200001N1+03411+02891100851ADDAA106000091GF106991021021008001031031MA1999999098051MD1999999+0091REMSYN070AAXX  08184 82986 32598 61406 10341 20289 39805 40085 82233 333 58009;EQDQ01  00002PRCP06
0208829860999992004100900004-09400-038217FM-12+0252SBUF V0201401N006712200019N0020001N1+02801+02221101301ADDAA106000091GA1001+999999999GF100991001001999999001001KA1240M+03481MA1999999098471MD1999999+0201REMSYN082AAXX  09004 82986 32995 01413 10280 20222 39847 40130 333 10348 29061 55069 58020;EQDQ01  00002PRCP06
0214829860999992004100912004-09400-038217FM-12+0252SBUF V0201401N003110450019N0040001N1+02651+01901101611ADDAA106000091AY141061AY221061GF106991041021008001031061KA1240N+02301MA1999999098771MD1999999+0251MW1051REMSYN082AAXX  09124 82986 31596 61406 10265 20190 39877 40161 70542 84236 333 20230 58025;EQDQ01  00002PRCP06
0167829860999992004100918004-09400-038217FM-12+0252SBUF V0201401N005111050019N0200001N1+03281+01581101051ADDAA106000091GF106991021011008001001081MA1999999098241MD1999999+0191REMSYN070AAXX  09184 82986 32598 61410 10328 20158 39824 40105 82108 333 58019;EQDQ01  00002PRCP06
0208829860999992004101000004-09400-038217FM-12+0252SBUF V0201401N005712200019N0020001N1+02691+01991101341ADDAA106000091GA1001+999999999GF100991001001999999001001KA1240M+03371MA1999999098501MD1999999+0031REMSYN082AAXX  10004 82986 32995 01411 10269 20199 39850 40134 333 10337 29058 55079 58003;EQDQ01  00002PRCP06
0186829860999992004101012004-09400-038217FM-12+0252SBUF V0201401N005110450019N0200001N1+02761+01911101651ADDAA106000091GF106991041041008001031011KA1240N+02161MA1999999098811MD1999999+0041REMSYN076AAXX  10124 82986 32598 61410 10276 20191 39881 40165 84431 333 20216 58004;EQDQ01  00002PRCP06
0167829860999992004101018004-09400-038217FM-12+0252SBUF V0201401N003112200019N0200001N1+03401+01501101061ADDAA106000091GF104991031011008001001011MA1999999098241MD1999999+0001REMSYN070AAXX  10184 82986 32598 41406 10340 20150 39824 40106 83101 333 58000;EQDQ01  00002PRCP06
0208829860999992004101100004-09400-038217FM-12+0252SBUF V0200901N005112200019N0020001N1+02691+01891101351ADDAA106000091GA1001+999999999GF100991001001999999001001KA1240M+03421MA1999999098521MD1999999+0021REMSYN082AAXX  11004 82986 32995 00910 10269 20189 39852 40135 333 10342 29054 55107 58002;EQDQ01  00002PRCP06
0186829860999992004101112004-09400-038220FM-12+0253SBUF V0201401N005710450019N0200001N1+02771+01831101471ADDAA106000091GF105991031011008001031001KA1240N+02121MA1999999098641MD1999999-0171REMSYN076AAXX  11124 82986 32598 51411 10277 20183 39864 40147 83130 333 20212 59017;EQDQ01  00002PRCP06
0167829860999992004101118004-09400-038220FM-12+0253SBUF V0200901N005112200019N0200001N1+03511+01261100841ADDAA106000091GF103991021011008001041001MA1999999098041MD1999999-0201REMSYN070AAXX  11184 82986 32598 30910 10351 20126 39804 40084 82140 333 59020;EQDQ01  00002PRCP06
0208829860999992004101200004-09400-038220FM-12+0253SBUF V0200901N006212200019N0020001N1+02651+01901101271ADDAA106000091GA1001+999999999GF100991001001999999001001KA1240M+03541MA1999999098441MD1999999-0081REMSYN082AAXX  12004 82986 32995 00912 10265 20190 39844 40127 333 10354 29053 55104 59008;EQDQ01  00002PRCP06
0167829860999992004101218004-09400-038217FM-12+0252SBUF V0201401N006712200019N0200001N1+03371+01561100881ADDAA106000091GF102991021011008001001001MA1999999098061MD1999999+0021REMSYN070AAXX  12184 82986 32598 21413 10337 20156 39806 40088 82100 333 58002;EQDQ01  00002PRCP06
0208829860999992004101300004-09400-038217FM-12+0252SBUF V0201401N007212200019N0020001N1+02551+01861101331ADDAA106000091GA1001+999999999GF100991001001999999001001KA1240M+03421MA1999999098481MD1999999+0041REMSYN082AAXX  13004 82986 32995 01414 10255 20186 39848 40133 333 10342 29056 55111 58004;EQDQ01  00002PRCP06
0186829860999992004101312004-09400-038217FM-12+0252SBUF V0200901N003112200019N0100001N1+02711+01631101551ADDAA106000091GF104991041011008001001001KA1240N+02021MA1999999098701MD1999999-0021REMSYN076AAXX  13124 82986 32597 40906 10271 20163 39870 40155 84100 333 20202 59002;EQDQ01  00002PRCP06
0167829860999992004101318004-09400-038217FM-12+0252SBUF V0200901N004612200019N0200001N1+03321+01051100901ADDAA106000091GF102991021011008001001001MA1999999098081MD1999999+0021REMSYN070AAXX  13184 82986 32598 20909 10332 20105 39808 40090 82100 333 58002;EQDQ01  00002PRCP06
0208829860999992004101400004-09400-038217FM-12+0252SBUF V0201401N007712200019N0020001N1+02521+01821101281ADDAA106000091GA1001+999999999GF100991001001999999001001KA1240M+03371MA1999999098441MD1999999-0041REMSYN082AAXX  14004 82986 32995 01415 10252 20182 39844 40128 333 10337 29052 55112 59004;EQDQ01  00002PRCP06
0214829860999992004101412004-09400-038217FM-12+0252SBUF V0201401N003610075019N0100001N1+02701+01911101501ADDAA106000091AY141061AY221061GF106991061021008001001001KA1240N+02201MA1999999098651MD1999999-0051MW1051REMSYN082AAXX  14124 82986 31597 61407 10270 20191 39865 40150 70542 86200 333 20220 59005;EQDQ01  00002PRCP06
0208829860999992004101500004-09400-038217FM-12+0252SBUF V0201401N006712200019N0020001N1+02661+01871101221ADDAA106000091GA1001+999999999GF100991001001999999001001KA1240M+03421MA1999999098391MD1999999-0051REMSYN082AAXX  15004 82986 32995 01413 10266 20187 39839 40122 333 10342 29055 55096 59005;EQDQ01  00002PRCP06
0214829860999992004101512004-09400-038217FM-12+0252SBUF V0200901N005712200019N0100001N1+02801+01811101471ADDAA106000091AY141061AY211061GF104991041011008001001001KA1240N+02201MA1999999098641MD1999999-0011MW1051REMSYN082AAXX  15124 82986 31597 40911 10280 20181 39864 40147 70541 84100 333 20220 59001;EQDQ01  00002PRCP06
0167829860999992004101518004-09400-038217FM-12+0252SBUF V0201401N006712200019N0200001N1+03431+01511100901ADDAA106000091GF102991021011008001001001MA1999999098091MD1999999+0021REMSYN070AAXX  15184 82986 32598 21413 10343 20151 39809 40090 82100 333 58002;EQDQ01  00002PRCP06
0208829860999992004101600004-09400-038217FM-12+0252SBUF V0201401N006712200019N0020001N1+02601+01991101361ADDAA106000091GA1001+999999999GF100991001001999999001001KA1240M+03451MA1999999098531MD1999999+0141REMSYN082AAXX  16004 82986 32995 01413 10260 20199 39853 40136 333 10345 29056 55102 58014;EQDQ01  00002PRCP06
0186829860999992004101612004-09400-038220FM-12+0253SBUF V0201401N005710450019N0200001N1+02701+01911101541ADDAA106000091GF106991041041008001031001KA1240N+02241MA1999999098691MD1999999+0051REMSYN076AAXX  16124 82986 32598 61411 10270 20191 39869 40154 84430 333 20224 58005;EQDQ01  00002PRCP06
0167829860999992004101618004-09400-038220FM-12+0253SBUF V0200901N003612200019N0200001N1+03361+01361100911ADDAA106000091GF104991041011008001001001MA1999999098101MD1999999+0011REMSYN070AAXX  16184 82986 32598 40907 10336 20136 39810 40091 84100 333 58001;EQDQ01  00002PRCP06
0208829860999992004101700004-09400-038220FM-12+0253SBUF V0200901N006712200019N0020001N1+02541+01681101361ADDAA106000091GA1001+999999999GF100991001001999999001001KA1240M+03371MA1999999098511MD1999999-0021REMSYN082AAXX  17004 82986 32995 00913 10254 20168 39851 40136 333 10337 29052 55103 59002;EQDQ01  00002PRCP06
0186829860999992004101712004-09400-038220FM-12+0253SBUF V0201401N005710450019N0100001N1+02631+01781101491ADDAA106000091GF106991041041008001031001KA1240N+02101MA1999999098641MD1999999-0051REMSYN076AAXX  17124 82986 32597 61411 10263 20178 39864 40149 84430 333 20210 59005;EQDQ01  00002PRCP06
0167829860999992004101718004-09400-038220FM-12+0253SBUF V0201401N002112200019N0200001N1+03331+01381100861ADDAA106000091GF102991021011008001001001MA1999999098051MD1999999-0051REMSYN070AAXX  17184 82986 32598 21404 10333 20138 39805 40086 82100 333 59005;EQDQ01  00002PRCP06
0208829860999992004101800004-09400-038217FM-12+0252SBUF V0201401N006212200019N0020001N1+02591+01691101141ADDAA106000091GA1001+999999999GF100991001001999999001001KA1240M+03331MA1999999098301MD1999999-0211REMSYN082AAXX  18004 82986 32995 01412 10259 20169 39830 40114 333 10333 29052 55106 59021;EQDQ01  00002PRCP06
0186829860999992004101812004-09400-038217FM-12+0252SBUF V0201401N002612200019N0100001N1+02701+01691101411ADDAA106000091GF102991021011008001001001KA1240N+02041MA1999999098571MD1999999-0071REMSYN076AAXX  18124 82986 32597 21405 10270 20169 39857 40141 82100 333 20204 59007;EQDQ01  00002PRCP06
0167829860999992004101818004-09400-038217FM-12+0252SBUF V0201801N003612200019N0200001N1+03451+01431100921ADDAA106000091GF102991021011008001001001MA1999999098101MD1999999+0051REMSYN070AAXX  18184 82986 32598 21807 10345 20143 39810 40092 82100 333 58005;EQDQ01  00002PRCP06
0208829860999992004101900004-09400-038217FM-12+0252SBUF V0201401N007712200019N0020001N1+02641+02031101271ADDAA106000091GA1001+999999999GF100991001001999999001001KA1240M+03461MA1999999098431MD1999999+0131REMSYN082AAXX  19004 82986 32995 01415 10264 20203 39843 40127 333 10346 29056 55112 58013;EQDQ01  00002PRCP06
0167829860999992004101918004-09400-038217FM-12+0252SBUF V0200901N004110075019N0200001N1+03451+01481100891ADDAA106000091GF106991061051008001001001MA1999999098091MD1999999-0011REMSYN070AAXX  19184 82986 32598 60908 10345 20148 39809 40089 86500 333 59001;EQDQ01  00002PRCP06
0208829860999992004102000004-09400-038217FM-12+0252SBUF V0201401N006212200019N0020001N1+02721+01851101231ADDAA106000091GA1001+999999999GF100991001001999999001001KA1240M+03521MA1999999098401MD1999999-0031REMSYN082AAXX  20004 82986 32995 01412 10272 20185 39840 40123 333 10352 29052 55106 59003;EQDQ01  00002PRCP06
0214829860999992004102012004-09400-038217FM-12+0252SBUF V0200501N002112200019N0100001N1+02841+01791101361ADDAA106000091AY141061AY211061GF101991011011008001001001KA1240N+02161MA1999999098541MD1999999+0021MW1051REMSYN082AAXX  20124 82986 31597 10504 10284 20179 39854 40136 70541 81100 333 20216 58002;EQDQ01  00002PRCP06
0177829860999992004102018004-09400-038217FM-12+0252SBUF V0201401N004612200019N0200001N1+03481+01361100811ADDAA106000091GA1001+999999999GF100991001001999999001001MA1999999098011MD1999999-0081REMSYN064AAXX  20184 82986 32998 01409 10348 20136 39801 40081 333 59008;EQDQ01  00002PRCP06
0208829860999992004102100004-09400-038217FM-12+0252SBUF V0201401N006712200019N0020001N1+02661+01951101131ADDAA106000091GA1001+999999999GF100991001001999999001001KA1240M+03521MA1999999098311MD1999999-0091REMSYN082AAXX  21004 82986 32995 01413 10266 20195 39831 40113 333 10352 29053 55110 59009;EQDQ01  00002PRCP06
0214829860999992004102112004-09400-038217FM-12+0252SBUF V0200901N004610075019N0100001N1+02761+01721101521ADDAA106000091AY141061AY221061GF106991051021008001001011KA1240N+02261MA1999999098681MD1999999+0141MW1051REMSYN082AAXX  21124 82986 31597 60909 10276 20172 39868 40152 70542 85201 333 20226 58014;EQDQ01  00002PRCP06
0167829860999992004102118004-09400-038217FM-12+0252SBUF V0201401N004110075019N0200001N1+03301+01501101001ADDAA106000091GF106991051011008001001011MA1999999098191MD1999999+0181REMSYN070AAXX  21184 82986 32598 61408 10330 20150 39819 40100 85101 333 58018;EQDQ01  00002PRCP06
0208829860999992004102200004-09400-038217FM-12+0252SBUF V0201401N006712200019N0020001N1+02621+01671101331ADDAA106000091GA1001+999999999GF100991001001999999001001KA1240M+03391MA1999999098501MD1999999+0191REMSYN082AAXX  22004 82986 32995 01413 10262 20167 39850 40133 333 10339 29054 55098 58019;EQDQ01  00002PRCP06
0186829860999992004102212004-09400-038217FM-12+0252SBUF V0200901N005710450019N0100001N1+02661+01821101511ADDAA106000091GF106991041041008001031011KA1240N+02141MA1999999098661MD1999999-0021REMSYN076AAXX  22124 82986 32597 60911 10266 20182 39866 40151 84431 333 20214 59002;EQDQ01  00002PRCP06
0167829860999992004102218004-09400-038217FM-12+0252SBUF V0200901N005111050019N0200001N1+03311+01411101001ADDAA106000091GF105991021011008001031021MA1999999099181MD1999999-0011REMSYN070AAXX  22184 82986 32598 50910 10331 20141 39918 40100 82132 333 59001;EQDQ01  00002PRCP06
0208829860999992004102300004-09400-038217FM-12+0252SBUF V0201401N005112200019N0020001N1+02541+01651101451ADDAA106000091GA1001+999999999GF100991001001999999001001KA1240M+03331MA1999999098601MD1999999+0101REMSYN082AAXX  23004 82986 32995 01410 10254 20165 39860 40145 333 10333 29052 55101 58010;EQDQ01  00002PRCP06
0186829860999992004102312004-09400-038217FM-12+0252SBUF V0200901N005110450019N0100001N1+02651+01831101401ADDAA106000091GF106991041021008001061001KA1240N+02141MA1999999098551MD1999999-0111REMSYN076AAXX  23124 82986 32597 60910 10265 20183 39855 40140 84260 333 20214 59011;EQDQ01  00002PRCP06
0167829860999992004102318004-09400-038217FM-12+0252SBUF V0200901N003110450019N0200001N1+03291+01441100811ADDAA106000091GF105991031011008001061001MA1999999098001MD1999999-0181REMSYN070AAXX  23184 82986 32598 50906 10329 20144 39800 40081 83160 333 59018;EQDQ01  00002PRCP06
0208829860999992004102400004-09400-038217FM-12+0252SBUF V0201401N006212200019N0020001N1+02591+01821101351ADDAA106000091GA1001+999999999GF100991001001999999001001KA1240M+03401MA1999999098501MD1999999-0101REMSYN082AAXX  24004 82986 32995 01412 10259 20182 39850 40135 333 10340 29055 55093 59010;EQDQ01  00002PRCP06
0186829860999992004102412004-09400-038217FM-12+0252SBUF V0201401N005110450019N0100001N1+02541+01831101351ADDAA106000091GF107991041041004501071001KA1240N+02141MA1999999098501MD1999999-0051REMSYN076AAXX  24124 82986 32497 71410 10254 20183 39850 40135 84470 333 20214 59005;EQDQ01  00002PRCP06
0167829860999992004102418004-09400-038217FM-12+0252SBUF V0200901N005712200019N0200001N1+03401+01401100701ADDAA106000091GF102991021011008001001001MA1999999097901MD1999999-0101REMSYN070AAXX  24184 82986 32598 20911 10340 20140 39790 40070 82100 333 59010;EQDQ01  00002PRCP06
0208829860999992004102500004-09400-038217FM-12+0252SBUF V0201401N006712200019N0020001N1+02661+01741101041ADDAA106000091GA1001+999999999GF100991001001999999001001KA1240M+03421MA1999999098201MD1999999-0301REMSYN082AAXX  25004 82986 32995 01413 10266 20174 39820 40104 333 10342 29052 55081 59030;EQDQ01  00002PRCP06
0214829860999992004102512004-09400-038217FM-12+0252SBUF V0200901N002612200019N0100001N1+02731+01711101331ADDAA106000091AY141061AY211061GF103991031011008001001001KA1240N+02121MA1999999098501MD1999999+0001MW1051REMSYN082AAXX  25124 82986 31597 30905 10273 20171 39850 40133 70541 83100 333 20212 58000;EQDQ01  00002PRCP06
0167829860999992004102518004-09400-038217FM-12+0252SBUF V0201401N001512200019N0200001N1+03551+01461100571ADDAA106000091GF102991021011008001001001MA1999999097771MD1999999-0131REMSYN070AAXX  25184 82986 32598 21403 10355 20146 39777 40057 82100 333 59013;EQDQ01  00002PRCP06
0208829860999992004102600004-09400-038217FM-12+0252SBUF V0200901N006712200019N0020001N1+02821+02001100861ADDAA106000091GA1001+999999999GF100991001001999999001001KA1240M+03581MA1999999098051MD1999999-0151REMSYN082AAXX  26004 82986 32995 00913 10282 20200 39805 40086 333 10358 29051 55114 59015;EQDQ01  00002PRCP06
0196829860999992004102612004-09400-038217FM-12+0252SBUF V0201401N003612200019N0200001N1+02871+01871101191ADDAA106000091GA1001+999999999GF100991001001999999001001KA1240N+02231MA1999999098381MD1999999-0121REMSYN070AAXX  26124 82986 32998 01407 10287 20187 39838 40119 333 20223 59012;EQDQ01  00002PRCP06
0167829860999992004102618004-09400-038217FM-12+0252SBUF V0201401N005110450019N0200001N1+03581+01791100661ADDAA106000091GF106991041021008001031001MA1999999097871MD1999999+0101REMSYN070AAXX  26184 82986 32598 61410 10358 20179 39787 40066 84230 333 58010;EQDQ01  00002PRCP06
0208829860999992004102700004-09400-038217FM-12+0252SBUF V0201401N006712200019N0020001N1+02821+01911101081ADDAA106000091GA1001+999999999GF100991001001999999001001KA1240M+03621MA1999999098271MD1999999+0221REMSYN082AAXX  27004 82986 32995 01413 10282 20191 39827 40108 333 10362 29052 55111 58022;EQDQ01  00002PRCP06
0214829860999992004102712004-09400-038217FM-12+0252SBUF V0203201N002112200019N0100001N1+02761+01861101391ADDAA106000091AY141061AY201061GF101991011001017501041001KA1240N+02261MA1999999098571MD1999999+0191MW1051REMSYN082AAXX  27124 82986 31797 13204 10276 20186 39857 40139 70540 81040 333 20226 58019;EQDQ01  00002PRCP06
0167829860999992004102718004-09400-038217FM-12+0252SBUF V0201401N003612200019N0200001N1+03581+01571100791ADDAA106000091GF102991021021008001001001MA1999999098001MD1999999+0131REMSYN070AAXX  27184 82986 32598 21407 10358 20157 39800 40079 82200 333 58013;EQDQ01  00002PRCP06
0208829860999992004102800004-09400-038217FM-12+0252SBUF V0201401N006712200019N0020001N1+02821+02071101191ADDAA106000091GA1001+999999999GF100991001001999999001001KA1240M+03571MA1999999098371MD1999999+0101REMSYN082AAXX  28004 82986 32995 01413 10282 20207 39837 40119 333 10357 29054 55107 58010;EQDQ01  00002PRCP06
0214829860999992004102812004-09400-038217FM-12+0252SBUF V0201401N002612200019N0200001N1+02881+01971101391ADDAA106000091AY141061AY201061GF102991021011008001001001KA1240N+02301MA1999999098571MD1999999+0001MW1051REMSYN082AAXX  28124 82986 31598 21405 10288 20197 39857 40139 70540 82100 333 20230 58000;EQDQ01  00002PRCP06
0167829860999992004102818004-09400-038217FM-12+0252SBUF V0201801N001512200019N0200001N1+03461+01691100881ADDAA106000091GF103991031021008001001001MA1999999098081MD1999999+0081REMSYN070AAXX  28184 82986 32598 31803 10346 20169 39808 40088 83200 333 58008;EQDQ01  00002PRCP06
0208829860999992004102900004-09400-038217FM-12+0252SBUF V0201401N006712200019N0020001N1+02821+02021101151ADDAA106000091GA1001+999999999GF100991001001999999001001KA1240M+03481MA1999999098341MD1999999-0031REMSYN082AAXX  29004 82986 32995 01413 10282 20202 39834 40115 333 10348 29054 55101 59003;EQDQ01  00002PRCP06
0186829860999992004102912004-09400-038217FM-12+0252SBUF V0201401N004112200019N0200001N1+02861+01901101411ADDAA106000091GF103991031041008001001001KA1240N+02261MA1999999098591MD1999999+0021REMSYN076AAXX  29124 82986 32598 31408 10286 20190 39859 40141 83400 333 20226 58002;EQDQ01  00002PRCP06
0167829860999992004102918004-09400-038217FM-12+0252SBUF V0201401N005712200019N0200001N1+03471+01601100911ADDAA106000091GF104991031021008001031001MA1999999098111MD1999999+0031REMSYN070AAXX  29184 82986 32598 41411 10347 20160 39811 40091 83230 333 58003;EQDQ01  00002PRCP06
0198829860999992004103000004-09400-038217FM-12+0252SBUF V0201401N006710075019N0020001N1+02621+01961101361ADDAA106000091GF105991051051008001001001KA1240M+03481MA1999999098591MD1999999+0191REMSYN088AAXX  30004 82986 32595 51413 10262 20196 39859 40136 85500 333 10348 29056 55106 58019;EQDQ01  00002PRCP06
0186829860999992004103012004-09400-038217FM-12+0252SBUF V0201401N005710075019N0100001N1+02781+01881101531ADDAA106000091GF105991051041008001001001KA1240N+02271MA1999999098691MD1999999+0101REMSYN076AAXX  30124 82986 32597 51411 10278 20188 39869 40153 85400 333 20227 58010;EQDQ01  00002PRCP06
0167829860999992004103018004-09400-038217FM-12+0252SBUF V0201401N005712200019N0200001N1+03431+01411100991ADDAA106000091GF104991041011008001001001MA1999999098181MD1999999+0071REMSYN070AAXX  30184 82986 32598 41411 10343 20141 39818 40099 84100 333 58007;EQDQ01  00002PRCP06
0198829860999992004103100004-09400-038220FM-12+0253SBUF V0201401N007712200019N0020001N1+02601+01841101411ADDAA106000091GF101991011011008001001001KA1240M+03461MA1999999098571MD1999999+0041REMSYN088AAXX  31004 82986 32595 11415 10260 20184 39857 40141 81100 333 10346 29054 55101 58004;EQDQ01  00002PRCP06
0186829860999992004103112004-09400-038220FM-12+0253SBUF V0201401N005110075019N0100001N1+02751+01841101531ADDAA106000091GF105991051041008001001001KA1240N+02231MA1999999098691MD1999999+0001REMSYN076AAXX  31124 82986 32597 51410 10275 20184 39869 40153 85400 333 20223 58000;EQDQ01  00002PRCP06
0167829860999992004103118004-09400-038220FM-12+0253SBUF V0201401N005112200019N0200001N1+03451+01331100981ADDAA106000091GF104991041011008001001001MA1999999098171MD1999999-0011REMSYN070AAXX  31184 82986 32598 41410 10345 20133 39817 40098 84100 333 59001;EQDQ01  00002PRCP06
0208829860999992004110100004-09400-038220FM-12+0253SBUF V0201401N007712200019N0020001N1+02581+01821101331ADDAA106000091GA1001+999999999GF100991001001999999001001KA1240M+03461MA1999999098491MD1999999-0081REMSYN082AAXX  01004 82986 32995 01415 10258 20182 39849 40133 333 10346 29053 55108 59008;EQDQ01  00002PRCP06
0186829860999992004110112004-09400-038220FM-12+0253SBUF V0200901N004610075019N0200001N1+02801+01811101511ADDAA106000091GF106991061021008001001001KA1240N+02261MA1999999098671MD1999999-0021REMSYN076AAXX  01124 82986 32598 60909 10280 20181 39867 40151 86200 333 20226 59002;EQDQ01  00002PRCP06
0167829860999992004110118004-09400-038220FM-12+0253SBUF V0201401N004612200019N0200001N1+03411+01351100941ADDAA106000091GF103991031021008001001001MA1999999098141MD1999999-0031REMSYN070AAXX  01184 82986 32598 31409 10341 20135 39814 40094 83200 333 59003;EQDQ01  00002PRCP06
0208829860999992004110200004-09400-038217FM-12+0252SBUF V0201401N006712200019N0020001N1+02631+01861101251ADDAA106000091GA1001+999999999GF100991001001999999001001KA1240M+03441MA1999999098651MD1999999-0081REMSYN082AAXX  02004 82986 32995 01413 10263 20186 39865 40125 333 10344 29052 55107 59008;EQDQ01  00002PRCP06
0186829860999992004110212004-09400-038217FM-12+0252SBUF V0200901N006210075019N0100001N1+02711+01781101351ADDAA106000091GF106991061021008001001001KA1240N+02201MA1999999098511MD1999999-0161REMSYN076AAXX  02124 82986 32597 60912 10271 20178 39851 40135 86200 333 20220 59016;EQDQ01  00002PRCP06
0167829860999992004110218004-09400-038217FM-12+0252SBUF V0201401N005112200019N0200001N1+03341+01351100851ADDAA106000091GF103991031011008001001001MA1999999098041MD1999999-0101REMSYN070AAXX  02184 82986 32598 31410 10334 20135 39804 40085 83100 333 59010;EQDQ01  00002PRCP06
0208829860999992004110300004-09400-038217FM-12+0252SBUF V0201401N009312200019N0020001N1+02581+01491101231ADDAA106000091GA1001+999999999GF100991001001999999001001KA1240M+03371MA1999999098391MD1999999-0021REMSYN082AAXX  03004 82986 32995 01418 10258 20149 39839 40123 333 10337 29047 55111 59002;EQDQ01  00002PRCP06
0186829860999992004110312004-09400-038217FM-12+0252SBUF V0201401N005710450019N0200001N1+02721+01821101371ADDAA106000091GF106991041041008001031001KA1240N+02101MA1999999098531MD1999999+0021REMSYN076AAXX  03124 82986 32598 61411 10272 20182 39853 40137 84430 333 20210 58002;EQDQ01  00002PRCP06
0167829860999992004110318004-09400-038217FM-12+0252SBUF V0200901N005112200019N0200001N1+03471+01291100821ADDAA106000091GF104991041011008001001001MA1999999098021MD1999999-0021REMSYN070AAXX  03184 82986 32598 40910 10347 20129 39802 40082 84100 333 59002;EQDQ01  00002PRCP06
0208829860999992004110400004-09400-038217FM-12+0252SBUF V0201401N008212200019N0020001N1+02661+01681101231ADDAA106000091GA1001+999999999GF100991001001999999001001KA1240M+03471MA1999999098401MD1999999+0011REMSYN082AAXX  04004 82986 32995 01416 10266 20168 39840 40123 333 10347 29049 55104 58001;EQDQ01  00002PRCP06
0186829860999992004110412004-09400-038217FM-12+0252SBUF V0201401N007710450019N0100001N1+02701+01911101371ADDAA106000091GF106991041021008001031001KA1240N+02201MA1999999098541MD1999999+0011REMSYN076AAXX  04124 82986 32597 61415 10270 20191 39854 40137 84230 333 20220 58001;EQDQ01  00002PRCP06
0167829860999992004110418004-09400-038217FM-12+0252SBUF V0201401N006212200019N0200001N1+03431+01251100851ADDAA106000091GF103991021011008001031001MA1999999098051MD1999999+0031REMSYN070AAXX  04184 82986 32598 31412 10343 20125 39805 40085 82130 333 58003;EQDQ01  00002PRCP06
0208829860999992004110500004-09400-038217FM-12+0252SBUF V0200901N008212200019N0020001N1+02631+01781101291ADDAA106000091GA1001+999999999GF100991001001999999001001KA1240M+03451MA1999999098451MD1999999+0051REMSYN082AAXX  05004 82986 32995 00916 10263 20178 39845 40129 333 10345 29052 55105 58005;EQDQ01  00002PRCP06
0186829860999992004110512004-09400-038217FM-12+0252SBUF V0200901N007210450019N0040001N1+02691+01921101491ADDAA106000091GF107991041041004501071001KA1240N+02211MA1999999098651MD1999999+0111REMSYN076AAXX  05124 82986 32496 70914 10269 20192 39865 40149 84470 333 20221 58011;EQDQ01  00002PRCP06
0167829860999992004110518004-09400-038217FM-12+0252SBUF V0200901N005710075019N0200001N1+03391+01531100901ADDAA106000091GF105991051021008001001001MA1999999098101MD1999999+0051REMSYN070AAXX  05184 82986 32598 50911 10339 20153 39810 40090 85200 333 58005;EQDQ01  00002PRCP06
0208829860999992004110600004-09400-038217FM-12+0252SBUF V0201401N006212200019N0020001N1+02701+01941101181ADDAA106000091GA1001+999999999GF100991001001999999001001KA1240M+03461MA1999999098351MD1999999-0101REMSYN082AAXX  06004 82986 32995 01412 10270 20194 39835 40118 333 10346 29056 55091 59010;EQDQ01  00002PRCP06
0186829860999992004110612004-09400-038217FM-12+0252SBUF V0201401N005110075019N0100001N1+02761+01911101361ADDAA106000091GF105991051021008001001001KA1240N+02261MA1999999098531MD1999999-0121REMSYN076AAXX  06124 82986 32597 51410 10276 20191 39853 40136 85200 333 20226 59012;EQDQ01  00002PRCP06
0167829860999992004110618004-09400-038217FM-12+0252SBUF V0201401N006712200019N0200001N1+03331+01651100791ADDAA106000091GF104991041011008001001001MA1999999097991MD1999999-0111REMSYN070AAXX  06184 82986 32598 41413 10333 20165 39799 40079 84100 333 59011;EQDQ01  00002PRCP06
0208829860999992004110700004-09400-038217FM-12+0252SBUF V0201401N007212200019N0020001N1+02701+01991101091ADDAA106000091GA1001+999999999GF100991001001999999001001KA1240M+03461MA1999999098271MD1999999-0081REMSYN082AAXX  07004 82986 32995 01414 10270 20199 39827 40109 333 10346 29057 55108 59008;EQDQ01  00002PRCP06
0186829860999992004110712004-09400-038217FM-12+0252SBUF V0200901N006210450019N0200001N1+02921+01861101271ADDAA106000091GF105991041011008001041001KA1240N+02361MA1999999098451MD1999999-0081REMSYN076AAXX  07124 82986 32598 50912 10292 20186 39845 40127 84140 333 20236 59008;EQDQ01  00002PRCP06
0167829860999992004110718004-09400-038217FM-12+0252SBUF V0201401N005110450019N0200001N1+03411+01641100781ADDAA106000091GF106991041021008001031011MA1999999097981MD1999999-0011REMSYN070AAXX  07184 82986 32598 61410 10341 20164 39798 40078 84231 333 59001;EQDQ01  00002PRCP06
0208829860999992004110800004-09400-038220FM-12+0253SBUF V0201401N006712200019N0020001N1+02681+02021101211ADDAA106000091GA1001+999999999GF100991001001999999001001KA1240M+03541MA1999999098391MD1999999+0121REMSYN082AAXX  08004 82986 32995 01413 10268 20202 39839 40121 333 10354 29056 55109 58012;EQDQ01  00002PRCP06
0186829860999992004110812004-09400-038220FM-12+0253SBUF V0201401N007210075019N0100001N1+02761+01891101391ADDAA106000091GF106991061021008001001001KA1240N+02301MA1999999098551MD1999999+0101REMSYN076AAXX  08124 82986 32597 61414 10276 20189 39855 40139 86200 333 20230 58010;EQDQ01  00002PRCP06
0167829860999992004110818004-09400-038220FM-12+0253SBUF V0201401N006712200019N0200001N1+03391+01381100871ADDAA106000091GF103991031021008001001001MA1999999098071MD1999999+0091REMSYN070AAXX  08184 82986 32598 31413 10339 20138 39807 40087 83200 333 58009;EQDQ01  00002PRCP06
0208829860999992004110900004-09400-038217FM-12+0252SBUF V0201401N006712200019N0020001N1+02621+01781101321ADDAA106000091GA1001+999999999GF100991001001999999001001KA1240M+03421MA1999999098491MD1999999+0101REMSYN082AAXX  09004 82986 32995 01413 10262 20178 39849 40132 333 10342 29051 55094 58010;EQDQ01  00002PRCP06
0186829860999992004110912004-09400-038217FM-12+0252SBUF V0201401N007210450019N0100001N1+02701+01801101431ADDAA106000091GF106991041021008001031001KA1240N+02181MA1999999098591MD1999999+0041REMSYN076AAXX  09124 82986 32597 61414 10270 20180 39859 40143 84230 333 20218 58004;EQDQ01  00002PRCP06
0167829860999992004110918004-09400-038217FM-12+0252SBUF V0201401N006712200019N0200001N1+03281+00961100911ADDAA106000091GF102991021011008001001001MA1999999098101MD1999999+0031REMSYN070AAXX  09184 82986 32598 21413 10328 20096 39810 40091 82100 333 58003;EQDQ01  00002PRCP06
0208829860999992004111000004-09400-038217FM-12+0252SBUF V0201401N003112200019N0020001N1+02511+01591101361ADDAA106000091GA1001+999999999GF100991001001999999001001KA1240M+03331MA1999999098511MD1999999+0021REMSYN082AAXX  10004 82986 32995 01406 10251 20159 39851 40136 333 10333 29049 55104 58002;EQDQ01  00002PRCP06
0186829860999992004111012004-09400-038217FM-12+0252SBUF V0201401N007210450019N0100001N1+02701+01691101411ADDAA106000091GF106991041021008001031001KA1240N+02061MA1999999098561MD1999999-0031REMSYN076AAXX  10124 82986 32597 61414 10270 20169 39856 40141 84230 333 20206 59003;EQDQ01  00002PRCP06
0167829860999992004111018004-09400-038217FM-12+0252SBUF V0201401N003112200019N0200001N1+03361+01461100861ADDAA106000091GF105991031021008001001041MA1999999098051MD1999999-0051REMSYN070AAXX  10184 82986 32598 51406 10336 20146 39805 40086 83204 333 59005;EQDQ01  00002PRCP06
0208829860999992004111100004-09400-038217FM-12+0252SBUF V0201401N007712200019N0020001N1+02621+01961101241ADDAA106000091GA1001+999999999GF100991001001999999001001KA1240M+03371MA1999999098401MD1999999-0111REMSYN082AAXX  11004 82986 32995 01415 10262 20196 39840 40124 333 10337 29055 55106 59011;EQDQ01  00002PRCP06
0186829860999992004111112004-09400-038217FM-12+0252SBUF V0201401N005110075019N0100001N1+02741+01811101331ADDAA106000091GF105991051021008001001001KA1240N+02221MA1999999098501MD1999999-0061REMSYN076AAXX  11124 82986 32597 51410 10274 20181 39850 40133 85200 333 20222 59006;EQDQ01  00002PRCP06
0167829860999992004111118004-09400-038217FM-12+0252SBUF V0201401N004612200019N0200001N1+03511+01431100691ADDAA106000091GF104991031011008001001051MA1999999097901MD1999999-0151REMSYN070AAXX  11184 82986 32598 41409 10351 20143 39790 40069 83105 333 59015;EQDQ01  00002PRCP06
0208829860999992004111200004-09400-038217FM-12+0252SBUF V0200901N005712200019N0020001N1+02711+01941100981ADDAA106000091GA1001+999999999GF100991001001999999001001KA1240M+03531MA1999999098151MD1999999-0251REMSYN082AAXX  12004 82986 32995 00911 10271 20194 39815 40098 333 10353 29053 55099 59025;EQDQ01  00002PRCP06
0186829860999992004111212004-09400-038217FM-12+0252SBUF V0201401N004612200019N0200001N1+02781+01731101181ADDAA106000091GF102991011011008001001011KA1240N+02121MA1999999098351MD1999999-0151REMSYN076AAXX  12124 82986 32598 21409 10278 20173 39835 40118 81101 333 20212 59015;EQDQ01  00002PRCP06
0167829860999992004111218004-09400-038220FM-12+0253SBUF V0201401N005112200019N0200001N1+03591+01391100581ADDAA106000091GF102991011011008001001051MA1999999097791MD1999999-0111REMSYN070AAXX  12184 82986 32598 21410 10359 20139 39779 40058 81105 333 59011;EQDQ01  00002PRCP06
0208829860999992004111300004-09400-038220FM-12+0253SBUF V0200901N007212200019N0020001N1+02981+01831100901ADDAA106000091GA1001+999999999GF100991001001999999001001KA1240M+03641MA1999999098101MD1999999-0051REMSYN082AAXX  13004 82986 32995 00914 10298 20183 39810 40090 333 10364 29045 55112 59005;EQDQ01  00002PRCP06
0196829860999992004111312004-09400-038220FM-12+0253SBUF V0200501N003612200019N0200001N1+02931+01921101031ADDAA106000091GA1001+999999999GF100991001001999999001001KA1240N+02261MA1999999098231MD1999999-0121REMSYN070AAXX  13124 82986 32998 00507 10293 20192 39823 40103 333 20226 59012;EQDQ01  00002PRCP06
0167829860999992004111318004-09400-038220FM-12+0253SBUF V0200901N003612200019N0200001N1+03731+01391100491ADDAA106000091GF101991011011008001001001MA1999999097711MD1999999-0081REMSYN070AAXX  13184 82986 32598 10907 10373 20139 39771 40049 81100 333 59008;EQDQ01  00002PRCP06
0208829860999992004111400004-09400-038217FM-12+0252SBUF V0201401N005112200019N0020001N1+03161+01791100821ADDAA106000091GA1001+999999999GF100991001001999999001001KA1240M+03781MA1999999098041MD1999999-0061REMSYN082AAXX  14004 82986 32995 01410 10316 20179 39804 40082 333 10378 29042 55113 59006;EQDQ01  00002PRCP06
0186829860999992004111412004-09400-038217FM-12+0252SBUF V0201401N003612200019N0200001N1+02881+01971101161ADDAA106000091GF103991031011008001001001KA1240N+02281MA1999999098361MD1999999+0131REMSYN076AAXX  14124 82986 32598 31407 10288 20197 39836 40116 83100 333 20228 58013;EQDQ01  00002PRCP06
0167829860999992004111418004-09400-038217FM-12+0252SBUF V0201401N006712200019N0200001N1+03491+01521100751ADDAA106000091GF102991011011008001001011MA1999999097951MD1999999+0241REMSYN070AAXX  14184 82986 32598 21413 10349 20152 39795 40075 81101 333 58024;EQDQ01  00002PRCP06
0208829860999992004111500004-09400-038217FM-12+0252SBUF V0201401N009312200019N0020001N1+02661+01871101181ADDAA106000091GA1001+999999999GF100991001001999999001001KA1240M+03561MA1999999098351MD1999999+0311REMSYN082AAXX  15004 82986 32995 01418 10266 20187 39835 40118 333 10356 29053 55106 58031;EQDQ01  00002PRCP06
0186829860999992004111512004-09400-038217FM-12+0252SBUF V0201401N003110450019N0100001N1+02691+01841101421ADDAA106000091GF106991041041008001031001KA1240N+02241MA1999999098581MD1999999+0221REMSYN076AAXX  15124 82986 32597 61406 10269 20184 39858 40142 84430 333 20224 58022;EQDQ01  00002PRCP06
0167829860999992004111518004-09400-038217FM-12+0252SBUF V0200901N005112200019N0200001N1+03471+01401100851ADDAA106000091GF105991031021008001001011MA1999999098051MD1999999+0101REMSYN070AAXX  15184 82986 32598 50910 10347 20140 39805 40085 83201 333 58010;EQDQ01  00002PRCP06
0208829860999992004111600004-09400-038217FM-12+0252SBUF V0201401N007712200019N0020001N1+02711+01571101251ADDAA106000091GA1001+999999999GF100991001001999999001001KA1240M+03501MA1999999098421MD1999999+0071REMSYN082AAXX  16004 82986 32995 01415 10271 20157 39842 40125 333 10350 29047 55106 58007;EQDQ01  00002PRCP06
0186829860999992004111612004-09400-038217FM-12+0252SBUF V0201401N005110450019N0100001N1+02761+01721101471ADDAA106000091GF105991031021008001031001KA1240N+02141MA1999999098641MD1999999+0061REMSYN076AAXX  16124 82986 32597 51410 10276 20172 39864 40147 83230 333 20214 58006;EQDQ01  00002PRCP06
0167829860999992004111618004-09400-038217FM-12+0252SBUF V0200901N004112200019N0200001N1+03391+01271100991ADDAA106000091GF102991011011008001041001MA1999999098181MD1999999+0131REMSYN070AAXX  16184 82986 32598 20908 10339 20127 39818 40099 81140 333 58013;EQDQ01  00002PRCP06
0208829860999992004111700004-09400-038217FM-12+0252SBUF V0200901N003612200019N0020001N1+02781+01671101291ADDAA106000091GA1001+999999999GF100991001001999999001001KA1240M+03421MA1999999098461MD1999999+0041REMSYN082AAXX  17004 82986 32995 00907 10278 20167 39846 40129 333 10342 29046 55106 58004;EQDQ01  00002PRCP06
0186829860999992004111712004-09400-038217FM-12+0252SBUF V0201401N005112200019N0100001N1+02741+01541101471ADDAA106000091GF102991021011008001001001KA1240N+02101MA1999999098641MD1999999+0001REMSYN076AAXX  17124 82986 32597 21410 10274 20154 39864 40147 82100 333 20210 58000;EQDQ01  00002PRCP06
0167829860999992004111718004-09400-038217FM-12+0252SBUF V0201401N003112200019N0200001N1+03501+01081100971ADDAA106000091GF101991011011008001001001MA1999999098161MD1999999-0021REMSYN070AAXX  17184 82986 32598 11406 10350 20108 39816 40097 81100 333 59002;EQDQ01  00002PRCP06
0208829860999992004111800004-09400-038217FM-12+0252SBUF V0201401N006212200019N0020001N1+02701+01861102832ADDAA106000091GA1001+999999999GF100991001001999999001001KA1240M+03561MA1999999098441MD1999999-0021REMSYN082AAXX  18004 82986 32995 01412 10270 20186 39844 40283 333 10356 29048 55114 59002;EQDQ01  00002PRCP06
0186829860999992004111812004-09400-038217FM-12+0252SBUF V0200901N003112200019N0200001N1+02811+01921101341ADDAA106000091GF102991021011008001001001KA1240N+02281MA1999999098511MD1999999-0131REMSYN076AAXX  18124 82986 32598 20906 10281 20192 39851 40134 82100 333 20228 59013;EQDQ01  00002PRCP06
0167829860999992004111818004-09400-038217FM-12+0252SBUF V0203601N002612200019N0200001N1+03611+01291100691ADDAA106000091GF101991011011008001001001MA1999999097921MD1999999-0241REMSYN070AAXX  18184 82986 32598 13605 10361 20129 39792 40069 81100 333 59024;EQDQ01  00002PRCP06
0208829860999992004111900004-09400-038217FM-12+0252SBUF V0200901N005112200019N0020001N1+03001+02051100951ADDAA106000091GA1001+999999999GF100991001001999999001001KA1240M+03661MA1999999098151MD1999999-0291REMSYN082AAXX  19004 82986 32995 00910 10300 20205 39815 40095 333 10366 29050 55112 59029;EQDQ01  00002PRCP06
0196829860999992004111912004-09400-038217FM-12+0252SBUF V0203601N002112200019N0200001N1+03021+01831101081ADDAA106000091GA1001+999999999GF100991001001999999001001KA1240N+02301MA1999999098291MD1999999-0221REMSYN070AAXX  19124 82986 32998 03604 10302 20183 39829 40108 333 20230 59022;EQDQ01  00002PRCP06
0167829860999992004111918004-09400-038217FM-12+0252SBUF V0203601N001512200019N0200001N1+03771+01421100511ADDAA106000091GF102991021011008001001001MA1999999097741MD1999999-0161REMSYN070AAXX  19184 82986 32598 23603 10377 20142 39774 40051 82100 333 59016;EQDQ01  00002PRCP06
0198829860999992004112100004-09400-038220FM-12+0253SBUF V0200901N002110075019N0020001N1+03241+02001100751ADDAA106000091GF105991051031008001001001KA1240M+03671MA1999999097991MD1999999+0121REMSYN088AAXX  21004 82986 32595 50904 10324 20200 39799 40075 85300 333 10367 29044 55112 58012;EQDQ01  00002PRCP06
0186829860999992004112112004-09400-038220FM-12+0253SBUF V0203201N001511050019N0200001N1+02881+01771101241ADDAA106000091GF106991021011008001041041KA1240N+02651MA1999999098451MD1999999+0171REMSYN076AAXX  21124 82986 32598 63203 10288 20177 39845 40124 82144 333 20265 58017;EQDQ01  00002PRCP06
0195829860999992004112118004-09400-038220FM-12+0253SBUF V0202301N005110090019N0100001N1+03191+02041100841ADDAA106000091AY121061AY221061GF107991061081004501001011MA1999999098041MD1999999+0281MW1151REMSYN076AAXX  21184 82986 31497 72310 10319 20204 39804 40084 71522 86801 333 58028;EQDQ01  00002PRCP06
0202829860999992004112200004-09400-038217FM-12+0252SBUF V0202301N001010090019N0020001N1+02531+02191101291ADDAY161061AY251061GF108991081081004501999999KA1240M+03511MA1999999098461MD1999999+0471MW1131REMSYN100AAXX  22004 82986 21495 82302 10253 20219 39846 40129 71365 888// 333 10351 29067 55076 58047 60031;
0190829860999992004112212004-09400-038217FM-12+0252SBUF V0200501N001010021019N0040001N1+02261+02111101391ADDAY161061AY221061GF107991051071002501031031KA1240N+02141MA1999999098521MD1999999+0071MW1611REMSYN088AAXX  22124 82986 21396 70502 10226 20211 39852 40139 76162 85733 333 20214 58007 60064;
0148829860999992004112218004-09400-038217FM-12+0252SBUF V0203201N001012200019N0100001N1+03241+02061100781ADDAA106000021GF106991021031004501001061MA1999999097971MD1999999-0071REMSYN070AAXX  22184 82986 32497 63202 10324 20206 39797 40078 82306 333 59007;
0202829860999992004112300004-09400-038217FM-12+0252SBUF V0201401N002110090019N0020001N1+02371+02191101281ADDAY161061AY221061GF108991081081004501999999KA1240M+03231MA1999999098401MD1999999-0061MW1131REMSYN100AAXX  23004 82986 21495 81404 10237 20219 39840 40128 71362 888// 333 10323 29080 55032 59006 60041;
0167829860999992004112318004-09400-038217FM-12+0252SBUF V0201401N002610450019N0100001N1+03221+01801100921ADDAA106000091GF106991041021004501061061MA1999999098111MD1999999+0141REMSYN070AAXX  23184 82986 32497 61405 10322 20180 39811 40092 84266 333 58014;EQDQ01  00002PRCP06
0198829860999992004112400004-09400-038217FM-12+0252SBUF V0200901N005711050019N0020001N1+02701+01861101271ADDAA106000091GF106991021021008001001081KA1240M+03311MA1999999098431MD1999999+0031REMSYN088AAXX  24004 82986 32595 60911 10270 20186 39843 40127 82208 333 10331 29058 55040 58003;EQDQ01  00002PRCP06
0186829860999992004112412004-09400-038217FM-12+0252SBUF V0201401N001510450019N0100001N1+02621+01861101411ADDAA106000091GF105991031071008001011011KA1240N+02241MA1999999098571MD1999999+0051REMSYN076AAXX  24124 82986 32597 51403 10262 20186 39857 40141 83711 333 20224 58005;EQDQ01  00002PRCP06
0167829860999992004112418004-09400-038217FM-12+0252SBUF V0201401N003112200019N0200001N1+03371+01691100811ADDAA106000091GF106991021011008001001061MA1999999098011MD1999999-0101REMSYN070AAXX  24184 82986 32598 61406 10337 20169 39801 40081 82106 333 59010;EQDQ01  00002PRCP06
0214829860999992004112500004-09400-038217FM-12+0252SBUF V0201401N007712200019N0020001N1+02681+01781101221ADDAA106000091GF102991001001999999001041KA1240M+03401MA1999999098381MD1999999-0051REMSYN088AAXX  25004 82986 32995 21415 10268 20178 39838 40122 82004 333 10340 29054 55098 59005;EQDQ01+000022SCOTLCQ02  00002PRCP06
0214829860999992004112512004-09400-038217FM-12+0252SBUF V0201401N005110450019N0100001N1+02761+01891101351ADDAA106000091AY141061AY221061GF106991031021008001031061KA1240N+02341MA1999999098521MD1999999-0051MW1051REMSYN082AAXX  25124 82986 31597 61410 10276 20189 39852 40135 70542 83236 333 20234 59005;EQDQ01  00002PRCP06
0167829860999992004112518004-09400-038217FM-12+0252SBUF V0200901N003610450019N0200001N1+03051+01641100881ADDAA106000091GF108991031021008001071999MA1999999098061MD1999999+0051REMSYN070AAXX  25184 82986 32598 80907 10305 20164 39806 40088 8327/ 333 58005;EQDQ01  00002PRCP06
0198829860999992004112600004-09400-038217FM-12+0252SBUF V0201401N006710450019N0020001N1+02681+01971101131ADDAA106000091GF105991021011008001051001KA1240M+03131MA1999999098301MD1999999-0081REMSYN088AAXX  26004 82986 32595 51413 10268 20197 39830 40113 82150 333 10313 29058 55024 59008;EQDQ01  00002PRCP06
0167829860999992004112618004-09400-038217FM-12+0252SBUF V0200901N003110450019N0200001N1+03171+01711100771ADDAA106000091GF107991031051004501071999MA1999999097961MD1999999-0101REMSYN070AAXX  26184 82986 32498 70906 10317 20171 39796 40077 8357/ 333 59010;EQDQ01  00002PRCP06
0208829860999992004112700004-09400-038217FM-12+0252SBUF V0201401N005112200019N0020001N1+02701+01781101021ADDAA106000091GA1001+999999999GF100991001001999999001001KA1240M+03361MA1999999098191MD1999999-0111REMSYN082AAXX  27004 82986 32995 01410 10270 20178 39819 40102 333 10336 29056 55015 59011;EQDQ01  00002PRCP06
0186829860999992004112712004-09400-038217FM-12+0252SBUF V0200901N004610450019N0200001N1+02711+01781101241ADDAA106000091GF105991031041004501031001KA1240N+02221MA1999999098411MD1999999-0031REMSYN076AAXX  27124 82986 32498 50909 10271 20178 39841 40124 83430 333 20222 59003;EQDQ01  00002PRCP06
0167829860999992004112718004-09400-038217FM-12+0252SBUF V0201401N002612200019N0200001N1+03351+01631100741ADDAA106000091GF103991031021008001001001MA1999999097941MD1999999-0021REMSYN070AAXX  27184 82986 32598 31405 10335 20163 39794 40074 83200 333 59002;EQDQ01  00002PRCP06
0208829860999992004112800004-09400-038217FM-12+0252SBUF V0201401N007712200019N0020001N1+02821+01861101001ADDAA106000091GA1001+999999999GF100991001001999999001001KA1240M+03391MA1999999098181MD1999999-0011REMSYN082AAXX  28004 82986 32995 01415 10282 20186 39818 40100 333 10339 29051 55104 59001;EQDQ01  00002PRCP06
0186829860999992004112812004-09400-038217FM-12+0252SBUF V0201401N001511050019N0200001N1+02821+02071101161ADDAA106000091GF106991011011008001031061KA1240N+02321MA1999999098341MD1999999-0071REMSYN076AAXX  28124 82986 32598 61403 10282 20207 39834 40116 81136 333 20232 59007;EQDQ01  00002PRCP06
0167829860999992004112818004-09400-038217FM-12+0252SBUF V0201801N001511050019N0200001N1+03491+01791100641ADDAA106000091GF105991021021008001031011MA1999999097851MD1999999-0091REMSYN070AAXX  28184 82986 32598 51803 10349 20179 39785 40064 82231 333 59009;EQDQ01  00002PRCP06
0208829860999992004112900004-09400-038217FM-12+0252SBUF V0201401N005112200019N0020001N1+02821+02021100941ADDAA106000091GA1001+999999999GF100991001001999999001001KA1240M+03491MA1999999098131MD1999999-0051REMSYN082AAXX  29004 82986 32995 01410 10282 20202 39813 40094 333 10349 29056 55101 59005;EQDQ01  00002PRCP06
0167829860999992004113018004-09400-038217FM-12+0252SBUF V0201401N002612200019N0200001N1+03661+01671100541ADDAA106000091GF104991041021008001001001MA1999999097771MD1999999+0041REMSYN070AAXX  30184 82986 32598 41405 10366 20167 39777 40054 84200 333 58004;EQDQ01  00002PRCP06
0208829860999992004120100004-09400-038217FM-12+0252SBUF V0201401N005712200019N0020001N1+02901+02101100901ADDAA106000091GA1001+999999999GF100991001001999999001001KA1240M+03681MA1999999098101MD1999999-0011REMSYN082AAXX  01004 82986 32995 01411 10290 20210 39810 40090 333 10368 29055 55108 59001;EQDQ01  00002PRCP06
0214829860999992004120112004-09400-038217FM-12+0252SBUF V0201401N003110075019N0040001N1+02531+01961101201ADDAA106000091AY121061AY221061GF107991071051008001001001KA1240N+02381MA1999999098371MD1999999+0071MW1101REMSYN082AAXX  01124 82986 31596 71406 10253 20196 39837 40120 71022 87500 333 20238 58007;EQDQ01  00002PRCP06
0177829860999992004120118004-09400-038217FM-12+0252SBUF V0200901N005112200019N0200001N1+03611+01221100591ADDAA106000091GA1001+999999999GF100991001001999999001001MA1999999097811MD1999999+0041REMSYN064AAXX  01184 82986 32998 00910 10361 20122 39781 40059 333 58004;EQDQ01  00002PRCP06
0208829860999992004120200004-09400-038217FM-12+0252SBUF V0201401N006712200019N0020001N1+02861+01841100941ADDAA106000091GA1001+999999999GF100991001001999999001001KA1240M+03621MA1999999098121MD1999999+0021REMSYN082AAXX  02004 82986 32995 01413 10286 20184 39812 40094 333 10362 29051 55083 58002;EQDQ01  00002PRCP06
0186829860999992004120212004-09400-038217FM-12+0252SBUF V0200901N005112200019N0200001N1+02861+01841101201ADDAA106000091GF104991041011008001001001KA1240N+02201MA1999999098391MD1999999+0021REMSYN076AAXX  02124 82986 32598 40910 10286 20184 39839 40120 84100 333 20220 58002;EQDQ01  00002PRCP06
0167829860999992004120218004-09400-038217FM-12+0252SBUF V0200901N005112200019N0200001N1+03521+01501100751ADDAA106000091GF103991031011008001001001MA1999999097951MD1999999+0141REMSYN070AAXX  02184 82986 32598 30910 10352 20150 39795 40075 83100 333 58014;EQDQ01  00002PRCP06
0208829860999992004120300004-09400-038217FM-12+0252SBUF V0200901N006712200019N0020001N1+02751+01871101131ADDAA106000091GA1001+999999999GF100991001001999999001001KA1240M+03541MA1999999098311MD1999999+0191REMSYN082AAXX  03004 82986 32995 00913 10275 20187 39831 40113 333 10354 29050 55112 58019;EQDQ01  00002PRCP06
0186829860999992004120312004-09400-038217FM-12+0252SBUF V0201401N007210450019N0200001N1+02731+01901101351ADDAA106000091GF106991041021008001031011KA1240N+02261MA1999999098521MD1999999+0131REMSYN076AAXX  03124 82986 32598 61414 10273 20190 39852 40135 84231 333 20226 58013;EQDQ01  00002PRCP06
0167829860999992004120318004-09400-038217FM-12+0252SBUF V0200901N005112200019N0200001N1+03481+01611100831ADDAA106000091GF104991031021008001001011MA1999999098031MD1999999+0081REMSYN070AAXX  03184 82986 32598 40910 10348 20161 39803 40083 83201 333 58008;EQDQ01  00002PRCP06
0208829860999992004120400004-09400-038217FM-12+0252SBUF V0200901N006712200019N0020001N1+02691+01941101191ADDAA106000091GA1001+999999999GF100991001001999999001001KA1240M+03481MA1999999098361MD1999999+0051REMSYN082AAXX  04004 82986 32995 00913 10269 20194 39836 40119 333 10348 29056 55105 58005;EQDQ01  00002PRCP06
0186829860999992004120412004-09400-038217FM-12+0252SBUF V0201401N006710450019N0100001N1+02721+01951101581ADDAA106000091GF106991041041004501031001KA1240N+02261MA1999999098741MD1999999+0221REMSYN076AAXX  04124 82986 32497 61413 10272 20195 39874 40158 84430 333 20226 58022;EQDQ01  00002PRCP06
0167829860999992004120418004-09400-038217FM-12+0252SBUF V0200901N005112200019N0200001N1+03461+01551101011ADDAA106000091GF104991031011008001001011MA1999999098211MD1999999+0181REMSYN070AAXX  04184 82986 32598 40910 10346 20155 39821 40101 83101 333 58018;EQDQ01  00002PRCP06
0208829860999992004120500004-09400-038217FM-12+0252SBUF V0200901N006712200019N0020001N1+02721+01681101441ADDAA106000091GA1001+999999999GF100991001001999999001001KA1240M+03471MA1999999098601MD1999999+0241REMSYN082AAXX  05004 82986 32995 00913 10272 20168 39860 40144 333 10347 29050 55106 58024;EQDQ01  00002PRCP06
0186829860999992004120512004-09400-038217FM-12+0252SBUF V0200901N006710075019N0100001N1+02731+01821101441ADDAA106000091GF105991051021008001001001KA1240N+02201MA1999999098601MD1999999-0141REMSYN076AAXX  05124 82986 32597 50913 10273 20182 39860 40144 85200 333 20220 59014;EQDQ01  00002PRCP06
0167829860999992004120518004-09400-038217FM-12+0252SBUF V0200901N004612200019N0200001N1+03391+01271100891ADDAA106000091GF104991041011008001001001MA1999999098081MD1999999-0131REMSYN070AAXX  05184 82986 32598 40909 10339 20127 39808 40089 84100 333 59013;EQDQ01  00002PRCP06
0208829860999992004120600004-09400-038220FM-12+0253SBUF V0201401N007712200019N0020001N1+02681+01761101231ADDAA106000091GA1001+999999999GF100991001001999999001001KA1240M+03461MA1999999098401MD1999999-0201REMSYN082AAXX  06004 82986 32995 01415 10268 20176 39840 40123 333 10346 29050 55103 59020;EQDQ01  00002PRCP06
0186829860999992004120612004-09400-038220FM-12+0253SBUF V0200901N005110075019N0100001N1+02741+01811101281ADDAA106000091GF105991051041008001001001KA1240N+02261MA1999999098451MD1999999-0151REMSYN076AAXX  06124 82986 32597 50910 10274 20181 39845 40128 85400 333 20226 59015;EQDQ01  00002PRCP06
0167829860999992004120618004-09400-038220FM-12+0253SBUF V0200901N002610075019N0200001N1+03401+01591100751ADDAA106000091GF105991051021008001001001MA1999999097951MD1999999-0131REMSYN070AAXX  06184 82986 32598 50905 10340 20159 39795 40075 85200 333 59013;EQDQ01  00002PRCP06
0208829860999992004120700004-09400-038217FM-12+0252SBUF V0201401N006712200019N0020001N1+02801+01841101091ADDAA106000091GA1001+999999999GF100991001001999999001001KA1240M+03431MA1999999098271MD1999999-0131REMSYN082AAXX  07004 82986 32995 01413 10280 20184 39827 40109 333 10343 29051 55099 59013;EQDQ01  00002PRCP06
0186829860999992004120712004-09400-038217FM-12+0252SBUF V0200901N003610075019N0100001N1+02801+01841101321ADDAA106000091GF105991051011008001001001KA1240N+02261MA1999999098501MD1999999+0051REMSYN076AAXX  07124 82986 32597 50907 10280 20184 39850 40132 85100 333 20226 58005;EQDQ01  00002PRCP06
0152829860999992004120718004-09400-038217FM-12+0252SBUF V0201401N003112200019N0200001N1+03431+01471100841ADDAA106000091GF103991999999008001999999MA1999999098041REMSYN069AAXX  07184 82986 32598 31406 10343 20147 39804 40084 8201 333 58009;EQDQ01  00002PRCP06
0208829860999992004120800004-09400-038217FM-12+0252SBUF V0201401N006212200019N0020001N1+02881+01461101051ADDAA106000091GA1001+999999999GF100991001001999999001001KA1240M+03481MA1999999098241MD1999999-0031REMSYN082AAXX  08004 82986 32995 01412 10288 20146 39824 40105 333 10348 29043 55110 59003;EQDQ01  00002PRCP06
0214829860999992004120812004-09400-038217FM-12+0252SBUF V0201401N003612200019N0100001N1+02751+01811101371ADDAA106000091AY141061AY201061GF102991021011008001001001KA1240N+02201MA1999999098551MD1999999+0051MW1051REMSYN082AAXX  08124 82986 31597 21407 10275 20181 39855 40137 70540 82100 333 20220 58005;EQDQ01  00002PRCP06
0167829860999992004120818004-09400-038217FM-12+0252SBUF V0201401N003112200019N0200001N1+03461+01451100861ADDAA106000091GF103991011011008001001021MA1999999098061MD1999999+0021REMSYN070AAXX  08184 82986 32598 31406 10346 20145 39806 40086 81102 333 58002;EQDQ01  00002PRCP06
0186829860999992004120912004-09400-038217FM-12+0252SBUF V0201401N003110075019N0100001N1+02761+01941101231ADDAA106000091GF106991051021008001031001KA1240N+02361MA1999999098421MD1999999-0131REMSYN076AAXX  09124 82986 32597 61406 10276 20194 39842 40123 85230 333 20236 59013;EQDQ01  00002PRCP06
0167829860999992004120918004-09400-038217FM-12+0252SBUF V0203601N001512200019N0200001N1+03471+01821100671ADDAA106000091GF103991021011008001001021MA1999999097881MD1999999-0181REMSYN070AAXX  09184 82986 32598 33603 10347 20182 39788 40067 82102 333 59018;EQDQ01  00002PRCP06
0208829860999992004121000004-09400-038217FM-12+0252SBUF V0201401N007712200019N0020001N1+02881+01941100871ADDAA106000091GA1001+999999999GF100991001001999999001001KA1240M+03521MA1999999098061MD1999999-0121REMSYN082AAXX  10004 82986 32995 01415 10288 20194 39806 40087 333 10352 29053 55105 59012;EQDQ01  00002PRCP06
0186829860999992004121012004-09400-038217FM-12+0252SBUF V0203201N002112200019N0200001N1+02801+01921101091ADDAA106000091GF101991011011008001001001KA1240N+02281MA1999999098281MD1999999-0141REMSYN076AAXX  10124 82986 32598 13204 10280 20192 39828 40109 81100 333 20228 59014;EQDQ01  00002PRCP06
0167829860999992004121018004-09400-038217FM-12+0252SBUF V0203601N001012200019N0200001N1+03611+01571100481ADDAA106000091GF103991021011008001001011MA1999999097701MD1999999-0181REMSYN070AAXX  10184 82986 32598 33602 10361 20157 39770 40048 82101 333 59018;EQDQ01  00002PRCP06
0208829860999992004121100004-09400-038217FM-12+0252SBUF V0200901N005112200019N0020001N1+02951+02081100701ADDAA106000091GA1001+999999999GF100991001001999999001001KA1240M+03661MA1999999097911MD1999999-0151REMSYN082AAXX  11004 82986 32995 00910 10295 20208 39791 40070 333 10366 29052 55111 59015;EQDQ01  00002PRCP06
0186829860999992004121112004-09400-038217FM-12+0252SBUF V0202701N001519999999N0200001N1+02881+01831101061ADDAA106000091GF105991001001999999001011KA1240N+02411MA1999999098261MD1999999-0021REMSYN076AAXX  11124 82986 32998 52703 10288 20183 39826 40106 80001 333 20241 59002;EQDQ01  00002PRCP06
0167829860999992004121118004-09400-038217FM-12+0252SBUF V0203601N001011050019N0200001N1+03551+01711100521ADDAA106000091GF106991021021008001001081MA1999999097741MD1999999+0041REMSYN070AAXX  11184 82986 32598 63602 10355 20171 39774 40052 82208 333 58004;EQDQ01  00002PRCP06
0198829860999992004121200004-09400-038220FM-12+0253SBUF V0200901N001011050019N0020001N1+03061+01961101872ADDAA106000091GF106991031011012501001081KA1240M+03541MA1999999098081MD1999999+0171REMSYN088AAXX  12004 82986 32695 60902 10306 20196 39808 40187 83108 333 10354 29048 55067 58017;EQDQ01  00002PRCP06
0214829860999992004121212004-09400-038220FM-12+0253SBUF V0200501N001512200019N0200001N1+03011+02111101111ADDAA106000091AY141061AY211061GF105991031011008001001041KA1240N+02521MA1999999098321MD1999999+0061MW1051REMSYN082AAXX  12124 82986 31598 50503 10301 20211 39832 40111 70541 83104 333 20252 58006;EQDQ01  00002PRCP06
0167829860999992004121218004-09400-038220FM-12+0253SBUF V0200901N003112200019N0200001N1+03691+01691100581ADDAA106000091GF103991031021008001001001MA1999999097851MD1999999+0071REMSYN070AAXX  12184 82986 32598 30906 10369 20169 39785 40058 83200 333 58007;EQDQ01  00002PRCP06
0208829860999992004121300004-09400-038217FM-12+0252SBUF V0201401N005712200019N0020001N1+02921+01981101011ADDAA106000091GA1001+999999999GF100991001001999999001001KA1240M+03701MA1999999098211MD1999999+0131REMSYN082AAXX  13004 82986 32995 01411 10292 20198 39821 40101 333 10370 29051 55104 58013;EQDQ01  00002PRCP06
0214829860999992004121312004-09400-038217FM-12+0252SBUF V0200901N003110075019N0100001N1+02841+01931101351ADDAA106000091AY141061AY211061GF105991051011008001001001KA1240N+02361MA1999999098541MD1999999+0221MW1051REMSYN082AAXX  13124 82986 31597 50906 10284 20193 39854 40135 70541 85100 333 20236 58022;EQDQ01  00002PRCP06
0167829860999992004121318004-09400-038217FM-12+0252SBUF V0201401N003112200019N0200001N1+03411+01641100881ADDAA106000091GF103991021011008001001011MA1999999098061MD1999999+0251REMSYN070AAXX  13184 82986 32598 31406 10341 20164 39806 40088 82101 333 58025;EQDQ01  00002PRCP06
0208829860999992004121400004-09400-038217FM-12+0252SBUF V0200901N009812200019N0020001N1+02881+01861101151ADDAA106000091GA1001+999999999GF100991001001999999001001KA1240M+03461MA1999999098341MD1999999+0131REMSYN082AAXX  14004 82986 32995 00919 10288 20186 39834 40115 333 10346 29050 55095 58013;EQDQ01  00002PRCP06
0214829860999992004121412004-09400-038217FM-12+0252SBUF V0200901N004610075019N0100001N1+02781+01821101381ADDAA106000091AY141061AY211061GF106991061021008001001001KA1240N+02241MA1999999098561MD1999999+0021MW1051REMSYN082AAXX  14124 82986 31597 60909 10278 20182 39856 40138 70541 86200 333 20224 58002;EQDQ01  00002PRCP06
0167829860999992004121418004-09400-038217FM-12+0252SBUF V0200901N005112200019N0200001N1+03331+01381100911ADDAA106000091GF103991021011008001001041MA1999999098101MD1999999+0041REMSYN070AAXX  14184 82986 32598 30910 10333 20138 39810 40091 82104 333 58004;EQDQ01  00002PRCP06
0208829860999992004121500004-09400-038217FM-12+0252SBUF V0201401N005712200019N0020001N1+02781+01701101101ADDAA106000091GA1001+999999999GF100991001001999999001001KA1240M+03461MA1999999098281MD1999999-0061REMSYN082AAXX  15004 82986 32995 01411 10278 20170 39828 40110 333 10346 29048 55109 59006;EQDQ01  00002PRCP06
0186829860999992004121512004-09400-038217FM-12+0252SBUF V0201401N002612200019N0100001N1+02611+01941101331ADDAA106000091GF106991041021008001001011KA1240N+02241MA1999999098501MD1999999-0061REMSYN076AAXX  15124 82986 32597 61405 10261 20194 39850 40133 84201 333 20224 59006;EQDQ01  00002PRCP06
0167829860999992004121518004-09400-038217FM-12+0252SBUF V0201401N001512200019N0200001N1+03391+01481100821ADDAA106000091GF106991031021008001001061MA1999999098021MD1999999-0081REMSYN070AAXX  15184 82986 32598 61403 10339 20148 39802 40082 83206 333 59008;EQDQ01  00002PRCP06
0208829860999992004121600004-09400-038217FM-12+0252SBUF V0201401N006212200019N0020001N1+02711+01781101031ADDAA106000091GA1001+999999999GF100991001001999999001001KA1240M+03401MA1999999098201MD1999999-0081REMSYN082AAXX  16004 82986 32995 01412 10271 20178 39820 40103 333 10340 29053 55071 59008;EQDQ01  00002PRCP06
0186829860999992004121612004-09400-038217FM-12+0252SBUF V0200901N004610021019N0100001N1+02621+01811101231ADDAA106000091GF107991051071002501071999KA1240N+02321MA1999999098391MD1999999-0111REMSYN076AAXX  16124 82986 32397 70909 10262 20181 39839 40123 8577/ 333 20232 59011;EQDQ01  00002PRCP06
0167829860999992004121618004-09400-038217FM-12+0252SBUF V0201401N004612200019N0200001N1+03321+01651100731ADDAA106000091GF104991041021008001001001MA1999999097931MD1999999-0091REMSYN070AAXX  16184 82986 32598 41409 10332 20165 39793 40073 84200 333 59009;EQDQ01  00002PRCP06
0186829860999992004121712004-09400-038217FM-12+0252SBUF V0201401N003110450019N0100001N1+02721+01711101251ADDAA106000091GF106991031031008001051011KA1240N+02241MA1999999098421MD1999999+0031REMSYN076AAXX  17124 82986 32597 61406 10272 20171 39842 40125 83351 333 20224 58003;EQDQ01  00002PRCP06
0167829860999992004121718004-09400-038217FM-12+0252SBUF V0201401N003112200019N0200001N1+03451+01581100661ADDAA106000091GF103991031011008001001001MA1999999097871MD1999999-0061REMSYN070AAXX  17184 82986 32598 31406 10345 20158 39787 40066 83100 333 59006;EQDQ01  00002PRCP06
0208829860999992004121800004-09400-038217FM-12+0252SBUF V0201401N008212200019N0020001N1+02721+01931101031ADDAA106000091GA1001+999999999GF100991001001999999001001KA1240M+03471MA1999999098201MD1999999+0001REMSYN082AAXX  18004 82986 32995 01416 10272 20193 39820 40103 333 10347 29053 55097 58000;EQDQ01  00002PRCP06
0196829860999992004121812004-09400-038217FM-12+0252SBUF V0200901N002112200019N0200001N1+02741+01671101311ADDAA106000091GA1001+999999999GF100991001001999999001001KA1240N+02221MA1999999098481MD1999999+0061REMSYN070AAXX  18124 82986 32998 00904 10274 20167 39848 40131 333 20222 58006;EQDQ01  00002PRCP06
0167829860999992004121818004-09400-038217FM-12+0252SBUF V0201401N005712200019N0200001N1+03571+01371100801ADDAA106000091GF103991031011008001001001MA1999999098001MD1999999+0141REMSYN070AAXX  18184 82986 32598 31411 10357 20137 39800 40080 83100 333 58014;EQDQ01  00002PRCP06
0208829860999992004121900004-09400-038220FM-12+0253SBUF V0200901N006212200019N0020001N1+02851+01881101131ADDAA106000091GA1001+999999999GF100991001001999999001001KA1240M+03581MA1999999098311MD1999999+0111REMSYN082AAXX  19004 82986 32995 00912 10285 20188 39831 40113 333 10358 29048 55110 58011;EQDQ01  00002PRCP06
0186829860999992004121912004-09400-038220FM-12+0253SBUF V0200901N004110075019N0100001N1+02761+01861101441ADDAA106000091GF106991061021008001001001KA1240N+02321MA1999999098621MD1999999+0141REMSYN076AAXX  19124 82986 32597 60908 10276 20186 39862 40144 86200 333 20232 58014;EQDQ01  00002PRCP06
0167829860999992004121918004-09400-038220FM-12+0253SBUF V0201401N004612200019N0200001N1+03531+01451100911ADDAA106000091GF104991021021008001031031MA1999999098121MD1999999+0121REMSYN070AAXX  19184 82986 32598 41409 10353 20145 39812 40091 82233 333 58012;EQDQ01  00002PRCP06
0208829860999992004122000004-09400-038217FM-12+0252SBUF V0201401N006712200019N0020001N1+02941+01881101111ADDAA106000091GA1001+999999999GF100991001001999999001001KA1240M+03561MA1999999098301MD1999999-0011REMSYN082AAXX  20004 82986 32995 01413 10294 20188 39830 40111 333 10356 29048 55098 59001;EQDQ01  00002PRCP06
0186829860999992004122012004-09400-038217FM-12+0252SBUF V0200501N003112200019N0200001N1+02901+01991101421ADDAA106000091GF104991031041004501031001KA1240N+02341MA1999999098611MD1999999-0011REMSYN076AAXX  20124 82986 32498 40506 10290 20199 39861 40142 83430 333 20234 59001;EQDQ01  00002PRCP06
0167829860999992004122018004-09400-038217FM-12+0252SBUF V0201401N003612200019N0200001N1+03531+01451100831ADDAA106000091GF103991031021008001001001MA1999999098041MD1999999-0081REMSYN070AAXX  20184 82986 32598 31407 10353 20145 39804 40083 83200 333 59008;EQDQ01  00002PRCP06
0208829860999992004122100004-09400-038217FM-12+0252SBUF V0200901N004112200019N0020001N1+02941+01791101011ADDAA106000091GA1001+999999999GF100991001001999999001001KA1240M+03581MA1999999098211MD1999999-0091REMSYN082AAXX  21004 82986 32995 00908 10294 20179 39821 40101 333 10358 29049 55102 59009;EQDQ01  00002PRCP06
0167829860999992004122118004-09400-038217FM-12+0252SBUF V0200901N003112200019N0200001N1+03571+01251100651ADDAA106000091GF102991011011008001001011MA1999999097861MD1999999-0181REMSYN070AAXX  21184 82986 32598 20906 10357 20125 39786 40065 81101 333 59018;EQDQ01  00002PRCP06
0214829860999992004122212004-09400-038217FM-12+0252SBUF V0200501N001512200019N0200001N1+02781+01671101091ADDAA106000091AY141061AY201061GF101991001001999999001011KA1240N+02251MA1999999098281MD1999999-0051MW1051REMSYN082AAXX  22124 82986 31998 10503 10278 20167 39828 40109 70540 80001 333 20225 59005;EQDQ01  00002PRCP06
0167829860999992004122218004-09400-038217FM-12+0252SBUF V0200901N003112200019N0200001N1+03501+01381100601ADDAA106000091GF104991021021008001001011MA1999999097811MD1999999-0051REMSYN070AAXX  22184 82986 32598 40906 10350 20138 39781 40060 82201 333 59005;EQDQ01  00002PRCP06
0198829860999992004122300004-09400-038217FM-12+0252SBUF V0200901N005112200019N0020001N1+02881+01831100891ADDAA106000091GF101991001001999999001011KA1240M+03541MA1999999098091MD1999999-0031REMSYN088AAXX  23004 82986 32995 10910 10288 20183 39809 40089 80001 333 10354 29046 55106 59003;EQDQ01  00002PRCP06
0186829860999992004122312004-09400-038217FM-12+0252SBUF V0200901N004612200019N0100001N1+02711+01801101141ADDAA106000091GF104991041021008001001001KA1240N+02241MA1999999098321MD1999999+0041REMSYN076AAXX  23124 82986 32597 40909 10271 20180 39832 40114 84200 333 20224 58004;EQDQ01  00002PRCP06
0208829860999992004122400004-09400-038217FM-12+0252SBUF V0200901N008212200019N0020001N1+02851+01881100811ADDAA106000091GA1001+999999999GF100991001001999999001001KA1240M+03531MA1999999098001MD1999999-0091REMSYN082AAXX  24004 82986 32995 00916 10285 20188 39800 40081 333 10353 29059 55109 59009;EQDQ01  00002PRCP06
0186829860999992004122412004-09400-038217FM-12+0252SBUF V0200901N005112200019N0200001N1+02931+01741101061ADDAA106000091GF101991011001012501041001KA1240N+02241MA1999999098261MD1999999-0061REMSYN076AAXX  24124 82986 32698 10910 10293 20174 39826 40106 81040 333 20224 59006;EQDQ01  00002PRCP06
0167829860999992004122418004-09400-038217FM-12+0252SBUF V0200501N003112200019N0200001N1+03571+01131100531ADDAA106000091GF104991021011008001041021MA1999999097741MD1999999-0031REMSYN070AAXX  24184 82986 32598 40506 10357 20113 39774 40053 82142 333 59003;EQDQ01  00002PRCP06
0208829860999992004122500004-09400-038217FM-12+0252SBUF V0200901N007712200019N0020001N1+02831+01941100871ADDAA106000091GA1001+999999999GF100991001001999999001001KA1240M+03601MA1999999098071MD1999999-0191REMSYN082AAXX  25004 82986 32995 00915 10283 20194 39807 40087 333 10360 29048 55110 59019;EQDQ01  00002PRCP06
0186829860999992004122512004-09400-038217FM-12+0252SBUF V0200501N004110450019N0200001N1+02821+01971101231ADDAA106000091GF106991031021008001031001KA1240N+02381MA1999999098411MD1999999+0151REMSYN076AAXX  25124 82986 32598 60508 10282 20197 39841 40123 83230 333 20238 58015;EQDQ01  00002PRCP06
0167829860999992004122518004-09400-038217FM-12+0252SBUF V0201401N004111050019N0200001N1+03421+01561100731ADDAA106000091GF106991021021008001011061MA1999999097941MD1999999+0201REMSYN070AAXX  25184 82986 32598 61408 10342 20156 39794 40073 82216 333 58020;EQDQ01  00002PRCP06
0198829860999992004122600004-09400-038220FM-12+0253SBUF V0200901N005111050019N0020001N1+02881+01911101101ADDAA106000091GF106991021051004501021041KA1240M+03461MA1999999098291MD1999999+0221REMSYN088AAXX  26004 82986 32495 60910 10288 20191 39829 40110 82524 333 10346 29051 55076 58022;EQDQ01  00002PRCP06
0167829860999992004122618004-09400-038220FM-12+0253SBUF V0200901N004611050019N0200001N1+03441+01531100821ADDAA106000091GF106991021021008001031041MA1999999098021MD1999999+0081REMSYN070AAXX  26184 82986 32598 60909 10344 20153 39802 40082 82234 333 58008;EQDQ01  00002PRCP06
0208829860999992004122700004-09400-038220FM-12+0253SBUF V0200901N006712200019N0020001N1+02831+01771101011ADDAA106000091GA1001+999999999GF100991001001999999001001KA1240M+03461MA1999999098201MD1999999-0091REMSYN082AAXX  27004 82986 32995 00913 10283 20177 39820 40101 333 10346 29049 55090 59009;EQDQ01  00002PRCP06
0186829860999992004122712004-09400-038220FM-12+0253SBUF V0201401N005712200019N0200001N1+02781+01701101191ADDAA106000091GF103991011011008001001011KA1240N+02221MA1999999098371MD1999999-0131REMSYN076AAXX  27124 82986 32598 31411 10278 20170 39837 40119 81101 333 20222 59013;EQDQ01  00002PRCP06
0167829860999992004122718004-09400-038220FM-12+0253SBUF V0200901N001511050019N0200001N1+03541+01621100601ADDAA106000091GF105991031011008001001021MA1999999097811MD1999999-0211REMSYN070AAXX  27184 82986 32598 50903 10354 20162 39781 40060 83102 333 59021;EQDQ01  00002PRCP06
0208829860999992004122800004-09400-038217FM-12+0252SBUF V0200901N008712200019N0020001N1+02831+01711100871ADDAA106000091GA1001+999999999GF100991001001999999001001KA1240M+03571MA1999999098061MD1999999-0141REMSYN082AAXX  28004 82986 32995 00917 10283 20171 39806 40087 333 10357 29046 55102 59014;EQDQ01  00002PRCP06
0186829860999992004122812004-09400-038217FM-12+0252SBUF V0200501N002112200019N0200001N1+02771+01751101101ADDAA106000091GF101991011011008001001001KA1240N+02221MA1999999098281MD1999999-0091REMSYN076AAXX  28124 82986 32598 10504 10277 20175 39828 40110 81100 333 20222 59009;EQDQ01  00002PRCP06
0167829860999992004122818004-09400-038217FM-12+0252SBUF V0203601N001512200019N0200001N1+03511+01381100661ADDAA106000091GF103991021001012501041011MA1999999097871MD1999999+0061REMSYN070AAXX  28184 82986 32698 33603 10351 20138 39787 40066 82041 333 58006;EQDQ01  00002PRCP06
0208829860999992004122900004-09400-038217FM-12+0252SBUF V0200901N007712200019N0020001N1+02841+01761101041ADDAA106000091GA1001+999999999GF100991001001999999001001KA1240M+03571MA1999999098231MD1999999+0171REMSYN082AAXX  29004 82986 32995 00915 10284 20176 39823 40104 333 10357 29046 55108 58017;EQDQ01  00002PRCP06
0186829860999992004122912004-09400-038217FM-12+0252SBUF V0201401N002111050019N0200001N1+02881+02051101401ADDAA106000091GF105991031021008001001091KA1240N+02241MA1999999098581MD1999999+0301REMSYN076AAXX  29124 82986 32598 51404 10288 20205 39858 40140 83209 333 20224 58030;EQDQ01  00002PRCP06
0167829860999992004122918004-09400-038217FM-12+0252SBUF V0203601N003110450019N0200001N1+03331+01971100961ADDAA106000091GF106991031041008001051001MA1999999098161MD1999999+0291REMSYN070AAXX  29184 82986 32598 63606 10333 20197 39816 40096 83450 333 58029;EQDQ01  00002PRCP06
0208829860999992004123000004-09400-038217FM-12+0252SBUF V0200901N005112200019N0020001N1+02601+02081101351ADDAA106000091GA1001+999999999GF100991001001999999001001KA1240M+03361MA1999999098521MD1999999+0291REMSYN082AAXX  30004 82986 32995 00910 10260 20208 39852 40135 333 10336 29063 55068 58029;EQDQ01  00002PRCP06
0190829860999992004123012004-09400-038217FM-12+0252SBUF V0201801N001510090019N0040001N1+02391+02191101481ADDAY161061AY251061GF108991081081004501999999KA1240N+02361MA1999999098621MD1999999+0041MW1031REMSYN088AAXX  30124 82986 21496 81803 10239 20219 39862 40148 70365 888// 333 20236 58004 60034;
0195829860999992004123018004-09400-038217FM-12+0252SBUF V0200501N003110042019N0040001N1+03101+02091101051ADDAA106000091AY121061AY221061GF108991081071004501999999MA1999999098241MD1999999+0081MW1171REMSYN076AAXX  30184 82986 31496 80506 10310 20209 39824 40105 71722 887// 333 58008;EQDQ01  00002PRCP06
0202829860999992004123100004-09400-038217FM-12+0252SBUF V0200901N002112200019N0020001N1+02761+02091101121ADDAY161061AY221061GF103991031001012501061001KA1240M+03171MA1999999098281MD1999999-0241MW1021REMSYN100AAXX  31004 82986 21695 30904 10276 20209 39828 40112 70262 83060 333 10317 29070 55019 59024 60011;
0162829860999992004123112004-09400-038217FM-12+0252SBUF V0200901N003112200019N0100001N1+02801+02001101341ADDGF105991031041004501001011KA1240N+02321MA1999999098521MD1999999-0101REMSYN082AAXX  31124 82986 22497 50906 10280 20200 39852 40134 83401 333 20232 59010 60014;
0167829860999992004123118004-09400-038217FM-12+0252SBUF V0201401N003110450019N0200001N1+03391+01751100941ADDAA106000091GF106991041021008001031001MA1999999098141MD1999999-0101REMSYN070AAXX  31184 82986 32598 61406 10339 20175 39814 40094 84230 333 59010;EQDQ01  00002PRCP06
