0208829830999992004010100004-09383-040483FM-12+037099999V0201401N001512200019N0020001N1+02961+01611101001ADDAA106000091GA1001+999999999GF100991001001999999001001KA1240M+03281MA1999999096891MD1999999+0031REMSYN082AAXX  01004 82983 32995 01403 10296 20161 39689 40100 333 10328 29050 55032 58003;EQDQ01  00002PRCP06
0186829830999992004010112004-09383-040483FM-12+037099999V0201401N002610075019N0020001N1+02581+01851101341ADDAA106000091GF106991061061008001001001KA1240N+02581MA1999999097221MD1999999+0011REMSYN076AAXX  01124 82983 32595 61405 10258 20185 39722 40134 86600 333 20258 58001;EQDQ01  00002PRCP06
0167829830999992004010118004-09383-040483FM-12+037099999V0200901N001510450019N0020001N1+03341+01751100801ADDAA106000091GF106991041011008001021011MA1999999096701MD1999999+0011REMSYN070AAXX  01184 82983 32595 60903 10334 20175 39670 40080 84121 333 58001;EQDQ01  00002PRCP06
0198829830999992004010200004-09383-040483FM-12+037099999V0209999C000012200019N0020001N1+02981+01861100821ADDAA106000091GF102991021011008001001001KA1240M+03481MA1999999096741MD1999999-0151REMSYN088AAXX  02004 82983 32595 20000 10298 20186 39674 40082 82100 333 10348 29051 55079 59015;EQDQ01  00002PRCP06
0186829830999992004010212004-09383-040483FM-12+037099999V0200901N003112200019N0020001N1+02861+01981101041ADDAA106000091GF103991021011008001021011KA1240N+02521MA1999999097041MD1999999-0181REMSYN076AAXX  02124 82983 32595 30906 10286 20198 39704 40104 82121 333 20252 59018;EQDQ01  00002PRCP06
0167829830999992004010218004-09383-040483FM-12+037099999V0209999C000010450019N0020001N1+03461+01231100571ADDAA106000091GF106991021011008001021011MA1999999096521MD1999999-0181REMSYN070AAXX  02184 82983 32595 60000 10346 20123 39652 40057 82121 333 59018;EQDQ01  00002PRCP06
0198829830999992004010300004-09383-040483FM-12+037099999V0209999C000010075019N0020001N1+03121+02001100731ADDAA106000091GF106991061021008001001001KA1240M+03541MA1999999096671MD1999999-0071REMSYN088AAXX  03004 82983 32595 60000 10312 20200 39667 40073 86200 333 10354 29047 55093 59007;EQDQ01  00002PRCP06
0186829830999992004010312004-09383-040483FM-12+037099999V0201401N003110075019N0020001N1+02821+02101101081ADDAA106000091GF106991061021008001001001KA1240N+02541MA1999999097001MD1999999-0041REMSYN076AAXX  03124 82983 32595 61406 10282 20210 39700 40108 86200 333 20254 59004;EQDQ01  00002PRCP06
0167829830999992004010318004-09383-040483FM-12+037099999V0201401N003110075019N0020001N1+03541+01891100491ADDAA106000091GF106991061021008001001001MA1999999096441MD1999999-0081REMSYN070AAXX  03184 82983 32595 61406 10354 20189 39644 40049 86200 333 59008;EQDQ01  00002PRCP06
0202829830999992004010400004-09383-040483FM-12+037099999V0201801N002610075019N0020001N1+02761+02041100761ADDAY151061AY261061GF106991061021008001001001KA1240M+03601MA1999999096681MD1999999+0011MW1031REMSYN100AAXX  04004 82983 21595 61805 10276 20204 39668 40076 70356 86200 333 10360 29058 55085 58001 60061;
0162829830999992004010412004-09383-040483FM-12+037099999V0200901N003110075019N0020001N1+02681+02041101121ADDGF108991081051008001999999KA1240N+02541MA1999999096991MD1999999-0011REMSYN082AAXX  04124 82983 22595 80906 10268 20204 39699 40112 885// 333 20254 59001 60064;
0198829830999992004010500004-09383-040483FM-12+037099999V0201401N001012200019N0020001N1+03101+01771100711ADDAA106000091GF104991041011008001001001KA1240M+03401MA1999999096631MD1999999-0051REMSYN088AAXX  05004 82983 32595 41402 10310 20177 39663 40071 84100 333 10340 29050 55079 59005;EQDQ01  00002PRCP06
0186829830999992004010512004-09383-040483FM-12+037099999V0200901N003110075019N0020001N1+02601+01841101171ADDAA106000091GF106991061021008001001001KA1240N+02401MA1999999097071MD1999999+0081REMSYN076AAXX  05124 82983 32595 60906 10260 20184 39707 40117 86200 333 20240 58008;EQDQ01  00002PRCP06
0167829830999992004010518004-09383-040483FM-12+037099999V0201401N002612200019N0020001N1+03361+01691100661ADDAA106000091GF104991041011008001001001MA1999999096601MD1999999+0051REMSYN070AAXX  05184 82983 32595 41405 10336 20169 39660 40066 84100 333 58005;EQDQ01  00002PRCP06
0198829830999992004010600004-09383-040483FM-12+037099999V0201401N001512200019N0020001N1+03101+01541100731ADDAA106000091GF103991031011008001001001KA1240M+03461MA1999999096651MD1999999+0021REMSYN088AAXX  06004 82983 32595 31403 10310 20154 39665 40073 83100 333 10346 29044 55081 58002;EQDQ01  00002PRCP06
0186829830999992004010612004-09383-040483FM-12+037099999V0201401N004110075019N0020001N1+02561+01701101301ADDAA106000091GF105991051011008001001001KA1240N+02341MA1999999097191MD1999999+0121REMSYN076AAXX  06124 82983 32595 51408 10256 20170 39719 40130 85100 333 20234 58012;EQDQ01  00002PRCP06
0167829830999992004010618004-09383-040483FM-12+037099999V0201401N004112200019N0020001N1+03421+01361100801ADDAA106000091GF101991011011008001001001MA1999999096721MD1999999+0121REMSYN070AAXX  06184 82983 32595 11408 10342 20136 39672 40080 81100 333 58012;EQDQ01  00002PRCP06
0198829830999992004010700004-09383-040483FM-12+037099999V0201401N002612200019N0020001N1+03041+01281100841ADDAA106000091GF101991011011008001001001KA1240M+03501MA1999999096751MD1999999+0101REMSYN088AAXX  07004 82983 32595 11405 10304 20128 39675 40084 81100 333 10350 29039 55110 58010;EQDQ01  00002PRCP06
0186829830999992004010712004-09383-040483FM-12+037099999V0201401N003110075019N0020001N1+02701+01801101281ADDAA106000091GF106991061011008001001001KA1240N+02381MA1999999097171MD1999999-0021REMSYN076AAXX  07124 82983 32595 61406 10270 20180 39717 40128 86100 333 20238 59002;EQDQ01  00002PRCP06
0167829830999992004010718004-09383-040483FM-12+037099999V0201401N002612200019N0020001N1+03261+01761100821ADDAA106000091GF104991041011008001001001MA1999999096741MD1999999+0021REMSYN070AAXX  07184 82983 32595 41405 10326 20176 39674 40082 84100 333 58002;EQDQ01  00002PRCP06
0198829830999992004010800004-09383-040483FM-12+037099999V0201401N003110075019N0020001N1+03081+01681100891ADDAA106000091GF106991061021008001001001KA1240M+03541MA1999999096801MD1999999+0051REMSYN088AAXX  08004 82983 32595 61406 10308 20168 39680 40089 86200 333 10354 29046 55095 58005;EQDQ01  00002PRCP06
0195829830999992004010812004-09383-040483FM-12+037099999V0201401N004110075019N0020001N1+02661+01871999999ADDAA106000091GF106991061021008001001001KA1240N+02421MA1999999097111MD1999999-0061ME1101119REMSYN076AAXX  08124 82983 32595 61408 10266 20187 39711 41111 86200 333 20242 59006;EQDQ01  00002PRCP06
0167829830999992004010818004-09383-040483FM-12+037099999V0201401N002610450019N0020001N1+02441+01721100661ADDAA106000091GF106991041011008001021011MA1999999096601MD1999999-0141REMSYN070AAXX  08184 82983 32595 61405 10244 20172 39660 40066 84121 333 59014;EQDQ01  00002PRCP06
0198829830999992004010900004-09383-040483FM-12+037099999V0209999C000012200019N0020001N1+02981+01921100791ADDAA106000091GF102991021011008001001001KA1240M+03561MA1999999096691MD1999999-0111REMSYN088AAXX  09004 82983 32595 20000 10298 20192 39669 40079 82100 333 10356 29051 55095 59011;EQDQ01  00002PRCP06
0186829830999992004010912004-09383-040483FM-12+037099999V0201401N003110075019N0020001N1+02721+01931101081ADDAA106000091GF108991081051008001999999KA1240N+02481MA1999999096981MD1999999-0131REMSYN076AAXX  09124 82983 32595 81406 10272 20193 39698 40108 885// 333 20248 59013;EQDQ01  00002PRCP06
0167829830999992004010918004-09383-040483FM-12+037099999V0201401N001512200019N0020001N1+03421+01871100571ADDAA106000091GF104991041011008001001001MA1999999096521MD1999999-0081REMSYN070AAXX  09184 82983 32595 41403 10342 20187 39652 40057 84100 333 59008;EQDQ01  00002PRCP06
0198829830999992004011000004-09383-040483FM-12+037099999V0201401N002610075019N0020001N1+03161+01861100711ADDAA106000091GF106991061021008001001001KA1240M+03541MA1999999096641MD1999999-0051REMSYN088AAXX  10004 82983 32595 61405 10316 20186 39664 40071 86200 333 10354 29048 55088 59005;EQDQ01  00002PRCP06
0186829830999992004011012004-09383-040483FM-12+037099999V0201401N003110075019N0020001N1+02761+01911100961ADDAA106000091GF107991071061008001001001KA1240N+02581MA1999999096881MD1999999-0101REMSYN076AAXX  10124 82983 32595 71406 10276 20191 39688 40096 87600 333 20258 59010;EQDQ01  00002PRCP06
0167829830999992004011018004-09383-040483FM-12+037099999V0203201N002611050019N0020001N1+03241+01781100531ADDAA106000091GF106991041011008001001021MA1999999096481MD1999999-0041REMSYN070AAXX  10184 82983 32595 63205 10324 20178 39648 40053 84102 333 59004;EQDQ01  00002PRCP06
0198829830999992004011100004-09383-040483FM-12+037099999V0202301N001510075019N0020001N1+02841+02041100781ADDAA106000091GF106991061061008001001001KA1240M+03361MA1999999096701MD1999999-0061REMSYN088AAXX  11004 82983 32595 62303 10284 20204 39670 40078 86600 333 10336 29056 55037 59006;EQDQ01  00002PRCP06
0190829830999992004011112004-09383-040483FM-12+037099999V0209999C000010075019N0020001N1+02361+02131101271ADDAY151061AY261061GF108991081061008001999999KA1240N+02201MA1999999097131MD1999999+0251MW1511REMSYN088AAXX  11124 82983 21595 80000 10236 20213 39713 40127 75156 886// 333 20220 58025 60394;
0171829830999992004011118004-09383-040483FM-12+037099999V0200901N001510075019N0020001N1+02681+02181101051ADDAY121061AY251061GF108991081021008001999999MA1999999096891MD1999999-0411MW1021REMSYN082AAXX  11184 82983 21595 80903 10268 20218 39689 40105 70225 882// 333 59041 69921;
0198829830999992004011200004-09383-040483FM-12+037099999V0209999C000010120019N0020001N1+02641+02181101211ADDAA106000091GF108991081081008001999999KA1240M+02921MA1999999097041MD1999999+0341REMSYN088AAXX  12004 82983 32595 80000 10264 20218 39704 40121 888// 333 10292 29078 55007 58034;EQDQ01  00002PRCP06
0162829830999992004011212004-09383-040483FM-12+037099999V0200501N001510450019N0020001N1+02621+02161101321ADDGF106991041011008001021001KA1240N+02341MA1999999097181MD1999999+0051REMSYN082AAXX  12124 82983 22595 60503 10262 20216 39718 40132 84120 333 20234 58005 69944;
0167829830999992004011218004-09383-040483FM-12+037099999V0200901N001510450019N0020001N1+03081+02191100871ADDAA106000091GF106991041011008001021001MA1999999096771MD1999999-0121REMSYN070AAXX  12184 82983 32595 60903 10308 20219 39677 40087 84120 333 59012;EQDQ01  00002PRCP06
0198829830999992004011300004-09383-040483FM-12+037099999V0202701N001510075019N0020001N1+02561+02231101181ADDAA106000091GF106991061021008001001001KA1240M+03161MA1999999097041MD1999999+0001REMSYN088AAXX  13004 82983 32595 62703 10256 20223 39704 40118 86200 333 10316 29074 55036 58000;EQDQ01  00002PRCP06
0190829830999992004011312004-09383-040483FM-12+037099999V0201801N001010450019N0020001N1+02561+02251101201ADDAY151061AY261061GF106991041011008001071001KA1240N+02401MA1999999097061MD1999999-0121MW1031REMSYN088AAXX  13124 82983 21595 61802 10256 20225 39706 40120 70356 84170 333 20240 59012 60024;
0167829830999992004011318004-09383-040483FM-12+037099999V0201401N001510450019N0020001N1+03121+02221100701ADDAA106000091GF106991041021008001021001MA1999999096601MD1999999-0171REMSYN070AAXX  13184 82983 32595 61403 10312 20222 39660 40070 84220 333 59017;EQDQ01  00002PRCP06
0198829830999992004011400004-09383-040483FM-12+037099999V0200901N001010075019N0020001N1+02861+02211100901ADDAA106000091GF105991051011008001001001KA1240M+03201MA1999999096781MD1999999-0261REMSYN088AAXX  14004 82983 32595 50902 10286 20221 39678 40090 85100 333 10320 29070 55052 59026;EQDQ01  00002PRCP06
0190829830999992004011412004-09383-040483FM-12+037099999V0200901N001010120019N0020001N1+02281+02161101401ADDAY151061AY261061GF108991081081008001999999KA1240N+02241MA1999999097241MD1999999+0181MW1611REMSYN088AAXX  14124 82983 21595 80902 10228 20216 39724 40140 76156 888// 333 20224 58018 60834;
0171829830999992004011418004-09383-040483FM-12+037099999V0203601N002610075019N0020001N1+02461+02171100991ADDAY151061AY261061GF107991051021008001011011MA1999999096831MD1999999+0231MW1031REMSYN082AAXX  14184 82983 21595 73605 10246 20217 39683 40099 70356 85211 333 58023 60051;
0198829830999992004011500004-09383-040483FM-12+037099999V0209999C000010075019N0020001N1+02421+02171101131ADDAA106000091GF108991081061008001999999KA1240M+02881MA1999999096951MD1999999+0171REMSYN088AAXX  15004 82983 32595 80000 10242 20217 39695 40113 886// 333 10288 29087 55001 58017;EQDQ01  00002PRCP06
0190829830999992004011512004-09383-040483FM-12+037099999V0203201N001510075019N0020001N1+02541+02151101161ADDAY121061AY261061GF107991071051008001001001KA1240N+02301MA1999999097011MD1999999-0231MW1031REMSYN088AAXX  15124 82983 21595 73203 10254 20215 39701 40116 70326 87500 333 20230 59023 60074;
0167829830999992004011518004-09383-040483FM-12+037099999V0203201N001510075019N0020001N1+03041+02201100771ADDAA106000091GF105991051011008001001001MA1999999096561MD1999999-0271REMSYN070AAXX  15184 82983 32595 53203 10304 20220 39656 40077 85100 333 59027;EQDQ01  00002PRCP06
0198829830999992004011600004-09383-040483FM-12+037099999V0200501N001510075019N0020001N1+02521+02211100931ADDAA106000091GF107991071021008001001001KA1240M+03141MA1999999096791MD1999999-0161REMSYN088AAXX  16004 82983 32595 70503 10252 20221 39679 40093 87200 333 10314 29076 55023 59016;EQDQ01  00002PRCP06
0190829830999992004011612004-09383-040483FM-12+037099999V0200901N001010075019N0020001N1+02621+02311101021ADDAY151061AY261061GF108991081061008001999999KA1240N+02401MA1999999096881MD1999999-0131MW1031REMSYN088AAXX  16124 82983 21595 80902 10262 20231 39688 40102 70356 886// 333 20240 59013 60014;
0167829830999992004011618004-09383-040483FM-12+037099999V0203201N002610450019N0020001N1+03061+02251100571ADDAA106000091GF106991021011008001071021MA1999999096481MD1999999-0081REMSYN070AAXX  16184 82983 32595 63205 10306 20225 39648 40057 82172 333 59008;EQDQ01  00002PRCP06
0202829830999992004011700004-09383-040483FM-12+037099999V0203601N005710075019N0020001N1+02441+02091101001ADDAY161061AY211061GF108991081061008001999999KA1240M+03141MA1999999096861MD1999999+0071MW1121REMSYN100AAXX  17004 82983 21595 83611 10244 20209 39686 40100 71261 886// 333 10314 29077 55040 58007 69961;
0190829830999992004011712004-09383-040483FM-12+037099999V0203601N003110075019N0020001N1+02381+02241101141ADDAY151061AY261061GF108991081051008001999999KA1240N+02261MA1999999096971MD1999999+0091MW1031REMSYN088AAXX  17124 82983 21595 83606 10238 20224 39697 40114 70356 885// 333 20226 58009 60204;
0167829830999992004011718004-09383-040483FM-12+037099999V0203201N002610450019N0020001N1+02661+02371100731ADDAA106000091GF105991021011008001021001MA1999999096591MD1999999+0111REMSYN070AAXX  17184 82983 32595 53205 10266 20237 39659 40073 82120 333 58011;EQDQ01  00002PRCP06
0198829830999992004011800004-09383-040483FM-12+037099999V0203601N001510075019N0020001N1+02641+02311100951ADDAA106000091GF106991061021008001001001KA1240M+02941MA1999999096801MD1999999-0061REMSYN088AAXX  18004 82983 32595 63603 10264 20231 39680 40095 86200 333 10294 29085 55038 59006;EQDQ01  00002PRCP06
0190829830999992004011812004-09383-040483FM-12+037099999V0202701N003110075019N0020001N1+02341+02111101211ADDAY151061AY261061GF108991081051008001999999KA1240N+02281MA1999999097061MD1999999+0091MW1201REMSYN088AAXX  18124 82983 21595 82706 10234 20211 39706 40121 72056 885// 333 20228 58009 60104;
0202829830999992004011900004-09383-040483FM-12+037099999V0200501N001510075019N0020001N1+02241+02201101201ADDAY151061AY261061GF108991081061008001999999KA1240M+02921MA1999999097021MD1999999+0221MW1511REMSYN100AAXX  19004 82983 21595 80503 10224 20220 39702 40120 75156 886// 333 10292 29089 55000 58022 60031;
0190829830999992004011912004-09383-040483FM-12+037099999V0203601N001510075019N0020001N1+02421+02231101201ADDAY151061AY261061GF108991081061008001999999KA1240N+02321MA1999999097031MD1999999-0031MW1511REMSYN088AAXX  19124 82983 21595 83603 10242 20223 39703 40120 75156 886// 333 20232 59003 60094;
0148829830999992004011918004-09383-040483FM-12+037099999V0203201N003110075019N0020001N1+02801+02111100771ADDAA106000021GF108991081021008001999999MA1999999096641MD1999999-0201REMSYN070AAXX  19184 82983 32595 83206 10280 20211 39664 40077 882// 333 59020;
0202829830999992004012000004-09383-040483FM-12+037099999V0201401N001510075019N0020001N1+02221+02171101151ADDAY151061AY261061GF108991081061008001999999KA1240M+02841MA1999999096971MD1999999-0051MW1631REMSYN100AAXX  20004 82983 21595 81403 10222 20217 39697 40115 76356 886// 333 10284 29087 55005 59005 60181;
0190829830999992004012012004-09383-040483FM-12+037099999V0202301N001010075019N0020001N1+02161+02081101291ADDAY151061AY261061GF108991081061008001999999KA1240N+02161MA1999999097091MD1999999+0061MW1611REMSYN088AAXX  20124 82983 21595 82302 10216 20208 39709 40129 76156 886// 333 20216 58006 60374;
0171829830999992004012018004-09383-040483FM-12+037099999V0202701N004110075019N0020001N1+02201+02181101041ADDAY151061AY261061GF108991081061008001999999MA1999999096821MD1999999+0181MW1611REMSYN082AAXX  20184 82983 21595 82708 10220 20218 39682 40104 76156 886// 333 58018 60071;
0202829830999992004012100004-09383-040483FM-12+037099999V0203601N001010075019N0020001N1+02341+02221101121ADDAY151061AY261061GF106991061021008001001001KA1240M+02701MA1999999096931MD1999999-0041MW1021REMSYN100AAXX  21004 82983 21595 63602 10234 20222 39693 40112 70256 86200 333 10270 29095 55001 59004 60051;
0190829830999992004012112004-09383-040483FM-12+037099999V0203601N001510075019N0020001N1+02301+02111101231ADDAY151061AY261061GF106991061021008001001001KA1240N+02161MA1999999097051MD1999999-0041MW1011REMSYN088AAXX  21124 82983 21595 63603 10230 20211 39705 40123 70156 86200 333 20216 59004 60374;
0167829830999992004012118004-09383-040483FM-12+037099999V0201801N002610075019N0020001N1+02661+02271100911ADDAA106000091GF108991081061008001999999MA1999999096751MD1999999-0071REMSYN070AAXX  21184 82983 32595 81805 10266 20227 39675 40091 886// 333 59007;EQDQ01  00002PRCP06
0198829830999992004012200004-09383-040483FM-12+037099999V0203601N001510075019N0020001N1+02401+02231101111ADDAA106000091GF105991051021008001001001KA1240M+02841MA1999999096941MD1999999+0011REMSYN088AAXX  22004 82983 32595 53603 10240 20223 39694 40111 85200 333 10284 29088 55000 58001;EQDQ01  00002PRCP06
0186829830999992004012212004-09383-040483FM-12+037099999V0203201N001010075019N0020001N1+02501+02131101081ADDAA106000091GF108991081061008001999999KA1240N+02261MA1999999096921MD1999999-0131REMSYN076AAXX  22124 82983 32595 83202 10250 20213 39692 40108 886// 333 20226 59013;EQDQ01  00002PRCP06
0221829830999992004012300004-09383-040483FM-12+037099999V0203201N001010075019N0020001N1+02381+02211100791ADDAY151061AY261061GF108991999021008001001001KA1240M+03101MA1999999096651MD1999999-0291MW1011REMSYN100AAXX  23004 82983 21595 83202 10238 20221 39665 40079 70156 86200 333 10310 29080 55051 59029 60361;EQDQ01+000062SCOTLC
0190829830999992004012312004-09383-040483FM-12+037099999V0201401N001510075019N0020001N1+02381+02191101101ADDAY151061AY261061GF108991081051008001999999KA1240N+02241MA1999999096941MD1999999+0021MW1031REMSYN088AAXX  23124 82983 21595 81403 10238 20219 39694 40110 70356 885// 333 20224 58002 60474;
0171829830999992004012318004-09383-040483FM-12+037099999V0203601N003110075019N0020001N1+02601+02191100821ADDAY151061AY261061GF108991081071008001999999MA1999999096671MD1999999+0191MW1031REMSYN082AAXX  23184 82983 21595 83606 10260 20219 39667 40082 70356 887// 333 58019 60041;
0202829830999992004012400004-09383-040483FM-12+037099999V0200501N003110075019N0020001N1+02341+02201101041ADDAY151061AY261061GF107991071021008001001001KA1240M+02841MA1999999096871MD1999999+0221MW1011REMSYN100AAXX  24004 82983 21595 70506 10234 20220 39687 40104 70156 87200 333 10284 29080 55013 58022 60061;
0190829830999992004012412004-09383-040483FM-12+037099999V0200901N001510075019N0020001N1+02361+02191101301ADDAY151061AY261061GF108991081051008001999999KA1240N+02241MA1999999097121MD1999999+0181MW1511REMSYN088AAXX  24124 82983 21595 80903 10236 20219 39712 40130 75156 885// 333 20224 58018 60444;
0148829830999992004012418004-09383-040483FM-12+037099999V0203601N001510075019N0020001N1+02821+02201100881ADDAA106000021GF106991061021008001021001MA1999999096741MD1999999-0071REMSYN070AAXX  24184 82983 32595 63603 10282 20220 39674 40088 86220 333 59007;
0198829830999992004012500004-09383-040483FM-12+037099999V0202701N001010075019N0020001N1+02401+02231101161ADDAA106000091GF106991061021008001001001KA1240M+02961MA1999999096991MD1999999+0121REMSYN088AAXX  25004 82983 32595 62702 10240 20223 39699 40116 86200 333 10296 29084 55019 58012;EQDQ01  00002PRCP06
0186829830999992004012512004-09383-040483FM-12+037099999V0200901N002610075019N0020001N1+02521+02151101331ADDAA106000091GF107991071041008001001001KA1240N+02281MA1999999097161MD1999999+0041REMSYN076AAXX  25124 82983 32595 70905 10252 20215 39716 40133 87400 333 20228 58004;EQDQ01  00002PRCP06
0167829830999992004012518004-09383-040483FM-12+037099999V0200901N002610075019N0020001N1+03021+02101100821ADDAA106000091GF106991061031008001001001MA1999999096701MD1999999-0041REMSYN070AAXX  25184 82983 32595 60905 10302 20210 39670 40082 86300 333 59004;EQDQ01  00002PRCP06
0198829830999992004012600004-09383-040483FM-12+037099999V0203601N001510075019N0020001N1+02661+02161101051ADDAA106000091GF106991061031008001001001KA1240M+03081MA1999999096921MD1999999-0071REMSYN088AAXX  26004 82983 32595 63603 10266 20216 39692 40105 86300 333 10308 29072 55000 59007;EQDQ01  00002PRCP06
0190829830999992004012612004-09383-040483FM-12+037099999V0201401N003110075019N0020001N1+02461+02031101271ADDAY151061AY261061GF107991071061008001001001KA1240N+02181MA1999999097131MD1999999-0031MW1011REMSYN088AAXX  26124 82983 21595 71406 10246 20203 39713 40127 70156 87600 333 20218 59003 60124;
0167829830999992004012618004-09383-040483FM-12+037099999V0201401N002610450019N0020001N1+02941+02031100841ADDAA106000091GF106991041061008001021001MA1999999096721MD1999999+0021REMSYN070AAXX  26184 82983 32595 61405 10294 20203 39672 40084 84620 333 58002;EQDQ01  00002PRCP06
0198829830999992004012700004-09383-040483FM-12+037099999V0201401N001510075019N0020001N1+02741+02141101011ADDAA106000091GF106991061041008001001001KA1240M+03061MA1999999096881MD1999999-0041REMSYN088AAXX  27004 82983 32595 61403 10274 20214 39688 40101 86400 333 10306 29069 55/// 59004;EQDQ01  00002PRCP06
0186829830999992004012712004-09383-040483FM-12+037099999V0201401N003110075019N0020001N1+02581+02041101241ADDAA106000091GF106991061021008001001001KA1240N+02361MA1999999097101MD1999999-0031REMSYN076AAXX  27124 82983 32595 61406 10258 20204 39710 40124 86200 333 20236 59003;EQDQ01  00002PRCP06
0167829830999992004012718004-09383-040483FM-12+037099999V0201801N003110075019N0020001N1+02941+02141100901ADDAA106000091GF106991061011008001001001MA1999999096781MD1999999-0061REMSYN070AAXX  27184 82983 32595 61806 10294 20214 39678 40090 86100 333 59006;EQDQ01  00002PRCP06
0198829830999992004012800004-09383-040483FM-12+037099999V0201401N003110075019N0020001N1+02781+02041101081ADDAA106000091GF106991061051008001001001KA1240M+03161MA1999999096951MD1999999+0071REMSYN088AAXX  28004 82983 32595 61406 10278 20204 39695 40108 86500 333 10316 29066 55/// 58007;EQDQ01  00002PRCP06
0190829830999992004012812004-09383-040483FM-12+037099999V0200901N001510075019N0020001N1+02461+02131101351ADDAY121061AY251061GF107991071021008001001001KA1240N+02261MA1999999097201MD1999999+0101MW1011REMSYN088AAXX  28124 82983 21595 70903 10246 20213 39720 40135 70125 87200 333 20226 58010 69984;
0171829830999992004012818004-09383-040483FM-12+037099999V0203601N001512200019N0020001N1+02861+02211100951ADDAY151061AY261061GF105991031021008001001011MA1999999096821MD1999999+0041MW1011REMSYN082AAXX  28184 82983 21595 53603 10286 20221 39682 40095 70156 83201 333 58004 60021;
0198829830999992004012900004-09383-040483FM-12+037099999V0200901N002610075019N0020001N1+02601+02211101121ADDAA106000091GF106991061021008001001001KA1240M+03001MA1999999096981MD1999999+0031REMSYN088AAXX  29004 82983 32595 60905 10260 20221 39698 40112 86200 333 10300 29077 55/// 58003;EQDQ01  00002PRCP06
0162829830999992004012912004-09383-040483FM-12+037099999V0200901N003110075019N0020001N1+02521+02021101331ADDGF106991061021008001001001KA1240N+02321MA1999999097171MD1999999-0031REMSYN082AAXX  29124 82983 22595 60906 10252 20202 39717 40133 86200 333 20232 59003 60024;
0171829830999992004012918004-09383-040483FM-12+037099999V0200901N002610075019N0020001N1+02961+02051100901ADDAY121061AY251061GF106991061031008001001001MA1999999096781MD1999999-0041MW1011REMSYN082AAXX  29184 82983 21595 60905 10296 20205 39678 40090 70125 86300 333 59004 69921;
0202829830999992004013000004-09383-040483FM-12+037099999V0203601N002610075019N0020001N1+02221+02081101351ADDAY121061AY251061GF108991081051008001999999KA1240M+03081MA1999999097171MD1999999+0191MW1631REMSYN100AAXX  30004 82983 21595 83605 10222 20208 39717 40135 76325 885// 333 10308 29079 55/// 58019 60071;
0190829830999992004013012004-09383-040483FM-12+037099999V0201401N001510075019N0020001N1+02361+02071101391ADDAY151061AY261061GF108991081021008001999999KA1240N+02141MA1999999097201MD1999999+0031MW1011REMSYN088AAXX  30124 82983 21595 81403 10236 20207 39720 40139 70156 882// 333 20214 58003 60724;
0167829830999992004013018004-09383-040483FM-12+037099999V0200901N001510075019N0020001N1+02841+01991100991ADDAA106000091GF106991061021008001001001MA1999999096841MD1999999+0061REMSYN070AAXX  30184 82983 32595 60903 10284 20199 39684 40099 86200 333 58006;EQDQ01  00002PRCP06
0198829830999992004013100004-09383-040483FM-12+037099999V0201401N001512200019N0020001N1+02481+02151101251ADDAA106000091GF103991031011008001001001KA1240M+02961MA1999999097081MD1999999-0091REMSYN088AAXX  31004 82983 32595 31403 10248 20215 39708 40125 83100 333 10296 29077 55/// 59009;EQDQ01  00002PRCP06
0186829830999992004013112004-09383-040483FM-12+037099999V0201401N003110075019N0020001N1+02561+02151101381ADDAA106000091GF108991081051008001999999KA1240N+02321MA1999999097221MD1999999+0021REMSYN076AAXX  31124 82983 32595 81406 10256 20215 39722 40138 885// 333 20232 58002;EQDQ01  00002PRCP06
0167829830999992004013118004-09383-040483FM-12+037099999V0201401N002610075019N0020001N1+02861+02281101001ADDAA106000091GF108991081051008001999999MA1999999096851MD1999999+0011REMSYN070AAXX  31184 82983 32595 81405 10286 20228 39685 40100 885// 333 58001;EQDQ01  00002PRCP06
0198829830999992004020100004-09383-040483FM-12+037099999V0200901N002610075019N0020001N1+02561+02111101281ADDAA106000091GF108991081061008001999999KA1240M+03081MA1999999097141MD1999999+0061REMSYN088AAXX  01004 82983 32595 80905 10256 20211 39714 40128 886// 333 10308 29075 55/// 58006;EQDQ01  00002PRCP06
0190829830999992004020112004-09383-040483FM-12+037099999V0201401N002610075019N0020001N1+02541+02021101421ADDAY151061AY261061GF106991061021008001001001KA1240N+02361MA1999999097361MD1999999+0141MW1011REMSYN088AAXX  01124 82983 21595 61405 10254 20202 39736 40142 70156 86200 333 20236 58014 60044;
0167829830999992004020118004-09383-040483FM-12+037099999V0200801N001510075019N0150001N1+03021+02021101071ADDAA106000091GF106991061021008001001001MA1999999096941MD1999999+0091REMSYN070AAXX  01184 82983 32565 60803 10302 20202 39694 40107 86200 333 58009;EQDQ01  00002PRCP06
0198829830999992004020200004-09383-040483FM-12+037099999V0201801N001512200019N0020001N1+02641+02091101231ADDAA106000091GF104991041021008001001001KA1240M+03101MA1999999097091MD1999999-0051REMSYN088AAXX  02004 82983 32595 41803 10264 20209 39709 40123 84200 333 10310 29068 55/// 59005;EQDQ01  00002PRCP06
0186829830999992004020212004-09383-040483FM-12+037099999V0200901N002610075019N0020001N1+02401+02211101341ADDAA106000091GF106991061021008001001001KA1240N+02381MA1999999097181MD1999999-0181REMSYN076AAXX  02124 82983 32595 60905 10240 20221 39718 40134 86200 333 20238 59018;EQDQ01  00002PRCP06
0167829830999992004020218004-09383-040483FM-12+037099999V0200901N001510075019N0020001N1+02901+02221100921ADDAA106000091GF106991061021008001001001MA1999999096781MD1999999-0161REMSYN070AAXX  02184 82983 32595 60903 10290 20222 39678 40092 86200 333 59016;EQDQ01  00002PRCP06
0202829830999992004020300004-09383-040483FM-12+037099999V0200901N002610075019N0020001N1+02501+02211101191ADDAY111061AY221061GF108991081051008001999999KA1240M+03021MA1999999097031MD1999999-0061MW1501REMSYN100AAXX  03004 82983 21595 80905 10250 20221 39703 40119 75012 885// 333 10302 29081 55/// 59006 69921;
0190829830999992004020312004-09383-040483FM-12+037099999V0200901N001510075019N0020001N1+02161+01951101411ADDAY151061AY261061GF108991081061008001999999KA1240N+02101MA1999999097231MD1999999+0051MW1031REMSYN088AAXX  03124 82983 21595 80903 10216 20195 39723 40141 70356 886// 333 20210 58005 60534;
0167829830999992004020318004-09383-040483FM-12+037099999V0201401N002610075019N0020001N1+02941+01941100911ADDAA106000091GF106991061021008001001001MA1999999096781MD1999999+0001REMSYN070AAXX  03184 82983 32595 61405 10294 20194 39678 40091 86200 333 58000;EQDQ01  00002PRCP06
0198829830999992004020400004-09383-040483FM-12+037099999V0201401N002610075019N0020001N1+02621+02031101131ADDAA106000091GF106991061061008001001001KA1240M+03041MA1999999096961MD1999999-0071REMSYN088AAXX  04004 82983 32595 61405 10262 20203 39696 40113 86600 333 10304 29071 55/// 59007;EQDQ01  00002PRCP06
0186829830999992004020412004-09383-040483FM-12+037099999V0200901N002610075019N0020001N1+02561+02041101321ADDAA106000091GF105991051011008001001001KA1240N+02341MA1999999097231MD1999999+0001REMSYN076AAXX  04124 82983 32595 50905 10256 20204 39723 40132 85100 333 20234 58000;EQDQ01  00002PRCP06
0167829830999992004020418004-09383-040483FM-12+037099999V0201401N002610075019N0020001N1+02941+01941100911ADDAA106000091GF105991051011008001001001MA1999999096791MD1999999+0011REMSYN070AAXX  04184 82983 32595 51405 10294 20194 39679 40091 85100 333 58001;EQDQ01  00002PRCP06
0198829830999992004020500004-09383-040483FM-12+037099999V0201401N001512200019N0020001N1+02681+02091101071ADDAA106000091GF102991021011008001001001KA1240M+03121MA1999999096941MD1999999-0021REMSYN088AAXX  05004 82983 32595 21403 10268 20209 39694 40107 82100 333 10312 29067 55/// 59002;EQDQ01  00002PRCP06
0186829830999992004020512004-09383-040483FM-12+037099999V0200901N003112200019N0020001N1+02661+02091101181ADDAA106000091GF104991041011008001001001KA1240N+02341MA1999999097081MD1999999-0151REMSYN076AAXX  05124 82983 32595 40906 10266 20209 39708 40118 84100 333 20234 59015;EQDQ01  00002PRCP06
0167829830999992004020518004-09383-040483FM-12+037099999V0201401N001510075019N0020001N1+03101+02001100771ADDAA106000091GF105991051011008001001001MA1999999096671MD1999999-0121REMSYN070AAXX  05184 82983 32595 51403 10310 20200 39667 40077 85100 333 59012;EQDQ01  00002PRCP06
0198829830999992004020600004-09383-040483FM-12+037099999V0200901N001512200019N0020001N1+02761+02121100991ADDAA106000091GF103991031011008001001001KA1240M+03221MA1999999096871MD1999999-0071REMSYN088AAXX  06004 82983 32595 30903 10276 20212 39687 40099 83100 333 10322 29064 55052 59007;EQDQ01  00002PRCP06
0190829830999992004020612004-09383-040483FM-12+037099999V0200501N001510450019N0020001N1+02501+02091102211ADDAY151061AY261061GF106991031011008001021001KA1240N+02241MA1999999097071MD1999999-0011MW1011REMSYN088AAXX  06124 82983 21595 60503 10250 20209 39707 40221 70156 83120 333 20224 59001 60074;
0183829830999992004020618004-09383-040483FM-12+037099999V0203601N002612200019N0020001N1+02961+02051100752ADDAA106000091GF104991021011008001021001MA1999999096641MD1999999-0031REMSYN070AAXX  06184 82983 32595 43605 10296 20205 39664 40075 82120 333 59003;EQDQ01+100753APOSLPQ02  00002PRCP06
0198829830999992004020700004-09383-040483FM-12+037099999V0200501N001510450019N0020001N1+02681+02171100911ADDAA106000091GF106991031011008001021001KA1240M+03081MA1999999096781MD1999999-0091REMSYN088AAXX  07004 82983 32595 60503 10268 20217 39678 40091 83120 333 10308 29070 55084 59009;EQDQ01  00002PRCP06
0186829830999992004020712004-09383-040483FM-12+037099999V0200901N001510075019N0020001N1+02601+02161101071ADDAA106000091GF106991061011008001001001KA1240N+02341MA1999999096941MD1999999-0131REMSYN076AAXX  07124 82983 32595 60903 10260 20216 39694 40107 86100 333 20234 59013;EQDQ01  00002PRCP06
0167829830999992004020718004-09383-040483FM-12+037099999V0200501N002612200019N0020001N1+03121+02051100671ADDAA106000091GF103991031011008001001001MA1999999096571MD1999999-0071REMSYN070AAXX  07184 82983 32595 30505 10312 20205 39657 40067 83100 333 59007;EQDQ01  00002PRCP06
0198829830999992004020800004-09383-040483FM-12+037099999V0202701N001510075019N0020001N1+02601+02231101041ADDAA106000091GF106991061021008001001001KA1240M+03201MA1999999096911MD1999999+0131REMSYN088AAXX  08004 82983 32595 62703 10260 20223 39691 40104 86200 333 10320 29072 55085 58013;EQDQ01  00002PRCP06
0190829830999992004020812004-09383-040483FM-12+037099999V0203601N003110075019N0020001N1+02361+02051101341ADDAY151061AY261061GF108991081071008001999999KA1240N+02381MA1999999097181MD1999999+0241MW1511REMSYN088AAXX  08124 82983 21595 83606 10236 20205 39718 40134 75156 887// 333 20238 58024 60014;
0171829830999992004020818004-09383-040483FM-12+037099999V0202701N001010075019N0020001N1+02441+02131101081ADDAY151061AY261061GF108991081061008001999999MA1999999096921MD1999999+0351MW1011REMSYN082AAXX  08184 82983 21595 82702 10244 20213 39692 40108 70156 886// 333 58035 60141;
0198829830999992004020900004-09383-040483FM-12+037099999V0201401N001010075019N0020001N1+02381+02211101301ADDAA106000091GF107991071061008001001001KA1240M+02661MA1999999097121MD1999999+0061REMSYN088AAXX  09004 82983 32595 71402 10238 20221 39712 40130 87600 333 10266 29086 55000 58006;EQDQ01  00002PRCP06
0190829830999992004020912004-09383-040483FM-12+037099999V0200401N001510075019N0020001N1+02341+02151101441ADDAY151061AY261061GF108991081061008001999999KA1240N+02321MA1999999097261MD1999999+0081MW1031REMSYN088AAXX  09124 82983 21595 80403 10234 20215 39726 40144 70356 886// 333 20232 58008 60164;
0171829830999992004020918004-09383-040483FM-12+037099999V0200501N001510450019N0020001N1+03021+02101100951ADDAY151061AY261061GF106991031011008001021001MA1999999096831MD1999999-0091MW1021REMSYN082AAXX  09184 82983 21595 60503 10302 20210 39683 40095 70256 83120 333 59009 60021;
0214829830999992004021000004-09383-040483FM-12+037099999V0202301N001512200019N0020001N1+02461+02271101201ADDAA106000091GF103991001001999999001011KA1240M+03161MA1999999097031MD1999999-0091REMSYN088AAXX  10004 82983 32595 32303 10246 20227 39703 40120 80001 333 10316 29081 55051 59009;EQDQ01+008002SCOLCBQ02  00002PRCP06
0162829830999992004021012004-09383-040483FM-12+037099999V0201401N002612200019N0020001N1+02601+02141101321ADDGF104991041011008001001001KA1240N+02301MA1999999097161MD1999999-0101REMSYN082AAXX  10124 82983 22595 41405 10260 20214 39716 40132 84100 333 20230 59010 60014;
0167829830999992004021018004-09383-040483FM-12+037099999V0200901N002610075019N0020001N1+03121+02021100891ADDAA106000091GF106991061011008001001001MA1999999096791MD1999999-0041REMSYN070AAXX  10184 82983 32595 60905 10312 20202 39679 40089 86100 333 59004;EQDQ01  00002PRCP06
0198829830999992004021100004-09383-040483FM-12+037099999V0201401N002612200019N0020001N1+02761+01971101161ADDAA106000091GF103991031011008001001001KA1240M+03201MA1999999097031MD1999999+0001REMSYN088AAXX  11004 82983 32595 31405 10276 20197 39703 40116 83100 333 10320 29064 55101 58000;EQDQ01  00002PRCP06
0186829830999992004021112004-09383-040483FM-12+037099999V0200901N004112200019N0020001N1+02541+01781101301ADDAA106000091GF102991011011008001001011KA1240N+02241MA1999999097161MD1999999+0001REMSYN076AAXX  11124 82983 32595 20908 10254 20178 39716 40130 81101 333 20224 58000;EQDQ01  00002PRCP06
0167829830999992004021118004-09383-040483FM-12+037099999V0201401N003110075019N0020001N1+03121+01791100981ADDAA106000091GF106991061011008001001001MA1999999096861MD1999999+0071REMSYN070AAXX  11184 82983 32595 61406 10312 20179 39686 40098 86100 333 58007;EQDQ01  00002PRCP06
0198829830999992004021200004-09383-040483FM-12+037099999V0201401N002612200019N0020001N1+02741+01871101191ADDAA106000091GF102991021011008001001001KA1240M+03161MA1999999097051MD1999999+0021REMSYN088AAXX  12004 82983 32595 21405 10274 20187 39705 40119 82100 333 10316 29056 55117 58002;EQDQ01  00002PRCP06
0186829830999992004021212004-09383-040483FM-12+037099999V0201401N004112200019N0020001N1+02541+02111101391ADDAA106000091GF102991021011008001001001KA1240N+02181MA1999999097251MD1999999+0091REMSYN076AAXX  12124 82983 32595 21408 10254 20211 39725 40139 82100 333 20218 58009;EQDQ01  00002PRCP06
0167829830999992004021218004-09383-040483FM-12+037099999V0200901N003110075019N0020001N1+03041+01821101131ADDAA106000091GF106991061011008001001001MA1999999096991MD1999999+0131REMSYN070AAXX  12184 82983 32595 60906 10304 20182 39699 40113 86100 333 58013;EQDQ01  00002PRCP06
0198829830999992004021300004-09383-040483FM-12+037099999V0200901N001510075019N0020001N1+02701+02061101321ADDAA106000091GF105991051011008001001001KA1240M+03161MA1999999097171MD1999999+0121REMSYN088AAXX  13004 82983 32595 50903 10270 20206 39717 40132 85100 333 10316 29065 55107 58012;EQDQ01  00002PRCP06
0186829830999992004021312004-09383-040483FM-12+037099999V0200901N004110075019N0020001N1+02481+01961101531ADDAA106000091GF107991071021008001001001KA1240N+02281MA1999999097371MD1999999+0121REMSYN076AAXX  13124 82983 32595 70908 10248 20196 39737 40153 87200 333 20228 58012;EQDQ01  00002PRCP06
0167829830999992004021318004-09383-040483FM-12+037099999V0200901N002610450019N0020001N1+03061+01341101141ADDAA106000091GF106991041011008001021001MA1999999097011MD1999999+0021REMSYN070AAXX  13184 82983 32595 60905 10306 20134 39701 40114 84120 333 58002;EQDQ01  00002PRCP06
0208829830999992004021400004-09383-040483FM-12+037099999V0201401N001512200019N0020001N1+02641+01831101191ADDAA106000091GA1001+999999999GF100991001001999999001001KA1240M+03101MA1999999097051MD1999999-0121REMSYN082AAXX  14004 82983 32995 01403 10264 20183 39705 40119 333 10310 29058 55104 59012;EQDQ01  00002PRCP06
0186829830999992004021412004-09383-040483FM-12+037099999V0200901N003112200019N0020001N1+02521+01891101441ADDAA106000091GF102991011011008001001011KA1240N+02181MA1999999097291MD1999999-0081REMSYN076AAXX  14124 82983 32595 20906 10252 20189 39729 40144 81101 333 20218 59008;EQDQ01  00002PRCP06
0167829830999992004021418004-09383-040483FM-12+037099999V0200901N001512200019N0020001N1+03121+01561100921ADDAA106000091GF102991011011008001001011MA1999999096801MD1999999-0211REMSYN070AAXX  14184 82983 32595 20903 10312 20156 39680 40092 81101 333 59021;EQDQ01  00002PRCP06
0198829830999992004021500004-09383-040483FM-12+037099999V0200901N001510075019N0020001N1+02861+02011101061ADDAA106000091GF105991051011008001001001KA1240M+03181MA1999999096931MD1999999-0121REMSYN088AAXX  15004 82983 32595 50903 10286 20201 39693 40106 85100 333 10318 29058 55107 59012;EQDQ01  00002PRCP06
0186829830999992004021512004-09383-040483FM-12+037099999V0201401N002610075019N0020001N1+02641+02161101281ADDAA106000091GF107991071021008001001001KA1240N+02401MA1999999097161MD1999999-0131REMSYN076AAXX  15124 82983 32595 71405 10264 20216 39716 40128 87200 333 20240 59013;EQDQ01  00002PRCP06
0167829830999992004021518004-09383-040483FM-12+037099999V0201401N002610075019N0020001N1+03081+02011100851ADDAA106000091GF105991051011008001001001MA1999999096761MD1999999-0041REMSYN070AAXX  15184 82983 32595 51405 10308 20201 39676 40085 85100 333 59004;EQDQ01  00002PRCP06
0198829830999992004021600004-09383-040483FM-12+037099999V0201401N003112200019N0020001N1+02661+02071101191ADDAA106000091GF102991021011008001001001KA1240M+03241MA1999999097051MD1999999+0121REMSYN088AAXX  16004 82983 32595 21406 10266 20207 39705 40119 82100 333 10324 29067 55087 58012;EQDQ01  00002PRCP06
0186829830999992004021612004-09383-040483FM-12+037099999V0200901N003110075019N0020001N1+02541+02091101381ADDAA106000091GF108991081061008001999999KA1240N+02441MA1999999097231MD1999999+0161REMSYN076AAXX  16124 82983 32595 80906 10254 20209 39723 40138 886// 333 20244 58016;EQDQ01  00002PRCP06
0167829830999992004021618004-09383-040483FM-12+037099999V0200501N003110450019N0020001N1+03061+02081100851ADDAA106000091GF106991021011008001021011MA1999999096751MD1999999-0011REMSYN070AAXX  16184 82983 32595 60506 10306 20208 39675 40085 82121 333 59001;EQDQ01  00002PRCP06
0208829830999992004021700004-09383-040483FM-12+037099999V0203601N001012200019N0020001N1+02821+02201101141ADDAA106000091GA1001+999999999GF100991001001999999001001KA1240M+03161MA1999999097011MD1999999-0041REMSYN082AAXX  17004 82983 32995 03602 10282 20220 39701 40114 333 10316 29068 55075 59004;EQDQ01  00002PRCP06
0190829830999992004021712004-09383-040483FM-12+037099999V0201401N001010075019N0020001N1+02581+02271101391ADDAY151061AY261061GF108991081051008001999999KA1240N+02301MA1999999097251MD1999999+0021MW1031REMSYN088AAXX  17124 82983 21595 81402 10258 20227 39725 40139 70356 885// 333 20230 58002 60074;
0167829830999992004021718004-09383-040483FM-12+037099999V0200901N001510075019N0020001N1+03021+02161101061ADDAA106000091GF108991051021008001021001MA1999999096931MD1999999+0181REMSYN070AAXX  17184 82983 32595 80903 10302 20216 39693 40106 85220 333 58018;EQDQ01  00002PRCP06
0198829830999992004021800004-09383-040483FM-12+037099999V0209999C000012200019N0020001N1+02781+02361101211ADDAA106000091GF103991031011008001001001KA1240M+03121MA1999999097081MD1999999+0071REMSYN088AAXX  18004 82983 32595 30000 10278 20236 39708 40121 83100 333 10312 29075 55031 58007;EQDQ01  00002PRCP06
0186829830999992004021812004-09383-040483FM-12+037099999V0200901N003112200019N0020001N1+02581+01941101461ADDAA106000091GF102991011011008001001011KA1240N+02361MA1999999097321MD1999999+0071REMSYN076AAXX  18124 82983 32595 20906 10258 20194 39732 40146 81101 333 20236 58007;EQDQ01  00002PRCP06
0167829830999992004021818004-09383-040483FM-12+037099999V0200901N003110450019N0020001N1+03141+01911100921ADDAA106000091GF105991031011008001011001MA1999999096831MD1999999-0101REMSYN070AAXX  18184 82983 32595 50906 10314 20191 39683 40092 83110 333 59010;EQDQ01  00002PRCP06
0186829830999992004021912004-09383-040483FM-12+037099999V0201401N003110075019N0020001N1+02561+01701101251ADDAA106000091GF105991051011008001001001KA1240N+02261MA1999999097111MD1999999-0211REMSYN076AAXX  19124 82983 32595 51406 10256 20170 39711 40125 85100 333 20226 59021;EQDQ01  00002PRCP06
0167829830999992004021918004-09383-040483FM-12+037099999V0201401N002610075019N0020001N1+03401+01821100811ADDAA106000091GF106991061021008001001001MA1999999096701MD1999999-0131REMSYN070AAXX  19184 82983 32595 61405 10340 20182 39670 40081 86200 333 59013;EQDQ01  00002PRCP06
0198829830999992004022000004-09383-040483FM-12+037099999V0200901N003110075019N0020001N1+02681+02111100961ADDAA106000091GF106991061021008001001001KA1240M+03161MA1999999096831MD1999999-0121REMSYN088AAXX  20004 82983 32595 60906 10268 20211 39683 40096 86200 333 10316 29062 55115 59012;EQDQ01  00002PRCP06
0190829830999992004022012004-09383-040483FM-12+037099999V0201401N002610075019N0020001N1+02541+02041101241ADDAY151061AY221061GF107991071021008001001001KA1240N+02381MA1999999097101MD1999999-0011MW1011REMSYN088AAXX  20124 82983 21595 71405 10254 20204 39710 40124 70152 87200 333 20238 59001 69924;
0167829830999992004022018004-09383-040483FM-12+037099999V0201401N001510075019N0020001N1+03061+02081100841ADDAA106000091GF105991051011008001001001MA1999999096731MD1999999+0031REMSYN070AAXX  20184 82983 32595 51403 10306 20208 39673 40084 85100 333 58003;EQDQ01  00002PRCP06
0208829830999992004022100004-09383-040483FM-12+037099999V0200901N001512200019N0020001N1+02781+02041101031ADDAA106000091GA1001+999999999GF100991001001999999001001KA1240M+03201MA1999999096901MD1999999+0071REMSYN082AAXX  21004 82983 32995 00903 10278 20204 39690 40103 333 10320 29064 55071 58007;EQDQ01  00002PRCP06
0186829830999992004022112004-09383-040483FM-12+037099999V0200901N004110075019N0020001N1+02581+02041101351ADDAA106000091GF107991071021008001001001KA1240N+02381MA1999999097201MD1999999+0101REMSYN076AAXX  21124 82983 32595 70908 10258 20204 39720 40135 87200 333 20238 58010;EQDQ01  00002PRCP06
0167829830999992004022118004-09383-040483FM-12+037099999V0201401N002610075019N0020001N1+02981+01951100991ADDAA106000091GF106991061021008001001001MA1999999096861MD1999999+0131REMSYN070AAXX  21184 82983 32595 61405 10298 20195 39686 40099 86200 333 58013;EQDQ01  00002PRCP06
0208829830999992004022200004-09383-040483FM-12+037099999V0209999C000012200019N0020001N1+02641+01981101151ADDAA106000091GA1001+999999999GF100991001001999999001001KA1240M+03101MA1999999097011MD1999999+0111REMSYN082AAXX  22004 82983 32995 00000 10264 20198 39701 40115 333 10310 29068 55081 58011;EQDQ01  00002PRCP06
0192829830999992004022212004-09383-040483FM-12+037099999V0201401N003112200019N0020001N1+02601+01891101411ADDAA106000091GF102991011011008001001011KA1240N+02301MA1999999097261MD1010001+0061REMSYN082AAXX  22124 82983 32595 21406 10260 20189 39726 40141 50000 81101 333 20230 58006;EQDQ01  00002PRCP06
0167829830999992004022218004-09383-040483FM-12+037099999V0200901N002612200019N0020001N1+03121+01751100971ADDAA106000091GF105991031011008001001011MA1999999096881MD1999999+0021REMSYN070AAXX  22184 82983 32595 50905 10312 20175 39688 40097 83101 333 58002;EQDQ01  00002PRCP06
0214829830999992004022300004-09383-040483FM-12+037099999V0209999C000019999999N0020001N1+02721+02001101221ADDAA106000091GF105991999011008001001001KA1240M+03221MA1999999097081MD1999999-0031REMSYN088AAXX  23004 82983 32595 50000 10272 20200 39708 40122 82100 333 10322 29060 55103 59003;EQDQ01+000022SCOTLCQ02  00002PRCP06
0186829830999992004022412004-09383-040483FM-12+037099999V0201401N003110075019N0020001N1+02681+02021101361ADDAA106000091GF105991051011008001001001KA1240N+02361MA1999999097221MD1999999-0071REMSYN076AAXX  24124 82983 32595 51406 10268 20202 39722 40136 85100 333 20236 59007;EQDQ01  00002PRCP06
0167829830999992004022418004-09383-040483FM-12+037099999V0200501N004110075019N0020001N1+02981+02041100921ADDAA106000091GF108991081051008001999999MA1999999096801MD1999999-0111REMSYN070AAXX  24184 82983 32595 80508 10298 20204 39680 40092 885// 333 59011;EQDQ01  00002PRCP06
0198829830999992004022500004-09383-040483FM-12+037099999V0209999C000010075019N0020001N1+02521+02021101131ADDAA106000091GF106991061021008001001001KA1240M+03241MA1999999096991MD1999999+0021REMSYN088AAXX  25004 82983 32595 60000 10252 20202 39699 40113 86200 333 10324 29068 55069 58002;EQDQ01  00002PRCP06
0190829830999992004022512004-09383-040483FM-12+037099999V0200901N001510075019N0020001N1+02481+02051101401ADDAY151061AY261061GF108991081061008001999999KA1240N+02121MA1999999097241MD1999999+0021MW1031REMSYN088AAXX  25124 82983 21595 80903 10248 20205 39724 40140 70356 886// 333 20212 58002 60304;
0167829830999992004022518004-09383-040483FM-12+037099999V0200901N003110075019N0020001N1+02881+02081101091ADDAA106000091GF108991081051008001999999MA1999999096931MD1999999+0131REMSYN070AAXX  25184 82983 32595 80906 10288 20208 39693 40109 885// 333 58013;EQDQ01  00002PRCP06
0198829830999992004022600004-09383-040483FM-12+037099999V0200901N001510075019N0020001N1+02601+02121101231ADDAA106000091GF107991071021008001001001KA1240M+02961MA1999999097091MD1999999+0101REMSYN088AAXX  26004 82983 32595 70903 10260 20212 39709 40123 87200 333 10296 29072 55015 58010;EQDQ01  00002PRCP06
0186829830999992004022612004-09383-040483FM-12+037099999V0201401N002610075019N0020001N1+02541+02041101511ADDAA106000091GF107991051021008001011001KA1240N+02341MA1999999097351MD1999999+0111REMSYN076AAXX  26124 82983 32595 71405 10254 20204 39735 40151 85210 333 20234 58011;EQDQ01  00002PRCP06
0167829830999992004022618004-09383-040483FM-12+037099999V0201401N001510075019N0020001N1+03121+01921101091ADDAA106000091GF105991051011008001001001MA1999999096971MD1999999+0041REMSYN070AAXX  26184 82983 32595 51403 10312 20192 39697 40109 85100 333 58004;EQDQ01  00002PRCP06
0198829830999992004022700004-09383-040483FM-12+037099999V0201401N001512200019N0020001N1+02821+01911101311ADDAA106000091GF102991021011008001001001KA1240M+03161MA1999999097171MD1999999+0081REMSYN088AAXX  27004 82983 32595 21403 10282 20191 39717 40131 82100 333 10316 29060 55089 58008;EQDQ01  00002PRCP06
0186829830999992004022712004-09383-040483FM-12+037099999V0200901N002610075019N0020001N1+02601+01961101471ADDAA106000091GF106991061021008001001001KA1240N+02341MA1999999097331MD1999999-0021REMSYN076AAXX  27124 82983 32595 60905 10260 20196 39733 40147 86200 333 20234 59002;EQDQ01  00002PRCP06
0167829830999992004022718004-09383-040483FM-12+037099999V0201801N002612200019N0020001N1+03101+01971100911ADDAA106000091GF102991021011008001001011MA1999999096821MD1999999-0151REMSYN070AAXX  27184 82983 32595 21805 10310 20197 39682 40091 82101 333 59015;EQDQ01  00002PRCP06
0208829830999992004022800004-09383-040483FM-12+037099999V0203601N001512200019N0020001N1+02721+02181101081ADDAA106000091GA1001+999999999GF100991001001999999001001KA1240M+03221MA1999999096951MD1999999-0221REMSYN082AAXX  28004 82983 32995 03603 10272 20218 39695 40108 333 10322 29065 55096 59022;EQDQ01  00002PRCP06
0190829830999992004022812004-09383-040483FM-12+037099999V0200501N001510075019N0020001N1+02541+02111101091ADDAY151061AY261061GF105991051011008001001001KA1240N+02261MA1999999096951MD1999999-0381MW1011REMSYN088AAXX  28124 82983 21595 50503 10254 20211 39695 40109 70156 85100 333 20226 59038 60124;
0167829830999992004022818004-09383-040483FM-12+037099999V0200501N003112200019N0020001N1+03141+02041100581ADDAA106000091GF104991041011008001001001MA1999999096511MD1999999-0311REMSYN070AAXX  28184 82983 32595 40506 10314 20204 39651 40058 84100 333 59031;EQDQ01  00002PRCP06
0198829830999992004022900004-09383-040483FM-12+037099999V0200501N001512200019N0020001N1+02781+02321100871ADDAA106000091GF103991031011008001001001KA1240M+03181MA1999999096751MD1999999-0201REMSYN088AAXX  29004 82983 32595 30503 10278 20232 39675 40087 83100 333 10318 29070 55078 59020;EQDQ01  00002PRCP06
0190829830999992004022912004-09383-040483FM-12+037099999V0201801N003110075019N0020001N1+02221+02141101461ADDAY151061AY261061GF108991081061008001999999KA1240N+02261MA1999999097301MD1999999+0351MW1631REMSYN088AAXX  29124 82983 21595 81806 10222 20214 39730 40146 76356 886// 333 20226 58035 60104;
0171829830999992004022918004-09383-040483FM-12+037099999V0200901N004110075019N0020001N1+02521+02131101151ADDAY151061AY261061GF108991081051008001999999MA1999999096971MD1999999+0461MW1021REMSYN082AAXX  29184 82983 21595 80908 10252 20213 39697 40115 70256 885// 333 58046 60101;
0198829830999992004030100004-09383-040483FM-12+037099999V0200901N001010075019N0020001N1+02401+02091101221ADDAA106000091GF107991071021008001001001KA1240M+02821MA1999999097051MD1999999+0301REMSYN088AAXX  01004 82983 32595 70902 10240 20209 39705 40122 87200 333 10282 29085 55004 58030;EQDQ01  00002PRCP06
0162829830999992004030112004-09383-040483FM-12+037099999V0201401N003110075019N0020001N1+02521+02151101241ADDGF108991081051008001999999KA1240N+02261MA1999999097171MD1999999-0131REMSYN082AAXX  01124 82983 22595 81406 10252 20215 39717 40124 885// 333 20226 59013 60104;
0167829830999992004030118004-09383-040483FM-12+037099999V0201801N001510450019N0020001N1+02781+02361101041ADDAA106000091GF106991041021008001021001MA1999999096881MD1999999-0091REMSYN070AAXX  01184 82983 32595 61803 10278 20236 39688 40104 84220 333 59009;EQDQ01  00002PRCP06
0198829830999992004030200004-09383-040483FM-12+037099999V0209999C000010075019N0020001N1+02661+02331101201ADDAA106000091GF106991061021008001001001KA1240M+03041MA1999999097061MD1999999+0011REMSYN088AAXX  02004 82983 32595 60000 10266 20233 39706 40120 86200 333 10304 29080 55054 58001;EQDQ01  00002PRCP06
0186829830999992004030212004-09383-040483FM-12+037099999V0201401N003110075019N0020001N1+02461+01971101281ADDAA106000091GF108991081051008001999999KA1240N+02321MA1999999097141MD1999999-0031REMSYN076AAXX  02124 82983 32595 81406 10246 20197 39714 40128 885// 333 20232 59003;EQDQ01  00002PRCP06
0167829830999992004030218004-09383-040483FM-12+037099999V0201801N001010450019N0020001N1+02941+02111100921ADDAA106000091GF106991031011008001021021MA1999999096801MD1999999-0081REMSYN070AAXX  02184 82983 32595 61802 10294 20211 39680 40092 83122 333 59008;EQDQ01  00002PRCP06
0198829830999992004030300004-09383-040483FM-12+037099999V0201401N001510075019N0020001N1+02701+02151101101ADDAA106000091GF105991051061008001001001KA1240M+03001MA1999999096961MD1999999-0101REMSYN088AAXX  03004 82983 32595 51403 10270 20215 39696 40110 85600 333 10300 29070 55043 59010;EQDQ01  00002PRCP06
0186829830999992004030312004-09383-040483FM-12+037099999V0201401N003110075019N0020001N1+02521+02001101371ADDAA106000091GF107991071051008001001001KA1240N+02221MA1999999097221MD1999999+0081REMSYN076AAXX  03124 82983 32595 71406 10252 20200 39722 40137 87500 333 20222 58008;EQDQ01  00002PRCP06
0167829830999992004030318004-09383-040483FM-12+037099999V0201401N003110450019N0020001N1+03041+02031100901ADDAA106000091GF106991041011008001011011MA1999999096781MD1999999-0021REMSYN070AAXX  03184 82983 32595 61406 10304 20203 39678 40090 84111 333 59002;EQDQ01  00002PRCP06
0198829830999992004030400004-09383-040483FM-12+037099999V0201401N001512200019N0020001N1+02701+02171101001ADDAA106000091GF102991021011008001001001KA1240M+03161MA1999999096871MD1999999-0091REMSYN088AAXX  04004 82983 32595 21403 10270 20217 39687 40100 82100 333 10316 29068 55098 59009;EQDQ01  00002PRCP06
0186829830999992004030412004-09383-040483FM-12+037099999V0200901N004110075019N0020001N1+02461+02031101391ADDAA106000091GF108991081051008001999999KA1240N+02301MA1999999097241MD1999999+0021REMSYN076AAXX  04124 82983 32595 80908 10246 20203 39724 40139 885// 333 20230 58002;EQDQ01  00002PRCP06
0167829830999992004030418004-09383-040483FM-12+037099999V0201401N002610450019N0020001N1+03061+01961100961ADDAA106000091GF106991041011008001021011MA1999999096841MD1999999+0061REMSYN070AAXX  04184 82983 32595 61405 10306 20196 39684 40096 84121 333 58006;EQDQ01  00002PRCP06
0214829830999992004030500004-09383-040483FM-12+037099999V0200901N001512200019N0020001N1+02701+02031101141ADDAA106000091GF102991999001008001021001KA1240M+03141MA1999999097001MD1999999+0131REMSYN088AAXX  05004 82983 32595 20903 10270 20203 39700 40114 80020 333 10314 29066 55071 58013;EQDQ01+000002SCOTLCQ02  00002PRCP06
0186829830999992004030512004-09383-040483FM-12+037099999V0201401N004110450019N0020001N1+02541+01911101451ADDAA106000091GF106991031011008001011011KA1240N+02201MA1999999097301MD1999999+0061REMSYN076AAXX  05124 82983 32595 61408 10254 20191 39730 40145 83111 333 20220 58006;EQDQ01  00002PRCP06
0167829830999992004030518004-09383-040483FM-12+037099999V0201401N003112200019N0020001N1+03081+01601101081ADDAA106000091GF104991021011008001011011MA1999999096951MD1999999+0111REMSYN070AAXX  05184 82983 32595 41406 10308 20160 39695 40108 82111 333 58011;EQDQ01  00002PRCP06
0214829830999992004030600004-09383-040483FM-12+037099999V0201401N003112200019N0020001N1+02541+01911101241ADDAA106000091GF102991001001999999001011KA1240M+03161MA1999999097101MD1999999+0101REMSYN088AAXX  06004 82983 32595 21406 10254 20191 39710 40124 80001 333 10316 29061 55115 58010;EQDQ01+008002SCOLCBQ02  00002PRCP06
0186829830999992004030612004-09383-040483FM-12+037099999V0201401N003110075019N0020001N1+02541+01951101391ADDAA106000091GF107991071051008001001001KA1240N+02241MA1999999097231MD1999999-0071REMSYN076AAXX  06124 82983 32595 71406 10254 20195 39723 40139 87500 333 20224 59007;EQDQ01  00002PRCP06
0167829830999992004030618004-09383-040483FM-12+037099999V0201401N003112200019N0020001N1+02301+01961101011ADDAA106000091GF104991041011008001001001MA1999999096891MD1999999-0061REMSYN070AAXX  06184 82983 32595 41406 10230 20196 39689 40101 84100 333 59006;EQDQ01  00002PRCP06
0208829830999992004030700004-09383-040483FM-12+037099999V0200901N003112200019N0020001N1+02661+01771101191ADDAA106000091GA1001+999999999GF100991001001999999001001KA1240M+03161MA1999999097051MD1999999-0051REMSYN082AAXX  07004 82983 32995 00906 10266 20177 39705 40119 333 10316 29060 55110 59005;EQDQ01  00002PRCP06
0186829830999992004030712004-09383-040483FM-12+037099999V0201401N003110075019N0020001N1+02601+01961101411ADDAA106000091GF106991061011008001001001KA1240N+02281MA1999999097271MD1999999+0041REMSYN076AAXX  07124 82983 32595 61406 10260 20196 39727 40141 86100 333 20228 58004;EQDQ01  00002PRCP06
0167829830999992004030718004-09383-040483FM-12+037099999V0201401N002610075019N0020001N1+02921+02891101111ADDAA106000091GF106991061021008001001001MA1999999096971MD1999999+0081REMSYN070AAXX  07184 82983 32595 61405 10292 20289 39697 40111 86200 333 58008;EQDQ01  00002PRCP06
0214829830999992004030800004-09383-040483FM-12+037099999V0200901N003112200019N0020001N1+02661+02041101291ADDAA106000091GF102991001001999999001011KA1240M+03061MA1999999097151MD1999999+0101REMSYN088AAXX  08004 82983 32595 20906 10266 20204 39715 40129 80001 333 10306 29065 55083 58010;EQDQ01+008002SCOLCBQ02  00002PRCP06
0186829830999992004030812004-09383-040483FM-12+037099999V0201401N003110450019N0020001N1+02561+01851101531ADDAA106000091GF106991041011008001011001KA1240N+02261MA1999999097381MD1999999+0111REMSYN076AAXX  08124 82983 32595 61406 10256 20185 39738 40153 84110 333 20226 58011;EQDQ01  00002PRCP06
0167829830999992004030818004-09383-040483FM-12+037099999V0200901N004110075019N0020001N1+02621+01981101171ADDAA106000091GF108991081051008001999999MA1999999097031MD1999999+0061REMSYN070AAXX  08184 82983 32595 80908 10262 20198 39703 40117 885// 333 58006;EQDQ01  00002PRCP06
0202829830999992004030900004-09383-040483FM-12+037099999V0200901N002610075019N0020001N1+02621+01981101351ADDAY121061AY251061GF107991071021008001001001KA1240M+02981MA1999999097211MD1999999+0061MW1031REMSYN100AAXX  09004 82983 21595 70905 10262 20198 39721 40135 70325 87200 333 10298 29067 55070 58006 69981;
0162829830999992004030912004-09383-040483FM-12+037099999V0200901N002611050019N0020001N1+02561+01881101531ADDGF105991021011008001021011KA1240N+02101MA1999999097371MD1999999-0011REMSYN082AAXX  09124 82983 22595 50905 10256 20188 39737 40153 82121 333 20210 59001 69984;
0167829830999992004030918004-09383-040483FM-12+037099999V0200901N002610450019N0020001N1+02901+01901101211ADDAA106000091GF106991021011008001021021MA1999999097061MD1999999+0031REMSYN070AAXX  09184 82983 32595 60905 10290 20190 39706 40121 82122 333 58003;EQDQ01  00002PRCP06
0198829830999992004031000004-09383-040483FM-12+037099999V0200901N001510075019N0020001N1+02701+01911101331ADDAA106000091GF106991061011008001001001KA1240M+03041MA1999999097191MD1999999-0021REMSYN088AAXX  10004 82983 32595 60903 10270 20191 39719 40133 86100 333 10304 29061 55060 59002;EQDQ01  00002PRCP06
0186829830999992004031012004-09383-040483FM-12+037099999V0201401N003110075019N0020001N1+02621+01931101571ADDAA106000091GF105991051011008001001001KA1240N+02221MA1999999097421MD1999999+0051REMSYN076AAXX  10124 82983 32595 51406 10262 20193 39742 40157 85100 333 20222 58005;EQDQ01  00002PRCP06
0167829830999992004031018004-09383-040483FM-12+037099999V0201401N001510075019N0020001N1+03041+01751101221ADDAA106000091GF106991061021008001001001MA1999999097081MD1999999+0021REMSYN070AAXX  10184 82983 32595 61403 10304 20175 39708 40122 86200 333 58002;EQDQ01  00002PRCP06
0198829830999992004031100004-09383-040483FM-12+037099999V0201401N001510075019N0020001N1+02781+01981101291ADDAA106000091GF106991061051008001001001KA1240M+03141MA1999999097151MD1999999-0041REMSYN088AAXX  11004 82983 32595 61403 10278 20198 39715 40129 86500 333 10314 29059 55089 59004;EQDQ01  00002PRCP06
0186829830999992004031112004-09383-040483FM-12+037099999V0201401N003112200019N0020001N1+02641+02031101241ADDAA106000091GF106991031011008001001011KA1240N+02381MA1999999097111MD1999999-0321REMSYN076AAXX  11124 82983 32595 61406 10264 20203 39711 40124 83101 333 20238 59032;EQDQ01  00002PRCP06
0167829830999992004031118004-09383-040483FM-12+037099999V0201401N001512200019N0020001N1+03081+02031100881ADDAA106000091GF106991041011008001001011MA1999999096791MD1999999-0291REMSYN070AAXX  11184 82983 32595 61403 10308 20203 39679 40088 84101 333 59029;EQDQ01  00002PRCP06
0208829830999992004031200004-09383-040483FM-12+037099999V0200901N001512200019N0020001N1+02801+02111100991ADDAA106000091GA1001+999999999GF100991001001999999001001KA1240M+03161MA1999999096871MD1999999-0281REMSYN082AAXX  12004 82983 32995 00903 10280 20211 39687 40099 333 10316 29064 55078 59028;EQDQ01  00002PRCP06
0186829830999992004031212004-09383-040483FM-12+037099999V0201401N002610075019N0020001N1+02701+02131101201ADDAA106000091GF106991061021008001001001KA1240N+02401MA1999999097081MD1999999-0031REMSYN076AAXX  12124 82983 32595 61405 10270 20213 39708 40120 86200 333 20240 59003;EQDQ01  00002PRCP06
0167829830999992004031218004-09383-040483FM-12+037099999V0201401N001512200019N0020001N1+03241+01931100711ADDAA106000091GF103991021011008001001011MA1999999096931MD1999999-0161REMSYN070AAXX  12184 82983 32595 31403 10324 20193 39693 40071 82101 333 59016;EQDQ01  00002PRCP06
0214829830999992004031300004-09383-040483FM-12+037099999V0201401N001519999999N0020001N1+02841+01991100941ADDAA106000091GF105991999011008001001001KA1240M+03321MA1999999096841MD1999999-0031REMSYN088AAXX  13004 82983 32595 51403 10284 20199 39684 40094 82100 333 10332 29059 55095 59003;EQDQ01+000022SCOTLCQ02  00002PRCP06
0186829830999992004031312004-09383-040483FM-12+037099999V0200901N003110075019N0020001N1+02741+02171101211ADDAA106000091GF106991061021008001001001KA1240N+02501MA1999999097111MD1999999+0031REMSYN076AAXX  13124 82983 32595 60906 10274 20217 39711 40121 86200 333 20250 58003;EQDQ01  00002PRCP06
0167829830999992004031318004-09383-040483FM-12+037099999V0201401N001010075019N0020001N1+03281+02031100731ADDAA106000091GF106991061021008001001001MA1999999096651MD1999999+0021REMSYN070AAXX  13184 82983 32595 61402 10328 20203 39665 40073 86200 333 58002;EQDQ01  00002PRCP06
0198829830999992004031400004-09383-040483FM-12+037099999V0203601N002610075019N0020001N1+02601+02191101161ADDAA106000091GF106991061021008001001001KA1240M+03361MA1999999097021MD1999999+0181REMSYN088AAXX  14004 82983 32595 63605 10260 20219 39702 40116 86200 333 10336 29069 55093 58018;EQDQ01  00002PRCP06
0190829830999992004031412004-09383-040483FM-12+037099999V0200901N003110075019N0020001N1+02601+02121101351ADDAY161061AY251061GF106991061051008001001001KA1240N+02241MA1999999097201MD1999999+0091MW1011REMSYN088AAXX  14124 82983 21595 60906 10260 20212 39720 40135 70165 86500 333 20224 58009 60024;
0167829830999992004031418004-09383-040483FM-12+037099999V0200901N002612200019N0020001N1+03021+02101100911ADDAA106000091GF104991041011008001001001MA1999999096811MD1999999+0161REMSYN070AAXX  14184 82983 32595 40905 10302 20210 39681 40091 84100 333 58016;EQDQ01  00002PRCP06
0198829830999992004031500004-09383-040483FM-12+037099999V0203601N001010075019N0020001N1+02741+02051101211ADDAA106000091GF106991061021008001001001KA1240M+03141MA1999999096971MD1999999-0051REMSYN088AAXX  15004 82983 32595 63602 10274 20205 39697 40121 86200 333 10314 29068 55049 59005;EQDQ01  00002PRCP06
0186829830999992004031512004-09383-040483FM-12+037099999V0200901N003110075019N0020001N1+02641+02051101201ADDAA106000091GF106991061051008001001001KA1240N+02321MA1999999097071MD1999999-0131REMSYN076AAXX  15124 82983 32595 60906 10264 20205 39707 40120 86500 333 20232 59013;EQDQ01  00002PRCP06
0167829830999992004031518004-09383-040483FM-12+037099999V0200501N001010075019N0020001N1+03161+01921100801ADDAA106000091GF106991061011008001001001MA1999999096721MD1999999-0091REMSYN070AAXX  15184 82983 32595 60502 10316 20192 39672 40080 86100 333 59009;EQDQ01  00002PRCP06
0198829830999992004031600004-09383-040483FM-12+037099999V0209999C000010075019N0020001N1+02761+02161101001ADDAA106000091GF106991061021008001001001KA1240M+03281MA1999999096881MD1999999-0091REMSYN088AAXX  16004 82983 32595 60000 10276 20216 39688 40100 86200 333 10328 29064 55102 59009;EQDQ01  00002PRCP06
0186829830999992004031612004-09383-040483FM-12+037099999V0201401N003110075019N0020001N1+02681+02091101161ADDAA106000091GF106991061021008001001001KA1240N+02441MA1999999097031MD1999999-0041REMSYN076AAXX  16124 82983 32595 61406 10268 20209 39703 40116 86200 333 20244 59004;EQDQ01  00002PRCP06
0167829830999992004031618004-09383-040483FM-12+037099999V0200901N001510075019N0020001N1+03201+01931100611ADDAA106000091GF105991051011008001001001MA1999999096541MD1999999-0181REMSYN070AAXX  16184 82983 32595 50903 10320 20193 39654 40061 85100 333 59018;EQDQ01  00002PRCP06
0198829830999992004031700004-09383-040483FM-12+037099999V0201401N001012200019N0020001N1+02881+02001100811ADDAA106000091GF102991021011008001001001KA1240M+03221MA1999999096731MD1999999-0151REMSYN088AAXX  17004 82983 32595 21402 10288 20200 39673 40081 82100 333 10322 29060 55103 59015;EQDQ01  00002PRCP06
0186829830999992004031712004-09383-040483FM-12+037099999V0200501N003110075019N0020001N1+02641+02091101021ADDAA106000091GF106991061021008001001001KA1240N+02481MA1999999096911MD1999999-0121REMSYN076AAXX  17124 82983 32595 60506 10264 20209 39691 40102 86200 333 20248 59012;EQDQ01  00002PRCP06
0167829830999992004031718004-09383-040483FM-12+037099999V0200901N001510450019N0020001N1+03101+01941100571ADDAA106000091GF107991031011008001021011MA1999999096501MD1999999-0041REMSYN070AAXX  17184 82983 32595 70903 10310 20194 39650 40057 83121 333 59004;EQDQ01  00002PRCP06
0208829830999992004031800004-09383-040483FM-12+037099999V0203601N001012200019N0020001N1+02661+02271100911ADDAA106000091GA1001+999999999GF100991001001999999001001KA1240M+03181MA1999999096791MD1999999+0061REMSYN082AAXX  18004 82983 32995 03602 10266 20227 39679 40091 333 10318 29070 55050 58006;EQDQ01  00002PRCP06
0203829830999992004031812004-09383-040483FM-12+037099999V0202301N001010075019N0020001N1+02221+02141101191ADDAY151061AY261061GF108991081061008001999999KA1240N+02221MA1999999097031MD1999999+0081REMSYN088AAXX  18124 82983 21595 82302 10222 20214 39703 40119 77556 886// 333 20222 58008 60564;EQDQ01+000752PRSWM1
0171829830999992004031818004-09383-040483FM-12+037099999V0201401N001510075019N0020001N1+02741+02211100741ADDAY151061AY261061GF108991081061008001999999MA1999999096601MD1999999+0101MW1021REMSYN082AAXX  18184 82983 21595 81403 10274 20221 39660 40074 70256 886// 333 58010 60051;
0198829830999992004031900004-09383-040483FM-12+037099999V0202301N001510075019N0020001N1+02501+02291101031ADDAA106000091GF106991061021008001001001KA1240M+02821MA1999999096861MD1999999+0071REMSYN088AAXX  19004 82983 32595 62303 10250 20229 39686 40103 86200 333 10282 29086 55000 58007;EQDQ01  00002PRCP06
0190829830999992004031912004-09383-040483FM-12+037099999V0209999C000010075019N0020001N1+02641+02251101181ADDAY121061AY251061GF107991071021008001001001KA1240N+02321MA1999999097041MD1999999+0011MW1031REMSYN088AAXX  19124 82983 21595 70000 10264 20225 39704 40118 70325 87200 333 20232 58001 60054;
0167829830999992004031918004-09383-040483FM-12+037099999V0203601N001010450019N0020001N1+03101+02031100761ADDAA106000091GF106991031021008001021011MA1999999096641MD1999999+0041REMSYN070AAXX  19184 82983 32595 63602 10310 20203 39664 40076 83221 333 58004;EQDQ01  00002PRCP06
0208829830999992004032000004-09383-040483FM-12+037099999V0201801N001512200019N0020001N1+02541+02171100941ADDAA106000091GA1001+999999999GF100991001001999999001001KA1240M+03181MA1999999096811MD1999999-0051REMSYN082AAXX  20004 82983 32995 01803 10254 20217 39681 40094 333 10318 29073 55062 59005;EQDQ01  00002PRCP06
0186829830999992004032012004-09383-040483FM-12+037099999V0200901N001512200019N0020001N1+02721+02121101211ADDAA106000091GF102991011011008001011001KA1240N+02381MA1999999097071MD1999999+0031REMSYN076AAXX  20124 82983 32595 20903 10272 20212 39707 40121 81110 333 20238 58003;EQDQ01  00002PRCP06
0167829830999992004032018004-09383-040483FM-12+037099999V0200901N002612200019N0020001N1+03141+01541100781ADDAA106000091GF103991011011008001011011MA1999999096681MD1999999+0041REMSYN070AAXX  20184 82983 32595 30905 10314 20154 39668 40078 81111 333 58004;EQDQ01  00002PRCP06
0208829830999992004032100004-09383-040483FM-12+037099999V0209999C000012200019N0020001N1+02641+02051100941ADDAA106000091GA1001+999999999GF100991001001999999001001KA1240M+03181MA1999999096821MD1999999+0011REMSYN082AAXX  21004 82983 32995 00000 10264 20205 39682 40094 333 10318 29062 55104 58001;EQDQ01  00002PRCP06
0186829830999992004032112004-09383-040483FM-12+037099999V0200901N002612200019N0020001N1+02601+02121101121ADDAA106000091GF103991011011008001011001KA1240N+02261MA1999999096981MD1999999-0091REMSYN076AAXX  21124 82983 32595 30905 10260 20212 39698 40112 81110 333 20226 59009;EQDQ01  00002PRCP06
0202829830999992004032212004-09383-040483FM-12+037099999V0200901N003110075019N0020001N1+02701+02111101091ADDAA106000091GF106991999011008001001001KA1240N+02441MA1999999096971MD1999999-0011REMSYN076AAXX  22124 82983 32595 60906 10270 20211 39697 40109 85100 333 20244 59001;EQDQ01+000052SCOTLCQ02  00002PRCP06
0167829830999992004032218004-09383-040483FM-12+037099999V0200501N001510450019N0020001N1+03221+02011100681ADDAA106000091GF106991031011008001021011MA1999999096601MD1999999-0031REMSYN070AAXX  22184 82983 32595 60503 10322 20201 39660 40068 83121 333 59003;EQDQ01  00002PRCP06
0208829830999992004032300004-09383-040483FM-12+037099999V0209999C000012200019N0020001N1+02801+02091100931ADDAA106000091GA1001+999999999GF100991001001999999001001KA1240M+03301MA1999999096831MD1999999+0031REMSYN082AAXX  23004 82983 32995 00000 10280 20209 39683 40093 333 10330 29069 55089 58003;EQDQ01  00002PRCP06
0186829830999992004032312004-09383-040483FM-12+037099999V0200901N003110075019N0020001N1+02661+02201101181ADDAA106000091GF108991081051008001999999KA1240N+02481MA1999999097061MD1999999+0091REMSYN076AAXX  23124 82983 32595 80906 10266 20220 39706 40118 885// 333 20248 58009;EQDQ01  00002PRCP06
0167829830999992004032318004-09383-040483FM-12+037099999V0200501N002610075019N0020001N1+03041+02181100761ADDAA106000091GF108991081061008001999999MA1999999096661MD1999999+0061REMSYN070AAXX  23184 82983 32595 80505 10304 20218 39666 40076 886// 333 58006;EQDQ01  00002PRCP06
0198829830999992004032400004-09383-040483FM-12+037099999V0201801N001510075019N0020001N1+02601+02141101061ADDAA106000091GF105991051061008001001001KA1240M+03101MA1999999096931MD1999999+0101REMSYN088AAXX  24004 82983 32595 51803 10260 20214 39693 40106 85600 333 10310 29072 55039 58010;EQDQ01  00002PRCP06
0186829830999992004032412004-09383-040483FM-12+037099999V0201401N003110075019N0020001N1+02541+02021101321ADDAA106000091GF108991081061008001999999KA1240N+02421MA1999999097161MD1999999+0101REMSYN076AAXX  24124 82983 32595 81406 10254 20202 39716 40132 886// 333 20242 58010;EQDQ01  00002PRCP06
0186829830999992004032512004-09383-040483FM-12+037099999V0200901N003110075019N0020001N1+02561+01851101191ADDAA106000091GF106991061011008001001001KA1240N+02321MA1999999097051MD1999999-0111REMSYN076AAXX  25124 82983 32595 60906 10256 20185 39705 40119 86100 333 20232 59011;EQDQ01  00002PRCP06
0167829830999992004032518004-09383-040483FM-12+037099999V0201401N001511050019N0020001N1+03021+01861100911ADDAA106000091GF105991021011008001021021MA1999999096791MD1999999+0021REMSYN070AAXX  25184 82983 32595 51403 10302 20186 39679 40091 82122 333 58002;EQDQ01  00002PRCP06
0198829830999992004032600004-09383-040483FM-12+037099999V0201801N001012200019N0020001N1+02621+02011101051ADDAA106000091GF102991021011008001001001KA1240M+03081MA1999999096981MD1999999-0021REMSYN088AAXX  26004 82983 32595 21802 10262 20201 39698 40105 82100 333 10308 29063 55082 59002;EQDQ01  00002PRCP06
0167829830999992004032618004-09383-040483FM-12+037099999V0201401N002610450019N0020001N1+03101+01871100831ADDAA106000091GF106991031011008001011011MA1999999096731MD1999999-0061REMSYN070AAXX  26184 82983 32595 61405 10310 20187 39673 40083 83111 333 59006;EQDQ01  00002PRCP06
0208829830999992004032700004-09383-040483FM-12+037099999V0201801N002612200019N0020001N1+02641+01931100901ADDAA106000091GA1001+999999999GF100991001001999999001001KA1240M+03181MA1999999096761MD1999999-0201REMSYN082AAXX  27004 82983 32995 01805 10264 20193 39676 40090 333 10318 29063 55071 59020;EQDQ01  00002PRCP06
0186829830999992004032712004-09383-040483FM-12+037099999V0201401N003110075019N0020001N1+02521+01931101131ADDAA106000091GF107991071011008001001001KA1240N+02261MA1999999096991MD1999999-0091REMSYN076AAXX  27124 82983 32595 71406 10252 20193 39699 40113 87100 333 20226 59009;EQDQ01  00002PRCP06
0167829830999992004032718004-09383-040483FM-12+037099999V0201401N003112200019N0020001N1+03161+01711100771ADDAA106000091GF106991041011008001001011MA1999999096661MD1999999-0071REMSYN070AAXX  27184 82983 32595 61406 10316 20171 39666 40077 84101 333 59007;EQDQ01  00002PRCP06
0198829830999992004032800004-09383-040483FM-12+037099999V0201401N001510075019N0020001N1+02841+01821100921ADDAA106000091GF106991061021008001001001KA1240M+03241MA1999999096801MD1999999+0041REMSYN088AAXX  28004 82983 32595 61403 10284 20182 39680 40092 86200 333 10324 29055 55089 58004;EQDQ01  00002PRCP06
0202829830999992004032812004-09383-040483FM-12+037099999V0200901N003119999999N0020001N1+02561+01951101271ADDAA106000091GF106991999021008001001001KA1240N+02281MA1999999097141MD1999999+0151REMSYN076AAXX  28124 82983 32595 60906 10256 20195 39714 40127 83200 333 20228 58015;EQDQ01+000032SCOTLCQ02  00002PRCP06
0167829830999992004032818004-09383-040483FM-12+037099999V0200901N001512200019N0020001N1+03181+01531100821ADDAA106000091GF104991021011008001021011MA1999999096741MD1999999+0121REMSYN070AAXX  28184 82983 32595 40903 10318 20153 39674 40082 82121 333 58012;EQDQ01  00002PRCP06
0198829830999992004032900004-09383-040483FM-12+037099999V0200901N001510075019N0020001N1+02801+01691100971ADDAA106000091GF106991061021008001001001KA1240M+03261MA1999999096851MD1999999+0051REMSYN088AAXX  29004 82983 32595 60903 10280 20169 39685 40097 86200 333 10326 29052 55094 58005;EQDQ01  00002PRCP06
0186829830999992004032912004-09383-040483FM-12+037099999V0201401N003110075019N0020001N1+02521+01891101411ADDAA106000091GF106991061011008001001001KA1240N+02201MA1999999097271MD1999999+0131REMSYN076AAXX  29124 82983 32595 61406 10252 20189 39727 40141 86100 333 20220 58013;EQDQ01  00002PRCP06
0167829830999992004032918004-09383-040483FM-12+037099999V0200901N002612200019N0020001N1+03201+01591100941ADDAA106000091GF106991041011008001001011MA1999999096851MD1999999+0111REMSYN070AAXX  29184 82983 32595 60905 10320 20159 39685 40094 84101 333 58011;EQDQ01  00002PRCP06
0198829830999992004033000004-09383-040483FM-12+037099999V0201401N001512200019N0020001N1+02681+01811101261ADDAA106000091GF103991021011008001011001KA1240M+03261MA1999999097121MD1999999+0271REMSYN088AAXX  30004 82983 32595 31403 10268 20181 39712 40126 82110 333 10326 29056 55091 58027;EQDQ01  00002PRCP06
0186829830999992004033012004-09383-040483FM-12+037099999V0201401N003112200019N0020001N1+02581+01871101531ADDAA106000091GF105991041011008001001011KA1240N+02181MA1999999097381MD1999999+0111REMSYN076AAXX  30124 82983 32595 51406 10258 20187 39738 40153 84101 333 20218 58011;EQDQ01  00002PRCP06
0167829830999992004033018004-09383-040483FM-12+037099999V0201401N002610450019N0020001N1+03121+01711101111ADDAA106000091GF106991021011008001021021MA1999999096991MD1999999+0141REMSYN070AAXX  30184 82983 32595 61405 10312 20171 39699 40111 82122 333 58014;EQDQ01  00002PRCP06
0198829830999992004033100004-09383-040483FM-12+037099999V0200501N001510075019N0020001N1+02721+01851101341ADDAA106000091GF105991051011008001001001KA1240M+03201MA1999999097201MD1999999+0081REMSYN088AAXX  31004 82983 32595 50503 10272 20185 39720 40134 85100 333 10320 29056 55080 58008;EQDQ01  00002PRCP06
0186829830999992004033112004-09383-040483FM-12+037099999V0200901N003110450019N0020001N1+02541+01881101501ADDAA106000091GF106991011011008001011021KA1240N+02261MA1999999097351MD1999999-0031REMSYN076AAXX  31124 82983 32595 60906 10254 20188 39735 40150 81112 333 20226 59003;EQDQ01  00002PRCP06
0167829830999992004033118004-09383-040483FM-12+037099999V0200901N001510450019N0020001N1+03181+01731100981ADDAA106000091GF106991031011008001011011MA1999999096871MD1999999-0121REMSYN070AAXX  31184 82983 32595 60903 10318 20173 39687 40098 83111 333 59012;EQDQ01  00002PRCP06
0208829830999992004040100004-09383-040483FM-12+037099999V0201801N001512200019N0020001N1+02681+01861101221ADDAA106000091GA1001+999999999GF100991001001999999001001KA1240M+03321MA1999999097081MD1999999-0121REMSYN082AAXX  01004 82983 32995 01803 10268 20186 39708 40122 333 10332 29058 55105 59012;EQDQ01  00002PRCP06
0186829830999992004040112004-09383-040483FM-12+037099999V0200901N003110450019N0020001N1+02601+01961101561ADDAA106000091GF106991041011008001011011KA1240N+02321MA1999999097411MD1999999+0061REMSYN076AAXX  01124 82983 32595 60906 10260 20196 39741 40156 84111 333 20232 58006;EQDQ01  00002PRCP06
0167829830999992004040118004-09383-040483FM-12+037099999V0201401N001010450019N0020001N1+03221+01841100981ADDAA106000091GF106991041011008001021011MA1999999096891MD1999999+0021REMSYN070AAXX  01184 82983 32595 61402 10322 20184 39689 40098 84121 333 58002;EQDQ01  00002PRCP06
0167829830999992004040218004-09383-040483FM-12+037099999V0200901N001510075019N0020001N1+03161+01711101041ADDAA106000091GF105991051011008001001001MA1999999096931MD1999999+0041REMSYN070AAXX  02184 82983 32595 50903 10316 20171 39693 40104 85100 333 58004;EQDQ01  00002PRCP06
0208829830999992004040300004-09383-040483FM-12+037099999V0201401N001012200019N0020001N1+02721+02081101171ADDAA106000091GA1001+999999999GF100991001001999999001001KA1240M+03261MA1999999097041MD1999999-0011REMSYN082AAXX  03004 82983 32995 01402 10272 20208 39704 40117 333 10326 29061 55089 59001;EQDQ01  00002PRCP06
0186829830999992004040512004-09383-040483FM-12+037099999V0201401N004110075019N0020001N1+02741+02051101431ADDAA106000091GF106991061011008001001001KA1240N+02461MA1999999097321MD1999999-0121REMSYN076AAXX  05124 82983 32595 61408 10274 20205 39732 40143 86100 333 20246 59012;EQDQ01  00002PRCP06
0167829830999992004040518004-09383-040483FM-12+037099999V0200901N002610075019N0020001N1+03241+01711101031ADDAA106000091GF106991061011008001001001MA1999999096941MD1999999+0001REMSYN070AAXX  05184 82983 32595 60905 10324 20171 39694 40103 86100 333 58000;EQDQ01  00002PRCP06
0186829830999992004040612004-09383-040483FM-12+037099999V0200901N003110450019N0020001N1+02521+01891101421ADDAA106000091GF105991031011008001021011KA1240N+02301MA1999999097281MD1999999-0041REMSYN076AAXX  06124 82983 32595 50906 10252 20189 39728 40142 83121 333 20230 59004;EQDQ01  00002PRCP06
0167829830999992004040618004-09383-040483FM-12+037099999V0201401N001010450019N0020001N1+03081+01851100961ADDAA106000091GF107991041011008001021021MA1999999096841MD1999999-0101REMSYN070AAXX  06184 82983 32595 71402 10308 20185 39684 40096 84122 333 59010;EQDQ01  00002PRCP06
0198829830999992004040700004-09383-040483FM-12+037099999V0201401N001512200019N0020001N1+02741+01871101051ADDAA106000091GF104991041011008001001001KA1240M+03161MA1999999096921MD1999999-0101REMSYN088AAXX  07004 82983 32595 41403 10274 20187 39692 40105 84100 333 10316 29058 55068 59010;EQDQ01  00002PRCP06
0186829830999992004040712004-09383-040483FM-12+037099999V0201401N003111050019N0020001N1+02601+01921101311ADDAA106000091GF106991041011008001001021KA1240N+02221MA1999999097171MD1999999-0111REMSYN076AAXX  07124 82983 32595 61406 10260 20192 39717 40131 84102 333 20222 59011;EQDQ01  00002PRCP06
0167829830999992004040718004-09383-040483FM-12+037099999V0201401N001512200019N0020001N1+03281+01861100771ADDAA106000091GF106991041011008001001011MA1999999096691MD1999999-0151REMSYN070AAXX  07184 82983 32595 61403 10328 20186 39669 40077 84101 333 59015;EQDQ01  00002PRCP06
0198829830999992004040800004-09383-040483FM-12+037099999V0209999C000012200019N0020001N1+02801+02061101031ADDAA106000091GF103991021011008001011001KA1240M+03361MA1999999096911MD1999999-0011REMSYN088AAXX  08004 82983 32595 30000 10280 20206 39691 40103 82110 333 10336 29059 55101 59001;EQDQ01  00002PRCP06
0186829830999992004040812004-09383-040483FM-12+037099999V0201401N003110075019N0020001N1+02581+01991101381ADDAA106000091GF106991061011008001001001KA1240N+02381MA1999999097241MD1999999+0071REMSYN076AAXX  08124 82983 32595 61406 10258 20199 39724 40138 86100 333 20238 58007;EQDQ01  00002PRCP06
0167829830999992004040818004-09383-040483FM-12+037099999V0201801N002612200019N0020001N1+03221+01841100921ADDAA106000091GF105991031011008001001011MA1999999096831MD1999999+0141REMSYN070AAXX  08184 82983 32595 51805 10322 20184 39683 40092 83101 333 58014;EQDQ01  00002PRCP06
0198829830999992004040900004-09383-040483FM-12+037099999V0200501N003110075019N0020001N1+02761+02021101221ADDAA106000091GF105991051011008001001001KA1240M+03341MA1999999097081MD1999999+0171REMSYN088AAXX  09004 82983 32595 50506 10276 20202 39708 40122 85100 333 10334 29060 55098 58017;EQDQ01  00002PRCP06
0190829830999992004040912004-09383-040483FM-12+037099999V0201401N003110075019N0020001N1+02621+02031101431ADDAY151061AY261061GF107991051011008001021011KA1240N+02321MA1999999097291MD1999999+0051MW1021REMSYN088AAXX  09124 82983 21595 71406 10262 20203 39729 40143 70256 85121 333 20232 58005 60264;
0167829830999992004040918004-09383-040483FM-12+037099999V0200901N001510450019N0020001N1+03121+01891100951ADDAA106000091GF106991031011008001021021MA1999999096851MD1999999+0021REMSYN070AAXX  09184 82983 32595 60903 10312 20189 39685 40095 83122 333 58002;EQDQ01  00002PRCP06
0198829830999992004041000004-09383-040483FM-12+037099999V0200901N001512200019N0020001N1+02781+01931101091ADDAA106000091GF102991021011008001001001KA1240M+03181MA1999999096961MD1999999-0121REMSYN088AAXX  10004 82983 32595 20903 10278 20193 39696 40109 82100 333 10318 29060 55064 59012;EQDQ01  00002PRCP06
0186829830999992004041012004-09383-040483FM-12+037099999V0201401N003110075019N0020001N1+02621+01931101171ADDAA106000091GF105991051011008001001001KA1240N+02221MA1999999097041MD1999999+0251REMSYN076AAXX  10124 82983 32595 51406 10262 20193 39704 40117 85100 333 20222 58025;EQDQ01  00002PRCP06
0167829830999992004041018004-09383-040483FM-12+037099999V0209999C000012200019N0020001N1+03201+01751100611ADDAA106000091GF105991041011008001001011MA1999999096521MD1999999-0331REMSYN070AAXX  10184 82983 32595 50000 10320 20175 39652 40061 84101 333 59033;EQDQ01  00002PRCP06
0198829830999992004041100004-09383-040483FM-12+037099999V0209999C000010075019N0020001N1+02781+02131100691ADDAA106000091GF106991061011008001001001KA1240M+03321MA1999999096581MD1999999-0381REMSYN088AAXX  11004 82983 32595 60000 10278 20213 39658 40069 86100 333 10332 29061 55111 59038;EQDQ01  00002PRCP06
0186829830999992004041112004-09383-040483FM-12+037099999V0201401N003110075019N0020001N1+02661+01871100981ADDAA106000091GF106991061011008001001001KA1240N+02381MA1999999096861MD1999999-0181REMSYN076AAXX  11124 82983 32595 61406 10266 20187 39686 40098 86100 333 20238 59018;EQDQ01  00002PRCP06
0167829830999992004041118004-09383-040483FM-12+037099999V0201401N001512200019N0020001N1+03341+01911100461ADDAA106000091GF103991031011008001001001MA1999999096391MD1999999-0131REMSYN070AAXX  11184 82983 32595 31403 10334 20191 39639 40046 83100 333 59013;EQDQ01  00002PRCP06
0198829830999992004041200004-09383-040483FM-12+037099999V0201401N001512200019N0020001N1+02921+01861100701ADDAA106000091GF104991041011008001001001KA1240M+03441MA1999999096621MD1999999+0041REMSYN088AAXX  12004 82983 32595 41403 10292 20186 39662 40070 84100 333 10344 29053 55095 58004;EQDQ01  00002PRCP06
0186829830999992004041212004-09383-040483FM-12+037099999V0201401N004112200019N0020001N1+02661+02071101021ADDAA106000091GF104991041011008001001001KA1240N+02401MA1999999096931MD1999999+0071REMSYN076AAXX  12124 82983 32595 41408 10266 20207 39693 40102 84100 333 20240 58007;EQDQ01  00002PRCP06
0167829830999992004041218004-09383-040483FM-12+037099999V0201401N001512200019N0020001N1+03241+01781100661ADDAA106000091GF104991041011008001001001MA1999999096581MD1999999+0191REMSYN070AAXX  12184 82983 32595 41403 10324 20178 39658 40066 84100 333 58019;EQDQ01  00002PRCP06
0198829830999992004041300004-09383-040483FM-12+037099999V0201801N001512200019N0020001N1+02801+01901100861ADDAA106000091GF103991031011008001001001KA1240M+03381MA1999999096761MD1999999+0141REMSYN088AAXX  13004 82983 32595 31803 10280 20190 39676 40086 83100 333 10338 29057 55107 58014;EQDQ01  00002PRCP06
0186829830999992004041312004-09383-040483FM-12+037099999V0201401N002610450019N0020001N1+02761+01911101291ADDAA106000091GF106991031011008001021011KA1240N+02561MA1999999097181MD1999999+0251REMSYN076AAXX  13124 82983 32595 61405 10276 20191 39718 40129 83121 333 20256 58025;EQDQ01  00002PRCP06
0167829830999992004041318004-09383-040483FM-12+037099999V0203601N001512200019N0020001N1+03361+01731100871ADDAA106000091GF104991021011008001001031MA1999999096791MD1999999+0211REMSYN070AAXX  13184 82983 32595 43603 10336 20173 39679 40087 82103 333 58021;EQDQ01  00002PRCP06
0214829830999992004041400004-09383-040483FM-12+037099999V0201401N001510075019N0020001N1+02801+01871101071ADDAA106000091GF106991999011008001001001KA1240M+03461MA1999999096971MD1999999+0211REMSYN088AAXX  14004 82983 32595 61403 10280 20187 39697 40107 85100 333 10346 29052 55089 58021;EQDQ01+000052SCOTLCQ02  00002PRCP06
0186829830999992004041412004-09383-040483FM-12+037099999V0200901N004110075019N0020001N1+02761+01991101331ADDAA106000091GF106991061011008001001001KA1240N+02521MA1999999097221MD1999999+0041REMSYN076AAXX  14124 82983 32595 60908 10276 20199 39722 40133 86100 333 20252 58004;EQDQ01  00002PRCP06
0167829830999992004041418004-09383-040483FM-12+037099999V0200501N002610075019N0020001N1+03181+01771100851ADDAA106000091GF106991061021008001001001MA1999999096761MD1999999-0031REMSYN070AAXX  14184 82983 32595 60505 10318 20177 39676 40085 86200 333 59003;EQDQ01  00002PRCP06
0198829830999992004041500004-09383-040483FM-12+037099999V0201401N003112200019N0020001N1+02781+02061101111ADDAA106000091GF103991031011008001001001KA1240M+03321MA1999999096991MD1999999+0021REMSYN088AAXX  15004 82983 32595 31406 10278 20206 39699 40111 83100 333 10332 29060 55087 58002;EQDQ01  00002PRCP06
0186829830999992004041512004-09383-040483FM-12+037099999V0201401N004112200019N0020001N1+02621+01761101321ADDAA106000091GF104991021011008001001021KA1240N+02381MA1999999097181MD1999999-0041REMSYN076AAXX  15124 82983 32595 41408 10262 20176 39718 40132 82102 333 20238 59004;EQDQ01  00002PRCP06
0167829830999992004041518004-09383-040483FM-12+037099999V0201401N001512200019N0020001N1+03241+01581100821ADDAA106000091GF104991041011008001001001MA1999999096741MD1999999-0021REMSYN070AAXX  15184 82983 32595 41403 10324 20158 39674 40082 84100 333 59002;EQDQ01  00002PRCP06
0208829830999992004041600004-09383-040483FM-12+037099999V0201801N002612200019N0020001N1+02741+01541101031ADDAA106000091GA1001+999999999GF100991001001999999001001KA1240M+03321MA1999999096911MD1999999-0081REMSYN082AAXX  16004 82983 32995 01805 10274 20154 39691 40103 333 10332 29048 55109 59008;EQDQ01  00002PRCP06
0202829830999992004041612004-09383-040483FM-12+037099999V0201401N003119999999N0020001N1+02561+01881101461ADDAA106000091GF106991999011008001001001KA1240N+02301MA1999999097321MD1999999+0141REMSYN076AAXX  16124 82983 32595 61406 10256 20188 39732 40146 84100 333 20230 58014;EQDQ01+000042SCOTLCQ02  00002PRCP06
0167829830999992004041618004-09383-040483FM-12+037099999V0201401N003110450019N0020001N1+03181+01731100971ADDAA106000091GF106991031011008001011021MA1999999096861MD1999999+0071REMSYN070AAXX  16184 82983 32595 61406 10318 20173 39686 40097 83112 333 58007;EQDQ01  00002PRCP06
0202829830999992004041700004-09383-040483FM-12+037099999V0201401N001512200019N0020001N1+02661+01951101251ADDAY161061AY221061GF103991031011008001001001KA1240M+03261MA1999999097111MD1999999+0201MW1011REMSYN100AAXX  17004 82983 21595 31403 10266 20195 39711 40125 70162 83100 333 10326 29060 55070 58020 60011;
0162829830999992004041712004-09383-040483FM-12+037099999V0201401N003110075019N0020001N1+02581+01941101591ADDGF106991061021008001001001KA1240N+02341MA1999999097431MD1999999+0111REMSYN082AAXX  17124 82983 22595 61406 10258 20194 39743 40159 86200 333 20234 58011 60014;
0167829830999992004041718004-09383-040483FM-12+037099999V0200901N001512200019N0020001N1+03201+01751101101ADDAA106000091GF104991021011008001001011MA1999999097001MD1999999+0141REMSYN070AAXX  17184 82983 32595 40903 10320 20175 39700 40110 82101 333 58014;EQDQ01  00002PRCP06
0198829830999992004041800004-09383-040483FM-12+037099999V0201401N003110075019N0020001N1+02821+01911101331ADDAA106000091GF105991051011008001001001KA1240M+03221MA1999999097191MD1999999+0081REMSYN088AAXX  18004 82983 32595 51406 10282 20191 39719 40133 85100 333 10322 29056 55062 58008;EQDQ01  00002PRCP06
0186829830999992004041812004-09383-040483FM-12+037099999V0201401N003112200019N0020001N1+02661+01851101601ADDAA106000091GF104991021011008001011001KA1240N+02321MA1999999097441MD1999999+0011REMSYN076AAXX  18124 82983 32595 41406 10266 20185 39744 40160 82110 333 20232 58001;EQDQ01  00002PRCP06
0167829830999992004041818004-09383-040483FM-12+037099999V0200901N001510450019N0020001N1+03281+01441101061ADDAA106000091GF105991031011008001021011MA1999999096961MD1999999-0041REMSYN070AAXX  18184 82983 32595 50903 10328 20144 39696 40106 83121 333 59004;EQDQ01  00002PRCP06
0198829830999992004041900004-09383-040483FM-12+037099999V0200901N003110075019N0020001N1+02921+01861101211ADDAA106000091GF106991061021008001001001KA1240M+03361MA1999999097111MD1999999-0081REMSYN088AAXX  19004 82983 32595 60906 10292 20186 39711 40121 86200 333 10336 29050 55108 59008;EQDQ01  00002PRCP06
0186829830999992004041912004-09383-040483FM-12+037099999V0201401N004110450019N0020001N1+02581+01851101481ADDAA106000091GF106991041011008001011001KA1240N+02351MA1999999097351MD1999999-0091REMSYN076AAXX  19124 82983 32595 61408 10258 20185 39735 40148 84110 333 20235 59009;EQDQ01  00002PRCP06
0183829830999992004041918004-09383-040483FM-12+037099999V0201401N003110075019N0020001N1+02921+01601101001ADDAA106000091GF108991999021008001001001MA1999999096891MD1999999-0071REMSYN070AAXX  19184 82983 32595 81406 10292 20160 39689 40100 86200 333 59007;EQDQ01+000062SCOTLCQ02  00002PRCP06
0198829830999992004042000004-09383-040483FM-12+037099999V0200901N001512200019N0020001N1+02681+01551101171ADDAA106000091GF102991021011008001001001KA1240M+02961MA1999999097031MD1999999-0081REMSYN088AAXX  20004 82983 32595 20903 10268 20155 39703 40117 82100 333 10296 29052 55024 59008;EQDQ01  00002PRCP06
0186829830999992004042012004-09383-040483FM-12+037099999V0201401N003112200019N0020001N1+02641+01831101421ADDAA106000091GF104991021011008001001011KA1240N+02241MA1999999097281MD1999999-0071REMSYN076AAXX  20124 82983 32595 41406 10264 20183 39728 40142 82101 333 20224 59007;EQDQ01  00002PRCP06
0183829830999992004042018004-09383-040483FM-12+037099999V0200901N003112200019N0020001N1+03241+01211100951ADDAA106000091GF102991999001008001021001MA1999999096851MD1999999-0041REMSYN070AAXX  20184 82983 32595 20906 10324 20121 39685 40095 80020 333 59004;EQDQ01+000002SCOTLCQ02  00002PRCP06
0198829830999992004042100004-09383-040483FM-12+037099999V0200501N002610075019N0020001N1+02841+01351101121ADDAA106000091GF106991061061008001001001KA1240M+03341MA1999999097001MD1999999-0031REMSYN088AAXX  21004 82983 32595 60505 10284 20135 39700 40112 86600 333 10334 29042 55110 59003;EQDQ01  00002PRCP06
0186829830999992004042112004-09383-040483FM-12+037099999V0200901N003112200019N0020001N1+02521+01741101461ADDAA106000091GF103991011011008001021051KA1240N+02201MA1999999097321MD1999999+0041REMSYN076AAXX  21124 82983 32595 30906 10252 20174 39732 40146 81125 333 20220 58004;EQDQ01  00002PRCP06
0167829830999992004042118004-09383-040483FM-12+037099999V0201401N002611050019N0020001N1+03321+01481100931ADDAA106000091GF105991021011008001021021MA1999999096841MD1999999-0011REMSYN070AAXX  21184 82983 32595 51405 10332 20148 39684 40093 82122 333 59001;EQDQ01  00002PRCP06
0214829830999992004042200004-09383-040483FM-12+037099999V0201401N004112200019N0020001N1+02821+01801101241ADDAA106000091GF103991031011008001001001KA1240M+03361MA1999999999999MD1999999+0101REMSYN088AAXX  22004 82983 32595 31408 10282 20180 39310 40124 83100 333 10336 29051 55101 58010;EQDQ01  00002PRCP06Q02 093103APOSP 
0186829830999992004042212004-09383-040483FM-12+037099999V0201401N004110075019N0020001N1+02521+01841101371ADDAA106000091GF108991051051008001999999KA1240N+02361MA1999999097261MD1999999-0091REMSYN076AAXX  22124 82983 32595 81408 10252 20184 39726 40137 855// 333 20236 59009;EQDQ01  00002PRCP06
0167829830999992004042218004-09383-040483FM-12+037099999V0200901N003110075019N0020001N1+03041+01881100931ADDAA106000091GF106991061011008001001001MA1999999096811MD1999999-0031REMSYN070AAXX  22184 82983 32595 60906 10304 20188 39681 40093 86100 333 59003;EQDQ01  00002PRCP06
0198829830999992004042300004-09383-040483FM-12+037099999V0200901N003110075019N0020001N1+02701+02061101081ADDAA106000091GF106991061021008001001001KA1240M+03121MA1999999096981MD1999999-0121REMSYN088AAXX  23004 82983 32595 60906 10270 20206 39698 40108 86200 333 10312 29063 55048 59012;EQDQ01  00002PRCP06
0186829830999992004042312004-09383-040483FM-12+037099999V0200901N003110075019N0020001N1+02541+01861101231ADDAA106000091GF105991051011008001001001KA1240N+02201MA1999999097091MD1999999-0141REMSYN076AAXX  23124 82983 32595 50906 10254 20186 39709 40123 85100 333 20220 59014;EQDQ01  00002PRCP06
0167829830999992004042318004-09383-040483FM-12+037099999V0201401N003110075019N0020001N1+03141+01661100751ADDAA106000091GF106991061011008001001001MA1999999096631MD1999999-0011REMSYN070AAXX  23184 82983 32595 61406 10314 20166 39663 40075 86100 333 59001;EQDQ01  00002PRCP06
0208829830999992004042400004-09383-040483FM-12+037099999V0201401N001512200019N0020001N1+02741+01841100891ADDAA106000091GA1001+999999999GF100991001001999999001001KA1240M+03241MA1999999096771MD1999999-0211REMSYN082AAXX  24004 82983 32995 01403 10274 20184 39677 40089 333 10324 29056 55094 59021;EQDQ01  00002PRCP06
0190829830999992004042412004-09383-040483FM-12+037099999V0201401N003110075019N0020001N1+02441+02091101121ADDAY111061AY221061GF106991051021008001011001KA1240N+02321MA1999999096981MD1999999-0111MW1501REMSYN088AAXX  24124 82983 21595 61406 10244 20209 39698 40112 75012 85210 333 20232 59011 69904;
0148829830999992004042418004-09383-040483FM-12+037099999V0200501N002610075019N0020001N1+03141+01771100691ADDAA106000021GF106991061011008001001001MA1999999096581MD1999999-0051REMSYN070AAXX  24184 82983 32595 60505 10314 20177 39658 40069 86100 333 59005;
0198829830999992004042500004-09383-040483FM-12+037099999V0201401N003110075019N0020001N1+02781+01911100811ADDAA106000091GF106991061011008001001001KA1240M+03281MA1999999096781MD1999999+0011REMSYN088AAXX  25004 82983 32595 61406 10278 20191 39678 40081 86100 333 10328 29061 55069 58001;EQDQ01  00002PRCP06
0083829830999992004042512004-09383-040483FM-12+037099999V02099999999999999999N9999999N1+99999+99999999999REMSYN074AAXX  25124 82983 325 41406 10258 20194 39716 40130 82120 333 20228 58018;
0167829830999992004042518004-09383-040483FM-12+037099999V0200901N001010450019N0020001N1+03341+01711100771ADDAA106000091GF105991031011008001011001MA1999999096691MD1999999+0111REMSYN070AAXX  25184 82983 32595 50902 10334 20171 39669 40077 83110 333 58011;EQDQ01  00002PRCP06
0198829830999992004042600004-09383-040483FM-12+037099999V0201401N001512200019N0020001N1+02941+01721101041ADDAA106000091GF102991021011008001001001KA1240M+03401MA1999999096931MD1999999+0151REMSYN088AAXX  26004 82983 32595 21403 10294 20172 39693 40104 82100 333 10340 29051 55105 58015;EQDQ01  00002PRCP06
0186829830999992004042612004-09383-040483FM-12+037099999V0200901N002610450019N0020001N1+02661+02021101351ADDAA106000091GF106991031011008001011011KA1240N+02441MA1999999097241MD1999999+0081REMSYN076AAXX  26124 82983 32595 60905 10266 20202 39724 40135 83111 333 20244 58008;EQDQ01  00002PRCP06
0167829830999992004042618004-09383-040483FM-12+037099999V0209999C000012200019N0020001N1+03321+01851100821ADDAA106000091GF104991031011008001001011MA1999999096741MD1999999+0051REMSYN070AAXX  26184 82983 32595 40000 10332 20185 39674 40082 83101 333 58005;EQDQ01  00002PRCP06
0198829830999992004042700004-09383-040483FM-12+037099999V0201801N001510075019N0020001N1+02801+02031101131ADDAA106000091GF106991061011008001001001KA1240M+03381MA1999999097011MD1999999+0081REMSYN088AAXX  27004 82983 32595 61803 10280 20203 39701 40113 86100 333 10338 29059 55101 58008;EQDQ01  00002PRCP06
0185829830999992004042712004-09383-040483FM-12+037099999V0200901N004110075019N0020001N1+02661+01951101491ADDAA106000091GF106991061021008001001001KA1240N+02441MA1999999097361MD1999999+0121REMSYN075AAXX  27124 82983 32595 60908 10266 20195 3973640149 86200 333 20244 58012;EQDQ01  00002PRCP06
0167829830999992004042718004-09383-040483FM-12+037099999V0201401N001510450019N0020001N1+03321+01781100981ADDAA106000091GF105991041011008001011011MA1999999096891MD1999999+0151REMSYN070AAXX  27184 82983 32595 51403 10332 20178 39689 40098 84111 333 58015;EQDQ01  00002PRCP06
0198829830999992004042800004-09383-040483FM-12+037099999V0201801N001510075019N0020001N1+02821+01801101311ADDAA106000091GF105991051021008001001001KA1240M+03461MA1999999097191MD1999999+0181REMSYN088AAXX  28004 82983 32595 51803 10282 20180 39719 40131 85200 333 10346 29053 55089 58018;EQDQ01  00002PRCP06
0202829830999992004042812004-09383-040483FM-12+037099999V0201401N003119999999N0020001N1+02681+02041101541ADDAA106000091GF106991999021008001001001KA1240N+02501MA1999999097411MD1999999+0051REMSYN076AAXX  28124 82983 32595 61406 10268 20204 39741 40154 84200 333 20250 58005;EQDQ01+000042SCOTLCQ02  00002PRCP06
0167829830999992004042818004-09383-040483FM-12+037099999V0200901N003110075019N0020001N1+03221+01801101021ADDAA106000091GF105991051011008001001001MA1999999096931MD1999999+0041REMSYN070AAXX  28184 82983 32595 50906 10322 20180 39693 40102 85100 333 58004;EQDQ01  00002PRCP06
0198829830999992004042900004-09383-040483FM-12+037099999V0201401N002610075019N0020001N1+02781+01981101361ADDAA106000091GF106991061021008001001001KA1240M+03361MA1999999097241MD1999999+0051REMSYN088AAXX  29004 82983 32595 61405 10278 20198 39724 40136 86200 333 10336 29059 55081 58005;EQDQ01  00002PRCP06
0202829830999992004042912004-09383-040483FM-12+037099999V0200901N003110075019N0020001N1+02521+02021101581ADDAA106000091GF108991999021008001001001KA1240N+02421MA1999999097421MD1999999+0011REMSYN076AAXX  29124 82983 32595 80906 10252 20202 39742 40158 85200 333 20242 58001;EQDQ01+000052SCOTLCQ02  00002PRCP06
0167829830999992004042918004-09383-040483FM-12+037099999V0200901N002610075019N0020001N1+02881+02051101091ADDAA106000091GF105991051011008001001001MA1999999096951MD1999999+0021REMSYN070AAXX  29184 82983 32595 50905 10288 20205 39695 40109 85100 333 58002;EQDQ01  00002PRCP06
0208829830999992004043000004-09383-040483FM-12+037099999V0201801N002612200019N0020001N1+02481+01961101351ADDAA106000091GA1001+999999999GF100991001001999999001001KA1240M+02981MA1999999097191MD1999999-0051REMSYN082AAXX  30004 82983 32995 01805 10248 20196 39719 40135 333 10298 29070 55041 59005;EQDQ01  00002PRCP06
0186829830999992004043012004-09383-040483FM-12+037099999V0201401N003110075019N0020001N1+02521+01771101521ADDAA106000091GF106991061011008001001001KA1240N+02221MA1999999097351MD1999999-0071REMSYN076AAXX  30124 82983 32595 61406 10252 20177 39735 40152 86100 333 20222 59007;EQDQ01  00002PRCP06
0167829830999992004043018004-09383-040483FM-12+037099999V0201401N002610075019N0020001N1+03081+01711100931ADDAA106000091GF105991051011008001001001MA1999999096811MD1999999-0141REMSYN070AAXX  30184 82983 32595 51405 10308 20171 39681 40093 85100 333 59014;EQDQ01  00002PRCP06
0214829830999992004050100004-09383-040483FM-12+037099999V0201401N001519999999N0020001N1+02501+01671101231ADDAA106000091GF105991999011008001001001KA1240M+03181MA1999999097081MD1999999-0111REMSYN088AAXX  01004 82983 32595 51403 10250 20167 39708 40123 82100 333 10318 29057 55109 59011;EQDQ01+000022SCOTLCQ02  00002PRCP06
0186829830999992004050112004-09383-040483FM-12+037099999V0201401N003110075019N0020001N1+02541+01981101441ADDAA106000091GF106991061011008001001001KA1240N+02221MA1999999097281MD1999999-0071REMSYN076AAXX  01124 82983 32595 61406 10254 20198 39728 40144 86100 333 20222 59007;EQDQ01  00002PRCP06
0167829830999992004050118004-09383-040483FM-12+037099999V0200901N003110075019N0020001N1+03141+01731100841ADDAA106000091GF106991061011008001001001MA1999999096721MD1999999-0091REMSYN070AAXX  01184 82983 32595 60906 10314 20173 39672 40084 86100 333 59009;EQDQ01  00002PRCP06
0208829830999992004050200004-09383-040483FM-12+037099999V0201401N004112200019N0020001N1+02581+01991101111ADDAA106000091GA1001+999999999GF100991001001999999001001KA1240M+03261MA1999999096971MD1999999-0111REMSYN082AAXX  02004 82983 32995 01408 10258 20199 39697 40111 333 10326 29064 55097 59011;EQDQ01  00002PRCP06
0186829830999992004050212004-09383-040483FM-12+037099999V0201401N004110075019N0020001N1+02541+01711101441ADDAA106000091GF108991081051008001999999KA1240N+02381MA1999999097281MD1999999+0001REMSYN076AAXX  02124 82983 32595 81408 10254 20171 39728 40144 885// 333 20238 58000;EQDQ01  00002PRCP06
0167829830999992004050218004-09383-040483FM-12+037099999V0201401N003110075019N0020001N1+03161+01791101001ADDAA106000091GF105991051011008001001001MA1999999096891MD1999999+0171REMSYN070AAXX  02184 82983 32595 51406 10316 20179 39689 40100 85100 333 58017;EQDQ01  00002PRCP06
0208829830999992004050300004-09383-040483FM-12+037099999V0201401N003112200019N0020001N1+02641+01451101271ADDAA106000091GA1001+999999999GF100991001001999999001001KA1240M+03241MA1999999097131MD1999999+0161REMSYN082AAXX  03004 82983 32595 01406 10264 20145 39713 40127 333 10324 29050 55064 58016;EQDQ01  00002PRCP06
0186829830999992004050312004-09383-040483FM-12+037099999V0200901N004110075019N0020001N1+02461+01711101531ADDAA106000091GF106991061011008001001001KA1240N+02121MA1999999097371MD1999999+0091REMSYN076AAXX  03124 82983 32595 60908 10246 20171 39737 40153 86100 333 20212 58009;EQDQ01  00002PRCP06
0167829830999992004050318004-09383-040483FM-12+037099999V0200901N002612200019N0020001N1+03141+01541101061ADDAA106000091GF102991021011008001001001MA1999999096931MD1999999+0041REMSYN070AAXX  03184 82983 32595 20905 10314 20154 39693 40106 82100 333 58004;EQDQ01  00002PRCP06
0198829830999992004050400004-09383-040483FM-12+037099999V0201401N001512200019N0020001N1+02641+01321101241ADDAA106000091GF103991031011008001001001KA1240M+03201MA1999999097101MD1999999-0031REMSYN088AAXX  04004 82983 32595 31403 10264 20132 39710 40124 83100 333 10320 29048 55093 59003;EQDQ01  00002PRCP06
0186829830999992004050412004-09383-040483FM-12+037099999V0200901N003110450019N0020001N1+02501+01771101461ADDAA106000091GF106991031011008001021001KA1240N+02121MA1999999097301MD1999999-0071REMSYN076AAXX  04124 82983 32595 60906 10250 20177 39730 40146 83120 333 20212 59007;EQDQ01  00002PRCP06
0202829830999992004050512004-09383-040483FM-12+037099999V0201401N003119999999N0020001N1+02541+01981101541ADDAA106000091GF108991999021008001001001KA1240N+02221MA1999999097381MD1999999+0081REMSYN076AAXX  05124 82983 32595 81406 10254 20198 39738 40154 83200 333 20222 58008;EQDQ01+000032SCOTLCQ02  00002PRCP06
0167829830999992004050518004-09383-040483FM-12+037099999V0201401N003110450019N0020001N1+03041+01851101061ADDAA106000091GF106991041011008001011011MA1999999096931MD1999999+0091REMSYN070AAXX  05184 82983 32595 61406 10304 20185 39693 40106 84111 333 58009;EQDQ01  00002PRCP06
0198829830999992004050600004-09383-040483FM-12+037099999V0201401N003112200019N0020001N1+02601+01991101311ADDAA106000091GF102991021061008001001001KA1240M+03161MA1999999097151MD1999999+0021REMSYN088AAXX  06004 82983 32595 21406 10260 20199 39715 40131 82600 333 10316 29064 55064 58002;EQDQ01  00002PRCP06
0186829830999992004050612004-09383-040483FM-12+037099999V0201401N003110075019N0020001N1+02561+01851101601ADDAA106000091GF106991061011008001001001KA1240N+02201MA1999999097441MD1999999+0061REMSYN076AAXX  06124 82983 32595 61406 10256 20185 39744 40160 86100 333 20220 58006;EQDQ01  00002PRCP06
0167829830999992004050618004-09383-040483FM-12+037099999V0201401N003112200019N0020001N1+03241+01211101091ADDAA106000091GF102991011011008001001011MA1999999096971MD1999999+0041REMSYN070AAXX  06184 82983 32595 21406 10324 20121 39697 40109 81101 333 58004;EQDQ01  00002PRCP06
0208829830999992004050700004-09383-040483FM-12+037099999V0201401N003112200019N0020001N1+02741+01701101311ADDAA106000091GA1001+999999999GF100991001001999999001001KA1240M+03341MA1999999097171MD1999999+0021REMSYN082AAXX  07004 82983 32995 01406 10274 20170 39717 40131 333 10334 29050 55105 58002;EQDQ01  00002PRCP06
0186829830999992004050712004-09383-040483FM-12+037099999V0201401N003110075019N0020001N1+02521+01861101601ADDAA106000091GF107991071021008001001001KA1240N+02341MA1999999097451MD1999999+0011REMSYN076AAXX  07124 82983 32595 71406 10252 20186 39745 40160 87200 333 20234 58001;EQDQ01  00002PRCP06
0167829830999992004050718004-09383-040483FM-12+037099999V0201401N001012200019N0020001N1+03081+01781101161ADDAA106000091GF104991041011008001001001MA1999999097031MD1999999+0061REMSYN070AAXX  07184 82983 32595 41402 10308 20178 39703 40116 84100 333 58006;EQDQ01  00002PRCP06
0198829830999992004050800004-09383-040483FM-12+037099999V0209999C000012200019N0020001N1+02741+01871101321ADDAA106000091GF104991041011008001001001KA1240M+03221MA1999999097181MD1999999+0011REMSYN088AAXX  08004 82983 32595 40000 10274 20187 39718 40132 84100 333 10322 29058 55063 58001;EQDQ01  00002PRCP06
0186829830999992004050812004-09383-040483FM-12+037099999V0201401N003110075019N0020001N1+02581+01991101571ADDAA106000091GF105991051011008001001001KA1240N+02301MA1999999097421MD1999999-0031REMSYN076AAXX  08124 82983 32595 51406 10258 20199 39742 40157 85100 333 20230 59003;EQDQ01  00002PRCP06
0208829830999992004050900004-09383-040483FM-12+037099999V0201401N001512200019N0020001N1+02781+01581101241ADDAA106000091GA1001+999999999GF100991001001999999001001KA1240M+03301MA1999999097111MD1999999-0071REMSYN082AAXX  09004 82983 32995 01403 10278 20158 39711 40124 333 10330 29051 55105 59007;EQDQ01  00002PRCP06
0196829830999992004050912004-09383-040483FM-12+037099999V0200901N003112200019N0020001N1+02501+01841101451ADDAA106000091GA1001+999999999GF100991001001999999001001KA1240N+02181MA1999999097311MD1999999-0111REMSYN070AAXX  09124 82983 32995 00906 10250 20184 39731 40145 333 20218 59011;EQDQ01  00002PRCP06
0167829830999992004050918004-09383-040483FM-12+037099999V0201401N001012200019N0020001N1+03261+01421100851ADDAA106000091GF102991021011008001001001MA1999999096761MD1999999-0191REMSYN070AAXX  09184 82983 32595 21402 10326 20142 39676 40085 82100 333 59019;EQDQ01  00002PRCP06
0198829830999992004051000004-09383-040483FM-12+037099999V0201401N001512200019N0020001N1+02901+01521101151ADDAA106000091GF103991031011008001001001KA1240M+03481MA1999999097021MD1999999-0091REMSYN088AAXX  10004 82983 32595 31403 10290 20152 39702 40115 83100 333 10348 29046 55108 59009;EQDQ01  00002PRCP06
0196829830999992004051012004-09383-040483FM-12+037099999V0200901N003112200019N0020001N1+02641+01771101341ADDAA106000091GA1001+999999999GF100991001001999999001001KA1240N+02241MA1999999097221MD1999999-0091REMSYN070AAXX  10124 82983 32995 00906 10264 20177 39722 40134 333 20224 59009;EQDQ01  00002PRCP06
0183829830999992004051018004-09383-040483FM-12+037099999V0200901N003112200019N0020001N1+03281+01621100891ADDAA106000091GF102991999021008001001001MA1999999096801MD1999999+0041REMSYN070AAXX  10184 82983 32595 20906 10328 20162 39680 40089 83200 333 58004;EQDQ01+000032SCOTLCQ02  00002PRCP06
0198829830999992004051100004-09383-040483FM-12+037099999V0201401N001510075019N0020001N1+02761+01391101241ADDAA106000091GF106991061051008001001001KA1240M+03361MA1999999097111MD1999999+0091REMSYN088AAXX  11004 82983 32595 61403 10276 20139 39711 40124 86500 333 10336 29046 55108 58009;EQDQ01  00002PRCP06
0186829830999992004051112004-09383-040483FM-12+037099999V0200901N003110075019N0020001N1+02441+01761101541ADDAA106000091GF106991061011008001001001KA1240N+02201MA1999999097381MD1999999+0161REMSYN076AAXX  11124 82983 32595 60906 10244 20176 39738 40154 86100 333 20220 58016;EQDQ01  00002PRCP06
0167829830999992004051118004-09383-040483FM-12+037099999V0201401N003110075019N0020001N1+03101+01801100921ADDAA106000091GF105991051011008001001001MA1999999096791MD1999999-0011REMSYN070AAXX  11184 82983 32595 51406 10310 20180 39679 40092 85100 333 59001;EQDQ01  00002PRCP06
0208829830999992004051200004-09383-040483FM-12+037099999V0200901N001512200019N0020001N1+02721+01901101191ADDAA106000091GA1001+999999999GF100991001001999999001001KA1240M+03161MA1999999097051MD1999999+0011REMSYN082AAXX  12004 82983 32995 00903 10272 20190 39705 40119 333 10316 29058 55090 58001;EQDQ01  00002PRCP06
0190829830999992004051212004-09383-040483FM-12+037099999V0200501N002610075019N0020001N1+02481+02151101481ADDAY151061AY261061GF107991071061008001001001KA1240N+02301MA1999999097331MD1999999-0051MW1501REMSYN088AAXX  12124 82983 21595 70505 10248 20215 39733 40148 75056 87600 333 20230 59005 60014;
0148829830999992004051218004-09383-040483FM-12+037099999V0201401N003110075019N0020001N1+02461+02171101141ADDAA106000021GF108991081051008001999999MA1999999096981MD1999999+0191REMSYN070AAXX  12184 82983 32595 81406 10246 20217 39698 40114 885// 333 58019;
0190829830999992004051312004-09383-040483FM-12+037099999V0201401N001510075019N0020001N1+02241+02141101511ADDAY151061AY261061GF108991081061008001999999KA1240N+02201MA1999999097331MD1999999+0001MW1511REMSYN088AAXX  13124 82983 21595 81403 10224 20214 39733 40151 75156 886// 333 20220 58000 60064;
0148829830999992004051318004-09383-040483FM-12+037099999V0201401N002610075019N0020001N1+02861+02031100991ADDAA106000021GF106991061011008001001001MA1999999096861MD1999999-0121REMSYN070AAXX  13184 82983 32595 61405 10286 20203 39686 40099 86100 333 59012;
0198829830999992004051400004-09383-040483FM-12+037099999V0201401N001510075019N0020001N1+02521+02091101211ADDAA106000091GF106991061061008001001001KA1240M+02921MA1999999097041MD1999999-0181REMSYN088AAXX  14004 82983 32595 61403 10252 20209 39704 40121 86600 333 10292 29077 55037 59018;EQDQ01  00002PRCP06
0167829830999992004051418004-09383-040483FM-12+037099999V0200901N002610075019N0020001N1+03041+01911100851ADDAA106000091GF106991061011008001001001MA1999999096731MD1999999-0131REMSYN070AAXX  14184 82983 32595 60905 10304 20191 39673 40085 86100 333 59013;EQDQ01  00002PRCP06
0208829830999992004051500004-09383-040483FM-12+037099999V0201401N002612200019N0020001N1+02741+01971101051ADDAA106000091GA1001+999999999GF100991001001999999001001KA1240M+03161MA1999999096931MD1999999-0111REMSYN082AAXX  15004 82983 32995 01405 10274 20197 39693 40105 333 10316 29062 55066 59011;EQDQ01  00002PRCP06
0186829830999992004051512004-09383-040483FM-12+037099999V0200901N002610075019N0020001N1+02481+01961101381ADDAA106000091GF106991061021008001001001KA1240N+02281MA1999999097231MD1999999+0001REMSYN076AAXX  15124 82983 32595 60905 10248 20196 39723 40138 86200 333 20228 58000;EQDQ01  00002PRCP06
0167829830999992004051518004-09383-040483FM-12+037099999V0200901N001510075019N0020001N1+03241+01821100791ADDAA106000091GF105991051011008001001001MA1999999096691MD1999999-0041REMSYN070AAXX  15184 82983 32595 50903 10324 20182 39669 40079 85100 333 59004;EQDQ01  00002PRCP06
0208829830999992004051600004-09383-040483FM-12+037099999V0201401N001512200019N0020001N1+02801+01841101051ADDAA106000091GA1001+999999999GF100991001001999999001001KA1240M+03281MA1999999096921MD1999999-0011REMSYN082AAXX  16004 82983 32995 01403 10280 20184 39692 40105 333 10328 29057 55084 59001;EQDQ01  00002PRCP06
0186829830999992004051612004-09383-040483FM-12+037099999V0200901N003110450019N0020001N1+02521+01861101381ADDAA106000091GF106991011011008001021011KA1240N+02241MA1999999097241MD1999999+0011REMSYN076AAXX  16124 82983 32595 60906 10252 20186 39724 40138 81121 333 20224 58001;EQDQ01  00002PRCP06
0167829830999992004051618004-09383-040483FM-12+037099999V0200901N003110450019N0020001N1+03221+01731100851ADDAA106000091GF106991031011008001021001MA1999999096751MD1999999+0061REMSYN070AAXX  16184 82983 32595 60906 10322 20173 39675 40085 83120 333 58006;EQDQ01  00002PRCP06
0208829830999992004051700004-09383-040483FM-12+037099999V0200901N001512200019N0020001N1+02681+01701101161ADDAA106000091GA1001+999999999GF100991001001999999001001KA1240M+03241MA1999999097021MD1999999+0101REMSYN082AAXX  17004 82983 32995 00903 10268 20170 39702 40116 333 10324 29054 55096 58010;EQDQ01  00002PRCP06
0186829830999992004051712004-09383-040483FM-12+037099999V0201401N003110075019N0020001N1+02481+01851101451ADDAA106000091GF106991061011008001001001KA1240N+02241MA1999999097291MD1999999+0051REMSYN076AAXX  17124 82983 32595 61406 10248 20185 39729 40145 86100 333 20224 58005;EQDQ01  00002PRCP06
0167829830999992004051718004-09383-040483FM-12+037099999V0200901N004110075019N0020001N1+03041+01821100911ADDAA106000091GF107991071021008001001001MA1999999096791MD1999999+0041REMSYN070AAXX  17184 82983 32595 70908 10304 20182 39679 40091 87200 333 58004;EQDQ01  00002PRCP06
0202829830999992004051800004-09383-040483FM-12+037099999V0200901N002610075019N0020001N1+02401+02211101341ADDAY151061AY261061GF106991061061008001001001KA1240M+03161MA1999999097171MD1999999+0151MW1621REMSYN100AAXX  18004 82983 21595 60905 10240 20221 39717 40134 76256 86600 333 10316 29074 55067 58015 60051;
0190829830999992004051812004-09383-040483FM-12+037099999V0201401N003110075019N0020001N1+02461+01971101571ADDAY151061AY211061GF106991061011008001021001KA1240N+02201MA1999999097391MD1999999+0101MW1031REMSYN088AAXX  18124 82983 21595 61406 10246 20197 39739 40157 70351 86120 333 20220 58010 60054;
0171829830999992004051818004-09383-040483FM-12+037099999V0200901N003110075019N0020001N1+02701+02011101141ADDAY111061AY221061GF106991061021008001001001MA1999999096991MD1999999+0201MW1501REMSYN082AAXX  18184 82983 21595 60906 10270 20201 39699 40114 75012 86200 333 58020 69901;
0189829830999992004051900004-09383-040483FM-12+037099999V0201401N002612200019N0020001N1+02481+01701101381ADDAA106000021GA1001+999999999GF100991001001999999001001KA1240M+02921MA1999999097211MD1999999+0041REMSYN082AAXX  19004 82983 32995 01405 10248 20170 39721 40138 333 10292 29066 55068 58004;
0186829830999992004051912004-09383-040483FM-12+037099999V0200901N003112200019N0020001N1+02561+01851101781ADDAA106000091GF104991041011008001001001KA1240N+02161MA1999999097601MD1999999+0211REMSYN076AAXX  19124 82983 32595 40906 10256 20185 39760 40178 84100 333 20216 58021;EQDQ01  00002PRCP06
0167829830999992004051918004-09383-040483FM-12+037099999V0200901N003110075019N0020001N1+03101+01661101331ADDAA106000091GF106991061011008001001001MA1999999097171MD1999999+0181REMSYN070AAXX  19184 82983 32595 60906 10310 20166 39717 40133 86100 333 58018;EQDQ01  00002PRCP06
0208829830999992004052000004-09383-040483FM-12+037099999V0201401N003112200019N0020001N1+02641+01831101541ADDAA106000091GA1001+999999999GF100991001001999999001001KA1240M+03161MA1999999097381MD1999999+0171REMSYN082AAXX  20004 82983 32995 01406 10264 20183 39738 40154 333 10316 29057 55103 58017;EQDQ01  00002PRCP06
0202829830999992004052012004-09383-040483FM-12+037099999V0201401N004119999999N0020001N1+02461+01811101831ADDAA106000091GF106991999011008001001001KA1240N+02181MA1999999097661MD1999999+0061REMSYN076AAXX  20124 82983 32595 61408 10246 20181 39766 40183 84100 333 20218 58006;EQDQ01+000042SCOTLCQ02  00002PRCP06
0182829830999992004052018004-09383-040483FM-12+037099999V0201401N003119999999N0020001N1+03061+01661101311ADDAA106000091GF105991999021008001001001MA1999999097171MD1999999+0001REMSYN069AAXX  20184 82983 32595 51406 10306 20166 39717 40131 83200 33358000;EQDQ01+000032SCOTLCQ02  00002PRCP06
0208829830999992004052100004-09383-040483FM-12+037099999V0200901N001512200019N0020001N1+02601+01631101501ADDAA106000091GA1001+999999999GF100991001001999999001001KA1240M+03121MA1999999097341MD1999999-0041REMSYN082AAXX  21004 82983 32995 00903 10260 20163 39734 40150 333 10312 29055 55107 59004;EQDQ01  00002PRCP06
0186829830999992004052112004-09383-040483FM-12+037099999V0201401N003112200019N0020001N1+02481+01701101701ADDAA106000091GF104991021011008001021001KA1240N+02201MA1999999097521MD1999999-0141REMSYN076AAXX  21124 82983 32595 41406 10248 20170 39752 40170 82120 333 20220 59014;EQDQ01  00002PRCP06
0167829830999992004052118004-09383-040483FM-12+037099999V0201401N004112200019N0020001N1+03081+01561101181ADDAA106000091GF104991041011008001001001MA1999999097041MD1999999-0131REMSYN070AAXX  21184 82983 32595 41408 10308 20156 39704 40118 84100 333 59013;EQDQ01  00002PRCP06
0198829830999992004052200004-09383-040483FM-12+037099999V0201801N003112200019N0020001N1+02541+01811101421ADDAA106000091GF102991021011008001001001KA1240M+03141MA1999999097261MD1999999-0081REMSYN088AAXX  22004 82983 32595 21806 10254 20181 39726 40142 82100 333 10314 29058 55104 59008;EQDQ01  00002PRCP06
0167829830999992004052218004-09383-040483FM-12+037099999V0201401N004110075019N0020001N1+02941+01591101151ADDAA106000091GF105991051011008001001001MA1999999097001MD1999999-0041REMSYN070AAXX  22184 82983 32595 51408 10294 20159 39700 40115 85100 333 59004;EQDQ01  00002PRCP06
0208829830999992004052300004-09383-040483FM-12+037099999V0201401N003112200019N0020001N1+02461+01881101471ADDAA106000091GA1001+999999999GF100991001001999999001001KA1240M+03041MA1999999097291MD1999999+0031REMSYN082AAXX  23004 82983 32995 01406 10246 20188 39729 40147 333 10304 29064 55087 58003;EQDQ01  00002PRCP06
0186829830999992004052312004-09383-040483FM-12+037099999V0200901N004112200019N0020001N1+02501+01641101641ADDAA106000091GF103991031011008001001001KA1240N+02081MA1999999097471MD1999999+0021REMSYN076AAXX  23124 82983 32595 30908 10250 20164 39747 40164 83100 333 20208 58002;EQDQ01  00002PRCP06
0167829830999992004052318004-09383-040483FM-12+037099999V0200901N002610075019N0020001N1+03061+01551101221ADDAA106000091GF105991051011008001001001MA1999999097081MD1999999+0081REMSYN070AAXX  23184 82983 32595 50905 10306 20155 39708 40122 85100 333 58008;EQDQ01  00002PRCP06
0198829830999992004052400004-09383-040483FM-12+037099999V0200901N002610075019N0020001N1+02721+01741101521ADDAA106000091GF106991061011008001001001KA1240M+03141MA1999999097351MD1999999+0071REMSYN088AAXX  24004 82983 32595 60905 10272 20174 39735 40152 86100 333 10314 29052 55094 58007;EQDQ01  00002PRCP06
0190829830999992004052412004-09383-040483FM-12+037099999V0201401N003110075019N0020001N1+02321+01811101791ADDAY151061AY261061GF108991081051008001999999KA1240N+02061MA1999999097611MD1999999+0141MW1021REMSYN088AAXX  24124 82983 21595 81406 10232 20181 39761 40179 70256 885// 333 20206 58014 60024;
0167829830999992004052418004-09383-040483FM-12+037099999V0200901N002610075019N0020001N1+02921+01861101321ADDAA106000091GF106991061021008001001001MA1999999097161MD1999999+0081REMSYN070AAXX  24184 82983 32595 60905 10292 20186 39716 40132 86200 333 58008;EQDQ01  00002PRCP06
0208829830999992004052500004-09383-040483FM-12+037099999V0200901N002612200019N0020001N1+02501+01841101521ADDAA106000091GA1001+999999999GF100991001001999999001001KA1240M+02961MA1999999097341MD1999999-0011REMSYN082AAXX  25004 82983 32995 00905 10250 20184 39734 40152 333 10296 29066 55063 59001;EQDQ01  00002PRCP06
0186829830999992004052512004-09383-040483FM-12+037099999V0201401N003112200019N0020001N1+02481+01801101741ADDAA106000091GF103991031011008001001001KA1240N+02221MA1999999097561MD1999999-0051REMSYN076AAXX  25124 82983 32595 31406 10248 20180 39756 40174 83100 333 20222 59005;EQDQ01  00002PRCP06
0167829830999992004052518004-09383-040483FM-12+037099999V0201401N003112200019N0020001N1+02961+01741101271ADDAA106000091GF103991031011008001001001MA1999999097131MD1999999-0031REMSYN070AAXX  25184 82983 32595 31406 10296 20174 39713 40127 83100 333 59003;EQDQ01  00002PRCP06
0198829830999992004052600004-09383-040483FM-12+037099999V0200901N002610075019N0020001N1+02601+01631101481ADDAA106000091GF107991071061008001001001KA1240M+03041MA1999999097321MD1999999-0021REMSYN088AAXX  26004 82983 32595 70905 10260 20163 39732 40148 87600 333 10304 29056 55097 59002;EQDQ01  00002PRCP06
0186829830999992004052612004-09383-040483FM-12+037099999V0201401N003112200019N0020001N1+02461+01781101581ADDAA106000091GF102991021011008001001001KA1240N+02001MA1999999097421MD1999999-0141REMSYN076AAXX  26124 82983 32595 21406 10246 20178 39742 40158 82100 333 20200 59014;EQDQ01  00002PRCP06
0167829830999992004052618004-09383-040483FM-12+037099999V0200901N003112200019N0020001N1+03061+01621101121ADDAA106000091GF102991021051008001001001MA1999999096981MD1999999-0151REMSYN070AAXX  26184 82983 32595 20906 10306 20162 39698 40112 82500 333 59015;EQDQ01  00002PRCP06
0214829830999992004052700004-09383-040483FM-12+037099999V0200901N001512200019N0020001N1+02641+01421101371ADDAA106000091GF102991999021008001001001KA1240M+03101MA1999999097211MD1999999-0111REMSYN088AAXX  27004 82983 32595 20903 10264 20142 39721 40137 86200 333 10310 29050 55084 59011;EQDQ01+000062SCOTLCQ02  00002PRCP06
0186829830999992004052712004-09383-040483FM-12+037099999V0201401N003112200019N0020001N1+02481+01961101501ADDAA106000091GF102991021011008001001001KA1240N+02141MA1999999097351MD1999999-0071REMSYN076AAXX  27124 82983 32595 21406 10248 20196 39735 40150 82100 333 20214 59007;EQDQ01  00002PRCP06
0167829830999992004052718004-09383-040483FM-12+037099999V0200901N002612200019N0020001N1+03301+01501101041ADDAA106000091GF102991021011008001001001MA1999999096931MD1999999-0051REMSYN070AAXX  27184 82983 32595 20905 10330 20150 39693 40104 82100 333 59005;EQDQ01  00002PRCP06
0208829830999992004052800004-09383-040483FM-12+037099999V0200901N001512200019N0020001N1+02681+01611101381ADDAA106000091GA1001+999999999GF100991001001999999001001KA1240M+03341MA1999999097231MD1999999+0021REMSYN082AAXX  28004 82983 32995 00903 10268 20161 39723 40138 333 10334 29053 55109 58002;EQDQ01  00002PRCP06
0186829830999992004052812004-09383-040483FM-12+037099999V0200901N003110075019N0020001N1+02461+01901101781ADDAA106000091GF106991061011008001001001KA1240N+02101MA1999999097551MD1999999+0201REMSYN076AAXX  28124 82983 32595 60906 10246 20190 39755 40178 86100 333 20210 58020;EQDQ01  00002PRCP06
0167829830999992004052818004-09383-040483FM-12+037099999V0200901N003110075019N0020001N1+03201+01591101181ADDAA106000091GF106991061011008001001001MA1999999097051MD1999999+0131REMSYN070AAXX  28184 82983 32595 60906 10320 20159 39705 40118 86100 333 58013;EQDQ01  00002PRCP06
0198829830999992004052900004-09383-040483FM-12+037099999V0200901N003112200019N0020001N1+02761+01991101431ADDAA106000091GF103991031011008001001001KA1240M+03261MA1999999097281MD1999999+0051REMSYN088AAXX  29004 82983 32595 30906 10276 20199 39728 40143 83100 333 10326 29059 55095 58005;EQDQ01  00002PRCP06
0186829830999992004052912004-09383-040483FM-12+037099999V0201401N003110075019N0020001N1+02541+01811101731ADDAA106000091GF106991061011008001001001KA1240N+02281MA1999999097571MD1999999+0021REMSYN076AAXX  29124 82983 32595 61406 10254 20181 39757 40173 86100 333 20228 58002;EQDQ01  00002PRCP06
0167829830999992004052918004-09383-040483FM-12+037099999V0201401N004110075019N0020001N1+02861+01841101321ADDAA106000091GF106991061011008001001001MA1999999097181MD1999999+0131REMSYN070AAXX  29184 82983 32595 61408 10286 20184 39718 40132 86100 333 58013;EQDQ01  00002PRCP06
0208829830999992004053000004-09383-040483FM-12+037099999V0201401N002612200019N0020001N1+02541+01761101551ADDAA106000091GA1001+999999999GF100991001001999999001001KA1240M+03081MA1999999097391MD1999999+0111REMSYN082AAXX  30004 82983 32995 01405 10254 20176 39739 40155 333 10308 29060 55075 58011;EQDQ01  00002PRCP06
0186829830999992004053012004-09383-040483FM-12+037099999V0201401N004110075019N0020001N1+02501+01821101751ADDAA106000091GF106991061011008001001001KA1240N+02121MA1999999097571MD1999999+0001REMSYN076AAXX  30124 82983 32595 61408 10250 20182 39757 40175 86100 333 20212 58000;EQDQ01  00002PRCP06
0167829830999992004053018004-09383-040483FM-12+037099999V0201401N005110075019N0020001N1+02661+01871101321ADDAA106000091GF108991081021008001999999MA1999999097151MD1999999-0031REMSYN070AAXX  30184 82983 32595 81410 10266 20187 39715 40132 882// 333 59003;EQDQ01  00002PRCP06
0198829830999992004053100004-09383-040483FM-12+037099999V0200501N001510075019N0020001N1+02721+01851101341ADDAA106000091GF105991051011008001001001KA1240M+03201MA1999999097201MD1999999+0081REMSYN088AAXX  31004 82983 32595 50503 10272 20185 39720 40134 85100 333 10320 29056 55080 58008;EQDQ01  00002PRCP06
0202829830999992004053112004-09383-040483FM-12+037099999V0200901N004112200019N0020001N1+02421+01721101771ADDAA106000091GF104991999021008001011001KA1240N+02041MA1999999097581MD1999999+0011REMSYN076AAXX  31124 82983 32595 40908 10242 20172 39758 40177 88210 333 20204 58001;EQDQ01+000082SCOTLCQ02  00002PRCP06
0167829830999992004053118004-09383-040483FM-12+037099999V0200901N003110075019N0020001N1+03061+01471101191ADDAA106000091GF106991061021008001001001MA1999999097051MD1999999-0101REMSYN070AAXX  31184 82983 32595 60906 10306 20147 39705 40119 86200 333 59010;EQDQ01  00002PRCP06
0198829830999992004060100004-09383-040483FM-12+037099999V0200901N002610075019N0020001N1+02741+01541101401ADDAA106000091GF106991061021008001001001KA1240M+03141MA1999999097251MD1999999-0051REMSYN088AAXX  01004 82983 32595 60905 10274 20154 39725 40140 86200 333 10314 29050 55106 59005;EQDQ01  00002PRCP06
0202829830999992004060112004-09383-040483FM-12+037099999V0201401N003119999999N0020001N1+02421+01791101681ADDAA106000091GF106991999021008001001001KA1240N+02201MA1999999097521MD1999999-0061REMSYN076AAXX  01124 82983 32595 61406 10242 20179 39752 40168 84200 333 20220 59006;EQDQ01+000042SCOTLCQ02  00002PRCP06
0167829830999992004060118004-09383-040483FM-12+037099999V0200901N003110075019N0020001N1+02961+01571101271ADDAA106000091GF107991071021008001001001MA1999999097131MD1999999+0081REMSYN070AAXX  01184 82983 32595 70906 10296 20157 39713 40127 87200 333 58008;EQDQ01  00002PRCP06
0198829830999992004060200004-09383-040483FM-12+037099999V0200901N004110075019N0020001N1+02521+01741101601ADDAA106000091GF108991081051008001999999KA1240M+03041MA1999999097431MD1999999+0081REMSYN088AAXX  02004 82983 32595 80908 10252 20174 39743 40160 885// 333 10304 29059 55042 58008;EQDQ01  00002PRCP06
0202829830999992004060212004-09383-040483FM-12+037099999V0201401N002619999999N0020001N1+02541+01741101781ADDAA106000091GF105991999021008001001001KA1240N+02181MA1999999097561MD1999999+0041REMSYN076AAXX  02124 82983 32595 51405 10254 20174 39756 40178 86200 333 20218 58004;EQDQ01+000062SCOTLCQ02  00002PRCP06
0167829830999992004060218004-09383-040483FM-12+037099999V0200901N004110075019N0020001N1+02921+01601101331ADDAA106000091GF107991071021008001001001MA1999999097171MD1999999+0041REMSYN070AAXX  02184 82983 32595 70908 10292 20160 39717 40133 87200 333 58004;EQDQ01  00002PRCP06
0198829830999992004060300004-09383-040483FM-12+037099999V0200901N003110075019N0020001N1+02601+01741101571ADDAA106000091GF107991071051008001001001KA1240M+03081MA1999999097411MD1999999-0021REMSYN088AAXX  03004 82983 32595 70906 10260 20174 39741 40157 87500 333 10308 29056 55075 59002;EQDQ01  00002PRCP06
0186829830999992004060312004-09383-040483FM-12+037099999V0201401N003110075019N0020001N1+02481+01801101741ADDAA106000091GF107991071021008001001001KA1240N+02201MA1999999097561MD1999999+0001REMSYN076AAXX  03124 82983 32595 71406 10248 20180 39756 40174 87200 333 20220 58000;EQDQ01  00002PRCP06
0183829830999992004060318004-09383-040483FM-12+037099999V0200901N003119999999N0020001N1+02941+01721101631ADDAA106000091GF106991999011008001001001MA1999999097201MD1999999+0031REMSYN070AAXX  03184 82983 32595 60906 10294 20172 39720 40163 84100 333 58003;EQDQ01+000042SCOTLCQ02  00002PRCP06
0208829830999992004060400004-09383-040483FM-12+037099999V0200901N002612200019N0020001N1+02541+01761101531ADDAA106000091GA1001+999999999GF100991001001999999001001KA1240M+03021MA1999999097361MD1999999-0051REMSYN082AAXX  04004 82983 32995 00905 10254 20176 39736 40153 333 10302 29060 55065 59005;EQDQ01  00002PRCP06
0186829830999992004060412004-09383-040483FM-12+037099999V0200901N003112200019N0020001N1+02401+01801101681ADDAA106000091GF104991041011008001001001KA1240N+02121MA1999999097501MD1999999+0061REMSYN076AAXX  04124 82983 32595 40906 10240 20180 39750 40168 84100 333 20212 58006;EQDQ01  00002PRCP06
0167829830999992004060418004-09383-040483FM-12+037099999V0200901N002612200019N0020001N1+03141+01691101111ADDAA106000091GF102991011011008001001011MA1999999096971MD1999999-0231REMSYN070AAXX  04184 82983 32595 20905 10314 20169 39697 40111 81101 333 59023;EQDQ01  00002PRCP06
0208829830999992004060500004-09383-040483FM-12+037099999V0200901N002612200019N0020001N1+02721+01491101371ADDAA106000091GA1001+999999999GF100991001001999999001001KA1240M+03201MA1999999097211MD1999999-0151REMSYN082AAXX  05004 82983 32995 00905 10272 20149 39721 40137 333 10320 29051 55102 59015;EQDQ01  00002PRCP06
0196829830999992004060512004-09383-040483FM-12+037099999V0200901N003112200019N0020001N1+02481+01801101521ADDAA106000091GA1001+999999999GF100991001001999999001001KA1240N+02121MA1999999097361MD1999999-0141REMSYN070AAXX  05124 82983 32995 00906 10248 20180 39736 40152 333 20212 59014;EQDQ01  00002PRCP06
0167829830999992004060518004-09383-040483FM-12+037099999V0201401N001512200019N0020001N1+03281+01491101051ADDAA106000091GF102991021011008001001001MA1999999096941MD1999999-0031REMSYN070AAXX  05184 82983 32595 21403 10328 20149 39694 40105 82100 333 59003;EQDQ01  00002PRCP06
0198829830999992004060600004-09383-040483FM-12+037099999V0200901N001010075019N0020001N1+02801+01751101291ADDAA106000091GF106991061021008001001001KA1240M+03401MA1999999097151MD1999999-0061REMSYN088AAXX  06004 82983 32595 60902 10280 20175 39715 40129 86200 333 10340 29052 55108 59006;EQDQ01  00002PRCP06
0186829830999992004060612004-09383-040483FM-12+037099999V0201401N003110075019N0020001N1+02561+01951101621ADDAA106000091GF107991071051008001001001KA1240N+02401MA1999999097481MD1999999+0121REMSYN076AAXX  06124 82983 32595 71406 10256 20195 39748 40162 87500 333 20240 58012;EQDQ01  00002PRCP06
0167829830999992004060618004-09383-040483FM-12+037099999V0201401N003110075019N0020001N1+03081+01561101241ADDAA106000091GF107991071011008001001001MA1999999097121MD1999999+0121REMSYN070AAXX  06184 82983 32595 71406 10308 20156 39712 40124 87100 333 58012;EQDQ01  00002PRCP06
0208829830999992004060700004-09383-040483FM-12+037099999V0200901N002612200019N0020001N1+02701+01601101481ADDAA106000091GA1001+999999999GF100991001001999999001001KA1240M+03141MA1999999097341MD1999999+0191REMSYN082AAXX  07004 82983 32995 00905 10270 20160 39734 40148 333 10314 29053 55024 58019;EQDQ01  00002PRCP06
0186829830999992004060712004-09383-040483FM-12+037099999V0201401N004110075019N0020001N1+02421+01651101851ADDAA106000091GF105991051011008001001001KA1240N+02181MA1999999097671MD1999999+0161REMSYN076AAXX  07124 82983 32595 51408 10242 20165 39767 40185 85100 333 20218 58016;EQDQ01  00002PRCP06
0167829830999992004060718004-09383-040483FM-12+037099999V0201401N003110075019N0020001N1+03041+01641101461ADDAA106000091GF106991061011008001001001MA1999999097301MD1999999+0181REMSYN070AAXX  07184 82983 32595 61406 10304 20164 39730 40146 86100 333 58018;EQDQ01  00002PRCP06
0198829830999992004060800004-09383-040483FM-12+037099999V0201401N005112200019N0020001N1+02621+02051101601ADDAA106000091GF103991031011008001001001KA1240M+03081MA1999999097431MD1999999+0091REMSYN088AAXX  08004 82983 32595 31410 10262 20205 39743 40160 83100 333 10308 29062 55104 58009;EQDQ01  00002PRCP06
0202829830999992004060812004-09383-040483FM-12+037099999V0200901N004119999999N0020001N1+02401+01861101791ADDAA106000091GF106991999021008001001001KA1240N+02161MA1999999097611MD1999999-0061REMSYN076AAXX  08124 82983 32595 60908 10240 20186 39761 40179 84200 333 20216 59006;EQDQ01+000042SCOTLCQ02  00002PRCP06
0199829830999992004060818004-09383-040483FM-12+037099999V0200901N999990075019N0020001N1+03061+01471101361ADDAA106000091GF105991051011008001001001MA1999999097211MD1999999-0091REMSYN070AAXX  08184 82983 32595 50998 10306 20147 39721 40136 85100 333 59009;EQDQ01+005043WOSPD Q02  00002PRCP06Q030005043WOSPD 
0208829830999992004060900004-09383-040483FM-12+037099999V0200901N003112200019N0020001N1+02441+01951101691ADDAA106000091GA1001+999999999GF100991001001999999001001KA1240M+03181MA1999999097511MD1999999+0081REMSYN082AAXX  09004 82983 32995 00906 10244 20195 39751 40169 333 10318 29064 55081 58008;EQDQ01  00002PRCP06
0186829830999992004060912004-09383-040483FM-12+037099999V0200901N005110075019N0020001N1+02361+01731101971ADDAA106000091GF107991071051008001001001KA1240N+02001MA1999999097771MD1999999+0161REMSYN076AAXX  09124 82983 32595 70910 10236 20173 39777 40197 87500 333 20200 58016;EQDQ01  00002PRCP06
0183829830999992004060918004-09383-040483FM-12+037099999V0201401N002612200019N0020001N1+03101+01461101441ADDAA106000091GF104991999011008001001001MA1999999097281MD1999999+0071REMSYN070AAXX  09184 82983 32595 41405 10310 20146 39728 40144 85100 333 58007;EQDQ01+000052SCOTLCQ02  00002PRCP06
0208829830999992004061000004-09383-040483FM-12+037099999V0200901N004112200019N0020001N1+02621+01701101621ADDAA106000091GA1001+999999999GF100991001001999999001001KA1240M+03181MA1999999097451MD1999999-0061REMSYN082AAXX  10004 82983 32995 00908 10262 20170 39745 40162 333 10318 29055 55097 59006;EQDQ01  00002PRCP06
0186829830999992004061012004-09383-040483FM-12+037099999V0200901N005110075019N0020001N1+02401+01651101911ADDAA106000091GF106991061021008001001001KA1240N+02181MA1999999097731MD1999999-0041REMSYN076AAXX  10124 82983 32595 60910 10240 20165 39773 40191 86200 333 20218 59004;EQDQ01  00002PRCP06
0167829830999992004061018004-09383-040483FM-12+037099999V0200901N004112200019N0020001N1+03081+01481101351ADDAA106000091GF103991031021008001001001MA1999999097201MD1999999-0081REMSYN070AAXX  10184 82983 32595 30908 10308 20148 39720 40135 83200 333 59008;EQDQ01  00002PRCP06
0198829830999992004061100004-09383-040483FM-12+037099999V0201401N004110075019N0020001N1+02441+01971101681ADDAA106000091GF105991051021008001001001KA1240M+03161MA1999999097551MD1999999+0101REMSYN088AAXX  11004 82983 32595 51408 10244 20197 39755 40168 85200 333 10316 29063 55097 58010;EQDQ01  00002PRCP06
0186829830999992004061112004-09383-040483FM-12+037099999V0201401N004110075019N0020001N1+02341+01721101911ADDAA106000091GF106991061011008001001001KA1240N+02001MA1999999097721MD1999999-0011REMSYN076AAXX  11124 82983 32595 61408 10234 20172 39772 40191 86100 333 20200 59001;EQDQ01  00002PRCP06
0167829830999992004061118004-09383-040483FM-12+037099999V0201401N002610075019N0020001N1+03041+01371101491ADDAA106000091GF105991051011008001001001MA1999999097331MD1999999+0131REMSYN070AAXX  11184 82983 32595 51405 10304 20137 39733 40149 85100 333 58013;EQDQ01  00002PRCP06
0198829830999992004061200004-09383-040483FM-12+037099999V0200901N002612200019N0020001N1+02501+01421101801ADDAA106000091GF102991021011008001001001KA1240M+03061MA1999999097611MD1999999+0061REMSYN088AAXX  12004 82983 32595 20905 10250 20142 39761 40180 82100 333 10306 29052 55104 58006;EQDQ01  00002PRCP06
0186829830999992004061212004-09383-040483FM-12+037099999V0201401N004112200019N0020001N1+02441+01591102021ADDAA106000091GF103991031011008001001001KA1240N+02041MA1999999097821MD1999999+0101REMSYN076AAXX  12124 82983 32595 31408 10244 20159 39782 40202 83100 333 20204 58010;EQDQ01  00002PRCP06
0177829830999992004061218004-09383-040483FM-12+037099999V0201401N003112200019N0020001N1+03041+01091101591ADDAA106000091GA1001+999999999GF100991001001999999001001MA1999999097421MD1999999+0091REMSYN064AAXX  12184 82983 32995 01406 10304 20109 39742 40159 333 58009;EQDQ01  00002PRCP06
0208829830999992004061300004-09383-040483FM-12+037099999V0201401N002612200019N0020001N1+02521+01401101821ADDAA106000091GA1001+999999999GF100991001001999999001001KA1240M+03121MA1999999097641MD1999999+0031REMSYN082AAXX  13004 82983 32995 01405 10252 20140 39764 40182 333 10312 29047 55107 58003;EQDQ01  00002PRCP06
0186829830999992004061312004-09383-040483FM-12+037099999V0201401N003112200019N0020001N1+02321+01671101911ADDAA106000091GF103991031011008001001001KA1240N+01941MA1999999097721MD1999999-0101REMSYN076AAXX  13124 82983 32595 31406 10232 20167 39772 40191 83100 333 20194 59010;EQDQ01  00002PRCP06
0167829830999992004061318004-09383-040483FM-12+037099999V0201401N003112200019N0020001N1+03021+01351101391ADDAA106000091GF101991011011008001001001MA1999999097231MD1999999-0191REMSYN070AAXX  13184 82983 32595 11406 10302 20135 39723 40139 81100 333 59019;EQDQ01  00002PRCP06
0208829830999992004061400004-09383-040483FM-12+037099999V0201401N003112200019N0020001N1+02581+01401101721ADDAA106000091GA1001+999999999GF100991001001999999001001KA1240M+03061MA1999999097541MD1999999-0101REMSYN082AAXX  14004 82983 32995 01406 10258 20140 39754 40172 333 10306 29050 55107 59010;EQDQ01  00002PRCP06
0186829830999992004061412004-09383-040483FM-12+037099999V0201401N004110075019N0020001N1+02381+01711101961ADDAA106000091GF106991061021008001001001KA1240N+02141MA1999999097771MD1999999+0051REMSYN076AAXX  14124 82983 32595 61408 10238 20171 39777 40196 86200 333 20214 58005;EQDQ01  00002PRCP06
0167829830999992004061418004-09383-040483FM-12+037099999V0201401N003110075019N0020001N1+03041+01451101451ADDAA106000091GF106991061011008001001001MA1999999097301MD1999999+0071REMSYN070AAXX  14184 82983 32595 61406 10304 20145 39730 40145 86100 333 58007;EQDQ01  00002PRCP06
0208829830999992004061500004-09383-040483FM-12+037099999V0201801N005112200019N0020001N1+02581+01641101751ADDAA106000091GA1001+999999999GF100991001001999999001001KA1240M+03121MA1999999097571MD1999999+0031REMSYN082AAXX  15004 82983 32995 01810 10258 20164 39757 40175 333 10312 29054 55105 58003;EQDQ01  00002PRCP06
0186829830999992004061512004-09383-040483FM-12+037099999V0201401N004110075019N0020001N1+02341+01691101931ADDAA106000091GF108991081051008001999999KA1240N+02121MA1999999097741MD1999999-0031REMSYN076AAXX  15124 82983 32595 81408 10234 20169 39774 40193 885// 333 20212 59003;EQDQ01  00002PRCP06
0183829830999992004061518004-09383-040483FM-12+037099999V0201401N003119999999N0020001N1+02941+01591101431ADDAA106000091GF106991999011008001001001MA1999999097271MD1999999-0031REMSYN070AAXX  15184 82983 32595 61406 10294 20159 39727 40143 83100 333 59003;EQDQ01+000032SCOTLCQ02  00002PRCP06
0198829830999992004061600004-09383-040483FM-12+037099999V0200901N003110075019N0020001N1+02701+01751101771ADDAA106000091GF106991061061008001001001KA1240M+03021MA1999999097591MD1999999+0021REMSYN088AAXX  16004 82983 32595 60906 10270 20175 39759 40177 86600 333 10302 29056 55070 58002;EQDQ01  00002PRCP06
0186829830999992004061612004-09383-040483FM-12+037099999V0201401N003112200019N0020001N1+02441+01591101811ADDAA106000091GF102991021011008001001001KA1240N+02221MA1999999097631MD1999999-0111REMSYN076AAXX  16124 82983 32595 21406 10244 20159 39763 40181 82100 333 20222 59011;EQDQ01  00002PRCP06
0167829830999992004061618004-09383-040483FM-12+037099999V0200901N003110075019N0020001N1+02981+01441101321ADDAA106000091GF106991061011008001001001MA1999999097171MD1999999-0101REMSYN070AAXX  16184 82983 32595 60906 10298 20144 39717 40132 86100 333 59010;EQDQ01  00002PRCP06
0198829830999992004061700004-09383-040483FM-12+037099999V0201401N002612200019N0020001N1+02641+01661101581ADDAA106000091GF102991021011008001001001KA1240M+03061MA1999999097421MD1999999-0171REMSYN088AAXX  17004 82983 32595 21405 10264 20166 39742 40158 82100 333 10306 29052 55092 59017;EQDQ01  00002PRCP06
0187829830999992004061712004-09383-040483FM-12+037099999V0201401N004110075019N0020001N1+02361+01761101851ADDAA106000091GF107991071021008001001001KA1240N+02261MD1999999+0041REMSYN076AAXX  17124 82983 32595 71408 10236 20176 33967 40185 87200 333 20226 58004;EQDQ01+039671APOSP Q02  00002PRCP06
0167829830999992004061718004-09383-040483FM-12+037099999V0200901N002610075019N0020001N1+02921+01531101391ADDAA106000091GF106991061011008001001001MA1999999097241MD1999999+0071REMSYN070AAXX  17184 82983 32595 60905 10292 20153 39724 40139 86100 333 58007;EQDQ01  00002PRCP06
0198829830999992004061800004-09383-040483FM-12+037099999V0201801N003110075019N0020001N1+02521+01371101681ADDAA106000091GF106991061021008001001001KA1240M+03001MA1999999097501MD1999999+0081REMSYN088AAXX  18004 82983 32595 61806 10252 20137 39750 40168 86200 333 10300 29052 55042 58008;EQDQ01  00002PRCP06
0186829830999992004061812004-09383-040483FM-12+037099999V0201401N004110075019N0020001N1+02361+01611101921ADDAA106000091GF105991051011008001001001KA1240N+02041MA1999999097731MD1999999+0061REMSYN076AAXX  18124 82983 32595 51408 10236 20161 39773 40192 85100 333 20204 58006;EQDQ01  00002PRCP06
0167829830999992004061818004-09383-040483FM-12+037099999V0201401N003110450019N0020001N1+03041+01371101491ADDAA106000091GF106991031011008001021001MA1999999097331MD1999999+0091REMSYN070AAXX  18184 82983 32595 61406 10304 20137 39733 40149 83120 333 58009;EQDQ01  00002PRCP06
0198829830999992004061900004-09383-040483FM-12+037099999V0201401N004110075019N0020001N1+02661+01331101741ADDAA106000091GF108991081061008001999999KA1240M+03061MA1999999097561MD1999999+0061REMSYN088AAXX  19004 82983 32595 81408 10266 20133 39756 40174 886// 333 10306 29047 55089 58006;EQDQ01  00002PRCP06
0186829830999992004061912004-09383-040483FM-12+037099999V0201401N004110075019N0020001N1+02361+01611102031ADDAA106000091GF108991081051008001999999KA1240N+02161MA1999999097841MD1999999+0111REMSYN076AAXX  19124 82983 32595 81408 10236 20161 39784 40203 885// 333 20216 58011;EQDQ01  00002PRCP06
0167829830999992004061918004-09383-040483FM-12+037099999V0200901N005110075019N0020001N1+02781+01581101721ADDAA106000091GF107991051021008001011001MA1999999097541MD1999999+0211REMSYN070AAXX  19184 82983 32595 70910 10278 20158 39754 40172 85210 333 58021;EQDQ01  00002PRCP06
0198829830999992004062000004-09383-040483FM-12+037099999V0200901N002612200019N0020001N1+02521+01551101121ADDAA106000091GF102991021011008001001001KA1240M+03881MA1999999097731MD1999999+0171REMSYN088AAXX  20004 82983 32595 20905 10252 20155 39773 40112 82100 333 10388 29055 55015 58017;EQDQ01  00002PRCP06
0186829830999992004062012004-09383-040483FM-12+037099999V0201401N005110450019N0020001N1+02441+01561101951ADDAA106000091GF105991031011008001031001KA1240N+02181MA1999999097761MD1999999-0081REMSYN076AAXX  20124 82983 32595 51410 10244 20156 39776 40195 83130 333 20218 59008;EQDQ01  00002PRCP06
0167829830999992004062018004-09383-040483FM-12+037099999V0201401N005110075019N0020001N1+03021+01351101521ADDAA106000091GF106991061011008001001001MA1999999097361MD1999999-0181REMSYN070AAXX  20184 82983 32595 61410 10302 20135 39736 40152 86100 333 59018;EQDQ01  00002PRCP06
0208829830999992004062100004-09383-040483FM-12+037099999V0201401N004112200019N0020001N1+02521+01521101721ADDAA106000091GA1001+999999999GF100991001001999999001001KA1240M+03061MA1999999097541MD1999999-0191REMSYN082AAXX  21004 82983 32995 01408 10252 20152 39754 40172 333 10306 29050 55083 59019;EQDQ01  00002PRCP06
0186829830999992004062112004-09383-040483FM-12+037099999V0201401N005112200019N0020001N1+02441+01661101871ADDAA106000091GF106991041011008001001011KA1240N+02021MA1999999097691MD1999999-0071REMSYN076AAXX  21124 82983 32595 61410 10244 20166 39769 40187 84101 333 20202 59007;EQDQ01  00002PRCP06
0167829830999992004062118004-09383-040483FM-12+037099999V0201401N004110075019N0020001N1+02761+01591101531ADDAA106000091GF108991081051008001999999MA1999999097351MD1999999-0011REMSYN070AAXX  21184 82983 32595 81408 10276 20159 39735 40153 885// 333 59001;EQDQ01  00002PRCP06
0198829830999992004062200004-09383-040483FM-12+037099999V0200901N005110075019N0020001N1+02421+01671101791ADDAA106000091GF106991061021008001001001KA1240M+02821MA1999999097601MD1999999+0061REMSYN088AAXX  22004 82983 32595 60910 10242 20167 39760 40179 86200 333 10282 29060 55038 58006;EQDQ01  00002PRCP06
0186829830999992004062212004-09383-040483FM-12+037099999V0200901N004110075019N0020001N1+02281+01731101911ADDAA106000091GF106991061021008001001001KA1240N+01981MA1999999097711MD1999999+0021REMSYN076AAXX  22124 82983 32595 60908 10228 20173 39771 40191 86200 333 20198 58002;EQDQ01  00002PRCP06
0167829830999992004062218004-09383-040483FM-12+037099999V0200901N003112200019N0020001N1+02901+01321101491ADDAA106000091GF103991031011008001001001MA1999999097331MD1999999-0021REMSYN070AAXX  22184 82983 32595 30906 10290 20132 39733 40149 83100 333 59002;EQDQ01  00002PRCP06
0208829830999992004062300004-09383-040483FM-12+037099999V0200901N003112200019N0020001N1+02441+01391101751ADDAA106000091GA1001+999999999GF100991001001999999001001KA1240M+03021MA1999999097551MD1999999-0051REMSYN082AAXX  23004 82983 32995 00906 10244 20139 39755 40175 333 10302 29053 55070 59005;EQDQ01  00002PRCP06
0196829830999992004062312004-09383-040483FM-12+037099999V0201401N004119999999N0020001N1+02361+99999097742ADDAA106000091GF105991999011008001091031KA1240N+01941MA1999999101612MD1999999+0031REMSYN070AAXX  23124 82983 32595 51408 10236 30161 49774 80193 333 20194 58003;EQDQ01+000002SCOTLCQ02  00002PRCP06
0186829830999992004062412004-09383-040483FM-12+037099999V0200901N004110075019N0020001N1+02321+01581101891ADDAA106000091GF106991061021008001001001KA1240N+02041MA1999999097701MD1999999-0041REMSYN076AAXX  24124 82983 32595 60908 10232 20158 39770 40189 86200 333 20204 59004;EQDQ01  00002PRCP06
0167829830999992004062418004-09383-040483FM-12+037099999V0201401N002610075019N0020001N1+02941+01281101351ADDAA106000091GF106991061021008001001001MA1999999097191MD1999999-0121REMSYN070AAXX  24184 82983 32595 61405 10294 20128 39719 40135 86200 333 59012;EQDQ01  00002PRCP06
0208829830999992004062500004-09383-040483FM-12+037099999V0201401N005112200019N0020001N1+02401+01631101641ADDAA106000091GA1001+999999999GF100991001001999999001001KA1240M+02981MA1999999097451MD1999999-0051REMSYN082AAXX  25004 82983 32995 01410 10240 20163 39745 40164 333 10298 29056 55104 59005;EQDQ01  00002PRCP06
0167829830999992004062518004-09383-040483FM-12+037099999V0200901N002612200019N0020001N1+03041+01451101331ADDAA106000091GF102991021011008001001001MA1999999097171MD1999999-0021REMSYN070AAXX  25184 82983 32595 20905 10304 20145 39717 40133 82100 333 59002;EQDQ01  00002PRCP06
0214829830999992004062600004-09383-040483FM-12+037099999V0201401N002619999999N0020001N1+02881+01371101521ADDAA106000091GF106991999011008001001001KA1240M+03101MA1999999097351MD1999999-0101REMSYN088AAXX  26004 82983 32595 61405 10288 20137 39735 40152 88100 333 10310 29048 55103 59010;EQDQ01+000082SCOTLCQ02  00002PRCP06
0186829830999992004062612004-09383-040483FM-12+037099999V0201401N004110075019N0020001N1+02481+01751101741ADDAA106000091GF105991051011008001001001KA1240N+02201MA1999999097561MD1999999-0061REMSYN076AAXX  26124 82983 32595 51408 10248 20175 39756 40174 85100 333 20220 59006;EQDQ01  00002PRCP06
0167829830999992004062618004-09383-040483FM-12+037099999V0200901N004110075019N0020001N1+02801+01601101361ADDAA106000091GF108991081051008001999999MA1999999097201MD1999999+0031REMSYN070AAXX  26184 82983 32595 80908 10280 20160 39720 40136 885// 333 58003;EQDQ01  00002PRCP06
0198829830999992004062700004-09383-040483FM-12+037099999V0201401N004110075019N0020001N1+02461+01731101641ADDAA106000091GF106991061021008001001001KA1240M+02921MA1999999097461MD1999999+0111REMSYN088AAXX  27004 82983 32595 61408 10246 20173 39746 40164 86200 333 10292 29060 55050 58011;EQDQ01  00002PRCP06
0186829830999992004062712004-09383-040483FM-12+037099999V0201401N004110075019N0020001N1+02341+01691101741ADDAA106000091GF108991081051008001999999KA1240N+02181MA1999999097551MD1999999-0011REMSYN076AAXX  27124 82983 32595 81408 10234 20169 39755 40174 885// 333 20218 59001;EQDQ01  00002PRCP06
0167829830999992004062718004-09383-040483FM-12+037099999V0201401N004110075019N0020001N1+02661+01741101401ADDAA106000091GF107991071021008001001001MA1999999097241MD1999999+0041REMSYN070AAXX  27184 82983 32595 71408 10266 20174 39724 40140 87200 333 58004;EQDQ01  00002PRCP06
0208829830999992004062800004-09383-040483FM-12+037099999V0201401N003112200019N0020001N1+02561+01621101581ADDAA106000091GA1001+999999999GF100991001001999999001001KA1240M+02841MA1999999097401MD1999999-0061REMSYN082AAXX  28004 82983 32995 01406 10256 20162 39740 40158 333 10284 29059 55027 59006;EQDQ01  00002PRCP06
0186829830999992004062812004-09383-040483FM-12+037099999V0201401N004110075019N0020001N1+02261+01821101771ADDAA106000091GF107991071051008001001001KA1240N+02081MA1999999097581MD1999999+0031REMSYN076AAXX  28124 82983 32595 71408 10226 20182 39758 40177 87500 333 20208 58003;EQDQ01  00002PRCP06
0167829830999992004062818004-09383-040483FM-12+037099999V0201401N003110075019N0020001N1+02841+01501101271ADDAA106000091GF106991061011008001001001MA1999999097121MD1999999-0121REMSYN070AAXX  28184 82983 32595 61406 10284 20150 39712 40127 86100 333 59012;EQDQ01  00002PRCP06
0198829830999992004062900004-09383-040483FM-12+037099999V0200901N005110075019N0020001N1+02441+01861101591ADDAA106000091GF106991061011008001001001KA1240M+02881MA1999999097401MD1999999+0001REMSYN088AAXX  29004 82983 32595 60910 10244 20186 39740 40159 86100 333 10288 29065 55032 58000;EQDQ01  00002PRCP06
0186829830999992004062912004-09383-040483FM-12+037099999V0201401N004112200019N0020001N1+02361+01641101811ADDAA106000091GF103991011011008001001011KA1240N+02081MA1999999097621MD1999999+0041REMSYN076AAXX  29124 82983 32595 31408 10236 20164 39762 40181 81101 333 20208 58004;EQDQ01  00002PRCP06
0183829830999992004062918004-09383-040483FM-12+037099999V0201401N003119999999N0020001N1+02981+01311101321ADDAA106000091GF106991999011008001001001MA1999999097171MD1999999+0051REMSYN070AAXX  29184 82983 32595 61406 10298 20131 39717 40132 82100 333 58005;EQDQ01+000022SCOTLCQ02  00002PRCP06
0208829830999992004063000004-09383-040483FM-12+037099999V0201401N002612200019N0020001N1+02581+01461101561ADDAA106000091GA1001+999999999GF100991001001999999001001KA1240M+03041MA1999999097381MD1999999-0021REMSYN082AAXX  30004 82983 32995 01405 10258 20146 39738 40156 333 10304 29050 55106 59002;EQDQ01  00002PRCP06
0202829830999992004063012004-09383-040483FM-12+037099999V0201401N004110075019N0020001N1+02151+01881101771ADDAA106000091GF108991999031008001001001KA1240N+02141MA1999999097581MD1999999-0041REMSYN076AAXX  30124 82983 32595 81408 10215 20188 39758 40177 85300 333 20214 59004;EQDQ01+000052SCOTLCQ02  00002PRCP06
0171829830999992004063018004-09383-040483FM-12+037099999V0201401N004110075019N0020001N1+02721+01951101341ADDAY121061AY211061GF105991051011008001001001MA1999999097171MD1999999+0001MW1501REMSYN082AAXX  30184 82983 21595 51408 10272 20195 39717 40134 75021 85100 333 58000 69961;
0179829830999992004070100004-09383-040483FM-12+037099999V0201401N005110075019N0020001N1+02281+01881101691ADDAA106000021GF106991061061008001001001KA1240M+02801MA1999999097481MD1999999+0101REMSYN088AAXX  01004 82983 32595 61410 10228 20188 39748 40169 86600 333 10280 29076 55050 58010;
0162829830999992004070112004-09383-040483FM-12+037099999V0201401N004110075019N0020001N1+02401+01701101731ADDGF107991071021008001001001KA1240N+02121MA1999999097541MD1999999-0041REMSYN082AAXX  01124 82983 22595 71408 10240 20170 39754 40173 87200 333 20212 59004 69964;
0167829830999992004070118004-09383-040483FM-12+037099999V0201401N003112200019N0020001N1+02821+01711101271ADDAA106000091GF104991041011008001001001MA1999999097121MD1999999-0051REMSYN070AAXX  01184 82983 32595 41406 10282 20171 39712 40127 84100 333 59005;EQDQ01  00002PRCP06
0198829830999992004070200004-09383-040483FM-12+037099999V0201401N002610075019N0020001N1+02461+01521101451ADDAA106000091GF106991061011008001001001KA1240M+02901MA1999999097281MD1999999-0201REMSYN088AAXX  02004 82983 32595 61405 10246 20152 39728 40145 86100 333 10290 29057 55057 59020;EQDQ01  00002PRCP06
0167829830999992004070218004-09383-040483FM-12+037099999V0200901N003110075019N0020001N1+03101+01621101191ADDAA106000091GF106991061011008001001001MA1999999097051MD1999999-0071REMSYN070AAXX  02184 82983 32595 60906 10310 20162 39705 40119 86100 333 59007;EQDQ01  00002PRCP06
0208829830999992004070300004-09383-040483FM-12+037099999V0201401N003112200019N0020001N1+02401+01911101501ADDAA106000091GA1001+999999999GF100991001001999999001001KA1240M+03181MA1999999097321MD1999999+0041REMSYN082AAXX  03004 82983 32995 01406 10240 20191 39732 40150 333 10318 29066 55084 58004;EQDQ01  00002PRCP06
0186829830999992004070312004-09383-040483FM-12+037099999V0201401N004112200019N0020001N1+02361+01491101681ADDAA106000091GF103991021011008001001011KA1240N+01981MA1999999097501MD1999999+0011REMSYN076AAXX  03124 82983 32595 31408 10236 20149 39750 40168 82101 333 20198 58001;EQDQ01  00002PRCP06
0167829830999992004070318004-09383-040483FM-12+037099999V0201401N003110450019N0020001N1+02941+01401101211ADDAA106000091GF106991031011008001011021MA1999999097071MD1999999+0021REMSYN070AAXX  03184 82983 32595 61406 10294 20140 39707 40121 83112 333 58002;EQDQ01  00002PRCP06
0214829830999992004070400004-09383-040483FM-12+037099999V0201401N003119999999N0020001N1+02461+01521101511ADDAA106000091GF105991999011008001001001KA1240M+02961MA1999999097331MD1999999+0011REMSYN088AAXX  04004 82983 32595 51406 10246 20152 39733 40151 82100 333 10296 29052 55095 58001;EQDQ01+000022SCOTLCQ02  00002PRCP06
0186829830999992004070412004-09383-040483FM-12+037099999V0201401N003110075019N0020001N1+02181+01651101711ADDAA106000091GF108991081051008001999999KA1240N+02101MA1999999097511MD1999999+0011REMSYN076AAXX  04124 82983 32595 81406 10218 20165 39751 40171 885// 333 20210 58001;EQDQ01  00002PRCP06
0167829830999992004070418004-09383-040483FM-12+037099999V0201401N004610075019N0020001N1+02701+01601101281ADDAA106000091GF108991081051008001999999MA1999999097111MD1999999+0041REMSYN070AAXX  04184 82983 32595 81409 10270 20160 39711 40128 885// 333 58004;EQDQ01  00002PRCP06
0198829830999992004070500004-09383-040483FM-12+037099999V0201401N002610075019N0020001N1+02501+01721101491ADDAA106000091GF108991081061008001999999KA1240M+02781MA1999999097311MD1999999-0021REMSYN088AAXX  05004 82983 32595 81405 10250 20172 39731 40149 886// 333 10278 29062 55028 59002;EQDQ01  00002PRCP06
0186829830999992004070512004-09383-040483FM-12+037099999V0201401N004110075019N0020001N1+02441+01861101701ADDAA106000091GF107991071051008001001001KA1240N+02161MA1999999097521MD1999999+0011REMSYN076AAXX  05124 82983 32595 71408 10244 20186 39752 40170 87500 333 20216 58001;EQDQ01  00002PRCP06
0167829830999992004070518004-09383-040483FM-12+037099999V0201401N003110075019N0020001N1+02941+01791101351ADDAA106000091GF107991071011008001001001MA1999999097191MD1999999+0081REMSYN070AAXX  05184 82983 32595 71406 10294 20179 39719 40135 87100 333 58008;EQDQ01  00002PRCP06
0198829830999992004070600004-09383-040483FM-12+037099999V0201401N003110075019N0020001N1+02661+01771101471ADDAA106000091GF106991061061008001001001KA1240M+03021MA1999999097311MD1999999+0001REMSYN088AAXX  06004 82983 32595 61406 10266 20177 39731 40147 86600 333 10302 29059 55021 58000;EQDQ01  00002PRCP06
0186829830999992004070612004-09383-040483FM-12+037099999V0201401N004110075019N0020001N1+02341+01761101661ADDAA106000091GF106991061021008001001001KA1240N+02221MA1999999097491MD1999999-0031REMSYN076AAXX  06124 82983 32595 61408 10234 20176 39749 40166 86200 333 20222 59003;EQDQ01  00002PRCP06
0167829830999992004070618004-09383-040483FM-12+037099999V0200901N004112200019N0020001N1+02861+01751101181ADDAA106000091GF102991021011008001001001MA1999999097041MD1999999-0151REMSYN070AAXX  06184 82983 32595 20908 10286 20175 39704 40118 82100 333 59015;EQDQ01  00002PRCP06
0208829830999992004070700004-09383-040483FM-12+037099999V0200901N002612200019N0020001N1+02561+01641101391ADDAA106000091GA1001+999999999GF100991001001999999001001KA1240M+02961MA1999999097221MD1999999-0091REMSYN082AAXX  07004 82983 32995 00905 10256 20164 39722 40139 333 10296 29059 55091 59009;EQDQ01  00002PRCP06
0186829830999992004070712004-09383-040483FM-12+037099999V0201401N004110075019N0020001N1+02421+01671101591ADDAA106000091GF106991061011008001001001KA1240N+02061MA1999999097421MD1999999-0071REMSYN076AAXX  07124 82983 32595 61408 10242 20167 39742 40159 86100 333 20206 59007;EQDQ01  00002PRCP06
0167829830999992004070718004-09383-040483FM-12+037099999V0200901N004112200019N0020001N1+02981+01591101081ADDAA106000091GF102991021011008001001001MA1999999096941MD1999999-0101REMSYN070AAXX  07184 82983 32595 20908 10298 20159 39694 40108 82100 333 59010;EQDQ01  00002PRCP06
0208829830999992004070800004-09383-040483FM-12+037099999V0201401N002612200019N0020001N1+02561+01591101271ADDAA106000091GA1001+999999999GF100991001001999999001001KA1240M+03061MA1999999097121MD1999999-0101REMSYN082AAXX  08004 82983 32995 01405 10256 20159 39712 40127 333 10306 29054 55107 59010;EQDQ01  00002PRCP06
0186829830999992004070812004-09383-040483FM-12+037099999V0200901N004110075019N0020001N1+02341+01691101581ADDAA106000091GF106991061011008001001001KA1240N+02101MA1999999097401MD1999999-0021REMSYN076AAXX  08124 82983 32595 60908 10234 20169 39740 40158 86100 333 20210 59002;EQDQ01  00002PRCP06
0208829830999992004070900004-09383-040483FM-12+037099999V0201401N002612200019N0020001N1+02701+01721101221ADDAA106000091GA1001+999999999GF100991001001999999001001KA1240M+03121MA1999999097071MD1999999-0051REMSYN082AAXX  09004 82983 32995 01405 10270 20172 39707 40122 333 10312 29055 55104 59005;EQDQ01  00002PRCP06
0186829830999992004070912004-09383-040483FM-12+037099999V0200901N003110075019N0020001N1+02461+01621101561ADDAA106000091GF108991081051008001999999KA1240N+02201MA1999999097401MD1999999+0001REMSYN076AAXX  09124 82983 32595 80906 10246 20162 39740 40156 885// 333 20220 58000;EQDQ01  00002PRCP06
0167829830999992004070918004-09383-040483FM-12+037099999V0200901N002612200019N0020001N1+03121+01561101011ADDAA106000091GF104991041011008001001001MA1999999096891MD1999999-0011REMSYN070AAXX  09184 82983 32595 40905 10312 20156 39689 40101 84100 333 59001;EQDQ01  00002PRCP06
0208829830999992004071000004-09383-040483FM-12+037099999V0200901N002612200019N0020001N1+02781+01641101231ADDAA106000091GA1001+999999999GF100991001001999999001001KA1240M+03241MA1999999097091MD1999999+0021REMSYN082AAXX  10004 82983 32995 00905 10278 20164 39709 40123 333 10324 29065 55081 58002;EQDQ01  00002PRCP06
0186829830999992004071012004-09383-040483FM-12+037099999V0201401N003110075019N0020001N1+02441+01741101581ADDAA106000091GF106991061011008001001001KA1240N+02201MA1999999097421MD1999999+0021REMSYN076AAXX  10124 82983 32595 61406 10244 20174 39742 40158 86100 333 20220 58002;EQDQ01  00002PRCP06
0167829830999992004071018004-09383-040483FM-12+037099999V0201401N003112200019N0020001N1+03161+01511101081ADDAA106000091GF104991041011008001001001MA1999999096951MD1999999+0061REMSYN070AAXX  10184 82983 32595 41406 10316 20151 39695 40108 84100 333 58006;EQDQ01  00002PRCP06
0208829830999992004071100004-09383-040483FM-12+037099999V0200901N003112200019N0020001N1+02741+01441101221ADDAA106000091GA1001+999999999GF100991001001999999001001KA1240M+03221MA1999999097141MD1999999+0051REMSYN082AAXX  11004 82983 32995 00906 10274 20144 39714 40122 333 10322 29048 55093 58005;EQDQ01  00002PRCP06
0167829830999992004071118004-09383-040483FM-12+037099999V0200901N003112200019N0020001N1+03161+01431100981ADDAA106000091GF101991011011008001001001MA1999999096871MD1999999-0081REMSYN070AAXX  11184 82983 32595 10906 10316 20143 39687 40098 81100 333 59008;EQDQ01  00002PRCP06
0208829830999992004071200004-09383-040483FM-12+037099999V0200901N003112200019N0020001N1+02701+01371101231ADDAA106000091GA1001+999999999GF100991001001999999001001KA1240M+03261MA1999999097091MD1999999-0051REMSYN082AAXX  12004 82983 32995 00906 10270 20137 39709 40123 333 10326 29048 55075 59005;EQDQ01  00002PRCP06
0196829830999992004071212004-09383-040483FM-12+037099999V0201401N003112200019N0020001N1+02401+01411101521ADDAA106000091GA1001+999999999GF100991001001999999001001KA1240N+02081MA1999999097361MD1999999-0061REMSYN070AAXX  12124 82983 32995 01406 10240 20141 39736 40152 333 20208 59006;EQDQ01  00002PRCP06
0177829830999992004071218004-09383-040483FM-12+037099999V0200901N004112200019N0020001N1+03001+01201101091ADDAA106000091GA1001+999999999GF100991001001999999001001MA1999999096951MD1999999+0081REMSYN064AAXX  12184 82983 32995 00908 10300 20120 39695 40109 333 58008;EQDQ01  00002PRCP06
0208829830999992004071300004-09383-040483FM-12+037099999V0201401N003112200019N0020001N1+02581+01401101421ADDAA106000091GA1001+999999999GF100991001001999999001001KA1240M+03121MA1999999097261MD1999999+0171REMSYN082AAXX  13004 82983 32995 01406 10258 20140 39726 40142 333 10312 29046 55107 58017;EQDQ01  00002PRCP06
0186829830999992004071312004-09383-040483FM-12+037099999V0201401N004110075019N0020001N1+02401+01771101621ADDAA106000091GF108991081051008001999999KA1240N+02121MA1999999097451MD1999999+0091REMSYN076AAXX  13124 82983 32595 81408 10240 20177 39745 40162 885// 333 20212 58009;EQDQ01  00002PRCP06
0167829830999992004071318004-09383-040483FM-12+037099999V0200901N005110075019N0020001N1+02761+01721101211ADDAA106000091GF106991061011008001001001MA1999999097051MD1999999+0101REMSYN070AAXX  13184 82983 32595 60910 10276 20172 39705 40121 86100 333 58010;EQDQ01  00002PRCP06
0198829830999992004071400004-09383-040483FM-12+037099999V0200901N004112200019N0020001N1+02461+01711101511ADDAA106000091GF102991021011008001001001KA1240M+02861MA1999999097341MD1999999+0081REMSYN088AAXX  14004 82983 32595 20908 10246 20171 39734 40151 82100 333 10286 29062 55042 58008;EQDQ01  00002PRCP06
0186829830999992004071412004-09383-040483FM-12+037099999V0201401N004110075019N0020001N1+02301+01681101741ADDAA106000091GF107991071021008001001001KA1240N+01921MA1999999097551MD1999999+0101REMSYN076AAXX  14124 82983 32595 71408 10230 20168 39755 40174 87200 333 20192 58010;EQDQ01  00002PRCP06
0167829830999992004071418004-09383-040483FM-12+037099999V0200901N004110075019N0020001N1+02761+01661101381ADDAA106000091GF106991061011008001001001MA1999999097191MD1999999+0141REMSYN070AAXX  14184 82983 32595 60908 10276 20166 39719 40138 86100 333 58014;EQDQ01  00002PRCP06
0202829830999992004071500004-09383-040483FM-12+037099999V0200901N002612200019N0020001N1+02361+01851101611ADDAY101061AY211061GF103991031011008001001001KA1240M+03861MA1999999097421MD1999999+0081MW1501REMSYN100AAXX  15004 82983 21595 30905 10236 20185 39742 40161 75001 83100 333 10386 29066 55055 58008 69921;
0162829830999992004071512004-09383-040483FM-12+037099999V0200901N004110075019N0020001N1+02281+01731101761ADDGF106991061021008001001001KA1240N+01961MA1999999097551MD1999999+0001REMSYN082AAXX  15124 82983 22595 60908 10228 20173 39755 40176 86200 333 20196 58000 69924;
0167829830999992004071518004-09383-040483FM-12+037099999V0200901N003112200019N0020001N1+02941+01511101281ADDAA106000091GF104991041011008001001001MA1999999097171MD1999999-0021REMSYN070AAXX  15184 82983 32595 40906 10294 20151 39717 40128 84100 333 59002;EQDQ01  00002PRCP06
0198829830999992004071600004-09383-040483FM-12+037099999V0200901N003112200019N0020001N1+02461+01731101591ADDAA106000091GF102991021011008001001001KA1240M+03021MA1999999097421MD1999999+0001REMSYN088AAXX  16004 82983 32595 20906 10246 20173 39742 40159 82100 333 10302 29061 55082 58000;EQDQ01  00002PRCP06
0186829830999992004071612004-09383-040483FM-12+037099999V0201401N003110075019N0020001N1+02301+01651101841ADDAA106000091GF106991061051008001001001KA1240N+02041MA1999999097651MD1999999+0101REMSYN076AAXX  16124 82983 32595 61406 10230 20165 39765 40184 86500 333 20204 58010;EQDQ01  00002PRCP06
0167829830999992004071618004-09383-040483FM-12+037099999V0201401N003112200019N0020001N1+02961+01531101321ADDAA106000091GF102991021011008001001001MA1999999097161MD1999999-0011REMSYN070AAXX  16184 82983 32595 21406 10296 20153 39716 40132 82100 333 59001;EQDQ01  00002PRCP06
0208829830999992004071700004-09383-040483FM-12+037099999V0201401N001512200019N0020001N1+02581+01361101461ADDAA106000091GA1001+999999999GF100991001001999999001001KA1240M+03041MA1999999097291MD1999999-0131REMSYN082AAXX  17004 82983 32995 01403 10258 20136 39729 40146 333 10304 29051 55091 59013;EQDQ01  00002PRCP06
0186829830999992004071712004-09383-040483FM-12+037099999V0201401N004112200019N0020001N1+02401+01701101781ADDAA106000091GF104991041011008001001001KA1240N+02081MA1999999097601MD1999999-0051REMSYN076AAXX  17124 82983 32595 41408 10240 20170 39760 40178 84100 333 20208 59005;EQDQ01  00002PRCP06
0167829830999992004071718004-09383-040483FM-12+037099999V0201401N003112200019N0020001N1+03021+01351101271ADDAA106000091GF104991041011008001001001MA1999999097131MD1999999-0031REMSYN070AAXX  17184 82983 32595 41406 10302 20135 39713 40127 84100 333 59003;EQDQ01  00002PRCP06
0208829830999992004071800004-09383-040483FM-12+037099999V0201401N002612200019N0020001N1+02561+01351101451ADDAA106000091GA1001+999999999GF100991001001999999001001KA1240M+03101MA1999999097291MD1999999+0001REMSYN082AAXX  18004 82983 32995 01405 10256 20135 39729 40145 333 10310 29049 55087 58000;EQDQ01  00002PRCP06
0186829830999992004071812004-09383-040483FM-12+037099999V0201401N004110075019N0020001N1+02361+01731101831ADDAA106000091GF108991081021008001999999KA1240N+02161MA1999999097651MD1999999+0051REMSYN076AAXX  18124 82983 32595 81408 10236 20173 39765 40183 882// 333 20216 58005;EQDQ01  00002PRCP06
0167829830999992004071818004-09383-040483FM-12+037099999V0201401N003110075019N0020001N1+03021+01391101371ADDAA106000091GF105991051011008001001001MA1999999097211MD1999999+0081REMSYN070AAXX  18184 82983 32595 51406 10302 20139 39721 40137 85100 333 58008;EQDQ01  00002PRCP06
0208829830999992004071900004-09383-040483FM-12+037099999V0201401N002612200019N0020001N1+02601+01451101541ADDAA106000091GA1001+999999999GF100991001001999999001001KA1240M+03121MA1999999097371MD1999999+0081REMSYN082AAXX  19004 82983 32995 01405 10260 20145 39737 40154 333 10312 29051 55069 58008;EQDQ01  00002PRCP06
0186829830999992004071912004-09383-040483FM-12+037099999V0201401N004112200019N0020001N1+02401+01551101791ADDAA106000091GF101991011011008001001001KA1240N+01981MA1999999097611MD1999999-0041REMSYN076AAXX  19124 82983 32595 11408 10240 20155 39761 40179 81100 333 20198 59004;EQDQ01  00002PRCP06
0167829830999992004071918004-09383-040483FM-12+037099999V0201401N003112200019N0020001N1+03001+01411101361ADDAA106000091GF104991041011008001001001MA1999999097201MD1999999-0011REMSYN070AAXX  19184 82983 32595 41406 10300 20141 39720 40136 84100 333 59001;EQDQ01  00002PRCP06
0208829830999992004072000004-09383-040483FM-12+037099999V0201401N003112200019N0020001N1+02541+01511101601ADDAA106000091GA1001+999999999GF100991001001999999001001KA1240M+03061MA1999999097421MD1999999+0051REMSYN082AAXX  20004 82983 32995 01406 10254 20151 39742 40160 333 10306 29051 55108 58005;EQDQ01  00002PRCP06
0186829830999992004072012004-09383-040483FM-12+037099999V0201401N004112200019N0020001N1+02281+01541101871ADDAA106000091GF104991041011008001001001KA1240N+01961MA1999999097671MD1999999+0101REMSYN076AAXX  20124 82983 32595 41408 10228 20154 39767 40187 84100 333 20196 58010;EQDQ01  00002PRCP06
0167829830999992004072018004-09383-040483FM-12+037099999V0201401N003112200019N0020001N1+02941+01231101271ADDAA106000091GF102991021011008001001001MA1999999097111MD1999999-0091REMSYN070AAXX  20184 82983 32595 21406 10294 20123 39711 40127 82100 333 59009;EQDQ01  00002PRCP06
0208829830999992004072100004-09383-040483FM-12+037099999V0201401N002612200019N0020001N1+02561+01351101431ADDAA106000091GA1001+999999999GF100991001001999999001001KA1240M+03041MA1999999097251MD1999999-0171REMSYN082AAXX  21004 82983 32995 01405 10256 20135 39725 40143 333 10304 29048 55108 59017;EQDQ01  00002PRCP06
0186829830999992004072112004-09383-040483FM-12+037099999V0201401N003110075019N0020001N1+02281+01701101641ADDAA106000091GF108991081051008001999999KA1240N+02041MA1999999097461MD1999999+0211REMSYN076AAXX  21124 82983 32595 81406 10228 20170 39746 40164 885// 333 20204 58021;EQDQ01  00002PRCP06
0167829830999992004072118004-09383-040483FM-12+037099999V0201401N003112200019N0020001N1+02841+01351101161ADDAA106000091GF102991021011008001001001MA1999999096991MD1999999-0121REMSYN070AAXX  21184 82983 32595 21406 10284 20135 39699 40116 82100 333 59012;EQDQ01  00002PRCP06
0208829830999992004072200004-09383-040483FM-12+037099999V0201401N003112200019N0020001N1+02501+01561101351ADDAA106000091GA1001+999999999GF100991001001999999001001KA1240M+02941MA1999999097171MD1999999-0081REMSYN082AAXX  22004 82983 32995 01406 10250 20156 39717 40135 333 10294 29056 55079 59008;EQDQ01  00002PRCP06
0186829830999992004072212004-09383-040483FM-12+037099999V0201401N004110075019N0020001N1+02101+01461101811ADDAA106000091GF108991081051008001999999KA1240N+02061MA1999999097601MD1999999+0141REMSYN076AAXX  22124 82983 32595 81408 10210 20146 39760 40181 885// 333 20206 58014;EQDQ01  00002PRCP06
0167829830999992004072218004-09383-040483FM-12+037099999V0201401N004112200019N0020001N1+02681+01321101331ADDAA106000091GF102991021011008001001001MA1999999097151MD1999999+0161REMSYN070AAXX  22184 82983 32595 21408 10268 20132 39715 40133 82100 333 58016;EQDQ01  00002PRCP06
0208829830999992004072300004-09383-040483FM-12+037099999V0200901N002612200019N0020001N1+02341+01301101491ADDAA106000091GA1001+999999999GF100991001001999999001001KA1240M+02781MA1999999097381MD1999999+0211REMSYN082AAXX  23004 82983 32995 00905 10234 20130 39738 40149 333 10278 29054 55052 58021;EQDQ01  00002PRCP06
0186829830999992004072312004-09383-040483FM-12+037099999V0201801N004110075019N0020001N1+02181+01291101891ADDAA106000091GF105991051011008001001001KA1240N+01881MA1999999097671MD1999999+0071REMSYN076AAXX  23124 82983 32595 51808 10218 20129 39767 40189 85100 333 20188 58007;EQDQ01  00002PRCP06
0177829830999992004072318004-09383-040483FM-12+037099999V0201801N003112200019N0020001N1+02901+01111101361ADDAA106000091GA1001+999999999GF100991001001999999001001MA1999999097181MD1999999+0031REMSYN064AAXX  23184 82983 32995 01806 10290 20111 39718 40136 333 58003;EQDQ01  00002PRCP06
0208829830999992004072400004-09383-040483FM-12+037099999V0200901N004112200019N0020001N1+02441+01271101701ADDAA106000091GA1001+999999999GF100991001001999999001001KA1240M+02941MA1999999097501MD1999999+0121REMSYN082AAXX  24004 82983 32995 00908 10244 20127 39750 40170 333 10294 29046 55095 58012;EQDQ01  00002PRCP06
0186829830999992004072412004-09383-040483FM-12+037099999V0201401N005110075019N0020001N1+02121+01411102071ADDAA106000091GF106991061011008001001001KA1240N+01941MA1999999097851MD1999999+0181REMSYN076AAXX  24124 82983 32595 61410 10212 20141 39785 40207 86100 333 20194 58018;EQDQ01  00002PRCP06
0167829830999992004072418004-09383-040483FM-12+037099999V0201401N004110075019N0020001N1+02561+01471101731ADDAA106000091GF106991061011008001001001MA1999999097521MD1999999+0341REMSYN070AAXX  24184 82983 32595 61408 10256 20147 39752 40173 86100 333 58034;EQDQ01  00002PRCP06
0198829830999992004072500004-09383-040483FM-12+037099999V0201401N003112200019N0020001N1+02181+01521101851ADDAA106000091GF102991021011008001001001KA1240M+02621MA1999999097721MD1999999+0221REMSYN088AAXX  25004 82983 32595 21406 10218 20152 39772 40185 82100 333 10262 29062 55068 58022;EQDQ01  00002PRCP06
0186829830999992004072512004-09383-040483FM-12+037099999V0201401N005110075019N0020001N1+02221+01411101981ADDAA106000091GF106991061021008001001001KA1240N+01881MA1999999097851MD1999999+0001REMSYN076AAXX  25124 82983 32595 61410 10222 20141 39785 40198 86200 333 20188 58000;EQDQ01  00002PRCP06
0167829830999992004072518004-09383-040483FM-12+037099999V0201401N003110075019N0020001N1+02621+01401101651ADDAA106000091GF106991061011008001001001MA1999999097441MD1999999-0081REMSYN070AAXX  25184 82983 32595 61406 10262 20140 39744 40165 86100 333 59008;EQDQ01  00002PRCP06
0214829830999992004072600004-09383-040483FM-12+037099999V0201401N003112200019N0020001N1+02241+01431101851ADDAA106000091GF103991031011008001001001KA1240M+02721MA1999999999999MD1999999-0091REMSYN088AAXX  26004 82983 32595 31406 10224 20143 39363 40185 83100 333 10272 29057 55068 59009;EQDQ01  00002PRCP06Q02 093633APOSP 
0186829830999992004072612004-09383-040483FM-12+037099999V0201401N005110075019N0020001N1+02081+01401102041ADDAA106000091GF106991061021008001001001KA1240N+01861MA1999999097801MD1999999-0051REMSYN076AAXX  26124 82983 32595 61410 10208 20140 39780 40204 86200 333 20186 59005;EQDQ01  00002PRCP06
0208829830999992004072700004-09383-040483FM-12+037099999V0201801N003112200019N0020001N1+02321+01191101921ADDAA106000091GA1001+999999999GF100991001001999999001001KA1240M+02821MA1999999097701MD1999999+0071REMSYN082AAXX  27004 82983 32995 01806 10232 20119 39770 40192 333 10282 29051 55100 58007;EQDQ01  00002PRCP06
0196829830999992004072712004-09383-040483FM-12+037099999V0201401N005112200019N0020001N1+02281+01211102061ADDAA106000091GA1001+999999999GF100991001001999999001001KA1240N+01861MA1999999097841MD1999999+0041REMSYN070AAXX  27124 82983 32995 01410 10228 20121 39784 40206 333 20186 58004;EQDQ01  00002PRCP06
0167829830999992004072718004-09383-040483FM-12+037099999V0201401N003112200019N0020001N1+02781+01221101601ADDAA106000091GF104991041011008001001001MA1999999097401MD1999999+0001REMSYN070AAXX  27184 82983 32595 41406 10278 20122 39740 40160 84100 333 58000;EQDQ01  00002PRCP06
0186829830999992004072812004-09383-040483FM-12+037099999V0201401N005110075019N0020001N1+02241+01501101931ADDAA106000091GF106991061021008001001001KA1240N+01941MA1999999097731MD1999999-0111REMSYN076AAXX  28124 82983 32595 61410 10224 20150 39773 40193 86200 333 20194 59011;EQDQ01  00002PRCP06
0167829830999992004072818004-09383-040483FM-12+037099999V0201401N004110075019N0020001N1+02581+01401101631ADDAA106000091GF108991081051008001999999MA1999999097431MD1999999+0031REMSYN070AAXX  28184 82983 32595 81408 10258 20140 39743 40163 885// 333 58003;EQDQ01  00002PRCP06
0208829830999992004072900004-09383-040483FM-12+037099999V0201401N003112200019N0020001N1+02341+01011101771ADDAA106000091GA1001+999999999GF100991001001999999001001KA1240M+02721MA1999999097561MD1999999+0001REMSYN082AAXX  29004 82983 32995 01406 10234 20101 39756 40177 333 10272 29049 55031 58000;EQDQ01  00002PRCP06
0186829830999992004072912004-09383-040483FM-12+037099999V0201801N005712200019N0020001N1+02261+01421101911ADDAA106000091GF102991021011008001001001KA1240N+01861MA1999999097701MD1999999-0031REMSYN076AAXX  29124 82983 32595 21811 10226 20142 39770 40191 82100 333 20186 59003;EQDQ01  00002PRCP06
0167829830999992004072918004-09383-040483FM-12+037099999V0200901N004110075019N0020001N1+02661+01501101521ADDAA106000091GF108991081051008001999999MA1999999097321MD1999999-0111REMSYN070AAXX  29184 82983 32595 80908 10266 20150 39732 40152 885// 333 59011;EQDQ01  00002PRCP06
0198829830999992004073000004-09383-040483FM-12+037099999V0201401N003110075019N0020001N1+02501+01531101711ADDAA106000091GF108991081061008001999999KA1240M+02741MA1999999097531MD1999999-0031REMSYN088AAXX  30004 82983 32595 81406 10250 20153 39753 40171 886// 333 10274 29054 55043 59003;EQDQ01  00002PRCP06
0186829830999992004073012004-09383-040483FM-12+037099999V0201401N003110075019N0020001N1+02221+01711101901ADDAA106000091GF108991081051008001999999KA1240N+02061MA1999999097701MD1999999+0001REMSYN076AAXX  30124 82983 32595 81406 10222 20171 39770 40190 885// 333 20206 58000;EQDQ01  00002PRCP06
0167829830999992004073018004-09383-040483FM-12+037099999V0201401N003110075019N0020001N1+02661+01681101501ADDAA106000091GF108991081051008001999999MA1999999097321MD1999999+0001REMSYN070AAXX  30184 82983 32595 81406 10266 20168 39732 40150 885// 333 58000;EQDQ01  00002PRCP06
0198829830999992004073100004-09383-040483FM-12+037099999V0201801N002610075019N0020001N1+02481+01731101761ADDAA106000091GF107991071051008001001001KA1240M+02861MA1999999097561MD1999999+0031REMSYN088AAXX  31004 82983 32595 71805 10248 20173 39756 40176 87500 333 10286 29064 55006 58003;EQDQ01  00002PRCP06
0186829830999992004073112004-09383-040483FM-12+037099999V0201401N003110075019N0020001N1+02281+01701101961ADDAA106000091GF108991081051008001999999KA1240N+02121MA1999999097751MD1999999+0051REMSYN076AAXX  31124 82983 32595 81406 10228 20170 39775 40196 885// 333 20212 58005;EQDQ01  00002PRCP06
0167829830999992004073118004-09383-040483FM-12+037099999V0201401N003110075019N0020001N1+02801+01691101491ADDAA106000091GF106991061011008001011001MA1999999097321MD1999999+0001REMSYN070AAXX  31184 82983 32595 61406 10280 20169 39732 40149 86110 333 58000;EQDQ01  00002PRCP06
0214829830999992004080100004-09383-040483FM-12+037099999V0201401N005110075019N0020001N1+02441+01741101711ADDAA106000091GF108991999021008001001001KA1240M+02861MA1999999097521MD1999999-0041REMSYN088AAXX  01004 82983 32595 81410 10244 20174 39752 40171 86200 333 10286 29063 55030 59004;EQDQ01+000062SCOTLCQ02  00002PRCP06
0186829830999992004080112004-09383-040483FM-12+037099999V0201401N004110075019N0020001N1+02361+01781101861ADDAA106000091GF106991061021008001001001KA1240N+02101MA1999999097671MD1999999-0081REMSYN076AAXX  01124 82983 32595 61408 10236 20178 39767 40186 86200 333 20210 59008;EQDQ01  00002PRCP06
0167829830999992004080118004-09383-040483FM-12+037099999V0201401N004110075019N0020001N1+02661+01901101461ADDAA106000091GF106991061021008001001001MA1999999097281MD1999999-0041REMSYN070AAXX  01184 82983 32595 61408 10266 20190 39728 40146 86200 333 59004;EQDQ01  00002PRCP06
0198829830999992004080200004-09383-040483FM-12+037099999V0201401N004110075019N0020001N1+02241+01821101821ADDAA106000091GF106991061021008001001001KA1240M+02941MA1999999097611MD1999999+0091REMSYN088AAXX  02004 82983 32595 61408 10224 20182 39761 40182 86200 333 10294 29072 55079 58009;EQDQ01  00002PRCP06
0186829830999992004080212004-09383-040483FM-12+037099999V0201401N004110075019N0020001N1+02301+01651101911ADDAA106000091GF106991061011008001001001KA1240N+01941MA1999999097691MD1999999+0021REMSYN076AAXX  02124 82983 32595 61408 10230 20165 39769 40191 86100 333 20194 58002;EQDQ01  00002PRCP06
0208829830999992004080300004-09383-040483FM-12+037099999V0200901N003112200019N0020001N1+02581+01641101601ADDAA106000091GA1001+999999999GF100991001001999999001001KA1240M+03021MA1999999097421MD1999999-0191REMSYN082AAXX  03004 82983 32995 00906 10258 20164 39742 40160 333 10302 29056 55105 59019;EQDQ01  00002PRCP06
0186829830999992004080312004-09383-040483FM-12+037099999V0201401N004110075019N0020001N1+02281+01491101891ADDAA106000091GF105991051011008001001001KA1240N+02011MA1999999097701MD1999999+0011REMSYN076AAXX  03124 82983 32595 51408 10228 20149 39770 40189 85100 333 20201 58001;EQDQ01  00002PRCP06
0167829830999992004080318004-09383-040483FM-12+037099999V0201401N004112200019N0020001N1+03001+01241101461ADDAA106000091GF101991011011008001001001MA1999999097301MD1999999+0081REMSYN070AAXX  03184 82983 32595 11408 10300 20124 39730 40146 81100 333 58008;EQDQ01  00002PRCP06
0208829830999992004080400004-09383-040483FM-12+037099999V0200901N002612200019N0020001N1+02521+01341101681ADDAA106000091GA1001+999999999GF100991001001999999001001KA1240M+03101MA1999999097501MD1999999+0091REMSYN082AAXX  04004 82983 32995 00905 10252 20134 39750 40168 333 10310 29048 55104 58009;EQDQ01  00002PRCP06
0186829830999992004080412004-09383-040483FM-12+037099999V0201401N004110075019N0020001N1+02221+01531101961ADDAA106000091GF106991061011008001001001KA1240N+01981MA1999999097751MD1999999+0051REMSYN076AAXX  04124 82983 32595 61408 10222 20153 39775 40196 86100 333 20198 58005;EQDQ01  00002PRCP06
0167829830999992004080418004-09383-040483FM-12+037099999V0201401N004110075019N0020001N1+02881+01461101481ADDAA106000091GF105991051011008001001001MA1999999097301MD1999999+0001REMSYN070AAXX  04184 82983 32595 51408 10288 20146 39730 40148 85100 333 58000;EQDQ01  00002PRCP06
0208829830999992004080500004-09383-040483FM-12+037099999V0201801N005112200019N0020001N1+02321+01611101761ADDAA106000091GA1001+999999999GF100991001001999999001001KA1240M+02941MA1999999097551MD1999999+0051REMSYN082AAXX  05004 82983 32595 01810 10232 20161 39755 40176 333 10294 29059 55098 58005;EQDQ01  00002PRCP06
0186829830999992004080512004-09383-040483FM-12+037099999V0201401N004110075019N0020001N1+02361+01511101881ADDAA106000091GF106991061011008001001001KA1240N+02021MA1999999097681MD1999999-0071REMSYN076AAXX  05124 82983 32595 61408 10236 20151 39768 40188 86100 333 20202 59007;EQDQ01  00002PRCP06
0167829830999992004080518004-09383-040483FM-12+037099999V0200901N004110075019N0020001N1+02921+01461101421ADDAA106000091GF106991061011008001001001MA1999999097251MD1999999-0051REMSYN070AAXX  05184 82983 32595 60908 10292 20146 39725 40142 86100 333 59005;EQDQ01  00002PRCP06
0208829830999992004080600004-09383-040483FM-12+037099999V0201801N003112200019N0020001N1+02441+01641101701ADDAA106000091GA1001+999999999GF100991001001999999001001KA1240M+03021MA1999999097521MD1999999-0031REMSYN082AAXX  06004 82983 32995 01806 10244 20164 39752 40170 333 10302 29056 55105 59003;EQDQ01  00002PRCP06
0186829830999992004080612004-09383-040483FM-12+037099999V0201401N004110075019N0020001N1+02201+01611101951ADDAA106000091GF108991081051008001999999KA1240N+02101MA1999999097741MD1999999+0061REMSYN076AAXX  06124 82983 32595 81408 10220 20161 39774 40195 885// 333 20210 58006;EQDQ01  00002PRCP06
0167829830999992004080618004-09383-040483FM-12+037099999V0201401N004110075019N0020001N1+02841+01501101511ADDAA106000091GF106991061011008001001001MA1999999097331MD1999999+0081REMSYN070AAXX  06184 82983 32595 61408 10284 20150 39733 40151 86100 333 58008;EQDQ01  00002PRCP06
0208829830999992004080700004-09383-040483FM-12+037099999V0201801N003112200019N0020001N1+02461+01611101781ADDAA106000091GA1001+999999999GF100991001001999999001001KA1240M+02921MA1999999097581MD1999999+0061REMSYN082AAXX  07004 82983 32995 01806 10246 20161 39758 40178 333 10292 29056 55053 58006;EQDQ01  00002PRCP06
0186829830999992004080712004-09383-040483FM-12+037099999V0201401N004110075019N0020001N1+02221+01701102071ADDAA106000091GF107991071021008001001001KA1240N+02101MA1999999097861MD1999999+0121REMSYN076AAXX  07124 82983 32595 71408 10222 20170 39786 40207 87200 333 20210 58012;EQDQ01  00002PRCP06
0167829830999992004080718004-09383-040483FM-12+037099999V0201401N003112200019N0020001N1+02941+01481101601ADDAA106000091GF103991031011008001001001MA1999999097431MD1999999+0101REMSYN070AAXX  07184 82983 32595 31406 10294 20148 39743 40160 83100 333 58010;EQDQ01  00002PRCP06
0208829830999992004080800004-09383-040483FM-12+037099999V0201401N003112200019N0020001N1+02541+01571101781ADDAA106000091GA1001+999999999GF100991001001999999001001KA1240M+03021MA1999999097591MD1999999+0011REMSYN082AAXX  08004 82983 32995 01406 10254 20157 39759 40178 333 10302 29055 55081 58001;EQDQ01  00002PRCP06
0183829830999992004080818004-09383-040483FM-12+037099999V0201401N003112200019N0020001N1+03061+01581101431ADDAA106000091GF104991999021008001001001MA1999999097281MD1999999-0151REMSYN070AAXX  08184 82983 32595 41406 10306 20158 39728 40143 83200 333 59015;EQDQ01+000032SCOTLCQ02  00002PRCP06
0198829830999992004080900004-09383-040483FM-12+037099999V0200901N002612200019N0020001N1+02641+01541101621ADDAA106000091GF102991021011008001001001KA1240M+03161MA1999999097451MD1999999-0141REMSYN088AAXX  09004 82983 32595 20905 10264 20154 39745 40162 82100 333 10316 29052 55082 59014;EQDQ01  00002PRCP06
0170829830999992004080912004-09380-040480FM-12+037099999V0200901N004112200019N0020001N1+02541+01781101821ADDAA106000091GF104991041011008001001001KA1999N+02151MA1999999097651REMSYN074AAXX  09124 82983 32595 40908 10254 20178 39765 40182 84100 333 202159010;EQDQ01  00002PRCP06
0167829830999992004080918004-09380-040480FM-12+037099999V0200901N003112200019N0020001N1+03001+01611101421ADDAA106000091GF102991021011008001001001MA1999999097281MD1999999+0001REMSYN070AAXX  09184 82983 32595 20906 10300 20161 39728 40142 82100 333 58000;EQDQ01  00002PRCP06
0198829830999992004081000004-09380-040480FM-12+037099999V0201401N003110075019N0020001N1+02761+01531101611ADDAA106000091GF105991051021008001001001KA1240M+03141MA1999999097461MD1999999+0011REMSYN088AAXX  10004 82983 32595 51406 10276 20153 39746 40161 85200 333 10314 29050 55109 58001;EQDQ01  00002PRCP06
0186829830999992004081012004-09380-040480FM-12+037099999V0201401N004110075019N0020001N1+02421+01621101971ADDAA106000091GF106991061021008001001001KA1240N+02081MA1999999097801MD1999999+0151REMSYN076AAXX  10124 82983 32595 61408 10242 20162 39780 40197 86200 333 20208 58015;EQDQ01  00002PRCP06
0167829830999992004081018004-09380-040480FM-12+037099999V0201401N005112200019N0020001N1+02821+01511101581ADDAA106000091GF103991031011008001001001MA1999999097411MD1999999+0131REMSYN070AAXX  10184 82983 32595 31410 10282 20151 39741 40158 83100 333 58013;EQDQ01  00002PRCP06
0198829830999992004081100004-09380-040480FM-12+037099999V0201801N005110075019N0020001N1+02161+01681102061ADDAA106000091GF106991061021008001001001KA1240M+02881MA1999999097841MD1999999+0381REMSYN088AAXX  11004 82983 32595 61810 10216 20168 39784 40206 86200 333 10288 29064 55088 58038;EQDQ01  00002PRCP06
0186829830999992004081112004-09383-040483FM-12+037099999V0201401N004110075019N0020001N1+02121+01441102161ADDAA106000091GF108991081051008001999999KA1240N+01981MA1999999097921MD1999999+0121REMSYN076AAXX  11124 82983 32595 81408 10212 20144 39792 40216 885// 333 20198 58012;EQDQ01  00002PRCP06
0167829830999992004081118004-09383-040483FM-12+037099999V0200901N004110075019N0020001N1+02641+01451101861ADDAA106000091GF106991061011008001001001MA1999999097461MD1999999+0051REMSYN070AAXX  11184 82983 32595 60908 10264 20145 39746 40186 86100 333 58005;EQDQ01  00002PRCP06
0208829830999992004081200004-09380-040480FM-12+037099999V0201401N003112200019N0020001N1+02261+01471101901ADDAA106000091GA1001+999999999GF100991001001999999001001KA1240M+02741MA1999999097681MD1999999-0161REMSYN082AAXX  12004 82983 32995 01406 10226 20147 39768 40190 333 10274 29059 55032 59016;EQDQ01  00002PRCP06
0186829830999992004081212004-09380-040480FM-12+037099999V0201401N004112200019N0020001N1+02261+01281102131ADDAA106000091GF102991021011008001011001KA1240N+01881MA1999999097901MD1999999-0021REMSYN076AAXX  12124 82983 32595 21408 10226 20128 39790 40213 82110 333 20188 59002;EQDQ01  00002PRCP06
0183829830999992004081218004-09380-040480FM-12+037099999V0201401N003119999999N0020001N1+02921+01261101571ADDAA106000091GF106991999001008001021001MA1999999097361MD1999999-0081REMSYN070AAXX  12184 82983 32595 61406 10292 20126 39736 40157 80020 333 59008;EQDQ01+000002SCOTLCQ02  00002PRCP06
0208829830999992004081300004-09380-040480FM-12+037099999V0201401N002612200019N0020001N1+02521+01171101821ADDAA106000091GA1001+999999999GF100991001001999999001001KA1240M+03021MA1999999097631MD1999999-0051REMSYN082AAXX  13004 82983 32995 01405 10252 20117 39763 40182 333 10302 29044 55108 59005;EQDQ01  00002PRCP06
0171829830999992004081312004-09380-040480FM-12+037099999V0201401N005112200019N0020001N1+02241+01211999999ADDAA106000091GF102991999999008001999999KA1240N+01941MA1999999097961REMSYN075AAXX  13124 82983 32595 21410 10224 20121 39796 4017 82100 333 20194 58006;EQDQ01  00002PRCP06
0183829830999992004081318004-09380-040480FM-12+037099999V0200901N004112200019N0020001N1+02861+00831101521ADDAA106000091GF102991001001999999001011MA1999999097341MD1999999-0041REMSYN070AAXX  13184 82983 32595 20908 10286 20083 39734 40152 80001 333 59004;EQDQ01+008002SCOLCBQ02  00002PRCP06
0208829830999992004081400004-09380-040480FM-12+037099999V0201401N003112200019N0020001N1+02381+01011101861ADDAA106000091GA1001+999999999GF100991001001999999001001KA1240M+02921MA1999999097651MD1999999+0021REMSYN082AAXX  14004 82983 32995 01406 10238 20101 39765 40186 333 10292 29041 55106 58002;EQDQ01  00002PRCP06
0186829830999992004081412004-09380-040480FM-12+037099999V0201401N004110075019N0020001N1+02121+01341102131ADDAA106000091GF106991061021008001001001KA1240N+01801MA1999999097901MD1999999-0061REMSYN076AAXX  14124 82983 32595 61408 10212 20134 39790 40213 86200 333 20180 59006;EQDQ01  00002PRCP06
0167829830999992004081418004-09380-040480FM-12+037099999V0201401N004112200019N0020001N1+02761+01121101601ADDAA106000091GF102991011011008001011001MA1999999097401MD1999999+0061REMSYN070AAXX  14184 82983 32595 21408 10276 20112 39740 40160 81110 333 58006;EQDQ01  00002PRCP06
0208829830999992004081500004-09380-040480FM-12+037099999V0201401N003112200019N0020001N1+02361+01261101881ADDAA106000091GA1001+999999999GF100991001001999999001001KA1240M+02841MA1999999097671MD1999999+0021REMSYN082AAXX  15004 82983 32995 01406 10236 20126 39767 40188 333 10284 29049 55096 58002;EQDQ01  00002PRCP06
0186829830999992004081512004-09380-040480FM-12+037099999V0201401N004110075019N0020001N1+02161+01501102101ADDAA106000091GF107991071021008001001001KA1240N+01921MA1999999097871MD1999999-0031REMSYN076AAXX  15124 82983 32595 71408 10216 20150 39787 40210 87200 333 20192 59003;EQDQ01  00002PRCP06
0167829830999992004081518004-09380-040480FM-12+037099999V0201401N004112200019N0020001N1+02781+01481101581ADDAA106000091GF104991041011008001001001MA1999999097381MD1999999-0021REMSYN070AAXX  15184 82983 32595 41408 10278 20148 39738 40158 84100 333 59002;EQDQ01  00002PRCP06
0208829830999992004081600004-09380-040480FM-12+037099999V0201401N003112200019N0020001N1+02461+01471101831ADDAA106000091GA1001+999999999GF100991001001999999001001KA1240M+02881MA1999999097621MD1999999-0051REMSYN082AAXX  16004 82983 32995 01406 10246 20147 39762 40183 333 10288 29055 55085 59005;EQDQ01  00002PRCP06
0186829830999992004081612004-09380-040480FM-12+037099999V0201401N004112200019N0020001N1+02341+01491101931ADDAA106000091GF102991021011008001001001KA1240N+01901MA1999999097741MD1999999-0131REMSYN076AAXX  16124 82983 32595 21408 10234 20149 39774 40193 82100 333 20190 59013;EQDQ01  00002PRCP06
0167829830999992004081618004-09380-040480FM-12+037099999V0200901N003112200019N0020001N1+02981+01311101421ADDAA106000091GF102991021011008001001001MA1999999097261MD1999999-0121REMSYN070AAXX  16184 82983 32595 20906 10298 20131 39726 40142 82100 333 59012;EQDQ01  00002PRCP06
0208829830999992004081700004-09380-040480FM-12+037099999V0201401N003112200019N0020001N1+02681+01281101601ADDAA106000091GA1001+999999999GF100991001001999999001001KA1240M+03081MA1999999097431MD1999999-0091REMSYN082AAXX  17004 82983 32995 01406 10268 20128 39743 40160 333 10308 29045 55110 59009;EQDQ01  00002PRCP06
0186829830999992004081712004-09380-040480FM-12+037099999V0201401N004110075019N0020001N1+02281+01591101941ADDAA106000091GF108991081051008001999999KA1240N+02081MA1999999097751MD1999999+0011REMSYN076AAXX  17124 82983 32595 81408 10228 20159 39775 40194 885// 333 20208 58001;EQDQ01  00002PRCP06
0167829830999992004081718004-09380-040480FM-12+037099999V0200901N003110075019N0020001N1+02861+01371101451ADDAA106000091GF106991061011008001001001MA1999999097291MD1999999+0031REMSYN070AAXX  17184 82983 32595 60906 10286 20137 39729 40145 86100 333 58003;EQDQ01  00002PRCP06
0208829830999992004081800004-09380-040480FM-12+037099999V0201401N001512200019N0020001N1+02541+01421101581ADDAA106000091GA1001+999999999GF100991001001999999001001KA1240M+03041MA1999999097401MD1999999-0031REMSYN082AAXX  18004 82983 32995 01403 10254 20142 39740 40158 333 10304 29051 55074 59003;EQDQ01  00002PRCP06
0186829830999992004081812004-09380-040480FM-12+037099999V0201401N004110075019N0020001N1+02241+01621101901ADDAA106000091GF108991081051008001999999KA1240N+02101MA1999999097711MD1999999-0041REMSYN076AAXX  18124 82983 32595 81408 10224 20162 39771 40190 885// 333 20210 59004;EQDQ01  00002PRCP06
0167829830999992004081818004-09380-040480FM-12+037099999V0201401N003110075019N0020001N1+02781+01531101501ADDAA106000091GF106991061011008001001001MA1999999097341MD1999999+0051REMSYN070AAXX  18184 82983 32595 61406 10278 20153 39734 40150 86100 333 58005;EQDQ01  00002PRCP06
0208829830999992004081900004-09380-040480FM-12+037099999V0201801N001512200019N0020001N1+02381+01531101731ADDAA106000091GA1001+999999999GF100991001001999999001001KA1240M+02881MA1999999097531MD1999999+0131REMSYN082AAXX  19004 82983 32995 01803 10238 20153 39753 40173 333 10288 29058 55035 58013;EQDQ01  00002PRCP06
0186829830999992004081912004-09380-040480FM-12+037099999V0201401N004112200019N0020001N1+02481+01701102041ADDAA106000091GF101991011011008001001001KA1240N+02121MA1999999097841MD1999999+0131REMSYN076AAXX  19124 82983 32595 11408 10248 20170 39784 40204 81100 333 20212 58013;EQDQ01  00002PRCP06
0208829830999992004082000004-09380-040480FM-12+037099999V0201401N004112200019N0020001N1+02601+01741101781ADDAA106000091GA1001+999999999GF100991001001999999001001KA1240M+03161MA1999999097601MD1999999+0071REMSYN082AAXX  20004 82983 32995 01408 10260 20174 39760 40178 333 10316 29055 55110 58007;EQDQ01  00002PRCP06
0186829830999992004082012004-09380-040480FM-12+037099999V0200901N004112200019N0020001N1+02421+01651101951ADDAA106000091GF104991041011008001001001KA1240N+02021MA1999999097761MD1999999-0081REMSYN076AAXX  20124 82983 32595 40908 10242 20165 39776 40195 84100 333 20202 59008;EQDQ01  00002PRCP06
0167829830999992004082018004-09380-040480FM-12+037099999V0200901N004110075019N0020001N1+03101+01331101371ADDAA106000091GF106991061011008001001001MA1999999097211MD1999999-0141REMSYN070AAXX  20184 82983 32595 60908 10310 20133 39721 40137 86100 333 59014;EQDQ01  00002PRCP06
0208829830999992004082100004-09380-040480FM-12+037099999V0200901N003112200019N0020001N1+02621+01531101631ADDAA106000091GA1001+999999999GF100991001001999999001001KA1240M+03201MA1999999097461MD1999999-0141REMSYN082AAXX  21004 82983 32995 00906 10262 20153 39746 40163 333 10320 29050 55108 59014;EQDQ01  00002PRCP06
0186829830999992004082112004-09380-040480FM-12+037099999V0201401N004112200019N0020001N1+02361+01591101841ADDAA106000091GF104991041011008001001001KA1240N+02021MA1999999097661MD1999999-0101REMSYN076AAXX  21124 82983 32595 41408 10236 20159 39766 40184 84100 333 20202 59010;EQDQ01  00002PRCP06
0167829830999992004082118004-09380-040480FM-12+037099999V0200901N004112200019N0020001N1+03061+01551101311ADDAA106000091GF104991041011008001001001MA1999999097161MD1999999-0051REMSYN070AAXX  21184 82983 32595 40908 10306 20155 39716 40131 84100 333 59005;EQDQ01  00002PRCP06
0208829830999992004082200004-09380-040480FM-12+037099999V0201401N004112200019N0020001N1+02421+01821101641ADDAA106000091GA1001+999999999GF100991001001999999001001KA1240M+03181MA1999999097461MD1999999+0001REMSYN082AAXX  22004 82983 32995 01408 10242 20182 39746 40164 333 10318 29060 55109 58000;EQDQ01  00002PRCP06
0186829830999992004082212004-09380-040480FM-12+037099999V0200901N004110075019N0020001N1+02481+01651101821ADDAA106000091GF106991061011008001001001KA1240N+02161MA1999999097631MD1999999-0031REMSYN076AAXX  22124 82983 32595 60908 10248 20165 39763 40182 86100 333 20216 59003;EQDQ01  00002PRCP06
0167829830999992004082218004-09380-040480FM-12+037099999V0201401N003110075019N0020001N1+03021+01511101281ADDAA106000091GF106991061011008001001001MA1999999097141MD1999999-0021REMSYN070AAXX  22184 82983 32595 61406 10302 20151 39714 40128 86100 333 59002;EQDQ01  00002PRCP06
0208829830999992004082300004-09380-040480FM-12+037099999V0200901N000512200019N0020001N1+02661+01741101491ADDAA106000091GA1001+999999999GF100991001001999999001001KA1240M+03161MA1999999097331MD1999999-0011REMSYN082AAXX  23004 82983 32995 00901 10266 20174 39733 40149 333 10316 29054 55095 59001;EQDQ01  00002PRCP06
0196829830999992004082312004-09380-040480FM-12+037099999V0200901N005112200019N0020001N1+02421+01651101901ADDAA106000091GA1001+999999999GF100991001001999999001001KA1240N+02001MA1999999097621MD1999999-0011REMSYN070AAXX  23124 82983 32995 00910 10242 20165 39762 40190 333 20200 59001;EQDQ01  00002PRCP06
0167829830999992004082318004-09380-040480FM-12+037099999V0201401N003112200019N0020001N1+03241+01411101251ADDAA106000091GF102991021011008001001001MA1999999097121MD1999999-0021REMSYN070AAXX  23184 82983 32595 21406 10324 20141 39712 40125 82100 333 59002;EQDQ01  00002PRCP06
0208829830999992004082400004-09380-040480FM-12+037099999V0200901N002612200019N0020001N1+02781+01411101471ADDAA106000091GA1001+999999999GF100991001001999999001001KA1240M+03301MA1999999097321MD1999999-0011REMSYN082AAXX  24004 82983 32995 00905 10278 20141 39732 40147 333 10330 29045 55110 59001;EQDQ01  00002PRCP06
0186829830999992004082412004-09380-040480FM-12+037099999V0200901N003112200019N0020001N1+02501+01721101631ADDAA106000091GF101991011011008001001001KA1240N+02141MA1999999097481MD1999999-0141REMSYN076AAXX  24124 82983 32595 10906 10250 20172 39748 40163 81100 333 20214 59014;EQDQ01  00002PRCP06
0167829830999992004082418004-09380-040480FM-12+037099999V0200901N003112200019N0020001N1+03261+01561101091ADDAA106000091GF104991041011008001001001MA1999999096971MD1999999-0151REMSYN070AAXX  24184 82983 32595 40906 10326 20156 39697 40109 84100 333 59015;EQDQ01  00002PRCP06
0198829830999992004082500004-09380-040480FM-12+037099999V0200901N001512200019N0020001N1+03001+01411101181ADDAA106000091GF103991031011008001001001KA1240M+03441MA1999999097061MD1999999-0261REMSYN088AAXX  25004 82983 32595 30903 10300 20141 39706 40118 83100 333 10344 29042 55109 59026;EQDQ01  00002PRCP06
0186829830999992004082512004-09380-040480FM-12+037099999V0201401N004112200019N0020001N1+02461+01681101581ADDAA106000091GF103991031011008001001001KA1240N+02281MA1999999097451MD1999999-0031REMSYN076AAXX  25124 82983 32595 31408 10246 20168 39745 40158 83100 333 20228 59003;EQDQ01  00002PRCP06
0167829830999992004082518004-09383-040483FM-12+037099999V0201401N003112200019N0020001N1+03161+01291101091ADDAA106000091GF101991011011008001001001MA1999999096971MD1999999+0001REMSYN070AAXX  25184 82983 32595 11406 10316 20129 39697 40109 81100 333 58000;EQDQ01  00002PRCP06
0208829830999992004082600004-09383-040483FM-12+037099999V0201401N003112200019N0020001N1+02741+01261101371ADDAA106000091GA1001+999999999GF100991001001999999001001KA1240M+03221MA1999999097221MD1999999+0161REMSYN082AAXX  26004 82983 32995 01406 10274 20126 39722 40137 333 10322 29044 55100 58016;EQDQ01  00002PRCP06
0186829830999992004082612004-09383-040483FM-12+037099999V0201401N003112200019N0020001N1+02361+01561101681ADDAA106000091GF104991041011008001001001KA1240N+02081MA1999999097511MD1999999+0061REMSYN076AAXX  26124 82983 32595 41406 10236 20156 39751 40168 84100 333 20208 58006;EQDQ01  00002PRCP06
0183829830999992004082618004-09383-040483FM-12+037099999V0201401N003112200019N0020001N1+03141+01221101071ADDAA106000091GF103991001001999999001011MA1999999096941MD1999999-0031REMSYN070AAXX  26184 82983 32595 31406 10314 20122 39694 40107 80001 333 59003;EQDQ01+008002SCOLCBQ02  00002PRCP06
0208829830999992004082700004-09383-040483FM-12+037099999V0201401N002612200019N0020001N1+02741+01181101251ADDAA106000091GA1001+999999999GF100991001001999999001001KA1240M+03261MA1999999097111MD1999999-0111REMSYN082AAXX  27004 82983 32995 01405 10274 20118 39711 40125 333 10326 29042 55090 59011;EQDQ01  00002PRCP06
0186829830999992004082712004-09383-040483FM-12+037099999V0200901N003110075019N0020001N1+02401+01651101601ADDAA106000091GF108991081051008001999999KA1240N+02181MA1999999097441MD1999999-0071REMSYN076AAXX  27124 82983 32595 80906 10240 20165 39744 40160 885// 333 20218 59007;EQDQ01  00002PRCP06
0177829830999992004082718004-09383-040483FM-12+037099999V0201401N002612200019N0020001N1+03021+01551101101ADDAA106000091GA1001+999999999GF100991001001999999001001MA1999999096961MD1999999+0021REMSYN064AAXX  27184 82983 32995 01405 10302 20155 39696 40110 333 58002;EQDQ01  00002PRCP06
0208829830999992004082800004-09383-040483FM-12+037099999V0201401N001512200019N0020001N1+02841+01391101301ADDAA106000091GA1001+999999999GF100991001001999999001001KA1240M+03201MA1999999097151MD1999999+0041REMSYN082AAXX  28004 82983 32995 01403 10284 20139 39715 40130 333 10320 29046 55062 58004;EQDQ01  00002PRCP06
0186829830999992004082812004-09383-040483FM-12+037099999V0201401N004110075019N0020001N1+02441+01691101611ADDAA106000091GF106991061011008001001001KA1240N+02181MA1999999097461MD1999999+0021REMSYN076AAXX  28124 82983 32595 61408 10244 20169 39746 40161 86100 333 20218 58002;EQDQ01  00002PRCP06
0167829830999992004082818004-09380-040480FM-12+037099999V0201401N001512200019N0020001N1+03201+01591100981ADDAA106000091GF101991011011008001001001MA1999999096891MD1999999-0071REMSYN070AAXX  28184 82983 32595 11403 10320 20159 39689 40098 81100 333 59007;EQDQ01  00002PRCP06
0208829830999992004082900004-09380-040480FM-12+037099999V0209999C000012200019N0020001N1+02701+01541101091ADDAA106000091GA1001+999999999GF100991001001999999001001KA1240M+03341MA1999999096951MD1999999-0201REMSYN082AAXX  29004 82983 32995 00000 10270 20154 39695 40109 333 10334 29050 55103 59020;EQDQ01  00002PRCP06
0196829830999992004082912004-09380-040480FM-12+037099999V0201401N002612200019N0020001N1+02661+01791101401ADDAA106000091GA1001+999999999GF100991001001999999001001KA1240N+02201MA1999999097261MD1999999-0201REMSYN070AAXX  29124 82983 32995 01405 10266 20179 39726 40140 333 20220 59020;EQDQ01  00002PRCP06
0183829830999992004082918004-09380-040480FM-12+037099999V0202301N002112200019N0500001N1+03541+01521100821ADDAA106000091GF103991031021008001001001MA1999999098302MD1999999-0081REMSYN070AAXX  29184 82983 32599 32304 10354 20152 39830 40082 83200 333 59008;EQDQ01+098303APOSP Q02  00002PRCP06
0198829830999992004083000004-09380-040480FM-12+037099999V0209999C000012200019N0020001N1+02941+01401101051ADDAA106000091GF102991021011008001001001KA1240M+03641MA1999999096952MD1999999+0001REMSYN088AAXX  30004 82983 32595 20000 10294 20140 39695 40105 82100 333 10364 29040 55109 58000;EQDQ01  00002PRCP06
0196829830999992004083012004-09383-040483FM-12+037099999V0200901N002612200019N0020001N1+02761+01911101401ADDAA106000091GA1001+999999999GF100991001001999999001001KA1240N+02281MA1999999097291MD1999999+0031REMSYN070AAXX  30124 82983 32995 00905 10276 20191 39729 40140 333 20228 58003;EQDQ01  00002PRCP06
0167829830999992004083018004-09383-040483FM-12+037099999V0201401N003112200019N0020001N1+03321+01741100961ADDAA106000091GF103991021011008001001011MA1999999096871MD1999999+0161REMSYN070AAXX  30184 82983 32595 31406 10332 20174 39687 40096 82101 333 58016;EQDQ01  00002PRCP06
0198829830999992004083100004-09383-040483FM-12+037099999V0201401N005112200019N0020001N1+02941+01591101271ADDAA106000091GF103991031011008001001001KA1240M+03381MA1999999097161MD1999999+0211REMSYN088AAXX  31004 82983 32595 31410 10294 20159 39716 40127 83100 333 10338 29047 55107 58021;EQDQ01  00002PRCP06
0186829830999992004083112004-09383-040483FM-12+037099999V0200901N004112200019N0020001N1+02521+01551101651ADDAA106000091GF101991011011008001001001KA1240N+02221MA1999999097521MD1999999+0231REMSYN076AAXX  31124 82983 32595 10908 10252 20155 39752 40165 81100 333 20222 58023;EQDQ01  00002PRCP06
0167829830999992004083118004-09383-040483FM-12+037099999V0200901N004110075019N0020001N1+03201+01511101181ADDAA106000091GF105991051011008001001001MA1999999097061MD1999999+0191REMSYN070AAXX  31184 82983 32595 50908 10320 20151 39706 40118 85100 333 58019;EQDQ01  00002PRCP06
0198829830999992004090100004-09383-040483FM-12+037099999V0201401N003110075019N0020001N1+02761+01621101581ADDAA106000091GF106991061021008001001001KA1240M+03281MA1999999097441MD1999999+0281REMSYN088AAXX  01004 82983 32595 61406 10276 20162 39744 40158 86200 333 10328 29048 55102 58028;EQDQ01  00002PRCP06
0186829830999992004090112004-09383-040483FM-12+037099999V0200901N005110075019N0020001N1+02501+01481101921ADDAA106000091GF106991061011008001001001KA1240N+02061MA1999999097761MD1999999+0241REMSYN076AAXX  01124 82983 32595 60910 10250 20148 39776 40192 86100 333 20206 58024;EQDQ01  00002PRCP06
0208829830999992004090200004-09383-040483FM-12+037099999V0200901N003112200019N0020001N1+02681+01391101631ADDAA106000091GA1001+999999999GF100991001001999999001001KA1240M+03201MA1999999097471MD1999999+0031REMSYN082AAXX  02004 82983 32995 00906 10268 20139 39747 40163 333 10320 29044 55107 58003;EQDQ01  00002PRCP06
0186829830999992004090212004-09383-040483FM-12+037099999V0200901N005110075019N0020001N1+02441+01591101881ADDAA106000091GF106991061021008001001001KA1240N+02101MA1999999097701MD1999999-0061REMSYN076AAXX  02124 82983 32595 60910 10244 20159 39770 40188 86200 333 20210 59006;EQDQ01  00002PRCP06
0167829830999992004090218004-09383-040483FM-12+037099999V0200901N004110075019N0020001N1+03061+01581101421ADDAA106000091GF106991061021008001001001MA1999999097261MD1999999+0061REMSYN070AAXX  02184 82983 32595 60908 10306 20158 39726 40142 86200 333 58006;EQDQ01  00002PRCP06
0208829830999992004090300004-09383-040483FM-12+037099999V0201401N005712200019N0020001N1+02621+01531101641ADDAA106000091GA1001+999999999GF100991001001999999001001KA1240M+03161MA1999999097471MD1999999+0001REMSYN082AAXX  03004 82983 32995 01411 10262 20153 39747 40164 333 10316 29050 55086 58000;EQDQ01  00002PRCP06
0186829830999992004090312004-09383-040483FM-12+037099999V0201401N004110075019N0020001N1+02401+01501101871ADDAA106000091GF106991061011008001001001KA1240N+02081MA1999999097691MD1999999-0011REMSYN076AAXX  03124 82983 32595 61408 10240 20150 39769 40187 86100 333 20208 59001;EQDQ01  00002PRCP06
0167829830999992004090318004-09383-040483FM-12+037099999V0201401N003110075019N0020001N1+03101+01331101341ADDAA106000091GF105991051011008001001001MA1999999097181MD1999999-0081REMSYN070AAXX  03184 82983 32595 51406 10310 20133 39718 40134 85100 333 59008;EQDQ01  00002PRCP06
0198829830999992004090400004-09383-040483FM-12+037099999V0201401N002610075019N0020001N1+02721+01081101451ADDAA106000091GF105991051011008001001001KA1240M+03161MA1999999097291MD1999999-0181REMSYN088AAXX  04004 82983 32595 51405 10272 20108 39729 40145 85100 333 10316 29041 55108 59018;EQDQ01  00002PRCP06
0186829830999992004090412004-09383-040483FM-12+037099999V0201401N004110075019N0020001N1+02261+01541101751ADDAA106000091GF106991061011008001001001KA1240N+02041MA1999999097571MD1999999-0121REMSYN076AAXX  04124 82983 32595 61408 10226 20154 39757 40175 86100 333 20204 59012;EQDQ01  00002PRCP06
0208829830999992004090500004-09383-040483FM-12+037099999V0201401N003112200019N0020001N1+02741+01141101331ADDAA106000091GA1001+999999999GF100991001001999999001001KA1240M+03301MA1999999097171MD1999999-0121REMSYN082AAXX  05004 82983 32995 01406 10274 20114 39717 40133 333 10330 29041 55097 59012;EQDQ01  00002PRCP06
0186829830999992004090512004-09383-040483FM-12+037099999V0201401N004110075019N0020001N1+02301+01461101641ADDAA106000091GF106991061011008001001001KA1240N+02001MA1999999097471MD1999999-0101REMSYN076AAXX  05124 82983 32595 61408 10230 20146 39747 40164 86100 333 20200 59010;EQDQ01  00002PRCP06
0177829830999992004090518004-09383-040483FM-12+037099999V0201401N004112200019N0020001N1+03061+01001101001ADDAA106000091GA1001+999999999GF100991001001999999001001MA1999999096931MD1999999-0051REMSYN064AAXX  05184 82983 32995 01408 10306 20100 39693 40100 333 59005;EQDQ01  00002PRCP06
0208829830999992004090600004-09383-040483FM-12+037099999V0201401N003112200019N0020001N1+02661+01231101341ADDAA106000091GA1001+999999999GF100991001001999999001001KA1240M+03161MA1999999097181MD1999999+0011REMSYN082AAXX  06004 82983 32995 01406 10266 20123 39718 40134 333 10316 29042 55097 58001;EQDQ01  00002PRCP06
0186829830999992004090612004-09383-040483FM-12+037099999V0201401N003112200019N0020001N1+02321+01501101611ADDAA106000091GF104991041011008001001001KA1240N+01981MA1999999097431MD1999999-0041REMSYN076AAXX  06124 82983 32595 41406 10232 20150 39743 40161 84100 333 20198 59004;EQDQ01  00002PRCP06
0183829830999992004090618004-09383-040483FM-12+037099999V0201401N004119999999N0020001N1+03061+01341100931ADDAA106000091GF105991001001999999001021MA1999999096811MD1999999-0121REMSYN070AAXX  06184 82983 32595 51408 10306 20134 39681 40093 80002 333 59012;EQDQ01+008002SCOLCBQ02  00002PRCP06
0208829830999992004090700004-09383-040483FM-12+037099999V0201401N002612200019N0020001N1+02641+01251101161ADDAA106000091GA1001+999999999GF100991001001999999001001KA1240M+03141MA1999999097011MD1999999-0171REMSYN082AAXX  07004 82983 32995 01405 10264 20125 39701 40116 333 10314 29045 55100 59017;EQDQ01  00002PRCP06
0186829830999992004090712004-09383-040483FM-12+037099999V0201401N004110450019N0020001N1+02421+01511101481ADDAA106000091GF105991031011008001021001KA1240N+02021MA1999999097321MD1999999-0111REMSYN076AAXX  07124 82983 32595 51408 10242 20151 39732 40148 83120 333 20202 59011;EQDQ01  00002PRCP06
0183829830999992004090718004-09383-040483FM-12+037099999V0200901N004112200019N0020001N1+03081+01221100931ADDAA106000091GF104991999001008001021001MA1999999096791MD1999999-0021REMSYN070AAXX  07184 82983 32595 40908 10308 20122 39679 40093 80020 333 59002;EQDQ01+000002SCOTLCQ02  00002PRCP06
0167829830999992004090818004-09383-040483FM-12+037099999V0200901N004112200019N0020001N1+03101+01091100901ADDAA106000091GF102991011011008001001011MA1999999096761MD1999999-0031REMSYN070AAXX  08184 82983 32595 20908 10310 20109 39676 40090 81101 333 59003;EQDQ01  00002PRCP06
0198829830999992004090900004-09383-040483FM-12+037099999V0200901N005710075019N0020001N1+02521+01691101301ADDAA106000091GF105991051021008001001001KA1240M+03201MA1999999097141MD1999999+0171REMSYN088AAXX  09004 82983 32595 50911 10252 20169 39714 40130 85200 333 10320 29051 55107 58017;EQDQ01  00002PRCP06
0186829830999992004090912004-09383-040483FM-12+037099999V0201401N005110075019N0020001N1+02281+01701101531ADDAA106000091GF108991081051008001999999KA1240N+02121MA1999999097351MD1999999+0061REMSYN076AAXX  09124 82983 32595 81410 10228 20170 39735 40153 885// 333 20212 58006;EQDQ01  00002PRCP06
0167829830999992004090918004-09383-040483FM-12+037099999V0201401N004110075019N0020001N1+02981+01351101041ADDAA106000091GF106991061011008001001001MA1999999096891MD1999999+0131REMSYN070AAXX  09184 82983 32595 61408 10298 20135 39689 40104 86100 333 58013;EQDQ01  00002PRCP06
0167829830999992004091018004-09383-040483FM-12+037099999V0200901N004110075019N0020001N1+03061+01581101031ADDAA106000091GF105991051011008001001001MA1999999096891MD1999999+0001REMSYN070AAXX  10184 82983 32595 50908 10306 20158 39689 40103 85100 333 58000;EQDQ01  00002PRCP06
0198829830999992004091100004-09383-040483FM-12+037099999V0201401N006712200019N0020001N1+02641+01691101311ADDAA106000091GF102991021011008001001001KA1240M+03141MA1999999097151MD1999999-0051REMSYN088AAXX  11004 82983 32595 21413 10264 20169 39715 40131 82100 333 10314 29054 55067 59005;EQDQ01  00002PRCP06
0186829830999992004091112004-09383-040483FM-12+037099999V0201401N005110075019N0020001N1+02441+01531101641ADDAA106000091GF105991051011008001001001KA1240N+02041MA1999999097471MD1999999+0001REMSYN076AAXX  11124 82983 32595 51410 10244 20153 39747 40164 85100 333 20204 58000;EQDQ01  00002PRCP06
0167829830999992004091118004-09383-040483FM-12+037099999V0201401N002610075019N0020001N1+03101+01461101051ADDAA106000091GF105991051011008001001001MA1999999096921MD1999999+0031REMSYN070AAXX  11184 82983 32595 51405 10310 20146 39692 40105 85100 333 58003;EQDQ01  00002PRCP06
0208829830999992004091200004-09383-040483FM-12+037099999V0201401N003112200019N0020001N1+02721+01281101351ADDAA106000091GA1001+999999999GF100991001001999999001001KA1240M+03181MA1999999097201MD1999999+0051REMSYN082AAXX  12004 82983 32995 01406 10272 20128 39720 40135 333 10318 29044 55104 58005;EQDQ01  00002PRCP06
0186829830999992004091212004-09380-040480FM-12+037099999V0200901N005110075019N0020001N1+02481+01511101801ADDAA106000091GF105991051011008001001001KA1240N+02061MA1999999097631MD1999999+0161REMSYN076AAXX  12124 82983 32595 50910 10248 20151 39763 40180 85100 333 20206 58016;EQDQ01  00002PRCP06
0167829830999992004091218004-09383-040483FM-12+037099999V0201401N003112200019N0020001N1+03161+01291101241ADDAA106000091GF105991041011008001001011MA1999999097111MD1999999+0191REMSYN070AAXX  12184 82983 32595 51406 10316 20129 39711 40124 84101 333 58019;EQDQ01  00002PRCP06
0208829830999992004091300004-09383-040483FM-12+037099999V0201401N003112200019N0020001N1+02761+01201101591ADDAA106000091GA1001+999999999GF100991001001999999001001KA1240M+03281MA1999999097431MD1999999+0231REMSYN082AAXX  13004 82983 32995 01406 10276 20120 39743 40159 333 10328 29041 55108 58023;EQDQ01  00002PRCP06
0186829830999992004091312004-09383-040483FM-12+037099999V0201401N005711050019N0020001N1+02401+01501101991ADDAA106000091GF106991041011008001001021KA1240N+02161MA1999999097821MD1999999+0191REMSYN076AAXX  13124 82983 32595 61411 10240 20150 39782 40199 84102 333 20216 58019;EQDQ01  00002PRCP06
0167829830999992004091318004-09383-040483FM-12+037099999V0200901N004112200019N0020001N1+03101+01041101341ADDAA106000091GF103991011011008001001011MA1999999097191MD1999999+0081REMSYN070AAXX  13184 82983 32595 30908 10310 20104 39719 40134 81101 333 58008;EQDQ01  00002PRCP06
0198829830999992004091400004-09383-040483FM-12+037099999V0200901N003112200019N0020001N1+02681+01321101561ADDAA106000091GF102991021011008001001001KA1240M+03161MA1999999097401MD1999999-0031REMSYN088AAXX  14004 82983 32595 20906 10268 20132 39740 40156 82100 333 10316 29042 55101 59003;EQDQ01  00002PRCP06
0186829830999992004091412004-09383-040483FM-12+037099999V0201401N004112200019N0020001N1+02401+01501101931ADDAA106000091GF104991041011008001001001KA1240N+02021MA1999999097751MD1999999-0071REMSYN076AAXX  14124 82983 32595 41408 10240 20150 39775 40193 84100 333 20202 59007;EQDQ01  00002PRCP06
0167829830999992004091418004-09383-040483FM-12+037099999V0201401N004112200019N0020001N1+03181+01311101321ADDAA106000091GF102991021011008001001001MA1999999097171MD1999999-0021REMSYN070AAXX  14184 82983 32595 21408 10318 20131 39717 40132 82100 333 59002;EQDQ01  00002PRCP06
0198829830999992004091500004-09383-040483FM-12+037099999V0201401N005112200019N0020001N1+02761+01691101561ADDAA106000091GF102991021011008001001001KA1240M+03261MA1999999097401MD1999999+0001REMSYN088AAXX  15004 82983 32595 21410 10276 20169 39740 40156 82100 333 10326 29048 55100 58000;EQDQ01  00002PRCP06
0186829830999992004091512004-09383-040483FM-12+037099999V0201401N003110075019N0020001N1+02521+01631101911ADDAA106000091GF105991051011008001001001KA1240N+02061MA1999999097751MD1999999+0001REMSYN076AAXX  15124 82983 32595 51406 10252 20163 39775 40191 85100 333 20206 58000;EQDQ01  00002PRCP06
0177829830999992004091518004-09383-040483FM-12+037099999V0201401N003112200019N0020001N1+03201+01281101151ADDAA106000091GA1001+999999999GF100991001001999999001001MA1999999097011MD1999999-0061REMSYN064AAXX  15184 82983 32995 01406 10320 20128 39701 40115 333 59006;EQDQ01  00002PRCP06
0208829830999992004091600004-09383-040483FM-12+037099999V0201401N003112200019N0020001N1+02841+01391101351ADDAA106000091GA1001+999999999GF100991001001999999001001KA1240M+03281MA1999999097211MD1999999-0191REMSYN082AAXX  16004 82983 32995 01406 10284 20139 39721 40135 333 10328 29043 55101 59019;EQDQ01  00002PRCP06
0196829830999992004091612004-09383-040483FM-12+037099999V0200901N004112200019N0020001N1+02461+01471101651ADDAA106000091GA1001+999999999GF100991001001999999001001KA1240N+02061MA1999999097501MD1999999-0251REMSYN070AAXX  16124 82983 32995 00908 10246 20147 39750 40165 333 20206 59025;EQDQ01  00002PRCP06
0177829830999992004091618004-09383-040483FM-12+037099999V0201401N003112200019N0020001N1+03281+00961101051ADDAA106000091GA1001+999999999GF100991001001999999001001MA1999999096931MD1999999-0081REMSYN064AAXX  16184 82983 32995 01406 10328 20096 39693 40105 333 59008;EQDQ01  00002PRCP06
0208829830999992004091700004-09383-040483FM-12+037099999V0201401N002612200019N0020001N1+02821+01211101321ADDAA106000091GA1001+999999999GF100991001001999999001001KA1240M+03361MA1999999097181MD1999999-0031REMSYN082AAXX  17004 82983 32995 01405 10282 20121 39718 40132 333 10336 29038 55109 59003;EQDQ01  00002PRCP06
0186829830999992004091712004-09383-040483FM-12+037099999V0200901N005112200019N0020001N1+02381+01611101801ADDAA106000091GF102991021011008001001001KA1240N+02101MA1999999097631MD1999999+0131REMSYN076AAXX  17124 82983 32595 20910 10238 20161 39763 40180 82100 333 20210 58013;EQDQ01  00002PRCP06
0177829830999992004091718004-09383-040483FM-12+037099999V0200901N003112200019N0020001N1+03301+01411101121ADDAA106000091GA1001+999999999GF100991001001999999001001MA1999999097001MD1999999+0071REMSYN064AAXX  17184 82983 32995 00906 10330 20141 39700 40112 333 58007;EQDQ01  00002PRCP06
0208829830999992004091800004-09383-040483FM-12+037099999V0200901N003112200019N0020001N1+02921+01381101341ADDAA106000091GA1001+999999999GF100991001001999999001001KA1240M+03381MA1999999097201MD1999999+0021REMSYN082AAXX  18004 82983 32995 00906 10292 20138 39720 40134 333 10338 29043 55090 58002;EQDQ01  00002PRCP06
0167829830999992004091818004-09383-040483FM-12+037099999V0201401N004110075019N0020001N1+03201+01631101191ADDAA106000091GF105991051011008001001001MA1999999097051MD1999999+0051REMSYN070AAXX  18184 82983 32595 51408 10320 20163 39705 40119 85100 333 58005;EQDQ01  00002PRCP06
0208829830999992004091900004-09380-040480FM-12+037099999V0201401N003112200019N0020001N1+02781+01481101411ADDAA106000091GA1001+999999999GF100991001001999999001001KA1240M+03221MA1999999097271MD1999999+0071REMSYN082AAXX  19004 82983 32995 01406 10278 20148 39727 40141 333 10322 29044 55104 58007;EQDQ01  00002PRCP06
0202829830999992004091912004-09380-040480FM-12+037099999V0201401N004119999999N0020001N1+02461+01521101691ADDAA106000091GF105991001001999999001011KA1240N+02081MA1999999097531MD1999999-0051REMSYN076AAXX  19124 82983 32595 51408 10246 20152 39753 40169 80001 333 20208 59005;EQDQ01+008002SCOLCBQ02  00002PRCP06
0167829830999992004091918004-09380-040480FM-12+037099999V0201401N004112200019N0020001N1+03201+01321101091ADDAA106000091GF103991011011008001001011MA1999999096961MD1999999-0091REMSYN070AAXX  19184 82983 32595 31408 10320 20132 39696 40109 81101 333 59009;EQDQ01  00002PRCP06
0208829830999992004092000004-09380-040480FM-12+037099999V0201801N003112200019N0020001N1+02821+01441101321ADDAA106000091GA1001+999999999GF100991001001999999001001KA1240M+03321MA1999999097181MD1999999-0091REMSYN082AAXX  20004 82983 32995 01806 10282 20144 39718 40132 333 10332 29044 55106 59009;EQDQ01  00002PRCP06
0186829830999992004092012004-09383-040483FM-12+037099999V0201401N004110075019N0020001N1+02501+01721101621ADDAA106000091GF108991081041008001001001KA1240N+02141MA1999999097471MD1999999-0061REMSYN076AAXX  20124 82983 32595 81408 10250 20172 39747 40162 88400 333 20214 59006;EQDQ01  00002PRCP06
0167829830999992004092018004-09383-040483FM-12+037099999V0201401N004110450019N0020001N1+03101+01501101101ADDAA106000091GF105991031011008001011011MA1999999096971MD1999999+0011REMSYN070AAXX  20184 82983 32595 51408 10310 20150 39697 40110 83111 333 58001;EQDQ01  00002PRCP06
0208829830999992004092100004-09383-040483FM-12+037099999V0201801N001512200019N0020001N1+02721+01321101361ADDAA106000091GA1001+999999999GF100991001001999999001001KA1240M+03101MA1999999097211MD1999999+0031REMSYN082AAXX  21004 82983 32995 01803 10272 20132 39721 40136 333 10310 29046 55078 58003;EQDQ01  00002PRCP06
0186829830999992004092112004-09383-040483FM-12+037099999V0201401N005110075019N0020001N1+02421+01511101751ADDAA106000091GF106991061011008001001001KA1240N+02101MA1999999097571MD1999999+0101REMSYN076AAXX  21124 82983 32595 61410 10242 20151 39757 40175 86100 333 20210 58010;EQDQ01  00002PRCP06
0167829830999992004092118004-09383-040483FM-12+037099999V0200901N004112200019N0020001N1+03141+01121101181ADDAA106000091GF102991021011008001001001MA1999999097041MD1999999+0071REMSYN070AAXX  21184 82983 32595 20908 10314 20112 39704 40118 82100 333 58007;EQDQ01  00002PRCP06
0198829830999992004092200004-09383-040483FM-12+037099999V0201801N001512200019N0020001N1+02801+01241101401ADDAA106000091GF102991021011008001001001KA1240M+03221MA1999999097251MD1999999+0041REMSYN088AAXX  22004 82983 32595 21803 10280 20124 39725 40140 82100 333 10322 29040 55108 58004;EQDQ01  00002PRCP06
0190829830999992004092212004-09383-040483FM-12+037099999V0201401N003110075019N0020001N1+02241+01881101911ADDAY151061AY221061GF108991081051008001999999KA1240N+02181MA1999999097731MD1999999+0161MW1201REMSYN088AAXX  22124 82983 21595 81406 10224 20188 39773 40191 72052 885// 333 20218 58016 69904;
0148829830999992004092218004-09383-040483FM-12+037099999V0201401N004110075019N0020001N1+02841+01731101461ADDAA106000021GF106991061011008001001001MA1999999097311MD1999999+0271REMSYN070AAXX  22184 82983 32595 61408 10284 20173 39731 40146 86100 333 58027;
0198829830999992004092300004-09383-040483FM-12+037099999V0200901N005110075019N0020001N1+02541+01811101721ADDAA106000091GF106991061021008001001001KA1240M+03041MA1999999097541MD1999999+0291REMSYN088AAXX  23004 82983 32595 60910 10254 20181 39754 40172 86200 333 10304 29065 55033 58029;EQDQ01  00002PRCP06
0186829830999992004092312004-09383-040483FM-12+037099999V0201401N005110075019N0020001N1+02561+01701101851ADDAA106000091GF106991061011008001001001KA1240N+02201MA1999999097671MD1999999-0061REMSYN076AAXX  23124 82983 32595 61410 10256 20170 39767 40185 86100 333 20220 59006;EQDQ01  00002PRCP06
0167829830999992004092318004-09383-040483FM-12+037099999V0200901N004112200019N0020001N1+03241+01311101361ADDAA106000091GF103991031011008001001001MA1999999097091MD1999999-0221REMSYN070AAXX  23184 82983 32595 30908 10324 20131 39709 40136 83100 333 59022;EQDQ01  00002PRCP06
0208829830999992004092400004-09383-040483FM-12+037099999V0201401N003112200019N0020001N1+02781+01581101411ADDAA106000091GA1001+999999999GF100991001001999999001001KA1240M+03281MA1999999097271MD1999999-0271REMSYN082AAXX  24004 82983 32995 01406 10278 20158 39727 40141 333 10328 29047 55099 59027;EQDQ01  00002PRCP06
0186829830999992004092412004-09383-040483FM-12+037099999V0200901N004110075019N0020001N1+02501+01621101761ADDAA106000091GF106991061011008001001001KA1240N+02161MA1999999097601MD1999999+0041REMSYN076AAXX  24124 82983 32595 60908 10250 20162 39760 40176 86100 333 20216 58004;EQDQ01  00002PRCP06
0167829830999992004092418004-09383-040483FM-12+037099999V0200901N002612200019N0020001N1+03181+01351101141ADDAA106000091GF103991021011008001001011MA1999999097001MD1999999-0091REMSYN070AAXX  24184 82983 32595 30905 10318 20135 39700 40114 82101 333 59009;EQDQ01  00002PRCP06
0198829830999992004092500004-09383-040483FM-12+037099999V0200901N002612200019N0020001N1+02781+01331101321ADDAA106000091GF104991041011008001001001KA1240M+03241MA1999999097181MD1999999-0091REMSYN088AAXX  25004 82983 32595 40905 10278 20133 39718 40132 84100 333 10324 29043 55097 59009;EQDQ01  00002PRCP06
0186829830999992004092512004-09383-040483FM-12+037099999V0201401N005110075019N0020001N1+02521+01521101631ADDAA106000091GF106991061011008001001001KA1240N+02081MA1999999097481MD1999999-0121REMSYN076AAXX  25124 82983 32595 61410 10252 20152 39748 40163 86100 333 20208 59012;EQDQ01  00002PRCP06
0167829830999992004092518004-09383-040483FM-12+037099999V0200901N003110075019N0020001N1+03141+01411101091ADDAA106000091GF106991061011008001001001MA1999999096951MD1999999-0051REMSYN070AAXX  25184 82983 32595 60906 10314 20141 39695 40109 86100 333 59005;EQDQ01  00002PRCP06
0198829830999992004092600004-09383-040483FM-12+037099999V0200901N002610075019N0020001N1+02781+01371101251ADDAA106000091GF106991061011008001001001KA1240M+03201MA1999999097111MD1999999-0071REMSYN088AAXX  26004 82983 32595 60905 10278 20137 39711 40125 86100 333 10320 29043 55102 59007;EQDQ01  00002PRCP06
0186829830999992004092612004-09380-040480FM-12+037099999V0200901N004110075019N0020001N1+02481+01621101761ADDAA106000091GF107991071051008001001001KA1240N+02261MA1999999097601MD1999999+0121REMSYN076AAXX  26124 82983 32595 70908 10248 20162 39760 40176 87500 333 20226 58012;EQDQ01  00002PRCP06
0167829830999992004092618004-09380-040480FM-12+037099999V0200901N003112200019N0020001N1+03201+01281101121ADDAA106000091GF106991041011008001001011MA1999999097001MD1999999+0051REMSYN070AAXX  26184 82983 32595 60906 10320 20128 39700 40112 84101 333 58005;EQDQ01  00002PRCP06
0198829830999992004092700004-09380-040480FM-12+037099999V0200901N001512200019N0020001N1+02821+01171101381ADDAA106000091GF102991021011008001001001KA1240M+03321MA1999999097241MD1999999+0131REMSYN088AAXX  27004 82983 32595 20903 10282 20117 39724 40138 82100 333 10332 29040 55080 58013;EQDQ01  00002PRCP06
0186829830999992004092712004-09380-040480FM-12+037099999V0201401N004110075019N0020001N1+02461+01611101671ADDAA106000091GF106991061011008001001001KA1240N+02281MA1999999097521MD1999999-0081REMSYN076AAXX  27124 82983 32595 61408 10246 20161 39752 40167 86100 333 20228 59008;EQDQ01  00002PRCP06
0167829830999992004092718004-09383-040483FM-12+037099999V0201401N003112200019N0020001N1+03281+01441101131ADDAA106000091GF104991041011008001001001MA1999999097011MD1999999+0011REMSYN070AAXX  27184 82983 32595 41406 10328 20144 39701 40113 84100 333 58001;EQDQ01  00002PRCP06
0198829830999992004092800004-09383-040483FM-12+037099999V0201401N004112200019N0020001N1+02761+01831101431ADDAA106000091GF102991021011008001001001KA1240M+03341MA1999999097281MD1999999+0041REMSYN088AAXX  28004 82983 32595 21408 10276 20183 39728 40143 82100 333 10334 29052 55101 58004;EQDQ01  00002PRCP06
0190829830999992004092812004-09383-040483FM-12+037099999V0200901N004110075019N0020001N1+02421+01881101611ADDAY151061AY221061GF108991081051008001999999KA1240N+02201MA1999999097451MD1999999-0071MW1201REMSYN088AAXX  28124 82983 21595 80908 10242 20188 39745 40161 72052 885// 333 20220 59007 69904;
0148829830999992004092818004-09383-040483FM-12+037099999V0200901N003112200019N0020001N1+03181+01531100941ADDAA106000021GF103991031011008001001001MA1999999096821MD1999999-0191REMSYN070AAXX  28184 82983 32595 30906 10318 20153 39682 40094 83100 333 59019;
0198829830999992004092900004-09383-040483FM-12+037099999V0201401N001512200019N0020001N1+02841+01351101141ADDAA106000091GF102991021011008001001001KA1240M+03281MA1999999097001MD1999999-0281REMSYN088AAXX  29004 82983 32595 21403 10284 20135 39700 40114 82100 333 10328 29047 55072 59028;EQDQ01  00002PRCP06
0186829830999992004092912004-09383-040483FM-12+037099999V0200901N004110075019N0020001N1+02481+01651101471ADDAA106000091GF108991081051008001999999KA1240N+02261MA1999999097331MD1999999-0121REMSYN076AAXX  29124 82983 32595 80908 10248 20165 39733 40147 885// 333 20226 59012;EQDQ01  00002PRCP06
0167829830999992004092918004-09383-040483FM-12+037099999V0200901N001512200019N0020001N1+03321+01431100831ADDAA106000091GF103991021011008001001011MA1999999096731MD1999999-0091REMSYN070AAXX  29184 82983 32595 30903 10332 20143 39673 40083 82101 333 59009;EQDQ01  00002PRCP06
0198829830999992004093000004-09383-040483FM-12+037099999V0200901N002612200019N0020001N1+02941+01231100931ADDAA106000091GF104991021011008001011001KA1240M+03401MA1999999096841MD1999999-0161REMSYN088AAXX  30004 82983 32595 40905 10294 20123 39684 40093 82110 333 10340 29040 55084 59016;EQDQ01  00002PRCP06
0196829830999992004093012004-09383-040483FM-12+037099999V0200901N004112200019N0020001N1+02541+01541101261ADDAA106000091GA1001+999999999GF100991001001999999001001KA1240N+02201MA1999999097811MD1999999-0191REMSYN070AAXX  30124 82983 32595 00908 10254 20154 39781 40126 333 20220 59019;EQDQ01  00002PRCP06
0183829830999992004093018004-09383-040483FM-12+037099999V0200901N003112200019N0020001N1+03361+01311100811ADDAA106000091GF102991021011008001001001MA1999999096732MD1999999+0001REMSYN070AAXX  30184 82983 32595 20906 10336 20131 39673 40081 82100 333 58000;EQDQ01+096733APOSP Q02  00002PRCP06
0208829830999992004100100004-09383-040483FM-12+037099999V0201801N003112200019N0020001N1+02941+01231101081ADDAA106000091GA1001+999999999GF100991001001999999001001KA1240M+03461MA1999999096961MD1999999+0121REMSYN082AAXX  01004 82983 32995 01806 10294 20123 39696 40108 333 10346 29038 55110 58012;EQDQ01  00002PRCP06
0186829830999992004100112004-09383-040483FM-12+037099999V0201401N005110075019N0020001N1+02541+01511101521ADDAA106000091GF105991051011008001001001KA1240N+02201MA1999999097391MD1999999+0251REMSYN076AAXX  01124 82983 32595 51410 10254 20151 39739 40152 85100 333 20220 58025;EQDQ01  00002PRCP06
0208829830999992004100200004-09383-040483FM-12+037099999V0201801N003112200019N0020001N1+02741+01571101231ADDAA106000091GA1001+999999999GF100991001001999999001001KA1240M+03341MA1999999097091MD1999999+0131REMSYN082AAXX  02004 82983 32995 01806 10274 20157 39709 40123 333 10334 29050 55103 58013;EQDQ01  00002PRCP06
0186829830999992004100212004-09383-040483FM-12+037099999V0200901N004110075019N0020001N1+02521+01661101501ADDAA106000091GF106991061021008001001001KA1240N+02161MA1999999097351MD1999999-0041REMSYN076AAXX  02124 82983 32595 60908 10252 20166 39735 40150 86200 333 20216 59004;EQDQ01  00002PRCP06
0198829830999992004100300004-09383-040483FM-12+037099999V0201401N001510075019N0020001N1+02941+01231101031ADDAA106000091GF105991051021008001001001KA1240M+03381MA1999999096921MD1999999-0171REMSYN088AAXX  03004 82983 32595 51403 10294 20123 39692 40103 85200 333 10338 29043 55094 59017;EQDQ01  00002PRCP06
0186829830999992004100312004-09383-040483FM-12+037099999V0200901N005110075019N0020001N1+02561+01591101481ADDAA106000091GF106991061011008001001001KA1240N+02241MA1999999097351MD1999999+0001REMSYN076AAXX  03124 82983 32595 60910 10256 20159 39735 40148 86100 333 20224 58000;EQDQ01  00002PRCP06
0208829830999992004100400004-09380-040480FM-12+037099999V0200901N001512200019N0020001N1+02901+01481100981ADDAA106000091GA1001+999999999GF100991001001999999001001KA1240M+03301MA1999999096801MD1999999-0051REMSYN082AAXX  04004 82983 32995 00903 10290 20148 39680 40098 333 10330 29043 55101 59005;EQDQ01  00002PRCP06
0196829830999992004100412004-09383-040483FM-12+037099999V0200901N004112200019N0020001N1+02561+01751101341ADDAA106000091GA1001+999999999GF100991001001999999001001KA1240N+02281MA1999999097221MD1999999-0131REMSYN070AAXX  04124 82983 32995 00908 10256 20175 39722 40134 333 20228 59013;EQDQ01  00002PRCP06
0208829830999992004100500004-09383-040483FM-12+037099999V0200901N002612200019N0020001N1+03081+01361100951ADDAA106000091GA1001+999999999GF100991001001999999001001KA1240M+03601MA1999999096861MD1999999-0011REMSYN082AAXX  05004 82983 32995 00905 10308 20136 39686 40095 333 10360 29044 55112 59001;EQDQ01  00002PRCP06
0186829830999992004100512004-09383-040483FM-12+037099999V0200901N003112200019N0020001N1+02561+01731101331ADDAA106000091GF103991031011008001001001KA1240N+02301MA1999999097221MD1999999+0001REMSYN076AAXX  05124 82983 32595 30906 10256 20173 39722 40133 83100 333 20230 58000;EQDQ01  00002PRCP06
0208829830999992004100600004-09383-040483FM-12+037099999V0200901N003112200019N0020001N1+03001+01451101011ADDAA106000091GA1001+999999999GF100991001001999999001001KA1240M+03461MA1999999096911MD1999999+0051REMSYN082AAXX  06004 82983 32995 00906 10300 20145 39691 40101 333 10346 29046 55109 58005;EQDQ01  00002PRCP06
0186829830999992004100612004-09383-040483FM-12+037099999V0200901N003112200019N0020001N1+02721+01771101291ADDAA106000091GF104991041011008001001001KA1240N+02321MA1999999097181MD1999999-0041REMSYN076AAXX  06124 82983 32595 40906 10272 20177 39718 40129 84100 333 20232 59004;EQDQ01  00002PRCP06
0208829830999992004100700004-09383-040483FM-12+037099999V0200901N001012200019N0020001N1+03061+02081100901ADDAA106000091GA1001+999999999GF100991001001999999001001KA1240M+03481MA1999999096811MD1999999-0101REMSYN082AAXX  07004 82983 32995 00902 10306 20208 39681 40090 333 10348 29056 55102 59010;EQDQ01  00002PRCP06
0198829830999992004100800004-09383-040483FM-12+037099999V0203201N001012200019N0020001N1+02961+01931101061ADDAA106000091GF104991041011008001001001KA1240M+03361MA1999999096961MD1999999+0151REMSYN088AAXX  08004 82983 32595 43202 10296 20193 39696 40106 84100 333 10336 29056 55042 58015;EQDQ01  00002PRCP06
0186829830999992004100812004-09383-040483FM-12+037099999V0200901N003110450019N0020001N1+02901+01991101271ADDAA106000091GF106991041011008001021001KA1240N+02621MA1999999097171MD1999999-0011REMSYN076AAXX  08124 82983 32595 60906 10290 20199 39717 40127 84120 333 20262 59001;EQDQ01  00002PRCP06
0198829830999992004100900004-09383-040483FM-12+037099999V0200901N003110075019N0020001N1+03061+01871101101ADDAA106000091GF106991061011008001001001KA1240M+03321MA1999999097031MD1999999+0071REMSYN088AAXX  09004 82983 32595 60906 10306 20187 39703 40110 86100 333 10332 29052 55040 58007;EQDQ01  00002PRCP06
0186829830999992004100912004-09383-040483FM-12+037099999V0201401N004110450019N0020001N1+02701+01831101551ADDAA106000091GF107991021011008001021001KA1240N+02481MA1999999097431MD1999999+0261REMSYN076AAXX  09124 82983 32595 71408 10270 20183 39743 40155 82120 333 20248 58026;EQDQ01  00002PRCP06
0208829830999992004101000004-09383-040483FM-12+037099999V0201401N002612200019N0020001N1+02861+02091101221ADDAA106000091GA1001+999999999GF100991001001999999001001KA1240M+03241MA1999999097121MD1999999+0091REMSYN082AAXX  10004 82983 32995 01405 10286 20209 39712 40122 333 10324 29062 55068 58009;EQDQ01  00002PRCP06
0186829830999992004101012004-09383-040483FM-12+037099999V0200901N004110075019N0020001N1+02761+01831101551ADDAA106000091GF106991061011008001001001KA1240N+02761MA1999999097431MD1999999+0001REMSYN076AAXX  10124 82983 32595 60908 10276 20183 39743 40155 86100 333 20276 58000;EQDQ01  00002PRCP06
0208829830999992004101100004-09383-040483FM-12+037099999V0200901N003112200019N0020001N1+03041+01281101131ADDAA106000091GA1001+999999999GF100991001001999999001001KA1240M+03521MA1999999097031MD1999999-0091REMSYN082AAXX  11004 82983 32995 00906 10304 20128 39703 40113 333 10352 29042 55111 59009;EQDQ01  00002PRCP06
0186829830999992004101112004-09380-040480FM-12+037099999V0200501N004112200019N0020001N1+02781+01731101411ADDAA106000091GF103991031011008001001001KA1240N+02341MA1999999097301MD1999999-0131REMSYN076AAXX  11124 82983 32595 30508 10278 20173 39730 40141 83100 333 20234 59013;EQDQ01  00002PRCP06
0186829830999992004101212004-09383-040483FM-12+037099999V0200901N004112200019N0020001N1+02561+01621101431ADDAA106000091GF104991041011008001001001KA1240N+02261MA1999999097311MD1999999+0011REMSYN076AAXX  12124 82983 32595 40908 10256 20162 39731 40143 84100 333 20226 58001;EQDQ01  00002PRCP06
0208829830999992004101300004-09383-040483FM-12+037099999V0200901N003112200019N0020001N1+02561+01291101011ADDAA106000091GA1001+999999999GF100991001001999999001001KA1240M+03541MA1999999096901MD1999999-0041REMSYN082AAXX  13004 82983 32995 00906 10256 20129 39690 40101 333 10354 29042 55110 59004;EQDQ01  00002PRCP06
0208829830999992004101400004-09383-040483FM-12+037099999V0200901N002612200019N0020001N1+02921+00881101001ADDAA106000091GA1001+999999999GF100991001001999999001001KA1240M+03441MA1999999096891MD1999999-0011REMSYN082AAXX  14004 82983 32995 00905 10292 20088 39689 40100 333 10344 29036 55114 59001;EQDQ01  00002PRCP06
0186829830999992004101412004-09383-040483FM-12+037099999V0200901N005110075019N0020001N1+02761+01691101471ADDAA106000091GF105991051011008001001001KA1240N+02361MA1999999097321MD1999999-0031REMSYN076AAXX  14124 82983 32595 50910 10276 20169 39732 40147 85100 333 20236 59003;EQDQ01  00002PRCP06
0208829830999992004101500004-09383-040483FM-12+037099999V0200901N001512200019N0020001N1+02961+01291100951ADDAA106000091GA1001+999999999GF100991001001999999001001KA1240M+03481MA1999999096861MD1999999-0031REMSYN082AAXX  15004 82983 32995 00903 10296 20129 39686 40095 333 10348 29041 55110 59003;EQDQ01  00002PRCP06
0186829830999992004101512004-09383-040483FM-12+037099999V0200901N005110075019N0020001N1+02581+01661101461ADDAA106000091GF108991081051008001999999KA1240N+02361MA1999999097341MD1999999+0021REMSYN076AAXX  15124 82983 32595 80910 10258 20166 39734 40146 885// 333 20236 58002;EQDQ01  00002PRCP06
0208829830999992004101600004-09383-040483FM-12+037099999V0201801N001512200019N0020001N1+02941+01151101071ADDAA106000091GA1001+999999999GF100991001001999999001001KA1240M+03361MA1999999096951MD1999999+0091REMSYN082AAXX  16004 82983 32995 01803 10294 20115 39695 40107 333 10336 29041 55071 58009;EQDQ01  00002PRCP06
0186829830999992004101612004-09380-040480FM-12+037099999V0200901N005110075019N0020001N1+02661+01591101501ADDAA106000091GF106991061011008001001001KA1240N+02261MA1999999097381MD1999999+0041REMSYN076AAXX  16124 82983 32595 60910 10266 20159 39738 40150 86100 333 20226 58004;EQDQ01  00002PRCP06
0208829830999992004101700004-09380-040480FM-12+037099999V0201801N004112200019N0020001N1+02921+01341101061ADDAA106000091GA1001+999999999GF100991001001999999001001KA1240M+03421MA1999999096961MD1999999+0011REMSYN082AAXX  17004 82983 32995 01808 10292 20134 39696 40106 333 10342 29043 55111 58001;EQDQ01  00002PRCP06
0186829830999992004101712004-09380-040480FM-12+037099999V0200901N004110075019N0020001N1+02581+01581101421ADDAA106000091GF105991051011008001001001KA1240N+02201MA1999999097301MD1999999-0081REMSYN076AAXX  17124 82983 32595 50908 10258 20158 39730 40142 85100 333 20220 59008;EQDQ01  00002PRCP06
0208829830999992004101800004-09383-040483FM-12+037099999V0201801N002612200019N0020001N1+02981+01401100911ADDAA106000091GA1001+999999999GF100991001001999999001001KA1240M+03461MA1999999096821MD1999999-0141REMSYN082AAXX  18004 82983 32995 01805 10298 20140 39682 40091 333 10346 29043 55103 59014;EQDQ01  00002PRCP06
0186829830999992004101812004-09383-040483FM-12+037099999V0201401N003112200019N0020001N1+02581+01641101371ADDAA106000091GF102991021011008001001001KA1240N+02221MA1999999097261MD1999999-0021REMSYN076AAXX  18124 82983 32595 21406 10258 20164 39726 40137 82100 333 20222 59002;EQDQ01  00002PRCP06
0198829830999992004101900004-09383-040483FM-12+037099999V0201401N001512200019N0020001N1+03041+01411100991ADDAA106000091GF102991021011008001001001KA1240M+03501MA1999999096901MD1999999-0081REMSYN088AAXX  19004 82983 32595 21403 10304 20141 39690 40099 82100 333 10350 29043 55114 59008;EQDQ01  00002PRCP06
0186829830999992004101912004-09383-040483FM-12+037099999V0201401N004110075019N0020001N1+02601+01791101361ADDAA106000091GF108991081051008001999999KA1240N+02441MA1999999097251MD1999999+0011REMSYN076AAXX  19124 82983 32595 81408 10260 20179 39725 40136 885// 333 20244 58001;EQDQ01  00002PRCP06
0208829830999992004102000004-09383-040483FM-12+037099999V0200901N001512200019N0020001N1+03061+01581101061ADDAA106000091GA1001+999999999GF100991001001999999001001KA1240M+03461MA1999999096951MD1999999+0051REMSYN082AAXX  20004 82983 32995 00903 10306 20158 39695 40106 333 10346 29048 55095 58005;EQDQ01  00002PRCP06
0186829830999992004102012004-09383-040483FM-12+037099999V0200901N004110075019N0020001N1+02781+01761101341ADDAA106000091GF106991061011008001001001KA1240N+02421MA1999999097231MD1999999-0021REMSYN076AAXX  20124 82983 32595 60908 10278 20176 39723 40134 86100 333 20242 59002;EQDQ01  00002PRCP06
0208829830999992004102100004-09383-040483FM-12+037099999V0201801N001512200019N0020001N1+03081+01441100901ADDAA106000091GA1001+999999999GF100991001001999999001001KA1240M+03541MA1999999096821MD1999999-0131REMSYN082AAXX  21004 82983 32995 01803 10308 20144 39682 40090 333 10354 29043 55111 59013;EQDQ01  00002PRCP06
0186829830999992004102112004-09383-040483FM-12+037099999V0201401N004110075019N0020001N1+02641+01661101451ADDAA106000091GF106991061021008001001001KA1240N+02381MA1999999097341MD1999999+0111REMSYN076AAXX  21124 82983 32595 61408 10264 20166 39734 40145 86200 333 20238 58011;EQDQ01  00002PRCP06
0199829830999992004102118004-09383-040483FM-12+037099999V0201401N002610150019N0200001N1+02721+01621101201ADDAA106000091GF105991051021017501001001MA1999999999999MD1999999+0201REMSYN070AAXX  21184 82983 32798 51405 10272 20162 39223 40120 85200 333 58020;EQDQ01+092233APOSP Q02  00002PRCP06Q03 092233APOSP 
0198829830999992004102200004-09383-040483FM-12+037099999V0200901N002612200019N0020001N1+02881+01391101121ADDAA106000091GF104991041011008001001001KA1240M+03401MA1999999096991MD1999999+0171REMSYN088AAXX  22004 82983 32595 40905 10288 20139 39699 40112 84100 333 10340 29045 55096 58017;EQDQ01  00002PRCP06
0202829830999992004102212004-09383-040483FM-12+037099999V0200901N004119999999N0020001N1+02741+01611101431ADDAA106000091GF106991999001008001021001KA1240N+02261MA1999999097311MD1999999-0031REMSYN076AAXX  22124 82983 32595 60908 10274 20161 39731 40143 80020 333 20226 59003;EQDQ01+000002SCOTLCQ02  00002PRCP06
0198829830999992004102300004-09383-040483FM-12+037099999V0201801N004112200019N0020001N1+02841+01931101201ADDAA106000091GF104991041021008001001001KA1240M+03401MA1999999097101MD1999999+0111REMSYN088AAXX  23004 82983 32595 41808 10284 20193 39710 40120 84200 333 10340 29055 55093 58011;EQDQ01  00002PRCP06
0186829830999992004102312004-09383-040483FM-12+037099999V0201401N003112200019N0020001N1+02681+01701101341ADDAA106000091GF103991031011008001001001KA1240N+02261MA1999999097221MD1999999-0091REMSYN076AAXX  23124 82983 32595 31406 10268 20170 39722 40134 83100 333 20226 59009;EQDQ01  00002PRCP06
0208829830999992004102400004-09383-040483FM-12+037099999V0201401N003112200019N0020001N1+02941+01591101071ADDAA106000091GA1001+999999999GF100991001001999999001001KA1240M+03421MA1999999096971MD1999999-0031REMSYN082AAXX  24004 82983 32995 01406 10294 20159 39697 40107 333 10342 29048 55116 59003;EQDQ01  00002PRCP06
0186829830999992004102412004-09383-040483FM-12+037099999V0200901N004110075019N0020001N1+02721+01681101241ADDAA106000091GF106991061011008001001001KA1240N+02361MA1999999097141MD1999999-0081REMSYN076AAXX  24124 82983 32595 60908 10272 20168 39714 40124 86100 333 20236 59008;EQDQ01  00002PRCP06
0208829830999992004102500004-09383-040483FM-12+037099999V0201401N001512200019N0020001N1+03021+01861100791ADDAA106000091GA1001+999999999GF100991001001999999001001KA1240M+03461MA1999999096711MD1999999-0261REMSYN082AAXX  25004 82983 32995 01403 10302 20186 39671 40079 333 10346 29051 55117 59026;EQDQ01  00002PRCP06
0186829830999992004102512004-09383-040483FM-12+037099999V0200901N003112200019N0020001N1+02681+01701101261ADDAA106000091GF102991021011008001001001KA1240N+02381MA1999999097151MD1999999+0011REMSYN076AAXX  25124 82983 32595 20906 10268 20170 39715 40126 82100 333 20238 58001;EQDQ01  00002PRCP06
0198829830999992004102600004-09383-040483FM-12+037099999V0209999C000012200019N0020001N1+03101+01481100681ADDAA106000091GF104991041011008001001001KA1240M+03581MA1999999096601MD1999999-0111REMSYN088AAXX  26004 82983 32595 40000 10310 20148 39660 40068 84100 333 10358 29043 55117 59011;EQDQ01  00002PRCP06
0186829830999992004102612004-09383-040483FM-12+037099999V0200901N004110075019N0020001N1+02841+01821101131ADDAA106000091GF106991061011008001001001KA1240N+02461MA1999999097061MD1999999-0091REMSYN076AAXX  26124 82983 32595 60908 10284 20182 39706 40113 86100 333 20246 59009;EQDQ01  00002PRCP06
0198829830999992004102700004-09383-040483FM-12+037099999V0201401N002610075019N0020001N1+03281+01611100901ADDAA106000091GF106991061031008001001001KA1240M+03621MA1999999096831MD1999999-0231REMSYN088AAXX  27004 82983 32595 61405 10328 20161 39683 40090 86300 333 10362 29043 55111 59023;EQDQ01  00002PRCP06
0186829830999992004102712004-09383-040483FM-12+037099999V0200901N003112200019N0020001N1+02921+01771101281ADDAA106000091GF102991021011008001001001KA1240N+02581MA1999999097201MD1999999+0141REMSYN076AAXX  27124 82983 32595 20906 10292 20177 39720 40128 82100 333 20258 58014;EQDQ01  00002PRCP06
0202829830999992004102800004-09383-040483FM-12+037099999V0201801N002610075019N0020001N1+02581+02101101231ADDAY161061AY251061GF108991081051008001999999KA1240M+03521MA1999999097131MD1999999+0301MW1631REMSYN100AAXX  28004 82983 21595 81805 10258 20210 39713 40123 76365 885// 333 10352 29067 55097 58030 60021;
0190829830999992004102812004-09383-040483FM-12+037099999V0200901N002610075019N0020001N1+02761+02121101381ADDAY151061AY261061GF106991061011008001001001KA1240N+02421MA1999999097241MD1999999+0041MW1011REMSYN088AAXX  28124 82983 21595 60905 10276 20212 39724 40138 70156 86100 333 20242 58004 60074;
0208829830999992004102900004-09383-040483FM-12+037099999V0201401N001512200019N0020001N1+02921+01801100981ADDAA106000091GA1001+999999999GF100991001001999999001001KA1240M+03401MA1999999096891MD1999999-0241REMSYN082AAXX  29004 82983 32995 01403 10292 20180 39689 40098 333 10340 29057 55086 59024;EQDQ01  00002PRCP06
0186829830999992004102912004-09383-040483FM-12+037099999V0200901N004110075019N0020001N1+02581+01871101451ADDAA106000091GF108991081051008001999999KA1240N+02421MA1999999097331MD1999999+0091REMSYN076AAXX  29124 82983 32595 80908 10258 20187 39733 40145 885// 333 20242 58009;EQDQ01  00002PRCP06
0198829830999992004103000004-09383-040483FM-12+037099999V0201401N003112200019N0020001N1+03061+01511101061ADDAA106000091GF102991021011008001001001KA1240M+03421MA1999999096961MD1999999+0071REMSYN088AAXX  30004 82983 32595 21406 10306 20151 39696 40106 82100 333 10342 29048 55060 58007;EQDQ01  00002PRCP06
0198829830999992004103100004-09380-040480FM-12+037099999V0200901N003110075019N0020001N1+03001+01331101101ADDAA106000091GF105991051011008001001001KA1240M+03401MA1999999097001MD1999999+0041REMSYN088AAXX  31004 82983 32595 50906 10300 20133 39700 40110 85100 333 10340 29042 55111 58004;EQDQ01  00002PRCP06
0186829830999992004103112004-09380-040480FM-12+037099999V0200901N004110075019N0020001N1+02681+01701101521ADDAA106000091GF106991061011008001001001KA1240N+02381MA1999999097391MD1999999+0051REMSYN076AAXX  31124 82983 32595 60908 10268 20170 39739 40152 86100 333 20238 58005;EQDQ01  00002PRCP06
0167829830999992004103118004-09380-040480FM-12+037099999V0200901N002612200019N0020001N1+03321+01431100961ADDAA106000091GF104991041011008001001001MA1999999096871MD1999999+0031REMSYN070AAXX  31184 82983 32595 40905 10332 20143 39687 40096 84100 333 58003;EQDQ01  00002PRCP06
0198829830999992004110100004-09380-040480FM-12+037099999V0201801N002610075019N0020001N1+03081+01311101051ADDAA106000091GF106991061021008001001001KA1240M+03401MA1999999096951MD1999999-0051REMSYN088AAXX  01004 82983 32595 61805 10308 20131 39695 40105 86200 333 10340 29038 55098 59005;EQDQ01  00002PRCP06
0186829830999992004110112004-09380-040480FM-12+037099999V0201401N003110075019N0020001N1+02601+01681101471ADDAA106000091GF106991061021008001001001KA1240N+02281MA1999999097351MD1999999-0041REMSYN076AAXX  01124 82983 32595 61406 10260 20168 39735 40147 86200 333 20228 59004;EQDQ01  00002PRCP06
0167829830999992004110118004-09380-040480FM-12+037099999V0200901N002610075019N0020001N1+03361+01511100931ADDAA106000091GF106991061011008001001001MA1999999096841MD1999999-0031REMSYN070AAXX  01184 82983 32595 60905 10336 20151 39684 40093 86100 333 59003;EQDQ01  00002PRCP06
0198829830999992004110200004-09383-040483FM-12+037099999V0201401N001512200019N0020001N1+03041+01371100961ADDAA106000091GF102991021011008001001001KA1240M+03441MA1999999096871MD1999999-0081REMSYN088AAXX  02004 82983 32595 21403 10304 20137 39687 40096 82100 333 10344 29040 55099 59008;EQDQ01  00002PRCP06
0186829830999992004110212004-09383-040483FM-12+037099999V0200901N004110075019N0020001N1+02641+01631101301ADDAA106000091GF106991061021008001001001KA1240N+02301MA1999999097191MD1999999-0161REMSYN076AAXX  02124 82983 32595 60908 10264 20163 39719 40130 86200 333 20230 59016;EQDQ01  00002PRCP06
0167829830999992004110218004-09383-040483FM-12+037099999V0200901N003110075019N0020001N1+03341+01241100751ADDAA106000091GF106991061011008001001001MA1999999096671MD1999999-0171REMSYN070AAXX  02184 82983 32595 60906 10334 20124 39667 40075 86100 333 59017;EQDQ01  00002PRCP06
0208829830999992004110300004-09383-040483FM-12+037099999V0200901N002612200019N0020001N1+02941+01441100891ADDAA106000091GA1001+999999999GF100991001001999999001001KA1240M+03401MA1999999096801MD1999999+0131REMSYN082AAXX  03004 82983 32995 00905 10294 20144 39680 40089 333 10340 29040 55103 58013;EQDQ01  00002PRCP06
0186829830999992004110312004-09383-040483FM-12+037099999V0201401N004110075019N0020001N1+02541+01601101391ADDAA106000091GF107991071011008001001001KA1240N+02161MA1999999097271MD1999999+0081REMSYN076AAXX  03124 82983 32595 71408 10254 20160 39727 40139 87100 333 20216 58008;EQDQ01  00002PRCP06
0167829830999992004110318004-09383-040483FM-12+037099999V0201401N003112200019N0020001N1+03341+01351100801ADDAA106000091GF103991031011008001001001MA1999999096701MD1999999+0031REMSYN070AAXX  03184 82983 32595 31406 10334 20135 39670 40080 83100 333 58003;EQDQ01  00002PRCP06
0208829830999992004110400004-09383-040483FM-12+037099999V0201401N003112200019N0020001N1+02961+01531101011ADDAA106000091GA1001+999999999GF100991001001999999001001KA1240M+03441MA1999999096901MD1999999+0101REMSYN082AAXX  04004 82983 32995 01406 10296 20153 39690 40101 333 10344 29042 55101 58010;EQDQ01  00002PRCP06
0186829830999992004110412004-09383-040483FM-12+037099999V0200901N003110075019N0020001N1+02621+01671101371ADDAA106000091GF106991061011008001001001KA1240N+02261MA1999999097261MD1999999-0011REMSYN076AAXX  04124 82983 32595 60906 10262 20167 39726 40137 86100 333 20226 59001;EQDQ01  00002PRCP06
0167829830999992004110418004-09383-040483FM-12+037099999V0201401N003112200019N0020001N1+03341+01351100811ADDAA106000091GF103991031011008001001001MA1999999096731MD1999999+0031REMSYN070AAXX  04184 82983 32595 31406 10334 20135 39673 40081 83100 333 58003;EQDQ01  00002PRCP06
0198829830999992004110500004-09383-040483FM-12+037099999V0200901N002612200019N0020001N1+03041+01261100951ADDAA106000091GF102991021011008001001001KA1240M+03421MA1999999096861MD1999999-0041REMSYN088AAXX  05004 82983 32595 20905 10304 20126 39686 40095 82100 333 10342 29038 55114 59004;EQDQ01  00002PRCP06
0186829830999992004110512004-09383-040483FM-12+037099999V0200901N003112200019N0020001N1+02681+01701101441ADDAA106000091GF104991041011008001001001KA1240N+02281MA1999999097331MD1999999+0071REMSYN076AAXX  05124 82983 32595 40906 10268 20170 39733 40144 84100 333 20228 58007;EQDQ01  00002PRCP06
0167829830999992004110518004-09383-040483FM-12+037099999V0200901N003112200019N0020001N1+03421+01071100781ADDAA106000091GF104991041011008001001001MA1999999096701MD1999999-0031REMSYN070AAXX  05184 82983 32595 40906 10342 20107 39670 40078 84100 333 59003;EQDQ01  00002PRCP06
0208829830999992004110600004-09383-040483FM-12+037099999V0201401N001512200019N0020001N1+03021+01661101041ADDAA106000091GA1001+999999999GF100991001001999999001001KA1240M+03501MA1999999096941MD1999999+0081REMSYN082AAXX  06004 82983 32995 01403 10302 20166 39694 40104 333 10350 29042 55117 58008;EQDQ01  00002PRCP06
0186829830999992004110612004-09383-040483FM-12+037099999V0201401N004110075019N0020001N1+02761+01721101321ADDAA106000091GF106991061011008001001001KA1240N+02401MA1999999097211MD1999999-0121REMSYN076AAXX  06124 82983 32595 61408 10276 20172 39721 40132 86100 333 20240 59012;EQDQ01  00002PRCP06
0177829830999992004110618004-09383-040483FM-12+037099999V0200901N004112200019N0020001N1+03521+01281100691ADDAA106000091GA1001+999999999GF100991001001999999001001MA1999999096621MD1999999-0081REMSYN064AAXX  06184 82983 32995 00908 10352 20128 39662 40069 333 59008;EQDQ01  00002PRCP06
0198829830999992004110700004-09383-040483FM-12+037099999V0200901N003112200019N0020001N1+03141+01221100811ADDAA106000091GF102991021011008001001001KA1240M+03541MA1999999096741MD1999999-0201REMSYN088AAXX  07004 82983 32595 20906 10314 20122 39674 40081 82100 333 10354 29035 55103 59020;EQDQ01  00002PRCP06
0186829830999992004110712004-09383-040483FM-12+037099999V0201401N004110075019N0020001N1+02661+01901101281ADDAA106000091GF108991081051008001999999KA1240N+02441MA1999999097171MD1999999-0041REMSYN076AAXX  07124 82983 32595 81408 10266 20190 39717 40128 885// 333 20244 59004;EQDQ01  00002PRCP06
0167829830999992004110718004-09383-040483FM-12+037099999V0201401N003110075019N0020001N1+03341+01541100781ADDAA106000091GF105991051011008001001001MA1999999096701MD1999999+0081REMSYN070AAXX  07184 82983 32595 51406 10334 20154 39670 40078 85100 333 58008;EQDQ01  00002PRCP06
0198829830999992004110800004-09380-040480FM-12+037099999V0203601N001512200019N0020001N1+02861+01811100981ADDAA106000091GF102991021011008001001001KA1240M+03481MA1999999096871MD1999999+0131REMSYN088AAXX  08004 82983 32595 23603 10286 20181 39687 40098 82100 333 10348 29051 55081 58013;EQDQ01  00002PRCP06
0186829830999992004110812004-09380-040480FM-12+037099999V0200901N003110075019N0020001N1+02821+01681101291ADDAA106000091GF106991061011008001001001KA1240N+02561MA1999999097181MD1999999+0011REMSYN076AAXX  08124 82983 32595 60906 10282 20168 39718 40129 86100 333 20256 58001;EQDQ01  00002PRCP06
0167829830999992004110818004-09380-040480FM-12+037099999V0200901N003110075019N0020001N1+03501+01431100741ADDAA106000091GF105991051011008001001001MA1999999096681MD1999999-0021REMSYN070AAXX  08184 82983 32595 50906 10350 20143 39668 40074 85100 333 59002;EQDQ01  00002PRCP06
0208829830999992004110900004-09383-040483FM-12+037099999V0200901N004112200019N0020001N1+03001+01411101101ADDAA106000091GA1001+999999999GF100991001001999999001001KA1240M+03521MA1999999097001MD1999999+0131REMSYN082AAXX  09004 82983 32995 00908 10300 20141 39700 40110 333 10352 29039 55096 58013;EQDQ01  00002PRCP06
0186829830999992004110912004-09383-040483FM-12+037099999V0201401N005110075019N0020001N1+02641+01581101401ADDAA106000091GF105991051011008001001001KA1240N+02261MA1999999097291MD1999999+0111REMSYN076AAXX  09124 82983 32595 51410 10264 20158 39729 40140 85100 333 20226 58011;EQDQ01  00002PRCP06
0167829830999992004110918004-09383-040483FM-12+037099999V0201401N003110075019N0020001N1+03341+01241100851ADDAA106000091GF106991061011008001001001MA1999999096731MD1999999+0051REMSYN070AAXX  09184 82983 32595 61406 10334 20124 39673 40085 86100 333 58005;EQDQ01  00002PRCP06
0208829830999992004111000004-09383-040483FM-12+037099999V0200901N003112200019N0020001N1+02821+00991101151ADDAA106000091GA1001+999999999GF100991001001999999001001KA1240M+03401MA1999999097031MD1999999+0031REMSYN082AAXX  10004 82983 32995 00906 10282 20099 39703 40115 333 10340 29036 55112 58003;EQDQ01  00002PRCP06
0186829830999992004111012004-09383-040483FM-12+037099999V0201401N004112200019N0020001N1+02581+01581101401ADDAA106000091GF104991041011008001001001KA1240N+02101MA1999999097261MD1999999-0031REMSYN076AAXX  10124 82983 32595 41408 10258 20158 39726 40140 84100 333 20210 59003;EQDQ01  00002PRCP06
0167829830999992004111018004-09383-040483FM-12+037099999V0200901N003112200019N0020001N1+03261+01231100801ADDAA106000091GF102991021011008001001001MA1999999096691MD1999999-0041REMSYN070AAXX  10184 82983 32595 20906 10326 20123 39669 40080 82100 333 59004;EQDQ01  00002PRCP06
0198829830999992004111100004-09383-040483FM-12+037099999V0201401N001512200019N0020001N1+02961+01291101031ADDAA106000091GF104991041011008001001001KA1240M+03401MA1999999096921MD1999999-0111REMSYN088AAXX  11004 82983 32595 41403 10296 20129 39692 40103 84100 333 10340 29039 55120 59011;EQDQ01  00002PRCP06
0186829830999992004111112004-09383-040483FM-12+037099999V0201401N004110075019N0020001N1+02601+01681101271ADDAA106000091GF108991081051008001999999KA1240N+02401MA1999999097161MD1999999-0101REMSYN076AAXX  11124 82983 32595 81408 10260 20168 39716 40127 885// 333 20240 59010;EQDQ01  00002PRCP06
0167829830999992004111118004-09383-040483FM-12+037099999V0201401N003112200019N0020001N1+03421+01561100611ADDAA106000091GF103991031011008001001001MA1999999096541MD1999999-0151REMSYN070AAXX  11184 82983 32595 31406 10342 20156 39654 40061 83100 333 59015;EQDQ01  00002PRCP06
0208829830999992004111200004-09383-040483FM-12+037099999V0200501N001512200019N0020001N1+03041+01411100731ADDAA106000091GA1001+999999999GF100991001001999999001001KA1240M+03501MA1999999096651MD1999999-0271REMSYN082AAXX  12004 82983 32995 00503 10304 20141 39665 40073 333 10350 29041 55086 59027;EQDQ01  00002PRCP06
0196829830999992004111212004-09383-040483FM-12+037099999V0200901N004112200019N0020001N1+02901+01751101051ADDAA106000091GA1001+999999999GF100991001001999999001001KA1240N+02381MA1999999096961MD1999999-0201REMSYN070AAXX  12124 82983 32995 00908 10290 20175 39696 40105 333 20238 59020;EQDQ01  00002PRCP06
0167829830999992004111218004-09380-040480FM-12+037099999V0200901N003112200019N0020001N1+03701+01031100481ADDAA106000091GF103991031011008001001001MA1999999096431MD1999999-0111REMSYN070AAXX  12184 82983 32595 30906 10370 20103 39643 40048 83100 333 59011;EQDQ01  00002PRCP06
0208829830999992004111300004-09380-040480FM-12+037099999V0200501N001512200019N0020001N1+03041+01141100711ADDAA106000091GA1001+999999999GF100991001001999999001001KA1240M+03721MA1999999096641MD1999999-0011REMSYN082AAXX  13004 82983 32995 00503 10304 20114 39664 40071 333 10372 29033 55116 59001;EQDQ01  00002PRCP06
0196829830999992004111312004-09380-040480FM-12+037099999V0200501N003112200019N0020001N1+03041+01911100911ADDAA106000091GA1001+999999999GF100991001001999999001001KA1240N+02561MA1999999096851MD1999999-0111REMSYN070AAXX  13124 82983 32995 00506 10304 20191 39685 40091 333 20256 59011;EQDQ01  00002PRCP06
0167829830999992004111318004-09380-040480FM-12+037099999V0200901N003112200019N0020001N1+03821+01131100341ADDAA106000091GF102991021011008001001001MA1999999096331MD1999999-0101REMSYN070AAXX  13184 82983 32595 20906 10382 20113 39633 40034 82100 333 59010;EQDQ01  00002PRCP06
0208829830999992004111400004-09383-040483FM-12+037099999V0200901N002612200019N0020001N1+03241+01101100641ADDAA106000091GA1001+999999999GF100991001001999999001001KA1240M+03901MA1999999096601MD1999999-0041REMSYN082AAXX  14004 82983 32995 00905 10324 20110 39660 40064 333 10390 29031 55118 59004;EQDQ01  00002PRCP06
0186829830999992004111412004-09383-040483FM-12+037099999V0201401N004112200019N0020001N1+02981+02011101031ADDAA106000091GF104991021011008001001011KA1240N+02721MA1999999096961MD1999999+0111REMSYN076AAXX  14124 82983 32595 41408 10298 20201 39696 40103 82101 333 20272 58011;EQDQ01  00002PRCP06
0208829830999992004111500004-09383-040483FM-12+037099999V0200901N005112200019N0020001N1+03201+01371100831ADDAA106000091GA1001+999999999GF100991001001999999001001KA1240M+03741MA1999999096771MD1999999+0171REMSYN082AAXX  15004 82983 32995 00910 10320 20137 39677 40083 333 10374 29036 55116 58017;EQDQ01  00002PRCP06
0186829830999992004111512004-09383-040483FM-12+037099999V0201401N005110075019N0020001N1+02681+01701101321ADDAA106000091GF105991051011008001001001KA1240N+02341MA1999999097221MD1999999+0261REMSYN076AAXX  15124 82983 32595 51410 10268 20170 39722 40132 85100 333 20234 58026;EQDQ01  00002PRCP06
0167829830999992004111518004-09383-040483FM-12+037099999V0200901N004112200019N0020001N1+03441+01151100761ADDAA106000091GF102991021011008001001001MA1999999096651MD1999999+0051REMSYN070AAXX  15184 82983 32595 20908 10344 20115 39665 40076 82100 333 58005;EQDQ01  00002PRCP06
0198829830999992004111600004-09383-040483FM-12+037099999V0200901N003112200019N0020001N1+03061+01251100991ADDAA106000091GF103991031011008001001001KA1240M+03521MA1999999096901MD1999999+0131REMSYN088AAXX  16004 82983 32595 30906 10306 20125 39690 40099 83100 333 10352 29036 55108 58013;EQDQ01  00002PRCP06
0202829830999992004111612004-09383-040483FM-12+037099999V0200901N003112200019N0020001N1+02701+01571101471ADDAA106000091GF102991999001008001021001KA1240N+02281MA1999999097351MD1999999+0131REMSYN076AAXX  16124 82983 32595 20906 10270 20157 39735 40147 80020 333 20228 58013;EQDQ01+000002SCOTLCQ02  00002PRCP06
0198829830999992004111700004-09383-040483FM-12+037099999V0200501N002612200019N0020001N1+03061+01301101111ADDAA106000091GF102991021011008001001001KA1240M+03521MA1999999097011MD1999999+0111REMSYN088AAXX  17004 82983 32595 20505 10306 20130 39701 40111 82100 333 10352 29035 55112 58011;EQDQ01  00002PRCP06
0196829830999992004111712004-09383-040483FM-12+037099999V0200901N004112200019N0020001N1+02721+01491101411ADDAA106000091GA1001+999999999GF100991001001999999001001KA1240N+02421MA1999999097301MD1999999-0051REMSYN070AAXX  17124 82983 32995 00908 10272 20149 39730 40141 333 20242 59005;EQDQ01  00002PRCP06
0137829830999992004111718004-09383-040483FM-12+037099999V0200901N002612200019N0020001N1+03441+99999999999ADDAA106000091GF102991999999008001999999REMSYN069AAXX  17184 82983 32595 20905 10344 2109 39678 40086 82100 333 59003;EQDQ01  00002PRCP06
0208829830999992004111800004-09383-040483FM-12+037099999V0200501N001512200019N0020001N1+03061+01071101071ADDAA106000091GA1001+999999999GF100991001001999999001001KA1240M+03561MA1999999096971MD1999999-0031REMSYN082AAXX  18004 82983 32995 00503 10306 20107 39697 40107 333 10356 29032 55119 59003;EQDQ01  00002PRCP06
0196829830999992004111812004-09383-040483FM-12+037099999V0200901N004112200019N0020001N1+02841+01761101121ADDAA106000091GA1001+999999999GF100991001001999999001001KA1240N+02301MA1999999097131MD1999999-0171REMSYN070AAXX  18124 82983 32995 00908 10284 20176 39713 40112 333 20230 59017;EQDQ01  00002PRCP06
0167829830999992004111818004-09383-040483FM-12+037099999V0201401N002612200019N0020001N1+03681+01401100591ADDAA106000091GF102991021011008001001001MA1999999096541MD1999999-0241REMSYN070AAXX  18184 82983 32595 21405 10368 20140 39654 40059 82100 333 59024;EQDQ01  00002PRCP06
0208829830999992004111900004-09383-040483FM-12+037099999V0201401N001512200019N0020001N1+03201+01221100791ADDAA106000091GA1001+999999999GF100991001001999999001001KA1240M+03741MA1999999096731MD1999999-0241REMSYN082AAXX  19004 82983 32995 01403 10320 20122 39673 40079 333 10374 29035 55117 59024;EQDQ01  00002PRCP06
0196829830999992004111912004-09383-040483FM-12+037099999V0200501N003112200019N0020001N1+03121+01681101051ADDAA106000091GA1001+999999999GF100991001001999999001001KA1240N+02641MA1999999096991MD1999999-0141REMSYN070AAXX  19124 82983 32995 00506 10312 20168 39699 40105 333 20264 59014;EQDQ01  00002PRCP06
0167829830999992004111918004-09383-040483FM-12+037099999V0200901N002612200019N0020001N1+03781+01501100501ADDAA106000091GF103991031011008001001001MA1999999096451MD1999999-0091REMSYN070AAXX  19184 82983 32595 30905 10378 20150 39645 40050 83100 333 59009;EQDQ01  00002PRCP06
0198829830999992004112100004-09380-040480FM-12+037099999V0203601N001510075019N0020001N1+02841+02141100911ADDAA106000091GF108991081051008001999999KA1240M+03781MA1999999096831MD1999999+0151REMSYN088AAXX  21004 82983 32595 83603 10284 20214 39683 40091 885// 333 10378 29054 55064 58015;EQDQ01  00002PRCP06
0190829830999992004112112004-09380-040480FM-12+037099999V0201801N001510075019N0020001N1+02481+02171101341ADDAY161061AY251061GF108991081051008001999999KA1240N+02301MA1999999097201MD1999999+0281MW1031REMSYN088AAXX  21124 82983 21595 81803 10248 20217 39720 40134 70365 885// 333 20230 58028 60074;
0167829830999992004112118004-09380-040480FM-12+037099999V0202701N004110075019N0020001N1+02701+02081101141ADDAA106000091GF108991081051008001999999MA1999999097001MD1999999+0831REMSYN070AAXX  21184 82983 32595 82708 10270 20208 39700 40114 885// 333 58083;EQDQ01  00002PRCP06
0198829830999992004112200004-09383-040483FM-12+037099999V0201801N001010075019N0020001N1+02481+02111101291ADDAA106000091GF108991081051008001999999KA1240M+02961MA1999999097141MD1999999+0311REMSYN088AAXX  22004 82983 32595 81802 10248 20211 39714 40129 885// 333 10296 29078 55000 58031;EQDQ01  00002PRCP06
0186829830999992004112212004-09383-040483FM-12+037099999V0201401N002610075019N0020001N1+02721+02031101311ADDAA106000091GF108991081051008001999999KA1240N+02401MA1999999097171MD1999999-0031REMSYN076AAXX  22124 82983 32595 81405 10272 20203 39717 40131 885// 333 20240 59003;EQDQ01  00002PRCP06
0167829830999992004112218004-09383-040483FM-12+037099999V0200901N003110450019N0020001N1+03061+01931100821ADDAA106000091GF106991041011008001011011MA1999999096691MD1999999-0311REMSYN070AAXX  22184 82983 32595 60906 10306 20193 39669 40082 84111 333 59031;EQDQ01  00002PRCP06
0198829830999992004112300004-09383-040483FM-12+037099999V0209999C000010075019N0020001N1+02661+02071101141ADDAA106000091GF108991081051008001999999KA1240M+03141MA1999999097011MD1999999-0131REMSYN088AAXX  23004 82983 32595 80000 10266 20207 39701 40114 885// 333 10314 29064 55047 59013;EQDQ01  00002PRCP06
0207829830999992004112312004-09383-040483FM-12+037099999V0200901N003110075019N0020001N1+02441+01971101401ADDAA124999929AY111061AY221061GF108991081051008001999999KA1240N+02421MA1999999097241MD1999999+0071MW1501REMSYN094AAXX  23124 82983 21595 80906 10244 20197 39724 40140 75012 885// 333 20242 58007 69904 19999;
0148829830999992004112318004-09383-040483FM-12+037099999V0201401N002612200019N0020001N1+02901+02041101031ADDAA106000021GF106991041011008001001011MA1999999096901MD1999999+0211REMSYN070AAXX  23184 82983 32595 61405 10290 20204 39690 40103 84101 333 58021;
0198829830999992004112400004-09383-040483FM-12+037099999V0201801N002612200019N0020001N1+02501+02001101271ADDAA106000091GF102991021061008001001001KA1240M+03001MA1999999097111MD1999999+0101REMSYN088AAXX  24004 82983 32595 21805 10250 20200 39711 40127 82600 333 10300 29071 55022 58010;EQDQ01  00002PRCP06
0186829830999992004112412004-09383-040483FM-12+037099999V0200901N003110450019N0020001N1+02661+01711101401ADDAA106000091GF105991021011008001021001KA1240N+02321MA1999999097251MD1999999+0011REMSYN076AAXX  24124 82983 32595 50906 10266 20171 39725 40140 82120 333 20232 58001;EQDQ01  00002PRCP06
0167829830999992004112418004-09383-040483FM-12+037099999V0201401N003110450019N0020001N1+03221+01731100831ADDAA106000091GF106991031011008001021011MA1999999096731MD1999999-0171REMSYN070AAXX  24184 82983 32595 61406 10322 20173 39673 40083 83121 333 59017;EQDQ01  00002PRCP06
0198829830999992004112500004-09383-040483FM-12+037099999V0201401N004110075019N0020001N1+02661+02021101191ADDAA106000091GF106991061021008001001001KA1240M+03321MA1999999097051MD1999999-0061REMSYN088AAXX  25004 82983 32595 61408 10266 20202 39705 40119 86200 333 10332 29058 55093 59006;EQDQ01  00002PRCP06
0186829830999992004112512004-09383-040483FM-12+037099999V0201401N004110075019N0020001N1+02641+01771101371ADDAA106000091GF107991071021008001001001KA1240N+02341MA1999999097231MD1999999-0021REMSYN076AAXX  25124 82983 32595 71408 10264 20177 39723 40137 87200 333 20234 59002;EQDQ01  00002PRCP06
0167829830999992004112518004-09383-040483FM-12+037099999V0201401N002610075019N0020001N1+03081+01751100891ADDAA106000091GF108991081051008001999999MA1999999096771MD1999999+0041REMSYN070AAXX  25184 82983 32595 81405 10308 20175 39677 40089 885// 333 58004;EQDQ01  00002PRCP06
0198829830999992004112600004-09383-040483FM-12+037099999V0201401N003110075019N0020001N1+02521+02021101101ADDAA106000091GF106991061021008001001001KA1240M+03101MA1999999096961MD1999999-0091REMSYN088AAXX  26004 82983 32595 61406 10252 20202 39696 40110 86200 333 10310 29063 55014 59009;EQDQ01  00002PRCP06
0186829830999992004112612004-09383-040483FM-12+037099999V0201401N004110075019N0020001N1+02561+01831101311ADDAA106000091GF108991081021008001999999KA1240N+02321MA1999999097151MD1999999-0081REMSYN076AAXX  26124 82983 32595 81408 10256 20183 39715 40131 882// 333 20232 59008;EQDQ01  00002PRCP06
0167829830999992004112618004-09383-040483FM-12+037099999V0201401N003110075019N0020001N1+03061+01731100781ADDAA106000091GF106991061011008001001001MA1999999096661MD1999999-0111REMSYN070AAXX  26184 82983 32595 61406 10306 20173 39666 40078 86100 333 59011;EQDQ01  00002PRCP06
0198829830999992004112700004-09383-040483FM-12+037099999V0201401N002612200019N0020001N1+02781+01701100991ADDAA106000091GF102991021011008001001001KA1240M+03181MA1999999096861MD1999999-0101REMSYN088AAXX  27004 82983 32595 21405 10278 20170 39686 40099 82100 333 10318 29053 55032 59010;EQDQ01  00002PRCP06
0186829830999992004112712004-09383-040483FM-12+037099999V0201401N004110075019N0020001N1+02581+01771101241ADDAA106000091GF106991061011008001001001KA1240N+02341MA1999999097111MD1999999-0041REMSYN076AAXX  27124 82983 32595 61408 10258 20177 39711 40124 86100 333 20234 59004;EQDQ01  00002PRCP06
0167829830999992004112718004-09383-040483FM-12+037099999V0201401N002610075019N0020001N1+03181+01801100751ADDAA106000091GF106991061011008001001001MA1999999096651MD1999999-0011REMSYN070AAXX  27184 82983 32595 61405 10318 20180 39665 40075 86100 333 59001;EQDQ01  00002PRCP06
0198829830999992004112800004-09383-040483FM-12+037099999V0201401N002612200019N0020001N1+02881+01731100901ADDAA106000091GF102991021011008001001001KA1240M+03301MA1999999096801MD1999999-0061REMSYN088AAXX  28004 82983 32595 21405 10288 20173 39680 40090 82100 333 10330 29051 55087 59006;EQDQ01  00002PRCP06
0186829830999992004112812004-09383-040483FM-12+037099999V0201401N002612200019N0020001N1+02781+01881101161ADDAA106000091GF104991011011008001021011KA1240N+02481MA1999999097061MD1999999-0061REMSYN076AAXX  28124 82983 32595 41405 10278 20188 39706 40116 81121 333 20248 59006;EQDQ01  00002PRCP06
0167829830999992004112818004-09383-040483FM-12+037099999V0200901N003110075019N0020001N1+03341+01831100641ADDAA106000091GF106991051021008001001011MA1999999096561MD1999999-0091REMSYN070AAXX  28184 82983 32595 60906 10334 20183 39656 40064 85201 333 59009;EQDQ01  00002PRCP06
0198829830999992004112900004-09383-040483FM-12+037099999V0200901N001510075019N0020001N1+02981+01891100811ADDAA106000091GF105991051021008001001001KA1240M+03401MA1999999096731MD1999999-0071REMSYN088AAXX  29004 82983 32595 50903 10298 20189 39673 40081 85200 333 10340 29051 55087 59007;EQDQ01  00002PRCP06
0167829830999992004113018004-09383-040483FM-12+037099999V0200901N002612200019N0020001N1+03561+00941100511ADDAA106000091GF104991021011008001001011MA1999999096461MD1999999+0001REMSYN070AAXX  30184 82983 32595 40905 10356 20094 39646 40051 82101 333 58000;EQDQ01  00002PRCP06
0208829830999992004120100004-09383-040483FM-12+037099999V0201401N001512200019N0020001N1+03141+02161100791ADDAA106000091GA1001+999999999GF100991001001999999001001KA1240M+03621MA1999999096731MD1999999-0011REMSYN082AAXX  01004 82983 32995 01403 10314 20216 39673 40079 333 10362 29052 55088 59001;EQDQ01  00002PRCP06
0150829830999992004120112004-09383-040483FM-12+037099999V0200901N003112200019N0020001N1+02941+01851999999ADDAA106000091GA1001+999999999GF100991001001999999001001REMSYN066AAXX  01124 82983 32995 00906 10294 20185 20260 39696 40113 58002;EQDQ01  00002PRCP06
0167829830999992004120118004-09383-040483FM-12+037099999V0201401N003112200019N0020001N1+03601+01411100481ADDAA106000091GF104991041011008001001001MA1999999096441MD1999999-0021REMSYN070AAXX  01184 82983 32595 41406 10360 20141 39644 40048 84100 333 59002;EQDQ01  00002PRCP06
0198829830999992004120200004-09383-040483FM-12+037099999V0201801N002610075019N0020001N1+03241+01411100781ADDAA106000091GF105991051011008001001001KA1240M+03701MA1999999096721MD1999999-0011REMSYN088AAXX  02004 82983 32595 51805 10324 20141 39672 40078 85100 333 10370 29036 55113 59001;EQDQ01  00002PRCP06
0202829830999992004120212004-09383-040483FM-12+037099999V0200901N004119999999N0020001N1+02701+01661101201ADDAA106000091GF105991001001999999001021KA1240N+02321MA1999999097111MD1999999+0051REMSYN076AAXX  02124 82983 32595 50908 10270 20166 39711 40120 80002 333 20232 58005;EQDQ01+008002SCOLCBQ02  00002PRCP06
0167829830999992004120218004-09383-040483FM-12+037099999V0200901N003112200019N0020001N1+03441+01091100721ADDAA106000091GF104991011011008001001021MA1999999096651MD1999999+0211REMSYN070AAXX  02184 82983 32595 40906 10344 20109 39665 40072 81102 333 58021;EQDQ01  00002PRCP06
0208829830999992004120300004-09383-040483FM-12+037099999V0201401N002612200019N0020001N1+03081+01561100871ADDAA106000091GA1001+999999999GF100991001001999999001001KA1240M+03521MA1999999096781MD1999999+0061REMSYN082AAXX  03004 82983 32995 01405 10308 20156 39678 40087 333 10352 29039 55118 58006;EQDQ01  00002PRCP06
0186829830999992004120312004-09383-040483FM-12+037099999V0201401N005112200019N0020001N1+02701+01631101291ADDAA106000091GF103991011011008001001011KA1240N+02401MA1999999097181MD1999999+0071REMSYN076AAXX  03124 82983 32595 31410 10270 20163 39718 40129 81101 333 20240 58007;EQDQ01  00002PRCP06
0167829830999992004120318004-09383-040483FM-12+037099999V0200901N003112200019N0020001N1+03441+01211100751ADDAA106000091GF102991021011008001001001MA1999999096671MD1999999+0021REMSYN070AAXX  03184 82983 32595 20906 10344 20121 39667 40075 82100 333 58002;EQDQ01  00002PRCP06
0198829830999992004120400004-09383-040483FM-12+037099999V0200901N003112200019N0020001N1+03041+01531100941ADDAA106000091GF103991031011008001001001KA1240M+03541MA1999999096851MD1999999+0071REMSYN088AAXX  04004 82983 32595 30906 10304 20153 39685 40094 83100 333 10354 29040 55116 58007;EQDQ01  00002PRCP06
0186829830999992004120412004-09383-040483FM-12+037099999V0201401N004110075019N0020001N1+02661+01711101551ADDAA106000091GF107991071021008001001001KA1240N+02341MA1999999097431MD1999999+0251REMSYN076AAXX  04124 82983 32595 71408 10266 20171 39743 40155 87200 333 20234 58025;EQDQ01  00002PRCP06
0167829830999992004120418004-09383-040483FM-12+037099999V0200901N004112200019N0020001N1+03381+01331100981ADDAA106000091GF102991021011008001001001MA1999999096891MD1999999+0221REMSYN070AAXX  04184 82983 32595 20908 10338 20133 39689 40098 82100 333 58022;EQDQ01  00002PRCP06
0224829830999992004120500004-09383-040483FM-12+037099999V0201401N001512200019N0020001N1+03061+01381101151ADDAA106000091GA1001+999999999GF100991001001999999001001KA1240M+99999MA1999999097051MD1999999+0201REMSYN082AAXX  05004 82983 32995 01403 10306 20138 39705 40115 333 11035 29039 55102 58020;EQDQ01  00002PRCP06Q02 -00352ATMX  
0185829830999992004120512004-09383-040483FM-12+037099999V0201401N003112200019N0020001N1+02661+01681101431ADDAA106000091GF103991031011008001001001KA1240N+02281MA1999999097321MD1999999-0111REMSYN075AAXX  05124 82983 3259531406 10266 20168 39732 40143 83100 333 20228 59011;EQDQ01  00002PRCP06
0177829830999992004120518004-09383-040483FM-12+037099999V0201401N003112200019N0020001N1+03421+01251100801ADDAA106000091GA1001+999999999GF100991001001999999001001MA1999999096721MD1999999-0171REMSYN064AAXX  05184 82983 32995 01406 10342 20125 39672 40080 333 59017;EQDQ01  00002PRCP06
0208829830999992004120600004-09380-040480FM-12+037099999V0201801N002612200019N0020001N1+02961+01161100991ADDAA106000091GA1001+999999999GF100991001001999999001001KA1240M+03541MA1999999096901MD1999999-0151REMSYN082AAXX  06004 82983 32995 01805 10296 20116 39690 40099 333 10354 29037 55116 59015;EQDQ01  00002PRCP06
0186829830999992004120612004-09380-040480FM-12+037099999V0201401N003110075019N0020001N1+02621+01641101301ADDAA106000091GF106991061011008001001001KA1240N+02301MA1999999097191MD1999999-0131REMSYN076AAXX  06124 82983 32595 61406 10262 20164 39719 40130 86100 333 20230 59013;EQDQ01  00002PRCP06
0167829830999992004120618004-09380-040480FM-12+037099999V0200901N001512200019N0020001N1+03321+01281100681ADDAA106000091GF102991021011008001001001MA1999999096601MD1999999+0121REMSYN070AAXX  06184 82983 32595 20903 10332 20128 39660 40068 82100 333 58012;EQDQ01  00002PRCP06
0208829830999992004120700004-09383-040483FM-12+037099999V0200901N001512200019N0020001N1+03041+01371100911ADDAA106000091GA1001+999999999GF100991001001999999001001KA1240M+03481MA1999999096821MD1999999-0081REMSYN082AAXX  07004 82983 32995 00903 10304 20137 39682 40091 333 10348 29039 55112 59008;EQDQ01  00002PRCP06
0186829830999992004120712004-09383-040483FM-12+037099999V0201401N003110075019N0020001N1+02661+01771101331ADDAA106000091GF106991061011008001001001KA1240N+02361MA1999999097221MD1999999+0031REMSYN076AAXX  07124 82983 32595 61406 10266 20177 39722 40133 86100 333 20236 58003;EQDQ01  00002PRCP06
0167829830999992004120718004-09383-040483FM-12+037099999V0200901N001512200019N0020001N1+03321+01521100771ADDAA106000091GF103991031011008001001001MA1999999096691MD1999999+0091REMSYN070AAXX  07184 82983 32595 30903 10332 20152 39669 40077 83100 333 58009;EQDQ01  00002PRCP06
0208829830999992004120800004-09383-040483FM-12+037099999V0200901N001512200019N0020001N1+03061+01511100881ADDAA106000091GA1001+999999999GF100991001001999999001001KA1240M+03501MA1999999096791MD1999999-0021REMSYN082AAXX  08004 82983 32995 00903 10306 20151 39679 40088 333 10350 29042 55116 59002;EQDQ01  00002PRCP06
0202829830999992004120812004-09383-040483FM-12+037099999V0201401N004119999999N0020001N1+02841+01391101271ADDAA106000091GF105991001001999999001061KA1240N+02441MA1999999097171MD1999999-0051REMSYN076AAXX  08124 82983 32595 51408 10284 20139 39717 40127 80006 333 20244 59005;EQDQ01+008002SCOLCBQ02  00002PRCP06
0167829830999992004120818004-09383-040483FM-12+037099999V0200501N003111050019N0020001N1+03481+01301100771ADDAA106000091GF106991021011008001001021MA1999999096711MD1999999+0021REMSYN070AAXX  08184 82983 32595 60506 10348 20130 39671 40077 82102 333 58002;EQDQ01  00002PRCP06
0208829830999992004120900004-09383-040483FM-12+037099999V0201401N001512200019N0020001N1+03121+01391100841ADDAA106000091GA1001+999999999GF100991001001999999001001KA1240M+03561MA1999999096781MD1999999-0011REMSYN082AAXX  09004 82983 32995 01403 10312 20139 39678 40084 333 10356 29034 55113 59001;EQDQ01  00002PRCP06
0196829830999992004120912004-09383-040483FM-12+037099999V0201401N003112200019N0020001N1+02821+01801101191ADDAA106000091GA1001+999999999GF100991001001999999001001KA1240N+02461MA1999999097101MD1999999-0071REMSYN070AAXX  09124 82983 32995 01406 10282 20180 39710 40119 333 20246 59007;EQDQ01  00002PRCP06
0167829830999992004120918004-09383-040483FM-12+037099999V0200501N003110075019N0020001N1+03521+01501100611ADDAA106000091GF105991051011008001001001MA1999999096551MD1999999-0161REMSYN070AAXX  09184 82983 32595 50506 10352 20150 39655 40061 85100 333 59016;EQDQ01  00002PRCP06
0198829830999992004121000004-09383-040483FM-12+037099999V0201401N002612200019N0020001N1+03161+01511100771ADDAA106000091GF104991041011008001001001KA1240M+03541MA1999999096711MD1999999-0071REMSYN088AAXX  10004 82983 32595 41405 10316 20151 39671 40077 84100 333 10354 29040 55094 59007;EQDQ01  00002PRCP06
0202829830999992004121012004-09383-040483FM-12+037099999V0200901N003112200019N0020001N1+02901+01841101021ADDAA106000091GF102991001001999999001011KA1240N+02541MA1999999096951MD1999999-0051REMSYN076AAXX  10124 82983 32595 20906 10290 20184 39695 40102 80001 333 20254 59005;EQDQ01+008002SCOLCBQ02  00002PRCP06
0167829830999992004121018004-09383-040483FM-12+037099999V0201801N001512200019N0020001N1+03581+01381100431ADDAA106000091GF104991041011008001001001MA1999999096371MD1999999-0181REMSYN070AAXX  10184 82983 32595 41803 10358 20138 39637 40043 84100 333 59018;EQDQ01  00002PRCP06
0208829830999992004121100004-09383-040483FM-12+037099999V0209999C000012200019N0020001N1+03221+01611100591ADDAA106000091GA1001+999999999GF100991001001999999001001KA1240M+03661MA1999999096541MD1999999-0171REMSYN082AAXX  11004 82983 32995 00000 10322 20161 39654 40059 333 10366 29040 55117 59017;EQDQ01  00002PRCP06
0186829830999992004121112004-09383-040483FM-12+037099999V0203601N002610075019N0020001N1+02921+02011101031ADDAA106000091GF108991081051008001999999KA1240N+02761MA1999999096961MD1999999+0011REMSYN076AAXX  11124 82983 32595 83605 10292 20201 39696 40103 885// 333 20276 58001;EQDQ01  00002PRCP06
0167829830999992004121118004-09383-040483FM-12+037099999V0202701N003110075019N0020001N1+03101+02031100701ADDAA106000091GF108991081061008001999999MA1999999096631MD1999999-0261REMSYN070AAXX  11184 82983 32595 82706 10310 20203 39663 40070 886// 333 59026;EQDQ01  00002PRCP06
0198829830999992004121200004-09380-040480FM-12+037099999V0202701N001512200019N0020001N1+02721+02121100891ADDAA106000091GF103991031021008001001001KA1240M+03261MA1999999096811MD1999999+0101REMSYN088AAXX  12004 82983 32595 32703 10272 20212 39681 40089 83200 333 10326 29063 55014 58010;EQDQ01  00002PRCP06
0186829830999992004121212004-09380-040480FM-12+037099999V0201401N002610450019N0020001N1+02921+02011101101ADDAA106000091GF105991031011008001011001KA1240N+02501MA1999999097011MD1999999+0051REMSYN076AAXX  12124 82983 32595 51405 10292 20201 39701 40110 83110 333 20250 58005;EQDQ01  00002PRCP06
0167829830999992004121218004-09380-040480FM-12+037099999V0201801N003110075019N0020001N1+03281+01861100701ADDAA106000091GF106991051021008001021001MA1999999096621MD1999999-0011REMSYN070AAXX  12184 82983 32595 61806 10328 20186 39662 40070 85220 333 59001;EQDQ01  00002PRCP06
0198829830999992004121300004-09383-040483FM-12+037099999V0201801N001510075019N0020001N1+02961+01991100941ADDAA106000091GF105991051021008001001001KA1240M+03621MA1999999096861MD1999999+0051REMSYN088AAXX  13004 82983 32595 51803 10296 20199 39686 40094 85200 333 10362 29053 55088 58005;EQDQ01  00002PRCP06
0186829830999992004121312004-09383-040483FM-12+037099999V0201401N003110450019N0020001N1+02641+01901101301ADDAA106000091GF108991031011008001011021KA1240N+02521MA1999999097191MD1999999+0181REMSYN076AAXX  13124 82983 32595 81406 10264 20190 39719 40130 83112 333 20252 58018;EQDQ01  00002PRCP06
0167829830999992004121318004-09383-040483FM-12+037099999V0201801N003110075019N0020001N1+03341+01831100861ADDAA106000091GF105991051011008001001001MA1999999096771MD1999999+0151REMSYN070AAXX  13184 82983 32595 51806 10334 20183 39677 40086 85100 333 58015;EQDQ01  00002PRCP06
0186829830999992004121412004-09383-040483FM-12+037099999V0200901N003112200019N0020001N1+02741+01701101321ADDAA106000091GF103991011011008001001011KA1240N+02401MA1999999097211MD1999999-0021REMSYN076AAXX  14124 82983 32595 30906 10274 20170 39721 40132 81101 333 20240 59002;EQDQ01  00002PRCP06
0167829830999992004121418004-09383-040483FM-12+037099999V0200901N003110075019N0020001N1+03401+01541100751ADDAA106000091GF105991051011008001001001MA1999999096681MD1999999-0091REMSYN070AAXX  14184 82983 32595 50906 10340 20154 39668 40075 85100 333 59009;EQDQ01  00002PRCP06
0208829830999992004121500004-09383-040483FM-12+037099999V0201401N003112200019N0020001N1+03061+01581100991ADDAA106000091GA1001+999999999GF100991001001999999001001KA1240M+03521MA1999999096901MD1999999+0041REMSYN082AAXX  15004 82983 32995 01406 10306 20158 39690 40099 333 10352 29042 55105 58004;EQDQ01  00002PRCP06
0186829830999992004121512004-09383-040483FM-12+037099999V0201401N003110450019N0020001N1+02581+01771101231ADDAA106000091GF106991041021008001021001KA1240N+02581MA1999999097131MD1999999-0081REMSYN076AAXX  15124 82983 32595 61406 10258 20177 39713 40123 84220 333 20258 59008;EQDQ01  00002PRCP06
0167829830999992004121518004-09383-040483FM-12+037099999V0201401N003112200019N0020001N1+03261+01561100771ADDAA106000091GF104991041011008001001001MA1999999096691MD1999999+0011REMSYN070AAXX  15184 82983 32595 41406 10326 20156 39669 40077 84100 333 58001;EQDQ01  00002PRCP06
0198829830999992004121600004-09383-040483FM-12+037099999V0201801N002612200019N0020001N1+02981+01311100801ADDAA106000091GF102991021011008001001001KA1240M+03401MA1999999096721MD1999999-0181REMSYN088AAXX  16004 82983 32595 21805 10298 20131 39672 40080 82100 333 10340 29042 55094 59018;EQDQ01  00002PRCP06
0186829830999992004121612004-09383-040483FM-12+037099999V0201401N004112200019N0020001N1+02661+01741101161ADDAA106000091GF102991021011008001001001KA1240N+02301MA1999999097061MD1999999-0071REMSYN076AAXX  16124 82983 32595 21408 10266 20174 39706 40116 82100 333 20230 59007;EQDQ01  00002PRCP06
0167829830999992004121618004-09383-040483FM-12+037099999V0201401N002610075019N0020001N1+03421+01611100731ADDAA106000091GF105991051011008001001001MA1999999096651MD1999999-0041REMSYN070AAXX  16184 82983 32595 51405 10342 20161 39665 40073 85100 333 59004;EQDQ01  00002PRCP06
0208829830999992004121700004-09383-040483FM-12+037099999V0201401N001512200019N0020001N1+03041+01451100771ADDAA106000091GA1001+999999999GF100991001001999999001001KA1240M+03481MA1999999096691MD1999999-0031REMSYN082AAXX  17004 82983 32995 01403 10304 20145 39669 40077 333 10348 29042 55117 59003;EQDQ01  00002PRCP06
0186829830999992004121712004-09383-040483FM-12+037099999V0201401N003110075019N0020001N1+02681+01731101171ADDAA106000091GF106991061011008001001001KA1240N+02381MA1999999097071MD1999999+0011REMSYN076AAXX  17124 82983 32595 61406 10268 20173 39707 40117 86100 333 20238 58001;EQDQ01  00002PRCP06
0167829830999992004121718004-09383-040483FM-12+037099999V0200901N003110450019N0020001N1+03341+01491100651ADDAA106000091GF106991041011008001021011MA1999999096571MD1999999-0081REMSYN070AAXX  17184 82983 32595 60906 10334 20149 39657 40065 84121 333 59008;EQDQ01  00002PRCP06
0198829830999992004121800004-09383-040483FM-12+037099999V0201401N003112200019N0020001N1+03101+01501100801ADDAA106000091GF102991021011008001001001KA1240M+03481MA1999999096721MD1999999+0031REMSYN088AAXX  18004 82983 32595 21406 10310 20150 39672 40080 82100 333 10348 29041 55107 58003;EQDQ01  00002PRCP06
0196829830999992004121812004-09383-040483FM-12+037099999V0200901N004112200019N0020001N1+02741+01701101311ADDAA106000091GA1001+999999999GF100991001001999999001001KA1240N+02461MA1999999097141MD1999999+0071REMSYN070AAXX  18124 82983 32995 00908 10274 20170 39714 40131 333 20246 58007;EQDQ01  00002PRCP06
0167829830999992004121818004-09383-040483FM-12+037099999V0201801N003110075019N0020001N1+03521+01601100731ADDAA106000091GF106991061011008001001001MA1999999096671MD1999999+0101REMSYN070AAXX  18184 82983 32595 61806 10352 20160 39667 40073 86100 333 58010;EQDQ01  00002PRCP06
0198829830999992004121900004-09380-040480FM-12+037099999V0201401N001510075019N0020001N1+03101+01461100961ADDAA106000091GF106991061011008001001001KA1240M+03601MA1999999096871MD1999999+0151REMSYN088AAXX  19004 82983 32595 61403 10310 20146 39687 40096 86100 333 10360 29040 55108 58015;EQDQ01  00002PRCP06
0186829830999992004121912004-09380-040480FM-12+037099999V0201401N003110075019N0020001N1+02741+01871101381ADDAA106000091GF106991061011008001001001KA1240N+02481MA1999999097271MD1999999+0131REMSYN076AAXX  19124 82983 32595 61406 10274 20187 39727 40138 86100 333 20248 58013;EQDQ01  00002PRCP06
0167829830999992004121918004-09380-040480FM-12+037099999V0200901N003112200019N0020001N1+03461+01451100821ADDAA106000091GF104991041011008001001001MA1999999096761MD1999999+0091REMSYN070AAXX  19184 82983 32595 40906 10346 20145 39676 40082 84100 333 58009;EQDQ01  00002PRCP06
0198829830999992004122000004-09383-040483FM-12+037099999V0200901N001512200019N0020001N1+03121+01481100961ADDAA106000091GF102991021011008001001001KA1240M+03581MA1999999096881MD1999999+0011REMSYN088AAXX  20004 82983 32595 20903 10312 20148 39688 40096 82100 333 10358 29041 55105 58001;EQDQ01  00002PRCP06
0186829830999992004122012004-09383-040483FM-12+037099999V0200901N004110075019N0020001N1+02841+01821101341ADDAA106000091GF106991061011008001001001KA1240N+02461MA1999999097241MD1999999-0031REMSYN076AAXX  20124 82983 32595 60908 10284 20182 39724 40134 86100 333 20246 59003;EQDQ01  00002PRCP06
0167829830999992004122018004-09383-040483FM-12+037099999V0200901N002612200019N0020001N1+03401+01541100791ADDAA106000091GF104991041011008001001001MA1999999096731MD1999999-0031REMSYN070AAXX  20184 82983 32595 40905 10340 20154 39673 40079 84100 333 59003;EQDQ01  00002PRCP06
0198829830999992004122100004-09383-040483FM-12+037099999V0200901N002610075019N0020001N1+03201+01551100821ADDAA106000091GF106991061011008001001001KA1240M+03561MA1999999096761MD1999999-0121REMSYN088AAXX  21004 82983 32595 60905 10320 20155 39676 40082 86100 333 10356 29040 55113 59012;EQDQ01  00002PRCP06
0186829830999992004122112004-09383-040483FM-12+037099999V0201401N003112200019N0020001N1+02801+01781101181ADDAA106000091GF104991041011008001001001KA1240N+02521MA1999999097011MD1999999-0231REMSYN076AAXX  21124 82983 32595 41406 10280 20178 39701 40118 84100 333 20252 59023;EQDQ01  00002PRCP06
0167829830999992004122118004-09383-040483FM-12+037099999V0201401N002612200019N0020001N1+03481+01611100631ADDAA106000091GF104991031011008001001011MA1999999096571MD1999999-0161REMSYN070AAXX  21184 82983 32595 41405 10348 20161 39657 40063 83101 333 59016;EQDQ01  00002PRCP06
0198829830999992004122200004-09383-040483FM-12+037099999V0200901N001512200019N0020001N1+03201+01421100681ADDAA106000091GF102991021061008001001001KA1240M+03581MA1999999096621MD1999999-0141REMSYN088AAXX  22004 82983 32595 20903 10320 20142 39662 40068 82600 333 10358 29039 55113 59014;EQDQ01  00002PRCP06
0186829830999992004122212004-09383-040483FM-12+037099999V0200901N003111050019N0020001N1+02861+01781100991ADDAA106000091GF106991021011008001011061KA1240N+02481MA1999999096931MD1999999-0081REMSYN076AAXX  22124 82983 32595 60906 10286 20178 39693 40099 82116 333 20248 59008;EQDQ01  00002PRCP06
0167829830999992004122218004-09383-040483FM-12+037099999V0201401N002610450019N0020001N1+03481+01521100491ADDAA106000091GF106991041011008001011021MA1999999096441MD1999999-0131REMSYN070AAXX  22184 82983 32595 61405 10348 20152 39644 40049 84112 333 59013;EQDQ01  00002PRCP06
0198829830999992004122300004-09383-040483FM-12+037099999V0201401N001512200019N0020001N1+03181+01401100681ADDAA106000091GF102991021011008001001001KA1240M+03561MA1999999096621MD1999999+0001REMSYN088AAXX  23004 82983 32595 21403 10318 20140 39662 40068 82100 333 10356 29038 55104 58000;EQDQ01  00002PRCP06
0186829830999992004122312004-09383-040483FM-12+037099999V0200901N003111050019N0020001N1+02781+01821101071ADDAA106000091GF105991011011008001001051KA1240N+02481MA1999999097001MD1999999+0071REMSYN076AAXX  23124 82983 32595 50906 10278 20182 39700 40107 81105 333 20248 58007;EQDQ01  00002PRCP06
0167829830999992004122318004-09383-040483FM-12+037099999V0201401N002610075019N0020001N1+03421+01511100531ADDAA106000091GF106991061011008001001001MA1999999096481MD1999999+0041REMSYN070AAXX  23184 82983 32595 61405 10342 20151 39648 40053 86100 333 58004;EQDQ01  00002PRCP06
0198829830999992004122400004-09383-040483FM-12+037099999V0201401N001512200019N0020001N1+03121+01441100671ADDAA106000091GF104991041011008001001001KA1240M+03501MA1999999096591MD1999999-0031REMSYN088AAXX  24004 82983 32595 41403 10312 20144 39659 40067 84100 333 10350 29040 55110 59003;EQDQ01  00002PRCP06
0202829830999992004122412004-09383-040483FM-12+037099999V0200901N003112200019N0020001N1+02801+01751100991ADDAA106000091GF102991001001999999001051KA1240N+02421MA1999999096911MD1999999-0091REMSYN076AAXX  24124 82983 32595 20906 10280 20175 39691 40099 80005 333 20242 59009;EQDQ01+008002SCOLCBQ02  00002PRCP06
0167829830999992004122418004-09383-040483FM-12+037099999V0201401N002610075019N0020001N1+03561+01531100501ADDAA106000091GF106991061011008001001001MA1999999096451MD1999999-0031REMSYN070AAXX  24184 82983 32595 61405 10356 20153 39645 40050 86100 333 59003;EQDQ01  00002PRCP06
0214829830999992004122500004-09383-040483FM-12+037099999V0200901N001519999999N0040001N1+03141+02171100681ADDAA106000091GF106991999011008001001001KA1240M+03601MA1999999096621MD1999999+0031REMSYN088AAXX  25004 82983 32596 60903 10314 20217 39662 40068 82100 333 10360 29036 55117 58003;EQDQ01+000022SCOTLCQ02  00002PRCP06
0186829830999992004122512004-09383-040483FM-12+037099999V0200901N002610075019N0020001N1+02761+01911101211ADDAA106000091GF106991061021008001001001KA1240N+02481MA1999999097121MD1999999+0111REMSYN076AAXX  25124 82983 32595 60905 10276 20191 39712 40121 86200 333 20248 58011;EQDQ01  00002PRCP06
0167829830999992004122518004-09383-040483FM-12+037099999V0201401N002610075019N0020001N1+03481+01521100651ADDAA106000091GF106991061011008001001001MA1999999096571MD1999999+0121REMSYN070AAXX  25184 82983 32595 61405 10348 20152 39657 40065 86100 333 58012;EQDQ01  00002PRCP06
0202829830999992004122600004-09380-040480FM-12+037099999V0201801N002610075019N0020001N1+03221+01571100921ADDAY101061AY221061GF108991081061008001999999KA1240M+03601MA1999999096861MD1999999+0241MW1501REMSYN100AAXX  26004 82983 21595 81805 10322 20157 39686 40092 75002 886// 333 10360 29041 55111 58024 69901;
0190829830999992004122612004-09380-040480FM-12+037099999V0200901N003110450019N0020001N1+02721+01901101231ADDAY161061AY251061GF107991011011008001021011KA1240N+02481MA1999999097141MD1999999+0021MW1011REMSYN088AAXX  26124 82983 21595 70906 10272 20190 39714 40123 70165 81121 333 20248 58002 60024;
0183829830999992004122618004-09380-040480FM-12+037099999V0200901N003110075019N0020001N1+03381+01571100811ADDAA106000091GF106991999011008001001001MA1999999096731MD1999999+0161REMSYN070AAXX  26184 82983 32595 60906 10338 20157 39673 40081 85100 333 58016;EQDQ01+000052SCOTLCQ02  00002PRCP06
0214829830999992004122700004-09380-040480FM-12+037099999V0201401N002612200019N0020001N1+03081+01601100811ADDAA106000091GF103991999001008001011001KA1240M+03541MA1999999096741MD1999999-0121REMSYN088AAXX  27004 82983 32595 31405 10308 20160 39674 40081 80010 333 10354 29044 55099 59012;EQDQ01+000002SCOTLCQ02  00002PRCP06
0202829830999992004122712004-09380-040480FM-12+037099999V0200901N003119999999N0020001N1+02741+01641101161ADDAA106000091GF106991001001999999001051KA1240N+02461MA1999999097061MD1999999-0081REMSYN076AAXX  27124 82983 32595 60906 10274 20164 39706 40116 80005 333 20246 59008;EQDQ01+008002SCOLCBQ02  00002PRCP06
0167829830999992004122718004-09380-040480FM-12+037099999V0203201N002610075019N0020001N1+03541+01521100511ADDAA106000091GF105991051011008001001001MA1999999096461MD1999999-0271REMSYN070AAXX  27184 82983 32595 53205 10354 20152 39646 40051 85100 333 59027;EQDQ01  00002PRCP06
0198829830999992004122800004-09383-040483FM-12+037099999V0200901N001512200019N0020001N1+03221+01481100681ADDAA106000091GF104991041021008001001001KA1240M+03641MA1999999096621MD1999999-0121REMSYN088AAXX  28004 82983 32595 40903 10322 20148 39662 40068 84200 333 10364 29038 55111 59012;EQDQ01  00002PRCP06
0186829830999992004122812004-09383-040483FM-12+037099999V0200901N003110450019N0020001N1+02801+01791101041ADDAA106000091GF106991021011008001021051KA1240N+02461MA1999999096971MD1999999-0091REMSYN076AAXX  28124 82983 32595 60906 10280 20179 39697 40104 82125 333 20246 59009;EQDQ01  00002PRCP06
0167829830999992004122818004-09383-040483FM-12+037099999V0201401N001510450019N0020001N1+03461+01231100701ADDAA106000091GF107991021011008001011001MA1999999096641MD1999999+0181REMSYN070AAXX  28184 82983 32595 71403 10346 20123 39664 40070 82110 333 58018;EQDQ01  00002PRCP06
0186829830999992004122912004-09383-040483FM-12+037099999V0203201N001510075019N0020001N1+02601+01961101431ADDAA106000091GF108991081051008001999999KA1240N+02421MA1999999097321MD1999999+0351REMSYN076AAXX  29124 82983 32595 83203 10260 20196 39732 40143 885// 333 20242 58035;EQDQ01  00002PRCP06
0167829830999992004122918004-09383-040483FM-12+037099999V0203601N004110075019N0020001N1+03041+01971101061ADDAA106000091GF108991081061008001999999MA1999999096941MD1999999+0301REMSYN070AAXX  29184 82983 32595 83608 10304 20197 39694 40106 886// 333 58030;EQDQ01  00002PRCP06
0198829830999992004123000004-09383-040483FM-12+037099999V0203601N001512200019N0020001N1+02741+01811101291ADDAA106000091GF103991031011008001001001KA1240M+03361MA1999999097151MD1999999+0251REMSYN088AAXX  30004 82983 32595 33603 10274 20181 39715 40129 83100 333 10336 29059 55024 58025;EQDQ01  00002PRCP06
0186829830999992004123012004-09383-040483FM-12+037099999V0201401N004110075019N0020001N1+02741+01811101411ADDAA106000091GF108991081051008001999999KA1240N+02601MA1999999097291MD1999999-0031REMSYN076AAXX  30124 82983 32595 81408 10274 20181 39729 40141 885// 333 20260 59003;EQDQ01  00002PRCP06
0167829830999992004123018004-09383-040483FM-12+037099999V0200501N003110075019N0020001N1+03081+01851101001ADDAA106000091GF106991061051008001001001MA1999999096911MD1999999-0031REMSYN070AAXX  30184 82983 32595 60506 10308 20185 39691 40100 86500 333 59003;EQDQ01  00002PRCP06
0186829830999992004123112004-09383-040483FM-12+037099999V0201401N003110450019N0020001N1+02781+01881101341ADDAA106000091GF106991031011008001021001KA1240N+02461MA1999999097221MD1999999-0071REMSYN076AAXX  31124 82983 32595 61406 10278 20188 39722 40134 83120 333 20246 59007;EQDQ01  00002PRCP06
0167829830999992004123118004-09383-040483FM-12+037099999V0200901N002610075019N0020001N1+03401+01681100891ADDAA106000091GF105991051011008001001001MA1999999096811MD1999999-0101REMSYN070AAXX  31184 82983 32595 50905 10340 20168 39681 40089 85100 333 59010;EQDQ01  00002PRCP06
