0198830960999992004010100004-10917-037050FM-12+000699999V0200901N002612200019N0020001N1+02671+02201101391ADDAA106000091GF104991041051012501001001KA1240M+03031MA1999999101321MD1999999-0071REMSYN088AAXX  01004 83096 32695 40905 10267 20220 30132 40139 84500 333 10303 29071 55086 59007;EQDQ01  00002PRCP06
0186830960999992004010112004-10917-037050FM-12+000699999V0200901N003110042019N0020001N1+02611+02351101471ADDAA106000091GF108991081051004501001001KA1240N+02221MA1999999101401MD1999999+0071REMSYN076AAXX  01124 83096 32495 80906 10261 20235 30140 40147 88500 333 20222 58007;EQDQ01  00002PRCP06
0167830960999992004010118004-10917-037050FM-12+000699999V0200901N005112200019N0020001N1+02861+02351101071ADDAA106000091GF108991021011012501001011MA1999999101001MD1999999-0091REMSYN070AAXX  01184 83096 32695 80910 10286 20235 30100 40107 82101 333 59009;EQDQ01  00002PRCP06
0198830960999992004010200004-10917-037050FM-12+000699999V0200901N004112200019N0020001N1+02701+02301101261ADDAA106000091GF103991031051012501001001KA1240M+03051MA1999999101191MD1999999-0131REMSYN088AAXX  02004 83096 32695 30908 10270 20230 30119 40126 83500 333 10305 29079 55045 59013;EQDQ01  00002PRCP06
0186830960999992004010212004-10917-037050FM-12+000699999V0200901N004110450019N0020001N1+02891+02301101311ADDAA106000091GF105991021051012501031001KA1240N+02281MA1999999101241MD1999999-0161REMSYN076AAXX  02124 83096 32695 50908 10289 20230 30124 40131 82530 333 20228 59016;EQDQ01  00002PRCP06
0167830960999992004010218004-10917-037050FM-12+000699999V0200901N005112200019N0020001N1+02921+02411100991ADDAA106000091GF102991011011012501001011MA1999999100921MD1999999-0081REMSYN070AAXX  02184 83096 32695 20910 10292 20241 30092 40099 81101 333 59008;EQDQ01  00002PRCP06
0198830960999992004010300004-10917-037050FM-12+000699999V0200901N005112200019N0020001N1+02701+02391101151ADDAA106000091GF101991011051012501001001KA1240M+03051MA1999999101081MD1999999-0111REMSYN088AAXX  03004 83096 32695 10910 10270 20239 30108 40115 81500 333 10305 29078 55105 59011;EQDQ01  00002PRCP06
0186830960999992004010312004-10917-037050FM-12+000699999V0200901N004110120019N0020001N1+02921+02411101251ADDAA106000091GF106991061011012501001001KA1240N+02221MA1999999101181MD1999999-0061REMSYN076AAXX  03124 83096 32695 60908 10292 20241 30118 40125 86100 333 20222 59006;EQDQ01  00002PRCP06
0167830960999992004010318004-10917-037050FM-12+000699999V0200901N004612200019N0020001N1+02931+02471100961ADDAA106000091GF101991011011012501001001MA1999999100891MD1999999-0031REMSYN070AAXX  03184 83096 32695 10909 10293 20247 30089 40096 81100 333 59003;EQDQ01  00002PRCP06
0186830960999992004010412004-10917-037050FM-12+000699999V0200901N004110120019N0020001N1+02831+02401101271ADDAA106000091GF108991081071012501001001KA1240N+02261MA1999999101201MD1999999+0021REMSYN076AAXX  04124 83096 32695 80908 10283 20240 30120 40127 88700 333 20226 58002;EQDQ01  00002PRCP06
0214830960999992004010500004-10917-037050FM-12+000699999V02099999999992200019N0020001N1+02661+02291101181ADDAA106000091GF101991999051012501001001KA1240M+03071MA1999999101111MD1999999-0161REMSYN088AAXX  05004 83096 32695 109// 10266 20229 30111 40118 83500 333 10307 29077 55087 59016;EQDQ01+000032SCOTLCQ02  00002PRCP06
0186830960999992004010512004-10917-037050FM-12+000699999V0200901N003612200019N0020001N1+02851+02141101271ADDAA106000091GF102991021011012501001001KA1240N+02241MA1999999101201MD1999999+0001REMSYN076AAXX  05124 83096 32695 20907 10285 20214 30120 40127 82100 333 20224 58000;EQDQ01  00002PRCP06
0167830960999992004010518004-10917-037050FM-12+000699999V0200901N002612200019N0020001N1+02931+02121101221ADDAA106000091GF101991011011012501001001MA1999999101151MD1999999+0181REMSYN070AAXX  05184 83096 32695 10905 10293 20212 30115 40122 81100 333 58018;EQDQ01  00002PRCP06
0198830960999992004010600004-10917-037050FM-12+000699999V0200901N003112200019N0020001N1+02651+02051101271ADDAA106000091GF101991011011012501001001KA1240M+03041MA1999999101201MD1999999+0091REMSYN088AAXX  06004 83096 32695 10906 10265 20205 30120 40127 81100 333 10304 29067 55114 58009;EQDQ01  00002PRCP06
0186830960999992004010612004-10917-037050FM-12+000699999V0200901N002612200019N0020001N1+02891+02081101411ADDAA106000091GF102991021011012501001001KA1240N+02491MA1999999101341MD1999999+0141REMSYN076AAXX  06124 83096 32695 20905 10289 20208 30134 40141 82100 333 20249 58014;EQDQ01  00002PRCP06
0167830960999992004010618004-10917-037050FM-12+000699999V0201401N002612200019N0020001N1+02951+02191101301ADDAA106000091GF102991021011012501001001MA1999999101231MD1999999+0081REMSYN070AAXX  06184 83096 32695 21405 10295 20219 30123 40130 82100 333 58008;EQDQ01  00002PRCP06
0198830960999992004010700004-10917-037050FM-12+000699999V0200901N003112200019N0020001N1+02691+02201101331ADDAA106000091GF101991011011012501001001KA1240M+03061MA1999999101261MD1999999+0061REMSYN088AAXX  07004 83096 32695 10906 10269 20220 30126 40133 81100 333 10306 29069 55115 58006;EQDQ01  00002PRCP06
0167830960999992004010718004-10917-037050FM-12+000699999V0201401N002612200019N0020001N1+02951+02311101321ADDAA106000091GF104991041011012501001001MA1999999101251MD1999999+0021REMSYN070AAXX  07184 83096 32695 41405 10295 20231 30125 40132 84100 333 58002;EQDQ01  00002PRCP06
0202830960999992004010800004-10917-037050FM-12+000699999V0201401N002112200019N0020001N1+02691+02331101331ADDAY151061AY251061GF102991021051012501001001KA1240M+03061MA1999999101261MD1999999+0001MW1201REMSYN100AAXX  08004 83096 21695 21404 10269 20233 30126 40133 72055 82500 333 10306 29076 55104 58000 69941;
0190830960999992004010812004-10917-037050FM-12+000699999V0200901N002610450019N0020001N1+02861+02331101291ADDAY151061AY251061GF105991021051012501031001KA1240N+02491MA1999999101221MD1999999-0091MW1201REMSYN088AAXX  08124 83096 21695 50905 10286 20233 30122 40129 72055 82530 333 20249 59009 69964;
0148830960999992004010818004-10917-037050FM-12+000699999V0200901N002612200019N0020001N1+02931+02321101181ADDAA106000021GF104991041011012501001001MA1999999101111MD1999999-0141REMSYN070AAXX  08184 83096 32695 40905 10293 20232 30111 40118 84100 333 59014;
0198830960999992004010900004-10917-037050FM-12+000699999V0200901N002612200019N0020001N1+02691+02211101231ADDAA106000091GF104991041051012501001001KA1240M+03081MA1999999101161MD1999999-0101REMSYN088AAXX  09004 83096 32695 40905 10269 20221 30116 40123 84500 333 10308 29076 55099 59010;EQDQ01  00002PRCP06
0186830960999992004010912004-10917-037050FM-12+000699999V0200901N003112200019N0020001N1+02891+02251101211ADDAA106000091GF104991041011012501001001KA1240N+02491MA1999999101141MD1999999-0101REMSYN076AAXX  09124 83096 32695 40906 10289 20225 30114 40121 84100 333 20249 59010;EQDQ01  00002PRCP06
0167830960999992004010918004-10917-037050FM-12+000699999V0200901N003612200019N0020001N1+02931+02221101081ADDAA106000091GF102991021011012501001001MA1999999101011MD1999999-0101REMSYN070AAXX  09184 83096 32695 20907 10293 20222 30101 40108 82100 333 59010;EQDQ01  00002PRCP06
0190830960999992004011012004-10917-037050FM-12+000699999V0200901N003112200019N0020001N1+02811+02381101111ADDAY161061AY261061GF104991041051012501001001KA1240N+02351MA1999999101041MD1999999-0101MW1211REMSYN088AAXX  10124 83096 21695 40906 10281 20238 30104 40111 72166 84500 333 20235 59010 60034;
0148830960999992004011018004-10917-037050FM-12+000699999V0200901N003610120019N0020001N1+02951+02291100931ADDAA106000021GF105991051011012501001001MA1999999100861MD1999999-0151REMSYN070AAXX  10184 83096 32695 50907 10295 20229 30086 40093 85100 333 59015;
0186830960999992004011112004-10917-037050FM-12+000699999V0200901N003112200019N0020001N1+02911+02391101221ADDAA106000091GF103991031051012501001001KA1240N+02491MA1999999101151MD1999999+0111REMSYN076AAXX  11124 83096 32695 30906 10291 20239 30115 40122 83500 333 20249 58011;EQDQ01  00002PRCP06
0167830960999992004011118004-10917-037050FM-12+000699999V0200901N004112200019N0020001N1+02911+02431100991ADDAA106000091GF104991041051012501001001MA1999999100921MD1999999+0061REMSYN070AAXX  11184 83096 32695 40908 10291 20243 30092 40099 84500 333 58006;EQDQ01  00002PRCP06
0123830960999992004011212004-10917-037050FM-12+000699999V0200501N001519999999N0020001N1+02931+02471999999ADDGF106991999999012501999999REMSYN085AAXX  12124 83096 21695 60503 10293 20247 20230 30124 4013/1 58011 60044 72066 86100;
0198830960999992004011300004-10917-037050FM-12+000699999V0200901N002612200019N0020001N1+02711+02391101341ADDAA106000091GF102991021051012501001001KA1240M+03121MA1999999101271MD1999999+0121REMSYN088AAXX  13004 83096 32695 20905 10271 20239 30127 40134 82500 333 10312 29078 55091 58012;EQDQ01  00002PRCP06
0186830960999992004011312004-10917-037050FM-12+000699999V0200501N005110120019N0020001N1+02971+02471101241ADDAA106000091GF108991061051012501001011KA1240N+02341MA1999999101171MD1999999+0071REMSYN076AAXX  13124 83096 32695 80510 10297 20247 30117 40124 86501 333 20234 58007;EQDQ01  00002PRCP06
0171830960999992004011318004-10917-037050FM-12+000699999V0200901N004110120019N0020001N1+02751+02541100941ADDAY161061AY261061GF108991081051012501001001MA1999999100871MD1999999-0101MW1201REMSYN082AAXX  13184 83096 21695 80908 10275 20254 30087 40094 72066 88500 333 59010 60121;
0179830960999992004011400004-10917-037050FM-12+000699999V0200901N004110120019N0020001N1+02731+02501101131ADDAA106000021GF106991061051012501001001KA1240M+03121MA1999999101061MD1999999-0211REMSYN088AAXX  14004 83096 32695 60908 10273 20250 30106 40113 86500 333 10312 29084 55008 59021;
0190830960999992004011412004-10917-037050FM-12+000699999V0200501N002110120019N0020001N1+02631+02541101221ADDAY161061AY261061GF108991061051012501999999KA1240N+02371MA1999999101151MD1999999-0021MW1601REMSYN088AAXX  14124 83096 21695 80504 10263 20254 30115 40122 76066 865// 333 20237 59002 60264;
0171830960999992004011418004-10917-037050FM-12+000699999V0203601N001510075019N0020001N1+02231+02191101251ADDAY161061AY261061GF108991081051008001999999MA1999999101181MD1999999+0311MW1611REMSYN082AAXX  14184 83096 21595 83603 10223 20219 30118 40125 76166 885// 333 58031 60571;
0202830960999992004011500004-10917-037050FM-12+000699999V0203601N002110120019N0020001N1+02301+02221101241ADDAY161061AY261061GF108991081051012501999999KA1240M+02711MA1999999101171MD1999999+0111MW1201REMSYN100AAXX  15004 83096 21695 83604 10230 20222 30117 40124 72066 885// 333 10271 29095 55000 58011 60041;
0190830960999992004011512004-10917-037050FM-12+000699999V0200501N002610120019N0020001N1+02751+02461101131ADDAY161061AY261061GF108991081021012501001001KA1240N+02181MA1999999101061MD1999999-0091MW1211REMSYN088AAXX  15124 83096 21695 80505 10275 20246 30106 40113 72166 88200 333 20218 59009 60514;
0148830960999992004011518004-10917-037050FM-12+000699999V0200901N003112200019N0020001N1+02841+02541100841ADDAA106000021GF108991021011012501001011MA1999999100771MD1999999-0411REMSYN070AAXX  15184 83096 32695 80906 10284 20254 30077 40084 82101 333 59041;
0198830960999992004011600004-10917-037050FM-12+000699999V0200501N004112200019N0020001N1+02711+02501101051ADDAA106000091GF101991011051012501001001KA1240M+03001MA1999999100981MD1999999-0191REMSYN088AAXX  16004 83096 32695 10508 10271 20250 30098 40105 81500 333 10300 29087 55076 59019;EQDQ01  00002PRCP06
0190830960999992004011612004-10917-037050FM-12+000699999V0200501N002110075019N0020001N1+02561+02461101081ADDAY161061AY261061GF108991081051008001999999KA1240N+02221MA1999999101011MD1999999-0051MW1601REMSYN088AAXX  16124 83096 21595 80504 10256 20246 30101 40108 76066 885// 333 20222 59005 60224;
0148830960999992004011618004-10917-037050FM-12+000699999V0200901N002610120019N0020001N1+02781+02521100751ADDAA106000021GF108991081021012501001001MA1999999100681MD1999999-0091REMSYN070AAXX  16184 83096 32695 80905 10278 20252 30068 40075 88200 333 59009;
0198830960999992004011700004-10917-037050FM-12+000699999V0200501N002610120019N0020001N1+02701+02521100891ADDAA106000091GF108991081051012501001001KA1240M+02931MA1999999100821MD1999999-0161REMSYN088AAXX  17004 83096 32695 80505 10270 20252 30082 40089 88500 333 10293 29090 55000 59016;EQDQ01  00002PRCP06
0190830960999992004011712004-10917-037050FM-12+000699999V0203601N001510075019N0010001N1+02401+02231101111ADDAY161061AY261061GF108991081051008001999999KA1240N+02201MA1999999101041MD1999999+0031MW1611REMSYN088AAXX  17124 83096 21594 83603 10240 20223 30104 40111 76166 885// 333 20220 58003 60044;
0171830960999992004011718004-10917-037050FM-12+000699999V0200501N002110120019N0020001N1+02871+02481100901ADDAY151061AY251061GF106991061051012501001001MA1999999100821MD1999999+0141MW1201REMSYN082AAXX  17184 83096 21695 60504 10287 20248 30082 40090 72055 86500 333 58014 69921;
0190830960999992004011912004-10917-037050FM-12+000699999V0202701N001510075019N0020001N1+02491+02271101221ADDAY151061AY251061GF106991061051008001001001KA1240N+02261MA1999999101151MD1999999+0111MW1201REMSYN088AAXX  19124 83096 21595 62703 10249 20227 30115 40122 72055 86500 333 20226 58011 60084;
0171830960999992004011918004-10917-037050FM-12+000699999V0201801N002110075019N0010001N1+02491+02301101111ADDAY151061AY251061GF108991081051008001999999MA1999999101041MD1999999+0081MW1511REMSYN082AAXX  19184 83096 21594 81804 10249 20230 30104 40111 75155 885// 333 58008 60011;
0202830960999992004012000004-10917-037050FM-12+000699999V0202701N001510075019N0010001N1+02411+02301101241ADDAY151061AY251061GF106991061051008001001001KA1240M+02631MA1999999101171MD1999999+0001MW1511REMSYN100AAXX  20004 83096 21594 62703 10241 20230 30117 40124 75155 86500 333 10263 29091 55000 58000 60041;
0190830960999992004012012004-10917-037050FM-12+000699999V0203601N001510075019N0010001N1+02411+02281101181ADDAY161061AY261061GF106991061051008001001001KA1240N+02241MA1999999101111MD1999999-0041MW1601REMSYN088AAXX  20124 83096 21594 63603 10241 20228 30111 40118 76066 86500 333 20224 59004 60114;
0171830960999992004012018004-10917-037050FM-12+000699999V0202701N001510075019N0010001N1+02511+02401101111ADDAY161061AY261061GF108991081051008001999999MA1999999101041MD1999999+0001MW1601REMSYN082AAXX  20184 83096 21594 82703 10251 20240 30104 40111 76066 885// 333 58000 60041;
0202830960999992004012100004-10917-037050FM-12+000699999V0203601N001510075019N0020001N1+02401+02301101151ADDAY161061AY261061GF106991061051008001001001KA1240M+02731MA1999999101481MD1999999-0091MW1501REMSYN100AAXX  21004 83096 21595 63603 10240 20230 30148 40115 75066 86500 333 10273 29094 55000 59009 60061;
0190830960999992004012112004-10917-037050FM-12+000699999V0203601N002110120019N0020001N1+02591+02291101181ADDAY161061AY261061GF106991061051012501001001KA1240N+02241MA1999999101111MD1999999+0001MW1211REMSYN088AAXX  21124 83096 21695 63604 10259 20229 30111 40118 72166 86500 333 20224 58000 60204;
0148830960999992004012118004-10917-037050FM-12+000699999V0200901N002612200019N0020001N1+02871+02391100991ADDAA106000021GF104991041011012501001001MA1999999100921MD1999999-0121REMSYN070AAXX  21184 83096 32695 40905 10287 20239 30092 40099 84100 333 59012;
0198830960999992004012200004-10917-037050FM-12+000699999V0200901N002612200019N0020001N1+02631+02351101101ADDAA106000091GF104991041051012501001001KA1240M+03101MA1999999101031MD1999999-0051REMSYN088AAXX  22004 83096 32695 40905 10263 20235 30103 40110 84500 333 10310 29082 55090 59005;EQDQ01  00002PRCP06
0198830960999992004012300004-10917-037050FM-12+000699999V0200901N004112200019N0020001N1+02711+02301101021ADDAA106000091GF104991041051012501001001KA1240M+02951MA1999999100951MD1999999-0081REMSYN088AAXX  23004 83096 32695 40908 10271 20230 30095 40102 84500 333 10295 29079 55097 59008;EQDQ01  00002PRCP06
0186830960999992004012312004-10917-037050FM-12+000699999V0200901N002112200019N0020001N1+02761+02301101151ADDAA106000091GF103991031011012501001001KA1240N+02381MA1999999101081MD1999999+0041REMSYN076AAXX  23124 83096 32695 30904 10276 20230 30108 40115 83100 333 20238 58004;EQDQ01  00002PRCP06
0167830960999992004012318004-10917-037050FM-12+000699999V0201401N002112200019N0020001N1+02871+02331101061ADDAA106000091GF104991041051012501001001MA1999999100991MD1999999+0101REMSYN070AAXX  23184 83096 32695 41404 10287 20233 30099 40106 84500 333 58010;EQDQ01  00002PRCP06
0198830960999992004012400004-10917-037050FM-12+000699999V0200901N002612200019N0020001N1+02671+02331101131ADDAA106000091GF104991041051012501001001KA1240M+02991MA1999999101061MD1999999+0111REMSYN088AAXX  24004 83096 32695 40905 10267 20233 30106 40113 84500 333 10299 29078 55063 58011;EQDQ01  00002PRCP06
0186830960999992004012412004-10917-037050FM-12+000699999V0200901N002610120019N0020001N1+02811+02461101291ADDAA106000091GF105991051071012501001001KA1240N+02431MA1999999101221MD1999999+0141REMSYN076AAXX  24124 83096 32695 50905 10281 20246 30122 40129 85700 333 20243 58014;EQDQ01  00002PRCP06
0167830960999992004012418004-10917-037050FM-12+000699999V02099999999990120019N0020001N1+02691+02411101041ADDAA106000091GF105991051071012501001001MA1999999100971MD1999999-0021REMSYN070AAXX  24184 83096 32695 509// 10269 20241 30097 40104 85700 333 59002;EQDQ01  00002PRCP06
0190830960999992004012512004-10917-037050FM-12+000699999V0200901N002612200019N0020001N1+02911+02361101291ADDAY161061AY261061GF103991031011012501001001KA1240N+02381MA1999999101221MD1999999+0001MW1201REMSYN088AAXX  25124 83096 21695 30905 10291 20236 30122 40129 72066 83100 333 20238 58000 69924;
0148830960999992004012518004-10917-037050FM-12+000699999V0200901N002612200019N0020001N1+02931+02291101051ADDAA106000021GF101991011011012501001001MA1999999100981MD1999999+0011REMSYN070AAXX  25184 83096 32695 10905 10293 20229 30098 40105 81100 333 58001;
0198830960999992004012600004-10917-037050FM-12+000699999V0200901N002612200019N0020001N1+02691+02281101171ADDAA106000091GF104991041051012501001001KA1240M+03121MA1999999101101MD1999999-0121REMSYN088AAXX  26004 83096 32695 40905 10269 20228 30110 40117 84500 333 10312 29075 55114 59012;EQDQ01  00002PRCP06
0190830960999992004012612004-10917-037050FM-12+000699999V0200901N000510075019N0020001N1+02641+02271101311ADDAY161061AY261061GF108991081051008001001001KA1240N+02411MA1999999101241MD1999999+0021MW1601REMSYN088AAXX  26124 83096 21595 80901 10264 20227 30124 40131 76066 88500 333 20241 58002 60024;
0148830960999992004012618004-10917-037050FM-12+000699999V0201401N001512200019N0020001N1+02911+02391101021ADDAA106000021GF101991011011012501001001MA1999999100951MD1999999-0031REMSYN070AAXX  26184 83096 32695 11403 10291 20239 30095 40102 81100 333 59003;
0198830960999992004012700004-10917-037050FM-12+000699999V0200901N003112200019N0020001N1+02631+02271101251ADDAA106000091GF102991021051012501001001KA1240M+03011MA1999999101181MD1999999+0081REMSYN088AAXX  27004 83096 32695 20906 10263 20227 30118 40125 82500 333 10301 29089 55093 58008;EQDQ01  00002PRCP06
0186830960999992004012712004-10917-037050FM-12+000699999V0201401N002610120019N0020001N1+02731+02401101111ADDAA106000091GF105991051011012501001001KA1240N+02451MA1999999101041MD1999999-0201REMSYN076AAXX  27124 83096 32695 51405 10273 20240 30104 40111 85100 333 20245 59020;EQDQ01  00002PRCP06
0171830960999992004012718004-10917-037050FM-12+000699999V0201801N003110120019N0020001N1+02661+02411101111ADDAY161061AY261061GF108991081021012501001001MA1999999101041MD1999999+0091MW1201REMSYN082AAXX  27184 83096 21695 81806 10266 20241 30104 40111 72066 88200 333 58009 60021;
0202830960999992004012800004-10917-037050FM-12+000699999V0200501N003110075019N0020001N1+02321+02271101431ADDAY161061AY261061GF108991081051008001001001KA1240M+03011MA1999999101361MD1999999+0181MW1601REMSYN100AAXX  28004 83096 21595 80506 10232 20227 30136 40143 76066 88500 333 10301 29090 55047 58018 60321;
0190830960999992004012812004-10917-037050FM-12+000699999V0200901N001012200019N0020001N1+02711+02391101441ADDAY161061AY261061GF103991031011012501001001KA1240N+02231MA1999999101371MD1999999+0291MW1211REMSYN088AAXX  28124 83096 21695 30902 10271 20239 30137 40144 72166 83100 333 20223 58029 60394;
0171830960999992004012818004-10917-037050FM-12+000699999V0201401N002110120019N0020001N1+02751+02281101251ADDAY161061AY261061GF108991081021012501001001MA1999999101181MD1999999+0141MW1211REMSYN082AAXX  28184 83096 21695 81404 10275 20228 30118 40125 72166 88200 333 58014 60021;
0179830960999992004012900004-10917-037050FM-12+000699999V0201401N002612200019N0020001N1+02671+02241101411ADDAA106000021GF103991031051012501001001KA1240M+02951MA1999999101341MD1999999-0021REMSYN088AAXX  29004 83096 32695 31405 10267 20224 30134 40141 83500 333 10295 29078 55048 59002;
0190830960999992004012912004-10917-037050FM-12+000699999V0200901N002612200019N0020001N1+02811+02361101401ADDAY161061AY261061GF106991031011012501001011KA1240N+02261MA1999999101331MD1999999-0041MW1211REMSYN088AAXX  29124 83096 21695 60905 10281 20236 30133 40140 72166 83101 333 20226 59004 60064;
0148830960999992004012918004-10917-037050FM-12+000699999V0201401N002610120019N0020001N1+02891+02341101181ADDAA106000021GF108991061051012501001011MA1999999101111MD1999999-0071REMSYN070AAXX  29184 83096 32695 81405 10289 20234 30111 40118 86501 333 59007;
0202830960999992004013000004-10917-037050FM-12+000699999V0201401N001510120019N0020001N1+02631+02371101391ADDAY161061AY261061GF108991081051012501001001KA1240M+03061MA1999999101321MD1999999-0021MW1211REMSYN100AAXX  30004 83096 21695 81403 10263 20237 30132 40139 72166 88500 333 10306 29079 55077 59002 60111;
0190830960999992004013012004-10917-037050FM-12+000699999V0200901N001510120019N0020001N1+02771+02421101391ADDAY161061AY261061GF106991061071012501001001KA1240N+02271MA1999999101321MD1999999-0011MW1211REMSYN088AAXX  30124 83096 21695 60903 10277 20242 30132 40139 72166 86700 333 20227 59001 60114;
0148830960999992004013018004-10917-037050FM-12+000699999V0200901N004110120019N0020001N1+02761+02401101151ADDAA106000021GF108991081071012501001001MA1999999101081MD1999999-0031REMSYN070AAXX  30184 83096 32695 80908 10276 20240 30108 40115 88700 333 59003;
0198830960999992004013100004-10917-037050FM-12+000699999V0200901N003110120019N0020001N1+02601+02391101391ADDAA106000091GF108991081051012501001001KA1240M+03011MA1999999101321MD1999999+0001REMSYN088AAXX  31004 83096 32695 80906 10260 20239 30132 40139 88500 333 10301 29084 55051 58000;EQDQ01  00002PRCP06
0190830960999992004013112004-10917-037050FM-12+000699999V0203201N000510120019N0020001N1+02571+02461101461ADDAY161061AY261061GF108991081051012501001001KA1240N+02281MA1999999101391MD1999999+0071MW1211REMSYN088AAXX  31124 83096 21695 83201 10257 20246 30139 40146 72166 88500 333 20228 58007 60274;
0148830960999992004013118004-10917-037050FM-12+000699999V0201401N002610120019N0020001N1+02811+02381101301ADDAA106000021GF108991081021012501001001MA1999999101231MD1999999+0151REMSYN070AAXX  31184 83096 32695 81405 10281 20238 30123 40130 88200 333 58015;
0186830960999992004020112004-10917-037050FM-12+000699999V0200901N003110120019N0020001N1+02801+02391101591ADDAA106000091GF108991081021012501001001KA1240N+02411MA1999999101521MD1999999+0131REMSYN076AAXX  01124 83096 32695 80906 10280 20239 30152 40159 88200 333 20241 58013;EQDQ01  00002PRCP06
0171830960999992004020118004-10917-037050FM-12+000699999V02099999999990120019N0020001N1+02501+02401101351ADDAY161061AY261061GF108991081051012501001001MA1999999101281MD1999999+0051MW1201REMSYN082AAXX  01184 83096 21695 809// 10250 20240 30128 40135 72066 88500 333 58005 60031;
0179830960999992004020200004-10917-037050FM-12+000699999V0200901N004110120019N0020001N1+02541+02351101451ADDAA106000021GF108991081051012501001001KA1240M+02971MA1999999101381MD1999999+0001REMSYN088AAXX  02004 83096 32695 80908 10254 20235 30138 40145 88500 333 10297 29087 55052 58000;
0190830960999992004020212004-10917-037050FM-12+000699999V0200901N002610120019N0020001N1+02831+02281101291ADDAY161061AY261061GF105991051011012501001001KA1240N+02301MA1999999101221MD1999999-0201MW1211REMSYN088AAXX  02124 83096 21695 50905 10283 20228 30122 40129 72166 85100 333 20230 59020 60084;
0148830960999992004020218004-10917-037050FM-12+000699999V0201401N002112200019N0020001N1+02911+02171101291ADDAA106000021GF103991031011012501001001MA1999999101121MD1999999-0061REMSYN070AAXX  02184 83096 32695 31404 10291 20217 30112 40129 83100 333 59006;
0198830960999992004020300004-10917-037050FM-12+000699999V0200901N003112200019N0020001N1+02651+02141101331ADDAA106000091GF102991021011012501001001KA1240M+03011MA1999999101261MD1999999-0121REMSYN088AAXX  03004 83096 32695 20906 10265 20214 30126 40133 82100 333 10301 29071 55100 59012;EQDQ01  00002PRCP06
0186830960999992004020312004-10917-037050FM-12+000699999V0200901N002112200019N0020001N1+02771+02251101351ADDAA106000091GF103991031011012501001001KA1240N+02471MA1999999101281MD1999999+0021REMSYN076AAXX  03124 83096 32695 30904 10277 20225 30128 40135 83100 333 20247 58002;EQDQ01  00002PRCP06
0167830960999992004020318004-10917-037050FM-12+000699999V0201401N002110120019N0020001N1+02891+02131101201ADDAA106000091GF105991051011012501001001MA1999999101131MD1999999-0091REMSYN070AAXX  03184 83096 32695 51404 10289 20213 30113 40120 85100 333 59009;EQDQ01  00002PRCP06
0198830960999992004020400004-10917-037050FM-12+000699999V0200901N002610120019N0020001N1+02691+02161101311ADDAA106000091GF105991051011012501001001KA1240M+03011MA1999999101241MD1999999-0021REMSYN088AAXX  04004 83096 32695 50905 10269 20216 30124 40131 85100 333 10301 29071 55097 59002;EQDQ01  00002PRCP06
0186830960999992004020412004-10917-037050FM-12+000699999V0200901N001510120019N0020001N1+02731+02391101391ADDAA106000091GF105991051051012501001001KA1240N+02471MA1999999101321MD1999999+0041REMSYN076AAXX  04124 83096 32695 50903 10273 20239 30132 40139 85500 333 20247 58004;EQDQ01  00002PRCP06
0167830960999992004020418004-10917-037050FM-12+000699999V0201401N002112200019N0020001N1+02931+02361101201ADDAA106000091GF104991041011012501001001MA1999999101131MD1999999+0081REMSYN070AAXX  04184 83096 32695 41404 10293 20236 30113 40120 84100 333 58008;EQDQ01  00002PRCP06
0202830960999992004020500004-10917-037050FM-12+000699999V0200901N002612200019N0020001N1+02651+02331101171ADDAY151061AY251061GF103991031051012501001001KA1240M+03021MA1999999101101MD1999999-0141MW1201REMSYN100AAXX  05004 83096 21695 30905 10265 20233 30110 40117 72055 83500 333 10302 29080 55078 59014 69921;
0190830960999992004020512004-10917-037050FM-12+000699999V0200901N001512200019N0020001N1+02741+02401101331ADDAY151061AY251061GF104991041011012501001001KA1240N+02331MA1999999101261MD1999999-0061MW1201REMSYN088AAXX  05124 83096 21695 40903 10274 20240 30126 40133 72055 84100 333 20233 59006 60014;
0148830960999992004020518004-10917-037050FM-12+000699999V0201401N002110120019N0020001N1+02791+02361101181ADDAA106000021GF105991051011012501001001MA1999999101111MD1999999-0021REMSYN070AAXX  05184 83096 32695 51404 10279 20236 30111 40118 85100 333 59002;
0198830960999992004020600004-10917-037050FM-12+000699999V0200901N002112200019N0020001N1+02651+02331101261ADDAA106000091GF103991031051012501001001KA1240M+02991MA1999999101191MD1999999+0091REMSYN088AAXX  06004 83096 32695 30904 10265 20233 30119 40126 83500 333 10299 29081 55082 58009;EQDQ01  00002PRCP06
0190830960999992004020612004-10917-037050FM-12+000699999V0200901N001512200019N0020001N1+02841+02311101191ADDAY161061AY261061GF103991031051012501001001KA1240N+02331MA1999999101121MD1999999-0141MW1211REMSYN088AAXX  06124 83096 21695 30903 10284 20231 30112 40119 72166 83500 333 20233 59014 60034;
0148830960999992004020618004-10917-037050FM-12+000699999V0200901N003110120019N0020001N1+02731+02321101051ADDAA106000021GF105991051051012501001001MA1999999100981MD1999999-0131REMSYN070AAXX  06184 83096 32695 50906 10273 20232 30098 40105 85500 333 59013;
0198830960999992004020700004-10917-037050FM-12+000699999V0200501N001512200019N0020001N1+02611+02401100991ADDAA106000091GF104991041051012501001001KA1240M+02991MA1999999100921MD1999999-0271REMSYN088AAXX  07004 83096 32695 40503 10261 20240 30092 40099 84500 333 10299 29082 55065 59027;EQDQ01  00002PRCP06
0186830960999992004020712004-10917-037050FM-12+000699999V0200501N003112200019N0020001N1+02851+02311101101ADDAA106000091GF103991031011012501001001KA1240N+02431MA1999999101031MD1999999-0091REMSYN076AAXX  07124 83096 32695 30506 10285 20231 30103 40110 83100 333 20243 59009;EQDQ01  00002PRCP06
0167830960999992004020718004-10917-037050FM-12+000699999V0200901N003110120019N0020001N1+02971+02491101001ADDAA106000091GF105991051011012501001001MA1999999100931MD1999999-0051REMSYN070AAXX  07184 83096 32695 50906 10297 20249 30093 40100 85100 333 59005;EQDQ01  00002PRCP06
0198830960999992004020800004-10917-037050FM-12+000699999V0200901N002612200019N0020001N1+02731+02431101161ADDAA106000091GF104991041011012501001001KA1240M+03101MA1999999101091MD1999999+0171REMSYN088AAXX  08004 83096 32695 40905 10273 20243 30109 40116 84100 333 10310 29079 55087 58017;EQDQ01  00002PRCP06
0186830960999992004020812004-10917-037050FM-12+000699999V0200901N002112200019N0020001N1+02911+02431101311ADDAA106000091GF103991031011012501001001KA1240N+02431MA1999999101241MD1999999+0211REMSYN076AAXX  08124 83096 32695 30904 10291 20243 30124 40131 83100 333 20243 58021;EQDQ01  00002PRCP06
0167830960999992004020818004-10917-037050FM-12+000699999V0200901N004112200019N0020001N1+02931+02501101181ADDAA106000091GF103991031011012501001001MA1999999101111MD1999999+0181REMSYN070AAXX  08184 83096 32695 30908 10293 20250 30111 40118 83100 333 58018;EQDQ01  00002PRCP06
0198830960999992004020900004-10917-037050FM-12+000699999V0200901N003112200019N0020001N1+02741+02431101321ADDAA106000091GF104991041051012501001001KA1240M+03021MA1999999101251MD1999999+0161REMSYN088AAXX  09004 83096 32695 40906 10274 20243 30125 40132 84500 333 10302 29080 55106 58016;EQDQ01  00002PRCP06
0186830960999992004020912004-10917-037050FM-12+000699999V02099999999992200019N0020001N1+02901+02431101471ADDAA106000091GF103991031011012501001001KA1240N+02431MA1999999101401MD1999999+0161REMSYN076AAXX  09124 83096 32695 309// 10290 20243 30140 40147 83100 333 20243 58016;EQDQ01  00002PRCP06
0183830960999992004020918004-10917-037050FM-12+000699999V02099999999999999999N0020001N1+02931+02331101171ADDAA106000091GF105991999011012501001001MA1999999101101MD1999999-0011REMSYN070AAXX  09184 83096 32695 509// 10293 20233 30110 40117 83100 333 59001;EQDQ01+000032SCOTLCQ02  00002PRCP06
0198830960999992004021000004-10917-037050FM-12+000699999V0200901N003612200019N0020001N1+02671+02311101341ADDAA106000091GF102991021051012501001001KA1240M+03021MA1999999101271MD1999999+0021REMSYN088AAXX  10004 83096 32695 20907 10267 20231 30127 40134 82500 333 10302 29076 55104 58002;EQDQ01  00002PRCP06
0186830960999992004021012004-10917-037050FM-12+000699999V0200901N003112200019N0020001N1+02881+02371101431ADDAA106000091GF102991021011012501001001KA1240N+02261MA1999999101361MD1999999-0041REMSYN076AAXX  10124 83096 32695 20906 10288 20237 30136 40143 82100 333 20226 59004;EQDQ01  00002PRCP06
0167830960999992004021018004-10917-037050FM-12+000699999V0200901N005112200019N0020001N1+02911+02341101141ADDAA106000091GF103991011011012501001011MA1999999101071MD1999999-0031REMSYN070AAXX  10184 83096 32695 30910 10291 20234 30107 40114 81101 333 59003;EQDQ01  00002PRCP06
0198830960999992004021100004-10917-037050FM-12+000699999V0200901N004112200019N0020001N1+02681+02241101401ADDAA106000091GF101991011051012501001001KA1240M+03021MA1999999101331MD1999999+0061REMSYN088AAXX  11004 83096 32695 10908 10268 20224 30133 40140 81500 333 10302 29075 55105 58006;EQDQ01  00002PRCP06
0186830960999992004021112004-10917-037050FM-12+000699999V02099999999992200019N0020001N1+02881+02281101451ADDAA106000091GF103991031011012501001001KA1240N+02261MA1999999101381MD1999999+0021REMSYN076AAXX  11124 83096 32695 309// 10288 20228 30138 40145 83100 333 20226 58002;EQDQ01  00002PRCP06
0167830960999992004021118004-10917-037050FM-12+000699999V0200901N003612200019N0020001N1+02951+02311101281ADDAA106000091GF103991011011012501001011MA1999999101211MD1999999+0141REMSYN070AAXX  11184 83096 32695 30907 10295 20231 30121 40128 81101 333 58014;EQDQ01  00002PRCP06
0198830960999992004021200004-10917-037050FM-12+000699999V0201401N002112200019N0020001N1+02701+02221101441ADDAA106000091GF102991021051012501001001KA1240M+03071MA1999999101371MD1999999+0041REMSYN088AAXX  12004 83096 32695 21404 10270 20222 30137 40144 82500 333 10307 29072 55107 58004;EQDQ01  00002PRCP06
0186830960999992004021212004-10917-037050FM-12+000699999V0201401N004112200019N0020001N1+02941+02331101531ADDAA106000091GF105991031011012501001011KA1240N+02281MA1999999101461MD1999999+0081REMSYN076AAXX  12124 83096 32695 51408 10294 20233 30146 40153 83101 333 20228 58008;EQDQ01  00002PRCP06
0167830960999992004021218004-10917-037050FM-12+000699999V0201401N004110120019N0020001N1+02931+02331101311ADDAA106000091GF105991051011012501001001MA1999999101241MD1999999+0031REMSYN070AAXX  12184 83096 32695 51408 10293 20233 30124 40131 85100 333 58003;EQDQ01  00002PRCP06
0198830960999992004021300004-10917-037050FM-12+000699999V0200901N003112200019N0020001N1+02711+02261101551ADDAA106000091GF103991031051012501001001KA1240M+03071MA1999999101141MD1999999+0111REMSYN088AAXX  13004 83096 32695 30906 10271 20226 30114 40155 83500 333 10307 29073 55096 58011;EQDQ01  00002PRCP06
0186830960999992004021312004-10917-037050FM-12+000699999V0201401N003112200019N0020001N1+02921+02191101561ADDAA106000091GF102991021011012501001001KA1240N+02391MA1999999101491MD1999999+0031REMSYN076AAXX  13124 83096 32695 21406 10292 20219 30149 40156 82100 333 20239 58003;EQDQ01  00002PRCP06
0167830960999992004021318004-10917-037050FM-12+000699999V0201401N003112200019N0020001N1+02911+02221101331ADDAA106000091GF105991031011012501001011MA1999999101261MD1999999+0021REMSYN070AAXX  13184 83096 32695 51406 10291 20222 30126 40133 83101 333 58002;EQDQ01  00002PRCP06
0198830960999992004021400004-10917-037050FM-12+000699999V0200901N002612200019N0020001N1+02661+02161101481ADDAA106000091GF102991021051012501001001KA1240M+03061MA1999999101411MD1999999-0071REMSYN088AAXX  14004 83096 32695 20905 10266 20216 30141 40148 82500 333 10306 29070 55113 59007;EQDQ01  00002PRCP06
0186830960999992004021412004-10917-037050FM-12+000699999V0200901N001512200019N0020001N1+02951+02261101501ADDAA106000091GF103991031011012501001001KA1240N+02241MA1999999101431MD1999999-0061REMSYN076AAXX  14124 83096 32695 30903 10295 20226 30143 40150 83100 333 20224 59006;EQDQ01  00002PRCP06
0167830960999992004021418004-10917-037050FM-12+000699999V0200901N003112200019N0020001N1+02941+02311101191ADDAA106000091GF105991031011012501001011MA1999999101121MD1999999-0141REMSYN070AAXX  14184 83096 32695 50906 10294 20231 30112 40119 83101 333 59014;EQDQ01  00002PRCP06
0202830960999992004021500004-10917-037050FM-12+000699999V02099999999990075019N0020001N1+02471+02321101431ADDAY161061AY261061GF108991081051008001001001KA1240M+03051MA1999999101361MD1999999-0051MW1601REMSYN100AAXX  15004 83096 21595 809// 10247 20232 30136 40143 76066 88500 333 10305 29079 55112 59005 69941;
0190830960999992004021512004-10917-037050FM-12+000699999V0200501N001510075019N0010001N1+02711+02481101391ADDAY161061AY261061GF106991061051008001001001KA1240N+02301MA1999999101321MD1999999-0111MW1211REMSYN088AAXX  15124 83096 21594 60503 10271 20248 30132 40139 72166 86500 333 20230 59011 60144;
0171830960999992004021518004-10917-037050FM-12+000699999V0200901N005112200019N0020001N1+02891+02431101111ADDAY161061AY261061GF106991031011012501001011MA1999999101041MD1999999-0081MW1201REMSYN082AAXX  15184 83096 21695 60910 10289 20243 30104 40111 72066 83101 333 59008 60011;
0179830960999992004021600004-10917-037050FM-12+000699999V02099999999992200019N0020001N1+02751+02341101291ADDAA106000021GF102991021051012501001001KA1240M+03011MA1999999101221MD1999999-0141REMSYN088AAXX  16004 83096 32695 209// 10275 20234 30122 40129 82500 333 10301 29080 55051 59014;
0162830960999992004021612004-10917-037050FM-12+000699999V0200901N002110450019N0020001N1+02891+02321101371ADDGF105991031051012501031001KA1240N+02431MA1999999101301MD1999999-0021REMSYN082AAXX  16124 83096 22695 50904 10289 20232 30130 40137 83530 333 20243 59002 60014;
0167830960999992004021618004-10917-037050FM-12+000699999V0200901N002112200019N0020001N1+02941+02361101221ADDAA106000091GF102991021011012501001001MA1999999101151MD1999999+0111REMSYN070AAXX  16184 83096 32695 20904 10294 20236 30115 40122 82100 333 58011;EQDQ01  00002PRCP06
0198830960999992004021700004-10917-037050FM-12+000699999V0200901N003112200019N0020001N1+02731+02371101371ADDAA106000091GF102991021011012501001001KA1240M+03031MA1999999101301MD1999999+0081REMSYN088AAXX  17004 83096 32695 20906 10273 20237 30130 40137 82100 333 10303 29076 55111 58008;EQDQ01  00002PRCP06
0186830960999992004021712004-10917-037050FM-12+000699999V0200901N002112200019N0020001N1+02851+02311101471ADDAA106000091GF103991031011012501001001KA1240N+02471MA1999999101401MD1999999+0101REMSYN076AAXX  17124 83096 32695 30904 10285 20231 30140 40147 83100 333 20247 58010;EQDQ01  00002PRCP06
0167830960999992004021718004-10917-037050FM-12+000699999V0200901N003112200019N0020001N1+02931+02341101361ADDAA106000091GF103991031011012501001001MA1999999101291MD1999999+0141REMSYN070AAXX  17184 83096 32695 30906 10293 20234 30129 40136 83100 333 58014;EQDQ01  00002PRCP06
0198830960999992004021800004-10917-037050FM-12+000699999V0200901N003112200019N0020001N1+02711+02281101471ADDAA106000091GF103991031011012501001001KA1240M+03021MA1999999101401MD1999999+0101REMSYN088AAXX  18004 83096 32695 30906 10271 20228 30140 40147 83100 333 10302 29075 55103 58010;EQDQ01  00002PRCP06
0186830960999992004021812004-10917-037050FM-12+000699999V0200901N002112200019N0020001N1+02811+01341101531ADDAA106000091GF104991041011012501001001KA1240N+02331MA1999999101461MD1999999+0061REMSYN076AAXX  18124 83096 32695 40904 10281 20134 30146 40153 84100 333 20233 58006;EQDQ01  00002PRCP06
0190830960999992004021912004-10917-037050FM-12+000699999V0200901N001510075019N0020001N1+02611+02441101331ADDAY161061AY261061GF105991051051008001001001KA1240N+02411MA1999999101261MD1999999-0201MW1601REMSYN088AAXX  19124 83096 21595 50903 10261 20244 30126 40133 76066 85500 333 20241 59020 60064;
0148830960999992004021918004-10917-037050FM-12+000699999V0200901N003612200019N0020001N1+02951+02331101161ADDAA106000021GF103991031011012501001001MA1999999101091MD1999999-0101REMSYN070AAXX  19184 83096 32695 30907 10295 20233 30109 40116 83100 333 59010;
0198830960999992004022000004-10917-037050FM-12+000699999V0200901N003112200019N0020001N1+02731+02301101111ADDAA106000091GF103991031051012501001001KA1240M+03041MA1999999101041MD1999999-0221REMSYN088AAXX  20004 83096 32695 30906 10273 20230 30104 40111 83500 333 10304 29079 55077 59022;EQDQ01  00002PRCP06
0190830960999992004022012004-10917-037050FM-12+000699999V0200901N005112200019N0020001N1+02811+02361101271ADDAY161061AY261061GF105991041011012501001011KA1240N+02401MA1999999101201MD1999999-0061MW1201REMSYN088AAXX  20124 83096 21695 50910 10281 20236 30120 40127 72066 84101 333 20240 59006 60014;
0148830960999992004022018004-10917-037050FM-12+000699999V0200901N005112200019N0020001N1+02911+02341101061ADDAA106000021GF103991021011012501001011MA1999999100991MD1999999-0101REMSYN070AAXX  20184 83096 32695 30910 10291 20234 30099 40106 82101 333 59010;
0198830960999992004022100004-10917-037050FM-12+000699999V0200901N003112200019N0020001N1+02701+02201101311ADDAA106000091GF101991011051012501001001KA1240M+03041MA1999999101241MD1999999+0201REMSYN088AAXX  21004 83096 32695 10906 10270 20220 30124 40131 81500 333 10304 29074 55099 58020;EQDQ01  00002PRCP06
0190830960999992004022112004-10917-037050FM-12+000699999V0200901N003110120019N0020001N1+02931+02311101471ADDAY161061AY261061GF105991051011012501001001KA1240N+02361MA1999999101401MD1999999+0201MW1201REMSYN088AAXX  21124 83096 21695 50906 10293 20231 30140 40147 72066 85100 333 20236 58020 69944;
0148830960999992004022118004-10917-037050FM-12+000699999V0200901N005112200019N0020001N1+02921+02121101251ADDAA106000021GF102991021011012501001001MA1999999101181MD1999999+0191REMSYN070AAXX  21184 83096 32695 20910 10292 20212 30118 40125 82100 333 58019;
0186830960999992004022212004-10917-037050FM-12+000699999V0200901N002610120019N0020001N1+02841+02351101531ADDAA106000091GF108991081011012501001001KA1240N+02411MA1999999101461MD1999999+0061REMSYN076AAXX  22124 83096 32695 80905 10284 20235 30146 40153 88100 333 20241 58006;EQDQ01  00002PRCP06
0167830960999992004022218004-10917-037050FM-12+000699999V02099999999992200019N0020001N1+02961+02331101311ADDAA106000091GF102991021011012501001001MA1999999101241MD1999999+0061REMSYN070AAXX  22184 83096 32695 209// 10296 20233 30124 40131 82100 333 58006;EQDQ01  00002PRCP06
0218830960999992004022312004-10917-037050FM-12+000699999V0200901N003119999999N0020001N1+02961+02381101441ADDAA106000091GF105991999999012501999999KA1240N+02411MA1999999101371MD1999999-0091REMSYN076AAXX  23124 83096 32695 50906 10296 20238 30137 40144 51000 333 20241 59009;EQDQ01+000012APCTENQ02+000002APC3  Q03  00002PRCP06
0167830960999992004022318004-10917-037050FM-12+000699999V0200901N002612200019N0020001N1+02951+02311101241ADDAA106000091GF101991011011012501001001MA1999999101171MD1999999-0071REMSYN070AAXX  23184 83096 32695 10905 10295 20231 30117 40124 81100 333 59007;EQDQ01  00002PRCP06
0198830960999992004022400004-10917-037050FM-12+000699999V0200901N003112200019N0020001N1+02731+02301101331ADDAA106000091GF103991031011012501001001KA1240M+03061MA1999999101261MD1999999+0001REMSYN088AAXX  24004 83096 32695 30906 10273 20230 30126 40133 83100 333 10306 29074 55102 58000;EQDQ01  00002PRCP06
0193830960999992004022412004-10917-037050FM-12+000699999V0200901N001512200019N0020001N1+02611+02401101391ADDAA124002091AY161061AY261061GF104991041051008001001001KA1240N+02451MA1999999101321MW1601REMSYN094AAXX  24124 83096 21595 40903 10261 20240 30132 40139 76066 84500 333 20245 29005 60024 10020;
0148830960999992004022418004-10917-037050FM-12+000699999V0200901N002610120019N0020001N1+02951+02381101201ADDAA106000021GF105991051011012501001001MA1999999101131MD1999999-0041REMSYN070AAXX  24184 83096 32695 50905 10295 20238 30113 40120 85100 333 59004;
0186830960999992004022512004-10917-037050FM-12+000699999V0200901N002110450019N0020001N1+02761+02381101371ADDAA106000091GF105991031051012501031001KA1240N+02471MA1999999101301MD1999999-0021REMSYN076AAXX  25124 83096 32695 50904 10276 20238 30130 40137 83530 333 20247 59002;EQDQ01  00002PRCP06
0167830960999992004022518004-10917-037050FM-12+000699999V0200901N002610120019N0020001N1+02791+02301101291ADDAA106000091GF105991051051012501001001MA1999999101221MD1999999+0091REMSYN070AAXX  25184 83096 32695 50905 10279 20230 30122 40129 85500 333 58009;EQDQ01  00002PRCP06
0198830960999992004022600004-10917-037050FM-12+000699999V0200901N002612200019N0020001N1+02711+02301101331ADDAA106000091GF103991031051012501001001KA1240M+02971MA1999999101261MD1999999+0061REMSYN088AAXX  26004 83096 32695 30905 10271 20230 30126 40133 83500 333 10297 29078 55002 58006;EQDQ01  00002PRCP06
0186830960999992004022612004-10917-037050FM-12+000699999V0200901N002610450019N0020001N1+02811+02311101471ADDAA106000091GF106991031021012501031001KA1240N+02461MA1999999101401MD1999999+0101REMSYN076AAXX  26124 83096 32695 60905 10281 20231 30140 40147 83230 333 20246 58010;EQDQ01  00002PRCP06
0167830960999992004022618004-10917-037050FM-12+000699999V0200901N003119999999N0020001N1+02971+02231101321ADDAA106000091GF105991051001012501031001MA1999999101281MD1999999+0061REMSYN070AAXX  26184 83096 32695 50906 10297 20223 30128 40132 85030 333 58006;EQDQ01  00002PRCP06
0198830960999992004022700004-10917-037050FM-12+000699999V0200901N002112200019N0020001N1+02691+02241101451ADDAA106000091GF102991021011012501001001KA1240M+03061MA1999999101381MD1999999+0121REMSYN088AAXX  27004 83096 32695 20904 10269 20224 30138 40145 82100 333 10306 29074 55099 58012;EQDQ01  00002PRCP06
0186830960999992004022712004-10917-037050FM-12+000699999V0200901N001512200019N0020001N1+02891+02281101471ADDAA106000091GF103991031011012501001001KA1240N+02351MA1999999101401MD1999999+0001REMSYN076AAXX  27124 83096 32695 30903 10289 20228 30140 40147 83100 333 20235 58000;EQDQ01  00002PRCP06
0167830960999992004022718004-10917-037050FM-12+000699999V0200901N002612200019N0020001N1+02931+02171101161ADDAA106000091GF102991021011012501001001MA1999999101091MD1999999-0191REMSYN070AAXX  27184 83096 32695 20905 10293 20217 30109 40116 82100 333 59019;EQDQ01  00002PRCP06
0198830960999992004022800004-10917-037050FM-12+000699999V0200901N003112200019N0020001N1+02731+02261101271ADDAA106000091GF102991021011012501001001KA1240M+03021MA1999999101201MD1999999-0181REMSYN088AAXX  28004 83096 32695 20906 10273 20226 30120 40127 82100 333 10302 29072 55114 59018;EQDQ01  00002PRCP06
0186830960999992004022812004-10917-037050FM-12+000699999V0203601N002112200019N0020001N1+02811+02401101231ADDAA106000091GF104991021051012501031001KA1240N+02441MA1999999101161MD1999999-0241REMSYN076AAXX  28124 83096 32695 43604 10281 20240 30116 40123 82530 333 20244 59024;EQDQ01  00002PRCP06
0167830960999992004022818004-10917-037050FM-12+000699999V0200901N003110450019N0020001N1+02931+02501100881ADDAA106000091GF106991031051012501031001MA1999999100811MD1999999-0281REMSYN070AAXX  28184 83096 32695 60906 10293 20250 30081 40088 83530 333 59028;EQDQ01  00002PRCP06
0198830960999992004022900004-10917-037050FM-12+000699999V0200901N003612200019N0020001N1+02811+02441101091ADDAA106000091GF104991041051012501001001KA1240M+03121MA1999999101021MD1999999-0181REMSYN088AAXX  29004 83096 32695 40907 10281 20244 30102 40109 84500 333 10312 29080 55084 59018;EQDQ01  00002PRCP06
0190830960999992004022912004-10917-037050FM-12+000699999V0202701N002110075019N0020001N1+02441+02301101441ADDAY151061AY251061GF105991051051008001001001KA1240N+02301MA1999999101371MD1999999+0211MW1501REMSYN088AAXX  29124 83096 21595 52704 10244 20230 30137 40144 75055 85500 333 20230 58021 60064;
0148830960999992004022918004-10917-037050FM-12+000699999V0201801N001510450019N0020001N1+02831+02331101251ADDAA106000021GF106991041051012501031001MA1999999101181MD1999999+0371REMSYN070AAXX  29184 83096 32695 61803 10283 20233 30118 40125 84530 333 58037;
0198830960999992004030100004-10917-037050FM-12+000699999V0200901N002110120019N0020001N1+02711+02411101211ADDAA106000091GF105991051051012501001001KA1240M+02941MA1999999101141MD1999999+0121REMSYN088AAXX  01004 83096 32695 50904 10271 20241 30114 40121 85500 333 10294 29084 55001 58012;EQDQ01  00002PRCP06
0186830960999992004030112004-10917-037050FM-12+000699999V0200901N003110120019N0020001N1+02881+02391101371ADDAA106000091GF108991081051012501001001KA1240N+02361MA1999999101301MD1999999-0071REMSYN076AAXX  01124 83096 32695 80906 10288 20239 30130 40137 88500 333 20236 59007;EQDQ01  00002PRCP06
0167830960999992004030118004-10917-037050FM-12+000699999V0200901N003612200019N0020001N1+02961+02381101181ADDAA106000091GF101991011021012501001001MA1999999101111MD1999999-0071REMSYN070AAXX  01184 83096 32695 10907 10296 20238 30111 40118 81200 333 59007;EQDQ01  00002PRCP06
0198830960999992004030200004-10917-037050FM-12+000699999V0200901N003112200019N0020001N1+02721+02341101411ADDAA106000091GF105991031011012501001011KA1240M+03071MA1999999101341MD1999999+0201REMSYN088AAXX  02004 83096 32695 50906 10272 20234 30134 40141 83101 333 10307 29076 55070 58020;EQDQ01  00002PRCP06
0190830960999992004030212004-10917-037050FM-12+000699999V0200901N003112200019N0020001N1+02941+02331101331ADDAY161061AY261061GF103991021011012501001011KA1240N+02391MA1999999101261MD1999999-0041MW1201REMSYN088AAXX  02124 83096 21695 30906 10294 20233 30126 40133 72066 82101 333 20239 59004 69964;
0148830960999992004030218004-10917-037050FM-12+000699999V02099999999992200019N0020001N1+02971+02351101021ADDAA106000021GF105991021011012501001011MA1999999100951MD1999999-0161REMSYN070AAXX  02184 83096 32695 514// 10297 20235 30095 40102 82101 333 59016;
0198830960999992004030300004-10917-037050FM-12+000699999V0200901N001510120019N0020001N1+02761+02361101311ADDAA106000091GF108991081051012501001001KA1240M+03081MA1999999101241MD1999999-0101REMSYN088AAXX  03004 83096 32695 80903 10276 20236 30124 40131 88500 333 10308 29074 55108 59010;EQDQ01  00002PRCP06
0186830960999992004030312004-10917-037050FM-12+000699999V0200901N004112200019N0020001N1+02961+02311101361ADDAA106000091GF103991021011012501001011KA1240N+02391MA1999999101291MD1999999+0031REMSYN076AAXX  03124 83096 32695 30908 10296 20231 30129 40136 82101 333 20239 58003;EQDQ01  00002PRCP06
0167830960999992004030318004-10917-037050FM-12+000699999V0201401N002612200019N0020001N1+02971+02301101061ADDAA106000091GF102991011011012501001011MA1999999100991MD1999999+0041REMSYN070AAXX  03184 83096 32695 21405 10297 20230 30099 40106 81101 333 58004;EQDQ01  00002PRCP06
0198830960999992004030400004-10917-037050FM-12+000699999V02099999999990120019N0020001N1+02711+02321101171ADDAA106000091GF105991051051012501001001KA1240M+03071MA1999999101101MD1999999-0141REMSYN088AAXX  04004 83096 32695 509// 10271 20232 30110 40117 85500 333 10307 29073 55019 59014;EQDQ01  00002PRCP06
0186830960999992004030412004-10917-037050FM-12+000699999V0200901N002612200019N0020001N1+02951+02331101411ADDAA106000091GF103991031011012501001001KA1240N+02411MA1999999101341MD1999999+0051REMSYN076AAXX  04124 83096 32695 30905 10295 20233 30134 40141 83100 333 20241 58005;EQDQ01  00002PRCP06
0167830960999992004030418004-10917-037050FM-12+000699999V02099999999992200019N0020001N1+02971+02371101111ADDAA106000091GF103991011011012501001011MA1999999101121MD1999999+0131REMSYN070AAXX  04184 83096 32695 309// 10297 20237 30112 40111 81101 333 58013;EQDQ01  00002PRCP06
0198830960999992004030500004-10917-037050FM-12+000699999V02099999999992200019N0020001N1+02761+02251101391ADDAA106000091GF102991021051012501001001KA1240M+03101MA1999999101321MD1999999+0221REMSYN088AAXX  05004 83096 32695 209// 10276 20225 30132 40139 82500 333 10310 29072 55107 58022;EQDQ01  00002PRCP06
0190830960999992004030512004-10917-037050FM-12+000699999V02099999999990120019N0020001N1+02811+02441101501ADDAY161061AY261061GF106991061051012501001001KA1240N+02391MA1999999101431MD1999999+0091MW1201REMSYN088AAXX  05124 83096 21695 614// 10281 20244 30143 40150 72066 86500 333 20239 58009 69924;
0148830960999992004030518004-10917-037050FM-12+000699999V02099999999992200019N0020001N1+02961+02381101301ADDAA106000021GF103991031011012501001001MA1999999101231MD1999999+0111REMSYN070AAXX  05184 83096 32695 314// 10296 20238 30123 40130 83100 333 58011;
0198830960999992004030600004-10917-037050FM-12+000699999V0200901N002612200019N0020001N1+02731+02261101421ADDAA106000091GF102991021051012501001001KA1240M+03081MA1999999101351MD1999999+0031REMSYN088AAXX  06004 83096 32695 20905 10273 20226 30135 40142 82500 333 10308 29075 55094 58003;EQDQ01  00002PRCP06
0186830960999992004030612004-10917-037050FM-12+000699999V0201401N001512200019N0020001N1+02891+02271101461ADDAA106000091GF108991041011012501001011KA1240N+02411MA1999999101391MD1999999-0041REMSYN076AAXX  06124 83096 32695 81403 10289 20227 30139 40146 84101 333 20241 59004;EQDQ01  00002PRCP06
0167830960999992004030618004-10917-037050FM-12+000699999V02099999999992200019N0020001N1+02991+02291101241ADDAA106000091GF106991031011012501001011MA1999999101171MD1999999-0061REMSYN070AAXX  06184 83096 32695 614// 10299 20229 30117 40124 83101 333 59006;EQDQ01  00002PRCP06
0198830960999992004030700004-10917-037050FM-12+000699999V0201801N001510120019N0020001N1+02651+02291101451ADDAA106000091GF108991081051012501001001KA1240M+03141MA1999999101381MD1999999+0031REMSYN088AAXX  07004 83096 32695 81803 10265 20229 30138 40145 88500 333 10314 29074 55086 58003;EQDQ01  00002PRCP06
0190830960999992004030712004-10917-037050FM-12+000699999V0201401N003110120019N0020001N1+02861+02331101511ADDAY161061AY261061GF108991081021012501001001KA1240N+02371MA1999999101441MD1999999+0051MW1211REMSYN088AAXX  07124 83096 21695 81406 10286 20233 30144 40151 72166 88200 333 20237 58005 60034;
0148830960999992004030718004-10917-037050FM-12+000699999V0201401N003110120019N0020001N1+02911+02321101241ADDAA106000021GF108991081021012501001001MA1999999101171MD1999999+0001REMSYN070AAXX  07184 83096 32695 81406 10291 20232 30117 40124 88200 333 58000;
0198830960999992004030800004-10917-037050FM-12+000699999V0201401N001512200019N0020001N1+02741+02171101561ADDAA106000091GF103991031051012501001001KA1240M+03101MA1999999101491MD1999999+0111REMSYN088AAXX  08004 83096 32695 31403 10274 20217 30149 40156 83500 333 10310 29073 55072 58011;EQDQ01  00002PRCP06
0209830960999992004030812004-10917-037050FM-12+000699999V0200501N001510075019N0020001N1+02531+02341101501ADDAY161061AY261061GF105991051051008001001001KA1240N+02261MA1999999101431MD1999999-0011MW1651REMSYN088AAXX  08124 83096 21595 50503 10253 20234 30143 40150 76566 85500 333 20226 59001 60064;EQDQ01+000652PRSWM1
0148830960999992004030818004-10917-037050FM-12+000699999V0201401N002110120019N0020001N1+02891+02211101401ADDAA106000021GF106991061011012501001001MA1999999101331MD1999999+0161REMSYN070AAXX  08184 83096 32695 61404 10289 20221 30133 40140 86100 333 58016;
0198830960999992004030900004-10917-037050FM-12+000699999V0200901N002112200019N0020001N1+02691+02161101511ADDAA106000091GF103991031051012501001001KA1240M+03041MA1999999101441MD1999999-0051REMSYN088AAXX  09004 83096 32695 30904 10269 20216 30144 40151 83500 333 10304 29076 55042 59005;EQDQ01  00002PRCP06
0190830960999992004030912004-10917-037050FM-12+000699999V0200901N002112200019N0020001N1+02891+02281101591ADDAY151061AY251061GF104991041011012501001001KA1240N+02261MA1999999101521MD1999999+0091MW1201REMSYN088AAXX  09124 83096 21695 40904 10289 20228 30152 40159 72055 84100 333 20226 58009 69964;
0148830960999992004030918004-10917-037050FM-12+000699999V0200901N002612200019N0020001N1+02971+02211101461ADDAA106000021GF102991021011012501001001MA1999999101391MD1999999+0061REMSYN070AAXX  09184 83096 32695 20905 10297 20221 30139 40146 82100 333 58006;
0198830960999992004031000004-10917-037050FM-12+000699999V0200901N002612200019N0020001N1+02711+02261101571ADDAA106000091GF101991011011012501001001KA1240M+03061MA1999999101501MD1999999+0061REMSYN088AAXX  10004 83096 32695 10905 10271 20226 30150 40157 81100 333 10306 29072 55102 58006;EQDQ01  00002PRCP06
0190830960999992004031012004-10917-037050FM-12+000699999V0200901N002610075019N0020001N1+02711+02371101571ADDAY161061AY261061GF105991051051008001001001KA1240N+02431MA1999999101501MD1999999-0021MW1601REMSYN088AAXX  10124 83096 21595 50905 10271 20237 30150 40157 76066 85500 333 20243 59002 60044;
0148830960999992004031018004-10917-037050FM-12+000699999V0200901N003110450019N0020001N1+02891+02301101291ADDAA106000021GF105991021051012501031001MA1999999101321MD1999999-0071REMSYN070AAXX  10184 83096 32695 50906 10289 20230 30132 40129 82530 333 59007;
0198830960999992004031100004-10917-037050FM-12+000699999V0200901N002112200019N0020001N1+02771+02321101411ADDAA106000091GF103991031051012501001001KA1240M+03061MA1999999101341MD1999999-0161REMSYN088AAXX  11004 83096 32695 30904 10277 20232 30134 40141 83500 333 10306 29077 55014 59016;EQDQ01  00002PRCP06
0190830960999992004031112004-10917-037050FM-12+000699999V0200901N002110450019N0020001N1+02671+02291101401ADDAY161061AY261061GF105991021051012501031001KA1240N+02281MA1999999101331MD1999999-0171MW1211REMSYN088AAXX  11124 83096 21695 50904 10267 20229 30133 40140 72166 82530 333 20228 59017 60204;
0148830960999992004031118004-10917-037050FM-12+000699999V0200901N002610120019N0020001N1+02891+02371101071ADDAA106000021GF105991051011012501001001MA1999999101001MD1999999-0321REMSYN070AAXX  11184 83096 32695 50905 10289 20237 30100 40107 85100 333 59032;
0198830960999992004031200004-10917-037050FM-12+000699999V0200901N003612200019N0020001N1+02731+02281101131ADDAA106000091GF102991021011012501001001KA1240M+03011MA1999999101061MD1999999-0281REMSYN088AAXX  12004 83096 32695 20907 10273 20228 30106 40113 82100 333 10301 29078 55070 59028;EQDQ01  00002PRCP06
0190830960999992004031212004-10917-037050FM-12+000699999V0200901N002110075019N0010001N1+02631+02371101291ADDAY161061AY261061GF106991061051008001001001KA1240N+02411MA1999999101221MD1999999-0111MW1601REMSYN088AAXX  12124 83096 21594 60904 10263 20237 30122 40129 76066 86500 333 20241 59011 60054;
0171830960999992004031218004-10917-037050FM-12+000699999V0200901N002612200019N0020001N1+02891+02411101061ADDAY151061AY251061GF102991021011012501001001MA1999999100991MD1999999-0011MW1201REMSYN082AAXX  12184 83096 21695 20905 10289 20241 30099 40106 72055 82100 333 59001 69931;
0179830960999992004031300004-10917-037050FM-12+000699999V0200901N003612200019N0020001N1+02731+02371101111ADDAA106000021GF102991021051012501001001KA1240M+02951MA1999999101041MD1999999-0021REMSYN088AAXX  13004 83096 32695 20907 10273 20237 30104 40111 82500 333 10295 29081 55055 59002;
0162830960999992004031312004-10917-037050FM-12+000699999V0200501N002112200019N0020001N1+02941+02381101291ADDGF102991021051012501001001KA1240N+02431MA1999999101221MD1999999+0001REMSYN082AAXX  13124 83096 22695 20504 10294 20238 30122 40129 82500 333 20243 58000 69934;
0167830960999992004031318004-10917-037050FM-12+000699999V0200901N003610120019N0020001N1+02891+02481101061ADDAA106000091GF105991051051012501001001MA1999999100991MD1999999+0001REMSYN070AAXX  13184 83096 32695 50907 10289 20248 30099 40106 85500 333 58000;EQDQ01  00002PRCP06
0198830960999992004031400004-10917-037050FM-12+000699999V0200901N004112200019N0020001N1+02771+02461101271ADDAA106000091GF104991041051012501001001KA1240M+03041MA1999999101201MD1999999+0161REMSYN088AAXX  14004 83096 32695 40908 10277 20246 30120 40127 84500 333 10304 29079 55071 58016;EQDQ01  00002PRCP06
0190830960999992004031412004-10917-037050FM-12+000699999V0200501N002110450019N0020001N1+02791+02441101291ADDAY161061AY261061GF105991021051012501031001KA1240N+02451MA1999999101221MD1999999+0001MW1211REMSYN088AAXX  14124 83096 21695 50504 10279 20244 30122 40129 72166 82530 333 20245 58000 60034;
0148830960999992004031418004-10917-037050FM-12+000699999V0200901N003612200019N0020001N1+02971+02471101181ADDAA106000021GF103991031011012501001001MA1999999101111MD1999999+0121REMSYN070AAXX  14184 83096 32695 30907 10297 20247 30111 40118 83100 333 58012;
0198830960999992004031500004-10917-037050FM-12+000699999V0200901N003112200019N0020001N1+02741+02281101271ADDAA106000091GF102991021011012501001001KA1240M+03061MA1999999101201MD1999999+0001REMSYN088AAXX  15004 83096 32695 20906 10274 20228 30120 40127 82100 333 10306 29077 55098 58000;EQDQ01  00002PRCP06
0186830960999992004031512004-10917-037050FM-12+000699999V0200901N003112200019N0020001N1+02961+02401101351ADDAA106000091GF102991021011012501001001KA1240N+02311MA1999999101281MD1999999+0061REMSYN076AAXX  15124 83096 32695 20906 10296 20240 30128 40135 82100 333 20231 58006;EQDQ01  00002PRCP06
0167830960999992004031518004-10917-037050FM-12+000699999V0200901N003112200019N0020001N1+02951+02451101041ADDAA106000091GF103991011011012501001011MA1999999100971MD1999999-0151REMSYN070AAXX  15184 83096 32695 30906 10295 20245 30097 40104 81101 333 59015;EQDQ01  00002PRCP06
0198830960999992004031600004-10917-037050FM-12+000699999V0200901N004112200019N0020001N1+02751+02361101181ADDAA106000091GF102991021051012501001001KA1240M+03051MA1999999101111MD1999999-0091REMSYN088AAXX  16004 83096 32695 20908 10275 20236 30111 40118 82500 333 10305 29076 55099 59009;EQDQ01  00002PRCP06
0186830960999992004031612004-10917-037050FM-12+000699999V0200901N003112200019N0020001N1+02981+02351101341ADDAA106000091GF102991021011012501001001KA1240N+02351MA1999999101271MD1999999-0011REMSYN076AAXX  16124 83096 32695 20906 10298 20235 30127 40134 82100 333 20235 59001;EQDQ01  00002PRCP06
0198830960999992004031700004-10917-037050FM-12+000699999V0200901N003112200019N0020001N1+02711+02411101121ADDAA106000091GF102991021051012501001001KA1240M+03091MA1999999101051MD1999999-0061REMSYN088AAXX  17004 83096 32695 20906 10271 20241 30105 40112 82500 333 10309 29076 55103 59006;EQDQ01  00002PRCP06
0186830960999992004031712004-10917-037050FM-12+000699999V0200501N003110120019N0020001N1+02871+02391101161ADDAA106000091GF105991051021012501001001KA1240N+02391MA1999999101091MD1999999-0181REMSYN076AAXX  17124 83096 32695 50506 10287 20239 30109 40116 85200 333 20239 59018;EQDQ01  00002PRCP06
0167830960999992004031718004-10917-037050FM-12+000699999V0200901N005112200019N0020001N1+02951+02331101301ADDAA106000091GF101991011011012501001001MA1999999101231MD1999999+0361REMSYN070AAXX  17184 83096 32695 10910 10295 20233 30123 40130 81100 333 58036;EQDQ01  00002PRCP06
0214830960999992004031800004-10917-037050FM-12+000699999V0200901N003112200019N0020001N1+02751+02391101121ADDAA106000091GF101991011051012501001001KA1240M+03121MA1999999999999MD1999999+0001REMSYN088AAXX  18004 83096 32695 10906 10275 20239 39105 40112 81500 333 10312 29075 55100 58000;EQDQ01  00002PRCP06Q02 091053APOSP 
0186830960999992004031812004-10917-037050FM-12+000699999V0200901N003612200019N0020001N1+02971+02371101211ADDAA106000091GF102991021011012501001001KA1240N+02391MA1999999101141MD1999999+0051REMSYN076AAXX  18124 83096 32695 20907 10297 20237 30114 40121 82100 333 20239 58005;EQDQ01  00002PRCP06
0167830960999992004031818004-10917-037050FM-12+000699999V0200901N005112200019N0020001N1+02971+02351100881ADDAA106000091GF101991011011012501001001MA1999999100811MD1999999-0421REMSYN070AAXX  18184 83096 32695 10910 10297 20235 30081 40088 81100 333 59042;EQDQ01  00002PRCP06
0198830960999992004031900004-10917-037050FM-12+000699999V0200901N003112200019N0020001N1+02711+02391101141ADDAA106000091GF101991011051012501001001KA1240M+03081MA1999999101071MD1999999+0021REMSYN088AAXX  19004 83096 32695 10906 10271 20239 30107 40114 81500 333 10308 29076 55103 58002;EQDQ01  00002PRCP06
0186830960999992004031912004-10917-037050FM-12+000699999V0200901N003112200019N0020001N1+02891+02371101341ADDAA106000091GF106991041051012501001011KA1240N+02391MA1999999101271MD1999999+0131REMSYN076AAXX  19124 83096 32695 60906 10289 20237 30127 40134 84501 333 20239 58013;EQDQ01  00002PRCP06
0167830960999992004031918004-10917-037050FM-12+000699999V0200901N005112200019N0020001N1+02921+02391101001ADDAA106000091GF101991011011012501001001MA1999999100931MD1999999-0121REMSYN070AAXX  19184 83096 32695 10910 10292 20239 30093 40100 81100 333 59012;EQDQ01  00002PRCP06
0198830960999992004032000004-10917-037050FM-12+000699999V0200901N003112200019N0020001N1+02711+02261101111ADDAA106000091GF102991021011012501001001KA1240M+03081MA1999999101041MD1999999-0031REMSYN088AAXX  20004 83096 32695 20906 10271 20226 30104 40111 82100 333 10308 29075 55090 59003;EQDQ01  00002PRCP06
0186830960999992004032012004-10917-037050FM-12+000699999V0200901N002112200019N0020001N1+02871+02221101291ADDAA106000091GF103991031011012501001001KA1240N+02301MA1999999101221MD1999999-0051REMSYN076AAXX  20124 83096 32695 30904 10287 20222 30122 40129 83100 333 20230 59005;EQDQ01  00002PRCP06
0167830960999992004032018004-10917-037050FM-12+000699999V0200901N005112200019N0020001N1+02971+02331101071ADDAA106000091GF101991011011012501001001MA1999999101001MD1999999+0071REMSYN070AAXX  20184 83096 32695 10910 10297 20233 30100 40107 81100 333 58007;EQDQ01  00002PRCP06
0198830960999992004032100004-10917-037050FM-12+000699999V0200901N003112200019N0020001N1+02711+02371101221ADDAA106000091GF101991011051012501001001KA1240M+03071MA1999999101151MD1999999+0111REMSYN088AAXX  21004 83096 32695 10906 10271 20237 30115 40122 81500 333 10307 29075 55106 58011;EQDQ01  00002PRCP06
0186830960999992004032112004-10917-037050FM-12+000699999V0200901N003112200019N0020001N1+02981+02371101211ADDAA106000091GF102991021011012501001001KA1240N+02391MA1999999101141MD1999999-0081REMSYN076AAXX  21124 83096 32695 20906 10298 20237 30114 40121 82100 333 20239 59008;EQDQ01  00002PRCP06
0186830960999992004032212004-10917-037050FM-12+000699999V0200901N002112200019N0020001N1+02891+02481101181ADDAA106000091GF104991021051012501031001KA1240N+02371MA1999999101111MD1999999-0031REMSYN076AAXX  22124 83096 32695 40904 10289 20248 30111 40118 82530 333 20237 59003;EQDQ01  00002PRCP06
0167830960999992004032218004-10917-037050FM-12+000699999V0200901N004110450019N0020001N1+02991+02471101081ADDAA106000091GF105991021051012501031001MA1999999101011MD1999999+0181REMSYN070AAXX  22184 83096 32695 50908 10299 20247 30101 40108 82530 333 58018;EQDQ01  00002PRCP06
0198830960999992004032300004-10917-037050FM-12+000699999V0200901N003112200019N0020001N1+02751+02401101171ADDAA106000091GF102991021011012501001001KA1240M+03121MA1999999101101MD1999999+0051REMSYN088AAXX  23004 83096 32695 20906 10275 20240 30110 40117 82100 333 10312 29079 55092 58005;EQDQ01  00002PRCP06
0186830960999992004032312004-10917-037050FM-12+000699999V0200901N002610450019N0020001N1+02951+02381101291ADDAA106000091GF105991021051012501021001KA1240N+02491MA1999999101221MD1999999+0111REMSYN076AAXX  23124 83096 32695 50905 10295 20238 30122 40129 82520 333 20249 58011;EQDQ01  00002PRCP06
0167830960999992004032318004-10917-037050FM-12+000699999V0200901N004112200019N0020001N1+02951+02381101141ADDAA106000091GF103991031011012501001001MA1999999101071MD1999999+0061REMSYN070AAXX  23184 83096 32695 30908 10295 20238 30107 40114 83100 333 58006;EQDQ01  00002PRCP06
0198830960999992004032400004-10917-037050FM-12+000699999V0200901N003112200019N0020001N1+02731+02371101191ADDAA106000091GF102991021011012501001001KA1240M+03101MA1999999101121MD1999999+0021REMSYN088AAXX  24004 83096 32695 20906 10273 20237 30112 40119 82100 333 10310 29076 55098 58002;EQDQ01  00002PRCP06
0186830960999992004032412004-10917-037050FM-12+000699999V0200901N003610450019N0020001N1+02931+02241101351ADDAA106000091GF105991021021012501021001KA1240N+02491MA1999999101281MD1999999+0061REMSYN076AAXX  24124 83096 32695 50907 10293 20224 30128 40135 82220 333 20249 58006;EQDQ01  00002PRCP06
0186830960999992004032512004-10917-037050FM-12+000699999V0200901N003612200019N0020001N1+02871+02211101311ADDAA106000091GF104991041011012501001001KA1240N+02491MA1999999101241MD1999999-0041REMSYN076AAXX  25124 83096 32695 40907 10287 20221 30124 40131 84100 333 20249 59004;EQDQ01  00002PRCP06
0167830960999992004032518004-10917-037050FM-12+000699999V0200901N003112200019N0020001N1+02951+02161101121ADDAA106000091GF102991021011012501001001MA1999999101051MD1999999+0001REMSYN070AAXX  25184 83096 32695 20906 10295 20216 30105 40112 82100 333 58000;EQDQ01  00002PRCP06
0198830960999992004032600004-10917-037050FM-12+000699999V0200901N003112200019N0020001N1+02731+02241101331ADDAA106000091GF102991021011012501001001KA1240M+03061MA1999999101261MD1999999+0041REMSYN088AAXX  26004 83096 32695 20906 10273 20224 30126 40133 82100 333 10306 29070 55099 58004;EQDQ01  00002PRCP06
0186830960999992004032612004-10917-037050FM-12+000699999V0200901N003112200019N0020001N1+02931+02361101311ADDAA106000091GF102991021011012501001001KA1240N+02491MA1999999101241MD1999999+0001REMSYN076AAXX  26124 83096 32695 20906 10293 20236 30124 40131 82100 333 20249 58000;EQDQ01  00002PRCP06
0171830960999992004032618004-10917-037050FM-12+000699999V0200901N002610450019N0010001N1+02721+02481101141ADDAY161061AY261061GF105991031051008001031001MA1999999101071MD1999999+0021MW1601REMSYN082AAXX  26184 83096 21594 50905 10272 20248 30107 40114 76066 83530 333 58002 60031;
0202830960999992004032700004-10917-037050FM-12+000699999V0200901N002112200019N0020001N1+02711+02281101211ADDAY151061AY251061GF103991031051012501001001KA1240M+03061MA1999999101141MD1999999-0121MW1201REMSYN100AAXX  27004 83096 21695 30904 10271 20228 30114 40121 72055 83500 333 10306 29079 55071 59012 69961;
0162830960999992004032712004-10917-037050FM-12+000699999V0200901N003612200019N0020001N1+02931+02341101211ADDGF102991021011012501001001KA1240N+02511MA1999999101141MD1999999-0101REMSYN082AAXX  27124 83096 22695 20907 10293 20234 30114 40121 82100 333 20251 59010 60034;
0167830960999992004032718004-10917-037050FM-12+000699999V0200901N002112200019N0020001N1+02981+02331101121ADDAA106000091GF102991021011012501001001MA1999999101051MD1999999-0021REMSYN070AAXX  27184 83096 32695 20904 10298 20233 30105 40112 82100 333 59002;EQDQ01  00002PRCP06
0202830960999992004032800004-10917-037050FM-12+000699999V0200901N003112200019N0020001N1+02671+02391101191ADDAY161061AY261061GF103991031051012501001001KA1240M+03101MA1999999101121MD1999999-0021MW1211REMSYN100AAXX  28004 83096 21695 30906 10267 20239 30112 40119 72166 83500 333 10310 29077 55108 59002 60021;
0190830960999992004032812004-10917-037050FM-12+000699999V0200901N003112200019N0020001N1+02931+02221101291ADDAY151061AY251061GF103991031011012501001001KA1240N+02511MA1999999101221MD1999999+0081MW1201REMSYN088AAXX  28124 83096 21695 30906 10293 20222 30122 40129 72055 83100 333 20251 58008 60024;
0148830960999992004032818004-10917-037050FM-12+000699999V0200901N002112200019N0020001N1+02971+02331101111ADDAA106000021GF102991021011012501001001MA1999999101071MD1999999+0021REMSYN070AAXX  28184 83096 32695 20904 10297 20233 30107 40111 82100 333 58002;
0198830960999992004032900004-10917-037050FM-12+000699999V0201401N001512200019N0020001N1+02711+02281101271ADDAA106000091GF103991031051012501001001KA1240M+03081MA1999999101201MD1999999+0081REMSYN088AAXX  29004 83096 32695 31403 10271 20228 30120 40127 83500 333 10308 29073 55088 58008;EQDQ01  00002PRCP06
0186830960999992004032912004-10917-037050FM-12+000699999V0201401N002612200019N0020001N1+02971+02331101491ADDAA106000091GF102991021011012501001001KA1240N+02411MA1999999101421MD1999999+0201REMSYN076AAXX  29124 83096 32695 21405 10297 20233 30142 40149 82100 333 20241 58020;EQDQ01  00002PRCP06
0167830960999992004032918004-10917-037050FM-12+000699999V0201401N002612200019N0020001N1+02991+02321101251ADDAA106000091GF103991031011012501001001MA1999999101081MD1999999+0111REMSYN070AAXX  29184 83096 32695 31405 10299 20232 30108 40125 83100 333 58011;EQDQ01  00002PRCP06
0198830960999992004033000004-10917-037050FM-12+000699999V0201401N001012200019N0020001N1+02711+02301101501ADDAA106000091GF103991031051012501001001KA1240M+03161MA1999999101431MD1999999+0231REMSYN088AAXX  30004 83096 32695 31402 10271 20230 30143 40150 83500 333 10316 29073 55097 58023;EQDQ01  00002PRCP06
0190830960999992004033012004-10917-037050FM-12+000699999V0201401N001510075019N0020001N1+02811+02271101611ADDAY161061AY261061GF106991061051008001001001KA1240N+02371MA1999999101541MD1999999+0121MW1201REMSYN088AAXX  30124 83096 21595 61403 10281 20227 30154 40161 72066 86500 333 20237 58012 69964;
0148830960999992004033018004-10917-037050FM-12+000699999V0201401N002610120019N0020001N1+02941+02261101341ADDAA106000021GF108991061011012501001011MA1999999101271MD1999999+0091REMSYN070AAXX  30184 83096 32695 81405 10294 20226 30127 40134 86101 333 58009;
0198830960999992004033100004-10917-037050FM-12+000699999V0201401N003112200019N0020001N1+02731+02191101541ADDAA106000091GF101991011051012501001001KA1240M+03151MA1999999101471MD1999999+0041REMSYN088AAXX  31004 83096 32695 11406 10273 20219 30147 40154 81500 333 10315 29073 55078 58004;EQDQ01  00002PRCP06
0186830960999992004033112004-10917-037050FM-12+000699999V0200901N001510120019N0020001N1+02931+02361101531ADDAA106000091GF105991051011012501001001KA1240N+02221MA1999999101461MD1999999-0081REMSYN076AAXX  31124 83096 32695 50903 10293 20236 30146 40153 85100 333 20222 59008;EQDQ01  00002PRCP06
0167830960999992004033118004-10917-037050FM-12+000699999V0201401N003112200019N0020001N1+02961+02311101191ADDAA106000091GF102991011011012501001011MA1999999101121MD1999999-0151REMSYN070AAXX  31184 83096 32695 21406 10296 20231 30112 40119 81101 333 59015;EQDQ01  00002PRCP06
0198830960999992004040100004-10917-037050FM-12+000699999V0201401N003112200019N0020001N1+02731+02191101331ADDAA106000091GF102991021011012501001001KA1240M+03121MA1999999101261MD1999999-0211REMSYN088AAXX  01004 83096 32695 21406 10273 20219 30126 40133 82100 333 10312 29071 55106 59021;EQDQ01  00002PRCP06
0186830960999992004040112004-10917-037050FM-12+000699999V0200901N003112200019N0020001N1+02911+02361101521ADDAA106000091GF105991031011012501001011KA1240N+02411MA1999999101451MD1999999-0011REMSYN076AAXX  01124 83096 32695 50906 10291 20236 30145 40152 83101 333 20241 59001;EQDQ01  00002PRCP06
0167830960999992004040118004-10917-037050FM-12+000699999V0200901N003112200019N0020001N1+02951+02331101231ADDAA106000091GF103991021011012501001011MA1999999101161MD1999999+0041REMSYN070AAXX  01184 83096 32695 30906 10295 20233 30116 40123 82101 333 58004;EQDQ01  00002PRCP06
0167830960999992004040218004-10917-037050FM-12+000699999V0201401N003112200019N0020001N1+02961+02331101261ADDAA106000091GF103991021011012501001011MA1999999101191MD1999999+0031REMSYN070AAXX  02184 83096 32695 31406 10296 20233 30119 40126 82101 333 58003;EQDQ01  00002PRCP06
0198830960999992004040300004-10917-037050FM-12+000699999V0200901N003110120019N0020001N1+02741+02281101401ADDAA106000091GF105991051051012501001001KA1240M+03141MA1999999101331MD1999999+0081REMSYN088AAXX  03004 83096 32695 50906 10274 20228 30133 40140 85500 333 10314 29072 55083 58008;EQDQ01  00002PRCP06
0190830960999992004040512004-10917-037050FM-12+000699999V0203601N001510120019N0020001N1+02731+02391101501ADDAY161061AY261061GF106991061051012501001001KA1240N+02371MA1999999101431MD1999999-0181MW1211REMSYN088AAXX  05124 83096 21695 63603 10273 20239 30143 40150 72166 86500 333 20237 59018 60104;
0148830960999992004040518004-10917-037050FM-12+000699999V0201401N002612200019N0020001N1+02991+02171101381ADDAA106000021GF102991021011012501001001MA1999999101311MD1999999+0061REMSYN070AAXX  05184 83096 32695 21405 10299 20217 30131 40138 82100 333 58006;
0190830960999992004040612004-10917-037050FM-12+000699999V0200501N001510120019N0020001N1+02711+02371101411ADDAY161061AY261061GF105991051051012501001001KA1240N+02351MA1999999101341MD1999999-0091MW1211REMSYN088AAXX  06124 83096 21695 50503 10271 20237 30134 40141 72166 85500 333 20235 59009 60024;
0148830960999992004040618004-10917-037050FM-12+000699999V0200901N002610120019N0020001N1+02921+02361101211ADDAA106000021GF106991061011012501001001MA1999999101171MD1999999-0141REMSYN070AAXX  06184 83096 32695 60905 10292 20236 30117 40121 86100 333 59014;
0214830960999992004040700004-10917-037050FM-12+000699999V0200901N002612200019N0020001N1+02731+02261101271ADDAA106000091GF102991999011012501001001KA1240M+03021MA1999999101201MD1999999-0141REMSYN088AAXX  07004 83096 32695 20905 10273 20226 30120 40127 83100 333 10302 29076 55060 59014;EQDQ01+000032SCOTLCQ02  00002PRCP06
0186830960999992004040712004-10917-037050FM-12+000699999V0200901N002610450019N0020001N1+02751+02381101331ADDAA106000091GF105991031051012501031001KA1240N+02451MA1999999101261MD1999999-0081REMSYN076AAXX  07124 83096 32695 50905 10275 20238 30126 40133 83530 333 20245 59008;EQDQ01  00002PRCP06
0167830960999992004040718004-10917-037050FM-12+000699999V0200901N002612200019N0020001N1+02931+02241101221ADDAA106000091GF104991041011012501001001MA1999999101151MD1999999-0021REMSYN070AAXX  07184 83096 32695 40905 10293 20224 30115 40122 84100 333 59002;EQDQ01  00002PRCP06
0198830960999992004040800004-10917-037050FM-12+000699999V0200901N004112200019N0020001N1+02731+02391101271ADDAA106000091GF103991031051012501001001KA1240M+03081MA1999999101201MD1999999+0001REMSYN088AAXX  08004 83096 32695 30908 10273 20239 30120 40127 83500 333 10308 29078 55052 58000;EQDQ01  00002PRCP06
0190830960999992004040812004-10917-037050FM-12+000699999V0200901N002610450019N0020001N1+02671+02441101391ADDAY161061AY261061GF106991031051012501031001KA1240N+02471MA1999999101321MD1999999+0061MW1211REMSYN088AAXX  08124 83096 21695 60905 10267 20244 30132 40139 72166 83530 333 20247 58006 60024;
0148830960999992004040818004-10917-037050FM-12+000699999V0200901N003610450019N0020001N1+02851+02351101271ADDAA106000021GF106991031051012501031001MA1999999101201MD1999999+0051REMSYN070AAXX  08184 83096 32695 60907 10285 20235 30120 40127 83530 333 58005;
0198830960999992004040900004-10917-037050FM-12+000699999V0200901N005110120019N0020001N1+02731+02281101421ADDAA106000091GF105991051011012501001001KA1240M+03041MA1999999101351MD1999999+0151REMSYN088AAXX  09004 83096 32695 50910 10273 20228 30135 40142 85100 333 10304 29079 55041 58015;EQDQ01  00002PRCP06
0186830960999992004040912004-10917-037050FM-12+000699999V0200901N002612200019N0020001N1+02891+02321101471ADDAA106000091GF104991041011012501001001KA1240N+02331MA1999999101401MD1999999+0081REMSYN076AAXX  09124 83096 32695 40905 10289 20232 30140 40147 84100 333 20233 58008;EQDQ01  00002PRCP06
0167830960999992004040918004-10917-037050FM-12+000699999V0200901N002612200019N0020001N1+02911+02301101311ADDAA106000091GF103991031011012501001001MA1999999101241MD1999999+0041REMSYN070AAXX  09184 83096 32695 30905 10291 20230 30124 40131 83100 333 58004;EQDQ01  00002PRCP06
0198830960999992004041000004-10917-037050FM-12+000699999V0200901N002612200019N0020001N1+02631+02311101331ADDAA106000091GF103991031011012501001001KA1240M+03051MA1999999101261MD1999999+0091REMSYN088AAXX  10004 83096 32695 30905 10263 20231 30126 40133 83100 333 10305 29077 55098 58009;EQDQ01  00002PRCP06
0190830960999992004041012004-10917-037050FM-12+000699999V0200501N001512200019N0020001N1+02811+02361101271ADDAY161061AY261061GF104991041011012501001001KA1240N+02331MA1999999101201MD1999999-0201MW1211REMSYN088AAXX  10124 83096 21695 40503 10281 20236 30120 40127 72166 84100 333 20233 59020 60034;
0148830960999992004041018004-10917-037050FM-12+000699999V0201401N001512200019N0020001N1+02941+02311100931ADDAA106000021GF102991021011012501001001MA1999999100861MD1999999-0381REMSYN070AAXX  10184 83096 32695 21403 10294 20231 30086 40093 82100 333 59038;
0198830960999992004041100004-10917-037050FM-12+000699999V0200901N002112200019N0020001N1+02691+02281100991ADDAA106000091GF102991021011012501001001KA1240M+03071MA1999999100921MD1999999-0341REMSYN088AAXX  11004 83096 32695 20904 10269 20228 30092 40099 82100 333 10307 29076 55099 59034;EQDQ01  00002PRCP06
0186830960999992004041112004-10917-037050FM-12+000699999V0200901N002612200019N0020001N1+02951+02361101051ADDAA106000091GF103991031011012501001001KA1240N+02351MA1999999100981MD1999999-0221REMSYN076AAXX  11124 83096 32695 30905 10295 20236 30098 40105 83100 333 20235 59022;EQDQ01  00002PRCP06
0167830960999992004041118004-10917-037050FM-12+000699999V0200901N003112200019N0020001N1+02971+02331100871ADDAA106000091GF102991021011012501001001MA1999999100801MD1999999-0061REMSYN070AAXX  11184 83096 32695 20906 10297 20233 30080 40087 82100 333 59006;EQDQ01  00002PRCP06
0198830960999992004041200004-10917-037050FM-12+000699999V0200901N003112200019N0020001N1+02751+02381100951ADDAA106000091GF104991041051012501001001KA1240M+03061MA1999999100881MD1999999-0041REMSYN088AAXX  12004 83096 32695 40906 10275 20238 30088 40095 84500 333 10306 29075 55100 59004;EQDQ01  00002PRCP06
0186830960999992004041212004-10917-037050FM-12+000699999V0200901N003112200019N0020001N1+02981+02471101211ADDAA106000091GF103991031011012501001001KA1240N+02411MA1999999101141MD1999999+0161REMSYN076AAXX  12124 83096 32695 30906 10298 20247 30114 40121 83100 333 20241 58016;EQDQ01  00002PRCP06
0167830960999992004041218004-10917-037050FM-12+000699999V0200901N005112200019N0020001N1+02911+02451100951ADDAA106000091GF106991021011012501001011MA1999999100881MD1999999+0081REMSYN070AAXX  12184 83096 32695 60910 10291 20245 30088 40095 82101 333 58008;EQDQ01  00002PRCP06
0198830960999992004041300004-10917-037050FM-12+000699999V0200901N003112200019N0020001N1+02751+02361101231ADDAA106000091GF103991031051012501001001KA1240M+03121MA1999999101161MD1999999+0281REMSYN088AAXX  13004 83096 32695 30906 10275 20236 30116 40123 83500 333 10312 29077 55070 58028;EQDQ01  00002PRCP06
0186830960999992004041312004-10917-037050FM-12+000699999V0201401N001510120019N0020001N1+02991+02421101391ADDAA106000091GF105991051011012501001001KA1240N+02411MA1999999101321MD1999999+0181REMSYN076AAXX  13124 83096 32695 51403 10299 20242 30132 40139 85100 333 20241 58018;EQDQ01  00002PRCP06
0167830960999992004041318004-10917-037050FM-12+000699999V02099999999992200019N0020001N1+03011+02411101031ADDAA106000091GF103991031011012501001011MA1999999100961MD1999999+0081REMSYN070AAXX  13184 83096 32695 309// 10301 20241 30096 40103 83101 333 58008;EQDQ01  00002PRCP06
0202830960999992004041400004-10917-037050FM-12+000699999V0201401N002610120019N0020001N1+02751+02421101411ADDAY161061AY261061GF108991081051012501001001KA1240M+03131MA1999999101341MD1999999+0181MW1201REMSYN100AAXX  14004 83096 21695 81405 10275 20242 30134 40141 72066 88500 333 10313 29076 55103 58018 69921;
0190830960999992004041412004-10917-037050FM-12+000699999V0202301N001010120019N0020001N1+02601+02421101471ADDAY161061AY261061GF108991081021012501001001KA1240N+02301MA1999999101401MD1999999+0081MW1211REMSYN088AAXX  14124 83096 21695 82302 10260 20242 30140 40147 72166 88200 333 20230 58008 60124;
0148830960999992004041418004-10917-037050FM-12+000699999V0200901N003112200019N0020001N1+02901+02271101161ADDAA106000021GF105991021011012501001011MA1999999101091MD1999999+0131REMSYN070AAXX  14184 83096 32695 50906 10290 20227 30109 40116 82101 333 58013;
0198830960999992004041500004-10917-037050FM-12+000699999V0201401N001012200019N0020001N1+02651+02071101351ADDAA106000091GF101991011051012501001001KA1240M+03021MA1999999101281MD1999999-0061REMSYN088AAXX  15004 83096 32695 11402 10265 20207 30128 40135 81500 333 10302 29075 55050 59006;EQDQ01  00002PRCP06
0186830960999992004041512004-10917-037050FM-12+000699999V0201401N001512200019N0020001N1+02951+02351101471ADDAA106000091GF103991031011012501001001KA1240N+02401MA1999999101401MD1999999+0001REMSYN076AAXX  15124 83096 32695 31403 10295 20235 30140 40147 83100 333 20240 58000;EQDQ01  00002PRCP06
0167830960999992004041518004-10917-037050FM-12+000699999V0201401N002612200019N0020001N1+02921+02221101071ADDAA106000091GF103991021011012501001011MA1999999101001MD1999999-0091REMSYN070AAXX  15184 83096 32695 31405 10292 20222 30100 40107 82101 333 59009;EQDQ01  00002PRCP06
0198830960999992004041600004-10917-037050FM-12+000699999V02099999999992200019N0020001N1+02731+02211101341ADDAA106000091GF102991021051012501001001KA1240M+03071MA1999999101271MD1999999-0011REMSYN088AAXX  16004 83096 32695 214// 10273 20221 30127 40134 82500 333 10307 29070 55103 59001;EQDQ01  00002PRCP06
0186830960999992004041612004-10917-037050FM-12+000699999V0200901N001512200019N0020001N1+02951+02351101511ADDAA106000091GF105991031011012501001011KA1240N+02411MA1999999101441MD1999999+0041REMSYN076AAXX  16124 83096 32695 50903 10295 20235 30144 40151 83101 333 20241 58004;EQDQ01  00002PRCP06
0167830960999992004041618004-10917-037050FM-12+000699999V0200901N003112200019N0020001N1+02931+02311101291ADDAA106000091GF103991021011012501001011MA1999999101221MD1999999+0221REMSYN070AAXX  16184 83096 32695 30906 10293 20231 30122 40129 82101 333 58022;EQDQ01  00002PRCP06
0198830960999992004041700004-10917-037050FM-12+000699999V0200901N002612200019N0020001N1+02661+02371101551ADDAA106000091GF102991021051012501001001KA1240M+03061MA1999999101481MD1999999+0211REMSYN088AAXX  17004 83096 32695 20905 10266 20237 30148 40155 82500 333 10306 29077 55107 58021;EQDQ01  00002PRCP06
0190830960999992004041712004-10917-037050FM-12+000699999V0201401N003112200019N0020001N1+02941+02361101641ADDAY161061AY261061GF103991021011012501001011KA1240N+02411MA1999999101571MD1999999+0131MW1201REMSYN088AAXX  17124 83096 21695 31406 10294 20236 30157 40164 72066 82101 333 20241 58013 60024;
0148830960999992004041718004-10917-037050FM-12+000699999V0200901N003112200019N0020001N1+02901+02341101401ADDAA106000021GF108991041011012501001011MA1999999101331MD1999999+0111REMSYN070AAXX  17184 83096 32695 80906 10290 20234 30133 40140 84101 333 58011;
0198830960999992004041800004-10917-037050FM-12+000699999V02099999999992200019N0020001N1+02721+02281101561ADDAA106000091GF103991031051012501001001KA1240M+03051MA1999999101491MD1999999+0011REMSYN088AAXX  18004 83096 32695 314// 10272 20228 30149 40156 83500 333 10305 29074 55088 58001;EQDQ01  00002PRCP06
0190830960999992004041812004-10917-037050FM-12+000699999V0200901N005110075019N0020001N1+02571+02291101661ADDAY161061AY261061GF108991081051008001001001KA1240N+02421MA1999999101591MD1999999+0021MW1601REMSYN088AAXX  18124 83096 21595 80910 10257 20229 30159 40166 76066 88500 333 20242 58002 60044;
0171830960999992004041818004-10917-037050FM-12+000699999V0201401N001512200019N0020001N1+02771+02361101331ADDAY161061AY261061GF108991041011012501001011MA1999999101261MD1999999-0071MW1201REMSYN082AAXX  18184 83096 21695 81403 10277 20236 30126 40133 72066 84101 333 59007 60031;
0179830960999992004041900004-10917-037050FM-12+000699999V0201401N001510120019N0020001N1+02671+02281101531ADDAA106000021GF105991051051012501001001KA1240M+03061MA1999999101461MD1999999-0031REMSYN088AAXX  19004 83096 32695 51403 10267 20228 30146 40153 85500 333 10306 29080 55060 59003;
0190830960999992004041912004-10917-037050FM-12+000699999V0200901N002110450019N0020001N1+02611+02251101581ADDAY161061AY261061GF106991031051012501031001KA1240N+02411MA1999999101511MD1999999-0081MW1211REMSYN088AAXX  19124 83096 21695 60904 10261 20225 30151 40158 72166 83530 333 20241 59008 60064;
0148830960999992004041918004-10917-037050FM-12+000699999V0200901N002610450019N0020001N1+02811+02201101251ADDAA106000021GF106991031051012501031001MA1999999101181MD1999999-0081REMSYN070AAXX  19184 83096 32695 60905 10281 20220 30118 40125 83530 333 59008;
0190830960999992004042012004-10917-037050FM-12+000699999V0200901N002612200019N0020001N1+02811+02251101471ADDAY151061AY251061GF103991031011012501001001KA1240N+02491MA1999999101401MD1999999-0111MW1501REMSYN088AAXX  20124 83096 21695 30905 10281 20225 30140 40147 75055 83100 333 20249 59011 69924;
0148830960999992004042018004-10917-037050FM-12+000699999V0200901N002110120019N0020001N1+02871+02231101281ADDAA106000021GF105991051011012501001001MA1999999101211MD1999999+0031REMSYN070AAXX  20184 83096 32695 50904 10287 20223 30121 40128 85100 333 58003;
0198830960999992004042100004-10917-037050FM-12+000699999V0200901N002112200019N0020001N1+02671+02091101371ADDAA106000091GF102991021011012501001001KA1240M+03041MA1999999101301MD1999999+0001REMSYN088AAXX  21004 83096 32695 20904 10267 20209 30130 40137 82100 333 10304 29071 55073 58000;EQDQ01  00002PRCP06
0186830960999992004042112004-10917-037050FM-12+000699999V0201401N001510120019N0020001N1+02791+02251101491ADDAA106000091GF105991051011012501001001KA1240N+02251MA1999999101421MD1999999+0021REMSYN076AAXX  21124 83096 32695 51403 10279 20225 30142 40149 85100 333 20225 58002;EQDQ01  00002PRCP06
0167830960999992004042118004-10917-037050FM-12+000699999V0200901N002110120019N0020001N1+02891+02251101301ADDAA106000091GF105991051011012501001001MA1999999101231MD1999999+0021REMSYN070AAXX  21184 83096 32695 50904 10289 20225 30123 40130 85100 333 58002;EQDQ01  00002PRCP06
0202830960999992004042200004-10917-037050FM-12+000699999V0200901N002112200019N0020001N1+02691+02331101471ADDAY151061AY251061GF102991021051012501001001KA1240M+03041MA1999999101401MD1999999+0101MW1201REMSYN100AAXX  22004 83096 21695 20904 10269 20233 30140 40147 72055 82500 333 10304 29076 55046 58010 69961;
0190830960999992004042212004-10917-037050FM-12+000699999V0201401N003112200019N0020001N1+02831+02271101291ADDAY161061AY261061GF103991031051012501001001KA1240N+02471MA1999999101321MD1999999-0101MW1211REMSYN088AAXX  22124 83096 21695 31406 10283 20227 30132 40129 72166 83500 333 20247 59010 60044;
0148830960999992004042218004-10917-037050FM-12+000699999V0201401N002112200019N0020001N1+02951+02161101241ADDAA106000021GF102991021011012501001001MA1999999101171MD1999999-0061REMSYN070AAXX  22184 83096 32695 21404 10295 20216 30117 40124 82100 333 59006;
0198830960999992004042300004-10917-037050FM-12+000699999V0200901N002112200019N0020001N1+02691+02221101271ADDAA106000091GF103991031011012501001001KA1240M+03061MA1999999101201MD1999999-0201REMSYN088AAXX  23004 83096 32695 30904 10269 20222 30120 40127 83100 333 10306 29072 55094 59020;EQDQ01  00002PRCP06
0186830960999992004042312004-10917-037050FM-12+000699999V0201401N002112200019N0020001N1+02891+02281101271ADDAA106000091GF104991041011012501001001KA1240N+02451MA1999999101201MD1999999-0121REMSYN076AAXX  23124 83096 32695 41404 10289 20228 30120 40127 84100 333 20245 59012;EQDQ01  00002PRCP06
0167830960999992004042318004-10917-037050FM-12+000699999V0201401N002612200019N0020001N1+02871+02261101081ADDAA106000091GF102991021011012501001001MA1999999101011MD1999999-0161REMSYN070AAXX  23184 83096 32695 21405 10287 20226 30101 40108 82100 333 59016;EQDQ01  00002PRCP06
0202830960999992004042400004-10917-037050FM-12+000699999V0200901N003612200019N0020001N1+02631+02351101091ADDAY151061AY251061GF103991031051012501001001KA1240M+03041MA1999999101021MD1999999-0181MW1201REMSYN100AAXX  24004 83096 21695 30907 10263 20235 30102 40109 72055 83500 333 10304 29077 55101 59018 69921;
0190830960999992004042412004-10917-037050FM-12+000699999V0201401N001510120019N0020001N1+02631+02411101181ADDAY161061AY261061GF105991051051012501001001KA1240N+02371MA1999999101111MD1999999-0091MW1211REMSYN088AAXX  24124 83096 21695 51403 10263 20241 30111 40118 72166 85500 333 20237 59009 60074;
0171830960999992004042418004-10917-037050FM-12+000699999V0200901N003112200019N0020001N1+02891+02251101051ADDAY151061AY251061GF102991021011012501001001MA1999999100981MD1999999-0031MW1201REMSYN082AAXX  24184 83096 21695 20906 10289 20225 30098 40105 72055 82100 333 59003 69961;
0162830960999992004042512004-10917-037050FM-12+000699999V0200901N001512200019N0020001N1+02851+02311101271ADDGF103991031011012501001001KA1240N+02261MA1999999101201MD1999999+0091REMSYN082AAXX  25124 83096 22695 30903 10285 20231 30120 40127 83100 333 20226 58009 69964;
0167830960999992004042518004-10917-037050FM-12+000699999V0200901N003112200019N0020001N1+02951+02311101051ADDAA106000091GF101991011011012501001001MA1999999100981MD1999999+0001REMSYN070AAXX  25184 83096 32695 10906 10295 20231 30098 40105 81100 333 58000;EQDQ01  00002PRCP06
0182830960999992004042600004-10917-037050FM-12+000699999V0200901N003112200019N0020001N1+02711+02301999999ADDAA106000091GF102991999999012501999999KA1240M+03071MA1999999101201REMSYN086AAXX  26004 83096 32695 20906 10271 20230 30120 401 82100 333 10307 29075 55099 58018;EQDQ01  00002PRCP06
0186830960999992004042612004-10917-037050FM-12+000699999V0200901N001512200019N0020001N1+02941+02431101401ADDAA106000091GF102991021011012501001001KA1240N+02391MA1999999101331MD1999999+0131REMSYN076AAXX  26124 83096 32695 20903 10294 20243 30133 40140 82100 333 20239 58013;EQDQ01  00002PRCP06
0167830960999992004042618004-10917-037050FM-12+000699999V0200901N003112200019N0020001N1+02901+02431101161ADDAA106000091GF105991031011012501001011MA1999999101091MD1999999+0111REMSYN070AAXX  26184 83096 32695 50906 10290 20243 30109 40116 83101 333 58011;EQDQ01  00002PRCP06
0198830960999992004042700004-10917-037050FM-12+000699999V0200901N002612200019N0020001N1+02741+02361101471ADDAA106000091GF103991031051012501001001KA1240M+03061MA1999999101401MD1999999+0201REMSYN088AAXX  27004 83096 32695 30905 10274 20236 30140 40147 83500 333 10306 29078 55102 58020;EQDQ01  00002PRCP06
0190830960999992004042712004-10917-037050FM-12+000699999V0200901N003110120019N0020001N1+02881+02411101541ADDAY161061AY261061GF105991051051012501001001KA1240N+02431MA1999999101471MD1999999+0141MW1211REMSYN088AAXX  27124 83096 21695 50906 10288 20241 30147 40154 72166 85500 333 20243 58014 60114;
0148830960999992004042718004-10917-037050FM-12+000699999V0200901N005112200019N0020001N1+02891+02391101271ADDAA106000021GF102991021011012501001001MA1999999101201MD1999999+0111REMSYN070AAXX  27184 83096 32695 20910 10289 20239 30120 40127 82100 333 58011;
0198830960999992004042800004-10917-037050FM-12+000699999V0200901N002612200019N0020001N1+02721+02281101611ADDAA106000091GF102991021051012501001001KA1240M+03041MA1999999101541MD1999999+0141REMSYN088AAXX  28004 83096 32695 20905 10272 20228 30154 40161 82500 333 10304 29076 55088 58014;EQDQ01  00002PRCP06
0186830960999992004042812004-10917-037050FM-12+000699999V0200901N003112200019N0020001N1+02921+02341101681ADDAA106000091GF103991031011012501001001KA1240N+02331MA1999999101611MD1999999+0141REMSYN076AAXX  28124 83096 32695 30906 10292 20234 30161 40168 83100 333 20233 58014;EQDQ01  00002PRCP06
0167830960999992004042818004-10917-037050FM-12+000699999V0200901N003112200019N0020001N1+02911+02341101341ADDAA106000091GF102991021011012501001001MA1999999101271MD1999999+0071REMSYN070AAXX  28184 83096 32695 20906 10291 20234 30127 40134 82100 333 58007;EQDQ01  00002PRCP06
0198830960999992004042900004-10917-037050FM-12+000699999V0200901N003110120019N0020001N1+02731+02301101601ADDAA106000091GF105991051051012501001001KA1240M+03061MA1999999101531MD1999999-0101REMSYN088AAXX  29004 83096 32695 50906 10273 20230 30153 40160 85500 333 10306 29074 55090 59010;EQDQ01  00002PRCP06
0186830960999992004042912004-10917-037050FM-12+000699999V02099999999992200019N0020001N1+02931+02241101681ADDAA106000091GF103991031011012501001001KA1240N+02301MA1999999101611MD1999999+0001REMSYN076AAXX  29124 83096 32695 309// 10293 20224 30161 40168 83100 333 20230 58000;EQDQ01  00002PRCP06
0167830960999992004042918004-10917-037050FM-12+000699999V0201401N003112200019N0020001N1+02901+02201101261ADDAA106000091GF102991021011012501001001MA1999999101191MD1999999-0091REMSYN070AAXX  29184 83096 32695 21406 10290 20220 30119 40126 82100 333 59009;EQDQ01  00002PRCP06
0198830960999992004043000004-10917-037050FM-12+000699999V0200901N002612200019N0020001N1+02701+02111101481ADDAA106000091GF102991021051012501001001KA1240M+03021MA1999999101411MD1999999-0121REMSYN088AAXX  30004 83096 32695 20905 10270 20211 30141 40148 82500 333 10302 29068 55105 59012;EQDQ01  00002PRCP06
0186830960999992004043012004-10917-037050FM-12+000699999V0202301N002110120019N0020001N1+02571+02311101511ADDAA106000091GF106991061051012501001001KA1240N+02261MA1999999101441MD1999999-0171REMSYN076AAXX  30124 83096 32695 62304 10257 20231 30144 40151 86500 333 20226 59017;EQDQ01  00002PRCP06
0171830960999992004043018004-10917-037050FM-12+000699999V0201801N002110450019N0020001N1+02831+02291101251ADDAY161061AY261061GF105991021051012501031001MA1999999101181MD1999999-0011MW1601REMSYN082AAXX  30184 83096 21695 51804 10283 20229 30118 40125 76066 82530 333 59001 60131;
0221830960999992004050100004-10917-037050FM-12+000699999V0200901N003119999999N0020001N1+02451+02271101401ADDAY161061AY261061GF106991999061008001051001KA1240M+02961MA1999999101331MD1999999-0081MW1601REMSYN100AAXX  01004 83096 21595 60906 10245 20227 30133 40140 76066 88650 333 10296 29085 55062 59008 60141;EQDQ01+000082SCOTLC
0190830960999992004050112004-10917-037050FM-12+000699999V0200901N001012200019N0020001N1+02701+02411101571ADDAY161061AY261061GF106991041051012501001011KA1240N+02261MA1999999101501MD1999999+0061MW1211REMSYN088AAXX  01124 83096 21695 60902 10270 20241 30150 40157 72166 84501 333 20226 58006 60504;
0148830960999992004050118004-10917-037050FM-12+000699999V0200901N005112200019N0020001N1+02871+02321101191ADDAA106000021GF102991021011012501001001MA1999999101121MD1999999-0061REMSYN070AAXX  01184 83096 32695 20910 10287 20232 30112 40119 82100 333 59006;
0198830960999992004050200004-10917-037050FM-12+000699999V02099999999990120019N0020001N1+02551+02331101431ADDAA106000091GF108991081051012501001001KA1240M+03011MA1999999101361MD1999999+0031REMSYN088AAXX  02004 83096 32695 805// 10255 20233 30136 40143 88500 333 10301 29083 55084 58003;EQDQ01  00002PRCP06
0190830960999992004050212004-10917-037050FM-12+000699999V0200901N003112200019N0020001N1+02851+02191101551ADDAY161061AY261061GF103991031011012501001001KA1240N+02351MA1999999101481MD1999999-0021MW1201REMSYN088AAXX  02124 83096 21695 30906 10285 20219 30148 40155 72066 83100 333 20235 59002 60034;
0148830960999992004050218004-10917-037050FM-12+000699999V0201401N002612200019N0020001N1+02871+02101101331ADDAA106000021GF101991011011012501001001MA1999999101261MD1999999+0141REMSYN070AAXX  02184 83096 32695 11405 10287 20210 30126 40133 81100 333 58014;
0198830960999992004050300004-10917-037050FM-12+000699999V02099999999990120019N0020001N1+02671+02331101481ADDAA106000091GF105991051051012501001001KA1240M+03021MA1999999101411MD1999999+0051REMSYN088AAXX  03004 83096 32695 509// 10267 20233 30141 40148 85500 333 10302 29072 55104 58005;EQDQ01  00002PRCP06
0186830960999992004050312004-10917-037050FM-12+000699999V0201401N002112200019N0020001N1+02831+02021101571ADDAA106000091GF103991031011012501001001KA1240N+02451MA1999999101501MD1999999+0021REMSYN076AAXX  03124 83096 32695 31404 10283 20202 30150 40157 83100 333 20245 58002;EQDQ01  00002PRCP06
0167830960999992004050318004-10917-037050FM-12+000699999V0201401N002112200019N0020001N1+02891+02051101361ADDAA106000091GF102991021011012501001001MA1999999101291MD1999999+0031REMSYN070AAXX  03184 83096 32695 21404 10289 20205 30129 40136 82100 333 58003;EQDQ01  00002PRCP06
0198830960999992004050400004-10917-037050FM-12+000699999V0201401N002112200019N0020001N1+02691+02061101431ADDAA106000091GF103991031051012501001001KA1240M+03011MA1999999101361MD1999999-0051REMSYN088AAXX  04004 83096 32695 31404 10269 20206 30136 40143 83500 333 10301 29065 55101 59005;EQDQ01  00002PRCP06
0186830960999992004050412004-10917-037050FM-12+000699999V0200901N002112200019N0020001N1+02831+02221101471ADDAA106000091GF104991041011012501001001KA1240N+02431MA1999999101401MD1999999-0101REMSYN076AAXX  04124 83096 32695 40904 10283 20222 30140 40147 84100 333 20243 59010;EQDQ01  00002PRCP06
0198830960999992004050500004-10917-037050FM-12+000699999V0200901N002612200019N0020001N1+02671+02221101391ADDAA106000091GF102991021051012501001001KA1240M+03041MA1999999101321MD1999999-0041REMSYN088AAXX  05004 83096 32695 20905 10267 20222 30132 40139 82500 333 10304 29073 55090 59004;EQDQ01  00002PRCP06
0186830960999992004050512004-10917-037050FM-12+000699999V0200901N002612200019N0020001N1+02851+02311101571ADDAA106000091GF104991041011012501001001KA1240N+02471MA1999999101501MD1999999+0101REMSYN076AAXX  05124 83096 32695 40905 10285 20231 30150 40157 84100 333 20247 58010;EQDQ01  00002PRCP06
0295830960999992004050518004-10917-037050FM-12+000699999V0201401N002119999999N0020001N1+02871+02161101371ADDAA106000091AA224180091GA1031+087009019GF105991999011012501001999KA1240M+03131KA2240N+01871MA1999999101301REMSYN127AAXX  05184 83096 32695 51404 10287 20216 30130 40137 84100 333 5801 83179 32598 61804 10313 20187 39648 40092 83202 333 58000;EQDQ01+000042SCOTLCQ02+000002SCOHCGQ03  00002PRCP06
0198830960999992004050600004-10917-037050FM-12+000699999V0200901N002610120019N0020001N1+02671+02001101531ADDAA106000091GF105991051051012501001001KA1240M+03051MA1999999101461MD1999999+0141REMSYN088AAXX  06004 83096 32695 50905 10267 20200 30146 40153 85500 333 10305 29068 55091 58014;EQDQ01  00002PRCP06
0190830960999992004050612004-10917-037050FM-12+000699999V0202701N001510120019N0020001N1+02491+02361101651ADDAY161061AY261061GF105991051051012501001001KA1240N+02201MA1999999101581MD1999999+0081MW1211REMSYN088AAXX  06124 83096 21695 52703 10249 20236 30158 40165 72166 85500 333 20220 58008 60014;
0148830960999992004050618004-10917-037050FM-12+000699999V0201401N002612200019N0020001N1+02821+02331101501ADDAA106000021GF104991041011012501001001MA1999999101431MD1999999+0131REMSYN070AAXX  06184 83096 32695 41405 10282 20233 30143 40150 84100 333 58013;
0198830960999992004050700004-10917-037050FM-12+000699999V0201401N002112200019N0020001N1+02671+02201101571ADDAA106000091GF103991031051012501001001KA1240M+03011MA1999999101501MD1999999+0041REMSYN088AAXX  07004 83096 32695 31404 10267 20220 30150 40157 83500 333 10301 29080 55086 58004;EQDQ01  00002PRCP06
0186830960999992004050712004-10917-037050FM-12+000699999V0200901N002612200019N0020001N1+02851+02221101651ADDAA106000091GF104991041051012501001001KA1240N+02461MA1999999101581MD1999999+0001REMSYN076AAXX  07124 83096 32695 40905 10285 20222 30158 40165 84500 333 20246 58000;EQDQ01  00002PRCP06
0167830960999992004050718004-10917-037050FM-12+000699999V0201401N002612200019N0020001N1+02911+02321101481ADDAA106000091GF103991031051012501001001MA1999999101411MD1999999-0021REMSYN070AAXX  07184 83096 32695 31405 10291 20232 30141 40148 83500 333 59002;EQDQ01  00002PRCP06
0198830960999992004050800004-10917-037050FM-12+000699999V0201401N002612200019N0020001N1+02651+02141101571ADDAA106000091GF103991031051012501001001KA1240M+03021MA1999999101501MD1999999+0001REMSYN088AAXX  08004 83096 32695 31405 10265 20214 30150 40157 83500 333 10302 29072 55097 58000;EQDQ01  00002PRCP06
0186830960999992004050812004-10917-037050FM-12+000699999V0201401N002112200019N0020001N1+02831+02151101581ADDAA106000091GF104991041011012501001001KA1240N+02471MA1999999101511MD1999999-0071REMSYN076AAXX  08124 83096 32695 41404 10283 20215 30151 40158 84100 333 20247 59007;EQDQ01  00002PRCP06
0167830960999992004050818004-10917-037050FM-12+000699999V0201401N002112200019N0020001N1+02891+02131101381ADDAA106000091GF101991011011012501001001MA1999999101311MD1999999-0101REMSYN070AAXX  08184 83096 32695 11404 10289 20213 30131 40138 81100 333 59010;EQDQ01  00002PRCP06
0198830960999992004050900004-10917-037050FM-12+000699999V0201401N001512200019N0020001N1+02651+02181101431ADDAA106000091GF102991021011012501001001KA1240M+03021MA1999999101361MD1999999-0141REMSYN088AAXX  09004 83096 32695 21403 10265 20218 30136 40143 82100 333 10302 29071 55102 59014;EQDQ01  00002PRCP06
0186830960999992004050912004-10917-037050FM-12+000699999V0201401N001512200019N0020001N1+02651+02271101511ADDAA106000091GF102991021011012501001001KA1240N+02201MA1999999101441MD1999999-0071REMSYN076AAXX  09124 83096 32695 21403 10265 20227 30144 40151 82100 333 20220 59007;EQDQ01  00002PRCP06
0167830960999992004050918004-10917-037050FM-12+000699999V0201401N002112200019N0020001N1+02861+02231101221ADDAA106000091GF101991011011012501001001MA1999999101151MD1999999-0161REMSYN070AAXX  09184 83096 32695 11404 10286 20223 30115 40122 81100 333 59016;EQDQ01  00002PRCP06
0198830960999992004051000004-10917-037050FM-12+000699999V0201401N001512200019N0020001N1+02711+02281101371ADDAA106000091GF103991031011012501001001KA1240M+03041MA1999999101301MD1999999-0061REMSYN088AAXX  10004 83096 32695 31403 10271 20228 30130 40137 83100 333 10304 29076 55100 59006;EQDQ01  00002PRCP06
0186830960999992004051012004-10917-037050FM-12+000699999V0200901N001512200019N0020001N1+02911+02361101461ADDAA106000091GF105991031011012501001011KA1240N+02261MA1999999101391MD1999999-0051REMSYN076AAXX  10124 83096 32695 50903 10291 20236 30139 40146 83101 333 20226 59005;EQDQ01  00002PRCP06
0167830960999992004051018004-10917-037050FM-12+000699999V0201801N002610120019N0020001N1+02821+02241101251ADDAA106000091GF108991081021012501001001MA1999999101081MD1999999-0071REMSYN070AAXX  10184 83096 32695 81805 10282 20224 30108 40125 88200 333 59007;EQDQ01  00002PRCP06
0202830960999992004051100004-10917-037050FM-12+000699999V0201801N003110075019N0020001N1+02541+02451101401ADDAY161061AY261061GF108991081051008001001001KA1240M+03121MA1999999101331MD1999999+0031MW1601REMSYN100AAXX  11004 83096 21595 81806 10254 20245 30133 40140 76066 88500 333 10312 29083 55061 58003 60021;
0190830960999992004051112004-10917-037050FM-12+000699999V0201801N002610120019N0020001N1+02571+02481101471ADDAY161061AY261061GF108991081071012501001001KA1240N+02371MA1999999101401MD1999999+0011MW1211REMSYN088AAXX  11124 83096 21695 81805 10257 20248 30140 40147 72166 88700 333 20237 58001 60194;
0171830960999992004051118004-10917-037050FM-12+000699999V0201401N003112200019N0020001N1+02671+02481101131ADDAY161061AY261061GF108991041051012501001011MA1999999101061MD1999999-0021MW1211REMSYN082AAXX  11184 83096 21695 81406 10267 20248 30106 40113 72166 84501 333 59002 60031;
0148830960999992004051200004-10917-037050FM-12+000699999V0200901N005119999999N0020001N1+02561+02381999999ADDAA106000021GF108991999999012501999999KA1240M+02851REMSYN086AAXX  12004 83096 32695 80910 10256 20238 300 40137 88500 333 10285 29091 55037 59003;
0190830960999992004051212004-10917-037050FM-12+000699999V0201401N001010120019N0020001N1+02511+02431101531ADDAY161061AY261061GF108991081051012501001001KA1240N+02331MA1999999101141MD1999999+0061MW1201REMSYN088AAXX  12124 83096 21695 81402 10251 20243 30114 40153 72066 88500 333 20233 58006 60084;
0171830960999992004051218004-10917-037050FM-12+000699999V0200901N001510120019N0020001N1+02551+02351101201ADDAY161061AY261061GF108991081051012501001001MA1999999101131MD1999999+0071MW1201REMSYN082AAXX  12184 83096 21695 80903 10255 20235 30113 40120 72066 88500 333 58007 60071;
0190830960999992004051312004-10917-037050FM-12+000699999V0203601N001510120019N0020001N1+02671+02221101501ADDAY161061AY261061GF106991061051012501001001KA1240N+02411MA1999999101431MD1999999-0031MW1201REMSYN088AAXX  13124 83096 21695 63603 10267 20222 30143 40150 72066 86500 333 20241 59003 60084;
0167830960999992004051318004-10917-037050FM-12+000699999V0200901N002612200019N0020001N1+02971+02341101071ADDAA106000021GF102991999021012501001011MA1999999101001MD1999999-0131REMSYN070AAXX  13184 83096 32695 20905 10297 20234 30100 40107 86201 333 59013;EQDQ01+000062SCOTLC
0198830960999992004051400004-10917-037050FM-12+000699999V0200901N002610120019N0020001N1+02631+02291101341ADDAA106000091GF105991051051012501001001KA1240M+02981MA1999999101271MD1999999-0231REMSYN088AAXX  14004 83096 32695 50905 10263 20229 30127 40134 85500 333 10298 29079 55009 59023;EQDQ01  00002PRCP06
0186830960999992004051412004-10917-037050FM-12+000699999V0200501N003110120019N0020001N1+02681+02351101461ADDAA106000091GF106991061051012501001001KA1240N+02261MA1999999101391MD1999999-0041REMSYN076AAXX  14124 83096 32695 60506 10268 20235 30139 40146 86500 333 20226 59004;EQDQ01  00002PRCP06
0167830960999992004051418004-10917-037050FM-12+000699999V0200901N003112200019N0020001N1+02851+02281101101ADDAA106000091GF105991031051012501001011MA1999999101031MD1999999+0031REMSYN070AAXX  14184 83096 32695 50906 10285 20228 30103 40110 83501 333 58003;EQDQ01  00002PRCP06
0198830960999992004051500004-10917-037050FM-12+000699999V0200901N003112200019N0020001N1+02651+02311101311ADDAA106000091GF103991031051012501001001KA1240M+02971MA1999999101241MD1999999-0031REMSYN088AAXX  15004 83096 32695 30906 10265 20231 30124 40131 83500 333 10297 29079 55060 59003;EQDQ01  00002PRCP06
0186830960999992004051512004-10917-037050FM-12+000699999V0200901N002612200019N0020001N1+02811+02381101421ADDAA106000091GF106991031011012501001011KA1240N+02301MA1999999101351MD1999999-0041REMSYN076AAXX  15124 83096 32695 60905 10281 20238 30135 40142 83101 333 20230 59004;EQDQ01  00002PRCP06
0167830960999992004051518004-10917-037050FM-12+000699999V0200901N004112200019N0020001N1+02801+02291101121ADDAA106000091GF103991031011012501001001MA1999999101051MD1999999+0021REMSYN070AAXX  15184 83096 32695 30908 10280 20229 30105 40112 83100 333 58002;EQDQ01  00002PRCP06
0198830960999992004051600004-10917-037050FM-12+000699999V0200901N001512200019N0020001N1+02641+02141101421ADDAA106000091GF102991021051012501001001KA1240M+02991MA1999999101351MD1999999+0011REMSYN088AAXX  16004 83096 32695 20903 10264 20214 30135 40142 82500 333 10299 29075 55014 58001;EQDQ01  00002PRCP06
0186830960999992004051612004-10917-037050FM-12+000699999V0200901N001010120019N0020001N1+02581+02401101461ADDAA106000091GF106991061011012501001001KA1240N+02181MA1999999101391MD1999999+0041REMSYN076AAXX  16124 83096 32695 60902 10258 20240 30139 40146 86100 333 20218 58004;EQDQ01  00002PRCP06
0167830960999992004051618004-10917-037050FM-12+000699999V0201401N002110120019N0020001N1+02811+02221101211ADDAA106000091GF106991061011012501001001MA1999999101141MD1999999+0091REMSYN070AAXX  16184 83096 32695 61404 10281 20222 30114 40121 86100 333 58009;EQDQ01  00002PRCP06
0198830960999992004051700004-10917-037050FM-12+000699999V02099999999990120019N0020001N1+02661+02351101351ADDAA106000091GF105991051051012501001001KA1240M+03021MA1999999101281MD1999999+0031REMSYN088AAXX  17004 83096 32695 514// 10266 20235 30128 40135 85500 333 10302 29082 55033 58003;EQDQ01  00002PRCP06
0190830960999992004051712004-10917-037050FM-12+000699999V0200901N003110075019N0010001N1+02481+02341101501ADDAY161061AY261061GF108991081051008001999999KA1240N+02201MA1999999101431MD1999999+0041MW1611REMSYN088AAXX  17124 83096 21594 80906 10248 20234 30143 40150 76166 885// 333 20220 58004 60064;
0171830960999992004051718004-10917-037050FM-12+000699999V0200901N002110120019N0020001N1+02611+02291101241ADDAY161061AY261061GF106991061051012501001001MA1999999101171MD1999999+0031MW1211REMSYN082AAXX  17184 83096 21695 60904 10261 20229 30117 40124 72166 86500 333 58003 60021;
0179830960999992004051800004-10917-037050FM-12+000699999V0200901N003112200019N0020001N1+02531+02341101391ADDAA106000021GF104991041051012501001001KA1240M+02781MA1999999101321MD1999999+0041REMSYN088AAXX  18004 83096 32695 40906 10253 20234 30132 40139 84500 333 10278 29089 55018 58004;
0190830960999992004051812004-10917-037050FM-12+000699999V0200901N002112200019N0020001N1+02731+02191101591ADDAY161061AY261061GF102991021011012501001001KA1240N+02241MA1999999101521MD1999999+0091MW1211REMSYN088AAXX  18124 83096 21695 20904 10273 20219 30152 40159 72166 82100 333 20224 58009 60164;
0148830960999992004051818004-10917-037050FM-12+000699999V0200901N002112200019N0020001N1+02851+02171101351ADDAA106000021GF103991031011012501001001MA1999999101281MD1999999+0111REMSYN070AAXX  18184 83096 32695 30904 10285 20217 30128 40135 83100 333 58011;
0198830960999992004051900004-10917-037050FM-12+000699999V0201401N002112200019N0020001N1+02691+02161101511ADDAA106000091GF103991031051012501001001KA1240M+02931MA1999999101441MD1999999+0121REMSYN088AAXX  19004 83096 32695 31404 10269 20216 30144 40151 83500 333 10293 29072 55095 58012;EQDQ01  00002PRCP06
0190830960999992004051912004-10917-037050FM-12+000699999V0201401N002112200019N0020001N1+02841+02261101801ADDAY161061AY261061GF103991031011012501001001KA1240N+02431MA1999999101731MD1999999+0211MW1211REMSYN088AAXX  19124 83096 21695 31404 10284 20226 30173 40180 72166 83100 333 20243 58021 60014;
0148830960999992004051918004-10917-037050FM-12+000699999V0201401N002112200019N0020001N1+02891+02211101581ADDAA106000021GF102991021011012501001001MA1999999101511MD1999999+0231REMSYN070AAXX  19184 83096 32695 21404 10289 20221 30151 40158 82100 333 58023;
0198830960999992004052000004-10917-037050FM-12+000699999V0201801N002112200019N0020001N1+02711+02221101731ADDAA106000091GF102991021011012501001001KA1240M+03011MA1999999101661MD1999999+0221REMSYN088AAXX  20004 83096 32695 21804 10271 20222 30166 40173 82100 333 10301 29072 55101 58022;EQDQ01  00002PRCP06
0190830960999992004052012004-10917-037050FM-12+000699999V0201401N002112200019N0020001N1+02751+02281101791ADDAY161061AY261061GF104991041051012501001001KA1240N+02301MA1999999101721MD1999999-0011MW1211REMSYN088AAXX  20124 83096 21695 41404 10275 20228 30172 40179 72166 84500 333 20230 59001 60044;
0148830960999992004052018004-10917-037050FM-12+000699999V0201401N002619999999N0020001N1+02821+02021101571ADDAA106000021GF105991051001012501031001MA1999999101501MD1999999-0011REMSYN070AAXX  20184 83096 32695 51405 10282 20202 30150 40157 85030 333 59001;
0198830960999992004052100004-10917-037050FM-12+000699999V0201801N002112200019N0020001N1+02591+02011101521ADDAA106000091GF102991021051012501001001KA1240M+02991MA1999999101451MD1999999-0211REMSYN088AAXX  21004 83096 32695 21804 10259 20201 30145 40152 82500 333 10299 29070 55051 59021;EQDQ01  00002PRCP06
0186830960999992004052112004-10917-037050FM-12+000699999V0201401N001512200019N0020001N1+02751+02021101691ADDAA106000091GF102991021011012501001001KA1240N+02141MA1999999101621MD1999999-0101REMSYN076AAXX  21124 83096 32695 21403 10275 20202 30162 40169 82100 333 20214 59010;EQDQ01  00002PRCP06
0167830960999992004052118004-10917-037050FM-12+000699999V0201401N002112200019N0020001N1+02831+02121101451ADDAA106000091GF103991031011012501001001MA1999999101381MD1999999-0121REMSYN070AAXX  21184 83096 32695 31404 10283 20212 30138 40145 83100 333 59012;EQDQ01  00002PRCP06
0202830960999992004052200004-10917-037050FM-12+000699999V0201801N002110120019N0020001N1+02591+02331101471ADDAY151061AY251061GF106991061051012501001001KA1240M+02991MA1999999101401MD1999999-0051MW1201REMSYN100AAXX  22004 83096 21695 61804 10259 20233 30140 40147 72055 86500 333 10299 29077 55089 59005 69921;
0162830960999992004052212004-10917-037050FM-12+000699999V0201401N002112200019N0020001N1+02671+02201101611ADDGF104991041011012501001001KA1240N+02451MA1999999101541MD1999999-0081REMSYN082AAXX  22124 83096 22695 41404 10267 20220 30154 40161 84100 333 20245 59008 69924;
0167830960999992004052218004-10917-037050FM-12+000699999V0201401N002112200019N0020001N1+02791+02231101441ADDAA106000091GF102991021011012501001001MA1999999101371MD1999999-0011REMSYN070AAXX  22184 83096 32695 21404 10279 20223 30137 40144 82100 333 59001;EQDQ01  00002PRCP06
0198830960999992004052300004-10917-037050FM-12+000699999V0201401N001512200019N0020001N1+02651+02051101471ADDAA106000091GF103991031011012501001001KA1240M+02771MA1999999101401MD1999999+0001REMSYN088AAXX  23004 83096 32695 31403 10265 20205 30140 40147 83100 333 10277 29072 55080 58000;EQDQ01  00002PRCP06
0190830960999992004052312004-10917-037050FM-12+000699999V0203601N001512200019N0020001N1+02571+02311101621ADDAY161061AY261061GF104991041051012501001001KA1240N+02331MA1999999101551MD1999999+0011MW1611REMSYN088AAXX  23124 83096 21695 43603 10257 20231 30155 40162 76166 84500 333 20233 58001 60024;
0171830960999992004052318004-10917-037050FM-12+000699999V0200901N003110075019N0010001N1+02521+02311101491ADDAY161061AY261061GF108991081051008001999999MA1999999101421MD1999999+0051MW1621REMSYN082AAXX  23184 83096 21594 80906 10252 20231 30142 40149 76266 885// 333 58005 60031;
0202830960999992004052400004-10917-037050FM-12+000699999V0201801N002110075019N0010001N1+02421+02281101601ADDAY161061AY261061GF108991081051008001999999KA1240M+02791MA1999999101521MD1999999+0131MW1621REMSYN100AAXX  24004 83096 21594 81804 10242 20228 30152 40160 76266 885// 333 10279 29089 55008 58013 60061;
0190830960999992004052412004-10917-037050FM-12+000699999V0203201N001010075019N0020001N1+02381+02331101801ADDAY161061AY261061GF108991081051008001999999KA1240N+02281MA1999999101771MD1999999+0221MW1621REMSYN088AAXX  24124 83096 21595 83202 10238 20233 30177 40180 76266 885// 333 20228 58022 60784;
0171830960999992004052418004-10917-037050FM-12+000699999V0201401N001510120019N0020001N1+02611+02331101491ADDAY161061AY261061GF108991081051012501999999MA1999999101421MD1999999+0001MW1211REMSYN082AAXX  24184 83096 21695 81403 10261 20233 30142 40149 72166 885// 333 58000 60021;
0202830960999992004052500004-10917-037050FM-12+000699999V0201401N002110120019N0020001N1+02491+02211101681ADDAY161061AY261061GF108991081051012501999999KA1240M+02691MA1999999101611MD1999999+0081MW1211REMSYN100AAXX  25004 83096 21695 81404 10249 20221 30161 40168 72166 885// 333 10269 29086 55002 58008 60021;
0190830960999992004052512004-10917-037050FM-12+000699999V0201401N001512200019N0020001N1+02731+01071101811ADDAY161061AY261061GF102991021011012501001001KA1240N+02141MA1999999101741MD1999999-0031MW1211REMSYN088AAXX  25124 83096 21695 21403 10273 20107 30174 40181 72166 82100 333 20214 59003 60034;
0148830960999992004052518004-10917-037050FM-12+000699999V0201401N001512200019N0020001N1+02771+02161101491ADDAA106000021GF102991021011012501001001MA1999999101421MD1999999+0001REMSYN070AAXX  25184 83096 32695 21403 10277 20216 30142 40149 82100 333 58000;
0198830960999992004052600004-10917-037050FM-12+000699999V0201401N001012200019N0020001N1+02551+02171101661ADDAA106000091GF103991031051012501001001KA1240M+02911MA1999999101591MD1999999-0021REMSYN088AAXX  26004 83096 32695 31402 10255 20217 30159 40166 83500 333 10291 29073 55091 59002;EQDQ01  00002PRCP06
0186830960999992004052612004-10917-037050FM-12+000699999V0201401N001012200019N0020001N1+02771+02271101641ADDAA106000091GF102991021011012501001001KA1240N+02101MA1999999101571MD1999999-0171REMSYN076AAXX  26124 83096 32695 21402 10277 20227 30157 40164 82100 333 20210 59017;EQDQ01  00002PRCP06
0167830960999992004052618004-10917-037050FM-12+000699999V0201401N002112200019N0020001N1+02801+02271101381ADDAA106000091GF102991021011012501001001MA1999999101311MD1999999-0111REMSYN070AAXX  26184 83096 32695 21404 10280 20227 30131 40138 82100 333 59011;EQDQ01  00002PRCP06
0198830960999992004052700004-10917-037050FM-12+000699999V0200901N001012200019N0020001N1+02561+02111101571ADDAA106000091GF102991021051012501001001KA1240M+02931MA1999999101501MD1999999-0091REMSYN088AAXX  27004 83096 32695 20902 10256 20211 30150 40157 82500 333 10293 29075 55092 59009;EQDQ01  00002PRCP06
0186830960999992004052712004-10917-037050FM-12+000699999V0200901N001512200019N0020001N1+02771+02321101621ADDAA106000091GF102991021011012501001001KA1240N+02121MA1999999101551MD1999999-0021REMSYN076AAXX  27124 83096 32695 20903 10277 20232 30155 40162 82100 333 20212 59002;EQDQ01  00002PRCP06
0167830960999992004052718004-10917-037050FM-12+000699999V0200901N002612200019N0020001N1+02801+02311101301ADDAA106000091GF102991021011012501001001MA1999999101231MD1999999-0081REMSYN070AAXX  27184 83096 32695 20905 10280 20231 30123 40130 82100 333 59008;EQDQ01  00002PRCP06
0198830960999992004052800004-10917-037050FM-12+000699999V0200901N003112200019N0020001N1+02621+02331101611ADDAA106000091GF102991021051012501001001KA1240M+02911MA1999999101541MD1999999+0041REMSYN088AAXX  28004 83096 32695 20906 10262 20233 30154 40161 82500 333 10291 29079 55100 58004;EQDQ01  00002PRCP06
0190830960999992004052812004-10917-037050FM-12+000699999V0201401N002610120019N0020001N1+02771+02301101781ADDAY161061AY261061GF106991061051012501001001KA1240N+01371MA1999999101711MD1999999+0161MW1201REMSYN088AAXX  28124 83096 21695 61405 10277 20230 30171 40178 72066 86500 333 20137 58016 69974;
0171830960999992004052818004-10917-037050FM-12+000699999V0201401N001510120019N0020001N1+02731+02321101511ADDAY161061AY261061GF108991081051012501999999MA1999999101441MD1999999+0211MW1211REMSYN082AAXX  28184 83096 21695 81403 10273 20232 30144 40151 72166 885// 333 58021 60021;
0179830960999992004052900004-10917-037050FM-12+000699999V0201401N002610120019N0020001N1+02641+02271101721ADDAA106000021GF105991051051012501001001KA1240M+02911MA1999999101651MD1999999+0111REMSYN088AAXX  29004 83096 32695 51405 10264 20227 30165 40172 85500 333 10291 29078 55017 58011;
0190830960999992004052912004-10917-037050FM-12+000699999V0201401N002612200019N0020001N1+02851+02371101851ADDAY161061AY261061GF102991021011012501001001KA1240N+02351MA1999999101781MD1999999+0071MW1201REMSYN088AAXX  29124 83096 21695 21405 10285 20237 30178 40185 72066 82100 333 20235 58007 60024;
0148830960999992004052918004-10917-037050FM-12+000699999V0201401N002112200019N0020001N1+02811+02271101571ADDAA106000021GF103991031011012501001001MA1999999101501MD1999999+0061REMSYN070AAXX  29184 83096 32695 31404 10281 20227 30150 40157 83100 333 58006;
0198830960999992004053000004-10917-037050FM-12+000699999V0201401N002610120019N0020001N1+02651+02291101791ADDAA106000091GF105991051051012501001001KA1240M+02981MA1999999101721MD1999999+0071REMSYN088AAXX  30004 83096 32695 51405 10265 20229 30172 40179 85500 333 10298 29077 55076 58007;EQDQ01  00002PRCP06
0186830960999992004053012004-10917-037050FM-12+000699999V0201401N003612200019N0020001N1+02801+02201101811ADDAA106000091GF102991021011012501001001KA1240N+02411MA1999999101741MD1999999-0041REMSYN076AAXX  30124 83096 32695 21407 10280 20220 30174 40181 82100 333 20241 59004;EQDQ01  00002PRCP06
0167830960999992004053018004-10917-037050FM-12+000699999V0201401N003610120019N0020001N1+02761+02231101491ADDAA106000091GF105991051011012501001001MA1999999101421MD1999999-0081REMSYN070AAXX  30184 83096 32695 51407 10276 20223 30142 40149 85100 333 59008;EQDQ01  00002PRCP06
0198830960999992004053100004-10917-037050FM-12+000699999V0201401N001012200019N0020001N1+02611+02101101651ADDAA106000091GF102991021051012501001001KA1240M+02951MA1999999101581MD1999999-0141REMSYN088AAXX  31004 83096 32695 21402 10261 20210 30158 40165 82500 333 10295 29072 55079 59014;EQDQ01  00002PRCP06
0186830960999992004053112004-10917-037050FM-12+000699999V0201801N002110450019N0020001N1+02671+02141101611ADDAA106000091GF105991021051012501031001KA1240N+02351MA1999999101541MD1999999-0201REMSYN076AAXX  31124 83096 32695 51804 10267 20214 30154 40161 82530 333 20235 59020;EQDQ01  00002PRCP06
0167830960999992004053118004-10917-037050FM-12+000699999V0201801N002110120019N0020001N1+02781+02231101411ADDAA106000091GF105991051051012501001001MA1999999101241MD1999999-0081REMSYN070AAXX  31184 83096 32695 51804 10278 20223 30124 40141 85500 333 59008;EQDQ01  00002PRCP06
0198830960999992004060100004-10917-037050FM-12+000699999V0201801N001512200019N0020001N1+02611+02141101531ADDAA106000091GF104991041051012501001001KA1240M+02911MA1999999101461MD1999999-0121REMSYN088AAXX  01004 83096 32695 41803 10261 20214 30146 40153 84500 333 10291 29074 55005 59012;EQDQ01  00002PRCP06
0190830960999992004060112004-10917-037050FM-12+000699999V0201801N002112200019N0020001N1+02671+02241101591ADDAY161061AY261061GF104991041051012501001001KA1240N+02331MA1999999101521MD1999999-0021MW1211REMSYN088AAXX  01124 83096 21695 41804 10267 20224 30152 40159 72166 84500 333 20233 59002 60064;
0148830960999992004060118004-10917-037050FM-12+000699999V0200901N002110450019N0020001N1+02731+02151101471ADDAA106000021GF105991021051012501031001MA1999999101401MD1999999+0061REMSYN070AAXX  01184 83096 32695 50904 10273 20215 30140 40147 82530 333 58006;
0198830960999992004060200004-10917-037050FM-12+000699999V0201401N001510120019N0020001N1+02631+02101101591ADDAA106000091GF105991051051012501001001KA1240M+02911MA1999999101521MD1999999+0061REMSYN088AAXX  02004 83096 32695 51403 10263 20210 30152 40159 85500 333 10291 29074 55001 58006;EQDQ01  00002PRCP06
0190830960999992004060212004-10917-037050FM-12+000699999V0202701N001510075019N0010001N1+02301+02131101721ADDAY161061AY261061GF108991081051008001999999KA1240N+02281MA1999999101651MD1999999+0131MW1631REMSYN088AAXX  02124 83096 21594 82703 10230 20213 30165 40172 76366 885// 333 20228 58013 60244;
0148830960999992004060218004-10917-037050FM-12+000699999V0201401N002110120019N0020001N1+02691+02131101531ADDAA106000021GF106991061051012501001001MA1999999101461MD1999999+0061REMSYN070AAXX  02184 83096 32695 61404 10269 20213 30146 40153 86500 333 58006;
0198830960999992004060300004-10917-037050FM-12+000699999V0200901N002110120019N0020001N1+02591+02231101641ADDAA106000091GF105991051051012501001001KA1240M+02841MA1999999101571MD1999999+0051REMSYN088AAXX  03004 83096 32695 50904 10259 20223 30157 40164 85500 333 10284 29081 55007 58005;EQDQ01  00002PRCP06
0190830960999992004060312004-10917-037050FM-12+000699999V0201401N001512200019N0020001N1+02771+02121101701ADDAY161061AY261061GF103991031011012501001001KA1240N+02301MA1999999101631MD1999999-0021MW1211REMSYN088AAXX  03124 83096 21695 31403 10277 20212 30163 40170 72166 83100 333 20230 59002 60014;
0148830960999992004060318004-10917-037050FM-12+000699999V0200901N002112200019N0020001N1+02791+02111101551ADDAA106000021GF104991041011012501001001MA1999999101481MD1999999+0021REMSYN070AAXX  03184 83096 32695 40904 10279 20211 30148 40155 84100 333 58002;
0198830960999992004060400004-10917-037050FM-12+000699999V0200901N002112200019N0020001N1+02571+02211101571ADDAA106000091GF103991031011012501001001KA1240M+02951MA1999999101501MD1999999-0071REMSYN088AAXX  04004 83096 32695 30904 10257 20221 30150 40157 83100 333 10295 29074 55101 59007;EQDQ01  00002PRCP06
0202830960999992004060412004-10917-037050FM-12+000699999V0200901N001512200019N0020001N1+02611+02291101701ADDAA106000091GF102991999011012501001001KA1240N+02201MA1999999101631MD1999999+0001REMSYN076AAXX  04124 83096 32695 20903 10261 20229 30163 40170 83100 333 20220 58000;EQDQ01+000032SCOTLCQ02  00002PRCP06
0167830960999992004060418004-10917-037050FM-12+000699999V0200901N002112200019N0020001N1+02771+02191101411ADDAA106000091GF102991021011012501001001MA1999999101341MD1999999-0141REMSYN070AAXX  04184 83096 32695 20904 10277 20219 30134 40141 82100 333 59014;EQDQ01  00002PRCP06
0198830960999992004060500004-10917-037050FM-12+000699999V0200901N002112200019N0020001N1+02571+02191101471ADDAA106000091GF102991021011012501001001KA1240M+02911MA1999999101401MD1999999-0101REMSYN088AAXX  05004 83096 32695 20904 10257 20219 30140 40147 82100 333 10291 29078 55080 59010;EQDQ01  00002PRCP06
0186830960999992004060512004-10917-037050FM-12+000699999V0200901N001512200019N0020001N1+02651+02291101521ADDAA106000091GF102991021011012501001001KA1240N+02151MA1999999101451MD1999999-0181REMSYN076AAXX  05124 83096 32695 20903 10265 20229 30145 40152 82100 333 20215 59018;EQDQ01  00002PRCP06
0167830960999992004060518004-10917-037050FM-12+000699999V0200901N002612200019N0020001N1+02791+02251101391ADDAA106000091GF102991021011012501001001MA1999999101321MD1999999-0021REMSYN070AAXX  05184 83096 32695 20905 10279 20225 30132 40139 82100 333 59002;EQDQ01  00002PRCP06
0198830960999992004060600004-10917-037050FM-12+000699999V0200901N002612200019N0020001N1+02651+02231101471ADDAA106000091GF103991031011012501001001KA1240M+02911MA1999999101401MD1999999+0001REMSYN088AAXX  06004 83096 32695 30905 10265 20223 30140 40147 83100 333 10291 29078 55097 58000;EQDQ01  00002PRCP06
0186830960999992004060612004-10917-037050FM-12+000699999V0200901N002112200019N0020001N1+02751+02261101621ADDAA106000091GF103991031011012501001001KA1240N+02471MA1999999101551MD1999999+0101REMSYN076AAXX  06124 83096 32695 30904 10275 20226 30155 40162 83100 333 20247 58010;EQDQ01  00002PRCP06
0167830960999992004060618004-10917-037050FM-12+000699999V0200901N002112200019N0020001N1+02811+02271101451ADDAA106000091GF102991021011012501001001MA1999999101381MD1999999+0061REMSYN070AAXX  06184 83096 32695 20904 10281 20227 30138 40145 82100 333 58006;EQDQ01  00002PRCP06
0186830960999992004060712004-10917-037050FM-12+000699999V0201401N002610120019N0020001N1+02701+02081101921ADDAA106000091GF105991051011012501001001KA1240N+02521MA1999999101851MD1999999+0301REMSYN076AAXX  07124 83096 32695 51405 10270 20208 30185 40192 85100 333 20252 58030;EQDQ01  00002PRCP06
0171830960999992004060718004-10917-037050FM-12+000699999V0201401N001512200019N0020001N1+02671+02311101701ADDAY161061AY261061GF105991031011012501001011MA1999999101631MD1999999+0251MW1211REMSYN082AAXX  07184 83096 21695 51403 10267 20231 30163 40170 72166 83101 333 58025 60021;
0179830960999992004060800004-10917-037050FM-12+000699999V0201401N001510120019N0020001N1+02601+02211101811ADDAA106000021GF106991061051012501001001KA1240M+02951MA1999999101741MD1999999+0141REMSYN088AAXX  08004 83096 32695 61403 10260 20221 30174 40181 86500 333 10295 29077 55049 58014;
0190830960999992004060812004-10917-037050FM-12+000699999V0200901N005112200019N0020001N1+02771+02211101871ADDAY161061AY261061GF102991021011012501001001KA1240N+02411MA1999999101801MD1999999-0051MW1211REMSYN088AAXX  08124 83096 21695 20910 10277 20221 30180 40187 72166 82100 333 20241 59005 60054;
0148830960999992004060818004-10917-037050FM-12+000699999V0200901N003112200019N0020001N1+02731+02241101651ADDAA106000021GF102991021011012501001001MA1999999101581MD1999999-0051REMSYN070AAXX  08184 83096 32695 20906 10273 20224 30158 40165 82100 333 59005;
0198830960999992004060900004-10917-037050FM-12+000699999V0200901N004112200019N0020001N1+02631+02181101831ADDAA106000091GF102991021051012501001001KA1240M+02901MA1999999101761MD1999999+0021REMSYN088AAXX  09004 83096 32695 20908 10263 20218 30176 40183 82500 333 10290 29074 55100 58002;EQDQ01  00002PRCP06
0190830960999992004060912004-10917-037050FM-12+000699999V0200901N004112200019N0020001N1+02801+02251101881ADDAY161061AY261061GF102991021011012501001001KA1240N+02411MA1999999101811MD1999999+0011MW1211REMSYN088AAXX  09124 83096 21695 20908 10280 20225 30181 40188 72166 82100 333 20241 58001 60014;
0148830960999992004060918004-10917-037050FM-12+000699999V0201401N002612200019N0020001N1+02831+02241101721ADDAA106000021GF102991021011012501001001MA1999999101651MD1999999+0071REMSYN070AAXX  09184 83096 32695 21405 10283 20224 30165 40172 82100 333 58007;
0198830960999992004061000004-10917-037050FM-12+000699999V0201401N001512200019N0020001N1+02621+02141101921ADDAA106000091GF103991031051012501001001KA1240M+02971MA1999999101851MD1999999+0091REMSYN088AAXX  10004 83096 32695 31403 10262 20214 30185 40192 83500 333 10297 29073 55096 58009;EQDQ01  00002PRCP06
0190830960999992004061012004-10917-037050FM-12+000699999V0201401N001510075019N0020001N1+02471+02381101951ADDAY161061AY261061GF108991081071008001999999KA1240N+02391MA1999999101881MD1999999+0071MW1601REMSYN088AAXX  10124 83096 21595 81403 10247 20238 30188 40195 76066 887// 333 20239 58007 60034;
0171830960999992004061018004-10917-037050FM-12+000699999V0201401N004112200019N0020001N1+02741+02211101651ADDAY161061AY261061GF106991041051012501001011MA1999999101581MD1999999-0071MW1211REMSYN082AAXX  10184 83096 21695 61408 10274 20221 30158 40165 72166 84501 333 59007 60031;
0179830960999992004061100004-10917-037050FM-12+000699999V0201401N003110120019N0020001N1+02611+02161101871ADDAA106000021GF105991051051012501001001KA1240M+02831MA1999999101801MD1999999-0051REMSYN088AAXX  11004 83096 32695 51406 10261 20216 30180 40187 85500 333 10283 29080 55029 59005;
0190830960999992004061112004-10917-037050FM-12+000699999V0201401N004112200019N0020001N1+02811+02001102001ADDAY161061AY261061GF102991021011012501001001KA1240N+02411MA1999999101931MD1999999+0051MW1211REMSYN088AAXX  11124 83096 21695 21408 10281 20200 30193 40200 72166 82100 333 20241 58005 60034;
0134830960999992004061118004-10917-037050FM-12+000699999V0201401N002612200019N0020001N1+02831+02121101751ADDAA106000021GF101991011011012501001001MA1999999101601REMSYN070AAXX  11184 83096 32695 11405 10283 20212 30160 40175 81100 333 50010;
0198830960999992004061200004-10917-037050FM-12+000699999V0201401N002612200019N0020001N1+02611+02011101901ADDAA106000091GF102991021051012501001001KA1240M+02971MA1999999101831MD1999999+0031REMSYN088AAXX  12004 83096 32695 21405 10261 20201 30183 40190 82500 333 10297 29066 55109 58003;EQDQ01  00002PRCP06
0186830960999992004061212004-10917-037050FM-12+000699999V0201401N002612200019N0020001N1+02821+02001102051ADDAA106000091GF101991011011012501001001KA1240N+02451MA1999999101981MD1999999+0051REMSYN076AAXX  12124 83096 32695 11405 10282 20200 30198 40205 81100 333 20245 58005;EQDQ01  00002PRCP06
0183830960999992004061218004-10917-037050FM-12+000699999V0201401N002612200019N0020001N1+02791+02221101821ADDAA106000091GF102991999011012501001001MA1999999101751MD1999999+0001REMSYN070AAXX  12184 83096 32695 21405 10279 20222 30175 40182 84100 333 58000;EQDQ01+000042SCOTLCQ02  00002PRCP06
0190830960999992004061312004-10917-037050FM-12+000699999V0202701N001512200019N0020001N1+02361+02241101981ADDAY161061AY261061GF105991031051012501001011KA1240N+02081MA1999999101911MD1999999-0071MW1201REMSYN088AAXX  13124 83096 21695 52703 10236 20224 30191 40198 72066 83501 333 20208 59007 59954;
0148830960999992004061318004-10917-037050FM-12+000699999V0201401N002112200019N0020001N1+02721+02221101641ADDAA106000021GF102991021011012501001001MA1999999101571MD1999999-0181REMSYN070AAXX  13184 83096 32695 21404 10272 20222 30157 40164 82100 333 59018;
0186830960999992004061412004-10917-037050FM-12+000699999V0201801N002112200019N0020001N1+02731+02081101901ADDAA106000091GF103991031011012501001001KA1240N+02061MA1999999101831MD1999999-0061REMSYN076AAXX  14124 83096 32695 31804 10273 20208 30183 40190 83100 333 20206 59006;EQDQ01  00002PRCP06
0167830960999992004061418004-10917-037050FM-12+000699999V0201801N002112200019N0020001N1+02811+02131101661ADDAA106000091GF104991041011012501001001MA1999999101591MD1999999+0021REMSYN070AAXX  14184 83096 32695 41804 10281 20213 30159 40166 84100 333 58002;EQDQ01  00002PRCP06
0198830960999992004061500004-10917-037050FM-12+000699999V0201401N001512200019N0020001N1+02591+02171101771ADDAA106000091GF104991041051012501001001KA1240M+02931MA1999999101701MD1999999-0081REMSYN088AAXX  15004 83096 32695 41403 10259 20217 30170 40177 84500 333 10293 29073 55067 59008;EQDQ01  00002PRCP06
0190830960999992004061512004-10917-037050FM-12+000699999V0201401N002112200019N0020001N1+02631+02251101861ADDAY161061AY261061GF104991041051012501001001KA1240N+02301MA1999999101791MD1999999-0041MW1211REMSYN088AAXX  15124 83096 21695 41404 10263 20225 30179 40186 72166 84500 333 20230 59004 60074;
0148830960999992004061518004-10917-037050FM-12+000699999V0201401N002112200019N0020001N1+02651+02181101651ADDAA106000021GF103991031051012501001001MA1999999101581MD1999999-0011REMSYN070AAXX  15184 83096 32695 31404 10265 20218 30158 40165 83500 333 59001;
0198830960999992004061600004-10917-037050FM-12+000699999V0201401N001512200019N0020001N1+02611+02101101831ADDAA106000091GF102991021011012501001001KA1240M+02841MA1999999101761MD1999999+0061REMSYN088AAXX  16004 83096 32695 21403 10261 20210 30176 40183 82100 333 10284 29076 55016 58006;EQDQ01  00002PRCP06
0190830960999992004061612004-10917-037050FM-12+000699999V0201401N002112200019N0020001N1+02711+02171101791ADDAY161061AY261061GF103991031011012501001001KA1240N+02451MA1999999101721MD1999999-0071MW1211REMSYN088AAXX  16124 83096 21695 31404 10271 20217 30172 40179 72166 83100 333 20245 59007 60014;
0148830960999992004061618004-10917-037050FM-12+000699999V0201401N002612200019N0020001N1+02691+02221101571ADDAA106000021GF102991021011012501001001MA1999999101501MD1999999-0081REMSYN070AAXX  16184 83096 32695 21405 10269 20222 30150 40157 82100 333 59008;
0186830960999992004061712004-10917-037050FM-12+000699999V0201401N002112200019N0020001N1+02661+01951101791ADDAA106000091GF103991031011012501001001KA1240N+02451MA1999999101721MD1999999+0001REMSYN076AAXX  17124 83096 32695 31404 10266 20195 30172 40179 83100 333 20245 58000;EQDQ01  00002PRCP06
0171830960999992004061718004-10917-037050FM-12+000699999V0201401N002112200019N0020001N1+02651+02121101611ADDAY151061AY251061GF104991041051012501001001MA1999999101541MD1999999+0041MW1201REMSYN082AAXX  17184 83096 21695 41404 10265 20212 30154 40161 72055 84500 333 58004 69941;
0202830960999992004061800004-10917-037050FM-12+000699999V0201401N002112200019N0020001N1+02611+02101101691ADDAY151061AY251061GF102991021051012501001001KA1240M+02841MA1999999101621MD1999999+0001MW1201REMSYN100AAXX  18004 83096 21695 21404 10261 20210 30162 40169 72055 82500 333 10284 29072 55046 58000 69931;
0162830960999992004061812004-10917-037050FM-12+000699999V0201401N002112200019N0020001N1+02711+02081101801ADDGF104991041011012501001001KA1240N+02451MA1999999101731MD1999999+0011REMSYN082AAXX  18124 83096 22695 41404 10271 20208 30173 40180 84100 333 20245 58001 69974;
0167830960999992004061818004-10917-037050FM-12+000699999V0201401N002112200019N0020001N1+02761+01941101691ADDAA106000091GF102991021011012501001001MA1999999101621MD1999999+0081REMSYN070AAXX  18184 83096 32695 21404 10276 20194 30162 40169 82100 333 58008;EQDQ01  00002PRCP06
0202830960999992004061900004-10917-037050FM-12+000699999V0201401N001512200019N0020001N1+02531+02051101771ADDAY161061AY261061GF103991031051012501001001KA1240M+02901MA1999999101701MD1999999+0081MW1211REMSYN100AAXX  19004 83096 21695 31403 10253 20205 30170 40177 72166 83500 333 10290 29070 55097 58008 60011;
0190830960999992004061912004-10917-037050FM-12+000699999V0201401N002112200019N0020001N1+02691+02111101931ADDAY151061AY251061GF102991021011012501001001KA1240N+02451MA1999999101861MD1999999+0131MW1201REMSYN088AAXX  19124 83096 21695 21404 10269 20211 30186 40193 72055 82100 333 20245 58013 60024;
0148830960999992004061918004-10917-037050FM-12+000699999V0201401N002112200019N0020001N1+02771+02161101811ADDAA106000021GF104991041011012501001001MA1999999101741MD1999999+0121REMSYN070AAXX  19184 83096 32695 41404 10277 20216 30174 40181 84100 333 58012;
0167830960999992004062018004-10917-037050FM-12+000699999V0201401N003112200019N0020001N1+02691+02081101811ADDAA106000091GF105991031011012501001011MA1999999101741MD1999999+0001REMSYN070AAXX  20184 83096 32695 51406 10269 20208 30174 40181 83101 333 58000;EQDQ01  00002PRCP06
0190830960999992004062112004-10917-037050FM-12+000699999V0201401N002112200019N0020001N1+02611+02161101921ADDAY151061AY251061GF105991031011012501001011KA1240N+02281MA1999999101851MD1999999-0011MW1201REMSYN088AAXX  21124 83096 21695 51404 10261 20216 30185 40192 72055 83101 333 20228 59001 60064;
0148830960999992004062118004-10917-037050FM-12+000699999V0201401N001512200019N0020001N1+02741+02141101751ADDAA106000021GF106991031011012501001011MA1999999101681MD1999999-0061REMSYN070AAXX  21184 83096 32695 61403 10274 20214 30168 40175 83101 333 59006;
0198830960999992004062200004-10917-037050FM-12+000699999V0201401N001512200019N0020001N1+02581+02191101881ADDAA106000091GF103991031051012501001001KA1240M+02851MA1999999101811MD1999999+0101REMSYN088AAXX  22004 83096 32695 31403 10258 20219 30181 40188 83500 333 10285 29076 55073 58010;EQDQ01  00002PRCP06
0190830960999992004062212004-10917-037050FM-12+000699999V0201401N005112200019N0020001N1+02701+02011101921ADDAY161061AY261061GF103991031011012501001001KA1240N+02331MA1999999101851MD1999999+0001MW1211REMSYN088AAXX  22124 83096 21695 31410 10270 20201 30185 40192 72166 83100 333 20233 58000 60054;
0148830960999992004062218004-10917-037050FM-12+000699999V0201401N003112200019N0020001N1+02731+01971101741ADDAA106000021GF102991021011012501001001MA1999999101671MD1999999-0011REMSYN070AAXX  22184 83096 32695 21406 10273 20197 30167 40174 82100 333 59001;
0198830960999992004062300004-10917-037050FM-12+000699999V0200901N002110120019N0020001N1+02501+01941101941ADDAA106000091GF106991061051012501001001KA1240M+02881MA1999999101871MD1999999+0061REMSYN088AAXX  23004 83096 32695 60904 10250 20194 30187 40194 86500 333 10288 29068 55106 58006;EQDQ01  00002PRCP06
0186830960999992004062312004-10917-037050FM-12+000699999V0201401N003112200019N0020001N1+02751+02041102001ADDAA106000091GF103991031011012501001001KA1240N+02371MA1999999101931MD1999999+0081REMSYN076AAXX  23124 83096 32695 31406 10275 20204 30193 40200 83100 333 20237 58008;EQDQ01  00002PRCP06
0186830960999992004062412004-10917-037050FM-12+000699999V0201401N002610120019N0020001N1+02711+01981101941ADDAA106000091GF105991051011012501001001KA1240N+02411MA1999999101871MD1999999-0061REMSYN076AAXX  24124 83096 32695 51405 10271 20198 30187 40194 85100 333 20241 59006;EQDQ01  00002PRCP06
0167830960999992004062418004-10917-037050FM-12+000699999V0201401N002112200019N0020001N1+02711+01931101631ADDAA106000091GF102991021011012501001001MA1999999101561MD1999999-0141REMSYN070AAXX  24184 83096 32695 21404 10271 20193 30156 40163 82100 333 59014;EQDQ01  00002PRCP06
0198830960999992004062500004-10917-037050FM-12+000699999V0201401N002110120019N0020001N1+02541+01861101851ADDAA106000091GF105991051051012501001001KA1240M+02891MA1999999101781MD1999999-0061REMSYN088AAXX  25004 83096 32695 51404 10254 20186 30178 40185 85500 333 10289 29064 55078 59006;EQDQ01  00002PRCP06
0167830960999992004062518004-10917-037050FM-12+000699999V0201401N001512200019N0020001N1+02661+02161101521ADDAA106000091GF103991031011012501001001MA1999999101451MD1999999-0111REMSYN070AAXX  25184 83096 32695 31403 10266 20216 30145 40152 83100 333 59011;EQDQ01  00002PRCP06
0202830960999992004062600004-10917-037050FM-12+000699999V0201801N000510120019N0020001N1+02341+02221101771ADDAY161061AY261061GF108991081051012501999999KA1240M+02831MA1999999101701MD1999999-0081MW1211REMSYN100AAXX  26004 83096 21695 81801 10234 20222 30170 40177 72166 885// 333 10283 29086 55062 59008 60011;
0190830960999992004062612004-10917-037050FM-12+000699999V0201401N004610120019N0020001N1+02651+02041101861ADDAY161061AY261061GF108991081051012501999999KA1240N+02181MA1999999101791MD1999999+0001MW1211REMSYN088AAXX  26124 83096 21695 81409 10265 20204 30179 40186 72166 885// 333 20218 58000 60024;
0171830960999992004062618004-10917-037050FM-12+000699999V0201401N001010075019N0020001N1+02391+02281101631ADDAY161061AY261061GF108991081051008001999999MA1999999101561MD1999999+0111MW1601REMSYN082AAXX  26184 83096 21595 81402 10239 20228 30156 40163 76066 885// 333 58011 60031;
0179830960999992004062700004-10917-037050FM-12+000699999V0201401N001010120019N0020001N1+02451+02071101761ADDAA106000021GF108991081051012501999999KA1240M+02851MA1999999101691MD1999999-0011REMSYN088AAXX  27004 83096 32695 81402 10245 20207 30169 40176 885// 333 10285 29080 55024 59001;
0190830960999992004062712004-10917-037050FM-12+000699999V0201401N003112200019N0020001N1+02701+02171101821ADDAY161061AY261061GF101991011011012501001001KA1240N+02301MA1999999101751MD1999999-0041MW1201REMSYN088AAXX  27124 83096 21695 11406 10270 20217 30175 40182 72066 81100 333 20230 59004 60044;
0171830960999992004062718004-10917-037050FM-12+000699999V0201401N002610120019N0020001N1+02501+02111101591ADDAY161061AY261061GF106991061051012501001001MA1999999101521MD1999999-0041MW1201REMSYN082AAXX  27184 83096 21695 61405 10250 20211 30152 40159 72066 86500 333 59004 60011;
0202830960999992004062800004-10917-037050FM-12+000699999V0201401N002612200019N0020001N1+02361+02221101691ADDAY151061AY251061GF104991041051012501001001KA1240M+02851MA1999999101621MD1999999-0571MW1201REMSYN100AAXX  28004 83096 21695 41405 10236 20222 30162 40169 72055 84500 333 10285 29084 55052 59057 69921;
0190830960999992004062812004-10917-037050FM-12+000699999V0200901N003110075019N0010001N1+02471+02151101721ADDAY161061AY261061GF108991081051008001999999KA1240N+02251MA1999999101651MD1999999-0101MW1631REMSYN088AAXX  28124 83096 21594 80906 10247 20215 30165 40172 76366 885// 333 20225 59010 60084;
0171830960999992004062818004-10917-037050FM-12+000699999V0201401N002112200019N0020001N1+02591+02171101581ADDAY161061AY261061GF104991041051012501001001MA1999999101511MD1999999-0011MW1211REMSYN082AAXX  28184 83096 21695 41404 10259 20217 30151 40158 72166 84500 333 59001 60081;
0179830960999992004062900004-10917-037050FM-12+000699999V0201401N001012200019N0020001N1+02501+02111101741ADDAA106000021GF103991031051012501001001KA1240M+02751MA1999999101671MD1999999+0051REMSYN088AAXX  29004 83096 32695 31402 10250 20211 30167 40174 83500 333 10275 29080 55023 58005;
0162830960999992004062912004-10917-037050FM-12+000699999V0201801N002110120019N0020001N1+02611+02101101721ADDGF105991051011012501001001KA1240N+02251MA1999999101651MD1999999+0101REMSYN082AAXX  29124 83096 22695 51804 10261 20210 30165 40172 85100 333 20225 58010 60084;
0171830960999992004062918004-10917-037050FM-12+000699999V0200901N002110075019N0010001N1+02401+02261101571ADDAY161061AY261061GF108991081051008001999999MA1999999101501MD1999999-0011MW1631REMSYN082AAXX  29184 83096 21594 80904 10240 20226 30150 40157 76366 885// 333 59001 60131;
0202830960999992004063000004-10917-037050FM-12+000699999V0201401N001510120019N0020001N1+02321+02181101681ADDAY161061AY261061GF106991061051012501001001KA1240M+02731MA1999999101611MD1999999-0061MW1211REMSYN100AAXX  30004 83096 21695 61403 10232 20218 30161 40168 72166 86500 333 10273 29088 55022 59006 69991;
0190830960999992004063012004-10917-037050FM-12+000699999V0200901N003112200019N0020001N1+02591+02171101711ADDAY161061AY261061GF104991041051012501001001KA1240N+02301MA1999999101641MD1999999-0011MW1211REMSYN088AAXX  30124 83096 21695 40906 10259 20217 30164 40171 72166 84500 333 20230 59001 60274;
0148830960999992004063018004-10917-037050FM-12+000699999V0200901N003112200019N0020001N1+02691+02021101551ADDAA106000021GF103991031011012501001001MA1999999101481MD1999999-0021REMSYN070AAXX  30184 83096 32695 30906 10269 20202 30148 40155 83100 333 59002;
0198830960999992004070100004-10917-037050FM-12+000699999V0200901N001512200019N0020001N1+02511+02051101601ADDAA106000091GF103991031051012501001001KA1240M+02751MA1999999101531MD1999999-0081REMSYN088AAXX  01004 83096 32695 30903 10251 20205 30153 40160 83500 333 10275 29074 55028 59008;EQDQ01  00002PRCP06
0190830960999992004070112004-10917-037050FM-12+000699999V0202701N001510120019N0020001N1+02381+02281101681ADDAY161061AY261061GF106991061051012501001001KA1240N+02101MA1999999101611MD1999999-0031MW1211REMSYN088AAXX  01124 83096 21695 62703 10238 20228 30161 40168 72166 86500 333 20210 59003 60034;
0148830960999992004070118004-10917-037050FM-12+000699999V0201401N002112200019N0020001N1+02711+02171101471ADDAA106000021GF103991031011012501001001MA1999999101401MD1999999-0081REMSYN070AAXX  01184 83096 32695 31404 10271 20217 30140 40147 83100 333 59008;
0202830960999992004070200004-10917-037050FM-12+000699999V0201401N001512200019N0020001N1+02411+02171101541ADDAY151061AY251061GF104991041051012501001001KA1240M+02841MA1999999101471MD1999999-0061MW1211REMSYN100AAXX  02004 83096 21695 41403 10241 20217 30147 40154 72155 84500 333 10284 29085 55072 59006 69941;
0167830960999992004070218004-10917-037050FM-12+000699999V0201401N002112200019N0020001N1+02751+02021101531ADDAA106000091GF103991031011012501001001MA1999999101461MD1999999+0061REMSYN070AAXX  02184 83096 32695 31404 10275 20202 30146 40153 83100 333 58006;EQDQ01  00002PRCP06
0202830960999992004070300004-10917-037050FM-12+000699999V0201401N002112200019N0020001N1+02451+02071101551ADDAY151061AY251061GF103991031051012501001001KA1240M+02831MA1999999101481MD1999999+0011MW1201REMSYN100AAXX  03004 83096 21695 31404 10245 20207 30148 40155 72055 83500 333 10283 29074 55071 58001 69921;
0190830960999992004070312004-10917-037050FM-12+000699999V0201401N002112200019N0020001N1+02641+01901101561ADDAY151061AY251061GF102991021011012501001001KA1240N+02331MA1999999101491MD1999999-0061MW1201REMSYN088AAXX  03124 83096 21695 21404 10264 20190 30149 40156 72055 82100 333 20233 59006 69994;
0148830960999992004070318004-10917-037050FM-12+000699999V0201401N002110120019N0020001N1+02691+02041101471ADDAA106000021GF105991051011012501001001MA1999999101401MD1999999-0061REMSYN070AAXX  03184 83096 32695 51404 10269 20204 30140 40147 85100 333 59006;
0198830960999992004070400004-10917-037050FM-12+000699999V0201801N001512200019N0020001N1+02491+02031101491ADDAA106000091GF102991021011012501001001KA1240M+02831MA1999999101421MD1999999-0061REMSYN088AAXX  04004 83096 32695 21803 10249 20203 30142 40149 82100 333 10283 29070 55091 59006;EQDQ01  00002PRCP06
0190830960999992004070412004-10917-037050FM-12+000699999V0201801N001510075019N0010001N1+02401+02211101581ADDAY161061AY261061GF108991081051008001999999KA1240N+02221MA1999999101511MD1999999+0021MW1611REMSYN088AAXX  04124 83096 21594 81803 10240 20221 30151 40158 76166 885// 333 20222 58002 60084;
0171830960999992004070418004-10917-037050FM-12+000699999V0200901N003610120019N0020001N1+02471+02221101431ADDAY161061AY261061GF107991071051012501001001MA1999999101261MD1999999-0041MW1211REMSYN082AAXX  04184 83096 21695 70907 10247 20222 30126 40143 72166 87500 333 59004 60061;
0179830960999992004070500004-10917-037050FM-12+000699999V0203601N001512200019N0020001N1+02341+02011101441ADDAA106000021GF102991021051012501001001KA1240M+02721MA1999999101371MD1999999-0051REMSYN088AAXX  05004 83096 32695 23603 10234 20201 30137 40144 82500 333 10272 29085 55033 59005;
0190830960999992004070512004-10917-037050FM-12+000699999V0203601N001010120019N0020001N1+02461+02281101751ADDAY161061AY261061GF106991061051012501001001KA1240N+02171MA1999999101681MD1999999+0171MW1211REMSYN088AAXX  05124 83096 21695 63602 10246 20228 30168 40175 72166 86500 333 20217 58017 60064;
0148830960999992004070518004-10917-037050FM-12+000699999V0201801N003610120019N0020001N1+02541+02251101541ADDAA106000021GF106991061051012501001001MA1999999101471MD1999999+0111REMSYN070AAXX  05184 83096 32695 61807 10254 20225 30147 40154 86500 333 58011;
0198830960999992004070600004-10917-037050FM-12+000699999V0201801N003610120019N0020001N1+02421+02401101681ADDAA106000091GF105991051051012501001001KA1240M+02741MA1999999101611MD1999999+0241REMSYN088AAXX  06004 83096 32695 51807 10242 20240 30161 40168 85500 333 10274 29088 55010 58024;EQDQ01  00002PRCP06
0190830960999992004070612004-10917-037050FM-12+000699999V0201801N003610120019N0020001N1+02351+02281101701ADDAY161061AY261061GF108991081051012501999999KA1240N+02261MA1999999101631MD1999999-0051MW1211REMSYN088AAXX  06124 83096 21695 81807 10235 20228 30163 40170 72166 885// 333 20226 59005 60084;
0171830960999992004070618004-10917-037050FM-12+000699999V0201801N002612200019N0020001N1+02611+02031101321ADDAY161061AY261061GF108991031051012501001011MA1999999101251MD1999999-0221MW1211REMSYN082AAXX  06184 83096 21695 81805 10261 20203 30125 40132 72166 83501 333 59022 60031;
0179830960999992004070700004-10917-037050FM-12+000699999V0201801N002112200019N0020001N1+02401+02261101581ADDAA106000021GF103991031051012501001001KA1240M+02781MA1999999101511MD1999999-0101REMSYN088AAXX  07004 83096 32695 31804 10240 20226 30151 40158 83500 333 10278 29088 55007 59010;
0190830960999992004070712004-10917-037050FM-12+000699999V0201401N001510120019N0020001N1+02631+02291101601ADDAY161061AY261061GF105991051051012501001001KA1240N+02351MA1999999101531MD1999999-0101MW1201REMSYN088AAXX  07124 83096 21695 51403 10263 20229 30153 40160 72066 85500 333 20235 59010 60034;
0148830960999992004070718004-10917-037050FM-12+000699999V0201401N003112200019N0020001N1+02671+02221101361ADDAA106000021GF102991021011012501001001MA1999999101291MD1999999+0041REMSYN070AAXX  07184 83096 32695 21406 10267 20222 30129 40136 82100 333 58004;
0202830960999992004070800004-10917-037050FM-12+000699999V0201401N001510120019N0020001N1+02571+02171101491ADDAY161061AY261061GF106991061051012501001001KA1240M+02831MA1999999101421MD1999999-0091MW1201REMSYN100AAXX  08004 83096 21695 61403 10257 20217 30142 40149 72066 86500 333 10283 29078 55054 59009 69941;
0190830960999992004070812004-10917-037050FM-12+000699999V0200901N003110120019N0020001N1+02621+02331101591ADDAY161061AY261061GF105991051051012501001001KA1240N+02281MA1999999101521MD1999999-0011MW1211REMSYN088AAXX  08124 83096 21695 50906 10262 20233 30152 40159 72166 85500 333 20228 59001 60044;
0202830960999992004070900004-10917-037050FM-12+000699999V0200901N003112200019N0020001N1+02431+02281101471ADDAY161061AY261061GF103991031051012501001001KA1240M+02791MA1999999101401MD1999999-0021MW1211REMSYN100AAXX  09004 83096 21695 30906 10243 20228 30140 40147 72166 83500 333 10279 29090 55014 59002 60101;
0190830960999992004070912004-10917-037050FM-12+000699999V0203201N001510120019N0020001N1+02701+02351101611ADDAY161061AY261061GF108991081051012501999999KA1240N+02251MA1999999101541MD1999999+0021MW1211REMSYN088AAXX  09124 83096 21695 83203 10270 20235 30154 40161 72166 885// 333 20225 58002 60484;
0171830960999992004070918004-10917-037050FM-12+000699999V0200901N002110120019N0020001N1+02711+02281101351ADDAY161061AY261061GF105991051011012501001001MA1999999101281MD1999999-0011MW1211REMSYN082AAXX  09184 83096 21695 50904 10271 20228 30128 40135 72166 85100 333 59001 60121;
0179830960999992004071000004-10917-037050FM-12+000699999V0200901N003112200019N0020001N1+02521+02191101541ADDAA106000021GF103991031051012501001001KA1240M+02791MA1999999101471MD1999999+0071REMSYN088AAXX  10004 83096 32695 30906 10252 20219 30147 40154 83500 333 10279 29085 55032 58007;
0190830960999992004071012004-10917-037050FM-12+000699999V0200901N002612200019N0020001N1+02711+02321101551ADDAY161061AY261061GF103991021011012501001011KA1240N+02301MA1999999101481MD1999999-0061MW1211REMSYN088AAXX  10124 83096 21695 30905 10271 20232 30148 40155 72166 82101 333 20230 59006 60124;
0148830960999992004071018004-10917-037050FM-12+000699999V0200901N003110120019N0020001N1+02661+02291101391ADDAA106000021GF106991061051012501001001MA1999999101321MD1999999+0041REMSYN070AAXX  10184 83096 32695 60906 10266 20229 30132 40139 86500 333 58004;
0198830960999992004071100004-10917-037050FM-12+000699999V0200901N004110120019N0020001N1+02511+02191101571ADDAA106000091GF105991051051012501001001KA1240M+02841MA1999999101501MD1999999+0031REMSYN088AAXX  11004 83096 32695 50908 10251 20219 30150 40157 85500 333 10284 29081 55075 58003;EQDQ01  00002PRCP06
0167830960999992004071118004-10917-037050FM-12+000699999V0201401N003112200019N0020001N1+02631+02031101421ADDAA106000091GF102991021011012501001001MA1999999101351MD1999999+0031REMSYN070AAXX  11184 83096 32695 21406 10263 20203 30135 40142 82100 333 58003;EQDQ01  00002PRCP06
0198830960999992004071200004-10917-037050FM-12+000699999V0200901N002112200019N0020001N1+02401+02051101501ADDAA106000091GF102991021051012501001001KA1240M+02801MA1999999101451MD1999999-0051REMSYN088AAXX  12004 83096 32695 20904 10240 20205 30145 40150 82500 333 10280 29077 55084 59005;EQDQ01  00002PRCP06
0186830960999992004071212004-10917-037050FM-12+000699999V0200901N001512200019N0020001N1+02381+02071101581ADDAA106000091GF103991031011012501001001KA1240N+02201MA1999999101511MD1999999-0121REMSYN076AAXX  12124 83096 32695 30903 10238 20207 30151 40158 83100 333 20220 59012;EQDQ01  00002PRCP06
0171830960999992004071218004-10917-037050FM-12+000699999V0200901N001512200019N0020001N1+02461+02171101411ADDAY161061AY261061GF104991041051012501001001MA1999999101341MD1999999-0011MW1211REMSYN082AAXX  12184 83096 21695 40903 10246 20217 30134 40141 72166 84500 333 59001 60021;
0202830960999992004071300004-10917-037050FM-12+000699999V0201401N002110120019N0020001N1+02381+02281101501ADDAY161061AY261061GF105991051051012501001001KA1240M+02881MA1999999101431MD1999999-0021MW1211REMSYN100AAXX  13004 83096 21695 51404 10238 20228 30143 40150 72166 85500 333 10288 29089 55084 59002 60041;
0190830960999992004071312004-10917-037050FM-12+000699999V0201401N003110075019N0010001N1+02451+02171101561ADDAY161061AY261061GF108991081051008001999999KA1240N+02281MA1999999101491MD1999999-0021MW1601REMSYN088AAXX  13124 83096 21594 81406 10245 20217 30149 40156 76066 885// 333 20228 59002 60124;
0148830960999992004071318004-10917-037050FM-12+000699999V0201401N002112200019N0020001N1+02631+01831101501ADDAA106000021GF104991041011012501001001MA1999999101431MD1999999+0091REMSYN070AAXX  13184 83096 32695 41404 10263 20183 30143 40150 84100 333 58009;
0198830960999992004071400004-10917-037050FM-12+000699999V0201401N001512200019N0020001N1+02511+01871101561ADDAA106000091GF102991021011012501001001KA1240M+02751MA1999999101491MD1999999+0061REMSYN088AAXX  14004 83096 32695 21403 10251 20187 30149 40156 82100 333 10275 29070 55016 58006;EQDQ01  00002PRCP06
0190830960999992004071412004-10917-037050FM-12+000699999V0200901N003112200019N0020001N1+02551+02021101621ADDAY151061AY251061GF103991031051012501001001KA1240N+02241MA1999999101151MD1999999+0061MW1201REMSYN088AAXX  14124 83096 21695 30906 10255 20202 30115 40162 72055 83500 333 20224 58006 69974;
0148830960999992004071418004-10917-037050FM-12+000699999V0200901N002612200019N0020001N1+02711+01991101571ADDAA106000021GF102991021011012501001001MA1999999101501MD1999999+0071REMSYN070AAXX  14184 83096 32695 20905 10271 20199 30150 40157 82100 333 58007;
0198830960999992004071500004-10917-037050FM-12+000699999V0201401N002112200019N0020001N1+02531+02071101601ADDAA106000091GF103991031051012501001001KA1240M+02831MA1999999101531MD1999999+0041REMSYN088AAXX  15004 83096 32695 31404 10253 20207 30153 40160 83500 333 10283 29072 55079 58004;EQDQ01  00002PRCP06
0186830960999992004071512004-10917-037050FM-12+000699999V0201401N002110120019N0020001N1+02551+01981101701ADDAA106000091GF105991051011012501001001KA1240N+02431MA1999999101631MD1999999+0081REMSYN076AAXX  15124 83096 32695 51404 10255 20198 30163 40170 85100 333 20243 58008;EQDQ01  00002PRCP06
0167830960999992004071518004-10917-037050FM-12+000699999V0201401N002112200019N0020001N1+02741+02121101571ADDAA106000091GF104991041011012501001001MA1999999101501MD1999999+0001REMSYN070AAXX  15184 83096 32695 41404 10274 20212 30150 40157 84100 333 58000;EQDQ01  00002PRCP06
0198830960999992004071600004-10917-037050FM-12+000699999V0200901N002112200019N0020001N1+02531+02051101601ADDAA106000091GF103991031011012501001001KA1240M+02851MA1999999101531MD1999999+0001REMSYN088AAXX  16004 83096 32695 30904 10253 20205 30153 40160 83100 333 10285 29072 55055 58000;EQDQ01  00002PRCP06
0186830960999992004071612004-10917-037050FM-12+000699999V0200901N002112200019N0020001N1+02651+02051101721ADDAA106000091GF103991031011012501001001KA1240N+02441MA1999999101651MD1999999+0021REMSYN076AAXX  16124 83096 32695 30904 10265 20205 30165 40172 83100 333 20244 58002;EQDQ01  00002PRCP06
0167830960999992004071618004-10917-037050FM-12+000699999V0201401N002112200019N0020001N1+02711+02031101571ADDAA106000091GF104991041011012501001001MA1999999101501MD1999999+0001REMSYN070AAXX  16184 83096 32695 41404 10271 20203 30150 40157 84100 333 58000;EQDQ01  00002PRCP06
0198830960999992004071700004-10917-037050FM-12+000699999V0201401N001510120019N0020001N1+02511+02131101741ADDAA106000091GF106991061051012501001001KA1240M+02871MA1999999101671MD1999999+0141REMSYN088AAXX  17004 83096 32695 61403 10251 20213 30167 40174 86500 333 10287 29074 55069 58014;EQDQ01  00002PRCP06
0186830960999992004071712004-10917-037050FM-12+000699999V0200901N002112200019N0020001N1+02671+02091101641ADDAA106000091GF104991041011012501001001KA1240N+02451MA1999999101571MD1999999-0081REMSYN076AAXX  17124 83096 32695 40904 10267 20209 30157 40164 84100 333 20245 59008;EQDQ01  00002PRCP06
0167830960999992004071718004-10917-037050FM-12+000699999V0201401N001510120019N0020001N1+02591+02141101571ADDAA106000091GF106991061051012501001001MA1999999101501MD1999999+0001REMSYN070AAXX  17184 83096 32695 61403 10259 20214 30150 40157 86500 333 58000;EQDQ01  00002PRCP06
0202830960999992004071800004-10917-037050FM-12+000699999V0200501N001010075019N0020001N1+02291+02181101741ADDAY161061AY261061GF108991081051008001999999KA1240M+02881MA1999999101671MD1999999+0001MW1601REMSYN100AAXX  18004 83096 21595 80502 10229 20218 30167 40174 76066 885// 333 10288 29083 55053 58000 69941;
0190830960999992004071812004-10917-037050FM-12+000699999V0200901N002112200019N0020001N1+02551+02131101721ADDAY151061AY251061GF103991031011012501001001KA1240N+02181MA1999999101651MD1999999+0081MW1201REMSYN088AAXX  18124 83096 21695 30904 10255 20213 30165 40172 72055 83100 333 20218 58008 69994;
0171830960999992004071818004-10917-037050FM-12+000699999V0201401N003110120019N0020001N1+02401+02171101681ADDAY161061AY261061GF106991061051012501001001MA1999999101611MD1999999+0111MW1211REMSYN082AAXX  18184 83096 21695 61406 10240 20217 30161 40168 72166 86500 333 58011 60031;
0202830960999992004071900004-10917-037050FM-12+000699999V0202701N001512200019N0020001N1+02161+02081101741ADDAY161061AY261061GF104991041051012501001001KA1240M+02831MA1999999101671MD1999999+0001MW1211REMSYN100AAXX  19004 83096 21695 42703 10216 20208 30167 40174 72166 84500 333 10283 29088 55069 58000 60051;
0190830960999992004071912004-10917-037050FM-12+000699999V0201401N002112200019N0020001N1+02591+01991101921ADDAY161061AY261061GF103991031011012501001001KA1240N+02061MA1999999101181MD1999999+0201MW1211REMSYN088AAXX  19124 83096 21695 31404 10259 20199 30118 40192 72166 83100 333 20206 58020 60104;
0148830960999992004071918004-10917-037050FM-12+000699999V0201401N002610120019N0020001N1+02681+02091101651ADDAA106000021GF105991051011012501001001MA1999999101581MD1999999-0031REMSYN070AAXX  19184 83096 32695 51405 10268 20209 30158 40165 85100 333 59003;
0202830960999992004072000004-10917-037050FM-12+000699999V0201801N001510075019N0020001N1+02261+02091101841ADDAY161061AY261061GF108991081051008001999999KA1240M+02801MA1999999101771MD1999999+0101MW1601REMSYN100AAXX  20004 83096 21595 81803 10226 20209 30177 40184 76066 885// 333 10280 29081 55093 58010 60031;
0190830960999992004072012004-10917-037050FM-12+000699999V0201801N001510120019N0020001N1+02531+02211101931ADDAY161061AY261061GF106991061011012501001001KA1240N+02101MA1999999101861MD1999999+0011MW1211REMSYN088AAXX  20124 83096 21695 61803 10253 20221 30186 40193 72166 86100 333 20210 58001 60034;
0148830960999992004072018004-10917-037050FM-12+000699999V0201401N003112200019N0020001N1+02671+02161101531ADDAA106000021GF103991031011012501001001MA1999999101461MD1999999-0121REMSYN070AAXX  20184 83096 32695 31406 10267 20216 30146 40153 83100 333 59012;
0198830960999992004072100004-10917-037050FM-12+000699999V0201401N001510120019N0020001N1+02451+02051101671ADDAA106000091GF105991051051012501001001KA1240M+02801MA1999999101601MD1999999-0171REMSYN088AAXX  21004 83096 32695 51403 10245 20205 30160 40167 85500 333 10280 29078 55092 59017;EQDQ01  00002PRCP06
0186830960999992004072112004-10917-037050FM-12+000699999V0202301N001512200019N0020001N1+02441+02151101671ADDAA106000091GF102991021011012501001001KA1240N+02041MA1999999101601MD1999999-0201REMSYN076AAXX  21124 83096 32695 22303 10244 20215 30160 40167 82100 333 20204 59020;EQDQ01  00002PRCP06
0167830960999992004072118004-10917-037050FM-12+000699999V0201801N001512200019N0020001N1+02571+02151101371ADDAA106000091GF106991041011012501001011MA1999999101301MD1999999-0161REMSYN070AAXX  21184 83096 32695 61803 10257 20215 30130 40137 84101 333 59016;EQDQ01  00002PRCP06
0202830960999992004072200004-10917-037050FM-12+000699999V0202301N001510075019N0020001N1+02221+02141101581ADDAY161061AY261061GF108991081051008001999999KA1240M+02831MA1999999101511MD1999999-0091MW1601REMSYN100AAXX  22004 83096 21595 82303 10222 20214 30151 40158 76066 885// 333 10283 29088 55074 59009 60011;
0190830960999992004072212004-10917-037050FM-12+000699999V0202301N005110120019N0020001N1+02451+02251101711ADDAY161061AY261061GF108991081051012501999999KA1240N+02101MA1999999101641MD1999999+0041MW1211REMSYN088AAXX  22124 83096 21695 82310 10245 20225 30164 40171 72166 885// 333 20210 58004 60054;
0171830960999992004072218004-10917-037050FM-12+000699999V0202301N005712200019N0020001N1+02641+01981101501ADDAY161061AY261061GF103991031011012501001001MA1999999101431MD1999999-0131MW1211REMSYN082AAXX  22184 83096 21695 32311 10264 20198 30143 40150 72166 83100 333 59013 60031;
0202830960999992004072300004-10917-037050FM-12+000699999V0202301N003112200019N0020001N1+02301+01961101761ADDAY161061AY261061GF103991031051012501001001KA1240M+02731MA1999999101691MD1999999+0181MW1201REMSYN100AAXX  23004 83096 21695 32306 10230 20196 30169 40176 72066 83500 333 10273 29079 55059 58018 69971;
0190830960999992004072312004-10917-037050FM-12+000699999V0202301N003110120019N0020001N1+02401+01991101871ADDAY161061AY261061GF106991061051012501001001KA1240N+01921MA1999999101801MD1999999+0161MW1201REMSYN088AAXX  23124 83096 21695 62306 10240 20199 30180 40187 72066 86500 333 20192 58016 60044;
0171830960999992004072318004-10917-037050FM-12+000699999V0202301N005710120019N0020001N1+02371+02071101631ADDAY161061AY261061GF105991051021012501001001MA1999999101561MD1999999+0131MW1201REMSYN082AAXX  23184 83096 21695 52311 10237 20207 30156 40163 72066 85200 333 58013 69991;
0202830960999992004072400004-10917-037050FM-12+000699999V0202301N005110120019N0020001N1+02261+01961101911ADDAY161061AY261061GF108991081051012501999999KA1240M+02601MA1999999101841MD1999999+0151MW1201REMSYN100AAXX  24004 83096 21695 82310 10226 20196 30184 40191 72066 885// 333 10260 29083 55075 58015 69951;
0190830960999992004072412004-10917-037050FM-12+000699999V0202301N003610075019N0020001N1+02401+02051102101ADDAY161061AY261061GF108991081051008001999999KA1240N+02121MA1999999102031MD1999999+0231MW1601REMSYN088AAXX  24124 83096 21595 82307 10240 20205 30203 40210 76066 885// 333 20212 58023 60054;
0171830960999992004072418004-10917-037050FM-12+000699999V0201401N003610120019N0020001N1+02211+01971101961ADDAY161061AY261061GF108991081051012501999999MA1999999101891MD1999999+0431MW1211REMSYN082AAXX  24184 83096 21695 81407 10221 20197 30189 40196 72166 885// 333 58043 60121;
0179830960999992004072500004-10917-037050FM-12+000699999V02099999999990120019N0020001N1+02411+01771102091ADDAA106000021GF108991081051012501999999KA1240M+02581MA1999999102021MD1999999+0181REMSYN088AAXX  25004 83096 32695 818// 10241 20177 30202 40209 885// 333 10258 29075 55015 58018;
0190830960999992004072512004-10917-037050FM-12+000699999V0201401N003110120019N0020001N1+02461+01941102131ADDAY161061AY261061GF108991081051012501999999KA1240N+02161MA1999999102061MD1999999+0031MW1211REMSYN088AAXX  25124 83096 21695 81406 10246 20194 30206 40213 72166 885// 333 20216 58003 60134;
0148830960999992004072518004-10917-037050FM-12+000699999V0201401N004610120019N0020001N1+02441+01951101921ADDAA106000021GF108991081051012501999999MA1999999101851MD1999999-0041REMSYN070AAXX  25184 83096 32695 81409 10244 20195 30185 40192 885// 333 59004;
0198830960999992004072600004-10917-037050FM-12+000699999V0201401N005110120019N0020001N1+02411+01841102021ADDAA106000091GF108991081051012501999999KA1240M+02611MA1999999101951MD1999999-0071REMSYN088AAXX  26004 83096 32695 81410 10241 20184 30195 40202 885// 333 10261 29072 55006 59007;EQDQ01  00002PRCP06
0190830960999992004072612004-10917-037050FM-12+000699999V0201801N003610120019N0020001N1+02381+01821101931ADDAY151061AY251061GF106991061051012501001001KA1240N+02261MA1999999101861MD1999999-0201MW1201REMSYN088AAXX  26124 83096 21695 61807 10238 20182 30186 40193 72055 86500 333 20226 59020 69924;
0148830960999992004072618004-10917-037050FM-12+000699999V0201801N004110120019N0020001N1+02561+01881101821ADDAA106000021GF106991061051012501001001MA1999999101751MD1999999-0101REMSYN070AAXX  26184 83096 32695 61808 10256 20188 30175 40182 86500 333 59010;
0198830960999992004072700004-10917-037050FM-12+000699999V0201801N004110120019N0020001N1+02411+01801101921ADDAA106000091GF106991061051012501001001KA1240M+02671MA1999999101851MD1999999-0101REMSYN088AAXX  27004 83096 32695 61808 10241 20180 30185 40192 86500 333 10267 29069 55010 59010;EQDQ01  00002PRCP06
0190830960999992004072712004-10917-037050FM-12+000699999V0201801N004110120019N0020001N1+02551+01781101991ADDAY151061AY251061GF105991051011012501001001KA1240N+02201MA1999999101921MD1999999+0061MW1201REMSYN088AAXX  27124 83096 21695 51808 10255 20178 30192 40199 72055 85100 333 20220 58006 69944;
0198830960999992004072800004-10917-037050FM-12+000699999V0201801N003112200019N0020001N1+02431+01911101811ADDAA106000091GF104991041011012501001001KA1240M+02771MA1999999101741MD1999999-0111REMSYN088AAXX  28004 83096 32695 41806 10243 20191 30174 40181 84100 333 10277 29067 55081 59011;EQDQ01  00002PRCP06
0186830960999992004072812004-10917-037050FM-12+000699999V0201801N003110120019N0020001N1+02511+01801101901ADDAA106000091GF105991051011012501001001KA1240N+02261MA1999999101831MD1999999-0091REMSYN076AAXX  28124 83096 32695 51806 10251 20180 30183 40190 85100 333 20226 59009;EQDQ01  00002PRCP06
0167830960999992004072818004-10917-037050FM-12+000699999V0201801N005112200019N0020001N1+02571+01951101791ADDAA106000091GF104991041011012501001001MA1999999101721MD1999999-0021REMSYN070AAXX  28184 83096 32695 41810 10257 20195 30172 40179 84100 333 59002;EQDQ01  00002PRCP06
0198830960999992004072900004-10917-037050FM-12+000699999V0201801N004610120019N0020001N1+02441+01881101981ADDAA106000091GF106991061051012501001001KA1240M+02711MA1999999101911MD1999999+0171REMSYN088AAXX  29004 83096 32695 61809 10244 20188 30191 40198 86500 333 10271 29069 55061 58017;EQDQ01  00002PRCP06
0190830960999992004072912004-10917-037050FM-12+000699999V0201801N003610120019N0020001N1+02431+01991101821ADDAY151061AY251061GF106991061051012501001001KA1240N+02301MA1999999101751MD1999999-0081MW1201REMSYN088AAXX  29124 83096 21695 61807 10243 20199 30175 40182 72055 86500 333 20230 59008 69944;
0171830960999992004072918004-10917-037050FM-12+000699999V0201801N004110075019N0020001N1+02401+02031101701ADDAY161061AY261061GF108991081051008001999999MA1999999101631MD1999999-0091MW1601REMSYN082AAXX  29184 83096 21595 81808 10240 20203 30163 40170 76066 885// 333 59009 60011;
0202830960999992004073000004-10917-037050FM-12+000699999V0201401N003110120019N0020001N1+02261+02141101911ADDAY161061AY261061GF108991081051012501999999KA1240M+02611MA1999999101841MD1999999-0071MW1211REMSYN100AAXX  30004 83096 21695 81406 10226 20214 30184 40191 72166 885// 333 10261 29086 55000 59007 60051;
0190830960999992004073012004-10917-037050FM-12+000699999V0201801N002110120019N0020001N1+02471+02191101821ADDAY161061AY261061GF106991061051012501001001KA1240N+02101MA1999999101751MD1999999+0001MW1211REMSYN088AAXX  30124 83096 21695 61804 10247 20219 30175 40182 72166 86500 333 20210 58000 60214;
0171830960999992004073018004-10917-037050FM-12+000699999V0201401N002112200019N0020001N1+02631+02161101701ADDAY161061AY261061GF103991031011012501001001MA1999999101631MD1999999+0001MW1211REMSYN082AAXX  30184 83096 21695 31404 10263 20216 30163 40170 72166 83100 333 58000 60011;
0179830960999992004073100004-10917-037050FM-12+000699999V0201401N001510120019N0020001N1+02501+02171101881ADDAA106000021GF108991081051012501999999KA1240M+02731MA1999999101811MD1999999-0031REMSYN088AAXX  31004 83096 32695 81403 10250 20217 30181 40188 885// 333 10273 29081 55050 59003;
0190830960999992004073112004-10917-037050FM-12+000699999V0200901N002110120019N0020001N1+02321+02091101831ADDAY161061AY261061GF106991061051012501001001KA1240N+02201MA1999999101761MD1999999+0011MW1211REMSYN088AAXX  31124 83096 21695 60904 10232 20209 30176 40183 72166 86500 333 20220 58001 60054;
0171830960999992004073118004-10917-037050FM-12+000699999V0200901N002110075019N0010001N1+02241+02161101741ADDAY161061AY261061GF108991081051008001999999MA1999999101671MD1999999-0041MW1631REMSYN082AAXX  31184 83096 21594 80904 10224 20216 30167 40174 76366 885// 333 59004 60101;
0202830960999992004080100004-10917-037050FM-12+000699999V0201401N003110075019N0020001N1+02301+02131101881ADDAY161061AY261061GF108991081051008001999999KA1240M+02471MA1999999101811MD1999999+0001MW1211REMSYN100AAXX  01004 83096 21595 81406 10230 20213 30181 40188 72166 885// 333 10247 29090 55000 58000 60031;
0190830960999992004080112004-10917-037050FM-12+000699999V0200901N002110075019N0010001N1+02131+02051101871ADDAY161061AY261061GF108991081051008001999999KA1240N+02101MA1999999101801MD1999999+0041MW1631REMSYN088AAXX  01124 83096 21594 80904 10213 20205 30180 40187 76366 885// 333 20210 58004 60274;
0171830960999992004080118004-10917-037050FM-12+000699999V0201801N002110120019N0020001N1+02431+02091101701ADDAY161061AY261061GF105991051051012501001001MA1999999101631MD1999999-0041MW1211REMSYN082AAXX  01184 83096 21695 51804 10243 20209 30163 40170 72166 85500 333 59004 60101;
0202830960999992004080200004-10917-037050FM-12+000699999V0201801N001510120019N0020001N1+02201+02081101711ADDAY151061AY251061GF105991051051012501001001KA1240M+02551MA1999999101641MD1999999-0171MW1201REMSYN100AAXX  02004 83096 21695 51803 10220 20208 30164 40171 72055 85500 333 10255 29091 55008 59017 69961;
0162830960999992004080212004-10917-037050FM-12+000699999V0200901N001510120019N0020001N1+02341+02261101831ADDGF105991051051012501001001KA1240N+02101MA1999999101761MD1999999+0041REMSYN082AAXX  02124 83096 22695 50903 10234 20226 30176 40183 85500 333 20210 58004 60114;
0167830960999992004080218004-10917-037050FM-12+000699999V0201401N002112200019N0020001N1+02621+02161101741ADDAA106000091GF103991031051012501001001MA1999999101671MD1999999+0041REMSYN070AAXX  02184 83096 32695 31404 10262 20216 30167 40174 83500 333 58004;EQDQ01  00002PRCP06
0198830960999992004080300004-10917-037050FM-12+000699999V0201401N001512200019N0020001N1+02451+02091101891ADDAA106000091GF102991021051012501001001KA1240M+02791MA1999999101821MD1999999+0181REMSYN088AAXX  03004 83096 32695 21403 10245 20209 30182 40189 82500 333 10279 29083 55058 58018;EQDQ01  00002PRCP06
0186830960999992004080312004-10917-037050FM-12+000699999V0201401N001512200019N0020001N1+02531+02051101831ADDAA106000091GF104991041011012501001001KA1240N+02351MA1999999101761MD1999999+0001REMSYN076AAXX  03124 83096 32695 41403 10253 20205 30176 40183 84100 333 20235 58000;EQDQ01  00002PRCP06
0167830960999992004080318004-10917-037050FM-12+000699999V0201401N004112200019N0020001N1+02611+02031101771ADDAA106000091GF102991021011012501001001MA1999999101701MD1999999+0031REMSYN070AAXX  03184 83096 32695 21408 10261 20203 30170 40177 82100 333 58003;EQDQ01  00002PRCP06
0198830960999992004080400004-10917-037050FM-12+000699999V0201401N002612200019N0020001N1+02371+01871101931ADDAA106000091GF102991021051012501001001KA1240M+02771MA1999999101861MD1999999+0041REMSYN088AAXX  04004 83096 32695 21405 10237 20187 30186 40193 82500 333 10277 29073 55090 58004;EQDQ01  00002PRCP06
0186830960999992004080412004-10917-037050FM-12+000699999V0201801N001512200019N0020001N1+02451+01991101891ADDAA106000091GF104991041011012501001001KA1240N+02431MA1999999101821MD1999999+0061REMSYN076AAXX  04124 83096 32695 41803 10245 20199 30182 40189 84100 333 20243 58006;EQDQ01  00002PRCP06
0167830960999992004080418004-10917-037050FM-12+000699999V0201401N005112200019N0020001N1+02611+02121101741ADDAA106000091GF106991041011012501001011MA1999999101671MD1999999-0031REMSYN070AAXX  04184 83096 32695 61410 10261 20212 30167 40174 84101 333 59003;EQDQ01  00002PRCP06
0198830960999992004080500004-10917-037050FM-12+000699999V0200901N002610120019N0020001N1+02341+01931101891ADDAA106000091GF108991081051012501999999KA1240M+02791MA1999999101821MD1999999-0041REMSYN088AAXX  05004 83096 32695 80905 10234 20193 30182 40189 885// 333 10279 29076 55072 59004;EQDQ01  00002PRCP06
0186830960999992004080512004-10917-037050FM-12+000699999V0200901N001512200019N0020001N1+02401+02151101751ADDAA106000091GF103991031051012501001001KA1240N+02301MA1999999101681MD1999999-0141REMSYN076AAXX  05124 83096 32695 30903 10240 20215 30168 40175 83500 333 20230 59014;EQDQ01  00002PRCP06
0167830960999992004080518004-10917-037050FM-12+000699999V0201401N002110120019N0020001N1+02661+02161101671ADDAA106000091GF106991061021012501001001MA1999999101601MD1999999-0071REMSYN070AAXX  05184 83096 32695 61404 10266 20216 30160 40167 86200 333 59007;EQDQ01  00002PRCP06
0198830960999992004080600004-10917-037050FM-12+000699999V0201401N002112200019N0020001N1+02421+02151101881ADDAA106000091GF102991021051012501001001KA1240M+02771MA1999999101811MD1999999-0011REMSYN088AAXX  06004 83096 32695 21404 10242 20215 30181 40188 82500 333 10277 29082 55073 59001;EQDQ01  00002PRCP06
0209830960999992004080612004-10917-037050FM-12+000699999V0201101N041120120019N0020001N1+02261+02141101841ADDAY161061AY261061GF106991061051012501001001KA1240N+02101MA1999999101771MD1999999+0091MW1211REMSYN088AAXX  06124 83096 21695 61180 10226 20214 30177 40184 72166 86500 333 20210 58009 60074;EQDQ01+004113WOSPD 
0171830960999992004080618004-10917-037050FM-12+000699999V0201801N003110120019N0020001N1+02451+02151101741ADDAY161061AY261061GF108991081021012501999999MA1999999101671MD1999999+0071MW1211REMSYN082AAXX  06184 83096 21695 81806 10245 20215 30167 40174 72166 882// 333 58007 60051;
0202830960999992004080700004-10917-037050FM-12+000699999V0202301N001010120019N0020001N1+02231+02191101901ADDAY161061AY261061GF108991081051012501999999KA1240M+02641MA1999999101831MD1999999+0021MW1211REMSYN100AAXX  07004 83096 21695 82302 10223 20219 30183 40190 72166 885// 333 10264 29093 55007 58002 60031;
0190830960999992004080712004-10917-037050FM-12+000699999V0201401N002610120019N0020001N1+02471+02191102121ADDAY161061AY261061GF108991081021012501999999KA1240N+02201MA1999999102051MD1999999+0231MW1211REMSYN088AAXX  07124 83096 21695 81405 10247 20219 30205 40212 72166 882// 333 20220 58023 60074;
0148830960999992004080718004-10917-037050FM-12+000699999V0200501N005110120019N0020001N1+02481+02191101891ADDAA106000021GF108991081021012501999999MA1999999101821MD1999999+0151REMSYN070AAXX  07184 83096 32695 80510 10248 20219 30182 40189 882// 333 58015;
0198830960999992004080800004-10917-037050FM-12+000699999V0201401N001010120019N0020001N1+02431+02211101991ADDAA106000091GF106991061051012501001001KA1240M+02651MA1999999101921MD1999999+0091REMSYN088AAXX  08004 83096 32695 61402 10243 20221 30192 40199 86500 333 10265 29085 55000 58009;EQDQ01  00002PRCP06
0190830960999992004080812004-10917-037050FM-12+000699999V0201801N001510120019N0020001N1+02321+02291102041ADDAY161061AY261061GF108991081051012501999999KA1240N+02201MA1999999101971MD1999999-0081MW1211REMSYN088AAXX  08124 83096 21695 81803 10232 20229 30197 40204 72166 885// 333 20220 59008 60034;
0171830960999992004080818004-10917-037050FM-12+000699999V0201401N001512200019N0020001N1+02461+02131101711ADDAY161061AY261061GF103991021011012501001011MA1999999101641MD1999999-0161MW1211REMSYN082AAXX  08184 83096 21695 31403 10246 20213 30164 40171 72166 82101 333 59016 60041;
0179830960999992004080900004-10917-037050FM-12+000699999V0201801N001012200019N0020001N1+02291+02201101881ADDAA106000021GF101991011051012501001001KA1240M+02711MA1999999101811MD1999999-0111REMSYN088AAXX  09004 83096 32695 11802 10229 20220 30181 40188 81500 333 10271 29091 55020 59011;
0190830960999992004080912004-10920-037050FM-12+000599999V0201801N001510120019N0020001N1+02341+02291101861ADDAY151061AY251061GF106991061051012501001001KA1240N+02101MA1999999101791MD1999999-0181MW1201REMSYN088AAXX  09124 83096 21695 61803 10234 20229 30179 40186 72055 86500 333 20210 59018 60044;
0171830960999992004080918004-10920-037050FM-12+000599999V0201801N002110120019N0020001N1+02451+02231101701ADDAY161061AY261061GF106991061051012501001001MA1999999101631MD1999999-0011MW1211REMSYN082AAXX  09184 83096 21695 61804 10245 20223 30163 40170 72166 86500 333 59001 60021;
0202830960999992004081000004-10920-037050FM-12+000599999V0201801N003110120019N0020001N1+02431+02131101991ADDAY161061AY261061GF108991081051012501999999KA1240M+02791MA1999999101921MD1999999+0121MW1211REMSYN100AAXX  10004 83096 21695 81806 10243 20213 30192 40199 72166 885// 333 10279 29087 55031 58012 60021;
0162830960999992004081012004-10920-037050FM-12+000599999V0201801N003112200019N0020001N1+02511+02091101961ADDGF104991041051012501001001KA1240N+02281MA1999999101891MD1999999+0101REMSYN082AAXX  10124 83096 22695 41806 10251 20209 30189 40196 84500 333 20228 58010 60044;
0167830960999992004081018004-10920-037050FM-12+000599999V0201801N003112200019N0020001N1+02551+02061101841ADDAA106000091GF102991021051012501001001MA1999999101771MD1999999+0141REMSYN070AAXX  10184 83096 32695 21806 10255 20206 30177 40184 82500 333 58014;EQDQ01  00002PRCP06
0202830960999992004081100004-10920-037050FM-12+000599999V0200901N005110120019N0020001N1+02381+01971102141ADDAY161061AY261061GF108991081051012501999999KA1240M+02731MA1999999102071MD1999999+0151MW1211REMSYN100AAXX  11004 83096 21695 80910 10238 20197 30207 40214 72166 885// 333 10273 29077 55047 58015 60041;
0190830960999992004081112004-10917-037050FM-12+000699999V0201801N003612200019N0020001N1+02491+01831102041ADDAY161061AY261061GF104991041011012501001001KA1240N+02141MA1999999101971MD1999999+0081MW1211REMSYN088AAXX  11124 83096 21695 41807 10249 20183 30197 40204 72166 84100 333 20214 58008 60054;
0148830960999992004081118004-10917-037050FM-12+000699999V0201801N003112200019N0020001N1+02531+01691101821ADDAA106000021GF104991041011012501001001MA1999999101751MD1999999-0021REMSYN070AAXX  11184 83096 32695 41806 10253 20169 30175 40182 84100 333 59002;
0198830960999992004081200004-10920-037050FM-12+000599999V0201401N003110120019N0020001N1+02401+01841102101ADDAA106000091GF106991061051012501001001KA1240M+02691MA1999999102031MD1999999-0041REMSYN088AAXX  12004 83096 32695 61406 10240 20184 30203 40210 86500 333 10269 29068 55024 59004;EQDQ01  00002PRCP06
0186830960999992004081212004-10920-037050FM-12+000599999V0201801N003112200019N0020001N1+02471+01851102041ADDAA106000091GF102991021011012501001001KA1240N+02041MA1999999101971MD1999999+0001REMSYN076AAXX  12124 83096 32695 21806 10247 20185 30197 40204 82100 333 20204 58000;EQDQ01  00002PRCP06
0167830960999992004081218004-10920-037050FM-12+000599999V0201801N003110120019N0020001N1+02411+01891101921ADDAA106000091GF106991061051012501001001MA1999999101851MD1999999+0101REMSYN070AAXX  12184 83096 32695 61806 10241 20189 30185 40192 86500 333 58010;EQDQ01  00002PRCP06
0198830960999992004081300004-10920-037050FM-12+000599999V0201801N003110120019N0020001N1+02411+01841102141ADDAA106000091GF106991061051012501001001KA1240M+02691MA1999999102071MD1999999+0041REMSYN088AAXX  13004 83096 32695 61806 10241 20184 30207 40214 86500 333 10269 29071 55027 58004;EQDQ01  00002PRCP06
0167830960999992004081318004-10920-037050FM-12+000599999V0201801N003112200019N0020001N1+02591+01661101841ADDAA106000091GF104991041011012501001001MA1999999101771MD1999999-0081REMSYN070AAXX  13184 83096 32695 41806 10259 20166 30177 40184 84100 333 59008;EQDQ01  00002PRCP06
0202830960999992004081400004-10920-037050FM-12+000599999V0201801N008212200019N0020001N1+02301+01851102091ADDAY161061AY261061GF102991021051012501001001KA1240M+02691MA1999999102021MD1999999-0051MW1201REMSYN100AAXX  14004 83096 21695 21816 10230 20185 30202 40209 72066 82500 333 10269 29074 55006 59005 60011;
0190830960999992004081412004-10920-037050FM-12+000599999V0202301N002112200019N0020001N1+02101+02021102011ADDAY161061AY261061GF104991041051012501001001KA1240N+02021MA1999999101941MD1999999-0061MW1211REMSYN088AAXX  14124 83096 21695 42304 10210 20202 30194 40201 72166 84500 333 20202 59006 60174;
0171830960999992004081418004-10920-037050FM-12+000599999V0201401N002612200019N0020001N1+02461+01971101901ADDAY151061AY251061GF104991041011012501001001MA1999999101831MD1999999+0061MW1201REMSYN082AAXX  14184 83096 21695 41405 10246 20197 30183 40190 72055 84100 333 58006 69961;
0179830960999992004081500004-10920-037050FM-12+000599999V0201801N002110120019N0020001N1+02321+01851101931ADDAA106000021GF105991051051012501001001KA1240M+02691MA1999999101861MD1999999-0161REMSYN088AAXX  15004 83096 32695 51804 10232 20185 30186 40193 85500 333 10269 29080 55076 59016;
0190830960999992004081512004-10920-037050FM-12+000599999V0200901N001512200019N0020001N1+02481+01781101971ADDAY151061AY251061GF104991041011012501001001KA1240N+02201MA1999999101901MD1999999-0041MW1201REMSYN088AAXX  15124 83096 21695 40903 10248 20178 30190 40197 72055 84100 333 20220 59004 60014;
0148830960999992004081518004-10920-037050FM-12+000599999V0200901N002612200019N0020001N1+02591+01801101851ADDAA106000021GF104991041011012501001001MA1999999101781MD1999999-0051REMSYN070AAXX  15184 83096 32695 40905 10259 20180 30178 40185 84100 333 59005;
0198830960999992004081600004-10920-037050FM-12+000599999V0201401N002612200019N0020001N1+02381+01911101921ADDAA106000091GF104991041011012501001001KA1240M+02751MA1999999101851MD1999999-0011REMSYN088AAXX  16004 83096 32695 41405 10238 20191 30185 40192 84100 333 10275 29069 55089 59001;EQDQ01  00002PRCP06
0186830960999992004081612004-10920-037050FM-12+000599999V0201801N003110120019N0020001N1+02301+02091101921ADDAA106000091GF106991061051012501001001KA1240N+02301MA1999999101851MD1999999-0051REMSYN076AAXX  16124 83096 32695 61806 10230 20209 30185 40192 86500 333 20230 59005;EQDQ01  00002PRCP06
0171830960999992004081618004-10920-037050FM-12+000599999V0201801N003110120019N0020001N1+02381+02131101741ADDAY161061AY261061GF108991081021012501999999MA1999999101671MD1999999-0131MW1201REMSYN082AAXX  16184 83096 21695 81806 10238 20213 30167 40174 72066 882// 333 59013 60021;
0202830960999992004081700004-10920-037050FM-12+000599999V0201401N002610120019N0020001N1+02341+02131101921ADDAY161061AY261061GF108991081051012501999999KA1240M+02721MA1999999101851MD1999999+0001MW1201REMSYN100AAXX  17004 83096 21695 81405 10234 20213 30185 40192 72066 885// 333 10272 29087 55038 58000 69951;
0190830960999992004081712004-10920-037050FM-12+000599999V0201401N002112200019N0020001N1+02571+02111101841ADDAY151061AY251061GF104991041051012501001001KA1240N+02141MA1999999101771MD1999999-0081MW1201REMSYN088AAXX  17124 83096 21695 41404 10257 20211 30177 40184 72055 84500 333 20214 59008 60034;
0148830960999992004081718004-10920-037050FM-12+000599999V0201401N002612200019N0020001N1+02661+02091101671ADDAA106000021GF103991031021012501001001MA1999999101601MD1999999-0071REMSYN070AAXX  17184 83096 32695 31405 10266 20209 30160 40167 83200 333 59007;
0198830960999992004081800004-10920-037050FM-12+000599999V0201801N002112200019N0020001N1+02381+02011101881ADDAA106000091GF103991031051012501001001KA1240M+02791MA1999999101811MD1999999-0041REMSYN088AAXX  18004 83096 32695 31804 10238 20201 30181 40188 83500 333 10279 29077 55088 59004;EQDQ01  00002PRCP06
0186830960999992004081812004-10920-037050FM-12+000599999V0201401N002112200019N0020001N1+02611+02031101821ADDAA106000091GF102991021011012501001001KA1240N+02351MA1999999101751MD1999999-0021REMSYN076AAXX  18124 83096 32695 21404 10261 20203 30175 40182 82100 333 20235 59002;EQDQ01  00002PRCP06
0167830960999992004081818004-10920-037050FM-12+000599999V0201801N004110120019N0020001N1+02401+02231101701ADDAA106000091GF108991081051012501999999MA1999999101631MD1999999+0031REMSYN070AAXX  18184 83096 32695 81808 10240 20223 30163 40170 885// 333 58003;EQDQ01  00002PRCP06
0202830960999992004081900004-10920-037050FM-12+000599999V0200901N002610120019N0020001N1+02361+02241101861ADDAY161061AY261061GF108991081051012501999999KA1240M+02861MA1999999101791MD1999999-0021MW1211REMSYN100AAXX  19004 83096 21695 80905 10236 20224 30179 40186 72166 885// 333 10286 29087 55061 59002 60051;
0190830960999992004081912004-10920-037050FM-12+000599999V0201401N001510075019N0010001N1+02381+02281101941ADDAY161061AY261061GF108991081051008001999999KA1240N+02241MA1999999101871MD1999999+0121MW1631REMSYN088AAXX  19124 83096 21594 81403 10238 20228 30187 40194 76366 885// 333 20224 58012 60264;
0171830960999992004081918004-10920-037050FM-12+000599999V0200901N001510120019N0020001N1+02581+02251101981ADDAY161061AY261061GF105991051021012501001001MA1999999101911MD1999999+0211MW1211REMSYN082AAXX  19184 83096 21695 50903 10258 20225 30191 40198 72166 85200 333 58021 60051;
0179830960999992004082000004-10920-037050FM-12+000599999V0201401N001512200019N0020001N1+02481+02151102051ADDAA106000021GF103991031051012501001001KA1240M+02671MA1999999101981MD1999999+0191REMSYN088AAXX  20004 83096 32695 31403 10248 20215 30198 40205 83500 333 10267 29085 55000 58019;
0190830960999992004082012004-10920-037050FM-12+000599999V0200901N002112200019N0020001N1+02591+02171101921ADDAY151061AY251061GF102991021011012501001001KA1240N+02351MA1999999101851MD1999999-0021MW1201REMSYN088AAXX  20124 83096 21695 20904 10259 20217 30185 40192 72055 82100 333 20235 59002 60054;
0148830960999992004082018004-10920-037050FM-12+000599999V0200901N002612200019N0020001N1+02651+02221101771ADDAA106000021GF102991021011012501001001MA1999999101701MD1999999-0211REMSYN070AAXX  20184 83096 32695 20905 10265 20222 30170 40177 82100 333 59021;
0198830960999992004082100004-10920-037050FM-12+000599999V0200901N001510120019N0020001N1+02431+02131101881ADDAA106000091GF105991051051012501001001KA1240M+02791MA1999999101811MD1999999-0171REMSYN088AAXX  21004 83096 32695 50903 10243 20213 30181 40188 85500 333 10279 29080 55104 59017;EQDQ01  00002PRCP06
0190830960999992004082112004-10920-037050FM-12+000599999V0200901N001510120019N0020001N1+02491+02321101801ADDAY161061AY261061GF108991081021012501999999KA1240N+02201MA1999999101731MD1999999-0121MW1201REMSYN088AAXX  21124 83096 21695 80903 10249 20232 30173 40180 72066 882// 333 20220 59012 69954;
0171830960999992004082118004-10920-037050FM-12+000599999V0202301N001510120019N0020001N1+02261+02211101721ADDAY161061AY261061GF108991081051012501999999MA1999999101651MD1999999-0051MW1211REMSYN082AAXX  21184 83096 21695 82303 10226 20221 30165 40172 72166 885// 333 59005 60301;
0202830960999992004082200004-10920-037050FM-12+000599999V0200901N001510120019N0020001N1+02411+02191101811ADDAY161061AY261061GF108991081051012501999999KA1240M+02531MA1999999101741MD1999999-0071MW1201REMSYN100AAXX  22004 83096 21695 80903 10241 20219 30174 40181 72066 885// 333 10253 29090 55008 59007 69941;
0190830960999992004082212004-10920-037050FM-12+000599999V0201401N001510120019N0020001N1+02271+02141101941ADDAY161061AY261061GF108991081021012501999999KA1240N+02261MA1999999101871MD1999999+0141MW1211REMSYN088AAXX  22124 83096 21695 81403 10227 20214 30187 40194 72166 882// 333 20226 58014 60324;
0171830960999992004082218004-10920-037050FM-12+000599999V0200901N002612200019N0020001N1+02621+02101101651ADDAY161061AY261061GF101991011011012501001001MA1999999101581MD1999999-0071MW1201REMSYN082AAXX  22184 83096 21695 10905 10262 20210 30158 40165 72066 81100 333 59007 69971;
0179830960999992004082300004-10920-037050FM-12+000599999V0200901N001512200019N0020001N1+02431+02131101751ADDAA106000021GF101991011051012501001001KA1240M+02751MA1999999101681MD1999999-0061REMSYN088AAXX  23004 83096 32695 10903 10243 20213 30168 40175 81500 333 10275 29083 55056 59006;
0190830960999992004082312004-10920-037050FM-12+000599999V0200901N001510120019N0020001N1+02341+02261101821ADDAY161061AY261061GF106991061051012501001001KA1240N+02201MA1999999101751MD1999999-0121MW1211REMSYN088AAXX  23124 83096 21695 60903 10234 20226 30175 40182 72166 86500 333 20220 59012 60164;
0148830960999992004082318004-10920-037050FM-12+000599999V0200901N002612200019N0020001N1+02631+02251101601ADDAA106000021GF103991031051012501001001MA1999999101531MD1999999-0051REMSYN070AAXX  23184 83096 32695 30905 10263 20225 30153 40160 83500 333 59005;
0198830960999992004082400004-10920-037050FM-12+000599999V0200901N003112200019N0020001N1+02431+02071101791ADDAA106000091GF101991011051012501001001KA1240M+02771MA1999999101721MD1999999+0041REMSYN088AAXX  24004 83096 32695 10906 10243 20207 30172 40179 81500 333 10277 29084 55036 58004;EQDQ01  00002PRCP06
0186830960999992004082412004-10920-037050FM-12+000599999V0200901N001512200019N0020001N1+02591+02171101701ADDAA106000091GF103991031051012501001001KA1240N+02201MA1999999101631MD1999999-0121REMSYN076AAXX  24124 83096 32695 30903 10259 20217 30163 40170 83500 333 20220 59012;EQDQ01  00002PRCP06
0167830960999992004082418004-10920-037050FM-12+000599999V0200901N002612200019N0020001N1+02661+02161101461ADDAA106000091GF102991021011012501001001MA1999999101391MD1999999-0141REMSYN070AAXX  24184 83096 32695 20905 10266 20216 30139 40146 82100 333 59014;EQDQ01  00002PRCP06
0198830960999992004082500004-10920-037050FM-12+000599999V0200901N003110120019N0020001N1+02431+02091101641ADDAA106000091GF105991051051012501001001KA1240M+02751MA1999999101571MD1999999-0151REMSYN088AAXX  25004 83096 32695 50906 10243 20209 30157 40164 85500 333 10275 29079 55102 59015;EQDQ01  00002PRCP06
0186830960999992004082512004-10920-037050FM-12+000599999V0201401N002112200019N0020001N1+02661+02161101681ADDAA106000091GF104991041011012501001001KA1240N+02331MA1999999101611MD1999999-0021REMSYN076AAXX  25124 83096 32695 41404 10266 20216 30161 40168 84100 333 20233 59002;EQDQ01  00002PRCP06
0167830960999992004082518004-10917-037050FM-12+000699999V0201401N002112200019N0020001N1+02671+02141101471ADDAA106000091GF102991021011012501001001MA1999999101401MD1999999+0011REMSYN070AAXX  25184 83096 32695 21404 10267 20214 30140 40147 82100 333 58001;EQDQ01  00002PRCP06
0198830960999992004082600004-10917-037050FM-12+000699999V0201401N002112200019N0020001N1+02501+02111101701ADDAA106000091GF103991031051012501001001KA1240M+02821MA1999999101631MD1999999+0061REMSYN088AAXX  26004 83096 32695 31404 10250 20211 30163 40170 83500 333 10282 29076 55104 58006;EQDQ01  00002PRCP06
0190830960999992004082612004-10917-037050FM-12+000699999V0200901N001510075019N0020001N1+02341+02201101661ADDAY161061AY261061GF105991051051008001001001KA1240N+02241MA1999999101591MD1999999-0021MW1601REMSYN088AAXX  26124 83096 21595 50903 10234 20220 30159 40166 76066 85500 333 20224 59002 60024;
0171830960999992004082618004-10917-037050FM-12+000699999V0201401N002110120019N0020001N1+02431+02171101501ADDAY161061AY261061GF105991051051012501001001MA1999999101431MD1999999+0031MW1211REMSYN082AAXX  26184 83096 21695 51404 10243 20217 30143 40150 72166 85500 333 58003 60031;
0179830960999992004082700004-10917-037050FM-12+000699999V0200901N004112200019N0020001N1+02501+02051101641ADDAA106000021GF101991011051012501001001KA1240M+02691MA1999999101571MD1999999-0061REMSYN088AAXX  27004 83096 32695 10908 10250 20205 30157 40164 81500 333 10269 29082 55032 59006;
0162830960999992004082712004-10917-037050FM-12+000699999V0200901N002112200019N0020001N1+02611+02011101621ADDGF104991041011012501001001KA1240N+02351MA1999999101551MD1999999-0041REMSYN082AAXX  27124 83096 22695 40904 10261 20201 30155 40162 84100 333 20235 59004 60034;
0198830960999992004082800004-10917-037050FM-12+000699999V0200901N002610120019N0020001N1+02491+02151101681ADDAA106000091GF105991051051012501001001KA1240M+02691MA1999999101611MD1999999+0041REMSYN088AAXX  28004 83096 32695 50905 10249 20215 30161 40168 85500 333 10269 29075 55102 58004;EQDQ01  00002PRCP06
0186830960999992004082812004-10917-037050FM-12+000699999V0200901N002112200019N0020001N1+02611+02141102611ADDAA106000091GF104991041011012501001001KA1240N+02411MA1999999101541MD1999999-0011REMSYN076AAXX  28124 83096 32695 40904 10261 20214 30154 40261 84100 333 20241 59001;EQDQ01  00002PRCP06
0183830960999992004082818004-10920-037050FM-12+000599999V0200901N001512200019N0020001N1+02711+02131101372ADDAA106000091GF102991021011012501001001MA1999999101301MD1999999-0111REMSYN070AAXX  28184 83096 32695 20903 10271 20213 30130 40137 82100 333 59011;EQDQ01+101373APOSLPQ02  00002PRCP06
0198830960999992004082900004-10920-037050FM-12+000599999V0200901N002612200019N0020001N1+02471+02131101311ADDAA106000091GF103991031011012501001001KA1240M+02811MA1999999101241MD1999999-0371REMSYN088AAXX  29004 83096 32695 30905 10247 20213 30124 40131 83100 333 10281 29078 55104 59037;EQDQ01  00002PRCP06
0186830960999992004082912004-10920-037050FM-12+000599999V0200901N002112200019N0020001N1+02611+02191101381ADDAA106000091GF102991021011012501001001KA1240N+02301MA1999999101311MD1999999-0231REMSYN076AAXX  29124 83096 32695 20904 10261 20219 30131 40138 82100 333 20230 59023;EQDQ01  00002PRCP06
0167830960999992004082918004-10920-037050FM-12+000599999V0200901N001512200019N0020001N1+02711+02131101321ADDAA106000091GF102991021011012501001001MA1999999101251MD1999999-0051REMSYN070AAXX  29184 83096 32695 20903 10271 20213 30125 40132 82100 333 59005;EQDQ01  00002PRCP06
0198830960999992004083000004-10920-037050FM-12+000599999V0200901N003112200019N0020001N1+02531+02251101231ADDAA106000091GF102991021011012501001001KA1240M+02851MA1999999101161MD1999999-0081REMSYN088AAXX  30004 83096 32695 20906 10253 20225 30116 40123 82100 333 10285 29079 55096 59008;EQDQ01  00002PRCP06
0186830960999992004083012004-10917-037050FM-12+000699999V0200901N002610120019N0020001N1+02671+02201101481ADDAA106000091GF105991051011012501001001KA1240N+02431MA1999999101141MD1999999+0101REMSYN076AAXX  30124 83096 32695 50905 10267 20220 30114 40148 85100 333 20243 58010;EQDQ01  00002PRCP06
0167830960999992004083018004-10917-037050FM-12+000699999V0200901N003112200019N0020001N1+02721+02121101441ADDAA106000091GF101991011011012501001001MA1999999101371MD1999999+0121REMSYN070AAXX  30184 83096 32695 10906 10272 20212 30137 40144 81100 333 58012;EQDQ01  00002PRCP06
0198830960999992004083100004-10917-037050FM-12+000699999V0200901N001512200019N0020001N1+02511+02131101651ADDAA106000091GF102991021051012501001001KA1240M+02851MA1999999101581MD1999999+0421REMSYN088AAXX  31004 83096 32695 20903 10251 20213 30158 40165 82500 333 10285 29076 55094 58042;EQDQ01  00002PRCP06
0186830960999992004083112004-10917-037050FM-12+000699999V0200901N003112200019N0020001N1+02611+02081101701ADDAA106000091GF103991031011012501001001KA1240N+02431MA1999999101631MD1999999+0221REMSYN076AAXX  31124 83096 32695 30906 10261 20208 30163 40170 83100 333 20243 58022;EQDQ01  00002PRCP06
0167830960999992004083118004-10917-037050FM-12+000699999V0200901N002112200019N0020001N1+02711+02001101631ADDAA106000091GF101991011011012501001001MA1999999101561MD1999999+0211REMSYN070AAXX  31184 83096 32695 10904 10271 20200 30156 40163 81100 333 58021;EQDQ01  00002PRCP06
0198830960999992004090100004-10917-037050FM-12+000699999V0200901N002612200019N0020001N1+02501+01981101891ADDAA106000091GF101991011051012501001001KA1240M+02851MA1999999101821MD1999999+0241REMSYN088AAXX  01004 83096 32695 10905 10250 20198 30182 40189 81500 333 10285 29071 55100 58024;EQDQ01  00002PRCP06
0186830960999992004090112004-10917-037050FM-12+000699999V0201401N003112200019N0020001N1+02641+02091101931ADDAA106000091GF104991041011012501001001KA1240N+02411MA1999999101861MD1999999+0231REMSYN076AAXX  01124 83096 32695 41406 10264 20209 30186 40193 84100 333 20241 58023;EQDQ01  00002PRCP06
0167830960999992004090118004-10917-037050FM-12+000699999V0201401N003110120019N0020001N1+02611+02181101841ADDAA106000091GF108991081021012501999999MA1999999101771MD1999999+0211REMSYN070AAXX  01184 83096 32695 81406 10261 20218 30177 40184 882// 333 58021;EQDQ01  00002PRCP06
0198830960999992004090200004-10917-037050FM-12+000699999V0201801N002112200019N0020001N1+02511+02071102011ADDAA106000091GF102991021051012501001001KA1240M+02811MA1999999101941MD1999999+0121REMSYN088AAXX  02004 83096 32695 21804 10251 20207 30194 40201 82500 333 10281 29075 55066 58012;EQDQ01  00002PRCP06
0186830960999992004090212004-10917-037050FM-12+000699999V0201401N002112200019N0020001N1+02631+02051101901ADDAA106000091GF104991041011012501001001KA1240N+02431MA1999999101831MD1999999-0031REMSYN076AAXX  02124 83096 32695 41404 10263 20205 30183 40190 84100 333 20243 59003;EQDQ01  00002PRCP06
0167830960999992004090218004-10917-037050FM-12+000699999V0201401N004112200019N0020001N1+02641+02071101801ADDAA106000091GF103991031011012501001001MA1999999101731MD1999999-0041REMSYN070AAXX  02184 83096 32695 31408 10264 20207 30173 40180 83100 333 59004;EQDQ01  00002PRCP06
0198830960999992004090300004-10917-037050FM-12+000699999V0201401N003112200019N0020001N1+02491+01941101951ADDAA106000091GF102991021051012501001001KA1240M+02851MA1999999101881MD1999999-0061REMSYN088AAXX  03004 83096 32695 21406 10249 20194 30188 40195 82500 333 10285 29071 55095 59006;EQDQ01  00002PRCP06
0186830960999992004090312004-10917-037050FM-12+000699999V0201401N003110120019N0020001N1+02611+01941101801ADDAA106000091GF105991051011012501001001KA1240N+02411MA1999999101731MD1999999-0101REMSYN076AAXX  03124 83096 32695 51406 10261 20194 30173 40180 85100 333 20241 59010;EQDQ01  00002PRCP06
0167830960999992004090318004-10917-037050FM-12+000699999V0201401N002612200019N0020001N1+02701+01751101681ADDAA106000091GF101991011011012501001001MA1999999101611MD1999999-0121REMSYN070AAXX  03184 83096 32695 11405 10270 20175 30161 40168 81100 333 59012;EQDQ01  00002PRCP06
0198830960999992004090400004-10917-037050FM-12+000699999V0201401N002612200019N0020001N1+02451+02011101801ADDAA106000091GF102991021051012501001001KA1240M+02871MA1999999101731MD1999999-0151REMSYN088AAXX  04004 83096 32695 21405 10245 20201 30173 40180 82500 333 10287 29069 55096 59015;EQDQ01  00002PRCP06
0186830960999992004090412004-10917-037050FM-12+000699999V0201401N002610120019N0020001N1+02711+02151101781ADDAA106000091GF105991051011012501001001KA1240N+02331MA1999999101711MD1999999-0021REMSYN076AAXX  04124 83096 32695 51405 10271 20215 30171 40178 85100 333 20233 59002;EQDQ01  00002PRCP06
0167830960999992004090418004-10917-037050FM-12+000699999V0201401N002610120019N0020001N1+02651+02091101531ADDAA106000091GF105991051051012501001001MA1999999101461MD1999999-0151REMSYN070AAXX  04184 83096 32695 51405 10265 20209 30146 40153 85500 333 59015;EQDQ01  00002PRCP06
0198830960999992004090500004-10917-037050FM-12+000699999V0201801N001512200019N0020001N1+02501+02131101701ADDAA106000091GF103991031051012501001001KA1240M+02921MA1999999101631MD1999999-0101REMSYN088AAXX  05004 83096 32695 31803 10250 20213 30163 40170 83500 333 10292 29076 55075 59010;EQDQ01  00002PRCP06
0186830960999992004090512004-10917-037050FM-12+000699999V0200901N003112200019N0020001N1+02671+01841101781ADDAA106000091GF101991011011012501001001KA1240N+02161MA1999999101711MD1999999+0001REMSYN076AAXX  05124 83096 32695 10906 10267 20184 30171 40178 81100 333 20216 58000;EQDQ01  00002PRCP06
0167830960999992004090518004-10917-037050FM-12+000699999V0201401N003112200019N0020001N1+02731+01891101541ADDAA106000091GF101991011011012501001001MA1999999101471MD1999999+0011REMSYN070AAXX  05184 83096 32695 11406 10273 20189 30147 40154 81100 333 58001;EQDQ01  00002PRCP06
0198830960999992004090600004-10917-037050FM-12+000699999V0201401N002112200019N0020001N1+02471+01961101611ADDAA106000091GF101991011051012501001001KA1240M+02871MA1999999101541MD1999999-0091REMSYN088AAXX  06004 83096 32695 11404 10247 20196 30154 40161 81500 333 10287 29067 55105 59009;EQDQ01  00002PRCP06
0186830960999992004090612004-10917-037050FM-12+000699999V0201401N002112200019N0020001N1+02621+01911101581ADDAA106000091GF103991031011012501001001KA1240N+02241MA1999999101511MD1999999-0201REMSYN076AAXX  06124 83096 32695 31404 10262 20191 30151 40158 83100 333 20224 59020;EQDQ01  00002PRCP06
0167830960999992004090618004-10917-037050FM-12+000699999V0201401N002112200019N0020001N1+02691+01941101391ADDAA106000091GF103991031011012501001001MA1999999101321MD1999999-0151REMSYN070AAXX  06184 83096 32695 31404 10269 20194 30132 40139 83100 333 59015;EQDQ01  00002PRCP06
0178830960999992004090700004-10917-037050FM-12+000699999V0201401N002112200019N0020001N1+02471+01941101511ADDAA106000091GF102991021051012501001001KA1240M+02831MA1999999101441REMSYN082AAXX  07004 83096 32695 21404 10247 20194 30144 40151 82500 333 10283 29068 55105;EQDQ01  00002PRCP06
0186830960999992004090712004-10917-037050FM-12+000699999V0201401N002112200019N0020001N1+02651+01951101501ADDAA106000091GF104991041011012501001001KA1240N+02411MA1999999101431MD1999999-0081REMSYN076AAXX  07124 83096 32695 41404 10265 20195 30143 40150 84100 333 20241 59008;EQDQ01  00002PRCP06
0167830960999992004090718004-10917-037050FM-12+000699999V0201401N002112200019N0020001N1+02711+01961101361ADDAA106000091GF103991031011012501001001MA1999999101291MD1999999-0031REMSYN070AAXX  07184 83096 32695 31404 10271 20196 30129 40136 83100 333 59003;EQDQ01  00002PRCP06
0202830960999992004090800004-10917-037050FM-12+000699999V0201401N005110120019N0020001N1+02411+02091101521ADDAY161061AY261061GF106991061051012501001001KA1240M+02831MA1999999101451MD1999999+0011MW1201REMSYN100AAXX  08004 83096 21695 61410 10241 20209 30145 40152 72066 86500 333 10283 29074 55082 58001 69981;
0190830960999992004090812004-10917-037050FM-12+000699999V0201401N003110120019N0020001N1+02411+02091101501ADDAY161061AY261061GF106991061051012501001001KA1240N+02221MA1999999101431MD1999999+0001MW1211REMSYN088AAXX  08124 83096 21695 61406 10241 20209 30143 40150 72166 86500 333 20222 58000 60034;
0171830960999992004090818004-10917-037050FM-12+000699999V0201401N002610120019N0020001N1+02401+02111101361ADDAY151061AY251061GF105991051051012501001001MA1999999101291MD1999999+0001MW1201REMSYN082AAXX  08184 83096 21695 51405 10240 20211 30129 40136 72055 85500 333 58000 69981;
0159830960999992004090900004-10917-037050FM-12+000699999V0201401N003110120019N0020001N1+02471+02031101561ADDAA106000021GF106991061051012501001001KA1240M+02591MA1999999101491REMSYN082AAXX  09004 83096 32695 61406 10247 20203 30149 40156 86500 333 10259 29080 55031;
0190830960999992004090912004-10917-037050FM-12+000699999V0201401N002112200019N0020001N1+02511+01891101521ADDAY161061AY261061GF103991031011012501001001KA1240N+02141MA1999999101451MD1999999+0021MW1211REMSYN088AAXX  09124 83096 21695 31404 10251 20189 30145 40152 72166 83100 333 20214 58002 60104;
0148830960999992004090918004-10917-037050FM-12+000699999V0201401N002612200019N0020001N1+02651+01981101391ADDAA106000021GF104991041011012501001001MA1999999101321MD1999999+0031REMSYN070AAXX  09184 83096 32695 41405 10265 20198 30132 40139 84100 333 58003;
0178830960999992004091000004-10917-037050FM-12+000699999V0200901N003110120019N0020001N1+02501+02111101681ADDAA106000091GF106991061051012501001001KA1240M+02771MA1999999101611REMSYN082AAXX  10004 83096 32695 60906 10250 20211 30161 40168 86500 333 10277 29073 55072;EQDQ01  00002PRCP06
0190830960999992004091012004-10917-037050FM-12+000699999V0201401N002610075019N0010001N1+02321+01981101641ADDAY161061AY261061GF106991061051008001001001KA1240N+02181MA1999999101571MD1999999+0121MW1501REMSYN088AAXX  10124 83096 21594 61405 10232 20198 30157 40164 75066 86500 333 20218 58012 60144;
0167830960999992004091018004-10917-037050FM-12+000699999V0200901N002112200019N0020001N1+02591+01991101421ADDAA106000021GF103991999011012501001001MA1999999101251MD1999999+0031REMSYN070AAXX  10184 83096 32695 30904 10259 20199 30125 40142 82100 333 58003;EQDQ01+000022SCOTLC
0198830960999992004091100004-10917-037050FM-12+000699999V0201401N001512200019N0020001N1+02471+01921101651ADDAA106000091GF102991021051012501001001KA1240M+02771MA1999999101581MD1999999-0031REMSYN088AAXX  11004 83096 32695 21403 10247 20192 30158 40165 82500 333 10277 29073 55031 59003;EQDQ01  00002PRCP06
0186830960999992004091112004-10917-037050FM-12+000699999V0200901N002112200019N0020001N1+02661+01871101601ADDAA106000091GF102991021011012501001001KA1240N+02261MA1999999101531MD1999999-0041REMSYN076AAXX  11124 83096 32695 20904 10266 20187 30153 40160 82100 333 20226 59004;EQDQ01  00002PRCP06
0167830960999992004091118004-10917-037050FM-12+000699999V0201401N002112200019N0020001N1+02691+01921101371ADDAA106000091GF102991021011012501001001MA1999999101301MD1999999-0051REMSYN070AAXX  11184 83096 32695 21404 10269 20192 30130 40137 82100 333 59005;EQDQ01  00002PRCP06
0198830960999992004091200004-10917-037050FM-12+000699999V0200901N001512200019N0020001N1+02491+01981101521ADDAA106000091GF102991021011012501001001KA1240M+02831MA1999999101451MD1999999-0131REMSYN088AAXX  12004 83096 32695 20903 10249 20198 30145 40152 82100 333 10283 29068 55102 59013;EQDQ01  00002PRCP06
0190830960999992004091212004-10920-037050FM-12+000599999V0201401N002612200019N0020001N1+02651+02031101801ADDAY151061AY251061GF103991031011012501001001KA1240N+02301MA1999999101731MD1999999+0201MW1201REMSYN088AAXX  12124 83096 21695 31405 10265 20203 30173 40180 72055 83100 333 20230 58020 69924;
0148830960999992004091218004-10917-037050FM-12+000699999V0201401N002112200019N0020001N1+02711+02081101461ADDAA106000021GF103991031011012501001001MA1999999101391MD1999999+0091REMSYN070AAXX  12184 83096 32695 31404 10271 20208 30139 40146 83100 333 58009;
0202830960999992004091300004-10917-037050FM-12+000699999V0201401N005110120019N0020001N1+02411+02091101521ADDAY161061AY261061GF106991061051012501001001KA1240M+02831MA1999999101451MD1999999+0011MW1201REMSYN100AAXX  08004 83096 21695 61410 10241 20209 30145 40152 72066 86500 333 10283 29074 55082 58001 69981;
0190830960999992004091312004-10917-037050FM-12+000699999V0201401N002612200019N0020001N1+02651+01931102001ADDAY161061AY261061GF103991031011012501001001KA1240N+02201MA1999999101931MD1999999+0201MW1211REMSYN088AAXX  13124 83096 21695 31405 10265 20193 30193 40200 72166 83100 333 20220 58020 60044;
0147830960999992004091318004-10917-037050FM-12+000699999V0200901N003112200019N0020001N1+02681+02061101791ADDAA106000021GF103991031011012501001001MA1999999101721MD1999999+0331REMSYN069AAXX  13184 83096 32695 3090610268 20206 30172 40179 83100 333 58033;
0198830960999992004091400004-10917-037050FM-12+000699999V0200901N002612200019N0020001N1+02491+02031101971ADDAA106000091GF101991011051012501001001KA1240M+02831MA1999999101901MD1999999+0181REMSYN088AAXX  14004 83096 32695 10905 10249 20203 30190 40197 81500 333 10283 29075 55106 58018;EQDQ01  00002PRCP06
0190830960999992004091412004-10917-037050FM-12+000699999V0201401N002112200019N0020001N1+02471+02171101881ADDAY161061AY261061GF104991041051012501001001KA1240N+02301MA1999999101811MD1999999-0121MW1211REMSYN088AAXX  14124 83096 21695 41404 10247 20217 30181 40188 72166 84500 333 20230 59012 60014;
0171830960999992004091418004-10917-037050FM-12+000699999V0200501N003110120019N0020001N1+02341+02171101781ADDAY161061AY261061GF108991081051012501999999MA1999999101711MD1999999-0011MW1211REMSYN082AAXX  14184 83096 21695 80506 10234 20217 30171 40178 72166 885// 333 59001 60041;
0179830960999992004091500004-10917-037050FM-12+000699999V0200901N003110120019N0020001N1+02481+02111101991ADDAA106000021GF105991051051012501001001KA1240M+02791MA1999999101921MD1999999+0021REMSYN088AAXX  15004 83096 32695 50906 10248 20211 30192 40199 85500 333 10279 29083 55013 58002;
0162830960999992004091512004-10917-037050FM-12+000699999V0201401N001512200019N0020001N1+02651+02071101921ADDGF103991031011012501001001KA1240N+02301MA1999999101181MD1999999+0041REMSYN082AAXX  15124 83096 22695 31403 10265 20207 30118 40192 83100 333 20230 58004 60044;
0167830960999992004091518004-10917-037050FM-12+000699999V0201401N002612200019N0020001N1+02691+02061101631ADDAA106000091GF101991011011012501001001MA1999999101561MD1999999-0151REMSYN070AAXX  15184 83096 32695 11405 10269 20206 30156 40163 81100 333 59015;EQDQ01  00002PRCP06
0198830960999992004091600004-10917-037050FM-12+000699999V0200901N002610120019N0020001N1+02441+01991101771ADDAA106000091GF105991051051012501001001KA1240M+02811MA1999999101701MD1999999-0221REMSYN088AAXX  16004 83096 32695 50905 10244 20199 30170 40177 85500 333 10281 29073 55102 59022;EQDQ01  00002PRCP06
0186830960999992004091612004-10917-037050FM-12+000699999V0200901N001512200019N0020001N1+02611+01921101701ADDAA106000091GF102991021011012501001001KA1240N+02001MA1999999101631MD1999999-0221REMSYN076AAXX  16124 83096 32695 20903 10261 20192 30163 40170 82100 333 20200 59022;EQDQ01  00002PRCP06
0167830960999992004091618004-10917-037050FM-12+000699999V0201401N002112200019N0020001N1+02681+02111101491ADDAA106000091GF101991011011012501001001MA1999999101421MD1999999-0141REMSYN070AAXX  16184 83096 32695 11404 10268 20211 30142 40149 81100 333 59014;EQDQ01  00002PRCP06
0198830960999992004091700004-10917-037050FM-12+000699999V0201401N002612200019N0020001N1+02511+02111101701ADDAA106000091GF103991031051012501001001KA1240M+02861MA1999999101631MD1999999-0071REMSYN088AAXX  17004 83096 32695 31405 10251 20211 30163 40170 83500 333 10286 29071 55098 59007;EQDQ01  00002PRCP06
0186830960999992004091712004-10917-037050FM-12+000699999V0200901N002610120019N0020001N1+02671+02161101781ADDAA106000091GF105991051041012501001001KA1240N+02391MA1999999101711MD1999999+0081REMSYN076AAXX  17124 83096 32695 50905 10267 20216 30171 40178 85400 333 20239 58008;EQDQ01  00002PRCP06
0167830960999992004091718004-10917-037050FM-12+000699999V0201401N002610120019N0020001N1+02721+02191101591ADDAA106000091GF106991061011012501001001MA1999999101521MD1999999+0101REMSYN070AAXX  17184 83096 32695 61405 10272 20219 30152 40159 86100 333 58010;EQDQ01  00002PRCP06
0198830960999992004091800004-10917-037050FM-12+000699999V0201401N003112200019N0020001N1+02521+02151101791ADDAA106000091GF101991011051012501001001KA1240M+02871MA1999999101721MD1999999+0091REMSYN088AAXX  18004 83096 32695 11406 10252 20215 30172 40179 81500 333 10287 29077 55094 58009;EQDQ01  00002PRCP06
0186830960999992004091812004-10917-037050FM-12+000699999V0201401N002112200019N0020001N1+02701+02221101911ADDAA106000091GF101991011011012501001001KA1240N+02471MA1999999101841MD1999999+0131REMSYN076AAXX  18124 83096 32695 11404 10270 20222 30184 40191 81100 333 20247 58013;EQDQ01  00002PRCP06
0167830960999992004091818004-10917-037050FM-12+000699999V0201401N002612200019N0020001N1+02681+02161101631ADDAA106000091GF102991021011012501001001MA1999999101151MD1999999+0041REMSYN070AAXX  18184 83096 32695 21405 10268 20216 30115 40163 82100 333 58004;EQDQ01  00002PRCP06
0198830960999992004091900004-10920-037050FM-12+000599999V0201401N002610120019N0020001N1+02511+02131101801ADDAA106000091GF106991061051012501001001KA1240M+02861MA1999999101731MD1999999+0011REMSYN088AAXX  19004 83096 32695 61405 10251 20213 30173 40180 86500 333 10286 29076 55101 58001;EQDQ01  00002PRCP06
0190830960999992004091912004-10920-037050FM-12+000599999V0200901N003610120019N0020001N1+02501+02271101861ADDAY161061AY261061GF108991081021012501999999KA1240N+02281MA1999999101171MD1999999-0051MW1211REMSYN088AAXX  19124 83096 21695 80907 10250 20227 30117 40186 72166 882// 333 20228 59005 60034;
0171830960999992004091918004-10920-037050FM-12+000599999V0201401N003110120019N0020001N1+02621+02071101521ADDAY161061AY261061GF108991081021012501999999MA1999999101451MD1999999-0111MW1201REMSYN082AAXX  19184 83096 21695 81406 10262 20207 30145 40152 72066 882// 333 59011 60021;
0179830960999992004092000004-10920-037050FM-12+000599999V0201401N003110120019N0020001N1+02541+02091101631ADDAA106000021GF108991081051012501999999KA1240M+02701MA1999999101561MD1999999+0121REMSYN088AAXX  20004 83096 32695 81406 10254 20209 30156 40163 885// 333 10270 29078 55004 58012;
0190830960999992004092012004-10917-037050FM-12+000699999V0200901N001512200019N0020001N1+02491+02151101621ADDAY151061AY251061GF104991041051012501001001KA1240N+02241MA1999999101551MD1999999-0241MW1201REMSYN088AAXX  20124 83096 21695 40903 10249 20215 30155 40162 72055 84500 333 20224 59024 60024;
0148830960999992004092018004-10917-037050FM-12+000699999V0201401N002112200019N0020001N1+02691+02041101501ADDAA106000021GF102991021011012501001001MA1999999101431MD1999999-0021REMSYN070AAXX  20184 83096 32695 21404 10269 20204 30143 40150 82100 333 59002;
0198830960999992004092100004-10917-037050FM-12+000699999V0201401N002612200019N0020001N1+02501+02241101711ADDAA106000091GF103991031051012501001001KA1240M+02851MA1999999101641MD1999999+0081REMSYN088AAXX  21004 83096 32695 31405 10250 20224 30164 40171 83500 333 10285 29080 55067 58008;EQDQ01  00002PRCP06
0171830960999992004092118004-10917-037050FM-12+000699999V0201401N002612200019N0020001N1+02631+02161101591ADDAY151061AY251061GF103991031051012501001001MA1999999101521MD1999999+0091MW1201REMSYN082AAXX  21184 83096 21695 31405 10263 20216 30152 40159 72055 83500 333 58009 69921;
0179830960999992004092200004-10917-037050FM-12+000699999V0201401N002610120019N0020001N1+02581+02121101841ADDAA106000021GF108991081051012501999999KA1240M+02811MA1999999101471MD1999999+0131REMSYN088AAXX  22004 83096 32695 81405 10258 20212 30147 40184 885// 333 10281 29076 55073 58013;
0190830960999992004092212004-10917-037050FM-12+000699999V0200901N002112200019N0020001N1+02431+02191101821ADDAY161061AY261061GF104991041051012501001001KA1240N+02241MA1999999101751MD1999999+0121MW1211REMSYN088AAXX  22124 83096 21695 40904 10243 20219 30175 40182 72166 84500 333 20224 58012 60084;
0171830960999992004092218004-10917-037050FM-12+000699999V0200901N002112200019N0020001N1+02751+02101101691ADDAY161061AY261061GF102991021011012501001001MA1999999101621MD1999999+0101MW1211REMSYN082AAXX  22184 83096 21695 20904 10275 20210 30162 40169 72166 82100 333 58010 60021;
0179830960999992004092300004-10917-037050FM-12+000699999V0200901N003110120019N0020001N1+02511+02171101951ADDAA106000021GF105991051051012501001001KA1240M+02851MA1999999101881MD1999999+0111REMSYN088AAXX  23004 83096 32695 50906 10251 20217 30188 40195 85500 333 10285 29079 55052 58011;
0162830960999992004092312004-10917-037050FM-12+000699999V0201801N002612200019N0020001N1+02491+02131101841ADDGF104991041051012501001001KA1240N+02301MA1999999101771MD1999999+0021REMSYN082AAXX  23124 83096 22695 41805 10249 20213 30177 40184 84500 333 20230 58002 60024;
0167830960999992004092318004-10917-037050FM-12+000699999V0200901N002612200019N0020001N1+02651+02031101631ADDAA106000091GF104991041011012501001001MA1999999101561MD1999999-0061REMSYN070AAXX  23184 83096 32695 40905 10265 20203 30156 40163 84100 333 59006;EQDQ01  00002PRCP06
0198830960999992004092400004-10917-037050FM-12+000699999V0201401N003110120019N0020001N1+02531+02021101851ADDAA106000091GF106991061051012501001001KA1240M+02801MA1999999101781MD1999999-0101REMSYN088AAXX  24004 83096 32695 61406 10253 20202 30178 40185 86500 333 10280 29073 55010 59010;EQDQ01  00002PRCP06
0186830960999992004092412004-10917-037050FM-12+000699999V0200901N002112200019N0020001N1+02691+02061101741ADDAA106000091GF104991041011012501001001KA1240N+02351MA1999999101671MD1999999-0101REMSYN076AAXX  24124 83096 32695 40904 10269 20206 30167 40174 84100 333 20235 59010;EQDQ01  00002PRCP06
0167830960999992004092418004-10917-037050FM-12+000699999V0200901N001512200019N0020001N1+02751+02071101571ADDAA106000091GF104991041011012501001001MA1999999101501MD1999999-0061REMSYN070AAXX  24184 83096 32695 40903 10275 20207 30150 40157 84100 333 59006;EQDQ01  00002PRCP06
0198830960999992004092500004-10917-037050FM-12+000699999V0201401N002610120019N0020001N1+02521+02071101751ADDAA106000091GF105991051051012501001001KA1240M+02871MA1999999101681MD1999999-0101REMSYN088AAXX  25004 83096 32695 51405 10252 20207 30168 40175 85500 333 10287 29072 55105 59010;EQDQ01  00002PRCP06
0190830960999992004092512004-10917-037050FM-12+000699999V0200901N002612200019N0020001N1+02631+02161101681ADDAY151061AY251061GF104991041011012501001001KA1240N+02261MA1999999101611MD1999999-0061MW1201REMSYN088AAXX  25124 83096 21695 40905 10263 20216 30161 40168 72055 84100 333 20226 59006 69944;
0134830960999992004092518004-10917-037050FM-12+000699999V0200901N002112200019N0020001N1+02731+02221101551ADDAA106000021GF104991041011012501001001MA1999999101481REMSYN070AAXX  25184 83096 32695 40904 10273 20222 30148 40155 84100 333 59903;
0202830960999992004092600004-10917-037050FM-12+000699999V0200901N002610120019N0020001N1+02511+02001101531ADDAY151061AY251061GF105991051011012501001001KA1240M+02791MA1999999101461MD1999999-0221MW1201REMSYN100AAXX  26004 83096 21695 50905 10251 20200 30146 40153 72055 85100 333 10279 29074 55050 59022 69921;
0162830960999992004092612004-10920-037050FM-12+000599999V0200901N003110120019N0020001N1+02651+02071101741ADDGF105991051011012501001001KA1240N+02451MA1999999101671MD1999999+0061REMSYN082AAXX  26124 83096 22695 50906 10265 20207 30167 40174 85100 333 20245 58006 69924;
0167830960999992004092618004-10920-037050FM-12+000599999V0200901N002112200019N0020001N1+02761+02161101571ADDAA106000091GF104991041011012501001001MA1999999101501MD1999999+0021REMSYN070AAXX  26184 83096 32695 40904 10276 20216 30150 40157 84100 333 58002;EQDQ01  00002PRCP06
0198830960999992004092700004-10920-037050FM-12+000599999V0201401N001512200019N0020001N1+02491+02091101681ADDAA106000091GF102991021011012501001001KA1240M+02811MA1999999101611MD1999999+0151REMSYN088AAXX  27004 83096 32695 21403 10249 20209 30161 40168 82100 333 10281 29075 55091 58015;EQDQ01  00002PRCP06
0190830960999992004092712004-10920-037050FM-12+000599999V0201801N002112200019N0020001N1+02591+02171101701ADDAY161061AY261061GF104991041011012501001001KA1240N+02401MA1999999101161MD1999999-0041MW1211REMSYN088AAXX  27124 83096 21695 41804 10259 20217 30116 40170 72166 84100 333 20240 59004 60014;
0148830960999992004092718004-10917-037050FM-12+000699999V0201401N002610120019N0020001N1+02421+02251101611ADDAA106000021GF108991081021012501999999MA1999999101541MD1999999+0041REMSYN070AAXX  27184 83096 32695 81405 10242 20225 30154 40161 882// 333 58004;
0202830960999992004092800004-10917-037050FM-12+000699999V0200901N004110120019N0020001N1+02401+02211101771ADDAY161061AY261061GF108991081051012501999999KA1240M+02771MA1999999101701MD1999999+0091MW1211REMSYN100AAXX  28004 83096 21695 80908 10240 20221 30170 40177 72166 885// 333 10277 29086 55057 58009 60041;
0190830960999992004092812004-10917-037050FM-12+000699999V0200901N003110120019N0020001N1+02651+02201101621ADDAY161061AY261061GF105991051011012501001001KA1240N+02281MA1999999101551MD1999999-0081MW1201REMSYN088AAXX  28124 83096 21695 50906 10265 20220 30155 40162 72066 85100 333 20228 59008 60054;
0148830960999992004092818004-10917-037050FM-12+000699999V0200901N004110120019N0020001N1+02641+02091101331ADDAA106000021GF106991061021012501001001MA1999999101261MD1999999-0281REMSYN070AAXX  28184 83096 32695 60908 10264 20209 30126 40133 86200 333 59028;
0198830960999992004092900004-10917-037050FM-12+000699999V0200901N004112200019N0020001N1+02481+02111101571ADDAA106000091GF102991021051012501001001KA1240M+02851MA1999999101501MD1999999-0201REMSYN088AAXX  29004 83096 32695 20908 10248 20211 30150 40157 82500 333 10285 29077 55044 59020;EQDQ01  00002PRCP06
0186830960999992004092912004-10917-037050FM-12+000699999V0200901N003612200019N0020001N1+02691+02041101521ADDAA106000091GF102991021011012501001001KA1240N+02351MA1999999101451MD1999999-0101REMSYN076AAXX  29124 83096 32695 20907 10269 20204 30145 40152 82100 333 20235 59010;EQDQ01  00002PRCP06
0167830960999992004092918004-10917-037050FM-12+000699999V0200901N005112200019N0020001N1+02721+02051101221ADDAA106000091GF101991011011012501001001MA1999999101151MD1999999-0111REMSYN070AAXX  29184 83096 32695 10910 10272 20205 30115 40122 81100 333 59011;EQDQ01  00002PRCP06
0198830960999992004093000004-10917-037050FM-12+000699999V0200901N004112200019N0020001N1+02501+02071101441ADDAA106000091GF102991021051012501001001KA1240M+02861MA1999999101371MD1999999-0131REMSYN088AAXX  30004 83096 32695 20908 10250 20207 30137 40144 82500 333 10286 29072 55106 59013;EQDQ01  00002PRCP06
0186830960999992004093012004-10917-037050FM-12+000699999V0200901N002112200019N0020001N1+02431+02151101441ADDAA106000091GF104991041051012501001001KA1240N+02201MA1999999101371MD1999999-0081REMSYN076AAXX  30124 83096 32695 40904 10243 20215 30137 40144 84500 333 20220 59008;EQDQ01  00002PRCP06
0167830960999992004093018004-10917-037050FM-12+000699999V0200901N004612200019N0020001N1+02731+02151101311ADDAA106000091GF103991031011012501001001MA1999999101241MD1999999+0091REMSYN070AAXX  30184 83096 32695 30909 10273 20215 30124 40131 83100 333 58009;EQDQ01  00002PRCP06
0198830960999992004100100004-10917-037050FM-12+000699999V0200901N003112200019N0020001N1+02511+02131101661ADDAA106000091GF103991031051012501001001KA1240M+02871MA1999999101591MD1999999+0221REMSYN088AAXX  01004 83096 32695 30906 10251 20213 30159 40166 83500 333 10287 29078 55071 58022;EQDQ01  00002PRCP06
0186830960999992004100112004-10917-037050FM-12+000699999V0200901N002612200019N0020001N1+02711+02131101591ADDAA106000091GF103991031011012501001001KA1240N+02181MA1999999101521MD1999999+0151REMSYN076AAXX  01124 83096 32695 30905 10271 20213 30152 40159 83100 333 20218 58015;EQDQ01  00002PRCP06
0167830960999992004100118004-10917-037050FM-12+000699999V0201401N003610120019N0020001N1+02711+02151101411ADDAA106000091GF106991061021012501001001MA1999999101341MD1999999+0101REMSYN070AAXX  01184 83096 32695 61407 10271 20215 30134 40141 86200 333 58010;EQDQ01  00002PRCP06
0198830960999992004100200004-10917-037050FM-12+000699999V0200901N003112200019N0020001N1+02511+02251101631ADDAA106000091GF101991011051012501001001KA1240M+02891MA1999999101561MD1999999-0031REMSYN088AAXX  02004 83096 32695 10906 10251 20225 30156 40163 81500 333 10289 29078 55084 59003;EQDQ01  00002PRCP06
0186830960999992004100212004-10917-037050FM-12+000699999V0201401N003112200019N0020001N1+02741+02071101631ADDAA106000091GF103991031011012501001001KA1240N+02371MA1999999101151MD1999999+0041REMSYN076AAXX  02124 83096 32695 31406 10274 20207 30115 40163 83100 333 20237 58004;EQDQ01  00002PRCP06
0167830960999992004100218004-10917-037050FM-12+000699999V0200901N004110120019N0020001N1+02641+02091101331ADDAA106000091GF106991061021012501001001MA1999999101261MD1999999-0081REMSYN070AAXX  02184 83096 32695 60908 10264 20209 30126 40133 86200 333 59008;EQDQ01  00002PRCP06
0198830960999992004100300004-10917-037050FM-12+000699999V0200901N003112200019N0020001N1+02481+02031101531ADDAA106000091GF103991031051012501001001KA1240M+02891MA1999999101461MD1999999-0101REMSYN088AAXX  03004 83096 32695 30906 10248 20203 30146 40153 83500 333 10289 29073 55072 59010;EQDQ01  00002PRCP06
0186830960999992004100312004-10917-037050FM-12+000699999V0200901N003110120019N0020001N1+02761+02141101611ADDAA106000091GF106991061011012501001001KA1240N+02331MA1999999101541MD1999999-0021REMSYN076AAXX  03124 83096 32695 60906 10276 20214 30154 40161 86100 333 20233 59002;EQDQ01  00002PRCP06
0167830960999992004100318004-10920-037050FM-12+000599999V0200901N004112200019N0020001N1+02751+02141101271ADDAA106000091GF101991011011012501001001MA1999999101201MD1999999-0061REMSYN070AAXX  03184 83096 32695 10908 10275 20214 30120 40127 81100 333 59006;EQDQ01  00002PRCP06
0198830960999992004100400004-10920-037050FM-12+000599999V0200901N003112200019N0020001N1+02511+02171101431ADDAA106000091GF102991021051012501001001KA1240M+02911MA1999999101361MD1999999-0101REMSYN088AAXX  04004 83096 32695 20906 10251 20217 30136 40143 82500 333 10291 29075 55103 59010;EQDQ01  00002PRCP06
0186830960999992004100412004-10917-037050FM-12+000699999V0200901N002612200019N0020001N1+02651+02201101411ADDAA106000091GF103991031011012501001001KA1240N+02241MA1999999101241MD1999999-0201REMSYN076AAXX  04124 83096 32695 30905 10265 20220 30124 40141 83100 333 20224 59020;EQDQ01  00002PRCP06
0167830960999992004100418004-10917-037050FM-12+000699999V0200901N004112200019N0020001N1+02771+02191101201ADDAA106000091GF102991021011012501001001MA1999999101131MD1999999-0071REMSYN070AAXX  04184 83096 32695 20908 10277 20219 30113 40120 82100 333 59007;EQDQ01  00002PRCP06
0198830960999992004100500004-10917-037050FM-12+000699999V0200901N003112200019N0020001N1+02511+02131101451ADDAA106000091GF102991021051012501001001KA1240M+02931MA1999999101381MD1999999+0021REMSYN088AAXX  05004 83096 32695 20906 10251 20213 30138 40145 82500 333 10293 29076 55100 58002;EQDQ01  00002PRCP06
0186830960999992004100512004-10917-037050FM-12+000699999V0200901N003112200019N0020001N1+02751+02121101391ADDAA106000091GF103991031011012501001001KA1240N+02301MA1999999101321MD1999999-0021REMSYN076AAXX  05124 83096 32695 30906 10275 20212 30132 40139 83100 333 20230 59002;EQDQ01  00002PRCP06
0167830960999992004100518004-10917-037050FM-12+000699999V0200901N003612200019N0020001N1+02671+02221101291ADDAA106000091GF104991041011012501001001MA1999999101221MD1999999+0091REMSYN070AAXX  05184 83096 32695 40907 10267 20222 30122 40129 84100 333 58009;EQDQ01  00002PRCP06
0198830960999992004100600004-10917-037050FM-12+000699999V0200901N004112200019N0020001N1+02561+02131101451ADDAA106000091GF103991031051012501001001KA1240M+02951MA1999999101381MD1999999+0001REMSYN088AAXX  06004 83096 32695 30908 10256 20213 30138 40145 83500 333 10295 29075 55104 58000;EQDQ01  00002PRCP06
0186830960999992004100612004-10917-037050FM-12+000699999V0200901N002612200019N0020001N1+02751+02171101411ADDAA106000091GF103991031011012501001001KA1240N+02141MA1999999101131MD1999999+0021REMSYN076AAXX  06124 83096 32695 30905 10275 20217 30113 40141 83100 333 20214 58002;EQDQ01  00002PRCP06
0167830960999992004100618004-10917-037050FM-12+000699999V0200901N003612200019N0020001N1+02771+02211101171ADDAA106000091GF102991021011012501001001MA1999999101101MD1999999-0121REMSYN070AAXX  06184 83096 32695 20907 10277 20221 30110 40117 82100 333 59012;EQDQ01  00002PRCP06
0198830960999992004100700004-10917-037050FM-12+000699999V0200901N005110120019N0020001N1+02571+02251101351ADDAA106000091GF106991061051012501001001KA1240M+02571MA1999999101281MD1999999-0101REMSYN088AAXX  07004 83096 32695 60910 10257 20225 30128 40135 86500 333 10257 29077 55093 59010;EQDQ01  00002PRCP06
0186830960999992004100712004-10917-037050FM-12+000699999V0200901N002112200019N0020001N1+02751+02261101291ADDAA106000091GF104991041011012501001001KA1240N+02261MA1999999101321MD1999999-0021REMSYN076AAXX  07124 83096 32695 40904 10275 20226 30132 40129 84100 333 20226 59002;EQDQ01  00002PRCP06
0167830960999992004100718004-10917-037050FM-12+000699999V0200901N004112200019N0020001N1+02711+02261101171ADDAA106000091GF104991041011012501001001MA1999999101101MD1999999+0001REMSYN070AAXX  07184 83096 32695 40908 10271 20226 30110 40117 84100 333 58000;EQDQ01  00002PRCP06
0198830960999992004100800004-10917-037050FM-12+000699999V0200901N003110120019N0020001N1+02601+02141101371ADDAA106000091GF106991061051012501001001KA1240M+02951MA1999999101301MD1999999+0021REMSYN088AAXX  08004 83096 32695 60906 10260 20214 30130 40137 86500 333 10295 29076 55073 58002;EQDQ01  00002PRCP06
0186830960999992004100812004-10917-037050FM-12+000699999V0200901N002610120019N0020001N1+02691+02281101371ADDAA106000091GF105991051011012501001001KA1240N+02101MA1999999101301MD1999999-0021REMSYN076AAXX  08124 83096 32695 50905 10269 20228 30130 40137 85100 333 20210 59002;EQDQ01  00002PRCP06
0167830960999992004100818004-10917-037050FM-12+000699999V0200901N005112200019N0020001N1+02811+02271101171ADDAA106000091GF103991031011012501001001MA1999999101101MD1999999+0001REMSYN070AAXX  08184 83096 32695 30910 10281 20227 30110 40117 83100 333 58000;EQDQ01  00002PRCP06
0198830960999992004100900004-10917-037050FM-12+000699999V0200901N004112200019N0020001N1+02571+02291101551ADDAA106000091GF101991011051012501001001KA1240M+02951MA1999999101481MD1999999+0181REMSYN088AAXX  09004 83096 32695 10908 10257 20229 30148 40155 81500 333 10295 29080 55071 58018;EQDQ01  00002PRCP06
0186830960999992004100912004-10917-037050FM-12+000699999V0200901N002610120019N0020001N1+02671+02271101591ADDAA106000091GF105991051051012501001001KA1240N+02261MA1999999101521MD1999999+0221REMSYN076AAXX  09124 83096 32695 50905 10267 20227 30152 40159 85500 333 20226 58022;EQDQ01  00002PRCP06
0167830960999992004100918004-10917-037050FM-12+000699999V0200901N003110120019N0020001N1+02791+02251101271ADDAA106000091GF105991051051012501001001MA1999999101201MD1999999+0101REMSYN070AAXX  09184 83096 32695 50906 10279 20225 30120 40127 85500 333 58010;EQDQ01  00002PRCP06
0198830960999992004101000004-10917-037050FM-12+000699999V0200901N004112200019N0020001N1+02571+02211101391ADDAA106000091GF103991031011012501001001KA1240M+02951MA1999999101321MD1999999-0161REMSYN088AAXX  10004 83096 32695 30908 10257 20221 30132 40139 83100 333 10295 29078 55083 59016;EQDQ01  00002PRCP06
0202830960999992004101012004-10917-037050FM-12+000699999V0200901N002612200019N0020001N1+02791+02251101651ADDAA106000091GF103991999011012501001001KA1240N+02301MA1999999101581MD1999999+0061REMSYN076AAXX  10124 83096 32695 30905 10279 20225 30158 40165 82100 333 20230 58006;EQDQ01+000022SCOTLCQ02  00002PRCP06
0167830960999992004101018004-10917-037050FM-12+000699999V0200901N002612200019N0020001N1+02811+02251101371ADDAA106000091GF104991041011012501001001MA1999999101301MD1999999+0101REMSYN070AAXX  10184 83096 32695 40905 10281 20225 30130 40137 84100 333 58010;EQDQ01  00002PRCP06
0198830960999992004101100004-10917-037050FM-12+000699999V0200901N004112200019N0020001N1+02591+02231101471ADDAA106000091GF103991031011012501001001KA1240M+02971MA1999999101401MD1999999+0081REMSYN088AAXX  11004 83096 32695 30908 10259 20223 30140 40147 83100 333 10297 29076 55101 58008;EQDQ01  00002PRCP06
0186830960999992004101112004-10920-037050FM-12+000599999V0200901N004112200019N0020001N1+02791+02251101531ADDAA106000091GF103991031011012501001001KA1240N+02451MA1999999101141MD1999999-0121REMSYN076AAXX  11124 83096 32695 30908 10279 20225 30114 40153 83100 333 20245 59012;EQDQ01  00002PRCP06
0167830960999992004101118004-10920-037050FM-12+000599999V0200901N006212200019N0020001N1+02751+02181101301ADDAA106000091GF101991011011012501001001MA1999999101231MD1999999-0071REMSYN070AAXX  11184 83096 32695 10912 10275 20218 30123 40130 81100 333 59007;EQDQ01  00002PRCP06
0198830960999992004101200004-10920-037050FM-12+000599999V0200901N005112200019N0020001N1+02551+02191101551ADDAA106000091GF103991031051012501001001KA1240M+02951MA1999999101481MD1999999+0081REMSYN088AAXX  12004 83096 32695 30910 10255 20219 30148 40155 83500 333 10295 29077 55107 58008;EQDQ01  00002PRCP06
0167830960999992004101218004-10917-037050FM-12+000699999V0200901N004112200019N0020001N1+02741+02121101311ADDAA106000091GF102991021011012501001001MA1999999101241MD1999999+0011REMSYN070AAXX  12184 83096 32695 20908 10274 20212 30124 40131 82100 333 58001;EQDQ01  00002PRCP06
0198830960999992004101300004-10917-037050FM-12+000699999V0200901N003112200019N0020001N1+02541+02041101551ADDAA106000091GF102991021051012501001001KA1240M+02951MA1999999101481MD1999999+0001REMSYN088AAXX  13004 83096 32695 20906 10254 20204 30148 40155 82500 333 10295 29074 55096 58000;EQDQ01  00002PRCP06
0084830960999992004101312004-10917-037050FM-12+000699999V02099999999999999999N9999999N1+99999+99999999999REMSYN075AAXX  13124 83096 3295 41404 10275 20217 30146 40152 84100 333 20220 59003;
0183830960999992004101318004-10917-037050FM-12+000699999V0201401N002112200019N0020001N1+02731+02191101261ADDAA106000091GF103991999011012501001001MA1999999101191MD1999999-0051REMSYN070AAXX  13184 83096 32695 31404 10273 20219 30119 40126 82100 333 59005;EQDQ01+000022SCOTLCQ02  00002PRCP06
0198830960999992004101400004-10917-037050FM-12+000699999V0200901N003112200019N0020001N1+02531+02211101491ADDAA106000091GF103991031051012501001001KA1240M+02931MA1999999101421MD1999999-0061REMSYN088AAXX  14004 83096 32695 30906 10253 20221 30142 40149 83500 333 10293 29077 55104 59006;EQDQ01  00002PRCP06
0190830960999992004101412004-10917-037050FM-12+000699999V0200901N002610120019N0020001N1+02711+02281101531ADDAY161061AY261061GF105991051011012501001001KA1240N+02351MA1999999101461MD1999999+0001MW1211REMSYN088AAXX  14124 83096 21695 50905 10271 20228 30146 40153 72166 85100 333 20235 58000 60034;
0198830960999992004101500004-10917-037050FM-12+000699999V0200901N005112200019N0020001N1+02561+02191101481ADDAA106000091GF103991031051012501001001KA1240M+02951MA1999999101411MD1999999-0011REMSYN088AAXX  15004 83096 32695 30910 10256 20219 30141 40148 83500 333 10295 29077 55086 59001;EQDQ01  00002PRCP06
0186830960999992004101512004-10917-037050FM-12+000699999V0200901N003612200019N0020001N1+02781+02181101521ADDAA106000091GF103991031011012501001001KA1240N+02451MA1999999101451MD1999999-0011REMSYN076AAXX  15124 83096 32695 30907 10278 20218 30145 40152 83100 333 20245 59001;EQDQ01  00002PRCP06
0167830960999992004101518004-10917-037050FM-12+000699999V0200901N005112200019N0020001N1+02771+02211101351ADDAA106000091GF101991011011012501001001MA1999999101281MD1999999+0101REMSYN070AAXX  15184 83096 32695 10910 10277 20221 30128 40135 81100 333 58010;EQDQ01  00002PRCP06
0198830960999992004101600004-10917-037050FM-12+000699999V0200901N004112200019N0020001N1+02531+02091101661ADDAA106000091GF103991031051012501001001KA1240M+02951MA1999999101591MD1999999+0181REMSYN088AAXX  16004 83096 32695 30908 10253 20209 30159 40166 83500 333 10295 29073 55110 58018;EQDQ01  00002PRCP06
0186830960999992004101612004-10920-037050FM-12+000599999V0200901N005712200019N0020001N1+02791+02131101701ADDAA106000091GF102991021051012501001001KA1240N+02431MA1999999101631MD1999999+0181REMSYN076AAXX  16124 83096 32695 20911 10279 20213 30163 40170 82500 333 20243 58018;EQDQ01  00002PRCP06
0167830960999992004101618004-10920-037050FM-12+000599999V0200901N005112200019N0020001N1+02741+02071101361ADDAA106000091GF102991021011012501001001MA1999999101291MD1999999+0011REMSYN070AAXX  16184 83096 32695 20910 10274 20207 30129 40136 82100 333 58001;EQDQ01  00002PRCP06
0198830960999992004101700004-10920-037050FM-12+000599999V0200901N003112200019N0020001N1+02521+02021101601ADDAA106000091GF102991021051012501001001KA1240M+02951MA1999999101531MD1999999-0061REMSYN088AAXX  17004 83096 32695 20906 10252 20202 30153 40160 82500 333 10295 29070 55109 59006;EQDQ01  00002PRCP06
0186830960999992004101712004-10920-037050FM-12+000599999V0200901N004610120019N0020001N1+02771+02381101611ADDAA106000091GF106991061021012501001001KA1240N+02351MA1999999101541MD1999999-0091REMSYN076AAXX  17124 83096 32695 60909 10277 20238 30154 40161 86200 333 20235 59009;EQDQ01  00002PRCP06
0167830960999992004101718004-10920-037050FM-12+000599999V0200901N004112200019N0020001N1+02811+01971101271ADDAA106000091GF101991011011012501001001MA1999999101201MD1999999-0091REMSYN070AAXX  17184 83096 32695 10908 10281 20197 30120 40127 81100 333 59009;EQDQ01  00002PRCP06
0198830960999992004101800004-10917-037050FM-12+000699999V0200901N003112200019N0020001N1+02501+02051101381ADDAA106000091GF101991011051012501001001KA1240M+02941MA1999999101311MD1999999-0221REMSYN088AAXX  18004 83096 32695 10906 10250 20205 30131 40138 81500 333 10294 29073 55105 59022;EQDQ01  00002PRCP06
0186830960999992004101812004-10917-037050FM-12+000699999V0200901N002112200019N0020001N1+02791+02161101431ADDAA106000091GF103991031011012501001001KA1240N+02221MA1999999101361MD1999999-0181REMSYN076AAXX  18124 83096 32695 30904 10279 20216 30136 40143 83100 333 20222 59018;EQDQ01  00002PRCP06
0137830960999992004101818004-10917-037050FM-12+000699999V0200901N002612200019N0020001N1+02831+02221999999ADDAA106000091GF102991999999012501999999REMSYN069AAXX  18184 83096 32695 20905 10283 20222 3012 40129 82100 333 58002;EQDQ01  00002PRCP06
0198830960999992004101900004-10917-037050FM-12+000699999V0200901N004112200019N0020001N1+02541+02331101521ADDAA106000091GF103991031051012501001001KA1240M+02971MA1999999101451MD1999999+0141REMSYN088AAXX  19004 83096 32695 30908 10254 20233 30145 40152 83500 333 10297 29079 55107 58014;EQDQ01  00002PRCP06
0167830960999992004101918004-10917-037050FM-12+000699999V0200901N004112200019N0020001N1+02831+02291101211ADDAA106000091GF102991021011012501001001MA1999999101241MD1999999+0021REMSYN070AAXX  19184 83096 32695 20908 10283 20229 30124 40121 82100 333 58002;EQDQ01  00002PRCP06
0198830960999992004102000004-10917-037050FM-12+000699999V0200901N004112200019N0020001N1+02571+02351101451ADDAA106000091GF102991021051012501001001KA1240M+02981MA1999999101381MD1999999-0071REMSYN088AAXX  20004 83096 32695 20908 10257 20235 30138 40145 82500 333 10298 29080 55106 59007;EQDQ01  00002PRCP06
0186830960999992004102012004-10917-037050FM-12+000699999V0200901N002112200019N0020001N1+02811+02271101461ADDAA106000091GF103991031011012501001001KA1240N+02371MA1999999101391MD1999999+0041REMSYN076AAXX  20124 83096 32695 30904 10281 20227 30139 40146 83100 333 20237 58004;EQDQ01  00002PRCP06
0167830960999992004102018004-10917-037050FM-12+000699999V0200901N005112200019N0020001N1+02811+02201101251ADDAA106000091GF102991021011012501001001MA1999999101181MD1999999-0061REMSYN070AAXX  20184 83096 32695 20910 10281 20220 30118 40125 82100 333 59006;EQDQ01  00002PRCP06
0198830960999992004102100004-10917-037050FM-12+000699999V0200901N005112200019N0020001N1+02561+02351101441ADDAA106000091GF102991021051012501001001KA1240M+02971MA1999999101371MD1999999-0011REMSYN088AAXX  21004 83096 32695 20910 10256 20235 30137 40144 82500 333 10297 29080 55110 59001;EQDQ01  00002PRCP06
0186830960999992004102112004-10917-037050FM-12+000699999V0200901N002612200019N0020001N1+02771+02251101531ADDAA106000091GF103991031011012501001001KA1240N+02431MA1999999101461MD1999999+0071REMSYN076AAXX  21124 83096 32695 30905 10277 20225 30146 40153 83100 333 20243 58007;EQDQ01  00002PRCP06
0167830960999992004102118004-10917-037050FM-12+000699999V0200901N003112200019N0020001N1+02791+02181101361ADDAA106000091GF102991021011012501001001MA1999999101291MD1999999+0111REMSYN070AAXX  21184 83096 32695 20906 10279 20218 30129 40136 82100 333 58011;EQDQ01  00002PRCP06
0198830960999992004102200004-10917-037050FM-12+000699999V0200901N002612200019N0020001N1+02551+02151101571ADDAA106000091GF103991031051012501001001KA1240M+02971MA1999999101501MD1999999+0131REMSYN088AAXX  22004 83096 32695 30905 10255 20215 30150 40157 83500 333 10297 29075 55107 58013;EQDQ01  00002PRCP06
0186830960999992004102212004-10917-037050FM-12+000699999V0200901N003112200019N0020001N1+02731+02191101541ADDAA106000091GF102991021011012501001001KA1240N+02271MA1999999101471MD1999999+0011REMSYN076AAXX  22124 83096 32695 20906 10273 20219 30147 40154 82100 333 20227 58001;EQDQ01  00002PRCP06
0167830960999992004102218004-10917-037050FM-12+000699999V0200901N003112200019N0020001N1+02771+02071101241ADDAA106000091GF102991021011012501001001MA1999999101271MD1999999-0021REMSYN070AAXX  22184 83096 32695 20906 10277 20207 30127 40124 82100 333 59002;EQDQ01  00002PRCP06
0198830960999992004102300004-10917-037050FM-12+000699999V0201401N002112200019N0020001N1+02571+02081101581ADDAA106000091GF103991031051012501001001KA1240M+02971MA1999999101511MD1999999+0011REMSYN088AAXX  23004 83096 32695 31404 10257 20208 30151 40158 83500 333 10297 29072 55092 58001;EQDQ01  00002PRCP06
0190830960999992004102312004-10917-037050FM-12+000699999V0200901N003110120019N0020001N1+02691+02161101461ADDAY151061AY251061GF105991051011012501001001KA1240N+02141MA1999999101391MD1999999-0081MW1201REMSYN088AAXX  23124 83096 21695 50906 10269 20216 30139 40146 72055 85100 333 20214 59008 69964;
0148830960999992004102318004-10917-037050FM-12+000699999V0200901N003112200019N0020001N1+02751+02141101301ADDAA106000021GF104991041011012501001001MA1999999101231MD1999999-0041REMSYN070AAXX  23184 83096 32695 40906 10275 20214 30123 40130 84100 333 59004;
0198830960999992004102400004-10917-037050FM-12+000699999V0200901N002612200019N0020001N1+02551+02091101371ADDAA106000091GF103991031011012501001001KA1240M+02931MA1999999101301MD1999999-0211REMSYN088AAXX  24004 83096 32695 30905 10255 20209 30130 40137 83100 333 10293 29074 55089 59021;EQDQ01  00002PRCP06
0186830960999992004102412004-10917-037050FM-12+000699999V0200901N002612200019N0020001N1+02781+02091101411ADDAA106000091GF102991021011012501001001KA1240N+02451MA1999999101341MD1999999-0051REMSYN076AAXX  24124 83096 32695 20905 10278 20209 30134 40141 82100 333 20245 59005;EQDQ01  00002PRCP06
0167830960999992004102418004-10917-037050FM-12+000699999V0200901N002612200019N0020001N1+02811+02181101271ADDAA106000091GF102991021011012501001001MA1999999101201MD1999999-0031REMSYN070AAXX  24184 83096 32695 20905 10281 20218 30120 40127 82100 333 59003;EQDQ01  00002PRCP06
0214830960999992004102500004-10917-037050FM-12+000699999V0200901N002612200019N0020001N1+02531+02071101191ADDAA106000091GF103991999011012501001001KA1240M+02951MA1999999101121MD1999999-0181REMSYN088AAXX  25004 83096 32695 30905 10253 20207 30112 40119 82100 333 10295 29072 55104 59018;EQDQ01+000022SCOTLCQ02  00002PRCP06
0186830960999992004102512004-10917-037050FM-12+000699999V0200901N003112200019N0020001N1+02751+02261101301ADDAA106000091GF103991031011012501001001KA1240N+02261MA1999999101231MD1999999-0111REMSYN076AAXX  25124 83096 32695 30906 10275 20226 30123 40130 83100 333 20226 59011;EQDQ01  00002PRCP06
0167830960999992004102518004-10917-037050FM-12+000699999V0200901N005112200019N0020001N1+02811+02251100981ADDAA106000091GF102991021011012501001001MA1999999100911MD1999999-0291REMSYN070AAXX  25184 83096 32695 20910 10281 20225 30091 40098 82100 333 59029;EQDQ01  00002PRCP06
0198830960999992004102600004-10917-037050FM-12+000699999V0200901N005712200019N0020001N1+02601+02271101171ADDAA106000091GF103991031051012501001001KA1240M+02991MA1999999101101MD1999999-0021REMSYN088AAXX  26004 83096 32695 30911 10260 20227 30110 40117 83500 333 10299 29078 55111 59002;EQDQ01  00002PRCP06
0190830960999992004102612004-10917-037050FM-12+000699999V0200901N003112200019N0020001N1+02841+02261101121ADDAY151061AY251061GF102991021011012501001001KA1240N+02431MA1999999101221MD1999999-0011MW1201REMSYN088AAXX  26124 83096 21695 20906 10284 20226 30122 40112 72055 82100 333 20243 59001 69924;
0198830960999992004102700004-10917-037050FM-12+000699999V0200901N005112200019N0020001N1+02611+02061101321ADDAA106000091GF101991011051012501001001KA1240M+03001MA1999999101251MD1999999+0151REMSYN088AAXX  27004 83096 32695 10910 10261 20206 30125 40132 81500 333 10300 29077 55112 58015;EQDQ01  00002PRCP06
0186830960999992004102712004-10917-037050FM-12+000699999V0200901N003112200019N0020001N1+02811+02251101471ADDAA106000091GF104991041011012501001001KA1240N+02391MA1999999101401MD1999999+0181REMSYN076AAXX  27124 83096 32695 40906 10281 20225 30140 40147 84100 333 20239 58018;EQDQ01  00002PRCP06
0198830960999992004102800004-10917-037050FM-12+000699999V0200901N005110120019N0020001N1+02611+02331101491ADDAA106000091GF106991061051012501001001KA1240M+03011MA1999999101421MD1999999+0171REMSYN088AAXX  28004 83096 32695 60910 10261 20233 30142 40149 86500 333 10301 29072 55104 58017;EQDQ01  00002PRCP06
0186830960999992004102812004-10917-037050FM-12+000699999V0200901N003612200019N0020001N1+02811+02201101471ADDAA106000091GF104991041011012501001001KA1240N+02241MA1999999101401MD1999999+0001REMSYN076AAXX  28124 83096 32695 40907 10281 20220 30140 40147 84100 333 20224 58000;EQDQ01  00002PRCP06
0167830960999992004102818004-10917-037050FM-12+000699999V0200901N005712200019N0020001N1+02811+02331101271ADDAA106000091GF101991011011012501001001MA1999999101201MD1999999+0091REMSYN070AAXX  28184 83096 32695 10911 10281 20233 30120 40127 81100 333 58009;EQDQ01  00002PRCP06
0214830960999992004102900004-10917-037050FM-12+000699999V0200901N005119999999N0020001N1+02611+02291101391ADDAA106000091GF105991999051012501001001KA1240M+03011MA1999999101321MD1999999-0101REMSYN088AAXX  29004 83096 32695 50910 10261 20229 30132 40139 86500 333 10301 29078 55109 59010;EQDQ01+000062SCOTLCQ02  00002PRCP06
0186830960999992004102912004-10917-037050FM-12+000699999V0200901N003612200019N0020001N1+02851+02221101551ADDAA106000091GF103991031011012501001001KA1240N+02331MA1999999101481MD1999999+0081REMSYN076AAXX  29124 83096 32695 30907 10285 20222 30148 40155 83100 333 20233 58008;EQDQ01  00002PRCP06
0167830960999992004102918004-10917-037050FM-12+000699999V0200901N002612200019N0020001N1+02851+02311101341ADDAA106000091GF104991041011012501001001MA1999999101271MD1999999+0071REMSYN070AAXX  29184 83096 32695 40905 10285 20231 30127 40134 84100 333 58007;EQDQ01  00002PRCP06
0198830960999992004103000004-10917-037050FM-12+000699999V0200901N003112200019N0020001N1+02631+02251101351ADDAA106000091GF103991031051012501001001KA1240M+03011MA1999999101281MD1999999-0041REMSYN088AAXX  30004 83096 32695 30906 10263 20225 30128 40135 83500 333 10301 29075 55110 59004;EQDQ01  00002PRCP06
0167830960999992004103018004-10917-037050FM-12+000699999V0200901N003112200019N0020001N1+02831+02291101341ADDAA106000091GF103991031011012501001001MA1999999101271MD1999999+0001REMSYN070AAXX  30184 83096 32695 30906 10283 20229 30127 40134 83100 333 58000;EQDQ01  00002PRCP06
0198830960999992004103100004-10920-037050FM-12+000599999V0200901N002612200019N0020001N1+02591+02171101471ADDAA106000091GF102991021011012501001001KA1240M+03001MA1999999101401MD1999999+0121REMSYN088AAXX  31004 83096 32695 20905 10259 20217 30140 40147 82100 333 10300 29075 55107 58012;EQDQ01  00002PRCP06
0186830960999992004103112004-10920-037050FM-12+000599999V0200901N003112200019N0020001N1+02811+02181101591ADDAA106000091GF102991021011012501001001KA1240N+02451MA1999999101521MD1999999+0021REMSYN076AAXX  31124 83096 32695 20906 10281 20218 30152 40159 82100 333 20245 58002;EQDQ01  00002PRCP06
0167830960999992004103118004-10920-037050FM-12+000599999V0200901N003112200019N0020001N1+02831+02221101421ADDAA106000091GF102991021011012501001001MA1999999101351MD1999999+0081REMSYN070AAXX  31184 83096 32695 20906 10283 20222 30135 40142 82100 333 58008;EQDQ01  00002PRCP06
0198830960999992004110100004-10920-037050FM-12+000599999V0200901N002612200019N0020001N1+02571+02191101421ADDAA106000091GF103991031011012501001001KA1240M+03011MA1999999101351MD1999999-0051REMSYN088AAXX  01004 83096 32695 30905 10257 20219 30135 40142 83100 333 10301 29075 55110 59005;EQDQ01  00002PRCP06
0186830960999992004110112004-10920-037050FM-12+000599999V0200901N002612200019N0020001N1+02821+02311101531ADDAA106000091GF104991041011012501001001KA1240N+02451MA1999999101461MD1999999-0061REMSYN076AAXX  01124 83096 32695 40905 10282 20231 30146 40153 84100 333 20245 59006;EQDQ01  00002PRCP06
0167830960999992004110118004-10920-037050FM-12+000599999V0200901N005112200019N0020001N1+02831+02201101351ADDAA106000091GF102991021011012501001001MA1999999101281MD1999999-0071REMSYN070AAXX  01184 83096 32695 20910 10283 20220 30128 40135 82100 333 59007;EQDQ01  00002PRCP06
0198830960999992004110200004-10917-037050FM-12+000699999V0200901N005112200019N0020001N1+02581+02211101531ADDAA106000091GF103991031051012501001001KA1240M+03001MA1999999101461MD1999999+0111REMSYN088AAXX  02004 83096 32695 30910 10258 20221 30146 40153 83500 333 10300 29076 55106 58011;EQDQ01  00002PRCP06
0186830960999992004110212004-10917-037050FM-12+000699999V0200901N004112200019N0020001N1+02811+02181101411ADDAA106000091GF104991041011012501001001KA1240N+02411MA1999999101341MD1999999-0121REMSYN076AAXX  02124 83096 32695 40908 10281 20218 30134 40141 84100 333 20241 59012;EQDQ01  00002PRCP06
0167830960999992004110218004-10917-037050FM-12+000699999V0200901N004112200019N0020001N1+02861+02141101281ADDAA106000091GF102991021011012501001001MA1999999101211MD1999999-0071REMSYN070AAXX  02184 83096 32695 20908 10286 20214 30121 40128 82100 333 59007;EQDQ01  00002PRCP06
0198830960999992004110300004-10917-037050FM-12+000699999V0200901N003112200019N0020001N1+02571+02101101481ADDAA106000091GF103991031051012501001001KA1240M+03011MA1999999101411MD1999999-0051REMSYN088AAXX  03004 83096 32695 30906 10257 20210 30141 40148 83500 333 10301 29071 55111 59005;EQDQ01  00002PRCP06
0190830960999992004110312004-10917-037050FM-12+000699999V0200901N003612200019N0020001N1+02571+02351101471ADDAY161061AY261061GF104991041011012501001001KA1240N+02351MA1999999101401MD1999999+0061MW1211REMSYN088AAXX  03124 83096 21695 40907 10257 20235 30140 40147 72166 84100 333 20235 58006 60034;
0148830960999992004110318004-10917-037050FM-12+000699999V0200901N004112200019N0020001N1+02871+02191101301ADDAA106000021GF102991021011012501001001MA1999999101231MD1999999+0021REMSYN070AAXX  03184 83096 32695 20908 10287 20219 30123 40130 82100 333 58002;
0198830960999992004110400004-10917-037050FM-12+000699999V0200901N005112200019N0020001N1+02571+02381101501ADDAA106000091GF101991011051012501001001KA1240M+02961MA1999999101431MD1999999+0021REMSYN088AAXX  04004 83096 32695 10910 10257 20238 30143 40150 81500 333 10296 29083 55071 58002;EQDQ01  00002PRCP06
0186830960999992004110412004-10917-037050FM-12+000699999V0200901N003112200019N0020001N1+02831+02221101471ADDAA106000091GF102991021011012501001001KA1240N+02391MA1999999101401MD1999999+0001REMSYN076AAXX  04124 83096 32695 20906 10283 20222 30140 40147 82100 333 20239 58000;EQDQ01  00002PRCP06
0167830960999992004110418004-10917-037050FM-12+000699999V0200901N003612200019N0020001N1+02851+02221101281ADDAA106000091GF102991021011012501001001MA1999999101211MD1999999-0021REMSYN070AAXX  04184 83096 32695 20907 10285 20222 30121 40128 82100 333 59002;EQDQ01  00002PRCP06
0198830960999992004110500004-10917-037050FM-12+000699999V0200901N003112200019N0020001N1+02571+02231101531ADDAA106000091GF102991021051012501001001KA1240M+02991MA1999999101461MD1999999+0031REMSYN088AAXX  05004 83096 32695 20906 10257 20223 30146 40153 82500 333 10299 29055 55112 58003;EQDQ01  00002PRCP06
0190830960999992004110512004-10917-037050FM-12+000699999V0200901N002112200019N0020001N1+02551+02151101501ADDAY151061AY251061GF104991041011012501001001KA1240N+02411MA1999999101431MD1999999+0031MW1201REMSYN088AAXX  05124 83096 21695 40904 10255 20215 30143 40150 72055 84100 333 20241 58003 69964;
0171830960999992004110518004-10917-037050FM-12+000699999V0200901N004112200019N0020001N1+02761+02421101301ADDAY151061AY251061GF102991021011012501001001MA1999999101231MD1999999+0021MW1201REMSYN082AAXX  05184 83096 21695 20908 10276 20242 30123 40130 72055 82100 333 58002 69981;
0179830960999992004110600004-10917-037050FM-12+000699999V0200901N002612200019N0020001N1+02551+02291101451ADDAA106000021GF102991021051012501001001KA1240M+02981MA1999999101381MD1999999-0081REMSYN088AAXX  06004 83096 32695 20905 10255 20229 30138 40145 82500 333 10298 29083 55081 59008;
0190830960999992004110612004-10917-037050FM-12+000699999V0200901N002110120019N0020001N1+02831+02311101511ADDAY151061AY251061GF105991051011012501001001KA1240N+02411MA1999999101441MD1999999+0011MW1201REMSYN088AAXX  06124 83096 21695 50904 10283 20231 30144 40151 72055 85100 333 20241 58001 69984;
0148830960999992004110618004-10917-037050FM-12+000699999V0201401N002610120019N0020001N1+02701+02281101211ADDAA106000021GF106991061021012501001001MA1999999101141MD1999999-0091REMSYN070AAXX  06184 83096 32695 61405 10270 20228 30114 40121 86200 333 59009;
0202830960999992004110700004-10917-037050FM-12+000699999V0200901N005110120019N0020001N1+02381+02331101361ADDAY151061AY251061GF108991081051012501999999KA1240M+02971MA1999999101291MD1999999-0091MW1201REMSYN100AAXX  07004 83096 21695 80910 10238 20233 30129 40136 72055 885// 333 10297 29087 55087 59009 60011;
0190830960999992004110712004-10917-037050FM-12+000699999V0201401N004610120019N0020001N1+02791+02501101481ADDAY151061AY251061GF106991061021012501001001KA1240N+02341MA1999999101411MD1999999-0031MW1201REMSYN088AAXX  07124 83096 21695 61409 10279 20250 30141 40148 72055 86200 333 20234 59003 60034;
0171830960999992004110718004-10917-037050FM-12+000699999V0200901N004110075019N0020001N1+02661+02351101241ADDAY151061AY251061GF108991081021008001999999MA1999999101171MD1999999+0031MW1531REMSYN082AAXX  07184 83096 21595 80908 10266 20235 30117 40124 75355 882// 333 58003 69961;
0179830960999992004110800004-10920-037050FM-12+000599999V0200901N005112200019N0020001N1+02611+02251101481ADDAA106000021GF101991011051012501001001KA1240M+03001MA1999999101411MD1999999+0121REMSYN088AAXX  08004 83096 32695 10910 10261 20225 30141 40148 81500 333 10300 29083 55087 58012;
0162830960999992004110812004-10920-037050FM-12+000599999V0200901N003112200019N0020001N1+02811+02181101471ADDGF102991021011012501001001KA1240N+02351MA1999999101401MD1999999-0011REMSYN082AAXX  08124 83096 22695 20906 10281 20218 30140 40147 82100 333 20235 59001 69964;
0167830960999992004110818004-10920-037050FM-12+000599999V0201401N003112200019N0020001N1+02831+02121101331ADDAA106000091GF101991011011012501001001MA1999999101261MD1999999+0091REMSYN070AAXX  08184 83096 32695 11406 10283 20212 30126 40133 81100 333 58009;EQDQ01  00002PRCP06
0198830960999992004110900004-10917-037050FM-12+000699999V0201401N001512200019N0020001N1+02601+02121101571ADDAA106000091GF102991021051012501001001KA1240M+03021MA1999999101501MD1999999+0091REMSYN088AAXX  09004 83096 32695 21403 10260 20212 30150 40157 82500 333 10302 29070 55112 58009;EQDQ01  00002PRCP06
0190830960999992004110912004-10917-037050FM-12+000699999V0201401N002112200019N0020001N1+02791+02161101501ADDAY151061AY251061GF101991011011012501001001KA1240N+02431MA1999999101431MD1999999+0031MW1201REMSYN088AAXX  09124 83096 21695 11404 10279 20216 30143 40150 72055 81100 333 20243 58003 69984;
0148830960999992004110918004-10917-037050FM-12+000699999V0201401N003112200019N0020001N1+02801+01921101381ADDAA106000021GF103991031011012501001001MA1999999101311MD1999999+0051REMSYN070AAXX  09184 83096 32695 31406 10280 20192 30131 40138 83100 333 58005;
0198830960999992004111000004-10917-037050FM-12+000699999V0201401N001512200019N0020001N1+02531+02091101561ADDAA106000091GF103991031051012501001001KA1240M+02971MA1999999101491MD1999999-0011REMSYN088AAXX  10004 83096 32695 31403 10253 20209 30149 40156 83500 333 10297 29066 55108 59001;EQDQ01  00002PRCP06
0190830960999992004111012004-10917-037050FM-12+000699999V0200901N003112200019N0020001N1+02791+02111101481ADDAY151061AY251061GF103991031011012501001001KA1240N+02301MA1999999101411MD1999999-0021MW1201REMSYN088AAXX  10124 83096 21695 30906 10279 20211 30141 40148 72055 83100 333 20230 59002 69964;
0148830960999992004111018004-10917-037050FM-12+000699999V0200901N003610120019N0020001N1+02711+02281101251ADDAA106000021GF108991081021012501999999MA1999999101181MD1999999-0131REMSYN070AAXX  10184 83096 32695 80907 10271 20228 30118 40125 882// 333 59013;
0198830960999992004111100004-10917-037050FM-12+000699999V0200901N004112200019N0020001N1+02591+02251101491ADDAA106000091GF102991021051012501001001KA1240M+02991MA1999999101421MD1999999-0071REMSYN088AAXX  11004 83096 32695 20908 10259 20225 30142 40149 82500 333 10299 29076 55089 59007;EQDQ01  00002PRCP06
0186830960999992004111112004-10917-037050FM-12+000699999V0200901N003612200019N0020001N1+02851+02171101391ADDAA106000091GF102991021011012501001001KA1240N+02281MA1999999101131MD1999999-0091REMSYN076AAXX  11124 83096 32695 20907 10285 20217 30113 40139 82100 333 20228 59009;EQDQ01  00002PRCP06
0198830960999992004111200004-10917-037050FM-12+000699999V0200901N005112200019N0020001N1+02571+02231101231ADDAA106000091GF102991021051012501001001KA1240M+03011MA1999999101161MD1999999-0261REMSYN088AAXX  12004 83096 32695 20910 10257 20223 30116 40123 82500 333 10301 29075 55107 59026;EQDQ01  00002PRCP06
0186830960999992004111212004-10917-037050FM-12+000699999V0200901N004112200019N0020001N1+02791+02251101211ADDAA106000091GF104991041011012501001001KA1240N+02451MA1999999101141MD1999999-0181REMSYN076AAXX  12124 83096 32695 40908 10279 20225 30114 40121 84100 333 20245 59018;EQDQ01  00002PRCP06
0167830960999992004111218004-10920-037050FM-12+000599999V0200901N006712200019N0020001N1+02801+02311100961ADDAA106000091GF101991011011012501001001MA1999999100891MD1999999-0131REMSYN070AAXX  12184 83096 32695 10913 10280 20231 30089 40096 81100 333 59013;EQDQ01  00002PRCP06
0198830960999992004111300004-10920-037050FM-12+000599999V0200901N004112200019N0020001N1+02581+02351101221ADDAA106000091GF101991011051012501001001KA1240M+03011MA1999999101151MD1999999-0011REMSYN088AAXX  13004 83096 32695 10908 10258 20235 30115 40122 81500 333 10301 29080 55109 59001;EQDQ01  00002PRCP06
0186830960999992004111312004-10920-037050FM-12+000599999V0200901N033912200019N0020001N1+02911+02411101211ADDAA106000091GF101991011011012501001001KA1240N+02321MA1999999101141MD1999999+0001REMSYN076AAXX  13124 83096 32695 10966 10291 20241 30114 40121 81100 333 20232 58000;EQDQ01  00002PRCP06
0167830960999992004111318004-10920-037050FM-12+000599999V0200901N006712200019N0020001N1+02841+02401100851ADDAA106000091GF101991011011012501001001MA1999999100781MD1999999-0111REMSYN070AAXX  13184 83096 32695 10913 10284 20240 30078 40085 81100 333 59011;EQDQ01  00002PRCP06
0198830960999992004111400004-10917-037050FM-12+000699999V0200901N004112200019N0020001N1+02611+02371101151ADDAA106000091GF101991011051012501001001KA1240M+03041MA1999999101081MD1999999-0071REMSYN088AAXX  14004 83096 32695 10908 10261 20237 30108 40115 81500 333 10304 29081 55113 59007;EQDQ01  00002PRCP06
0186830960999992004111412004-10917-037050FM-12+000699999V0200901N004112200019N0020001N1+02901+02371101411ADDAA106000091GF101991011011012501001001KA1240N+02391MA1999999101341MD1999999+0201REMSYN076AAXX  14124 83096 32695 10908 10290 20237 30134 40141 81100 333 20239 58020;EQDQ01  00002PRCP06
0167830960999992004111418004-10917-037050FM-12+000699999V0201401N003112200019N0020001N1+02831+02291101231ADDAA106000091GF101991011011012501001001MA1999999101161MD1999999+0381REMSYN070AAXX  14184 83096 32695 11406 10283 20229 30116 40123 81100 333 58038;EQDQ01  00002PRCP06
0198830960999992004111500004-10917-037050FM-12+000699999V0200901N002612200019N0020001N1+02591+02311101441ADDAA106000091GF101991011011012501001001KA1240M+03021MA1999999101371MD1999999+0291REMSYN088AAXX  15004 83096 32695 10905 10259 20231 30137 40144 81100 333 10302 29078 55092 58029;EQDQ01  00002PRCP06
0190830960999992004111512004-10917-037050FM-12+000699999V0200901N003112200019N0020001N1+02811+02271101431ADDAY161061AY261061GF102991021011012501001001KA1240N+02361MA1999999101361MD1999999+0021MW1211REMSYN088AAXX  15124 83096 21695 20906 10281 20227 30136 40143 72166 82100 333 20236 58002 60044;
0148830960999992004111518004-10917-037050FM-12+000699999V0200901N003112200019N0020001N1+02841+02261101261ADDAA106000021GF103991031011012501001001MA1999999101191MD1999999+0031REMSYN070AAXX  15184 83096 32695 30906 10284 20226 30119 40126 83100 333 58003;
0198830960999992004111600004-10917-037050FM-12+000699999V0200901N001512200019N0020001N1+02551+02211101511ADDAA106000091GF101991011051012501001001KA1240M+02971MA1999999101441MD1999999+0071REMSYN088AAXX  16004 83096 32695 10903 10255 20221 30144 40151 81500 333 10297 29076 55106 58007;EQDQ01  00002PRCP06
0186830960999992004111612004-10917-037050FM-12+000699999V0200901N002112200019N0020001N1+02831+02201101501ADDAA106000091GF103991031011012501001001KA1240N+02431MA1999999101431MD1999999+0071REMSYN076AAXX  16124 83096 32695 30904 10283 20220 30143 40150 83100 333 20243 58007;EQDQ01  00002PRCP06
0167830960999992004111618004-10917-037050FM-12+000699999V0200901N002612200019N0020001N1+02851+02121101381ADDAA106000091GF101991011011012501001001MA1999999101211MD1999999+0121REMSYN070AAXX  16184 83096 32695 10905 10285 20212 30121 40138 81100 333 58012;EQDQ01  00002PRCP06
0198830960999992004111700004-10917-037050FM-12+000699999V0200901N003112200019N0020001N1+02571+02151101531ADDAA106000091GF101991011051012501001001KA1240M+02991MA1999999101461MD1999999+0021REMSYN088AAXX  17004 83096 32695 10906 10257 20215 30146 40153 81500 333 10299 29072 55116 58002;EQDQ01  00002PRCP06
0186830960999992004111712004-10917-037050FM-12+000699999V0200901N002612200019N0020001N1+02831+02121101531ADDAA106000091GF102991021011012501001001KA1240N+02221MA1999999101461MD1999999+0031REMSYN076AAXX  17124 83096 32695 20905 10283 20212 30146 40153 82100 333 20222 58003;EQDQ01  00002PRCP06
0167830960999992004111718004-10917-037050FM-12+000699999V0200901N002612200019N0020001N1+02821+02021101281ADDAA106000091GF101991011011012501001001MA1999999101211MD1999999-0101REMSYN070AAXX  17184 83096 32695 10905 10282 20202 30121 40128 81100 333 59010;EQDQ01  00002PRCP06
0198830960999992004111800004-10917-037050FM-12+000699999V0200901N003112200019N0020001N1+02551+02151101511ADDAA106000091GF104991041051012501001001KA1240M+03011MA1999999101441MD1999999-0021REMSYN088AAXX  18004 83096 32695 40906 10255 20215 30144 40151 84500 333 10301 29071 55116 59002;EQDQ01  00002PRCP06
0186830960999992004111812004-10917-037050FM-12+000699999V0200901N003612200019N0020001N1+02851+02191101411ADDAA106000091GF102991021011012501001001KA1240N+02441MA1999999101341MD1999999-0121REMSYN076AAXX  18124 83096 32695 20907 10285 20219 30134 40141 82100 333 20244 59012;EQDQ01  00002PRCP06
0167830960999992004111818004-10917-037050FM-12+000699999V0200901N005112200019N0020001N1+02831+02271101081ADDAA106000091GF101991011011012501001001MA1999999101011MD1999999-0201REMSYN070AAXX  18184 83096 32695 10910 10283 20227 30101 40108 81100 333 59020;EQDQ01  00002PRCP06
0198830960999992004111900004-10917-037050FM-12+000699999V0200901N005112200019N0020001N1+02601+02351101261ADDAA106000091GF102991021051012501001001KA1240M+02991MA1999999101191MD1999999-0241REMSYN088AAXX  19004 83096 32695 20910 10260 20235 30119 40126 82500 333 10299 29078 55112 59024;EQDQ01  00002PRCP06
0186830960999992004111912004-10917-037050FM-12+000699999V0200901N003112200019N0020001N1+02851+02261101191ADDAA106000091GF103991031011012501001001KA1240N+02331MA1999999101121MD1999999-0221REMSYN076AAXX  19124 83096 32695 30906 10285 20226 30112 40119 83100 333 20233 59022;EQDQ01  00002PRCP06
0167830960999992004111918004-10917-037050FM-12+000699999V0200901N005112200019N0020001N1+02841+02401100901ADDAA106000091GF101991011011012501001001MA1999999100831MD1999999-0181REMSYN070AAXX  19184 83096 32695 10910 10284 20240 30083 40090 81100 333 59018;EQDQ01  00002PRCP06
0198830960999992004112100004-10920-037050FM-12+000599999V0200901N004112200019N0020001N1+02611+02351100901ADDAA106000091GF102991021011012501001001KA1240M+03021MA1999999100831MD1999999-0171REMSYN088AAXX  21004 83096 32695 20908 10261 20235 30083 40090 82100 333 10302 29074 55110 59017;EQDQ01  00002PRCP06
0186830960999992004112112004-10920-037050FM-12+000599999V0200501N003112200019N0020001N1+03031+01961101211ADDAA106000091GF102991021011012501001001KA1240N+02451MA1999999101141MD1999999+0101REMSYN076AAXX  21124 83096 32695 20506 10303 20196 30114 40121 82100 333 20245 58010;EQDQ01  00002PRCP06
0167830960999992004112118004-10920-037050FM-12+000599999V0200901N003112200019N0020001N1+02931+02191100981ADDAA106000091GF102991021011012501001001MA1999999100911MD1999999+0081REMSYN070AAXX  21184 83096 32695 20906 10293 20219 30091 40098 82100 333 58008;EQDQ01  00002PRCP06
0198830960999992004112200004-10917-037050FM-12+000699999V0200901N002610120019N0020001N1+02591+02291101261ADDAA106000091GF105991051051012501001001KA1240M+03021MA1999999101191MD1999999-0361REMSYN088AAXX  22004 83096 32695 50905 10259 20229 30119 40126 85500 333 10302 29071 55028 59036;EQDQ01  00002PRCP06
0186830960999992004112212004-10917-037050FM-12+000699999V0200901N003110120019N0020001N1+02771+02281101351ADDAA106000091GF105991051011012501001001KA1240N+02451MA1999999101121MD1999999+0141REMSYN076AAXX  22124 83096 32695 50906 10277 20228 30112 40135 85100 333 20245 58014;EQDQ01  00002PRCP06
0167830960999992004112218004-10917-037050FM-12+000699999V0200901N005712200019N0020001N1+02711+02321101061ADDAA106000091GF103991031021012501001001MA1999999100991MD1999999+0081REMSYN070AAXX  22184 83096 32695 30911 10271 20232 30099 40106 83200 333 58008;EQDQ01  00002PRCP06
0192830960999992004112300004-10917-037050FM-12+000699999V0200901N002610120019N0020001N1+02571+02351101411ADDAA106000091GF106991061051012501001001KA1240M+03021MA1999999101341MD1999999+0151REMSYN082AAXX  23004 83096 32695 60905 10257 20235 30134 40141 86500 333 10302 29082 58015;EQDQ01  00002PRCP06
0186830960999992004112312004-10917-037050FM-12+000699999V0200901N003610120019N0020001N1+02671+02291101361ADDAA106000091GF105991051051012501031001KA1240N+02371MA1999999101291MD1999999+0011REMSYN076AAXX  23124 83096 32695 50907 10267 20229 30129 40136 85530 333 20237 58001;EQDQ01  00002PRCP06
0167830960999992004112318004-10917-037050FM-12+000699999V0200901N005110120019N0020001N1+02741+02261101241ADDAA106000091GF105991051011012501001011MA1999999101171MD1999999+0181REMSYN070AAXX  23184 83096 32695 50910 10274 20226 30117 40124 85101 333 58018;EQDQ01  00002PRCP06
0198830960999992004112400004-10917-037050FM-12+000699999V0200901N003112200019N0020001N1+02601+02291101471ADDAA106000091GF103991031051012501001001KA1240M+03011MA1999999101401MD1999999+0061REMSYN088AAXX  24004 83096 32695 30906 10260 20229 30140 40147 83500 333 10301 29080 55051 58006;EQDQ01  00002PRCP06
0186830960999992004112412004-10917-037050FM-12+000699999V0200901N003110120019N0020001N1+02811+02221101451ADDAA106000091GF106991061051012501001001KA1240N+02221MA1999999101381MD1999999+0091REMSYN076AAXX  24124 83096 32695 60906 10281 20222 30138 40145 86500 333 20222 58009;EQDQ01  00002PRCP06
0167830960999992004112418004-10917-037050FM-12+000699999V0200901N005110120019N0020001N1+02801+02361101201ADDAA106000091GF105991051011012501001011MA1999999101131MD1999999-0041REMSYN070AAXX  24184 83096 32695 50910 10280 20236 30113 40120 85101 333 59004;EQDQ01  00002PRCP06
0198830960999992004112500004-10917-037050FM-12+000699999V0200901N003110120019N0020001N1+02581+02311101451ADDAA106000091GF106991061021012501001001KA1240M+02991MA1999999101381MD1999999-0021REMSYN088AAXX  25004 83096 32695 60906 10258 20231 30138 40145 86200 333 10299 29080 55057 59002;EQDQ01  00002PRCP06
0190830960999992004112512004-10917-037050FM-12+000699999V0201401N001510120019N0020001N1+02591+02371101361ADDAY151061AY251061GF106991061051012501001001KA1240N+02241MA1999999101291MD1999999-0091MW1201REMSYN088AAXX  25124 83096 21695 61403 10259 20237 30129 40136 72055 86500 333 20224 59009 69924;
0148830960999992004112518004-10917-037050FM-12+000699999V0200901N003112200019N0020001N1+02781+02361101161ADDAA106000021GF101991011011012501001001MA1999999101091MD1999999-0041REMSYN070AAXX  25184 83096 32695 10906 10278 20236 30109 40116 81100 333 59004;
0198830960999992004112600004-10917-037050FM-12+000699999V0200901N002612200019N0020001N1+02571+02331101351ADDAA106000091GF104991041021012501001001KA1240M+02971MA1999999101281MD1999999-0101REMSYN088AAXX  26004 83096 32695 40905 10257 20233 30128 40135 84200 333 10297 29085 55038 59010;EQDQ01  00002PRCP06
0167830960999992004112618004-10917-037050FM-12+000699999V0200901N003112200019N0020001N1+02811+02241101081ADDAA106000091GF102991021011012501001001MA1999999101011MD1999999-0081REMSYN070AAXX  26184 83096 32695 20906 10281 20224 30101 40108 82100 333 59008;EQDQ01  00002PRCP06
0198830960999992004112700004-10917-037050FM-12+000699999V0200901N003112200019N0020001N1+02571+02171101251ADDAA106000091GF101991011051012501001001KA1240M+03021MA1999999101181MD1999999-0101REMSYN088AAXX  27004 83096 32695 10906 10257 20217 30118 40125 81500 333 10302 29079 55113 59010;EQDQ01  00002PRCP06
0190830960999992004112712004-10917-037050FM-12+000699999V0200901N001510120019N0020001N1+02681+02351101351ADDAY161061AY261061GF106991061021012501001001KA1240N+02361MA1999999101281MD1999999+0081MW1201REMSYN088AAXX  27124 83096 21695 60903 10268 20235 30128 40135 72066 86200 333 20236 58008 69944;
0148830960999992004112718004-10917-037050FM-12+000699999V0200901N005112200019N0020001N1+02811+02151101021ADDAA106000021GF101991011011012501001001MA1999999100951MD1999999-0061REMSYN070AAXX  27184 83096 32695 10910 10281 20215 30095 40102 81100 333 59006;
0198830960999992004112800004-10917-037050FM-12+000699999V0200901N003612200019N0020001N1+02601+02291101281ADDAA106000091GF101991011051012501001001KA1240M+02991MA1999999101211MD1999999+0031REMSYN088AAXX  28004 83096 32695 10907 10260 20229 30121 40128 81500 333 10299 29079 55090 58003;EQDQ01  00002PRCP06
0186830960999992004112812004-10917-037050FM-12+000699999V0200901N004112200019N0020001N1+02901+02341101321ADDAA106000091GF102991021011012501001001KA1240N+02391MA1999999101251MD1999999-0031REMSYN076AAXX  28124 83096 32695 20908 10290 20234 30125 40132 82100 333 20239 59003;EQDQ01  00002PRCP06
0167830960999992004112818004-10917-037050FM-12+000699999V0200901N005112200019N0020001N1+02831+02351100981ADDAA106000091GF101991011011012501001001MA1999999100911MD1999999-0041REMSYN070AAXX  28184 83096 32695 10910 10283 20235 30091 40098 81100 333 59004;EQDQ01  00002PRCP06
0214830960999992004112900004-10917-037050FM-12+000699999V0200901N005119999999N0020001N1+02621+02331101121ADDAA106000091GF105991999051012501001001KA1240M+03021MA1999999101051MD1999999-0161REMSYN088AAXX  29004 83096 32695 50910 10262 20233 30105 40112 83500 333 10302 29079 55108 59016;EQDQ01+000032SCOTLCQ02  00002PRCP06
0167830960999992004113018004-10917-037050FM-12+000699999V0200901N004112200019N0020001N1+02851+02291101021ADDAA106000091GF101991011011012501001001MA1999999100951MD1999999+0081REMSYN070AAXX  30184 83096 32695 10908 10285 20229 30095 40102 81100 333 58008;EQDQ01  00002PRCP06
0198830960999992004120100004-10917-037050FM-12+000699999V0200901N005112200019N0020001N1+02601+02371101181ADDAA106000091GF101991011051012501001001KA1240M+03031MA1999999101111MD1999999-0021REMSYN088AAXX  01004 83096 32695 10910 10260 20237 30111 40118 81500 333 10303 29079 55100 59002;EQDQ01  00002PRCP06
0186830960999992004120112004-10917-037050FM-12+000699999V0200901N002112200019N0020001N1+02911+02221101211ADDAA106000091GF102991021011012501001001KA1240N+02411MA1999999101141MD1999999+0041REMSYN076AAXX  01124 83096 32695 20904 10291 20222 30114 40121 82100 333 20241 58004;EQDQ01  00002PRCP06
0198830960999992004120200004-10917-037050FM-12+000699999V0200901N004112200019N0020001N1+02581+02311101161ADDAA106000091GF101991011051012501001001KA1240M+03021MA1999999101091MD1999999-0021REMSYN088AAXX  02004 83096 32695 10908 10258 20231 30109 40116 81500 333 10302 29076 55118 59002;EQDQ01  00002PRCP06
0186830960999992004120212004-10917-037050FM-12+000699999V0200901N002112200019N0020001N1+02881+02371101271ADDAA106000091GF103991031011012501001001KA1240N+02201MA1999999101201MD1999999+0061REMSYN076AAXX  02124 83096 32695 30904 10288 20237 30120 40127 83100 333 20220 58006;EQDQ01  00002PRCP06
0167830960999992004120218004-10917-037050FM-12+000699999V0200901N002612200019N0020001N1+02891+02371101141ADDAA106000091GF103991031011012501001001MA1999999101071MD1999999+0101REMSYN070AAXX  02184 83096 32695 30905 10289 20237 30107 40114 83100 333 58010;EQDQ01  00002PRCP06
0198830960999992004120300004-10917-037050FM-12+000699999V0200901N003112200019N0020001N1+02611+02311101261ADDAA106000091GF102991021051012501001001KA1240M+03051MA1999999101191MD1999999+0101REMSYN088AAXX  03004 83096 32695 20906 10261 20231 30119 40126 82500 333 10305 29078 55112 58010;EQDQ01  00002PRCP06
0186830960999992004120312004-10917-037050FM-12+000699999V0201401N002112200019N0020001N1+02831+02271101371ADDAA106000091GF103991031011012501001001KA1240N+02301MA1999999101301MD1999999+0101REMSYN076AAXX  03124 83096 32695 31404 10283 20227 30130 40137 83100 333 20230 58010;EQDQ01  00002PRCP06
0167830960999992004120318004-10917-037050FM-12+000699999V0200901N003112200019N0020001N1+02871+02191101251ADDAA106000091GF102991021011012501001001MA1999999101181MD1999999+0111REMSYN070AAXX  03184 83096 32695 20906 10287 20219 30118 40125 82100 333 58011;EQDQ01  00002PRCP06
0198830960999992004120400004-10917-037050FM-12+000699999V0200901N004112200019N0020001N1+02611+02251101441ADDAA106000091GF101991011051012501001001KA1240M+03061MA1999999101371MD1999999+0181REMSYN088AAXX  04004 83096 32695 10908 10261 20225 30137 40144 81500 333 10306 29075 55105 58018;EQDQ01  00002PRCP06
0186830960999992004120412004-10917-037050FM-12+000699999V0200901N002112200019N0020001N1+02891+02281101581ADDAA106000091GF102991021011012501001001KA1240N+02431MA1999999101511MD1999999+0211REMSYN076AAXX  04124 83096 32695 20904 10289 20228 30151 40158 82100 333 20243 58021;EQDQ01  00002PRCP06
0167830960999992004120418004-10917-037050FM-12+000699999V0200901N002612200019N0020001N1+02911+02251101371ADDAA106000091GF101991011011012501001001MA1999999101301MD1999999-0121REMSYN070AAXX  04184 83096 32695 10905 10291 20225 30130 40137 81100 333 59012;EQDQ01  00002PRCP06
0198830960999992004120500004-10917-037050FM-12+000699999V0200901N002612200019N0020001N1+02671+02161101441ADDAA106000091GF103991031051012501001001KA1240M+03041MA1999999101371MD1999999+0001REMSYN088AAXX  05004 83096 32695 30905 10267 20216 30137 40144 83500 333 10304 29071 55117 58000;EQDQ01  00002PRCP06
0186830960999992004120512004-10917-037050FM-12+000699999V0200901N002612200019N0020001N1+02851+02121101491ADDAA106000091GF103991031011012501001001KA1240N+02451MA1999999101421MD1999999-0091REMSYN076AAXX  05124 83096 32695 30905 10285 20212 30142 40149 83100 333 20245 59009;EQDQ01  00002PRCP06
0167830960999992004120518004-10917-037050FM-12+000699999V0200901N003112200019N0020001N1+02891+02281101341ADDAA106000091GF104991041011012501001001MA1999999101271MD1999999-0031REMSYN070AAXX  05184 83096 32695 40906 10289 20228 30127 40134 84100 333 59003;EQDQ01  00002PRCP06
0198830960999992004120600004-10920-037050FM-12+000599999V0200901N002610120019N0020001N1+02611+02191101321ADDAA106000091GF105991051051012501001001KA1240M+03021MA1999999101251MD1999999-0121REMSYN088AAXX  06004 83096 32695 50905 10261 20219 30125 40132 85500 333 10302 29073 55100 59012;EQDQ01  00002PRCP06
0186830960999992004120612004-10920-037050FM-12+000599999V0200901N002112200019N0020001N1+02831+02151101351ADDAA106000091GF103991031011012501001001KA1240N+02451MA1999999101281MD1999999-0141REMSYN076AAXX  06124 83096 32695 30904 10283 20215 30128 40135 83100 333 20245 59014;EQDQ01  00002PRCP06
0167830960999992004120618004-10920-037050FM-12+000599999V0200901N005112200019N0020001N1+02831+02351101111ADDAA106000091GF101991011011012501001001MA1999999101041MD1999999-0231REMSYN070AAXX  06184 83096 32695 10910 10283 20235 30104 40111 81100 333 59023;EQDQ01  00002PRCP06
0198830960999992004120700004-10917-037050FM-12+000699999V0200901N005112200019N0020001N1+02611+02211101351ADDAA106000091GF101991011051012501001001KA1240M+03031MA1999999101281MD1999999+0031REMSYN088AAXX  07004 83096 32695 10910 10261 20221 30128 40135 81500 333 10303 29074 55118 58003;EQDQ01  00002PRCP06
0186830960999992004120712004-10917-037050FM-12+000699999V0200901N002612200019N0020001N1+02891+02211101351ADDAA106000091GF103991031011012501001001KA1240N+02371MA1999999101281MD1999999+0001REMSYN076AAXX  07124 83096 32695 30905 10289 20221 30128 40135 83100 333 20237 58000;EQDQ01  00002PRCP06
0167830960999992004120718004-10917-037050FM-12+000699999V0200901N005112200019N0020001N1+02871+02281101171ADDAA106000091GF101991011011012501001001MA1999999101101MD1999999+0061REMSYN070AAXX  07184 83096 32695 10910 10287 20228 30110 40117 81100 333 58006;EQDQ01  00002PRCP06
0198830960999992004120800004-10917-037050FM-12+000699999V0200901N005112200019N0020001N1+02621+02281101241ADDAA106000091GF101991011051012501001001KA1240M+03071MA1999999101171MD1999999-0111REMSYN088AAXX  08004 83096 32695 10910 10262 20228 30117 40124 81500 333 10307 29075 55115 59011;EQDQ01  00002PRCP06
0186830960999992004120812004-10917-037050FM-12+000699999V0200901N003112200019N0020001N1+02891+02281101361ADDAA106000091GF103991031011012501001001KA1240N+02371MA1999999101291MD1999999+0011REMSYN076AAXX  08124 83096 32695 30906 10289 20228 30129 40136 83100 333 20237 58001;EQDQ01  00002PRCP06
0167830960999992004120818004-10917-037050FM-12+000699999V0200901N004112200019N0020001N1+02941+02361101261ADDAA106000091GF101991011011012501001001MA1999999101191MD1999999+0091REMSYN070AAXX  08184 83096 32695 10908 10294 20236 30119 40126 81100 333 58009;EQDQ01  00002PRCP06
0198830960999992004120900004-10917-037050FM-12+000699999V0200901N004112200019N0020001N1+02641+02331101281ADDAA106000091GF101991011051012501001001KA1240M+03071MA1999999101211MD1999999+0041REMSYN088AAXX  09004 83096 32695 10908 10264 20233 30121 40128 81500 333 10307 29077 55116 58004;EQDQ01  00002PRCP06
0186830960999992004120912004-10917-037050FM-12+000699999V0200901N002612200019N0020001N1+02911+02271101261ADDAA106000091GF103991031011012501001001KA1240N+02261MA1999999101191MD1999999-0101REMSYN076AAXX  09124 83096 32695 30905 10291 20227 30119 40126 83100 333 20226 59010;EQDQ01  00002PRCP06
0167830960999992004120918004-10917-037050FM-12+000699999V0200901N005712200019N0020001N1+02891+02321101001ADDAA106000091GF101991011011012501001001MA1999999100931MD1999999-0261REMSYN070AAXX  09184 83096 32695 10911 10289 20232 30093 40100 81100 333 59026;EQDQ01  00002PRCP06
0198830960999992004121000004-10917-037050FM-12+000699999V0200901N003112200019N0020001N1+02631+02271101161ADDAA106000091GF101991011051012501001001KA1240M+03061MA1999999101091MD1999999-0121REMSYN088AAXX  10004 83096 32695 10906 10263 20227 30109 40116 81500 333 10306 29075 55101 59012;EQDQ01  00002PRCP06
0186830960999992004121012004-10917-037050FM-12+000699999V0200901N003112200019N0020001N1+02951+02191101091ADDAA106000091GF104991041011012501001001KA1240N+02391MA1999999101021MD1999999-0171REMSYN076AAXX  10124 83096 32695 40906 10295 20219 30102 40109 84100 333 20239 59017;EQDQ01  00002PRCP06
0167830960999992004121018004-10917-037050FM-12+000699999V0200901N005712200019N0020001N1+02901+02341100841ADDAA106000091GF101991011011012501001001MA1999999100771MD1999999-0161REMSYN070AAXX  10184 83096 32695 10911 10290 20234 30077 40084 81100 333 59016;EQDQ01  00002PRCP06
0198830960999992004121100004-10917-037050FM-12+000699999V0200901N005112200019N0020001N1+02631+02311100871ADDAA106000091GF102991021051012501001001KA1240M+03101MA1999999100801MD1999999-0291REMSYN088AAXX  11004 83096 32695 20910 10263 20231 30080 40087 82500 333 10310 29076 55114 59029;EQDQ01  00002PRCP06
0186830960999992004121112004-10917-037050FM-12+000699999V0200901N005112200019N0020001N1+02861+02261101221ADDAA106000091GF102991021011012501001001KA1240N+02451MA1999999101151MD1999999+0131REMSYN076AAXX  11124 83096 32695 20910 10286 20226 30115 40122 82100 333 20245 58013;EQDQ01  00002PRCP06
0167830960999992004121118004-10917-037050FM-12+000699999V0200901N006212200019N0020001N1+02841+02421100861ADDAA106000091GF101991011011012501001001MA1999999100791MD1999999+0021REMSYN070AAXX  11184 83096 32695 10912 10284 20242 30079 40086 81100 333 58002;EQDQ01  00002PRCP06
0198830960999992004121200004-10920-037050FM-12+000599999V0200901N004112200019N0020001N1+02671+02371101141ADDAA106000091GF101991011051012501001001KA1240M+03041MA1999999101071MD1999999+0271REMSYN088AAXX  12004 83096 32695 10908 10267 20237 30107 40114 81500 333 10304 29079 55090 58027;EQDQ01  00002PRCP06
0186830960999992004121212004-10920-037050FM-12+000599999V0200901N005112200019N0020001N1+02911+02341101321ADDAA106000091GF101991011011012501001001KA1240N+02431MA1999999101251MD1999999+0101REMSYN076AAXX  12124 83096 32695 10910 10291 20234 30125 40132 81100 333 20243 58010;EQDQ01  00002PRCP06
0167830960999992004121218004-10920-037050FM-12+000599999V0200901N005712200019N0020001N1+02881+02391101061ADDAA106000091GF101991011011012501001001MA1999999100991MD1999999+0201REMSYN070AAXX  12184 83096 32695 10911 10288 20239 30099 40106 81100 333 58020;EQDQ01  00002PRCP06
0198830960999992004121300004-10917-037050FM-12+000699999V0200901N005112200019N0020001N1+02631+02421101251ADDAA106000091GF101991011051012501001001KA1240M+03081MA1999999101181MD1999999+0111REMSYN088AAXX  13004 83096 32695 10910 10263 20242 30118 40125 81500 333 10308 29080 55094 58011;EQDQ01  00002PRCP06
0186830960999992004121312004-10917-037050FM-12+000699999V0200901N002612200019N0020001N1+02811+02361101351ADDAA106000091GF104991041011012501001001KA1240N+02411MA1999999101281MD1999999+0031REMSYN076AAXX  13124 83096 32695 40905 10281 20236 30128 40135 84100 333 20241 58003;EQDQ01  00002PRCP06
0167830960999992004121318004-10917-037050FM-12+000699999V0200901N003112200019N0020001N1+02891+02371101201ADDAA106000091GF101991011011012501001001MA1999999101131MD1999999-0141REMSYN070AAXX  13184 83096 32695 10906 10289 20237 30113 40120 81100 333 59014;EQDQ01  00002PRCP06
0198830960999992004121400004-10917-037050FM-12+000699999V0200901N003112200019N0020001N1+02601+02331101441ADDAA106000091GF101991011051012501001001KA1240M+03041MA1999999101371MD1999999+0191REMSYN088AAXX  14004 83096 32695 10906 10260 20233 30137 40144 81500 333 10304 29080 55097 58019;EQDQ01  00002PRCP06
0186830960999992004121412004-10917-037050FM-12+000699999V0200901N002612200019N0020001N1+02851+02261101451ADDAA106000091GF103991031011012501001001KA1240N+02351MA1999999101381MD1999999+0101REMSYN076AAXX  14124 83096 32695 30905 10285 20226 30138 40145 83100 333 20235 58010;EQDQ01  00002PRCP06
0167830960999992004121418004-10917-037050FM-12+000699999V0200901N004112200019N0020001N1+02931+02171101271ADDAA106000091GF101991011011012501001001MA1999999101201MD1999999+0071REMSYN070AAXX  14184 83096 32695 10908 10293 20217 30120 40127 81100 333 58007;EQDQ01  00002PRCP06
0198830960999992004121500004-10917-037050FM-12+000699999V0200901N003112200019N0020001N1+02601+02391101401ADDAA106000091GF101991011051012501001001KA1240M+03061MA1999999101331MD1999999-0041REMSYN088AAXX  15004 83096 32695 10906 10260 20239 30133 40140 81500 333 10306 29078 55113 59004;EQDQ01  00002PRCP06
0186830960999992004121512004-10917-037050FM-12+000699999V0200901N003110120019N0020001N1+02811+02201101391ADDAA106000091GF105991051011012501001001KA1240N+02451MA1999999101321MD1999999-0061REMSYN076AAXX  15124 83096 32695 50906 10281 20220 30132 40139 85100 333 20245 59006;EQDQ01  00002PRCP06
0167830960999992004121518004-10917-037050FM-12+000699999V0200901N003612200019N0020001N1+02871+02141101231ADDAA106000091GF102991021011012501001001MA1999999101161MD1999999-0041REMSYN070AAXX  15184 83096 32695 20907 10287 20214 30116 40123 82100 333 59004;EQDQ01  00002PRCP06
0198830960999992004121600004-10917-037050FM-12+000699999V0200901N003112200019N0020001N1+02591+02311101261ADDAA106000091GF101991011051012501001001KA1240M+03071MA1999999101191MD1999999-0141REMSYN088AAXX  16004 83096 32695 10906 10259 20231 30119 40126 81500 333 10307 29076 55097 59014;EQDQ01  00002PRCP06
0186830960999992004121612004-10917-037050FM-12+000699999V0200901N002610120019N0020001N1+02731+02171101291ADDAA106000091GF106991061051012501031001KA1240N+02391MA1999999101221MD1999999-0101REMSYN076AAXX  16124 83096 32695 60905 10273 20217 30122 40129 86530 333 20239 59010;EQDQ01  00002PRCP06
0167830960999992004121618004-10917-037050FM-12+000699999V0200901N003112200019N0020001N1+02891+02101101171ADDAA106000091GF102991021011012501001001MA1999999101071MD1999999-0091REMSYN070AAXX  16184 83096 32695 20906 10289 20210 30107 40117 82100 333 59009;EQDQ01  00002PRCP06
0186830960999992004121712004-10917-037050FM-12+000699999V0200901N002612200019N0020001N1+02891+02131101271ADDAA106000091GF102991021011012501001001KA1240N+02371MA1999999101121MD1999999-0021REMSYN076AAXX  17124 83096 32695 20905 10289 20213 30112 40127 82100 333 20237 59002;EQDQ01  00002PRCP06
0167830960999992004121718004-10917-037050FM-12+000699999V0200901N003112200019N0020001N1+02891+02211101061ADDAA106000091GF102991021011012501001001MA1999999100991MD1999999-0081REMSYN070AAXX  17184 83096 32695 20906 10289 20221 30099 40106 82100 333 59008;EQDQ01  00002PRCP06
0198830960999992004121800004-10917-037050FM-12+000699999V0200901N003112200019N0020001N1+02621+02251101321ADDAA106000091GF101991011051012501001001KA1240M+03021MA1999999101251MD1999999+0061REMSYN088AAXX  18004 83096 32695 10906 10262 20225 30125 40132 81500 333 10302 29073 55113 58006;EQDQ01  00002PRCP06
0186830960999992004121812004-10917-037050FM-12+000699999V0200901N003112200019N0020001N1+02891+02131101311ADDAA106000091GF103991031011012501001001KA1240N+02371MA1999999101241MD1999999+0041REMSYN076AAXX  18124 83096 32695 30906 10289 20213 30124 40131 83100 333 20237 58004;EQDQ01  00002PRCP06
0167830960999992004121818004-10917-037050FM-12+000699999V0200901N003112200019N0020001N1+02891+02211101101ADDAA106000091GF102991021011012501001001MA1999999101031MD1999999+0041REMSYN070AAXX  18184 83096 32695 20906 10289 20221 30103 40110 82100 333 58004;EQDQ01  00002PRCP06
0198830960999992004121900004-10920-037050FM-12+000599999V0200901N002612200019N0020001N1+02631+02311101221ADDAA106000091GF102991021051012501001001KA1240M+03021MA1999999101151MD1999999-0101REMSYN088AAXX  19004 83096 32695 20905 10263 20231 30115 40122 82500 333 10302 29074 55108 59010;EQDQ01  00002PRCP06
0186830960999992004121912004-10920-037050FM-12+000599999V0200901N003112200019N0020001N1+02811+02341101471ADDAA106000091GF104991041011012501001001KA1240N+02451MA1999999101401MD1999999+0161REMSYN076AAXX  19124 83096 32695 40906 10281 20234 30140 40147 84100 333 20245 58016;EQDQ01  00002PRCP06
0167830960999992004121918004-10920-037050FM-12+000599999V0200901N003112200019N0020001N1+02841+02261101221ADDAA106000091GF103991031011012501001001MA1999999101151MD1999999+0121REMSYN070AAXX  19184 83096 32695 30906 10284 20226 30115 40122 83100 333 58012;EQDQ01  00002PRCP06
0198830960999992004122000004-10917-037050FM-12+000699999V0200901N002612200019N0020001N1+02651+02291101261ADDAA106000091GF102991021051012501001001KA1240M+03021MA1999999101191MD1999999+0041REMSYN088AAXX  20004 83096 32695 20905 10265 20229 30119 40126 82500 333 10302 29077 55107 58004;EQDQ01  00002PRCP06
0186830960999992004122012004-10917-037050FM-12+000699999V0200901N003112200019N0020001N1+02891+02391101431ADDAA106000091GF104991041011012501001001KA1240N+02451MA1999999101361MD1999999-0041REMSYN076AAXX  20124 83096 32695 40906 10289 20239 30136 40143 84100 333 20245 59004;EQDQ01  00002PRCP06
0167830960999992004122018004-10917-037050FM-12+000699999V0200901N005712200019N0020001N1+02891+02411101231ADDAA106000091GF101991011011012501001001MA1999999101161MD1999999+0011REMSYN070AAXX  20184 83096 32695 10911 10289 20241 30116 40123 81100 333 58001;EQDQ01  00002PRCP06
0198830960999992004122100004-10917-037050FM-12+000699999V0200901N004112200019N0020001N1+02651+02371101301ADDAA106000091GF101991011051012501001001KA1240M+03071MA1999999101231MD1999999+0041REMSYN088AAXX  21004 83096 32695 10908 10265 20237 30123 40130 81500 333 10307 29079 55110 58004;EQDQ01  00002PRCP06
0186830960999992004122112004-10917-037050FM-12+000699999V0200901N002612200019N0020001N1+02891+02251101271ADDAA106000091GF102991021011012501001001KA1240N+02351MA1999999101201MD1999999-0161REMSYN076AAXX  21124 83096 32695 20905 10289 20225 30120 40127 82100 333 20235 59016;EQDQ01  00002PRCP06
0167830960999992004122118004-10917-037050FM-12+000699999V0200901N005712200019N0020001N1+02881+02321101081ADDAA106000091GF101991011011012501001001MA1999999101011MD1999999-0151REMSYN070AAXX  21184 83096 32695 10911 10288 20232 30101 40108 81100 333 59015;EQDQ01  00002PRCP06
0198830960999992004122200004-10917-037050FM-12+000699999V0200901N003612200019N0020001N1+02601+02351101201ADDAA106000091GF101991011051012501001001KA1240M+03061MA1999999101131MD1999999-0101REMSYN088AAXX  22004 83096 32695 10907 10260 20235 30113 40120 81500 333 10306 29078 55104 59010;EQDQ01  00002PRCP06
0186830960999992004122212004-10917-037050FM-12+000699999V0200901N002612200019N0020001N1+02871+02261101171ADDAA106000091GF104991041011012501001001KA1240N+02351MA1999999101101MD1999999-0101REMSYN076AAXX  22124 83096 32695 40905 10287 20226 30110 40117 84100 333 20235 59010;EQDQ01  00002PRCP06
0167830960999992004122218004-10917-037050FM-12+000699999V0200901N005712200019N0020001N1+02871+02301101001ADDAA106000091GF101991011011012501001001MA1999999100931MD1999999-0081REMSYN070AAXX  22184 83096 32695 10911 10287 20230 30093 40100 81100 333 59008;EQDQ01  00002PRCP06
0198830960999992004122300004-10917-037050FM-12+000699999V0200901N005112200019N0020001N1+02621+02311101181ADDAA106000091GF101991011051012501001001KA1240M+03061MA1999999101111MD1999999-0021REMSYN088AAXX  23004 83096 32695 10910 10262 20231 30111 40118 81500 333 10306 29076 55086 59002;EQDQ01  00002PRCP06
0186830960999992004122312004-10917-037050FM-12+000699999V0200901N003612200019N0020001N1+02851+02221101211ADDAA106000091GF101991011011012501001001KA1240N+02371MA1999999101141MD1999999+0041REMSYN076AAXX  23124 83096 32695 10907 10285 20222 30114 40121 81100 333 20237 58004;EQDQ01  00002PRCP06
0167830960999992004122318004-10917-037050FM-12+000699999V0200901N005112200019N0020001N1+02901+02221101001ADDAA106000091GF101991011011012501001001MA1999999100931MD1999999+0001REMSYN070AAXX  23184 83096 32695 10910 10290 20222 30093 40100 81100 333 58000;EQDQ01  00002PRCP06
0198830960999992004122400004-10917-037050FM-12+000699999V0200901N003112200019N0020001N1+02611+02271101141ADDAA106000091GF101991011051012501001001KA1240M+03061MA1999999101071MD1999999-0071REMSYN088AAXX  24004 83096 32695 10906 10261 20227 30107 40114 81500 333 10306 29074 55115 59007;EQDQ01  00002PRCP06
0186830960999992004122412004-10917-037050FM-12+000699999V0200901N002612200019N0020001N1+02901+02251101211ADDAA106000091GF102991021011012501001001KA1240N+02371MA1999999101141MD1999999+0001REMSYN076AAXX  24124 83096 32695 20905 10290 20225 30114 40121 82100 333 20237 58000;EQDQ01  00002PRCP06
0167830960999992004122418004-10917-037050FM-12+000699999V0200901N005712200019N0020001N1+02901+02321100901ADDAA106000091GF101991011011012501001001MA1999999100891MD1999999-0041REMSYN070AAXX  24184 83096 32695 10911 10290 20232 30089 40090 81100 333 59004;EQDQ01  00002PRCP06
0198830960999992004122500004-10917-037050FM-12+000699999V0200901N004112200019N0020001N1+02651+02351101221ADDAA106000091GF101991011051012501001001KA1240M+03071MA1999999101151MD1999999+0081REMSYN088AAXX  25004 83096 32695 10908 10265 20235 30115 40122 81500 333 10307 29076 55112 58008;EQDQ01  00002PRCP06
0186830960999992004122512004-10917-037050FM-12+000699999V0200901N004612200019N0020001N1+02921+02391101391ADDAA106000091GF101991011011012501001001KA1240N+02321MA1999999101321MD1999999+0181REMSYN076AAXX  25124 83096 32695 10909 10292 20239 30132 40139 81100 333 20232 58018;EQDQ01  00002PRCP06
0167830960999992004122518004-10917-037050FM-12+000699999V0200901N005112200019N0020001N1+02911+02361101201ADDAA106000091GF101991011011012501001001MA1999999101131MD1999999+0241REMSYN070AAXX  25184 83096 32695 10910 10291 20236 30113 40120 81100 333 58024;EQDQ01  00002PRCP06
0198830960999992004122600004-10920-037050FM-12+000599999V0200901N003112200019N0020001N1+02621+02371101301ADDAA106000091GF101991011051012501001001KA1240M+03101MA1999999101231MD1999999+0081REMSYN088AAXX  26004 83096 32695 10906 10262 20237 30123 40130 81500 333 10310 29079 55102 58008;EQDQ01  00002PRCP06
0186830960999992004122612004-10920-037050FM-12+000599999V0200901N004112200019N0020001N1+02891+02271101501ADDAA106000091GF101991011011012501001001KA1240N+02371MA1999999101431MD1999999+0111REMSYN076AAXX  26124 83096 32695 10908 10289 20227 30143 40150 81100 333 20237 58011;EQDQ01  00002PRCP06
0167830960999992004122618004-10920-037050FM-12+000599999V0200901N004112200019N0020001N1+02911+02241101231ADDAA106000091GF101991011011012501001001MA1999999101161MD1999999+0031REMSYN070AAXX  26184 83096 32695 10908 10291 20224 30116 40123 81100 333 58003;EQDQ01  00002PRCP06
0198830960999992004122700004-10920-037050FM-12+000599999V0200901N003112200019N0020001N1+02611+02181101161ADDAA106000091GF101991011051012501001001KA1240M+03041MA1999999101091MD1999999-0141REMSYN088AAXX  27004 83096 32695 10906 10261 20218 30109 40116 81500 333 10304 29075 55099 59014;EQDQ01  00002PRCP06
0186830960999992004122712004-10920-037050FM-12+000599999V0200901N002112200019N0020001N1+02871+02091101251ADDAA106000091GF104991041011012501001001KA1240N+02431MA1999999101181MD1999999-0251REMSYN076AAXX  27124 83096 32695 40904 10287 20209 30118 40125 84100 333 20243 59025;EQDQ01  00002PRCP06
0167830960999992004122718004-10920-037050FM-12+000599999V0200901N002612200019N0020001N1+02911+02101101041ADDAA106000091GF101991011011012501001001MA1999999100971MD1999999-0191REMSYN070AAXX  27184 83096 32695 10905 10291 20210 30097 40104 81100 333 59019;EQDQ01  00002PRCP06
0198830960999992004122800004-10917-037050FM-12+000699999V0200901N003112200019N0020001N1+02631+02211101101ADDAA106000091GF101991011051012501001001KA1240M+03021MA1999999101031MD1999999-0061REMSYN088AAXX  28004 83096 32695 10906 10263 20221 30103 40110 81500 333 10302 29070 55118 59006;EQDQ01  00002PRCP06
0186830960999992004122812004-10917-037050FM-12+000699999V0200901N002612200019N0020001N1+02761+02231101171ADDAA106000091GF102991021051012501001001KA1240N+02261MA1999999101101MD1999999-0081REMSYN076AAXX  28124 83096 32695 20905 10276 20223 30110 40117 82500 333 20226 59008;EQDQ01  00002PRCP06
0167830960999992004122818004-10917-037050FM-12+000699999V0200901N003112200019N0020001N1+02911+02321101051ADDAA106000091GF101991011011012501001001MA1999999100981MD1999999+0011REMSYN070AAXX  28184 83096 32695 10906 10291 20232 30098 40105 81100 333 58001;EQDQ01  00002PRCP06
0198830960999992004122900004-10917-037050FM-12+000699999V0200901N004112200019N0020001N1+02671+02311101251ADDAA106000091GF101991011051012501001001KA1240M+03071MA1999999101181MD1999999+0151REMSYN088AAXX  29004 83096 32695 10908 10267 20231 30118 40125 81500 333 10307 29076 55112 58015;EQDQ01  00002PRCP06
0186830960999992004122912004-10917-037050FM-12+000699999V0200901N003112200019N0020001N1+02831+02271101461ADDAA106000091GF104991041011012501001001KA1240N+02371MA1999999101391MD1999999+0291REMSYN076AAXX  29124 83096 32695 40906 10283 20227 30139 40146 84100 333 20237 58029;EQDQ01  00002PRCP06
0167830960999992004122918004-10917-037050FM-12+000699999V0200901N002612200019N0020001N1+02971+02381101281ADDAA106000091GF102991021011012501001001MA1999999101211MD1999999+0231REMSYN070AAXX  29184 83096 32695 20905 10297 20238 30121 40128 82100 333 58023;EQDQ01  00002PRCP06
0198830960999992004123000004-10917-037050FM-12+000699999V0200901N004112200019N0020001N1+02691+02431101641ADDAA106000091GF101991011051012501001001KA1240M+03081MA1999999101571MD1999999+0391REMSYN088AAXX  30004 83096 32695 10908 10269 20243 30157 40164 81500 333 10308 29078 55093 58039;EQDQ01  00002PRCP06
0186830960999992004123012004-10917-037050FM-12+000699999V0200901N002612200019N0020001N1+02991+02201101471ADDAA106000091GF102991021011012501001001KA1240N+02331MA1999999101401MD1999999+0011REMSYN076AAXX  30124 83096 32695 20905 10299 20220 30140 40147 82100 333 20233 58001;EQDQ01  00002PRCP06
0167830960999992004123018004-10917-037050FM-12+000699999V0200901N002612200019N0020001N1+02951+02311101261ADDAA106000091GF101991011011012501001001MA1999999101191MD1999999-0021REMSYN070AAXX  30184 83096 32695 10905 10295 20231 30119 40126 81100 333 59002;EQDQ01  00002PRCP06
0198830960999992004123100004-10917-037050FM-12+000699999V0200901N004112200019N0020001N1+02681+02391101301ADDAA106000091GF101991011051012501001001KA1240M+03101MA1999999101231MD1999999-0341REMSYN088AAXX  31004 83096 32695 10908 10268 20239 30123 40130 81500 333 10310 29075 55101 59034;EQDQ01  00002PRCP06
0186830960999992004123112004-10917-037050FM-12+000699999V0200901N003112200019N0020001N1+02911+02301101371ADDAA106000091GF103991031011012501001001KA1240N+02401MA1999999101301MD1999999-0101REMSYN076AAXX  31124 83096 32695 30906 10291 20230 30130 40137 83100 333 20240 59010;EQDQ01  00002PRCP06
0167830960999992004123118004-10917-037050FM-12+000699999V0200901N004112200019N0020001N1+02971+02331101281ADDAA106000091GF101991011011012501001001MA1999999101211MD1999999+0021REMSYN070AAXX  31184 83096 32695 10908 10297 20233 30121 40128 81100 333 58002;EQDQ01  00002PRCP06
