0198831820999992004010100004-11300-041867FM-12+074799999V0200901N005712200019N0010001N1+02731+01661100911ADDAA106000091GF102991011001017501041011KA1240M+03501MA1999999092871MD1999999-0171REMSYN088AAXX  01004 83182 32794 20911 10273 20166 39287 40091 81041 333 10350 29053 55115 59017;EQDQ01  00002PRCP06
0186831820999992004010112004-11300-041867FM-12+074799999V0201401N002112200019N0100001N1+02701+01601101161ADDAA106000091GF108991011001017501041011KA1240N+01951MA1999999093101MD1999999+0041REMSYN076AAXX  01124 83182 32797 81404 10270 20160 39310 40116 81041 333 20195 58004;EQDQ01  00002PRCP06
0198831820999992004010200004-11300-041867FM-12+074799999V0201401N003110450019N0010001N1+02801+01781100831ADDAA106000091GF108991021051008001051011KA1240M+03421MA1999999092811MD1999999-0061REMSYN088AAXX  02004 83182 32594 81406 10280 20178 39281 40083 82551 333 10342 29053 55088 59006;EQDQ01  00002PRCP06
0172831820999992004020112004-11300-041867FM-12+074799999V0200901N004110075019N0100001N1+02431+01911999999ADDAA106000091GF108991081051008001999999KA1240N+02101MA1999999093001REMSYN076AAXX  01124 83182 32597 80908 10243 20191 39300 4//// 885// 333 20210 5////;EQDQ01  00002PRCP06
0184831820999992004020200004-11300-041867FM-12+074799999V0200901N002610150019N0010001N1+02261+01661101291ADDAA106000091GF108991051001017501041021KA1240M+02881MA1999999093101REMSYN088AAXX  02004 83182 32794 80905 10226 20166 39310 40129 85042 333 10288 29070 55/// 5////;EQDQ01  00002PRCP06
0186831820999992004020212004-11300-041867FM-12+074799999V0200901N003110075019N0100001N1+02521+01691101271ADDAA106000091GF108991051021008001001021KA1240N+01871MA1999999093101MD1999999-0201REMSYN076AAXX  02124 83182 32597 80906 10252 20169 39310 40127 85202 333 20187 59020;EQDQ01  00002PRCP06
0198831820999992004020300004-11300-041867FM-12+074799999V0200901N003110450019N0010001N1+02361+01801101161ADDAA106000091GF108991011051008001031021KA1240M+02961MA1999999093011MD1999999-0091REMSYN088AAXX  03004 83182 32594 80906 10236 20180 39301 40116 81532 333 10296 29067 55102 59009;EQDQ01  00002PRCP06
0186831820999992004020312004-11300-041867FM-12+074799999V0200901N005712200019N0100001N1+02521+01731101251ADDAA106000091GF108991041021008001001011KA1240N+01831MA1999999093101MD1999999+0001REMSYN076AAXX  03124 83182 32597 80911 10252 20173 39310 40125 84201 333 20183 58000;EQDQ01  00002PRCP06
0198831820999992004020400004-11300-041867FM-12+074799999V0201401N003610450019N0010001N1+02411+01731101081ADDAA106000091GF108991011051008001021999KA1240M+02981MA1999999092941MD1999999-0101REMSYN088AAXX  04004 83182 32594 81407 10241 20173 39294 40108 8152/ 333 10298 29065 55080 59010;EQDQ01  00002PRCP06
0186831820999992004020412004-11300-041867FM-12+074799999V0201401N002610450019N0100001N1+02441+01811101331ADDAA106000091GF108991021021008001051011KA1240N+01871MA1999999093171MD1999999+0071REMSYN076AAXX  04124 83182 32597 81405 10244 20181 39317 40133 82251 333 20187 58007;EQDQ01  00002PRCP06
0214831820999992004020500004-11300-041867FM-12+074799999V0201401N003112200019N0010001N1+02341+01741101111ADDAA106000091GF102991999051008001001001KA1240M+03041MA1999999092951MD1999999+0011REMSYN088AAXX  05004 83182 32594 21406 10234 20174 39295 40111 81500 333 10304 29069 55069 58001;EQDQ01+000012SCOTLCQ02  00002PRCP06
0186831820999992004020512004-11300-041867FM-12+074799999V0201401N004112200019N0100001N1+02511+01701101241ADDAA106000091GF103991031021008001001001KA1240N+01771MA1999999093071MD1999999-0101REMSYN076AAXX  05124 83182 32597 31408 10251 20170 39307 40124 83200 333 20177 59010;EQDQ01  00002PRCP06
0198831820999992004020600004-11300-041867FM-12+074799999V0201401N004612200019N0010001N1+02521+01811100931ADDAA106000091GF102991011021008001041001KA1240M+03121MA1999999092821MD1999999-0131REMSYN088AAXX  06004 83182 32594 21409 10252 20181 39282 40093 81240 333 10312 29064 55116 59013;EQDQ01  00002PRCP06
0202831820999992004020612004-11300-041867FM-12+074799999V0201401N003112200019N0100001N1+02611+01871101021ADDAA106000091GF104991999021008001001001KA1240N+01701MA1999999092921MD1999999-0151REMSYN076AAXX  06124 83182 32597 41406 10261 20187 39292 40102 83200 333 20170 59015;EQDQ01+000032SCOTLCQ02  00002PRCP06
0202831820999992004020700004-11300-041867FM-12+074799999V0203601N002110042019N0010001N1+02131+02011100961ADDAY161061AY221061GF108991061071004501021999KA1240M+03081MA1999999092801MD1999999-0021MW1021REMSYN100AAXX  07004 83182 21494 83604 10213 20201 39280 40096 70262 8672/ 333 10308 29083 55086 59002 60681;
0190831820999992004020712004-11300-041867FM-12+074799999V0203201N001510075019N0100001N1+02461+02091101061ADDAY161061AY261061GF107991061031008001051001KA1240N+01891MA1999999092871MD1999999-0051MW1031REMSYN088AAXX  07124 83182 21597 73203 10246 20209 39287 40106 70366 86350 333 20189 59005 60744;
0202831820999992004020800004-11300-041867FM-12+074799999V0200901N000510450019N0010001N1+02231+01971101131ADDAY161061AY221061GF108991021051008001061011KA1240M+02781MA1999999092951MD1999999+0151MW1021REMSYN100AAXX  08004 83182 21594 80901 10223 20197 39295 40113 70262 82561 333 10278 29083 55055 58015 60021;
0162831820999992004020812004-11300-041867FM-12+074799999V0203601N001010075019N0100001N1+02481+01961101291ADDGF108991061031008001051011KA1240N+01891MA1999999093101MD1999999+0231REMSYN082AAXX  08124 83182 22597 83602 10248 20196 39310 40129 86351 333 20189 58023 60024;
0202831820999992004020900004-11300-041867FM-12+074799999V0201401N001010042019N0010001N1+02031+01951101351ADDAY161061AY261061GF108991061071004501021999KA1240M+02721MA1999999093141MD1999999+0191MW1021REMSYN100AAXX  09004 83182 21494 81402 10203 20195 39314 40135 70266 8672/ 333 10272 29088 55045 58019 60591;
0162831820999992004020912004-11300-041867FM-12+074799999V0200901N003110450019N0100001N1+02431+02001101431ADDGF108991041021008001031011KA1240N+01821MA1999999093191MD1999999+0091REMSYN082AAXX  09124 83182 22597 80906 10243 20200 39319 40143 84231 333 20182 58009 60594;
0202831820999992004021000004-11300-041867FM-12+074799999V0200901N001510042019N0010001N1+02171+02001101301ADDAY161061AY261061GF108991061071004501021999KA1240M+02741MA1999999093091MD1999999-0051MW1021REMSYN100AAXX  10004 83182 21494 80903 10217 20200 39309 40130 70266 8672/ 333 10274 29090 55039 59005 60081;
0162831820999992004021012004-11300-041867FM-12+074799999V0200901N006212200019N0100001N1+02411+01901101351ADDGF108991041021008001001011KA1240N+01921MA1999999093091MD1999999-0101REMSYN082AAXX  10124 83182 22597 80912 10241 20190 39309 40135 84201 333 20192 59010 60084;
0198831820999992004021100004-11300-041867FM-12+074799999V0201401N003119999999N0010001N1+02261+01881101381ADDAA106000091GF108991001001999999001011KA1240M+02901MA1999999093181MD1999999+0091REMSYN088AAXX  11004 83182 32994 81406 10226 20188 39318 40138 80001 333 10290 29077 55089 58009;EQDQ01  00002PRCP06
0186831820999992004021112004-11300-041867FM-12+074799999V0201401N003111050019N0100001N1+02311+01791101351ADDAA106000091GF108991021021008001001021KA1240N+01721MA1999999093141MD1999999+0051REMSYN076AAXX  11124 83182 32597 81406 10231 20179 39314 40135 82202 333 20172 58005;EQDQ01  00002PRCP06
0198831820999992004021200004-11300-041867FM-12+074799999V0201401N003112200019N0010001N1+02261+01881101271ADDAA106000091GF103991001001999999001011KA1240M+02941MA1999999093061MD1999999-0121REMSYN088AAXX  12004 83182 32994 31406 10226 20188 39306 40127 80001 333 10294 29077 55093 59012;EQDQ01  00002PRCP06
0186831820999992004021212004-11300-041867FM-12+074799999V0201401N005110075019N0100001N1+02411+01721101471ADDAA106000091GF105991051021008001001001KA1240N+01711MA1999999093261MD1999999+0121REMSYN076AAXX  12124 83182 32597 51410 10241 20172 39326 40147 85200 333 20171 58012;EQDQ01  00002PRCP06
0208831820999992004021300004-11300-041867FM-12+074799999V0200901N004112200019N0010001N1+02281+01731101381ADDAA106000091GA1001+999999999GF100991001001999999001001KA1240M+02921MA1999999093181MD1999999+0121REMSYN082AAXX  13004 83182 32994 00908 10228 20173 39318 40138 333 10292 29069 55114 58012;EQDQ01  00002PRCP06
0186831820999992004021312004-11300-041867FM-12+074799999V0200901N005110075019N0100001N1+02441+01641101501ADDAA106000091GF106991061021008001001001KA1240N+01701MA1999999093291MD1999999+0031REMSYN076AAXX  13124 83182 32597 60910 10244 20164 39329 40150 86200 333 20170 58003;EQDQ01  00002PRCP06
0208831820999992004021400004-11300-041867FM-12+074799999V0200901N003112200019N0010001N1+02241+01291101131ADDAA106000091GA1001+999999999GF100991001001999999001001KA1240M+02971MA1999999092951MD1999999-0231REMSYN082AAXX  14004 83182 32994 00906 10224 20129 39295 40113 333 10297 29057 55112 59023;EQDQ01  00002PRCP06
0186831820999992004021412004-11300-041867FM-12+074799999V0200901N004110075019N0100001N1+02411+01791101391ADDAA106000091GF106991051021008001001011KA1240N+01631MA1999999093191MD1999999-0101REMSYN076AAXX  14124 83182 32597 60908 10241 20179 39319 40139 85201 333 20163 59010;EQDQ01  00002PRCP06
0208831820999992004021500004-11300-041867FM-12+074799999V0200901N003112200019N0010001N1+02251+01661101141ADDAA106000091GA1001+999999999GF100991001001999999001001KA1240M+02941MA1999999092961MD1999999+0011REMSYN082AAXX  15004 83182 32994 00906 10225 20166 39296 40114 333 10294 29069 55111 58001;EQDQ01  00002PRCP06
0186831820999992004021512004-11300-041867FM-12+074799999V0200901N004612200019N0100001N1+02521+01771101301ADDAA106000091GF108991021021008001001011KA1240N+01701MA1999999093131MD1999999-0061REMSYN076AAXX  15124 83182 32597 80909 10252 20177 39313 40130 82201 333 20170 59006;EQDQ01  00002PRCP06
0198831820999992004021600004-11300-041867FM-12+074799999V0201801N002112200019N0010001N1+02481+01901101111ADDAA106000091GF108991021021008001001011KA1240M+03101MA1999999092981MD1999999+0021REMSYN088AAXX  16004 83182 32594 81804 10248 20190 39298 40111 82201 333 10310 29070 55097 58002;EQDQ01  00002PRCP06
0186831820999992004021612004-11300-041867FM-12+074799999V0200901N004110075019N0100001N1+02551+01981101261ADDAA106000091GF108991051021008001001011KA1240N+01931MA1999999093131MD1999999+0001REMSYN076AAXX  16124 83182 32597 80908 10255 20198 39313 40126 85201 333 20193 58000;EQDQ01  00002PRCP06
0202831820999992004021700004-11300-041867FM-12+074799999V0201401N001010042019N0010001N1+02311+02151101211ADDAY161061AY221061GF108991061071004501021999KA1240M+02971MA1999999093061MD1999999+0081MW1021REMSYN100AAXX  17004 83182 21494 81402 10231 20215 39306 40121 70262 8672/ 333 10297 29084 55070 58008 60051;
0190831820999992004021712004-11300-041867FM-12+074799999V0203201N002110042019N0100001N1+02171+02071101511ADDAY161061AY221061GF108991061071004501021999KA1240N+01941MA1999999093271MD1999999+0141MW1021REMSYN088AAXX  17124 83182 21497 83204 10217 20207 39327 40151 70262 8672/ 333 20194 58014 60054;
0198831820999992004021800004-11300-041867FM-12+074799999V0201801N001010450019N0010001N1+02241+02121101401ADDAA106000091GF108991041071004501021999KA1240M+02401MA1999999093151MD1999999+0091REMSYN088AAXX  18004 83182 32494 81802 10224 20212 39315 40140 8472/ 333 10240 29094 55000 58009;EQDQ01  00002PRCP06
0186831820999992004021812004-11300-041867FM-12+074799999V0201401N003610075019N0100001N1+02541+02041101361ADDAA106000091GF108991061021008001001011KA1240N+01871MA1999999093181MD1999999-0091REMSYN076AAXX  18124 83182 32597 81407 10254 20204 39318 40136 86201 333 20187 59009;EQDQ01  00002PRCP06
0162831820999992004021912004-11300-041867FM-12+074799999V0200501N005112200019N0100001N1+02501+01721101251ADDGF101991011011012501001001KA1240N+01801MA1999999093081MD1999999-0101REMSYN082AAXX  19124 83182 22697 10510 10250 20172 39308 40125 81100 333 20180 59010 60024;
0226831820999992004022000004-11300-041867FM-12+074799999V0201401N002612200019N0010001N1+02311+01801100931ADDAA106000091AY121061AY221061GF108991021001017501051011KA1240M+03021MA1999999092791MD1999999-0211MW1131REMSYN094AAXX  20004 83182 31794 81405 10231 20180 39279 40093 71322 82051 333 10302 29069 55101 59021;EQDQ01  00002PRCP06
0186831820999992004022012004-11300-041867FM-12+074799999V0200901N002610075019N0100001N1+02441+01811101251ADDAA106000091GF108991061021008001061011KA1240N+01791MA1999999093081MD1999999+0001REMSYN076AAXX  20124 83182 32597 80905 10244 20181 39308 40125 86261 333 20179 58000;EQDQ01  00002PRCP06
0226831820999992004022100004-11300-041867FM-12+074799999V0201401N000510450019N0010001N1+02441+01951101101ADDAA106000091AY121061AY221061GF107991041031008001021011KA1240M+03081MA1999999092961MD1999999+0171MW1131REMSYN094AAXX  21004 83182 31594 71401 10244 20195 39296 40110 71322 84321 333 10308 29072 55066 58017;EQDQ01  00002PRCP06
0186831820999992004022112004-11300-041867FM-12+074799999V0200901N003610075019N0100001N1+02461+01731101311ADDAA106000091GF106991061021008001001001KA1240N+01751MA1999999093151MD1999999+0071REMSYN076AAXX  21124 83182 32597 60907 10246 20173 39315 40131 86200 333 20175 58007;EQDQ01  00002PRCP06
0186831820999992004022212004-11300-041867FM-12+074799999V0200901N006210450019N0100001N1+02481+01731101371ADDAA106000091GF108991011021008001041011KA1240N+01751MA1999999093171MD1999999+0021REMSYN076AAXX  22124 83182 32597 80912 10248 20173 39317 40137 81241 333 20175 58002;EQDQ01  00002PRCP06
0186831820999992004022312004-11300-041867FM-12+074799999V0200901N003610075019N0100001N1+02501+01771101351ADDAA106000091GF107991071021008001001001KA1240N+01741MA1999999093171MD1999999+0001REMSYN076AAXX  23124 83182 32597 70907 10250 20177 39317 40135 87200 333 20174 58000;EQDQ01  00002PRCP06
0186831820999992004022412004-11300-041867FM-12+074799999V0201401N002110075019N0100001N1+02601+01741101311ADDAA106000091GF108991061021008001001011KA1240N+01681MA1999999093151MD1999999-0021REMSYN076AAXX  24124 83182 32597 81404 10260 20174 39315 40131 86201 333 20168 59002;EQDQ01  00002PRCP06
0186831820999992004022512004-11300-041867FM-12+074799999V0200901N001010450019N0100001N1+02441+01861101371ADDAA106000091GF108991011021008001061021KA1240N+01821MA1999999093151MD1999999+0001REMSYN076AAXX  25124 83182 32597 80902 10244 20186 39315 40137 81262 333 20182 58000;EQDQ01  00002PRCP06
0198831820999992004022600004-11300-041867FM-12+074799999V0200901N003110450019N0010001N1+02361+01761101211ADDAA106000091GF108991021051008001051021KA1240M+02901MA1999999093051MD1999999+0071REMSYN088AAXX  26004 83182 32594 80906 10236 20176 39305 40121 82552 333 10290 29035 55035 58007;EQDQ01  00002PRCP06
0198831820999992004022700004-11300-041867FM-12+074799999V0201401N002611050019N0010001N1+02281+01701101381ADDAA106000091GF108991021001017501041021KA1240M+03031MA1999999093181MD1999999+0131REMSYN088AAXX  27004 83182 32794 81405 10228 20170 39318 40138 82042 333 10303 29069 55089 58013;EQDQ01  00002PRCP06
0186831820999992004022712004-11300-041867FM-12+074799999V0201401N001512200019N0100001N1+02501+01841101381ADDAA106000091GF108991021021008001001011KA1240N+01721MA1999999093201MD1999999-0061REMSYN076AAXX  27124 83182 32597 81403 10250 20184 39320 40138 82201 333 20172 59006;EQDQ01  00002PRCP06
0198831820999992004022800004-11300-041867FM-12+074799999V0201401N001510075019N0010001N1+02531+01891101111ADDAA106000091GF108991051031008001061011KA1240M+03121MA1999999092981MD1999999-0201REMSYN088AAXX  28004 83182 32594 81403 10253 20189 39298 40111 85361 333 10312 29068 55109 59020;EQDQ01  00002PRCP06
0190831820999992004022812004-11300-041867FM-12+074799999V0203601N002610075019N0040001N1+02481+01961101091ADDAY121061AY221061GF108991051031008001021999KA1240N+01871MA1999999092961MD1999999-0241MW1151REMSYN088AAXX  28124 83182 21596 83605 10248 20196 39296 40109 71522 8532/ 333 20187 59024 60044;
0202831820999992004022900004-11300-041867FM-12+074799999V0203201N001010042019N0010001N1+02251+02151101031ADDAY161061AY221061GF108991061071004501021999KA1240M+02871MA1999999092861MD1999999-0121MW1021REMSYN100AAXX  29004 83182 21494 83202 10225 20215 39286 40103 70262 8672/ 333 10287 29087 55045 59012 60021;
0190831820999992004022912004-11300-041867FM-12+074799999V0200501N002610042019N0100001N1+02341+02001101391ADDAY161061AY261061GF108991051071004501021999KA1240N+01861MA1999999093171MD1999999+0211MW1021REMSYN088AAXX  29124 83182 21497 80505 10234 20200 39317 40139 70266 8572/ 333 20186 58021 60124;
0198831820999992004030100004-11300-041867FM-12+074799999V0200501N002110450019N0010001N1+02241+02031101211ADDAA106000091GF108991011051008001061021KA1240M+02781MA1999999093011MD1999999+0151REMSYN088AAXX  01004 83182 32594 80504 10224 20203 39301 40121 81562 333 10278 29086 55050 58015;EQDQ01  00002PRCP06
0186831820999992004030112004-11300-041867FM-12+074799999V0200901N002110450019N0100001N1+02701+01831101221ADDAA106000091GF108991021021008001041011KA1240N+01871MA1999999093071MD1999999-0101REMSYN076AAXX  01124 83182 32597 80904 10270 20183 39307 40122 82241 333 20187 59010;EQDQ01  00002PRCP06
0198831820999992004030200004-11300-041867FM-12+074799999V0201401N002610150019N0010001N1+02331+02041101221ADDAA106000091GF108991061001017501051011KA1240M+03021MA1999999093091MD1999999+0081REMSYN088AAXX  02004 83182 32794 81405 10233 20204 39309 40122 86051 333 10302 29076 55061 58008;EQDQ01  00002PRCP06
0186831820999992004030212004-11300-041867FM-12+074799999V0200901N003612200019N0100001N1+02561+01751101251ADDAA106000091GF108991041021008001001011KA1240N+01901MA1999999093101MD1999999+0031REMSYN076AAXX  02124 83182 32597 80907 10256 20175 39310 40125 84201 333 20190 58003;EQDQ01  00002PRCP06
0198831820999992004030300004-11300-041867FM-12+074799999V0200901N002112200019N0010001N1+02341+01981101121ADDAA106000091GF108991011001017501041011KA1240M+02921MA1999999092981MD1999999-0111REMSYN088AAXX  03004 83182 32794 80904 10234 20198 39298 40112 81041 333 10292 29074 55079 59011;EQDQ01  00002PRCP06
0186831820999992004030312004-11300-041867FM-12+074799999V0201401N002110450019N0100001N1+02311+01841101371ADDAA106000091GF108991031051008001021999KA1240N+01841MA1999999093171MD1999999+0071REMSYN076AAXX  03124 83182 32597 81404 10231 20184 39317 40137 8352/ 333 20184 58007;EQDQ01  00002PRCP06
0198831820999992004030400004-11300-041867FM-12+074799999V0200901N001010075019N0010001N1+02401+01891101061ADDAA106000091GF108991071051008001001011KA1240M+02801MA1999999092891MD1999999-0081REMSYN088AAXX  04004 83182 32594 80902 10240 20189 39289 40106 87501 333 10280 29069 55025 59008;EQDQ01  00002PRCP06
0186831820999992004030412004-11300-041867FM-12+074799999V0200901N004112200019N0100001N1+02611+01801101291ADDAA106000091GF108991031021008001001011KA1240N+01681MA1999999093151MD1999999-0021REMSYN076AAXX  04124 83182 32597 80908 10261 20180 39315 40129 83201 333 20168 59002;EQDQ01  00002PRCP06
0198831820999992004030500004-11300-041867FM-12+074799999V0200901N003119999999N0010001N1+02331+01901101131ADDAA106000091GF108991001001999999001011KA1240M+03041MA1999999092991MD1999999+0101REMSYN088AAXX  05004 83182 32994 80906 10233 20190 39299 40113 80001 333 10304 29072 55100 58010;EQDQ01  00002PRCP06
0186831820999992004030512004-11300-041867FM-12+074799999V0200901N006712200019N0100001N1+02501+01621101391ADDAA106000091GF102991011021008001001011KA1240N+01751MA1999999093211MD1999999+0061REMSYN076AAXX  05124 83182 32597 20913 10250 20162 39321 40139 81201 333 20175 58006;EQDQ01  00002PRCP06
0214831820999992004030600004-11300-041867FM-12+074799999V0201401N002619999999N0010001N1+02061+01661101381ADDAA106000091GF108991999041017501051011KA1240M+02901MA1999999093161MD1999999+0171REMSYN088AAXX  06004 83182 32794 81405 10206 20166 39316 40138 80451 333 10290 29071 55110 58017;EQDQ01+000002SCOTLCQ02  00002PRCP06
0186831820999992004030612004-11300-041867FM-12+074799999V0201401N005110075019N0100001N1+02461+01711101431ADDAA106000091GF108991051021008001001011KA1240N+01801MA1999999093191MD1999999-0021REMSYN076AAXX  06124 83182 32597 81410 10246 20171 39319 40143 85201 333 20180 59002;EQDQ01  00002PRCP06
0208831820999992004030700004-11300-041867FM-12+074799999V0201401N002612200019N0010001N1+02251+01801101301ADDAA106000091GA1001+999999999GF100991001001999999001001KA1240M+02961MA1999999093111MD1999999-0051REMSYN082AAXX  07004 83182 32994 01405 10225 20180 39311 40130 333 10296 29072 55108 59005;EQDQ01  00002PRCP06
0186831820999992004030712004-11300-041867FM-12+074799999V0201401N005110075019N0100001N1+02431+01851101411ADDAA106000091GF107991071051008001001001KA1240N+01771MA1999999093211MD1999999+0021REMSYN076AAXX  07124 83182 32597 71410 10243 20185 39321 40141 87500 333 20177 58002;EQDQ01  00002PRCP06
0198831820999992004030800004-11300-041867FM-12+074799999V0201801N005110450019N0010001N1+02241+01731101431ADDAA106000091GF108991011051008001041011KA1240M+03041MA1999999093231MD1999999+0121REMSYN088AAXX  08004 83182 32594 81810 10224 20173 39323 40143 81541 333 10304 29072 55103 58012;EQDQ01  00002PRCP06
0186831820999992004030812004-11300-041867FM-12+074799999V0201401N005710075019N0100001N1+02461+01631101321ADDAA106000091GF105991051021008001001001KA1240N+01641MA1999999093201MD1999999-0011REMSYN076AAXX  08124 83182 32597 51411 10246 20163 39320 40132 85200 333 20164 59001;EQDQ01  00002PRCP06
0198831820999992004030900004-11300-041867FM-12+074799999V0201401N002610150019N0010001N1+02091+01751101431ADDAA106000091GF108991051001017501051011KA1240M+02801MA1999999093211MD1999999-0021REMSYN088AAXX  09004 83182 32794 81405 10209 20175 39321 40143 85051 333 10280 29074 55098 59002;EQDQ01  00002PRCP06
0186831820999992004030912004-11300-041867FM-12+074799999V0201401N003612200019N0100001N1+02541+01711101581ADDAA106000091GF102991021021008001001001KA1240N+01621MA1999999093351MD1999999+0151REMSYN076AAXX  09124 83182 32597 21407 10254 20171 39335 40158 82200 333 20162 58015;EQDQ01  00002PRCP06
0198831820999992004031000004-11300-041867FM-12+074799999V0201401N003112200019N0010001N1+02301+01721101381ADDAA106000091GF108991011021008001001011KA1240M+03061MA1999999093201MD1999999-0011REMSYN088AAXX  10004 83182 32594 81406 10230 20172 39320 40138 81201 333 10306 29067 55103 59001;EQDQ01  00002PRCP06
0186831820999992004031012004-11300-041867FM-12+074799999V0201401N004610075019N0100001N1+02381+01711101581ADDAA106000091GF108991081051008001999999KA1240N+01771MA1999999093381MD1999999+0051REMSYN076AAXX  10124 83182 32597 81409 10238 20171 39338 40158 885// 333 20177 58005;EQDQ01  00002PRCP06
0198831820999992004031100004-11300-041867FM-12+074799999V02099999999992200019N0010001N1+02231+01721101351ADDAA106000091GF101991011001017501041001KA1240M+03061MA1999999093141MD1999999-0061REMSYN088AAXX  11004 83182 32794 109// 10223 20172 39314 40135 81040 333 10306 29070 55071 59006;EQDQ01  00002PRCP06
0186831820999992004031112004-11300-041867FM-12+074799999V0200901N003610075019N0100001N1+02561+01701101241ADDAA106000091GF107991071021008001001001KA1240N+01731MA1999999093071MD1999999-0311REMSYN076AAXX  11124 83182 32597 70907 10256 20170 39307 40124 87200 333 20173 59031;EQDQ01  00002PRCP06
0198831820999992004031200004-11300-041867FM-12+074799999V0200901N003110075019N0010001N1+02381+01991101031ADDAA106000091GF108991081051008001999999KA1240M+03061MA1999999092891MD1999999-0251REMSYN088AAXX  12004 83182 32594 80906 10238 20199 39289 40103 885// 333 10306 29067 55101 59025;EQDQ01  00002PRCP06
0186831820999992004031212004-11300-041867FM-12+074799999V0201401N001510450019N0100001N1+02661+01871101171ADDAA106000091GF108991011021008001041011KA1240N+02001MA1999999093041MD1999999-0031REMSYN076AAXX  12124 83182 32597 81403 10266 20187 39304 40117 81241 333 20200 59003;EQDQ01  00002PRCP06
0202831820999992004031300004-11300-041867FM-12+074799999V0203601N002110075019N0010001N1+02301+02191101051ADDAY161061AY221061GF108991051031008001021999KA1240M+03241MA1999999092921MD1999999+0031MW1131REMSYN100AAXX  13004 83182 21594 83604 10230 20219 39292 40105 71362 8532/ 333 10324 29080 55080 58003 60161;
0162831820999992004031312004-11300-041867FM-12+074799999V0201401N002610075019N0100001N1+02561+01971101211ADDGF108991061021008001051011KA1240N+02001MA1999999093101MD1999999+0061REMSYN082AAXX  13124 83182 22597 81405 10256 20197 39310 40121 86251 333 20200 58006 60124;
0208831820999992004031400004-11300-041867FM-12+074799999V0201401N002612200019N0010001N1+02321+01791101151ADDAA106000091GA1001+999999999GF100991001001999999001001KA1240M+03031MA1999999093011MD1999999+0091REMSYN082AAXX  14004 83182 32994 01405 10232 20179 39301 40115 333 10303 29072 55058 58009;EQDQ01  00002PRCP06
0186831820999992004031412004-11300-041867FM-12+074799999V0201401N003610075019N0100001N1+02571+01791101271ADDAA106000091GF108991061021008001001011KA1240N+01801MA1999999093121MD1999999+0021REMSYN076AAXX  14124 83182 32597 81407 10257 20179 39312 40127 86201 333 20180 58002;EQDQ01  00002PRCP06
0202831820999992004031500004-11300-041867FM-12+074799999V0201401N001010075019N0010001N1+02291+02131101291ADDAY121061AY221061GF108991061031008001021999KA1240M+03161MA1999999093141MD1999999+0131MW1611REMSYN100AAXX  15004 83182 21594 81402 10229 20213 39314 40129 76122 8632/ 333 10316 29078 55085 58013 60051;
0162831820999992004031512004-11300-041867FM-12+074799999V0201401N004110075019N0100001N1+02551+01921101211ADDGF108991051021008001061011KA1240N+01871MA1999999093051MD1999999-0071REMSYN082AAXX  15124 83182 22597 81408 10255 20192 39305 40121 85261 333 20187 59007 60054;
0214831820999992004031600004-11300-041867FM-12+074799999V0201401N001519999999N0010001N1+02321+01911101041ADDAA106000091GF108991999001017501011999KA1240M+03081MA1999999092901MD1999999-0241REMSYN088AAXX  16004 83182 32794 81403 10232 20191 39290 40104 8001/ 333 10308 29075 55094 59024;EQDQ01+000002SCOTLCQ02  00002PRCP06
0186831820999992004031612004-11300-041867FM-12+074799999V0200901N003110075019N0100001N1+02631+01591101081ADDAA106000091GF108991061021008001001011KA1240N+01801MA1999999092951MD1999999-0101REMSYN076AAXX  16124 83182 32597 80906 10263 20159 39295 40108 86201 333 20180 59010;EQDQ01  00002PRCP06
0226831820999992004031700004-11300-041867FM-12+074799999V0201801N003110075019N0010001N1+02261+02031100841ADDAA106000091AY121061AY221061GF108991051031008001021999KA1240M+03121MA1999999092791MD1999999-0111MW1131REMSYN094AAXX  17004 83182 31594 81806 10226 20203 39279 40084 71322 8532/ 333 10312 29076 55092 59011;EQDQ01  00002PRCP06
0186831820999992004031712004-11300-041867FM-12+074799999V0200501N003110075019N0100001N1+02601+01871101081ADDAA106000091GF108991061021008001001011KA1240N+01901MA1999999092941MD1999999-0011REMSYN076AAXX  17124 83182 32597 80506 10260 20187 39294 40108 86201 333 20190 59001;EQDQ01  00002PRCP06
0226831820999992004031800004-11300-041867FM-12+074799999V0201801N001510075019N0010001N1+02401+02091101111ADDAA106000091AY121061AY221061GF108991051031008001021999KA1240M+02951MA1999999092981MD1999999+0191MW1131REMSYN094AAXX  18004 83182 31594 81803 10240 20209 39298 40111 71322 8532/ 333 10295 29077 55044 58019;EQDQ01  00002PRCP06
0190831820999992004031812004-11300-041867FM-12+074799999V0201401N002110075019N0100001N1+02491+02061101051ADDAY161061AY261061GF108991051031008001061011KA1240N+02001MA1999999092911MD1999999-0031MW1021REMSYN088AAXX  18124 83182 21597 81404 10249 20206 39291 40105 70266 85361 333 20200 59003 60214;
0202831820999992004031900004-11300-041867FM-12+074799999V0201801N002610042019N0010001N1+02161+01991101131ADDAY161061AY261061GF108991061071004501021999KA1240M+02601MA1999999092951MD1999999-0031MW1021REMSYN100AAXX  19004 83182 21494 81805 10216 20199 39295 40113 70266 8672/ 333 10260 29086 55/// 59003 60281;
0190831820999992004031912004-11300-041867FM-12+074799999V0201401N002110042019N0100001N1+02291+02031101271ADDAY161061AY261061GF108991051071004501021999KA1240N+01871MA1999999093031MD1999999+0121MW1021REMSYN088AAXX  19124 83182 21497 81404 10229 20203 39303 40127 70266 8572/ 333 20187 58012 60354;
0202831820999992004032000004-11300-041867FM-12+074799999V0201801N002110042019N0010001N1+02121+02041101161ADDAY161061AY261061GF108991061071004501021999KA1240M+02681MA1999999092931MD1999999-0021MW1021REMSYN100AAXX  20004 83182 21494 81804 10212 20204 39293 40116 70266 8672/ 333 10268 29092 55012 59002 60031;
0162831820999992004032012004-11300-041867FM-12+074799999V0203201N001010042019N0020001N1+02181+02041101281ADDGF108991061071004501021999KA1240N+01901MA1999999093031MD1999999+0001REMSYN082AAXX  20124 83182 21495 83202 10218 20204 39303 40128 8672/ 333 20190 58000 60074;
0202831820999992004032100004-11300-041867FM-12+074799999V0201801N002110042019N0010001N1+02021+01921101251ADDAY161061AY221061GF108991061071004501021999KA1240M+02551MA1999999092981MD1999999+0051MW1021REMSYN100AAXX  21004 83182 21494 81804 10202 20192 39298 40125 70262 8672/ 333 10255 29094 55000 58005 60111;
0162831820999992004032112004-11300-041867FM-12+074799999V0201401N003110450019N0100001N1+02551+01941101091ADDGF108991011021008001041011KA1240N+01721MA1999999092901MD1999999-0131REMSYN082AAXX  21124 83182 22597 81406 10255 20194 39290 40109 81241 333 20172 59013 60114;
0186831820999992004032212004-11300-041867FM-12+074799999V0200901N003612200019N0100001N1+02631+01871101081ADDAA106000091GF104991021021008001041011KA1240N+01831MA1999999092941MD1999999+0041REMSYN076AAXX  22124 83182 32597 40907 10263 20187 39294 40108 82241 333 20183 58004;EQDQ01  00002PRCP06
0198831820999992004032300004-11300-041867FM-12+074799999V0201401N002612200019N0010001N1+02251+02011101091ADDAA106000091GF108991021001017501041011KA1240M+03041MA1999999092951MD1999999+0121REMSYN088AAXX  23004 83182 32794 81405 10225 20201 39295 40109 82041 333 10304 29079 55109 58012;EQDQ01  00002PRCP06
0186831820999992004032312004-11300-041867FM-12+074799999V0200901N005710075019N0100001N1+02451+01931101231ADDAA106000091GF108991081051008001999999KA1240N+01951MA1999999093051MD1999999+0111REMSYN076AAXX  23124 83182 32597 80911 10245 20193 39305 40123 885// 333 20195 58011;EQDQ01  00002PRCP06
0202831820999992004032400004-11300-041867FM-12+074799999V0201801N001010042019N0010001N1+02181+02111101171ADDAY161061AY221061GF108991061071004501021999KA1240M+02631MA1999999092971MD1999999+0021MW1611REMSYN100AAXX  24004 83182 21494 81802 10218 20211 39297 40117 76162 8672/ 333 10263 29088 55017 58002 60021;
0190831820999992004032412004-11300-041867FM-12+074799999V0201401N001510075019N0100001N1+02381+01871101321ADDAY161061AY221061GF108991081051008001999999KA1240N+01871MA1999999093111MD1999999+0061MW1021REMSYN088AAXX  24124 83182 21597 81403 10238 20187 39311 40132 70262 885// 333 20187 58006 60024;
0190831820999992004032512004-11300-041867FM-12+074799999V0201401N004110450019N0000001N1+02361+01851101231ADDAY161061AY221061GF108991021021008001041011KA1240N+01841MA1999999093011MD1999999-0101MW1031REMSYN088AAXX  25124 83182 21590 81408 10236 20185 39301 40123 70362 82241 333 20184 59010 60434;
0198831820999992004032600004-11300-041867FM-12+074799999V0201401N003110075019N0010001N1+02241+01821101171ADDAA106000091GF108991081051008001999999KA1240M+02761MA1999999092971MD1999999-0061REMSYN088AAXX  26004 83182 32594 81406 10224 20182 39297 40117 885// 333 10276 29076 55066 59006;EQDQ01  00002PRCP06
0190831820999992004032612004-11300-041867FM-12+074799999V0201401N004110450019N0100001N1+02421+01651101271ADDAY161061AY221061GF108991011021008001041011KA1240N+01771MA1999999093081MD1999999+0071MW1031REMSYN088AAXX  26124 83182 21597 81408 10242 20165 39308 40127 70362 81241 333 20177 58007 69944;
0198831820999992004032700004-11300-041867FM-12+074799999V0201401N003112200019N0010001N1+02101+01761101191ADDAA106000091GF108991021001017501041011KA1240M+02761MA1999999092971MD1999999+0001REMSYN088AAXX  27004 83182 32794 81406 10210 20176 39297 40119 82041 333 10276 29075 55083 58000;EQDQ01  00002PRCP06
0186831820999992004032712004-11300-041867FM-12+074799999V0201401N004610075019N0100001N1+02401+01821101231ADDAA106000091GF108991071021008001001011KA1240N+01671MA1999999093011MD1999999-0071REMSYN076AAXX  27124 83182 32597 81409 10240 20182 39301 40123 87201 333 20167 59007;EQDQ01  00002PRCP06
0198831820999992004032800004-11300-041867FM-12+074799999V0201401N003110150019N0010001N1+02231+01721101051ADDAA106000091GF108991061001017501041011KA1240M+02881MA1999999092861MD1999999-0111REMSYN088AAXX  28004 83182 32794 81406 10223 20172 39286 40105 86041 333 10288 29072 55090 59011;EQDQ01  00002PRCP06
0186831820999992004032812004-11300-041867FM-12+074799999V0201401N003610450019N0100001N1+02381+01871101301ADDAA106000091GF108991031021008001051011KA1240N+01741MA1999999093091MD1999999+0081REMSYN076AAXX  28124 83182 32597 81407 10238 20187 39309 40130 83251 333 20174 58008;EQDQ01  00002PRCP06
0198831820999992004032900004-11300-041867FM-12+074799999V0201401N003112200019N0010001N1+02131+01751101191ADDAA106000091GF108991041001017501031011KA1240M+02801MA1999999092971MD1999999+0111REMSYN088AAXX  29004 83182 32794 81406 10213 20175 39297 40119 84031 333 10280 29077 55041 58011;EQDQ01  00002PRCP06
0186831820999992004032912004-11300-041867FM-12+074799999V0201401N004112200019N0100001N1+02501+01671101471ADDAA106000091GF102991001001999999001011KA1240N+01601MA1999999093251MD1999999+0161REMSYN076AAXX  29124 83182 32997 21408 10250 20167 39325 40147 80001 333 20160 58016;EQDQ01  00002PRCP06
0198831820999992004033000004-11300-041867FM-12+074799999V0201401N003112200019N0010001N1+02141+01721101471ADDAA106000091GF106991011001017501031011KA1240M+02981MA1999999093221MD1999999+0251REMSYN088AAXX  30004 83182 32794 61406 10214 20172 39322 40147 81031 333 10298 29071 55109 58025;EQDQ01  00002PRCP06
0186831820999992004033012004-11300-041867FM-12+074799999V0201401N003612200019N0100001N1+02461+01631101561ADDAA106000091GF108991011001017501041011KA1240N+01521MA1999999093331MD1999999+0081REMSYN076AAXX  30124 83182 32797 81407 10246 20163 39333 40156 81041 333 20152 58008;EQDQ01  00002PRCP06
0198831820999992004033100004-11300-041867FM-12+074799999V0201401N003119999999N0010001N1+02181+01821101461ADDAA106000091GF108991001001999999001011KA1240M+03031MA1999999093241MD1999999+0021REMSYN088AAXX  31004 83182 32994 81406 10218 20182 39324 40146 80001 333 10303 29071 55105 58002;EQDQ01  00002PRCP06
0186831820999992004033112004-11300-041867FM-12+074799999V0201401N003610450019N0100001N1+02411+01651101561ADDAA106000091GF108991041021008001051011KA1240N+01651MA1999999093331MD1999999+0001REMSYN076AAXX  31124 83182 32597 81407 10241 20165 39333 40156 84251 333 20165 58000;EQDQ01  00002PRCP06
0198831820999992004040100004-11300-041867FM-12+074799999V0201401N002612200019N0100001N1+02221+01711101351ADDAA106000091GF108991041001017501051011KA1240M+02881MA1999999093141MD1999999-0101REMSYN088AAXX  01004 83182 32797 81405 10222 20171 39314 40135 84051 333 10288 29070 55066 59010;EQDQ01  00002PRCP06
0186831820999992004040112004-11300-041867FM-12+074799999V0201401N003110450019N0100001N1+02501+01841101521ADDAA106000091GF108991011021008001041011KA1240N+01781MA1999999093321MD1999999-0011REMSYN076AAXX  01124 83182 32597 81406 10250 20184 39332 40152 81241 333 20178 59001;EQDQ01  00002PRCP06
0208831820999992004040300004-11300-041867FM-12+074799999V0201401N003612200019N0010001N1+02181+01621101291ADDAA106000091GA1001+999999999GF100991001001999999001001KA1240M+03001MA1999999093081MD1999999-0071REMSYN082AAXX  03004 83182 32994 01407 10218 20162 39308 40129 333 10300 29073 55100 59007;EQDQ01  00002PRCP06
0186831820999992004040512004-11300-041867FM-12+074799999V0201401N005712200019N0100001N1+02451+01771101511ADDAA106000091GF108991011011012501001011KA1240N+01541MA1999999093301MD1999999-0091REMSYN076AAXX  05124 83182 32697 81411 10245 20177 39330 40151 81101 333 20154 59009;EQDQ01  00002PRCP06
0186831820999992004040612004-11300-041867FM-12+074799999V0201401N003112200019N0100001N1+02501+01841101421ADDAA106000091GF108991011021008001001011KA1240N+01521MA1999999093201MD1999999-0101REMSYN076AAXX  06124 83182 32597 81406 10250 20184 39320 40142 81201 333 20152 59010;EQDQ01  00002PRCP06
0198831820999992004040700004-11300-041867FM-12+074799999V0200901N002610450019N0010001N1+02261+01751101141ADDAA106000091GF108991011021008001041011KA1240M+03101MA1999999092981MD1999999-0091REMSYN088AAXX  07004 83182 32594 80905 10226 20175 39298 40114 81241 333 10310 29071 55106 59009;EQDQ01  00002PRCP06
0186831820999992004040712004-11300-041867FM-12+074799999V0201401N003112200019N0100001N1+02561+01851101381ADDAA106000091GF106991041021008001001011KA1240N+01611MA1999999093201MD1999999+0001REMSYN076AAXX  07124 83182 32597 61406 10256 20185 39320 40138 84201 333 20161 58000;EQDQ01  00002PRCP06
0198831820999992004040800004-11300-041867FM-12+074799999V0201401N002112200019N0010001N1+02271+01761101141ADDAA106000091GF108991021001017501031011KA1240M+03141MA1999999092981MD1999999+0001REMSYN088AAXX  08004 83182 32794 81404 10227 20176 39298 40114 82031 333 10314 29070 55094 58000;EQDQ01  00002PRCP06
0186831820999992004040812004-11300-041867FM-12+074799999V0201401N002112200019N0100001N1+02611+01801101331ADDAA106000091GF108991011021008001001011KA1240N+01681MA1999999093171MD1999999-0031REMSYN076AAXX  08124 83182 32597 81404 10261 20180 39317 40133 81201 333 20168 59003;EQDQ01  00002PRCP06
0198831820999992004040900004-11300-041867FM-12+074799999V0201401N002612200019N0010001N1+02281+01731101221ADDAA106000091GF108991021001017501041011KA1240M+03161MA1999999093071MD1999999+0091REMSYN088AAXX  09004 83182 32794 81405 10228 20173 39307 40122 82041 333 10316 29068 55090 58009;EQDQ01  00002PRCP06
0186831820999992004040912004-11300-041867FM-12+074799999V0200901N001510075019N0100001N1+02631+01871101431ADDAA106000091GF106991061021008001001001KA1240N+01801MA1999999093261MD1999999+0091REMSYN076AAXX  09124 83182 32597 60903 10263 20187 39326 40143 86200 333 20180 58009;EQDQ01  00002PRCP06
0198831820999992004041000004-11300-041867FM-12+074799999V0201401N003112200019N0010001N1+02261+01791101101ADDAA106000091GF102991021051008001001001KA1240M+03201MA1999999092961MD1999999-0111REMSYN088AAXX  10004 83182 32594 21406 10226 20179 39296 40110 82500 333 10320 29071 55098 59011;EQDQ01  00002PRCP06
0186831820999992004041012004-11300-041867FM-12+074799999V0201401N003612200019N0100001N1+02531+01751101151ADDAA106000091GF105991021021008001001011KA1240N+01661MA1999999092991MD1999999-0271REMSYN076AAXX  10124 83182 32597 51407 10253 20175 39299 40115 82201 333 20166 59027;EQDQ01  00002PRCP06
0110831820999992004041100004-11300-041867FM-12+074799999V0201401N002619999999N0010001N1+02231+01721999999ADDAA106000091GF108991999999017501999999REMSYN042AAXX  11004 83182 32794 81405 10223 20172;EQDQ01  00002PRCP06
0208831820999992004041200004-11300-041867FM-12+074799999V0201401N003112200019N0010001N1+02261+01711100731ADDAA106000091GA1001+999999999GF100991001001999999001001KA1240M+03101MA1999999092621MD1999999-0131REMSYN082AAXX  12004 83182 32994 01406 10226 20171 39262 40073 333 10310 29067 55102 59013;EQDQ01  00002PRCP06
0186831820999992004041212004-11300-041867FM-12+074799999V0201401N003610075019N0100001N1+02591+01821101081ADDAA106000091GF106991061021008001001001KA1240N+01801MA1999999092931MD1999999+0161REMSYN076AAXX  12124 83182 32597 61407 10259 20182 39293 40108 86200 333 20180 58016;EQDQ01  00002PRCP06
0198831820999992004041300004-11300-041867FM-12+074799999V0201401N004119999999N0010001N1+02281+01771100961ADDAA106000091GF108991001001999999001011KA1240M+03101MA1999999092831MD1999999+0211REMSYN088AAXX  13004 83182 32994 81408 10228 20177 39283 40096 80001 333 10310 29070 55089 58021;EQDQ01  00002PRCP06
0186831820999992004041312004-11300-041867FM-12+074799999V0200901N005112200019N0100001N1+02701+01721101251ADDAA106000091GF108991011021008001001011KA1240N+01841MA1999999093121MD1999999+0191REMSYN076AAXX  13124 83182 32597 80910 10270 20172 39312 40125 81201 333 20184 58019;EQDQ01  00002PRCP06
0198831820999992004041400004-11300-041867FM-12+074799999V0201401N004119999999N0010001N1+02441+01691101151ADDAA106000091GF108991001001999999001011KA1240M+03121MA1999999093041MD1999999+0211REMSYN088AAXX  14004 83182 32994 81408 10244 20169 39304 40115 80001 333 10312 29060 55085 58021;EQDQ01  00002PRCP06
0186831820999992004041412004-11300-041867FM-12+074799999V0201401N004110075019N0100001N1+02481+01901101321ADDAA106000091GF106991061021008001001001KA1240N+01881MA1999999093161MD1999999+0041REMSYN076AAXX  14124 83182 32597 61408 10248 20190 39316 40132 86200 333 20188 58004;EQDQ01  00002PRCP06
0198831820999992004041500004-11300-041867FM-12+074799999V0201401N003612200019N0010001N1+02341+01761101191ADDAA106000091GF108991011021008001001011KA1240M+03081MA1999999093031MD1999999-0011REMSYN088AAXX  15004 83182 32594 81407 10234 20176 39303 40119 81201 333 10308 29070 55092 59001;EQDQ01  00002PRCP06
0186831820999992004041512004-11300-041867FM-12+074799999V0201401N003612200019N0100001N1+02521+01771101281ADDAA106000091GF102991011011012501001011KA1240N+01661MA1999999093131MD1999999-0031REMSYN076AAXX  15124 83182 32697 21407 10252 20177 39313 40128 81101 333 20166 59003;EQDQ01  00002PRCP06
0198831820999992004041600004-11300-041867FM-12+074799999V0201401N004110075019N0010001N1+02221+01991101221ADDAA106000091GF108991081051008001999999KA1240M+03061MA1999999093041MD1999999+0011REMSYN088AAXX  16004 83182 32594 81408 10222 20199 39304 40122 885// 333 10306 29079 55103 58001;EQDQ01  00002PRCP06
0186831820999992004041612004-11300-041867FM-12+074799999V0201401N003110075019N0100001N1+02441+01741101501ADDAA106000091GF108991081051008001999999KA1240N+01741MA1999999093291MD1999999+0161REMSYN076AAXX  16124 83182 32597 81406 10244 20174 39329 40150 885// 333 20174 58016;EQDQ01  00002PRCP06
0198831820999992004041700004-11300-041867FM-12+074799999V0201401N003612200019N0010001N1+02201+01761101351ADDAA106000091GF108991021051008001001011KA1240M+03001MA1999999093141MD1999999+0101REMSYN088AAXX  17004 83182 32594 81407 10220 20176 39314 40135 82501 333 10300 29072 55090 58010;EQDQ01  00002PRCP06
0186831820999992004041712004-11300-041867FM-12+074799999V0201401N005110075019N0100001N1+02501+01901101591ADDAA106000091GF108991071051008001001011KA1240N+01751MA1999999093371MD1999999+0081REMSYN076AAXX  17124 83182 32597 81410 10250 20190 39337 40159 87501 333 20175 58008;EQDQ01  00002PRCP06
0198831820999992004041800004-11300-041867FM-12+074799999V0201401N003612200019N0010001N1+02261+01881101381ADDAA106000091GF108991021051008001001011KA1240M+03061MA1999999093201MD1999999+0061REMSYN088AAXX  18004 83182 32594 81407 10226 20188 39320 40138 82501 333 10306 29076 55067 58006;EQDQ01  00002PRCP06
0186831820999992004041812004-11300-041867FM-12+074799999V0201401N005710075019N0100001N1+02531+01851101621ADDAA106000091GF108991061021008001041011KA1240N+01681MA1999999093421MD1999999+0051REMSYN076AAXX  18124 83182 32597 81411 10253 20185 39342 40162 86241 333 20168 58005;EQDQ01  00002PRCP06
0208831820999992004041900004-11300-041867FM-12+074799999V0201401N002612200019N0010001N1+02171+01731101351ADDAA106000091GA1001+999999999GF100991001001999999001001KA1240M+03021MA1999999093151MD1999999-0051REMSYN082AAXX  19004 83182 32994 01405 10217 20173 39315 40135 333 10302 29073 55084 59005;EQDQ01  00002PRCP06
0186831820999992004041912004-11300-041867FM-12+074799999V0201401N004610075019N0100001N1+02581+01741101431ADDAA106000091GF106991051021008001041001KA1240N+01631MA1999999093281MD1999999-0141REMSYN076AAXX  19124 83182 32597 61409 10258 20174 39328 40143 85240 333 20163 59014;EQDQ01  00002PRCP06
0208831820999992004042000004-11300-041867FM-12+074799999V0200901N002112200019N0010001N1+02201+01721101121ADDAA106000091GA1001+999999999GF100991001001999999001001KA1240M+03061MA1999999092961MD1999999-0191REMSYN082AAXX  20004 83182 32994 00904 10220 20172 39296 40112 333 10306 29069 55104 59019;EQDQ01  00002PRCP06
0186831820999992004042012004-11300-041867FM-12+074799999V0201401N003112200019N0100001N1+02531+01801101411ADDAA106000091GF106991031021008001001011KA1240N+01701MA1999999093211MD1999999-0071REMSYN076AAXX  20124 83182 32597 61406 10253 20180 39321 40141 83201 333 20170 59007;EQDQ01  00002PRCP06
0208831820999992004042100004-11300-041867FM-12+074799999V0201401N003112200019N0010001N1+02141+01721101191ADDAA106000091GA1001+999999999GF100991001001999999001001KA1240M+03021MA1999999093011MD1999999+0051REMSYN082AAXX  21004 83182 32994 01406 10214 20172 39301 40119 333 10302 29073 55086 58005;EQDQ01  00002PRCP06
0186831820999992004042112004-11300-041867FM-12+074799999V0201401N005112200019N0100001N1+02471+01631101501ADDAA106000091GF108991021021008001001011KA1240N+01621MA1999999093271MD1999999+0061REMSYN076AAXX  21124 83182 32597 81410 10247 20163 39327 40150 82201 333 20162 58006;EQDQ01  00002PRCP06
0208831820999992004042200004-11300-041867FM-12+074799999V0201401N002612200019N0010001N1+02151+01691101381ADDAA106000091GA1001+999999999GF100991001001999999001001KA1240M+03041MA1999999093161MD1999999+0051REMSYN082AAXX  22004 83182 32994 01405 10215 20169 39316 40138 333 10304 29070 55107 58005;EQDQ01  00002PRCP06
0186831820999992004042212004-11300-041867FM-12+074799999V0201401N004610075019N0100001N1+02421+01721101411ADDAA106000091GF105991051021008001001001KA1240N+01641MA1999999093191MD1999999-0081REMSYN076AAXX  22124 83182 32597 51409 10242 20172 39319 40141 85200 333 20164 59008;EQDQ01  00002PRCP06
0208831820999992004042300004-11300-041867FM-12+074799999V0201401N003112200019N0010001N1+02201+01881101351ADDAA106000091GA1001+999999999GF100991001001999999001001KA1240M+02961MA1999999093141MD1999999-0021REMSYN082AAXX  23004 83182 32994 01406 10220 20188 39314 40135 333 10296 29076 55089 59002;EQDQ01  00002PRCP06
0186831820999992004042312004-11300-041867FM-12+074799999V0201801N036010075019N0100001N1+02401+01601101301ADDAA106000091GF107991071051008001001001KA1240N+01691MA1999999093091MD1999999-0101REMSYN076AAXX  23124 83182 32597 71870 10240 20160 39309 40130 87500 333 20169 59010;EQDQ01  00002PRCP06
0198831820999992004042400004-11300-041867FM-12+074799999V0201401N002619999999N0010001N1+02071+01831101001ADDAA106000091GF108991001001999999001011KA1240M+02801MA1999999092801MD1999999-0341REMSYN088AAXX  24004 83182 32994 81405 10207 20183 39280 40100 80001 333 10280 29078 55038 59034;EQDQ01  00002PRCP06
0186831820999992004042412004-11300-041867FM-12+074799999V0201401N003612200019N0100001N1+02601+01631101071ADDAA106000091GF108991011011012501001011KA1240N+01641MA1999999092901MD1999999-0191REMSYN076AAXX  24124 83182 32697 81407 10260 20163 39290 40107 81101 333 20164 59019;EQDQ01  00002PRCP06
0198831820999992004042500004-11300-041867FM-12+074799999V0201401N003119999999N0010001N1+02161+01781100941ADDAA106000091GF108991001001999999001011KA1240M+03081MA1999999092801MD1999999+0001REMSYN088AAXX  25004 83182 32994 81406 10216 20178 39280 40094 80001 333 10308 29071 55093 58000;EQDQ01  00002PRCP06
0186831820999992004042512004-11300-041867FM-12+074799999V0201401N002612200019N0100001N1+02601+01841101231ADDAA106000091GF108991011021008001001011KA1240N+01601MA1999999093061MD1999999+0161REMSYN076AAXX  25124 83182 32597 81405 10260 20184 39306 40123 81201 333 20160 58016;EQDQ01  00002PRCP06
0198831820999992004042600004-11300-041867FM-12+074799999V0201401N002112200019N0010001N1+02431+01791101121ADDAA106000091GF108991021051008001001011KA1240M+03241MA1999999092991MD1999999+0191REMSYN088AAXX  26004 83182 32594 81404 10243 20179 39299 40112 82501 333 10324 29066 55104 58019;EQDQ01  00002PRCP06
0186831820999992004042612004-11300-041867FM-12+074799999V0200901N001012200019N0100001N1+02701+01831101261ADDAA106000091GF108991011011012501001011KA1240N+01681MA1999999093141MD1999999+0081REMSYN076AAXX  26124 83182 32697 80902 10270 20183 39314 40126 81101 333 20168 58008;EQDQ01  00002PRCP06
0202831820999992004042700004-11300-041867FM-12+074799999V0200501N002110042019N0010001N1+02071+02001101401ADDAY161061AY221061GF108991061071004501021999KA1240M+03321MA1999999093221MD1999999+0231MW1211REMSYN100AAXX  27004 83182 21494 80504 10207 20200 39322 40140 72162 8672/ 333 10332 29087 55102 58023 60161;
0190831820999992004042712004-11300-041867FM-12+074799999V0201401N003110450019N0100001N1+02531+01851101541ADDAY161061AY221061GF108991041021004501041011KA1240N+01881MA1999999093311MD1999999+0171MW1021REMSYN088AAXX  27124 83182 21497 81406 10253 20185 39331 40154 70262 84241 333 20188 58017 60194;
0198831820999992004042800004-11300-041867FM-12+074799999V0201401N002110450019N0010001N1+02191+01841101451ADDAA106000091GF108991011021008001051011KA1240M+02981MA1999999093251MD1999999+0031REMSYN088AAXX  28004 83182 32594 81404 10219 20184 39325 40145 81251 333 10298 29076 55086 58003;EQDQ01  00002PRCP06
0186831820999992004042812004-11300-041867FM-12+074799999V0201401N002610075019N0100001N1+02421+01911101621ADDAA106000091GF108991061051008001001011KA1240N+01631MA1999999093391MD1999999+0081REMSYN076AAXX  28124 83182 32597 81405 10242 20191 39339 40162 86501 333 20163 58008;EQDQ01  00002PRCP06
0198831820999992004042900004-11300-041867FM-12+074799999V0201401N002612200019N0010001N1+02151+01911101501ADDAA106000091GF108991021001017501061011KA1240M+02841MA1999999093271MD1999999+0021REMSYN088AAXX  29004 83182 32794 81405 10215 20191 39327 40150 82061 333 10284 29082 55064 58002;EQDQ01  00002PRCP06
0186831820999992004042912004-11300-041867FM-12+074799999V0201401N005710075019N0100001N1+02271+01741101661ADDAA106000091GF107991071051008001001001KA1240N+01871MA1999999093391MD1999999+0001REMSYN076AAXX  29124 83182 32597 71411 10227 20174 39339 40166 87500 333 20187 58000;EQDQ01  00002PRCP06
0198831820999992004043000004-11300-041867FM-12+074799999V0201401N003112200019N0010001N1+02061+01861101471ADDAA106000091GF104991021051008001051001KA1240M+02601MA1999999093201MD1999999-0071REMSYN088AAXX  30004 83182 32594 41406 10206 20186 39320 40147 82550 333 10260 29080 55054 59007;EQDQ01  00002PRCP06
0202831820999992004043012004-11300-041867FM-12+074799999V0201401N004610075019N0100001N1+02341+01721101551ADDAA106000091GF108991081051008001999999KA1240N+01601MA1999999999999MD1999999-0101REMSYN076AAXX  30124 83182 32597 81409 10234 20172 39632 40155 885// 333 20160 59010;EQDQ01  00002PRCP06Q02 096323APOSP 
0208831820999992004050100004-11300-041867FM-12+074799999V0201401N002612200019N0010001N1+02001+01701101411ADDAA106000091GA1001+999999999GF100991001001999999001001KA1240M+02901MA1999999093171MD1999999-0031REMSYN082AAXX  01004 83182 32994 01405 10200 20170 39317 40141 333 10290 29078 55077 59003;EQDQ01  00002PRCP06
0186831820999992004050112004-11300-041867FM-12+074799999V0200901N005110075019N0100001N1+02401+01821101431ADDAA106000091GF107991071051008001001001KA1240N+01531MA1999999093181MD1999999-0111REMSYN076AAXX  01124 83182 32597 70910 10240 20182 39318 40143 87500 333 20153 59011;EQDQ01  00002PRCP06
0198831820999992004050200004-11300-041867FM-12+074799999V0200901N004110075019N0010001N1+02281+01831101311ADDAA106000091GF108991081051008001999999KA1240M+02881MA1999999093121MD1999999-0051REMSYN088AAXX  02004 83182 32594 80908 10228 20183 39312 40131 885// 333 10288 29074 55092 59005;EQDQ01  00002PRCP06
0186831820999992004050212004-11300-041867FM-12+074799999V0201401N004110075019N0100001N1+02481+01801101481ADDAA106000091GF107991071051008001001001KA1240N+01641MA1999999093291MD1999999+0111REMSYN076AAXX  02124 83182 32597 71408 10248 20180 39329 40148 87500 333 20164 58011;EQDQ01  00002PRCP06
0198831820999992004050300004-11300-041867FM-12+074799999V0201401N002610150019N0010001N1+02041+01581101451ADDAA106000091GF106991061001017501051001KA1240M+02881MA1999999093211MD1999999-0091REMSYN088AAXX  03004 83182 32794 61405 10204 20158 39321 40145 86050 333 10288 29072 55085 59009;EQDQ01  00002PRCP06
0186831820999992004050312004-11300-041867FM-12+074799999V0201401N005112200019N0100001N1+02461+01581101501ADDAA106000091GF104991041021008001001001KA1240N+01601MA1999999093261MD1999999-0031REMSYN076AAXX  03124 83182 32597 41410 10246 20158 39326 40150 84200 333 20160 59003;EQDQ01  00002PRCP06
0208831820999992004050400004-11300-041867FM-12+074799999V0201401N002112200019N0010001N1+02051+01731101481ADDAA106000091GA1001+999999999GF100991001001999999001001KA1240M+02961MA1999999093241MD1999999+0031REMSYN082AAXX  04004 83182 32994 01404 10205 20173 39324 40148 333 10296 29074 55069 58003;EQDQ01  00002PRCP06
0186831820999992004050412004-11300-041867FM-12+074799999V0201401N005110075019N0100001N1+02331+01841101491ADDAA106000091GF108991081051008001999999KA1240N+01701MA1999999093241MD1999999-0021REMSYN076AAXX  04124 83182 32597 81410 10233 20184 39324 40149 885// 333 20170 59002;EQDQ01  00002PRCP06
0198831820999992004050500004-11300-041867FM-12+074799999V0201401N003110075019N0100001N1+02141+01641101391ADDAA106000091GF107991071051008001001001KA1240M+02981MA1999999093151MD1999999-0091REMSYN088AAXX  05004 83182 32597 71406 10214 20164 39315 40139 87500 333 10298 29073 55069 59009;EQDQ01  00002PRCP06
0186831820999992004050512004-11300-041867FM-12+074799999V0201401N004112200019N0100001N1+02501+01721101521ADDAA106000091GF108991021021008001001011KA1240N+01621MA1999999093291MD1999999+0051REMSYN076AAXX  05124 83182 32597 81408 10250 20172 39329 40152 82201 333 20162 58005;EQDQ01  00002PRCP06
0198831820999992004050600004-11300-041867FM-12+074799999V02099999999990075019N0010001N1+02101+01891101411ADDAA106000091GF108991081051008001999999KA1240M+02701MA1999999093251MD1999999+0101REMSYN088AAXX  06004 83182 32594 814// 10210 20189 39325 40141 885// 333 10270 29080 55065 58010;EQDQ01  00002PRCP06
0186831820999992004050612004-11300-041867FM-12+074799999V02099999999990075019N0100001N1+02401+01731101651ADDAA106000091GF106991061051008001001001KA1240N+01631MA1999999093401MD1999999+0111REMSYN076AAXX  06124 83182 32597 614// 10240 20173 39340 40165 86500 333 20163 58011;EQDQ01  00002PRCP06
0208831820999992004050700004-11300-041867FM-12+074799999V0201401N001512200019N0010001N1+02181+01671101521ADDAA106000091GA1001+999999999GF100991001001999999001001KA1240M+03001MA1999999093291MD1999999+0041REMSYN082AAXX  07004 83182 32994 01403 10218 20167 39329 40152 333 10300 29071 55097 58004;EQDQ01  00002PRCP06
0186831820999992004050712004-11300-041867FM-12+074799999V0200901N006712200019N0100001N1+02541+01571101591ADDAA106000091GF104991021021008001001011KA1240N+01621MA1999999093371MD1999999-0031REMSYN076AAXX  07124 83182 32597 40913 10254 20157 39337 40159 82201 333 20162 59003;EQDQ01  00002PRCP06
0208831820999992004050800004-11300-041867FM-12+074799999V0201401N004112200019N0010001N1+02141+01741101441ADDAA106000091GA1001+999999999GF100991001001999999001001KA1240M+03051MA1999999093241MD1999999-0051REMSYN082AAXX  08004 83182 32994 01408 10214 20174 39324 40144 333 10305 29070 55112 59005;EQDQ01  00002PRCP06
0186831820999992004050812004-11300-041867FM-12+074799999V0201401N004112200019N0100001N1+02541+01681101511ADDAA106000091GF101991001001999999001011KA1240N+01531MA1999999093301MD1999999-0071REMSYN076AAXX  08124 83182 32997 11408 10254 20168 39330 40151 80001 333 20153 59007;EQDQ01  00002PRCP06
0198831820999992004050900004-11300-041867FM-12+074799999V0201401N003119999999N0010001N1+02101+01551101331ADDAA106000091GF108991001001999999001011KA1240M+03181MA1999999093121MD1999999-0121REMSYN088AAXX  09004 83182 32994 81406 10210 20155 39312 40133 80001 333 10318 29067 55108 59012;EQDQ01  00002PRCP06
0186831820999992004050912004-11300-041867FM-12+074799999V0201401N002619999999N0100001N1+02501+01721101421ADDAA106000091GF108991001001999999001011KA1240N+01401MA1999999093201MD1999999-0101REMSYN076AAXX  09124 83182 32997 81405 10250 20172 39320 40142 80001 333 20140 59010;EQDQ01  00002PRCP06
0198831820999992004051000004-11300-041867FM-12+074799999V0201401N003119999999N0010001N1+02141+01591101251ADDAA106000091GF108991001001999999001011KA1240M+03121MA1999999093051MD1999999-0071REMSYN088AAXX  10004 83182 32994 81406 10214 20159 39305 40125 80001 333 10312 29068 55093 59007;EQDQ01  00002PRCP06
0186831820999992004051012004-11300-041867FM-12+074799999V0201401N002119999999N0100001N1+02601+01651101391ADDAA106000091GF108991001001999999001011KA1240N+01461MA1999999093191MD1999999-0011REMSYN076AAXX  10124 83182 32997 81404 10260 20165 39319 40139 80001 333 20146 59001;EQDQ01  00002PRCP06
0198831820999992004051100004-11300-041867FM-12+074799999V0201401N003119999999N0010001N1+02101+01491101251ADDAA106000091GF108991001001999999001011KA1240M+03221MA1999999093061MD1999999+0011REMSYN088AAXX  11004 83182 32994 81406 10210 20149 39306 40125 80001 333 10322 29064 55107 58001;EQDQ01  00002PRCP06
0186831820999992004051112004-11300-041867FM-12+074799999V0201401N003119999999N0100001N1+02641+01481101391ADDAA106000091GF108991001001999999001011KA1240N+01421MA1999999093191MD1999999+0001REMSYN076AAXX  11124 83182 32997 81406 10264 20148 39319 40139 80001 333 20142 58000;EQDQ01  00002PRCP06
0198831820999992004051200004-11300-041867FM-12+074799999V0201401N001519999999N0010001N1+02101+01461101261ADDAA106000091GF108991001001999999001011KA1240M+03161MA1999999093071MD1999999+0011REMSYN088AAXX  12004 83182 32994 81403 10210 20146 39307 40126 80001 333 10316 29061 55103 58001;EQDQ01  00002PRCP06
0186831820999992004051212004-11300-041867FM-12+074799999V0201401N003112200019N0100001N1+02481+01751101541ADDAA106000091GF108991041021008001001011KA1240N+01541MA1999999093281MD1999999+0091REMSYN076AAXX  12124 83182 32597 81406 10248 20175 39328 40154 84201 333 20154 58009;EQDQ01  00002PRCP06
0186831820999992004051312004-11300-041867FM-12+074799999V0201401N003110075019N0100001N1+02451+01881101381ADDAA106000091GF108991081051008001999999KA1240N+01871MA1999999093201MD1999999-0081REMSYN076AAXX  13124 83182 32597 81406 10245 20188 39320 40138 885// 333 20187 59008;EQDQ01  00002PRCP06
0202831820999992004051400004-11300-041867FM-12+074799999V0201401N002610042019N0010001N1+02121+02001101291ADDAY161061AY221061GF108991061071004501021999KA1240M+02771MA1999999093081MD1999999-0031MW1211REMSYN100AAXX  14004 83182 21494 81405 10212 20200 39308 40129 72162 8672/ 333 10277 29087 55012 59003 60031;
0162831820999992004051412004-11300-041867FM-12+074799999V0201401N003110075019N0100001N1+02401+01971101431ADDGF107991061021008001051001KA1240N+01761MA1999999093191MD1999999-0011REMSYN082AAXX  14124 83182 22597 71406 10240 20197 39319 40143 86250 333 20176 59001 60034;
0214831820999992004051500004-11300-041867FM-12+074799999V0201401N002612200019N0010001N1+02241+01961101211ADDAA106000091GF103991999001017501051001KA1240M+03041MA1999999093031MD1999999-0051REMSYN088AAXX  15004 83182 32794 31405 10224 20196 39303 40121 82050 333 10304 29081 55062 59005;EQDQ01+000022SCOTLCQ02  00002PRCP06
0186831820999992004051512004-11300-041867FM-12+074799999V0201401N003110075019N0100001N1+02531+01851101351ADDAA106000091GF106991061051008001001001KA1240N+01711MA1999999093171MD1999999-0021REMSYN076AAXX  15124 83182 32597 61406 10253 20185 39317 40135 86500 333 20171 59002;EQDQ01  00002PRCP06
0208831820999992004051600004-11300-041867FM-12+074799999V0201401N004112200019N0010001N1+02231+01681101071ADDAA106000091GA1001+999999999GF100991001001999999001001KA1240M+03081MA1999999092921MD1999999-0111REMSYN082AAXX  16004 83182 32994 01408 10223 20168 39292 40107 333 10308 29069 55087 59011;EQDQ01  00002PRCP06
0186831820999992004051612004-11300-041867FM-12+074799999V0201401N004112200019N0100001N1+02531+01851101361ADDAA106000091GF108991011001017501031011KA1240N+01541MA1999999093181MD1999999+0011REMSYN076AAXX  16124 83182 32797 81408 10253 20185 39318 40136 81031 333 20154 58001;EQDQ01  00002PRCP06
0198831820999992004051700004-11300-041867FM-12+074799999V0201401N002112200019N0010001N1+02201+01781101361ADDAA106000091GF108991021051008001001011KA1240M+03071MA1999999093161MD1999999+0241REMSYN088AAXX  17004 83182 32594 81404 10220 20178 39316 40136 82501 333 10307 29073 55076 58024;EQDQ01  00002PRCP06
0186831820999992004051712004-11300-041867FM-12+074799999V0200901N005119999999N0100001N1+02371+01471101441ADDAA106000091GF108991001001999999001021KA1240N+01461MA1999999093221MD1999999+0041REMSYN076AAXX  17124 83182 32997 80910 10237 20147 39322 40144 80002 333 20146 58004;EQDQ01  00002PRCP06
0198831820999992004051800004-11300-041867FM-12+074799999V0200901N003119999999N0010001N1+02181+01671101371ADDAA106000091GF108991001001999999001011KA1240M+02901MA1999999093151MD1999999-0011REMSYN088AAXX  18004 83182 32994 80906 10218 20167 39315 40137 80001 333 10290 29068 55085 59001;EQDQ01  00002PRCP06
0202831820999992004051812004-11300-041867FM-12+074799999V0201401N005710075019N0100001N1+02461+01711101551ADDAA106000091GF108991999051008001001001KA1240N+01651MA1999999093321MD1999999+0101REMSYN076AAXX  18124 83182 32597 81411 10246 20171 39332 40155 86500 333 20165 58010;EQDQ01+000062SCOTLCQ02  00002PRCP06
0198831820999992004051900004-11300-041867FM-12+074799999V0201401N003619999999N0010001N1+02101+01601101441ADDAA106000091GF108991001001999999001011KA1240M+02821MA1999999093221MD1999999+0071REMSYN088AAXX  19004 83182 32994 81407 10210 20160 39322 40144 80001 333 10282 29070 55059 58007;EQDQ01  00002PRCP06
0186831820999992004051912004-11300-041867FM-12+074799999V0200901N005112200019N0100001N1+02461+01581101781ADDAA106000091GF103991021021008001001011KA1240N+01881MA1999999093541MD1999999+0221REMSYN076AAXX  19124 83182 32597 30910 10246 20158 39354 40178 82201 333 20188 58022;EQDQ01  00002PRCP06
0208831820999992004052000004-11300-041867FM-12+074799999V0201401N003112200019N0010001N1+02161+01721101581ADDAA106000091GA1001+999999999GF100991001001999999001001KA1240M+03001MA1999999093351MD1999999+0131REMSYN082AAXX  20004 83182 32994 01406 10216 20172 39335 40158 333 10300 29070 55097 58013;EQDQ01  00002PRCP06
0186831820999992004052012004-11300-041867FM-12+074799999V0201401N005712200019N0100001N1+02441+01661101841ADDAA106000091GF103991021021008001001011KA1240N+01601MA1999999093591MD1999999+0051REMSYN076AAXX  20124 83182 32597 31411 10244 20166 39359 40184 82201 333 20160 58005;EQDQ01  00002PRCP06
0198831820999992004052100004-11300-041867FM-12+074799999V0201401N002619999999N0010001N1+02071+01441101631ADDAA106000091GF108991001001999999001011KA1240M+02921MA1999999093381MD1999999+0031REMSYN088AAXX  21004 83182 32994 81405 10207 20144 39338 40163 80001 333 10292 29065 55107 58003;EQDQ01  00002PRCP06
0186831820999992004052112004-11300-041867FM-12+074799999V0201401N005112200019N0100001N1+02421+01541101781ADDAA106000091GF108991011021008001001011KA1240N+01541MA1999999093521MD1999999-0071REMSYN076AAXX  21124 83182 32597 81410 10242 20154 39352 40178 81201 333 20154 59007;EQDQ01  00002PRCP06
0198831820999992004052200004-11300-041867FM-12+074799999V0201401N003112200019N0010001N1+02141+01701101501ADDAA106000091GF103991001001999999001011KA1240M+02901MA1999999093271MD1999999-0111REMSYN088AAXX  22004 83182 32994 31406 10214 20170 39327 40150 80001 333 10290 29070 55102 59011;EQDQ01  00002PRCP06
0186831820999992004052212004-11300-041867FM-12+074799999V0201401N004610075019N0100001N1+02161+01721101641ADDAA106000091GF108991081051008001999999KA1240N+01731MA1999999093351MD1999999-0171REMSYN076AAXX  22124 83182 32597 81409 10216 20172 39335 40164 885// 333 20173 59017;EQDQ01  00002PRCP06
0198831820999992004052300004-11300-041867FM-12+074799999V0201401N003110075019N0010001N1+02121+01781101541ADDAA106000091GF108991081051008001999999KA1240M+02601MA1999999093261MD1999999-0011REMSYN088AAXX  23004 83182 32594 81406 10212 20178 39326 40154 885// 333 10260 29079 55026 59001;EQDQ01  00002PRCP06
0190831820999992004052312004-11300-041867FM-12+074799999V0201401N003110075019N0100001N1+02151+01831101841ADDAY161061AY261061GF108991081051008001999999KA1240N+01651MA1999999093561MD1999999+0211MW1021REMSYN088AAXX  23124 83182 21597 81406 10215 20183 39356 40184 70266 885// 333 20165 58021 69994;
0198831820999992004052400004-11300-041867FM-12+074799999V0201401N003110450019N0010001N1+01961+01741101611ADDAA106000091GF106991021051008001051001KA1240M+02641MA1999999093411MD1999999+0151REMSYN088AAXX  24004 83182 32594 61406 10196 20174 39341 40161 82550 333 10264 29081 55048 58015;EQDQ01  00002PRCP06
0186831820999992004052412004-11300-041867FM-12+074799999V0201401N004110450019N0100001N1+02441+01641101791ADDAA106000091GF108991031021008001041011KA1240N+01551MA1999999093511MD1999999-0051REMSYN076AAXX  24124 83182 32597 81408 10244 20164 39351 40179 83241 333 20155 59005;EQDQ01  00002PRCP06
0208831820999992004052500004-11300-041867FM-12+074799999V0200901N003112200019N0010001N1+02001+01501101491ADDAA106000091GA1001+999999999GF100991001001999999001001KA1240M+02731MA1999999093241MD1999999-0171REMSYN082AAXX  25004 83182 32994 00906 10200 20150 39324 40149 333 10273 29069 55041 59017;EQDQ01  00002PRCP06
0186831820999992004052512004-11300-041867FM-12+074799999V0201401N004612200019N0100001N1+02381+01531101851ADDAA106000091GF101991011011012501001001KA1240N+01501MA1999999093561MD1999999+0051REMSYN076AAXX  25124 83182 32697 11409 10238 20153 39356 40185 81100 333 20150 58005;EQDQ01  00002PRCP06
0208831820999992004052600004-11300-041867FM-12+074799999V0201401N003112200019N0010001N1+02081+01561101551ADDAA106000091GA1001+999999999GF100991001001999999001001KA1240M+02931MA1999999093311MD1999999+0071REMSYN082AAXX  26004 83182 32994 01406 10208 20156 39331 40155 333 10293 29068 55094 58007;EQDQ01  00002PRCP06
0186831820999992004052612004-11300-041867FM-12+074799999V0201401N004119999999N0100001N1+02381+01611101541ADDAA106000091GF108991001001999999001011KA1240N+01471MA1999999093301MD1999999-0261REMSYN076AAXX  26124 83182 32997 81408 10238 20161 39330 40154 80001 333 20147 59026;EQDQ01  00002PRCP06
0198831820999992004052700004-11300-041867FM-12+074799999V0200901N003110450019N0010001N1+02201+01581101371ADDAA106000091GF108991031021008001041011KA1240M+03121MA1999999093151MD1999999-0161REMSYN088AAXX  27004 83182 32594 80906 10220 20158 39315 40137 83241 333 10312 29066 55104 59016;EQDQ01  00002PRCP06
0196831820999992004052712004-11300-041867FM-12+074799999V0201401N002112200019N0100001N1+02461+01581101511ADDAA106000091GA1001+999999999GF100991001001999999001001KA1240N+01461MA1999999093301MD1999999+0001REMSYN070AAXX  27124 83182 32997 01404 10246 20158 39330 40151 333 20146 58000;EQDQ01  00002PRCP06
0198831820999992004052800004-11300-041867FM-12+074799999V0201401N002612200019N0010001N1+02201+01651101451ADDAA106000091GF102991021001017501051001KA1240M+03191MA1999999093251MD1999999+0151REMSYN088AAXX  28004 83182 32794 21405 10220 20165 39325 40145 82050 333 10319 29067 55112 58015;EQDQ01  00002PRCP06
0186831820999992004052812004-11300-041867FM-12+074799999V0201401N004112200019N0100001N1+02471+01881101661ADDAA106000091GF102991011011012501001011KA1240N+01531MA1999999093441MD1999999+0141REMSYN076AAXX  28124 83182 32697 21408 10247 20188 39344 40166 81101 333 20153 58014;EQDQ01  00002PRCP06
0198831820999992004052900004-11300-041867FM-12+074799999V0201401N003119999999N0010001N1+02101+01601101561ADDAA106000091GF108991001001999999001011KA1240M+03021MA1999999093331MD1999999+0081REMSYN088AAXX  29004 83182 32994 81406 10210 20160 39333 40156 80001 333 10302 29072 55101 58008;EQDQ01  00002PRCP06
0186831820999992004052912004-11300-041867FM-12+074799999V0201401N006212200019N0100001N1+02341+01521101741ADDAA106000091GF102991021021008001001001KA1240N+01661MA1999999093501MD1999999+0061REMSYN076AAXX  29124 83182 32597 21412 10234 20152 39350 40174 82200 333 20166 58006;EQDQ01  00002PRCP06
0208831820999992004053000004-11300-041867FM-12+074799999V0201801N003612200019N0010001N1+02161+01741102041ADDAA106000091GA1001+999999999GF100991001001999999001001KA1240M+02861MA1999999093551MD1999999+0221REMSYN082AAXX  30004 83182 32994 01807 10216 20174 39355 40204 333 10286 29071 55095 58022;EQDQ01  00002PRCP06
0186831820999992004053012004-11300-041867FM-12+074799999V0201401N005712200019N0100001N1+02431+01621101731ADDAA106000091GF104991041021008001001001KA1240N+01651MA1999999093491MD1999999-0011REMSYN076AAXX  30124 83182 32597 41411 10243 20162 39349 40173 84200 333 20165 59001;EQDQ01  00002PRCP06
0198831820999992004053100004-11300-041867FM-12+074799999V0201401N005110075019N0010001N1+02151+01581101511ADDAA106000091GF106991061051008001001001KA1240M+02851MA1999999093281MD1999999-0271REMSYN088AAXX  31004 83182 32594 61410 10215 20158 39328 40151 86500 333 10285 29070 55100 59027;EQDQ01  00002PRCP06
0186831820999992004053112004-11300-041867FM-12+074799999V0201401N006212200019N0100001N1+02341+01551101771ADDAA106000091GF102991011021008001041001KA1240N+01681MA1999999093511MD1999999+0021REMSYN076AAXX  31124 83182 32597 21412 10234 20155 39351 40177 81240 333 20168 58002;EQDQ01  00002PRCP06
0208831820999992004060100004-11300-041867FM-12+074799999V0201401N003612200019N0010001N1+02101+01641101531ADDAA106000091GA1001+999999999GF100991001001999999001001KA1240M+02901MA1999999093271MD1999999-0011REMSYN082AAXX  01004 83182 32994 01407 10210 20164 39327 40153 333 10290 29070 55098 59001;EQDQ01  00002PRCP06
0186831820999992004060112004-11300-041867FM-12+074799999V0201401N005712200019N0100001N1+02331+01631101761ADDAA106000091GF102991021021008001001001KA1240N+01401MA1999999093481MD1999999-0031REMSYN076AAXX  01124 83182 32597 21411 10233 20163 39348 40176 82200 333 20140 59003;EQDQ01  00002PRCP06
0198831820999992004060200004-11300-041867FM-12+074799999V0201401N005112200019N0010001N1+02101+01621101621ADDAA106000091GF102991021001017501051001KA1240M+02871MA1999999093551MD1999999+0071REMSYN088AAXX  02004 83182 32794 21410 10210 20162 39355 40162 82050 333 10287 29072 55095 58007;EQDQ01  00002PRCP06
0186831820999992004060212004-11300-041867FM-12+074799999V0201401N004110075019N0100001N1+02301+01721101791ADDAA106000091GF107991071051008001001001KA1240N+01651MA1999999093511MD1999999+0031REMSYN076AAXX  02124 83182 32597 71408 10230 20172 39351 40179 87500 333 20165 58003;EQDQ01  00002PRCP06
0198831820999992004060300004-11300-041867FM-12+074799999V0201401N003110450019N0010001N1+02081+01741101691ADDAA106000091GF106991011021008001051011KA1240M+02671MA1999999093421MD1999999-0131REMSYN088AAXX  03004 83182 32594 61406 10208 20174 39342 40169 81251 333 10267 29077 55073 59013;EQDQ01  00002PRCP06
0186831820999992004060312004-11300-041867FM-12+074799999V0201401N001512200019N0100001N1+02381+01421101861ADDAA106000091GF102991011021008001041001KA1240N+01501MA1999999093541MD1999999+0081REMSYN076AAXX  03124 83182 32597 21403 10238 20142 39354 40186 81240 333 20150 58008;EQDQ01  00002PRCP06
0198831820999992004060400004-11300-041867FM-12+074799999V0201401N002112200019N0010001N1+02111+01611101551ADDAA106000091GF108991041001017501051011KA1240M+02891MA1999999093311MD1999999-0111REMSYN088AAXX  04004 83182 32794 81404 10211 20161 39331 40155 84051 333 10289 29067 55069 59011;EQDQ01  00002PRCP06
0186831820999992004060412004-11300-041867FM-12+074799999V0201401N003112200019N0100001N1+02441+01641101601ADDAA106000091GF108991011011012501001011KA1240N+01501MA1999999093371MD1999999-0221REMSYN076AAXX  04124 83182 32697 81406 10244 20164 39337 40160 81101 333 20150 59022;EQDQ01  00002PRCP06
0198831820999992004060500004-11300-041867FM-12+074799999V0201401N002110450019N0010001N1+02181+01631101421ADDAA106000091GF108991011011008001041011KA1240M+02991MA1999999093201MD1999999-0111REMSYN088AAXX  05004 83182 32594 81404 10218 20163 39320 40142 81141 333 10299 29068 55079 59011;EQDQ01  00002PRCP06
0186831820999992004060512004-11300-041867FM-12+074799999V0201401N002619999999N0100001N1+02451+01641101501ADDAA106000091GF108991001001999999001041KA1240N+01521MA1999999093271MD1999999-0101REMSYN076AAXX  05124 83182 32997 81405 10245 20164 39327 40150 80004 333 20152 59010;EQDQ01  00002PRCP06
0198831820999992004060600004-11300-041867FM-12+074799999V0201401N004112200019N0100001N1+02311+01591101421ADDAA106000091GF108991011021008001001011KA1240M+03081MA1999999093241MD1999999+0041REMSYN088AAXX  06004 83182 32597 81408 10231 20159 39324 40142 81201 333 10308 29063 55092 58004;EQDQ01  00002PRCP06
0186831820999992004060612004-11300-041867FM-12+074799999V0201401N004612200019N0100001N1+02451+01491101611ADDAA106000091GF103991021021008001041001KA1240N+01511MA1999999093411MD1999999+0141REMSYN076AAXX  06124 83182 32597 31409 10245 20149 39341 40161 82240 333 20151 58014;EQDQ01  00002PRCP06
0186831820999992004060712004-11300-041867FM-12+074799999V0201401N003110075019N0100001N1+02451+01641101831ADDAA106000091GF106991061051008001001001KA1240N+01771MA1999999093581MD1999999+0171REMSYN076AAXX  07124 83182 32597 61406 10245 20164 39358 40183 86500 333 20177 58017;EQDQ01  00002PRCP06
0208831820999992004060800004-11300-041867FM-12+074799999V0201401N005112200019N0010001N1+02061+01701101741ADDAA106000091GA1001+999999999GF100991001001999999001001KA1240M+03041MA1999999093461MD1999999+0091REMSYN082AAXX  08004 83182 32994 01410 10206 20170 39346 40174 333 10304 29074 55091 58009;EQDQ01  00002PRCP06
0186831820999992004060812004-11300-041867FM-12+074799999V0201401N005710075019N0100001N1+02271+01691101811ADDAA106000091GF107991071051008001001001KA1240N+01691MA1999999093511MD1999999-0071REMSYN076AAXX  08124 83182 32597 71411 10227 20169 39351 40181 87500 333 20169 59007;EQDQ01  00002PRCP06
0198831820999992004060900004-11300-041867FM-12+074799999V0201401N004110075019N0010001N1+02081+01721101711ADDAA106000091GF108991081051008001999999KA1240M+02581MA1999999093421MD1999999+0051REMSYN088AAXX  09004 83182 32594 81408 10208 20172 39342 40171 885// 333 10258 29077 55034 58005;EQDQ01  00002PRCP06
0186831820999992004060912004-11300-041867FM-12+074799999V0201401N001510042019N0100001N1+01991+01691101991ADDAA106000091GF108991061071004501021999KA1240N+01421MA1999999093651MD1999999+0141REMSYN076AAXX  09124 83182 32497 81403 10199 20169 39365 40199 8672/ 333 20142 58014;EQDQ01  00002PRCP06
0224831820999992004061000004-11300-041867FM-12+074799999V0201401N003112200019N0010001N1+02001+01481101901ADDAA106000091GA1001+999999999GF100991001001999999001001KA1240M+99999MA1999999093551MD1999999+0131REMSYN082AAXX  10004 83182 32994 01406 10200 20148 39355 40190 333 10179 29076 55057 58013;EQDQ01  00002PRCP06Q02 +01792ATMX  
0186831820999992004061012004-11300-041867FM-12+074799999V0200901N004612200019N0100001N1+02341+01641101951ADDAA106000091GF103991031021008001001001KA1240N+01461MA1999999093641MD1999999-0011REMSYN076AAXX  10124 83182 32597 30909 10234 20164 39364 40195 83200 333 20146 59001;EQDQ01  00002PRCP06
0198831820999992004061100004-11300-041867FM-12+074799999V0201401N005710075019N0010001N1+02171+01621101761ADDAA106000091GF108991081051008001999999KA1240M+02861MA1999999093501MD1999999+0081REMSYN088AAXX  11004 83182 32594 81411 10217 20162 39350 40176 885// 333 10286 29069 55097 58008;EQDQ01  00002PRCP06
0186831820999992004061112004-11300-041867FM-12+074799999V0201401N007712200019N0100001N1+02241+01291101911ADDAA106000091GF103991031011008001001001KA1240N+01471MA1999999093621MD1999999+0021REMSYN076AAXX  11124 83182 32597 31415 10224 20129 39362 40191 83100 333 20147 58002;EQDQ01  00002PRCP06
0186831820999992004061212004-11300-041867FM-12+074799999V0201401N003610075019N0100001N1+02321+01631102041ADDAA106000091GF106991061021008001001001KA1240N+01411MA1999999093701MD1999999+0081REMSYN076AAXX  12124 83182 32597 61407 10232 20163 39370 40204 86200 333 20141 58008;EQDQ01  00002PRCP06
0182831820999992004061312004-11300-041867FM-12+074799999V0201401N003112200019N0100001N1+02191+01241101991ADDAA106000091GA1001+999999999GF100991001001999999001001KA1240N+01401MA1999999093551REMSYN070AAXX  13124 83182 32997 01406 10219 20124 39355 40199 333 20140 69015;EQDQ01  00002PRCP06
0186831820999992004061412004-11300-041867FM-12+074799999V0200901N003610075019N0100001N1+02221+01551101971ADDAA106000091GF106991061051008001001001KA1240N+01471MA1999999093641MD1999999+0091REMSYN076AAXX  14124 83182 32597 60907 10222 20155 39364 40197 86500 333 20147 58009;EQDQ01  00002PRCP06
0208831820999992004061500004-11300-041867FM-12+074799999V0201401N003112200019N0010001N1+02011+01551101901ADDAA106000091GA1001+999999999GF100991001001999999001001KA1240M+02781MA1999999093571MD1999999+0131REMSYN082AAXX  15004 83182 32994 01406 10201 20155 39357 40190 333 10278 29074 55068 58013;EQDQ01  00002PRCP06
0186831820999992004061512004-11300-041867FM-12+074799999V0201401N004610075019N0100001N1+02131+01671101951ADDAA106000091GF108991061051008001001011KA1240N+01551MA1999999093621MD1999999-0021REMSYN076AAXX  15124 83182 32597 81409 10213 20167 39362 40195 86501 333 20155 59002;EQDQ01  00002PRCP06
0198831820999992004061600004-11300-041867FM-12+074799999V0201401N003110075019N0010001N1+02031+01671101901ADDAA106000091GF105991051021008001001001KA1240M+02521MA1999999093571MD1999999+0001REMSYN088AAXX  16004 83182 32594 51406 10203 20167 39357 40190 85200 333 10252 29078 55036 58000;EQDQ01  00002PRCP06
0186831820999992004061612004-11300-041867FM-12+074799999V0200901N008212200019N0100001N1+02211+01351101881ADDAA106000091GF102991021011008001001001KA1240N+01581MA1999999093551MD1999999-0071REMSYN076AAXX  16124 83182 32597 20916 10221 20135 39355 40188 82100 333 20158 59007;EQDQ01  00002PRCP06
0208831820999992004061700004-11300-041867FM-12+074799999V0201401N003112200019N0010001N1+01981+01681101741ADDAA106000091GA1001+999999999GF100991001001999999001001KA1240M+02741MA1999999093431MD1999999+0141REMSYN082AAXX  17004 83182 32994 01406 10198 20168 39343 40174 333 10274 29075 55090 58014;EQDQ01  00002PRCP06
0186831820999992004061712004-11300-041867FM-12+074799999V0201401N006210075019N0100001N1+02161+01431101981ADDAA106000091GF106991061021008001001001KA1240N+01431MA1999999093641MD1999999+0091REMSYN076AAXX  17124 83182 32597 61412 10216 20143 39364 40198 86200 333 20143 58009;EQDQ01  00002PRCP06
0208831820999992004061800004-11300-041867FM-12+074799999V0201401N002612200019N0010001N1+01911+01521101861ADDAA106000091GA1001+999999999GF100991001001999999001001KA1240M+02641MA1999999093521MD1999999+0091REMSYN082AAXX  18004 83182 32994 01405 10191 20152 39352 40186 333 10264 29073 55102 58009;EQDQ01  00002PRCP06
0186831820999992004061812004-11300-041867FM-12+074799999V0201401N005110075019N0100001N1+02201+01511101991ADDAA106000091GF108991061021008001001011KA1240N+01201MA1999999093651MD1999999+0011REMSYN076AAXX  18124 83182 32597 81410 10220 20151 39365 40199 86201 333 20120 58001;EQDQ01  00002PRCP06
0208831820999992004061900004-11300-041867FM-12+074799999V0201401N004112200019N0010001N1+01961+01421101921ADDAA106000091GA1001+999999999GF100991001001999999001001KA1240M+02691MA1999999093591MD1999999+0071REMSYN082AAXX  19004 83182 32994 01408 10196 20142 39359 40192 333 10269 29069 55091 58007;EQDQ01  00002PRCP06
0186831820999992004061912004-11300-041867FM-12+074799999V0201401N005710075019N0100001N1+02261+01571102001ADDAA106000091GF108991061021008001001011KA1240N+01501MA1999999093661MD1999999+0011REMSYN076AAXX  19124 83182 32597 81411 10226 20157 39366 40200 86201 333 20150 58001;EQDQ01  00002PRCP06
0186831820999992004062112004-11300-041867FM-12+074799999V0201401N005110075019N0100001N1+02021+01481102081ADDAA106000091GF108991081051008001999999KA1240N+01511MA1999999093691MD1999999-0031REMSYN076AAXX  21124 83182 32597 81410 10202 20148 39369 40208 885// 333 20151 59003;EQDQ01  00002PRCP06
0208831820999992004062200004-11300-041867FM-12+074799999V0201401N003612200019N0010001N1+02021+01621101861ADDAA106000091GA1001+999999999GF100991001001999999001001KA1240M+02641MA1999999093511MD1999999-0101REMSYN082AAXX  22004 83182 32994 01407 10202 20162 39351 40186 333 10264 29076 55061 59010;EQDQ01  00002PRCP06
0186831820999992004062212004-11300-041867FM-12+074799999V0200901N006712200019N0100001N1+02221+01411101961ADDAA106000091GF104991041021008001001001KA1240N+01301MA1999999093631MD1999999-0061REMSYN076AAXX  22124 83182 32597 40913 10222 20141 39363 40196 84200 333 20130 59006;EQDQ01  00002PRCP06
0198831820999992004062300004-11300-041867FM-12+074799999V0201401N003112200019N0010001N1+02021+01481101851ADDAA106000091GF108991011001017501041011KA1240M+02731MA1999999093531MD1999999+0021REMSYN088AAXX  23004 83182 32794 81406 10202 20148 39353 40185 81041 333 10273 29067 55102 58002;EQDQ01  00002PRCP06
0186831820999992004062312004-11300-041867FM-12+074799999V0201401N005112200019N0100001N1+02141+01241102001ADDAA106000091GF102991011021008001001011KA1240N+01391MA1999999093661MD1999999+0031REMSYN076AAXX  23124 83182 32597 21410 10214 20124 39366 40200 81201 333 20139 58003;EQDQ01  00002PRCP06
0186831820999992004062412004-11300-041867FM-12+074799999V0201401N007212200019N0010001N1+02161+01461101921ADDAA106000091GF102991021021999999001001KA1240N+01351MA1999999093581MD1999999-0081REMSYN076AAXX  24124 83182 32994 21414 10216 20146 39358 40192 82200 333 20135 59008;EQDQ01  00002PRCP06
0208831820999992004062500004-11300-041867FM-12+074799999V0201401N002612200019N0010001N1+01901+01551101801ADDAA106000091GA1001+999999999GF100991001001999999001001KA1240M+02701MA1999999093461MD1999999-0081REMSYN082AAXX  25004 83182 32994 01405 10190 20155 39346 40180 333 10270 29074 55097 59008;EQDQ01  00002PRCP06
0196831820999992004062512004-11300-041867FM-12+074799999V0200901N004612200019N0100001N1+02201+01391101791ADDAA106000091GA1001+999999999GF100991001001999999001001KA1240N+01261MA1999999093471MD1999999-0111REMSYN070AAXX  25124 83182 32997 00909 10220 20139 39347 40179 333 20126 59011;EQDQ01  00002PRCP06
0208831820999992004062600004-11300-041867FM-12+074799999V0201401N003112200019N0010001N1+01961+01421101681ADDAA106000091GA1001+999999999GF100991001001999999001001KA1240M+02851MA1999999093371MD1999999-0091REMSYN082AAXX  26004 83182 32994 01406 10196 20142 39337 40168 333 10285 29067 55098 59009;EQDQ01  00002PRCP06
0186831820999992004062612004-11300-041867FM-12+074799999V0201401N004119999999N0100001N1+02321+01531101761ADDAA106000091GF108991001001999999001011KA1240N+01401MA1999999093461MD1999999-0011REMSYN076AAXX  26124 83182 32997 81408 10232 20153 39346 40176 80001 333 20140 59001;EQDQ01  00002PRCP06
0198831820999992004062700004-11300-041867FM-12+074799999V0201401N003612200019N0010001N1+01991+01651101691ADDAA106000091GF108991011001017501041011KA1240M+02801MA1999999093401MD1999999+0031REMSYN088AAXX  27004 83182 32794 81407 10199 20165 39340 40169 81041 333 10280 29074 55088 58003;EQDQ01  00002PRCP06
0186831820999992004062712004-11300-041867FM-12+074799999V0201401N006212200019N0100001N1+02261+01421101821ADDAA106000091GF106991041021008001001011KA1240N+01421MA1999999093501MD1999999+0041REMSYN076AAXX  27124 83182 32597 61412 10226 20142 39350 40182 84201 333 20142 58004;EQDQ01  00002PRCP06
0198831820999992004062800004-11300-041867FM-12+074799999V0201401N004610075019N0010001N1+02131+01961101691ADDAA106000091GF108991081051008001999999KA1240M+02741MA1999999093421MD1999999+0021REMSYN088AAXX  28004 83182 32594 81409 10213 20196 39342 40169 885// 333 10274 29080 55/// 58002;EQDQ01  00002PRCP06
0186831820999992004062812004-11300-041867FM-12+074799999V0201401N005712200019N0100001N1+02231+01531101751ADDAA106000091GF102991011021008001001011KA1240N+01581MA1999999093471MD1999999-0031REMSYN076AAXX  28124 83182 32597 21411 10223 20153 39347 40175 81201 333 20158 59003;EQDQ01  00002PRCP06
0198831820999992004062900004-11300-041867FM-12+074799999V0201401N002119999999N0010001N1+02021+01621101641ADDAA106000091GF108991001001999999001011KA1240M+02641MA1999999093341MD1999999-0081REMSYN088AAXX  29004 83182 32994 81404 10202 20162 39334 40164 80001 333 10264 29073 55048 59008;EQDQ01  00002PRCP06
0186831820999992004062912004-11300-041867FM-12+074799999V0201401N004110075019N0100001N1+02101+01461101951ADDAA106000091GF106991061051008001001001KA1240N+01621MA1999999093611MD1999999+0141REMSYN076AAXX  29124 83182 32597 61408 10210 20146 39361 40195 86500 333 20162 58014;EQDQ01  00002PRCP06
0208831820999992004063000004-11300-041867FM-12+074799999V0201401N003112200019N0100001N1+01961+01441101751ADDAA106000091GA1001+999999999GF100991001001999999001001KA1240M+02781MA1999999093421MD1999999+0081REMSYN082AAXX  30004 83182 32997 01406 10196 20144 39342 40175 333 10278 29070 55092 58008;EQDQ01  00002PRCP06
0186831820999992004063012004-11300-041867FM-12+074799999V0201401N007712200019N0100001N1+02271+01531101831ADDAA106000091GF104991041011008001001001KA1240N+01541MA1999999093511MD1999999-0101REMSYN076AAXX  30124 83182 32597 41415 10227 20153 39351 40183 84100 333 20154 59010;EQDQ01  00002PRCP06
0198831820999992004070100004-11300-041867FM-12+074799999V0201401N003110075019N0010001N1+02001+01621101711ADDAA106000091GF108991081051008001999999KA1240M+02641MA1999999093421MD1999999+0001REMSYN088AAXX  01004 83182 32594 81406 10200 20162 39342 40171 885// 333 10264 29074 55059 58000;EQDQ01  00002PRCP06
0186831820999992004070112004-11300-041867FM-12+074799999V0200901N006210075019N0100001N1+02141+01381101831ADDAA106000091GF107991071021008001001001KA1240N+01321MA1999999093491MD1999999-0021REMSYN076AAXX  01124 83182 32597 70912 10214 20138 39349 40183 87200 333 20132 59002;EQDQ01  00002PRCP06
0198831820999992004070200004-11300-041867FM-12+074799999V0201401N003612200019N0010001N1+02181+01591101571ADDAA106000091GF103991031001017501041001KA1240M+02781MA1999999093291MD1999999-0131REMSYN088AAXX  02004 83182 32794 31407 10218 20159 39329 40157 83040 333 10278 29067 55091 59013;EQDQ01  00002PRCP06
0198831820999992004070300004-11300-041867FM-12+074799999V0201401N003110075019N0010001N1+01951+01691101641ADDAA106000091GF108991081051008001999999KA1240M+02881MA1999999093351MD1999999+0061REMSYN088AAXX  03004 83182 32594 81406 10195 20169 39335 40164 885// 333 10288 29078 55082 58006;EQDQ01  00002PRCP06
0186831820999992004070312004-11300-041867FM-12+074799999V0201401N006712200019N0100001N1+02211+01451101691ADDAA106000091GF103991031021008001001001KA1240N+01451MA1999999093381MD1999999+0031REMSYN076AAXX  03124 83182 32597 31413 10221 20145 39338 40169 83200 333 20145 58003;EQDQ01  00002PRCP06
0198831820999992004070400004-11300-041867FM-12+074799999V0201401N002612200019N0010001N1+01841+01311101731ADDAA106000091GF101991011001017501041001KA1240M+02651MA1999999093351MD1999999+0001REMSYN088AAXX  04004 83182 32794 11405 10184 20131 39335 40173 81040 333 10265 29068 55102 58000;EQDQ01  00002PRCP06
0186831820999992004070412004-11300-041867FM-12+074799999V0201401N005112200019N0100001N1+02191+01381101741ADDAA106000091GF101991011001008001001001KA1240N+01271MA1999999093391MD1999999+0011REMSYN076AAXX  04124 83182 32597 11410 10219 20138 39339 40174 81000 333 20127 58001;EQDQ01  00002PRCP06
0198831820999992004070500004-11300-041867FM-12+074799999V0201401N003112200019N0010001N1+01911+01501101551ADDAA106000091GF101991011001017501041001KA1240M+02841MA1999999093241MD1999999-0111REMSYN088AAXX  05004 83182 32794 11406 10191 20150 39324 40155 81040 333 10284 29071 55095 59011;EQDQ01  00002PRCP06
0186831820999992004070512004-11300-041867FM-12+074799999V0201401N004112200019N0100001N1+02251+01611101761ADDAA106000091GF102991011011008001041001KA1240N+01471MA1999999093451MD1999999+0061REMSYN076AAXX  05124 83182 32597 21408 10225 20161 39345 40176 81140 333 20147 58006;EQDQ01  00002PRCP06
0198831820999992004070600004-11300-041867FM-12+074799999V0201401N002112200019N0010001N1+02101+01531101531ADDAA106000091GF103991031001017501041001KA1240M+03021MA1999999093271MD1999999+0031REMSYN088AAXX  06004 83182 32794 31404 10210 20153 39327 40153 83040 333 10302 29069 55098 58003;EQDQ01  00002PRCP06
0186831820999992004070612004-11300-041867FM-12+074799999V0201401N003612200019N0100001N1+02291+01551101691ADDAA106000091GF102991021011008001031001KA1240N+01501MA1999999093421MD1999999-0031REMSYN076AAXX  06124 83182 32597 21407 10229 20155 39342 40169 82130 333 20150 59003;EQDQ01  00002PRCP06
0198831820999992004070700004-11300-041867FM-12+074799999V0200901N003612200019N0010001N1+02181+01441101361ADDAA106000091GF104991041051008001001001KA1240M+02961MA1999999093131MD1999999-0141REMSYN088AAXX  07004 83182 32594 40907 10218 20144 39313 40136 84500 333 10296 29063 55101 59014;EQDQ01  00002PRCP06
0186831820999992004070712004-11300-041867FM-12+074799999V0200901N003110075019N0100001N1+02111+01461101651ADDAA106000091GF108991081051008001999999KA1240N+01581MA1999999093361MD1999999-0061REMSYN076AAXX  07124 83182 32597 80906 10211 20146 39336 40165 885// 333 20158 59006;EQDQ01  00002PRCP06
0208831820999992004070800004-11300-041867FM-12+074799999V0200901N002612200019N0010001N1+02061+01361101331ADDAA106000091GA1001+999999999GF100991001001999999001001KA1240M+02871MA1999999093071MD1999999-0061REMSYN082AAXX  08004 83182 32994 00905 10206 20136 39307 40133 333 10287 29065 55071 59006;EQDQ01  00002PRCP06
0186831820999992004070812004-11300-041867FM-12+074799999V0201401N004112200019N0100001N1+02241+01571101571ADDAA106000091GF108991021021008001001011KA1240N+01401MA1999999093291MD1999999-0071REMSYN076AAXX  08124 83182 32597 81408 10224 20157 39329 40157 82201 333 20140 59007;EQDQ01  00002PRCP06
0198831820999992004070900004-11300-041867FM-12+074799999V0201401N002119999999N0010001N1+02101+01491101331ADDAA106000091GF108991001001999999001011KA1240M+03001MA1999999093071MD1999999+0001REMSYN088AAXX  09004 83182 32994 81404 10210 20149 39307 40133 80001 333 10300 29067 55080 58000;EQDQ01  00002PRCP06
0186831820999992004070912004-11300-041867FM-12+074799999V0201401N002112200019N0100001N1+02441+01561101481ADDAA106000091GF108991011011012501001011KA1240N+01361MA1999999093241MD1999999-0051REMSYN076AAXX  09124 83182 32697 81404 10244 20156 39324 40148 81101 333 20136 59005;EQDQ01  00002PRCP06
0198831820999992004071000004-11300-041867FM-12+074799999V0200901N003119999999N0010001N1+02201+01611101211ADDAA106000091GF108991001001999999001011KA1240M+03141MA1999999093011MD1999999-0061REMSYN088AAXX  10004 83182 32994 80906 10220 20161 39301 40121 80001 333 10314 29065 55099 59006;EQDQ01  00002PRCP06
0186831820999992004071012004-11300-041867FM-12+074799999V0201401N003112200019N0100001N1+02411+01581101521ADDAA106000091GF101991011011012501001001KA1240N+01471MA1999999093291MD1999999+0051REMSYN076AAXX  10124 83182 32697 11406 10241 20158 39329 40152 81100 333 20147 58005;EQDQ01  00002PRCP06
0198831820999992004071100004-11300-041867FM-12+074799999V0200901N003119999999N0010001N1+02221+01481101271ADDAA106000091GF108991001001999999001011KA1240M+03101MA1999999093061MD1999999+0051REMSYN088AAXX  11004 83182 32994 80906 10222 20148 39306 40127 80001 333 10310 29061 55098 58005;EQDQ01  00002PRCP06
0198831820999992004071200004-11300-041867FM-12+074799999V0201401N004112200019N0010001N1+02301+01611101251ADDAA106000091GF108991031021008001001011KA1240M+03051MA1999999093061MD1999999+0001REMSYN088AAXX  12004 83182 32594 81408 10230 20161 39306 40125 83201 333 10305 29063 55096 58000;EQDQ01  00002PRCP06
0186831820999992004071212004-11300-041867FM-12+074799999V0201401N006712200019N0100001N1+02341+01491101521ADDAA106000091GF102991021001012501001001KA1240N+01541MA1999999093291MD1999999+0001REMSYN076AAXX  12124 83182 32697 21413 10234 20149 39329 40152 82000 333 20154 58000;EQDQ01  00002PRCP06
0198831820999992004071300004-11300-041867FM-12+074799999V0201401N003119999999N0010001N1+01991+01591101591ADDAA106000091GF108991001001999999001011KA1240M+02751MA1999999093311MD1999999+0251REMSYN088AAXX  13004 83182 32994 81406 10199 20159 39331 40159 80001 333 10275 29072 55063 58025;EQDQ01  00002PRCP06
0186831820999992004071312004-11300-041867FM-12+074799999V0201401N005712200019N0100001N1+02291+01451101651ADDAA106000091GF102991011021008001001011KA1240N+01391MA1999999093361MD1999999+0071REMSYN076AAXX  13124 83182 32597 21411 10229 20145 39336 40165 81201 333 20139 58007;EQDQ01  00002PRCP06
0208831820999992004071400004-11300-041867FM-12+074799999V0201401N003612200019N0010001N1+01891+01371101631ADDAA106000091GA1001+999999999GF100991001001999999001001KA1240M+02731MA1999999093331MD1999999+0021REMSYN082AAXX  14004 83182 32994 01407 10189 20137 39333 40163 333 10273 29068 55079 58002;EQDQ01  00002PRCP06
0186831820999992004071412004-11300-041867FM-12+074799999V0201401N003110075019N0100001N1+02141+01571101781ADDAA106000091GF108991081051008001999999KA1240N+01401MA1999999093431MD1999999+0071REMSYN076AAXX  14124 83182 32597 81406 10214 20157 39343 40178 885// 333 20140 58007;EQDQ01  00002PRCP06
0198831820999992004071500004-11300-041867FM-12+074799999V0201401N005119999999N0010001N1+01961+01591101801ADDAA106000091GF108991001001999999001011KA1240M+02681MA1999999093461MD1999999+0131REMSYN088AAXX  15004 83182 32994 81410 10196 20159 39346 40180 80001 333 10268 29076 55035 58013;EQDQ01  00002PRCP06
0186831820999992004071512004-11300-041867FM-12+074799999V0201401N005110075019N0100001N1+02081+01561101841ADDAA106000091GF108991081051008001999999KA1240N+01401MA1999999093491MD1999999+0061REMSYN076AAXX  15124 83182 32597 81410 10208 20156 39349 40184 885// 333 20140 58006;EQDQ01  00002PRCP06
0208831820999992004071600004-11300-041867FM-12+074799999V0201401N003112200019N0010001N1+02001+01511101731ADDAA106000091GA1001+999999999GF100991001001999999001001KA1240M+02641MA1999999093401MD1999999-0061REMSYN082AAXX  16004 83182 32994 01406 10200 20151 39340 40173 333 10264 29071 55057 59006;EQDQ01  00002PRCP06
0186831820999992004071612004-11300-041867FM-12+074799999V0200901N005112200019N0100001N1+02221+01531101761ADDAA106000091GF108991021021008001001011KA1240N+01321MA1999999093531MD1999999+0041REMSYN076AAXX  16124 83182 32597 80910 10222 20153 39353 40176 82201 333 20132 58004;EQDQ01  00002PRCP06
0198831820999992004071700004-11300-041867FM-12+074799999V0201401N002619999999N0010001N1+02101+01421101591ADDAA106000091GF108991001001999999001011KA1240M+02841MA1999999093311MD1999999-0091REMSYN088AAXX  17004 83182 32994 81405 10210 20142 39331 40159 80001 333 10284 29065 55089 59009;EQDQ01  00002PRCP06
0186831820999992004071712004-11300-041867FM-12+074799999V0200901N005112200019N0100001N1+02281+01561101751ADDAA106000091GF103991031021008001001001KA1240N+01451MA1999999093471MD1999999-0061REMSYN076AAXX  17124 83182 32597 30910 10228 20156 39347 40175 83200 333 20145 59006;EQDQ01  00002PRCP06
0198831820999992004071800004-11300-041867FM-12+074799999V0200901N003619999999N0010001N1+02061+01311101551ADDAA106000091GF108991001001999999001011KA1240M+02801MA1999999093271MD1999999-0041REMSYN088AAXX  18004 83182 32994 80907 10206 20131 39327 40155 80001 333 10280 29063 55093 59004;EQDQ01  00002PRCP06
0186831820999992004071812004-11300-041867FM-12+074799999V0201401N003110075019N0100001N1+02181+01881101851ADDAA106000091GF105991051021008001001001KA1240N+01441MA1999999093531MD1999999+0061REMSYN076AAXX  18124 83182 32597 51406 10218 20188 39353 40185 85200 333 20144 58006;EQDQ01  00002PRCP06
0208831820999992004071900004-11300-041867FM-12+074799999V0201401N004112200019N0010001N1+02061+01381101691ADDAA106000091GA1001+999999999GF100991001001999999001001KA1240M+02801MA1999999093381MD1999999+0071REMSYN082AAXX  19004 83182 32994 01408 10206 20138 39338 40169 333 10280 29071 55064 58007;EQDQ01  00002PRCP06
0186831820999992004071912004-11300-041867FM-12+074799999V0201401N006212200019N0100001N1+02241+01351101921ADDAA106000091GF101991011021008001001001KA1240N+01291MA1999999093611MD1999999+0081REMSYN076AAXX  19124 83182 32597 11412 10224 20135 39361 40192 81200 333 20129 58008;EQDQ01  00002PRCP06
0208831820999992004072000004-11300-041867FM-12+074799999V0201401N003612200019N0010001N1+01961+01261101721ADDAA106000091GA1001+999999999GF100991001001999999001001KA1240M+02721MA1999999093411MD1999999+0031REMSYN082AAXX  20004 83182 32994 01407 10196 20126 39341 40172 333 10272 29064 55098 58003;EQDQ01  00002PRCP06
0196831820999992004072012004-11300-041867FM-12+074799999V0201401N004612200019N0100001N1+02241+01371101791ADDAA106000091GA1001+999999999GF100991001001999999001001KA1240N+01231MA1999999093471MD1999999-0141REMSYN070AAXX  20124 83182 32997 01409 10224 20137 39347 40179 333 20123 59014;EQDQ01  00002PRCP06
0208831820999992004072100004-11300-041867FM-12+074799999V0201401N003112200019N0010001N1+02081+01371101571ADDAA106000091GA1001+999999999GF100991001001999999001001KA1240M+02951MA1999999093291MD1999999-0121REMSYN082AAXX  21004 83182 32994 01406 10208 20137 39329 40157 333 10295 29062 55100 59012;EQDQ01  00002PRCP06
0186831820999992004072112004-11300-041867FM-12+074799999V0201401N003110075019N0100001N1+02181+01491101601ADDAA106000091GF107991071051008001001001KA1240N+01471MA1999999093321MD1999999-0151REMSYN076AAXX  21124 83182 32597 71406 10218 20149 39332 40160 87500 333 20147 59015;EQDQ01  00002PRCP06
0198831820999992004072200004-11300-041867FM-12+074799999V0201401N006212200019N0010001N1+02001+01351101561ADDAA106000091GF104991041001017501041001KA1240M+02781MA1999999093261MD1999999-0061REMSYN088AAXX  22004 83182 32794 41412 10200 20135 39326 40156 84040 333 10278 29066 55080 59006;EQDQ01  00002PRCP06
0186831820999992004072212004-11300-041867FM-12+074799999V0201401N006210075019N0100001N1+01901+01251101841ADDAA106000091GF107991071051008001001001KA1240N+01431MA1999999093471MD1999999+0151REMSYN076AAXX  22124 83182 32597 71412 10190 20125 39347 40184 87500 333 20143 58015;EQDQ01  00002PRCP06
0198831820999992004072300004-11300-041867FM-12+074799999V0201401N002610150019N0010001N1+01981+01101101681ADDAA106000091GF106991061001017501051001KA1240M+02651MA1999999093321MD1999999+0061REMSYN088AAXX  23004 83182 32794 61405 10198 20110 39332 40168 86050 333 10265 29060 55085 58006;EQDQ01  00002PRCP06
0186831820999992004072312004-11300-041867FM-12+074799999V0201401N005712200019N0100001N1+01901+01081101901ADDAA106000091GF101991001001999999001011KA1240N+01201MA1999999093531MD1999999+0061REMSYN076AAXX  23124 83182 32997 11411 10190 20108 39353 40190 80001 333 20120 58006;EQDQ01  00002PRCP06
0198831820999992004072400004-11300-041867FM-12+074799999V0201401N003119999999N0010001N1+01801+01271101871ADDAA106000091GF108991001001999999001011KA1240M+02741MA1999999093461MD1999999+0141REMSYN088AAXX  24004 83182 32994 81406 10180 20127 39346 40187 80001 333 10274 29067 55104 58014;EQDQ01  00002PRCP06
0186831820999992004072412004-11300-041867FM-12+074799999V0201401N006219999999N0100001N1+01941+01121102141ADDAA106000091GF108991001001999999001011KA1240N+01221MA1999999093731MD1999999+0201REMSYN076AAXX  24124 83182 32997 81412 10194 20112 39373 40214 80001 333 20122 58020;EQDQ01  00002PRCP06
0198831820999992004072500004-11300-041867FM-12+074799999V0201401N004119999999N0010001N1+01741+01251102111ADDAA106000091GF108991001001999999001011KA1240M+02621MA1999999093681MD1999999+0221REMSYN088AAXX  25004 83182 32994 81408 10174 20125 39368 40211 80001 333 10262 29068 55097 58022;EQDQ01  00002PRCP06
0186831820999992004072512004-11300-041867FM-12+074799999V0201401N006210075019N0100001N1+01831+01091102201ADDAA106000091GF106991061021008001001001KA1240N+01231MA1999999093731MD1999999+0001REMSYN076AAXX  25124 83182 32597 61412 10183 20109 39373 40220 86200 333 20123 58000;EQDQ01  00002PRCP06
0208831820999992004072600004-11300-041867FM-12+074799999V0201401N005112200019N0010001N1+01751+01271102061ADDAA106000091GA1001+999999999GF100991001001999999001001KA1240M+02541MA1999999093621MD1999999-0061REMSYN082AAXX  26004 83182 32994 01410 10175 20127 39362 40206 333 10254 29070 55095 59006;EQDQ01  00002PRCP06
0186831820999992004072612004-11300-041867FM-12+074799999V0201401N006212200019N0100001N1+02031+00951102071ADDAA106000091GF101991011011012501001001KA1240N+00961MA1999999093661MD1999999-0071REMSYN076AAXX  26124 83182 32697 11412 10203 20095 39366 40207 81100 333 20096 59007;EQDQ01  00002PRCP06
0208831820999992004072700004-11300-041867FM-12+074799999V0201401N003612200019N0010001N1+01721+01191102121ADDAA106000091GA1001+999999999GF100991001001999999001001KA1240M+02601MA1999999093711MD1999999+0091REMSYN082AAXX  27004 83182 32994 01407 10172 20119 39371 40212 333 10260 29064 55103 58009;EQDQ01  00002PRCP06
0186831820999992004072712004-11300-041867FM-12+074799999V0201401N004610075019N0100001N1+01961+01241102171ADDAA106000091GF108991081051008001999999KA1240N+01001MA1999999093741MD1999999+0081REMSYN076AAXX  27124 83182 32597 81409 10196 20124 39374 40217 885// 333 20100 58008;EQDQ01  00002PRCP06
0208831820999992004072800004-11300-041867FM-12+074799999V0201401N002612200019N0010001N1+01701+01371102011ADDAA106000091GA1001+999999999GF100991001001999999001001KA1240M+02421MA1999999093591MD1999999-0121REMSYN082AAXX  28004 83182 32994 01405 10170 20137 39359 40201 333 10242 29075 55081 59012;EQDQ01  00002PRCP06
0186831820999992004072812004-11300-041867FM-12+074799999V0201401N006210075019N0100001N1+01941+01271102121ADDAA106000091GF108991081051008001999999KA1240N+01261MA1999999093671MD1999999-0071REMSYN076AAXX  28124 83182 32597 81412 10194 20127 39367 40212 885// 333 20126 59007;EQDQ01  00002PRCP06
0208831820999992004072900004-11300-041867FM-12+074799999V0201401N005112200019N0010001N1+01781+01351101991ADDAA106000091GA1001+999999999GF100991001001999999001001KA1240M+02421MA1999999093571MD1999999-0021REMSYN082AAXX  29004 83182 32994 01410 10178 20135 39357 40199 333 10242 29072 55056 59002;EQDQ01  00002PRCP06
0186831820999992004072912004-11300-041867FM-12+074799999V0201401N005110075019N0100001N1+02001+01551102071ADDAA106000091GF106991061051008001001001KA1240N+01121MA1999999093661MD1999999-0011REMSYN076AAXX  29124 83182 32597 61410 10200 20155 39366 40207 86500 333 20112 59001;EQDQ01  00002PRCP06
0198831820999992004073000004-11300-041867FM-12+074799999V0201401N003112200019N0010001N1+01861+01431101891ADDAA106000091GF102991021021008001001001KA1240M+02601MA1999999093521MD1999999-0051REMSYN088AAXX  30004 83182 32594 21406 10186 20143 39352 40189 82200 333 10260 29070 55105 59005;EQDQ01  00002PRCP06
0186831820999992004073012004-11300-041867FM-12+074799999V0201401N006212200019N0100001N1+02151+01341101981ADDAA106000091GF101991011021008001001001KA1240N+01131MA1999999093621MD1999999-0041REMSYN076AAXX  30124 83182 32597 11412 10215 20134 39362 40198 81200 333 20113 59004;EQDQ01  00002PRCP06
0208831820999992004073100004-11300-041867FM-12+074799999V0200901N002612200019N0010001N1+01861+01371101931ADDAA106000091GA1001+999999999GF100991001001999999001001KA1240M+02601MA1999999093571MD1999999+0051REMSYN082AAXX  31004 83182 32994 00905 10186 20137 39357 40193 333 10260 29069 55089 58005;EQDQ01  00002PRCP06
0186831820999992004073112004-11300-041867FM-12+074799999V0201401N004612200019N0100001N1+02221+01691101951ADDAA106000091GF101991011021008001001001KA1240N+01241MA1999999093611MD1999999-0011REMSYN076AAXX  31124 83182 32597 11409 10222 20169 39361 40195 81200 333 20124 59001;EQDQ01  00002PRCP06
0208831820999992004080100004-11300-041867FM-12+074799999V0201401N003112200019N0010001N1+02071+01411101691ADDAA106000091GA1001+999999999GF100991001001999999001001KA1240M+02881MA1999999093401MD1999999-0171REMSYN082AAXX  01004 83182 32994 01406 10207 20141 39340 40169 333 10288 29068 55081 59017;EQDQ01  00002PRCP06
0186831820999992004080112004-11300-041867FM-12+074799999V0201401N004612200019N0100001N1+02081+01371101931ADDAA106000091GF103991031021008001001001KA1240N+01411MA1999999093591MD1999999-0021REMSYN076AAXX  01124 83182 32597 31409 10208 20137 39359 40193 83200 333 20141 59002;EQDQ01  00002PRCP06
0198831820999992004080200004-11300-041867FM-12+074799999V0201401N003110150019N0010001N1+02041+01641101771ADDAA106000091GF106991061001017501051001KA1240M+02941MA1999999093441MD1999999+0041REMSYN088AAXX  02004 83182 32794 61406 10204 20164 39344 40177 86050 333 10294 29073 55078 58004;EQDQ01  00002PRCP06
0186831820999992004080212004-11300-041867FM-12+074799999V0200901N005112200019N0100001N1+02231+01421101821ADDAA106000091GF106991021021008001001011KA1240N+01401MA1999999093521MD1999999-0071REMSYN076AAXX  02124 83182 32597 60910 10223 20142 39352 40182 82201 333 20140 59007;EQDQ01  00002PRCP06
0208831820999992004080300004-11300-041867FM-12+074799999V0201401N003112200019N0010001N1+02041+01341101751ADDAA106000091GA1001+999999999GF100991001001999999001001KA1240M+02871MA1999999093421MD1999999-0021REMSYN082AAXX  03004 83182 32994 01406 10204 20134 39342 40175 333 10287 29063 55098 59002;EQDQ01  00002PRCP06
0186831820999992004080312004-11300-041867FM-12+074799999V0201401N003112200019N0100001N1+02241+01351101891ADDAA106000091GF102991021021008001001001KA1240N+01441MA1999999093581MD1999999+0061REMSYN076AAXX  03124 83182 32597 21406 10224 20135 39358 40189 82200 333 20144 58006;EQDQ01  00002PRCP06
0208831820999992004080400004-11300-041867FM-12+074799999V0200901N002612200019N0010001N1+01961+01191101791ADDAA106000091GA1001+999999999GF100991001001999999001001KA1240M+02841MA1999999093471MD1999999+0051REMSYN082AAXX  04004 83182 32994 00905 10196 20119 39347 40179 333 10284 29060 55104 58005;EQDQ01  00002PRCP06
0186831820999992004080412004-11300-041867FM-12+074799999V0201401N005710075019N0100001N1+02051+01301101991ADDAA106000091GF106991061021008001001001KA1240N+01301MA1999999093651MD1999999+0071REMSYN076AAXX  04124 83182 32597 61411 10205 20130 39365 40199 86200 333 20130 58007;EQDQ01  00002PRCP06
0208831820999992004080500004-11300-041867FM-12+074799999V0201401N003112200019N0010001N1+01841+01371101871ADDAA106000091GA1001+999999999GF100991001001999999001001KA1240M+02541MA1999999093501MD1999999+0031REMSYN082AAXX  05004 83182 32994 01406 10184 20137 39350 40187 333 10254 29070 55074 58003;EQDQ01  00002PRCP06
0186831820999992004080512004-11300-041867FM-12+074799999V0201401N005712200019N0100001N1+02061+01361101911ADDAA106000091GF103991031021008001001001KA1240N+01301MA1999999093541MD1999999-0111REMSYN076AAXX  05124 83182 32597 31411 10206 20136 39354 40191 83200 333 20130 59011;EQDQ01  00002PRCP06
0208831820999992004080600004-11300-041867FM-12+074799999V0201801N003112200019N0010001N1+01901+01451101871ADDAA106000091GA1001+999999999GF100991001001999999001001KA1240M+02561MA1999999093521MD1999999+0021REMSYN082AAXX  06004 83182 32994 01806 10190 20145 39352 40187 333 10256 29071 55078 58002;EQDQ01  00002PRCP06
0186831820999992004080612004-11300-041867FM-12+074799999V0201401N006210075019N0100001N1+02111+01331101991ADDAA106000091GF107991071051008001001001KA1240N+01471MA1999999093631MD1999999+0091REMSYN076AAXX  06124 83182 32597 71412 10211 20133 39363 40199 87500 333 20147 58009;EQDQ01  00002PRCP06
0186831820999992004080712004-11300-041867FM-12+074799999V0201401N004612200019N0100001N1+02201+01251102181ADDAA106000091GF101991011011012501001001KA1240N+01301MA1999999093751MD1999999+0121REMSYN076AAXX  07124 83182 32697 11409 10220 20125 39375 40218 81100 333 20130 58012;EQDQ01  00002PRCP06
0208831820999992004080800004-11300-041867FM-12+074799999V0200901N003612200019N0010001N1+02081+01401101861ADDAA106000091GA1001+999999999GF100991001001999999001001KA1240M+03001MA1999999093551MD1999999+0031REMSYN082AAXX  08004 83182 32994 00907 10208 20140 39355 40186 333 10300 29062 55104 58003;EQDQ01  00002PRCP06
0186831820999992004080812004-11300-041867FM-12+074799999V0201401N004612200019N0100001N1+02281+01331101991ADDAA106000091GF103991031021008001001001KA1240N+01341MA1999999093691MD1999999-0061REMSYN076AAXX  08124 83182 32597 31409 10228 20133 39369 40199 83200 333 20134 59006;EQDQ01  00002PRCP06
0208831820999992004080900004-11300-041867FM-12+074799999V0201401N003612200019N0010001N1+02201+01171101641ADDAA106000091GA1001+999999999GF100991001001999999001001KA1240M+03001MA1999999093391MD1999999-0161REMSYN082AAXX  09004 83182 32994 01407 10220 20117 39339 40164 333 10300 29053 55103 59016;EQDQ01  00002PRCP06
0196831820999992004080912004-11300-041870FM-12+074799999V0201401N005112200019N0100001N1+02361+01401101861ADDAA106000091GA1001+999999999GF100991001001999999001001KA1240N+01441MA1999999093611MD1999999-0081REMSYN070AAXX  09124 83182 32997 01410 10236 20140 39361 40186 333 20144 59008;EQDQ01  00002PRCP06
0186831820999992004081012004-11300-041870FM-12+074799999V0201401N007712200019N0100001N1+02181+01371102901ADDAA106000091GF102991021021008001001001KA1240N+01541MA1999999093701MD1999999+0091REMSYN076AAXX  10124 83182 32597 21415 10218 20137 39370 40290 82200 333 20154 58009;EQDQ01  00002PRCP06
0198831820999992004081100004-11300-041870FM-12+074799999V0201401N004112200019N0100001N1+01821+01291102071ADDAA106000091GF102991021051008001001001KA1240M+02681MA1999999093701MD1999999+0271REMSYN088AAXX  11004 83182 32597 21408 10182 20129 39370 40207 82500 333 10268 29071 55100 58027;EQDQ01  00002PRCP06
0186831820999992004081112004-11300-041867FM-12+074799999V0201801N005110075019N0100001N1+02031+01221102221ADDAA106000091GF106991061021008001001001KA1240N+01421MA1999999093821MD1999999+0121REMSYN076AAXX  11124 83182 32597 61810 10203 20122 39382 40222 86200 333 20142 58012;EQDQ01  00002PRCP06
0208831820999992004081200004-11300-041870FM-12+074799999V0201401N004112200019N0010001N1+01891+01191101981ADDAA106000091GA1001+999999999GF100991001001999999001001KA1240M+02701MA1999999093561MD1999999-0141REMSYN082AAXX  12004 83182 32994 01408 10189 20119 39356 40198 333 10270 29063 55099 59014;EQDQ01  00002PRCP06
0173831820999992004081212004-11300-041870FM-12+074799999V0201401N004112200019N0100001N1+02181+01241102111ADDAA106000091GF108991011021008001001011MA1999999093751MD1999999-0071REMSYN076AAXX  12124 83182 32597 81408 10218 20124 39375 40211 81201 333 2//// 59007;EQDQ01  00002PRCP06
0198831820999992004081300004-11300-041870FM-12+074799999V0201401N005719999999N0010001N1+01901+01031101941ADDAA106000091GF108991001001999999001011KA1240M+02671MA1999999093601MD1999999+0041REMSYN088AAXX  13004 83182 32994 81411 10190 20103 39360 40194 80001 333 10267 29056 55090 58004;EQDQ01  00002PRCP06
0186831820999992004081312004-11300-041870FM-12+074799999V0201401N006710075019N0100001N1+02041+01091102241ADDAA106000091GF108991061021008001001011KA1240N+01201MA1999999093841MD1999999+0091REMSYN076AAXX  13124 83182 32597 81413 10204 20109 39384 40224 86201 333 20120 58009;EQDQ01  00002PRCP06
0198831820999992004081400004-11300-041870FM-12+074799999V0200901N003119999999N0010001N1+01801+01161102011ADDAA106000091GF108991001001999999001011KA1240M+02581MA1999999093611MD1999999+0011REMSYN088AAXX  14004 83182 32994 80906 10180 20116 39361 40201 80001 333 10258 29062 55088 58001;EQDQ01  00002PRCP06
0186831820999992004081412004-11300-041870FM-12+074799999V0201801N00621220001CN0100001N1+01961+01091102181ADDAA106000091GF108991011021008001001041KA1240N+01101MA1999999093761MD1999999-0081REMSYN076AAXX  14124 83182 32597 81812 10196 20109 39376 40218 81204 333 20110 59008;EQDQ01  00002PRCP06
0198831820999992004081500004-11300-041870FM-12+074799999V0200901N004119999999N0010001N1+01881+00981101961ADDAA106000091GF108991001001999999001011KA1240M+02701MA1999999093561MD1999999-0051REMSYN088AAXX  15004 83182 32994 80908 10188 20098 39356 40196 80001 333 10270 29056 55098 59005;EQDQ01  00002PRCP06
0186831820999992004081512004-11300-041870FM-12+074799999V0201401N004610075019N0100001N1+02061+01231102181ADDAA106000091GF106991061021008001001001KA1240N+01141MA1999999093781MD1999999+0021REMSYN076AAXX  15124 83182 32597 61409 10206 20123 39378 40218 86200 333 20114 58002;EQDQ01  00002PRCP06
0208831820999992004081600004-11300-041870FM-12+074799999V0201401N004112200019N0010001N1+02001+01201101921ADDAA106000091GA1001+999999999GF100991001001999999001001KA1240M+02731MA1999999093561MD1999999+0001REMSYN082AAXX  16004 83182 32994 01408 10200 20120 39356 40192 333 10273 29060 55103 58000;EQDQ01  00002PRCP06
0186831820999992004081612004-11300-041870FM-12+074799999V0201401N004112200019N0100001N1+02161+01271102001ADDAA106000091GF101991011011012501001001KA1240N+01261MA1999999093661MD1999999-0121REMSYN076AAXX  16124 83182 32697 11408 10216 20127 39366 40200 81100 333 20126 59012;EQDQ01  00002PRCP06
0208831820999992004081700004-11300-041870FM-12+074799999V0200901N005112200019N0010001N1+02131+01291101571ADDAA106000091GA1001+999999999GF100991001001999999001001KA1240M+02931MA1999999093291MD1999999-0271REMSYN082AAXX  17004 83182 32994 00910 10213 20129 39329 40157 333 10293 29058 55107 59027;EQDQ01  00002PRCP06
0186831820999992004081712004-11300-041870FM-12+074799999V0201401N005712200019N0100001N1+02201+01361101911ADDAA106000091GF102991011011012501041001KA1240N+01301MA1999999093601MD1999999-0061REMSYN076AAXX  17124 83182 32697 21411 10220 20136 39360 40191 81140 333 20130 59006;EQDQ01  00002PRCP06
0208831820999992004081800004-11300-041870FM-12+074799999V0200901N004112200019N0010001N1+02191+01291101631ADDAA106000091GA1001+999999999GF100991001001999999001001KA1240M+03001MA1999999093361MD1999999+0071REMSYN082AAXX  18004 83182 32994 00908 10219 20129 39336 40163 333 10300 29058 55107 58007;EQDQ01  00002PRCP06
0186831820999992004081812004-11300-041870FM-12+074799999V0201401N005112200019N0100001N1+02161+01471101861ADDAA106000091GF101991011021008001001001KA1240N+01381MA1999999093571MD1999999-0031REMSYN076AAXX  18124 83182 32597 11410 10216 20147 39357 40186 81200 333 20138 59003;EQDQ01  00002PRCP06
0208831820999992004081900004-11300-041870FM-12+074799999V0200901N002612200019N0010001N1+02141+01591101771ADDAA106000091GA1001+999999999GF100991001001999999001001KA1240M+02901MA1999999093471MD1999999+0111REMSYN082AAXX  19004 83182 32994 00905 10214 20159 39347 40177 333 10290 29069 55086 58011;EQDQ01  00002PRCP06
0186831820999992004081912004-11300-041870FM-12+074799999V0201401N004612200019N0100001N1+02321+01421102001ADDAA106000091GF101991011011012501001001KA1240N+01361MA1999999093721MD1999999+0151REMSYN076AAXX  19124 83182 32697 11409 10232 20142 39372 40200 81100 333 20136 58015;EQDQ01  00002PRCP06
0208831820999992004082000004-11300-041870FM-12+074799999V0201401N004112200019N0010001N1+02201+01491101781ADDAA106000091GA1001+999999999GF100991001001999999001001KA1240M+03001MA1999999093521MD1999999+0051REMSYN082AAXX  20004 83182 32994 01408 10220 20149 39352 40178 333 10300 29062 55098 58005;EQDQ01  00002PRCP06
0186831820999992004082012004-11300-041870FM-12+074799999V0200901N005710075019N0100001N1+02301+01461101861ADDAA106000091GF107991071051008001001001KA1240N+01471MA1999999093611MD1999999-0111REMSYN076AAXX  20124 83182 32597 70911 10230 20146 39361 40186 87500 333 20147 59011;EQDQ01  00002PRCP06
0208831820999992004082100004-11300-041870FM-12+074799999V0200901N003612200019N0010001N1+02081+01541101691ADDAA106000091GA1001+999999999GF100991001001999999001001KA1240M+02921MA1999999093421MD1999999-0101REMSYN082AAXX  21004 83182 32994 00907 10208 20154 39342 40169 333 10292 29067 55090 59010;EQDQ01  00002PRCP06
0186831820999992004082112004-11300-041870FM-12+074799999V0201401N004610075019N0100001N1+02241+01291101891ADDAA106000091GF106991061021008001001001KA1240N+01541MA1999999093581MD1999999-0031REMSYN076AAXX  21124 83182 32597 61409 10224 20129 39358 40189 86200 333 20154 59003;EQDQ01  00002PRCP06
0208831820999992004082200004-11300-041870FM-12+074799999V0200901N005112200019N0010001N1+02201+01461101581ADDAA106000091GA1001+999999999GF100991001001999999001001KA1240M+03061MA1999999093321MD1999999-0101REMSYN082AAXX  22004 83182 32994 00910 10220 20146 39332 40158 333 10306 29060 55088 59010;EQDQ01  00002PRCP06
0186831820999992004082212004-11300-041870FM-12+074799999V0201401N003610075019N0100001N1+02211+01261101871ADDAA106000091GF106991061051008001001001KA1240N+01651MA1999999093571MD1999999-0011REMSYN076AAXX  22124 83182 32597 61407 10221 20126 39357 40187 86500 333 20165 59001;EQDQ01  00002PRCP06
0208831820999992004082300004-11300-041870FM-12+074799999V0200901N002612200019N0010001N1+02221+01331101521ADDAA106000091GA1001+999999999GF100991001001999999001001KA1240M+03021MA1999999093261MD1999999-0061REMSYN082AAXX  23004 83182 32994 00905 10222 20133 39326 40152 333 10302 29056 55070 59006;EQDQ01  00002PRCP06
0186831820999992004082312004-11300-041870FM-12+074799999V0201401N003612200019N0100001N1+02401+01521101741ADDAA106000091GF108991011021008001001011KA1240N+01361MA1999999093501MD1999999-0071REMSYN076AAXX  23124 83182 32597 81407 10240 20152 39350 40174 81201 333 20136 59007;EQDQ01  00002PRCP06
0198831820999992004082400004-11300-041870FM-12+074799999V0201401N003110450019N0010001N1+02381+01481101431ADDAA106000091GF108991011021008001041011KA1240M+03201MA1999999093251MD1999999-0011REMSYN088AAXX  24004 83182 32594 81406 10238 20148 39325 40143 81241 333 10320 29057 55108 59001;EQDQ01  00002PRCP06
0186831820999992004082412004-11300-041870FM-12+074799999V0201401N004112200019N0100001N1+02641+01631101531ADDAA106000091GF103991021001017501041011KA1240N+01561MA1999999093371MD1999999-0131REMSYN076AAXX  24124 83182 32797 31408 10264 20163 39337 40153 82041 333 20156 59013;EQDQ01  00002PRCP06
0198831820999992004082500004-11300-041870FM-12+074799999V0200901N002610450019N0010001N1+02601+01481101191ADDAA106000091GF108991041051008001041011KA1240M+03351MA1999999093091MD1999999-0161REMSYN088AAXX  25004 83182 32594 80905 10260 20148 39309 40119 84541 333 10335 29051 55102 59016;EQDQ01  00002PRCP06
0186831820999992004082512004-11300-041870FM-12+074799999V0201401N006212200019N0100001N1+02341+01571101601ADDAA106000091GF101991011011012501001001KA1240N+01571MA1999999093421MD1999999+0051REMSYN076AAXX  25124 83182 32697 11412 10234 20157 39342 40160 81100 333 20157 58005;EQDQ01  00002PRCP06
0198831820999992004082600004-11300-041867FM-12+074799999V0200901N004612200019N0010001N1+02261+01281101431ADDAA106000091GF101991011001017501041011KA1240M+03121MA1999999093211MD1999999+0121REMSYN088AAXX  26004 83182 32794 10909 10226 20128 39321 40143 81041 333 10312 29057 55105 58012;EQDQ01  00002PRCP06
0186831820999992004082612004-11300-041867FM-12+074799999V0201401N004612200019N0100001N1+02331+01251101631ADDAA106000091GF108991011011012501001011KA1240N+01301MA1999999093401MD1999999-0021REMSYN076AAXX  26124 83182 32697 81409 10233 20125 39340 40163 81101 333 20130 59002;EQDQ01  00002PRCP06
0198831820999992004082700004-11300-041867FM-12+074799999V0200901N003119999999N0010001N1+02161+00921101291ADDAA106000091GF108991001001999999001011KA1240M+03021MA1999999093061MD1999999-0151REMSYN088AAXX  27004 83182 32994 80906 10216 20092 39306 40129 80001 333 10302 29047 55108 59015;EQDQ01  00002PRCP06
0186831820999992004082712004-11300-041867FM-12+074799999V0201401N004612200019N0100001N1+02421+01461101521ADDAA106000091GF101991011011008001001001KA1240N+01251MA1999999093291MD1999999-0111REMSYN076AAXX  27124 83182 32597 11409 10242 20146 39329 40152 81100 333 20125 59011;EQDQ01  00002PRCP06
0208831820999992004082800004-11300-041867FM-12+074799999V0200901N005112200019N0010001N1+02401+01531101241ADDAA106000091GA1001+999999999GF100991001001999999001001KA1240M+03161MA1999999093071MD1999999+0011REMSYN082AAXX  28004 83182 32994 00910 10240 20153 39307 40124 333 10316 29053 55102 58001;EQDQ01  00002PRCP06
0186831820999992004082812004-11300-041867FM-12+074799999V0201401N002612200019N0100001N1+02421+01371101571ADDAA106000091GF101991011011012501001001KA1240N+01461MA1999999093371MD1999999+0081REMSYN076AAXX  28124 83182 32697 11405 10242 20137 39337 40157 81100 333 20146 58008;EQDQ01  00002PRCP06
0198831820999992004082900004-11300-041870FM-12+074799999V0200901N001012200019N0010001N1+02561+01361101101ADDAA106000091GF102991011021008001051001KA1240M+03361MA1999999092971MD1999999-0101REMSYN088AAXX  29004 83182 32594 20902 10256 20136 39297 40110 81250 333 10336 29047 55010 59010;EQDQ01  00002PRCP06
0196831820999992004082912004-11300-041870FM-12+074799999V0201401N001512200019N0100001N1+02751+01451101201ADDAA106000091GA1001+999999999GF100991001001999999001001KA1240N+01541MA1999999093121MD1999999-0251REMSYN070AAXX  29124 83182 32997 01403 10275 20145 39312 40120 333 20154 59025;EQDQ01  00002PRCP06
0198831820999992004083000004-11300-041870FM-12+074799999V0200901N002610150019N0010001N1+02611+00901101161ADDAA106000091GF108991071001017501051011KA1240M+03571MA1999999093101MD1999999+0131REMSYN088AAXX  30004 83182 32794 80905 10261 20090 39310 40116 87051 333 10357 29038 55106 58013;EQDQ01  00002PRCP06
0186831820999992004083012004-11300-041867FM-12+074799999V0201401N003112200019N0100001N1+02681+01701101371ADDAA106000091GF104991041021008001001001KA1240N+01901MA1999999093271MD1999999+0151REMSYN076AAXX  30124 83182 32597 41406 10268 20170 39327 40137 84200 333 20190 58015;EQDQ01  00002PRCP06
0198831820999992004083100004-11300-041867FM-12+074799999V0201401N004112200019N0010001N1+02451+01611101241ADDAA106000091GF108991041001017501051011KA1240M+03361MA1999999093121MD1999999+0021REMSYN088AAXX  31004 83182 32794 81408 10245 20161 39312 40124 84051 333 10336 29058 55074 58002;EQDQ01  00002PRCP06
0186831820999992004083112004-11300-041867FM-12+074799999V0201401N004110450019N0100001N1+02561+01441101581ADDAA106000091GF108991011021008001041011KA1240N+01641MA1999999093421MD1999999+0151REMSYN076AAXX  31124 83182 32597 81408 10256 20144 39342 40158 81241 333 20164 58015;EQDQ01  00002PRCP06
0198831820999992004090100004-11300-041867FM-12+074799999V0201401N003619999999N0010001N1+02151+01561101621ADDAA106000091GF108991001001999999001011KA1240M+02961MA1999999093401MD1999999+0281REMSYN088AAXX  01004 83182 32994 81407 10215 20156 39340 40162 80001 333 10296 29063 55088 58028;EQDQ01  00002PRCP06
0186831820999992004090112004-11300-041867FM-12+074799999V0201401N004110075019N0100001N1+02201+01441101931ADDAA106000091GF108991081051008001999999KA1240N+01341MA1999999093641MD1999999+0221REMSYN076AAXX  01124 83182 32597 81408 10220 20144 39364 40193 885// 333 20134 58022;EQDQ01  00002PRCP06
0198831820999992004090200004-11300-041867FM-12+074799999V0201401N006212200019N0010001N1+02091+01331101801ADDAA106000091GF108991011001017501041011KA1240M+02721MA1999999093501MD1999999+0101REMSYN088AAXX  02004 83182 32794 81412 10209 20133 39350 40180 81041 333 10272 29062 55037 58010;EQDQ01  00002PRCP06
0186831820999992004090212004-11300-041867FM-12+074799999V0201401N006212200019N0100001N1+02371+01201101691ADDAA106000091GF104991041021008001001001KA1240N+01381MA1999999093681MD1999999+0041REMSYN076AAXX  02124 83182 32597 41412 10237 20120 39368 40169 84200 333 20138 58004;EQDQ01  00002PRCP06
0208831820999992004090300004-11300-041867FM-12+074799999V0201401N003612200019N0010001N1+02101+01171101741ADDAA106000091GA1001+999999999GF100991001001999999001001KA1240M+02801MA1999999093481MD1999999-0021REMSYN082AAXX  03004 83182 32594 01407 10210 20117 39348 40174 333 10280 29053 55098 59002;EQDQ01  00002PRCP06
0186831820999992004090312004-11300-041867FM-12+074799999V0201401N005112200019N0100001N1+02171+01281101991ADDAA106000091GF103991031021008001001001KA1240N+01301MA1999999093671MD1999999-0011REMSYN076AAXX  03124 83182 32597 31410 10217 20128 39367 40199 83200 333 20130 59001;EQDQ01  00002PRCP06
0208831820999992004090400004-11300-041867FM-12+074799999V0201401N004112200019N0010001N1+02141+01031101151ADDAA106000091GA1001+999999999GF100991001001999999001001KA1240M+02961MA1999999093271MD1999999-0211REMSYN082AAXX  04004 83182 32994 01408 10214 20103 39327 40115 333 10296 29052 55107 59021;EQDQ01  00002PRCP06
0196831820999992004090412004-11300-041867FM-12+074799999V0201401N004112200019N0010001N1+02371+01141101641ADDAA106000091GA1001+999999999GF100991001001999999001001KA1240N+01181MA1999999093391MD1999999-0281REMSYN070AAXX  04124 83182 32994 01408 10237 20114 39339 40164 333 20118 59028;EQDQ01  00002PRCP06
0208831820999992004090500004-11300-041867FM-12+074799999V0200901N003112200019N0010001N1+02181+00871101491ADDAA106000091GA1001+999999999GF100991001001999999001001KA1240M+03201MA1999999093261MD1999999-0011REMSYN082AAXX  05004 83182 32994 00906 10218 20087 39326 40149 333 10320 29044 55107 59001;EQDQ01  00002PRCP06
0186831820999992004090512004-11300-041867FM-12+074799999V0201401N004112200019N0100001N1+02211+01151101691ADDAA106000091GF101991011011008001001001KA1240N+01201MA1999999093421MD1999999+0031REMSYN076AAXX  05124 83182 32597 11408 10221 20115 39342 40169 81100 333 20120 58003;EQDQ01  00002PRCP06
0208831820999992004090600004-11300-041867FM-12+074799999V0201401N002112200019N0010001N1+02021+01141101531ADDAA106000091GA1001+999999999GF100991001001999999001001KA1240M+02831MA1999999093241MD1999999-0031REMSYN082AAXX  06004 83182 32994 01404 10202 20114 39324 40153 333 10283 29055 55108 59003;EQDQ01  00002PRCP06
0186831820999992004090612004-11300-041867FM-12+074799999V0201401N004112200019N0100001N1+02361+01351101571ADDAA106000091GF102991021021008001001001KA1240N+01401MA1999999093311MD1999999-0111REMSYN076AAXX  06124 83182 32597 21408 10236 20135 39331 40157 82200 333 20140 59011;EQDQ01  00002PRCP06
0178831820999992004090700004-11300-041867FM-12+074799999V0200901N002612200019N0010001N1+02311+01241101141ADDAA106000091GF108991021001017501041011KA1240M+03101MA1999999092961REMSYN082AAXX  07004 83182 32794 80905 10231 20124 39296 40114 82041 333 10310 29052 55083;EQDQ01  00002PRCP06
0186831820999992004090712004-11300-041867FM-12+074799999V0201401N005119999999N0100001N1+02381+01341101381ADDAA106000091GF108991001001999999001011KA1240N+01401MA1999999093181MD1999999-0131REMSYN076AAXX  07124 83182 32997 81410 10238 20134 39318 40138 80001 333 20140 59013;EQDQ01  00002PRCP06
0198831820999992004090800004-11300-041867FM-12+074799999V0201401N003619999999N0010001N1+02231+01131101161ADDAA106000091GF108991001001999999001011KA1240M+03121MA1999999092961MD1999999+0001REMSYN088AAXX  08004 83182 32994 81407 10223 20113 39296 40116 80001 333 10312 29051 55107 58000;EQDQ01  00002PRCP06
0186831820999992004090812004-11300-041867FM-12+074799999V0201401N005712200019N0100001N1+02181+01261101471ADDAA106000091GF103991031021008001001001KA1240N+01321MA1999999093221MD1999999+0041REMSYN076AAXX  08124 83182 32597 31411 10218 20126 39322 40147 83200 333 20132 58004;EQDQ01  00002PRCP06
0186831820999992004090912004-11300-041867FM-12+074799999V0201401N007210075019N0100001N1+02211+01321101541ADDAA106000091GF107991071051008001001001KA1240N+01411MA1999999093281MD1999999+0061REMSYN076AAXX  09124 83182 32597 71414 10221 20132 39328 40154 87500 333 20141 58006;EQDQ01  00002PRCP06
0208831820999992004091000004-11300-041867FM-12+074799999V0200901N005112200019N0010001N1+02261+01111101401ADDAA106000091GA1001+999999999GF100991001001999999001001KA1240M+03041MA1999999093161MD1999999-0091REMSYN082AAXX  10004 83182 32994 00910 10226 20111 39316 40140 333 10304 29051 55105 59009;EQDQ01  00002PRCP06
0186831820999992004091012004-11300-041867FM-12+074799999V0201401N004612200019N0100001N1+02381+01121101631ADDAA106000091GF102991021021008001001001KA1240N+01261MA1999999093401MD1999999+0121REMSYN076AAXX  10124 83182 32597 21409 10238 20112 39340 40163 82200 333 20126 58012;EQDQ01  00002PRCP06
0208831820999992004091100004-11300-041867FM-12+074799999V0201401N006212200019N0010001N1+02241+01481101321ADDAA106000091GA1001+999999999GF100991001001999999001001KA1240M+03021MA1999999093111MD1999999-0051REMSYN082AAXX  11004 83182 32994 01412 10224 20148 39311 40132 333 10302 29056 55105 59005;EQDQ01  00002PRCP06
0186831820999992004091112004-11300-041867FM-12+074799999V0201401N005112200019N0100001N1+02401+01441101611ADDAA106000091GF108991041021008001001011KA1240N+01501MA1999999093381MD1999999-0021REMSYN076AAXX  11124 83182 32597 81410 10240 20144 39338 40161 84201 333 20150 59002;EQDQ01  00002PRCP06
0198831820999992004091200004-11300-041867FM-12+074799999V0200901N002619999999N0010001N1+02261+01201101421ADDAA106000091GF108991001001999999001011KA1240M+02981MA1999999093221MD1999999+0111REMSYN088AAXX  12004 83182 32994 80905 10226 20120 39322 40142 80001 333 10298 29052 55105 58011;EQDQ01  00002PRCP06
0186831820999992004091212004-11300-041870FM-12+074799999V0201401N004612200019N0100001N1+02481+01371101741ADDAA106000091GF108991021021008001001011KA1240N+01501MA1999999093521MD1999999+0141REMSYN076AAXX  12124 83182 32597 81409 10248 20137 39352 40174 82201 333 20150 58014;EQDQ01  00002PRCP06
0198831820999992004091300004-11300-041867FM-12+074799999V0201401N005119999999N0010001N1+02241+01211101731ADDAA106000091GF108991001001999999001011KA1240M+03021MA1999999093511MD1999999+0241REMSYN088AAXX  13004 83182 32994 81410 10224 20121 39351 40173 80001 333 10302 29051 55087 58024;EQDQ01  00002PRCP06
0186831820999992004091312004-11300-041867FM-12+074799999V0201401N006712200019N0100001N1+02401+01441101421ADDAA106000091GF108991021021008001001011KA1240N+01431MA1999999093201MD1999999-0321REMSYN076AAXX  13124 83182 32597 81413 10240 20144 39320 40142 82201 333 20143 59032;EQDQ01  00002PRCP06
0198831820999992004091400004-11300-041867FM-12+074799999V0201401N005119999999N0010001N1+02111+01471101721ADDAA106000091GF108991001001999999001011KA1240M+02961MA1999999093461MD1999999-0051REMSYN088AAXX  14004 83182 32994 81410 10211 20147 39346 40172 80001 333 10296 29063 55108 59005;EQDQ01  00002PRCP06
0186831820999992004091412004-11300-041867FM-12+074799999V0201401N004610075019N0100001N1+02301+01321101981ADDAA106000091GF106991061021008001001001KA1240N+01451MA1999999093681MD1999999-0021REMSYN076AAXX  14124 83182 32597 61409 10230 20132 39368 40198 86200 333 20145 59002;EQDQ01  00002PRCP06
0198831820999992004091500004-11300-041867FM-12+074799999V0201401N003612200019N0010001N1+02261+01371101671ADDAA106000091GF108991041001017501051011KA1240M+02921MA1999999093441MD1999999-0021REMSYN088AAXX  15004 83182 32794 81407 10226 20137 39344 40167 84051 333 10292 29056 55093 59002;EQDQ01  00002PRCP06
0186831820999992004091512004-11300-041867FM-12+074799999V0201401N005112200019N0100001N1+02481+01461101811ADDAA106000091GF104991041021008001001001KA1240N+01501MA1999999093581MD1999999-0101REMSYN076AAXX  15124 83182 32597 41410 10248 20146 39358 40181 84200 333 20150 59010;EQDQ01  00002PRCP06
0198831820999992004091600004-11300-041867FM-12+074799999V0201401N005719999999N0010001N1+02341+01551101421ADDAA106000091GF108991001001999999001011KA1240M+03101MA1999999093241MD1999999-0201REMSYN088AAXX  16004 83182 32994 81411 10234 20155 39324 40142 80001 333 10310 29058 55102 59020;EQDQ01  00002PRCP06
0202831820999992004091612004-11300-041867FM-12+074799999V0201401N004612200019N0100001N1+02291+01341101611ADDAA106000091GF102991999021008001001001KA1240N+01431MA1999999093381MD1999999-0201REMSYN076AAXX  16124 83182 32597 21409 10229 20134 39338 40161 83200 333 20143 59020;EQDQ01+000032SCOTLCQ02  00002PRCP06
0224831820999992004091700004-11300-041867FM-12+074799999V0201401N005112200019N0010001N1+02331+01171999999ADDAA106000091GA1001+999999999GF100991001001999999001001KA1240M+03121MA1999999093191MD1999999-0051REMSYN082AAXX  17004 83182 32994 01410 10233 20117 39319 40414 333 10312 29050 55108 59005;EQDQ01  00002PRCP06Q02 104143APOSLP
0186831820999992004091712004-11300-041867FM-12+074799999V0201401N003619999999N0100001N1+02571+01101101641ADDAA106000091GF108991001001999999001011KA1240N+01301MA1999999093451MD1999999+0071REMSYN076AAXX  17124 83182 32997 81407 10257 20110 39345 40164 80001 333 20130 58007;EQDQ01  00002PRCP06
0208831820999992004091800004-11300-041867FM-12+074799999V0201401N003612200019N0010001N1+02431+01081101381ADDAA106000091GA1001+999999999GF100991001001999999001001KA1240M+03201MA1999999093241MD1999999+0051REMSYN082AAXX  18004 83182 32994 01407 10243 20108 39324 40138 333 10320 29042 55108 58005;EQDQ01  00002PRCP06
0208831820999992004091900004-11300-041870FM-12+074799999V0201401N004112200019N0010001N1+02411+01481101381ADDAA106000091GA1001+999999999GF100991001001999999001001KA1240M+03161MA1999999093241MD1999999+0051REMSYN082AAXX  19004 83182 32594 01408 10241 20148 39324 40138 333 10316 29054 55104 58005;EQDQ01  00002PRCP06
0186831820999992004091912004-11300-041870FM-12+074799999V0201401N005119999999N0100001N1+02381+01281101601ADDAA106000091GF108991001001999999001011KA1240N+01481MA1999999093401MD1999999+0161REMSYN076AAXX  19124 83182 32997 81410 10238 20128 39340 40160 80001 333 20148 58016;EQDQ01  00002PRCP06
0208831820999992004092000004-11300-041870FM-12+074799999V0201401N004112200019N0010001N1+02331+01261101351ADDAA106000091GA1001+999999999GF100991001001999999001001KA1240M+03121MA1999999093151MD1999999-0091REMSYN082AAXX  20004 83182 32994 01408 10233 20126 39315 40135 333 10312 29052 55096 59009;EQDQ01  00002PRCP06
0186831820999992004092012004-11300-041867FM-12+074799999V0201401N005710075019N0100001N1+02481+01541101531ADDAA106000091GF108991061021008001001011KA1240N+01741MA1999999093341MD1999999-0061REMSYN076AAXX  20124 83182 32597 81411 10248 20154 39334 40153 86201 333 20174 59006;EQDQ01  00002PRCP06
0198831820999992004092100004-11300-041867FM-12+074799999V0200901N004619999999N0010001N1+02271+01441101411ADDAA106000091GF108991001001999999001011KA1240M+02941MA1999999093231MD1999999+0051REMSYN088AAXX  21004 83182 32994 80909 10227 20144 39323 40141 80001 333 10294 29059 55066 58005;EQDQ01  00002PRCP06
0208831820999992004092200004-11300-041867FM-12+074799999V0201401N004612200019N0010001N1+02361+01101101551ADDAA106000091GA1001+999999999GF100991001001999999001001KA1240M+03151MA1999999093351MD1999999+0121REMSYN082AAXX  22004 83182 32994 01409 10236 20110 39335 40155 333 10315 29047 55104 58012;EQDQ01  00002PRCP06
0186831820999992004092212004-11300-041867FM-12+074799999V0201401N004610075019N0100001N1+02361+01591101861ADDAA106000091GF106991061021008001001001KA1240N+01541MA1999999093611MD1999999+0141REMSYN076AAXX  22124 83182 32597 61409 10236 20159 39361 40186 86200 333 20154 58014;EQDQ01  00002PRCP06
0208831820999992004092300004-11300-041867FM-12+074799999V0200901N003112200019N0010001N1+02301+01511101641ADDAA106000091GA1001+999999999GF100991001001999999001001KA1240M+03051MA1999999093421MD1999999+0071REMSYN082AAXX  23004 83182 32994 00906 10230 20151 39342 40164 333 10305 29061 55098 58007;EQDQ01  00002PRCP06
0186831820999992004092312004-11300-041867FM-12+074799999V0201401N003612200019N0100001N1+02501+01501101741ADDAA106000091GF108991031021008001001011KA1240N+01681MA1999999093571MD1999999-0081REMSYN076AAXX  23124 83182 32597 81407 10250 20150 39357 40174 83201 333 20168 59008;EQDQ01  00002PRCP06
0198831820999992004092400004-11300-041867FM-12+074799999V0201401N004119999999N0010001N1+02381+01121101441ADDAA106000091GF108991001001999999001011KA1240M+03181MA1999999093281MD1999999-0141REMSYN088AAXX  24004 83182 32994 81408 10238 20112 39328 40144 80001 333 10318 29048 55104 59014;EQDQ01  00002PRCP06
0186831820999992004092412004-11300-041867FM-12+074799999V0201401N005112200019N0100001N1+02501+01391101591ADDAA106000091GF108991011011012501001011KA1240N+01581MA1999999093411MD1999999-0121REMSYN076AAXX  24124 83182 32697 81410 10250 20139 39341 40159 81101 333 20158 59012;EQDQ01  00002PRCP06
0198831820999992004092500004-11300-041867FM-12+074799999V0200901N004119999999N0010001N1+02341+01081101381ADDAA106000091GF108991001001999999001011KA1240M+03141MA1999999093201MD1999999-0081REMSYN088AAXX  25004 83182 32994 80908 10234 20108 39320 40138 80001 333 10314 29047 55108 59008;EQDQ01  00002PRCP06
0186831820999992004092512004-11300-041867FM-12+074799999V0201401N005112200019N0100001N1+02381+01241101611ADDAA106000091GF103991031011012501001001KA1240N+01481MA1999999093391MD1999999-0021REMSYN076AAXX  25124 83182 32697 31410 10238 20124 39339 40161 83100 333 20148 59002;EQDQ01  00002PRCP06
0198831820999992004092600004-11300-041867FM-12+074799999V0201401N002619999999N0010001N1+02261+00831101381ADDAA106000091GF108991001001999999001011KA1240M+03001MA1999999093161MD1999999-0041REMSYN088AAXX  26004 83182 32994 81405 10226 20083 39316 40138 80001 333 10300 29043 55101 59004;EQDQ01  00002PRCP06
0186831820999992004092612004-11300-041870FM-12+074799999V0201401N005712200019N0100001N1+02421+01191101721ADDAA106000091GF108991031051008001001011KA1240N+01531MA1999999093501MD1999999+0111REMSYN076AAXX  26124 83182 32597 81411 10242 20119 39350 40172 83501 333 20153 58011;EQDQ01  00002PRCP06
0198831820999992004092700004-11300-041870FM-12+074799999V0201401N004619999999N0010001N1+02211+01451101541ADDAA106000091GF108991001001999999001011KA1240M+02901MA1999999093311MD1999999+0151REMSYN088AAXX  27004 83182 32994 81409 10221 20145 39331 40154 80001 333 10290 29057 55079 58015;EQDQ01  00002PRCP06
0186831820999992004092712004-11300-041870FM-12+074799999V0201401N005112200019N0100001N1+02631+01441101631ADDAA106000091GF102991011021008001001011KA1240N+01461MA1999999093431MD1999999-0071REMSYN076AAXX  27124 83182 32597 21410 10263 20144 39343 40163 81201 333 20146 59007;EQDQ01  00002PRCP06
0208831820999992004092800004-11300-041867FM-12+074799999V0201401N004112200019N0010001N1+02331+01541101421ADDAA106000091GA1001+999999999GF100991001001999999001001KA1240M+03141MA1999999093271MD1999999-0041REMSYN082AAXX  28004 83182 32994 01408 10233 20154 39327 40142 333 10314 29057 55107 59004;EQDQ01  00002PRCP06
0186831820999992004092812004-11300-041867FM-12+074799999V0201401N004112200019N0100001N1+02441+01531101571ADDAA106000091GF102991021021999999001001KA1240N+01531MA1999999093371MD1999999-0061REMSYN076AAXX  28124 83182 32997 21408 10244 20153 39337 40157 82200 333 20153 59006;EQDQ01  00002PRCP06
0208831820999992004092900004-11300-041867FM-12+074799999V0200901N004112200019N0010001N1+02421+01221101111ADDAA106000091GA1001+999999999GF100991001001999999001001KA1240M+03171MA1999999092971MD1999999-0301REMSYN082AAXX  29004 83182 32994 00908 10242 20122 39297 40111 333 10317 29/// 55086 59030;EQDQ01  00002PRCP06
0202831820999992004092912004-11300-041867FM-12+074799999V0201401N004112200019N0100001N1+02571+01351101261ADDAA106000091GF102991999011012501001001KA1240N+01491MA1999999093171MD1999999-0201REMSYN076AAXX  29124 83182 32697 21408 10257 20135 39317 40126 81100 333 20149 59020;EQDQ01+000012SCOTLCQ02  00002PRCP06
0198831820999992004093000004-11300-041867FM-12+074799999V0200901N004112200019N0010001N1+02631+01231100891ADDAA106000091GF101991011011012501001001KA1240M+03371MA1999999092821MD1999999-0151REMSYN088AAXX  30004 83182 32694 10908 10263 20123 39282 40089 81100 333 10337 29/// 55107 59015;EQDQ01  00002PRCP06
0186831820999992004093012004-11300-041867FM-12+074799999V0201401N005112200019N0100001N1+02461+01521101251ADDAA106000091GF108991011011012501001011KA1240N+01661MA1999999093131MD1999999-0041REMSYN076AAXX  30124 83182 32697 81410 10246 20152 39313 40125 81101 333 20166 59004;EQDQ01  00002PRCP06
0198831820999992004100100004-11300-041867FM-12+074799999V0201401N005119999999N0010001N1+02461+01221101131ADDAA106000091GF108991001001999999001011KA1240M+03251MA1999999092991MD1999999+0171REMSYN088AAXX  01004 83182 32994 81410 10246 20122 39299 40113 80001 333 10325 29/// 55107 58017;EQDQ01  00002PRCP06
0186831820999992004100112004-11300-041867FM-12+074799999V0201401N005710075019N0100001N1+02481+01401101481ADDAA106000091GF106991061021008001001001KA1240N+01601MA1999999093311MD1999999+0181REMSYN076AAXX  01124 83182 32597 61411 10248 20140 39331 40148 86200 333 20160 58018;EQDQ01  00002PRCP06
0208831820999992004100200004-11300-041867FM-12+074799999V0200901N004112200019N0010001N1+02251+01361101241ADDAA106000091GA1001+999999999GF100991001001999999001001KA1240M+03041MA1999999093151MD1999999+0161REMSYN082AAXX  02004 83182 32994 00908 10225 20136 39315 40124 333 10304 29/// 55104 58016;EQDQ01  00002PRCP06
0186831820999992004100212004-11300-041867FM-12+074799999V0201401N005712200019N0100001N1+02441+01201101481ADDAA106000091GF103991031021008001001001KA1240N+01341MA1999999093271MD1999999-0041REMSYN076AAXX  02124 83182 32597 31411 10244 20120 39327 40148 83200 333 20134 59004;EQDQ01  00002PRCP06
0198831820999992004100300004-11300-041867FM-12+074799999V0201401N005119999999N0010001N1+02341+01211101261ADDAA106000091GF108991001001999999001011KA1240M+03021MA1999999093091MD1999999-0061REMSYN088AAXX  03004 83182 32994 81410 10234 20121 39309 40126 80001 333 10302 29/// 55109 59006;EQDQ01  00002PRCP06
0186831820999992004100312004-11300-041867FM-12+074799999V0201401N004119999999N0100001N1+02581+01461101331ADDAA106000091GF108991001001999999001011KA1240N+01521MA1999999093171MD1999999-0101REMSYN076AAXX  03124 83182 32997 81408 10258 20146 39317 40133 80001 333 20152 59010;EQDQ01  00002PRCP06
0198831820999992004100400004-11300-041870FM-12+074799999V0200901N004119999999N0010001N1+02611+01251100811ADDAA106000091GF108991001001999999001011KA1240M+03401MA1999999092811MD1999999-0281REMSYN088AAXX  04004 83182 32994 80908 10261 20125 39281 40081 80001 333 10340 29/// 55109 59028;EQDQ01  00002PRCP06
0186831820999992004100412004-11300-041867FM-12+074799999V0200901N004612200019N0100001N1+02641+01511101211ADDAA106000091GF108991011011012501001011KA1240N+01601MA1999999093111MD1999999-0061REMSYN076AAXX  04124 83182 32697 80909 10264 20151 39311 40121 81101 333 20160 59006;EQDQ01  00002PRCP06
0198831820999992004100500004-11300-041867FM-12+074799999V0200901N004119999999N0010001N1+02661+01401100981ADDAA106000091GF108991001001999999001011KA1240M+03421MA1999999092911MD1999999+0101REMSYN088AAXX  05004 83182 32994 80908 10266 20140 39291 40098 80001 333 10342 29/// 55110 58010;EQDQ01  00002PRCP06
0186831820999992004100512004-11300-041867FM-12+074799999V0201401N004612200019N0100001N1+02571+01471101241ADDAA106000091GF108991011021008001001011KA1240N+01631MA1999999093141MD1999999+0031REMSYN076AAXX  05124 83182 32597 81409 10257 20147 39314 40124 81201 333 20163 58003;EQDQ01  00002PRCP06
0198831820999992004100600004-11300-041867FM-12+074799999V0201401N003112200019N0010001N1+02681+01321101001ADDAA106000091GF108991011021008001001011KA1240M+03251MA1999999092921MD1999999+0011REMSYN088AAXX  06004 83182 32594 81406 10268 20132 39292 40100 81201 333 10325 29/// 55099 58001;EQDQ01  00002PRCP06
0190831820999992004100612004-11300-041867FM-12+074799999V0201401N001510450019N0100001N1+02131+01721101291ADDAY161061AY221061GF108991031071004501021999KA1240N+01771MA1999999093121MD1999999-0021MW1021REMSYN088AAXX  06124 83182 21497 81403 10213 20172 39312 40129 70262 8372/ 333 20177 59002 60024;
0198831820999992004100700004-11300-041867FM-12+074799999V0201401N004110450019N0010001N1+02331+02021101151ADDAA106000091GF108991021051008001061011KA1240M+03001MA1999999092941MD1999999+0021REMSYN088AAXX  07004 83182 32594 81408 10233 20202 39294 40115 82561 333 10300 29/// 55013 58002;EQDQ01  00002PRCP06
0186831820999992004100712004-11300-041867FM-12+074799999V0201401N003110075019N0100001N1+02381+01781101371ADDAA106000091GF108991081051008001999999KA1240N+01831MA1999999093171MD1999999+0051REMSYN076AAXX  07124 83182 32597 81406 10238 20178 39317 40137 885// 333 20183 58005;EQDQ01  00002PRCP06
0198831820999992004100800004-11300-041867FM-12+074799999V0200901N002110075019N0010001N1+02441+01591101111ADDAA106000091GF108991081051008001999999KA1240M+02981MA1999999092951MD1999999+0011REMSYN088AAXX  08004 83182 32594 80904 10244 20159 39295 40111 885// 333 10298 29/// 55015 58001;EQDQ01  00002PRCP06
0186831820999992004100812004-11300-041867FM-12+074799999V0200901N002110075019N0100001N1+02681+01781101241ADDAA106000091GF108991051021008001001011KA1240N+01821MA1999999093121MD1999999-0051REMSYN076AAXX  08124 83182 32597 80904 10268 20178 39312 40124 85201 333 20182 59005;EQDQ01  00002PRCP06
0226831820999992004100900004-11300-041867FM-12+074799999V0201401N004110450019N0010001N1+02361+01851101251ADDAA106000091AY121061AY221061GF108991031031008001021999KA1240M+03221MA1999999093121MD1999999+0171MW1131REMSYN094AAXX  09004 83182 31594 81408 10236 20185 39312 40125 71322 8332/ 333 10322 29/// 55043 58017;EQDQ01  00002PRCP06
0186831820999992004100912004-11300-041867FM-12+074799999V0201801N005110075019N0100001N1+02471+01771101521ADDAA106000091GF108991081051008001999999KA1240N+01861MA1999999093331MD1999999+0211REMSYN076AAXX  09124 83182 32597 81810 10247 20177 39333 40152 885// 333 20186 58021;EQDQ01  00002PRCP06
0198831820999992004101000004-11300-041867FM-12+074799999V0200901N004119999999N0010001N1+02331+01771101311ADDAA106000091GF108991001001999999001011KA1240M+02981MA1999999093141MD1999999+0021REMSYN088AAXX  10004 83182 32994 80908 10233 20177 39314 40131 80001 333 10298 29/// 55033 58002;EQDQ01  00002PRCP06
0186831820999992004101012004-11300-041867FM-12+074799999V0200901N005710450019N0100001N1+02601+01741101511ADDAA106000091GF106991021021008001031011KA1240N+01881MA1999999093341MD1999999+0011REMSYN076AAXX  10124 83182 32597 60911 10260 20174 39334 40151 82231 333 20188 58001;EQDQ01  00002PRCP06
0198831820999992004101100004-11300-041867FM-12+074799999V0201401N003119999999N0010001N1+02531+01401101221ADDAA106000091GF108991001001999999001011KA1240M+03341MA1999999093101MD1999999-0041REMSYN088AAXX  11004 83182 32994 81406 10253 20140 39310 40122 80001 333 10334 29/// 55083 59004;EQDQ01  00002PRCP06
0196831820999992004101112004-11300-041870FM-12+074799999V0200901N004112200019N0100001N1+02741+01611101201ADDAA106000091GA1001+999999999GF100991001001999999001001KA1240N+01681MA1999999093121MD1999999-0221REMSYN070AAXX  11124 83182 32997 00908 10274 20161 39312 40120 333 20168 59022;EQDQ01  00002PRCP06
0208831820999992004101200004-11300-041870FM-12+074799999V0200901N003112200019N0010001N1+02581+01231101051ADDAA106000091GA1001+999999999GF100991001001999999001001KA1240M+03441MA1999999092961MD1999999-0121REMSYN082AAXX  12004 83182 32994 00906 10258 20123 39296 40105 333 10344 29/// 55101 59012;EQDQ01  00002PRCP06
0208831820999992004101300004-11300-041867FM-12+074799999V0201401N004112200019N0010001N1+02501+01221101061ADDAA106000091GA1001+999999999GF100991001001999999001001KA1240M+03351MA1999999092971MD1999999-0011REMSYN082AAXX  13004 83182 32994 01408 10250 20122 39297 40106 333 10335 29/// 55109 59001;EQDQ01  00002PRCP06
0196831820999992004101312004-11300-041867FM-12+074799999V0200901N005712200019N0100001N1+02681+01211101351ADDAA106000091GA1001+999999999GF100991001001999999001001KA1240N+01581MA1999999093241MD1999999+0101REMSYN070AAXX  13124 83182 32997 00911 10268 20121 39324 40135 333 20158 58010;EQDQ01  00002PRCP06
0208831820999992004101400004-11300-041867FM-12+074799999V0200901N005112200019N0010001N1+02461+01081101021ADDAA106000091GA1001+999999999GF100991001001999999001001KA1240M+03221MA1999999092921MD1999999-0051REMSYN082AAXX  14004 83182 32994 00910 10246 20108 39292 40102 333 10322 29/// 55110 59005;EQDQ01  00002PRCP06
0196831820999992004101412004-11300-041867FM-12+074799999V0201401N003112200019N0100001N1+02621+01351101291ADDAA106000091GA1001+999999999GF100991001001999999001001KA1240N+01401MA1999999093171MD1999999-0071REMSYN070AAXX  14124 83182 32997 01406 10262 20135 39317 40129 333 20140 59007;EQDQ01  00002PRCP06
0208831820999992004101500004-11300-041867FM-12+074799999V0200901N005112200019N0010001N1+02661+00951100961ADDAA106000091GA1001+999999999GF100991001001999999001001KA1240M+03381MA1999999092901MD1999999-0021REMSYN082AAXX  15004 83182 32994 00910 10266 20095 39290 40096 333 10338 29/// 55110 59002;EQDQ01  00002PRCP06
0186831820999992004101512004-11300-041867FM-12+074799999V0201401N004110075019N0100001N1+02571+01571101311ADDAA106000091GF107991071021008001001001KA1240N+01771MA1999999093201MD1999999+0031REMSYN076AAXX  15124 83182 32597 71408 10257 20157 39320 40131 87200 333 20177 58003;EQDQ01  00002PRCP06
0208831820999992004101600004-11300-041867FM-12+074799999V0201401N005712200019N0010001N1+02471+01581101121ADDAA106000091GA1001+999999999GF100991001001999999001001KA1240M+03381MA1999999092991MD1999999-0091REMSYN082AAXX  16004 83182 32994 01411 10247 20158 39299 40112 333 10338 29/// 55098 59009;EQDQ01  00002PRCP06
0186831820999992004101612004-11300-041870FM-12+074799999V0201401N005712200019N0100001N1+02691+01451101331ADDAA106000091GF101991011021008001001001KA1240N+01681MA1999999093221MD1999999+0021REMSYN076AAXX  16124 83182 32597 11411 10269 20145 39322 40133 81200 333 20168 58002;EQDQ01  00002PRCP06
0208831820999992004101700004-11300-041870FM-12+074799999V0201401N005112200019N0010001N1+02391+01251101121ADDAA106000091GA1001+999999999GF100991001001999999001001KA1240M+03101MA1999999093011MD1999999+0021REMSYN082AAXX  17004 83182 32994 01410 10239 20125 39301 40112 333 10310 29/// 55107 58002;EQDQ01  00002PRCP06
0186831820999992004101712004-11300-041870FM-12+074799999V0200901N005112200019N0100001N1+02511+01451101351ADDAA106000091GF103991031021008001001001KA1240N+01611MA1999999093191MD1999999-0031REMSYN076AAXX  17124 83182 32597 30910 10251 20145 39319 40135 83200 333 20161 59003;EQDQ01  00002PRCP06
0208831820999992004101800004-11300-041867FM-12+074799999V0200901N004112200019N0010001N1+02501+01191100911ADDAA106000091GA1001+999999999GF100991001001999999001001KA1240M+03281MA1999999092801MD1999999-0211REMSYN082AAXX  18004 83182 32994 00908 10250 20119 39280 40091 333 10328 29/// 55111 59021;EQDQ01  00002PRCP06
0196831820999992004101812004-11300-041867FM-12+074799999V0200901N003612200019N0100001N1+02561+01411101201ADDAA106000091GA1001+999999999GF100991001001999999001001KA1240N+01551MA1999999093081MD1999999+0071REMSYN070AAXX  18124 83182 32997 00907 10256 20141 39308 40120 333 20155 58007;EQDQ01  00002PRCP06
0208831820999992004101900004-11300-041867FM-12+074799999V0200901N004612200019N0010001N1+02701+01371100961ADDAA106000091GA1001+999999999GF100991001001999999001001KA1240M+03271MA1999999092881MD1999999+0081REMSYN082AAXX  19004 83182 32994 00909 10270 20137 39288 40096 333 10327 29/// 55102 58008;EQDQ01  00002PRCP06
0198831820999992004102000004-11300-041867FM-12+074799999V0200901N003612200019N0010001N1+02761+01561101051ADDAA106000091GF108991041001017501051011KA1240M+03431MA1999999093001MD1999999+0121REMSYN088AAXX  20004 83182 32794 80907 10276 20156 39300 40105 84051 333 10343 29/// 55104 58012;EQDQ01  00002PRCP06
0156831820999992004102012004-11300-041867FM-12+074799999V0201401N003119999999N0100001N1+02651+99999999999ADDAA106000091GF108991999999017501999999KA1240N+01881REMSYN075AAXX  20124 83182 32797 81406 10265 2067 39309 40115 85051 333 20188 59007;EQDQ01  00002PRCP06
0224831820999992004102100004-11300-041867FM-12+074799999V0200901N003112200019N0010001N1+02541+01361101011ADDAA106000091GA1001+999999999GF100991001001999999001001KA1240M+99999MA1999999092931MD1999999-0071REMSYN082AAXX  21004 83182 32994 00906 10254 20136 39293 40101 333 10222 29/// 55095 59007;EQDQ01  00002PRCP06Q02 +02222ATMX  
0186831820999992004102112004-11300-041867FM-12+074799999V0201401N006219999999N0100001N1+02531+01471101411ADDAA106000091GF108991001001999999001011KA1240N+01771MA1999999093261MD1999999+0171REMSYN076AAXX  21124 83182 32997 81412 10253 20147 39326 40141 80001 333 20177 58017;EQDQ01  00002PRCP06
0208831820999992004102200004-11300-041867FM-12+074799999V0200901N003612200019N0010001N1+02591+01131101211ADDAA106000091GA1001+999999999GF100991001001999999001001KA1240M+03401MA1999999093111MD1999999+0181REMSYN082AAXX  22004 83182 32994 00907 10259 20113 39311 40121 333 10340 29/// 55100 58018;EQDQ01  00002PRCP06
0186831820999992004102212004-11300-041867FM-12+074799999V0200901N005710075019N0100001N1+02441+01591101451ADDAA106000091GF108991081051008001999999KA1240N+01661MA1999999093301MD1999999+0041REMSYN076AAXX  22124 83182 32597 80911 10244 20159 39330 40145 885// 333 20166 58004;EQDQ01  00002PRCP06
0198831820999992004102300004-11300-041867FM-12+074799999V0201401N005110450019N0100001N1+02231+01821101391ADDAA106000091GF108991011051008001041011KA1240M+02781MA1999999093191MD1999999+0081REMSYN088AAXX  23004 83182 32597 81410 10223 20182 39319 40139 81541 333 10278 29/// 55036 58008;EQDQ01  00002PRCP06
0208831820999992004102400004-11300-041867FM-12+074799999V0201401N005112200019N0010001N1+02241+01691101251ADDAA106000091GA1001+999999999GF100991001001999999001001KA1240M+02941MA1999999093091MD1999999-0131REMSYN082AAXX  24004 83182 32994 01410 10224 20169 39309 40125 333 10294 29/// 55056 59013;EQDQ01  00002PRCP06
0186831820999992004102412004-11300-041867FM-12+074799999V0201401N004110075019N0100001N1+02581+01391101261ADDAA106000091GF107991071021008001001001KA1240N+01621MA1999999093091MD1999999-0091REMSYN076AAXX  24124 83182 32597 71408 10258 20139 39309 40126 87200 333 20162 59009;EQDQ01  00002PRCP06
0208831820999992004102500004-11300-041867FM-12+074799999V0201401N002612200019N0010001N1+02461+01521100891ADDAA106000091GA1001+999999999GF100991001001999999001001KA1240M+03301MA1999999092781MD1999999-0311REMSYN082AAXX  25004 83182 32994 01405 10246 20152 39278 40089 333 10330 29/// 55086 59031;EQDQ01  00002PRCP06
0186831820999992004102512004-11300-041867FM-12+074799999V0201401N003110450019N0100001N1+02741+01441101141ADDAA106000091GF108991011021008001041011KA1240N+01741MA1999999093051MD1999999-0041REMSYN076AAXX  25124 83182 32597 81406 10274 20144 39305 40114 81241 333 20174 59004;EQDQ01  00002PRCP06
0198831820999992004102600004-11300-041867FM-12+074799999V0200901N003110075019N0010001N1+02751+01301100711ADDAA106000091GF106991061051008001001001KA1240M+03401MA1999999092701MD1999999-0081REMSYN088AAXX  26004 83182 32594 60906 10275 20130 39270 40071 86500 333 10340 29/// 55109 59008;EQDQ01  00002PRCP06
0186831820999992004102612004-11300-041867FM-12+074799999V0200901N002110075019N0100001N1+02631+01711101061ADDAA106000091GF108991061021008001001011KA1240N+01921MA1999999093011MD1999999-0041REMSYN076AAXX  26124 83182 32597 80904 10263 20171 39301 40106 86201 333 20192 59004;EQDQ01  00002PRCP06
0198831820999992004102700004-11300-041867FM-12+074799999V0203201N003610450019N0010001N1+02341+01851101121ADDAA106000091GF108991011051008001031021KA1240M+03221MA1999999092991MD1999999+0291REMSYN088AAXX  27004 83182 32594 83207 10234 20185 39299 40112 81532 333 10322 29/// 55065 58029;EQDQ01  00002PRCP06
0186831820999992004102712004-11300-041867FM-12+074799999V0200901N004110075019N0100001N1+02841+01731101191ADDAA106000091GF108991061021008001061011KA1240N+01941MA1999999093091MD1999999+0091REMSYN076AAXX  27124 83182 32597 80908 10284 20173 39309 40119 86261 333 20194 58009;EQDQ01  00002PRCP06
0190831820999992004102812004-11300-041867FM-12+074799999V0201401N002610042019N0100001N1+02141+01901101551ADDAY161061AY261061GF108991061071004501021999KA1240N+01861MA1999999093271MD1999999+0181MW1211REMSYN088AAXX  28124 83182 21497 81405 10214 20190 39327 40155 72166 8672/ 333 20186 58018 60154;
0202831820999992004102900004-11300-041867FM-12+074799999V0201401N001510450019N0010001N1+02401+01931101181ADDAY161061AY221061GF108991011021008001041011KA1240M+03101MA1999999092961MD1999999-0151MW1021REMSYN100AAXX  29004 83182 21594 81403 10240 20193 39296 40118 70262 81241 333 10310 29/// 55036 59015 60041;
0162831820999992004102912004-11300-041867FM-12+074799999V0200901N005110075019N0100001N1+02561+01751101381ADDGF108991051021008001001011KA1240N+01841MA1999999093241MD1999999-0031REMSYN082AAXX  29124 83182 22597 80910 10256 20175 39324 40138 85201 333 20184 59003 60044;
0198831820999992004103000004-11300-041867FM-12+074799999V0201401N006210450019N0010001N1+02441+01561101251ADDAA106000091GF108991011021008001041011KA1240M+03141MA1999999093121MD1999999+0161REMSYN088AAXX  30004 83182 32594 81412 10244 20156 39312 40125 81241 333 10314 29/// 55092 58016;EQDQ01  00002PRCP06
0186831820999992004103012004-11300-041867FM-12+074799999V0201401N007710075019N0100001N1+02461+01631101481ADDAA106000091GF106991061051008001001001KA1240N+01821MA1999999093351MD1999999+0071REMSYN076AAXX  30124 83182 32597 61415 10246 20163 39335 40148 86500 333 20182 58007;EQDQ01  00002PRCP06
0208831820999992004103100004-11300-041870FM-12+074799999V0201401N004112200019N0010001N1+02341+01601101291ADDAA106000091GA1001+999999999GF100991001001999999001001KA1240M+03121MA1999999093121MD1999999+0001REMSYN082AAXX  31004 83182 32994 01408 10234 20160 39312 40129 333 10312 29/// 55092 58000;EQDQ01  00002PRCP06
0196831820999992004103112004-11300-041870FM-12+074799999V0201401N004612200019N0100001N1+02501+01451101511ADDAA106000091GA1001+999999999GF100991001001999999001001KA1240N+01631MA1999999093321MD1999999+0011REMSYN070AAXX  31124 83182 32997 01409 10250 20145 39332 40151 333 20163 58001;EQDQ01  00002PRCP06
0208831820999992004110100004-11300-041870FM-12+074799999V0200901N002612200019N0010001N1+02501+01191101121ADDAA106000091GA1001+999999999GF100991001001999999001001KA1240M+03241MA1999999093001MD1999999-0121REMSYN082AAXX  01004 83182 32994 00905 10250 20119 39300 40112 333 10324 29/// 55112 59012;EQDQ01  00002PRCP06
0196831820999992004110112004-11300-041870FM-12+074799999V0200901N003612200019N0010001N1+02661+01531101351ADDAA106000091GA1001+999999999GF100991001001999999001001KA1240N+01621MA1999999093241MD1999999-0081REMSYN070AAXX  01124 83182 32994 00907 10266 20153 39324 40135 333 20162 59008;EQDQ01  00002PRCP06
0208831820999992004110200004-11300-041867FM-12+074799999V0200901N005112200019N0010001N1+02581+01461101001ADDAA106000091GA1001+999999999GF100991001001999999001001KA1240M+03421MA1999999092921MD1999999-0081REMSYN082AAXX  02004 83182 32994 00910 10258 20146 39292 40100 333 10342 29/// 55114 59008;EQDQ01  00002PRCP06
0186831820999992004110212004-11300-041867FM-12+074799999V0201401N005712200019N0100001N1+02531+01411101241ADDAA106000091GF101991011011012501001001KA1240N+01701MA1999999093121MD1999999-0121REMSYN076AAXX  02124 83182 32697 11411 10253 20141 39312 40124 81100 333 20170 59012;EQDQ01  00002PRCP06
0208831820999992004110300004-11300-041867FM-12+074799999V0200901N002612200019N0010001N1+02501+01191101021ADDAA106000091GA1001+999999999GF100991001001999999001001KA1240M+03251MA1999999092901MD1999999-0021REMSYN082AAXX  03004 83182 32994 00905 10250 20119 39290 40102 333 10325 29/// 55114 59002;EQDQ01  00002PRCP06
0186831820999992004110312004-11300-041867FM-12+074799999V0200901N007212200019N0100001N1+02551+01331101321ADDAA106000091GF101991011011012501001001KA1240N+01541MA1999999093201MD1999999+0081REMSYN076AAXX  03124 83182 32697 10914 10255 20133 39320 40132 81100 333 20154 58008;EQDQ01  00002PRCP06
0208831820999992004110400004-11300-041867FM-12+074799999V0201401N003112200019N0010001N1+02521+01141101081ADDAA106000091GA1001+999999999GF100991001001999999001001KA1240M+03201MA1999999092971MD1999999+0071REMSYN082AAXX  04004 83182 32994 01406 10252 20114 39297 40108 333 10320 29/// 55112 58007;EQDQ01  00002PRCP06
0186831820999992004110412004-11300-041867FM-12+074799999V0200901N006712200019N0100001N1+02701+01411101241ADDAA106000091GF108991021021008001001011KA1240N+01661MA1999999093141MD1999999-0061REMSYN076AAXX  04124 83182 32597 80913 10270 20141 39314 40124 82201 333 20166 59006;EQDQ01  00002PRCP06
0198831820999992004110500004-11300-041867FM-12+074799999V0200901N004119999999N0010001N1+02581+01121100961ADDAA106000091GF108991001001999999001011KA1240M+03341MA1999999092901MD1999999-0071REMSYN088AAXX  05004 83182 32994 80908 10258 20112 39290 40096 80001 333 10334 29/// 55115 59007;EQDQ01  00002PRCP06
0186831820999992004110512004-11300-041867FM-12+074799999V0200901N005712200019N0100001N1+02711+01551101301ADDAA106000091GF101991011011012501001001KA1240N+01761MA1999999093211MD1999999+0071REMSYN076AAXX  05124 83182 32697 10911 10271 20155 39321 40130 81100 333 20176 58007;EQDQ01  00002PRCP06
0198831820999992004110600004-11300-041867FM-12+074799999V0200901N004119999999N0010001N1+02601+01381101081ADDAA106000091GF108991001001999999001011KA1240M+03371MA1999999093011MD1999999+0111REMSYN088AAXX  06004 83182 32994 80908 10260 20138 39301 40108 80001 333 10337 29/// 55114 58011;EQDQ01  00002PRCP06
0186831820999992004110612004-11300-041867FM-12+074799999V0201401N005112200019N0100001N1+02781+01611101181ADDAA106000091GF108991011021008001001011KA1240N+01741MA1999999093121MD1999999-0091REMSYN076AAXX  06124 83182 32597 81410 10278 20161 39312 40118 81201 333 20174 59009;EQDQ01  00002PRCP06
0198831820999992004110700004-11300-041867FM-12+074799999V0200901N003619999999N0010001N1+02631+01121101081ADDAA106000091GF108991001001999999001011KA1240M+03381MA1999999092791MD1999999-0221REMSYN088AAXX  07004 83182 32994 80907 10263 20112 39279 40108 80001 333 10338 29/// 55108 59022;EQDQ01  00002PRCP06
0186831820999992004110712004-11300-041867FM-12+074799999V0200901N003612200019N0100001N1+02861+01681101081ADDAA106000091GF105991021021008001001041KA1240N+01781MA1999999093031MD1999999-0091REMSYN076AAXX  07124 83182 32597 50907 10286 20168 39303 40108 82204 333 20178 59009;EQDQ01  00002PRCP06
0208831820999992004110800004-11300-041870FM-12+074799999V0200901N004112200019N0010001N1+02681+01581100961ADDAA106000091GA1001+999999999GF100991001001999999001001KA1240M+03401MA1999999092941MD1999999+0151REMSYN082AAXX  08004 83182 32994 00908 10268 20158 39294 40096 333 10340 29/// 55106 58015;EQDQ01  00002PRCP06
0186831820999992004110812004-11300-041870FM-12+074799999V0200901N006710075019N0100001N1+02671+01691101181ADDAA106000091GF106991061021008001001001KA1240N+01901MA1999999093121MD1999999+0091REMSYN076AAXX  08124 83182 32597 60913 10267 20169 39312 40118 86200 333 20190 58009;EQDQ01  00002PRCP06
0208831820999992004110900004-11300-041867FM-12+074799999V0200901N007212200019N0010001N1+02561+01671100971ADDAA106000091GA1001+999999999GF100991001001999999001001KA1240M+03321MA1999999092911MD1999999-0031REMSYN082AAXX  09004 83182 32994 00914 10256 20167 39291 40097 333 10332 29/// 55108 59003;EQDQ01  00002PRCP06
0186831820999992004110912004-11300-041867FM-12+074799999V0200901N008219999999N0100001N1+02641+01421101311ADDAA106000091GF108991011021999999001011KA1240N+01681MA1999999093201MD1999999+0081REMSYN076AAXX  09124 83182 32997 80916 10264 20142 39320 40131 81201 333 20168 58008;EQDQ01  00002PRCP06
0198831820999992004111000004-11300-041867FM-12+074799999V0200901N005119999999N0010001N1+02431+01231101151ADDAA106000091GF108991001001999999001011KA1240M+03261MA1999999093021MD1999999+0111REMSYN088AAXX  10004 83182 32994 80910 10243 20123 39302 40115 80001 333 10326 29/// 55114 58011;EQDQ01  00002PRCP06
0186831820999992004111012004-11300-041867FM-12+074799999V02099999999992200019N0100001N1+02501+01221101341ADDAA106000091GF102991011021008001051001KA1240N+01441MA1999999093981MD1999999-0021REMSYN076AAXX  10124 83182 32597 209// 10250 20122 39398 40134 81250 333 20144 59002;EQDQ01  00002PRCP06
0193831820999992004111100004-11300-041867FM-12+074799999V0201401N002612200019N0010001N1+02421+01221101131ADDAA106000091GA1001+999999999GF100991001001999999001001KA1240M+03051MA1999999092991REMSYN081AAXX  11004 83182 32994 01405 10242 20122 39299 40113 333 10305 29/// 55113 5903;EQDQ01  00002PRCP06
0186831820999992004111112004-11300-041867FM-12+074799999V0201401N004112200019N0100001N1+02711+01551101121ADDAA106000091GF108991011011012501001011KA1240N+01531MA1999999093011MD1999999-0171REMSYN076AAXX  11124 83182 32697 81408 10271 20155 39301 40112 81101 333 20153 59017;EQDQ01  00002PRCP06
0198831820999992004111200004-11300-041867FM-12+074799999V0200901N004110075019N0010001N1+02801+01461101131ADDAA106000091GF108991081051008001999999KA1240M+03341MA1999999093091MD1999999+0101REMSYN088AAXX  12004 83182 32594 80908 10280 20146 39309 40113 885// 333 10334 29/// 55104 58010;EQDQ01  00002PRCP06
0196831820999992004111212004-11300-041867FM-12+074799999V0200901N004112200019N0100001N1+02971+01611100871ADDAA106000091GA1001+999999999GF100991001001999999001001KA1240N+01881MA1999999092881MD1999999-0131REMSYN070AAXX  12124 83182 32997 00908 10297 20161 39288 40087 333 20188 59013;EQDQ01  00002PRCP06
0198831820999992004111300004-11300-041870FM-12+074799999V0200901N005110075019N0010001N1+03041+01371100481ADDAA106000091GF108991051021008001001011KA1240M+03601MA1999999092571MD1999999-0521REMSYN088AAXX  13004 83182 32594 80910 10304 20137 39257 40048 85201 333 10360 29/// 55095 59052;EQDQ01  00002PRCP06
0186831820999992004111312004-11300-041870FM-12+074799999V0200901N003112200019N0100001N1+03201+01321100701ADDAA106000091GF108991011001017501051011KA1240N+02001MA1999999092811MD1999999-0071REMSYN076AAXX  13124 83182 32797 80906 10320 20132 39281 40070 81051 333 20200 59007;EQDQ01  00002PRCP06
0198831820999992004111400004-11300-041867FM-12+074799999V0200901N005112200019N0010001N1+02941+00851100561ADDAA106000091GF108991031001017501051011KA1240M+03751MA1999999092661MD1999999+0091REMSYN088AAXX  14004 83182 32794 80910 10294 20085 39266 40056 83051 333 10375 29/// 55105 58009;EQDQ01  00002PRCP06
0186831820999992004111412004-11300-041867FM-12+074799999V0201401N003612200019N0100001N1+02861+01721100951ADDAA106000091GF108991011021008001001011KA1240N+02021MA1999999092971MD1999999+0161REMSYN076AAXX  14124 83182 32597 81407 10286 20172 39297 40095 81201 333 20202 58016;EQDQ01  00002PRCP06
0198831820999992004111500004-11300-041867FM-12+074799999V0200901N006712200019N0010001N1+02621+01701100911ADDAA106000091GF108991011001017501041011KA1240M+03501MA1999999092891MD1999999+0231REMSYN088AAXX  15004 83182 32794 80913 10262 20170 39289 40091 81041 333 10350 29/// 55110 58023;EQDQ01  00002PRCP06
0202831820999992004111512004-11300-041867FM-12+074799999V0200901N008219999999N0100001N1+02701+01441101151ADDAA106000091GF108991001001999999001041KA1240N+01801MA1999999093091MD1999999+0121REMSYN076AAXX  15124 83182 32997 80916 10270 20144 39309 40115 88004 333 20180 58012;EQDQ01+000082SCOTLCQ02  00002PRCP06
0198831820999992004111600004-11300-041867FM-12+074799999V0200901N004619999999N0010001N1+02641+01251101031ADDAA106000091GF108991001001999999001011KA1240M+03401MA1999999092961MD1999999+0071REMSYN088AAXX  16004 83182 32994 80909 10264 20125 39296 40103 80001 333 10340 29/// 55112 58007;EQDQ01  00002PRCP06
0186831820999992004111612004-11300-041867FM-12+074799999V0200901N004619999999N0100001N1+02751+01381101311ADDAA106000091GF108991001001999999001011KA1240N+01741MA1999999093241MD1999999+0151REMSYN076AAXX  16124 83182 32997 80909 10275 20138 39324 40131 80001 333 20174 58015;EQDQ01  00002PRCP06
0198831820999992004111700004-11300-041867FM-12+074799999V0200901N005119999999N0010001N1+02641+01131101021ADDAA106000091GF108991001001999999001011KA1240M+03421MA1999999092971MD1999999+0011REMSYN088AAXX  17004 83182 32994 80910 10264 20113 39297 40102 80001 333 10342 29/// 55114 58001;EQDQ01  00002PRCP06
0186831820999992004111712004-11300-041867FM-12+074799999V0200901N005112200019N0100001N1+02891+01471101291ADDAA106000091GF108991011021008001001011KA1240N+01781MA1999999093241MD1999999+0001REMSYN076AAXX  17124 83182 32597 80910 10289 20147 39324 40129 81201 333 20178 58000;EQDQ01  00002PRCP06
0198831820999992004111800004-11300-041867FM-12+074799999V0200901N003619999999N0010001N1+02681+01131100981ADDAA106000091GF108991001001999999001011KA1240M+03501MA1999999092971MD1999999+0001REMSYN088AAXX  18004 83182 32994 80907 10268 20113 39297 40098 80001 333 10350 29/// 55115 58000;EQDQ01  00002PRCP06
0186831820999992004111812004-11300-041867FM-12+074799999V0201401N003119999999N0100001N1+02981+01511101021ADDAA106000091GF108991001001999999001011KA1240N+01801MA1999999093021MD1999999-0221REMSYN076AAXX  18124 83182 32997 81406 10298 20151 39302 40102 80001 333 20180 59022;EQDQ01  00002PRCP06
0198831820999992004111900004-11300-041867FM-12+074799999V0200901N003112200019N0010001N1+02981+01271100841ADDAA106000091GF108991021021008001001011KA1240M+03541MA1999999092841MD1999999-0131REMSYN088AAXX  19004 83182 32594 80906 10298 20127 39284 40084 82201 333 10354 29/// 55108 59013;EQDQ01  00002PRCP06
0186831820999992004111912004-11300-041867FM-12+074799999V0203601N003112200019N0100001N1+03051+01691100941ADDAA106000091GF108991021011012501001011KA1240N+02001MA1999999093001MD1999999-0021REMSYN076AAXX  19124 83182 32697 83606 10305 20169 39300 40094 82101 333 20200 59002;EQDQ01  00002PRCP06
0202831820999992004112100004-11300-041870FM-12+074799999V0203601N002610450019N0010001N1+02301+02071100971ADDAY161061AY261061GF108991021031004501021999KA1240M+03441MA1999999092911MD1999999+0241MW1951REMSYN100AAXX  21004 83182 21494 83605 10230 20207 39291 40097 79566 8232/ 333 10344 29/// 55053 58024 60071;
0190831820999992004112112004-11300-041870FM-12+074799999V0201401N003110450019N0100001N1+02331+02061101241ADDAY161061AY261061GF108991021071004501011999KA1240N+01801MA1999999093041MD1999999+0161MW1021REMSYN088AAXX  21124 83182 21497 81406 10233 20206 39304 40124 70266 8271/ 333 20180 58016 60094;
0202831820999992004112200004-11300-041867FM-12+074799999V0201401N001010042019N0010001N1+01951+01851101341ADDAY161061AY261061GF108991061071004501021999KA1240M+02881MA1999999093081MD1999999+0171MW1021REMSYN100AAXX  22004 83182 21494 81402 10195 20185 39308 40134 70266 8672/ 333 10288 29/// 55010 58017 60111;
0162831820999992004112212004-11300-041867FM-12+074799999V0200501N001510450019N0100001N1+02531+01751101311ADDGF108991021021008001041011KA1240N+01661MA1999999093081MD1999999+0041REMSYN082AAXX  22124 83182 22597 80503 10253 20175 39308 40131 82241 333 20166 58004 60114;
0226831820999992004112300004-11300-041867FM-12+074799999V0200901N003110450019N0010001N1+02241+01961101091ADDAA106000091AY121061AY221061GF108991021031008001021999KA1240M+03061MA1999999092941MD1999999-0141MW1131REMSYN094AAXX  23004 83182 31594 80906 10224 20196 39294 40109 71322 8232/ 333 10306 29/// 55073 59014;EQDQ01  00002PRCP06
0196831820999992004112400004-11300-041867FM-12+074799999V0201401N002110042019N0010001N1+02041+01891101401ADDAY161061AY261061GF108991061071004501021999KA1240M+02361MA1999999093141MD1999999+0201MW1611REMSYN094AAXX  24004 83182 21494 81404 10204 20189 39314 40140 76166 8672/ 333 10236 55002 58020 60051;
0190831820999992004112412004-11300-041867FM-12+074799999V0201401N005110075019N0100001N1+02331+01821101431ADDAY161061AY221061GF108991081051008001999999KA1240N+01721MA1999999093181MD1999999+0001MW1021REMSYN088AAXX  24124 83182 21597 81410 10233 20182 39318 40143 70262 885// 333 20172 58000 60054;
0202831820999992004112500004-11300-041867FM-12+074799999V0201401N005110042019N0010001N1+02061+01911101331ADDAY161061AY261061GF108991061071004501021999KA1240M+02801MA1999999093091MD1999999-0051MW1211REMSYN100AAXX  25004 83182 21494 81410 10206 20191 39309 40133 72166 8672/ 333 10280 29/// 55049 59005 60011;
0190831820999992004112512004-11300-041867FM-12+074799999V0201401N003110042019N0040001N1+02071+01821101361ADDAY161061AY261061GF108991061071004501021999KA1240N+01701MA1999999093231MD1999999+0051MW1211REMSYN088AAXX  25124 83182 21496 81406 10207 20182 39323 40136 72166 8672/ 333 20170 58005 60014;
0202831820999992004112600004-11300-041867FM-12+074799999V0200901N003110150019N0010001N1+02271+01851101171ADDAY121061AY221061GF108991081001017501051999KA1240M+02591MA1999999092941MD1999999-0151MW1021REMSYN100AAXX  26004 83182 21794 80906 10227 20185 39294 40117 70222 8805/ 333 10259 29/// 55008 59015 60011;
0198831820999992004112700004-11300-041867FM-12+074799999V0200901N003110150019N0010001N1+02261+01571101031ADDAA106000091GF106991061001017501051001KA1240M+02821MA1999999092861MD1999999-0081REMSYN088AAXX  27004 83182 32794 60906 10226 20157 39286 40103 86050 333 10282 29/// 55067 59008;EQDQ01  00002PRCP06
0202831820999992004112712004-11300-041867FM-12+074799999V0201401N003110075019N0100001N1+02501+01841101181ADDAA106000091GF108991999021008001051001KA1240N+01761MA1999999093021MD1999999-0031REMSYN076AAXX  27124 83182 32597 81406 10250 20184 39302 40118 88250 333 20176 59003;EQDQ01+000082SCOTLCQ02  00002PRCP06
0202831820999992004112800004-11300-041867FM-12+074799999V0200901N002610042019N0002001N1+02131+01991101101ADDAY161061AY261061GF108991061071004501021999KA1240M+03001MA1999999092911MD1999999+0051MW1611REMSYN100AAXX  28004 83182 21492 80905 10213 20199 39291 40110 76166 8672/ 333 10300 29/// 55052 58005 60291;
0190831820999992004112812004-11300-041867FM-12+074799999V0200901N001510075019N0100001N1+02461+02051101161ADDAY161061AY261061GF108991051021008001041011KA1240N+02161MA1999999092961MD1999999-0061MW1021REMSYN088AAXX  28124 83182 21597 80903 10246 20205 39296 40116 70266 85241 333 20216 59006 60294;
0202831820999992004112900004-11300-041867FM-12+074799999V0201401N002110042019N0010001N1+02201+02061101031ADDAY161061AY221061GF108991061071004501021999KA1240M+02901MA1999999092861MD1999999-0051MW1611REMSYN100AAXX  29004 83182 21494 81404 10220 20206 39286 40103 76162 8672/ 333 10290 29/// 55045 59005 60311;
0202831820999992004113000004-11300-041867FM-12+074799999V0201401N003110075019N0010001N1+02331+02021101001ADDAY161061AY221061GF108991051031008001021999KA1240M+03081MA1999999092861MD1999999+0001MW1131REMSYN100AAXX  30004 83182 21594 81406 10233 20202 39286 40100 71362 8532/ 333 10308 29067 55067 58000 69941;
0226831820999992004120100004-11300-041867FM-12+074799999V0201401N003110450019N0010001N1+02381+01951100981ADDAA106000091AY121061AY221061GF108991031031008001021999KA1240M+02821MA1999999092821MD1999999-0041MW1131REMSYN094AAXX  01004 83182 31594 81406 10238 20195 39282 40098 71322 8332/ 333 10282 29/// 55016 59004;EQDQ01  00002PRCP06
0185831820999992004120112004-11300-041867FM-12+074799999V0200901N002610075019N0100001N1+02641+02001101111ADDAA106000091GF108991061021008001061011KA1999N+01881MA1999999092981MD1999999+0101REMSYN075AAXX  01124 83182 32597 80905 10264 20200 39298 40111 86261 33320188 58010;EQDQ01  00002PRCP06
0226831820999992004120200004-11300-041867FM-12+074799999V0201401N004110450019N0010001N1+02301+01941100971ADDAA106000091AY121061AY221061GF108991031031008001021999KA1240M+03061MA1999999092841MD1999999+0021MW1131REMSYN094AAXX  02004 83182 31594 81408 10230 20194 39284 40097 71322 8332/ 333 10306 29/// 55076 58002;EQDQ01  00002PRCP06
0186831820999992004120212004-11300-041867FM-12+074799999V0201401N005711050019N0100001N1+02561+01701101311ADDAA106000091GF108991011021008001001021KA1240N+01761MA1999999093151MD1999999+0171REMSYN076AAXX  02124 83182 32597 81411 10256 20170 39315 40131 81202 333 20176 58017;EQDQ01  00002PRCP06
0198831820999992004120300004-11300-041867FM-12+074799999V0200901N004119999999N0010001N1+02341+01521101081ADDAA106000091GF108991001001999999001011KA1240M+03161MA1999999092941MD1999999+0101REMSYN088AAXX  03004 83182 32994 80908 10234 20152 39294 40108 80001 333 10316 29/// 55099 58010;EQDQ01  00002PRCP06
0196831820999992004120312004-11300-041867FM-12+074799999V0201401N006712200019N0100001N1+02651+01811101261ADDAA106000091GA1001+999999999GF100991001001999999001001KA1240N+01701MA1999999093131MD1999999-0021REMSYN070AAXX  03124 83182 32997 01413 10265 20181 39313 40126 333 20170 59002;EQDQ01  00002PRCP06
0208831820999992004120400004-11300-041867FM-12+074799999V0201401N002612200019N0010001N1+02211+01591101141ADDAA106000091GA1001+999999999GF100991001001999999001001KA1240M+03141MA1999999093001MD1999999+0061REMSYN082AAXX  04004 83182 32994 01405 10221 20159 39300 40114 333 10314 29/// 55117 58006;EQDQ01  00002PRCP06
0186831820999992004120412004-11300-041867FM-12+074799999V0200901N005112200019N0100001N1+02641+01661101431ADDAA106000091GF108991011021008001001011KA1240N+01701MA1999999093251MD1999999+0121REMSYN076AAXX  04124 83182 32597 80910 10264 20166 39325 40143 81201 333 20170 58012;EQDQ01  00002PRCP06
0198831820999992004120500004-11300-041867FM-12+074799999V0201401N004619999999N0010001N1+02401+01501101251ADDAA106000091GF108991001001999999001011KA1240M+03151MA1999999093121MD1999999+0121REMSYN088AAXX  05004 83182 32994 81409 10240 20150 39312 40125 80001 333 10315 29/// 55116 58012;EQDQ01  00002PRCP06
0186831820999992004120512004-11300-041867FM-12+074799999V0201401N005719999999N0100001N1+02561+01641101381ADDAA106000091GF108991001001999999001011KA1240N+01681MA1999999093241MD1999999+0121REMSYN076AAXX  05124 83182 32997 81411 10256 20164 39324 40138 80001 333 20168 58012;EQDQ01  00002PRCP06
0198831820999992004120600004-11300-041870FM-12+074799999V0200901N004119999999N0100001N1+02311+01461101161ADDAA106000091GF108991001001999999001011KA1240M+03081MA1999999093021MD1999999-0101REMSYN088AAXX  06004 83182 32997 80908 10231 20146 39302 40116 80001 333 10308 29/// 55116 59010;EQDQ01  00002PRCP06
0186831820999992004120612004-11300-041870FM-12+074799999V0201401N004112200019N0100001N1+02441+01691101261ADDAA106000091GF101991011021008001001001KA1240N+01641MA1999999093091MD1999999-0151REMSYN076AAXX  06124 83182 32597 11408 10244 20169 39309 40126 81200 333 20164 59015;EQDQ01  00002PRCP06
0208831820999992004120700004-11300-041867FM-12+074799999V0201401N002612200019N0010001N1+02431+01431100981ADDAA106000091GA1001+999999999GF100991001001999999001001KA1240M+03241MA1999999092821MD1999999-0201REMSYN082AAXX  07004 83182 32994 01405 10243 20143 39282 40098 333 10324 29/// 55118 59020;EQDQ01  00002PRCP06
0218831820999992004120712004-11300-041867FM-12+074799999V0200901N004119999999N0100001N1+02701+01601101191ADDAA106000091GF108991999001999999001001KA1240N+01641MA1999999093071MD1999999-0091REMSYN076AAXX  07124 83182 32997 80908 10270 20160 39307 40119 88000 333 20164 59009;EQDQ01+000082SCOTLCQ02+000002SCOTLCQ03  00002PRCP06
0198831820999992004120800004-11300-041867FM-12+074799999V0200901N004119999999N0010001N1+02511+01681100891ADDAA106000091GF108991001001999999001011KA1240M+03421MA1999999092821MD1999999+0001REMSYN088AAXX  08004 83182 32994 80908 10251 20168 39282 40089 80001 333 10342 29/// 55116 58000;EQDQ01  00002PRCP06
0186831820999992004120812004-11300-041867FM-12+074799999V0200901N003619999999N0100001N1+02701+01631101241ADDAA106000091GF108991001001999999001011KA1240N+01761MA1999999093141MD1999999+0071REMSYN076AAXX  08124 83182 32997 80907 10270 20163 39314 40124 80001 333 20176 58007;EQDQ01  00002PRCP06
0198831820999992004120900004-11300-041867FM-12+074799999V0201401N002619999999N0010001N1+02481+01641100971ADDAA106000091GF108991001001999999001011KA1240M+03361MA1999999092891MD1999999+0071REMSYN088AAXX  09004 83182 32994 81405 10248 20164 39289 40097 80001 333 10336 29/// 55113 58007;EQDQ01  00002PRCP06
0186831820999992004120912004-11300-041867FM-12+074799999V0201401N002619999999N0100001N1+02781+01731101091ADDAA106000091GF108991001001999999001011KA1240N+01841MA1999999093021MD1999999-0121REMSYN076AAXX  09124 83182 32997 81405 10278 20173 39302 40109 80001 333 20184 59012;EQDQ01  00002PRCP06
0198831820999992004121000004-11300-041867FM-12+074799999V0201401N002119999999N0010001N1+02501+01771100921ADDAA106000091GF108991001001999999001011KA1240M+03221MA1999999092851MD1999999-0041REMSYN088AAXX  10004 83182 32994 81404 10250 20177 39285 40092 80001 333 10322 29/// 55072 59004;EQDQ01  00002PRCP06
0202831820999992004121012004-11300-041867FM-12+074799999V0200901N001519999999N0100001N1+02831+01741100961ADDAA106000091GF108991001001999999001011KA1240N+01741MA1999999092901MD1999999-0121REMSYN076AAXX  10124 83182 32597 80903 10283 20174 39290 40096 80001 333 20174 59012;EQDQ01+008002SCOLCBQ02  00002PRCP06
0198831820999992004121100004-11300-041867FM-12+074799999V0200501N002612200019N0010001N1+02851+01671100631ADDAA106000091GF108991041021008001001011KA1240M+03441MA1999999092661MD1999999-0191REMSYN088AAXX  11004 83182 32594 80505 10285 20167 39266 40063 84201 333 10344 29/// 55106 59019;EQDQ01  00002PRCP06
0186831820999992004121112004-11300-041867FM-12+074799999V0203601N004110450019N0100001N1+02831+01781100901ADDAA106000091GF108991031021008001011011KA1240N+02061MA1999999092911MD1999999+0011REMSYN076AAXX  11124 83182 32597 83608 10283 20178 39291 40090 83211 333 20206 58001;EQDQ01  00002PRCP06
0198831820999992004121200004-11300-041870FM-12+074799999V0202301N001519999999N0010001N1+02401+01771100911ADDAA106000091GF108991031031999999021999KA1240M+03181MA1999999092871MD1999999+0211REMSYN088AAXX  12004 83182 32994 82303 10240 20177 39287 40091 8332/ 333 10318 29/// 55072 58021;EQDQ01  00002PRCP06
0186831820999992004121212004-11300-041870FM-12+074799999V0201401N003110450019N0100001N1+02711+01991101091ADDAA106000091GF108991041021008001041011KA1240N+01901MA1999999092981MD1999999+0071REMSYN076AAXX  12124 83182 32597 81406 10271 20199 39298 40109 84241 333 20190 58007;EQDQ01  00002PRCP06
0226831820999992004121300004-11300-041867FM-12+074799999V0203601N003110450019N0010001N1+02341+02001101101ADDAA106000091AY121061AY221061GF108991031031008001021999KA1240M+03081MA1999999092971MD1999999+0101MW1131REMSYN094AAXX  13004 83182 31594 83606 10234 20200 39297 40110 71322 8332/ 333 10308 29/// 55037 58010;EQDQ01  00002PRCP06
0186831820999992004121312004-11300-041867FM-12+074799999V0200901N003610075019N0100001N1+02581+01941101311ADDAA106000091GF108991061051008001041011KA1240N+01901MA1999999093151MD1999999+0171REMSYN076AAXX  13124 83182 32597 80907 10258 20194 39315 40131 86541 333 20190 58017;EQDQ01  00002PRCP06
0226831820999992004121400004-11300-041867FM-12+074799999V0203601N001510450019N0010001N1+02231+01811101201ADDAA106000091AY121061AY221061GF108991031031008001021999KA1240M+03061MA1999999093041MD1999999+0071MW1131REMSYN094AAXX  14004 83182 31594 83603 10223 20181 39304 40120 71322 8332/ 333 10306 29/// 55073 58007;EQDQ01  00002PRCP06
0186831820999992004121412004-11300-041867FM-12+074799999V0200901N004610450019N0100001N1+02701+01831101321ADDAA106000091GF108991011021008001041011KA1240N+01921MA1999999093161MD1999999+0011REMSYN076AAXX  14124 83182 32597 80909 10270 20183 39316 40132 81241 333 20192 58001;EQDQ01  00002PRCP06
0198831820999992004121500004-11300-041867FM-12+074799999V0201401N002619999999N0010001N1+02331+01771101271ADDAA106000091GF108991001001999999001011KA1240M+03171MA1999999093141MD1999999+0101REMSYN088AAXX  15004 83182 32994 81405 10233 20177 39314 40127 80001 333 10317 29/// 55090 58010;EQDQ01  00002PRCP06
0186831820999992004121512004-11300-041867FM-12+074799999V0200901N005710450019N0100001N1+02491+01611101291ADDAA106000091GF108991011021008001041011KA1240N+01661MA1999999093121MD1999999-0041REMSYN076AAXX  15124 83182 32597 80911 10249 20161 39312 40129 81241 333 20166 59004;EQDQ01  00002PRCP06
0198831820999992004121600004-11300-041867FM-12+074799999V0201401N003112200019N0010001N1+02211+01521101061ADDAA106000091GF108991021001017501041011KA1240M+02981MA1999999092891MD1999999-0251REMSYN088AAXX  16004 83182 32794 81406 10221 20152 39289 40106 82041 333 10298 29/// 55105 59025;EQDQ01  00002PRCP06
0186831820999992004121612004-11300-041867FM-12+074799999V0201401N004112200019N0100001N1+02511+01541101171ADDAA106000091GF108991011011012501001011KA1240N+01481MA1999999092991MD1999999-0131REMSYN076AAXX  16124 83182 32697 81408 10251 20154 39299 40117 81101 333 20148 59013;EQDQ01  00002PRCP06
0186831820999992004121712004-11300-041867FM-12+074799999V0201401N003111050019N0100001N1+02561+01601101201ADDAA106000091GF108991011001017501041041KA1240N+01581MA1999999092971MD1999999-0021REMSYN076AAXX  17124 83182 32797 81406 10256 20160 39297 40120 81044 333 20158 59002;EQDQ01  00002PRCP06
0198831820999992004121800004-11300-041867FM-12+074799999V0200901N003119999999N0010001N1+02351+01481100921ADDAA106000091GF108991001001999999001011KA1240M+03141MA1999999092791MD1999999+0001REMSYN088AAXX  18004 83182 32994 80906 10235 20148 39279 40092 80001 333 10314 29/// 55098 58000;EQDQ01  00002PRCP06
0186831820999992004121812004-11300-041867FM-12+074799999V0201401N002610450019N0100001N1+02621+01641101211ADDAA106000091GF108991011011008001041011KA1240N+01641MA1999999093081MD1999999+0111REMSYN076AAXX  18124 83182 32597 81405 10262 20164 39308 40121 81141 333 20164 58011;EQDQ01  00002PRCP06
0198831820999992004121900004-11300-041870FM-12+074799999V0201401N003119999999N0010001N1+02441+01451101031ADDAA106000091GF108991001001999999001011KA1240M+03181MA1999999092931MD1999999+0141REMSYN088AAXX  19004 83182 32994 81406 10244 20145 39293 40103 80001 333 10318 29/// 55108 58014;EQDQ01  00002PRCP06
0190831820999992004121912004-11300-041870FM-12+074799999V0200901N003112200019N0100001N1+02481+01751101401ADDAY161061AY221061GF108991021021008001001011KA1240N+01871MA1999999093241MD1999999+0161MW1031REMSYN088AAXX  19124 83182 21597 80906 10248 20175 39324 40140 70362 82201 333 20187 58016 60024;
0198831820999992004122000004-11300-041867FM-12+074799999V0201401N003112200019N0010001N1+02441+01591101131ADDAA106000091GF108991011001017501041011KA1240M+03181MA1999999092991MD1999999+0061REMSYN088AAXX  20004 83182 32794 81406 10244 20159 39299 40113 81041 333 10318 29/// 55067 58006;EQDQ01  00002PRCP06
0186831820999992004122012004-11300-041867FM-12+074799999V0201401N004119999999N0100001N1+02601+01741101271ADDAA106000091GF108991001001999999001011KA1240N+01781MA1999999093141MD1999999-0101REMSYN076AAXX  20124 83182 32997 81408 10260 20174 39314 40127 80001 333 20178 59010;EQDQ01  00002PRCP06
0208831820999992004122100004-11300-041867FM-12+074799999V0201401N004112200019N0010001N1+02481+01511101001ADDAA106000091GA1001+999999999GF100991001001999999001001KA1240M+03251MA1999999092901MD1999999-0091REMSYN082AAXX  21004 83182 32994 01408 10248 20151 39290 40100 333 10325 29/// 55113 59009;EQDQ01  00002PRCP06
0186831820999992004122212004-11300-041867FM-12+074799999V0200901N000510450019N0100001N1+02461+01811101101ADDAA106000091GF108991021021008001041011KA1240N+01801MA1999999092991MD1999999+0041REMSYN076AAXX  22124 83182 32597 80901 10246 20181 39299 40110 82241 333 20180 58004;EQDQ01  00002PRCP06
0198831820999992004122300004-11300-041867FM-12+074799999V0201401N002619999999N0010001N1+02481+01701100831ADDAA106000091GF108991001001999999001011KA1240M+03341MA1999999092711MD1999999+0001REMSYN088AAXX  23004 83182 32994 81405 10248 20170 39271 40083 80001 333 10334 29/// 55067 58000;EQDQ01  00002PRCP06
0186831820999992004122312004-11300-041867FM-12+074799999V0200901N002612200019N0100001N1+02631+01651101031ADDAA106000091GF108991011021008001001011KA1240N+01741MA1999999092931MD1999999-0061REMSYN076AAXX  23124 83182 32597 80905 10263 20165 39293 40103 81201 333 20174 59006;EQDQ01  00002PRCP06
0198831820999992004122400004-11300-041867FM-12+074799999V0200901N002619999999N0010001N1+02531+01281100731ADDAA106000091GF108991001001999999001011KA1240M+03241MA1999999092701MD1999999-0011REMSYN088AAXX  24004 83182 32994 80905 10253 20128 39270 40073 80001 333 10324 29/// 55104 59001;EQDQ01  00002PRCP06
0186831820999992004122412004-11300-041867FM-12+074799999V0200901N004619999999N0100001N1+02631+01571100961ADDAA106000091GF108991001001999999001011KA1240N+01641MA1999999092881MD1999999-0051REMSYN076AAXX  24124 83182 32997 80909 10263 20157 39288 40096 80001 333 20164 59005;EQDQ01  00002PRCP06
0198831820999992004122500004-11300-041867FM-12+074799999V0201401N003119999999N0010001N1+02441+01171100861ADDAA106000091GF108991001001999999001011KA1240M+03341MA1999999092771MD1999999+0071REMSYN088AAXX  25004 83182 32994 81406 10244 20117 39277 40086 80001 333 10334 29/// 55110 58007;EQDQ01  00002PRCP06
0186831820999992004122512004-11300-041867FM-12+074799999V0200501N002610075019N0100001N1+02411+01731101271ADDAA106000091GF108991081051008001001001KA1240N+01731MA1999999093101MD1999999+0221REMSYN076AAXX  25124 83182 32597 80505 10241 20173 39310 40127 88500 333 20173 58022;EQDQ01  00002PRCP06
0198831820999992004122600004-11300-041870FM-12+074799999V0200901N003110450019N0010001N1+02531+01561101021ADDAA106000091GF108991011021008001041011KA1240M+03221MA1999999092881MD1999999+0111REMSYN088AAXX  26004 83182 32594 80906 10253 20156 39288 40102 81241 333 10322 29/// 55098 58011;EQDQ01  00002PRCP06
0198831820999992004122700004-11300-041870FM-12+074799999V0201401N004119999999N0010001N1+02481+01651100871ADDAA106000091GF108991001001999999001011KA1240M+03301MA1999999092781MD1999999-0101REMSYN088AAXX  27004 83182 32994 81408 10248 20165 39278 40087 80001 333 10330 29/// 55116 59010;EQDQ01  00002PRCP06
0186831820999992004122712004-11300-041870FM-12+074799999V0201401N002612200019N0100001N1+02701+01751101101ADDAA106000091GF102991001001999999001021KA1240N+01701MA1999999092951MD1999999-0151REMSYN076AAXX  27124 83182 32997 21405 10270 20175 39295 40110 80002 333 20170 59015;EQDQ01  00002PRCP06
0198831820999992004122800004-11300-041867FM-12+074799999V0201401N003110075019N0010001N1+02841+01501100571ADDAA106000091GF108991061051008001001011KA1240M+03461MA1999999092571MD1999999-0211REMSYN088AAXX  28004 83182 32594 81406 10284 20150 39257 40057 86501 333 10346 29/// 55/// 59021;EQDQ01  00002PRCP06
0186831820999992004122812004-11300-041867FM-12+074799999V0200901N002610450019N0100001N1+02741+01611100891ADDAA106000091GF108991011021008001041011KA1240N+01841MA1999999092881MD1999999-0071REMSYN076AAXX  28124 83182 32597 80905 10274 20161 39288 40089 81241 333 20184 59007;EQDQ01  00002PRCP06
0198831820999992004122900004-11300-041867FM-12+074799999V0203601N001012200019N0010001N1+02781+01441100921ADDAA106000091GF108991041051008001001011KA1240M+03301MA1999999092901MD1999999+0331REMSYN088AAXX  29004 83182 32594 83602 10278 20144 39290 40092 84501 333 10330 29/// 55083 58033;EQDQ01  00002PRCP06
0186831820999992004122912004-11300-041867FM-12+074799999V0201401N003610075019N0100001N1+02661+01741101281ADDAA106000091GF108991061021008001001011KA1240N+01901MA1999999093211MD1999999+0331REMSYN076AAXX  29124 83182 32597 81407 10266 20174 39321 40128 86201 333 20190 58033;EQDQ01  00002PRCP06
0198831820999992004123000004-11300-041867FM-12+074799999V0201401N003112200019N0010001N1+02581+01551101161ADDAA106000091GF108991011001017501041011KA1240M+03241MA1999999093061MD1999999+0161REMSYN088AAXX  30004 83182 32794 81406 10258 20155 39306 40116 81041 333 10324 29/// 55076 58016;EQDQ01  00002PRCP06
0186831820999992004123012004-11300-041867FM-12+074799999V0201401N004110120019N0100001N1+02611+01691101361ADDAA106000091GF108991051011012501001011KA1240N+01681MA1999999093251MD1999999+0041REMSYN076AAXX  30124 83182 32697 81408 10261 20169 39325 40136 85101 333 20168 58004;EQDQ01  00002PRCP06
0214831820999992004123100004-11300-041867FM-12+074799999V0200901N003619999999N0010001N1+02641+01251100941ADDAA106000091GF108991001001999999001011KA1240M+03301MA1999999092881MD1999999-0181REMSYN088AAXX  31004 83182 32994 80907 10264 20125 39288 40094 88001 333 10330 29/// 55115 59018;EQDQ01+000082SCOTLCQ02  00002PRCP06
0186831820999992004123112004-11300-041867FM-12+074799999V0201401N003112200019N0100001N1+02621+01621101291ADDAA106000091GF108991021021008001001011KA1240N+01691MA1999999093201MD1999999-0051REMSYN076AAXX  31124 83182 32597 81406 10262 20162 39320 40129 82201 333 20169 59005;EQDQ01  00002PRCP06
