0208832360999992004010100004-12150-045000FM-12+044099999V0201801N000512200019N0200001N1+02631+02211100771ADDAA106000091GA1001+999999999GF100991001001999999001001KA1240M+03501MA1999999095941MD1999999-0241REMSYN082AAXX  01004 83236 32998 01801 10263 20221 39594 40077 333 10350 29068 55118 59024;EQDQ01  00002PRCP06
0186832360999992004010112004-12150-045000FM-12+044099999V0203601N002612200019N0200001N1+02931+02271101041ADDAA106000091GF103991011011008001061011KA1240N+02261MA1999999096231MD1999999-0051REMSYN076AAXX  01124 83236 32598 33605 10293 20227 39623 40104 81161 333 20226 59005;EQDQ01  00002PRCP06
0167832360999992004010118004-12150-045000FM-12+044099999V0203601N001012200019N0200001N1+03441+02141100481ADDAA106000091GF104991021021008001001021MA1999999095701MD1999999-0121REMSYN070AAXX  01184 83236 32598 43602 10344 20214 39570 40048 82202 333 59012;EQDQ01  00002PRCP06
0226832360999992004010200004-12150-045000FM-12+044099999V0209999C000012200019N0200001N1+02641+02421100761ADDAA106000091AY101061AY221061GF104991031031008001041001KA1240M+03531MA1999999095981MD1999999+0041MW1131REMSYN094AAXX  02004 83236 31598 40000 10264 20242 39598 40076 71302 83340 333 10353 29073 55115 58004;EQDQ01  00002PRCP06
0190832360999992004010212004-12150-045000FM-12+044099999V0202301N001011050019N0200001N1+02401+02261101171ADDAY191061AY261061GF107991031051008001001051KA1240N+02181MA1999999096291MD1999999+0061MW1021REMSYN088AAXX  02124 83236 21598 72302 10240 20226 39629 40117 70296 83505 333 20218 58006 60054;
0167832360999992004010218004-12150-045000FM-12+044099999V0201801N000511050019N0200001N1+03231+02231100521ADDAA106000091GF105991021021008001001051MA1999999095711MD1999999+0011REMSYN070AAXX  02184 83236 32598 51801 10323 20223 39571 40052 82205 333 58001;EQDQ01  00002PRCP06
0226832360999992004010300004-12150-045000FM-12+044099999V0203601N002110450019N0200001N1+02431+01951101031ADDAA106000091AY101061AY221061GF106991041071008001021001KA1240M+03341MA1999999096141MD1999999+0161MW1131REMSYN094AAXX  03004 83236 31598 63604 10243 20195 39614 40103 71302 84720 333 10334 29074 55053 58016;EQDQ01  00002PRCP06
0190832360999992004010312004-12150-045000FM-12+044099999V0209999C000010450019N0200001N1+02261+02161101211ADDAY161061AY261061GF108991041051008001021999KA1240N+02191MA1999999096301MD1999999+0011MW1401REMSYN088AAXX  03124 83236 21598 80000 10226 20216 39630 40121 74066 8452/ 333 20219 58001 60034;
0167832360999992004010318004-12150-045000FM-12+044099999V0203601N001011050019N0200001N1+02951+02191100621ADDAA106000091GF105991021021008001061021MA1999999095781MD1999999+0071REMSYN070AAXX  03184 83236 32598 53602 10295 20219 39578 40062 82262 333 58007;EQDQ01  00002PRCP06
0186832360999992004010412004-12150-045000FM-12+044099999V0202301N001510450019N0200001N1+02581+02231100991ADDAA106000091GF106991031021008001061051KA1240N+02231MA1999999096131MD1999999-0171REMSYN076AAXX  04124 83236 32598 62303 10258 20223 39613 40099 83265 333 20223 59017;EQDQ01  00002PRCP06
0226832360999992004010500004-12150-045000FM-12+044099999V0203201N001010450019N0200001N1+02571+02351100821ADDAA106000091AY121061AY221061GF106991031051008001051071KA1240M+03131MA1999999095971MD1999999+0021MW1131REMSYN094AAXX  05004 83236 31598 63202 10257 20235 39597 40082 71322 83557 333 10313 29084 55055 58002;EQDQ01  00002PRCP06
0162832360999992004010512004-12150-045000FM-12+044099999V0202701N001011050019N0200001N1+02701+02281100971ADDGF105991021021008001061071KA1240N+02261MA1999999096131MD1999999+0001REMSYN082AAXX  05124 83236 22598 52702 10270 20228 39613 40097 82267 333 20226 58000 60014;
0171832360999992004010518004-12150-045000FM-12+044099999V0200901N002111050019N0200001N1+02781+01981100601ADDAY151061AY251061GF106991041051008001001051MA1999999095751MD1999999+0071MW1151REMSYN082AAXX  05184 83236 21598 60904 10278 20198 39575 40060 71555 84505 333 58007 69951;
0198832360999992004010600004-12150-045000FM-12+044099999V0202701N001010075019N0200001N1+02521+02291100701ADDAA106000091GF107991051021008001071051KA1240M+03231MA1999999095861MD1999999-0111REMSYN088AAXX  06004 83236 32598 72702 10252 20229 39586 40070 85275 333 10323 29074 55080 59011;EQDQ01  00002PRCP06
0162832360999992004010612004-12150-045000FM-12+044099999V0209999C000012200019N0200001N1+02681+02131101021ADDGF102991001001999999001031KA1240N+02071MA1999999096161MD1999999+0031REMSYN082AAXX  06124 83236 22998 20000 10268 20213 39616 40102 80003 333 20207 58003 69954;
0167832360999992004010618004-12150-045000FM-12+044099999V0203601N002112200019N0200001N1+03261+01511100601ADDAA106000091GF103991021021012501001031MA1999999095811MD1999999+0061REMSYN070AAXX  06184 83236 32698 33604 10326 20151 39581 40060 82203 333 58006;EQDQ01  00002PRCP06
0198832360999992004010700004-12150-045000FM-12+044099999V0202701N001512200019N0200001N1+02581+02251100771ADDAA106000091GF102991001001999999001051KA1240M+03361MA1999999095941MD1999999+0081REMSYN088AAXX  07004 83236 32998 22703 10258 20225 39594 40077 80005 333 10336 29070 55116 58008;EQDQ01  00002PRCP06
0167832360999992004010718004-12150-045000FM-12+044099999V0203601N002612200019N0200001N1+03331+01931100591ADDAA106000091GF104991021021008001001051MA1999999095801MD1999999-0011REMSYN070AAXX  07184 83236 32598 43605 10333 20193 39580 40059 82205 333 59001;EQDQ01  00002PRCP06
0198832360999992004010800004-12150-045000FM-12+044099999V0202301N001510450019N0200001N1+02581+02151100741ADDAA106000091GF106991031021008001071051KA1240M+03461MA1999999095891MD1999999-0051REMSYN088AAXX  08004 83236 32598 62303 10258 20215 39589 40074 83275 333 10346 29070 55091 59005;EQDQ01  00002PRCP06
0186832360999992004010812004-12150-045000FM-12+044099999V0202301N001010450019N0200001N1+02661+02141100941ADDAA106000091GF106991031021012501051071KA1240N+02001MA1999999096181MD1999999+0031REMSYN076AAXX  08124 83236 32698 62302 10266 20214 39618 40094 83257 333 20200 58003;EQDQ01  00002PRCP06
0167832360999992004010818004-12150-045000FM-12+044099999V0203601N001512200019N0200001N1+03371+01931100551ADDAA106000091GF104991031021008001001031MA1999999095741MD1999999-0061REMSYN070AAXX  08184 83236 32598 43603 10337 20193 39574 40055 83203 333 59006;EQDQ01  00002PRCP06
0198832360999992004010900004-12150-045000FM-12+044099999V0202301N001010450019N0200001N1+02581+02061100681ADDAA106000091GF105991031021012501061051KA1240M+03531MA1999999095841MD1999999-0051REMSYN088AAXX  09004 83236 32698 52302 10258 20206 39584 40068 83265 333 10353 29066 55105 59005;EQDQ01  00002PRCP06
0186832360999992004010912004-12150-045000FM-12+044099999V0209999C000010450019N0200001N1+03001+02271100821ADDAA106000091GF106991031021008001061071KA1240N+02331MA1999999096021MD1999999-0161REMSYN076AAXX  09124 83236 32598 60000 10300 20227 39602 40082 83267 333 20233 59016;EQDQ01  00002PRCP06
0171832360999992004010918004-12150-045000FM-12+044099999V0209999C000010075019N0200001N1+02651+02411100561ADDAY161061AY261061GF107991061071008001041071MA1999999095721MD1999999-0021MW1031REMSYN082AAXX  09184 83236 21598 70000 10265 20241 39572 40056 70366 86747 333 59002 60111;
0198832360999992004011000004-12150-045000FM-12+044099999V0201401N001010120019N0100001N1+02501+02291100781ADDAA106000091GF108991061081008001041999KA1240M+03191MA1999999095961MD1999999+0121REMSYN088AAXX  10004 83236 32597 81402 10250 20229 39596 40078 8684/ 333 10319 29082 55033 58012;EQDQ01  00002PRCP06
0190832360999992004011012004-12150-045000FM-12+044099999V0209999C000010075019N0100001N1+03331+02301100981ADDAY161061AY261061GF108991061071008001021999KA1240N+02251MA1999999096091MD1999999+0071MW1101REMSYN088AAXX  10124 83236 21597 80000 10333 20230 39609 40098 71066 8672/ 333 20225 58007 60164;
0171832360999992004011018004-12150-045000FM-12+044099999V0200901N001510075019N0040001N1+02231+02141100731ADDAY151061AY251061GF108991061051008001041999MA1999999095811MD1999999+0091MW1511REMSYN082AAXX  10184 83236 21596 80903 10223 20214 39581 40073 75155 8654/ 333 58009 60031;
0226832360999992004011112004-12150-045000FM-12+044099999V0200901N001010075019N0040001N1+02321+02161101181ADDAA124007091AY151061AY251061GF108991999071008001041999KA1240N+02161MA1999999096261MD1999999+0171MW1101REMSYN094AAXX  11124 83236 21596 80902 10232 20216 39626 40118 71055 8874/ 333 20216 58017 60074 10071;EQDQ01+000082SCOTLC
0167832360999992004011118004-12150-045000FM-12+044099999V0203201N001010075019N0100001N1+02731+02341100791ADDAA106000091GF108991061071008001051999MA1999999095921MD1999999+0111REMSYN070AAXX  11184 83236 32597 83202 10273 20234 39592 40079 8675/ 333 58011;EQDQ01  00002PRCP06
0190832360999992004011212004-12150-045000FM-12+044099999V0200501N001010120019N0040001N1+02381+02261101231ADDAY161061AY261061GF108991071081008001041999KA1240N+02201MA1999999096321MD1999999+0061MW1101REMSYN088AAXX  12124 83236 21596 80502 10238 20226 39632 40123 71066 8784/ 333 20220 58006 60314;
0221832360999992004011300004-12150-045000FM-12+044099999V0209999C000010075019N0040001N1+02271+02191101041ADDAY161061AY251061GF108991999071008001021999KA1240M+02771MA1999999096131MD1999999-0041MW1101REMSYN100AAXX  13004 83236 21596 80000 10227 20219 39613 40104 71065 8872/ 333 10277 29094 55004 59004 60091;EQDQ01+000082SCOTLC
0190832360999992004011312004-12150-045000FM-12+044099999V0200901N001510120019N0100001N1+02481+02341101061ADDAY121061AY221061GF108991071081008001021999KA1240N+02231MA1999999096151MD1999999-0171MW1101REMSYN088AAXX  13124 83236 21597 80903 10248 20234 39615 40106 71022 8782/ 333 20223 59017 60094;
0171832360999992004011318004-12150-045000FM-12+044099999V0209999C000010075019N0100001N1+02551+02421100711ADDAY161061AY261061GF108991061061008001071999MA1999999095831MD1999999-0181MW1151REMSYN082AAXX  13184 83236 21597 80000 10255 20242 39583 40071 71566 8667/ 333 59018 60031;
0202832360999992004011400004-12150-045000FM-12+044099999V0209999C000010075019N0040001N1+02281+02261101011ADDAY161061AY261061GF108991061071008001999999KA1240M+02841MA1999999096121MD1999999-0011MW1101REMSYN100AAXX  14004 83236 21596 80000 10228 20226 39612 40101 71066 867// 333 10284 29096 55009 59001 60071;
0190832360999992004011412004-12150-045000FM-12+044099999V0209999C000010120019N0040001N1+02421+02281101131ADDAY121061AY221061GF108991061081008001041999KA1240N+02181MA1999999096221MD1999999+0071MW1101REMSYN088AAXX  14124 83236 21596 80000 10242 20228 39622 40113 71022 8684/ 333 20218 58007 60094;
0171832360999992004011418004-12150-045000FM-12+044099999V0209999C000010075019N0100001N1+02671+02431100621ADDAY161061AY251061GF108991061071008001051999MA1999999095751MD1999999-0081MW1031REMSYN082AAXX  14184 83236 21597 80000 10267 20243 39575 40062 70365 8675/ 333 59008 60041;
0202832360999992004011500004-12150-045000FM-12+044099999V0209999C000010120019N0040001N1+02491+02091100881ADDAY151061AY251061GF108991061081008001021999KA1240M+02881MA1999999096001MD1999999-0121MW1101REMSYN100AAXX  15004 83236 21596 80000 10249 20209 39600 40088 71055 8682/ 333 10288 29084 55007 59012 69921;
0190832360999992004011512004-12150-045000FM-12+044099999V0200901N001010120019N0040001N1+02451+02251100981ADDAY161061AY251061GF108991071081008001021999KA1240N+02191MA1999999096101MD1999999-0121MW1101REMSYN088AAXX  15124 83236 21596 80902 10245 20225 39610 40098 71065 8782/ 333 20219 59012 60244;
0171832360999992004011518004-12150-045000FM-12+044099999V0200501N002610075019N0100001N1+02731+02301100571ADDAY161061AY261061GF108991071061008001021999MA1999999095711MD1999999-0041MW1161REMSYN082AAXX  15184 83236 21597 80505 10273 20230 39571 40057 71666 8762/ 333 59004 60091;
0226832360999992004011600004-12150-045000FM-12+044099999V0200501N001510450019N0100001N1+02431+02351100791ADDAA106000091AY121061AY221061GF106991041051008001041071KA1240M+02971MA1999999095921MD1999999-0081MW1131REMSYN094AAXX  16004 83236 31597 60503 10243 20235 39592 40079 71322 84547 333 10297 29090 55015 59008;EQDQ01  00002PRCP06
0190832360999992004011612004-12150-045000FM-12+044099999V0200901N002110120019N0040001N1+02521+02311100931ADDAY161061AY261061GF108991061081008001041999KA1240N+02241MA1999999096051MD1999999-0061MW1101REMSYN088AAXX  16124 83236 21596 80904 10252 20231 39605 40093 71066 8684/ 333 20224 59006 60384;
0171832360999992004011618004-12150-045000FM-12+044099999V0209999C000010120019N0020001N1+02271+02241100691ADDAY161061AY261061GF108991061081008001021999MA1999999095791MD1999999+0081MW1511REMSYN082AAXX  16184 83236 21595 80000 10227 20224 39579 40069 75166 8682/ 333 58008 60221;
0202832360999992004011700004-12150-045000FM-12+044099999V0200501N002110075019N0020001N1+02211+02131100921ADDAY151061AY251061GF108991071061008001041999KA1240M+02741MA1999999096021MD1999999+0101MW1511REMSYN100AAXX  17004 83236 21595 80504 10221 20213 39602 40092 75155 8764/ 333 10274 29095 55000 58010 60051;
0162832360999992004011712004-12150-045000FM-12+044099999V0209999C000010450019N0200001N1+02451+02251100931ADDGF106991031021008001061051KA1240N+02141MA1999999096031MD1999999-0021REMSYN082AAXX  17124 83236 22598 60000 10245 20225 39603 40093 83265 333 20214 59002 60274;
0190832360999992004011718004-12150-045000FM-12+044099999V0200501N001510075019N0040001N1+02681+02331100471ADDAY161061AY261061GF108991999061008001041999MA1999999095601MD1999999-0191MW1151REMSYN082AAXX  17184 83236 21596 80503 10268 20233 39560 40047 71566 8864/ 333 59019 60031;EQDQ01+000082SCOTLC
0190832360999992004011912004-12150-045000FM-12+044099999V0200501N001010120019N0040001N1+02331+02181101041ADDAY151061AY251061GF108991061081008001041999KA1240N+02151MA1999999096131MD1999999-0011MW1101REMSYN088AAXX  19124 83236 21596 80502 10233 20218 39613 40104 71055 8684/ 333 20215 59001 60264;
0171832360999992004011918004-12150-045000FM-12+044099999V0201801N002110075019N0100001N1+02441+02321100721ADDAY151061AY251061GF107991051051008001041001MA1999999095821MD1999999-0061MW1151REMSYN082AAXX  19184 83236 21597 71804 10244 20232 39582 40072 71555 85540 333 59006 69991;
0202832360999992004012000004-12150-045000FM-12+044099999V0209999C000012200019N0100001N1+02301+02271100891ADDAY151061AY251061GF104991041051008001001001KA1240M+02851MA1999999095981MD1999999-0041MW1021REMSYN100AAXX  20004 83236 21597 40000 10230 20227 39598 40089 70255 84500 333 10285 29094 55002 59004 60021;
0190832360999992004012012004-12150-045000FM-12+044099999V0209999C000010075019N0040001N1+02221+02191101081ADDAY161061AY261061GF108991081051008001999999KA1240N+02131MA1999999096151MD1999999+0021MW1461REMSYN088AAXX  20124 83236 21596 80000 10222 20219 39615 40108 74666 885// 333 20213 58002 60454;
0171832360999992004012018004-12150-045000FM-12+044099999V0209999C000010075019N0100001N1+02771+02341100671ADDAY151061AY251061GF107991051021008001011001MA1999999095811MD1999999-0011MW1021REMSYN082AAXX  20184 83236 21597 70000 10277 20234 39581 40067 70255 85210 333 59001 60011;
0226832360999992004012100004-12150-045000FM-12+044099999V0203601N002110075019N0100001N1+02441+02321100881ADDAA106000091AY101061AY221061GF107991071051008001001001KA1240M+02871MA1999999095981MD1999999+0001MW1411REMSYN094AAXX  21004 83236 31597 73604 10244 20232 39598 40088 74102 87500 333 10287 29090 55013 58000;EQDQ01  00002PRCP06
0190832360999992004012112004-12150-045000FM-12+044099999V0209999C000010120019N0100001N1+02401+02331101061ADDAY161061AY261061GF107991051081008001011001KA1240N+02231MA1999999096161MD1999999+0011MW1021REMSYN088AAXX  21124 83236 21597 70000 10240 20233 39616 40106 70266 85810 333 20223 58001 60044;
0167832360999992004012118004-12150-045000FM-12+044099999V0200901N003110075019N0100001N1+02731+02281100681ADDAA106000091GF107991051021008001081001MA1999999095821MD1999999+0011REMSYN070AAXX  21184 83236 32597 70906 10273 20228 39582 40068 85280 333 58001;EQDQ01  00002PRCP06
0202832360999992004012200004-12150-045000FM-12+044099999V0200501N003110075019N0040001N1+02311+02251100941ADDAY151061AY251061GF108991051071008001021999KA1240M+03051MA1999999096041MD1999999+0061MW1421REMSYN100AAXX  22004 83236 21596 80506 10231 20225 39604 40094 74255 8572/ 333 10305 29092 55010 58006 69921;
0202832360999992004012300004-12150-045000FM-12+044099999V0209999C000010210019N0020001N1+02221+02171100941ADDAY191061AY261061GF108991081001022501021999KA1240M+03041MA1999999096041MD1999999+0001MW1501REMSYN100AAXX  23004 83236 21895 80000 10222 20217 39604 40094 75096 8802/ 333 10304 29088 55044 58000 60391;
0190832360999992004012312004-12150-045000FM-12+044099999V0200501N002110075019N0040001N1+02301+02251101041ADDAY161061AY261061GF108991081051008001999999KA1240N+02171MA1999999096111MD1999999+0071MW1401REMSYN088AAXX  23124 83236 21596 80504 10230 20225 39611 40104 74066 885// 333 20217 58007 60514;
0167832360999992004012318004-12150-045000FM-12+044099999V0203601N003610120019N0100001N1+02631+02251100751ADDAA106000091GF108991081081008001999999MA1999999095871MD1999999+0021REMSYN070AAXX  23184 83236 32597 83607 10263 20225 39587 40075 888// 333 58002;EQDQ01  00002PRCP06
0226832360999992004012400004-12150-045000FM-12+044099999V0203601N001510075019N0040001N1+02351+02241100971ADDAA106000091AY101061AY221061GF108991081051008001999999KA1240M+02711MA1999999096071MD1999999+0031MW1401REMSYN094AAXX  24004 83236 31596 83603 10235 20224 39607 40097 74002 885// 333 10271 29091 55016 58003;EQDQ01  00002PRCP06
0209832360999992004012412004-12150-045000FM-12+044099999V0203601N000510210019N0040001N1+02231+02151101221ADDAY161061AY261061GF108991999081022501001021KA1240N+02211MA1999999096301MD1999999+0191MW1401REMSYN088AAXX  24124 83236 21896 83601 10223 20215 39630 40122 74066 88802 333 20221 58019 60024;EQDQ01+000082SCOTLC
0171832360999992004012418004-12150-045000FM-12+044099999V0200501N003110450019N0100001N1+02731+02191100831ADDAY151061AY251061GF106991031021008001041051MA1999999095951MD1999999+0081MW1021REMSYN082AAXX  24184 83236 21597 60506 10273 20219 39595 40083 70255 83245 333 58008 69951;
0190832360999992004012512004-12150-045000FM-12+044099999V0200501N002110450019N0100001N1+02571+02211101141ADDAY151061AY251061GF106991031021008001041041KA1240N+02181MA1999999096251MD1999999-0051MW1021REMSYN088AAXX  25124 83236 21597 60504 10257 20221 39625 40114 70255 83244 333 20218 59005 60024;
0171832360999992004012518004-12150-045000FM-12+044099999V0200501N004610450019N0100001N1+02821+02241100731ADDAY161061AY261061GF106991031031008001041031MA1999999096971MD1999999-0081MW1021REMSYN082AAXX  25184 83236 21597 60509 10282 20224 39697 40073 70266 83343 333 59008 60021;
0198832360999992004012600004-12150-045000FM-12+044099999V0200501N001010450019N0100001N1+02411+02211101091ADDAA106000091GF105991021021008001011001KA1240M+02941MA1999999096211MD1999999+0061REMSYN088AAXX  26004 83236 32597 50502 10241 20221 39621 40109 82210 333 10294 29082 55046 58006;EQDQ01  00002PRCP06
0162832360999992004012612004-12150-045000FM-12+044099999V0209999C000010450019N0100001N1+02591+02211101121ADDGF107991031021008001071001KA1240N+02221MA1999999096241MD1999999-0011REMSYN082AAXX  26124 83236 22597 70000 10259 20221 39624 40112 83270 333 20222 59001 60024;
0171832360999992004012618004-12150-045000FM-12+044099999V0200501N004110450019N0100001N1+02591+02171100761ADDAY161061AY261061GF107991041071008001011041MA1999999095891MD1999999+0021MW1021REMSYN082AAXX  26184 83236 21597 70508 10259 20217 39589 40076 70266 84714 333 58002 60071;
0226832360999992004012700004-12150-045000FM-12+044099999V0200501N001010450019N0040001N1+02441+02321101091ADDAA106000091AY101061AY221061GF108991031051008001021999KA1240M+02921MA1999999096211MD1999999+0001MW1401REMSYN094AAXX  27004 83236 31596 80502 10244 20232 39621 40109 74002 8352/ 333 10292 29086 55027 58000;EQDQ01  00002PRCP06
0162832360999992004012712004-12150-045000FM-12+044099999V0209999C000011050019N0100001N1+02441+02111101161ADDGF105991021021008001061041KA1240N+02141MA1999999096271MD1999999+0031REMSYN082AAXX  27124 83236 22597 50000 10244 20211 39627 40116 82264 333 20214 58003 60074;
0167832360999992004012718004-12150-045000FM-12+044099999V0200901N005112200019N0100001N1+02901+02151100761ADDAA106000091GF106991031021008001001061MA1999999095911MD1999999+0021REMSYN070AAXX  27184 83236 32597 60910 10290 20215 39591 40076 83206 333 58002;EQDQ01  00002PRCP06
0198832360999992004012800004-12150-045000FM-12+044099999V0209999C000010450019N0040001N1+02571+02421101001ADDAA106000091GF108991021071008001021999KA1240M+03031MA1999999096131MD1999999-0081REMSYN088AAXX  28004 83236 32596 80000 10257 20242 39613 40100 8272/ 333 10303 29082 55054 59008;EQDQ01  00002PRCP06
0186832360999992004012812004-12150-045000FM-12+044099999V0200901N002610450019N0100001N1+02561+02191101201ADDAA106000091GF107991041051008001071041KA1240N+02261MA1999999096331MD1999999+0061REMSYN076AAXX  28124 83236 32597 70905 10256 20219 39633 40120 84574 333 20226 58006;EQDQ01  00002PRCP06
0167832360999992004012818004-12150-045000FM-12+044099999V0200901N004110450019N0100001N1+02871+02161100881ADDAA106000091GF107991041031008001041031MA1999999096291MD1999999+0131REMSYN070AAXX  28184 83236 32597 70908 10287 20216 39629 40088 84343 333 58013;EQDQ01  00002PRCP06
0198832360999992004012900004-12150-045000FM-12+044099999V0209999C000012200019N0100001N1+02501+02361100991ADDAA106000091GF104991021071008001011001KA1240M+03061MA1999999096131MD1999999+0001REMSYN088AAXX  29004 83236 32597 40000 10250 20236 39613 40099 82710 333 10306 29082 55041 58000;EQDQ01  00002PRCP06
0190832360999992004012912004-12150-045000FM-12+044099999V0200501N001510075019N0040001N1+02301+02221101321ADDAY161061AY261061GF108991081051008001999999KA1240N+02191MA1999999096411MD1999999+0081MW1401REMSYN088AAXX  29124 83236 21596 80503 10230 20222 39641 40132 74066 885// 333 20219 58008 60074;
0171832360999992004012918004-12150-045000FM-12+044099999V0201801N003610075019N0100001N1+02291+02091101081ADDAY151061AY251061GF107991051071008001021001MA1999999096171MD1999999+0131MW1151REMSYN082AAXX  29184 83236 21597 71807 10229 20209 39617 40108 71555 85720 333 58013 69921;
0202832360999992004013000004-12150-045000FM-12+044099999V0209999C000010450019N0040001N1+02331+02201101011ADDAY151061AY251061GF108991031071008001021999KA1240M+02971MA1999999096101MD1999999-0031MW1021REMSYN100AAXX  30004 83236 21596 80000 10233 20220 39610 40101 70255 8372/ 333 10297 29092 55005 59003 69941;
0162832360999992004013012004-12150-045000FM-12+044099999V0200501N004110450019N0100001N1+02441+02111101281ADDGF107991031051008001071031KA1240N+02151MA1999999096371MD1999999-0041REMSYN082AAXX  30124 83236 22597 70508 10244 20211 39637 40128 83573 333 20215 59004 69964;
0167832360999992004013018004-12150-045000FM-12+044099999V0203601N001512200019N0100001N1+02781+02161100901ADDAA106000091GF106991021021008001001061MA1999999096031MD1999999-0141REMSYN070AAXX  30184 83236 32597 63603 10278 20216 39603 40090 82206 333 59014;EQDQ01  00002PRCP06
0198832360999992004013100004-12150-045000FM-12+044099999V0209999C000012200019N0100001N1+02401+02211101091ADDAA106000091GF104991021001022501061021KA1240M+02891MA1999999096191MD1999999+0091REMSYN088AAXX  31004 83236 32897 40000 10240 20221 39619 40109 82062 333 10289 29082 55042 58009;EQDQ01  00002PRCP06
0190832360999992004013112004-12150-045000FM-12+044099999V0209999C000010450019N0040001N1+02171+02111101491ADDAY161061AY261061GF108991041051008001021999KA1240N+02111MA1999999096531MD1999999+0161MW1601REMSYN088AAXX  31124 83236 21596 80000 10217 20211 39653 40149 76066 8452/ 333 20211 58016 60144;
0171832360999992004013118004-12150-045000FM-12+044099999V0201401N001010450019N0100001N1+02751+02301100931ADDAY161061AY261061GF106991041031008001041001MA1999999096061MD1999999+0031MW1151REMSYN082AAXX  31184 83236 21597 61402 10275 20230 39606 40093 71566 84340 333 58003 60051;
0190832360999992004020112004-12150-045000FM-12+044099999V0209999C000010075019N0040001N1+02281+02141101511ADDAY161061AY261061GF107991051051008001021001KA1240N+02171MA1999999096571MD1999999+0041MW1401REMSYN088AAXX  01124 83236 21596 70000 10228 20214 39657 40151 74066 85520 333 20217 58004 60204;
0167832360999992004020118004-12150-045000FM-12+044099999V0200501N001011050019N0100001N1+02651+02161101081ADDAA106000091GF106991021011008001081061MA1999999096191MD1999999+0131REMSYN070AAXX  01184 83236 32597 60502 10265 20216 39619 40108 82186 333 58013;EQDQ01  00002PRCP06
0202832360999992004020200004-12150-045000FM-12+044099999V0201801N000510075019N0040001N1+02291+02141101231ADDAY151061AY251061GF108991051051008001021999KA1240M+02751MA1999999096311MD1999999-0031MW1021REMSYN100AAXX  02004 83236 21596 81801 10229 20214 39631 40123 70255 8552/ 333 10275 29090 55008 59003 69951;
0203832360999992004020212004-12150-045000FM-12+044099999V0209999C000010450019N0040001N1+02181+02101101291ADDAY161061AY261061GF108991041051008001021001KA1240N+01971MA1999999096351MD1999999-0221REMSYN088AAXX  02124 83236 21596 80000 10218 20210 39635 40129 74866 84520 333 20197 59022 60194;EQDQ01+000482PRSWM1
0167832360999992004020218004-12150-045000FM-12+044099999V0203601N004112200019N0100001N1+02811+02201100781ADDAA106000091GF106991021021008001001061MA1999999095921MD1999999-0271REMSYN070AAXX  02184 83236 32597 63608 10281 20220 39592 40078 82206 333 59027;EQDQ01  00002PRCP06
0198832360999992004020300004-12150-045000FM-12+044099999V0201801N001510075019N0040001N1+02441+02171101111ADDAA106000091GF108991051051008001021999KA1240M+02971MA1999999096161MD1999999-0151REMSYN088AAXX  03004 83236 32596 81803 10244 20217 39616 40111 8552/ 333 10297 29084 55041 59015;EQDQ01  00002PRCP06
0190832360999992004020312004-12150-045000FM-12+044099999V0209999C000010075019N0040001N1+02171+02131101261ADDAY161061AY251061GF108991061061008001021999KA1240N+02101MA1999999096341MD1999999-0011MW1101REMSYN088AAXX  03124 83236 21596 80000 10217 20213 39634 40126 71065 8662/ 333 20210 59001 60224;
0199832360999992004020318004-12150-045000FM-12+044099999V0200501N001510075019N0100001N1+02691+02331100871ADDAA106000091GF107991051021008001051071MA1999999999999MD1999999+0071REMSYN070AAXX  03184 83236 32597 70503 10269 20233 38995 40087 85257 333 58007;EQDQ01+089953APOSP Q02  00002PRCP06Q03 089953APOSP 
0198832360999992004020400004-12150-045000FM-12+044099999V0202301N001010075019N0100001N1+02201+02131101111ADDAA106000091GF108991061021008001061999KA1240M+02831MA1999999096171MD1999999+0011REMSYN088AAXX  04004 83236 32597 82302 10220 20213 39617 40111 8626/ 333 10283 29093 55005 58001;EQDQ01  00002PRCP06
0186832360999992004020412004-12150-045000FM-12+044099999V0209999C000010075019N0100001N1+02401+02211101321ADDAA106000091GF108991061021008001071999KA1240N+02131MA1999999096421MD1999999+0081REMSYN076AAXX  04124 83236 32597 80000 10240 20221 39642 40132 8627/ 333 20213 58008;EQDQ01  00002PRCP06
0195832360999992004020418004-12150-045000FM-12+044099999V0203601N002110450019N0200001N1+02941+02161100821ADDAA106000091AY121061AY221061GF106991031051008001081071MA1999999095961MD1999999-0031MW1151REMSYN076AAXX  04184 83236 31598 63604 10294 20216 39596 40082 71522 83587 333 59003;EQDQ01  00002PRCP06
0198832360999992004020500004-12150-045000FM-12+044099999V0209999C000012200019N0200001N1+02411+02331100961ADDAA106000091GF104991021021012501001051KA1240M+03081MA1999999096071MD1999999-0101REMSYN088AAXX  05004 83236 32698 40000 10241 20233 39607 40096 82205 333 10308 29086 55056 59010;EQDQ01  00002PRCP06
0186832360999992004020512004-12150-045000FM-12+044099999V0209999C000010450019N0200001N1+02461+02211101201ADDAA106000091GF106991041021008001061051KA1240N+02071MA1999999096311MD1999999-0111REMSYN076AAXX  05124 83236 32598 60000 10246 20221 39631 40120 84265 333 20207 59011;EQDQ01  00002PRCP06
0167832360999992004020518004-12150-045000FM-12+044099999V0200501N001511050019N0200001N1+03061+02251100691ADDAA106000091GF105991041041008001001031MA1999999095851MD1999999-0111REMSYN070AAXX  05184 83236 32598 50503 10306 20225 39585 40069 84403 333 59011;EQDQ01  00002PRCP06
0198832360999992004020600004-12150-045000FM-12+044099999V0209999C000012200019N0200001N1+02391+02291100931ADDAA106000091GF104991021021012501051001KA1240M+03181MA1999999096041MD1999999-0031REMSYN088AAXX  06004 83236 32698 40000 10239 20229 39604 40093 82250 333 10318 29084 55082 59003;EQDQ01  00002PRCP06
0162832360999992004020612004-12150-045000FM-12+044099999V0209999C000011050019N0200001N1+02461+02251101031ADDGF105991041021008001001051KA1240N+02051MA1999999096141MD1999999-0171REMSYN082AAXX  06124 83236 22598 50000 10246 20225 39614 40103 84205 333 20205 59017 69934;
0167832360999992004020618004-12150-045000FM-12+044099999V0203601N001010450019N0200001N1+03151+02181100501ADDAA106000091GF106991031031008001051071MA1999999095681MD1999999-0171REMSYN070AAXX  06184 83236 32598 63602 10315 20218 39568 40050 83357 333 59017;EQDQ01  00002PRCP06
0226832360999992004020700004-12150-045000FM-12+044099999V0203601N002611050019N0200001N1+02601+02271100701ADDAA106000091AY121061AY221061GF106991041051008001001051KA1240M+03321MA1999999095851MD1999999-0191MW1131REMSYN094AAXX  07004 83236 31598 63605 10260 20227 39585 40070 71322 84505 333 10332 29077 55102 59019;EQDQ01  00002PRCP06
0186832360999992004020712004-12150-045000FM-12+044099999V0209999C000010450019N0200001N1+02691+02391100921ADDAA106000091GF105991031021008001051031KA1240N+02311MA1999999096081MD1999999-0061REMSYN076AAXX  07124 83236 32598 50000 10269 20239 39608 40092 83253 333 20231 59006;EQDQ01  00002PRCP06
0167832360999992004020718004-12150-045000FM-12+044099999V0203601N002611050019N0200001N1+03061+02111100501ADDAA106000091GF106991041021008001001071MA1999999095691MD1999999+0011REMSYN070AAXX  07184 83236 32598 63605 10306 20211 39569 40050 84207 333 58001;EQDQ01  00002PRCP06
0198832360999992004020800004-12150-045000FM-12+044099999V0209999C000012200019N0200001N1+02571+02381100801ADDAA106000091GF103991001001999999001051KA1240M+03171MA1999999095961MD1999999+0111REMSYN088AAXX  08004 83236 32998 30000 10257 20238 39596 40080 80005 333 10317 29080 55083 58011;EQDQ01  00002PRCP06
0190832360999992004020812004-12150-045000FM-12+044099999V0209999C000010075019N0040001N1+02441+02191101191ADDAY151061AY251061GF108991071051008001041999KA1240N+02251MA1999999096311MD1999999+0231MW1151REMSYN088AAXX  08124 83236 21596 80000 10244 20219 39631 40119 71555 8754/ 333 20225 58023 69924;
0171832360999992004020818004-12150-045000FM-12+044099999V0202701N001510075019N0040001N1+02481+02291100911ADDAY151061AY251061GF108991061061008001051999MA1999999096041MD1999999+0351MW1141REMSYN082AAXX  08184 83236 21596 82703 10248 20229 39604 40091 71455 8665/ 333 58035 60031;
0198832360999992004020900004-12150-045000FM-12+044099999V0209999C000010075019N0020001N1+02411+02311101191ADDAA106000091GF108991061071008001041999KA1240M+02971MA1999999096291MD1999999+0331REMSYN088AAXX  09004 83236 32595 80000 10241 20231 39629 40119 8674/ 333 10297 29091 55007 58033;EQDQ01  00002PRCP06
0190832360999992004020912004-12150-045000FM-12+044099999V0209999C000010075019N0020001N1+02211+02181101431ADDAY161061AY261061GF108991061051008001999999KA1240N+02111MA1999999096491MD1999999+0181MW1511REMSYN088AAXX  09124 83236 21595 80000 10221 20218 39649 40143 75166 865// 333 20211 58018 60174;
0171832360999992004020918004-12150-045000FM-12+044099999V0209999C000010075019N0020001N1+02311+02181101061ADDAY151061AY251061GF108991071061008001021999MA1999999096131MD1999999+0091MW1511REMSYN082AAXX  09184 83236 21595 80000 10231 20218 39613 40106 75155 8762/ 333 58009 60041;
0202832360999992004021000004-12150-045000FM-12+044099999V0209999C000010075019N0040001N1+02231+02191101241ADDAY121061AY221061GF108991061071008001021999KA1240M+02501MA1999999096291MD1999999+0001MW1141REMSYN100AAXX  10004 83236 21596 80000 10223 20219 39629 40124 71422 8672/ 333 10250 29097 55000 58000 69921;
0190832360999992004021012004-12150-045000FM-12+044099999V0209999C000010120019N0040001N1+02351+02241101261ADDAY151061AY251061GF108991061081008001041999KA1240N+02111MA1999999096341MD1999999-0151MW1101REMSYN088AAXX  10124 83236 21596 80000 10235 20224 39634 40126 71055 8684/ 333 20211 59015 60064;
0171832360999992004021018004-12150-045000FM-12+044099999V0202701N001510075019N0020001N1+02161+02111101021ADDAY161061AY261061GF108991051061008001999999MA1999999096171MD1999999+0041MW1611REMSYN082AAXX  10184 83236 21595 82703 10216 20211 39617 40102 76166 856// 333 58004 60241;
0202832360999992004021100004-12150-045000FM-12+044099999V0209999C000010075019N0040001N1+02161+02141101241ADDAY161061AY251061GF108991061071008001021041KA1240M+02741MA1999999096301MD1999999+0011MW1101REMSYN100AAXX  11004 83236 21596 80000 10216 20214 39630 40124 71065 86724 333 10274 29097 55000 58001 60051;
0162832360999992004021112004-12150-045000FM-12+044099999V0202301N001010450019N0200001N1+02461+02251101291ADDGF105991031021008001061051KA1240N+02051MA1999999096361MD1999999+0021REMSYN082AAXX  11124 83236 22598 52302 10246 20225 39636 40129 83265 333 20205 58002 60394;
0167832360999992004021118004-12150-045000FM-12+044099999V0203601N003110450019N0200001N1+02971+02231100881ADDAA106000091GF105991031021008001051031MA1999999096011MD1999999-0161REMSYN070AAXX  11184 83236 32598 53606 10297 20223 39601 40088 83253 333 59016;EQDQ01  00002PRCP06
0198832360999992004021200004-12150-045000FM-12+044099999V0209999C000012200019N0200001N1+02421+02231101081ADDAA106000091GF103991031021012501001001KA1240M+03081MA1999999096191MD1999999-0111REMSYN088AAXX  12004 83236 32698 30000 10242 20223 39619 40108 83200 333 10308 29083 55083 59011;EQDQ01  00002PRCP06
0186832360999992004021212004-12150-045000FM-12+044099999V0200501N001512200019N0200001N1+02601+02121101351ADDAA106000091GF102991021021012501001001KA1240N+02081MA1999999096461MD1999999+0101REMSYN076AAXX  12124 83236 32698 20503 10260 20212 39646 40135 82200 333 20208 58010;EQDQ01  00002PRCP06
0195832360999992004021218004-12150-045000FM-12+044099999V0200501N002612200019N0200001N1+02981+02171101071ADDAA106000091AY121061AY221061GF104991041051012501001001MA1999999096191MD1999999+0181MW1151REMSYN076AAXX  12184 83236 31698 40505 10298 20217 39619 40107 71522 84500 333 58018;EQDQ01  00002PRCP06
0198832360999992004021300004-12150-045000FM-12+044099999V0209999C000012200019N0200001N1+02331+02201101231ADDAA106000091GF103991021021008001001051KA1240M+03111MA1999999096341MD1999999+0151REMSYN088AAXX  13004 83236 32598 30000 10233 20220 39634 40123 82205 333 10311 29081 55105 58015;EQDQ01  00002PRCP06
0186832360999992004021312004-12150-045000FM-12+044099999V0209999C000011050019N0200001N1+02461+02171101381ADDAA106000091GF105991021021012501001071KA1240N+02021MA1999999096471MD1999999+0011REMSYN076AAXX  13124 83236 32698 50000 10246 20217 39647 40138 82207 333 20202 58001;EQDQ01  00002PRCP06
0167832360999992004021318004-12150-045000FM-12+044099999V0200501N002610450019N0200001N1+03011+02111100921ADDAA106000091GF106991041021008001071051MA1999999096051MD1999999-0141REMSYN070AAXX  13184 83236 32598 60505 10301 20211 39605 40092 84275 333 59014;EQDQ01  00002PRCP06
0198832360999992004021400004-12150-045000FM-12+044099999V0209999C000012200019N0200001N1+02521+02331101051ADDAA106000091GF102991021021012501001001KA1240M+03161MA1999999096171MD1999999-0171REMSYN088AAXX  14004 83236 32698 20000 10252 20233 39617 40105 82200 333 10316 29080 55101 59017;EQDQ01  00002PRCP06
0186832360999992004021412004-12150-045000FM-12+044099999V0200501N002111050019N0200001N1+02561+02131101281ADDAA106000091GF105991021021012501001051KA1240N+02011MA1999999096401MD1999999-0071REMSYN076AAXX  14124 83236 32698 50504 10256 20213 39640 40128 82205 333 20201 59007;EQDQ01  00002PRCP06
0167832360999992004021418004-12150-045000FM-12+044099999V0203601N002612200019N0200001N1+02971+02071100831ADDAA106000091GF103991021021012501001031MA1999999095971MD1999999-0081REMSYN070AAXX  14184 83236 32698 33605 10297 20207 39597 40083 82203 333 59008;EQDQ01  00002PRCP06
0198832360999992004021500004-12150-045000FM-12+044099999V0200501N001012200019N0200001N1+02541+02251100881ADDAA106000091GF102991001001999999001031KA1240M+03081MA1999999096021MD1999999-0151REMSYN088AAXX  15004 83236 32998 20502 10254 20225 39602 40088 80003 333 10308 29076 55111 59015;EQDQ01  00002PRCP06
0186832360999992004021512004-12150-045000FM-12+044099999V0200501N002612200019N0200001N1+02541+02001101171ADDAA106000091GF104991021021012501001051KA1240N+01931MA1999999096301MD1999999-0101REMSYN076AAXX  15124 83236 32698 40505 10254 20200 39630 40117 82205 333 20193 59010;EQDQ01  00002PRCP06
0167832360999992004021518004-12150-045000FM-12+044099999V0200501N003110450019N0200001N1+03071+01991100831ADDAA106000091GF105991031021008001061071MA1999999095971MD1999999+0001REMSYN070AAXX  15184 83236 32598 50506 10307 20199 39597 40083 83267 333 58000;EQDQ01  00002PRCP06
0186832360999992004021612004-12150-045000FM-12+044099999V0209999C000010450019N0200001N1+02531+02331101231ADDAA106000091GF105991031021008001061051KA1240N+02051MA1999999096351MD1999999+0051REMSYN076AAXX  16124 83236 32598 50000 10253 20233 39635 40123 83265 333 20205 58005;EQDQ01  00002PRCP06
0171832360999992004021618004-12150-045000FM-12+044099999V0200501N003110075019N0100001N1+02861+02231100771ADDAY161061AY261061GF108991071061008001041999MA1999999095911MD1999999-0061MW1151REMSYN082AAXX  16184 83236 21597 80506 10286 20223 39591 40077 71566 8764/ 333 59006 60081;
0202832360999992004021700004-12150-045000FM-12+044099999V0209999C000010075019N0020001N1+02371+02311101211ADDAY151061AY251061GF108991061051008001999999KA1240M+03081MA1999999096321MD1999999+0271MW1511REMSYN100AAXX  17004 83236 21595 80000 10237 20231 39632 40121 75155 865// 333 10308 29088 55059 58027 69921;
0162832360999992004021712004-12150-045000FM-12+044099999V0209999C000010450019N0100001N1+02641+02271101381ADDGF106991041021008001061051KA1240N+02171MA1999999096491MD1999999+0141REMSYN082AAXX  17124 83236 22597 60000 10264 20227 39649 40138 84265 333 20217 58014 60094;
0171832360999992004021718004-12150-045000FM-12+044099999V0209999C000010075019N0040001N1+02211+02151101241ADDAY161061AY261061GF108991081061008001999999MA1999999096291MD1999999+0381MW1101REMSYN082AAXX  17184 83236 21596 80000 10221 20215 39629 40124 71066 886// 333 58038 60131;
0198832360999992004021800004-12150-045000FM-12+044099999V0209999C000010450019N0100001N1+02221+02201101321ADDAA106000091GF106991041071012501041001KA1240M+02821MA1999999096421MD1999999+0101REMSYN088AAXX  18004 83236 32697 60000 10222 20220 39642 40132 84740 333 10282 29094 55020 58010;EQDQ01  00002PRCP06
0162832360999992004021812004-12150-045000FM-12+044099999V0209999C000010450019N0100001N1+02351+02291101431ADDGF108991021011008001051001KA1240N+02121MA1999999096511MD1999999+0021REMSYN082AAXX  18124 83236 22597 80000 10235 20229 39651 40143 82150 333 20212 58002 60134;
0203832360999992004021912004-12150-045000FM-12+044099999V0209999C000010450019N0040001N1+02281+02251101241ADDAY161061AY261061GF108991041051008001021999KA1240N+02161MA1999999096341MD1999999-0171REMSYN088AAXX  19124 83236 21596 80000 10228 20225 39634 40124 74866 8452/ 333 20216 59017 60334;EQDQ01+000482PRSWM1
0171832360999992004021918004-12150-045000FM-12+044099999V0203601N001511050019N0040001N1+02921+02291100701ADDAY151061AY251061GF107991041021008001001021MA1999999095871MD1999999-0151MW1021REMSYN082AAXX  19184 83236 21596 73603 10292 20229 39587 40070 70255 84202 333 59015 69961;
0226832360999992004022000004-12150-045000FM-12+044099999V0209999C000010450019N0100001N1+02521+02421100891ADDAA106000091AY101061AY221061GF107991031071008001021001KA1240M+03051MA1999999096001MD1999999-0131MW1131REMSYN094AAXX  20004 83236 31597 70000 10252 20242 39600 40089 71302 83720 333 10305 29089 55032 59013;EQDQ01  00002PRCP06
0203832360999992004022012004-12150-045000FM-12+044099999V0201801N001010450019N0040001N1+02111+02051101281ADDAY161061AY261061GF108991041051008001021999KA1240N+02011MA1999999096351MD1999999+0011REMSYN088AAXX  20124 83236 21596 81802 10211 20205 39635 40128 74866 8452/ 333 20201 58001 60144;EQDQ01+000482PRSWM1
0206832360999992004022018004-12150-045000FM-12+044099999V0201101N999991050019N0100001N1+02891+02281100791ADDAY161061AY261061GF107991041021008001001061MA1999999095941MD1999999+0071MW1021REMSYN082AAXX  20184 83236 21597 71180 10289 20228 39594 40079 70266 84206 333 58007 60011;EQDQ01+004113WOSPD Q020004113WOSPD 
0198832360999992004022100004-12150-045000FM-12+044099999V0209999C000010450019N0100001N1+02421+02321101031ADDAA106000091GF105991031071008001011001KA1240M+03001MA1999999096101MD1999999+0101REMSYN088AAXX  21004 83236 32597 50000 10242 20232 39610 40103 83710 333 10300 29089 55030 58010;EQDQ01  00002PRCP06
0162832360999992004022112004-12150-045000FM-12+044099999V0209999C000012200019N0100001N1+02431+02211101211ADDGF103991011011008001041001KA1240N+02111MA1999999096311MD1999999-0041REMSYN082AAXX  21124 83236 22597 30000 10243 20221 39631 40121 81140 333 20211 59004 60014;
0167832360999992004022118004-12150-045000FM-12+044099999V0201801N001510450019N0100001N1+02571+02351100911ADDAA106000091GF107991041071008001021001MA1999999096021MD1999999+0081REMSYN070AAXX  21184 83236 32597 71803 10257 20235 39602 40091 84720 333 58008;EQDQ01  00002PRCP06
0186832360999992004022212004-12150-045000FM-12+044099999V0203601N001510450019N0100001N1+02611+02331101251ADDAA106000091GF106991031021008001031021KA1240N+02261MA1999999096381MD1999999+0071REMSYN076AAXX  22124 83236 32597 63603 10261 20233 39638 40125 83232 333 20226 58007;EQDQ01  00002PRCP06
0167832360999992004022218004-12150-045000FM-12+044099999V0203601N003110450019N0100001N1+02981+02231100891ADDAA106000091GF106991031021008001071001MA1999999096041MD1999999+0021REMSYN070AAXX  22184 83236 32597 63606 10298 20223 39604 40089 83270 333 58002;EQDQ01  00002PRCP06
0167832360999992004022318004-12150-045000FM-12+044099999V0203601N003111050019N0100001N1+03031+02161100821ADDAA106000091GF105991031021008001001091MA1999999095971MD1999999-0071REMSYN070AAXX  23184 83236 32597 53606 10303 20216 39597 40082 83209 333 59007;EQDQ01  00002PRCP06
0198832360999992004022400004-12150-045000FM-12+044099999V0209999C000012200019N0100001N1+02531+02421101101ADDAA106000091GF104991041071008001001001KA1240M+03051MA1999999096231MD1999999-0041REMSYN088AAXX  24004 83236 32597 40000 10253 20242 39623 40110 84700 333 10305 29082 55103 59004;EQDQ01  00002PRCP06
0167832360999992004022418004-12150-045000FM-12+044099999V0203601N002112200019N0100001N1+02891+02251100841ADDAA106000091GF106991021021008001001061MA1999999095971MD1999999+0001REMSYN070AAXX  24184 83236 32597 63604 10289 20225 39597 40084 82206 333 58000;EQDQ01  00002PRCP06
0186832360999992004022512004-12150-045000FM-12+044099999V0202301N000510450019N0100001N1+02581+02211101231ADDAA106000091GF106991011011008001071001KA1240N+02191MA1999999096351MD1999999+0001REMSYN076AAXX  25124 83236 32597 62301 10258 20221 39635 40123 81170 333 20219 58000;EQDQ01  00002PRCP06
0167832360999992004022518004-12150-045000FM-12+044099999V0203601N002610450019N0100001N1+02941+02241100881ADDAA106000091GF107991041071008001011061MA1999999096021MD1999999+0051REMSYN070AAXX  25184 83236 32597 73605 10294 20224 39602 40088 84716 333 58005;EQDQ01  00002PRCP06
0198832360999992004022600004-12150-045000FM-12+044099999V0202701N001510450019N0100001N1+02501+02291101111ADDAA106000091GF108991041051008001021999KA1240M+03051MA1999999096241MD1999999+0161REMSYN088AAXX  26004 83236 32597 82703 10250 20229 39624 40111 8452/ 333 10305 29081 55046 58016;EQDQ01  00002PRCP06
0186832360999992004022612004-12150-045000FM-12+044099999V0209999C000010450019N0100001N1+02511+02231101401ADDAA106000091GF107991011011008001071001KA1240N+02181MA1999999096511MD1999999+0161REMSYN076AAXX  26124 83236 32597 70000 10251 20223 39651 40140 81170 333 20218 58016;EQDQ01  00002PRCP06
0176832360999992004022618004-12150-045000FM-12+044099999V0202701N001010450019N0100001N1+02871+02261100981ADDAA106000021AY101061AY291061GF107991041031008001041031MA1999999096121MD1999999+0101MW1961REMSYN076AAXX  26184 83236 31597 72702 10287 20226 39612 40098 79609 84343 333 58010;
0202832360999992004022700004-12150-045000FM-12+044099999V0202701N003110450019N0040001N1+02281+02091101421ADDAY161061AY261061GF108991041071008001021999KA1240M+03071MA1999999096511MD1999999+0271MW1021REMSYN100AAXX  27004 83236 21596 82706 10228 20209 39651 40142 70266 8472/ 333 10307 29083 55023 58027 60011;
0162832360999992004022712004-12150-045000FM-12+044099999V0209999C000012200019N0100001N1+02421+02211101331ADDGF104991011011008001061081KA1240N+02071MA1999999096391MD1999999-0171REMSYN082AAXX  27124 83236 22597 40000 10242 20221 39639 40133 81168 333 20207 59017 60014;
0167832360999992004022718004-12150-045000FM-12+044099999V0200501N002110450019N0100001N1+03051+02201100801ADDAA106000091GF106991031021008001071051MA1999999095951MD1999999-0171REMSYN070AAXX  27184 83236 32597 60504 10305 20220 39595 40080 83275 333 59017;EQDQ01  00002PRCP06
0214832360999992004022800004-12150-045000FM-12+044099999V0209999C000012200019N0100001N1+02361+02311100941ADDAA106000091GF104991021021008001061001KA1240M+99999MA1999999096051MD1999999-0461REMSYN088AAXX  28004 83236 32597 40000 10236 20231 39605 40094 82260 333 10098 29086 55065 59046;EQDQ01  00002PRCP06Q02 +00982ATMX  
0190832360999992004022812004-12150-045000FM-12+044099999V0200501N002110075019N0040001N1+02311+02231101181ADDAY161061AY261061GF108991051051008001021999KA1240N+02131MA1999999096261MD1999999-0131MW1401REMSYN088AAXX  28124 83236 21596 80504 10231 20223 39626 40118 74066 8552/ 333 20213 59013 60064;
0171832360999992004022818004-12150-045000FM-12+044099999V0200501N006710075019N0100001N1+02421+02131100741ADDAY151061AY251061GF107991071071008001001001MA1999999095861MD1999999-0091MW1151REMSYN082AAXX  28184 83236 21597 70513 10242 20213 39586 40074 71555 87700 333 59009 69941;
0198832360999992004022900004-12150-045000FM-12+044099999V0209999C000010120019N0100001N1+02401+02231100871ADDAA106000091GF107991071081008001001001KA1240M+02991MA1999999095971MD1999999-0081REMSYN088AAXX  29004 83236 32597 70000 10240 20223 39597 40087 87800 333 10299 29090 55034 59008;EQDQ01  00002PRCP06
0190832360999992004022912004-12150-045000FM-12+044099999V0203601N002110075019N0100001N1+02571+02351101171ADDAY101061AY241061GF107991071051008001001001KA1240N+02151MA1999999096291MD1999999+0031MW1021REMSYN088AAXX  29124 83236 21597 73604 10257 20235 39629 40117 70204 87500 333 20215 58003 69944;
0171832360999992004022918004-12150-045000FM-12+044099999V0203201N002111050019N0100001N1+02621+02351100731ADDAY191061AY261061GF106991041031008001001031MA1999999095851MD1999999-0011MW1151REMSYN082AAXX  29184 83236 21597 63204 10262 20235 39585 40073 71596 84303 333 59001 60011;
0202832360999992004030100004-12150-045000FM-12+044099999V0201801N001010075019N0020001N1+02251+02221101181ADDAY191061AY261061GF108991081071008001999999KA1240M+03051MA1999999096281MD1999999+0311MW1951REMSYN100AAXX  01004 83236 21595 81802 10225 20222 39628 40118 79596 887// 333 10305 29093 55054 58031 60081;
0190832360999992004030112004-12150-045000FM-12+044099999V0200901N001010450019N0100001N1+02491+02291101201ADDAY161061AY261061GF106991021021008001041051KA1240N+02141MA1999999096291MD1999999+0001MW1021REMSYN088AAXX  01124 83236 21597 60902 10249 20229 39629 40120 70266 82245 333 20214 58000 60264;
0195832360999992004030118004-12150-045000FM-12+044099999V0203601N002111050019N0100001N1+02891+02371100791ADDAA106000091AY101061AY291061GF107991041091008001001031MA1999999095931MD1999999+0081MW1151REMSYN076AAXX  01184 83236 31597 73604 10289 20237 39593 40079 71509 84903 333 58008;EQDQ01  00002PRCP06
0226832360999992004030200004-12150-045000FM-12+044099999V0200501N002110450019N0100001N1+02581+02371100991ADDAA106000091AY101061AY221061GF107991041071008001021001KA1240M+03031MA1999999096131MD1999999-0131MW1131REMSYN094AAXX  02004 83236 31597 70504 10258 20237 39613 40099 71302 84720 333 10303 29085 55057 59013;EQDQ01  00002PRCP06
0186832360999992004030212004-12150-045000FM-12+044099999V0209999C000012200019N0100001N1+02581+02251101241ADDAA106000091GF106991021021008001001061KA1240N+02201MA1999999096371MD1999999+0081REMSYN076AAXX  02124 83236 32597 60000 10258 20225 39637 40124 82206 333 20220 58008;EQDQ01  00002PRCP06
0167832360999992004030218004-12150-045000FM-12+044099999V0200501N003112200019N0100001N1+02971+02281100761ADDAA106000091GF105991021021008001001041MA1999999095921MD1999999-0011REMSYN070AAXX  02184 83236 32597 50506 10297 20228 39592 40076 82204 333 59001;EQDQ01  00002PRCP06
0226832360999992004030300004-12150-045000FM-12+044099999V0201801N001010450019N0100001N1+02531+02331101001ADDAA106000091AY101061AY221061GF107991031071008001071001KA1240M+03111MA1999999096141MD1999999+0011MW1131REMSYN094AAXX  03004 83236 31597 71802 10253 20233 39614 40100 71302 83770 333 10311 29081 55092 58001;EQDQ01  00002PRCP06
0190832360999992004030312004-12150-045000FM-12+044099999V0209999C000010075019N0020001N1+02071+02041101441ADDAY161061AY261061GF108991081001008001021999KA1240N+02011MA1999999096501MD1999999+0131MW1531REMSYN088AAXX  03124 83236 21595 80000 10207 20204 39650 40144 75366 8802/ 333 20201 58013 60394;
0171832360999992004030318004-12150-045000FM-12+044099999V0201801N001010450019N0100001N1+02761+02321100791ADDAY161061AY261061GF106991031021008001071001MA1999999095941MD1999999+0021MW1021REMSYN082AAXX  03184 83236 21597 61802 10276 20232 39594 40079 70266 83270 333 58002 60071;
0198832360999992004030400004-12150-045000FM-12+044099999V0200501N001010450019N0100001N1+02361+02191101081ADDAA106000091GF107991031071008001021001KA1240M+02871MA1999999096111MD1999999-0031REMSYN088AAXX  04004 83236 32597 70502 10236 20219 39611 40108 83720 333 10287 29089 55022 59003;EQDQ01  00002PRCP06
0162832360999992004030412004-12150-045000FM-12+044099999V0209999C000010450019N0200001N1+02321+02251101281ADDGF105991031021008001061051KA1240N+01981MA1999999096361MD1999999-0141REMSYN082AAXX  04124 83236 22598 50000 10232 20225 39636 40128 83265 333 20198 59014 60074;
0167832360999992004030418004-12150-045000FM-12+044099999V0203601N002110450019N0200001N1+02991+02421100731ADDAA106000091GF106991041021008001051071MA1999999095871MD1999999-0071REMSYN070AAXX  04184 83236 32598 63604 10299 20242 39587 40073 84257 333 59007;EQDQ01  00002PRCP06
0226832360999992004030500004-12150-045000FM-12+044099999V0201801N001010450019N0200001N1+02421+02281101091ADDAA106000091AY121061AY221061GF108991041051008001071999KA1240M+03091MA1999999096181MD1999999+0071MW1131REMSYN094AAXX  05004 83236 31598 81802 10242 20228 39618 40109 71322 8457/ 333 10309 29088 55094 58007;EQDQ01  00002PRCP06
0186832360999992004030512004-12150-045000FM-12+044099999V0209999C000010075019N0200001N1+02421+02321101331ADDAA106000091GF108991051071008001041999KA1240N+02201MA1999999096421MD1999999+0061REMSYN076AAXX  05124 83236 32598 80000 10242 20232 39642 40133 8574/ 333 20220 58006;EQDQ01  00002PRCP06
0167832360999992004030518004-12150-045000FM-12+044099999V0200501N004611050019N0200001N1+02921+02141100901ADDAA106000091GF105991031021008001001051MA1999999096041MD1999999+0171REMSYN070AAXX  05184 83236 32598 50509 10292 20214 39604 40090 83205 333 58017;EQDQ01  00002PRCP06
0198832360999992004030600004-12150-045000FM-12+044099999V0209999C000010075019N0200001N1+02341+02261101211ADDAA106000091GF107991051021008001071051KA1240M+03051MA1999999096311MD1999999+0131REMSYN088AAXX  06004 83236 32598 70000 10234 20226 39631 40121 85275 333 10305 29087 55061 58013;EQDQ01  00002PRCP06
0186832360999992004030612004-12150-045000FM-12+044099999V0209999C000012200019N0200001N1+02381+02051101321ADDAA106000091GF104991021021012501001071KA1240N+01931MA1999999096401MD1999999-0021REMSYN076AAXX  06124 83236 32698 40000 10238 20205 39640 40132 82207 333 20193 59002;EQDQ01  00002PRCP06
0167832360999992004030618004-12150-045000FM-12+044099999V0203601N003112200019N0200001N1+02941+02141100941ADDAA106000091GF103991021021008001001051MA1999999096081MD1999999+0041REMSYN070AAXX  06184 83236 32598 33606 10294 20214 39608 40094 82205 333 58004;EQDQ01  00002PRCP06
0198832360999992004030700004-12150-045000FM-12+044099999V0209999C000010450019N0200001N1+02461+02251101201ADDAA106000091GF105991031021012501051031KA1240M+03061MA1999999096301MD1999999-0011REMSYN088AAXX  07004 83236 32698 50000 10246 20225 39630 40120 83253 333 10306 29080 55108 59001;EQDQ01  00002PRCP06
0186832360999992004030712004-12150-045000FM-12+044099999V0209999C000012200019N0200001N1+02461+02131101391ADDAA106000091GF102991001001999999001031KA1240N+01941MA1999999096491MD1999999+0091REMSYN076AAXX  07124 83236 32998 20000 10246 20213 39649 40139 80003 333 20194 58009;EQDQ01  00002PRCP06
0171832360999992004030718004-12150-045000FM-12+044099999V0209999C000010075019N0200001N1+02921+02321100991ADDAY151061AY251061GF106991061051008001001001MA1999999096111MD1999999+0031MW1151REMSYN082AAXX  07184 83236 21598 60000 10292 20232 39611 40099 71555 86500 333 58003 69921;
0202832360999992004030800004-12150-045000FM-12+044099999V0209999C000012200019N0200001N1+02361+02261101191ADDAY151061AY251061GF103991021021008001001031KA1240M+03151MA1999999096291MD1999999-0011MW1021REMSYN100AAXX  08004 83236 21598 30000 10236 20226 39629 40119 70255 82203 333 10315 29085 55092 59001 60031;
0162832360999992004030812004-12150-045000FM-12+044099999V0209999C000010450019N0200001N1+02531+02151101411ADDGF106991031021008001051071KA1240N+02011MA1999999096511MD1999999+0021REMSYN082AAXX  08124 83236 22598 60000 10253 20215 39651 40141 83257 333 20201 58002 60034;
0195832360999992004030818004-12150-045000FM-12+044099999V0203601N002611050019N0200001N1+02931+02361101041ADDAA106000091AY121061AY221061GF105991041051008001001051MA1999999096151MD1999999+0041MW1151REMSYN076AAXX  08184 83236 31598 53605 10293 20236 39615 40104 71522 84505 333 58004;EQDQ01  00002PRCP06
0198832360999992004030900004-12150-045000FM-12+044099999V0209999C000012200019N0200001N1+02361+02201101171ADDAA106000091GF102991001001999999001031KA1240M+03111MA1999999096281MD1999999-0011REMSYN088AAXX  09004 83236 32998 20000 10236 20220 39628 40117 80003 333 10311 29084 55095 59001;EQDQ01  00002PRCP06
0186832360999992004030912004-12150-045000FM-12+044099999V0209999C000010450019N0200001N1+02501+02171101511ADDAA106000091GF106991041021008001051071KA1240N+02071MA1999999096601MD1999999+0091REMSYN076AAXX  09124 83236 32598 60000 10250 20217 39660 40151 84257 333 20207 58009;EQDQ01  00002PRCP06
0167832360999992004030918004-12150-045000FM-12+044099999V0203601N002611050019N0200001N1+02961+02261101061ADDAA106000091GF105991041021008001001051MA1999999096201MD1999999+0051REMSYN070AAXX  09184 83236 32598 53605 10296 20226 39620 40106 84205 333 58005;EQDQ01  00002PRCP06
0198832360999992004031000004-12150-045000FM-12+044099999V0209999C000011050019N0200001N1+02341+02151101241ADDAA106000091GF105991031021012501001071KA1240M+03121MA1999999096341MD1999999+0061REMSYN088AAXX  10004 83236 32698 50000 10234 20215 39634 40124 83207 333 10312 29082 55079 58006;EQDQ01  00002PRCP06
0186832360999992004031012004-12150-045000FM-12+044099999V0201401N001011050019N0200001N1+02511+02251101531ADDAA106000091GF106991041021008001001031KA1240N+02111MA1999999096611MD1999999+0011REMSYN076AAXX  10124 83236 32598 61402 10251 20225 39661 40153 84203 333 20211 58001;EQDQ01  00002PRCP06
0171832360999992004031018004-12150-045000FM-12+044099999V0200901N003110075019N0200001N1+02881+02181101171ADDAY151061AY251061GF107991061051008001071031MA1999999096281MD1999999+0081MW1151REMSYN082AAXX  10184 83236 21598 70906 10288 20218 39628 40117 71555 86573 333 58008 69911;
0212832360999992004031100004-12150-045000FM-12+044099999V0209999C000012200019N0200001N1+02281+02251101231ADDAY161061AY261061GA1001+999999999GF100991001001999999001001KA1240M+03051MA1999999096331MD1999999-0011MW1001REMSYN094AAXX  11004 83236 21998 00000 10228 20225 39633 40123 70066 333 10305 29087 55072 59001 69921;
0162832360999992004031112004-12150-045000FM-12+044099999V0209999C000012200019N0200001N1+02461+02231101241ADDGF103991001001999999001071KA1240N+01951MA1999999096331MD1999999-0281REMSYN082AAXX  11124 83236 22998 30000 10246 20223 39633 40124 80007 333 20195 59028 69934;
0167832360999992004031118004-12150-045000FM-12+044099999V0200501N002111050019N0200001N1+03051+02151100801ADDAA106000091GF105991031021008001001071MA1999999095941MD1999999-0341REMSYN070AAXX  11184 83236 32598 50504 10305 20215 39594 40080 83207 333 59034;EQDQ01  00002PRCP06
0202832360999992004031200004-12150-045000FM-12+044099999V0201801N001510075019N0200001N1+02381+02311100921ADDAY161061AY261061GF108991071051008001041999KA1240M+03171MA1999999096031MD1999999-0301MW1151REMSYN100AAXX  12004 83236 21598 81803 10238 20231 39603 40092 71566 8754/ 333 10317 29084 55109 59030 60031;
0162832360999992004031212004-12150-045000FM-12+044099999V0200901N001012200019N0200001N1+02621+02311101001ADDGF103991021021012501001051KA1240N+02141MA1999999096221MD1999999-0111REMSYN082AAXX  12124 83236 22698 30902 10262 20231 39622 40100 82205 333 20214 59011 60034;
0167832360999992004031218004-12150-045000FM-12+044099999V0200501N002111050019N0200001N1+03121+02331100591ADDAA106000091GF105991041021012501001071MA1999999095761MD1999999-0191REMSYN070AAXX  12184 83236 32698 50504 10312 20233 39576 40059 84207 333 59019;EQDQ01  00002PRCP06
0198832360999992004031300004-12150-045000FM-12+044099999V0209999C000012200019N0200001N1+02581+02401100841ADDAA106000091GF104991031021012501001071KA1240M+03251MA1999999095991MD1999999-0041REMSYN088AAXX  13004 83236 32698 40000 10258 20240 39599 40084 83207 333 10325 29082 55105 59004;EQDQ01  00002PRCP06
0186832360999992004031312004-12150-045000FM-12+044099999V0209999C000010450019N0200001N1+02511+02231101101ADDAA106000091GF106991041021012501061071KA1240N+02041MA1999999096231MD1999999+0011REMSYN076AAXX  13124 83236 32698 60000 10251 20223 39623 40110 84267 333 20204 58001;EQDQ01  00002PRCP06
0167832360999992004031318004-12150-045000FM-12+044099999V0203601N003110450019N0200001N1+03121+02301100741ADDAA106000091GF106991041021012501061031MA1999999095901MD1999999+0151REMSYN070AAXX  13184 83236 32698 63606 10312 20230 39590 40074 84263 333 58015;EQDQ01  00002PRCP06
0198832360999992004031400004-12150-045000FM-12+044099999V0201801N001012200019N0200001N1+02401+02261101011ADDAA106000091GF103991031021012501001001KA1240M+03251MA1999999096131MD1999999+0141REMSYN088AAXX  14004 83236 32698 31802 10240 20226 39613 40101 83200 333 10325 29083 55103 58014;EQDQ01  00002PRCP06
0186832360999992004031412004-12150-045000FM-12+044099999V0200501N001010450019N0200001N1+02501+02311101291ADDAA106000091GF106991041041008001071051KA1240N+02171MA1999999096391MD1999999+0161REMSYN076AAXX  14124 83236 32598 60502 10250 20231 39639 40129 84475 333 20217 58016;EQDQ01  00002PRCP06
0195832360999992004031418004-12150-045000FM-12+044099999V0200901N002610450019N0200001N1+02961+02061100771ADDAA106000091AY121061AY221061GF106991041051008001081071MA1999999095921MD1999999+0021MW1151REMSYN076AAXX  14184 83236 31598 60905 10296 20206 39592 40077 71522 84587 333 58002;EQDQ01  00002PRCP06
0226832360999992004031500004-12150-045000FM-12+044099999V0209999C000012200019N0200001N1+02501+02321101011ADDAA106000091AY121061AY221061GF104991041051008001001001KA1240M+03231MA1999999096141MD1999999+0011MW1131REMSYN094AAXX  15004 83236 31598 40000 10250 20232 39614 40101 71322 84500 333 10323 29082 55087 58001;EQDQ01  00002PRCP06
0214832360999992004031512004-12150-045000FM-12+044099999V0200901N001010075019N0200001N1+02491+02271101151ADDAA106000091AY121061AY221061GF106991051051008001071051KA1240N+02111MA1999999096271MD1999999-0121MW1151REMSYN082AAXX  15124 83236 31598 60902 10249 20227 39627 40115 71522 85575 333 20211 59012;EQDQ01  00002PRCP06
0171832360999992004031518004-12150-045000FM-12+044099999V0209999C000010075019N0100001N1+02651+02411100791ADDAY151061AY251061GF108991061071008001051999MA1999999095911MD1999999-0011MW1031REMSYN082AAXX  15184 83236 21597 80000 10265 20241 39591 40079 70355 8675/ 333 59001 69931;
0226832360999992004031600004-12150-045000FM-12+044099999V0209999C000010450019N0200001N1+02341+02291101031ADDAA106000091AY121061AY221061GF106991041051008001071051KA1240M+02831MA1999999096141MD1999999+0001MW1131REMSYN094AAXX  16004 83236 31598 60000 10234 20229 39614 40103 71322 84575 333 10283 29092 55021 58000;EQDQ01  00002PRCP06
0190832360999992004031612004-12150-045000FM-12+044099999V0200501N001010450019N0200001N1+02371+02171101061ADDAY161061AY261061GF106991041021008001061051KA1240N+02071MA1999999096151MD1999999-0121MW1031REMSYN088AAXX  16124 83236 21598 60502 10237 20217 39615 40106 70366 84265 333 20207 59012 60164;
0171832360999992004031618004-12150-045000FM-12+044099999V0209999C000010075019N0100001N1+02341+02311100661ADDAY161061AY261061GF108991061051008001041999MA1999999095751MD1999999-0161MW1151REMSYN082AAXX  16184 83236 21597 80000 10234 20231 39575 40066 71566 8654/ 333 59016 60031;
0202832360999992004031700004-12150-045000FM-12+044099999V0209999C000010075019N0040001N1+02301+02281100881ADDAY151061AY251061GF108991071061008001021999KA1240M+02961MA1999999095981MD1999999-0161MW1151REMSYN100AAXX  17004 83236 21596 80000 10230 20228 39598 40088 71555 8762/ 333 10296 29096 55036 59016 69951;
0190832360999992004031712004-12150-045000FM-12+044099999V0200901N001010075019N0020001N1+02121+02091101231ADDAY161061AY261061GF108991051061008001999999KA1240N+02051MA1999999096281MD1999999+0131MW1611REMSYN088AAXX  17124 83236 21595 80902 10212 20209 39628 40123 76166 856// 333 20205 58013 60294;
0171832360999992004031718004-12150-045000FM-12+044099999V0209999C000010075019N0040001N1+02481+02251100701ADDAY161061AY251061GF108991071071008001051999MA1999999095801MD1999999+0051MW1031REMSYN082AAXX  17184 83236 21596 80000 10248 20225 39580 40070 70365 8775/ 333 58005 60071;
0198832360999992004031800004-12150-045000FM-12+044099999V0209999C000010120019N0040001N1+02321+02291100921ADDAA106000091GF108991061081008001041999KA1240M+02601MA1999999095991MD1999999+0011REMSYN088AAXX  18004 83236 32596 80000 10232 20229 39599 40092 8684/ 333 10260 29095 55000 58001;EQDQ01  00002PRCP06
0190832360999992004031812004-12150-045000FM-12+044099999V0209999C000010075019N0040001N1+02361+02311101081ADDAY121061AY221061GF108991061071008001041999KA1240N+02121MA1999999096171MD1999999-0111MW1101REMSYN088AAXX  18124 83236 21596 80000 10236 20231 39617 40108 71022 8674/ 333 20212 59011 60074;
0171832360999992004031818004-12150-045000FM-12+044099999V0200901N001010075019N0040001N1+02351+02271100661ADDAY161061AY261061GF108991071051008001021999MA1999999095751MD1999999-0051MW1151REMSYN082AAXX  18184 83236 21596 80902 10235 20227 39575 40066 71566 8752/ 333 59005 60181;
0202832360999992004031900004-12150-045000FM-12+044099999V0209999C000010075019N0040001N1+02331+02271101071ADDAY121061AY221061GF108991071061008001999999KA1240M+02941MA1999999096161MD1999999+0171MW1511REMSYN100AAXX  19004 83236 21596 80000 10233 20227 39616 40107 75122 876// 333 10294 29097 55022 58017 69911;
0190832360999992004031912004-12150-045000FM-12+044099999V0200501N001010075019N0040001N1+02311+99999101211ADDAY151061AY251061GF108991061071008001041999KA1240N+02121MA1999999096291MD1999999+0121MW1101REMSYN088AAXX  19124 83236 21596 80502 10231 2//// 39629 40121 71055 8674/ 333 20212 58012 60184;
0167832360999992004031918004-12150-045000FM-12+044099999V0200501N002610120019N0100001N1+02671+02291100651ADDAA106000091GF108991071081008001051999MA1999999095771MD1999999+0021REMSYN070AAXX  19184 83236 32597 80505 10267 20229 39577 40065 8785/ 333 58002;EQDQ01  00002PRCP06
0196832360999992004032000004-12150-045000FM-12+044099999V0200901N001510075019N0040001N1+02421+02281100971ADDAY121061AY221061GF108991061051008001041999KA1240M+02931MA1999999096071MD1999999-0091MW1131REMSYN094AAXX  20004 83236 21596 80903 10242 20228 39607 40097 71322 8654/ 333 10293 29090 55020 59009;
0190832360999992004032012004-12150-045000FM-12+044099999V0209999C000010120019N0040001N1+02371+02311101131ADDAY151061AY251061GF108991061081008001041999KA1240N+02211MA1999999096231MD1999999-0061MW1101REMSYN088AAXX  20124 83236 21596 80000 10237 20231 39623 40113 71055 8684/ 333 20221 59006 60044;
0171832360999992004032018004-12150-045000FM-12+044099999V0200501N007710075019N0040001N1+02471+02071100801ADDAY161061AY251061GF108991071061008001051999MA1999999095901MD1999999+0131MW1171REMSYN082AAXX  20184 83236 21596 80515 10247 20207 39590 40080 71765 8765/ 333 58013 60031;
0202832360999992004032100004-12150-045000FM-12+044099999V0200501N001510075019N0040001N1+02261+02051101051ADDAY151061AY251061GF108991061051008001071999KA1240M+02881MA1999999096141MD1999999+0071MW1131REMSYN100AAXX  21004 83236 21596 80503 10226 20205 39614 40105 71355 8657/ 333 10288 29088 55016 58007 69911;
0190832360999992004032112004-12150-045000FM-12+044099999V0209999C000010075019N0040001N1+02301+02231101071ADDAY161061AY251061GF108991071071008001051999KA1240N+02161MA1999999096151MD1999999-0081MW1101REMSYN088AAXX  21124 83236 21596 80000 10230 20223 39615 40107 71065 8775/ 333 20216 59008 60064;
0186832360999992004032212004-12150-045000FM-12+044099999V0209999C000010450019N0200001N1+02461+02321101011ADDAA106000091GF106991041021008001061071KA1240N+02201MA1999999096131MD1999999-0021REMSYN076AAXX  22124 83236 32598 60000 10246 20232 39613 40101 84267 333 20220 59002;EQDQ01  00002PRCP06
0167832360999992004032218004-12150-045000FM-12+044099999V0209999C000010150019N0040001N1+02681+02331100661ADDAA106000091GF108991061081012501041999MA1999999095801MD1999999+0051REMSYN070AAXX  22184 83236 32696 80000 10268 20233 39580 40066 8684/ 333 58005;EQDQ01  00002PRCP06
0226832360999992004032300004-12150-045000FM-12+044099999V0209999C000010075019N0040001N1+02441+02411100991ADDAA106000091AY121061AY221061GF108991061051008001041999KA1240M+02961MA1999999096111MD1999999+0081MW1131REMSYN094AAXX  23004 83236 31596 80000 10244 20241 39611 40099 71322 8654/ 333 10296 29092 55019 58008;EQDQ01  00002PRCP06
0190832360999992004032312004-12150-045000FM-12+044099999V0201401N001510075019N0020001N1+02121+02091101281ADDAY161061AY261061GF108991071061008001041999KA1240N+02061MA1999999096351MD1999999+0221MW1511REMSYN088AAXX  23124 83236 21595 81403 10212 20209 39635 40128 75166 8764/ 333 20206 58022 60074;
0171832360999992004032318004-12150-045000FM-12+044099999V0200501N002110450019N0200001N1+02521+02331100821ADDAY151061AY251061GF106991041051008001071051MA1999999095931MD1999999+0131MW1171REMSYN082AAXX  23184 83236 21598 60504 10252 20233 39593 40082 71755 84575 333 58013 69951;
0226832360999992004032400004-12150-045000FM-12+044099999V0200501N002610075019N0040001N1+02361+02281101171ADDAA106000091AY121061AY221061GF108991061051008001041999KA1240M+02801MA1999999096241MD1999999+0131MW1131REMSYN094AAXX  24004 83236 31596 80505 10236 20228 39624 40117 71322 8654/ 333 10280 29094 55021 58013;EQDQ01  00002PRCP06
0190832360999992004032412004-12150-045000FM-12+044099999V0209999C000010450019N0040001N1+02271+02181101341ADDAY151061AY251061GF108991041051008001021999KA1240N+02091MA1999999096411MD1999999+0061MW1021REMSYN088AAXX  24124 83236 21596 80000 10227 20218 39641 40134 70255 8452/ 333 20209 58006 60044;
0214832360999992004032512004-12150-045000FM-12+044099999V0209999C000010450019N0040001N1+02391+02261101211ADDAA106000091AY121061AY221061GF108991031051008001021999KA1240N+02241MA1999999096301MD1999999-0111MW1401REMSYN082AAXX  25124 83236 31596 80000 10239 20226 39630 40121 74022 8352/ 333 20224 59011;EQDQ01  00002PRCP06
0167832360999992004032518004-12150-045000FM-12+044099999V0203601N001011050019N0040001N1+02981+02251100701ADDAA106000091GF106991041021008001001021MA1999999095871MD1999999-0121REMSYN070AAXX  25184 83236 32596 63602 10298 20225 39587 40070 84202 333 59012;EQDQ01  00002PRCP06
0202832360999992004032600004-12150-045000FM-12+044099999V0203201N000510210019N0040001N1+02241+02171101121ADDAY151061AY251061GF108991081001022501021999KA1240M+03101MA1999999096201MD1999999+0061MW1021REMSYN100AAXX  26004 83236 21896 83201 10224 20217 39620 40112 70255 8802/ 333 10310 29088 55046 58006 69931;
0190832360999992004032612004-12150-045000FM-12+044099999V0200501N001010075019N0040001N1+02261+02121101281ADDAY151061AY251061GF108991051051008001021999KA1240N+02111MA1999999096241MD1999999+0041MW1021REMSYN088AAXX  26124 83236 21596 80502 10226 20212 39624 40128 70255 8552/ 333 20211 58004 60024;
0171832360999992004032618004-12150-045000FM-12+044099999V0201801N002110075019N0040001N1+02291+02261100921ADDAY161061AY261061GF108991051071008001021999MA1999999096011MD1999999+0141MW1511REMSYN082AAXX  26184 83236 21596 81804 10229 20226 39601 40092 75166 8572/ 333 58014 60201;
0202832360999992004032700004-12150-045000FM-12+044099999V0209999C000010450019N0040001N1+02181+02151101041ADDAY151061AY251061GF108991041051008001021999KA1240M+02911MA1999999096101MD1999999-0101MW1501REMSYN100AAXX  27004 83236 21596 80000 10218 20215 39610 40104 75055 8452/ 333 10291 29097 55023 59010 60031;
0190832360999992004032712004-12150-045000FM-12+044099999V0209999C000011050019N0100001N1+02381+02191101111ADDAY151061AY251061GF106991031001022501031051KA1240N+02041MA1999999096191MD1999999-0151MW1021REMSYN088AAXX  27124 83236 21897 60000 10238 20219 39619 40111 70255 83035 333 20204 59015 60234;
0167832360999992004032718004-12150-045000FM-12+044099999V0203601N001510450019N0100001N1+02821+02241100751ADDAA106000091GF107991021021008001031061MA1999999095891MD1999999-0121REMSYN070AAXX  27184 83236 32597 73603 10282 20224 39589 40075 82236 333 59012;EQDQ01  00002PRCP06
0198832360999992004032800004-12150-045000FM-12+044099999V0209999C000010450019N0100001N1+02471+02321100891ADDAA106000091GF107991041071008001021001KA1240M+02931MA1999999096001MD1999999-0101REMSYN088AAXX  28004 83236 32597 70000 10247 20232 39600 40089 84720 333 10293 29086 55060 59010;EQDQ01  00002PRCP06
0186832360999992004032812004-12150-045000FM-12+044099999V0209999C000010450019N0100001N1+02341+02111101191ADDAA106000091GF108991031071008001031051KA1240N+02211MA1999999096291MD1999999+0101REMSYN076AAXX  28124 83236 32597 80000 10234 20211 39629 40119 83735 333 20221 58010;EQDQ01  00002PRCP06
0167832360999992004032818004-12150-045000FM-12+044099999V0200901N002610450019N0100001N1+02801+02151100801ADDAA106000091GF106991031021008001061051MA1999999095951MD1999999+0061REMSYN070AAXX  28184 83236 32597 60905 10280 20215 39595 40080 83265 333 58006;EQDQ01  00002PRCP06
0198832360999992004032900004-12150-045000FM-12+044099999V0209999C000012200019N0100001N1+02361+02261101061ADDAA106000091GF104991041071008001001001KA1240M+02941MA1999999096151MD1999999+0151REMSYN088AAXX  29004 83236 32597 40000 10236 20226 39615 40106 84700 333 10294 29086 55048 58015;EQDQ01  00002PRCP06
0186832360999992004032912004-12150-045000FM-12+044099999V0202301N001010450019N0100001N1+02521+02271101331ADDAA106000091GF106991021021008001061001KA1240N+02141MA1999999096431MD1999999+0141REMSYN076AAXX  29124 83236 32597 62302 10252 20227 39643 40133 82260 333 20214 58014;EQDQ01  00002PRCP06
0167832360999992004032918004-12150-045000FM-12+044099999V0200501N002610450019N0100001N1+03011+02171100911ADDAA106000091GF105991031021008001061091MA1999999096061MD1999999+0111REMSYN070AAXX  29184 83236 32597 50505 10301 20217 39606 40091 83269 333 58011;EQDQ01  00002PRCP06
0226832360999992004033000004-12150-045000FM-12+044099999V0209999C000012200019N0100001N1+02481+02431101181ADDAA106000091AY101061AY221061GF103991021071008001041001KA1240M+03131MA1999999096301MD1999999+0151MW1131REMSYN094AAXX  30004 83236 31597 30000 10248 20243 39630 40118 71302 82740 333 10313 29085 55085 58015;EQDQ01  00002PRCP06
0186832360999992004033012004-12150-045000FM-12+044099999V0202701N001011050019N0100001N1+02521+02231101431ADDAA106000091GF106991021021008001061041KA1240N+02051MA1999999096541MD1999999+0111REMSYN076AAXX  30124 83236 32597 62702 10252 20223 39654 40143 82264 333 20205 58011;EQDQ01  00002PRCP06
0167832360999992004033018004-12150-045000FM-12+044099999V0202701N000510450019N0100001N1+03141+02241100911ADDAA106000091GF105991041031008001041001MA1999999096071MD1999999+0011REMSYN070AAXX  30184 83236 32597 52701 10314 20224 39607 40091 84340 333 58001;EQDQ01  00002PRCP06
0202832360999992004033100004-12150-045000FM-12+044099999V0203601N003610075019N0020001N1+02111+02021101301ADDAY161061AY261061GF108991061071008001021999KA1240M+03191MA1999999096371MD1999999+0071MW1971REMSYN100AAXX  31004 83236 21595 83607 10211 20202 39637 40130 79766 8672/ 333 10319 29083 55083 58007 60091;
0190832360999992004033112004-12150-045000FM-12+044099999V0209999C000010450019N0200001N1+02371+02291101441ADDAY161061AY251061GF105991031021012501061031KA1240N+02051MA1999999096491MD1999999-0051MW1021REMSYN088AAXX  31124 83236 21698 50000 10237 20229 39649 40144 70265 83263 333 20205 59005 60164;
0167832360999992004033118004-12150-045000FM-12+044099999V0200501N001510075019N0200001N1+02951+02291100951ADDAA106000091GF107991051021008001071051MA1999999096081MD1999999+0011REMSYN070AAXX  31184 83236 32598 70503 10295 20229 39608 40095 85275 333 58001;EQDQ01  00002PRCP06
0226832360999992004040100004-12150-045000FM-12+044099999V0209999C000010450019N0200001N1+02511+02381101181ADDAA106000091AY121061AY221061GF105991031051008001071061KA1240M+03091MA1999999096291MD1999999-0081MW1131REMSYN094AAXX  01004 83236 31598 50000 10251 20238 39629 40118 71322 83576 333 10309 29088 55091 59008;EQDQ01  00002PRCP06
0190832360999992004040112004-12150-045000FM-12+044099999V0201801N001010450019N0100001N1+02501+02131101391ADDAY151061AY251061GF105991031041008001031001KA1240N+02101MA1999999096501MD1999999+0011MW1021REMSYN088AAXX  01124 83236 21597 51802 10250 20213 39650 40139 70255 83430 333 20210 58001 69924;
0195832360999992004040118004-12150-045000FM-12+044099999V0203601N002611050019N0100001N1+02971+02261100871ADDAA106000091AY101061AY291061GF105991031031008001001031MA1999999096021MD1999999-0061MW1171REMSYN076AAXX  01184 83236 31597 53605 10297 20226 39602 40087 71709 83303 333 59006;EQDQ01  00002PRCP06
0183832360999992004040218004-12150-045000FM-12+044099999V0200501N002112200019N0200001N1+03061+02251100881ADDAA106000091GF104991999021008001001001MA1999999096021MD1999999+0001REMSYN070AAXX  02184 83236 32598 40504 10306 20225 39602 40088 83200 333 58000;EQDQ01+000032SCOTLCQ02  00002PRCP06
0198832360999992004040300004-12150-045000FM-12+044099999V0202701N000510120019N0100001N1+02421+02151101151ADDAA106000091GF106991061081008001001001KA1240M+03171MA1999999096251MD1999999-0121REMSYN088AAXX  03004 83236 32597 62701 10242 20215 39625 40115 86800 333 10317 29080 55105 59012;EQDQ01  00002PRCP06
0186832360999992004040512004-12150-045000FM-12+044099999V0209999C000012200019N0200001N1+02481+02071101381ADDAA106000091GF102991001001999999001081KA1240N+01941MA1999999096491MD1999999-0041REMSYN076AAXX  05124 83236 32998 20000 10248 20207 39649 40138 80008 333 20194 59004;EQDQ01  00002PRCP06
0167832360999992004040518004-12150-045000FM-12+044099999V0200501N002112200019N0200001N1+03101+02311100921ADDAA106000091GF102991021021008001001001MA1999999096071MD1999999+0031REMSYN070AAXX  05184 83236 32598 20504 10310 20231 39607 40092 82200 333 58003;EQDQ01  00002PRCP06
0186832360999992004040612004-12150-045000FM-12+044099999V0209999C000012200019N0200001N1+02481+02171101271ADDAA106000091GF104991001001999999001051KA1240N+01911MA1999999096371MD1999999-0121REMSYN076AAXX  06124 83236 32998 40000 10248 20217 39637 40127 80005 333 20191 59012;EQDQ01  00002PRCP06
0167832360999992004040618004-12150-045000FM-12+044099999V0203601N001511050019N0200001N1+03051+02151100791ADDAA106000091GF106991021021008001001051MA1999999095931MD1999999-0141REMSYN070AAXX  06184 83236 32598 63603 10305 20215 39593 40079 82205 333 59014;EQDQ01  00002PRCP06
0226832360999992004040700004-12150-045000FM-12+044099999V0209999C000011050019N0200001N1+02401+02281101051ADDAA106000091AY101061AY221061GF105991021071008001001051KA1240M+03171MA1999999096161MD1999999-0041MW1131REMSYN094AAXX  07004 83236 31598 50000 10240 20228 39616 40105 71302 82705 333 10317 29082 55105 59004;EQDQ01  00002PRCP06
0186832360999992004040712004-12150-045000FM-12+044099999V0209999C000010450019N0100001N1+02631+02251101201ADDAA106000091GF106991011011008001051001KA1240N+02091MA1999999096321MD1999999-0051REMSYN076AAXX  07124 83236 32597 60000 10263 20225 39632 40120 81150 333 20209 59005;EQDQ01  00002PRCP06
0167832360999992004040718004-12150-045000FM-12+044099999V0203601N002610450019N0100001N1+03061+02081100741ADDAA106000091GF106991021021008001041051MA1999999095901MD1999999-0031REMSYN070AAXX  07184 83236 32597 63605 10306 20208 39590 40074 82245 333 59003;EQDQ01  00002PRCP06
0226832360999992004040800004-12150-045000FM-12+044099999V0209999C000010075019N0100001N1+02561+02361101031ADDAA106000091AY121061AY221061GF108991051071008001021999KA1240M+03191MA1999999096171MD1999999+0011MW1131REMSYN094AAXX  08004 83236 31597 80000 10256 20236 39617 40103 71322 8572/ 333 10319 29082 55058 58001;EQDQ01  00002PRCP06
0186832360999992004040812004-12150-045000FM-12+044099999V0209999C000011050019N0100001N1+02631+02331101251ADDAA106000091GF105991021021008001031011KA1240N+02221MA1999999096381MD1999999+0061REMSYN076AAXX  08124 83236 32597 50000 10263 20233 39638 40125 82231 333 20222 58006;EQDQ01  00002PRCP06
0195832360999992004040818004-12150-045000FM-12+044099999V0202301N002110450019N0100001N1+02861+02191100881ADDAA106000091AY101061AY291061GF106991041091008001041001MA1999999096021MD1999999+0121MW1171REMSYN076AAXX  08184 83236 31597 62304 10286 20219 39602 40088 71709 84940 333 58012;EQDQ01  00002PRCP06
0198832360999992004040900004-12150-045000FM-12+044099999V0201801N001012200019N0100001N1+02381+02151101091ADDAA106000091GF103991031041008001001001KA1240M+03281MA1999999096211MD1999999+0041REMSYN088AAXX  09004 83236 32597 31802 10238 20215 39621 40109 83400 333 10328 29081 55064 58004;EQDQ01  00002PRCP06
0186832360999992004040912004-12150-045000FM-12+044099999V0200501N003112200019N0200001N1+02641+02201101311ADDAA106000091GF104991021021008001041001KA1240N+02181MA1999999096421MD1999999+0041REMSYN076AAXX  09124 83236 32598 40506 10264 20220 39642 40131 82240 333 20218 58004;EQDQ01  00002PRCP06
0167832360999992004040918004-12150-045000FM-12+044099999V0203601N002112200019N0200001N1+03091+02211100871ADDAA106000091GF105991021021008001001061MA1999999096021MD1999999+0001REMSYN070AAXX  09184 83236 32598 53604 10309 20221 39602 40087 82206 333 58000;EQDQ01  00002PRCP06
0226832360999992004041000004-12150-045000FM-12+044099999V0209999C000012200019N0200001N1+02481+02341101041ADDAA106000091AY121061AY221061GF104991041071008001001001KA1240M+03151MA1999999096171MD1999999-0041MW1131REMSYN094AAXX  10004 83236 31598 40000 10248 20234 39617 40104 71322 84700 333 10315 29080 55066 59004;EQDQ01  00002PRCP06
0186832360999992004041012004-12150-045000FM-12+044099999V0209999C000011050019N0100001N1+02461+02271101061ADDAA106000091GF105991031021008001001051KA1240N+02101MA1999999096171MD1999999-0251REMSYN076AAXX  10124 83236 32597 50000 10246 20227 39617 40106 83205 333 20210 59025;EQDQ01  00002PRCP06
0167832360999992004041018004-12150-045000FM-12+044099999V0200501N003111050019N0100001N1+03041+02121100481ADDAA106000091GF105991031021008001001051MA1999999095641MD1999999-0381REMSYN070AAXX  10184 83236 32597 50506 10304 20212 39564 40048 83205 333 59038;EQDQ01  00002PRCP06
0198832360999992004041100004-12150-045000FM-12+044099999V0201801N002110450019N0100001N1+02451+02091100781ADDAA106000091GF108991041071008001021999KA1240M+03201MA1999999095911MD1999999-0261REMSYN088AAXX  11004 83236 32597 81804 10245 20209 39591 40078 8472/ 333 10320 29077 55074 59026;EQDQ01  00002PRCP06
0190832360999992004041112004-12150-045000FM-12+044099999V0202301N001010450019N0100001N1+02321+02221100931ADDAY161061AY261061GF106991041041008001041001KA1240N+02181MA1999999096041MD1999999-0131MW1401REMSYN088AAXX  11124 83236 21597 62302 10232 20222 39604 40093 74066 84440 333 20218 59013 60044;
0167832360999992004041118004-12150-045000FM-12+044099999V0203601N003110450019N0100001N1+02931+02191100471ADDAA106000091GF107991021021008001061061MA1999999095631MD1999999-0011REMSYN070AAXX  11184 83236 32597 73606 10293 20219 39563 40047 82266 333 59001;EQDQ01  00002PRCP06
0198832360999992004041200004-12150-045000FM-12+044099999V0202301N000510450019N0100001N1+02461+02341100801ADDAA106000091GF106991041071008001021001KA1240M+03081MA1999999095921MD1999999+0011REMSYN088AAXX  12004 83236 32597 62301 10246 20234 39592 40080 84720 333 10308 29086 55056 58001;EQDQ01  00002PRCP06
0186832360999992004041212004-12150-045000FM-12+044099999V0202301N000512200019N0200001N1+02501+02251100971ADDAA106000091GF104991021021008001061001KA1240N+02101MA1999999096101MD1999999+0061REMSYN076AAXX  12124 83236 32598 42301 10250 20225 39610 40097 82260 333 20210 58006;EQDQ01  00002PRCP06
0167832360999992004041218004-12150-045000FM-12+044099999V0200501N003110450019N0100001N1+02961+02211100541ADDAA106000091GF107991031021008001021001MA1999999095701MD1999999+0071REMSYN070AAXX  12184 83236 32597 70506 10296 20221 39570 40054 83220 333 58007;EQDQ01  00002PRCP06
0198832360999992004041300004-12150-045000FM-12+044099999V0201801N001010450019N0100001N1+02501+02341100951ADDAA106000091GF105991021071008001011001KA1240M+03291MA1999999096081MD1999999+0161REMSYN088AAXX  13004 83236 32597 51802 10250 20234 39608 40095 82710 333 10329 29083 55062 58016;EQDQ01  00002PRCP06
0186832360999992004041312004-12150-045000FM-12+044099999V0209999C000010075019N0100001N1+02281+02131101361ADDAA106000091GF108991061071008001041999KA1240N+02191MA1999999096451MD1999999+0351REMSYN076AAXX  13124 83236 32597 80000 10228 20213 39645 40136 8674/ 333 20219 58035;EQDQ01  00002PRCP06
0167832360999992004041318004-12150-045000FM-12+044099999V0209999C000010075019N0100001N1+02841+02261100981ADDAA106000091GF108991071021008001071999MA1999999096121MD1999999+0421REMSYN070AAXX  13184 83236 32597 80000 10284 20226 39612 40098 8727/ 333 58042;EQDQ01  00002PRCP06
0198832360999992004041400004-12150-045000FM-12+044099999V0201801N001510075019N0100001N1+02461+02271101181ADDAA106000091GF108991061021008001081999KA1240M+02961MA1999999096271MD1999999+0191REMSYN088AAXX  14004 83236 32597 81803 10246 20227 39627 40118 8628/ 333 10296 29085 55002 58019;EQDQ01  00002PRCP06
0186832360999992004041412004-12150-045000FM-12+044099999V0209999C000011050019N0200001N1+02621+02371101251ADDAA106000091GF105991031021008001001031KA1240N+02171MA1999999096371MD1999999-0081REMSYN076AAXX  14124 83236 32598 50000 10262 20237 39637 40125 83203 333 20217 59008;EQDQ01  00002PRCP06
0195832360999992004041418004-12150-045000FM-12+044099999V0200501N001511050019N0200001N1+03031+02181100831ADDAA106000091AY121061AY221061GF106991041051008001001071MA1999999095981MD1999999-0141MW1151REMSYN076AAXX  14184 83236 31598 60503 10303 20218 39598 40083 71522 84507 333 59014;EQDQ01  00002PRCP06
0198832360999992004041500004-12150-045000FM-12+044099999V0209999C000012200019N0200001N1+02291+02051101141ADDAA106000091GF103991001001999999001071KA1240M+03191MA1999999096251MD1999999-0021REMSYN088AAXX  15004 83236 32998 30000 10229 20205 39625 40114 80007 333 10319 29080 55083 59002;EQDQ01  00002PRCP06
0186832360999992004041512004-12150-045000FM-12+044099999V0209999C000010450019N0200001N1+02481+02251101271ADDAA106000091GF106991041021012501051071KA1240N+02041MA1999999096351MD1999999-0021REMSYN076AAXX  15124 83236 32698 60000 10248 20225 39635 40127 84257 333 20204 59002;EQDQ01  00002PRCP06
0167832360999992004041518004-12150-045000FM-12+044099999V0203601N001510450019N0200001N1+02961+02281100801ADDAA106000091GF106991041041008001071051MA1999999095941MD1999999-0041REMSYN070AAXX  15184 83236 32598 63603 10296 20228 39594 40080 84475 333 59004;EQDQ01  00002PRCP06
0202832360999992004041600004-12150-045000FM-12+044099999V0209999C000010075019N0040001N1+02161+02111101171ADDAY161061AY251061GF108991061051008001041999KA1240M+03141MA1999999096251MD1999999+0001MW1131REMSYN100AAXX  16004 83236 21596 80000 10216 20211 39625 40117 71365 8654/ 333 10314 29087 55057 58000 60021;
0162832360999992004041612004-12150-045000FM-12+044099999V0209999C000010450019N0200001N1+02471+02191101391ADDGF105991031021008001051071KA1240N+02111MA1999999096451MD1999999+0101REMSYN082AAXX  16124 83236 22598 50000 10247 20219 39645 40139 83257 333 20211 58010 60024;
0171832360999992004041618004-12150-045000FM-12+044099999V0203601N002110450019N0200001N1+02961+02281100971ADDAY161061AY261061GF106991041021008001051051MA1999999096111MD1999999+0171MW1021REMSYN082AAXX  16184 83236 21598 63604 10296 20228 39611 40097 70266 84255 333 58017 60031;
0202832360999992004041700004-12150-045000FM-12+044099999V0202301N001011050019N0200001N1+02311+02201101241ADDAY161061AY261061GF105991031021008001001071KA1240M+03171MA1999999096341MD1999999+0091MW1021REMSYN100AAXX  17004 83236 21598 52302 10231 20220 39634 40124 70266 83207 333 10317 29085 55064 58009 60021;
0162832360999992004041712004-12150-045000FM-12+044099999V0209999C000011050019N0200001N1+02461+02191101511ADDGF105991021021008001051071KA1240N+02041MA1999999096591MD1999999+0141REMSYN082AAXX  17124 83236 22598 50000 10246 20219 39659 40151 82257 333 20204 58014 60044;
0167832360999992004041718004-12150-045000FM-12+044099999V0209999C000010450019N0200001N1+02721+02411101151ADDAA106000091GF106991031041008001071051MA1999999096251MD1999999+0141REMSYN070AAXX  17184 83236 32598 60000 10272 20241 39625 40115 83475 333 58014;EQDQ01  00002PRCP06
0198832360999992004041800004-12150-045000FM-12+044099999V0209999C000012200019N0200001N1+02291+02161101271ADDAA106000091GF102991021021999999001001KA1240M+03061MA1999999096351MD1999999+0011REMSYN088AAXX  18004 83236 32998 20000 10229 20216 39635 40127 82200 333 10306 29088 55064 58001;EQDQ01  00002PRCP06
0186832360999992004041812004-12150-045000FM-12+044099999V0209999C000012200019N0200001N1+02421+02071101531ADDAA106000091GF103991021021012501001031KA1240N+01971MA1999999096601MD1999999+0011REMSYN076AAXX  18124 83236 32698 30000 10242 20207 39660 40153 82203 333 20197 58001;EQDQ01  00002PRCP06
0195832360999992004041818004-12150-045000FM-12+044099999V0200501N002611050019N0200001N1+03001+02191101001ADDAA106000091AY101061AY231061GF106991041051008001001051MA1999999096131MD1999999-0121MW1151REMSYN076AAXX  18184 83236 31598 60505 10300 20219 39613 40100 71503 84505 333 59012;EQDQ01  00002PRCP06
0198832360999992004041900004-12150-045000FM-12+044099999V0202701N001512200019N0200001N1+02471+02251101211ADDAA106000091GF104991021021012501001041KA1240M+03211MA1999999096321MD1999999-0031REMSYN088AAXX  19004 83236 32698 42703 10247 20225 39632 40121 82204 333 10321 29080 55093 59003;EQDQ01  00002PRCP06
0186832360999992004041912004-12150-045000FM-12+044099999V0209999C000012200019N0200001N1+02501+02171101351ADDAA106000091GF103991021021012501001051KA1240N+02021MA1999999096461MD1999999-0141REMSYN076AAXX  19124 83236 32698 30000 10250 20217 39646 40135 82205 333 20202 59014;EQDQ01  00002PRCP06
0167832360999992004041918004-12150-045000FM-12+044099999V0200501N001512200019N0200001N1+03101+02151100881ADDAA106000091GF104991021021012501001031MA1999999096031MD1999999-0101REMSYN070AAXX  19184 83236 32698 40503 10310 20215 39603 40088 82203 333 59010;EQDQ01  00002PRCP06
0186832360999992004042012004-12150-045000FM-12+044099999V0209999C000012200019N0200001N1+02551+02271101261ADDAA106000091GF104991021021012501001051KA1240N+02151MA1999999096371MD1999999-0091REMSYN076AAXX  20124 83236 32698 40000 10255 20227 39637 40126 82205 333 20215 59009;EQDQ01  00002PRCP06
0195832360999992004042018004-12150-045000FM-12+044099999V0201801N001011050019N0200001N1+03011+02341100821ADDAA106000091AY121061AY221061GF105991041051008001001071MA1999999095961MD1999999-0071MW1171REMSYN076AAXX  20184 83236 31598 51802 10301 20234 39596 40082 71722 84507 333 59007;EQDQ01  00002PRCP06
0202832360999992004042100004-12150-045000FM-12+044099999V0209999C000012200019N0200001N1+02441+02321100981ADDAY161061AY261061GF102991021021012501001001KA1240M+03311MA1999999096111MD1999999-0051MW1021REMSYN100AAXX  21004 83236 21698 20000 10244 20232 39611 40098 70266 82200 333 10331 29085 55098 59005 60011;
0162832360999992004042112004-12150-045000FM-12+044099999V0203601N001512200019N0200001N1+02671+02181101271ADDGF102991001001999999001071KA1240N+02171MA1999999096391MD1999999+0021REMSYN082AAXX  21124 83236 22998 23603 10267 20218 39639 40127 80007 333 20217 58002 60014;
0171832360999992004042118004-12150-045000FM-12+044099999V0202701N001510450019N0100001N1+02691+02411100961ADDAY161061AY261061GF106991041051008001071051MA1999999096081MD1999999+0121MW1171REMSYN082AAXX  21184 83236 21597 62703 10269 20241 39608 40096 71766 84575 333 58012 60051;
0202832360999992004042200004-12150-045000FM-12+044099999V0209999C000012200019N0200001N1+02361+02221101131ADDAY161061AY251061GF103991031021008001001001KA1240M+03321MA1999999096251MD1999999+0141MW1021REMSYN100AAXX  22004 83236 21598 30000 10236 20222 39625 40113 70265 83200 333 10332 29086 55073 58014 60011;
0162832360999992004042212004-12150-045000FM-12+044099999V0201801N001511050019N0200001N1+02431+02071101361ADDGF105991021021012501001071KA1240N+01951MA1999999096451MD1999999+0061REMSYN082AAXX  22124 83236 22698 51803 10243 20207 39645 40136 82207 333 20195 58006 60064;
0167832360999992004042218004-12150-045000FM-12+044099999V0201401N002112200019N0200001N1+02091+02041100791ADDAA106000091GF104991021011008001001031MA1999999095941MD1999999-0141REMSYN070AAXX  22184 83236 32598 41404 10209 20204 39594 40079 82103 333 59014;EQDQ01  00002PRCP06
0208832360999992004042300004-12150-045000FM-12+044099999V0202301N001512200019N0200001N1+02251+01961101091ADDAA106000091GA1001+999999999GF100991001001999999001001KA1240M+03191MA1999999096181MD1999999-0071REMSYN082AAXX  23004 83236 32998 02303 10225 20196 39618 40109 333 10319 29076 55101 59007;EQDQ01  00002PRCP06
0186832360999992004042312004-12150-045000FM-12+044099999V0209999C000012200019N0200001N1+02441+02171101281ADDAA106000091GF104991021021012501001071KA1240N+01951MA1999999096361MD1999999-0091REMSYN076AAXX  23124 83236 32698 40000 10244 20217 39636 40128 82207 333 20195 59009;EQDQ01  00002PRCP06
0167832360999992004042318004-12150-045000FM-12+044099999V0203601N001012200019N0200001N1+03101+02201100751ADDAA106000091GF104991021021012501001031MA1999999095901MD1999999-0041REMSYN070AAXX  23184 83236 32698 43602 10310 20220 39590 40075 82203 333 59004;EQDQ01  00002PRCP06
0202832360999992004042400004-12150-045000FM-12+044099999V0209999C000010075019N0200001N1+02221+02151100921ADDAY151061AY251061GF105991051021008001061001KA1240M+03251MA1999999096001MD1999999-0181MW1021REMSYN100AAXX  24004 83236 21598 50000 10222 20215 39600 40092 70255 85260 333 10325 29084 55104 59018 69911;
0162832360999992004042412004-12150-045000FM-12+044099999V0202301N001012200019N0200001N1+02431+02171101051ADDGF103991021021012501001051KA1240N+01941MA1999999096141MD1999999-0221REMSYN082AAXX  24124 83236 22698 32302 10243 20217 39614 40105 82205 333 20194 59022 69914;
0077832360999992004042418004-12150-045000FM-12+044099999V02099999999999999999N9999999N1+99999+99999999999REMSYN068AAXX  24184 83236 598 50903 10304 20199 39579 40065 83207 333 59011;
0208832360999992004042500004-12150-045000FM-12+044099999V0209999C000012200019N0200001N1+02301+02141100881ADDAA106000091GA1001+999999999GF100991001001999999001001KA1240M+03191MA1999999095981MD1999999-0021REMSYN082AAXX  25004 83236 32998 00000 10230 20214 39598 40088 333 10319 29080 55100 59002;EQDQ01  00002PRCP06
0186832360999992004042512004-12150-045000FM-12+044099999V0209999C000012200019N0200001N1+02271+01991101241ADDAA106000091GF104991021011012501061051KA1240N+01841MA1999999096321MD1999999+0181REMSYN076AAXX  25124 83236 32698 40000 10227 20199 39632 40124 82165 333 20184 58018;EQDQ01  00002PRCP06
0167832360999992004042518004-12150-045000FM-12+044099999V0200501N001512200019N0200001N1+03141+02041100801ADDAA106000091GF103991031011012501051001MA1999999095941MD1999999+0151REMSYN070AAXX  25184 83236 32698 30503 10314 20204 39594 40080 83150 333 58015;EQDQ01  00002PRCP06
0198832360999992004042600004-12150-045000FM-12+044099999V0209999C000012200019N0200001N1+02301+02141101081ADDAA106000091GF102991021011012501001001KA1240M+03341MA1999999096161MD1999999+0181REMSYN088AAXX  26004 83236 32698 20000 10230 20214 39616 40108 82100 333 10334 29080 55105 58018;EQDQ01  00002PRCP06
0186832360999992004042612004-12150-045000FM-12+044099999V0201401N001010450019N0200001N1+02501+02211101261ADDAA106000091GF105991031021012501061031KA1240N+01891MA1999999096351MD1999999+0031REMSYN076AAXX  26124 83236 32698 51402 10250 20221 39635 40126 83263 333 20189 58003;EQDQ01  00002PRCP06
0167832360999992004042618004-12150-045000FM-12+044099999V0209999C000010450019N0200001N1+03171+02171100861ADDAA106000091GF106991031021008001051071MA1999999096001MD1999999+0061REMSYN070AAXX  26184 83236 32598 60000 10317 20217 39600 40086 83257 333 58006;EQDQ01  00002PRCP06
0198832360999992004042700004-12150-045000FM-12+044099999V0201801N001010075019N0100001N1+02481+02231101151ADDAA106000091GF108991061021008001061999KA1240M+03371MA1999999096271MD1999999+0111REMSYN088AAXX  27004 83236 32597 81802 10248 20223 39627 40115 8626/ 333 10337 29078 55082 58011;EQDQ01  00002PRCP06
0186832360999992004042712004-12150-045000FM-12+044099999V0209999C000012200019N0200001N1+02461+02091101401ADDAA106000091GF103991001001999999001031KA1240N+02011MA1999999096501MD1999999+0151REMSYN076AAXX  27124 83236 32998 30000 10246 20209 39650 40140 80003 333 20201 58015;EQDQ01  00002PRCP06
0167832360999992004042718004-12150-045000FM-12+044099999V0200501N001512200019N0200001N1+03121+01951100961ADDAA106000091GF104991031021008001001051MA1999999096111MD1999999+0111REMSYN070AAXX  27184 83236 32598 40503 10312 20195 39611 40096 83205 333 58011;EQDQ01  00002PRCP06
0198832360999992004042800004-12150-045000FM-12+044099999V0201801N001510075019N0200001N1+02411+02131101331ADDAA106000091GF105991051021008001001001KA1240M+03341MA1999999096431MD1999999+0161REMSYN088AAXX  28004 83236 32598 51803 10241 20213 39643 40133 85200 333 10334 29075 55104 58016;EQDQ01  00002PRCP06
0186832360999992004042812004-12150-045000FM-12+044099999V0200901N000512200019N0200001N1+02651+02101101511ADDAA106000091GF105991031021008001001041KA1240N+02091MA1999999096621MD1999999-0121REMSYN076AAXX  28124 83236 32598 50901 10265 20210 39662 40151 83204 333 20209 59012;EQDQ01  00002PRCP06
0171832360999992004042818004-12150-045000FM-12+044099999V0202701N000512200019N0200001N1+02971+02211101061ADDAY161061AY261061GF105991041021008001001011MA1999999096191MD1999999+0011MW1021REMSYN082AAXX  28184 83236 21598 52701 10297 20221 39619 40106 70266 84201 333 58001 60091;
0226832360999992004042900004-12150-045000FM-12+044099999V0202701N001012200019N0200001N1+02311+02071101301ADDAA106000091AY101061AY221061GF103991021071008001041001KA1240M+03031MA1999999096411MD1999999-0021MW1131REMSYN094AAXX  29004 83236 31598 32702 10231 20207 39641 40130 71302 82740 333 10303 29078 55070 59002;EQDQ01  00002PRCP06
0162832360999992004042912004-12150-045000FM-12+044099999V0201401N001510450019N0100001N1+02421+01951101611ADDGF106991011011008001051001KA1240N+02211MA1999999096631MD1999999+0011REMSYN082AAXX  29124 83236 22597 61403 10242 20195 39663 40161 81150 333 20221 58001 60094;
0167832360999992004042918004-12150-045000FM-12+044099999V0200501N002610075019N0100001N1+02851+01901101021ADDAA106000091GF106991051091008001041001MA1999999096151MD1999999-0041REMSYN070AAXX  29184 83236 32597 60505 10285 20190 39615 40102 85940 333 59004;EQDQ01  00002PRCP06
0208832360999992004043000004-12150-045000FM-12+044099999V0202701N001512200019N0200001N1+02251+01981101311ADDAA106000091GA1001+999999999GF100991001001999999001001KA1240M+02971MA1999999096391MD1999999-0021REMSYN082AAXX  30004 83236 32998 02703 10225 20198 39639 40131 333 10297 29075 55043 59002;EQDQ01  00002PRCP06
0186832360999992004043012004-12150-045000FM-12+044099999V0201801N001512200019N0200001N1+02361+01801101471ADDAA106000091GF102991021001022501041001KA1240N+01871MA1999999096531MD1999999-0101REMSYN076AAXX  30124 83236 32898 21803 10236 20180 39653 40147 82040 333 20187 59010;EQDQ01  00002PRCP06
0167832360999992004043018004-12150-045000FM-12+044099999V0201801N001512200019N0200001N1+03071+01701100841ADDAA106000091GF104991041021008001001001MA1999999095991MD1999999-0161REMSYN070AAXX  30184 83236 32598 41803 10307 20170 39599 40084 84200 333 59016;EQDQ01  00002PRCP06
0198832360999992004050100004-12150-045000FM-12+044099999V0209999C000012200019N0200001N1+02201+01971101111ADDAA106000091GF102991001001999999001041KA1240M+03151MA1999999096191MD1999999-0201REMSYN088AAXX  01004 83236 32998 20000 10220 20197 39619 40111 80004 333 10315 29072 55098 59020;EQDQ01  00002PRCP06
0196832360999992004050112004-12150-045000FM-12+044099999V0209999C025712200019N0200001N1+02531+01911101251ADDAA106000091GA1001+999999999GF100991001001999999001001KA1240N+01881MA1999999096341MD1999999-0191REMSYN070AAXX  01124 83236 32998 00050 10253 20191 39634 40125 333 20188 59019;EQDQ01  00002PRCP06
0167832360999992004050118004-12150-045000FM-12+044099999V0200501N003112200019N0200001N1+03131+01731100621ADDAA106000091GF103991031011008001001001MA1999999095821MD1999999-0171REMSYN070AAXX  01184 83236 32598 30506 10313 20173 39582 40062 83100 333 59017;EQDQ01  00002PRCP06
0208832360999992004050200004-12150-045000FM-12+044099999V0209999C000012200019N0200001N1+02281+02131101031ADDAA106000091GA1001+999999999GF100991001001999999001001KA1240M+03171MA1999999096141MD1999999-0051REMSYN082AAXX  02004 83236 32998 00000 10228 20213 39614 40103 333 10317 29074 55104 59005;EQDQ01  00002PRCP06
0186832360999992004050212004-12150-045000FM-12+044099999V0209999C000012200019N0200001N1+02631+01981101371ADDAA106000091GF101991011011008001001001KA1240N+01921MA1999999096471MD1999999+0131REMSYN076AAXX  02124 83236 32598 10000 10263 20198 39647 40137 81100 333 20192 58013;EQDQ01  00002PRCP06
0167832360999992004050218004-12150-045000FM-12+044099999V0200901N004112200019N0200001N1+03081+01751100911ADDAA106000091GF104991041021008001001001MA1999999096051MD1999999+0231REMSYN070AAXX  02184 83236 32598 40908 10308 20175 39605 40091 84200 333 58023;EQDQ01  00002PRCP06
0208832360999992004050300004-12150-045000FM-12+044099999V0202301N001012200019N0200001N1+02351+02171101151ADDAA106000091GA1001+999999999GF100991001001999999001001KA1240M+03311MA1999999096271MD1999999+0131REMSYN082AAXX  03004 83236 32998 02302 10235 20217 39627 40115 333 10331 29073 55099 58013;EQDQ01  00002PRCP06
0186832360999992004050312004-12150-045000FM-12+044099999V0201401N000512200019N0200001N1+02611+01961101391ADDAA106000091GF102991021011008001001001KA1240N+02061MA1999999096501MD1999999+0031REMSYN076AAXX  03124 83236 32598 21401 10261 20196 39650 40139 82100 333 20206 58003;EQDQ01  00002PRCP06
0167832360999992004050318004-12150-045000FM-12+044099999V0200901N004612200019N0200001N1+03111+01841100991ADDAA106000091GF104991041021008001001001MA1999999096131MD1999999+0081REMSYN070AAXX  03184 83236 32598 40909 10311 20184 39613 40099 84200 333 58008;EQDQ01  00002PRCP06
0208832360999992004050400004-12150-045000FM-12+044099999V0201801N000512200019N0200001N1+02251+01921101191ADDAA106000091GA1001+999999999GF100991001001999999001001KA1240M+03181MA1999999096301MD1999999+0031REMSYN082AAXX  04004 83236 32998 01801 10225 20192 39630 40119 333 10318 29070 55106 58003;EQDQ01  00002PRCP06
0186832360999992004050412004-12150-045000FM-12+044099999V0202301N001012200019N0200001N1+02371+01761101581ADDAA106000091GF103991031001022501061001KA1240N+01721MA1999999096641MD1999999+0141REMSYN076AAXX  04124 83236 32898 32302 10237 20176 39664 40158 83060 333 20172 58014;EQDQ01  00002PRCP06
0198832360999992004050500004-12150-045000FM-12+044099999V0202701N002110120019N0200001N1+02371+01971101231ADDAA106000091GF107991071081008001001001KA1240M+03191MA1999999096321MD1999999+0021REMSYN088AAXX  05004 83236 32598 72704 10237 20197 39632 40123 87800 333 10319 29069 55091 58002;EQDQ01  00002PRCP06
0202832360999992004050512004-12150-045000FM-12+044099999V0201801N005112200019N0200001N1+02561+01901101481ADDAA106000091GF104991999001999999041001KA1240N+02061MA1999999096571MD1999999-0071REMSYN076AAXX  05124 83236 32998 41810 10256 20190 39657 40148 80040 333 20206 59007;EQDQ01+000002SCOTLCQ02  00002PRCP06
0167832360999992004050518004-12150-045000FM-12+044099999V0201801N002112200019N0200001N1+03051+01711100941ADDAA106000091GF105991031021008001001041MA1999999096091MD1999999-0031REMSYN070AAXX  05184 83236 32598 51804 10305 20171 39609 40094 83204 333 59003;EQDQ01  00002PRCP06
0214832360999992004050600004-12150-045000FM-12+044099999V0202301N001012200019N0200001N1+02511+01841101201ADDAA106000091GF103991999001022501061001KA1240M+03171MA1999999096331MD1999999+0011REMSYN088AAXX  06004 83236 32898 32302 10251 20184 39633 40120 82060 333 10317 29062 55088 58001;EQDQ01+000022SCOTLCQ02  00002PRCP06
0186832360999992004050612004-12150-045000FM-12+044099999V0209999C000012200019N0200001N1+02561+01951101421ADDAA106000091GF101991001001999999001011KA1240N+01821MA1999999096541MD1999999-0031REMSYN076AAXX  06124 83236 32998 10000 10256 20195 39654 40142 80001 333 20182 59003;EQDQ01  00002PRCP06
0167832360999992004050618004-12150-045000FM-12+044099999V0201401N003112200019N0200001N1+03051+01641101041ADDAA106000091GF104991041021008001001001MA1999999096161MD1999999+0071REMSYN070AAXX  06184 83236 32598 41406 10305 20164 39616 40104 84200 333 58007;EQDQ01  00002PRCP06
0208832360999992004050700004-12150-045000FM-12+044099999V0209999C000012200019N0200001N1+02281+01961101301ADDAA106000091GA1001+999999999GF100991001001999999001001KA1240M+03211MA1999999096391MD1999999+0061REMSYN082AAXX  07004 83236 32998 00000 10228 20196 39639 40130 333 10321 29049 55103 58006;EQDQ01  00002PRCP06
0186832360999992004050712004-12150-045000FM-12+044099999V0209999C000012200019N0200001N1+02441+01831101511ADDAA106000091GF102991001001999999001011KA1240N+01731MA1999999096581MD1999999+0041REMSYN076AAXX  07124 83236 32998 20000 10244 20183 39658 40151 80001 333 20173 58004;EQDQ01  00002PRCP06
0167832360999992004050718004-12150-045000FM-12+044099999V0203601N003112200019N0200001N1+03211+01711101011ADDAA106000091GF103991011011008001001081MA1999999096141MD1999999-0021REMSYN070AAXX  07184 83236 32598 33606 10321 20171 39614 40101 81108 333 59002;EQDQ01  00002PRCP06
0198832360999992004050800004-12150-045000FM-12+044099999V0201801N001512200019N0200001N1+02201+01901101321ADDAA106000091GF102991021001022501041001KA1240M+03271MA1999999096391MD1999999+0001REMSYN088AAXX  08004 83236 32898 21803 10220 20190 39639 40132 82040 333 10327 29069 55104 58000;EQDQ01  00002PRCP06
0186832360999992004050812004-12150-045000FM-12+044099999V0209999C000012200019N0200001N1+02411+01771101411ADDAA106000091GF104991001001999999001021KA1240N+01781MA1999999096491MD1999999-0091REMSYN076AAXX  08124 83236 32998 40000 10241 20177 39649 40141 80002 333 20178 59009;EQDQ01  00002PRCP06
0167832360999992004050818004-12150-045000FM-12+044099999V0200901N002111050019N0200001N1+03211+01781100981ADDAA106000091GF106991041021008001001021MA1999999096111MD1999999-0031REMSYN070AAXX  08184 83236 32598 60904 10321 20178 39611 40098 84202 333 59003;EQDQ01  00002PRCP06
0208832360999992004050900004-12150-045000FM-12+044099999V0201801N001012200019N0200001N1+02291+02111101221ADDAA106000091GA1001+999999999GF100991001001999999001001KA1240M+03331MA1999999096311MD1999999-0081REMSYN082AAXX  09004 83236 32998 01802 10229 20211 39631 40122 333 10333 29073 55/// 59008;EQDQ01  00002PRCP06
0186832360999992004050912004-12150-045000FM-12+044099999V0209999C000019999999N0200001N1+02331+01851101341ADDAA106000091GF105991001001999999001051KA1240N+01761MA1999999096411MD1999999-0081REMSYN076AAXX  09124 83236 32998 50000 10233 20185 39641 40134 80005 333 20176 59008;EQDQ01  00002PRCP06
0167832360999992004050918004-12150-045000FM-12+044099999V0203601N001011050019N0200001N1+03191+01691100831ADDAA106000091GF105991021021008001001051MA1999999095971MD1999999-0141REMSYN070AAXX  09184 83236 32598 53602 10319 20169 39597 40083 82205 333 59014;EQDQ01  00002PRCP06
0208832360999992004051000004-12150-045000FM-12+044099999V0209999C000012200019N0200001N1+02221+02031101161ADDAA106000091GA1001+999999999GF100991001001999999001001KA1240M+03311MA1999999096241MD1999999-0071REMSYN082AAXX  10004 83236 32998 00000 10222 20203 39624 40116 333 10331 29074 55/// 59007;EQDQ01  00002PRCP06
0186832360999992004051012004-12150-045000FM-12+044099999V0201801N001012200019N0200001N1+02331+01791101301ADDAA106000091GF102991001001999999001011KA1240N+01751MA1999999096371MD1999999-0041REMSYN076AAXX  10124 83236 32998 21802 10233 20179 39637 40130 80001 333 20175 59004;EQDQ01  00002PRCP06
0167832360999992004051018004-12150-045000FM-12+044099999V0202701N000512200019N0200001N1+03311+01501100861ADDAA106000091GF103991031011008001001001MA1999999096011MD1999999+0041REMSYN070AAXX  10184 83236 32598 32701 10331 20150 39601 40086 83100 333 58004;EQDQ01  00002PRCP06
0208832360999992004051100004-12150-045000FM-12+044099999V0201801N000512200019N0200001N1+02251+01861101161ADDAA106000091GA1001+999999999GF100991001001999999001001KA1240M+03411MA1999999096421MD1999999+0001REMSYN082AAXX  11004 83236 32998 01801 10225 20186 39642 40116 333 10341 29066 55/// 58000;EQDQ01  00002PRCP06
0186832360999992004051112004-12150-045000FM-12+044099999V0209999C000012200019N0200001N1+02411+01801101361ADDAA106000091GF101991001001999999001011KA1240N+01761MA1999999096441MD1999999+0071REMSYN076AAXX  11124 83236 32998 10000 10241 20180 39644 40136 80001 333 20176 58007;EQDQ01  00002PRCP06
0167832360999992004051118004-12150-045000FM-12+044099999V0200501N001012200019N0200001N1+03301+01501100771ADDAA106000091GF105991041021008001001011MA1999999095921MD1999999-0091REMSYN070AAXX  11184 83236 32598 50502 10330 20150 39592 40077 84201 333 59009;EQDQ01  00002PRCP06
0208832360999992004051200004-12150-045000FM-12+044099999V0209999C000012200019N0200001N1+02291+01921101091ADDAA106000091GA1001+999999999GF100991001001999999001001KA1240M+03391MA1999999096181MD1999999-0061REMSYN082AAXX  12004 83236 32998 00000 10229 20192 39618 40109 333 10339 29066 55/// 59006;EQDQ01  00002PRCP06
0186832360999992004051212004-12150-045000FM-12+044099999V0201801N000512200019N0200001N1+02441+01831101381ADDAA106000091GF103991001001999999001051KA1240N+01761MA1999999096461MD1999999+0021REMSYN076AAXX  12124 83236 32998 31801 10244 20183 39646 40138 80005 333 20176 58002;EQDQ01  00002PRCP06
0167832360999992004051218004-12150-045000FM-12+044099999V0200901N000512200019N0200001N1+03221+01731100851ADDAA106000091GF104991021011008001001021MA1999999095991MD1999999+0071REMSYN070AAXX  12184 83236 32598 40901 10322 20173 39599 40085 82102 333 58007;EQDQ01  00002PRCP06
0186832360999992004051312004-12150-045000FM-12+044099999V0209999C000010450019N0200001N1+02241+01861101351ADDAA106000091GF106991041021012501071001KA1240N+01771MA1999999096411MD1999999-0051REMSYN076AAXX  13124 83236 32698 60000 10224 20186 39641 40135 84270 333 20177 59005;EQDQ01  00002PRCP06
0167832360999992004051318004-12150-045000FM-12+044099999V0200501N001010075019N0200001N1+03161+01861100851ADDAA106000091GF106991051021008001041071MA1999999095941MD1999999-0051REMSYN070AAXX  13184 83236 32598 60502 10316 20186 39594 40085 85247 333 59005;EQDQ01  00002PRCP06
0208832360999992004051400004-12150-045000FM-12+044099999V0202301N001012200019N0200001N1+02271+02051101121ADDAA106000091GA1001+999999999GF100991001001999999001001KA1240M+03261MA1999999096191MD1999999-0051REMSYN082AAXX  14004 83236 32998 02302 10227 20205 39619 40112 333 10326 29075 55/// 59005;EQDQ01  00002PRCP06
0186832360999992004051412004-12150-045000FM-12+044099999V0209999C000012200019N0200001N1+02661+02071101211ADDAA106000091GF103991021011012501051001KA1240N+02041MA1999999096321MD1999999-0091REMSYN076AAXX  14124 83236 32698 30000 10266 20207 39632 40121 82150 333 20204 59009;EQDQ01  00002PRCP06
0167832360999992004051418004-12150-045000FM-12+044099999V0200501N001510075019N0200001N1+03211+01931100691ADDAA106000091GF105991051021008001001001MA1999999095861MD1999999-0081REMSYN070AAXX  14184 83236 32598 50503 10321 20193 39586 40069 85200 333 59008;EQDQ01  00002PRCP06
0208832360999992004051500004-12150-045000FM-12+044099999V0201801N001512200019N0200001N1+02361+02071100931ADDAA106000091GA1001+999999999GF100991001001999999001001KA1240M+03311MA1999999096061MD1999999-0131REMSYN082AAXX  15004 83236 32998 01803 10236 20207 39606 40093 333 10331 29071 55/// 59013;EQDQ01  00002PRCP06
0186832360999992004051512004-12150-045000FM-12+044099999V0200501N001012200019N0200001N1+02671+02041101141ADDAA106000091GF102991001001999999001031KA1240N+02001MA1999999096261MD1999999-0061REMSYN076AAXX  15124 83236 32998 20502 10267 20204 39626 40114 80003 333 20200 59006;EQDQ01  00002PRCP06
0167832360999992004051518004-12150-045000FM-12+044099999V0203601N002611050019N0200001N1+03341+01981100621ADDAA106000091GF105991031021008001001051MA1999999095801MD1999999-0061REMSYN070AAXX  15184 83236 32598 53605 10334 20198 39580 40062 83205 333 59006;EQDQ01  00002PRCP06
0198832360999992004051600004-12150-045000FM-12+044099999V0209999C000012200019N0200001N1+02431+02111100881ADDAA106000091GF102991001001999999001031KA1240M+03391MA1999999096021MD1999999-0041REMSYN088AAXX  16004 83236 32998 20000 10243 20211 39602 40088 80003 333 10339 29070 55/// 59004;EQDQ01  00002PRCP06
0186832360999992004051612004-12150-045000FM-12+044099999V0209999C000010450019N0200001N1+02721+02121101191ADDAA106000091GF105991031021012501071051KA1240N+02041MA1999999096331MD1999999+0071REMSYN076AAXX  16124 83236 32698 50000 10272 20212 39633 40119 83275 333 20204 58007;EQDQ01  00002PRCP06
0167832360999992004051618004-12150-045000FM-12+044099999V0203601N001510075019N0200001N1+03161+02051100711ADDAA106000091GF107991051021008001081071MA1999999095871MD1999999+0071REMSYN070AAXX  16184 83236 32598 73603 10316 20205 39587 40071 85287 333 58007;EQDQ01  00002PRCP06
0198832360999992004051700004-12150-045000FM-12+044099999V0209999C000010450019N0200001N1+02591+02311101001ADDAA106000091GF106991031021012501071051KA1240M+03321MA1999999096151MD1999999+0131REMSYN088AAXX  17004 83236 32698 60000 10259 20231 39615 40100 83275 333 10332 29072 55/// 58013;EQDQ01  00002PRCP06
0186832360999992004051712004-12150-045000FM-12+044099999V0202301N001010450019N0200001N1+02571+01971101291ADDAA106000091GF105991031021012501061051KA1240N+02121MA1999999096421MD1999999+0091REMSYN076AAXX  17124 83236 32698 52302 10257 20197 39642 40129 83265 333 20212 58009;EQDQ01  00002PRCP06
0167832360999992004051718004-12150-045000FM-12+044099999V0201401N001510450019N0200001N1+03111+01841100841ADDAA106000091GF106991041021008001051071MA1999999096001MD1999999+0131REMSYN070AAXX  17184 83236 32598 61403 10311 20184 39600 40084 84257 333 58013;EQDQ01  00002PRCP06
0198832360999992004051800004-12150-045000FM-12+044099999V0209999C000012200019N0200001N1+02391+02091101151ADDAA106000091GF104991041021012501001001KA1240M+03231MA1999999096271MD1999999+0121REMSYN088AAXX  18004 83236 32698 40000 10239 20209 39627 40115 84200 333 10323 29071 55/// 58012;EQDQ01  00002PRCP06
0186832360999992004051812004-12150-045000FM-12+044099999V0209999C000011050019N0200001N1+02521+01861101141ADDAA106000091GF105991021001022501051071KA1240N+01921MA1999999096511MD1999999+0091REMSYN076AAXX  18124 83236 32898 50000 10252 20186 39651 40114 82057 333 20192 58009;EQDQ01  00002PRCP06
0167832360999992004051818004-12150-045000FM-12+044099999V0202301N001012200019N0200001N1+03181+01841100871ADDAA106000091GF104991041021008001001001MA1999999096021MD1999999+0021REMSYN070AAXX  18184 83236 32598 42302 10318 20184 39602 40087 84200 333 58002;EQDQ01  00002PRCP06
0208832360999992004051900004-12150-045000FM-12+044099999V0202301N001512200019N0200001N1+02291+01901101251ADDAA106000091GA1001+999999999GF100991001001999999001001KA1240M+03281MA1999999096351MD1999999+0081REMSYN082AAXX  19004 83236 32998 02303 10229 20190 39635 40125 333 10328 29067 55/// 58008;EQDQ01  00002PRCP06
0186832360999992004051912004-12150-045000FM-12+044099999V0200501N001010450019N0200001N1+02711+01941101621ADDAA106000091GF105991031021012501061031KA1240N+02091MA1999999096721MD1999999+0211REMSYN076AAXX  19124 83236 32698 50502 10271 20194 39672 40162 83263 333 20209 58021;EQDQ01  00002PRCP06
0171832360999992004051918004-12150-045000FM-12+044099999V0200501N001010450019N0200001N1+03111+01941101151ADDAY151061AY251061GF106991041041008001071051MA1999999096301MD1999999+0281MW1021REMSYN082AAXX  19184 83236 21598 60502 10311 20194 39630 40115 70255 84475 333 58028 69941;
0208832360999992004052000004-12150-045000FM-12+044099999V0202701N001012200019N0200001N1+02261+01861101461ADDAA106000091GA1001+999999999GF100991001001999999001001KA1240M+03231MA1999999096561MD1999999+0211REMSYN082AAXX  20004 83236 32998 02702 10226 20186 39656 40146 333 10323 29068 55/// 58021;EQDQ01  00002PRCP06
0162832360999992004052012004-12150-045000FM-12+044099999V0201801N001512200019N0200001N1+02461+01761101721ADDGF103991001001999999001051KA1240N+01751MA1999999096781MD1999999+0061REMSYN082AAXX  20124 83236 22998 31803 10246 20176 39678 40172 80005 333 20175 58006 69944;
0167832360999992004052018004-12150-045000FM-12+044099999V0201401N001512200019N0200001N1+03101+01731101181ADDAA106000091GF104991041021012501001001MA1999999096291MD1999999-0011REMSYN070AAXX  20184 83236 32698 41403 10310 20173 39629 40118 84200 333 59001;EQDQ01  00002PRCP06
0208832360999992004052100004-12150-045000FM-12+044099999V0202701N001012200019N0200001N1+02231+01901101441ADDAA106000091GA1001+999999999GF100991001001999999001001KA1240M+03301MA1999999096521MD1999999-0041REMSYN082AAXX  21004 83236 32998 02702 10223 20190 39652 40144 333 10330 29068 55/// 59004;EQDQ01  00002PRCP06
0186832360999992004052112004-12150-045000FM-12+044099999V0209999C000012200019N0200001N1+02321+01721101671ADDAA106000091GF102991001001999999001051KA1240N+01661MA1999999096711MD1999999-0071REMSYN076AAXX  21124 83236 32998 20000 10232 20172 39671 40167 80005 333 20166 59007;EQDQ01  00002PRCP06
0167832360999992004052118004-12150-045000FM-12+044099999V0201401N003111050019N0200001N1+03111+01731101121ADDAA106000091GF105991031021008001001051MA1999999096231MD1999999-0061REMSYN070AAXX  21184 83236 32598 51406 10311 20173 39623 40112 83205 333 59006;EQDQ01  00002PRCP06
0208832360999992004052200004-12150-045000FM-12+044099999V0202301N001512200019N0200001N1+02321+01941101321ADDAA106000091GA1001+999999999GF100991001001999999001001KA1240M+03221MA1999999096391MD1999999-0131REMSYN082AAXX  22004 83236 32998 02303 10232 20194 39639 40132 333 10322 29068 55/// 59013;EQDQ01  00002PRCP06
0186832360999992004052212004-12150-045000FM-12+044099999V0201401N001512200019N0200001N1+02441+01831101541ADDAA106000091GF103991021021008001001051KA1240N+01811MA1999999096621MD1999999-0091REMSYN076AAXX  22124 83236 32598 31403 10244 20183 39662 40154 82205 333 20181 59009;EQDQ01  00002PRCP06
0167832360999992004052218004-12150-045000FM-12+044099999V0201801N001510450019N0200001N1+02921+01801101051ADDAA106000091GF106991041041008001071051MA1999999096231MD1999999+0001REMSYN070AAXX  22184 83236 32598 61803 10292 20180 39623 40105 84475 333 58000;EQDQ01  00002PRCP06
0198832360999992004052300004-12150-045000FM-12+044099999V0202301N001512200019N0200001N1+02321+01791101371ADDAA106000091GF103991021021008001051001KA1240M+03081MA1999999096451MD1999999+0061REMSYN088AAXX  23004 83236 32598 32303 10232 20179 39645 40137 82250 333 10308 29066 55/// 58006;EQDQ01  00002PRCP06
0186832360999992004052312004-12150-045000FM-12+044099999V0209999C000010075019N0100001N1+02251+01841101841ADDAA106000091GF108991061041008001071999KA1240N+01911MA1999999096791MD1999999+0171REMSYN076AAXX  23124 83236 32597 80000 10225 20184 39679 40184 8647/ 333 20191 58017;EQDQ01  00002PRCP06
0167832360999992004052318004-12150-045000FM-12+044099999V0201401N001510075019N0100001N1+02651+01871101331ADDAA106000091GF108991071041008001081999MA1999999096411MD1999999+0091REMSYN070AAXX  23184 83236 32597 81403 10265 20187 39641 40133 8748/ 333 58009;EQDQ01  00002PRCP06
0198832360999992004052400004-12150-045000FM-12+044099999V0209999C000010075019N0100001N1+02351+02051101521ADDAA106000091GF108991061071008001051999KA1240M+02771MA1999999096581MD1999999+0131REMSYN088AAXX  24004 83236 32597 80000 10235 20205 39658 40152 8675/ 333 10277 29077 55/// 58013;EQDQ01  00002PRCP06
0186832360999992004052412004-12150-045000FM-12+044099999V0201401N003112200019N0200001N1+02491+01871101701ADDAA106000091GF103991031011012501001001KA1240N+01981MA1999999096771MD1999999-0021REMSYN076AAXX  24124 83236 32698 31406 10249 20187 39677 40170 83100 333 20198 59002;EQDQ01  00002PRCP06
0167832360999992004052418004-12150-045000FM-12+044099999V0201401N002612200019N0200001N1+03101+01661101101ADDAA106000091GF104991041021012501001001MA1999999096261MD1999999-0151REMSYN070AAXX  24184 83236 32698 41405 10310 20166 39626 40110 84200 333 59015;EQDQ01  00002PRCP06
0198832360999992004052500004-12150-045000FM-12+044099999V0209999C000010120019N0100001N1+02581+01871101371ADDAA106000091GF108991061071012501051999KA1240M+03191MA1999999096491MD1999999-0041REMSYN088AAXX  25004 83236 32697 80000 10258 20187 39649 40137 8675/ 333 10319 29060 55/// 59004;EQDQ01  00002PRCP06
0186832360999992004052512004-12150-045000FM-12+044099999V0209999C000012200019N0200001N1+02551+01881101571ADDAA106000091GF103991011011012501001051KA1240N+01901MA1999999096681MD1999999-0091REMSYN076AAXX  25124 83236 32698 30000 10255 20188 39668 40157 81105 333 20190 59009;EQDQ01  00002PRCP06
0167832360999992004052518004-12150-045000FM-12+044099999V0200501N002612200019N0200001N1+03171+01801101241ADDAA106000091GF103991031021008001001001MA1999999096201MD1999999-0061REMSYN070AAXX  25184 83236 32598 30505 10317 20180 39620 40124 83200 333 59006;EQDQ01  00002PRCP06
0208832360999992004052600004-12150-045000FM-12+044099999V0209999C000012200019N0200001N1+02221+01991101311ADDAA106000091GA1001+999999999GF100991001001999999001001KA1240M+03271MA1999999096401MD1999999-0091REMSYN082AAXX  26004 83236 32998 00000 10222 20199 39640 40131 333 10327 29071 55/// 59009;EQDQ01  00002PRCP06
0186832360999992004052612004-12150-045000FM-12+044099999V0203601N001012200019N0200001N1+02411+01891101521ADDAA106000091GF104991001001999999001071KA1240N+01741MA1999999096581MD1999999-0101REMSYN076AAXX  26124 83236 32998 43602 10241 20189 39658 40152 80007 333 20174 59010;EQDQ01  00002PRCP06
0167832360999992004052618004-12150-045000FM-12+044099999V0209999C000012200019N0200001N1+03281+01681100941ADDAA106000091GF103991011011012501001051MA1999999096081MD1999999-0121REMSYN070AAXX  26184 83236 32698 30000 10328 20168 39608 40094 81105 333 59012;EQDQ01  00002PRCP06
0198832360999992004052700004-12150-045000FM-12+044099999V0209999C000012200019N0200001N1+02201+01921101231ADDAA106000091GF102991001001999999001031KA1240M+03341MA1999999096311MD1999999-0091REMSYN088AAXX  27004 83236 32998 20000 10220 20192 39631 40123 80003 333 10334 29070 55/// 59009;EQDQ01  00002PRCP06
0186832360999992004052712004-12150-045000FM-12+044099999V0209999C000012200019N0200001N1+02561+01971101421ADDAA106000091GF104991021021008001001051KA1240N+01831MA1999999096511MD1999999-0071REMSYN076AAXX  27124 83236 32598 40000 10256 20197 39651 40142 82205 333 20183 59007;EQDQ01  00002PRCP06
0167832360999992004052718004-12150-045000FM-12+044099999V0201401N003110075019N0200001N1+03201+01781100971ADDAA106000091GF105991051021008001001001MA1999999096101MD1999999+0021REMSYN070AAXX  27184 83236 32598 51406 10320 20178 39610 40097 85200 333 58002;EQDQ01  00002PRCP06
0198832360999992004052800004-12150-045000FM-12+044099999V0201801N001012200019N0200001N1+02411+01931101241ADDAA106000091GF104991001001999999001071KA1240M+03431MA1999999096351MD1999999+0041REMSYN088AAXX  28004 83236 32998 41802 10241 20193 39635 40124 80007 333 10343 29066 55/// 58004;EQDQ01  00002PRCP06
0186832360999992004052812004-12150-045000FM-12+044099999V0209999C000012200019N0200001N1+02521+01891101531ADDAA106000091GF102991001001999999001081KA1240N+01921MA1999999096621MD1999999+0111REMSYN076AAXX  28124 83236 32998 20000 10252 20189 39662 40153 80008 333 20192 58011;EQDQ01  00002PRCP06
0167832360999992004052818004-12150-045000FM-12+044099999V0200901N002112200019N0200001N1+03391+01661101001ADDAA106000091GF104991031021008001001011MA1999999096161MD1999999+0061REMSYN070AAXX  28184 83236 32598 40904 10339 20166 39616 40100 83201 333 58006;EQDQ01  00002PRCP06
0198832360999992004052900004-12150-045000FM-12+044099999V0201801N000512200019N0200001N1+02311+01831101311ADDAA106000091GF103991001001999999001071KA1240M+03431MA1999999096401MD1999999+0051REMSYN088AAXX  29004 83236 32998 31801 10231 20183 39640 40131 80007 333 10343 29064 55/// 58005;EQDQ01  00002PRCP06
0186832360999992004052912004-12150-045000FM-12+044099999V0201801N001512200019N0200001N1+02471+01731101651ADDAA106000091GF104991001001999999001071KA1240N+01811MA1999999096731MD1999999+0111REMSYN076AAXX  29124 83236 32998 41803 10247 20173 39673 40165 80007 333 20181 58011;EQDQ01  00002PRCP06
0167832360999992004052918004-12150-045000FM-12+044099999V0200901N003111050019N0200001N1+03191+01681101111ADDAA106000091GF105991041021008001001071MA1999999096241MD1999999+0081REMSYN070AAXX  29184 83236 32598 50906 10319 20168 39624 40111 84207 333 58008;EQDQ01  00002PRCP06
0208832360999992004053000004-12150-045000FM-12+044099999V0202701N001512200019N0200001N1+02351+01811101491ADDAA106000091GA1001+999999999GF100991001001999999001001KA1240M+03291MA1999999096581MD1999999+0181REMSYN082AAXX  30004 83236 32998 02703 10235 20181 39658 40149 333 10329 29062 55/// 58018;EQDQ01  00002PRCP06
0186832360999992004053012004-12150-045000FM-12+044099999V0202701N000512200019N0200001N1+02401+01771101721ADDAA106000091GF104991011001008001001051KA1240N+01821MA1999999096791MD1999999-0061REMSYN076AAXX  30124 83236 32598 42701 10240 20177 39679 40172 81005 333 20182 59006;EQDQ01  00002PRCP06
0167832360999992004053018004-12150-045000FM-12+044099999V0201401N005112200019N0200001N1+02931+01711101191ADDAA106000091GF106991041021008001001041MA1999999096291MD1999999+0051REMSYN070AAXX  30184 83236 32598 61410 10293 20171 39629 40119 84204 333 58005;EQDQ01  00002PRCP06
0198832360999992004053100004-12150-045000FM-12+044099999V0201801N002119999999N0200001N1+02291+01941101381ADDAA106000091GF105991001001999999001061KA1240M+03101MA1999999096461MD1999999-0121REMSYN088AAXX  31004 83236 32998 51804 10229 20194 39646 40138 80006 333 10310 29070 55/// 59012;EQDQ01  00002PRCP06
0186832360999992004053112004-12150-045000FM-12+044099999V0209999C000012200019N0200001N1+02411+01751101631ADDAA106000091GF103991021011008001001011KA1240N+01891MA1999999096701MD1999999-0091REMSYN076AAXX  31124 83236 32598 30000 10241 20175 39670 40163 82101 333 20189 59009;EQDQ01  00002PRCP06
0167832360999992004053118004-12150-045000FM-12+044099999V0200901N000510075019N0200001N1+03031+01731101121ADDAA106000091GF105991051021008001001001MA1999999096241MD1999999-0051REMSYN070AAXX  31184 83236 32598 50901 10303 20173 39624 40112 85200 333 59005;EQDQ01  00002PRCP06
0208832360999992004060100004-12150-045000FM-12+044099999V0201801N002112200019N0200001N1+02341+01761101301ADDAA106000091GA1001+999999999GF100991001001999999001001KA1240M+03191MA1999999096391MD1999999-0071REMSYN082AAXX  01004 83236 32998 01804 10234 20176 39639 40130 333 10319 29063 55/// 59007;EQDQ01  00002PRCP06
0186832360999992004060112004-12150-045000FM-12+044099999V0209999C000019999999N0200001N1+02441+01761101541ADDAA106000091GF105991001001999999001051KA1240N+01691MA1999999096621MD1999999-0081REMSYN076AAXX  01124 83236 32998 50000 10244 20176 39662 40154 80005 333 20169 59008;EQDQ01  00002PRCP06
0167832360999992004060118004-12150-045000FM-12+044099999V0200901N002111050019N0200001N1+03131+01521101061ADDAA106000091GF105991021021008001001051MA1999999096231MD1999999-0011REMSYN070AAXX  01184 83236 32598 50904 10313 20152 39623 40106 82205 333 59001;EQDQ01  00002PRCP06
0208832360999992004060200004-12150-045000FM-12+044099999V0202701N002112200019N0200001N1+02271+01641101361ADDAA106000091GA1001+999999999GF100991001001999999001001KA1240M+03271MA1999999096441MD1999999+0051REMSYN082AAXX  02004 83236 32998 02704 10227 20164 39644 40136 333 10327 29060 55/// 58005;EQDQ01  00002PRCP06
0186832360999992004060212004-12150-045000FM-12+044099999V0209999C000012200019N0200001N1+02271+01621101701ADDAA106000091GF101991001001999999001011KA1240N+01601MA1999999096741MD1999999+0121REMSYN076AAXX  02124 83236 32998 10000 10227 20162 39674 40170 80001 333 20160 58012;EQDQ01  00002PRCP06
0167832360999992004060218004-12150-045000FM-12+044099999V0201801N005112200019N0200001N1+03181+01401101161ADDAA106000091GF103991021011008001001041MA1999999096271MD1999999+0041REMSYN070AAXX  02184 83236 32598 31810 10318 20140 39627 40116 82104 333 58004;EQDQ01  00002PRCP06
0208832360999992004060300004-12150-045000FM-12+044099999V0209999C000012200019N0200001N1+02171+01701101461ADDAA106000091GA1001+999999999GF100991001001999999001001KA1240M+03251MA1999999096501MD1999999+0061REMSYN082AAXX  03004 83236 32998 00000 10217 20170 39650 40146 333 10325 29063 55/// 58006;EQDQ01  00002PRCP06
0186832360999992004060312004-12150-045000FM-12+044099999V0209999C000012200019N0200001N1+02551+01731101621ADDAA106000091GF103991031001022501061001KA1240N+01861MA1999999096691MD1999999-0051REMSYN076AAXX  03124 83236 32898 30000 10255 20173 39669 40162 83060 333 20186 59005;EQDQ01  00002PRCP06
0167832360999992004060318004-12150-045000FM-12+044099999V0203601N001511050019N0200001N1+03151+01731101151ADDAA106000091GF107991021021008001001051MA1999999096281MD1999999+0011REMSYN070AAXX  03184 83236 32598 73603 10315 20173 39628 40115 82205 333 58001;EQDQ01  00002PRCP06
0198832360999992004060400004-12150-045000FM-12+044099999V0209999C000010450019N0200001N1+02291+01941101361ADDAA106000091GF106991021061008001071001KA1240M+03211MA1999999096451MD1999999-0051REMSYN088AAXX  04004 83236 32598 60000 10229 20194 39645 40136 82670 333 10321 29066 55/// 59005;EQDQ01  00002PRCP06
0186832360999992004060412004-12150-045000FM-12+044099999V0209999C000011050019N0200001N1+02361+01931101541ADDAA106000091GF107991031001022501031081KA1240N+02091MA1999999096611MD1999999-0081REMSYN076AAXX  04124 83236 32898 70000 10236 20193 39661 40154 83038 333 20209 59008;EQDQ01  00002PRCP06
0167832360999992004060418004-12150-045000FM-12+044099999V0209999C000010450019N0200001N1+02991+01731101051ADDAA106000091GF108991021021008001031081MA1999999096191MD1999999-0091REMSYN070AAXX  04184 83236 32598 80000 10299 20173 39619 40105 82238 333 59009;EQDQ01  00002PRCP06
0198832360999992004060500004-12150-045000FM-12+044099999V0209999C000010450019N0200001N1+02251+01991101321ADDAA106000091GF106991021061008001051001KA1240M+03101MA1999999096391MD1999999-0061REMSYN088AAXX  05004 83236 32598 60000 10225 20199 39639 40132 82650 333 10310 29072 55/// 59006;EQDQ01  00002PRCP06
0186832360999992004060512004-12150-045000FM-12+044099999V0202301N001512200019N0200001N1+02511+01911101451ADDAA106000091GF103991021021008001041001KA1240N+01971MA1999999096541MD1999999-0071REMSYN076AAXX  05124 83236 32598 32303 10251 20191 39654 40145 82240 333 20197 59007;EQDQ01  00002PRCP06
0167832360999992004060518004-12150-045000FM-12+044099999V0201401N001512200019N0200001N1+03101+01171100921ADDAA106000091GF104991041021008001001001MA1999999096171MD1999999-0021REMSYN070AAXX  05184 83236 32598 41403 10310 20117 39617 40092 84200 333 59002;EQDQ01  00002PRCP06
0198832360999992004060600004-12150-045000FM-12+044099999V0209999C000012200019N0200001N1+02221+01921101281ADDAA106000091GF103991031001022501041001KA1240M+03231MA1999999096361MD1999999-0031REMSYN088AAXX  06004 83236 32898 30000 10222 20192 39636 40128 83040 333 10323 29070 55/// 59003;EQDQ01  00002PRCP06
0186832360999992004060612004-12150-045000FM-12+044099999V0202301N000512200019N0200001N1+02351+01661101621ADDAA106000091GF102991021011008001001001KA1240N+01811MA1999999096671MD1999999+0131REMSYN076AAXX  06124 83236 32598 22301 10235 20166 39667 40162 82100 333 20181 58013;EQDQ01  00002PRCP06
0167832360999992004060618004-12150-045000FM-12+044099999V0200901N001512200019N0200001N1+03181+01771101151ADDAA106000091GF104991041021008001001001MA1999999096301MD1999999+0131REMSYN070AAXX  06184 83236 32598 40903 10318 20177 39630 40115 84200 333 58013;EQDQ01  00002PRCP06
0186832360999992004060712004-12150-045000FM-12+044099999V0201801N003112200019N0200001N1+02461+01731101751ADDAA106000091GF101991001001999999001011KA1240N+01821MA1999999096811MD1999999+0141REMSYN076AAXX  07124 83236 32998 11806 10246 20173 39681 40175 80001 333 20182 58014;EQDQ01  00002PRCP06
0167832360999992004060718004-12150-045000FM-12+044099999V0201401N003612200019N0200001N1+03101+01661101271ADDAA106000091GF104991041021008001001001MA1999999096401MD1999999+0101REMSYN070AAXX  07184 83236 32598 41407 10310 20166 39640 40127 84200 333 58010;EQDQ01  00002PRCP06
0198832360999992004060800004-12150-045000FM-12+044099999V0202301N001012200019N0200001N1+02251+01751101521ADDAA106000091GF103991031041008001001001KA1240M+03191MA1999999096591MD1999999+0091REMSYN088AAXX  08004 83236 32598 32302 10225 20175 39659 40152 83400 333 10319 29063 55/// 58009;EQDQ01  00002PRCP06
0196832360999992004060812004-12150-045000FM-12+044099999V0201801N001012200019N0200001N1+02341+01641101741ADDAA106000091GA1001+999999999GF100991001001999999001001KA1240N+01681MA1999999096791MD1999999-0021REMSYN070AAXX  08124 83236 32998 01802 10234 20164 39679 40174 333 20168 59002;EQDQ01  00002PRCP06
0167832360999992004060818004-12150-045000FM-12+044099999V0200901N003112200019N0200001N1+03071+01621101201ADDAA106000091GF103991031021008001001001MA1999999096321MD1999999-0081REMSYN070AAXX  08184 83236 32598 30906 10307 20162 39632 40120 83200 333 59008;EQDQ01  00002PRCP06
0198832360999992004060900004-12150-045000FM-12+044099999V0202301N002112200019N0200001N1+02431+01741101541ADDAA106000091GF103991031041008001001001KA1240M+03251MA1999999096621MD1999999+0031REMSYN088AAXX  09004 83236 32598 32304 10243 20174 39662 40154 83400 333 10325 29060 55/// 58003;EQDQ01  00002PRCP06
0196832360999992004060912004-12150-045000FM-12+044099999V0203601N001512200019N0200001N1+02451+01661101841ADDAA106000091GA1001+999999999GF100991001001999999001001KA1240N+01781MA1999999096921MD1999999+0131REMSYN070AAXX  09124 83236 32998 03603 10245 20166 39692 40184 333 20178 58013;EQDQ01  00002PRCP06
0167832360999992004060918004-12150-045000FM-12+044099999V0200501N002612200019N0200001N1+03101+01421101261ADDAA106000091GF102991011011008001001081MA1999999096401MD1999999+0081REMSYN070AAXX  09184 83236 32598 20505 10310 20142 39640 40126 81108 333 58008;EQDQ01  00002PRCP06
0208832360999992004061000004-12150-045000FM-12+044099999V0201801N002612200019N0200001N1+02141+01611101591ADDAA106000091GA1001+999999999GF100991001001999999001001KA1240M+03191MA1999999096651MD1999999+0031REMSYN082AAXX  10004 83236 32998 01805 10214 20161 39665 40159 333 10319 29060 55/// 58003;EQDQ01  00002PRCP06
0196832360999992004061012004-12150-045000FM-12+044099999V0202701N000512200019N0200001N1+02331+01601101851ADDAA106000091GA1001+999999999GF100991001001999999001001KA1240N+01581MA1999999096881MD1999999-0041REMSYN070AAXX  10124 83236 32998 02701 10233 20160 39688 40185 333 20158 59004;EQDQ01  00002PRCP06
0167832360999992004061018004-12150-045000FM-12+044099999V0200901N002112200019N0200001N1+03161+01241101311ADDAA106000091GF101991001001999999001011MA1999999096421MD1999999+0021REMSYN070AAXX  10184 83236 32998 10904 10316 20124 39642 40131 80001 333 58002;EQDQ01  00002PRCP06
0208832360999992004061100004-12150-045000FM-12+044099999V0202301N001512200019N0200001N1+02071+01311101681ADDAA106000091GA1001+999999999GF100991001001999999001001KA1240M+03201MA1999999096711MD1999999+0061REMSYN082AAXX  11004 83236 32998 02303 10207 20131 39671 40168 333 10320 29054 55/// 58006;EQDQ01  00002PRCP06
0186832360999992004061112004-12150-045000FM-12+044099999V0203601N000512200019N0200001N1+02311+01631101871ADDAA106000091GF103991011011008001031001KA1240N+01501MA1999999096891MD1999999+0011REMSYN076AAXX  11124 83236 32598 33601 10231 20163 39689 40187 81130 333 20150 58001;EQDQ01  00002PRCP06
0167832360999992004061118004-12150-045000FM-12+044099999V0200501N002112200019N0200001N1+03171+01401101391ADDAA106000091GF101991011011008001001001MA1999999096471MD1999999+0051REMSYN070AAXX  11184 83236 32598 10504 10317 20140 39647 40139 81100 333 58005;EQDQ01  00002PRCP06
0208832360999992004061200004-12150-045000FM-12+044099999V0202301N001012200019N0200001N1+02051+01661101751ADDAA106000091GA1001+999999999GF100991001001999999001001KA1240M+03221MA1999999096781MD1999999+0071REMSYN082AAXX  12004 83236 32998 02302 10205 20166 39678 40175 333 10322 29064 55/// 58007;EQDQ01  00002PRCP06
0196832360999992004061212004-12150-045000FM-12+044099999V0202301N001512200019N0200001N1+02091+01441102141ADDAA106000091GA1001+999999999GF100991001001999999001001KA1240N+01341MA1999999097121MD1999999+0231REMSYN070AAXX  12124 83236 32998 02303 10209 20144 39712 40214 333 20134 58023;EQDQ01  00002PRCP06
0167832360999992004061218004-12150-045000FM-12+044099999V0200501N003112200019N0200001N1+03101+01291101521ADDAA106000091GF102991021011012501001001MA1999999096581MD1999999+0111REMSYN070AAXX  12184 83236 32698 20506 10310 20129 39658 40152 82100 333 58011;EQDQ01  00002PRCP06
0196832360999992004061312004-12150-045000FM-12+044099999V0202701N001012200019N0200001N1+02061+01461101921ADDAA106000091GA1001+999999999GF100991001001999999001001KA1240N+01261MA1999999096891MD1999999-0231REMSYN070AAXX  13124 83236 32998 02702 10206 20146 39689 40192 333 20126 59023;EQDQ01  00002PRCP06
0167832360999992004061318004-12150-045000FM-12+044099999V0201401N002612200019N0200001N1+03151+01021101301ADDAA106000091GF102991021011012501001001MA1999999096361MD1999999-0221REMSYN070AAXX  13184 83236 32698 21405 10315 20102 39636 40130 82100 333 59022;EQDQ01  00002PRCP06
0196832360999992004061412004-12150-045000FM-12+044099999V0202701N001012200019N0200001N1+02101+01341101961ADDAA106000091GA1001+999999999GF100991001001999999001001KA1240N+01281MA1999999096921MD1999999+0031REMSYN070AAXX  14124 83236 32998 02702 10210 20134 39692 40196 333 20128 58003;EQDQ01  00002PRCP06
0167832360999992004061418004-12150-045000FM-12+044099999V0201401N003110075019N0200001N1+02961+01461101421ADDAA106000091GF105991051021008001001001MA1999999096451MD1999999+0091REMSYN070AAXX  14184 83236 32598 51406 10296 20146 39645 40142 85200 333 58009;EQDQ01  00002PRCP06
0214832360999992004061500004-12150-045000FM-12+044099999V0202701N001512200019N0200001N1+03141+01461101711ADDAA106000091GF102991021011012501001001KA1240M+99999MA1999999096721MD1999999+0031REMSYN088AAXX  15004 83236 32698 22703 10314 20146 39672 40171 82100 333 10307 29058 55/// 58003;EQDQ01  00002PRCP06Q02 +03072ATMX  
0186832360999992004061512004-12150-045000FM-12+044099999V0201801N001510450019N0200001N1+02221+01481101901ADDAA106000091GF106991041021008001071051KA1240N+01581MA1999999096921MD1999999+0001REMSYN076AAXX  15124 83236 32598 61803 10222 20148 39692 40190 84275 333 20158 58000;EQDQ01  00002PRCP06
0167832360999992004061518004-12150-045000FM-12+044099999V0201401N003112200019N0200001N1+02991+01511101401ADDAA106000091GF103991031021008001001001MA1999999096501MD1999999+0051REMSYN070AAXX  15184 83236 32598 31406 10299 20151 39650 40140 83200 333 58005;EQDQ01  00002PRCP06
0208832360999992004061600004-12150-045000FM-12+044099999V0202701N001012200019N0200001N1+02111+01621101731ADDAA106000091GA1001+999999999GF100991001001999999001001KA1240M+03101MA1999999096751MD1999999+0031REMSYN082AAXX  16004 83236 32998 02702 10211 20162 39675 40173 333 10310 29063 55/// 58003;EQDQ01  00002PRCP06
0186832360999992004061612004-12150-045000FM-12+044099999V0209999C000012200019N0200001N1+02311+01781101681ADDAA106000091GF102991021011012501001001KA1240N+01621MA1999999096811MD1999999-0111REMSYN076AAXX  16124 83236 32698 20000 10231 20178 39681 40168 82100 333 20162 59011;EQDQ01  00002PRCP06
0167832360999992004061618004-12150-045000FM-12+044099999V0201401N002112200019N0200001N1+02971+01691101241ADDAA106000091GF104991041021008001001001MA1999999096331MD1999999-0171REMSYN070AAXX  16184 83236 32598 41404 10297 20169 39633 40124 84200 333 59017;EQDQ01  00002PRCP06
0186832360999992004061712004-12150-045000FM-12+044099999V0201801N002111050019N0200001N1+02341+01621101771ADDAA106000091GF106991041001022501071051KA1240N+01581MA1999999096821MD1999999+0011REMSYN076AAXX  17124 83236 32898 61804 10234 20162 39682 40177 84075 333 20158 58001;EQDQ01  00002PRCP06
0167832360999992004061718004-12150-045000FM-12+044099999V0201401N002612200019N0200001N1+03081+01481101291ADDAA106000091GF104991041021008001001001MA1999999096381MD1999999+0051REMSYN070AAXX  17184 83236 32598 41405 10308 20148 39638 40129 84200 333 58005;EQDQ01  00002PRCP06
0208832360999992004061800004-12150-045000FM-12+044099999V0202301N001512200019N0200001N1+02041+01601101351ADDAA106000091GA1001+999999999GF100991001001999999001001KA1240M+03141MA1999999096681MD1999999+0081REMSYN082AAXX  18004 83236 32998 02303 10204 20160 39668 40135 333 10314 29064 55/// 58008;EQDQ01  00002PRCP06
0186832360999992004061812004-12150-045000FM-12+044099999V0209999C000010450019N0200001N1+02231+01461101911ADDAA106000091GF106991031021012501071051KA1240N+01471MA1999999096921MD1999999+0101REMSYN076AAXX  18124 83236 32698 60000 10223 20146 39692 40191 83275 333 20147 58010;EQDQ01  00002PRCP06
0167832360999992004061818004-12150-045000FM-12+044099999V0201401N001510450019N0200001N1+03031+01171101431ADDAA106000091GF106991041011008001071061MA1999999096491MD1999999+0111REMSYN070AAXX  18184 83236 32598 61403 10303 20117 39649 40143 84176 333 58011;EQDQ01  00002PRCP06
0208832360999992004061900004-12150-045000FM-12+044099999V0202701N001512200019N0200001N1+01971+01401101731ADDAA106000091GA1001+999999999GF100991001001999999001001KA1240M+03111MA1999999096741MD1999999+0061REMSYN082AAXX  19004 83236 32998 02703 10197 20140 39674 40173 333 10311 29058 55/// 58006;EQDQ01  00002PRCP06
0186832360999992004061912004-12150-045000FM-12+044099999V0202301N001511050019N0200001N1+02051+01501102081ADDAA106000091GF105991021011012501051071KA1240N+01591MA1999999097061MD1999999+0141REMSYN076AAXX  19124 83236 32698 52303 10205 20150 39706 40208 82157 333 20159 58014;EQDQ01  00002PRCP06
0167832360999992004061918004-12150-045000FM-12+044099999V0201401N003110075019N0200001N1+02931+01601101561ADDAA106000091GF107991051021008001071051MA1999999096631MD1999999+0141REMSYN070AAXX  19184 83236 32598 71406 10293 20160 39663 40156 85275 333 58014;EQDQ01  00002PRCP06
0167832360999992004062018004-12150-045000FM-12+044099999V0200901N003610450019N0200001N1+02811+01531101441ADDAA106000091GF106991041021012501081051MA1999999096541MD1999999-0091REMSYN070AAXX  20184 83236 32698 60907 10281 20153 39654 40144 84285 333 59009;EQDQ01  00002PRCP06
0186832360999992004062112004-12150-045000FM-12+044099999V0201401N003112200019N0200001N1+02131+01481101961ADDAA106000091GF103991011011012501001031KA1240N+01481MA1999999096961MD1999999-0031REMSYN076AAXX  21124 83236 32698 31406 10213 20148 39696 40196 81103 333 20148 59003;EQDQ01  00002PRCP06
0167832360999992004062118004-12150-045000FM-12+044099999V0201401N003112200019N0200001N1+02951+01591101431ADDAA106000091GF104991021011012501001051MA1999999096511MD1999999-0031REMSYN070AAXX  21184 83236 32698 41406 10295 20159 39651 40143 82105 333 59003;EQDQ01  00002PRCP06
0208832360999992004062200004-12150-045000FM-12+044099999V0201801N002612200019N0200001N1+02001+01321101681ADDAA106000091GA1001+999999999GF100991001001999999001001KA1240M+03031MA1999999096701MD1999999-0051REMSYN082AAXX  22004 83236 32998 01805 10200 20132 39670 40168 333 10303 29060 55/// 59005;EQDQ01  00002PRCP06
0186832360999992004062212004-12150-045000FM-12+044099999V0201801N001010450019N0200001N1+02131+01551101881ADDAA106000091GF105991031011012501051071KA1240N+01521MA1999999096871MD1999999-0091REMSYN076AAXX  22124 83236 32698 51802 10213 20155 39687 40188 83157 333 20152 59009;EQDQ01  00002PRCP06
0167832360999992004062218004-12150-045000FM-12+044099999V0203601N001511050019N0200001N1+03011+01201101431ADDAA106000091GF105991021011012501001071MA1999999096521MD1999999+0011REMSYN070AAXX  22184 83236 32698 53603 10301 20120 39652 40143 82107 333 58001;EQDQ01  00002PRCP06
0177832360999992004062300004-12150-045000FM-12+044099999V0202301N001012200019N0200001N1+01801+01451999999ADDAA106000091GA1001+999999999GF100991001001999999001001KA1240M+03141REMSYN080AAXX  23004 83236 32998 02302 10180 20145 369 40171 333 10314 29066 55/// 59001;EQDQ01  00002PRCP06
0186832360999992004062312004-12150-045000FM-12+044099999V0202301N001512200019N0200001N1+02051+01521101911ADDAA106000091GF104991001001999999001071KA1240N+01341MA1999999096871MD1999999+0001REMSYN076AAXX  23124 83236 32998 42303 10205 20152 39687 40191 80007 333 20134 58000;EQDQ01  00002PRCP06
0186832360999992004062412004-12150-045000FM-12+044099999V0209999C000012200019N0200001N1+02081+01371101741ADDAA106000091GF102991001001999999001051KA1240N+01401MA1999999096761MD1999999-0111REMSYN076AAXX  24124 83236 32998 20000 10208 20137 39676 40174 80005 333 20140 59011;EQDQ01  00002PRCP06
0167832360999992004062418004-12150-045000FM-12+044099999V0201401N003112200019N0200001N1+03061+01301101211ADDAA106000091GF102991021011012501001001MA1999999096291MD1999999-0151REMSYN070AAXX  24184 83236 32698 21406 10306 20130 39629 40121 82100 333 59015;EQDQ01  00002PRCP06
0208832360999992004062500004-12150-045000FM-12+044099999V0201801N001512200019N0200001N1+02181+01491101461ADDAA106000091GA1001+999999999GF100991001001999999001001KA1240M+03171MA1999999096481MD1999999-0201REMSYN082AAXX  25004 83236 32998 01803 10218 20149 39648 40146 333 10317 29057 55/// 59020;EQDQ01  00002PRCP06
0167832360999992004062518004-12150-045000FM-12+044099999V0201401N001012200019N0200001N1+03051+01281101151ADDAA106000091GF103991031011012501001001MA1999999096231MD1999999-0061REMSYN070AAXX  25184 83236 32698 31402 10305 20128 39623 40115 83100 333 59006;EQDQ01  00002PRCP06
0208832360999992004062600004-12150-045000FM-12+044099999V0202701N001512200019N0200001N1+01911+01411101531ADDAA106000091GA1001+999999999GF100991001001999999001001KA1240M+03111MA1999999096521MD1999999+0031REMSYN082AAXX  26004 83236 32998 02703 10191 20141 39652 40153 333 10311 29062 55/// 58003;EQDQ01  00002PRCP06
0186832360999992004062612004-12150-045000FM-12+044099999V0209999C000012200019N0200001N1+02071+01381101801ADDAA106000091GF103991001001999999001051KA1240N+01361MA1999999096791MD1999999+0011REMSYN076AAXX  26124 83236 32998 30000 10207 20138 39679 40180 80005 333 20136 58001;EQDQ01  00002PRCP06
0167832360999992004062618004-12150-045000FM-12+044099999V0200901N001511050019N0200001N1+03051+01371101221ADDAA106000091GF105991021011008001001051MA1999999096281MD1999999+0051REMSYN070AAXX  26184 83236 32598 50903 10305 20137 39628 40122 82105 333 58005;EQDQ01  00002PRCP06
0208832360999992004062700004-12150-045000FM-12+044099999V0202301N001512200019N0200001N1+02161+01431101511ADDAA106000091GA1001+999999999GF100991001001999999001001KA1240M+03151MA1999999096531MD1999999+0011REMSYN082AAXX  27004 83236 32998 02303 10216 20143 39653 40151 333 10315 29057 55/// 58001;EQDQ01  00002PRCP06
0186832360999992004062712004-12150-045000FM-12+044099999V0202301N001512200019N0200001N1+02141+01461101791ADDAA106000091GF101991001001999999001011KA1240N+01271MA1999999096811MD1999999+0021REMSYN076AAXX  27124 83236 32998 12303 10214 20146 39681 40179 80001 333 20127 58002;EQDQ01  00002PRCP06
0167832360999992004062718004-12150-045000FM-12+044099999V0201401N003112200019N0200001N1+03081+01481101191ADDAA106000091GF104991041021008001001001MA1999999096311MD1999999+0031REMSYN070AAXX  27184 83236 32598 41406 10308 20148 39631 40119 84200 333 58003;EQDQ01  00002PRCP06
0198832360999992004062800004-12150-045000FM-12+044099999V0202701N001012200019N0200001N1+02291+01491101541ADDAA106000091GF103991031011008001001001KA1240M+03151MA1999999096581MD1999999+0051REMSYN088AAXX  28004 83236 32598 32702 10229 20149 39658 40154 83100 333 10315 29057 55/// 58005;EQDQ01  00002PRCP06
0196832360999992004062812004-12150-045000FM-12+044099999V0201801N001012200019N0200001N1+02201+01611101671ADDAA106000091GA1001+999999999GF100991001001999999001001KA1240N+01581MA1999999096711MD1999999-0101REMSYN070AAXX  28124 83236 32998 01802 10220 20161 39671 40167 333 20158 59010;EQDQ01  00002PRCP06
0167832360999992004062818004-12150-045000FM-12+044099999V0201801N003112200019N0200001N1+03081+01271101101ADDAA106000091GF104991031011008001001011MA1999999096221MD1999999-0101REMSYN070AAXX  28184 83236 32598 41806 10308 20127 39622 40110 83101 333 59010;EQDQ01  00002PRCP06
0208832360999992004062900004-12150-045000FM-12+044099999V0202701N001512200019N0200001N1+02191+01561101441ADDAA106000091GA1001+999999999GF100991001001999999001001KA1240M+03151MA1999999096481MD1999999-0101REMSYN082AAXX  29004 83236 32998 02703 10219 20156 39648 40144 333 10315 29059 55/// 59010;EQDQ01  00002PRCP06
0186832360999992004062912004-12150-045000FM-12+044099999V0209999C000012200019N0200001N1+02221+01531101751ADDAA106000091GF102991001001999999001041KA1240N+01611MA1999999096781MD1999999+0071REMSYN076AAXX  29124 83236 32998 20000 10222 20153 39678 40175 80004 333 20161 58007;EQDQ01  00002PRCP06
0167832360999992004062918004-12150-045000FM-12+044099999V0200901N001512200019N0200001N1+03041+01371101191ADDAA106000091GF104991041021008001001001MA1999999096291MD1999999+0081REMSYN070AAXX  29184 83236 32598 40903 10304 20137 39629 40119 84200 333 58008;EQDQ01  00002PRCP06
0208832360999992004063000004-12150-045000FM-12+044099999V0202701N001512200019N0200001N1+02121+01511101491ADDAA106000091GA1001+999999999GF100991001001999999001001KA1240M+03131MA1999999096521MD1999999+0041REMSYN082AAXX  30004 83236 32998 02703 10212 20151 39652 40149 333 10313 29059 55/// 58004;EQDQ01  00002PRCP06
0196832360999992004063012004-12150-045000FM-12+044099999V0202701N001012200019N0200001N1+02171+01521101791ADDAA106000091GA1001+999999999GF100991001001999999001001KA1240N+01521MA1999999096811MD1999999+0031REMSYN070AAXX  30124 83236 32998 02702 10217 20152 39681 40179 333 20152 58003;EQDQ01  00002PRCP06
0167832360999992004063018004-12150-045000FM-12+044099999V0201801N002112200019N0200001N1+03071+01361101191ADDAA106000091GF103991031011008001001001MA1999999096261MD1999999-0031REMSYN070AAXX  30184 83236 32598 31804 10307 20136 39626 40119 83100 333 59003;EQDQ01  00002PRCP06
0208832360999992004070100004-12150-045000FM-12+044099999V0202701N001012200019N0200001N1+02061+01621101511ADDAA106000091GA1001+999999999GF100991001001999999001001KA1240M+03131MA1999999096531MD1999999+0011REMSYN082AAXX  01004 83236 32998 02702 10206 20162 39653 40151 333 10313 29064 55/// 58001;EQDQ01  00002PRCP06
0186832360999992004070112004-12150-045000FM-12+044099999V0209999C000012200019N0200001N1+02311+01561101731ADDAA106000091GF101991011011008001001001KA1240N+01501MA1999999096761MD1999999-0051REMSYN076AAXX  01124 83236 32598 10000 10231 20156 39676 40173 81100 333 20150 59005;EQDQ01  00002PRCP06
0167832360999992004070118004-12150-045000FM-12+044099999V0201401N003612200019N0200001N1+03071+01561101131ADDAA106000091GF104991041021008001001001MA1999999096221MD1999999-0041REMSYN070AAXX  01184 83236 32598 41407 10307 20156 39622 40113 84200 333 59004;EQDQ01  00002PRCP06
0198832360999992004070200004-12150-045000FM-12+044099999V0202301N001512200019N0200001N1+02331+01581101361ADDAA106000091GF103991031011008001001001KA1240M+03151MA1999999096431MD1999999-0101REMSYN088AAXX  02004 83236 32598 32303 10233 20158 39643 40136 83100 333 10315 29057 55/// 59010;EQDQ01  00002PRCP06
0167832360999992004070218004-12150-045000FM-12+044099999V0200501N003110075019N0200001N1+03271+01841101001ADDAA106000091GF105991051021008001001001MA1999999096141MD1999999-0081REMSYN070AAXX  02184 83236 32598 50506 10327 20184 39614 40100 85200 333 59008;EQDQ01  00002PRCP06
0198832360999992004070300004-12150-045000FM-12+044099999V0202701N001012200019N0200001N1+02211+01841101301ADDAA106000091GF104991041021008001001001KA1240M+03311MA1999999096351MD1999999-0081REMSYN088AAXX  03004 83236 32598 42702 10221 20184 39635 40130 84200 333 10331 29068 55/// 59008;EQDQ01  00002PRCP06
0186832360999992004070312004-12150-045000FM-12+044099999V0201801N001512200019N0200001N1+02421+01721101511ADDAA106000091GF103991031001022501061001KA1240N+01821MA1999999096571MD1999999-0161REMSYN076AAXX  03124 83236 32898 31803 10242 20172 39657 40151 83060 333 20182 59016;EQDQ01  00002PRCP06
0167832360999992004070318004-12150-045000FM-12+044099999V0201401N003610075019N0200001N1+03231+01751101011ADDAA106000091GF105991051021008001001001MA1999999096171MD1999999+0031REMSYN070AAXX  03184 83236 32598 51407 10323 20175 39617 40101 85200 333 58003;EQDQ01  00002PRCP06
0198832360999992004070400004-12150-045000FM-12+044099999V0201801N001012200019N0200001N1+02431+01591101311ADDAA106000091GF104991031021008001041001KA1240M+03291MA1999999096411MD1999999+0061REMSYN088AAXX  04004 83236 32598 41802 10243 20159 39641 40131 83240 333 10329 29056 55/// 58006;EQDQ01  00002PRCP06
0196832360999992004070412004-12150-045000FM-12+044099999V0202701N000512200019N0200001N1+02361+01461101571ADDAA106000091GA1001+999999999GF100991001001999999001001KA1240N+01551MA1999999096651MD1999999+0081REMSYN070AAXX  04124 83236 32998 02701 10236 20146 39665 40157 333 20155 58008;EQDQ01  00002PRCP06
0167832360999992004070418004-12150-045000FM-12+044099999V0200901N001512200019N0200001N1+03111+01371101001ADDAA106000091GF101991011011008001001001MA1999999096131MD1999999-0041REMSYN070AAXX  04184 83236 32598 10903 10311 20137 39613 40100 81100 333 59004;EQDQ01  00002PRCP06
0208832360999992004070500004-12150-045000FM-12+044099999V0202301N001512200019N0200001N1+02161+01591101291ADDAA106000091GA1001+999999999GF100991001001999999001001KA1240M+03151MA1999999096351MD1999999-0061REMSYN082AAXX  05004 83236 32998 02303 10216 20159 39635 40129 333 10315 29058 55/// 59006;EQDQ01  00002PRCP06
0186832360999992004070512004-12150-045000FM-12+044099999V0202301N001012200019N0200001N1+02191+01441101741ADDAA106000091GF102991021001022501041001KA1240N+01441MA1999999096771MD1999999+0121REMSYN076AAXX  05124 83236 32898 22302 10219 20144 39677 40174 82040 333 20144 58012;EQDQ01  00002PRCP06
0167832360999992004070518004-12150-045000FM-12+044099999V0202701N001012200019N0200001N1+03211+01551101171ADDAA106000091GF103991031011008001001001MA1999999096271MD1999999+0141REMSYN070AAXX  05184 83236 32598 32702 10321 20155 39627 40117 83100 333 58014;EQDQ01  00002PRCP06
0198832360999992004070600004-12150-045000FM-12+044099999V0209999C000012200019N0200001N1+02241+01671101381ADDAA106000091GF103991031061008001001001KA1240M+03291MA1999999096431MD1999999+0081REMSYN088AAXX  06004 83236 32598 30000 10224 20167 39643 40138 83600 333 10329 29060 55/// 58008;EQDQ01  00002PRCP06
0186832360999992004070612004-12150-045000FM-12+044099999V0202701N000512200019N0200001N1+02221+01581101591ADDAA106000091GF102991021001022501081001KA1240N+01621MA1999999096641MD1999999-0131REMSYN076AAXX  06124 83236 32898 22701 10222 20158 39664 40159 82080 333 20162 59013;EQDQ01  00002PRCP06
0167832360999992004070618004-12150-045000FM-12+044099999V0202701N001512200019N0200001N1+03191+01491101011ADDAA106000091GF104991041001008001001001MA1999999096131MD1999999-0141REMSYN070AAXX  06184 83236 32598 42703 10319 20149 39613 40101 84000 333 59014;EQDQ01  00002PRCP06
0208832360999992004070700004-12150-045000FM-12+044099999V0202301N001012200019N0200001N1+02101+01701101251ADDAA106000091GA1001+999999999GF100991001001999999001001KA1240M+03311MA1999999096291MD1999999-0141REMSYN082AAXX  07004 83236 32998 02302 10210 20170 39629 40125 333 10331 29065 55/// 59014;EQDQ01  00002PRCP06
0196832360999992004070712004-12150-045000FM-12+044099999V0209999C000012200019N0200001N1+02291+01441101471ADDAA106000091GA1001+999999999GF100991001001999999001001KA1240N+01501MA1999999096511MD1999999-0131REMSYN070AAXX  07124 83236 32998 00000 10229 20144 39651 40147 333 20150 59013;EQDQ01  00002PRCP06
0167832360999992004070718004-12150-045000FM-12+044099999V0202301N001012200019N0200001N1+03171+01551100921ADDAA106000091GF104991041021008001001001MA1999999096031MD1999999-0101REMSYN070AAXX  07184 83236 32598 42302 10317 20155 39603 40092 84200 333 59010;EQDQ01  00002PRCP06
0208832360999992004070800004-12150-045000FM-12+044099999V0202701N001012200019N0200001N1+02121+01721101141ADDAA106000091GA1001+999999999GF100991001001999999001001KA1240M+03291MA1999999096201MD1999999-0091REMSYN082AAXX  08004 83236 32998 02702 10212 20172 39620 40114 333 10329 29063 55/// 59009;EQDQ01  00002PRCP06
0186832360999992004070812004-12150-045000FM-12+044099999V0209999C000019999999N0200001N1+02221+01601101451ADDAA106000091GF105991001001999999001051KA1240N+01481MA1999999096481MD1999999-0031REMSYN076AAXX  08124 83236 32998 50000 10222 20160 39648 40145 80005 333 20148 59003;EQDQ01  00002PRCP06
0208832360999992004070900004-12150-045000FM-12+044099999V0209999C000012200019N0200001N1+02101+01681101111ADDAA106000091GA1001+999999999GF100991001001999999001001KA1240M+03351MA1999999096161MD1999999-0041REMSYN082AAXX  09004 83236 32998 00000 10210 20168 39616 40111 333 10335 29064 55/// 59004;EQDQ01  00002PRCP06
0186832360999992004070912004-12150-045000FM-12+044099999V0209999C000012200019N0200001N1+02161+01501101451ADDAA106000091GF104991011001022501041041KA1240N+01441MA1999999096481MD1999999+0001REMSYN076AAXX  09124 83236 32898 40000 10216 20150 39648 40145 81044 333 20144 58000;EQDQ01  00002PRCP06
0167832360999992004070918004-12150-045000FM-12+044099999V0203601N003611050019N0200001N1+03271+01471100861ADDAA106000091GF105991031021008001001051MA1999999095981MD1999999+0021REMSYN070AAXX  09184 83236 32598 53607 10327 20147 39598 40086 83205 333 58002;EQDQ01  00002PRCP06
0208832360999992004071000004-12150-045000FM-12+044099999V0201801N001012200019N0200001N1+02081+01681101121ADDAA106000091GA1001+999999999GF100991001001999999001001KA1240M+03351MA1999999096171MD1999999+0011REMSYN082AAXX  10004 83236 32998 01802 10208 20168 39617 40112 333 10335 29064 55/// 58001;EQDQ01  00002PRCP06
0186832360999992004071012004-12150-045000FM-12+044099999V0209999C000019999999N0200001N1+02241+01501101441ADDAA106000091GF105991001001999999001051KA1240N+01451MA1999999096471MD1999999-0011REMSYN076AAXX  10124 83236 32998 50000 10224 20150 39647 40144 80005 333 20145 59001;EQDQ01  00002PRCP06
0167832360999992004071018004-12150-045000FM-12+044099999V0203601N001012200019N0200001N1+03381+01381100901ADDAA106000091GF104991021021008001001011MA1999999096041MD1999999+0061REMSYN070AAXX  10184 83236 32598 43602 10338 20138 39604 40090 82201 333 58006;EQDQ01  00002PRCP06
0208832360999992004071100004-12150-045000FM-12+044099999V0201801N001012200019N0200001N1+02201+01651101161ADDAA106000091GA1001+999999999GF100991001001999999001001KA1240M+03431MA1999999096221MD1999999+0051REMSYN082AAXX  11004 83236 32998 01802 10220 20165 39622 40116 333 10343 29059 55/// 58005;EQDQ01  00002PRCP06
0167832360999992004071118004-12150-045000FM-12+044099999V0209999C000011050019N0200001N1+03291+01441100851ADDAA106000091GF106991031021008001001051MA1999999095981MD1999999-0061REMSYN070AAXX  11184 83236 32598 60000 10329 20144 39598 40085 83205 333 59006;EQDQ01  00002PRCP06
0198832360999992004071200004-12150-045000FM-12+044099999V0202301N000512200019N0200001N1+02271+01901101041ADDAA106000091GF103991031061008001001001KA1240M+03401MA1999999096141MD1999999-0081REMSYN088AAXX  12004 83236 32598 32301 10227 20190 39614 40104 83600 333 10340 29062 55/// 59008;EQDQ01  00002PRCP06
0186832360999992004071212004-12150-045000FM-12+044099999V0209999C000012200019N0200001N1+02531+01631101301ADDAA106000091GF102991021011012501001001KA1240N+01741MA1999999096391MD1999999-0111REMSYN076AAXX  12124 83236 32698 20000 10253 20163 39639 40130 82100 333 20174 59011;EQDQ01  00002PRCP06
0167832360999992004071218004-12150-045000FM-12+044099999V0200901N003110075019N0200001N1+03111+01621100931ADDAA106000091GF106991051021008001001071MA1999999096041MD1999999+0061REMSYN070AAXX  12184 83236 32598 60906 10311 20162 39604 40093 85207 333 58006;EQDQ01  00002PRCP06
0198832360999992004071300004-12150-045000FM-12+044099999V0201801N003110120019N0200001N1+02551+01591101251ADDAA106000091GF105991051021012501001001KA1240M+03301MA1999999096371MD1999999+0231REMSYN088AAXX  13004 83236 32698 51806 10255 20159 39637 40125 85200 333 10330 29052 55/// 58023;EQDQ01  00002PRCP06
0186832360999992004071312004-12150-045000FM-12+044099999V0202701N002110450019N0200001N1+02241+01671101561ADDAA106000091GF106991031021008001071051KA1240N+01761MA1999999096641MD1999999+0251REMSYN076AAXX  13124 83236 32598 62704 10224 20167 39664 40156 83275 333 20176 58025;EQDQ01  00002PRCP06
0167832360999992004071318004-12150-045000FM-12+044099999V0201401N003110075019N0200001N1+03011+01611101061ADDAA106000091GF105991051021008001001001MA1999999096181MD1999999+0141REMSYN070AAXX  13184 83236 32598 51406 10301 20161 39618 40106 85200 333 58014;EQDQ01  00002PRCP06
0198832360999992004071400004-12150-045000FM-12+044099999V0202301N001012200019N0200001N1+02291+01771101341ADDAA106000091GF102991021021008001001001KA1240M+03061MA1999999096401MD1999999+0031REMSYN088AAXX  14004 83236 32598 22302 10229 20177 39640 40134 82200 333 10306 29064 55/// 58003;EQDQ01  00002PRCP06
0186832360999992004071412004-12150-045000FM-12+044099999V0209999C000010450019N0200001N1+02201+01511101651ADDAA106000091GF106991031011012501041071KA1240N+01601MA1999999096691MD1999999+0051REMSYN076AAXX  14124 83236 32698 60000 10220 20151 39669 40165 83147 333 20160 58005;EQDQ01  00002PRCP06
0167832360999992004071418004-12150-045000FM-12+044099999V0200901N003110450019N0200001N1+03051+01451101081ADDAA106000091GF107991041021008001051071MA1999999096211MD1999999+0031REMSYN070AAXX  14184 83236 32598 70906 10305 20145 39621 40108 84257 333 58003;EQDQ01  00002PRCP06
0198832360999992004071500004-12150-045000FM-12+044099999V0202301N001012200019N0200001N1+02201+01611101421ADDAA106000091GF103991031021008001001001KA1240M+03161MA1999999096461MD1999999+0061REMSYN088AAXX  15004 83236 32598 32302 10220 20161 39646 40142 83200 333 10316 29060 55/// 58006;EQDQ01  00002PRCP06
0186832360999992004071512004-12150-045000FM-12+044099999V0209999C000012200019N0200001N1+02271+01591101691ADDAA106000091GF102991021011012501001001KA1240N+01681MA1999999096731MD1999999+0041REMSYN076AAXX  15124 83236 32698 20000 10227 20159 39673 40169 82100 333 20168 58004;EQDQ01  00002PRCP06
0167832360999992004071518004-12150-045000FM-12+044099999V0201401N002112200019N0200001N1+03121+01251101141ADDAA106000091GF102991021011008001001001MA1999999096271MD1999999+0061REMSYN070AAXX  15184 83236 32598 21404 10312 20125 39627 40114 82100 333 58006;EQDQ01  00002PRCP06
0208832360999992004071600004-12150-045000FM-12+044099999V0209999C000012200019N0200001N1+02211+01361101451ADDAA106000091GA1001+999999999GF100991001001999999001001KA1240M+03201MA1999999096501MD1999999+0041REMSYN082AAXX  16004 83236 32998 00000 10221 20136 39650 40145 333 10320 29054 55/// 58004;EQDQ01  00002PRCP06
0186832360999992004071612004-12150-045000FM-12+044099999V0209999C000012200019N0200001N1+02231+01581101751ADDAA106000091GF103991001001999999001051KA1240N+01591MA1999999096781MD1999999+0051REMSYN076AAXX  16124 83236 32998 30000 10223 20158 39678 40175 80005 333 20159 58005;EQDQ01  00002PRCP06
0167832360999992004071618004-12150-045000FM-12+044099999V0202301N002612200019N0200001N1+03111+01281101181ADDAA106000091GF104991031011008001001031MA1999999096291MD1999999+0021REMSYN070AAXX  16184 83236 32598 42305 10311 20128 39629 40118 83103 333 58002;EQDQ01  00002PRCP06
0208832360999992004071700004-12150-045000FM-12+044099999V0202301N001512200019N0200001N1+01971+01291101451ADDAA106000091GA1001+999999999GF100991001001999999001001KA1240M+03201MA1999999096471MD1999999-0031REMSYN082AAXX  17004 83236 32998 02303 10197 20129 39647 40145 333 10320 29062 55/// 59003;EQDQ01  00002PRCP06
0196832360999992004071712004-12150-045000FM-12+044099999V0202301N001012200019N0200001N1+02211+01361101701ADDAA106000091GA1001+999999999GF100991001001999999001001KA1240N+01421MA1999999096711MD1999999-0071REMSYN070AAXX  17124 83236 32998 02302 10221 20136 39671 40170 333 20142 59007;EQDQ01  00002PRCP06
0167832360999992004071718004-12150-045000FM-12+044099999V0201401N001510120019N0200001N1+03151+01291101141ADDAA106000091GF105991051011012501011001MA1999999096231MD1999999-0061REMSYN070AAXX  17184 83236 32698 51403 10315 20129 39623 40114 85110 333 59006;EQDQ01  00002PRCP06
0208832360999992004071800004-12150-045000FM-12+044099999V0202301N001512200019N0200001N1+02141+01431101431ADDAA106000091GA1001+999999999GF100991001001999999001001KA1240M+03251MA1999999096461MD1999999-0011REMSYN082AAXX  18004 83236 32998 02303 10214 20143 39646 40143 333 10325 29055 55/// 59001;EQDQ01  00002PRCP06
0186832360999992004071812004-12150-045000FM-12+044099999V0209999C000010120019N0200001N1+02271+01421101701ADDAA106000091GF105991051011012501061001KA1240N+01461MA1999999096731MD1999999+0021REMSYN076AAXX  18124 83236 32698 50000 10227 20142 39673 40170 85160 333 20146 58002;EQDQ01  00002PRCP06
0167832360999992004071818004-12150-045000FM-12+044099999V0209999C000010075019N0200001N1+03191+01311101251ADDAA106000091GF105991051021008001001001MA1999999096341MD1999999+0111REMSYN070AAXX  18184 83236 32598 50000 10319 20131 39634 40125 85200 333 58011;EQDQ01  00002PRCP06
0198832360999992004071900004-12150-045000FM-12+044099999V0202301N001012200019N0200001N1+02091+01651101481ADDAA106000091GF103991031011012501001001KA1240M+03301MA1999999096521MD1999999+0061REMSYN088AAXX  19004 83236 32698 32302 10209 20165 39652 40148 83100 333 10330 29058 55/// 58006;EQDQ01  00002PRCP06
0196832360999992004071912004-12150-045000FM-12+044099999V0201801N002612200019N0200001N1+02411+01631101771ADDAA106000091GA1001+999999999GF100991001001999999001001KA1240N+01741MA1999999096811MD1999999+0041REMSYN070AAXX  19124 83236 32998 01805 10241 20163 39681 40177 333 20174 58004;EQDQ01  00002PRCP06
0167832360999992004071918004-12150-045000FM-12+044099999V0200901N001511050019N0200001N1+03071+01421101191ADDAA106000091GF105991041021008001001071MA1999999096331MD1999999-0011REMSYN070AAXX  19184 83236 32598 50903 10307 20142 39633 40119 84207 333 59001;EQDQ01  00002PRCP06
0208832360999992004072000004-12150-045000FM-12+044099999V0202301N001012200019N0200001N1+02081+01371101441ADDAA106000091GA1001+999999999GF100991001001999999001001KA1240M+03261MA1999999096491MD1999999-0031REMSYN082AAXX  20004 83236 32998 02302 10208 20137 39649 40144 333 10326 29060 55/// 59003;EQDQ01  00002PRCP06
0196832360999992004072012004-12150-045000FM-12+044099999V0209999C000012200019N0200001N1+02271+01441101711ADDAA106000091GA1001+999999999GF100991001001999999001001KA1240N+01501MA1999999096731MD1999999-0081REMSYN070AAXX  20124 83236 32998 00000 10227 20144 39673 40171 333 20150 59008;EQDQ01  00002PRCP06
0167832360999992004072018004-12150-045000FM-12+044099999V0202701N001511050019N0200001N1+03071+01301101181ADDAA106000091GF105991041021008001001051MA1999999096271MD1999999-0061REMSYN070AAXX  20184 83236 32598 52703 10307 20130 39627 40118 84205 333 59006;EQDQ01  00002PRCP06
0208832360999992004072100004-12150-045000FM-12+044099999V0201801N001012200019N0200001N1+02171+01591101351ADDAA106000091GA1001+999999999GF100991001001999999001001KA1240M+03251MA1999999096401MD1999999-0091REMSYN082AAXX  21004 83236 32998 01802 10217 20159 39640 40135 333 10325 29059 55/// 59009;EQDQ01  00002PRCP06
0186832360999992004072112004-12150-045000FM-12+044099999V0201801N001512200019N0200001N1+02311+01531101521ADDAA106000091GF104991031021012501001051KA1240N+01631MA1999999096571MD1999999-0161REMSYN076AAXX  21124 83236 32698 41803 10231 20153 39657 40152 83205 333 20163 59016;EQDQ01  00002PRCP06
0167832360999992004072118004-12150-045000FM-12+044099999V0201401N003110075019N0200001N1+03021+01431100991ADDAA106000091GF106991051021008001001071MA1999999096111MD1999999-0161REMSYN070AAXX  21184 83236 32598 61406 10302 20143 39611 40099 85207 333 59016;EQDQ01  00002PRCP06
0198832360999992004072200004-12150-045000FM-12+044099999V0201801N001012200019N0200001N1+02211+01461101291ADDAA106000091GF104991031021008001061051KA1240M+03161MA1999999096351MD1999999-0051REMSYN088AAXX  22004 83236 32598 41802 10221 20146 39635 40129 83265 333 10316 29057 55/// 59005;EQDQ01  00002PRCP06
0196832360999992004072212004-12150-045000FM-12+044099999V0201801N001512200019N0200001N1+02051+01311101711ADDAA106000091GA1001+999999999GF100991001001999999001001KA1240N+01461MA1999999096731MD1999999+0161REMSYN070AAXX  22124 83236 32998 01803 10205 20131 39673 40171 333 20146 58016;EQDQ01  00002PRCP06
0167832360999992004072218004-12150-045000FM-12+044099999V0201401N001512200019N0200001N1+02871+01121101221ADDAA106000091GF104991031011008001001071MA1999999096301MD1999999+0191REMSYN070AAXX  22184 83236 32598 41403 10287 20112 39630 40122 83107 333 58019;EQDQ01  00002PRCP06
0198832360999992004072300004-12150-045000FM-12+044099999V0209999C000012200019N0200001N1+02011+01301101521ADDAA106000091GF102991021011012501001001KA1240M+02931MA1999999096531MD1999999+0181REMSYN088AAXX  23004 83236 32698 20000 10201 20130 39653 40152 82100 333 10293 29056 55/// 58018;EQDQ01  00002PRCP06
0186832360999992004072312004-12150-045000FM-12+044099999V0201401N001511050019N0200001N1+01941+01011101921ADDAA106000091GF105991021011012501001071KA1240N+01321MA1999999096891MD1999999+0161REMSYN076AAXX  23124 83236 32698 51403 10194 20101 39689 40192 82107 333 20132 58016;EQDQ01  00002PRCP06
0167832360999992004072318004-12150-045000FM-12+044099999V0201401N002112200019N0200001N1+02771+00941101341ADDAA106000091GF103991001001999999001051MA1999999096401MD1999999+0101REMSYN070AAXX  23184 83236 32998 31404 10277 20094 39640 40134 80005 333 58010;EQDQ01  00002PRCP06
0208832360999992004072400004-12150-045000FM-12+044099999V0202301N001512200019N0200001N1+01761+01071101721ADDAA106000091GA1001+999999999GF100991001001999999001001KA1240M+02871MA1999999096681MD1999999+0151REMSYN082AAXX  24004 83236 32998 02303 10176 20107 39668 40172 333 10287 29054 55/// 58015;EQDQ01  00002PRCP06
0186832360999992004072412004-12150-045000FM-12+044099999V0202301N001519999999N0200001N1+01861+01191102191ADDAA106000091GF105991001001999999001071KA1240N+01181MA1999999097121MD1999999+0231REMSYN076AAXX  24124 83236 32998 52303 10186 20119 39712 40219 80007 333 20118 58023;EQDQ01  00002PRCP06
0167832360999992004072418004-12150-045000FM-12+044099999V0200901N001512200019N0200001N1+02821+01091101541ADDAA106000091GF104991021011008001001071MA1999999096571MD1999999+0171REMSYN070AAXX  24184 83236 32598 40903 10282 20109 39657 40154 82107 333 58017;EQDQ01  00002PRCP06
0208832360999992004072500004-12150-045000FM-12+044099999V0202301N002612200019N0200001N1+02061+01041101791ADDAA106000091GA1001+999999999GF100991001001999999001001KA1240M+02931MA1999999096771MD1999999+0091REMSYN082AAXX  25004 83236 32998 02305 10206 20104 39677 40179 333 10293 29051 55/// 58009;EQDQ01  00002PRCP06
0196832360999992004072512004-12150-045000FM-12+044099999V0201401N001512200019N0200001N1+02061+01121101951ADDAA106000091GA1001+999999999GF100991001001999999001001KA1240N+01681MA1999999096941MD1999999-0181REMSYN070AAXX  25124 83236 32998 01403 10206 20112 39694 40195 333 20168 59018;EQDQ01  00002PRCP06
0199832360999992004072518004-12150-045000FM-12+044099999V0200901N003112200019N0200001N1+02901+01021101441ADDAA106000091GF101991011011012501001001MA1999999999999MD1999999-0081REMSYN070AAXX  25184 83236 32698 10906 10290 20102 39964 40144 81100 333 59008;EQDQ01+099643APOSP Q02  00002PRCP06Q03 099643APOSP 
0208832360999992004072600004-12150-045000FM-12+044099999V0201401N002112200019N0200001N1+02221+00871101661ADDAA106000091GA1001+999999999GF100991001001999999001001KA1240M+02931MA1999999096681MD1999999-0091REMSYN082AAXX  26004 83236 32998 01404 10222 20087 39668 40166 333 10293 29043 55/// 59009;EQDQ01  00002PRCP06
0196832360999992004072612004-12150-045000FM-12+044099999V0201401N002612200019N0200001N1+02011+01011102001ADDAA106000091GA1001+999999999GF100991001001999999001001KA1240N+01381MA1999999097001MD1999999+0061REMSYN070AAXX  26124 83236 32998 01405 10201 20101 39700 40200 333 20138 58006;EQDQ01  00002PRCP06
0177832360999992004072618004-12150-045000FM-12+044099999V0201401N004112200019N0200001N1+02811+00881101571ADDAA106000091GA1001+999999999GF100991001001999999001001MA1999999096611MD1999999+0121REMSYN064AAXX  26184 83236 32998 01408 10281 20088 39661 40157 333 58012;EQDQ01  00002PRCP06
0208832360999992004072700004-12150-045000FM-12+044099999V0209999C000012200019N0200001N1+01891+00981101831ADDAA106000091GA1001+999999999GF100991001001999999001001KA1240M+02841MA1999999096811MD1999999+0131REMSYN082AAXX  27004 83236 32998 00000 10189 20098 39681 40183 333 10284 29049 55/// 58013;EQDQ01  00002PRCP06
0196832360999992004072712004-12150-045000FM-12+044099999V0201801N001512200019N0200001N1+02031+01131102161ADDAA106000091GA1001+999999999GF100991001001999999001001KA1240N+01361MA1999999097121MD1999999+0121REMSYN070AAXX  27124 83236 32998 01803 10203 20113 39712 40216 333 20136 58012;EQDQ01  00002PRCP06
0198832360999992004072800004-12150-045000FM-12+044099999V0201401N003112200019N0200001N1+02221+01071101671ADDAA106000091GF103991031001022501041001KA1240M+02911MA1999999096691MD1999999-0121REMSYN088AAXX  28004 83236 32898 31406 10222 20107 39669 40167 83040 333 10291 29045 55/// 59012;EQDQ01  00002PRCP06
0196832360999992004072812004-12150-045000FM-12+044099999V0201401N005112200019N0200001N1+02151+01201101941ADDAA106000091GA1001+999999999GF100991001001999999001001KA1240N+01441MA1999999096961MD1999999-0161REMSYN070AAXX  28124 83236 32998 01410 10215 20120 39696 40194 333 20144 59016;EQDQ01  00002PRCP06
0177832360999992004072818004-12150-045000FM-12+044099999V0201401N005112200019N0200001N1+02891+00901101371ADDAA106000091GA1001+999999999GF100991001001999999001001MA1999999096441MD1999999-0101REMSYN064AAXX  28184 83236 32998 01410 10289 20090 39644 40137 333 59010;EQDQ01  00002PRCP06
0208832360999992004072900004-12150-045000FM-12+044099999V0201401N004612200019N0200001N1+02281+01121101651ADDAA106000091GA1001+999999999GF100991001001999999001001KA1240M+02961MA1999999096681MD1999999-0011REMSYN082AAXX  29004 83236 32998 01409 10228 20112 39668 40165 333 10296 29045 55/// 59001;EQDQ01  00002PRCP06
0186832360999992004072912004-12150-045000FM-12+044099999V0201801N003112200019N0200001N1+02051+01211101941ADDAA106000091GF101991011011008001001001KA1240N+01361MA1999999096951MD1999999-0011REMSYN076AAXX  29124 83236 32598 11806 10205 20121 39695 40194 81100 333 20136 59001;EQDQ01  00002PRCP06
0167832360999992004072918004-12150-045000FM-12+044099999V0201401N003112200019N0200001N1+02901+01021101321ADDAA106000091GF101991011001022501041001MA1999999096381MD1999999-0061REMSYN070AAXX  29184 83236 32898 11406 10290 20102 39638 40132 81040 333 59006;EQDQ01  00002PRCP06
0169832360999992004080412004-12150-045000FM-12+044099999V0201801N001012200019N0200001N1+02311+01381999999ADDAA106000091GA1001+999999999GF100991001001999999001001MA1999999096951REMSYN070AAXX  04124 83236 32998 01802 10231 20138 39695 4//// 333 2//// 5////;EQDQ01  00002PRCP06
0163832360999992004080418004-12150-045000FM-12+044099999V0201401N005112200019N0200001N1+03041+00491999999ADDAA106000091GA1001+999999999GF100991001001999999001001MA1999999096451REMSYN064AAXX  04184 83236 32998 01410 10304 20049 39645 4//// 333 5////;EQDQ01  00002PRCP06
0194832360999992004080500004-12150-045000FM-12+044099999V0201401N003112200019N0200001N1+02241+00701101571ADDAA106000091GA1001+999999999GF100991001001999999001001KA1240M+03131MA1999999096621REMSYN082AAXX  05004 83236 32998 01406 10224 20070 39662 40157 333 10313 29040 55/// 5////;EQDQ01  00002PRCP06
0196832360999992004080512004-12150-045000FM-12+044099999V0201401N001512200019N0200001N1+02261+01171101811ADDAA106000091GA1001+999999999GF100991001001999999001001KA1240N+01741MA1999999096851MD1999999-0101REMSYN070AAXX  05124 83236 32998 01403 10226 20117 39685 40181 333 20174 59010;EQDQ01  00002PRCP06
0167832360999992004080518004-12150-045000FM-12+044099999V0200501N001012200019N0200001N1+03101+00811101261ADDAA106000091GF102991021011012501001001MA1999999096381MD1999999-0071REMSYN070AAXX  05184 83236 32698 20502 10310 20081 39638 40126 82100 333 59007;EQDQ01  00002PRCP06
0208832360999992004080600004-12150-045000FM-12+044099999V0202301N002112200019N0200001N1+02171+00971101561ADDAA106000091GA1001+999999999GF100991001001999999001001KA1240M+03181MA1999999096601MD1999999-0021REMSYN082AAXX  06004 83236 32998 02304 10217 20097 39660 40156 333 10318 29042 55/// 59002;EQDQ01  00002PRCP06
0196832360999992004080612004-12150-045000FM-12+044099999V0201401N002612200019N0200001N1+02211+01311101801ADDAA106000091GA1001+999999999GF100991001001999999001001KA1240N+01681MA1999999096831MD1999999-0021REMSYN070AAXX  06124 83236 32998 01405 10221 20131 39683 40180 333 20168 59002;EQDQ01  00002PRCP06
0167832360999992004080618004-12150-045000FM-12+044099999V0202301N001512200019N0200001N1+03181+01101101211ADDAA106000091GF102991021011012501001001MA1999999096341MD1999999-0041REMSYN070AAXX  06184 83236 32698 22303 10318 20110 39634 40121 82100 333 59004;EQDQ01  00002PRCP06
0208832360999992004080700004-12150-045000FM-12+044099999V0202301N001512200019N0200001N1+02111+01321101621ADDAA106000091GA1001+999999999GF100991001001999999001001KA1240M+03281MA1999999096651MD1999999+0051REMSYN082AAXX  07004 83236 32998 02303 10211 20132 39665 40162 333 10328 29052 55/// 58005;EQDQ01  00002PRCP06
0196832360999992004080712004-12150-045000FM-12+044099999V0209999C000012200019N0200001N1+02361+01321101921ADDAA106000091GA1001+999999999GF100991001001999999001001KA1240N+01441MA1999999096951MD1999999+0121REMSYN070AAXX  07124 83236 32998 00000 10236 20132 39695 40192 333 20144 58012;EQDQ01  00002PRCP06
0167832360999992004080718004-12150-045000FM-12+044099999V0202301N001512200019N0200001N1+03221+01141101361ADDAA106000091GF103991031011008001001001MA1999999096451MD1999999+0111REMSYN070AAXX  07184 83236 32598 32303 10322 20114 39645 40136 83100 333 58011;EQDQ01  00002PRCP06
0208832360999992004080800004-12150-045000FM-12+044099999V0209999C000012200019N0200001N1+02081+01491101671ADDAA106000091GA1001+999999999GF100991001001999999001001KA1240M+03351MA1999999096701MD1999999+0051REMSYN082AAXX  08004 83236 32998 00000 10208 20149 39670 40167 333 10335 29055 55/// 58005;EQDQ01  00002PRCP06
0196832360999992004080812004-12150-045000FM-12+044099999V0202301N001012200019N0200001N1+02271+01201101841ADDAA106000091GA1001+999999999GF100991001001999999001001KA1240N+01381MA1999999096851MD1999999-0101REMSYN070AAXX  08124 83236 32998 02302 10227 20120 39685 40184 333 20138 59010;EQDQ01  00002PRCP06
0167832360999992004080818004-12150-045000FM-12+044099999V0201801N001012200019N0200001N1+03361+01091101241ADDAA106000091GF102991011011012501001051MA1999999096351MD1999999-0101REMSYN070AAXX  08184 83236 32698 21802 10336 20109 39635 40124 81105 333 59010;EQDQ01  00002PRCP06
0208832360999992004080900004-12150-045000FM-12+044099999V0202301N001512200019N0200001N1+02051+01411101571ADDAA106000091GA1001+999999999GF100991001001999999001001KA1240M+03481MA1999999096601MD1999999-0101REMSYN082AAXX  09004 83236 32998 02303 10205 20141 39660 40157 333 10348 29054 55/// 59010;EQDQ01  00002PRCP06
0186832360999992004080912004-12150-045000FM-12+043999999V0202301N001512200019N0200001N1+03241+01181101741ADDAA106000091GF103991001001999999001071KA1240N+01401MA1999999096771MD1999999-0081REMSYN076AAXX  09124 83236 32998 32303 10324 20118 39677 40174 80007 333 20140 59008;EQDQ01  00002PRCP06
0167832360999992004080918004-12150-045000FM-12+043999999V0201801N002612200019N0200001N1+03331+01111101081ADDAA106000091GF102991021011012501001001MA1999999096281MD1999999-0071REMSYN070AAXX  09184 83236 32698 21805 10333 20111 39628 40108 82100 333 59007;EQDQ01  00002PRCP06
0198832360999992004081000004-12150-045000FM-12+043999999V0202301N002110450019N0200001N1+02411+01261101501ADDAA106000091GF105991041011012501061001KA1240M+03481MA1999999096571MD1999999-0031REMSYN088AAXX  10004 83236 32698 52304 10241 20126 39657 40150 84160 333 10348 29043 55/// 59003;EQDQ01  00002PRCP06
0196832360999992004081012004-12150-045000FM-12+043999999V0209999C000012200019N0200001N1+02441+01451101801ADDAA106000091GA1001+999999999GF100991001001999999001001KA1240N+01651MA1999999096871MD1999999+0101REMSYN070AAXX  10124 83236 32998 00000 10244 20145 39687 40180 333 20165 58010;EQDQ01  00002PRCP06
0167832360999992004081018004-12150-045000FM-12+043999999V0201401N004110075019N0200001N1+03201+01231101301ADDAA106000091GF105991051021008001001001MA1999999096411MD1999999+0131REMSYN070AAXX  10184 83236 32598 51408 10320 20123 39641 40130 85200 333 58013;EQDQ01  00002PRCP06
0198832360999992004081100004-12150-045000FM-12+043999999V0202301N001512200019N0200001N1+02211+01201101661ADDAA106000091GF104991031011012501061001KA1240M+03301MA1999999096711MD1999999+0141REMSYN088AAXX  11004 83236 32698 42303 10221 20120 39671 40166 83160 333 10330 29048 55/// 58014;EQDQ01  00002PRCP06
0186832360999992004081112004-12150-045000FM-12+044099999V0201801N001512200019N0200001N1+02281+01411101991ADDAA106000091GF101991001001999999001031KA1240N+01581MA1999999097021MD1999999+0171REMSYN076AAXX  11124 83236 32998 11803 10228 20141 39702 40199 80003 333 20158 58017;EQDQ01  00002PRCP06
0167832360999992004081118004-12150-045000FM-12+044099999V0201801N002612200019N0200001N1+03021+01171101401ADDAA106000091GF102991011011012501001031MA1999999096461MD1999999+0051REMSYN070AAXX  11184 83236 32698 21805 10302 20117 39646 40140 81103 333 58005;EQDQ01  00002PRCP06
0208832360999992004081200004-12150-045000FM-12+043999999V0201801N001512200019N0200001N1+02201+01081101661ADDAA106000091GA1001+999999999GF100991001001999999001001KA1240M+03101MA1999999096701MD1999999-0011REMSYN082AAXX  12004 83236 32998 01803 10220 20108 39670 40166 333 10310 29047 55/// 59001;EQDQ01  00002PRCP06
0186832360999992004081212004-12150-045000FM-12+043999999V0209999C000019999999N0200001N1+02281+01151102011ADDAA106000091GF105991001001999999001071KA1240N+01311MA1999999097041MD1999999+0021REMSYN076AAXX  12124 83236 32998 50000 10228 20115 39704 40201 80007 333 20131 58002;EQDQ01  00002PRCP06
0167832360999992004081218004-12150-045000FM-12+043999999V0201401N001510450019N0200001N1+03061+00891101481ADDAA106000091GF106991031011008001041071MA1999999096541MD1999999+0081REMSYN070AAXX  12184 83236 32598 61403 10306 20089 39654 40148 83147 333 58008;EQDQ01  00002PRCP06
0198832360999992004081300004-12150-045000FM-12+043999999V0209999C000012200019N0200001N1+02121+00981101731ADDAA106000091GF103991001001999999001071KA1240M+03161MA1999999096761MD1999999+0061REMSYN088AAXX  13004 83236 32998 30000 10212 20098 39676 40173 80007 333 10316 29043 55/// 58006;EQDQ01  00002PRCP06
0167832360999992004081318004-12150-045000FM-12+043999999V0201401N005110450019N0200001N1+02891+01061101461ADDAA106000091GF106991031021012501051071MA1999999096541MD1999999+0001REMSYN070AAXX  13184 83236 32698 61410 10289 20106 39654 40146 83257 333 58000;EQDQ01  00002PRCP06
0226832360999992004081400004-12150-045000FM-12+043999999V0201801N002612200019N0100001N1+02321+00731101711ADDAA106000091AY101061AY231061GF104991001001999999001071KA1240M+03001MA1999999096741MD1999999-0021MW1311REMSYN094AAXX  14004 83236 31997 41805 10232 20073 39674 40171 73103 80007 333 10300 29039 55/// 59002;EQDQ01  00002PRCP06
0214832360999992004081412004-12150-045000FM-12+043999999V0202301N003112200019N0100001N1+02161+01131102051ADDAA106000091AY101061AY241061GF103991001001999999001031KA1240N+01491MA1999999097071MD1999999+0051MW1051REMSYN082AAXX  14124 83236 31997 32306 10216 20113 39707 40205 70504 80003 333 20149 58005;EQDQ01  00002PRCP06
0167832360999992004081418004-12150-045000FM-12+043999999V0201401N003612200019N0200001N1+02781+00961101561ADDAA106000091GF104991021001022501071051MA1999999096611MD1999999+0071REMSYN070AAXX  14184 83236 32898 41407 10278 20096 39661 40156 82075 333 58007;EQDQ01  00002PRCP06
0198832360999992004081500004-12150-045000FM-12+043999999V0202701N001512200019N0200001N1+01941+00871101801ADDAA106000091GF103991001001999999001071KA1240M+02811MA1999999096801MD1999999+0061REMSYN088AAXX  15004 83236 32998 32703 10194 20087 39680 40180 80007 333 10281 29046 55/// 58006;EQDQ01  00002PRCP06
0196832360999992004081512004-12150-045000FM-12+043999999V0209999C000012200019N0200001N1+02171+01031101991ADDAA106000091GA1001+999999999GF100991001001999999001001KA1240N+01341MA1999999096981MD1999999-0091REMSYN070AAXX  15124 83236 32998 00000 10217 20103 39698 40199 333 20134 59009;EQDQ01  00002PRCP06
0177832360999992004081518004-12150-045000FM-12+043999999V0200901N001512200019N0200001N1+03081+01171101431ADDAA106000091GA1001+999999999GF100991001001999999001001MA1999999096481MD1999999-0131REMSYN064AAXX  15184 83236 32998 00903 10308 20117 39648 40143 333 59013;EQDQ01  00002PRCP06
0208832360999992004081600004-12150-045000FM-12+043999999V0202701N001512200019N0200001N1+02031+01091101701ADDAA106000091GA1001+999999999GF100991001001999999001001KA1240M+03141MA1999999096711MD1999999-0091REMSYN082AAXX  16004 83236 32998 02703 10203 20109 39671 40170 333 10314 29017 55/// 59009;EQDQ01  00002PRCP06
0196832360999992004081612004-12150-045000FM-12+043999999V0201801N001012200019N0200001N1+02301+01231101851ADDAA106000091GA1001+999999999GF100991001001999999001001KA1240N+01361MA1999999096861MD1999999-0121REMSYN070AAXX  16124 83236 32998 01802 10230 20123 39686 40185 333 20136 59012;EQDQ01  00002PRCP06
0177832360999992004081618004-12150-045000FM-12+043999999V0201801N001512200019N0200001N1+03191+01101101221ADDAA106000091GA1001+999999999GF100991001001999999001001MA1999999096341MD1999999-0141REMSYN064AAXX  16184 83236 32998 01803 10319 20110 39634 40122 333 59014;EQDQ01  00002PRCP06
0198832360999992004081700004-12150-045000FM-12+043999999V0202701N001012200019N0200001N1+02041+01311101521ADDAA106000091GF102991001001999999001051KA1240M+03321MA1999999096561MD1999999-0151REMSYN088AAXX  17004 83236 32998 22702 10204 20131 39656 40152 80005 333 10332 29051 55/// 59015;EQDQ01  00002PRCP06
0196832360999992004081712004-12150-045000FM-12+043999999V0201801N003612200019N0200001N1+02331+01221101771ADDAA106000091GA1001+999999999GF100991001001999999001001KA1240N+01421MA1999999096801MD1999999-0061REMSYN070AAXX  17124 83236 32998 01807 10233 20122 39680 40177 333 20142 59006;EQDQ01  00002PRCP06
0176832360999992004081718004-12150-045000FM-12+043999999V0202701N001512200019N0200001N1+03251+01361101141ADDAA106000091GA1001+999999999GF100991001001999999001001MA1999999096251MD1999999-0091REMSYN063AAXX  17184 83236 32998 02703 10325 20136 39625 40114333 59009;EQDQ01  00002PRCP06
0208832360999992004081800004-12150-045000FM-12+043999999V0209999C000012200019N0200001N1+02101+01371101471ADDAA106000091GA1001+999999999GF100991001001999999001001KA1240M+03421MA1999999096511MD1999999-0051REMSYN082AAXX  18004 83236 32998 00000 10210 20137 39651 40147 333 10342 29052 55/// 59005;EQDQ01  00002PRCP06
0186832360999992004081812004-12150-045000FM-12+043999999V0202301N001012200019N0200001N1+02411+01521101711ADDAA106000091GF102991021011012501001001KA1240N+01451MA1999999096751MD1999999-0051REMSYN076AAXX  18124 83236 32698 22302 10241 20152 39675 40171 82100 333 20145 59005;EQDQ01  00002PRCP06
0167832360999992004081818004-12150-045000FM-12+043999999V0202301N001512200019N0200001N1+03351+01131101161ADDAA106000091GF103991031021008001001001MA1999999096271MD1999999+0021REMSYN070AAXX  18184 83236 32598 32303 10335 20113 39627 40116 83200 333 58002;EQDQ01  00002PRCP06
0208832360999992004081900004-12150-045000FM-12+043999999V0209999C000012200019N0200001N1+02171+01451101491ADDAA106000091GA1001+999999999GF100991001001999999001001KA1240M+03531MA1999999096551MD1999999+0041REMSYN082AAXX  19004 83236 32998 00000 10217 20145 39655 40149 333 10353 29053 55/// 58004;EQDQ01  00002PRCP06
0196832360999992004081912004-12150-045000FM-12+043999999V0209999C000012200019N0200001N1+02391+01441101861ADDAA106000091GA1001+999999999GF100991001001999999001001KA1240N+01521MA1999999096901MD1999999+0151REMSYN070AAXX  19124 83236 32998 00000 10239 20144 39690 40186 333 20152 58015;EQDQ01  00002PRCP06
0167832360999992004081918004-12150-045000FM-12+043999999V0200901N001512200019N0200001N1+03421+00941101211ADDAA106000091GF103991031021008001001001MA1999999096341MD1999999+0071REMSYN070AAXX  19184 83236 32598 30903 10342 20094 39634 40121 83200 333 58007;EQDQ01  00002PRCP06
0198832360999992004082000004-12150-045000FM-12+043999999V0209999C000012200019N0200001N1+02231+01431101501ADDAA106000091GF102991021011012501001001KA1240M+03591MA1999999096561MD1999999+0011REMSYN088AAXX  20004 83236 32698 20000 10223 20143 39656 40150 82100 333 10359 29050 55/// 58001;EQDQ01  00002PRCP06
0196832360999992004082012004-12150-045000FM-12+043999999V0200501N001012200019N0200001N1+02491+01271101671ADDAA106000091GA1001+999999999GF100991001001999999001001KA1240N+01591MA1999999096761MD1999999-0161REMSYN070AAXX  20124 83236 32998 00502 10249 20127 39676 40167 333 20159 59016;EQDQ01  00002PRCP06
0167832360999992004082018004-12150-045000FM-12+043999999V0201801N001512200019N0200001N1+03451+01271101091ADDAA106000091GF104991041021008001001001MA1999999096231MD1999999-0111REMSYN070AAXX  20184 83236 32598 41803 10345 20127 39623 40109 84200 333 59011;EQDQ01  00002PRCP06
0208832360999992004082100004-12150-045000FM-12+043999999V0202301N001512200019N0200001N1+02311+01461101351ADDAA106000091GA1001+999999999GF100991001001999999001001KA1240M+03531MA1999999096441MD1999999-0121REMSYN082AAXX  21004 83236 32998 02303 10231 20146 39644 40135 333 10353 29048 55/// 59012;EQDQ01  00002PRCP06
0196832360999992004082112004-12150-045000FM-12+043999999V0209999C000012200019N0200001N1+02571+01411101631ADDAA106000091GA1001+999999999GF100991001001999999001001KA1240N+01641MA1999999096721MD1999999-0021REMSYN070AAXX  21124 83236 32998 00000 10257 20141 39672 40163 333 20164 59002;EQDQ01  00002PRCP06
0167832360999992004082118004-12150-045000FM-12+043999999V0201801N001512200019N0200001N1+03471+01111101011ADDAA106000091GF103991031011012501001001MA1999999096171MD1999999-0061REMSYN070AAXX  21184 83236 32698 31803 10347 20111 39617 40101 83100 333 59006;EQDQ01  00002PRCP06
0208832360999992004082200004-12150-045000FM-12+043999999V0202701N001512200019N0200001N1+02391+01291101261ADDAA106000091GA1001+999999999GF100991001001999999001001KA1240M+03561MA1999999096371MD1999999-0071REMSYN082AAXX  22004 83236 32998 02703 10239 20129 39637 40126 333 10356 29043 55/// 59007;EQDQ01  00002PRCP06
0196832360999992004082212004-12150-045000FM-12+043999999V0209999C000012200019N0200001N1+02571+01281101571ADDAA106000091GA1001+999999999GF100991001001999999001001KA1240N+01551MA1999999096671MD1999999-0051REMSYN070AAXX  22124 83236 32998 00000 10257 20128 39667 40157 333 20155 59005;EQDQ01  00002PRCP06
0167832360999992004082218004-12150-045000FM-12+043999999V0202301N001512200019N0200001N1+03391+01451100891ADDAA106000091GF102991021011012501001031MA1999999096071MD1999999-0101REMSYN070AAXX  22184 83236 32698 22303 10339 20145 39607 40089 82103 333 59010;EQDQ01  00002PRCP06
0198832360999992004082300004-12150-045000FM-12+043999999V0209999C000012200019N0200001N1+02251+01291101211ADDAA106000091GF102991021011012501001001KA1240M+03511MA1999999096311MD1999999-0061REMSYN088AAXX  23004 83236 32698 20000 10225 20129 39631 40121 82100 333 10351 29046 55/// 59006;EQDQ01  00002PRCP06
0186832360999992004082312004-12150-045000FM-12+043999999V0200501N001512200019N0200001N1+02491+01371101551ADDAA106000091GF104991001001999999001031KA1240N+01501MA1999999096621MD1999999-0051REMSYN076AAXX  23124 83236 32998 40503 10249 20137 39662 40155 80003 333 20150 59005;EQDQ01  00002PRCP06
0168832360999992004082318004-12150-045000FM-12+043999999V0201801N001512200019N0200001N1+03381+01101101091ADDAA106000091GF104991031011008001001031MD1999999+0141REMSYN070AAXX  23184 83236 32598 41803 10338 20110 33921 40109 83103 333 58014;EQDQ01+039211APOSP Q02  00002PRCP06
0198832360999992004082400004-12150-045000FM-12+043999999V0201801N001512200019N0200001N1+02311+01431101281ADDAA106000091GF102991001001999999001031KA1240M+03631MA1999999096371MD1999999+0061REMSYN088AAXX  24004 83236 32998 21803 10231 20143 39637 40128 80003 333 10363 29048 55/// 58006;EQDQ01  00002PRCP06
0224832360999992004082412004-12150-045000FM-12+043999999V0200501N001012200019N0200001N1+02521+01281101481ADDAA106000091AY101061AY241061GA1001+999999999GF100991001001999999001001KA1240N+01561MA1999999096561MD1999999+0041MW1051REMSYN076AAXX  24124 83236 31998 00502 10252 20128 39656 40148 70504 333 20156 58004;EQDQ01  00002PRCP06
0167832360999992004082418004-12150-045000FM-12+043999999V0201801N003112200019N0200001N1+03561+01131100801ADDAA106000091GF103991031021008001001001MA1999999095961MD1999999-0251REMSYN070AAXX  24184 83236 32598 31806 10356 20113 39596 40080 83200 333 59025;EQDQ01  00002PRCP06
0186832360999992004082512004-12150-045000FM-12+043999999V0201801N001012200019N0200001N1+02711+01111101391ADDAA106000091GF104991031021012501001051KA1240N+01821MA1999999096511MD1999999-0051REMSYN076AAXX  25124 83236 32698 41802 10271 20111 39651 40139 83205 333 20182 59005;EQDQ01  00002PRCP06
0167832360999992004082518004-12150-045000FM-12+044099999V0201801N002612200019N0200001N1+03591+00711100781ADDAA106000091GF102991021011012501001001MA1999999095951MD1999999-0011REMSYN070AAXX  25184 83236 32698 21805 10359 20071 39595 40078 82100 333 59001;EQDQ01  00002PRCP06
0208832360999992004082600004-12150-045000FM-12+044099999V0202301N002112200019N0200001N1+02331+01311101141ADDAA106000091GA1001+999999999GF100991001001999999001001KA1240M+03651MA1999999096261MD1999999+0071REMSYN082AAXX  26004 83236 32998 02304 10233 20131 39626 40114 333 10365 29035 55/// 58007;EQDQ01  00002PRCP06
0224832360999992004082612004-12150-045000FM-12+044099999V0209999C000012200019N0100001N1+02561+01021101491ADDAA106000091AY101061AY241061GA1001+999999999GF100991001001999999001001KA1240N+00071MA1999999096581MD1999999+0071MW1051REMSYN076AAXX  26124 83236 31997 00000 10256 20102 39658 40149 70504 333 20007 58007;EQDQ01  00002PRCP06
0195832360999992004082618004-12150-045000FM-12+044099999V0201401N004111050019N0100001N1+03501+00871100841ADDAA106000091AY101061AY241061GF105991031011012501001071MA1999999096001MD1999999+0051MW1051REMSYN076AAXX  26184 83236 31697 51408 10350 20087 39600 40084 70504 83107 333 58005;EQDQ01  00002PRCP06
0226832360999992004082700004-12150-045000FM-12+044099999V0209999C000012200019N0100001N1+02311+01171101121ADDAA106000091AY101061AY241061GF102991001001999999001051KA1240M+03551MA1999999096231MD1999999-0031MW1051REMSYN094AAXX  27004 83236 31997 20000 10231 20117 39623 40112 70504 80005 333 10355 29039 55/// 59003;EQDQ01  00002PRCP06
0214832360999992004082712004-12150-045000FM-12+044099999V0209999C000012200019N0100001N1+02431+01081101351ADDAA106000091AY101061AY241061GF102991001001999999001051KA1240N+01421MA1999999096431MD1999999-0151MW1051REMSYN082AAXX  27124 83236 31997 20000 10243 20108 39643 40135 70504 80005 333 20142 59015;EQDQ01  00002PRCP06
0236832360999992004082800004-12150-045000FM-12+044099999V0202301N001012200019N0100001N1+02171+01191101181ADDAA106000091AY101061AY241061GA1001+999999999GF100991001001999999001001KA1240M+03571MA1999999096261MD1999999+0031MW1051REMSYN088AAXX  28004 83236 31997 02302 10217 20119 39626 40118 70504 333 10357 29043 55/// 58003;EQDQ01  00002PRCP06
0224832360999992004082812004-12150-045000FM-12+044099999V0202301N001012200019N0100001N1+02401+01071101591ADDAA106000091AY101061AY241061GA1001+999999999GF100991001001999999001001KA1240N+01401MA1999999096551MD1999999+0121MW1051REMSYN076AAXX  28124 83236 31997 02302 10240 20107 39655 40159 70504 333 20140 58012;EQDQ01  00002PRCP06
0211832360999992004082818004-12150-045000FM-12+043999999V0200501N001512200019N0100001N1+03621+00641100752ADDAA106000091AY101061AY241061GF102991011011012501001051MA1999999095901MD1999999-0071MW1051REMSYN076AAXX  28184 83236 31697 20503 10362 20064 39590 40075 70504 81105 333 59007;EQDQ01+100753APOSLPQ02  00002PRCP06
0236832360999992004082900004-12150-045000FM-12+043999999V0201801N001512200019N0100001N1+02291+01031100991ADDAA106000091AY101061AY241061GA1001+999999999GF100991001001999999001001KA1240M+03691MA1999999096091MD1999999-0171MW1051REMSYN088AAXX  29004 83236 31997 01803 10229 20103 39609 40099 70504 333 10369 29037 55/// 59017;EQDQ01  00002PRCP06
0224832360999992004082912004-12150-045000FM-12+043999999V0209999C000012200019N0100001N1+02431+01121101211ADDAA106000091AY101061AY241061GA1001+999999999GF100991001001999999001001KA1240N+01361MA1999999096301MD1999999-0251MW1051REMSYN076AAXX  29124 83236 31997 00000 10243 20112 39630 40121 70504 333 20136 59025;EQDQ01  00002PRCP06
0195832360999992004082918004-12150-045000FM-12+043999999V0209999C000012200019N0100001N1+03831+00511100581ADDAA106000091AY101061AY241061GF103991001001999999001041MA1999999095771MD1999999-0131MW1051REMSYN076AAXX  29184 83236 31997 30000 10383 20051 39577 40058 70504 80004 333 59013;EQDQ01  00002PRCP06
0198832360999992004083000004-12150-045000FM-12+043999999V0201801N000512200019N0040001N1+02311+01261100971ADDAA106000091GF103991031001022501031001KA1240M+03871MA1999999096071MD1999999-0021REMSYN088AAXX  30004 83236 32896 31801 10231 20126 39607 40097 83030 333 10387 29040 55/// 59002;EQDQ01  00002PRCP06
0224832360999992004083012004-12150-045000FM-12+044099999V0209999C000012200019N0100001N1+02751+01161101131ADDAA106000091AY101061AY241061GA1001+999999999GF100991001001999999001001KA1240N+01951MA1999999096251MD1999999-0041MW1051REMSYN076AAXX  30124 83236 31997 00000 10275 20116 39625 40113 70504 333 20195 59004;EQDQ01  00002PRCP06
0195832360999992004083018004-12150-045000FM-12+044099999V0200901N001511050019N0100001N1+03741+00441100571ADDAA106000091AY101061AY241061GF105991031021008001001071MA1999999095801MD1999999+0031MW1051REMSYN076AAXX  30184 83236 31597 50903 10374 20044 39580 40057 70504 83207 333 58003;EQDQ01  00002PRCP06
0226832360999992004083100004-12150-045000FM-12+044099999V0209999C000012200019N0040001N1+02431+01481100891ADDAA106000091AY101061AY241061GF104991001001999999001071KA1240M+03851MA1999999096041MD1999999-0031MW1041REMSYN094AAXX  31004 83236 31996 40000 10243 20148 39604 40089 70404 80007 333 10385 29040 55/// 59003;EQDQ01  00002PRCP06
0214832360999992004083112004-12150-045000FM-12+044099999V0200501N001519999999N0100001N1+02821+01551101361ADDAA106000091AY101061AY241061GF105991001001999999001051KA1240N+01891MA1999999096491MD1999999+0231MW1051REMSYN082AAXX  31124 83236 31997 50503 10282 20155 39649 40136 70504 80005 333 20189 58023;EQDQ01  00002PRCP06
0171832360999992004083118004-12150-045000FM-12+044099999V0200901N004610120019N0100001N1+02921+01901101121ADDAY101061AY261061GF107991071081008001001001MA1999999096241MD1999999+0441MW1151REMSYN082AAXX  31184 83236 21597 70909 10292 20190 39624 40112 71506 87800 333 58044 60011;
0202832360999992004090100004-12150-045000FM-12+044099999V0200501N005110075019N0040001N1+02211+01861101361ADDAY151061AY251061GF108991081071008001999999KA1240M+03621MA1999999096471MD1999999+0431MW1171REMSYN100AAXX  01004 83236 21596 80510 10221 20186 39647 40136 71755 887// 333 10362 29066 55/// 58043 69951;
0190832360999992004090112004-12150-045000FM-12+044099999V0200901N002610450019N0100001N1+02501+01641101751ADDAY161061AY261061GF106991011011008001031091KA1240N+01911MA1999999096811MD1999999+0321MW1021REMSYN088AAXX  01124 83236 21597 60905 10250 20164 39681 40175 70266 81139 333 20191 58032 60034;
0167832360999992004090118004-12150-045000FM-12+044099999V0200901N003612200019N0100001N1+03221+00711101171ADDAA106000091GF106991021011008001001061MA1999999096311MD1999999+0071REMSYN070AAXX  01184 83236 32597 60907 10322 20071 39631 40117 82106 333 58007;EQDQ01  00002PRCP06
0198832360999992004090200004-12150-045000FM-12+044099999V0200901N004610210019N0100001N1+02851+01011101341ADDAA106000091GF107991071001022501051001KA1240M+03301MA1999999096481MD1999999+0011REMSYN088AAXX  02004 83236 32897 70909 10285 20101 39648 40134 87050 333 10330 29036 55/// 58001;EQDQ01  00002PRCP06
0186832360999992004090212004-12150-045000FM-12+044099999V0203601N001012200019N0200001N1+02461+01381101681ADDAA106000091GF101991011011008001001001KA1240N+01741MA1999999096801MD1999999-0011REMSYN076AAXX  02124 83236 32598 13602 10246 20138 39680 40168 81100 333 20174 59001;EQDQ01  00002PRCP06
0177832360999992004090218004-12150-045000FM-12+044099999V0200901N001512200019N0200001N1+03281+00831101181ADDAA106000091GA1001+999999999GF100991001001999999001001MA1999999096321MD1999999+0011REMSYN064AAXX  02184 83236 32998 00903 10328 20083 39632 40118 333 58001;EQDQ01  00002PRCP06
0208832360999992004090300004-12150-045000FM-12+044099999V0200901N006712200019N0100001N1+02811+00781101381ADDAA106000091GA1001+999999999GF100991001001999999001001KA1240M+03341MA1999999096521MD1999999+0041REMSYN082AAXX  03004 83236 32997 00913 10281 20078 39652 40138 333 10334 29032 55/// 58004;EQDQ01  00002PRCP06
0196832360999992004090312004-12150-045000FM-12+044099999V0201801N001512200019N0200001N1+02391+01171101721ADDAA106000091GA1001+999999999GF100991001001999999001001KA1240N+01571MA1999999096831MD1999999+0031REMSYN070AAXX  03124 83236 32998 01803 10239 20117 39683 40172 333 20157 58003;EQDQ01  00002PRCP06
0177832360999992004090318004-12150-045000FM-12+044099999V0200501N003112200019N0200001N1+03211+00781101181ADDAA106000091GA1001+999999999GF100991001001999999001001MA1999999096321MD1999999+0001REMSYN064AAXX  03184 83236 32998 00506 10321 20078 39632 40118 333 58000;EQDQ01  00002PRCP06
0208832360999992004090400004-12150-045000FM-12+044099999V0201801N001012200019N0100001N1+02261+00921101371ADDAA106000091GA1001+999999999GF100991001001999999001001KA1240M+03311MA1999999096441MD1999999-0021REMSYN082AAXX  04004 83236 32997 01802 10226 20092 39644 40137 333 10331 29038 55/// 59002;EQDQ01  00002PRCP06
0224832360999992004090412004-12150-045000FM-12+044099999V0209999C000012200019N0100001N1+02311+00901101671ADDAA106000091AY101061AY241061GA1001+999999999GF100991001001999999001001KA1240N+01261MA1999999096721MD1999999-0111MW1051REMSYN076AAXX  04124 83236 31997 00000 10231 20090 39672 40167 70504 333 20126 59011;EQDQ01  00002PRCP06
0205832360999992004090418004-12150-045000FM-12+044099999V0200901N005112200019N0100001N1+03491+00251100901ADDAA106000091AY101061AY241061GA1001+999999999GF100991001001999999001001MA1999999096041MD1999999-0281MW1051REMSYN070AAXX  04184 83236 31997 00910 10349 20025 39604 40090 70504 333 59028;EQDQ01  00002PRCP06
0208832360999992004090500004-12150-045000FM-12+044099999V0202701N000512200019N0100001N1+02321+00561101171ADDAA106000091GA1001+999999999GF100991001001999999001001KA1240M+03551MA1999999096251MD1999999-0191REMSYN082AAXX  05004 83236 32997 02701 10232 20056 39625 40117 333 10355 29030 55/// 59019;EQDQ01  00002PRCP06
0224832360999992004090512004-12150-045000FM-12+044099999V0209999C000012200019N0500001N1+02351+00751101411ADDAA106000091AY101061AY241061GA1001+999999999GF100991001001999999001001KA1240N+01181MA1999999096491MD1999999-0131MW1051REMSYN076AAXX  05124 83236 31999 00000 10235 20075 39649 40141 70504 333 20118 59013;EQDQ01  00002PRCP06
0205832360999992004090518004-12150-045000FM-12+044099999V0200901N004112200019N0100001N1+03531+00051100841ADDAA106000091AY101061AY241061GA1001+999999999GF100991001001999999001001MA1999999095941MD1999999-0101MW1041REMSYN070AAXX  05184 83236 31997 00908 10353 20005 39594 40084 70404 333 59010;EQDQ01  00002PRCP06
0208832360999992004090600004-12150-045000FM-12+044099999V0202701N001012200019N0040001N1+02261+00761101151ADDAA106000091GA1001+999999999GF100991001001999999001001KA1240M+03591MA1999999096231MD1999999-0021REMSYN082AAXX  06004 83236 32996 02702 10226 20076 39623 40115 333 10359 29031 55/// 59002;EQDQ01  00002PRCP06
0224832360999992004090612004-12150-045000FM-12+044099999V0201401N001012200019N0100001N1+02501+01121101361ADDAA106000091AY101061AY241061GA1001+999999999GF100991001001999999001001KA1240N+01551MA1999999096451MD1999999-0041MW1051REMSYN076AAXX  06124 83236 31997 01402 10250 20112 39645 40136 70504 333 20155 59004;EQDQ01  00002PRCP06
0195832360999992004090618004-12150-045000FM-12+044099999V0201401N003112200019N0100001N1+03471+00341100641ADDAA106000091AY101061AY241061GF102991001001999999001021MA1999999095821MD1999999-0121MW1041REMSYN076AAXX  06184 83236 31997 21406 10347 20034 39582 40064 70404 80002 333 59012;EQDQ01  00002PRCP06
0230832360999992004090712004-12150-045000FM-12+044099999V0200501N000512200019N0100001N1+02591+01021101261ADDAA106000091AY101061AY241061GF103991001001999999001081KA1240N+01391MA1999999096341MD1999999-0111MW1051REMSYN082AAXX  07124 83236 31597 30501 10259 20102 39634 40126 70504 80008 333 20139 59011;EQDQ01+008002SCOLCBQ02  00002PRCP06
0211832360999992004090718004-12150-045000FM-12+044099999V0203601N001519999999N0100001N1+03461+00841100671ADDAA106000091AY101061AY241061GF106991001001999999001061MA1999999095831MD1999999+0011MW1051REMSYN076AAXX  07184 83236 31597 63603 10346 20084 39583 40067 70504 80006 333 58001;EQDQ01+008002SCOLCBQ02  00002PRCP06
0236832360999992004090800004-12150-045000FM-12+044099999V0209999C000012200019N0100001N1+02271+01121100951ADDAA106000091AY101061AY241061GA1001+999999999GF100991001001999999001001KA1240M+03531MA1999999096071MD1999999+0041MW1051REMSYN088AAXX  08004 83236 31997 00000 10227 20112 39607 40095 70504 333 10353 29038 55/// 58004;EQDQ01  00002PRCP06
0214832360999992004090812004-12150-045000FM-12+044099999V0203601N000512200019N0100001N1+02631+01151101271ADDAA106000091AY101061AY241061GF102991001001999999001011KA1240N+01691MA1999999096371MD1999999+0031MW1051REMSYN082AAXX  08124 83236 31997 23601 10263 20115 39637 40127 70504 80001 333 20169 58003;EQDQ01  00002PRCP06
0205832360999992004090818004-12150-045000FM-12+044099999V0201801N003612200019N0100001N1+03371+00841100621ADDAA106000091AY101061AY241061GA1001+999999999GF100991001001999999001001MA1999999095811MD1999999+0021MW1041REMSYN070AAXX  08184 83236 31997 01807 10337 20084 39581 40062 70404 333 58002;EQDQ01  00002PRCP06
0216832360999992004090900004-12150-045000FM-12+044099999V0201801N001512200019N0040001N1+02561+00471100961ADDAA106000091AY101061AY241061GA1001+999999999GF100991001001999999001001KA1240M+03491MA1999999096111MW1041REMSYN082AAXX  09004 83236 31996 01803 10256 20047 39611 40096 70404 333 10349 29028 55///;EQDQ01  00002PRCP06
0224832360999992004090912004-12150-045000FM-12+044099999V0203601N000512200019N0100001N1+02471+01141101381ADDAA106000091AY101061AY241061GA1001+999999999GF100991001001999999001001KA1240N+01461MA1999999096491MD1999999+0121MW1011REMSYN076AAXX  09124 83236 31997 03601 10247 20114 39649 40138 70104 333 20146 58012;EQDQ01  00002PRCP06
0205832360999992004090918004-12150-045000FM-12+044099999V0203201N001012200019N0100001N1+03371+00841100761ADDAA106000091AY101061AY241061GA1001+999999999GF100991001001999999001001MA1999999095921MD1999999+0111MW1041REMSYN070AAXX  09184 83236 31997 03202 10337 20084 39592 40076 70404 333 58011;EQDQ01  00002PRCP06
0236832360999992004091000004-12150-045000FM-12+044099999V0202301N001512200019N0040001N1+02601+00761101081ADDAA106000091AY101061AY241061GA1001+999999999GF100991001001999999001001KA1240M+03451MA1999999096211MD1999999+0101MW1041REMSYN088AAXX  10004 83236 31996 02303 10260 20076 39621 40108 70404 333 10345 29032 55/// 58010;EQDQ01  00002PRCP06
0224832360999992004091012004-12150-045000FM-12+044099999V0203601N001512200019N0100001N1+02591+02031101471ADDAA106000091AY101061AY241061GA1001+999999999GF100991001001999999001001KA1240N+01501MA1999999096531MD1999999+0041MW1051REMSYN076AAXX  10124 83236 31997 03603 10259 20203 39653 40147 70504 333 20150 58004;EQDQ01  00002PRCP06
0195832360999992004091018004-12150-045000FM-12+044099999V0202301N002112200019N0100001N1+03431+00891100711ADDAA106000091AY101061AY241061GF104991011011008001001041MA1999999095871MD1999999-0051MW1051REMSYN076AAXX  10184 83236 31597 42304 10343 20089 39587 40071 70504 81104 333 59005;EQDQ01  00002PRCP06
0226832360999992004091100004-12150-045000FM-12+044099999V0209999C000012200019N0100001N1+02591+01101100991ADDAA106000091AY101061AY241061GF103991001001999999001041KA1240M+03541MA1999999096141MD1999999-0071MW1051REMSYN094AAXX  11004 83236 31997 30000 10259 20110 39614 40099 70504 80004 333 10354 29035 55/// 59007;EQDQ01  00002PRCP06
0214832360999992004091112004-12150-045000FM-12+044099999V0200901N001012200019N0100001N1+02611+01251101341ADDAA106000091AY101061AY241061GF103991001001999999001081KA1240N+01561MA1999999096471MD1999999-0061MW1051REMSYN082AAXX  11124 83236 31997 30902 10261 20125 39647 40134 70504 80008 333 20156 59006;EQDQ01  00002PRCP06
0195832360999992004091118004-12150-045000FM-12+044099999V0202701N001511050019N0100001N1+03471+01061100761ADDAA106000091AY101061AY241061GF107991041021008001001051MA1999999095931MD1999999+0061MW1051REMSYN076AAXX  11184 83236 31597 72703 10347 20106 39593 40076 70504 84205 333 58006;EQDQ01  00002PRCP06
0226832360999992004091200004-12150-045000FM-12+044099999V0202701N001512200019N0100001N1+02491+01261101131ADDAA106000091AY101061AY241061GF103991001001999999001041KA1240M+03551MA1999999096261MD1999999+0121MW1051REMSYN094AAXX  12004 83236 31997 32703 10249 20126 39626 40113 70504 80004 333 10355 29040 55/// 58012;EQDQ01  00002PRCP06
0214832360999992004091212004-12150-045000FM-12+043999999V0209999C000019999999N0100001N1+02731+01301101481ADDAA106000091AY101061AY241061GF107991001001999999001061KA1240N+01771MA1999999096601MD1999999+0131MW1051REMSYN082AAXX  12124 83236 31997 70000 10273 20130 39660 40148 70504 80006 333 20177 58013;EQDQ01  00002PRCP06
0195832360999992004091218004-12150-045000FM-12+044099999V0201401N002611050019N0100001N1+03391+00991100911ADDAA106000091AY101061AY241061GF107991031021008001001061MA1999999096071MD1999999+0141MW1051REMSYN076AAXX  12184 83236 31597 71405 10339 20099 39607 40091 70504 83206 333 58014;EQDQ01  00002PRCP06
0226832360999992004091300004-12150-045000FM-12+044099999V0202301N001012200019N0100001N1+02511+01241101341ADDAA106000091AY101061AY241061GF104991021021008001001041KA1240M+03551MA1999999096471MD1999999+0211MW1051REMSYN094AAXX  13004 83236 31597 42302 10251 20124 39647 40134 70504 82204 333 10355 29038 55/// 58021;EQDQ01  00002PRCP06
0186832360999992004091312004-12150-045000FM-12+044099999V0200901N004112200019N0200001N1+02701+01231101671ADDAA106000091GF103991001001999999001071KA1240N+02101MA1999999096781MD1999999+0181REMSYN076AAXX  13124 83236 32998 30908 10270 20123 39678 40167 80007 333 20210 58018;EQDQ01  00002PRCP06
0167832360999992004091318004-12150-045000FM-12+044099999V0201401N003112200019N0200001N1+03391+01221100991ADDAA106000091GF103991021011012501001051MA1999999096181MD1999999+0111REMSYN070AAXX  13184 83236 32698 31406 10339 20122 39618 40099 82105 333 58011;EQDQ01  00002PRCP06
0226832360999992004091400004-12150-045000FM-12+044099999V0202301N001512200019N0100001N1+02611+01171101261ADDAA106000091AY101061AY241061GF102991001001999999001051KA1240M+03481MA1999999096401MD1999999-0071MW1051REMSYN094AAXX  14004 83236 31997 22303 10261 20117 39640 40126 70504 80005 333 10348 29037 55/// 59007;EQDQ01  00002PRCP06
0186832360999992004091412004-12150-045000FM-12+044099999V0200501N003612200019N0200001N1+02611+01451101671ADDAA106000091GF103991001001999999001051KA1240N+01641MA1999999096781MD1999999+0001REMSYN076AAXX  14124 83236 32998 30507 10261 20145 39678 40167 80005 333 20164 58000;EQDQ01  00002PRCP06
0167832360999992004091418004-12150-045000FM-12+044099999V0201801N003610450019N0200001N1+02341+01041101161ADDAA106000091GF106991041021008001071051MA1999999096281MD1999999+0101REMSYN070AAXX  14184 83236 32598 61807 10234 20104 39628 40116 84275 333 58010;EQDQ01  00002PRCP06
0198832360999992004091500004-12150-045000FM-12+044099999V0201401N002612200019N0200001N1+02511+01221101371ADDAA106000091GF102991001001999999001051KA1240M+03561MA1999999096491MD1999999+0091REMSYN088AAXX  15004 83236 32998 21405 10251 20122 39649 40137 80005 333 10356 29041 55/// 58009;EQDQ01  00002PRCP06
0186832360999992004091512004-12150-045000FM-12+044099999V0203601N002110450019N0200001N1+02261+01331101611ADDAA106000091GF105991031011012501051071KA1240N+01741MA1999999096731MD1999999-0051REMSYN076AAXX  15124 83236 32698 53604 10226 20133 39673 40161 83157 333 20174 59005;EQDQ01  00002PRCP06
0195832360999992004091518004-12150-045000FM-12+044099999V0201801N004111050019N0100001N1+03531+01111100951ADDAA106000091AY101061AY241061GF105991021011012501001071MA1999999096131MD1999999-0151MW1051REMSYN076AAXX  15184 83236 31697 51808 10353 20111 39613 40095 70504 82107 333 59015;EQDQ01  00002PRCP06
0226832360999992004091600004-12150-045000FM-12+044099999V0201801N001012200019N0100001N1+02461+01291101181ADDAA106000091AY101061AY241061GF103991001001999999001051KA1240M+03641MA1999999096311MD1999999-0181MW1051REMSYN094AAXX  16004 83236 31997 31802 10246 20129 39631 40118 70504 80005 333 10364 29041 55/// 59018;EQDQ01  00002PRCP06
0186832360999992004091612004-12150-045000FM-12+044099999V0200501N001012200019N0200001N1+02711+01261101321ADDAA106000091GF104991001001999999001051KA1240N+01521MA1999999096451MD1999999-0281REMSYN076AAXX  16124 83236 32998 40502 10271 20126 39645 40132 80005 333 20152 59028;EQDQ01  00002PRCP06
0195832360999992004091618004-12150-045000FM-12+044099999V0200901N003612200019N0100001N1+03641+00661100751ADDAA106000091AY101061AY241061GF103991021011012501001051MA1999999095941MD1999999-0191MW1051REMSYN076AAXX  16184 83236 31697 30907 10364 20066 39594 40075 70504 82105 333 59019;EQDQ01  00002PRCP06
0236832360999992004091700004-12150-045000FM-12+044099999V0202301N001012200019N0100001N1+02501+01161101061ADDAA106000091AY101061AY241061GA1001+999999999GF100991001001999999001001KA1240M+03741MA1999999096201MD1999999-0111MW1051REMSYN088AAXX  17004 83236 31997 02302 10250 20116 39620 40106 70504 333 10374 29036 55/// 59011;EQDQ01  00002PRCP06
0214832360999992004091712004-12150-045000FM-12+044099999V0200501N002112200019N0100001N1+02801+01151101361ADDAA106000091AY101061AY241061GF104991021011012501031071KA1240N+01691MA1999999096501MD1999999+0051MW1051REMSYN082AAXX  17124 83236 31697 40504 10280 20115 39650 40136 70504 82137 333 20169 58005;EQDQ01  00002PRCP06
0195832360999992004091718004-12150-045000FM-12+044099999V0201401N002111050019N0100001N1+03651+00911100861ADDAA106000091AY101061AY241061GF105991031011012501001051MA1999999095991MD1999999+0051MW1051REMSYN076AAXX  17184 83236 31697 51404 10365 20091 39599 40086 70504 83105 333 58005;EQDQ01  00002PRCP06
0226832360999992004091800004-12150-045000FM-12+044099999V0203201N001012200019N0100001N1+02471+01221101091ADDAA106000091AY101061AY241061GF102991001001999999001051KA1240M+03721MA1999999096241MD1999999+0041MW1051REMSYN094AAXX  18004 83236 31997 23202 10247 20122 39624 40109 70504 80005 333 10372 29037 55/// 58004;EQDQ01  00002PRCP06
0195832360999992004091818004-12150-045000FM-12+044099999V0209999C000011050019N0100001N1+03641+00981100831ADDAA106000091AY101061AY241061GF105991041021012501001051MA1999999096001MD1999999+0011MW1051REMSYN076AAXX  18184 83236 31697 50000 10364 20098 39600 40083 70504 84205 333 58001;EQDQ01  00002PRCP06
0226832360999992004091900004-12150-045000FM-12+043999999V0202701N001012200019N0100001N1+02601+01141101071ADDAA106000091AY101061AY241061GF104991021011012501001051KA1240M+03701MA1999999096211MD1999999-0031MW1051REMSYN094AAXX  19004 83236 31697 42702 10260 20114 39621 40107 70504 82105 333 10370 29035 55/// 59003;EQDQ01  00002PRCP06
0214832360999992004091912004-12150-045000FM-12+043999999V0209999C000010450019N0100001N1+02781+01331101441ADDAA106000091AY101061AY241061GF106991031011012501071051KA1240N+01801MA1999999096581MD1999999+0081MW1051REMSYN082AAXX  19124 83236 31697 60000 10278 20133 39658 40144 70504 83175 333 20180 58008;EQDQ01  00002PRCP06
0195832360999992004091918004-12150-045000FM-12+043999999V0200901N003611050019N0100001N1+03491+01121100771ADDAA106000091AY101061AY241061GF106991041021008001001071MA1999999095971MD1999999-0031MW1051REMSYN076AAXX  19184 83236 31597 60907 10349 20112 39597 40077 70504 84207 333 59003;EQDQ01  00002PRCP06
0226832360999992004092000004-12150-045000FM-12+043999999V0202301N002112200019N0100001N1+02671+01191100991ADDAA106000091AY101061AY241061GF102991001001999999001071KA1240M+03621MA1999999096151MD1999999-0061MW1051REMSYN094AAXX  20004 83236 31997 22304 10267 20119 39615 40099 70504 80007 333 10362 29036 55/// 59006;EQDQ01  00002PRCP06
0186832360999992004092012004-12150-045000FM-12+044099999V0201401N001510450019N0200001N1+02571+01281101401ADDAA106000091GF107991041011008001071051KA1240N+01771MA1999999096531MD1999999-0051REMSYN076AAXX  20124 83236 32598 71403 10257 20128 39653 40140 84175 333 20177 59005;EQDQ01  00002PRCP06
0195832360999992004092018004-12150-045000FM-12+044099999V0201801N002610450019N0100001N1+03481+01121100761ADDAA106000091AY101061AY241061GF105991031011008001071061MA1999999095941MD1999999-0031MW1051REMSYN076AAXX  20184 83236 31597 51805 10348 20112 39594 40076 70504 83176 333 59003;EQDQ01  00002PRCP06
0236832360999992004092100004-12150-045000FM-12+044099999V0201801N001012200019N0100001N1+02851+01271101031ADDAA106000091AY101061AY241061GA1001+999999999GF100991001001999999001001KA1240M+03531MA1999999096191MD1999999+0041MW1051REMSYN088AAXX  21004 83236 31997 01802 10285 20127 39619 40103 70504 333 10353 29036 55/// 58004;EQDQ01  00002PRCP06
0195832360999992004092118004-12150-045000FM-12+044099999V0201801N002610075019N0100001N1+03481+01251100821ADDAA106000091AY101061AY241061GF107991051021008001051071MA1999999096001MD1999999+0061MW1051REMSYN076AAXX  21184 83236 31597 71805 10348 20125 39600 40082 70504 85257 333 58006;EQDQ01  00002PRCP06
0210832360999992004092200004-12150-045000FM-12+044099999V0202301N002119999999N0100001N1+02811+01311101151ADDAA106000091AY101061AY241061GF106991999999012501999999KA1240M+03591MA1999999096321MW1051REMSYN092AAXX  22004 83236 31697 62304 10281 20131 39632 40115 70504 845 333 10359 29037 55/// 58013;EQDQ01  00002PRCP06
0224832360999992004092212004-12150-045000FM-12+044099999V0203601N002612200019N0100001N1+02811+01351101581ADDAA106000091AY101061AY241061GA1001+999999999GF100991001001999999001001KA1240N+01901MA1999999096741MD1999999+0221MW1051REMSYN076AAXX  22124 83236 31997 03605 10281 20135 39674 40158 70504 333 20190 58022;EQDQ01  00002PRCP06
0195832360999992004092218004-12150-045000FM-12+044099999V0201401N003110120019N0100001N1+03611+01021100961ADDAA106000091AY101061AY241061GF105991051021012501001001MA1999999096171MD1999999+0171MW1051REMSYN076AAXX  22184 83236 31697 51406 10361 20102 39617 40096 70504 85200 333 58017;EQDQ01  00002PRCP06
0226832360999992004092300004-12150-045000FM-12+044099999V0202701N001012200019N0100001N1+02541+01281101251ADDAA106000091AY101061AY241061GF102991001001999999001051KA1240M+03671MA1999999096391MD1999999+0071MW1051REMSYN094AAXX  23004 83236 31997 22702 10254 20128 39639 40125 70504 80005 333 10367 29039 55/// 58007;EQDQ01  00002PRCP06
0214832360999992004092312004-12150-045000FM-12+044099999V0200501N003112200019N0100001N1+02881+01501101471ADDAA106000091AY101061AY241061GF103991001001999999001071KA1240N+01831MA1999999096611MD1999999-0131MW1051REMSYN082AAXX  23124 83236 31997 30506 10288 20150 39661 40147 70504 80007 333 20183 59013;EQDQ01  00002PRCP06
0195832360999992004092318004-12150-045000FM-12+044099999V0203201N002111050019N0100001N1+03601+01091100811ADDAA106000091AY101061AY241061GF105991031021008001001071MA1999999096011MD1999999-0161MW1051REMSYN076AAXX  23184 83236 31597 53204 10360 20109 39601 40081 70504 83207 333 59016;EQDQ01  00002PRCP06
0226832360999992004092400004-12150-045000FM-12+044099999V0201801N002110075019N0100001N1+03021+01121101011ADDAA106000091AY101061AY241061GF108991061041008001061999KA1240M+03691MA1999999096231MD1999999-0161MW1051REMSYN094AAXX  24004 83236 31597 81804 10302 20112 39623 40101 70504 8646/ 333 10369 29032 55/// 59016;EQDQ01  00002PRCP06
0224832360999992004092412004-12150-045000FM-12+044099999V0200501N003612200019N0100001N1+02811+01351101321ADDAA106000091AY101061AY241061GA1001+999999999GF100991001001999999001001KA1240N+01921MA1999999096511MD1999999-0101MW1051REMSYN076AAXX  24124 83236 31997 00507 10281 20135 39651 40132 70504 333 20192 59010;EQDQ01  00002PRCP06
0195832360999992004092418004-12150-045000FM-12+044099999V0200501N001012200019N0100001N1+03651+01071100791ADDAA106000091AY101061AY241061GF104991041021008001001001MA1999999095921MD1999999-0091MW1051REMSYN076AAXX  24184 83236 31597 40502 10365 20107 39592 40079 70504 84200 333 59009;EQDQ01  00002PRCP06
0236832360999992004092500004-12150-045000FM-12+044099999V0201801N002112200019N0100001N1+02801+00981100991ADDAA106000091AY101061AY241061GA1001+999999999GF100991001001999999001001KA1240M+03751MA1999999096181MD1999999-0051MW1051REMSYN088AAXX  25004 83236 31997 01804 10280 20098 39618 40099 70504 333 10375 29032 55/// 59005;EQDQ01  00002PRCP06
0214832360999992004092512004-12150-045000FM-12+044099999V0200501N002112200019N0100001N1+02881+01311101291ADDAA106000091AY101061AY241061GF103991001001999999001051KA1240N+01801MA1999999096471MD1999999-0041MW1051REMSYN082AAXX  25124 83236 31997 30504 10288 20131 39647 40129 70504 80005 333 20180 59004;EQDQ01  00002PRCP06
0195832360999992004092518004-12150-045000FM-12+044099999V0201401N003112200019N0100001N1+03661+00481100651ADDAA106000091AY101061AY241061GF103991001001999999001071MA1999999095891MD1999999-0031MW1051REMSYN076AAXX  25184 83236 31997 31406 10366 20048 39589 40065 70504 80007 333 59003;EQDQ01  00002PRCP06
0236832360999992004092600004-12150-045000FM-12+044099999V0209999C000012200019N0100001N1+02591+00761100981ADDAA106000091AY101061AY241061GA1001+999999999GF100991001001999999001001KA1240M+03731MA1999999096151MD1999999-0031MW1051REMSYN088AAXX  26004 83236 31997 00000 10259 20076 39615 40098 70504 333 10373 29028 55/// 59003;EQDQ01  00002PRCP06
0214832360999992004092612004-12150-045000FM-12+043999999V0200501N004110450019N0100001N1+02701+01191101471ADDAA106000091AY101061AY241061GF106991041011012501071051KA1240N+01661MA1999999096601MD1999999+0131MW1051REMSYN082AAXX  26124 83236 31697 60508 10270 20119 39660 40147 70504 84175 333 20166 58013;EQDQ01  00002PRCP06
0227832360999992004092618004-12150-045000FM-12+043999999V0200501N002110450019N0100001N1+03451+01151100921ADDAA106000091AY101061AY241061GF105991041021012501071051MA1999999999999MD1999999+0101MW1051REMSYN076AAXX  26184 83236 31697 50504 10345 20115 39508 40092 70504 84275 333 58010;EQDQ01+095083APOSP Q02  00002PRCP06Q03 095083APOSP 
0226832360999992004092700004-12150-045000FM-12+043999999V0209999C000012200019N0100001N1+02661+00901101181ADDAA106000091AY101061AY241061GF104991001001999999001051KA1240M+03521MA1999999096341MD1999999+0201MW1051REMSYN094AAXX  27004 83236 31997 40000 10266 20090 39634 40118 70504 80005 333 10352 29032 55/// 58020;EQDQ01  00002PRCP06
0214832360999992004092712004-12150-045000FM-12+043999999V0209999C000019999999N0100001N1+02661+01301101501ADDAA106000091AY101061AY241061GF105991001001999999001071KA1240N+01661MA1999999096631MD1999999+0031MW1051REMSYN082AAXX  27124 83236 31997 50000 10266 20130 39663 40150 70504 80007 333 20166 58003;EQDQ01  00002PRCP06
0195832360999992004092718004-12150-045000FM-12+044099999V0200901N003612200019N0100001N1+03511+00791100851ADDAA106000091AY101061AY241061GF104991001001999999001071MA1999999096021MD1999999-0061MW1051REMSYN076AAXX  27184 83236 31997 40907 10351 20079 39602 40085 70504 80007 333 59006;EQDQ01  00002PRCP06
0236832360999992004092800004-12150-045000FM-12+044099999V0202301N001012200019N0100001N1+02561+01101101121ADDAA106000091AY101061AY241061GA1001+999999999GF100991001001999999001001KA1240M+03611MA1999999096261MD1999999-0081MW1051REMSYN088AAXX  28004 83236 31997 02302 10256 20110 39626 40112 70504 333 10361 29036 55/// 59008;EQDQ01  00002PRCP06
0224832360999992004092812004-12150-045000FM-12+044099999V0201401N001012200019N0100001N1+02741+01371101291ADDAA106000091AY101061AY241061GA1001+999999999GF100991001001999999001001KA1240N+01681MA1999999096431MD1999999-0201MW1051REMSYN076AAXX  28124 83236 31997 01402 10274 20137 39643 40129 70504 333 20168 59020;EQDQ01  00002PRCP06
0195832360999992004092818004-12150-045000FM-12+044099999V0200901N000512200019N0100001N1+03511+01011100611ADDAA106000091AY101061AY241061GF101991011011008001001001MA1999999095781MD1999999-0241MW1051REMSYN076AAXX  28184 83236 31597 10901 10351 20101 39578 40061 70504 81100 333 59024;EQDQ01  00002PRCP06
0226832360999992004092900004-12150-045000FM-12+044099999V0201801N001012200019N0100001N1+02591+01451100861ADDAA106000091AY101061AY241061GF103991031011008001001001KA1240M+03661MA1999999096021MD1999999-0241MW1051REMSYN094AAXX  29004 83236 31597 31802 10259 20145 39602 40086 70504 83100 333 10366 29041 55/// 59024;EQDQ01  00002PRCP06
0214832360999992004092912004-12150-045000FM-12+044099999V0200901N001012200019N0100001N1+02921+01341101061ADDAA106000091AY101061AY241061GF103991011011008001001041KA1240N+01861MA1999999096251MD1999999-0181MW1051REMSYN082AAXX  29124 83236 31597 30902 10292 20134 39625 40106 70504 81104 333 20186 59018;EQDQ01  00002PRCP06
0195832360999992004092918004-12150-045000FM-12+044099999V0209999C000012200019N0100001N1+03631+01111100481ADDAA106000091AY101061AY241061GF104991041021008001001001MA1999999095691MD1999999-0091MW1051REMSYN076AAXX  29184 83236 31597 40000 10363 20111 39569 40048 70504 84200 333 59009;EQDQ01  00002PRCP06
0226832360999992004093000004-12150-045000FM-12+044099999V0202701N001512200019N0040001N1+02551+01351100621ADDAA106000091AY101061AY241061GF104991001001999999001071KA1240M+03751MA1999999095811MD1999999-0211MW1051REMSYN094AAXX  30004 83236 31996 42703 10255 20135 39581 40062 70504 80007 333 10375 29038 55/// 59021;EQDQ01  00002PRCP06
0224832360999992004093012004-12150-045000FM-12+044099999V0203601N004112200019N0100001N1+03021+01351100951ADDAA106000091AY101061AY241061GA1001+999999999GF100991001001999999001001KA1240N+01911MA1999999096141MD1999999-0111MW1051REMSYN076AAXX  30124 83236 31997 03608 10302 20135 39614 40095 70504 333 20191 59011;EQDQ01  00002PRCP06
0195832360999992004093018004-12150-045000FM-12+044099999V0203601N000512200019N0040001N1+03751+01001100411ADDAA106000091AY101061AY241061GF104991041021008001001001MA1999999095651MD1999999-0041MW1041REMSYN076AAXX  30184 83236 31596 43601 10375 20100 39565 40041 70404 84200 333 59004;EQDQ01  00002PRCP06
0226832360999992004100100004-12150-045000FM-12+044099999V0202301N001012200019N0040001N1+02851+01161100671ADDAA106000091AY101061AY241061GF104991041011008001001001KA1240M+03851MA1999999095901MD1999999+0091MW1041REMSYN094AAXX  01004 83236 31596 42302 10285 20116 39590 40067 70404 84100 333 10385 29031 55/// 58009;EQDQ01  00002PRCP06
0214832360999992004100112004-12150-045000FM-12+044099999V0200501N003112200019N0100001N1+02821+01291101231ADDAA106000091AY101061AY241061GF103991001001999999001041KA1240N+01961MA1999999096421MD1999999+0281MW1051REMSYN082AAXX  01124 83236 31997 30506 10282 20129 39642 40123 70504 80004 333 20196 58028;EQDQ01  00002PRCP06
0195832360999992004100118004-12150-045000FM-12+044099999V0201401N001512200019N0040001N1+03551+00991100551ADDAA106000091AY101061AY241061GF102991021011008001001001MA1999999095811MD1999999+0161MW1041REMSYN076AAXX  01184 83236 31596 21403 10355 20099 39581 40055 70404 82100 333 58016;EQDQ01  00002PRCP06
0236832360999992004100200004-12150-045000FM-12+044099999V0202701N001012200019N0040001N1+02651+01111100911ADDAA106000091AY101061AY241061GA1001+999999999GF100991001001999999001001KA1240M+03651MA1999999096091MD1999999+0191MW1051REMSYN088AAXX  02004 83236 31596 02702 10265 20111 39609 40091 70504 333 10365 29034 55/// 58019;EQDQ01  00002PRCP06
0214832360999992004100212004-12150-045000FM-12+044099999V0209999C000012200019N0040001N1+02741+01301101241ADDAA106000091AY101061AY241061GF104991001001999999001041KA1240N+01781MA1999999096391MD1999999-0031MW1051REMSYN082AAXX  02124 83236 31996 40000 10274 20130 39639 40124 70504 80004 333 20178 59003;EQDQ01  00002PRCP06
0195832360999992004100218004-12150-045000FM-12+044099999V0209999C000012200019N0040001N1+03511+00941100581ADDAA106000091AY101061AY241061GF105991011011008001001041MA1999999095791MD1999999-0021MW1041REMSYN076AAXX  02184 83236 31596 50000 10351 20094 39579 40058 70404 81104 333 59002;EQDQ01  00002PRCP06
0226832360999992004100300004-12150-045000FM-12+044099999V0201801N000512200019N0040001N1+02551+01171100831ADDAA106000091AY101061AY241061GF103991001001999999001041KA1240M+03611MA1999999095991MD1999999-0101MW1041REMSYN094AAXX  03004 83236 31996 31801 10255 20117 39599 40083 70404 80004 333 10361 29036 55/// 59010;EQDQ01  00002PRCP06
0224832360999992004100312004-12150-045000FM-12+044099999V0203601N001012200019N0040001N1+02821+01041101111ADDAA106000091AY101061AY241061GA1001+999999999GF100991001001999999001001KA1240N+01621MA1999999096271MD1999999-0121MW1041REMSYN076AAXX  03124 83236 31996 03602 10282 20104 39627 40111 70404 333 20162 59012;EQDQ01  00002PRCP06
0195832360999992004100318004-12150-045000FM-12+043999999V0201401N001512200019N0040001N1+03721+00421100421ADDAA106000091AY101061AY241061GF102991021011008001001001MA1999999095671MD1999999-0121MW1041REMSYN076AAXX  03184 83236 31596 21403 10372 20042 39567 40042 70404 82100 333 59012;EQDQ01  00002PRCP06
0226832360999992004100400004-12150-045000FM-12+043999999V0201801N001512200019N0040001N1+02611+00661100701ADDAA106000091AY101061AY241061GF102991001001999999001041KA1240M+03811MA1999999095881MD1999999-0111MW1041REMSYN094AAXX  04004 83236 31996 21803 10261 20066 39588 40070 70404 80004 333 10381 29026 55/// 59011;EQDQ01  00002PRCP06
0214832360999992004100412004-12150-045000FM-12+044099999V0200501N003112200019N0040001N1+03061+01341100961ADDAA106000091AY101061AY241061GF104991021011008001001041KA1240N+01781MA1999999096161MD1999999-0111MW1041REMSYN082AAXX  04124 83236 31596 40506 10306 20134 39616 40096 70404 82104 333 20178 59011;EQDQ01  00002PRCP06
0195832360999992004100418004-12150-045000FM-12+044099999V0202701N001510075019N0100001N1+03631+01321100491ADDAA106000091AY101061AY241061GF106991061021008001001001MA1999999095701MD1999999-0031MW1041REMSYN076AAXX  04184 83236 31597 62703 10363 20132 39570 40049 70404 86200 333 59003;EQDQ01  00002PRCP06
0226832360999992004100500004-12150-045000FM-12+044099999V0201801N000512200019N0100001N1+02751+01541100681ADDAA106000091AY101061AY241061GF103991031011008001001001KA1240M+03751MA1999999095901MD1999999+0021MW1041REMSYN094AAXX  05004 83236 31597 31801 10275 20154 39590 40068 70404 83100 333 10375 29040 55/// 58002;EQDQ01  00002PRCP06
0214832360999992004100512004-12150-045000FM-12+044099999V0200501N003110120019N0100001N1+02881+01571101001ADDAA106000091AY101061AY241061GF107991051081008001071001KA1240N+02291MA1999999096191MD1999999+0031MW1051REMSYN082AAXX  05124 83236 31597 70506 10288 20157 39619 40100 70504 85870 333 20229 58003;EQDQ01  00002PRCP06
0195832360999992004100518004-12150-045000FM-12+044099999V0203601N001510450019N0100001N1+03551+01591100491ADDAA106000091AY101061AY241061GF106991031021008001011001MA1999999095721MD1999999+0021MW1051REMSYN076AAXX  05184 83236 31597 63603 10355 20159 39572 40049 70504 83210 333 58002;EQDQ01  00002PRCP06
0202832360999992004100600004-12150-045000FM-12+044099999V0201801N001010120019N0100001N1+02731+01811100751ADDAY191061AY251061GF108991051081008001021999KA1240M+03651MA1999999095951MD1999999+0051MW1021REMSYN100AAXX  06004 83236 21597 81802 10273 20181 39595 40075 70295 8582/ 333 10365 29048 55/// 58005 69931;
0190832360999992004100612004-12150-045000FM-12+044099999V0209999C000012200019N0100001N1+02841+01701101031ADDAY161061AY261061GF106991041001022501071041KA1240N+02111MA1999999096221MD1999999+0031MW1021REMSYN088AAXX  06124 83236 21897 60000 10284 20170 39622 40103 70266 84074 333 20211 58003 60034;
0167832360999992004100618004-12150-045000FM-12+044099999V0203201N005110450019N0100001N1+03131+01501100701ADDAA106000091GF106991041041008001021001MA1999999095871MD1999999+0151REMSYN070AAXX  06184 83236 32597 63210 10313 20150 39587 40070 84420 333 58015;EQDQ01  00002PRCP06
0198832360999992004100700004-12150-045000FM-12+044099999V0209999C000010450019N0100001N1+02671+01771100951ADDAA106000091GF105991021011008001011001KA1240M+03391MA1999999096141MD1999999+0191REMSYN088AAXX  07004 83236 32597 50000 10267 20177 39614 40095 82110 333 10339 29051 55/// 58019;EQDQ01  00002PRCP06
0186832360999992004100712004-12150-045000FM-12+044099999V0203601N001010210019N0100001N1+02591+01871101161ADDAA106000091GF107991071001022501071001KA1240N+02041MA1999999096311MD1999999+0091REMSYN076AAXX  07124 83236 32897 73602 10259 20187 39631 40116 87070 333 20204 58009;EQDQ01  00002PRCP06
0195832360999992004100718004-12150-045000FM-12+044099999V0203601N003110450019N0040001N1+03461+01501100541ADDAA106000091AY101061AY241061GF107991021011008001071051MA1999999095751MD1999999-0121MW1051REMSYN076AAXX  07184 83236 31596 73606 10346 20150 39575 40054 70504 82175 333 59012;EQDQ01  00002PRCP06
0226832360999992004100800004-12150-045000FM-12+044099999V0209999C000012200019N0040001N1+02971+01691100811ADDAA106000091AY101061AY241061GF104991021011008001011001KA1240M+03511MA1999999096011MD1999999-0131MW1051REMSYN094AAXX  08004 83236 31596 40000 10297 20169 39601 40081 70504 82110 333 10351 29047 55/// 59013;EQDQ01  00002PRCP06
0214832360999992004100812004-12150-045000FM-12+044099999V0203201N001010450019N0100001N1+02851+01871101061ADDAA106000091AY101061AY241061GF106991031081008001031001KA1240N+02371MA1999999096261MD1999999-0051MW1051REMSYN082AAXX  08124 83236 31597 63202 10285 20187 39626 40106 70504 83830 333 20237 59005;EQDQ01  00002PRCP06
0195832360999992004100818004-12150-045000FM-12+044099999V0201801N003110075019N0100001N1+02951+01811100641ADDAA106000091AY101061AY291061GF107991051071008001021001MA1999999095821MD1999999+0071MW1171REMSYN076AAXX  08184 83236 31597 71806 10295 20181 39582 40064 71709 85720 333 58007;EQDQ01  00002PRCP06
0226832360999992004100900004-12150-045000FM-12+044099999V0209999C000010075019N0040001N1+02651+02061100921ADDAA106000091AY101061AY291061GF108991051071008001021999KA1240M+03531MA1999999096101MD1999999+0091MW1151REMSYN094AAXX  09004 83236 31596 80000 10265 20206 39610 40092 71509 8572/ 333 10353 29062 55/// 58009;EQDQ01  00002PRCP06
0190832360999992004100912004-12150-045000FM-12+044099999V0201801N001010120019N0100001N1+02471+02011101401ADDAY161061AY261061GF107991051081008001001021KA1240N+02161MA1999999096521MD1999999+0261MW1021REMSYN088AAXX  09124 83236 21597 71802 10247 20201 39652 40140 70266 85802 333 20216 58026 60114;
0167832360999992004100918004-12150-045000FM-12+044099999V0203601N003112200019N0100001N1+03111+02021100751ADDAA106000091GF105991031021008001001041MA1999999095911MD1999999+0091REMSYN070AAXX  09184 83236 32597 53606 10311 20202 39591 40075 83204 333 58009;EQDQ01  00002PRCP06
0202832360999992004101000004-12150-045000FM-12+044099999V0209999C000010450019N0040001N1+02321+02001101331ADDAY191061AY261061GF108991031071008001021999KA1240M+03171MA1999999096421MD1999999+0321MW1021REMSYN100AAXX  10004 83236 21596 80000 10232 20200 39642 40133 70296 8372/ 333 10317 29073 55/// 58032 60051;
0162832360999992004101012004-12150-045000FM-12+044099999V0203601N003112200019N0100001N1+02781+02011101361ADDGF103991011011008001041001KA1240N+02151MA1999999096481MD1999999-0041REMSYN082AAXX  10124 83236 22597 33606 10278 20201 39648 40136 81140 333 20215 59004 60054;
0078832360999992004101018004-12150-045000FM-12+044099999V02099999999999999999N9999999N1+99999+99999999999REMSYN069AAXX  10184 83236 32597 6303 10349 20163 39585 40064 85200 333 59006;
0198832360999992004101100004-12150-045000FM-12+044099999V0209999C000012200019N0100001N1+02701+01961100921ADDAA106000091GF103991031021008001001001KA1240M+03601MA1999999096101MD1999999-0321REMSYN088AAXX  11004 83236 32597 30000 10270 20196 39610 40092 83200 333 10360 29056 55/// 59032;EQDQ01  00002PRCP06
0186832360999992004101112004-12150-045000FM-12+043999999V0200501N002112200019N0100001N1+02961+01811101051ADDAA106000091GF102991001001999999001041KA1240N+02291MA1999999096251MD1999999-0231REMSYN076AAXX  11124 83236 32997 20504 10296 20181 39625 40105 80004 333 20229 59023;EQDQ01  00002PRCP06
0167832360999992004101118004-12150-045000FM-12+043999999V0203601N002112200019N0100001N1+03621+01361100401ADDAA106000091GF104991041021008001001001MA1999999095661MD1999999-0191REMSYN070AAXX  11184 83236 32597 43604 10362 20136 39566 40040 84200 333 59019;EQDQ01  00002PRCP06
0198832360999992004101200004-12150-045000FM-12+043999999V0201801N001010450019N0100001N1+02891+01901100751ADDAA106000091GF108991041081008001021999KA1240M+03711MA1999999095971MD1999999-0131REMSYN088AAXX  12004 83236 32597 81802 10289 20190 39597 40075 8482/ 333 10371 29046 55/// 59013;EQDQ01  00002PRCP06
0195832360999992004101218004-12150-045000FM-12+044099999V0209999C000010075019N0100001N1+03731+01451100401ADDAA106000091AY101061AY241061GF105991051021008001001001MA1999999095681MD1999999+0021MW1051REMSYN076AAXX  12184 83236 31597 50000 10373 20145 39568 40040 70504 85200 333 58002;EQDQ01  00002PRCP06
0198832360999992004101300004-12150-045000FM-12+044099999V0203601N002610450019N0100001N1+03131+01521100661ADDAA106000091GF107991041071008001021001KA1240M+03791MA1999999095911MD1999999-0061REMSYN088AAXX  13004 83236 32597 73605 10313 20152 39591 40066 84720 333 10379 29038 55/// 59006;EQDQ01  00002PRCP06
0224832360999992004101312004-12150-045000FM-12+044099999V0200501N003612200019N0100001N1+02861+01551101071ADDAA106000091AY101061AY241061GA1001+999999999GF100991001001999999001001KA1240N+02451MA1999999096291MD1999999+0051MW1051REMSYN076AAXX  13124 83236 31997 00507 10286 20155 39629 40107 70504 333 20245 58005;EQDQ01  00002PRCP06
0167832360999992004101318004-12150-045000FM-12+044099999V0203601N002610075019N0200001N1+03581+01271100451ADDAA106000091GF105991051021008001001001MA1999999095711MD1999999+0031REMSYN070AAXX  13184 83236 32598 53605 10358 20127 39571 40045 85200 333 58003;EQDQ01  00002PRCP06
0236832360999992004101400004-12150-045000FM-12+044099999V0201801N001512200019N0100001N1+02631+01591100751ADDAA106000091AY101061AY241061GA1001+999999999GF100991001001999999001001KA1240M+03631MA1999999095941MD1999999+0031MW1051REMSYN088AAXX  14004 83236 31997 01803 10263 20159 39594 40075 70504 333 10363 29044 55/// 58003;EQDQ01  00002PRCP06
0224832360999992004101412004-12150-045000FM-12+044099999V0203601N003612200019N0100001N1+02911+01281101141ADDAA106000091AY101061AY241061GA1001+999999999GF100991001001999999001001KA1240N+01881MA1999999096311MD1999999+0021MW1051REMSYN076AAXX  14124 83236 31997 03607 10291 20128 39631 40114 70504 333 20188 58002;EQDQ01  00002PRCP06
0236832360999992004101500004-12150-045000FM-12+044099999V0201801N001512200019N0100001N1+02691+01451100721ADDAA106000091AY101061AY241061GA1001+999999999GF100991001001999999001001KA1240M+03721MA1999999095911MD1999999-0031MW1051REMSYN088AAXX  15004 83236 31997 01803 10269 20145 39591 40072 70504 333 10372 29038 55/// 59003;EQDQ01  00002PRCP06
0214832360999992004101512004-12150-045000FM-12+044099999V0200901N003112200019N0100001N1+03031+01211101041ADDAA106000091AY101061AY241061GF104991001001999999001071KA1240N+02011MA1999999096241MD1999999-0071MW1051REMSYN082AAXX  15124 83236 31997 40906 10303 20121 39624 40104 70504 80007 333 20201 59007;EQDQ01  00002PRCP06
0236832360999992004101600004-12150-045000FM-12+044099999V0209999C000012200019N0100001N1+02801+01111100821ADDAA106000091AY101061AY241061GA1001+999999999GF100991001001999999001001KA1240M+03831MA1999999095961MD1999999+0051MW1051REMSYN088AAXX  16004 83236 31997 00000 10280 20111 39596 40082 70504 333 10383 29031 55/// 58005;EQDQ01  00002PRCP06
0214832360999992004101612004-12150-045000FM-12+043999999V0200501N001512200019N0100001N1+02931+01501101151ADDAA106000091AY101061AY241061GF104991001001999999001071KA1240N+01981MA1999999096341MD1999999+0101MW1051REMSYN082AAXX  16124 83236 31997 40503 10293 20150 39634 40115 70504 80007 333 20198 58010;EQDQ01  00002PRCP06
0195832360999992004101618004-12150-045000FM-12+043999999V0200501N001511050019N0100001N1+03651+01381100551ADDAA106000091AY101061AY241061GF106991041021008001001071MA1999999095781MD1999999+0041MW1051REMSYN076AAXX  16184 83236 31597 60503 10365 20138 39578 40055 70504 84207 333 58004;EQDQ01  00002PRCP06
0226832360999992004101700004-12150-045000FM-12+043999999V0209999C000012200019N0100001N1+02911+01811100701ADDAA106000091AY101061AY241061GF103991031021012501001001KA1240M+03681MA1999999095921MD1999999-0041MW1051REMSYN094AAXX  17004 83236 31697 30000 10291 20181 39592 40070 70504 83200 333 10368 29043 55/// 59004;EQDQ01  00002PRCP06
0214832360999992004101712004-12150-045000FM-12+043999999V0200501N003112200019N0100001N1+02831+01481101041ADDAA106000091AY101061AY241061GF104991031011012501041071KA1240N+02171MA1999999096241MD1999999-0101MW1051REMSYN082AAXX  17124 83236 31697 40506 10283 20148 39624 40104 70504 83147 333 20217 59010;EQDQ01  00002PRCP06
0195832360999992004101718004-12150-045000FM-12+043999999V0202301N001512200019N0100001N1+03561+01481100421ADDAA106000091AY101061AY241061GF103991031021008001001001MA1999999095671MD1999999-0111MW1051REMSYN076AAXX  17184 83236 31597 32303 10356 20148 39567 40042 70504 83200 333 59011;EQDQ01  00002PRCP06
0226832360999992004101800004-12150-045000FM-12+044099999V0201801N002110075019N0100001N1+02831+01511100591ADDAA106000091AY101061AY241061GF105991051021008001001001KA1240M+03691MA1999999095811MD1999999-0111MW1051REMSYN094AAXX  18004 83236 31597 51804 10283 20151 39581 40059 70504 85200 333 10369 29041 55/// 59011;EQDQ01  00002PRCP06
0214832360999992004101812004-12150-045000FM-12+044099999V0200501N002112200019N0100001N1+03041+01371100981ADDAA106000091AY101061AY241061GF102991001001999999001051KA1240N+02131MA1999999096201MD1999999-0041MW1051REMSYN082AAXX  18124 83236 31997 20504 10304 20137 39620 40098 70504 80005 333 20213 59004;EQDQ01  00002PRCP06
0195832360999992004101818004-12150-045000FM-12+044099999V0201801N002112200019N0100001N1+03771+01231100311ADDAA106000091AY101061AY241061GF104991041021008001001001MA1999999095671MD1999999+0001MW1051REMSYN076AAXX  18184 83236 31597 41804 10377 20123 39567 40031 70504 84200 333 58000;EQDQ01  00002PRCP06
0236832360999992004101900004-12150-045000FM-12+044099999V0209999C000012200019N0100001N1+02891+01701100691ADDAA106000091AY101061AY241061GA1001+999999999GF100991001001999999001001KA1240M+03821MA1999999095921MD1999999+0111MW1051REMSYN088AAXX  19004 83236 31997 00000 10289 20170 39592 40069 70504 333 10382 29039 55/// 58011;EQDQ01  00002PRCP06
0195832360999992004101918004-12150-045000FM-12+044099999V0203201N003110450019N0100001N1+03451+01581100621ADDAA106000091AY101061AY241061GF105991031021012501051071MA1999999095831MD1999999+0161MW1051REMSYN076AAXX  19184 83236 31697 53206 10345 20158 39583 40062 70504 83257 333 58016;EQDQ01  00002PRCP06
0226832360999992004102000004-12150-045000FM-12+044099999V0209999C000012200019N0100001N1+02751+01811100861ADDAA106000091AY101061AY241061GF103991031011012501051001KA1240M+03531MA1999999096071MD1999999+0151MW1051REMSYN094AAXX  20004 83236 31697 30000 10275 20181 39607 40086 70504 83150 333 10353 29049 55/// 58015;EQDQ01  00002PRCP06
0190832360999992004102012004-12150-045000FM-12+044099999V0209999C000010075019N0100001N1+02581+02081101131ADDAY191061AY251061GF108991071051008001071999KA1240N+02401MA1999999096281MD1999999+0031MW1031REMSYN088AAXX  20124 83236 21597 80000 10258 20208 39628 40113 70395 8757/ 333 20240 58003 69914;
0195832360999992004102018004-12150-045000FM-12+044099999V0203201N003112200019N0100001N1+03521+01551100461ADDAA106000091AY101061AY241061GF104991031031012501001031MA1999999095701MD1999999-0131MW1051REMSYN076AAXX  20184 83236 31697 43206 10352 20155 39570 40046 70504 83303 333 59013;EQDQ01  00002PRCP06
0226832360999992004102100004-12150-045000FM-12+044099999V0200501N005110075019N0100001N1+02601+01991100881ADDAA106000091AY101061AY231061GF108991061041008001061999KA1240M+03611MA1999999096031MD1999999-0041MW1051REMSYN094AAXX  21004 83236 31597 80510 10260 20199 39603 40088 70503 8646/ 333 10361 29061 55/// 59004;EQDQ01  00002PRCP06
0214832360999992004102112004-12150-045000FM-12+044099999V0200501N002610450019N0100001N1+02831+01771101201ADDAA106000091AY101061AY231061GF105991031011008001061031KA1240N+02331MA1999999096351MD1999999+0071MW1051REMSYN082AAXX  21124 83236 31597 50505 10283 20177 39635 40120 70503 83163 333 20233 58007;EQDQ01  00002PRCP06
0195832360999992004102118004-12150-045000FM-12+044099999V0200901N003612200019N0100001N1+03541+01241100561ADDAA106000091AY101061AY241061GF104991041021008001001001MA1999999095801MD1999999+0101MW1051REMSYN076AAXX  21184 83236 31597 40907 10354 20124 39580 40056 70504 84200 333 58010;EQDQ01  00002PRCP06
0236832360999992004102200004-12150-045000FM-12+044099999V0201401N002612200019N0100001N1+02891+01241100791ADDAA106000091AY101061AY241061GA1001+999999999GF100991001001999999001001KA1240M+03651MA1999999096001MD1999999-0031MW1051REMSYN088AAXX  22004 83236 31997 01405 10289 20124 39600 40079 70504 333 10365 29038 55/// 59003;EQDQ01  00002PRCP06
0214832360999992004102212004-12150-045000FM-12+044099999V0209999C000012200019N0100001N1+02891+01771101261ADDAA106000091AY101061AY241061GF103991031021012501001001KA1240N+02281MA1999999096451MD1999999+0101MW1051REMSYN082AAXX  22124 83236 31697 30000 10289 20177 39645 40126 70504 83200 333 20228 58010;EQDQ01  00002PRCP06
0167832360999992004102218004-12150-045000FM-12+044099999V0200901N003110450019N0100001N1+03581+01331100671ADDAA106000091GF106991041021008001051071MA1999999095911MD1999999+0111REMSYN070AAXX  22184 83236 32597 60906 10358 20133 39591 40067 84257 333 58011;EQDQ01  00002PRCP06
0198832360999992004102300004-12150-045000FM-12+044099999V0201401N002112200019N0200001N1+02901+01361100861ADDAA106000091GF102991021021008001001001KA1240M+03641MA1999999096071MD1999999+0071REMSYN088AAXX  23004 83236 32598 21404 10290 20136 39607 40086 82200 333 10364 29039 55/// 58007;EQDQ01  00002PRCP06
0186832360999992004102312004-12150-045000FM-12+044099999V0201401N002612200019N0200001N1+02871+01621101181ADDAA106000091GF104991041021008001001001KA1240N+02291MA1999999096381MD1999999-0071REMSYN076AAXX  23124 83236 32598 41405 10287 20162 39638 40118 84200 333 20229 59007;EQDQ01  00002PRCP06
0167832360999992004102318004-12150-045000FM-12+044099999V0209999C000010075019N0200001N1+03631+01421100461ADDAA106000091GF105991051021008001001001MA1999999095721MD1999999-0191REMSYN070AAXX  23184 83236 32598 50000 10363 20142 39572 40046 85200 333 59019;EQDQ01  00002PRCP06
0198832360999992004102400004-12150-045000FM-12+044099999V0202301N001010075019N0200001N1+02721+01591100741ADDAA106000091GF105991051021008001001001KA1240M+03681MA1999999095941MD1999999-0131REMSYN088AAXX  24004 83236 32598 52302 10272 20159 39594 40074 85200 333 10368 29044 55/// 59013;EQDQ01  00002PRCP06
0186832360999992004102412004-12150-045000FM-12+044099999V0203601N003612200019N0200001N1+02911+01621101001ADDAA106000091GF104991001001999999001071KA1240N+02231MA1999999096191MD1999999-0191REMSYN076AAXX  24124 83236 32998 43607 10291 20162 39619 40100 80007 333 20223 59019;EQDQ01  00002PRCP06
0167832360999992004102418004-12150-045000FM-12+044099999V0200901N002610450019N0200001N1+03551+01521100311ADDAA106000091GF106991041041008001071051MA1999999095571MD1999999-0151REMSYN070AAXX  24184 83236 32598 60905 10355 20152 39557 40031 84475 333 59015;EQDQ01  00002PRCP06
0198832360999992004102500004-12150-045000FM-12+044099999V0209999C000010075019N0200001N1+03081+01681100511ADDAA106000091GF108991061041008001081999KA1240M+03671MA1999999095761MD1999999-0181REMSYN088AAXX  25004 83236 32598 80000 10308 20168 39576 40051 8648/ 333 10367 29040 55/// 59018;EQDQ01  00002PRCP06
0162832360999992004102512004-12150-045000FM-12+044099999V0200501N002112200019N0200001N1+03191+01691100731ADDGF103991021021012501001031KA1240N+01601MA1999999096001MD1999999-0191REMSYN082AAXX  25124 83236 22698 30504 10319 20169 39600 40073 82203 333 20160 59019 69924;
0195832360999992004102518004-12150-045000FM-12+044099999V0200501N003610075019N0200001N1+03511+01431100101ADDAA106000091AY121061AY221061GF107991061051008001041061MA1999999095401MD1999999-0171MW1151REMSYN076AAXX  25184 83236 31598 70507 10351 20143 39540 40010 71522 86546 333 59017;EQDQ01  00002PRCP06
0202832360999992004102600004-12150-045000FM-12+044099999V0201801N002110075019N0100001N1+02391+02091100761ADDAY151061AY251061GF108991061061008001041999KA1240M+03621MA1999999095961MD1999999+0201MW1511REMSYN100AAXX  26004 83236 21597 81804 10239 20209 39596 40076 75155 8664/ 333 10362 29060 55/// 58020 60011;
0162832360999992004102612004-12150-045000FM-12+044099999V0209999C000010120019N0100001N1+02561+02061101121ADDGF108991071081008001021999KA1240N+02321MA1999999096231MD1999999+0231REMSYN082AAXX  26124 83236 22597 80000 10256 20206 39623 40112 8782/ 333 20232 58023 60024;
0198832360999992004102700004-12150-045000FM-12+044099999V0209999C000010120019N0200001N1+02471+01971101101ADDAA106000091GF108991061081008001021999KA1240M+03261MA1999999096221MD1999999+0261REMSYN088AAXX  27004 83236 32598 80000 10247 20197 39622 40110 8682/ 333 10326 29066 55/// 58026;EQDQ01  00002PRCP06
0186832360999992004102712004-12150-045000FM-12+044099999V0201801N001010075019N0200001N1+02681+02021101241ADDAA106000091GF106991051021008001051071KA1240N+02291MA1999999096361MD1999999+0131REMSYN076AAXX  27124 83236 32598 61802 10268 20202 39636 40124 85257 333 20229 58013;EQDQ01  00002PRCP06
0202832360999992004102800004-12150-045000FM-12+044099999V0209999C000010075019N0100001N1+02201+02101100961ADDAY161061AY261061GF106991051021008001061071KA1240M+03111MA1999999096361MD1999999+0141MW1021REMSYN100AAXX  28004 83236 21597 60000 10220 20210 39636 40096 70266 85267 333 10311 29082 55/// 58014 60101;
0162832360999992004102812004-12150-045000FM-12+044099999V0203601N002112200019N0100001N1+02631+02161101261ADDGF104991031021008001041001KA1240N+02111MA1999999096351MD1999999-0011REMSYN082AAXX  28124 83236 22597 43604 10263 20216 39635 40126 83240 333 20211 59001 60164;
0167832360999992004102818004-12150-045000FM-12+044099999V0203201N000510450019N0100001N1+03231+01891100641ADDAA106000091GF106991031021008001071001MA1999999095811MD1999999-0151REMSYN070AAXX  28184 83236 32597 63201 10323 20189 39581 40064 83270 333 59015;EQDQ01  00002PRCP06
0202832360999992004102900004-12150-045000FM-12+044099999V0203601N000510450019N0100001N1+02201+02031101161ADDAY191061AY261061GF108991041071008001021999KA1240M+03491MA1999999096261MD1999999-0101MW1131REMSYN100AAXX  29004 83236 21597 83601 10220 20203 39626 40116 71396 8472/ 333 10349 29075 55/// 59010 60221;
0190832360999992004102912004-12150-045000FM-12+044099999V0203201N000510075019N0100001N1+02271+02161101511ADDAY161061AY261061GF108991051071008001021999KA1240N+02151MA1999999096561MD1999999+0211MW1021REMSYN088AAXX  29124 83236 21597 83201 10227 20216 39656 40151 70266 8572/ 333 20215 58021 60414;
0171832360999992004102918004-12150-045000FM-12+044099999V0201801N004610450019N0100001N1+02981+01951100951ADDAY151061AY251061GF106991041021008001041001MA1999999096091MD1999999+0281MW1021REMSYN082AAXX  29184 83236 21597 61809 10298 20195 39609 40095 70255 84240 333 58028 69951;
0198832360999992004103000004-12150-045000FM-12+044099999V0202701N001512200019N0100001N1+02521+02051101131ADDAA106000091GF104991021061008001031001KA1240M+03101MA1999999096231MD1999999-0031REMSYN088AAXX  30004 83236 32597 42703 10252 20205 39623 40113 82630 333 10310 29074 55/// 59003;EQDQ01  00002PRCP06
0167832360999992004103018004-12150-045000FM-12+044099999V0203601N001510075019N0200001N1+03391+01591100781ADDAA106000091GF105991051021008001001001MA1999999095991MD1999999-0101REMSYN070AAXX  30184 83236 32598 53603 10339 20159 39599 40078 85200 333 59010;EQDQ01  00002PRCP06
0202832360999992004103100004-12150-045000FM-12+043999999V0201401N002112200019N0200001N1+02711+01791100991ADDAY161061AY261061GF103991031021008001001001KA1240M+03481MA1999999096161MD1999999-0071MW1021REMSYN100AAXX  31004 83236 21598 31404 10271 20179 39616 40099 70266 83200 333 10348 29051 55/// 59007 60011;
0172832360999992004103112004-12150-045000FM-12+043999999V0209999C000012200019N0200001N1+02831+01731101251ADDGA1001+999999999GF100991001001999999001001KA1240N+02181MA1999999096411MD1999999-0011REMSYN076AAXX  31124 83236 22998 00000 10283 20173 39641 40125 333 20218 59001 60014;
0167832360999992004103118004-12150-045000FM-12+043999999V0200501N001512200019N0200001N1+03461+01601100651ADDAA106000091GF104991041021008001001001MA1999999095871MD1999999-0121REMSYN070AAXX  31184 83236 32598 40503 10346 20160 39587 40065 84200 333 59012;EQDQ01  00002PRCP06
0198832360999992004110100004-12150-045000FM-12+043999999V0202301N000512200019N0200001N1+02841+01531100871ADDAA106000091GF103991031021008001001001KA1240M+03601MA1999999096071MD1999999-0091REMSYN088AAXX  01004 83236 32598 32301 10284 20153 39607 40087 83200 333 10360 29044 55/// 59009;EQDQ01  00002PRCP06
0196832360999992004110112004-12150-045000FM-12+043999999V0200501N001512200019N0200001N1+02961+01531101121ADDAA106000091GA1001+999999999GF100991001001999999001001KA1240N+02091MA1999999096321MD1999999-0091REMSYN070AAXX  01124 83236 32998 00503 10296 20153 39632 40112 333 20209 59009;EQDQ01  00002PRCP06
0167832360999992004110118004-12150-045000FM-12+043999999V0203601N004112200019N0200001N1+03561+01371100571ADDAA106000091GF104991041021008001001001MA1999999095801MD1999999-0071REMSYN070AAXX  01184 83236 32598 43608 10356 20137 39580 40057 84200 333 59007;EQDQ01  00002PRCP06
0198832360999992004110200004-12150-045000FM-12+044099999V0209999C000012200019N0200001N1+02731+01761100691ADDAA106000091GF103991021011008001041001KA1240M+03651MA1999999095901MD1999999-0171REMSYN088AAXX  02004 83236 32598 30000 10273 20176 39590 40069 82140 333 10365 29045 55/// 59017;EQDQ01  00002PRCP06
0186832360999992004110212004-12150-045000FM-12+044099999V0200501N003112200019N0200001N1+02961+01381100951ADDAA106000091GF101991001001999999001011KA1240N+02111MA1999999096151MD1999999-0171REMSYN076AAXX  02124 83236 32998 10506 10296 20138 39615 40095 80001 333 20211 59017;EQDQ01  00002PRCP06
0167832360999992004110218004-12150-045000FM-12+044099999V0203601N001512200019N0200001N1+03611+01351100401ADDAA106000091GF104991041021008001001001MA1999999095631MD1999999-0171REMSYN070AAXX  02184 83236 32598 43603 10361 20135 39563 40040 84200 333 59017;EQDQ01  00002PRCP06
0198832360999992004110300004-12150-045000FM-12+044099999V0202301N002112200019N0200001N1+02861+01721100571ADDAA106000091GF104991041021008001001001KA1240M+03681MA1999999095801MD1999999-0101REMSYN088AAXX  03004 83236 32598 42304 10286 20172 39580 40057 84200 333 10368 29041 55/// 59010;EQDQ01  00002PRCP06
0186832360999992004110312004-12150-045000FM-12+044099999V0200501N005112200019N0200001N1+02851+01761101041ADDAA106000091GF104991001001999999001041KA1240N+02141MA1999999096241MD1999999+0091REMSYN076AAXX  03124 83236 32998 40510 10285 20176 39624 40104 80004 333 20214 58009;EQDQ01  00002PRCP06
0167832360999992004110318004-12150-045000FM-12+044099999V0200901N004112200019N0200001N1+03511+01431100471ADDAA106000091GF104991041021008001001001MA1999999095721MD1999999+0091REMSYN070AAXX  03184 83236 32598 40908 10351 20143 39572 40047 84200 333 58009;EQDQ01  00002PRCP06
0198832360999992004110400004-12150-045000FM-12+044099999V0209999C000012200019N0200001N1+02811+01741100701ADDAA106000091GF102991021011008001001001KA1240M+03611MA1999999095911MD1999999+0111REMSYN088AAXX  04004 83236 32598 20000 10281 20174 39591 40070 82100 333 10361 29046 55/// 58011;EQDQ01  00002PRCP06
0186832360999992004110412004-12150-045000FM-12+044099999V0200501N002612200019N0200001N1+02871+01671101011ADDAA106000091GF103991001001999999001041KA1240N+01851MA1999999096211MD1999999-0031REMSYN076AAXX  04124 83236 32998 30505 10287 20167 39621 40101 80004 333 20185 59003;EQDQ01  00002PRCP06
0198832360999992004110500004-12150-045000FM-12+044099999V0202301N001012200019N0200001N1+02881+01701100691ADDAA106000091GF102991001001999999001041KA1240M+03681MA1999999095911MD1999999+0001REMSYN088AAXX  05004 83236 32998 22302 10288 20170 39591 40069 80004 333 10368 29043 55/// 58000;EQDQ01  00002PRCP06
0186832360999992004110512004-12150-045000FM-12+044099999V0200501N005112200019N0200001N1+02901+01621101061ADDAA106000091GF104991001001999999001071KA1240N+02041MA1999999096261MD1999999+0051REMSYN076AAXX  05124 83236 32998 40510 10290 20162 39626 40106 80007 333 20204 58005;EQDQ01  00002PRCP06
0167832360999992004110518004-12150-045000FM-12+044099999V0200901N001012200019N0200001N1+03641+01441100571ADDAA106000091GF103991021021008001001041MA1999999095791MD1999999+0111REMSYN070AAXX  05184 83236 32598 30902 10364 20144 39579 40057 82204 333 58011;EQDQ01  00002PRCP06
0198832360999992004110600004-12150-045000FM-12+044099999V0209999C000010120019N0200001N1+02951+01871100721ADDAA106000091GF107991071081008001001001KA1240M+03771MA1999999095951MD1999999+0041REMSYN088AAXX  06004 83236 32598 70000 10295 20187 39595 40072 87800 333 10377 29044 55/// 58004;EQDQ01  00002PRCP06
0186832360999992004110612004-12150-045000FM-12+044099999V0200501N002119999999N0200001N1+02961+01421100981ADDAA106000091GF106991001001999999001061KA1240N+02621MA1999999096201MD1999999-0061REMSYN076AAXX  06124 83236 32998 60504 10296 20142 39620 40098 80006 333 20262 59006;EQDQ01  00002PRCP06
0167832360999992004110618004-12150-045000FM-12+044099999V0209999C000011050019N0200001N1+03511+01481100471ADDAA106000091GF107991031021008001001071MA1999999095751MD1999999-0041REMSYN070AAXX  06184 83236 32598 70000 10351 20148 39575 40047 83207 333 59004;EQDQ01  00002PRCP06
0198832360999992004110700004-12150-045000FM-12+044099999V0202701N001012200019N0200001N1+02671+01781100911ADDAA106000091GF102991021001999999061001KA1240M+03671MA1999999095911MD1999999-0041REMSYN088AAXX  07004 83236 32998 22702 10267 20178 39591 40091 82060 333 10367 29046 55/// 59004;EQDQ01  00002PRCP06
0186832360999992004110712004-12150-045000FM-12+044099999V0200501N003112200019N0200001N1+03031+01511100921ADDAA106000091GF103991031001022501061001KA1240N+02221MA1999999096121MD1999999-0081REMSYN076AAXX  07124 83236 32898 30506 10303 20151 39612 40092 83060 333 20222 59008;EQDQ01  00002PRCP06
0167832360999992004110718004-12150-045000FM-12+044099999V0209999C000012200019N0200001N1+03691+01531100441ADDAA106000091GF104991041031008001001001MA1999999095661MD1999999-0081REMSYN070AAXX  07184 83236 32598 40000 10369 20153 39566 40044 84300 333 59008;EQDQ01  00002PRCP06
0198832360999992004110800004-12150-045000FM-12+043999999V0209999C000010120019N0200001N1+02741+01811100701ADDAA106000091GF105991051081008001001001KA1240M+03791MA1999999095921MD1999999+0011REMSYN088AAXX  08004 83236 32598 50000 10274 20181 39592 40070 85800 333 10379 29046 55/// 58001;EQDQ01  00002PRCP06
0186832360999992004110812004-12150-045000FM-12+043999999V0203601N002112200019N0200001N1+03061+01701100951ADDAA106000091GF103991031001022501031001KA1240N+02521MA1999999096161MD1999999+0041REMSYN076AAXX  08124 83236 32898 33604 10306 20170 39616 40095 83030 333 20252 58004;EQDQ01  00002PRCP06
0167832360999992004110818004-12150-045000FM-12+043999999V0203601N003110075019N0200001N1+03241+01671100451ADDAA106000091GF106991051091008001041001MA1999999095691MD1999999+0031REMSYN070AAXX  08184 83236 32598 63606 10324 20167 39569 40045 85940 333 58003;EQDQ01  00002PRCP06
0202832360999992004110900004-12150-045000FM-12+044099999V0209999C000010075019N0100001N1+02411+02131100881ADDAY161061AY261061GF108991051071008001021999KA1240M+03551MA1999999096061MD1999999+0141MW1511REMSYN100AAXX  09004 83236 21597 80000 10241 20213 39606 40088 75166 8572/ 333 10355 29062 55/// 58014 69971;
0190832360999992004110912004-12150-045000FM-12+044099999V0200901N003112200019N0200001N1+02931+01531101151ADDAY151061AY251061GF104991011011999999001041KA1240N+02231MA1999999096311MD1999999+0151MW1021REMSYN088AAXX  09124 83236 21998 40906 10293 20153 39631 40115 70255 81104 333 20223 58015 60014;
0167832360999992004110918004-12150-045000FM-12+044099999V0200901N001512200019N0200001N1+03461+01231100551ADDAA106000091GF104991041021008001001001MA1999999095771MD1999999+0081REMSYN070AAXX  09184 83236 32598 40903 10346 20123 39577 40055 84200 333 58008;EQDQ01  00002PRCP06
0198832360999992004111000004-12150-045000FM-12+044099999V0209999C000012200019N0200001N1+02751+01371100791ADDAA106000091GF103991031021008001001001KA1240M+03571MA1999999096001MD1999999-0061REMSYN088AAXX  10004 83236 32598 30000 10275 20137 39600 40079 83200 333 10357 29039 55/// 59006;EQDQ01  00002PRCP06
0196832360999992004111012004-12150-045000FM-12+044099999V0203601N002112200019N0200001N1+02841+01431101101ADDAA106000091GA1001+999999999GF100991001001999999001001KA1240N+02001MA1999999096281MD1999999-0031REMSYN070AAXX  10124 83236 32998 03604 10284 20143 39628 40110 333 20200 59003;EQDQ01  00002PRCP06
0167832360999992004111018004-12150-045000FM-12+044099999V0203601N000512200019N0200001N1+03581+00861100491ADDAA106000091GF103991011011008001001041MA1999999095721MD1999999-0051REMSYN070AAXX  10184 83236 32598 33601 10358 20086 39572 40049 81104 333 59005;EQDQ01  00002PRCP06
0198832360999992004111100004-12150-045000FM-12+044099999V0203601N001512200019N0200001N1+02681+01171100741ADDAA106000091GF102991001001999999001041KA1240M+03671MA1999999095931MD1999999-0071REMSYN088AAXX  11004 83236 32998 23603 10268 20117 39593 40074 80004 333 10367 29035 55/// 59007;EQDQ01  00002PRCP06
0186832360999992004111112004-12150-045000FM-12+044099999V0203601N001012200019N0200001N1+02831+01291100921ADDAA106000091GF104991001001999999001051KA1240N+01791MA1999999096101MD1999999-0181REMSYN076AAXX  11124 83236 32998 43602 10283 20129 39610 40092 80005 333 20179 59018;EQDQ01  00002PRCP06
0198832360999992004111200004-12150-045000FM-12+044099999V0209999C000010120019N0200001N1+02791+01751100531ADDAA106000091GF106991061081008001001001KA1240M+03671MA1999999095741MD1999999-0191REMSYN088AAXX  12004 83236 32598 60000 10279 20175 39574 40053 86800 333 10367 29041 55/// 59019;EQDQ01  00002PRCP06
0186832360999992004111212004-12150-045000FM-12+044099999V0203201N001510075019N0200001N1+03101+01841100701ADDAA106000091GF106991051021008001001051KA1240N+02221MA1999999095931MD1999999-0171REMSYN076AAXX  12124 83236 32598 63203 10310 20184 39593 40070 85205 333 20222 59017;EQDQ01  00002PRCP06
0167832360999992004111218004-12150-045000FM-12+043999999V0203601N001011050019N0200001N1+03631+01521100211ADDAA106000091GF105991041021008001001051MA1999999095471MD1999999-0061REMSYN070AAXX  12184 83236 32598 53602 10363 20152 39547 40021 84205 333 59006;EQDQ01  00002PRCP06
0198832360999992004111300004-12150-045000FM-12+043999999V0209999C000012200019N0200001N1+02951+01871100541ADDAA106000091GF103991031021012501001001KA1240M+03661MA1999999095791MD1999999+0051REMSYN088AAXX  13004 83236 32698 30000 10295 20187 39579 40054 83200 333 10366 29045 55/// 58005;EQDQ01  00002PRCP06
0186832360999992004111312004-12150-045000FM-12+043999999V0202301N001010450019N0200001N1+02921+01981100761ADDAA106000091GF105991031011012501071051KA1240N+02331MA1999999095991MD1999999+0061REMSYN076AAXX  13124 83236 32698 52302 10292 20198 39599 40076 83175 333 20233 58006;EQDQ01  00002PRCP06
0167832360999992004111318004-12150-045000FM-12+043999999V0200501N002111050019N0200001N1+03711+01371100251ADDAA106000091GF105991041021008001001051MA1999999095531MD1999999+0061REMSYN070AAXX  13184 83236 32598 50504 10371 20137 39553 40025 84205 333 58006;EQDQ01  00002PRCP06
0226832360999992004111400004-12150-045000FM-12+044099999V0202301N001012200019N0200001N1+02911+01871100611ADDAA106000091AY121061AY221061GF104991031051008001001031KA1240M+03771MA1999999095841MD1999999+0051MW1131REMSYN094AAXX  14004 83236 31598 42302 10291 20187 39584 40061 71322 83503 333 10377 29048 55/// 58005;EQDQ01  00002PRCP06
0186832360999992004111412004-12150-045000FM-12+044099999V0209999C000012200019N0200001N1+03021+01861100761ADDAA106000091GF104991031011012501051011KA1240N+02291MA1999999095991MD1999999+0001REMSYN076AAXX  14124 83236 32698 40000 10302 20186 39599 40076 83151 333 20229 58000;EQDQ01  00002PRCP06
0167832360999992004111418004-12150-045000FM-12+044099999V0200501N003110075019N0200001N1+03511+01581100391ADDAA106000091GF108991071041008001071999MA1999999095641MD1999999+0111REMSYN070AAXX  14184 83236 32598 80506 10351 20158 39564 40039 8747/ 333 58011;EQDQ01  00002PRCP06
0198832360999992004111500004-12150-045000FM-12+044099999V0202301N002110075019N0200001N1+02851+01791100691ADDAA106000091GF108991061021008001071999KA1240M+03691MA1999999095921MD1999999+0081REMSYN088AAXX  15004 83236 32598 82304 10285 20179 39592 40069 8627/ 333 10369 29047 55/// 58008;EQDQ01  00002PRCP06
0186832360999992004111512004-12150-045000FM-12+044099999V0200901N003110120019N0200001N1+02971+01681100971ADDAA106000091GF107991051011012501071051KA1240N+02241MA1999999096181MD1999999+0191REMSYN076AAXX  15124 83236 32698 70906 10297 20168 39618 40097 85175 333 20224 58019;EQDQ01  00002PRCP06
0167832360999992004111518004-12150-045000FM-12+044099999V0203601N003111050019N0200001N1+03711+01031100611ADDAA106000091GF105991041011008001001071MA1999999095781MD1999999+0231REMSYN070AAXX  15184 83236 32598 53606 10371 20103 39578 40061 84107 333 58023;EQDQ01  00002PRCP06
0198832360999992004111600004-12150-045000FM-12+044099999V0202301N001512200019N0200001N1+02641+01481100751ADDAA106000091GF104991041021008001001001KA1240M+03741MA1999999095951MD1999999+0031REMSYN088AAXX  16004 83236 32598 42303 10264 20148 39595 40075 84200 333 10374 29041 55/// 58003;EQDQ01  00002PRCP06
0186832360999992004111612004-12150-045000FM-12+044099999V0203601N002610450019N0200001N1+03011+01331101171ADDAA106000091GF106991041021008001051071KA1240N+02081MA1999999096351MD1999999+0171REMSYN076AAXX  16124 83236 32598 63605 10301 20133 39635 40117 84257 333 20208 58017;EQDQ01  00002PRCP06
0167832360999992004111618004-12150-045000FM-12+044099999V0200501N003110120019N0200001N1+03521+01341100651ADDAA106000091GF106991051021012501071051MA1999999095871MD1999999+0001REMSYN070AAXX  16184 83236 32698 60506 10352 20134 39587 40065 85275 333 58000;EQDQ01  00002PRCP06
0208832360999992004111700004-12150-045000FM-12+044099999V0209999C000012200019N0200001N1+02511+01771100801ADDAA106000091GA1001+999999999GF100991001001999999001001KA1240M+03591MA1999999095981MD1999999+0031REMSYN082AAXX  17004 83236 32998 00000 10251 20177 39598 40080 333 10359 29048 55/// 58003;EQDQ01  00002PRCP06
0186832360999992004111712004-12150-045000FM-12+044099999V0203601N003112200019N0200001N1+02931+01261101101ADDAA106000091GF102991001001999999001031KA1240N+01881MA1999999096351MD1999999+0001REMSYN076AAXX  17124 83236 32998 23606 10293 20126 39635 40110 80003 333 20188 58000;EQDQ01  00002PRCP06
0167832360999992004111718004-12150-045000FM-12+044099999V0203601N002612200019N0200001N1+03721+01191100551ADDAA106000091GF104991031021008001001031MA1999999095771MD1999999-0101REMSYN070AAXX  17184 83236 32598 43605 10372 20119 39577 40055 83203 333 59010;EQDQ01  00002PRCP06
0198832360999992004111800004-12150-045000FM-12+044099999V0209999C000010450019N0200001N1+02731+01561100781ADDAA106000091GF106991041021012501061051KA1240M+03771MA1999999095991MD1999999+0011REMSYN088AAXX  18004 83236 32698 60000 10273 20156 39599 40078 84265 333 10377 29039 55/// 58001;EQDQ01  00002PRCP06
0186832360999992004111812004-12150-045000FM-12+044099999V0203601N001012200019N0200001N1+03061+01551100941ADDAA106000091GF102991001001999999001051KA1240N+02131MA1999999096151MD1999999-0201REMSYN076AAXX  18124 83236 32998 23602 10306 20155 39615 40094 80005 333 20213 59020;EQDQ01  00002PRCP06
0167832360999992004111818004-12150-045000FM-12+044099999V0203201N001510075019N0200001N1+03601+01571100421ADDAA106000091GF108991071041008001071999MA1999999095661MD1999999-0111REMSYN070AAXX  18184 83236 32598 83203 10360 20157 39566 40042 8747/ 333 59011;EQDQ01  00002PRCP06
0198832360999992004111900004-12150-045000FM-12+044099999V0200201N001010075019N0200001N1+03031+01761100611ADDAA106000091GF108991061041008001081999KA1240M+03751MA1999999095861MD1999999-0161REMSYN088AAXX  19004 83236 32598 80202 10303 20176 39586 40061 8648/ 333 10375 29041 55/// 59016;EQDQ01  00002PRCP06
0186832360999992004111912004-12150-045000FM-12+044099999V0202301N001510075019N0200001N1+03041+02001100881ADDAA106000091GF106991051031008001071051KA1240N+02421MA1999999096121MD1999999-0031REMSYN076AAXX  19124 83236 32598 62303 10304 20200 39612 40088 85375 333 20242 59003;EQDQ01  00002PRCP06
0171832360999992004111918004-12150-045000FM-12+044099999V0201801N001510075019N0200001N1+02371+02171100721ADDAY151061AY251061GF108991071051008001081999MA1999999095881MD1999999+0221MW1151REMSYN082AAXX  19184 83236 21598 81803 10237 20217 39588 40072 71555 8758/ 333 58022 60011;
0202832360999992004112100004-12150-045000FM-12+043999999V0202701N001510075019N0040001N1+02341+02111101211ADDAY191061AY251061GF108991071061008001041999KA1240M+03441MA1999999096341MD1999999+0241MW1511REMSYN100AAXX  21004 83236 21596 82703 10234 20211 39634 40121 75195 8764/ 333 10344 29076 55/// 58024 60011;
0162832360999992004112112004-12150-045000FM-12+043999999V0209999C000010450019N0200001N1+02581+02171101161ADDGF105991031021008001061031KA1240N+02221MA1999999096271MD1999999+0131REMSYN082AAXX  21124 83236 22598 50000 10258 20217 39627 40116 83263 333 20222 58013 60074;
0171832360999992004112118004-12150-045000FM-12+043999999V0209999C000010075019N0100001N1+02341+02201100761ADDAY161061AY261061GF108991071051008001081999MA1999999095861MD1999999+0231MW1171REMSYN082AAXX  21184 83236 21597 80000 10234 20220 39586 40076 71766 8758/ 333 58023 60311;
0202832360999992004112200004-12150-045000FM-12+044099999V0200501N003110075019N0040001N1+02201+02101101181ADDAY161061AY261061GF108991081061008001999999KA1240M+03111MA1999999096281MD1999999-0061MW1511REMSYN100AAXX  22004 83236 21596 80506 10220 20210 39628 40118 75166 886// 333 10311 29090 55/// 59006 60101;
0190832360999992004112212004-12150-045000FM-12+044099999V0203601N001010120019N0040001N1+02311+02161101231ADDAY161061AY251061GF108991071081008001041999KA1240N+02171MA1999999096291MD1999999+0021MW1101REMSYN088AAXX  22124 83236 21596 83602 10231 20216 39629 40123 71065 8784/ 333 20217 58002 60484;
0190832360999992004112218004-12150-045000FM-12+044099999V0203201N003610075019N0040001N1+02521+02191100831ADDAY151061AY251061GF108991999061008001041999MA1999999095941MD1999999+0081MW1161REMSYN082AAXX  22184 83236 21596 83207 10252 20219 39594 40083 71655 8864/ 333 58008 69931;EQDQ01+000082SCOTLC
0202832360999992004112300004-12150-045000FM-12+044099999V0209999C000010075019N0040001N1+02351+02241101121ADDAY151061AY251061GF108991061071008001041999KA1240M+02801MA1999999096211MD1999999-0071MW1101REMSYN100AAXX  23004 83236 21596 80000 10235 20224 39621 40112 71055 8674/ 333 10280 29090 55/// 59007 60021;
0190832360999992004112312004-12150-045000FM-12+044099999V0201401N002110120019N0100001N1+02451+02111101261ADDAY151061AY251061GF108991071081008001041999KA1240N+02251MA1999999096351MD1999999+0061MW1101REMSYN088AAXX  23124 83236 21597 81404 10245 20211 39635 40126 71055 8784/ 333 20225 58006 60044;
0171832360999992004112318004-12150-045000FM-12+044099999V0201401N003110075019N0200001N1+02671+02141100971ADDAY151061AY251061GF106991051021008001071051MA1999999096091MD1999999+0151MW1031REMSYN082AAXX  23184 83236 21598 61406 10267 20214 39609 40097 70355 85275 333 58015 69921;
0202832360999992004112400004-12150-045000FM-12+044099999V0200901N001010075019N0020001N1+02291+02091101361ADDAY151061AY251061GF108991071061008001999999KA1240M+02841MA1999999096441MD1999999+0231MW1511REMSYN100AAXX  24004 83236 21595 80902 10229 20209 39644 40136 75155 876// 333 10284 29084 55/// 58023 69981;
0190832360999992004112412004-12150-045000FM-12+044099999V0209999C000010075019N0100001N1+02421+02131101311ADDAY121061AY221061GF108991061051008001041999KA1240N+02181MA1999999096391MD1999999+0041MW1151REMSYN088AAXX  24124 83236 21597 80000 10242 20213 39639 40131 71522 8654/ 333 20218 58004 60024;
0167832360999992004112418004-12150-045000FM-12+044099999V0203201N003110075019N0200001N1+03021+02041100761ADDAA106000091GF106991051041008001071051MA1999999095921MD1999999-0171REMSYN070AAXX  24184 83236 32598 63206 10302 20204 39592 40076 85475 333 59017;EQDQ01  00002PRCP06
0198832360999992004112500004-12150-045000FM-12+044099999V0201801N001510120019N0200001N1+02511+02091101161ADDAA106000091GF108991061081008001051999KA1240M+03131MA1999999096271MD1999999-0171REMSYN088AAXX  25004 83236 32598 81803 10251 20209 39627 40116 8685/ 333 10313 29074 55/// 59017;EQDQ01  00002PRCP06
0190832360999992004112512004-12150-045000FM-12+044099999V0203601N001010075019N0040001N1+02361+02091101321ADDAY121061AY221061GF108991061071008001021999KA1240N+02271MA1999999096421MD1999999+0031MW1031REMSYN088AAXX  25124 83236 21596 83602 10236 20209 39642 40132 70322 8672/ 333 20227 58003 69944;
0171832360999992004112518004-12150-045000FM-12+044099999V0203601N004110075019N0200001N1+02521+02251100911ADDAY161061AY251061GF106991061051008001071001MA1999999096021MD1999999+0101MW1151REMSYN082AAXX  25184 83236 21598 63608 10252 20225 39602 40091 71565 86570 333 58010 60081;
0198832360999992004112600004-12150-045000FM-12+044099999V0200501N001510075019N0100001N1+02391+02111101001ADDAA106000091GF108991071041008001071999KA1240M+02641MA1999999096101MD1999999-0171REMSYN088AAXX  26004 83236 32597 80503 10239 20211 39610 40100 8747/ 333 10264 29085 55/// 59017;EQDQ01  00002PRCP06
0202832360999992004112700004-12150-045000FM-12+044099999V0200501N004610075019N0020001N1+02351+02151100981ADDAY151061AY251061GF108991071061008001021999KA1240M+03201MA1999999096111MD1999999+0011MW1161REMSYN100AAXX  27004 83236 21595 80509 10235 20215 39611 40098 71655 8762/ 333 10320 29076 55/// 58001 69941;
0190832360999992004112712004-12150-045000FM-12+044099999V0200501N003110450019N0040001N1+02161+02021101281ADDAY161061AY261061GF108991031051008001021999KA1240N+02161MA1999999096341MD1999999+0131MW1151REMSYN088AAXX  27124 83236 21596 80506 10216 20202 39634 40128 71566 8352/ 333 20216 58013 60064;
0171832360999992004112718004-12150-045000FM-12+044099999V0200501N001510075019N0100001N1+02651+02181100791ADDAY161061AY261061GF107991051021008001041001MA1999999095911MD1999999+0201MW1021REMSYN082AAXX  27184 83236 21597 70503 10265 20218 39591 40079 70266 85240 333 58020 60071;
0198832360999992004112800004-12150-045000FM-12+044099999V0201801N000512200019N0100001N1+02351+02191101041ADDAA106000091GF104991021041008001041001KA1240M+02741MA1999999096111MD1999999+0001REMSYN088AAXX  28004 83236 32597 41801 10235 20219 39611 40104 82440 333 10274 29087 55/// 58000;EQDQ01  00002PRCP06
0162832360999992004112812004-12150-045000FM-12+044099999V0200901N002110450019N0100001N1+02471+02091101061ADDGF106991021041008001041021KA1240N+02131MA1999999096161MD1999999-0181REMSYN082AAXX  28124 83236 22597 60904 10247 20209 39616 40106 82442 333 20213 59018 60074;
0167832360999992004112818004-12150-045000FM-12+044099999V0202701N001510450019N0100001N1+02991+02321100471ADDAA106000091GF106991031091008001041001MA1999999095641MD1999999-0271REMSYN070AAXX  28184 83236 32597 62703 10299 20232 39564 40047 83940 333 59027;EQDQ01  00002PRCP06
0198832360999992004112900004-12150-045000FM-12+044099999V0209999C000010075019N0040001N1+02461+02231100931ADDAA106000091GF108991051071008001021999KA1240M+03041MA1999999096051MD1999999-0061REMSYN088AAXX  29004 83236 32596 80000 10246 20223 39605 40093 8572/ 333 10304 29080 55/// 59006;EQDQ01  00002PRCP06
0171832360999992004113018004-12150-045000FM-12+044099999V0201801N000510450019N0100001N1+02521+02251100661ADDAY161061AY261061GF107991031071008001021041MA1999999095771MD1999999+0091MW1021REMSYN082AAXX  30184 83236 21597 71801 10252 20225 39577 40066 70266 83724 333 58009 60121;
0198832360999992004120100004-12150-045000FM-12+044099999V0209999C000010450019N0100001N1+02311+02201100881ADDAA106000091GF107991041071008001021001KA1240M+02991MA1999999095991MD1999999-0131REMSYN088AAXX  01004 83236 32597 70000 10231 20220 39599 40088 84720 333 10299 29088 55/// 59013;EQDQ01  00002PRCP06
0190832360999992004120112004-12150-045000FM-12+044099999V0202701N000511050019N0100001N1+02741+02191101001ADDAY151061AY251061GF106991021021008001001051KA1240N+02191MA1999999096131MD1999999-0021MW1021REMSYN088AAXX  01124 83236 21597 62701 10274 20219 39613 40100 70255 82205 333 20219 59002 60124;
0183832360999992004120200004-12150-045000FM-12+044099999V0202301N001010450019N0100001N1+02531+02381100901ADDAA106000091GF108991031041008001021999KA1240M+02991MA1999999096061REMSYN087AAXX  02004 83236 32597 82302 10253 20238 39606 40090 8342/ 333 10299 29079 55// 58007;EQDQ01  00002PRCP06
0190832360999992004120212004-12150-045000FM-12+044099999V0201801N002110450019N0100001N1+02261+02161101161ADDAY161061AY261061GF108991031051008001021999KA1240N+02011MA1999999096261MD1999999+0131MW1021REMSYN088AAXX  02124 83236 21597 81804 10226 20216 39626 40116 70266 8352/ 333 20201 58013 60594;
0167832360999992004120218004-12150-045000FM-12+044099999V0209999C000010450019N0100001N1+02811+02221100811ADDAA106000091GF107991021021008001071001MA1999999095931MD1999999+0131REMSYN070AAXX  02184 83236 32597 70000 10281 20222 39593 40081 82270 333 58013;EQDQ01  00002PRCP06
0202832360999992004120300004-12150-045000FM-12+044099999V0201401N001510450019N0100001N1+02331+02201101011ADDAY161061AY261061GF106991031021008001071001KA1240M+03061MA1999999096101MD1999999+0041MW1021REMSYN100AAXX  03004 83236 21597 61403 10233 20220 39610 40101 70266 83270 333 10306 29087 55/// 58004 60041;
0162832360999992004120312004-12150-045000FM-12+044099999V0209999C000012200019N0100001N1+02601+02081101181ADDGF103991021011008001001041KA1240N+02151MA1999999096291MD1999999+0031REMSYN082AAXX  03124 83236 22597 30000 10260 20208 39629 40118 82104 333 20215 58003 60044;
0167832360999992004120318004-12150-045000FM-12+044099999V0203601N003612200019N0200001N1+03281+01661100631ADDAA106000091GF103991021011008001001011MA1999999095821MD1999999-0111REMSYN070AAXX  03184 83236 32598 33607 10328 20166 39582 40063 82101 333 59011;EQDQ01  00002PRCP06
0198832360999992004120400004-12150-045000FM-12+044099999V0202701N001012200019N0100001N1+02581+01691100921ADDAA106000091GF103991031061008001001001KA1240M+03351MA1999999096071MD1999999-0031REMSYN088AAXX  04004 83236 32597 32702 10258 20169 39607 40092 83600 333 10335 29057 55/// 59003;EQDQ01  00002PRCP06
0186832360999992004120412004-12150-045000FM-12+044099999V0209999C000019999999N0100001N1+02711+01831101271ADDAA106000091GF106991001001999999001061KA1240N+01951MA1999999096411MD1999999+0121REMSYN076AAXX  04124 83236 32997 60000 10271 20183 39641 40127 80006 333 20195 58012;EQDQ01  00002PRCP06
0167832360999992004120418004-12150-045000FM-12+044099999V0203601N002111050019N0100001N1+03311+01701100911ADDAA106000091GF106991031021008001001051MA1999999096071MD1999999+0251REMSYN070AAXX  04184 83236 32597 63604 10331 20170 39607 40091 83205 333 58025;EQDQ01  00002PRCP06
0198832360999992004120500004-12150-045000FM-12+044099999V0202701N001512200019N0100001N1+02541+02001101111ADDAA106000091GF103991031061008001001001KA1240M+03401MA1999999096251MD1999999+0181REMSYN088AAXX  05004 83236 32597 32703 10254 20200 39625 40111 83600 333 10340 29060 55/// 58018;EQDQ01  00002PRCP06
0186832360999992004120512004-12150-045000FM-12+044099999V0209999C000012200019N0200001N1+02681+01971101271ADDAA106000091GF102991001001999999001011KA1240N+02081MA1999999096401MD1999999-0011REMSYN076AAXX  05124 83236 32998 20000 10268 20197 39640 40127 80001 333 20208 59001;EQDQ01  00002PRCP06
0167832360999992004120518004-12150-045000FM-12+044099999V0202301N001012200019N0200001N1+03341+01801100721ADDAA106000091GF103991021011008001001011MA1999999095911MD1999999-0161REMSYN070AAXX  05184 83236 32598 32302 10334 20180 39591 40072 82101 333 59016;EQDQ01  00002PRCP06
0198832360999992004120600004-12150-045000FM-12+043999999V0209999C000012200019N0200001N1+02671+02111100901ADDAA106000091GF102991021011008001001001KA1240M+03471MA1999999096071MD1999999-0181REMSYN088AAXX  06004 83236 32598 20000 10267 20211 39607 40090 82100 333 10347 29062 55/// 59018;EQDQ01  00002PRCP06
0186832360999992004120612004-12150-045000FM-12+043999999V0200501N001512200019N0200001N1+02761+01691101031ADDAA106000091GF103991001001999999001051KA1240N+01971MA1999999096191MD1999999-0211REMSYN076AAXX  06124 83236 32998 30503 10276 20169 39619 40103 80005 333 20197 59021;EQDQ01  00002PRCP06
0167832360999992004120618004-12150-045000FM-12+043999999V0203601N001012200019N0200001N1+03351+01651100511ADDAA106000091GF103991021011008001001041MA1999999095711MD1999999-0201REMSYN070AAXX  06184 83236 32598 33602 10335 20165 39571 40051 82104 333 59020;EQDQ01  00002PRCP06
0208832360999992004120700004-12150-045000FM-12+044099999V0202301N001512200019N0200001N1+02571+02041100731ADDAA106000091GA1001+999999999GF100991001001999999001001KA1240M+03491MA1999999095901MD1999999-0171REMSYN082AAXX  07004 83236 32998 02303 10257 20204 39590 40073 333 10349 29058 55/// 59017;EQDQ01  00002PRCP06
0186832360999992004120712004-12150-045000FM-12+044099999V0209999C000012200019N0200001N1+02751+01971101091ADDAA106000091GF102991001001999999001021KA1240N+01941MA1999999096241MD1999999+0051REMSYN076AAXX  07124 83236 32998 20000 10275 20197 39624 40109 80002 333 20194 58005;EQDQ01  00002PRCP06
0167832360999992004120718004-12150-045000FM-12+044099999V0200901N003112200019N0200001N1+03341+01751100621ADDAA106000091GF105991021021008001001061MA1999999095801MD1999999+0091REMSYN070AAXX  07184 83236 32598 50906 10334 20175 39580 40062 82206 333 58009;EQDQ01  00002PRCP06
0198832360999992004120800004-12150-045000FM-12+044099999V0209999C000012200019N0200001N1+02631+02141100721ADDAA106000091GF102991021011008001001001KA1240M+03391MA1999999095901MD1999999+0001REMSYN088AAXX  08004 83236 32598 20000 10263 20214 39590 40072 82100 333 10339 29063 55/// 58000;EQDQ01  00002PRCP06
0186832360999992004120812004-12150-045000FM-12+044099999V0209999C000012200019N0200001N1+02781+02061101061ADDAA106000091GF103991031001022501041001KA1240N+02001MA1999999096221MD1999999-0021REMSYN076AAXX  08124 83236 32898 30000 10278 20206 39622 40106 83040 333 20200 59002;EQDQ01  00002PRCP06
0167832360999992004120818004-12150-045000FM-12+044099999V0200501N002112200019N0200001N1+03381+01871100571ADDAA106000091GF104991021011008001001021MA1999999095751MD1999999-0051REMSYN070AAXX  08184 83236 32598 40504 10338 20187 39575 40057 82102 333 59005;EQDQ01  00002PRCP06
0198832360999992004120900004-12150-045000FM-12+044099999V0201801N001512200019N0200001N1+02631+01981100791ADDAA106000091GF102991001001999999001021KA1240M+03451MA1999999095961MD1999999+0061REMSYN088AAXX  09004 83236 32998 21803 10263 20198 39596 40079 80002 333 10345 29060 55/// 58006;EQDQ01  00002PRCP06
0186832360999992004120912004-12150-045000FM-12+044099999V0209999C000010450019N0200001N1+02891+02101101031ADDAA106000091GF106991011011008001061021KA1240N+02151MA1999999096201MD1999999-0021REMSYN076AAXX  09124 83236 32598 60000 10289 20210 39620 40103 81162 333 20215 59002;EQDQ01  00002PRCP06
0167832360999992004120918004-12150-045000FM-12+044099999V0203601N002112200019N0200001N1+03381+01831100421ADDAA106000091GF103991021021008001001021MA1999999095641MD1999999-0111REMSYN070AAXX  09184 83236 32598 33604 10338 20183 39564 40042 82202 333 59011;EQDQ01  00002PRCP06
0226832360999992004121000004-12150-045000FM-12+044099999V0202701N001012200019N0200001N1+02811+02021100751ADDAA106000091AY101061AY221061GF104991041031008001001001KA1240M+03451MA1999999095961MD1999999+0001MW1131REMSYN094AAXX  10004 83236 31598 42702 10281 20202 39596 40075 71302 84300 333 10345 29056 55/// 58000;EQDQ01  00002PRCP06
0186832360999992004121012004-12150-045000FM-12+044099999V0202701N002610120019N0200001N1+02741+02051100911ADDAA106000091GF106991061081008001001001KA1240N+02281MA1999999096101MD1999999-0101REMSYN076AAXX  10124 83236 32598 62705 10274 20205 39610 40091 86800 333 20228 59010;EQDQ01  00002PRCP06
0195832360999992004121018004-12150-045000FM-12+044099999V0202701N004610075019N0100001N1+03041+02091100391ADDAA106000091AY101061AY221061GF107991051091008001001031MA1999999095571MD1999999-0071MW1151REMSYN076AAXX  10184 83236 31597 72709 10304 20209 39557 40039 71502 85903 333 59007;EQDQ01  00002PRCP06
0228832360999992004121100004-12150-045000FM-12+044099999V0201801N001012200019N0200001N1+02571+02371100751ADDAA106000091AY101061AY221061GA1031+000159039GF103991999999008001999999KA1240M+03401MA1999999095901MW1131REMSYN094AAXX  11004 83236 31598 31802 10257 20237 39590 40075 71302 333 83300 10340 29075 55/// 59006;EQDQ01  00002PRCP06
0186832360999992004121112004-12150-045000FM-12+044099999V0209999C000010450019N0200001N1+02621+02121100931ADDAA106000091GF108991031021008001021999KA1240N+02351MA1999999096081MD1999999-0021REMSYN076AAXX  11124 83236 32598 80000 10262 20212 39608 40093 8322/ 333 20235 59002;EQDQ01  00002PRCP06
0171832360999992004121118004-12150-045000FM-12+044099999V0203201N005110075019N0100001N1+02431+02071100691ADDAY191061AY261061GF108991051071008001021999MA1999999095811MD1999999+0241MW1971REMSYN082AAXX  11184 83236 21597 83210 10243 20207 39581 40069 79796 8572/ 333 58024 69981;
0202832360999992004121200004-12150-045000FM-12+043999999V0200901N000510450019N0100001N1+02181+02041101021ADDAY191061AY261061GF108991041071008001021999KA1240M+03211MA1999999096131MD1999999+0231MW1021REMSYN100AAXX  12004 83236 21597 80901 10218 20204 39613 40102 70296 8472/ 333 10321 29085 55/// 58023 60081;
0162832360999992004121212004-12150-045000FM-12+043999999V0209999C000010450019N0200001N1+02541+02021101101ADDGF105991041021012501051071KA1240N+02141MA1999999096191MD1999999+0111REMSYN082AAXX  12124 83236 22698 50000 10254 20202 39619 40110 84257 333 20214 58011 60104;
0195832360999992004121218004-12150-045000FM-12+043999999V0200501N003111050019N0200001N1+03051+02031100611ADDAA106000091AY121061AY221061GF106991041051008001001051MA1999999095761MD1999999-0051MW1171REMSYN076AAXX  12184 83236 31598 60506 10305 20203 39576 40061 71722 84505 333 59005;EQDQ01  00002PRCP06
0202832360999992004121300004-12150-045000FM-12+044099999V0209999C000010075019N0040001N1+02211+02121101151ADDAY191061AY251061GF108991071061008001041999KA1240M+03261MA1999999096241MD1999999+0111MW1151REMSYN100AAXX  13004 83236 21596 80000 10221 20212 39624 40115 71595 8764/ 333 10326 29080 55/// 58011 60081;
0190832360999992004121312004-12150-045000FM-12+044099999V0209999C000010075019N0100001N1+02461+02211101281ADDAY121061AY221061GF108991071021008001061999KA1240N+02111MA1999999096361MD1999999+0171MW1101REMSYN088AAXX  13124 83236 21597 80000 10246 20221 39636 40128 71022 8726/ 333 20211 58017 60094;
0167832360999992004121318004-12150-045000FM-12+044099999V0202301N001010075019N0200001N1+03191+02131100691ADDAA106000091GF106991051041008001071051MA1999999095861MD1999999+0101REMSYN070AAXX  13184 83236 32598 62302 10319 20213 39586 40069 85475 333 58010;EQDQ01  00002PRCP06
0202832360999992004121400004-12150-045000FM-12+044099999V0200501N007210075019N0020001N1+02151+02091101221ADDAY191061AY291061GF108991061061008001999999KA1240M+03291MA1999999096301MD1999999+0061MW1641REMSYN100AAXX  14004 83236 21595 80514 10215 20209 39630 40122 76499 866// 333 10329 29084 55/// 58006 60161;
0162832360999992004121412004-12150-045000FM-12+044099999V0209999C000010450019N0200001N1+02581+02171101311ADDGF106991041021008001061051KA1240N+02031MA1999999096391MD1999999+0031REMSYN082AAXX  14124 83236 22598 60000 10258 20217 39639 40131 84265 333 20203 58003 60194;
0171832360999992004121418004-12150-045000FM-12+044099999V0209999C000010075019N0100001N1+02411+02231100911ADDAY151061AY251061GF108991071051008001041999MA1999999095991MD1999999+0131MW1151REMSYN082AAXX  14184 83236 21597 80000 10241 20223 39599 40091 71555 8754/ 333 58013 60021;
0202832360999992004121500004-12150-045000FM-12+044099999V0202301N001510075019N0040001N1+02191+02061101231ADDAY191061AY251061GF108991071061008001999999KA1240M+03141MA1999999096331MD1999999+0031MW1161REMSYN100AAXX  15004 83236 21596 82303 10219 20206 39633 40123 71695 876// 333 10314 29088 55/// 58003 69981;
0190832360999992004121512004-12150-045000FM-12+044099999V0202701N001510075019N0040001N1+02311+02181101161ADDAY161061AY251061GF108991061071008001051999KA1240N+02091MA1999999096231MD1999999-0161MW1101REMSYN088AAXX  15124 83236 21596 82703 10231 20218 39623 40116 71065 8675/ 333 20209 59016 60124;
0195832360999992004121518004-12150-045000FM-12+044099999V0201401N003110075019N0200001N1+02671+02071100721ADDAA106000091AY121061AY221061GF106991051051008001001031MA1999999095841MD1999999-0151MW1151REMSYN076AAXX  15184 83236 31598 61406 10267 20207 39584 40072 71522 85503 333 59015;EQDQ01  00002PRCP06
0198832360999992004121600004-12150-045000FM-12+044099999V0209999C000010450019N0200001N1+02321+02161100991ADDAA106000091GF106991041041008001051071KA1240M+03051MA1999999096081MD1999999-0251REMSYN088AAXX  16004 83236 32598 60000 10232 20216 39608 40099 84457 333 10305 29086 55/// 59025;EQDQ01  00002PRCP06
0162832360999992004121612004-12150-045000FM-12+044099999V0201801N002611050019N0200001N1+02531+02051101051ADDGF105991021031008001041071KA1240N+02091MA1999999096151MD1999999-0081REMSYN082AAXX  16124 83236 22598 51805 10253 20205 39615 40105 82347 333 20209 59008 60154;
0078832360999992004121618004-12150-045000FM-12+044099999V02099999999999999999N9999999N1+99999+99999999999REMSYN069AAXX  16184 83236 32598 3604 10313 20214 39578 40062 84457 333 59006;
0186832360999992004121712004-12150-045000FM-12+044099999V0203601N001012200019N0200001N1+02591+02011100971ADDAA106000091GF103991031021012501061001KA1240N+02131MA1999999096101MD1999999-0051REMSYN076AAXX  17124 83236 32698 33602 10259 20201 39610 40097 83260 333 20213 59005;EQDQ01  00002PRCP06
0167832360999992004121718004-12150-045000FM-12+044099999V0203601N002612200019N0200001N1+03161+01921100521ADDAA106000091GF103991021021012501001051MA1999999095711MD1999999-0071REMSYN070AAXX  17184 83236 32698 33605 10316 20192 39571 40052 82205 333 59007;EQDQ01  00002PRCP06
0198832360999992004121800004-12150-045000FM-12+044099999V0209999C000012200019N0200001N1+02411+01991100781ADDAA106000091GF102991001001999999001051KA1240M+03221MA1999999095921MD1999999-0031REMSYN088AAXX  18004 83236 32998 20000 10241 20199 39592 40078 80005 333 10322 29070 55/// 59003;EQDQ01  00002PRCP06
0186832360999992004121812004-12150-045000FM-12+044099999V0201801N001511050019N0200001N1+02731+02171101071ADDAA106000091GF105991021021012501001071KA1240N+01931MA1999999096201MD1999999+0101REMSYN076AAXX  18124 83236 32698 51803 10273 20217 39620 40107 82207 333 20193 58010;EQDQ01  00002PRCP06
0167832360999992004121818004-12150-045000FM-12+044099999V0203601N001510450019N0200001N1+03241+02101100611ADDAA106000091GF106991031021008001051071MA1999999095771MD1999999+0061REMSYN070AAXX  18184 83236 32598 63603 10324 20210 39577 40061 83257 333 58006;EQDQ01  00002PRCP06
0226832360999992004121900004-12150-045000FM-12+043999999V0209999C000010450019N0200001N1+02511+02031101011ADDAA106000091AY121061AY221061GF105991031051008001061071KA1240M+03291MA1999999096151MD1999999+0231MW1131REMSYN094AAXX  19004 83236 31598 50000 10251 20203 39615 40101 71322 83567 333 10329 29068 55/// 58023;EQDQ01  00002PRCP06
0186832360999992004121912004-12150-045000FM-12+043999999V0202301N001012200019N0200001N1+02611+02101101251ADDAA106000091GF103991021021012501001071KA1240N+02131MA1999999096371MD1999999+0171REMSYN076AAXX  19124 83236 32698 32302 10261 20210 39637 40125 82207 333 20213 58017;EQDQ01  00002PRCP06
0167832360999992004121918004-12150-045000FM-12+043999999V0200501N003110075019N0200001N1+03131+02051100721ADDAA106000091GF105991051021008001001001MA1999999095891MD1999999+0121REMSYN070AAXX  19184 83236 32598 50506 10313 20205 39589 40072 85200 333 58012;EQDQ01  00002PRCP06
0198832360999992004122000004-12150-045000FM-12+044099999V0209999C000012200019N0200001N1+02541+02211101041ADDAA106000091GF103991001001999999001071KA1240M+03301MA1999999096171MD1999999+0021REMSYN088AAXX  20004 83236 32998 30000 10254 20221 39617 40104 80007 333 10330 29073 55/// 58002;EQDQ01  00002PRCP06
0162832360999992004122012004-12150-045000FM-12+044099999V0209999C000011050019N0200001N1+02591+02101101211ADDGF105991031021012501001051KA1240N+02151MA1999999096351MD1999999-0021REMSYN082AAXX  20124 83236 22698 50000 10259 20210 39635 40121 83205 333 20215 59002 69944;
0167832360999992004122018004-12150-045000FM-12+044099999V0203601N003110450019N0200001N1+03131+02141100621ADDAA106000091GF106991041021012501041071MA1999999095811MD1999999-0081REMSYN070AAXX  20184 83236 32698 63606 10313 20214 39581 40062 84247 333 59008;EQDQ01  00002PRCP06
0198832360999992004122100004-12150-045000FM-12+044099999V0209999C000019999999N0200001N1+02571+02311100871ADDAA106000091GF105991001001999999001071KA1240M+03251MA1999999096031MD1999999-0141REMSYN088AAXX  21004 83236 32998 50000 10257 20231 39603 40087 80007 333 10325 29076 55/// 59014;EQDQ01  00002PRCP06
0162832360999992004122112004-12150-045000FM-12+044099999V0202301N001510450019N0200001N1+02621+02211101011ADDGF106991041021008001071051KA1240N+02191MA1999999096151MD1999999-0201REMSYN082AAXX  21124 83236 22598 62303 10262 20221 39615 40101 84275 333 20219 59020 69994;
0167832360999992004122118004-12150-045000FM-12+044099999V0203601N002110450019N0200001N1+03181+02071100541ADDAA106000091GF105991041021012501041071MA1999999095751MD1999999-0061REMSYN070AAXX  21184 83236 32698 53604 10318 20207 39575 40054 84247 333 59006;EQDQ01  00002PRCP06
0198832360999992004122200004-12150-045000FM-12+044099999V0209999C000011050019N0200001N1+02571+02271100751ADDAA106000091GF106991031001022501071051KA1240M+03241MA1999999095911MD1999999-0121REMSYN088AAXX  22004 83236 32898 60000 10257 20227 39591 40075 83075 333 10324 29075 55/// 59012;EQDQ01  00002PRCP06
0203832360999992004122212004-12150-045000FM-12+044099999V0202301N001510075019N0100001N1+02251+02111101101ADDAY131061AY251061GF108991061071008001041999KA1240N+02151MA1999999096201MD1999999+0051REMSYN088AAXX  22124 83236 21597 82303 10225 20211 39620 40110 77035 8674/ 333 20215 58005 69924;EQDQ01+000702PRSWM1
0167832360999992004122218004-12150-045000FM-12+044099999V0202701N001012200019N0200001N1+03121+01951100501ADDAA106000091GF104991021021008001001051MA1999999095701MD1999999-0051REMSYN070AAXX  22184 83236 32598 42702 10312 20195 39570 40050 82205 333 59005;EQDQ01  00002PRCP06
0198832360999992004122300004-12150-045000FM-12+044099999V0209999C000012200019N0200001N1+02541+02231100801ADDAA106000091GF103991001001999999001051KA1240M+03211MA1999999095921MD1999999+0011REMSYN088AAXX  23004 83236 32998 30000 10254 20223 39592 40080 80005 333 10321 29077 55/// 58001;EQDQ01  00002PRCP06
0214832360999992004122312004-12150-045000FM-12+044099999V0200501N001010075019N0100001N1+02551+02111100911ADDAA106000091AY121061AY221061GF108991071051008001071999KA1240N+02251MA1999999096051MD1999999-0151MW1151REMSYN082AAXX  23124 83236 31597 80502 10255 20211 39605 40091 71522 8757/ 333 20225 59015;EQDQ01  00002PRCP06
0167832360999992004122318004-12150-045000FM-12+044099999V0200501N003610450019N0200001N1+03011+02141100421ADDAA106000091GF106991041021008001081041MA1999999095601MD1999999-0101REMSYN070AAXX  23184 83236 32598 60507 10301 20214 39560 40042 84284 333 59010;EQDQ01  00002PRCP06
0198832360999992004122400004-12150-045000FM-12+044099999V0209999C000011050019N0200001N1+02511+02271100631ADDAA106000091GF107991041001022501041071KA1240M+03141MA1999999095781MD1999999-0141REMSYN088AAXX  24004 83236 32898 70000 10251 20227 39578 40063 84047 333 10314 29078 55/// 59014;EQDQ01  00002PRCP06
0186832360999992004122412004-12150-045000FM-12+044099999V0209999C000011050019N0200001N1+02541+02151100791ADDAA106000091GF105991021021012501001071KA1240N+02211MA1999999095931MD1999999-0121REMSYN076AAXX  24124 83236 32698 50000 10254 20215 39593 40079 82207 333 20221 59012;EQDQ01  00002PRCP06
0167832360999992004122418004-12150-045000FM-12+044099999V0200501N003611050019N0200001N1+03231+01931100361ADDAA106000091GF105991021021012501001051MA1999999095561MD1999999-0041REMSYN070AAXX  24184 83236 32698 50507 10323 20193 39556 40036 82205 333 59004;EQDQ01  00002PRCP06
0198832360999992004122500004-12150-045000FM-12+044099999V0209999C000019999999N0200001N1+02391+02191100731ADDAA106000091GF105991001001999999001071KA1240M+03301MA1999999095861MD1999999+0081REMSYN088AAXX  25004 83236 32998 50000 10239 20219 39586 40073 80007 333 10330 29075 55/// 58008;EQDQ01  00002PRCP06
0186832360999992004122512004-12150-045000FM-12+044099999V0209999C000012200019N0200001N1+02711+02131101051ADDAA106000091GF104991001001999999001071KA1240N+02121MA1999999096181MD1999999+0251REMSYN076AAXX  25124 83236 32998 40000 10271 20213 39618 40105 80007 333 20212 58025;EQDQ01  00002PRCP06
0167832360999992004122518004-12150-045000FM-12+044099999V0200501N003611050019N0200001N1+03161+02051100671ADDAA106000091GF105991021021008001001051MA1999999095851MD1999999+0291REMSYN070AAXX  25184 83236 32598 50507 10316 20205 39585 40067 82205 333 58029;EQDQ01  00002PRCP06
0198832360999992004122600004-12150-045000FM-12+043999999V0201401N001012200019N0200001N1+02391+02051100821ADDAA106000091GF102991001001999999001051KA1240M+03211MA1999999095961MD1999999+0101REMSYN088AAXX  26004 83236 32998 21402 10239 20205 39596 40082 80005 333 10321 29071 55/// 58010;EQDQ01  00002PRCP06
0186832360999992004122612004-12150-045000FM-12+043999999V0209999C000012200019N0200001N1+02711+02151101091ADDAA106000091GF103991031021012501051001KA1240N+02161MA1999999096221MD1999999+0041REMSYN076AAXX  26124 83236 32698 30000 10271 20215 39622 40109 83250 333 20216 58004;EQDQ01  00002PRCP06
0167832360999992004122618004-12150-045000FM-12+043999999V0203601N003112200019N0100001N1+03321+02041100651ADDAA106000091GF104991041021008001001001MA1999999095841MD1999999-0011REMSYN070AAXX  26184 83236 32597 43606 10332 20204 39584 40065 84200 333 59001;EQDQ01  00002PRCP06
0208832360999992004122700004-12150-045000FM-12+043999999V0201401N001512200019N0200001N1+02491+02211100811ADDAA106000091GA1001+999999999GF100991001001999999001001KA1240M+03381MA1999999095961MD1999999+0001REMSYN082AAXX  27004 83236 32998 01403 10249 20221 39596 40081 333 10338 29072 55/// 58000;EQDQ01  00002PRCP06
0186832360999992004122712004-12150-045000FM-12+043999999V0201801N000511050019N0100001N1+02671+01921100991ADDAA106000091GF105991021001022501061051KA1240N+01961MA1999999096141MD1999999-0081REMSYN076AAXX  27124 83236 32897 51801 10267 20192 39614 40099 82065 333 20196 59008;EQDQ01  00002PRCP06
0167832360999992004122718004-12150-045000FM-12+043999999V0203601N001512200019N0100001N1+03381+01791100451ADDAA106000091GF105991031021008001001041MA1999999095651MD1999999-0191REMSYN070AAXX  27184 83236 32597 53603 10338 20179 39565 40045 83204 333 59019;EQDQ01  00002PRCP06
0198832360999992004122800004-12150-045000FM-12+044099999V0209999C000012200019N0100001N1+02631+02071100701ADDAA106000091GF103991001001999999001041KA1240M+03511MA1999999095871MD1999999-0091REMSYN088AAXX  28004 83236 32997 30000 10263 20207 39587 40070 80004 333 10351 29062 55/// 59009;EQDQ01  00002PRCP06
0186832360999992004122812004-12150-045000FM-12+044099999V0201801N004112200019N0200001N1+02751+02041100841ADDAA106000091GF103991001001999999001021KA1240N+01941MA1999999096011MD1999999-0131REMSYN076AAXX  28124 83236 32998 31808 10275 20204 39601 40084 80002 333 20194 59013;EQDQ01  00002PRCP06
0167832360999992004122818004-12150-045000FM-12+044099999V0200501N003110450019N0100001N1+03211+01751100591ADDAA106000091GF107991021011008001021001MA1999999095761MD1999999+0111REMSYN070AAXX  28184 83236 32597 70506 10321 20175 39576 40059 82120 333 58011;EQDQ01  00002PRCP06
0198832360999992004122900004-12150-045000FM-12+044099999V0203601N001510450019N0100001N1+02581+01941101041ADDAA106000091GF108991031021008001021999KA1240M+03431MA1999999096191MD1999999+0321REMSYN088AAXX  29004 83236 32597 83603 10258 20194 39619 40104 8322/ 333 10343 29061 55/// 58032;EQDQ01  00002PRCP06
0186832360999992004122912004-12150-045000FM-12+044099999V0203601N003110450019N0100001N1+02471+02031101281ADDAA106000091GF108991041081008001021999KA1240N+02141MA1999999096391MD1999999+0381REMSYN076AAXX  29124 83236 32597 83606 10247 20203 39639 40128 8482/ 333 20214 58038;EQDQ01  00002PRCP06
0167832360999992004122918004-12150-045000FM-12+044099999V0200501N004611050019N0100001N1+03061+01871100961ADDAA106000091GF106991021021008001041061MA1999999096111MD1999999+0321REMSYN070AAXX  29184 83236 32597 60509 10306 20187 39611 40096 82246 333 58032;EQDQ01  00002PRCP06
0208832360999992004123000004-12150-045000FM-12+044099999V0209999C000012200019N0200001N1+02471+02181101111ADDAA106000091GA1001+999999999GF100991001001999999001001KA1240M+03131MA1999999096221MD1999999+0031REMSYN082AAXX  30004 83236 32998 00000 10247 20218 39622 40111 333 10313 29073 55/// 58003;EQDQ01  00002PRCP06
0186832360999992004123012004-12150-045000FM-12+044099999V0203601N000510450019N0200001N1+02581+02101101301ADDAA106000091GF105991021021008001061001KA1240N+02001MA1999999096411MD1999999+0021REMSYN076AAXX  30124 83236 32598 53601 10258 20210 39641 40130 82260 333 20200 58002;EQDQ01  00002PRCP06
0167832360999992004123018004-12150-045000FM-12+044099999V0203601N004112200019N0200001N1+03271+01881100801ADDAA106000091GF104991021021008001001041MA1999999095961MD1999999-0151REMSYN070AAXX  30184 83236 32598 43608 10327 20188 39596 40080 82204 333 59015;EQDQ01  00002PRCP06
0198832360999992004123100004-12150-045000FM-12+044099999V0201401N001512200019N0100001N1+02521+02071100911ADDAA106000091GF103991031061008001001001KA1240M+03331MA1999999096051MD1999999-0171REMSYN088AAXX  31004 83236 32597 31403 10252 20207 39605 40091 83600 333 10333 29068 55/// 59017;EQDQ01  00002PRCP06
0186832360999992004123112004-12150-045000FM-12+044099999V0209999C000012200019N0200001N1+02711+02031101151ADDAA106000091GF103991021001022501041041KA1240N+01941MA1999999096321MD1999999-0091REMSYN076AAXX  31124 83236 32898 30000 10271 20203 39632 40115 82044 333 20194 59009;EQDQ01  00002PRCP06
0167832360999992004123118004-12150-045000FM-12+044099999V0200501N002612200019N0200001N1+03341+01911100761ADDAA106000091GF105991031021008001001041MA1999999095941MD1999999-0021REMSYN070AAXX  31184 83236 32598 50505 10334 20191 39594 40076 83204 333 59002;EQDQ01  00002PRCP06
