0198832420999992004010100004-12567-041383FM-12+042799999V0201401N001510042019N0020001N1+02841+01911101131ADDAA106000091GF107991071071004501001001KA1240M+03501MA1999999096281MD1999999-0091REMSYN088AAXX  01004 83242 32495 71403 10284 20191 39628 40113 87700 333 10350 29057 55090 59009;EQDQ01  00002PRCP06
0186832420999992004010112004-12567-041383FM-12+042799999V0200501N001010450019N0100001N1+02701+01831101271ADDAA106000091GF105991031051004501041001KA1240N+02211MA1999999096421MD1999999+0001REMSYN076AAXX  01124 83242 32497 50502 10270 20183 39642 40127 83540 333 20221 58000;EQDQ01  00002PRCP06
0179832420999992004010118004-12567-041383FM-12+042799999V0201401N000510042019N0040001N1+03531+01571100751ADDAA106000091GF108991051061004501031071MA1999999095891MD1999999+0101MW1051REMSYN076AAXX  01184 83242 31496 81401 10353 20157 39589 40075 705// 85637 333 58010;EQDQ01  00002PRCP06
0198832420999992004010200004-12567-041383FM-12+042799999V0200501N001012200019N0020001N1+02781+01981100881ADDAA106000091GF102991011001022501061021KA1240M+03581MA1999999096051MD1999999-0231REMSYN088AAXX  02004 83242 32895 20502 10278 20198 39605 40088 81062 333 10358 29054 55089 59023;EQDQ01  00002PRCP06
0186832420999992004010212004-12567-041383FM-12+042799999V0201801N002110042019N0040001N1+02721+02031101231ADDAA106000091GF107991051041004501081091KA1240N+02321MA1999999096381MD1999999-0041REMSYN076AAXX  02124 83242 32496 71804 10272 20203 39638 40123 85489 333 20232 59004;EQDQ01  00002PRCP06
0183832420999992004010218004-12567-041383FM-12+042799999V0201401N001510450019N0100001N1+03631+01851100382ADDAA106000091GF105991031031004501051021MA1999999095651MD1999999-0241REMSYN070AAXX  02184 83242 32497 51403 10363 20185 39565 40038 83352 333 59024;EQDQ01+100383APOSLPQ02  00002PRCP06
0210832420999992004010300004-12567-041383FM-12+042799999V0200501N001012200019N0020001N1+03091+01901100721ADDAA106000091GF104991011071004501031031KA1240M+03761MA1999999095931MD1999999-0121MW1131REMSYN094AAXX  03004 83242 31495 40502 10309 20190 39593 40072 713// 81733 333 10376 29050 55091 59012;EQDQ01  00002PRCP06
0190832420999992004010312004-12567-041383FM-12+042799999V0202301N001510075019N0040001N1+02361+02191101231ADDAY161061AY201061GF108991081071008001999999KA1240N+02321MA1999999096371MD1999999-0011MW1001REMSYN088AAXX  03124 83242 21596 82303 10236 20219 39637 40123 70060 887// 333 20232 59001 60024;
0167832420999992004010318004-12567-041383FM-12+042799999V0201401N002110450019N0100001N1+03041+02061100731ADDAA106000091GF107991041071004501051021MA1999999095931MD1999999+0281REMSYN070AAXX  03184 83242 32497 71404 10304 20206 39593 40073 84752 333 58028;EQDQ01  00002PRCP06
0186832420999992004010412004-12567-041383FM-12+042799999V0201401N001010042019N0040001N1+02591+02061101241ADDAA106000091GF107991071071004501001001KA1240N+02191MA1999999096361MD1999999-0011REMSYN076AAXX  04124 83242 32496 71402 10259 20206 39636 40124 87700 333 20219 59001;EQDQ01  00002PRCP06
0198832420999992004010500004-12567-041383FM-12+042799999V0200501N001510042019N0020001N1+03021+01691100891ADDAA106000091GF107991061071004501081001KA1240M+03621MA1999999096071MD1999999+0051REMSYN088AAXX  05004 83242 32495 70503 10302 20169 39607 40089 86780 333 10362 29050 55089 58005;EQDQ01  00002PRCP06
0186832420999992004010512004-12567-041383FM-12+042799999V0201401N001510042019N0100001N1+02481+01981101231ADDAA106000091GF107991071071004501001001KA1240N+02151MA1999999096381MD1999999+0021REMSYN076AAXX  05124 83242 32497 71403 10248 20198 39638 40123 87700 333 20215 58002;EQDQ01  00002PRCP06
0179832420999992004010518004-12567-041383FM-12+042799999V0201801N002111050019N0040001N1+03491+01711100721ADDAA106000091GF105991021011004501091081MA1999999095871MD1999999+0131MW1051REMSYN076AAXX  05184 83242 31496 51804 10349 20171 39587 40072 705// 82198 333 58013;EQDQ01  00002PRCP06
0198832420999992004010600004-12567-041383FM-12+042799999V0203601N001019999999N0020001N1+02841+01501100971ADDAA106000091GF106991001001999999001021KA1240M+03571MA1999999096121MD1999999+0051REMSYN088AAXX  06004 83242 32995 63602 10284 20150 39612 40097 80002 333 10357 29049 55084 58005;EQDQ01  00002PRCP06
0186832420999992004010612004-12567-041383FM-12+042799999V0201401N000510042019N0100001N1+02541+01981101371ADDAA106000091GF106991061071004501001001KA1240N+02191MA1999999096511MD1999999+0131REMSYN076AAXX  06124 83242 32497 61401 10254 20198 39651 40137 86700 333 20219 58013;EQDQ01  00002PRCP06
0179832420999992004010618004-12567-041383FM-12+042799999V0201801N000510450019N0040001N1+03501+01631100851ADDAA106000091GF108991021011004501041071MA1999999095971MD1999999+0101MW1041REMSYN076AAXX  06184 83242 31496 81801 10350 20163 39597 40085 704// 82147 333 58010;EQDQ01  00002PRCP06
0198832420999992004010700004-12567-041383FM-12+042799999V0203601N001012200019N0020001N1+02681+01391104102ADDAA106000091GF102991001001999999001021KA1240M+03591MA1999999096181MD1999999+0061REMSYN088AAXX  07004 83242 32995 23602 10268 20139 39618 40410 80002 333 10359 29048 55089 58006;EQDQ01  00002PRCP06
0179832420999992004010718004-12567-041383FM-12+042799999V0203601N001510450019N0040001N1+03511+01651100801ADDAA106000091GF106991031061004501011041MA1999999096031MD1999999+0061MW1051REMSYN076AAXX  07184 83242 31496 63603 10351 20165 39603 40080 705// 83614 333 58006;EQDQ01  00002PRCP06
0198832420999992004010800004-12567-041383FM-12+042799999V0200901N001010450019N0020001N1+02761+01911101121ADDAA106000091GF106991021071004501031021KA1240M+03581MA1999999096261MD1999999+0081REMSYN088AAXX  08004 83242 32495 60902 10276 20191 39626 40112 82732 333 10358 29054 55098 58008;EQDQ01  00002PRCP06
0186832420999992004010812004-12567-041383FM-12+042799999V0201801N002110042019N0100001N1+02561+01801101311ADDAA106000091GF107991071071004501001001KA1240N+02401MA1999999096441MD1999999-0061REMSYN076AAXX  08124 83242 32497 71804 10256 20180 39644 40131 87700 333 20240 59006;EQDQ01  00002PRCP06
0167832420999992004010818004-12567-041383FM-12+042799999V0201801N002110042019N0100001N1+03331+01671100721ADDAA106000091GF108991071061004501031001MA1999999095951MD1999999-0121REMSYN070AAXX  08184 83242 32497 81804 10333 20167 39595 40072 87630 333 59012;EQDQ01  00002PRCP06
0198832420999992004010900004-12567-041383FM-12+042799999V0202701N001012200019N0020001N1+02801+01841100981ADDAA106000091GF102991011031004501061031KA1240M+03441MA1999999096141MD1999999-0121REMSYN088AAXX  09004 83242 32495 22702 10280 20184 39614 40098 81363 333 10344 29053 55058 59012;EQDQ01  00002PRCP06
0186832420999992004010912004-12567-041383FM-12+042799999V0201401N001010042019N0100001N1+02621+02011101151ADDAA106000091GF108991081071004501999999KA1240N+02381MA1999999096301MD1999999-0141REMSYN076AAXX  09124 83242 32497 81402 10262 20201 39630 40115 887// 333 20238 59014;EQDQ01  00002PRCP06
0167832420999992004010918004-12567-041383FM-12+042799999V0201801N000510042019N0100001N1+03471+01711100591ADDAA106000091GF106991051061004501061001MA1999999095741MD1999999-0191REMSYN070AAXX  09184 83242 32497 61801 10347 20171 39574 40059 85660 333 59019;EQDQ01  00002PRCP06
0198832420999992004011000004-12567-041383FM-12+042799999V0200901N000510042019N0020001N1+02901+01991100741ADDAA106000091GF108991081071004501999999KA1240M+03521MA1999999095921MD1999999-0221REMSYN088AAXX  10004 83242 32495 80901 10290 20199 39592 40074 887// 333 10352 29055 55024 59022;EQDQ01  00002PRCP06
0190832420999992004011012004-12567-041383FM-12+042799999V0209999C000010042019N0020001N1+02261+02181101131ADDAY161061AY221061GF108991081071004501999999KA1240N+02191MA1999999096261MD1999999-0041MW1101REMSYN088AAXX  10124 83242 21495 80000 10226 20218 39626 40113 71062 887// 333 20219 59004 60424;
0171832420999992004011018004-12567-041383FM-12+042799999V0201801N001010042019N0100001N1+02961+01961100681ADDAY151061AY221061GF108991081071004501999999MA1999999095861MD1999999+0121MW1031REMSYN082AAXX  10184 83242 21497 81802 10296 20196 39586 40068 70352 887// 333 58012 69961;
0190832420999992004011112004-12567-041383FM-12+042799999V0201801N001010042019N0010001N1+02221+02141101331ADDAY161061AY221061GF108991081071004501999999KA1240N+02131MA1999999096391MD1999999+0131MW1511REMSYN088AAXX  11124 83242 21494 81802 10222 20214 39639 40133 75162 887// 333 20213 58013 60024;
0171832420999992004011118004-12567-041383FM-12+042799999V0209999C000010042019N0020001N1+02481+02111100951ADDAY161061AY221061GF108991081071004501999999MA1999999096121MD1999999+0261MW1401REMSYN082AAXX  11184 83242 21495 80000 10248 20211 39612 40095 74062 887// 333 58026 60131;
0162832420999992004011212004-12567-041383FM-12+042799999V0203601N004110042019N0100001N1+02621+01881101231ADDGF108991081071004501999999KA1240N+02011MA1999999096341MD1999999-0051REMSYN082AAXX  12124 83242 22497 83608 10262 20188 39634 40123 887// 333 20201 59005 60134;
0226832420999992004011300004-12567-041383FM-12+042799999V0200501N002119999999N0020001N1+02761+01861101001ADDAA106000091GF107991999071004501071001KA1240M+03201MA1999999096151MD1999999-0291MW1131REMSYN094AAXX  13004 83242 31495 70504 10276 20186 39615 40100 713// 88770 333 10320 29057 55009 59029;EQDQ01+000082SCOTLCQ02  00002PRCP06
0190832420999992004011312004-12567-041383FM-12+042799999V0201801N000510042019N0040001N1+02371+02281101181ADDAY161061AY221061GF108991081071004501999999KA1240N+02361MA1999999096311MD1999999-0031MW1511REMSYN088AAXX  13124 83242 21496 81801 10237 20228 39631 40118 75162 887// 333 20236 59003 60034;
0171832420999992004011318004-12567-041383FM-12+042799999V0200501N001010042019N0040001N1+02781+02211100751ADDAY161061AY221061GF108991081071004501999999MA1999999095801MD1999999-0061MW1161REMSYN082AAXX  13184 83242 21496 80502 10278 20221 39580 40075 71662 887// 333 59006 60071;
0202832420999992004011400004-12567-041383FM-12+042799999V0201801N001010042019N0010001N1+02321+02271101141ADDAY161061AY241061GF108991081071004501999999KA1240M+02861MA1999999096221MD1999999+0071MW1501REMSYN100AAXX  14004 83242 21494 81802 10232 20227 39622 40114 75064 887// 333 10286 29090 55000 58007 60051;
0190832420999992004011412004-12567-041383FM-12+042799999V0202301N000510042019N0040001N1+02521+02311101131ADDAY161061AY221061GF108991081071004501999999KA1240N+02171MA1999999096221MD1999999-0091MW1031REMSYN088AAXX  14124 83242 21496 82301 10252 20231 39622 40113 70362 887// 333 20217 59009 60224;
0179832420999992004011418004-12567-041383FM-12+042799999V0203601N001510042019N0040001N1+03181+02161100511ADDAA106000091GF107991061071004501031001MA1999999095691MD1999999-0111MW1151REMSYN076AAXX  14184 83242 31496 73603 10318 20216 39569 40051 715// 86730 333 59011;EQDQ01  00002PRCP06
0207832420999992004011500004-12567-041383FM-12+042799999V0203601N003110042019N0020001N1+02601+02081100921ADDAA106000021AY151061AY221061GF108991081071004501999999KA1240M+03261MA1999999096051MD1999999-0171MW1501REMSYN094AAXX  15004 83242 31495 83606 10260 20208 39605 40092 75052 887// 333 10326 29072 55017 59017;
0190832420999992004011512004-12567-041383FM-12+042799999V0203601N005710042019N0010001N1+02511+01891100991ADDAY161061AY221061GF108991081071004501999999KA1240N+02211MA1999999096121MD1999999-0101MW1161REMSYN088AAXX  15124 83242 21494 83611 10251 20189 39612 40099 71662 887// 333 20221 59010 60044;
0171832420999992004011518004-12567-041383FM-12+042799999V0203201N002110042019N0020001N1+02861+02091100631ADDAY161061AY221061GF108991081071004501999999MA1999999095741MD1999999+0101MW1201REMSYN082AAXX  15184 83242 21495 83204 10286 20209 39574 40063 72062 887// 333 58010 69901;
0189832420999992004011600004-12567-041383FM-12+042799999V0200501N001512200019N0020001N1+02321+02271100901ADDAA106000021GA1001+999999999GF100991001001999999001001KA1240M+02881MA1999999096001MD1999999-0051REMSYN082AAXX  16004 83242 32995 00503 10232 20227 39600 40090 333 10288 29083 55001 59005;
0190832420999992004011612004-12567-041383FM-12+042799999V0201801N001010042019N0040001N1+02481+02301100931ADDAY151061AY201061GF108991081071004501999999KA1240N+02171MA1999999096031MD1999999-0091MW1031REMSYN088AAXX  16124 83242 21496 81802 10248 20230 39603 40093 70350 887// 333 20217 59009 69914;
0171832420999992004011618004-12567-041383FM-12+042799999V0200901N001510042019N0020001N1+02351+02261100721ADDAY161061AY241061GF108991081071004501999999MA1999999095811MD1999999+0071MW1621REMSYN082AAXX  16184 83242 21495 80903 10235 20226 39581 40072 76264 887// 333 58007 60151;
0202832420999992004011700004-12567-041383FM-12+042799999V0203601N001010042019N0010001N1+02321+02291100861ADDAY161061AY241061GF108991081071004501999999KA1240M+02821MA1999999095961MD1999999-0041MW1501REMSYN100AAXX  17004 83242 21494 83602 10232 20229 39596 40086 75064 887// 333 10282 29095 55012 59004 60021;
0162832420999992004011712004-12567-041383FM-12+042799999V0201801N001010042019N0100001N1+02471+02151100881ADDGF107991061071004501061999KA1240N+02131MA1999999095981MD1999999-0051REMSYN082AAXX  17124 83242 22497 71802 10247 20215 39598 40088 8676/ 333 20213 59005 60174;
0167832420999992004011718004-12567-041383FM-12+042799999V0202301N002610042019N0100001N1+03121+01921100381ADDAA106000091GF107991061071004501071001MA1999999095551MD1999999-0261REMSYN070AAXX  17184 83242 32497 72305 10312 20192 39555 40038 86770 333 59026;EQDQ01  00002PRCP06
0190832420999992004011912004-12567-041383FM-12+042799999V0201801N000510042019N0020001N1+02211+02191101131ADDAY161061AY251061GF108991081071004501999999KA1240N+01911MA1999999096181MD1999999-0041MW1611REMSYN088AAXX  19124 83242 21495 81801 10221 20219 39618 40113 76165 887// 333 20191 59004 60604;
0171832420999992004011918004-12567-041383FM-12+042799999V0201801N001010042019N0020001N1+02301+02221100861ADDAY161061AY221061GF108991081071004501999999MA1999999095911MD1999999-0121MW1631REMSYN082AAXX  19184 83242 21495 81802 10230 20222 39591 40086 76362 887// 333 59012 60161;
0202832420999992004012000004-12567-041383FM-12+042799999V0201801N003110042019N0010001N1+02161+02131101091ADDAY161061AY241061GF108991081071004501999999KA1240M+02521MA1999999096141MD1999999-0011MW1211REMSYN100AAXX  20004 83242 21494 81806 10216 20213 39614 40109 72164 887// 333 10252 29097 55000 59001 60241;
0190832420999992004012012004-12567-041383FM-12+042799999V0201801N000510042019N0040001N1+02241+02071101161ADDAY161061AY221061GF108991081071004501999999KA1240N+02011MA1999999096211MD1999999+0031MW1151REMSYN088AAXX  20124 83242 21496 81801 10224 20207 39621 40116 71562 887// 333 20201 58003 60664;
0171832420999992004012018004-12567-041383FM-12+042799999V0202701N000510042019N0020001N1+02421+02191100851ADDAY151061AY221061GF108991081071004501999999MA1999999095911MD1999999+0001MW1611REMSYN082AAXX  20184 83242 21495 82701 10242 20219 39591 40085 76152 887// 333 58000 69981;
0202832420999992004012100004-12567-041383FM-12+042799999V0202701N000510042019N0005001N1+02241+02211101071ADDAY161061AY241061GF108991081071004501999999KA1240M+02741MA1999999096131MD1999999-0011MW1501REMSYN100AAXX  21004 83242 21493 82701 10224 20221 39613 40107 75064 887// 333 10274 29093 55011 59001 60121;
0190832420999992004012112004-12567-041383FM-12+042799999V0201801N001010042019N0010001N1+02201+02171101201ADDAY161061AY221061GF108991081071004501999999KA1240N+02091MA1999999096251MD1999999+0041MW1511REMSYN088AAXX  21124 83242 21494 81802 10220 20217 39625 40120 75162 887// 333 20209 58004 60134;
0171832420999992004012118004-12567-041383FM-12+042799999V0201401N001510450019N0040001N1+02721+02221100751ADDAY161061AY221061GF107991041071004501031031MA1999999095871MD1999999-0041MW1021REMSYN082AAXX  21184 83242 21496 71403 10272 20222 39587 40075 70262 84733 333 59004 60011;
0202832420999992004012200004-12567-041383FM-12+042799999V0201401N001510042019N0020001N1+02401+02171101081ADDAY151061AY221061GF108991081071004501999999KA1240M+02921MA1999999096051MD1999999-0081MW1131REMSYN100AAXX  22004 83242 21495 81403 10240 20217 39605 40108 71352 887// 333 10292 29086 55026 59008 60011;
0202832420999992004012300004-12567-041383FM-12+042799999V0203601N001010042019N0020001N1+02291+02231100941ADDAY151061AY241061GF108991081071004501999999KA1240M+02661MA1999999096021MD1999999-0031MW1031REMSYN100AAXX  23004 83242 21495 83602 10229 20223 39602 40094 70354 887// 333 10266 29095 55000 59003 69911;
0190832420999992004012312004-12567-041383FM-12+042799999V0201401N001010042019N0020001N1+02141+02061101311ADDAY161061AY221061GF108991081071004501999999KA1240N+02051MA1999999096351MD1999999+0241MW1101REMSYN088AAXX  23124 83242 21495 81402 10214 20206 39635 40131 71062 887// 333 20205 58024 60484;
0183832420999992004012318004-12567-041383FM-12+042799999V0202301N001019999999N0100001N1+02781+01911100881ADDAA106000091GF107991999041004501071051MA1999999096001MD1999999+0171REMSYN070AAXX  23184 83242 32497 72302 10278 20191 39600 40088 88475 333 58017;EQDQ01+000082SCOTLCQ02  00002PRCP06
0208832420999992004012400004-12567-041383FM-12+042799999V0202701N001012200019N0020001N1+02281+02051101161ADDAA106000091GA1001+999999999GF100991001001999999001001KA1240M+02921MA1999999096211MD1999999+0191REMSYN082AAXX  24004 83242 32995 02702 10228 20205 39621 40116 333 10292 29082 55030 58019;EQDQ01  00002PRCP06
0190832420999992004012412004-12567-041383FM-12+042799999V0201401N000510042019N0040001N1+02481+02031101331ADDAY161061AY201061GF107991061071004501081001KA1240N+02031MA1999999096411MD1999999+0061MW1031REMSYN088AAXX  24124 83242 21496 71401 10248 20203 39641 40133 70360 86780 333 20203 58006 60024;
0167832420999992004012418004-12567-041383FM-12+042799999V0201401N002111050019N0100001N1+03061+01991100861ADDAA106000091GF107991031071004501001051MA1999999096001MD1999999+0001REMSYN070AAXX  24184 83242 32497 71404 10306 20199 39600 40086 83705 333 58000;EQDQ01  00002PRCP06
0190832420999992004012512004-12567-041383FM-12+042799999V0201401N001510042019N0020001N1+02461+02151101331ADDAY161061AY241061GF107991051071004501081091KA1240N+02171MA1999999096421MD1999999+0011MW1151REMSYN088AAXX  25124 83242 21495 71403 10246 20215 39642 40133 71564 85789 333 20217 58001 60024;
0167832420999992004012518004-12567-041383FM-12+042799999V0201401N001510450019N0100001N1+03021+01831100831ADDAA106000091GF107991031071004501081021MA1999999095981MD1999999-0021REMSYN070AAXX  25184 83242 32497 71403 10302 20183 39598 40083 83782 333 59002;EQDQ01  00002PRCP06
0198832420999992004012600004-12567-041383FM-12+042799999V0202301N001510042019N0020001N1+02521+02001101141ADDAA106000091GF106991051071004501081001KA1240M+03141MA1999999096251MD1999999-0011REMSYN088AAXX  26004 83242 32495 62303 10252 20200 39625 40114 85780 333 10314 29070 55078 59001;EQDQ01  00002PRCP06
0190832420999992004012612004-12567-041383FM-12+042799999V0201801N002610042019N0100001N1+02401+01971101341ADDAY151061AY221061GF106991061071004501081001KA1240N+02051MA1999999096431MD1999999+0011MW1031REMSYN088AAXX  26124 83242 21497 61805 10240 20197 39643 40134 70352 86780 333 20205 58001 69924;
0167832420999992004012618004-12567-041383FM-12+042799999V0201401N002110450019N0100001N1+03031+01911100841ADDAA106000091GF106991041051004501061001MA1999999095991MD1999999+0011REMSYN070AAXX  26184 83242 32497 61404 10303 20191 39599 40084 84560 333 58001;EQDQ01  00002PRCP06
0198832420999992004012700004-12567-041383FM-12+042799999V0201801N000512200019N0020001N1+02601+02061101091ADDAA106000091GF101991011001022501051001KA1240M+03221MA1999999096201MD1999999-0051REMSYN088AAXX  27004 83242 32895 11801 10260 20206 39620 40109 81050 333 10322 29069 55082 59005;EQDQ01  00002PRCP06
0186832420999992004012712004-12567-041383FM-12+042799999V0201801N002110042019N0100001N1+02421+01991101341ADDAA106000091GF107991071071004501001001KA1240N+02161MA1999999096441MD1999999+0011REMSYN076AAXX  27124 83242 32497 71804 10242 20199 39644 40134 87700 333 20216 58001;EQDQ01  00002PRCP06
0167832420999992004012718004-12567-041383FM-12+042799999V0201401N003110450019N0100001N1+03041+02001100921ADDAA106000091GF106991041041004501061001MA1999999096081MD1999999+0081REMSYN070AAXX  27184 83242 32497 61406 10304 20200 39608 40092 84460 333 58008;EQDQ01  00002PRCP06
0226832420999992004012800004-12567-041383FM-12+042799999V0201801N001010042019N0020001N1+02561+02151101161ADDAA106000091AY151061AY221061GF108991081071004501999999KA1240M+03141MA1999999096271MD1999999+0071MW1031REMSYN094AAXX  28004 83242 31495 81802 10256 20215 39627 40116 70352 887// 333 10314 29072 55081 58007;EQDQ01  00002PRCP06
0190832420999992004012812004-12567-041383FM-12+042799999V0201801N001510450019N0100001N1+02271+02071101371ADDAY161061AY221061GF106991041071004501041001KA1240N+02031MA1999999096451MD1999999+0011MW1031REMSYN088AAXX  28124 83242 21497 61803 10227 20207 39645 40137 70362 84740 333 20203 58001 60014;
0167832420999992004012818004-12567-041383FM-12+042799999V0201801N002110042019N0100001N1+03041+01911100991ADDAA106000091GF106991051071004501061001MA1999999096141MD1999999+0061REMSYN070AAXX  28184 83242 32497 61804 10304 20191 39614 40099 85760 333 58006;EQDQ01  00002PRCP06
0198832420999992004012900004-12567-041383FM-12+042799999V0201401N000510042019N0020001N1+02581+01991101211ADDAA106000091GF107991061071004501081001KA1240M+03161MA1999999096301MD1999999+0031REMSYN088AAXX  29004 83242 32495 71401 10258 20199 39630 40121 86780 333 10316 29070 55079 58003;EQDQ01  00002PRCP06
0190832420999992004012912004-12567-041383FM-12+042799999V0201401N001510450019N0100001N1+02281+02111101451ADDAY161061AY221061GF106991041071004501041001KA1240N+02071MA1999999096541MD1999999+0091MW1031REMSYN088AAXX  29124 83242 21497 61403 10228 20211 39654 40145 70362 84740 333 20207 58009 60024;
0167832420999992004012918004-12567-041383FM-12+042799999V0201801N001510042019N0100001N1+02961+01991101031ADDAA106000091GF106991051051004501031011MA1999999096171MD1999999+0031REMSYN070AAXX  29184 83242 32497 61803 10296 20199 39617 40103 85531 333 58003;EQDQ01  00002PRCP06
0198832420999992004013000004-12567-041383FM-12+042799999V0201401N001510042019N0020001N1+02561+01881101351ADDAA106000091GF107991061071004501081001KA1240M+03101MA1999999096431MD1999999+0131REMSYN088AAXX  30004 83242 32495 71403 10256 20188 39643 40135 86780 333 10310 29070 55085 58013;EQDQ01  00002PRCP06
0190832420999992004013012004-12567-041383FM-12+042799999V0201801N000510042019N0040001N1+02401+01991101401ADDAY151061AY221061GF107991061071004501031001KA1240N+02071MA1999999096501MD1999999-0041MW1151REMSYN088AAXX  30124 83242 21496 71801 10240 20199 39650 40140 71552 86730 333 20207 59004 69934;
0171832420999992004013018004-12567-041383FM-12+042799999V0200501N001010450019N0100001N1+03101+02061100891ADDAY151061AY221061GF106991041051004501061001MA1999999096051MD1999999-0121MW1021REMSYN082AAXX  30184 83242 21497 60502 10310 20206 39605 40089 70252 84560 333 59012 69941;
0202832420999992004013100004-12567-041383FM-12+042799999V0202701N003610042019N0010001N1+02201+02081101321ADDAY181061AY221061GF108991081071004501999999KA1240M+03241MA1999999096381MD1999999-0051MW1601REMSYN100AAXX  31004 83242 21494 82707 10220 20208 39638 40132 76082 887// 333 10324 29080 55072 59005 60191;
0190832420999992004013112004-12567-041383FM-12+042799999V0201401N001510042019N0100001N1+02281+02011101601ADDAY161061AY221061GF108991081071004501999999KA1240N+01871MA1999999096641MD1999999+0141MW1031REMSYN088AAXX  31124 83242 21497 81403 10228 20201 39664 40160 70362 887// 333 20187 58014 60464;
0171832420999992004013118004-12567-041383FM-12+042799999V0201801N001510042019N0100001N1+02461+02071101311ADDAY151061AY221061GF108991081071004501999999MA1999999096361MD1999999+0311MW1031REMSYN082AAXX  31184 83242 21497 81803 10246 20207 39636 40131 70352 887// 333 58031 69901;
0190832420999992004020112004-12567-041383FM-12+042799999V0201801N000510042019N0100001N1+02301+02071101671ADDAY151061AY221061GF107991061071004501061001KA1240N+02031MA1999999096711MD1999999+0071MW1031REMSYN088AAXX  01124 83242 21497 71801 10230 20207 39671 40167 70352 86760 333 20203 58007 60024;
0167832420999992004020118004-12567-041383FM-12+042799999V0201801N001010042019N0100001N1+02661+02041101281ADDAA106000091GF106991051071004501051001MA1999999096361MD1999999+0001REMSYN070AAXX  01184 83242 32497 61802 10266 20204 39636 40128 85750 333 58000;EQDQ01  00002PRCP06
0198832420999992004020200004-12567-041383FM-12+042799999V0200501N000510042019N0020001N1+02391+02091101331ADDAA106000091GF107991061071004501031001KA1240M+02881MA1999999096401MD1999999-0171REMSYN088AAXX  02004 83242 32495 70501 10239 20209 39640 40133 86730 333 10288 29080 55027 59017;EQDQ01  00002PRCP06
0186832420999992004020212004-12567-041383FM-12+042799999V0201401N002110042019N0100001N1+02471+02011101361ADDAA106000091GF107991061071004501041001KA1240N+02071MA1999999096441MD1999999-0271REMSYN076AAXX  02124 83242 32497 71404 10247 20201 39644 40136 86740 333 20207 59027;EQDQ01  00002PRCP06
0171832420999992004020218004-12567-041383FM-12+042799999V0201401N002110042019N0020001N1+02321+02201101111ADDAY161061AY221061GF108991081071004501999999MA1999999096181MD1999999-0181MW1631REMSYN082AAXX  02184 83242 21495 81404 10232 20220 39618 40111 76362 887// 333 59018 60121;
0202832420999992004020300004-12567-041383FM-12+042799999V0201801N000510042019N0010001N1+02241+02151101381ADDAY161061AY221061GF108991081071004501999999KA1240M+02581MA1999999096451MD1999999+0051MW1101REMSYN100AAXX  03004 83242 21494 81801 10224 20215 39645 40138 71062 887// 333 10258 29090 55009 58005 60021;
0162832420999992004020312004-12567-041383FM-12+042799999V0201401N000510042019N0100001N1+02381+02031101431ADDGF108991081071004501999999KA1240N+01971MA1999999096481MD1999999+0041REMSYN082AAXX  03124 83242 22497 81401 10238 20203 39648 40143 887// 333 20197 58004 60144;
0167832420999992004020318004-12567-041383FM-12+042799999V0201401N002610042019N0100001N1+02881+02001101001ADDAA106000091GF106991051071004501061001MA1999999096121MD1999999-0061REMSYN070AAXX  03184 83242 32497 61405 10288 20200 39612 40100 85760 333 59006;EQDQ01  00002PRCP06
0198832420999992004020400004-12567-041383FM-12+042799999V0209999C000010042019N0020001N1+02421+02051101151ADDAA106000091GF106991051071004501051001KA1240M+02981MA1999999096241MD1999999-0211REMSYN088AAXX  04004 83242 32495 60000 10242 20205 39624 40115 85750 333 10298 29075 55044 59021;EQDQ01  00002PRCP06
0190832420999992004020412004-12567-041383FM-12+042799999V0201801N002610042019N0100001N1+02451+01971101491ADDAY151061AY221061GF107991061071004501061001KA1240N+02151MA1999999096571MD1999999+0091MW1031REMSYN088AAXX  04124 83242 21497 71805 10245 20197 39657 40149 70352 86760 333 20215 58009 69914;
0179832420999992004020418004-12567-041383FM-12+042799999V0201801N001510042019N0040001N1+02741+01971101071ADDAA106000091GF106991051071004501031001MA1999999096181MD1999999+0051MW1151REMSYN076AAXX  04184 83242 31496 61803 10274 20197 39618 40107 715// 85730 333 58005;EQDQ01  00002PRCP06
0198832420999992004020500004-12567-041383FM-12+042799999V0209999C000010042019N0020001N1+02431+02111101141ADDAA106000091GF105991051051004501001001KA1240M+02931MA1999999096341MD1999999+0001REMSYN088AAXX  05004 83242 32495 50000 10243 20211 39634 40114 85500 333 10293 29075 55047 58000;EQDQ01  00002PRCP06
0186832420999992004020512004-12567-041383FM-12+042799999V0201401N001010042019N0100001N1+02461+01971101361ADDAA106000091GF107991061071004501031001KA1240N+02131MA1999999096451MD1999999-0121REMSYN076AAXX  05124 83242 32497 71402 10246 20197 39645 40136 86730 333 20213 59012;EQDQ01  00002PRCP06
0167832420999992004020518004-12567-041383FM-12+042799999V0201801N002112200019N0100001N1+03041+01751100831ADDAA106000091GF104991031041004501031001MA1999999095981MD1999999-0201REMSYN070AAXX  05184 83242 32497 41804 10304 20175 39598 40083 83430 333 59020;EQDQ01  00002PRCP06
0198832420999992004020600004-12567-041383FM-12+042799999V0201401N001510042019N0020001N1+02561+02111101071ADDAA106000091GF107991061071004501041001KA1240M+03161MA1999999096181MD1999999-0061REMSYN088AAXX  06004 83242 32495 71403 10256 20211 39618 40107 86740 333 10316 29068 55079 59006;EQDQ01  00002PRCP06
0190832420999992004020612004-12567-041383FM-12+042799999V0202301N001010042019N0100001N1+02411+02111101181ADDAY151061AY221061GF107991071071004501001001KA1240N+02151MA1999999096291MD1999999-0161MW1031REMSYN088AAXX  06124 83242 21497 72302 10241 20211 39629 40118 70352 87700 333 20215 59016 69924;
0179832420999992004020618004-12567-041383FM-12+042799999V0201801N001510450019N0040001N1+03141+01971100641ADDAA106000091GF106991031011004501051041MA1999999095801MD1999999-0181MW1051REMSYN076AAXX  06184 83242 31496 61803 10314 20197 39580 40064 705// 83154 333 59018;EQDQ01  00002PRCP06
0202832420999992004020700004-12567-041383FM-12+042799999V0203201N005710042019N0005001N1+02341+02201100981ADDAY161061AY221061GF108991081071004501999999KA1240M+03181MA1999999096061MD1999999-0121MW1291REMSYN100AAXX  07004 83242 21493 83211 10234 20220 39606 40098 72962 887// 333 10318 29079 55067 59012 60231;
0190832420999992004020712004-12567-041383FM-12+042799999V0200501N001010450019N0100001N1+02511+02191100981ADDAY191061AY261061GF105991031021004501041011KA1240N+02111MA1999999096081MD1999999-0211MW1021REMSYN088AAXX  07124 83242 21497 50502 10251 20219 39608 40098 70296 83241 333 20211 59021 60314;
0179832420999992004020718004-12567-041383FM-12+042799999V0200901N002110450019N0040001N1+03301+01871100591ADDAA106000091GF106991041071004501061081MA1999999095691MD1999999-0111MW1151REMSYN076AAXX  07184 83242 31496 60904 10330 20187 39569 40059 715// 84768 333 59011;EQDQ01  00002PRCP06
0210832420999992004020800004-12567-041383FM-12+042799999V0201801N001510042019N0020001N1+02521+02091101041ADDAA106000091GF108991081071004501999999KA1240M+03341MA1999999096151MD1999999+0091MW1171REMSYN094AAXX  08004 83242 31495 81803 10252 20209 39615 40104 717// 887// 333 10334 29070 55070 58009;EQDQ01  00002PRCP06
0190832420999992004020812004-12567-041383FM-12+042799999V0201401N001010042019N0100001N1+02401+02231101221ADDAY161061AY221061GF106991051071004501061001KA1240N+02131MA1999999096321MD1999999+0241MW1031REMSYN088AAXX  08124 83242 21497 61402 10240 20223 39632 40122 70362 85760 333 20213 58024 69944;
0171832420999992004020818004-12567-041383FM-12+042799999V0202301N000510042019N0020001N1+02301+02181101051ADDAY191061AY261061GF108991081071004501999999MA1999999096131MD1999999+0441MW1531REMSYN082AAXX  08184 83242 21495 82301 10230 20218 39613 40105 75396 887// 333 58044 60051;
0202832420999992004020900004-12567-041383FM-12+042799999V0203601N001010042019N0020001N1+02241+02011101331ADDAY161061AY221061GF108991081071004501999999KA1240M+02881MA1999999096391MD1999999+0241MW1031REMSYN100AAXX  09004 83242 21495 83602 10224 20201 39639 40133 70362 887// 333 10288 29089 55014 58024 60071;
0190832420999992004020912004-12567-041383FM-12+042799999V0209999C000010042019N0100001N1+02261+02091101511ADDAY161061AY251061GF108991081071004501999999KA1240N+02011MA1999999096551MD1999999+0231MW1031REMSYN088AAXX  09124 83242 21497 80000 10226 20209 39655 40151 70365 887// 333 20201 58023 60134;
0167832420999992004020918004-12567-041383FM-12+042799999V0201801N002110450019N0100001N1+02901+01901101151ADDAA106000091GF106991041071004501031001MA1999999096191MD1999999+0061REMSYN070AAXX  09184 83242 32497 61804 10290 20190 39619 40115 84730 333 58006;EQDQ01  00002PRCP06
0198832420999992004021000004-12567-041383FM-12+042799999V0203601N000510042019N0020001N1+02441+02211101181ADDAA106000091GF108991081071004501999999KA1240M+02981MA1999999096261MD1999999-0131REMSYN088AAXX  10004 83242 31495 83601 10244 20221 39626 40118 887// 333 10298 29080 55020 59013;EQDQ01  00002PRCP06
0190832420999992004021012004-12567-041383FM-12+042799999V0202301N001010042019N0040001N1+02281+02141101401ADDAY161061AY221061GF108991081071004501999999KA1240N+02051MA1999999096471MD1999999-0081MW1501REMSYN088AAXX  10124 83242 21496 82302 10228 20214 39647 40140 75062 887// 333 20205 59008 69994;
0160832420999992004021018004-12567-041383FM-12+042799999V0201801N001510042019N0040001N1+02841+01931100961ADDAA106000021GF107991071071004501001001MA1999999096091MD1999999-0011MW1151REMSYN076AAXX  10184 83242 31496 71803 10284 20193 39609 40096 715// 87700 333 59001;
0198832420999992004021100004-12567-041383FM-12+042799999V0201801N000512200019N0020001N1+02501+02131101311ADDAA106000091GF103991031071004501001001KA1240M+03001MA1999999096391MD1999999+0131REMSYN088AAXX  11004 83242 32495 31801 10250 20213 39639 40131 83700 333 10300 29078 55015 58013;EQDQ01  00002PRCP06
0186832420999992004021112004-12567-041383FM-12+042799999V0201401N000510042019N0100001N1+02421+01991101491ADDAA106000091GF106991051071004501031001KA1240N+02051MA1999999096571MD1999999+0101REMSYN076AAXX  11124 83242 32497 61401 10242 20199 39657 40149 85730 333 20205 58010;EQDQ01  00002PRCP06
0179832420999992004021118004-12567-041383FM-12+042799999V0201801N001010450019N0040001N1+02981+01831101041ADDAA106000091GF105991031051004501031041MA1999999096181MD1999999+0091MW1051REMSYN076AAXX  11184 83242 31496 51802 10298 20183 39618 40104 705// 83534 333 58009;EQDQ01  00002PRCP06
0198832420999992004021200004-12567-041383FM-12+042799999V0202301N000512200019N0020001N1+02501+01981101341ADDAA106000091GF103991031051004501001001KA1240M+03021MA1999999096431MD1999999+0041REMSYN088AAXX  12004 83242 32495 32301 10250 20198 39643 40134 83500 333 10302 29068 55088 58004;EQDQ01  00002PRCP06
0186832420999992004021212004-12567-041383FM-12+042799999V0201801N001510042019N0100001N1+02501+02051101541ADDAA106000091GF107991061071004501041001KA1240N+02131MA1999999096631MD1999999+0061REMSYN076AAXX  12124 83242 32497 71803 10250 20205 39663 40154 86740 333 20213 58006;EQDQ01  00002PRCP06
0179832420999992004021218004-12567-041383FM-12+042799999V0201401N002112200019N0040001N1+03041+01971101111ADDAA106000091GF104991031041004501061001MA1999999096251MD1999999+0071MW1051REMSYN076AAXX  12184 83242 31496 41404 10304 20197 39625 40111 705// 83460 333 58007;EQDQ01  00002PRCP06
0198832420999992004021300004-12567-041383FM-12+042799999V0203601N000512200019N0020001N1+02521+01891101371ADDAA106000091GF103991031051004501001001KA1240M+03101MA1999999096471MD1999999+0041REMSYN088AAXX  13004 83242 32495 33601 10252 20189 39647 40137 83500 333 10310 29066 55087 58004;EQDQ01  00002PRCP06
0186832420999992004021312004-12567-041383FM-12+042799999V0202301N001510042019N0100001N1+02361+02051101611ADDAA106000091GF106991051071004501061001KA1240N+02011MA1999999096691MD1999999+0061REMSYN076AAXX  13124 83242 32497 62303 10236 20205 39669 40161 85760 333 20201 58006;EQDQ01  00002PRCP06
0179832420999992004021318004-12567-041383FM-12+042799999V0201801N001510450019N0040001N1+03001+01881101131ADDAA106000091GF106991041041004501051081MA1999999096271MD1999999+0021MW1051REMSYN076AAXX  13184 83242 31496 61803 10300 20188 39627 40113 705// 84458 333 58002;EQDQ01  00002PRCP06
0202832420999992004021400004-12567-041383FM-12+042799999V0201801N003110042019N0020001N1+02521+02091101311ADDAY141061AY211061GF108991081071004501999999KA1240M+03081MA1999999096401MD1999999-0071MW1501REMSYN100AAXX  14004 83242 21495 81806 10252 20209 39640 40131 75041 887// 333 10308 29072 55081 59007 69901;
0190832420999992004021412004-12567-041383FM-12+042799999V0201801N001510042019N0100001N1+02421+01931101531ADDAY151061AY221061GF106991051071004501031001KA1240N+01991MA1999999096621MD1999999-0071MW1031REMSYN088AAXX  14124 83242 21497 61803 10242 20193 39662 40153 70352 85730 333 20199 59007 69934;
0179832420999992004021418004-12567-041383FM-12+042799999V0201801N001510450019N0040001N1+02941+01851100821ADDAA106000091GF105991031051004501091001MA1999999096061MD1999999-0211MW1051REMSYN076AAXX  14184 83242 31496 51803 10294 20185 39606 40082 705// 83590 333 59021;EQDQ01  00002PRCP06
0198832420999992004021500004-12567-041383FM-12+042799999V0209999C000012200019N0020001N1+02441+01971101161ADDAA106000091GF102991021011004501001001KA1240M+03041MA1999999096261MD1999999-0141REMSYN088AAXX  15004 83242 32495 20000 10244 20197 39626 40116 82100 333 10304 29069 55095 59014;EQDQ01  00002PRCP06
0186832420999992004021512004-12567-041383FM-12+042799999V0201401N000510450019N0100001N1+02421+02011101311ADDAA106000091GF106991041071004501041001KA1240N+02091MA1999999096481MD1999999-0141REMSYN076AAXX  15124 83242 32497 61401 10242 20201 39648 40131 84740 333 20209 59014;EQDQ01  00002PRCP06
0179832420999992004021518004-12567-041383FM-12+042799999V0201401N001512200019N0040001N1+03121+01791100851ADDAA106000091GF104991021041004501041061MA1999999096001MD1999999-0061MW1051REMSYN076AAXX  15184 83242 31496 41403 10312 20179 39600 40085 705// 82446 333 59006;EQDQ01  00002PRCP06
0208832420999992004021600004-12567-041383FM-12+042799999V0202301N001012200019N0020001N1+02661+02041101121ADDAA106000091GA1001+999999999GF100991001001999999001001KA1240M+03221MA1999999096241MD1999999-0021REMSYN082AAXX  16004 83242 32995 02302 10266 20204 39624 40112 333 10322 29065 55077 59002;EQDQ01  00002PRCP06
0190832420999992004021612004-12567-041383FM-12+042799999V0200501N001010042019N0100001N1+02521+02311101341ADDAY161061AY201061GF106991051071004501041001KA1240N+02151MA1999999096461MD1999999-0021MW1031REMSYN088AAXX  16124 83242 21497 60502 10252 20231 39646 40134 70360 85740 333 20215 59002 60114;
0179832420999992004021618004-12567-041383FM-12+042799999V0201801N001010042019N0040001N1+03101+02151100761ADDAA106000091GF106991051061004501081001MA1999999095941MD1999999-0061MW1151REMSYN076AAXX  16184 83242 31496 61802 10310 20215 39594 40076 715// 85680 333 59006;EQDQ01  00002PRCP06
0208832420999992004021700004-12567-041383FM-12+042799999V0209999C000012200019N0020001N1+02621+02291101131ADDAA106000091GA1001+999999999GF100991001001999999001001KA1240M+03161MA1999999096251MD1999999+0011REMSYN082AAXX  17004 83242 32995 00000 10262 20229 39625 40113 333 10316 29077 55045 58001;EQDQ01  00002PRCP06
0198832420999992004021712004-12567-041383FM-12+042799999V0201801N002110042019N0040001N1+02461+02211101451ADDAA106000091GF108991081071004501999999KA1240N+02321MA1999999096551MD1999999+0091MW1101REMSYN082AAXX  17124 83242 31496 81804 10246 20221 39655 40145 710// 887// 333 20232 58009;EQDQ01  00002PRCP06
0179832420999992004021718004-12567-041383FM-12+042799999V0201401N001510042019N0040001N1+02941+02081101091ADDAA106000091GF106991051071004501041001MA1999999096241MD1999999+0301MW1051REMSYN076AAXX  17184 83242 31496 61403 10294 20208 39624 40109 705// 85740 333 58030;EQDQ01  00002PRCP06
0198832420999992004021800004-12567-041383FM-12+042799999V0201801N000510042019N0020001N1+02561+02231101321ADDAA106000091GF108991081071004501999999KA1240M+02981MA1999999096421MD1999999+0171REMSYN088AAXX  18004 83242 32495 81801 10256 20223 39642 40132 887// 333 10298 29078 55011 58017;EQDQ01  00002PRCP06
0198832420999992004021812004-12567-041383FM-12+042799999V0201401N001010042019N0040001N1+02521+02131101481ADDAA106000091GF108991061071004501051061KA1240N+02261MA1999999096581MD1999999+0031MW1051REMSYN082AAXX  18124 83242 31496 81402 10252 20213 39658 40148 705// 86756 333 20226 58003;EQDQ01  00002PRCP06
0198832420999992004021912004-12567-041383FM-12+042799999V0201801N001010042019N0040001N1+02361+01991101351ADDAA106000091GF108991081071004501999999KA1240N+02151MA1999999096451MD1999999-0131MW1101REMSYN082AAXX  19124 83242 31496 81802 10236 20199 39645 40135 710// 887// 333 20215 59013;EQDQ01  00002PRCP06
0179832420999992004021918004-12567-041383FM-12+042799999V0200901N002110450019N0040001N1+03001+01811100821ADDAA106000091GF106991041061004501061021MA1999999095981MD1999999-0051MW1051REMSYN076AAXX  19184 83242 31496 60904 10300 20181 39598 40082 705// 84662 333 59005;EQDQ01  00002PRCP06
0208832420999992004022000004-12567-041383FM-12+042799999V0209999C000012200019N0020001N1+02521+02091101031ADDAA106000091GA1001+999999999GF100991001001999999001001KA1240M+03101MA1999999096141MD1999999-0131REMSYN082AAXX  20004 83242 32995 00000 10252 20209 39614 40103 333 10310 29071 55054 59013;EQDQ01  00002PRCP06
0198832420999992004022012004-12567-041383FM-12+042799999V0201801N000510042019N0040001N1+02441+01971101291ADDAA106000091GF106991051061004501041001KA1240N+02111MA1999999096391MD1999999-0061MW1051REMSYN082AAXX  20124 83242 31496 61801 10244 20197 39639 40129 705// 85640 333 20211 59006;EQDQ01  00002PRCP06
0179832420999992004022018004-12567-041383FM-12+042799999V0201401N002110042019N0040001N1+02981+01861100851ADDAA106000091GF108991051051004501031031MA1999999096001MD1999999+0021MW1051REMSYN076AAXX  20184 83242 31496 81404 10298 20186 39600 40085 705// 85533 333 58002;EQDQ01  00002PRCP06
0198832420999992004022100004-12567-041383FM-12+042799999V0201801N001510042019N0020001N1+02501+02051101241ADDAA106000091GF108991081071004501999999KA1240M+03021MA1999999096591MD1999999+0201REMSYN088AAXX  21004 83242 32495 81803 10250 20205 39659 40124 887// 333 10302 29068 55061 58020;EQDQ01  00002PRCP06
0190832420999992004022112004-12567-041383FM-12+042799999V0201401N001510042019N0100001N1+02341+02111101441ADDAY161061AY221061GF106991051071004501041001KA1240N+01991MA1999999096521MD1999999+0131MW1031REMSYN088AAXX  21124 83242 21497 61403 10234 20211 39652 40144 70362 85740 333 20199 58013 60024;
0171832420999992004022118004-12567-041383FM-12+042799999V0202701N001010042019N0040001N1+02781+02211101101ADDAY151061AY221061GF106991051071004501061001MA1999999096211MD1999999+0201MW1051REMSYN082AAXX  21184 83242 21496 62702 10278 20221 39621 40110 70552 85760 333 58020 69921;
0190832420999992004022212004-12567-041383FM-12+042799999V0203601N001010042019N0100001N1+02341+02051101531ADDAY151061AY221061GF107991051071004501041001KA1240N+02131MA1999999096601MD1999999+0081MW1501REMSYN088AAXX  22124 83242 21497 73602 10234 20205 39660 40153 75052 85740 333 20213 58008 69934;
0148832420999992004022218004-12567-041383FM-12+042799999V0201401N001510450019N0100001N1+03001+02051101041ADDAA106000021GF106991041071004501051001MA1999999096181MD1999999-0031REMSYN070AAXX  22184 83242 32497 61403 10300 20205 39618 40104 84750 333 59003;
0190832420999992004022312004-12567-041383FM-12+042799999V0201401N001510042019N0040001N1+02371+02051101441ADDAY161061AY211061GF108991081071004501999999KA1240N+02151MA1999999096531MD1999999-0071MW1501REMSYN088AAXX  23124 83242 21496 81403 10237 20205 39653 40144 75061 887// 333 20215 59007 69984;
0148832420999992004022318004-12567-041383FM-12+042799999V0201401N001512200019N0100001N1+03081+01881100971ADDAA106000021GF104991041021004501001001MA1999999096131MD1999999-0051REMSYN070AAXX  23184 83242 32497 41403 10308 20188 39613 40097 84200 333 59005;
0208832420999992004022400004-12567-041383FM-12+042799999V0209999C000012200019N0020001N1+02501+02051101171ADDAA106000091GA1001+999999999GF100991001001999999001001KA1240M+03161MA1999999096271MD1999999-0031REMSYN082AAXX  24004 83242 32995 00000 10250 20205 39627 40117 333 10316 29071 55081 59003;EQDQ01  00002PRCP06
0186832420999992004022412004-12567-041383FM-12+042799999V0200901N000510042019N0040001N1+02401+01991101431ADDAA106000091GF107991061071004501081001KA1240N+02051MA1999999096521MD1999999-0011REMSYN076AAXX  24124 83242 32496 70901 10240 20199 39652 40143 86780 333 20205 59001;EQDQ01  00002PRCP06
0167832420999992004022418004-12567-041383FM-12+042799999V0201401N001010450019N0100001N1+03061+01991100931ADDAA106000091GF105991041041004501021001MA1999999096081MD1999999-0051REMSYN070AAXX  24184 83242 32497 51402 10306 20199 39608 40093 84420 333 59005;EQDQ01  00002PRCP06
0186832420999992004022512004-12567-041383FM-12+042799999V0201401N001510042019N0100001N1+02511+02111101421ADDAA106000091GF107991061071004501081001KA1240N+02091MA1999999096521MD1999999+0001REMSYN076AAXX  25124 83242 32497 71403 10251 20211 39652 40142 86780 333 20209 58000;EQDQ01  00002PRCP06
0167832420999992004022518004-12567-041383FM-12+042799999V0201401N002110042019N0100001N1+03121+01921100941ADDAA106000091GF106991051031004501041011MA1999999096101MD1999999+0021REMSYN070AAXX  25184 83242 32497 61404 10312 20192 39610 40094 85341 333 58002;EQDQ01  00002PRCP06
0198832420999992004022600004-12567-041383FM-12+042799999V0200901N000510042019N0020001N1+02601+02081101191ADDAA106000091GF106991061061004501001001KA1240M+03221MA1999999096311MD1999999+0121REMSYN088AAXX  26004 83242 32495 60901 10260 20208 39631 40119 86600 333 10322 29068 55073 58012;EQDQ01  00002PRCP06
0186832420999992004022612004-12567-041383FM-12+042799999V0201401N001510042019N0100001N1+02511+02131101501ADDAA106000091GF107991061071004501031001KA1240N+02301MA1999999096601MD1999999+0061REMSYN076AAXX  26124 83242 32497 71403 10251 20213 39660 40150 86730 333 20230 58006;EQDQ01  00002PRCP06
0179832420999992004022618004-12567-041383FM-12+042799999V0201801N001012200019N0040001N1+03101+02001100881ADDAA106000091GF104991021021004501041021MA1999999096061MD1999999-0041MW1051REMSYN076AAXX  26184 83242 31496 41802 10310 20200 39606 40088 705// 82242 333 59004;EQDQ01  00002PRCP06
0198832420999992004022700004-12567-041383FM-12+042799999V0200501N001510042019N0020001N1+02581+01901101291ADDAA106000091GF108991081061004501999999KA1240M+03181MA1999999096401MD1999999+0091REMSYN088AAXX  27004 83242 32495 80503 10258 20190 39640 40129 886// 333 10318 29066 55086 58009;EQDQ01  00002PRCP06
0186832420999992004022712004-12567-041383FM-12+042799999V0201801N000510450019N0100001N1+02501+01981101461ADDAA106000091GF106991041051004501031001KA1240N+02261MA1999999096551MD1999999-0051REMSYN076AAXX  27124 83242 32497 61801 10250 20198 39655 40146 84530 333 20226 59005;EQDQ01  00002PRCP06
0179832420999992004022718004-12567-041383FM-12+042799999V0201801N001012200019N0040001N1+03221+01691100751ADDAA106000091GF104991021031004501041021MA1999999095941MD1999999-0121MW1051REMSYN076AAXX  27184 83242 31496 41802 10322 20169 39594 40075 705// 82342 333 59012;EQDQ01  00002PRCP06
0202832420999992004022800004-12567-041383FM-12+042799999V0203601N001010042019N0020001N1+02441+02271101121ADDAY191061AY251061GF108991081071004501999999KA1240M+03301MA1999999096221MD1999999-0181MW1131REMSYN100AAXX  28004 83242 21495 83602 10244 20227 39622 40112 71395 887// 333 10330 29073 55083 59018 69971;
0162832420999992004022812004-12567-041383FM-12+042799999V0200501N001510042019N0100001N1+02641+02161101091ADDGF106991051071004501061001KA1240N+02111MA1999999096201MD1999999-0351REMSYN082AAXX  28124 83242 22497 60503 10264 20216 39620 40109 85760 333 20211 59035 69974;
0179832420999992004022818004-12567-041383FM-12+042799999V0203201N000510042019N0040001N1+03371+02061100421ADDAA106000091GF108991081071004501999999MA1999999095641MD1999999-0301MW1171REMSYN076AAXX  28184 83242 31496 83201 10337 20206 39564 40042 717// 887// 333 59030;EQDQ01  00002PRCP06
0202832420999992004022900004-12567-041383FM-12+042799999V0202701N001010042019N0010001N1+02151+02041101091ADDAY191061AY261061GF108991081071004501999999KA1240M+03441MA1999999096181MD1999999-0041MW1611REMSYN100AAXX  29004 83242 21494 82702 10215 20204 39618 40109 76196 887// 333 10344 29076 55057 59004 60031;
0190832420999992004022912004-12567-041383FM-12+042799999V0203601N000510042019N0040001N1+02261+02031101511ADDAY161061AY221061GF108991081071004501999999KA1240N+02011MA1999999096541MD1999999+0341MW1101REMSYN088AAXX  29124 83242 21496 83601 10226 20203 39654 40151 71062 887// 333 20201 58034 60044;
0167832420999992004022918004-12567-041383FM-12+042799999V0201801N001510450019N0100001N1+02901+01901100941ADDAA106000091GF106991041061004501061021MA1999999096051MD1999999+0411REMSYN070AAXX  29184 83242 32497 61803 10290 20190 39605 40094 84662 333 58041;EQDQ01  00002PRCP06
0210832420999992004030100004-12567-041383FM-12+042799999V0209999C000010042019N0020001N1+02441+02151101211ADDAA106000091GF108991081071004501999999KA1240M+02921MA1999999096291MD1999999+0111MW1131REMSYN094AAXX  01004 83242 31495 80000 10244 20215 39629 40121 713// 887// 333 10292 29078 55036 58011;EQDQ01  00002PRCP06
0186832420999992004030112004-12567-041383FM-12+042799999V0201401N001010042019N0100001N1+02541+02191101301ADDAA106000091GF107991061071004501031001KA1240N+02111MA1999999096401MD1999999-0141REMSYN076AAXX  01124 83242 32497 71402 10254 20219 39640 40130 86730 333 20211 59014;EQDQ01  00002PRCP06
0155832420999992004030118004-12567-041383FM-12+042799999V0201401N001010450019N0040001N1+03161+01791100901ADDAA106000091GF106991041071004501061081MA1999999096061MW1151REMSYN066AAXX  01184 83242 31496 61402 10316 20179 39606 40090 715// 84768;EQDQ01  00002PRCP06
0198832420999992004030200004-12567-041383FM-12+042799999V0202701N000510042019N0020001N1+02561+02251101221ADDAA106000091GF108991081071004501999999KA1240M+03201MA1999999096341MD1999999+0051REMSYN088AAXX  02004 83242 32495 82701 10256 20225 39634 40122 887// 333 10320 29073 55055 58005;EQDQ01  00002PRCP06
0190832420999992004030212004-12567-041383FM-12+042799999V0201401N001510042019N0040001N1+02341+02201101391ADDAY161061AY221061GF108991081071004501999999KA1240N+02131MA1999999096481MD1999999+0081MW1101REMSYN088AAXX  02124 83242 21496 81403 10234 20220 39648 40139 71062 887// 333 20213 58008 60034;
0179832420999992004030218004-12567-041383FM-12+042799999V0201801N002110042019N0040001N1+03001+02031100931ADDAA106000091GF106991051071004501031001MA1999999096081MD1999999+0021MW1151REMSYN076AAXX  02184 83242 31496 61804 10300 20203 39608 40093 715// 85730 333 58002;EQDQ01  00002PRCP06
0198832420999992004030300004-12567-041383FM-12+042799999V0200501N000510210019N0020001N1+02501+02191101201ADDAA106000091GF107991071001022501031001KA1240M+03021MA1999999096291MD1999999-0051REMSYN088AAXX  03004 83242 32895 70501 10250 20219 39629 40120 87030 333 10302 29078 55063 59005;EQDQ01  00002PRCP06
0190832420999992004030312004-12567-041383FM-12+042799999V0201801N001510042019N0040001N1+02361+02111101381ADDAY191061AY261061GF108991081071004501999999KA1240N+02111MA1999999096471MD1999999-0011MW1511REMSYN088AAXX  03124 83242 21496 81803 10236 20211 39647 40138 75196 887// 333 20211 59001 60034;
0148832420999992004030318004-12567-041383FM-12+042799999V0200501N001510450019N0100001N1+02841+01961100901ADDAA106000021GF106991041061004501041081MA1999999096031MD1999999-0031REMSYN070AAXX  03184 83242 32497 60503 10284 20196 39603 40090 84648 333 59003;
0198832420999992004030400004-12567-041383FM-12+042799999V0203601N001511050019N0020001N1+02341+02151101111ADDAA106000091GF107991021051004501001021KA1240M+02941MA1999999096191MD1999999-0101REMSYN088AAXX  04004 83242 32495 73603 10234 20215 39619 40111 82502 333 10294 29081 55033 59010;EQDQ01  00002PRCP06
0186832420999992004030412004-12567-041383FM-12+042799999V0202301N000510042019N0100001N1+02481+02051101421ADDAA106000091GF107991061071004501041001KA1240N+02031MA1999999096501MD1999999+0031REMSYN076AAXX  04124 83242 32497 72301 10248 20205 39650 40142 86740 333 20203 58003;EQDQ01  00002PRCP06
0179832420999992004030418004-12567-041383FM-12+042799999V0201801N001510450019N0040001N1+03081+01881100891ADDAA106000091GF106991041071004501031001MA1999999096041MD1999999+0011MW1051REMSYN076AAXX  04184 83242 31496 61803 10308 20188 39604 40089 705// 84730 333 58001;EQDQ01  00002PRCP06
0210832420999992004030500004-12567-041383FM-12+042799999V0200501N001510042019N0020001N1+02481+02151101251ADDAA106000091GF108991081071004501999999KA1240M+03121MA1999999096351MD1999999+0161MW1131REMSYN094AAXX  05004 83242 31495 80503 10248 20215 39635 40125 713// 887// 333 10312 29072 55040 58016;EQDQ01  00002PRCP06
0186832420999992004030512004-12567-041383FM-12+042799999V0201401N002110042019N0100001N1+02461+02011101561ADDAA106000091GF106991051071004501031001KA1240N+02131MA1999999096641MD1999999+0141REMSYN076AAXX  05124 83242 32497 61404 10246 20201 39664 40156 85730 333 20213 58014;EQDQ01  00002PRCP06
0195832420999992004030518004-12567-041383FM-12+042799999V0201401N001010450019N0040001N1+02941+01851101171ADDAA106000091AY151061AY211061GF106991041061004501091061MA1999999096301MD1999999+0261MW1051REMSYN076AAXX  05184 83242 31496 61402 10294 20185 39630 40117 70551 84696 333 58026;EQDQ01  00002PRCP06
0198832420999992004030600004-12567-041383FM-12+042799999V0201801N001010042019N0020001N1+02421+01911101421ADDAA106000091GF107991071071004501001001KA1240M+03061MA1999999096511MD1999999+0161REMSYN088AAXX  06004 83242 32495 71802 10242 20191 39651 40142 87700 333 10306 29068 55075 58016;EQDQ01  00002PRCP06
0190832420999992004030612004-12567-041383FM-12+042799999V0201401N002610042019N0040001N1+02301+02001101611ADDAY151061AY221061GF107991061071004501041001KA1240N+02051MA1999999096661MD1999999+0021MW1501REMSYN088AAXX  06124 83242 21496 71405 10230 20200 39666 40161 75052 86740 333 20205 58002 69914;
0160832420999992004030618004-12567-041383FM-12+042799999V0201801N001510450019N0040001N1+03021+01661101101ADDAA106000021GF105991041061004501021061MA1999999096241MD1999999-0061MW1051REMSYN076AAXX  06184 83242 31496 51803 10302 20166 39624 40110 705// 84626 333 59006;
0198832420999992004030700004-12567-041383FM-12+042799999V0200901N001010042019N0020001N1+02361+01991101361ADDAA106000091GF107991061071004501051001KA1240M+03081MA1999999096431MD1999999-0081REMSYN088AAXX  07004 83242 32495 70902 10236 20199 39643 40136 86750 333 10308 29072 55060 59008;EQDQ01  00002PRCP06
0190832420999992004030712004-12567-041383FM-12+042799999V0201401N002610042019N0040001N1+02321+02131101621ADDAY151061AY221061GF108991081071004501999999KA1240N+02131MA1999999096671MD1999999+0011MW1161REMSYN088AAXX  07124 83242 21496 81405 10232 20213 39667 40162 71652 887// 333 20213 58001 69974;
0171832420999992004030718004-12567-041383FM-12+042799999V0201801N001510042019N0040001N1+02941+01911101101ADDAY151061AY221061GF108991071071004501031001MA1999999096231MD1999999-0011MW1151REMSYN082AAXX  07184 83242 21496 81803 10294 20191 39623 40110 71552 87730 333 59001 69901;
0202832420999992004030800004-12567-041383FM-12+042799999V0202701N001510042019N0010001N1+02201+02151101551ADDAY161061AY221061GF108991081071004501999999KA1240M+03051MA1999999096591MD1999999+0161MW1501REMSYN100AAXX  08004 83242 21494 82703 10220 20215 39659 40155 75062 887// 333 10305 29084 55049 58016 60101;
0190832420999992004030812004-12567-041383FM-12+042799999V0201401N002610042019N0020001N1+02141+02021101721ADDAY161061AY221061GF108991081071004501999999KA1240N+01951MA1999999096731MD1999999+0061MW1511REMSYN088AAXX  08124 83242 21495 81405 10214 20202 39673 40172 75162 887// 333 20195 58006 60174;
0171832420999992004030818004-12567-041383FM-12+042799999V0201801N002610042019N0020001N1+02621+01881101351ADDAY161061AY221061GF108991081071004501999999MA1999999096411MD1999999+0181MW1511REMSYN082AAXX  08184 83242 21495 81805 10262 20188 39641 40135 75162 887// 333 58018 60061;
0179832420999992004030900004-12567-041383FM-12+042799999V0202701N000510042019N0020001N1+02241+02031101531ADDAA106000021GF107991071071004501001001KA1240M+02681MA1999999096561MD1999999-0031REMSYN088AAXX  09004 83242 32495 72701 10224 20203 39656 40153 87700 333 10268 29083 55004 59003;
0190832420999992004030912004-12567-041383FM-12+042799999V0201101N020610042019N0040001N1+02181+02061101651ADDAY161061AY221061GF108991081071004501999999KA1240N+01931MA1999999096671MD1999999-0061MW1101REMSYN088AAXX  09124 83242 21496 81140 10218 20206 39667 40165 71062 887// 333 20193 59006 60074;
0171832420999992004030918004-12567-041383FM-12+042799999V0202301N001510450019N0040001N1+02841+01931101201ADDAY161061AY221061GF106991041051004501041081MA1999999096391MD1999999-0021MW1051REMSYN082AAXX  09184 83242 21496 62303 10284 20193 39639 40120 70562 84548 333 59002 60021;
0198832420999992004031000004-12567-041383FM-12+042799999V0201801N000510042019N0020001N1+02381+02131101581ADDAA106000091GF108991081071004501999999KA1240M+03001MA1999999096631MD1999999+0071REMSYN088AAXX  10004 83242 32495 81801 10238 20213 39663 40158 887// 333 10300 29081 55018 58007;EQDQ01  00002PRCP06
0190832420999992004031012004-12567-041383FM-12+042799999V0201401N002110042019N0100001N1+02441+01951101691ADDAY151061AY221061GF107991061071004501041001KA1240N+02051MA1999999096751MD1999999+0081MW1031REMSYN088AAXX  10124 83242 21497 71404 10244 20195 39675 40169 70352 86740 333 20205 58008 60024;
0167832420999992004031018004-12567-041383FM-12+042799999V0201401N000510450019N0100001N1+02881+01891101361ADDAA106000091GF106991041051004501031031MA1999999096471MD1999999+0081REMSYN070AAXX  10184 83242 32497 61401 10288 20189 39647 40136 84533 333 58008;EQDQ01  00002PRCP06
0198832420999992004031100004-12567-041383FM-12+042799999V0200901N001012200019N0020001N1+02321+02031101391ADDAA106000091GF102991021001022501081001KA1240M+03021MA1999999096471MD1999999-0161REMSYN088AAXX  11004 83242 32895 20902 10232 20203 39647 40139 82080 333 10302 29074 55054 59016;EQDQ01  00002PRCP06
0190832420999992004031112004-12567-041383FM-12+042799999V0201401N000510042019N0100001N1+02401+02091101411ADDAY161061AY211061GF107991061071004501051001KA1240N+01951MA1999999096481MD1999999-0271MW1031REMSYN088AAXX  11124 83242 21497 71401 10240 20209 39648 40141 70361 86750 333 20195 59027 60154;
0179832420999992004031118004-12567-041383FM-12+042799999V0201801N001512200019N0040001N1+03041+01911100841ADDAA106000091GF104991021041004501091061MA1999999096061MD1999999-0331MW1051REMSYN076AAXX  11184 83242 31496 41803 10304 20191 39606 40084 705// 82496 333 59033;EQDQ01  00002PRCP06
0202832420999992004031200004-12567-041383FM-12+042799999V0202701N000510042019N0020001N1+02441+02151101101ADDAY151061AY221061GF107991061071004501011001KA1240M+03121MA1999999096191MD1999999-0281MW1001REMSYN100AAXX  12004 83242 21495 72701 10244 20215 39619 40110 70052 86710 333 10312 29076 55059 59028 69911;
0190832420999992004031212004-12567-041383FM-12+042799999V0202301N001010042019N0040001N1+02451+02191101291ADDAY161061AY221061GF107991061071004501011001KA1240N+02111MA1999999096381MD1999999-0101MW1031REMSYN088AAXX  12124 83242 21496 72302 10245 20219 39638 40129 70362 86710 333 20211 59010 60014;
0179832420999992004031218004-12567-041383FM-12+042799999V0201401N000510450019N0040001N1+03181+02011100701ADDAA106000091GF105991041051004501031001MA1999999095881MD1999999-0181MW1051REMSYN076AAXX  12184 83242 31496 51401 10318 20201 39588 40070 705// 84530 333 59018;EQDQ01  00002PRCP06
0198832420999992004031300004-12567-041383FM-12+042799999V0202701N000510042019N0020001N1+02561+02191101061ADDAA106000091GF107991061051004501081001KA1240M+03261MA1999999096171MD1999999-0021REMSYN088AAXX  13004 83242 32495 72701 10256 20219 39617 40106 86580 333 10326 29074 55069 59002;EQDQ01  00002PRCP06
0190832420999992004031312004-12567-041383FM-12+042799999V0201401N001010042019N0040001N1+02411+02191101321ADDAY151061AY221061GF108991081071004501999999KA1240N+02211MA1999999096421MD1999999+0041MW1101REMSYN088AAXX  13124 83242 21496 81402 10241 20219 39642 40132 71052 887// 333 20221 58004 69994;
0167832420999992004031318004-12567-041383FM-12+042799999V0201401N002112200019N0100001N1+03001+02171100941ADDAA106000091GF103991021031004501001011MA1999999096101MD1999999+0221REMSYN070AAXX  13184 83242 32497 31404 10300 20217 39610 40094 82301 333 58022;EQDQ01  00002PRCP06
0198832420999992004031400004-12567-041383FM-12+042799999V0200901N001012200019N0020001N1+02421+02171101241ADDAA106000091GF102991001001999999001051KA1240M+03081MA1999999096331MD1999999+0161REMSYN088AAXX  14004 83242 32995 20902 10242 20217 39633 40124 80005 333 10308 29080 55064 58016;EQDQ01  00002PRCP06
0190832420999992004031412004-12567-041383FM-12+042799999V0201401N000510042019N0040001N1+02441+02131101431ADDAY151061AY211061GF107991071071004501001001KA1240N+02261MA1999999096521MD1999999+0101MW1031REMSYN088AAXX  14124 83242 21496 71401 10244 20213 39652 40143 70351 87700 333 20226 58010 69934;
0167832420999992004031418004-12567-041383FM-12+042799999V0201401N001510042019N0100001N1+03001+02371100931ADDAA106000091GF107991061071004501051001MA1999999096081MD1999999-0021REMSYN070AAXX  14184 83242 32497 71403 10300 20237 39608 40093 86750 333 59002;EQDQ01  00002PRCP06
0198832420999992004031500004-12567-041383FM-12+042799999V0201401N000510042019N0020001N1+02401+02111101281ADDAA106000091GF108991071071004501081999KA1240M+03101MA1999999096361MD1999999+0031REMSYN088AAXX  15004 83242 32495 81401 10240 20211 39636 40128 8778/ 333 10310 29080 55049 58003;EQDQ01  00002PRCP06
0190832420999992004031512004-12567-041383FM-12+042799999V0201801N000510042019N0040001N1+02341+02151101261ADDAY151061AY221061GF108991081071004501999999KA1240N+02191MA1999999096341MD1999999-0181MW1031REMSYN088AAXX  15124 83242 21496 81801 10234 20215 39634 40126 70352 887// 333 20219 59018 69954;
0167832420999992004031518004-12567-041383FM-12+042799999V0201401N001010450019N0100001N1+02821+02121100901ADDAA106000091GF106991041071004501061011MA1999999096031MD1999999-0081REMSYN070AAXX  15184 83242 32497 61402 10282 20212 39603 40090 84761 333 59008;EQDQ01  00002PRCP06
0208832420999992004031600004-12567-041383FM-12+042799999V0203601N000512200019N0020001N1+02381+02211101121ADDAA106000091GA1001+999999999GF100991001001999999001001KA1240M+02921MA1999999096201MD1999999-0161REMSYN082AAXX  16004 83242 32995 03601 10238 20221 39620 40112 333 10292 29084 55027 59016;EQDQ01  00002PRCP06
0186832420999992004031612004-12567-041383FM-12+042799999V0200901N001010042019N0100001N1+02561+02171101181ADDAA106000091GF106991051071004501011001KA1240N+02071MA1999999096281MD1999999-0061REMSYN076AAXX  16124 83242 32497 60902 10256 20217 39628 40118 85710 333 20207 59006;EQDQ01  00002PRCP06
0167832420999992004031618004-12567-041383FM-12+042799999V0201401N001010042019N0100001N1+02921+02191100661ADDAA106000091GF107991051071004501031001MA1999999095801MD1999999-0231REMSYN070AAXX  16184 83242 32497 71402 10292 20219 39580 40066 85730 333 59023;EQDQ01  00002PRCP06
0198832420999992004031700004-12567-041383FM-12+042799999V0202301N001010042019N0020001N1+02541+02211100921ADDAA106000091GF108991081071004501999999KA1240M+03121MA1999999096051MD1999999-0151REMSYN088AAXX  17004 83242 32495 82302 10254 20221 39605 40092 887// 333 10312 29077 55055 59015;EQDQ01  00002PRCP06
0186832420999992004031712004-12567-041383FM-12+042799999V0201401N000510042019N0100001N1+02601+02121101101ADDAA106000091GF106991051071004501031001KA1240N+02211MA1999999096221MD1999999-0061REMSYN076AAXX  17124 83242 32497 61401 10260 20212 39622 40110 85730 333 20221 59006;EQDQ01  00002PRCP06
0179832420999992004031718004-12567-041383FM-12+042799999V0201401N000510042019N0040001N1+03061+02021100481ADDAA106000091GF106991051061004501031001MA1999999095661MD1999999-0141MW1051REMSYN076AAXX  17184 83242 31496 61401 10306 20202 39566 40048 705// 85630 333 59014;EQDQ01  00002PRCP06
0215832420999992004031800004-12567-041383FM-12+042799999V0202301N000510042019N0005001N1+02021+01991101151ADDAY191061AY281061GF108991081071004501999999KA1240M+03121MA1999999096221MD1999999+0171REMSYN100AAXX  18004 83242 21493 82301 10202 20199 39622 40115 76698 887// 333 10312 29081 55057 58017 60391;EQDQ01+000662PRSWM1
0190832420999992004031812004-12567-041383FM-12+042799999V0201801N001510042019N0100001N1+02241+02161101271ADDAY191061AY261061GF108991081071004501999999KA1240N+01851MA1999999096301MD1999999+0081MW1031REMSYN088AAXX  18124 83242 21497 81803 10224 20216 39630 40127 70396 887// 333 20185 58008 60414;
0167832420999992004031818004-12567-041383FM-12+042799999V0203601N000510042019N0100001N1+02981+01891100761ADDAA106000091GF106991051071004501031001MA1999999095781MD1999999+0121REMSYN070AAXX  18184 83242 32497 63601 10298 20189 39578 40076 85730 333 58012;EQDQ01  00002PRCP06
0202832420999992004031900004-12567-041383FM-12+042799999V0200901N001010042019N0020001N1+02541+02231101001ADDAY151061AY221061GF108991081071004501999999KA1240M+03021MA1999999096101MD1999999-0121MW1501REMSYN100AAXX  19004 83242 21495 80902 10254 20223 39610 40100 75052 887// 333 10302 29078 55030 59012 69901;
0190832420999992004031912004-12567-041383FM-12+042799999V0201801N001010042019N0040001N1+02101+02051101401ADDAY181061AY221061GF108991081071004501999999KA1240N+01911MA1999999096451MD1999999+0151MW1101REMSYN088AAXX  19124 83242 21496 81802 10210 20205 39645 40140 71082 887// 333 20191 58015 60904;
0179832420999992004031918004-12567-041383FM-12+042799999V0201801N000510042019N0040001N1+02601+01921100911ADDAA106000091GF106991051071004501031001MA1999999096011MD1999999+0231MW1151REMSYN076AAXX  19184 83242 31496 61801 10260 20192 39601 40091 715// 85730 333 58023;EQDQ01  00002PRCP06
0202832420999992004032000004-12567-041383FM-12+042799999V0203601N001010042019N0005001N1+02261+02181101221ADDAY151061AY221061GF108991081071004501999999KA1240M+02701MA1999999096261MD1999999+0161MW1521REMSYN100AAXX  20004 83242 21493 83602 10226 20218 39626 40122 75252 887// 333 10270 29088 55008 58016 69931;
0190832420999992004032012004-12567-041383FM-12+042799999V0202701N001010042019N0040001N1+02181+02151101361ADDAY161061AY221061GF108991081071004501999999KA1240N+01951MA1999999096401MD1999999-0051MW1501REMSYN088AAXX  20124 83242 21496 82702 10218 20215 39640 40136 75062 887// 333 20195 59005 60144;
0171832420999992004032018004-12567-041383FM-12+042799999V0201801N000510042019N0040001N1+02721+02001100931ADDAY151061AY221061GF108991081071004501999999MA1999999096031MD1999999+0021MW1151REMSYN082AAXX  20184 83242 21496 81801 10272 20200 39603 40093 71552 887// 333 58002 69901;
0202832420999992004032100004-12567-041383FM-12+042799999V0200901N000510042019N0010001N1+02311+02201101211ADDAY151061AY221061GF108991081071004501999999KA1240M+02791MA1999999096261MD1999999+0001MW1511REMSYN100AAXX  21004 83242 21494 80901 10231 20220 39626 40121 75152 887// 333 10279 29087 55004 58000 69911;
0190832420999992004032112004-12567-041383FM-12+042799999V0201801N000510042019N0100001N1+03451+02051101191ADDAY151061AY221061GF108991081071004501999999KA1240N+01971MA1999999096281MD1999999-0121MW1031REMSYN088AAXX  21124 83242 21497 81801 10345 20205 39628 40119 70352 887// 333 20197 59012 69994;
0186832420999992004032212004-12567-041383FM-12+042799999V0202301N001010042019N0100001N1+02461+02171101181ADDAA106000091GF107991061071004501041001KA1240N+02051MA1999999096281MD1999999+0001REMSYN076AAXX  22124 83242 32497 72302 10246 20217 39628 40118 86740 333 20205 58000;EQDQ01  00002PRCP06
0167832420999992004032218004-12567-041383FM-12+042799999V0201801N001510042019N0100001N1+03001+02051100711ADDAA106000091GF106991051071004501041001MA1999999095891MD1999999+0001REMSYN070AAXX  22184 83242 32497 61803 10300 20205 39589 40071 85740 333 58000;EQDQ01  00002PRCP06
0210832420999992004032300004-12567-041383FM-12+042799999V0203601N001010042019N0020001N1+02561+02191101091ADDAA106000091GF108991081071004501999999KA1240M+03061MA1999999096201MD1999999+0111MW1131REMSYN094AAXX  23004 83242 31495 83602 10256 20219 39620 40109 713// 887// 333 10306 29075 55040 58011;EQDQ01  00002PRCP06
0186832420999992004032312004-12567-041383FM-12+042799999V0201801N000510042019N0100001N1+02301+02131101361ADDAA106000091GF108991081071004501999999KA1240N+02091MA1999999096451MD1999999+0171REMSYN076AAXX  23124 83242 32497 81801 10230 20213 39645 40136 887// 333 20209 58017;EQDQ01  00002PRCP06
0179832420999992004032318004-12567-041383FM-12+042799999V0201801N001010042019N0040001N1+02621+02071100891ADDAA106000091GF108991081071004501999999MA1999999096111MD1999999+0251MW1401REMSYN076AAXX  23184 83242 31496 81802 10262 20207 39611 40089 740// 887// 333 58025;EQDQ01  00002PRCP06
0202832420999992004032400004-12567-041383FM-12+042799999V0203601N001510042019N0005001N1+02181+02131101311ADDAY141061AY251061GF108991081071004501999999KA1240M+02761MA1999999096361MD1999999+0161MW1501REMSYN100AAXX  24004 83242 21493 83603 10218 20213 39636 40131 75045 887// 333 10276 29089 55006 58016 69991;
0190832420999992004032412004-12567-041383FM-12+042799999V0201801N001010042019N0020001N1+02261+02191101461ADDAY151061AY221061GF108991081071004501999999KA1240N+02111MA1999999096491MD1999999+0041MW1101REMSYN088AAXX  24124 83242 21495 81802 10226 20219 39649 40146 71052 887// 333 20211 58004 60024;
0190832420999992004032512004-12567-041383FM-12+042799999V0201401N001010042019N0020001N1+02081+02051101471ADDAY161061AY221061GF108991081071004501999999KA1240N+02011MA1999999096491MD1999999+0001MW1531REMSYN088AAXX  25124 83242 21495 81402 10208 20205 39649 40147 75362 887// 333 20201 58000 60174;
0171832420999992004032518004-12567-041383FM-12+042799999V0201801N001010042019N0100001N1+02441+02191101071ADDAY151061AY221061GF107991061071004501041001MA1999999096131MD1999999-0091MW1031REMSYN082AAXX  25184 83242 21497 71802 10244 20219 39613 40107 70352 86740 333 59009 60011;
0202832420999992004032600004-12567-041383FM-12+042799999V0200901N000510042019N0005001N1+02251+02121101381ADDAY151061AY221061GF108991081071004501999999KA1240M+02731MA1999999096411MD1999999+0031MW1521REMSYN100AAXX  26004 83242 21493 80901 10225 20212 39641 40138 75252 887// 333 10273 29092 55012 58003 69941;
0190832420999992004032612004-12567-041383FM-12+042799999V0201801N001010042019N0040001N1+02131+01971101461ADDAY161061AY221061GF108991081071004501999999KA1240N+01911MA1999999097491MD1999999+0001MW1101REMSYN088AAXX  26124 83242 21496 81802 10213 20197 39749 40146 71062 887// 333 20191 58000 60184;
0183832420999992004032618004-12567-041383FM-12+042799999V0201801N001510450019N0100001N1+02761+01801101001ADDAA106000091GF107991041061004501031001MA1999999096192MD1999999+0061REMSYN070AAXX  26184 83242 32497 71803 10276 20180 39619 40100 84630 333 58006;EQDQ01+096193APOSP Q02  00002PRCP06
0198832420999992004032700004-12567-041383FM-12+042799999V0202701N001010042019N0020001N1+02261+02031101271ADDAA106000091GF108991081071004501999999KA1240M+02821MA1999999096311MD1999999-0101REMSYN088AAXX  27004 83242 32495 82702 10226 20203 39631 40127 887// 333 10282 29080 55027 59010;EQDQ01  00002PRCP06
0190832420999992004032712004-12567-041383FM-12+042799999V0201401N001510042019N0100001N1+02261+02071101371ADDAY151061AY221061GF107991061071004501041001KA1240N+01971MA1999999096421MD1999999-0071MW1031REMSYN088AAXX  27124 83242 21497 71403 10226 20207 39642 40137 70352 86740 333 20197 59007 69944;
0167832420999992004032718004-12567-041383FM-12+042799999V0201401N001010042019N0100001N1+02761+02091100941ADDAA106000091GF107991061071004501061001MA1999999096301MD1999999-0141REMSYN070AAXX  27184 83242 32497 71402 10276 20209 39630 40094 86760 333 59014;EQDQ01  00002PRCP06
0198832420999992004032800004-12567-041383FM-12+042799999V0201401N000510042019N0020001N1+02281+02111101161ADDAA106000091GF108991081071004501999999KA1240M+02901MA1999999096221MD1999999-0091REMSYN088AAXX  28004 83242 32495 81401 10228 20211 39622 40116 887// 333 10290 29084 55038 59009;EQDQ01  00002PRCP06
0186832420999992004032812004-12567-041383FM-12+042799999V0201401N000510042019N0100001N1+02481+02051101411ADDAA106000091GF106991051071004501031001KA1240N+02051MA1999999096491MD1999999+0071REMSYN076AAXX  28124 83242 32497 61401 10248 20205 39649 40141 85730 333 20205 58007;EQDQ01  00002PRCP06
0167832420999992004032818004-12567-041383FM-12+042799999V0201801N001510042019N0100001N1+02801+02001100951ADDAA106000091GF108991061071004501031061MA1999999096071MD1999999+0021REMSYN070AAXX  28184 83242 32497 81803 10280 20200 39607 40095 86736 333 58002;EQDQ01  00002PRCP06
0198832420999992004032900004-12567-041383FM-12+042799999V0201801N000512200019N0020001N1+02301+02111101151ADDAA106000091GF102991021011004501001001KA1240M+02981MA1999999096241MD1999999+0021REMSYN088AAXX  29004 83242 32495 21801 10230 20211 39624 40115 82100 333 10298 29079 55051 58002;EQDQ01  00002PRCP06
0190832420999992004032912004-12567-041383FM-12+042799999V0201801N001510042019N0100001N1+02341+02051101601ADDAY191061AY261061GF108991081071004501999999KA1240N+02071MA1999999096651MD1999999+0161MW1031REMSYN088AAXX  29124 83242 21497 81803 10234 20205 39665 40160 70396 887// 333 20207 58016 60164;
0167832420999992004032918004-12567-041383FM-12+042799999V0202301N002110450019N0100001N1+02741+01951101171ADDAA106000091GF105991031041004501051021MA1999999096271MD1999999+0221REMSYN070AAXX  29184 83242 32497 52304 10274 20195 39627 40117 83452 333 58022;EQDQ01  00002PRCP06
0198832420999992004033000004-12567-041383FM-12+042799999V0200501N001012200019N0020001N1+02241+01981101431ADDAA106000091GF104991031001022501031051KA1240M+02961MA1999999096481MD1999999+0241REMSYN088AAXX  30004 83242 32895 40502 10224 20198 39648 40143 83035 333 10296 29079 55070 58024;EQDQ01  00002PRCP06
0186832420999992004033012004-12567-041383FM-12+042799999V0201801N000510042019N0100001N1+02401+01931101691ADDAA106000091GF106991051071004501041001KA1240N+01971MA1999999096731MD1999999+0081REMSYN076AAXX  30124 83242 32497 61801 10240 20193 39673 40169 85740 333 20197 58008;EQDQ01  00002PRCP06
0167832420999992004033018004-12567-041383FM-12+042799999V0201801N002112200019N0100001N1+02941+01761101101ADDAA106000091GF105991021031004501051091MA1999999096311MD1999999+0041REMSYN070AAXX  30184 83242 32497 51804 10294 20176 39631 40110 82359 333 58004;EQDQ01  00002PRCP06
0198832420999992004033100004-12567-041383FM-12+042799999V0203601N001510210019N0020001N1+02301+02031101451ADDAA106000091GF106991061001022501051001KA1240M+03021MA1999999096501MD1999999+0021REMSYN088AAXX  31004 83242 32895 63603 10230 20203 39650 40145 86050 333 10302 29074 55084 58002;EQDQ01  00002PRCP06
0186832420999992004033112004-12567-041383FM-12+042799999V0202701N001510042019N0100001N1+02411+02051101621ADDAA106000091GF108991081071004501999999KA1240N+02111MA1999999096671MD1999999-0061REMSYN076AAXX  31124 83242 32497 82703 10241 20205 39667 40162 887// 333 20211 59006;EQDQ01  00002PRCP06
0167832420999992004033118004-12567-041383FM-12+042799999V0201401N001510450019N0100001N1+02961+01901101071ADDAA106000091GF106991031041008001051091MA1999999096201MD1999999-0111REMSYN070AAXX  31184 83242 32597 61403 10296 20190 39620 40107 83459 333 59011;EQDQ01  00002PRCP06
0198832420999992004040100004-12567-041383FM-12+042799999V0201401N001511050019N0020001N1+02321+02031101391ADDAA106000091GF106991011001022501061021KA1240M+03021MA1999999096461MD1999999-0041REMSYN088AAXX  01004 83242 32895 61403 10232 20203 39646 40139 81062 333 10302 29076 55056 59004;EQDQ01  00002PRCP06
0186832420999992004040112004-12567-041383FM-12+042799999V0201401N002110042019N0100001N1+02581+02041101571ADDAA106000091GF107991061071004501061001KA1240N+02091MA1999999096651MD1999999-0021REMSYN076AAXX  01124 83242 32497 71404 10258 20204 39665 40157 86760 333 20209 59002;EQDQ01  00002PRCP06
0167832420999992004040118004-12567-041383FM-12+042799999V0201801N002110450019N0100001N1+02921+01921101111ADDAA106000091GF106991041051004501031091MA1999999096231MD1999999+0031REMSYN070AAXX  01184 83242 32497 61804 10292 20192 39623 40111 84539 333 58003;EQDQ01  00002PRCP06
0167832420999992004040218004-12567-041383FM-12+042799999V0201801N000510450019N0100001N1+02921+02141101231ADDAA106000091GF106991041051004501031001MA1999999096251MD1999999+0021REMSYN070AAXX  02184 83242 32497 61801 10292 20214 39625 40123 84530 333 58002;EQDQ01  00002PRCP06
0198832420999992004040300004-12567-041383FM-12+042799999V0200901N000512200019N0020001N1+02281+02001101341ADDAA106000091GF102991001001999999001021KA1240M+03001MA1999999096411MD1999999-0031REMSYN088AAXX  03004 83242 32995 20901 10228 20200 39641 40134 80002 333 10300 29080 55056 59003;EQDQ01  00002PRCP06
0186832420999992004040512004-12567-041383FM-12+042799999V0202301N001510042019N0100001N1+02361+01871101671ADDAA106000091GF107991051061004501041001KA1240N+02151MA1999999096721MD1999999-0071REMSYN076AAXX  05124 83242 32497 72303 10236 20187 39672 40167 85640 333 20215 59007;EQDQ01  00002PRCP06
0167832420999992004040518004-12567-041383FM-12+042799999V0201801N002112200019N0100001N1+02961+01741101131ADDAA106000091GF104991021031004501041051MA1999999096261MD1999999+0021REMSYN070AAXX  05184 83242 32497 41804 10296 20174 39626 40113 82345 333 58002;EQDQ01  00002PRCP06
0186832420999992004040612004-12567-041383FM-12+042799999V0201801N001010450019N0100001N1+02501+01961101441ADDAA106000091GF106991041051004501021051KA1240N+01991MA1999999096521MD1999999-0201REMSYN076AAXX  06124 83242 32497 61802 10250 20196 39652 40144 84525 333 20199 59020;EQDQ01  00002PRCP06
0167832420999992004040618004-12567-041383FM-12+042799999V0203601N001012200019N0100001N1+03001+01511100961ADDAA106000091GF104991021041004501031021MA1999999096101MD1999999-0161REMSYN070AAXX  06184 83242 32497 43602 10300 20151 39610 40096 82432 333 59016;EQDQ01  00002PRCP06
0198832420999992004040700004-12567-041383FM-12+042799999V0203201N001510210019N0020001N1+02421+02071101191ADDAA106000091GF106991051001022501031021KA1240M+03061MA1999999096291MD1999999-0041REMSYN088AAXX  07004 83242 32895 63203 10242 20207 39629 40119 85032 333 10306 29069 55097 59004;EQDQ01  00002PRCP06
0186832420999992004040712004-12567-041383FM-12+042799999V0202301N000510042019N0100001N1+02411+02091101401ADDAA106000091GF107991061071004501051001KA1240N+02091MA1999999096481MD1999999-0041REMSYN076AAXX  07124 83242 32497 72301 10241 20209 39648 40140 86750 333 20209 59004;EQDQ01  00002PRCP06
0167832420999992004040718004-12567-041383FM-12+042799999V0201401N001510450019N0100001N1+03001+02031100901ADDAA106000091GF106991041051004501031001MA1999999096051MD1999999-0051REMSYN070AAXX  07184 83242 32497 61403 10300 20203 39605 40090 84530 333 59005;EQDQ01  00002PRCP06
0198832420999992004040800004-12567-041383FM-12+042799999V0203601N001010042019N0020001N1+02421+02111101201ADDAA106000091GF107991071041004501001001KA1240M+03061MA1999999096291MD1999999+0001REMSYN088AAXX  08004 83242 32495 73602 10242 20211 39629 40120 87400 333 10306 29076 55050 58000;EQDQ01  00002PRCP06
0190832420999992004040812004-12567-041383FM-12+042799999V0201801N000510042019N0020001N1+02281+02091101511ADDAY141061AY221061GF108991081071004501999999KA1240N+02151MA1999999096571MD1999999+0091MW1501REMSYN088AAXX  08124 83242 21495 81801 10228 20209 39657 40151 75042 887// 333 20215 58009 69904;
0148832420999992004040818004-12567-041383FM-12+042799999V0201401N001511050019N0100001N1+03021+02101100991ADDAA106000021GF105991031031004501001031MA1999999096141MD1999999+0091REMSYN070AAXX  08184 83242 32497 51403 10302 20210 39614 40099 83303 333 58009;
0198832420999992004040900004-12567-041383FM-12+042799999V0201801N001010042019N0020001N1+02541+02231101311ADDAA106000091GF108991081071004501999999KA1240M+03141MA1999999096391MD1999999+0101REMSYN088AAXX  09004 83242 32495 81802 10254 20223 39639 40131 887// 333 10314 29079 55054 58010;EQDQ01  00002PRCP06
0186832420999992004040912004-12567-041383FM-12+042799999V0201401N001010042019N0040001N1+02461+02071101551ADDAA106000091GF107991061061004501051001KA1240N+02151MA1999999096641MD1999999+0071REMSYN076AAXX  09124 83242 32496 71402 10246 20207 39664 40155 86650 333 20215 58007;EQDQ01  00002PRCP06
0167832420999992004040918004-12567-041383FM-12+042799999V0201401N001510450019N0100001N1+02861+02091101051ADDAA106000091GF105991021031004501051001MA1999999096181MD1999999+0041REMSYN070AAXX  09184 83242 32497 51403 10286 20209 39618 40105 82350 333 58004;EQDQ01  00002PRCP06
0210832420999992004041000004-12567-041383FM-12+042799999V0200901N001012200019N0020001N1+02351+02151101231ADDAA106000091GF101991011071004501001001KA1240M+02961MA1999999096321MD1999999-0071MW1131REMSYN094AAXX  10004 83242 31495 10902 10235 20215 39632 40123 713// 81700 333 10296 29080 55045 59007;EQDQ01  00002PRCP06
0186832420999992004041012004-12567-041383FM-12+042799999V0200501N001510042019N0040001N1+02481+02051101291ADDAA106000091GF107991061071004501051001KA1240N+02151MA1999999096371MD1999999-0271REMSYN076AAXX  10124 83242 32496 70503 10248 20205 39637 40129 86750 333 20215 59027;EQDQ01  00002PRCP06
0167832420999992004041018004-12567-041383FM-12+042799999V0201401N001010042019N0100001N1+03001+02001100741ADDAA106000091GF105991051021004501001001MA1999999095891MD1999999-0291REMSYN070AAXX  10184 83242 32497 51402 10300 20200 39589 40074 85200 333 59029;EQDQ01  00002PRCP06
0208832420999992004041100004-12567-041383FM-12+042799999V0203601N000512200019N0020001N1+02361+02011100901ADDAA106000091GA1001+999999999GF100991001001999999001001KA1240M+03101MA1999999096001MD1999999-0321REMSYN082AAXX  11004 83242 32995 03601 10236 20201 39600 40090 333 10310 29074 55070 59032;EQDQ01  00002PRCP06
0186832420999992004041112004-12567-041383FM-12+042799999V0201801N001010042019N0040001N1+02441+02131101131ADDAA106000091GF107991061071004501051001KA1240N+02131MA1999999096221MD1999999-0151REMSYN076AAXX  11124 83242 32496 71802 10244 20213 39622 40113 86750 333 20213 59015;EQDQ01  00002PRCP06
0167832420999992004041118004-12567-041383FM-12+042799999V0200901N001510450019N0100001N1+03041+02061100591ADDAA106000091GF107991011021004501031011MA1999999095751MD1999999-0141REMSYN070AAXX  11184 83242 32497 70903 10304 20206 39575 40059 81231 333 59014;EQDQ01  00002PRCP06
0198832420999992004041200004-12567-041383FM-12+042799999V0200501N001019999999N0020001N1+02481+02091100861ADDAA106000091GF107991071001004501011001KA1240M+03161MA1999999095971MD1999999-0031REMSYN088AAXX  12004 83242 32495 70502 10248 20209 39597 40086 87010 333 10316 29074 55078 59003;EQDQ01  00002PRCP06
0190832420999992004041212004-12567-041383FM-12+042799999V0202701N000510042019N0040001N1+02361+02131101201ADDAY151061AY221061GF108991081071004501999999KA1240N+02261MA1999999096291MD1999999+0071MW1101REMSYN088AAXX  12124 83242 21496 82701 10236 20213 39629 40120 71052 887// 333 20226 58007 69934;
0167832420999992004041218004-12567-041383FM-12+042799999V0201401N001512200019N0100001N1+02941+02111100781ADDAA106000091GF104991041051004501001001MA1999999095941MD1999999+0191REMSYN070AAXX  12184 83242 32497 41403 10294 20211 39594 40078 84500 333 58019;EQDQ01  00002PRCP06
0198832420999992004041300004-12567-041383FM-12+042799999V0200501N001012200019N0020001N1+02441+02131101071ADDAA106000091GF103991031041004501001001KA1240M+03041MA1999999096161MD1999999+0191REMSYN088AAXX  13004 83242 32495 30502 10244 20213 39616 40107 83400 333 10304 29078 55059 58019;EQDQ01  00002PRCP06
0190832420999992004041312004-12567-041383FM-12+042799999V0201801N001510042019N0040001N1+02261+02161101511ADDAY161061AY251061GF107991061071004501031001KA1240N+02091MA1999999096571MD1999999+0281MW1101REMSYN088AAXX  13124 83242 21496 71803 10226 20216 39657 40151 71065 86730 333 20209 58028 60104;
0167832420999992004041318004-12567-041383FM-12+042799999V0201401N001010450019N0100001N1+02981+01981101071ADDAA106000091GF105991031051004501041081MA1999999096201MD1999999+0261REMSYN070AAXX  13184 83242 32497 51402 10298 20198 39620 40107 83548 333 58026;EQDQ01  00002PRCP06
0198832420999992004041400004-12567-041383FM-12+042799999V0203601N001012200019N0020001N1+02371+02211101341ADDAA106000091GF104991041001999999021001KA1240M+03061MA1999999096401MD1999999+0241REMSYN088AAXX  14004 83242 32995 43602 10237 20221 39640 40134 84020 333 10306 29082 55068 58024;EQDQ01  00002PRCP06
0190832420999992004041412004-12567-041383FM-12+042799999V0201801N001510042019N0100001N1+02391+02091101511ADDAY151061AY241061GF108991071071004501061011KA1240N+01971MA1999999096581MD1999999+0011MW1031REMSYN088AAXX  14124 83242 21497 81803 10239 20209 39658 40151 70354 87761 333 20197 58001 69964;
0167832420999992004041418004-12567-041383FM-12+042799999V0201801N001510042019N0100001N1+02901+01901100971ADDAA106000091GF106991051041004501031001MA1999999096101MD1999999-0101REMSYN070AAXX  14184 83242 32497 61803 10290 20190 39610 40097 85430 333 59010;EQDQ01  00002PRCP06
0202832420999992004041500004-12567-041383FM-12+042799999V0203601N000510042019N0020001N1+02301+02251101371ADDAY161061AY251061GF108991081071004501999999KA1240M+02981MA1999999096441MD1999999+0041MW1031REMSYN100AAXX  15004 83242 21495 83601 10230 20225 39644 40137 70365 887// 333 10298 29083 55051 58004 60061;
0190832420999992004041512004-12567-041383FM-12+042799999V0201401N001510042019N0100001N1+02371+02011101511ADDAY161061AY221061GF107991061071004501021001KA1240N+01971MA1999999096571MD1999999-0011MW1031REMSYN088AAXX  15124 83242 21497 71403 10237 20201 39657 40151 70362 86720 333 20197 59001 60224;
0179832420999992004041518004-12567-041383FM-12+042799999V0201801N002110042019N0040001N1+02741+01921101041ADDAA106000091GF106991061071004501001001MA1999999096151MD1999999+0051MW1151REMSYN076AAXX  15184 83242 31496 61804 10274 20192 39615 40104 715// 86700 333 58005;EQDQ01  00002PRCP06
0202832420999992004041600004-12567-041383FM-12+042799999V0203601N001510042019N0020001N1+02241+02071101331ADDAY151061AY221061GF107991071071004501001001KA1240M+02821MA1999999096391MD1999999-0051MW1031REMSYN100AAXX  16004 83242 21495 73603 10224 20207 39639 40133 70352 87700 333 10282 29080 55040 59005 69911;
0190832420999992004041612004-12567-041383FM-12+042799999V0201801N000510042019N0040001N1+02281+02111101631ADDAY141061AY221061GF108991081071004501999999KA1240N+02051MA1999999096661MD1999999+0091MW1511REMSYN088AAXX  16124 83242 21496 81801 10228 20211 39666 40163 75142 887// 333 20205 58009 69954;
0148832420999992004041618004-12567-041383FM-12+042799999V0201801N002110042019N0100001N1+02821+01971101251ADDAA106000021GF107991051071004501031071MA1999999096351MD1999999+0201REMSYN070AAXX  16184 83242 32497 71804 10282 20197 39635 40125 85737 333 58020;
0198832420999992004041700004-12567-041383FM-12+042799999V0201801N001010210019N0020001N1+02281+02051101481ADDAA106000091GF107991071001022501051001KA1240M+02921MA1999999096531MD1999999+0141REMSYN088AAXX  17004 83242 32895 71802 10228 20205 39653 40148 87050 333 10292 29081 55030 58014;EQDQ01  00002PRCP06
0186832420999992004041712004-12567-041383FM-12+042799999V0201401N001510042019N0100001N1+02341+02071101751ADDAA106000091GF107991061071004501031001KA1240N+02091MA1999999096791MD1999999+0131REMSYN076AAXX  17124 83242 32497 71403 10234 20207 39679 40175 86730 333 20209 58013;EQDQ01  00002PRCP06
0171832420999992004041718004-12567-041383FM-12+042799999V0201801N000510042019N0040001N1+02461+02031101381ADDAY161061AY221061GF108991081071004501999999MA1999999096441MD1999999+0091MW1151REMSYN082AAXX  17184 83242 21496 81801 10246 20203 39644 40138 71562 887// 333 58009 60091;
0202832420999992004041800004-12567-041383FM-12+042799999V0201401N000510042019N0010001N1+02221+02171101591ADDAY161061AY221061GF108991081071004501999999KA1240M+02581MA1999999096641MD1999999+0111MW1611REMSYN100AAXX  18004 83242 21494 81401 10222 20217 39664 40159 76162 887// 333 10258 29089 55003 58011 60011;
0190832420999992004041812004-12567-041383FM-12+042799999V0201801N001510042019N0100001N1+02341+02001101761ADDAY161061AY221061GF107991061071004501031001KA1240N+02031MA1999999096801MD1999999+0011MW1011REMSYN088AAXX  18124 83242 21497 71803 10234 20200 39680 40176 70162 86730 333 20203 58001 60124;
0167832420999992004041818004-12567-041383FM-12+042799999V0201801N000510450019N0100001N1+02801+01721101221ADDAA106000091GF105991031021004501041061MA1999999096331MD1999999-0081REMSYN070AAXX  18184 83242 32497 51801 10280 20172 39633 40122 83246 333 59008;EQDQ01  00002PRCP06
0208832420999992004041900004-12567-041383FM-12+042799999V0209999C000012200019N0020001N1+02201+02031101461ADDAA106000091GA1001+999999999GF100991001001999999001001KA1240M+02901MA1999999096501MD1999999-0141REMSYN082AAXX  19004 83242 32995 00000 10220 20203 39650 40146 333 10290 29078 55068 59014;EQDQ01  00002PRCP06
0190832420999992004041912004-12567-041383FM-12+042799999V0201401N001510042019N0100001N1+02341+02051101651ADDAY151061AY221061GF107991061071004501031001KA1240N+02071MA1999999096681MD1999999-0121MW1031REMSYN088AAXX  19124 83242 21497 71403 10234 20205 39668 40165 70352 86730 333 20207 59012 69964;
0167832420999992004041918004-12567-041383FM-12+042799999V0201801N001010450019N0100001N1+02861+01901101101ADDAA106000091GF106991041061004501041041MA1999999096221MD1999999-0111REMSYN070AAXX  19184 83242 32497 61802 10286 20190 39622 40110 84644 333 59011;EQDQ01  00002PRCP06
0186832420999992004042012004-12567-041383FM-12+042799999V0201401N001010042019N0100001N1+02401+02031101541ADDAA106000091GF108991081071004501999999KA1240N+02131MA1999999096591MD1999999-0091REMSYN076AAXX  20124 83242 32497 81402 10240 20203 39659 40154 887// 333 20213 59009;EQDQ01  00002PRCP06
0167832420999992004042018004-12567-041383FM-12+042799999V0201801N000510450019N0100001N1+02741+01951101131ADDAA106000091GF106991041041004501031061MA1999999096231MD1999999+0011REMSYN070AAXX  20184 83242 32497 61801 10274 20195 39623 40113 84436 333 58001;EQDQ01  00002PRCP06
0208832420999992004042100004-12567-041383FM-12+042799999V0200501N000512200019N0020001N1+02241+02101101321ADDAA106000091GA1001+999999999GF100991001001999999001001KA1240M+02861MA1999999096381MD1999999+0021REMSYN082AAXX  21004 83242 32995 00501 10224 20210 39638 40132 333 10286 29082 55050 58002;EQDQ01  00002PRCP06
0186832420999992004042112004-12567-041383FM-12+042799999V0201401N001510042019N0100001N1+02361+01991101671ADDAA106000091GF107991061071004501031001KA1240N+02151MA1999999096711MD1999999+0121REMSYN076AAXX  21124 83242 32497 71403 10236 20199 39671 40167 86730 333 20215 58012;EQDQ01  00002PRCP06
0167832420999992004042118004-12567-041383FM-12+042799999V0201801N001012200019N0100001N1+02801+01951101221ADDAA106000091GF103991021031004501041001MA1999999096331MD1999999+0101REMSYN070AAXX  21184 83242 32497 31802 10280 20195 39633 40122 82340 333 58010;EQDQ01  00002PRCP06
0208832420999992004042200004-12567-041383FM-12+042799999V0200901N000512200019N0020001N1+02241+02011101431ADDAA106000091GA1001+999999999GF100991001001999999001001KA1240M+02921MA1999999096481MD1999999+0101REMSYN082AAXX  22004 83242 32995 00901 10224 20201 39648 40143 333 10292 29078 55071 58010;EQDQ01  00002PRCP06
0186832420999992004042212004-12567-041383FM-12+042799999V0201401N002610450019N0100001N1+02421+01911101461ADDAA106000091GF106991041051004501051001KA1240N+01931MA1999999096531MD1999999-0181REMSYN076AAXX  22124 83242 32497 61405 10242 20191 39653 40146 84550 333 20193 59018;EQDQ01  00002PRCP06
0167832420999992004042218004-12567-041383FM-12+042799999V0201801N001519999999N0040001N1+02701+02351101141ADDAA106000091GF107991011061004501999999MA1999999096231MD1999999-0101REMSYN070AAXX  22184 83242 32496 71803 10270 20235 39623 40114 816// 333 59010;EQDQ01  00002PRCP06
0202832420999992004042300004-12567-041383FM-12+042799999V0201401N001510042019N0020001N1+02241+02071101371ADDAY151061AY221061GF108991081071004501999999KA1240M+02801MA1999999096441MD1999999-0041MW1001REMSYN100AAXX  23004 83242 21495 81403 10224 20207 39644 40137 70052 887// 333 10280 29084 55072 59004 69931;
0190832420999992004042312004-12567-041383FM-12+042799999V0201801N000510042019N0100001N1+02241+02031101431ADDAY161061AY251061GF107991061071004501031001KA1240N+02031MA1999999096471MD1999999-0061MW1031REMSYN088AAXX  23124 83242 21497 71801 10224 20203 39647 40143 70365 86730 333 20203 59006 60074;
0179832420999992004042318004-12567-041383FM-12+042799999V0201801N001510042019N0040001N1+02901+01931100951ADDAA106000091GF106991051071004501031001MA1999999096071MD1999999-0161MW1161REMSYN076AAXX  23184 83242 31496 61803 10290 20193 39607 40095 716// 85730 333 59016;EQDQ01  00002PRCP06
0212832420999992004042400004-12567-041383FM-12+042799999V0203601N000512200019N0020001N1+02221+02141101081ADDAY151061AY211061GA1001+999999999GF100991001001999999001001KA1240M+02941MA1999999096141MD1999999-0301MW1001REMSYN094AAXX  24004 83242 21995 03601 10222 20214 39614 40108 70051 333 10294 29084 55061 59030 69941;
0190832420999992004042412004-12567-041383FM-12+042799999V0201401N000510042019N0100001N1+02341+02051101231ADDAY151061AY201061GF106991051071004501041001KA1240N+02191MA1999999096291MD1999999-0181MW1021REMSYN088AAXX  24124 83242 21497 61401 10234 20205 39629 40123 70250 85740 333 20219 59018 69974;
0167832420999992004042418004-12567-041383FM-12+042799999V0201401N001512200019N0100001N1+02901+01901100831ADDAA106000091GF104991031051004501041001MA1999999095961MD1999999-0111REMSYN070AAXX  24184 83242 32497 41403 10290 20190 39596 40083 83540 333 59011;EQDQ01  00002PRCP06
0208832420999992004042500004-12567-041383FM-12+042799999V0209999C000012200019N0020001N1+02181+02011101131ADDAA106000091GA1001+999999999GF100991001001999999001001KA1240M+02961MA1999999096151MD1999999+0111REMSYN082AAXX  25004 83242 32995 00000 10218 20201 39615 40113 333 10296 29080 55072 58011;EQDQ01  00002PRCP06
0190832420999992004042512004-12567-041383FM-12+042799999V0200901N001010450019N0100001N1+02441+02051101341ADDAY151061AY201061GF106991041071004501031001KA1240N+02031MA1999999096401MD1999999+0111MW1011REMSYN088AAXX  25124 83242 21497 60902 10244 20205 39640 40134 70150 84730 333 20203 58011 69924;
0179832420999992004042518004-12567-041383FM-12+042799999V0201801N001012200019N0040001N1+03061+01931100851ADDAA106000091GF103991031041004501001001MA1999999096001MD1999999+0041MW1051REMSYN076AAXX  25184 83242 31496 31802 10306 20193 39600 40085 705// 83400 333 58004;EQDQ01  00002PRCP06
0198832420999992004042600004-12567-041383FM-12+042799999V0202301N000512200019N0020001N1+02521+02151101141ADDAA106000091GF104991041051004501001001KA1240M+03101MA1999999096251MD1999999+0101REMSYN088AAXX  26004 83242 32495 42301 10252 20215 39625 40114 84500 333 10310 29072 55087 58010;EQDQ01  00002PRCP06
0186832420999992004042612004-12567-041383FM-12+042799999V0200901N000510042019N0100001N1+02441+02091101361ADDAA106000091GF108991081061004501999999KA1240N+02211MA1999999096461MD1999999+0061REMSYN076AAXX  26124 83242 32497 80901 10244 20209 39646 40136 886// 333 20221 58006;EQDQ01  00002PRCP06
0179832420999992004042618004-12567-041383FM-12+042799999V0201401N001010042019N0040001N1+02881+02031101001ADDAA106000091GF106991051061004501031001MA1999999096141MD1999999+0161MW1151REMSYN076AAXX  26184 83242 31496 61402 10288 20203 39614 40100 715// 85630 333 58016;EQDQ01  00002PRCP06
0198832420999992004042700004-12567-041383FM-12+042799999V0203601N000512200019N0020001N1+02931+02131101371ADDAA106000091GF102991021001022501031001KA1240M+03001MA1999999096451MD1999999+0201REMSYN088AAXX  27004 83242 32895 23601 10293 20213 39645 40137 82030 333 10300 29079 55044 58020;EQDQ01  00002PRCP06
0190832420999992004042712004-12567-041383FM-12+042799999V0209999C000010042019N0100001N1+02251+02201101631ADDAY161061AY211061GF107991061071004501041001KA1240N+02071MA1999999096671MD1999999+0211MW1031REMSYN088AAXX  27124 83242 21497 70000 10225 20220 39667 40163 70361 86740 333 20207 58021 60294;
0167832420999992004042718004-12567-041383FM-12+042799999V0201401N001012200019N0100001N1+02861+02011101241ADDAA106000091GF103991021031004501041001MA1999999096351MD1999999+0211REMSYN070AAXX  27184 83242 32497 31402 10286 20201 39635 40124 82340 333 58021;EQDQ01  00002PRCP06
0198832420999992004042800004-12567-041383FM-12+042799999V0200501N001510210019N0020001N1+02221+02051101541ADDAA106000091GF106991061001022501031001KA1240M+02941MA1999999096581MD1999999+0131REMSYN088AAXX  28004 83242 32895 60503 10222 20205 39658 40154 86030 333 10294 29083 55066 58013;EQDQ01  00002PRCP06
0188832420999992004042812004-12567-041383FM-12+042799999V0201801N001019999999N0040001N1+02281+02091101761ADDAY151061AY221061GF108991999999004501999999KA1240N+02051MA1999999096791MD1999999+0121MW1501REMSYN086AAXX  28124 83242 21496 81802 10228 20209 39679 40176 75052 887 333 20205 58012 69934;
0148832420999992004042818004-12567-041383FM-12+042799999V0201801N002110450019N0100001N1+02761+01971101321ADDAA106000021GF105991041061004501071001MA1999999096411MD1999999+0061REMSYN070AAXX  28184 83242 32497 51804 10276 20197 39641 40132 84670 333 58006;
0202832420999992004042900004-12567-041383FM-12+042799999V0201801N001010042019N0010001N1+02381+02151101661ADDAY151061AY221061GF108991081071004501999999KA1240M+02861MA1999999096711MD1999999+0131MW1541REMSYN100AAXX  29004 83242 21494 81802 10238 20215 39671 40166 75452 887// 333 10286 29081 55057 58013 69921;
0190832420999992004042912004-12567-041383FM-12+042799999V0201801N004110042019N0100001N1+02161+01861101851ADDAY161061AY221061GF107991071071004501001001KA1240N+01911MA1999999096871MD1999999+0081MW1031REMSYN088AAXX  29124 83242 21497 71808 10216 20186 39687 40185 70362 87700 333 20191 58008 60064;
0167832420999992004042918004-12567-041383FM-12+042799999V0201401N000510450019N0100001N1+02481+01801101381ADDAA106000091GF106991041061004501031001MA1999999096441MD1999999+0031REMSYN070AAXX  29184 83242 32497 61401 10248 20180 39644 40138 84630 333 58003;EQDQ01  00002PRCP06
0202832420999992004043000004-12567-041383FM-12+042799999V0201801N001510042019N0020001N1+02241+02031101581ADDAY161061AY221061GF108991081071004501999999KA1240M+02621MA1999999096611MD1999999-0101MW1001REMSYN100AAXX  30004 83242 21495 81803 10224 20203 39661 40158 70062 887// 333 10262 29081 55010 59010 69921;
0162832420999992004043012004-12567-041383FM-12+042799999V0201401N001510042019N0100001N1+02321+01851101651ADDGF106991051041004501051001KA1240N+01981MA1999999096691MD1999999-0181REMSYN082AAXX  30124 83242 22497 61403 10232 20185 39669 40165 85450 333 20198 59018 69924;
0167832420999992004043018004-12567-041383FM-12+042799999V0201401N001010042019N0100001N1+02721+01821101161ADDAA106000091GF106991051071004501031001MA1999999096501MD1999999-0191REMSYN070AAXX  30184 83242 32497 61402 10272 20182 39650 40116 85730 333 59019;EQDQ01  00002PRCP06
0198832420999992004050100004-12567-041383FM-12+042799999V0203601N001010042019N0020001N1+02301+01921101451ADDAA106000091GF108991081071004501999999KA1240M+02761MA1999999096501MD1999999-0111REMSYN088AAXX  01004 83242 32495 83602 10230 20192 39650 40145 887// 333 10276 29073 55033 59011;EQDQ01  00002PRCP06
0186832420999992004050112004-12567-041383FM-12+042799999V0201801N001510042019N0040001N1+02301+01961101571ADDAA106000091GF107991061071004501091001KA1240N+02011MA1999999096621MD1999999-0071REMSYN076AAXX  01124 83242 32496 71803 10230 20196 39662 40157 86790 333 20201 59007;EQDQ01  00002PRCP06
0167832420999992004050118004-12567-041383FM-12+042799999V0201801N001510042019N0100001N1+02641+02051101061ADDAA106000091GF107991061071004501081001MA1999999096151MD1999999-0101REMSYN070AAXX  01184 83242 32497 71803 10264 20205 39615 40106 86780 333 59010;EQDQ01  00002PRCP06
0202832420999992004050200004-12567-041383FM-12+042799999V0200501N001510042019N0010001N1+02371+02111101421ADDAY151061AY221061GF108991081071004501999999KA1240M+02801MA1999999096491MD1999999-0011MW1501REMSYN100AAXX  02004 83242 21494 80503 10237 20211 39649 40142 75052 887// 333 10280 29080 55024 59001 69901;
0190832420999992004050212004-12567-041383FM-12+042799999V0201801N001510042019N0040001N1+02341+02011101661ADDAY151061AY221061GF108991061071004501081071KA1240N+02131MA1999999096711MD1999999+0091MW1101REMSYN088AAXX  02124 83242 21496 81803 10234 20201 39671 40166 71052 86787 333 20213 58009 69954;
0167832420999992004050218004-12567-041383FM-12+042799999V0201801N002610450019N0100001N1+02801+02061101211ADDAA106000091GF107991041041004501031001MA1999999096321MD1999999+0171REMSYN070AAXX  02184 83242 32497 71805 10280 20206 39632 40121 84430 333 58017;EQDQ01  00002PRCP06
0198832420999992004050300004-12567-041383FM-12+042799999V0200501N001510450019N0020001N1+02261+01981101451ADDAA106000091GF107991031071004501081001KA1240M+02961MA1999999096501MD1999999+0011REMSYN088AAXX  03004 83242 32495 70503 10226 20198 39650 40145 83780 333 10296 29078 55080 58001;EQDQ01  00002PRCP06
0190832420999992004050312004-12567-041383FM-12+042799999V0201401N002610042019N0100001N1+02261+02111101711ADDAY161061AY221061GF108991081071004501999999KA1240N+02051MA1999999096741MD1999999+0031MW1031REMSYN088AAXX  03124 83242 21497 81405 10226 20211 39674 40171 70362 887// 333 20205 58003 60034;
0167832420999992004050318004-12567-041383FM-12+042799999V0201801N001012200019N0100001N1+02801+01951101361ADDAA106000091GF104991031051004501081001MA1999999096451MD1999999+0071REMSYN070AAXX  03184 83242 32497 41802 10280 20195 39645 40136 83580 333 58007;EQDQ01  00002PRCP06
0198832420999992004050400004-12567-041383FM-12+042799999V0201801N001510042019N0020001N1+02361+01951101501ADDAA106000091GF107991051071004501081001KA1240M+02921MA1999999096551MD1999999+0051REMSYN088AAXX  04004 83242 32495 71803 10236 20195 39655 40150 85780 333 10292 29077 55061 58005;EQDQ01  00002PRCP06
0190832420999992004050412004-12567-041383FM-12+042799999V0201801N002110042019N0040001N1+02221+02051101661ADDAY151061AY221061GF108991081071004501999999KA1240N+02031MA1999999096691MD1999999-0051MW1511REMSYN088AAXX  04124 83242 21496 81804 10222 20205 39669 40166 75152 887// 333 20203 59005 69954;
0198832420999992004050500004-12567-041383FM-12+042799999V0201401N001510042019N0020001N1+02281+02051101351ADDAA106000091GF107991051071004501081031KA1240M+02861MA1999999096501MD1999999-0051REMSYN088AAXX  05004 83242 32495 71403 10228 20205 39650 40135 85783 333 10286 29082 55033 59005;EQDQ01  00002PRCP06
0190832420999992004050512004-12567-041383FM-12+042799999V0200901N001010042019N0040001N1+02141+01901101721ADDAY161061AY221061GF108991081071004501999999KA1240N+01991MA1999999096741MD1999999+0051MW1101REMSYN088AAXX  05124 83242 21496 80902 10214 20190 39674 40172 71062 887// 333 20199 58005 60034;
0171832420999992004050518004-12567-041383FM-12+042799999V0203601N000510042019N0040001N1+02541+01761101371ADDAY151061AY221061GF108991081071004501999999MA1999999096441MD1999999+0131MW1501REMSYN082AAXX  05184 83242 21496 83601 10254 20176 39644 40137 75052 887// 333 58013 69971;
0202832420999992004050600004-12567-041383FM-12+042799999V0201801N001010042019N0005001N1+02181+02131101571ADDAY161061AY221061GF108991081071004501999999KA1240M+02621MA1999999096591MD1999999+0091MW1601REMSYN100AAXX  06004 83242 21493 81802 10218 20213 39659 40157 76062 887// 333 10262 29086 55003 58009 60011;
0190832420999992004050612004-12567-041383FM-12+042799999V0201401N000510450019N0100001N1+02401+02111101761ADDAY161061AY221061GF106991041051004501031001KA1240N+02011MA1999999096801MD1999999+0061MW1011REMSYN088AAXX  06124 83242 21497 61401 10240 20211 39680 40176 70162 84530 333 20201 58006 60104;
0179832420999992004050618004-12567-041383FM-12+042799999V0201401N002110042019N0040001N1+02801+01901101361ADDAA106000091GF106991061061004501001001MA1999999096451MD1999999+0021MW1151REMSYN076AAXX  06184 83242 31496 61404 10280 20190 39645 40136 715// 86600 333 58002;EQDQ01  00002PRCP06
0202832420999992004050700004-12567-041383FM-12+042799999V0202701N000510042019N0020001N1+02361+02171101581ADDAY151061AY221061GF108991081071004501999999KA1240M+02861MA1999999096651MD1999999+0061MW1001REMSYN100AAXX  07004 83242 21495 82701 10236 20217 39665 40158 70052 887// 333 10286 29080 55051 58006 69901;
0190832420999992004050712004-12567-041383FM-12+042799999V0201801N001010042019N0100001N1+02321+02031101751ADDAY161061AY221061GF107991061071004501051001KA1240N+02091MA1999999096801MD1999999+0001MW1031REMSYN088AAXX  07124 83242 21497 71802 10232 20203 39680 40175 70362 86750 333 20209 58000 60014;
0167832420999992004050718004-12567-041383FM-12+042799999V0201401N000510450019N0100001N1+02901+01901101331ADDAA106000091GF105991041041004501061001MA1999999096471MD1999999+0021REMSYN070AAXX  07184 83242 32497 51401 10290 20190 39647 40133 84460 333 58002;EQDQ01  00002PRCP06
0198832420999992004050800004-12567-041383FM-12+042799999V0200901N000512200019N0020001N1+02181+02041101561ADDAA106000091GF101991011011004501001001KA1240M+02981MA1999999096601MD1999999-0051REMSYN088AAXX  08004 83242 32495 10901 10218 20204 39660 40156 81100 333 10298 29081 55068 59005;EQDQ01  00002PRCP06
0186832420999992004050812004-12567-041383FM-12+042799999V0200901N000510450019N0100001N1+02321+01941101721ADDAA106000091GF105991041051004501031001KA1240N+01971MA1999999096751MD1999999-0051REMSYN076AAXX  08124 83242 32497 50901 10232 20194 39675 40172 84530 333 20197 59005;EQDQ01  00002PRCP06
0167832420999992004050818004-12567-041383FM-12+042799999V0201401N001511050019N0100001N1+02881+01771101221ADDAA106000091GF105991021011004501041061MA1999999096331MD1999999-0141REMSYN070AAXX  08184 83242 32497 51403 10288 20177 39633 40122 82146 333 59014;EQDQ01  00002PRCP06
0208832420999992004050900004-12567-041383FM-12+042799999V0200901N001512200019N0020001N1+02131+01801101391ADDAA106000091GA1001+999999999GF100991001001999999001001KA1240M+02981MA1999999096431MD1999999-0171REMSYN082AAXX  09004 83242 32995 00903 10213 20180 39643 40139 333 10298 29073 55086 59017;EQDQ01  00002PRCP06
0186832420999992004050912004-12567-041383FM-12+042799999V0200501N001510042019N0100001N1+02161+01901101611ADDAA106000091GF108991081061004501999999KA1240N+01671MA1999999096631MD1999999-0121REMSYN076AAXX  09124 83242 32497 80503 10216 20190 39663 40161 886// 333 20167 59012;EQDQ01  00002PRCP06
0167832420999992004050918004-12567-041383FM-12+042799999V0201401N001010450019N0100001N1+02621+02011101111ADDAA106000091GF105991031021004501061051MA1999999096171MD1999999-0161REMSYN070AAXX  09184 83242 32497 51402 10262 20201 39617 40111 83265 333 59016;EQDQ01  00002PRCP06
0208832420999992004051000004-12567-041383FM-12+042799999V0203601N001012200019N0020001N1+02101+01891101351ADDAA106000091GA1001+999999999GF100991001001999999001001KA1240M+02821MA1999999096381MD1999999-0051REMSYN082AAXX  10004 83242 32995 03602 10210 20189 39638 40135 333 10282 29082 55042 59005;EQDQ01  00002PRCP06
0186832420999992004051012004-12567-041383FM-12+042799999V0201801N001510042019N0100001N1+02041+01941101621ADDAA106000091GF108991081061004501999999KA1240N+01631MA1999999096621MD1999999-0011REMSYN076AAXX  10124 83242 32497 81803 10204 20194 39662 40162 886// 333 20163 59001;EQDQ01  00002PRCP06
0167832420999992004051018004-12567-041383FM-12+042799999V0200901N001012200019N0100001N1+02761+01971101161ADDAA106000091GF102991011011004501041001MA1999999096331MD1999999+0061REMSYN070AAXX  10184 83242 32497 20902 10276 20197 39633 40116 81140 333 58006;EQDQ01  00002PRCP06
0208832420999992004051100004-12567-041383FM-12+042799999V0203601N001512200019N0020001N1+02101+01761101431ADDAA106000091GA1001+999999999GF100991001001999999001001KA1240M+02841MA1999999096441MD1999999+0061REMSYN082AAXX  11004 83242 32995 03603 10210 20176 39644 40143 333 10284 29080 55067 58006;EQDQ01  00002PRCP06
0186832420999992004051112004-12567-041383FM-12+042799999V0200901N001012200019N0100001N1+02301+01981101621ADDAA106000091GF103991021011004501031001KA1240N+01751MA1999999096651MD1999999+0031REMSYN076AAXX  11124 83242 32497 30902 10230 20198 39665 40162 82130 333 20175 58003;EQDQ01  00002PRCP06
0167832420999992004051118004-12567-041383FM-12+042799999V0201401N001012200019N0100001N1+02841+01881101121ADDAA106000091GF103991031021004501001001MA1999999096211MD1999999-0121REMSYN070AAXX  11184 83242 32497 31402 10284 20188 39621 40112 83200 333 59012;EQDQ01  00002PRCP06
0208832420999992004051200004-12567-041383FM-12+042799999V0200501N001512200019N0020001N1+02201+01941101351ADDAA106000091GA1001+999999999GF100991001001999999001001KA1240M+02921MA1999999096401MD1999999-0041REMSYN082AAXX  12004 83242 32995 00503 10220 20194 39640 40135 333 10292 29077 55087 59004;EQDQ01  00002PRCP06
0186832420999992004051212004-12567-041383FM-12+042799999V0200901N000510042019N0100001N1+02341+01961101651ADDAA106000091GF107991051061004501041001KA1240N+02051MA1999999096681MD1999999+0031REMSYN076AAXX  12124 83242 32497 70901 10234 20196 39668 40165 85640 333 20205 58003;EQDQ01  00002PRCP06
0167832420999992004051218004-12567-041383FM-12+042799999V0201401N000510450019N0100001N1+02801+01921101271ADDAA106000091GF106991041061004501031081MA1999999096271MD1999999+0061REMSYN070AAXX  12184 83242 32497 61401 10280 20192 39627 40127 84638 333 58006;EQDQ01  00002PRCP06
0186832420999992004051312004-12567-041383FM-12+042799999V0201801N001510042019N0100001N1+02341+01951101541ADDAA106000091GF108991081071004501999999KA1240N+02151MA1999999096601MD1999999-0081REMSYN076AAXX  13124 83242 32497 81803 10234 20195 39660 40154 887// 333 20215 59008;EQDQ01  00002PRCP06
0167832420999992004051318004-12567-041383FM-12+042799999V0201801N000510042019N0100001N1+02561+01951101141ADDAA106000091GF108991081071004501999999MA1999999096231MD1999999-0041REMSYN070AAXX  13184 83242 32497 81801 10256 20195 39623 40114 887// 333 59004;EQDQ01  00002PRCP06
0202832420999992004051400004-12567-041383FM-12+042799999V0200501N001510042019N0020001N1+02341+02151101331ADDAY151061AY221061GF108991081071004501999999KA1240M+02721MA1999999096401MD1999999-0121MW1001REMSYN100AAXX  14004 83242 21495 80503 10234 20215 39640 40133 70052 887// 333 10272 29082 55006 59012 69901;
0186832420999992004051412004-12567-041383FM-12+042799999V0200501N001010042019N0100001N1+02421+02111101421ADDAA106000091GF108991071071004501999999KA1240N+02191MA1999999096501MD1999999-0101REMSYN076AAXX  14124 83242 32497 80502 10242 20211 39650 40142 877// 333 20219 59010;EQDQ01  00002PRCP06
0167832420999992004051418004-12567-041383FM-12+042799999V0201401N000510450019N0100001N1+02881+02031100961ADDAA106000091GF105991031061004501051081MA1999999096091MD1999999-0141REMSYN070AAXX  14184 83242 32497 51401 10288 20203 39609 40096 83658 333 59014;EQDQ01  00002PRCP06
0208832420999992004051500004-12567-041383FM-12+042799999V0203601N001012200019N0020001N1+02381+02211101171ADDAA106000091GA1001+999999999GF100991001001999999001001KA1240M+03001MA1999999096261MD1999999-0141REMSYN082AAXX  15004 83242 32595 03602 10238 20221 39626 40117 333 10300 29081 55031 59014;EQDQ01  00002PRCP06
0190832420999992004051512004-12567-041383FM-12+042799999V0209999C000010042019N0040001N1+02381+02171101331ADDAY141061AY201061GF108991081071004501999999KA1240N+02151MA1999999096411MD1999999-0091MW1511REMSYN088AAXX  15124 83242 21496 80000 10238 20217 39641 40133 75140 887// 333 20215 59009 69904;
0160832420999992004051518004-12567-041383FM-12+042799999V0201401N000512200019N0040001N1+02961+02051100941ADDAA106000021GF104991021041004501061061MA1999999096041MD1999999-0051MW1051REMSYN076AAXX  15184 83242 31496 41401 10296 20205 39604 40094 705// 82466 333 59005;
0208832420999992004051600004-12567-041383FM-12+042799999V0203601N000512200019N0020001N1+02291+02111101211ADDAA106000091GA1001+999999999GF100991001001999999001001KA1240M+03061MA1999999096251MD1999999-0011REMSYN082AAXX  16004 83242 32995 03601 10229 20211 39625 40121 333 10306 29081 55051 59001;EQDQ01  00002PRCP06
0186832420999992004051612004-12567-041383FM-12+042799999V0209999C000010042019N0100001N1+02401+02111101441ADDAA106000091GF107991061071004501061001KA1240N+02011MA1999999096511MD1999999+0101REMSYN076AAXX  16124 83242 32497 70000 10240 20211 39651 40144 86760 333 20201 58010;EQDQ01  00002PRCP06
0167832420999992004051618004-12567-041383FM-12+042799999V0201801N000510450019N0100001N1+02941+01971101021ADDAA106000091GF106991041061004501041081MA1999999096151MD1999999+0111REMSYN070AAXX  16184 83242 32497 61801 10294 20197 39615 40102 84648 333 58011;EQDQ01  00002PRCP06
0208832420999992004051700004-12567-041383FM-12+042799999V0209999C000012200019N0020001N1+02441+02131101271ADDAA106000091GA1001+999999999GF100991001001999999001001KA1240M+02981MA1999999096351MD1999999+0101REMSYN082AAXX  17004 83242 32995 00000 10244 20213 39635 40127 333 10298 29076 55040 58010;EQDQ01  00002PRCP06
0186832420999992004051712004-12567-041383FM-12+042799999V0201401N001510450019N0100001N1+02421+01931101551ADDAA106000091GF106991041051004501061001KA1240N+01991MA1999999096641MD1999999+0131REMSYN076AAXX  17124 83242 32497 61403 10242 20193 39664 40155 84560 333 20199 58013;EQDQ01  00002PRCP06
0167832420999992004051718004-12567-041383FM-12+042799999V0201801N001510450019N0100001N1+02761+01911101121ADDAA106000091GF106991041041004501041061MA1999999096231MD1999999+0081REMSYN070AAXX  17184 83242 32497 61803 10276 20191 39623 40112 84446 333 58008;EQDQ01  00002PRCP06
0208832420999992004051800004-12567-041383FM-12+042799999V0203601N000512200019N0020001N1+02151+01921101381ADDAA106000091GA1001+999999999GF100991001001999999001001KA1240M+02841MA1999999096441MD1999999+0091REMSYN082AAXX  18004 83242 32995 03601 10215 20192 39644 40138 333 10284 29076 55069 58009;EQDQ01  00002PRCP06
0186832420999992004051812004-12567-041383FM-12+042799999V0201801N000510042019N0100001N1+02321+02051101671ADDAA106000091GF107991061061004501041001KA1240N+01991MA1999999096701MD1999999+0061REMSYN076AAXX  18124 83242 32497 71801 10232 20205 39670 40167 86640 333 20199 58006;EQDQ01  00002PRCP06
0167832420999992004051818004-12567-041383FM-12+042799999V0202301N001512200019N0100001N1+02761+01971101181ADDAA106000091GF104991021041004501051091MA1999999096271MD1999999+0041REMSYN070AAXX  18184 83242 32497 42303 10276 20197 39627 40118 82459 333 58004;EQDQ01  00002PRCP06
0202832420999992004051900004-12567-041383FM-12+042799999V0200501N001510042019N0020001N1+02291+02111101531ADDAY151061AY221061GF108991081071004501999999KA1240M+02901MA1999999096581MD1999999+0141MW1001REMSYN100AAXX  19004 83242 21495 80503 10229 20211 39658 40153 70052 887// 333 10290 29081 55056 58014 69911;
0190832420999992004051912004-12567-041383FM-12+042799999V0201401N001510042019N0100001N1+02301+02031101941ADDAY161061AY221061GF106991051071004501031001KA1240N+02131MA1999999096971MD1999999+0271MW1031REMSYN088AAXX  19124 83242 21497 61403 10230 20203 39697 40194 70362 85730 333 20213 58027 60104;
0136832420999992004051918004-12567-041383FM-12+042799999V0202301N000519999999N0100001N1+02801+99999999999ADDAA106000091GF105991999999004501999999REMSYN068AAXX  19184 83242 32497 52301 10280 195 39661 40152 84530 333 58034;EQDQ01  00002PRCP06
0202832420999992004052000004-12567-041383FM-12+042799999V0201801N003110042019N0010001N1+02301+02011101821ADDAY151061AY221061GF108991081071004501999999KA1240M+02921MA1999999096861MD1999999+0281MW1501REMSYN100AAXX  20004 83242 21494 81806 10230 20201 39686 40182 75052 887// 333 10292 29078 55077 58028 69901;
0186832420999992004052012004-12567-041383FM-12+042799999V0201401N001510042019N0100001N1+02251+01941102011ADDAA106000091GF106991051071004501051001KA1240N+01971MA1999999097041MD1999999+0071REMSYN076AAXX  20124 83242 32497 61403 10225 20194 39704 40201 85750 333 20197 58007;EQDQ01  00002PRCP06
0167832420999992004052018004-12567-041383FM-12+042799999V0201401N001012200019N0100001N1+02761+01831101481ADDAA106000091GF103991011011004501041061MA1999999096571MD1999999-0041REMSYN070AAXX  20184 83242 32497 31402 10276 20183 39657 40148 81146 333 59004;EQDQ01  00002PRCP06
0198832420999992004052100004-12567-041383FM-12+042799999V0203601N002112200019N0020001N1+02101+01721101671ADDAA106000091GF102991021011004501001001KA1240M+02841MA1999999096691MD1999999-0171REMSYN088AAXX  21004 83242 32495 23604 10210 20172 39669 40167 82100 333 10284 29074 55087 59017;EQDQ01  00002PRCP06
0190832420999992004052112004-12567-041383FM-12+042799999V0201801N001510450019N0100001N1+02251+02051101881ADDAY151061AY211061GF105991031071004501031001KA1240N+01851MA1999999096891MD1999999-0151MW1021REMSYN088AAXX  21124 83242 21497 51803 10225 20205 39689 40188 70251 83730 333 20185 59015 69944;
0152832420999992004052118004-12567-041383FM-12+042799999V0201801N002112200019N0100001N1+02861+01951101341ADDAA106000091GF104991999999004501999999MA1999999096421REMSYN069AAXX  21184 83242 32497 41804 10286 20195 39642 40134 8246 333 59015;EQDQ01  00002PRCP06
0202832420999992004052200004-12567-041383FM-12+042799999V0201801N001010042019N0020001N1+02311+01961101631ADDAY151061AY221061GF108991081071004501999999KA1240M+02901MA1999999096671MD1999999-0021MW1001REMSYN100AAXX  22004 83242 21495 81802 10231 20196 39667 40163 70052 887// 333 10290 29076 55067 59002 69901;
0214832420999992004052212004-12567-041383FM-12+042799999V0201401N003110042019N0040001N1+02321+01811101751ADDAA106000091AY151061AY221061GF107991061071004501021001KA1240N+02011MA1999999096791MD1999999-0101MW1031REMSYN082AAXX  22124 83242 31496 71406 10232 20181 39679 40175 70352 86720 333 20201 59010;EQDQ01  00002PRCP06
0167832420999992004052218004-12567-041383FM-12+042799999V0201401N003110042019N0100001N1+02601+02011101371ADDAA106000091GF107991061071004501031001MA1999999096451MD1999999+0031REMSYN070AAXX  22184 83242 32497 71406 10260 20201 39645 40137 86730 333 58003;EQDQ01  00002PRCP06
0202832420999992004052300004-12567-041383FM-12+042799999V0201801N001510042019N0020001N1+02141+01991101671ADDAY151061AY221061GF108991081071004501999999KA1240M+02721MA1999999096691MD1999999+0021MW1001REMSYN100AAXX  23004 83242 21495 81803 10214 20199 39669 40167 70052 887// 333 10272 29081 55045 58002 69911;
0162832420999992004052312004-12567-041383FM-12+042799999V0201801N003110042019N0020001N1+02161+01881101911ADDGF108991081071004501999999KA1240N+01951MA1999999096911MD1999999+0121REMSYN082AAXX  23124 83242 22495 81806 10216 20188 39691 40191 887// 333 20195 58012 69914;
0171832420999992004052318004-12567-041383FM-12+042799999V0201401N004110450019N0100001N1+02421+02051101531ADDAY151061AY221061GF107991041071004501031001MA1999999096571MD1999999+0121MW1031REMSYN082AAXX  23184 83242 21497 71408 10242 20205 39657 40153 70352 84730 333 58012 69901;
0198832420999992004052400004-12567-041383FM-12+042799999V0201401N003110042019N0020001N1+02201+01971101761ADDAA106000091GF108991081071004501999999KA1240M+02561MA1999999096781MD1999999+0091REMSYN088AAXX  24004 83242 32495 81406 10220 20197 39678 40176 887// 333 10256 29084 55030 58009;EQDQ01  00002PRCP06
0190832420999992004052412004-12567-041383FM-12+042799999V0201401N002110042019N0020001N1+02121+02071101911ADDAY161061AY221061GF108991081071004501999999KA1240N+01971MA1999999096941MD1999999+0031MW1501REMSYN088AAXX  24124 83242 21495 81404 10212 20207 39694 40191 75062 887// 333 20197 58003 60024;
0171832420999992004052418004-12567-041383FM-12+042799999V0201801N000511050019N0040001N1+02561+01951101531ADDAY151061AY221061GF106991021051004501071031MA1999999096581MD1999999+0011MW1151REMSYN082AAXX  24184 83242 21496 61801 10256 20195 39658 40153 71552 82573 333 58001 69901;
0198832420999992004052500004-12567-041383FM-12+042799999V0201801N001010042019N0020001N1+02201+02061101711ADDAA106000091GF107991061071004501031001KA1240M+02721MA1999999096721MD1999999-0061REMSYN088AAXX  25004 83242 32495 71802 10220 20206 39672 40171 86730 333 10272 29088 55036 59006;EQDQ01  00002PRCP06
0190832420999992004052512004-12567-041383FM-12+042799999V0201801N001510042019N0040001N1+02171+02081101901ADDAY161061AY221061GF107991061071004501031001KA1240N+01931MA1999999096911MD1999999-0031MW1031REMSYN088AAXX  25124 83242 21496 71803 10217 20208 39691 40190 70362 86730 333 20193 59003 60064;
0195832420999992004052518004-12567-041383FM-12+042799999V0201801N001010450019N0100001N1+02741+01971101391ADDAA106000091AY151061AY221061GF105991041041004501031001MA1999999096471MD1999999-0111MW1021REMSYN076AAXX  25184 83242 31497 51802 10274 20197 39647 40139 70252 84430 333 59011;EQDQ01  00002PRCP06
0198832420999992004052600004-12567-041383FM-12+042799999V0203601N001012200019N0020001N1+02161+02041101651ADDAA106000091GF101991011011004501001001KA1240M+02821MA1999999096661MD1999999-0061REMSYN088AAXX  26004 83242 32495 13602 10216 20204 39666 40165 81100 333 10282 29086 55058 59006;EQDQ01  00002PRCP06
0186832420999992004052612004-12567-041383FM-12+042799999V0200901N001510450019N0100001N1+02421+01931101681ADDAA106000091GF106991041051004501031001KA1240N+01911MA1999999096721MD1999999-0191REMSYN076AAXX  26124 83242 32497 60903 10242 20193 39672 40168 84530 333 20191 59019;EQDQ01  00002PRCP06
0167832420999992004052618004-12567-041383FM-12+042799999V0201801N001010450019N0100001N1+02821+01941101211ADDAA106000091GF108991021011004501041071MA1999999096311MD1999999-0161REMSYN070AAXX  26184 83242 32497 81802 10282 20194 39631 40121 82147 333 59016;EQDQ01  00002PRCP06
0208832420999992004052700004-12567-041383FM-12+042799999V0203601N001512200019N0020001N1+02121+01861101501ADDAA106000091GA1001+999999999GF100991001001999999001001KA1240M+03011MA1999999096541MD1999999-0121REMSYN082AAXX  27004 83242 32995 03603 10212 20186 39654 40150 333 10301 29076 55090 59012;EQDQ01  00002PRCP06
0186832420999992004052712004-12567-041383FM-12+042799999V0200501N001010450019N0100001N1+02201+01941101671ADDAA106000091GF106991041071004501051001KA1240N+01731MA1999999096681MD1999999-0041REMSYN076AAXX  27124 83242 32497 60502 10220 20194 39668 40167 84750 333 20173 59004;EQDQ01  00002PRCP06
0179832420999992004052718004-12567-041383FM-12+042799999V0201801N001511050019N0040001N1+02801+01901101211ADDAA106000091GF108991011011004501001071MA1999999096291MD1999999-0021MW1051REMSYN076AAXX  27184 83242 31496 81803 10280 20190 39629 40121 705// 81107 333 59002;EQDQ01  00002PRCP06
0198832420999992004052800004-12567-041383FM-12+042799999V0203601N001512200019N0020001N1+02181+01951101541ADDAA106000091GF101991011011004501001001KA1240M+02921MA1999999096571MD1999999+0031REMSYN088AAXX  28004 83242 32495 13603 10218 20195 39657 40154 81100 333 10292 29079 55063 58003;EQDQ01  00002PRCP06
0186832420999992004052812004-12567-041383FM-12+042799999V0201801N001010042019N0100001N1+02281+01961101881ADDAA106000091GF106991051051004501031001KA1240N+01751MA1999999096901MD1999999+0221REMSYN076AAXX  28124 83242 32497 61802 10228 20196 39690 40188 85530 333 20175 58022;EQDQ01  00002PRCP06
0167832420999992004052818004-12567-041383FM-12+042799999V0201801N002112200019N0100001N1+02801+01871101331ADDAA106000091GF104991031041004501031001MA1999999096411MD1999999+0121REMSYN070AAXX  28184 83242 32497 41804 10280 20187 39641 40133 83430 333 58012;EQDQ01  00002PRCP06
0198832420999992004052900004-12567-041383FM-12+042799999V0200501N001510042019N0020001N1+02261+01881101691ADDAA106000091GF107991061071004501081001KA1240M+02871MA1999999096721MD1999999+0151REMSYN088AAXX  29004 83242 32495 70503 10226 20188 39672 40169 86780 333 10287 29074 55086 58015;EQDQ01  00002PRCP06
0186832420999992004052912004-12567-041383FM-12+042799999V0201401N001510042019N0100001N1+02301+01981101921ADDAA106000091GF106991051071004501031001KA1240N+02031MA1999999096951MD1999999+0051REMSYN076AAXX  29124 83242 32497 61403 10230 20198 39695 40192 85730 333 20203 58005;EQDQ01  00002PRCP06
0167832420999992004052918004-12567-041383FM-12+042799999V0201801N001010042019N0100001N1+02781+01911101421ADDAA106000091GF106991051061004501031001MA1999999096511MD1999999+0101REMSYN070AAXX  29184 83242 32497 61802 10278 20191 39651 40142 85630 333 58010;EQDQ01  00002PRCP06
0202832420999992004053000004-12567-041383FM-12+042799999V0201801N001010042019N0020001N1+02221+02011101911ADDAY151061AY221061GF108991081071004501999999KA1240M+02341MA1999999096931MD1999999+0211MW1031REMSYN100AAXX  30004 83242 21495 81802 10222 20201 39693 40191 70352 887// 333 10234 29079 55052 58021 69911;
0190832420999992004053012004-12567-041383FM-12+042799999V0201801N001510042019N0100001N1+02181+02031101971ADDAY161061AY221061GF106991051071004501041001KA1240N+01931MA1999999096981MD1999999+0031MW1031REMSYN088AAXX  30124 83242 21497 61803 10218 20203 39698 40197 70362 85740 333 20193 58003 60014;
0171832420999992004053018004-12567-041383FM-12+042799999V0201401N001010042019N0040001N1+02741+01841101391ADDAY151061AY221061GF106991051071004501061001MA1999999096471MD1999999-0041MW1161REMSYN082AAXX  30184 83242 21496 61402 10274 20184 39647 40139 71652 85760 333 59004 69961;
0202832420999992004053100004-12567-041383FM-12+042799999V0202701N001010042019N0020001N1+02121+01971101731ADDAY161061AY251061GF108991081071004501999999KA1240M+02821MA1999999096741MD1999999-0191MW1031REMSYN100AAXX  31004 83242 21495 82702 10212 20197 39674 40173 70365 887// 333 10282 29083 55054 59019 60031;
0190832420999992004053112004-12567-041383FM-12+042799999V0201801N000510042019N0100001N1+02161+01991101901ADDAY161061AY221061GF107991051071004501041001KA1240N+01831MA1999999096901MD1999999-0081MW1031REMSYN088AAXX  31124 83242 21497 71801 10216 20199 39690 40190 70362 85740 333 20183 59008 60044;
0179832420999992004053118004-12567-041383FM-12+042799999V0201801N001510042019N0040001N1+02661+01851101411ADDAA106000091GF106991051071004501031001MA1999999096461MD1999999-0011MW1151REMSYN076AAXX  31184 83242 31496 61803 10266 20185 39646 40141 715// 85730 333 59001;EQDQ01  00002PRCP06
0186832420999992004060112004-12567-041383FM-12+042799999V0201401N002610042019N0100001N1+02161+01881101771ADDAA106000091GF105991051041004501001001KA1240N+01851MA1999999096781MD1999999-0121REMSYN076AAXX  01124 83242 32497 51405 10216 20188 39678 40177 85400 333 20185 59012;EQDQ01  00002PRCP06
0167832420999992004060118004-12567-041383FM-12+042799999V0201801N000512200019N0100001N1+02701+01911101461ADDAA106000091GF104991031041004501031001MA1999999096531MD1999999+0071REMSYN070AAXX  01184 83242 32497 41801 10270 20191 39653 40146 83430 333 58007;EQDQ01  00002PRCP06
0198832420999992004060200004-12567-041383FM-12+042799999V0201801N001510042019N0020001N1+02281+01941101811ADDAA106000091GF108991081071004501999999KA1240M+02761MA1999999096831MD1999999+0201REMSYN088AAXX  02004 83242 32495 81803 10228 20194 39683 40181 887// 333 10276 29077 55082 58020;EQDQ01  00002PRCP06
0186832420999992004060212004-12567-041383FM-12+042799999V0201801N002610042019N0100001N1+02221+01901101921ADDAA106000091GF106991051061004501031001KA1240N+01911MA1999999096941MD1999999+0161REMSYN076AAXX  02124 83242 32497 61805 10222 20190 39694 40192 85630 333 20191 58016;EQDQ01  00002PRCP06
0167832420999992004060218004-12567-041383FM-12+042799999V0201801N001010450019N0100001N1+02701+01831101451ADDAA106000091GF105991041051004501031001MA1999999096531MD1999999+0001REMSYN070AAXX  02184 83242 32497 51802 10270 20183 39653 40145 84530 333 58000;EQDQ01  00002PRCP06
0215832420999992004060300004-12567-041383FM-12+042799999V0202701N001510042019N0020001N1+02181+02041101831ADDAY121061AY211061GF108991081071004501999999KA1240M+02801MA1999999096851MD1999999+0021REMSYN100AAXX  03004 83242 21495 82703 10218 20204 39685 40183 75621 887// 333 10280 29081 55065 58002 69911;EQDQ01+000562PRSWM1
0162832420999992004060312004-12567-041383FM-12+042799999V0201401N000510450019N0100001N1+02261+01861101881ADDGF105991031051004501031001KA1240N+01791MA1999999096891MD1999999-0051REMSYN082AAXX  03124 83242 22497 51401 10226 20186 39689 40188 83530 333 20179 59005 69914;
0167832420999992004060318004-12567-041383FM-12+042799999V0201801N001011050019N0100001N1+02781+01701101421ADDAA106000091GF105991021041004501051041MA1999999096501MD1999999-0031REMSYN070AAXX  03184 83242 32497 51802 10278 20170 39650 40142 82454 333 59003;EQDQ01  00002PRCP06
0198832420999992004060400004-12567-041383FM-12+042799999V0200901N000510450019N0020001N1+02201+01901101681ADDAA106000091GF106991041071004501031001KA1240M+02861MA1999999096711MD1999999-0141REMSYN088AAXX  04004 83242 32495 60901 10220 20190 39671 40168 84730 333 10286 29074 55099 59014;EQDQ01  00002PRCP06
0186832420999992004060412004-12567-041383FM-12+042799999V0209999C000010042019N0100001N1+02201+01901101761ADDAA106000091GF108991081071004501999999KA1240N+01991MA1999999096781MD1999999-0111REMSYN076AAXX  04124 83242 32497 80000 10220 20190 39678 40176 887// 333 20199 59011;EQDQ01  00002PRCP06
0179832420999992004060418004-12567-041383FM-12+042799999V0201401N001010042019N0040001N1+02641+01831101331ADDAA106000091GF108991051061004501081071MA1999999096371MD1999999-0131MW1051REMSYN076AAXX  04184 83242 31496 81402 10264 20183 39637 40133 705// 85687 333 59013;EQDQ01  00002PRCP06
0210832420999992004060500004-12567-041383FM-12+042799999V0200501N001519999999N0010001N1+02061+01891101531ADDAA106000091GF107991001001999999001021KA1240M+02721MA1999999096551MD1999999-0161MW1101REMSYN094AAXX  05004 83242 31994 70503 10206 20189 39655 40153 710// 80002 333 10272 29081 55025 59016;EQDQ01  00002PRCP06
0198832420999992004060512004-12567-041383FM-12+042799999V0201801N000510042019N0040001N1+02121+01951101681ADDAA106000091GF108991081061004501999999KA1240N+01791MA1999999096681MD1999999-0101MW1101REMSYN082AAXX  05124 83242 31496 81801 10212 20195 39668 40168 710// 886// 333 20179 59010;EQDQ01  00002PRCP06
0179832420999992004060518004-12567-041383FM-12+042799999V0201401N001011050019N0040001N1+02881+01861101261ADDAA106000091GF108991011021004501001071MA1999999096351MD1999999-0031MW1051REMSYN076AAXX  05184 83242 31496 81402 10288 20186 39635 40126 705// 81207 333 59003;EQDQ01  00002PRCP06
0208832420999992004060600004-12567-041383FM-12+042799999V0203201N000512200019N0020001N1+02171+01941101511ADDAA106000091GA1001+999999999GF100991001001999999001001KA1240M+02421MA1999999096531MD1999999-0021REMSYN082AAXX  06004 83242 32995 03201 10217 20194 39653 40151 333 10242 29079 55047 59002;EQDQ01  00002PRCP06
0186832420999992004060612004-12567-041383FM-12+042799999V0201801N001510450019N0100001N1+02381+01951101801ADDAA106000091GF106991031051004501051001KA1240N+01911MA1999999096841MD1999999+0161REMSYN076AAXX  06124 83242 32497 61803 10238 20195 39684 40180 83550 333 20191 58016;EQDQ01  00002PRCP06
0179832420999992004060618004-12567-041383FM-12+042799999V0201801N000510450019N0040001N1+02761+01891101431ADDAA106000091GF105991041061004501051001MA1999999096511MD1999999+0161MW1051REMSYN076AAXX  06184 83242 31496 51801 10276 20189 39651 40143 705// 84650 333 58016;EQDQ01  00002PRCP06
0198832420999992004060712004-12567-041383FM-12+042799999V0201801N001510042019N0040001N1+02161+01971102061ADDAA106000091GF108991081071004501999999KA1240N+01971MA1999999097041MD1999999+0201MW1141REMSYN082AAXX  07124 83242 31496 81803 10216 20197 39704 40206 714// 887// 333 20197 58020;EQDQ01  00002PRCP06
0171832420999992004060718004-12567-041383FM-12+042799999V0202301N001010042019N0040001N1+02501+01941101731ADDAY151061AY221061GF107991061071004501031001MA1999999096771MD1999999+0261MW1151REMSYN082AAXX  07184 83242 21496 72302 10250 20194 39677 40173 71552 86730 333 58026 69951;
0202832420999992004060800004-12567-041383FM-12+042799999V0201801N001010042019N0020001N1+02221+02101101881ADDAY151061AY221061GF108991081071004501999999KA1240M+02621MA1999999096891MD1999999+0091MW1031REMSYN100AAXX  08004 83242 21495 81802 10222 20210 39689 40188 70352 887// 333 10262 29086 55022 58009 69931;
0162832420999992004060812004-12567-041383FM-12+042799999V0201801N001010042019N0100001N1+02061+01871102011ADDGF108991081071004501999999KA1240N+01771MA1999999097011MD1999999-0031REMSYN082AAXX  08124 83242 22497 81802 10206 20187 39701 40201 887// 333 20177 59003 69984;
0179832420999992004060818004-12567-041383FM-12+042799999V0201801N001510042019N0040001N1+02481+01751101721ADDAA106000091GF108991081071004501999999MA1999999096751MD1999999-0021MW1151REMSYN076AAXX  08184 83242 31496 81803 10248 20175 39675 40172 715// 887// 333 59002;EQDQ01  00002PRCP06
0202832420999992004060900004-12567-041383FM-12+042799999V0201801N001510042019N0020001N1+02161+01841102011ADDAY151061AY221061GF108991081071004501999999KA1240M+02561MA1999999097001MD1999999+0111MW1001REMSYN100AAXX  09004 83242 21495 81803 10216 20184 39700 40201 70052 887// 333 10256 29079 55004 58011 69901;
0190832420999992004060912004-12567-041383FM-12+042799999V0201401N002112200019N0100001N1+02211+01861102131ADDAY151061AY221061GF104991041051004501001001KA1240N+01831MA1999999097131MD1999999+0121MW1011REMSYN088AAXX  09124 83242 21497 41404 10221 20186 39713 40213 70152 84500 333 20183 58012 69954;
0167832420999992004060918004-12567-041383FM-12+042799999V0201401N001010042019N0100001N1+02781+01671101651ADDAA106000091GF106991051051004501031001MA1999999096721MD1999999-0031REMSYN070AAXX  09184 83242 32497 61402 10278 20167 39672 40165 85530 333 59003;EQDQ01  00002PRCP06
0208832420999992004061000004-12567-041383FM-12+042799999V0202301N000512200019N0020001N1+02201+01881101901ADDAA106000091GA1001+999999999GF100991001001999999001001KA1240M+02841MA1999999096911MD1999999-0091REMSYN082AAXX  10004 83242 32995 02301 10220 20188 39691 40190 333 10284 29074 55084 59009;EQDQ01  00002PRCP06
0190832420999992004061012004-12567-041383FM-12+042799999V0201801N001510042019N0100001N1+02021+01871102191ADDAY161061AY201061GF106991051071004501051001KA1240N+01831MA1999999097171MD1999999+0041MW1021REMSYN088AAXX  10124 83242 21497 61803 10202 20187 39717 40219 70260 85750 333 20183 58004 60014;
0179832420999992004061018004-12567-041383FM-12+042799999V0201801N001010450019N0040001N1+02741+01641101631ADDAA106000091GF105991041041004501031001MA1999999096681MD1999999-0041MW1051REMSYN076AAXX  10184 83242 31496 51802 10274 20164 39668 40163 705// 84430 333 59004;EQDQ01  00002PRCP06
0202832420999992004061100004-12567-041383FM-12+042799999V0201801N002110042019N0005001N1+02061+02031102011ADDAY161061AY221061GF108991081071004501999999KA1240M+02821MA1999999096991MD1999999+0081MW1211REMSYN100AAXX  11004 83242 21493 81804 10206 20203 39699 40201 72162 887// 333 10282 29084 55064 58008 60021;
0190832420999992004061112004-12567-041383FM-12+042799999V0201401N002110450019N0100001N1+02201+01761102161ADDAY161061AY221061GF106991041061004501031001KA1240N+01811MA1999999097151MD1999999-0011MW1021REMSYN088AAXX  11124 83242 21497 61404 10220 20176 39715 40216 70262 84630 333 20181 59001 60054;
0190832420999992004061118004-12567-041383FM-12+042799999V0201801N002110042019N0040001N1+02441+01761101182ADDAY151061AY221061GF106991051071004501031001MA1999999096831MD1999999+0151MW1151REMSYN082AAXX  11184 83242 21496 61804 10244 20176 39683 40118 71552 85730 333 58015 69901;EQDQ01+101183APOSLP
0208832420999992004061200004-12567-041383FM-12+042799999V0200901N001012200019N0020001N1+01881+01691101991ADDAA106000091GA1001+999999999GF100991001001999999001001KA1240M+02561MA1999999096971MD1999999-0021REMSYN082AAXX  12004 83242 32995 00902 10188 20169 39697 40199 333 10256 29080 55040 59002;EQDQ01  00002PRCP06
0186832420999992004061212004-12567-041383FM-12+042799999V0201401N001510042019N0100001N1+02111+01721102151ADDAA106000091GF106991051071004501041001KA1240N+01731MA1999999097201MD1999999+0051REMSYN076AAXX  12124 83242 32497 61403 10211 20172 39720 40215 85740 333 20173 58005;EQDQ01  00002PRCP06
0167832420999992004061218004-12567-041383FM-12+042799999V0201801N000510042019N0100001N1+02541+01541101861ADDAA106000091GF106991051071004501081001MA1999999096841MD1999999+0031REMSYN070AAXX  12184 83242 32497 61801 10254 20154 39684 40186 85780 333 58003;EQDQ01  00002PRCP06
0190832420999992004061312004-12567-041383FM-12+042799999V0200901N000510450019N0100001N1+02231+01881102011ADDAY161061AY221061GF105991031051004501041001KA1240N+01671MA1999999097021MD1999999-0121MW1011REMSYN088AAXX  13124 83242 21497 50901 10223 20188 39702 40201 70162 83540 333 20167 59012 60024;
0167832420999992004061318004-12567-041383FM-12+042799999V0201801N002612200019N0100001N1+02721+02051101521ADDAA106000091GF104991041041004501001001MA1999999096571MD1999999-0271REMSYN070AAXX  13184 83242 32497 41805 10272 20205 39657 40152 84400 333 59027;EQDQ01  00002PRCP06
0186832420999992004061412004-12567-041383FM-12+042799999V0201801N001010450019N0100001N1+02121+01861102091ADDAA106000091GF106991041071004501031001KA1240N+01831MA1999999097071MD1999999+0051REMSYN076AAXX  14124 83242 32497 61802 10212 20186 39707 40209 84730 333 20183 58005;EQDQ01  00002PRCP06
0167832420999992004061418004-12567-041383FM-12+042799999V0201801N002110450019N0100001N1+02541+01761101601ADDAA106000091GF106991041051004501031001MA1999999096761MD1999999+0291REMSYN070AAXX  14184 83242 32497 61804 10254 20176 39676 40160 84530 333 58029;EQDQ01  00002PRCP06
0198832420999992004061500004-12567-041383FM-12+042799999V0201401N001010042019N0020001N1+02221+01861102041ADDAA106000091GF108991081071004501999999KA1240M+02661MA1999999097041MD1999999+0181REMSYN088AAXX  15004 83242 32495 81402 10222 20186 39704 40204 887// 333 10266 29077 55042 58018;EQDQ01  00002PRCP06
0186832420999992004061512004-12567-041383FM-12+042799999V0201801N002610042019N0100001N1+02141+01821102071ADDAA106000091GF107991061071004501051001KA1240N+01891MA1999999097071MD1999999+0001REMSYN076AAXX  15124 83242 32497 71805 10214 20182 39707 40207 86750 333 20189 58000;EQDQ01  00002PRCP06
0167832420999992004061518004-12567-041383FM-12+042799999V0201801N001519999999N0040001N1+02501+01771101691ADDAA106000091GF106991011051004501999999MA1999999096731MD1999999-0031REMSYN070AAXX  15184 83242 32496 61803 10250 20177 39673 40169 815// 333 59003;EQDQ01  00002PRCP06
0202832420999992004061600004-12567-041383FM-12+042799999V0201401N002110042019N0005001N1+02021+01951102041ADDAY121061AY211061GF108991081071004501999999KA1240M+02581MA1999999097031MD1999999-0011MW1211REMSYN100AAXX  16004 83242 21493 81404 10202 20195 39703 40204 72121 887// 333 10258 29084 55017 59001 60061;
0190832420999992004061612004-12567-041383FM-12+042799999V0201401N001010042019N0100001N1+02041+01891102051ADDAY161061AY221061GF108991081071004501999999KA1240N+01851MA1999999097031MD1999999-0041MW1031REMSYN088AAXX  16124 83242 21497 81402 10204 20189 39703 40205 70362 887// 333 20185 59004 60174;
0167832420999992004061618004-12567-041383FM-12+042799999V0201801N000510042019N0100001N1+02501+01821101611ADDAA106000091GF106991051051004501051001MA1999999096641MD1999999-0091REMSYN070AAXX  16184 83242 32497 61801 10250 20182 39664 40161 85550 333 59009;EQDQ01  00002PRCP06
0190832420999992004061712004-12567-041383FM-12+042799999V0201801N000510042019N0100001N1+02001+01851102121ADDAY151061AY221061GF108991081071004501999999KA1240N+01771MA1999999097091MD1999999+0061MW1031REMSYN088AAXX  17124 83242 21497 81801 10200 20185 39709 40212 70352 887// 333 20177 58006 69924;
0171832420999992004061718004-12567-041383FM-12+042799999V0201801N001510450019N0100001N1+02541+02111101651ADDAY161061AY221061GF106991041051004501031041MA1999999096681MD1999999+0041MW1011REMSYN082AAXX  17184 83242 21497 61803 10254 20211 39668 40165 70162 84534 333 58004 60011;
0198832420999992004061800004-12567-041383FM-12+042799999V0200501N001010042019N0020001N1+02061+01801101971ADDAA106000091GF108991081071004501999999KA1240M+02661MA1999999096951MD1999999+0051REMSYN088AAXX  18004 83242 32495 80502 10206 20180 39695 40197 887// 333 10266 29084 55035 58005;EQDQ01  00002PRCP06
0162832420999992004061812004-12567-041383FM-12+042799999V0201801N001510042019N0100001N1+02021+01781102151ADDGF107991061071004501061001KA1240N+01611MA1999999097121MD1999999+0031REMSYN082AAXX  18124 83242 22497 71803 10202 20178 39712 40215 86760 333 20161 58003 60014;
0167832420999992004061818004-12567-041383FM-12+042799999V0201801N001510042019N0100001N1+02521+01581101621ADDAA106000091GF106991051061004501031001MA1999999096721MD1999999+0041REMSYN070AAXX  18184 83242 32497 61803 10252 20158 39672 40162 85630 333 58004;EQDQ01  00002PRCP06
0198832420999992004061900004-12567-041383FM-12+042799999V0201401N000510042019N0020001N1+02161+01931102041ADDAA106000091GF108991081071004501999999KA1240M+02621MA1999999097031MD1999999+0081REMSYN088AAXX  19004 83242 32495 81401 10216 20193 39703 40204 887// 333 10262 29079 55033 58008;EQDQ01  00002PRCP06
0190832420999992004061912004-12567-041383FM-12+042799999V0201401N001510042019N0040001N1+02001+01921102221ADDAY161061AY221061GF108991081071004501999999KA1240N+01851MA1999999097201MD1999999+0081MW1511REMSYN088AAXX  19124 83242 21496 81403 10200 20192 39720 40222 75162 887// 333 20185 58008 60014;
0171832420999992004061918004-12567-041383FM-12+042799999V0201801N001510042019N0040001N1+02441+01791101991ADDAY161061AY221061GF107991061071004501051001MA1999999097001MD1999999+0281MW1151REMSYN082AAXX  19184 83242 21496 71803 10244 20179 39700 40199 71562 86750 333 58028 60031;
0190832420999992004062018004-12567-041383FM-12+042799999V0201801N002610042019N0040001N1+02241+01711101941ADDAY151061AY221061GF108991999071004501001001MA1999999096931MD1999999-0031MW1151REMSYN082AAXX  20184 83242 21496 81805 10224 20171 39693 40194 71552 86700 333 59003 69901;EQDQ01+000062SCOTLC
0186832420999992004062112004-12567-041383FM-12+042799999V0201401N004112200019N0100001N1+02081+01621102161ADDAA106000091GF104991031041004501001091KA1240N+01611MA1999999097131MD1999999-0101REMSYN076AAXX  21124 83242 32497 41408 10208 20162 39713 40216 83409 333 20161 59010;EQDQ01  00002PRCP06
0167832420999992004062118004-12567-041383FM-12+042799999V0201801N002110042019N0100001N1+02641+01421101761ADDAA106000091GF107991051061004501031001MA1999999096791MD1999999-0141REMSYN070AAXX  21184 83242 32497 71804 10264 20142 39679 40176 85630 333 59014;EQDQ01  00002PRCP06
0198832420999992004062200004-12567-041383FM-12+042799999V0201801N001512200019N0020001N1+02081+01841101961ADDAA106000091GF102991021041004501001001KA1240M+02741MA1999999096951MD1999999-0101REMSYN088AAXX  22004 83242 32495 21803 10208 20184 39695 40196 82400 333 10274 29073 55085 59010;EQDQ01  00002PRCP06
0186832420999992004062212004-12567-041383FM-12+042799999V0201801N001010042019N0100001N1+02041+01741102081ADDAA106000091GF108991081071004501999999KA1240N+01491MA1999999097051MD1999999-0081REMSYN076AAXX  22124 83242 32497 81802 10204 20174 39705 40208 887// 333 20149 59008;EQDQ01  00002PRCP06
0171832420999992004062218004-12567-041383FM-12+042799999V0201801N002110042019N0100001N1+02471+01751101711ADDAY151061AY221061GF106991051071004501061001MA1999999096711MD1999999-0081MW1031REMSYN082AAXX  22184 83242 21497 61804 10247 20175 39671 40171 70352 85760 333 59008 69931;
0198832420999992004062300004-12567-041383FM-12+042799999V0201801N001010042019N0020001N1+02041+01851101971ADDAA106000091GF107991071071004501001001KA1240M+02661MA1999999096951MD1999999+0001REMSYN088AAXX  23004 83242 32495 71802 10204 20185 39695 40197 87700 333 10266 29081 55047 58000;EQDQ01  00002PRCP06
0162832420999992004062312004-12567-041383FM-12+042799999V0201801N001510042019N0040001N1+02101+01721102191ADDGF107991061071004501081001KA1240N+01771MA1999999097161MD1999999+0111REMSYN082AAXX  23124 83242 22496 71803 10210 20172 39716 40219 86780 333 20177 58011 69934;
0190832420999992004062412004-12567-041383FM-12+042799999V0201801N002112200019N0100001N1+02121+01641102001ADDAY151061AY221061GF104991021011004501051011KA1240N+01771MA1999999097071MD1999999-0091MW1001REMSYN088AAXX  24124 83242 21497 41804 10212 20164 39707 40200 70052 82151 333 20177 59009 69924;
0171832420999992004062418004-12567-041383FM-12+042799999V0201801N003110042019N0040001N1+02301+01661101671ADDAY151061AY211061GF107991061071004501051001MA1999999096681MD1999999-0031MW1151REMSYN082AAXX  24184 83242 21496 71806 10230 20166 39668 40167 71551 86750 333 59003 69901;
0202832420999992004062500004-12567-041383FM-12+042799999V0203601N001010042019N0005001N1+01881+01811101951ADDAY161061AY221061GF108991081071004501999999KA1240M+02501MA1999999096921MD1999999-0071MW1101REMSYN100AAXX  25004 83242 21493 83602 10188 20181 39692 40195 71062 887// 333 10250 29083 55044 59007 60031;
0167832420999992004062518004-12567-041383FM-12+042799999V0201801N001512200019N0100001N1+02581+01611101491ADDAA106000091GF104991041011004501001001MA1999999096521MD1999999-0161REMSYN070AAXX  25184 83242 32497 41803 10258 20161 39652 40149 84100 333 59016;EQDQ01  00002PRCP06
0198832420999992004062600004-12567-041383FM-12+042799999V0203601N001512200019N0020001N1+01841+01551101801ADDAA106000091GF102991021001017501051001KA1240M+02661MA1999999096771MD1999999-0151REMSYN088AAXX  26004 83242 32795 23603 10184 20155 39677 40180 82050 333 10266 29076 55086 59015;EQDQ01  00002PRCP06
0186832420999992004062612004-12567-041383FM-12+042799999V0202301N001010042019N0040001N1+01981+01701102041ADDAA106000091GF107991061071004501051001KA1240N+01621MA1999999096981MD1999999-0021REMSYN076AAXX  26124 83242 32496 72302 10198 20170 39698 40204 86750 333 20162 59002;EQDQ01  00002PRCP06
0167832420999992004062618004-12567-041383FM-12+042799999V0201801N002110042019N0040001N1+02421+01861101641ADDAA106000091GF107991051071004501081001MA1999999096651MD1999999+0131REMSYN070AAXX  26184 83242 32496 71804 10242 20186 39665 40164 85780 333 58013;EQDQ01  00002PRCP06
0202832420999992004062700004-12567-041383FM-12+042799999V0203601N000510042019N0020001N1+02021+01941101901ADDAY151061AY221061GF108991081071004501999999KA1240M+02521MA1999999096871MD1999999+0101MW1021REMSYN100AAXX  27004 83242 21495 83601 10202 20194 39687 40190 70252 887// 333 10252 29086 55012 58010 69961;
0190832420999992004062712004-12567-041383FM-12+042799999V0201801N002110042019N0100001N1+02061+01871102021ADDAY161061AY221061GF107991061071004501051001KA1240N+01771MA1999999097001MD1999999+0021MW1031REMSYN088AAXX  27124 83242 21497 71804 10206 20187 39700 40202 70362 86750 333 20177 58002 60024;
0167832420999992004062718004-12567-041383FM-12+042799999V0201801N001510042019N0100001N1+02561+01731101591ADDAA106000091GF106991051031004501051001MA1999999096631MD1999999-0021REMSYN070AAXX  27184 83242 32497 61803 10256 20173 39663 40159 85350 333 59002;EQDQ01  00002PRCP06
0202832420999992004062800004-12567-041383FM-12+042799999V0201801N001510042019N0005001N1+02101+01981101921ADDAY151061AY221061GF108991081071004501999999KA1240M+02761MA1999999096911MD1999999+0041MW1201REMSYN100AAXX  28004 83242 21493 81803 10210 20198 39691 40192 72052 887// 333 10276 29084 55059 58004 69931;
0190832420999992004062812004-12567-041383FM-12+042799999V0201801N002610042019N0100001N1+02121+01821101921ADDAY161061AY221061GF107991061021004501001021KA1240N+01791MA1999999096911MD1999999-0091MW1031REMSYN088AAXX  28124 83242 21497 71805 10212 20182 39691 40192 70362 86202 333 20179 59009 60034;
0167832420999992004062818004-12567-041383FM-12+042799999V0201801N001510042019N0100001N1+02441+01811101521ADDAA106000091GF107991061071004501081001MA1999999096551MD1999999-0081REMSYN070AAXX  28184 83242 32497 71803 10244 20181 39655 40152 86780 333 59008;EQDQ01  00002PRCP06
0202832420999992004062900004-12567-041383FM-12+042799999V0201801N001010042019N0010001N1+02121+01911101771ADDAY151061AY221061GF108991081071004501999999KA1240M+02541MA1999999096771MD1999999-0141MW1101REMSYN100AAXX  29004 83242 21494 81802 10212 20191 39677 40177 71052 887// 333 10254 29082 55027 59014 69901;
0190832420999992004062912004-12567-041383FM-12+042799999V0201801N001010042019N0100001N1+02081+01841102051ADDAY151061AY221061GF107991061071004501041001KA1240N+01771MA1999999097041MD1999999+0131MW1021REMSYN088AAXX  29124 83242 21497 71802 10208 20184 39704 40205 70252 86740 333 20177 58013 69934;
0167832420999992004062918004-12567-041383FM-12+042799999V0201801N001510450019N0100001N1+02601+01741101551ADDAA106000091GF105991031041004501031001MA1999999096591MD1999999+0041REMSYN070AAXX  29184 83242 32497 51803 10260 20174 39659 40155 83430 333 58004;EQDQ01  00002PRCP06
0198832420999992004063000004-12567-041383FM-12+042799999V0200901N001010042019N0020001N1+02031+01741101781ADDAA106000091GF106991061051004501001001KA1240M+02701MA1999999096771MD1999999+0001REMSYN088AAXX  30004 83242 32495 60902 10203 20174 39677 40178 86500 333 10270 29078 55069 58000;EQDQ01  00002PRCP06
0186832420999992004063012004-12567-041383FM-12+042799999V0201401N001510450019N0100001N1+02181+01881101971ADDAA106000091GF105991031041004501051001KA1240N+01731MA1999999096961MD1999999-0081REMSYN076AAXX  30124 83242 32497 51403 10218 20188 39696 40197 83450 333 20173 59008;EQDQ01  00002PRCP06
0167832420999992004063018004-12567-041383FM-12+042799999V0201401N001510042019N0100001N1+02381+01801101581ADDAA106000091GF108991081071004501999999MA1999999096601MD1999999+0011REMSYN070AAXX  30184 83242 32497 81403 10238 20180 39660 40158 887// 333 58001;EQDQ01  00002PRCP06
0202832420999992004070100004-12567-041383FM-12+042799999V0201801N003110042019N0010001N1+01961+01891101951ADDAY151061AY221061GF108991081071004501999999KA1240M+02581MA1999999096931MD1999999+0161MW1611REMSYN100AAXX  01004 83242 21494 81806 10196 20189 39693 40195 76152 887// 333 10258 29086 55029 58016 60031;
0190832420999992004070112004-12567-041383FM-12+042799999V0200901N000510042019N0040001N1+01961+01841101981ADDAY161061AY221061GF108991081071004501999999KA1240N+01651MA1999999096941MD1999999-0021MW1101REMSYN088AAXX  01124 83242 21496 80901 10196 20184 39694 40198 71062 887// 333 20165 59002 60044;
0167832420999992004070118004-12567-041383FM-12+042799999V0201401N001510042019N0100001N1+02541+01761101491ADDAA106000091GF107991061071004501051001MA1999999096511MD1999999-0091REMSYN070AAXX  01184 83242 32497 71403 10254 20176 39651 40149 86750 333 59009;EQDQ01  00002PRCP06
0202832420999992004070200004-12567-041383FM-12+042799999V0201801N001510042019N0020001N1+02201+01941101691ADDAY141061AY221061GF108991081071004501999999KA1240M+02681MA1999999096961MD1999999-0241MW1501REMSYN100AAXX  02004 83242 21495 81803 10220 20194 39696 40169 75042 887// 333 10268 29081 55044 59024 69901;
0171832420999992004070218004-12567-041383FM-12+042799999V0201801N002110042019N0020001N1+02101+02031101551ADDAY161061AY241061GF108991081071004501999999MA1999999096551MD1999999-0041MW1611REMSYN082AAXX  02184 83242 21495 81804 10210 20203 39655 40155 76164 887// 333 59004 60051;
0202832420999992004070300004-12567-041383FM-12+042799999V0203601N001510042019N0020001N1+01991+01931101781ADDAY161061AY241061GF108991081071004501999999KA1240M+02381MA1999999096771MD1999999-0191MW1031REMSYN100AAXX  03004 83242 21495 83603 10199 20193 39677 40178 70364 887// 333 10238 29096 55000 59019 60051;
0190832420999992004070312004-12567-041383FM-12+042799999V0201401N001010042019N0040001N1+01961+01721101881ADDAY161061AY221061GF108991081071004501999999KA1240N+01631MA1999999096851MD1999999+0011MW1161REMSYN088AAXX  03124 83242 21496 81402 10196 20172 39685 40188 71662 887// 333 20163 58001 60104;
0171832420999992004070318004-12567-041383FM-12+042799999V0201801N002610042019N0100001N1+02461+01731101481ADDAY151061AY221061GF106991051071004501051001MA1999999096501MD1999999-0051MW1021REMSYN082AAXX  03184 83242 21497 61805 10246 20173 39650 40148 70252 85750 333 59005 69921;
0198832420999992004070400004-12567-041383FM-12+042799999V0203601N001012200019N0020001N1+02001+01801101741ADDAA106000091GF104991041051004501001001KA1240M+02591MA1999999096721MD1999999-0051REMSYN088AAXX  04004 83242 32495 43602 10200 20180 39672 40174 84500 333 10259 29082 55036 59005;EQDQ01  00002PRCP06
0162832420999992004070412004-12567-041383FM-12+042799999V0201801N002112200019N0100001N1+02131+01781101821ADDGF103991031021004501001001KA1240N+01711MA1999999096811MD1999999-0041REMSYN082AAXX  04124 83242 22497 31804 10213 20178 39681 40182 83200 333 20171 59004 69924;
0167832420999992004070418004-12567-041383FM-12+042799999V0201401N001510042019N0100001N1+02631+01381101381ADDAA106000091GF106991051041004501031001MA1999999096431MD1999999-0071REMSYN070AAXX  04184 83242 32497 61403 10263 20138 39643 40138 85430 333 59007;EQDQ01  00002PRCP06
0198832420999992004070500004-12567-041383FM-12+042799999V0200901N000510042019N0020001N1+02181+01821101591ADDAA106000091GF106991051071004501041001KA1240M+02801MA1999999096611MD1999999-0111REMSYN088AAXX  05004 83242 32495 60901 10218 20182 39661 40159 85740 333 10280 29074 55091 59011;EQDQ01  00002PRCP06
0198832420999992004070512004-12567-041383FM-12+042799999V0201801N001510042019N0040001N1+02061+01911101911ADDAA106000091GF108991081071004501999999KA1240N+01791MA1999999096901MD1999999+0091MW1101REMSYN082AAXX  05124 83242 31496 81803 10206 20191 39690 40191 710// 887// 333 20179 58009;EQDQ01  00002PRCP06
0167832420999992004070518004-12567-041383FM-12+042799999V0201801N001010450019N0100001N1+02661+01951101471ADDAA106000091GF105991041051004501031001MA1999999096541MD1999999+0111REMSYN070AAXX  05184 83242 32497 51802 10266 20195 39654 40147 84530 333 58011;EQDQ01  00002PRCP06
0208832420999992004070600004-12567-041383FM-12+042799999V0201801N000512200019N0020001N1+02081+01721101681ADDAA106000091GA1001+999999999GF100991001001999999001001KA1240M+02761MA1999999096671MD1999999+0061REMSYN082AAXX  06004 83242 32995 01801 10208 20172 39667 40168 333 10276 29078 55048 58006;EQDQ01  00002PRCP06
0190832420999992004070612004-12567-041383FM-12+042799999V0202701N001010042019N0040001N1+02021+01831101831ADDAY151061AY211061GF108991081071004501999999KA1240N+01731MA1999999096821MD1999999-0081MW1161REMSYN088AAXX  06124 83242 21496 82702 10202 20183 39682 40183 71651 887// 333 20173 59008 69944;
0167832420999992004070618004-12567-041383FM-12+042799999V0201401N000512200019N0100001N1+02781+01791101231ADDAA106000091GF104991031041004501021001MA1999999096311MD1999999-0231REMSYN070AAXX  06184 83242 32497 41401 10278 20179 39631 40123 83420 333 59023;EQDQ01  00002PRCP06
0198832420999992004070700004-12567-041383FM-12+042799999V0201801N001010042019N0020001N1+02321+01811101531ADDAA106000091GF108991081061004501999999KA1240M+03161MA1999999096551MD1999999-0121REMSYN088AAXX  07004 83242 32495 81802 10232 20181 39655 40153 886// 333 10316 29072 55059 59012;EQDQ01  00002PRCP06
0190832420999992004070712004-12567-041383FM-12+042799999V0201801N001010042019N0100001N1+02021+01871101681ADDAY161061AY221061GF108991081071004501999999KA1240N+01831MA1999999096691MD1999999-0131MW1031REMSYN088AAXX  07124 83242 21497 81802 10202 20187 39669 40168 70362 887// 333 20183 59013 60024;
0167832420999992004070718004-12567-041383FM-12+042799999V0201401N000512200019N0100001N1+02641+01901101221ADDAA106000091GF103991031031004501001001MA1999999096301MD1999999-0011REMSYN070AAXX  07184 83242 32497 31401 10264 20190 39630 40122 83300 333 59001;EQDQ01  00002PRCP06
0208832420999992004070800004-12567-041383FM-12+042799999V0203601N001012200019N0020001N1+02021+01741101461ADDAA106000091GA1001+999999999GF100991001001999999001001KA1240M+02781MA1999999096451MD1999999-0101REMSYN082AAXX  08004 83242 32995 03602 10202 20174 39645 40146 333 10278 29081 55056 59010;EQDQ01  00002PRCP06
0186832420999992004070812004-12567-041383FM-12+042799999V0201401N001010042019N0100001N1+02091+01821101741ADDAA106000091GF108991081071004501999999KA1240N+01871MA1999999096731MD1999999+0041REMSYN076AAXX  08124 83242 32497 81402 10209 20182 39673 40174 887// 333 20187 58004;EQDQ01  00002PRCP06
0208832420999992004070900004-12567-041383FM-12+042799999V0209999C000012200019N0020001N1+02031+01801101471ADDAA106000091GA1001+999999999GF100991001001999999001001KA1240M+02701MA1999999096471MD1999999+0021REMSYN082AAXX  09004 83242 32995 00000 10203 20180 39647 40147 333 10270 29078 55064 58002;EQDQ01  00002PRCP06
0186832420999992004070912004-12567-041383FM-12+042799999V0201801N000510042019N0020001N1+02121+01971101581ADDAA106000091GF108991081071004501999999KA1240N+01831MA1999999096581MD1999999-0151REMSYN076AAXX  09124 83242 32495 81801 10212 20197 39658 40158 887// 333 20183 59015;EQDQ01  00002PRCP06
0167832420999992004070918004-12567-041383FM-12+042799999V0203201N001512200019N0100001N1+02781+01731101151ADDAA106000091GF103991011011004501011061MA1999999096231MD1999999+0001REMSYN070AAXX  09184 83242 32497 33203 10278 20173 39623 40115 81116 333 58000;EQDQ01  00002PRCP06
0208832420999992004071000004-12567-041383FM-12+042799999V0203601N000512200019N0020001N1+02141+01901101391ADDAA106000091GA1001+999999999GF100991001001999999001001KA1240M+02921MA1999999096421MD1999999-0051REMSYN082AAXX  10004 83242 32995 03601 10214 20190 39642 40139 333 10292 29079 55056 59005;EQDQ01  00002PRCP06
0186832420999992004071012004-12567-041383FM-12+042799999V0201801N001010042019N0100001N1+02251+02031101671ADDAA106000091GF108991081071004501999999KA1240N+01951MA1999999096691MD1999999+0111REMSYN076AAXX  10124 83242 32497 81802 10225 20203 39669 40167 887// 333 20195 58011;EQDQ01  00002PRCP06
0167832420999992004071018004-12567-041383FM-12+042799999V0202301N001512200019N0100001N1+02821+01771101111ADDAA106000091GF104991021011004501041081MA1999999096211MD1999999-0021REMSYN070AAXX  10184 83242 32497 42303 10282 20177 39621 40111 82148 333 59002;EQDQ01  00002PRCP06
0208832420999992004071100004-12567-041383FM-12+042799999V0209999C000012200019N0020001N1+02191+01921101241ADDAA106000091GA1001+999999999GF100991001001999999001001KA1240M+02901MA1999999096321MD1999999-0051REMSYN082AAXX  11004 83242 32995 00000 10219 20192 39632 40124 333 10290 29077 55055 59005;EQDQ01  00002PRCP06
0179832420999992004071118004-12567-041383FM-12+042799999V0201801N002110450019N0040001N1+02241+01821101151ADDAA106000091GF108991031031004501051071MA1999999096251MD1999999+0041MW1051REMSYN076AAXX  11184 83242 31496 81804 10224 20182 39625 40115 705// 83357 333 58004;EQDQ01  00002PRCP06
0208832420999992004071200004-12567-041383FM-12+042799999V0209999C000012200019N0020001N1+02331+01931101321ADDAA106000091GA1001+999999999GF100991001001999999001001KA1240M+02881MA1999999096381MD1999999+0061REMSYN082AAXX  12004 83242 32995 00000 10233 20193 39638 40132 333 10288 29072 55060 58006;EQDQ01  00002PRCP06
0190832420999992004071212004-12567-041383FM-12+042799999V0201401N001010042019N0040001N1+02141+01931101701ADDAY151061AY241061GF108991081071004501999999KA1240N+01971MA1999999096731MD1999999+0051MW1031REMSYN088AAXX  12124 83242 21496 81402 10214 20193 39673 40170 70354 887// 333 20197 58005 69934;
0179832420999992004071218004-12567-041383FM-12+042799999V0201801N001510042019N0040001N1+02501+01911101371ADDAA106000091GF107991061071004501031001MA1999999096441MD1999999+0191MW1151REMSYN076AAXX  12184 83242 31496 71803 10250 20191 39644 40137 715// 86730 333 58019;EQDQ01  00002PRCP06
0202832420999992004071300004-12567-041383FM-12+042799999V0201401N000510042019N0020001N1+02061+01911101731ADDAY151061AY221061GF108991081071004501999999KA1240M+02621MA1999999096731MD1999999+0351MW1001REMSYN100AAXX  13004 83242 21495 81401 10206 20191 39673 40173 70052 887// 333 10262 29085 55029 58035 69921;
0190832420999992004071312004-12567-041383FM-12+042799999V0201801N001510042019N0040001N1+02021+01941101891ADDAY151061AY221061GF108991081071004501999999KA1240N+01871MA1999999096871MD1999999+0141MW1101REMSYN088AAXX  13124 83242 21496 81803 10202 20194 39687 40189 71052 887// 333 20187 58014 69954;
0171832420999992004071318004-12567-041383FM-12+042799999V0201401N003110042019N0040001N1+02501+01771101491ADDAY151061AY221061GF107991071071004501001001MA1999999096531MD1999999+0111MW1151REMSYN082AAXX  13184 83242 21496 71406 10250 20177 39653 40149 71552 87700 333 58011 69921;
0208832420999992004071400004-12567-041383FM-12+042799999V0201801N000512200019N0020001N1+02061+01821101781ADDAA106000091GA1001+999999999GF100991001001999999001001KA1240M+02621MA1999999096771MD1999999+0041REMSYN082AAXX  14004 83242 32995 01801 10206 20182 39677 40178 333 10262 29083 55039 58004;EQDQ01  00002PRCP06
0186832420999992004071412004-12567-041383FM-12+042799999V0201401N001510042019N0100001N1+02061+01801101941ADDAA106000091GF108991081071004501999999KA1240N+01711MA1999999096921MD1999999+0051REMSYN076AAXX  14124 83242 32497 81403 10206 20180 39692 40194 887// 333 20171 58005;EQDQ01  00002PRCP06
0171832420999992004071418004-12567-041383FM-12+042799999V0201801N002110042019N0040001N1+02501+01621101631ADDAY151061AY221061GF108991081071004501999999MA1999999096651MD1999999+0121MW1401REMSYN082AAXX  14184 83242 21496 81804 10250 20162 39665 40163 74052 887// 333 58012 69931;
0212832420999992004071500004-12567-041383FM-12+042799999V0201401N000512200019N0020001N1+02001+01901101941ADDAY151061AY241061GA1001+999999999GF100991001001999999001001KA1240M+02601MA1999999096921MD1999999+0151MW1001REMSYN094AAXX  15004 83242 21995 01401 10200 20190 39692 40194 70054 333 10260 29083 55012 58015 69921;
0209832420999992004071512004-12567-041383FM-12+042799999V0201801N002110042019N0020001N1+01931+01821102041ADDAY151061AY241061GF108991081071004501999999KA1240N+99999MA1999999096991MD1999999+0071MW1501REMSYN088AAXX  15124 83242 21495 81804 10193 20182 39699 40204 75054 887// 333 20259 58007 69964;EQDQ01 +02592ATMN  
0171832420999992004071518004-12567-041383FM-12+042799999V0201801N000510042019N0040001N1+02361+01691101631ADDAY151061AY221061GF106991051071004501051001MA1999999096641MD1999999+0011MW1151REMSYN082AAXX  15184 83242 21496 61801 10236 20169 39664 40163 71552 85750 333 58001 69901;
0202832420999992004071600004-12567-041383FM-12+042799999V0201801N001510042019N0005001N1+02041+01911101901ADDAY151061AY221061GF108991071071004501999999KA1240M+02551MA1999999096871MD1999999-0051MW1501REMSYN100AAXX  16004 83242 21493 81803 10204 20191 39687 40190 75052 877// 333 10255 29086 55045 59005 69921;
0190832420999992004071612004-12567-041383FM-12+042799999V0201801N001010042019N0100001N1+02051+01841102021ADDAY161061AY251061GF106991051071004501051001KA1240N+01631MA1999999097001MD1999999+0011MW1031REMSYN088AAXX  16124 83242 21497 61802 10205 20184 39700 40202 70365 85750 333 20163 58001 60014;
0167832420999992004071618004-12567-041383FM-12+042799999V0201801N000512200019N0100001N1+02641+01901101521ADDAA106000091GF103991011021004501051031MA1999999096561MD1999999-0081REMSYN070AAXX  16184 83242 32497 31801 10264 20190 39656 40152 81253 333 59008;EQDQ01  00002PRCP06
0182832420999992004071700004-12567-041383FM-12+042799999V0200501N002110042019N0020001N1+01881+01661101791ADDAA106000091GF107991071041004501001001KA1240M+02721MA1999999096761REMSYN086AAXX  17004 83242 32495 70504 10188 20166 39676 40179 87400 333 10272 29079 55079 511;EQDQ01  00002PRCP06
0190832420999992004071712004-12567-041383FM-12+042799999V0201801N001010042019N0100001N1+02041+01851101971ADDAY161061AY221061GF107991071071004501001001KA1240N+01791MA1999999096931MD1999999-0071MW1031REMSYN088AAXX  17124 83242 21497 71802 10204 20185 39693 40197 70362 87700 333 20179 59007 60014;
0167832420999992004071718004-12567-041383FM-12+042799999V0201801N000512200019N0100001N1+02721+01621101471ADDAA106000091GF104991031041004501031001MA1999999096521MD1999999-0041REMSYN070AAXX  17184 83242 32497 41801 10272 20162 39652 40147 83430 333 59004;EQDQ01  00002PRCP06
0208832420999992004071800004-12567-041383FM-12+042799999V0203601N001012200019N0020001N1+01981+01701101721ADDAA106000091GA1001+999999999GF100991001001999999001001KA1240M+02801MA1999999096701MD1999999-0061REMSYN082AAXX  18004 83242 32995 03602 10198 20170 39670 40172 333 10280 29077 55075 59006;EQDQ01  00002PRCP06
0190832420999992004071812004-12567-041383FM-12+042799999V0203601N001510042019N0040001N1+01991+01811102011ADDAY161061AY251061GF108991081071004501999999KA1240N+01831MA1999999096981MD1999999+0051MW1031REMSYN088AAXX  18124 83242 21496 83603 10199 20181 39698 40201 70365 887// 333 20183 58005 60024;
0179832420999992004071818004-12567-041383FM-12+042799999V0201801N002610042019N0040001N1+02561+01971101631ADDAA106000091GF106991051071004501051001MA1999999096661MD1999999+0141MW1151REMSYN076AAXX  18184 83242 31496 61805 10256 20197 39666 40163 715// 85750 333 58014;EQDQ01  00002PRCP06
0202832420999992004071900004-12567-041383FM-12+042799999V0201801N003110042019N0020001N1+02061+01891101931ADDAY161061AY221061GF108991081071004501999999KA1240M+02641MA1999999096901MD1999999+0201MW1501REMSYN100AAXX  19004 83242 21495 81806 10206 20189 39690 40193 75062 887// 333 10264 29085 55036 58020 69951;
0190832420999992004071912004-12567-041383FM-12+042799999V0201801N002610042019N0100001N1+02101+01741102081ADDAY151061AY221061GF106991051071004501061001KA1240N+01671MA1999999097061MD1999999+0081MW1031REMSYN088AAXX  19124 83242 21497 61805 10210 20174 39706 40208 70352 85760 333 20167 58008 69964;
0167832420999992004071918004-12567-041383FM-12+042799999V0201801N001510450019N0100001N1+02541+01601101691ADDAA106000091GF105991041051004501031001MA1999999096711MD1999999+0051REMSYN070AAXX  19184 83242 32497 51803 10254 20160 39671 40169 84530 333 58005;EQDQ01  00002PRCP06
0198832420999992004072000004-12567-041383FM-12+042799999V0200901N001010042019N0020001N1+02041+01741101811ADDAA106000091GF105991051041004501001001KA1240M+02661MA1999999096801MD1999999-0101REMSYN088AAXX  20004 83242 32495 50902 10204 20174 39680 40181 85400 333 10266 29076 55072 59010;EQDQ01  00002PRCP06
0190832420999992004072012004-12567-041383FM-12+042799999V0200501N001010042019N0010001N1+01891+01821102021ADDAY151061AY221061GF108991081071004501999999KA1240N+01791MA1999999096971MD1999999-0091MW1611REMSYN088AAXX  20124 83242 21494 80502 10189 20182 39697 40202 76152 887// 333 20179 59009 60024;
0148832420999992004072018004-12567-041383FM-12+042799999V0201401N000512200019N0100001N1+02561+01621101521ADDAA106000021GF104991021041004501051091MA1999999096561MD1999999-0151REMSYN070AAXX  20184 83242 32497 41401 10256 20162 39656 40152 82459 333 59015;
0208832420999992004072100004-12567-041383FM-12+042799999V0203601N001512200019N0020001N1+02021+01781101651ADDAA106000091GA1001+999999999GF100991001001999999001001KA1240M+02701MA1999999096631MD1999999-0171REMSYN082AAXX  21004 83242 32995 03603 10202 20178 39663 40165 333 10270 29081 55048 59017;EQDQ01  00002PRCP06
0186832420999992004072112004-12567-041383FM-12+042799999V0201801N001510042019N0100001N1+02041+01741101791ADDAA106000091GF108991081071004501999999KA1240N+01711MA1999999096781MD1999999-0191REMSYN076AAXX  21124 83242 32497 81803 10204 20174 39678 40179 887// 333 20171 59019;EQDQ01  00002PRCP06
0167832420999992004072118004-12567-041383FM-12+042799999V0201401N001010450019N0100001N1+02481+01621101571ADDAA106000091GF106991041061004501041091MA1999999096401MD1999999-0161REMSYN070AAXX  21184 83242 32497 61402 10248 20162 39640 40157 84649 333 59016;EQDQ01  00002PRCP06
0198832420999992004072200004-12567-041383FM-12+042799999V0201801N002610042019N0020001N1+02021+01781101691ADDAA106000091GF108991081071004501999999KA1240M+02561MA1999999096681MD1999999+0051REMSYN088AAXX  22004 83242 32495 81805 10202 20178 39668 40169 887// 333 10256 29078 55034 58005;EQDQ01  00002PRCP06
0186832420999992004072212004-12567-041383FM-12+042799999V0201401N001512200019N0100001N1+01941+01331101971ADDAA106000091GF103991031011004501001001KA1240N+01651MA1999999096941MD1999999+0141REMSYN076AAXX  22124 83242 32497 31403 10194 20133 39694 40197 83100 333 20165 58014;EQDQ01  00002PRCP06
0167832420999992004072218004-12567-041383FM-12+042799999V02099999999992200019N0100001N1+02481+01271101491ADDAA106000091GF103991031011004501001001MA1999999096511MD1999999+0111REMSYN070AAXX  22184 83242 32497 3//// 10248 20127 39651 40149 83100 333 58011;EQDQ01  00002PRCP06
0198832420999992004072300004-12567-041383FM-12+042799999V0201801N002612200019N0020001N1+01941+01331101881ADDAA106000091GF104991041041004501001001KA1240M+02541MA1999999096851MD1999999+0171REMSYN088AAXX  23004 83242 32495 41805 10194 20133 39685 40188 84400 333 10254 29063 55091 58017;EQDQ01  00002PRCP06
0186832420999992004072312004-12567-041383FM-12+042799999V0209999C000012200019N0100001N1+01881+01231102191ADDAA106000091GF102991011011004501001011KA1240N+01311MA1999999097131MD1999999+0191REMSYN076AAXX  23124 83242 32497 20000 10188 20123 39713 40219 81101 333 20131 58019;EQDQ01  00002PRCP06
0167832420999992004072318004-12567-041383FM-12+042799999V0201801N001010042019N0100001N1+02411+01051101571ADDAA106000091GF107991071011004501001011MA1999999096561MD1999999+0051REMSYN070AAXX  23184 83242 32497 71802 10241 20105 39656 40157 87101 333 58005;EQDQ01  00002PRCP06
0198832420999992004072400004-12567-041383FM-12+042799999V0201801N003110042019N0020001N1+01861+01211102051ADDAA106000091GF107991071041004501001001KA1240M+02481MA1999999096981MD1999999+0131REMSYN088AAXX  24004 83242 32495 71806 10186 20121 39698 40205 87400 333 10248 29060 55104 58013;EQDQ01  00002PRCP06
0186832420999992004072412004-12567-041383FM-12+042799999V02099999999990450019N0100001N1+01861+01191102421ADDAA106000091GF107991011011004501031021KA1240N+01431MA1999999097341MD1999999+0211REMSYN076AAXX  24124 83242 32497 7//// 10186 20119 39734 40242 81132 333 20143 58021;EQDQ01  00002PRCP06
0167832420999992004072418004-12567-041383FM-12+042799999V02099999999990042019N0100001N1+02361+01291101961ADDAA106000091GF107991051031004501051001MA1999999096931MD1999999+0371REMSYN070AAXX  24184 83242 32497 7//// 10236 20129 39693 40196 85350 333 58037;EQDQ01  00002PRCP06
0198832420999992004072500004-12567-041383FM-12+042799999V0202701N000510042019N0020001N1+02021+01391102181ADDAA106000091GF108991081071004501999999KA1240M+02431MA1999999097131MD1999999+0151REMSYN088AAXX  25004 83242 32495 82701 10202 20139 39713 40218 887// 333 10243 29062 55103 58015;EQDQ01  00002PRCP06
0186832420999992004072512004-12567-041383FM-12+042799999V02099999999990042019N0100001N1+01861+01321102361ADDAA106000091GF107991051071004501061001KA1240N+01651MA1999999097301MD1999999-0041REMSYN076AAXX  25124 83242 32497 7//// 10186 20132 39730 40236 85760 333 20165 59004;EQDQ01  00002PRCP06
0167832420999992004072518004-12567-041383FM-12+042799999V0201401N001510450019N0100001N1+02391+01231101881ADDAA106000091GF106991041031004501051001MA1999999096861MD1999999-0071REMSYN070AAXX  25184 83242 32497 61403 10239 20123 39686 40188 84350 333 59007;EQDQ01  00002PRCP06
0198832420999992004072600004-12567-041383FM-12+042799999V0201801N002110042019N0020001N1+02031+01291102121ADDAA106000091GF108991081071004501999999KA1240M+02511MA1999999097071MD1999999-0061REMSYN088AAXX  26004 83242 32495 81804 10203 20129 39707 40212 887// 333 10251 29061 55071 59006;EQDQ01  00002PRCP06
0186832420999992004072612004-12567-041383FM-12+042799999V02099999999992200019N0100001N1+01791+01161102331ADDAA106000091GF104991041001022501031001KA1240N+01181MA1999999097261MD1999999-0041REMSYN076AAXX  26124 83242 32897 4//// 10179 20116 39726 40233 84030 333 20118 59004;EQDQ01  00002PRCP06
0167832420999992004072618004-12567-041383FM-12+042799999V02099999999990042019N0100001N1+02331+01381101961ADDAA106000091GF106991051061004501031001MA1999999096911MD1999999+0051REMSYN070AAXX  26184 83242 32497 6//// 10233 20138 39691 40196 85630 333 58005;EQDQ01  00002PRCP06
0198832420999992004072700004-12567-041383FM-12+042799999V0201801N003110042019N0020001N1+01981+01441102291ADDAA106000091GF107991071071004501001001KA1240M+02401MA1999999097221MD1999999+0151REMSYN088AAXX  27004 83242 32495 71806 10198 20144 39722 40229 87700 333 10240 29066 55079 58015;EQDQ01  00002PRCP06
0186832420999992004072712004-12567-041383FM-12+042799999V0201401N002610450019N0100001N1+01981+01441102311ADDAA106000091GF105991041051004501031001KA1240N+01491MA1999999097261MD1999999+0001REMSYN076AAXX  27124 83242 32497 51405 10198 20144 39726 40231 84530 333 20149 58000;EQDQ01  00002PRCP06
0198832420999992004072800004-12567-041383FM-12+042799999V0200901N000510042019N0020001N1+02121+01571102031ADDAA106000091GF107991071071004501001001KA1240M+02401MA1999999097011MD1999999-0211REMSYN088AAXX  28004 83242 32495 70901 10212 20157 39701 40203 87700 333 10240 29068 55020 59021;EQDQ01  00002PRCP06
0186832420999992004072812004-12567-041383FM-12+042799999V0200901N002610042019N0100001N1+01841+01491102241ADDAA106000091GF108991081071004501999999KA1240N+01491MA1999999097191MD1999999-0071REMSYN076AAXX  28124 83242 32497 80905 10184 20149 39719 40224 887// 333 20149 59007;EQDQ01  00002PRCP06
0167832420999992004072818004-12567-041383FM-12+042799999V02099999999990042019N0100001N1+02411+01461101861ADDAA106000091GF106991051061004501051001MA1999999096851MD1999999-0061REMSYN070AAXX  28184 83242 32497 6//// 10241 20146 39685 40186 85650 333 59006;EQDQ01  00002PRCP06
0198832420999992004072900004-12567-041383FM-12+042799999V0200901N001010450019N0020001N1+01931+01291102141ADDAA106000091GF106991031061004501031001KA1240M+02511MA1999999097081MD1999999+0071REMSYN088AAXX  29004 83242 32495 60902 10193 20129 39708 40214 83630 333 10251 29067 55051 58007;EQDQ01  00002PRCP06
0186832420999992004072912004-12567-041383FM-12+042799999V0200901N001012200019N0100001N1+01921+01401102231ADDAA106000091GF103991021011004501031001KA1240N+01421MA1999999097161MD1999999-0031REMSYN076AAXX  29124 83242 32497 30902 10192 20140 39716 40223 82130 333 20142 59003;EQDQ01  00002PRCP06
0167832420999992004072918004-12567-041383FM-12+042799999V02099999999990042019N0100001N1+02371+01561101801ADDAA106000091GF106991051061004501031001MA1999999096771MD1999999-0081REMSYN070AAXX  29184 83242 32497 6//// 10237 20156 39677 40180 85630 333 59008;EQDQ01  00002PRCP06
0198832420999992004073000004-12567-041383FM-12+042799999V0201801N000510450019N0020001N1+02041+01451102021ADDAA106000091GF107991011071004501081001KA1240M+02421MA1999999096991MD1999999-0091REMSYN088AAXX  30004 83242 32495 71801 10204 20145 39699 40202 81780 333 10242 29068 55067 59009;EQDQ01  00002PRCP06
0186832420999992004073012004-12567-041383FM-12+042799999V0200901N000510042019N0100001N1+01891+01551102171ADDAA106000091GF107991071071004501001001KA1240N+01511MA1999999097121MD1999999-0041REMSYN076AAXX  30124 83242 32497 70901 10189 20155 39712 40217 87700 333 20151 59004;EQDQ01  00002PRCP06
0167832420999992004073018004-12567-041383FM-12+042799999V0201801N000510042019N0100001N1+02461+01681101631ADDAA106000091GF107991071071004501001001MA1999999096741MD1999999+0071REMSYN070AAXX  30184 83242 32497 71801 10246 20168 39674 40163 87700 333 58007;EQDQ01  00002PRCP06
0214832420999992004073100004-12567-041383FM-12+042799999V0203001N001010450019N0020001N1+02861+01551102011ADDAA106000091GF106991041071004501081001KA1240M+99999MA1999999096951MD1999999-0041REMSYN088AAXX  31004 83242 32495 63002 10286 20155 39695 40201 84780 333 10247 29076 55038 59004;EQDQ01  00002PRCP06Q02 +02472ATMX  
0186832420999992004073112004-12567-041383FM-12+042799999V0201801N001010042019N0100001N1+02011+01701102171ADDAA106000091GF107991061071004501061001KA1240N+01771MA1999999097121MD1999999+0001REMSYN076AAXX  31124 83242 32497 71802 10201 20170 39712 40217 86760 333 20177 58000;EQDQ01  00002PRCP06
0167832420999992004073118004-12567-041383FM-12+042799999V0201401N000512200019N0100001N1+02711+01681101691ADDAA106000091GF103991031031004501001001MA1999999096641MD1999999-0101REMSYN070AAXX  31184 83242 32497 31401 10271 20168 39664 40169 83300 333 59010;EQDQ01  00002PRCP06
0198832420999992004080100004-12567-041383FM-12+042799999V0201801N000512200019N0020001N1+02231+01671101771ADDAA106000091GF102991021021004501001001KA1240M+02781MA1999999096771MD1999999-0181REMSYN088AAXX  01004 83242 32495 21801 10223 20167 39677 40177 82200 333 10278 29069 55071 59018;EQDQ01  00002PRCP06
0186832420999992004080112004-12567-041383FM-12+042799999V0209999C000010042019N0100001N1+02051+01781102061ADDAA106000091GF108991081071004501999999KA1240N+01911MA1999999097051MD1999999-0071REMSYN076AAXX  01124 83242 32497 80000 10205 20178 39705 40206 887// 333 20191 59007;EQDQ01  00002PRCP06
0167832420999992004080118004-12567-041383FM-12+042799999V0201401N001512200019N0100001N1+02711+01681101491ADDAA106000091GF102991011021004501041001MA1999999096561MD1999999-0081REMSYN070AAXX  01184 83242 32497 21403 10271 20168 39656 40149 81240 333 59008;EQDQ01  00002PRCP06
0198832420999992004080200004-12567-041383FM-12+042799999V0203601N001510042019N0020001N1+02331+01721101851ADDAA106000091GF107991071071004501001001KA1240M+02781MA1999999096861MD1999999+0091REMSYN088AAXX  02004 83242 32495 73603 10233 20172 39686 40185 87700 333 10278 29068 55047 58009;EQDQ01  00002PRCP06
0186832420999992004080212004-12567-041383FM-12+042799999V0201801N001010042019N0100001N1+02051+01701102021ADDAA106000091GF108991081071004501999999KA1240N+01891MA1999999097031MD1999999-0021REMSYN076AAXX  02124 83242 32497 81802 10205 20170 39703 40202 887// 333 20189 59002;EQDQ01  00002PRCP06
0167832420999992004080218004-12567-041383FM-12+042799999V0201401N001512200019N0100001N1+02631+01461101571ADDAA106000091GF103991031021004501001001MA1999999096641MD1999999+0081REMSYN070AAXX  02184 83242 32497 31403 10263 20146 39664 40157 83200 333 58008;EQDQ01  00002PRCP06
0198832420999992004080300004-12567-041383FM-12+042799999V0201801N000510042019N0020001N1+02101+01661101831ADDAA106000091GF107991071071004501001001KA1240M+02761MA1999999096831MD1999999-0031REMSYN088AAXX  03004 83242 32495 71801 10210 20166 39683 40183 87700 333 10276 29072 55046 59003;EQDQ01  00002PRCP06
0186832420999992004080312004-12567-041383FM-12+042799999V0201801N001010042019N0100001N1+01921+01701102141ADDAA106000091GF107991071071004501001001KA1240N+01711MA1999999097101MD1999999+0071REMSYN076AAXX  03124 83242 32497 71802 10192 20170 39710 40214 87700 333 20171 58007;EQDQ01  00002PRCP06
0167832420999992004080318004-12567-041383FM-12+042799999V0201801N002112200019N0100001N1+02731+01481101621ADDAA106000091GF103991031031004501001031MA1999999096631MD1999999+0031REMSYN070AAXX  03184 83242 32497 31804 10273 20148 39663 40162 83303 333 58003;EQDQ01  00002PRCP06
0198832420999992004080400004-12567-041383FM-12+042799999V0201401N001012200019N0020001N1+02191+01411101931ADDAA106000091GF102991011011004501051001KA1240M+02781MA1999999096911MD1999999+0081REMSYN088AAXX  04004 83242 32495 21402 10219 20141 39691 40193 81150 333 10278 29064 55082 58008;EQDQ01  00002PRCP06
0186832420999992004080412004-12567-041383FM-12+042799999V0201401N000510450019N0100001N1+01851+01511102211ADDAA106000091GF106991041051004501031001KA1240N+01571MA1999999097161MD1999999+0061REMSYN076AAXX  04124 83242 32497 61401 10185 20151 39716 40221 84530 333 20157 58006;EQDQ01  00002PRCP06
0167832420999992004080418004-12567-041383FM-12+042799999V0201801N002110450019N0100001N1+02731+01141101691ADDAA106000091GF106991041051004501031001MA1999999096721MD1999999+0091REMSYN070AAXX  04184 83242 32497 61804 10273 20114 39672 40169 84530 333 58009;EQDQ01  00002PRCP06
0198832420999992004080500004-12567-041383FM-12+042799999V0200901N001010042019N0020001N1+02111+01531101991ADDAA106000091GF107991071041004501001001KA1240M+02741MA1999999096961MD1999999+0051REMSYN088AAXX  05004 83242 32495 70902 10211 20153 39696 40199 87400 333 10274 29064 55057 58005;EQDQ01  00002PRCP06
0186832420999992004080512004-12567-041383FM-12+042799999V0201801N002110042019N0100001N1+01921+01491102141ADDAA106000091GF108991081071004501999999KA1240N+01791MA1999999097101MD1999999-0061REMSYN076AAXX  05124 83242 32497 81804 10192 20149 39710 40214 887// 333 20179 59006;EQDQ01  00002PRCP06
0167832420999992004080518004-12567-041383FM-12+042799999V0201801N001510042019N0100001N1+02431+01481101771ADDAA106000091GF106991051061004501031001MA1999999096771MD1999999+0051REMSYN070AAXX  05184 83242 32497 61803 10243 20148 39677 40177 85630 333 58005;EQDQ01  00002PRCP06
0202832420999992004080600004-12567-041383FM-12+042799999V0201801N001510042019N0020001N1+02081+01681102071ADDAY151061AY221061GF108991081071004501999999KA1240M+02521MA1999999097041MD1999999+0081MW1001REMSYN100AAXX  06004 83242 21495 81803 10208 20168 39704 40207 70052 887// 333 10252 29073 55029 58008 69901;
0186832420999992004080612004-12567-041383FM-12+042799999V0201801N004110042019N0040001N1+02071+01621102161ADDAA106000091GF107991061071004501091001KA1240N+01831MA1999999097141MD1999999+0041REMSYN076AAXX  06124 83242 32496 71808 10207 20162 39714 40216 86790 333 20183 58004;EQDQ01  00002PRCP06
0167832420999992004080618004-12567-041383FM-12+042799999V0201401N003112200019N0100001N1+02651+01531101681ADDAA106000091GF104991031031004501051001MA1999999096711MD1999999-0061REMSYN070AAXX  06184 83242 32497 41406 10265 20153 39671 40168 83350 333 59006;EQDQ01  00002PRCP06
0198832420999992004080700004-12567-041383FM-12+042799999V0201801N000510042019N0020001N1+02171+01561101981ADDAA106000091GF107991071071004501001001KA1240M+02701MA1999999096971MD1999999-0071REMSYN088AAXX  07004 83242 32495 71801 10217 20156 39697 40198 87700 333 10270 29065 55079 59007;EQDQ01  00002PRCP06
0190832420999992004080712004-12567-041383FM-12+042799999V0201401N001510042019N0040001N1+02131+01721102261ADDAY161061AY221061GF106991051021004501051001KA1240N+01851MA1999999097251MD1999999+0111MW1031REMSYN088AAXX  07124 83242 21496 61403 10213 20172 39725 40226 70362 85250 333 20185 58011 60074;
0167832420999992004080718004-12567-041383FM-12+042799999V0201401N001012200019N0100001N1+02831+01501101651ADDAA106000091GF102991021011004501001001MA1999999096701MD1999999-0011REMSYN070AAXX  07184 83242 32497 21402 10283 20150 39670 40165 82100 333 59001;EQDQ01  00002PRCP06
0208832420999992004080800004-12567-041383FM-12+042799999V0200501N001012200019N0020001N1+02161+01571101941ADDAA106000091GA1001+999999999GF100991001001999999001001KA1240M+02901MA1999999096941MD1999999-0031REMSYN082AAXX  08004 83242 32995 00502 10216 20157 39694 40194 333 10290 29065 55084 59003;EQDQ01  00002PRCP06
0186832420999992004080812004-12567-041383FM-12+042799999V0200501N001510450019N0100001N1+02151+01591102161ADDAA106000091GF106991041021004501081001KA1240N+01831MA1999999097151MD1999999-0101REMSYN076AAXX  08124 83242 32497 60503 10215 20159 39715 40216 84280 333 20183 59010;EQDQ01  00002PRCP06
0167832420999992004080818004-12567-041383FM-12+042799999V0202301N001512200019N0100001N1+02891+01521101521ADDAA106000091GF102991021011004501001001MA1999999096591MD1999999-0111REMSYN070AAXX  08184 83242 32497 22303 10289 20152 39659 40152 82100 333 59011;EQDQ01  00002PRCP06
0208832420999992004080900004-12567-041383FM-12+042799999V0203601N001012200019N0020001N1+02141+01551101791ADDAA106000091GA1001+999999999GF100991001001999999001001KA1240M+02931MA1999999096801MD1999999-0141REMSYN082AAXX  09004 83242 32995 03602 10214 20155 39680 40179 333 10293 29063 55084 59014;EQDQ01  00002PRCP06
0186832420999992004080912004-12570-041380FM-12+043999999V0201401N001510042019N0100001N1+02171+01701102141ADDAA106000091GF106991051071004501051001KA1240N+01831MA1999999097131MD1999999-0021REMSYN076AAXX  09124 83242 32497 61403 10217 20170 39713 40214 85750 333 20183 59002;EQDQ01  00002PRCP06
0167832420999992004080918004-12570-041380FM-12+043999999V0201801N001512200019N0100001N1+02921+01381101571ADDAA106000091GF102991021011004501001001MA1999999096631MD1999999+0041REMSYN070AAXX  09184 83242 32497 21803 10292 20138 39663 40157 82100 333 58004;EQDQ01  00002PRCP06
0198832420999992004081000004-12570-041380FM-12+043999999V0200501N001510042019N0020001N1+02351+01541101971ADDAA106000091GF107991071071004501001001KA1240M+02931MA1999999096991MD1999999+0191REMSYN088AAXX  10004 83242 32495 70503 10235 20154 39699 40197 87700 333 10293 29058 55094 58019;EQDQ01  00002PRCP06
0186832420999992004081012004-12570-041380FM-12+043999999V0201801N002110042019N0100001N1+01981+01641102311ADDAA106000091GF108991081071004501999999KA1240N+01911MA1999999097291MD1999999+0061REMSYN076AAXX  10124 83242 32497 81804 10198 20164 39729 40231 887// 333 20191 58006;EQDQ01  00002PRCP06
0167832420999992004081018004-12570-041380FM-12+043999999V0201801N002110042019N0100001N1+02311+01631102091ADDAA106000091GF108991081071004501999999MA1999999097071MD1999999+0441REMSYN070AAXX  10184 83242 32497 81804 10231 20163 39707 40209 887// 333 58044;EQDQ01  00002PRCP06
0183832420999992004081100004-12570-041380FM-12+043999999V0200501N001010042019N0020001N1+02001+01581102251ADDAY151061AY221061GF108991081071004501999999KA1240M+02401KA2999N+00751MA1999999097201MW1031REMSYN082AAXX  11004 83242 21495 80502 10200 20158 39720 40225 70352 887// 333 10240 29075;
0190832420999992004081112004-12567-041383FM-12+042799999V0201801N003110042019N0040001N1+01711+01451102451ADDAY151061AY221061GF107991061071004501061001KA1240N+01571MA1999999097361MD1999999+0071MW1151REMSYN088AAXX  11124 83242 21496 71806 10171 20145 39736 40245 71552 86760 333 20157 58007 69914;
0167832420999992004081118004-12567-041383FM-12+042799999V0201401N001512200019N0100001N1+02531+01081101821ADDAA106000091GF103991031031004501001001MA1999999096821MD1999999-0251REMSYN070AAXX  11184 83242 32497 31403 10253 20108 39682 40182 83300 333 59025;EQDQ01  00002PRCP06
0208832420999992004081200004-12570-041380FM-12+043999999V0203601N001012200019N0020001N1+01771+01731102101ADDAA106000091GA1001+999999999GF100991001001999999001001KA1240M+02621MA1999999097011MD1999999-0191REMSYN082AAXX  12004 83242 32995 03602 10177 20173 39701 40210 333 10262 29070 55080 59019;EQDQ01  00002PRCP06
0186832420999992004081212004-12570-041380FM-12+043999999V0201801N002110042019N0100001N1+02001+01521102361ADDAA106000091GF106991051071004501041001KA1240N+01691MA1999999097291MD1999999-0071REMSYN076AAXX  12124 83242 32497 61804 10200 20152 39729 40236 85740 333 20169 59007;EQDQ01  00002PRCP06
0167832420999992004081218004-12570-041380FM-12+043999999V0201401N002110450019N0100001N1+02671+01701101801ADDAA106000091GF105991021061004501041051MA1999999096821MD1999999+0001REMSYN070AAXX  12184 83242 32497 51404 10267 20170 39682 40180 82645 333 58000;EQDQ01  00002PRCP06
0208832420999992004081300004-12570-041380FM-12+043999999V0202701N000512200019N0020001N1+01891+01301102231ADDAA106000091GA1001+999999999GF100991001001999999001001KA1240M+02601MA1999999097171MD1999999+0161REMSYN082AAXX  13004 83242 32995 02701 10189 20130 39717 40223 333 10260 29066 55080 58016;EQDQ01  00002PRCP06
0167832420999992004081318004-12570-041380FM-12+043999999V0201801N002110450019N0100001N1+02471+01751101821ADDAA106000091GF106991041041004501061051MA1999999096811MD1999999-0011REMSYN070AAXX  13184 83242 32497 61804 10247 20175 39681 40182 84465 333 59001;EQDQ01  00002PRCP06
0198832420999992004081400004-12570-041380FM-12+043999999V0201801N001510042019N0020001N1+01981+01101102101ADDAA106000091GF105991051061004501001001KA1240M+02521MA1999999097051MD1999999-0121REMSYN088AAXX  14004 83242 32495 51803 10198 20110 39705 40210 85600 333 10252 29063 55084 59012;EQDQ01  00002PRCP06
0186832420999992004081412004-12570-041380FM-12+043999999V0201801N004110450019N0100001N1+01901+01161102351ADDAA106000091GF108991031011004501041071KA1240N+01571MA1999999097291MD1999999-0081REMSYN076AAXX  14124 83242 32497 81808 10190 20116 39729 40235 83147 333 20157 59008;EQDQ01  00002PRCP06
0167832420999992004081418004-12570-041380FM-12+043999999V0201801N002112200019N0100001N1+02631+01721101821ADDAA106000091GF104991011011004501041091MA1999999096841MD1999999+0031REMSYN070AAXX  14184 83242 32497 41804 10263 20172 39684 40182 81149 333 58003;EQDQ01  00002PRCP06
0198832420999992004081500004-12570-041380FM-12+043999999V0201801N001010042019N0020001N1+02071+01171102061ADDAA106000091GF108991081061004501999999KA1240M+02661MA1999999097031MD1999999-0021REMSYN088AAXX  15004 83242 32495 81802 10207 20117 39703 40206 886// 333 10266 29058 55095 59002;EQDQ01  00002PRCP06
0186832420999992004081512004-12570-041380FM-12+043999999V0201401N003112200019N0100001N1+01981+01401102321ADDAA106000091GF104991031021004501051001KA1240N+01671MA1999999097271MD1999999-0021REMSYN076AAXX  15124 83242 32497 41406 10198 20140 39727 40232 83250 333 20167 59002;EQDQ01  00002PRCP06
0167832420999992004081518004-12570-041380FM-12+043999999V0201801N002112200019N0100001N1+02631+01721101871ADDAA106000091GF103991031021004501001001MA1999999096861MD1999999+0021REMSYN070AAXX  15184 83242 32497 31804 10263 20172 39686 40187 83200 333 58002;EQDQ01  00002PRCP06
0208832420999992004081600004-12570-041380FM-12+043999999V0203601N001012200019N0020001N1+01911+01291102051ADDAA106000091GA1001+999999999GF100991001001999999001001KA1240M+02721MA1999999096951MD1999999-0081REMSYN082AAXX  16004 83242 32995 03602 10191 20129 39695 40205 333 10272 29065 55094 59008;EQDQ01  00002PRCP06
0186832420999992004081612004-12570-041380FM-12+043999999V0201401N001010042019N0100001N1+01901+01531102261ADDAA106000091GF107991061071004501061001KA1240N+01771MA1999999097191MD1999999-0081REMSYN076AAXX  16124 83242 32497 71402 10190 20153 39719 40226 86760 333 20177 59008;EQDQ01  00002PRCP06
0167832420999992004081618004-12570-041380FM-12+043999999V0201801N001012200019N0100001N1+02711+01681101591ADDAA106000091GF101991011011004501001001MA1999999096641MD1999999-0221REMSYN070AAXX  16184 83242 32497 11802 10271 20168 39664 40159 81100 333 59022;EQDQ01  00002PRCP06
0208832420999992004081700004-12570-041380FM-12+043999999V0209999C000012200019N0020001N1+02131+01461101871ADDAA106000091GA1001+999999999GF100991001001999999001001KA1240M+02781MA1999999096861MD1999999-0091REMSYN082AAXX  17004 83242 32995 00000 10213 20146 39686 40187 333 10278 29066 55075 59009;EQDQ01  00002PRCP06
0186832420999992004081712004-12570-041380FM-12+043999999V0201801N001510450019N0100001N1+02171+01671102091ADDAA106000091GF106991041021004501031001KA1240N+01851MA1999999097081MD1999999-0111REMSYN076AAXX  17124 83242 32497 61803 10217 20167 39708 40209 84230 333 20185 59011;EQDQ01  00002PRCP06
0179832420999992004081718004-12570-041380FM-12+043999999V0201801N000511050019N0040001N1+02931+01591101441ADDAA106000091GF108991011011004501001071MA1999999096511MD1999999-0131MW1051REMSYN076AAXX  17184 83242 31496 81801 10293 20159 39651 40144 705// 81107 333 59013;EQDQ01  00002PRCP06
0198832420999992004081800004-12570-041380FM-12+043999999V0202701N001512200019N0020001N1+02271+01511101781ADDAA106000091GF104991041051004501001001KA1240M+02971MA1999999096801MD1999999-0061REMSYN088AAXX  18004 83242 32495 42703 10227 20151 39680 40178 84500 333 10297 29060 55099 59006;EQDQ01  00002PRCP06
0186832420999992004081812004-12570-041380FM-12+043999999V0201401N000512200019N0100001N1+02261+01521102011ADDAA106000091GF103991031011004501001001KA1240N+01851MA1999999097031MD1999999-0051REMSYN076AAXX  18124 83242 32497 31401 10226 20152 39703 40201 83100 333 20185 59005;EQDQ01  00002PRCP06
0179832420999992004081818004-12570-041380FM-12+043999999V0200501N001511050019N0040001N1+02811+01681101591ADDAA106000091GF108991021021004501001071MA1999999096651MD1999999+0141MW1051REMSYN076AAXX  18184 83242 31496 80503 10281 20168 39665 40159 705// 82207 333 58014;EQDQ01  00002PRCP06
0208832420999992004081900004-12570-041380FM-12+043999999V0200501N000512200019N0020001N1+02171+01561101831ADDAA106000091GA1001+999999999GF100991001001999999001001KA1240M+02841MA1999999096851MD1999999+0051REMSYN082AAXX  19004 83242 32995 00501 10217 20156 39685 40183 333 10284 29062 55107 58005;EQDQ01  00002PRCP06
0186832420999992004081912004-12570-041380FM-12+043999999V0203601N000510042019N0100001N1+02091+01701102241ADDAA106000091GF107991071071004501001001KA1240N+01871MA1999999097231MD1999999+0201REMSYN076AAXX  19124 83242 32497 73601 10209 20170 39723 40224 87700 333 20187 58020;EQDQ01  00002PRCP06
0167832420999992004081918004-12570-041380FM-12+043999999V0201801N000512200019N0100001N1+02791+01631101661ADDAA106000091GF103991031021004501001001MA1999999096711MD1999999+0061REMSYN070AAXX  19184 83242 32497 31801 10279 20163 39671 40166 83200 333 58006;EQDQ01  00002PRCP06
0198832420999992004082000004-12570-041380FM-12+043999999V0203601N001010042019N0020001N1+02251+01621101981ADDAA106000091GF107991071051004501001001KA1240M+02851MA1999999096981MD1999999+0131REMSYN088AAXX  20004 83242 32495 73602 10225 20162 39698 40198 87500 333 10285 29065 55059 58013;EQDQ01  00002PRCP06
0190832420999992004082012004-12570-041380FM-12+043999999V0201801N001010042019N0100001N1+02091+01911102121ADDAY161061AY221061GF107991061071004501041001KA1240N+01851MA1999999097111MD1999999-0121MW1031REMSYN088AAXX  20124 83242 21497 71802 10209 20191 39711 40212 70362 86740 333 20185 59012 60054;
0167832420999992004082018004-12570-041380FM-12+043999999V0209999C000012200019N0100001N1+02831+01601101511ADDAA106000091GF104991041051004501001001MA1999999096581MD1999999-0131REMSYN070AAXX  20184 83242 32497 41400 10283 20160 39658 40151 84500 333 59013;EQDQ01  00002PRCP06
0202832420999992004082100004-12570-041380FM-12+043999999V0201401N001510042019N0010001N1+02371+01731101891ADDAY121061AY211061GF108991081071004501999999KA1240M+02911MA1999999096911MD1999999-0071MW1501REMSYN100AAXX  21004 83242 21494 81403 10237 20173 39691 40189 75021 887// 333 10291 29068 55084 59007 69901;
0186832420999992004082112004-12570-041380FM-12+043999999V0201801N001510450019N0100001N1+02181+01651102001ADDAA106000091GF106991041051004501041001KA1240N+01951MA1999999097031MD1999999-0081REMSYN076AAXX  21124 83242 32497 61803 10218 20165 39703 40200 84540 333 20195 59008;EQDQ01  00002PRCP06
0167832420999992004082118004-12570-041380FM-12+043999999V0201801N001512200019N0100001N1+02851+01681101441ADDAA106000091GF102991021011004501001001MA1999999096531MD1999999-0051REMSYN070AAXX  21184 83242 32497 21803 10285 20168 39653 40144 82100 333 59005;EQDQ01  00002PRCP06
0198832420999992004082200004-12570-041380FM-12+043999999V0200501N002110042019N0020001N1+02391+01651101721ADDAA106000091GF106991061071004501001001KA1240M+02941MA1999999096761MD1999999-0151REMSYN088AAXX  22004 83242 32495 60504 10239 20165 39676 40172 86700 333 10294 29062 55090 59015;EQDQ01  00002PRCP06
0186832420999992004082212004-12570-041380FM-12+043999999V0201801N001510042019N0040001N1+02221+01621102011ADDAA106000091GF107991071071004501001001KA1240N+01961MA1999999097041MD1999999+0011REMSYN076AAXX  22124 83242 32496 71803 10222 20162 39704 40201 87700 333 20196 58001;EQDQ01  00002PRCP06
0167832420999992004082218004-12570-041380FM-12+043999999V0200901N001012200019N0100001N1+02731+01761101391ADDAA106000091GF103991021031004501031001MA1999999096491MD1999999-0041REMSYN070AAXX  22184 83242 32497 30902 10273 20176 39649 40139 82330 333 59004;EQDQ01  00002PRCP06
0198832420999992004082300004-12570-041380FM-12+043999999V0202301N001010042019N0020001N1+02211+01711101641ADDAA106000091GF106991061071004501001001KA1240M+02941MA1999999096661MD1999999-0101REMSYN088AAXX  23004 83242 32495 62302 10221 20171 39666 40164 86700 333 10294 29068 55062 59010;EQDQ01  00002PRCP06
0186832420999992004082312004-12570-041380FM-12+043999999V0201401N000510042019N0100001N1+02191+01801101941ADDAA106000091GF108991081071004501999999KA1240N+01991MA1999999096951MD1999999-0091REMSYN076AAXX  23124 83242 32497 81401 10219 20180 39695 40194 887// 333 20199 59009;EQDQ01  00002PRCP06
0167832420999992004082318004-12570-041380FM-12+043999999V0201401N000512200019N0100001N1+02931+01621101281ADDAA106000091GF103991011031004501051091MA1999999096391MD1999999-0101REMSYN070AAXX  23184 83242 32497 31401 10293 20162 39639 40128 81359 333 59010;EQDQ01  00002PRCP06
0198832420999992004082400004-12570-041380FM-12+043999999V0209999C000012200019N0020001N1+02351+01781101541ADDAA106000091GF101991011011004501001001KA1240M+03031MA1999999096581MD1999999-0081REMSYN088AAXX  24004 83242 32495 10000 10235 20178 39658 40154 81100 333 10303 29066 55069 59008;EQDQ01  00002PRCP06
0186832420999992004082412004-12570-041380FM-12+043999999V0203601N000510450019N0100001N1+02321+01871101741ADDAA106000091GF106991041051004501031001KA1240N+02151MA1999999096791MD1999999-0161REMSYN076AAXX  24124 83242 32497 63601 10232 20187 39679 40174 84530 333 20215 59016;EQDQ01  00002PRCP06
0179832420999992004082418004-12570-041380FM-12+043999999V0201401N000512200019N0040001N1+03191+01841101051ADDAA106000091GF104991021041004501021081MA1999999096171MD1999999-0221MW1051REMSYN076AAXX  24184 83242 31496 41401 10319 20184 39617 40105 705// 82428 333 59022;EQDQ01  00002PRCP06
0198832420999992004082500004-12570-041380FM-12+043999999V0203601N001512200019N0020001N1+02411+01591101491ADDAA106000091GF102991021021004501001001KA1240M+03261MA1999999096551MD1999999-0031REMSYN088AAXX  25004 83242 32495 23603 10241 20159 39655 40149 82200 333 10326 29060 55082 59003;EQDQ01  00002PRCP06
0186832420999992004082512004-12570-041380FM-12+043999999V0201801N001510450019N0100001N1+02241+01731101861ADDAA106000091GF106991041051004501031001KA1240N+01991MA1999999096891MD1999999+0101REMSYN076AAXX  25124 83242 32497 61803 10224 20173 39689 40186 84530 333 20199 58010;EQDQ01  00002PRCP06
0179832420999992004082518004-12567-041383FM-12+042799999V0201801N001510450019N0040001N1+03011+01511101141ADDAA106000091GF108991011011004501081001MA1999999096241MD1999999+0071MW1051REMSYN076AAXX  25184 83242 31496 81803 10301 20151 39624 40114 705// 81180 333 58007;EQDQ01  00002PRCP06
0198832420999992004082600004-12567-041383FM-12+042799999V0200901N001510450019N0020001N1+02391+01411101621ADDAA106000091GF106991041041004501081001KA1240M+03091MA1999999096661MD1999999+0111REMSYN088AAXX  26004 83242 32495 60903 10239 20141 39666 40162 84480 333 10309 29055 55091 58011;EQDQ01  00002PRCP06
0186832420999992004082612004-12567-041383FM-12+042799999V0200901N002110042019N0100001N1+02361+01611101771ADDAA106000091GF106991061041004501001001KA1240N+01931MA1999999096821MD1999999-0071REMSYN076AAXX  26124 83242 32497 60904 10236 20161 39682 40177 86400 333 20193 59007;EQDQ01  00002PRCP06
0167832420999992004082618004-12567-041383FM-12+042799999V0201801N001512200019N0100001N1+02931+01551101161ADDAA106000091GF104991021031004501031001MA1999999096261MD1999999+0021REMSYN070AAXX  26184 83242 32497 41803 10293 20155 39626 40116 82330 333 58002;EQDQ01  00002PRCP06
0198832420999992004082700004-12567-041383FM-12+042799999V0200501N001010210019N0020001N1+02221+01271101461ADDAA106000091GF105991051001022501031001KA1240M+03031MA1999999096511MD1999999-0151REMSYN088AAXX  27004 83242 32895 50502 10222 20127 39651 40146 85030 333 10303 29054 55106 59015;EQDQ01  00002PRCP06
0186832420999992004082712004-12567-041383FM-12+042799999V0201401N002110042019N0100001N1+02291+01771101751ADDAA106000091GF106991051051004501041001KA1240N+01911MA1999999096781MD1999999-0041REMSYN076AAXX  27124 83242 32497 61404 10229 20177 39678 40175 85540 333 20191 59004;EQDQ01  00002PRCP06
0198832420999992004082800004-12567-041383FM-12+042799999V0201401N001012200019N0020001N1+02291+01561101531ADDAA106000091GF101991011001022501051001KA1240M+03101MA1999999096581MD1999999+0071REMSYN088AAXX  28004 83242 32895 11402 10229 20156 39658 40153 81050 333 10310 29061 55095 58007;EQDQ01  00002PRCP06
0186832420999992004082812004-12567-041383FM-12+042799999V0200901N000510042019N0100001N1+02181+01741101781ADDAA106000091GF108991081061004501999999KA1240N+02031MA1999999096811MD1999999+0031REMSYN076AAXX  28124 83242 32497 80901 10218 20174 39681 40178 886// 333 20203 58003;EQDQ01  00002PRCP06
0195832420999992004082818004-12570-041380FM-12+043999999V0201401N001511050019N0040001N1+03041+01451100982ADDAA106000091GF108991021021004501001071MA1999999096081MD1999999-0201MW1051REMSYN076AAXX  28184 83242 31496 81403 10304 20145 39608 40098 705// 82207 333 59020;EQDQ01+100983APOSLPQ02  00002PRCP06
0208832420999992004082900004-12570-041380FM-12+043999999V0203601N001012200019N0020001N1+02261+01661101241ADDAA106000091GA1001+999999999GF100991001001999999001001KA1240M+03101MA1999999096281MD1999999-0301REMSYN082AAXX  29004 83242 32995 03602 10226 20166 39628 40124 333 10310 29063 55066 59030;EQDQ01  00002PRCP06
0186832420999992004082912004-12570-041380FM-12+043999999V0200501N001511050019N0040001N1+02371+01801101461ADDAA106000091GF108991011011004501001071KA1240N+01781MA1999999096511MD1999999-0301REMSYN076AAXX  29124 83242 32496 80503 10237 20180 39651 40146 81107 333 20178 59030;EQDQ01  00002PRCP06
0195832420999992004082918004-12570-041380FM-12+043999999V0201401N000511050019N0040001N1+03511+01831100662ADDAA106000091GF108991021041004501001071MA1999999095811MD1999999-0271MW1051REMSYN076AAXX  29184 83242 31496 81401 10351 20183 39581 40066 705// 82407 333 59027;EQDQ01+100663APOSLPQ02  00002PRCP06
0198832420999992004083000004-12570-041380FM-12+043999999V0209999C000012200019N0020001N1+02621+01561101101ADDAA106000091GF102991021011004501001001KA1240M+03551MA1999999096211MD1999999-0071REMSYN088AAXX  30004 83242 32495 20000 10262 20156 39621 40110 82100 333 10355 29053 55084 59007;EQDQ01  00002PRCP06
0186832420999992004083012004-12567-041383FM-12+042799999V0200901N001510042019N0100001N1+02571+01871101581ADDAA106000091GF108991051051004501031071KA1240N+02151MA1999999096691MD1999999+0181REMSYN076AAXX  30124 83242 32497 80903 10257 20187 39669 40158 85537 333 20215 58018;EQDQ01  00002PRCP06
0179832420999992004083018004-12567-041383FM-12+042799999V0201401N002111050019N0040001N1+03131+01841101061ADDAA106000091GF108991031031004501001071MA1999999096191MD1999999+0381MW1051REMSYN076AAXX  30184 83242 31496 81404 10313 20184 39619 40106 705// 83307 333 58038;EQDQ01  00002PRCP06
0198832420999992004083100004-12567-041383FM-12+042799999V0200901N001010042019N0020001N1+02651+01791101451ADDAA106000091GF106991051071004501031001KA1240M+03161MA1999999096561MD1999999+0351REMSYN088AAXX  31004 83242 32495 60902 10265 20179 39656 40145 85730 333 10316 29057 55085 58035;EQDQ01  00002PRCP06
0186832420999992004083112004-12567-041383FM-12+042799999V0201801N001510042019N0100001N1+02261+01821101861ADDAA106000091GF108991081061004501999999KA1240N+02111MA1999999096931MD1999999+0241REMSYN076AAXX  31124 83242 32497 81803 10226 20182 39693 40186 886// 333 20211 58024;EQDQ01  00002PRCP06
0167832420999992004083118004-12567-041383FM-12+042799999V0201401N001510042019N0100001N1+02611+01781101481ADDAA106000091GF108991081061004501999999MA1999999096551MD1999999+0361REMSYN070AAXX  31184 83242 32497 81403 10261 20178 39655 40148 886// 333 58036;EQDQ01  00002PRCP06
0198832420999992004090100004-12567-041383FM-12+042799999V0201401N001510042019N0020001N1+02431+01761101821ADDAA106000091GF108991081071004501999999KA1240M+02801MA1999999096861MD1999999+0301REMSYN088AAXX  01004 83242 32495 81403 10243 20176 39686 40182 887// 333 10280 29067 55030 58030;EQDQ01  00002PRCP06
0186832420999992004090112004-12567-041383FM-12+042799999V0201801N003110042019N0100001N1+02211+01711102151ADDAA106000091GF108991061071004501061001KA1240N+01871MA1999999097171MD1999999+0241REMSYN076AAXX  01124 83242 32497 81806 10221 20171 39717 40215 86760 333 20187 58024;EQDQ01  00002PRCP06
0167832420999992004090118004-12567-041383FM-12+042799999V0201801N002110450019N0100001N1+02961+01531101621ADDAA106000091GF106991041021004501031001MA1999999096641MD1999999+0141REMSYN070AAXX  01184 83242 32497 61804 10296 20153 39664 40162 84230 333 58014;EQDQ01  00002PRCP06
0198832420999992004090200004-12567-041383FM-12+042799999V0201801N001010042019N0020001N1+02371+01531101971ADDAA106000091GF107991071071004501001001KA1240M+02961MA1999999097001MD1999999+0141REMSYN088AAXX  02004 83242 32495 71802 10237 20153 39700 40197 87700 333 10296 29058 55068 58014;EQDQ01  00002PRCP06
0186832420999992004090212004-12567-041383FM-12+042799999V0201801N003110042019N0100001N1+02111+01481101481ADDAA106000091GF106991051071004501031001KA1240N+01891MA1999999097181MD1999999+0011REMSYN076AAXX  02124 83242 32497 61806 10211 20148 39718 40148 85730 333 20189 58001;EQDQ01  00002PRCP06
0167832420999992004090218004-12567-041383FM-12+042799999V0201401N002112200019N0100001N1+02871+01671101641ADDAA106000091GF104991031031004501041001MA1999999096711MD1999999+0071REMSYN070AAXX  02184 83242 32497 41404 10287 20167 39671 40164 83340 333 58007;EQDQ01  00002PRCP06
0208832420999992004090300004-12567-041383FM-12+042799999V0201801N001012200019N0020001N1+02151+01301101971ADDAA106000091GA1001+999999999GF100991001001999999001001KA1240M+02901MA1999999096971MD1999999-0031REMSYN082AAXX  03004 83242 32995 01802 10215 20130 39697 40197 333 10290 29058 55080 59003;EQDQ01  00002PRCP06
0186832420999992004090312004-12567-041383FM-12+042799999V0201401N001510042019N0100001N1+02091+01461102131ADDAA106000091GF106991051041004501051001KA1240N+01571MA1999999097111MD1999999-0071REMSYN076AAXX  03124 83242 32497 61403 10209 20146 39711 40213 85450 333 20157 59007;EQDQ01  00002PRCP06
0179832420999992004090318004-12567-041383FM-12+042799999V0202301N001511050019N0040001N1+02831+01961101571ADDAA106000091GF108991011011004501001071MA1999999096611MD1999999-0101MW1051REMSYN076AAXX  03184 83242 31496 82303 10283 20196 39661 40157 705// 81107 333 59010;EQDQ01  00002PRCP06
0208832420999992004090400004-12567-041383FM-12+042799999V0201801N000512200019N0020001N1+02091+01271101671ADDAA106000091GA1001+999999999GF100991001001999999001001KA1240M+02921MA1999999096671MD1999999-0301REMSYN082AAXX  04004 83242 32995 01801 10209 20127 39667 40167 333 10292 29061 55106 59030;EQDQ01  00002PRCP06
0186832420999992004090412004-12567-041383FM-12+042799999V0200501N001511050019N0040001N1+02151+01191101881ADDAA106000091GF108991011011004501001071KA1240N+01391MA1999999096871MD1999999-0241REMSYN076AAXX  04124 83242 32496 80503 10215 20119 39687 40188 81107 333 20139 59024;EQDQ01  00002PRCP06
0177832420999992004090418004-12567-041383FM-12+042799999V0201801N002612200019N0100001N1+03021+00971101331ADDAA106000091GA1001+999999999GF100991001001999999001001MA1999999096381MD1999999-0231REMSYN064AAXX  04184 83242 32997 01805 10302 20097 39638 40133 333 59023;EQDQ01  00002PRCP06
0208832420999992004090500004-12567-041383FM-12+042799999V0201401N000512200019N0020001N1+02211+01001101591ADDAA106000091GA1001+999999999GF100991001001999999001001KA1240M+03081MA1999999096621MD1999999-0051REMSYN082AAXX  05004 83242 32995 01401 10221 20100 39662 40159 333 10308 29044 55107 59005;EQDQ01  00002PRCP06
0186832420999992004090512004-12567-041383FM-12+042799999V0201401N002610450019N0040001N1+02011+01561101961ADDAA106000091GF107991041071004501081001KA1240N+01571MA1999999096951MD1999999+0081REMSYN076AAXX  05124 83242 32496 71405 10201 20156 39695 40196 84780 333 20157 58008;EQDQ01  00002PRCP06
0167832420999992004090518004-12567-041383FM-12+042799999V0201801N003610450019N0040001N1+02851+01331101341ADDAA106000091GF108991021011004501051071MA1999999096381MD1999999+0001REMSYN070AAXX  05184 83242 32496 81807 10285 20133 39638 40134 82157 333 58000;EQDQ01  00002PRCP06
0208832420999992004090600004-12567-041383FM-12+042799999V0200901N002112200019N0020001N1+02191+01391101551ADDAA106000091GA1001+999999999GF100991001001999999001001KA1240M+02901MA1999999096561MD1999999-0061REMSYN082AAXX  06004 83242 32995 00904 10219 20139 39656 40155 333 10290 29058 55096 59006;EQDQ01  00002PRCP06
0186832420999992004090612004-12567-041383FM-12+042799999V0201401N001010450019N0100001N1+02041+01701101711ADDAA106000091GF106991041071004501061001KA1240N+01951MA1999999096721MD1999999-0231REMSYN076AAXX  06124 83242 32497 61402 10204 20170 39672 40171 84760 333 20195 59023;EQDQ01  00002PRCP06
0167832420999992004090618004-12567-041383FM-12+042799999V0201401N002111050019N0040001N1+03011+01301101051ADDAA106000091GF108991021011004501001071MA1999999096151MD1999999+0231REMSYN070AAXX  06184 83242 32496 81404 10301 20130 39615 40105 82107 333 58023;EQDQ01  00002PRCP06
0186832420999992004090712004-12567-041383FM-12+042799999V0201401N001510042019N0100001N1+02211+01671101641ADDAA106000091GF106991051051004501031001KA1240N+01931MA1999999096681MD1999999-0041REMSYN076AAXX  07124 83242 32497 61403 10221 20167 39668 40164 85530 333 20193 59004;EQDQ01  00002PRCP06
0167832420999992004090718004-12567-041383FM-12+042799999V0201401N002110450019N0100001N1+03001+01241101091ADDAA106000091GF108991031011004501061071MA1999999096171MD1999999+0021REMSYN070AAXX  07184 83242 32497 81404 10300 20124 39617 40109 83167 333 58002;EQDQ01  00002PRCP06
0208832420999992004090800004-12567-041383FM-12+042799999V0200901N002112200019N0020001N1+02251+01251101451ADDAA106000091GA1001+999999999GF100991001001999999001001KA1240M+03001MA1999999096491MD1999999+0051REMSYN082AAXX  08004 83242 32995 00904 10225 20125 39649 40145 333 10300 29053 55091 58005;EQDQ01  00002PRCP06
0186832420999992004090812004-12567-041383FM-12+042799999V0201401N002610042019N0100001N1+02151+01191101711ADDAA106000091GF106991061071004501001001KA1240N+01771MA1999999096731MD1999999+0051REMSYN076AAXX  08124 83242 32497 61405 10215 20119 39673 40171 86700 333 20177 58005;EQDQ01  00002PRCP06
0167832420999992004090818004-12567-041383FM-12+042799999V0201801N003111050019N0100001N1+02871+01141101091ADDAA106000091GF108991011011004501001071MA1999999096171MD1999999+0001REMSYN070AAXX  08184 83242 32497 81806 10287 20114 39617 40109 81107 333 58000;EQDQ01  00002PRCP06
0186832420999992004090912004-12567-041383FM-12+042799999V0201401N002612200019N0100001N1+02211+01251101771ADDAA106000091GF104991031031004501061001KA1240N+01791MA1999999096791MD1999999+0061REMSYN076AAXX  09124 83242 32497 41405 10221 20125 39679 40177 83360 333 20179 58006;EQDQ01  00002PRCP06
0167832420999992004090918004-12567-041383FM-12+042799999V0201801N003612200019N0100001N1+02961+01211101171ADDAA106000091GF101991011011004501001001MA1999999096251MD1999999+0081REMSYN070AAXX  09184 83242 32497 11807 10296 20121 39625 40117 81100 333 58008;EQDQ01  00002PRCP06
0198832420999992004091000004-12567-041383FM-12+042799999V0200901N002110042019N0020001N1+02391+01351101621ADDAA106000091GF107991071051004501001001KA1240M+03021MA1999999096661MD1999999+0141REMSYN088AAXX  10004 83242 32495 70904 10239 20135 39666 40162 87500 333 10302 29048 55102 58014;EQDQ01  00002PRCP06
0186832420999992004091012004-12567-041383FM-12+042799999V0201401N001510450019N0100001N1+02071+01491101871ADDAA106000091GF106991041071004501031001KA1240N+01661MA1999999096891MD1999999+0101REMSYN076AAXX  10124 83242 32497 61403 10207 20149 39689 40187 84730 333 20166 58010;EQDQ01  00002PRCP06
0167832420999992004091018004-12567-041383FM-12+042799999V0202301N001512200019N0100001N1+02851+01481101191ADDAA106000091GF103991031011004501001001MA1999999096271MD1999999+0021REMSYN070AAXX  10184 83242 32497 32303 10285 20148 39627 40119 83100 333 58002;EQDQ01  00002PRCP06
0198832420999992004091100004-12567-041383FM-12+042799999V0201401N001510042019N0020001N1+02351+01561101501ADDAA106000091GF107991071071004501001001KA1240M+02981MA1999999096531MD1999999-0131REMSYN088AAXX  11004 83242 32495 71403 10235 20156 39653 40150 87700 333 10298 29058 55083 59013;EQDQ01  00002PRCP06
0190832420999992004091112004-12567-041383FM-12+042799999V0200501N000510042019N0100001N1+02051+01701101851ADDAY151061AY221061GF108991081071004501999999KA1240N+01881MA1999999096861MD1999999-0031MW1031REMSYN088AAXX  11124 83242 21497 80501 10205 20170 39686 40185 70352 887// 333 20188 59003 69924;
0167832420999992004091118004-12567-041383FM-12+042799999V0201401N001010042019N0100001N1+02931+01401101201ADDAA106000091GF108991051071004501061021MA1999999096301MD1999999+0031REMSYN070AAXX  11184 83242 32497 81402 10293 20140 39630 40120 85762 333 58003;EQDQ01  00002PRCP06
0208832420999992004091200004-12567-041383FM-12+042799999V0200501N000512200019N0020001N1+02191+01511101521ADDAA106000091GA1001+999999999GF100991001001999999001001KA1240M+02941MA1999999096531MD1999999+0001REMSYN082AAXX  12004 83242 32995 00501 10219 20151 39653 40152 333 10294 29062 55060 58000;EQDQ01  00002PRCP06
0186832420999992004091212004-12570-041380FM-12+043999999V0201401N003110042019N0100001N1+02321+01581101991ADDAA106000091GF108991061071004501041021KA1240N+01171MA1999999097011MD1999999+0151REMSYN076AAXX  12124 83242 32497 81406 10232 20158 39701 40199 86742 333 20117 58015;EQDQ01  00002PRCP06
0167832420999992004091218004-12567-041383FM-12+042799999V0201801N002610450019N0100001N1+02941+01361101451ADDAA106000091GF106991031021004501041061MA1999999096501MD1999999+0201REMSYN070AAXX  12184 83242 32497 61805 10294 20136 39650 40145 83246 333 58020;EQDQ01  00002PRCP06
0208832420999992004091300004-12567-041383FM-12+042799999V0200901N002112200019N0020001N1+02251+01251101451ADDAA106000091GA1001+999999999GF100991001001999999001001KA1240M+03001MA1999999096491MD1999999+0051REMSYN082AAXX  08004 83242 32995 00904 10225 20125 39649 40145 333 10300 29053 55091 58005;EQDQ01  00002PRCP06
0186832420999992004091312004-12567-041383FM-12+042799999V0201801N002110042019N0100001N1+02231+01601102171ADDAA106000091GF108991081071004501999999KA1240N+01891MA1999999097191MD1999999+0181REMSYN076AAXX  13124 83242 32497 81804 10223 20160 39719 40217 887// 333 20189 58018;EQDQ01  00002PRCP06
0183832420999992004091318004-12567-041383FM-12+042799999V0201801N002112200019N0100001N1+02871+01421101481ADDAA106000091GF101991999041004501001021MA1999999096551MD1999999+0051REMSYN070AAXX  13184 83242 32497 11804 10287 20142 39655 40148 84402 333 58005;EQDQ01+000042SCOTLCQ02  00002PRCP06
0198832420999992004091400004-12567-041383FM-12+042799999V0201801N002610042019N0020001N1+02311+01831101901ADDAA106000091GF108991081071004501999999KA1240M+02981MA1999999096921MD1999999-0031REMSYN088AAXX  14004 83242 32495 81805 10231 20183 39692 40190 887// 333 10298 29064 55075 59003;EQDQ01  00002PRCP06
0190832420999992004091412004-12567-041383FM-12+042799999V0201801N003110042019N0040001N1+02121+01741102131ADDAY161061AY221061GF108991081071004501999999KA1240N+01811MA1999999097131MD1999999-0061MW1601REMSYN088AAXX  14124 83242 21496 81806 10212 20174 39713 40213 76062 887// 333 20181 59006 60014;
0148832420999992004091418004-12567-041383FM-12+042799999V0202301N001010042019N0100001N1+02651+01471101521ADDAA106000021GF106991051071004501041001MA1999999096661MD1999999+0111REMSYN070AAXX  14184 83242 32497 62302 10265 20147 39666 40152 85740 333 58011;
0202832420999992004091500004-12567-041383FM-12+042799999V0201801N003110042019N0010001N1+02281+01641101941ADDAY121061AY211061GF108991081071004501999999KA1240M+02831MA1999999096951MD1999999+0031MW1501REMSYN100AAXX  15004 83242 21494 81806 10228 20164 39695 40194 75021 887// 333 10283 29065 55031 58003 69901;
0186832420999992004091512004-12567-041383FM-12+042799999V0201801N002610042019N0040001N1+02211+01161102091ADDAA106000091GF108991081071004501999999KA1240N+01191MA1999999097101MD1999999-0031REMSYN076AAXX  15124 83242 32496 81805 10221 20116 39710 40209 887// 333 20119 59003;EQDQ01  00002PRCP06
0167832420999992004091518004-12567-041383FM-12+042799999V0201401N001510450019N0100001N1+02831+01601101411ADDAA106000091GF105991041051004501031001MA1999999096401MD1999999-0171REMSYN070AAXX  15184 83242 32497 51403 10283 20160 39640 40141 84530 333 59017;EQDQ01  00002PRCP06
0198832420999992004091600004-12567-041383FM-12+042799999V0209999C000010042019N0020001N1+02491+01701101631ADDAA106000091GF108991081071004501999999KA1240M+02931MA1999999096681MD1999999-0271REMSYN088AAXX  16004 83242 32495 80000 10249 20170 39668 40163 887// 333 10293 29060 55054 59027;EQDQ01  00002PRCP06
0186832420999992004091612004-12567-041383FM-12+042799999V0203601N001010042019N0100001N1+02081+01721101831ADDAA106000091GF108991081071004501999999KA1240N+01971MA1999999096861MD1999999-0241REMSYN076AAXX  16124 83242 32497 83602 10208 20172 39686 40183 887// 333 20197 59024;EQDQ01  00002PRCP06
0136832420999992004091618004-12567-041383FM-12+042799999V0201801N001012200019N0100001N1+03041+99999999999ADDAA106000091GF103991999999004501999999REMSYN068AAXX  16184 83242 32497 31802 10304 201 39636 40125 82330 333 59004;EQDQ01  00002PRCP06
0208832420999992004091700004-12567-041383FM-12+042799999V0201801N000512200019N0020001N1+02231+01261101551ADDAA106000091GA1001+999999999GF100991001001999999001001KA1240M+03041MA1999999096571MD1999999-0111REMSYN082AAXX  17004 83242 32995 01801 10223 20126 39657 40155 333 10304 29059 55069 59011;EQDQ01  00002PRCP06
0186832420999992004091712004-12567-041383FM-12+042799999V0201401N001510450019N0100001N1+02251+01251101991ADDAA106000091GF106991041021004501041001KA1240N+01531MA1999999097011MD1999999+0151REMSYN076AAXX  17124 83242 32497 61403 10225 20125 39701 40199 84240 333 20153 58015;EQDQ01  00002PRCP06
0179832420999992004091718004-12567-041383FM-12+042799999V0201401N001511050019N0040001N1+03071+01601101281ADDAA106000091GF108991011011004501001071MA1999999096351MD1999999-0011MW1051REMSYN076AAXX  17184 83242 31496 81403 10307 20160 39635 40128 705// 81107 333 59001;EQDQ01  00002PRCP06
0208832420999992004091800004-12567-041383FM-12+042799999V0200901N001012200019N0020001N1+02431+01451101651ADDAA106000091GA1001+999999999GF100991001001999999001001KA1240M+03181MA1999999096701MD1999999+0131REMSYN082AAXX  18004 83242 32995 00902 10243 20145 39670 40165 333 10318 29051 55108 58013;EQDQ01  00002PRCP06
0186832420999992004091812004-12567-041383FM-12+042799999V0201401N001510042019N0100001N1+02311+01811101921ADDAA106000091GF108991081071004501999999KA1240N+02031MA1999999096961MD1999999-0051REMSYN076AAXX  18124 83242 32497 81403 10231 20181 39696 40192 887// 333 20203 59005;EQDQ01  00002PRCP06
0179832420999992004091818004-12567-041383FM-12+042799999V0201401N001011050019N0040001N1+03161+01991101341ADDAA106000091GF108991031021004501001071MA1999999096361MD1999999+0011MW1051REMSYN076AAXX  18184 83242 31496 81402 10316 20199 39636 40134 705// 83207 333 58001;EQDQ01  00002PRCP06
0198832420999992004091900004-12570-041380FM-12+043999999V0201401N002610042019N0020001N1+02531+01711101641ADDAA106000091GF107991071071004501001001KA1240M+03201MA1999999096711MD1999999+0011REMSYN088AAXX  19004 83242 32495 71405 10253 20171 39671 40164 87700 333 10320 29061 55083 58001;EQDQ01  00002PRCP06
0186832420999992004091912004-12570-041380FM-12+043999999V0201801N001510042019N0100001N1+02261+01641101881ADDAA106000091GF107991061071004501041001KA1240N+01991MA1999999096941MD1999999-0021REMSYN076AAXX  19124 83242 32497 71803 10226 20164 39694 40188 86740 333 20199 59002;EQDQ01  00002PRCP06
0179832420999992004091918004-12570-041380FM-12+043999999V0201401N001010450019N0040001N1+03021+01471101321ADDAA106000091GF108991011011004501031071MA1999999096431MD1999999+0071MW1051REMSYN076AAXX  19184 83242 31496 81402 10302 20147 39643 40132 705// 81137 333 58007;EQDQ01  00002PRCP06
0198832420999992004092000004-12570-041380FM-12+043999999V0201801N001010450019N0020001N1+02431+01481101551ADDAA106000091GF106991041071004501031001KA1240M+03041MA1999999096611MD1999999-0101REMSYN088AAXX  20004 83242 32495 61802 10243 20148 39661 40155 84730 333 10304 29054 55074 59010;EQDQ01  00002PRCP06
0190832420999992004092012004-12567-041383FM-12+042799999V0201801N001510042019N0100001N1+02271+01731101751ADDAY151061AY221061GF108991081071004501999999KA1240N+02011MA1999999096801MD1999999-0141MW1031REMSYN088AAXX  20124 83242 21497 81803 10227 20173 39680 40175 70352 887// 333 20201 59014 69904;
0167832420999992004092018004-12567-041383FM-12+042799999V0201801N001010450019N0100001N1+02971+01551101191ADDAA106000091GF105991031051004501031001MA1999999096291MD1999999-0141REMSYN070AAXX  20184 83242 32497 51802 10297 20155 39629 40119 83530 333 59014;EQDQ01  00002PRCP06
0198832420999992004092100004-12567-041383FM-12+042799999V0201801N000512200019N0020001N1+02391+01471101571ADDAA106000091GF102991011001022501061021KA1240M+03031MA1999999096631MD1999999+0021REMSYN088AAXX  21004 83242 32895 21801 10239 20147 39663 40157 81062 333 10303 29056 55063 58002;EQDQ01  00002PRCP06
0167832420999992004092118004-12567-041383FM-12+042799999V0201801N001012200019N0100001N1+03001+01491101291ADDAA106000091GF104991021041004501041061MA1999999096391MD1999999+0191REMSYN070AAXX  21184 83242 32497 41802 10300 20149 39639 40129 82446 333 58019;EQDQ01  00002PRCP06
0198832420999992004092200004-12567-041383FM-12+042799999V0201401N001510042019N0020001N1+02391+01441101771ADDAA106000091GF108991081071004501999999KA1240M+03141MA1999999096821MD1999999+0191REMSYN088AAXX  22004 83242 32495 81403 10239 20144 39682 40177 887// 333 10314 29054 55092 58019;EQDQ01  00002PRCP06
0190832420999992004092212004-12567-041383FM-12+042799999V0201801N001510042019N0040001N1+02131+01821102091ADDAY151061AY221061GF108991081071004501999999KA1240N+01991MA1999999097101MD1999999+0161MW1501REMSYN088AAXX  22124 83242 21496 81803 10213 20182 39710 40209 75052 887// 333 20199 58016 69904;
0171832420999992004092218004-12567-041383FM-12+042799999V0203201N001012200019N0100001N1+02971+01471101511ADDAY151061AY221061GF103991021031004501031001MA1999999096611MD1999999+0221MW1011REMSYN082AAXX  22184 83242 21497 33202 10297 20147 39661 40151 70152 82330 333 58022 69901;
0198832420999992004092300004-12567-041383FM-12+042799999V0201401N001012200019N0020001N1+02391+01731101811ADDAA106000091GF103991031071004501001001KA1240M+03011MA1999999096841MD1999999+0021REMSYN088AAXX  23004 83242 32495 31402 10239 20173 39684 40181 83700 333 10301 29064 55066 58002;EQDQ01  00002PRCP06
0162832420999992004092312004-12567-041383FM-12+042799999V0201801N001510450019N0100001N1+02421+01621101951ADDGF106991041051004501061001KA1240N+01951MA1999999097001MD1999999-0101REMSYN082AAXX  23124 83242 22497 61803 10242 20162 39700 40195 84560 333 20195 59010 69914;
0179832420999992004092318004-12567-041383FM-12+042799999V0201401N001510450019N0040001N1+03001+01491101281ADDAA106000091GF108991011021004501011071MA1999999096401MD1999999-0211MW1051REMSYN076AAXX  23184 83242 31496 81403 10300 20149 39640 40128 705// 81217 333 59021;EQDQ01  00002PRCP06
0198832420999992004092400004-12567-041383FM-12+042799999V0200901N003110042019N0020001N1+02451+01731101691ADDAA106000091GF108991081071004501999999KA1240M+03221MA1999999096761MD1999999-0081REMSYN088AAXX  24004 83242 32495 80906 10245 20173 39676 40169 887// 333 10322 29058 55088 59008;EQDQ01  00002PRCP06
0190832420999992004092412004-12567-041383FM-12+042799999V0201101N020610042019N0040001N1+02111+01801101901ADDAY151061AY221061GF108991081071004501999999KA1240N+01911MA1999999096931MD1999999-0061MW1501REMSYN088AAXX  24124 83242 21496 81140 10211 20180 39693 40190 75052 887// 333 20191 59006 69904;
0160832420999992004092418004-12567-041383FM-12+042799999V0202301N002111050019N0040001N1+03031+01531101211ADDAA106000021GF108991021011004501001071MA1999999096311MD1999999-0091MW1051REMSYN076AAXX  24184 83242 31496 82304 10303 20153 39631 40121 705// 82107 333 59009;
0208832420999992004092500004-12567-041383FM-12+042799999V0201801N001512200019N0020001N1+02301+01321101651ADDAA106000091GA1001+999999999GF100991001001999999001001KA1240M+03081MA1999999096671MD1999999-0091REMSYN082AAXX  25004 83242 32995 01803 10230 20132 39667 40165 333 10308 29058 55070 59009;EQDQ01  00002PRCP06
0186832420999992004092512004-12567-041383FM-12+042799999V0201401N002110042019N0100001N1+02271+01491101831ADDAA106000091GF107991061071004501081001KA1240N+01911MA1999999096861MD1999999-0071REMSYN076AAXX  25124 83242 32497 71404 10227 20149 39686 40183 86780 333 20191 59007;EQDQ01  00002PRCP06
0167832420999992004092518004-12567-041383FM-12+042799999V0201801N002612200019N0100001N1+03041+01641101111ADDAA106000091GF102991021021004501001001MA1999999096221MD1999999-0091REMSYN070AAXX  25184 83242 32497 21805 10304 20164 39622 40111 82200 333 59009;EQDQ01  00002PRCP06
0208832420999992004092600004-12567-041383FM-12+042799999V0201801N001012200019N0020001N1+02311+01371101491ADDAA106000091GA1001+999999999GF100991001001999999001001KA1240M+03121MA1999999096541MD1999999-0131REMSYN082AAXX  26004 83242 32995 01802 10231 20137 39654 40149 333 10312 29055 55099 59013;EQDQ01  00002PRCP06
0186832420999992004092612004-12570-041380FM-12+043999999V0200901N001510450019N0100001N1+02331+01571101921ADDAA106000091GF106991041071004501061001KA1240N+01931MA1999999096951MD1999999+0091REMSYN076AAXX  26124 83242 32497 60903 10233 20157 39695 40192 84760 333 20193 58009;EQDQ01  00002PRCP06
0167832420999992004092618004-12570-041380FM-12+043999999V0201801N001510450019N0100001N1+02931+01551101311ADDAA106000091GF105991031051004501031041MA1999999096391MD1999999+0171REMSYN070AAXX  26184 83242 32497 51803 10293 20155 39639 40131 83534 333 58017;EQDQ01  00002PRCP06
0198832420999992004092700004-12570-041380FM-12+043999999V0201401N001010450019N0020001N1+02391+01681101721ADDAA106000091GF106991041071004501031001KA1240M+02981MA1999999096771MD1999999+0231REMSYN088AAXX  27004 83242 32495 61402 10239 20168 39677 40172 84730 333 10298 29058 55054 58023;EQDQ01  00002PRCP06
0190832420999992004092712004-12570-041380FM-12+043999999V0201401N001010042019N0100001N1+02181+01861101911ADDAY161061AY221061GF108991081071004501999999KA1240N+01891MA1999999096941MD1999999-0011MW1031REMSYN088AAXX  27124 83242 21497 81402 10218 20186 39694 40191 70362 887// 333 20189 59001 60024;
0167832420999992004092718004-12567-041383FM-12+042799999V0201401N001512200019N0100001N1+03001+01491101261ADDAA106000091GF104991031041004501081001MA1999999096351MD1999999-0041REMSYN070AAXX  27184 83242 32497 41403 10300 20149 39635 40126 83480 333 59004;EQDQ01  00002PRCP06
0198832420999992004092800004-12567-041383FM-12+042799999V0200501N002610042019N0020001N1+02431+01761101711ADDAA106000091GF108991081071004501999999KA1240M+03121MA1999999096751MD1999999-0021REMSYN088AAXX  28004 83242 32495 80505 10243 20176 39675 40171 887// 333 10312 29064 55061 59002;EQDQ01  00002PRCP06
0190832420999992004092812004-12567-041383FM-12+042799999V0201801N001010042019N0100001N1+02171+01721101801ADDAY151061AY221061GF108991081071004501999999KA1240N+01831MA1999999096841MD1999999-0091MW1031REMSYN088AAXX  28124 83242 21497 81802 10217 20172 39684 40180 70352 887// 333 20183 59009 69924;
0167832420999992004092818004-12567-041383FM-12+042799999V0201801N001012200019N0100001N1+03071+01481101121ADDAA106000091GF104991031021004501061001MA1999999096241MD1999999-0111REMSYN070AAXX  28184 83242 32497 41802 10307 20148 39624 40112 83260 333 59011;EQDQ01  00002PRCP06
0208832420999992004092900004-12567-041383FM-12+042799999V0200501N000512200019N0020001N1+02291+01511101331ADDAA106000091GA1001+999999999GF100991001001999999001001KA1240M+03161MA1999999096381MD1999999-0371REMSYN082AAXX  29004 83242 32995 00501 10229 20151 39638 40133 333 10316 29059 55067 59037;EQDQ01  00002PRCP06
0186832420999992004092912004-12567-041383FM-12+042799999V0201801N000510042019N0100001N1+02251+01921101601ADDAA106000091GF107991061071004501041001KA1240N+02071MA1999999096641MD1999999-0201REMSYN076AAXX  29124 83242 32497 71801 10225 20192 39664 40160 86740 333 20207 59020;EQDQ01  00002PRCP06
0179832420999992004092918004-12567-041383FM-12+042799999V0201801N001511050019N0040001N1+03211+01881100831ADDAA106000091GF108991021011004501001071MA1999999095981MD1999999-0261MW1051REMSYN076AAXX  29184 83242 31496 81803 10321 20188 39598 40083 705// 82107 333 59026;EQDQ01  00002PRCP06
0208832420999992004093000004-12567-041383FM-12+042799999V0200901N001512200019N0020001N1+02521+01631100991ADDAA106000091GA1001+999999999GF100991001001999999001001KA1240M+03311MA1999999096011MD1999999-0291REMSYN082AAXX  30004 83242 32995 00903 10252 20163 39601 40099 333 10331 29060 55077 59029;EQDQ01  00002PRCP06
0186832420999992004093012004-12567-041383FM-12+042799999V0201401N001010042019N0100001N1+02271+01771101771ADDAA106000091GF107991061071004501031001KA1240N+02091MA1999999096541MD1999999-0101REMSYN076AAXX  30124 83242 32497 71402 10227 20177 39654 40177 86730 333 20209 59010;EQDQ01  00002PRCP06
0158832420999992004093018004-12567-041383FM-12+042799999V0201801N001019999999N0040001N1+03131+01501999999ADDAA106000091GF108991999999004501999999MA1999999096121REMSYN075AAXX  30184 83242 31496 81802 10313 20150 39612 0109 705// 82207 333 58014;EQDQ01  00002PRCP06
0198832420999992004100100004-12567-041383FM-12+042799999V0201801N001510210019N0020001N1+02531+01421101411ADDAA106000091GF106991061001022501031001KA1240M+03181MA1999999096491MD1999999+0401REMSYN088AAXX  01004 83242 32895 61803 10253 20142 39649 40141 86030 333 10318 29052 55069 58040;EQDQ01  00002PRCP06
0202832420999992004100112004-12567-041383FM-12+042799999V0201401N001512200019N0100001N1+02441+01591101631ADDAA106000091GF101991999021004501001001KA1240N+02011MA1999999096721MD1999999+0181REMSYN076AAXX  01124 83242 32497 11403 10244 20159 39672 40163 85200 333 20201 58018;EQDQ01+000052SCOTLCQ02  00002PRCP06
0179832420999992004100118004-12567-041383FM-12+042799999V0201801N002611050019N0040001N1+03271+01861101081ADDAA106000091GF108991021011004501001071MA1999999096221MD1999999+0101MW1051REMSYN076AAXX  01184 83242 31496 81805 10327 20186 39622 40108 705// 82107 333 58010;EQDQ01  00002PRCP06
0198832420999992004100200004-12567-041383FM-12+042799999V0201401N000512200019N0020001N1+02521+01401101481ADDAA106000091GF101991011011004501001001KA1240M+03271MA1999999096571MD1999999+0081REMSYN088AAXX  02004 83242 32495 11401 10252 20140 39657 40148 81100 333 10327 29052 55107 58008;EQDQ01  00002PRCP06
0198832420999992004100212004-12567-041383FM-12+042799999V0201401N002610042019N0040001N1+02251+01541101671ADDAA106000091GF108991081071004501999999KA1240N+01971MA1999999096741MD1999999+0021MW1151REMSYN082AAXX  02124 83242 31496 81405 10225 20154 39674 40167 715// 887// 333 20197 58002;EQDQ01  00002PRCP06
0167832420999992004100218004-12567-041383FM-12+042799999V0200501N003111050019N0100001N1+03001+01371100981ADDAA106000091GF105991011011004501051011MA1999999096121MD1999999-0101REMSYN070AAXX  02184 83242 32497 50506 10300 20137 39612 40098 81151 333 59010;EQDQ01  00002PRCP06
0208832420999992004100300004-12567-041383FM-12+042799999V0203601N000512200019N0020001N1+02311+01371101251ADDAA106000091GA1001+999999999GF100991001001999999001001KA1240M+03041MA1999999096361MD1999999-0211REMSYN082AAXX  03004 83242 32995 03601 10231 20137 39636 40125 333 10304 29053 55080 59021;EQDQ01  00002PRCP06
0186832420999992004100312004-12567-041383FM-12+042799999V0201401N001510042019N0040001N1+02531+01731101541ADDAA106000091GF107991061021004501081001KA1240N+02051MA1999999096641MD1999999-0101REMSYN076AAXX  03124 83242 32496 71403 10253 20173 39664 40154 86280 333 20205 59010;EQDQ01  00002PRCP06
0167832420999992004100318004-12570-041380FM-12+043999999V0201801N001511050019N0100001N1+03271+01391100801ADDAA106000091GF108991011011004501001071MA1999999095951MD1999999-0171REMSYN070AAXX  03184 83242 32497 81803 10327 20139 39595 40080 81107 333 59017;EQDQ01  00002PRCP06
0208832420999992004100400004-12570-041380FM-12+043999999V0200501N001512200019N0020001N1+02471+01431101111ADDAA106000091GA1001+999999999GF100991001001999999001001KA1240M+03301MA1999999096221MD1999999-0141REMSYN082AAXX  04004 83242 32995 00503 10247 20143 39622 40111 333 10330 29049 55100 59014;EQDQ01  00002PRCP06
0186832420999992004100412004-12567-041383FM-12+042799999V0201401N001010042019N0100001N1+02301+01721101501ADDAA106000091GF108991081071004501999999KA1240N+02071MA1999999096571MD1999999-0071REMSYN076AAXX  04124 83242 32497 81402 10230 20172 39657 40150 887// 333 20207 59007;EQDQ01  00002PRCP06
0179832420999992004100418004-12567-041383FM-12+042799999V0201801N001011050019N0040001N1+03191+01511100721ADDAA106000091GF108991011011004501001071MA1999999095881MD1999999-0071MW1051REMSYN076AAXX  04184 83242 31496 81802 10319 20151 39588 40072 705// 81107 333 59007;EQDQ01  00002PRCP06
0208832420999992004100500004-12567-041383FM-12+042799999V0200501N000512200019N0020001N1+02661+01591101221ADDAA106000091GA1001+999999999GF100991001001999999001001KA1240M+03301MA1999999096331MD1999999+0111REMSYN082AAXX  05004 83242 32995 00501 10266 20159 39633 40122 333 10330 29052 55078 58011;EQDQ01  00002PRCP06
0186832420999992004100512004-12567-041383FM-12+042799999V0201801N001510042019N0100001N1+02291+01811101541ADDAA106000091GF108991081071004501999999KA1240N+01911MA1999999096621MD1999999+0051REMSYN076AAXX  05124 83242 32497 81803 10229 20181 39662 40154 887// 333 20191 58005;EQDQ01  00002PRCP06
0167832420999992004100518004-12567-041383FM-12+042799999V0201801N001011050019N0100001N1+02921+01531100981ADDAA106000091GF105991021041004501031031MA1999999096091MD1999999+0211REMSYN070AAXX  05184 83242 32497 51802 10292 20153 39609 40098 82433 333 58021;EQDQ01  00002PRCP06
0208832420999992004100600004-12567-041383FM-12+042799999V0202301N000512200019N0020001N1+02561+01601101251ADDAA106000091GA1001+999999999GF100991001001999999001001KA1240M+03061MA1999999096341MD1999999+0011REMSYN082AAXX  06004 83242 32995 02301 10256 20160 39634 40125 333 10306 29057 55047 58001;EQDQ01  00002PRCP06
0186832420999992004100612004-12567-041383FM-12+042799999V0200901N000510042019N0100001N1+02371+01801101411ADDAA106000091GF108991081071004501999999KA1240N+02131MA1999999096501MD1999999-0121REMSYN076AAXX  06124 83242 32497 80901 10237 20180 39650 40141 887// 333 20213 59012;EQDQ01  00002PRCP06
0179832420999992004100618004-12567-041383FM-12+042799999V0201801N001010042019N0040001N1+03001+01491100931ADDAA106000091GF108991071061004501031001MA1999999096081MD1999999-0011MW1051REMSYN076AAXX  06184 83242 31496 81802 10300 20149 39608 40093 705// 87630 333 59001;EQDQ01  00002PRCP06
0202832420999992004100700004-12567-041383FM-12+042799999V0203601N000510042019N0020001N1+02411+01931101211ADDAY151061AY221061GF108991081071004501999999KA1240M+03001MA1999999096301MD1999999-0041MW1021REMSYN100AAXX  07004 83242 21495 83601 10241 20193 39630 40121 70252 887// 333 10300 29064 55032 59004 69911;
0190832420999992004100712004-12567-041383FM-12+042799999V0201801N001510042019N0040001N1+02201+02081101511ADDAY191061AY261061GF108991081071004501999999KA1240N+02091MA1999999096561MD1999999+0061MW1101REMSYN088AAXX  07124 83242 21496 81803 10220 20208 39656 40151 71096 887// 333 20209 58006 60024;
0167832420999992004100718004-12567-041383FM-12+042799999V0203601N001510450019N0100001N1+03021+01961100851ADDAA106000091GF105991041051004501031001MA1999999095981MD1999999-0101REMSYN070AAXX  07184 83242 32497 53603 10302 20196 39598 40085 84530 333 59010;EQDQ01  00002PRCP06
0198832420999992004100800004-12567-041383FM-12+042799999V0201801N000512200019N0020001N1+02591+01961101211ADDAA106000091GF104991041071004501001001KA1240M+03161MA1999999096301MD1999999+0001REMSYN088AAXX  08004 83242 32495 41801 10259 20196 39630 40121 84700 333 10316 29070 55037 58000;EQDQ01  00002PRCP06
0190832420999992004100812004-12567-041383FM-12+042799999V0200501N001510042019N0040001N1+02211+02141101501ADDAY151061AY221061GF108991081071004501999999KA1240N+02171MA1999999096571MD1999999+0011MW1501REMSYN088AAXX  08124 83242 21496 80503 10221 20214 39657 40150 75052 887// 333 20217 58001 69914;
0119832420999992004100818004-12567-041383FM-12+042799999V0201801N001519999999N0020001N1+99999+99999999999ADDGF108991999999004501999999REMSYN081AAXX  08184 83242 21495 81803 1241 20209 39632 40124 74052 887// 333 58034 69911;
0198832420999992004100900004-12567-041383FM-12+042799999V0201801N000510042019N0020001N1+02251+02071101551ADDAA106000091GF108991081071004501999999KA1240M+02601MA1999999096591MD1999999+0291REMSYN088AAXX  09004 83242 32495 81801 10225 20207 39659 40155 887// 333 10260 29089 55003 58029;EQDQ01  00002PRCP06
0190832420999992004100912004-12567-041383FM-12+042799999V0201801N001010042019N0100001N1+02131+02001101781ADDAY161061AY221061GF108991081071004501999999KA1240N+01991MA1999999096801MD1999999+0231MW1031REMSYN088AAXX  09124 83242 21497 81802 10213 20200 39680 40178 70362 887// 333 20199 58023 60024;
0167832420999992004100918004-12567-041383FM-12+042799999V0201801N000510042019N0100001N1+02731+01951101281ADDAA106000091GF108991081071004501999999MA1999999096351MD1999999+0051REMSYN070AAXX  09184 83242 32497 81801 10273 20195 39635 40128 887// 333 58005;EQDQ01  00002PRCP06
0198832420999992004101000004-12567-041383FM-12+042799999V0202701N001010042019N0020001N1+02371+02031101481ADDAA106000091GF106991061071004501001001KA1240M+02811MA1999999096521MD1999999-0071REMSYN088AAXX  10004 83242 32495 62702 10237 20203 39652 40148 86700 333 10281 29079 55013 59007;EQDQ01  00002PRCP06
0186832420999992004101012004-12567-041383FM-12+042799999V0201401N001510042019N0100001N1+02451+01921101701ADDAA106000091GF108991081071004501999999KA1240N+02091MA1999999096761MD1999999-0041REMSYN076AAXX  10124 83242 32497 81403 10245 20192 39676 40170 887// 333 20209 59004;EQDQ01  00002PRCP06
0167832420999992004101018004-12567-041383FM-12+042799999V0201401N001510450019N0100001N1+03171+01911101061ADDAA106000091GF105991041071004501031001MA1999999096211MD1999999-0211REMSYN070AAXX  10184 83242 32497 51403 10317 20191 39621 40106 84730 333 59021;EQDQ01  00002PRCP06
0208832420999992004101100004-12567-041383FM-12+042799999V0203601N000512200019N0020001N1+02451+01831101381ADDAA106000091GA1001+999999999GF100991001001999999001001KA1240M+03191MA1999999096471MD1999999-0051REMSYN082AAXX  11004 83242 32995 03601 10245 20183 39647 40138 333 10319 29064 55066 59005;EQDQ01  00002PRCP06
0190832420999992004101112004-12570-041380FM-12+043999999V0201401N000510042019N0100001N1+02251+01881101601ADDAY151061AY211061GF108991081071004501999999KA1240N+02071MA1999999096651MD1999999-0111MW1031REMSYN088AAXX  11124 83242 21497 81401 10225 20188 39665 40160 70351 887// 333 20207 59011 69954;
0167832420999992004101118004-12570-041380FM-12+043999999V0202301N002119999999N0100001N1+02961+01711100981ADDAA106000091GF108991011001012501011071MA1999999096121MD1999999-0091REMSYN070AAXX  11184 83242 32697 82304 10296 20171 39612 40098 81017 333 59009;EQDQ01  00002PRCP06
0208832420999992004101200004-12570-041380FM-12+043999999V0201801N001012200019N0020001N1+02471+01781101281ADDAA106000091GA1001+999999999GF100991001001999999001001KA1240M+03041MA1999999096351MD1999999-0071REMSYN082AAXX  12004 83242 32995 01802 10247 20178 39635 40128 333 10304 29064 55054 59007;EQDQ01  00002PRCP06
0179832420999992004101218004-12567-041383FM-12+042799999V0201401N003110450019N0040001N1+03311+01281100851ADDAA106000091GF108991041011004501061071MA1999999096041MD1999999-0081MW1041REMSYN076AAXX  12184 83242 31496 81406 10331 20128 39604 40085 704// 84167 333 59008;EQDQ01  00002PRCP06
0208832420999992004101300004-12567-041383FM-12+042799999V0201801N000512200019N0020001N1+02571+01581101281ADDAA106000091GA1001+999999999GF100991001001999999001001KA1240M+03361MA1999999096391MD1999999+0041REMSYN082AAXX  13004 83242 32995 01801 10257 20158 39639 40128 333 10336 29050 55088 58004;EQDQ01  00002PRCP06
0186832420999992004101312004-12567-041383FM-12+042799999V0200901N001510450019N0100001N1+02391+01551101681ADDAA106000091GF106991041051004501031001KA1240N+02051MA1999999096761MD1999999+0081REMSYN076AAXX  13124 83242 32497 60903 10239 20155 39676 40168 84530 333 20205 58008;EQDQ01  00002PRCP06
0167832420999992004101318004-12567-041383FM-12+042799999V0201401N002112200019N0100001N1+02951+01641100951ADDAA106000091GF104991041011004501001001MA1999999096101MD1999999-0061REMSYN070AAXX  13184 83242 32497 41404 10295 20164 39610 40095 84100 333 59006;EQDQ01  00002PRCP06
0208832420999992004101400004-12567-041383FM-12+042799999V0203201N000512200019N0020001N1+02371+01581101291ADDAA106000091GA1001+999999999GF100991001001999999001001KA1240M+03061MA1999999096371MD1999999-0021REMSYN082AAXX  14004 83242 32995 03201 10237 20158 39637 40129 333 10306 29056 55080 59002;EQDQ01  00002PRCP06
0186832420999992004101412004-12567-041383FM-12+042799999V0201401N002110042019N0100001N1+02291+01721101631ADDAA106000091GF106991051071004501031001KA1240N+01761MA1999999096681MD1999999-0081REMSYN076AAXX  14124 83242 32497 61404 10229 20172 39668 40163 85730 333 20176 59008;EQDQ01  00002PRCP06
0208832420999992004101500004-12567-041383FM-12+042799999V0200501N001012200019N0020001N1+02391+01321101171ADDAA106000091GA1001+999999999GF100991001001999999001001KA1240M+03281MA1999999096251MD1999999-0121REMSYN082AAXX  15004 83242 32995 00502 10239 20132 39625 40117 333 10328 29052 55079 59012;EQDQ01  00002PRCP06
0186832420999992004101512004-12567-041383FM-12+042799999V0201801N001510450019N0100001N1+02441+01811101551ADDAA106000091GF106991041071004501041001KA1240N+02171MA1999999096621MD1999999-0061REMSYN076AAXX  15124 83242 32497 61803 10244 20181 39662 40155 84740 333 20217 59006;EQDQ01  00002PRCP06
0167832420999992004101518004-12567-041383FM-12+042799999V0201401N002111050019N0100001N1+03251+01381100941ADDAA106000091GF108991031021004501001071MA1999999096111MD1999999+0071REMSYN070AAXX  15184 83242 32497 81404 10325 20138 39611 40094 83207 333 58007;EQDQ01  00002PRCP06
0198832420999992004101600004-12567-041383FM-12+042799999V0201401N003110042019N0020001N1+02531+01861101441ADDAA106000091GF108991081071004501999999KA1240M+03301MA1999999096541MD1999999+0291REMSYN088AAXX  16004 83242 32495 81406 10253 20186 39654 40144 887// 333 10330 29058 55084 58029;EQDQ01  00002PRCP06
0190832420999992004101612004-12570-041380FM-12+043999999V0202301N002110042019N0040001N1+02091+01981101701ADDAY161061AY221061GF108991081071004501999999KA1240N+01951MA1999999096751MD1999999+0131MW1501REMSYN088AAXX  16124 83242 21496 82304 10209 20198 39675 40170 75062 887// 333 20195 58013 60084;
0171832420999992004101618004-12570-041380FM-12+043999999V0201401N001511050019N0100001N1+02851+01781101091ADDAY161061AY221061GF105991031051004501001021MA1999999096211MD1999999+0101MW1021REMSYN082AAXX  16184 83242 21497 51403 10285 20178 39621 40109 70262 83502 333 58010 60011;
0198832420999992004101700004-12570-041380FM-12+043999999V0201401N002110042019N0020001N1+02341+01761101451ADDAA106000091GF108991081071004501999999KA1240M+02961MA1999999096481MD1999999+0061REMSYN088AAXX  17004 83242 32495 81404 10234 20176 39648 40145 887// 333 10296 29071 55040 58006;EQDQ01  00002PRCP06
0190832420999992004101712004-12570-041380FM-12+043999999V0200901N002610042019N0040001N1+02131+01951101621ADDAY161061AY221061GF108991081071004501999999KA1240N+01971MA1999999096651MD1999999+0101MW1631REMSYN088AAXX  17124 83242 21496 80905 10213 20195 39665 40162 76362 887// 333 20197 58010 60034;
0171832420999992004101718004-12570-041380FM-12+043999999V0201801N001512200019N0100001N1+02921+01641100961ADDAY151061AY221061GF104991041041004501001001MA1999999096091MD1999999-0121MW1011REMSYN082AAXX  17184 83242 21497 41803 10292 20164 39609 40096 70152 84400 333 59012 69911;
0208832420999992004101800004-12567-041383FM-12+042799999V0201401N001012200019N0020001N1+02291+01611101171ADDAA106000091GA1001+999999999GF100991001001999999001001KA1240M+02981MA1999999096221MD1999999-0261REMSYN082AAXX  18004 83242 32995 01402 10229 20161 39622 40117 333 10298 29066 55052 59026;EQDQ01  00002PRCP06
0162832420999992004101812004-12567-041383FM-12+042799999V0201801N002610042019N0100001N1+02361+01611101561ADDGF106991051071004501041001KA1240N+01791MA1999999096611MD1999999-0041REMSYN082AAXX  18124 83242 22497 61805 10236 20161 39661 40156 85740 333 20179 59004 69914;
0179832420999992004101818004-12567-041383FM-12+042799999V0201801N000511050019N0040001N1+03071+01561100861ADDAA106000091GF108991011011004501001071MA1999999095981MD1999999+0111MW1051REMSYN076AAXX  18184 83242 31496 81801 10307 20156 39598 40086 705// 81107 333 58011;EQDQ01  00002PRCP06
0208832420999992004101900004-12567-041383FM-12+042799999V0201401N001012200019N0020001N1+02531+01731101131ADDAA106000091GA1001+999999999GF100991001001999999001001KA1240M+03161MA1999999096231MD1999999+0011REMSYN082AAXX  19004 83242 32995 01402 10253 20173 39623 40113 333 10316 29056 55102 58001;EQDQ01  00002PRCP06
0167832420999992004101918004-12567-041383FM-12+042799999V0201801N002110450019N0100001N1+03001+01571100951ADDAA106000091GF108991031011004501021071MA1999999096101MD1999999+0121REMSYN070AAXX  19184 83242 32497 81804 10300 20157 39610 40095 83127 333 58012;EQDQ01  00002PRCP06
0208832420999992004102000004-12567-041383FM-12+042799999V0200901N001012200019N0020001N1+02511+01841101211ADDAA106000091GA1001+999999999GF100991001001999999001001KA1240M+03061MA1999999096311MD1999999+0081REMSYN082AAXX  20004 83242 32995 00902 10251 20184 39631 40121 333 10306 29060 55056 58008;EQDQ01  00002PRCP06
0186832420999992004102012004-12567-041383FM-12+042799999V0201801N001510042019N0100001N1+02351+01871101591ADDAA106000091GF108991081071004501999999KA1240N+02221MA1999999096571MD1999999-0071REMSYN076AAXX  20124 83242 32497 81803 10235 20187 39657 40159 887// 333 20222 59007;EQDQ01  00002PRCP06
0179832420999992004102018004-12567-041383FM-12+042799999V0201401N001511050019N0040001N1+03081+01851100901ADDAA106000091GF108991021011004501001071MA1999999096061MD1999999-0041MW1051REMSYN076AAXX  20184 83242 31496 81403 10308 20185 39606 40090 705// 82107 333 59004;EQDQ01  00002PRCP06
0208832420999992004102100004-12567-041383FM-12+042799999V0203601N000512200019N0020001N1+02431+01641101201ADDAA106000091GA1001+999999999GF100991001001999999001001KA1240M+03161MA1999999096291MD1999999-0021REMSYN082AAXX  21004 83242 32995 03601 10243 20164 39629 40120 333 10316 29061 55055 59002;EQDQ01  00002PRCP06
0186832420999992004102112004-12567-041383FM-12+042799999V0201401N001510450019N0100001N1+02491+01721101631ADDAA106000091GF106991041071004501031001KA1240N+02031MA1999999096711MD1999999+0141REMSYN076AAXX  21124 83242 32497 61403 10249 20172 39671 40163 84730 333 20203 58014;EQDQ01  00002PRCP06
0167832420999992004102118004-12567-041383FM-12+042799999V0201401N001511050019N0100001N1+03271+01961100961ADDAA106000091GF105991021041004501041061MA1999999096181MD1999999+0081REMSYN070AAXX  21184 83242 32497 51403 10327 20196 39618 40096 82446 333 58008;EQDQ01  00002PRCP06
0198832420999992004102200004-12567-041383FM-12+042799999V0201401N003610042019N0020001N1+02571+01851101411ADDAA106000091GF108991081071004501999999KA1240M+03291MA1999999096521MD1999999+0231REMSYN088AAXX  22004 83242 32495 81407 10257 20185 39652 40141 887// 333 10329 29059 55103 58023;EQDQ01  00002PRCP06
0190832420999992004102212004-12567-041383FM-12+042799999V0201801N001510042019N0100001N1+02041+01921101751ADDAY161061AY221061GF108991081071004501999999KA1240N+01931MA1999999096791MD1999999+0081MW1031REMSYN088AAXX  22124 83242 21497 81803 10204 20192 39679 40175 70362 887// 333 20193 58008 60134;
0171832420999992004102218004-12567-041383FM-12+042799999V0201401N001510042019N0040001N1+02611+01731101201ADDAY151061AY221061GF108991081071004501999999MA1999999096391MD1999999+0211MW1151REMSYN082AAXX  22184 83242 21496 81403 10261 20173 39639 40120 71552 887// 333 58021 69901;
0198832420999992004102300004-12567-041383FM-12+042799999V0201801N000510042019N0020001N1+02191+02031101631ADDAA106000091GF108991081071004501999999KA1240M+02641MA1999999096641MD1999999+0121REMSYN088AAXX  23004 83242 32495 81801 10219 20203 39664 40163 887// 333 10264 29083 55007 58012;EQDQ01  00002PRCP06
0190832420999992004102312004-12567-041383FM-12+042799999V0201801N001010042019N0040001N1+02051+02011101701ADDAY161061AY221061GF108991081071004501999999KA1240N+01951MA1999999096701MD1999999-0091MW1201REMSYN088AAXX  23124 83242 21496 81802 10205 20201 39670 40170 72062 887// 333 20195 59009 60034;
0171832420999992004102318004-12567-041383FM-12+042799999V0201401N000510042019N0040001N1+02591+01921101121ADDAY151061AY221061GF107991061071004501061001MA1999999096201MD1999999-0191MW1031REMSYN082AAXX  23184 83242 21496 71401 10259 20192 39620 40112 70352 86760 333 59019 69911;
0198832420999992004102400004-12567-041383FM-12+042799999V0201801N002610042019N0020001N1+02351+01911101441ADDAA106000091GF108991081071004501999999KA1240M+02691MA1999999096471MD1999999-0171REMSYN088AAXX  24004 83242 32495 81805 10235 20191 39647 40144 887// 333 10269 29078 55023 59017;EQDQ01  00002PRCP06
0190832420999992004102412004-12567-041383FM-12+042799999V0201801N001510042019N0100001N1+02251+01861101481ADDAY151061AY211061GF108991081071004501999999KA1240N+01851MA1999999096531MD1999999-0171MW1031REMSYN088AAXX  24124 83242 21497 81803 10225 20186 39653 40148 70351 887// 333 20185 59017 69934;
0167832420999992004102418004-12567-041383FM-12+042799999V0200901N001012200019N0100001N1+02921+01601100911ADDAA106000091GF104991031031004501031001MA1999999096031MD1999999-0171REMSYN070AAXX  24184 83242 32497 40902 10292 20160 39603 40091 83330 333 59017;EQDQ01  00002PRCP06
0208832420999992004102500004-12567-041383FM-12+042799999V0209999C000012200019N0020001N1+02341+01831101001ADDAA106000091GA1001+999999999GF100991001001999999001001KA1240M+03051MA1999999096081MD1999999-0391REMSYN082AAXX  25004 83242 32995 00000 10234 20183 39608 40100 333 10305 29067 55058 59039;EQDQ01  00002PRCP06
0190832420999992004102512004-12567-041383FM-12+042799999V0201801N001010042019N0100001N1+02241+01861101421ADDAY151061AY201061GF108991081071004501999999KA1240N+02011MA1999999096471MD1999999-0061MW1031REMSYN088AAXX  25124 83242 21497 81802 10224 20186 39647 40142 70350 887// 333 20201 59006 69934;
0167832420999992004102518004-12567-041383FM-12+042799999V0201401N002110450019N0100001N1+03021+01691100671ADDAA106000091GF108991011011004501041071MA1999999095821MD1999999-0211REMSYN070AAXX  25184 83242 32497 81404 10302 20169 39582 40067 81147 333 59021;EQDQ01  00002PRCP06
0208832420999992004102600004-12567-041383FM-12+042799999V0209999C000012200019N0020001N1+02491+01941100891ADDAA106000091GA1001+999999999GF100991001001999999001001KA1240M+03121MA1999999095981MD1999999-0101REMSYN082AAXX  26004 83242 32995 00000 10249 20194 39598 40089 333 10312 29067 55063 59010;EQDQ01  00002PRCP06
0190832420999992004102612004-12567-041383FM-12+042799999V0201801N002110042019N0100001N1+02411+02011101321ADDAY151061AY201061GF107991061071004501031001KA1240N+02191MA1999999096411MD1999999-0061MW1031REMSYN088AAXX  26124 83242 21497 71804 10241 20201 39641 40132 70350 86730 333 20219 59006 69924;
0198832420999992004102700004-12567-041383FM-12+042799999V0203201N001010210019N0020001N1+02421+01881101191ADDAA106000091GF107991051001022501031021KA1240M+03041MA1999999096281MD1999999+0301REMSYN088AAXX  27004 83242 32895 73202 10242 20188 39628 40119 85032 333 10304 29069 55034 58030;EQDQ01  00002PRCP06
0190832420999992004102712004-12567-041383FM-12+042799999V0202301N001010042019N0100001N1+02491+02001101451ADDAY151061AY221061GF107991061071004501061001KA1240N+02241MA1999999096541MD1999999+0131MW1031REMSYN088AAXX  27124 83242 21497 72302 10249 20200 39654 40145 70352 86760 333 20224 58013 69924;
0198832420999992004102800004-12567-041383FM-12+042799999V0202701N006210450019N0020001N1+02631+01901101241ADDAA106000091GF107991041071004501011001KA1240M+03261MA1999999096351MD1999999+0071REMSYN088AAXX  28004 83242 32495 72712 10263 20190 39635 40124 84710 333 10326 29062 55059 58007;EQDQ01  00002PRCP06
0190832420999992004102812004-12567-041383FM-12+042799999V0201801N001010042019N0020001N1+02231+02011101581ADDAY151061AY221061GF108991081071004501999999KA1240N+02221MA1999999096661MD1999999+0121MW1101REMSYN088AAXX  28124 83242 21495 81802 10223 20201 39666 40158 71052 887// 333 20222 58012 69924;
0167832420999992004102818004-12567-041383FM-12+042799999V0201801N000510042019N0100001N1+02761+01891101111ADDAA106000091GF106991051051004501031001MA1999999096241MD1999999+0281REMSYN070AAXX  28184 83242 32497 61801 10276 20189 39624 40111 85530 333 58028;EQDQ01  00002PRCP06
0198832420999992004102900004-12567-041383FM-12+042799999V0203601N000512200019N0020001N1+02351+01931101271ADDAA106000091GF101991001001999999001021KA1240M+02871MA1999999096331MD1999999-0021REMSYN088AAXX  29004 83242 32995 13601 10235 20193 39633 40127 80002 333 10287 29075 55021 59002;EQDQ01  00002PRCP06
0190832420999992004102912004-12567-041383FM-12+042799999V0201801N003110042019N0100001N1+02371+02031101611ADDAY161061AY201061GF108991081071004501999999KA1240N+02131MA1999999096661MD1999999+0001MW1031REMSYN088AAXX  29124 83242 21497 81806 10237 20203 39666 40161 70360 887// 333 20213 58000 60024;
0167832420999992004102918004-12567-041383FM-12+042799999V0201401N002610450019N0100001N1+03101+01841101071ADDAA106000091GF105991041051004501081001MA1999999096211MD1999999-0031REMSYN070AAXX  29184 83242 32497 51405 10310 20184 39621 40107 84580 333 59003;EQDQ01  00002PRCP06
0198832420999992004103000004-12567-041383FM-12+042799999V0201401N003110042019N0020001N1+02631+01771101411ADDAA106000091GF108991081071004501999999KA1240M+03121MA1999999096511MD1999999+0181REMSYN088AAXX  30004 83242 32495 81406 10263 20177 39651 40141 887// 333 10312 29062 55044 58018;EQDQ01  00002PRCP06
0171832420999992004103018004-12567-041383FM-12+042799999V0201801N001510042019N0100001N1+02801+01661101241ADDAY161061AY221061GF106991051061004501031001MA1999999096351MD1999999+0141MW1011REMSYN082AAXX  30184 83242 21497 61803 10280 20166 39635 40124 70162 85630 333 58014 60041;
0198832420999992004103100004-12570-041380FM-12+043999999V0200901N000510450019N0020001N1+02351+01971101451ADDAA106000091GF105991041071004501051001KA1240M+02921MA1999999096491MD1999999-0021REMSYN088AAXX  31004 83242 32495 50901 10235 20197 39649 40145 84750 333 10292 29071 55022 59002;EQDQ01  00002PRCP06
0162832420999992004103112004-12570-041380FM-12+043999999V0201401N001510042019N0100001N1+02471+01901101681ADDGF106991051071004501041001KA1240N+02011MA1999999096751MD1999999+0001REMSYN082AAXX  31124 83242 22497 61403 10247 20190 39675 40168 85740 333 20201 58000 60044;
0179832420999992004103118004-12570-041380FM-12+043999999V0201401N000512200019N0040001N1+03231+01841100981ADDAA106000091GF104991031031004501081001MA1999999096141MD1999999-0211MW1051REMSYN076AAXX  31184 83242 31496 41401 10323 20184 39614 40098 705// 83380 333 59021;EQDQ01  00002PRCP06
0208832420999992004110100004-12570-041380FM-12+043999999V0201801N001012200019N0020001N1+02431+01531101331ADDAA106000091GA1001+999999999GF100991001001999999001001KA1240M+03281MA1999999096421MD1999999-0071REMSYN082AAXX  01004 83242 32995 01802 10243 20153 39642 40133 333 10328 29057 55096 59007;EQDQ01  00002PRCP06
0186832420999992004110112004-12570-041380FM-12+043999999V0201801N002110042019N0100001N1+02451+01731101451ADDAA106000091GF108991081061004501999999KA1240N+02051MA1999999096541MD1999999-0211REMSYN076AAXX  01124 83242 32497 81804 10245 20173 39654 40145 886// 333 20205 59021;EQDQ01  00002PRCP06
0179832420999992004110118004-12570-041380FM-12+043999999V0201401N001510450019N0040001N1+03331+01751100851ADDAA106000091GF108991031031004501081071MA1999999096021MD1999999-0121MW1051REMSYN076AAXX  01184 83242 31496 81403 10333 20175 39602 40085 705// 83387 333 59012;EQDQ01  00002PRCP06
0208832420999992004110200004-12567-041383FM-12+042799999V0203601N001512200019N0020001N1+02591+01411101251ADDAA106000091GA1001+999999999GF100991001001999999001001KA1240M+03341MA1999999096351MD1999999-0171REMSYN082AAXX  02004 83242 32995 03603 10259 20141 39635 40125 333 10334 29050 55083 59017;EQDQ01  00002PRCP06
0190832420999992004110212004-12567-041383FM-12+042799999V0201401N001510042019N0040001N1+02291+01811101511ADDAY151061AY221061GF108991081071004501999999KA1240N+02031MA1999999096591MD1999999+0051MW1201REMSYN088AAXX  02124 83242 21496 81403 10229 20181 39659 40151 72052 887// 333 20203 58005 69904;
0148832420999992004110218004-12567-041383FM-12+042799999V0201801N001510450019N0100001N1+03211+01391100781ADDAA106000021GF106991021011004501051021MA1999999095931MD1999999-0091REMSYN070AAXX  02184 83242 32497 61803 10321 20139 39593 40078 82152 333 59009;
0208832420999992004110300004-12567-041383FM-12+042799999V0201801N003112200019N0020001N1+02511+01491101291ADDAA106000091GA1001+999999999GF100991001001999999001001KA1240M+03251MA1999999096361MD1999999+0011REMSYN082AAXX  03004 83242 32995 01806 10251 20149 39636 40129 333 10325 29053 55079 58001;EQDQ01  00002PRCP06
0186832420999992004110312004-12567-041383FM-12+042799999V0201401N002110042019N0100001N1+02591+01601101531ADDAA106000091GF105991051011004501001001KA1240N+02051MA1999999096631MD1999999+0041REMSYN076AAXX  03124 83242 32497 51404 10259 20160 39663 40153 85100 333 20205 58004;EQDQ01  00002PRCP06
0183832420999992004110318004-12567-041383FM-12+042799999V0201401N001512200019N0100001N1+03231+01801100662ADDAA106000091GF104991021041004501081011MA1999999095841MD1999999-0091REMSYN070AAXX  03184 83242 32497 41403 10323 20180 39584 40066 82481 333 59009;EQDQ01+100663APOSLPQ02  00002PRCP06
0208832420999992004110400004-12567-041383FM-12+042799999V0201401N000512200019N0020001N1+02521+01691101341ADDAA106000091GA1001+999999999GF100991001001999999001001KA1240M+03231MA1999999096451MD1999999+0091REMSYN082AAXX  04004 83242 32995 01401 10252 20169 39645 40134 333 10323 29054 55112 58009;EQDQ01  00002PRCP06
0186832420999992004110412004-12567-041383FM-12+042799999V0201801N003110042019N0100001N1+02351+01931101551ADDAA106000091GF107991061071004501031001KA1240N+02091MA1999999096631MD1999999+0001REMSYN076AAXX  04124 83242 32497 71806 10235 20193 39663 40155 86730 333 20209 58000;EQDQ01  00002PRCP06
0195832420999992004110418004-12567-041383FM-12+042799999V0201401N001010450019N0040001N1+03311+01821100712ADDAA106000091GF108991031041004501061071MA1999999095881MD1999999+0041MW1051REMSYN076AAXX  04184 83242 31496 81402 10331 20182 39588 40071 705// 83467 333 58004;EQDQ01+100713APOSLPQ02  00002PRCP06
0208832420999992004110500004-12567-041383FM-12+042799999V0201801N000512200019N0020001N1+02541+01511101241ADDAA106000091GA1001+999999999GF100991001001999999001001KA1240M+03311MA1999999096341MD1999999-0111REMSYN082AAXX  05004 83242 32995 01801 10254 20151 39634 40124 333 10331 29056 55062 59011;EQDQ01  00002PRCP06
0186832420999992004110512004-12567-041383FM-12+042799999V0201801N002110450019N0100001N1+02541+01731101561ADDAA106000091GF105991041071004501031001KA1240N+02171MA1999999096661MD1999999+0031REMSYN076AAXX  05124 83242 32497 51804 10254 20173 39666 40156 84730 333 20217 58003;EQDQ01  00002PRCP06
0179832420999992004110518004-12567-041383FM-12+042799999V0200901N002611050019N0040001N1+03411+01911100841ADDAA106000091GF108991011011004501001071MA1999999096011MD1999999+0131MW1051REMSYN076AAXX  05184 83242 31496 80905 10341 20191 39601 40084 705// 81107 333 58013;EQDQ01  00002PRCP06
0208832420999992004110600004-12567-041383FM-12+042799999V0202701N001512200019N0020001N1+02621+01671101251ADDAA106000091GA1001+999999999GF100991001001999999001001KA1240M+03421MA1999999096371MD1999999+0031REMSYN082AAXX  06004 83242 32995 02703 10262 20167 39637 40125 333 10342 29054 55097 58003;EQDQ01  00002PRCP06
0186832420999992004110612004-12567-041383FM-12+042799999V0201401N002110042019N0100001N1+02431+01751101491ADDAA106000091GF108991081071004501999999KA1240N+02191MA1999999096571MD1999999-0091REMSYN076AAXX  06124 83242 32497 81404 10243 20175 39657 40149 887// 333 20219 59009;EQDQ01  00002PRCP06
0167832420999992004110618004-12567-041383FM-12+042799999V0201801N001510450019N0100001N1+03191+01591100851ADDAA106000091GF106991041041004501021061MA1999999096011MD1999999+0001REMSYN070AAXX  06184 83242 32497 61803 10319 20159 39601 40085 84426 333 58000;EQDQ01  00002PRCP06
0208832420999992004110700004-12567-041383FM-12+042799999V0203601N001012200019N0020001N1+02631+01421101011ADDAA106000091GA1001+999999999GF100991001001999999001001KA1240M+03361MA1999999096141MD1999999-0231REMSYN082AAXX  07004 83242 32995 03602 10263 20142 39614 40101 333 10336 29052 55066 59023;EQDQ01  00002PRCP06
0190832420999992004110712004-12567-041383FM-12+042799999V0201401N001510042019N0040001N1+02431+01951101421ADDAY151061AY201061GF108991081071004501999999KA1240N+02241MA1999999096531MD1999999-0041MW1151REMSYN088AAXX  07124 83242 21496 81403 10243 20195 39653 40142 71550 887// 333 20224 59004 69904;
0179832420999992004110718004-12567-041383FM-12+042799999V0201401N001510450019N0040001N1+03371+02021100731ADDAA106000091GF105991041061004501081001MA1999999095931MD1999999-0081MW1151REMSYN076AAXX  07184 83242 31496 51403 10337 20202 39593 40073 715// 84680 333 59008;EQDQ01  00002PRCP06
0208832420999992004110800004-12570-041380FM-12+043999999V0201401N000512200019N0020001N1+02731+01781101181ADDAA106000091GA1001+999999999GF100991001001999999001001KA1240M+03381MA1999999096311MD1999999+0171REMSYN082AAXX  08004 83242 32995 01401 10273 20178 39631 40118 333 10338 29058 55068 58017;EQDQ01  00002PRCP06
0190832420999992004110812004-12570-041380FM-12+043999999V0200901N002110042019N0100001N1+02401+02031101491ADDAY161061AY251061GF107991061071004501031001KA1240N+02191MA1999999096591MD1999999-0061MW1031REMSYN088AAXX  08124 83242 21497 70904 10240 20203 39659 40149 70365 86730 333 20219 59006 60014;
0179832420999992004110818004-12570-041380FM-12+043999999V0200501N001511050019N0040001N1+03371+01951100901ADDAA106000091GF108991041051004501001071MA1999999096071MD1999999+0141MW1051REMSYN076AAXX  08184 83242 31496 80503 10337 20195 39607 40090 705// 84507 333 58014;EQDQ01  00002PRCP06
0208832420999992004110900004-12567-041383FM-12+042799999V0200901N003112200019N0020001N1+02631+01661101341ADDAA106000091GA1001+999999999GF100991001001999999001001KA1240M+03401MA1999999096441MD1999999+0131REMSYN082AAXX  09004 83242 32995 00906 10263 20166 39644 40134 333 10340 29058 55073 58013;EQDQ01  00002PRCP06
0186832420999992004110912004-12567-041383FM-12+042799999V0201401N003110450019N0100001N1+02671+01641101571ADDAA106000091GF106991041041004501031001KA1240N+02091MA1999999096691MD1999999+0101REMSYN076AAXX  09124 83242 32497 61406 10267 20164 39669 40157 84430 333 20209 58010;EQDQ01  00002PRCP06
0167832420999992004110918004-12567-041383FM-12+042799999V0201401N001510450019N0100001N1+03291+01681100921ADDAA106000091GF105991021041004501081001MA1999999096081MD1999999+0011REMSYN070AAXX  09184 83242 32497 51403 10329 20168 39608 40092 82480 333 58001;EQDQ01  00002PRCP06
0198832420999992004111000004-12567-041383FM-12+042799999V0200501N002112200019N0020001N1+02631+01541101331ADDAA106000091GF104991041061004501001001KA1240M+03321MA1999999096461MD1999999+0021REMSYN088AAXX  10004 83242 32495 40504 10263 20154 39646 40133 84600 333 10332 29048 55100 58002;EQDQ01  00002PRCP06
0186832420999992004111012004-12567-041383FM-12+042799999V0201401N003110450019N0100001N1+02481+01691101601ADDAA106000091GF106991041031004501081001KA1240N+01911MA1999999096701MD1999999+0011REMSYN076AAXX  10124 83242 32497 61406 10248 20169 39670 40160 84380 333 20191 58001;EQDQ01  00002PRCP06
0167832420999992004111018004-12567-041383FM-12+042799999V0200901N002110042019N0100001N1+03021+01351100971ADDAA106000091GF106991051031004501001011MA1999999096081MD1999999+0001REMSYN070AAXX  10184 83242 32497 60904 10302 20135 39608 40097 85301 333 58000;EQDQ01  00002PRCP06
0208832420999992004111100004-12567-041383FM-12+042799999V0202701N000512200019N0020001N1+02551+01501101261ADDAA106000091GA1001+999999999GF100991001001999999001001KA1240M+03201MA1999999095361MD1999999-0101REMSYN082AAXX  11004 83242 32995 02701 10255 20150 39536 40126 333 10320 29050 55093 59010;EQDQ01  00002PRCP06
0186832420999992004111112004-12567-041383FM-12+042799999V0200501N001510450019N0100001N1+02391+01751101401ADDAA106000091GF106991041051004501031001KA1240N+02031MA1999999096491MD1999999-0211REMSYN076AAXX  11124 83242 32497 60503 10239 20175 39649 40140 84530 333 20203 59021;EQDQ01  00002PRCP06
0208832420999992004111200004-12567-041383FM-12+042799999V0201401N001512200019N0020001N1+02651+01561100891ADDAA106000091GA1001+999999999GF100991001001999999001001KA1240M+03431MA1999999096011MD1999999-0351REMSYN082AAXX  12004 83242 32995 01403 10265 20156 39601 40089 333 10343 29050 55093 59035;EQDQ01  00002PRCP06
0186832420999992004111212004-12567-041383FM-12+042799999V0201401N001510042019N0040001N1+02511+01841101181ADDAA106000091GF108991081071004501999999KA1240N+02171MA1999999096311MD1999999-0181REMSYN076AAXX  12124 83242 32496 81403 10251 20184 39631 40118 887// 333 20217 59018;EQDQ01  00002PRCP06
0167832420999992004111218004-12570-041380FM-12+043999999V0202301N002611050019N0100001N1+03511+01651100421ADDAA106000091GF108991021031004501001071MA1999999095641MD1999999-0171REMSYN070AAXX  12184 83242 32497 82305 10351 20165 39564 40042 82307 333 59017;EQDQ01  00002PRCP06
0208832420999992004111300004-12570-041380FM-12+043999999V0200901N000512200019N0020001N1+02821+01651100811ADDAA106000091GA1001+999999999GF100991001001999999001001KA1240M+03581MA1999999095961MD1999999-0051REMSYN082AAXX  13004 83242 32995 00901 10282 20165 39596 40081 333 10358 29049 55093 59005;EQDQ01  00002PRCP06
0186832420999992004111312004-12570-041380FM-12+043999999V0201801N001510210019N0040001N1+02651+01921101031ADDAA106000091GF107991071001022501031001KA1240N+02151MA1999999096191MD1999999-0121REMSYN076AAXX  13124 83242 32896 71803 10265 20192 39619 40103 87030 333 20215 59012;EQDQ01  00002PRCP06
0167832420999992004111318004-12570-041380FM-12+043999999V0201401N002610450019N0100001N1+03751+01421100361ADDAA106000091GF106991031011004501031091MA1999999095611MD1999999-0031REMSYN070AAXX  13184 83242 32497 61405 10375 20142 39561 40036 83139 333 59003;EQDQ01  00002PRCP06
0208832420999992004111400004-12567-041383FM-12+042799999V0201801N001012200019N0020001N1+02831+01461100861ADDAA106000091GA1001+999999999GF100991001001999999001001KA1240M+03781MA1999999096031MD1999999+0071REMSYN082AAXX  14004 83242 32995 01802 10283 20146 39603 40086 333 10378 29044 55075 58007;EQDQ01  00002PRCP06
0186832420999992004111412004-12567-041383FM-12+042799999V0201401N003110042019N0040001N1+02721+01851101241ADDAA106000091GF107991051071004501051091KA1240N+02341MA1999999096411MD1999999+0221REMSYN076AAXX  14124 83242 32496 71406 10272 20185 39641 40124 85759 333 20234 58022;EQDQ01  00002PRCP06
0167832420999992004111418004-12567-041383FM-12+042799999V0200901N003110450019N0100001N1+03401+01411100831ADDAA106000091GF107991041031004501021011MA1999999096041MD1999999+0431REMSYN070AAXX  14184 83242 32497 70906 10340 20141 39604 40083 84321 333 58043;EQDQ01  00002PRCP06
0198832420999992004111500004-12567-041383FM-12+042799999V0200901N002110042019N0020001N1+02751+01801101241ADDAA106000091GF107991071041004501001001KA1240M+03481MA1999999096391MD1999999+0361REMSYN088AAXX  15004 83242 32495 70904 10275 20180 39639 40124 87400 333 10348 29050 55090 58036;EQDQ01  00002PRCP06
0186832420999992004111512004-12567-041383FM-12+042799999V0201401N002610042019N0040001N1+02631+01801101421ADDAA106000091GF107991071071004501001001KA1240N+02221MA1999999096551MD1999999+0141REMSYN076AAXX  15124 83242 32496 71405 10263 20180 39655 40142 87700 333 20222 58014;EQDQ01  00002PRCP06
0167832420999992004111518004-12567-041383FM-12+042799999V0200901N004111050019N0100001N1+03371+01431100751ADDAA106000091GF106991041011004501001021MA1999999095941MD1999999-0101REMSYN070AAXX  15184 83242 32497 60908 10337 20143 39594 40075 84102 333 59010;EQDQ01  00002PRCP06
0198832420999992004111600004-12567-041383FM-12+042799999V0201401N003110042019N0020001N1+02731+01841101261ADDAA106000091GF107991071051004501001001KA1240M+03401MA1999999096401MD1999999+0011REMSYN088AAXX  16004 83242 32495 71406 10273 20184 39640 40126 87500 333 10340 29052 55098 58001;EQDQ01  00002PRCP06
0186832420999992004111612004-12567-041383FM-12+042799999V0201401N002110042019N0100001N1+02561+01751101571ADDAA106000091GF106991051051004501031001KA1240N+02221MA1999999096691MD1999999+0141REMSYN076AAXX  16124 83242 32497 61404 10256 20175 39669 40157 85530 333 20222 58014;EQDQ01  00002PRCP06
0167832420999992004111618004-12567-041383FM-12+042799999V0200901N001510042019N0100001N1+03411+01471100991ADDAA106000091GF108991051021004501041071MA1999999096201MD1999999+0261REMSYN070AAXX  16184 83242 32497 80903 10341 20147 39620 40099 85247 333 58026;EQDQ01  00002PRCP06
0208832420999992004111700004-12567-041383FM-12+042799999V0209999C000012200019N0020001N1+02691+01631101171ADDAA106000091GA1001+999999999GF100991001001999999001001KA1240M+03431MA1999999096301MD1999999-0101REMSYN082AAXX  17004 83242 32995 00000 10269 20163 39630 40117 333 10343 29049 55104 59010;EQDQ01  00002PRCP06
0186832420999992004111712004-12567-041383FM-12+042799999V0200501N001010042019N0100001N1+02531+01781101551ADDAA106000091GF107991071071004501001001KA1240N+02301MA1999999096661MD1999999-0031REMSYN076AAXX  17124 83242 32497 70502 10253 20178 39666 40155 87700 333 20230 59003;EQDQ01  00002PRCP06
0167832420999992004111718004-12567-041383FM-12+042799999V0201401N001012200019N0100001N1+03311+01381100921ADDAA106000091GF105991031011004501001061MA1999999096101MD1999999-0101REMSYN070AAXX  17184 83242 32497 51402 10331 20138 39610 40092 83106 333 59010;EQDQ01  00002PRCP06
0208832420999992004111800004-12567-041383FM-12+042799999V0201801N001012200019N0020001N1+02571+01401101201ADDAA106000091GA1001+999999999GF100991001001999999001001KA1240M+03401MA1999999096321MD1999999+0021REMSYN082AAXX  18004 83242 32995 01802 10257 20140 39632 40120 333 10340 29048 55070 58002;EQDQ01  00002PRCP06
0186832420999992004111812004-12567-041383FM-12+042799999V0200901N001010450019N0040001N1+02711+01771101311ADDAA106000091GF108991011011004501051071KA1240N+02151MA1999999096441MD1999999-0221REMSYN076AAXX  18124 83242 32496 80902 10271 20177 39644 40131 81157 333 20215 59022;EQDQ01  00002PRCP06
0167832420999992004111818004-12567-041383FM-12+042799999V0201401N002612200019N0100001N1+03671+01411100541ADDAA106000091GF102991011031004501051001MA1999999095771MD1999999-0331REMSYN070AAXX  18184 83242 32497 21405 10367 20141 39577 40054 81350 333 59033;EQDQ01  00002PRCP06
0198832420999992004111900004-12567-041383FM-12+042799999V0200501N002612200019N0020001N1+02831+01571100941ADDAA106000091GF104991011041004501081001KA1240M+03671MA1999999096111MD1999999-0211REMSYN088AAXX  19004 83242 32495 40505 10283 20157 39611 40094 81480 333 10367 29044 55116 59021;EQDQ01  00002PRCP06
0186832420999992004111912004-12567-041383FM-12+042799999V0200501N001510042019N0040001N1+02751+01991101111ADDAA106000091GF108991051041004501051071KA1240N+02361MA1999999096281MD1999999-0161REMSYN076AAXX  19124 83242 32496 80503 10275 20199 39628 40111 85457 333 20236 59016;EQDQ01  00002PRCP06
0183832420999992004111918004-12567-041383FM-12+042799999V0203201N003111050019N0100001N1+03811+01531100302ADDAA106000091GF108991041071004501001071MA1999999095581MD1999999-0191REMSYN070AAXX  19184 83242 32497 83206 10381 20153 39558 40030 84707 333 59019;EQDQ01+100303APOSLPQ02  00002PRCP06
0202832420999992004112100004-12570-041380FM-12+043999999V0202701N004110042019N0010001N1+02451+02111100881ADDAY191061AY221061GF108991081071004501999999KA1240M+03281MA1999999096001MD1999999+0101MW1291REMSYN100AAXX  21004 83242 21494 82708 10245 20211 39600 40088 72992 887// 333 10328 29070 55027 58010 60081;
0190832420999992004112112004-12570-041380FM-12+043999999V0201401N001510042019N0020001N1+02351+02221101311ADDAY161061AY241061GF108991081071004501999999KA1240N+02171MA1999999096391MD1999999+0121MW1501REMSYN088AAXX  21124 83242 21495 81403 10235 20222 39639 40131 75064 887// 333 20217 58012 60614;
0190832420999992004112118004-12570-041380FM-12+043999999V0201801N001519999999N0100001N1+02711+02101100871ADDAY151061AY221061GF107991999071004501051001MA1999999095981MD1999999+0271MW1021REMSYN082AAXX  21184 83242 21497 71803 10271 20210 39598 40087 70252 88750 333 58027 69911;EQDQ01+000082SCOTLC
0202832420999992004112200004-12567-041383FM-12+042799999V0203201N005110042019N0010001N1+02131+01911101361ADDAY191061AY261061GF108991081071004501999999KA1240M+02801MA1999999096411MD1999999+0411MW1601REMSYN100AAXX  22004 83242 21494 83210 10213 20191 39641 40136 76096 887// 333 10280 29084 55017 58041 60441;
0190832420999992004112212004-12567-041383FM-12+042799999V0201401N000510042019N0040001N1+02161+02021101511ADDAY161061AY241061GF108991081071004501999999KA1240N+01991MA1999999096531MD1999999+0141MW1021REMSYN088AAXX  22124 83242 21496 81401 10216 20202 39653 40151 70264 887// 333 20199 58014 60474;
0167832420999992004112218004-12567-041383FM-12+042799999V0201401N003110042019N0100001N1+02791+02081100921ADDAA106000091GF107991051071004501021031MA1999999096011MD1999999+0031REMSYN070AAXX  22184 83242 32497 71406 10279 20208 39601 40092 85723 333 58003;EQDQ01  00002PRCP06
0202832420999992004112300004-12567-041383FM-12+042799999V0201801N001010042019N0010001N1+02331+02171101291ADDAY151061AY221061GF108991081071004501999999KA1240M+02871MA1999999096341MD1999999-0071MW1631REMSYN100AAXX  23004 83242 21494 81802 10233 20217 39634 40129 76352 887// 333 10287 29084 55015 59007 60031;
0190832420999992004112312004-12567-041383FM-12+042799999V0201801N001510042019N0040001N1+02091+01981101571ADDAY161061AY221061GF108991081071004501999999KA1240N+01991MA1999999096601MD1999999+0071MW1161REMSYN088AAXX  23124 83242 21496 81803 10209 20198 39660 40157 71662 887// 333 20199 58007 61404;
0171832420999992004112318004-12567-041383FM-12+042799999V0200501N000510042019N0040001N1+02501+01911101191ADDAY151061AY221061GF108991081071004501999999MA1999999096251MD1999999+0241MW1151REMSYN082AAXX  23184 83242 21496 80501 10250 20191 39625 40119 71552 887// 333 58024 69921;
0202832420999992004112400004-12567-041383FM-12+042799999V0201801N001510042019N0010001N1+02181+02111101521ADDAY151061AY221061GF108991081071004501999999KA1240M+02571MA1999999096541MD1999999+0201MW1611REMSYN100AAXX  24004 83242 21494 81803 10218 20211 39654 40152 76152 887// 333 10257 29089 55000 58020 60011;
0190832420999992004112412004-12567-041383FM-12+042799999V0201801N002610042019N0020001N1+01981+01981101651ADDAY161061AY221061GF108991081071004501999999KA1240N+01971MA1999999096651MD1999999+0051MW1511REMSYN088AAXX  24124 83242 21495 81805 10198 20198 39665 40165 75162 887// 333 20197 58005 60244;
0171832420999992004112418004-12567-041383FM-12+042799999V0201801N001510042019N0040001N1+02171+01971101421ADDAY161061AY221061GF108991081071004501999999MA1999999096441MD1999999+0191MW1151REMSYN082AAXX  24184 83242 21496 81803 10217 20197 39644 40142 71562 887// 333 58019 60011;
0198832420999992004112500004-12567-041383FM-12+042799999V0201801N001510042019N0020001N1+02101+01981101611ADDAA106000091GF108991081071004501999999KA1240M+02201MA1999999096611MD1999999+0071REMSYN088AAXX  25004 83242 32495 81803 10210 20198 39661 40161 887// 333 10220 29094 55000 58007;EQDQ01  00002PRCP06
0190832420999992004112512004-12567-041383FM-12+042799999V0201801N002610042019N0020001N1+01961+01931101691ADDAY161061AY241061GF108991081071004501999999KA1240N+01931MA1999999096681MD1999999+0031MW1511REMSYN088AAXX  25124 83242 21495 81805 10196 20193 39668 40169 75164 887// 333 20193 58003 60154;
0171832420999992004112518004-12567-041383FM-12+042799999V0201401N001510042019N0040001N1+02731+01641101131ADDAY151061AY221061GF106991051071004501031001MA1999999096191MD1999999+0251MW1151REMSYN082AAXX  25184 83242 21496 61403 10273 20164 39619 40113 71552 85730 333 58025 69921;
0202832420999992004112600004-12567-041383FM-12+042799999V0209999C000010042019N0020001N1+02371+02051101271ADDAY151061AY221061GF108991081071004501999999KA1240M+02781MA1999999096301MD1999999-0311MW1031REMSYN100AAXX  26004 83242 21495 80000 10237 20205 39630 40127 70352 887// 333 10278 29077 55022 59031 69901;
0167832420999992004112618004-12567-041383FM-12+042799999V0201801N001010450019N0100001N1+02881+01911100901ADDAA106000091GF106991041071004501031001MA1999999096011MD1999999-0181REMSYN070AAXX  26184 83242 32497 61802 10288 20191 39601 40090 84730 333 59018;EQDQ01  00002PRCP06
0198832420999992004112700004-12567-041383FM-12+042799999V0209999C000010042019N0020001N1+02431+02071101171ADDAA106000091GF108991081071004501999999KA1240M+02991MA1999999096251MD1999999-0051REMSYN088AAXX  27004 83242 32495 80000 10243 20207 39625 40117 887// 333 10299 29076 55038 59005;EQDQ01  00002PRCP06
0190832420999992004112712004-12567-041383FM-12+042799999V0201401N001010042019N0100001N1+02461+01921101321ADDAY151061AY221061GF108991081071004501999999KA1240N+02141MA1999999096411MD1999999+0041MW1031REMSYN088AAXX  27124 83242 21497 81402 10246 20192 39641 40132 70352 887// 333 20214 58004 69924;
0167832420999992004112718004-12567-041383FM-12+042799999V0201801N002110450019N0100001N1+02791+02031100801ADDAA106000091GF105991031051004501031041MA1999999096011MD1999999+0001REMSYN070AAXX  27184 83242 32497 51804 10279 20203 39601 40080 83534 333 58000;EQDQ01  00002PRCP06
0208832420999992004112800004-12567-041383FM-12+042799999V0201401N001012200019N0020001N1+02371+02011101111ADDAA106000091GA1001+999999999GF100991001001999999001001KA1240M+02941MA1999999096201MD1999999-0051REMSYN082AAXX  28004 83242 32495 01402 10237 20201 39620 40111 333 10294 29074 55041 59005;EQDQ01  00002PRCP06
0186832420999992004112812004-12567-041383FM-12+042799999V0202701N000510042019N0100001N1+02351+01991101311ADDAA106000091GF108991081071004501999999KA1240N+02191MA1999999096381MD1999999-0031REMSYN076AAXX  28124 83242 32497 82701 10235 20199 39638 40131 887// 333 20219 59003;EQDQ01  00002PRCP06
0167832420999992004112818004-12567-041383FM-12+042799999V0201401N001510450019N0100001N1+02921+01641100731ADDAA106000091GF106991041061004501071051MA1999999095941MD1999999-0131REMSYN070AAXX  28184 83242 32497 61403 10292 20164 39594 40073 84675 333 59013;EQDQ01  00002PRCP06
0198832420999992004112900004-12567-041383FM-12+042799999V0202701N001010042019N0020001N1+02631+02031100981ADDAA106000091GF108991081071004501999999KA1240M+03021MA1999999096101MD1999999-0101REMSYN088AAXX  29004 83242 32495 82702 10263 20203 39610 40098 887// 333 10302 29067 55030 59010;EQDQ01  00002PRCP06
0179832420999992004113018004-12567-041383FM-12+042799999V0203601N000510450019N0040001N1+03171+01981100701ADDAA106000091GF108991041061004501031071MA1999999095861MD1999999+0141MW1051REMSYN076AAXX  30184 83242 31496 83601 10317 20198 39586 40070 705// 84637 333 58014;EQDQ01  00002PRCP06
0202832420999992004120100004-12567-041383FM-12+042799999V0203601N001510042019N0020001N1+02371+02151101151ADDAY191061AY251061GF108991081071004501999999KA1240M+03221MA1999999096231MD1999999+0111MW1131REMSYN100AAXX  01004 83242 21495 83603 10237 20215 39623 40115 71395 887// 333 10322 29080 55046 58011 69901;
0190832420999992004120112004-12567-041383FM-12+042799999V0201401N000510042019N0040001N1+02451+02211101271ADDAY151061AY221061GF108991081071004501999999KA1240N+02221MA1999999096351MD1999999+0011MW1101REMSYN088AAXX  01124 83242 21496 81401 10245 20221 39635 40127 71052 887// 333 20222 58001 69904;
0210832420999992004120200004-12567-041383FM-12+042799999V0201801N000510042019N0020001N1+02371+02091101171ADDAA106000091GF107991071071004501001001KA1240M+02901MA1999999096271MD1999999+0041MW1131REMSYN094AAXX  02004 83242 31495 71801 10237 20209 39627 40117 713// 87700 333 10290 29076 55049 58004;EQDQ01  00002PRCP06
0186832420999992004120212004-12567-041383FM-12+042799999V0201801N001510042019N0100001N1+02551+01951101361ADDAA106000091GF107991051071004501061021KA1240N+02191MA1999999096451MD1999999+0101REMSYN076AAXX  02124 83242 32497 71803 10255 20195 39645 40136 85762 333 20219 58010;EQDQ01  00002PRCP06
0179832420999992004120218004-12567-041383FM-12+042799999V0201801N001510450019N0040001N1+03171+01941100861ADDAA106000091GF108991031041004501071051MA1999999096021MD1999999+0011MW1051REMSYN076AAXX  02184 83242 31496 81803 10317 20194 39602 40086 705// 83475 333 58001;EQDQ01  00002PRCP06
0208832420999992004120300004-12567-041383FM-12+042799999V0202701N000512200019N0020001N1+02391+01751101221ADDAA106000091GA1001+999999999GF100991001001999999001001KA1240M+03181MA1999999096321MD1999999+0051REMSYN082AAXX  03004 83242 32995 02701 10239 20175 39632 40122 333 10318 29063 55067 58005;EQDQ01  00002PRCP06
0190832420999992004120312004-12567-041383FM-12+042799999V0201801N001010042019N0100001N1+02371+02031101511ADDAY151061AY201061GF107991071071004501001001KA1240N+02171MA1999999096581MD1999999+0131MW1031REMSYN088AAXX  03124 83242 21497 71802 10237 20203 39658 40151 70350 87700 333 20217 58013 69924;
0167832420999992004120318004-12567-041383FM-12+042799999V0201801N001510450019N0100001N1+03001+01881100961ADDAA106000091GF105991031041004501061061MA1999999096101MD1999999+0081REMSYN070AAXX  03184 83242 32497 51803 10300 20188 39610 40096 83466 333 58008;EQDQ01  00002PRCP06
0208832420999992004120400004-12567-041383FM-12+042799999V0201801N001512200019N0020001N1+02371+01731101301ADDAA106000091GA1001+999999999GF100991001001999999001001KA1240M+03141MA1999999096371MD1999999+0051REMSYN082AAXX  04004 83242 32995 01803 10237 20173 39637 40130 333 10314 29066 55085 58005;EQDQ01  00002PRCP06
0186832420999992004120412004-12567-041383FM-12+042799999V0201801N001510042019N0100001N1+02411+01931101751ADDAA106000091GF108991081071004501999999KA1240N+02171MA1999999096811MD1999999+0221REMSYN076AAXX  04124 83242 32497 81803 10241 20193 39681 40175 887// 333 20217 58022;EQDQ01  00002PRCP06
0179832420999992004120418004-12567-041383FM-12+042799999V0201401N001510450019N0040001N1+03131+01661101111ADDAA106000091GF108991031041004501031071MA1999999096241MD1999999+0141MW1051REMSYN076AAXX  04184 83242 31496 81403 10313 20166 39624 40111 705// 83437 333 58014;EQDQ01  00002PRCP06
0208832420999992004120500004-12567-041383FM-12+042799999V0209999C000012200019N0020001N1+02451+01761101431ADDAA106000091GA1001+999999999GF100991001001999999001001KA1240M+03161MA1999999096471MD1999999+0101REMSYN082AAXX  05004 83242 32995 00000 10245 20176 39647 40143 333 10316 29061 55081 58010;EQDQ01  00002PRCP06
0186832420999992004120512004-12567-041383FM-12+042799999V0200501N002110042019N0100001N1+02581+01821101591ADDAA106000091GF106991051051004501061011KA1240N+02151MA1999999096681MD1999999-0131REMSYN076AAXX  05124 83242 32497 60504 10258 20182 39668 40159 85561 333 20215 59013;EQDQ01  00002PRCP06
0167832420999992004120518004-12567-041383FM-12+042799999V0201401N001512200019N0100001N1+03131+01691100961ADDAA106000091GF104991031031004501051001MA1999999096121MD1999999-0121REMSYN070AAXX  05184 83242 32497 41403 10313 20169 39612 40096 83350 333 59012;EQDQ01  00002PRCP06
0208832420999992004120600004-12570-041380FM-12+043999999V0203601N001012200019N0020001N1+02491+01671101171ADDAA106000091GA1001+999999999GF100991001001999999001001KA1240M+03141MA1999999096291MD1999999-0221REMSYN082AAXX  06004 83242 32995 03602 10249 20167 39629 40117 333 10314 29056 55109 59022;EQDQ01  00002PRCP06
0186832420999992004120612004-12570-041380FM-12+043999999V0201401N002110450019N0100001N1+02501+01871101411ADDAA106000091GF106991041051004501031001KA1240N+02151MA1999999096511MD1999999-0171REMSYN076AAXX  06124 83242 32497 61404 10250 20187 39651 40141 84530 333 20215 59017;EQDQ01  00002PRCP06
0179832420999992004120618004-12570-041380FM-12+043999999V0201401N001511050019N0040001N1+03131+01661100711ADDAA106000091GF108991021011004501001071MA1999999095861MD1999999-0261MW1051REMSYN076AAXX  06184 83242 31496 81403 10313 20166 39586 40071 705// 82107 333 59026;EQDQ01  00002PRCP06
0208832420999992004120700004-12567-041383FM-12+042799999V0202701N000512200019N0020001N1+02481+01731101091ADDAA106000091GA1001+999999999GF100991001001999999001001KA1240M+03201MA1999999096201MD1999999-0091REMSYN082AAXX  07004 83242 32995 02701 10248 20173 39620 40109 333 10320 29059 55103 59009;EQDQ01  00002PRCP06
0186832420999992004120712004-12567-041383FM-12+042799999V0200501N001510450019N0100001N1+02411+01841101481ADDAA106000091GF106991041061004501061001KA1240N+01931MA1999999096561MD1999999+0051REMSYN076AAXX  07124 83242 32497 60503 10241 20184 39656 40148 84660 333 20193 58005;EQDQ01  00002PRCP06
0179832420999992004120718004-12567-041383FM-12+042799999V0201401N001511050019N0040001N1+03141+01621100861ADDAA106000091GF108991031011004501001071MA1999999095991MD1999999+0131MW1051REMSYN076AAXX  07184 83242 31496 81403 10314 20162 39599 40086 705// 83107 333 58013;EQDQ01  00002PRCP06
0198832420999992004120800004-12567-041383FM-12+042799999V0200901N000510042019N0020001N1+02611+01881101061ADDAA106000091GF105991051051004501001001KA1240M+03221MA1999999096171MD1999999-0031REMSYN088AAXX  08004 83242 32495 50901 10261 20188 39617 40106 85500 333 10322 29060 55089 59003;EQDQ01  00002PRCP06
0186832420999992004120812004-12567-041383FM-12+042799999V0201801N001510042019N0100001N1+02571+01901101461ADDAA106000091GF107991051061004501041011KA1240N+02131MA1999999096571MD1999999+0011REMSYN076AAXX  08124 83242 32497 71803 10257 20190 39657 40146 85641 333 20213 58001;EQDQ01  00002PRCP06
0167832420999992004120818004-12567-041383FM-12+042799999V0201401N002111050019N0100001N1+03171+01941100891ADDAA106000091GF108991041011004501001071MA1999999096061MD1999999+0081REMSYN070AAXX  08184 83242 32497 81404 10317 20194 39606 40089 84107 333 58008;EQDQ01  00002PRCP06
0208832420999992004120900004-12567-041383FM-12+042799999V0203601N000512200019N0020001N1+02551+01931101091ADDAA106000091GA1001+999999999GF100991001001999999001001KA1240M+03181MA1999999096211MD1999999+0041REMSYN082AAXX  09004 83242 32995 03601 10255 20193 39621 40109 333 10318 29062 55094 58004;EQDQ01  00002PRCP06
0190832420999992004120912004-12567-041383FM-12+042799999V0201401N001510042019N0100001N1+02491+02001101321ADDAY151061AY201061GF107991061071004501041001KA1240N+02261MA1999999096421MD1999999-0171MW1031REMSYN088AAXX  09124 83242 21497 71403 10249 20200 39642 40132 70350 86740 333 20226 59017 69924;
0179832420999992004120918004-12567-041383FM-12+042799999V0201401N002110042019N0040001N1+02961+02021100801ADDAA106000091GF106991051071004501061001MA1999999095951MD1999999-0111MW1171REMSYN076AAXX  09184 83242 31496 61404 10296 20202 39595 40080 717// 85760 333 59011;EQDQ01  00002PRCP06
0208832420999992004121000004-12567-041383FM-12+042799999V0200901N001012200019N0020001N1+02471+02051101081ADDAA106000091GA1001+999999999GF100991001001999999001001KA1240M+03021MA1999999096191MD1999999-0021REMSYN082AAXX  10004 83242 32995 00902 10247 20205 39619 40108 333 10302 29071 55038 59002;EQDQ01  00002PRCP06
0186832420999992004121012004-12567-041383FM-12+042799999V0200501N001010042019N0100001N1+02611+02031101111ADDAA106000091GF108991061071004501051051KA1240N+02091MA1999999096231MD1999999-0191REMSYN076AAXX  10124 83242 32497 80502 10261 20203 39623 40111 86755 333 20209 59019;EQDQ01  00002PRCP06
0167832420999992004121018004-12567-041383FM-12+042799999V0201401N001510450019N0100001N1+03311+01781100451ADDAA106000091GF106991041061004501011001MA1999999095621MD1999999-0331REMSYN070AAXX  10184 83242 32497 61403 10331 20178 39562 40045 84610 333 59033;EQDQ01  00002PRCP06
0208832420999992004121100004-12567-041383FM-12+042799999V0201801N001012200019N0020001N1+02711+01981100771ADDAA106000091GA1001+999999999GF100991001001999999001001KA1240M+03381MA1999999095931MD1999999-0261REMSYN082AAXX  11004 83242 32995 01802 10271 20198 39593 40077 333 10338 29060 55064 59026;EQDQ01  00002PRCP06
0186832420999992004121112004-12567-041383FM-12+042799999V0201801N000510042019N0100001N1+02331+02111101201ADDAA106000091GF108991081071004501999999KA1240N+02241MA1999999096311MD1999999+0081REMSYN076AAXX  11124 83242 32497 81801 10233 20211 39631 40120 887// 333 20224 58008;EQDQ01  00002PRCP06
0171832420999992004121118004-12567-041383FM-12+042799999V0201401N002610042019N0100001N1+02891+02121100721ADDAY191061AY251061GF107991051071004501091001MA1999999095861MD1999999+0241MW1171REMSYN082AAXX  11184 83242 21497 71405 10289 20212 39586 40072 71795 85790 333 58024 69901;
0202832420999992004121200004-12570-041380FM-12+043999999V0203201N001510042019N0020001N1+02211+02141101131ADDAY191061AY261061GF108991081071004501999999KA1240M+03001MA1999999096171MD1999999+0241MW1131REMSYN100AAXX  12004 83242 21495 83203 10221 20214 39617 40113 71396 887// 333 10300 29085 55025 58024 60081;
0162832420999992004121212004-12570-041380FM-12+043999999V0200901N000510042019N0100001N1+02411+02171101321ADDGF108991081071004501999999KA1240N+02091MA1999999096381MD1999999+0071REMSYN082AAXX  12124 83242 22497 80901 10241 20217 39638 40132 887// 333 20209 58007 60084;
0167832420999992004121218004-12570-041380FM-12+043999999V0201401N001010042019N0100001N1+03021+02211100901ADDAA106000091GF107991061071004501061001MA1999999096021MD1999999+0161REMSYN070AAXX  12184 83242 32497 71402 10302 20221 39602 40090 86760 333 58016;EQDQ01  00002PRCP06
0210832420999992004121300004-12567-041383FM-12+042799999V0202301N000510042019N0020001N1+02631+02271101131ADDAA106000091GF108991081071004501999999KA1240M+03061MA1999999096241MD1999999+0071MW1131REMSYN094AAXX  13004 83242 31495 82301 10263 20227 39624 40113 713// 887// 333 10306 29077 55047 58007;EQDQ01  00002PRCP06
0190832420999992004121312004-12567-041383FM-12+042799999V0201801N001510042019N0100001N1+02411+02151101421ADDAY161061AY221061GF108991081071004501999999KA1240N+02301MA1999999096521MD1999999+0141MW1031REMSYN088AAXX  13124 83242 21497 81803 10241 20215 39652 40142 70362 887// 333 20230 58014 60014;
0179832420999992004121318004-12567-041383FM-12+042799999V0202301N000510042019N0040001N1+03001+01971100951ADDAA106000091GF108991051071004501031071MA1999999096121MD1999999+0101MW1051REMSYN076AAXX  13184 83242 31496 82301 10300 20197 39612 40095 705// 85737 333 58010;EQDQ01  00002PRCP06
0198832420999992004121400004-12567-041383FM-12+042799999V0209999C000012200019N0020001N1+02551+02191101231ADDAA106000091GF102991021041004501001001KA1240M+03041MA1999999096341MD1999999+0101REMSYN088AAXX  14004 83242 32495 20000 10255 20219 39634 40123 82400 333 10304 29075 55036 58010;EQDQ01  00002PRCP06
0186832420999992004121412004-12567-041383FM-12+042799999V0201401N001510042019N0100001N1+02431+01991101481ADDAA106000091GF108991081071004501999999KA1240N+02301MA1999999096571MD1999999+0051REMSYN076AAXX  14124 83242 32497 81403 10243 20199 39657 40148 887// 333 20230 58005;EQDQ01  00002PRCP06
0179832420999992004121418004-12567-041383FM-12+042799999V0201401N000510450019N0040001N1+02741+01921101091ADDAA106000091GF106991041051004501031071MA1999999096211MD1999999+0091MW1051REMSYN076AAXX  14184 83242 31496 61401 10274 20192 39621 40109 705// 84537 333 58009;EQDQ01  00002PRCP06
0198832420999992004121500004-12567-041383FM-12+042799999V0200501N000510042019N0020001N1+02471+02171101271ADDAA106000091GF108991081071004501999999KA1240M+02861MA1999999096361MD1999999+0021REMSYN088AAXX  15004 83242 32495 80501 10247 20217 39636 40127 887// 333 10286 29076 55028 58002;EQDQ01  00002PRCP06
0186832420999992004121512004-12567-041383FM-12+042799999V0201801N001010042019N0100001N1+02301+01871101481ADDAA106000091GF108991081071004501999999KA1240N+02131MA1999999096551MD1999999-0021REMSYN076AAXX  15124 83242 32497 81802 10230 20187 39655 40148 887// 333 20213 59002;EQDQ01  00002PRCP06
0167832420999992004121518004-12567-041383FM-12+042799999V0201801N001510450019N0100001N1+02731+01701101051ADDAA106000091GF106991041061004501031001MA1999999096161MD1999999+0051REMSYN070AAXX  15184 83242 32497 61803 10273 20170 39616 40105 84630 333 58005;EQDQ01  00002PRCP06
0208832420999992004121600004-12567-041383FM-12+042799999V0203601N000512200019N0020001N1+02311+01941101181ADDAA106000091GA1001+999999999GF100991001001999999001001KA1240M+02801MA1999999096251MD1999999-0111REMSYN082AAXX  16004 83242 32995 03601 10231 20194 39625 40118 333 10280 29072 55019 59011;EQDQ01  00002PRCP06
0186832420999992004121612004-12567-041383FM-12+042799999V0201401N001010450019N0100001N1+02431+01741101391ADDAA106000091GF105991041041004501011001KA1240N+02011MA1999999096461MD1999999-0091REMSYN076AAXX  16124 83242 32497 51402 10243 20174 39646 40139 84410 333 20201 59009;EQDQ01  00002PRCP06
0167832420999992004121618004-12567-041383FM-12+042799999V0201401N001512200019N0100001N1+03061+01511100941ADDAA106000091GF103991021031004501081001MA1999999096071MD1999999-0091REMSYN070AAXX  16184 83242 32497 31403 10306 20151 39607 40094 82380 333 59009;EQDQ01  00002PRCP06
0186832420999992004121712004-12567-041383FM-12+042799999V0201401N001010042019N0100001N1+02371+01871101331ADDAA106000091GF107991051071004501031001KA1240N+02071MA1999999096401MD1999999-0061REMSYN076AAXX  17124 83242 32497 71402 10237 20187 39640 40133 85730 333 20207 59006;EQDQ01  00002PRCP06
0167832420999992004121718004-12567-041383FM-12+042799999V0201401N000511050019N0100001N1+03021+01831100771ADDAA106000091GF105991021031004501061081MA1999999095901MD1999999-0171REMSYN070AAXX  17184 83242 32497 51401 10302 20183 39590 40077 82368 333 59017;EQDQ01  00002PRCP06
0198832420999992004121800004-12567-041383FM-12+042799999V0209999C000012200019N0020001N1+02471+01831101031ADDAA106000091GF102991021011004501001001KA1240M+03071MA1999999096131MD1999999-0051REMSYN088AAXX  18004 83242 32495 20000 10247 20183 39613 40103 82100 333 10307 29064 55068 59005;EQDQ01  00002PRCP06
0186832420999992004121812004-12567-041383FM-12+042799999V0201801N000510042019N0100001N1+02231+01901101471ADDAA106000091GF108991081071004501999999KA1240N+01891MA1999999096541MD1999999+0141REMSYN076AAXX  18124 83242 32497 81801 10223 20190 39654 40147 887// 333 20189 58014;EQDQ01  00002PRCP06
0179832420999992004121818004-12567-041383FM-12+042799999V0200501N001510450019N0040001N1+02971+01591100991ADDAA106000091GF108991031031004501051071MA1999999096101MD1999999+0201MW1051REMSYN076AAXX  18184 83242 31496 80503 10297 20159 39610 40099 705// 83357 333 58020;EQDQ01  00002PRCP06
0208832420999992004121900004-12570-041380FM-12+043999999V0209999C000012200019N0020001N1+02471+01941101171ADDAA106000091GA1001+999999999GF100991001001999999001001KA1240M+03041MA1999999096251MD1999999+0121REMSYN082AAXX  19004 83242 32995 00000 10247 20194 39625 40117 333 10304 29067 55060 58012;EQDQ01  00002PRCP06
0198832420999992004121912004-12570-041380FM-12+043999999V0201801N000510042019N0040001N1+02261+01961101621ADDAA106000091GF108991081071004501999999KA1240N+02221MA1999999096671MD1999999+0131MW1101REMSYN082AAXX  19124 83242 31496 81801 10226 20196 39667 40162 710// 887// 333 20222 58013;EQDQ01  00002PRCP06
0167832420999992004121918004-12570-041380FM-12+043999999V0200901N001510450019N0100001N1+02831+01711101071ADDAA106000091GF105991041051004501081001MA1999999096251MD1999999+0151REMSYN070AAXX  19184 83242 32497 50903 10283 20171 39625 40107 84580 333 58015;EQDQ01  00002PRCP06
0198832420999992004122000004-12567-041383FM-12+042799999V0200901N000512200019N0020001N1+02411+01991101281ADDAA106000091GF101991001001999999001011KA1240M+02941MA1999999096351MD1999999+0101REMSYN088AAXX  20004 83242 32995 10901 10241 20199 39635 40128 80001 333 10294 29072 55042 58010;EQDQ01  00002PRCP06
0186832420999992004122012004-12567-041383FM-12+042799999V0200901N000510042019N0100001N1+02511+01711101541ADDAA106000091GF107991051071004501031001KA1240N+02171MA1999999096621MD1999999-0051REMSYN076AAXX  20124 83242 32497 70901 10251 20171 39662 40154 85730 333 20217 59005;EQDQ01  00002PRCP06
0179832420999992004122018004-12567-041383FM-12+042799999V0202301N001510450019N0040001N1+02871+01601101011ADDAA106000091GF108991031031004501091071MA1999999096141MD1999999-0111MW1051REMSYN076AAXX  20184 83242 31496 82303 10287 20160 39614 40101 705// 83397 333 59011;EQDQ01  00002PRCP06
0208832420999992004122100004-12567-041383FM-12+042799999V0203601N001512200019N0020001N1+02471+01941101061ADDAA106000091GA1001+999999999GF100991001001999999001001KA1240M+03101MA1999999096171MD1999999-0181REMSYN082AAXX  21004 83242 32995 03603 10247 20194 39617 40106 333 10310 29063 55065 59018;EQDQ01  00002PRCP06
0186832420999992004122112004-12567-041383FM-12+042799999V0201801N000510042019N0100001N1+02411+02011101331ADDAA106000091GF108991081071004501999999KA1240N+02261MA1999999096421MD1999999-0201REMSYN076AAXX  21124 83242 32497 81801 10241 20201 39642 40133 887// 333 20226 59020;EQDQ01  00002PRCP06
0179832420999992004122118004-12567-041383FM-12+042799999V0201801N001510450019N0040001N1+03041+01911100761ADDAA106000091GF108991031041004501041071MA1999999095921MD1999999-0221MW1051REMSYN076AAXX  21184 83242 31496 81803 10304 20191 39592 40076 705// 83447 333 59022;EQDQ01  00002PRCP06
0198832420999992004122200004-12567-041383FM-12+042799999V0203601N001512200019N0020001N1+02531+02001100951ADDAA106000091GF102991011001022501051021KA1240M+03101MA1999999096061MD1999999-0111REMSYN088AAXX  22004 83242 32895 23603 10253 20200 39606 40095 81052 333 10310 29068 55054 59011;EQDQ01  00002PRCP06
0198832420999992004122212004-12567-041383FM-12+042799999V0201801N000510042019N0040001N1+02401+02011101231ADDAA106000091GF108991071071004501031999KA1240N+02241MA1999999096331MD1999999-0091MW1051REMSYN082AAXX  22124 83242 31496 81801 10240 20201 39633 40123 705// 8773/ 333 20224 59009;EQDQ01  00002PRCP06
0179832420999992004122218004-12567-041383FM-12+042799999V0200901N002110042019N0040001N1+02731+02101100841ADDAA106000091GF108991081071004501999999MA1999999095951MD1999999+0031MW1051REMSYN076AAXX  22184 83242 31496 80904 10273 20210 39595 40084 705// 887// 333 58003;EQDQ01  00002PRCP06
0198832420999992004122300004-12567-041383FM-12+042799999V0203601N000512200019N0020001N1+02381+01951101011ADDAA106000091GF102991001001999999001021KA1240M+02821MA1999999096111MD1999999+0051REMSYN088AAXX  23004 83242 32995 23601 10238 20195 39611 40101 80002 333 10282 29075 55017 58005;EQDQ01  00002PRCP06
0186832420999992004122312004-12567-041383FM-12+042799999V0201401N001510042019N0040001N1+02301+01851101301ADDAA106000091GF108991081071004501999999KA1240N+02171MA1999999096371MD1999999+0041REMSYN076AAXX  23124 83242 32496 81403 10230 20185 39637 40130 887// 333 20217 58004;EQDQ01  00002PRCP06
0167832420999992004122318004-12567-041383FM-12+042799999V0201401N001511050019N0100001N1+02971+01891100731ADDAA106000091GF106991041001022501021021MA1999999095871MD1999999-0081REMSYN070AAXX  23184 83242 32897 61403 10297 20189 39587 40073 84022 333 59008;EQDQ01  00002PRCP06
0208832420999992004122400004-12567-041383FM-12+042799999V0203601N001512200019N0020001N1+02411+01881100921ADDAA106000091GA1001+999999999GF100991001001999999001001KA1240M+03041MA1999999096011MD1999999-0101REMSYN082AAXX  24004 83242 32995 03603 10241 20188 39601 40092 333 10304 29068 55050 59010;EQDQ01  00002PRCP06
0198832420999992004122412004-12567-041383FM-12+042799999V0201401N001510042019N0040001N1+02231+02121101311ADDAA106000091GF107991061071004501001011KA1240N+01951MA1999999096371MD1999999+0001MW1101REMSYN082AAXX  24124 83242 31496 71403 10223 20212 39637 40131 710// 86701 333 20195 58000;EQDQ01  00002PRCP06
0167832420999992004122418004-12567-041383FM-12+042799999V0201401N002110450019N0100001N1+03001+02551100781ADDAA106000091GF108991011011004501051071MA1999999095901MD1999999+0031REMSYN070AAXX  24184 83242 32497 81404 10300 20255 39590 40078 81157 333 58003;EQDQ01  00002PRCP06
0208832420999992004122500004-12567-041383FM-12+042799999V0203601N000512200019N0020001N1+02491+02191100981ADDAA106000091GA1001+999999999GF100991001001999999001001KA1240M+03121MA1999999096071MD1999999+0061REMSYN082AAXX  25004 83242 32995 03601 10249 20219 39607 40098 333 10312 29084 55074 58006;EQDQ01  00002PRCP06
0186832420999992004122512004-12567-041383FM-12+042799999V0201801N001010042019N0040001N1+02391+99999101301ADDAA106000091GF107991071071004501001001KA1240N+02131MA1999999096491MD1999999+0121REMSYN076AAXX  25124 83242 32496 71802 10239 2//// 39649 40130 87700 333 20213 58012;EQDQ01  00002PRCP06
0167832420999992004122518004-12567-041383FM-12+042799999V0200901N001511050019N0100001N1+03171+99999100871ADDAA106000091GF108991021011004501001071MA1999999096021MD1999999+0121REMSYN070AAXX  25184 83242 32497 80903 10317 2//// 39602 40087 82107 333 58012;EQDQ01  00002PRCP06
0208832420999992004122600004-12570-041380FM-12+043999999V0203601N001012200019N0020001N1+02561+99999101051ADDAA106000091GA1001+999999999GF100991001001999999001001KA1240M+03221MA1999999096151MD1999999+0081REMSYN082AAXX  26004 83242 32995 03602 10256 2//// 39615 40105 333 10322 29/// 55074 58008;EQDQ01  00002PRCP06
0202832420999992004122612004-12570-041380FM-12+043999999V0201401N001510042019N0040001N1+02551+01431101431ADDAA106000091GF106991061071004501001001KA1240N+02251MA1999999999999MD1999999+0051REMSYN076AAXX  26124 83242 32496 61403 10255 20143 36700 40143 86700 333 20225 58005;EQDQ01  00002PRCP06Q02 067003APOSP 
0183832420999992004122618004-12570-041380FM-12+043999999V0201801N002612200019N0100001N1+03191+99999100811ADDAA106000091GF104991031011004501001011MA1999999095972MD1999999-0051REMSYN070AAXX  26184 83242 32497 41805 10319 2//// 39597 40081 83101 333 59005;EQDQ01+095973APOSP Q02  00002PRCP06
0208832420999992004122700004-12570-041380FM-12+043999999V0203601N001012200019N0020001N1+02551+99999100961ADDAA106000091GA1001+999999999GF100991001001999999001001KA1240M+03261MA1999999096091MD1999999-0061REMSYN082AAXX  27004 83242 32995 03602 10255 2//// 39609 40096 333 10326 29/// 55102 59006;EQDQ01  00002PRCP06
0186832420999992004122712004-12570-041380FM-12+043999999V0201401N001010042019N0100001N1+02311+99999101291ADDAA106000091GF108991081071004501999999KA1240N+02111MA1999999096381MD1999999-0161REMSYN076AAXX  27124 83242 32497 81402 10231 2//// 39638 40129 887// 333 20211 59016;EQDQ01  00002PRCP06
0179832420999992004122718004-12570-041380FM-12+043999999V0201401N001010450019N0040001N1+03071+99999100681ADDAA106000091GF108991031041004501031071MA1999999095871MD1999999-0171MW1051REMSYN076AAXX  27184 83242 31496 81402 10307 2//// 39587 40068 705// 83437 333 59017;EQDQ01  00002PRCP06
0208832420999992004122800004-12567-041383FM-12+042799999V0203601N001012200019N0020001N1+02611+99999100871ADDAA106000091GA1001+999999999GF100991001001999999001001KA1240M+03261MA1999999095981MD1999999-0111REMSYN082AAXX  28004 83242 32995 03602 10261 2//// 39598 40087 333 10326 29/// 55071 59011;EQDQ01  00002PRCP06
0186832420999992004122812004-12567-041383FM-12+042799999V0200901N001510042019N0100001N1+02411+99999101231ADDAA106000091GF108991081071004501999999KA1240N+01831MA1999999096341MD1999999-0041REMSYN076AAXX  28124 83242 32497 80903 10241 2//// 39634 40123 887// 333 20183 59004;EQDQ01  00002PRCP06
0179832420999992004122818004-12567-041383FM-12+042799999V0201801N001010450019N0040001N1+03201+99999100861ADDAA106000091GF108991031011004501011001MA1999999096001MD1999999+0131MW1051REMSYN076AAXX  28184 83242 31496 81802 10320 2//// 39600 40086 705// 83110 333 58013;EQDQ01  00002PRCP06
0198832420999992004122900004-12567-041383FM-12+042799999V0203601N001512200019N0020001N1+02591+99999101061ADDAA106000091GF102991001001999999001021KA1240M+03221MA1999999096171MD1999999+0191REMSYN088AAXX  29004 83242 32995 23603 10259 2//// 39617 40106 80002 333 10322 29/// 55086 58019;EQDQ01  00002PRCP06
0186832420999992004122912004-12567-041383FM-12+042799999V0201401N001010042019N0100001N1+02491+99999101541ADDAA106000091GF108991061061004501051021KA1240N+01831MA1999999096641MD1999999+0301REMSYN076AAXX  29124 83242 32497 81402 10249 2//// 39664 40154 86652 333 20183 58030;EQDQ01  00002PRCP06
0167832420999992004122918004-12567-041383FM-12+042799999V0201401N001510450019N0100001N1+03141+99999101091ADDAA106000091GF105991031051004501061061MA1999999096231MD1999999+0231REMSYN070AAXX  29184 83242 32497 51403 10314 2//// 39623 40109 83566 333 58023;EQDQ01  00002PRCP06
0208832420999992004123000004-12567-041383FM-12+042799999V0209999C000012200019N0020001N1+02621+99999101301ADDAA106000091GA1001+999999999GF100991001001999999001001KA1240M+03211MA1999999096411MD1999999+0241REMSYN082AAXX  30004 83242 32995 00000 10262 2//// 39641 40130 333 10321 29/// 55083 58024;EQDQ01  00002PRCP06
0186832420999992004123012004-12567-041383FM-12+042799999V0201801N002610042019N0040001N1+02491+99999101541ADDAA106000091GF106991051071004501051001KA1240N+02191MA1999999096641MD1999999+0001REMSYN076AAXX  30124 83242 32496 61805 10249 2//// 39664 40154 85750 333 20219 58000;EQDQ01  00002PRCP06
0167832420999992004123018004-12567-041383FM-12+042799999V0201801N003112200019N0100001N1+03191+99999101041ADDAA106000091GF106991011031004501001041MA1999999096191MD1999999-0041REMSYN070AAXX  30184 83242 32497 61806 10319 2//// 39619 40104 81304 333 59004;EQDQ01  00002PRCP06
0208832420999992004123100004-12567-041383FM-12+042799999V0203601N000512200019N0020001N1+02541+99999101121ADDAA106000091GA1001+999999999GF100991001001999999001001KA1240M+03231MA1999999096231MD1999999-0181REMSYN082AAXX  31004 83242 32995 03601 10254 2//// 39623 40112 333 10323 29/// 55097 59018;EQDQ01  00002PRCP06
0186832420999992004123112004-12567-041383FM-12+042799999V0201401N001510042019N0040001N1+02451+99999101511ADDAA106000091GF107991051071004501031001KA1240N+01991MA1999999096601MD1999999-0041REMSYN076AAXX  31124 83242 32496 71403 10245 2//// 39660 40151 85730 333 20199 59004;EQDQ01  00002PRCP06
0167832420999992004123118004-12567-041383FM-12+042799999V0201401N002112200019N0100001N1+03241+99999100921ADDAA106000091GF104991031031004501051001MA1999999096061MD1999999-0131REMSYN070AAXX  31184 83242 32497 41404 10324 2//// 39606 40092 83350 333 59013;EQDQ01  00002PRCP06
