0208832880999992004010100004-13267-043417FM-12+0458SBLP V0201401N001512200019N0020001N1+02991+02191100671ADDAA106000091GA1001+999999999GF100991001001999999001001KA1240M+03631MA1999999095891MD1999999-0401REMSYN082AAXX  01004 83288 32995 01403 10299 20219 39589 40067 333 10363 29058 55119 59040;EQDQ01  00002PRCP06
0186832880999992004010112004-13267-043417FM-12+0458SBLP V0203601N001012200019N0200001N1+02951+02301100991ADDAA106000091GF103991001001999999001081KA1240N+02201MA1999999096211MD1999999-0031REMSYN076AAXX  01124 83288 32998 33602 10295 20230 39621 40099 80008 333 20220 59003;EQDQ01  00002PRCP06
0167832880999992004010118004-13267-043417FM-12+0458SBLP V0202701N001511050019N0200001N1+03541+02401100461ADDAA106000091GF106991041011008001001081MA1999999095701MD1999999+0011REMSYN070AAXX  01184 83288 32598 62703 10354 20240 39570 40046 84108 333 58001;EQDQ01  00002PRCP06
0198832880999992004010200004-13267-043417FM-12+0458SBLP V0200901N001012200019N0020001N1+02811+02281100651ADDAA106000091GF104991021011008001031001KA1240M+03651MA1999999095861MD1999999-0031REMSYN088AAXX  02004 83288 32595 40902 10281 20228 39586 40065 82130 333 10365 29064 55117 59003;EQDQ01  00002PRCP06
0190832880999992004010212004-13267-043417FM-12+0458SBLP V0202301N001010450019N0020001N1+02721+02221101081ADDAY151061AY251061GF106991041051008001021001KA1240N+02401MA1999999096241MD1999999+0031MW1021REMSYN088AAXX  02124 83288 21595 62302 10272 20222 39624 40108 70255 84520 333 20240 58003 69984;
0167832880999992004010218004-13267-043417FM-12+0458SBLP V0202701N001510450019N0200001N1+03361+02141100501ADDAA106000091GF106991041081008001021021MA1999999095701MD1999999+0001REMSYN070AAXX  02184 83288 32598 62703 10336 20214 39570 40050 84822 333 58000;EQDQ01  00002PRCP06
0198832880999992004010300004-13267-043417FM-12+0458SBLP V0202301N001010120019N0020001N1+03071+01931100451ADDAA106000091GF108991061081008001021999KA1240M+03441MA1999999095891MD1999999+0031REMSYN088AAXX  03004 83288 32595 82302 10307 20193 39589 40045 8682/ 333 10344 29058 55064 58003;EQDQ01  00002PRCP06
0190832880999992004010312004-13267-043417FM-12+0458SBLP V0209999C000011050019N0200001N1+02331+02221101131ADDAY161061AY261061GF108991041051004501001071KA1240N+01991MA1999999096281MD1999999+0041MW1021REMSYN088AAXX  03124 83288 21498 80000 10233 20222 39628 40113 70266 84507 333 20199 58004 60524;
0167832880999992004010318004-13267-043417FM-12+0458SBLP V0202301N001519999999N0200001N1+02911+02251100671ADDAA106000091GF106991001001999999001091MA1999999095801MD1999999+0101REMSYN070AAXX  03184 83288 32998 62303 10291 20225 39580 40067 80009 333 58010;EQDQ01  00002PRCP06
0186832880999992004010412004-13267-043417FM-12+0458SBLP V0202301N000512200019N0200001N1+02691+02401101031ADDAA106000091GF104991041021008001001001KA1240N+02201MA1999999096171MD1999999-0111REMSYN076AAXX  04124 83288 32598 42301 10269 20240 39617 40103 84200 333 20220 59011;EQDQ01  00002PRCP06
0198832880999992004010500004-13267-043417FM-12+0458SBLP V0201801N000510120019N0020001N1+02771+02411100751ADDAA106000091GF105991051081008001001001KA1240M+03231MA1999999095921MD1999999+0011REMSYN088AAXX  05004 83288 32595 51801 10277 20241 39592 40075 85800 333 10323 29079 55093 58001;EQDQ01  00002PRCP06
0186832880999992004010512004-13267-043417FM-12+0458SBLP V0201401N000512200019N0200001N1+02821+02171100971ADDAA106000091GF103991031011008001001041KA1240N+02091MA1999999096151MD1999999-0021REMSYN076AAXX  05124 83288 32598 31401 10282 20217 39615 40097 83104 333 20209 59002;EQDQ01  00002PRCP06
0167832880999992004010518004-13267-043417FM-12+0458SBLP V0202701N000511050019N0200001N1+03321+02101100741ADDAA106000091GF105991031021008001001021MA1999999095961MD1999999+0221REMSYN070AAXX  05184 83288 32598 52701 10332 20210 39596 40074 83202 333 58022;EQDQ01  00002PRCP06
0198832880999992004010600004-13267-043417FM-12+0458SBLP V0201801N000512200019N0020001N1+02931+01801100601ADDAA106000091GF104991031011008001001021KA1240M+03431MA1999999095811MD1999999-0111REMSYN088AAXX  06004 83288 32595 41801 10293 20180 39581 40060 83102 333 10343 29056 55107 59011;EQDQ01  00002PRCP06
0196832880999992004010612004-13267-043417FM-12+0458SBLP V0200501N001512200019N0200001N1+02791+01931101811ADDAA106000091GA1001+999999999GF100991001001999999001001KA1240N+02091MA1999999096191MD1999999+0041REMSYN070AAXX  06124 83288 32998 00503 10279 20193 39619 40181 333 20209 58004;EQDQ01  00002PRCP06
0183832880999992004010618004-13267-043417FM-12+0458SBLP V0202301N001512200019N0200001N1+03341+01981100622ADDAA106000091GF104991031021008001001021MA1999999095821MD1999999-0141REMSYN070AAXX  06184 83288 32598 42303 10334 20198 39582 40062 83202 333 59014;EQDQ01+100623APOSLPQ02  00002PRCP06
0198832880999992004010700004-13267-043417FM-12+0458SBLP V0201801N001519999999N0020001N1+02871+01871100021ADDAA106000091GF105991001001999999001021KA1240M+03431MA1999999100712MD1999999+0101REMSYN088AAXX  07004 83288 32995 51803 10287 20187 30071 40002 80002 333 10343 29054 55116 58010;EQDQ01  00002PRCP06
0167832880999992004010718004-13267-043417FM-12+0458SBLP V0202701N001012200019N0200001N1+03501+02401100621ADDAA106000091GF103991031021008001001001MA1999999095851MD1999999+0031REMSYN070AAXX  07184 83288 32598 32702 10350 20240 39585 40062 83200 333 58003;EQDQ01  00002PRCP06
0198832880999992004010800004-13267-043417FM-12+0458SBLP V0201801N001012200019N0020001N1+02711+02161100701ADDAA106000091GF103991031021008001001001KA1240M+03551MA1999999095901MD1999999-0011REMSYN088AAXX  08004 83288 32595 31802 10271 20216 39590 40070 83200 333 10355 29061 55088 59001;EQDQ01  00002PRCP06
0186832880999992004010812004-13267-043417FM-12+0458SBLP V0202301N001010450019N0200001N1+02741+01971101091ADDAA106000091GF105991041011008001031021KA1240N+02151MA1999999096241MD1999999+0391REMSYN076AAXX  08124 83288 32598 52302 10274 20197 39624 40109 84132 333 20215 58039;EQDQ01  00002PRCP06
0167832880999992004010818004-13267-043417FM-12+0458SBLP V0202301N000510450019N0200001N1+03201+01821100611ADDAA106000091GF106991031021008001021021MA1999999095791MD1999999-0051REMSYN070AAXX  08184 83288 32598 62301 10320 20182 39579 40061 83222 333 59005;EQDQ01  00002PRCP06
0208832880999992004010900004-13267-043417FM-12+0458SBLP V0201401N001512200019N0020001N1+02841+01851100711ADDAA106000091GA1001+999999999GF100991001001999999001001KA1240M+03281MA1999999095911MD1999999+0011REMSYN082AAXX  09004 83288 32595 01403 10284 20185 39591 40071 333 10328 29054 55061 58001;EQDQ01  00002PRCP06
0186832880999992004010912004-13267-043417FM-12+0458SBLP V0203601N001512200019N0200001N1+02761+02021100831ADDAA106000091GF102991001001999999001091KA1240N+02091MA1999999096021MD1999999-0221REMSYN076AAXX  09124 83288 32998 23603 10276 20202 39602 40083 80009 333 20209 59022;EQDQ01  00002PRCP06
0167832880999992004010918004-13267-043417FM-12+0458SBLP V0203201N002610450019N0200001N1+03471+02091100321ADDAA106000091GF106991041081008001071021MA1999999095551MD1999999-0241REMSYN070AAXX  09184 83288 32598 63205 10347 20209 39555 40032 84872 333 59024;EQDQ01  00002PRCP06
0198832880999992004011000004-13267-043417FM-12+0458SBLP V0201401N001510450019N0020001N1+02771+02121100721ADDAA106000091GF108991041081008001071021KA1240M+03541MA1999999095901MD1999999+0011REMSYN088AAXX  10004 83288 32595 81403 10277 20212 39590 40072 84872 333 10354 29061 55090 58001;EQDQ01  00002PRCP06
0176832880999992004011012004-13267-043417FM-12+0458SBLP V0200901N001010450019N0200001N1+02251+02201101021ADDAY161061GF108991031051008001021999KA1240N+02121MA1999999096141MD1999999+0121MW1031REMSYN082AAXX  10124 83288 21598 80902 10225 20220 39614 40102 7036/ 8352/ 333 20212 58012;
0167832880999992004011018004-13267-043417FM-12+0458SBLP V0203601N002110075019N0200001N1+02531+02341100721ADDAA106000091GF108991061051008001011999MA1999999095831MD1999999+0281REMSYN070AAXX  10184 83288 32598 83604 10253 20234 39583 40072 8651/ 333 58028;EQDQ01  00002PRCP06
0190832880999992004011112004-13267-043417FM-12+0458SBLP V0200901N001010450019N0200001N1+02511+02231101331ADDAY161061AY261061GF108991041051008001021999KA1240N+02131MA1999999096431MD1999999+0221MW1031REMSYN088AAXX  11124 83288 21598 80902 10251 20223 39643 40133 70366 8452/ 333 20213 58022 60014;
0167832880999992004011118004-13267-043417FM-12+0458SBLP V0203601N001510450019N0200001N1+03031+02241100791ADDAA106000091GF106991041081008001021001MA1999999095951MD1999999+0021REMSYN070AAXX  11184 83288 32598 63603 10303 20224 39595 40079 84820 333 58002;EQDQ01  00002PRCP06
0120832880999992004011212004-13267-043417FM-12+0458SBLP V0203601N002119999999N0200001N1+02361+02221999999ADDGF108991999999004501999999REMSYN082AAXX  12124 83288 22498 83604 10236 20222 29628 40117 85527 333 20213 58010 69984;
0215832880999992004011300004-13267-043417FM-12+0458SBLP V0200901N001510450019N0020001N1+02271+02141101021ADDAY161061AY261061GF108991031051004501021071KA1240M+02831MA1999999096091MD1999999-0091REMSYN100AAXX  13004 83288 21495 80903 10227 20214 39609 40102 75666 83527 333 10283 29091 55004 59009 60051;EQDQ01+000562PRSWM1
0190832880999992004011312004-13267-043417FM-12+0458SBLP V0203601N001010075019N0200001N1+02491+02351101041ADDAY151061AY251061GF107991051051008001031001KA1240N+02101MA1999999096141MD1999999-0141MW1031REMSYN088AAXX  13124 83288 21598 73602 10249 20235 39614 40104 70355 85530 333 20210 59014 60054;
0167832880999992004011318004-13267-043417FM-12+0458SBLP V0202701N001010450019N0200001N1+02751+02511100641ADDAA106000091GF106991031021008001071001MA1999999095771MD1999999-0191REMSYN070AAXX  13184 83288 32598 62702 10275 20251 39577 40064 83270 333 59019;EQDQ01  00002PRCP06
0202832880999992004011400004-13267-043417FM-12+0458SBLP V0200501N001510450019N0020001N1+02271+02191101001ADDAY161061AY261061GF108991041071008001021999KA1240M+02951MA1999999096101MD1999999+0011MW1031REMSYN100AAXX  14004 83288 21595 80503 10227 20219 39610 40100 70366 8472/ 333 10295 29091 55026 58001 60031;
0190832880999992004011412004-13267-043417FM-12+0458SBLP V0203601N001010075019N0200001N1+02651+02141101011ADDAY161061AY261061GF108991061051008001021999KA1240N+02091MA1999999096121MD1999999+0021MW1031REMSYN088AAXX  14124 83288 21598 83602 10265 20214 39612 40101 70366 8652/ 333 20209 58002 60034;
0167832880999992004011418004-13267-043417FM-12+0458SBLP V0200501N001010450019N0200001N1+02931+02321100631ADDAA106000091GF106991041051008001021001MA1999999095781MD1999999+0011REMSYN070AAXX  14184 83288 32598 60502 10293 20232 39578 40063 84520 333 58001;EQDQ01  00002PRCP06
0215832880999992004011500004-13267-043417FM-12+0458SBLP V0201401N001010075019N0020001N1+02351+02201100661ADDAY161061AY261061GF108991061051008001021999KA1240M+02941MA1999999095791MD1999999-0311REMSYN100AAXX  15004 83288 21595 81402 10235 20220 39579 40066 75666 8652/ 333 10294 29079 55024 59031 60101;EQDQ01+000562PRSWM1
0190832880999992004011512004-13267-043417FM-12+0458SBLP V0203601N002610042019N0200001N1+02471+02321100931ADDAY161061AY261061GF108991071041004501001091KA1240N+02061MA1999999096031MD1999999-0091MW1021REMSYN088AAXX  15124 83288 21498 83605 10247 20232 39603 40093 70266 87409 333 20206 59009 60184;
0184832880999992004011518004-13267-043417FM-12+0458SBLP V0203601N001510042019N0200001N1+02291+02231100581ADDAY161061AY261061GF108991051021004501001071MA1999999095691MD1999999-0091REMSYN082AAXX  15184 83288 21498 83603 10229 20223 39569 40058 76766 85207 333 59009 60131;EQDQ01+000672PRSWM1
0198832880999992004011600004-13267-043417FM-12+0458SBLP V0200501N001512200019N0020001N1+02391+02291100681ADDAA106000091GF103991031001012501071001KA1240M+02751MA1999999095801MD1999999+0011REMSYN088AAXX  16004 83288 32695 30503 10239 20229 39580 40068 83070 333 10275 29095 55006 58001;EQDQ01  00002PRCP06
0190832880999992004011612004-13267-043417FM-12+0458SBLP V0203601N000510450019N0200001N1+02371+02281100941ADDAY161061AY261061GF108991041071008001021999KA1240N+02041MA1999999096041MD1999999+0011MW1031REMSYN088AAXX  16124 83288 21598 83601 10237 20228 39604 40094 70366 8472/ 333 20204 58001 60214;
0171832880999992004011618004-13267-043417FM-12+0458SBLP V0203201N002110075019N0200001N1+02431+02381100531ADDAY161061AY291061GF108991051051008001011999MA1999999095651MD1999999-0041MW1031REMSYN082AAXX  16184 83288 21598 83204 10243 20238 39565 40053 70369 8551/ 333 59004 60021;
0202832880999992004011700004-13267-043417FM-12+0458SBLP V0203601N001510450019N0020001N1+02131+02081101071ADDAY161061AY261061GF108991031071008001021999KA1240M+02871MA1999999096131MD1999999+0631MW1611REMSYN100AAXX  17004 83288 21595 83603 10213 20208 39613 40107 76166 8372/ 333 10287 29096 55014 58063 60201;
0190832880999992004011712004-13267-043417FM-12+0458SBLP V0203601N001010075019N0200001N1+02391+02241100731ADDAY161061AY261061GF106991051051008001021001KA1240N+02031MA1999999095821MD1999999-0221MW1031REMSYN088AAXX  17124 83288 21598 63602 10239 20224 39582 40073 70366 85520 333 20203 59022 60254;
0167832880999992004011718004-13267-043417FM-12+0458SBLP V0203201N001510450019N0200001N1+02971+02351100491ADDAA106000091GF105991041021008001021041MA1999999095581MD1999999-0071REMSYN070AAXX  17184 83288 32598 53203 10297 20235 39558 40049 84224 333 59007;EQDQ01  00002PRCP06
0190832880999992004011912004-13267-043417FM-12+0458SBLP V0203601N001510450019N0200001N1+02151+02101101131ADDAY161061AY261061GF108991041071008001011999KA1240N+02021MA1999999096181MD1999999+0081MW1531REMSYN088AAXX  19124 83288 21598 83603 10215 20210 39618 40113 75366 8471/ 333 20202 58008 60364;
0171832880999992004011918004-13267-043417FM-12+0458SBLP V0201801N000510450019N0200001N1+02531+02431100711ADDAY161061AY261061GF106991031051008001031001MA1999999095821MD1999999+0021MW1021REMSYN082AAXX  19184 83288 21598 61801 10253 20243 39582 40071 70266 83530 333 58002 60091;
0202832880999992004012000004-13267-043417FM-12+0458SBLP V0201801N001010075019N0020001N1+02331+02201100931ADDAY161061AY261061GF108991061051008001021001KA1240M+02621MA1999999096011MD1999999-0131MW1031REMSYN100AAXX  20004 83288 21595 81802 10233 20220 39601 40093 70366 86520 333 10262 29095 55000 59013 60011;
0190832880999992004012012004-13267-043417FM-12+0458SBLP V0200901N000510075019N0200001N1+02351+02241101151ADDAY161061AY261061GF108991051051008001021999KA1240N+02051MA1999999096231MD1999999+0051MW1531REMSYN088AAXX  20124 83288 21598 80901 10235 20224 39623 40115 75366 8552/ 333 20205 58005 60134;
0148832880999992004012018004-13267-043417FM-12+0458SBLP V0202701N000510450019N0200001N1+02621+02211100781ADDAA106000021GF106991031051008001021001MA1999999095901MD1999999+0081REMSYN070AAXX  20184 83288 32598 62701 10262 20221 39590 40078 83520 333 58008;
0198832880999992004012100004-13267-043417FM-12+0458SBLP V0201401N000512200019N0020001N1+02431+02191100681ADDAA106000091GF103991021021008001021001KA1240M+02661MA1999999095791MD1999999-0021REMSYN088AAXX  21004 83288 32595 31401 10243 20219 39579 40068 82220 333 10266 29086 55000 59002;EQDQ01  00002PRCP06
0190832880999992004012112004-13267-043417FM-12+0458SBLP V0209999C000010450019N0200001N1+02411+02301101031ADDAY161061AY261061GF108991041051004501021071KA1240N+02051MA1999999096131MD1999999-0101MW1021REMSYN088AAXX  21124 83288 21498 80000 10241 20230 39613 40103 70266 84527 333 20205 59010 60394;
0167832880999992004012118004-13267-043417FM-12+0458SBLP V0203201N001510450019N0200001N1+02551+02331100721ADDAA106000091GF107991011051012501021021MA1999999095831MD1999999-0071REMSYN070AAXX  21184 83288 32698 73203 10255 20233 39583 40072 81522 333 59007;EQDQ01  00002PRCP06
0198832880999992004012200004-13267-043417FM-12+0458SBLP V0200501N001512200019N0020001N1+02361+02281100781ADDAA106000091GF101991001001999999001021KA1240M+02771MA1999999095891MD1999999+0101REMSYN088AAXX  22004 83288 32995 10503 10236 20228 39589 40078 80002 333 10277 29093 55007 58010;EQDQ01  00002PRCP06
0202832880999992004012300004-13267-043417FM-12+0458SBLP V0203601N000510450019N0020001N1+02531+02471100781ADDAY151061AY251061GF108991041051008001021999KA1240M+02851MA1999999095911MD1999999+0021MW1031REMSYN100AAXX  23004 83288 21595 83601 10253 20247 39591 40078 70355 8452/ 333 10285 29092 55014 58002 69921;
0182832880999992004012309004-13267-043417FM-15+0458SBLP V0209999C000010039019N0080001N1+02201+02101999999ADDGA1071+003909999GA2071+030009999GF107991999999999999999999MA1101081999999MW1611REMMET056SBLP 230900Z 00000KT 8000 -RA BKN013 BKN100 22/21 Q1011;EQDQ01+000003PRSWM1Q02    003PRSWM1
0182832880999992004012310004-13267-043417FM-15+0458SBLP V0200601N002610045019N0112651N1+02201+02201999999ADDGA1071+004509999GA2071+030009999GF107991999999999999999999MA1101191999999MW1611REMMET056SBLP 231000Z 06005KT 9999 -RA BKN015 BKN100 22/22 Q1012;EQDQ01+000003PRSWM1Q02    003PRSWM1
0190832880999992004012312004-13267-043417FM-12+0458SBLP V0201401N001510075019N0200001N1+02251+02121101041ADDAY161061AY261061GF108991061031008001021999KA1240N+02051MA1999999096141MD1999999+0101MW1031REMSYN088AAXX  23124 83288 21598 81403 10225 20212 39614 40104 70366 8632/ 333 20205 58010 60374;
0171832880999992004012318004-13267-043417FM-12+0458SBLP V0203201N001010450019N0200001N1+02641+02251100781ADDAY151061AY231061GF106991041051008001021001MA1999999095891MD1999999+0281MW1031REMSYN082AAXX  23184 83288 21598 63202 10264 20225 39589 40078 70353 84520 333 58028 69981;
0198832880999992004012400004-13267-043417FM-12+0458SBLP V0203601N000510075019N0020001N1+02351+02221100991ADDAA106000091GF108991061051008001021001KA1240M+02701MA1999999096081MD1999999+0171REMSYN088AAXX  24004 83288 32595 83601 10235 20222 39608 40099 86520 333 10270 29093 55003 58017;EQDQ01  00002PRCP06
0162832880999992004012412004-13267-043417FM-12+0458SBLP V0203601N001510042019N0020001N1+02491+02391101101ADDGF108991061051004501001091KA1240N+02051MA1999999096191MD1999999+0051REMSYN082AAXX  24124 83288 22495 83603 10249 20239 39619 40110 86509 333 20205 58005 69984;
0167832880999992004012418004-13267-043417FM-12+0458SBLP V0203201N003110450019N0200001N1+02491+02231100891ADDAA106000091GF107991011051004501021021MA1999999095981MD1999999-0091REMSYN070AAXX  24184 83288 32498 73206 10249 20223 39598 40089 81522 333 59009;EQDQ01  00002PRCP06
0186832880999992004012512004-13267-043417FM-12+0458SBLP V0203601N001010450019N0200001N1+02451+02311101171ADDAA106000091GF107991041021008001071001KA1240N+02101MA1999999096261MD1999999+0071REMSYN076AAXX  25124 83288 32598 73602 10245 20231 39626 40117 84270 333 20210 58007;EQDQ01  00002PRCP06
0167832880999992004012518004-13267-043417FM-12+0458SBLP V0203601N001010450019N0200001N1+03131+02681100691ADDAA106000091GF105991031021008001031051MA1999999095851MD1999999-0131REMSYN070AAXX  25184 83288 32598 53602 10313 20268 39585 40069 83235 333 59013;EQDQ01  00002PRCP06
0198832880999992004012600004-13267-043417FM-12+0458SBLP V0203601N001512200019N0020001N1+02531+02341100961ADDAA106000091GF103991021021008001031001KA1240M+03171MA1999999096081MD1999999-0051REMSYN088AAXX  26004 83288 32595 33603 10253 20234 39608 40096 82230 333 10317 29087 55081 59005;EQDQ01  00002PRCP06
0186832880999992004012612004-13267-043417FM-12+0458SBLP V0200901N000510450019N0200001N1+02331+02181101101ADDAA106000091GF106991041031008001021001KA1240N+02041MA1999999096201MD1999999-0061REMSYN076AAXX  26124 83288 32598 60901 10233 20218 39620 40110 84320 333 20204 59006;EQDQ01  00002PRCP06
0167832880999992004012618004-13267-043417FM-12+0458SBLP V0203601N001011050019N0200001N1+03051+02201100691ADDAA106000091GF105991041021008001001021MA1999999095841MD1999999-0011REMSYN070AAXX  26184 83288 32598 53602 10305 20220 39584 40069 84202 333 59001;EQDQ01  00002PRCP06
0198832880999992004012700004-13267-043417FM-12+0458SBLP V0201801N000510450019N0020001N1+02721+02341100691ADDAA106000091GF106991041011008001021001KA1240M+03121MA1999999095821MD1999999-0261REMSYN088AAXX  27004 83288 32595 61801 10272 20234 39582 40069 84120 333 10312 29080 55075 59026;EQDQ01  00002PRCP06
0168832880999992004012712004-13267-043417FM-12+0458SBLP V0209999C000011050019N0200001N1+02481+02291101141ADDGF108991031001017501071021KA1240N+02091MA1999999096271MD1999999+0071REMSYN088AAXX  27124 83288 21798 80000 10248 20229 39627 40114 7//// 83072 333 20209 58007 60064;
0167832880999992004012718004-13267-043417FM-12+0458SBLP V0203201N001511050019N0200001N1+02911+02301100761ADDAA106000091GF108991031081008001001021MA1999999095921MD1999999+0081REMSYN070AAXX  27184 83288 32598 83203 10291 20230 39592 40076 83802 333 58008;EQDQ01  00002PRCP06
0218832880999992004012800004-13267-043417FM-12+0458SBLP V0200501N001011050019N0020001N1+02651+02441100981ADDAA106000091AY121061GF107991041041004501001081KA1240M+02961MA1999999096111MD1999999+0291MW1131REMSYN094AAXX  28004 83288 31495 70502 10265 20244 39611 40098 7132/ 84408 333 10296 29084 55013 58029;EQDQ01  00002PRCP06
0186832880999992004012812004-13267-043417FM-12+0458SBLP V0200901N001510450019N0200001N1+02511+02301101251ADDAA106000091GF108991031011008001021999KA1240N+02061MA1999999096371MD1999999+0101REMSYN076AAXX  28124 83288 32598 80903 10251 20230 39637 40125 8312/ 333 20206 58010;EQDQ01  00002PRCP06
0167832880999992004012818004-13267-043417FM-12+0458SBLP V0203601N001010450019N0200001N1+02951+02481100941ADDAA106000091GF108991031021008001021011MA1999999096081MD1999999+0161REMSYN070AAXX  28184 83288 32598 83602 10295 20248 39608 40094 83221 333 58016;EQDQ01  00002PRCP06
0198832880999992004012900004-13267-043417FM-12+0458SBLP V0201801N000512200019N0020001N1+02591+02391100971ADDAA106000091GF104991021011008001031001KA1240M+03011MA1999999096101MD1999999-0011REMSYN088AAXX  29004 83288 32595 41801 10259 20239 39610 40097 82130 333 10301 29084 55004 59001;EQDQ01  00002PRCP06
0186832880999992004012912004-13267-043417FM-12+0458SBLP V0200901N001012200019N0200001N1+02651+01901101251ADDAA106000091GF104991031011008001001041KA1240N+02041MA1999999096371MD1999999+0001REMSYN076AAXX  29124 83288 32598 40902 10265 20190 39637 40125 83104 333 20204 58000;EQDQ01  00002PRCP06
0167832880999992004012918004-13267-043417FM-12+0458SBLP V0203601N004111050019N0200001N1+03051+01971101031ADDAA106000091GF106991021021008001001021MA1999999096211MD1999999+0131REMSYN070AAXX  29184 83288 32598 63608 10305 20197 39621 40103 82202 333 58013;EQDQ01  00002PRCP06
0186832880999992004013012004-13267-043417FM-12+0458SBLP V0200901N001512200019N0200001N1+02711+02011101201ADDAA106000091GF101991001001999999001021KA1240N+01991MA1999999096331MD1999999-0041REMSYN076AAXX  30124 83288 32998 10903 10271 20201 39633 40120 80002 333 20199 59004;EQDQ01  00002PRCP06
0183832880999992004013018004-13267-043417FM-12+0458SBLP V0203201N001512200019N0200001N1+03111+02201100781ADDAA106000091GF103991999001008001001001MA1999999095941MD1999999-0271REMSYN070AAXX  30184 83288 32598 33203 10311 20220 39594 40078 82000 333 59027;EQDQ01+000022SCOTLCQ02  00002PRCP06
0198832880999992004013100004-13267-043417FM-12+0458SBLP V0201401N001010150019N0020001N1+02631+01811100941ADDAA106000091GF107991071001017501071001KA1240M+03251MA1999999096091MD1999999+0011REMSYN088AAXX  31004 83288 32795 71402 10263 20181 39609 40094 87070 333 10325 29069 55110 58001;EQDQ01  00002PRCP06
0190832880999992004013112004-13267-043417FM-12+0458SBLP V0201801N001010120019N0200001N1+02391+02251101361ADDAY161061AY261061GF108991051081008001011999KA1240N+02021MA1999999096461MD1999999+0131MW1031REMSYN088AAXX  31124 83288 21598 81802 10239 20225 39646 40136 70366 8581/ 333 20202 58013 60024;
0167832880999992004013118004-13267-043417FM-12+0458SBLP V0203601N000510450019N0200001N1+02781+02091101031ADDAA106000091GF106991031051008001011021MA1999999096151MD1999999+0171REMSYN070AAXX  31184 83288 32598 63601 10278 20209 39615 40103 83512 333 58017;EQDQ01  00002PRCP06
0186832880999992004020112004-13267-043417FM-12+0458SBLP V0200901N001012200019N0200001N1+02671+02221101431ADDAA106000091GF103991021011008001001021KA1240N+02001MA1999999096541MD1999999+0081REMSYN076AAXX  01124 83288 32598 30902 10267 20222 39654 40143 82102 333 20200 58008;EQDQ01  00002PRCP06
0167832880999992004020118004-13267-043417FM-12+0458SBLP V0203201N000510450019N0200001N1+03091+02291101041ADDAA106000091GF105991031021008001031021MA1999999096181MD1999999+0031REMSYN070AAXX  01184 83288 32598 53201 10309 20229 39618 40104 83232 333 58003;EQDQ01  00002PRCP06
0202832880999992004020200004-13267-043417FM-12+0458SBLP V0203601N001010120019N0020001N1+02331+02171101181ADDAY161061AY261061GF108991081081008001999999KA1240M+03151MA1999999096291MD1999999-0051MW1021REMSYN100AAXX  02004 83288 21595 83602 10233 20217 39629 40118 70266 888// 333 10315 29080 55083 59005 60111;
0162832880999992004020212004-13267-043417FM-12+0458SBLP V0200901N000510450019N0020001N1+02581+02111101121ADDGF106991041051008001021021KA1240N+02101MA1999999096271MD1999999-0271REMSYN082AAXX  02124 83288 22595 60901 10258 20211 39627 40112 84522 333 20210 59027 60114;
0171832880999992004020218004-13267-043417FM-12+0458SBLP V0200901N001510075019N0200001N1+02841+02241100911ADDAY161061AY261061GF108991061051008001051999MA1999999096041MD1999999-0041MW1021REMSYN082AAXX  02184 83288 21598 80903 10284 20224 39604 40091 70266 8655/ 333 59004 60011;
0202832880999992004020300004-13267-043417FM-12+0458SBLP V0201801N000510075019N0020001N1+02171+02041101061ADDAY161061AY251061GF108991061051008001021999KA1240M+02891MA1999999096041MD1999999-0251MW1031REMSYN100AAXX  03004 83288 21595 81801 10217 20204 39604 40106 70365 8652/ 333 10289 29082 55023 59025 60081;
0190832880999992004020312004-13267-043417FM-12+0458SBLP V0201801N001010450019N0200001N1+02381+02281101221ADDAY161061AY261061GF106991041081008001031001KA1240N+02001MA1999999096281MD1999999+0011MW1021REMSYN088AAXX  03124 83288 21598 61802 10238 20228 39628 40122 70266 84830 333 20200 58001 60104;
0137832880999992004020318004-13267-043417FM-12+0458SBLP V0200901N000519999999N0200001N1+02851+99999999999ADDAA106000091GF105991999999008001999999REMSYN069AAXX  03184 83288 32598 50901 10285 2023 39598 40086 83230 333 59006;EQDQ01  00002PRCP06
0198832880999992004020400004-13267-043417FM-12+0458SBLP V0201801N000510120019N0020001N1+02411+02261101071ADDAA106000091GF108991051081008001031999KA1240M+02931MA1999999096161MD1999999+0011REMSYN088AAXX  04004 83288 32595 81801 10241 20226 39616 40107 8583/ 333 10293 29088 55022 58001;EQDQ01  00002PRCP06
0186832880999992004020412004-13267-043417FM-12+0458SBLP V0203601N000510450019N0200001N1+02591+02291101351ADDAA106000091GF106991041011008001031001KA1240N+02041MA1999999096451MD1999999+0171REMSYN076AAXX  04124 83288 32598 63601 10259 20229 39645 40135 84130 333 20204 58017;EQDQ01  00002PRCP06
0171832880999992004020418004-13267-043417FM-12+0458SBLP V0202301N001510120019N0200001N1+02851+02391100911ADDAY151061AY251061GF106991061081008001001001MA1999999096051MD1999999+0071MW1021REMSYN082AAXX  04184 83288 21598 62303 10285 20239 39605 40091 70255 86800 333 58007 69981;
0198832880999992004020500004-13267-043417FM-12+0458SBLP V0209999C000012200019N0020001N1+02491+02291100941ADDAA106000091GF101991011011008001001001KA1240M+02951MA1999999096051MD1999999-0111REMSYN088AAXX  05004 83288 32595 10000 10249 20229 39605 40094 81100 333 10295 29082 55045 59011;EQDQ01  00002PRCP06
0162832880999992004020512004-13267-043417FM-12+0458SBLP V0201401N000512200019N0200001N1+02711+02061101151ADDGF102991011011008001021021KA1240N+01981MA1999999096281MD1999999-0171REMSYN082AAXX  05124 83288 22598 21401 10271 20206 39628 40115 81122 333 20198 59017 69984;
0167832880999992004020518004-13267-043417FM-12+0458SBLP V0202301N001510450019N0200001N1+03151+01841100771ADDAA106000091GF105991041081008001021001MA1999999095941MD1999999-0111REMSYN070AAXX  05184 83288 32598 52303 10315 20184 39594 40077 84820 333 59011;EQDQ01  00002PRCP06
0214832880999992004020600004-13267-043417FM-12+0458SBLP V0200901N001019999999N0020001N1+02651+02231100531ADDAA106000091GF105991999011008001001001KA1240M+03181MA1999999095711MD1999999-0341REMSYN088AAXX  06004 83288 32595 50902 10265 20223 39571 40053 84100 333 10318 29064 55117 59034;EQDQ01+000042SCOTLCQ02  00002PRCP06
0186832880999992004020612004-13267-043417FM-12+0458SBLP V0203601N001512200019N0200001N1+02651+02341100991ADDAA106000091GF101991011011008001001001KA1240N+02101MA1999999096141MD1999999-0141REMSYN076AAXX  06124 83288 32598 13603 10265 20234 39614 40099 81100 333 20210 59014;EQDQ01  00002PRCP06
0167832880999992004020618004-13267-043417FM-12+0458SBLP V0203601N001012200019N0200001N1+03181+02611100531ADDAA106000091GF103991021011008001001051MA1999999095721MD1999999-0221REMSYN070AAXX  06184 83288 32598 33602 10318 20261 39572 40053 82105 333 59022;EQDQ01  00002PRCP06
0198832880999992004020700004-13267-043417FM-12+0458SBLP V0203601N001012200019N0020001N1+02691+02361100651ADDAA106000091GF103991011011008001031021KA1240M+03291MA1999999095821MD1999999+0111REMSYN088AAXX  07004 83288 32595 33602 10269 20236 39582 40065 81132 333 10329 29079 55114 58011;EQDQ01  00002PRCP06
0186832880999992004020712004-13267-043417FM-12+0458SBLP V0203601N001512200019N0200001N1+02631+02371100961ADDAA106000091GF103991031011008001001001KA1240N+02101MA1999999096111MD1999999-0031REMSYN076AAXX  07124 83288 32598 33603 10263 20237 39611 40096 83100 333 20210 59003;EQDQ01  00002PRCP06
0167832880999992004020718004-13267-043417FM-12+0458SBLP V0203201N001012200019N0200001N1+03131+02431100511ADDAA106000091GF102991021011008001001021MA1999999095711MD1999999-0011REMSYN070AAXX  07184 83288 32598 23202 10313 20243 39571 40051 82102 333 59001;EQDQ01  00002PRCP06
0186832880999992004020812004-13267-043417FM-12+0458SBLP V0200901N000510450019N0200001N1+02421+02231101181ADDAA106000091GF106991041051008001051001KA1240N+02031MA1999999096281MD1999999+0171REMSYN076AAXX  08124 83288 32598 60901 10242 20223 39628 40118 84550 333 20203 58017;EQDQ01  00002PRCP06
0167832880999992004020818004-13267-043417FM-12+0458SBLP V0202701N004110450019N0200001N1+02851+02331100891ADDAA106000091GF105991031051008001021001MA1999999096051MD1999999+0341REMSYN070AAXX  08184 83288 32598 52708 10285 20233 39605 40089 83520 333 58034;EQDQ01  00002PRCP06
0202832880999992004020900004-13267-043417FM-12+0458SBLP V0200501N000510450019N0020001N1+02251+02191101091ADDAY161061AY261061GF105991041051008001021001KA1240M+02951MA1999999096171MD1999999+0231MW1031REMSYN100AAXX  09004 83288 21595 50501 10225 20219 39617 40109 70366 84520 333 10295 29087 55014 58023 60051;
0190832880999992004020912004-13267-043417FM-12+0458SBLP V0202701N000510120019N0200001N1+02391+02291101351ADDAY161061AY261061GF108991051081008001011999KA1240N+02101MA1999999096411MD1999999+0131MW1031REMSYN088AAXX  09124 83288 21598 82701 10239 20229 39641 40135 70366 8581/ 333 20210 58013 60064;
0167832880999992004020918004-13267-043417FM-12+0458SBLP V0203601N001010450019N0200001N1+02691+02401101001ADDAA106000091GF108991041081008001011999MA1999999096091MD1999999+0041REMSYN070AAXX  09184 83288 32598 83602 10269 20240 39609 40100 8481/ 333 58004;EQDQ01  00002PRCP06
0198832880999992004021000004-13267-043417FM-12+0458SBLP V0203601N001010450019N0020001N1+02311+02211101231ADDAA106000091GF108991041051008001021999KA1240M+02751MA1999999096311MD1999999+0141REMSYN088AAXX  10004 83288 32595 83602 10231 20221 39631 40123 8452/ 333 10275 29091 55000 58014;EQDQ01  00002PRCP06
0209832880999992004021012004-13267-043417FM-12+0458SBLP V0209999C000010075019N9999999N1+02211+02171101371ADDAY161061AY261061GF108991081051008001999999KA1240N+02001MA1999999096421MD1999999+0011MW1651REMSYN088AAXX  10124 83288 21598 80000 10221 20217 39642 40137 76566 885// 333 20200 58001 60304;EQDQ01+200002VODIS 
0171832880999992004021018004-13267-043417FM-12+0458SBLP V0201801N001010450019N0200001N1+02311+02271101111ADDAY161061AY261061GF107991031081008001021999MA1999999097161MD1999999+0071MW1021REMSYN082AAXX  10184 83288 21598 71802 10231 20227 39716 40111 70266 8382/ 333 58007 60451;
0208832880999992004021100004-13267-043417FM-12+0458SBLP V0202301N000512200019N0020001N1+02231+02201101261ADDAA106000091GA1001+999999999GF100991001001999999001001KA1240M+02551MA1999999096301MD1999999+0011REMSYN082AAXX  11004 83288 32995 02301 10223 20220 39630 40126 333 10255 29098 55000 58001;EQDQ01  00002PRCP06
0162832880999992004021112004-13267-043417FM-12+0458SBLP V0201401N000511050019N0200001N1+02391+02211101361ADDGF105991031051008001001021KA1240N+01861MA1999999096421MD1999999+0001REMSYN082AAXX  11124 83288 22598 51401 10239 20221 39642 40136 83502 333 20186 58000 60454;
0167832880999992004021118004-13267-043417FM-12+0458SBLP V0201401N002610450019N0200001N1+03081+01881100961ADDAA106000091GF106991041021008001031021MA1999999096101MD1999999-0061REMSYN070AAXX  11184 83288 32598 61405 10308 20188 39610 40096 84232 333 59006;EQDQ01  00002PRCP06
0198832880999992004021200004-13267-043417FM-12+0458SBLP V0201401N000512200019N0020001N1+02631+02161100941ADDAA106000091GF103991021021008001021001KA1240M+03151MA1999999096061MD1999999-0241REMSYN088AAXX  12004 83288 32595 31401 10263 20216 39606 40094 82220 333 10315 29072 55088 59024;EQDQ01  00002PRCP06
0186832880999992004021212004-13267-043417FM-12+0458SBLP V0201401N001012200019N0200001N1+02631+02321101271ADDAA106000091GF102991011011008001031001KA1240N+02061MA1999999096391MD1999999-0031REMSYN076AAXX  12124 83288 32598 21402 10263 20232 39639 40127 81130 333 20206 59003;EQDQ01  00002PRCP06
0167832880999992004021218004-13267-043417FM-12+0458SBLP V0202701N001512200019N0200001N1+03081+02601101131ADDAA106000091GF104991041021008001001001MA1999999096271MD1999999+0171REMSYN070AAXX  12184 83288 32598 42703 10308 20260 39627 40113 84200 333 58017;EQDQ01  00002PRCP06
0208832880999992004021300004-13267-043417FM-12+0458SBLP V0201801N001012200019N0020001N1+02551+02341101131ADDAA106000091GA1001+999999999GF100991001001999999001001KA1240M+03171MA1999999096261MD1999999+0201REMSYN082AAXX  13004 83288 32995 01802 10255 20234 39626 40113 333 10317 29082 55113 58020;EQDQ01  00002PRCP06
0186832880999992004021312004-13267-043417FM-12+0458SBLP V0201401N001512200019N0200001N1+02711+02151101461ADDAA106000091GF101991001001999999001011KA1240N+02141MA1999999096581MD1999999+0191REMSYN076AAXX  13124 83288 32998 11403 10271 20215 39658 40146 80001 333 20214 58019;EQDQ01  00002PRCP06
0167832880999992004021318004-13267-043417FM-12+0458SBLP V0201401N001012200019N0200001N1+03111+02141101011ADDAA106000091GF102991021021008001001001MA1999999096161MD1999999-0161REMSYN070AAXX  13184 83288 32598 21402 10311 20214 39616 40101 82200 333 59016;EQDQ01  00002PRCP06
0208832880999992004021400004-13267-043417FM-12+0458SBLP V0201401N001012200019N0020001N1+02551+02081101061ADDAA106000091GA1001+999999999GF100991001001999999001001KA1240M+03171MA1999999096201MD1999999-0061REMSYN082AAXX  14004 83288 32995 01402 10255 20208 39620 40106 333 10317 29069 55116 59006;EQDQ01  00002PRCP06
0186832880999992004021412004-13267-043417FM-12+0458SBLP V0201401N001012200019N0200001N1+02671+02071101271ADDAA106000091GF105991031011008001001041KA1240N+02161MA1999999096391MD1999999-0191REMSYN076AAXX  14124 83288 32598 51402 10267 20207 39639 40127 83104 333 20216 59019;EQDQ01  00002PRCP06
0214832880999992004021500004-13267-043417FM-12+0458SBLP V0202301N000512200019N0020001N1+02731+02121100541ADDAA106000091GF104991999011008001001001KA1240M+03191MA1999999095721MD1999999-0481REMSYN088AAXX  15004 83288 32595 42301 10273 20212 39572 40054 83100 333 10319 29067 55108 59048;EQDQ01+000032SCOTLCQ02  00002PRCP06
0186832880999992004021512004-13267-043417FM-12+0458SBLP V0203601N001012200019N0200001N1+02651+02211101151ADDAA106000091GF102991001001999999001051KA1240N+02221MA1999999096301MD1999999-0091REMSYN076AAXX  15124 83288 32998 23602 10265 20221 39630 40115 80005 333 20222 59009;EQDQ01  00002PRCP06
0167832880999992004021518004-13267-043417FM-12+0458SBLP V0203201N001512200019N0200001N1+03151+02581100921ADDAA106000091GF103991011011008001001041MA1999999096111MD1999999+0381REMSYN070AAXX  15184 83288 32598 33203 10315 20258 39611 40092 81104 333 58038;EQDQ01  00002PRCP06
0208832880999992004021600004-13267-043417FM-12+0458SBLP V0200901N001012200019N0020001N1+02611+02451100971ADDAA106000091GA1001+999999999GF100991001001999999001001KA1240M+03231MA1999999096111MD1999999+0391REMSYN082AAXX  16004 83288 32995 00902 10261 20245 39611 40097 333 10323 29080 55095 58039;EQDQ01  00002PRCP06
0186832880999992004021612004-13267-043417FM-12+0458SBLP V0201801N002112200019N0200001N1+02711+02171101221ADDAA106000091GF102991001001999999001051KA1240N+02201MA1999999096351MD1999999+0051REMSYN076AAXX  16124 83288 32998 21804 10271 20217 39635 40122 80005 333 20220 58005;EQDQ01  00002PRCP06
0167832880999992004021618004-13267-043417FM-12+0458SBLP V0203201N001512200019N0200001N1+03171+02221100711ADDAA106000091GF103991021021008001001021MA1999999095901MD1999999-0211REMSYN070AAXX  16184 83288 32598 33203 10317 20222 39590 40071 82202 333 59021;EQDQ01  00002PRCP06
0218832880999992004021700004-13267-043417FM-12+0458SBLP V0200501N003110450019N0020001N1+02321+02021101121ADDAA106000091AY121061GF108991041081008001021999KA1240M+03231MA1999999096231MD1999999+0121MW1171REMSYN094AAXX  17004 83288 31595 80506 10232 20202 39623 40112 7172/ 8482/ 333 10323 29074 55092 58012;EQDQ01  00002PRCP06
0190832880999992004021712004-13267-043417FM-12+0458SBLP V0201401N000510075019N0200001N1+02321+02201101531ADDAY161061AY261061GF108991061051008001051999KA1240N+02141MA1999999096581MD1999999+0231MW1031REMSYN088AAXX  17124 83288 21598 81401 10232 20220 39658 40153 70366 8655/ 333 20214 58023 60084;
0171832880999992004021718004-13267-043417FM-12+0458SBLP V0203601N000510075019N0200001N1+02251+02101101291ADDAY161061AY261061GF108991061051008001051999MA1999999096331MD1999999+0331MW1651REMSYN082AAXX  17184 83288 21598 83601 10225 20210 39633 40129 76566 8655/ 333 58033 60151;
0202832880999992004021800004-13267-043417FM-12+0458SBLP V0201801N000510075019N0020001N1+02221+02081101251ADDAY161061AY261061GF108991061051008001021999KA1240M+02621MA1999999096301MD1999999+0071MW1031REMSYN100AAXX  18004 83288 21595 81801 10222 20208 39630 40125 70366 8652/ 333 10262 29092 55000 58007 60021;
0190832880999992004021812004-13267-043417FM-12+0458SBLP V0200901N001010120019N0200001N1+02411+02321101471ADDAY151061AY251061GF108991051081008001031051KA1240N+02141MA1999999096521MD1999999-0061MW1031REMSYN088AAXX  18124 83288 21598 80902 10241 20232 39652 40147 70355 85835 333 20214 59006 60174;
0186832880999992004021912004-13267-043417FM-12+0458SBLP V0201401N000511050019N0200001N1+02571+02271101161ADDAA106000091GF106991021001017501031051KA1240N+02221MA1999999096281MD1999999-0241REMSYN076AAXX  19124 83288 32798 61401 10257 20227 39628 40116 82035 333 20222 59024;EQDQ01  00002PRCP06
0167832880999992004021918004-13267-043417FM-12+0458SBLP V0201401N003610450019N0200001N1+02471+02321100871ADDAA106000091GF108991041081008001021999MA1999999095971MD1999999-0061REMSYN070AAXX  19184 83288 32598 81407 10247 20232 39597 40087 8482/ 333 59006;EQDQ01  00002PRCP06
0194832880999992004022000004-13267-043417FM-12+0458SBLP V0201401N000510075019N0020001N1+02311+02181100971ADDAY151061GF108991081051008001999999KA1240M+03051MA1999999096081MD1999999-0051MW1511REMSYN100AAXX  20004 83288 21595 81401 10231 20218 39608 40097 7515/ 885// 333 10305 29090 55039 59005 69941;
0190832880999992004022012004-13267-043417FM-12+0458SBLP V0202301N000510450019N0200001N1+02521+02211101001ADDAY151061AY211061GF106991041051008001051001KA1240N+02211MA1999999096191MD1999999-0091MW1031REMSYN088AAXX  20124 83288 21598 62301 10252 20221 39619 40100 70351 84550 333 20221 59009 60024;
0167832880999992004022018004-13267-043417FM-12+0458SBLP V0202301N001010120019N0200001N1+02831+02201100841ADDAA106000091GF108991061081008001021999MA1999999095951MD1999999-0021REMSYN070AAXX  20184 83288 32598 82302 10283 20220 39595 40084 8682/ 333 59002;EQDQ01  00002PRCP06
0214832880999992004022100004-13267-043417FM-12+0458SBLP V0201801N001512200019N0020001N1+02331+02091101081ADDAA106000091GF103991999011008001001001KA1240M+02931MA1999999096181MD1999999+0101REMSYN088AAXX  21004 83288 32595 31803 10233 20209 39618 40108 82100 333 10293 29080 55020 58010;EQDQ01+000022SCOTLCQ02  00002PRCP06
0186832880999992004022112004-13267-043417FM-12+0458SBLP V0202701N000512200019N0200001N1+02571+02361101221ADDAA106000091GF104991011011008001061041KA1240N+02161MA1999999096321MD1999999+0131REMSYN076AAXX  21124 83288 32598 42701 10257 20236 39632 40122 81164 333 20216 58013;EQDQ01  00002PRCP06
0171832880999992004022118004-13267-043417FM-12+0458SBLP V0203601N000510450019N0200001N1+02431+02401101031ADDAY161061AY291061GF106991031081008001011001MA1999999096101MD1999999+0151MW1021REMSYN082AAXX  21184 83288 21598 63601 10243 20240 39610 40103 70269 83810 333 58015 60241;
0162832880999992004022212004-13267-043417FM-12+0458SBLP V0200901N001512200019N0200001N1+02611+02231101281ADDGF103991021021008001001011KA1240N+02141MA1999999096381MD1999999+0061REMSYN082AAXX  22124 83288 22598 30903 10261 20223 39638 40128 82201 333 20214 58006 60244;
0167832880999992004022218004-13267-043417FM-12+0458SBLP V0202301N001012200019N0200001N1+02871+02321100931ADDAA106000091GF104991041021008001001001MA1999999096061MD1999999-0041REMSYN070AAXX  22184 83288 32598 42302 10287 20232 39606 40093 84200 333 59004;EQDQ01  00002PRCP06
0190832880999992004022312004-13267-043417FM-12+0458SBLP V0201401N001012200019N0200001N1+02651+02141101261ADDAY151061AY201061GF103991021011008001001041KA1240N+02211MA1999999095381MD1999999+0001MW1031REMSYN088AAXX  23124 83288 21598 31402 10265 20214 39538 40126 70350 82104 333 20221 58000 69964;
0153832880999992004022318004-13267-043417FM-12+0458SBLP V0203201N000512200019N0200001N1+03091+02271100881ADDAA106000091GF102991011021008001001021MA1999999096041REMSYN070AAXX  23184 83288 32598 23201 10309 20227 39604 40088 81202 333 52002;EQDQ01  00002PRCP06
0167832880999992004022418004-13267-043417FM-12+0458SBLP V0203601N001512200019N0200001N1+03051+02561100871ADDAA106000091GF106991041021008001001041MA1999999096021MD1999999+0021REMSYN070AAXX  24184 83288 32598 63603 10305 20256 39602 40087 84204 333 58002;EQDQ01  00002PRCP06
0186832880999992004022512004-13267-043417FM-12+0458SBLP V0203601N000511050019N0200001N1+02451+02291101251ADDAA106000091GF107991031001017501071081KA1240N+02281MA1999999096351MD1999999-0011REMSYN076AAXX  25124 83288 32798 73601 10245 20229 39635 40125 83078 333 20228 59001;EQDQ01  00002PRCP06
0167832880999992004022518004-13267-043417FM-12+0458SBLP V0203601N001512200019N0200001N1+02991+02391100911ADDAA106000091GF105991021021008001001081MA1999999096051MD1999999+0031REMSYN070AAXX  25184 83288 32598 53603 10299 20239 39605 40091 82208 333 58003;EQDQ01  00002PRCP06
0198832880999992004022600004-13267-043417FM-12+0458SBLP V0200901N001510150019N0020001N1+02591+02331101141ADDAA106000091GF108991081001017501071999KA1240M+03131MA1999999096251MD1999999+0111REMSYN088AAXX  26004 83288 32795 80903 10259 20233 39625 40114 8807/ 333 10313 29082 55047 58011;EQDQ01  00002PRCP06
0186832880999992004022612004-13267-043417FM-12+0458SBLP V0202301N000512200019N0200001N1+02521+02191101421ADDAA106000091GF104991031011008001031021KA1240N+02151MA1999999096531MD1999999+0181REMSYN076AAXX  26124 83288 32598 42301 10252 20219 39653 40142 83132 333 20215 58018;EQDQ01  00002PRCP06
0167832880999992004022618004-13267-043417FM-12+0458SBLP V0203601N001510450019N0200001N1+03101+02461100971ADDAA106000091GF105991041081008001021001MA1999999096131MD1999999+0081REMSYN070AAXX  26184 83288 32598 53603 10310 20246 39613 40097 84820 333 58008;EQDQ01  00002PRCP06
0198832880999992004022700004-13267-043417FM-12+0458SBLP V0203201N001012200019N0020001N1+02551+02111101221ADDAA106000091GF102991011011008001001021KA1240M+03141MA1999999096341MD1999999+0091REMSYN088AAXX  27004 83288 32595 23202 10255 20211 39634 40122 81102 333 10314 29074 55089 58009;EQDQ01  00002PRCP06
0186832880999992004022712004-13267-043417FM-12+0458SBLP V0203601N001512200019N0200001N1+02511+02301101351ADDAA106000091GF102991021021008001001001KA1240N+02181MA1999999096451MD1999999-0081REMSYN076AAXX  27124 83288 32598 23603 10251 20230 39645 40135 82200 333 20218 59008;EQDQ01  00002PRCP06
0167832880999992004022718004-13267-043417FM-12+0458SBLP V0203601N001011050019N0200001N1+03081+02521100741ADDAA106000091GF105991021021008001001051MA1999999095901MD1999999-0231REMSYN070AAXX  27184 83288 32598 53602 10308 20252 39590 40074 82205 333 59023;EQDQ01  00002PRCP06
0198832880999992004022800004-13267-043417FM-12+0458SBLP V0203201N001512200019N0020001N1+02631+02321100891ADDAA106000091GF103991011011008001001021KA1240M+03111MA1999999096031MD1999999-0311REMSYN088AAXX  28004 83288 32595 33203 10263 20232 39603 40089 81102 333 10311 29083 55089 59031;EQDQ01  00002PRCP06
0186832880999992004022812004-13267-043417FM-12+0458SBLP V0203201N002110450019N0200001N1+02511+02311101051ADDAA106000091GF106991021021008001021021KA1240N+02221MA1999999096171MD1999999-0281REMSYN076AAXX  28124 83288 32598 63204 10251 20231 39617 40105 82222 333 20222 59028;EQDQ01  00002PRCP06
0171832880999992004022818004-13267-043417FM-12+0458SBLP V0203601N001511050019N0200001N1+02851+02481100681ADDAY161061AY261061GF106991041021008001001021MA1999999095831MD1999999-0071MW1031REMSYN082AAXX  28184 83288 21598 63603 10285 20248 39583 40068 70366 84202 333 59007 60021;
0194832880999992004022900004-13267-043417FM-12+0458SBLP V0200501N001510450019N0020001N1+02471+02321100911ADDAY121061GF108991041081008001021999KA1240M+02871MA1999999096031MD1999999+0001MW1581REMSYN100AAXX  29004 83288 21595 80503 10247 20232 39603 40091 7582/ 8482/ 333 10287 29088 55038 58000 69931;
0190832880999992004022912004-13267-043417FM-12+0458SBLP V0201401N001010450019N0200001N1+02521+02311101201ADDAY161061AY261061GF106991041051008001031021KA1240N+02211MA1999999096291MD1999999+0121MW1031REMSYN088AAXX  29124 83288 21598 61402 10252 20231 39629 40120 70366 84532 333 20221 58012 60044;
0167832880999992004022918004-13267-043417FM-12+0458SBLP V0202301N001010075019N0200001N1+02651+02331100721ADDAA106000091GF105991051021008001021001MA1999999095841MD1999999+0011REMSYN070AAXX  29184 83288 32598 52302 10265 20233 39584 40072 85220 333 58001;EQDQ01  00002PRCP06
0202832880999992004030100004-13267-043417FM-12+0458SBLP V0203601N001510450019N0020001N1+02251+02051101121ADDAY151061AY251061GF108991041051008001021999KA1240M+02961MA1999999096241MD1999999+0211MW1031REMSYN100AAXX  01004 83288 21595 83603 10225 20205 39624 40112 70355 8452/ 333 10296 29089 55040 58021 60011;
0162832880999992004030112004-13267-043417FM-12+0458SBLP V0203601N001012200019N0200001N1+02491+02231101171ADDGF105991021011008001051091KA1240N+02181MA1999999096261MD1999999-0031REMSYN082AAXX  01124 83288 22598 53602 10249 20223 39626 40117 82159 333 20218 59003 60014;
0167832880999992004030118004-13267-043417FM-12+0458SBLP V0203201N001011050019N0200001N1+03091+02641100831ADDAA106000091GF106991041031008001001021MA1999999095981MD1999999+0141REMSYN070AAXX  01184 83288 32598 63202 10309 20264 39598 40083 84302 333 58014;EQDQ01  00002PRCP06
0198832880999992004030200004-13267-043417FM-12+0458SBLP V0201401N001010450019N0020001N1+02411+02271101181ADDAA106000091GF107991041081008001011001KA1240M+03131MA1999999096281MD1999999+0041REMSYN088AAXX  02004 83288 32595 71402 10241 20227 39628 40118 84810 333 10313 29086 55071 58004;EQDQ01  00002PRCP06
0186832880999992004030212004-13267-043417FM-12+0458SBLP V0203201N000512200019N0200001N1+02511+02311101241ADDAA106000091GF105991031041008001001011KA1240N+02201MA1999999096341MD1999999+0081REMSYN076AAXX  02124 83288 32598 53201 10251 20231 39634 40124 83401 333 20220 58008;EQDQ01  00002PRCP06
0167832880999992004030218004-13267-043417FM-12+0458SBLP V0202301N002110075019N0200001N1+03051+02361100841ADDAA106000091GF106991051021008001001021MA1999999096001MD1999999+0021REMSYN070AAXX  02184 83288 32598 62304 10305 20236 39600 40084 85202 333 58002;EQDQ01  00002PRCP06
0198832880999992004030300004-13267-043417FM-12+0458SBLP V0203601N000512200019N0020001N1+02491+02311101021ADDAA106000091GF102991021001017501041001KA1240M+03131MA1999999096141MD1999999-0141REMSYN088AAXX  03004 83288 32795 23601 10249 20231 39614 40102 82040 333 10313 29083 55091 59014;EQDQ01  00002PRCP06
0190832880999992004030312004-13267-043417FM-12+0458SBLP V0200501N000510450019N0200001N1+02791+02041101291ADDAY161061AY261061GF106991041051008001021001KA1240N+02181MA1999999096421MD1999999+0081MW1031REMSYN088AAXX  03124 83288 21598 60501 10279 20204 39642 40129 70366 84520 333 20218 58008 60044;
0171832880999992004030318004-13267-043417FM-12+0458SBLP V0200501N001010450019N0200001N1+02591+02151100861ADDAY161061AY201061GF105991041051008001031021MA1999999095971MD1999999-0031MW1031REMSYN082AAXX  03184 83288 21598 50502 10259 20215 39597 40086 70360 84532 333 59003 60051;
0198832880999992004030400004-13267-043417FM-12+0458SBLP V0201401N000510450019N0020001N1+02351+02201101001ADDAA106000091GF106991041011008001021001KA1240M+03111MA1999999096091MD1999999-0051REMSYN088AAXX  04004 83288 32595 61401 10235 20220 39609 40100 84120 333 10311 29087 55017 59005;EQDQ01  00002PRCP06
0162832880999992004030412004-13267-043417FM-12+0458SBLP V0202701N001011050019N0200001N1+02551+02301101311ADDGF105991021021008001041041KA1240N+02181MA1999999096401MD1999999-0021REMSYN082AAXX  04124 83288 22598 52702 10255 20230 39640 40131 82244 333 20218 59002 60054;
0167832880999992004030418004-13267-043417FM-12+0458SBLP V0200901N001510075019N0200001N1+02951+02571100891ADDAA106000091GF106991061051008001001001MA1999999096031MD1999999+0061REMSYN070AAXX  04184 83288 32598 60903 10295 20257 39603 40089 86500 333 58006;EQDQ01  00002PRCP06
0202832880999992004030500004-13267-043417FM-12+0458SBLP V0201801N001010450019N0020001N1+02311+02231101131ADDAY161061AY261061GF106991021011008001011051KA1240M+03051MA1999999096221MD1999999+0131MW1021REMSYN100AAXX  05004 83288 21595 61802 10231 20223 39622 40113 70266 82115 333 10305 29087 55077 58013 60161;
0162832880999992004030512004-13267-043417FM-12+0458SBLP V0200901N001512200019N0200001N1+02651+02201101321ADDGF102991011011008001001041KA1240N+02161MA1999999096421MD1999999+0021REMSYN082AAXX  05124 83288 22598 20903 10265 20220 39642 40132 81104 333 20216 58002 60164;
0167832880999992004030518004-13267-043417FM-12+0458SBLP V0200501N001011050019N0200001N1+03011+02361101031ADDAA106000091GF105991021021008001001051MA1999999096161MD1999999-0131REMSYN070AAXX  05184 83288 32598 50502 10301 20236 39616 40103 82205 333 59013;EQDQ01  00002PRCP06
0198832880999992004030600004-13267-043417FM-12+0458SBLP V0201401N001012200019N0020001N1+02451+02091101241ADDAA106000091GF103991011021008001001051KA1240M+03071MA1999999096351MD1999999+0121REMSYN088AAXX  06004 83288 32595 31402 10245 20209 39635 40124 81205 333 10307 29076 55097 58012;EQDQ01  00002PRCP06
0186832880999992004030612004-13267-043417FM-12+0458SBLP V0200901N000512200019N0200001N1+02471+01921101291ADDAA106000091GF103991021011008001001041KA1240N+02001MA1999999096381MD1999999-0041REMSYN076AAXX  06124 83288 32598 30901 10247 20192 39638 40129 82104 333 20200 59004;EQDQ01  00002PRCP06
0167832880999992004030618004-13267-043417FM-12+0458SBLP V0200901N000510450019N0200001N1+03021+01891101001ADDAA106000091GF106991041021008001021041MA1999999096141MD1999999-0021REMSYN070AAXX  06184 83288 32598 60901 10302 20189 39614 40100 84224 333 59002;EQDQ01  00002PRCP06
0198832880999992004030700004-13267-043417FM-12+0458SBLP V0201801N001010120019N0020001N1+02561+02111100921ADDAA106000091GF108991051081008001021999KA1240M+03131MA1999999096041MD1999999-0311REMSYN088AAXX  07004 83288 32595 81802 10256 20211 39604 40092 8582/ 333 10313 29066 55101 59031;EQDQ01  00002PRCP06
0186832880999992004030712004-13267-043417FM-12+0458SBLP V0201801N001512200019N0200001N1+02531+02221101421ADDAA106000091GF102991021011008001001001KA1240N+02021MA1999999096531MD1999999+0151REMSYN076AAXX  07124 83288 32598 21803 10253 20222 39653 40142 82100 333 20202 58015;EQDQ01  00002PRCP06
0167832880999992004030718004-13267-043417FM-12+0458SBLP V0202301N001011050019N0200001N1+03011+02431101071ADDAA106000091GF105991031021008001001051MA1999999096191MD1999999+0051REMSYN070AAXX  07184 83288 32598 52302 10301 20243 39619 40107 83205 333 58005;EQDQ01  00002PRCP06
0198832880999992004030800004-13267-043417FM-12+0458SBLP V0201801N001512200019N0020001N1+02531+02321101261ADDAA106000091GF102991021011008001001001KA1240M+03051MA1999999096361MD1999999+0321REMSYN088AAXX  08004 83288 32595 21803 10253 20232 39636 40126 82100 333 10305 29081 55104 58032;EQDQ01  00002PRCP06
0186832880999992004030812004-13267-043417FM-12+0458SBLP V0201801N001512200019N0200001N1+02551+02041101511ADDAA106000091GF102991011001017501031041KA1240N+02021MA1999999096611MD1999999+0081REMSYN076AAXX  08124 83288 32798 21803 10255 20204 39661 40151 81034 333 20202 58008;EQDQ01  00002PRCP06
0167832880999992004030818004-13267-043417FM-12+0458SBLP V0201401N001510075019N0200001N1+02971+02021101111ADDAA106000091GF105991051021008001001001MA1999999096231MD1999999+0041REMSYN070AAXX  08184 83288 32598 51403 10297 20202 39623 40111 85200 333 58004;EQDQ01  00002PRCP06
0208832880999992004030900004-13267-043417FM-12+0458SBLP V0201401N001512200019N0020001N1+02431+02011101211ADDAA106000091GA1001+999999999GF100991001001999999001001KA1240M+03111MA1999999096321MD1999999-0041REMSYN082AAXX  09004 83288 32995 01403 10243 20201 39632 40121 333 10311 29071 55110 59004;EQDQ01  00002PRCP06
0186832880999992004030912004-13267-043417FM-12+0458SBLP V0201401N001512200019N0200001N1+02571+02081101561ADDAA106000091GF103991021011008001001041KA1240N+01981MA1999999096651MD1999999+0041REMSYN076AAXX  09124 83288 32598 31403 10257 20208 39665 40156 82104 333 20198 58004;EQDQ01  00002PRCP06
0167832880999992004030918004-13267-043417FM-12+0458SBLP V0201401N001010450019N0200001N1+02941+02161101141ADDAA106000091GF105991041021008001031021MA1999999096241MD1999999+0011REMSYN070AAXX  09184 83288 32598 51402 10294 20216 39624 40114 84232 333 58001;EQDQ01  00002PRCP06
0208832880999992004031000004-13267-043417FM-12+0458SBLP V0201401N000512200019N0020001N1+02551+02151101041ADDAA106000091GA1001+999999999GF100991001001999999001001KA1240M+02981MA1999999096231MD1999999-0091REMSYN082AAXX  10004 83288 32995 01401 10255 20215 39623 40104 333 10298 29072 55089 59009;EQDQ01  00002PRCP06
0186832880999992004031012004-13267-043417FM-12+0458SBLP V0201401N001012200019N0200001N1+02631+02241101521ADDAA106000091GF102991011011008001001051KA1240N+02241MA1999999096631MD1999999-0021REMSYN076AAXX  10124 83288 32598 21402 10263 20224 39663 40152 81105 333 20224 59002;EQDQ01  00002PRCP06
0167832880999992004031018004-13267-043417FM-12+0458SBLP V0202301N001510120019N0200001N1+02911+02441101261ADDAA106000091GF105991051081008001001001MA1999999096391MD1999999+0151REMSYN070AAXX  10184 83288 32598 52303 10291 20244 39639 40126 85800 333 58015;EQDQ01  00002PRCP06
0196832880999992004031112004-13267-043417FM-12+0458SBLP V0200901N001012200019N0200001N1+02791+02441101191ADDAA106000091GA1001+999999999GF100991001001999999001001KA1240N+02101MA1999999096331MD1999999-0301REMSYN070AAXX  11124 83288 32998 00902 10279 20244 39633 40119 333 20210 59030;EQDQ01  00002PRCP06
0167832880999992004031118004-13267-043417FM-12+0458SBLP V0201401N001512200019N0200001N1+03111+02291100841ADDAA106000091GF101991011021008001001001MA1999999095991MD1999999-0401REMSYN070AAXX  11184 83288 32598 11403 10311 20229 39599 40084 81200 333 59040;EQDQ01  00002PRCP06
0208832880999992004031200004-13267-043417FM-12+0458SBLP V0201401N000512200019N0020001N1+02531+02021100901ADDAA106000091GA1001+999999999GF100991001001999999001001KA1240M+03201MA1999999096051MD1999999-0321REMSYN082AAXX  12004 83288 32995 01401 10253 20202 39605 40090 333 10320 29070 55106 59032;EQDQ01  00002PRCP06
0186832880999992004031212004-13267-043417FM-12+0458SBLP V0201801N000512200019N0200001N1+02681+02071101111ADDAA106000091GF102991011011008001001021KA1240N+02081MA1999999096241MD1999999-0091REMSYN076AAXX  12124 83288 32598 21801 10268 20207 39624 40111 81102 333 20208 59009;EQDQ01  00002PRCP06
0167832880999992004031218004-13267-043417FM-12+0458SBLP V0202701N000512200019N0200001N1+03221+01731100651ADDAA106000091GF103991021011008001001021MA1999999095821MD1999999-0071REMSYN070AAXX  12184 83288 32598 32701 10322 20173 39582 40065 82102 333 59007;EQDQ01  00002PRCP06
0208832880999992004031300004-13267-043417FM-12+0458SBLP V0201801N000512200019N0020001N1+02731+02181100941ADDAA106000091GA1001+999999999GF100991001001999999001001KA1240M+03341MA1999999096111MD1999999+0061REMSYN082AAXX  13004 83288 32995 01801 10273 20218 39611 40094 333 10334 29061 55104 58006;EQDQ01  00002PRCP06
0218832880999992004031312004-13267-043417FM-12+0458SBLP V0201801N001012200019N0200001N1+02711+02311101091ADDAA106000091GF103991001001999999001021KA1240N+02081MA1999999999999MD1999999+0001REMSYN076AAXX  13124 83288 32998 31802 10271 20231 30962 40109 88002 333 20208 58000;EQDQ01+000082SCOTLCQ02  00002PRCP06Q03 099623APOSP 
0183832880999992004031318004-13267-043417FM-12+0458SBLP V0202301N001512200019N0200001N1+03191+02341100831ADDAA106000091GF104991041021008001001001MA1999999095982MD1999999+0161REMSYN070AAXX  13184 83288 32598 42303 10319 20234 39598 40083 84200 333 58016;EQDQ01+095983APOSP Q02  00002PRCP06
0198832880999992004031400004-13267-043417FM-12+0458SBLP V0200901N001012200019N0200001N1+02651+02341101021ADDAA106000091GF101991011011008001001001KA1240M+03291MA1999999096171MD1999999+0061REMSYN088AAXX  14004 83288 32598 10902 10265 20234 39617 40102 81100 333 10329 29074 55108 58006;EQDQ01  00002PRCP06
0186832880999992004031412004-13267-043417FM-12+0458SBLP V0201401N001012200019N0200001N1+02691+02251101271ADDAA106000091GF104991011011008001001021KA1240N+02221MA1999999096411MD1999999+0171REMSYN076AAXX  14124 83288 32598 41402 10269 20225 39641 40127 81102 333 20222 58017;EQDQ01  00002PRCP06
0167832880999992004031418004-13267-043417FM-12+0458SBLP V0201801N001512200019N0200001N1+03031+02471100911ADDAA106000091GF104991021021008001001051MA1999999096081MD1999999+0101REMSYN070AAXX  14184 83288 32598 41803 10303 20247 39608 40091 82205 333 58010;EQDQ01  00002PRCP06
0208832880999992004031500004-13267-043417FM-12+0458SBLP V0209999C000012200019N0020001N1+02551+00232101001ADDAA106000091GA1001+999999999GF100991001001999999001001KA1240M+03191MA1999999096141MD1999999-0031REMSYN082AAXX  15004 83288 32995 00000 10255 20023 39614 40100 333 10319 29079 55087 59003;EQDQ01  00002PRCP06
0186832880999992004031512004-13267-043417FM-12+0458SBLP V0202701N004110075019N0200001N1+02451+02271101101ADDAA106000091GF108991061051008001021999KA1240N+02241MA1999999096201MD1999999-0201REMSYN076AAXX  15124 83288 32598 82708 10245 20227 39620 40110 8652/ 333 20224 59020;EQDQ01  00002PRCP06
0167832880999992004031518004-13267-043417FM-12+0458SBLP V0202301N001510450019N0200001N1+02751+02341100711ADDAA106000091GF106991041051008001021001MA1999999095851MD1999999-0231REMSYN070AAXX  15184 83288 32598 62303 10275 20234 39585 40071 84520 333 59023;EQDQ01  00002PRCP06
0198832880999992004031600004-13267-043417FM-12+0458SBLP V0201801N001510450019N0020001N1+02511+02131100781ADDAA106000091GF106991041011008001021001KA1240M+02881MA1999999095941MD1999999-0201REMSYN088AAXX  16004 83288 32595 61803 10251 20213 39594 40078 84120 333 10288 29083 55008 59020;EQDQ01  00002PRCP06
0190832880999992004031612004-13267-043417FM-12+0458SBLP V0201801N001010450019N0040001N1+02231+02141101231ADDAY151061AY251061GF108991031081008001021999KA1240N+02141MA1999999096321MD1999999+0121MW1511REMSYN088AAXX  16124 83288 21596 81802 10223 20214 39632 40123 75155 8382/ 333 20214 58012 69974;
0171832880999992004031618004-13267-043417FM-12+0458SBLP V0201801N001010450019N0200001N1+02891+02551100591ADDAY161061AY261061GF107991041021008001051001MA1999999095751MD1999999-0101MW1021REMSYN082AAXX  16184 83288 21598 71802 10289 20255 39575 40059 70266 84250 333 59010 60021;
0198832880999992004031700004-13267-043417FM-12+0458SBLP V0201801N001510450019N0020001N1+02611+02471100841ADDAA106000091GF108991031081008001021999KA1240M+02951MA1999999095951MD1999999+0011REMSYN088AAXX  17004 83288 32595 81803 10261 20247 39595 40084 8382/ 333 10295 29090 55019 58001;EQDQ01  00002PRCP06
0190832880999992004031712004-13267-043417FM-12+0458SBLP V0203201N001010450019N0200001N1+02211+02171101111ADDAY161061AY261061GF108991041051008001021999KA1240N+02121MA1999999096201MD1999999-0121MW1651REMSYN088AAXX  17124 83288 21598 83202 10221 20217 39620 40111 76566 8452/ 333 20212 59012 60184;
0171832880999992004031718004-13267-043417FM-12+0458SBLP V0203201N002610450019N0200001N1+02431+02191100701ADDAY151061AY251061GF108991041081008001021999MA1999999095811MD1999999+0061MW1581REMSYN082AAXX  17184 83288 21598 83205 10243 20219 39581 40070 75855 8482/ 333 58006 69981;
0179832880999992004031800004-13267-043417FM-12+0458SBLP V0201401N001010150019N0020001N1+02371+02281100961ADDAA106000021GF108991081001017501011999KA1240M+02891MA1999999096041MD1999999+0091REMSYN088AAXX  18004 83288 32795 81402 10237 20228 39604 40096 8801/ 333 10289 29094 55012 58009;
0162832880999992004031812004-13267-043417FM-12+0458SBLP V0202701N000510450019N0200001N1+02501+02311100991ADDGF105991041051008001021001KA1240N+02181MA1999999096101MD1999999-0101REMSYN082AAXX  18124 83288 22598 52701 10250 20231 39610 40099 84520 333 20218 59010 60014;
0171832880999992004031818004-13267-043417FM-12+0458SBLP V0203601N001010450019N0200001N1+02471+02301100811ADDAY151061AY251061GF106991041051008001021001MA1999999095881MD1999999+0071MW1511REMSYN082AAXX  18184 83288 21598 63602 10247 20230 39588 40081 75155 84520 333 58007 69931;
0179832880999992004031900004-13267-043417FM-12+0458SBLP V0203601N001010075019N0020001N1+02441+02321100881ADDAA106000021GF108991061051008001021999KA1240M+02981MA1999999095991MD1999999-0051REMSYN088AAXX  19004 83288 32595 83602 10244 20232 39599 40088 8652/ 333 10298 29089 55010 59005;
0162832880999992004031912004-13267-043417FM-12+0458SBLP V0203601N001010120019N0200001N1+02431+02251101201ADDGF108991061081008001021999KA1240N+02201MA1999999096301MD1999999+0201REMSYN082AAXX  19124 83288 22598 83602 10243 20225 39630 40120 8682/ 333 20220 58020 60014;
0163832880999992004031918004-13267-043417FM-12+0458SBLP V0201401N001010120019N0200001N1+02551+02381100771ADDAY121061GF107991071081008001001001MA1999999095881MD1999999-0111MW1581REMSYN082AAXX  19184 83288 21598 71402 10255 20238 39588 40077 7582/ 87800 333 59011 69981;
0215832880999992004032000004-13267-043417FM-12+0458SBLP V0209999C000010450019N0020001N1+02271+02211101011ADDAY161061AY251061GF108991041051004501021999KA1240M+02231MA1999999096101MD1999999+0111REMSYN100AAXX  20004 83288 21495 80000 10227 20221 39610 40101 75665 8452/ 333 10223 29094 55013 58011 60021;EQDQ01+000562PRSWM1
0190832880999992004032012004-13267-043417FM-12+0458SBLP V0201401N000510075019N0200001N1+02331+02241101201ADDAY161061AY261061GF108991051051008001021999KA1240N+02121MA1999999096261MD1999999-0041MW1021REMSYN088AAXX  20124 83288 21598 81401 10233 20224 39626 40120 70266 8552/ 333 20212 59004 60224;
0184832880999992004032018004-13267-043417FM-12+0458SBLP V0200901N000510450019N0200001N1+02291+02161100911ADDAY161061AY261061GF108991041051008001021999MA1999999095971MD1999999-0091REMSYN082AAXX  20184 83288 21598 80901 10229 20216 39597 40091 75666 8452/ 333 59009 60221;EQDQ01+000562PRSWM1
0207832880999992004032100004-13267-043417FM-12+0458SBLP V0200901N001010450019N0020001N1+02291+02161101051ADDAY121061GF108991041051008001021999KA1240M+02411MA1999999096121MD1999999+0021REMSYN100AAXX  21004 83288 21595 80902 10229 20216 39612 40105 7562/ 8452/ 333 10241 29094 55000 58002 69961;EQDQ01+000562PRSWM1
0190832880999992004032112004-13267-043417FM-12+0458SBLP V0201401N000510075019N0200001N1+02371+02171101151ADDAY161061AY261061GF106991061051008001051001KA1240N+01941MA1999999096231MD1999999-0031MW1031REMSYN088AAXX  21124 83288 21598 61401 10237 20217 39623 40115 70366 86550 333 20194 59003 60214;
0186832880999992004032212004-13267-043417FM-12+0458SBLP V0201801N001012200019N0200001N1+02611+02451101031ADDAA106000091GF104991021011008001031001KA1240N+02181MA1999999096161MD1999999-0071REMSYN076AAXX  22124 83288 32598 41802 10261 20245 39616 40103 82130 333 20218 59007;EQDQ01  00002PRCP06
0167832880999992004032218004-13267-043417FM-12+0458SBLP V0203201N001511050019N0200001N1+03111+02571100631ADDAA106000091GF106991021021008001001081MA1999999095801MD1999999+0001REMSYN070AAXX  22184 83288 32598 63203 10311 20257 39580 40063 82208 333 58000;EQDQ01  00002PRCP06
0198832880999992004032300004-13267-043417FM-12+0458SBLP V0202301N001510450019N0020001N1+02611+02511100991ADDAA106000091GF108991041051008001021999KA1240M+03171MA1999999096131MD1999999+0081REMSYN088AAXX  23004 83288 32595 82303 10261 20251 39613 40099 8452/ 333 10317 29086 55082 58008;EQDQ01  00002PRCP06
0182832880999992004032312004-13267-043417FM-12+0458SBLP V0202701N001010042019N0200001N1+02211+02191101271ADDAY121061GF108991081061004501999999KA1240N+02161MA1999999096351MD1999999+0191MW1611REMSYN088AAXX  23124 83288 21498 82702 10221 20219 39635 40127 7612/ 886// 333 20216 58019 60114;
0171832880999992004032318004-13267-043417FM-12+0458SBLP V0202701N000510075019N0200001N1+02351+02311100961ADDAY151061AY251061GF108991051051008001021999MA1999999096021MD1999999+0221MW1611REMSYN082AAXX  23184 83288 21598 82701 10235 20231 39602 40096 76155 8552/ 333 58022 60021;
0202832880999992004032400004-13267-043417FM-12+0458SBLP V0209999C000010075019N0020001N1+02291+02271101021ADDAY151061AY251061GF108991051051008001021999KA1240M+02591MA1999999096081MD1999999-0051MW1021REMSYN100AAXX  24004 83288 21595 80000 10229 20227 39608 40102 70255 8552/ 333 10259 29098 55000 59005 69921;
0190832880999992004032412004-13267-043417FM-12+0458SBLP V0202701N000510075019N0200001N1+02221+02081101501ADDAY161061AY261061GF108991061051008001021999KA1240N+02111MA1999999096551MD1999999+0201MW1031REMSYN088AAXX  24124 83288 21598 82701 10222 20208 39655 40150 70366 8652/ 333 20211 58020 60184;
0162832880999992004032512004-13267-043417FM-12+0458SBLP V0201801N001012200019N0200001N1+02391+02291101241ADDGF104991011011008001041091KA1240N+02081MA1999999096301MD1999999-0251REMSYN082AAXX  25124 83288 22598 41802 10239 20229 39630 40124 81149 333 20208 59025 60024;
0167832880999992004032518004-13267-043417FM-12+0458SBLP V0201801N001510450019N0200001N1+02931+02511100781ADDAA106000091GF105991031021008001031001MA1999999095911MD1999999-0211REMSYN070AAXX  25184 83288 32598 51803 10293 20251 39591 40078 83230 333 59021;EQDQ01  00002PRCP06
0202832880999992004032600004-13267-043417FM-12+0458SBLP V0203601N001010450019N0020001N1+02291+02241101201ADDAY161061AY261061GF108991041051008001021999KA1240M+02951MA1999999096281MD1999999+0051MW1521REMSYN100AAXX  26004 83288 21595 83602 10229 20224 39628 40120 75266 8452/ 333 10295 29090 55071 58005 60011;
0190832880999992004032612004-13267-043417FM-12+0458SBLP V0202701N000510450019N0200001N1+02311+02271101331ADDAY161061AY261061GF108991041051008001021999KA1240N+02201MA1999999096391MD1999999-0091MW1511REMSYN088AAXX  26124 83288 21598 82701 10231 20227 39639 40133 75166 8452/ 333 20220 59009 60034;
0148832880999992004032618004-13267-043417FM-12+0458SBLP V0200901N001012200019N0200001N1+02871+02261100891ADDAA106000021GF103991031021008001001001MA1999999096011MD1999999+0101REMSYN070AAXX  26184 83288 32598 30902 10287 20226 39601 40089 83200 333 58010;
0198832880999992004032700004-13267-043417FM-12+0458SBLP V0200901N000510450019N0020001N1+02371+02191101041ADDAA106000091GF107991041041008001041001KA1240M+02891MA1999999096131MD1999999-0151REMSYN088AAXX  27004 83288 32595 70901 10237 20219 39613 40104 84440 333 10289 29086 55045 59015;EQDQ01  00002PRCP06
0186832880999992004032712004-13267-043417FM-12+0458SBLP V0201801N000510075019N0200001N1+02451+02031101141ADDAA106000091GF107991051011008001031041KA1240N+02061MA1999999096231MD1999999-0161REMSYN076AAXX  27124 83288 32598 71801 10245 20203 39623 40114 85134 333 20206 59016;EQDQ01  00002PRCP06
0167832880999992004032718004-13267-043417FM-12+0458SBLP V0201801N001010075019N0200001N1+02721+02171100881ADDAA106000091GF108991061051008001021999MA1999999095981MD1999999-0031REMSYN070AAXX  27184 83288 32598 81802 10272 20217 39598 40088 8652/ 333 59003;EQDQ01  00002PRCP06
0198832880999992004032800004-13267-043417FM-12+0458SBLP V0202301N001010450019N0020001N1+02461+02271100871ADDAA106000091GF106991041051008001021001KA1240M+02881MA1999999095981MD1999999-0151REMSYN088AAXX  28004 83288 32595 62302 10246 20227 39598 40087 84520 333 10288 29079 55022 59015;EQDQ01  00002PRCP06
0186832880999992004032812004-13267-043417FM-12+0458SBLP V0202301N000510450019N0200001N1+02291+02211101251ADDAA106000091GF108991031011008001071999KA1240N+01921MA1999999096341MD1999999+0111REMSYN076AAXX  28124 83288 32598 82301 10229 20221 39634 40125 8317/ 333 20192 58011;EQDQ01  00002PRCP06
0167832880999992004032818004-13267-043417FM-12+0458SBLP V0203601N001510450019N0200001N1+02911+02491100901ADDAA106000091GF105991031011008001051001MA1999999096031MD1999999+0051REMSYN070AAXX  28184 83288 32598 53603 10291 20249 39603 40090 83150 333 58005;EQDQ01  00002PRCP06
0198832880999992004032900004-13267-043417FM-12+0458SBLP V0201801N001012200019N0020001N1+02511+02411101041ADDAA106000091GF104991021011008001041001KA1240M+03011MA1999999096141MD1999999+0161REMSYN088AAXX  29004 83288 32595 41802 10251 20241 39614 40104 82140 333 10301 29089 55050 58016;EQDQ01  00002PRCP06
0186832880999992004032912004-13267-043417FM-12+0458SBLP V0200901N001011050019N0200001N1+02611+02211101351ADDAA106000091GF105991021041008001031011KA1240N+02181MA1999999096461MD1999999+0121REMSYN076AAXX  29124 83288 32598 50902 10261 20221 39646 40135 82431 333 20218 58012;EQDQ01  00002PRCP06
0167832880999992004032918004-13267-043417FM-12+0458SBLP V0202701N000512200019N0200001N1+03131+02301100941ADDAA106000091GF103991021021008001001021MA1999999096091MD1999999+0061REMSYN070AAXX  29184 83288 32598 32701 10313 20230 39609 40094 82202 333 58006;EQDQ01  00002PRCP06
0198832880999992004033000004-13267-043417FM-12+0458SBLP V0201801N001012200019N0020001N1+02511+02191101131ADDAA106000091GF101991001001999999001021KA1240M+03151MA1999999096251MD1999999+0111REMSYN088AAXX  30004 83288 32995 11802 10251 20219 39625 40113 80002 333 10315 29076 55071 58011;EQDQ01  00002PRCP06
0186832880999992004033012004-13267-043417FM-12+0458SBLP V0201401N001010450019N0200001N1+02651+02201101371ADDAA106000091GF105991031011008001021021KA1240N+02231MA1999999096491MD1999999+0031REMSYN076AAXX  30124 83288 32598 51402 10265 20220 39649 40137 83122 333 20223 58003;EQDQ01  00002PRCP06
0167832880999992004033018004-13267-043417FM-12+0458SBLP V0202301N001012200019N0200001N1+03051+02181101001ADDAA106000091GF103991021021008001001021MA1999999096141MD1999999+0051REMSYN070AAXX  30184 83288 32598 32302 10305 20218 39614 40100 82202 333 58005;EQDQ01  00002PRCP06
0198832880999992004033100004-13267-043417FM-12+0458SBLP V0201801N001510450019N0020001N1+02741+02101101081ADDAA106000091GF106991041021008001031001KA1240M+03111MA1999999096241MD1999999-0011REMSYN088AAXX  31004 83288 32595 61803 10274 20210 39624 40108 84230 333 10311 29068 55097 59001;EQDQ01  00002PRCP06
0186832880999992004033112004-13267-043417FM-12+0458SBLP V0201801N001512200019N0200001N1+02551+02261101411ADDAA106000091GF103991011011008001031021KA1240N+02161MA1999999096521MD1999999+0031REMSYN076AAXX  31124 83288 32598 31803 10255 20226 39652 40141 81132 333 20216 58003;EQDQ01  00002PRCP06
0167832880999992004033118004-13267-043417FM-12+0458SBLP V0203201N000512200019N0200001N1+03141+02161100901ADDAA106000091GF104991031021008001001021MA1999999096041MD1999999-0101REMSYN070AAXX  31184 83288 32598 43201 10314 20216 39604 40090 83202 333 59010;EQDQ01  00002PRCP06
0198832880999992004040100004-13267-043417FM-12+0458SBLP V0201801N002110075019N0020001N1+02431+02241101361ADDAA106000091GF108991051051008001011999KA1240M+03231MA1999999096461MD1999999+0221REMSYN088AAXX  01004 83288 32595 81804 10243 20224 39646 40136 8551/ 333 10323 29076 55094 58022;EQDQ01  00002PRCP06
0162832880999992004040112004-13267-043417FM-12+0458SBLP V0202301N001010450019N0200001N1+02231+02101101511ADDGF106991021041008001031081KA1240N+01961MA1999999096571MD1999999+0051REMSYN082AAXX  01124 83288 22598 62302 10223 20210 39657 40151 82438 333 20196 58005 60034;
0167832880999992004040118004-13267-043417FM-12+0458SBLP V0202301N001012200019N0200001N1+03051+02361100981ADDAA106000091GF102991011021008001001021MA1999999096121MD1999999+0081REMSYN070AAXX  01184 83288 32598 22302 10305 20236 39612 40098 81202 333 58008;EQDQ01  00002PRCP06
0183832880999992004040218004-13267-043417FM-12+0458SBLP V0202301N001019999999N0200001N1+03171+02051100891ADDAA106000091GF105991999021008001001001MA1999999096051MD1999999-0071REMSYN070AAXX  02184 83288 32598 52302 10317 20205 39605 40089 83200 333 59007;EQDQ01+000032SCOTLCQ02  00002PRCP06
0208832880999992004040300004-13267-043417FM-12+0458SBLP V0201401N000512200019N0020001N1+02551+02271100861ADDAA106000091GA1001+999999999GF100991001001999999001001KA1240M+03181MA1999999096031MD1999999-0281REMSYN082AAXX  03004 83288 32595 01401 10255 20227 39603 40086 333 10318 29067 55106 59028;EQDQ01  00002PRCP06
0186832880999992004040512004-13267-043417FM-12+0458SBLP V0201401N001512200019N0200001N1+02661+02051101281ADDAA106000091GF102991011011008001001041KA1240N+02161MA1999999096401MD1999999-0151REMSYN076AAXX  05124 83288 32598 21403 10266 20205 39640 40128 81104 333 20216 59015;EQDQ01  00002PRCP06
0167832880999992004040518004-13267-043417FM-12+0458SBLP V0203201N000511050019N0200001N1+03151+02131100961ADDAA106000091GF105991031021008001001021MA1999999096121MD1999999-0041REMSYN070AAXX  05184 83288 32598 53201 10315 20213 39612 40096 83202 333 59004;EQDQ01  00002PRCP06
0186832880999992004040612004-13267-043417FM-12+0458SBLP V0201801N001012200019N0200001N1+02551+02341101281ADDAA106000091GF103991011011008001031091KA1240N+02061MA1999999096401MD1999999+0001REMSYN076AAXX  06124 83288 32598 31802 10255 20234 39640 40128 81139 333 20206 58000;EQDQ01  00002PRCP06
0167832880999992004040618004-13267-043417FM-12+0458SBLP V0202301N001512200019N0200001N1+03211+02441100951ADDAA106000091GF103991021021008001001051MA1999999096101MD1999999-0021REMSYN070AAXX  06184 83288 32598 32303 10321 20244 39610 40095 82205 333 59002;EQDQ01  00002PRCP06
0198832880999992004040700004-13267-043417FM-12+0458SBLP V0201401N001012200019N0020001N1+02551+02351101141ADDAA106000091GF102991011011008001041001KA1240M+03271MA1999999096261MD1999999+0181REMSYN088AAXX  07004 83288 32595 21402 10255 20235 39626 40114 81140 333 10327 29080 55108 58018;EQDQ01  00002PRCP06
0186832880999992004040712004-13267-043417FM-12+0458SBLP V0201801N002112200019N0200001N1+02611+02231101181ADDAA106000091GF105991021001017501031081KA1240N+02241MA1999999096311MD1999999-0091REMSYN076AAXX  07124 83288 32798 51804 10261 20223 39631 40118 82038 333 20224 59009;EQDQ01  00002PRCP06
0167832880999992004040718004-13267-043417FM-12+0458SBLP V0203201N001512200019N0200001N1+03151+02381100751ADDAA106000091GF104991021021008001031021MA1999999095921MD1999999-0181REMSYN070AAXX  07184 83288 32598 43203 10315 20238 39592 40075 82232 333 59018;EQDQ01  00002PRCP06
0198832880999992004040800004-13267-043417FM-12+0458SBLP V0200901N000511050019N0020001N1+02591+02311100991ADDAA106000091GF108991031001017501011071KA1240M+03191MA1999999096131MD1999999-0131REMSYN088AAXX  08004 83288 32795 80901 10259 20231 39613 40099 83017 333 10319 29078 55074 59013;EQDQ01  00002PRCP06
0186832880999992004040812004-13267-043417FM-12+0458SBLP V0201401N000510450019N0200001N1+02451+02231101301ADDAA106000091GF106991041051008001031001KA1240N+02131MA1999999096401MD1999999-0091REMSYN076AAXX  08124 83288 32598 61401 10245 20223 39640 40130 84530 333 20213 59009;EQDQ01  00002PRCP06
0167832880999992004040818004-13267-043417FM-12+0458SBLP V0202301N001010120019N0200001N1+03021+02311100881ADDAA106000091GF108991061081008001021999MA1999999096041MD1999999+0121REMSYN070AAXX  08184 83288 32598 82302 10302 20231 39604 40088 8682/ 333 58012;EQDQ01  00002PRCP06
0208832880999992004040900004-13267-043417FM-12+0458SBLP V0201801N000512200019N0020001N1+02281+02091101161ADDAA106000091GA1001+999999999GF100991001001999999001001KA1240M+03081MA1999999096241MD1999999+0111REMSYN082AAXX  09004 83288 32995 01801 10228 20209 39624 40116 333 10308 29080 55037 58011;EQDQ01  00002PRCP06
0186832880999992004040912004-13267-043417FM-12+0458SBLP V0200901N001012200019N0200001N1+02681+02351101331ADDAA106000091GF101991011011008001001001KA1240N+02081MA1999999096431MD1999999+0031REMSYN076AAXX  09124 83288 32598 10902 10268 20235 39643 40133 81100 333 20208 58003;EQDQ01  00002PRCP06
0167832880999992004040918004-13267-043417FM-12+0458SBLP V0203201N001012200019N0200001N1+03221+02481100861ADDAA106000091GF104991041021008001001001MA1999999096001MD1999999-0041REMSYN070AAXX  09184 83288 32598 43202 10322 20248 39600 40086 84200 333 59004;EQDQ01  00002PRCP06
0198832880999992004041000004-13267-043417FM-12+0458SBLP V0201801N001512200019N0020001N1+02551+02391100961ADDAA106000091GF103991031021008001001001KA1240M+03311MA1999999096101MD1999999-0141REMSYN088AAXX  10004 83288 32595 31803 10255 20239 39610 40096 83200 333 10331 29079 55095 59014;EQDQ01  00002PRCP06
0186832880999992004041012004-13267-043417FM-12+0458SBLP V0200501N000512200019N0200001N1+02731+02191101001ADDAA106000091GF102991001001999999001011KA1240N+02121MA1999999096151MD1999999-0281REMSYN076AAXX  10124 83288 32998 20501 10273 20219 39615 40100 80001 333 20212 59028;EQDQ01  00002PRCP06
0167832880999992004041018004-13267-043417FM-12+0458SBLP V0203601N000511050019N0200001N1+03171+02331100521ADDAA106000091GF105991031021008001001021MA1999999095701MD1999999-0301REMSYN070AAXX  10184 83288 32598 53601 10317 20233 39570 40052 83202 333 59030;EQDQ01  00002PRCP06
0208832880999992004041100004-13267-043417FM-12+0458SBLP V0201801N001012200019N0020001N1+02631+02421100651ADDAA106000091GA1001+999999999GF100991001001999999001001KA1240M+03211MA1999999095821MD1999999-0281REMSYN082AAXX  11004 83288 32995 01802 10263 20242 39582 40065 333 10321 29075 55080 59028;EQDQ01  00002PRCP06
0186832880999992004041112004-13267-043417FM-12+0458SBLP V0201801N001510450019N0200001N1+02451+02191100921ADDAA106000091GF105991031051008001021001KA1240N+02191MA1999999096051MD1999999-0101REMSYN076AAXX  11124 83288 32598 51803 10245 20219 39605 40092 83520 333 20219 59010;EQDQ01  00002PRCP06
0167832880999992004041118004-13267-043417FM-12+0458SBLP V0201401N001010450019N0200001N1+03131+02081100471ADDAA106000091GF106991041021008001031021MA1999999095641MD1999999-0061REMSYN070AAXX  11184 83288 32598 61402 10313 20208 39564 40047 84232 333 59006;EQDQ01  00002PRCP06
0198832880999992004041200004-13267-043417FM-12+0458SBLP V0202701N000510450019N0020001N1+02671+02161100491ADDAA106000091GF105991031051008001021001KA1240M+03141MA1999999095851MD1999999-0031REMSYN088AAXX  12004 83288 32595 52701 10267 20216 39585 40049 83520 333 10314 29071 55032 59003;EQDQ01  00002PRCP06
0186832880999992004041212004-13267-043417FM-12+0458SBLP V0201801N001012200019N0200001N1+02591+02341101231ADDAA106000091GF102991011011008001001021KA1240N+02181MA1999999096351MD1999999+0301REMSYN076AAXX  12124 83288 32598 21802 10259 20234 39635 40123 81102 333 20218 58030;EQDQ01  00002PRCP06
0167832880999992004041218004-13267-043417FM-12+0458SBLP V0200901N001012200019N0200001N1+03211+02331100591ADDAA106000091GF104991021021008001031051MA1999999095771MD1999999+0131REMSYN070AAXX  12184 83288 32598 40902 10321 20233 39577 40059 82235 333 58013;EQDQ01  00002PRCP06
0198832880999992004041300004-13267-043417FM-12+0458SBLP V0201801N001512200019N0020001N1+02711+02381100931ADDAA106000091GF104991001001999999001051KA1240M+03311MA1999999096081MD1999999+0231REMSYN088AAXX  13004 83288 32995 41803 10271 20238 39608 40093 80005 333 10331 29076 55087 58023;EQDQ01  00002PRCP06
0186832880999992004041312004-13267-043417FM-12+0458SBLP V0201801N001019999999N0200001N1+02671+02261101171ADDAA106000091GF105991001001999999001061KA1240N+02281MA1999999096321MD1999999-0031REMSYN076AAXX  13124 83288 32998 51802 10267 20226 39632 40117 80006 333 20228 59003;EQDQ01  00002PRCP06
0167832880999992004041318004-13267-043417FM-12+0458SBLP V0201401N001010450019N0200001N1+02811+02381101001ADDAA106000091GF107991021021008001021061MA1999999096141MD1999999+0371REMSYN070AAXX  13184 83288 32598 71402 10281 20238 39614 40100 82226 333 58037;EQDQ01  00002PRCP06
0198832880999992004041400004-13267-043417FM-12+0458SBLP V0201801N001010450019N0020001N1+02371+02191101221ADDAA106000091GF108991041051008001021999KA1240M+02971MA1999999096331MD1999999+0251REMSYN088AAXX  14004 83288 32595 81802 10237 20219 39633 40122 8452/ 333 10297 29084 55019 58025;EQDQ01  00002PRCP06
0186832880999992004041412004-13267-043417FM-12+0458SBLP V0201401N000512200019N0200001N1+02691+02181101361ADDAA106000091GF103991021011008001031021KA1240N+02021MA1999999096471MD1999999+0151REMSYN076AAXX  14124 83288 32598 31401 10269 20218 39647 40136 82132 333 20202 58015;EQDQ01  00002PRCP06
0167832880999992004041418004-13267-043417FM-12+0458SBLP V0201801N001010450019N0200001N1+03091+02441100991ADDAA106000091GF105991041021008001021021MA1999999096141MD1999999+0001REMSYN070AAXX  14184 83288 32598 51802 10309 20244 39614 40099 84222 333 58000;EQDQ01  00002PRCP06
0214832880999992004041500004-13267-043417FM-12+0458SBLP V0201801N001512200019N0200001N1+02551+02111101051ADDAA106000091GF102991999011008001001001KA1240M+03171MA1999999096181MD1999999-0151REMSYN088AAXX  15004 83288 32598 21803 10255 20211 39618 40105 81100 333 10317 29071 55082 59015;EQDQ01+000012SCOTLCQ02  00002PRCP06
0186832880999992004041512004-13267-043417FM-12+0458SBLP V0201401N001512200019N0200001N1+02631+02171101281ADDAA106000091GF102991011011008001001021KA1240N+02101MA1999999096401MD1999999-0071REMSYN076AAXX  15124 83288 32598 21403 10263 20217 39640 40128 81102 333 20210 59007;EQDQ01  00002PRCP06
0167832880999992004041518004-13267-043417FM-12+0458SBLP V0201801N001512200019N0200001N1+03051+02371100881ADDAA106000091GF104991021021008001001051MA1999999096021MD1999999-0121REMSYN070AAXX  15184 83288 32598 41803 10305 20237 39602 40088 82205 333 59012;EQDQ01  00002PRCP06
0198832880999992004041600004-13267-043417FM-12+0458SBLP V0201801N001512200019N0020001N1+02411+02121101141ADDAA106000091GF103991031021008001001001KA1240M+03171MA1999999096251MD1999999+0071REMSYN088AAXX  16004 83288 32595 31803 10241 20212 39625 40114 83200 333 10317 29075 55098 58007;EQDQ01  00002PRCP06
0186832880999992004041612004-13267-043417FM-12+0458SBLP V0200901N000511050019N0200001N1+02451+02151101451ADDAA106000091GF107991011011008001001061KA1240N+02121MA1999999096541MD1999999+0141REMSYN076AAXX  16124 83288 32598 70901 10245 20215 39654 40145 81106 333 20212 58014;EQDQ01  00002PRCP06
0167832880999992004041618004-13267-043417FM-12+0458SBLP V0202301N000510450019N0200001N1+02821+02171101121ADDAA106000091GF107991011011008001031061MA1999999096231MD1999999+0111REMSYN070AAXX  16184 83288 32598 72301 10282 20217 39623 40112 81136 333 58011;EQDQ01  00002PRCP06
0198832880999992004041700004-13267-043417FM-12+0458SBLP V0201801N001512200019N0020001N1+02371+02111101291ADDAA106000091GF102991001001999999001011KA1240M+03031MA1999999096371MD1999999+0121REMSYN088AAXX  17004 83288 32995 21803 10237 20211 39637 40129 80001 333 10303 29081 55038 58012;EQDQ01  00002PRCP06
0186832880999992004041712004-13267-043417FM-12+0458SBLP V0201801N001010075019N0200001N1+02351+02051101681ADDAA106000091GF106991051051008001031021KA1240N+02061MA1999999096731MD1999999+0191REMSYN076AAXX  17124 83288 32598 61802 10235 20205 39673 40168 85532 333 20206 58019;EQDQ01  00002PRCP06
0167832880999992004041718004-13267-043417FM-12+0458SBLP V0201801N001510450019N0200001N1+02871+02031101261ADDAA106000091GF105991041021008001021001MA1999999096361MD1999999+0101REMSYN070AAXX  17184 83288 32598 51803 10287 20203 39636 40126 84220 333 58010;EQDQ01  00002PRCP06
0208832880999992004041800004-13267-043417FM-12+0458SBLP V0201801N001512200019N0020001N1+02321+02151101321ADDAA106000091GA1001+999999999GF100991001001999999001001KA1240M+02981MA1999999096441MD1999999+0071REMSYN082AAXX  18004 83288 32595 01803 10232 20215 39644 40132 333 10298 29078 55044 58007;EQDQ01  00002PRCP06
0186832880999992004041812004-13267-043417FM-12+0458SBLP V0200901N001012200019N0200001N1+02611+02221101561ADDAA106000091GF104991011011008001061051KA1240N+02001MA1999999096641MD1999999-0091REMSYN076AAXX  18124 83288 32598 40902 10261 20222 39664 40156 81165 333 20200 59009;EQDQ01  00002PRCP06
0167832880999992004041818004-13267-043417FM-12+0458SBLP V0201801N001511050019N0200001N1+03051+02421101091ADDAA106000091GF105991031021008001001051MA1999999096201MD1999999-0161REMSYN070AAXX  18184 83288 32598 51803 10305 20242 39620 40109 83205 333 59016;EQDQ01  00002PRCP06
0208832880999992004041900004-13267-043417FM-12+0458SBLP V0201801N001012200019N0020001N1+02491+02241101281ADDAA106000091GA1001+999999999GF100991001001999999001001KA1240M+03111MA1999999096391MD1999999-0051REMSYN082AAXX  19004 83288 32995 01802 10249 20224 39639 40128 333 10311 29078 55090 59005;EQDQ01  00002PRCP06
0186832880999992004041912004-13267-043417FM-12+0458SBLP V0201401N001512200019N0200001N1+02631+02141101451ADDAA106000091GF101991001001999999001041KA1240N+02101MA1999999096441MD1999999-0091REMSYN076AAXX  19124 83288 32998 11403 10263 20214 39644 40145 80004 333 20210 59009;EQDQ01  00002PRCP06
0167832880999992004041918004-13267-043417FM-12+0458SBLP V0202701N001012200019N0200001N1+03051+02091100981ADDAA106000091GF102991021021008001001001MA1999999096091MD1999999-0111REMSYN070AAXX  19184 83288 32598 22702 10305 20209 39609 40098 82200 333 59011;EQDQ01  00002PRCP06
0196832880999992004042012004-13267-043417FM-12+0458SBLP V0201401N001512200019N0200001N1+02571+02061101291ADDAA106000091GA1001+999999999GF100991001001999999001001KA1240N+02041MA1999999096401MD1999999-0151REMSYN070AAXX  20124 83288 32998 01403 10257 20206 39640 40129 333 20204 59015;EQDQ01  00002PRCP06
0183832880999992004042018004-13267-043417FM-12+0458SBLP V0201401N000519999999N0200001N1+03171+02171100871ADDAA106000091GF105991999021008001001001MA1999999096031MD1999999-0061REMSYN070AAXX  20184 83288 32598 51401 10317 20217 39603 40087 84200 333 59006;EQDQ01+000042SCOTLCQ02  00002PRCP06
0208832880999992004042100004-13267-043417FM-12+0458SBLP V0201801N001012200019N0020001N1+02641+02001100891ADDAA106000091GA1001+999999999GF100991001001999999001001KA1240M+03231MA1999999096031MD1999999-0121REMSYN082AAXX  21004 83288 32595 01802 10264 20200 39603 40089 333 10323 29067 55108 59012;EQDQ01  00002PRCP06
0186832880999992004042112004-13267-043417FM-12+0458SBLP V0201401N001512200019N0200001N1+02651+02171101361ADDAA106000091GF101991011011008001001001KA1240N+02101MA1999999096491MD1999999+0091REMSYN076AAXX  21124 83288 32598 11403 10265 20217 39649 40136 81100 333 20210 58009;EQDQ01  00002PRCP06
0167832880999992004042118004-13267-043417FM-12+0458SBLP V0201801N001010075019N0200001N1+03051+02321101061ADDAA106000091GF105991051021008001001001MA1999999096191MD1999999+0161REMSYN070AAXX  21184 83288 32598 51802 10305 20232 39619 40106 85200 333 58016;EQDQ01  00002PRCP06
0208832880999992004042200004-13267-043417FM-12+0458SBLP V0201801N001512200019N0020001N1+02421+02141101181ADDAA106000091GA1001+999999999GF100991001001999999001001KA1240M+03131MA1999999096301MD1999999+0271REMSYN082AAXX  22004 83288 32995 01803 10242 20214 39630 40118 333 10313 29075 55095 58027;EQDQ01  00002PRCP06
0183832880999992004042212004-13267-043417FM-12+0458SBLP V0201801N001512200019N0200001N1+02511+01981101381ADDAA106000091GA1001+999999999GF100991001001999999001001MA1999999096481MD1999999-0011REMSYN070AAXX  22124 83288 32998 01803 10251 20198 39648 40138 333 2//// 59001;EQDQ01  00002PRCP06
0167832880999992004042218004-13267-043417FM-12+0458SBLP V0201401N001512200019N0200001N1+03091+02401100911ADDAA106000091GF104991041021008001001001MA1999999096041MD1999999-0151REMSYN070AAXX  22184 83288 32598 41403 10309 20240 39604 40091 84200 333 59015;EQDQ01  00002PRCP06
0198832880999992004042300004-13267-043417FM-12+0458SBLP V0201801N001512200019N0020001N1+02411+02181101011ADDAA106000091GF102991021011008001001001KA1240M+03131MA1999999096121MD1999999-0281REMSYN088AAXX  23004 83288 32595 21803 10241 20218 39612 40101 82100 333 10313 29076 55108 59028;EQDQ01  00002PRCP06
0186832880999992004042312004-13267-043417FM-12+0458SBLP V0201401N001012200019N0200001N1+02531+02051101301ADDAA106000091GF102991011011008001001021KA1240N+02041MA1999999096391MD1999999-0351REMSYN076AAXX  23124 83288 32598 21402 10253 20205 39639 40130 81102 333 20204 59035;EQDQ01  00002PRCP06
0167832880999992004042318004-13267-043417FM-12+0458SBLP V0201401N002112200019N0200001N1+03011+02431100821ADDAA106000091GF103991031021008001001001MA1999999095961MD1999999-0081REMSYN070AAXX  23184 83288 32598 31404 10301 20243 39596 40082 83200 333 59008;EQDQ01  00002PRCP06
0208832880999992004042400004-13267-043417FM-12+0458SBLP V0201801N001012200019N0200001N1+02631+02011100781ADDAA106000091GA1001+999999999GF100991001001999999001001KA1240M+03081MA1999999095931MD1999999-0191REMSYN082AAXX  24004 83288 32598 01802 10263 20201 39593 40078 333 10308 29072 55092 59019;EQDQ01  00002PRCP06
0196832880999992004042412004-13267-043417FM-12+0458SBLP V0201801N001012200019N0200001N1+02511+02171101041ADDAA106000091GA1001+999999999GF100991001001999999001001KA1240N+01981MA1999999096171MD1999999-0221REMSYN070AAXX  24124 83288 32998 01802 10251 20217 39617 40104 333 20198 59022;EQDQ01  00002PRCP06
0167832880999992004042418004-13267-043417FM-12+0458SBLP V0202701N001512200019N0200001N1+03071+02371101691ADDAA106000091GF103991031011008001001001MA1999999095841MD1999999-0121REMSYN070AAXX  24184 83288 32598 32703 10307 20237 39584 40169 83100 333 59012;EQDQ01  00002PRCP06
0208832880999992004042500004-13267-043417FM-12+0458SBLP V0201801N001012200019N0020001N1+02671+01801100771ADDAA106000091GA1001+999999999GF100991001001999999001001KA1240M+03131MA1999999095921MD1999999-0011REMSYN082AAXX  25004 83288 32995 01802 10267 20180 39592 40077 333 10313 29071 55104 59001;EQDQ01  00002PRCP06
0196832880999992004042512004-13267-043417FM-12+0458SBLP V0202301N000512200019N0200001N1+02531+01961101171ADDAA106000091GA1001+999999999GF100991001001999999001001KA1240N+01821MA1999999096301MD1999999+0131REMSYN070AAXX  25124 83288 32998 02301 10253 20196 39630 40117 333 20182 58013;EQDQ01  00002PRCP06
0167832880999992004042518004-13267-043417FM-12+0458SBLP V0203601N000512200019N0200001N1+03211+01711100901ADDAA106000091GF104991041021008001001001MA1999999096041MD1999999+0201REMSYN070AAXX  25184 83288 32598 43601 10321 20171 39604 40090 84200 333 58020;EQDQ01  00002PRCP06
0208832880999992004042600004-13267-043417FM-12+0458SBLP V0200901N001012200019N0020001N1+02451+01901101001ADDAA106000091GA1001+999999999GF100991001001999999001001KA1240M+03311MA1999999096121MD1999999+0201REMSYN082AAXX  26004 83288 32995 00902 10245 20190 39612 40100 333 10331 29064 55104 58020;EQDQ01  00002PRCP06
0196832880999992004042612004-13267-043417FM-12+0458SBLP V0201401N000512200019N0200001N1+02551+01981101151ADDAA106000091GA1001+999999999GF100991001001999999001001KA1240N+01881MA1999999096481MD1999999-0181REMSYN070AAXX  26124 83288 32998 01401 10255 20198 39648 40115 333 20188 59018;EQDQ01  00002PRCP06
0167832880999992004042618004-13267-043417FM-12+0458SBLP V0201801N001512200019N0200001N1+03211+01751100871ADDAA106000091GF104991001001999999001051MA1999999096011MD1999999-0031REMSYN070AAXX  26184 83288 32998 41803 10321 20175 39601 40087 80005 333 59003;EQDQ01  00002PRCP06
0208832880999992004042700004-13267-043417FM-12+0458SBLP V0201801N000512200019N0020001N1+02531+01791101001ADDAA106000091GA1001+999999999GF100991001001999999001001KA1240M+03291MA1999999096121MD1999999+0001REMSYN082AAXX  27004 83288 32995 01801 10253 20179 39612 40100 333 10329 29058 55099 58000;EQDQ01  00002PRCP06
0186832880999992004042712004-13267-043417FM-12+0458SBLP V0201801N001512200019N0200001N1+02551+02121101411ADDAA106000091GF102991001001999999001021KA1240N+02041MA1999999096521MD1999999+0211REMSYN076AAXX  27124 83288 32998 21803 10255 20212 39652 40141 80002 333 20204 58021;EQDQ01  00002PRCP06
0167832880999992004042718004-13267-043417FM-12+0458SBLP V0202301N001012200019N0200001N1+03111+02371101071ADDAA106000091GF103991031011004501001001MA1999999096221MD1999999+0211REMSYN070AAXX  27184 83288 32498 32302 10311 20237 39622 40107 83100 333 58021;EQDQ01  00002PRCP06
0198832880999992004042800004-13267-043417FM-12+0458SBLP V0201801N001512200019N0020001N1+02451+01981101361ADDAA106000091GF101991011011008001001001KA1240M+03151MA1999999096461MD1999999+0341REMSYN088AAXX  28004 83288 32595 11803 10245 20198 39646 40136 81100 333 10315 29072 55104 58034;EQDQ01  00002PRCP06
0186832880999992004042812004-13267-043417FM-12+0458SBLP V0202301N002112200019N0200001N1+02491+02051101601ADDAA106000091GF101991001001999999001021KA1240N+01981MA1999999096681MD1999999+0161REMSYN076AAXX  28124 83288 32998 12304 10249 20205 39668 40160 80002 333 20198 58016;EQDQ01  00002PRCP06
0167832880999992004042818004-13267-043417FM-12+0458SBLP V0201401N001512200019N0200001N1+03091+02211101091ADDAA106000091GF104991031021008001001011MA1999999096231MD1999999+0011REMSYN070AAXX  28184 83288 32598 41403 10309 20221 39623 40109 83201 333 58001;EQDQ01  00002PRCP06
0202832880999992004042900004-13267-043417FM-12+0458SBLP V0201401N001512200019N0020001N1+02331+02051101421ADDAY161061AY261061GF102991021011999999001001KA1240M+03141MA1999999096501MD1999999+0041MW1011REMSYN100AAXX  29004 83288 21995 21403 10233 20205 39650 40142 70166 82100 333 10314 29076 55089 58004 60011;
0162832880999992004042912004-13267-043417FM-12+0458SBLP V0201801N001512200019N0200001N1+02281+02161101581ADDGF103991021011008001001021KA1240N+01981MA1999999096381MD1999999+0151REMSYN082AAXX  29124 83288 22598 31803 10228 20216 39638 40158 82102 333 20198 58015 60014;
0183832880999992004042918004-13267-043417FM-12+0458SBLP V0201401N001010075019N0200001N1+02951+02081101341ADDAA106000091GF106991999021008001001001MA1999999096461MD1999999+0231REMSYN070AAXX  29184 83288 32598 61402 10295 20208 39646 40134 85200 333 58023;EQDQ01+000052SCOTLCQ02  00002PRCP06
0198832880999992004043000004-13267-043417FM-12+0458SBLP V0201401N001510450019N0020001N1+02351+01761101431ADDAA106000091GF106991041081008001021001KA1240M+02981MA1999999096481MD1999999-0021REMSYN088AAXX  30004 83288 32595 61403 10235 20176 39648 40143 84820 333 10298 29072 55090 59002;EQDQ01  00002PRCP06
0196832880999992004043012004-13267-043417FM-12+0458SBLP V0201801N001012200019N0200001N1+02391+01911101521ADDAA106000091GA1001+999999999GF100991001001999999001001KA1240N+01841MA1999999096581MD1999999-0131REMSYN070AAXX  30124 83288 32998 01802 10239 20191 39658 40152 333 20184 59013;EQDQ01  00002PRCP06
0167832880999992004043018004-13267-043417FM-12+0458SBLP V0201401N001012200019N0200001N1+02971+02021100931ADDAA106000091GF102991021021008001001041MA1999999096061MD1999999-0401REMSYN070AAXX  30184 83288 32598 21402 10297 20202 39606 40093 82204 333 59040;EQDQ01  00002PRCP06
0198832880999992004050100004-13267-043417FM-12+0458SBLP V0200901N000512200019N0020001N1+02391+01951101191ADDAA106000091GF102991021081008001001001KA1240M+03081MA1999999096281MD1999999-0201REMSYN088AAXX  01004 83288 32595 20901 10239 20195 39628 40119 82800 333 10308 29071 55105 59020;EQDQ01  00002PRCP06
0196832880999992004050112004-13267-043417FM-12+0458SBLP V0201401N000512200019N0200001N1+02491+01981101291ADDAA106000091GA1001+999999999GF100991001001999999001001KA1240N+01861MA1999999096381MD1999999-0201REMSYN070AAXX  01124 83288 32998 01401 10249 20198 39638 40129 333 20186 59020;EQDQ01  00002PRCP06
0167832880999992004050118004-13267-043417FM-12+0458SBLP V0201401N001012200019N0200001N1+03131+02191100751ADDAA106000091GF103991031021008001001001MA1999999095911MD1999999-0151REMSYN070AAXX  01184 83288 32598 31402 10313 20219 39591 40075 83200 333 59015;EQDQ01  00002PRCP06
0198832880999992004050200004-13267-043417FM-12+0458SBLP V0200901N000512200019N0020001N1+02551+02041101121ADDAA106000091GF101991011021008001001001KA1240M+03191MA1999999096231MD1999999-0051REMSYN088AAXX  02004 83288 32595 10901 10255 20204 39623 40112 81200 333 10319 29070 55103 59005;EQDQ01  00002PRCP06
0196832880999992004050212004-13267-043417FM-12+0458SBLP V0201801N000512200019N0200001N1+02551+02041101471ADDAA106000091GA1001+999999999GF100991001001999999001001KA1240N+02041MA1999999096571MD1999999+0191REMSYN070AAXX  02124 83288 32998 01801 10255 20204 39657 40147 333 20204 58019;EQDQ01  00002PRCP06
0183832880999992004050218004-13267-043417FM-12+0458SBLP V0201401N000519999999N0200001N1+03141+02101100971ADDAA106000091GF105991999021008001001001MA1999999096141MD1999999+0231REMSYN070AAXX  02184 83288 32598 51401 10314 20210 39614 40097 84200 333 58023;EQDQ01+000042SCOTLCQ02  00002PRCP06
0171832880999992004050312004-13267-043417FM-12+0458SBLP V0201801N001512200019N0200001N1+02611+02201101471ADDAA106000091GF101991011011008001001001KA1240N+02021MA1999999096581REMSYN075AAXX  03124 83288 32598 11803 10261 20220 39658 40147 81100 333 20202 5801;EQDQ01  00002PRCP06
0078832880999992004050318004-13267-043417FM-12+0458SBLP V02099999999999999999N9999999N1+99999+99999999999REMSYN069AAXX  03184 83288 32598 3104 10301 20217 39623 40110 83100 333 58009;
0208832880999992004050400004-13267-043417FM-12+0458SBLP V0201801N001512200019N0020001N1+02251+01931101301ADDAA106000091GA1001+999999999GF100991001001999999001001KA1240M+03111MA1999999096381MD1999999+0161REMSYN082AAXX  04004 83288 32995 01803 10225 20193 39638 40130 333 10311 29074 55091 58016;EQDQ01  00002PRCP06
0186832880999992004050412004-13267-043417FM-12+0458SBLP V0201801N003111050019N0200001N1+02551+02041101601ADDAA106000091GF105991021081008001061081KA1240N+01781MA1999999096671MD1999999+0091REMSYN076AAXX  04124 83288 32598 51806 10255 20204 39667 40160 82868 333 20178 58009;EQDQ01  00002PRCP06
0208832880999992004050500004-13267-043417FM-12+0458SBLP V0201801N002112200019N0020001N1+02371+01891101281ADDAA106000091GA1001+999999999GF100991001001999999001001KA1240M+03001MA1999999096371MD1999999-0011REMSYN082AAXX  05004 83288 32995 01804 10237 20189 39637 40128 333 10300 29071 55075 59001;EQDQ01  00002PRCP06
0186832880999992004050512004-13267-043417FM-12+0458SBLP V0201801N001512200019N0200001N1+02451+01881101801ADDAA106000091GF105991041011008001001011KA1240N+01921MA1999999096861MD1999999+0191REMSYN076AAXX  05124 83288 32598 51803 10245 20188 39686 40180 84101 333 20192 58019;EQDQ01  00002PRCP06
0167832880999992004050518004-13267-043417FM-12+0458SBLP V0201401N001010450019N0200001N1+02951+02051101161ADDAA106000091GF106991031081008001021001MA1999999096271MD1999999+0041REMSYN070AAXX  05184 83288 32598 61402 10295 20205 39627 40116 83820 333 58004;EQDQ01  00002PRCP06
0198832880999992004050600004-13267-043417FM-12+0458SBLP V0201401N001010450019N0020001N1+02921+02021101191ADDAA106000091GF105991031011008001021001KA1240M+03051MA1999999096511MD1999999-0141REMSYN088AAXX  06004 83288 32595 51402 10292 20202 39651 40119 83120 333 10305 29063 55071 59014;EQDQ01  00002PRCP06
0186832880999992004050612004-13267-043417FM-12+0458SBLP V0200901N001012200019N0200001N1+02531+02141101581ADDAA106000091GF101991011011008001001001KA1240N+01191MA1999999096671MD1999999-0191REMSYN076AAXX  06124 83288 32598 10902 10253 20214 39667 40158 81100 333 20119 59019;EQDQ01  00002PRCP06
0167832880999992004050618004-13267-043417FM-12+0458SBLP V0201801N002112200019N0200001N1+03111+02181101131ADDAA106000091GF103991031011008001001001MA1999999096251MD1999999-0021REMSYN070AAXX  06184 83288 32598 31804 10311 20218 39625 40113 83100 333 59002;EQDQ01  00002PRCP06
0198832880999992004050700004-13267-043417FM-12+0458SBLP V0201801N001012200019N0020001N1+02431+01961101341ADDAA106000091GF102991021011008001001001KA1240M+03191MA1999999096441MD1999999+0331REMSYN088AAXX  07004 83288 32595 21802 10243 20196 39644 40134 82100 333 10319 29071 55100 58033;EQDQ01  00002PRCP06
0186832880999992004050712004-13267-043417FM-12+0458SBLP V0201401N001512200019N0200001N1+02571+02151101571ADDAA106000091GF101991001001999999001011KA1240N+01941MA1999999096661MD1999999-0011REMSYN076AAXX  07124 83288 32998 11403 10257 20215 39666 40157 80001 333 20194 59001;EQDQ01  00002PRCP06
0167832880999992004050718004-13267-043417FM-12+0458SBLP V0200501N001012200019N0200001N1+03131+02021101111ADDAA106000091GF101991011011008001001001MA1999999096231MD1999999-0021REMSYN070AAXX  07184 83288 32598 10502 10313 20202 39623 40111 81100 333 59002;EQDQ01  00002PRCP06
0208832880999992004050800004-13267-043417FM-12+0458SBLP V0201801N001512200019N0020001N1+02471+02231101341ADDAA106000091GA1001+999999999GF100991001001999999001001KA1240M+03191MA1999999096441MD1999999+0001REMSYN082AAXX  08004 83288 32995 01803 10247 20223 39644 40134 333 10319 29074 55087 58000;EQDQ01  00002PRCP06
0196832880999992004050812004-13267-043417FM-12+0458SBLP V0200901N001012200019N0200001N1+02651+02091101481ADDAA106000091GA1001+999999999GF100991001001999999001001KA1240N+02061MA1999999096601MD1999999-0061REMSYN070AAXX  08124 83288 32998 00902 10265 20209 39660 40148 333 20206 59006;EQDQ01  00002PRCP06
0167832880999992004050818004-13267-043417FM-12+0458SBLP V0201801N000512200019N0200001N1+03171+01891101121ADDAA106000091GF105991031011008001001041MA1999999096241MD1999999+0011REMSYN070AAXX  08184 83288 32598 51801 10317 20189 39624 40112 83104 333 58001;EQDQ01  00002PRCP06
0208832880999992004050900004-13267-043417FM-12+0458SBLP V0201801N001512200019N0020001N1+02551+01881101201ADDAA106000091GA1001+999999999GF100991001001999999001001KA1240M+03251MA1999999096331MD1999999-0111REMSYN082AAXX  09004 83288 32595 01803 10255 20188 39633 40120 333 10325 29061 55100 59011;EQDQ01  00002PRCP06
0186832880999992004050912004-13267-043417FM-12+0458SBLP V0202701N001019999999N0200001N1+02291+01951101361ADDAA106000091GF105991001001999999001081KA1240N+01841MA1999999096441MD1999999-0161REMSYN076AAXX  09124 83288 32998 52702 10229 20195 39644 40136 80008 333 20184 59016;EQDQ01  00002PRCP06
0167832880999992004050918004-13267-043417FM-12+0458SBLP V0201801N001012200019N0200001N1+03211+01971100891ADDAA106000091GF105991011011008001001081MA1999999096031MD1999999-0011REMSYN070AAXX  09184 83288 32598 51802 10321 20197 39603 40089 81108 333 59001;EQDQ01  00002PRCP06
0208832880999992004051000004-13267-043417FM-12+0458SBLP V0209999C000012200019N0200001N1+02411+02121101191ADDAA106000091GA1001+999999999GF100991001001999999001001KA1240M+03251MA1999999096271MD1999999-0061REMSYN082AAXX  10004 83288 32998 00000 10241 20212 39627 40119 333 10325 29071 55067 59006;EQDQ01  00002PRCP06
0186832880999992004051012004-13267-043417FM-12+0458SBLP V0203201N000512200019N0200001N1+02531+02091101331ADDAA106000091GF101991001001999999001011KA1240N+01861MA1999999096421MD1999999-0021REMSYN076AAXX  10124 83288 32998 13201 10253 20209 39642 40133 80001 333 20186 59002;EQDQ01  00002PRCP06
0167832880999992004051018004-13267-043417FM-12+0458SBLP V0201801N001512200019N0200001N1+03361+02141100861ADDAA106000091GF102991011021008001001011MA1999999096021MD1999999-0031REMSYN070AAXX  10184 83288 32598 21803 10336 20214 39602 40086 81201 333 59003;EQDQ01  00002PRCP06
0208832880999992004051100004-13267-043417FM-12+0458SBLP V0201401N001512200019N0020001N1+02551+01901101181ADDAA106000091GA1001+999999999GF100991001001999999001001KA1240M+03391MA1999999096301MD1999999+0031REMSYN082AAXX  11004 83288 32995 01403 10255 20190 39630 40118 333 10339 29065 55104 58003;EQDQ01  00002PRCP06
0186832880999992004051112004-13267-043417FM-12+0458SBLP V0201401N000512200019N0200001N1+02641+01901101431ADDAA106000091GF103991001001999999001021KA1240N+01961MA1999999096541MD1999999+0121REMSYN076AAXX  11124 83288 32998 31401 10264 20190 39654 40143 80002 333 20196 58012;EQDQ01  00002PRCP06
0167832880999992004051118004-13267-043417FM-12+0458SBLP V0201401N001511050019N0200001N1+03341+01801100871ADDAA106000091GF105991041021008001001021MA1999999096041MD1999999+0021REMSYN070AAXX  11184 83288 32598 51403 10334 20180 39604 40087 84202 333 58002;EQDQ01  00002PRCP06
0208832880999992004051200004-13267-043417FM-12+0458SBLP V0201801N001012200019N0020001N1+02471+01781101031ADDAA106000091GA1001+999999999GF100991001001999999001001KA1240M+03291MA1999999096141MD1999999-0161REMSYN082AAXX  12004 83288 32995 01802 10247 20178 39614 40103 333 10329 29057 55103 59016;EQDQ01  00002PRCP06
0186832880999992004051212004-13267-043417FM-12+0458SBLP V0201801N001012200019N0200001N1+02581+02111101541ADDAA106000091GF102991001001999999001051KA1240N+01921MA1999999096631MD1999999-0091REMSYN076AAXX  12124 83288 32998 21802 10258 20211 39663 40154 80005 333 20192 59009;EQDQ01  00002PRCP06
0167832880999992004051218004-13267-043417FM-12+0458SBLP V0201801N001012200019N0200001N1+03191+02201100941ADDAA106000091GF102991021011008001001001MA1999999096081MD1999999-0041REMSYN070AAXX  12184 83288 32598 21802 10319 20220 39608 40094 82100 333 59004;EQDQ01  00002PRCP06
0186832880999992004051312004-13267-043417FM-12+0458SBLP V0200901N001012200019N0200001N1+02611+02081101311ADDAA106000091GF102991001001999999001051KA1240N+01921MA1999999096431MD1999999-0201REMSYN076AAXX  13124 83288 32998 20902 10261 20208 39643 40131 80005 333 20192 59020;EQDQ01  00002PRCP06
0167832880999992004051318004-13267-043417FM-12+0458SBLP V0202301N001512200019N0200001N1+03151+02071100851ADDAA106000091GF104991011021008001001021MA1999999096001MD1999999-0081REMSYN070AAXX  13184 83288 32598 42303 10315 20207 39600 40085 81202 333 59008;EQDQ01  00002PRCP06
0208832880999992004051400004-13267-043417FM-12+0458SBLP V0200901N000512200019N0020001N1+02521+02071101111ADDAA106000091GA1001+999999999GF100991001001999999001001KA1240M+03251MA1999999096231MD1999999-0021REMSYN082AAXX  14004 83288 32995 00901 10252 20207 39623 40111 333 10325 29070 55095 59002;EQDQ01  00002PRCP06
0186832880999992004051412004-13267-043417FM-12+0458SBLP V0200901N000512200019N0200001N1+02531+02021101181ADDAA106000091GF103991021011008001001021KA1240N+02111MA1999999096291MD1999999-0141REMSYN076AAXX  14124 83288 32598 30901 10253 20202 39629 40118 82102 333 20211 59014;EQDQ01  00002PRCP06
0183832880999992004051418004-13267-043417FM-12+0458SBLP V0202701N000512200019N0200001N1+03271+01981100661ADDAA106000091GF104991999021008001001001MA1999999095841MD1999999-0161REMSYN070AAXX  14184 83288 32598 42701 10327 20198 39584 40066 83200 333 59016;EQDQ01+000032SCOTLCQ02  00002PRCP06
0208832880999992004051500004-13267-043417FM-12+0458SBLP V0201801N000512200019N0020001N1+02671+01851100801ADDAA106000091GA1001+999999999GF100991001001999999001001KA1240M+03351MA1999999095941MD1999999-0291REMSYN082AAXX  15004 83288 32995 01801 10267 20185 39594 40080 333 10335 29065 55090 59029;EQDQ01  00002PRCP06
0196832880999992004051512004-13267-043417FM-12+0458SBLP V0202701N000512200019N0200001N1+02591+02131101171ADDAA106000091GA1001+999999999GF100991001001999999001001KA1240N+02061MA1999999096301MD1999999+0011REMSYN070AAXX  15124 83288 32998 02701 10259 20213 39630 40117 333 20206 58001;EQDQ01  00002PRCP06
0167832880999992004051518004-13267-043417FM-12+0458SBLP V0200901N001012200019N0200001N1+03301+02451100681ADDAA106000091GF103991021021008001001081MA1999999095861MD1999999+0021REMSYN070AAXX  15184 83288 32598 30902 10330 20245 39586 40068 82208 333 58002;EQDQ01  00002PRCP06
0208832880999992004051600004-13267-043417FM-12+0458SBLP V0209999C000012200019N0020001N1+02611+02221100771ADDAA106000091GA1001+999999999GF100991001001999999001001KA1240M+03371MA1999999095921MD1999999-0021REMSYN082AAXX  16004 83288 32995 00000 10261 20222 39592 40077 333 10337 29072 55100 59002;EQDQ01  00002PRCP06
0186832880999992004051612004-13267-043417FM-12+0458SBLP V0202301N001012200019N0200001N1+02551+02111101251ADDAA106000091GF103991001001999999001021KA1240N+02061MA1999999096371MD1999999+0071REMSYN076AAXX  16124 83288 32998 32302 10255 20211 39637 40125 80002 333 20206 58007;EQDQ01  00002PRCP06
0167832880999992004051618004-13267-043417FM-12+0458SBLP V0202301N001011050019N0200001N1+03221+02291100791ADDAA106000091GF106991011021008001001051MA1999999095951MD1999999+0091REMSYN070AAXX  16184 83288 32598 62302 10322 20229 39595 40079 81205 333 58009;EQDQ01  00002PRCP06
0198832880999992004051700004-13267-043417FM-12+0458SBLP V0201801N001012200019N0020001N1+02591+02041101051ADDAA106000091GF101991001001999999001011KA1240M+03291MA1999999096171MD1999999+0251REMSYN088AAXX  17004 83288 32995 11802 10259 20204 39617 40105 80001 333 10329 29070 55075 58025;EQDQ01  00002PRCP06
0186832880999992004051712004-13267-043417FM-12+0458SBLP V0201801N000510450019N0200001N1+02531+02001101311ADDAA106000091GF105991031011008001021041KA1240N+02051MA1999999096461MD1999999+0091REMSYN076AAXX  17124 83288 32598 51801 10253 20200 39646 40131 83124 333 20205 58009;EQDQ01  00002PRCP06
0167832880999992004051718004-13267-043417FM-12+0458SBLP V0201801N001010450019N0200001N1+03171+02101100981ADDAA106000091GF106991041021008001021041MA1999999096151MD1999999+0201REMSYN070AAXX  17184 83288 32598 61802 10317 20210 39615 40098 84224 333 58020;EQDQ01  00002PRCP06
0208832880999992004051800004-13267-043417FM-12+0458SBLP V0201801N001512200019N0020001N1+02451+01781101131ADDAA106000091GA1001+999999999GF100991001001999999001001KA1240M+03231MA1999999096241MD1999999+0071REMSYN082AAXX  18004 83288 32995 01803 10245 20178 39624 40113 333 10323 29063 55070 58007;EQDQ01  00002PRCP06
0186832880999992004051812004-13267-043417FM-12+0458SBLP V0200901N001011050019N0200001N1+02531+01521101521ADDAA106000091GF105991011011008001031081KA1240N+02081MA1999999096611MD1999999+0151REMSYN076AAXX  18124 83288 32598 50902 10253 20152 39661 40152 81138 333 20208 58015;EQDQ01  00002PRCP06
0167832880999992004051818004-13267-043417FM-12+0458SBLP V0201801N001512200019N0200001N1+03011+02251101001ADDAA106000091GF105991031021008001001041MA1999999096141MD1999999-0011REMSYN070AAXX  18184 83288 32598 51803 10301 20225 39614 40100 83204 333 59001;EQDQ01  00002PRCP06
0198832880999992004051900004-13267-043417FM-12+0458SBLP V0201401N001012200019N0020001N1+02351+02161101361ADDAA106000091GF102991021011008001001001KA1240M+03151MA1999999096451MD1999999+0211REMSYN088AAXX  19004 83288 32595 21402 10235 20216 39645 40136 82100 333 10315 29076 55084 58021;EQDQ01  00002PRCP06
0186832880999992004051912004-13267-043417FM-12+0458SBLP V0202301N001012200019N0200001N1+02511+02071101771ADDAA106000091GF102991021001017501031001KA1240N+01941MA1999999096841MD1999999+0231REMSYN076AAXX  19124 83288 32798 22302 10251 20207 39684 40177 82030 333 20194 58023;EQDQ01  00002PRCP06
0167832880999992004051918004-13267-043417FM-12+0458SBLP V0201801N001012200019N0200001N1+03111+02001101311ADDAA106000091GF104991031021008001041001MA1999999096431MD1999999+0291REMSYN070AAXX  19184 83288 32598 41802 10311 20200 39643 40131 83240 333 58029;EQDQ01  00002PRCP06
0198832880999992004052000004-13267-043417FM-12+0458SBLP V0201401N001512200019N0020001N1+02511+01941101531ADDAA106000091GF102991021011999999001001KA1240M+03191MA1999999096621MD1999999+0171REMSYN088AAXX  20004 83288 32995 21403 10251 20194 39662 40153 82100 333 10319 29066 55089 58017;EQDQ01  00002PRCP06
0196832880999992004052012004-13267-043417FM-12+0458SBLP V0201801N001012200019N0200001N1+02541+01951101821ADDAA106000091GA1001+999999999GF100991001001999999001001KA1240N+01991MA1999999096901MD1999999+0061REMSYN070AAXX  20124 83288 32998 01802 10254 20195 39690 40182 333 20199 58006;EQDQ01  00002PRCP06
0167832880999992004052018004-13267-043417FM-12+0458SBLP V0201401N001512200019N0200001N1+03141+01871101211ADDAA106000091GF102991011011008001001041MA1999999096611MD1999999-0081REMSYN070AAXX  20184 83288 32598 21403 10314 20187 39661 40121 81104 333 59008;EQDQ01  00002PRCP06
0208832880999992004052100004-13267-043417FM-12+0458SBLP V0201801N001512200019N0020001N1+02351+01641101401ADDAA106000091GA1001+999999999GF100991001001999999001001KA1240M+03241MA1999999096491MD1999999-0131REMSYN082AAXX  21004 83288 32995 01803 10235 20164 39649 40140 333 10324 29061 55104 59013;EQDQ01  00002PRCP06
0186832880999992004052112004-13267-043417FM-12+0458SBLP V0201401N000512200019N0200001N1+02491+02041101721ADDAA106000091GF102991021011008001001001KA1240N+01901MA1999999096781MD1999999-0121REMSYN076AAXX  21124 83288 32598 21401 10249 20204 39678 40172 82100 333 20190 59012;EQDQ01  00002PRCP06
0167832880999992004052118004-13267-043417FM-12+0458SBLP V0201401N002110075019N0200001N1+02971+01941101281ADDAA106000091GF105991051021008001001001MA1999999096371MD1999999+0021REMSYN070AAXX  21184 83288 32598 51404 10297 20194 39637 40128 85200 333 58002;EQDQ01  00002PRCP06
0208832880999992004052200004-13267-043417FM-12+0458SBLP V0201401N001512200019N0020001N1+02301+01901101381ADDAA106000091GA1001+999999999GF100991001001999999001001KA1240M+03051MA1999999096461MD1999999-0031REMSYN082AAXX  22004 83288 32995 01403 10230 20190 39646 40138 333 10305 29070 55095 59003;EQDQ01  00002PRCP06
0196832880999992004052212004-13267-043417FM-12+0458SBLP V0201801N002612200019N0200001N1+02431+01911101651ADDAA106000091GA1001+999999999GF100991001001999999001001KA1240N+01841MA1999999096701MD1999999-0081REMSYN070AAXX  22124 83288 32598 01805 10243 20191 39670 40165 333 20184 59008;EQDQ01  00002PRCP06
0167832880999992004052218004-13267-043417FM-12+0458SBLP V0201401N003110120019N0200001N1+02891+02001101311ADDAA106000091GF106991061081008001001001MA1999999096401MD1999999+0031REMSYN070AAXX  22184 83288 32598 61406 10289 20200 39640 40131 86800 333 58003;EQDQ01  00002PRCP06
0208832880999992004052300004-13267-043417FM-12+0458SBLP V0201401N002112200019N0020001N1+02231+01781101501ADDAA106000091GA1001+999999999GF100991001001999999001001KA1240M+02931MA1999999096561MD1999999+0101REMSYN082AAXX  23004 83288 32595 01404 10223 20178 39656 40150 333 10293 29070 55087 58010;EQDQ01  00002PRCP06
0186832880999992004052312004-13267-043417FM-12+0458SBLP V0201801N001510450019N0200001N1+02381+01821101881ADDAA106000091GF105991031011008001031021KA1240N+02001MA1999999096941MD1999999-0241REMSYN076AAXX  23124 83288 32598 51803 10238 20182 39694 40188 83132 333 20200 59024;EQDQ01  00002PRCP06
0167832880999992004052318004-13267-043417FM-12+0458SBLP V0201401N001010450019N0200001N1+02791+01981101491ADDAA106000091GF106991041051008001021001MA1999999096561MD1999999+0161REMSYN070AAXX  23184 83288 32598 61402 10279 20198 39656 40149 84520 333 58016;EQDQ01  00002PRCP06
0198832880999992004052400004-13267-043417FM-12+0458SBLP V0201801N001512200019N0200001N1+02371+01761101641ADDAA106000091GF104991031051008001021001KA1240M+02871MA1999999096691MD1999999+0131REMSYN088AAXX  24004 83288 32598 41803 10237 20176 39669 40164 83520 333 10287 29067 55032 58013;EQDQ01  00002PRCP06
0186832880999992004052412004-13267-043417FM-12+0458SBLP V0201401N001512200019N0200001N1+02391+02041101831ADDAA106000091GF102991021011008001001001KA1240N+01621MA1999999096891MD1999999-0051REMSYN076AAXX  24124 83288 32598 21403 10239 20204 39689 40183 82100 333 20162 59005;EQDQ01  00002PRCP06
0167832880999992004052418004-13267-043417FM-12+0458SBLP V0201801N001512200019N0200001N1+02851+02101101331ADDAA106000091GF102991021011008001001001MA1999999096431MD1999999-0131REMSYN070AAXX  24184 83288 32598 21803 10285 20210 39643 40133 82100 333 59013;EQDQ01  00002PRCP06
0198832880999992004052500004-13267-043417FM-12+0458SBLP V0201801N001510120019N0020001N1+02411+02061101521ADDAA106000091GF108991081081008001999999KA1240M+02891MA1999999096591MD1999999-0101REMSYN088AAXX  25004 83288 32595 81803 10241 20206 39659 40152 888// 333 10289 29075 55070 59010;EQDQ01  00002PRCP06
0186832880999992004052512004-13267-043417FM-12+0458SBLP V0202301N000512200019N0200001N1+02491+01981101661ADDAA106000091GF104991021081008001041001KA1240N+01921MA1999999096741MD1999999-0151REMSYN076AAXX  25124 83288 32598 42301 10249 20198 39674 40166 82840 333 20192 59015;EQDQ01  00002PRCP06
0167832880999992004052518004-13267-043417FM-12+0458SBLP V0201401N000512200019N0200001N1+02991+02171101131ADDAA106000091GF103991031021008001001001MA1999999096251MD1999999-0181REMSYN070AAXX  25184 83288 32598 31401 10299 20217 39625 40113 83200 333 59018;EQDQ01  00002PRCP06
0208832880999992004052600004-13267-043417FM-12+0458SBLP V0200901N000512200019N0020001N1+02351+01951101341ADDAA106000091GA1001+999999999GF100991001001999999001001KA1240M+03051MA1999999096411MD1999999-0181REMSYN082AAXX  26004 83288 32995 00901 10235 20195 39641 40134 333 10305 29073 55065 59018;EQDQ01  00002PRCP06
0196832880999992004052612004-13267-043417FM-12+0458SBLP V0202301N000512200019N0200001N1+02511+01981101521ADDAA106000091GA1001+999999999GF100991001001999999001001KA1240N+01941MA1999999096601MD1999999+0251REMSYN070AAXX  26124 83288 32998 02301 10251 20198 39660 40152 333 20194 58025;EQDQ01  00002PRCP06
0167832880999992004052618004-13267-043417FM-12+0458SBLP V0201801N000512200019N0200001N1+03241+01961101181ADDAA106000091GF102991011011008001001021MA1999999096331MD1999999+0081REMSYN070AAXX  26184 83288 32598 21801 10324 20196 39633 40118 81102 333 58008;EQDQ01  00002PRCP06
0208832880999992004052700004-13267-043417FM-12+0458SBLP V0209999C000012200019N0020001N1+02571+01851101121ADDAA106000091GA1001+999999999GF100991001001999999001001KA1240M+03321MA1999999096241MD1999999-0171REMSYN082AAXX  27004 83288 32995 00000 10257 20185 39624 40112 333 10332 29062 55102 59017;EQDQ01  00002PRCP06
0186832880999992004052712004-13267-043417FM-12+0458SBLP V0201401N001512200019N0200001N1+02531+02141101431ADDAA106000091GF102991001001999999001041KA1240N+01881MA1999999096541MD1999999-0061REMSYN076AAXX  27124 83288 32998 21403 10253 20214 39654 40143 80004 333 20188 59006;EQDQ01  00002PRCP06
0167832880999992004052718004-13267-043417FM-12+0458SBLP V0202301N001512200019N0200001N1+03301+02271100981ADDAA106000091GF102991011021008001001041MA1999999096141MD1999999-0191REMSYN070AAXX  27184 83288 32598 22303 10330 20227 39614 40098 81204 333 59019;EQDQ01  00002PRCP06
0214832880999992004052800004-13267-043417FM-12+0458SBLP V0201401N001512200019N0020001N1+02491+02111101271ADDAA106000091GF102991999011008001001001KA1240M+03351MA1999999096371MD1999999+0131REMSYN088AAXX  28004 83288 32595 21403 10249 20211 39637 40127 81100 333 10335 29071 55102 58013;EQDQ01+000012SCOTLCQ02  00002PRCP06
0196832880999992004052812004-13267-043417FM-12+0458SBLP V0201801N000512200019N0200001N1+02551+02121101591ADDAA106000091GA1001+999999999GF100991001001999999001001KA1240N+01941MA1999999096681MD1999999+0141REMSYN070AAXX  28124 83288 32998 01801 10255 20212 39668 40159 333 20194 58014;EQDQ01  00002PRCP06
0167832880999992004052818004-13267-043417FM-12+0458SBLP V0201401N001512200019N0200001N1+03151+02231101141ADDAA106000091GF104991041021008001001001MA1999999096271MD1999999+0131REMSYN070AAXX  28184 83288 32598 41403 10315 20223 39627 40114 84200 333 58013;EQDQ01  00002PRCP06
0208832880999992004052900004-13267-043417FM-12+0458SBLP V0201401N001012200019N0020001N1+02431+01791101271ADDAA106000091GA1001+999999999GF100991001001999999001001KA1240M+03331MA1999999096361MD1999999-0011REMSYN082AAXX  29004 83288 32995 01402 10243 20179 39636 40127 333 10333 29067 55083 59001;EQDQ01  00002PRCP06
0196832880999992004052912004-13267-043417FM-12+0458SBLP V0201401N000512200019N0200001N1+02471+01901101811ADDAA106000091GA1001+999999999GF100991001001999999001001KA1240N+02081MA1999999096881MD1999999+0201REMSYN070AAXX  29124 83288 32998 01401 10247 20190 39688 40181 333 20208 58020;EQDQ01  00002PRCP06
0167832880999992004052918004-13267-043417FM-12+0458SBLP V0201801N001510075019N0200001N1+02851+01731101381ADDAA106000091GF106991061021008001001001MA1999999096471MD1999999+0201REMSYN070AAXX  29184 83288 32598 61803 10285 20173 39647 40138 86200 333 58020;EQDQ01  00002PRCP06
0208832880999992004053000004-13267-043417FM-12+0458SBLP V0201401N001012200019N0020001N1+02291+01701101631ADDAA106000091GA1001+999999999GF100991001001999999001001KA1240M+02951MA1999999096681MD1999999+0321REMSYN082AAXX  30004 83288 32595 01402 10229 20170 39668 40163 333 10295 29064 55073 58032;EQDQ01  00002PRCP06
0186832880999992004053012004-13267-043417FM-12+0458SBLP V0201801N001512200019N0200001N1+02471+01971101781ADDAA106000091GF101991011011008001001001KA1240N+01761MA1999999096841MD1999999-0041REMSYN076AAXX  30124 83288 32598 11803 10247 20197 39684 40178 81100 333 20176 59004;EQDQ01  00002PRCP06
0167832880999992004053018004-13267-043417FM-12+0458SBLP V0201401N001510120019N0200001N1+02931+02211101331ADDAA106000091GF107991051081008001001021MA1999999096411MD1999999-0061REMSYN070AAXX  30184 83288 32598 71403 10293 20221 39641 40133 85802 333 59006;EQDQ01  00002PRCP06
0198832880999992004053100004-13267-043417FM-12+0458SBLP V0201801N001512200019N0020001N1+02381+01931101431ADDAA106000091GF103991011011008001001051KA1240M+02971MA1999999096511MD1999999-0171REMSYN088AAXX  31004 83288 32595 31803 10238 20193 39651 40143 81105 333 10297 29072 55058 59017;EQDQ01  00002PRCP06
0186832880999992004053112004-13267-043417FM-12+0458SBLP V0202301N001012200019N0200001N1+02411+01891101721ADDAA106000091GF101991001001999999001041KA1240N+01861MA1999999096781MD1999999-0061REMSYN076AAXX  31124 83288 32998 12302 10241 20189 39678 40172 80004 333 20186 59006;EQDQ01  00002PRCP06
0167832880999992004053118004-13267-043417FM-12+0458SBLP V0201801N001010075019N0200001N1+02951+01991101251ADDAA106000091GF105991051021008001001001MA1999999096341MD1999999-0071REMSYN070AAXX  31184 83288 32598 51802 10295 20199 39634 40125 85200 333 59007;EQDQ01  00002PRCP06
0198832880999992004060100004-13267-043417FM-12+0458SBLP V0200901N001510120019N0020001N1+02351+01871101421ADDAA106000091GF106991061081008001001001KA1240M+03091MA1999999096501MD1999999-0011REMSYN088AAXX  01004 83288 32595 60903 10235 20187 39650 40142 86800 333 10309 29069 55081 59001;EQDQ01  00002PRCP06
0186832880999992004060112004-13267-043417FM-12+0458SBLP V0200901N000512200019N0200001N1+02491+01751101651ADDAA106000091GF103991021011008001001041KA1240N+01891MA1999999096721MD1999999-0061REMSYN076AAXX  01124 83288 32598 30901 10249 20175 39672 40165 82104 333 20189 59006;EQDQ01  00002PRCP06
0167832880999992004060118004-13267-043417FM-12+0458SBLP V0202301N001012200019N0200001N1+03071+01531101331ADDAA106000091GF106991041021008001001041MA1999999096431MD1999999+0091REMSYN070AAXX  01184 83288 32598 62302 10307 20153 39643 40133 84204 333 58009;EQDQ01  00002PRCP06
0198832880999992004060200004-13267-043417FM-12+0458SBLP V0201401N001012200019N0020001N1+02371+01561101361ADDAA106000091GF103991021011999999001041KA1240M+03151MA1999999096451MD1999999-0051REMSYN088AAXX  02004 83288 32995 31402 10237 20156 39645 40136 82104 333 10315 29055 55093 59005;EQDQ01  00002PRCP06
0196832880999992004060212004-13267-043417FM-12+0458SBLP V0201801N001512200019N0200001N1+02391+01881101701ADDAA106000091GA1001+999999999GF100991001001999999001001KA1240N+01741MA1999999096761MD1999999+0041REMSYN070AAXX  02124 83288 32998 01803 10239 20188 39676 40170 333 20174 58004;EQDQ01  00002PRCP06
0167832880999992004060218004-13267-043417FM-12+0458SBLP V0201801N001512200019N0200001N1+03091+02171101231ADDAA106000091GF102991021011008001001001MA1999999096331MD1999999-0101REMSYN070AAXX  02184 83288 32598 21803 10309 20217 39633 40123 82100 333 59010;EQDQ01  00002PRCP06
0198832880999992004060300004-13267-043417FM-12+0458SBLP V0200901N000512200019N0020001N1+02331+01941101511ADDAA106000091GF104991011081008001031001KA1240M+03171MA1999999096561MD1999999+0111REMSYN088AAXX  03004 83288 32595 40901 10233 20194 39656 40151 81830 333 10317 29070 55103 58011;EQDQ01  00002PRCP06
0196832880999992004060312004-13267-043417FM-12+0458SBLP V0202301N000512200019N0200001N1+02371+01911101691ADDAA106000091GA1001+999999999GF100991001001999999001001KA1240N+01781MA1999999096741MD1999999-0021REMSYN070AAXX  03124 83288 32998 02301 10237 20191 39674 40169 333 20178 59002;EQDQ01  00002PRCP06
0167832880999992004060318004-13267-043417FM-12+0458SBLP V0202301N002111050019N0200001N1+03011+02291101211ADDAA106000091GF106991021021008001001051MA1999999096321MD1999999-0011REMSYN070AAXX  03184 83288 32598 62304 10301 20229 39632 40121 82205 333 59001;EQDQ01  00002PRCP06
0198832880999992004060400004-13267-043417FM-12+0458SBLP V0200901N001010450019N0020001N1+02431+01861101381ADDAA106000091GF106991011011008001031051KA1240M+03111MA1999999096461MD1999999-0101REMSYN088AAXX  04004 83288 32595 60902 10243 20186 39646 40138 81135 333 10311 29068 55084 59010;EQDQ01  00002PRCP06
0186832880999992004060412004-13267-043417FM-12+0458SBLP V0201401N000510450019N0200001N1+02351+01871101551ADDAA106000091GF106991041011008001031021KA1240N+01941MA1999999096621MD1999999-0121REMSYN076AAXX  04124 83288 32598 61401 10235 20187 39662 40155 84132 333 20194 59012;EQDQ01  00002PRCP06
0167832880999992004060418004-13267-043417FM-12+0458SBLP V0202301N000510075019N0200001N1+02991+01891101151ADDAA106000091GF108991061051008001021999MA1999999096271MD1999999-0051REMSYN070AAXX  04184 83288 32598 82301 10299 20189 39627 40115 8652/ 333 59005;EQDQ01  00002PRCP06
0198832880999992004060500004-13267-043417FM-12+0458SBLP V0201401N001010075019N0020001N1+02441+01921101321ADDAA106000091GF108991061051008001021999KA1240M+03051MA1999999096381MD1999999-0081REMSYN088AAXX  05004 83288 32595 81402 10244 20192 39638 40132 8652/ 333 10305 29067 55015 59008;EQDQ01  00002PRCP06
0196832880999992004060512004-13267-043417FM-12+0458SBLP V0201801N001512200019N0200001N1+02331+01921101511ADDAA106000091GA1001+999999999GF100991001001999999001001KA1240N+01861MA1999999096581MD1999999-0041REMSYN070AAXX  05124 83288 32998 01803 10233 20192 39658 40151 333 20186 59004;EQDQ01  00002PRCP06
0183832880999992004060518004-13267-043417FM-12+0458SBLP V0202301N001012200019N0200001N1+03171+01941101021ADDAA106000091GF102991999011008001001001MA1999999096161MD1999999-0111REMSYN070AAXX  05184 83288 32598 22302 10317 20194 39616 40102 81100 333 59011;EQDQ01+000012SCOTLCQ02  00002PRCP06
0198832880999992004060600004-13267-043417FM-12+0458SBLP V0201801N001512200019N0200001N1+02511+01981101331ADDAA106000091GF102991021011008001001001KA1240M+03191MA1999999096411MD1999999+0031REMSYN088AAXX  06004 83288 32598 21803 10251 20198 39641 40133 82100 333 10319 29066 55101 58003;EQDQ01  00002PRCP06
0091832880999992004060610004-13267-043417FM-15+0458SBLP V0209999C00001220001CN0099001N1+02001+01701999999ADDMA1101801999999MW1001REMMET039SBLP 061000Z 00000KT CAVOK 20/17 Q1018;EQDQ01+000000PRSWM2
0091832880999992004060611004-13267-043417FM-15+0458SBLP V0209999C00001220001CN0099001N1+02201+01701999999ADDMA1101901999999MW1001REMMET039SBLP 061100Z 00000KT CAVOK 22/17 Q1019;EQDQ01+000000PRSWM2
0247832880999992004060612004-13267-043417SY-MT+0458SBLP V0201801N001512200019N0200001N1+02391+01941101641ADDAA106000091GF100991001001999999001001KA1240N+01841MA1101901096721MD1999999+0141MW1001REMSYN070AAXX  06124 83288 32998 01803 10239 20194 39672 40164 333 20184 58014;MET039SBLP 061200Z 00000KT CAVOK 27/16 Q1019;EQDQ01+000000PRSWM2Q02  00002PRCP06
0167832880999992004060618004-13267-043417FM-12+0458SBLP V0201401N001512200019N0200001N1+03151+02161101251ADDAA106000091GF104991041021008001001001MA1999999096351MD1999999+0191REMSYN070AAXX  06184 83288 32598 41403 10315 20216 39635 40125 84200 333 58019;EQDQ01  00002PRCP06
0196832880999992004060712004-13267-043417FM-12+0458SBLP V0201401N000512200019N0200001N1+02431+01701101811ADDAA106000091GA1001+999999999GF100991001001999999001001KA1240N+01821MA1999999096881MD1999999+0161REMSYN070AAXX  07124 83288 32598 01401 10243 20170 39688 40181 333 20182 58016;EQDQ01  00002PRCP06
0167832880999992004060718004-13267-043417FM-12+0458SBLP V0201401N001512200019N0200001N1+03051+01571101481ADDAA106000091GF103991021011008001001021MA1999999096571MD1999999+0221REMSYN070AAXX  07184 83288 32598 31403 10305 20157 39657 40148 82102 333 58022;EQDQ01  00002PRCP06
0208832880999992004060800004-13267-043417FM-12+0458SBLP V0201401N001012200019N0020001N1+02351+01621101441ADDAA106000091GA1001+999999999GF100991001001999999001001KA1240M+03151MA1999999096521MD1999999-0031REMSYN082AAXX  08004 83288 32995 01402 10235 20162 39652 40144 333 10315 29078 55102 59003;EQDQ01  00002PRCP06
0196832880999992004060812004-13267-043417FM-12+0458SBLP V0201401N001512200019N0200001N1+02331+01771101851ADDAA106000091GA1001+999999999GF100991001001999999001001KA1240N+01721MA1999999096891MD1999999+0011REMSYN070AAXX  08124 83288 32998 01403 10233 20177 39689 40185 333 20172 58001;EQDQ01  00002PRCP06
0167832880999992004060818004-13267-043417FM-12+0458SBLP V0200901N001512200019N0200001N1+03031+02111101391ADDAA106000091GF104991041011008001001001MA1999999096471MD1999999-0101REMSYN070AAXX  08184 83288 32598 40903 10303 20211 39647 40139 84100 333 59010;EQDQ01  00002PRCP06
0198832880999992004060900004-13267-043417FM-12+0458SBLP V0200901N001012200019N0020001N1+02471+01971101651ADDAA106000091GF102991021021008001001001KA1240M+03091MA1999999096721MD1999999+0201REMSYN088AAXX  09004 83288 32595 20902 10247 20197 39672 40165 82200 333 10309 29068 55093 58020;EQDQ01  00002PRCP06
0186832880999992004060912004-13267-043417FM-12+0458SBLP V0201401N001012200019N0200001N1+02391+01841101931ADDAA106000091GF101991001001999999001011KA1240N+01861MA1999999096991MD1999999+0101REMSYN076AAXX  09124 83288 32998 11402 10239 20184 39699 40193 80001 333 20186 58010;EQDQ01  00002PRCP06
0167832880999992004060918004-13267-043417FM-12+0458SBLP V0201401N001512200019N0200001N1+03071+01771101391ADDAA106000091GF101991011011008001001001MA1999999096501MD1999999+0031REMSYN070AAXX  09184 83288 32598 11403 10307 20177 39650 40139 81100 333 58003;EQDQ01  00002PRCP06
0208832880999992004061000004-13267-043417FM-12+0458SBLP V0201401N002612200019N0020001N1+02351+01611101641ADDAA106000091GA1001+999999999GF100991001001999999001001KA1240M+03091MA1999999096691MD1999999-0031REMSYN082AAXX  10004 83288 32995 01405 10235 20161 39669 40164 333 10309 29061 55100 59003;EQDQ01  00002PRCP06
0186832880999992004061012004-13267-043417FM-12+0458SBLP V0201801N001512200019N0200001N1+02441+01741101881ADDAA106000091GF101991011011008001001001KA1240N+01621MA1999999096941MD1999999-0051REMSYN076AAXX  10124 83288 32598 11803 10244 20174 39694 40188 81100 333 20162 59005;EQDQ01  00002PRCP06
0167832880999992004061018004-13267-043417FM-12+0458SBLP V0201801N001512200019N0200001N1+03091+02081101421ADDAA106000091GF102991011011008001001041MA1999999096511MD1999999+0011REMSYN070AAXX  10184 83288 32598 21803 10309 20208 39651 40142 81104 333 58001;EQDQ01  00002PRCP06
0208832880999992004061100004-13267-043417FM-12+0458SBLP V0201801N001512200019N0020001N1+02381+01751101651ADDAA106000091GA1001+999999999GF100991001001999999001001KA1240M+03151MA1999999096721MD1999999+0031REMSYN082AAXX  11004 83288 32995 01803 10238 20175 39672 40165 333 10315 29063 55101 58003;EQDQ01  00002PRCP06
0186832880999992004061112004-13267-043417FM-12+0458SBLP V0201401N000512200019N0200001N1+02411+01601102031ADDAA106000091GF102991011011008001001021KA1240N+01801MA1999999097071MD1999999+0131REMSYN076AAXX  11124 83288 32598 21401 10241 20160 39707 40203 81102 333 20180 58013;EQDQ01  00002PRCP06
0177832880999992004061118004-13267-043417FM-12+0458SBLP V0201401N001012200019N0200001N1+02971+01611101501ADDAA106000091GA1001+999999999GF100991001001999999001001MA1999999096571MD1999999+0061REMSYN064AAXX  11184 83288 32598 01402 10297 20161 39657 40150 333 58006;EQDQ01  00002PRCP06
0208832880999992004061200004-13267-043417FM-12+0458SBLP V0201401N001512200019N0020001N1+02331+01501101541ADDAA106000091GA1001+999999999GF100991001001999999001001KA1240M+03061MA1999999096601MD1999999-0121REMSYN082AAXX  12004 83288 32995 01403 10233 20150 39660 40154 333 10306 29055 55103 59012;EQDQ01  00002PRCP06
0196832880999992004061212004-13267-043417FM-12+0458SBLP V0202301N001512200019N0200001N1+02211+01711102061ADDAA106000091GA1001+999999999GF100991001001999999001001KA1240N+01621MA1999999097121MD1999999+0051REMSYN070AAXX  12124 83288 32998 02303 10221 20171 39712 40206 333 20162 58005;EQDQ01  00002PRCP06
0167832880999992004061218004-13267-043417FM-12+0458SBLP V0202301N001512200019N0200001N1+03111+01971101561ADDAA106000091GF101991011011008001001001MA1999999096651MD1999999+0081REMSYN070AAXX  12184 83288 32598 12303 10311 20197 39665 40156 81100 333 58008;EQDQ01  00002PRCP06
0196832880999992004061312004-13267-043417FM-12+0458SBLP V0202301N001012200019N0200001N1+02221+01671101961ADDAA106000091GA1001+999999999GF100991001001999999001001KA1240N+01601MA1999999096991MD1999999-0131REMSYN070AAXX  13124 83288 32998 02302 10222 20167 39699 40196 333 20160 59013;EQDQ01  00002PRCP06
0177832880999992004061318004-13267-043417FM-12+0458SBLP V0201401N001512200019N0200001N1+03051+01191101461ADDAA106000091GA1001+999999999GF100991001001999999001001MA1999999096551MD1999999-0101REMSYN064AAXX  13184 83288 32998 01403 10305 20119 39655 40146 333 59010;EQDQ01  00002PRCP06
0186832880999992004061412004-13267-043417FM-12+0458SBLP V0202301N001512200019N0200001N1+02331+01651101971ADDAA106000091GF101991001001999999001041KA1240N+01561MA1999999097011MD1999999+0021REMSYN076AAXX  14124 83288 32998 12303 10233 20165 39701 40197 80004 333 20156 58002;EQDQ01  00002PRCP06
0167832880999992004061418004-13267-043417FM-12+0458SBLP V0201401N002112200019N0200001N1+03001+01611101481ADDAA106000091GF102991021021008001001001MA1999999096551MD1999999+0001REMSYN070AAXX  14184 83288 32598 21404 10300 20161 39655 40148 82200 333 58000;EQDQ01  00002PRCP06
0208832880999992004061500004-13267-043417FM-12+0458SBLP V0201801N002112200019N0020001N1+02181+01671101781ADDAA106000091GA1001+999999999GF100991001001999999001001KA1240M+03041MA1999999096821MD1999999+0281REMSYN082AAXX  15004 83288 32995 01804 10218 20167 39682 40178 333 10304 29063 55092 58028;EQDQ01  00002PRCP06
0186832880999992004061512004-13267-043417FM-12+0458SBLP V0202301N002119999999N0200001N1+02051+01741102041ADDAA106000091GF105991001001999999001051KA1240N+01641MA1999999097031MD1999999+0021REMSYN076AAXX  15124 83288 32998 52304 10205 20174 39703 40204 80005 333 20164 58002;EQDQ01  00002PRCP06
0167832880999992004061518004-13267-043417FM-12+0458SBLP V0201401N002112200019N0200001N1+02671+01831101631ADDAA106000091GF104991031021008001001021MA1999999096651MD1999999+0101REMSYN070AAXX  15184 83288 32598 41404 10267 20183 39665 40163 83202 333 58010;EQDQ01  00002PRCP06
0208832880999992004061600004-13267-043417FM-12+0458SBLP V0201801N001012200019N0020001N1+02091+01661101831ADDAA106000091GA1001+999999999GF100991001001999999001001KA1240M+02751MA1999999096831MD1999999+0011REMSYN082AAXX  16004 83288 32995 01802 10209 20166 39683 40183 333 10275 29045 55074 58001;EQDQ01  00002PRCP06
0202832880999992004061612004-13267-043417FM-12+0458SBLP V0201401N001012200019N0200001N1+02311+01721101241ADDAA106000091GF102991999011008001001001KA1240N+01801MA1999999096951MD1999999-0081REMSYN076AAXX  16124 83288 32598 21402 10231 20172 39695 40124 81100 333 20180 59008;EQDQ01+000012SCOTLCQ02  00002PRCP06
0183832880999992004061618004-13267-043417FM-12+0458SBLP V0201401N001519999999N0200001N1+02841+01791101351ADDAA106000091GF105991999021008001001001MA1999999096411MD1999999-0241REMSYN070AAXX  16184 83288 32598 51403 10284 20179 39641 40135 84200 333 59024;EQDQ01+000042SCOTLCQ02  00002PRCP06
0196832880999992004061712004-13267-043417FM-12+0458SBLP V0201801N001512200019N0200001N1+02291+01761101921ADDAA106000091GA1001+999999999GF100991001001999999001001KA1240N+01641MA1999999096951MD1999999+0001REMSYN070AAXX  17124 83288 32998 01803 10229 20176 39695 40192 333 20164 58000;EQDQ01  00002PRCP06
0167832880999992004061718004-13267-043417FM-12+0458SBLP V0201801N001512200019N0200001N1+02991+01991101371ADDAA106000091GF104991041011008001001001MA1999999096441MD1999999+0031REMSYN070AAXX  17184 83288 32598 41803 10299 20199 39644 40137 84100 333 58003;EQDQ01  00002PRCP06
0198832880999992004061800004-13267-043417FM-12+0458SBLP V0201401N001512200019N0020001N1+02191+01831101731ADDAA106000091GF103991031021008001001001KA1240M+03071MA1999999096761MD1999999+0161REMSYN088AAXX  18004 83288 32595 31403 10219 20183 39676 40173 83200 333 10307 29069 55098 58016;EQDQ01  00002PRCP06
0186832880999992004061812004-13267-043417FM-12+0458SBLP V0202301N001012200019N0200001N1+02181+01721101991ADDAA106000091GF103991001001999999001021KA1240N+01601MA1999999097001MD1999999+0051REMSYN076AAXX  18124 83288 32998 32302 10218 20172 39700 40199 80002 333 20160 58005;EQDQ01  00002PRCP06
0167832880999992004061818004-13267-043417FM-12+0458SBLP V0201401N001012200019N0200001N1+02931+01711101621ADDAA106000091GF104991021011008001001021MA1999999096661MD1999999+0221REMSYN070AAXX  18184 83288 32598 41402 10293 20171 39666 40162 82102 333 58022;EQDQ01  00002PRCP06
0208832880999992004061900004-13267-043417FM-12+0458SBLP V0201401N001012200019N0020001N1+02191+01511101781ADDAA106000091GA1001+999999999GF100991001001999999001001KA1240M+03051MA1999999096801MD1999999+0041REMSYN082AAXX  19004 83288 32995 01402 10219 20151 39680 40178 333 10305 29063 55089 58004;EQDQ01  00002PRCP06
0186832880999992004061912004-13267-043417FM-12+0458SBLP V0201801N001011050019N0200001N1+02171+01741102041ADDAA106000091GF105991021011008001021041KA1240N+01691MA1999999097051MD1999999+0051REMSYN076AAXX  19124 83288 32598 51802 10217 20174 39705 40204 82124 333 20169 58005;EQDQ01  00002PRCP06
0167832880999992004061918004-13267-043417FM-12+0458SBLP V0201401N001510450019N0200001N1+02851+01701101651ADDAA106000091GF106991041021008001021041MA1999999096701MD1999999+0041REMSYN070AAXX  19184 83288 32598 61403 10285 20170 39670 40165 84224 333 58004;EQDQ01  00002PRCP06
0167832880999992004062018004-13267-043417FM-12+0458SBLP V0200901N002612200019N0200001N1+02851+01941101571ADDAA106000091GF105991031011008001001061MA1999999096621MD1999999-0081REMSYN070AAXX  20184 83288 32598 50905 10285 20194 39662 40157 83106 333 59008;EQDQ01  00002PRCP06
0196832880999992004062112004-13267-043417FM-12+0458SBLP V0202301N001512200019N0200001N1+02151+01721101991ADDAA106000091GA1001+999999999GF100991001001999999001001KA1240N+01541MA1999999096991MD1999999-0061REMSYN070AAXX  21124 83288 32998 02303 10215 20172 39699 40199 333 20154 59006;EQDQ01  00002PRCP06
0177832880999992004062118004-13267-043417FM-12+0458SBLP V0201401N001512200019N0200001N1+02951+01571101551ADDAA106000091GA1001+999999999GF100991001001999999001001MA1999999096581MD1999999-0041REMSYN064AAXX  21184 83288 32998 01403 10295 20157 39658 40155 333 59004;EQDQ01  00002PRCP06
0198832880999992004062200004-13267-043417FM-12+0458SBLP V0201401N002112200019N0020001N1+02291+01541101771ADDAA106000091GF102991021011008001001001KA1240M+03011MA1999999096791MD1999999-0111REMSYN088AAXX  22004 83288 32595 21404 10229 20154 39679 40177 82100 333 10301 29061 55102 59011;EQDQ01  00002PRCP06
0186832880999992004062212004-13267-043417FM-12+0458SBLP V0202301N000512200019N0200001N1+02271+01621101891ADDAA106000091GF105991041011008001001041KA1240N+01661MA1999999096921MD1999999-0071REMSYN076AAXX  22124 83288 32598 52301 10227 20162 39692 40189 84104 333 20166 59007;EQDQ01  00002PRCP06
0167832880999992004062218004-13267-043417FM-12+0458SBLP V0202301N001011050019N0200001N1+02781+01911101541ADDAA106000091GF106991031021008001001021MA1999999096591MD1999999+0011REMSYN070AAXX  22184 83288 32598 62302 10278 20191 39659 40154 83202 333 58001;EQDQ01  00002PRCP06
0198832880999992004062300004-13267-043417FM-12+0458SBLP V0201801N001510450019N0020001N1+02371+01491101601ADDAA106000091GF105991031011008001031001KA1240M+02951MA1999999096651MD1999999-0141REMSYN088AAXX  23004 83288 32595 51803 10237 20149 39665 40160 83130 333 10295 29062 55088 59014;EQDQ01  00002PRCP06
0186832880999992004062312004-13267-043417FM-12+0458SBLP V0201801N001512200019N0200001N1+02291+01951101941ADDAA106000091GF102991001001999999001041KA1240N+01701MA1999999096971MD1999999+0051REMSYN076AAXX  23124 83288 32998 21803 10229 20195 39697 40194 80004 333 20170 58005;EQDQ01  00002PRCP06
0186832880999992004062412004-13267-043417FM-12+0458SBLP V0201401N001012200019N0200001N1+02231+01671101811ADDAA106000091GF101991001001999999001011KA1240N+01531MA1999999096831MD1999999-0141REMSYN076AAXX  24124 83288 32998 11402 10223 20167 39683 40181 80001 333 20153 59014;EQDQ01  00002PRCP06
0167832880999992004062418004-13267-043417FM-12+0458SBLP V0201401N001512200019N0200001N1+03021+01691101291ADDAA106000091GF103991031011008001001001MA1999999096351MD1999999-0121REMSYN070AAXX  24184 83288 32598 31403 10302 20169 39635 40129 83100 333 59012;EQDQ01  00002PRCP06
0208832880999992004062500004-13267-043417FM-12+0458SBLP V0201401N001012200019N0020001N1+02111+01291101581ADDAA106000091GA1001+999999999GF100991001001999999001001KA1240M+03031MA1999999096601MD1999999-0131REMSYN082AAXX  25004 83288 32995 01402 10211 20129 39660 40158 333 10303 29058 55094 59013;EQDQ01  00002PRCP06
0167832880999992004062518004-13267-043417FM-12+0458SBLP V0202301N001012200019N0200001N1+02871+01651101241ADDAA106000091GF103991021011008001001021MA1999999096291MD1999999-0061REMSYN070AAXX  25184 83288 32598 32302 10287 20165 39629 40124 82102 333 59006;EQDQ01  00002PRCP06
0208832880999992004062600004-13267-043417FM-12+0458SBLP V0201801N000512200019N0020001N1+02231+01321101471ADDAA106000091GA1001+999999999GF100991001001999999001001KA1240M+02931MA1999999096501MD1999999-0231REMSYN082AAXX  26004 83288 32995 01801 10223 20132 39650 40147 333 10293 29058 55101 59023;EQDQ01  00002PRCP06
0186832880999992004062612004-13267-043417FM-12+0458SBLP V0201801N001512200019N0200001N1+02051+01651101841ADDAA106000091GF102991001001999999001051KA1240N+01541MA1999999096851MD1999999+0101REMSYN076AAXX  26124 83288 32998 21803 10205 20165 39685 40184 80005 333 20154 58010;EQDQ01  00002PRCP06
0167832880999992004062618004-13267-043417FM-12+0458SBLP V0201401N001012200019N0200001N1+02981+01891101311ADDAA106000091GF103991031011008001001001MA1999999096381MD1999999+0091REMSYN070AAXX  26184 83288 32598 31402 10298 20189 39638 40131 83100 333 58009;EQDQ01  00002PRCP06
0198832880999992004062700004-13267-043417FM-12+0458SBLP V0201401N001512200019N0020001N1+02211+01751101601ADDAA106000091GF103991031011008001001001KA1240M+03031MA1999999096621MD1999999+0121REMSYN088AAXX  27004 83288 32595 31403 10221 20175 39662 40160 83100 333 10303 29068 55098 58012;EQDQ01  00002PRCP06
0186832880999992004062712004-13267-043417FM-12+0458SBLP V0202301N001512200019N0200001N1+02231+01821101861ADDAA106000091GF101991001001999999001011KA1240N+01661MA1999999096871MD1999999+0021REMSYN076AAXX  27124 83288 32998 12303 10223 20182 39687 40186 80001 333 20166 58002;EQDQ01  00002PRCP06
0167832880999992004062718004-13267-043417FM-12+0458SBLP V0202301N001512200019N0200001N1+02951+01971101451ADDAA106000091GF102991021021008001001001MA1999999096451MD1999999+0071REMSYN070AAXX  27184 83288 32598 22303 10295 20197 39645 40145 82200 333 58007;EQDQ01  00002PRCP06
0208832880999992004062800004-13267-043417FM-12+0458SBLP V0201801N002112200019N0020001N1+02231+01551101681ADDAA106000091GA1001+999999999GF100991001001999999001001KA1240M+03031MA1999999096711MD1999999+0091REMSYN082AAXX  28004 83288 32995 01804 10223 20155 39671 40168 333 10303 29066 55100 58009;EQDQ01  00002PRCP06
0186832880999992004062812004-13267-043417FM-12+0458SBLP V0202301N000512200019N0200001N1+02171+01681101721ADDAA106000091GF102991001001999999001041KA1240N+01691MA1999999096741MD1999999-0131REMSYN076AAXX  28124 83288 32998 22301 10217 20168 39674 40172 80004 333 20169 59013;EQDQ01  00002PRCP06
0167832880999992004062818004-13267-043417FM-12+0458SBLP V0201401N001011050019N0200001N1+02981+01471101191ADDAA106000091GF105991031011008001001021MA1999999096291MD1999999-0161REMSYN070AAXX  28184 83288 32598 51402 10298 20147 39629 40119 83102 333 59016;EQDQ01  00002PRCP06
0198832880999992004062900004-13267-043417FM-12+0458SBLP V0201801N001512200019N0020001N1+02371+01331101431ADDAA106000091GF102991021011008001001001KA1240M+03041MA1999999096471MD1999999-0241REMSYN088AAXX  29004 83288 32595 21803 10237 20133 39647 40143 82100 333 10304 29056 55099 59024;EQDQ01  00002PRCP06
0186832880999992004062912004-13267-043417FM-12+0458SBLP V0201801N001012200019N0200001N1+02291+01741101771ADDAA106000091GF102991001001999999001021KA1240N+01541MA1999999096811MD1999999+0071REMSYN076AAXX  29124 83288 32998 21802 10229 20174 39681 40177 80002 333 20154 58007;EQDQ01  00002PRCP06
0167832880999992004062918004-13267-043417FM-12+0458SBLP V0201801N001512200019N0200001N1+02991+02041101301ADDAA106000091GF103991021011008001001021MA1999999096371MD1999999+0081REMSYN070AAXX  29184 83288 32598 31803 10299 20204 39637 40130 82102 333 58008;EQDQ01  00002PRCP06
0198832880999992004063000004-13267-043417FM-12+0458SBLP V0201801N001512200019N0020001N1+02251+01741101551ADDAA106000091GF102991021011008001001001KA1240M+03111MA1999999096601MD1999999+0131REMSYN088AAXX  30004 83288 32595 21803 10225 20174 39660 40155 82100 333 10311 29067 55098 58013;EQDQ01  00002PRCP06
0196832880999992004063012004-13267-043417FM-12+0458SBLP V0201801N001512200019N0200001N1+02301+01771101821ADDAA106000091GA1001+999999999GF100991001001999999001001KA1240N+01601MA1999999096851MD1999999+0031REMSYN070AAXX  30124 83288 32998 01803 10230 20177 39685 40182 333 20160 58003;EQDQ01  00002PRCP06
0167832880999992004063018004-13267-043417FM-12+0458SBLP V0202701N000512200019N0200001N1+03071+01831101281ADDAA106000091GF103991031011008001001001MA1999999096371MD1999999+0001REMSYN070AAXX  30184 83288 32598 32701 10307 20183 39637 40128 83100 333 58000;EQDQ01  00002PRCP06
0198832880999992004070100004-13267-043417FM-12+0458SBLP V0201801N001512200019N0020001N1+02251+01571101541ADDAA106000091GF101991011011008001001001KA1240M+03111MA1999999096591MD1999999-0011REMSYN088AAXX  01004 83288 32595 11803 10225 20157 39659 40154 81100 333 10311 29063 55101 59001;EQDQ01  00002PRCP06
0196832880999992004070112004-13267-043417FM-12+0458SBLP V0201801N000512200019N0200001N1+02331+01551101791ADDAA106000091GA1001+999999999GF100991001001999999001001KA1240N+01691MA1999999096831MD1999999-0021REMSYN070AAXX  01124 83288 32998 01801 10233 20155 39683 40179 333 20169 59002;EQDQ01  00002PRCP06
0167832880999992004070118004-13267-043417FM-12+0458SBLP V0201401N001012200019N0200001N1+02991+01551101191ADDAA106000091GF102991021011008001001001MA1999999096291MD1999999-0081REMSYN070AAXX  01184 83288 32598 21402 10299 20155 39629 40119 82100 333 59008;EQDQ01  00002PRCP06
0208832880999992004070200004-13267-043417FM-12+0458SBLP V0201801N001512200019N0020001N1+02381+01531101291ADDAA106000091GA1001+999999999GF100991001001999999001001KA1240M+03081MA1999999096361MD1999999-0231REMSYN082AAXX  02004 83288 32595 01803 10238 20153 39636 40129 333 10308 29054 55100 59023;EQDQ01  00002PRCP06
0167832880999992004070218004-13267-043417FM-12+0458SBLP V0203601N001512200019N0200001N1+03151+02171101131ADDAA106000091GF104991041021008001001001MA1999999096241MD1999999-0051REMSYN070AAXX  02184 83288 32598 43603 10315 20217 39624 40113 84200 333 59005;EQDQ01  00002PRCP06
0198832880999992004070300004-13267-043417FM-12+0458SBLP V0200901N001510075019N0020001N1+02411+01981101431ADDAA106000091GF106991061021008001001001KA1240M+03171MA1999999096511MD1999999+0151REMSYN088AAXX  03004 83288 32595 60903 10241 20198 39651 40143 86200 333 10317 29070 55088 58015;EQDQ01  00002PRCP06
0196832880999992004070312004-13267-043417FM-12+0458SBLP V0201801N001512200019N0200001N1+02391+01661101561ADDAA106000091GA1001+999999999GF100991001001999999001001KA1240N+01761MA1999999096631MD1999999-0101REMSYN070AAXX  03124 83288 32998 01803 10239 20166 39663 40156 333 20176 59010;EQDQ01  00002PRCP06
0167832880999992004070318004-13267-043417FM-12+0458SBLP V0201401N001512200019N0200001N1+03051+01851101131ADDAA106000091GF101991011011008001001001MA1999999096251MD1999999+0011REMSYN070AAXX  03184 83288 32598 11403 10305 20185 39625 40113 81100 333 58001;EQDQ01  00002PRCP06
0208832880999992004070400004-13267-043417FM-12+0458SBLP V0201401N001512200019N0020001N1+02291+01531101531ADDAA106000091GA1001+999999999GF100991001001999999001001KA1240M+03111MA1999999096591MD1999999+0081REMSYN082AAXX  04004 83288 32995 01403 10229 20153 39659 40153 333 10311 29058 55101 58008;EQDQ01  00002PRCP06
0196832880999992004070412004-13267-043417FM-12+0458SBLP V0202301N000512200019N0200001N1+02251+01621101601ADDAA106000091GA1001+999999999GF100991001001999999001001KA1240N+01681MA1999999096641MD1999999+0011REMSYN070AAXX  04124 83288 32998 02301 10225 20162 39664 40160 333 20168 58001;EQDQ01  00002PRCP06
0167832880999992004070418004-13267-043417FM-12+0458SBLP V0202301N000512200019N0200001N1+03131+01481101071ADDAA106000091GF102991011011008001001021MA1999999096191MD1999999-0061REMSYN070AAXX  04184 83288 32598 22301 10313 20148 39619 40107 81102 333 59006;EQDQ01  00002PRCP06
0198832880999992004070500004-13267-043417FM-12+0458SBLP V0201801N000511050019N0020001N1+02441+01591101261ADDAA106000091GF105991041011008001001021KA1240M+03191MA1999999096281MD1999999-0311REMSYN088AAXX  05004 83288 32595 51801 10244 20159 39628 40126 84102 333 10319 29055 55101 59031;EQDQ01  00002PRCP06
0196832880999992004070512004-13267-043417FM-12+0458SBLP V0201801N001012200019N0200001N1+02211+01771101731ADDAA106000091GA1001+999999999GF100991001001999999001001KA1240N+01701MA1999999096751MD1999999+0111REMSYN070AAXX  05124 83288 32998 01802 10221 20177 39675 40173 333 20170 58011;EQDQ01  00002PRCP06
0167832880999992004070518004-13267-043417FM-12+0458SBLP V0202301N001512200019N0200001N1+03051+02041101241ADDAA106000091GF101991011011008001001001MA1999999096351MD1999999+0161REMSYN070AAXX  05184 83288 32598 12303 10305 20204 39635 40124 81100 333 58016;EQDQ01  00002PRCP06
0208832880999992004070600004-13267-043417FM-12+0458SBLP V0201801N001012200019N0020001N1+02451+01911101441ADDAA106000091GA1001+999999999GF100991001001999999001001KA1240M+03131MA1999999096511MD1999999+0231REMSYN082AAXX  06004 83288 32995 01802 10245 20191 39651 40144 333 10313 29068 55103 58023;EQDQ01  00002PRCP06
0196832880999992004070612004-13267-043417FM-12+0458SBLP V0201801N001012200019N0200001N1+02351+01711101541ADDAA106000091GA1001+999999999GF100991001001999999001001KA1240N+01641MA1999999096611MD1999999-0141REMSYN070AAXX  06124 83288 32998 01802 10235 20171 39661 40154 333 20164 59014;EQDQ01  00002PRCP06
0167832880999992004070618004-13267-043417FM-12+0458SBLP V0202301N001512200019N0200001N1+03191+01511100921ADDAA106000091GF102991021021008001001001MA1999999096141MD1999999-0211REMSYN070AAXX  06184 83288 32598 22303 10319 20151 39614 40092 82200 333 59021;EQDQ01  00002PRCP06
0208832880999992004070700004-13267-043417FM-12+0458SBLP V0201801N000512200019N0020001N1+02451+01291101211ADDAA106000091GA1001+999999999GF100991001001999999001001KA1240M+03251MA1999999096301MD1999999-0211REMSYN082AAXX  07004 83288 32995 01801 10245 20129 39630 40121 333 10325 29050 55101 59021;EQDQ01  00002PRCP06
0196832880999992004070712004-13267-043417FM-12+0458SBLP V0202301N000512200019N0200001N1+02291+01591101461ADDAA106000091GA1001+999999999GF100991001001999999001001KA1240N+01691MA1999999096531MD1999999-0081REMSYN070AAXX  07124 83288 32998 02301 10229 20159 39653 40146 333 20169 59008;EQDQ01  00002PRCP06
0167832880999992004070718004-13267-043417FM-12+0458SBLP V0201801N001012200019N0200001N1+03091+01601100961ADDAA106000091GF103991021011008001001041MA1999999096081MD1999999-0061REMSYN070AAXX  07184 83288 32598 31802 10309 20160 39608 40096 82104 333 59006;EQDQ01  00002PRCP06
0208832880999992004070800004-13267-043417FM-12+0458SBLP V0201801N001512200019N0020001N1+02491+01401101071ADDAA106000091GA1001+999999999GF100991001001999999001001KA1240M+03191MA1999999096161MD1999999-0141REMSYN082AAXX  08004 83288 32995 01803 10249 20140 39616 40107 333 10319 29052 55102 59014;EQDQ01  00002PRCP06
0186832880999992004070812004-13267-043417FM-12+0458SBLP V0201801N001012200019N0200001N1+02151+01621101451ADDAA106000091GF102991001001999999001021KA1240N+01661MA1999999096501MD1999999-0031REMSYN076AAXX  08124 83288 32998 21802 10215 20162 39650 40145 80002 333 20166 59003;EQDQ01  00002PRCP06
0208832880999992004070900004-13267-043417FM-12+0458SBLP V0209999C000012200019N0020001N1+02411+01901101121ADDAA106000091GA1001+999999999GF100991001001999999001001KA1240M+03171MA1999999096191MD1999999+0031REMSYN082AAXX  09004 83288 32995 00000 10241 20190 39619 40112 333 10317 29063 55101 58003;EQDQ01  00002PRCP06
0186832880999992004070912004-13267-043417FM-12+0458SBLP V0202301N000512200019N0200001N1+02331+01581101411ADDAA106000091GF102991001001999999001011KA1240N+01701MA1999999096481MD1999999-0021REMSYN076AAXX  09124 83288 32998 22301 10233 20158 39648 40141 80001 333 20170 59002;EQDQ01  00002PRCP06
0167832880999992004070918004-13267-043417FM-12+0458SBLP V0202701N000512200019N0200001N1+03221+01611100841ADDAA106000091GF106991011011008001001061MA1999999095981MD1999999-0031REMSYN070AAXX  09184 83288 32598 62701 10322 20161 39598 40084 81106 333 59003;EQDQ01  00002PRCP06
0208832880999992004071000004-13267-043417FM-12+0458SBLP V0201401N000512200019N0020001N1+02511+01241101371ADDAA106000091GA1001+999999999GF100991001001999999001001KA1240M+03311MA1999999096191MD1999999+0001REMSYN082AAXX  10004 83288 32995 01401 10251 20124 39619 40137 333 10331 29048 55082 58000;EQDQ01  00002PRCP06
0186832880999992004071012004-13267-043417FM-12+0458SBLP V0202701N000512200019N0200001N1+02451+01581101331ADDAA106000091GF102991011011008001001021KA1240N+01781MA1999999096431MD1999999-0051REMSYN076AAXX  10124 83288 32598 22701 10245 20158 39643 40133 81102 333 20178 59005;EQDQ01  00002PRCP06
0167832880999992004071018004-13267-043417FM-12+0458SBLP V0203601N000512200019N0200001N1+03251+01411100941ADDAA106000091GF103991031011008001021021MA1999999096091MD1999999+0111REMSYN070AAXX  10184 83288 32598 33601 10325 20141 39609 40094 83122 333 58011;EQDQ01  00002PRCP06
0208832880999992004071100004-13267-043417FM-12+0458SBLP V0202701N000512200019N0020001N1+02591+01521100941ADDAA106000091GA1001+999999999GF100991001001999999001001KA1240M+03351MA1999999096061MD1999999-0131REMSYN082AAXX  11004 83288 32995 02701 10259 20152 39606 40094 333 10335 29047 55088 59013;EQDQ01  00002PRCP06
0167832880999992004071118004-13267-043417FM-12+0458SBLP V0202301N001512200019N0200001N1+03241+01781100861ADDAA106000091GF104991041021008001001001MA1999999096021MD1999999-0071REMSYN070AAXX  11184 83288 32598 42303 10324 20178 39602 40086 84200 333 59007;EQDQ01  00002PRCP06
0208832880999992004071200004-13267-043417FM-12+0458SBLP V0200501N001012200019N0020001N1+02611+02061101041ADDAA106000091GA1001+999999999GF100991001001999999001001KA1240M+03311MA1999999096151MD1999999+0091REMSYN082AAXX  12004 83288 32995 00502 10261 20206 39615 40104 333 10331 29061 55076 58009;EQDQ01  00002PRCP06
0186832880999992004071212004-13267-043417FM-12+0458SBLP V0201401N001512200019N0200001N1+02651+01771101391ADDAA106000091GF103991011011008001031021KA1240N+02021MA1999999096501MD1999999-0061REMSYN076AAXX  12124 83288 32598 31403 10265 20177 39650 40139 81132 333 20202 59006;EQDQ01  00002PRCP06
0167832880999992004071218004-13267-043417FM-12+0458SBLP V0201401N003110120019N0200001N1+03011+01731101021ADDAA106000091GF106991061081008001001001MA1999999096171MD1999999+0151REMSYN070AAXX  12184 83288 32598 61406 10301 20173 39617 40102 86800 333 58015;EQDQ01  00002PRCP06
0208832880999992004071300004-13267-043417FM-12+0458SBLP V0201401N002112200019N0020001N1+02371+01611101451ADDAA106000091GA1001+999999999GF100991001001999999001001KA1240M+03091MA1999999096551MD1999999+0401REMSYN082AAXX  13004 83288 32595 01404 10237 20161 39655 40145 333 10309 29058 55034 58040;EQDQ01  00002PRCP06
0186832880999992004071312004-13267-043417FM-12+0458SBLP V0201801N000512200019N0200001N1+02291+01661101581ADDAA106000091GF102991011011008001001021KA1240N+01791MA1999999096641MD1999999+0141REMSYN076AAXX  13124 83288 32598 21801 10229 20166 39664 40158 81102 333 20179 58014;EQDQ01  00002PRCP06
0167832880999992004071318004-13267-043417FM-12+0458SBLP V0201401N001510075019N0200001N1+03071+01941101161ADDAA106000091GF105991051021008001001001MA1999999096271MD1999999+0101REMSYN070AAXX  13184 83288 32598 51403 10307 20194 39627 40116 85200 333 58010;EQDQ01  00002PRCP06
0198832880999992004071400004-13267-043417FM-12+0458SBLP V0201401N001512200019N0020001N1+02331+01771101461ADDAA106000091GF101991011011008001001001KA1240M+03081MA1999999096511MD1999999-0041REMSYN088AAXX  14004 83288 32595 11403 10233 20177 39651 40146 81100 333 10308 29063 55082 59004;EQDQ01  00002PRCP06
0186832880999992004071412004-13267-043417FM-12+0458SBLP V0201401N001012200019N0200001N1+02341+01501101691ADDAA106000091GF103991021011008001001021KA1240N+01791MA1999999096741MD1999999+0101REMSYN076AAXX  14124 83288 32598 31402 10234 20150 39674 40169 82102 333 20179 58010;EQDQ01  00002PRCP06
0167832880999992004071418004-13267-043417FM-12+0458SBLP V0201801N001510075019N0200001N1+02991+01961101261ADDAA106000091GF106991061021008001001001MA1999999096351MD1999999+0081REMSYN070AAXX  14184 83288 32598 61803 10299 20196 39635 40126 86200 333 58008;EQDQ01  00002PRCP06
0198832880999992004071500004-13267-043417FM-12+0458SBLP V0200901N001512200019N0020001N1+02431+01851101411ADDAA106000091GF102991021011008001001001KA1240M+03071MA1999999096491MD1999999-0021REMSYN088AAXX  15004 83288 32595 20903 10243 20185 39649 40141 82100 333 10307 29062 55089 59002;EQDQ01  00002PRCP06
0196832880999992004071512004-13267-043417FM-12+0458SBLP V0201401N000512200019N0200001N1+02351+01641101751ADDAA106000091GA1001+999999999GF100991001001999999001001KA1240N+01621MA1999999096791MD1999999+0051REMSYN070AAXX  15124 83288 32998 01401 10235 20164 39679 40175 333 20162 58005;EQDQ01  00002PRCP06
0167832880999992004071518004-13267-043417FM-12+0458SBLP V0202301N001012200019N0200001N1+03031+01691101221ADDAA106000091GF102991021021008001001001MA1999999096331MD1999999-0021REMSYN070AAXX  15184 83288 32598 22302 10303 20169 39633 40122 82200 333 59002;EQDQ01  00002PRCP06
0208832880999992004071600004-13267-043417FM-12+0458SBLP V0201401N001012200019N0020001N1+02291+01491101501ADDAA106000091GA1001+999999999GF100991001001999999001001KA1240M+03111MA1999999096551MD1999999+0061REMSYN082AAXX  16004 83288 32995 01402 10229 20149 39655 40150 333 10311 29058 55101 58006;EQDQ01  00002PRCP06
0186832880999992004071612004-13267-043417FM-12+0458SBLP V0201401N000512200019N0200001N1+02251+01481101811ADDAA106000091GF102991011011008001001041KA1240N+01681MA1999999096841MD1999999+0051REMSYN076AAXX  16124 83288 32598 21401 10225 20148 39684 40181 81104 333 20168 58005;EQDQ01  00002PRCP06
0183832880999992004071618004-13267-043417FM-12+0458SBLP V0202301N000519999999N0200001N1+02971+01461101361ADDAA106000091GF105991999011008001001001MA1999999096461MD1999999+0131REMSYN070AAXX  16184 83288 32598 52301 10297 20146 39646 40136 84100 333 58013;EQDQ01+000042SCOTLCQ02  00002PRCP06
0208832880999992004071700004-13267-043417FM-12+0458SBLP V0201801N001012200019N0020001N1+02441+01241101371ADDAA106000091GA1001+999999999GF100991001001999999001001KA1240M+03081MA1999999096371MD1999999-0181REMSYN082AAXX  17004 83288 32995 01802 10244 20124 39637 40137 333 10308 29047 55103 59018;EQDQ01  00002PRCP06
0196832880999992004071712004-13267-043417FM-12+0458SBLP V0201401N001012200019N0200001N1+02211+01751101691ADDAA106000091GA1001+999999999GF100991001001999999001001KA1240N+01601MA1999999096731MD1999999-0111REMSYN070AAXX  17124 83288 32998 01402 10221 20175 39673 40169 333 20160 59011;EQDQ01  00002PRCP06
0167832880999992004071718004-13267-043417FM-12+0458SBLP V0202701N001012200019N0200001N1+03011+01681101271ADDAA106000091GF104991041021008001001001MA1999999096361MD1999999-0101REMSYN070AAXX  17184 83288 32598 42702 10301 20168 39636 40127 84200 333 59010;EQDQ01  00002PRCP06
0208832880999992004071800004-13267-043417FM-12+0458SBLP V0201801N000512200019N0020001N1+02411+01551101491ADDAA106000091GA1001+999999999GF100991001001999999001001KA1240M+03091MA1999999096541MD1999999+0171REMSYN082AAXX  18004 83288 32995 01801 10241 20155 39654 40149 333 10309 29060 55087 58017;EQDQ01  00002PRCP06
0196832880999992004071812004-13267-043417FM-12+0458SBLP V0202301N001012200019N0200001N1+02331+01531101751ADDAA106000091GA1001+999999999GF100991001001999999001001KA1240N+01681MA1999999096801MD1999999+0071REMSYN070AAXX  18124 83288 32998 02302 10233 20153 39680 40175 333 20168 58007;EQDQ01  00002PRCP06
0167832880999992004071818004-13267-043417FM-12+0458SBLP V0201801N001510120019N0200001N1+02931+01771101341ADDAA106000091GF105991051081008001001001MA1999999096431MD1999999+0071REMSYN070AAXX  18184 83288 32598 51803 10293 20177 39643 40134 85800 333 58007;EQDQ01  00002PRCP06
0198832880999992004071900004-13267-043417FM-12+0458SBLP V0201401N000510120019N0020001N1+02371+01541101521ADDAA106000091GF105991051081008001001001KA1240M+02991MA1999999096581MD1999999+0041REMSYN088AAXX  19004 83288 32595 51401 10237 20154 39658 40152 85800 333 10299 29058 55057 58004;EQDQ01  00002PRCP06
0196832880999992004071912004-13267-043417FM-12+0458SBLP V0201801N001012200019N0200001N1+02351+01571101791ADDAA106000091GA1001+999999999GF100991001001999999001001KA1240N+01171MA1999999096841MD1999999+0041REMSYN070AAXX  19124 83288 32998 01802 10235 20157 39684 40179 333 20117 58004;EQDQ01  00002PRCP06
0183832880999992004071918004-13267-043417FM-12+0458SBLP V0201801N001019999999N0200001N1+02961+01441101261ADDAA106000091GF105991999011008001001001MA1999999096371MD1999999-0061REMSYN070AAXX  19184 83288 32598 51802 10296 20144 39637 40126 84100 333 59006;EQDQ01+000042SCOTLCQ02  00002PRCP06
0208832880999992004072000004-13267-043417FM-12+0458SBLP V0201401N000512200019N0020001N1+02341+01411101401ADDAA106000091GA1001+999999999GF100991001001999999001001KA1240M+03091MA1999999096571MD1999999-0011REMSYN082AAXX  20004 83288 32995 01401 10234 20141 39657 40140 333 10309 29052 55096 59001;EQDQ01  00002PRCP06
0196832880999992004072012004-13267-043417FM-12+0458SBLP V0202701N000512200019N0200001N1+02191+01661101751ADDAA106000091GA1001+999999999GF100991001001999999001001KA1240N+01641MA1999999096781MD1999999-0061REMSYN070AAXX  20124 83288 32998 02701 10219 20166 39678 40175 333 20164 59006;EQDQ01  00002PRCP06
0167832880999992004072018004-13267-043417FM-12+0458SBLP V0201801N001512200019N0200001N1+03111+01911101171ADDAA106000091GF104991041021008001001001MA1999999096271MD1999999-0101REMSYN070AAXX  20184 83288 32598 41803 10311 20191 39627 40117 84200 333 59010;EQDQ01  00002PRCP06
0208832880999992004072100004-13267-043417FM-12+0458SBLP V0201801N001012200019N0020001N1+02391+01671101331ADDAA106000091GA1001+999999999GF100991001001999999001001KA1240M+03111MA1999999096391MD1999999-0181REMSYN082AAXX  21004 83288 32995 01802 10239 20167 39639 40133 333 10311 29062 55103 59018;EQDQ01  00002PRCP06
0196832880999992004072112004-13267-043417FM-12+0458SBLP V0201801N001512200019N0200001N1+02331+01641101561ADDAA106000091GA1001+999999999GF100991001001999999001001KA1240N+01741MA1999999096621MD1999999-0161REMSYN070AAXX  21124 83288 32998 01803 10233 20164 39662 40156 333 20174 59016;EQDQ01  00002PRCP06
0167832880999992004072118004-13267-043417FM-12+0458SBLP V0201401N001510120019N0200001N1+02831+01581101181ADDAA106000091GF105991051081008001001001MA1999999096271MD1999999+0001REMSYN070AAXX  21184 83288 32598 51403 10283 20158 39627 40118 85800 333 58000;EQDQ01  00002PRCP06
0208832880999992004072200004-13267-043417FM-12+0458SBLP V0201401N001512200019N0020001N1+02211+01311101421ADDAA106000091GA1001+999999999GF100991001001999999001001KA1240M+02951MA1999999096461MD1999999+0071REMSYN082AAXX  22004 83288 32995 01403 10221 20131 39646 40142 333 10295 29057 55087 58007;EQDQ01  00002PRCP06
0196832880999992004072212004-13267-043417FM-12+0458SBLP V0201401N000512200019N0200001N1+01971+01261101781ADDAA106000091GA1001+999999999GF100991001001999999001001KA1240N+01481MA1999999096781MD1999999+0001REMSYN070AAXX  22124 83288 32998 01401 10197 20126 39678 40178 333 20148 58000;EQDQ01  00002PRCP06
0167832880999992004072218004-13267-043417FM-12+0458SBLP V0201401N001012200019N0200001N1+02851+01391101251ADDAA106000091GF102991011011008001001021MA1999999096311MD1999999+0041REMSYN070AAXX  22184 83288 32598 21402 10285 20139 39631 40125 81102 333 58004;EQDQ01  00002PRCP06
0208832880999992004072300004-13267-043417FM-12+0458SBLP V0201401N001012200019N0020001N1+02071+01101101611ADDAA106000091GA1001+999999999GF100991001001999999001001KA1240M+02851MA1999999096601MD1999999+0141REMSYN082AAXX  23004 83288 32995 01402 10207 20110 39660 40161 333 10285 29054 55103 58014;EQDQ01  00002PRCP06
0186832880999992004072312004-13267-043417FM-12+0458SBLP V0201801N001019999999N0200001N1+01891+01171101941ADDAA106000091GF106991001001999999001041KA1240N+01501MA1999999096911MD1999999+0131REMSYN076AAXX  23124 83288 32998 61802 10189 20117 39691 40194 80004 333 20150 58013;EQDQ01  00002PRCP06
0167832880999992004072318004-13267-043417FM-12+0458SBLP V0202301N001512200019N0200001N1+02691+01501101501ADDAA106000091GF102991021011008001001001MA1999999096501MD1999999+0191REMSYN070AAXX  23184 83288 32598 22303 10269 20150 39650 40150 82100 333 58019;EQDQ01  00002PRCP06
0198832880999992004072400004-13267-043417FM-12+0458SBLP V0201801N001512200019N0020001N1+01931+01111101671ADDAA106000091GF102991011011008001041001KA1240M+02751MA1999999096631MD1999999+0031REMSYN088AAXX  24004 83288 32595 21803 10193 20111 39663 40167 81140 333 10275 29057 55102 58003;EQDQ01  00002PRCP06
0186832880999992004072412004-13267-043417FM-12+0458SBLP V0201801N002112200019N0200001N1+01871+01121102201ADDAA106000091GF103991001001999999001011KA1240N+01221MA1999999097141MD1999999+0231REMSYN076AAXX  24124 83288 32998 31804 10187 20112 39714 40220 80001 333 20122 58023;EQDQ01  00002PRCP06
0167832880999992004072418004-13267-043417FM-12+0458SBLP V0200501N001512200019N0200001N1+02731+01081101671ADDAA106000091GF104991011011008001001041MA1999999096671MD1999999+0171REMSYN070AAXX  24184 83288 32598 40503 10273 20108 39667 40167 81104 333 58017;EQDQ01  00002PRCP06
0208832880999992004072500004-13267-043417FM-12+0458SBLP V0201801N001512200019N0020001N1+01971+00921101881ADDAA106000091GA1001+999999999GF100991001001999999001001KA1240M+02811MA1999999096831MD1999999+0201REMSYN082AAXX  25004 83288 32595 01803 10197 20092 39683 40188 333 10281 29050 55096 58020;EQDQ01  00002PRCP06
0196832880999992004072512004-13267-043417FM-12+0458SBLP V0201401N001512200019N0200001N1+02121+01231102151ADDAA106000091GA1001+999999999GF100991001001999999001001KA1240N+01261MA1999999097121MD1999999-0021REMSYN070AAXX  25124 83288 32998 01403 10212 20123 39712 40215 333 20126 59002;EQDQ01  00002PRCP06
0177832880999992004072518004-13267-043417FM-12+0458SBLP V0201801N001512200019N0200001N1+02811+00781101571ADDAA106000091GA1001+999999999GF100991001001999999001001MA1999999096621MD1999999-0051REMSYN064AAXX  25184 83288 32998 01803 10281 20078 39662 40157 333 59005;EQDQ01  00002PRCP06
0208832880999992004072600004-13267-043417FM-12+0458SBLP V0201401N001012200019N0020001N1+02141+01031101771ADDAA106000091GA1001+999999999GF100991001001999999001001KA1240M+02871MA1999999096781MD1999999-0051REMSYN082AAXX  26004 83288 32995 01402 10214 20103 39678 40177 333 10287 29045 55104 59005;EQDQ01  00002PRCP06
0196832880999992004072612004-13267-043417FM-12+0458SBLP V0201401N002112200019N0200001N1+02091+01071101131ADDAA106000091GA1001+999999999GF100991001001999999001001KA1240N+01321MA1999999097111MD1999999-0011REMSYN070AAXX  26124 83288 32998 01404 10209 20107 39711 40113 333 20132 59001;EQDQ01  00002PRCP06
0177832880999992004072618004-13267-043417FM-12+0458SBLP V0201401N001512200019N0200001N1+02781+01441101701ADDAA106000091GA1001+999999999GF100991001001999999001001MA1999999096711MD1999999+0091REMSYN064AAXX  26184 83288 32998 01403 10278 20144 39671 40170 333 58009;EQDQ01  00002PRCP06
0208832880999992004072700004-13267-043417FM-12+0458SBLP V0201401N001512200019N0020001N1+02091+01341101981ADDAA106000091GA1001+999999999GF100991001001999999001001KA1240M+02891MA1999999096971MD1999999+0191REMSYN082AAXX  27004 83288 32995 01403 10209 20134 39697 40198 333 10289 29053 55105 58019;EQDQ01  00002PRCP06
0186832880999992004072712004-13267-043417FM-12+0458SBLP V0201401N003112200019N0200001N1+02191+01321102191ADDAA106000091GF101991011011008001001001KA1240N+01321MA1999999097181MD1999999+0071REMSYN076AAXX  27124 83288 32598 11406 10219 20132 39718 40219 81100 333 20132 58007;EQDQ01  00002PRCP06
0198832880999992004072800004-13267-043417FM-12+0458SBLP V0201401N002112200019N0020001N1+02111+00931101811ADDAA106000091GF101991011011008001001001KA1240M+02811MA1999999096811MD1999999-0161REMSYN088AAXX  28004 83288 32595 11404 10211 20093 39681 40181 81100 333 10281 29050 55105 59016;EQDQ01  00002PRCP06
0196832880999992004072812004-13267-043417FM-12+0458SBLP V0201401N003112200019N0200001N1+02071+01281102151ADDAA106000091GA1001+999999999GF100991001001999999001001KA1240N+01461MA1999999097091MD1999999-0091REMSYN070AAXX  28124 83288 32998 01406 10207 20128 39709 40215 333 20146 59009;EQDQ01  00002PRCP06
0167832880999992004072818004-13267-043417FM-12+0458SBLP V0201401N002112200019N0200001N1+02731+01121101571ADDAA106000091GF101991011011008001001001MA1999999096581MD1999999-0101REMSYN070AAXX  28184 83288 32598 11404 10273 20112 39658 40157 81100 333 59010;EQDQ01  00002PRCP06
0208832880999992004072900004-13267-043417FM-12+0458SBLP V0201401N002612200019N0020001N1+02111+00931101791ADDAA106000091GA1001+999999999GF100991001001999999001001KA1240M+02811MA1999999096791MD1999999-0021REMSYN082AAXX  29004 83288 32995 01405 10211 20093 39679 40179 333 10281 29048 55102 59002;EQDQ01  00002PRCP06
0196832880999992004072912004-13267-043417FM-12+0458SBLP V0201401N001512200019N0200001N1+02091+01311102041ADDAA106000091GA1001+999999999GF100991001001999999001001KA1240N+01341MA1999999097031MD1999999-0061REMSYN070AAXX  29124 83288 32998 01403 10209 20131 39703 40204 333 20134 59006;EQDQ01  00002PRCP06
0183832880999992004072918004-13267-043417FM-12+0458SBLP V0201401N001512200019N0200001N1+02741+02241101471ADDAA106000091GF103991999011008001001001MA1999999096451MD1999999-0131REMSYN070AAXX  29184 83288 32598 31403 10274 20224 39645 40147 82100 333 59013;EQDQ01+000022SCOTLCQ02  00002PRCP06
0208832880999992004073000004-13267-043417FM-12+0458SBLP V0201401N000512200019N0020001N1+02101+00981101751ADDAA106000091GA1001+999999999GF100991001001999999001001KA1240M+02541MA1999999096751MD1999999-0041REMSYN082AAXX  30004 83288 32995 01401 10210 20098 39675 40175 333 10254 29067 55114 59004;EQDQ01  00002PRCP06
0196832880999992004073012004-13267-043417FM-12+0458SBLP V0202301N001512200019N0200001N1+02091+01401101941ADDAA106000091GA1001+999999999GF100991001001999999001001KA1240N+01421MA1999999096941MD1999999-0091REMSYN070AAXX  30124 83288 32998 02303 10209 20140 39694 40194 333 20142 59009;EQDQ01  00002PRCP06
0167832880999992004073018004-13267-043417FM-12+0458SBLP V0202301N001512200019N0200001N1+02931+01381101401ADDAA106000091GF101991011011008001001001MA1999999096481MD1999999+0051REMSYN070AAXX  30184 83288 32598 12303 10293 20138 39648 40140 81100 333 58005;EQDQ01  00002PRCP06
0208832880999992004073100004-13267-043417FM-12+0458SBLP V0201801N003112200019N0020001N1+02331+01061101581ADDAA106000091GA1001+999999999GF100991001001999999001001KA1240M+02991MA1999999096611MD1999999-0141REMSYN082AAXX  31004 83288 32995 01806 10233 20106 39661 40158 333 10299 29049 55104 59014;EQDQ01  00002PRCP06
0186832880999992004073112004-13267-043417FM-12+0458SBLP V0201401N000512200019N0200001N1+02291+01331101851ADDAA106000091GF101991011011008001001001KA1240N+01651MA1999999096931MD1999999-0011REMSYN076AAXX  31124 83288 32598 11401 10229 20133 39693 40185 81100 333 20165 59001;EQDQ01  00002PRCP06
0167832880999992004073118004-13267-043417FM-12+0458SBLP V0203201N001512200019N0200001N1+03131+01721101181ADDAA106000091GF104991041011008001001001MA1999999096291MD1999999-0191REMSYN070AAXX  31184 83288 32598 43203 10313 20172 39629 40118 84100 333 59019;EQDQ01  00002PRCP06
0198832880999992004080100004-13267-043417FM-12+0458SBLP V0201801N001512200019N0020001N1+02491+01521101481ADDAA106000091GF103991031011008001001001KA1240M+03171MA1999999096551MD1999999-0061REMSYN088AAXX  01004 83288 32595 31803 10249 20152 39655 40148 83100 333 10317 29053 55104 59006;EQDQ01  00002PRCP06
0196832880999992004080112004-13267-043417FM-12+0458SBLP V0201401N001512200019N0200001N1+02431+01511101661ADDAA106000091GA1001+999999999GF100991001001999999001001KA1240N+01661MA1999999096741MD1999999+0451REMSYN070AAXX  01124 83288 32998 01403 10243 20151 39674 40166 333 20166 58045;EQDQ01  00002PRCP06
0167832880999992004080118004-13267-043417FM-12+0458SBLP V0201801N002112200019N0200001N1+03191+01531101141ADDAA106000091GF104991041021008001001001MA1999999096251MD1999999-0041REMSYN070AAXX  01184 83288 32598 41804 10319 20153 39625 40114 84200 333 59004;EQDQ01  00002PRCP06
0198832880999992004080200004-13267-043417FM-12+0458SBLP V0209999C000012200019N0020001N1+02651+01421101371ADDAA106000091GF103991031001017501041001KA1240M+03211MA1999999096481MD1999999-0071REMSYN088AAXX  02004 83288 32795 30000 10265 20142 39648 40137 83040 333 10321 29047 55100 59007;EQDQ01  00002PRCP06
0186832880999992004080212004-13267-043417FM-12+0458SBLP V0201801N001012200019N0200001N1+02231+01721101651ADDAA106000091GF104991011011008001031001KA1240N+01801MA1999999096691MD1999999-0051REMSYN076AAXX  02124 83288 32598 41802 10223 20172 39669 40165 81130 333 20180 59005;EQDQ01  00002PRCP06
0167832880999992004080218004-13267-043417FM-12+0458SBLP V0201401N001012200019N0200001N1+03271+01921101131ADDAA106000091GF103991031021008001001001MA1999999096261MD1999999+0011REMSYN070AAXX  02184 83288 32598 31402 10327 20192 39626 40113 83200 333 58001;EQDQ01  00002PRCP06
0198832880999992004080300004-13267-043417FM-12+0458SBLP V0201401N001512200019N0020001N1+02591+01751101431ADDAA106000091GF102991021011008001001001KA1240M+03351MA1999999096511MD1999999+0031REMSYN088AAXX  03004 83288 32595 21403 10259 20175 39651 40143 82100 333 10335 29059 55077 58003;EQDQ01  00002PRCP06
0196832880999992004080312004-13267-043417FM-12+0458SBLP V0201401N001512200019N0200001N1+02521+01551101701ADDAA106000091GA1001+999999999GF100991001001999999001001KA1240N+01821MA1999999096791MD1999999+0101REMSYN070AAXX  03124 83288 32998 01403 10252 20155 39679 40170 333 20182 58010;EQDQ01  00002PRCP06
0177832880999992004080318004-13267-043417FM-12+0458SBLP V0201401N002612200019N0200001N1+03171+01241101301ADDAA106000091GA1001+999999999GF100991001001999999001001MA1999999096421MD1999999+0161REMSYN064AAXX  03184 83288 32998 01405 10317 20124 39642 40130 333 58016;EQDQ01  00002PRCP06
0208832880999992004080400004-13267-043417FM-12+0458SBLP V0201401N001512200019N0020001N1+02331+01191101571ADDAA106000091GA1001+999999999GF100991001001999999001001KA1240M+03241MA1999999096641MD1999999+0131REMSYN082AAXX  04004 83288 32995 01403 10233 20119 39664 40157 333 10324 29046 55105 58013;EQDQ01  00002PRCP06
0196832880999992004080412004-13267-043417FM-12+0458SBLP V0201401N003112200019N0200001N1+02331+01251101981ADDAA106000091GA1001+999999999GF100991001001999999001001KA1240N+01721MA1999999097021MD1999999+0231REMSYN070AAXX  04124 83288 32998 01406 10233 20125 39702 40198 333 20172 58023;EQDQ01  00002PRCP06
0177832880999992004080418004-13267-043417FM-12+0458SBLP V0201401N003112200019N0200001N1+03031+01071101401ADDAA106000091GA1001+999999999GF100991001001999999001001MA1999999096481MD1999999+0061REMSYN064AAXX  04184 83288 32998 01406 10303 20107 39648 40140 333 58006;EQDQ01  00002PRCP06
0208832880999992004080500004-13267-043417FM-12+0458SBLP V0201401N001512200019N0020001N1+02231+01041101641ADDAA106000091GA1001+999999999GF100991001001999999001001KA1240M+03091MA1999999096681MD1999999+0041REMSYN082AAXX  05004 83288 32995 01403 10223 20104 39668 40164 333 10309 29044 55105 58004;EQDQ01  00002PRCP06
0196832880999992004080512004-13267-043417FM-12+0458SBLP V0201801N001512200019N0200001N1+02111+01471101981ADDAA106000091GA1001+999999999GF100991001001999999001001KA1240N+01541MA1999999096991MD1999999-0031REMSYN070AAXX  05124 83288 32998 01803 10211 20147 39699 40198 333 20154 59003;EQDQ01  00002PRCP06
0167832880999992004080518004-13267-043417FM-12+0458SBLP V0201801N002110075019N0200001N1+02851+01651101451ADDAA106000091GF105991051021008001001001MA1999999096531MD1999999+0051REMSYN070AAXX  05184 83288 32598 51804 10285 20165 39653 40145 85200 333 58005;EQDQ01  00002PRCP06
0198832880999992004080600004-13267-043417FM-12+0458SBLP V0201801N002112200019N0020001N1+02231+01561101761ADDAA106000091GF104991041081008001001001KA1240M+02971MA1999999096781MD1999999+0101REMSYN088AAXX  06004 83288 32595 41804 10223 20156 39678 40176 84800 333 10297 29062 55101 58010;EQDQ01  00002PRCP06
0196832880999992004080612004-13267-043417FM-12+0458SBLP V0201801N001012200019N0200001N1+02191+01621101941ADDAA106000091GA1001+999999999GF100991001001999999001001KA1240N+01561MA1999999096951MD1999999-0041REMSYN070AAXX  06124 83288 32998 01802 10219 20162 39695 40194 333 20156 59004;EQDQ01  00002PRCP06
0167832880999992004080618004-13267-043417FM-12+0458SBLP V0202701N001512200019N0200001N1+03091+01531101391ADDAA106000091GF103991031011008001001001MA1999999096471MD1999999-0061REMSYN070AAXX  06184 83288 32598 32703 10309 20153 39647 40139 83100 333 59006;EQDQ01  00002PRCP06
0208832880999992004080700004-13267-043417FM-12+0458SBLP V0201801N001512200019N0020001N1+02391+01671101651ADDAA106000091GA1001+999999999GF100991001001999999001001KA1240M+03151MA1999999096691MD1999999-0091REMSYN082AAXX  07004 83288 32995 01803 10239 20167 39669 40165 333 10315 29058 55105 59009;EQDQ01  00002PRCP06
0196832880999992004080712004-13267-043417FM-12+0458SBLP V0209999C000012200019N0200001N1+02491+01541101941ADDAA106000091GA1001+999999999GF100991001001999999001001KA1240N+01671MA1999999097001MD1999999+0051REMSYN070AAXX  07124 83288 32998 00000 10249 20154 39700 40194 333 20167 58005;EQDQ01  00002PRCP06
0177832880999992004080718004-13267-043417FM-12+0458SBLP V0202701N001512200019N0200001N1+03181+01211101441ADDAA106000091GA1001+999999999GF100991001001999999001001MA1999999096531MD1999999+0061REMSYN064AAXX  07184 83288 32998 02703 10318 20121 39653 40144 333 58006;EQDQ01  00002PRCP06
0208832880999992004080800004-13267-043417FM-12+0458SBLP V0201401N001512200019N0020001N1+02471+01081101651ADDAA106000091GA1001+999999999GF100991001001999999001001KA1240M+03251MA1999999096741MD1999999+0051REMSYN082AAXX  08004 83288 32995 01403 10247 20108 39674 40165 333 10325 29042 55105 58005;EQDQ01  00002PRCP06
0196832880999992004080812004-13267-043417FM-12+0458SBLP V0201801N000512200019N0200001N1+02251+01461101821ADDAA106000091GA1001+999999999GF100991001001999999001001KA1240N+01621MA1999999096861MD1999999-0141REMSYN070AAXX  08124 83288 32998 01801 10225 20146 39686 40182 333 20162 59014;EQDQ01  00002PRCP06
0167832880999992004080818004-13267-043417FM-12+0458SBLP V0202301N001012200019N0200001N1+03221+01521101291ADDAA106000091GF101991011011008001001001MA1999999096431MD1999999-0101REMSYN070AAXX  08184 83288 32598 12302 10322 20152 39643 40129 81100 333 59010;EQDQ01  00002PRCP06
0208832880999992004080900004-13267-043417FM-12+0458SBLP V0201801N001012200019N0020001N1+02511+01601101411ADDAA106000091GA1001+999999999GF100991001001999999001001KA1240M+03271MA1999999096491MD1999999-0251REMSYN082AAXX  09004 83288 32995 01802 10251 20160 39649 40141 333 10327 29052 55104 59025;EQDQ01  00002PRCP06
0196832880999992004080912004-13270-043420FM-12+0440SBLP V0202301N001512200019N0200001N1+02271+01521101731ADDAA106000091GA1001+999999999GF100991001001999999001001KA1240N+01701MA1999999096791MD1999999+0071REMSYN070AAXX  09124 83288 32998 02303 10227 20152 39679 40173 333 20170 58007;EQDQ01  00002PRCP06
0167832880999992004080918004-13270-043420FM-12+0440SBLP V0201401N002112200019N0200001N1+03261+01601101231ADDAA106000091GF103991031011008001001001MA1999999096371MD1999999-0061REMSYN070AAXX  09184 83288 32598 31404 10326 20160 39637 40123 83100 333 59006;EQDQ01  00002PRCP06
0208832880999992004081000004-13270-043420FM-12+0440SBLP V0201801N002112200019N0020001N1+02491+01171101611ADDAA106000091GA1001+999999999GF100991001001999999001001KA1240M+03331MA1999999096681MD1999999+0191REMSYN082AAXX  10004 83288 32995 01804 10249 20117 39668 40161 333 10333 29047 55100 58019;EQDQ01  00002PRCP06
0196832880999992004081012004-13270-043420FM-12+0440SBLP V0201401N002612200019N0200001N1+02341+01551101931ADDAA106000091GA1001+999999999GF100991001001999999001001KA1240N+01791MA1999999096981MD1999999+0191REMSYN070AAXX  10124 83288 32998 01405 10234 20155 39698 40193 333 20179 58019;EQDQ01  00002PRCP06
0167832880999992004081018004-13270-043420FM-12+0440SBLP V0201401N002112200019N0200001N1+02991+01511101471ADDAA106000091GF102991021021008001001001MA1999999096551MD1999999+0181REMSYN070AAXX  10184 83288 32598 21404 10299 20151 39655 40147 82200 333 58018;EQDQ01  00002PRCP06
0208832880999992004081100004-13270-043420FM-12+0440SBLP V0201401N002112200019N0020001N1+02391+01421101831ADDAA106000091GA1001+999999999GF100991001001999999001001KA1240M+03151MA1999999096871MD1999999+0191REMSYN082AAXX  11004 83288 32995 01404 10239 20142 39687 40183 333 10315 29053 55097 58019;EQDQ01  00002PRCP06
0196832880999992004081112004-13267-043417FM-12+0458SBLP V0200901N000512200019N0200001N1+02171+01471102061ADDAA106000091GA1001+999999999GF100991001001999999001001KA1240N+01501MA1999999097081MD1999999+0101REMSYN070AAXX  11124 83288 32998 00901 10217 20147 39708 40206 333 20150 58010;EQDQ01  00002PRCP06
0177832880999992004081118004-13267-043417FM-12+0458SBLP V0202301N002112200019N0200001N1+02931+01391101511ADDAA106000091GA1001+999999999GF100991001001999999001001MA1999999096571MD1999999+0021REMSYN064AAXX  11184 83288 32598 02304 10293 20139 39657 40151 333 58002;EQDQ01  00002PRCP06
0208832880999992004081200004-13270-043420FM-12+0440SBLP V0201401N002112200019N0020001N1+02231+00891101761ADDAA106000091GA1001+999999999GF100991001001999999001001KA1240M+02991MA1999999096781MD1999999-0091REMSYN082AAXX  12004 83288 32595 01404 10223 20089 39678 40176 333 10299 29048 55104 59009;EQDQ01  00002PRCP06
0186832880999992004081212004-13270-043420FM-12+0440SBLP V0201401N000519999999N0200001N1+02011+01171102121ADDAA106000091GF105991001001999999001041KA1240N+01421MA1999999097111MD1999999+0031REMSYN076AAXX  12124 83288 32998 51401 10201 20117 39711 40212 80004 333 20142 58003;EQDQ01  00002PRCP06
0167832880999992004081218004-13270-043420FM-12+0440SBLP V0201401N001512200019N0200001N1+02951+01341101571ADDAA106000091GF101991001001999999001011MA1999999096621MD1999999+0051REMSYN070AAXX  12184 83288 32998 11403 10295 20134 39662 40157 80001 333 58005;EQDQ01  00002PRCP06
0208832880999992004081300004-13270-043420FM-12+0440SBLP V0201401N001512200019N0020001N1+02171+00951101781ADDAA106000091GA1001+999999999GF100991001001999999001001KA1240M+03011MA1999999096781MD1999999+0001REMSYN082AAXX  13004 83288 32995 01403 10217 20095 39678 40178 333 10301 29045 55095 58000;EQDQ01  00002PRCP06
0167832880999992004081318004-13270-043420FM-12+0440SBLP V0201401N002119999999N0200001N1+02811+01111101551ADDAA106000091GF106991001001999999001021MA1999999096571MD1999999-0021REMSYN070AAXX  13184 83288 32998 61404 10281 20111 39657 40155 80002 333 59002;EQDQ01  00002PRCP06
0208832880999992004081400004-13270-043420FM-12+0440SBLP V0201401N001512200019N0020001N1+02031+00881101771ADDAA106000091GA1001+999999999GF100991001001999999001001KA1240M+02841MA1999999096781MD1999999-0091REMSYN082AAXX  14004 83288 32995 01403 10203 20088 39678 40177 333 10284 29045 55085 59009;EQDQ01  00002PRCP06
0091832880999992004081409004-13270-043420FM-15+0440SBLP V0209999C00001220001CN0099001N1+01501+01001999999ADDMA1102201999999MW1001REMMET039SBLP 140900Z 00000KT CAVOK 15/10 Q1022;EQDQ01+000000PRSWM2
0091832880999992004081411004-13270-043420FM-15+0440SBLP V0201501N00311220001CN0099001N1+01901+01001999999ADDMA1102401999999MW1001REMMET039SBLP 141100Z 15006KT CAVOK 19/10 Q1024;EQDQ01+000000PRSWM2
0186832880999992004081412004-13270-043420FM-12+0440SBLP V0201401N001512200019N0200001N1+02091+01311102221ADDAA106000091GF102991001001999999001021KA1240N+01441MA1999999097191MD1999999+0071REMSYN076AAXX  14124 83288 32998 21403 10209 20131 39719 40222 80002 333 20144 58007;EQDQ01  00002PRCP06
0167832880999992004081418004-13270-043420FM-12+0440SBLP V0201401N001519999999N0200001N1+02751+01651101621ADDAA106000091GF107991001001999999001061MA1999999096661MD1999999+0091REMSYN070AAXX  14184 83288 32998 71403 10275 20165 39666 40162 80006 333 58009;EQDQ01  00002PRCP06
0208832880999992004081500004-13270-043420FM-12+0440SBLP V0201401N001512200019N0020001N1+02091+01231101871ADDAA106000091GA1001+999999999GF100991001001999999001001KA1240M+02791MA1999999096861MD1999999+0081REMSYN082AAXX  15004 83288 32995 01403 10209 20123 39686 40187 333 10279 29057 55082 58008;EQDQ01  00002PRCP06
0196832880999992004081512004-13270-043420FM-12+0440SBLP V0201401N002112200019N0200001N1+02151+01411102111ADDAA106000091GA1001+999999999GF100991001001999999001001KA1240N+01341MA1999999097091MD1999999-0101REMSYN070AAXX  15124 83288 32998 01404 10215 20141 39709 40211 333 20134 59010;EQDQ01  00002PRCP06
0177832880999992004081518004-13270-043420FM-12+0440SBLP V0202301N000512200019N0200001N1+03001+01051101521ADDAA106000091GA1001+999999999GF100991001001999999001001MA1999999096571MD1999999-0091REMSYN064AAXX  15184 83288 32998 02301 10300 20105 39657 40152 333 59009;EQDQ01  00002PRCP06
0208832880999992004081600004-13270-043420FM-12+0440SBLP V0201801N001512200019N0020001N1+02171+00981101751ADDAA106000091GA1001+999999999GF100991001001999999001001KA1240M+03051MA1999999096761MD1999999-0101REMSYN082AAXX  16004 83288 32995 01803 10217 20098 39676 40175 333 10305 29046 55107 59010;EQDQ01  00002PRCP06
0196832880999992004081612004-13270-043420FM-12+0440SBLP V0200901N001012200019N0200001N1+02351+01441101911ADDAA106000091GA1001+999999999GF100991001001999999001001KA1240N+01501MA1999999096931MD1999999-0161REMSYN070AAXX  16124 83288 32998 00902 10235 20144 39693 40191 333 20150 59016;EQDQ01  00002PRCP06
0193832880999992004081618004-13270-043420FM-12+0440SBLP V0202701N002612200019N0200001N1+03111+01581101092ADDAA106000091GA1001+999999999GF100991001001999999001001MA1999999096361MD1999999-0301REMSYN064AAXX  16184 83288 32998 02705 10311 20158 39636 40109 333 59030;EQDQ01+101093APOSLPQ02  00002PRCP06
0208832880999992004081700004-13270-043420FM-12+0440SBLP V0201801N002112200019N0020001N1+02261+01291101521ADDAA106000091GA1001+999999999GF100991001001999999001001KA1240M+03131MA1999999096571MD1999999-0191REMSYN082AAXX  17004 83288 32995 01804 10226 20129 39657 40152 333 10313 29051 55106 59019;EQDQ01  00002PRCP06
0196832880999992004081712004-13270-043420FM-12+0440SBLP V0200901N001012200019N0200001N1+02311+01541101861ADDAA106000091GA1001+999999999GF100991001001999999001001KA1240N+01501MA1999999096891MD1999999-0041REMSYN070AAXX  17124 83288 32998 00902 10231 20154 39689 40186 333 20150 59004;EQDQ01  00002PRCP06
0167832880999992004081718004-13270-043420FM-12+0440SBLP V0201801N001512200019N0200001N1+03111+01591101231ADDAA106000091GF101991011011008001001001MA1999999096331MD1999999-0031REMSYN070AAXX  17184 83288 32598 11803 10311 20159 39633 40123 81100 333 59003;EQDQ01  00002PRCP06
0208832880999992004081800004-13270-043420FM-12+0440SBLP V0201801N001012200019N0020001N1+02441+01451101441ADDAA106000091GA1001+999999999GF100991001001999999001001KA1240M+03231MA1999999096521MD1999999-0051REMSYN082AAXX  18004 83288 32995 01802 10244 20145 39652 40144 333 10323 29052 55106 59005;EQDQ01  00002PRCP06
0196832880999992004081812004-13270-043420FM-12+0440SBLP V0201801N001512200019N0200001N1+02361+01781101751ADDAA106000091GA1001+999999999GF100991001001999999001001KA1240N+01621MA1999999096811MD1999999-0081REMSYN070AAXX  18124 83288 32998 01803 10236 20178 39681 40175 333 20162 59008;EQDQ01  00002PRCP06
0167832880999992004081818004-13270-043420FM-12+0440SBLP V0202701N001512200019N0200001N1+03221+01841101221ADDAA106000091GF101991011011008001001001MA1999999096331MD1999999+0001REMSYN070AAXX  18184 83288 32598 12703 10322 20184 39633 40122 81100 333 58000;EQDQ01  00002PRCP06
0208832880999992004081900004-13270-043420FM-12+0440SBLP V0201801N001512200019N0020001N1+02571+02221101551ADDAA106000091GA1001+999999999GF100991001001999999001001KA1240M+03321MA1999999096631MD1999999+0111REMSYN082AAXX  19004 83288 32995 01803 10257 20222 39663 40155 333 10332 29052 55106 58011;EQDQ01  00002PRCP06
0196832880999992004081912004-13270-043420FM-12+0440SBLP V0200901N001512200019N0200001N1+02591+01691101881ADDAA106000091GA1001+999999999GF100991001001999999001001KA1240N+01801MA1999999096971MD1999999+0161REMSYN070AAXX  19124 83288 32998 00903 10259 20169 39697 40188 333 20180 58016;EQDQ01  00002PRCP06
0167832880999992004081918004-13270-043420FM-12+0440SBLP V0202701N003112200019N0200001N1+03281+01701101291ADDAA106000091GF101991011021008001001001MA1999999096421MD1999999+0091REMSYN070AAXX  19184 83288 32598 12706 10328 20170 39642 40129 81200 333 58009;EQDQ01  00002PRCP06
0208832880999992004082000004-13270-043420FM-12+0440SBLP V0201401N001512200019N0020001N1+02631+01331101491ADDAA106000091GA1001+999999999GF100991001001999999001001KA1240M+03351MA1999999096601MD1999999-0031REMSYN082AAXX  20004 83288 32995 01403 10263 20133 39660 40149 333 10335 29047 55107 59003;EQDQ01  00002PRCP06
0196832880999992004082012004-13270-043420FM-12+0440SBLP V0200901N001012200019N0200001N1+02391+01831101741ADDAA106000091GA1001+999999999GF100991001001999999001001KA1240N+01841MA1999999096821MD1999999-0151REMSYN070AAXX  20124 83288 32998 00902 10239 20183 39682 40174 333 20184 59015;EQDQ01  00002PRCP06
0167832880999992004082018004-13270-043420FM-12+0440SBLP V0201801N001012200019N0200001N1+03281+01961101151ADDAA106000091GF103991031011008001001001MA1999999096301MD1999999-0121REMSYN070AAXX  20184 83288 32598 31802 10328 20196 39630 40115 83100 333 59012;EQDQ01  00002PRCP06
0208832880999992004082100004-13270-043420FM-12+0440SBLP V0201801N001512200019N0020001N1+02651+01731101361ADDAA106000091GA1001+999999999GF100991001001999999001001KA1240M+03371MA1999999096471MD1999999-0131REMSYN082AAXX  21004 83288 32995 01803 10265 20173 39647 40136 333 10337 29058 55106 59013;EQDQ01  00002PRCP06
0196832880999992004082112004-13270-043420FM-12+0440SBLP V0201401N001012200019N0200001N1+02531+01581101661ADDAA106000091GA1001+999999999GF100991001001999999001001KA1240N+01761MA1999999096761MD1999999-0061REMSYN070AAXX  21124 83288 32998 01402 10253 20158 39676 40166 333 20176 59006;EQDQ01  00002PRCP06
0167832880999992004082118004-13270-043420FM-12+0440SBLP V0202301N002112200019N0200001N1+03241+01541101151ADDAA106000091GF101991011011008001001001MA1999999096291MD1999999-0011REMSYN070AAXX  21184 83288 32598 12304 10324 20154 39629 40115 81100 333 59001;EQDQ01  00002PRCP06
0208832880999992004082200004-13270-043420FM-12+0440SBLP V0201801N002112200019N0020001N1+02631+01351101351ADDAA106000091GA1001+999999999GF100991001001999999001001KA1240M+03401MA1999999096471MD1999999+0001REMSYN082AAXX  22004 83288 32995 01804 10263 20135 39647 40135 333 10340 29046 55108 58000;EQDQ01  00002PRCP06
0196832880999992004082212004-13270-043420FM-12+0440SBLP V0201401N001512200019N0200001N1+02571+01671101581ADDAA106000091GA1001+999999999GF100991001001999999001001KA1240N+01791MA1999999096681MD1999999-0081REMSYN070AAXX  22124 83288 32998 01403 10257 20167 39668 40158 333 20179 59008;EQDQ01  00002PRCP06
0151832880999992004082218004-13270-043420FM-12+0440SBLP V0202701N002612200019N0200001N1+03381+01381101161ADDAA106000091GF101991011011008001001001MA1999999096211REMSYN068AAXX  22184 83288 32598 12705 10338 20138 39621 40116 81100 333 598;EQDQ01  00002PRCP06
0208832880999992004082300004-13270-043420FM-12+0440SBLP V0201801N001512200019N0020001N1+02691+01131101221ADDAA106000091GA1001+999999999GF100991001001999999001001KA1240M+03391MA1999999096351MD1999999-0111REMSYN082AAXX  23004 83288 32995 01803 10269 20113 39635 40122 333 10339 29041 55108 59011;EQDQ01  00002PRCP06
0186832880999992004082312004-13270-043420FM-12+0440SBLP V0200901N001012200019N0200001N1+02711+01841101591ADDAA106000091GF103991001001999999001051KA1240N+01921MA1999999096721MD1999999+0041REMSYN076AAXX  23124 83288 32998 30902 10271 20184 39672 40159 80005 333 20192 58004;EQDQ01  00002PRCP06
0167832880999992004082318004-13270-043420FM-12+0440SBLP V0202301N001012200019N0200001N1+03361+01971101101ADDAA106000091GF102991021011008001001001MA1999999096251MD1999999+0041REMSYN070AAXX  23184 83288 32598 22302 10336 20197 39625 40110 82100 333 58004;EQDQ01  00002PRCP06
0198832880999992004082400004-13270-043420FM-12+0440SBLP V0209999C000012200019N0020001N1+02811+01791101181ADDAA106000091GF104991041021008001001001KA1240M+03451MA1999999096341MD1999999-0011REMSYN088AAXX  24004 83288 32595 40000 10281 20179 39634 40118 84200 333 10345 29052 55107 59001;EQDQ01  00002PRCP06
0196832880999992004082412004-13270-043420FM-12+0440SBLP V0202301N000512200019N0200001N1+02851+01411101441ADDAA106000091GA1001+999999999GF100991001001999999001001KA1240N+01981MA1999999096611MD1999999+0111REMSYN070AAXX  24124 83288 32998 02301 10285 20141 39661 40144 333 20198 58011;EQDQ01  00002PRCP06
0167832880999992004082418004-13270-043420FM-12+0440SBLP V0202301N001512200019N0200001N1+03481+01711100881ADDAA106000091GF102991021021008001001001MA1999999096051MD1999999-0201REMSYN070AAXX  24184 83288 32598 22303 10348 20171 39605 40088 82200 333 59020;EQDQ01  00002PRCP06
0198832880999992004082500004-13270-043420FM-12+0440SBLP V0201801N001012200019N0020001N1+02711+00911101051ADDAA106000091GF101991011011008001001001KA1240M+03551MA1999999096231MD1999999-0111REMSYN088AAXX  25004 83288 32595 11802 10271 20091 39623 40105 81100 333 10355 29034 55092 59011;EQDQ01  00002PRCP06
0196832880999992004082512004-13270-043420FM-12+0440SBLP V0201401N001512200019N0200001N1+02781+01511101471ADDAA106000091GA1001+999999999GF100991001001999999001001KA1240N+01841MA1999999096601MD1999999-0011REMSYN070AAXX  25124 83288 32998 01403 10278 20151 39660 40147 333 20184 59001;EQDQ01  00002PRCP06
0177832880999992004082518004-13267-043417FM-12+0458SBLP V0201801N001512200019N0200001N1+03361+01021100861ADDAA106000091GA1001+999999999GF100991001001999999001001MA1999999096021MD1999999-0051REMSYN064AAXX  25184 83288 32998 01803 10336 20102 39602 40086 333 59005;EQDQ01  00002PRCP06
0208832880999992004082600004-13267-043417FM-12+0458SBLP V0201401N001512200019N0020001N1+02531+01101101121ADDAA106000091GA1001+999999999GF100991001001999999001001KA1240M+03551MA1999999096231MD1999999+0031REMSYN082AAXX  26004 83288 32995 01403 10253 20110 39623 40112 333 10355 29038 55106 58003;EQDQ01  00002PRCP06
0196832880999992004082612004-13267-043417FM-12+0458SBLP V0201401N001512200019N0200001N1+02591+01521101481ADDAA106000091GA1001+999999999GF100991001001999999001001KA1240N+01761MA1999999096581MD1999999-0021REMSYN070AAXX  26124 83288 32998 01403 10259 20152 39658 40148 333 20176 59002;EQDQ01  00002PRCP06
0177832880999992004082618004-13267-043417FM-12+0458SBLP V0201801N002112200019N0200001N1+03401+01721100861ADDAA106000091GA1001+999999999GF100991001001999999001001MA1999999096081MD1999999+0061REMSYN064AAXX  26184 83288 32998 01804 10340 20172 39608 40086 333 58006;EQDQ01  00002PRCP06
0208832880999992004082700004-13267-043417FM-12+0458SBLP V0200901N000512200019N0020001N1+02531+01641101171ADDAA106000091GA1001+999999999GF100991001001999999001001KA1240M+03451MA1999999096291MD1999999+0031REMSYN082AAXX  27004 83288 32995 00901 10253 20164 39629 40117 333 10345 29049 55100 58003;EQDQ01  00002PRCP06
0196832880999992004082712004-13267-043417FM-12+0458SBLP V0200901N001012200019N0200001N1+02581+01581101391ADDAA106000091GA1001+999999999GF100991001001999999001001KA1240N+01641MA1999999096501MD1999999-0081REMSYN070AAXX  27124 83288 32998 00902 10258 20158 39650 40139 333 20164 59008;EQDQ01  00002PRCP06
0208832880999992004082800004-13267-043417FM-12+0458SBLP V0201801N001512200019N0020001N1+02631+00931101121ADDAA106000091GA1001+999999999GF100991001001999999001001KA1240M+03351MA1999999096251MD1999999-0041REMSYN082AAXX  28004 83288 32995 01803 10263 20093 39625 40112 333 10335 29036 55106 59004;EQDQ01  00002PRCP06
0196832880999992004082812004-13267-043417FM-12+0458SBLP V0203601N001012200019N0200001N1+02671+01601101461ADDAA106000091GA1001+999999999GF100991001001999999001001KA1240N+01771MA1999999096581MD1999999+0081REMSYN070AAXX  28124 83288 32998 03602 10267 20160 39658 40146 333 20177 58008;EQDQ01  00002PRCP06
0177832880999992004082818004-13270-043420FM-12+0440SBLP V0202301N002612200019N0200001N1+03491+01361100851ADDAA106000091GA1001+999999999GF100991001001999999001001MA1999999095961MD1999999-0141REMSYN064AAXX  28184 83288 32998 02305 10349 20136 39596 40085 333 59014;EQDQ01  00002PRCP06
0208832880999992004082900004-13270-043420FM-12+0440SBLP V0201801N001512200019N0020001N1+02871+01331100931ADDAA106000091GA1001+999999999GF100991001001999999001001KA1240M+03561MA1999999096101MD1999999-0151REMSYN082AAXX  29004 83288 32995 01803 10287 20133 39610 40093 333 10356 29040 55106 59015;EQDQ01  00002PRCP06
0196832880999992004082912004-13270-043420FM-12+0440SBLP V0203601N001012200019N0200001N1+02631+01411101141ADDAA106000091GA1001+999999999GF100991001001999999001001KA1240N+01761MA1999999096301MD1999999-0281REMSYN070AAXX  29124 83288 32998 03602 10263 20141 39630 40114 333 20176 59028;EQDQ01  00002PRCP06
0177832880999992004082918004-13270-043420FM-12+0440SBLP V0202701N001512200019N0200001N1+03701+01941100601ADDAA106000091GA1001+999999999GF100991001001999999001001MA1999999095821MD1999999-0141REMSYN064AAXX  29184 83288 32998 02703 10370 20194 39582 40060 333 59014;EQDQ01  00002PRCP06
0198832880999992004083000004-13270-043420FM-12+0440SBLP V0201801N000512200019N0020001N1+02881+01771100871ADDAA106000091GF102991011011008001041001KA1240M+03811MA1999999096041MD1999999-0061REMSYN088AAXX  30004 83288 32595 21801 10288 20177 39604 40087 81140 333 10381 29045 55104 59006;EQDQ01  00002PRCP06
0196832880999992004083012004-13267-043417FM-12+0458SBLP V0200501N001512200019N0200001N1+03011+01531101171ADDAA106000091GA1001+999999999GF100991001001999999001001KA1240N+02041MA1999999096371MD1999999+0071REMSYN070AAXX  30124 83288 32998 00503 10301 20153 39637 40117 333 20204 58007;EQDQ01  00002PRCP06
0167832880999992004083018004-13267-043417FM-12+0458SBLP V0202301N000512200019N0200001N1+03701+01941100641ADDAA106000091GF102991021021008001001001MA1999999095901MD1999999+0081REMSYN070AAXX  30184 83288 32598 22301 10370 20194 39590 40064 82200 333 58008;EQDQ01  00002PRCP06
0208832880999992004083100004-13267-043417FM-12+0458SBLP V0201401N001512200019N0020001N1+02991+01641100951ADDAA106000091GA1001+999999999GF100991001001999999001001KA1240M+03791MA1999999096171MD1999999+0131REMSYN082AAXX  31004 83288 32995 01403 10299 20164 39617 40095 333 10379 29040 55099 58013;EQDQ01  00002PRCP06
0196832880999992004083112004-13267-043417FM-12+0458SBLP V0201401N000512200019N0200001N1+02831+01711101401ADDAA106000091GA1001+999999999GF100991001001999999001001KA1240N+02241MA1999999096581MD1999999+0211REMSYN070AAXX  31124 83288 32998 01401 10283 20171 39658 40140 333 20224 58021;EQDQ01  00002PRCP06
0167832880999992004083118004-13267-043417FM-12+0458SBLP V0201401N001510450019N0200001N1+03441+02071100941ADDAA106000091GF107991041021008001021021MA1999999096111MD1999999-0211REMSYN070AAXX  31184 83288 32598 71403 10344 20207 39611 40094 84222 333 59021;EQDQ01  00002PRCP06
0198832880999992004090100004-13267-043417FM-12+0458SBLP V0201401N001012200019N0020001N1+02841+01101101331ADDAA106000091GF103991031011008001001021KA1240M+03551MA1999999096281MD1999999+0111REMSYN088AAXX  01004 83288 32595 31402 10284 20110 39628 40133 83102 333 10355 29040 55091 58011;EQDQ01  00002PRCP06
0186832880999992004090112004-13267-043417FM-12+0458SBLP V0201401N001519999999N0200001N1+02521+01501101811ADDAA106000091GF106991001001999999001021KA1240N+02151MA1999999096931MD1999999+0351REMSYN076AAXX  01124 83288 32998 61403 10252 20150 39693 40181 80002 333 20215 58035;EQDQ01  00002PRCP06
0167832880999992004090118004-13267-043417FM-12+0458SBLP V0201401N003119999999N0200001N1+03261+01601101261ADDAA106000091GF106991061001012501071021MA1999999096411MD1999999+0301REMSYN070AAXX  01184 83288 32698 61406 10326 20160 39641 40126 86072 333 58030;EQDQ01  00002PRCP06
0198832880999992004090200004-13267-043417FM-12+0458SBLP V0201401N001512200019N0020001N1+02561+01281101561ADDAA106000091GF103991001001999999001021KA1240M+03311MA1999999096661MD1999999+0381REMSYN088AAXX  02004 83288 32995 31403 10256 20128 39666 40156 80002 333 10331 29045 55089 58038;EQDQ01  00002PRCP06
0186832880999992004090212004-13267-043417FM-12+0458SBLP V0200901N002112200019N0200001N1+02481+01511101891ADDAA106000091GF102991011011008001001091KA1240N+01781MA1999999096961MD1999999+0031REMSYN076AAXX  02124 83288 32598 20904 10248 20151 39696 40189 81109 333 20178 58003;EQDQ01  00002PRCP06
0167832880999992004090218004-13267-043417FM-12+0458SBLP V0201401N001512200019N0200001N1+03211+01761101261ADDAA106000091GF104991021011008001001021MA1999999096371MD1999999-0041REMSYN070AAXX  02184 83288 32598 41403 10321 20176 39637 40126 82102 333 59004;EQDQ01  00002PRCP06
0208832880999992004090300004-13267-043417FM-12+0458SBLP V0201401N001012200019N0020001N1+02511+01601101621ADDAA106000091GA1001+999999999GF100991001001999999001001KA1240M+03271MA1999999096711MD1999999+0051REMSYN082AAXX  03004 83288 32995 01402 10251 20160 39671 40162 333 10327 29051 55109 58005;EQDQ01  00002PRCP06
0196832880999992004090312004-13267-043417FM-12+0458SBLP V0201401N001512200019N0200001N1+02431+01491101861ADDAA106000091GA1001+999999999GF100991001001999999001001KA1240N+01721MA1999999096931MD1999999-0031REMSYN070AAXX  03124 83288 32998 01403 10243 20149 39693 40186 333 20172 59003;EQDQ01  00002PRCP06
0177832880999992004090318004-13267-043417FM-12+0458SBLP V0202301N000512200019N0200001N1+03261+00911101331ADDAA106000091GA1001+999999999GF100991001001999999001001MA1999999096411MD1999999+0041REMSYN064AAXX  03184 83288 32998 02301 10326 20091 39641 40133 333 58004;EQDQ01  00002PRCP06
0208832880999992004090400004-13267-043417FM-12+0458SBLP V0201801N001512200019N0020001N1+02471+00611101411ADDAA106000091GA1001+999999999GF100991001001999999001001KA1240M+03311MA1999999096501MD1999999-0211REMSYN082AAXX  04004 83288 32995 01803 10247 20061 39650 40141 333 10331 29035 55109 59021;EQDQ01  00002PRCP06
0186832880999992004090412004-13267-043417FM-12+0458SBLP V0201801N000512200019N0200001N1+02521+01101101541ADDAA106000091GF102991011011008001001021KA1240N+01691MA1999999096631MD1999999-0301REMSYN076AAXX  04124 83288 32598 21801 10252 20110 39663 40154 81102 333 20169 59030;EQDQ01  00002PRCP06
0177832880999992004090418004-13267-043417FM-12+0458SBLP V0201401N000512200019N0200001N1+03451+02111100771ADDAA106000091GA1001+999999999GF100991001001999999001001MA1999999096141MD1999999-0271REMSYN064AAXX  04184 83288 32998 01401 10345 20211 39614 40077 333 59027;EQDQ01  00002PRCP06
0196832880999992004090512004-13267-043417FM-12+0458SBLP V0200901N001512200019N0200001N1+02551+01491101561ADDAA106000091GA1001+999999999GF100991001001999999001001KA1240N+01801MA1999999096661MD1999999+0031REMSYN070AAXX  05124 83288 32998 00903 10255 20149 39666 40156 333 20180 58003;EQDQ01  00002PRCP06
0167832880999992004090518004-13267-043417FM-12+0458SBLP V0200901N001512200019N0200001N1+03281+01931100981ADDAA106000091GF101991011011008001001001MA1999999096101MD1999999-0041REMSYN070AAXX  05184 83288 32598 10903 10328 20193 39610 40098 81100 333 59004;EQDQ01  00002PRCP06
0208832880999992004090600004-13267-043417FM-12+0458SBLP V0201401N001012200019N0020001N1+02631+01711101211ADDAA106000091GA1001+999999999GF100991001001999999001001KA1240M+03371MA1999999096331MD1999999-0191REMSYN082AAXX  06004 83288 32995 01402 10263 20171 39633 40121 333 10337 29051 55107 59019;EQDQ01  00002PRCP06
0196832880999992004090612004-13267-043417FM-12+0458SBLP V0200901N001012200019N0200001N1+02571+01551101361ADDAA106000091GA1001+999999999GF100991001001999999001001KA1240N+01821MA1999999096481MD1999999+0181REMSYN070AAXX  06124 83288 32998 00902 10257 20155 39648 40136 333 20182 58018;EQDQ01  00002PRCP06
0177832880999992004090618004-13267-043417FM-12+0458SBLP V0201401N001012200019N0200001N1+03381+01381100751ADDAA106000091GA1001+999999999GF100991001001999999001001MA1999999095911MD1999999-0191REMSYN064AAXX  06184 83288 32998 01402 10338 20138 39591 40075 333 59019;EQDQ01  00002PRCP06
0208832880999992004090700004-13267-043417FM-12+0458SBLP V0201801N001012200019N0020001N1+02531+00751100961ADDAA106000091GA1001+999999999GF100991001001999999001001KA1240M+03431MA1999999096091MD1999999-0241REMSYN082AAXX  07004 83288 32595 01802 10253 20075 39609 40096 333 10343 29037 55109 59024;EQDQ01  00002PRCP06
0196832880999992004090712004-13267-043417FM-12+0458SBLP V0201401N001512200019N0200001N1+02451+01481101321ADDAA106000091GA1001+999999999GF100991001001999999001001KA1240N+01781MA1999999096411MD1999999-0071REMSYN070AAXX  07124 83288 32998 01403 10245 20148 39641 40132 333 20178 59007;EQDQ01  00002PRCP06
0167832880999992004090718004-13267-043417FM-12+0458SBLP V0202701N001511050019N0200001N1+03271+01421100641ADDAA106000091GF105991031011008001001021MA1999999095931MD1999999+0021REMSYN070AAXX  07184 83288 32598 52703 10327 20142 39593 40064 83102 333 58002;EQDQ01  00002PRCP06
0208832880999992004090800004-13267-043417FM-12+0458SBLP V0201401N001512200019N0020001N1+02581+00921100781ADDAA106000091GA1001+999999999GF100991001001999999001001KA1240M+03331MA1999999095931MD1999999-0161REMSYN082AAXX  08004 83288 32995 01403 10258 20092 39593 40078 333 10333 29035 55100 59016;EQDQ01  00002PRCP06
0197832880999992004090812004-13267-043417FM-12+0458SBLP V0201801N001512200019N0200001N1+02431+01631101351ADDAA106000091GA1001+999999999GF100991001001999999001001KA1240N+01721MD1999999+0041REMSYN070AAXX  08124 83288 32998 01803 10243 20163 33964 40135 333 20172 58004;EQDQ01+039641APOSP Q02  00002PRCP06
0177832880999992004090818004-13267-043417FM-12+0458SBLP V0201801N002112200019N0200001N1+03281+01931100771ADDAA106000091GA1001+999999999GF100991001001999999001001MA1999999095921MD1999999-0011REMSYN064AAXX  08184 83288 32998 01804 10328 20193 39592 40077 333 59001;EQDQ01  00002PRCP06
0208832880999992004090900004-13267-043417FM-12+0458SBLP V0201801N001512200019N0020001N1+02481+01651101161ADDAA106000091GA1001+999999999GF100991001001999999001001KA1240M+03351MA1999999096261MD1999999+0101REMSYN082AAXX  09004 83288 32995 01803 10248 20165 39626 40116 333 10335 29055 55107 58010;EQDQ01  00002PRCP06
0196832880999992004090912004-13267-043417FM-12+0458SBLP V0201401N001512200019N0200001N1+02391+01591101561ADDAA106000091GA1001+999999999GF100991001001999999001001KA1240N+01721MA1999999096631MD1999999+0181REMSYN070AAXX  09124 83288 32998 01403 10239 20159 39663 40156 333 20172 58018;EQDQ01  00002PRCP06
0177832880999992004090918004-13267-043417FM-12+0458SBLP V0201801N001512200019N0200001N1+03191+01781100981ADDAA106000091GA1001+999999999GF100991001001999999001001MA1999999096181MD1999999+0261REMSYN064AAXX  09184 83288 32998 01803 10319 20178 39618 40098 333 58026;EQDQ01  00002PRCP06
0208832880999992004091000004-13267-043417FM-12+0458SBLP V0201801N001012200019N0020001N1+02531+01751101201ADDAA106000091GA1001+999999999GF100991001001999999001001KA1240M+03291MA1999999096301MD1999999+0041REMSYN082AAXX  10004 83288 32995 01802 10253 20175 39630 40120 333 10329 29055 55109 58004;EQDQ01  00002PRCP06
0196832880999992004091012004-13267-043417FM-12+0458SBLP V0201401N001012200019N0200001N1+02551+01331101501ADDAA106000091GA1001+999999999GF100991001001999999001001KA1240N+01841MA1999999096601MD1999999-0031REMSYN070AAXX  10124 83288 32998 01402 10255 20133 39660 40150 333 20184 59003;EQDQ01  00002PRCP06
0177832880999992004091018004-13267-043417FM-12+0458SBLP V0202301N001512200019N0200001N1+03241+02281100901ADDAA106000091GA1001+999999999GF100991001001999999001001MA1999999096041MD1999999-0141REMSYN064AAXX  10184 83288 32998 02303 10324 20228 39604 40090 333 59014;EQDQ01  00002PRCP06
0186832880999992004091112004-13267-043417FM-12+0458SBLP V0200901N002112200019N0200001N1+02591+01661101451ADDAA106000091GF101991001001999999001011KA1240N+01841MA1999999096581MD1999999-0021REMSYN076AAXX  11124 83288 32998 10904 10259 20166 39658 40145 80001 333 20184 59002;EQDQ01  00002PRCP06
0167832880999992004091118004-13267-043417FM-12+0458SBLP V0202301N001512200019N0200001N1+03321+01651100911ADDAA106000091GF103991021021008001001021MA1999999096061MD1999999+0021REMSYN070AAXX  11184 83288 32598 32303 10332 20165 39606 40091 82202 333 58002;EQDQ01  00002PRCP06
0208832880999992004091200004-13267-043417FM-12+0458SBLP V0201401N001012200019N0020001N1+02711+01121101171ADDAA106000091GA1001+999999999GF100991001001999999001001KA1240M+03331MA1999999096311MD1999999+0251REMSYN082AAXX  12004 83288 32995 01402 10271 20112 39631 40117 333 10333 29042 55100 58025;EQDQ01  00002PRCP06
0186832880999992004091212004-13270-043420FM-12+0440SBLP V0200901N001019999999N0200001N1+02531+01481101601ADDAA106000091GF105991001001999999001051KA1240N+01941MA1999999096711MD1999999+0131REMSYN076AAXX  12124 83288 32998 50902 10253 20148 39671 40160 80005 333 20194 58013;EQDQ01  00002PRCP06
0167832880999992004091218004-13267-043417FM-12+0458SBLP V0201401N001510075019N0200001N1+03191+01591101151ADDAA106000091GF107991071011008001001051MA1999999096291MD1999999+0231REMSYN070AAXX  12184 83288 32598 71403 10319 20159 39629 40115 87105 333 58023;EQDQ01  00002PRCP06
0208832880999992004091300004-13267-043417FM-12+0458SBLP V0201401N001512200019N0020001N1+02631+01281101511ADDAA106000091GA1001+999999999GF100991001001999999001001KA1240M+03251MA1999999096611MD1999999+0301REMSYN082AAXX  13004 83288 32995 01403 10263 20128 39661 40151 333 10325 29044 55056 58030;EQDQ01  00002PRCP06
0196832880999992004091312004-13267-043417FM-12+0458SBLP V0200901N001012200019N0200001N1+02591+01301101801ADDAA106000091GA1001+999999999GF100991001001999999001001KA1240N+01481MA1999999096901MD1999999+0191REMSYN070AAXX  13124 83288 32598 00902 10259 20130 39690 40180 333 20148 58019;EQDQ01  00002PRCP06
0167832880999992004091318004-13267-043417FM-12+0458SBLP V0202301N001012200019N0200001N1+03271+01721101081ADDAA106000091GF102991011011008001001021MA1999999096351MD1999999+0061REMSYN070AAXX  13184 83288 32598 22302 10327 20172 39635 40108 81102 333 58006;EQDQ01  00002PRCP06
0208832880999992004091400004-13267-043417FM-12+0458SBLP V0201401N000512200019N0200001N1+02531+01241101401ADDAA106000091GA1001+999999999GF100991001001999999001001KA1240M+03221MA1999999096621MD1999999+0461REMSYN082AAXX  14004 83288 32998 01401 10253 20124 39662 40140 333 10322 29045 55103 58046;EQDQ01  00002PRCP06
0186832880999992004091412004-13267-043417FM-12+0458SBLP V0201401N001512200019N0200001N1+02591+01731101791ADDAA106000091GF104991001001999999001051KA1240N+01921MA1999999096881MD1999999-0021REMSYN076AAXX  14124 83288 32998 41403 10259 20173 39688 40179 80005 333 20192 59002;EQDQ01  00002PRCP06
0167832880999992004091418004-13267-043417FM-12+0458SBLP V0200901N001010075019N0200001N1+03221+01841101301ADDAA106000091GF105991051021008001001001MA1999999096411MD1999999+0161REMSYN070AAXX  14184 83288 32598 50902 10322 20184 39641 40130 85200 333 58016;EQDQ01  00002PRCP06
0208832880999992004091500004-13267-043417FM-12+0458SBLP V0201801N001012200019N0020001N1+02551+01581101541ADDAA106000091GA1001+999999999GF100991001001999999001001KA1240M+03271MA1999999096651MD1999999-0101REMSYN082AAXX  15004 83288 32995 01802 10255 20158 39665 40154 333 10327 29053 55087 59010;EQDQ01  00002PRCP06
0196832880999992004091512004-13267-043417FM-12+0458SBLP V0200901N002112200019N0200001N1+02631+01401101741ADDAA106000091GA1001+999999999GF100991001001999999001001KA1240N+01901MA1999999096821MD1999999-0061REMSYN070AAXX  15124 83288 32998 00904 10263 20140 39682 40174 333 20190 59006;EQDQ01  00002PRCP06
0167832880999992004091518004-13267-043417FM-12+0458SBLP V0200901N002119999999N0200001N1+03361+01461101051ADDAA106000091GF105991001001999999001051MA1999999096211MD1999999-0201REMSYN070AAXX  15184 83288 32998 50904 10336 20146 39621 40105 80005 333 59020;EQDQ01  00002PRCP06
0208832880999992004091600004-13267-043417FM-12+0458SBLP V0200901N000512200019N0020001N1+02771+01091101251ADDAA106000091GA1001+999999999GF100991001001999999001001KA1240M+03431MA1999999096391MD1999999-0261REMSYN082AAXX  16004 83288 32995 00901 10277 20109 39639 40125 333 10343 29037 55103 59026;EQDQ01  00002PRCP06
0186832880999992004091612004-13267-043417FM-12+0458SBLP V0201401N001012200019N0200001N1+02721+01451101321ADDAA106000091GF102991011011008001001041KA1240N+01931MA1999999096471MD1999999-0031REMSYN076AAXX  16124 83288 32598 21402 10272 20145 39647 40132 81104 333 20193 59003;EQDQ01  00002PRCP06
0167832880999992004091618004-13267-043417FM-12+0458SBLP V0201401N002612200019N0200001N1+03521+01741100731ADDAA106000091GF102991011011008001001021MA1999999095941MD1999999-0271REMSYN070AAXX  16184 83288 32598 21405 10352 20174 39594 40073 81102 333 59027;EQDQ01  00002PRCP06
0208832880999992004091700004-13267-043417FM-12+0458SBLP V0201401N001012200019N0020001N1+02831+01091101161ADDAA106000091GA1001+999999999GF100991001001999999001001KA1240M+03581MA1999999096271MD1999999-0051REMSYN082AAXX  17004 83288 32995 01402 10283 20109 39627 40116 333 10358 29036 55110 59005;EQDQ01  00002PRCP06
0171832880999992004091712004-13267-043417FM-12+0458SBLP V0200501N001012200019N0200001N1+02851+01561101451ADDAA106000091GF103991999999999999999999KA1240N+01921MA1999999096621REMSYN075AAXX  17124 83288 32998 30502 10285 20156 39662 40145 8004 333 20192 58015;EQDQ01  00002PRCP06
0167832880999992004091718004-13267-043417FM-12+0458SBLP V0200501N001512200019N0200001N1+03621+01531100811ADDAA106000091GF103991011011008001001051MA1999999096031MD1999999+0091REMSYN070AAXX  17184 83288 32598 30503 10362 20153 39603 40081 81105 333 58009;EQDQ01  00002PRCP06
0208832880999992004091800004-13267-043417FM-12+0458SBLP V0201801N001012200019N0020001N1+02791+01301101221ADDAA106000091GA1001+999999999GF100991001001999999001001KA1240M+03671MA1999999096341MD1999999+0071REMSYN082AAXX  18004 83288 32995 01802 10279 20130 39634 40122 333 10367 29038 55107 58007;EQDQ01  00002PRCP06
0167832880999992004091818004-13267-043417FM-12+0458SBLP V0200901N001512200019N0200001N1+03501+01431100931ADDAA106000091GF103991021011008001001051MA1999999096121MD1999999+0091REMSYN070AAXX  18184 83288 32598 30903 10350 20143 39612 40093 82105 333 58009;EQDQ01  00002PRCP06
0208832880999992004091900004-13270-043420FM-12+0440SBLP V0201801N001512200019N0020001N1+02791+01051101201ADDAA106000091GA1001+999999999GF100991001001999999001001KA1240M+03561MA1999999096351MD1999999+0011REMSYN082AAXX  19004 83288 32995 01803 10279 20105 39635 40120 333 10356 29036 55095 58001;EQDQ01  00002PRCP06
0084832880999992004091912004-13270-043420FM-12+0440SBLP V02099999999999999999N9999999N1+99999+99999999999REMSYN075AAXX  19124 83288 2598 51401 10255 20145 39665 40152 84104 333 20198 58001;
0167832880999992004091918004-13270-043420FM-12+0440SBLP V0202701N001511050019N0200001N1+03421+01021100691ADDAA106000091GF106991031011008001001021MA1999999095901MD1999999-0221REMSYN070AAXX  19184 83288 32598 62703 10342 20102 39590 40069 83102 333 59022;EQDQ01  00002PRCP06
0208832880999992004092000004-13270-043420FM-12+0440SBLP V0201401N001512200019N0020001N1+02751+00971100731ADDAA106000091GA1001+999999999GF100991001001999999001001KA1240M+03531MA1999999096091MD1999999-0261REMSYN082AAXX  20004 83288 32995 01403 10275 20097 39609 40073 333 10353 29035 55097 59026;EQDQ01  00002PRCP06
0186832880999992004092012004-13267-043417FM-12+0458SBLP V0200901N001519999999N0200001N1+02591+01781101481ADDAA106000091GF108991001001999999001081KA1240N+02001MA1999999096611MD1999999-0041REMSYN076AAXX  20124 83288 32998 80903 10259 20178 39661 40148 80008 333 20200 59004;EQDQ01  00002PRCP06
0167832880999992004092018004-13267-043417FM-12+0458SBLP V0201801N001511050019N0200001N1+03281+01741100911ADDAA106000091GF108991021011008001001061MA1999999096081MD1999999+0181REMSYN070AAXX  20184 83288 32598 81803 10328 20174 39608 40091 82106 333 58018;EQDQ01  00002PRCP06
0208832880999992004092100004-13267-043417FM-12+0458SBLP V0201801N002112200019N0020001N1+02651+01611101161ADDAA106000091GA1001+999999999GF100991001001999999001001KA1240M+03371MA1999999096291MD1999999+0201REMSYN082AAXX  21004 83288 32995 01804 10265 20161 39629 40116 333 10337 29051 55058 58020;EQDQ01  00002PRCP06
0167832880999992004092118004-13267-043417FM-12+0458SBLP V0201401N001519999999N0200001N1+03441+01671100991ADDAA106000091GF105991011011999999001051MA1999999096151MD1999999+0071REMSYN070AAXX  21184 83288 32998 51403 10344 20167 39615 40099 81105 333 58007;EQDQ01  00002PRCP06
0208832880999992004092200004-13267-043417FM-12+0458SBLP V0201401N001512200019N0020001N1+02711+01201101281ADDAA106000091GA1001+999999999GF100991001001999999001001KA1240M+03471MA1999999096411MD1999999+0121REMSYN082AAXX  22004 83288 32995 01403 10271 20120 39641 40128 333 10347 29041 55092 58012;EQDQ01  00002PRCP06
0196832880999992004092212004-13267-043417FM-12+0458SBLP V0201401N001512200019N0200001N1+02791+01591101481ADDAA106000091GA1001+999999999GF100991001001999999001001KA1240N+01981MA1999999096771MD1999999-0161REMSYN070AAXX  22124 83288 32998 01403 10279 20159 39677 40148 333 20198 59016;EQDQ01  00002PRCP06
0183832880999992004092218004-13267-043417FM-12+0458SBLP V0201801N001010075019N0200001N1+03451+01481101001ADDAA106000091GF106991999011008001001001MA1999999096331MD1999999-0181REMSYN070AAXX  22184 83288 32598 61802 10345 20148 39633 40100 85100 333 59018;EQDQ01+000052SCOTLCQ02  00002PRCP06
0214832880999992004092300004-13267-043417FM-12+0458SBLP V0201801N001519999999N0020001N1+03031+00901101131ADDAA106000091GF105991999021008001001001KA1240M+03491MA1999999096321MD1999999-0091REMSYN088AAXX  23004 83288 32595 51803 10303 20090 39632 40113 84200 333 10349 29033 55000 59009;EQDQ01+000042SCOTLCQ02  00002PRCP06
0196832880999992004092312004-13267-043417FM-12+0458SBLP V0201401N001512200019N0200001N1+02811+01821101541ADDAA106000091GA1001+999999999GF100991001001999999001001KA1240N+02101MA1999999096711MD1999999-0061REMSYN070AAXX  23124 83288 32998 01403 10281 20182 39671 40154 333 20210 59006;EQDQ01  00002PRCP06
0167832880999992004092318004-13267-043417FM-12+0458SBLP V0201801N001012200019N0200001N1+03501+01861100871ADDAA106000091GF103991031011008001001001MA1999999096071MD1999999-0261REMSYN070AAXX  23184 83288 32598 31802 10350 20186 39607 40087 83100 333 59026;EQDQ01  00002PRCP06
0208832880999992004092400004-13267-043417FM-12+0458SBLP V0201801N001512200019N0020001N1+02791+01741101161ADDAA106000091GA1001+999999999GF100991001001999999001001KA1240M+03631MA1999999096331MD1999999+0011REMSYN082AAXX  24004 83288 32995 01803 10279 20174 39633 40116 333 10363 29049 55109 58001;EQDQ01  00002PRCP06
0196832880999992004092412004-13267-043417FM-12+0458SBLP V0200901N001512200019N0200001N1+02751+01781101471ADDAA106000091GA1001+999999999GF100991001001999999001001KA1240N+02041MA1999999096611MD1999999-0101REMSYN070AAXX  24124 83288 32998 00903 10275 20178 39661 40147 333 20204 59010;EQDQ01  00002PRCP06
0167832880999992004092418004-13267-043417FM-12+0458SBLP V0202301N002112200019N0200001N1+03541+01891100791ADDAA106000091GF101991011011008001001001MA1999999096001MD1999999-0071REMSYN070AAXX  24184 83288 32598 12304 10354 20189 39600 40079 81100 333 59007;EQDQ01  00002PRCP06
0208832880999992004092500004-13267-043417FM-12+0458SBLP V0201801N001512200019N0020001N1+02911+01781101091ADDAA106000091GA1001+999999999GF100991001001999999001001KA1240M+03591MA1999999096271MD1999999-0061REMSYN082AAXX  25004 83288 32995 01803 10291 20178 39627 40109 333 10359 29048 55110 59006;EQDQ01  00002PRCP06
0196832880999992004092512004-13267-043417FM-12+0458SBLP V0201801N001012200019N0200001N1+02651+01211101431ADDAA106000091GA1001+999999999GF100991001001999999001001KA1240N+01941MA1999999096571MD1999999-0111REMSYN070AAXX  25124 83288 32998 01802 10265 20121 39657 40143 333 20194 59011;EQDQ01  00002PRCP06
0167832880999992004092518004-13267-043417FM-12+0458SBLP V0202301N001512200019N0200001N1+03521+01791100731ADDAA106000091GF101991011011008001001021MA1999999095941MD1999999-0061REMSYN070AAXX  25184 83288 32598 12303 10352 20179 39594 40073 81102 333 59006;EQDQ01  00002PRCP06
0208832880999992004092600004-13267-043417FM-12+0458SBLP V0201801N001512200019N0020001N1+02751+01641101021ADDAA106000091GA1001+999999999GF100991001001999999001001KA1240M+03581MA1999999096171MD1999999-0101REMSYN082AAXX  26004 83288 32995 01803 10275 20164 39617 40102 333 10358 29043 55108 59010;EQDQ01  00002PRCP06
0186832880999992004092612004-13270-043420FM-12+0440SBLP V0200501N002112200019N0200001N1+02631+01501101591ADDAA106000091GF104991001001999999001051KA1240N+01881MA1999999096721MD1999999+0151REMSYN076AAXX  26124 83288 32998 40504 10263 20150 39672 40159 80005 333 20188 58015;EQDQ01  00002PRCP06
0167832880999992004092618004-13270-043420FM-12+0440SBLP V0200901N001512200019N0200001N1+03341+01541101021ADDAA106000091GF102991001001999999001021MA1999999096201MD1999999+0261REMSYN070AAXX  26184 83288 32998 20903 10334 20154 39620 40102 80002 333 58026;EQDQ01  00002PRCP06
0208832880999992004092700004-13270-043420FM-12+0440SBLP V0200901N001512200019N0020001N1+02591+01561101351ADDAA106000091GA1001+999999999GF100991001001999999001001KA1240M+03411MA1999999096471MD1999999+0301REMSYN082AAXX  27004 83288 32995 00903 10259 20156 39647 40135 333 10341 29046 55111 58030;EQDQ01  00002PRCP06
0202832880999992004092712004-13270-043420FM-12+0440SBLP V0201401N002612200019N0200001N1+02811+01531101541ADDAA106000091GF101991001001999999001011KA1240N+02001MA1999999096671MD1999999-0051REMSYN076AAXX  27124 83288 32598 11405 10281 20153 39667 40154 80001 333 20200 59005;EQDQ01+008002SCOLCBQ02  00002PRCP06
0177832880999992004092718004-13267-043417FM-12+0458SBLP V0202301N001012200019N0200001N1+03361+01731100961ADDAA106000091GA1001+999999999GF100991001001999999001001MA1999999096141MD1999999-0061REMSYN064AAXX  27184 83288 32598 02302 10336 20173 39614 40096 333 59006;EQDQ01  00002PRCP06
0208832880999992004092800004-13267-043417FM-12+0458SBLP V0201401N001512200019N0020001N1+02741+01141101121ADDAA106000091GA1001+999999999GF100991001001999999001001KA1240M+03471MA1999999096311MD1999999-0161REMSYN082AAXX  28004 83288 32995 01403 10274 20114 39631 40112 333 10347 29040 55111 59016;EQDQ01  00002PRCP06
0196832880999992004092812004-13267-043417FM-12+0458SBLP V0200901N001012200019N0200001N1+02781+01611101301ADDAA106000091GA1001+999999999GF100991001001999999001001KA1240N+02081MA1999999096451MD1999999-0221REMSYN070AAXX  28124 83288 32998 00902 10278 20161 39645 40130 333 20208 59022;EQDQ01  00002PRCP06
0167832880999992004092818004-13267-043417FM-12+0458SBLP V0202301N001512200019N0200001N1+03451+01501100691ADDAA106000091GF103991021011008001001021MA1999999095891MD1999999-0281REMSYN070AAXX  28184 83288 32598 32303 10345 20150 39589 40069 82102 333 59028;EQDQ01  00002PRCP06
0208832880999992004092900004-13267-043417FM-12+0458SBLP V0201801N001012200019N0020001N1+02891+01271100711ADDAA106000091GA1001+999999999GF100991001001999999001001KA1240M+03551MA1999999095911MD1999999+0401REMSYN082AAXX  29004 83288 32995 01802 10289 20127 39591 40071 333 10355 29039 55110 58040;EQDQ01  00002PRCP06
0196832880999992004092912004-13267-043417FM-12+0458SBLP V0201401N001012200019N0200001N1+02911+01701101111ADDAA106000091GA1001+999999999GF100991001001999999001001KA1240N+02081MA1999999096301MD1999999-0151REMSYN070AAXX  29124 83288 32998 01402 10291 20170 39630 40111 333 20208 59015;EQDQ01  00002PRCP06
0167832880999992004092918004-13267-043417FM-12+0458SBLP V0201801N001512200019N0200001N1+03621+01931100541ADDAA106000091GF102991021011008001001001MA1999999095771MD1999999-0121REMSYN070AAXX  29184 83288 32598 21803 10362 20193 39577 40054 82100 333 59012;EQDQ01  00002PRCP06
0208832880999992004093000004-13267-043417FM-12+0458SBLP V0200901N001012200019N0020001N1+02791+01451100621ADDAA106000091GA1001+999999999GF100991001001999999001001KA1240M+03671MA1999999095781MD1999999-0131REMSYN082AAXX  30004 83288 32995 00902 10279 20145 39578 40062 333 10367 29043 55108 59013;EQDQ01  00002PRCP06
0196832880999992004093012004-13267-043417FM-12+0458SBLP V0202701N000512200019N0200001N1+02931+01441100951ADDAA106000091GA1001+999999999GF100991001001999999001001KA1240N+02101MA1999999096141MD1999999-0161REMSYN070AAXX  30124 83288 32998 02701 10293 20144 39614 40095 333 20210 59016;EQDQ01  00002PRCP06
0177832880999992004093018004-13267-043417FM-12+0458SBLP V0201801N001512200019N0200001N1+03741+01451100481ADDAA106000091GA1001+999999999GF100991001001999999001001MA1999999095731MD1999999-0041REMSYN064AAXX  30184 83288 32998 01803 10374 20145 39573 40048 333 59004;EQDQ01  00002PRCP06
0208832880999992004100100004-13267-043417FM-12+0458SBLP V0201801N001512200019N0020001N1+02911+01171100881ADDAA106000091GA1001+999999999GF100991001001999999001001KA1240M+03811MA1999999096081MD1999999+0301REMSYN082AAXX  01004 83288 32995 01803 10291 20117 39608 40088 333 10381 29033 55109 58030;EQDQ01  00002PRCP06
0196832880999992004100112004-13267-043417FM-12+0458SBLP V0201401N001512200019N0200001N1+02771+01321101281ADDAA106000091GA1001+999999999GF100991001001999999001001KA1240N+02161MA1999999096451MD1999999+0311REMSYN070AAXX  01124 83288 32998 01403 10277 20132 39645 40128 333 20216 58031;EQDQ01  00002PRCP06
0177832880999992004100118004-13267-043417FM-12+0458SBLP V0201401N002612200019N0200001N1+03501+01531100691ADDAA106000091GA1001+999999999GF100991001001999999001001MA1999999095921MD1999999+0191REMSYN064AAXX  01184 83288 32998 01405 10350 20153 39592 40069 333 58019;EQDQ01  00002PRCP06
0208832880999992004100200004-13267-043417FM-12+0458SBLP V0201401N002112200019N0020001N1+02731+01181101011ADDAA106000091GA1001+999999999GF100991001001999999001001KA1240M+03591MA1999999096171MD1999999+0091REMSYN082AAXX  02004 83288 32995 01404 10273 20118 39617 40101 333 10359 29037 55111 58009;EQDQ01  00002PRCP06
0196832880999992004100212004-13267-043417FM-12+0458SBLP V0200901N001512200019N0200001N1+02711+01451101311ADDAA106000091GA1001+999999999GF100991001001999999001001KA1240N+02261MA1999999096451MD1999999+0001REMSYN070AAXX  02124 83288 32998 00903 10271 20145 39645 40131 333 20226 58000;EQDQ01  00002PRCP06
0177832880999992004100218004-13267-043417FM-12+0458SBLP V0200501N001512200019N0200001N1+03441+01481100631ADDAA106000091GA1001+999999999GF100991001001999999001001MA1999999095831MD1999999-0091REMSYN064AAXX  02184 83288 32998 00503 10344 20148 39583 40063 333 59009;EQDQ01  00002PRCP06
0208832880999992004100300004-13267-043417FM-12+0458SBLP V0200901N001012200019N0020001N1+02831+01421100881ADDAA106000091GA1001+999999999GF100991001001999999001001KA1240M+03531MA1999999096061MD1999999-0111REMSYN082AAXX  03004 83288 32995 00902 10283 20142 39606 40088 333 10353 29040 55112 59011;EQDQ01  00002PRCP06
0196832880999992004100312004-13267-043417FM-12+0458SBLP V0200901N001012200019N0200001N1+02911+01761101141ADDAA106000091GA1001+999999999GF100991001001999999001001KA1240N+01981MA1999999096321MD1999999+0131REMSYN070AAXX  03124 83288 32998 00902 10291 20176 39632 40114 333 20198 58013;EQDQ01  00002PRCP06
0167832880999992004100318004-13270-043420FM-12+0440SBLP V0202701N001512200019N0200001N1+03611+01671100531ADDAA106000091GF102991011011008001001021MA1999999095761MD1999999-0071REMSYN070AAXX  03184 83288 32598 22703 10361 20167 39576 40053 81102 333 59007;EQDQ01  00002PRCP06
0224832880999992004100400004-13270-043420FM-12+0440SBLP V0201801N001012200019N0020001N1+02911+01241100671ADDAA106000091GA1001+999999999GF100991001001999999001001KA1240M+99999MA1999999095761MD1999999-0301REMSYN082AAXX  04004 83288 32995 01802 10291 20124 39576 40067 333 10036 29038 55011 59030;EQDQ01  00002PRCP06Q02 +00362ATMX  
0196832880999992004100412004-13267-043417FM-12+0458SBLP V0201801N001012200019N0200001N1+02841+01391101131ADDAA106000091GA1001+999999999GF100991001001999999001001KA1240N+02151MA1999999096311MD1999999-0011REMSYN070AAXX  04124 83288 32598 01802 10284 20139 39631 40113 333 20215 59001;EQDQ01  00002PRCP06
0167832880999992004100418004-13267-043417FM-12+0458SBLP V0203201N001511050019N0200001N1+03731+01921100481ADDAA106000091GF105991031021008001001021MA1999999095731MD1999999-0031REMSYN070AAXX  04184 83288 32598 53203 10373 20192 39573 40048 83202 333 59003;EQDQ01  00002PRCP06
0214832880999992004100500004-13267-043417FM-12+0458SBLP V0201401N001012200019N0020001N1+03131+01111101011ADDAA106000091GF102991999011008001001001KA1240M+03741MA1999999096231MD1999999-0121REMSYN088AAXX  05004 83288 32595 21402 10313 20111 39623 40101 81100 333 10374 29033 55103 59012;EQDQ01+000012SCOTLCQ02  00002PRCP06
0186832880999992004100512004-13267-043417FM-12+0458SBLP V0200901N001510450019N0200001N1+02951+01921101121ADDAA106000091GF106991011011008001031051KA1240N+02441MA1999999096241MD1999999-0091REMSYN076AAXX  05124 83288 32598 60903 10295 20192 39624 40112 81135 333 20244 59009;EQDQ01  00002PRCP06
0167832880999992004100518004-13267-043417FM-12+0458SBLP V0202701N000510075019N0200001N1+03541+01761100541ADDAA106000091GF106991061051008001001001MA1999999095791MD1999999+0061REMSYN070AAXX  05184 83288 32598 62701 10354 20176 39579 40054 86500 333 58006;EQDQ01  00002PRCP06
0198832880999992004100600004-13267-043417FM-12+0458SBLP V0200501N002110450019N0020001N1+02851+01941100831ADDAA106000091GF108991031051008001021999KA1240M+03611MA1999999096041MD1999999-0191REMSYN088AAXX  06004 83288 32595 80504 10285 20194 39604 40083 8352/ 333 10361 29049 55070 59019;EQDQ01  00002PRCP06
0186832880999992004100612004-13267-043417FM-12+0458SBLP V0209999C000011050019N0200001N1+02771+01891101071ADDAA106000091GF108991041001017501041021KA1240N+02471MA1999999096251MD1999999+0011REMSYN076AAXX  06124 83288 32798 80000 10277 20189 39625 40107 84042 333 20247 58001;EQDQ01  00002PRCP06
0171832880999992004100618004-13267-043417FM-12+0458SBLP V0200501N001510450019N0200001N1+02881+02251100621ADDAY161061AY261061GF106991041021008001021001MA1999999095781MD1999999-0011MW1011REMSYN082AAXX  06184 83288 21598 60503 10288 20225 39578 40062 70166 84220 333 59001 60061;
0202832880999992004100700004-13267-043417FM-12+0458SBLP V0201401N002610075019N0020001N1+02151+01681101221ADDAY191061AY261061GF108991061041008001021999KA1240M+03551MA1999999096321MD1999999+0281MW1961REMSYN100AAXX  07004 83288 21595 81405 10215 20168 39632 40122 79696 8642/ 333 10355 29070 55054 58028 60191;
0209832880999992004100712004-13267-043417FM-12+0458SBLP V0202301N001010075019N0200001N1+02531+02021101421ADDAY161061AY261061GF108991999021008001021021KA1240N+02131MA1999999096471MD1999999+0221MW1011REMSYN088AAXX  07124 83288 21598 82302 10253 20202 39647 40142 70166 88222 333 20213 58022 60324;EQDQ01+000082SCOTLC
0167832880999992004100718004-13267-043417FM-12+0458SBLP V0203201N001010450019N0200001N1+03341+01831100691ADDAA106000091GF105991031021008001021021MA1999999095851MD1999999+0071REMSYN070AAXX  07184 83288 32598 53202 10334 20183 39585 40069 83222 333 58007;EQDQ01  00002PRCP06
0198832880999992004100800004-13267-043417FM-12+0458SBLP V0203601N001010450019N0020001N1+02921+01951100841ADDAA106000091GF106991031051008001021999KA1240M+03431MA1999999096001MD1999999-0321REMSYN088AAXX  08004 83288 32595 63602 10292 20195 39600 40084 8352/ 333 10343 29057 55087 59032;EQDQ01  00002PRCP06
0182832880999992004100812004-13267-043417FM-12+0458SBLP V0209999C000010120019N0200001N1+02591+01981101231ADDAY161061GF105991051081008001001001KA1240N+02081MA1999999096381MD1999999-0091MW1031REMSYN088AAXX  08124 83288 21598 50000 10259 20198 39638 40123 7036/ 85800 333 20208 59009 60034;
0167832880999992004100818004-13267-043417FM-12+0458SBLP V0201801N001512200019N0200001N1+03321+01971100691ADDAA106000091GF104991021021008001001051MA1999999095861MD1999999+0011REMSYN070AAXX  08184 83288 32598 41803 10332 20197 39586 40069 82205 333 58001;EQDQ01  00002PRCP06
0198832880999992004100900004-13267-043417FM-12+0458SBLP V0200901N001012200019N0020001N1+02731+02091101021ADDAA106000091GF102991021011008001001001KA1240M+03411MA1999999096161MD1999999+0161REMSYN088AAXX  09004 83288 32595 20902 10273 20209 39616 40102 82100 333 10341 29061 55082 58016;EQDQ01  00002PRCP06
0186832880999992004100912004-13267-043417FM-12+0458SBLP V0202301N001511050019N0200001N1+02711+02081101421ADDAA106000091GF105991021021008001001051KA1240N+02321MA1999999096551MD1999999+0281REMSYN076AAXX  09124 83288 32598 52303 10271 20208 39655 40142 82205 333 20232 58028;EQDQ01  00002PRCP06
0167832880999992004100918004-13267-043417FM-12+0458SBLP V0202301N001011050019N0200001N1+03301+01951100801ADDAA106000091GF105991031021008001001021MA1999999096001MD1999999+0141REMSYN070AAXX  09184 83288 32598 52302 10330 20195 39600 40080 83202 333 58014;EQDQ01  00002PRCP06
0198832880999992004101000004-13267-043417FM-12+0458SBLP V0209999C000010120019N0020001N1+02611+02071101141ADDAA106000091GF107991071081008001001001KA1240M+03421MA1999999096281MD1999999+0121REMSYN088AAXX  10004 83288 32595 70000 10261 20207 39628 40114 87800 333 10342 29064 55062 58012;EQDQ01  00002PRCP06
0186832880999992004101012004-13267-043417FM-12+0458SBLP V0201401N000512200019N0200001N1+02881+01971101431ADDAA106000091GF103991031011008001001041KA1240N+02231MA1999999096551MD1999999+0001REMSYN076AAXX  10124 83288 32598 31401 10288 20197 39655 40143 83104 333 20223 58000;EQDQ01  00002PRCP06
0167832880999992004101018004-13267-043417FM-12+0458SBLP V0202301N001011050019N0200001N1+03581+01501100941ADDAA106000091GF106991041021008001001021MA1999999095961MD1999999-0041REMSYN070AAXX  10184 83288 32598 62302 10358 20150 39596 40094 84202 333 59004;EQDQ01  00002PRCP06
0214832880999992004101100004-13267-043417FM-12+0458SBLP V0201801N001012200019N0020001N1+02981+01441101121ADDAA106000091GF103991999011008001001001KA1240M+03681MA1999999096031MD1999999+0251REMSYN088AAXX  11004 83288 32595 31802 10298 20144 39603 40112 82100 333 10368 29044 55100 58025;EQDQ01+000022SCOTLCQ02  00002PRCP06
0196832880999992004101112004-13270-043420FM-12+0440SBLP V0202701N001512200019N0200001N1+03031+02111101041ADDAA106000091GA1001+999999999GF100991001001999999001001KA1240N+02361MA1999999096251MD1999999-0301REMSYN070AAXX  11124 83288 32598 02703 10303 20211 39625 40104 333 20236 59030;EQDQ01  00002PRCP06
0167832880999992004101118004-13270-043420FM-12+0440SBLP V0202701N001512200019N0200001N1+03671+02091100491ADDAA106000091GF104991041081008001001001MA1999999095741MD1999999-0221REMSYN070AAXX  11184 83288 32598 42703 10367 20209 39574 40049 84800 333 59022;EQDQ01  00002PRCP06
0198832880999992004101200004-13270-043420FM-12+0440SBLP V0201401N001012200019N0020001N1+03111+01881100801ADDAA106000091GF102991021011008001001001KA1240M+03751MA1999999096051MD1999999+0021REMSYN088AAXX  12004 83288 32595 21402 10311 20188 39605 40080 82100 333 10375 29049 55106 58002;EQDQ01  00002PRCP06
0167832880999992004101218004-13267-043417FM-12+0458SBLP V0202301N001512200019N0200001N1+03601+01591100491ADDAA106000091GF103991031021008001001001MA1999999095761MD1999999+0021REMSYN070AAXX  12184 83288 32598 32303 10360 20159 39576 40049 83200 333 58002;EQDQ01  00002PRCP06
0208832880999992004101300004-13267-043417FM-12+0458SBLP V0200901N001512200019N0020001N1+02871+01161100841ADDAA106000091GA1001+999999999GF100991001001999999001001KA1240M+03671MA1999999096051MD1999999+0001REMSYN082AAXX  13004 83288 32995 00903 10287 20116 39605 40084 333 10367 29038 55108 58000;EQDQ01  00002PRCP06
0196832880999992004101312004-13267-043417FM-12+0458SBLP V0201401N001512200019N0200001N1+02841+01801101171ADDAA106000091GA1001+999999999GF100991001001999999001001KA1240N+02251MA1999999096351MD1999999+0041REMSYN070AAXX  13124 83288 32998 01403 10284 20180 39635 40117 333 20225 58004;EQDQ01  00002PRCP06
0177832880999992004101318004-13267-043417FM-12+0458SBLP V0202301N004112200019N0200001N1+03591+02131100501ADDAA106000091GA1001+999999999GF100991001001999999001001MA1999999096011MD1999999-0151REMSYN064AAXX  13184 83288 32998 02308 10359 20213 39601 40050 333 59015;EQDQ01  00002PRCP06
0208832880999992004101400004-13267-043417FM-12+0458SBLP V0200901N000512200019N0020001N1+02881+01531100871ADDAA106000091GA1001+999999999GF100991001001999999001001KA1240M+03641MA1999999096061MD1999999+0011REMSYN082AAXX  14004 83288 32995 00901 10288 20153 39606 40087 333 10364 29037 55113 58001;EQDQ01  00002PRCP06
0186832880999992004101412004-13267-043417FM-12+0458SBLP V0200901N001512200019N0200001N1+02891+01781101131ADDAA106000091GF102991001001999999001021KA1240N+02081MA1999999096321MD1999999-0031REMSYN076AAXX  14124 83288 32998 20903 10289 20178 39632 40113 80002 333 20208 59003;EQDQ01  00002PRCP06
0208832880999992004101500004-13267-043417FM-12+0458SBLP V0201401N001512200019N0020001N1+02851+01711100791ADDAA106000091GA1001+999999999GF100991001001999999001001KA1240M+03671MA1999999096001MD1999999-0061REMSYN082AAXX  15004 83288 32995 01403 10285 20171 39600 40079 333 10367 29046 55110 59006;EQDQ01  00002PRCP06
0196832880999992004101512004-13267-043417FM-12+0458SBLP V0200901N001512200019N0200001N1+02921+01461101151ADDAA106000091GA1001+999999999GF100991001001999999001001KA1240N+02121MA1999999096341MD1999999+0021REMSYN070AAXX  15124 83288 32998 00903 10292 20146 39634 40115 333 20212 58002;EQDQ01  00002PRCP06
0177832880999992004101518004-13267-043417FM-12+0458SBLP V0201401N002612200019N0200001N1+03601+01861100641ADDAA106000091GA1001+999999999GF100991001001999999001001MA1999999095861MD1999999+0071REMSYN064AAXX  15184 83288 32998 01405 10360 20186 39586 40064 333 58007;EQDQ01  00002PRCP06
0208832880999992004101600004-13267-043417FM-12+0458SBLP V0201401N001512200019N0020001N1+02771+01561100921ADDAA106000091GA1001+999999999GF100991001001999999001001KA1240M+03631MA1999999096111MD1999999+0111REMSYN082AAXX  16004 83288 32995 01403 10277 20156 39611 40092 333 10363 29043 55110 58011;EQDQ01  00002PRCP06
0186832880999992004101612004-13270-043420FM-12+0440SBLP V0200901N001512200019N0200001N1+02771+01831101371ADDAA106000091GF104991031011008001001041KA1240N+02201MA1999999096521MD1999999-0181REMSYN076AAXX  16124 83288 32598 40903 10277 20183 39652 40137 83104 333 20220 59018;EQDQ01  00002PRCP06
0167832880999992004101618004-13270-043420FM-12+0440SBLP V0201801N008210450019N0200001N1+03291+01341100581ADDAA106000091GF106991031021008001021041MA1999999095811MD1999999-0051REMSYN070AAXX  16184 83288 32598 61816 10329 20134 39581 40058 83224 333 59005;EQDQ01  00002PRCP06
0214832880999992004101700004-13270-043420FM-12+0440SBLP V0201801N001512200019N0020001N1+02771+01391100681ADDAA106000091GF103991999011008001001001KA1240M+03501MA1999999095861MD1999999-0251REMSYN088AAXX  17004 83288 32595 31803 10277 20139 39586 40068 82100 333 10350 29044 55103 59025;EQDQ01+000022SCOTLCQ02  00002PRCP06
0196832880999992004101712004-13270-043420FM-12+0440SBLP V0200501N001512200019N0200001N1+02751+01881101171ADDAA106000091GA1001+999999999GF100991001001999999001001KA1240N+02061MA1999999096331MD1999999-0191REMSYN070AAXX  17124 83288 32998 00503 10275 20188 39633 40117 333 20206 59019;EQDQ01  00002PRCP06
0167832880999992004101718004-13270-043420FM-12+0440SBLP V0202701N001512200019N0200001N1+03381+03061100561ADDAA106000091GF102991021011008001001001MA1999999095771MD1999999-0041REMSYN070AAXX  17184 83288 32598 22703 10338 20306 39577 40056 82100 333 59004;EQDQ01  00002PRCP06
0208832880999992004101800004-13267-043417FM-12+0458SBLP V0201401N001512200019N0020001N1+02851+01771100711ADDAA106000091GA1001+999999999GF100991001001999999001001KA1240M+03511MA1999999095901MD1999999+0041REMSYN082AAXX  18004 83288 32995 01403 10285 20177 39590 40071 333 10351 29052 55114 58004;EQDQ01  00002PRCP06
0196832880999992004101812004-13267-043417FM-12+0458SBLP V0200901N001512200019N0200001N1+02871+01581101021ADDAA106000091GA1001+999999999GF100991001001999999001001KA1240N+02121MA1999999096211MD1999999-0121REMSYN070AAXX  18124 83288 32998 00903 10287 20158 39621 40102 333 20212 59012;EQDQ01  00002PRCP06
0167832880999992004101818004-13267-043417FM-12+0458SBLP V0202701N001512200019N0200001N1+03561+01731100551ADDAA106000091GF102991021021008001001001MA1999999095781MD1999999+0011REMSYN070AAXX  18184 83288 32598 22703 10356 20173 39578 40055 82200 333 58001;EQDQ01  00002PRCP06
0208832880999992004101900004-13267-043417FM-12+0458SBLP V0201401N001512200019N0020001N1+02851+01441100701ADDAA106000091GA1001+999999999GF100991001001999999001001KA1240M+03651MA1999999095901MD1999999+0001REMSYN082AAXX  19004 83288 32995 01403 10285 20144 39590 40070 333 10365 29040 55114 58000;EQDQ01  00002PRCP06
0167832880999992004101918004-13267-043417FM-12+0458SBLP V0202701N001012200019N0200001N1+03621+02161100591ADDAA106000091GF104991021021008001001011MA1999999095831MD1999999+0051REMSYN070AAXX  19184 83288 32598 42702 10362 20216 39583 40059 82201 333 58005;EQDQ01  00002PRCP06
0198832880999992004102000004-13267-043417FM-12+0458SBLP V0209999C000012200019N0020001N1+03031+01961100851ADDAA106000091GF102991021081008001001001KA1240M+03731MA1999999096071MD1999999+0171REMSYN088AAXX  20004 83288 32595 20000 10303 20196 39607 40085 82800 333 10373 29050 55107 58017;EQDQ01  00002PRCP06
0186832880999992004102012004-13267-043417FM-12+0458SBLP V0203601N002112200019N0200001N1+03211+01871100961ADDAA106000091GF104991001001999999001051KA1240N+02541MA1999999096201MD1999999-0131REMSYN076AAXX  20124 83288 32998 43604 10321 20187 39620 40096 80005 333 20254 59013;EQDQ01  00002PRCP06
0167832880999992004102018004-13267-043417FM-12+0458SBLP V0200901N001512200019N0200001N1+03741+02111100381ADDAA106000091GF104991041021008001001001MA1999999095661MD1999999-0171REMSYN070AAXX  20184 83288 32598 40903 10374 20211 39566 40038 84200 333 59017;EQDQ01  00002PRCP06
0198832880999992004102100004-13267-043417FM-12+0458SBLP V0209999C000012200019N0020001N1+03091+02091100771ADDAA106000091GF104991041081008001001001KA1240M+03791MA1999999096031MD1999999-0041REMSYN088AAXX  21004 83288 32595 40000 10309 20209 39603 40077 84800 333 10379 29046 55096 59004;EQDQ01  00002PRCP06
0196832880999992004102112004-13267-043417FM-12+0458SBLP V0200901N001512200019N0200001N1+02911+01831101211ADDAA106000091GA1001+999999999GF100991001001999999001001KA1240N+02261MA1999999096421MD1999999+0221REMSYN070AAXX  21124 83288 32998 00903 10291 20183 39642 40121 333 20226 58022;EQDQ01  00002PRCP06
0167832880999992004102118004-13267-043417FM-12+0458SBLP V0201801N001512200019N0200001N1+03421+01741100711ADDAA106000091GF102991021011008001001001MA1999999095921MD1999999+0261REMSYN070AAXX  21184 83288 32598 21803 10342 20174 39592 40071 82100 333 58026;EQDQ01  00002PRCP06
0208832880999992004102200004-13267-043417FM-12+0458SBLP V0201401N002112200019N0020001N1+02791+01701100991ADDAA106000091GA1001+999999999GF100991001001999999001001KA1240M+03511MA1999999096211MD1999999+0181REMSYN082AAXX  22004 83288 32995 01404 10279 20170 39621 40099 333 10351 29048 55106 58018;EQDQ01  00002PRCP06
0186832880999992004102212004-13267-043417FM-12+0458SBLP V0201801N001512200019N0200001N1+02801+01751101511ADDAA106000091GF103991021011008001001041KA1240N+02231MA1999999096671MD1999999+0251REMSYN076AAXX  22124 83288 32598 31803 10280 20175 39667 40151 82104 333 20223 58025;EQDQ01  00002PRCP06
0167832880999992004102218004-13267-043417FM-12+0458SBLP V0201401N001510075019N0200001N1+03361+01561100811ADDAA106000091GF107991051021008001001021MA1999999096021MD1999999-0061REMSYN070AAXX  22184 83288 32598 71403 10336 20156 39602 40081 85202 333 59006;EQDQ01  00002PRCP06
0198832880999992004102300004-13267-043417FM-12+0458SBLP V0201401N002110075019N0020001N1+02731+01591100651ADDAA106000091GF105991051011008001001021KA1240M+03471MA1999999096311MD1999999-0101REMSYN088AAXX  23004 83288 32595 51404 10273 20159 39631 40065 85102 333 10347 29046 55110 59010;EQDQ01  00002PRCP06
0186832880999992004102312004-13267-043417FM-12+0458SBLP V0201801N001012200019N0200001N1+02731+01711101321ADDAA106000091GF102991021011008001001001KA1240N+02411MA1999999096471MD1999999-0201REMSYN076AAXX  23124 83288 32598 21802 10273 20171 39647 40132 82100 333 20241 59020;EQDQ01  00002PRCP06
0183832880999992004102318004-13267-043417FM-12+0458SBLP V0203601N001512200019N0200001N1+03451+01691100671ADDAA106000091GF104991999021008001001001MA1999999095831MD1999999-0481REMSYN070AAXX  23184 83288 32598 43603 10345 20169 39583 40067 83200 333 59048;EQDQ01+000032SCOTLCQ02  00002PRCP06
0208832880999992004102400004-13267-043417FM-12+0458SBLP V0203601N002112200019N0020001N1+02891+01731100821ADDAA106000091GA1001+999999999GF100991001001999999001001KA1240M+03551MA1999999095891MD1999999-0421REMSYN082AAXX  24004 83288 32995 03604 10289 20173 39589 40082 333 10355 29043 55118 59042;EQDQ01  00002PRCP06
0196832880999992004102412004-13267-043417FM-12+0458SBLP V0200501N001512200019N0200001N1+02791+01731101071ADDAA106000091GA1001+999999999GF100991001001999999001001KA1240N+02441MA1999999096251MD1999999-0221REMSYN070AAXX  24124 83288 32998 00503 10279 20173 39625 40107 333 20244 59022;EQDQ01  00002PRCP06
0167832880999992004102418004-13267-043417FM-12+0458SBLP V0202301N001512200019N0200001N1+03541+01971100421ADDAA106000091GF103991031021008001001001MA1999999095651MD1999999-0181REMSYN070AAXX  24184 83288 32598 32303 10354 20197 39565 40042 83200 333 59018;EQDQ01  00002PRCP06
0208832880999992004102500004-13267-043417FM-12+0458SBLP V0201401N001012200019N0020001N1+02851+01481100581ADDAA106000091GA1001+999999999GF100991001001999999001001KA1240M+03711MA1999999095781MD1999999-0111REMSYN082AAXX  25004 83288 32995 01402 10285 20148 39578 40058 333 10371 29045 55114 59011;EQDQ01  00002PRCP06
0186832880999992004102512004-13267-043417FM-12+0458SBLP V0203601N001512200019N0200001N1+02931+01771100861ADDAA106000091GF101991001001999999001011KA1240N+02571MA1999999096061MD1999999-0191REMSYN076AAXX  25124 83288 32998 13603 10293 20177 39606 40086 80001 333 20257 59019;EQDQ01  00002PRCP06
0167832880999992004102518004-13267-043417FM-12+0458SBLP V0203201N001512200019N0200001N1+03671+01721100191ADDAA106000091GF104991041021008001001001MA1999999095451MD1999999-0201REMSYN070AAXX  25184 83288 32598 43203 10367 20172 39545 40019 84200 333 59020;EQDQ01  00002PRCP06
0198832880999992004102600004-13267-043417FM-12+0458SBLP V0200501N001010120019N0020001N1+03141+01621100431ADDAA106000091GF108991081081008001999999KA1240M+03751MA1999999095691MD1999999-0091REMSYN088AAXX  26004 83288 32595 80502 10314 20162 39569 40043 888// 333 10375 29040 55099 59009;EQDQ01  00002PRCP06
0190832880999992004102612004-13267-043417FM-12+0458SBLP V0201801N001510120019N0200001N1+02511+02081101081ADDAY161061AY261061GF106991061081008001001001KA1240N+02441MA1999999096281MD1999999+0221MW1031REMSYN088AAXX  26124 83288 21598 61803 10251 20208 39628 40108 70366 86800 333 20244 58022 60014;
0202832880999992004102700004-13267-043417FM-12+0458SBLP V0203601N001510450019N0020001N1+02231+02061101171ADDAY151061AY251061GF108991021051008001021999KA1240M+03411MA1999999096261MD1999999+0571MW1031REMSYN100AAXX  27004 83288 21595 83603 10223 20206 39626 40117 70355 8252/ 333 10341 29075 55074 58057 60011;
0162832880999992004102712004-13267-043417FM-12+0458SBLP V0202301N001010450019N0200001N1+02491+02081101401ADDGF108991041051008001011999KA1240N+02481MA1999999096471MD1999999+0191REMSYN082AAXX  27124 83288 22598 82302 10249 20208 39647 40140 8451/ 333 20248 58019 60014;
0198832880999992004102800004-13267-043417FM-12+0458SBLP V0202701N001510450019N0020001N1+02531+02081101221ADDAA106000091GF106991041051008001031001KA1240M+03011MA1999999096331MD1999999+0071REMSYN088AAXX  28004 83288 32595 62703 10253 20208 39633 40122 84530 333 10301 29075 55013 58007;EQDQ01  00002PRCP06
0186832880999992004102812004-13267-043417FM-12+0458SBLP V0203601N001511050019N0200001N1+02571+02131101141ADDAA106000091GF105991031011008001001021KA1240N+02381MA1999999096451MD1999999-0021REMSYN076AAXX  28124 83288 32598 53603 10257 20213 39645 40114 83102 333 20238 59002;EQDQ01  00002PRCP06
0167832880999992004102818004-13267-043417FM-12+0458SBLP V0203601N001510120019N0200001N1+03151+02091100701ADDAA106000091GF106991061081008001021041MA1999999095941MD1999999-0101REMSYN070AAXX  28184 83288 32598 63603 10315 20209 39594 40070 86824 333 59010;EQDQ01  00002PRCP06
0202832880999992004102900004-13267-043417FM-12+0458SBLP V0201801N001010450019N0020001N1+02581+02151101121ADDAY151061AY251061GF106991041051008001021999KA1240M+03271MA1999999096241MD1999999-0091MW1031REMSYN100AAXX  29004 83288 21595 61802 10258 20215 39624 40112 70355 8452/ 333 10327 29068 55043 59009 60011;
0162832880999992004102912004-13267-043417FM-12+0458SBLP V0201801N003110120019N0200001N1+02471+02131101491ADDGF106991061081008001001001KA1240N+02101MA1999999096591MD1999999+0191REMSYN082AAXX  29124 83288 22598 61806 10247 20213 39659 40149 86800 333 20210 58019 69964;
0167832880999992004102918004-13267-043417FM-12+0458SBLP V0200901N002110450019N0200001N1+03221+01841100921ADDAA106000091GF105991021021008001031051MA1999999096101MD1999999+0161REMSYN070AAXX  29184 83288 32598 50904 10322 20184 39610 40092 82235 333 58016;EQDQ01  00002PRCP06
0198832880999992004103000004-13267-043417FM-12+0458SBLP V0201401N001512200019N0020001N1+02691+01781101181ADDAA106000091GF101991011001999999031001KA1240M+03331MA1999999096311MD1999999+0071REMSYN088AAXX  30004 83288 32995 11403 10269 20178 39631 40118 81030 333 10333 29060 55071 58007;EQDQ01  00002PRCP06
0167832880999992004103018004-13267-043417FM-12+0458SBLP V0201401N001512200019N0200001N1+03341+01911100911ADDAA106000091GF104991041021008001001001MA1999999096101MD1999999+0001REMSYN070AAXX  30184 83288 32598 41403 10334 20191 39610 40091 84200 333 58000;EQDQ01  00002PRCP06
0198832880999992004103100004-13270-043420FM-12+0440SBLP V0201401N002110120019N0020001N1+02751+01781101181ADDAA106000091GF106991061081008001001001KA1240M+03451MA1999999096341MD1999999+0031REMSYN088AAXX  31004 83288 32595 61404 10275 20178 39634 40118 86800 333 10345 29054 55092 58003;EQDQ01  00002PRCP06
0196832880999992004103112004-13270-043420FM-12+0440SBLP V0203601N001012200019N0200001N1+02871+01651101401ADDAA106000091GA1001+999999999GF100991001001999999001001KA1240N+02061MA1999999096561MD1999999+0001REMSYN070AAXX  31124 83288 32998 03602 10287 20165 39656 40140 333 20206 58000;EQDQ01  00002PRCP06
0183832880999992004103118004-13270-043420FM-12+0440SBLP V0201401N001012200019N0200001N1+03471+01341100841ADDAA106000091GF102991999011008001001001MA1999999096061MD1999999-0041REMSYN070AAXX  31184 83288 32598 21402 10347 20134 39606 40084 81100 333 59004;EQDQ01+000012SCOTLCQ02  00002PRCP06
0208832880999992004110100004-13270-043420FM-12+0440SBLP V0201401N001012200019N0020001N1+02731+01351100961ADDAA106000091GA1001+999999999GF100991001001999999001001KA1240M+03561MA1999999096131MD1999999-0211REMSYN082AAXX  01004 83288 32995 01402 10273 20135 39613 40096 333 10356 29040 55100 59021;EQDQ01  00002PRCP06
0196832880999992004110112004-13270-043420FM-12+0440SBLP V0200901N001512200019N0200001N1+02891+01861101201ADDAA106000091GA1001+999999999GF100991001001999999001001KA1240N+02001MA1999999096371MD1999999-0191REMSYN070AAXX  01124 83288 32998 00903 10289 20186 39637 40120 333 20200 59019;EQDQ01  00002PRCP06
0167832880999992004110118004-13270-043420FM-12+0440SBLP V0202301N001512200019N0200001N1+03701+01941100571ADDAA106000091GF103991031021008001001001MA1999999095831MD1999999-0231REMSYN070AAXX  01184 83288 32598 32303 10370 20194 39583 40057 83200 333 59023;EQDQ01  00002PRCP06
0198832880999992004110200004-13267-043417FM-12+0458SBLP V0201801N001512200019N0200001N1+03051+01861100701ADDAA106000091GF102991021011008001001001KA1240M+03721MA1999999095931MD1999999-0201REMSYN088AAXX  02004 83288 32598 21803 10305 20186 39593 40070 82100 333 10372 29046 55112 59020;EQDQ01  00002PRCP06
0196832880999992004110212004-13267-043417FM-12+0458SBLP V0200901N002112200019N0200001N1+02951+01761101001ADDAA106000091GA1001+999999999GF100991001001999999001001KA1240N+02181MA1999999096221MD1999999-0151REMSYN070AAXX  02124 83288 32998 00904 10295 20176 39622 40100 333 20218 59015;EQDQ01  00002PRCP06
0167832880999992004110218004-13267-043417FM-12+0458SBLP V0201801N001512200019N0200001N1+03481+01791100501ADDAA106000091GF104991041021008001001001MA1999999095741MD1999999-0091REMSYN070AAXX  02184 83288 32598 41803 10348 20179 39574 40050 84200 333 59009;EQDQ01  00002PRCP06
0208832880999992004110300004-13267-043417FM-12+0458SBLP V0201401N001512200019N0020001N1+02891+01351100721ADDAA106000091GA1001+999999999GF100991001001999999001001KA1240M+03651MA1999999095931MD1999999+0001REMSYN082AAXX  03004 83288 32995 01403 10289 20135 39593 40072 333 10365 29041 55098 58000;EQDQ01  00002PRCP06
0196832880999992004110312004-13267-043417FM-12+0458SBLP V0201801N000512200019N0200001N1+02751+01561101151ADDAA106000091GA1001+999999999GF100991001001999999001001KA1240N+02201MA1999999096341MD1999999+0121REMSYN070AAXX  03124 83288 32998 01801 10275 20156 39634 40115 333 20220 58012;EQDQ01  00002PRCP06
0183832880999992004110318004-13267-043417FM-12+0458SBLP V0201801N000510075019N0200001N1+03451+01631100531ADDAA106000091GF107991999011008001001001MA1999999095751MD1999999+0011REMSYN070AAXX  03184 83288 32598 71801 10345 20163 39575 40053 86100 333 58001;EQDQ01+000062SCOTLCQ02  00002PRCP06
0198832880999992004110400004-13267-043417FM-12+0458SBLP V0202001N016412200019N0020001N1+03031+01431100561ADDAA106000091GF103991021011008001021001KA1240M+03651MA1999999095781MD1999999-0151REMSYN088AAXX  04004 83288 32595 32032 10303 20143 39578 40056 82120 333 10365 29051 55109 59015;EQDQ01  00002PRCP06
0186832880999992004110412004-13267-043417FM-12+0458SBLP V0201401N001512200019N0200001N1+02851+01771101061ADDAA106000091GF103991001001999999001041KA1240N+02141MA1999999096261MD1999999-0081REMSYN076AAXX  04124 83288 32998 31403 10285 20177 39626 40106 80004 333 20214 59008;EQDQ01  00002PRCP06
0167832880999992004110418004-13267-043417FM-12+0458SBLP V0202301N002112200019N0200001N1+03521+01791100561ADDAA106000091GF104991031021008001001051MA1999999095791MD1999999+0041REMSYN070AAXX  04184 83288 32598 42304 10352 20179 39579 40056 83205 333 58004;EQDQ01  00002PRCP06
0198832880999992004110500004-13267-043417FM-12+0458SBLP V0201801N001512200019N0020001N1+03011+01501100701ADDAA106000091GF102991021011008001001001KA1240M+03631MA1999999095911MD1999999+0131REMSYN088AAXX  05004 83288 32595 21803 10301 20150 39591 40070 82100 333 10363 29042 55103 58013;EQDQ01  00002PRCP06
0196832880999992004110512004-13267-043417FM-12+0458SBLP V0200901N002112200019N0200001N1+02911+01781101131ADDAA106000091GA1001+999999999GF100991001001999999001001KA1240N+02121MA1999999096331MD1999999+0071REMSYN070AAXX  05124 83288 32998 00904 10291 20178 39633 40113 333 20212 58007;EQDQ01  00002PRCP06
0167832880999992004110518004-13267-043417FM-12+0458SBLP V0201401N001012200019N0200001N1+03541+01801100541ADDAA106000091GF104991041021008001001001MA1999999095771MD1999999-0021REMSYN070AAXX  05184 83288 32598 41402 10354 20180 39577 40054 84200 333 59002;EQDQ01  00002PRCP06
0198832880999992004110600004-13267-043417FM-12+0458SBLP V0201401N001512200019N0020001N1+03131+01171100761ADDAA106000091GF101991011011999999001001KA1240M+03741MA1999999095991MD1999999+0081REMSYN088AAXX  06004 83288 32995 11403 10313 20117 39599 40076 81100 333 10374 29037 55109 58008;EQDQ01  00002PRCP06
0186832880999992004110612004-13267-043417FM-12+0458SBLP V0200901N001512200019N0200001N1+03051+01641100821ADDAA106000091GF105991041011008001001041KA1240N+02031MA1999999096061MD1999999-0271REMSYN076AAXX  06124 83288 32598 50903 10305 20164 39606 40082 84104 333 20203 59027;EQDQ01  00002PRCP06
0167832880999992004110618004-13267-043417FM-12+0458SBLP V0201801N001010120019N0200001N1+03551+01671100381ADDAA106000091GF108991051081008001021999MA1999999095641MD1999999-0131REMSYN070AAXX  06184 83288 32598 81802 10355 20167 39564 40038 8582/ 333 59013;EQDQ01  00002PRCP06
0208832880999992004110700004-13267-043417FM-12+0458SBLP V0201801N001512200019N0020001N1+03001+01241100331ADDAA106000091GA1001+999999999GF100991001001999999001001KA1240M+03731MA1999999095781MD1999999-0211REMSYN082AAXX  07004 83288 32995 01803 10300 20124 39578 40033 333 10373 29037 55085 59021;EQDQ01  00002PRCP06
0196832880999992004110712004-13267-043417FM-12+0458SBLP V0200901N001512200019N0200001N1+03051+01761101021ADDAA106000091GA1001+999999999GF100991001001999999001001KA1240N+02121MA1999999096241MD1999999+0181REMSYN070AAXX  07124 83288 32998 00903 10305 20176 39624 40102 333 20212 58018;EQDQ01  00002PRCP06
0167832880999992004110718004-13267-043417FM-12+0458SBLP V0201801N001012200019N0200001N1+03641+01701100501ADDAA106000091GF103991031011008001001001MA1999999095751MD1999999+0111REMSYN070AAXX  07184 83288 32598 31802 10364 20170 39575 40050 83100 333 58011;EQDQ01  00002PRCP06
0198832880999992004110800004-13270-043420FM-12+0440SBLP V0200901N001512200019N0020001N1+03011+01721100731ADDAA106000091GF102991021011008001001001KA1240M+03771MA1999999095961MD1999999+0181REMSYN088AAXX  08004 83288 32595 20903 10301 20172 39596 40073 82100 333 10377 29041 55112 58018;EQDQ01  00002PRCP06
0186832880999992004110812004-13270-043420FM-12+0440SBLP V0201401N001512200019N0200001N1+02991+01791100961ADDAA106000091GF102991021021008001001001KA1240N+02381MA1999999096181MD1999999-0061REMSYN076AAXX  08124 83288 32598 21403 10299 20179 39618 40096 82200 333 20238 59006;EQDQ01  00002PRCP06
0163832880999992004110818004-13270-043420FM-12+0440SBLP V0209999C000010120019N0200001N1+03171+01991100591ADDAY121061GF106991061081008001001001MA1999999095791MD1999999+0041MW1511REMSYN082AAXX  08184 83288 21598 60000 10317 20199 39579 40059 7512/ 86800 333 58004 69931;
0202832880999992004110900004-13267-043417FM-12+0458SBLP V0201401N001510120019N0020001N1+02611+02011100821ADDAY151061AY251061GF105991051081008001001001KA1240M+03551MA1999999096021MD1999999+0061MW1021REMSYN100AAXX  09004 83288 21595 51403 10261 20201 39602 40082 70255 85800 333 10355 29060 55070 58006 69911;
0162832880999992004110912004-13267-043417FM-12+0458SBLP V0201401N001012200019N0200001N1+02851+01541101581ADDGF103991021011008001001041KA1240N+02061MA1999999096241MD1999999+0011REMSYN082AAXX  09124 83288 22598 31402 10285 20154 39624 40158 82104 333 20206 58001 69944;
0183832880999992004110918004-13267-043417FM-12+0458SBLP V0201401N001512200019N0200001N1+03491+01251100652ADDAA106000091GF104991021011008001001041MA1999999095881MD1999999+0091REMSYN070AAXX  09184 83288 32598 41403 10349 20125 39588 40065 82104 333 58009;EQDQ01+100653APOSLPQ02  00002PRCP06
0214832880999992004111000004-13267-043417FM-12+0458SBLP V0201801N004112200019N0020001N1+02921+02061100751ADDAA106000091GF102991999011008001001001KA1240M+03581MA1999999095961MD1999999-0061REMSYN088AAXX  10004 83288 32595 21808 10292 20206 39596 40075 81100 333 10358 29045 55113 59006;EQDQ01+000012SCOTLCQ02  00002PRCP06
0196832880999992004111012004-13267-043417FM-12+0458SBLP V0200901N001012200019N0200001N1+02751+01451101211ADDAA106000091GA1001+999999999GF100991001001999999001001KA1240N+02121MA1999999096381MD1999999+0141REMSYN070AAXX  10124 83288 32998 00902 10275 20145 39638 40121 333 20212 58014;EQDQ01  00002PRCP06
0167832880999992004111018004-13267-043417FM-12+0458SBLP V0203601N001012200019N0200001N1+03541+01571100581ADDAA106000091GF101991011011008001001001MA1999999095801MD1999999-0081REMSYN070AAXX  10184 83288 32598 13602 10354 20157 39580 40058 81100 333 59008;EQDQ01  00002PRCP06
0208832880999992004111100004-13267-043417FM-12+0458SBLP V0201401N001012200019N0020001N1+02831+01581100841ADDAA106000091GA1001+999999999GF100991001001999999001001KA1240M+03611MA1999999096031MD1999999+0071REMSYN082AAXX  11004 83288 32995 01402 10283 20158 39603 40084 333 10361 29041 55115 58007;EQDQ01  00002PRCP06
0186832880999992004111112004-13267-043417FM-12+0458SBLP V0200501N000512200019N0200001N1+02931+01771100981ADDAA106000091GF104991001001999999001011KA1240N+02021MA1999999096181MD1999999-0271REMSYN076AAXX  11124 83288 32998 40501 10293 20177 39618 40098 80001 333 20202 59027;EQDQ01  00002PRCP06
0198832880999992004111200004-13267-043417FM-12+0458SBLP V0203601N000512200019N0020001N1+03031+01371100491ADDAA106000091GF101991001001999999001011KA1240M+03751MA1999999095741MD1999999-0291REMSYN088AAXX  12004 83288 32995 13601 10303 20137 39574 40049 80001 333 10375 29036 55110 59029;EQDQ01  00002PRCP06
0202832880999992004111212004-13267-043417FM-12+0458SBLP V0202701N001012200019N0200001N1+03221+01521100641ADDAA106000091GF102991999011008001001001KA1240N+02221MA1999999095891MD1999999-0291REMSYN076AAXX  12124 83288 32598 22702 10322 20152 39589 40064 81100 333 20222 59029;EQDQ01+000012SCOTLCQ02  00002PRCP06
0167832880999992004111218004-13270-043420FM-12+0440SBLP V0203201N000510450019N0200001N1+03791+01371100201ADDAA106000091GF105991041081008001021021MA1999999095471MD1999999-0111REMSYN070AAXX  12184 83288 32598 53201 10379 20137 39547 40020 84822 333 59011;EQDQ01  00002PRCP06
0198832880999992004111300004-13270-043420FM-12+0440SBLP V0202701N001010450019N0020001N1+02871+01901100311ADDAA106000091GF106991041081008001021021KA1240M+03881MA1999999095571MD1999999-0171REMSYN088AAXX  13004 83288 32595 62702 10287 20190 39557 40031 84822 333 10388 29039 55100 59017;EQDQ01  00002PRCP06
0186832880999992004111312004-13270-043420FM-12+0440SBLP V0201801N001012200019N0200001N1+03181+02011100801ADDAA106000091GF103991011011008001031001KA1240N+02441MA1999999096031MD1999999+0141REMSYN076AAXX  13124 83288 32598 31802 10318 20201 39603 40080 81130 333 20244 58014;EQDQ01  00002PRCP06
0171832880999992004111318004-13270-043420FM-12+0440SBLP V0201801N001010120019N0200001N1+03051+02181100451ADDAY161061AY261061GF106991061081008001001001MA1999999095651MD1999999+0181MW1031REMSYN082AAXX  13184 83288 21598 61802 10305 20218 39565 40045 70366 86800 333 58018 60011;
0198832880999992004111400004-13267-043417FM-12+0458SBLP V0201801N001512200019N0020001N1+02531+02081100801ADDAA106000091GF104991021021008001011001KA1240M+03511MA1999999096001MD1999999+0431REMSYN088AAXX  14004 83288 32595 41803 10253 20208 39600 40080 82210 333 10351 29062 55048 58043;EQDQ01  00002PRCP06
0162832880999992004111412004-13267-043417FM-12+0458SBLP V0201801N001510450019N0200001N1+02911+01991100901ADDGF106991041051008001031001KA1240N+02361MA1999999096141MD1999999+0111REMSYN082AAXX  14124 83288 22598 61803 10291 20199 39614 40090 84530 333 20236 58011 60014;
0167832880999992004111418004-13267-043417FM-12+0458SBLP V0203201N001012200019N0200001N1+03221+02081100611ADDAA106000091GF103991021021008001001021MA1999999095791MD1999999+0141REMSYN070AAXX  14184 83288 32598 33202 10322 20208 39579 40061 82202 333 58014;EQDQ01  00002PRCP06
0202832880999992004111500004-13267-043417FM-12+0458SBLP V0202301N000512200019N0020001N1+02411+02171100881ADDAY191061AY261061GF101991011011008001001001KA1240M+03441MA1999999096031MD1999999+0031MW1011REMSYN100AAXX  15004 83288 21595 12301 10241 20217 39603 40088 70196 81100 333 10344 29070 55034 58003 60051;
0162832880999992004111512004-13267-043417FM-12+0458SBLP V0200501N001012200019N0200001N1+02831+01771101491ADDGF103991011011008001001041KA1240N+02141MA1999999096261MD1999999+0121REMSYN082AAXX  15124 83288 22598 30502 10283 20177 39626 40149 81104 333 20214 58012 60054;
0183832880999992004111518004-13267-043417FM-12+0458SBLP V0200901N001012200019N0200001N1+03551+01241100622ADDAA106000091GF105991031011008001001041MA1999999095831MD1999999+0041REMSYN070AAXX  15184 83288 32598 50902 10355 20124 39583 40062 83104 333 58004;EQDQ01+100623APOSLPQ02  00002PRCP06
0214832880999992004111600004-13267-043417FM-12+0458SBLP V0201401N001512200019N0020001N1+02941+01721100681ADDAA106000091GF102991999011008001001001KA1240M+03651MA1999999095841MD1999999-0191REMSYN088AAXX  16004 83288 32595 21403 10294 20172 39584 40068 81100 333 10365 29042 55108 59019;EQDQ01+000012SCOTLCQ02  00002PRCP06
0186832880999992004111612004-13267-043417FM-12+0458SBLP V0202701N001519999999N0200001N1+02811+01931101281ADDAA106000091GF105991001001999999001031KA1240N+02241MA1999999096421MD1999999+0161REMSYN076AAXX  16124 83288 32998 52703 10281 20193 39642 40128 80003 333 20224 58016;EQDQ01  00002PRCP06
0167832880999992004111618004-13267-043417FM-12+0458SBLP V0203601N001512200019N0200001N1+03621+01531100701ADDAA106000091GF104991041021008001001001MA1999999095931MD1999999+0101REMSYN070AAXX  16184 83288 32598 43603 10362 20153 39593 40070 84200 333 58010;EQDQ01  00002PRCP06
0208832880999992004111700004-13267-043417FM-12+0458SBLP V0200901N001012200019N0020001N1+02891+01921100881ADDAA106000091GA1001+999999999GF100991001001999999001001KA1240M+03711MA1999999096031MD1999999+0191REMSYN082AAXX  17004 83288 32995 00902 10289 20192 39603 40088 333 10371 29048 55098 58019;EQDQ01  00002PRCP06
0196832880999992004111712004-13267-043417FM-12+0458SBLP V0201401N001512200019N0200001N1+03051+01801101131ADDAA106000091GA1001+999999999GF100991001001999999001001KA1240N+02281MA1999999096351MD1999999-0071REMSYN070AAXX  17124 83288 32998 01403 10305 20180 39635 40113 333 20228 59007;EQDQ01  00002PRCP06
0167832880999992004111718004-13267-043417FM-12+0458SBLP V0202301N000512200019N0200001N1+03561+01781100581ADDAA106000091GF103991031021008001001001MA1999999095831MD1999999-0101REMSYN070AAXX  17184 83288 32598 32301 10356 20178 39583 40058 83200 333 59010;EQDQ01  00002PRCP06
0198832880999992004111800004-13267-043417FM-12+0458SBLP V0201401N001012200019N0020001N1+03051+01571100771ADDAA106000091GF101991011021008001001001KA1240M+03711MA1999999096011MD1999999-0021REMSYN088AAXX  18004 83288 32595 11402 10305 20157 39601 40077 81200 333 10371 29041 55109 59002;EQDQ01  00002PRCP06
0186832880999992004111812004-13267-043417FM-12+0458SBLP V0201801N000510075019N0200001N1+02941+01881101001ADDAA106000091GF106991051031008001021021KA1240N+02331MA1999999096221MD1999999-0131REMSYN076AAXX  18124 83288 32598 61801 10294 20188 39622 40100 85322 333 20233 59013;EQDQ01  00002PRCP06
0167832880999992004111818004-13267-043417FM-12+0458SBLP V0201801N001011050019N0200001N1+03631+01361100371ADDAA106000091GF105991041021008001001021MA1999999095651MD1999999-0181REMSYN070AAXX  18184 83288 32598 51802 10363 20136 39565 40037 84202 333 59018;EQDQ01  00002PRCP06
0208832880999992004111900004-13267-043417FM-12+0458SBLP V0202301N000512200019N0020001N1+03151+01691100331ADDAA106000091GA1001+999999999GF100991001001999999001001KA1240M+03771MA1999999095581MD1999999-0431REMSYN082AAXX  19004 83288 32995 02301 10315 20169 39558 40033 333 10377 29040 55080 59043;EQDQ01  00002PRCP06
0186832880999992004111912004-13267-043417FM-12+0458SBLP V0202701N001510450019N0200001N1+03151+01951100801ADDAA106000091GF105991031011008001051001KA1240N+02561MA1999999096061MD1999999-0161REMSYN076AAXX  19124 83288 32598 52703 10315 20195 39606 40080 83150 333 20256 59016;EQDQ01  00002PRCP06
0171832880999992004111918004-13267-043417FM-12+0458SBLP V0202301N001010450019N0200001N1+03011+02231100611ADDAY151061AY251061GF106991031081008001051021MA1999999095811MD1999999+0161MW1031REMSYN082AAXX  19184 83288 21598 62302 10301 20223 39581 40061 70355 83852 333 58016 69941;
0194832880999992004112100004-13270-043420FM-12+0440SBLP V0203601N003110075019N0020001N1+02331+02201101131ADDAY121061GF108991081051008001999999KA1240M+03571MA1999999096231MD1999999+0191MW1251REMSYN100AAXX  21004 83288 21595 83606 10233 20220 39623 40113 7252/ 885// 333 10357 29080 55042 58019 60121;
0190832880999992004112112004-13270-043420FM-12+0440SBLP V0201801N000510075019N0200001N1+02511+02111100981ADDAY151061AY251061GF108991061051008001021999KA1240N+02071MA1999999096361MD1999999+0211MW1021REMSYN088AAXX  21124 83288 21598 81801 10251 20211 39636 40098 70255 8652/ 333 20207 58021 60574;
0167832880999992004112118004-13270-043420FM-12+0440SBLP V0203601N000510450019N0200001N1+03051+02231100671ADDAA106000091GF106991041021008001021041MA1999999095841MD1999999+0231REMSYN070AAXX  21184 83288 32598 63601 10305 20223 39584 40067 84224 333 58023;EQDQ01  00002PRCP06
0202832880999992004112200004-13267-043417FM-12+0458SBLP V0201801N001510075019N0020001N1+02141+01971100911ADDAY161061AY251061GF108991061051008001021999KA1240M+03081MA1999999096191MD1999999-0041MW1921REMSYN100AAXX  22004 83288 21595 81803 10214 20197 39619 40091 79265 8652/ 333 10308 29090 55030 59004 60311;
0190832880999992004112212004-13267-043417FM-12+0458SBLP V0203601N001010075019N0020001N1+02191+02111101381ADDAY161061AY261061GF108991051071008001021999KA1240N+02201MA1999999096421MD1999999+0061MW1611REMSYN088AAXX  22124 83288 21595 83602 10219 20211 39642 40138 76166 8572/ 333 20220 58006 60564;
0171832880999992004112218004-13267-043417FM-12+0458SBLP V0201801N002110450019N0200001N1+02611+02401100881ADDAY151061AY251061GF107991041081008001011021MA1999999095971MD1999999+0131MW1031REMSYN082AAXX  22184 83288 21598 71804 10261 20240 39597 40088 70355 84812 333 58013 69921;
0198832880999992004112300004-13267-043417FM-12+0458SBLP V0201801N001510450019N0020001N1+02391+02341101221ADDAA106000091GF108991041051008001021999KA1240M+02671MA1999999096281MD1999999+0091REMSYN088AAXX  23004 83288 32595 81803 10239 20234 39628 40122 8452/ 333 10267 29093 55004 58009;EQDQ01  00002PRCP06
0190832880999992004112312004-13267-043417FM-12+0458SBLP V0201401N001010075019N0200001N1+02131+02091101491ADDAY161061AY261061GF108991081061008001999999KA1240N+01991MA1999999096531MD1999999+0111MW1611REMSYN088AAXX  23124 83288 21598 81402 10213 20209 39653 40149 76166 886// 333 20199 58011 60094;
0148832880999992004112318004-13267-043417FM-12+0458SBLP V0201401N000510075019N0200001N1+02431+02111101141ADDAA106000021GF108991051071008001021999MA1999999096201MD1999999+0231REMSYN070AAXX  23184 83288 32598 81401 10243 20211 39620 40114 8572/ 333 58023;
0202832880999992004112400004-13267-043417FM-12+0458SBLP V0200901N000510450019N0020001N1+02171+02041101481ADDAY151061AY251061GF108991041061008001021999KA1240M+02621MA1999999096501MD1999999+0221MW1581REMSYN100AAXX  24004 83288 21595 80901 10217 20204 39650 40148 75855 8462/ 333 10262 29092 55002 58022 69951;
0190832880999992004112412004-13267-043417FM-12+0458SBLP V0201801N000510075019N0200001N1+02371+02131101511ADDAY161061AY261061GF108991061051008001021999KA1240N+01991MA1999999096551MD1999999+0021MW1611REMSYN088AAXX  24124 83288 21598 81801 10237 20213 39655 40151 76166 8652/ 333 20199 58002 60044;
0148832880999992004112418004-13267-043417FM-12+0458SBLP V0201401N001010075019N0200001N1+02741+02021100941ADDAA106000021GF108991061051008001021999MA1999999096111MD1999999-0091REMSYN070AAXX  24184 83288 32598 81402 10274 20202 39611 40094 8652/ 333 59009;
0198832880999992004112500004-13267-043417FM-12+0458SBLP V0201801N000510450019N0020001N1+02331+02151101231ADDAA106000091GF108991041051008001021999KA1240M+02781MA1999999096311MD1999999-0191REMSYN088AAXX  25004 83288 32595 81801 10233 20215 39631 40123 8452/ 333 10278 29078 55009 59019;EQDQ01  00002PRCP06
0096832880999992004112512004-13267-043417FM-12+0458SBLP V02099999999999999999N9999999N1+99999+99999999999REMSYN087AAXX  25124 83288 2159 81802 10249 20212 39644 40136 70366 8686/ 333 20200 59011 60034;
0167832880999992004112518004-13267-043417FM-12+0458SBLP V0203601N001010075019N0200001N1+02951+02221100851ADDAA106000091GF105991051021008001001001MA1999999095971MD1999999-0141REMSYN070AAXX  25184 83288 32598 53602 10295 20222 39597 40085 85200 333 59014;EQDQ01  00002PRCP06
0202832880999992004112600004-13267-043417FM-12+0458SBLP V0203601N002110075019N0020001N1+02211+02141101141ADDAY161061AY261061GF108991061051008001011999KA1240M+03031MA1999999096221MD1999999-0091MW1031REMSYN100AAXX  26004 83288 21595 83604 10221 20214 39622 40114 70366 8651/ 333 10303 29080 55060 59009 60071;
0167832880999992004112618004-13267-043417FM-12+0458SBLP V0201801N002112200019N0200001N1+03091+01981100641ADDAA106000091GF103991021021008001001021MA1999999095801MD1999999-0171REMSYN070AAXX  26184 83288 32598 31804 10309 20198 39580 40064 82202 333 59017;EQDQ01  00002PRCP06
0198832880999992004112700004-13267-043417FM-12+0458SBLP V0200901N000510075019N0200001N1+02471+02101100861ADDAA106000091GF105991051021008001001001KA1240M+03151MA1999999095991MD1999999-0231REMSYN088AAXX  27004 83288 32598 50901 10247 20210 39599 40086 85200 333 10315 29068 55104 59023;EQDQ01  00002PRCP06
0162832880999992004112712004-13267-043417FM-12+0458SBLP V0203201N000510450019N0200001N1+02531+02131101091ADDGF106991041051008001021021KA1240N+02141MA1999999096201MD1999999-0071REMSYN082AAXX  27124 83288 22598 63201 10253 20213 39620 40109 84522 333 20214 59007 69964;
0167832880999992004112718004-13267-043417FM-12+0458SBLP V0203201N001010450019N0200001N1+03091+01881100671ADDAA106000091GF105991031051008001021041MA1999999095851MD1999999+0051REMSYN070AAXX  27184 83288 32598 53202 10309 20188 39585 40067 83524 333 58005;EQDQ01  00002PRCP06
0198832880999992004112800004-13267-043417FM-12+0458SBLP V0201401N000510075019N0020001N1+02591+01971100801ADDAA106000091GF108991061051008001021999KA1240M+03181MA1999999095941MD1999999-0051REMSYN088AAXX  28004 83288 32595 81401 10259 20197 39594 40080 8652/ 333 10318 29066 55047 59005;EQDQ01  00002PRCP06
0190832880999992004112812004-13267-043417FM-12+0458SBLP V0203601N001510075019N0020001N1+02231+02181101291ADDAY161061AY261061GF108991051071008001011999KA1240N+02141MA1999999096371MD1999999+0171MW1511REMSYN088AAXX  28124 83288 21595 83603 10223 20218 39637 40129 75166 8571/ 333 20214 58017 60054;
0171832880999992004112818004-13267-043417FM-12+0458SBLP V0203201N001512200019N0200001N1+03071+02311100521ADDAY151061AY251061GF103991021031008001001051MA1999999095701MD1999999-0151MW1021REMSYN082AAXX  28184 83288 21598 33203 10307 20231 39570 40052 70255 82305 333 59015 69941;
0198832880999992004112900004-13267-043417FM-12+0458SBLP V0209999C000012200019N0020001N1+02731+02301100791ADDAA106000091GF104991041081004501001021KA1240M+03151MA1999999095871MD1999999-0041REMSYN088AAXX  29004 83288 32495 40000 10273 20230 39587 40079 84802 333 10315 29080 55052 59004;EQDQ01  00002PRCP06
0167832880999992004113018004-13267-043417FM-12+0458SBLP V0203601N001510075019N0200001N1+03131+02141100701ADDAA106000091GF105991051021008001021021MA1999999095861MD1999999+0091REMSYN070AAXX  30184 83288 32598 53603 10313 20214 39586 40070 85222 333 58009;EQDQ01  00002PRCP06
0198832880999992004120100004-13267-043417FM-12+0458SBLP V0203601N000512200019N0020001N1+02751+02261100681ADDAA106000091GF103991021021008001021001KA1240M+03231MA1999999095831MD1999999-0171REMSYN088AAXX  01004 83288 32595 33601 10275 20226 39583 40068 82220 333 10323 29075 55073 59017;EQDQ01  00002PRCP06
0186832880999992004120112004-13267-043417FM-12+0458SBLP V0201401N001019999999N0200001N1+02751+02211101011ADDAA106000091GF105991001001999999001091KA1240N+02181MA1999999096171MD1999999-0101REMSYN076AAXX  01124 83288 32998 51402 10275 20221 39617 40101 80009 333 20218 59010;EQDQ01  00002PRCP06
0215832880999992004120200004-13267-043417FM-12+0458SBLP V0201801N002610042019N0020001N1+02271+02141101001ADDAY161061AY251061GF108991051051004501001021KA1240M+03311MA1999999096121MD1999999+0291REMSYN100AAXX  02004 83288 21495 81805 10227 20214 39612 40100 76765 85502 333 10331 29088 55073 58029 60051;EQDQ01+000672PRSWM1
0190832880999992004120212004-13267-043417FM-12+0458SBLP V0201801N001511050019N0200001N1+02531+02251101301ADDAY161061AY251061GF105991031041008001001091KA1240N+02041MA1999999096381MD1999999+0211MW1031REMSYN088AAXX  02124 83288 21598 51803 10253 20225 39638 40130 70365 83409 333 20204 58021 60184;
0167832880999992004120218004-13267-043417FM-12+0458SBLP V0202301N001510450019N0200001N1+03051+02231100901ADDAA106000091GF105991031021008001031041MA1999999096041MD1999999+0191REMSYN070AAXX  02184 83288 32598 52303 10305 20223 39604 40090 83234 333 58019;EQDQ01  00002PRCP06
0208832880999992004120300004-13267-043417FM-12+0458SBLP V0201801N002112200019N0020001N1+02471+02191100991ADDAA106000091GA1001+999999999GF100991001001999999001001KA1240M+03111MA1999999096111MD1999999-0011REMSYN082AAXX  03004 83288 32995 01804 10247 20219 39611 40099 333 10311 29078 55073 59001;EQDQ01  00002PRCP06
0202832880999992004120312004-13267-043417FM-12+0458SBLP V0201401N000512200019N0200001N1+02691+01921101331ADDAA106000091GF103991999011008001001041KA1240N+02041MA1999999096451MD1999999+0071REMSYN076AAXX  03124 83288 32598 31401 10269 20192 39645 40133 84104 333 20204 58007;EQDQ01+000042SCOTLCQ02  00002PRCP06
0167832880999992004120318004-13267-043417FM-12+0458SBLP V0203601N000512200019N0020001N1+03271+01711100821ADDAA106000091GF103991021011008001001041MA1999999095991MD1999999-0051REMSYN070AAXX  03184 83288 32595 33601 10327 20171 39599 40082 82104 333 59005;EQDQ01  00002PRCP06
0214832880999992004120400004-13267-043417FM-12+0458SBLP V0201401N000512200019N0020001N1+02731+01831100851ADDAA106000091GF102991999011008001001001KA1240M+03351MA1999999096011MD1999999-0101REMSYN088AAXX  04004 83288 32595 21401 10273 20183 39601 40085 81100 333 10335 29056 55119 59010;EQDQ01+000012SCOTLCQ02  00002PRCP06
0186832880999992004120412004-13267-043417FM-12+0458SBLP V0201401N002112200019N0200001N1+02671+02041101361ADDAA106000091GF102991001001999999001021KA1240N+02011MA1999999096501MD1999999+0051REMSYN076AAXX  04124 83288 32998 21404 10267 20204 39650 40136 80002 333 20201 58005;EQDQ01  00002PRCP06
0167832880999992004120418004-13267-043417FM-12+0458SBLP V0209999C000012200019N0200001N1+03231+01631100981ADDAA106000091GF104991001001999999001021MA1999999096141MD1999999+0151REMSYN070AAXX  04184 83288 32998 40000 10323 20163 39614 40098 80002 333 58015;EQDQ01  00002PRCP06
0196832880999992004120512004-13267-043417FM-12+0458SBLP V0201401N001012200019N0200001N1+02771+02041101301ADDAA106000091GA1001+999999999GF100991001001999999001001KA1240N+01981MA1999999096431MD1999999-0071REMSYN070AAXX  05124 83288 32998 01402 10277 20204 39643 40130 333 20198 59007;EQDQ01  00002PRCP06
0167832880999992004120518004-13267-043417FM-12+0458SBLP V0202301N001512200019N0200001N1+03281+01931100951ADDAA106000091GF102991021011008001001001MA1999999096001MD1999999-0141REMSYN070AAXX  05184 83288 32598 22303 10328 20193 39600 40095 82100 333 59014;EQDQ01  00002PRCP06
0208832880999992004120600004-13270-043420FM-12+0440SBLP V0201801N001512200019N0020001N1+02711+01751100951ADDAA106000091GA1001+999999999GF100991001001999999001001KA1240M+03391MA1999999096121MD1999999-0101REMSYN082AAXX  06004 83288 32995 01803 10271 20175 39612 40095 333 10339 29056 55118 59010;EQDQ01  00002PRCP06
0196832880999992004120612004-13270-043420FM-12+0440SBLP V0203201N001012200019N0200001N1+02841+01771101071ADDAA106000091GA1001+999999999GF100991001001999999001001KA1240N+02081MA1999999096231MD1999999-0201REMSYN070AAXX  06124 83288 32998 03202 10284 20177 39623 40107 333 20208 59020;EQDQ01  00002PRCP06
0183832880999992004120618004-13270-043420FM-12+0440SBLP V0201401N001512200019N0200001N1+03291+01341100661ADDAA106000091GF101991999011008001001041MA1999999095841MD1999999-0161REMSYN070AAXX  06184 83288 32598 11403 10329 20134 39584 40066 83104 333 59016;EQDQ01+000032SCOTLCQ02  00002PRCP06
0208832880999992004120700004-13267-043417FM-12+0458SBLP V0203601N000512200019N0020001N1+02751+01611100611ADDAA106000091GA1001+999999999GF100991001001999999001001KA1240M+03371MA1999999095841MD1999999-0161REMSYN082AAXX  07004 83288 32995 03601 10275 20161 39584 40061 333 10337 29045 55111 59016;EQDQ01  00002PRCP06
0196832880999992004120712004-13267-043417FM-12+0458SBLP V0200501N001512200019N0200001N1+02871+01841101051ADDAA106000091GA1001+999999999GF100991001001999999001001KA1240N+02031MA1999999096231MD1999999+0001REMSYN070AAXX  07124 83288 32998 00503 10287 20184 39623 40105 333 20203 58000;EQDQ01  00002PRCP06
0167832880999992004120718004-13267-043417FM-12+0458SBLP V0203201N001012200019N0200001N1+03381+01661100641ADDAA106000091GF101991011011008001001001MA1999999095821MD1999999-0021REMSYN070AAXX  07184 83288 32598 13202 10338 20166 39582 40064 81100 333 59002;EQDQ01  00002PRCP06
0208832880999992004120800004-13267-043417FM-12+0458SBLP V0209999C000012200019N0020001N1+02861+01721100721ADDAA106000091GA1001+999999999GF100991001001999999001001KA1240M+03431MA1999999095921MD1999999-0091REMSYN082AAXX  08004 83288 32995 00000 10286 20172 39592 40072 333 10343 29048 55120 59009;EQDQ01  00002PRCP06
0186832880999992004120812004-13267-043417FM-12+0458SBLP V0201801N000512200019N0200001N1+02871+02091101071ADDAA106000091GF102991001001999999001041KA1240N+02141MA1999999096251MD1999999+0021REMSYN076AAXX  08124 83288 32998 21801 10287 20209 39625 40107 80004 333 20214 58002;EQDQ01  00002PRCP06
0167832880999992004120818004-13267-043417FM-12+0458SBLP V0203201N000512200019N0200001N1+03401+02071100641ADDAA106000091GF103991011001008001001041MA1999999095851MD1999999+0031REMSYN070AAXX  08184 83288 32598 33201 10340 20207 39585 40064 81004 333 58003;EQDQ01  00002PRCP06
0208832880999992004120900004-13267-043417FM-12+0458SBLP V0200901N001512200019N0020001N1+02691+01921100801ADDAA106000091GA1001+999999999GF100991001001999999001001KA1240M+03451MA1999999095991MD1999999+0071REMSYN082AAXX  09004 83288 32995 00903 10269 20192 39599 40080 333 10345 29059 55117 58007;EQDQ01  00002PRCP06
0186832880999992004120912004-13267-043417FM-12+0458SBLP V0202701N001012200019N0200001N1+02881+02051101041ADDAA106000091GF103991021011008001001021KA1240N+02211MA1999999096221MD1999999-0031REMSYN076AAXX  09124 83288 32598 32702 10288 20205 39622 40104 82102 333 20221 59003;EQDQ01  00002PRCP06
0167832880999992004120918004-13267-043417FM-12+0458SBLP V0201401N002611050019N0200001N1+03461+01671100651ADDAA106000091GF106991031011008001001021MA1999999096691MD1999999+0161REMSYN070AAXX  09184 83288 32598 61405 10346 20167 39669 40065 83102 333 58016;EQDQ01  00002PRCP06
0186832880999992004121012004-13267-043417FM-12+0458SBLP V0209999C000012200019N0200001N1+02821+02151100841ADDAA106000091GF101991001001999999001011KA1240N+02231MA1999999096041MD1999999-0181REMSYN076AAXX  10124 83288 32998 10000 10282 20215 39604 40084 80001 333 20223 59018;EQDQ01  00002PRCP06
0167832880999992004121018004-13267-043417FM-12+0458SBLP V0209999C000011050019N0200001N1+03251+02331100331ADDAA106000091GF107991031021008001001021MA1999999095541MD1999999-0151REMSYN070AAXX  10184 83288 32598 70000 10325 20233 39554 40033 83202 333 59015;EQDQ01  00002PRCP06
0208832880999992004121100004-13267-043417FM-12+0458SBLP V0209999C000012200019N0020001N1+02571+02171100681ADDAA106000091GA1001+999999999GF100991001001999999001001KA1240M+03361MA1999999095851MD1999999+0131REMSYN082AAXX  11004 83288 32995 00000 10257 20217 39585 40068 333 10336 29071 55079 58013;EQDQ01  00002PRCP06
0190832880999992004121112004-13267-043417FM-12+0458SBLP V0209999C000010450019N0200001N1+02271+02121101181ADDAY161061AY261061GF108991031051008001021999KA1240N+01941MA1999999096271MD1999999+0231MW1021REMSYN088AAXX  11124 83288 21598 80000 10227 20212 39627 40118 70266 8352/ 333 20194 58023 60074;
0167832880999992004121118004-13267-043417FM-12+0458SBLP V0200901N000512200019N0200001N1+02871+02331100561ADDAA106000091GF101991001001999999001021MA1999999095661MD1999999+0121REMSYN070AAXX  11184 83288 32998 10901 10287 20233 39566 40056 80002 333 58012;EQDQ01  00002PRCP06
0202832880999992004121200004-13270-043420FM-12+0440SBLP V0201401N001510450019N0020001N1+02131+02091101201ADDAY191061AY281061GF108991041051008001021999KA1240M+02951MA1999999096251MD1999999+0401MW1651REMSYN100AAXX  12004 83288 21595 81403 10213 20209 39625 40120 76598 8452/ 333 10295 29090 55024 58040 60261;
0190832880999992004121212004-13270-043420FM-12+0440SBLP V0202701N000510075019N0200001N1+02371+02171101341ADDAY161061AY261061GF108991051051008001021999KA1240N+02001MA1999999096391MD1999999+0121MW1021REMSYN088AAXX  12124 83288 21598 82701 10237 20217 39639 40134 70266 8552/ 333 20200 58012 60324;
0198832880999992004121300004-13267-043417FM-12+0458SBLP V0203201N001510120019N0020001N1+02521+02291101121ADDAA106000091GF107991051081008001021001KA1240M+03051MA1999999096221MD1999999-0031REMSYN088AAXX  13004 83288 32595 73203 10252 20229 39622 40112 85820 333 10305 29079 55035 59003;EQDQ01  00002PRCP06
0162832880999992004121312004-13267-043417FM-12+0458SBLP V0201401N001510450019N0200001N1+02541+02191101331ADDGF106991021041008001071001KA1240N+02061MA1999999096441MD1999999+0051REMSYN082AAXX  13124 83288 22598 61403 10254 20219 39644 40133 82470 333 20206 58005 60024;
0167832880999992004121318004-13267-043417FM-12+0458SBLP V0203201N000512200019N0200001N1+03091+02371100831ADDAA106000091GF102991011011008001001021MA1999999095981MD1999999+0021REMSYN070AAXX  13184 83288 32598 23201 10309 20237 39598 40083 81102 333 58002;EQDQ01  00002PRCP06
0198832880999992004121400004-13267-043417FM-12+0458SBLP V0200901N001512200019N0020001N1+02611+02121101021ADDAA106000091GF103991001001999999001021KA1240M+03161MA1999999096151MD1999999-0071REMSYN088AAXX  14004 83288 32995 30903 10261 20212 39615 40102 80002 333 10316 29074 55074 59007;EQDQ01  00002PRCP06
0162832880999992004121412004-13267-043417FM-12+0458SBLP V0202301N001512200019N0200001N1+02551+02131101331ADDGF104991001001999999001091KA1240N+02241MA1999999096351MD1999999-0091REMSYN082AAXX  14124 83288 22998 42303 10255 20213 39635 40133 80009 333 20224 59009 60224;
0167832880999992004121418004-13267-043417FM-12+0458SBLP V0202301N002111050019N0200001N1+03111+02201100771ADDAA106000091GF106991031081004501001021MA1999999095921MD1999999-0061REMSYN070AAXX  14184 83288 32498 62304 10311 20220 39592 40077 83802 333 59006;EQDQ01  00002PRCP06
0202832880999992004121500004-13267-043417FM-12+0458SBLP V0200501N006710450019N0020001N1+02171+01921101361ADDAY191061AY261061GF108991041091004501021999KA1240M+03171MA1999999096431MD1999999+0281MW1991REMSYN100AAXX  15004 83288 21495 80513 10217 20192 39643 40136 79996 8492/ 333 10317 29077 55104 58028 60691;
0162832880999992004121512004-13267-043417FM-12+0458SBLP V0201401N000510450019N0200001N1+02371+02191101371ADDGF106991031051008001021001KA1240N+01981MA1999999096421MD1999999+0071REMSYN082AAXX  15124 83288 22598 61401 10237 20219 39642 40137 83520 333 20198 58007 60744;
0167832880999992004121518004-13267-043417FM-12+0458SBLP V0201801N000510075019N0200001N1+02951+02241100921ADDAA106000091GF107991061051008001021001MA1999999096031MD1999999+0111REMSYN070AAXX  15184 83288 32598 71801 10295 20224 39603 40092 86520 333 58011;EQDQ01  00002PRCP06
0198832880999992004121600004-13267-043417FM-12+0458SBLP V0200901N001510120019N0020001N1+02541+02231101001ADDAA106000091GF107991061081008001021999KA1240M+03051MA1999999096111MD1999999-0321REMSYN088AAXX  16004 83288 32595 70903 10254 20223 39611 40100 8682/ 333 10305 29078 55081 59032;EQDQ01  00002PRCP06
0196832880999992004121612004-13267-043417FM-12+0458SBLP V0200901N002112200019N0200001N1+02681+01941101061ADDAA106000091GA1001+999999999GF100991001001999999001001KA1240N+02071MA1999999096191MD1999999-0231REMSYN070AAXX  16124 83288 32998 00904 10268 20194 39619 40106 333 20207 59023;EQDQ01  00002PRCP06
0167832880999992004121618004-13267-043417FM-12+0458SBLP V0200501N001012200019N0200001N1+03131+02021100681ADDAA106000091GF103991031021008001001001MA1999999095841MD1999999-0191REMSYN070AAXX  16184 83288 32598 30502 10313 20202 39584 40068 83200 333 59019;EQDQ01  00002PRCP06
0186832880999992004121712004-13267-043417FM-12+0458SBLP V0202301N001012200019N0200001N1+02411+01971101061ADDAA106000091GF102991021001017501081001KA1240N+01961MA1999999096171MD1999999-0021REMSYN076AAXX  17124 83288 32798 22302 10241 20197 39617 40106 82080 333 20196 59002;EQDQ01  00002PRCP06
0167832880999992004121718004-13267-043417FM-12+0458SBLP V0203201N000512200019N0200001N1+03211+02121100591ADDAA106000091GF102991011021008001001011MA1999999095761MD1999999-0081REMSYN070AAXX  17184 83288 32598 23201 10321 20212 39576 40059 81201 333 59008;EQDQ01  00002PRCP06
0208832880999992004121800004-13267-043417FM-12+0458SBLP V0201401N001012200019N0020001N1+02641+01931100811ADDAA106000091GA1001+999999999GF100991001001999999001001KA1240M+03241MA1999999095941MD1999999-0011REMSYN082AAXX  18004 83288 32995 01402 10264 20193 39594 40081 333 10324 29064 55095 59001;EQDQ01  00002PRCP06
0186832880999992004121812004-13267-043417FM-12+0458SBLP V0200901N000512200019N0200001N1+02771+01891101011ADDAA106000091GF102991021011008001001041KA1240N+02131MA1999999096161MD1999999-0011REMSYN076AAXX  18124 83288 32598 20901 10277 20189 39616 40101 82104 333 20213 59001;EQDQ01  00002PRCP06
0167832880999992004121818004-13267-043417FM-12+0458SBLP V0203201N001012200019N0200001N1+03171+02021100761ADDAA106000091GF103991011021008001001021MA1999999095931MD1999999+0171REMSYN070AAXX  18184 83288 32598 33202 10317 20202 39593 40076 81202 333 58017;EQDQ01  00002PRCP06
0208832880999992004121900004-13270-043420FM-12+0440SBLP V0203601N000512200019N0020001N1+02851+02091100881ADDAA106000091GA1001+999999999GF100991001001999999001001KA1240M+03271MA1999999096061MD1999999-0121REMSYN082AAXX  19004 83288 32995 03601 10285 20209 39606 40088 333 10327 29058 55118 59012;EQDQ01  00002PRCP06
0186832880999992004121912004-13270-043420FM-12+0440SBLP V0203201N001512200019N0200001N1+02651+02161101271ADDAA106000091GF103991031001017501071001KA1240N+02191MA1999999096401MD1999999-0291REMSYN076AAXX  19124 83288 32798 33203 10265 20216 39640 40127 83070 333 20219 59029;EQDQ01  00002PRCP06
0167832880999992004121918004-13270-043420FM-12+0440SBLP V0203601N001512200019N0200001N1+03161+02171100721ADDAA106000091GF101991011021008001001001MA1999999095901MD1999999-0031REMSYN070AAXX  19184 83288 32598 13603 10316 20217 39590 40072 81200 333 59003;EQDQ01  00002PRCP06
0198832880999992004122000004-13267-043417FM-12+0458SBLP V0203601N001512200019N0020001N1+02591+02121101051ADDAA106000091GF104991001001999999001021KA1240M+03261MA1999999096181MD1999999+0121REMSYN088AAXX  20004 83288 32995 43603 10259 20212 39618 40105 80002 333 10326 29071 55093 58012;EQDQ01  00002PRCP06
0186832880999992004122012004-13267-043417FM-12+0458SBLP V0201801N001012200019N0200001N1+02771+02181101251ADDAA106000091GF101991001001999999001041KA1240N+02181MA1999999096391MD1999999-0011REMSYN076AAXX  20124 83288 32998 11802 10277 20218 39639 40125 80004 333 20218 59001;EQDQ01  00002PRCP06
0198832880999992004122100004-13267-043417FM-12+0458SBLP V0200501N000512200019N0020001N1+02691+02171100931ADDAA106000091GF103991001001999999001021KA1240M+03301MA1999999096101MD1999999-0081REMSYN088AAXX  21004 83288 32995 30501 10269 20217 39610 40093 80002 333 10330 29067 55101 59008;EQDQ01  00002PRCP06
0186832880999992004122112004-13267-043417FM-12+0458SBLP V0202701N000510450019N0200001N1+02711+02201101011ADDAA106000091GF106991041051008001021021KA1240N+02211MA1999999096161MD1999999-0231REMSYN076AAXX  21124 83288 32598 62701 10271 20220 39616 40101 84522 333 20221 59023;EQDQ01  00002PRCP06
0167832880999992004122118004-13267-043417FM-12+0458SBLP V0203601N001011050019N0200001N1+03391+02091100611ADDAA106000091GF105991031021008001001021MA1999999095831MD1999999-0071REMSYN070AAXX  21184 83288 32598 53602 10339 20209 39583 40061 83202 333 59007;EQDQ01  00002PRCP06
0198832880999992004122200004-13267-043417FM-12+0458SBLP V0201801N001010075019N0020001N1+02691+02041100611ADDAA106000091GF108991061051008001021001KA1240M+02871MA1999999095781MD1999999-0321REMSYN088AAXX  22004 83288 32595 81802 10269 20204 39578 40061 86520 333 10287 29063 55090 59032;EQDQ01  00002PRCP06
0203832880999992004122212004-13267-043417FM-12+0458SBLP V0209999C000010450019N0200001N1+02231+02141101101ADDAY161061AY261061GF108991041051004501021071KA1240N+02121MA1999999096201MD1999999+0041REMSYN088AAXX  22124 83288 21498 80000 10223 20214 39620 40110 75666 84527 333 20212 58004 60164;EQDQ01+000562PRSWM1
0167832880999992004122218004-13267-043417FM-12+0458SBLP V0209999C000011050019N0200001N1+03181+02391100531ADDAA106000091GF106991031081008001001021MA1999999095721MD1999999-0111REMSYN070AAXX  22184 83288 32598 60000 10318 20239 39572 40053 83802 333 59011;EQDQ01  00002PRCP06
0190832880999992004122312004-13267-043417FM-12+0458SBLP V0209999C000019999999N0200001N1+02551+02351100941ADDAY161061AY251061GF105991001001999999001021KA1240N+02141MA1999999096081MD1999999-0121MW1021REMSYN088AAXX  23124 83288 21998 50000 10255 20235 39608 40094 70265 80002 333 20214 59012 60034;
0167832880999992004122318004-13267-043417FM-12+0458SBLP V0203601N001012200019N0200001N1+03091+02211100481ADDAA106000091GF101991001001999999001021MA1999999095661MD1999999-0061REMSYN070AAXX  23184 83288 32998 13602 10309 20221 39566 40048 80002 333 59006;EQDQ01  00002PRCP06
0198832880999992004122400004-13267-043417FM-12+0458SBLP V0209999C000019999999N0020001N1+02711+02301100671ADDAA106000091GF105991001001999999001051KA1240M+03151MA1999999095831MD1999999-0111REMSYN088AAXX  24004 83288 32995 50000 10271 20230 39583 40067 80005 333 10315 29076 55081 59011;EQDQ01  00002PRCP06
0186832880999992004122412004-13267-043417FM-12+0458SBLP V0200901N000512200019N0200001N1+02781+01871100801ADDAA106000091GF105991041011008001001041KA1240N+02121MA1999999095971MD1999999-0111REMSYN076AAXX  24124 83288 32598 50901 10278 20187 39597 40080 84104 333 20212 59011;EQDQ01  00002PRCP06
0167832880999992004122418004-13267-043417FM-12+0458SBLP V0203601N001012200019N0200001N1+03221+02201100621ADDAA106000091GF103991021021008001001021MA1999999095801MD1999999-0141REMSYN070AAXX  24184 83288 32598 33602 10322 20220 39580 40062 82202 333 59014;EQDQ01  00002PRCP06
0198832880999992004122500004-13267-043417FM-12+0458SBLP V0201401N000510450019N0020001N1+02791+02061100651ADDAA106000091GF106991041051008001021021KA1240M+03291MA1999999095831MD1999999+0001REMSYN088AAXX  25004 83288 32595 61401 10279 20206 39583 40065 84522 333 10329 29060 55102 58000;EQDQ01  00002PRCP06
0186832880999992004122512004-13267-043417FM-12+0458SBLP V0200501N001519999999N0200001N1+02731+02101101051ADDAA106000091GF105991001001999999001011KA1240N+02131MA1999999096211MD1999999+0241REMSYN076AAXX  25124 83288 32998 50503 10273 20210 39621 40105 80001 333 20213 58024;EQDQ01  00002PRCP06
0167832880999992004122518004-13267-043417FM-12+0458SBLP V0209999C000012200019N0200001N1+03221+01951100631ADDAA106000091GF104991001001999999001041MA1999999095801MD1999999+0001REMSYN070AAXX  25184 83288 32998 40000 10322 20195 39580 40063 80004 333 58000;EQDQ01  00002PRCP06
0208832880999992004122600004-13270-043420FM-12+0440SBLP V0209999C000012200019N0020001N1+02731+02121100851ADDAA106000091GA1001+999999999GF100991001001999999001001KA1240M+03361MA1999999096011MD1999999+0181REMSYN082AAXX  26004 83288 32995 00000 10273 20212 39601 40085 333 10336 29064 55102 58018;EQDQ01  00002PRCP06
0196832880999992004122612004-13270-043420FM-12+0440SBLP V0200901N000512200019N0200001N1+02671+02071101241ADDAA106000091GA1001+999999999GF100991001001999999001001KA1240N+01911MA1999999096331MD1999999+0121REMSYN070AAXX  26124 83288 32998 00901 10267 20207 39633 40124 333 20191 58012;EQDQ01  00002PRCP06
0167832880999992004122618004-13270-043420FM-12+0440SBLP V0201401N001012200019N0200001N1+03261+02051100761ADDAA106000091GF102991021021008001001001MA1999999095941MD1999999+0141REMSYN070AAXX  26184 83288 32598 21402 10326 20205 39594 40076 82200 333 58014;EQDQ01  00002PRCP06
0208832880999992004122700004-13270-043420FM-12+0440SBLP V0201801N001512200019N0020001N1+02611+01711100901ADDAA106000091GA1001+999999999GF100991001001999999001001KA1240M+03291MA1999999096031MD1999999+0021REMSYN082AAXX  27004 83288 32995 01803 10261 20171 39603 40090 333 10329 29058 55118 58002;EQDQ01  00002PRCP06
0202832880999992004122712004-13270-043420FM-12+0440SBLP V0202701N000519999999N0200001N1+02621+01931101101ADDAA106000091GF105991001001999999001021KA1240N+02221MA1999999096231MD1999999-0101REMSYN076AAXX  27124 83288 32998 52701 10262 20193 39623 40110 83002 333 20222 59010;EQDQ01+000032SCOTLCQ02  00002PRCP06
0167832880999992004122718004-13270-043420FM-12+0440SBLP V0201401N002612200019N0200001N1+03371+01971100601ADDAA106000091GF105991031011008001001041MA1999999095801MD1999999-0141REMSYN070AAXX  27184 83288 32598 51405 10337 20197 39580 40060 83104 333 59014;EQDQ01  00002PRCP06
0208832880999992004122800004-13267-043417FM-12+0458SBLP V0201401N001012200019N0020001N1+02721+01351100641ADDAA106000091GA1001+999999999GF100991001001999999001001KA1240M+03451MA1999999095801MD1999999-0231REMSYN082AAXX  28004 83288 32995 01402 10272 20135 39580 40064 333 10345 29051 55115 59023;EQDQ01  00002PRCP06
0196832880999992004122812004-13267-043417FM-12+0458SBLP V0202301N001512200019N0200001N1+02691+01971100841ADDAA106000091GA1001+999999999GF100991001001999999001001KA1240N+02241MA1999999096001MD1999999-0231REMSYN070AAXX  28124 83288 32998 02303 10269 20197 39600 40084 333 20224 59023;EQDQ01  00002PRCP06
0167832880999992004122818004-13267-043417FM-12+0458SBLP V0200501N001512200019N0200001N1+03461+02061100501ADDAA106000091GF103991021021008001001021MA1999999095701MD1999999-0101REMSYN070AAXX  28184 83288 32598 30503 10346 20206 39570 40050 82202 333 59010;EQDQ01  00002PRCP06
0198832880999992004122900004-13267-043417FM-12+0458SBLP V0201801N001012200019N0020001N1+02991+02061100761ADDAA106000091GF102991001001999999001021KA1240M+03511MA1999999095961MD1999999+0161REMSYN088AAXX  29004 83288 32995 21802 10299 20206 39596 40076 80002 333 10351 29056 55119 58016;EQDQ01  00002PRCP06
0186832880999992004122912004-13267-043417FM-12+0458SBLP V0203601N001019999999N0200001N1+02661+02071101211ADDAA106000091GF107991001001999999001021KA1240N+02221MA1999999096381MD1999999+0381REMSYN076AAXX  29124 83288 32998 73602 10266 20207 39638 40121 80002 333 20222 58038;EQDQ01  00002PRCP06
0167832880999992004122918004-13267-043417FM-12+0458SBLP V0203201N001519999999N0200001N1+03081+02211100951ADDAA106000091GF107991001001999999001021MA1999999096091MD1999999+0391REMSYN070AAXX  29184 83288 32998 73203 10308 20221 39609 40095 80002 333 58039;EQDQ01  00002PRCP06
0198832880999992004123000004-13267-043417FM-12+0458SBLP V0201801N001519999999N0020001N1+02581+02011101201ADDAA106000091GF108991001001999999001021KA1240M+03141MA1999999096331MD1999999+0371REMSYN088AAXX  30004 83288 32995 81803 10258 20201 39633 40120 80002 333 10314 29068 55060 58037;EQDQ01  00002PRCP06
0186832880999992004123012004-13267-043417FM-12+0458SBLP V0203601N001512200019N0200001N1+02531+02031101241ADDAA106000091GF103991001001999999001021KA1240N+02041MA1999999096351MD1999999-0031REMSYN076AAXX  30124 83288 32998 33603 10253 20203 39635 40124 80002 333 20204 59003;EQDQ01  00002PRCP06
0167832880999992004123018004-13267-043417FM-12+0458SBLP V0203201N000512200019N0200001N1+03271+01951100961ADDAA106000091GF104991031021008001001021MA1999999096131MD1999999+0041REMSYN070AAXX  30184 83288 32598 43201 10327 20195 39613 40096 83202 333 58004;EQDQ01  00002PRCP06
0208832880999992004123100004-13267-043417FM-12+0458SBLP V0201801N001512200019N0020001N1+02671+01591100821ADDAA106000091GA1001+999999999GF100991001001999999001001KA1240M+03381MA1999999095961MD1999999-0371REMSYN082AAXX  31004 83288 32995 01803 10267 20159 39596 40082 333 10338 29057 55112 59037;EQDQ01  00002PRCP06
0186832880999992004123112004-13267-043417FM-12+0458SBLP V0200501N001512200019N0200001N1+02671+01821101221ADDAA106000091GF101991001001999999001011KA1240N+02081MA1999999096351MD1999999+0001REMSYN076AAXX  31124 83288 32998 10503 10267 20182 39635 40122 80001 333 20208 58000;EQDQ01  00002PRCP06
0167832880999992004123118004-13267-043417FM-12+0458SBLP V0202301N001512200019N0200001N1+03311+01461100761ADDAA106000091GF101991011021008001001001MA1999999095951MD1999999-0181REMSYN070AAXX  31184 83288 32598 12303 10331 20146 39595 40076 81200 333 59018;EQDQ01  00002PRCP06
