0208833390999992004010100004-14050-042617FM-12+088299999V0200901N001512200019N0020001N1+02551+01511100241ADDAA106000091GA1001+999999999GF100991001001999999001001KA1240M+03061MA1999999090851MD1999999-0201REMSYN082AAXX  01004 83339 32995 00903 10255 20151 39085 40024 333 10306 29055 55120 59020;EQDQ01  00002PRCP06
0196833390999992004010112004-14050-042617FM-12+088299999V0200901N003112200019N0100001N1+02451+01861100481ADDAA106000091GA1001+999999999GF100991001001999999001001KA1240N+01901MA1999999091071MD1999999-0081REMSYN070AAXX  01124 83339 32997 00906 10245 20186 39107 40048 333 20190 59008;EQDQ01  00002PRCP06
0171833390999992004010118004-14050-042617FM-12+088299999V0202701N001012200019N0100001N1+02791+02131100021ADDAY161061AY261061GF103991031021004501001001MA1999999090611MD1999999-0151MW1021REMSYN082AAXX  01184 83339 21497 32702 10279 20213 39061 40002 70266 83200 333 59015 60011;
0198833390999992004010200004-14050-042617FM-12+088299999V02099999999992200019N0020001N1+02491+01781100161ADDAA106000091GF102991021021004501001001KA1240M+03161MA1999999090761MD1999999+0091REMSYN088AAXX  02004 83339 32495 214// 10249 20178 39076 40016 82200 333 10316 29064 55079 58009;EQDQ01  00002PRCP06
0190833390999992004010212004-14050-042617FM-12+088299999V0203601N001510042019N0100001N1+02591+01991100331ADDAY161061AY261061GF106991051021004501031001KA1240N+02121MA1999999090951MD1999999-0121MW1021REMSYN088AAXX  02124 83339 21497 63603 10259 20199 39095 40033 70266 85230 333 20212 59012 60014;
0171833390999992004010218004-14050-042617FM-12+088299999V0202301N001510042019N0100001N1+02831+01971999999ADDAY161061AY261061GF106991051021004501021001MA1999999090611MD1999999+0001MW1021REMSYN082AAXX  02184 83339 21497 62303 10283 20197 39061 40995 70266 85220 333 58000 69921;
0226833390999992004010300004-14050-042617FM-12+088299999V0201801N001510042019N0020001N1+02511+02131100121ADDAA106000091AY101061AY201061GF108991081051004501999999KA1240M+03001MA1999999090761MD1999999+0001MW1171REMSYN094AAXX  03004 83339 31495 81803 10251 20213 39076 40012 71700 885// 333 10300 29071 55027 58000;EQDQ01  00002PRCP06
0190833390999992004010312004-14050-042617FM-12+088299999V0200501N002610042019N0040001N1+01931+01801100881ADDAY191061AY261061GF108991081051004501999999KA1240N+01901MA1999999091311MD1999999+0361MW1101REMSYN088AAXX  03124 83339 21496 80505 10193 20180 39131 40088 71096 885// 333 20190 58036 61014;
0183833390999992004010318004-14050-042617FM-12+088299999V0200901N001510042019N0100001N1+02471+01991100901ADDAA106000091GF106991061021004501001001MA1999999093332MD1999999+0221REMSYN070AAXX  03184 83339 32497 60903 10247 20199 39333 40090 86200 333 58022;EQDQ01+093333APOSP Q02  00002PRCP06
0214833390999992004010412004-14050-042617FM-12+088299999V0200901N005110042019N0040001N1+02151+02001101111ADDAA106000091AY101061AY201061GF107991061021004501021999KA1240N+01921MA1999999091501MD1999999+0191MW1101REMSYN082AAXX  04124 83339 31496 70910 10215 20200 39150 40111 71000 8622/ 333 20192 58019;EQDQ01  00002PRCP06
0198833390999992004010500004-14050-042617FM-12+088299999V0200901N004610042019N0020001N1+02451+01611100831ADDAA106000091GF106991061021004501001001KA1240M+02781MA1999999091311MD1999999+0021REMSYN088AAXX  05004 83339 32495 60909 10245 20161 39131 40083 86200 333 10278 29067 55054 58002;EQDQ01  00002PRCP06
0186833390999992004010512004-14050-042617FM-12+088299999V0200501N006210042019N0100001N1+02211+01821101081ADDAA106000091GF106991061021004501001001KA1240N+01991MA1999999091551MD1999999+0051REMSYN076AAXX  05124 83339 32497 60512 10221 20182 39155 40108 86200 333 20199 58005;EQDQ01  00002PRCP06
0167833390999992004010518004-14050-042617FM-12+088299999V0200501N005110450019N0100001N1+02741+01701100701ADDAA106000091GF105991031021004501031011MA1999999091231MD1999999+0051REMSYN070AAXX  05184 83339 32497 50510 10274 20170 39123 40070 83231 333 58005;EQDQ01  00002PRCP06
0198833390999992004010600004-14050-042617FM-12+088299999V0200901N004110450019N0020001N1+02591+01321100811ADDAA106000091GF106991031021004501031001KA1240M+02801MA1999999091331MD1999999+0021REMSYN088AAXX  06004 83339 32495 60908 10259 20132 39133 40081 83230 333 10280 29055 55069 58002;EQDQ01  00002PRCP06
0186833390999992004010612004-14050-042617FM-12+088299999V0200501N003610042019N0100001N1+02131+01741101151ADDAA106000091GF106991061021004501001001KA1240N+01861MA1999999091621MD1999999+0071REMSYN076AAXX  06124 83339 32497 60507 10213 20174 39162 40115 86200 333 20186 58007;EQDQ01  00002PRCP06
0167833390999992004010618004-14050-042617FM-12+088299999V0200501N003112200019N0100001N1+02881+01311100801ADDAA106000091GF102991011011004501001011MA1999999091341MD1999999+0111REMSYN070AAXX  06184 83339 32497 20506 10288 20131 39134 40080 81101 333 58011;EQDQ01  00002PRCP06
0198833390999992004010700004-14050-042617FM-12+088299999V0201401N004112200019N0020001N1+02531+01231100871ADDAA106000091GF103991011011004501031011KA1240M+02931MA1999999091361MD1999999+0031REMSYN088AAXX  07004 83339 32495 31408 10253 20123 39136 40087 81131 333 10293 29051 55093 58003;EQDQ01  00002PRCP06
0202833390999992004010712004-14050-042617FM-12+088299999V0200501N005112200019N0100001N1+02211+01671101161ADDAA106000091GF102991001001999999001011KA1240N+01881MA1999999091631MD1999999+0011REMSYN076AAXX  07124 83339 32897 20510 10221 20167 39163 40116 80001 333 20188 58001;EQDQ01+022502SCOLCBQ02  00002PRCP06
0167833390999992004010718004-14050-042617FM-12+088299999V0200501N004112200019N0100001N1+02921+01711100821ADDAA106000091GF104991011021004501031041MA1999999091351MD1999999+0011REMSYN070AAXX  07184 83339 32497 40508 10292 20171 39135 40082 81234 333 58001;EQDQ01  00002PRCP06
0198833390999992004010800004-14050-042617FM-12+088299999V0200901N003110450019N0020001N1+02591+01171100881ADDAA106000091GF106991031021004501031001KA1240M+02961MA1999999091391MD1999999+0031REMSYN088AAXX  08004 83339 32495 60906 10259 20117 39139 40088 83230 333 10296 29050 55102 58003;EQDQ01  00002PRCP06
0186833390999992004010812004-14050-042617FM-12+088299999V0200501N004110450019N0100001N1+02221+01801101041ADDAA106000091GF108991031021004501021999KA1240N+01991MA1999999091541MD1999999-0091REMSYN076AAXX  08124 83339 32497 80508 10222 20180 39154 40104 8322/ 333 20199 59009;EQDQ01  00002PRCP06
0183833390999992004010818004-14050-042617FM-12+088299999V0200901N003112200019N0100001N1+02511+01741100851ADDAA106000091GF101991999021004501031001MA1999999091311MD1999999-0041REMSYN070AAXX  08184 83339 32497 10906 10251 20174 39131 40085 83230 333 59004;EQDQ01+000032SCOTLCQ02  00002PRCP06
0198833390999992004010900004-14050-042617FM-12+088299999V0200901N003112200019N0020001N1+02461+01411100841ADDAA106000091GF102991021011004501001001KA1240M+02761MA1999999091341MD1999999-0051REMSYN088AAXX  09004 83339 32495 20906 10246 20141 39134 40084 82100 333 10276 29061 55032 59005;EQDQ01  00002PRCP06
0186833390999992004010912004-14050-042617FM-12+088299999V0200501N003612200019N0100001N1+02421+01951100891ADDAA106000091GF104991021021004501031001KA1240N+02001MA1999999091421MD1999999-0121REMSYN076AAXX  09124 83339 32497 40507 10242 20195 39142 40089 82230 333 20200 59012;EQDQ01  00002PRCP06
0171833390999992004010918004-14050-042617FM-12+088299999V0209999C000010450019N0100001N1+02381+02051100631ADDAY191061AY261061GF107991041021004501021001MA1999999091111MD1999999-0201MW1021REMSYN082AAXX  09184 83339 21497 70000 10238 20205 39111 40063 70296 84220 333 59020 69921;
0202833390999992004011000004-14050-042617FM-12+088299999V0201401N001012200019N0020001N1+02391+01861100701ADDAY161061AY221061GF104991041021004501001001KA1240M+02981MA1999999091231MD1999999-0111MW1021REMSYN100AAXX  10004 83339 21495 41402 10239 20186 39123 40070 70262 84200 333 10298 29075 55064 59011 69931;
0190833390999992004011012004-14050-042617FM-12+088299999V0200501N001510042019N0020001N1+02031+02021101021ADDAY161061AY261061GF108991051021004501021999KA1240N+02001MA1999999091441MD1999999+0021MW1601REMSYN088AAXX  10124 83339 21495 80503 10203 20202 39144 40102 76066 8522/ 333 20200 58002 60184;
0171833390999992004011018004-14050-042617FM-12+088299999V0200901N001510042019N0100001N1+02171+02041100751ADDAY161061AY261061GF106991061021004501001001MA1999999091151MD1999999+0041MW1021REMSYN082AAXX  10184 83339 21497 60903 10217 20204 39115 40075 70266 86200 333 58004 60071;
0190833390999992004011112004-14050-042617FM-12+088299999V0202701N001510450019N0100001N1+02091+02001101171ADDAY161061AY261061GF108991041021004501021999KA1240N+01921MA1999999091521MD1999999+0081MW1021REMSYN088AAXX  11124 83339 21497 82703 10209 20200 39152 40117 70266 8422/ 333 20192 58008 60224;
0171833390999992004011118004-14050-042617FM-12+088299999V0203201N002110042019N0100001N1+02331+02171100881ADDAY161061AY261061GF106991061021004501001001MA1999999091291MD1999999+0141MW1021REMSYN082AAXX  11184 83339 21497 63204 10233 20217 39129 40088 70266 86200 333 58014 60191;
0190833390999992004011212004-14050-042617FM-12+088299999V0203201N003110042019N0040001N1+02031+02001101221ADDAY161061AY261061GF108991081051004501999999KA1240N+01981MA1999999091561MD1999999+0041MW1101REMSYN088AAXX  12124 83339 21496 83206 10203 20200 39156 40122 71066 885// 333 20198 58004 60264;
0167833390999992004011218004-14050-042617FM-12+088299999V0203201N003110042019N0100001N1+02471+02031100791ADDAA106000091GF106991051021004501021001MA1999999091251MD1999999-0041REMSYN070AAXX  12184 83339 32497 63206 10247 20203 39125 40079 85220 333 59004;EQDQ01  00002PRCP06
0226833390999992004011300004-14050-042617FM-12+088299999V0209999C000010042019N0020001N1+02131+02051101021ADDAA106000091AY101061AY201061GF106991061021004501001001KA1240M+02561MA1999999091401MD1999999-0051MW1101REMSYN094AAXX  13004 83339 31495 60000 10213 20205 39140 40102 71000 86200 333 10256 29090 55007 59005;EQDQ01  00002PRCP06
0190833390999992004011312004-14050-042617FM-12+088299999V0202301N002610042019N0040001N1+02191+02081101031ADDAY161061AY261061GF108991081051004501999999KA1240N+02001MA1999999091431MD1999999-0131MW1101REMSYN088AAXX  13124 83339 21496 82305 10219 20208 39143 40103 71066 885// 333 20200 59013 60074;
0171833390999992004011318004-14050-042617FM-12+088299999V0202701N002610042019N0040001N1+02351+02131100711ADDAY161061AY261061GF107991061021004501021999MA1999999091141MD1999999-0111MW1101REMSYN082AAXX  13184 83339 21496 72705 10235 20213 39114 40071 71066 8622/ 333 59011 60131;
0202833390999992004011400004-14050-042617FM-12+088299999V0202701N004610042019N0020001N1+01991+01901101041ADDAY161061AY261061GF108991081051004501999999KA1240M+02581MA1999999091421MD1999999+0021MW1601REMSYN100AAXX  14004 83339 21495 82709 10199 20190 39142 40104 76066 885// 333 10258 29092 55011 58002 60021;
0190833390999992004011412004-14050-042617FM-12+088299999V0203201N004110042019N0040001N1+02151+02001101021ADDAY161061AY261061GF108991081051004501999999KA1240N+02001MA1999999091381MD1999999-0051MW1101REMSYN088AAXX  14124 83339 21496 83208 10215 20200 39138 40102 71066 885// 333 20200 59005 60204;
0167833390999992004011418004-14050-042617FM-12+088299999V0202701N004610042019N0100001N1+02591+01901100551ADDAA106000091GF106991051021004501021001MA1999999091051MD1999999-0091REMSYN070AAXX  14184 83339 32497 62709 10259 20190 39105 40055 85220 333 59009;EQDQ01  00002PRCP06
0202833390999992004011500004-14050-042617FM-12+088299999V0202701N003110042019N0020001N1+02071+01991100841ADDAY161061AY261061GF108991081051004501999999KA1240M+02661MA1999999091241MD1999999-0181MW1101REMSYN100AAXX  15004 83339 21495 82706 10207 20199 39124 40084 71066 885// 333 10266 29086 55024 59018 69951;
0124833390999992004011512004-14050-042617FM-12+088299999V0202701N003119999999N0040001N1+02121+02031999999ADDGF108991999999004501999999REMSYN086AAXX  15124 83339 21496 82706 10212 202039128 40089 76066 885// 333 20205 59010 60044;
0171833390999992004011518004-14050-042617FM-12+088299999V0202701N004110042019N0040001N1+02231+02221100701ADDAY161061AY261061GF108991081051004501999999MA1999999091111MD1999999+0061MW1501REMSYN082AAXX  15184 83339 21496 82708 10223 20222 39111 40070 75066 885// 333 58006 60121;
0202833390999992004011600004-14050-042617FM-12+088299999V0202701N003110042019N0020001N1+02111+02071100781ADDAY161061AY261061GF106991061021004501001001KA1240M+02401MA1999999091181MD1999999-0061MW1101REMSYN100AAXX  16004 83339 21495 62706 10211 20207 39118 40078 71066 86200 333 10240 29096 55001 59006 60021;
0190833390999992004011612004-14050-042617FM-12+088299999V0202701N003110042019N0040001N1+02171+02131100851ADDAY161061AY261061GF108991081051004501999999KA1240N+02061MA1999999091261MD1999999-0021MW1501REMSYN088AAXX  16124 83339 21496 82706 10217 20213 39126 40085 75066 885// 333 20206 59002 60164;
0171833390999992004011618004-14050-042617FM-12+088299999V0202701N004610042019N0100001N1+02431+02111100491ADDAY161061AY261061GF106991051021004501021001MA1999999090981MD1999999-0131MW1101REMSYN082AAXX  16184 83339 21497 62709 10243 20211 39098 40049 71066 85220 333 59013 60161;
0202833390999992004011700004-14050-042617FM-12+088299999V0202701N004110042019N0020001N1+02011+01971100781ADDAY161061AY261061GF108991081051004501999999KA1240M+02521MA1999999091181MD1999999+0001MW1501REMSYN100AAXX  17004 83339 21495 82708 10201 20197 39118 40078 75066 885// 333 10252 29093 55003 58000 60081;
0190833390999992004011712004-14050-042617FM-12+088299999V0202701N003610042019N0100001N1+02131+01971100831ADDAY161061AY261061GF106991051021004501021001KA1240N+01941MA1999999091211MD1999999-0051MW1101REMSYN088AAXX  17124 83339 21497 62707 10213 20197 39121 40083 71066 85220 333 20194 59005 60424;
0195833390999992004011718004-14050-042617FM-12+088299999V0202701N003110042019N0100001N1+02351+02011100561ADDAA106000091AY101061AY201061GF106991051021004501031001MA1999999091001MD1999999+0021MW1101REMSYN076AAXX  17184 83339 31497 62706 10235 20201 39100 40056 71000 85230 333 58002;EQDQ01  00002PRCP06
0190833390999992004011912004-14050-042617FM-12+088299999V0201401N004110042019N0020001N1+01961+01931101051ADDAY161061AY261061GF108991061051004501021999KA1240N+01871MA1999999091361MD1999999+0021MW1601REMSYN088AAXX  19124 83339 21495 81408 10196 20193 39136 40105 76066 8652/ 333 20187 58002 60354;
0171833390999992004011918004-14050-042617FM-12+088299999V0201401N005110042019N0020001N1+02131+02041100821ADDAY161061AY261061GF108991051051004501021999MA1999999091181MD1999999-0021MW1161REMSYN082AAXX  19184 83339 21495 81410 10213 20204 39118 40082 71666 8552/ 333 59002 60091;
0202833390999992004012000004-14050-042617FM-12+088299999V0201401N005110042019N0020001N1+01941+01911101051ADDAY161061AY241061GF108991061051004501021999KA1240M+02161MA1999999091361MD1999999+0051MW1401REMSYN100AAXX  20004 83339 21495 81410 10194 20191 39136 40105 74064 8652/ 333 10216 29097 55002 58005 69921;
0190833390999992004012012004-14050-042617FM-12+088299999V0201401N003110042019N0100001N1+02081+01871101131ADDAY161061AY241061GF106991061021004501001001KA1240N+01811MA1999999091461MD1999999+0101MW1021REMSYN088AAXX  20124 83339 21497 61406 10208 20187 39146 40113 70264 86200 333 20181 58010 60134;
0167833390999992004012018004-14050-042617FM-12+088299999V0201401N003612200019N0100001N1+02401+01931100751ADDAA106000091GF104991041021004501001001MA1999999091151MD1999999-0031REMSYN070AAXX  20184 83339 32497 41407 10240 20193 39115 40075 84200 333 59003;EQDQ01  00002PRCP06
0208833390999992004012100004-14050-042617FM-12+088299999V0209999C000012200019N0020001N1+02081+02001100911ADDAA106000091GA1001+999999999GF100991001001999999001001KA1240M+02481MA1999999091301MD1999999-0061REMSYN082AAXX  21004 83339 32495 00000 10208 20200 39130 40091 333 10248 29088 55026 59006;EQDQ01  00002PRCP06
0186833390999992004012112004-14050-042617FM-12+088299999V0201401N003110042019N0100001N1+02211+01941101101ADDAA106000091GF106991061021004501001001KA1240N+01961MA1999999091491MD1999999+0031REMSYN076AAXX  21124 83339 32497 61406 10221 20194 39149 40110 86200 333 20196 58003;EQDQ01  00002PRCP06
0167833390999992004012118004-14050-042617FM-12+088299999V0200501N002110042019N0100001N1+02661+02071100591ADDAA106000091GF106991051021004501001011MA1999999091111MD1999999-0041REMSYN070AAXX  21184 83339 32497 60504 10266 20207 39111 40059 85201 333 59004;EQDQ01  00002PRCP06
0226833390999992004012200004-14050-042617FM-12+088299999V0203201N001512200019N0020001N1+02301+02091100761ADDAA106000091AY121061AY221061GF103991031021004501001001KA1240M+02761MA1999999091231MD1999999-0071MW1131REMSYN094AAXX  22004 83339 31495 33203 10230 20209 39123 40076 71322 83200 333 10276 29082 55035 59007;EQDQ01  00002PRCP06
0190833390999992004012212004-14050-042617FM-12+088299999V0200901N001510042019N0100001N1+02261+02071100841ADDAY161061AY221061GF106991061021004501001001KA1240N+02061MA1999999091321MD1999999-0171MW1021REMSYN088AAXX  22124 83339 21497 60903 10226 20207 39132 40084 70262 86200 333 20206 59017 69944;
0202833390999992004012300004-14050-042617FM-12+088299999V0201801N001510042019N0020001N1+02151+02011100821ADDAY161061AY221061GF108991051021004501021999KA1240M+02441MA1999999091251MD1999999+0021MW1401REMSYN100AAXX  23004 83339 21495 81803 10215 20201 39125 40082 74062 8522/ 333 10244 29090 55010 58002 60091;
0190833390999992004012312004-14050-042617FM-12+088299999V0200901N003110042019N0040001N1+01991+01961101031ADDAY161061AY261061GF108991081051004501999999KA1240N+01931MA1999999091391MD1999999+0071MW1501REMSYN088AAXX  23124 83339 21496 80906 10199 20196 39139 40103 75066 885// 333 20193 58007 60274;
0176833390999992004012318004-14050-042617FM-12+088299999V0200901N003110042019N0100001N1+02431+01991100761ADDAA106000021AY151061AY201061GF106991051021004501021001MA1999999091201MD1999999+0141MW1021REMSYN076AAXX  23184 83339 31497 60906 10243 20199 39120 40076 70250 85220 333 58014;
0226833390999992004012400004-14050-042617FM-12+088299999V0200901N003112200019N0020001N1+02141+01861100971ADDAA106000091AY101061AY201061GF103991031021004501001001KA1240M+02501MA1999999091341MD1999999+0091MW1101REMSYN094AAXX  24004 83339 31495 30906 10214 20186 39134 40097 71000 83200 333 10250 29084 55017 58009;EQDQ01  00002PRCP06
0214833390999992004012412004-14050-042617FM-12+088299999V0201401N005110042019N0040001N1+02111+01881101101ADDAA106000091AY101061AY201061GF107991061021004501021999KA1240N+01931MA1999999091491MD1999999+0101MW1101REMSYN082AAXX  24124 83339 31496 71410 10211 20188 39149 40110 71000 8622/ 333 20193 58010;EQDQ01  00002PRCP06
0167833390999992004012418004-14050-042617FM-12+088299999V0200501N004612200019N0100001N1+02691+01701100781ADDAA106000091GF104991031021004501031001MA1999999091261MD1999999+0061REMSYN070AAXX  24184 83339 32497 40509 10269 20170 39126 40078 83230 333 58006;EQDQ01  00002PRCP06
0186833390999992004012512004-14050-042617FM-12+088299999V0200901N005110042019N0100001N1+02291+01881101101ADDAA106000091GF106991051021004501001041KA1240N+01941MA1999999091511MD1999999+0021REMSYN076AAXX  25124 83339 32497 60910 10229 20188 39151 40110 85204 333 20194 58002;EQDQ01  00002PRCP06
0167833390999992004012518004-14050-042617FM-12+088299999V0200901N004112200019N0100001N1+02711+01601100721ADDAA106000091GF103991031021004501001001MA1999999091231MD1999999-0031REMSYN070AAXX  25184 83339 32497 30908 10271 20160 39123 40072 83200 333 59003;EQDQ01  00002PRCP06
0208833390999992004012600004-14050-042617FM-12+088299999V0200901N003112200019N0020001N1+02331+01601100931ADDAA106000091GA1001+999999999GF100991001001999999001001KA1240M+02801MA1999999091401MD1999999-0051REMSYN082AAXX  26004 83339 32995 00906 10233 20160 39140 40093 333 10280 29064 55090 59005;EQDQ01  00002PRCP06
0214833390999992004012612004-14050-042617FM-12+088299999V0201401N005110042019N0100001N1+02151+01841101081ADDAA106000091AY101061AY201061GF106991061021004501001001KA1240N+01931MA1999999091521MD1999999+0011MW1101REMSYN082AAXX  26124 83339 31497 61410 10215 20184 39152 40108 71000 86200 333 20193 58001;EQDQ01  00002PRCP06
0167833390999992004012618004-14050-042617FM-12+088299999V0201401N004612200019N0100001N1+02651+01541100761ADDAA106000091GF102991021021004501001001MA1999999091261MD1999999+0031REMSYN070AAXX  26184 83339 32497 21409 10265 20154 39126 40076 82200 333 58003;EQDQ01  00002PRCP06
0198833390999992004012700004-14050-042617FM-12+088299999V0201401N002612200019N0020001N1+02331+01501100951ADDAA106000091GF102991021021004501001001KA1240M+02751MA1999999091401MD1999999+0001REMSYN088AAXX  27004 83339 32495 21405 10233 20150 39140 40095 82200 333 10275 29064 55100 58000;EQDQ01  00002PRCP06
0214833390999992004012712004-14050-042617FM-12+088299999V0201401N003110042019N0040001N1+02091+01841101151ADDAA106000091AY101061AY201061GF107991061021004501021999KA1240N+01921MA1999999091551MD1999999+0031MW1101REMSYN082AAXX  27124 83339 31496 71406 10209 20184 39155 40115 71000 8622/ 333 20192 58003;EQDQ01  00002PRCP06
0167833390999992004012718004-14050-042617FM-12+088299999V0201401N003110042019N0100001N1+02571+01591100881ADDAA106000091GF106991051021004501021001MA1999999091351MD1999999+0091REMSYN070AAXX  27184 83339 32497 61406 10257 20159 39135 40088 85220 333 58009;EQDQ01  00002PRCP06
0226833390999992004012800004-14050-042617FM-12+088299999V0201401N004612200019N0020001N1+02291+01701100981ADDAA106000091AY101061AY201061GF102991021021004501001001KA1240M+02661MA1999999091401MD1999999+0001MW1131REMSYN094AAXX  28004 83339 31495 21409 10229 20170 39140 40098 71300 82200 333 10266 29070 55043 58000;EQDQ01  00002PRCP06
0186833390999992004012812004-14050-042617FM-12+088299999V0201401N004610042019N0100001N1+02131+01701101221ADDAA106000091GF106991061021004501001001KA1240N+01801MA1999999091621MD1999999+0071REMSYN076AAXX  28124 83339 32497 61409 10213 20170 39162 40122 86200 333 20180 58007;EQDQ01  00002PRCP06
0167833390999992004012818004-14050-042617FM-12+088299999V0200901N004610450019N0100001N1+02611+01511100931ADDAA106000091GF105991041021004501021001MA1999999091401MD1999999+0051REMSYN070AAXX  28184 83339 32497 50909 10261 20151 39140 40093 84220 333 58005;EQDQ01  00002PRCP06
0198833390999992004012900004-14050-042617FM-12+088299999V0200901N001012200019N0020001N1+02231+01621101041ADDAA106000091GF102991021021004501001001KA1240M+02721MA1999999091451MD1999999+0051REMSYN088AAXX  29004 83339 32495 20902 10223 20162 39145 40104 82200 333 10272 29065 55088 58005;EQDQ01  00002PRCP06
0214833390999992004012912004-14050-042617FM-12+088299999V0201401N004610042019N0100001N1+02131+01761101221ADDAA106000091AY101061AY201061GF106991061021004501001001KA1240N+01881MA1999999091621MD1999999+0091MW1101REMSYN082AAXX  29124 83339 31497 61409 10213 20176 39162 40122 71000 86200 333 20188 58009;EQDQ01  00002PRCP06
0183833390999992004012918004-14050-042617FM-12+088299999V0200901N003112200019N0100001N1+02671+01501100931ADDAA106000091GF103991999021004501001001MA1999999091401MD1999999+0001REMSYN070AAXX  29184 83339 32497 30906 10267 20150 39140 40093 82200 333 58000;EQDQ01+000022SCOTLCQ02  00002PRCP06
0198833390999992004013000004-14050-042617FM-12+088299999V0200901N004112200019N0020001N1+02271+01621101081ADDAA106000091GF102991021021004501001001KA1240M+02741MA1999999091491MD1999999+0041REMSYN088AAXX  30004 83339 32495 20908 10227 20162 39149 40108 82200 333 10274 29066 55111 58004;EQDQ01  00002PRCP06
0186833390999992004013012004-14050-042617FM-12+088299999V0200501N005710042019N0100001N1+02191+01701101181ADDAA106000091GF106991061021004501001001KA1240N+01841MA1999999091611MD1999999-0011REMSYN076AAXX  30124 83339 32497 60511 10219 20170 39161 40118 86200 333 20184 59001;EQDQ01  00002PRCP06
0167833390999992004013018004-14050-042617FM-12+088299999V0201401N003112200019N0100001N1+02891+01521100881ADDAA106000091GF104991031021004501001041MA1999999091341MD1999999-0061REMSYN070AAXX  30184 83339 32497 41406 10289 20152 39134 40088 83204 333 59006;EQDQ01  00002PRCP06
0198833390999992004013100004-14050-042617FM-12+088299999V0201401N003112200019N0100001N1+02371+01431100991ADDAA106000091GF102991021021004501001001KA1240M+02781MA1999999091451MD1999999-0041REMSYN088AAXX  31004 83339 32497 21406 10237 20143 39145 40099 82200 333 10278 29058 55106 59004;EQDQ01  00002PRCP06
0214833390999992004013112004-14050-042617FM-12+088299999V0201401N004610042019N0040001N1+02031+01761101311ADDAA106000091AY101061AY201061GF108991081051004501999999KA1240N+01801MA1999999091701MD1999999+0091MW1101REMSYN082AAXX  31124 83339 31496 81409 10203 20176 39170 40131 71000 885// 333 20180 58009;EQDQ01  00002PRCP06
0167833390999992004013118004-14050-042617FM-12+088299999V0200901N005110042019N0100001N1+02471+01631101121ADDAA106000091GF106991051021004501021001MA1999999091491MD1999999+0151REMSYN070AAXX  31184 83339 32497 60910 10247 20163 39149 40112 85220 333 58015;EQDQ01  00002PRCP06
0186833390999992004020112004-14050-042617FM-12+088299999V0200501N005110042019N0100001N1+02211+01761101401ADDAA106000091GF106991061021004501001001KA1240N+01861MA1999999091781MD1999999+0081REMSYN076AAXX  01124 83339 32497 60510 10221 20176 39178 40140 86200 333 20186 58008;EQDQ01  00002PRCP06
0167833390999992004020118004-14050-042617FM-12+088299999V0200901N004612200019N0100001N1+02491+01801101101ADDAA106000091GF104991041021004501001001MA1999999091511MD1999999+0021REMSYN070AAXX  01184 83339 32497 40909 10249 20180 39151 40110 84200 333 58002;EQDQ01  00002PRCP06
0226833390999992004020200004-14050-042617FM-12+088299999V0201401N003112200019N0020001N1+02151+01781101131ADDAA106000091AY101061AY201061GF102991011021004501031001KA1240M+02641MA1999999091541MD1999999-0071MW1101REMSYN094AAXX  02004 83339 31495 21406 10215 20178 39154 40113 71000 81230 333 10264 29074 55069 59007;EQDQ01  00002PRCP06
0214833390999992004020212004-14050-042617FM-12+088299999V0200901N004610042019N0040001N1+02011+01841101191ADDAA106000091AY101061AY201061GF108991081051004501999999KA1240N+01881MA1999999091551MD1999999-0231MW1101REMSYN082AAXX  02124 83339 31496 80909 10201 20184 39155 40119 71000 885// 333 20188 59023;EQDQ01  00002PRCP06
0167833390999992004020218004-14050-042617FM-12+088299999V0200901N004610042019N0100001N1+02431+01791100831ADDAA106000091GF106991061021004501001001MA1999999091261MD1999999-0251REMSYN070AAXX  02184 83339 32497 60909 10243 20179 39126 40083 86200 333 59025;EQDQ01  00002PRCP06
0226833390999992004020300004-14050-042617FM-12+088299999V0200501N001510042019N0020001N1+02251+01901101011ADDAA106000091AY101061AY201061GF108991081051004501999999KA1240M+02621MA1999999091421MD1999999-0121MW1101REMSYN094AAXX  03004 83339 31495 80503 10225 20190 39142 40101 71000 885// 333 10262 29080 55013 59012;EQDQ01  00002PRCP06
0203833390999992004020312004-14050-042617FM-12+088299999V0200901N003110042019N0040001N1+01931+01851101141ADDAY161061AY261061GF108991081051004501999999KA1240N+01841MA1999999091511MD1999999-0041REMSYN088AAXX  03124 83339 21496 80906 10193 20185 39151 40114 77166 885// 333 20184 59004 60044;EQDQ01+000712PRSWM1
0167833390999992004020318004-14050-042617FM-12+088299999V0200901N004610042019N0100001N1+02351+01811100951ADDAA106000091GF106991061021004501001001MA1999999091341MD1999999+0071REMSYN070AAXX  03184 83339 32497 60909 10235 20181 39134 40095 86200 333 58007;EQDQ01  00002PRCP06
0198833390999992004020400004-14050-042617FM-12+088299999V0200901N004610042019N0020001N1+02131+01741101041ADDAA106000091GF106991061021004501001001KA1240M+02421MA1999999091401MD1999999-0021REMSYN088AAXX  04004 83339 32495 60909 10213 20174 39140 40104 86200 333 10242 29079 55003 59002;EQDQ01  00002PRCP06
0186833390999992004020412004-14050-042617FM-12+088299999V0200501N008210042019N0100001N1+02071+01761101281ADDAA106000091GF106991051021004501031001KA1240N+01801MA1999999091641MD1999999+0131REMSYN076AAXX  04124 83339 31497 60516 10207 20176 39164 40128 85230 333 20180 58013;EQDQ01  00002PRCP06
0151833390999992004020418004-14050-042617FM-12+088299999V0200501N003112200019N0100001N1+02691+01551999999ADDAA106000091GF103991999999004501999999MA1999999091361REMSYN068AAXX  04184 83339 32497 30506 10269 20155 391360089 83200 333 58002;EQDQ01  00002PRCP06
0208833390999992004020500004-14050-042617FM-12+088299999V0201401N003112200019N0020001N1+02251+01751100951ADDAA106000091GA1001+999999999GF100991001001999999001001KA1240M+02781MA1999999091351MD1999999-0051REMSYN082AAXX  05004 83339 32995 01406 10225 20175 39135 40095 333 10278 29068 55077 59005;EQDQ01  00002PRCP06
0186833390999992004020512004-14050-042617FM-12+088299999V0201401N003112200019N0100001N1+02271+01751101101ADDAA106000091GF102991021021004501001001KA1240N+01881MA1999999091541MD1999999-0101REMSYN076AAXX  05124 83339 32497 21406 10227 20175 39154 40110 82200 333 20188 59010;EQDQ01  00002PRCP06
0167833390999992004020518004-14050-042617FM-12+088299999V0201401N004112200019N0100001N1+02771+01491100731ADDAA106000091GF102991021021004501001001MA1999999091251MD1999999-0111REMSYN070AAXX  05184 83339 32497 21408 10277 20149 39125 40073 82200 333 59011;EQDQ01  00002PRCP06
0208833390999992004020600004-14050-042617FM-12+088299999V0201801N001512200019N0020001N1+02291+01591100741ADDAA106000091GA1001+999999999GF100991001001999999001001KA1240M+02841MA1999999091231MD1999999-0121REMSYN082AAXX  06004 83339 32995 01803 10229 20159 39123 40074 333 10284 29062 55117 59012;EQDQ01  00002PRCP06
0214833390999992004020612004-14050-042617FM-12+088299999V0200501N002112200019N0100001N1+02231+01941100881ADDAA106000091AY101061AY201061GF104991041021004501001001KA1240N+01801MA1999999091341MD1999999-0201MW1101REMSYN082AAXX  06124 83339 31497 40504 10223 20194 39134 40088 71000 84200 333 20180 59020;EQDQ01  00002PRCP06
0171833390999992004020618004-14050-042617FM-12+088299999V0200501N002610042019N0100001N1+02671+01771100551ADDAY161061AY261061GF105991051021004501001001MA1999999091051MD1999999-0201MW1021REMSYN082AAXX  06184 83339 21497 50505 10267 20177 39105 40055 70266 85200 333 59020 60021;
0198833390999992004020700004-14050-042617FM-12+088299999V0209999C000012200019N0020001N1+02331+01761100591ADDAA106000091GF102991021021004501001001KA1240M+02881MA1999999091091MD1999999-0141REMSYN088AAXX  07004 83339 32495 20000 10233 20176 39109 40059 82200 333 10288 29070 55067 59014;EQDQ01  00002PRCP06
0190833390999992004020712004-14050-042617FM-12+088299999V0202701N005112200019N0100001N1+02431+01841100711ADDAY161061AY261061GF103991031021004501001001KA1240N+02041MA1999999091241MD1999999-0101MW1021REMSYN088AAXX  07124 83339 21497 32710 10243 20184 39124 40071 70266 83200 333 20204 59010 60024;
0167833390999992004020718004-14050-042617FM-12+088299999V0202301N003112200019N0100001N1+02971+01681100351ADDAA106000091GF102991021021004501001001MA1999999090971MD1999999-0081REMSYN070AAXX  07184 83339 32497 22306 10297 20168 39097 40035 82200 333 59008;EQDQ01  00002PRCP06
0198833390999992004020800004-14050-042617FM-12+088299999V0209999C000010042019N0020001N1+02391+01801100661ADDAA106000091GF106991051021004501021001KA1240M+03121MA1999999091191MD1999999+0101REMSYN088AAXX  08004 83339 32495 60000 10239 20180 39119 40066 85220 333 10312 29064 55092 58010;EQDQ01  00002PRCP06
0190833390999992004020812004-14050-042617FM-12+088299999V0202701N000510042019N0040001N1+02171+01971101041ADDAY161061AY261061GF107991061021004501021999KA1240N+02001MA1999999091481MD1999999+0241MW1101REMSYN088AAXX  08124 83339 21496 72701 10217 20197 39148 40104 71066 8622/ 333 20200 58024 60034;
0167833390999992004020818004-14050-042617FM-12+088299999V0202701N004612200019N0100001N1+02671+01851100691ADDAA106000091GF103991021021004501031001MA1999999091241MD1999999+0271REMSYN070AAXX  08184 83339 32497 32709 10267 20185 39124 40069 82230 333 58027;EQDQ01  00002PRCP06
0202833390999992004020900004-14050-042617FM-12+088299999V0202701N000510042019N0020001N1+02131+02041101101ADDAY161061AY261061GF108991081051004501999999KA1240M+02801MA1999999091491MD1999999+0301MW1611REMSYN100AAXX  09004 83339 21495 82701 10213 20204 39149 40110 76166 885// 333 10280 29084 55046 58030 60031;
0190833390999992004020912004-14050-042617FM-12+088299999V0200501N001010450019N0020001N1+02061+01981101371ADDAY161061AY261061GF108991041021004501021999KA1240N+02001MA1999999091721MD1999999+0241MW1401REMSYN088AAXX  09124 83339 21495 80502 10206 20198 39172 40137 74066 8422/ 333 20200 58024 60044;
0171833390999992004020918004-14050-042617FM-12+088299999V0201401N003110042019N0020001N1+02151+02021101151ADDAY161061AY241061GF108991051021004501021999MA1999999091501MD1999999+0261MW1401REMSYN082AAXX  09184 83339 21495 81406 10215 20202 39150 40115 74064 8522/ 333 58026 69921;
0202833390999992004021000004-14050-042617FM-12+088299999V0209999C000010042019N0020001N1+01981+01951101271ADDAY161061AY241061GF108991051051004501021999KA1240M+02241MA1999999091591MD1999999+0101MW1401REMSYN100AAXX  10004 83339 21495 80000 10198 20195 39159 40127 74064 8552/ 333 10224 29096 55000 58010 60021;
0190833390999992004021012004-14050-042617FM-12+088299999V0209999C000010042019N0020001N1+02011+01991101361ADDAY161061AY241061GF108991061051004501021999KA1240N+01961MA1999999091661MD1999999-0061MW1401REMSYN088AAXX  10124 83339 21495 80000 10201 20199 39166 40136 74064 8652/ 333 20196 59006 60154;
0171833390999992004021018004-14050-042617FM-12+088299999V0209999C000010042019N0020001N1+02091+02071101191ADDAY161061AY241061GF108991051051004501021999MA1999999091521MD1999999+0021MW1601REMSYN082AAXX  10184 83339 21495 80000 10209 20207 39152 40119 76064 8552/ 333 58002 60081;
0202833390999992004021100004-14050-042617FM-12+088299999V0209999C000010042019N0020001N1+02041+01941101291ADDAY161061AY241061GF105991051021004501001001KA1240M+02261MA1999999091611MD1999999+0021MW1021REMSYN100AAXX  11004 83339 21495 50000 10204 20194 39161 40129 70264 85200 333 10226 29096 55000 58002 69961;
0190833390999992004021112004-14050-042617FM-12+088299999V0200901N003110042019N0100001N1+02131+01951101421ADDAY161061AY241061GF106991061021004501001001KA1240N+01871MA1999999091761MD1999999+0101MW1021REMSYN088AAXX  11124 83339 21497 60906 10213 20195 39176 40142 70264 86200 333 20187 58010 60084;
0167833390999992004021118004-14050-042617FM-12+088299999V0200901N005112200019N0100001N1+02651+01871101051ADDAA106000091GF104991021021004501031001MA1999999091491MD1999999-0031REMSYN070AAXX  11184 83339 32497 40910 10265 20187 39149 40105 82230 333 59003;EQDQ01  00002PRCP06
0208833390999992004021200004-14050-042617FM-12+088299999V0201401N004112200019N0020001N1+02241+01751101251ADDAA106000091GA1001+999999999GF100991001001999999001001KA1240M+02701MA1999999091631MD1999999+0021REMSYN082AAXX  12004 83339 32995 01408 10224 20175 39163 40125 333 10270 29075 55097 58002;EQDQ01  00002PRCP06
0186833390999992004021212004-14050-042617FM-12+088299999V0200501N005110042019N0100001N1+02181+01941101441ADDAA106000091GF105991051021004501001001KA1240N+01901MA1999999091821MD1999999+0061REMSYN076AAXX  12124 83339 32497 50510 10218 20194 39182 40144 85200 333 20190 58006;EQDQ01  00002PRCP06
0167833390999992004021218004-14050-042617FM-12+088299999V0200501N004112200019N0100001N1+02701+01781101211ADDAA106000091GF103991031021004501001001MA1999999091651MD1999999+0161REMSYN070AAXX  12184 83339 32497 30508 10270 20178 39165 40121 83200 333 58016;EQDQ01  00002PRCP06
0208833390999992004021300004-14050-042617FM-12+088299999V0201401N005112200019N0020001N1+02271+01831101331ADDAA106000091GA1001+999999999GF100991001001999999001001KA1240M+02761MA1999999091721MD1999999+0091REMSYN082AAXX  13004 83339 32995 01410 10227 20183 39172 40133 333 10276 29074 55104 58009;EQDQ01  00002PRCP06
0186833390999992004021312004-14050-042617FM-12+088299999V0200901N004110042019N0100001N1+02141+01781101481ADDAA106000091GF106991061021004501001001KA1240N+01881MA1999999091871MD1999999+0051REMSYN076AAXX  13124 83339 32497 60908 10214 20178 39187 40148 86200 333 20188 58005;EQDQ01  00002PRCP06
0167833390999992004021318004-14050-042617FM-12+088299999V0200901N004112200019N0100001N1+02631+01581101161ADDAA106000091GF103991031021004501001001MA1999999091571MD1999999-0081REMSYN070AAXX  13184 83339 32497 30908 10263 20158 39157 40116 83200 333 59008;EQDQ01  00002PRCP06
0208833390999992004021400004-14050-042617FM-12+088299999V0201401N005712200019N0020001N1+02171+01951101281ADDAA106000091GA1001+999999999GF100991001001999999001001KA1240M+02701MA1999999091651MD1999999-0071REMSYN082AAXX  14004 83339 32995 01411 10217 20195 39165 40128 333 10270 29077 55115 59007;EQDQ01  00002PRCP06
0186833390999992004021412004-14050-042617FM-12+088299999V0200901N004612200019N0100001N1+02131+01741101431ADDAA106000091GF103991021021004501001011KA1240N+01841MA1999999091791MD1999999-0081REMSYN076AAXX  14124 83339 32497 30909 10213 20174 39179 40143 82201 333 20184 59008;EQDQ01  00002PRCP06
0167833390999992004021418004-14050-042617FM-12+088299999V0200501N002612200019N0100001N1+02661+01711100921ADDAA106000091GF102991021021004501001001MA1999999091391MD1999999-0181REMSYN070AAXX  14184 83339 32497 20505 10266 20171 39139 40092 82200 333 59018;EQDQ01  00002PRCP06
0208833390999992004021500004-14050-042617FM-12+088299999V0201401N004112200019N0020001N1+02201+01651101071ADDAA106000091GA1001+999999999GF100991001001999999001001KA1240M+02681MA1999999091461MD1999999-0191REMSYN082AAXX  15004 83339 32995 01408 10220 20165 39146 40107 333 10268 29069 55112 59019;EQDQ01  00002PRCP06
0186833390999992004021512004-14050-042617FM-12+088299999V0209999C000012200019N0100001N1+02161+01781101231ADDAA106000091GF104991041021004501001001KA1240N+01801MA1999999091631MD1999999-0161REMSYN076AAXX  15124 83339 32497 40000 10216 20178 39163 40123 84200 333 20180 59016;EQDQ01  00002PRCP06
0167833390999992004021518004-14050-042617FM-12+088299999V0202301N004110042019N0100001N1+02651+01821100891ADDAA106000091GF106991061021004501001001MA1999999091361MD1999999-0031REMSYN070AAXX  15184 83339 32497 62308 10265 20182 39136 40089 86200 333 59003;EQDQ01  00002PRCP06
0198833390999992004021600004-14050-042617FM-12+088299999V0209999C000012200019N0020001N1+02371+01801101071ADDAA106000091GF104991041021004501001001KA1240M+03041MA1999999091511MD1999999+0051REMSYN088AAXX  16004 83339 32495 40000 10237 20180 39151 40107 84200 333 10304 29069 55074 58005;EQDQ01  00002PRCP06
0214833390999992004021612004-14050-042617FM-12+088299999V0203601N001512200019N0100001N1+02391+02111101171ADDAA106000091AY101061AY201061GF103991021021004501001021KA1240N+01981MA1999999091651MD1999999+0021MW1101REMSYN082AAXX  16124 83339 31497 33603 10239 20211 39165 40117 71000 82202 333 20198 58002;EQDQ01  00002PRCP06
0171833390999992004021618004-14050-042617FM-12+088299999V0201801N003110042019N0100001N1+02351+02221100901ADDAY191061AY261061GF106991051021004501021001MA1999999091331MD1999999-0031MW1101REMSYN082AAXX  16184 83339 21497 61806 10235 20222 39133 40090 71096 85220 333 59003 60401;
0226833390999992004021700004-14050-042617FM-12+088299999V0209999C000012200019N0020001N1+02251+02171101081ADDAA106000091AY101061AY201061GF104991041021004501001001KA1240M+02921MA1999999091541MD1999999+0031MW1101REMSYN094AAXX  17004 83339 31495 40000 10225 20217 39154 40108 71000 84200 333 10292 29090 55059 58003;EQDQ01  00002PRCP06
0190833390999992004021712004-14050-042617FM-12+088299999V0201401N001510042019N0040001N1+01971+01931101461ADDAY161061AY261061GF108991081051004501999999KA1240N+01941MA1999999091801MD1999999+0151MW1101REMSYN088AAXX  17124 83339 21496 81403 10197 20193 39180 40146 71066 885// 333 20194 58015 60424;
0171833390999992004021718004-14050-042617FM-12+088299999V0202701N002110042019N0040001N1+02371+02031101111ADDAY161061AY261061GF107991061021004501021999MA1999999091521MD1999999+0191MW1101REMSYN082AAXX  17184 83339 21496 72704 10237 20203 39152 40111 71066 8622/ 333 58019 60021;
0226833390999992004021800004-14050-042617FM-12+088299999V0209999C000010042019N0020001N1+02151+02061101331ADDAA106000091AY101061AY201061GF108991081051004501999999KA1240M+02441MA1999999091661MD1999999+0121MW1101REMSYN094AAXX  18004 83339 31495 80000 10215 20206 39166 40133 71000 885// 333 10244 29090 55002 58012;EQDQ01  00002PRCP06
0190833390999992004021812004-14050-042617FM-12+088299999V0200501N003110042019N0100001N1+02221+02031101411ADDAY161061AY261061GF106991051021004501021001KA1240N+01981MA1999999091791MD1999999-0011MW1101REMSYN088AAXX  18124 83339 21497 60506 10222 20203 39179 40141 71066 85220 333 20198 59001 60024;
0167833390999992004021818004-14050-042617FM-12+088299999V0200901N001510042019N0100001N1+02531+01891101011ADDAA106000091GF106991051021004501031001MA1999999091451MD1999999-0071REMSYN070AAXX  18184 83339 32497 60903 10253 20189 39145 40101 85230 333 59007;EQDQ01  00002PRCP06
0214833390999992004021912004-14050-042617FM-12+088299999V0201401N003110042019N0100001N1+02231+01971101201ADDAA106000091AY101061AY201061GF106991051021004501021001KA1240N+02001MA1999999091601MD1999999-0191MW1101REMSYN082AAXX  19124 83339 31497 61406 10223 20197 39160 40120 71000 85220 333 20200 59019;EQDQ01  00002PRCP06
0167833390999992004021918004-14050-042617FM-12+088299999V0201401N005110042019N0100001N1+02451+01971100881ADDAA106000091GF106991061021004501001001MA1999999091241MD1999999-0211REMSYN070AAXX  19184 83339 32497 61410 10245 20197 39124 40088 86200 333 59021;EQDQ01  00002PRCP06
0226833390999992004022000004-14050-042617FM-12+088299999V0201401N003112200019N0020001N1+02191+01991100941ADDAA106000091AY101061AY201061GF102991021021004501001001KA1240M+02681MA1999999091361MD1999999-0221MW1101REMSYN094AAXX  20004 83339 31495 21406 10219 20199 39136 40094 71000 82200 333 10268 29083 55054 59022;EQDQ01  00002PRCP06
0214833390999992004022012004-14050-042617FM-12+088299999V0201401N001510042019N0040001N1+02111+01931101151ADDAA106000091AY101061AY201061GF108991081051004501999999KA1240N+01941MA1999999091541MD1999999-0061MW1101REMSYN082AAXX  20124 83339 31496 81403 10211 20193 39154 40115 71000 885// 333 20194 59006;EQDQ01  00002PRCP06
0167833390999992004022018004-14050-042617FM-12+088299999V0200501N001510042019N0100001N1+02491+01871100871ADDAA106000091GF106991061021004501001001MA1999999091321MD1999999+0081REMSYN070AAXX  20184 83339 32497 60503 10249 20187 39132 40087 86200 333 58008;EQDQ01  00002PRCP06
0202833390999992004022100004-14050-042617FM-12+088299999V0201801N000512200019N0020001N1+01971+01911101141ADDAY191061AY261061GF102991021021004501001001KA1240M+02661MA1999999091491MD1999999+0131MW1101REMSYN100AAXX  21004 83339 21495 21801 10197 20191 39149 40114 71096 82200 333 10266 29086 55046 58013 60211;
0190833390999992004022112004-14050-042617FM-12+088299999V0200501N003110042019N0100001N1+02051+01941101321ADDAY161061AY261061GF106991061021004501001001KA1240N+01901MA1999999091641MD1999999+0101MW1101REMSYN088AAXX  21124 83339 21497 60506 10205 20194 39164 40132 71066 86200 333 20190 58010 60214;
0167833390999992004022118004-14050-042617FM-12+088299999V0201401N006212200019N0100001N1+02551+01831101011ADDAA106000091GF103991031021004501001001MA1999999091431MD1999999+0111REMSYN070AAXX  21184 83339 32497 31412 10255 20183 39143 40101 83200 333 58011;EQDQ01  00002PRCP06
0214833390999992004022212004-14050-042617FM-12+088299999V0200501N008210042019N0100001N1+02151+01881101311ADDAA106000091AY101061AY201061GF106991051021004501031001KA1240N+01881MA1999999091701MD1999999+0061MW1101REMSYN082AAXX  22124 83339 31497 60516 10215 20188 39170 40131 71000 85230 333 20188 58006;EQDQ01  00002PRCP06
0167833390999992004022218004-14050-042617FM-12+088299999V0200501N002612200019N0100001N1+02551+01761100911ADDAA106000091GF104991031021004501021001MA1999999091481MD1999999+0051REMSYN070AAXX  22184 83339 32497 40505 10255 20176 39148 40091 83220 333 58005;EQDQ01  00002PRCP06
0167833390999992004022318004-14050-042617FM-12+088299999V0200901N004112200019N0100001N1+02731+01841100891ADDAA106000091GF103991031021004501001001MA1999999091381MD1999999-0101REMSYN070AAXX  23184 83339 32497 30908 10273 20184 39138 40089 83200 333 59010;EQDQ01  00002PRCP06
0198833390999992004022400004-14050-042617FM-12+088299999V0201401N001012200019N0020001N1+02301+01791101081ADDAA106000091GF102991021021004501001001KA1240M+02781MA1999999091521MD1999999-0081REMSYN088AAXX  24004 83339 32495 21402 10230 20179 39152 40108 82200 333 10278 29072 55095 59008;EQDQ01  00002PRCP06
0186833390999992004022412004-14050-042617FM-12+088299999V0200501N002612200019N0100001N1+02361+01931101151ADDAA106000091GF102991021021004501001001KA1240N+01821MA1999999091621MD1999999-0061REMSYN076AAXX  24124 83339 32497 20505 10236 20193 39162 40115 82200 333 20182 59006;EQDQ01  00002PRCP06
0121833390999992004022418004-14050-042617FM-12+088299999V0209999C000019999999N0100001N1+02351+02111101071ADDGF106991999999004501999999MA1999999091461REMSYN068AAXX  24184 83339 21497 60000 10235 20211 39146 40107 262 86200 333;
0190833390999992004022512004-14050-042617FM-12+088299999V0200501N002612200019N0100001N1+02371+02031101241ADDAY161061AY221061GF102991021021004501001001KA1240N+01901MA1999999091681MD1999999+0061MW1021REMSYN088AAXX  25124 83339 21497 20505 10237 20203 39168 40124 70262 82200 333 20190 58006 60024;
0167833390999992004022518004-14050-042617FM-12+088299999V0200501N002612200019N0100001N1+02861+01901100851ADDAA106000091GF105991041021004501001041MA1999999091381MD1999999-0081REMSYN070AAXX  25184 83339 32497 50505 10286 20190 39138 40085 84204 333 59008;EQDQ01  00002PRCP06
0208833390999992004022600004-14050-042617FM-12+088299999V0201401N001512200019N0020001N1+02291+01831101151ADDAA106000091GA1001+999999999GF100991001001999999001001KA1240M+02921MA1999999091621MD1999999+0131REMSYN082AAXX  26004 83339 32995 01403 10229 20183 39162 40115 333 10292 29072 55106 58013;EQDQ01  00002PRCP06
0186833390999992004022612004-14050-042617FM-12+088299999V0200901N004610042019N0100001N1+02231+01961101411ADDAA106000091GF106991061021004501001001KA1240N+01941MA1999999091811MD1999999+0131REMSYN076AAXX  26124 83339 32497 60909 10223 20196 39181 40141 86200 333 20194 58013;EQDQ01  00002PRCP06
0167833390999992004022618004-14050-042617FM-12+088299999V0200901N003112200019N0100001N1+02731+01841101091ADDAA106000091GF104991041021004501001001MA1999999091561MD1999999+0181REMSYN070AAXX  26184 83339 32497 40906 10273 20184 39156 40109 84200 333 58018;EQDQ01  00002PRCP06
0198833390999992004022700004-14050-042617FM-12+088299999V0209999C000012200019N0020001N1+02351+01781101191ADDAA106000091GF103991021021004501001011KA1240M+02811MA1999999091641MD1999999+0021REMSYN088AAXX  27004 83339 32495 30000 10235 20178 39164 40119 82201 333 10281 29070 55099 58002;EQDQ01  00002PRCP06
0186833390999992004022712004-14050-042617FM-12+088299999V0203601N001512200019N0100001N1+02311+01961101261ADDAA106000091GF102991021021004501001001KA1240N+01911MA1999999091721MD1999999-0091REMSYN076AAXX  27124 83339 32497 23603 10231 20196 39172 40126 82200 333 20191 59009;EQDQ01  00002PRCP06
0171833390999992004022718004-14050-042617FM-12+088299999V0200501N001510042019N0100001N1+02301+01981101011ADDAY161061AY221061GF106991061021004501001001MA1999999091431MD1999999-0131MW1021REMSYN082AAXX  27184 83339 21497 60503 10230 20198 39143 40101 70262 86200 333 59013 69941;
0198833390999992004022800004-14050-042617FM-12+088299999V0209999C000012200019N0020001N1+02201+02081101031ADDAA106000091GF104991031021004501031001KA1240M+02861MA1999999091471MD1999999-0171REMSYN088AAXX  28004 83339 32495 40000 10220 20208 39147 40103 83230 333 10286 29087 55078 59017;EQDQ01  00002PRCP06
0190833390999992004022812004-14050-042617FM-12+088299999V0202701N003112200019N0100001N1+02501+01891100891ADDAY161061AY221061GF103991011021004501031011KA1240N+01911MA1999999091381MD1999999-0321MW1021REMSYN088AAXX  28124 83339 21497 32706 10250 20189 39138 40089 70262 81231 333 20191 59032 69944;
0171833390999992004022818004-14050-042617FM-12+088299999V0209999C000010042019N0100001N1+02031+01941100831ADDAY161061AY221061GF106991061021004501001001MA1999999091191MD1999999-0241MW1101REMSYN082AAXX  28184 83339 21497 60000 10203 20194 39119 40083 71062 86200 333 59024 60031;
0202833390999992004022900004-14050-042617FM-12+088299999V0209999C000010450019N0020001N1+02011+01921100941ADDAY161061AY241061GF106991041021004501021001KA1240M+02731MA1999999091391MD1999999-0081MW1401REMSYN100AAXX  29004 83339 21495 60000 10201 20192 39139 40094 74064 84220 333 10273 29088 55036 59008 69921;
0190833390999992004022912004-14050-042617FM-12+088299999V0200501N001510042019N0020001N1+02111+01981101271ADDAY161061AY241061GF107991051021004501021001KA1240N+01841MA1999999091611MD1999999+0231MW1401REMSYN088AAXX  29124 83339 21495 70503 10211 20198 39161 40127 74064 85220 333 20184 58023 60044;
0171833390999992004022918004-14050-042617FM-12+088299999V0209999C000012200019N0100001N1+02381+02091100861ADDAY161061AY241061GF105991041021004501001011MA1999999091291MD1999999+0101MW1021REMSYN082AAXX  29184 83339 21497 50000 10238 20209 39129 40086 70264 84201 333 58010 60241;
0202833390999992004030100004-14050-042617FM-12+088299999V0201401N001012200019N0020001N1+02111+01951101091ADDAY161061AY221061GF103991031021004501001001KA1240M+02501MA1999999091461MD1999999+0071MW1401REMSYN100AAXX  01004 83339 21495 31402 10211 20195 39146 40109 74062 83200 333 10250 29089 55009 58007 69961;
0190833390999992004030112004-14050-042617FM-12+088299999V0203601N000510042019N0040001N1+02191+02041101211ADDAY161061AY261061GF107991061021004501021999KA1240N+01941MA1999999091591MD1999999-0021MW1101REMSYN088AAXX  01124 83339 21496 73601 10219 20204 39159 40121 71066 8622/ 333 20194 59002 60244;
0171833390999992004030118004-14050-042617FM-12+088299999V0202301N003110042019N0040001N1+02131+01951101031ADDAY191061AY261061GF108991081051004501999999MA1999999091411MD1999999+0121MW1601REMSYN082AAXX  01184 83339 21496 82306 10213 20195 39141 40103 76096 885// 333 58012 60071;
0202833390999992004030200004-14050-042617FM-12+088299999V0209999C000010042019N0020001N1+01871+01731101341ADDAY191061AY261061GF106991051021004501031001KA1240M+02741MA1999999091671MD1999999+0211MW1101REMSYN100AAXX  02004 83339 21495 60000 10187 20173 39167 40134 71096 85230 333 10274 29091 55031 58021 60051;
0190833390999992004030212004-14050-042617FM-12+088299999V0200901N001510042019N0040001N1+02081+01961101351ADDAY161061AY241061GF108991081051004501999999KA1240N+01861MA1999999091641MD1999999+0051MW1101REMSYN088AAXX  02124 83339 21496 80903 10208 20196 39164 40135 71064 885// 333 20186 58005 60124;
0167833390999992004030218004-14050-042617FM-12+088299999V0201401N004110042019N0100001N1+02551+01951100931ADDAA106000091GF105991051021004501001001MA1999999091351MD1999999-0061REMSYN070AAXX  02184 83339 32497 51408 10255 20195 39135 40093 85200 333 59006;EQDQ01  00002PRCP06
0226833390999992004030300004-14050-042617FM-12+088299999V0201801N000512200019N0020001N1+02211+01841101111ADDAA106000091AY191061AY201061GF102991021021004501001001KA1240M+02681MA1999999091501MD1999999-0171MW1101REMSYN094AAXX  03004 83339 31495 21801 10221 20184 39150 40111 71090 82200 333 10268 29079 55033 59017;EQDQ01  00002PRCP06
0190833390999992004030312004-14050-042617FM-12+088299999V0200901N002610042019N0040001N1+02131+02001101191ADDAY161061AY261061GF108991081051004501999999KA1240N+02001MA1999999091621MD1999999-0021MW1101REMSYN088AAXX  03124 83339 21496 80905 10213 20200 39162 40119 71066 885// 333 20200 59002 69964;
0171833390999992004030318004-14050-042617FM-12+088299999V0202701N006710042019N0040001N1+01991+01851101131ADDAY191061AY261061GF108991081051004501999999MA1999999091461MD1999999+0111MW1171REMSYN082AAXX  03184 83339 21496 82713 10199 20185 39146 40113 71796 885// 333 58011 60051;
0202833390999992004030400004-14050-042617FM-12+088299999V0200901N001510042019N0020001N1+01931+01821101141ADDAY191061AY261061GF108991081051004501999999KA1240M+02561MA1999999091491MD1999999-0011MW1101REMSYN100AAXX  04004 83339 21495 80903 10193 20182 39149 40114 71096 885// 333 10256 29093 55022 59001 60071;
0190833390999992004030412004-14050-042617FM-12+088299999V0201401N001510042019N0040001N1+02031+01921101351ADDAY191061AY261061GF108991081051004501999999KA1240N+01821MA1999999091651MD1999999+0031MW1101REMSYN088AAXX  04124 83339 21496 81403 10203 20192 39165 40135 71096 885// 333 20182 58003 60124;
0195833390999992004030418004-14050-042617FM-12+088299999V0200901N001010042019N0040001N1+02291+01961101041ADDAA106000091AY101061AY201061GF106991051021004501021001MA1999999091401MD1999999-0061MW1101REMSYN076AAXX  04184 83339 31496 60902 10229 20196 39140 40104 71000 85220 333 59006;EQDQ01  00002PRCP06
0226833390999992004030500004-14050-042617FM-12+088299999V0201401N007210042019N0020001N1+01991+01881101261ADDAA106000091AY101061AY201061GF107991061021004501021999KA1240M+02441MA1999999091581MD1999999+0091MW1101REMSYN094AAXX  05004 83339 31495 71414 10199 20188 39158 40126 71000 8622/ 333 10244 29090 55013 58009;EQDQ01  00002PRCP06
0214833390999992004030512004-14050-042617FM-12+088299999V0201401N003110042019N0100001N1+02151+01781101491ADDAA106000091AY101061AY201061GF105991051021004501001001KA1240N+01841MA1999999091811MD1999999+0161MW1101REMSYN082AAXX  05124 83339 31497 51406 10215 20178 39181 40149 71000 85200 333 20184 58016;EQDQ01  00002PRCP06
0167833390999992004030518004-14050-042617FM-12+088299999V0200501N004612200019N0100001N1+02431+01591101171ADDAA106000091GF104991041021004501001001MA1999999091571MD1999999+0171REMSYN070AAXX  05184 83339 32497 40509 10243 20159 39157 40117 84200 333 58017;EQDQ01  00002PRCP06
0226833390999992004030600004-14050-042617FM-12+088299999V0201401N004612200019N0020001N1+02091+01721101341ADDAA106000091AY101061AY201061GF103991031021004501001001KA1240M+02541MA1999999091691MD1999999+0111MW1101REMSYN094AAXX  06004 83339 31495 31409 10209 20172 39169 40134 71000 83200 333 10254 29074 55087 58011;EQDQ01  00002PRCP06
0214833390999992004030612004-14050-042617FM-12+088299999V0201401N004110042019N0100001N1+01971+01631101461ADDAA106000091AY101061AY201061GF106991061021004501001001KA1240N+01701MA1999999091781MD1999999-0031MW1101REMSYN082AAXX  06124 83339 31497 61408 10197 20163 39178 40146 71000 86200 333 20170 59003;EQDQ01  00002PRCP06
0167833390999992004030618004-14050-042617FM-12+088299999V0200901N006712200019N0100001N1+02451+01511101191ADDAA106000091GF103991021021004501001041MA1999999091571MD1999999+0001REMSYN070AAXX  06184 83339 32497 30913 10245 20151 39157 40119 82204 333 58000;EQDQ01  00002PRCP06
0226833390999992004030700004-14050-042617FM-12+088299999V0200901N004112200019N0020001N1+02131+01781101331ADDAA106000091AY101061AY201061GF104991041021004501001001KA1240M+02551MA1999999091661MD1999999-0031MW1101REMSYN094AAXX  07004 83339 31495 40908 10213 20178 39166 40133 71000 84200 333 10255 29074 55085 59003;EQDQ01  00002PRCP06
0214833390999992004030712004-14050-042617FM-12+088299999V0200901N006210042019N0040001N1+01951+01771101581ADDAA106000091AY101061AY201061GF108991081051004501999999KA1240N+01781MA1999999091891MD1999999+0111MW1101REMSYN082AAXX  07124 83339 31496 80912 10195 20177 39189 40158 71000 885// 333 20178 58011;EQDQ01  00002PRCP06
0167833390999992004030718004-14050-042617FM-12+088299999V0200901N004612200019N0100001N1+02571+01731101171ADDAA106000091GF103991021021004501001021MA1999999091601MD1999999+0031REMSYN070AAXX  07184 83339 32497 30909 10257 20173 39160 40117 82202 333 58003;EQDQ01  00002PRCP06
0190833390999992004030812004-14050-042617FM-12+088299999V0201401N004110042019N0100001N1+02001+01811101651ADDAY161061AY251061GF105991051021004501001001KA1240N+01781MA1999999091951MD1999999+0061MW1021REMSYN088AAXX  08124 83339 21497 51408 10200 20181 39195 40165 70265 85200 333 20178 58006 60034;
0167833390999992004030818004-14050-042617FM-12+088299999V0200901N005112200019N0100001N1+02511+01741101201ADDAA106000091GF103991031021004501001001MA1999999091601MD1999999+0001REMSYN070AAXX  08184 83339 32497 30910 10251 20174 39160 40120 83200 333 58000;EQDQ01  00002PRCP06
0208833390999992004030900004-14050-042617FM-12+088299999V0200901N003112200019N0020001N1+02101+01761101351ADDAA106000091GA1001+999999999GF100991001001999999001001KA1240M+02561MA1999999091681MD1999999-0101REMSYN082AAXX  09004 83339 32995 00906 10210 20176 39168 40135 333 10256 29078 55077 59010;EQDQ01  00002PRCP06
0186833390999992004030912004-14050-042617FM-12+088299999V0200901N004110042019N0100001N1+01971+01741101601ADDAA106000091GF106991061021004501001001KA1240N+01841MA1999999091911MD1999999-0041REMSYN076AAXX  09124 83339 32497 60908 10197 20174 39191 40160 86200 333 20184 59004;EQDQ01  00002PRCP06
0167833390999992004030918004-14050-042617FM-12+088299999V0201401N005112200019N0100001N1+02481+01851101311ADDAA106000091GF105991031021004501001011MA1999999091681MD1999999+0081REMSYN070AAXX  09184 83339 32497 51410 10248 20185 39168 40131 83201 333 58008;EQDQ01  00002PRCP06
0202833390999992004031000004-14050-042617FM-12+088299999V0200901N005110042019N0020001N1+02091+02031101471ADDAY161061AY221061GF108991051021004501021999KA1240M+02581MA1999999091791MD1999999+0111MW1601REMSYN100AAXX  10004 83339 21495 80910 10209 20203 39179 40147 76062 8522/ 333 10258 29086 55057 58011 60071;
0190833390999992004031012004-14050-042617FM-12+088299999V0200901N005110042019N0100001N1+02121+01891101641ADDAY161061AY261061GF106991061021004501001001KA1240N+01901MA1999999091961MD1999999+0051MW1021REMSYN088AAXX  10124 83339 21497 60910 10212 20189 39196 40164 70266 86200 333 20190 58005 60114;
0167833390999992004031018004-14050-042617FM-12+088299999V0200901N003112200019N0100001N1+02581+01851101301ADDAA106000091GF103991021021004501001011MA1999999091711MD1999999+0031REMSYN070AAXX  10184 83339 32497 30906 10258 20185 39171 40130 82201 333 58003;EQDQ01  00002PRCP06
0208833390999992004031100004-14050-042617FM-12+088299999V0201401N003612200019N0020001N1+02211+01901101331ADDAA106000091GA1001+999999999GF100991001001999999001001KA1240M+02621MA1999999091701MD1999999-0091REMSYN082AAXX  11004 83339 32995 01407 10221 20190 39170 40133 333 10262 29079 55095 59009;EQDQ01  00002PRCP06
0186833390999992004031112004-14050-042617FM-12+088299999V0201401N004610042019N0100001N1+02111+01911101311ADDAA106000091GF106991061021004501001001KA1240N+01901MA1999999091681MD1999999-0281REMSYN076AAXX  11124 83339 32497 61409 10211 20191 39168 40131 86200 333 20190 59028;EQDQ01  00002PRCP06
0167833390999992004031118004-14050-042617FM-12+088299999V0200901N002612200019N0100001N1+02671+01731100901ADDAA106000091GF104991041021004501001001MA1999999091371MD1999999-0341REMSYN070AAXX  11184 83339 32497 40905 10267 20173 39137 40090 84200 333 59034;EQDQ01  00002PRCP06
0208833390999992004031200004-14050-042617FM-12+088299999V0201801N002112200019N0020001N1+02161+01681101011ADDAA106000091GA1001+999999999GF100991001001999999001001KA1240M+02721MA1999999091411MD1999999-0291REMSYN082AAXX  12004 83339 32995 01804 10216 20168 39141 40101 333 10272 29073 55086 59029;EQDQ01  00002PRCP06
0214833390999992004031212004-14050-042617FM-12+088299999V0200901N003110042019N0020001N1+02021+01941101281ADDAA106000091AY121061AY221061GF108991051021004501021999KA1240N+01761MA1999999091641MD1999999-0041MW1401REMSYN082AAXX  12124 83339 31495 80906 10202 20194 39164 40128 74022 8522/ 333 20176 59004;EQDQ01  00002PRCP06
0167833390999992004031218004-14050-042617FM-12+088299999V0200501N003112200019N0100001N1+02751+01621100761ADDAA106000091GF102991021021004501001001MA1999999091241MD1999999-0131REMSYN070AAXX  12184 83339 32497 20506 10275 20162 39124 40076 82200 333 59013;EQDQ01  00002PRCP06
0198833390999992004031300004-14050-042617FM-12+088299999V0201401N003612200019N0020001N1+02311+01651101041ADDAA106000091GF102991021021004501001001KA1240M+02821MA1999999091441MD1999999+0031REMSYN088AAXX  13004 83339 32495 21407 10231 20165 39144 40104 82200 333 10282 29069 55076 58003;EQDQ01  00002PRCP06
0186833390999992004031312004-14050-042617FM-12+088299999V0200901N005110042019N0100001N1+02751+01621101221ADDAA106000091GF106991061021004501001001KA1240N+01951MA1999999091621MD1999999-0021REMSYN076AAXX  13124 83339 32497 60910 10275 20162 39162 40122 86200 333 20195 59002;EQDQ01  00002PRCP06
0167833390999992004031318004-14050-042617FM-12+088299999V0200901N004112200019N0100001N1+02671+01781100891ADDAA106000091GF102991021021004501001001MA1999999091381MD1999999+0141REMSYN070AAXX  13184 83339 32497 20908 10267 20178 39138 40089 82200 333 58014;EQDQ01  00002PRCP06
0208833390999992004031400004-14050-042617FM-12+088299999V0200901N003112200019N0020001N1+02311+01811101191ADDAA106000091GA1001+999999999GF100991001001999999001001KA1240M+02741MA1999999091591MD1999999+0151REMSYN082AAXX  14004 83339 32995 00906 10231 20181 39159 40119 333 10274 29074 55093 58015;EQDQ01  00002PRCP06
0186833390999992004031412004-14050-042617FM-12+088299999V0200901N004110042019N0100001N1+02171+01951101351ADDAA106000091GF106991061021004501001001KA1240N+01981MA1999999091751MD1999999+0131REMSYN076AAXX  14124 83339 32497 60908 10217 20195 39175 40135 86200 333 20198 58013;EQDQ01  00002PRCP06
0167833390999992004031418004-14050-042617FM-12+088299999V0200901N003112200019N0100001N1+02471+01781100851ADDAA106000091GF102991021021004501001001MA1999999091361MD1999999-0021REMSYN070AAXX  14184 83339 32497 20906 10247 20178 39136 40085 82200 333 59002;EQDQ01  00002PRCP06
0198833390999992004031500004-14050-042617FM-12+088299999V0201401N004612200019N0020001N1+02221+02051101161ADDAA106000091GF103991031021004501001001KA1240M+02801MA1999999091561MD1999999-0031REMSYN088AAXX  15004 83339 32495 31409 10222 20205 39156 40116 83200 333 10280 29080 55092 59003;EQDQ01  00002PRCP06
0214833390999992004031512004-14050-042617FM-12+088299999V0201401N003610042019N0100001N1+02271+01941101171ADDAA106000091AY101061AY201061GF106991061021004501001001KA1240N+02001MA1999999091601MD1999999-0151MW1101REMSYN082AAXX  15124 83339 31497 61407 10227 20194 39160 40117 71000 86200 333 20200 59015;EQDQ01  00002PRCP06
0171833390999992004031518004-14050-042617FM-12+088299999V0201801N002610042019N0040001N1+02291+02011100881ADDAY161061AY261061GF108991081051004501999999MA1999999091291MD1999999-0071MW1101REMSYN082AAXX  15184 83339 21496 81805 10229 20201 39129 40088 71066 885// 333 59007 60111;
0202833390999992004031600004-14050-042617FM-12+088299999V0201801N000510042019N0020001N1+01991+01901101091ADDAY191061AY261061GF108991081051004501999999KA1240M+02721MA1999999091481MD1999999-0081MW1101REMSYN100AAXX  16004 83339 21495 81801 10199 20190 39148 40109 71096 885// 333 10272 29088 55039 59008 60121;
0190833390999992004031612004-14050-042617FM-12+088299999V0201801N000510042019N0040001N1+02051+01961101191ADDAY191061AY261061GF108991081051004501999999KA1240N+01941MA1999999091521MD1999999-0081MW1171REMSYN088AAXX  16124 83339 21496 81801 10205 20196 39152 40119 71796 885// 333 20194 59008 60254;
0171833390999992004031618004-14050-042617FM-12+088299999V0200901N001510042019N0040001N1+02431+02131100751ADDAY161061AY261061GF107991061021004501021999MA1999999091191MD1999999-0101MW1101REMSYN082AAXX  16184 83339 21496 70903 10243 20213 39119 40075 71066 8622/ 333 59010 69961;
0202833390999992004031700004-14050-042617FM-12+088299999V0200901N000510042019N0020001N1+02091+02001100971ADDAY161061AY261061GF108991081051004501999999KA1240M+02501MA1999999091341MD1999999-0141MW1401REMSYN100AAXX  17004 83339 21495 80901 10209 20200 39134 40097 74066 885// 333 10250 29091 55005 59014 60031;
0190833390999992004031712004-14050-042617FM-12+088299999V0202701N001510042019N0040001N1+02131+02041101041ADDAY161061AY261061GF108991081051004501999999KA1240N+02001MA1999999091421MD1999999-0101MW1601REMSYN088AAXX  17124 83339 21496 82703 10213 20204 39142 40104 76066 885// 333 20200 59010 60054;
0171833390999992004031718004-14050-042617FM-12+088299999V0202701N004610042019N0100001N1+02471+01781100681ADDAY161061AY261061GF106991051021004501021001MA1999999091151MD1999999-0041MW1021REMSYN082AAXX  17184 83339 21497 62709 10247 20178 39115 40068 70266 85220 333 59004 60031;
0202833390999992004031800004-14050-042617FM-12+088299999V0200501N001010042019N0020001N1+01971+01831101041ADDAY161061AY211061GF108991081051004501999999KA1240M+02581MA1999999091401MD1999999+0061MW1131REMSYN100AAXX  18004 83339 21495 80502 10197 20183 39140 40104 71361 885// 333 10258 29086 55009 58006 60051;
0190833390999992004031812004-14050-042617FM-12+088299999V0200501N001510042019N0040001N1+02091+02011101081ADDAY161061AY261061GF108991081051004501999999KA1240N+01931MA1999999091441MD1999999+0021MW1101REMSYN088AAXX  18124 83339 21496 80503 10209 20201 39144 40108 71066 885// 333 20193 58002 60084;
0171833390999992004031818004-14050-042617FM-12+088299999V0202701N001510042019N0040001N1+02371+02071100761ADDAY161061AY261061GF106991051021004501031001MA1999999091161MD1999999+0011MW1101REMSYN082AAXX  18184 83339 21496 62703 10237 20207 39116 40076 71066 85230 333 58001 60011;
0226833390999992004031900004-14050-042617FM-12+088299999V0202701N001010042019N0020001N1+02191+01971100931ADDAA106000091AY101061AY201061GF108991081051004501999999KA1240M+02481MA1999999091341MD1999999-0061MW1101REMSYN094AAXX  19004 83339 31495 82702 10219 20197 39134 40093 71000 885// 333 10248 29090 55011 59006;EQDQ01  00002PRCP06
0190833390999992004031912004-14050-042617FM-12+088299999V0203601N001010042019N0040001N1+01851+01761101251ADDAY161061AY261061GF108991081051004501999999KA1240N+01821MA1999999091571MD1999999+0131MW1621REMSYN088AAXX  19124 83339 21496 83602 10185 20176 39157 40125 76266 885// 333 20182 58013 60284;
0171833390999992004031918004-14050-042617FM-12+088299999V0201401N003110042019N0040001N1+02191+01821100901ADDAY161061AY261061GF107991061021004501021999MA1999999091291MD1999999+0131MW1101REMSYN082AAXX  19184 83339 21496 71406 10219 20182 39129 40090 71066 8622/ 333 58013 60051;
0188833390999992004032000004-14050-042617FM-12+088299999V0200901N001510042019N0020001N1+02011+01921101131ADDAY161061AY251061GF108991081051004501999999KA1240M+02261MA1999999091441MW1601REMSYN100AAXX  20004 83339 21495 80903 10201 20192 39144 40113 76065 885// 333 10226 29091 55000 50010 60091;
0190833390999992004032012004-14050-042617FM-12+088299999V0209999C000010042019N0040001N1+01971+01891101231ADDAY161061AY261061GF108991081051004501999999KA1240N+01781MA1999999091551MD1999999-0021MW1611REMSYN088AAXX  20124 83339 21496 80000 10197 20189 39155 40123 76166 885// 333 20178 59002 60294;
0171833390999992004032018004-14050-042617FM-12+088299999V0200901N002610042019N0040001N1+02171+01991100931ADDAY161061AY261061GF108991081051004501999999MA1999999091301MD1999999+0011MW1101REMSYN082AAXX  20184 83339 21496 80905 10217 20199 39130 40093 71066 885// 333 58001 60031;
0202833390999992004032100004-14050-042617FM-12+088299999V0201801N000510042019N0020001N1+01911+01801101101ADDAY161061AY261061GF106991061021004501001001KA1240M+02241MA1999999091441MD1999999+0001MW1101REMSYN100AAXX  21004 83339 21495 61801 10191 20180 39144 40110 71066 86200 333 10224 29092 55000 58000 60221;
0190833390999992004032112004-14050-042617FM-12+088299999V0203601N000510042019N0100001N1+02071+01801101121ADDAY161061AY261061GF106991051021004501031001KA1240N+01801MA1999999091451MD1999999-0101MW1101REMSYN088AAXX  21124 83339 21497 63601 10207 20180 39145 40112 71066 85230 333 20180 59010 60264;
0190833390999992004032212004-14050-042617FM-12+088299999V0200501N001010042019N0020001N1+02131+02091101141ADDAY161061AY241061GF108991051051004501021999KA1240N+02001MA1999999091511MD1999999+0061MW1401REMSYN088AAXX  22124 83339 21495 80502 10213 20209 39151 40114 74064 8552/ 333 20200 58006 60144;
0171833390999992004032218004-14050-042617FM-12+088299999V0203201N001510042019N0100001N1+02461+01991100731ADDAY161061AY241061GF108991051021004501021999MA1999999091201MD1999999+0021MW1021REMSYN082AAXX  22184 83339 21497 83203 10246 20199 39120 40073 70264 8522/ 333 58002 60031;
0202833390999992004032300004-14050-042617FM-12+088299999V0203601N004110042019N0020001N1+01971+01931101271ADDAY191061AY261061GF108991061021004501021999KA1240M+02501MA1999999091591MD1999999+0251MW1601REMSYN100AAXX  23004 83339 21495 83608 10197 20193 39159 40127 76096 8622/ 333 10250 29092 55003 58025 60161;
0190833390999992004032312004-14050-042617FM-12+088299999V0200901N003110450019N0020001N1+01941+01911101371ADDAY161061AY261061GF108991041051004501021999KA1240N+01901MA1999999091651MD1999999+0141MW1401REMSYN088AAXX  23124 83339 21495 80906 10194 20191 39165 40137 74066 8452/ 333 20190 58014 60274;
0171833390999992004032318004-14050-042617FM-12+088299999V0209999C000010042019N0020001N1+01981+01931101121ADDAY161061AY241061GF108991051051004501021999MA1999999091431MD1999999+0131MW1401REMSYN082AAXX  23184 83339 21495 80000 10198 20193 39143 40112 74064 8552/ 333 58013 60231;
0226833390999992004032400004-14050-042617FM-12+088299999V0201401N001510042019N0020001N1+01971+01951101261ADDAA106000091AY141061AY221061GF108991051051004501021999KA1240M+02151MA1999999091551MD1999999-0041MW1401REMSYN094AAXX  24004 83339 31495 81403 10197 20195 39155 40126 74042 8552/ 333 10215 29097 55000 59004;EQDQ01  00002PRCP06
0190833390999992004032412004-14050-042617FM-12+088299999V0200501N001010042019N0020001N1+01991+01971101361ADDAY161061AY241061GF108991061051004501021999KA1240N+01901MA1999999091661MD1999999+0011MW1501REMSYN088AAXX  24124 83339 21495 80502 10199 20197 39166 40136 75064 8652/ 333 20190 58001 60254;
0190833390999992004032512004-14050-042617FM-12+088299999V0201401N003110042019N0100001N1+01901+01781101351ADDAY161061AY221061GF108991051051004501021999KA1240N+01741MA1999999091641MD1999999-0021MW1101REMSYN088AAXX  25124 83339 21497 81406 10190 20178 39164 40135 71062 8552/ 333 20174 59002 60034;
0167833390999992004032518004-14050-042617FM-12+088299999V0201401N003112200019N0100001N1+02411+01911100921ADDAA106000091GF103991021021004501031001MA1999999091331MD1999999-0051REMSYN070AAXX  25184 83339 32497 31406 10241 20191 39133 40092 82230 333 59005;EQDQ01  00002PRCP06
0198833390999992004032600004-14050-042617FM-12+088299999V0200901N003112200019N0020001N1+02121+01891101201ADDAA106000091GF104991041021004501001001KA1240M+02461MA1999999091531MD1999999-0041REMSYN088AAXX  26004 83339 32495 40906 10212 20189 39153 40120 84200 333 10246 29084 55048 59004;EQDQ01  00002PRCP06
0190833390999992004032612004-14050-042617FM-12+088299999V0200901N005110042019N0100001N1+01961+01811101321ADDAY161061AY221061GF106991061021004501001001KA1240N+01821MA1999999091651MD1999999+0011MW1021REMSYN088AAXX  26124 83339 21497 60910 10196 20181 39165 40132 70262 86200 333 20182 58001 69924;
0167833390999992004032618004-14050-042617FM-12+088299999V0200501N005110450019N0100001N1+02331+01741101011ADDAA106000091GF105991041021004501031001MA1999999091391MD1999999+0061REMSYN070AAXX  26184 83339 32497 50510 10233 20174 39139 40101 84230 333 58006;EQDQ01  00002PRCP06
0208833390999992004032700004-14050-042617FM-12+088299999V0200901N002112200019N0020001N1+01871+01551101231ADDAA106000091GA1001+999999999GF100991001001999999001001KA1240M+02381MA1999999091511MD1999999-0021REMSYN082AAXX  27004 83339 32995 00904 10187 20155 39151 40123 333 10238 29080 55045 59002;EQDQ01  00002PRCP06
0186833390999992004032712004-14050-042617FM-12+088299999V0200901N004610042019N0100001N1+01991+01811101231ADDAA106000091GF108991051021004501021999KA1240N+01721MA1999999091531MD1999999-0121REMSYN076AAXX  27124 83339 32497 80909 10199 20181 39153 40123 8522/ 333 20172 59012;EQDQ01  00002PRCP06
0167833390999992004032718004-14050-042617FM-12+088299999V0200501N003110450019N0100001N1+02321+01831100941ADDAA106000091GF108991041021004501021999MA1999999091311MD1999999-0081REMSYN070AAXX  27184 83339 32497 80506 10232 20183 39131 40094 8422/ 333 59008;EQDQ01  00002PRCP06
0198833390999992004032800004-14050-042617FM-12+088299999V0201401N004112200019N0020001N1+02071+01861101181ADDAA106000091GF103991021021004501031001KA1240M+02451MA1999999091531MD1999999+0021REMSYN088AAXX  28004 83339 32495 31408 10207 20186 39153 40118 82230 333 10245 29084 55030 58002;EQDQ01  00002PRCP06
0186833390999992004032812004-14050-042617FM-12+088299999V0200901N003110042019N0100001N1+02001+01811101281ADDAA106000091GF106991061021004501001001KA1240N+01821MA1999999091621MD1999999+0091REMSYN076AAXX  28124 83339 32497 60906 10200 20181 39162 40128 86200 333 20182 58009;EQDQ01  00002PRCP06
0167833390999992004032818004-14050-042617FM-12+088299999V0200901N003110450019N0100001N1+02401+01181100961ADDAA106000091GF106991031021004501031001MA1999999091361MD1999999+0051REMSYN070AAXX  28184 83339 32497 60906 10240 20118 39136 40096 83230 333 58005;EQDQ01  00002PRCP06
0198833390999992004032900004-14050-042617FM-12+088299999V0200901N004112200019N0020001N1+02051+01841101231ADDAA106000091GF103991021021999999031001KA1240M+02461MA1999999091551MD1999999+0021REMSYN088AAXX  29004 83339 32995 30908 10205 20184 39155 40123 82230 333 10246 29083 55042 58002;EQDQ01  00002PRCP06
0214833390999992004032912004-14050-042617FM-12+088299999V0201401N004110042019N0100001N1+02031+01851101431ADDAA106000091AY101061AY201061GF106991061021004501001001KA1240N+01761MA1999999091751MD1999999+0131MW1101REMSYN082AAXX  29124 83339 31497 61408 10203 20185 39175 40143 71000 86200 333 20176 58013;EQDQ01  00002PRCP06
0167833390999992004032918004-14050-042617FM-12+088299999V0201401N002612200019N0100001N1+02591+01771101051ADDAA106000091GF102991021021004501001001MA1999999091491MD1999999+0131REMSYN070AAXX  29184 83339 32497 21405 10259 20177 39149 40105 82200 333 58013;EQDQ01  00002PRCP06
0226833390999992004033000004-14050-042617FM-12+088299999V0201401N003112200019N0020001N1+02171+01881101331ADDAA106000091AY101061AY201061GF104991041021004501001001KA1240M+02641MA1999999091681MD1999999+0131MW1101REMSYN094AAXX  30004 83339 31495 41406 10217 20188 39168 40133 71000 84200 333 10264 29079 55064 58013;EQDQ01  00002PRCP06
0214833390999992004033012004-14050-042617FM-12+088299999V0200501N003110042019N0040001N1+02031+01951101521ADDAA106000091AY101061AY201061GF108991081051004501999999KA1240N+01781MA1999999091851MD1999999+0101MW1101REMSYN082AAXX  30124 83339 31496 80506 10203 20195 39185 40152 71000 885// 333 20178 58010;EQDQ01  00002PRCP06
0167833390999992004033018004-14050-042617FM-12+088299999V0201401N002610042019N0100001N1+02551+01861101121ADDAA106000091GF105991051021004501001001MA1999999091551MD1999999+0061REMSYN070AAXX  30184 83339 32497 51405 10255 20186 39155 40112 85200 333 58006;EQDQ01  00002PRCP06
0226833390999992004033100004-14050-042617FM-12+088299999V0201401N001512200019N0020001N1+02071+01801101401ADDAA106000091AY101061AY201061GF102991021021004501001001KA1240M+02641MA1999999091731MD1999999+0051MW1101REMSYN094AAXX  31004 83339 31495 21403 10207 20180 39173 40140 71000 82200 333 10264 29082 55060 58005;EQDQ01  00002PRCP06
0214833390999992004033112004-14050-042617FM-12+088299999V0200501N003112200019N0100001N1+02191+01921101371ADDAA106000091AY101061AY201061GF102991021021004501001001KA1240N+01761MA1999999091741MD1999999-0111MW1101REMSYN082AAXX  31124 83339 31497 20506 10219 20192 39174 40137 71000 82200 333 20176 59011;EQDQ01  00002PRCP06
0226833390999992004040100004-14050-042617FM-12+088299999V0202701N001510042019N0020001N1+02131+02001101311ADDAA106000091AY191061AY201061GF108991081051004501999999KA1240M+02721MA1999999091681MD1999999-0051MW1101REMSYN094AAXX  01004 83339 31495 82703 10213 20200 39168 40131 71090 885// 333 10272 29082 55083 59005;EQDQ01  00002PRCP06
0214833390999992004040112004-14050-042617FM-12+088299999V0200501N005710042019N0100001N1+02251+01981101391ADDAA106000091AY101061AY201061GF105991051021004501001001KA1240N+02001MA1999999091771MD1999999+0031MW1101REMSYN082AAXX  01124 83339 31497 50511 10225 20198 39177 40139 71000 85200 333 20200 58003;EQDQ01  00002PRCP06
0167833390999992004040118004-14050-042617FM-12+088299999V0200901N002610042019N0100001N1+02591+01801101031ADDAA106000091GF106991051021004501021001MA1999999091491MD1999999+0021REMSYN070AAXX  01184 83339 32497 60905 10259 20180 39149 40103 85220 333 58002;EQDQ01  00002PRCP06
0167833390999992004040218004-14050-042617FM-12+088299999V0201401N004612200019N0100001N1+02671+01791101041ADDAA106000091GF102991021021004501001001MA1999999091501MD1999999+0011REMSYN070AAXX  02184 83339 32497 21409 10267 20179 39150 40104 82200 333 58001;EQDQ01  00002PRCP06
0226833390999992004040300004-14050-042617FM-12+088299999V0201801N000512200019N0020001N1+02111+01761101221ADDAA106000091AY101061AY201061GF102991021021004501001001KA1240M+02721MA1999999091581MD1999999-0041MW1101REMSYN094AAXX  03004 83339 31495 21801 10211 20176 39158 40122 71000 82200 333 10272 29078 55073 59004;EQDQ01  00002PRCP06
0186833390999992004040512004-14050-042617FM-12+088299999V0200901N003112200019N0100001N1+02231+01821101481ADDAA106000091GF102991011021004501001011KA1240N+01861MA1999999091851MD1999999+0021REMSYN076AAXX  05124 83339 32497 20906 10223 20182 39185 40148 81201 333 20186 58002;EQDQ01  00002PRCP06
0167833390999992004040518004-14050-042617FM-12+088299999V0200901N002612200019N0100001N1+02651+01791101091ADDAA106000091GF102991021021004501001001MA1999999091561MD1999999+0011REMSYN070AAXX  05184 83339 32497 20905 10265 20179 39156 40109 82200 333 58001;EQDQ01  00002PRCP06
0214833390999992004040612004-14050-042617FM-12+088299999V0201401N002610450019N0020001N1+01991+01871101401ADDAA106000091AY121061AY221061GF108991041021004501021999KA1240N+01721MA1999999091731MD1999999-0121MW1401REMSYN082AAXX  06124 83339 31495 81405 10199 20187 39173 40140 74022 8422/ 333 20172 59012;EQDQ01  00002PRCP06
0167833390999992004040618004-14050-042617FM-12+088299999V0200901N002112200019N0100001N1+02691+01801100921ADDAA106000091GF102991021021004501001001MA1999999091371MD1999999-0191REMSYN070AAXX  06184 83339 32497 20904 10269 20180 39137 40092 82200 333 59019;EQDQ01  00002PRCP06
0198833390999992004040700004-14050-042617FM-12+088299999V0201801N001012200019N0020001N1+02211+01881101171ADDAA106000091GF102991021021004501001001KA1240M+02751MA1999999091541MD1999999-0061REMSYN088AAXX  07004 83339 32495 21802 10221 20188 39154 40117 82200 333 10275 29078 55074 59006;EQDQ01  00002PRCP06
0186833390999992004040712004-14050-042617FM-12+088299999V0201401N002110042019N0100001N1+02191+01941101211ADDAA106000091GF106991061021004501001001KA1240N+01891MA1999999091611MD1999999-0121REMSYN076AAXX  07124 83339 32497 61404 10219 20194 39161 40121 86200 333 20189 59012;EQDQ01  00002PRCP06
0167833390999992004040718004-14050-042617FM-12+088299999V0201401N003112200019N0100001N1+02741+01871100771ADDAA106000091GF102991021021004501001001MA1999999091271MD1999999-0101REMSYN070AAXX  07184 83339 32497 21406 10274 20187 39127 40077 82200 333 59010;EQDQ01  00002PRCP06
0226833390999992004040800004-14050-042617FM-12+088299999V0201401N001510450019N0020001N1+02261+01961101091ADDAA106000091AY121061AY221061GF106991041021004501031001KA1240M+02801MA1999999091531MD1999999-0011MW1131REMSYN094AAXX  08004 83339 31495 61403 10226 20196 39153 40109 71322 84230 333 10280 29078 55069 59001;EQDQ01  00002PRCP06
0190833390999992004040812004-14050-042617FM-12+088299999V0200501N001510042019N0040001N1+01971+01931101381ADDAY161061AY261061GF108991081051004501999999KA1240N+01941MA1999999091731MD1999999+0121MW1401REMSYN088AAXX  08124 83339 21496 80503 10197 20193 39173 40138 74066 885// 333 20194 58012 60014;
0179833390999992004040818004-14050-042617FM-12+088299999V0201401N004119999999N0100001N1+02671+02021100911ADDAA106000091AY141061AY201061GF105991999999004501999999MA1999999091401MW1021REMSYN074AAXX  08184 83339 31497 51408 10267 20202 39140 40091 70240 842 333 58013;EQDQ01  00002PRCP06
0202833390999992004040900004-14050-042617FM-12+088299999V0209999C000012200019N0020001N1+02071+01951101301ADDAY191061AY261061GF102991021021004501001001KA1240M+02761MA1999999091621MD1999999+0091MW1101REMSYN100AAXX  09004 83339 21495 20000 10207 20195 39162 40130 71096 82200 333 10276 29086 55045 58009 69981;
0190833390999992004040912004-14050-042617FM-12+088299999V0200901N002112200019N0100001N1+02231+02011101401ADDAY161061AY261061GF104991041021004501001001KA1240N+01981MA1999999091761MD1999999+0031MW1101REMSYN088AAXX  09124 83339 21497 40904 10223 20201 39176 40140 71066 84200 333 20198 58003 69984;
0167833390999992004040918004-14050-042617FM-12+088299999V0200901N002110450019N0100001N1+02551+01981100941ADDAA106000091GF105991041021004501021001MA1999999091411MD1999999+0011REMSYN070AAXX  09184 83339 32497 50904 10255 20198 39141 40094 84220 333 58001;EQDQ01  00002PRCP06
0226833390999992004041000004-14050-042617FM-12+088299999V0201801N001512200019N0020001N1+02231+02011101071ADDAA106000091AY101061AY201061GF102991021021004501001001KA1240M+02781MA1999999091511MD1999999-0111MW1131REMSYN094AAXX  10004 83339 31495 21803 10223 20201 39151 40107 71300 82200 333 10278 29083 55065 59011;EQDQ01  00002PRCP06
0214833390999992004041012004-14050-042617FM-12+088299999V0200501N003110042019N0100001N1+02171+01951101111ADDAA106000091AY101061AY201061GF106991051021004501001021KA1240N+01941MA1999999091521MD1999999-0241MW1101REMSYN082AAXX  10124 83339 31497 60506 10217 20195 39152 40111 71000 85202 333 20194 59024;EQDQ01  00002PRCP06
0167833390999992004041018004-14050-042617FM-12+088299999V0201401N001512200019N0100001N1+02671+01821100651ADDAA106000091GF102991021021004501001001MA1999999091161MD1999999-0251REMSYN070AAXX  10184 83339 32497 21403 10267 20182 39116 40065 82200 333 59025;EQDQ01  00002PRCP06
0226833390999992004041100004-14050-042617FM-12+088299999V0201401N002612200019N0020001N1+02211+01941100861ADDAA106000091AY101061AY201061GF102991021021004501001001KA1240M+02761MA1999999091291MD1999999-0221MW1101REMSYN094AAXX  11004 83339 31495 21405 10221 20194 39129 40086 71000 82200 333 10276 29078 55081 59022;EQDQ01  00002PRCP06
0214833390999992004041112004-14050-042617FM-12+088299999V0200901N003110042019N0040001N1+02051+01921101011ADDAA106000091AY101061AY201061GF108991081051004501999999KA1240N+01881MA1999999091411MD1999999-0111MW1101REMSYN082AAXX  11124 83339 31496 80906 10205 20192 39141 40101 71000 885// 333 20188 59011;EQDQ01  00002PRCP06
0167833390999992004041118004-14050-042617FM-12+088299999V0200901N004110042019N0100001N1+02631+01831100551ADDAA106000091GF105991051021004501001001MA1999999091051MD1999999-0111REMSYN070AAXX  11184 83339 32497 50908 10263 20183 39105 40055 85200 333 59011;EQDQ01  00002PRCP06
0226833390999992004041200004-14050-042617FM-12+088299999V0200901N002110042019N0020001N1+02251+01901100881ADDAA106000091AY101061AY201061GF106991061021004501001001KA1240M+02801MA1999999091251MD1999999-0041MW1101REMSYN094AAXX  12004 83339 31495 60904 10225 20190 39125 40088 71000 86200 333 10280 29078 55059 59004;EQDQ01  00002PRCP06
0214833390999992004041212004-14050-042617FM-12+088299999V0200901N002610042019N0040001N1+02171+01971101071ADDAA106000091AY101061AY201061GF108991081051004501999999KA1240N+02061MA1999999091481MD1999999+0071MW1101REMSYN082AAXX  12124 83339 31496 80905 10217 20197 39148 40107 71000 885// 333 20206 58007;EQDQ01  00002PRCP06
0167833390999992004041218004-14050-042617FM-12+088299999V0201401N003612200019N0100001N1+02631+01981100691ADDAA106000091GF103991021021004501021001MA1999999091201MD1999999+0151REMSYN070AAXX  12184 83339 32497 31407 10263 20198 39120 40069 82220 333 58015;EQDQ01  00002PRCP06
0208833390999992004041300004-14050-042617FM-12+088299999V0201401N004612200019N0020001N1+02311+01901100991ADDAA106000091GA1001+999999999GF100991001001999999001001KA1240M+02761MA1999999091441MD1999999+0191REMSYN082AAXX  13004 83339 32995 01409 10231 20190 39144 40099 333 10276 29076 55068 58019;EQDQ01  00002PRCP06
0214833390999992004041312004-14050-042617FM-12+088299999V0201401N005110042019N0040001N1+02031+01941101281ADDAA106000091AY101061AY201061GF108991081051004501999999KA1240N+01941MA1999999091651MD1999999+0171MW1101REMSYN082AAXX  13124 83339 31496 81410 10203 20194 39165 40128 71000 885// 333 20194 58017;EQDQ01  00002PRCP06
0167833390999992004041318004-14050-042617FM-12+088299999V0201401N004610042019N0040001N1+02331+01941101081ADDAA106000091GF107991061021004501021999MA1999999091471MD1999999+0271REMSYN070AAXX  13184 83339 32496 71409 10233 20194 39147 40108 8622/ 333 58027;EQDQ01  00002PRCP06
0226833390999992004041400004-14050-042617FM-12+088299999V0201401N006712200019N0020001N1+02191+01971101261ADDAA106000091AY101061AY201061GF102991021021004501001001KA1240M+02461MA1999999091621MD1999999+0181MW1101REMSYN094AAXX  14004 83339 31495 21413 10219 20197 39162 40126 71000 82200 333 10246 29087 55001 58018;EQDQ01  00002PRCP06
0214833390999992004041412004-14050-042617FM-12+088299999V0201401N004610042019N0100001N1+02111+01741101351ADDAA106000091AY101061AY201061GF106991051021004501031001KA1240N+01941MA1999999091721MD1999999+0071MW1101REMSYN082AAXX  14124 83339 31497 61409 10211 20174 39172 40135 71000 85230 333 20194 58007;EQDQ01  00002PRCP06
0167833390999992004041418004-14050-042617FM-12+088299999V0201401N005110450019N0100001N1+02471+01881101011ADDAA106000091GF105991041021004501021001MA1999999091441MD1999999-0031REMSYN070AAXX  14184 83339 32497 51410 10247 20188 39144 40101 84220 333 59003;EQDQ01  00002PRCP06
0202833390999992004041500004-14050-042617FM-12+088299999V0201401N004612200019N0020001N1+02071+02011101231ADDAY161061AY261061GF103991031021004501001001KA1240M+02541MA1999999091591MD1999999-0031MW1101REMSYN100AAXX  15004 83339 21495 31409 10207 20201 39159 40123 71066 83200 333 10254 29086 55063 59003 60041;
0190833390999992004041512004-14050-042617FM-12+088299999V0201401N008210042019N0040001N1+01891+01801101391ADDAY161061AY261061GF108991081051004501999999KA1240N+01801MA1999999091691MD1999999-0031MW1101REMSYN088AAXX  15124 83339 21496 81416 10189 20180 39169 40139 71066 885// 333 20180 59003 60054;
0167833390999992004041518004-14050-042617FM-12+088299999V0201401N006712200019N0100001N1+02391+01661101031ADDAA106000091GF103991031021004501001001MA1999999091431MD1999999-0011REMSYN070AAXX  15184 83339 32497 31413 10239 20166 39143 40103 83200 333 59001;EQDQ01  00002PRCP06
0226833390999992004041600004-14050-042617FM-12+088299999V0201401N002612200019N0020001N1+02131+01821101211ADDAA106000091AY101061AY201061GF102991021021004501001001KA1240M+02481MA1999999091541MD1999999-0051MW1101REMSYN094AAXX  16004 83339 31495 21405 10213 20182 39154 40121 71000 82200 333 10248 29080 55060 59005;EQDQ01  00002PRCP06
0214833390999992004041612004-14050-042617FM-12+088299999V0201401N006210042019N0040001N1+01931+01801101411ADDAA106000091AY101061AY201061GF108991081051004501999999KA1240N+01831MA1999999091741MD1999999+0051MW1101REMSYN082AAXX  16124 83339 31496 81412 10193 20180 39174 40141 71000 885// 333 20183 58005;EQDQ01  00002PRCP06
0167833390999992004041618004-14050-042617FM-12+088299999V0201401N004610042019N0100001N1+02391+01801101181ADDAA106000091GF106991051021004501021001MA1999999091551MD1999999+0121REMSYN070AAXX  16184 83339 32497 61409 10239 20180 39155 40118 85220 333 58012;EQDQ01  00002PRCP06
0226833390999992004041700004-14050-042617FM-12+088299999V0201401N005712200019N0020001N1+02091+01891101401ADDAA106000091AY101061AY201061GF102991021021004501001001KA1240M+02441MA1999999091701MD1999999+0161MW1101REMSYN094AAXX  17004 83339 31495 21411 10209 20189 39170 40140 71000 82200 333 10244 29085 55000 58016;EQDQ01  00002PRCP06
0190833390999992004041712004-14050-042617FM-12+088299999V0201401N007710042019N0040001N1+01891+01781101611ADDAY161061AY261061GF108991081051004501999999KA1240N+01831MA1999999091891MD1999999+0151MW1101REMSYN088AAXX  17124 83339 21496 81415 10189 20178 39189 40161 71066 885// 333 20183 58015 60014;
0195833390999992004041718004-14050-042617FM-12+088299999V0201401N002610042019N0040001N1+02131+01761101421ADDAA106000091AY101061AY201061GF108991081051004501999999MA1999999091721MD1999999+0171MW1101REMSYN076AAXX  17184 83339 31496 81405 10213 20176 39172 40142 71000 885// 333 58017;EQDQ01  00002PRCP06
0226833390999992004041800004-14050-042617FM-12+088299999V0200901N001012200019N0020001N1+01871+01731101471ADDAA106000091AY101061AY201061GF102991021021004501001001KA1240M+02221MA1999999091731MD1999999+0031MW1101REMSYN094AAXX  18004 83339 31495 20902 10187 20173 39173 40147 71000 82200 333 10222 29088 55001 58003;EQDQ01  00002PRCP06
0214833390999992004041812004-14050-042617FM-12+088299999V0201401N004610042019N0040001N1+01951+01771101671ADDAA106000091AY101061AY201061GF107991061021004501021999KA1240N+01801MA1999999091911MD1999999+0021MW1101REMSYN082AAXX  18124 83339 31496 71409 10195 20177 39191 40167 71000 8622/ 333 20180 58002;EQDQ01  00002PRCP06
0167833390999992004041818004-14050-042617FM-12+088299999V0200501N004612200019N0100001N1+02471+01631101191ADDAA106000091GF103991031021004501001001MA1999999091591MD1999999-0131REMSYN070AAXX  18184 83339 32497 30509 10247 20163 39159 40119 83200 333 59013;EQDQ01  00002PRCP06
0220833390999992004041900004-14050-042617FM-12+088299999V0201401N002612200019N0020001N1+02031+01661101401ADDAA106000091AY101061AY201061GA1001+999999999GF100991001001999999001001KA1240M+02581MA1999999091701MW1101REMSYN086AAXX  19004 83339 31995 01405 10203 20166 39170 40140 71000 333 10258 29077 55082 503;EQDQ01  00002PRCP06
0186833390999992004041912004-14050-042617FM-12+088299999V0200901N003610042019N0100001N1+02011+01741101601ADDAA106000091GF106991061021004501001001KA1240N+01781MA1999999091881MD1999999-0031REMSYN076AAXX  19124 83339 32497 60907 10201 20174 39188 40160 86200 333 20178 59003;EQDQ01  00002PRCP06
0167833390999992004041918004-14050-042617FM-12+088299999V0200501N001010042019N0100001N1+02561+01731101091ADDAA106000091GF105991051021004501001001MA1999999091501MD1999999-0091REMSYN070AAXX  19184 83339 32497 50502 10256 20173 39150 40109 85200 333 59009;EQDQ01  00002PRCP06
0208833390999992004042000004-14050-042617FM-12+088299999V0201401N001012200019N0020001N1+02091+01721101211ADDAA106000091GA1001+999999999GF100991001001999999001001KA1240M+02641MA1999999091551MD1999999-0151REMSYN082AAXX  20004 83339 32995 01402 10209 20172 39155 40121 333 10264 29076 55083 59015;EQDQ01  00002PRCP06
0186833390999992004042012004-14050-042617FM-12+088299999V0200501N001510042019N0100001N1+02051+01851101461ADDAA106000091GF108991051021004501021999KA1240N+01731MA1999999091781MD1999999-0101REMSYN076AAXX  20124 83339 32497 80503 10205 20185 39178 40146 8522/ 333 20173 59010;EQDQ01  00002PRCP06
0167833390999992004042018004-14050-042617FM-12+088299999V0200901N005112200019N0100001N1+02681+01251100931ADDAA106000091GF103991031021004501001001MA1999999091381MD1999999-0121REMSYN070AAXX  20184 83339 32497 30910 10268 20125 39138 40093 83200 333 59012;EQDQ01  00002PRCP06
0208833390999992004042100004-14050-042617FM-12+088299999V0201401N002612200019N0020001N1+02181+01841101211ADDAA106000091GA1001+999999999GF100991001001999999001001KA1240M+02721MA1999999091571MD1999999+0021REMSYN082AAXX  21004 83339 32995 01405 10218 20184 39157 40121 333 10272 29077 55083 58002;EQDQ01  00002PRCP06
0186833390999992004042112004-14050-042617FM-12+088299999V0201401N003610042019N0100001N1+02051+01851101541ADDAA106000091GF106991061021004501001001KA1240N+01831MA1999999091871MD1999999+0091REMSYN076AAXX  21124 83339 32497 61407 10205 20185 39187 40154 86200 333 20183 58009;EQDQ01  00002PRCP06
0167833390999992004042118004-14050-042617FM-12+088299999V0201401N003112200019N0100001N1+02521+01691101151ADDAA106000091GF102991021021004501001001MA1999999091581MD1999999+0201REMSYN070AAXX  21184 83339 32497 21406 10252 20169 39158 40115 82200 333 58020;EQDQ01  00002PRCP06
0208833390999992004042200004-14050-042617FM-12+088299999V0201401N004112200019N0020001N1+02151+01781101211ADDAA106000091GA1001+999999999GF100991001001999999001001KA1240M+02601MA1999999091731MD1999999+0161REMSYN082AAXX  22004 83339 32995 01408 10215 20178 39173 40121 333 10260 29076 55089 58016;EQDQ01  00002PRCP06
0202833390999992004042212004-14050-042617FM-12+088299999V0200901N006712200019N0100001N1+01941+01701101501ADDAA106000091GF104991999021004501001001KA1240N+01711MA1999999091821MD1999999-0051REMSYN076AAXX  22124 83339 32497 40913 10194 20170 39182 40150 85200 333 20171 59005;EQDQ01+000052SCOTLCQ02  00002PRCP06
0167833390999992004042218004-14050-042617FM-12+088299999V0200501N005110042019N0100001N1+02371+01911101071ADDAA106000091GF106991061021004501001001MA1999999091461MD1999999-0121REMSYN070AAXX  22184 83339 32497 60510 10237 20191 39146 40107 86200 333 59012;EQDQ01  00002PRCP06
0198833390999992004042300004-14050-042617FM-12+088299999V0200901N003110042019N0020001N1+02061+01941101311ADDAA106000091GF106991061021004501001001KA1240M+02421MA1999999091631MD1999999-0101REMSYN088AAXX  23004 83339 32495 60906 10206 20194 39163 40131 86200 333 10242 29087 55051 59010;EQDQ01  00002PRCP06
0186833390999992004042312004-14050-042617FM-12+088299999V0200901N003110042019N0100001N1+02011+01831101351ADDAA106000091GF108991051051004501021999KA1240N+01871MA1999999091681MD1999999-0141REMSYN076AAXX  23124 83339 32497 80906 10201 20183 39168 40135 8552/ 333 20187 59014;EQDQ01  00002PRCP06
0167833390999992004042318004-14050-042617FM-12+088299999V0201401N002612200019N0100001N1+02481+01831100931ADDAA106000091GF103991031021004501001001MA1999999091351MD1999999-0111REMSYN070AAXX  23184 83339 32497 31405 10248 20183 39135 40093 83200 333 59011;EQDQ01  00002PRCP06
0198833390999992004042400004-14050-042617FM-12+088299999V0201401N003612200019N0020001N1+02151+01821101031ADDAA106000091GF103991031021004501001001KA1240M+02621MA1999999091411MD1999999-0221REMSYN088AAXX  24004 83339 32495 31407 10215 20182 39141 40103 83200 333 10262 29080 55067 59022;EQDQ01  00002PRCP06
0186833390999992004042412004-14050-042617FM-12+088299999V0200501N004112200019N0100001N1+02101+01741101141ADDAA106000091GF103991031021004501001001KA1240N+01641MA1999999091511MD1999999-0171REMSYN076AAXX  24124 83339 32497 30508 10210 20174 39151 40114 83200 333 20164 59017;EQDQ01  00002PRCP06
0177833390999992004042418004-14050-042617FM-12+088299999V0200501N003112200019N0100001N1+02581+01491100821ADDAA106000091GA1001+999999999GF100991001001999999001001MA1999999091251MD1999999-0101REMSYN064AAXX  24184 83339 32997 00506 10258 20149 39125 40082 333 59010;EQDQ01  00002PRCP06
0208833390999992004042500004-14050-042617FM-12+088299999V0209999C000012200019N0020001N1+02071+01511100981ADDAA106000091GA1001+999999999GF100991001001999999001001KA1240M+02661MA1999999091361MD1999999-0051REMSYN082AAXX  25004 83339 32995 00000 10207 20151 39136 40098 333 10266 29068 55105 59005;EQDQ01  00002PRCP06
0196833390999992004042512004-14050-042617FM-12+088299999V0200501N001512200019N0100001N1+02151+01781101241ADDAA106000091GA1001+999999999GF100991001001999999001001KA1240N+01581MA1999999091601MD1999999+0091REMSYN070AAXX  25124 83339 32997 00503 10215 20178 39160 40124 333 20158 58009;EQDQ01  00002PRCP06
0167833390999992004042518004-14050-042617FM-12+088299999V0201401N003112200019N0100001N1+02751+01721100911ADDAA106000091GF103991031021004501001001MA1999999091341MD1999999+0091REMSYN070AAXX  25184 83339 32497 31406 10275 20172 39134 40091 83200 333 58009;EQDQ01  00002PRCP06
0208833390999992004042600004-14050-042617FM-12+088299999V0202301N001512200019N0020001N1+02181+01541101121ADDAA106000091GA1001+999999999GF100991001001999999001001KA1240M+02921MA1999999091511MD1999999+0151REMSYN082AAXX  26004 83339 32995 02303 10218 20154 39151 40112 333 10292 29066 55104 58015;EQDQ01  00002PRCP06
0196833390999992004042612004-14050-042617FM-12+088299999V0201401N002112200019N0100001N1+02351+01911101201ADDAA106000091GA1001+999999999GF100991001001999999001001KA1240N+01731MA1999999091631MD1999999+0031REMSYN070AAXX  26124 83339 32997 01404 10235 20191 39163 40120 333 20173 58003;EQDQ01  00002PRCP06
0167833390999992004042618004-14050-042617FM-12+088299999V0201401N002612200019N0100001N1+02731+01651100891ADDAA106000091GF104991031021004501021001MA1999999091401MD1999999+0061REMSYN070AAXX  26184 83339 32497 41405 10273 20165 39140 40089 83220 333 58006;EQDQ01  00002PRCP06
0242833390999992004042700004-14050-042617FM-12+088299999V0201401N005712200019N0020001N1+02231+01941101151ADDAA106000091AY101061AY201061GF102991021021004501001001KA1240M+02841MA1999999999999MD1999999+0091MW1101REMSYN094AAXX  27004 83339 31495 21411 10223 20194 30160 40115 71000 82200 333 10284 29072 55106 58009;EQDQ01  00002PRCP06Q02 101603APOSP 
0214833390999992004042712004-14050-042617FM-12+088299999V0201401N004610042019N0040001N1+01891+01801101471ADDAA106000091AY101061AY201061GF108991081051004501001001KA1240N+01731MA1999999091791MD1999999+0161MW1101REMSYN082AAXX  27124 83339 31496 81409 10189 20180 39179 40147 71000 88500 333 20173 58016;EQDQ01  00002PRCP06
0167833390999992004042718004-14050-042617FM-12+088299999V0201401N004612200019N0100001N1+02351+01851101231ADDAA106000091GF103991031021004501001001MA1999999091591MD1999999+0191REMSYN070AAXX  27184 83339 32497 31409 10235 20185 39159 40123 83200 333 58019;EQDQ01  00002PRCP06
0226833390999992004042800004-14050-042617FM-12+088299999V0201401N006212200019N0020001N1+02031+01901101491ADDAA106000091AY101061AY201061GF102991021021004501001001KA1240M+02431MA1999999091761MD1999999+0161MW1101REMSYN094AAXX  28004 83339 31495 21412 10203 20190 39176 40149 71000 82200 333 10243 29087 55034 58016;EQDQ01  00002PRCP06
0230833390999992004042812004-14050-042617FM-12+088299999V0201401N005110090019N0040001N1+01851+01821101681ADDAA106000091AY101061AY201061GF108991999081004501051999KA1240N+01801MA1999999091941MD1999999+0151MW1101REMSYN082AAXX  28124 83339 31496 81410 10185 20182 39194 40168 71000 8885/ 333 20180 58015;EQDQ01+000082SCOTLCQ02  00002PRCP06
0167833390999992004042818004-14050-042617FM-12+088299999V0201401N005112200019N0100001N1+02411+01841101281ADDAA106000091GF102991021021004501001001MA1999999091651MD1999999+0061REMSYN070AAXX  28184 83339 32497 21410 10241 20184 39165 40128 82200 333 58006;EQDQ01  00002PRCP06
0226833390999992004042900004-14050-042617FM-12+088299999V0201401N006710042019N0020001N1+02031+01941101631ADDAA106000091AY101061AY201061GF106991061021004501001001KA1240M+02451MA1999999091851MD1999999+0091MW1101REMSYN094AAXX  29004 83339 31495 61413 10203 20194 39185 40163 71000 86200 333 10245 29089 55069 58009;EQDQ01  00002PRCP06
0214833390999992004042912004-14050-042617FM-12+088299999V0201401N008210042019N0100001N1+01771+01501101721ADDAA106000091AY101061AY201061GF106991061021004501001001KA1240N+01681MA1999999091951MD1999999+0011MW1101REMSYN082AAXX  29124 83339 31497 61416 10177 20150 39195 40172 71000 86200 333 20168 58001;EQDQ01  00002PRCP06
0167833390999992004042918004-14050-042617FM-12+088299999V0201401N005110042019N0100001N1+02211+01561101311ADDAA106000091GF106991061021004501001001MA1999999091631MD1999999-0021REMSYN070AAXX  29184 83339 32497 61410 10221 20156 39163 40131 86200 333 59002;EQDQ01  00002PRCP06
0226833390999992004043000004-14050-042617FM-12+088299999V0201401N004612200019N0020001N1+01871+01641101581ADDAA106000091AY101061AY201061GF102991021021004501001001KA1240M+02331MA1999999091791MD1999999-0061MW1101REMSYN094AAXX  30004 83339 31495 21409 10187 20164 39179 40158 71000 82200 333 10233 29080 55079 59006;EQDQ01  00002PRCP06
0214833390999992004043012004-14050-042617FM-12+088299999V0201401N003110042019N0100001N1+02011+01701101571ADDAA106000091AY101061AY201061GF105991051021004501001001KA1240N+01641MA1999999091841MD1999999-0111MW1101REMSYN082AAXX  30124 83339 31497 51406 10201 20170 39184 40157 71000 85200 333 20164 59011;EQDQ01  00002PRCP06
0167833390999992004043018004-14050-042617FM-12+088299999V0200501N002112200019N0100001N1+02391+01661101131ADDAA106000091GF102991021021004501001001MA1999999091461MD1999999-0171REMSYN070AAXX  30184 83339 32497 20504 10239 20166 39146 40113 82200 333 59017;EQDQ01  00002PRCP06
0226833390999992004050100004-14050-042617FM-12+088299999V0200901N001512200019N0020001N1+01971+01661101211ADDAA106000091AY101061AY201061GF102991021021004501001001KA1240M+02461MA1999999091551MD1999999-0241MW1101REMSYN094AAXX  01004 83339 31495 20903 10197 20166 39155 40121 71000 82200 333 10246 29076 55081 59024;EQDQ01  00002PRCP06
0214833390999992004050112004-14050-042617FM-12+088299999V0201401N005110042019N0100001N1+01951+01721101411ADDAA106000091AY101061AY201061GF106991061021004501001001KA1240N+01601MA1999999091691MD1999999-0151MW1101REMSYN082AAXX  01124 83339 31497 61410 10195 20172 39169 40141 71000 86200 333 20160 59015;EQDQ01  00002PRCP06
0167833390999992004050118004-14050-042617FM-12+088299999V0201401N004112200019N0100001N1+02451+01861100991ADDAA106000091GF104991041021004501001001MA1999999091351MD1999999-0111REMSYN070AAXX  01184 83339 32497 41408 10245 20186 39135 40099 84200 333 59011;EQDQ01  00002PRCP06
0226833390999992004050200004-14050-042617FM-12+088299999V0201401N003110042019N0020001N1+02131+01841101191ADDAA106000091AY101061AY201061GF106991051021004501031001KA1240M+02531MA1999999091541MD1999999-0011MW1101REMSYN094AAXX  02004 83339 31495 61406 10213 20184 39154 40119 71000 85230 333 10253 29080 55102 59001;EQDQ01  00002PRCP06
0214833390999992004050212004-14050-042617FM-12+088299999V0201401N001510042019N0040001N1+01991+01961101471ADDAA106000091AY101061AY201061GF108991081051004501999999KA1240N+01881MA1999999091791MD1999999+0101MW1101REMSYN082AAXX  02124 83339 31496 81403 10199 20196 39179 40147 71000 885// 333 20188 58010;EQDQ01  00002PRCP06
0167833390999992004050218004-14050-042617FM-12+088299999V0200901N006212200019N0100001N1+02531+01831101101ADDAA106000091GF103991031021004501001001MA1999999091541MD1999999+0191REMSYN070AAXX  02184 83339 32497 30912 10253 20183 39154 40110 83200 333 58019;EQDQ01  00002PRCP06
0226833390999992004050300004-14050-042617FM-12+088299999V0201401N003612200019N0020001N1+02171+01931101361ADDAA106000091AY101061AY201061GF102991021021004501001001KA1240M+02511MA1999999091711MD1999999+0171MW1101REMSYN094AAXX  03004 83339 31495 21407 10217 20193 39171 40136 71000 82200 333 10251 29084 55075 58017;EQDQ01  00002PRCP06
0190833390999992004050312004-14050-042617FM-12+088299999V0201401N005110450019N0100001N1+01961+01841101591ADDAY161061AY221061GF108991041021004501021999KA1240N+01861MA1999999091901MD1999999+0111MW1401REMSYN088AAXX  03124 83339 21497 81410 10196 20184 39190 40159 74062 8422/ 333 20186 58011 69964;
0167833390999992004050318004-14050-042617FM-12+088299999V0200501N006712200019N0100001N1+02461+01501101231ADDAA106000091GF103991031021004501001001MA1999999091631MD1999999+0091REMSYN070AAXX  03184 83339 32497 30513 10246 20150 39163 40123 83200 333 58009;EQDQ01  00002PRCP06
0198833390999992004050400004-14050-042617FM-12+088299999V0201401N005112200019N0020001N1+02031+01581101421ADDAA106000091GF102991021021004501001001KA1240M+02521MA1999999091721MD1999999+0011REMSYN088AAXX  04004 83339 32495 21410 10203 20158 39172 40142 82200 333 10252 29074 55066 58001;EQDQ01  00002PRCP06
0190833390999992004050412004-14050-042617FM-12+088299999V0201401N004610042019N0040001N1+01871+01781101631ADDAY161061AY261061GF108991081051004501999999KA1240N+01801MA1999999091891MD1999999-0011MW1101REMSYN088AAXX  04124 83339 21496 81409 10187 20178 39189 40163 71066 885// 333 20180 59001 60014;
0226833390999992004050500004-14050-042617FM-12+088299999V0201401N004612200019N0020001N1+02051+01781101441ADDAA106000091AY101061AY201061GF103991031021004501001001KA1240M+02521MA1999999091721MD1999999+0001MW1101REMSYN094AAXX  05004 83339 31495 31409 10205 20178 39172 40144 71000 83200 333 10252 29080 55073 58000;EQDQ01  00002PRCP06
0214833390999992004050512004-14050-042617FM-12+088299999V0201401N005710042019N0040001N1+01891+01551101701ADDAA106000091AY101061AY201061GF108991081051004501999999KA1240N+01761MA1999999091951MD1999999+0061MW1101REMSYN082AAXX  05124 83339 31496 81411 10189 20155 39195 40170 71000 885// 333 20176 58006;EQDQ01  00002PRCP06
0167833390999992004050518004-14050-042617FM-12+088299999V0201401N002612200019N0100001N1+02411+01501101221ADDAA106000091GF104991031021004501021001MA1999999091601MD1999999-0021REMSYN070AAXX  05184 83339 32497 41405 10241 20150 39160 40122 83220 333 59002;EQDQ01  00002PRCP06
0198833390999992004050600004-14050-042617FM-12+088299999V0201401N003110042019N0020001N1+02051+01501101531ADDAA106000091GF106991051021004501021001KA1240M+02501MA1999999091801MD1999999+0081REMSYN088AAXX  06004 83339 32495 61406 10205 20150 39180 40153 85220 333 10250 29070 55041 58008;EQDQ01  00002PRCP06
0186833390999992004050612004-14050-042617FM-12+088299999V0200901N003610042019N0100001N1+02041+01721101721ADDAA106000091GF106991061021004501001001KA1240N+01861MA1999999092021MD1999999+0071REMSYN076AAXX  06124 83339 32497 60907 10204 20172 39202 40172 86200 333 20186 58007;EQDQ01  00002PRCP06
0167833390999992004050618004-14050-042617FM-12+088299999V0201401N003112200019N0100001N1+02571+01641999999ADDAA106000091GF103991031021004501001001MA1999999091671MD1999999+0071REMSYN070AAXX  06184 83339 32497 31406 10257 20164 39167 4//// 83200 333 58007;EQDQ01  00002PRCP06
0198833390999992004050700004-14050-042617FM-12+088299999V0201401N003112200019N0100001N1+02031+01781101501ADDAA106000091GF103991021021004501031001KA1240M+02661MA1999999091821MD1999999+0021REMSYN088AAXX  07004 83339 32497 31406 10203 20178 39182 40150 82230 333 10266 29077 55094 58002;EQDQ01  00002PRCP06
0186833390999992004050712004-14050-042617FM-12+088299999V0200501N004110042019N0100001N1+02131+01881101651ADDAA106000091GF106991061021004501001001KA1240N+01871MA1999999091971MD1999999-0051REMSYN076AAXX  07124 83339 32497 60508 10213 20188 39197 40165 86200 333 20187 59005;EQDQ01  00002PRCP06
0167833390999992004050718004-14050-042617FM-12+088299999V0201401N001512200019N0100001N1+02101+01841101241ADDAA106000091GF105991041021004501001011MA1999999091641MD1999999-0031REMSYN070AAXX  07184 83339 32497 51403 10210 20184 39164 40124 84201 333 59003;EQDQ01  00002PRCP06
0208833390999992004050800004-14050-042617FM-12+088299999V0209999C000012200019N0020001N1+02041+01681101481ADDAA106000091GA1001+999999999GF100991001001999999001001KA1240M+02561MA1999999091821MD1999999+0001REMSYN082AAXX  08004 83339 32995 00000 10204 20168 39182 40148 333 10256 29078 55061 58000;EQDQ01  00002PRCP06
0186833390999992004050812004-14050-042617FM-12+088299999V0200501N001512200019N0100001N1+02151+01801101591ADDAA106000091GF102991021021004501001001KA1240N+01641MA1999999091921MD1999999-0051REMSYN076AAXX  08124 83339 32497 20503 10215 20180 39192 40159 82200 333 20164 59005;EQDQ01  00002PRCP06
0167833390999992004050818004-14050-042617FM-12+088299999V0201401N002612200019N0100001N1+02601+01651101181ADDAA106000091GF105991011021004501001011MA1999999091561MD1999999-0121REMSYN070AAXX  08184 83339 32497 51405 10260 20165 39156 40118 81201 333 59012;EQDQ01  00002PRCP06
0208833390999992004050900004-14050-042617FM-12+088299999V0209999C000012200019N0020001N1+02041+01581101321ADDAA106000091GA1001+999999999GF100991001001999999001001KA1240M+02661MA1999999091671MD1999999-0151REMSYN082AAXX  09004 83339 32995 00000 10204 20158 39167 40132 333 10266 29072 55096 59015;EQDQ01  00002PRCP06
0202833390999992004050912004-14050-042617FM-12+088299999V0200501N001512200019N0100001N1+02161+01701101381ADDAA106000091GF103991001001999999001041KA1240N+01651MA1999999091741MD1999999-0181REMSYN076AAXX  09124 83339 32897 30503 10216 20170 39174 40138 80004 333 20165 59018;EQDQ01+022502SCOLCBQ02  00002PRCP06
0167833390999992004050918004-14050-042617FM-12+088299999V0201401N002612200019N0100001N1+02761+01201100931ADDAA106000091GF104991021021004501001011MA1999999091401MD1999999-0161REMSYN070AAXX  09184 83339 32497 41405 10276 20120 39140 40093 82201 333 59016;EQDQ01  00002PRCP06
0208833390999992004051000004-14050-042617FM-12+088299999V0201801N001512200019N0020001N1+02231+01451101211ADDAA106000091GA1001+999999999GF100991001001999999001001KA1240M+02841MA1999999091611MD1999999-0061REMSYN082AAXX  10004 83339 32995 01803 10223 20145 39161 40121 333 10284 29059 55106 59006;EQDQ01  00002PRCP06
0186833390999992004051012004-14050-042617FM-12+088299999V0201401N002612200019N0100001N1+02171+01721101371ADDAA106000091GF104991031021004501001041KA1240N+01661MA1999999091751MD1999999+0011REMSYN076AAXX  10124 83339 32497 41405 10217 20172 39175 40137 83204 333 20166 58001;EQDQ01  00002PRCP06
0167833390999992004051018004-14050-042617FM-12+088299999V02099999999992200019N0100001N1+02631+01641101041ADDAA106000091GF102991021021004501001001MA1999999091501MD1999999+0101REMSYN070AAXX  10184 83339 32497 214// 10263 20164 39150 40104 82200 333 58010;EQDQ01  00002PRCP06
0226833390999992004051100004-14050-042617FM-12+088299999V0201401N002112200019N0020001N1+02091+01721101281ADDAA106000091AY101061AY201061GF102991021021004501001001KA1240M+02701MA1999999091651MD1999999+0041MW1101REMSYN094AAXX  11004 83339 31495 21404 10209 20172 39165 40128 71000 82200 333 10270 29071 55099 58004;EQDQ01  00002PRCP06
0214833390999992004051112004-14050-042617FM-12+088299999V0201401N004610042019N0100001N1+02051+01871101431ADDAA106000091AY101061AY201061GF105991051021004501001001KA1240N+01711MA1999999091751MD1999999+0001MW1101REMSYN082AAXX  11124 83339 31497 51409 10205 20187 39175 40143 71000 85200 333 20171 58000;EQDQ01  00002PRCP06
0167833390999992004051118004-14050-042617FM-12+088299999V0201401N003112200019N0100001N1+02491+01751101011ADDAA106000091GF102991021021004501001001MA1999999091451MD1999999-0051REMSYN070AAXX  11184 83339 32497 21406 10249 20175 39145 40101 82200 333 59005;EQDQ01  00002PRCP06
0242833390999992004051200004-14050-042617FM-12+088299999V0200901N002612200019N0020001N1+02031+01661101251ADDAA106000091AY101061AY201061GF102991999021004501001001KA1240M+02551MA1999999091591MD1999999-0061MW1101REMSYN094AAXX  12004 83339 31495 20905 10203 20166 39159 40125 71000 80200 333 10255 29076 55084 59006;EQDQ01+000002SCOTLCQ02  00002PRCP06
0214833390999992004051212004-14050-042617FM-12+088299999V0201401N003110042019N0040001N1+02031+01901101511ADDAA106000091AY101061AY201061GF107991061021004501021999KA1240N+01841MA1999999091831MD1999999+0081MW1101REMSYN082AAXX  12124 83339 31496 71406 10203 20190 39183 40151 71000 8622/ 333 20184 58008;EQDQ01  00002PRCP06
0167833390999992004051218004-14050-042617FM-12+088299999V0201401N003112200019N0100001N1+02471+01711101101ADDAA106000091GF103991031021004501001001MA1999999091491MD1999999+0041REMSYN070AAXX  12184 83339 32497 31406 10247 20171 39149 40110 83200 333 58004;EQDQ01  00002PRCP06
0214833390999992004051312004-14050-042617FM-12+088299999V0200901N002610042019N0040001N1+01971+01891101431ADDAA106000091AY101061AY201061GF108991081051004501999999KA1240N+01831MA1999999091731MD1999999-0101MW1101REMSYN082AAXX  13124 83339 31496 80905 10197 20189 39173 40143 71000 885// 333 20183 59010;EQDQ01  00002PRCP06
0167833390999992004051318004-14050-042617FM-12+088299999V0201401N003110042019N0100001N1+02551+01681100971ADDAA106000091GF106991051021004501021001MA1999999091391MD1999999-0101REMSYN070AAXX  13184 83339 32497 61406 10255 20168 39139 40097 85220 333 59010;EQDQ01  00002PRCP06
0226833390999992004051400004-14050-042617FM-12+088299999V0201801N001012200019N0020001N1+02171+01821101191ADDAA106000091AY101061AY201061GF102991021021004501001001KA1240M+02701MA1999999091541MD1999999-0111MW1101REMSYN094AAXX  14004 83339 31495 21802 10217 20182 39154 40119 71000 82200 333 10270 29078 55042 59011;EQDQ01  00002PRCP06
0214833390999992004051412004-14050-042617FM-12+088299999V0201401N002112200019N0100001N1+02271+01941101251ADDAA106000091AY101061AY201061GF102991021021004501001001KA1240N+01701MA1999999091641MD1999999-0091MW1101REMSYN082AAXX  14124 83339 31497 21404 10227 20194 39164 40125 71000 82200 333 20170 59009;EQDQ01  00002PRCP06
0167833390999992004051418004-14050-042617FM-12+088299999V0201401N003112200019N0100001N1+02771+01661100791ADDAA106000091GF102991021021004501001001MA1999999091291MD1999999-0101REMSYN070AAXX  14184 83339 32497 21406 10277 20166 39129 40079 82200 333 59010;EQDQ01  00002PRCP06
0208833390999992004051500004-14050-042617FM-12+088299999V0209999C000012200019N0020001N1+02191+01631101021ADDAA106000091GA1001+999999999GF100991001001999999001001KA1240M+02841MA1999999091461MD1999999-0081REMSYN082AAXX  15004 83339 32995 00000 10219 20163 39146 40102 333 10284 29068 55095 59008;EQDQ01  00002PRCP06
0214833390999992004051512004-14050-042617FM-12+088299999V0200901N002612200019N0100001N1+02151+01971101201ADDAA106000091AY101061AY201061GF102991021021004501001001KA1240N+01741MA1999999091581MD1999999-0061MW1101REMSYN082AAXX  15124 83339 31497 20905 10215 20197 39158 40120 71000 82200 333 20174 59006;EQDQ01  00002PRCP06
0167833390999992004051518004-14050-042617FM-12+088299999V0200501N003612200019N0100001N1+02691+01611100851ADDAA106000091GF104991031021004501021001MA1999999091311MD1999999+0021REMSYN070AAXX  15184 83339 32497 40507 10269 20161 39131 40085 83220 333 58002;EQDQ01  00002PRCP06
0208833390999992004051600004-14050-042617FM-12+088299999V0200901N001512200019N0020001N1+02231+01601101021ADDAA106000091GA1001+999999999GF100991001001999999001001KA1240M+02841MA1999999091441MD1999999-0021REMSYN082AAXX  16004 83339 32995 00903 10223 20160 39144 40102 333 10284 29068 55083 59002;EQDQ01  00002PRCP06
0214833390999992004051612004-14050-042617FM-12+088299999V0201401N002610042019N0040001N1+01971+01911101351ADDAA106000091AY101061AY201061GF108991081051004501999999KA1240N+01701MA1999999091701MD1999999+0121MW1101REMSYN082AAXX  16124 83339 31496 81405 10197 20191 39170 40135 71000 885// 333 20170 58012;EQDQ01  00002PRCP06
0167833390999992004051618004-14050-042617FM-12+088299999V0201401N004610042019N0100001N1+02551+01881101021ADDAA106000091GF106991051021004501021001MA1999999091441MD1999999+0131REMSYN070AAXX  16184 83339 32497 61409 10255 20188 39144 40102 85220 333 58013;EQDQ01  00002PRCP06
0208833390999992004051700004-14050-042617FM-12+088299999V0201401N002612200019N0020001N1+02191+01801101171ADDAA106000091GA1001+999999999GF100991001001999999001001KA1240M+02641MA1999999091541MD1999999+0101REMSYN082AAXX  17004 83339 32995 01405 10219 20180 39154 40117 333 10264 29079 55054 58010;EQDQ01  00002PRCP06
0186833390999992004051712004-14050-042617FM-12+088299999V0200901N005710042019N0100001N1+02081+01861101361ADDAA106000091GF106991061021004501001001KA1240N+01881MA1999999091731MD1999999+0031REMSYN076AAXX  17124 83339 32497 60911 10208 20186 39173 40136 86200 333 20188 58003;EQDQ01  00002PRCP06
0167833390999992004051718004-14050-042617FM-12+088299999V0200901N005110450019N0100001N1+02501+01701101071ADDAA106000091GF105991031021004501031001MA1999999091511MD1999999+0071REMSYN070AAXX  17184 83339 32497 50910 10250 20170 39151 40107 83230 333 58007;EQDQ01  00002PRCP06
0208833390999992004051800004-14050-042617FM-12+088299999V0201401N004112200019N0020001N1+02141+01661101351ADDAA106000091GA1001+999999999GF100991001001999999001001KA1240M+02581MA1999999091701MD1999999+0161REMSYN082AAXX  18004 83339 32995 01408 10214 20166 39170 40135 333 10258 29074 55069 58016;EQDQ01  00002PRCP06
0214833390999992004051812004-14050-042617FM-12+088299999V0200901N004110042019N0020001N1+01931+01861101571ADDAA106000091AY121061AY221061GF108991051061004501021999KA1240N+01821MA1999999091881MD1999999+0151MW1401REMSYN082AAXX  18124 83339 31495 80908 10193 20186 39188 40157 74022 8562/ 333 20182 58015;EQDQ01  00002PRCP06
0195833390999992004051818004-14050-042617FM-12+088299999V0201401N003610450019N0100001N1+02271+01901101231ADDAA106000091AY141061AY221061GF108991041021004501021999MA1999999091591MD1999999+0081MW1021REMSYN076AAXX  18184 83339 31497 81407 10227 20190 39159 40123 70242 8422/ 333 58008;EQDQ01  00002PRCP06
0208833390999992004051900004-14050-042617FM-12+088299999V0201401N003612200019N0020001N1+02031+01741101541ADDAA106000091GA1001+999999999GF100991001001999999001001KA1240M+02331MA1999999091831MD1999999+0131REMSYN082AAXX  19004 83339 32995 01407 10203 20174 39183 40154 333 10233 29086 55011 58013;EQDQ01  00002PRCP06
0186833390999992004051912004-14050-042617FM-12+088299999V0201401N005110042019N0100001N1+02021+01801101881ADDAA106000091GF105991051021004501001001KA1240N+01841MA1999999092151MD1999999+0271REMSYN076AAXX  19124 83339 32497 51410 10202 20180 39215 40188 85200 333 20184 58027;EQDQ01  00002PRCP06
0167833390999992004051918004-14050-042617FM-12+088299999V0201401N004112200019N0100001N1+02571+01691101421ADDAA106000091GF104991041021004501001001MA1999999091821MD1999999+0231REMSYN070AAXX  19184 83339 32497 41408 10257 20169 39182 40142 84200 333 58023;EQDQ01  00002PRCP06
0208833390999992004052000004-14050-042617FM-12+088299999V0201401N005712200019N0020001N1+02091+01701101771ADDAA106000091GA1001+999999999GF100991001001999999001001KA1240M+02651MA1999999093052MD1999999+0221REMSYN082AAXX  20004 83339 32995 01411 10209 20170 39305 40177 333 10265 29075 55088 58022;EQDQ01  00002PRCP06
0186833390999992004052012004-14050-042617FM-12+088299999V0201401N004110042019N0100001N1+01991+01701101901ADDAA106000091GF106991061021004501001001KA1240N+01801MA1999999092171MD1999999+0021REMSYN076AAXX  20124 83339 32497 61408 10199 20170 39217 40190 86200 333 20180 58002;EQDQ01  00002PRCP06
0167833390999992004052018004-14050-042617FM-12+088299999V0201401N005112200019N0100001N1+02511+01581101401ADDAA106000091GF103991031021004501001001MA1999999091781MD1999999-0041REMSYN070AAXX  20184 83339 32497 31410 10251 20158 39178 40140 83200 333 59004;EQDQ01  00002PRCP06
0208833390999992004052100004-14050-042617FM-12+088299999V0201401N001512200019N0020001N1+01991+01721101691ADDAA106000091GA1001+999999999GF100991001001999999001001KA1240M+02601MA1999999091961MD1999999-0091REMSYN082AAXX  21004 83339 32995 01403 10199 20172 39196 40169 333 10260 29077 55091 59009;EQDQ01  00002PRCP06
0186833390999992004052112004-14050-042617FM-12+088299999V0200901N007210042019N0100001N1+02021+01741101791ADDAA106000091GF106991061021004501001001KA1240N+01801MA1999999092051MD1999999-0121REMSYN076AAXX  21124 83339 32497 60914 10202 20174 39205 40179 86200 333 20180 59012;EQDQ01  00002PRCP06
0167833390999992004052118004-14050-042617FM-12+088299999V0200901N005110042019N0100001N1+02441+01691101371ADDAA106000091GF105991051021004501001001MA1999999091741MD1999999-0041REMSYN070AAXX  21184 83339 32497 50910 10244 20169 39174 40137 85200 333 59004;EQDQ01  00002PRCP06
0198833390999992004052200004-14050-042617FM-12+088299999V0201401N004610042019N0020001N1+01911+01731101601ADDAA106000091GF106991061021004501001001KA1240M+02501MA1999999091861MD1999999-0101REMSYN088AAXX  22004 83339 32495 61409 10191 20173 39186 40160 86200 333 10250 29081 55053 59010;EQDQ01  00002PRCP06
0214833390999992004052212004-14050-042617FM-12+088299999V0201401N048820042019N0100001N1+01731+01681101861ADDAA106000021AY121061AY221061GF108991051051004501021999KA1240N+01701MA1999999092041MD1999999-0011MW1501REMSYN082AAXX  22124 83339 31497 81495 10173 20168 39204 40186 75022 8552/ 333 20170 59001;EQDQ01+004883WOSPD 
0171833390999992004052218004-14050-042617FM-12+088299999V0200901N007210042019N0100001N1+02151+01721101491ADDAY151061AY221061GF108991061021004501021999MA1999999091761MD1999999+0021MW1021REMSYN082AAXX  22184 83339 21497 80914 10215 20172 39176 40149 70252 8622/ 333 58002 69901;
0198833390999992004052300004-14050-042617FM-12+088299999V0201401N006710042019N0020001N1+01871+01711101681ADDAA106000091GF106991061021004501001001KA1240M+02251MA1999999091881MD1999999+0021REMSYN088AAXX  23004 83339 32495 61413 10187 20171 39188 40168 86200 333 10225 29088 55016 58002;EQDQ01  00002PRCP06
0186833390999992004052312004-14050-042617FM-12+088299999V0200901N008210042019N0100001N1+01831+01621101851ADDAA106000091GF105991051021004501001001KA1240N+01651MA1999999092051MD1999999+0011REMSYN076AAXX  23124 83339 32497 50916 10183 20162 39205 40185 85200 333 20165 58001;EQDQ01  00002PRCP06
0167833390999992004052318004-14050-042617FM-12+088299999V0200901N005110042019N0100001N1+02231+01691101521ADDAA106000091GF106991061021004501001001MA1999999091791MD1999999+0031REMSYN070AAXX  23184 83339 32497 60910 10223 20169 39179 40152 86200 333 58003;EQDQ01  00002PRCP06
0226833390999992004052400004-14050-042617FM-12+088299999V0200901N005110042019N0020001N1+01771+01731101811ADDAA106000091AY121061AY221061GF108991051021004501021999KA1240M+02261MA1999999091991MD1999999+0111MW1401REMSYN094AAXX  24004 83339 31495 80910 10177 20173 39199 40181 74022 8522/ 333 10226 29088 55029 58011;EQDQ01  00002PRCP06
0190833390999992004052412004-14050-042617FM-12+088299999V0200501N006210042019N0040001N1+01711+01601101951ADDAY161061AY261061GF108991081051004501999999KA1240N+01621MA1999999092101MD1999999+0051MW1101REMSYN088AAXX  24124 83339 21496 80512 10171 20160 39210 40195 71066 885// 333 20162 58005 60024;
0167833390999992004052418004-14050-042617FM-12+088299999V0200501N004610042019N0040001N1+02191+01701101561ADDAA106000091GF107991061021004501021999MA1999999091831MD1999999+0041REMSYN070AAXX  24184 83339 32496 70509 10219 20170 39183 40156 8622/ 333 58004;EQDQ01  00002PRCP06
0226833390999992004052500004-14050-042617FM-12+088299999V0201401N005110042019N0040001N1+01991+01811101711ADDAA106000091AY101061AY201061GF108991081051004501999999KA1240M+02261MA1999999091931MD1999999-0061MW1101REMSYN094AAXX  25004 83339 31496 81410 10199 20181 39193 40171 71000 885// 333 10226 29086 55002 59006;EQDQ01  00002PRCP06
0214833390999992004052512004-14050-042617FM-12+088299999V0201401N003610042019N0040001N1+01811+01741101801ADDAA106000091AY101061AY201061GF108991081051004501999999KA1240N+01681MA1999999092031MD1999999-0071MW1101REMSYN082AAXX  25124 83339 31496 81407 10181 20174 39203 40180 71000 885// 333 20168 59007;EQDQ01  00002PRCP06
0167833390999992004052518004-14050-042617FM-12+088299999V0201401N005712200019N0100001N1+02451+01561101351ADDAA106000091GF104991041021004501001001MA1999999091701MD1999999-0131REMSYN070AAXX  25184 83339 32497 41411 10245 20156 39170 40135 84200 333 59013;EQDQ01  00002PRCP06
0208833390999992004052600004-14050-042617FM-12+088299999V0200901N002112200019N0020001N1+02031+01581101521ADDAA106000091GA1001+999999999GF100991001001999999001001KA1240M+02561MA1999999091771MD1999999-0161REMSYN082AAXX  26004 83339 32995 00904 10203 20158 39177 40152 333 10256 29075 55069 59016;EQDQ01  00002PRCP06
0214833390999992004052612004-14050-042617FM-12+088299999V0200501N001512200019N0100001N1+01931+01821101611ADDAA106000091AY101061AY201061GF102991021021004501001001KA1240N+01501MA1999999091181MD1999999-0141MW1101REMSYN082AAXX  26124 83339 31497 20503 10193 20182 39118 40161 71000 82200 333 20150 59014;EQDQ01  00002PRCP06
0167833390999992004052618004-14050-042617FM-12+088299999V0200901N002112200019N0100001N1+02671+01741101181ADDAA106000091GF102991021021004501001001MA1999999091561MD1999999-0141REMSYN070AAXX  26184 83339 32497 20904 10267 20174 39156 40118 82200 333 59014;EQDQ01  00002PRCP06
0198833390999992004052700004-14050-042617FM-12+088299999V0209999C000012200019N0020001N1+02291+01661101351ADDAA106000091GF104991041021004501001001KA1240M+02801MA1999999091701MD1999999-0071REMSYN088AAXX  27004 83339 32495 40000 10229 20166 39170 40135 84200 333 10280 29070 55087 59007;EQDQ01  00002PRCP06
0196833390999992004052712004-14050-042617FM-12+088299999V0203601N001512200019N0100001N1+02271+01751101361ADDAA106000091GA1001+999999999GF100991001001999999001001KA1240N+01781MA1999999091791MD1999999-0101REMSYN070AAXX  27124 83339 32997 03603 10227 20175 39179 40136 333 20178 59010;EQDQ01  00002PRCP06
0167833390999992004052718004-14050-042617FM-12+088299999V0200901N001512200019N0100001N1+02731+01561101091ADDAA106000091GF103991021021004501001021MA1999999091561MD1999999+0001REMSYN070AAXX  27184 83339 32497 30903 10273 20156 39156 40109 82202 333 58000;EQDQ01  00002PRCP06
0198833390999992004052800004-14050-042617FM-12+088299999V0201801N001512200019N0020001N1+02271+01661101321ADDAA106000091GF103991021021004501031001KA1240M+02881MA1999999091731MD1999999+0031REMSYN088AAXX  28004 83339 32495 31803 10227 20166 39173 40132 82230 333 10288 29064 55094 58003;EQDQ01  00002PRCP06
0214833390999992004052812004-14050-042617FM-12+088299999V0201401N006710042019N0100001N1+02131+01861101631ADDAA106000091AY101061AY201061GF106991061021004501001001KA1240N+01821MA1999999091991MD1999999+0201MW1101REMSYN082AAXX  28124 83339 31497 61413 10213 20186 39199 40163 71000 86200 333 20182 58020;EQDQ01  00002PRCP06
0167833390999992004052818004-14050-042617FM-12+088299999V0200501N006212200019N0100001N1+02551+01511101351ADDAA106000091GF102991021021004501001001MA1999999091741MD1999999+0181REMSYN070AAXX  28184 83339 32497 20512 10255 20151 39174 40135 82200 333 58018;EQDQ01  00002PRCP06
0226833390999992004052900004-14050-042617FM-12+088299999V0201401N009812200019N0020001N1+02091+01761101541ADDAA106000091AY101061AY201061GF102991021021004501001001KA1240M+02601MA1999999091871MD1999999+0141MW1101REMSYN094AAXX  29004 83339 31495 21419 10209 20176 39187 40154 71000 82200 333 10260 29084 55088 58014;EQDQ01  00002PRCP06
0214833390999992004052912004-14050-042617FM-12+088299999V0201401N006710042019N0040001N1+01891+01731101821ADDAA106000091AY101061AY201061GF106991061021004501001001KA1240N+01721MA1999999092081MD1999999+0091MW1101REMSYN082AAXX  29124 83339 31496 61413 10189 20173 39208 40182 71000 86200 333 20172 58009;EQDQ01  00002PRCP06
0167833390999992004052918004-14050-042617FM-12+088299999V0200501N005712200019N0100001N1+02311+01611101551ADDAA106000091GF103991031021004501001001MA1999999091861MD1999999+0121REMSYN070AAXX  29184 83339 32497 30511 10231 20161 39186 40155 83200 333 58012;EQDQ01  00002PRCP06
0198833390999992004053000004-14050-042617FM-12+088299999V0201401N004110042019N0020001N1+01991+01611101791ADDAA106000091GF106991061021004501001001KA1240M+02361MA1999999092041MD1999999+0171REMSYN088AAXX  30004 83339 32495 61408 10199 20161 39204 40179 86200 333 10236 29078 55040 58017;EQDQ01  00002PRCP06
0214833390999992004053012004-14050-042617FM-12+088299999V0200501N008210042019N0100001N1+01871+01691101811ADDAA106000091AY101061AY201061GF106991061021004501001001KA1240N+01701MA1999999092051MD1999999-0031MW1101REMSYN082AAXX  30124 83339 31497 60516 10187 20169 39205 40181 71000 86200 333 20170 59003;EQDQ01  00002PRCP06
0167833390999992004053018004-14050-042617FM-12+088299999V0201401N005110450019N0100001N1+02331+01581101461ADDAA106000091GF105991041021004501021001MA1999999091781MD1999999-0081REMSYN070AAXX  30184 83339 32497 51410 10233 20158 39178 40146 84220 333 59008;EQDQ01  00002PRCP06
0198833390999992004053100004-14050-042617FM-12+088299999V0201401N004110042019N0020001N1+02011+01621101591ADDAA106000091GF106991061021004501001001KA1240M+02481MA1999999091851MD1999999-0191REMSYN088AAXX  31004 83339 32495 61408 10201 20162 39185 40159 86200 333 10248 29077 55045 59019;EQDQ01  00002PRCP06
0214833390999992004053112004-14050-042617FM-12+088299999V0201401N005110042019N0020001N1+01841+01711101831ADDAA106000091AY121061AY221061GF108991051021004501021999KA1240N+01721MA1999999092071MD1999999+0021MW1401REMSYN082AAXX  31124 83339 31495 81410 10184 20171 39207 40183 74022 8522/ 333 20172 58002;EQDQ01  00002PRCP06
0195833390999992004053118004-14050-042617FM-12+088299999V0200901N004110042019N0100001N1+02341+01621101391ADDAA106000091AY141061AY221061GF105991051021004501001001MA1999999091721MD1999999-0061MW1021REMSYN076AAXX  31184 83339 31497 50908 10234 20162 39172 40139 70242 85200 333 59006;EQDQ01  00002PRCP06
0208833390999992004060100004-14050-042617FM-12+088299999V0201401N001512200019N0020001N1+01931+01661101591ADDAA106000091GA1001+999999999GF100991001001999999001001KA1240M+02421MA1999999091841MD1999999-0011REMSYN082AAXX  01004 83339 32995 01403 10193 20166 39184 40159 333 10242 29081 55054 59001;EQDQ01  00002PRCP06
0186833390999992004060112004-14050-042617FM-12+088299999V0200901N005112200019N0100001N1+02031+01701101791ADDAA106000091GF104991021021004501001011KA1240N+01721MA1999999092051MD1999999-0021REMSYN076AAXX  01124 83339 32497 40910 10203 20170 39205 40179 82201 333 20172 59002;EQDQ01  00002PRCP06
0167833390999992004060118004-14050-042617FM-12+088299999V0200501N004611050019N0100001N1+02511+01371101351ADDAA106000091GF105991021021004501001021MA1999999091721MD1999999+0001REMSYN070AAXX  01184 83339 32497 50509 10251 20137 39172 40135 82202 333 58000;EQDQ01  00002PRCP06
0208833390999992004060200004-14050-042617FM-12+088299999V0200901N004112200019N0020001N1+02001+01521101621ADDAA106000091GA1001+999999999GF100991001001999999001001KA1240M+02541MA1999999091901MD1999999+0061REMSYN082AAXX  02004 83339 32995 00908 10200 20152 39190 40162 333 10254 29070 55096 58006;EQDQ01  00002PRCP06
0186833390999992004060212004-14050-042617FM-12+088299999V0200901N003110042019N0100001N1+01941+01661101851ADDAA106000091GF106991061021004501001001KA1240N+01691MA1999999092091MD1999999+0041REMSYN076AAXX  02124 83339 32497 60906 10194 20166 39209 40185 86200 333 20169 58004;EQDQ01  00002PRCP06
0167833390999992004060218004-14050-042617FM-12+088299999V0200501N004112200019N0100001N1+02431+01511101421ADDAA106000091GF102991021021004501001001MA1999999091761MD1999999+0041REMSYN070AAXX  02184 83339 32497 20508 10243 20151 39176 40142 82200 333 58004;EQDQ01  00002PRCP06
0208833390999992004060300004-14050-042617FM-12+088299999V0201401N004112200019N0020001N1+02051+01541101681ADDAA106000091GA1001+999999999GF100991001001999999001001KA1240M+02481MA1999999091951MD1999999+0051REMSYN082AAXX  03004 83339 32995 01408 10205 20154 39195 40168 333 10248 29071 55096 58005;EQDQ01  00002PRCP06
0186833390999992004060312004-14050-042617FM-12+088299999V0200901N003610042019N0100001N1+01911+01721101791ADDAA106000091GF106991061021004501001001KA1240N+01641MA1999999092051MD1999999-0041REMSYN076AAXX  03124 83339 32497 60907 10191 20172 39205 40179 86200 333 20164 59004;EQDQ01  00002PRCP06
0167833390999992004060318004-14050-042617FM-12+088299999V0200901N004110450019N0100001N1+02431+01611101361ADDAA106000091GF107991021021004501031011MA1999999091711MD1999999-0051REMSYN070AAXX  03184 83339 32497 70908 10243 20161 39171 40136 82231 333 59005;EQDQ01  00002PRCP06
0198833390999992004060400004-14050-042617FM-12+088299999V0201401N004612200019N0020001N1+02091+01621101591ADDAA106000091GF102991011011004501001011KA1240M+02521MA1999999091871MD1999999-0081REMSYN088AAXX  04004 83339 32495 21409 10209 20162 39187 40159 81101 333 10252 29074 55055 59008;EQDQ01  00002PRCP06
0186833390999992004060412004-14050-042617FM-12+088299999V0200501N002112200019N0100001N1+02061+01741101581ADDAA106000091GF104991011011004501001061KA1240N+01571MA1999999091911MD1999999-0141REMSYN076AAXX  04124 83339 32497 40504 10206 20174 39191 40158 81106 333 20157 59014;EQDQ01  00002PRCP06
0167833390999992004060418004-14050-042617FM-12+088299999V0200901N001510042019N0100001N1+02521+01771101171ADDAA106000091GF108991051021004501021999MA1999999091541MD1999999-0171REMSYN070AAXX  04184 83339 32497 80903 10252 20177 39154 40117 8522/ 333 59017;EQDQ01  00002PRCP06
0198833390999992004060500004-14050-042617FM-12+088299999V0209999C000010450019N0020001N1+02071+01641101411ADDAA106000091GF108991041021004501031001KA1240M+02601MA1999999091741MD1999999-0131REMSYN088AAXX  05004 83339 32495 80000 10207 20164 39174 40141 84230 333 10260 29074 55025 59013;EQDQ01  00002PRCP06
0186833390999992004060512004-14050-042617FM-12+088299999V0209999C000012200019N0100001N1+02111+01721101481ADDAA106000091GF102991021021004501001001KA1240N+01551MA1999999091821MD1999999-0091REMSYN076AAXX  05124 83339 32497 20000 10211 20172 39182 40148 82200 333 20155 59009;EQDQ01  00002PRCP06
0167833390999992004060518004-14050-042617FM-12+088299999V0200901N002110042019N0100001N1+02601+01651101171ADDAA106000091GF105991051021004501001001MA1999999091571MD1999999+0031REMSYN070AAXX  05184 83339 32497 50904 10260 20165 39157 40117 85200 333 58003;EQDQ01  00002PRCP06
0198833390999992004060600004-14050-042617FM-12+088299999V0201401N005112200019N0020001N1+02171+01631101421ADDAA106000091GF102991021021004501001001KA1240M+02721MA1999999091781MD1999999+0041REMSYN088AAXX  06004 83339 32495 21410 10217 20163 39178 40142 82200 333 10272 29068 55080 58004;EQDQ01  00002PRCP06
0186833390999992004060612004-14050-042617FM-12+088299999V0200901N003610042019N0100001N1+01981+01791101731ADDAA106000091GF106991061021004501001001KA1240N+01841MA1999999092031MD1999999+0211REMSYN076AAXX  06124 83339 32497 60907 10198 20179 39203 40173 86200 333 20184 58021;EQDQ01  00002PRCP06
0167833390999992004060618004-14050-042617FM-12+088299999V0200901N002612200019N0100001N1+02591+01631101331ADDAA106000091GF103991031021004501001001MA1999999091741MD1999999+0171REMSYN070AAXX  06184 83339 32497 30905 10259 20163 39174 40133 83200 333 58017;EQDQ01  00002PRCP06
0214833390999992004060712004-14050-042617FM-12+088299999V0200501N006210042019N0040001N1+01831+01771101911ADDAA106000091AY101061AY201061GF108991081051004501999999KA1240N+01701MA1999999092161MD1999999+0131MW1101REMSYN082AAXX  07124 83339 31496 80512 10183 20177 39216 40191 71000 885// 333 20170 58013;EQDQ01  00002PRCP06
0167833390999992004060718004-14050-042617FM-12+088299999V0200501N008212200019N0100001N1+02411+01631101571ADDAA106000091GF102991021021004501001001MA1999999091901MD1999999+0161REMSYN070AAXX  07184 83339 32497 20516 10241 20163 39190 40157 82200 333 58016;EQDQ01  00002PRCP06
0226833390999992004060800004-14050-042617FM-12+088299999V0201401N006212200019N0020001N1+01851+01511101761ADDAA106000091AY101061AY201061GF102991021021004501001001KA1240M+02431MA1999999091971MD1999999+0021MW1101REMSYN094AAXX  08004 83339 31495 21412 10185 20151 39197 40176 71000 82200 333 10243 29080 55062 58002;EQDQ01  00002PRCP06
0214833390999992004060812004-14050-042617FM-12+088299999V0200901N007710042019N0040001N1+01671+01611101951ADDAA106000091AY101061AY201061GF108991081051004501999999KA1240N+01641MA1999999092101MD1999999-0061MW1101REMSYN082AAXX  08124 83339 31496 80915 10167 20161 39210 40195 71000 885// 333 20164 59006;EQDQ01  00002PRCP06
0167833390999992004060818004-14050-042617FM-12+088299999V0200501N006710042019N0100001N1+02291+01361101541ADDAA106000091GF105991051021004501001001MA1999999091831MD1999999-0071REMSYN070AAXX  08184 83339 32497 50513 10229 20136 39183 40154 85200 333 59007;EQDQ01  00002PRCP06
0208833390999992004060900004-14050-042617FM-12+088299999V0201401N009312200019N0020001N1+01931+01421101811ADDAA106000091GA1001+999999999GF100991001001999999001001KA1240M+02401MA1999999091991MD1999999+0021REMSYN082AAXX  09004 83339 32995 01418 10193 20142 39199 40181 333 10240 29074 55057 58002;EQDQ01  00002PRCP06
0190833390999992004060912004-14050-042617FM-12+088299999V0201401N005110042019N0040001N1+01691+01631102041ADDAY161061AY261061GF108991081051004501999999KA1240N+01631MA1999999092201MD1999999+0101MW1101REMSYN088AAXX  09124 83339 21496 81410 10169 20163 39220 40204 71066 885// 333 20163 58010 60024;
0167833390999992004060918004-14050-042617FM-12+088299999V0200501N006212200019N0100001N1+02351+01241101521ADDAA106000091GF102991021021004501001001MA1999999091841MD1999999+0011REMSYN070AAXX  09184 83339 32497 20512 10235 20124 39184 40152 82200 333 58001;EQDQ01  00002PRCP06
0198833390999992004061000004-14050-042617FM-12+088299999V0201401N004612200019N0020001N1+01971+01591101891ADDAA106000091GF102991021021004501001001KA1240M+02421MA1999999092031MD1999999+0041REMSYN088AAXX  10004 83339 32495 21409 10197 20159 39203 40189 82200 333 10242 29075 55051 58004;EQDQ01  00002PRCP06
0214833390999992004061012004-14050-042617FM-12+088299999V0200501N008210042019N0100001N1+01811+01471101891ADDAA106000091AY101061AY201061GF105991051021004501001001KA1240N+01561MA1999999092111MD1999999-0091MW1101REMSYN082AAXX  10124 83339 31497 50516 10181 20147 39211 40189 71000 85200 333 20156 59009;EQDQ01  00002PRCP06
0167833390999992004061018004-14050-042617FM-12+088299999V0201401N006212200019N0100001N1+02491+01211101531ADDAA106000091GF102991011021004501001021MA1999999091861MD1999999+0021REMSYN070AAXX  10184 83339 32497 21412 10249 20121 39186 40153 81202 333 58002;EQDQ01  00002PRCP06
0198833390999992004061100004-14050-042617FM-12+088299999V0201401N005112200019N0020001N1+01991+01591101801ADDAA106000091GF103991031021004501001001KA1240M+02561MA1999999092031MD1999999+0001REMSYN088AAXX  11004 83339 32495 31410 10199 20159 39203 40180 83200 333 10256 29070 55100 58000;EQDQ01  00002PRCP06
0214833390999992004061112004-14050-042617FM-12+088299999V0201401N007210042019N0100001N1+01631+01541101931ADDAA106000091AY101061AY201061GF106991061021004501001001KA1240N+01541MA1999999092101MD1999999-0011MW1101REMSYN082AAXX  11124 83339 31497 61414 10163 20154 39210 40193 71000 86200 333 20154 59001;EQDQ01  00002PRCP06
0167833390999992004061118004-14050-042617FM-12+088299999V0200501N005112200019N0100001N1+02431+01011101581ADDAA106000091GF102991021021004501001001MA1999999091911MD1999999+0051REMSYN070AAXX  11184 83339 32497 20510 10243 20101 39191 40158 82200 333 58005;EQDQ01  00002PRCP06
0186833390999992004061212004-14050-042617FM-12+088299999V0201401N003112200019N0100001N1+01951+01571102201ADDAA106000091GF102991021021004501001001KA1240N+01381MA1999999092411MD1999999+0311REMSYN076AAXX  12124 83339 32497 21406 10195 20157 39241 40220 82200 333 20138 58031;EQDQ01  00002PRCP06
0145833390999992004061312004-14050-042617FM-12+088299999V0200901N002119999999N0100001N1+01821+01581999999ADDAA106000091GF105991999999004501999999REMSYN077AAXX  13124 83339 32497 50904 10182 20158 20160 3633 39221 40202 59020 85200;EQDQ01  00002PRCP06
0177833390999992004061318004-14050-042617FM-12+088299999V0200501N003112200019N0100001N1+02401+01131101491ADDAA106000091GA1001+999999999GF100991001001999999001001MA1999999091811MD1999999-0221REMSYN064AAXX  13184 83339 32997 00506 10240 20113 39181 40149 333 59022;EQDQ01  00002PRCP06
0190833390999992004061412004-14050-042617FM-12+088299999V0200901N005710042019N0020001N1+01681+01631102031ADDAY161061AY241061GF108991051051004501021999KA1240N+01621MA1999999092191MD1999999-0021MW1401REMSYN088AAXX  14124 83339 21495 80911 10168 20163 39219 40203 74064 8552/ 333 20162 59002 60014;
0195833390999992004061418004-14050-042617FM-12+088299999V0200901N004110042019N0100001N1+02161+01681101741ADDAA106000091AY141061AY221061GF106991061021004501001001MA1999999091971MD1999999+0161MW1021REMSYN076AAXX  14184 83339 31497 60908 10216 20168 39197 40174 70242 86200 333 58016;EQDQ01  00002PRCP06
0198833390999992004061500004-14050-042617FM-12+088299999V0201401N006210042019N0020001N1+01771+01671102071ADDAA106000091GF108991051051004501021999KA1240M+02181MA1999999092191MD1999999+0131REMSYN088AAXX  15004 83339 32495 81412 10177 20167 39219 40207 8552/ 333 10218 29089 55021 58013;EQDQ01  00002PRCP06
0190833390999992004061512004-14050-042617FM-12+088299999V0200901N006210042019N0020001N1+01611+01571102171ADDAY161061AY241061GF108991061051004501021999KA1240N+01561MA1999999092281MD1999999+0091MW1501REMSYN088AAXX  15124 83339 21495 80912 10161 20157 39228 40217 75064 8652/ 333 20156 58009 60034;
0171833390999992004061518004-14050-042617FM-12+088299999V0201401N005110042019N0100001N1+01901+01701101841ADDAY151061AY241061GF106991061021004501001001MA1999999092001MD1999999+0031MW1021REMSYN082AAXX  15184 83339 21497 61410 10190 20170 39200 40184 70254 86200 333 58003 69971;
0198833390999992004061600004-14050-042617FM-12+088299999V0201401N005110042019N0020001N1+01751+01701102051ADDAA106000091GF106991061021004501001001KA1240M+01991MA1999999092171MD1999999-0021REMSYN088AAXX  16004 83339 32495 61410 10175 20170 39217 40205 86200 333 10199 29094 55002 59002;EQDQ01  00002PRCP06
0190833390999992004061612004-14050-042617FM-12+088299999V0200901N004610450019N0020001N1+01721+01551102031ADDAY151061AY241061GF108991041051004501021999KA1240N+01571MA1999999092171MD1999999-0111MW1401REMSYN088AAXX  16124 83339 21495 80909 10172 20155 39217 40203 74054 8452/ 333 20157 59011 69994;
0195833390999992004061618004-14050-042617FM-12+088299999V0200501N005110042019N0100001N1+02301+01431101541ADDAA106000091AY141061AY221061GF106991061021004501001001MA1999999091811MD1999999-0191MW1021REMSYN076AAXX  16184 83339 31497 60510 10230 20143 39181 40154 70242 86200 333 59019;EQDQ01  00002PRCP06
0208833390999992004061700004-14050-042617FM-12+088299999V0200901N001512200019N0020001N1+01831+01511101851ADDAA106000091GA1001+999999999GF100991001001999999001001KA1240M+02361MA1999999092011MD1999999-0161REMSYN082AAXX  17004 83339 32995 00903 10183 20151 39201 40185 333 10236 29078 55070 59016;EQDQ01  00002PRCP06
0161833390999992004061712004-14050-042617FM-12+088299999V0200901N005119999999N0020001N1+01621+99999999999ADDAA106000091GF108991999999004501999999KA1240N+01611REMSYN080AAXX  17124 83339 31495 80910 101620160 39222 40208 74022 8552/ 333 20161 58005;EQDQ01  00002PRCP06
0167833390999992004061718004-14050-042617FM-12+088299999V0200501N006712200019N0100001N1+02311+01371101541ADDAA106000091GF102991021011004501001001MA1999999091831MD1999999+0021REMSYN070AAXX  17184 83339 32497 20513 10231 20137 39183 40154 82100 333 58002;EQDQ01  00002PRCP06
0198833390999992004061800004-14050-042617FM-12+088299999V0201401N005112200019N0020001N1+01881+01431101951ADDAA106000091GF102991021011004501001001KA1240M+02371MA1999999092101MD1999999-0091REMSYN088AAXX  18004 83339 32495 21410 10188 20143 39210 40195 82100 333 10237 29075 55076 59009;EQDQ01  00002PRCP06
0186833390999992004061812004-14050-042617FM-12+088299999V0200901N002610042019N0100001N1+01771+01541102111ADDAA106000091GF106991061021004501001001KA1240N+01561MA1999999092261MD1999999+0041REMSYN076AAXX  18124 83339 32497 60905 10177 20154 39226 40211 86200 333 20156 58004;EQDQ01  00002PRCP06
0167833390999992004061818004-14050-042617FM-12+088299999V0200901N005112200019N0100001N1+02291+01461101681ADDAA106000091GF105991041021004501001011MA1999999091951MD1999999+0121REMSYN070AAXX  18184 83339 32497 50910 10229 20146 39195 40168 84201 333 58012;EQDQ01  00002PRCP06
0198833390999992004061900004-14050-042617FM-12+088299999V0201401N002612200019N0020001N1+01921+01401101981ADDAA106000091GF104991041021004501001001KA1240M+02341MA1999999092171MD1999999+0071REMSYN088AAXX  19004 83339 32495 41405 10192 20140 39217 40198 84200 333 10234 29072 55078 58007;EQDQ01  00002PRCP06
0190833390999992004061912004-14050-042617FM-12+088299999V0200901N006710042019N0020001N1+01741+01611102251ADDAY161061AY221061GF106991061021004501001001KA1240N+01591MA1999999092411MD1999999+0151MW1401REMSYN088AAXX  19124 83339 21495 60913 10174 20161 39241 40225 74062 86200 333 20159 58015 60014;
0195833390999992004061918004-14050-042617FM-12+088299999V0200901N006712200019N0100001N1+02261+01501101861ADDAA106000091AY141061AY221061GF104991021021004501001011MA1999999092121MD1999999+0171MW1021REMSYN076AAXX  19184 83339 31497 40913 10226 20150 39212 40186 70242 82201 333 58017;EQDQ01  00002PRCP06
0167833390999992004062018004-14050-042617FM-12+088299999V0200901N006712200019N0100001N1+02171+01441101771ADDAA106000091GF106991041021004501001011MA1999999092001MD1999999-0121REMSYN070AAXX  20184 83339 32497 60913 10217 20144 39200 40177 84201 333 59012;EQDQ01  00002PRCP06
0186833390999992004062112004-14050-042617FM-12+088299999V0200901N005712200019N0100001N1+01751+01351102151ADDAA106000091GF104991031021004501001011KA1240N+01501MA1999999092281MD1999999-0091REMSYN076AAXX  21124 83339 32497 40911 10175 20135 39228 40215 83201 333 20150 59009;EQDQ01  00002PRCP06
0167833390999992004062118004-14050-042617FM-12+088299999V0200901N003110042019N0100001N1+02191+01411101781ADDAA106000091GF106991061021004501001001MA1999999092011MD1999999+0011REMSYN070AAXX  21184 83339 32497 60906 10219 20141 39201 40178 86200 333 58001;EQDQ01  00002PRCP06
0202833390999992004062200004-14050-042617FM-12+088299999V0200901N006210042019N0020001N1+01731+01681101981ADDAY161061AY221061GF108991061051004501021999KA1240M+02321MA1999999092131MD1999999-0061MW1401REMSYN100AAXX  22004 83339 21495 80912 10173 20168 39213 40198 74062 8652/ 333 10232 29082 55071 59006 69941;
0190833390999992004062212004-14050-042617FM-12+088299999V0200901N005710042019N0020001N1+01631+01611102011ADDAY161061AY241061GF108991051051004501021999KA1240N+01561MA1999999092141MD1999999-0141MW1401REMSYN088AAXX  22124 83339 21495 80911 10163 20161 39214 40201 74064 8552/ 333 20156 59014 60024;
0195833390999992004062218004-14050-042617FM-12+088299999V0200901N003610042019N0100001N1+02131+01591101711ADDAA106000091AY141061AY221061GF106991061021004501001001MA1999999091931MD1999999-0081MW1021REMSYN076AAXX  22184 83339 31497 60907 10213 20159 39193 40171 70242 86200 333 59008;EQDQ01  00002PRCP06
0198833390999992004062300004-14050-042617FM-12+088299999V0201401N005712200019N0020001N1+01851+01691101931ADDAA106000091GF104991041021004501001001KA1240M+02191MA1999999092081MD1999999-0051REMSYN088AAXX  23004 83339 32495 41411 10185 20169 39208 40193 84200 333 10219 29087 55028 59005;EQDQ01  00002PRCP06
0190833390999992004062312004-14050-042617FM-12+088299999V0200501N003610042019N0100001N1+01851+01661102111ADDAY161061AY221061GF106991061021004501001001KA1240N+01621MA1999999092281MD1999999+0141MW1021REMSYN088AAXX  23124 83339 21497 60507 10185 20166 39228 40211 70262 86200 333 20162 58014 60014;
0186833390999992004062412004-14050-042617FM-12+088299999V0200901N003610042019N0100001N1+01811+01511101921ADDAA106000091GF105991051021004501001001KA1240N+01581MA1999999092141MD1999999-0141REMSYN076AAXX  24124 83339 32497 50907 10181 20151 39214 40192 85200 333 20158 59014;EQDQ01  00002PRCP06
0167833390999992004062418004-14050-042617FM-12+088299999V0200501N005712200019N0100001N1+02351+01031101471ADDAA106000091GF102991011011004501001011MA1999999091761MD1999999-0101REMSYN070AAXX  24184 83339 32497 20511 10235 20103 39176 40147 81101 333 59010;EQDQ01  00002PRCP06
0208833390999992004062500004-14050-042617FM-12+088299999V0200901N004612200019N0020001N1+01871+01321101751ADDAA106000091GA1001+999999999GF100991001001999999001001KA1240M+02401MA1999999091961MD1999999-0131REMSYN082AAXX  25004 83339 32995 00909 10187 20132 39196 40175 333 10240 29066 55092 59013;EQDQ01  00002PRCP06
0167833390999992004062518004-14050-042617FM-12+088299999V0200901N004112200019N0100001N1+02321+01371101411ADDAA106000091GF103991031021004501001001MA1999999091691MD1999999-0071REMSYN070AAXX  25184 83339 32497 30908 10232 20137 39169 40141 83200 333 59007;EQDQ01  00002PRCP06
0208833390999992004062600004-14050-042617FM-12+088299999V0201401N003112200019N0020001N1+01791+01451101751ADDAA106000091GA1001+999999999GF100991001001999999001001KA1240M+02381MA1999999091921MD1999999-0041REMSYN082AAXX  26004 83339 32995 01406 10179 20145 39192 40175 333 10238 29072 55104 59004;EQDQ01  00002PRCP06
0186833390999992004062612004-14050-042617FM-12+088299999V0200901N003610042019N0100001N1+01761+01561101961ADDAA106000091GF106991061021004501001001KA1240N+01601MA1999999092111MD1999999+0021REMSYN076AAXX  26124 83339 32497 60907 10176 20156 39211 40196 86200 333 20160 58002;EQDQ01  00002PRCP06
0167833390999992004062618004-14050-042617FM-12+088299999V0200901N005112200019N0100001N1+02331+01491101491ADDAA106000091GF106991031021004501001011MA1999999091781MD1999999+0091REMSYN070AAXX  26184 83339 32497 60910 10233 20149 39178 40149 83201 333 58009;EQDQ01  00002PRCP06
0208833390999992004062700004-14050-042617FM-12+088299999V0200901N005112200019N0020001N1+01891+01491101761ADDAA106000091GA1001+999999999GF100991001001999999001001KA1240M+02401MA1999999091971MD1999999+0051REMSYN082AAXX  27004 83339 32995 00910 10189 20149 39197 40176 333 10240 29075 55078 58005;EQDQ01  00002PRCP06
0190833390999992004062712004-14050-042617FM-12+088299999V0200901N004110042019N0020001N1+01681+01651101971ADDAY161061AY241061GF108991051051004501021999KA1240N+01641MA1999999092141MD1999999+0031MW1501REMSYN088AAXX  27124 83339 21495 80908 10168 20165 39214 40197 75064 8552/ 333 20164 58003 69964;
0171833390999992004062718004-14050-042617FM-12+088299999V0200901N005712200019N0100001N1+02331+01411101541ADDAY151061AY241061GF103991031021004501001001MA1999999091831MD1999999+0051MW1021REMSYN082AAXX  27184 83339 21497 30911 10233 20141 39183 40154 70254 83200 333 58005 69941;
0202833390999992004062800004-14050-042617FM-12+088299999V0201401N005110042019N0020001N1+01721+01671101971ADDAY151061AY241061GF108991051051004501021999KA1240M+02411MA1999999092101MD1999999+0131MW1401REMSYN100AAXX  28004 83339 21495 81410 10172 20167 39210 40197 74054 8552/ 333 10241 29086 55075 58013 69921;
0190833390999992004062812004-14050-042617FM-12+088299999V0200901N004110042019N0020001N1+01711+01641101941ADDAY161061AY241061GF105991051021004501001001KA1240N+01581MA1999999092071MD1999999-0071MW1401REMSYN088AAXX  28124 83339 21495 50908 10171 20164 39207 40194 74064 85200 333 20158 59007 60024;
0211833390999992004062818004-14050-042617FM-12+088299999V0200901N004612200019N0100001N1+02291+01231101431ADDAA106000091AY141061AY221061GF102991001001999999001011MA1999999091711MD1999999-0121MW1021REMSYN076AAXX  28184 83339 31897 20909 10229 20123 39171 40143 70242 80001 333 59012;EQDQ01+022502SCOLCBQ02  00002PRCP06
0208833390999992004062900004-14050-042617FM-12+088299999V0201401N004612200019N0020001N1+01931+01241101731ADDAA106000091GA1001+999999999GF100991001001999999001001KA1240M+02381MA1999999091931MD1999999-0171REMSYN082AAXX  29004 83339 32995 01409 10193 20124 39193 40173 333 10238 29068 55079 59017;EQDQ01  00002PRCP06
0186833390999992004062912004-14050-042617FM-12+088299999V0200901N004610042019N0100001N1+01831+01531101911ADDAA106000091GF105991051021004501001001KA1240N+01491MA1999999092131MD1999999+0061REMSYN076AAXX  29124 83339 32497 50909 10183 20153 39213 40191 85200 333 20149 58006;EQDQ01  00002PRCP06
0167833390999992004062918004-14050-042617FM-12+088299999V0200501N006212200019N0100001N1+02311+01341101501ADDAA106000091GF106991041021004501001041MA1999999091771MD1999999+0061REMSYN070AAXX  29184 83339 32497 60512 10231 20134 39177 40150 84204 333 58006;EQDQ01  00002PRCP06
0208833390999992004063000004-14050-042617FM-12+088299999V0201401N005112200019N0020001N1+01891+01471101811ADDAA106000091GA1001+999999999GF100991001001999999001001KA1240M+02391MA1999999092021MD1999999+0091REMSYN082AAXX  30004 83339 32995 01410 10189 20147 39202 40181 333 10239 29072 55078 58009;EQDQ01  00002PRCP06
0186833390999992004063012004-14050-042617FM-12+088299999V0200901N008210042019N0100001N1+01671+01521102011ADDAA106000091GF106991061021004501001001KA1240N+01621MA1999999092171MD1999999+0041REMSYN076AAXX  30124 83339 32497 60916 10167 20152 39217 40201 86200 333 20162 58004;EQDQ01  00002PRCP06
0167833390999992004063018004-14050-042617FM-12+088299999V0200901N005712200019N0100001N1+02261+01551101501ADDAA106000091GF104991041021004501001001MA1999999091771MD1999999+0001REMSYN070AAXX  30184 83339 32497 40911 10226 20155 39177 40150 84200 333 58000;EQDQ01  00002PRCP06
0198833390999992004070100004-14050-042617FM-12+088299999V0201401N005110042019N0020001N1+01911+01681101841ADDAA106000091GF106991061021004501001001KA1240M+02301MA1999999092021MD1999999+0001REMSYN088AAXX  01004 83339 32495 61410 10191 20168 39202 40184 86200 333 10230 29080 55045 58000;EQDQ01  00002PRCP06
0186833390999992004070112004-14050-042617FM-12+088299999V0200901N003112200019N0100001N1+01771+01511101881ADDAA106000091GF104991041021004501001001KA1240N+01561MA1999999092081MD1999999-0091REMSYN076AAXX  01124 83339 32497 40906 10177 20151 39208 40188 84200 333 20156 59009;EQDQ01  00002PRCP06
0167833390999992004070118004-14050-042617FM-12+088299999V0200501N004112200019N0100001N1+02351+01431101421ADDAA106000091GF102991021011004501001001MA1999999091701MD1999999-0071REMSYN070AAXX  01184 83339 32497 20508 10235 20143 39170 40142 82100 333 59007;EQDQ01  00002PRCP06
0208833390999992004070200004-14050-042617FM-12+088299999V0200901N003112200019N0020001N1+01951+01461101631ADDAA106000091GA1001+999999999GF100991001001999999001001KA1240M+02381MA1999999091851MD1999999-0171REMSYN082AAXX  02004 83339 32995 00906 10195 20146 39185 40163 333 10238 29072 55079 59017;EQDQ01  00002PRCP06
0171833390999992004070218004-14050-042617FM-12+088299999V0200901N003110450019N0100001N1+02141+01861101441ADDAY161061AY241061GF106991041021004501021999MA1999999091701MD1999999+0001MW1021REMSYN082AAXX  02184 83339 21497 60906 10214 20186 39170 40144 70264 8422/ 333 58000 69921;
0198833390999992004070300004-14050-042617FM-12+088299999V0200901N005112200019N0020001N1+01911+01591101681ADDAA106000091GF103991021021004501031001KA1240M+02271MA1999999091901MD1999999+0051REMSYN088AAXX  03004 83339 32495 30910 10191 20159 39190 40168 82230 333 10227 29086 55022 58005;EQDQ01  00002PRCP06
0190833390999992004070312004-14050-042617FM-12+088299999V0200901N004610042019N0100001N1+01781+01471101751ADDAY161061AY221061GF106991061021004501001001KA1240N+01521MA1999999091961MD1999999-0031MW1021REMSYN088AAXX  03124 83339 21497 60909 10178 20147 39196 40175 70262 86200 333 20152 59003 69924;
0167833390999992004070318004-14050-042617FM-12+088299999V0200501N004610042019N0100001N1+02251+01441101441ADDAA106000091GF105991051021004501001001MA1999999091721MD1999999+0021REMSYN070AAXX  03184 83339 32497 50509 10225 20144 39172 40144 85200 333 58002;EQDQ01  00002PRCP06
0208833390999992004070400004-14050-042617FM-12+088299999V0201401N002612200019N0020001N1+01871+01391101681ADDAA106000091GA1001+999999999GF100991001001999999001001KA1240M+02291MA1999999091881MD1999999-0021REMSYN082AAXX  04004 83339 32995 01405 10187 20139 39188 40168 333 10229 29072 55031 59002;EQDQ01  00002PRCP06
0186833390999992004070412004-14050-042617FM-12+088299999V0200901N004112200019N0100001N1+01901+01511101681ADDAA106000091GF102991021011004501001001KA1240N+01581MA1999999091911MD1999999-0041REMSYN076AAXX  04124 83339 32497 20908 10190 20151 39191 40168 82100 333 20158 59004;EQDQ01  00002PRCP06
0167833390999992004070418004-14050-042617FM-12+088299999V0200501N005112200019N0100001N1+02491+01291101241ADDAA106000091GF102991021011004501001001MA1999999091581MD1999999-0141REMSYN070AAXX  04184 83339 32497 20510 10249 20129 39158 40124 82100 333 59014;EQDQ01  00002PRCP06
0198833390999992004070500004-14050-042617FM-12+088299999V0200901N004612200019N0020001N1+01981+01421101501ADDAA106000091GF102991021011004501001001KA1240M+02541MA1999999091771MD1999999-0111REMSYN088AAXX  05004 83339 32495 20909 10198 20142 39177 40150 82100 333 10254 29066 55103 59011;EQDQ01  00002PRCP06
0214833390999992004070512004-14050-042617FM-12+088299999V0200501N003110042019N0100001N1+01671+01511101821ADDAA106000091AY101061AY201061GF106991061021004501001001KA1240N+01341MA1999999092001MD1999999+0021MW1101REMSYN082AAXX  05124 83339 31497 60506 10167 20151 39200 40182 71000 86200 333 20134 58002;EQDQ01  00002PRCP06
0167833390999992004070518004-14050-042617FM-12+088299999V0201401N002112200019N0100001N1+02371+01231101431ADDAA106000091GF102991021021004501001001MA1999999091731MD1999999+0151REMSYN070AAXX  05184 83339 32497 21404 10237 20123 39173 40143 82200 333 58015;EQDQ01  00002PRCP06
0208833390999992004070600004-14050-042617FM-12+088299999V0201801N000512200019N0020001N1+01911+01201101601ADDAA106000091GA1001+999999999GF100991001001999999001001KA1240M+02441MA1999999091811MD1999999+0041REMSYN082AAXX  06004 83339 32995 01801 10191 20120 39181 40160 333 10244 29068 55064 58004;EQDQ01  00002PRCP06
0230833390999992004070612004-14050-042617FM-12+088299999V0201401N002110042019N0100001N1+01731+01621101681ADDAA106000091AY101061AY201061GF106991061021004501001001KA1240N+99999MA1999999091881MD1999999-0121MW1101REMSYN082AAXX  06124 83339 31497 61404 10173 20162 39188 40168 71000 86200 333 20182 59012;EQDQ01  00002PRCP06Q02 +01822ATMN  
0167833390999992004070618004-14050-042617FM-12+088299999V0200901N003112200019N0100001N1+02451+01251101231ADDAA106000091GF104991041021004501001001MA1999999091571MD1999999-0161REMSYN070AAXX  06184 83339 32497 40906 10245 20125 39157 40123 84200 333 59016;EQDQ01  00002PRCP06
0208833390999992004070700004-14050-042617FM-12+088299999V0201401N003112200019N0020001N1+02051+01111101391ADDAA106000091GA1001+999999999GF100991001001999999001001KA1240M+02521MA1999999091651MD1999999-0161REMSYN082AAXX  07004 83339 32995 01406 10205 20111 39165 40139 333 10252 29062 55069 59016;EQDQ01  00002PRCP06
0214833390999992004070712004-14050-042617FM-12+088299999V0200501N003112200019N0100001N1+01711+01451101591ADDAA106000091AY101061AY201061GF104991041021004501001001KA1240N+01501MA1999999091841MD1999999-0041MW1101REMSYN082AAXX  07124 83339 31497 40506 10171 20145 39184 40159 71000 84200 333 20150 59004;EQDQ01  00002PRCP06
0167833390999992004070718004-14050-042617FM-12+088299999V0200501N003112200019N0100001N1+02431+01151101151ADDAA106000091GF102991021021004501001001MA1999999091501MD1999999-0071REMSYN070AAXX  07184 83339 32497 20506 10243 20115 39150 40115 82200 333 59007;EQDQ01  00002PRCP06
0208833390999992004070800004-14050-042617FM-12+088299999V0201401N004612200019N0020001N1+01951+01071101371ADDAA106000091GA1001+999999999GF100991001001999999001001KA1240M+02521MA1999999091621MD1999999-0031REMSYN082AAXX  08004 83339 32995 01409 10195 20107 39162 40137 333 10252 29061 55098 59003;EQDQ01  00002PRCP06
0214833390999992004070812004-14050-042617FM-12+088299999V0201401N004110450019N0100001N1+01791+01451101501ADDAA106000091AY101061AY201061GF105991041021004501021001KA1240N+01321MA1999999091741MD1999999-0101MW1101REMSYN082AAXX  08124 83339 31497 51408 10179 20145 39174 40150 71000 84220 333 20132 59010;EQDQ01  00002PRCP06
0208833390999992004070900004-14050-042617FM-12+088299999V0201801N000512200019N0020001N1+01991+01001101281ADDAA106000091GA1001+999999999GF100991001001999999001001KA1240M+02541MA1999999091551MD1999999-0071REMSYN082AAXX  09004 83339 32995 01801 10199 20100 39155 40128 333 10254 29058 55102 59007;EQDQ01  00002PRCP06
0214833390999992004070912004-14050-042617FM-12+088299999V0200501N003112200019N0100001N1+01851+01621101481ADDAA106000091AY101061AY201061GF103991021021004501021001KA1240N+01101MA1999999091741MD1999999+0001MW1101REMSYN082AAXX  09124 83339 31497 30506 10185 20162 39174 40148 71000 82220 333 20110 58000;EQDQ01  00002PRCP06
0167833390999992004070918004-14050-042617FM-12+088299999V0200901N002112200019N0100001N1+02671+01191100991ADDAA106000091GF102991011021004501001021MA1999999091391MD1999999-0041REMSYN070AAXX  09184 83339 32497 20904 10267 20119 39139 40099 81202 333 59004;EQDQ01  00002PRCP06
0208833390999992004071000004-14050-042617FM-12+088299999V0209999C000012200019N0020001N1+02151+01171101211ADDAA106000091GA1001+999999999GF100991001001999999001001KA1240M+02761MA1999999091541MD1999999-0011REMSYN082AAXX  10004 83339 32995 00000 10215 20117 39154 40121 333 10276 29058 55090 59001;EQDQ01  00002PRCP06
0214833390999992004071012004-14050-042617FM-12+088299999V0200501N002112200019N0100001N1+01931+01751101401ADDAA106000091AY101061AY201061GF103991021021004501021001KA1240N+01521MA1999999091731MD1999999-0011MW1101REMSYN082AAXX  10124 83339 31497 30504 10193 20175 39173 40140 71000 82220 333 20152 59001;EQDQ01  00002PRCP06
0167833390999992004071018004-14050-042617FM-12+088299999V0200901N004112200019N0100001N1+02671+01371101021ADDAA106000091GF104991031021004501021001MA1999999091441MD1999999+0051REMSYN070AAXX  10184 83339 32497 40908 10267 20137 39144 40102 83220 333 58005;EQDQ01  00002PRCP06
0198833390999992004071100004-14050-042617FM-12+088299999V0200901N001512200019N0020001N1+02171+01351101251ADDAA106000091GF102991021021004501001001KA1240M+02731MA1999999091591MD1999999+0051REMSYN088AAXX  11004 83339 32495 20903 10217 20135 39159 40125 82200 333 10273 29064 55089 58005;EQDQ01  00002PRCP06
0167833390999992004071118004-14050-042617FM-12+088299999V0200501N002612200019N0100001N1+02651+01541101011ADDAA106000091GF103991031021004501001001MA1999999091451MD1999999+0011REMSYN070AAXX  11184 83339 32497 30505 10265 20154 39145 40101 83200 333 58001;EQDQ01  00002PRCP06
0198833390999992004071200004-14050-042617FM-12+088299999V0200901N003112200019N0020001N1+02151+01591101171ADDAA106000091GF102991021021004501001001KA1240M+02721MA1999999091541MD1999999-0051REMSYN088AAXX  12004 83339 32495 20906 10215 20159 39154 40117 82200 333 10272 29067 55094 59005;EQDQ01  00002PRCP06
0186833390999992004071212004-14050-042617FM-12+088299999V0200901N005710042019N0100001N1+01971+01761101521ADDAA106000091GF106991061021004501001001KA1240N+01841MA1999999091841MD1999999+0051REMSYN076AAXX  12124 83339 32497 60911 10197 20176 39184 40152 86200 333 20184 58005;EQDQ01  00002PRCP06
0167833390999992004071218004-14050-042617FM-12+088299999V0200901N006710042019N0100001N1+02251+01541101291ADDAA106000091GF106991061021004501001001MA1999999091631MD1999999+0181REMSYN070AAXX  12184 83339 32497 60913 10225 20154 39163 40129 86200 333 58018;EQDQ01  00002PRCP06
0198833390999992004071300004-14050-042617FM-12+088299999V0200901N006710042019N0020001N1+01891+01621101671ADDAA106000091GF106991061021004501001001KA1240M+02281MA1999999091931MD1999999+0391REMSYN088AAXX  13004 83339 32495 60913 10189 20162 39193 40167 86200 333 10228 29080 55019 58039;EQDQ01  00002PRCP06
0186833390999992004071312004-14050-042617FM-12+088299999V0200901N006210042019N0100001N1+01761+01581101771ADDAA106000091GF106991061021004501001001KA1240N+01661MA1999999091951MD1999999+0111REMSYN076AAXX  13124 83339 32497 60912 10176 20158 39195 40177 86200 333 20166 58011;EQDQ01  00002PRCP06
0167833390999992004071318004-14050-042617FM-12+088299999V0200901N006712200019N0100001N1+02311+01601101351ADDAA106000091GF104991041021004501001001MA1999999091651MD1999999+0021REMSYN070AAXX  13184 83339 32497 40913 10231 20160 39165 40135 84200 333 58002;EQDQ01  00002PRCP06
0208833390999992004071400004-14050-042617FM-12+088299999V0200901N005112200019N0020001N1+01891+01621101661ADDAA106000091GA1001+999999999GF100991001001999999001001KA1240M+02401MA1999999091861MD1999999-0071REMSYN082AAXX  14004 83339 32995 00910 10189 20162 39186 40166 333 10240 29080 55055 59007;EQDQ01  00002PRCP06
0186833390999992004071412004-14050-042617FM-12+088299999V0200901N007710042019N0100001N1+01691+01521101821ADDAA106000091GF106991061021004501001001KA1240N+01561MA1999999092001MD1999999+0051REMSYN076AAXX  14124 83339 32497 60915 10169 20152 39200 40182 86200 333 20156 58005;EQDQ01  00002PRCP06
0167833390999992004071418004-14050-042617FM-12+088299999V0200501N006710042019N0100001N1+02311+01551101431ADDAA106000091GF105991051021004501001001MA1999999091731MD1999999+0081REMSYN070AAXX  14184 83339 32497 50513 10231 20155 39173 40143 85200 333 58008;EQDQ01  00002PRCP06
0208833390999992004071500004-14050-042617FM-12+088299999V0200901N006212200019N0020001N1+01911+01341101791ADDAA106000091GA1001+999999999GF100991001001999999001001KA1240M+02361MA1999999091971MD1999999+0111REMSYN082AAXX  15004 83339 32995 00912 10191 20134 39197 40179 333 10236 29072 55046 58011;EQDQ01  00002PRCP06
0186833390999992004071512004-14050-042617FM-12+088299999V0200901N005712200019N0100001N1+01831+01551101811ADDAA106000091GF103991031021004501001001KA1240N+01561MA1999999092021MD1999999+0021REMSYN076AAXX  15124 83339 32497 30911 10183 20155 39202 40181 83200 333 20156 58002;EQDQ01  00002PRCP06
0167833390999992004071518004-14050-042617FM-12+088299999V0200901N005112200019N0100001N1+02211+01551101521ADDAA106000091GF104991041021004501001001MA1999999091771MD1999999+0041REMSYN070AAXX  15184 83339 32497 40910 10221 20155 39177 40152 84200 333 58004;EQDQ01  00002PRCP06
0198833390999992004071600004-14050-042617FM-12+088299999V0200901N005710042019N0020001N1+01731+01631101811ADDAA106000091GF108991051021004501021999KA1240M+02301MA1999999091991MD1999999+0021REMSYN088AAXX  16004 83339 32495 80911 10173 20163 39199 40181 8522/ 333 10230 29084 55049 58002;EQDQ01  00002PRCP06
0186833390999992004071612004-14050-042617FM-12+088299999V0200901N004610042019N0100001N1+01751+01541101951ADDAA106000091GF106991061021004501001001KA1240N+01581MA1999999092101MD1999999+0081REMSYN076AAXX  16124 83339 32497 60909 10175 20154 39210 40195 86200 333 20158 58008;EQDQ01  00002PRCP06
0167833390999992004071618004-14050-042617FM-12+088299999V0200501N003112200019N0100001N1+02451+01411101431ADDAA106000091GF102991021021004501001001MA1999999091731MD1999999-0041REMSYN070AAXX  16184 83339 32497 20506 10245 20141 39173 40143 82200 333 59004;EQDQ01  00002PRCP06
0208833390999992004071700004-14050-042617FM-12+088299999V0201401N002112200019N0020001N1+01941+01361101711ADDAA106000091GA1001+999999999GF100991001001999999001001KA1240M+02481MA1999999091931MD1999999-0061REMSYN082AAXX  17004 83339 32995 01404 10194 20136 39193 40171 333 10248 29069 55079 59006;EQDQ01  00002PRCP06
0186833390999992004071712004-14050-042617FM-12+088299999V0200501N003610042019N0100001N1+01841+01531101791ADDAA106000091GF106991061021004501001001KA1240N+01641MA1999999092021MD1999999-0081REMSYN076AAXX  17124 83339 32497 60507 10184 20153 39202 40179 86200 333 20164 59008;EQDQ01  00002PRCP06
0167833390999992004071718004-14050-042617FM-12+088299999V0200901N002612200019N0100001N1+02451+01381101371ADDAA106000091GF104991041021004501001001MA1999999091701MD1999999-0031REMSYN070AAXX  17184 83339 32497 40905 10245 20138 39170 40137 84200 333 59003;EQDQ01  00002PRCP06
0208833390999992004071800004-14050-042617FM-12+088299999V0201401N006212200019N0020001N1+01991+01481101661ADDAA106000091GA1001+999999999GF100991001001999999001001KA1240M+02551MA1999999091901MD1999999-0031REMSYN082AAXX  18004 83339 32995 01412 10199 20148 39190 40166 333 10255 29069 55073 59003;EQDQ01  00002PRCP06
0190833390999992004071812004-14050-042617FM-12+088299999V0200901N006710042019N0020001N1+01681+01621101931ADDAY161061AY241061GF108991051051004501021999KA1240N+01631MA1999999092131MD1999999+0111MW1401REMSYN088AAXX  18124 83339 21495 80913 10168 20162 39213 40193 74064 8552/ 333 20163 58011 60034;
0195833390999992004071818004-14050-042617FM-12+088299999V0200901N003110042019N0100001N1+02311+01551101581ADDAA106000091AY141061AY221061GF106991061021004501001001MA1999999091861MD1999999+0161MW1021REMSYN076AAXX  18184 83339 31497 60906 10231 20155 39186 40158 70242 86200 333 58016;EQDQ01  00002PRCP06
0198833390999992004071900004-14050-042617FM-12+088299999V0200901N005712200019N0020001N1+01941+01511101821ADDAA106000091GF103991031021004501001001KA1240M+02381MA1999999092001MD1999999+0101REMSYN088AAXX  19004 83339 32495 30911 10194 20151 39200 40182 83200 333 10238 29078 55042 58010;EQDQ01  00002PRCP06
0190833390999992004071912004-14050-042617FM-12+088299999V0200901N007210042019N0040001N1+01691+01601101991ADDAY161061AY261061GF108991081051004501999999KA1240N+01601MA1999999092151MD1999999+0021MW1401REMSYN088AAXX  19124 83339 21496 80914 10169 20160 39215 40199 74066 885// 333 20160 58002 69924;
0195833390999992004071918004-14050-042617FM-12+088299999V0200501N005112200019N0100001N1+02271+01251101551ADDAA106000091AY101061AY241061GF102991021021004501001001MA1999999091841MD1999999-0021MW1021REMSYN076AAXX  19184 83339 31497 20510 10227 20125 39184 40155 70204 82200 333 59002;EQDQ01  00002PRCP06
0208833390999992004072000004-14050-042617FM-12+088299999V0201401N006712200019N0020001N1+01871+01321101731ADDAA106000091GA1001+999999999GF100991001001999999001001KA1240M+02361MA1999999091931MD1999999-0071REMSYN082AAXX  20004 83339 32995 01413 10187 20132 39193 40173 333 10236 29072 55078 59007;EQDQ01  00002PRCP06
0195833390999992004072012004-14050-042617FM-12+088299999V0201401N005110042019N0040001N1+01591+01551101861ADDAA106000021AY101061AY201061GF108991081051004501999999KA1240N+01541MA1999999092021MD1999999-0131MW1601REMSYN082AAXX  20124 83339 31496 81410 10159 20155 39202 40186 76000 885// 333 20154 59013;
0176833390999992004072018004-14050-042617FM-12+088299999V0200501N003112200019N0100001N1+02331+01371101431ADDAA106000021AY101061AY251061GF102991021021004501001001MA1999999091711MD1999999-0131MW1021REMSYN076AAXX  20184 83339 31497 20506 10233 20137 39171 40143 70205 82200 333 59013;
0208833390999992004072100004-14050-042617FM-12+088299999V0201401N006212200019N0020001N1+01951+01421101651ADDAA106000091GA1001+999999999GF100991001001999999001001KA1240M+02401MA1999999091831MD1999999-0101REMSYN082AAXX  21004 83339 32995 01412 10195 20142 39183 40165 333 10240 29074 55056 59010;EQDQ01  00002PRCP06
0214833390999992004072112004-14050-042617FM-12+088299999V0201401N007210042019N0040001N1+01611+01471101681ADDAA106000091AY101061AY201061GF108991081051004501999999KA1240N+01611MA1999999091881MD1999999-0141MW1101REMSYN082AAXX  21124 83339 31496 81414 10161 20147 39188 40168 71000 885// 333 20161 59014;EQDQ01  00002PRCP06
0167833390999992004072118004-14050-042617FM-12+088299999V0201401N004112200019N0100001N1+02211+01141101361ADDAA106000091GF102991021021004501001001MA1999999091631MD1999999-0081REMSYN070AAXX  21184 83339 32497 21408 10221 20114 39163 40136 82200 333 59008;EQDQ01  00002PRCP06
0198833390999992004072200004-14050-042617FM-12+088299999V0201401N008712200019N0020001N1+01671+01171101701ADDAA106000091GF102991021021004501001001KA1240M+02301MA1999999091841MD1999999+0011REMSYN088AAXX  22004 83339 32495 21417 10167 20117 39184 40170 82200 333 10230 29071 55058 58001;EQDQ01  00002PRCP06
0186833390999992004072212004-14050-042617FM-12+088299999V0200501N005110042019N0100001N1+01371+00981101981ADDAA106000091GF106991061021004501001001KA1240N+01231MA1999999092031MD1999999+0151REMSYN076AAXX  22124 83339 32497 60510 10137 20098 39203 40198 86200 333 20123 58015;EQDQ01  00002PRCP06
0167833390999992004072218004-14050-042617FM-12+088299999V0201401N006712200019N0100001N1+01991+00881101631ADDAA106000091GF102991021021004501001001MA1999999091751MD1999999+0121REMSYN070AAXX  22184 83339 32497 21413 10199 20088 39175 40163 82200 333 58012;EQDQ01  00002PRCP06
0208833390999992004072300004-14050-042617FM-12+088299999V0201401N007712200019N0020001N1+01371+00891102041ADDAA106000091GA1001+999999999GF100991001001999999001001KA1240M+02041MA1999999092021MD1999999+0181REMSYN082AAXX  23004 83339 32995 01415 10137 20089 39202 40204 333 10204 29068 55089 58018;EQDQ01  00002PRCP06
0214833390999992004072312004-14050-042617FM-12+088299999V0201401N007710042019N0100001N1+01271+00921102211ADDAA106000091AY101061AY201061GF106991051021004501021001KA1240N+01041MA1999999092151MD1999999+0121MW1101REMSYN082AAXX  23124 83339 31497 61415 10127 20092 39215 40221 71000 85220 333 20104 58012;EQDQ01  00002PRCP06
0167833390999992004072318004-14050-042617FM-12+088299999V0200501N005712200019N0100001N1+01971+00491101741ADDAA106000091GF102991011021004501021001MA1999999091851MD1999999+0101REMSYN070AAXX  23184 83339 32497 20511 10197 20049 39185 40174 81220 333 58010;EQDQ01  00002PRCP06
0186833390999992004072412004-14050-042617FM-12+088299999V0200501N005712200019N0100001N1+01351+00961102251ADDAA106000091GF102991011021004501021001KA1240N+00841MA1999999092251MD1999999+0101REMSYN076AAXX  24124 83339 32497 20511 10135 20096 39225 40225 81220 333 20084 58010;EQDQ01  00002PRCP06
0167833390999992004072418004-14050-042617FM-12+088299999V0201401N004112200019N0100001N1+02091+00711101891ADDAA106000091GF104991031021004501021001MA1999999091991MD1999999+0141REMSYN070AAXX  24184 83339 32497 41408 10209 20071 39199 40189 83220 333 58014;EQDQ01  00002PRCP06
0198833390999992004072500004-14050-042617FM-12+088299999V0201401N005112200019N0020001N1+01651+00791102131ADDAA106000091GF102991021021004501001001KA1240M+02201MA1999999092161MD1999999+0161REMSYN088AAXX  25004 83339 32495 21410 10165 20079 39216 40213 82200 333 10220 29059 55096 58016;EQDQ01  00002PRCP06
0214833390999992004072512004-14050-042617FM-12+088299999V0201401N003110042019N0100001N1+01431+01081102211ADDAA106000091AY101061AY201061GF106991061021004501001001KA1240N+01221MA1999999092251MD1999999+0001MW1101REMSYN082AAXX  25124 83339 31497 61406 10143 20108 39225 40221 71000 86200 333 20122 58000;EQDQ01  00002PRCP06
0167833390999992004072518004-14050-042617FM-12+088299999V02099999999992200019N0100001N1+02131+00671101781ADDAA106000091GF102991021021004501001001MA1999999091931MD1999999-0061REMSYN070AAXX  25184 83339 32497 205// 10213 20067 39193 40178 82200 333 59006;EQDQ01  00002PRCP06
0198833390999992004072600004-14050-042617FM-12+088299999V0200901N005112200019N0020001N1+01691+00821102041ADDAA106000091GF103991021021004501031001KA1240M+02241MA1999999092101MD1999999-0061REMSYN088AAXX  26004 83339 32495 30910 10169 20082 39210 40204 82230 333 10224 29059 55092 59006;EQDQ01  00002PRCP06
0186833390999992004072612004-14050-042617FM-12+088299999V0200901N008212200019N0100001N1+01571+00971102141ADDAA106000091GF102991021011004501001001KA1240N+01101MA1999999092241MD1999999-0011REMSYN076AAXX  26124 83339 32497 20916 10157 20097 39224 40214 82100 333 20110 59001;EQDQ01  00002PRCP06
0167833390999992004072618004-14050-042617FM-12+088299999V0200901N005112200019N0100001N1+02041+01961101901ADDAA106000091GF103991031021004501001001MA1999999092041MD1999999+0111REMSYN070AAXX  26184 83339 32497 30910 10204 20196 39204 40190 83200 333 58011;EQDQ01  00002PRCP06
0198833390999992004072700004-14050-042617FM-12+088299999V0200901N005710042019N0020001N1+01661+00981102231ADDAA106000091GF106991061021004501001001KA1240M+02121MA1999999092291MD1999999+0191REMSYN088AAXX  27004 83339 32495 60911 10166 20098 39229 40223 86200 333 10212 29061 55096 58019;EQDQ01  00002PRCP06
0186833390999992004072712004-14050-042617FM-12+088299999V0200901N008210450019N0100001N1+01431+01221102341ADDAA106000091GF108991041051004501021999KA1240N+01221MA1999999092371MD1999999+0131REMSYN076AAXX  27124 83339 32497 80916 10143 20122 39237 40234 8452/ 333 20122 58013;EQDQ01  00002PRCP06
0208833390999992004072800004-14050-042617FM-12+088299999V0201401N005112200019N0020001N1+01691+00871102061ADDAA106000091GA1001+999999999GF100991001001999999001001KA1240M+02281MA1999999092121MD1999999-0171REMSYN082AAXX  28004 83339 32995 01410 10169 20087 39212 40206 333 10228 29061 55068 59017;EQDQ01  00002PRCP06
0186833390999992004072812004-14050-042617FM-12+088299999V0200901N005110042019N0100001N1+01511+01161102231ADDAA106000091GF106991061021004501001001KA1240N+01311MA1999999092291MD1999999-0081REMSYN076AAXX  28124 83339 32497 60910 10151 20116 39229 40223 86200 333 20131 59008;EQDQ01  00002PRCP06
0177833390999992004072818004-14050-042617FM-12+088299999V0200901N006712200019N0100001N1+02181+00971101791ADDAA106000091GA1001+999999999GF100991001001999999001001MA1999999091951MD1999999-0021REMSYN064AAXX  28184 83339 32997 00913 10218 20097 39195 40179 333 59002;EQDQ01  00002PRCP06
0208833390999992004072900004-14050-042617FM-12+088299999V0200901N006712200019N0020001N1+01651+01111102021ADDAA106000091GA1001+999999999GF100991001001999999001001KA1240M+02221MA1999999092111MD1999999-0011REMSYN082AAXX  29004 83339 32995 00913 10165 20111 39211 40202 333 10222 29066 55069 59001;EQDQ01  00002PRCP06
0230833390999992004072912004-14050-042617FM-12+088299999V0201401N008212200019N0040001N1+01431+01171102141ADDAA106000091AY101061AY201061GF102991999021004501021999KA1240N+01241MA1999999092191MD1999999-0101MW1101REMSYN082AAXX  29124 83339 31496 21416 10143 20117 39219 40214 71000 8622/ 333 20124 59010;EQDQ01+000062SCOTLCQ02  00002PRCP06
0167833390999992004072918004-14050-042617FM-12+088299999V0201401N005712200019N0100001N1+02051+01051101371ADDAA106000091GF103991031021004501001001MA1999999091951MD1999999+0001REMSYN070AAXX  29184 83339 32497 31411 10205 20105 39195 40137 83200 333 58000;EQDQ01  00002PRCP06
0208833390999992004073000004-14050-042617FM-12+088299999V0200901N005112200019N0020001N1+01651+01171102041ADDAA106000091GA1001+999999999GF100991001001999999001001KA1240M+02141MA1999999092101MD1999999-0011REMSYN082AAXX  30004 83339 32995 00910 10165 20117 39210 40204 333 10214 29071 55073 59001;EQDQ01  00002PRCP06
0186833390999992004073012004-14050-042617FM-12+088299999V0200901N003610042019N0100001N1+01571+01291102121ADDAA106000091GF106991061021004501001001KA1240N+01421MA1999999092191MD1999999+0001REMSYN076AAXX  30124 83339 32497 60907 10157 20129 39219 40212 86200 333 20142 58000;EQDQ01  00002PRCP06
0167833390999992004073018004-14050-042617FM-12+088299999V0200501N002612200019N0100001N1+02311+01221101631ADDAA106000091GF102991021021004501001001MA1999999092111MD1999999-0081REMSYN070AAXX  30184 83339 32497 20505 10231 20122 39211 40163 82200 333 59008;EQDQ01  00002PRCP06
0208833390999992004073100004-14050-042617FM-12+088299999V0201401N005712200019N0020001N1+01881+01231101901ADDAA106000091GA1001+999999999GF100991001001999999001001KA1240M+02361MA1999999092041MD1999999-0061REMSYN082AAXX  31004 83339 32995 01411 10188 20123 39204 40190 333 10236 29066 55082 59006;EQDQ01  00002PRCP06
0186833390999992004073112004-14050-042617FM-12+088299999V0200901N003110042019N0100001N1+01611+01441102101ADDAA106000091GF108991081061004501999999KA1240N+01511MA1999999092241MD1999999+0051REMSYN076AAXX  31124 83339 32497 80906 10161 20144 39224 40210 886// 333 20151 58005;EQDQ01  00002PRCP06
0167833390999992004073118004-14050-042617FM-12+088299999V0200501N002112200019N0100001N1+02561+01101101431ADDAA106000091GF104991041021004501001001MA1999999091771MD1999999-0101REMSYN070AAXX  31184 83339 32497 40504 10256 20110 39177 40143 84200 333 59010;EQDQ01  00002PRCP06
0198833390999992004080100004-14050-042617FM-12+088299999V0200901N002612200019N0020001N1+02051+01071101691ADDAA106000091GF104991041021004501001001KA1240M+02631MA1999999091911MD1999999-0131REMSYN088AAXX  01004 83339 32495 40905 10205 20107 39191 40169 84200 333 10263 29059 55072 59013;EQDQ01  00002PRCP06
0186833390999992004080112004-14050-042617FM-12+088299999V0200901N004110042019N0100001N1+01731+01521101901ADDAA106000091GF108991051061004501021999KA1240N+01561MA1999999092121MD1999999-0121REMSYN076AAXX  01124 83339 32497 80908 10173 20152 39212 40190 8562/ 333 20156 59012;EQDQ01  00002PRCP06
0167833390999992004080118004-14050-042617FM-12+088299999V0200901N004110042019N0100001N1+02511+01341101391ADDAA106000091GF105991051021004501001001MA1999999091721MD1999999-0051REMSYN070AAXX  01184 83339 32497 50908 10251 20134 39172 40139 85200 333 59005;EQDQ01  00002PRCP06
0198833390999992004080200004-14050-042617FM-12+088299999V0201401N003110450019N0020001N1+02151+01321101651ADDAA106000091GF105991031021004501031001KA1240M+02621MA1999999091911MD1999999+0001REMSYN088AAXX  02004 83339 32495 51406 10215 20132 39191 40165 83230 333 10262 29063 55062 58000;EQDQ01  00002PRCP06
0186833390999992004080212004-14050-042617FM-12+088299999V0200901N002612200019N0100001N1+01951+01461101741ADDAA106000091GF104991011011004501031001KA1240N+01601MA1999999092041MD1999999-0081REMSYN076AAXX  02124 83339 32497 40905 10195 20146 39204 40174 81130 333 20160 59008;EQDQ01  00002PRCP06
0167833390999992004080218004-14050-042617FM-12+088299999V0201401N004612200019N0100001N1+02631+01171101321ADDAA106000091GF102991021021004501001001MA1999999091691MD1999999-0031REMSYN070AAXX  02184 83339 32497 21409 10263 20117 39169 40132 82200 333 59003;EQDQ01  00002PRCP06
0208833390999992004080300004-14050-042617FM-12+088299999V0201401N006712200019N0020001N1+02111+01041101631ADDAA106000091GA1001+999999999GF100991001001999999001001KA1240M+02661MA1999999091911MD1999999+0001REMSYN082AAXX  03004 83339 32995 01413 10211 20104 39191 40163 333 10266 29054 55082 58000;EQDQ01  00002PRCP06
0186833390999992004080312004-14050-042617FM-12+088299999V0201401N005712200019N0100001N1+01831+01431101881ADDAA106000091GF102991021021004501001001KA1240N+01541MA1999999092121MD1999999+0081REMSYN076AAXX  03124 83339 32497 21411 10183 20143 39212 40188 82200 333 20154 58008;EQDQ01  00002PRCP06
0167833390999992004080318004-14050-042617FM-12+088299999V0200501N007212200019N0100001N1+02451+00661101501ADDAA106000091GF102991021021004501001001MA1999999091841MD1999999+0151REMSYN070AAXX  03184 83339 32497 20514 10245 20066 39184 40150 82200 333 58015;EQDQ01  00002PRCP06
0208833390999992004080400004-14050-042617FM-12+088299999V0201401N004612200019N0020001N1+01871+00741101821ADDAA106000091GA1001+999999999GF100991001001999999001001KA1240M+02541MA1999999092031MD1999999+0121REMSYN082AAXX  04004 83339 32995 01409 10187 20074 39203 40182 333 10254 29052 55101 58012;EQDQ01  00002PRCP06
0186833390999992004080412004-14050-042617FM-12+088299999V0200501N008712200019N0100001N1+01611+01181102131ADDAA106000091GF104991041021004501001001KA1240N+01401MA1999999092261MD1999999+0141REMSYN076AAXX  04124 83339 32497 40517 10161 20118 39226 40213 84200 333 20140 58014;EQDQ01  00002PRCP06
0167833390999992004080418004-14050-042617FM-12+088299999V0201401N004612200019N0100001N1+02391+00701101671ADDAA106000091GF102991021021004501001001MA1999999091931MD1999999+0091REMSYN070AAXX  04184 83339 32497 21409 10239 20070 39193 40167 82200 333 58009;EQDQ01  00002PRCP06
0198833390999992004080500004-14050-042617FM-12+088299999V0201401N004612200019N0020001N1+01831+00851101921ADDAA106000091GF102991021021004501001001KA1240M+02441MA1999999092051MD1999999+0021REMSYN088AAXX  05004 83339 32495 21409 10183 20085 39205 40192 82200 333 10244 29055 55099 58002;EQDQ01  00002PRCP06
0214833390999992004080512004-14050-042617FM-12+088299999V0201401N005710042019N0040001N1+02391+01221102071ADDAA106000091AY101061AY201061GF107991061021004501021999KA1240N+01441MA1999999092191MD1999999-0071MW1101REMSYN082AAXX  05124 83339 31496 71411 10239 20122 39219 40207 71000 8622/ 333 20144 59007;EQDQ01  00002PRCP06
0208833390999992004080600004-14050-042617FM-12+088299999V0201401N009312200019N0020001N1+01831+01131101951ADDAA106000091GA1001+999999999GF100991001001999999001001KA1240M+02081MA1999999092081MD1999999+0031REMSYN082AAXX  06004 83339 32995 01418 10183 20113 39208 40195 333 10208 29067 55045 58003;EQDQ01  00002PRCP06
0214833390999992004080612004-14050-042617FM-12+088299999V0201401N004610042019N0100001N1+01691+01331102061ADDAA106000091AY101061AY201061GF106991061021004501001001KA1240N+01481MA1999999092201MD1999999+0011MW1101REMSYN082AAXX  06124 83339 31497 61409 10169 20133 39220 40206 71000 86200 333 20148 58001;EQDQ01  00002PRCP06
0167833390999992004080618004-14050-042617FM-12+088299999V0200501N004612200019N0100001N1+02311+00981101651ADDAA106000091GF102991021021004501001001MA1999999091911MD1999999-0021REMSYN070AAXX  06184 83339 32497 20509 10231 20098 39191 40165 82200 333 59002;EQDQ01  00002PRCP06
0214833390999992004080712004-14050-042617FM-12+088299999V0200501N004110042019N0100001N1+01751+01491102121ADDAA106000091AY101061AY201061GF106991061021004501001001KA1240N+01581MA1999999092291MD1999999+0091MW1101REMSYN082AAXX  07124 83339 31497 60508 10175 20149 39229 40212 71000 86200 333 20158 58009;EQDQ01  00002PRCP06
0167833390999992004080718004-14050-042617FM-12+088299999V0200501N000512200019N0100001N1+02591+00741101571ADDAA106000091GF102991021021004501001001MA1999999091901MD1999999-0011REMSYN070AAXX  07184 83339 32497 20501 10259 20074 39190 40157 82200 333 59001;EQDQ01  00002PRCP06
0208833390999992004080800004-14050-042617FM-12+088299999V0201801N001012200019N0020001N1+01991+00751101881ADDAA106000091GA1001+999999999GF100991001001999999001001KA1240M+02721MA1999999092071MD1999999+0021REMSYN082AAXX  08004 83339 32995 01802 10199 20075 39207 40188 333 10272 29052 55088 58002;EQDQ01  00002PRCP06
0186833390999992004080812004-14050-042617FM-12+088299999V0200501N003112200019N0100001N1+01931+01511101931ADDAA106000091GF103991031021004501001001KA1240N+01541MA1999999092161MD1999999+0131REMSYN076AAXX  08124 83339 32497 30506 10193 20151 39216 40193 83200 333 20154 58013;EQDQ01  00002PRCP06
0167833390999992004080818004-14050-042617FM-12+088299999V0200501N002112200019N0100001N1+02611+00851101411ADDAA106000091GF102991021021004501001001MA1999999091791MD1999999-0111REMSYN070AAXX  08184 83339 32497 20504 10261 20085 39179 40141 82200 333 59011;EQDQ01  00002PRCP06
0198833390999992004080900004-14050-042617FM-12+088299999V0209999C000012200019N0020001N1+02131+00811101621ADDAA106000091GF102991021021004501001001KA1240M+02781MA1999999091931MD1999999-0141REMSYN088AAXX  09004 83339 32495 20000 10213 20081 39193 40162 82200 333 10278 29050 55094 59014;EQDQ01  00002PRCP06
0186833390999992004080912004-14050-042620FM-12+088299999V0200901N004612200019N0100001N1+02061+01491101931ADDAA106000091GF102991021011004501001001KA1240N+01701MA1999999092231MD1999999+0071REMSYN076AAXX  09124 83339 32497 20909 10206 20149 39223 40193 82100 333 20170 58007;EQDQ01  00002PRCP06
0167833390999992004080918004-14050-042620FM-12+088299999V0200501N003112200019N0100001N1+02521+01171101481ADDAA106000091GF103991031021004501001001MA1999999091851MD1999999+0061REMSYN070AAXX  09184 83339 32497 30506 10252 20117 39185 40148 83200 333 58006;EQDQ01  00002PRCP06
0186833390999992004081012004-14050-042620FM-12+088299999V0200901N008210042019N0100001N1+01441+01281102281ADDAA106000091GF106991061021004501001001KA1240N+01361MA1999999092381MD1999999+0151REMSYN076AAXX  10124 83339 32497 60916 10144 20128 39238 40228 86200 333 20136 58015;EQDQ01  00002PRCP06
0167833390999992004081018004-14050-042620FM-12+088299999V0200501N006212200019N0100001N1+02181+01211101801ADDAA106000091GF102991021011004501001001MA1999999092031MD1999999+0181REMSYN070AAXX  10184 83339 32497 20512 10218 20121 39203 40180 82100 333 58018;EQDQ01  00002PRCP06
0208833390999992004081100004-14050-042620FM-12+088299999V0200901N005712200019N0020001N1+01631+01261102251ADDAA106000091GA1001+999999999GF100991001001999999001001KA1240M+02221MA1999999092291MD1999999+0161REMSYN082AAXX  11004 83339 32995 00911 10163 20126 39229 40225 333 10222 29075 55072 58016;EQDQ01  00002PRCP06
0186833390999992004081112004-14050-042617FM-12+088299999V0201401N004612200019N0100001N1+01561+01141102321ADDAA106000091GF104991041021004501001001KA1240N+01341MA1999999092371MD1999999-0011REMSYN076AAXX  11124 83339 32497 41409 10156 20114 39237 40232 84200 333 20134 59001;EQDQ01  00002PRCP06
0183833390999992004081118004-14050-042617FM-12+088299999V0200501N002112200019N0100001N1+02261+00971101751ADDAA106000091GF102991001001999999001011MA1999999091961MD1999999-0071REMSYN070AAXX  11184 83339 32897 20504 10226 20097 39196 40175 80001 333 59007;EQDQ01+022502SCOLCBQ02  00002PRCP06
0208833390999992004081200004-14050-042620FM-12+088299999V0200901N004112200019N0020001N1+01791+00801101991ADDAA106000091GA1001+999999999GF100991001001999999001001KA1240M+02271MA1999999092121MD1999999-0171REMSYN082AAXX  12004 83339 32995 00908 10179 20080 39212 40199 333 10227 29056 55103 59017;EQDQ01  00002PRCP06
0186833390999992004081212004-14050-042620FM-12+088299999V0200901N004110042019N0100001N1+01421+01191102351ADDAA106000091GF108991051061004501021999KA1240N+01231MA1999999092401MD1999999+0031REMSYN076AAXX  12124 83339 32497 80908 10142 20119 39240 40235 8562/ 333 20123 58003;EQDQ01  00002PRCP06
0183833390999992004081218004-14050-042620FM-12+088299999V0200901N005712200019N0100001N1+02271+00891101791ADDAA106000091GF102991001001999999001011MA1999999091971MD1999999+0011REMSYN070AAXX  12184 83339 32897 20911 10227 20089 39197 40179 80001 333 58001;EQDQ01+022502SCOLCBQ02  00002PRCP06
0208833390999992004081300004-14050-042620FM-12+088299999V0209999C000012200019N0020001N1+01781+00811102111ADDAA106000091GA1001+999999999GF100991001001999999001001KA1240M+02321MA1999999092181MD1999999+0061REMSYN082AAXX  13004 83339 32995 00000 10178 20081 39218 40211 333 10232 29058 55076 58006;EQDQ01  00002PRCP06
0186833390999992004081312004-14050-042620FM-12+088299999V0200901N006212200019N0100001N1+01521+01041102351ADDAA106000091GF104991041021004501001001KA1240N+01221MA1999999092431MD1999999+0031REMSYN076AAXX  13124 83339 32497 40912 10152 20104 39243 40235 84200 333 20122 58003;EQDQ01  00002PRCP06
0183833390999992004081318004-14050-042620FM-12+088299999V0201401N005112200019N0100001N1+02191+00701101781ADDAA106000091GF102991001001999999001041MA1999999091961MD1999999-0011REMSYN070AAXX  13184 83339 32497 21410 10219 20070 39196 40178 80004 333 59001;EQDQ01+004502SCOLCBQ02  00002PRCP06
0208833390999992004081400004-14050-042620FM-12+088299999V0201401N004112200019N0020001N1+01651+00751102101ADDAA106000091GA1001+999999999GF100991001001999999001001KA1240M+02201MA1999999092151MD1999999-0031REMSYN082AAXX  14004 83339 32995 01408 10165 20075 39215 40210 333 10220 29055 55095 59003;EQDQ01  00002PRCP06
0186833390999992004081412004-14050-042620FM-12+088299999V0200901N007710042019N0100001N1+01481+00921102381ADDAA106000091GF106991061021004501001001KA1240N+01151MA1999999092411MD1999999-0021REMSYN076AAXX  14124 83339 32497 60915 10148 20092 39241 40238 86200 333 20115 59002;EQDQ01  00002PRCP06
0167833390999992004081418004-14050-042620FM-12+088299999V0200901N005712200019N0100001N1+02181+00801101821ADDAA106000091GF105991021011004501001011MA1999999091981MD1999999+0021REMSYN070AAXX  14184 83339 32497 50911 10218 20080 39198 40182 82101 333 58002;EQDQ01  00002PRCP06
0208833390999992004081500004-14050-042620FM-12+088299999V0201401N004112200019N0020001N1+01751+00871102101ADDAA106000091GA1001+999999999GF100991001001999999001001KA1240M+02261MA1999999092171MD1999999+0021REMSYN082AAXX  15004 83339 32995 01408 10175 20087 39217 40210 333 10226 29056 55083 58002;EQDQ01  00002PRCP06
0186833390999992004081512004-14050-042620FM-12+088299999V0200901N005110042019N0100001N1+01501+01141102301ADDAA106000091GF106991061021004501001001KA1240N+01301MA1999999092351MD1999999-0061REMSYN076AAXX  15124 83339 32497 60910 10150 20114 39235 40230 86200 333 20130 59006;EQDQ01  00002PRCP06
0167833390999992004081518004-14050-042620FM-12+088299999V0200501N004612200019N0100001N1+02251+00941101771ADDAA106000091GF102991021011004501001001MA1999999091951MD1999999-0031REMSYN070AAXX  15184 83339 32497 20509 10225 20094 39195 40177 82100 333 59003;EQDQ01  00002PRCP06
0208833390999992004081600004-14050-042620FM-12+088299999V0201401N002612200019N0020001N1+01831+00841102031ADDAA106000091GA1001+999999999GF100991001001999999001001KA1240M+02301MA1999999092141MD1999999-0031REMSYN082AAXX  16004 83339 32995 01405 10183 20084 39214 40203 333 10230 29056 55080 59003;EQDQ01  00002PRCP06
0214833390999992004081612004-14050-042620FM-12+088299999V0200901N007210042019N0100001N1+01631+01311102101ADDAA106000091AY101061AY201061GF106991061021004501001001KA1240N+01441MA1999999092241MD1999999-0111MW1101REMSYN082AAXX  16124 83339 31497 60914 10163 20131 39224 40210 71000 86200 333 20144 59011;EQDQ01  00002PRCP06
0177833390999992004081618004-14050-042620FM-12+088299999V0200501N002612200019N0100001N1+02431+00821101611ADDAA106000091GA1001+999999999GF100991001001999999001001MA1999999091891MD1999999-0061REMSYN064AAXX  16184 83339 32997 00505 10243 20082 39189 40161 333 59006;EQDQ01  00002PRCP06
0208833390999992004081700004-14050-042620FM-12+088299999V0200901N002612200019N0020001N1+01871+01771101721ADDAA106000091GA1001+999999999GF100991001001999999001001KA1240M+02501MA1999999091941MD1999999-0201REMSYN082AAXX  17004 83339 32995 00905 10187 20177 39194 40172 333 10250 29054 55100 59020;EQDQ01  00002PRCP06
0214833390999992004081712004-14050-042620FM-12+088299999V0200901N005110042019N0040001N1+01651+01441102061ADDAA106000091AY101061AY201061GF107991061021004501021999KA1240N+01501MA1999999092201MD1999999-0041MW1101REMSYN082AAXX  17124 83339 31496 70910 10165 20144 39220 40206 71000 8622/ 333 20150 59004;EQDQ01  00002PRCP06
0167833390999992004081718004-14050-042620FM-12+088299999V0200501N002112200019N0100001N1+02471+01051101511ADDAA106000091GF102991021021004501001001MA1999999091801MD1999999-0091REMSYN070AAXX  17184 83339 32497 20504 10247 20105 39180 40151 82200 333 59009;EQDQ01  00002PRCP06
0208833390999992004081800004-14050-042620FM-12+088299999V0203601N001512200019N0020001N1+01931+00941101661ADDAA106000091GA1001+999999999GF100991001001999999001001KA1240M+02601MA1999999091871MD1999999-0071REMSYN082AAXX  18004 83339 32995 03603 10193 20094 39187 40166 333 10260 29058 55074 59007;EQDQ01  00002PRCP06
0214833390999992004081812004-14050-042620FM-12+088299999V0200501N004110042019N0040001N1+01731+01501101941ADDAA106000091AY101061AY201061GF106991061021004501001001KA1240N+01551MA1999999092141MD1999999-0061MW1101REMSYN082AAXX  18124 83339 31496 60508 10173 20150 39214 40194 71000 86200 333 20155 59006;EQDQ01  00002PRCP06
0167833390999992004081818004-14050-042620FM-12+088299999V0200501N003112200019N0100001N1+02531+01141101461ADDAA106000091GF102991021021004501001001MA1999999091801MD1999999+0001REMSYN070AAXX  18184 83339 32497 20506 10253 20114 39180 40146 82200 333 58000;EQDQ01  00002PRCP06
0208833390999992004081900004-14050-042620FM-12+088299999V0203601N003612200019N0020001N1+02131+01071101681ADDAA106000091GA1001+999999999GF100991001001999999001001KA1240M+02681MA1999999091941MD1999999+0071REMSYN082AAXX  19004 83339 32995 03607 10213 20107 39194 40168 333 10268 29057 55089 58007;EQDQ01  00002PRCP06
0214833390999992004081912004-14050-042620FM-12+088299999V0200501N005110042019N0040001N1+01731+01591102011ADDAA106000091AY101061AY201061GF107991061021004501031999KA1240N+01601MA1999999092301MD1999999+0161MW1101REMSYN082AAXX  19124 83339 31496 70510 10173 20159 39230 40201 71000 8623/ 333 20160 58016;EQDQ01  00002PRCP06
0167833390999992004081918004-14050-042620FM-12+088299999V0200501N002112200019N0100001N1+02611+01281101541ADDAA106000091GF103991031021004501001001MA1999999091891MD1999999+0091REMSYN070AAXX  19184 83339 32497 30504 10261 20128 39189 40154 83200 333 58009;EQDQ01  00002PRCP06
0208833390999992004082000004-14050-042620FM-12+088299999V0200501N001512200019N0020001N1+02111+01211101901ADDAA106000091GA1001+999999999GF100991001001999999001001KA1240M+02681MA1999999092051MD1999999+0111REMSYN082AAXX  20004 83339 32995 00503 10211 20121 39205 40190 333 10268 29062 55077 58011;EQDQ01  00002PRCP06
0214833390999992004082012004-14050-042620FM-12+088299999V0203601N005110042019N0100001N1+01871+01621101801ADDAA106000091AY101061AY201061GF106991061021004501001001KA1240N+01621MA1999999092131MD1999999-0171MW1101REMSYN082AAXX  20124 83339 31497 63610 10187 20162 39213 40180 71000 86200 333 20162 59017;EQDQ01  00002PRCP06
0167833390999992004082018004-14050-042620FM-12+088299999V0200501N002112200019N0100001N1+02551+01191101561ADDAA106000091GF102991021021004501001001MA1999999091771MD1999999-0121REMSYN070AAXX  20184 83339 32497 20504 10255 20119 39177 40156 82200 333 59012;EQDQ01  00002PRCP06
0208833390999992004082100004-14050-042620FM-12+088299999V02099999999992200019N0020001N1+02151+01111101641ADDAA106000091GA1001+999999999GF100991001001999999001001KA1240M+02681MA1999999091921MD1999999-0131REMSYN082AAXX  21004 83339 32995 005// 10215 20111 39192 40164 333 10268 29059 55098 59013;EQDQ01  00002PRCP06
0186833390999992004082112004-14050-042620FM-12+088299999V0200501N007212200019N0100001N1+01931+01551101811ADDAA106000091GF103991031021004501001001KA1240N+01621MA1999999092091MD1999999-0041REMSYN076AAXX  21124 83339 32497 30514 10193 20155 39209 40181 83200 333 20162 59004;EQDQ01  00002PRCP06
0167833390999992004082118004-14050-042620FM-12+088299999V0200501N003612200019N0100001N1+02531+00991101401ADDAA106000091GF102991021021004501001001MA1999999091731MD1999999-0041REMSYN070AAXX  21184 83339 32497 20507 10253 20099 39173 40140 82200 333 59004;EQDQ01  00002PRCP06
0208833390999992004082200004-14050-042620FM-12+088299999V0203601N004612200019N0020001N1+02151+00901101571ADDAA106000091GA1001+999999999GF100991001001999999001001KA1240M+02631MA1999999091841MD1999999-0081REMSYN082AAXX  22004 83339 32995 03609 10215 20090 39184 40157 333 10263 29051 55099 59008;EQDQ01  00002PRCP06
0214833390999992004082212004-14050-042620FM-12+088299999V0200501N003610042019N0040001N1+01731+01551101711ADDAA106000091AY101061AY201061GF108991081051004501999999KA1240N+01561MA1999999091961MD1999999-0131MW1101REMSYN082AAXX  22124 83339 31496 80507 10173 20155 39196 40171 71000 885// 333 20156 59013;EQDQ01  00002PRCP06
0167833390999992004082218004-14050-042620FM-12+088299999V0203601N001512200019N0100001N1+02671+01151101261ADDAA106000091GF104991041021004501001001MA1999999091651MD1999999-0081REMSYN070AAXX  22184 83339 32497 43603 10267 20115 39165 40126 84200 333 59008;EQDQ01  00002PRCP06
0208833390999992004082300004-14050-042620FM-12+088299999V0203601N004112200019N0020001N1+02271+01071101471ADDAA106000091GA1001+999999999GF100991001001999999001001KA1240M+02781MA1999999091761MD1999999-0081REMSYN082AAXX  23004 83339 32995 03608 10227 20107 39176 40147 333 10278 29054 55076 59008;EQDQ01  00002PRCP06
0186833390999992004082312004-14050-042620FM-12+088299999V0200501N001510042019N0100001N1+01971+01591101761ADDAA106000091GF106991061021004501001001KA1240N+01681MA1999999092031MD1999999+0071REMSYN076AAXX  23124 83339 32497 60503 10197 20159 39203 40176 86200 333 20168 58007;EQDQ01  00002PRCP06
0167833390999992004082318004-14050-042620FM-12+088299999V0201401N002112200019N0100001N1+02941+01151101131ADDAA106000091GF103991031021004501001001MA1999999091601MD1999999-0051REMSYN070AAXX  23184 83339 32497 31404 10294 20115 39160 40113 83200 333 59005;EQDQ01  00002PRCP06
0198833390999992004082400004-14050-042620FM-12+088299999V0201801N001012200019N0020001N1+02231+01291101451ADDAA106000091GF103991031011004501001001KA1240M+03041MA1999999091791MD1999999+0031REMSYN088AAXX  24004 83339 32495 31802 10223 20129 39179 40145 83100 333 10304 29056 55086 58003;EQDQ01  00002PRCP06
0196833390999992004082412004-14050-042620FM-12+088299999V0200901N002112200019N0100001N1+02261+01621101511ADDAA106000091GA1001+999999999GF100991001001999999001001KA1240N+01581MA1999999091901MD1999999-0131REMSYN070AAXX  24124 83339 32497 00904 10226 20162 39190 40151 333 20158 59013;EQDQ01  00002PRCP06
0167833390999992004082418004-14050-042620FM-12+088299999V0201401N004112200019N0100001N1+02891+00811100991ADDAA106000091GF102991021011004501001001MA1999999091471MD1999999-0131REMSYN070AAXX  24184 83339 32497 21408 10289 20081 39147 40099 82100 333 59013;EQDQ01  00002PRCP06
0198833390999992004082500004-14050-042620FM-12+088299999V0201401N002612200019N0020001N1+02441+00751101301ADDAA106000091GF104991041021004501001001KA1240M+03041MA1999999091751MD1999999-0041REMSYN088AAXX  25004 83339 32495 41405 10244 20075 39175 40130 84200 333 10304 29040 55106 59004;EQDQ01  00002PRCP06
0196833390999992004082512004-14050-042620FM-12+088299999V0200901N006712200019N0500001N1+02061+01451101611ADDAA106000091GA1001+999999999GF100991001001999999001001KA1240N+01731MA1999999091991MD1999999+0091REMSYN070AAXX  25124 83339 32999 00913 10206 20145 39199 40161 333 20173 58009;EQDQ01  00002PRCP06
0177833390999992004082518004-14050-042617FM-12+088299999V0200501N003612200019N0100001N1+02751+00941101011ADDAA106000091GA1001+999999999GF100991001001999999001001MA1999999091511MD1999999+0041REMSYN064AAXX  25184 83339 32997 00507 10275 20094 39151 40101 333 58004;EQDQ01  00002PRCP06
0208833390999992004082600004-14050-042617FM-12+088299999V0200901N003112200019N0020001N1+02171+01121101391ADDAA106000091GA1001+999999999GF100991001001999999001001KA1240M+02801MA1999999091741MD1999999-0011REMSYN082AAXX  26004 83339 32995 00906 10217 20112 39174 40139 333 10280 29050 55107 59001;EQDQ01  00002PRCP06
0186833390999992004082612004-14050-042617FM-12+088299999V0200501N003612200019N0100001N1+02091+01491101581ADDAA106000091GF102991021021004501001001KA1240N+01621MA1999999091911MD1999999-0081REMSYN076AAXX  26124 83339 32497 20507 10209 20149 39191 40158 82200 333 20162 59008;EQDQ01  00002PRCP06
0177833390999992004082618004-14050-042617FM-12+088299999V0200901N006212200019N0100001N1+02631+01131101101ADDAA106000091GA1001+999999999GF100991001001999999001001MA1999999091491MD1999999-0021REMSYN064AAXX  26184 83339 32997 00912 10263 20113 39149 40110 333 59002;EQDQ01  00002PRCP06
0208833390999992004082700004-14050-042617FM-12+088299999V0200901N002612200019N0020001N1+02291+01081101291ADDAA106000091GA1001+999999999GF100991001001999999001001KA1240M+02711MA1999999091681MD1999999-0061REMSYN082AAXX  27004 83339 32995 00905 10229 20108 39168 40129 333 10271 29050 55/// 59006;EQDQ01  00002PRCP06
0186833390999992004082712004-14050-042617FM-12+088299999V02099999999992200019N0100001N1+02081+01351101331ADDAA106000091GF102991021011004501001001KA1240N+01561MA1999999091721MD1999999-0191REMSYN076AAXX  27124 83339 32497 2//// 10208 20135 39172 40133 82100 333 20156 59019;EQDQ01  00002PRCP06
0177833390999992004082718004-14050-042617FM-12+088299999V02099999999992200019N0100001N1+02611+01081999999ADDAA106000091GA1001+999999999GF100991001001999999001001MA1999999091471MD1999999-0021REMSYN064AAXX  27184 83339 32997 0//// 10261 20108 39147 4//// 333 59002;EQDQ01  00002PRCP06
0208833390999992004082800004-14050-042617FM-12+088299999V0201401N007212200019N0020001N1+02291+01351101321ADDAA106000091GA1001+999999999GF100991001001999999001001KA1240M+02681MA1999999091711MD1999999+0031REMSYN082AAXX  28004 83339 32995 01414 10229 20135 39171 40132 333 10268 29053 55/// 58003;EQDQ01  00002PRCP06
0196833390999992004082812004-14050-042617FM-12+088299999V0200501N002112200019N0100001N1+02081+01621101481ADDAA106000091GA1001+999999999GF100991001001999999001001KA1240N+01901MA1999999091851MD1999999+0131REMSYN070AAXX  28124 83339 32997 00504 10208 20162 39185 40148 333 20190 58013;EQDQ01  00002PRCP06
0177833390999992004082818004-14050-042620FM-12+088299999V0202301N003112200019N0100001N1+02811+00741100821ADDAA106000091GA1001+999999999GF100991001001999999001001MA1999999091351MD1999999-0121REMSYN064AAXX  28184 83339 32997 02306 10281 20074 39135 40082 333 59012;EQDQ01  00002PRCP06
0208833390999992004082900004-14050-042620FM-12+088299999V0209999C000012200019N0020001N1+02401+00671101031ADDAA106000091GA1001+999999999GF100991001001999999001001KA1240M+02841MA1999999091471MD1999999-0241REMSYN082AAXX  29004 83339 32995 00000 10240 20067 39147 40103 333 10284 29042 55097 59024;EQDQ01  00002PRCP06
0196833390999992004082912004-14050-042620FM-12+088299999V0200501N001012200019N0100001N1+02301+01351101131ADDAA106000091GA1001+999999999GF100991001001999999001001KA1240N+02121MA1999999091601MD1999999-0151REMSYN070AAXX  29124 83339 32997 00502 10230 20135 39160 40113 333 20212 59015;EQDQ01  00002PRCP06
0167833390999992004082918004-14050-042620FM-12+088299999V0201801N002612200019N0100001N1+03371+00981100511ADDAA106000091GF102991021011004501001001MA1999999091201MD1999999-0151REMSYN070AAXX  29184 83339 32497 21805 10337 20098 39120 40051 82100 333 59015;EQDQ01  00002PRCP06
0198833390999992004083000004-14050-042620FM-12+088299999V0202301N002612200019N0020001N1+02951+00921100881ADDAA106000091GF102991021021004501001001KA1240M+03421MA1999999091471MD1999999+0001REMSYN088AAXX  30004 83339 32495 22305 10295 20092 39147 40088 82200 333 10342 29034 55103 58000;EQDQ01  00002PRCP06
0214833390999992004083012004-14050-042617FM-12+088299999V0201401N004610042019N0100001N1+02251+01941101301ADDAA106000091AY101061AY201061GF106991061021004501001001KA1240N+02001MA1999999091851MD1999999+0251MW1101REMSYN082AAXX  30124 83339 31497 61409 10225 20194 39185 40130 71000 86200 333 20200 58025;EQDQ01  00002PRCP06
0167833390999992004083018004-14050-042617FM-12+088299999V0201401N005112200019N0100001N1+02931+01641100871ADDAA106000091GF103991031021004501001001MA1999999091501MD1999999-0301REMSYN070AAXX  30184 83339 32497 31410 10293 20164 39150 40087 83200 333 59030;EQDQ01  00002PRCP06
0208833390999992004083100004-14050-042617FM-12+088299999V0201401N004612200019N0020001N1+02371+01611101271ADDAA106000091GA1001+999999999GF100991001001999999001001KA1240M+03201MA1999999091721MD1999999+0241REMSYN082AAXX  31004 83339 32995 01409 10237 20161 39172 40127 333 10320 29062 55088 58024;EQDQ01  00002PRCP06
0214833390999992004083112004-14050-042617FM-12+088299999V0200501N009810042019N0100001N1+02091+01821101571ADDAA106000091AY101061AY201061GF106991061021004501001001KA1240N+01831MA1999999091951MD1999999+0101MW1101REMSYN082AAXX  31124 83339 31497 60519 10209 20182 39195 40157 71000 86200 333 20183 58010;EQDQ01  00002PRCP06
0167833390999992004083118004-14050-042617FM-12+088299999V0200501N005112200019N0100001N1+02851+01431101151ADDAA106000091GF102991021021004501001001MA1999999091641MD1999999+0141REMSYN070AAXX  31184 83339 32497 20510 10285 20143 39164 40115 82200 333 58014;EQDQ01  00002PRCP06
0198833390999992004090100004-14050-042617FM-12+088299999V0201401N006212200019N0020001N1+02391+01341101431ADDAA106000091GF103991021021004501031001KA1240M+02921MA1999999091891MD1999999+0181REMSYN088AAXX  01004 83339 32495 31412 10239 20134 39189 40143 82230 333 10292 29057 55092 58018;EQDQ01  00002PRCP06
0186833390999992004090112004-14050-042617FM-12+088299999V0201401N008210042019N0100001N1+01991+01541101921ADDAA106000091GF105991051021004501001001KA1240N+01661MA1999999092251MD1999999+0301REMSYN076AAXX  01124 83339 32497 51416 10199 20154 39225 40192 85200 333 20166 58030;EQDQ01  00002PRCP06
0167833390999992004090118004-14050-042617FM-12+088299999V0201401N006212200019N0100001N1+02471+01191101551ADDAA106000091GF104991031021004501031001MA1999999091941MD1999999+0301REMSYN070AAXX  01184 83339 32497 41412 10247 20119 39194 40155 83230 333 58030;EQDQ01  00002PRCP06
0198833390999992004090200004-14050-042617FM-12+088299999V0201401N006212200019N0020001N1+02051+01111101771ADDAA106000091GF102991021021004501001001KA1240M+02601MA1999999092041MD1999999+0151REMSYN088AAXX  02004 83339 32495 21412 10205 20111 39204 40177 82200 333 10260 29058 55060 58015;EQDQ01  00002PRCP06
0214833390999992004090212004-14050-042617FM-12+088299999V0200501N006710042019N0100001N1+01691+01351102051ADDAA106000091AY101061AY201061GF105991051021004501001001KA1240N+01381MA1999999092241MD1999999-0011MW1101REMSYN082AAXX  02124 83339 31497 50513 10169 20135 39224 40205 71000 85200 333 20138 59001;EQDQ01  00002PRCP06
0167833390999992004090218004-14050-042617FM-12+088299999V0200501N006712200019N0100001N1+02471+01081101831ADDAA106000091GF104991031021004501001041MA1999999091941MD1999999+0001REMSYN070AAXX  02184 83339 32497 40513 10247 20108 39194 40183 83204 333 58000;EQDQ01  00002PRCP06
0208833390999992004090300004-14050-042617FM-12+088299999V0200901N001512200019N0020001N1+02011+01101101861ADDAA106000091GA1001+999999999GF100991001001999999001001KA1240M+02521MA1999999092061MD1999999+0021REMSYN082AAXX  03004 83339 32995 00903 10201 20110 39206 40186 333 10252 29058 55092 58002;EQDQ01  00002PRCP06
0186833390999992004090312004-14050-042617FM-12+088299999V0201401N003112200019N0100001N1+01891+01281101901ADDAA106000091GF102991021021004501001001KA1240N+01381MA1999999092161MD1999999-0081REMSYN076AAXX  03124 83339 32497 21406 10189 20128 39216 40190 82200 333 20138 59008;EQDQ01  00002PRCP06
0177833390999992004090318004-14050-042617FM-12+088299999V0200501N003112200019N0100001N1+02651+00541101471ADDAA106000091GA1001+999999999GF100991001001999999001001MA1999999091831MD1999999-0111REMSYN064AAXX  03184 83339 32997 00506 10265 20054 39183 40147 333 59011;EQDQ01  00002PRCP06
0208833390999992004090400004-14050-042617FM-12+088299999V0209999C000012200019N0020001N1+02071+00581101671ADDAA106000091GA1001+999999999GF100991001001999999001001KA1240M+02741MA1999999091851MD1999999-0211REMSYN082AAXX  04004 83339 32995 00000 10207 20058 39185 40167 333 10274 29043 55109 59021;EQDQ01  00002PRCP06
0196833390999992004090412004-14050-042617FM-12+088299999V0200501N004612200019N0100001N1+02051+01341101651ADDAA106000091GA1001+999999999GF100991001001999999001001KA1240N+01461MA1999999091951MD1999999-0211REMSYN070AAXX  04124 83339 32997 00509 10205 20134 39195 40165 333 20146 59021;EQDQ01  00002PRCP06
0208833390999992004090500004-14050-042617FM-12+088299999V0201401N005112200019N0020001N1+02191+00831101491ADDAA106000091GA1001+999999999GF100991001001999999001001KA1240M+02881MA1999999091831MD1999999-0021REMSYN082AAXX  05004 83339 32995 01410 10219 20083 39183 40149 333 10288 29042 55109 59002;EQDQ01  00002PRCP06
0214833390999992004090512004-14050-042617FM-12+088299999V0200501N006210042019N0100001N1+01851+01561101721ADDAA106000091AY101061AY201061GF105991051021004501001001KA1240N+01401MA1999999091991MD1999999+0041MW1101REMSYN082AAXX  05124 83339 31497 50512 10185 20156 39199 40172 71000 85200 333 20140 58004;EQDQ01  00002PRCP06
0167833390999992004090518004-14050-042617FM-12+088299999V0200501N007712200019N0100001N1+02571+01411101141ADDAA106000091GF102991021021004501001001MA1999999091571MD1999999-0071REMSYN070AAXX  05184 83339 32497 20515 10257 20141 39157 40114 82200 333 59007;EQDQ01  00002PRCP06
0208833390999992004090600004-14050-042617FM-12+088299999V0200901N001512200019N0020001N1+02131+01291101441ADDAA106000091GA1001+999999999GF100991001001999999001001KA1240M+02651MA1999999091741MD1999999-0091REMSYN082AAXX  06004 83339 32995 00903 10213 20129 39174 40144 333 10265 29062 55104 59009;EQDQ01  00002PRCP06
0186833390999992004090612004-14050-042617FM-12+088299999V0200501N005712200019N0100001N1+02031+01521101441ADDAA106000091GF104991041021004501001001KA1240N+01651MA1999999091781MD1999999-0211REMSYN076AAXX  06124 83339 32497 40511 10203 20152 39178 40144 84200 333 20165 59021;EQDQ01  00002PRCP06
0177833390999992004090618004-14050-042617FM-12+088299999V0201401N005112200019N0100001N1+02751+00521100921ADDAA106000091GA1001+999999999GF100991001001999999001001MA1999999091371MD1999999-0201REMSYN064AAXX  06184 83339 32497 01410 10275 20052 39137 40092 333 59020;EQDQ01  00002PRCP06
0186833390999992004090712004-14050-042617FM-12+088299999V0200901N005710042019N0100001N1+01801+01391101511ADDAA106000091GF106991061021004501001001KA1240N+01571MA1999999091801MD1999999+0021REMSYN076AAXX  07124 83339 32497 60911 10180 20139 39180 40151 86200 333 20157 58002;EQDQ01  00002PRCP06
0177833390999992004090718004-14050-042617FM-12+088299999V0200901N003112200019N0100001N1+02661+01071100971ADDAA106000091GA1001+999999999GF100991001001999999001001MA1999999091391MD1999999+0021REMSYN064AAXX  07184 83339 32997 00906 10266 20107 39139 40097 333 58002;EQDQ01  00002PRCP06
0208833390999992004090800004-14050-042617FM-12+088299999V0201401N005712200019N0020001N1+02131+00961101331ADDAA106000091GA1001+999999999GF100991001001999999001001KA1240M+02711MA1999999091621MD1999999+0081REMSYN082AAXX  08004 83339 32995 01411 10213 20096 39162 40133 333 10271 29052 55084 58008;EQDQ01  00002PRCP06
0196833390999992004090812004-14050-042617FM-12+088299999V0200901N007712200019N0020001N1+01901+01201101471ADDAA106000091GA1001+999999999GF100991001001999999001001KA1240N+01401MA1999999091761MD1999999-0041REMSYN070AAXX  08124 83339 32995 00915 10190 20120 39176 40147 333 20140 59004;EQDQ01  00002PRCP06
0177833390999992004090818004-14050-042617FM-12+088299999V0200501N005712200019N0100001N1+02581+00921100981ADDAA106000091GA1001+999999999GF100991001001999999001001MA1999999091401MD1999999+0011REMSYN064AAXX  08184 83339 32997 00511 10258 20092 39140 40098 333 58001;EQDQ01  00002PRCP06
0186833390999992004090912004-14050-042617FM-12+088299999V0200901N006712200019N0100001N1+01931+01141101611ADDAA106000091GF104991041021004501001001KA1240N+01441MA1999999091871MD1999999+0111REMSYN076AAXX  09124 83339 32497 40913 10193 20114 39187 40161 84200 333 20144 58011;EQDQ01  00002PRCP06
0177833390999992004090918004-14050-042617FM-12+088299999V0200901N005112200019N0100001N1+02581+01041101131ADDAA106000091GA1001+999999999GF100991001001999999001001MA1999999091481MD1999999+0081REMSYN064AAXX  09184 83339 32997 00910 10258 20104 39148 40113 333 58008;EQDQ01  00002PRCP06
0208833390999992004091000004-14050-042617FM-12+088299999V0201401N008212200019N0020001N1+02131+01061101411ADDAA106000091GA1001+999999999GF100991001001999999001001KA1240M+02681MA1999999091741MD1999999+0071REMSYN082AAXX  10004 83339 32995 01416 10213 20106 39174 40141 333 10268 29050 55103 58007;EQDQ01  00002PRCP06
0196833390999992004091012004-14050-042617FM-12+088299999V0201401N003112200019N0100001N1+01961+01351101631ADDAA106000091GA1001+999999999GF100991001001999999001001KA1240N+01521MA1999999091941MD1999999+0071REMSYN070AAXX  10124 83339 32997 01406 10196 20135 39194 40163 333 20152 58007;EQDQ01  00002PRCP06
0177833390999992004091018004-14050-042617FM-12+088299999V0201401N005112200019N0100001N1+02691+01021101071ADDAA106000091GA1001+999999999GF100991001001999999001001MA1999999091461MD1999999-0021REMSYN064AAXX  10184 83339 32997 01410 10269 20102 39146 40107 333 59002;EQDQ01  00002PRCP06
0208833390999992004091100004-14050-042617FM-12+088299999V0201401N005112200019N0020001N1+02271+00991999999ADDAA106000091GA1001+999999999GF100991001001999999001001KA1240M+02761MA1999999091611MD1999999-0131REMSYN082AAXX  11004 83339 32995 01410 10227 20099 39161 44012 333 10276 29048 55109 59013;EQDQ01  00002PRCP06
0186833390999992004091112004-14050-042617FM-12+088299999V0201401N005110042019N0100001N1+02001+01481101551ADDAA106000091GF106991061021004501001001KA1240N+01541MA1999999091901MD1999999-0041REMSYN076AAXX  11124 83339 32497 61410 10200 20148 39190 40155 86200 333 20154 59004;EQDQ01  00002PRCP06
0167833390999992004091118004-14050-042617FM-12+088299999V0201401N003112200019N0100001N1+02651+01231101091ADDAA106000091GF102991021011004501001001MA1999999091481MD1999999+0021REMSYN070AAXX  11184 83339 32497 21406 10265 20123 39148 40109 82100 333 58002;EQDQ01  00002PRCP06
0208833390999992004091200004-14050-042617FM-12+088299999V0200101N020612200019N0020001N1+02271+01091101351ADDAA106000091GA1001+999999999GF100991001001999999001001KA1240M+02721MA1999999091721MD1999999+0111REMSYN082AAXX  12004 83339 32995 00140 10227 20109 39172 40135 333 10272 29052 55085 58011;EQDQ01  00002PRCP06
0186833390999992004091212004-14050-042620FM-12+088299999V0200901N005112200019N0100001N1+01981+01401101721ADDAA106000091GF105991021011004501001041KA1240N+01651MA1999999092041MD1999999+0141REMSYN076AAXX  12124 83339 32497 50910 10198 20140 39204 40172 82104 333 20165 58014;EQDQ01  00002PRCP06
0167833390999992004091218004-14050-042617FM-12+088299999V0200901N005110450019N0100001N1+02541+01191101361ADDAA106000091GF106991021011004501031011MA1999999091731MD1999999+0251REMSYN070AAXX  12184 83339 32497 60910 10254 20119 39173 40136 82131 333 58025;EQDQ01  00002PRCP06
0240833390999992004091300004-14050-042617FM-12+088299999V0200901N005112200019N0020001N1+02131+01381101691ADDAA106000091GA1001+999999999GF100991001001999999001001KA1240M+02631MA1999999999999MD1999999+0271REMSYN082AAXX  13004 83339 32995 00910 10213 20138 39999 40169 333 10263 29059 55061 58027;EQDQ01+099993APOSP Q02  00002PRCP06Q03 099993APOSP 
0186833390999992004091312004-14050-042617FM-12+088299999V0201401N006710042019N0100001N1+01931+01361101961ADDAA106000091GF106991061021004501001001KA1240N+01621MA1999999092191MD1999999+0151REMSYN076AAXX  13124 83339 32497 61413 10193 20136 39219 40196 86200 333 20162 58015;EQDQ01  00002PRCP06
0167833390999992004091318004-14050-042617FM-12+088299999V0201401N007212200019N0100001N1+02531+01101101471ADDAA106000091GF102991021011004501001021MA1999999091691MD1999999-0041REMSYN070AAXX  13184 83339 32497 21414 10253 20110 39169 40147 82102 333 59004;EQDQ01  00002PRCP06
0226833390999992004091400004-14050-042617FM-12+088299999V0201401N005112200019N0020001N1+01911+01551101661ADDAA106000091AY101061AY201061GF102991021021004501001001KA1240M+02581MA1999999091921MD1999999-0071MW1101REMSYN094AAXX  14004 83339 31495 21410 10191 20155 39192 40166 71000 82200 333 10258 29068 55095 59007;EQDQ01  00002PRCP06
0190833390999992004091412004-14050-042617FM-12+088299999V0200501N006210042019N0040001N1+01791+01541101901ADDAY161061AY261061GF106991051021004501021001KA1240N+01581MA1999999092101MD1999999-0091MW1101REMSYN088AAXX  14124 83339 21496 60512 10179 20154 39210 40190 71066 85220 333 20158 59009 69984;
0167833390999992004091418004-14050-042617FM-12+088299999V0200501N005112200019N0100001N1+02551+00881101331ADDAA106000091GF102991021021004501001001MA1999999091731MD1999999+0041REMSYN070AAXX  14184 83339 32497 20510 10255 20088 39173 40133 82200 333 58004;EQDQ01  00002PRCP06
0198833390999992004091500004-14050-042617FM-12+088299999V0201401N004612200019N0020001N1+02051+01191101721ADDAA106000091GF102991021021004501001001KA1240M+02631MA1999999091951MD1999999+0031REMSYN088AAXX  15004 83339 32495 21409 10205 20119 39195 40172 82200 333 10263 29059 55076 58003;EQDQ01  00002PRCP06
0186833390999992004091512004-14050-042617FM-12+088299999V0201401N006712200019N0100001N1+01991+01371101811ADDAA106000091GF102991021021004501001001KA1240N+01541MA1999999092071MD1999999-0031REMSYN076AAXX  15124 83339 32497 21413 10199 20137 39207 40181 82200 333 20154 59003;EQDQ01  00002PRCP06
0167833390999992004091518004-14050-042617FM-12+088299999V0200501N003110450019N0100001N1+02731+00951101211ADDAA106000091GF105991041021004501021001MA1999999091591MD1999999-0141REMSYN070AAXX  15184 83339 32497 50506 10273 20095 39159 40121 84220 333 59014;EQDQ01  00002PRCP06
0198833390999992004091600004-14050-042617FM-12+088299999V0201401N003112200019N0020001N1+02251+01151101431ADDAA106000091GF102991021021004501001001KA1240M+02821MA1999999091731MD1999999-0221REMSYN088AAXX  16004 83339 32495 21406 10225 20115 39173 40143 82200 333 10282 29051 55091 59022;EQDQ01  00002PRCP06
0186833390999992004091612004-14050-042617FM-12+088299999V0201401N002110042019N0100001N1+01991+01571101491ADDAA106000091GF106991061021004501001001KA1240N+01551MA1999999091831MD1999999-0241REMSYN076AAXX  16124 83339 32497 61404 10199 20157 39183 40149 86200 333 20155 59024;EQDQ01  00002PRCP06
0177833390999992004091618004-14050-042617FM-12+088299999V0201401N006712200019N0100001N1+02751+00931101001ADDAA106000091GA1001+999999999GF100991001001999999001001MA1999999091461MD1999999-0131REMSYN064AAXX  16184 83339 32997 01413 10275 20093 39146 40100 333 59013;EQDQ01  00002PRCP06
0208833390999992004091700004-14050-042617FM-12+088299999V0200901N002612200019N0020001N1+02251+00961101321ADDAA106000091GA1001+999999999GF100991001001999999001001KA1240M+02841MA1999999091641MD1999999-0091REMSYN082AAXX  17004 83339 32995 00905 10225 20096 39164 40132 333 10284 29047 55086 59009;EQDQ01  00002PRCP06
0186833390999992004091712004-14050-042617FM-12+088299999V0200501N005112200019N0100001N1+02151+01461101541ADDAA106000091GF103991021021004501021001KA1240N+01721MA1999999091911MD1999999+0081REMSYN076AAXX  17124 83339 32497 30510 10215 20146 39191 40154 82220 333 20172 58008;EQDQ01  00002PRCP06
0167833390999992004091718004-14050-042617FM-12+088299999V0200501N005110450019N0100001N1+02891+00361101001ADDAA106000091GF105991041021004501021001MA1999999091501MD1999999+0041REMSYN070AAXX  17184 83339 32497 50510 10289 20036 39150 40100 84220 333 58004;EQDQ01  00002PRCP06
0208833390999992004091800004-14050-042617FM-12+088299999V0201401N004612200019N0020001N1+02371+00351101311ADDAA106000091GA1001+999999999GF100991001001999999001001KA1240M+02981MA1999999091721MD1999999+0081REMSYN082AAXX  18004 83339 32995 01409 10237 20035 39172 40131 333 10298 29035 55101 58008;EQDQ01  00002PRCP06
0167833390999992004091818004-14050-042617FM-12+088299999V0200501N005110042019N0100001N1+02731+00911101321ADDAA106000091GF106991051021004501021001MA1999999091541MD1999999+0041REMSYN070AAXX  18184 83339 32497 60510 10273 20091 39154 40132 85220 333 58004;EQDQ01  00002PRCP06
0198833390999992004091900004-14050-042620FM-12+088299999V0201401N005712200019N0020001N1+02371+00921101471ADDAA106000091GF102991011021004501021001KA1240M+02821MA1999999091731MD1999999+0011REMSYN088AAXX  19004 83339 32495 21411 10237 20092 39173 40147 81220 333 10282 29050 55085 58001;EQDQ01  00002PRCP06
0186833390999992004091912004-14050-042620FM-12+088299999V0200501N003612200019N0100001N1+02031+01361101671ADDAA106000091GF104991031021004501021001KA1240N+01631MA1999999091931MD1999999-0021REMSYN076AAXX  19124 83339 32497 40507 10203 20136 39193 40167 83220 333 20163 59002;EQDQ01  00002PRCP06
0167833390999992004091918004-14050-042620FM-12+088299999V0201401N004610042019N0100001N1+02731+00861101061ADDAA106000091GF106991051021004501021001MA1999999091501MD1999999-0041REMSYN070AAXX  19184 83339 32497 61409 10273 20086 39150 40106 85220 333 59004;EQDQ01  00002PRCP06
0198833390999992004092000004-14050-042620FM-12+088299999V0200901N003112200019N0020001N1+02271+00831101261ADDAA106000091GF102991021021004501001001KA1240M+02841MA1999999091641MD1999999-0091REMSYN088AAXX  20004 83339 32495 20906 10227 20083 39164 40126 82200 333 10284 29049 55102 59009;EQDQ01  00002PRCP06
0186833390999992004092012004-14050-042617FM-12+088299999V0200901N005110042019N0100001N1+01851+01491101601ADDAA106000091GF106991061021004501001001KA1240N+01741MA1999999091911MD1999999-0021REMSYN076AAXX  20124 83339 32497 60910 10185 20149 39191 40160 86200 333 20174 59002;EQDQ01  00002PRCP06
0167833390999992004092018004-14050-042617FM-12+088299999V0201401N004110450019N0100001N1+02521+01401101141ADDAA106000091GF106991021011004501061001MA1999999091531MD1999999+0031REMSYN070AAXX  20184 83339 32497 61408 10252 20140 39153 40114 82160 333 58003;EQDQ01  00002PRCP06
0198833390999992004092100004-14050-042617FM-12+088299999V0200901N006212200019N0020001N1+02251+01171101461ADDAA106000091GF104991041021004501001001KA1240M+02561MA1999999091781MD1999999+0141REMSYN088AAXX  21004 83339 32495 40912 10225 20117 39178 40146 84200 333 10256 29057 55011 58014;EQDQ01  00002PRCP06
0167833390999992004092118004-14050-042617FM-12+088299999V0200501N005112200019N0100001N1+02751+01081101161ADDAA106000091GF102991021011004501001001MA1999999091591MD1999999+0061REMSYN070AAXX  21184 83339 32497 20510 10275 20108 39159 40116 82100 333 58006;EQDQ01  00002PRCP06
0208833390999992004092200004-14050-042617FM-12+088299999V0201401N004112200019N0020001N1+02231+00991101561ADDAA106000091GA1001+999999999GF100991001001999999001001KA1240M+02771MA1999999091891MD1999999+0111REMSYN082AAXX  22004 83339 32995 01408 10223 20099 39189 40156 333 10277 29048 55092 58011;EQDQ01  00002PRCP06
0186833390999992004092212004-14050-042617FM-12+088299999V0200901N005110042019N0100001N1+02081+01511101331ADDAA106000091GF106991061021004501001001KA1240N+01701MA1999999091701MD1999999-0291REMSYN076AAXX  22124 83339 32497 60910 10208 20151 39170 40133 86200 333 20170 59029;EQDQ01  00002PRCP06
0167833390999992004092218004-14050-042617FM-12+088299999V0200501N004112200019N0100001N1+02771+01331101331ADDAA106000091GF103991031021004501001001MA1999999091761MD1999999+0171REMSYN070AAXX  22184 83339 32497 30508 10277 20133 39176 40133 83200 333 58017;EQDQ01  00002PRCP06
0208833390999992004092300004-14050-042617FM-12+088299999V0201401N003612200019N0020001N1+02431+01201101521ADDAA106000091GA1001+999999999GF100991001001999999001001KA1240M+02821MA1999999091911MD1999999+0021REMSYN082AAXX  23004 83339 32995 01407 10243 20120 39191 40152 333 10282 29051 55102 58002;EQDQ01  00002PRCP06
0196833390999992004092312004-14050-042617FM-12+088299999V0200901N004112200019N0100001N1+02101+01461101691ADDAA106000091GA1001+999999999GF100991001001999999001001KA1240N+01631MA1999999092061MD1999999-0141REMSYN070AAXX  23124 83339 32997 00908 10210 20146 39206 40169 333 20163 59014;EQDQ01  00002PRCP06
0177833390999992004092318004-14050-042617FM-12+088299999V0200901N003112200019N0100001N1+02871+01141101141ADDAA106000091GA1001+999999999GF100991001001999999001001MA1999999091591MD1999999-0171REMSYN064AAXX  23184 83339 32997 00906 10287 20114 39159 40114 333 59017;EQDQ01  00002PRCP06
0208833390999992004092400004-14050-042617FM-12+088299999V0200901N002112200019N0020001N1+02361+01031101401ADDAA106000091GA1001+999999999GF100991001001999999001001KA1240M+02931MA1999999091801MD1999999-0111REMSYN082AAXX  24004 83339 32995 00904 10236 20103 39180 40140 333 10293 29047 55110 59011;EQDQ01  00002PRCP06
0186833390999992004092412004-14050-042617FM-12+088299999V0200501N004610042019N0100001N1+02061+01561101631ADDAA106000091GF106991061021004501001001KA1240N+01661MA1999999091991MD1999999-0071REMSYN076AAXX  24124 83339 32497 60509 10206 20156 39199 40163 86200 333 20166 59007;EQDQ01  00002PRCP06
0177833390999992004092418004-14050-042617FM-12+088299999V0200901N004112200019N0100001N1+02931+00641101061ADDAA106000091GA1001+999999999GF100991001001999999001001MA1999999091521MD1999999-0071REMSYN064AAXX  24184 83339 32997 00908 10293 20064 39152 40106 333 59007;EQDQ01  00002PRCP06
0208833390999992004092500004-14050-042617FM-12+088299999V0201401N004612200019N0020001N1+02341+00941101381ADDAA106000091GA1001+999999999GF100991001001999999001001KA1240M+02961MA1999999091761MD1999999-0041REMSYN082AAXX  25004 83339 32995 01409 10234 20094 39176 40138 333 10296 29045 55086 59004;EQDQ01  00002PRCP06
0196833390999992004092512004-14050-042617FM-12+088299999V0200501N006712200019N0100001N1+02101+01191101421ADDAA106000091GA1001+999999999GF100991001001999999001001KA1240N+01521MA1999999091801MD1999999-0191REMSYN070AAXX  25124 83339 32997 00513 10210 20119 39180 40142 333 20152 59019;EQDQ01  00002PRCP06
0177833390999992004092518004-14050-042617FM-12+088299999V0200501N006212200019N0100001N1+02731+00971101051ADDAA106000091GA1001+999999999GF100991001001999999001001MA1999999091491MD1999999-0031REMSYN064AAXX  25184 83339 32997 00512 10273 20097 39149 40105 333 59003;EQDQ01  00002PRCP06
0208833390999992004092600004-14050-042617FM-12+088299999V0200501N001012200019N0020001N1+02201+00991101361ADDAA106000091GA1001+999999999GF100991001001999999001001KA1240M+02781MA1999999091731MD1999999-0031REMSYN082AAXX  26004 83339 32995 00502 10220 20099 39173 40136 333 10278 29045 55110 59003;EQDQ01  00002PRCP06
0186833390999992004092612004-14050-042620FM-12+088299999V0200501N005712200019N0100001N1+02131+01201101691ADDAA106000091GF102991021011004501001001KA1240N+01501MA1999999092031MD1999999+0231REMSYN076AAXX  26124 83339 32497 20511 10213 20120 39203 40169 82100 333 20150 58023;EQDQ01  00002PRCP06
0167833390999992004092618004-14050-042620FM-12+088299999V0200501N005112200019N0100001N1+02741+01101101201ADDAA106000091GF103991031011004501001001MA1999999091631MD1999999+0141REMSYN070AAXX  26184 83339 32497 30510 10274 20110 39163 40120 83100 333 58014;EQDQ01  00002PRCP06
0208833390999992004092700004-14050-042620FM-12+088299999V0209999C000012200019N0020001N1+02141+01231101521ADDAA106000091GA1001+999999999GF100991001001999999001001KA1240M+02771MA1999999091871MD1999999+0141REMSYN082AAXX  27004 83339 32995 00000 10214 20123 39187 40152 333 10277 29051 55107 58014;EQDQ01  00002PRCP06
0186833390999992004092712004-14050-042620FM-12+088299999V0201401N006210042019N0100001N1+02051+01601101741ADDAA106000091GF106991061021004501001001KA1240N+01681MA1999999092051MD1999999+0021REMSYN076AAXX  27124 83339 32497 61412 10205 20160 39205 40174 86200 333 20168 58002;EQDQ01  00002PRCP06
0167833390999992004092718004-14050-042617FM-12+088299999V0201401N005712200019N0100001N1+02731+01041101411ADDAA106000091GF102991021021004501001001MA1999999091621MD1999999-0011REMSYN070AAXX  27184 83339 32497 21411 10273 20104 39162 40141 82200 333 59001;EQDQ01  00002PRCP06
0208833390999992004092800004-14050-042617FM-12+088299999V0201401N004612200019N0020001N1+02331+00991101371ADDAA106000091GA1001+999999999GF100991001001999999001001KA1240M+02801MA1999999091751MD1999999-0121REMSYN082AAXX  28004 83339 32995 01409 10233 20099 39175 40137 333 10280 29048 55093 59012;EQDQ01  00002PRCP06
0186833390999992004092812004-14050-042617FM-12+088299999V0200501N004112200019N0100001N1+02191+01521101441ADDAA106000091GF103991031021004501001001KA1240N+01621MA1999999091841MD1999999-0211REMSYN076AAXX  28124 83339 32497 30508 10219 20152 39184 40144 83200 333 20162 59021;EQDQ01  00002PRCP06
0177833390999992004092818004-14050-042617FM-12+088299999V0201401N004612200019N0100001N1+02911+00871100841ADDAA106000091GA1001+999999999GF100991001001999999001001MA1999999091351MD1999999-0271REMSYN064AAXX  28184 83339 32997 01409 10291 20087 39135 40084 333 59027;EQDQ01  00002PRCP06
0208833390999992004092900004-14050-042617FM-12+088299999V0201401N006212200019N0020001N1+02431+00781101101ADDAA106000091GA1001+999999999GF100991001001999999001001KA1240M+03001MA1999999091511MD1999999-0241REMSYN082AAXX  29004 83339 32995 01412 10243 20078 39151 40110 333 10300 29042 55101 59024;EQDQ01  00002PRCP06
0186833390999992004092912004-14050-042617FM-12+088299999V0201401N005712200019N0100001N1+02091+01561101291ADDAA106000091GF104991041021004501001001KA1240N+01631MA1999999091701MD1999999-0141REMSYN076AAXX  29124 83339 32497 41411 10209 20156 39170 40129 84200 333 20163 59014;EQDQ01  00002PRCP06
0167833390999992004092918004-14050-042617FM-12+088299999V0201401N004612200019N0100001N1+03091+00911100661ADDAA106000091GF102991021021004501001001MA1999999091251MD1999999-0101REMSYN070AAXX  29184 83339 32497 21409 10309 20091 39125 40066 82200 333 59010;EQDQ01  00002PRCP06
0208833390999992004093000004-14050-042617FM-12+088299999V0201401N002112200019N0020001N1+02531+00781100881ADDAA106000091GA1001+999999999GF100991001001999999001001KA1240M+02701MA1999999091351MD1999999-0161REMSYN082AAXX  30004 83339 32995 01404 10253 20078 39135 40088 333 10270 29041 55106 59016;EQDQ01  00002PRCP06
0196833390999992004093012004-14050-042617FM-12+088299999V0201401N005712200019N0100001N1+02191+01611101021ADDAA106000091GA1001+999999999GF100991001001999999001001KA1240N+01641MA1999999091581MD1999999-0121REMSYN070AAXX  30124 83339 32997 01411 10219 20161 39158 40102 333 20164 59012;EQDQ01  00002PRCP06
0177833390999992004093018004-14050-042617FM-12+088299999V0201401N004612200019N0100001N1+02991+00821100791ADDAA106000091GA1001+999999999GF100991001001999999001001MA1999999091351MD1999999+0101REMSYN064AAXX  30184 83339 32997 01409 10299 20082 39135 40079 333 58010;EQDQ01  00002PRCP06
0208833390999992004100100004-14050-042617FM-12+088299999V0201401N006712200019N0020001N1+02371+01201101121ADDAA106000091GA1001+999999999GF100991001001999999001001KA1240M+03101MA1999999091571MD1999999+0221REMSYN082AAXX  01004 83339 32995 01413 10237 20120 39157 40112 333 10310 29047 55110 58022;EQDQ01  00002PRCP06
0186833390999992004100112004-14050-042617FM-12+088299999V0201401N009312200019N0100001N1+02131+01341101381ADDAA106000091GF102991021021004501001001KA1240N+01701MA1999999091781MD1999999+0201REMSYN076AAXX  01124 83339 32497 21418 10213 20134 39178 40138 82200 333 20170 58020;EQDQ01  00002PRCP06
0208833390999992004100200004-14050-042617FM-12+088299999V0201401N004612200019N0020001N1+02231+01351101261ADDAA106000091GA1001+999999999GF100991001001999999001001KA1240M+02851MA1999999091651MD1999999+0081REMSYN082AAXX  02004 83339 32995 01409 10223 20135 39165 40126 333 10285 29062 55110 58008;EQDQ01  00002PRCP06
0186833390999992004100212004-14050-042617FM-12+088299999V0201401N008212200019N0100001N1+01951+01331101411ADDAA106000091GF102991021021004501001001KA1240N+01521MA1999999091751MD1999999-0031REMSYN076AAXX  02124 83339 32497 21416 10195 20133 39175 40141 82200 333 20152 59003;EQDQ01  00002PRCP06
0177833390999992004100218004-14050-042617FM-12+088299999V0201401N004612200019N0100001N1+02751+01021100911ADDAA106000091GA1001+999999999GF100991001001999999001001MA1999999091361MD1999999-0021REMSYN064AAXX  02184 83339 32997 01409 10275 20102 39136 40091 333 59002;EQDQ01  00002PRCP06
0208833390999992004100300004-14050-042617FM-12+088299999V0200901N004612200019N0020001N1+02231+01251101131ADDAA106000091GA1001+999999999GF100991001001999999001001KA1240M+02841MA1999999091501MD1999999-0151REMSYN082AAXX  03004 83339 32995 00909 10223 20125 39150 40113 333 10284 29052 55100 59015;EQDQ01  00002PRCP06
0186833390999992004100312004-14050-042617FM-12+088299999V0200501N003112200019N0100001N1+02231+01651101261ADDAA106000091GF102991021021004501001001KA1240N+01701MA1999999091671MD1999999-0081REMSYN076AAXX  03124 83339 32497 20506 10223 20165 39167 40126 82200 333 20170 59008;EQDQ01  00002PRCP06
0167833390999992004100318004-14050-042620FM-12+088299999V0200501N003112200019N0100001N1+03111+00941100841ADDAA106000091GF102991021021004501001001MA1999999091181MD1999999-0181REMSYN070AAXX  03184 83339 32497 20506 10311 20094 39118 40084 82200 333 59018;EQDQ01  00002PRCP06
0208833390999992004100400004-14050-042620FM-12+088299999V0200901N001512200019N0020001N1+02491+00831100921ADDAA106000091GA1001+999999999GF100991001001999999001001KA1240M+03201MA1999999091411MD1999999-0091REMSYN082AAXX  04004 83339 32995 00903 10249 20083 39141 40092 333 10320 29042 55107 59009;EQDQ01  00002PRCP06
0196833390999992004100412004-14050-042617FM-12+088299999V0201401N004612200019N0100001N1+02321+01551101071ADDAA106000091GA1001+999999999GF100991001001999999001001KA1240N+01801MA1999999091561MD1999999-0111REMSYN070AAXX  04124 83339 32997 01409 10232 20155 39156 40107 333 20180 59011;EQDQ01  00002PRCP06
0167833390999992004100418004-14050-042617FM-12+088299999V0201401N002612200019N0100001N1+03091+01241100601ADDAA106000091GF104991041021004501001001MA1999999091201MD1999999+0021REMSYN070AAXX  04184 83339 32497 41405 10309 20124 39120 40060 84200 333 58002;EQDQ01  00002PRCP06
0208833390999992004100500004-14050-042617FM-12+088299999V0201401N004112200019N0020001N1+02531+01291100921ADDAA106000091GA1001+999999999GF100991001001999999001001KA1240M+03201MA1999999091431MD1999999+0021REMSYN082AAXX  05004 83339 32995 01408 10253 20129 39143 40092 333 10320 29046 55095 58002;EQDQ01  00002PRCP06
0186833390999992004100512004-14050-042617FM-12+088299999V0201401N005710450019N0100001N1+02261+01471101211ADDAA106000091GF105991021011004501031001KA1240N+01841MA1999999091691MD1999999+0161REMSYN076AAXX  05124 83339 32497 51411 10226 20147 39169 40121 82130 333 20184 58016;EQDQ01  00002PRCP06
0167833390999992004100518004-14050-042617FM-12+088299999V0200501N002110042019N0100001N1+02931+01401100761ADDAA106000091GF106991061021004501001001MA1999999091281MD1999999+0081REMSYN070AAXX  05184 83339 32497 60504 10293 20140 39128 40076 86200 333 58008;EQDQ01  00002PRCP06
0208833390999992004100600004-14050-042617FM-12+088299999V0201401N004112200019N0020001N1+02561+01281100871ADDAA106000091GA1001+999999999GF100991001001999999001001KA1240M+03001MA1999999091381MD1999999-0051REMSYN082AAXX  06004 83339 32995 01408 10256 20128 39138 40087 333 10300 29048 55057 59005;EQDQ01  00002PRCP06
0186833390999992004100612004-14050-042617FM-12+088299999V0200501N002110450019N0100001N1+02511+01611100971ADDAA106000091GF105991021011004501031001KA1240N+01811MA1999999091541MD1999999-0151REMSYN076AAXX  06124 83339 32497 50504 10251 20161 39154 40097 82130 333 20181 59015;EQDQ01  00002PRCP06
0167833390999992004100618004-14050-042617FM-12+088299999V0203201N003112200019N0100001N1+03131+01411100531ADDAA106000091GF104991041021004501001001MA1999999091141MD1999999-0141REMSYN070AAXX  06184 83339 32497 43206 10313 20141 39114 40053 84200 333 59014;EQDQ01  00002PRCP06
0202833390999992004100700004-14050-042617FM-12+088299999V0202701N001510450019N0020001N1+01961+01761101021ADDAY161061AY221061GF108991041021004501021999KA1240M+03161MA1999999091461MD1999999+0081MW1021REMSYN100AAXX  07004 83339 21495 82703 10196 20176 39146 40102 70262 8422/ 333 10316 29067 55060 58008 60101;
0190833390999992004100712004-14050-042617FM-12+088299999V0200501N002610042019N0100001N1+02031+01831101321ADDAY191061AY261061GF105991051021004501001001KA1240N+01811MA1999999091641MD1999999+0101MW1021REMSYN088AAXX  07124 83339 21497 50505 10203 20183 39164 40132 70296 85200 333 20181 58010 60114;
0167833390999992004100718004-14050-042617FM-12+088299999V0200501N001010042019N0100001N1+02861+01721100701ADDAA106000091GF106991061021004501001001MA1999999091211MD1999999+0071REMSYN070AAXX  07184 83339 32497 60502 10286 20172 39121 40070 86200 333 58007;EQDQ01  00002PRCP06
0198833390999992004100800004-14050-042617FM-12+088299999V0200901N002110042019N0020001N1+02491+01721100991ADDAA106000091GF105991051021004501001001KA1240M+02951MA1999999091441MD1999999-0021REMSYN088AAXX  08004 83339 32495 50904 10249 20172 39144 40099 85200 333 10295 29066 55071 59002;EQDQ01  00002PRCP06
0190833390999992004100812004-14050-042617FM-12+088299999V0201401N004610042019N0020001N1+01891+01821101341ADDAY191061AY261061GF108991051051004501021999KA1240N+01841MA1999999091731MD1999999+0091MW1401REMSYN088AAXX  08124 83339 21495 81409 10189 20182 39173 40134 74096 8552/ 333 20184 58009 60134;
0195833390999992004100818004-14050-042617FM-12+088299999V0200901N005110042019N0100001N1+02281+01591101001ADDAA106000091AY141061AY221061GF105991051021004501001001MA1999999091401MD1999999+0191MW1021REMSYN076AAXX  08184 83339 31497 50910 10228 20159 39140 40100 70242 85200 333 58019;EQDQ01  00002PRCP06
0208833390999992004100900004-14050-042617FM-12+088299999V0201401N005112200019N0020001N1+02041+01781101381ADDAA106000091GA1001+999999999GF100991001001999999001001KA1240M+02341MA1999999091661MD1999999+0221REMSYN082AAXX  09004 83339 32995 01410 10204 20178 39166 40138 333 10234 29085 55026 58022;EQDQ01  00002PRCP06
0186833390999992004100912004-14050-042617FM-12+088299999V0200501N004110042019N0100001N1+02031+01831101791ADDAA106000091GF106991061021004501001001KA1240N+01791MA1999999091901MD1999999+0171REMSYN076AAXX  09124 83339 32497 60508 10203 20183 39190 40179 86200 333 20179 58017;EQDQ01  00002PRCP06
0167833390999992004100918004-14050-042617FM-12+088299999V0200901N004112200019N0100001N1+02731+01701101031ADDAA106000091GF102991021011004501001001MA1999999091471MD1999999+0071REMSYN070AAXX  09184 83339 32497 20908 10273 20170 39147 40103 82100 333 58007;EQDQ01  00002PRCP06
0186833390999992004101012004-14050-042617FM-12+088299999V0200901N004112200019N0100001N1+02331+01831101441ADDAA106000091GF102991021021004501001001KA1240N+01851MA1999999091861MD1999999-0041REMSYN076AAXX  10124 83339 32497 20908 10233 20183 39186 40144 82200 333 20185 59004;EQDQ01  00002PRCP06
0167833390999992004101018004-14050-042617FM-12+088299999V0200901N003112200019N0100001N1+03011+01241100871ADDAA106000091GF102991021021004501001001MA1999999091401MD1999999-0071REMSYN070AAXX  10184 83339 32497 20906 10301 20124 39140 40087 82200 333 59007;EQDQ01  00002PRCP06
0208833390999992004101100004-14050-042617FM-12+088299999V0200901N002612200019N0020001N1+02521+01281101111ADDAA106000091GA1001+999999999GF100991001001999999001001KA1240M+03071MA1999999091601MD1999999-0071REMSYN082AAXX  11004 83339 32995 00905 10252 20128 39160 40111 333 10307 29050 55096 59007;EQDQ01  00002PRCP06
0186833390999992004101112004-14050-042620FM-12+088299999V0200501N003112200019N0100001N1+02371+01761101081ADDAA106000091GF102991021021004501001001KA1240N+01761MA1999999091641MD1999999-0221REMSYN076AAXX  11124 83339 32497 20506 10237 20176 39164 40108 82200 333 20176 59022;EQDQ01  00002PRCP06
0167833390999992004101118004-14050-042620FM-12+088299999V0200501N003112200019N0100001N1+03111+00931100591ADDAA106000091GF102991021021004501001001MA1999999091211MD1999999-0191REMSYN070AAXX  11184 83339 32497 20506 10311 20093 39121 40059 82200 333 59019;EQDQ01  00002PRCP06
0208833390999992004101200004-14050-042620FM-12+088299999V0201401N005712200019N0020001N1+02451+01201101001ADDAA106000091GA1001+999999999GF100991001001999999001001KA1240M+03201MA1999999091501MD1999999-0101REMSYN082AAXX  12004 83339 32995 01411 10245 20120 39150 40100 333 10320 29047 55108 59010;EQDQ01  00002PRCP06
0177833390999992004101218004-14050-042617FM-12+088299999V0201401N006212200019N0100001N1+02931+00981100861ADDAA106000091GA1001+999999999GF100991001001999999001001MA1999999091241MD1999999+0031REMSYN064AAXX  12184 83339 32997 01412 10293 20098 39124 40086 333 58003;EQDQ01  00002PRCP06
0208833390999992004101300004-14050-042617FM-12+088299999V0201401N005112200019N0020001N1+02451+00921100951ADDAA106000091GA1001+999999999GF100991001001999999001001KA1240M+03001MA1999999091451MD1999999-0051REMSYN082AAXX  13004 83339 32995 01410 10245 20092 39145 40095 333 10300 29042 55100 59005;EQDQ01  00002PRCP06
0196833390999992004101312004-14050-042617FM-12+088299999V0201401N008212200019N0100001N1+02211+01171101261ADDAA106000091GA1001+999999999GF100991001001999999001001KA1240N+01701MA1999999091751MD1999999+0061REMSYN070AAXX  13124 83339 32997 01416 10221 20117 39175 40126 333 20170 58006;EQDQ01  00002PRCP06
0177833390999992004101318004-14050-042617FM-12+088299999V0201401N005712200019N0100001N1+02951+00791100681ADDAA106000091GA1001+999999999GF100991001001999999001001MA1999999091231MD1999999-0011REMSYN064AAXX  13184 83339 32997 01411 10295 20079 39123 40068 333 59001;EQDQ01  00002PRCP06
0208833390999992004101400004-14050-042617FM-12+088299999V0201401N002612200019N0020001N1+02351+01111100991ADDAA106000091GA1001+999999999GF100991001001999999001001KA1240M+03001MA1999999091451MD1999999+0001REMSYN082AAXX  14004 83339 32995 01405 10235 20111 39145 40099 333 10300 29043 55113 58000;EQDQ01  00002PRCP06
0186833390999992004101412004-14050-042617FM-12+088299999V0200501N002612200019N0100001N1+02231+01461101221ADDAA106000091GF102991011021004501001041KA1240N+01641MA1999999091661MD1999999-0091REMSYN076AAXX  14124 83339 32497 20505 10223 20146 39166 40122 81204 333 20164 59009;EQDQ01  00002PRCP06
0208833390999992004101500004-14050-042617FM-12+088299999V0200901N001512200019N0020001N1+02471+00331100971ADDAA106000091GA1001+999999999GF100991001001999999001001KA1240M+03101MA1999999091451MD1999999+0001REMSYN082AAXX  15004 83339 32995 00903 10247 20033 39145 40097 333 10310 29031 55114 58000;EQDQ01  00002PRCP06
0186833390999992004101512004-14050-042617FM-12+088299999V0200501N004610042019N0100001N1+02211+01631101111ADDAA106000091GF106991061021004501001001KA1240N+01801MA1999999091641MD1999999-0021REMSYN076AAXX  15124 83339 32497 60509 10221 20163 39164 40111 86200 333 20180 59002;EQDQ01  00002PRCP06
0177833390999992004101518004-14050-042617FM-12+088299999V0200501N004112200019N0100001N1+02891+00951100841ADDAA106000091GA1001+999999999GF100991001001999999001001MA1999999091371MD1999999+0101REMSYN064AAXX  15184 83339 32997 00508 10289 20095 39137 40084 333 58010;EQDQ01  00002PRCP06
0208833390999992004101600004-14050-042617FM-12+088299999V0200501N005112200019N0020001N1+02331+01651101121ADDAA106000091GA1001+999999999GF100991001001999999001001KA1240M+02941MA1999999091551MD1999999+0101REMSYN082AAXX  16004 83339 32995 00510 10233 20165 39155 40112 333 10294 29070 55091 58010;EQDQ01  00002PRCP06
0186833390999992004101612004-14050-042620FM-12+088299999V0200501N006712200019N0100001N1+02231+01791101301ADDAA106000091GF104991041021004501001001KA1240N+01881MA1999999091741MD1999999+0101REMSYN076AAXX  16124 83339 32497 40513 10223 20179 39174 40130 84200 333 20188 58010;EQDQ01  00002PRCP06
0167833390999992004101618004-14050-042620FM-12+088299999V0201401N008210042019N0100001N1+02771+01031100891ADDAA106000091GF106991051021004501021001MA1999999091401MD1999999+0031REMSYN070AAXX  16184 83339 32497 61416 10277 20103 39140 40089 85220 333 58003;EQDQ01  00002PRCP06
0208833390999992004101700004-14050-042620FM-12+088299999V0201401N004612200019N0020001N1+02271+00871101061ADDAA106000091GA1001+999999999GF100991001001999999001001KA1240M+02901MA1999999091501MD1999999-0051REMSYN082AAXX  17004 83339 32995 01409 10227 20087 39150 40106 333 10290 29047 55093 59005;EQDQ01  00002PRCP06
0186833390999992004101712004-14050-042620FM-12+088299999V0200501N007712200019N0100001N1+02211+01511101181ADDAA106000091GF102991021021004501001001KA1240N+01681MA1999999091611MD1999999-0131REMSYN076AAXX  17124 83339 32497 20515 10221 20151 39161 40118 82200 333 20168 59013;EQDQ01  00002PRCP06
0208833390999992004101800004-14050-042617FM-12+088299999V0201401N005112200019N0020001N1+02391+01121100851ADDAA106000091GA1001+999999999GF100991001001999999001001KA1240M+02901MA1999999091331MD1999999-0171REMSYN082AAXX  18004 83339 32995 01410 10239 20112 39133 40085 333 10290 29048 55108 59017;EQDQ01  00002PRCP06
0202833390999992004101812004-14050-042617FM-12+088299999V0201401N003112200019N0100001N1+02231+01531101181ADDAA106000091GF102991001001999999001011KA1240N+01691MA1999999091631MD1999999+0021REMSYN076AAXX  18124 83339 32897 21406 10223 20153 39163 40118 80001 333 20169 58002;EQDQ01+022502SCOLCBQ02  00002PRCP06
0167833390999992004101818004-14050-042617FM-12+088299999V0201401N003112200019N0100001N1+03031+01191100721ADDAA106000091GF104991041021004501001001MA1999999091261MD1999999+0021REMSYN070AAXX  18184 83339 32497 41406 10303 20119 39126 40072 84200 333 58002;EQDQ01  00002PRCP06
0208833390999992004101900004-14050-042617FM-12+088299999V0201401N002112200019N0020001N1+02501+01011100901ADDAA106000091GA1001+999999999GF100991001001999999001001KA1240M+03141MA1999999091391MD1999999+0061REMSYN082AAXX  19004 83339 32995 01404 10250 20101 39139 40090 333 10314 29044 55112 58006;EQDQ01  00002PRCP06
0167833390999992004101918004-14050-042617FM-12+088299999V0200501N002110042019N0100001N1+03191+01351100611ADDAA106000091GF105991051021004501001001MA1999999091231MD1999999-0031REMSYN070AAXX  19184 83339 32497 50504 10319 20135 39123 40061 85200 333 59003;EQDQ01  00002PRCP06
0208833390999992004102000004-14050-042617FM-12+088299999V0201401N003112200019N0020001N1+02691+01371100931ADDAA106000091GA1001+999999999GF100991001001999999001001KA1240M+03341MA1999999091471MD1999999+0081REMSYN082AAXX  20004 83339 32995 01406 10269 20137 39147 40093 333 10334 29047 55101 58008;EQDQ01  00002PRCP06
0186833390999992004102012004-14050-042617FM-12+088299999V0200901N003612200019N0100001N1+02431+01761101051ADDAA106000091GF103991031021004501001001KA1240N+01961MA1999999091611MD1999999-0091REMSYN076AAXX  20124 83339 32497 30907 10243 20176 39161 40105 83200 333 20196 59009;EQDQ01  00002PRCP06
0167833390999992004102018004-14050-042617FM-12+088299999V0200901N005712200019N0100001N1+03191+01461100541ADDAA106000091GF103991021021004501001011MA1999999091181MD1999999-0051REMSYN070AAXX  20184 83339 32497 30911 10319 20146 39118 40054 82201 333 59005;EQDQ01  00002PRCP06
0208833390999992004102100004-14050-042617FM-12+088299999V0200901N007712200019N0020001N1+02651+01401100881ADDAA106000091GA1001+999999999GF100991001001999999001001KA1240M+03291MA1999999091451MD1999999-0021REMSYN082AAXX  21004 83339 32995 00915 10265 20140 39145 40088 333 10329 29048 55103 59002;EQDQ01  00002PRCP06
0186833390999992004102112004-14050-042617FM-12+088299999V0200901N009312200019N0100001N1+02291+01401101281ADDAA106000091GF102991021011004501001001KA1240N+01931MA1999999091771MD1999999+0161REMSYN076AAXX  21124 83339 32497 20918 10229 20140 39177 40128 82100 333 20193 58016;EQDQ01  00002PRCP06
0167833390999992004102118004-14050-042617FM-12+088299999V0200501N005710042019N0100001N1+02641+01511101031ADDAA106000091GF106991061021004501001001MA1999999091511MD1999999+0331REMSYN070AAXX  21184 83339 32497 60511 10264 20151 39151 40103 86200 333 58033;EQDQ01  00002PRCP06
0198833390999992004102200004-14050-042617FM-12+088299999V0200901N005110042019N0020001N1+02111+01781101321ADDAA106000091GF106991061021004501001001KA1240M+02741MA1999999091711MD1999999+0261REMSYN088AAXX  22004 83339 32495 60910 10211 20178 39171 40132 86200 333 10274 29067 55074 58026;EQDQ01  00002PRCP06
0190833390999992004102212004-14050-042617FM-12+088299999V0200901N008210042019N0100001N1+01771+01581101721ADDAY161061AY221061GF106991061021004501001001KA1240N+01651MA1999999091971MD1999999+0201MW1021REMSYN088AAXX  22124 83339 21497 60916 10177 20158 39197 40172 70262 86200 333 20165 58020 69964;
0166833390999992004102218004-14050-042617FM-12+088299999V0200901N007212200019N0100001N1+02451+01551101241ADDAA106000091GF104991031021004501001041MA1999999091601MD1999999+0091REMSYN069AAXX  22184 83339 32497 40914 10245 20155 39160 40124 83204333 58009;EQDQ01  00002PRCP06
0198833390999992004102300004-14050-042617FM-12+088299999V0200901N006710042019N0020001N1+02191+01561101501ADDAA106000091GF106991061021004501001001KA1240M+02521MA1999999091791MD1999999+0081REMSYN088AAXX  23004 83339 32495 60913 10219 20156 39179 40150 86200 333 10252 29070 55078 58008;EQDQ01  00002PRCP06
0186833390999992004102312004-14050-042617FM-12+088299999V0201401N006210042019N0100001N1+02061+01561101481ADDAA106000091GF105991051021004501001001KA1240N+01721MA1999999091821MD1999999-0151REMSYN076AAXX  23124 83339 32497 51412 10206 20156 39182 40148 85200 333 20172 59015;EQDQ01  00002PRCP06
0167833390999992004102318004-14050-042617FM-12+088299999V0200501N005112200019N0100001N1+02731+01441100871ADDAA106000091GF102991021011004501001001MA1999999091331MD1999999-0271REMSYN070AAXX  23184 83339 32497 20510 10273 20144 39133 40087 82100 333 59027;EQDQ01  00002PRCP06
0208833390999992004102400004-14050-042617FM-12+088299999V0200901N005112200019N0020001N1+02171+01611101191ADDAA106000091GA1001+999999999GF100991001001999999001001KA1240M+02801MA1999999091591MD1999999-0201REMSYN082AAXX  24004 83339 32995 00910 10217 20161 39159 40119 333 10280 29064 55097 59020;EQDQ01  00002PRCP06
0186833390999992004102412004-14050-042617FM-12+088299999V0200901N007210042019N0100001N1+02111+01601101261ADDAA106000091GF106991061021004501001001KA1240N+01831MA1999999091641MD1999999-0181REMSYN076AAXX  24124 83339 32497 60914 10211 20160 39164 40126 86200 333 20183 59018;EQDQ01  00002PRCP06
0167833390999992004102418004-14050-042617FM-12+088299999V0201401N003112200019N0100001N1+02831+01461100681ADDAA106000091GF102991021011004501001001MA1999999091401MD1999999-0161REMSYN070AAXX  24184 83339 32497 21406 10283 20146 39140 40068 82100 333 59016;EQDQ01  00002PRCP06
0208833390999992004102500004-14050-042617FM-12+088299999V0200901N001512200019N0020001N1+02431+01301100821ADDAA106000091GA1001+999999999GF100991001001999999001001KA1240M+02921MA1999999091281MD1999999-0311REMSYN082AAXX  25004 83339 32995 00903 10243 20130 39128 40082 333 10292 29053 55076 59031;EQDQ01  00002PRCP06
0186833390999992004102512004-14050-042617FM-12+088299999V0200501N003112200019N0100001N1+02431+01791100931ADDAA106000091GF102991021021004501001001KA1240N+01841MA1999999091451MD1999999-0191REMSYN076AAXX  25124 83339 32497 20506 10243 20179 39145 40093 82200 333 20184 59019;EQDQ01  00002PRCP06
0167833390999992004102518004-14050-042617FM-12+088299999V0200501N003110042019N0100001N1+03151+01221100321ADDAA106000091GF105991051021004501001001MA1999999090961MD1999999-0211REMSYN070AAXX  25184 83339 32497 50506 10315 20122 39096 40032 85200 333 59021;EQDQ01  00002PRCP06
0198833390999992004102600004-14050-042617FM-12+088299999V0201401N004110042019N0020001N1+02611+01321100771ADDAA106000091GF106991061021004501001001KA1240M+03291MA1999999091231MD1999999-0051REMSYN088AAXX  26004 83339 32495 61408 10261 20132 39123 40077 86200 333 10329 29047 55092 59005;EQDQ01  00002PRCP06
0190833390999992004102612004-14050-042617FM-12+088299999V0200501N002610042019N0100001N1+02351+01981100991ADDAY161061AY261061GF106991051021004501021001KA1240N+01981MA1999999091531MD1999999+0081MW1101REMSYN088AAXX  26124 83339 21497 60505 10235 20198 39153 40099 71066 85220 333 20198 58008 60074;
0167833390999992004102618004-14050-042617FM-12+088299999V0203201N003610042019N0100001N1+02651+01801100601ADDAA106000091GF106991051021004501021001MA1999999091101MD1999999+0141REMSYN070AAXX  26184 83339 32497 63207 10265 20180 39110 40060 85220 333 58014;EQDQ01  00002PRCP06
0202833390999992004102700004-14050-042617FM-12+088299999V0203601N000510042019N0020001N1+02071+02061101021ADDAY191061AY261061GF108991081051004501999999KA1240M+03021MA1999999091501MD1999999+0271MW1601REMSYN100AAXX  27004 83339 21495 83601 10207 20206 39150 40102 76096 885// 333 10302 29082 55036 58027 60081;
0190833390999992004102712004-14050-042617FM-12+088299999V0200901N000510042019N0040001N1+02091+02051101351ADDAY161061AY261061GF108991081051004501999999KA1240N+01981MA1999999091701MD1999999+0171MW1101REMSYN088AAXX  27124 83339 21496 80901 10209 20205 39170 40135 71066 885// 333 20198 58017 60174;
0171833390999992004102718004-14050-042617FM-12+088299999V0200501N001510042019N0040001N1+02211+02081101101ADDAY161061AY261061GF107991061021004501021999MA1999999091441MD1999999+0341MW1101REMSYN082AAXX  27184 83339 21496 70503 10221 20208 39144 40110 71066 8622/ 333 58034 60101;
0226833390999992004102800004-14050-042617FM-12+088299999V0202301N000510042019N0020001N1+02111+02051101281ADDAA106000091AY101061AY201061GF106991051021004501031001KA1240M+02301MA1999999091641MD1999999+0141MW1101REMSYN094AAXX  28004 83339 31495 62301 10211 20205 39164 40128 71000 85230 333 10230 29094 55000 58014;EQDQ01  00002PRCP06
0190833390999992004102812004-14050-042617FM-12+088299999V0200501N003610042019N0100001N1+02371+02031101291ADDAY191061AY291061GF105991051021004501001001KA1240N+01881MA1999999091701MD1999999+0001MW1101REMSYN088AAXX  28124 83339 21497 50507 10237 20203 39170 40129 71099 85200 333 20188 58000 60104;
0226833390999992004102900004-14050-042617FM-12+088299999V0209999C000010042019N0020001N1+02231+01861101121ADDAA106000091AY101061AY201061GF106991051021004501021001KA1240M+02841MA1999999091571MD1999999-0071MW1101REMSYN094AAXX  29004 83339 31495 60000 10223 20186 39157 40112 71000 85220 333 10284 29079 55052 59007;EQDQ01  00002PRCP06
0190833390999992004102912004-14050-042617FM-12+088299999V0201401N008210042019N0040001N1+01731+01701101551ADDAY161061AY261061GF108991081051004501999999KA1240N+01721MA1999999091841MD1999999+0141MW1101REMSYN088AAXX  29124 83339 21496 81416 10173 20170 39184 40155 71066 885// 333 20172 58014 60214;
0167833390999992004102918004-14050-042617FM-12+088299999V0201401N007710042019N0100001N1+02431+01671101161ADDAA106000091GF106991051021004501031001MA1999999091561MD1999999+0121REMSYN070AAXX  29184 83339 32497 61415 10243 20167 39156 40116 85230 333 58012;EQDQ01  00002PRCP06
0226833390999992004103000004-14050-042617FM-12+088299999V0201401N008212200019N0020001N1+02051+01761101461ADDAA106000091AY101061AY201061GF102991021021004501001001KA1240M+02601MA1999999091651MD1999999+0081MW1101REMSYN094AAXX  30004 83339 31495 21416 10205 20176 39165 40146 71000 82200 333 10260 29082 55028 58008;EQDQ01  00002PRCP06
0190833390999992004103012004-14050-042617FM-12+088299999V0200901N007210042019N0040001N1+01971+01771101571ADDAY161061AY261061GF108991081051004501999999KA1240N+01761MA1999999091851MD1999999+0011MW1101REMSYN088AAXX  30124 83339 21496 80914 10197 20177 39185 40157 71066 885// 333 20176 58001 60014;
0167833390999992004103018004-14050-042617FM-12+088299999V0201401N004610042019N0100001N1+02451+01641101391ADDAA106000091GF106991061021004501001001MA1999999091601MD1999999-0041REMSYN070AAXX  30184 83339 32497 61409 10245 20164 39160 40139 86200 333 59004;EQDQ01  00002PRCP06
0208833390999992004103100004-14050-042620FM-12+088299999V0201401N004612200019N0020001N1+02551+01721101381ADDAA106000091GA1001+999999999GF100991001001999999001001KA1240M+02521MA1999999091711MD1999999+0061REMSYN082AAXX  31004 83339 32995 01409 10255 20172 39171 40138 333 10252 29076 55029 58006;EQDQ01  00002PRCP06
0186833390999992004103112004-14050-042620FM-12+088299999V0200901N004610042019N0100001N1+02251+01711101491ADDAA106000091GF105991051021004501001001KA1240N+01761MA1999999091861MD1999999+0011REMSYN076AAXX  31124 83339 32497 50909 10225 20171 39186 40149 85200 333 20176 58001;EQDQ01  00002PRCP06
0167833390999992004103118004-14050-042620FM-12+088299999V0200901N004112200019N0100001N1+02771+01411100951ADDAA106000091GF102991021011004501001001MA1999999091421MD1999999-0181REMSYN070AAXX  31184 83339 32497 20908 10277 20141 39142 40095 82100 333 59018;EQDQ01  00002PRCP06
0208833390999992004110100004-14050-042620FM-12+088299999V0201401N008212200019N0020001N1+02391+01441101111ADDAA106000091GA1001+999999999GF100991001001999999001001KA1240M+02791MA1999999091561MD1999999-0151REMSYN082AAXX  01004 83339 32995 01416 10239 20144 39156 40111 333 10279 29056 55098 59015;EQDQ01  00002PRCP06
0196833390999992004110112004-14050-042620FM-12+088299999V0200501N003112200019N0100001N1+02321+01741101311ADDAA106000091GA1001+999999999GF100991001001999999001001KA1240N+01761MA1999999091761MD1999999-0101REMSYN070AAXX  01124 83339 32997 00506 10232 20174 39176 40131 333 20176 59010;EQDQ01  00002PRCP06
0167833390999992004110118004-14050-042620FM-12+088299999V0201401N004612200019N0100001N1+03021+01391100771ADDAA106000091GF102991021011004501001001MA1999999091311MD1999999-0111REMSYN070AAXX  01184 83339 32497 21409 10302 20139 39131 40077 82100 333 59011;EQDQ01  00002PRCP06
0208833390999992004110200004-14050-042617FM-12+088299999V0201401N004112200019N0020001N1+02511+01371100961ADDAA106000091GA1001+999999999GF100991001001999999001001KA1240M+03101MA1999999091461MD1999999-0101REMSYN082AAXX  02004 83339 32995 01408 10251 20137 39146 40096 333 10310 29051 55104 59010;EQDQ01  00002PRCP06
0196833390999992004110212004-14050-042617FM-12+088299999V0200501N007712200019N0100001N1+02311+01471101171ADDAA106000091GA1001+999999999GF100991001001999999001001KA1240N+01781MA1999999091651MD1999999-0111REMSYN070AAXX  02124 83339 32997 00515 10231 20147 39165 40117 333 20178 59011;EQDQ01  00002PRCP06
0167833390999992004110218004-14050-042617FM-12+088299999V0200901N006712200019N0100001N1+02851+01411100751ADDAA106000091GF102991021011004501001001MA1999999091271MD1999999-0041REMSYN070AAXX  02184 83339 32497 20913 10285 20141 39127 40075 82100 333 59004;EQDQ01  00002PRCP06
0208833390999992004110300004-14050-042617FM-12+088299999V0200901N006212200019N0020001N1+02441+01271100951ADDAA106000091GA1001+999999999GF100991001001999999001001KA1240M+02901MA1999999091441MD1999999-0021REMSYN082AAXX  03004 83339 32995 00912 10244 20127 39144 40095 333 10290 29049 55116 59002;EQDQ01  00002PRCP06
0196833390999992004110312004-14050-042617FM-12+088299999V0200901N006712200019N0100001N1+02251+01441101241ADDAA106000091GA1001+999999999GF100991001001999999001001KA1240N+01691MA1999999091701MD1999999+0051REMSYN070AAXX  03124 83339 32997 00913 10225 20144 39170 40124 333 20169 58005;EQDQ01  00002PRCP06
0167833390999992004110318004-14050-042617FM-12+088299999V0200501N003612200019N0100001N1+03001+01001100691ADDAA106000091GF102991021011004501001001MA1999999091221MD1999999-0051REMSYN070AAXX  03184 83339 32497 20507 10300 20100 39122 40069 82100 333 59005;EQDQ01  00002PRCP06
0208833390999992004110400004-14050-042617FM-12+088299999V0201401N007212200019N0020001N1+02411+01491101001ADDAA106000091GA1001+999999999GF100991001001999999001001KA1240M+03041MA1999999091481MD1999999+0041REMSYN082AAXX  04004 83339 32995 01414 10241 20149 39148 40100 333 10304 29050 55113 58004;EQDQ01  00002PRCP06
0202833390999992004110412004-14050-042617FM-12+088299999V0200901N006712200019N0100001N1+02311+01581101201ADDAA106000091GF102991001001999999001011KA1240N+01741MA1999999091661MD1999999-0041REMSYN076AAXX  04124 83339 32897 20913 10231 20158 39166 40120 80001 333 20174 59004;EQDQ01+022502SCOLCBQ02  00002PRCP06
0167833390999992004110418004-14050-042617FM-12+088299999V0200901N004110042019N0100001N1+02951+01291100771ADDAA106000091GF106991051021004501001041MA1999999091291MD1999999+0071REMSYN070AAXX  04184 83339 32497 60908 10295 20129 39129 40077 85204 333 58007;EQDQ01  00002PRCP06
0208833390999992004110500004-14050-042617FM-12+088299999V0201401N007712200019N0020001N1+02331+01571101041ADDAA106000091GA1001+999999999GF100991001001999999001001KA1240M+03001MA1999999091501MD1999999+0021REMSYN082AAXX  05004 83339 32995 01415 10233 20157 39150 40104 333 10300 29056 55111 58002;EQDQ01  00002PRCP06
0196833390999992004110512004-14050-042617FM-12+088299999V0200901N004612200019N0100001N1+02311+01601101261ADDAA106000091GA1001+999999999GF100991001001999999001001KA1240N+01791MA1999999091701MD1999999+0041REMSYN070AAXX  05124 83339 32997 00909 10231 20160 39170 40126 333 20179 58004;EQDQ01  00002PRCP06
0167833390999992004110518004-14050-042617FM-12+088299999V0201401N002112200019N0100001N1+03001+01201100751ADDAA106000091GF102991021021004501001001MA1999999091271MD1999999-0021REMSYN070AAXX  05184 83339 32497 21404 10300 20120 39127 40075 82200 333 59002;EQDQ01  00002PRCP06
0208833390999992004110600004-14050-042617FM-12+088299999V0201401N004612200019N0020001N1+02551+01101100941ADDAA106000091GA1001+999999999GF100991001001999999001001KA1240M+03101MA1999999091461MD1999999-0041REMSYN082AAXX  06004 83339 32995 01409 10255 20110 39146 40094 333 10310 29044 55108 59004;EQDQ01  00002PRCP06
0186833390999992004110612004-14050-042617FM-12+088299999V0201401N005112200019N0100001N1+02341+01781101211ADDAA106000091GF102991021011004501001001KA1240N+01851MA1999999091671MD1999999-0031REMSYN076AAXX  06124 83339 32497 21410 10234 20178 39167 40121 82100 333 20185 59003;EQDQ01  00002PRCP06
0167833390999992004110618004-14050-042617FM-12+088299999V0201401N005112200019N0100001N1+03011+01121100701ADDAA106000091GF102991011011004501001041MA1999999091271MD1999999+0001REMSYN070AAXX  06184 83339 32497 21410 10301 20112 39127 40070 81104 333 58000;EQDQ01  00002PRCP06
0208833390999992004110700004-14050-042617FM-12+088299999V0201401N003112200019N0020001N1+02491+01221100831ADDAA106000091GA1001+999999999GF100991001001999999001001KA1240M+03071MA1999999091361MD1999999-0101REMSYN082AAXX  07004 83339 32995 01406 10249 20122 39136 40083 333 10307 29048 55105 59010;EQDQ01  00002PRCP06
0186833390999992004110712004-14050-042617FM-12+088299999V0200501N005712200019N0100001N1+02431+01721101081ADDAA106000091GF102991021021004501001001KA1240N+01901MA1999999091591MD1999999-0081REMSYN076AAXX  07124 83339 32497 20511 10243 20172 39159 40108 82200 333 20190 59008;EQDQ01  00002PRCP06
0167833390999992004110718004-14050-042617FM-12+088299999V0201401N004612200019N0100001N1+03031+01551100681ADDAA106000091GF102991021021004501001001MA1999999091271MD1999999+0001REMSYN070AAXX  07184 83339 32497 21409 10303 20155 39127 40068 82200 333 58000;EQDQ01  00002PRCP06
0208833390999992004110800004-14050-042620FM-12+088299999V0200901N005712200019N0020001N1+02541+01571100951ADDAA106000091GA1001+999999999GF100991001001999999001001KA1240M+03061MA1999999091491MD1999999+0131REMSYN082AAXX  08004 83339 32995 00911 10254 20157 39149 40095 333 10306 29054 55117 58013;EQDQ01  00002PRCP06
0199833390999992004110812004-14050-042620FM-12+088299999V0201401N009319999999N0100001N1+02191+01861101151ADDAA106000091AY101061AY201061GF106991999999004501999999KA1240N+02061MA1999999091701MW1101REMSYN081AAXX  08124 83339 31497 61418 10219 20186 39170 40115 71000 6200 333 20206 58011;EQDQ01  00002PRCP06
0167833390999992004110818004-14050-042620FM-12+088299999V0200501N006712200019N0100001N1+02931+01261100681ADDAA106000091GF102991021021004501001001MA1999999091251MD1999999-0021REMSYN070AAXX  08184 83339 32497 20513 10293 20126 39125 40068 82200 333 59002;EQDQ01  00002PRCP06
0208833390999992004110900004-14050-042617FM-12+088299999V0200501N006212200019N0020001N1+02511+01261101001ADDAA106000091GA1001+999999999GF100991001001999999001001KA1240M+03021MA1999999091481MD1999999-0011REMSYN082AAXX  09004 83339 32995 00512 10251 20126 39148 40100 333 10302 29063 55097 59001;EQDQ01  00002PRCP06
0186833390999992004110912004-14050-042617FM-12+088299999V0200501N008212200019N0100001N1+02251+01571101241ADDAA106000091GF103991031021004501001001KA1240N+02121MA1999999091781MD1999999+0081REMSYN076AAXX  09124 83339 32497 30516 10225 20157 39178 40124 83200 333 20212 58008;EQDQ01  00002PRCP06
0167833390999992004110918004-14050-042617FM-12+088299999V0200501N009312200019N0100001N1+02791+01141100861ADDAA106000091GF103991021021004501021001MA1999999091351MD1999999+0101REMSYN070AAXX  09184 83339 32497 30518 10279 20114 39135 40086 82220 333 58010;EQDQ01  00002PRCP06
0198833390999992004111000004-14050-042617FM-12+088299999V0200501N005112200019N0020001N1+02371+01131101121ADDAA106000091GF102991011021004501021001KA1240M+02901MA1999999091551MD1999999+0071REMSYN088AAXX  10004 83339 32495 20510 10237 20113 39155 40112 81220 333 10290 29049 55112 58007;EQDQ01  00002PRCP06
0196833390999992004111012004-14050-042617FM-12+088299999V0200501N007712200019N0100001N1+02211+01411101251ADDAA106000091GA1001+999999999GF100991001001999999001001KA1240N+01401MA1999999091691MD1999999-0091REMSYN070AAXX  10124 83339 32997 00515 10221 20141 39169 40125 333 20140 59009;EQDQ01  00002PRCP06
0167833390999992004111018004-14050-042617FM-12+088299999V0200501N003612200019N0100001N1+02071+01091100851ADDAA106000091GF102991021021004501001001MA1999999091331MD1999999-0021REMSYN070AAXX  10184 83339 32497 20507 10207 20109 39133 40085 82200 333 59002;EQDQ01  00002PRCP06
0208833390999992004111100004-14050-042617FM-12+088299999V0200901N003112200019N0020001N1+02351+01011101021ADDAA106000091GA1001+999999999GF100991001001999999001001KA1240M+02841MA1999999091461MD1999999-0091REMSYN082AAXX  11004 83339 32995 00906 10235 20101 39146 40102 333 10284 29048 55118 59009;EQDQ01  00002PRCP06
0186833390999992004111112004-14050-042617FM-12+088299999V0200501N006212200019N0100001N1+02271+01571101041ADDAA106000091GF102991011021004501001021KA1240N+01621MA1999999091501MD1999999-0191REMSYN076AAXX  11124 83339 32497 20512 10227 20157 39150 40104 81202 333 20162 59019;EQDQ01  00002PRCP06
0167833390999992004111118004-14050-042617FM-12+088299999V0200501N003112200019N0100001N1+03091+01171100411ADDAA106000091GF103991031021004501001001MA1999999091011MD1999999-0321REMSYN070AAXX  11184 83339 32497 30506 10309 20117 39101 40041 83200 333 59032;EQDQ01  00002PRCP06
0208833390999992004111200004-14050-042617FM-12+088299999V0201401N003112200019N0020001N1+02571+01141100721ADDAA106000091GA1001+999999999GF100991001001999999001001KA1240M+03181MA1999999091211MD1999999-0251REMSYN082AAXX  12004 83339 32995 01406 10257 20114 39121 40072 333 10318 29043 55111 59025;EQDQ01  00002PRCP06
0186833390999992004111212004-14050-042617FM-12+088299999V0200901N002112200019N0100001N1+02651+01751100721ADDAA106000091GF102991021021004501001001KA1240N+01731MA1999999091331MD1999999-0171REMSYN076AAXX  12124 83339 32497 20904 10265 20175 39133 40072 82200 333 20173 59017;EQDQ01  00002PRCP06
0167833390999992004111218004-14050-042620FM-12+088299999V0202701N001510042019N0100001N1+03251+01361100591ADDAA106000091GF106991061021004501001001MA1999999091011MD1999999+0001REMSYN070AAXX  12184 83339 32497 62703 10325 20136 39101 40059 86200 333 58000;EQDQ01  00002PRCP06
0198833390999992004111300004-14050-042620FM-12+088299999V0201401N004110042019N0020001N1+02851+01431100491ADDAA106000091GF105991051021004501001001KA1240M+03311MA1999999091181MD1999999-0031REMSYN088AAXX  13004 83339 32495 51408 10285 20143 39118 40049 85200 333 10331 29043 55068 59003;EQDQ01  00002PRCP06
0186833390999992004111312004-14050-042620FM-12+088299999V0202701N003110042019N0100001N1+02671+01921100701ADDAA106000091GF106991051021004501021001KA1240N+02281MA1999999091361MD1999999+0031REMSYN076AAXX  13124 83339 32497 62706 10267 20192 39136 40070 85220 333 20228 58003;EQDQ01  00002PRCP06
0167833390999992004111318004-14050-042620FM-12+088299999V0202301N004610042019N0040001N1+02611+01821100521ADDAA106000091GF107991061021004501021999MA1999999091111MD1999999+0101REMSYN070AAXX  13184 83339 32496 72309 10261 20182 39111 40052 8622/ 333 58010;EQDQ01  00002PRCP06
0202833390999992004111400004-14050-042617FM-12+088299999V0201401N004110042019N0020001N1+02011+02001101451ADDAY191061AY261061GF108991081051004501999999KA1240M+03141MA1999999091531MD1999999+0351MW1601REMSYN100AAXX  14004 83339 21495 81408 10201 20200 39153 40145 76096 885// 333 10314 29080 55015 58035 60091;
0190833390999992004111412004-14050-042617FM-12+088299999V0200901N008210042019N0040001N1+02141+02061101221ADDAY161061AY261061GF108991081051004501999999KA1240N+01931MA1999999091561MD1999999+0201MW1101REMSYN088AAXX  14124 83339 21496 80916 10214 20206 39156 40122 71066 885// 333 20193 58020 60114;
0167833390999992004111418004-14050-042617FM-12+088299999V0200501N008212200019N0100001N1+02831+01511100791ADDAA106000091GF102991011021004501021001MA1999999091311MD1999999+0201REMSYN070AAXX  14184 83339 32497 20516 10283 20151 39131 40079 81220 333 58020;EQDQ01  00002PRCP06
0198833390999992004111500004-14050-042617FM-12+088299999V0201401N004612200019N0020001N1+02351+01761101081ADDAA106000091GF102991021021004501001001KA1240M+02901MA1999999091521MD1999999-0011REMSYN088AAXX  15004 83339 32495 21409 10235 20176 39152 40108 82200 333 10290 29069 55044 59001;EQDQ01  00002PRCP06
0186833390999992004111512004-14050-042617FM-12+088299999V0200501N006710042019N0100001N1+02111+01721101281ADDAA106000091GF106991061021004501001001KA1240N+01901MA1999999091691MD1999999+0131REMSYN076AAXX  15124 83339 32497 60513 10211 20172 39169 40128 86200 333 20190 58013;EQDQ01  00002PRCP06
0167833390999992004111518004-14050-042617FM-12+088299999V0200901N005112200019N0100001N1+02691+01751100921ADDAA106000091GF103991021021004501001011MA1999999091391MD1999999+0081REMSYN070AAXX  15184 83339 32497 30910 10269 20175 39139 40092 82201 333 58008;EQDQ01  00002PRCP06
0208833390999992004111600004-14050-042617FM-12+088299999V0201401N008212200019N0020001N1+02201+01721101231ADDAA106000091GA1001+999999999GF100991001001999999001001KA1240M+02741MA1999999091611MD1999999+0091REMSYN082AAXX  16004 83339 32995 01416 10220 20172 39161 40123 333 10274 29070 55068 58009;EQDQ01  00002PRCP06
0186833390999992004111612004-14050-042617FM-12+088299999V0200901N005712200019N0100001N1+02361+01781101301ADDAA106000091GF105991041021004501001011KA1240N+01891MA1999999091741MD1999999+0051REMSYN076AAXX  16124 83339 32497 50911 10236 20178 39174 40130 84201 333 20189 58005;EQDQ01  00002PRCP06
0167833390999992004111618004-14050-042617FM-12+088299999V0201401N004612200019N0100001N1+02981+01621100841ADDAA106000091GF104991031021004501001041MA1999999091131MD1999999-0021REMSYN070AAXX  16184 83339 32497 41409 10298 20162 39113 40084 83204 333 59002;EQDQ01  00002PRCP06
0208833390999992004111700004-14050-042617FM-12+088299999V0201401N006712200019N0020001N1+02471+01681100971ADDAA106000091GA1001+999999999GF100991001001999999001001KA1240M+03041MA1999999091471MD1999999-0141REMSYN082AAXX  17004 83339 32995 01413 10247 20168 39147 40097 333 10304 29059 55103 59014;EQDQ01  00002PRCP06
0186833390999992004111712004-14050-042617FM-12+088299999V0200901N005710042019N0100001N1+02371+01801101301ADDAA106000091GF106991061021004501001001KA1240N+01991MA1999999091771MD1999999+0031REMSYN076AAXX  17124 83339 32497 60911 10237 20180 39177 40130 86200 333 20199 58003;EQDQ01  00002PRCP06
0183833390999992004111718004-14050-042617FM-12+088299999V0200901N003112200019N0100001N1+03061+01551100741ADDAA106000091GF102991999021004501001001MA1999999091311MD1999999-0061REMSYN070AAXX  17184 83339 32497 20906 10306 20155 39131 40074 83200 333 59006;EQDQ01+000032SCOTLCQ02  00002PRCP06
0198833390999992004111800004-14050-042617FM-12+088299999V0201401N002612200019N0020001N1+02651+01471100971ADDAA106000091GF102991021021004501001001KA1240M+03101MA1999999091511MD1999999+0041REMSYN088AAXX  18004 83339 32495 21405 10265 20147 39151 40097 82200 333 10310 29052 55098 58004;EQDQ01  00002PRCP06
0196833390999992004111812004-14050-042617FM-12+088299999V0201401N002112200019N0100001N1+02601+01921101021ADDAA106000091GA1001+999999999GF100991001001999999001001KA1240N+02001MA1999999091601MD1999999-0171REMSYN070AAXX  18124 83339 32997 01404 10260 20192 39160 40102 333 20200 59017;EQDQ01  00002PRCP06
0167833390999992004111818004-14050-042617FM-12+088299999V0202301N001010042019N0100001N1+03171+01441100521ADDAA106000091GF106991061021004501001001MA1999999091161MD1999999-0151REMSYN070AAXX  18184 83339 32497 62302 10317 20144 39116 40052 86200 333 59015;EQDQ01  00002PRCP06
0198833390999992004111900004-14050-042617FM-12+088299999V0209999C000012200019N0020001N1+02691+01601100671ADDAA106000091GF104991041021004501001001KA1240M+03291MA1999999091301MD1999999-0211REMSYN088AAXX  19004 83339 32495 40000 10269 20160 39130 40067 84200 333 10329 29051 55082 59021;EQDQ01  00002PRCP06
0186833390999992004111912004-14050-042617FM-12+088299999V0203601N001010450019N0100001N1+02801+01751100701ADDAA106000091GF105991031021004501031001KA1240N+02141MA1999999091361MD1999999-0241REMSYN076AAXX  19124 83339 32497 53602 10280 20175 39136 40070 83230 333 20214 59024;EQDQ01  00002PRCP06
0167833390999992004111918004-14050-042617FM-12+088299999V0202301N007210042019N0100001N1+02711+01901100561ADDAA106000091GF106991061021004501001001MA1999999091121MD1999999-0041REMSYN070AAXX  19184 83339 32497 62314 10271 20190 39112 40056 86200 333 59004;EQDQ01  00002PRCP06
0198833390999992004112100004-14050-042620FM-12+088299999V0202301N003110042019N0020001N1+02451+01941100861ADDAA106000091GF108991061021004501021999KA1240M+03181MA1999999091391MD1999999+0041REMSYN088AAXX  21004 83339 32495 82306 10245 20194 39139 40086 8622/ 333 10318 29066 55043 58004;EQDQ01  00002PRCP06
0190833390999992004112112004-14050-042620FM-12+088299999V0209999C000010042019N0100001N1+02161+02011101061ADDAY191061AY261061GF108991051051004501021999KA1240N+01961MA1999999091521MD1999999+0061MW1021REMSYN088AAXX  21124 83339 21497 80000 10216 20201 39152 40106 70296 8552/ 333 20196 58006 60314;
0171833390999992004112118004-14050-042620FM-12+088299999V0200901N002110450019N0100001N1+02691+02061100661ADDAY161061AY221061GF106991041021004501031001MA1999999091171MD1999999+0161MW1021REMSYN082AAXX  21184 83339 21497 60904 10269 20206 39117 40066 70262 84230 333 58016 60011;
0202833390999992004112200004-14050-042617FM-12+088299999V0209999C000010042019N0010001N1+02001+01931101171ADDAY191061AY261061GF108991051021004501021999KA1240M+02741MA1999999091541MD1999999+0151MW1401REMSYN100AAXX  22004 83339 21494 80000 10200 20193 39154 40117 74096 8522/ 333 10274 29088 55016 58015 60421;
0190833390999992004112212004-14050-042617FM-12+088299999V0200901N003110042019N0040001N1+01931+01851101391ADDAY191061AY261061GF108991081051004501999999KA1240N+01861MA1999999091671MD1999999+0151MW1101REMSYN088AAXX  22124 83339 21496 80906 10193 20185 39167 40139 71096 885// 333 20186 58015 60484;
0171833390999992004112218004-14050-042617FM-12+088299999V0201401N003110042019N0040001N1+01911+01821101171ADDAY161061AY261061GF108991081051004501999999MA1999999091451MD1999999+0281MW1611REMSYN082AAXX  22184 83339 21496 81406 10191 20182 39145 40117 76166 885// 333 58028 60151;
0202833390999992004112300004-14050-042617FM-12+088299999V0201401N007710042019N0020001N1+01891+01781101341ADDAY161061AY261061GF108991081051004501999999KA1240M+02301MA1999999091631MD1999999+0091MW1101REMSYN100AAXX  23004 83339 21495 81415 10189 20178 39163 40134 71066 885// 333 10230 29098 55002 58009 69961;
0195833390999992004112318004-14050-042617FM-12+088299999V0201401N005710042019N0040001N1+01951+01751101301ADDAA106000091AY141061AY201061GF108991081051004501999999MA1999999091551MD1999999+0101MW1101REMSYN076AAXX  23184 83339 31496 81411 10195 20175 39155 40130 71040 885// 333 58010;EQDQ01  00002PRCP06
0207833390999992004112400004-14050-042617FM-12+088299999V0201401N008710042019N0020001N1+01811+01721101541ADDAA106000021AY101061AY201061GF108991081051004501999999KA1240M+02001MA1999999091751MD1999999+0121MW1501REMSYN094AAXX  24004 83339 31495 81417 10181 20172 39175 40154 75000 885// 333 10200 29094 55000 58012;
0190833390999992004112412004-14050-042617FM-12+088299999V0200901N006710042019N0040001N1+01671+01611101591ADDAY161061AY261061GF108991081051004501999999KA1240N+01621MA1999999091771MD1999999+0031MW1401REMSYN088AAXX  24124 83339 21496 80913 10167 20161 39177 40159 74066 885// 333 20162 58003 60034;
0195833390999992004112418004-14050-042617FM-12+088299999V0200901N003110042019N0100001N1+01971+01681101301ADDAA106000091AY141061AY201061GF107991061021004501031001MA1999999091551MD1999999+0001MW1101REMSYN076AAXX  24184 83339 31497 70906 10197 20168 39155 40130 71040 86230 333 58000;EQDQ01  00002PRCP06
0226833390999992004112500004-14050-042617FM-12+088299999V0201401N006210042019N0020001N1+01851+01761101571ADDAA106000091AY101061AY201061GF108991081051004501999999KA1240M+02041MA1999999091751MD1999999+0001MW1101REMSYN094AAXX  25004 83339 31495 81412 10185 20176 39175 40157 71000 885// 333 10204 29093 55000 58000;EQDQ01  00002PRCP06
0190833390999992004112512004-14050-042617FM-12+088299999V0201401N006210042019N0100001N1+01851+01671101531ADDAY161061AY261061GF106991051021004501021001KA1240N+01601MA1999999091171MD1999999-0011MW1101REMSYN088AAXX  25124 83339 21497 61412 10185 20167 39117 40153 71066 85220 333 20160 59001 60014;
0167833390999992004112518004-14050-042617FM-12+088299999V0200501N005112200019N0100001N1+02471+01411101001ADDAA106000091GF103991031021004501001001MA1999999091381MD1999999-0171REMSYN070AAXX  25184 83339 32497 30510 10247 20141 39138 40100 83200 333 59017;EQDQ01  00002PRCP06
0198833390999992004112600004-14050-042617FM-12+088299999V0200901N001512200019N0020001N1+02111+01511101241ADDAA106000091GF102991011021004501031001KA1240M+02541MA1999999091501MD1999999-0251REMSYN088AAXX  26004 83339 32495 20903 10211 20151 39150 40124 81230 333 10254 29071 55071 59025;EQDQ01  00002PRCP06
0167833390999992004112618004-14050-042617FM-12+088299999V0201401N004112200019N0100001N1+02511+01481100991ADDAA106000091GF102991021021004501001001MA1999999091271MD1999999-0111REMSYN070AAXX  26184 83339 32497 21408 10251 20148 39127 40099 82200 333 59011;EQDQ01  00002PRCP06
0198833390999992004112700004-14050-042617FM-12+088299999V0201401N004112200019N0020001N1+02251+01431100961ADDAA106000091GF102991021021004501001001KA1240M+02621MA1999999091361MD1999999-0141REMSYN088AAXX  27004 83339 32495 21408 10225 20143 39136 40096 82200 333 10262 29061 55086 59014;EQDQ01  00002PRCP06
0186833390999992004112712004-14050-042617FM-12+088299999V0200901N003110042019N0100001N1+02211+01691101131ADDAA106000091GF106991061021004501001001KA1240N+01831MA1999999091561MD1999999-0031REMSYN076AAXX  27124 83339 32497 60906 10221 20169 39156 40113 86200 333 20183 59003;EQDQ01  00002PRCP06
0167833390999992004112718004-14050-042617FM-12+088299999V0200501N001510042019N0100001N1+02651+01511100951ADDAA106000091GF106991051021004501021001MA1999999091241MD1999999-0031REMSYN070AAXX  27184 83339 32497 60503 10265 20151 39124 40095 85220 333 59003;EQDQ01  00002PRCP06
0202833390999992004112800004-14050-042617FM-12+088299999V0209999C000010042019N0020001N1+02151+01841100941ADDAY161061AY261061GF106991061021004501001001KA1240M+02941MA1999999091361MD1999999+0001MW1101REMSYN100AAXX  28004 83339 21495 60000 10215 20184 39136 40094 71066 86200 333 10294 29071 55060 58000 60161;
0190833390999992004112812004-14050-042617FM-12+088299999V0200901N001010042019N0100001N1+02331+01891101071ADDAY161061AY261061GF106991061021004501001001KA1240N+01931MA1999999091511MD1999999-0051MW1021REMSYN088AAXX  28124 83339 21497 60902 10233 20189 39151 40107 70266 86200 333 20193 59005 60164;
0171833390999992004112818004-14050-042617FM-12+088299999V0200901N001510042019N0100001N1+02671+01821100591ADDAY161061AY261061GF105991051021004501001001MA1999999091111MD1999999-0131MW1021REMSYN082AAXX  28184 83339 21497 50903 10267 20182 39111 40059 70266 85200 333 59013 60021;
0202833390999992004112900004-14050-042617FM-12+088299999V0201801N001010042019N0020001N1+02151+02061100861ADDAY161061AY261061GF108991081051004501999999KA1240M+02741MA1999999091351MD1999999-0011MW1621REMSYN100AAXX  29004 83339 21495 81802 10215 20206 39135 40086 76266 885// 333 10274 29081 55038 59001 60021;
0167833390999992004113018004-14050-042617FM-12+088299999V0202301N002110042019N0100001N1+02911+01921100561ADDAA106000091GF105991051021004501001001MA1999999091121MD1999999-0051REMSYN070AAXX  30184 83339 32497 52304 10291 20192 39112 40056 85200 333 59005;EQDQ01  00002PRCP06
0208833390999992004120100004-14050-042617FM-12+088299999V0209999C000012200019N0020001N1+02261+02031101011ADDAA106000091GA1001+999999999GF100991001001999999001001KA1240M+02981MA1999999091431MD1999999+0031REMSYN082AAXX  01004 83339 32995 00000 10226 20203 39143 40101 333 10298 29080 55056 58003;EQDQ01  00002PRCP06
0186833390999992004120112004-14050-042617FM-12+088299999V0201401N001510042019N0100001N1+02321+02111101071ADDAA106000091GF106991061021004501001001KA1240N+02001MA1999999091531MD1999999+0111REMSYN076AAXX  01124 83339 32497 61403 10232 20211 39153 40107 86200 333 20200 58011;EQDQ01  00002PRCP06
0171833390999992004120118004-14050-042617FM-12+088299999V0201401N001010042019N0100001N1+02351+02241100811ADDAY161061AY221061GF108991051021004501021999MA1999999091211MD1999999+0091MW1021REMSYN082AAXX  01184 83339 21497 81402 10235 20224 39121 40081 70262 8522/ 333 58009 60021;
0226833390999992004120200004-14050-042617FM-12+088299999V0201401N007210042019N0020001N1+02011+01901101141ADDAA106000091AY121061AY221061GF108991051021004501021999KA1240M+02761MA1999999091531MD1999999+0101MW1131REMSYN094AAXX  02004 83339 31495 81414 10201 20190 39153 40114 71322 8522/ 333 10276 29092 55017 58010;EQDQ01  00002PRCP06
0190833390999992004120212004-14050-042617FM-12+088299999V0201401N004110450019N0100001N1+02231+02031101301ADDAY161061AY221061GF106991041021004501031001KA1240N+01951MA1999999091651MD1999999+0121MW1021REMSYN088AAXX  02124 83339 21497 61408 10223 20203 39165 40130 70262 84230 333 20195 58012 60054;
0167833390999992004120218004-14050-042617FM-12+088299999V0200501N004112200019N0100001N1+02691+01861100891ADDAA106000091GF103991021021004501001011MA1999999091381MD1999999+0171REMSYN070AAXX  02184 83339 32497 30508 10269 20186 39138 40089 82201 333 58017;EQDQ01  00002PRCP06
0208833390999992004120300004-14050-042617FM-12+088299999V0201401N009812200019N0020001N1+02191+01971101111ADDAA106000091GA1001+999999999GF100991001001999999001001KA1240M+02741MA1999999091521MD1999999-0011REMSYN082AAXX  03004 83339 32995 01419 10219 20197 39152 40111 333 10274 29080 55083 59001;EQDQ01  00002PRCP06
0186833390999992004120312004-14050-042617FM-12+088299999V0200901N006210042019N0100001N1+02221+01801101331ADDAA106000091GF106991061021004501001001KA1240N+01891MA1999999091721MD1999999+0071REMSYN076AAXX  03124 83339 32497 60912 10222 20180 39172 40133 86200 333 20189 58007;EQDQ01  00002PRCP06
0167833390999992004120318004-14050-042617FM-12+088299999V0200901N003110042019N0100001N1+02481+01961101071ADDAA106000091GF105991051021004501001001MA1999999091481MD1999999+0101REMSYN070AAXX  03184 83339 32497 50906 10248 20196 39148 40107 85200 333 58010;EQDQ01  00002PRCP06
0208833390999992004120400004-14050-042617FM-12+088299999V0200901N005112200019N0020001N1+02231+01751101131ADDAA106000091GA1001+999999999GF100991001001999999001001KA1240M+02601MA1999999091541MD1999999+0021REMSYN082AAXX  04004 83339 32995 00910 10223 20175 39154 40113 333 10260 29052 55089 58002;EQDQ01  00002PRCP06
0186833390999992004120412004-14050-042617FM-12+088299999V0200901N004112200019N0100001N1+02171+01741101561ADDAA106000091GF104991021021004501001041KA1240N+01741MA1999999091931MD1999999+0211REMSYN076AAXX  04124 83339 32497 40908 10217 20174 39193 40156 82204 333 20174 58021;EQDQ01  00002PRCP06
0167833390999992004120418004-14050-042617FM-12+088299999V0200901N003112200019N0100001N1+02531+01631101281ADDAA106000091GF106991021011004501001041MA1999999091671MD1999999+0191REMSYN070AAXX  04184 83339 32497 60906 10253 20163 39167 40128 82104 333 58019;EQDQ01  00002PRCP06
0208833390999992004120500004-14050-042617FM-12+088299999V0201401N004112200019N0020001N1+02261+01711101371ADDAA106000091GA1001+999999999GF100991001001999999001001KA1240M+02661MA1999999091751MD1999999+0211REMSYN082AAXX  05004 83339 32995 01408 10226 20171 39175 40137 333 10266 29069 55075 58021;EQDQ01  00002PRCP06
0186833390999992004120512004-14050-042617FM-12+088299999V0200901N004110042019N0100001N1+02131+01821101411ADDAA106000091GF106991061021004501021001KA1240N+01171MA1999999091791MD1999999-0141REMSYN076AAXX  05124 83339 32497 60908 10213 20182 39179 40141 86220 333 20117 59014;EQDQ01  00002PRCP06
0167833390999992004120518004-14050-042617FM-12+088299999V0200901N003612200019N0100001N1+02711+01681100971ADDAA106000091GF102991021011004501001001MA1999999091451MD1999999-0221REMSYN070AAXX  05184 83339 32497 20907 10271 20168 39145 40097 82100 333 59022;EQDQ01  00002PRCP06
0208833390999992004120600004-14050-042620FM-12+088299999V0201401N003112200019N0020001N1+02281+01381101171ADDAA106000091GA1001+999999999GF100991001001999999001001KA1240M+02771MA1999999091571MD1999999-0181REMSYN082AAXX  06004 83339 32995 01406 10228 20138 39157 40117 333 10277 29062 55110 59018;EQDQ01  00002PRCP06
0186833390999992004120612004-14050-042620FM-12+088299999V0200501N003612200019N0100001N1+02371+01781101131ADDAA106000091GF102991021021004501001001KA1240N+01841MA1999999091581MD1999999-0211REMSYN076AAXX  06124 83339 32497 20507 10237 20178 39158 40113 82200 333 20184 59021;EQDQ01  00002PRCP06
0167833390999992004120618004-14050-042620FM-12+088299999V0200501N004612200019N0100001N1+02731+01351100881ADDAA106000091GF102991011021004501001041MA1999999091241MD1999999-0211REMSYN070AAXX  06184 83339 32497 20509 10273 20135 39124 40088 81204 333 59021;EQDQ01  00002PRCP06
0208833390999992004120700004-14050-042617FM-12+088299999V0201401N004112200019N0020001N1+02231+01301100881ADDAA106000091GA1001+999999999GF100991001001999999001001KA1240M+02801MA1999999091351MD1999999-0221REMSYN082AAXX  07004 83339 32995 01408 10223 20130 39135 40088 333 10280 29061 55119 59022;EQDQ01  00002PRCP06
0196833390999992004120712004-14050-042617FM-12+088299999V0200901N002612200019N0100001N1+02331+01721101171ADDAA106000091GA1001+999999999GF100991001001999999001001KA1240N+01721MA1999999091621MD1999999+0041REMSYN070AAXX  07124 83339 32997 00905 10233 20172 39162 40117 333 20172 58004;EQDQ01  00002PRCP06
0167833390999992004120718004-14050-042617FM-12+088299999V0201401N003112200019N0100001N1+02931+01601100631ADDAA106000091GF102991021021004501001001MA1999999091231MD1999999-0011REMSYN070AAXX  07184 83339 32497 21406 10293 20160 39123 40063 82200 333 59001;EQDQ01  00002PRCP06
0208833390999992004120800004-14050-042617FM-12+088299999V0200901N003112200019N0020001N1+02351+01491100871ADDAA106000091GA1001+999999999GF100991001001999999001001KA1240M+03001MA1999999091361MD1999999+0011REMSYN082AAXX  08004 83339 32995 00906 10235 20149 39136 40087 333 10300 29058 55118 58001;EQDQ01  00002PRCP06
0186833390999992004120812004-14050-042617FM-12+088299999V0200901N005112200019N0100001N1+02371+01891101131ADDAA106000091GF102991021021004501001001KA1240N+01781MA1999999091601MD1999999-0021REMSYN076AAXX  08124 83339 32497 20910 10237 20189 39160 40113 82200 333 20178 59002;EQDQ01  00002PRCP06
0167833390999992004120818004-14050-042617FM-12+088299999V0200901N000510042019N0100001N1+02711+01751100921ADDAA106000091GF105991051021004501001001MA1999999091271MD1999999+0041REMSYN070AAXX  08184 83339 32497 50901 10271 20175 39127 40092 85200 333 58004;EQDQ01  00002PRCP06
0186833390999992004120912004-14050-042617FM-12+088299999V0200501N001512200019N0100001N1+02411+01891101081ADDAA106000091GF102991021021004501001001KA1240N+01831MA1999999091151MD1999999-0051REMSYN076AAXX  09124 83339 32497 20503 10241 20189 39115 40108 82200 333 20183 59005;EQDQ01  00002PRCP06
0195833390999992004120918004-14050-042617FM-12+088299999V0202301N003110042019N0100001N1+02571+01731100801ADDAA106000091AY191061AY201061GF106991051021004501021001MA1999999091161MD1999999-0111MW1171REMSYN076AAXX  09184 83339 31497 62306 10257 20173 39116 40080 71790 85220 333 59011;EQDQ01  00002PRCP06
0226833390999992004121000004-14050-042617FM-12+088299999V0201801N000512200019N0020001N1+02371+01781100861ADDAA106000091AY191061AY201061GF102991021021004501001001KA1240M+03021MA1999999091391MD1999999+0001MW1021REMSYN094AAXX  10004 83339 31495 21801 10237 20178 39139 40086 70290 82200 333 10302 29074 55090 58000;EQDQ01  00002PRCP06
0186833390999992004121012004-14050-042617FM-12+088299999V0200501N002112200019N0100001N1+02611+01961100831ADDAA106000091GF102991011021004501021001KA1240N+01931MA1999999091391MD1999999-0161REMSYN076AAXX  10124 83339 32497 20504 10261 20196 39139 40083 81220 333 20193 59016;EQDQ01  00002PRCP06
0170833390999992004121018004-14050-042617FM-12+088299999V0202701N001510042019N0100001N1+02431+01921100701ADDAY191061AY261061GF106991061021004501001001MA1999999091021MD1999999-0141MW1021REMSYN081AAXX  10184 83339 21497 62703 10243 20192 39102 40070 70296 86200 333 59014 0121;
0198833390999992004121100004-14050-042617FM-12+088299999V0203601N001010042019N0100001N1+02271+01861100621ADDAA106000091GF106991061021004501001001KA1240M+03001MA1999999091251MD1999999-0141REMSYN088AAXX  11004 83339 32497 63602 10227 20186 39125 40062 86200 333 10300 29074 55044 59014;EQDQ01  00002PRCP06
0190833390999992004121112004-14050-042617FM-12+088299999V0200901N000510042019N0040001N1+02051+01911100991ADDAY191061AY261061GF107991061021004501021999KA1240N+01861MA1999999091131MD1999999+0001MW1101REMSYN088AAXX  11124 83339 21496 70901 10205 20191 39113 40099 71096 8622/ 333 20186 58000 60294;
0195833390999992004121118004-14050-042617FM-12+088299999V0201401N003110042019N0040001N1+02431+02071100661ADDAA106000091AY191061AY201061GF106991051021004501031001MA1999999091071MD1999999+0051MW1101REMSYN076AAXX  11184 83339 31496 61406 10243 20207 39107 40066 71090 85230 333 58005;EQDQ01  00002PRCP06
0202833390999992004121200004-14050-042620FM-12+088299999V0202301N003610042019N0020001N1+01911+01851101131ADDAY191061AY261061GF108991081051004501999999KA1240M+02541MA1999999091481MD1999999+0231MW1611REMSYN100AAXX  12004 83339 21495 82307 10191 20185 39148 40113 76196 885// 333 10254 29090 55017 58023 60251;
0190833390999992004121212004-14050-042620FM-12+088299999V0203601N000510042019N0100001N1+02151+01881101171ADDAY191061AY261061GF106991051021004501021001KA1240N+01841MA1999999091521MD1999999+0131MW1101REMSYN088AAXX  12124 83339 21497 63601 10215 20188 39152 40117 71096 85220 333 20184 58013 60434;
0195833390999992004121218004-14050-042620FM-12+088299999V0200501N003110450019N0100001N1+02651+02051100791ADDAA106000091AY101061AY201061GF105991041021004501021001MA1999999091251MD1999999+0181MW1171REMSYN076AAXX  12184 83339 31497 50506 10265 20205 39125 40079 71700 84220 333 58018;EQDQ01  00002PRCP06
0226833390999992004121300004-14050-042617FM-12+088299999V0201801N000512200019N0020001N1+02231+01971101141ADDAA106000091AY191061AY201061GF102991021021004501001001KA1240M+02821MA1999999091531MD1999999+0051MW1101REMSYN094AAXX  13004 83339 31495 21801 10223 20197 39153 40114 71090 82200 333 10282 29081 55031 58005;EQDQ01  00002PRCP06
0190833390999992004121312004-14050-042617FM-12+088299999V0200501N001510042019N0100001N1+02211+01991101341ADDAY191061AY261061GF106991061021004501001001KA1240N+01871MA1999999091731MD1999999+0211MW1021REMSYN088AAXX  13124 83339 21497 60503 10221 20199 39173 40134 70296 86200 333 20187 58021 60094;
0167833390999992004121318004-14050-042617FM-12+088299999V0200901N004112200019N0100001N1+02701+02011100861ADDAA106000091GF105991041021004501001011MA1999999091341MD1999999+0091REMSYN070AAXX  13184 83339 32497 50908 10270 20201 39134 40086 84201 333 58009;EQDQ01  00002PRCP06
0226833390999992004121400004-14050-042617FM-12+088299999V0201401N001010042019N0020001N1+02141+01821101191ADDAA106000091AY121061AY221061GF108991051021004501021999KA1240M+02761MA1999999091571MD1999999+0041MW1131REMSYN094AAXX  14004 83339 31495 81402 10214 20182 39157 40119 71322 8522/ 333 10276 29079 55063 58004;EQDQ01  00002PRCP06
0186833390999992004121412004-14050-042617FM-12+088299999V0200901N002610450019N0100001N1+02231+02011101331ADDAA106000091GF106991041051004501021001KA1240N+01861MA1999999091721MD1999999-0011REMSYN076AAXX  14124 83339 32497 60905 10223 20201 39172 40133 84520 333 20186 59001;EQDQ01  00002PRCP06
0167833390999992004121418004-14050-042617FM-12+088299999V0200901N003112200019N0100001N1+02601+02031100841ADDAA106000091GF106991041021004501001041MA1999999091321MD1999999-0021REMSYN070AAXX  14184 83339 32497 60906 10260 20203 39132 40084 84204 333 59002;EQDQ01  00002PRCP06
0226833390999992004121500004-14050-042617FM-12+088299999V0201401N005110042019N0020001N1+02191+01941101181ADDAA106000091AY121061AY221061GF106991061021004501001001KA1240M+02771MA1999999091581MD1999999+0011MW1131REMSYN094AAXX  15004 83339 31495 61410 10219 20194 39158 40118 71322 86200 333 10277 29082 55036 58001;EQDQ01  00002PRCP06
0186833390999992004121512004-14050-042617FM-12+088299999V0200901N004110042019N0100001N1+02111+01911101261ADDAA106000091GF105991051021004501001001KA1240N+01971MA1999999091641MD1999999-0081REMSYN076AAXX  15124 83339 32497 50908 10211 20191 39164 40126 85200 333 20197 59008;EQDQ01  00002PRCP06
0167833390999992004121518004-14050-042617FM-12+088299999V0200901N005112200019N0100001N1+02591+01871100921ADDAA106000091GF104991041021004501001001MA1999999091371MD1999999+0051REMSYN070AAXX  15184 83339 32497 40910 10259 20187 39137 40092 84200 333 58005;EQDQ01  00002PRCP06
0198833390999992004121600004-14050-042617FM-12+088299999V0200901N002612200019N0020001N1+02161+01741101111ADDAA106000091GF102991021021004501001001KA1240M+02681MA1999999091501MD1999999-0081REMSYN088AAXX  16004 83339 32495 20905 10216 20174 39150 40111 82200 333 10268 29076 55082 59008;EQDQ01  00002PRCP06
0186833390999992004121612004-14050-042617FM-12+088299999V0200901N005712200019N0100001N1+02221+01691101121ADDAA106000091GF102991011011004501001011KA1240N+01801MA1999999091531MD1999999-0111REMSYN076AAXX  16124 83339 32497 20911 10222 20169 39153 40112 81101 333 20180 59011;EQDQ01  00002PRCP06
0167833390999992004121618004-14050-042617FM-12+088299999V0200901N004612200019N0100001N1+02631+01601100811ADDAA106000091GF102991021011004501001001MA1999999091271MD1999999-0101REMSYN070AAXX  16184 83339 32497 20909 10263 20160 39127 40081 82100 333 59010;EQDQ01  00002PRCP06
0186833390999992004121712004-14050-042617FM-12+088299999V0200901N004112200019N0100001N1+02241+01881101061ADDAA106000091GF102991021011004501001001KA1240N+01821MA1999999091501MD1999999-0031REMSYN076AAXX  17124 83339 32497 20908 10224 20188 39150 40106 82100 333 20182 59003;EQDQ01  00002PRCP06
0167833390999992004121718004-14050-042617FM-12+088299999V0200901N004612200019N0100001N1+02611+01571100691ADDAA106000091GF102991021021004501001001MA1999999091181MD1999999-0091REMSYN070AAXX  17184 83339 32497 20909 10261 20157 39118 40069 82200 333 59009;EQDQ01  00002PRCP06
0208833390999992004121800004-14050-042617FM-12+088299999V0201401N002612200019N0020001N1+02211+01551101001ADDAA106000091GA1001+999999999GF100991001001999999001001KA1240M+02781MA1999999091421MD1999999+0051REMSYN082AAXX  18004 83339 32995 01405 10221 20155 39142 40100 333 10278 29066 55097 58005;EQDQ01  00002PRCP06
0196833390999992004121812004-14050-042617FM-12+088299999V0201401N002612200019N0100001N1+02281+01791101181ADDAA106000091GA1001+999999999GF100991001001999999001001KA1240N+01661MA1999999091611MD1999999+0111REMSYN070AAXX  18124 83339 32997 01405 10228 20179 39161 40118 333 20166 58011;EQDQ01  00002PRCP06
0167833390999992004121818004-14050-042617FM-12+088299999V0201401N003112200019N0100001N1+02741+01671100851ADDAA106000091GF102991021021004501001001MA1999999091311MD1999999+0131REMSYN070AAXX  18184 83339 32497 21406 10274 20167 39131 40085 82200 333 58013;EQDQ01  00002PRCP06
0208833390999992004121900004-14050-042620FM-12+088299999V0209999C000012200019N0020001N1+02271+01611101041ADDAA106000091GA1001+999999999GF100991001001999999001001KA1240M+02841MA1999999091501MD1999999+0081REMSYN082AAXX  19004 83339 32995 00000 10227 20161 39150 40104 333 10284 29064 55111 58008;EQDQ01  00002PRCP06
0186833390999992004121912004-14050-042620FM-12+088299999V0201401N002610042019N0100001N1+02141+01861101391ADDAA106000091GF106991061021004501001001KA1240N+01751MA1999999091771MD1999999+0161REMSYN076AAXX  19124 83339 32497 61405 10214 20186 39177 40139 86200 333 20175 58016;EQDQ01  00002PRCP06
0167833390999992004121918004-14050-042620FM-12+088299999V0203601N002610042019N0100001N1+02661+01851100961ADDAA106000091GF106991061021004501001001MA1999999091411MD1999999+0101REMSYN070AAXX  19184 83339 32497 63605 10266 20185 39141 40096 86200 333 58010;EQDQ01  00002PRCP06
0198833390999992004122000004-14050-042617FM-12+088299999V0201401N002110450019N0020001N1+02351+01781101151ADDAA106000091GF106991041021004501031001KA1240M+02811MA1999999091581MD1999999+0081REMSYN088AAXX  20004 83339 32495 61404 10235 20178 39158 40115 84230 333 10281 29071 55067 58008;EQDQ01  00002PRCP06
0214833390999992004122012004-14050-042617FM-12+088299999V0201401N003110042019N0100001N1+02191+01941101251ADDAA106000091AY101061AY201061GF106991061021004501001001KA1240N+01931MA1999999091661MD1999999-0111MW1101REMSYN082AAXX  20124 83339 31497 61406 10219 20194 39166 40125 71000 86200 333 20193 59011;EQDQ01  00002PRCP06
0167833390999992004122018004-14050-042617FM-12+088299999V0202701N002610450019N0100001N1+02671+01901100871ADDAA106000091GF105991041021004501021001MA1999999091301MD1999999-0111REMSYN070AAXX  20184 83339 32497 52705 10267 20190 39130 40087 84220 333 59011;EQDQ01  00002PRCP06
0198833390999992004122100004-14050-042617FM-12+088299999V0200901N002612200019N0020001N1+02351+01691100991ADDAA106000091GF102991011021004501021001KA1240M+02901MA1999999091411MD1999999-0171REMSYN088AAXX  21004 83339 32495 20905 10235 20169 39141 40099 81220 333 10290 29071 55068 59017;EQDQ01  00002PRCP06
0167833390999992004122118004-14050-042617FM-12+088299999V0200501N001010450019N0100001N1+02751+01841100621ADDAA106000091GF105991041021004501021001MA1999999091151MD1999999-0151REMSYN070AAXX  21184 83339 32497 50502 10275 20184 39115 40062 84220 333 59015;EQDQ01  00002PRCP06
0214833390999992004122212004-14050-042617FM-12+088299999V0201401N004610042019N0100001N1+02271+02111100971ADDAA106000091AY101061AY201061GF107991061021004501021999KA1240N+02081MA1999999091451MD1999999-0051MW1101REMSYN082AAXX  22124 83339 31497 71409 10227 20211 39145 40097 71000 8622/ 333 20208 59005;EQDQ01  00002PRCP06
0167833390999992004122218004-14050-042617FM-12+088299999V0200501N003110042019N0100001N1+02751+02021100551ADDAA106000091GF106991051021004501021001MA1999999091111MD1999999-0041REMSYN070AAXX  22184 83339 32497 60506 10275 20202 39111 40055 85220 333 59004;EQDQ01  00002PRCP06
0198833390999992004122300004-14050-042617FM-12+088299999V0201401N004610042019N0020001N1+02331+01831100831ADDAA106000091GF106991051021004501021001KA1240M+02861MA1999999091311MD1999999+0081REMSYN088AAXX  23004 83339 32495 61409 10233 20183 39131 40083 85220 333 10286 29074 55029 58008;EQDQ01  00002PRCP06
0214833390999992004122312004-14050-042617FM-12+088299999V0200501N003110042019N0040001N1+02111+02001100981ADDAA106000091AY101061AY201061GF108991081051004501999999KA1240N+01981MA1999999091401MD1999999-0051MW1101REMSYN082AAXX  23124 83339 31496 80506 10211 20200 39140 40098 71000 885// 333 20198 59005;EQDQ01  00002PRCP06
0198833390999992004122400004-14050-042617FM-12+088299999V0201401N002612200019N0020001N1+02271+01711100821ADDAA106000091GF102991021021004501001001KA1240M+02851MA1999999091251MD1999999-0061REMSYN088AAXX  24004 83339 32495 21405 10227 20171 39125 40082 82200 333 10285 29073 55073 59006;EQDQ01  00002PRCP06
0186833390999992004122412004-14050-042617FM-12+088299999V0201401N003112200019N0100001N1+02151+01761100891ADDAA106000091GF103991021021004501021001KA1240N+01741MA1999999091361MD1999999-0041REMSYN076AAXX  24124 83339 32497 31406 10215 20176 39136 40089 82220 333 20174 59004;EQDQ01  00002PRCP06
0167833390999992004122418004-14050-042617FM-12+088299999V0200501N002612200019N0100001N1+02831+01511100741ADDAA106000091GF102991021021004501001001MA1999999091091MD1999999+0041REMSYN070AAXX  24184 83339 32497 20505 10283 20151 39109 40074 82200 333 58004;EQDQ01  00002PRCP06
0198833390999992004122500004-14050-042617FM-12+088299999V0201401N004612200019N0020001N1+02391+01561100901ADDAA106000091GF102991011021004501021001KA1240M+02901MA1999999091311MD1999999+0061REMSYN088AAXX  25004 83339 32495 21409 10239 20156 39131 40090 81220 333 10290 29060 55086 58006;EQDQ01  00002PRCP06
0214833390999992004122512004-14050-042617FM-12+088299999V0200501N002612200019N0100001N1+02251+01921101021ADDAA106000091AY101061AY201061GF102991021021004501001001KA1240N+01681MA1999999091521MD1999999+0161MW1101REMSYN082AAXX  25124 83339 31497 20505 10225 20192 39152 40102 71000 82200 333 20168 58016;EQDQ01  00002PRCP06
0167833390999992004122518004-14050-042617FM-12+088299999V0200501N005712200019N0100001N1+02871+01581100941ADDAA106000091GF102991011021004501001041MA1999999091271MD1999999+0181REMSYN070AAXX  25184 83339 32497 20511 10287 20158 39127 40094 81204 333 58018;EQDQ01  00002PRCP06
0208833390999992004122600004-14050-042620FM-12+088299999V0201801N002112200019N0020001N1+02331+01601100881ADDAA106000091GA1001+999999999GF100991001001999999001001KA1240M+02921MA1999999091351MD1999999+0041REMSYN082AAXX  26004 83339 32995 01804 10233 20160 39135 40088 333 10292 29066 55117 58004;EQDQ01  00002PRCP06
0167833390999992004122618004-14050-042620FM-12+088299999V0201401N004612200019N0100001N1+02731+01461101051ADDAA106000091GF102991011021004501021001MA1999999091391MD1999999+0121REMSYN070AAXX  26184 83339 32497 21409 10273 20146 39139 40105 81220 333 58012;EQDQ01  00002PRCP06
0208833390999992004122700004-14050-042620FM-12+088299999V0201801N002112200019N0020001N1+02271+01391100971ADDAA106000091GA1001+999999999GF100991001001999999001001KA1240M+02861MA1999999091371MD1999999+0021REMSYN082AAXX  27004 83339 32995 01804 10227 20139 39137 40097 333 10286 29063 55083 58002;EQDQ01  00002PRCP06
0202833390999992004122712004-14050-042620FM-12+088299999V0201401N002612200019N0100001N1+02481+01901101011ADDAA106000091GF102991001001999999001011KA1240N+01771MA1999999091491MD1999999-0151REMSYN076AAXX  27124 83339 32897 21405 10248 20190 39149 40101 80001 333 20177 59015;EQDQ01+022502SCOLCBQ02  00002PRCP06
0167833390999992004122718004-14050-042620FM-12+088299999V0201401N004112200019N0100001N1+02991+01331100611ADDAA106000091GF102991011011004501001011MA1999999091161MD1999999-0231REMSYN070AAXX  27184 83339 32497 21408 10299 20133 39116 40061 81101 333 59023;EQDQ01  00002PRCP06
0208833390999992004122800004-14050-042617FM-12+088299999V0209999C000012200019N0020001N1+02441+01421100711ADDAA106000091GA1001+999999999GF100991001001999999001001KA1240M+03061MA1999999091251MD1999999-0121REMSYN082AAXX  28004 83339 32995 00000 10244 20142 39125 40071 333 10306 29053 55118 59012;EQDQ01  00002PRCP06
0196833390999992004122812004-14050-042617FM-12+088299999V0201401N002612200019N0100001N1+02421+01791100871ADDAA106000091GA1001+999999999GF100991001001999999001001KA1240N+01741MA1999999091401MD1999999-0091REMSYN070AAXX  28124 83339 32997 01405 10242 20179 39140 40087 333 20174 59009;EQDQ01  00002PRCP06
0167833390999992004122818004-14050-042617FM-12+088299999V0200501N003112200019N0100001N1+02951+01531100641ADDAA106000091GF102991011011004501001011MA1999999091191MD1999999+0031REMSYN070AAXX  28184 83339 32497 20506 10295 20153 39119 40064 81101 333 58003;EQDQ01  00002PRCP06
0198833390999992004122900004-14050-042617FM-12+088299999V0201401N001512200019N0020001N1+02461+01441100851ADDAA106000091GF104991011011004501001011KA1240M+03001MA1999999091381MD1999999+0131REMSYN088AAXX  29004 83339 32495 41403 10246 20144 39138 40085 81101 333 10300 29054 55120 58013;EQDQ01  00002PRCP06
0186833390999992004122912004-14050-042617FM-12+088299999V0200501N002612200019N0100001N1+02361+01801101251ADDAA106000091GF104991011011004501001061KA1240N+01961MA1999999091731MD1999999+0331REMSYN076AAXX  29124 83339 32497 40505 10236 20180 39173 40125 81106 333 20196 58033;EQDQ01  00002PRCP06
0167833390999992004122918004-14050-042617FM-12+088299999V0201401N004612200019N0100001N1+02661+01951101031ADDAA106000091GF106991021021004501001061MA1999999091511MD1999999+0321REMSYN070AAXX  29184 83339 32497 61409 10266 20195 39151 40103 82206 333 58032;EQDQ01  00002PRCP06
0208833390999992004123000004-14050-042617FM-12+088299999V0201401N001012200019N0020001N1+02331+01691101211ADDAA106000091GA1001+999999999GF100991001001999999001001KA1240M+02781MA1999999091671MD1999999+0271REMSYN082AAXX  30004 83339 32995 01402 10233 20169 39167 40121 333 10278 29068 55035 58027;EQDQ01  00002PRCP06
0186833390999992004123012004-14050-042617FM-12+088299999V0200901N002610042019N0100001N1+02281+01981101401ADDAA106000091GF106991051021004501001011KA1240N+01861MA1999999091801MD1999999+0071REMSYN076AAXX  30124 83339 32497 60905 10228 20198 39180 40140 85201 333 20186 58007;EQDQ01  00002PRCP06
0167833390999992004123018004-14050-042617FM-12+088299999V0200901N003112200019N0100001N1+02791+01501100971ADDAA106000091GF102991011011004501001011MA1999999091471MD1999999-0041REMSYN070AAXX  30184 83339 32497 20906 10279 20150 39147 40097 81101 333 59004;EQDQ01  00002PRCP06
0208833390999992004123100004-14050-042617FM-12+088299999V0209999C000012200019N0020001N1+02351+01401101141ADDAA106000091GA1001+999999999GF100991001001999999001001KA1240M+02841MA1999999091591MD1999999-0081REMSYN082AAXX  31004 83339 32995 00000 10235 20140 39159 40114 333 10284 29060 55115 59008;EQDQ01  00002PRCP06
0186833390999992004123112004-14050-042617FM-12+088299999V0201401N004112200019N0100001N1+02351+01851101301ADDAA106000091GF102991021011004501001001KA1240N+01801MA1999999091751MD1999999-0051REMSYN076AAXX  31124 83339 32497 21408 10235 20185 39175 40130 82100 333 20180 59005;EQDQ01  00002PRCP06
0167833390999992004123118004-14050-042617FM-12+088299999V0200501N002112200019N0100001N1+02851+01651100901ADDAA106000091GF103991031021004501001001MA1999999091411MD1999999-0061REMSYN070AAXX  31184 83339 32497 30504 10285 20165 39141 40090 83200 333 59006;EQDQ01  00002PRCP06
