0198833980999992004010100004-15667-038933FM-12+000599999V0200901N002112200019N0010001N1+02641+02231101431ADDAA106000091GF104991031051008001041001KA1240M+03021MA1999999101381MD1999999-0181REMSYN088AAXX  01004 83398 32594 40904 10264 20223 30138 40143 83540 333 10302 29073 55090 59018;EQDQ01  00002PRCP06
0186833980999992004010112004-15667-038933FM-12+000599999V0200501N002110450019N0040001N1+02961+02261101441ADDAA106000091GF106991031021008001041001KA1240N+02101MA1999999101391MD1999999-0191REMSYN076AAXX  01124 83398 32596 60504 10296 20226 30139 40144 83240 333 20210 59019;EQDQ01  00002PRCP06
0198833980999992004010200004-15667-038933FM-12+000599999V0200901N002112200019N0010001N1+02641+02331101231ADDAA106000091GF103991031011008001001001KA1240M+03061MA1999999101181MD1999999-0201REMSYN088AAXX  02004 83398 32594 30904 10264 20233 30118 40123 83100 333 10306 29077 55111 59020;EQDQ01  00002PRCP06
0186833980999992004010212004-15667-038933FM-12+000599999V0200501N003110075019N0040001N1+02981+02421101331ADDAA106000091GF106991061051008001001001KA1240N+02301MA1999999101281MD1999999-0111REMSYN076AAXX  02124 83398 32596 60506 10298 20242 30128 40133 86500 333 20230 59011;EQDQ01  00002PRCP06
0198833980999992004010300004-15667-038933FM-12+000599999V0200501N002110075019N0010001N1+02641+02441101171ADDAA106000091GF105991051051008001001001KA1240M+03091MA1999999101121MD1999999-0061REMSYN088AAXX  03004 83398 32594 50504 10264 20244 30112 40117 85500 333 10309 29083 55111 59006;EQDQ01  00002PRCP06
0190833980999992004010312004-15667-038933FM-12+000599999V0203601N002110450019N0040001N1+02901+02301101321ADDAY151061AY221061GF106991041051008001021001KA1240N+02401MA1999999101271MD1999999-0011MW1021REMSYN088AAXX  03124 83398 21596 63604 10290 20230 30127 40132 70252 84520 333 20240 59001 69914;
0190833980999992004010412004-15667-038933FM-12+000599999V0201401N002110075019N0040001N1+02761+02461101381ADDAY151061AY221061GF108991051051008001021999KA1240N+02401MA1999999101331MD1999999+0061MW1021REMSYN088AAXX  04124 83398 21596 81404 10276 20246 30133 40138 70252 8552/ 333 20240 58006 69934;
0198833980999992004010500004-15667-038933FM-12+000599999V0201801N002110075019N0010001N1+02481+02381101411ADDAA106000091GF108991061051008001021999KA1240M+03041MA1999999101361MD1999999+0101REMSYN088AAXX  05004 83398 32594 81804 10248 20238 30136 40141 8652/ 333 10304 29091 55026 58010;EQDQ01  00002PRCP06
0186833980999992004010512004-15667-038933FM-12+000599999V0200501N002110450019N0040001N1+02841+02311101421ADDAA106000091GF106991041051008001021001KA1240N+02301MA1999999101371MD1999999+0041REMSYN076AAXX  05124 83398 32596 60504 10284 20231 30137 40142 84520 333 20230 58004;EQDQ01  00002PRCP06
0198833980999992004010600004-15667-038933FM-12+000599999V0200501N002110450019N0010001N1+02661+02271101401ADDAA106000091GF106991031021008001041011KA1240M+03131MA1999999101351MD1999999-0011REMSYN088AAXX  06004 83398 32594 60504 10266 20227 30135 40140 83241 333 10313 29078 55110 59001;EQDQ01  00002PRCP06
0186833980999992004010612004-15667-038933FM-12+000599999V0200901N002110450019N0040001N1+02881+02211101501ADDAA106000091GF106991041051008001041001KA1240N+02161MA1999999101451MD1999999+0081REMSYN076AAXX  06124 83398 32596 60904 10288 20221 30145 40150 84540 333 20216 58008;EQDQ01  00002PRCP06
0198833980999992004010700004-15667-038933FM-12+000599999V0200901N002110450019N0010001N1+02701+02261101481ADDAA106000091GF106991041051008001021001KA1240M+03061MA1999999101431MD1999999+0081REMSYN088AAXX  07004 83398 32594 60904 10270 20226 30143 40148 84520 333 10306 29074 55104 58008;EQDQ01  00002PRCP06
0186833980999992004010712004-15667-038933FM-12+000599999V0200501N002110450019N0040001N1+02861+02231101541ADDAA106000091GF106991041051008001021001KA1240N+02141MA1999999101491MD1999999+0041REMSYN076AAXX  07124 83398 32596 60504 10286 20223 30149 40154 84520 333 20214 58004;EQDQ01  00002PRCP06
0198833980999992004010800004-15667-038933FM-12+000599999V0200501N002110075019N0010001N1+02701+02281101431ADDAA106000091GF107991051051008001021001KA1240M+03031MA1999999101381MD1999999-0051REMSYN088AAXX  08004 83398 32594 70504 10270 20228 30138 40143 85520 333 10303 29075 55079 59005;EQDQ01  00002PRCP06
0190833980999992004010812004-15667-038933FM-12+000599999V0200901N003110450019N0040001N1+02901+02391101431ADDAY161061AY221061GF106991041051008001021001KA1240N+02301MA1999999101381MD1999999-0111MW1021REMSYN088AAXX  08124 83398 21596 60906 10290 20239 30138 40143 70262 84520 333 20230 59011 60014;
0198833980999992004010900004-15667-038933FM-12+000599999V0200901N003110450019N0010001N1+02741+02261101331ADDAA106000091GF106991041051008001021001KA1240M+03111MA1999999101281MD1999999-0101REMSYN088AAXX  09004 83398 32594 60906 10274 20226 30128 40133 84520 333 10311 29075 55090 59010;EQDQ01  00002PRCP06
0190833980999992004010912004-15667-038933FM-12+000599999V0200501N003110450019N0040001N1+02881+02301101281ADDAY161061AY221061GF106991041051008001021001KA1240N+02311MA1999999101231MD1999999-0151MW1021REMSYN088AAXX  09124 83398 21596 60506 10288 20230 30123 40128 70262 84520 333 20231 59015 69944;
0198833980999992004011000004-15667-038933FM-12+000599999V0200501N003110450019N0010001N1+02741+02301101171ADDAA106000091GF106991041051008001021001KA1240M+03161MA1999999101121MD1999999-0161REMSYN088AAXX  10004 83398 32594 60506 10274 20230 30112 40117 84520 333 10316 29075 55101 59016;EQDQ01  00002PRCP06
0190833980999992004011012004-15667-038933FM-12+000599999V0200501N002110075019N0040001N1+02981+02201101221ADDAY151061AY221061GF107991051051008001021001KA1240N+02301MA1999999101171MD1999999-0061MW1021REMSYN088AAXX  10124 83398 21596 70504 10298 20220 30117 40122 70252 85520 333 20230 59006 69954;
0162833980999992004011112004-15667-038933FM-12+000599999V0203601N002110075019N0040001N1+02861+02441101251ADDGF108991061051008001021999KA1240N+02501MA1999999101201MD1999999+0031REMSYN082AAXX  11124 83398 22596 83604 10286 20244 30120 40125 8652/ 333 20250 58003 69914;
0190833980999992004011212004-15667-038933FM-12+000599999V0203601N003110450019N0040001N1+02881+02301101271ADDAY161061AY221061GF106991041051008001021001KA1240N+02381MA1999999101221MD1999999+0021MW1021REMSYN088AAXX  12124 83398 21596 63606 10288 20230 30122 40127 70262 84520 333 20238 58002 60064;
0198833980999992004011300004-15667-038933FM-12+000599999V0200501N002110450019N0010001N1+02701+02481101161ADDAA106000091GF106991041051008001021001KA1240M+03121MA1999999101111MD1999999-0071REMSYN088AAXX  13004 83398 32594 60504 10270 20248 30111 40116 84520 333 10312 29082 55064 59007;EQDQ01  00002PRCP06
0190833980999992004011312004-15667-038933FM-12+000599999V0203601N003110075019N0040001N1+02601+02461101231ADDAY191061AY261061GF108991051071008001021999KA1240N+02281MA1999999101181MD1999999-0041MW1511REMSYN088AAXX  13124 83398 21596 83606 10260 20246 30118 40123 75196 8572/ 333 20228 59004 60514;
0202833980999992004011400004-15667-038933FM-12+000599999V0202301N001010450019N0010001N1+02601+02461101111ADDAY151061AY221061GF106991041051008001021001KA1240M+02921MA1999999101061MD1999999-0051MW1021REMSYN100AAXX  14004 83398 21594 62302 10260 20246 30106 40111 70252 84520 333 10292 29092 55003 59005 69921;
0190833980999992004011412004-15667-038933FM-12+000599999V0203601N002110075019N0040001N1+02681+02521101221ADDAY141061AY261061GF107991051051008001021001KA1240N+02401MA1999999101171MD1999999-0011MW1021REMSYN088AAXX  14124 83398 21596 73604 10268 20252 30117 40122 70246 85520 333 20240 59001 60204;
0202833980999992004011500004-15667-038933FM-12+000599999V0203601N002110075019N0010001N1+02561+02461101011ADDAY151061AY221061GF108991061051008001021999KA1240M+02861MA1999999100961MD1999999-0101MW1021REMSYN100AAXX  15004 83398 21594 83604 10256 20246 30096 40101 70252 8652/ 333 10286 29093 55014 59010 69921;
0190833980999992004011512004-15667-038933FM-12+000599999V0203601N002110075019N0040001N1+02741+02341101021ADDAY161061AY221061GF108991061051008001021999KA1240N+02461MA1999999100971MD1999999-0201MW1021REMSYN088AAXX  15124 83398 21596 83604 10274 20234 30097 40102 70262 8652/ 333 20246 59020 69984;
0202833980999992004011600004-15667-038933FM-12+000599999V0209999C000010075019N0010001N1+02461+02361100961ADDAY191061AY261061GF108991051071008001021999KA1240M+02971MA1999999100911MD1999999-0051MW1511REMSYN100AAXX  16004 83398 21594 80000 10246 20236 30091 40096 75196 8572/ 333 10297 29092 55004 59005 60041;
0162833980999992004011612004-15667-038933FM-12+000599999V0203601N002110075019N0040001N1+02661+02371100901ADDGF108991051051008001021999KA1240N+02401MA1999999100851MD1999999-0121REMSYN082AAXX  16124 83398 22596 83604 10266 20237 30085 40090 8552/ 333 20240 59012 60034;
0202833980999992004011700004-15667-038933FM-12+000599999V0203201N001010075019N0010001N1+02561+01941100831ADDAY151061AY221061GF108991061051008001021999KA1240M+02961MA1999999100781MD1999999-0131MW1501REMSYN100AAXX  17004 83398 21594 83202 10256 20194 30078 40083 75052 8652/ 333 10296 29087 55019 59013 69921;
0190833980999992004011712004-15667-038933FM-12+000599999V0201801N002110075019N0040001N1+02701+02481101891ADDAY191061AY251061GF108991061051008001021999KA1240N+02401MA1999999101841MD1999999-0011MW1021REMSYN088AAXX  17124 83398 21596 81804 10270 20248 30184 40189 70295 8652/ 333 20240 59001 69954;
0186833980999992004011912004-15667-038933FM-12+000599999V0201801N004110075019N0040001N1+02641+01801100181ADDAA106000091GF108991061051008001021999KA1240N+02201MA1999999101131MD1999999+0041REMSYN076AAXX  19124 83398 32596 81808 10264 20180 30113 40018 8652/ 333 20220 58004;EQDQ01  00002PRCP06
0198833980999992004012000004-15667-038933FM-12+000599999V0201801N004110075019N0010001N1+02541+02001101171ADDAA106000091GF108991061051008001021999KA1240M+02891MA1999999101121MD1999999-0031REMSYN088AAXX  20004 83398 32594 81808 10254 20200 30112 40117 8652/ 333 10289 29068 55003 59003;EQDQ01  00002PRCP06
0202833980999992004012100004-15667-038933FM-12+000599999V0201801N004110075019N0010001N1+02241+02161101071ADDAY161061AY221061GF108991081071008001999999KA1240M+02691MA1999999101021MD1999999-0101MW1621REMSYN100AAXX  21004 83398 21594 81808 10224 20216 30102 40107 76262 887// 333 10269 29095 55003 59010 60091;
0190833980999992004012112004-15667-038933FM-12+000599999V0203601N002110075019N0040001N1+02601+02331101121ADDAY191061AY261061GF108991061051008001021999KA1240N+02161MA1999999101071MD1999999-0051MW1021REMSYN088AAXX  21124 83398 21596 83604 10260 20233 30107 40112 70296 8652/ 333 20216 59005 60174;
0198833980999992004012200004-15667-038933FM-12+000599999V0200501N002110450019N0010001N1+02641+02421101121ADDAA106000091GF106991041051008001021001KA1240M+03001MA1999999101071MD1999999+0051REMSYN088AAXX  22004 83398 32594 60504 10264 20242 30107 40112 84520 333 10300 29087 55077 58005;EQDQ01  00002PRCP06
0186833980999992004012212004-15667-038933FM-12+000599999V0200501N003110450019N0040001N1+02721+02241101171ADDAA106000091GF106991031051008001041011KA1240N+02441MA1999999101121MD1999999+0051REMSYN076AAXX  22124 83398 32596 60506 10272 20224 30112 40117 83541 333 20244 58005;EQDQ01  00002PRCP06
0198833980999992004012300004-15667-038933FM-12+000599999V0200501N002110450019N0010001N1+02621+02371101231ADDAA106000091GF106991041051008001021001KA1240M+02861MA1999999101181MD1999999+0111REMSYN088AAXX  23004 83398 32594 60504 10262 20237 30118 40123 84520 333 10286 29082 55032 58011;EQDQ01  00002PRCP06
0190833980999992004012312004-15667-038933FM-12+000599999V0200901N001010075019N0040001N1+02601+02401101311ADDAY191061AY261061GF108991061051008001021001KA1240N+02321MA1999999101261MD1999999+0141MW1021REMSYN088AAXX  23124 83398 21596 80902 10260 20240 30126 40131 70296 86520 333 20232 58014 60024;
0198833980999992004012400004-15667-038933FM-12+000599999V0200901N002110450019N0010001N1+02601+02401101341ADDAA106000091GF106991041051008001021001KA1240M+02851MA1999999101281MD1999999+0101REMSYN088AAXX  24004 83398 32594 60904 10260 20240 30128 40134 84520 333 10285 29089 55010 58010;EQDQ01  00002PRCP06
0190833980999992004012412004-15667-038933FM-12+000599999V0200501N003110450019N0040001N1+02721+02391101451ADDAY161061AY221061GF106991041051008001021001KA1240N+02321MA1999999101401MD1999999+0141MW1021REMSYN088AAXX  24124 83398 21596 60506 10272 20239 30140 40145 70262 84520 333 20232 58014 60054;
0190833980999992004012512004-15667-038933FM-12+000599999V0200901N002110450019N0040001N1+02821+02361101481ADDAY161061AY221061GF106991041051008001041001KA1240N+02261MA1999999101421MD1999999+0021MW1021REMSYN088AAXX  25124 83398 21596 60904 10282 20236 30142 40148 70262 84540 333 20226 58002 60014;
0198833980999992004012600004-15667-038933FM-12+000599999V0200901N002110450019N0010001N1+02681+02281101351ADDAA106000091GF106991031051008001041001KA1240M+02971MA1999999101301MD1999999-0061REMSYN088AAXX  26004 83398 32594 60904 10268 20228 30130 40135 83540 333 10297 29078 55103 59006;EQDQ01  00002PRCP06
0190833980999992004012612004-15667-038933FM-12+000599999V0200901N002110450019N0040001N1+02801+02361101431ADDAY151061AY221061GF106991041051008001021001KA1240N+02171MA1999999101381MD1999999-0041MW1021REMSYN088AAXX  26124 83398 21596 60904 10280 20236 30138 40143 70252 84520 333 20217 59004 69914;
0198833980999992004012700004-15667-038933FM-12+000599999V0200901N003110450019N0010001N1+02661+02271101371ADDAA106000091GF106991041051008001021001KA1240M+02971MA1999999101321MD1999999+0221REMSYN088AAXX  27004 83398 32594 60906 10266 20227 30132 40137 84520 333 10297 29078 55088 58022;EQDQ01  00002PRCP06
0186833980999992004012712004-15667-038933FM-12+000599999V0200901N002110450019N0040001N1+02881+02211101511ADDAA106000091GF106991041051008001021001KA1240N+02221MA1999999101461MD1999999+0081REMSYN076AAXX  27124 83398 32596 60904 10288 20221 30146 40151 84520 333 20222 58008;EQDQ01  00002PRCP06
0198833980999992004012800004-15667-038933FM-12+000599999V0200901N003110450019N0010001N1+02681+02261101481ADDAA106000091GF105991031021008001041001KA1240M+03001MA1999999101431MD1999999+0111REMSYN088AAXX  28004 83398 32594 50906 10268 20226 30143 40148 83240 333 10300 29074 55094 58011;EQDQ01  00002PRCP06
0190833980999992004012812004-15667-038933FM-12+000599999V0200501N002110450019N0040001N1+02841+02351101591ADDAY161061AY221061GF106991041051008001021001KA1240N+02241MA1999999101541MD1999999+0081MW1021REMSYN088AAXX  28124 83398 21596 60504 10284 20235 30154 40159 70262 84520 333 20224 58008 60054;
0198833980999992004012900004-15667-038933FM-12+000599999V0200901N003110450019N0010001N1+02701+02351101531ADDAA106000091GF105991031021008001041001KA1240M+02981MA1999999101481MD1999999+0051REMSYN088AAXX  29004 83398 32594 50906 10270 20235 30148 40153 83240 333 10298 29079 55113 58005;EQDQ01  00002PRCP06
0190833980999992004012912004-15667-038933FM-12+000599999V0200501N002110450019N0040001N1+02881+02321101611ADDAY161061AY221061GF106991041051008001021001KA1240N+02301MA1999999101551MD1999999+0011MW1021REMSYN088AAXX  29124 83398 21596 60504 10288 20232 30155 40161 70262 84520 333 20230 58001 60014;
0202833980999992004013000004-15667-038933FM-12+000599999V0200901N002110450019N0010001N1+02681+02331101531ADDAY151061AY221061GF105991031051008001041001KA1240M+03001MA1999999101481MD1999999+0001MW1021REMSYN100AAXX  30004 83398 21594 50904 10268 20233 30148 40153 70252 83540 333 10300 29078 55072 58000 69911;
0190833980999992004013012004-15667-038933FM-12+000599999V0200901N002110450019N0040001N1+02741+02451101501ADDAY191061AY261061GF106991041051008001021001KA1240N+02301MA1999999101451MD1999999-0101MW1021REMSYN088AAXX  30124 83398 21596 60904 10274 20245 30145 40150 70296 84520 333 20230 59010 60034;
0202833980999992004013100004-15667-038933FM-12+000599999V0200901N002110450019N0010001N1+02461+02171101611ADDAY191061AY261061GF106991041051008001021001KA1240M+03011MA1999999101551MD1999999+0071MW1021REMSYN100AAXX  31004 83398 21594 60904 10246 20217 30155 40161 70296 84520 333 10301 29084 55042 58007 60201;
0190833980999992004013112004-15667-038933FM-12+000599999V0202301N002110075019N0040001N1+02561+02401101711ADDAY191061AY261061GF107991051051008001021001KA1240N+02201MA1999999101651MD1999999+0201MW1021REMSYN088AAXX  31124 83398 21596 72304 10256 20240 30165 40171 70296 85520 333 20220 58020 60234;
0190833980999992004020112004-15667-038933FM-12+000599999V0201401N001010450019N0040001N1+02761+02381101741ADDAY151061AY221061GF106991041051008001021001KA1240N+02301MA1999999101681MD1999999+0031MW1021REMSYN088AAXX  01124 83398 21596 61402 10276 20238 30168 40174 70252 84520 333 20230 58003 69944;
0202833980999992004020200004-15667-038933FM-12+000599999V0201401N001010075019N0010001N1+02641+02331101581ADDAY161061AY221061GF108991061051008001021999KA1240M+02931MA1999999101531MD1999999-0031MW1021REMSYN100AAXX  02004 83398 21594 81402 10264 20233 30153 40158 70262 8652/ 333 10293 29082 55019 59003 60081;
0190833980999992004020212004-15667-038933FM-12+000599999V0200901N002110450019N0040001N1+02741+02401101541ADDAY161061AY221061GF106991041051008001021001KA1240N+02261MA1999999101491MD1999999-0191MW1021REMSYN088AAXX  02124 83398 21596 60904 10274 20240 30149 40154 70262 84520 333 20226 59019 60104;
0202833980999992004020300004-15667-038933FM-12+000599999V0200901N002110075019N0010001N1+02681+02261101481ADDAY191061AY251061GF108991061051008001021999KA1240M+02961MA1999999101431MD1999999-0101MW1021REMSYN100AAXX  03004 83398 21594 80904 10268 20226 30143 40148 70295 8652/ 333 10296 29079 55076 59010 69931;
0190833980999992004020312004-15667-038933FM-12+000599999V0203601N002110075019N0040001N1+02701+02351101491ADDAY151061AY221061GF108991061051008001021999KA1240N+02301MA1999999101441MD1999999-0051MW1021REMSYN088AAXX  03124 83398 21596 83604 10270 20235 30144 40149 70252 8652/ 333 20230 59005 69944;
0202833980999992004020400004-15667-038933FM-12+000599999V0201401N002110450019N0010001N1+02661+02331101401ADDAY151061AY221061GF106991041051008001021001KA1240M+02951MA1999999101351MD1999999-0061MW1021REMSYN100AAXX  04004 83398 21594 61404 10266 20233 30135 40140 70252 84520 333 10295 29082 55016 59006 69911;
0190833980999992004020412004-15667-038933FM-12+000599999V0200501N002110450019N0040001N1+02761+02341101621ADDAY161061AY221061GF106991041051008001021001KA1240N+02211MA1999999101561MD1999999+0121MW1021REMSYN088AAXX  04124 83398 21596 60504 10276 20234 30156 40162 70262 84520 333 20221 58012 60064;
0198833980999992004020500004-15667-038933FM-12+000599999V0200901N002112200019N0010001N1+02661+02311101411ADDAA106000091GF104991041011008001001001KA1240M+02971MA1999999101361MD1999999+0011REMSYN088AAXX  05004 83398 32594 40904 10266 20231 30136 40141 84100 333 10297 29080 55107 58001;EQDQ01  00002PRCP06
0190833980999992004020512004-15667-038933FM-12+000599999V0201401N002110450019N0040001N1+02701+02371101531ADDAY161061AY221061GF106991041051008001021001KA1240N+02241MA1999999101481MD1999999-0081MW1021REMSYN088AAXX  05124 83398 21596 61404 10270 20237 30148 40153 70262 84520 333 20224 59008 60034;
0202833980999992004020600004-15667-038933FM-12+000599999V0200901N002112200019N0010001N1+02641+02331101251ADDAY151061AY221061GF104991041011008001001001KA1240M+02981MA1999999101201MD1999999-0161MW1021REMSYN100AAXX  06004 83398 21594 40904 10264 20233 30120 40125 70252 84100 333 10298 29083 55072 59016 69911;
0190833980999992004020612004-15667-038933FM-12+000599999V0200501N002110450019N0040001N1+02861+02391101251ADDAY161061AY221061GF106991041051008001021001KA1240N+02201MA1999999101201MD1999999-0281MW1021REMSYN088AAXX  06124 83398 21596 60504 10286 20239 30120 40125 70262 84520 333 20220 59028 60024;
0198833980999992004020700004-15667-038933FM-12+000599999V0200501N002112200019N0010001N1+02661+02441100981ADDAA106000091GF103991031011008001001001KA1240M+03011MA1999999100931MD1999999-0271REMSYN088AAXX  07004 83398 32594 30504 10266 20244 30093 40098 83100 333 10301 29084 55115 59027;EQDQ01  00002PRCP06
0186833980999992004020712004-15667-038933FM-12+000599999V0203601N002110450019N0040001N1+02841+02461101071ADDAA106000091GF106991041051008001021001KA1240N+02341MA1999999101021MD1999999-0181REMSYN076AAXX  07124 83398 32596 63604 10284 20246 30102 40107 84520 333 20234 59018;EQDQ01  00002PRCP06
0198833980999992004020800004-15667-038933FM-12+000599999V0200501N002111050019N0010001N1+02701+02411101121ADDAA106000091GF106991021011008001051041KA1240M+03111MA1999999101071MD1999999+0141REMSYN088AAXX  08004 83398 32594 60504 10270 20241 30107 40112 82154 333 10311 29083 55053 58014;EQDQ01  00002PRCP06
0190833980999992004020812004-15667-038933FM-12+000599999V0202701N002110075019N0040001N1+02321+02241101421ADDAY191061AY261061GF108991051071008001021999KA1240N+02241MA1999999101371MD1999999+0351MW1611REMSYN088AAXX  08124 83398 21596 82704 10232 20224 30137 40142 76196 8572/ 333 20224 58035 60094;
0202833980999992004020900004-15667-038933FM-12+000599999V0201801N002110450019N0010001N1+02461+02321101431ADDAY161061AY221061GF106991041051008001021001KA1240M+02781MA1999999101381MD1999999+0311MW1021REMSYN100AAXX  09004 83398 21594 61804 10246 20232 30138 40143 70262 84520 333 10278 29093 55010 58031 60011;
0162833980999992004020912004-15667-038933FM-12+000599999V0202301N002110075019N0040001N1+02601+02401101551ADDGF108991061051008001021999KA1240N+02301MA1999999101501MD1999999+0131REMSYN082AAXX  09124 83398 22596 82304 10260 20240 30150 40155 8652/ 333 20230 58013 60014;
0198833980999992004021000004-15667-038933FM-12+000599999V0201801N002110450019N0010001N1+02461+02301101431ADDAA106000091GF106991041051008001021001KA1240M+02971MA1999999101371MD1999999-0011REMSYN088AAXX  10004 83398 32594 61804 10246 20230 30137 40143 84520 333 10297 29090 55032 59001;EQDQ01  00002PRCP06
0186833980999992004021012004-15667-038933FM-12+000599999V0202301N002110450019N0040001N1+02621+02411101531ADDAA106000091GF106991041051008001021001KA1240N+02261MA1999999101481MD1999999-0021REMSYN076AAXX  10124 83398 32596 62304 10262 20241 30148 40153 84520 333 20226 59002;EQDQ01  00002PRCP06
0198833980999992004021100004-15667-038933FM-12+000599999V0201801N002110450019N0010001N1+02541+02381101511ADDAA106000091GF106991041051008001021001KA1240M+02901MA1999999101461MD1999999+0091REMSYN088AAXX  11004 83398 32594 61804 10254 20238 30146 40151 84520 333 10290 29090 55045 58009;EQDQ01  00002PRCP06
0186833980999992004021112004-15667-038933FM-12+000599999V0201401N002110450019N0040001N1+02841+02501101591ADDAA106000091GF106991031011008001041041KA1240N+02301MA1999999101541MD1999999+0061REMSYN076AAXX  11124 83398 32596 61404 10284 20250 30154 40159 83144 333 20230 58006;EQDQ01  00002PRCP06
0198833980999992004021200004-15667-038933FM-12+000599999V0201801N002110075019N0010001N1+02521+02361101591ADDAA106000091GF105991051051008001001001KA1240M+03041MA1999999101541MD1999999+0061REMSYN088AAXX  12004 83398 32594 51804 10252 20236 30154 40159 85500 333 10304 29088 55108 58006;EQDQ01  00002PRCP06
0190833980999992004021212004-15667-038933FM-12+000599999V0200901N002110450019N0040001N1+02861+02441101711ADDAY161061AY221061GF106991041051008001021001KA1240N+02381MA1999999101651MD1999999+0111MW1021REMSYN088AAXX  12124 83398 21596 60904 10286 20244 30165 40171 70262 84520 333 20238 58011 60044;
0198833980999992004021300004-15667-038933FM-12+000599999V0201801N001012200019N0010001N1+02541+02351101701ADDAA106000091GF104991041051008001001001KA1240M+03021MA1999999101641MD1999999+0101REMSYN088AAXX  13004 83398 32594 41802 10254 20235 30164 40170 84500 333 10302 29085 55107 58010;EQDQ01  00002PRCP06
0190833980999992004021312004-15667-038933FM-12+000599999V0201801N001010450019N0040001N1+02781+02461101721ADDAY151061AY221061GF106991041051004501021001KA1240N+02301MA1999999101661MD1999999+0011MW1021REMSYN088AAXX  13124 83398 21496 61802 10278 20246 30166 40172 70252 84520 333 20230 58001 60024;
0202833980999992004021400004-15667-038933FM-12+000599999V0201801N002110450019N0010001N1+02501+02341101591ADDAY161061AY221061GF106991041051008001021001KA1240M+03001MA1999999101541MD1999999-0101MW1021REMSYN100AAXX  14004 83398 21594 61804 10250 20234 30154 40159 70262 84520 333 10300 29088 55098 59010 60011;
0190833980999992004021412004-15667-038933FM-12+000599999V0201401N002110450019N0040001N1+02841+02381101701ADDAY161061AY221061GF106991041051008001021001KA1240N+02241MA1999999101641MD1999999-0021MW1021REMSYN088AAXX  14124 83398 21596 61404 10284 20238 30164 40170 70262 84520 333 20224 59002 60024;
0198833980999992004021500004-15667-038933FM-12+000599999V0200501N002112200019N0010001N1+02681+02261101401ADDAA106000091GF103991031011008001001001KA1240M+02991MA1999999101351MD1999999-0191REMSYN088AAXX  15004 83398 32594 30504 10268 20226 30135 40140 83100 333 10299 29077 55084 59019;EQDQ01  00002PRCP06
0190833980999992004021512004-15667-038933FM-12+000599999V0203601N002110450019N0040001N1+02941+02431101441ADDAY161061AY221061GF106991041051008001021001KA1240N+02221MA1999999101391MD1999999-0251MW1021REMSYN088AAXX  15124 83398 21596 63604 10294 20243 30139 40144 70262 84520 333 20222 59025 69974;
0198833980999992004021600004-15667-038933FM-12+000599999V0200501N003110450019N0010001N1+02721+02481101311ADDAA106000091GF105991031051008001021001KA1240M+03041MA1999999101261MD1999999-0091REMSYN088AAXX  16004 83398 32594 50506 10272 20248 30126 40131 83520 333 10304 29083 55102 59009;EQDQ01  00002PRCP06
0190833980999992004021612004-15667-038933FM-12+000599999V0200501N002110450019N0040001N1+02921+02501101381ADDAY151061AY221061GF106991041051008001021001KA1240N+02461MA1999999101331MD1999999-0061MW1021REMSYN088AAXX  16124 83398 21596 60504 10292 20250 30133 40138 70252 84520 333 20246 59006 69924;
0202833980999992004021700004-15667-038933FM-12+000599999V0203601N002110450019N0010001N1+02741+02471101311ADDAY151061AY221061GF106991041051008001021001KA1240M+03151MA1999999101261MD1999999+0001MW1021REMSYN100AAXX  17004 83398 21594 63604 10274 20247 30126 40131 70252 84520 333 10315 29083 55089 58000 69911;
0162833980999992004021712004-15667-038933FM-12+000599999V0200501N002110075019N0040001N1+02901+02481101511ADDGF107991061051008001021001KA1240N+02501MA1999999101461MD1999999+0131REMSYN082AAXX  17124 83398 22596 70504 10290 20248 30146 40151 86520 333 20250 58013 69914;
0198833980999992004021800004-15667-038933FM-12+000599999V0200901N002110450019N0010001N1+02761+02441101541ADDAA106000091GF106991041051008001021001KA1240M+03121MA1999999101491MD1999999+0231REMSYN088AAXX  18004 83398 32594 60904 10276 20244 30149 40154 84520 333 10312 29081 55036 58023;EQDQ01  00002PRCP06
0190833980999992004021812004-15667-038933FM-12+000599999V0200501N002110450019N0040001N1+02841+02541101611ADDAY191061AY251061GF106991041051008001021001KA1240N+02461MA1999999101551MD1999999+0091MW1051REMSYN088AAXX  18124 83398 21596 60504 10284 20254 30155 40161 70595 84520 333 20246 58009 69944;
0190833980999992004021912004-15667-038933FM-12+000599999V0200901N001010042019N0040001N1+02511+02241101591ADDAY151061AY221061GF108991051071004501021999KA1240N+02251MA1999999101541MD1999999-0011MW1501REMSYN088AAXX  19124 83398 21496 80902 10251 20224 30154 40159 75052 8572/ 333 20225 59001 60044;
0202833980999992004022000004-15667-038933FM-12+000599999V0200901N002110450019N0010001N1+02701+02261101321ADDAY151061AY221061GF106991041051008001021001KA1240M+03121MA1999999101261MD1999999-0191MW1021REMSYN100AAXX  20004 83398 21594 60904 10270 20226 30126 40132 70252 84520 333 10312 29080 55061 59019 69911;
0190833980999992004022012004-15667-038933FM-12+000599999V0200501N002110450019N0040001N1+02921+02361101451ADDAY151061AY221061GF106991041051008001021001KA1240N+02301MA1999999101401MD1999999-0141MW1021REMSYN088AAXX  20124 83398 21596 60504 10292 20236 30140 40145 70252 84520 333 20230 59014 69944;
0202833980999992004022100004-15667-038933FM-12+000599999V0201401N001010450019N0010001N1+02561+02351101451ADDAY161061AY221061GF106991041051008001021001KA1240M+02971MA1999999101401MD1999999+0141MW1021REMSYN100AAXX  21004 83398 21594 61402 10256 20235 30140 40145 70262 84520 333 10297 29083 55023 58014 60021;
0190833980999992004022112004-15667-038933FM-12+000599999V0200901N001010075019N0040001N1+02581+02331101561ADDAY161061AY221061GF107991051051008001021001KA1240N+02241MA1999999101511MD1999999+0111MW1511REMSYN088AAXX  21124 83398 21596 70902 10258 20233 30151 40156 75162 85520 333 20224 58011 60044;
0190833980999992004022212004-15667-038933FM-12+000599999V0203601N001010450019N0040001N1+02541+02331101651ADDAY161061AY221061GF106991041051008001021999KA1240N+02241MA1999999101591MD1999999+0081MW1511REMSYN088AAXX  22124 83398 21596 63602 10254 20233 30159 40165 75162 8452/ 333 20224 58008 60094;
0190833980999992004022312004-15667-038933FM-12+000599999V0200501N002110450019N0040001N1+02941+02411101531ADDAY151061AY221061GF106991041051008001021001KA1240N+02221MA1999999101481MD1999999-0111MW1021REMSYN088AAXX  23124 83398 21596 60504 10294 20241 30148 40153 70252 84520 333 20222 59011 60014;
0198833980999992004022400004-15667-038933FM-12+000599999V0200501N002110450019N0010001N1+02701+02301101351ADDAA106000091GF106991041051008001021001KA1240M+03021MA1999999101301MD1999999-0181REMSYN088AAXX  24004 83398 32594 60504 10270 20230 30130 40135 84520 333 10302 29076 55110 59018;EQDQ01  00002PRCP06
0186833980999992004022412004-15667-038933FM-12+000599999V0203601N001010450019N0040001N1+02861+02371101441ADDAA106000091GF106991041051008001021001KA1240N+02221MA1999999101391MD1999999-0091REMSYN076AAXX  24124 83398 32596 63602 10286 20237 30139 40144 84520 333 20222 59009;EQDQ01  00002PRCP06
0186833980999992004022512004-15667-038933FM-12+000599999V0200501N002110450019N0040001N1+02861+02481101411ADDAA106000091GF106991041051008001021001KA1240N+02261MA1999999101361MD1999999-0031REMSYN076AAXX  25124 83398 32596 60504 10286 20248 30136 40141 84520 333 20226 59003;EQDQ01  00002PRCP06
0198833980999992004022600004-15667-038933FM-12+000599999V0200901N001010075019N0010001N1+02701+02481101441ADDAA106000091GF105991051051008001001001KA1240M+03111MA1999999101391MD1999999+0141REMSYN088AAXX  26004 83398 32594 50902 10270 20248 30139 40144 85500 333 10311 29085 55047 58014;EQDQ01  00002PRCP06
0190833980999992004022612004-15667-038933FM-12+000599999V0200901N001010075019N0040001N1+02881+02461101611ADDAY151061AY221061GF107991051051008001021001KA1240N+02321MA1999999101551MD1999999+0191MW1021REMSYN088AAXX  26124 83398 21596 70902 10288 20246 30155 40161 70252 85520 333 20232 58019 69914;
0198833980999992004022700004-15667-038933FM-12+000599999V0200901N001012200019N0010001N1+02681+02331101531ADDAA106000091GF104991041011008001001001KA1240M+03131MA1999999101481MD1999999+0091REMSYN088AAXX  27004 83398 32594 40902 10268 20233 30148 40153 84100 333 10313 29080 55099 58009;EQDQ01  00002PRCP06
0190833980999992004022712004-15667-038933FM-12+000599999V0203601N002110075019N0040001N1+02601+02401101551ADDAY161061AY251061GF107991051051008001021001KA1240N+02241MA1999999101501MD1999999-0051MW1021REMSYN088AAXX  27124 83398 21596 73604 10260 20240 30150 40155 70265 85520 333 20224 59005 60074;
0198833980999992004022800004-15667-038933FM-12+000599999V0200501N002110450019N0010001N1+02701+02371101331ADDAA106000091GF106991041051008001021001KA1240M+02961MA1999999101281MD1999999-0201REMSYN088AAXX  28004 83398 32594 60504 10270 20237 30128 40133 84520 333 10296 29084 55070 59020;EQDQ01  00002PRCP06
0186833980999992004022812004-15667-038933FM-12+000599999V0203601N003110450019N0040001N1+03001+02601101101ADDAA106000091GF106991041051008001021001KA1240N+02381MA1999999101051MD1999999-0451REMSYN076AAXX  28124 83398 32596 63606 10300 20260 30105 40110 84520 333 20238 59045;EQDQ01  00002PRCP06
0202833980999992004022900004-15667-038933FM-12+000599999V0203601N001010075019N0010001N1+02241+02071101061ADDAY191061AY261061GF107991051051008001021001KA1240M+03111MA1999999101011MD1999999-0271MW1021REMSYN100AAXX  29004 83398 21594 73602 10224 20207 30101 40106 70296 85520 333 10311 29086 55063 59027 60431;
0190833980999992004022912004-15667-038933FM-12+000599999V0203601N002110450019N0040001N1+02761+02381101321ADDAY191061AY251061GF106991041051008001021001KA1240N+02101MA1999999101271MD1999999+0221MW1021REMSYN088AAXX  29124 83398 21596 63604 10276 20238 30127 40132 70295 84520 333 20210 58022 60444;
0198833980999992004030100004-15667-038933FM-12+000599999V0200901N001010075019N0010001N1+02721+02371101221ADDAA106000091GF105991051051008001001001KA1240M+02981MA1999999101171MD1999999+0161REMSYN088AAXX  01004 83398 32594 50902 10272 20237 30117 40122 85500 333 10298 29081 55069 58016;EQDQ01  00002PRCP06
0186833980999992004030112004-15667-038933FM-12+000599999V0200501N002110450019N0040001N1+02961+02401101361ADDAA106000091GF105991031021008001041041KA1240N+02381MA1999999101311MD1999999+0041REMSYN076AAXX  01124 83398 32596 50504 10296 20240 30131 40136 83244 333 20238 58004;EQDQ01  00002PRCP06
0198833980999992004030200004-15667-038933FM-12+000599999V0200901N001010450019N0010001N1+02681+02521101471ADDAA106000091GF106991041051008001021001KA1240M+03051MA1999999101421MD1999999+0251REMSYN088AAXX  02004 83398 32594 60902 10268 20252 30142 40147 84520 333 10305 29085 55033 58025;EQDQ01  00002PRCP06
0190833980999992004030212004-15667-038933FM-12+000599999V0200901N001010075019N0040001N1+02681+02541101441ADDAY161061AY221061GF107991051051008001021001KA1240N+02311MA1999999101391MD1999999+0081MW1021REMSYN088AAXX  02124 83398 21596 70902 10268 20254 30139 40144 70262 85520 333 20231 58008 60364;
0198833980999992004030300004-15667-038933FM-12+000599999V0200901N001010450019N0010001N1+02701+02461101431ADDAA106000091GF106991041051008001021001KA1240M+03021MA1999999101381MD1999999-0041REMSYN088AAXX  03004 83398 32594 60902 10270 20246 30138 40143 84520 333 10302 29087 55059 59004;EQDQ01  00002PRCP06
0190833980999992004030312004-15667-038933FM-12+000599999V0209999C000010450019N0040001N1+02801+02621101421ADDAY191061AY261061GF106991041051008001021001KA1240N+02301MA1999999101371MD1999999-0021MW1021REMSYN088AAXX  03124 83398 21596 60000 10280 20262 30137 40142 70296 84520 333 20230 59002 60094;
0198833980999992004030400004-15667-038933FM-12+000599999V0209999C000012200019N0010001N1+02581+02381101311ADDAA106000091GF103991031051008001001001KA1240M+02981MA1999999101261MD1999999-0121REMSYN088AAXX  04004 83398 32594 30000 10258 20238 30126 40131 83500 333 10298 29089 55072 59012;EQDQ01  00002PRCP06
0190833980999992004030412004-15667-038933FM-12+000599999V0200501N002110450019N0040001N1+02881+02461101511ADDAY151061AY221061GF106991041051008001021001KA1240N+02321MA1999999101461MD1999999+0091MW1021REMSYN088AAXX  04124 83398 21596 60504 10288 20246 30146 40151 70252 84520 333 20232 58009 69964;
0198833980999992004030500004-15667-038933FM-12+000599999V0200501N001012200019N0010001N1+02701+02411101511ADDAA106000091GF103991021051008001041001KA1240M+03031MA1999999101461MD1999999+0201REMSYN088AAXX  05004 83398 32594 30502 10270 20241 30146 40151 82540 333 10303 29082 55091 58020;EQDQ01  00002PRCP06
0200833980999992004030512004-15667-038933FM-12+000599999V0200901N003110450019N0040001N1+02881+02321101671ADDAA199004091AY191061AY261061GF106991041051008001021001KA1240N+02301MA1999999101611MD1999999+0151MW1021REMSYN087AAXX  05124 83398 21596 60906 10288 20232 30161 40167 70296 84520 333 20230 58015 6004;
0202833980999992004030600004-15667-038933FM-12+000599999V0209999C000012200019N0010001N1+02521+02331101721ADDAY151061AY221061GF103991031011008001001001KA1240M+03021MA1999999101661MD1999999+0201MW1021REMSYN100AAXX  06004 83398 21594 30000 10252 20233 30166 40172 70252 83100 333 10302 29083 55081 58020 69911;
0190833980999992004030612004-15667-038933FM-12+000599999V0200901N001010075019N0040001N1+02801+02381101701ADDAY161061AY221061GF107991051051008001021001KA1240N+02201MA1999999101641MD1999999+0031MW1021REMSYN088AAXX  06124 83398 21596 70902 10280 20238 30164 40170 70262 85520 333 20220 58003 69934;
0202833980999992004030700004-15667-038933FM-12+000599999V0200901N002110450019N0010001N1+02681+02351101671ADDAY161061AY221061GF106991041051008001021001KA1240M+03031MA1999999101611MD1999999-0051MW1021REMSYN100AAXX  07004 83398 21594 60904 10268 20235 30161 40167 70262 84520 333 10303 29081 55104 59005 60011;
0162833980999992004030712004-15667-038933FM-12+000599999V0200901N003110450019N0040001N1+02901+02411101731ADDGF106991041051008001021001KA1240N+02281MA1999999101671MD1999999+0031REMSYN082AAXX  07124 83398 22596 60906 10290 20241 30167 40173 84520 333 20228 58003 60014;
0202833980999992004030800004-15667-038933FM-12+000599999V0201401N002110075019N0010001N1+02521+02331101741ADDAY151061AY221061GF107991051051008001021001KA1240M+03061MA1999999101681MD1999999+0071MW1021REMSYN100AAXX  08004 83398 21594 71404 10252 20233 30168 40174 70252 85520 333 10306 29084 55105 58007 69931;
0190833980999992004030812004-15667-038933FM-12+000599999V0201801N001011050019N0040001N1+02781+02421101811ADDAY161061AY221061GF105991021021004501041011KA1240N+02291MA1999999101751MD1999999+0081MW1011REMSYN088AAXX  08124 83398 21496 51802 10278 20242 30175 40181 70162 82241 333 20229 58008 60074;
0202833980999992004030900004-15667-038933FM-12+000599999V0209999C000010450019N0010001N1+02481+02171101811ADDAY151061AY221061GF106991031021004501041041KA1240M+03041MA1999999101751MD1999999+0071MW1011REMSYN100AAXX  09004 83398 21494 60000 10248 20217 30175 40181 70152 83244 333 10304 29098 55082 58007 60061;
0190833980999992004030912004-15667-038933FM-12+000599999V0200901N004110075019N0040001N1+02601+02351101891ADDAY161061AY221061GF108991061051008001021999KA1240N+02301MA1999999101831MD1999999+0081MW1021REMSYN088AAXX  09124 83398 21596 80908 10260 20235 30183 40189 70262 8652/ 333 20230 58008 60084;
0173833980999992004031000004-15667-038933FM-12+000599999V0201801N001010450019N0010001N1+02461+02301101781ADDAY161061AY241061GF106991041051008001021001MA1999999101721MW1021REMSYN098AAXX  10004 83398 21594 61802 10246 20230 30172 40178 70264 84520 3 10278 29089 55020 59003 60091;
0190833980999992004031012004-15667-038933FM-12+000599999V0202301N001010075019N0040001N1+02401+02231101871ADDAY161061AY221061GF108991061051008001021999KA1240N+02201MA1999999101811MD1999999-0021MW1021REMSYN088AAXX  10124 83398 21596 82302 10240 20223 30181 40187 70262 8652/ 333 20220 59002 60114;
0198833980999992004031100004-15667-038933FM-12+000599999V0201401N001010450019N0010001N1+02611+02221101711ADDAA106000091GF106991041051008001021001KA1240M+03031MA1999999101651MD1999999-0071REMSYN088AAXX  11004 83398 32594 61402 10261 20222 30165 40171 84520 333 10303 29083 55021 59007;EQDQ01  00002PRCP06
0186833980999992004031112004-15667-038933FM-12+000599999V0202301N001010450019N0040001N1+02701+02351101501ADDAA106000091GF106991041051008001021001KA1240N+02221MA1999999101451MD1999999-0261REMSYN076AAXX  11124 83398 32596 62302 10270 20235 30145 40150 84520 333 20222 59026;EQDQ01  00002PRCP06
0202833980999992004031200004-15667-038933FM-12+000599999V0200901N002110450019N0010001N1+02681+02351101321ADDAY161061AY221061GF105991031051008001021001KA1240M+02921MA1999999101271MD1999999-0381MW1021REMSYN100AAXX  12004 83398 21594 50904 10268 20235 30127 40132 70262 83520 333 10292 29082 55046 59038 60031;
0162833980999992004031212004-15667-038933FM-12+000599999V0201401N001010450019N0040001N1+02741+02341101341ADDGF106991041051008001021001KA1240N+02201MA1999999101291MD1999999-0161REMSYN082AAXX  12124 83398 22596 61402 10274 20234 30129 40134 84520 333 20220 59016 60034;
0198833980999992004031300004-15667-038933FM-12+000599999V0209999C000010450019N0010001N1+02541+02351101341ADDAA106000091GF105991031051008001041001KA1240M+03031MA1999999101291MD1999999+0021REMSYN088AAXX  13004 83398 32594 50000 10254 20235 30129 40134 83540 333 10303 29086 55100 58002;EQDQ01  00002PRCP06
0186833980999992004031312004-15667-038933FM-12+000599999V0201801N002110450019N0040001N1+02781+02401101451ADDAA106000091GF106991041051008001021001KA1240N+02301MA1999999101401MD1999999+0111REMSYN076AAXX  13124 83398 32596 61804 10278 20240 30140 40145 84520 333 20230 58011;EQDQ01  00002PRCP06
0198833980999992004031400004-15667-038933FM-12+000599999V0200901N001010075019N0010001N1+02661+02461101461ADDAA106000091GF105991051051008001001001KA1240M+03021MA1999999101411MD1999999+0121REMSYN088AAXX  14004 83398 32594 50902 10266 20246 30141 40146 85500 333 10302 29086 55057 58012;EQDQ01  00002PRCP06
0190833980999992004031412004-15667-038933FM-12+000599999V0201401N001010450019N0040001N1+02321+02161101611ADDAY161061AY221061GF108991041071008001021999KA1240N+02201MA1999999101551MD1999999+0151MW1601REMSYN088AAXX  14124 83398 21596 81402 10232 20216 30155 40161 76062 8472/ 333 20220 58015 60354;
0202833980999992004031500004-15667-038933FM-12+000599999V0209999C000010075019N0010001N1+02581+02371101441ADDAY161061AY221061GF108991051051008001021999KA1240M+02821MA1999999101391MD1999999-0021MW1021REMSYN100AAXX  15004 83398 21594 80000 10258 20237 30139 40144 70262 8552/ 333 10282 29089 55000 59002 60021;
0190833980999992004031512004-15667-038933FM-12+000599999V0200901N001010075019N0040001N1+02741+02381101441ADDAY161061AY221061GF107991051051008001021001KA1240N+02301MA1999999101391MD1999999-0161MW1021REMSYN088AAXX  15124 83398 21596 70902 10274 20238 30139 40144 70262 85520 333 20230 59016 60054;
0198833980999992004031600004-15667-038933FM-12+000599999V0200501N002110450019N0010001N1+02681+02411101221ADDAA106000091GF106991041051008001021001KA1240M+03041MA1999999101171MD1999999-0221REMSYN088AAXX  16004 83398 32594 60504 10268 20241 30117 40122 84520 333 10304 29084 55042 59022;EQDQ01  00002PRCP06
0190833980999992004031612004-15667-038933FM-12+000599999V0203601N002110075019N0040001N1+02781+02481101241ADDAY151061AY221061GF108991061051008001021999KA1240N+02401MA1999999101191MD1999999-0201MW1021REMSYN088AAXX  16124 83398 21596 83604 10278 20248 30119 40124 70252 8652/ 333 20240 59020 69924;
0198833980999992004031700004-15667-038933FM-12+000599999V0200501N003110075019N0010001N1+02741+02431101061ADDAA106000091GF107991051051008001021001KA1240M+03041MA1999999101011MD1999999-0161REMSYN088AAXX  17004 83398 32594 70506 10274 20243 30101 40106 85520 333 10304 29083 55039 59016;EQDQ01  00002PRCP06
0190833980999992004031712004-15667-038933FM-12+000599999V0203601N003110450019N0040001N1+02881+02461101091ADDAY161061AY221061GF106991041051008001021001KA1240N+02441MA1999999101041MD1999999-0151MW1021REMSYN088AAXX  17124 83398 21596 63606 10288 20246 30104 40109 70262 84520 333 20244 59015 69964;
0198833980999992004031800004-15667-038933FM-12+000599999V0209999C000010450019N0010001N1+02701+02391101151ADDAA106000091GF106991041051008001021001KA1240M+03051MA1999999101101MD1999999+0091REMSYN088AAXX  18004 83398 32594 60000 10270 20239 30110 40115 84520 333 10305 29081 55058 58009;EQDQ01  00002PRCP06
0190833980999992004031812004-15667-038933FM-12+000599999V0203601N002110075019N0040001N1+02861+02481101211ADDAY191061AY261061GF108991061051008001021999KA1240N+02321MA1999999101161MD1999999+0121MW1021REMSYN088AAXX  18124 83398 21596 83604 10286 20248 30116 40121 70296 8652/ 333 20232 58012 69994;
0202833980999992004031900004-15667-038933FM-12+000599999V0201401N001010075019N0010001N1+02381+02211101221ADDAY191061AY261061GF108991061051008001021999KA1240M+02931MA1999999101171MD1999999+0071MW1021REMSYN100AAXX  19004 83398 21594 81402 10238 20221 30117 40122 70296 8652/ 333 10293 29087 55018 58007 60241;
0190833980999992004031912004-15667-038933FM-12+000599999V0209999C000010075019N0040001N1+02401+02301101331ADDAY191061AY261061GF108991061051008001021999KA1240N+02261MA1999999101281MD1999999+0121MW1021REMSYN088AAXX  19124 83398 21596 80000 10240 20230 30128 40133 70296 8652/ 333 20226 58012 60254;
0198833980999992004032000004-15667-038933FM-12+000599999V0209999C000010075019N0010001N1+02541+02401101301ADDAA106000091GF108991061051008001021999KA1240M+02851MA1999999101251MD1999999+0031REMSYN088AAXX  20004 83398 32594 80000 10254 20240 30125 40130 8652/ 333 10285 29093 55000 58003;EQDQ01  00002PRCP06
0207833980999992004032012004-15667-038933FM-12+000599999V0209999C000010075019N0040001N1+02601+02461101331ADDAA124000391AY151061AY221061GF108991061051008001021999KA1240N+02361MA1999999101281MD1999999+0001MW1021REMSYN094AAXX  20124 83398 21596 80000 10260 20246 30128 40133 70252 8652/ 333 20236 58000 69934 10003;
0202833980999992004032100004-15667-038933FM-12+000599999V0209999C000010075019N0010001N1+02261+02141101261ADDAY161061AY221061GF108991061051008001021999KA1240M+02911MA1999999101211MD1999999+0011MW1021REMSYN100AAXX  21004 83398 21594 80000 10226 20214 30121 40126 70262 8652/ 333 10291 29093 55003 58001 60091;
0190833980999992004032112004-15667-038933FM-12+000599999V0209999C000010075019N0040001N1+02741+02501101611ADDAY161061AY221061GF108991061051008001021999KA1240N+02141MA1999999101161MD1999999-0121MW1021REMSYN088AAXX  21124 83398 21596 80000 10274 20250 30116 40161 70262 8652/ 333 20214 59012 60094;
0186833980999992004032212004-15667-038933FM-12+000599999V0200501N002110075019N0040001N1+02781+02501101261ADDAA106000091GF108991061051008001021999KA1240N+02401MA1999999101311MD1999999+0051REMSYN076AAXX  22124 83398 32596 80504 10278 20250 30131 40126 8652/ 333 20240 58005;EQDQ01  00002PRCP06
0190833980999992004032312004-15667-038933FM-12+000599999V0201801N001010075019N0040001N1+02401+02301101531ADDAY191061AY261061GF108991061051008001021999KA1240N+02241MA1999999101481MD1999999+0271MW1021REMSYN088AAXX  23124 83398 21596 81802 10240 20230 30148 40153 70296 8652/ 333 20224 58027 60534;
0202833980999992004032400004-15667-038933FM-12+000599999V0209999C000010075019N0010001N1+02461+02361101401ADDAY161061AY221061GF108991061051008001021999KA1240M+02671MA1999999101351MD1999999+0101MW1021REMSYN100AAXX  24004 83398 21594 80000 10246 20236 30135 40140 70262 8652/ 333 10267 29094 55000 58010 60011;
0190833980999992004032412004-15667-038933FM-12+000599999V0201801N002110075019N0040001N1+02441+02341101511ADDAY161061AY221061GF108991061051008001021999KA1240N+02301MA1999999101461MD1999999-0021MW1021REMSYN088AAXX  24124 83398 21596 81804 10244 20234 30146 40151 70262 8652/ 333 20230 59002 60024;
0190833980999992004032512004-15667-038933FM-12+000599999V0201801N001010075019N0040001N1+02441+02231101521ADDAY161061AY221061GF108991061051008001021999KA1240N+02121MA1999999101471MD1999999+0011MW1021REMSYN088AAXX  25124 83398 21596 81802 10244 20223 30147 40152 70262 8652/ 333 20212 58001 60134;
0198833980999992004032600004-15667-038933FM-12+000599999V0201801N001010450019N0010001N1+02421+02281101531ADDAA106000091GF106991041051008001021001KA1240M+02841MA1999999101481MD1999999+0011REMSYN088AAXX  26004 83398 32594 61802 10242 20228 30148 40153 84520 333 10284 29091 55036 58001;EQDQ01  00002PRCP06
0190833980999992004032612004-15667-038933FM-12+000599999V0203601N002110075019N0040001N1+02381+02281101551ADDAY161061AY221061GF108991061071008001021999KA1240N+02221MA1999999101501MD1999999+0031MW1601REMSYN088AAXX  26124 83398 21596 83604 10238 20228 30150 40155 76062 8672/ 333 20222 58003 60014;
0202833980999992004032700004-15667-038933FM-12+000599999V0201801N001010075019N0010001N1+02361+02281101411ADDAY161061AY221061GF108991061071008001021999KA1240M+02811MA1999999101361MD1999999-0121MW1511REMSYN100AAXX  27004 83398 21594 81802 10236 20228 30136 40141 75162 8672/ 333 10281 29095 55013 59012 69981;
0190833980999992004032712004-15667-038933FM-12+000599999V0209999C000010075019N0040001N1+02501+02291101471ADDAY161061AY221061GF108991061051008001021999KA1240N+02241MA1999999101421MD1999999-0081MW1021REMSYN088AAXX  27124 83398 21596 80000 10250 20229 30142 40147 70262 8652/ 333 20224 59008 60104;
0202833980999992004032800004-15667-038933FM-12+000599999V0209999C000010450019N0010001N1+02381+02241101391ADDAY161061AY221061GF106991041051008001021001KA1240M+02831MA1999999101341MD1999999-0021MW1021REMSYN100AAXX  28004 83398 21594 60000 10238 20224 30134 40139 70262 84520 333 10283 29091 55025 59002 69931;
0162833980999992004032812004-15667-038933FM-12+000599999V0209999C000010075019N0040001N1+02661+02431101511ADDGF108991061051008001021999KA1240N+02201MA1999999101461MD1999999+0041REMSYN082AAXX  28124 83398 22596 80000 10266 20243 30146 40151 8652/ 333 20220 58004 69934;
0198833980999992004032900004-15667-038933FM-12+000599999V0209999C000010450019N0010001N1+02501+02361101401ADDAA106000091GF106991041051008001021001KA1240M+02911MA1999999101351MD1999999+0011REMSYN088AAXX  29004 83398 32594 60000 10250 20236 30135 40140 84520 333 10291 29090 55041 58001;EQDQ01  00002PRCP06
0186833980999992004032912004-15667-038933FM-12+000599999V0209999C000010075019N0040001N1+02541+02331101621ADDAA106000091GF107991051051008001021001KA1240N+02301MA1999999101571MD1999999+0111REMSYN076AAXX  29124 83398 32596 70000 10254 20233 30157 40162 85520 333 20230 58011;EQDQ01  00002PRCP06
0198833980999992004033000004-15667-038933FM-12+000599999V0209999C000010450019N0010001N1+02521+02381101571ADDAA106000091GF106991041051008001021001KA1240M+02951MA1999999101521MD1999999+0171REMSYN088AAXX  30004 83398 32594 60000 10252 20238 30152 40157 84520 333 10295 29091 55060 58017;EQDQ01  00002PRCP06
0186833980999992004033012004-15667-038933FM-12+000599999V0209999C000010075019N0040001N1+02721+02451101691ADDAA106000091GF107991051051008001021001KA1240N+02261MA1999999101631MD1999999+0061REMSYN076AAXX  30124 83398 32596 70000 10272 20245 30163 40169 85520 333 20226 58006;EQDQ01  00002PRCP06
0198833980999992004033100004-15667-038933FM-12+000599999V0209999C000010075019N0010001N1+02681+02461101651ADDAA106000091GF108991061051008001021999KA1240M+02991MA1999999101591MD1999999+0071REMSYN088AAXX  31004 83398 32594 80000 10268 20246 30159 40165 8652/ 333 10299 29087 55065 58007;EQDQ01  00002PRCP06
0190833980999992004033112004-15667-038933FM-12+000599999V0209999C000010075019N0040001N1+02641+02501101651ADDAY161061AY221061GF108991061051008001021999KA1240N+02321MA1999999101591MD1999999-0041MW1511REMSYN088AAXX  31124 83398 21596 80000 10264 20250 30159 40165 75162 8652/ 333 20232 59004 60104;
0198833980999992004040100004-15667-038933FM-12+000599999V0209999C000010075019N0010001N1+02521+02401101651ADDAA106000091GF108991061051008001021999KA1240M+02961MA1999999101591MD1999999+0001REMSYN088AAXX  01004 83398 32594 80000 10252 20240 30159 40165 8652/ 333 10296 29093 55052 58000;EQDQ01  00002PRCP06
0186833980999992004040112004-15667-038933FM-12+000599999V0200901N001010075019N0040001N1+02781+02361101621ADDAA106000091GF108991061051008001021999KA1240N+02341MA1999999101561MD1999999-0031REMSYN076AAXX  01124 83398 32596 80902 10278 20236 30156 40162 8652/ 333 20234 59003;EQDQ01  00002PRCP06
0198833980999992004040300004-15667-038933FM-12+000599999V0209999C000010450019N0010001N1+02681+02481101621ADDAA106000091GF105991031051008001021001KA1240M+02991MA1999999101561MD1999999+0071REMSYN088AAXX  03004 83398 32594 50000 10268 20248 30156 40162 83520 333 10299 29086 55080 58007;EQDQ01  00002PRCP06
0190833980999992004040512004-15667-038933FM-12+000599999V0209999C000010450019N0040001N1+02761+02461101731ADDAY161061AY221061GF106991041051008001021001KA1240N+02301MA1999999101671MD1999999-0041MW1021REMSYN088AAXX  05124 83398 21596 60000 10276 20246 30167 40173 70262 84520 333 20230 59004 60124;
0198833980999992004040700004-15667-038933FM-12+000599999V0200901N002110450019N0010001N1+02681+02461101421ADDAA106000091GF106991041051008001021001KA1240M+03001MA1999999101371MD1999999-0151REMSYN088AAXX  07004 83398 32594 60904 10268 20246 30137 40142 84520 333 10300 29088 55059 59015;EQDQ01  00002PRCP06
0190833980999992004040712004-15667-038933FM-12+000599999V0209999C000010450019N0040001N1+02801+02441101471ADDAY161061AY221061GF106991041051008001021001KA1240N+02301MA1999999101421MD1999999-0251MW1021REMSYN088AAXX  07124 83398 21596 60000 10280 20244 30142 40147 70262 84520 333 20230 59025 60054;
0198833980999992004040800004-15667-038933FM-12+000599999V0200901N002110075019N0010001N1+02721+02521101421ADDAA106000091GF107991051051008001021001KA1240M+03041MA1999999101371MD1999999+0001REMSYN088AAXX  08004 83398 32594 70904 10272 20252 30137 40142 85520 333 10304 29086 55075 58000;EQDQ01  00002PRCP06
0190833980999992004040812004-15667-038933FM-12+000599999V0209999C000010450019N0040001N1+02861+02441101581ADDAY191061AY261061GF106991041051008001021001KA1240N+02321MA1999999101531MD1999999+0111MW1021REMSYN088AAXX  08124 83398 21596 60000 10286 20244 30153 40158 70296 84520 333 20232 58011 60074;
0198833980999992004040900004-15667-038933FM-12+000599999V0209999C000010450019N0010001N1+02761+02541101521ADDAA106000091GF105991031051008001021001KA1240M+03041MA1999999101471MD1999999+0101REMSYN088AAXX  09004 83398 32594 50000 10276 20254 30147 40152 83520 333 10304 29085 55076 58010;EQDQ01  00002PRCP06
0190833980999992004040912004-15667-038933FM-12+000599999V0209999C000010075019N0040001N1+02641+02441101711ADDAY161061AY221061GF108991061051008001021999KA1240N+02301MA1999999101651MD1999999+0121MW1021REMSYN088AAXX  09124 83398 21596 80000 10264 20244 30165 40171 70262 8652/ 333 20230 58012 60014;
0202833980999992004041000004-15667-038933FM-12+000599999V0209999C000010450019N0010001N1+02701+02501101501ADDAY161061AY221061GF106991041051008001021001KA1240M+03031MA1999999101451MD1999999-0021MW1021REMSYN100AAXX  10004 83398 21594 60000 10270 20250 30145 40150 70262 84520 333 10303 29089 55067 59002 60041;
0190833980999992004041012004-15667-038933FM-12+000599999V0209999C000010450019N0040001N1+02801+02381101351ADDAY161061AY221061GF106991041051008001021001KA1240N+02241MA1999999101301MD1999999-0351MW1021REMSYN088AAXX  10124 83398 21596 60000 10280 20238 30130 40135 70262 84520 333 20224 59035 60044;
0198833980999992004041100004-15667-038933FM-12+000599999V0200501N002110450019N0010001N1+02721+02501101131ADDAA106000091GF106991041051008001021001KA1240M+03041MA1999999101081MD1999999-0371REMSYN088AAXX  11004 83398 32594 60504 10272 20250 30108 40113 84520 333 10304 29085 55087 59037;EQDQ01  00002PRCP06
0186833980999992004041112004-15667-038933FM-12+000599999V0209999C000010075019N0040001N1+02761+02361101191ADDAA106000091GF107991051051008001021001KA1240N+02261MA1999999101141MD1999999-0161REMSYN076AAXX  11124 83398 32596 70000 10276 20236 30114 40119 85520 333 20226 59016;EQDQ01  00002PRCP06
0186833980999992004042812004-15667-038933FM-12+000599999V0201801N002110075019N0010001N1+02421+02231101941ADDAA106000091GF108991061051008001021999KA1240N+02061MA1999999101881MD1999999+0001REMSYN076AAXX  28124 83398 32594 81804 10242 20223 30188 40194 8652/ 333 20206 58000;EQDQ01  00002PRCP06
0202833980999992004042900004-15667-038933FM-12+000599999V0201801N002110075019N0010001N1+02321+02201101921ADDAY161061AY221061GF108991061051008001021999KA1240M+02671MA1999999101861MD1999999+0001MW1021REMSYN100AAXX  29004 83398 21594 81804 10232 20220 30186 40192 70262 8652/ 333 10267 29091 55000 58000 60021;
0162833980999992004042912004-15667-038933FM-12+000599999V0201801N002110075019N0040001N1+02461+02151101951ADDGF107991051051008001021001KA1240N+02061MA1999999101891MD1999999+0011REMSYN082AAXX  29124 83398 22596 71804 10246 20215 30189 40195 85520 333 20206 58001 60024;
0198833980999992004043000004-15667-038933FM-12+000599999V0201801N001010075019N0010001N1+02241+02181101791ADDAA106000091GF105991051051008001001001KA1240M+02811MA1999999101731MD1999999-0131REMSYN088AAXX  30004 83398 32594 51802 10224 20218 30173 40179 85500 333 10281 29091 55087 59013;EQDQ01  00002PRCP06
0186833980999992004043012004-15667-038933FM-12+000599999V0202301N001010450019N0040001N1+02521+02361101771ADDAA106000091GF106991041051008001021001KA1240N+02041MA1999999101711MD1999999-0181REMSYN076AAXX  30124 83398 32596 62302 10252 20236 30171 40177 84520 333 20204 59018;EQDQ01  00002PRCP06
0198833980999992004050100004-15667-038933FM-12+000599999V0209999C000010075019N0010001N1+02381+02241101611ADDAA106000091GF107991051051008001021001KA1240M+02821MA1999999101551MD1999999-0181REMSYN088AAXX  01004 83398 32594 70000 10238 20224 30155 40161 85520 333 10282 29092 55034 59018;EQDQ01  00002PRCP06
0190833980999992004050112004-15667-038933FM-12+000599999V0201801N001010075019N0040001N1+02481+02291101701ADDAY161061AY221061GF108991061051008001021999KA1240N+02001MA1999999101641MD1999999-0071MW1021REMSYN088AAXX  01124 83398 21596 81802 10248 20229 30164 40170 70262 8652/ 333 20200 59007 60034;
0202833980999992004050200004-15667-038933FM-12+000599999V0209999C000010075019N0010001N1+02361+02281101581ADDAY161061AY221061GF108991061051008001021999KA1240M+02831MA1999999101531MD1999999-0021MW1511REMSYN100AAXX  02004 83398 21594 80000 10236 20228 30153 40158 75162 8652/ 333 10283 29093 55040 59002 60061;
0190833980999992004050212004-15667-038933FM-12+000599999V0209999C000010075019N0040001N1+02401+02261101801ADDAY161061AY221061GF108991061071008001021999KA1240N+02201MA1999999101741MD1999999+0101MW1601REMSYN088AAXX  02124 83398 21596 80000 10240 20226 30174 40180 76062 8672/ 333 20220 58010 60074;
0202833980999992004050300004-15667-038933FM-12+000599999V0209999C000010450019N0010001N1+02321+02201101771ADDAY161061AY221061GF106991041051008001021001KA1240M+02841MA1999999101711MD1999999+0181MW1021REMSYN100AAXX  03004 83398 21594 60000 10232 20220 30171 40177 70262 84520 333 10284 29093 55022 58018 60041;
0190833980999992004050312004-15667-038933FM-12+000599999V0201801N002110450019N0040001N1+02641+02371101881ADDAY151061AY221061GF106991041051008001021001KA1240N+02081MA1999999101821MD1999999+0081MW1021REMSYN088AAXX  03124 83398 21596 61804 10264 20237 30182 40188 70252 84520 333 20208 58008 60044;
0202833980999992004050400004-15667-038933FM-12+000599999V0201801N002110450019N0010001N1+02361+02281101731ADDAY161061AY221061GF108991041051008001021001KA1240M+02881MA1999999101671MD1999999-0041MW1021REMSYN100AAXX  04004 83398 21594 81804 10236 20228 30167 40173 70262 84520 333 10288 29092 55067 59004 69961;
0190833980999992004050412004-15667-038933FM-12+000599999V0202301N002110450019N0040001N1+02561+02351101731ADDAY161061AY221061GF106991041051008001021001KA1240N+02101MA1999999101671MD1999999-0151MW1021REMSYN088AAXX  04124 83398 21596 62304 10256 20235 30167 40173 70262 84520 333 20210 59015 60024;
0198833980999992004050500004-15667-038933FM-12+000599999V0209999C000010450019N0010001N1+02301+02221101661ADDAA106000091GF105991031051008001041001KA1240M+02891MA1999999101601MD1999999-0071REMSYN088AAXX  05004 83398 32594 50000 10230 20222 30160 40166 83540 333 10289 29091 55075 59007;EQDQ01  00002PRCP06
0186833980999992004050512004-15667-038933FM-12+000599999V0209999C000010450019N0040001N1+02581+02311101821ADDAA106000091GF106991041051008001021001KA1240N+02101MA1999999101761MD1999999+0091REMSYN076AAXX  05124 83398 32596 60000 10258 20231 30176 40182 84520 333 20210 58009;EQDQ01  00002PRCP06
0198833980999992004050600004-15667-038933FM-12+000599999V0209999C000010450019N0010001N1+02401+02261101631ADDAA106000091GF105991021011008001041001KA1240M+02911MA1999999101571MD1999999-0031REMSYN088AAXX  06004 83398 32594 50000 10240 20226 30157 40163 82140 333 10291 29090 55065 59003;EQDQ01  00002PRCP06
0190833980999992004050612004-15667-038933FM-12+000599999V0201801N001010075019N0040001N1+02521+02331101921ADDAY161061AY221061GF107991051051008001021001KA1240N+02201MA1999999101851MD1999999+0091MW1021REMSYN088AAXX  06124 83398 21596 71802 10252 20233 30185 40192 70262 85520 333 20220 58009 60074;
0202833980999992004050700004-15667-038933FM-12+000599999V0201401N001010075019N0010001N1+02321+02201101791ADDAY151061AY221061GF105991051051008001001001KA1240M+02851MA1999999101731MD1999999+0161MW1021REMSYN100AAXX  07004 83398 21594 51402 10232 20220 30173 40179 70252 85500 333 10285 29092 55007 58016 69911;
0162833980999992004050712004-15667-038933FM-12+000599999V0200501N001010450019N0040001N1+02681+02331101821ADDGF106991041051008001021001KA1240N+02021MA1999999101761MD1999999-0091REMSYN082AAXX  07124 83398 22596 60502 10268 20233 30176 40182 84520 333 20202 59009 69914;
0198833980999992004050800004-15667-038933FM-12+000599999V0209999C000010450019N0010001N1+02461+02321101701ADDAA106000091GF106991041051008001021001KA1240M+02891MA1999999101641MD1999999-0091REMSYN088AAXX  08004 83398 32594 60000 10246 20232 30164 40170 84520 333 10289 29088 55084 59009;EQDQ01  00002PRCP06
0186833980999992004050812004-15667-038933FM-12+000599999V0209999C000010450019N0040001N1+02701+02221101721ADDAA106000091GF105991031051008001041001KA1240N+01981MA1999999101661MD1999999-0101REMSYN076AAXX  08124 83398 32596 50000 10270 20222 30166 40172 83540 333 20198 59010;EQDQ01  00002PRCP06
0198833980999992004050900004-15667-038933FM-12+000599999V0209999C000010450019N0010001N1+02321+02151101581ADDAA106000091GF105991031051008001041001KA1240M+02881MA1999999101531MD1999999-0111REMSYN088AAXX  09004 83398 32594 50000 10232 20215 30153 40158 83540 333 10288 29085 55087 59011;EQDQ01  00002PRCP06
0186833980999992004050912004-15667-038933FM-12+000599999V0209999C000010450019N0040001N1+02581+02271101151ADDAA106000091GF105991021021008001041001KA1240N+01961MA1999999101501MD1999999-0161REMSYN076AAXX  09124 83398 32596 50000 10258 20227 30150 40115 82240 333 20196 59016;EQDQ01  00002PRCP06
0198833980999992004051000004-15667-038933FM-12+000599999V0209999C000010450019N0010001N1+02341+02171101481ADDAA106000091GF106991041051008001021001KA1240M+02961MA1999999101431MD1999999-0101REMSYN088AAXX  10004 83398 32594 60000 10234 20217 30143 40148 84520 333 10296 29088 55086 59010;EQDQ01  00002PRCP06
0186833980999992004051012004-15667-038933FM-12+000599999V0201801N001010450019N0040001N1+02641+02331101581ADDAA106000091GF106991041051008001021001KA1240N+02061MA1999999101531MD1999999+0031REMSYN076AAXX  10124 83398 32596 61802 10264 20233 30153 40158 84520 333 20206 58003;EQDQ01  00002PRCP06
0198833980999992004051100004-15667-038933FM-12+000599999V0201801N001010075019N0010001N1+02401+02231101571ADDAA106000091GF107991051051008001021001KA1240M+02941MA1999999101521MD1999999+0091REMSYN088AAXX  11004 83398 32594 71802 10240 20223 30152 40157 85520 333 10294 29088 55064 58009;EQDQ01  00002PRCP06
0190833980999992004051112004-15667-038933FM-12+000599999V0201801N001010075019N0040001N1+02341+02291101701ADDAY161061AY221061GF108991051071008001021999KA1240N+02201MA1999999101641MD1999999+0111MW1601REMSYN088AAXX  11124 83398 21596 81802 10234 20229 30164 40170 76062 8572/ 333 20220 58011 60054;
0202833980999992004051200004-15667-038933FM-12+000599999V0201801N001010450019N0010001N1+02341+02291101721ADDAY151061AY221061GF108991041071008001021999KA1240M+02651MA1999999101661MD1999999+0141MW1021REMSYN100AAXX  12004 83398 21594 81802 10234 20229 30166 40172 70252 8472/ 333 10265 29097 55002 58014 69941;
0190833980999992004051212004-15667-038933FM-12+000599999V0209999C000010075019N0040001N1+02321+02271101801ADDAY161061AY221061GF108991051071008001021999KA1240N+02141MA1999999101741MD1999999+0101MW1601REMSYN088AAXX  12124 83398 21596 80000 10232 20227 30174 40180 76062 8572/ 333 20214 58010 60134;
0186833980999992004051312004-15667-038933FM-12+000599999V0209999C000010075019N0040001N1+02481+02291101641ADDAA106000091GF107991051051008001021001KA1240N+02021MA1999999101581MD1999999-0161REMSYN076AAXX  13124 83398 32596 70000 10248 20229 30158 40164 85520 333 20202 59016;EQDQ01  00002PRCP06
0198833980999992004051400004-15667-038933FM-12+000599999V0209999C000010450019N0010001N1+02521+02381101451ADDAA106000091GF106991041051008001021001KA1240M+02841MA1999999101401MD1999999-0171REMSYN088AAXX  14004 83398 32594 60000 10252 20238 30140 40145 84520 333 10284 29091 55047 59017;EQDQ01  00002PRCP06
0186833980999992004051412004-15667-038933FM-12+000599999V0200501N001010075019N0040001N1+02721+02321101471ADDAA106000091GF105991051051008001001001KA1240N+02161MA1999999101421MD1999999-0161REMSYN076AAXX  14124 83398 32596 50502 10272 20232 30142 40147 85500 333 20216 59016;EQDQ01  00002PRCP06
0198833980999992004051500004-15667-038933FM-12+000599999V0209999C000010450019N0010001N1+02381+02211101361ADDAA106000091GF105991031011008001041001KA1240M+02921MA1999999101311MD1999999-0091REMSYN088AAXX  15004 83398 32594 50000 10238 20221 30131 40136 83140 333 10292 29086 55063 59009;EQDQ01  00002PRCP06
0186833980999992004051512004-15667-038933FM-12+000599999V0200501N001010450019N0040001N1+02721+02451101531ADDAA106000091GF105991041021008001041001KA1240N+02101MA1999999101481MD1999999+0061REMSYN076AAXX  15124 83398 32596 50502 10272 20245 30148 40153 84240 333 20210 58006;EQDQ01  00002PRCP06
0198833980999992004051600004-15667-038933FM-12+000599999V0200501N002110450019N0010001N1+02641+02481101341ADDAA106000091GF106991041051008001021001KA1240M+02961MA1999999101291MD1999999-0021REMSYN088AAXX  16004 83398 32594 60504 10264 20248 30129 40134 84520 333 10296 29089 55083 59002;EQDQ01  00002PRCP06
0190833980999992004051612004-15667-038933FM-12+000599999V0201801N002110075019N0040001N1+02441+02351101641ADDAY161061AY221061GF108991061071008001021999KA1240N+02301MA1999999101581MD1999999+0101MW1601REMSYN088AAXX  16124 83398 21596 81804 10244 20235 30158 40164 76062 8672/ 333 20230 58010 60104;
0198833980999992004060400004-15667-038933FM-12+000599999V0209999C000010450019N0010001N1+02321+02181101811ADDAA106000091GF106991041051008001021001KA1240M+02951MA1999999101751MD1999999+0001REMSYN088AAXX  04004 83398 32594 60000 10232 20218 30175 40181 84520 333 10295 29092 55/// 58000;EQDQ01  00002PRCP06
0186833980999992004060412004-15667-038933FM-12+000599999V0209999C000010450019N0040001N1+02461+02251101801ADDAA106000091GF106991041051008001021001KA1240N+01981MA1999999101741MD1999999+0001REMSYN076AAXX  04124 83398 32596 60000 10246 20225 30174 40180 84520 333 20198 58000;EQDQ01  00002PRCP06
0198833980999992004060500004-15667-038933FM-12+000599999V0209999C000010075019N0010001N1+02441+02271101671ADDAA106000091GF107991051051008001021001KA1240M+02811MA1999999101611MD1999999-0141REMSYN088AAXX  05004 83398 32594 70000 10244 20227 30161 40167 85520 333 10281 29089 55080 59014;EQDQ01  00002PRCP06
0186833980999992004060512004-15667-038933FM-12+000599999V0202301N002110450019N0040001N1+02581+02251101671ADDAA106000091GF106991041051008001041001KA1240N+02141MA1999999101611MD1999999-0131REMSYN076AAXX  05124 83398 32596 62304 10258 20225 30161 40167 84540 333 20214 59013;EQDQ01  00002PRCP06
0198833980999992004060600004-15667-038933FM-12+000599999V0209999C000010450019N0010001N1+02301+02161101751ADDAA106000091GF106991041051008001021001KA1240M+02761MA1999999101691MD1999999+0081REMSYN088AAXX  06004 83398 32594 60000 10230 20216 30169 40175 84520 333 10276 29089 55045 58008;EQDQ01  00002PRCP06
0190833980999992004060612004-15667-038933FM-12+000599999V0201801N002110450019N0040001N1+02561+02191101951ADDAY151061AY221061GF106991041051008001021001KA1240N+02121MA1999999101891MD1999999+0281MW1021REMSYN088AAXX  06124 83398 21596 61804 10256 20219 30189 40195 70252 84520 333 20212 58028 69944;
0186833980999992004060712004-15667-038933FM-12+000599999V0201801N001010450019N0040001N1+02441+02151102141ADDAA106000091GF105991031051008001041001KA1240N+01941MA1999999102081MD1999999+0191REMSYN076AAXX  07124 83398 32596 51802 10244 20215 30208 40214 83540 333 20194 58019;EQDQ01  00002PRCP06
0198833980999992004060800004-15667-038933FM-12+000599999V0209999C000010450019N0010001N1+02141+01971102111ADDAA106000091GF105991031051008001041001KA1240M+02791MA1999999102051MD1999999+0081REMSYN088AAXX  08004 83398 32594 50000 10214 20197 30205 40211 83540 333 10279 29088 55055 58008;EQDQ01  00002PRCP06
0186833980999992004060812004-15667-038933FM-12+000599999V0201801N001010075019N0040001N1+02501+02211102121ADDAA106000091GF105991051051008001001001KA1240N+01861MA1999999102061MD1999999-0021REMSYN076AAXX  08124 83398 32596 51802 10250 20221 30206 40212 85500 333 20186 59002;EQDQ01  00002PRCP06
0198833980999992004060900004-15667-038933FM-12+000599999V0201401N001010075019N0010001N1+02341+02171102181ADDAA106000091GF108991061051008001021999KA1240M+02781MA1999999102131MD1999999+0081REMSYN088AAXX  09004 83398 32594 81402 10234 20217 30213 40218 8652/ 333 10278 29088 55071 58008;EQDQ01  00002PRCP06
0190833980999992004060912004-15667-038933FM-12+000599999V0202301N001010075019N0040001N1+02281+02091102291ADDAY161061AY221061GF108991061051008001021999KA1240N+01981MA1999999102231MD1999999+0171MW1021REMSYN088AAXX  09124 83398 21596 82302 10228 20209 30223 40229 70262 8652/ 333 20198 58017 69944;
0202833980999992004061000004-15667-038933FM-12+000599999V0201801N001010450019N0010001N1+02161+02021102201ADDAY151061AY221061GF106991041051008001021001KA1240M+02681MA1999999102141MD1999999+0011MW1021REMSYN100AAXX  10004 83398 21594 61802 10216 20202 30214 40220 70252 84520 333 10268 29091 55037 58001 69951;
0162833980999992004061012004-15667-038933FM-12+000599999V0202301N001010450019N0040001N1+02381+02191102211ADDGF106991041051008001021001KA1240N+01901MA1999999102151MD1999999-0081REMSYN082AAXX  10124 83398 22596 62302 10238 20219 30215 40221 84520 333 20190 59008 69954;
0202833980999992004061100004-15667-038933FM-12+000599999V0201801N001010450019N0010001N1+02141+02021102181ADDAY151061AY221061GF105991041051008001021001KA1240M+02841MA1999999102121MD1999999-0021MW1021REMSYN100AAXX  11004 83398 21594 51802 10214 20202 30212 40218 70252 84520 333 10284 29092 55068 59002 69911;
0190833980999992004061112004-15667-038933FM-12+000599999V0209999C000010450019N0040001N1+02441+02191102251ADDAY161061AY221061GF106991041051008001041001KA1240N+01941MA1999999102191MD1999999+0041MW1021REMSYN088AAXX  11124 83398 21596 60000 10244 20219 30219 40225 70262 84540 333 20194 58004 60034;
0190833980999992004061212004-15667-038933FM-12+000599999V0201801N001010450019N0040001N1+02441+02091102311ADDAY161061AY221061GF105991031051008001021001KA1240N+02021MA1999999102251MD1999999+0061MW1021REMSYN088AAXX  12124 83398 21596 51802 10244 20209 30225 40231 70262 83520 333 20202 58006 60054;
0190833980999992004061412004-15667-038933FM-12+000599999V0201801N002110450019N0040001N1+02241+02071102251ADDAY161061AY221061GF106991041051008001021001KA1240N+01961MA1999999101291MD1999999+0091MW1601REMSYN088AAXX  14124 83398 21596 61804 10224 20207 30129 40225 76062 84520 333 20196 58009 60074;
0202833980999992004061500004-15667-038933FM-12+000599999V0201801N003110075019N0010001N1+02141+02071102231ADDAY161061AY221061GF108991081071008001999999KA1240M+02401MA1999999102171MD1999999+0101MW1611REMSYN100AAXX  15004 83398 21594 81806 10214 20207 30217 40223 76162 887// 333 10240 29094 55013 58010 60191;
0190833980999992004061512004-15667-038933FM-12+000599999V0201801N002110075019N0040001N1+02181+01971102291ADDAY161061AY221061GF108991051051008001021999KA1240N+01961MA1999999102231MD1999999+0041MW1021REMSYN088AAXX  15124 83398 21596 81804 10218 20197 30223 40229 70262 8552/ 333 20196 58004 60604;
0202833980999992004061600004-15667-038933FM-12+000599999V0209999C000010075019N0010001N1+02201+02121102221ADDAY161061AY221061GF108991051051008001021999KA1240M+02501MA1999999102161MD1999999-0011MW1021REMSYN100AAXX  16004 83398 21594 80000 10220 20212 30216 40222 70262 8552/ 333 10250 29093 55043 59001 60041;
0190833980999992004061612004-15667-038933FM-12+000599999V0202301N001010450019N0040001N1+02341+02221102171ADDAY161061AY221061GF106991041051008001021001KA1240N+02021MA1999999102111MD1999999-0121MW1021REMSYN088AAXX  16124 83398 21596 62302 10234 20222 30211 40217 70262 84520 333 20202 59012 60114;
0198833980999992004061700004-15667-038933FM-12+000599999V0209999C000010450019N0010001N1+02161+02111102121ADDAA106000091GF106991041051008001021001KA1240M+02731MA1999999102061MD1999999-0101REMSYN088AAXX  17004 83398 32594 60000 10216 20211 30206 40212 84520 333 10273 29096 55066 59010;EQDQ01  00002PRCP06
0190833980999992004061712004-15667-038933FM-12+000599999V0202301N001010075019N0040001N1+02161+02081102251ADDAY161061AY221061GF108991051051008001021999KA1240N+01981MA1999999102191MD1999999+0081MW1021REMSYN088AAXX  17124 83398 21596 82302 10216 20208 30219 40225 70262 8552/ 333 20198 58008 60104;
0202833980999992004061800004-15667-038933FM-12+000599999V0209999C000010075019N0010001N1+02201+02151102121ADDAY161061AY221061GF108991061051008001021999KA1240M+02541MA1999999102061MD1999999+0001MW1021REMSYN100AAXX  18004 83398 21594 80000 10220 20215 30206 40212 70262 8652/ 333 10254 29096 55014 58000 60031;
0190833980999992004061812004-15667-038933FM-12+000599999V0202301N001010075019N0040001N1+02281+02141102191ADDAY151061AY221061GF107991051051008001021001KA1240N+02001MA1999999102131MD1999999-0061MW1021REMSYN088AAXX  18124 83398 21596 72302 10228 20214 30213 40219 70252 85520 333 20200 59006 60034;
0202833980999992004061900004-15667-038933FM-12+000599999V0209999C000010075019N0010001N1+02201+02131102211ADDAY151061AY221061GF108991051051008001021999KA1240M+02711MA1999999102151MD1999999+0091MW1021REMSYN100AAXX  19004 83398 21594 80000 10220 20213 30215 40221 70252 8552/ 333 10271 29095 55037 58009 69951;
0190833980999992004061912004-15667-038933FM-12+000599999V0209999C000010450019N0040001N1+02461+02251102361ADDAY161061AY221061GF106991041051008001021001KA1240N+02041MA1999999102301MD1999999+0171MW1021REMSYN088AAXX  19124 83398 21596 60000 10246 20225 30230 40236 70262 84520 333 20204 58017 60034;
0190833980999992004062112004-15667-038933FM-12+000599999V0201801N001010450019N0040001N1+02281+02111102241ADDAY161061AY221061GF106991041051008001021001KA1240N+01881MA1999999102181MD1999999-0171MW1021REMSYN088AAXX  21124 83398 21596 61802 10228 20211 30218 40224 70262 84520 333 20188 59017 60064;
0202833980999992004062200004-15667-038933FM-12+000599999V0201801N001010450019N0010001N1+02161+02081102161ADDAY161061AY221061GF106991041051008001021001KA1240M+02701MA1999999102101MD1999999-0101MW1021REMSYN100AAXX  22004 83398 21594 61802 10216 20208 30210 40216 70262 84520 333 10270 29093 55045 59010 60081;
0190833980999992004062212004-15667-038933FM-12+000599999V0202301N001010450019N0040001N1+02321+02151102141ADDAY161061AY221061GF106991041051008001021001KA1240N+02061MA1999999102081MD1999999-0101MW1021REMSYN088AAXX  22124 83398 21596 62302 10232 20215 30208 40214 70262 84520 333 20206 59010 60264;
0202833980999992004062300004-15667-038933FM-12+000599999V0200901N002110450019N0010001N1+02401+02261102121ADDAY161061AY221061GF106991041051008001021001KA1240M+02621MA1999999102061MD1999999-0041MW1021REMSYN100AAXX  23004 83398 21594 60904 10240 20226 30206 40212 70262 84520 333 10262 29091 55020 59004 60031;
0119833980999992004062312004-15667-038933FM-12+000599999V0201801N002119999999N0040001N1+02321+99999999999ADDGF108991999999008001999999REMSYN081AAXX  23124 83398 22596 81804 10232 0218 30222 40228 8652/ 333 20182 58014 60034;
0190833980999992004062412004-15667-038933FM-12+000599999V0202301N001010450019N0040001N1+02321+02241102191ADDAY151061AY221061GF106991041051008001021001KA1240N+01701MA1999999102131MD1999999-0091MW1021REMSYN088AAXX  24124 83398 21596 62302 10232 20224 30213 40219 70252 84520 333 20170 59009 69914;
0198833980999992004062500004-15667-038933FM-12+000599999V0200901N003110450019N0010001N1+02321+02271102071ADDAA106000091GF106991041051008001021001KA1240M+02661MA1999999102011MD1999999-0141REMSYN088AAXX  25004 83398 32594 60906 10232 20227 30201 40207 84520 333 10266 29096 55066 59014;EQDQ01  00002PRCP06
0202833980999992004062600004-15667-038933FM-12+000599999V0209999C000010450019N0010001N1+02081+02001102011ADDAY161061AY221061GF106991041051008001021001KA1240M+02621MA1999999101951MD1999999-0061MW1021REMSYN100AAXX  26004 83398 21594 60000 10208 20200 30195 40201 70262 84520 333 10262 29092 55057 59006 60011;
0190833980999992004062612004-15667-038933FM-12+000599999V0202301N001010075019N0040001N1+02161+02111102131ADDAY161061AY221061GF108991051051008001021999KA1240N+01941MA1999999102071MD1999999+0051MW1021REMSYN088AAXX  26124 83398 21596 82302 10216 20211 30207 40213 70262 8552/ 333 20194 58005 60224;
0202833980999992004062700004-15667-038933FM-12+000599999V0209999C000010450019N0010001N1+02181+02131102061ADDAY151061AY221061GF106991041051008001021001KA1240M+02601MA1999999102001MD1999999+0051MW1021REMSYN100AAXX  27004 83398 21594 60000 10218 20213 30200 40206 70252 84520 333 10260 29097 55025 58005 60091;
0162833980999992004062712004-15667-038933FM-12+000599999V0209999C000010450019N0040001N1+02421+02071102071ADDGF105991031051008001021001KA1240N+01961MA1999999102011MD1999999-0061REMSYN082AAXX  27124 83398 22596 50000 10242 20207 30201 40207 83520 333 20196 59006 69994;
0198833980999992004062800004-15667-038933FM-12+000599999V0209999C000012200019N0010001N1+02081+01961102061ADDAA106000091GF104991021051008001041001KA1240M+02711MA1999999102011MD1999999+0011REMSYN088AAXX  28004 83398 32594 40000 10208 20196 30201 40206 82540 333 10271 29089 55068 58001;EQDQ01  00002PRCP06
0186833980999992004062812004-15667-038933FM-12+000599999V0201801N001011050019N0040001N1+02321+02151102021ADDAA106000091GF105991021051008001041011KA1240N+01841MA1999999101961MD1999999-0051REMSYN076AAXX  28124 83398 32596 51802 10232 20215 30196 40202 82541 333 20184 59005;EQDQ01  00002PRCP06
0202833980999992004062900004-15667-038933FM-12+000599999V0209999C000010450019N0010001N1+02101+01981102041ADDAY161061AY221061GF106991041051008001021001KA1240M+02761MA1999999101981MD1999999-0031MW1021REMSYN100AAXX  29004 83398 21594 60000 10210 20198 30198 40204 70262 84520 333 10276 29092 55073 59003 60091;
0190833980999992004062912004-15667-038933FM-12+000599999V0202301N001010450019N0040001N1+02301+02111102121ADDAY161061AY221061GF106991041051008001021001KA1240N+01921MA1999999102061MD1999999+0101MW1021REMSYN088AAXX  29124 83398 21596 62302 10230 20211 30206 40212 70262 84520 333 20192 58010 60154;
0202833980999992004063000004-15667-038933FM-12+000599999V0201401N001010450019N0010001N1+02201+02121102081ADDAY151061AY221061GF106991041051008001021001KA1240M+02701MA1999999102021MD1999999+0041MW1021REMSYN100AAXX  30004 83398 21594 61402 10220 20212 30202 40208 70252 84520 333 10270 29093 55046 58004 69921;
0190833980999992004063012004-15667-038933FM-12+000599999V0201401N001010042019N0040001N1+02291+02151102201ADDAY161061AY221061GF108991051051004501021999KA1240N+02041MA1999999102141MD1999999+0081MW1601REMSYN088AAXX  30124 83398 21496 81402 10229 20215 30214 40220 76062 8552/ 333 20204 58008 60084;
0202833980999992004070100004-15667-038933FM-12+000599999V0209999C000012200019N0010001N1+02201+02101102031ADDAY151061AY221061GF104991021021004501041001KA1240M+02741MA1999999101971MD1999999-0051MW1011REMSYN100AAXX  01004 83398 21494 40000 10220 20210 30197 40203 70152 82240 333 10274 29094 55053 59005 69941;
0190833980999992004070112004-15667-038933FM-12+000599999V0209999C000010450019N0040001N1+02241+02161102081ADDAY151061AY221061GF108991041051008001021001KA1240N+01921MA1999999102021MD1999999-0121MW1021REMSYN088AAXX  01124 83398 21596 80000 10224 20216 30202 40208 70252 84520 333 20192 59012 60014;
0202833980999992004070200004-15667-038933FM-12+000599999V0209999C000010075019N0010001N1+02221+02171101941ADDAY161061AY221061GF108991051051008001021999KA1240M+02661MA1999999101881MD1999999-0261MW1021REMSYN100AAXX  02004 83398 21594 80000 10222 20217 30188 40194 70262 8552/ 333 10266 29096 55013 59026 60471;
0202833980999992004070300004-15667-038933FM-12+000599999V0200901N001010075019N0010001N1+02201+02151101941ADDAY161061AY221061GF108991051071008001021999KA1240M+02741MA1999999101881MD1999999+0001MW1601REMSYN100AAXX  03004 83398 21594 80902 10220 20215 30188 40194 76062 8572/ 333 10274 29093 55067 58000 60011;
0190833980999992004070312004-15667-038933FM-12+000599999V0201401N001010075019N0040001N1+02361+02221101961ADDAY161061AY221061GF106991051051008001021001KA1240N+01921MA1999999101901MD1999999-0061MW1021REMSYN088AAXX  03124 83398 21596 61402 10236 20222 30190 40196 70262 85520 333 20192 59006 60034;
0198833980999992004070400004-15667-038933FM-12+000599999V0209999C000010450019N0010001N1+02181+02131101901ADDAA106000091GF105991031051008001021001KA1240M+02721MA1999999101841MD1999999-0041REMSYN088AAXX  04004 83398 32594 50000 10218 20213 30184 40190 83520 333 10272 29095 55061 59004;EQDQ01  00002PRCP06
0190833980999992004070412004-15667-038933FM-12+000599999V0201801N001010450019N0040001N1+02321+02131101911ADDAY151061AY221061GF105991031051008001041001KA1240N+01901MA1999999101851MD1999999-0051MW1021REMSYN088AAXX  04124 83398 21596 51802 10232 20213 30185 40191 70252 83540 333 20190 59005 69914;
0198833980999992004070500004-15667-038933FM-12+000599999V0209999C000010075019N0010001N1+02281+02161101831ADDAA106000091GF107991051051008001021001KA1240M+02711MA1999999101781MD1999999-0061REMSYN088AAXX  05004 83398 32594 70000 10228 20216 30178 40183 85520 333 10271 29092 55068 59006;EQDQ01  00002PRCP06
0190833980999992004070512004-15667-038933FM-12+000599999V0201801N001010450019N0040001N1+02501+02131101941ADDAY151061AY221061GF105991031051008001041001KA1240N+02021MA1999999101881MD1999999+0031MW1021REMSYN088AAXX  05124 83398 21596 51802 10250 20213 30188 40194 70252 83540 333 20202 58003 69934;
0198833980999992004070600004-15667-038933FM-12+000599999V0201801N001010075019N0010001N1+02161+02081101871ADDAA106000091GF106991051051008001021001KA1240M+02731MA1999999101811MD1999999+0031REMSYN088AAXX  06004 83398 32594 61802 10216 20208 30181 40187 85520 333 10273 29090 55048 58003;EQDQ01  00002PRCP06
0186833980999992004070612004-15667-038933FM-12+000599999V0201801N001010450019N0040001N1+02361+02071101981ADDAA106000091GF105991031051008001041001KA1240N+01761MA1999999101921MD1999999+0041REMSYN076AAXX  06124 83398 32596 51802 10236 20207 30192 40198 83540 333 20176 58004;EQDQ01  00002PRCP06
0198833980999992004070700004-15667-038933FM-12+000599999V0209999C000010450019N0010001N1+02081+02031101821ADDAA106000091GF105991031051008001021001KA1240M+02711MA1999999101761MD1999999-0051REMSYN088AAXX  07004 83398 32594 50000 10208 20203 30176 40182 83520 333 10271 29093 55081 59005;EQDQ01  00002PRCP06
0186833980999992004070712004-15667-038933FM-12+000599999V0202301N001010450019N0040001N1+02341+02071101861ADDAA106000091GF105991031051008001041001KA1240N+01761MA1999999101801MD1999999-0121REMSYN076AAXX  07124 83398 32596 52302 10234 20207 30180 40186 83540 333 20176 59012;EQDQ01  00002PRCP06
0198833980999992004070800004-15667-038933FM-12+000599999V0200901N002110450019N0010001N1+02401+02301101721ADDAA106000091GF106991041051008001021001KA1240M+02721MA1999999101661MD1999999-0101REMSYN088AAXX  08004 83398 32594 60904 10240 20230 30166 40172 84520 333 10272 29091 55074 59010;EQDQ01  00002PRCP06
0186833980999992004070812004-15667-038933FM-12+000599999V0209999C000010075019N0040001N1+02301+02131101811ADDAA106000091GF108991061051008001021999KA1240N+02081MA1999999101751MD1999999-0051REMSYN076AAXX  08124 83398 32596 80000 10230 20213 30175 40181 8652/ 333 20208 59005;EQDQ01  00002PRCP06
0202833980999992004070900004-15667-038933FM-12+000599999V0200901N001010075019N0010001N1+02221+02141101631ADDAY151061AY221061GF108991051051008001021999KA1240M+02621MA1999999101571MD1999999-0091MW1021REMSYN100AAXX  09004 83398 21594 80902 10222 20214 30157 40163 70252 8552/ 333 10262 29093 55007 59009 69921;
0198833980999992004071000004-15667-038933FM-12+000599999V0209999C000010450019N0010001N1+02401+02261101581ADDAA106000091GF106991041051008001021001KA1240M+02681MA1999999101531MD1999999-0041REMSYN088AAXX  10004 83398 32594 60000 10240 20226 30153 40158 84520 333 10268 29091 55052 59004;EQDQ01  00002PRCP06
0190833980999992004071012004-15667-038933FM-12+000599999V0200901N001010450019N0040001N1+02601+02391101671ADDAY151061AY221061GF106991041051008001021001KA1240N+02041MA1999999101611MD1999999-0061MW1021REMSYN088AAXX  10124 83398 21596 60902 10260 20239 30161 40167 70252 84520 333 20204 59006 69924;
0198833980999992004071100004-15667-038933FM-12+000599999V0209999C000010450019N0010001N1+02501+02341101621ADDAA106000091GF106991041051008001021001KA1240M+02811MA1999999101561MD1999999+0031REMSYN088AAXX  11004 83398 32594 60000 10250 20234 30156 40162 84520 333 10281 29090 55069 58003;EQDQ01  00002PRCP06
0198833980999992004071200004-15667-038933FM-12+000599999V0200901N001010075019N0010001N1+02421+02281101621ADDAA106000091GF105991051051008001001001KA1240M+02921MA1999999101561MD1999999+0001REMSYN088AAXX  12004 83398 32594 50902 10242 20228 30156 40162 85500 333 10292 29089 55063 58000;EQDQ01  00002PRCP06
0190833980999992004071212004-15667-038933FM-12+000599999V0201801N001010075019N0040001N1+02141+01991101861ADDAY161061AY221061GF108991051071008001021999KA1240N+02061MA1999999101811MD1999999+0131MW1611REMSYN088AAXX  12124 83398 21596 81802 10214 20199 30181 40186 76162 8572/ 333 20206 58013 60184;
0202833980999992004071300004-15667-038933FM-12+000599999V0209999C000010075019N0010001N1+02141+02061101901ADDAY161061AY221061GF108991061051008001021999KA1240M+02581MA1999999101841MD1999999+0281MW1021REMSYN100AAXX  13004 83398 21594 80000 10214 20206 30184 40190 70262 8652/ 333 10258 29094 55000 58028 60041;
0190833980999992004071312004-15667-038933FM-12+000599999V0209999C000010450019N0040001N1+02321+02151102001ADDAY161061AY281061GF106991041051008001021001KA1240N+01961MA1999999101941MD1999999+0131MW1021REMSYN088AAXX  13124 83398 21596 60000 10232 20215 30194 40200 70268 84520 333 20196 58013 60084;
0198833980999992004071400004-15667-038933FM-12+000599999V0201401N001010075019N0010001N1+02401+02261101981ADDAA106000091GF105991051051008001001001KA1240M+02691MA1999999101921MD1999999+0081REMSYN088AAXX  14004 83398 32594 51402 10240 20226 30192 40198 85500 333 10269 29091 55053 58008;EQDQ01  00002PRCP06
0190833980999992004071412004-15667-038933FM-12+000599999V0200501N002110075019N0040001N1+02321+01871102101ADDAY161061AY221061GF108991051051008001021999KA1240N+01941MA1999999102041MD1999999+0101MW1021REMSYN088AAXX  14124 83398 21596 80504 10232 20187 30204 40210 70262 8552/ 333 20194 58010 60024;
0202833980999992004071500004-15667-038933FM-12+000599999V0200901N002110075019N0010001N1+02201+02031102091ADDAY161061AY221061GF108991051071008001021999KA1240M+02741MA1999999102031MD1999999+0111MW1601REMSYN100AAXX  15004 83398 21594 80904 10220 20203 30203 40209 76062 8572/ 333 10274 29085 55058 58011 60031;
0190833980999992004071512004-15667-038933FM-12+000599999V0200901N002110450019N0040001N1+02601+02031102091ADDAY161061AY221061GF106991041051008001021001KA1240N+02101MA1999999102031MD1999999-0011MW1021REMSYN088AAXX  15124 83398 21596 60904 10260 20203 30203 40209 70262 84520 333 20210 59001 60044;
0202833980999992004071600004-15667-038933FM-12+000599999V0200901N002110450019N0010001N1+02321+02131102031ADDAY161061AY221061GF106991041051008001021001KA1240M+02721MA1999999101971MD1999999-0061MW1021REMSYN100AAXX  16004 83398 21594 60904 10232 20213 30197 40203 70262 84520 333 10272 29083 55068 59006 60041;
0190833980999992004071612004-15667-038933FM-12+000599999V0202301N001010075019N0040001N1+02141+02091102151ADDAY161061AY221061GF108991051071008001021999KA1240N+01981MA1999999102091MD1999999+0061MW1611REMSYN088AAXX  16124 83398 21596 82302 10214 20209 30209 40215 76162 8572/ 333 20198 58006 60114;
0202833980999992004071700004-15667-038933FM-12+000599999V0209999C000010075019N0010001N1+02101+02071102011ADDAY161061AY221061GF108991061051008001021999KA1240M+02461MA1999999101951MD1999999-0021MW1021REMSYN100AAXX  17004 83398 21594 80000 10210 20207 30195 40201 70262 8652/ 333 10246 29098 55002 59002 60031;
0190833980999992004071712004-15667-038933FM-12+000599999V0202301N001010075019N0040001N1+02241+02101102041ADDAY161061AY221061GF108991061051008001021999KA1240N+01981MA1999999101981MD1999999-0011MW1021REMSYN088AAXX  17124 83398 21596 82302 10224 20210 30198 40204 70262 8652/ 333 20198 59001 60044;
0221833980999992004071800004-15667-038933FM-12+000599999V0209999C000010075019N0010001N1+02161+02111101991ADDAY161061AY221061GF108991061051008001021999KA1240M+02581MA1999999999999MD1999999-0021MW1021REMSYN100AAXX  18004 83398 21594 80000 10216 20211 30913 40199 70262 8652/ 333 10258 29095 55005 59002 69991;EQDQ01 099133APOSP 
0190833980999992004071812004-15667-038933FM-12+000599999V0202301N001010450019N0040001N1+02261+02071102111ADDAY161061AY221061GF106991041051008001021001KA1240N+01921MA1999999102051MD1999999+0071MW1021REMSYN088AAXX  18124 83398 21596 62302 10226 20207 30205 40211 70262 84520 333 20192 58007 60034;
0202833980999992004071900004-15667-038933FM-12+000599999V0201801N001010075019N0010001N1+02121+02071102071ADDAY151061AY221061GF105991051051008001001001KA1240M+02561MA1999999102011MD1999999+0081MW1021REMSYN100AAXX  19004 83398 21594 51802 10212 20207 30201 40207 70252 85500 333 10256 29094 55016 58008 69911;
0202833980999992004072000004-15667-038933FM-12+000599999V0209999C000010075019N0010001N1+02041+01971102051ADDAY161061AY221061GF108991051051008001021999KA1240M+02491MA1999999101991MD1999999-0021MW1021REMSYN100AAXX  20004 83398 21594 80000 10204 20197 30199 40205 70262 8552/ 333 10249 29096 55001 59002 60141;
0190833980999992004072012004-15667-038933FM-12+000599999V0201801N002110075019N0040001N1+02121+02001102061ADDAY161061AY221061GF108991061051008001021999KA1240N+01901MA1999999102001MD1999999+0001MW1021REMSYN088AAXX  20124 83398 21596 81804 10212 20200 30200 40206 70262 8652/ 333 20190 58000 60264;
0198833980999992004072100004-15667-038933FM-12+000599999V0201801N002110450019N0010001N1+02141+02091101931ADDAA106000091GF106991041051008001021001KA1240M+02521MA1999999101871MD1999999-0121REMSYN088AAXX  21004 83398 32594 61804 10214 20209 30187 40193 84520 333 10252 29096 55001 59012;EQDQ01  00002PRCP06
0186833980999992004072112004-15667-038933FM-12+000599999V0201801N002110450019N0040001N1+02141+01801101931ADDAA106000091GF106991041051008001021001KA1240N+01861MA1999999101871MD1999999-0131REMSYN076AAXX  21124 83398 32596 61804 10214 20180 30187 40193 84520 333 20186 59013;EQDQ01  00002PRCP06
0202833980999992004072200004-15667-038933FM-12+000599999V0201801N003110075019N0010001N1+01881+01811102041ADDAY151061AY221061GF108991061051008001021999KA1240M+02411MA1999999101981MD1999999+0111MW1021REMSYN100AAXX  22004 83398 21594 81806 10188 20181 30198 40204 70252 8652/ 333 10241 29091 55041 58011 69941;
0162833980999992004072212004-15667-038933FM-12+000599999V0201801N002110450019N0040001N1+02041+01641102131ADDGF106991041051008001021001KA1240N+01581MA1999999102071MD1999999+0201REMSYN082AAXX  22124 83398 22596 61804 10204 20164 30207 40213 84520 333 20158 58020 69944;
0198833980999992004072300004-15667-038933FM-12+000599999V0202301N003110075019N0010001N1+01861+01781102241ADDAA106000091GF105991051051008001001001KA1240M+02461MA1999999102181MD1999999+0201REMSYN088AAXX  23004 83398 32594 52306 10186 20178 30218 40224 85500 333 10246 29089 55083 58020;EQDQ01  00002PRCP06
0186833980999992004072312004-15667-038933FM-12+000599999V0201801N003110450019N0040001N1+02061+01561102341ADDAA106000091GF108991041051008001021001KA1240N+01601MA1999999102281MD1999999+0211REMSYN076AAXX  23124 83398 32596 81806 10206 20156 30228 40234 84520 333 20160 58021;EQDQ01  00002PRCP06
0198833980999992004072400004-15667-038933FM-12+000599999V0201801N002110450019N0010001N1+01841+01711102281ADDAA106000091GF106991041051008001021001KA1240M+02461MA1999999102221MD1999999+0141REMSYN088AAXX  24004 83398 32594 61804 10184 20171 30222 40228 84520 333 10246 29086 55045 58014;EQDQ01  00002PRCP06
0186833980999992004072412004-15667-038933FM-12+000599999V0201801N002110450019N0040001N1+02061+01761102471ADDAA106000091GF106991041051008001021001KA1240N+01561MA1999999102411MD1999999+0131REMSYN076AAXX  24124 83398 32596 61804 10206 20176 30241 40247 84520 333 20156 58013;EQDQ01  00002PRCP06
0186833980999992004082712004-15667-038933FM-12+000599999V0200901N002110450019N0040001N1+02621+02121101901ADDAA106000091GF106991031051008001041001KA1240N+01801MA1999999101841MD1999999+0001REMSYN076AAXX  27124 83398 32596 60904 10262 20212 30184 40190 83540 333 20180 58000;EQDQ01  00002PRCP06
0198833980999992004082800004-15667-038933FM-12+000599999V0200901N002112200019N0010001N1+02381+02151101831ADDAA106000091GF104991041001008001041001KA1240M+02741MA1999999101771MD1999999+0001REMSYN088AAXX  28004 83398 32594 40904 10238 20215 30177 40183 84040 333 10274 29081 55073 58000;EQDQ01  00002PRCP06
0186833980999992004082812004-15667-038933FM-12+000599999V0200901N002110450019N0040001N1+02481+02151101831ADDAA106000091GF106991031051008001041001KA1240N+01761MA1999999101771MD1999999-0071REMSYN076AAXX  28124 83398 32596 60904 10248 20215 30177 40183 83540 333 20176 59007;EQDQ01  00002PRCP06
0198833980999992004082900004-15670-038950FM-12+000599999V0200501N002110450019N0010001N1+02381+02131101491ADDAA106000091GF106991041051008001021001KA1240M+02731MA1999999101441MD1999999-0331REMSYN088AAXX  29004 83398 32594 60504 10238 20213 30144 40149 84520 333 10273 29084 55087 59033;EQDQ01  00002PRCP06
0186833980999992004082912004-15670-038950FM-12+000599999V0203601N002110450019N0040001N1+02681+02351101431ADDAA106000091GF105991031051008001041001KA1240N+02081MA1999999101381MD1999999-0391REMSYN076AAXX  29124 83398 32596 53604 10268 20235 30138 40143 83540 333 20208 59039;EQDQ01  00002PRCP06
0198833980999992004083000004-15670-038950FM-12+000599999V0200901N002110075019N0010001N1+02461+02171101551ADDAA106000091GF107991051051008001021001KA1240M+02841MA1999999101501MD1999999+0061REMSYN088AAXX  30004 83398 32594 70904 10246 20217 30150 40155 85520 333 10284 29082 55088 58006;EQDQ01  00002PRCP06
0190833980999992004083012004-15667-038933FM-12+000599999V0201801N001010075019N0040001N1+02441+02341101751ADDAY161061AY221061GF108991061051008001021999KA1240N+02201MA1999999101691MD1999999+0311MW1021REMSYN088AAXX  30124 83398 21596 81802 10244 20234 30169 40175 70262 8652/ 333 20220 58031 69954;
0202833980999992004083100004-15667-038933FM-12+000599999V0209999C000010075019N0010001N1+02301+02251101721ADDAY161061AY221061GF108991051051008001021999KA1240M+02681MA1999999101721MD1999999+0221MW1021REMSYN100AAXX  31004 83398 21594 80000 10230 20225 30172 40172 70262 8552/ 333 10268 29096 55006 58022 60021;
0162833980999992004083112004-15667-038933FM-12+000599999V0201401N002110075019N0040001N1+02661+02181101981ADDGF106991051051008001021001KA1240N+02101MA1999999101911MD1999999+0221REMSYN082AAXX  31124 83398 22596 61404 10266 20218 30191 40198 85520 333 20210 58022 60024;
0198833980999992004090100004-15667-038933FM-12+000599999V0200901N002112200019N0010001N1+02441+02211102061ADDAA106000091GF104991021051008001041001KA1240M+02791MA1999999102001MD1999999+0281REMSYN088AAXX  01004 83398 32594 40904 10244 20221 30200 40206 82540 333 10279 29083 55083 58028;EQDQ01  00002PRCP06
0186833980999992004090112004-15667-038933FM-12+000599999V0200901N002110075019N0040001N1+02621+02071102311ADDAA106000091GF106991051041008001021001KA1240N+01981MA1999999102251MD1999999+0341REMSYN076AAXX  01124 83398 32596 60904 10262 20207 30225 40231 85420 333 20198 58034;EQDQ01  00002PRCP06
0198833980999992004090200004-15667-038933FM-12+000599999V0201401N001010450019N0010001N1+02101+01951101321ADDAA106000091GF106991041051008001021001KA1240M+02761MA1999999102251MD1999999+0251REMSYN088AAXX  02004 83398 32594 61402 10210 20195 30225 40132 84520 333 10276 29082 55067 58025;EQDQ01  00002PRCP06
0186833980999992004090212004-15667-038933FM-12+000599999V0200901N002110450019N0040001N1+02501+02111102361ADDAA106000091GF106991041051008001041001KA1240N+01721MA1999999102301MD1999999+0051REMSYN076AAXX  02124 83398 32596 60904 10250 20211 30230 40236 84540 333 20172 58005;EQDQ01  00002PRCP06
0198833980999992004090300004-15667-038933FM-12+000599999V0209999C000010075019N0010001N1+02141+02061102231ADDAA106000091GF108991051051008001021999KA1240M+02711MA1999999102171MD1999999-0081REMSYN088AAXX  03004 83398 32594 80000 10214 20206 30217 40223 8552/ 333 10271 29087 55076 59008;EQDQ01  00002PRCP06
0186833980999992004090312004-15667-038933FM-12+000599999V0209999C000010450019N0040001N1+02301+01901102181ADDAA106000091GF105991031021008001041001KA1240N+01541MA1999999102121MD1999999-0051REMSYN076AAXX  03124 83398 32596 50000 10230 20190 30212 40218 83240 333 20154 59005;EQDQ01  00002PRCP06
0198833980999992004090400004-15667-038933FM-12+000599999V0209999C000010450019N0010001N1+01861+01781101921ADDAA106000091GF106991041051008001021001KA1240M+02721MA1999999101861MD1999999-0311REMSYN088AAXX  04004 83398 32594 60000 10186 20178 30186 40192 84520 333 10272 29087 55086 59031;EQDQ01  00002PRCP06
0186833980999992004090412004-15667-038933FM-12+000599999V0201801N002110450019N0040001N1+02321+01871102081ADDAA106000091GF105991021051008001041001KA1240N+01401MA1999999102021MD1999999-0131REMSYN076AAXX  04124 83398 32596 51804 10232 20187 30202 40208 82540 333 20140 59013;EQDQ01  00002PRCP06
0198833980999992004090500004-15667-038933FM-12+000599999V0209999C000010450019N0010001N1+02061+01941101851ADDAA106000091GF106991041051008001021001KA1240M+02671MA1999999101791MD1999999-0071REMSYN088AAXX  05004 83398 32594 60000 10206 20194 30179 40185 84520 333 10267 29085 55087 59007;EQDQ01  00002PRCP06
0186833980999992004090512004-15667-038933FM-12+000599999V0201201N002110450019N0040001N1+02481+02191101931ADDAA106000091GF106991041051008001021001KA1240N+01681MA1999999101871MD1999999-0151REMSYN076AAXX  05124 83398 32596 61204 10248 20219 30187 40193 84520 333 20168 59015;EQDQ01  00002PRCP06
0198833980999992004090600004-15667-038933FM-12+000599999V0209999C000012200019N0010001N1+02061+01981101791ADDAA106000091GF104991041051008001001001KA1240M+02761MA1999999101721MD1999999-0071REMSYN088AAXX  06004 83398 32594 40000 10206 20198 30172 40179 84500 333 10276 29090 55072 59007;EQDQ01  00002PRCP06
0186833980999992004090612004-15667-038933FM-12+000599999V0201801N001010450019N0040001N1+02521+02091101861ADDAA106000091GF106991041051008001021001KA1240N+01721MA1999999101801MD1999999-0071REMSYN076AAXX  06124 83398 32596 61802 10252 20209 30180 40186 84520 333 20172 59007;EQDQ01  00002PRCP06
0178833980999992004090700004-15667-038933FM-12+000599999V0201401N001010450019N0010001N1+02121+02001101851ADDAA106000091GF106991041051008001021001KA1240M+02681MA1999999101791REMSYN082AAXX  07004 83398 32594 61402 10212 20200 30179 40185 84520 333 10268 29085 55075;EQDQ01  00002PRCP06
0186833980999992004090712004-15667-038933FM-12+000599999V0201401N001010450019N0040001N1+02401+01601101891ADDAA106000091GF105991021051008001041001KA1240N+01501MA1999999101831MD1999999+0031REMSYN076AAXX  07124 83398 32596 51402 10240 20160 30183 40189 82540 333 20150 58003;EQDQ01  00002PRCP06
0198833980999992004090800004-15667-038933FM-12+000599999V0209999C000010075019N0010001N1+99999+99999101801ADDAA106000091GF105991051051008001001001KA1240M+02701MA1999999101741MD1999999-0051REMSYN088AAXX  08004 83398 32594 50000 10902 20170 30174 40180 85500 333 10270 29074 55087 59005;EQDQ01  00002PRCP06
0190833980999992004090812004-15667-038933FM-12+000599999V0201801N001010450019N0040001N1+02261+02091101871ADDAY161061AY221061GF107991041051008001021001KA1240N+01661MA1999999101811MD1999999-0021MW1021REMSYN088AAXX  08124 83398 21596 71802 10226 20209 30181 40187 70262 84520 333 20166 59002 60024;
0190833980999992004090912004-15667-038933FM-12+000599999V0201801N001010075019N0040001N1+02321+02001101981ADDAY161061AY221061GF107991051051008001021001KA1240N+01801MA1999999101921MD1999999+0111MW1021REMSYN088AAXX  09124 83398 21596 71802 10232 20200 30192 40198 70262 85520 333 20180 58011 60034;
0202833980999992004091000004-15667-038933FM-12+000599999V0209999C000010450019N0010001N1+02381+02211101881ADDAY151061AY221061GF106991041051008001021001KA1240M+02681MA1999999101821MD1999999+0001MW1021REMSYN100AAXX  10004 83398 21594 60000 10238 20221 30182 40188 70252 84520 333 10268 29086 55069 58000 69931;
0190833980999992004091012004-15667-038933FM-12+000599999V0201801N001010450019N0040001N1+02501+01981101991ADDAY161061AY221061GF106991041051008001021001KA1240N+01901MA1999999101931MD1999999+0011MW1021REMSYN088AAXX  10124 83398 21596 61802 10250 20198 30193 40199 70262 84520 333 20190 58001 60084;
0198833980999992004091100004-15667-038933FM-12+000599999V0201401N001010450019N0010001N1+02381+01891101821ADDAA106000091GF106991041051008001021001KA1240M+02721MA1999999101761MD1999999-0061REMSYN088AAXX  11004 83398 32594 61402 10238 20189 30176 40182 84520 333 10272 29074 55087 59006;EQDQ01  00002PRCP06
0190833980999992004091112004-15667-038933FM-12+000599999V0200501N002110450019N0040001N1+02501+01981101871ADDAY161061AY221061GF106991021051008001041001KA1240N+01661MA1999999101811MD1999999-0021MW1021REMSYN088AAXX  11124 83398 21596 60504 10250 20198 30181 40187 70262 82540 333 20166 59002 69964;
0198833980999992004091200004-15667-038933FM-12+000599999V0200901N003110450019N0010001N1+02441+02211101881ADDAA106000091GF106991041051008001021001KA1240M+02721MA1999999101821MD1999999+0061REMSYN088AAXX  12004 83398 32594 60906 10244 20221 30182 40188 84520 333 10272 29080 55088 58006;EQDQ01  00002PRCP06
0186833980999992004091212004-15670-038950FM-12+000599999V0200901N002110450019N0040001N1+02581+02121102171ADDAA106000091GF106991031051008001041001KA1240N+01841MA1999999102111MD1999999+0201REMSYN076AAXX  12124 83398 32596 60904 10258 20212 30211 40217 83540 333 20184 58020;EQDQ01  00002PRCP06
0198833980999992004091300004-15667-038933FM-12+000599999V0201801N001010450019N0010001N1+02381+02131102251ADDAA106000091GF106991041051008001021001KA1240M+02741MA1999999102191MD1999999+0371REMSYN088AAXX  13004 83398 32594 61802 10238 20213 30219 40225 84520 333 10274 29081 55071 58037;EQDQ01  00002PRCP06
0190833980999992004091312004-15667-038933FM-12+000599999V0200901N002110450019N0040001N1+02521+02021102391ADDAY161061AY221061GF106991041051008001021001KA1240N+01981MA1999999102331MD1999999+0221MW1021REMSYN088AAXX  13124 83398 21596 60904 10252 20202 30233 40239 70262 84520 333 20198 58022 60014;
0202833980999992004091400004-15667-038933FM-12+000599999V0200901N003110450019N0010001N1+02381+02211102251ADDAY161061AY221061GF108991041071008001021999KA1240M+02691MA1999999102191MD1999999+0001MW1521REMSYN100AAXX  14004 83398 21594 80906 10238 20221 30219 40225 75262 8472/ 333 10269 29082 55024 58000 60061;
0190833980999992004091412004-15667-038933FM-12+000599999V0200901N002110450019N0040001N1+02601+01991102291ADDAY161061AY221061GF106991041051008001021001KA1240N+02081MA1999999102231MD1999999-0101MW1021REMSYN088AAXX  14124 83398 21596 60904 10260 20199 30223 40229 70262 84520 333 20208 59010 60084;
0198833980999992004091500004-15667-038933FM-12+000599999V0201401N001010450019N0010001N1+02381+01971102211ADDAA106000091GF105991031051008001021001KA1240M+02721MA1999999102151MD1999999-0041REMSYN088AAXX  15004 83398 32594 51402 10238 20197 30215 40221 83520 333 10272 29074 55092 59004;EQDQ01  00002PRCP06
0186833980999992004091512004-15667-038933FM-12+000599999V0200901N002110450019N0040001N1+02501+02111102211ADDAA106000091GF106991041051008001021001KA1240N+01861MA1999999102151MD1999999-0081REMSYN076AAXX  15124 83398 32596 60904 10250 20211 30215 40221 84520 333 20186 59008;EQDQ01  00002PRCP06
0198833980999992004091600004-15667-038933FM-12+000599999V0200901N002110450019N0010001N1+02381+02151101921ADDAA106000091GF106991041051008001021001KA1240M+02691MA1999999101861MD1999999-0291REMSYN088AAXX  16004 83398 32594 60904 10238 20215 30186 40192 84520 333 10269 29083 55069 59029;EQDQ01  00002PRCP06
0190833980999992004091612004-15667-038933FM-12+000599999V0200501N002110450019N0040001N1+02601+01961101951ADDAY151061AY221061GF106991041051008001021001KA1240N+01881MA1999999101891MD1999999-0261MW1021REMSYN088AAXX  16124 83398 21596 60504 10260 20196 30189 40195 70252 84520 333 20188 59026 69934;
0198833980999992004091700004-15667-038933FM-12+000599999V0200901N001010450019N0010001N1+02361+01891101821ADDAA106000091GF105991031051008001021001KA1240M+02731MA1999999101761MD1999999-0101REMSYN088AAXX  17004 83398 32594 50902 10236 20189 30176 40182 83520 333 10273 29072 55078 59010;EQDQ01  00002PRCP06
0186833980999992004091712004-15667-038933FM-12+000599999V0200901N001010450019N0040001N1+02641+01901100201ADDAA106000091GF105991031051008001041011KA1240N+01781MA1999999102021MD1999999+0131REMSYN076AAXX  17124 83398 32596 50902 10264 20190 30202 40020 83541 333 20178 58013;EQDQ01  00002PRCP06
0198833980999992004091800004-15667-038933FM-12+000599999V0200901N002110450019N0010001N1+02441+02071102021ADDAA106000091GF105991031011008001041001KA1240M+02791MA1999999101961MD1999999+0201REMSYN088AAXX  18004 83398 32594 50904 10244 20207 30196 40202 83140 333 10279 29072 55092 58020;EQDQ01  00002PRCP06
0198833980999992004091900004-15670-038950FM-12+000599999V0200901N002110450019N0010001N1+02301+02131101071ADDAA106000091GF106991041051008001021001KA1240M+02801MA1999999102011MD1999999+0051REMSYN088AAXX  19004 83398 32594 60904 10230 20213 30201 40107 84520 333 10280 29078 55096 58005;EQDQ01  00002PRCP06
0190833980999992004091912004-15670-038950FM-12+000599999V0201801N001010075019N0040001N1+02341+02151102081ADDAY161061AY221061GF108991061051008001021999KA1240N+02001MA1999999102021MD1999999-0071MW1021REMSYN088AAXX  19124 83398 21596 81802 10234 20215 30202 40208 70262 8652/ 333 20200 59007 60054;
0198833980999992004092000004-15670-038950FM-12+000599999V0201401N001010450019N0010001N1+02161+01991101951ADDAA106000091GF106991041051008001021001KA1240M+02741MA1999999101891MD1999999-0121REMSYN088AAXX  20004 83398 32594 61402 10216 20199 30189 40195 84520 333 10274 29090 55059 59012;EQDQ01  00002PRCP06
0209833980999992004092012004-15667-038933FM-12+000599999V0201101N041120450019N0040001N1+02441+02071101961ADDAY161061AY221061GF106991041051008001021001KA1240N+01801MA1999999101901MD1999999-0121MW1021REMSYN088AAXX  20124 83398 21596 61180 10244 20207 30190 40196 70262 84520 333 20180 59012 60024;EQDQ01+004113WOSPD 
0198833980999992004092100004-15667-038933FM-12+000599999V0209999C000010075019N0010001N1+02361+02071101911ADDAA106000091GF105991051051008001001001KA1240M+02771MA1999999101851MD1999999-0041REMSYN088AAXX  21004 83398 32594 50000 10236 20207 30185 40191 85500 333 10277 29082 55000 59004;EQDQ01  00002PRCP06
0202833980999992004092200004-15667-038933FM-12+000599999V0201401N002110450019N0010001N1+02441+02151102081ADDAY161061AY221061GF106991041051008001021001KA1240M+02801MA1999999102021MD1999999+0171MW1021REMSYN100AAXX  22004 83398 21594 61404 10244 20215 30202 40208 70262 84520 333 10280 29078 55066 58017 60011;
0190833980999992004092212004-15667-038933FM-12+000599999V0209999C000010075019N0040001N1+02321+02131102271ADDAY161061AY221061GF108991061051008001021999KA1240N+01841MA1999999102211MD1999999+0221MW1021REMSYN088AAXX  22124 83398 21596 80000 10232 20213 30221 40227 70262 8652/ 333 20184 58022 60084;
0198833980999992004092300004-15667-038933FM-12+000599999V0200901N002110450019N0010001N1+02441+02071102131ADDAA106000091GF106991041051008001021001KA1240M+02771MA1999999102071MD1999999+0051REMSYN088AAXX  23004 83398 32594 60904 10244 20207 30207 40213 84520 333 10277 29083 55045 58005;EQDQ01  00002PRCP06
0186833980999992004092312004-15667-038933FM-12+000599999V0200901N002110450019N0040001N1+02261+02061102151ADDAA106000091GF106991041051008001021001KA1240N+01781MA1999999102091MD1999999-0121REMSYN076AAXX  23124 83398 32596 60904 10226 20206 30209 40215 84520 333 20178 59012;EQDQ01  00002PRCP06
0198833980999992004092400004-15667-038933FM-12+000599999V0200901N003110075019N0010001N1+02441+01951102071ADDAA106000091GF105991051051008001001001KA1240M+02781MA1999999102011MD1999999-0061REMSYN088AAXX  24004 83398 32594 50906 10244 20195 30201 40207 85500 333 10278 29073 55090 59006;EQDQ01  00002PRCP06
0186833980999992004092412004-15667-038933FM-12+000599999V0200901N001010450019N0040001N1+02561+01901102091ADDAA106000091GF105991031051008001041001KA1240N+01781MA1999999102041MD1999999-0051REMSYN076AAXX  24124 83398 32596 50902 10256 20190 30204 40209 83540 333 20178 59005;EQDQ01  00002PRCP06
0198833980999992004092500004-15667-038933FM-12+000599999V0200901N001010450019N0010001N1+02421+01931102001ADDAA106000091GF105991031011008001041001KA1240M+02801MA1999999101941MD1999999-0071REMSYN088AAXX  25004 83398 32594 50902 10242 20193 30194 40200 83140 333 10280 29071 55091 59007;EQDQ01  00002PRCP06
0186833980999992004092512004-15667-038933FM-12+000599999V0200901N003110075019N0040001N1+02581+01921101981ADDAA106000091GF107991051051008001021001KA1240N+01761MA1999999101911MD1999999-0121REMSYN076AAXX  25124 83398 32596 70906 10258 20192 30191 40198 85520 333 20176 59012;EQDQ01  00002PRCP06
0198833980999992004092600004-15667-038933FM-12+000599999V0200901N002110075019N0010001N1+02421+02111101901ADDAA106000091GF105991051051008001001001KA1240M+02791MA1999999101841MD1999999-0101REMSYN088AAXX  26004 83398 32594 50904 10242 20211 30184 40190 85500 333 10279 29075 55097 59010;EQDQ01  00002PRCP06
0186833980999992004092612004-15670-038950FM-12+000599999V0200901N002110450019N0040001N1+02641+01981102061ADDAA106000091GF106991041051008001021001KA1240N+02201MA1999999102001MD1999999+0081REMSYN076AAXX  26124 83398 32596 60904 10264 20198 30200 40206 84520 333 20220 58008;EQDQ01  00002PRCP06
0198833980999992004092700004-15670-038950FM-12+000599999V0200901N002112200019N0010001N1+02441+02251102061ADDAA106000091GF104991041051008001001001KA1240M+02821MA1999999102001MD1999999+0161REMSYN088AAXX  27004 83398 32594 40904 10244 20225 30200 40206 84500 333 10282 29078 55104 58016;EQDQ01  00002PRCP06
0186833980999992004092712004-15670-038950FM-12+000599999V0201401N001010450019N0040001N1+02601+02141102071ADDAA106000091GF106991041051008001021001KA1240N+01761MA1999999102011MD1999999+0011REMSYN076AAXX  27124 83398 32596 61402 10260 20214 30201 40207 84520 333 20176 58001;EQDQ01  00002PRCP06
0198833980999992004092800004-15667-038933FM-12+000599999V0200901N002112200019N0010001N1+02401+01801101941ADDAA106000091GF104991041011008001001001KA1240M+02781MA1999999101881MD1999999-0121REMSYN088AAXX  28004 83398 32594 40904 10240 20180 30188 40194 84100 333 10278 29073 55102 59012;EQDQ01  00002PRCP06
0186833980999992004092812004-15667-038933FM-12+000599999V0200501N003110450019N0040001N1+02681+01941101921ADDAA106000091GF106991041051008001021001KA1240N+01821MA1999999101861MD1999999-0151REMSYN076AAXX  28124 83398 32596 60506 10268 20194 30186 40192 84520 333 20182 59015;EQDQ01  00002PRCP06
0214833980999992004092900004-15667-038933FM-12+000599999V0209999C046320450019N0010001N1+02441+01901101701ADDAA106000091GF105991031011008001041001KA1240M+02761MA1999999101641MD1999999-0241REMSYN088AAXX  29004 83398 32594 50090 10244 20190 30164 40170 83140 333 10276 29/// 55097 59024;EQDQ01+004633WOSPD Q02  00002PRCP06
0156833980999992004092912004-15667-038933FM-12+000599999V0200501N003119999999N0040001N1+99999+99999999999ADDAA106000091GF106991999999008001999999KA1240N+01841REMSYN075AAXX  29124 83398 32596 60506 1020 20199 30168 40174 84520 333 20184 59018;EQDQ01  00002PRCP06
0198833980999992004093000004-15667-038933FM-12+000599999V0200901N002110075019N0010001N1+02421+02011101591ADDAA106000091GF105991051051008001001001KA1240M+02821MA1999999101441MD1999999-0201REMSYN088AAXX  30004 83398 32594 50904 10242 20201 30144 40159 85500 333 10282 29072 55100 59020;EQDQ01  00002PRCP06
0186833980999992004093012004-15667-038933FM-12+000599999V0200501N003110450019N0040001N1+02681+01991101651ADDAA106000091GF106991041051008001021001KA1240N+01901MA1999999101591MD1999999-0091REMSYN076AAXX  30124 83398 32596 60506 10268 20199 30159 40165 84520 333 20190 59009;EQDQ01  00002PRCP06
0198833980999992004100100004-15667-038933FM-12+000599999V0201401N001010075019N0010001N1+02441+01901101811ADDAA106000091GF105991051051008001001001KA1240M+02831MA1999999101751MD1999999+0311REMSYN088AAXX  01004 83398 32594 51402 10244 20190 30175 40181 85500 333 10283 29/// 55091 58031;EQDQ01  00002PRCP06
0190833980999992004100112004-15667-038933FM-12+000599999V0200901N002110450019N0040001N1+02681+02091101911ADDAY161061AY221061GF106991041051008001021001KA1240N+01961MA1999999101851MD1999999+0261MW1021REMSYN088AAXX  01124 83398 21596 60904 10268 20209 30185 40191 70262 84520 333 20196 58026 69944;
0198833980999992004100200004-15667-038933FM-12+000599999V0200901N002110450019N0010001N1+02441+01901101811ADDAA106000091GF106991041051008001021001KA1240M+02821MA1999999101751MD1999999+0001REMSYN088AAXX  02004 83398 32594 60904 10244 20190 30175 40181 84520 333 10282 29/// 55101 58000;EQDQ01  00002PRCP06
0186833980999992004100212004-15667-038933FM-12+000599999V0200901N003110450019N0040001N1+02681+01941101831ADDAA106000091GF105991031051008001021001KA1240N+01881MA1999999101771MD1999999-0081REMSYN076AAXX  02124 83398 32596 50906 10268 20194 30177 40183 83520 333 20188 59008;EQDQ01  00002PRCP06
0198833980999992004100300004-15667-038933FM-12+000599999V0200901N002112200019N0010001N1+02441+01941101691ADDAA106000091GF104991041011008001001001KA1240M+02821MA1999999101631MD1999999-0121REMSYN088AAXX  03004 83398 32594 40904 10244 20194 30163 40169 84100 333 10282 29/// 55101 59012;EQDQ01  00002PRCP06
0186833980999992004100312004-15667-038933FM-12+000599999V0202301N001010075019N0040001N1+02461+02011101701ADDAA106000091GF107991051051008001021001KA1240N+01941MA1999999101641MD1999999-0131REMSYN076AAXX  03124 83398 32596 72302 10246 20201 30164 40170 85520 333 20194 59013;EQDQ01  00002PRCP06
0202833980999992004100400004-15670-038950FM-12+000599999V0200901N002110450019N0010001N1+02421+02131101521ADDAY151061AY221061GF105991031051008001021001KA1240M+02831MA1999999101441MD1999999-0161MW1021REMSYN100AAXX  04004 83398 21594 50904 10242 20213 30144 40152 70252 83520 333 10283 29/// 55075 59016 69921;
0162833980999992004100412004-15667-038933FM-12+000599999V0200501N003110450019N0040001N1+02681+01991999999ADDGF105991031051008001021001KA1240N+01821MA1999999101551MD1999999-0091REMSYN082AAXX  04124 83398 22596 50506 10268 20199 30155 43520 83520 333 20182 59009 69924;
0183833980999992004100500004-15667-038933FM-12+000599999V0200901N002110450019N0010001N1+02481+02051101611ADDAA106000091GF105991031051008001021001KA1240M+02841MA1999999101551REMSYN087AAXX  05004 83398 32594 50904 10248 20205 30155 40161 83520 333 10284 29/// 55105 5808;EQDQ01  00002PRCP06
0186833980999992004100512004-15667-038933FM-12+000599999V0200501N003110075019N0040001N1+02661+02071101651ADDAA106000091GF107991051051008001021001KA1240N+01961MA1999999101591MD1999999+0041REMSYN076AAXX  05124 83398 32596 70506 10266 20207 30159 40165 85520 333 20196 58004;EQDQ01  00002PRCP06
0198833980999992004100800004-15667-038933FM-12+000599999V0201801N002110075019N0010001N1+02241+02071101641ADDAA106000091GF107991051051008001021001KA1240M+02861MA1999999101581MD1999999+0001REMSYN088AAXX  08004 83398 32594 71804 10224 20207 30158 40164 85520 333 10286 29/// 55/// 58000;EQDQ01  00002PRCP06
0190833980999992004100812004-15667-038933FM-12+000599999V0202301N002110075019N0040001N1+02161+01951101771ADDAY161061AY221061GF108991061051008001021999KA1240N+01881MA1999999101711MD1999999+0001MW1021REMSYN088AAXX  08124 83398 21596 82304 10216 20195 30171 40177 70262 8652/ 333 20188 58000 60074;
0198833980999992004100900004-15667-038933FM-12+000599999V0201401N001010075019N0010001N1+02221+01991101801ADDAA106000091GF107991051051008001021001KA1240M+02481MA1999999101741MD1999999+0161REMSYN088AAXX  09004 83398 32594 71402 10222 20199 30174 40180 85520 333 10248 29/// 55000 58016;EQDQ01  00002PRCP06
0186833980999992004100912004-15667-038933FM-12+000599999V0200901N003110450019N0040001N1+02661+01951101921ADDAA106000091GF105991041051008001021001KA1240N+01981MA1999999101861MD1999999+0151REMSYN076AAXX  09124 83398 32596 50906 10266 20195 30186 40192 84520 333 20198 58015;EQDQ01  00002PRCP06
0198833980999992004101000004-15667-038933FM-12+000599999V0200901N002110450019N0010001N1+02521+02071101761ADDAA106000091GF105991031051008001021001KA1240M+02801MA1999999101701MD1999999-0041REMSYN088AAXX  10004 83398 32594 50904 10252 20207 30170 40176 83520 333 10280 29/// 55057 59004;EQDQ01  00002PRCP06
0186833980999992004101012004-15667-038933FM-12+000599999V0200901N003110075019N0040001N1+02681+02241101811ADDAA106000091GF107991051051008001021001KA1240N+02161MA1999999101751MD1999999-0111REMSYN076AAXX  10124 83398 32596 70906 10268 20224 30175 40181 85520 333 20216 59011;EQDQ01  00002PRCP06
0198833980999992004101100004-15667-038933FM-12+000599999V0200501N002110075019N0010001N1+02461+02271101611ADDAA106000091GF105991051051008001001001KA1240M+02851MA1999999101551MD1999999-0151REMSYN088AAXX  11004 83398 32594 50504 10246 20227 30155 40161 85500 333 10285 29/// 55080 59015;EQDQ01  00002PRCP06
0186833980999992004101112004-15670-038950FM-12+000599999V0200501N003110450019N0040001N1+02781+02251101681ADDAA106000091GF107991031051008001041011KA1240N+02181MA1999999101621MD1999999-0131REMSYN076AAXX  11124 83398 32596 70506 10278 20225 30162 40168 83541 333 20218 59013;EQDQ01  00002PRCP06
0198833980999992004101200004-15670-038950FM-12+000599999V0200501N003110450019N0010001N1+02541+02291101691ADDAA106000091GF106991041051008001021001KA1240M+02891MA1999999101631MD1999999+0081REMSYN088AAXX  12004 83398 32594 60506 10254 20229 30163 40169 84520 333 10289 29/// 55097 58008;EQDQ01  00002PRCP06
0198833980999992004101300004-15667-038933FM-12+000599999V0200901N002110075019N0010001N1+02501+02191101761ADDAA106000091GF105991051051008001001001KA1240M+02901MA1999999101701MD1999999+0071REMSYN088AAXX  13004 83398 32594 50904 10250 20219 30170 40176 85500 333 10290 29/// 55096 58007;EQDQ01  00002PRCP06
0186833980999992004101312004-15667-038933FM-12+000599999V0200501N003110450019N0040001N1+02721+02031101851ADDAA106000091GF106991041051008001041001KA1240N+02191MA1999999101791MD1999999+0001REMSYN076AAXX  13124 83398 32596 60506 10272 20203 30179 40185 84540 333 20219 58000;EQDQ01  00002PRCP06
0198833980999992004101400004-15667-038933FM-12+000599999V0200901N002110450019N0010001N1+02701+02371101771ADDAA106000091GF106991041051008001021001KA1240M+02961MA1999999101711MD1999999+0011REMSYN088AAXX  14004 83398 32594 60904 10270 20237 30171 40177 84520 333 10296 29/// 55100 58001;EQDQ01  00002PRCP06
0190833980999992004101412004-15667-038933FM-12+000599999V02099999999990450019N0040001N1+02681+02261101771ADDAY161061AY221061GF106991041051008001021001KA1240N+02401MA1999999101711MD1999999-0081MW1021REMSYN088AAXX  14124 83398 21596 6//// 10268 20226 30171 40177 70262 84520 333 20240 59008 60024;
0198833980999992004101500004-15667-038933FM-12+000599999V02099999999990450019N0010001N1+02501+02191101651ADDAA106000091GF106991041051008001021001KA1240M+02871MA1999999101591MD1999999-0121REMSYN088AAXX  15004 83398 32594 6//// 10250 20219 30159 40165 84520 333 10287 29/// 55089 59012;EQDQ01  00002PRCP06
0171833980999992004101512004-15667-038933FM-12+000599999V0200501N003619999999N0200001N1+02791+02221999999ADDAA106000091GF106991999999008001999999KA1240N+02211MA1999999101711REMSYN075AAXX  15124 83398 32598 60507 10279 20222 30171 4177 86200 333 20221 58000;EQDQ01  00002PRCP06
0202833980999992004101600004-15667-038933FM-12+000599999V02099999999990450019N0010001N1+02501+02111101801ADDAY161061AY221061GF106991041051008001021001KA1240M+02821MA1999999101741MD1999999+0151MW1021REMSYN100AAXX  16004 83398 21594 6//// 10250 20211 30174 40180 70262 84520 333 10282 29/// 55073 58015 60051;
0162833980999992004101612004-15670-038950FM-12+000599999V0203601N003110075019N0040001N1+02341+02151101961ADDGF108991061051008001021999KA1240N+01461MA1999999101901MD1999999+0161REMSYN082AAXX  16124 83398 22596 83606 10234 20215 30190 40196 8652/ 333 20146 58016 60054;
0198833980999992004101700004-15670-038950FM-12+000599999V0200901N002110450019N0010001N1+02461+02251101761ADDAA106000091GF106991041051008001021001KA1240M+02781MA1999999101701MD1999999-0041REMSYN088AAXX  17004 83398 32594 60904 10246 20225 30170 40176 84520 333 10278 29/// 55068 59004;EQDQ01  00002PRCP06
0186833980999992004101712004-15670-038950FM-12+000599999V0203601N003110450019N0040001N1+02661+02021101761ADDAA106000091GF106991041051008001021001KA1240N+01901MA1999999101701MD1999999-0201REMSYN076AAXX  17124 83398 32596 63606 10266 20202 30170 40176 84520 333 20190 59020;EQDQ01  00002PRCP06
0198833980999992004101800004-15667-038933FM-12+000599999V0203601N002110450019N0010001N1+02421+02071101621ADDAA106000091GF106991041051008001021001KA1240M+02871MA1999999101561MD1999999-0141REMSYN088AAXX  18004 83398 32594 63604 10242 20207 30156 40162 84520 333 10287 29/// 55098 59014;EQDQ01  00002PRCP06
0190833980999992004101812004-15667-038933FM-12+000599999V0200501N003110450019N0040001N1+02741+01921101671ADDAY151061AY221061GF105991031051008001041001KA1240N+01861MA1999999101611MD1999999-0091MW1021REMSYN088AAXX  18124 83398 21596 50506 10274 20192 30161 40167 70252 83540 333 20186 59009 69934;
0198833980999992004101900004-15667-038933FM-12+000599999V0200501N003110450019N0010001N1+02521+02081101551ADDAA106000091GF105991031011008001041001KA1240M+02931MA1999999101501MD1999999-0061REMSYN088AAXX  19004 83398 32594 50506 10252 20208 30150 40155 83140 333 10293 29/// 55108 59006;EQDQ01  00002PRCP06
0198833980999992004102000004-15667-038933FM-12+000599999V0203601N003110450019N0010001N1+02581+02271101541ADDAA106000091GF105991031051008001021001KA1240M+02961MA1999999101491MD1999999-0011REMSYN088AAXX  20004 83398 32594 53606 10258 20227 30149 40154 83520 333 10296 29/// 55095 59001;EQDQ01  00002PRCP06
0186833980999992004102012004-15667-038933FM-12+000599999V0203601N003110450019N0040001N1+02821+02291101551ADDAA106000091GF106991041051008001021001KA1240N+02201MA1999999101501MD1999999-0131REMSYN076AAXX  20124 83398 32596 63606 10282 20229 30150 40155 84520 333 20220 59013;EQDQ01  00002PRCP06
0198833980999992004102100004-15667-038933FM-12+000599999V0200901N001010075019N0010001N1+02561+02211101621ADDAA106000091GF105991051051008001001001KA1240M+02991MA1999999101561MD1999999+0071REMSYN088AAXX  21004 83398 32594 50902 10256 20221 30156 40162 85500 333 10299 29/// 55101 58007;EQDQ01  00002PRCP06
0190833980999992004102112004-15667-038933FM-12+000599999V0201801N004110075019N0040001N1+02421+02051101751ADDAY151061AY221061GF108991061051008001021999KA1240N+02221MA1999999101691MD1999999+0191MW1021REMSYN088AAXX  21124 83398 21596 81808 10242 20205 30169 40175 70252 8652/ 333 20222 58019 69954;
0202833980999992004102200004-15667-038933FM-12+000599999V0201801N002110075019N0010001N1+02261+02161101771ADDAY161061AY221061GF108991051071008001999999KA1240M+02791MA1999999101711MD1999999+0151MW1501REMSYN100AAXX  22004 83398 21594 81804 10226 20216 30171 40177 75062 857// 333 10279 29/// 55002 58015 60031;
0190833980999992004102212004-15667-038933FM-12+000599999V0201801N004110075019N0040001N1+02241+02071101911ADDAY161061AY221061GF108991051071008001021999KA1240N+02041MA1999999101851MD1999999+0161MW1531REMSYN088AAXX  22124 83398 21596 81808 10224 20207 30185 40191 75362 8572/ 333 20204 58016 60114;
0202833980999992004102300004-15667-038933FM-12+000599999V0201801N002110075019N0010001N1+02301+02161101901ADDAY161061AY221061GF108991061051008001021999KA1240M+02681MA1999999101841MD1999999+0131MW1021REMSYN100AAXX  23004 83398 21594 81804 10230 20216 30184 40190 70262 8652/ 333 10268 29/// 55000 58013 60031;
0190833980999992004102312004-15667-038933FM-12+000599999V0201801N004110075019N0040001N1+02501+02191101821ADDAY161061AY221061GF108991061051008001021999KA1240N+02041MA1999999101761MD1999999-0091MW1021REMSYN088AAXX  23124 83398 21596 81808 10250 20219 30176 40182 70262 8652/ 333 20204 59009 60044;
0198833980999992004102400004-15667-038933FM-12+000599999V0201801N003110075019N0010001N1+02281+02011101631ADDAA106000091GF108991051051008001021999KA1240M+02781MA1999999101571MD1999999-0271REMSYN088AAXX  24004 83398 32594 81806 10228 20201 30157 40163 8552/ 333 10278 29/// 55005 59027;EQDQ01  00002PRCP06
0186833980999992004102412004-15667-038933FM-12+000599999V0203601N001010075019N0040001N1+02281+02141101621ADDAA106000091GF108991061051008001021999KA1240N+02061MA1999999101561MD1999999-0201REMSYN076AAXX  24124 83398 32596 83602 10228 20214 30156 40162 8652/ 333 20206 59020;EQDQ01  00002PRCP06
0202833980999992004102500004-15667-038933FM-12+000599999V0202301N001010450019N0010001N1+02281+02111101371ADDAY151061AY221061GF106991041051008001021001KA1240M+02791MA1999999101321MD1999999-0251MW1021REMSYN100AAXX  25004 83398 21594 62302 10228 20211 30132 40137 70252 84520 333 10279 29/// 55051 59025 69941;
0190833980999992004102512004-15667-038933FM-12+000599999V0203601N002110450019N0040001N1+02541+02251101431ADDAY161061AY221061GF106991041051008001021001KA1240N+02041MA1999999101381MD1999999-0181MW1501REMSYN088AAXX  25124 83398 21596 63604 10254 20225 30138 40143 75062 84520 333 20204 59018 60014;
0198833980999992004102600004-15667-038933FM-12+000599999V0203601N002110450019N0010001N1+02521+02331101221ADDAA106000091GF106991041051008001021001KA1240M+02891MA1999999101771MD1999999-0151REMSYN088AAXX  26004 83398 32594 63604 10252 20233 30177 40122 84520 333 10289 29/// 55052 59015;EQDQ01  00002PRCP06
0186833980999992004102612004-15667-038933FM-12+000599999V0203601N003110450019N0040001N1+02801+02271101411ADDAA106000091GF106991041051008001021001KA1240N+02301MA1999999101361MD1999999-0021REMSYN076AAXX  26124 83398 32596 63606 10280 20227 30136 40141 84520 333 20230 59002;EQDQ01  00002PRCP06
0198833980999992004102700004-15667-038933FM-12+000599999V0203601N004110450019N0010001N1+02561+02251101361ADDAA106000091GF106991041051008001021001KA1240M+02941MA1999999101311MD1999999+0141REMSYN088AAXX  27004 83398 32594 63608 10256 20225 30131 40136 84520 333 10294 29/// 55082 58014;EQDQ01  00002PRCP06
0186833980999992004102712004-15667-038933FM-12+000599999V0203601N002110075019N0040001N1+02701+02281101551ADDAA106000091GF108991061051008001021999KA1240N+02441MA1999999101501MD1999999+0141REMSYN076AAXX  27124 83398 32596 83604 10270 20228 30150 40155 8652/ 333 20244 58014;EQDQ01  00002PRCP06
0198833980999992004102800004-15667-038933FM-12+000599999V0203601N002110450019N0010001N1+02561+02311101551ADDAA106000091GF105991021051008001041001KA1240M+02851MA1999999101501MD1999999+0191REMSYN088AAXX  28004 83398 32594 53604 10256 20231 30150 40155 82540 333 10285 29/// 55004 58019;EQDQ01  00002PRCP06
0186833980999992004102812004-15667-038933FM-12+000599999V0203601N003110450019N0040001N1+02841+02221101631ADDAA106000091GF106991041021008001041001KA1240N+02461MA1999999101571MD1999999+0071REMSYN076AAXX  28124 83398 32596 63606 10284 20222 30157 40163 84240 333 20246 58007;EQDQ01  00002PRCP06
0202833980999992004102900004-15667-038933FM-12+000599999V0200501N002110450019N0010001N1+02581+02331101641ADDAY151061AY221061GF106991041051008001021001KA1240M+02981MA1999999101581MD1999999+0081MW1021REMSYN100AAXX  29004 83398 21594 60504 10258 20233 30158 40164 70252 84520 333 10298 29/// 55101 58008 69911;
0190833980999992004102912004-15667-038933FM-12+000599999V0201801N002110075019N0040001N1+02281+02051101891ADDAY161061AY221061GF108991061051008001021999KA1240N+02001MA1999999101831MD1999999+0261MW1021REMSYN088AAXX  29124 83398 21596 81804 10228 20205 30183 40189 70262 8652/ 333 20200 58026 60054;
0198833980999992004103000004-15667-038933FM-12+000599999V0201801N002110075019N0010001N1+02241+02161101851ADDAA106000091GF108991061051008001021999KA1240M+02601MA1999999101791MD1999999+0211REMSYN088AAXX  30004 83398 32594 81804 10224 20216 30179 40185 8652/ 333 10260 29/// 55000 58021;EQDQ01  00002PRCP06
0190833980999992004103012004-15667-038933FM-12+000599999V0201801N002110075019N0040001N1+02501+02291101901ADDAY161061AY221061GF107991051051008001021001KA1240N+02101MA1999999101841MD1999999+0011MW1021REMSYN088AAXX  30124 83398 21596 71804 10250 20229 30184 40190 70262 85520 333 20210 58001 60564;
0198833980999992004103100004-15670-038950FM-12+000599999V0201401N001010450019N0010001N1+02381+02131101781ADDAA106000091GF106991031051008001041001KA1240M+02841MA1999999101721MD1999999-0071REMSYN088AAXX  31004 83398 32594 61402 10238 20213 30172 40178 83540 333 10284 29/// 55087 59007;EQDQ01  00002PRCP06
0190833980999992004103112004-15670-038950FM-12+000599999V0200901N001010075019N0040001N1+02561+02231101861ADDAY161061AY221061GF108991051051008001021999KA1240N+02081MA1999999101801MD1999999-0041MW1021REMSYN088AAXX  31124 83398 21596 80902 10256 20223 30180 40186 70262 8552/ 333 20208 59004 60044;
0202833980999992004110100004-15670-038950FM-12+000599999V0200501N001010450019N0010001N1+02501+02311101661ADDAY161061AY221061GF106991041051008001021001KA1240M+02801MA1999999101601MD1999999-0121MW1021REMSYN100AAXX  01004 83398 21594 60502 10250 20231 30160 40166 70262 84520 333 10280 29/// 55069 59012 60021;
0162833980999992004110112004-15670-038950FM-12+000599999V0203601N002110450019N0040001N1+02721+02221101681ADDGF106991041051008001041001KA1240N+02041MA1999999101621MD1999999-0181REMSYN082AAXX  01124 83398 22596 63604 10272 20222 30162 40168 84540 333 20204 59018 60024;
0198833980999992004110200004-15667-038933FM-12+000599999V0203601N004112200019N0010001N1+02541+02151101611ADDAA106000091GF103991031011008001001001KA1240M+02891MA1999999101551MD1999999-0051REMSYN088AAXX  02004 83398 32594 33608 10254 20215 30155 40161 83100 333 10289 29/// 55099 59005;EQDQ01  00002PRCP06
0186833980999992004110212004-15667-038933FM-12+000599999V0200901N003110450019N0040001N1+02721+02221101701ADDAA106000091GF106991041051008001041001KA1240N+02401MA1999999101641MD1999999+0021REMSYN076AAXX  02124 83398 32596 60906 10272 20222 30164 40170 84540 333 20240 58002;EQDQ01  00002PRCP06
0198833980999992004110300004-15667-038933FM-12+000599999V0200501N002110450019N0010001N1+02541+02211101651ADDAA106000091GF105991031011008001041001KA1240M+02881MA1999999101591MD1999999+0041REMSYN088AAXX  03004 83398 32594 50504 10254 20221 30159 40165 83140 333 10288 29/// 55101 58004;EQDQ01  00002PRCP06
0186833980999992004110312004-15667-038933FM-12+000599999V0200501N003110450019N0040001N1+02721+02031101741ADDAA106000091GF106991031051008001041001KA1240N+01981MA1999999101681MD1999999+0041REMSYN076AAXX  03124 83398 32596 60506 10272 20203 30168 40174 83540 333 20198 58004;EQDQ01  00002PRCP06
0198833980999992004110400004-15667-038933FM-12+000599999V0203601N003110450019N0010001N1+02581+02191101621ADDAA106000091GF105991031021008001041001KA1240M+02951MA1999999101561MD1999999-0031REMSYN088AAXX  04004 83398 32594 53606 10258 20219 30156 40162 83240 333 10295 29/// 55107 59003;EQDQ01  00002PRCP06
0186833980999992004110412004-15667-038933FM-12+000599999V0200501N004110450019N0040001N1+02781+02231101711ADDAA106000091GF106991041051008001021001KA1240N+02461MA1999999101651MD1999999-0031REMSYN076AAXX  04124 83398 32596 60508 10278 20223 30165 40171 84520 333 20246 59003;EQDQ01  00002PRCP06
0202833980999992004110500004-15667-038933FM-12+000599999V0200501N002112200019N0010001N1+02561+02191101641ADDAY151061AY221061GF104991041021008001001001KA1240M+02881MA1999999101581MD1999999+0021MW1021REMSYN100AAXX  05004 83398 21594 40504 10256 20219 30158 40164 70252 84200 333 10288 29/// 55062 58002 69971;
0162833980999992004110512004-15667-038933FM-12+000599999V0200501N003110450019N0040001N1+02781+02181101761ADDGF106991041051008001021001KA1240N+02401MA1999999101701MD1999999+0051REMSYN082AAXX  05124 83398 22596 60506 10278 20218 30170 40176 84520 333 20240 58005 69974;
0198833980999992004110600004-15667-038933FM-12+000599999V0200501N003110450019N0010001N1+02501+02111101641ADDAA106000091GF105991031051008001041001KA1240M+02891MA1999999101581MD1999999+0001REMSYN088AAXX  06004 83398 32594 50506 10250 20211 30158 40164 83540 333 10289 29/// 55109 58000;EQDQ01  00002PRCP06
0186833980999992004110612004-15667-038933FM-12+000599999V0200501N004110450019N0040001N1+02761+02281101661ADDAA106000091GF106991031051008001041001KA1240N+02501MA1999999101601MD1999999-0101REMSYN076AAXX  06124 83398 32596 60508 10276 20228 30160 40166 83540 333 20250 59010;EQDQ01  00002PRCP06
0198833980999992004110700004-15667-038933FM-12+000599999V0200501N004110450019N0010001N1+02621+02251101531ADDAA106000091GF106991041051008001021001KA1240M+02921MA1999999101481MD1999999-0101REMSYN088AAXX  07004 83398 32594 60508 10262 20225 30148 40153 84520 333 10292 29/// 55109 59010;EQDQ01  00002PRCP06
0186833980999992004110712004-15667-038933FM-12+000599999V0200501N003110075019N0040001N1+02781+02161101651ADDAA106000091GF105991051021008001001001KA1240N+02541MA1999999101591MD1999999-0011REMSYN076AAXX  07124 83398 32596 50506 10278 20216 30159 40165 85200 333 20254 59001;EQDQ01  00002PRCP06
0198833980999992004110800004-15670-038950FM-12+000599999V0200501N003112200019N0010001N1+02621+02261101561ADDAA106000091GF103991031011008001001001KA1240M+02951MA1999999101511MD1999999+0031REMSYN088AAXX  08004 83398 32594 30506 10262 20226 30151 40156 83100 333 10295 29/// 55097 58003;EQDQ01  00002PRCP06
0186833980999992004110812004-15670-038950FM-12+000599999V0200501N003110450019N0040001N1+02801+02221101751ADDAA106000091GF106991041051008001021001KA1240N+02541MA1999999101691MD1999999+0101REMSYN076AAXX  08124 83398 32596 60506 10280 20222 30169 40175 84520 333 20254 58010;EQDQ01  00002PRCP06
0198833980999992004110900004-15667-038933FM-12+000599999V0200501N001010450019N0010001N1+02601+02291101721ADDAA106000091GF106991041051008001021001KA1240M+02961MA1999999101661MD1999999+0151REMSYN088AAXX  09004 83398 32594 60502 10260 20229 30166 40172 84520 333 10296 29/// 55097 58015;EQDQ01  00002PRCP06
0190833980999992004110912004-15667-038933FM-12+000599999V0201401N002110450019N0040001N1+02781+02161101831ADDAY161061AY221061GF106991041051008001021001KA1240N+02101MA1999999101771MD1999999+0081MW1021REMSYN088AAXX  09124 83398 21596 61404 10278 20216 30177 40183 70262 84520 333 20210 58008 69954;
0198833980999992004111000004-15667-038933FM-12+000599999V0200901N004110450019N0010001N1+02581+02271101671ADDAA106000091GF106991041051008001021001KA1240M+02941MA1999999101611MD1999999-0051REMSYN088AAXX  10004 83398 32594 60908 10258 20227 30161 40167 84520 333 10294 29/// 55110 59005;EQDQ01  00002PRCP06
0186833980999992004111012004-15667-038933FM-12+000599999V0200901N003612200019N0040001N1+02781+01911102091ADDAA106000091GF104991041021008001001001KA1240N+02001MA1999999102031MD1999999+0261REMSYN076AAXX  10124 83398 32596 40907 10278 20191 30203 40209 84200 333 20200 58026;EQDQ01  00002PRCP06
0198833980999992004111100004-15667-038933FM-12+000599999V0200501N002112200019N0010001N1+02541+01951101591ADDAA106000091GF104991021021008001041001KA1240M+02911MA1999999101541MD1999999-0071REMSYN088AAXX  11004 83398 32594 40504 10254 20195 30154 40159 82240 333 10291 29/// 55113 59007;EQDQ01  00002PRCP06
0186833980999992004111112004-15667-038933FM-12+000599999V0200501N002110450019N0040001N1+02771+02241101481ADDAA106000091GF105991031021008001041001KA1240N+02111MA1999999101431MD1999999-0601REMSYN076AAXX  11124 83398 32596 50504 10277 20224 30143 40148 83240 333 20211 59060;EQDQ01  00002PRCP06
0198833980999992004111200004-15667-038933FM-12+000599999V0203601N004110450019N0010001N1+02621+02231101161ADDAA106000091GF106991041051008001021001KA1240M+02901MA1999999101111MD1999999-0431REMSYN088AAXX  12004 83398 32594 63608 10262 20223 30111 40116 84520 333 10290 29/// 55078 59043;EQDQ01  00002PRCP06
0190833980999992004111212004-15667-038933FM-12+000599999V0203601N004112200019N0040001N1+02831+02211101241ADDAY151061AY221061GF104991031021008001041001KA1240N+02381MA1999999101191MD1999999-0241MW1011REMSYN088AAXX  12124 83398 21596 43608 10283 20221 30119 40124 70152 83240 333 20238 59024 60034;
0198833980999992004111300004-15670-038950FM-12+000599999V0203601N005112200019N0010001N1+02581+02251101081ADDAA106000091GF103991031011008001001001KA1240M+02971MA1999999101031MD1999999-0081REMSYN088AAXX  13004 83398 32594 33610 10258 20225 30103 40108 83100 333 10297 29/// 55098 59008;EQDQ01  00002PRCP06
0186833980999992004111312004-15670-038950FM-12+000599999V0203601N003110450019N0040001N1+02961+02281101191ADDAA106000091GF106991041021008001041001KA1240N+02201MA1999999101141MD1999999-0051REMSYN076AAXX  13124 83398 32596 63606 10296 20228 30114 40119 84240 333 20220 59005;EQDQ01  00002PRCP06
0198833980999992004111400004-15667-038933FM-12+000599999V0200501N003110450019N0010001N1+02681+02281101321ADDAA106000091GF105991031021008001041001KA1240M+03091MA1999999101271MD1999999+0241REMSYN088AAXX  14004 83398 32594 50506 10268 20228 30127 40132 83240 333 10309 29/// 55095 58024;EQDQ01  00002PRCP06
0190833980999992004111412004-15667-038933FM-12+000599999V0200501N002110075019N0040001N1+02801+02441101531ADDAY161061AY221061GF107991051051008001021001KA1240N+02501MA1999999101481MD1999999+0341MW1021REMSYN088AAXX  14124 83398 21596 70504 10280 20244 30148 40153 70262 85520 333 20250 58034 60054;
0202833980999992004111500004-15667-038933FM-12+000599999V0201801N002110450019N0010001N1+02361+02191101661ADDAY161061AY221061GF108991041071008001021999KA1240M+02891MA1999999101601MD1999999+0331MW1611REMSYN100AAXX  15004 83398 21594 81804 10236 20219 30160 40166 76162 8472/ 333 10289 29/// 55008 58033 60041;
0162833980999992004111512004-15667-038933FM-12+000599999V0200901N005110075019N0040001N1+02641+02141101731ADDGF108991051051008001021999KA1240N+02301MA1999999101671MD1999999+0191REMSYN082AAXX  15124 83398 22596 80910 10264 20214 30167 40173 8552/ 333 20230 58019 60044;
0202833980999992004111600004-15667-038933FM-12+000599999V0200901N003110075019N0010001N1+02461+02301101661ADDAY161061AY221061GF108991051051008001021999KA1240M+02861MA1999999101601MD1999999+0001MW1501REMSYN100AAXX  16004 83398 21594 80906 10246 20230 30160 40166 75062 8552/ 333 10286 29/// 55018 58000 69941;
0190833980999992004111612004-15667-038933FM-12+000599999V0200501N002110450019N0040001N1+02301+02161101781ADDAY161061AY221061GF108991041071008001021999KA1240N+02261MA1999999101721MD1999999+0051MW1621REMSYN088AAXX  16124 83398 21596 80504 10230 20216 30172 40178 76262 8472/ 333 20226 58005 60094;
0179833980999992004111700004-15667-038933FM-12+000599999V0200901N001019999999N0010001N1+02361+02051101671ADDGF108991999999008001999999KA1240M+02701MA1999999101611MD1999999+0011REMSYN099AAXX  17004 83398 21594 80902 10236 20205 30161 40167 7505 8552/ 333 10270 29/// 55004 58001 60021;
0190833980999992004111712004-15667-038933FM-12+000599999V0202301N001010075019N0040001N1+02581+02381101701ADDAY161061AY221061GF108991051051008001021021KA1240N+02141MA1999999101641MD1999999-0081MW1021REMSYN088AAXX  17124 83398 21596 82302 10258 20238 30164 40170 70262 85522 333 20214 59008 60124;
0202833980999992004111800004-15667-038933FM-12+000599999V0203601N002110450019N0010001N1+02541+02401101551ADDAY151061AY221061GF106991041051008001021001KA1240M+02891MA1999999101501MD1999999-0111MW1021REMSYN100AAXX  18004 83398 21594 63604 10254 20240 30150 40155 70252 84520 333 10289 29/// 55082 59011 69941;
0162833980999992004111812004-15667-038933FM-12+000599999V0203601N002110450019N0040001N1+02841+02351101501ADDGF106991041051008001021001KA1240N+02241MA1999999101451MD1999999-0191REMSYN082AAXX  18124 83398 22596 63604 10284 20235 30145 40150 84520 333 20224 59019 69944;
0198833980999992004111900004-15667-038933FM-12+000599999V0203601N002110450019N0010001N1+02541+02211101261ADDAA106000091GF106991031051008001021001KA1240M+02961MA1999999101211MD1999999-0291REMSYN088AAXX  19004 83398 32594 63604 10254 20221 30121 40126 83520 333 10296 29/// 55104 59029;EQDQ01  00002PRCP06
0186833980999992004111912004-15667-038933FM-12+000599999V0203601N004110450019N0040001N1+02901+02221101221ADDAA106000091GF106991041051008001021001KA1240N+02241MA1999999101171MD1999999-0281REMSYN076AAXX  19124 83398 32596 63608 10290 20222 30117 40122 84520 333 20224 59028;EQDQ01  00002PRCP06
0198833980999992004112100004-15670-038950FM-12+000599999V0200501N001010450019N0010001N1+02621+02421101221ADDAA106000091GF107991041051008001021001KA1240M+02951MA1999999101171MD1999999+0111REMSYN088AAXX  21004 83398 32594 70502 10262 20242 30117 40122 84520 333 10295 29/// 55004 58011;EQDQ01  00002PRCP06
0190833980999992004112112004-15670-038950FM-12+000599999V0209999C000010450019N0040001N1+02421+02281101381ADDAY191061AY261061GF108991031071008001021999KA1240N+02221MA1999999101331MD1999999+0171MW1521REMSYN088AAXX  21124 83398 21596 80000 10242 20228 30133 40138 75296 8372/ 333 20222 58017 60244;
0202833980999992004112200004-15667-038933FM-12+000599999V0202301N001010075019N0010001N1+02261+02141101501ADDAY191061AY261061GF108991061051008001021999KA1240M+02561MA1999999101451MD1999999+0281MW1021REMSYN100AAXX  22004 83398 21594 82302 10226 20214 30145 40150 70296 8652/ 333 10256 29/// 55000 58028 60111;
0190833980999992004112212004-15667-038933FM-12+000599999V0202301N002110075019N0040001N1+02221+02171101551ADDAY191061AY261061GF108991051071008001021999KA1240N+02101MA1999999101501MD1999999+0171MW1601REMSYN088AAXX  22124 83398 21596 82304 10222 20217 30150 40155 76096 8572/ 333 20210 58017 60134;
0202833980999992004112300004-15667-038933FM-12+000599999V0202701N004110450019N0010001N1+02201+02171101441ADDAY161061AY221061GF108991041071008001021999KA1240M+02421MA1999999101391MD1999999-0061MW1521REMSYN100AAXX  23004 83398 21594 82708 10220 20217 30139 40144 75262 8472/ 333 10242 29/// 55000 59006 60021;
0202833980999992004112400004-15667-038933FM-12+000599999V0209999C000010075019N0010001N1+02001+01971101851ADDAY161061AY221061GF108991061051008001021999KA1240M+02401MA1999999101791MD1999999+0401MW1021REMSYN100AAXX  24004 83398 21594 80000 10200 20197 30179 40185 70262 8652/ 333 10240 29/// 55000 58040 60251;
0190833980999992004112412004-15667-038933FM-12+000599999V0202301N001010075019N0040001N1+02361+02051101801ADDAY161061AY221061GF108991051051008001021999KA1240N+01901MA1999999101741MD1999999+0131MW1021REMSYN088AAXX  24124 83398 21596 82302 10236 20205 30174 40180 70262 8552/ 333 20190 58013 60284;
0202833980999992004112500004-15667-038933FM-12+000599999V0209999C000010075019N0010001N1+02161+02111101731ADDAY161061AY221061GF108991051051008001021999KA1240M+02701MA1999999101671MD1999999-0121MW1021REMSYN100AAXX  25004 83398 21594 80000 10216 20211 30167 40173 70262 8552/ 333 10270 29/// 55002 59012 60031;
0190833980999992004112512004-15667-038933FM-12+000599999V0209999C000010450019N0040001N1+02621+02251101691ADDAY161061AY221061GF106991041051008001021001KA1240N+02001MA1999999101641MD1999999-0111MW1021REMSYN088AAXX  25124 83398 21596 60000 10262 20225 30164 40169 70262 84520 333 20200 59011 60094;
0202833980999992004112600004-15667-038933FM-12+000599999V0200501N001010450019N0010001N1+02401+02211101581ADDAY151061AY221061GF107991041051008001021001KA1240M+02861MA1999999101531MD1999999-0141MW1021REMSYN100AAXX  26004 83398 21594 70502 10240 20221 30153 40158 70252 84520 333 10286 29/// 55089 59014 69911;
0198833980999992004112700004-15667-038933FM-12+000599999V0200501N002110450019N0010001N1+02541+02331101431ADDAA106000091GF105991031021008001041001KA1240M+02871MA1999999101381MD1999999-0151REMSYN088AAXX  27004 83398 32594 50504 10254 20233 30138 40143 83240 333 10287 29/// 55098 59015;EQDQ01  00002PRCP06
0186833980999992004112712004-15667-038933FM-12+000599999V0200501N004110450019N0040001N1+02741+02171101451ADDAA106000091GF106991031051008001041001KA1240N+02201MA1999999101401MD1999999-0181REMSYN076AAXX  27124 83398 32596 60508 10274 20217 30140 40145 83540 333 20220 59018;EQDQ01  00002PRCP06
0198833980999992004112800004-15667-038933FM-12+000599999V0203601N002110450019N0010001N1+02581+02331101281ADDAA106000091GF106991041051008001021001KA1240M+02891MA1999999101231MD1999999-0151REMSYN088AAXX  28004 83398 32594 63604 10258 20233 30123 40128 84520 333 10289 29/// 55116 59015;EQDQ01  00002PRCP06
0186833980999992004112812004-15667-038933FM-12+000599999V0203601N002110450019N0040001N1+02781+02321101321ADDAA106000091GF106991041051008001021001KA1240N+02161MA1999999101261MD1999999-0141REMSYN076AAXX  28124 83398 32596 63604 10278 20232 30126 40132 84520 333 20216 59014;EQDQ01  00002PRCP06
0202833980999992004112900004-15667-038933FM-12+000599999V0203601N002110450019N0010001N1+02601+02351101261ADDAY151061AY221061GF106991041051008001021001KA1240M+02861MA1999999101211MD1999999-0081MW1021REMSYN100AAXX  29004 83398 21594 63604 10260 20235 30121 40126 70252 84520 333 10286 29/// 55098 59008 69921;
0198833980999992004120100004-15667-038933FM-12+000599999V0203601N001010450019N0010001N1+02601+02401101241ADDAA106000091GF105991031051008001041001KA1240M+02971MA1999999101191MD1999999+0061REMSYN088AAXX  01004 83398 32594 53602 10260 20240 30119 40124 83540 333 10297 29/// 55010 58006;EQDQ01  00002PRCP06
0186833980999992004120112004-15667-038933FM-12+000599999V0200501N003110450019N0040001N1+02801+02421101401ADDAA106000091GF106991041051008001021001KA1240N+02381MA1999999101351MD1999999+0161REMSYN076AAXX  01124 83398 32596 60506 10280 20242 30135 40140 84520 333 20238 58016;EQDQ01  00002PRCP06
0202833980999992004120200004-15667-038933FM-12+000599999V0201401N003110075019N0010001N1+02461+02361101421ADDAY161061AY221061GF108991081071008001999999KA1240M+02951MA1999999101371MD1999999+0161MW1621REMSYN100AAXX  02004 83398 21594 81406 10246 20236 30137 40142 76262 887// 333 10295 29/// 55067 58016 60051;
0190833980999992004120212004-15667-038933FM-12+000599999V0201801N002110450019N0040001N1+02681+02411101481ADDAY161061AY221061GF106991041051008001021001KA1240N+02301MA1999999101431MD1999999+0081MW1021REMSYN088AAXX  02124 83398 21596 61804 10268 20241 30143 40148 70262 84520 333 20230 58008 60164;
0198833980999992004120300004-15667-038933FM-12+000599999V0201801N002110450019N0010001N1+02361+02221101551ADDAA106000091GF105991031051008001041001KA1240M+02941MA1999999101501MD1999999+0131REMSYN088AAXX  03004 83398 32594 51804 10236 20222 30150 40155 83540 333 10294 29/// 55090 58013;EQDQ01  00002PRCP06
0190833980999992004120312004-15667-038933FM-12+000599999V0202301N001010450019N0040001N1+02621+02351101641ADDAY161061AY221061GF106991041051008001021001KA1240N+02221MA1999999101581MD1999999+0151MW1021REMSYN088AAXX  03124 83398 21596 62302 10262 20235 30158 40164 70262 84520 333 20222 58015 60044;
0198833980999992004120400004-15667-038933FM-12+000599999V0200901N002112200019N0010001N1+02581+02251101601ADDAA106000091GF103991031011008001001001KA1240M+02901MA1999999101541MD1999999+0041REMSYN088AAXX  04004 83398 32594 30904 10258 20225 30154 40160 83100 333 10290 29/// 55094 58004;EQDQ01  00002PRCP06
0186833980999992004120412004-15667-038933FM-12+000599999V0200501N003110450019N0040001N1+02781+02251101841ADDAA106000091GF106991041051008001021001KA1240N+02201MA1999999101781MD1999999+0201REMSYN076AAXX  04124 83398 32596 60506 10278 20225 30178 40184 84520 333 20220 58020;EQDQ01  00002PRCP06
0198833980999992004120500004-15667-038933FM-12+000599999V0200501N001010450019N0010001N1+02561+02271101701ADDAA106000091GF105991031021008001041001KA1240M+02901MA1999999101641MD1999999+0101REMSYN088AAXX  05004 83398 32594 50502 10256 20227 30164 40170 83240 333 10290 29/// 55102 58010;EQDQ01  00002PRCP06
0190833980999992004120512004-15667-038933FM-12+000599999V0200501N003110450019N0040001N1+02781+02361101711ADDAY151061AY221061GF106991041051008001021001KA1240N+02141MA1999999101651MD1999999-0131MW1021REMSYN088AAXX  05124 83398 21596 60506 10278 20236 30165 40171 70252 84520 333 20214 59013 69924;
0198833980999992004120600004-15670-038950FM-12+000599999V0200501N003112200019N0010001N1+02601+02391101531ADDAA106000091GF103991031011008001001001KA1240M+02921MA1999999101481MD1999999-0161REMSYN088AAXX  06004 83398 32594 30506 10260 20239 30148 40153 83100 333 10292 29/// 55112 59016;EQDQ01  00002PRCP06
0186833980999992004120612004-15670-038950FM-12+000599999V0203601N003110450019N0040001N1+02781+02161101501ADDAA106000091GF106991031051008001041001KA1240N+02201MA1999999101451MD1999999-0201REMSYN076AAXX  06124 83398 32596 63606 10278 20216 30145 40150 83540 333 20220 59020;EQDQ01  00002PRCP06
0198833980999992004120700004-15667-038933FM-12+000599999V0203601N003110450019N0010001N1+02581+02371101371ADDAA106000091GF106991041051008001021001KA1240M+02921MA1999999101321MD1999999-0161REMSYN088AAXX  07004 83398 32594 63606 10258 20237 30132 40137 84520 333 10292 29/// 55117 59016;EQDQ01  00002PRCP06
0198833980999992004120800004-15667-038933FM-12+000599999V0203601N003110450019N0010001N1+02621+02421101341ADDAA106000091GF106991041051008001021001KA1240M+02971MA1999999101291MD1999999-0031REMSYN088AAXX  08004 83398 32594 63606 10262 20242 30129 40134 84520 333 10297 29/// 55116 59003;EQDQ01  00002PRCP06
0186833980999992004120812004-15667-038933FM-12+000599999V0203601N003110450019N0040001N1+02881+02301101491ADDAA106000091GF106991041051008001021001KA1240N+02301MA1999999101441MD1999999+0001REMSYN076AAXX  08124 83398 32596 63606 10288 20230 30144 40149 84520 333 20230 58000;EQDQ01  00002PRCP06
0186833980999992004120912004-15667-038933FM-12+000599999V0203601N003110450019N0040001N1+02841+02381101361ADDAA106000091GF106991031051008001041001KA1240N+02221MA1999999101311MD1999999-0131REMSYN076AAXX  09124 83398 32596 63606 10284 20238 30131 40136 83540 333 20222 59013;EQDQ01  00002PRCP06
0198833980999992004121000004-15667-038933FM-12+000599999V0200501N002110450019N0010001N1+02621+02371101171ADDAA106000091GF105991031011008001041001KA1240M+03011MA1999999101121MD1999999-0141REMSYN088AAXX  10004 83398 32594 50504 10262 20237 30112 40117 83140 333 10301 29/// 55109 59014;EQDQ01  00002PRCP06
0186833980999992004121012004-15667-038933FM-12+000599999V0203601N004110450019N0040001N1+02901+02321101131ADDAA106000091GF106991041051008001041001KA1240N+02321MA1999999101081MD1999999-0231REMSYN076AAXX  10124 83398 32596 63608 10290 20232 30108 40113 84540 333 20232 59023;EQDQ01  00002PRCP06
0198833980999992004121100004-15667-038933FM-12+000599999V0200501N002110450019N0010001N1+02601+02391101041ADDAA106000091GF106991041051008001021001KA1240M+03051MA1999999100991MD1999999-0131REMSYN088AAXX  11004 83398 32594 60504 10260 20239 30099 40104 84520 333 10305 29/// 55109 59013;EQDQ01  00002PRCP06
0186833980999992004121112004-15667-038933FM-12+000599999V0203601N003110450019N0040001N1+02601+02341101191ADDAA106000091GF106991041051008001041001KA1240N+02301MA1999999101111MD1999999+0061REMSYN076AAXX  11124 83398 32596 63606 10260 20234 30111 40119 84540 333 20230 58006;EQDQ01  00002PRCP06
0198833980999992004122100004-15667-038933FM-12+000599999V0200501N002110450019N0010001N1+02581+02191101321ADDAA106000091GF105991031051008001041001KA1240M+03051MA1999999101271MD1999999+0001REMSYN088AAXX  21004 83398 32594 50504 10258 20219 30127 40132 83540 333 10305 29/// 55/// 58000;EQDQ01  00002PRCP06
0190833980999992004122212004-15667-038933FM-12+000599999V0203601N001010450019N0040001N1+02561+02311101331ADDAY161061AY221061GF108991041071008001021999KA1240N+02261MA1999999101281MD1999999-0021MW1511REMSYN088AAXX  22124 83398 21596 83602 10256 20231 30128 40133 75162 8472/ 333 20226 59002 69944;
0202833980999992004122300004-15667-038933FM-12+000599999V0203601N001010450019N0010001N1+02581+02381101231ADDAY151061AY221061GF106991041051008001021001KA1240M+02891MA1999999101181MD1999999+0051MW1021REMSYN100AAXX  23004 83398 21594 63602 10258 20238 30118 40123 70252 84520 333 10289 29/// 55015 58005 69911;
0190833980999992004122312004-15667-038933FM-12+000599999V0203601N004610450019N0040001N1+02851+02231101301ADDAY151061AY221061GF105991031021008001041001KA1240N+02161MA1999999101251MD1999999-0031MW1021REMSYN088AAXX  23124 83398 21596 53609 10285 20223 30125 40130 70252 83240 333 20216 59003 69924;
0198833980999992004122400004-15667-038933FM-12+000599999V0203601N002110450019N0010001N1+02541+02251101221ADDAA106000091GF105991021051008001041001KA1240M+03011MA1999999101171MD1999999-0011REMSYN088AAXX  24004 83398 32594 53604 10254 20225 30117 40122 82540 333 10301 29/// 55106 59001;EQDQ01  00002PRCP06
0186833980999992004122412004-15667-038933FM-12+000599999V0203601N003110450019N0040001N1+02841+02291101311ADDAA106000091GF107991031051008001041011KA1240N+02001MA1999999101261MD1999999+0011REMSYN076AAXX  24124 83398 32596 73606 10284 20229 30126 40131 83541 333 20200 58001;EQDQ01  00002PRCP06
0198833980999992004122500004-15667-038933FM-12+000599999V0203601N002110450019N0010001N1+02581+02331101261ADDAA106000091GF105991021051008001041001KA1240M+03041MA1999999101211MD1999999+0041REMSYN088AAXX  25004 83398 32594 53604 10258 20233 30121 40126 82540 333 10304 29/// 55102 58004;EQDQ01  00002PRCP06
0186833980999992004122512004-15667-038933FM-12+000599999V0203601N002110450019N0040001N1+02841+02261101421ADDAA106000091GF107991041051008001021001KA1240N+02221MA1999999101131MD1999999+0111REMSYN076AAXX  25124 83398 32596 73604 10284 20226 30113 40142 84520 333 20222 58011;EQDQ01  00002PRCP06
0198833980999992004122600004-15670-038950FM-12+000599999V0203601N001012200019N0010001N1+02571+02341101331ADDAA106000091GF102991021021008001001001KA1240M+03051MA1999999101281MD1999999+0071REMSYN088AAXX  26004 83398 32594 23602 10257 20234 30128 40133 82200 333 10305 29/// 55109 58007;EQDQ01  00002PRCP06
0198833980999992004122700004-15670-038950FM-12+000599999V0200501N002112200019N0010001N1+02541+02331101321ADDAA106000091GF103991031001008001041001KA1240M+03031MA1999999101271MD1999999-0011REMSYN088AAXX  27004 83398 32594 30504 10254 20233 30127 40132 83040 333 10303 29/// 55094 59001;EQDQ01  00002PRCP06
0186833980999992004122712004-15670-038950FM-12+000599999V0203601N002110450019N0040001N1+02821+02051101341ADDAA106000091GF106991041051008001041001KA1240N+01981MA1999999101291MD1999999-0181REMSYN076AAXX  27124 83398 32596 63604 10282 20205 30129 40134 84540 333 20198 59018;EQDQ01  00002PRCP06
0186833980999992004122812004-15667-038933FM-12+000599999V0203601N003110450019N0040001N1+02601+02341101191ADDAA106000091GF106991041051008001041001KA1240N+02301MA1999999101141MD1999999+0061REMSYN076AAXX  28124 83398 32596 63606 10260 20234 30114 40119 84540 333 20230 58006;EQDQ01  00002PRCP06
0198833980999992004122900004-15667-038933FM-12+000599999V0209999C000012200019N0010001N1+02601+02331101271ADDAA106000091GF104991021021008001041001KA1240M+03001MA1999999101221MD1999999+0221REMSYN088AAXX  29004 83398 32594 40000 10260 20233 30122 40127 82240 333 10300 29/// 55114 58022;EQDQ01  00002PRCP06
0186833980999992004122912004-15667-038933FM-12+000599999V0209999C000010450019N0040001N1+02901+02221101621ADDAA106000091GF107991041051008001021001KA1240N+02101MA1999999101561MD1999999+0311REMSYN076AAXX  29124 83398 32596 70000 10290 20222 30156 40162 84520 333 20210 58031;EQDQ01  00002PRCP06
0198833980999992004123000004-15667-038933FM-12+000599999V0209999C000010450019N0010001N1+02601+02231101621ADDAA106000091GF106991021051008001041011KA1240M+03051MA1999999101561MD1999999+0241REMSYN088AAXX  30004 83398 32594 60000 10260 20223 30156 40162 82541 333 10305 29/// 55073 58024;EQDQ01  00002PRCP06
0190833980999992004123012004-15667-038933FM-12+000599999V0200501N002110075019N0040001N1+02841+02221101661ADDAY161061AY221061GF107991051051008001021001KA1240N+02001MA1999999101601MD1999999+0041MW1021REMSYN088AAXX  30124 83398 21596 70504 10284 20222 30160 40166 70262 85520 333 20200 58004 69954;
0198833980999992004123100004-15667-038933FM-12+000599999V0200501N001012200019N0010001N1+02661+02311101421ADDAA106000091GF103991031011008001001001KA1240M+03071MA1999999101371MD1999999-0191REMSYN088AAXX  31004 83398 32594 30502 10266 20231 30137 40142 83100 333 10307 29/// 55111 59019;EQDQ01  00002PRCP06
0186833980999992004123112004-15667-038933FM-12+000599999V0200901N002110450019N0040001N1+02901+02101101641ADDAA106000091GF106991041051008001041001KA1240N+02101MA1999999101581MD1999999-0021REMSYN076AAXX  31124 83398 32596 60904 10290 20210 30158 40164 84540 333 20210 59002;EQDQ01  00002PRCP06
