0072825640999992017010100004-05531-047460FM-15+013199999V0200301N001519999999Y999999999+02801+02501999999ADDMA1101001999999REMMET045METAR SBIZ 010000Z 03003KT CAVOK 28/25 Q1010=
0072825640999992017010100454-05531-047460FM-16+013199999V0209999C000019999999Y999999999+02801+02501999999ADDMA1101101999999REMMET045SPECI SBIZ 010045Z 00000KT CAVOK 28/25 Q1011=
0072825640999992017010107154-05531-047460FM-16+013199999V0203001N001019999999Y999999999+02601+02501999999ADDMA1100901999999REMMET045SPECI SBIZ 010715Z 30002KT CAVOK 26/25 Q1009=
0142825640999992017010108004-05531-047460FM-15+013199999V0203601N001019999999N009999199+02601+02501999999ADDGA1021+009141999GE19MSL   +99999+99999GF199999021999009141999999MA1101001999999REMMET051METAR SBIZ 010800Z 36002KT 9999 FEW030 26/25 Q1010=
0142825640999992017010109004-05531-047460FM-15+013199999V0209999C000019999999N009999199+02601+02501999999ADDGA1021+012191999GE19MSL   +99999+99999GF199999021999012191999999MA1101001999999REMMET051METAR SBIZ 010900Z 00000KT 9999 FEW040 26/25 Q1010=
0142825640999992017010110004-05531-047460FM-15+013199999V0209999C000010061019N009999199+02601+02501999999ADDGA1071+006101999GE19MSL   +99999+99999GF199999071999006101999999MA1101101999999REMMET051METAR SBIZ 011000Z 00000KT 9999 BKN020 26/25 Q1011=
0188825640999992017010111004-05531-047460FM-15+013199999V0203101N001510045719N009999199+02701+02501999999ADDGA1021+003051999GA2071+004571999GA3081+021341999GE19MSL   +99999+99999GF199999021999003051999999MA1101201999999REMMET065METAR SBIZ 011100Z 31003KT 9999 FEW010 BKN015 OVC070 27/25 Q1012=
0188825640999992017010112004-05531-047460FM-15+013199999V0203501N00101004571CN009999199+02701+02501999999ADDGA1021+003051999GA2041+004571999GA3081+021341999GE19MSL   +99999+99999GF199999021999003051999999MA1101301999999REMMET065METAR SBIZ 011200Z 35002KT 9999 FEW010 SCT015 OVC070 27/25 Q1013=
0165825640999992017010113004-05531-047460FM-15+013199999V0203201N002610045719N009999199+02901+02401999999ADDGA1071+004571999GA2041+021341999GE19MSL   +99999+99999GF199999071999004571999999MA1101301999999REMMET058METAR SBIZ 011300Z 32005KT 9999 BKN015 SCT070 29/24 Q1013=
0165825640999992017010114004-05531-047460FM-15+013199999V0200101N002110051819N009999199+03001+02501999999ADDGA1071+005181999GA2041+008231999GE19MSL   +99999+99999GF199999071999005181999999MA1101301999999REMMET058METAR SBIZ 011400Z 01004KT 9999 BKN017 SCT027 30/25 Q1013=
0188825640999992017010115004-05531-047460FM-15+013199999V0203401N00211008531CN009999199+03101+02501999999ADDGA1041+005491999GA2041+008531999GA3071+023471999GE19MSL   +99999+99999GF199999041999005491999999MA1101201999999REMMET065METAR SBIZ 011500Z 34004KT 9999 SCT018 SCT028 BKN077 31/25 Q1012=
0165825640999992017010116004-05531-047460FM-15+013199999V0200701N001510088419N009999199+03201+02401999999ADDGA1021+006101999GA2071+008841999GE19MSL   +99999+99999GF199999021999006101999999MA1101101999999REMMET058METAR SBIZ 011600Z 07003KT 9999 FEW020 BKN029 32/24 Q1011=
0188825640999992017010117004-05531-047460FM-15+013199999V0202401N00261008531CN009999199+03201+02501999999ADDGA1021+006101999GA2041+008531999GA3071+024381999GE19MSL   +99999+99999GF199999021999006101999999MA1101001999999REMMET065METAR SBIZ 011700Z 24005KT 9999 FEW020 SCT028 BKN080 32/25 Q1010=
0165825640999992017010121004-05531-047460FM-15+013199999V0209999C000010304819N009999199+03101+02401999999ADDGA1041+006101999GA2071+030481999GE19MSL   +99999+99999GF199999041999006101999999MA1100901999999REMMET058METAR SBIZ 012100Z 00000KT 9999 SCT020 BKN100 31/24 Q1009=
0165825640999992017010122004-05531-047460FM-15+013199999V0202301N001010304819N009999199+03001+02501999999ADDGA1041+006101999GA2071+030481999GE19MSL   +99999+99999GF199999041999006101999999MA1100901999999REMMET058METAR SBIZ 012200Z 23002KT 9999 SCT020 BKN100 30/25 Q1009=
0165825640999992017010123004-05531-047460FM-15+013199999V0209999C00001030481CN009999199+02901+02601999999ADDGA1021+006101999GA2041+030481999GE19MSL   +99999+99999GF199999021999006101999999MA1101001999999REMMET058METAR SBIZ 012300Z 00000KT 9999 FEW020 SCT100 29/26 Q1010=
0165825640999992017010200004-05531-047460FM-15+013199999V0202801N00101030481CN009999199+02801+02501999999ADDGA1021+009141999GA2041+030481999GE19MSL   +99999+99999GF199999021999009141999999MA1101101999999REMMET058METAR SBIZ 020000Z 28002KT 9999 FEW030 SCT100 28/25 Q1011=
0072825640999992017010200454-05531-047460FM-16+013199999V0209999C000019999999Y999999999+02801+02501999999ADDMA1101101999999REMMET045SPECI SBIZ 020045Z 00000KT CAVOK 28/25 Q1011=
0142825640999992017010208004-05531-047460FM-15+013199999V0200101N001519999999N009999199+02601+02501999999ADDGA1041+004571999GE19MSL   +99999+99999GF199999041999004571999999MA1101001999999REMMET051METAR SBIZ 020800Z 01003KT 9999 SCT015 26/25 Q1010=
0165825640999992017010209004-05531-047460FM-15+013199999V0209999C000010045719N009999199+02501+02301999999ADDGA1071+004571999GA2071+024381999GE19MSL   +99999+99999GF199999071999004571999999MA1101101999999REMMET058METAR SBIZ 020900Z 00000KT 9999 BKN015 BKN080 25/23 Q1011=
0165825640999992017010210004-05531-047460FM-15+013199999V0209999C000010045719N009999199+02601+02401999999ADDGA1071+004571999GA2071+024381999GE19MSL   +99999+99999GF199999071999004571999999MA1101201999999REMMET058METAR SBIZ 021000Z 00000KT 9999 BKN015 BKN080 26/24 Q1012=
0198825640999992017010211004-05531-047460FM-15+013199999V0209999C00001004571CN007000199+02601+02501999999ADDGA1021+003051999GA2041+004571999GA3071+021341999GE19MSL   +99999+99999GF199999021999003051999999MA1101201999999MW1611REMMET069METAR SBIZ 021100Z 00000KT 7000 -RA FEW010 SCT015 BKN070 26/25 Q1012=
0165825640999992017010213004-05531-047460FM-15+013199999V0200701N00101004571CN009999199+02901+02401999999ADDGA1021+003051999GA2041+004571999GE19MSL   +99999+99999GF199999021999003051999999MA1101301999999REMMET058METAR SBIZ 021300Z 07002KT 9999 FEW010 SCT015 29/24 Q1013=
0165825640999992017010214004-05531-047460FM-15+013199999V0203501N002110243819N009999199+03001+02501999999ADDGA1041+004571999GA2071+024381999GE19MSL   +99999+99999GF199999041999004571999999MA1101201999999REMMET058METAR SBIZ 021400Z 35004KT 9999 SCT015 BKN080 30/25 Q1012=
0165825640999992017010216004-05531-047460FM-15+013199999V0203301N001510045719N009999199+03001+02601999999ADDGA1071+004571999GA2071+024381999GE19MSL   +99999+99999GF199999071999004571999999MA1101101999999REMMET058METAR SBIZ 021600Z 33003KT 9999 BKN015 BKN080 30/26 Q1011=
0165825640999992017010217004-05531-047460FM-15+013199999V0200601N001510243819N009999199+02801+02601999999ADDGA1041+007621999GA2071+024381999GE19MSL   +99999+99999GF199999041999007621999999MA1101101999999REMMET058METAR SBIZ 021700Z 06003KT 9999 SCT025 BKN080 28/26 Q1011=
0165825640999992017010219004-05531-047460FM-15+013199999V0209999C000010243819N009999199+02901+02501999999ADDGA1041+007621999GA2071+024381999GE19MSL   +99999+99999GF199999041999007621999999MA1100901999999REMMET058METAR SBIZ 021900Z 00000KT 9999 SCT025 BKN080 29/25 Q1009=
0165825640999992017010220004-05531-047460FM-15+013199999V0209999C000010213419N009999199+02801+02601999999ADDGA1021+007621999GA2071+021341999GE19MSL   +99999+99999GF199999021999007621999999MA1100901999999REMMET058METAR SBIZ 022000Z 00000KT 9999 FEW025 BKN070 28/26 Q1009=
0165825640999992017010222004-05531-047460FM-15+013199999V0209999C000010213419N009999199+02701+02601999999ADDGA1021+006101999GA2071+021341999GE19MSL   +99999+99999GF199999021999006101999999MA1101001999999REMMET058METAR SBIZ 022200Z 00000KT 9999 FEW020 BKN070 27/26 Q1010=
0165825640999992017010223004-05531-047460FM-15+013199999V0209999C000010213419N009999199+02701+02601999999ADDGA1041+006101999GA2071+021341999GE19MSL   +99999+99999GF199999041999006101999999MA1101001999999REMMET058METAR SBIZ 022300Z 00000KT 9999 SCT020 BKN070 27/26 Q1010=
0165825640999992017010300004-05531-047460FM-15+013199999V0209999C000010213419N009999199+02701+02601999999ADDGA1041+006101999GA2071+021341999GE19MSL   +99999+99999GF199999041999006101999999MA1101101999999REMMET058METAR SBIZ 030000Z 00000KT 9999 SCT020 BKN070 27/26 Q1011=
0165825640999992017010300454-05531-047460FM-16+013199999V0200301N002610213419N009999199+02701+02601999999ADDGA1041+006101999GA2071+021341999GE19MSL   +99999+99999GF199999041999006101999999MA1101101999999REMMET058SPECI SBIZ 030045Z 03005KT 9999 SCT020 BKN070 27/26 Q1011=
0165825640999992017010308004-05531-047460FM-15+013199999V0209999C000010243819N009999199+02601+02401999999ADDGA1021+006101999GA2071+024381999GE19MSL   +99999+99999GF199999021999006101999999MA1101001999999REMMET058METAR SBIZ 030800Z 00000KT 9999 FEW020 BKN080 26/24 Q1010=
0165825640999992017010309004-05531-047460FM-15+013199999V0200601N001010243819N009999199+02501+02401999999ADDGA1041+009141999GA2071+024381999GE19MSL   +99999+99999GF199999041999009141999999MA1101101999999REMMET058METAR SBIZ 030900Z 06002KT 9999 SCT030 BKN080 25/24 Q1011=
0165825640999992017010310004-05531-047460FM-15+013199999V0200601N001010061019N009999199+02501+02401999999ADDGA1071+006101999GA2071+024381999GE19MSL   +99999+99999GF199999071999006101999999MA1101201999999REMMET058METAR SBIZ 031000Z 06002KT 9999 BKN020 BKN080 25/24 Q1012=
0165825640999992017010311004-05531-047460FM-15+013199999V0209999C00001024381CN009999199+02601+02301999999ADDGA1041+009141999GA2041+024381999GE19MSL   +99999+99999GF199999041999009141999999MA1101201999999REMMET058METAR SBIZ 031100Z 00000KT 9999 SCT030 SCT080 26/23 Q1012=
0165825640999992017010312004-05531-047460FM-15+013199999V0200301N001510045719N009999199+02701+02401999999ADDGA1071+004571999GA2081+024381999GE19MSL   +99999+99999GF199999071999004571999999MA1101301999999REMMET058METAR SBIZ 031200Z 03003KT 9999 BKN015 OVC080 27/24 Q1013=
0165825640999992017010313004-05531-047460FM-15+013199999V0200601N001510243819N009999199+02801+02501999999ADDGA1041+006101999GA2071+024381999GE19MSL   +99999+99999GF199999041999006101999999MA1101301999999REMMET058METAR SBIZ 031300Z 06003KT 9999 SCT020 BKN080 28/25 Q1013=
0165825640999992017010314004-05531-047460FM-15+013199999V0200301N001510061019N009999199+02901+02501999999ADDGA1071+006101999GA2071+024381999GE19MSL   +99999+99999GF199999071999006101999999MA1101201999999REMMET058METAR SBIZ 031400Z 03003KT 9999 BKN020 BKN080 29/25 Q1012=
0188825640999992017010315004-05531-047460FM-15+013199999V0201101N00151007621CN009999199+03001+02501999999ADDGA1041+006101999GA2041+007621999GA3071+024381999GE19MSL   +99999+99999GF199999041999006101999999MA1101201999999REMMET065METAR SBIZ 031500Z 11003KT 9999 SCT020 SCT025 BKN080 30/25 Q1012=
0165825640999992017010316004-05531-047460FM-15+013199999V0201001N00101009141CN009999199+03201+02301999999ADDGA1041+007621999GA2041+009141999GE19MSL   +99999+99999GF199999041999007621999999MA1101101999999REMMET058METAR SBIZ 031600Z 10002KT 9999 SCT025 SCT030 32/23 Q1011=
0188825640999992017010317004-05531-047460FM-15+013199999V0203501N00151007621CN009999199+02901+02501999999ADDGA1021+006101999GA2041+007621999GA3071+030481999GE19MSL   +99999+99999GF199999021999006101999999MA1101001999999REMMET065METAR SBIZ 031700Z 35003KT 9999 FEW020 SCT025 BKN100 29/25 Q1010=
0165825640999992017010320004-05531-047460FM-15+013199999V0201601N001010304819N009999199+02901+02401999999ADDGA1041+006101999GA2071+030481999GE19MSL   +99999+99999GF199999041999006101999999MA1100801999999REMMET058METAR SBIZ 032000Z 16002KT 9999 SCT020 BKN100 29/24 Q1008=
0165825640999992017010322004-05531-047460FM-15+013199999V0209999C000010061019N009999199+02601+02401999999ADDGA1071+006101999GA2081+027431999GE19MSL   +99999+99999GF199999071999006101999999MA1100901999999REMMET058METAR SBIZ 032200Z 00000KT 9999 BKN020 OVC090 26/24 Q1009=
0165825640999992017010323004-05531-047460FM-15+013199999V0209999C000010274319N009999199+02601+02401999999ADDGA1041+006101999GA2071+027431999GE19MSL   +99999+99999GF199999041999006101999999MA1100901999999REMMET058METAR SBIZ 032300Z 00000KT 9999 SCT020 BKN090 26/24 Q1009=
0072825640999992017010400004-05531-047460FM-15+013199999V0209999C000019999999Y999999999+02601+02401999999ADDMA1101001999999REMMET045METAR SBIZ 040000Z 00000KT CAVOK 26/24 Q1010=
0072825640999992017010400454-05531-047460FM-16+013199999V0209999C000019999999Y999999999+02501+02401999999ADDMA1101001999999REMMET045SPECI SBIZ 040045Z 00000KT CAVOK 25/24 Q1010=
0142825640999992017010407154-05531-047460FM-16+013199999V0209999C000019999999N009999199+02401+02401999999ADDGA1041+004571999GE19MSL   +99999+99999GF199999041999004571999999MA1101001999999REMMET051SPECI SBIZ 040715Z 00000KT 9999 SCT015 24/24 Q1010=
0142825640999992017010409004-05531-047460FM-15+013199999V0201101N000519999999N009999199+02401+02401999999ADDGA1041+004571999GE19MSL   +99999+99999GF199999041999004571999999MA1101101999999REMMET051METAR SBIZ 040900Z 11001KT 9999 SCT015 24/24 Q1011=
0142825640999992017010410004-05531-047460FM-15+013199999V0209999C000019999999N009999199+02501+02401999999ADDGA1021+004571999GE19MSL   +99999+99999GF199999021999004571999999MA1101101999999REMMET051METAR SBIZ 041000Z 00000KT 9999 FEW015 25/24 Q1011=
0142825640999992017010412004-05531-047460FM-15+013199999V0201101N002610045719N009999199+02801+02401999999ADDGA1071+004571999GE19MSL   +99999+99999GF199999071999004571999999MA1101201999999REMMET051METAR SBIZ 041200Z 11005KT 9999 BKN015 28/24 Q1012=
0142825640999992017010413004-05531-047460FM-15+013199999V0201801N001510054919N009999199+02901+02401999999ADDGA1071+005491999GE19MSL   +99999+99999GF199999071999005491999999MA1101301999999REMMET051METAR SBIZ 041300Z 18003KT 9999 BKN018 29/24 Q1013=
0191825640999992017010415004-05531-047460FM-15+013199999V0200701N003110061019N009999199+03201+02201999999ADDGA1041+004571999GA2071+006101999GA3021+008231081GE19MSL   +99999+99999GF199999041999004571999999MA1101201999999REMMET068METAR SBIZ 041500Z 07006KT 9999 SCT015 BKN020 FEW027TCU 32/22 Q1012=
0191825640999992017010416004-05531-047460FM-15+013199999V0201201N004110070119N009999199+03201+02301999999ADDGA1021+004571999GA2071+007011999GA3021+008231081GE19MSL   +99999+99999GF199999021999004571999999MA1101101999999REMMET068METAR SBIZ 041600Z 12008KT 9999 FEW015 BKN023 FEW027TCU 32/23 Q1011=
0165825640999992017010417004-05531-047460FM-15+013199999V0201901N00101006711CN009999199+03201+02401999999ADDGA1021+004881999GA2041+006711999GE19MSL   +99999+99999GF199999021999004881999999MA1101001999999REMMET058METAR SBIZ 041700Z 19002KT 9999 FEW016 SCT022 32/24 Q1010=
0191825640999992017010418004-05531-047460FM-15+013199999V0201001N002110073219N009999199+03401+02201999999ADDGA1021+005491999GA2071+007321999GA3021+009141081GE19MSL   +99999+99999GF199999021999005491999999MA1100901999999REMMET068METAR SBIZ 041800Z 10004KT 9999 FEW018 BKN024 FEW030TCU 34/22 Q1009=
0142825640999992017010420004-05531-047460FM-15+013199999V0202401N002119999999N009999199+03201+02501999999ADDGA1041+006101999GE19MSL   +99999+99999GF199999041999006101999999MA1100801999999REMMET051METAR SBIZ 042000Z 24004KT 9999 SCT020 32/25 Q1008=
0142825640999992017010421004-05531-047460FM-15+013199999V0202301N001519999999N009999199+03201+02401999999ADDGA1021+006101999GE19MSL   +99999+99999GF199999021999006101999999MA1100801999999REMMET051METAR SBIZ 042100Z 23003KT 9999 FEW020 32/24 Q1008=
0142825640999992017010422004-05531-047460FM-15+013199999V0202401N001019999999N009999199+03001+02501999999ADDGA1021+006101999GE19MSL   +99999+99999GF199999021999006101999999MA1100801999999REMMET051METAR SBIZ 042200Z 24002KT 9999 FEW020 30/25 Q1008=
0072825640999992017010423004-05531-047460FM-15+013199999V0209999C000019999999Y999999999+02901+02501999999ADDMA1100801999999REMMET045METAR SBIZ 042300Z 00000KT CAVOK 29/25 Q1008=
0072825640999992017010500004-05531-047460FM-15+013199999V0209999C000019999999Y999999999+02801+02501999999ADDMA1100901999999REMMET045METAR SBIZ 050000Z 00000KT CAVOK 28/25 Q1009=
0072825640999992017010500454-05531-047460FM-16+013199999V0209999C000019999999Y999999999+02701+02601999999ADDMA1101001999999REMMET045SPECI SBIZ 050045Z 00000KT CAVOK 27/26 Q1010=
0142825640999992017010507154-05531-047460FM-16+013199999V0209999C000019999999N009999199+02501+02401999999ADDGA1021+004571999GE19MSL   +99999+99999GF199999021999004571999999MA1101001999999REMMET051SPECI SBIZ 050715Z 00000KT 9999 FEW015 25/24 Q1010=
0142825640999992017010508004-05531-047460FM-15+013199999V0209999C000019999999N009999199+02501+02401999999ADDGA1021+004571999GE19MSL   +99999+99999GF199999021999004571999999MA1101001999999REMMET051METAR SBIZ 050800Z 00000KT 9999 FEW015 25/24 Q1010=
0165825640999992017010510004-05531-047460FM-15+013199999V0209999C000010091419N009999199+02501+02401999999ADDGA1021+004571999GA2071+009141999GE19MSL   +99999+99999GF199999021999004571999999MA1101201999999REMMET058METAR SBIZ 051000Z 00000KT 9999 FEW015 BKN030 25/24 Q1012=
0165825640999992017010511004-05531-047460FM-15+013199999V0209999C00001010671CN009999199+02701+02401999999ADDGA1021+004571999GA2041+010671999GE19MSL   +99999+99999GF199999021999004571999999MA1101201999999REMMET058METAR SBIZ 051100Z 00000KT 9999 FEW015 SCT035 27/24 Q1012=
0142825640999992017010512004-05531-047460FM-15+013199999V0200901N002619999999N009999199+02901+02501999999ADDGA1041+005491999GE19MSL   +99999+99999GF199999041999005491999999MA1101301999999REMMET051METAR SBIZ 051200Z 09005KT 9999 SCT018 29/25 Q1013=
0142825640999992017010513004-05531-047460FM-15+013199999V0201301N002110061019N009999199+02901+02501999999ADDGA1071+006101999GE19MSL   +99999+99999GF199999071999006101999999MA1101301999999REMMET051METAR SBIZ 051300Z 13004KT 9999 BKN020 29/25 Q1013=
0142825640999992017010515004-05531-047460FM-15+013199999V0200701N003610054919N009999199+03101+02401999999ADDGA1071+005491999GE19MSL   +99999+99999GF199999071999005491999999MA1101201999999REMMET051METAR SBIZ 051500Z 07007KT 9999 BKN018 31/24 Q1012=
0142825640999992017010516004-05531-047460FM-15+013199999V0201601N002110061019N009999199+03201+02401999999ADDGA1071+006101999GE19MSL   +99999+99999GF199999071999006101999999MA1101101999999REMMET051METAR SBIZ 051600Z 16004KT 9999 BKN020 32/24 Q1011=
0142825640999992017010517004-05531-047460FM-15+013199999V0200501N002119999999N009999199+03201+02401999999ADDGA1041+006101999GE19MSL   +99999+99999GF199999041999006101999999MA1101001999999REMMET051METAR SBIZ 051700Z 05004KT 9999 SCT020 32/24 Q1010=
0215825640999992017010518004-05531-047460FM-15+013199999V0202401N003610045719N009999199+02501+02301999999ADDGA1071+004571999GA2021+009141091GA3071+021341999GE19MSL   +99999+99999GF199999071999004571999999MA1100901999999MW1161MW2171REMMET080METAR SBIZ 051800Z 24007KT 9999 TS VCSH BKN015 FEW030CB BKN070 25/23 Q1009 RERA=
0195825640999992017010519004-05531-047460FM-15+013199999V0209999C000010213419N009999199+02701+02501999999ADDGA1041+006101999GA2021+009141091GA3071+021341999GE19MSL   +99999+99999GF199999041999006101999999MA1100901999999REMMET072METAR SBIZ 051900Z 00000KT 9999 SCT020 FEW030CB BKN070 27/25 Q1009 RETS=
0165825640999992017010520004-05531-047460FM-15+013199999V0202601N000510304819N009999199+02801+02601999999ADDGA1021+007621999GA2071+030481999GE19MSL   +99999+99999GF199999021999007621999999MA1100901999999REMMET058METAR SBIZ 052000Z 26001KT 9999 FEW025 BKN100 28/26 Q1009=
0142825640999992017010521004-05531-047460FM-15+013199999V0202301N001019999999N009999199+02801+02501999999ADDGA1021+008531999GE19MSL   +99999+99999GF199999021999008531999999MA1100901999999REMMET051METAR SBIZ 052100Z 23002KT 9999 FEW028 28/25 Q1009=
0142825640999992017010600004-05531-047460FM-15+013199999V0209999C000019999999N009999199+02601+02401999999ADDGA1021+006101999GE19MSL   +99999+99999GF199999021999006101999999MA1101001999999REMMET051METAR SBIZ 060000Z 00000KT 9999 FEW020 26/24 Q1010=
0101825640999992017010608004-05531-047460FM-15+013199999V0200401N002612200019N009000199+02401+02401999999ADDGF100991999999999999999999MA1101001999999REMMET048METAR SBIZ 060800Z 04005KT 9000 NSC 24/24 Q1010=
0165825640999992017010609004-05531-047460FM-15+013199999V0209999C000010243819N009999199+02401+02401999999ADDGA1041+006101999GA2081+024381999GE19MSL   +99999+99999GF199999041999006101999999MA1101001999999REMMET058METAR SBIZ 060900Z 00000KT 9999 SCT020 OVC080 24/24 Q1010=
0165825640999992017010610004-05531-047460FM-15+013199999V0209999C000010061019N009000199+02501+02401999999ADDGA1071+006101999GA2081+024381999GE19MSL   +99999+99999GF199999071999006101999999MA1101101999999REMMET058METAR SBIZ 061000Z 00000KT 9000 BKN020 OVC080 25/24 Q1011=
0165825640999992017010611004-05531-047460FM-15+013199999V0209999C000010243819N009000199+02501+02501999999ADDGA1041+004571999GA2081+024381999GE19MSL   +99999+99999GF199999041999004571999999MA1101201999999REMMET058METAR SBIZ 061100Z 00000KT 9000 SCT015 OVC080 25/25 Q1012=
0165825640999992017010612004-05531-047460FM-15+013199999V0209999C000010243819N009999199+02701+02501999999ADDGA1021+006101999GA2081+024381999GE19MSL   +99999+99999GF199999021999006101999999MA1101201999999REMMET058METAR SBIZ 061200Z 00000KT 9999 FEW020 OVC080 27/25 Q1012=
0188825640999992017010613004-05531-047460FM-15+013199999V0201501N00261007621CN009999199+02901+02401999999ADDGA1021+005181999GA2041+007621999GA3081+024381999GE19MSL   +99999+99999GF199999021999005181999999MA1101301999999REMMET065METAR SBIZ 061300Z 15005KT 9999 FEW017 SCT025 OVC080 29/24 Q1013=
0165825640999992017010615004-05531-047460FM-15+013199999V0202401N000510076219N009999199+03101+02501999999ADDGA1041+005491999GA2071+007621999GE19MSL   +99999+99999GF199999041999005491999999MA1101201999999REMMET058METAR SBIZ 061500Z 24001KT 9999 SCT018 BKN025 31/25 Q1012=
0165825640999992017010616004-05531-047460FM-15+013199999V0200901N003110076219N009999199+03301+02401999999ADDGA1041+005491999GA2071+007621999GE19MSL   +99999+99999GF199999041999005491999999MA1101101999999REMMET058METAR SBIZ 061600Z 09006KT 9999 SCT018 BKN025 33/24 Q1011=
0165825640999992017010617004-05531-047460FM-15+013199999V0200901N003110076219N009999199+03301+02301999999ADDGA1071+007621999GA2041+024381999GE19MSL   +99999+99999GF199999071999007621999999MA1101001999999REMMET058METAR SBIZ 061700Z 09006KT 9999 BKN025 SCT080 33/23 Q1010=
0165825640999992017010618004-05531-047460FM-15+013199999V0202401N00361024381CN009999199+03301+02501999999ADDGA1041+006101999GA2041+024381999GE19MSL   +99999+99999GF199999041999006101999999MA1100901999999REMMET058METAR SBIZ 061800Z 24007KT 9999 SCT020 SCT080 33/25 Q1009=
0165825640999992017010619004-05531-047460FM-15+013199999V0201501N001510243819N009999199+03301+02401999999ADDGA1021+007621999GA2071+024381999GE19MSL   +99999+99999GF199999021999007621999999MA1100801999999REMMET058METAR SBIZ 061900Z 15003KT 9999 FEW025 BKN080 33/24 Q1008=
0142825640999992017010620004-05531-047460FM-15+013199999V0202301N002619999999N009999199+03401+02501999999ADDGA1041+007621999GE19MSL   +99999+99999GF199999041999007621999999MA1100801999999REMMET051METAR SBIZ 062000Z 23005KT 9999 SCT025 34/25 Q1008=
0142825640999992017010622004-05531-047460FM-15+013199999V0209999C000019999999N009999199+03101+02401999999ADDGA1021+007621999GE19MSL   +99999+99999GF199999021999007621999999MA1100901999999REMMET051METAR SBIZ 062200Z 00000KT 9999 FEW025 31/24 Q1009=
0072825640999992017010623004-05531-047460FM-15+013199999V0209999C000019999999Y999999999+02901+02501999999ADDMA1100901999999REMMET045METAR SBIZ 062300Z 00000KT CAVOK 29/25 Q1009=
0072825640999992017010700004-05531-047460FM-15+013199999V0209999C000019999999Y999999999+02901+02601999999ADDMA1101001999999REMMET045METAR SBIZ 070000Z 00000KT CAVOK 29/26 Q1010=
0072825640999992017010700454-05531-047460FM-16+013199999V0209999C000019999999Y999999999+02701+02501999999ADDMA1101101999999REMMET045SPECI SBIZ 070045Z 00000KT CAVOK 27/25 Q1011=
0142825640999992017010709004-05531-047460FM-15+013199999V0209999C000010121919N009999199+02501+02401999999ADDGA1071+012191999GE19MSL   +99999+99999GF199999071999012191999999MA1101101999999REMMET051METAR SBIZ 070900Z 00000KT 9999 BKN040 25/24 Q1011=
0165825640999992017010710004-05531-047460FM-15+013199999V0209999C000010121919N009999199+02501+02401999999ADDGA1041+005491999GA2071+012191999GE19MSL   +99999+99999GF199999041999005491999999MA1101201999999REMMET058METAR SBIZ 071000Z 00000KT 9999 SCT018 BKN040 25/24 Q1012=
0142825640999992017010712004-05531-047460FM-15+013199999V0202401N001010054919N009999199+02701+02401999999ADDGA1071+005491999GE19MSL   +99999+99999GF199999071999005491999999MA1101401999999REMMET051METAR SBIZ 071200Z 24002KT 9999 BKN018 27/24 Q1014=
0142825640999992017010713004-05531-047460FM-15+013199999V0209999C000010045719N009999199+02901+02401999999ADDGA1071+004571999GE19MSL   +99999+99999GF199999071999004571999999MA1101401999999REMMET051METAR SBIZ 071300Z 00000KT 9999 BKN015 29/24 Q1014=
0165825640999992017010714004-05531-047460FM-15+013199999V0202101N001010076219N009999199+03001+02401999999ADDGA1041+004571999GA2071+007621999GE19MSL   +99999+99999GF199999041999004571999999MA1101401999999REMMET058METAR SBIZ 071400Z 21002KT 9999 SCT015 BKN025 30/24 Q1014=
0142825640999992017010715004-05531-047460FM-15+013199999V0201201N002610076219N009999199+03201+02501999999ADDGA1071+007621999GE19MSL   +99999+99999GF199999071999007621999999MA1101301999999REMMET051METAR SBIZ 071500Z 12005KT 9999 BKN025 32/25 Q1013=
0165825640999992017010716004-05531-047460FM-15+013199999V0200801N00261024381CN009999199+03201+02501999999ADDGA1041+007621999GA2041+024381999GE19MSL   +99999+99999GF199999041999007621999999MA1101201999999REMMET058METAR SBIZ 071600Z 08005KT 9999 SCT025 SCT080 32/25 Q1012=
0165825640999992017010717004-05531-047460FM-15+013199999V0203301N002610054919N009999199+03201+02401999999ADDGA1071+005491999GA2041+021341999GE19MSL   +99999+99999GF199999071999005491999999MA1101101999999REMMET058METAR SBIZ 071700Z 33005KT 9999 BKN018 SCT070 32/24 Q1011=
0165825640999992017010718004-05531-047460FM-15+013199999V0209999C000010243819N009999199+03101+02401999999ADDGA1041+007621999GA2071+024381999GE19MSL   +99999+99999GF199999041999007621999999MA1100901999999REMMET058METAR SBIZ 071800Z 00000KT 9999 SCT025 BKN080 31/24 Q1009=
0165825640999992017010719004-05531-047460FM-15+013199999V0202401N001010243819N009999199+03101+02501999999ADDGA1021+007621999GA2071+024381999GE19MSL   +99999+99999GF199999021999007621999999MA1100801999999REMMET058METAR SBIZ 071900Z 24002KT 9999 FEW025 BKN080 31/25 Q1008=
0165825640999992017010720004-05531-047460FM-15+013199999V0209999C000010243819N009999199+03201+02401999999ADDGA1021+007621999GA2071+024381999GE19MSL   +99999+99999GF199999021999007621999999MA1100801999999REMMET058METAR SBIZ 072000Z 00000KT 9999 FEW025 BKN080 32/24 Q1008=
0103825640999992017010721004-05531-047460FM-15+013199999V0202501N002119999999N999999999+03105+02505999999ADDMA1100805999999REMMET057METAR SBIZ 072100Z 25004KT 999 FEW020 BKN080 31/25 Q1008=EQDD01      0ADE693
0165825640999992017010722004-05531-047460FM-15+013199999V0203601N005110304819N009999199+02901+02501999999ADDGA1021+008531999GA2071+030481999GE19MSL   +99999+99999GF199999021999008531999999MA1100901999999REMMET058METAR SBIZ 072200Z 36010KT 9999 FEW028 BKN100 29/25 Q1009=
0155825640999992017010723004-05531-047460FM-15+013199999V0200201N003119999999N009999199+02801+02401999999ADDGA1021+008531091GE19MSL   +99999+99999GF199999021999008531999999MA1101001999999MW1131REMMET058METAR SBIZ 072300Z 02006KT 9999 VCTS FEW028CB 28/24 Q1010=
0142825640999992017010800004-05531-047460FM-15+013199999V0200301N001019999999N009999199+02801+02501999999ADDGA1021+004571999GE19MSL   +99999+99999GF199999021999004571999999MA1101201999999REMMET051METAR SBIZ 080000Z 03002KT 9999 FEW015 28/25 Q1012=
0072825640999992017010800454-05531-047460FM-16+013199999V0200501N004119999999Y999999999+02801+02501999999ADDMA1101101999999REMMET045SPECI SBIZ 080045Z 05008KT CAVOK 28/25 Q1011=
0072825640999992017010807154-05531-047460FM-16+013199999V0200701N002119999999Y999999999+02501+02401999999ADDMA1100901999999REMMET045SPECI SBIZ 080715Z 07004KT CAVOK 25/24 Q1009=
0142825640999992017010809004-05531-047460FM-15+013199999V0200601N002119999999N009999199+02501+02401999999ADDGA1041+009141999GE19MSL   +99999+99999GF199999041999009141999999MA1101001999999REMMET051METAR SBIZ 080900Z 06004KT 9999 SCT030 25/24 Q1010=
0142825640999992017010810004-05531-047460FM-15+013199999V0200601N001019999999N009999199+02601+02401999999ADDGA1041+009141999GE19MSL   +99999+99999GF199999041999009141999999MA1101101999999REMMET051METAR SBIZ 081000Z 06002KT 9999 SCT030 26/24 Q1011=
0142825640999992017010811004-05531-047460FM-15+013199999V0200301N002110045719N009999199+02701+02401999999ADDGA1071+004571999GE19MSL   +99999+99999GF199999071999004571999999MA1101201999999REMMET051METAR SBIZ 081100Z 03004KT 9999 BKN015 27/24 Q1012=
0142825640999992017010812004-05531-047460FM-15+013199999V0200601N004110054919N009999199+02901+02401999999ADDGA1071+005491999GE19MSL   +99999+99999GF199999071999005491999999MA1101201999999REMMET051METAR SBIZ 081200Z 06008KT 9999 BKN018 29/24 Q1012=
0165825640999992017010813004-05531-047460FM-15+013199999V0200601N004110076219N009999199+03001+02401999999ADDGA1021+005491999GA2071+007621999GE19MSL   +99999+99999GF199999021999005491999999MA1101201999999REMMET058METAR SBIZ 081300Z 06008KT 9999 FEW018 BKN025 30/24 Q1012=
0142825640999992017010815004-05531-047460FM-15+013199999V0200601N004110061019N009999199+03101+02501999999ADDGA1071+006101999GE19MSL   +99999+99999GF199999071999006101999999MA1101201999999REMMET051METAR SBIZ 081500Z 06008KT 9999 BKN020 31/25 Q1012=
0142825640999992017010816004-05531-047460FM-15+013199999V0200501N004610070119N009999199+03301+02401999999ADDGA1071+007011999GE19MSL   +99999+99999GF199999071999007011999999MA1101001999999REMMET051METAR SBIZ 081600Z 05009KT 9999 BKN023 33/24 Q1010=
0142825640999992017010817004-05531-047460FM-15+013199999V0200701N001519999999N009999199+03401+02401999999ADDGA1041+007011999GE19MSL   +99999+99999GF199999041999007011999999MA1100901999999REMMET051METAR SBIZ 081700Z 07003KT 9999 SCT023 34/24 Q1009=
0142825640999992017010818004-05531-047460FM-15+013199999V0201101N003610070119N009999199+03401+02401999999ADDGA1071+007011999GE19MSL   +99999+99999GF199999071999007011999999MA1100801999999REMMET051METAR SBIZ 081800Z 11007KT 9999 BKN023 34/24 Q1008=
0165825640999992017010820004-05531-047460FM-15+013199999V0200101N004110213419N009999199+03101+02501999999ADDGA1041+006101999GA2071+021341999GE19MSL   +99999+99999GF199999041999006101999999MA1100801999999REMMET058METAR SBIZ 082000Z 01008KT 9999 SCT020 BKN070 31/25 Q1008=
0165825640999992017010821004-05531-047460FM-15+013199999V0203401N002110213419N009999199+02901+02401999999ADDGA1041+006401999GA2071+021341999GE19MSL   +99999+99999GF199999041999006401999999MA1100901999999REMMET058METAR SBIZ 082100Z 34004KT 9999 SCT021 BKN070 29/24 Q1009=
0165825640999992017010822004-05531-047460FM-15+013199999V0202601N004110213419N009999199+02901+02401999999ADDGA1041+005491999GA2081+021341999GE19MSL   +99999+99999GF199999041999005491999999MA1101101999999REMMET058METAR SBIZ 082200Z 26008KT 9999 SCT018 OVC070 29/24 Q1011=
0165825640999992017010823004-05531-047460FM-15+013199999V0202501N00311021341CN009999199+02701+02301999999ADDGA1021+006101999GA2041+021341999GE19MSL   +99999+99999GF199999021999006101999999MA1101101999999REMMET058METAR SBIZ 082300Z 25006KT 9999 FEW020 SCT070 27/23 Q1011=
0165825640999992017010900004-05531-047460FM-15+013199999V0209999C00001024381CN009999199+02601+02301999999ADDGA1021+006101999GA2041+024381999GE19MSL   +99999+99999GF199999021999006101999999MA1101201999999REMMET058METAR SBIZ 090000Z 00000KT 9999 FEW020 SCT080 26/23 Q1012=
0165825640999992017010900454-05531-047460FM-16+013199999V0209999C00001024381CN009999199+02501+02201999999ADDGA1021+006101999GA2041+024381999GE19MSL   +99999+99999GF199999021999006101999999MA1101201999999REMMET058SPECI SBIZ 090045Z 00000KT 9999 FEW020 SCT080 25/22 Q1012=
0142825640999992017010908004-05531-047460FM-15+013199999V0200101N001019999999N009999199+02401+02301999999ADDGA1021+004571999GE19MSL   +99999+99999GF199999021999004571999999MA1101001999999REMMET051METAR SBIZ 090800Z 01002KT 9999 FEW015 24/23 Q1010=
0142825640999992017010909004-05531-047460FM-15+013199999V0200301N001019999999N009999199+02401+02301999999ADDGA1021+004571999GE19MSL   +99999+99999GF199999021999004571999999MA1101101999999REMMET051METAR SBIZ 090900Z 03002KT 9999 FEW015 24/23 Q1011=
0142825640999992017010910004-05531-047460FM-15+013199999V0200201N004119999999N009999199+02501+02301999999ADDGA1021+005491999GE19MSL   +99999+99999GF199999021999005491999999MA1101101999999REMMET051METAR SBIZ 091000Z 02008KT 9999 FEW018 25/23 Q1011=
0142825640999992017010912004-05531-047460FM-15+013199999V0200501N002110054919N009999199+02701+02401999999ADDGA1071+005491999GE19MSL   +99999+99999GF199999071999005491999999MA1101301999999REMMET051METAR SBIZ 091200Z 05004KT 9999 BKN018 27/24 Q1013=
0127825640999992017010913004-05531-047460FM-15+013199999V0209999N999990061019N009999199+99999+99999999999ADDGA1071+006101999GE19MSL   +99999+99999GF199999071999006101999999REMMET051METAR SBIZ 091300Z /////// 9999 BKN020 ///// Q////=
0188825640999992017010915004-05531-047460FM-15+013199999V0200101N00461007011CN009999199+03001+02401999999ADDGA1041+005491999GA2041+007011999GA3071+024381999GE19MSL   +99999+99999GF199999041999005491999999MA1101301999999REMMET065METAR SBIZ 091500Z 01009KT 9999 SCT018 SCT023 BKN080 30/24 Q1013=
0188825640999992017010916004-05531-047460FM-15+013199999V0202701N00361007011CN009999199+03001+02401999999ADDGA1041+005181999GA2041+007011999GA3071+024381999GE19MSL   +99999+99999GF199999041999005181999999MA1101101999999REMMET065METAR SBIZ 091600Z 27007KT 9999 SCT017 SCT023 BKN080 30/24 Q1011=
0188825640999992017010918004-05531-047460FM-15+013199999V0200901N00101007621CN009999199+03101+02301999999ADDGA1041+006101999GA2041+007621999GA3071+024381999GE19MSL   +99999+99999GF199999041999006101999999MA1100901999999REMMET065METAR SBIZ 091800Z 09002KT 9999 SCT020 SCT025 BKN080 31/23 Q1009=
0165825640999992017010919004-05531-047460FM-15+013199999V0200901N00101024381CN009999199+03201+02301999999ADDGA1021+007621999GA2041+024381999GE19MSL   +99999+99999GF199999021999007621999999MA1100801999999REMMET058METAR SBIZ 091900Z 09002KT 9999 FEW025 SCT080 32/23 Q1008=
0142825640999992017010920004-05531-047460FM-15+013199999V0201201N002619999999N009999199+03301+02401999999ADDGA1041+007621999GE19MSL   +99999+99999GF199999041999007621999999MA1100901999999REMMET051METAR SBIZ 092000Z 12005KT 9999 SCT025 33/24 Q1009=
0142825640999992017010921004-05531-047460FM-15+013199999V0200901N002619999999N009999199+03201+02401999999ADDGA1041+006101999GE19MSL   +99999+99999GF199999041999006101999999MA1100901999999REMMET051METAR SBIZ 092100Z 09005KT 9999 SCT020 32/24 Q1009=
0142825640999992017010922004-05531-047460FM-15+013199999V0200601N002119999999N009999199+03001+02301999999ADDGA1041+006101999GE19MSL   +99999+99999GF199999041999006101999999MA1101001999999REMMET051METAR SBIZ 092200Z 06004KT 9999 SCT020 30/23 Q1010=
0142825640999992017010923004-05531-047460FM-15+013199999V0203601N003119999999N009999199+02801+02401999999ADDGA1041+006101999GE19MSL   +99999+99999GF199999041999006101999999MA1101101999999REMMET051METAR SBIZ 092300Z 36006KT 9999 SCT020 28/24 Q1011=
0175825640999992017011000004-05531-047460FM-15+013199999V0201501N002610213419N008000199+02601+02501999999ADDGA1041+004571999GA2071+021341999GE19MSL   +99999+99999GF199999041999004571999999MA1101101999999MW1611REMMET062METAR SBIZ 100000Z 15005KT 8000 -RA SCT015 BKN070 26/25 Q1011=
0165825640999992017011000454-05531-047460FM-16+013199999V0201301N003110213419N009999199+02501+02401999999ADDGA1041+004571999GA2071+021341999GE19MSL   +99999+99999GF199999041999004571999999MA1101201999999REMMET058SPECI SBIZ 100045Z 13006KT 9999 SCT015 BKN070 25/24 Q1012=
0142825640999992017011008004-05531-047460FM-15+013199999V0209999C000019999999N009999199+02401+02401999999ADDGA1021+003051999GE19MSL   +99999+99999GF199999021999003051999999MA1100901999999REMMET051METAR SBIZ 100800Z 00000KT 9999 FEW010 24/24 Q1009=
0188825640999992017011009004-05531-047460FM-15+013199999V0203001N002110045719N009999199+02401+02301999999ADDGA1021+002441999GA2071+004571999GA3071+021341999GE19MSL   +99999+99999GF199999021999002441999999MA1101001999999REMMET065METAR SBIZ 100900Z 30004KT 9999 FEW008 BKN015 BKN070 24/23 Q1010=
0188825640999992017011010004-05531-047460FM-15+013199999V0200601N002610045719N009999199+02401+02401999999ADDGA1021+003051999GA2071+004571999GA3071+021341999GE19MSL   +99999+99999GF199999021999003051999999MA1101101999999REMMET065METAR SBIZ 101000Z 06005KT 9999 FEW010 BKN015 BKN070 24/24 Q1011=
0165825640999992017011011004-05531-047460FM-15+013199999V0200501N003110213419N009999199+02501+02301999999ADDGA1021+003961999GA2071+021341999GE19MSL   +99999+99999GF199999021999003961999999MA1101101999999REMMET058METAR SBIZ 101100Z 05006KT 9999 FEW013 BKN070 25/23 Q1011=
0188825640999992017011012004-05531-047460FM-15+013199999V0200901N00361006101CN009999199+02801+02401999999ADDGA1041+004571999GA2041+006101999GA3071+021341999GE19MSL   +99999+99999GF199999041999004571999999MA1101201999999REMMET065METAR SBIZ 101200Z 09007KT 9999 SCT015 SCT020 BKN070 28/24 Q1012=
0188825640999992017011013004-05531-047460FM-15+013199999V0200801N00411005491CN009999199+02901+02401999999ADDGA1021+003961999GA2041+005491999GA3071+021341999GE19MSL   +99999+99999GF199999021999003961999999MA1101201999999REMMET065METAR SBIZ 101300Z 08008KT 9999 FEW013 SCT018 BKN070 29/24 Q1012=
0188825640999992017011014004-05531-047460FM-15+013199999V0200901N005110076219N009999199+03001+02301999999ADDGA1021+006101999GA2071+007621999GA3071+030481999GE19MSL   +99999+99999GF199999021999006101999999MA1101201999999REMMET065METAR SBIZ 101400Z 09010KT 9999 FEW020 BKN025 BKN100 30/23 Q1012=
0165825640999992017011016004-05531-047460FM-15+013199999V0201201N00261009141CN009999199+03201+02301999999ADDGA1021+007621999GA2041+009141999GE19MSL   +99999+99999GF199999021999007621999999MA1101101999999REMMET058METAR SBIZ 101600Z 12005KT 9999 FEW025 SCT030 32/23 Q1011=
0165825640999992017011017004-05531-047460FM-15+013199999V0200601N00361009141CN009999199+03201+02301999999ADDGA1021+007621999GA2041+009141999GE19MSL   +99999+99999GF199999021999007621999999MA1100901999999REMMET058METAR SBIZ 101700Z 06007KT 9999 FEW025 SCT030 32/23 Q1009=
0165825640999992017011019004-05531-047460FM-15+013199999V0200301N00261010671CN009999199+03301+02301999999ADDGA1021+007621999GA2041+010671999GE19MSL   +99999+99999GF199999021999007621999999MA1100701999999REMMET058METAR SBIZ 101900Z 03005KT 9999 FEW025 SCT035 33/23 Q1007=
0142825640999992017011020004-05531-047460FM-15+013199999V0209999C000019999999N009999199+03301+02401999999ADDGA1041+007621999GE19MSL   +99999+99999GF199999041999007621999999MA1100701999999REMMET051METAR SBIZ 102000Z 00000KT 9999 SCT025 33/24 Q1007=
0165825640999992017011021004-05531-047460FM-15+013199999V0209999C00001024381CN009999199+03201+02501999999ADDGA1021+007621999GA2041+024381999GE19MSL   +99999+99999GF199999021999007621999999MA1100701999999REMMET058METAR SBIZ 102100Z 00000KT 9999 FEW025 SCT080 32/25 Q1007=
0142825640999992017011022004-05531-047460FM-15+013199999V0200801N001019999999N009999199+03101+02301999999ADDGA1041+008531999GE19MSL   +99999+99999GF199999041999008531999999MA1100801999999REMMET051METAR SBIZ 102200Z 08002KT 9999 SCT028 31/23 Q1008=
0142825640999992017011023004-05531-047460FM-15+013199999V0200901N003119999999N009999199+02901+02301999999ADDGA1021+004571999GE19MSL   +99999+99999GF199999021999004571999999MA1100901999999REMMET051METAR SBIZ 102300Z 09006KT 9999 FEW015 29/23 Q1009=
0142825640999992017011100004-05531-047460FM-15+013199999V0200801N002119999999N009999199+02901+02401999999ADDGA1021+004571999GE19MSL   +99999+99999GF199999021999004571999999MA1101001999999REMMET051METAR SBIZ 110000Z 08004KT 9999 FEW015 29/24 Q1010=
0072825640999992017011100454-05531-047460FM-16+013199999V0200901N001519999999Y999999999+02801+02401999999ADDMA1101001999999REMMET045SPECI SBIZ 110045Z 09003KT CAVOK 28/24 Q1010=
0165825640999992017011108004-05531-047460FM-15+013199999V0200801N00101021341CN009999199+02501+02301999999ADDGA1021+006101999GA2041+021341999GE19MSL   +99999+99999GF199999021999006101999999MA1101001999999REMMET058METAR SBIZ 110800Z 08002KT 9999 FEW020 SCT070 25/23 Q1010=
0165825640999992017011109004-05531-047460FM-15+013199999V0209999C00001021341CN009999199+02501+02301999999ADDGA1021+006101999GA2041+021341999GE19MSL   +99999+99999GF199999021999006101999999MA1101101999999REMMET058METAR SBIZ 110900Z 00000KT 9999 FEW020 SCT070 25/23 Q1011=
0165825640999992017011110004-05531-047460FM-15+013199999V0209999C00001021341CN009999199+02401+02301999999ADDGA1041+005491999GA2041+021341999GE19MSL   +99999+99999GF199999041999005491999999MA1101201999999REMMET058METAR SBIZ 111000Z 00000KT 9999 SCT018 SCT070 24/23 Q1012=
0165825640999992017011111004-05531-047460FM-15+013199999V0209999C00001021341CN009999199+02601+02401999999ADDGA1041+005181999GA2041+021341999GE19MSL   +99999+99999GF199999041999005181999999MA1101301999999REMMET058METAR SBIZ 111100Z 00000KT 9999 SCT017 SCT070 26/24 Q1013=
0165825640999992017011112004-05531-047460FM-15+013199999V0201901N00101007621CN009999199+02701+02401999999ADDGA1041+006101999GA2041+007621999GE19MSL   +99999+99999GF199999041999006101999999MA1101301999999REMMET058METAR SBIZ 111200Z 19002KT 9999 SCT020 SCT025 27/24 Q1013=
0214825640999992017011113004-05531-047460FM-15+013199999V0201001N00511007621CN009999199+03001+02301999999ADDGA1021+005181999GA2041+007621999GA3021+009141081GA4071+021341999GE19MSL   +99999+99999GF199999021999005181999999MA1101301999999REMMET075METAR SBIZ 111300Z 10010KT 9999 FEW017 SCT025 FEW030TCU BKN070 30/23 Q1013=
0199825640999992017011114004-05531-047460FM-15+013199999V0201301N005110061019N009999199+03001+02401999999ADDGA1041+004571999GA2071+006101999GA3071+021341999GE19MSL   +99999+99999GF199999041999004571999999MA1101301999999MW1161REMMET070METAR SBIZ 111400Z 13010KT 9999 VCSH SCT015 BKN020 BKN070 30/24 Q1013=
0165825640999992017011116004-05531-047460FM-15+013199999V0201501N00311006101CN009999199+02901+02301999999ADDGA1021+004571999GA2041+006101999GE19MSL   +99999+99999GF199999021999004571999999MA1101101999999REMMET058METAR SBIZ 111600Z 15006KT 9999 FEW015 SCT020 29/23 Q1011=
0142825640999992017011117004-05531-047460FM-15+013199999V0201401N003119999999N009999199+03101+02101999999ADDGA1041+004571999GE19MSL   +99999+99999GF199999041999004571999999MA1101001999999REMMET051METAR SBIZ 111700Z 14006KT 9999 SCT015 31/21 Q1010=
0201825640999992017011118004-05531-047460FM-15+013199999V0201301N003110045719N005000199+03001+02501999999ADDGA1071+004571999GA2021+009141091GA3071+021341999GE19MSL   +99999+99999GF199999071999004571999999MA1100901999999MW1951REMMET072METAR SBIZ 111800Z 13006KT 5000 TSRA BKN015 FEW030CB BKN070 30/25 Q1009=
0215825640999992017011118204-05531-047460FM-16+013199999V0202301N003110045719N009999199+02801+02601999999ADDGA1071+004571999GA2021+009141091GA3071+021341999GE19MSL   +99999+99999GF199999071999004571999999MA1100901999999MW1161MW2171REMMET080SPECI SBIZ 111820Z 23006KT 9999 TS VCSH BKN015 FEW030CB BKN070 28/26 Q1009 RERA=
0238825640999992017011119004-05531-047460FM-15+013199999V0202401N004110045719N009999199+02801+02601999999ADDGA1021+003051999GA2071+004571999GA3021+009141091GA4071+021341999GE19MSL   +99999+99999GF199999021999003051999999MA1100901999999MW1161MW2171REMMET087METAR SBIZ 111900Z 24008KT 9999 TS VCSH FEW010 BKN015 FEW030CB BKN070 28/26 Q1009 RERA=
0170825640999992017011120004-05531-047460FM-15+013199999V0202801N002110061019N009999199+02701+02501999999ADDGA1071+006101999GA2071+024381999GE19MSL   +99999+99999GF199999071999006101999999MA1100801999999REMMET063METAR SBIZ 112000Z 28004KT 9999 BKN020 BKN080 27/25 Q1008 RETS=
0165825640999992017011122004-05531-047460FM-15+013199999V0209999C000010243819N009999199+02701+02501999999ADDGA1041+006101999GA2071+024381999GE19MSL   +99999+99999GF199999041999006101999999MA1100901999999REMMET058METAR SBIZ 112200Z 00000KT 9999 SCT020 BKN080 27/25 Q1009=
0178825640999992017011123004-05531-047460FM-15+013199999V0209999C000019999999N009999199+02701+02501999999ADDGA1041+006101999GA2021+007621091GE19MSL   +99999+99999GF199999041999006101999999MA1101001999999MW1131REMMET065METAR SBIZ 112300Z 00000KT 9999 VCTS SCT020 FEW025CB 27/25 Q1010=
0147825640999992017011200004-05531-047460FM-15+013199999V0209999C000019999999N009999199+02601+02401999999ADDGA1041+009141999GE19MSL   +99999+99999GF199999041999009141999999MA1101101999999REMMET056METAR SBIZ 120000Z 00000KT 9999 SCT030 26/24 Q1011 RETS=
0142825640999992017011200454-05531-047460FM-16+013199999V0209999C000019999999N009999199+02601+02401999999ADDGA1041+009141999GE19MSL   +99999+99999GF199999041999009141999999MA1101201999999REMMET051SPECI SBIZ 120045Z 00000KT 9999 SCT030 26/24 Q1012=
0165825640999992017011209004-05531-047460FM-15+013199999V0209999C000010121919N009999199+02401+02301999999ADDGA1021+002441999GA2071+012191999GE19MSL   +99999+99999GF199999021999002441999999MA1101101999999REMMET058METAR SBIZ 120900Z 00000KT 9999 FEW008 BKN040 24/23 Q1011=
0188825640999992017011210004-05531-047460FM-15+013199999V0209999C00001012191CN009999199+02401+02301999999ADDGA1021+002441999GA2041+012191999GA3071+021341999GE19MSL   +99999+99999GF199999021999002441999999MA1101101999999REMMET065METAR SBIZ 121000Z 00000KT 9999 FEW008 SCT040 BKN070 24/23 Q1011=
0165825640999992017011211004-05531-047460FM-15+013199999V0201301N002610213419N009999199+02401+02401999999ADDGA1021+002131999GA2071+021341999GE19MSL   +99999+99999GF199999021999002131999999MA1101201999999REMMET058METAR SBIZ 121100Z 13005KT 9999 FEW007 BKN070 24/24 Q1012=
0165825640999992017011212004-05531-047460FM-15+013199999V0201801N00101021341CN009999199+02601+02401999999ADDGA1021+003051999GA2041+021341999GE19MSL   +99999+99999GF199999021999003051999999MA1101201999999REMMET058METAR SBIZ 121200Z 18002KT 9999 FEW010 SCT070 26/24 Q1012=
0142825640999992017011214004-05531-047460FM-15+013199999V0202801N002619999999N009999199+03101+02401999999ADDGA1041+004571999GE19MSL   +99999+99999GF199999041999004571999999MA1101101999999REMMET051METAR SBIZ 121400Z 28005KT 9999 SCT015 31/24 Q1011=
0142825640999992017011215004-05531-047460FM-15+013199999V0201501N002610045719N009999199+03301+02301999999ADDGA1071+004571999GE19MSL   +99999+99999GF199999071999004571999999MA1101101999999REMMET051METAR SBIZ 121500Z 15005KT 9999 BKN015 33/23 Q1011=
0165825640999992017011216004-05531-047460FM-15+013199999V0201201N00411006101CN009999199+03401+02301999999ADDGA1021+004571999GA2041+006101999GE19MSL   +99999+99999GF199999021999004571999999MA1101001999999REMMET058METAR SBIZ 121600Z 12008KT 9999 FEW015 SCT020 34/23 Q1010=
0165825640999992017011217004-05531-047460FM-15+013199999V0200901N004110061019N009999199+03501+02301999999ADDGA1021+004571999GA2071+006101999GE19MSL   +99999+99999GF199999021999004571999999MA1100901999999REMMET058METAR SBIZ 121700Z 09008KT 9999 FEW015 BKN020 35/23 Q1009=
0165825640999992017011218004-05531-047460FM-15+013199999V0201501N00361006101CN009999199+03501+02401999999ADDGA1021+004571999GA2041+006101999GE19MSL   +99999+99999GF199999021999004571999999MA1100801999999REMMET058METAR SBIZ 121800Z 15007KT 9999 FEW015 SCT020 35/24 Q1008=
0142825640999992017011219004-05531-047460FM-15+013199999V0201801N002619999999N009999199+03501+02301999999ADDGA1041+006101999GE19MSL   +99999+99999GF199999041999006101999999MA1100701999999REMMET051METAR SBIZ 121900Z 18005KT 9999 SCT020 35/23 Q1007=
0142825640999992017011221004-05531-047460FM-15+013199999V0201101N003610085319N009999199+03201+02401999999ADDGA1071+008531999GE19MSL   +99999+99999GF199999071999008531999999MA1100701999999REMMET051METAR SBIZ 122100Z 11007KT 9999 BKN028 32/24 Q1007=
0142825640999992017011222004-05531-047460FM-15+013199999V0201401N001019999999N009999199+03101+02401999999ADDGA1041+008531999GE19MSL   +99999+99999GF199999041999008531999999MA1100801999999REMMET051METAR SBIZ 122200Z 14002KT 9999 SCT028 31/24 Q1008=
0072825640999992017011300004-05531-047460FM-15+013199999V0200901N001019999999Y999999999+02901+02401999999ADDMA1101001999999REMMET045METAR SBIZ 130000Z 09002KT CAVOK 29/24 Q1010=
0072825640999992017011300454-05531-047460FM-16+013199999V0201001N001019999999Y999999999+02801+02301999999ADDMA1101001999999REMMET045SPECI SBIZ 130045Z 10002KT CAVOK 28/23 Q1010=
0072825640999992017011307154-05531-047460FM-16+013199999V0201101N001019999999Y999999999+02401+02301999999ADDMA1100801999999REMMET045SPECI SBIZ 130715Z 11002KT CAVOK 24/23 Q1008=
0072825640999992017011308004-05531-047460FM-15+013199999V0200901N002119999999Y999999999+02401+02301999999ADDMA1100901999999REMMET045METAR SBIZ 130800Z 09004KT CAVOK 24/23 Q1009=
0142825640999992017011309004-05531-047460FM-15+013199999V0209999C000019999999N009999199+02401+02301999999ADDGA1041+004571999GE19MSL   +99999+99999GF199999041999004571999999MA1100901999999REMMET051METAR SBIZ 130900Z 00000KT 9999 SCT015 24/23 Q1009=
0142825640999992017011310004-05531-047460FM-15+013199999V0209999C000019999999N009999199+02501+02401999999ADDGA1021+004571999GE19MSL   +99999+99999GF199999021999004571999999MA1101001999999REMMET051METAR SBIZ 131000Z 00000KT 9999 FEW015 25/24 Q1010=
0072825640999992017011311004-05531-047460FM-15+013199999V0209999C000019999999Y999999999+02801+02401999999ADDMA1101101999999REMMET045METAR SBIZ 131100Z 00000KT CAVOK 28/24 Q1011=
0142825640999992017011317004-05531-047460FM-15+013199999V0200101N004119999999N009999199+03401+02401999999ADDGA1041+007011999GE19MSL   +99999+99999GF199999041999007011999999MA1100901999999REMMET051METAR SBIZ 131700Z 01008KT 9999 SCT023 34/24 Q1009=
0142825640999992017011318004-05531-047460FM-15+013199999V0200101N003110070119N009999199+03501+02301999999ADDGA1071+007011999GE19MSL   +99999+99999GF199999071999007011999999MA1100701999999REMMET051METAR SBIZ 131800Z 01006KT 9999 BKN023 35/23 Q1007=
0149825640999992017011319004-05531-047460FM-15+013199999V0200801N002119999999N009999199+03201+02401999999ADDGA1041+007621999GE19MSL   +99999+99999GF199999041999007621999999MA1100601999999REMMET058METAR SBIZ 131900Z 08004KT 9999 SCT025 32/24 Q1006 RESHRA=
0165825640999992017011321004-05531-047460FM-15+013199999V0200401N003110304819N009999199+03101+02401999999ADDGA1041+007621999GA2071+030481999GE19MSL   +99999+99999GF199999041999007621999999MA1100701999999REMMET058METAR SBIZ 132100Z 04006KT 9999 SCT025 BKN100 31/24 Q1007=
0201825640999992017011323004-05531-047460FM-15+013199999V0203001N002110304819N009999199+02901+02501999999ADDGA1041+007621999GA2021+009141091GA3071+030481999GE19MSL   +99999+99999GF199999041999007621999999MA1100801999999MW1131REMMET072METAR SBIZ 132300Z 30004KT 9999 VCTS SCT025 FEW030CB BKN100 29/25 Q1008=
0202825640999992017011400004-05531-047460FM-15+013199999V0201201N005710030519N008000199+02601+02501999999ADDGA1071+003051999GA2041+007621091GA3071+024381999GE19MSL   +99999+99999GF199999071999003051999999MA1101001999999MW1971REMMET073METAR SBIZ 140000Z 12011KT 8000 +TSRA BKN010 SCT025CB BKN080 26/25 Q1010=
0202825640999992017011400104-05531-047460FM-16+013199999V0201501N007710030519N003000199+02601+02501999999ADDGA1071+003051999GA2041+007621091GA3071+024381999GE19MSL   +99999+99999GF199999071999003051999999MA1101001999999MW1971REMMET073SPECI SBIZ 140010Z 15015KT 3000 +TSRA BKN010 SCT025CB BKN080 26/25 Q1010=
0178825640999992017011407154-05531-047460FM-16+013199999V0203601N002110045719N005000199+02201+02201999999ADDGA1071+004571999GA2021+007621091GE19MSL   +99999+99999GF199999071999004571999999MA1100901999999MW1951REMMET065SPECI SBIZ 140715Z 36004KT 5000 TSRA BKN015 FEW025CB 22/22 Q1009=
0216825640999992017011408004-05531-047460FM-15+013199999V0203301N001510045719N005000199+02201+02201999999ADDGA1021+003051999GA2071+004571999GA3021+007621091GE19MSL   +99999+99999GF199999021999003051999999MA1101001999999MW1101MW2951REMMET081METAR SBIZ 140800Z 33003KT 5000 -TSRA BR FEW010 BKN015 FEW025CB 22/22 Q1010 RERA=
0161825640999992017011410004-05531-047460FM-15+013199999V0202801N002110030519N004000199+02201+02201999999ADDGA1071+003051999GE19MSL   +99999+99999GF199999071999003051999999MA1101101999999MW1101MW2611REMMET058METAR SBIZ 141000Z 28004KT 4000 -RA BR BKN010 22/22 Q1011=
0161825640999992017011411004-05531-047460FM-15+013199999V0209999C000010030519N004000199+02201+02201999999ADDGA1071+003051999GE19MSL   +99999+99999GF199999071999003051999999MA1101301999999MW1101MW2611REMMET058METAR SBIZ 141100Z 00000KT 4000 -RA BR BKN010 22/22 Q1013=
0184825640999992017011412004-05531-047460FM-15+013199999V0202501N001510036619N004000199+02201+02201999999ADDGA1071+003661999GA2041+024381999GE19MSL   +99999+99999GF199999071999003661999999MA1101301999999MW1101MW2611REMMET065METAR SBIZ 141200Z 25003KT 4000 -RA BR BKN012 SCT080 22/22 Q1013=
0184825640999992017011413004-05531-047460FM-15+013199999V0209999C000010036619N003000199+02301+02201999999ADDGA1071+003661999GA2071+024381999GE19MSL   +99999+99999GF199999071999003661999999MA1101401999999MW1101MW2611REMMET065METAR SBIZ 141300Z 00000KT 3000 -RA BR BKN012 BKN080 23/22 Q1014=
0207825640999992017011413054-05531-047460FM-16+013199999V0201201N005110030519N001000199+02301+02201999999ADDGA1041+001831999GA2071+003051999GA3071+021341999GE19MSL   +99999+99999GF199999041999001831999999MA1101501999999MW1101MW2651REMMET072SPECI SBIZ 141305Z 12010KT 1000 +RA BR SCT006 BKN010 BKN070 23/22 Q1015=
0189825640999992017011414004-05531-047460FM-15+013199999V0202001N000510045719N002500199+02201+02201999999ADDGA1071+004571999GA2081+021341999GE19MSL   +99999+99999GF199999071999004571999999MA1101501999999MW1101MW2611REMMET070METAR SBIZ 141400Z 20001KT 2500 -RA BR BKN015 OVC070 22/22 Q1015 RERA=
0198825640999992017011414304-05531-047460FM-16+013199999V0201401N00051004571CN006000199+02201+02201999999ADDGA1021+003051999GA2041+004571999GA3081+021341999GE19MSL   +99999+99999GF199999021999003051999999MA1101401999999MW1611REMMET069SPECI SBIZ 141430Z 14001KT 6000 -RA FEW010 SCT015 OVC070 22/22 Q1014=
0197825640999992017011415004-05531-047460FM-15+013199999V0202601N00151004571CN007000199+02301+02201999999ADDGA1041+003051999GA2041+004571999GA3081+021341999GE19MSL   +99999+99999GF199999041999003051999999MA1101401999999MW1631REMMET068METAR SBIZ 141500Z 26003KT 7000 RA SCT010 SCT015 OVC070 23/22 Q1014=
0180825640999992017011415404-05531-047460FM-16+013199999V0202501N001010213419N009999199+02301+02201999999ADDGA1041+004571999GA2071+021341999GE19MSL   +99999+99999GF199999041999004571999999MA1101201999999MW1611REMMET067SPECI SBIZ 141540Z 25002KT 9999 -RA SCT015 BKN070 23/22 Q1012 RERA=
0165825640999992017011417004-05531-047460FM-15+013199999V0202501N000510213419N009999199+02401+02201999999ADDGA1041+004571999GA2071+021341999GE19MSL   +99999+99999GF199999041999004571999999MA1101101999999REMMET058METAR SBIZ 141700Z 25001KT 9999 SCT015 BKN070 24/22 Q1011=
0165825640999992017011418004-05531-047460FM-15+013199999V0202301N000510213419N009999199+02501+02201999999ADDGA1041+004571999GA2071+021341999GE19MSL   +99999+99999GF199999041999004571999999MA1100901999999REMMET058METAR SBIZ 141800Z 23001KT 9999 SCT015 BKN070 25/22 Q1009=
0165825640999992017011419004-05531-047460FM-15+013199999V0201901N001010243819N009999199+02501+02301999999ADDGA1041+004571999GA2071+024381999GE19MSL   +99999+99999GF199999041999004571999999MA1100901999999REMMET058METAR SBIZ 141900Z 19002KT 9999 SCT015 BKN080 25/23 Q1009=
0165825640999992017011421004-05531-047460FM-15+013199999V0209999C000010054919N009999199+02501+02301999999ADDGA1071+005491999GA2071+024381999GE19MSL   +99999+99999GF199999071999005491999999MA1100901999999REMMET058METAR SBIZ 142100Z 00000KT 9999 BKN018 BKN080 25/23 Q1009=
0165825640999992017011422004-05531-047460FM-15+013199999V0209999C000010243819N009999199+02501+02301999999ADDGA1041+003051999GA2071+024381999GE19MSL   +99999+99999GF199999041999003051999999MA1101001999999REMMET058METAR SBIZ 142200Z 00000KT 9999 SCT010 BKN080 25/23 Q1010=
0165825640999992017011500004-05531-047460FM-15+013199999V0209999C000010243819N009999199+02401+02301999999ADDGA1041+003051999GA2071+024381999GE19MSL   +99999+99999GF199999041999003051999999MA1101201999999REMMET058METAR SBIZ 150000Z 00000KT 9999 SCT010 BKN080 24/23 Q1012=
0165825640999992017011500454-05531-047460FM-16+013199999V0209999C000010243819N009999199+02401+02301999999ADDGA1041+004571999GA2071+024381999GE19MSL   +99999+99999GF199999041999004571999999MA1101201999999REMMET058SPECI SBIZ 150045Z 00000KT 9999 SCT015 BKN080 24/23 Q1012=
0165825640999992017011507154-05531-047460FM-16+013199999V0209999C000010243819N009999199+02301+02201999999ADDGA1041+006101999GA2071+024381999GE19MSL   +99999+99999GF199999041999006101999999MA1100901999999REMMET058SPECI SBIZ 150715Z 00000KT 9999 SCT020 BKN080 23/22 Q1009=
0165825640999992017011508004-05531-047460FM-15+013199999V0200901N001010243819N009999199+02301+02201999999ADDGA1041+005491999GA2071+024381999GE19MSL   +99999+99999GF199999041999005491999999MA1100901999999REMMET058METAR SBIZ 150800Z 09002KT 9999 SCT018 BKN080 23/22 Q1009=
0165825640999992017011510004-05531-047460FM-15+013199999V0209999C000010243819N009999199+02301+02301999999ADDGA1021+006101999GA2071+024381999GE19MSL   +99999+99999GF199999021999006101999999MA1101001999999REMMET058METAR SBIZ 151000Z 00000KT 9999 FEW020 BKN080 23/23 Q1010=
0165825640999992017011511004-05531-047460FM-15+013199999V0209999C000010243819N009999199+02401+02301999999ADDGA1021+006401999GA2071+024381999GE19MSL   +99999+99999GF199999021999006401999999MA1101101999999REMMET058METAR SBIZ 151100Z 00000KT 9999 FEW021 BKN080 24/23 Q1011=
0165825640999992017011512004-05531-047460FM-15+013199999V0201801N001510243819N009999199+02501+02301999999ADDGA1021+006711999GA2071+024381999GE19MSL   +99999+99999GF199999021999006711999999MA1101201999999REMMET058METAR SBIZ 151200Z 18003KT 9999 FEW022 BKN080 25/23 Q1012=
0165825640999992017011513004-05531-047460FM-15+013199999V0209999C000010243819N009999199+02701+02401999999ADDGA1021+006101999GA2071+024381999GE19MSL   +99999+99999GF199999021999006101999999MA1101201999999REMMET058METAR SBIZ 151300Z 00000KT 9999 FEW020 BKN080 27/24 Q1012=
0165825640999992017011515004-05531-047460FM-15+013199999V0203201N003110243819N009999199+03101+02401999999ADDGA1041+006101999GA2071+024381999GE19MSL   +99999+99999GF199999041999006101999999MA1101101999999REMMET058METAR SBIZ 151500Z 32006KT 9999 SCT020 BKN080 31/24 Q1011=
0142825640999992017011516004-05531-047460FM-15+013199999V0201201N001510061019N009999199+03201+02301999999ADDGA1071+006101999GE19MSL   +99999+99999GF199999071999006101999999MA1101001999999REMMET051METAR SBIZ 151600Z 12003KT 9999 BKN020 32/23 Q1010=
0142825640999992017011517004-05531-047460FM-15+013199999V0202501N001519999999N009999199+03301+02401999999ADDGA1041+007011999GE19MSL   +99999+99999GF199999041999007011999999MA1100901999999REMMET051METAR SBIZ 151700Z 25003KT 9999 SCT023 33/24 Q1009=
0165825640999992017011518004-05531-047460FM-15+013199999V0202901N00051024381CN009999199+03401+02401999999ADDGA1021+007011999GA2041+024381999GE19MSL   +99999+99999GF199999021999007011999999MA1100801999999REMMET058METAR SBIZ 151800Z 29001KT 9999 FEW023 SCT080 34/24 Q1008=
0165825640999992017011520004-05531-047460FM-15+013199999V0209999C00001024381CN009999199+03301+02201999999ADDGA1041+004571999GA2041+024381999GE19MSL   +99999+99999GF199999041999004571999999MA1100701999999REMMET058METAR SBIZ 152000Z 00000KT 9999 SCT015 SCT080 33/22 Q1007=
0165825640999992017011521004-05531-047460FM-15+013199999V0200901N00411024381CN009999199+03101+02501999999ADDGA1041+004571999GA2041+024381999GE19MSL   +99999+99999GF199999041999004571999999MA1100701999999REMMET058METAR SBIZ 152100Z 09008KT 9999 SCT015 SCT080 31/25 Q1007=
0165825640999992017011522004-05531-047460FM-15+013199999V0201201N00261024381CN009999199+02901+02401999999ADDGA1021+009141999GA2041+024381999GE19MSL   +99999+99999GF199999021999009141999999MA1100801999999REMMET058METAR SBIZ 152200Z 12005KT 9999 FEW030 SCT080 29/24 Q1008=
0165825640999992017011523004-05531-047460FM-15+013199999V0200901N002610243819N009999199+02801+02401999999ADDGA1021+009141999GA2071+024381999GE19MSL   +99999+99999GF199999021999009141999999MA1100801999999REMMET058METAR SBIZ 152300Z 09005KT 9999 FEW030 BKN080 28/24 Q1008=
0072825640999992017011600004-05531-047460FM-15+013199999V0200901N002619999999Y999999999+02801+02401999999ADDMA1100901999999REMMET045METAR SBIZ 160000Z 09005KT CAVOK 28/24 Q1009=
0072825640999992017011600454-05531-047460FM-16+013199999V0200901N003119999999Y999999999+02801+02401999999ADDMA1101001999999REMMET045SPECI SBIZ 160045Z 09006KT CAVOK 28/24 Q1010=
0072825640999992017011607154-05531-047460FM-16+013199999V0209999C000019999999Y999999999+02501+02401999999ADDMA1100801999999REMMET045SPECI SBIZ 160715Z 00000KT CAVOK 25/24 Q1008=
0165825640999992017011608004-05531-047460FM-15+013199999V0200801N002110243819N009999199+02501+02401999999ADDGA1041+005181999GA2071+024381999GE19MSL   +99999+99999GF199999041999005181999999MA1100901999999REMMET058METAR SBIZ 160800Z 08004KT 9999 SCT017 BKN080 25/24 Q1009=
0165825640999992017011611004-05531-047460FM-15+013199999V0200801N00211024381CN009999199+02701+02401999999ADDGA1021+006101999GA2041+024381999GE19MSL   +99999+99999GF199999021999006101999999MA1101101999999REMMET058METAR SBIZ 161100Z 08004KT 9999 FEW020 SCT080 27/24 Q1011=
0142825640999992017011613004-05531-047460FM-15+013199999V0200601N002610070119N009999199+03001+02501999999ADDGA1071+007011999GE19MSL   +99999+99999GF199999071999007011999999MA1101101999999REMMET051METAR SBIZ 161300Z 06005KT 9999 BKN023 30/25 Q1011=
0142825640999992017011614004-05531-047460FM-15+013199999V0200601N002610045719N009999199+03101+02401999999ADDGA1071+004571999GE19MSL   +99999+99999GF199999071999004571999999MA1101101999999REMMET051METAR SBIZ 161400Z 06005KT 9999 BKN015 31/24 Q1011=
0142825640999992017011615004-05531-047460FM-15+013199999V0200701N004110061019N009999199+03101+02401999999ADDGA1071+006101999GE19MSL   +99999+99999GF199999071999006101999999MA1101001999999REMMET051METAR SBIZ 161500Z 07008KT 9999 BKN020 31/24 Q1010=
0142825640999992017011616004-05531-047460FM-15+013199999V0201101N002610061019N009999199+03201+02401999999ADDGA1071+006101999GE19MSL   +99999+99999GF199999071999006101999999MA1101001999999REMMET051METAR SBIZ 161600Z 11005KT 9999 BKN020 32/24 Q1010=
0142825640999992017011617004-05531-047460FM-15+013199999V0200701N002619999999N009999199+03301+02301999999ADDGA1041+006101999GE19MSL   +99999+99999GF199999041999006101999999MA1100801999999REMMET051METAR SBIZ 161700Z 07005KT 9999 SCT020 33/23 Q1008=
0142825640999992017011619004-05531-047460FM-15+013199999V0200701N002619999999N009999199+03301+02401999999ADDGA1041+007621999GE19MSL   +99999+99999GF199999041999007621999999MA1100601999999REMMET051METAR SBIZ 161900Z 07005KT 9999 SCT025 33/24 Q1006=
0165825640999992017011621004-05531-047460FM-15+013199999V0202101N001510243819N009999199+03301+02501999999ADDGA1021+004571999GA2071+024381999GE19MSL   +99999+99999GF199999021999004571999999MA1100701999999REMMET058METAR SBIZ 162100Z 21003KT 9999 FEW015 BKN080 33/25 Q1007=
0142825640999992017011623004-05531-047460FM-15+013199999V0201401N002119999999N009999199+02901+02501999999ADDGA1021+004571999GE19MSL   +99999+99999GF199999021999004571999999MA1100801999999REMMET051METAR SBIZ 162300Z 14004KT 9999 FEW015 29/25 Q1008=
0142825640999992017011700004-05531-047460FM-15+013199999V0201301N001519999999N009999199+02901+02601999999ADDGA1041+004571999GE19MSL   +99999+99999GF199999041999004571999999MA1101001999999REMMET051METAR SBIZ 170000Z 13003KT 9999 SCT015 29/26 Q1010=
0178825640999992017011700454-05531-047460FM-16+013199999V0201801N002610045719N009999199+02801+02501999999ADDGA1071+004571999GA2021+007621091GE19MSL   +99999+99999GF199999071999004571999999MA1101001999999MW1131REMMET065SPECI SBIZ 170045Z 18005KT 9999 VCTS BKN015 FEW025CB 28/25 Q1010=
0165825640999992017011707154-05531-047460FM-16+013199999V0201201N00261009141CN009999199+02401+02401999999ADDGA1021+002131999GA2041+009141999GE19MSL   +99999+99999GF199999021999002131999999MA1100901999999REMMET058SPECI SBIZ 170715Z 12005KT 9999 FEW007 SCT030 24/24 Q1009=
0142825640999992017011708004-05531-047460FM-15+013199999V0200901N002610121919N009999199+02401+02401999999ADDGA1071+012191999GE19MSL   +99999+99999GF199999071999012191999999MA1100901999999REMMET051METAR SBIZ 170800Z 09005KT 9999 BKN040 24/24 Q1009=
0142825640999992017011709004-05531-047460FM-15+013199999V0209999C000010121919N009999199+02401+02401999999ADDGA1071+012191999GE19MSL   +99999+99999GF199999071999012191999999MA1100901999999REMMET051METAR SBIZ 170900Z 00000KT 9999 BKN040 24/24 Q1009=
0165825640999992017011710004-05531-047460FM-15+013199999V0209999C000010045719N009999199+02501+02401999999ADDGA1071+004571999GA2081+021341999GE19MSL   +99999+99999GF199999071999004571999999MA1100901999999REMMET058METAR SBIZ 171000Z 00000KT 9999 BKN015 OVC070 25/24 Q1009=
0198825640999992017011712004-05531-047460FM-15+013199999V0202501N001010061019N008000199+02501+02501999999ADDGA1021+001831999GA2071+006101999GA3081+021341999GE19MSL   +99999+99999GF199999021999001831999999MA1101101999999MW1611REMMET069METAR SBIZ 171200Z 25002KT 8000 -RA FEW006 BKN020 OVC070 25/25 Q1011=
0165825640999992017011713004-05531-047460FM-15+013199999V0209999C00001006101CN009999199+02601+02501999999ADDGA1021+001831999GA2041+006101999GE19MSL   +99999+99999GF199999021999001831999999MA1101101999999REMMET058METAR SBIZ 171300Z 00000KT 9999 FEW006 SCT020 26/25 Q1011=
0165825640999992017011714004-05531-047460FM-15+013199999V0200701N001510045719N009999199+02901+02601999999ADDGA1041+003051999GA2071+004571999GE19MSL   +99999+99999GF199999041999003051999999MA1101101999999REMMET058METAR SBIZ 171400Z 07003KT 9999 SCT010 BKN015 29/26 Q1011=
0170825640999992017011716004-05531-047460FM-15+013199999V0200601N002610045719N009999199+03001+02501999999ADDGA1041+003051999GA2071+004571999GE19MSL   +99999+99999GF199999041999003051999999MA1100901999999REMMET063METAR SBIZ 171600Z 06005KT 9999 SCT010 BKN015 30/25 Q1009 RERA=
0142825640999992017011717004-05531-047460FM-15+013199999V0201201N002610045719N009999199+03001+02601999999ADDGA1071+004571999GE19MSL   +99999+99999GF199999071999004571999999MA1100801999999REMMET051METAR SBIZ 171700Z 12005KT 9999 BKN015 30/26 Q1008=
0152825640999992017011719004-05531-047460FM-15+013199999V0200801N005110045719N009999199+02901+02501999999ADDGA1071+004571999GE19MSL   +99999+99999GF199999071999004571999999MA1100601999999MW1611REMMET055METAR SBIZ 171900Z 08010KT 9999 -RA BKN015 29/25 Q1006=
0165825640999992017011721004-05531-047460FM-15+013199999V0200901N00101009141CN009999199+02701+02301999999ADDGA1021+007011999GA2041+009141999GE19MSL   +99999+99999GF199999021999007011999999MA1100701999999REMMET058METAR SBIZ 172100Z 09002KT 9999 FEW023 SCT030 27/23 Q1007=
0165825640999992017011722004-05531-047460FM-15+013199999V0201001N00151009141CN009999199+02601+02401999999ADDGA1021+006101999GA2041+009141999GE19MSL   +99999+99999GF199999021999006101999999MA1100701999999REMMET058METAR SBIZ 172200Z 10003KT 9999 FEW020 SCT030 26/24 Q1007=
0142825640999992017011723004-05531-047460FM-15+013199999V0200501N001519999999N009999199+02601+02401999999ADDGA1021+004571999GE19MSL   +99999+99999GF199999021999004571999999MA1100901999999REMMET051METAR SBIZ 172300Z 05003KT 9999 FEW015 26/24 Q1009=
0142825640999992017011800004-05531-047460FM-15+013199999V0209999C000019999999N009999199+02601+02401999999ADDGA1021+004571999GE19MSL   +99999+99999GF199999021999004571999999MA1101001999999REMMET051METAR SBIZ 180000Z 00000KT 9999 FEW015 26/24 Q1010=
0142825640999992017011800454-05531-047460FM-16+013199999V0200201N000519999999N009999199+02601+02401999999ADDGA1021+004571999GE19MSL   +99999+99999GF199999021999004571999999MA1101001999999REMMET051SPECI SBIZ 180045Z 02001KT 9999 FEW015 26/24 Q1010=
0198825640999992017011807154-05531-047460FM-16+013199999V0209999C000010045719N005000199+02301+02301999999ADDGA1041+001521999GA2071+004571999GA3081+021341999GE19MSL   +99999+99999GF199999041999001521999999MA1101101999999MW1631REMMET069SPECI SBIZ 180715Z 00000KT 5000 RA SCT005 BKN015 OVC070 23/23 Q10110=
0188825640999992017011810004-05531-047460FM-15+013199999V0203601N002610045719N009999199+02301+02201999999ADDGA1021+001521999GA2071+004571999GA3081+021341999GE19MSL   +99999+99999GF199999021999001521999999MA1101201999999REMMET065METAR SBIZ 181000Z 36005KT 9999 FEW005 BKN015 OVC070 23/22 Q1012=
0174825640999992017011811004-05531-047460FM-15+013199999V0200301N002110021319N005000199+02301+02301999999ADDGA1071+002131999GA2081+021341999GE19MSL   +99999+99999GF199999071999002131999999MA1101301999999MW1631REMMET061METAR SBIZ 181100Z 03004KT 5000 RA BKN007 OVC070 23/23 Q1013=
0188825640999992017011813004-05531-047460FM-15+013199999V0200701N002610045719N009999199+02501+02401999999ADDGA1041+001521999GA2071+004571999GA3081+021341999GE19MSL   +99999+99999GF199999041999001521999999MA1101401999999REMMET065METAR SBIZ 181300Z 07005KT 9999 SCT005 BKN015 OVC070 25/24 Q1014=
0165825640999992017011815004-05531-047460FM-15+013199999V0202601N000510213419N009999199+02601+02401999999ADDGA1041+004571999GA2071+021341999GE19MSL   +99999+99999GF199999041999004571999999MA1101201999999REMMET058METAR SBIZ 181500Z 26001KT 9999 SCT015 BKN070 26/24 Q1012=
0165825640999992017011816004-05531-047460FM-15+013199999V0203501N003110045719N009999199+02701+02501999999ADDGA1071+004571999GA2071+021341999GE19MSL   +99999+99999GF199999071999004571999999MA1101201999999REMMET058METAR SBIZ 181600Z 35006KT 9999 BKN015 BKN070 27/25 Q1012=
0165825640999992017011817004-05531-047460FM-15+013199999V0203501N004110045719N009999199+02701+02401999999ADDGA1071+004571999GA2071+021341999GE19MSL   +99999+99999GF199999071999004571999999MA1101101999999REMMET058METAR SBIZ 181700Z 35008KT 9999 BKN015 BKN070 27/24 Q1011=
0165825640999992017011821004-05531-047460FM-15+013199999V0203001N002110274319N009999199+02701+02401999999ADDGA1041+005491999GA2071+027431999GE19MSL   +99999+99999GF199999041999005491999999MA1101101999999REMMET058METAR SBIZ 182100Z 30004KT 9999 SCT018 BKN090 27/24 Q1011=
0142825640999992017011823004-05531-047460FM-15+013199999V0209999C000019999999N009999199+02601+02501999999ADDGA1021+003051999GE19MSL   +99999+99999GF199999021999003051999999MA1101201999999REMMET051METAR SBIZ 182300Z 00000KT 9999 FEW010 26/25 Q1012=
0142825640999992017011900004-05531-047460FM-15+013199999V0200201N002119999999N009999199+02501+02401999999ADDGA1021+003051999GE19MSL   +99999+99999GF199999021999003051999999MA1101301999999REMMET051METAR SBIZ 190000Z 02004KT 9999 FEW010 25/24 Q1013=
0142825640999992017011900454-05531-047460FM-16+013199999V0200701N000519999999N009999199+02501+02401999999ADDGA1021+003051999GE19MSL   +99999+99999GF199999021999003051999999MA1101301999999REMMET051SPECI SBIZ 190045Z 07001KT 9999 FEW010 25/24 Q1013=
0142825640999992017011907154-05531-047460FM-16+013199999V0209999C000010045719N009999199+02401+02401999999ADDGA1071+004571999GE19MSL   +99999+99999GF199999071999004571999999MA1101001999999REMMET051SPECI SBIZ 190715Z 00000KT 9999 BKN015 24/24 Q1010=
0142825640999992017011908004-05531-047460FM-15+013199999V0209999C000010045719N009999199+02401+02401999999ADDGA1071+004571999GE19MSL   +99999+99999GF199999071999004571999999MA1101001999999REMMET051METAR SBIZ 190800Z 00000KT 9999 BKN015 24/24 Q1010=
0142825640999992017011909004-05531-047460FM-15+013199999V0209999C000010045719N009999199+02401+02401999999ADDGA1071+004571999GE19MSL   +99999+99999GF199999071999004571999999MA1101101999999REMMET051METAR SBIZ 190900Z 00000KT 9999 BKN015 24/24 Q1011=
0142825640999992017011913004-05531-047460FM-15+013199999V0209999C000010045719N009999199+02801+02401999999ADDGA1081+004571999GE19MSL   +99999+99999GF199999081999004571999999MA1101301999999REMMET051METAR SBIZ 191300Z 00000KT 9999 OVC015 28/24 Q1013=
0165825640999992017011914004-05531-047460FM-15+013199999V0202701N002610045719N009999199+02701+02401999999ADDGA1041+003051999GA2071+004571999GE19MSL   +99999+99999GF199999041999003051999999MA1101301999999REMMET058METAR SBIZ 191400Z 27005KT 9999 SCT010 BKN015 27/24 Q1013=
0142825640999992017011916004-05531-047460FM-15+013199999V0202701N003610054919N009999199+03001+02301999999ADDGA1071+005491999GE19MSL   +99999+99999GF199999071999005491999999MA1101201999999REMMET051METAR SBIZ 191600Z 27007KT 9999 BKN018 30/23 Q1012=
0142825640999992017011917004-05531-047460FM-15+013199999V0202601N000510061019N009999199+03101+02401999999ADDGA1071+006101999GE19MSL   +99999+99999GF199999071999006101999999MA1101101999999REMMET051METAR SBIZ 191700Z 26001KT 9999 BKN020 31/24 Q1011=
0142825640999992017011918004-05531-047460FM-15+013199999V0203001N001519999999N009999199+03101+02301999999ADDGA1041+006101999GE19MSL   +99999+99999GF199999041999006101999999MA1101001999999REMMET051METAR SBIZ 191800Z 30003KT 9999 SCT020 31/23 Q1010=
0165825640999992017011920004-05531-047460FM-15+013199999V0209999C000010274319N009999199+03101+02301999999ADDGA1021+006101999GA2071+027431999GE19MSL   +99999+99999GF199999021999006101999999MA1100901999999REMMET058METAR SBIZ 192000Z 00000KT 9999 FEW020 BKN090 31/23 Q1009=
0165825640999992017011921004-05531-047460FM-15+013199999V0209999C000010274319N009999199+03001+02401999999ADDGA1021+006101999GA2071+027431999GE19MSL   +99999+99999GF199999021999006101999999MA1101001999999REMMET058METAR SBIZ 192100Z 00000KT 9999 FEW020 BKN090 30/24 Q1010=
0165825640999992017011922004-05531-047460FM-15+013199999V0209999C000010213419N009999199+02901+02401999999ADDGA1021+004571999GA2071+021341999GE19MSL   +99999+99999GF199999021999004571999999MA1101001999999REMMET058METAR SBIZ 192200Z 00000KT 9999 FEW015 BKN070 29/24 Q1010=
0201825640999992017011923004-05531-047460FM-15+013199999V0209999C000010213419N009999199+02701+02501999999ADDGA1021+004571999GA2021+007621091GA3071+021341999GE19MSL   +99999+99999GF199999021999004571999999MA1101101999999MW1131REMMET072METAR SBIZ 192300Z 00000KT 9999 VCTS FEW015 FEW025CB BKN070 27/25 Q1011=
0147825640999992017012000004-05531-047460FM-15+013199999V0201201N001519999999N009999199+02701+02501999999ADDGA1041+009141999GE19MSL   +99999+99999GF199999041999009141999999MA1101201999999REMMET056METAR SBIZ 200000Z 12003KT 9999 SCT030 27/25 Q1012 RETS=
0142825640999992017012000454-05531-047460FM-16+013199999V0201101N002619999999N009999199+02601+02501999999ADDGA1041+007621999GE19MSL   +99999+99999GF199999041999007621999999MA1101301999999REMMET051SPECI SBIZ 200045Z 11005KT 9999 SCT025 26/25 Q1013=
0165825640999992017012008004-05531-047460FM-15+013199999V0209999C00001021341CN009999199+02301+02301999999ADDGA1021+001521999GA2041+021341999GE19MSL   +99999+99999GF199999021999001521999999MA1101101999999REMMET058METAR SBIZ 200800Z 00000KT 9999 FEW005 SCT070 23/23 Q1011=
0165825640999992017012009004-05531-047460FM-15+013199999V0209999C00001021341CN009999199+02301+02301999999ADDGA1021+002131999GA2041+021341999GE19MSL   +99999+99999GF199999021999002131999999MA1101201999999REMMET058METAR SBIZ 200900Z 00000KT 9999 FEW007 SCT070 23/23 Q1012=
0142825640999992017012011004-05531-047460FM-15+013199999V0201501N001019999999N009999199+02501+02401999999ADDGA1041+003051999GE19MSL   +99999+99999GF199999041999003051999999MA1101301999999REMMET051METAR SBIZ 201100Z 15002KT 9999 SCT010 25/24 Q1013=
0142825640999992017012013004-05531-047460FM-15+013199999V0200601N002119999999N009999199+02901+02401999999ADDGA1041+003051999GE19MSL   +99999+99999GF199999041999003051999999MA1101301999999REMMET051METAR SBIZ 201300Z 06004KT 9999 SCT010 29/24 Q1013=
0165825640999992017012014004-05531-047460FM-15+013199999V0202101N002110061019N009999199+03001+02401999999ADDGA1071+006101999GA2041+024381999GE19MSL   +99999+99999GF199999071999006101999999MA1101401999999REMMET058METAR SBIZ 201400Z 21004KT 9999 BKN020 SCT080 30/24 Q1014=
0142825640999992017012016004-05531-047460FM-15+013199999V0201501N004110061019N009999199+03201+02401999999ADDGA1071+006101999GE19MSL   +99999+99999GF199999071999006101999999MA1101201999999REMMET051METAR SBIZ 201600Z 15008KT 9999 BKN020 32/24 Q1012=
0142825640999992017012018004-05531-047460FM-15+013199999V0201601N003110070119N009999199+03301+02401999999ADDGA1071+007011999GE19MSL   +99999+99999GF199999071999007011999999MA1100901999999REMMET051METAR SBIZ 201800Z 16006KT 9999 BKN023 33/24 Q1009=
0142825640999992017012020004-05531-047460FM-15+013199999V0201501N002619999999N009999199+03301+02301999999ADDGA1041+006101999GE19MSL   +99999+99999GF199999041999006101999999MA1100901999999REMMET051METAR SBIZ 202000Z 15005KT 9999 SCT020 33/23 Q1009=
0165825640999992017012021004-05531-047460FM-15+013199999V0201501N002110243819N009999199+03301+02201999999ADDGA1041+006101999GA2071+024381999GE19MSL   +99999+99999GF199999041999006101999999MA1100801999999REMMET058METAR SBIZ 202100Z 15004KT 9999 SCT020 BKN080 33/22 Q1008=
0142825640999992017012023004-05531-047460FM-15+013199999V0201001N001019999999N009999199+02901+02501999999ADDGA1021+006101999GE19MSL   +99999+99999GF199999021999006101999999MA1101001999999REMMET051METAR SBIZ 202300Z 10002KT 9999 FEW020 29/25 Q1010=
0142825640999992017012100004-05531-047460FM-15+013199999V0209999C000019999999N009999199+02801+02601999999ADDGA1021+006101999GE19MSL   +99999+99999GF199999021999006101999999MA1101001999999REMMET051METAR SBIZ 210000Z 00000KT 9999 FEW020 28/26 Q1010=
0072825640999992017012100454-05531-047460FM-16+013199999V0209999C000019999999Y999999999+02701+02601999999ADDMA1101101999999REMMET045SPECI SBIZ 210045Z 00000KT CAVOK 27/26 Q1011=
0072825640999992017012107154-05531-047460FM-16+013199999V0209999C000019999999Y999999999+02501+02401999999ADDMA1101001999999REMMET045SPECI SBIZ 210715Z 00000KT CAVOK 25/24 Q1010=
0072825640999992017012108004-05531-047460FM-15+013199999V0209999C000019999999Y999999999+02501+02401999999ADDMA1101001999999REMMET045METAR SBIZ 210800Z 00000KT CAVOK 25/24 Q1010=
0072825640999992017012109004-05531-047460FM-15+013199999V0209999C000019999999Y999999999+02501+02401999999ADDMA1101101999999REMMET045METAR SBIZ 210900Z 00000KT CAVOK 25/24 Q1011=
0110825640999992017012109304-05531-047460FM-15+013199999V0209999C000012200019N000900199+02401+02401999999ADDGF100991999999999999999999MA1101101999999MW1441REMMET051METAR SBIZ 210930Z 00000KT 0900 FG NSC 24/24 Q1011=
0114825640999992017012109304-05531-047460FM-16+013199999V0209999C000012200019N000900199+02401+02401999999ADDGF100991999999999999999999MA1101101999999MW1441REMMET055SPECI COR SBIZ 210930Z 00000KT 0900 FG NSC 24/24 Q1011=
0142825640999992017012111004-05531-047460FM-15+013199999V0209999C000019999999N009999199+02601+02501999999ADDGA1041+003051999GE19MSL   +99999+99999GF199999041999003051999999MA1101201999999REMMET051METAR SBIZ 211100Z 00000KT 9999 SCT010 26/25 Q1012=
0142825640999992017012112004-05531-047460FM-15+013199999V0203001N000519999999N009999199+02901+02401999999ADDGA1021+003051999GE19MSL   +99999+99999GF199999021999003051999999MA1101301999999REMMET051METAR SBIZ 211200Z 30001KT 9999 FEW010 29/24 Q1013=
0142825640999992017012113004-05531-047460FM-15+013199999V0200401N004610061019N009999199+03101+02401999999ADDGA1071+006101999GE19MSL   +99999+99999GF199999071999006101999999MA1101301999999REMMET051METAR SBIZ 211300Z 04009KT 9999 BKN020 31/24 Q1013=
0142825640999992017012114004-05531-047460FM-15+013199999V0200401N002610061019N009999199+03201+02501999999ADDGA1071+006101999GE19MSL   +99999+99999GF199999071999006101999999MA1101301999999REMMET051METAR SBIZ 211400Z 04005KT 9999 BKN020 32/25 Q1013=
0142825640999992017012115004-05531-047460FM-15+013199999V0200601N002610061019N009999199+03201+02401999999ADDGA1071+006101999GE19MSL   +99999+99999GF199999071999006101999999MA1101201999999REMMET051METAR SBIZ 211500Z 06005KT 9999 BKN020 32/24 Q1012=
0165825640999992017012117004-05531-047460FM-15+013199999V0200101N00211009141CN009999199+03401+02401999999ADDGA1041+006101999GA2041+009141999GE19MSL   +99999+99999GF199999041999006101999999MA1100901999999REMMET058METAR SBIZ 211700Z 01004KT 9999 SCT020 SCT030 34/24 Q1009=
0191825640999992017012118004-05531-047460FM-15+013199999V0203501N002610106719N009999199+03201+02501999999ADDGA1021+006101999GA2021+007621081GA3071+010671999GE19MSL   +99999+99999GF199999021999006101999999MA1100801999999REMMET068METAR SBIZ 211800Z 35005KT 9999 FEW020 FEW025TCU BKN035 32/25 Q1008=
0202825640999992017012119004-05531-047460FM-15+013199999V0202101N005110106719N009999199+03001+02301999999ADDGA1021+006101999GA2021+007621081GA3071+010671999GE19MSL   +99999+99999GF199999021999006101999999MA1100701999999MW1161REMMET073METAR SBIZ 211900Z 21010KT 9999 VCSH FEW020 FEW025TCU BKN035 30/23 Q1007=
0222825640999992017012120004-05531-047460FM-15+013199999V0202401N00211006101CN009999199+02801+02301999999ADDGA1021+004571999GA2041+006101999GA3021+007621091GA4071+024381999GE19MSL   +99999+99999GF199999021999004571999999MA1100801999999MW1171REMMET077METAR SBIZ 212000Z 24004KT 9999 TS FEW015 SCT020 FEW025CB BKN080 28/23 Q1008=
0222825640999992017012121204-05531-047460FM-16+013199999V0201001N00261006101CN009999199+02801+02401999999ADDGA1021+004571999GA2041+006101999GA3021+007621091GA4071+024381999GE19MSL   +99999+99999GF199999021999004571999999MA1100901999999MW1171REMMET077SPECI SBIZ 212120Z 10005KT 9999 TS FEW015 SCT020 FEW025CB BKN080 28/24 Q1009=
0225825640999992017012122004-05531-047460FM-15+013199999V0200901N00311006101CN009999199+02701+02401999999ADDGA1041+004571999GA2041+006101999GA3021+007621091GA4071+024381999GE19MSL   +99999+99999GF199999041999004571999999MA1100901999999MW1951REMMET080METAR SBIZ 212200Z 09006KT 9999 -TSRA SCT015 SCT020 FEW025CB BKN080 27/24 Q1009=
0142825640999992017012200004-05531-047460FM-15+013199999V0209999C000019999999N009999199+02601+02501999999ADDGA1041+004571999GE19MSL   +99999+99999GF199999041999004571999999MA1101101999999REMMET051METAR SBIZ 220000Z 00000KT 9999 SCT015 26/25 Q1011=
0142825640999992017012200454-05531-047460FM-16+013199999V0209999C000019999999N009999199+02601+02501999999ADDGA1041+004571999GE19MSL   +99999+99999GF199999041999004571999999MA1101101999999REMMET051SPECI SBIZ 220045Z 00000KT 9999 SCT015 26/25 Q1011=
0142825640999992017012207154-05531-047460FM-16+013199999V0200101N001010061019N009999199+02501+02401999999ADDGA1071+006101999GE19MSL   +99999+99999GF199999071999006101999999MA1101001999999REMMET051SPECI SBIZ 220715Z 01002KT 9999 BKN020 25/24 Q1010=
0142825640999992017012208004-05531-047460FM-15+013199999V0203401N000510061019N009999199+02501+02401999999ADDGA1071+006101999GE19MSL   +99999+99999GF199999071999006101999999MA1101001999999REMMET051METAR SBIZ 220800Z 34001KT 9999 BKN020 25/24 Q1010=
0142825640999992017012209004-05531-047460FM-15+013199999V0209999C000010054919N009999199+02501+02401999999ADDGA1071+005491999GE19MSL   +99999+99999GF199999071999005491999999MA1101101999999REMMET051METAR SBIZ 220900Z 00000KT 9999 BKN018 25/24 Q1011=
0142825640999992017012210004-05531-047460FM-15+013199999V0203001N002610054919N009999199+02501+02401999999ADDGA1071+005491999GE19MSL   +99999+99999GF199999071999005491999999MA1101201999999REMMET051METAR SBIZ 221000Z 30005KT 9999 BKN018 25/24 Q1012=
0165825640999992017012211004-05531-047460FM-15+013199999V0202501N001510045719N009999199+02501+02401999999ADDGA1071+004571999GA2081+021341999GE19MSL   +99999+99999GF199999071999004571999999MA1101301999999REMMET058METAR SBIZ 221100Z 25003KT 9999 BKN015 OVC070 25/24 Q1013=
0165825640999992017012212004-05531-047460FM-15+013199999V0202901N002110045719N009999199+02701+02401999999ADDGA1021+003661999GA2071+004571999GE19MSL   +99999+99999GF199999021999003661999999MA1101301999999REMMET058METAR SBIZ 221200Z 29004KT 9999 FEW012 BKN015 27/24 Q1013=
0142825640999992017012213004-05531-047460FM-15+013199999V0209999C000010045719N009999199+02601+02501999999ADDGA1071+004571999GE19MSL   +99999+99999GF199999071999004571999999MA1101401999999REMMET051METAR SBIZ 221300Z 00000KT 9999 BKN015 26/25 Q1014=
0142825640999992017012215004-05531-047460FM-15+013199999V0201001N002110045719N009999199+03101+02401999999ADDGA1071+004571999GE19MSL   +99999+99999GF199999071999004571999999MA1101201999999REMMET051METAR SBIZ 221500Z 10004KT 9999 BKN015 31/24 Q1012=
0165825640999992017012216004-05531-047460FM-15+013199999V0209999C000010045719N009999199+03201+02501999999ADDGA1071+004571999GA2041+006101999GE19MSL   +99999+99999GF199999071999004571999999MA1101201999999REMMET058METAR SBIZ 221600Z 00000KT 9999 BKN015 SCT020 32/25 Q1012=
0165825640999992017012218004-05531-047460FM-15+013199999V0209999C00001006101CN009999199+03301+02501999999ADDGA1041+004571999GA2041+006101999GE19MSL   +99999+99999GF199999041999004571999999MA1100901999999REMMET058METAR SBIZ 221800Z 00000KT 9999 SCT015 SCT020 33/25 Q1009=
0165825640999992017012219004-05531-047460FM-15+013199999V0209999C000010061019N009999199+03401+02401999999ADDGA1071+006101999GA2041+024381999GE19MSL   +99999+99999GF199999071999006101999999MA1100801999999REMMET058METAR SBIZ 221900Z 00000KT 9999 BKN020 SCT080 34/24 Q1008=
0176825640999992017012221004-05531-047460FM-15+013199999V0202201N004119999999N009999199+03201+02501999999ADDGA1041+007011999GA2021+007621091GE19MSL   +99999+99999GF199999041999007011999999MA1100801999999MW1171REMMET063METAR SBIZ 222100Z 22008KT 9999 TS SCT023 FEW025CB 32/25 Q1008=
0179825640999992017012222004-05531-047460FM-15+013199999V0201201N010310030519N003000199+02901+02401999999ADDGA1071+003051999GA2021+007621091GE19MSL   +99999+99999GF199999071999003051999999MA1101001999999MW1971REMMET066METAR SBIZ 222200Z 12020KT 3000 +TSRA BKN010 FEW025CB 29/24 Q1010=
0183825640999992017012300004-05531-047460FM-15+013199999V0202301N000519999999N009999199+02501+02401999999ADDGA1041+004571999GA2021+007621091GE19MSL   +99999+99999GF199999041999004571999999MA1101101999999MW1131REMMET070METAR SBIZ 230000Z 23001KT 9999 VCTS SCT015 FEW025CB 25/24 Q1011 RETS=
0147825640999992017012300454-05531-047460FM-16+013199999V0209999C000019999999N009999199+02501+02401999999ADDGA1041+004571999GE19MSL   +99999+99999GF199999041999004571999999MA1101101999999REMMET056SPECI SBIZ 230045Z 00000KT 9999 SCT015 25/24 Q1011 RETS=
0142825640999992017012307154-05531-047460FM-16+013199999V0200701N002619999999N009999199+02501+02401999999ADDGA1041+004571999GE19MSL   +99999+99999GF199999041999004571999999MA1101101999999REMMET051SPECI SBIZ 230715Z 07005KT 9999 SCT015 25/24 Q1011=
0142825640999992017012308004-05531-047460FM-15+013199999V0200901N002619999999N009999199+02501+02401999999ADDGA1041+004571999GE19MSL   +99999+99999GF199999041999004571999999MA1101101999999REMMET051METAR SBIZ 230800Z 09005KT 9999 SCT015 25/24 Q1011=
0165825640999992017012310004-05531-047460FM-15+013199999V0209999C000010243819N009999199+02501+02301999999ADDGA1041+004571999GA2071+024381999GE19MSL   +99999+99999GF199999041999004571999999MA1101201999999REMMET058METAR SBIZ 231000Z 00000KT 9999 SCT015 BKN080 25/23 Q1012=
0165825640999992017012311004-05531-047460FM-15+013199999V0201301N002110243819N009999199+02601+02401999999ADDGA1021+004571999GA2071+024381999GE19MSL   +99999+99999GF199999021999004571999999MA1101201999999REMMET058METAR SBIZ 231100Z 13004KT 9999 FEW015 BKN080 26/24 Q1012=
0165825640999992017012313004-05531-047460FM-15+013199999V0201301N003110243819N009999199+02901+02401999999ADDGA1021+004571999GA2071+024381999GE19MSL   +99999+99999GF199999021999004571999999MA1101301999999REMMET058METAR SBIZ 231300Z 13006KT 9999 FEW015 BKN080 29/24 Q1013=
0165825640999992017012314004-05531-047460FM-15+013199999V0201301N003110243819N009999199+03001+02501999999ADDGA1041+005491999GA2071+024381999GE19MSL   +99999+99999GF199999041999005491999999MA1101201999999REMMET058METAR SBIZ 231400Z 13006KT 9999 SCT018 BKN080 30/25 Q1012=
0142825640999992017012316004-05531-047460FM-15+013199999V0201001N002619999999N009999199+03101+02401999999ADDGA1041+006101999GE19MSL   +99999+99999GF199999041999006101999999MA1101101999999REMMET051METAR SBIZ 231600Z 10005KT 9999 SCT020 31/24 Q1011=
0142825640999992017012318004-05531-047460FM-15+013199999V0200501N002119999999N009999199+03201+02401999999ADDGA1041+006101999GE19MSL   +99999+99999GF199999041999006101999999MA1100901999999REMMET051METAR SBIZ 231800Z 05004KT 9999 SCT020 32/24 Q1009=
0168825640999992017012320004-05531-047460FM-15+013199999V0202501N001019999999N009999199+03301+02501999999ADDGA1041+006101999GA2021+007011081GE19MSL   +99999+99999GF199999041999006101999999MA1100801999999REMMET061METAR SBIZ 232000Z 25002KT 9999 SCT020 FEW023TCU 33/25 Q1008=
0176825640999992017012321004-05531-047460FM-15+013199999V0202301N001519999999N009999199+03201+02501999999ADDGA1021+006101999GA2021+007621091GE19MSL   +99999+99999GF199999021999006101999999MA1100901999999MW1171REMMET063METAR SBIZ 232100Z 23003KT 9999 TS FEW020 FEW025CB 32/25 Q1009=
0179825640999992017012321204-05531-047460FM-16+013199999V0201201N003619999999N009000199+02701+02601999999ADDGA1041+006101999GA2021+007621091GE19MSL   +99999+99999GF199999041999006101999999MA1101001999999MW1951REMMET066SPECI SBIZ 232120Z 12007KT 9000 -TSRA SCT020 FEW025CB 27/26 Q1010=
0199825640999992017012322004-05531-047460FM-15+013199999V0202501N00101006101CN009999199+02701+02601999999ADDGA1021+003051999GA2041+006101999GA3021+007621091GE19MSL   +99999+99999GF199999021999003051999999MA1101001999999MW1171REMMET070METAR SBIZ 232200Z 25002KT 9999 TS FEW010 SCT020 FEW025CB 27/26 Q1010=
0176825640999992017012323004-05531-047460FM-15+013199999V0209999C000019999999N009999199+02601+02501999999ADDGA1021+006101999GA2021+007621091GE19MSL   +99999+99999GF199999021999006101999999MA1101101999999MW1171REMMET063METAR SBIZ 232300Z 00000KT 9999 TS FEW020 FEW025CB 26/25 Q1011=
0176825640999992017012400004-05531-047460FM-15+013199999V0209999C000019999999N009999199+02601+02601999999ADDGA1021+006101999GA2021+007621091GE19MSL   +99999+99999GF199999021999006101999999MA1101101999999MW1171REMMET063METAR SBIZ 240000Z 00000KT 9999 TS FEW020 FEW025CB 26/26 Q1011=
0176825640999992017012400454-05531-047460FM-16+013199999V0202001N001019999999N009999199+02601+02601999999ADDGA1021+003051999GA2021+007621091GE19MSL   +99999+99999GF199999021999003051999999MA1101201999999MW1171REMMET063SPECI SBIZ 240045Z 20002KT 9999 TS FEW010 FEW025CB 26/26 Q1012=
0198825640999992017012407154-05531-047460FM-16+013199999V0209999C00001004571CN005000199+02301+02201999999ADDGA1041+001521999GA2041+004571999GA3081+021341999GE19MSL   +99999+99999GF199999041999001521999999MA1101101999999MW1611REMMET069SPECI SBIZ 240715Z 00000KT 5000 -RA SCT005 SCT015 OVC070 23/22 Q1011=
0198825640999992017012410004-05531-047460FM-15+013199999V0200301N00151004571CN009999199+02301+02301999999ADDGA1021+001521999GA2041+004571999GA3081+021341999GE19MSL   +99999+99999GF199999021999001521999999MA1101301999999MW1611REMMET069METAR SBIZ 241000Z 03003KT 9999 -RA FEW005 SCT015 OVC070 23/23 Q1013=
0198825640999992017012411004-05531-047460FM-15+013199999V0203201N002610045719N009999199+02401+02301999999ADDGA1021+001521999GA2071+004571999GA3081+021341999GE19MSL   +99999+99999GF199999021999001521999999MA1101501999999MW1611REMMET069METAR SBIZ 241100Z 32005KT 9999 -RA FEW005 BKN015 OVC070 24/23 Q1015=
0174825640999992017012412004-05531-047460FM-15+013199999V0203001N002610045719N009000199+02401+02301999999ADDGA1071+004571999GA2081+021341999GE19MSL   +99999+99999GF199999071999004571999999MA1101501999999MW1631REMMET061METAR SBIZ 241200Z 30005KT 9000 RA BKN015 OVC070 24/23 Q1015=
0202825640999992017012413004-05531-047460FM-15+013199999V0202401N003110045719N005000199+02401+02401999999ADDGA1041+003051999GA2071+004571999GA3081+021341999GE19MSL   +99999+99999GF199999041999003051999999MA1101601999999MW1631REMMET073METAR SBIZ 241300Z 24006KT 5000 RA SCT010 BKN015 OVC070 24/24 Q1016 RERA=
0203825640999992017012413354-05531-047460FM-16+013199999V0202101N000510045719N001000199+02401+02401999999ADDGA1041+003051999GA2071+004571999GA3081+021341999GE19MSL   +99999+99999GF199999041999003051999999MA1101601999999MW1651REMMET074SPECI SBIZ 241335Z 21001KT 1000 +RA SCT010 BKN015 OVC070 24/24 Q1016 RERA=
0203825640999992017012414004-05531-047460FM-15+013199999V0202101N000510045719N001000199+02301+02301999999ADDGA1041+003051999GA2071+004571999GA3081+021341999GE19MSL   +99999+99999GF199999041999003051999999MA1101702999999MW1651REMMET074METAR SBIZ 241400Z 21001KT 1000 +RA SCT010 BKN015 OVC070 23/23 Q1017 RERA=
0203825640999992017012414404-05531-047460FM-16+013199999V0202501N00151004571CN002000199+02301+02201999999ADDGA1021+003051999GA2041+004571999GA3081+021341999GE19MSL   +99999+99999GF199999021999003051999999MA1101601999999MW1611REMMET074SPECI SBIZ 241440Z 25003KT 2000 -RA FEW010 SCT015 OVC070 23/22 Q1016 RERA=
0198825640999992017012415004-05531-047460FM-15+013199999V0202501N00211004571CN003000199+02301+02301999999ADDGA1041+002441999GA2041+004571999GA3081+021341999GE19MSL   +99999+99999GF199999041999002441999999MA1101601999999MW1611REMMET069METAR SBIZ 241500Z 25004KT 3000 -RA SCT008 SCT015 OVC070 23/23 Q1016=
0197825640999992017012416004-05531-047460FM-15+013199999V0202201N00311004571CN003000199+02301+02301999999ADDGA1041+002441999GA2041+004571999GA3081+021341999GE19MSL   +99999+99999GF199999041999002441999999MA1101501999999MW1631REMMET068METAR SBIZ 241600Z 22006KT 3000 RA SCT008 SCT015 OVC070 23/23 Q1015=
0202825640999992017012417004-05531-047460FM-15+013199999V0202301N00411004571CN005000199+02301+02201999999ADDGA1041+001831999GA2041+004571999GA3081+021341999GE19MSL   +99999+99999GF199999041999001831999999MA1101501999999MW1631REMMET073METAR SBIZ 241700Z 23008KT 5000 RA SCT006 SCT015 OVC070 23/22 Q1015 RERA=
0203825640999992017012418004-05531-047460FM-15+013199999V0202301N00101004571CN009000199+02301+02301999999ADDGA1041+001521999GA2041+004571999GA3081+021341999GE19MSL   +99999+99999GF199999041999001521999999MA1101301999999MW1611REMMET074METAR SBIZ 241800Z 23002KT 9000 -RA SCT005 SCT015 OVC070 23/23 Q1013 RERA=
0165825640999992017012420004-05531-047460FM-15+013199999V0209999C000010243819N009999199+02401+02201999999ADDGA1041+003051999GA2071+024381999GE19MSL   +99999+99999GF199999041999003051999999MA1101101999999REMMET058METAR SBIZ 242000Z 00000KT 9999 SCT010 BKN080 24/22 Q1011=
0188825640999992017012422004-05531-047460FM-15+013199999V0201201N00051003661CN009999199+02401+02201999999ADDGA1021+002741999GA2041+003661999GA3071+024381999GE19MSL   +99999+99999GF199999021999002741999999MA1101201999999REMMET065METAR SBIZ 242200Z 12001KT 9999 FEW009 SCT012 BKN080 24/22 Q1012=
0165825640999992017012423004-05531-047460FM-15+013199999V0200701N000510243819N009999199+02301+02301999999ADDGA1041+003661999GA2071+024381999GE19MSL   +99999+99999GF199999041999003661999999MA1101301999999REMMET058METAR SBIZ 242300Z 07001KT 9999 SCT012 BKN080 23/23 Q1013=
0165825640999992017012500004-05531-047460FM-15+013199999V0203101N00051021341CN009999199+02301+02301999999ADDGA1021+002131999GA2041+021341999GE19MSL   +99999+99999GF199999021999002131999999MA1101301999999REMMET058METAR SBIZ 250000Z 31001KT 9999 FEW007 SCT070 23/23 Q1013=
0165825640999992017012500454-05531-047460FM-16+013199999V0203301N001510213419N009999199+02301+02301999999ADDGA1021+002741999GA2071+021341999GE19MSL   +99999+99999GF199999021999002741999999MA1101401999999REMMET058SPECI SBIZ 250045Z 33003KT 9999 FEW009 BKN070 23/23 Q1014=
0142825640999992017012507154-05531-047460FM-16+013199999V0203101N001010012219N009000199+02301+02201999999ADDGA1071+001221999GE19MSL   +99999+99999GF199999071999001221999999MA1101301999999REMMET051SPECI SBIZ 250715Z 31002KT 9000 BKN004 23/22 Q1013=
0165825640999992017012508004-05531-047460FM-15+013199999V0203101N001510045719N009000199+02301+02201999999ADDGA1041+001521999GA2071+004571999GE19MSL   +99999+99999GF199999041999001521999999MA1101301999999REMMET058METAR SBIZ 250800Z 31003KT 9000 SCT005 BKN015 23/22 Q1013=
0165825640999992017012509004-05531-047460FM-15+013199999V0200101N00101004571CN009999199+02301+02201999999ADDGA1041+002741999GA2041+004571999GE19MSL   +99999+99999GF199999041999002741999999MA1101301999999REMMET058METAR SBIZ 250900Z 01002KT 9999 SCT009 SCT015 23/22 Q1013=
0165825640999992017012510004-05531-047460FM-15+013199999V0200201N000510213419N009999199+02301+02201999999ADDGA1041+004571999GA2071+021341999GE19MSL   +99999+99999GF199999041999004571999999MA1101401999999REMMET058METAR SBIZ 251000Z 02001KT 9999 SCT015 BKN070 23/22 Q1014=
0165825640999992017012512004-05531-047460FM-15+013199999V0209999C000010045719N009999199+02601+02201999999ADDGA1071+004571999GA2071+021341999GE19MSL   +99999+99999GF199999071999004571999999MA1101501999999REMMET058METAR SBIZ 251200Z 00000KT 9999 BKN015 BKN070 26/22 Q1015=
0165825640999992017012513004-05531-047460FM-15+013199999V0201401N001510045719N009999199+02601+02201999999ADDGA1071+004571999GA2071+021341999GE19MSL   +99999+99999GF199999071999004571999999MA1101501999999REMMET058METAR SBIZ 251300Z 14003KT 9999 BKN015 BKN070 26/22 Q1015=
0165825640999992017012514004-05531-047460FM-15+013199999V0201501N001010054919N009999199+02701+02301999999ADDGA1071+005491999GA2071+021341999GE19MSL   +99999+99999GF199999071999005491999999MA1101501999999REMMET058METAR SBIZ 251400Z 15002KT 9999 BKN018 BKN070 27/23 Q1015=
0165825640999992017012515004-05531-047460FM-15+013199999V0200801N001510061019N009999199+02801+02301999999ADDGA1071+006101999GA2071+021341999GE19MSL   +99999+99999GF199999071999006101999999MA1101501999999REMMET058METAR SBIZ 251500Z 08003KT 9999 BKN020 BKN070 28/23 Q1015=
0165825640999992017012516004-05531-047460FM-15+013199999V0201201N001010061019N009999199+02901+02301999999ADDGA1071+006101999GA2071+021341999GE19MSL   +99999+99999GF199999071999006101999999MA1101401999999REMMET058METAR SBIZ 251600Z 12002KT 9999 BKN020 BKN070 29/23 Q1014=
0188825640999992017012517004-05531-047460FM-15+013199999V0202501N001510091419N009999199+02901+02401999999ADDGA1041+006101999GA2071+009141999GA3071+021341999GE19MSL   +99999+99999GF199999041999006101999999MA1101301999999REMMET065METAR SBIZ 251700Z 25003KT 9999 SCT020 BKN030 BKN070 29/24 Q1013=
0165825640999992017012518004-05531-047460FM-15+013199999V0202401N00101010671CN009999199+03001+02401999999ADDGA1041+007621999GA2041+010671999GE19MSL   +99999+99999GF199999041999007621999999MA1101201999999REMMET058METAR SBIZ 251800Z 24002KT 9999 SCT025 SCT035 30/24 Q1012=
0142825640999992017012520004-05531-047460FM-15+013199999V0201201N001519999999N009999199+03101+02401999999ADDGA1021+009141999GE19MSL   +99999+99999GF199999021999009141999999MA1101101999999REMMET051METAR SBIZ 252000Z 12003KT 9999 FEW030 31/24 Q1011=
0142825640999992017012522004-05531-047460FM-15+013199999V0200901N001519999999N009999199+02801+02501999999ADDGA1021+009141999GE19MSL   +99999+99999GF199999021999009141999999MA1101101999999REMMET051METAR SBIZ 252200Z 09003KT 9999 FEW030 28/25 Q1011=
0155825640999992017012523004-05531-047460FM-15+013199999V0201201N001519999999N009999199+02701+02401999999ADDGA1021+009141091GE19MSL   +99999+99999GF199999021999009141999999MA1101201999999MW1131REMMET058METAR SBIZ 252300Z 12003KT 9999 VCTS FEW030CB 27/24 Q1012=
0072825640999992017012600004-05531-047460FM-15+013199999V0201001N002119999999Y999999999+02601+02401999999ADDMA1101301999999REMMET045METAR SBIZ 260000Z 10004KT CAVOK 26/24 Q1013=
0072825640999992017012600454-05531-047460FM-16+013199999V0201301N001519999999Y999999999+02601+02501999999ADDMA1101301999999REMMET045SPECI SBIZ 260045Z 13003KT CAVOK 26/25 Q1013=
0072825640999992017012608004-05531-047460FM-15+013199999V0209999C000019999999Y999999999+02301+02301999999ADDMA1101101999999REMMET045METAR SBIZ 260800Z 00000KT CAVOK 23/23 Q1011=
0165825640999992017012610004-05531-047460FM-15+013199999V0201601N00151021341CN009999199+02301+02301999999ADDGA1041+003051999GA2041+021341999GE19MSL   +99999+99999GF199999041999003051999999MA1101301999999REMMET058METAR SBIZ 261000Z 16003KT 9999 SCT010 SCT070 23/23 Q1013=
0142825640999992017012612004-05531-047460FM-15+013199999V0203101N001519999999N009999199+02601+02401999999ADDGA1041+003051999GE19MSL   +99999+99999GF199999041999003051999999MA1101401999999REMMET051METAR SBIZ 261200Z 31003KT 9999 SCT010 26/24 Q1014=
0142825640999992017012613004-05531-047460FM-15+013199999V0200401N001510045719N009999199+02801+02401999999ADDGA1071+004571999GE19MSL   +99999+99999GF199999071999004571999999MA1101401999999REMMET051METAR SBIZ 261300Z 04003KT 9999 BKN015 28/24 Q1014=
0142825640999992017012616004-05531-047460FM-15+013199999V0200801N002610061019N009999199+03201+02401999999ADDGA1071+006101999GE19MSL   +99999+99999GF199999071999006101999999MA1101301999999REMMET051METAR SBIZ 261600Z 08005KT 9999 BKN020 32/24 Q1013=
0142825640999992017012617004-05531-047460FM-15+013199999V0201001N002610070119N009999199+03301+02401999999ADDGA1071+007011999GE19MSL   +99999+99999GF199999071999007011999999MA1101201999999REMMET051METAR SBIZ 261700Z 10005KT 9999 BKN023 33/24 Q1012=
0142825640999992017012618004-05531-047460FM-15+013199999V0202301N001510070119N009999199+03001+02501999999ADDGA1071+007011999GE19MSL   +99999+99999GF199999071999007011999999MA1101101999999REMMET051METAR SBIZ 261800Z 23003KT 9999 BKN023 30/25 Q1011=
0210825640999992017012619004-05531-047460FM-15+013199999V0201301N009310121919N009999199+02701+02301999999ADDGA1041+007621999GA2021+009141091GA3071+012191999GE19MSL   +99999+99999GF199999041999007621999999MA1101101999999MW1161MW2171REMMET075METAR SBIZ 261900Z 13018KT 9999 TS VCSH SCT025 FEW030CB BKN040 27/23 Q1011=
0208825640999992017012621004-05531-047460FM-15+013199999V0209999C000010045719N005000199+02601+02301999999ADDGA1071+004571999GA2041+006101999GA3071+024381999GE19MSL   +99999+99999GF199999071999004571999999MA1101101999999MW1101MW2161REMMET073METAR SBIZ 262100Z 00000KT 5000 VCSH BR BKN015 SCT020 BKN080 26/23 Q1011=
0165825640999992017012623004-05531-047460FM-15+013199999V0200201N001510045719N009999199+02501+02401999999ADDGA1071+004571999GA2041+021341999GE19MSL   +99999+99999GF199999071999004571999999MA1101201999999REMMET058METAR SBIZ 262300Z 02003KT 9999 BKN015 SCT070 25/24 Q1012=
0142825640999992017012700004-05531-047460FM-15+013199999V0209999C000019999999N009999199+02501+02301999999ADDGA1041+004571999GE19MSL   +99999+99999GF199999041999004571999999MA1101301999999REMMET051METAR SBIZ 270000Z 00000KT 9999 SCT015 25/23 Q1013=
0142825640999992017012700454-05531-047460FM-16+013199999V0209999C000019999999N009999199+02501+02401999999ADDGA1041+004571999GE19MSL   +99999+99999GF199999041999004571999999MA1101401999999REMMET051SPECI SBIZ 270045Z 00000KT 9999 SCT015 25/24 Q1014=
0142825640999992017012709004-05531-047460FM-15+013199999V0209999C000019999999N009999199+02301+02301999999ADDGA1021+004571999GE19MSL   +99999+99999GF199999021999004571999999MA1101301999999REMMET051METAR SBIZ 270900Z 00000KT 9999 FEW015 23/23 Q1013=
0165825640999992017012710004-05531-047460FM-15+013199999V0209999C00001009141CN009999199+02401+02401999999ADDGA1021+001831999GA2041+009141999GE19MSL   +99999+99999GF199999021999001831999999MA1101301999999REMMET058METAR SBIZ 271000Z 00000KT 9999 FEW006 SCT030 24/24 Q1013=
0165825640999992017012711004-05531-047460FM-15+013199999V0209999C00001009141CN009999199+02501+02401999999ADDGA1021+007621999GA2041+009141999GE19MSL   +99999+99999GF199999021999007621999999MA1101401999999REMMET058METAR SBIZ 271100Z 00000KT 9999 FEW025 SCT030 25/24 Q1014=
0165825640999992017012713004-05531-047460FM-15+013199999V0200301N002610045719N009999199+02801+02301999999ADDGA1021+003051999GA2071+004571999GE19MSL   +99999+99999GF199999021999003051999999MA1101501999999REMMET058METAR SBIZ 271300Z 03005KT 9999 FEW010 BKN015 28/23 Q1015=
0142825640999992017012715004-05531-047460FM-15+013199999V0200701N001510061019N009999199+03201+02501999999ADDGA1071+006101999GE19MSL   +99999+99999GF199999071999006101999999MA1101401999999REMMET051METAR SBIZ 271500Z 07003KT 9999 BKN020 32/25 Q1014=
0142825640999992017012716004-05531-047460FM-15+013199999V0200501N003110061019N009999199+03301+02401999999ADDGA1071+006101999GE19MSL   +99999+99999GF199999071999006101999999MA1101301999999REMMET051METAR SBIZ 271600Z 05006KT 9999 BKN020 33/24 Q1013=
0142825640999992017012717004-05531-047460FM-15+013199999V0201101N001010061019N009999199+03401+02401999999ADDGA1071+006101999GE19MSL   +99999+99999GF199999071999006101999999MA1101201999999REMMET051METAR SBIZ 271700Z 11002KT 9999 BKN020 34/24 Q1012=
0165825640999992017012719004-05531-047460FM-15+013199999V0209999C000010061019N009999199+03501+02401999999ADDGA1021+004571999GA2071+006101999GE19MSL   +99999+99999GF199999021999004571999999MA1100901999999REMMET058METAR SBIZ 271900Z 00000KT 9999 FEW015 BKN020 35/24 Q1009=
0142825640999992017012720004-05531-047460FM-15+013199999V0202101N002110061019N009999199+03301+02401999999ADDGA1071+006101999GE19MSL   +99999+99999GF199999071999006101999999MA1100901999999REMMET051METAR SBIZ 272000Z 21004KT 9999 BKN020 33/24 Q1009=
0142825640999992017012721004-05531-047460FM-15+013199999V0202701N002119999999N009999199+03001+02701999999ADDGA1041+006101999GE19MSL   +99999+99999GF199999041999006101999999MA1100901999999REMMET051METAR SBIZ 272100Z 27004KT 9999 SCT020 30/27 Q1009=
0142825640999992017012722004-05531-047460FM-15+013199999V0209999C000019999999N009999199+02801+02701999999ADDGA1041+006101999GE19MSL   +99999+99999GF199999041999006101999999MA1101001999999REMMET051METAR SBIZ 272200Z 00000KT 9999 SCT020 28/27 Q1010=
0142825640999992017012723004-05531-047460FM-15+013199999V0200901N004119999999N009999199+02701+02601999999ADDGA1041+007621999GE19MSL   +99999+99999GF199999041999007621999999MA1101101999999REMMET051METAR SBIZ 272300Z 09008KT 9999 SCT025 27/26 Q1011=
0142825640999992017012800004-05531-047460FM-15+013199999V0200901N002619999999N009999199+02601+02501999999ADDGA1041+007621999GE19MSL   +99999+99999GF199999041999007621999999MA1101301999999REMMET051METAR SBIZ 280000Z 09005KT 9999 SCT025 26/25 Q1013=
0142825640999992017012801004-05531-047460FM-15+013199999V0201801N001519999999N009999199+02701+02501999999ADDGA1041+007621999GE19MSL   +99999+99999GF199999041999007621999999MA1101301999999REMMET051METAR SBIZ 280100Z 18003KT 9999 SCT025 27/25 Q1013=
0165825640999992017012803004-05531-047460FM-15+013199999V0202401N001510243819N009999199+02601+02401999999ADDGA1041+006101999GA2071+024381999GE19MSL   +99999+99999GF199999041999006101999999MA1101301999999REMMET058METAR SBIZ 280300Z 24003KT 9999 SCT020 BKN080 26/24 Q1013=
0165825640999992017012804004-05531-047460FM-15+013199999V0201201N001010243819N009999199+02501+02501999999ADDGA1041+006101999GA2071+024381999GE19MSL   +99999+99999GF199999041999006101999999MA1101301999999REMMET058METAR SBIZ 280400Z 12002KT 9999 SCT020 BKN080 25/25 Q1013=
0142825640999992017012806004-05531-047460FM-15+013199999V0209999C000019999999N009999199+02501+02501999999ADDGA1041+006101999GE19MSL   +99999+99999GF199999041999006101999999MA1101201999999REMMET051METAR SBIZ 280600Z 00000KT 9999 SCT020 25/25 Q1012=
0142825640999992017012807004-05531-047460FM-15+013199999V0200601N001519999999N009999199+02501+02501999999ADDGA1041+006101999GE19MSL   +99999+99999GF199999041999006101999999MA1101201999999REMMET051METAR SBIZ 280700Z 06003KT 9999 SCT020 25/25 Q1012=
0142825640999992017012809004-05531-047460FM-15+013199999V0209999C000019999999N009999199+02501+02401999999ADDGA1021+004571999GE19MSL   +99999+99999GF199999021999004571999999MA1101301999999REMMET051METAR SBIZ 280900Z 00000KT 9999 FEW015 25/24 Q1013=
0072825640999992017012810004-05531-047460FM-15+013199999V0203601N001519999999Y999999999+02501+02401999999ADDMA1101401999999REMMET045METAR SBIZ 281000Z 36003KT CAVOK 25/24 Q1014=
0142825640999992017012811004-05531-047460FM-15+013199999V0209999C000019999999N009999199+02701+02401999999ADDGA1021+004571999GE19MSL   +99999+99999GF199999021999004571999999MA1101401999999REMMET051METAR SBIZ 281100Z 00000KT 9999 FEW015 27/24 Q1014=
0142825640999992017012812004-05531-047460FM-15+013199999V0201001N002110045719N009999199+02801+02401999999ADDGA1071+004571999GE19MSL   +99999+99999GF199999071999004571999999MA1101501999999REMMET051METAR SBIZ 281200Z 10004KT 9999 BKN015 28/24 Q1015=
0142825640999992017012813004-05531-047460FM-15+013199999V0200901N001510045719N009999199+03001+02301999999ADDGA1081+004571999GE19MSL   +99999+99999GF199999081999004571999999MA1101501999999REMMET051METAR SBIZ 281300Z 09003KT 9999 OVC015 30/23 Q1015=
0142825640999992017012814004-05531-047460FM-15+013199999V0200101N001510045719N009999199+03001+02401999999ADDGA1071+004571999GE19MSL   +99999+99999GF199999071999004571999999MA1101401999999REMMET051METAR SBIZ 281400Z 01003KT 9999 BKN015 30/24 Q1014=
0142825640999992017012815004-05531-047460FM-15+013199999V0202101N002110054919N009999199+03101+02401999999ADDGA1071+005491999GE19MSL   +99999+99999GF199999071999005491999999MA1101301999999REMMET051METAR SBIZ 281500Z 21004KT 9999 BKN018 31/24 Q1013=
0142825640999992017012817004-05531-047460FM-15+013199999V0203301N001010061019N009999199+03301+02501999999ADDGA1071+006101999GE19MSL   +99999+99999GF199999071999006101999999MA1101101999999REMMET051METAR SBIZ 281700Z 33002KT 9999 BKN020 33/25 Q1011=
0165825640999992017012819004-05531-047460FM-15+013199999V0202601N003110091419N009999199+02901+02501999999ADDGA1071+009141999GA2071+021341999GE19MSL   +99999+99999GF199999071999009141999999MA1101001999999REMMET058METAR SBIZ 281900Z 26006KT 9999 BKN030 BKN070 29/25 Q1010=
0142825640999992017012821004-05531-047460FM-15+013199999V0202601N001019999999N009999199+02801+02601999999ADDGA1021+009141999GE19MSL   +99999+99999GF199999021999009141999999MA1100901999999REMMET051METAR SBIZ 282100Z 26002KT 9999 FEW030 28/26 Q1009=
0165825640999992017012822004-05531-047460FM-15+013199999V0201601N00101030481CN009999199+02701+02601999999ADDGA1021+006101999GA2041+030481999GE19MSL   +99999+99999GF199999021999006101999999MA1101101999999REMMET058METAR SBIZ 282200Z 16002KT 9999 FEW020 SCT100 27/26 Q1011=
0142825640999992017012823004-05531-047460FM-15+013199999V0200201N001019999999N009999199+02701+02501999999ADDGA1021+006101999GE19MSL   +99999+99999GF199999021999006101999999MA1101101999999REMMET051METAR SBIZ 282300Z 02002KT 9999 FEW020 27/25 Q1011=
0176825640999992017012900004-05531-047460FM-15+013199999V0201701N001019999999N009999199+02701+02501999999ADDGA1021+006101999GA2021+007621091GE19MSL   +99999+99999GF199999021999006101999999MA1101201999999MW1171REMMET063METAR SBIZ 290000Z 17002KT 9999 TS FEW020 FEW025CB 27/25 Q1012=
0147825640999992017012900454-05531-047460FM-16+013199999V0202301N001519999999N009999199+02601+02501999999ADDGA1021+006101999GE19MSL   +99999+99999GF199999021999006101999999MA1101201999999REMMET056SPECI SBIZ 290045Z 23003KT 9999 FEW020 26/25 Q1012 RETS=
0165825640999992017012907154-05531-047460FM-16+013199999V0200301N003610061019N009999199+02601+02401999999ADDGA1021+002441999GA2071+006101999GE19MSL   +99999+99999GF199999021999002441999999MA1101201999999REMMET058SPECI SBIZ 290715Z 03007KT 9999 FEW008 BKN020 26/24 Q1012=
0142825640999992017012908004-05531-047460FM-15+013199999V0209999C000010076219N009999199+02501+02401999999ADDGA1071+007621999GE19MSL   +99999+99999GF199999071999007621999999MA1101201999999REMMET051METAR SBIZ 290800Z 00000KT 9999 BKN025 25/24 Q1012=
0142825640999992017012909004-05531-047460FM-15+013199999V0200101N001010076219N009999199+02501+02301999999ADDGA1071+007621999GE19MSL   +99999+99999GF199999071999007621999999MA1101201999999REMMET051METAR SBIZ 290900Z 01002KT 9999 BKN025 25/23 Q1012=
0165825640999992017012910004-05531-047460FM-15+013199999V0202501N001510076219N009999199+02501+02301999999ADDGA1071+007621999GA2041+021341999GE19MSL   +99999+99999GF199999071999007621999999MA1101301999999REMMET058METAR SBIZ 291000Z 25003KT 9999 BKN025 SCT070 25/23 Q1013=
0165825640999992017012911004-05531-047460FM-15+013199999V0202701N001010213419N009999199+02601+02401999999ADDGA1041+007621999GA2071+021341999GE19MSL   +99999+99999GF199999041999007621999999MA1101301999999REMMET058METAR SBIZ 291100Z 27002KT 9999 SCT025 BKN070 26/24 Q1013=
0165825640999992017012913004-05531-047460FM-15+013199999V0201101N002110045719N009999199+02701+02301999999ADDGA1071+004571999GA2041+021341999GE19MSL   +99999+99999GF199999071999004571999999MA1101401999999REMMET058METAR SBIZ 291300Z 11004KT 9999 BKN015 SCT070 27/23 Q1014=
0165825640999992017012914004-05531-047460FM-15+013199999V0200801N001510045719N009999199+02901+02401999999ADDGA1071+004571999GA2041+021341999GE19MSL   +99999+99999GF199999071999004571999999MA1101401999999REMMET058METAR SBIZ 291400Z 08003KT 9999 BKN015 SCT070 29/24 Q1014=
0142825640999992017012915004-05531-047460FM-15+013199999V0201601N001510045719N009999199+03101+02401999999ADDGA1071+004571999GE19MSL   +99999+99999GF199999071999004571999999MA1101301999999REMMET051METAR SBIZ 291500Z 16003KT 9999 BKN015 31/24 Q1013=
0142825640999992017012916004-05531-047460FM-15+013199999V0201201N003610045719N009999199+03101+02301999999ADDGA1071+004571999GE19MSL   +99999+99999GF199999071999004571999999MA1101201999999REMMET051METAR SBIZ 291600Z 12007KT 9999 BKN015 31/23 Q1012=
0165825640999992017012917004-05531-047460FM-15+013199999V0201001N001510061019N009999199+03301+02301999999ADDGA1021+003051999GA2071+006101999GE19MSL   +99999+99999GF199999021999003051999999MA1101101999999REMMET058METAR SBIZ 291700Z 10003KT 9999 FEW010 BKN020 33/23 Q1011=
0142825640999992017012918004-05531-047460FM-15+013199999V0201201N002119999999N009999199+03301+02401999999ADDGA1041+006101999GE19MSL   +99999+99999GF199999041999006101999999MA1101001999999REMMET051METAR SBIZ 291800Z 12004KT 9999 SCT020 33/24 Q1010=
0199825640999992017012919004-05531-047460FM-15+013199999V0201501N00361006101CN009999199+03401+02401999999ADDGA1021+003051999GA2041+006101999GA3021+007621091GE19MSL   +99999+99999GF199999021999003051999999MA1100901999999MW1171REMMET070METAR SBIZ 291900Z 15007KT 9999 TS FEW010 SCT020 FEW025CB 34/24 Q1009=
0188825640999992017012921004-05531-047460FM-15+013199999V0201001N00361010671CN009999199+03101+02501999999ADDGA1021+006101999GA2041+010671999GA3071+021341999GE19MSL   +99999+99999GF199999021999006101999999MA1100901999999REMMET065METAR SBIZ 292100Z 10007KT 9999 FEW020 SCT035 BKN070 31/25 Q1009=
0176825640999992017012922004-05531-047460FM-15+013199999V0201201N005710091419N009999199+02901+02401999999ADDGA1021+007621091GA2071+009141999GE19MSL   +99999+99999GF199999021999007621999999MA1101001999999MW1171REMMET063METAR SBIZ 292200Z 12011KT 9999 TS FEW025CB BKN030 29/24 Q1010=
0147825640999992017012923004-05531-047460FM-15+013199999V0201001N002619999999N009999199+02701+02401999999ADDGA1041+009141999GE19MSL   +99999+99999GF199999041999009141999999MA1101101999999REMMET056METAR SBIZ 292300Z 10005KT 9999 SCT030 27/24 Q1011 RETS=
0142825640999992017013000004-05531-047460FM-15+013199999V0201001N002119999999N009999199+02601+02301999999ADDGA1021+007621999GE19MSL   +99999+99999GF199999021999007621999999MA1101101999999REMMET051METAR SBIZ 300000Z 10004KT 9999 FEW025 26/23 Q1011=
0142825640999992017013000454-05531-047460FM-16+013199999V0201501N001019999999N009999199+02601+02401999999ADDGA1021+009141999GE19MSL   +99999+99999GF199999021999009141999999MA1101201999999REMMET051SPECI SBIZ 300045Z 15002KT 9999 FEW030 26/24 Q1012=
0142825640999992017013007154-05531-047460FM-16+013199999V0203301N001019999999N009999199+02501+02401999999ADDGA1021+003051999GE19MSL   +99999+99999GF199999021999003051999999MA1101101999999REMMET051SPECI SBIZ 300715Z 33002KT 9999 FEW010 25/24 Q1011=
0142825640999992017013008004-05531-047460FM-15+013199999V0209999C000019999999N009999199+02501+02401999999ADDGA1021+003051999GE19MSL   +99999+99999GF199999021999003051999999MA1101101999999REMMET051METAR SBIZ 300800Z 00000KT 9999 FEW010 25/24 Q1011=
0072825640999992017013009004-05531-047460FM-15+013199999V0200601N001019999999Y999999999+02501+02401999999ADDMA1101201999999REMMET045METAR SBIZ 300900Z 06002KT CAVOK 25/24 Q1012=
0142825640999992017013010004-05531-047460FM-15+013199999V0200701N001510030519N009999199+02501+02401999999ADDGA1071+003051999GE19MSL   +99999+99999GF199999071999003051999999MA1101201999999REMMET051METAR SBIZ 301000Z 07003KT 9999 BKN010 25/24 Q1012=
0142825640999992017013011004-05531-047460FM-15+013199999V0200701N002119999999N009999199+02701+02401999999ADDGA1041+003051999GE19MSL   +99999+99999GF199999041999003051999999MA1101301999999REMMET051METAR SBIZ 301100Z 07004KT 9999 SCT010 27/24 Q1013=
0142825640999992017013012004-05531-047460FM-15+013199999V0200601N004110045719N009999199+02701+02401999999ADDGA1071+004571999GE19MSL   +99999+99999GF199999071999004571999999MA1101301999999REMMET051METAR SBIZ 301200Z 06008KT 9999 BKN015 27/24 Q1013=
0165825640999992017013014004-05531-047460FM-15+013199999V0200901N00361006101CN009999199+03001+02401999999ADDGA1041+004571999GA2041+006101999GE19MSL   +99999+99999GF199999041999004571999999MA1101301999999REMMET058METAR SBIZ 301400Z 09007KT 9999 SCT015 SCT020 30/24 Q1013=
0165825640999992017013016004-05531-047460FM-15+013199999V0200901N00261006101CN009999199+03201+02401999999ADDGA1041+004571999GA2041+006101999GE19MSL   +99999+99999GF199999041999004571999999MA1101201999999REMMET058METAR SBIZ 301600Z 09005KT 9999 SCT015 SCT020 32/24 Q1012=
0142825640999992017013017004-05531-047460FM-15+013199999V0202701N002119999999N009999199+03301+02501999999ADDGA1041+007621999GE19MSL   +99999+99999GF199999041999007621999999MA1101001999999REMMET051METAR SBIZ 301700Z 27004KT 9999 SCT025 33/25 Q1010=
0202825640999992017013019004-05531-047460FM-15+013199999V0200401N006210061019N009999199+03101+02301999999ADDGA1041+004571999GA2071+006101999GA3021+007621091GE19MSL   +99999+99999GF199999041999004571999999MA1100901999999MW1951REMMET073METAR SBIZ 301900Z 04012KT 9999 -TSRA SCT015 BKN020 FEW025CB 31/23 Q1009=
0210825640999992017013020324-05531-047460FM-16+013199999V0201401N002110076219N009999199+02801+02601999999ADDGA1071+007621999GA2021+009141091GA3041+021341999GE19MSL   +99999+99999GF199999071999007621999999MA1101001999999MW1161MW2171REMMET075SPECI SBIZ 302032Z 14004KT 9999 TS VCSH BKN025 FEW030CB SCT070 28/26 Q1010=
0210825640999992017013021004-05531-047460FM-15+013199999V0200901N001510076219N009999199+02801+02501999999ADDGA1071+007621999GA2021+009141091GA3041+021341999GE19MSL   +99999+99999GF199999071999007621999999MA1100901999999MW1161MW2171REMMET075METAR SBIZ 302100Z 09003KT 9999 TS VCSH BKN025 FEW030CB SCT070 28/25 Q1009=
0206825640999992017013022004-05531-047460FM-15+013199999V0201301N001510213419N009999199+02701+02501999999ADDGA1041+007621999GA2021+009141091GA3071+021341999GE19MSL   +99999+99999GF199999041999007621999999MA1101001999999MW1131REMMET077METAR SBIZ 302200Z 13003KT 9999 VCTS SCT025 FEW030CB BKN070 27/25 Q1010 RETS=
0211825640999992017013023004-05531-047460FM-15+013199999V0200101N001010213419N009999199+02601+02501999999ADDGA1041+007621999GA2021+009141091GA3071+021341999GE19MSL   +99999+99999GF199999041999007621999999MA1101101999999MW1131MW2611REMMET076METAR SBIZ 302300Z 01002KT 9999 -RA VCTS SCT025 FEW030CB BKN070 26/25 Q1011=
0178825640999992017013100004-05531-047460FM-15+013199999V0202101N001519999999N009999199+02601+02501999999ADDGA1041+007621999GA2021+009141091GE19MSL   +99999+99999GF199999041999007621999999MA1101201999999MW1131REMMET065METAR SBIZ 310000Z 21003KT 9999 VCTS SCT025 FEW030CB 26/25 Q1012=
0142825640999992017013100454-05531-047460FM-16+013199999V0202301N001019999999N009999199+02601+02501999999ADDGA1041+007621999GE19MSL   +99999+99999GF199999041999007621999999MA1101301999999REMMET051SPECI SBIZ 310045Z 23002KT 9999 SCT025 26/25 Q1013=
0165825640999992017013108004-05531-047460FM-15+013199999V0202801N001010304819N009999199+02501+02401999999ADDGA1021+002131999GA2071+030481999GE19MSL   +99999+99999GF199999021999002131999999MA1101101999999REMMET058METAR SBIZ 310800Z 28002KT 9999 FEW007 BKN100 25/24 Q1011=
0165825640999992017013109004-05531-047460FM-15+013199999V0209999C000010304819N009999199+02501+02401999999ADDGA1041+003051999GA2071+030481999GE19MSL   +99999+99999GF199999041999003051999999MA1101201999999REMMET058METAR SBIZ 310900Z 00000KT 9999 SCT010 BKN100 25/24 Q1012=
0165825640999992017013110004-05531-047460FM-15+013199999V0209999C00001003661CN009999199+02501+02501999999ADDGA1041+003051999GA2041+003661999GE19MSL   +99999+99999GF199999041999003051999999MA1101301999999REMMET058METAR SBIZ 311000Z 00000KT 9999 SCT010 SCT012 25/25 Q1013=
0165825640999992017013111004-05531-047460FM-15+013199999V0209999C00001004571CN009999199+02601+02401999999ADDGA1021+003051999GA2041+004571999GE19MSL   +99999+99999GF199999021999003051999999MA1101301999999REMMET058METAR SBIZ 311100Z 00000KT 9999 FEW010 SCT015 26/24 Q1013=
0142825640999992017013113004-05531-047460FM-15+013199999V0200501N003610045719N009999199+02901+02401999999ADDGA1071+004571999GE19MSL   +99999+99999GF199999071999004571999999MA1101301999999REMMET051METAR SBIZ 311300Z 05007KT 9999 BKN015 29/24 Q1013=
0165825640999992017013114004-05531-047460FM-15+013199999V0200501N003110045719N009999199+03001+02501999999ADDGA1071+004571999GA2071+021341999GE19MSL   +99999+99999GF199999071999004571999999MA1101301999999REMMET058METAR SBIZ 311400Z 05006KT 9999 BKN015 BKN070 30/25 Q1013=
0165825640999992017013115004-05531-047460FM-15+013199999V0200901N003110045719N009999199+03101+02401999999ADDGA1021+003661999GA2071+004571999GE19MSL   +99999+99999GF199999021999003661999999MA1101201999999REMMET058METAR SBIZ 311500Z 09006KT 9999 FEW012 BKN015 31/24 Q1012=
0142825640999992017013116004-05531-047460FM-15+013199999V0201501N001510061019N009999199+03301+02401999999ADDGA1071+006101999GE19MSL   +99999+99999GF199999071999006101999999MA1101101999999REMMET051METAR SBIZ 311600Z 15003KT 9999 BKN020 33/24 Q1011=
0165825640999992017013118004-05531-047460FM-15+013199999V0200401N002610061019N009999199+03301+02401999999ADDGA1071+006101999GA2041+021341999GE19MSL   +99999+99999GF199999071999006101999999MA1100801999999REMMET058METAR SBIZ 311800Z 04005KT 9999 BKN020 SCT070 33/24 Q1008=
0176825640999992017013119004-05531-047460FM-15+013199999V0202701N003610061019N009999199+03101+02501999999ADDGA1071+006101999GA2071+021341999GE19MSL   +99999+99999GF199999071999006101999999MA1100801999999MW1161REMMET063METAR SBIZ 311900Z 27007KT 9999 VCSH BKN020 BKN070 31/25 Q1008=
0165825640999992017013120004-05531-047460FM-15+013199999V0202701N002110243819N009999199+03101+02501999999ADDGA1021+004571999GA2071+024381999GE19MSL   +99999+99999GF199999021999004571999999MA1100801999999REMMET058METAR SBIZ 312000Z 27004KT 9999 FEW015 BKN080 31/25 Q1008=
0165825640999992017013122004-05531-047460FM-15+013199999V0209999C000010045719N009999199+02901+02601999999ADDGA1071+004571999GA2071+024381999GE19MSL   +99999+99999GF199999071999004571999999MA1100901999999REMMET058METAR SBIZ 312200Z 00000KT 9999 BKN015 BKN080 29/26 Q1009=
0142825640999992017013123004-05531-047460FM-15+013199999V0209999C000010045719N009999199+02801+02601999999ADDGA1071+004571999GE19MSL   +99999+99999GF199999071999004571999999MA1101001999999REMMET051METAR SBIZ 312300Z 00000KT 9999 BKN015 28/26 Q1010=
0142825640999992017020100004-05531-047460FM-15+013199999V0200101N002119999999N009999199+02701+02601999999ADDGA1041+004571999GE19MSL   +99999+99999GF199999041999004571999999MA1101101999999REMMET051METAR SBIZ 010000Z 01004KT 9999 SCT015 27/26 Q1011=
0142825640999992017020101004-05531-047460FM-15+013199999V0201201N008819999999N009999199+02701+02601999999ADDGA1041+004571999GE19MSL   +99999+99999GF199999041999004571999999MA1101201999999REMMET051METAR SBIZ 010100Z 12017KT 9999 SCT015 27/26 Q1012=
0142825640999992017020101304-05531-047460FM-16+013199999V0200901N005719999999N009999199+02701+02601999999ADDGA1041+004571999GE19MSL   +99999+99999GF199999041999004571999999MA1101301999999REMMET051SPECI SBIZ 010130Z 09011KT 9999 SCT015 27/26 Q1013=
0111825640999992017020108004-05531-047460FM-15+013199999V0209999C000012200019N009999199+02401+02301999999ADDGF100991999999999999999999MA1101101999999MW1611REMMET052METAR SBIZ 010800Z 00000KT 9999 -RA NSC 24/23 Q1011=
0165825640999992017020111004-05531-047460FM-15+013199999V0209999C000010213419N009999199+02501+02401999999ADDGA1041+003661999GA2081+021341999GE19MSL   +99999+99999GF199999041999003661999999MA1101301999999REMMET058METAR SBIZ 011100Z 00000KT 9999 SCT012 OVC070 25/24 Q1013=
0165825640999992017020112004-05531-047460FM-15+013199999V0201101N000510036619N009999199+02601+02401999999ADDGA1021+003051999GA2071+003661999GE19MSL   +99999+99999GF199999021999003051999999MA1101301999999REMMET058METAR SBIZ 011200Z 11001KT 9999 FEW010 BKN012 26/24 Q1013=
0165825640999992017020113004-05531-047460FM-15+013199999V0209999C000010045719N009999199+02701+02401999999ADDGA1021+003051999GA2071+004571999GE19MSL   +99999+99999GF199999021999003051999999MA1101301999999REMMET058METAR SBIZ 011300Z 00000KT 9999 FEW010 BKN015 27/24 Q1013=
0165825640999992017020114004-05531-047460FM-15+013199999V0203601N001510243819N009999199+02901+02401999999ADDGA1041+004571999GA2071+024381999GE19MSL   +99999+99999GF199999041999004571999999MA1101301999999REMMET058METAR SBIZ 011400Z 36003KT 9999 SCT015 BKN080 29/24 Q1013=
0165825640999992017020116004-05531-047460FM-15+013199999V0201501N002610243819N009999199+03101+02401999999ADDGA1041+004571999GA2071+024381999GE19MSL   +99999+99999GF199999041999004571999999MA1101201999999REMMET058METAR SBIZ 011600Z 15005KT 9999 SCT015 BKN080 31/24 Q1012=
0142825640999992017020118004-05531-047460FM-15+013199999V0201101N003110061019N009999199+03401+02301999999ADDGA1071+006101999GE19MSL   +99999+99999GF199999071999006101999999MA1100901999999REMMET051METAR SBIZ 011800Z 11006KT 9999 BKN020 34/23 Q1009=
0165825640999992017020119004-05531-047460FM-15+013199999V0201501N002610045719N009999199+03201+02401999999ADDGA1071+004571999GA2041+006101999GE19MSL   +99999+99999GF199999071999004571999999MA1100801999999REMMET058METAR SBIZ 011900Z 15005KT 9999 BKN015 SCT020 32/24 Q1008=
0199825640999992017020120004-05531-047460FM-15+013199999V0202401N00151006101CN009999199+03001+02501999999ADDGA1041+004571999GA2041+006101999GA3071+024381999GE19MSL   +99999+99999GF199999041999004571999999MA1100801999999MW1161REMMET070METAR SBIZ 012000Z 24003KT 9999 VCSH SCT015 SCT020 BKN080 30/25 Q1008=
0176825640999992017020121004-05531-047460FM-15+013199999V0202101N002110061019N009999199+02801+02401999999ADDGA1071+006101999GA2071+024381999GE19MSL   +99999+99999GF199999071999006101999999MA1100901999999MW1161REMMET063METAR SBIZ 012100Z 21004KT 9999 VCSH BKN020 BKN080 28/24 Q1009=
0175825640999992017020123004-05531-047460FM-15+013199999V0200901N007210061019N009999199+02401+02401999999ADDGA1071+006101999GA2071+024381999GE19MSL   +99999+99999GF199999071999006101999999MA1101101999999MW1611REMMET062METAR SBIZ 012300Z 09014KT 9999 -RA BKN020 BKN080 24/24 Q1011=
0201825640999992017020123154-05531-047460FM-16+013199999V0201001N005110061019N009999199+02401+02401999999ADDGA1071+006101999GA2021+007621091GA3071+024381999GE19MSL   +99999+99999GF199999071999006101999999MA1101101999999MW1951REMMET072SPECI SBIZ 012315Z 10010KT 9999 TSRA BKN020 FEW025CB BKN080 24/24 Q1011=
0225825640999992017020200004-05531-047460FM-15+013199999V0200101N002610061019N009999199+02501+02401999999ADDGA1021+003051999GA2071+006101999GA3021+007621091GA4071+024381999GE19MSL   +99999+99999GF199999021999003051999999MA1101201999999MW1951REMMET080METAR SBIZ 020000Z 01005KT 9999 -TSRA FEW010 BKN020 FEW025CB BKN080 25/24 Q1012=
0202825640999992017020200454-05531-047460FM-16+013199999V0200601N003110061019N009999199+02401+02401999999ADDGA1071+006101999GA2021+007621091GA3071+024381999GE19MSL   +99999+99999GF199999071999006101999999MA1101201999999MW1951REMMET073SPECI SBIZ 020045Z 06006KT 9999 -TSRA BKN020 FEW025CB BKN080 24/24 Q1012=
0152825640999992017020207154-05531-047460FM-16+013199999V0209999C000010045719N009000199+02401+02401999999ADDGA1071+004571999GE19MSL   +99999+99999GF199999071999004571999999MA1101101999999MW1611REMMET055SPECI SBIZ 020715Z 00000KT 9000 -RA BKN015 24/24 Q1011=
0152825640999992017020208004-05531-047460FM-15+013199999V0209999C000010045719N009000199+02401+02401999999ADDGA1071+004571999GE19MSL   +99999+99999GF199999071999004571999999MA1101101999999MW1611REMMET055METAR SBIZ 020800Z 00000KT 9000 -RA BKN015 24/24 Q1011=
0165825640999992017020210004-05531-047460FM-15+013199999V0200301N002110213419N009000199+02401+02401999999ADDGA1041+004571999GA2081+021341999GE19MSL   +99999+99999GF199999041999004571999999MA1101201999999REMMET058METAR SBIZ 021000Z 03004KT 9000 SCT015 OVC070 24/24 Q1012=
0165825640999992017020212004-05531-047460FM-15+013199999V0209999C000010213419N009999199+02601+02401999999ADDGA1041+004571999GA2081+021341999GE19MSL   +99999+99999GF199999041999004571999999MA1101301999999REMMET058METAR SBIZ 021200Z 00000KT 9999 SCT015 OVC070 26/24 Q1013=
0165825640999992017020214004-05531-047460FM-15+013199999V0202501N001010045719N009999199+02901+02401999999ADDGA1071+004571999GA2071+021341999GE19MSL   +99999+99999GF199999071999004571999999MA1101301999999REMMET058METAR SBIZ 021400Z 25002KT 9999 BKN015 BKN070 29/24 Q1013=
0165825640999992017020215004-05531-047460FM-15+013199999V0200501N003610045719N009999199+03001+02501999999ADDGA1071+004571999GA2071+021341999GE19MSL   +99999+99999GF199999071999004571999999MA1101201999999REMMET058METAR SBIZ 021500Z 05007KT 9999 BKN015 BKN070 30/25 Q1012=
0165825640999992017020217004-05531-047460FM-15+013199999V0200801N002110054919N009999199+03201+02401999999ADDGA1071+005491999GA2041+024381999GE19MSL   +99999+99999GF199999071999005491999999MA1101001999999REMMET058METAR SBIZ 021700Z 08004KT 9999 BKN018 SCT080 32/24 Q1010=
0165825640999992017020218004-05531-047460FM-15+013199999V0200601N003110213419N009999199+03301+02401999999ADDGA1041+005491999GA2071+021341999GE19MSL   +99999+99999GF199999041999005491999999MA1100901999999REMMET058METAR SBIZ 021800Z 06006KT 9999 SCT018 BKN070 33/24 Q1009=
0165825640999992017020219004-05531-047460FM-15+013199999V0202801N004110213419N009999199+03301+02501999999ADDGA1041+005491999GA2071+021341999GE19MSL   +99999+99999GF199999041999005491999999MA1100801999999REMMET058METAR SBIZ 021900Z 28008KT 9999 SCT018 BKN070 33/25 Q1008=
0168825640999992017020221004-05531-047460FM-15+013199999V0202801N002619999999N009999199+03101+02501999999ADDGA1021+007621081GA2041+007621999GE19MSL   +99999+99999GF199999021999007621999999MA1100801999999REMMET061METAR SBIZ 022100Z 28005KT 9999 FEW025TCU SCT025 31/25 Q1008=
0202825640999992017020222004-05531-047460FM-15+013199999V0201601N005110045719N009999199+02801+02301999999ADDGA1041+002741999GA2071+004571999GA3021+007621091GE19MSL   +99999+99999GF199999041999002741999999MA1101001999999MW1951REMMET073METAR SBIZ 022200Z 16010KT 9999 -TSRA SCT009 BKN015 FEW025CB 28/23 Q1010=
0202825640999992017020223004-05531-047460FM-15+013199999V0203101N002110045719N009999199+02501+02401999999ADDGA1071+004571999GA2021+007621091GA3071+024381999GE19MSL   +99999+99999GF199999071999004571999999MA1101101999999MW1951REMMET073METAR SBIZ 022300Z 31004KT 9999 -TSRA BKN015 FEW025CB BKN080 25/24 Q1011=
0225825640999992017020300004-05531-047460FM-15+013199999V0201401N00101006101CN009999199+02501+02401999999ADDGA1021+003051999GA2041+006101999GA3021+007621091GA4071+024381999GE19MSL   +99999+99999GF199999021999003051999999MA1101101999999MW1951REMMET080METAR SBIZ 030000Z 14002KT 9999 -TSRA FEW010 SCT020 FEW025CB BKN080 25/24 Q1011=
0225825640999992017020300454-05531-047460FM-16+013199999V0200901N00461004571CN009999199+02501+02401999999ADDGA1021+001831999GA2041+004571999GA3021+007621091GA4071+024381999GE19MSL   +99999+99999GF199999021999001831999999MA1101301999999MW1951REMMET080SPECI SBIZ 030045Z 09009KT 9999 -TSRA FEW006 SCT015 FEW025CB BKN080 25/24 Q1013=
0175825640999992017020307154-05531-047460FM-16+013199999V0209999C000010061019N009999199+02401+02401999999ADDGA1071+006101999GA2071+021341999GE19MSL   +99999+99999GF199999071999006101999999MA1101101999999MW1611REMMET062SPECI SBIZ 030715Z 00000KT 9999 -RA BKN020 BKN070 24/24 Q1011=
0198825640999992017020308004-05531-047460FM-15+013199999V0201801N001510054919N009999199+02401+02401999999ADDGA1021+003661999GA2071+005491999GA3071+021341999GE19MSL   +99999+99999GF199999021999003661999999MA1101201999999MW1611REMMET069METAR SBIZ 030800Z 18003KT 9999 -RA FEW012 BKN018 BKN070 24/24 Q1012=
0198825640999992017020309004-05531-047460FM-15+013199999V0201401N003610054919N009999199+02401+02301999999ADDGA1021+003661999GA2071+005491999GA3071+021341999GE19MSL   +99999+99999GF199999021999003661999999MA1101201999999MW1611REMMET069METAR SBIZ 030900Z 14007KT 9999 -RA FEW012 BKN018 BKN070 24/23 Q1012=
0179825640999992017020310004-05531-047460FM-15+013199999V0201301N001510030519N009999199+02301+02301999999ADDGA1071+003051999GA2081+021341999GE19MSL   +99999+99999GF199999071999003051999999MA1101301999999MW1631REMMET066METAR SBIZ 031000Z 13003KT 9999 RA BKN010 OVC070 23/23 Q1013 RERA=
0175825640999992017020310304-05531-047460FM-16+013199999V0209999C000010213419N009999199+02301+02301999999ADDGA1041+003051999GA2081+021341999GE19MSL   +99999+99999GF199999041999003051999999MA1101301999999MW1611REMMET062SPECI SBIZ 031030Z 00000KT 9999 -RA SCT010 OVC070 23/23 Q1013=
0165825640999992017020312004-05531-047460FM-15+013199999V0209999C000010213419N009999199+02401+02301999999ADDGA1041+003051999GA2071+021341999GE19MSL   +99999+99999GF199999041999003051999999MA1101401999999REMMET058METAR SBIZ 031200Z 00000KT 9999 SCT010 BKN070 24/23 Q1014=
0175825640999992017020313004-05531-047460FM-15+013199999V0201801N001510213419N009999199+02401+02301999999ADDGA1041+003051999GA2081+021341999GE19MSL   +99999+99999GF199999041999003051999999MA1101401999999MW1611REMMET062METAR SBIZ 031300Z 18003KT 9999 -RA SCT010 OVC070 24/23 Q1014=
0165825640999992017020315004-05531-047460FM-15+013199999V0201901N001510045719N009999199+02701+02501999999ADDGA1071+004571999GA2041+024381999GE19MSL   +99999+99999GF199999071999004571999999MA1101301999999REMMET058METAR SBIZ 031500Z 19003KT 9999 BKN015 SCT080 27/25 Q1013=
0165825640999992017020316004-05531-047460FM-15+013199999V0201101N00151024381CN009999199+03001+02401999999ADDGA1041+006101999GA2041+024381999GE19MSL   +99999+99999GF199999041999006101999999MA1101101999999REMMET058METAR SBIZ 031600Z 11003KT 9999 SCT020 SCT080 30/24 Q1011=
0165825640999992017020319004-05531-047460FM-15+013199999V0202801N00101030481CN009999199+03101+02401999999ADDGA1041+007621999GA2041+030481999GE19MSL   +99999+99999GF199999041999007621999999MA1100801999999REMMET058METAR SBIZ 031900Z 28002KT 9999 SCT025 SCT100 31/24 Q1008=
0191825640999992017020320004-05531-047460FM-15+013199999V0200201N00101030481CN009999199+03201+02501999999ADDGA1021+007621999GA2021+009141081GA3041+030481999GE19MSL   +99999+99999GF199999021999007621999999MA1100801999999REMMET068METAR SBIZ 032000Z 02002KT 9999 FEW025 FEW030TCU SCT100 32/25 Q1008=
0191825640999992017020321004-05531-047460FM-15+013199999V0200301N001510213419N009999199+03101+02501999999ADDGA1021+007621999GA2021+009141081GA3071+021341999GE19MSL   +99999+99999GF199999021999007621999999MA1100801999999REMMET068METAR SBIZ 032100Z 03003KT 9999 FEW025 FEW030TCU BKN070 31/25 Q1008=
0168825640999992017020322004-05531-047460FM-15+013199999V0200401N00101021341CN009999199+03001+02601999999ADDGA1021+007621081GA2041+021341999GE19MSL   +99999+99999GF199999021999007621999999MA1100901999999REMMET061METAR SBIZ 032200Z 04002KT 9999 FEW025TCU SCT070 30/26 Q1009=
0072825640999992017020323004-05531-047460FM-15+013199999V0200701N001019999999Y999999999+02801+02601999999ADDMA1101001999999REMMET045METAR SBIZ 032300Z 07002KT CAVOK 28/26 Q1010=
0072825640999992017020400004-05531-047460FM-15+013199999V0209999C000019999999Y999999999+02701+02601999999ADDMA1101101999999REMMET045METAR SBIZ 040000Z 00000KT CAVOK 27/26 Q1011=
0178825640999992017020400454-05531-047460FM-16+013199999V0201601N002610091419N005000199+02701+02701999999ADDGA1021+007621091GA2071+009141999GE19MSL   +99999+99999GF199999021999007621999999MA1101201999999MW1951REMMET065SPECI SBIZ 040045Z 16005KT 5000 TSRA FEW025CB BKN030 27/27 Q1012=
0142825640999992017020407154-05531-047460FM-16+013199999V0200701N001519999999N009999199+02501+02501999999ADDGA1021+003051999GE19MSL   +99999+99999GF199999021999003051999999MA1101101999999REMMET051SPECI SBIZ 040715Z 07003KT 9999 FEW010 25/25 Q1011=
0142825640999992017020408004-05531-047460FM-15+013199999V0209999C000019999999N009999199+02501+02401999999ADDGA1021+003051999GE19MSL   +99999+99999GF199999021999003051999999MA1101101999999REMMET051METAR SBIZ 040800Z 00000KT 9999 FEW010 25/24 Q1011=
0165825640999992017020409004-05531-047460FM-15+013199999V0209999C000010243819N009999199+02501+02401999999ADDGA1021+003051999GA2071+024381999GE19MSL   +99999+99999GF199999021999003051999999MA1101101999999REMMET058METAR SBIZ 040900Z 00000KT 9999 FEW010 BKN080 25/24 Q1011=
0142825640999992017020411004-05531-047460FM-15+013199999V0209999C000010045719N009999199+02501+02401999999ADDGA1071+004571999GE19MSL   +99999+99999GF199999071999004571999999MA1101201999999REMMET051METAR SBIZ 041100Z 00000KT 9999 BKN015 25/24 Q1012=
0142825640999992017020412004-05531-047460FM-15+013199999V0202101N001010045719N009999199+02701+02501999999ADDGA1071+004571999GE19MSL   +99999+99999GF199999071999004571999999MA1101301999999REMMET051METAR SBIZ 041200Z 21002KT 9999 BKN015 27/25 Q1013=
0142825640999992017020413004-05531-047460FM-15+013199999V0200901N002610045719N009999199+02801+02501999999ADDGA1071+004571999GE19MSL   +99999+99999GF199999071999004571999999MA1101201999999REMMET051METAR SBIZ 041300Z 09005KT 9999 BKN015 28/25 Q1012=
0165825640999992017020415004-05531-047460FM-15+013199999V0201201N001510076219N009999199+03201+02501999999ADDGA1041+005491999GA2071+007621999GE19MSL   +99999+99999GF199999041999005491999999MA1101101999999REMMET058METAR SBIZ 041500Z 12003KT 9999 SCT018 BKN025 32/25 Q1011=
0142825640999992017020417004-05531-047460FM-15+013199999V0200901N002119999999N009999199+03401+02501999999ADDGA1041+006101999GE19MSL   +99999+99999GF199999041999006101999999MA1100901999999REMMET051METAR SBIZ 041700Z 09004KT 9999 SCT020 34/25 Q1009=
0142825640999992017020418004-05531-047460FM-15+013199999V0202001N002119999999N009999199+03401+02501999999ADDGA1041+006101999GE19MSL   +99999+99999GF199999041999006101999999MA1100701999999REMMET051METAR SBIZ 041800Z 20004KT 9999 SCT020 34/25 Q1007=
0191825640999992017020419004-05531-047460FM-15+013199999V0202201N00261021341CN009999199+03501+02401999999ADDGA1021+006101999GA2021+007621081GA3041+021341999GE19MSL   +99999+99999GF199999021999006101999999MA1100701999999REMMET068METAR SBIZ 041900Z 22005KT 9999 FEW020 FEW025TCU SCT070 35/24 Q1007=
0199825640999992017020420004-05531-047460FM-15+013199999V0202101N00151006101CN009999199+03401+02401999999ADDGA1021+005491999GA2041+006101999GA3021+007621091GE19MSL   +99999+99999GF199999021999005491999999MA1100701999999MW1171REMMET070METAR SBIZ 042000Z 21003KT 9999 TS FEW018 SCT020 FEW025CB 34/24 Q1007=
0199825640999992017020421004-05531-047460FM-15+013199999V0200601N00151006101CN009999199+02901+02601999999ADDGA1021+005491999GA2041+006101999GA3021+007621091GE19MSL   +99999+99999GF199999021999005491999999MA1100801999999MW1171REMMET070METAR SBIZ 042100Z 06003KT 9999 TS FEW018 SCT020 FEW025CB 29/26 Q1008=
0170825640999992017020422004-05531-047460FM-15+013199999V0200301N00151006101CN009999199+02801+02401999999ADDGA1021+005491999GA2041+006101999GE19MSL   +99999+99999GF199999021999005491999999MA1100801999999REMMET063METAR SBIZ 042200Z 03003KT 9999 FEW018 SCT020 28/24 Q1008 RETS=
0072825640999992017020423004-05531-047460FM-15+013199999V0203601N001519999999Y999999999+02701+02401999999ADDMA1100901999999REMMET045METAR SBIZ 042300Z 36003KT CAVOK 27/24 Q1009=
0165825640999992017020507154-05531-047460FM-16+013199999V0209999C00001004571CN009999199+02501+02501999999ADDGA1021+001831999GA2041+004571999GE19MSL   +99999+99999GF199999021999001831999999MA1101001999999REMMET058SPECI SBIZ 050715Z 00000KT 9999 FEW006 SCT015 25/25 Q1010=
0072825640999992017020607154-05531-047460FM-16+013199999V0209999C000019999999Y999999999+02501+02501999999ADDMA1100901999999REMMET045SPECI SBIZ 060715Z 00000KT CAVOK 25/25 Q1009=
0178825640999992017020620304-05531-047460FM-16+013199999V0200601N008210006119N005000199+02501+02401999999ADDGA1071+000611999GA2021+007621091GE19MSL   +99999+99999GF199999071999000611999999MA1100701999999MW1951REMMET065SPECI SBIZ 062030Z 06016KT 5000 TSRA BKN002 FEW025CB 25/24 Q1007=
0142825640999992017020700454-05531-047460FM-16+013199999V0201201N002119999999N009999199+02601+02501999999ADDGA1041+009141999GE19MSL   +99999+99999GF199999041999009141999999MA1101001999999REMMET051SPECI SBIZ 070045Z 12004KT 9999 SCT030 26/25 Q1010=
0142825640999992017020707154-05531-047460FM-16+013199999V0203601N001519999999N009999199+02601+02501999999ADDGA1041+004571999GE19MSL   +99999+99999GF199999041999004571999999MA1100901999999REMMET051SPECI SBIZ 070715Z 36003KT 9999 SCT015 26/25 Q1009=
0142825640999992017020709004-05531-047460FM-15+013199999V0201301N001019999999N009999199+02501+02501999999ADDGA1021+004571999GE19MSL   +99999+99999GF199999021999004571999999MA1101001999999REMMET051METAR SBIZ 070900Z 13002KT 9999 FEW015 25/25 Q1010=
0142825640999992017020711004-05531-047460FM-15+013199999V0200601N003110045719N009999199+02701+02501999999ADDGA1071+004571999GE19MSL   +99999+99999GF199999071999004571999999MA1101101999999REMMET051METAR SBIZ 071100Z 06006KT 9999 BKN015 27/25 Q1011=
0165825640999992017020713004-05531-047460FM-15+013199999V0200601N004110061019N009999199+03101+02401999999ADDGA1021+004571999GA2071+006101999GE19MSL   +99999+99999GF199999021999004571999999MA1101201999999REMMET058METAR SBIZ 071300Z 06008KT 9999 FEW015 BKN020 31/24 Q1012=
0165825640999992017020714004-05531-047460FM-15+013199999V0200401N003610061019N009999199+03101+02401999999ADDGA1041+004571999GA2071+006101999GE19MSL   +99999+99999GF199999041999004571999999MA1101101999999REMMET058METAR SBIZ 071400Z 04007KT 9999 SCT015 BKN020 31/24 Q1011=
0168825640999992017020716004-05531-047460FM-15+013199999V0200501N003619999999N009999199+03201+02501999999ADDGA1041+007621999GA2021+008531081GE19MSL   +99999+99999GF199999041999007621999999MA1101001999999REMMET061METAR SBIZ 071600Z 05007KT 9999 SCT025 FEW028TCU 32/25 Q1010=
0142825640999992017020717004-05531-047460FM-15+013199999V0200601N003110085319N009999199+03401+02501999999ADDGA1071+008531999GE19MSL   +99999+99999GF199999071999008531999999MA1100801999999REMMET051METAR SBIZ 071700Z 06006KT 9999 BKN028 34/25 Q1008=
0142825640999992017020719004-05531-047460FM-15+013199999V0200201N002610091419N009999199+03501+02301999999ADDGA1071+009141999GE19MSL   +99999+99999GF199999071999009141999999MA1100601999999REMMET051METAR SBIZ 071900Z 02005KT 9999 BKN030 35/23 Q1006=
0142825640999992017020720004-05531-047460FM-15+013199999V0200101N002119999999N009999199+03301+02501999999ADDGA1041+009141999GE19MSL   +99999+99999GF199999041999009141999999MA1100601999999REMMET051METAR SBIZ 072000Z 01004KT 9999 SCT030 33/25 Q1006=
0165825640999992017020722004-05531-047460FM-15+013199999V0202501N00101009141CN009999199+02601+02401999999ADDGA1041+007621999GA2041+009141999GE19MSL   +99999+99999GF199999041999007621999999MA1100901999999REMMET058METAR SBIZ 072200Z 25002KT 9999 SCT025 SCT030 26/24 Q1009=
0178825640999992017020723004-05531-047460FM-15+013199999V0202201N00151009141CN009999199+02601+02401999999ADDGA1041+007621999GA2041+009141091GE19MSL   +99999+99999GF199999041999007621999999MA1100901999999MW1131REMMET065METAR SBIZ 072300Z 22003KT 9999 VCTS SCT025 SCT030CB 26/24 Q1009=
0201825640999992017020800004-05531-047460FM-15+013199999V0201301N001519999999N009999199+02501+02501999999ADDGA1041+007621999GA2021+009141091GA3041+021341999GE19MSL   +99999+99999GF199999041999007621999999MA1101001999999MW1131REMMET072METAR SBIZ 080000Z 13003KT 9999 VCTS SCT025 FEW030CB SCT070 25/25 Q1010=
0165825640999992017020808004-05531-047460FM-15+013199999V0202501N001010045719N009999199+02601+02501999999ADDGA1021+003661999GA2071+004571999GE19MSL   +99999+99999GF199999021999003661999999MA1101001999999REMMET058METAR SBIZ 080800Z 25002KT 9999 FEW012 BKN015 26/25 Q1010=
0176825640999992017020809004-05531-047460FM-15+013199999V0201901N003610021319N009999199+02501+02401999999ADDGA1021+000611999GA2071+002131999GE19MSL   +99999+99999GF199999021999000611999999MA1101101999999MW1161REMMET063METAR SBIZ 080900Z 19007KT 9999 VCSH FEW002 BKN007 25/24 Q1011=
0206825640999992017020811004-05531-047460FM-15+013199999V0202301N002610213419N003000199+02301+02301999999ADDGA1021+000611999GA2021+007621091GA3081+021341999GE19MSL   +99999+99999GF199999021999000611999999MA1101301999999MW1951REMMET077METAR SBIZ 081100Z 23005KT 3000 TSRA FEW002 FEW025CB OVC070 23/23 Q1013 RERA=
0205825640999992017020812004-05531-047460FM-15+013199999V0202901N00211003051CN009999199+02301+02301999999ADDGA1021+000911999GA2041+003051999GA3081+021341999GE19MSL   +99999+99999GF199999021999000911999999MA1101301999999MW1611REMMET076METAR SBIZ 081200Z 29004KT 9999 -RA FEW003 SCT010 OVC070 23/23 Q1013 RETSRA=
0197825640999992017020813004-05531-047460FM-15+013199999V0201901N001510030519N009000199+02401+02301999999ADDGA1021+000611999GA2071+003051999GA3081+021341999GE19MSL   +99999+99999GF199999021999000611999999MA1101301999999MW1631REMMET068METAR SBIZ 081300Z 19003KT 9000 RA FEW002 BKN010 OVC070 24/23 Q1013=
0188825640999992017020814004-05531-047460FM-15+013199999V0200901N00151003051CN009999199+02501+02401999999ADDGA1021+000611999GA2041+003051999GA3071+021341999GE19MSL   +99999+99999GF199999021999000611999999MA1101201999999REMMET065METAR SBIZ 081400Z 09003KT 9999 FEW002 SCT010 BKN070 25/24 Q1012=
0188825640999992017020816004-05531-047460FM-15+013199999V0203401N00101006101CN009999199+02801+02501999999ADDGA1021+002131999GA2041+006101999GA3071+024381999GE19MSL   +99999+99999GF199999021999002131999999MA1101101999999REMMET065METAR SBIZ 081600Z 34002KT 9999 FEW007 SCT020 BKN080 28/25 Q1011=
0165825640999992017020817004-05531-047460FM-15+013199999V0200301N001510243819N009999199+03001+02601999999ADDGA1041+006101999GA2071+024381999GE19MSL   +99999+99999GF199999041999006101999999MA1100901999999REMMET058METAR SBIZ 081700Z 03003KT 9999 SCT020 BKN080 30/26 Q1009=
0165825640999992017020819004-05531-047460FM-15+013199999V0203501N001010243819N009999199+03001+02601999999ADDGA1041+009141999GA2071+024381999GE19MSL   +99999+99999GF199999041999009141999999MA1100701999999REMMET058METAR SBIZ 081900Z 35002KT 9999 SCT030 BKN080 30/26 Q1007=
0165825640999992017020821004-05531-047460FM-15+013199999V0200401N001510243819N009999199+03001+02401999999ADDGA1041+006101999GA2071+024381999GE19MSL   +99999+99999GF199999041999006101999999MA1100801999999REMMET058METAR SBIZ 082100Z 04003KT 9999 SCT020 BKN080 30/24 Q1008=
0201825640999992017020823004-05531-047460FM-15+013199999V0202601N003110061019N009999199+02801+02601999999ADDGA1071+006101999GA2021+007621091GA3071+024381999GE19MSL   +99999+99999GF199999071999006101999999MA1101001999999MW1131REMMET072METAR SBIZ 082300Z 26006KT 9999 VCTS BKN020 FEW025CB BKN080 28/26 Q1010=
0202825640999992017020900004-05531-047460FM-15+013199999V0201701N002610045719N009999199+02601+02501999999ADDGA1071+004571999GA2021+007621091GA3071+021341999GE19MSL   +99999+99999GF199999071999004571999999MA1101201999999MW1951REMMET073METAR SBIZ 090000Z 17005KT 9999 -TSRA BKN015 FEW025CB BKN070 26/25 Q1012=
0165825640999992017020908004-05531-047460FM-15+013199999V0209999C000010243819N009999199+02501+02401999999ADDGA1041+004571999GA2071+024381999GE19MSL   +99999+99999GF199999041999004571999999MA1101001999999REMMET058METAR SBIZ 090800Z 00000KT 9999 SCT015 BKN080 25/24 Q1010=
0165825640999992017020909004-05531-047460FM-15+013199999V0209999C000010265219N009999199+02501+02401999999ADDGA1041+004571999GA2071+026521999GE19MSL   +99999+99999GF199999041999004571999999MA1101101999999REMMET058METAR SBIZ 090900Z 00000KT 9999 SCT015 BKN087 25/24 Q1011=
0142825640999992017020910004-05531-047460FM-15+013199999V0209999C000019999999N009999199+02501+02401999999ADDGA1021+006101999GE19MSL   +99999+99999GF199999021999006101999999MA1101101999999REMMET051METAR SBIZ 091000Z 00000KT 9999 FEW020 25/24 Q1011=
0142825640999992017020911004-05531-047460FM-15+013199999V0209999C000019999999N009999199+02501+02501999999ADDGA1041+006101999GE19MSL   +99999+99999GF199999041999006101999999MA1101201999999REMMET051METAR SBIZ 091100Z 00000KT 9999 SCT020 25/25 Q1012=
0142825640999992017020912004-05531-047460FM-15+013199999V0202501N001519999999N009999199+02601+02501999999ADDGA1041+006101999GE19MSL   +99999+99999GF199999041999006101999999MA1101201999999REMMET051METAR SBIZ 091200Z 25003KT 9999 SCT020 26/25 Q1012=
0142825640999992017020913004-05531-047460FM-15+013199999V0209999C000010061019N009999199+02801+02501999999ADDGA1071+006101999GE19MSL   +99999+99999GF199999071999006101999999MA1101301999999REMMET051METAR SBIZ 091300Z 00000KT 9999 BKN020 28/25 Q1013=
0181825640999992017020915004-05531-047460FM-15+013199999V0203301N002610045719N004000199+02601+02501999999ADDGA1071+004571999GA2071+005491999GE19MSL   +99999+99999GF199999071999004571999999MA1101201999999MW1651REMMET068METAR SBIZ 091500Z 33005KT 4000 0800W +RA BKN015 BKN018 26/25 Q1012=
0165825640999992017020916004-05531-047460FM-15+013199999V0203101N002610061019N009999199+02801+02601999999ADDGA1041+004571999GA2071+006101999GE19MSL   +99999+99999GF199999041999004571999999MA1101001999999REMMET058METAR SBIZ 091600Z 31005KT 9999 SCT015 BKN020 28/26 Q1010=
0191825640999992017020917004-05531-047460FM-15+013199999V0203501N002610243819N009999199+03101+02601999999ADDGA1041+004571999GA2021+007621081GA3071+024381999GE19MSL   +99999+99999GF199999041999004571999999MA1100901999999REMMET068METAR SBIZ 091700Z 35005KT 9999 SCT015 FEW025TCU BKN080 31/26 Q1009=
0202825640999992017020918004-05531-047460FM-15+013199999V0201101N004110213419N009999199+03101+02501999999ADDGA1041+004571999GA2021+007621081GA3071+021341999GE19MSL   +99999+99999GF199999041999004571999999MA1100801999999MW1161REMMET073METAR SBIZ 091800Z 11008KT 9999 VCSH SCT015 FEW025TCU BKN070 31/25 Q1008=
0207825640999992017020919004-05531-047460FM-15+013199999V0201201N004110045719N009999199+02801+02601999999ADDGA1071+004571999GA2021+007621081GA3071+021341999GE19MSL   +99999+99999GF199999071999004571999999MA1100801999999MW1161REMMET078METAR SBIZ 091900Z 12008KT 9999 VCSH BKN015 FEW025TCU BKN070 28/26 Q1008 RERA=
0165825640999992017020920004-05531-047460FM-15+013199999V0201001N003110045719N009999199+02801+02601999999ADDGA1071+004571999GA2041+006101999GE19MSL   +99999+99999GF199999071999004571999999MA1100801999999REMMET058METAR SBIZ 092000Z 10006KT 9999 BKN015 SCT020 28/26 Q1008=
0165825640999992017020921004-05531-047460FM-15+013199999V0200901N002110045719N009999199+02801+02601999999ADDGA1071+004571999GA2041+024381999GE19MSL   +99999+99999GF199999071999004571999999MA1100801999999REMMET058METAR SBIZ 092100Z 09004KT 9999 BKN015 SCT080 28/26 Q1008=
0142825640999992017020922004-05531-047460FM-15+013199999V0209999C000010045719N009999199+02701+02601999999ADDGA1071+004571999GE19MSL   +99999+99999GF199999071999004571999999MA1100901999999REMMET051METAR SBIZ 092200Z 00000KT 9999 BKN015 27/26 Q1009=
0142825640999992017021000004-05531-047460FM-15+013199999V0201501N002110045719N009999199+02601+02501999999ADDGA1071+004571999GE19MSL   +99999+99999GF199999071999004571999999MA1101101999999REMMET051METAR SBIZ 100000Z 15004KT 9999 BKN015 26/25 Q1011=
0180825640999992017021008004-05531-047460FM-15+013199999V0203401N002110213419N009999199+02401+02401999999ADDGA1041+002441999GA2071+021341999GE19MSL   +99999+99999GF199999041999002441999999MA1101101999999MW1611REMMET067METAR SBIZ 100800Z 34004KT 9999 -RA SCT008 BKN070 24/24 Q1011 RERA=
0198825640999992017021009004-05531-047460FM-15+013199999V0203401N00211003661CN009999199+02501+02401999999ADDGA1041+001521999GA2041+003661999GA3071+021341999GE19MSL   +99999+99999GF199999041999001521999999MA1101101999999MW1611REMMET069METAR SBIZ 100900Z 34004KT 9999 -RA SCT005 SCT012 BKN070 25/24 Q1011=
0188825640999992017021010004-05531-047460FM-15+013199999V0203301N001510030519N009999199+02501+02401999999ADDGA1021+001521999GA2071+003051999GA3071+004571999GE19MSL   +99999+99999GF199999021999001521999999MA1101201999999REMMET065METAR SBIZ 101000Z 33003KT 9999 FEW005 BKN010 BKN015 25/24 Q1012=
0198825640999992017021011004-05531-047460FM-15+013199999V0203301N001010036619N009999199+02501+02401999999ADDGA1021+001521999GA2071+003661999GA3081+021341999GE19MSL   +99999+99999GF199999021999001521999999MA1101301999999MW1611REMMET069METAR SBIZ 101100Z 33002KT 9999 -RA FEW005 BKN012 OVC070 25/24 Q1013=
0175825640999992017021012004-05531-047460FM-15+013199999V0202801N002610030519N009999199+02501+02401999999ADDGA1071+003051999GA2081+021341999GE19MSL   +99999+99999GF199999071999003051999999MA1101301999999MW1611REMMET062METAR SBIZ 101200Z 28005KT 9999 -RA BKN010 OVC070 25/24 Q1013=
0175825640999992017021013004-05531-047460FM-15+013199999V0202901N001010036619N009999199+02601+02501999999ADDGA1071+003661999GA2081+021341999GE19MSL   +99999+99999GF199999071999003661999999MA1101301999999MW1611REMMET062METAR SBIZ 101300Z 29002KT 9999 -RA BKN012 OVC070 26/25 Q1013=
0175825640999992017021015004-05531-047460FM-15+013199999V0203201N002610045719N009999199+02701+02501999999ADDGA1071+004571999GA2081+021341999GE19MSL   +99999+99999GF199999071999004571999999MA1101301999999MW1611REMMET062METAR SBIZ 101500Z 32005KT 9999 -RA BKN015 OVC070 27/25 Q1013=
0165825640999992017021016004-05531-047460FM-15+013199999V0202401N002610045719N009999199+02801+02501999999ADDGA1071+004571999GA2041+021341999GE19MSL   +99999+99999GF199999071999004571999999MA1101201999999REMMET058METAR SBIZ 101600Z 24005KT 9999 BKN015 SCT070 28/25 Q1012=
0142825640999992017021017004-05531-047460FM-15+013199999V0202101N002610045719N009999199+02801+02501999999ADDGA1071+004571999GE19MSL   +99999+99999GF199999071999004571999999MA1101001999999REMMET051METAR SBIZ 101700Z 21005KT 9999 BKN015 28/25 Q1010=
0165825640999992017021018004-05531-047460FM-15+013199999V0203201N003110061019N009999199+03101+02401999999ADDGA1041+004571999GA2071+006101999GE19MSL   +99999+99999GF199999041999004571999999MA1100901999999REMMET058METAR SBIZ 101800Z 32006KT 9999 SCT015 BKN020 31/24 Q1009=
0165825640999992017021020004-05531-047460FM-15+013199999V0200401N002610061019N009999199+03001+02401999999ADDGA1021+004571999GA2071+006101999GE19MSL   +99999+99999GF199999021999004571999999MA1100901999999REMMET058METAR SBIZ 102000Z 04005KT 9999 FEW015 BKN020 30/24 Q1009=
0142825640999992017021021004-05531-047460FM-15+013199999V0200901N002110061019N009999199+02901+02501999999ADDGA1071+006101999GE19MSL   +99999+99999GF199999071999006101999999MA1100901999999REMMET051METAR SBIZ 102100Z 09004KT 9999 BKN020 29/25 Q1009=
0165825640999992017021022004-05531-047460FM-15+013199999V0200801N002610061019N009999199+02701+02601999999ADDGA1071+006101999GA2041+021341999GE19MSL   +99999+99999GF199999071999006101999999MA1101001999999REMMET058METAR SBIZ 102200Z 08005KT 9999 BKN020 SCT070 27/26 Q1010=
0165825640999992017021023004-05531-047460FM-15+013199999V0200401N002110061019N009999199+02701+02601999999ADDGA1071+006101999GA2071+021341999GE19MSL   +99999+99999GF199999071999006101999999MA1101101999999REMMET058METAR SBIZ 102300Z 04004KT 9999 BKN020 BKN070 27/26 Q1011=
0175825640999992017021100004-05531-047460FM-15+013199999V0203401N001510213419N009999199+02601+02601999999ADDGA1041+006101999GA2071+021341999GE19MSL   +99999+99999GF199999041999006101999999MA1101201999999MW1611REMMET062METAR SBIZ 110000Z 34003KT 9999 -RA SCT020 BKN070 26/26 Q1012=
0175825640999992017021108004-05531-047460FM-15+013199999V0201001N001510045719N009999199+02401+02401999999ADDGA1071+004571999GA2071+021341999GE19MSL   +99999+99999GF199999071999004571999999MA1101001999999MW1611REMMET062METAR SBIZ 110800Z 10003KT 9999 -RA BKN015 BKN070 24/24 Q1010=
0175825640999992017021109004-05531-047460FM-15+013199999V0203601N000510213419N008000199+02401+02401999999ADDGA1021+003661999GA2081+021341999GE19MSL   +99999+99999GF199999021999003661999999MA1101101999999MW1611REMMET062METAR SBIZ 110900Z 36001KT 8000 -RA FEW012 OVC070 24/24 Q1011=
0175825640999992017021110004-05531-047460FM-15+013199999V0209999C000010213419N009999199+02401+02401999999ADDGA1021+001521999GA2081+021341999GE19MSL   +99999+99999GF199999021999001521999999MA1101201999999MW1611REMMET062METAR SBIZ 111000Z 00000KT 9999 -RA FEW005 OVC070 24/24 Q1012=
0175825640999992017021111004-05531-047460FM-15+013199999V0203201N000510213419N009999199+02401+02401999999ADDGA1021+000611999GA2081+021341999GE19MSL   +99999+99999GF199999021999000611999999MA1101201999999MW1611REMMET062METAR SBIZ 111100Z 32001KT 9999 -RA FEW002 OVC070 24/24 Q1012=
0175825640999992017021113004-05531-047460FM-15+013199999V0202601N002110030519N009999199+02501+02501999999ADDGA1071+003051999GA2081+021341999GE19MSL   +99999+99999GF199999071999003051999999MA1101401999999MW1611REMMET062METAR SBIZ 111300Z 26004KT 9999 -RA BKN010 OVC070 25/25 Q1014=
0175825640999992017021114004-05531-047460FM-15+013199999V0203301N002110030519N009999199+02501+02501999999ADDGA1071+003051999GA2081+021341999GE19MSL   +99999+99999GF199999071999003051999999MA1101401999999MW1611REMMET062METAR SBIZ 111400Z 33004KT 9999 -RA BKN010 OVC070 25/25 Q1014=
0198825640999992017021115004-05531-047460FM-15+013199999V0203301N002610045719N009999199+02601+02501999999ADDGA1041+003051999GA2071+004571999GA3081+021341999GE19MSL   +99999+99999GF199999041999003051999999MA1101301999999MW1611REMMET069METAR SBIZ 111500Z 33005KT 9999 -RA SCT010 BKN015 OVC070 26/25 Q1013=
0165825640999992017021116004-05531-047460FM-15+013199999V0203401N003110045719N009999199+02801+02401999999ADDGA1071+004571999GA2071+021341999GE19MSL   +99999+99999GF199999071999004571999999MA1101201999999REMMET058METAR SBIZ 111600Z 34006KT 9999 BKN015 BKN070 28/24 Q1012=
0165825640999992017021118004-05531-047460FM-15+013199999V0202801N004610243819N009999199+02901+02401999999ADDGA1041+004571999GA2071+024381999GE19MSL   +99999+99999GF199999041999004571999999MA1100901999999REMMET058METAR SBIZ 111800Z 28009KT 9999 SCT015 BKN080 29/24 Q1009=
0188825640999992017021119004-05531-047460FM-15+013199999V0203601N00261006101CN009999199+03001+02501999999ADDGA1021+004571999GA2041+006101999GA3071+024381999GE19MSL   +99999+99999GF199999021999004571999999MA1100801999999REMMET065METAR SBIZ 111900Z 36005KT 9999 FEW015 SCT020 BKN080 30/25 Q1008=
0165825640999992017021120004-05531-047460FM-15+013199999V0203601N00261007621CN009999199+03001+02401999999ADDGA1021+004571999GA2041+007621999GE19MSL   +99999+99999GF199999021999004571999999MA1100801999999REMMET058METAR SBIZ 112000Z 36005KT 9999 FEW015 SCT025 30/24 Q1008=
0142825640999992017021121004-05531-047460FM-15+013199999V0203401N001510061019N009999199+02901+02301999999ADDGA1071+006101999GE19MSL   +99999+99999GF199999071999006101999999MA1100801999999REMMET051METAR SBIZ 112100Z 34003KT 9999 BKN020 29/23 Q1008=
0165825640999992017021122004-05531-047460FM-15+013199999V0203301N001510061019N009999199+02801+02401999999ADDGA1071+006101999GA2071+024381999GE19MSL   +99999+99999GF199999071999006101999999MA1100901999999REMMET058METAR SBIZ 112200Z 33003KT 9999 BKN020 BKN080 28/24 Q1009=
0188825640999992017021123004-05531-047460FM-15+013199999V0209999C00001006101CN009999199+02701+02501999999ADDGA1041+004571999GA2041+006101999GA3071+024381999GE19MSL   +99999+99999GF199999041999004571999999MA1101001999999REMMET065METAR SBIZ 112300Z 00000KT 9999 SCT015 SCT020 BKN080 27/25 Q1010=
0165825640999992017021200004-05531-047460FM-15+013199999V0201201N00211007621CN009999199+02701+02501999999ADDGA1021+004571999GA2041+007621999GE19MSL   +99999+99999GF199999021999004571999999MA1101101999999REMMET058METAR SBIZ 120000Z 12004KT 9999 FEW015 SCT025 27/25 Q1011=
0142825640999992017021208004-05531-047460FM-15+013199999V0209999C000019999999N009999199+02501+02501999999ADDGA1041+004571999GE19MSL   +99999+99999GF199999041999004571999999MA1100901999999REMMET051METAR SBIZ 120800Z 00000KT 9999 SCT015 25/25 Q1009=
0142825640999992017021209004-05531-047460FM-15+013199999V0209999C000010045719N009999199+02401+02401999999ADDGA1071+004571999GE19MSL   +99999+99999GF199999071999004571999999MA1101001999999REMMET051METAR SBIZ 120900Z 00000KT 9999 BKN015 24/24 Q1010=
0142825640999992017021210004-05531-047460FM-15+013199999V0209999C000010045719N009999199+02501+02401999999ADDGA1071+004571999GE19MSL   +99999+99999GF199999071999004571999999MA1101001999999REMMET051METAR SBIZ 121000Z 00000KT 9999 BKN015 25/24 Q1010=
0142825640999992017021211004-05531-047460FM-15+013199999V0201201N001510045719N009999199+02601+02401999999ADDGA1071+004571999GE19MSL   +99999+99999GF199999071999004571999999MA1101101999999REMMET051METAR SBIZ 121100Z 12003KT 9999 BKN015 26/24 Q1011=
0165825640999992017021212004-05531-047460FM-15+013199999V0201201N001510045719N009999199+02801+02401999999ADDGA1071+004571999GA2041+024381999GE19MSL   +99999+99999GF199999071999004571999999MA1101101999999REMMET058METAR SBIZ 121200Z 12003KT 9999 BKN015 SCT080 28/24 Q1011=
0165825640999992017021214004-05531-047460FM-15+013199999V0201101N002610061019N009999199+03101+02401999999ADDGA1071+006101999GA2071+024381999GE19MSL   +99999+99999GF199999071999006101999999MA1101101999999REMMET058METAR SBIZ 121400Z 11005KT 9999 BKN020 BKN080 31/24 Q1011=
0165825640999992017021215004-05531-047460FM-15+013199999V0201101N002110076219N009999199+03201+02301999999ADDGA1071+007621999GA2041+024381999GE19MSL   +99999+99999GF199999071999007621999999MA1101001999999REMMET058METAR SBIZ 121500Z 11004KT 9999 BKN025 SCT080 32/23 Q1010=
0165825640999992017021216004-05531-047460FM-15+013199999V0200501N00211009141CN009999199+03301+02401999999ADDGA1021+007621999GA2041+009141999GE19MSL   +99999+99999GF199999021999007621999999MA1100901999999REMMET058METAR SBIZ 121600Z 05004KT 9999 FEW025 SCT030 33/24 Q1009=
0175825640999992017021217004-05531-047460FM-15+013199999V0200501N004610091419N009999199+03101+02501999999ADDGA1041+007621999GA2071+009141999GE19MSL   +99999+99999GF199999041999007621999999MA1100801999999MW1611REMMET062METAR SBIZ 121700Z 05009KT 9999 -RA SCT025 BKN030 31/25 Q1008=
0180825640999992017021219004-05531-047460FM-15+013199999V0203301N00411009141CN009999199+02601+02501999999ADDGA1041+004571999GA2041+009141999GE19MSL   +99999+99999GF199999041999004571999999MA1100701999999MW1611REMMET067METAR SBIZ 121900Z 33008KT 9999 -RA SCT015 SCT030 26/25 Q1007 RERA=
0142825640999992017021221004-05531-047460FM-15+013199999V0203401N002119999999N009999199+02701+02601999999ADDGA1021+004571999GE19MSL   +99999+99999GF199999021999004571999999MA1100701999999REMMET051METAR SBIZ 122100Z 34004KT 9999 FEW015 27/26 Q1007=
0165825640999992017021222004-05531-047460FM-15+013199999V0200201N00151006101CN009999199+02701+02501999999ADDGA1021+004571999GA2041+006101999GE19MSL   +99999+99999GF199999021999004571999999MA1100801999999REMMET058METAR SBIZ 122200Z 02003KT 9999 FEW015 SCT020 27/25 Q1008=
0142825640999992017021223004-05531-047460FM-15+013199999V0200401N002119999999N009999199+02601+02501999999ADDGA1041+003051999GE19MSL   +99999+99999GF199999041999003051999999MA1100901999999REMMET051METAR SBIZ 122300Z 04004KT 9999 SCT010 26/25 Q1009=
0176825640999992017021300004-05531-047460FM-15+013199999V0200801N002119999999N009999199+02601+02501999999ADDGA1021+003051999GA2021+007621091GE19MSL   +99999+99999GF199999021999003051999999MA1101001999999MW1171REMMET063METAR SBIZ 130000Z 08004KT 9999 TS FEW010 FEW025CB 26/25 Q1010=
0198825640999992017021308004-05531-047460FM-15+013199999V0202601N000510045719N009999199+02401+02401999999ADDGA1041+003051999GA2071+004571999GA3071+021341999GE19MSL   +99999+99999GF199999041999003051999999MA1100901999999MW1611REMMET069METAR SBIZ 130800Z 26001KT 9999 -RA SCT010 BKN015 BKN070 24/24 Q1009=
0198825640999992017021309004-05531-047460FM-15+013199999V0201601N001010045719N009999199+02401+02401999999ADDGA1041+003051999GA2071+004571999GA3071+021341999GE19MSL   +99999+99999GF199999041999003051999999MA1100901999999MW1611REMMET069METAR SBIZ 130900Z 16002KT 9999 -RA SCT010 BKN015 BKN070 24/24 Q1009=
0165825640999992017021311004-05531-047460FM-15+013199999V0202601N001510030519N009999199+02501+02401999999ADDGA1071+003051999GA2071+021341999GE19MSL   +99999+99999GF199999071999003051999999MA1101101999999REMMET058METAR SBIZ 131100Z 26003KT 9999 BKN010 BKN070 25/24 Q1011=
0165825640999992017021312004-05531-047460FM-15+013199999V0202301N002610030519N009999199+02601+02501999999ADDGA1071+003051999GA2071+021341999GE19MSL   +99999+99999GF199999071999003051999999MA1101201999999REMMET058METAR SBIZ 131200Z 23005KT 9999 BKN010 BKN070 26/25 Q1012=
0174825640999992017021313004-05531-047460FM-15+013199999V0201301N002110030519N009999199+02501+02401999999ADDGA1071+003051999GA2071+021341999GE19MSL   +99999+99999GF199999071999003051999999MA1101201999999MW1631REMMET061METAR SBIZ 131300Z 13004KT 9999 RA BKN010 BKN070 25/24 Q1012=
0188825640999992017021314004-05531-047460FM-15+013199999V0201401N00101003051CN009999199+02601+02401999999ADDGA1021+000911999GA2041+003051999GA3081+021341999GE19MSL   +99999+99999GF199999021999000911999999MA1101201999999REMMET065METAR SBIZ 131400Z 14002KT 9999 FEW003 SCT010 OVC070 26/24 Q1012=
0203825640999992017021317004-05531-047460FM-15+013199999V0202901N004110027419N008000199+02501+02401999999ADDGA1041+000911999GA2071+002741999GA3081+021341999GE19MSL   +99999+99999GF199999041999000911999999MA1101001999999MW1611REMMET074METAR SBIZ 131700Z 29008KT 8000 -RA SCT003 BKN009 OVC070 25/24 Q1010 RERA=
0198825640999992017021318004-05531-047460FM-15+013199999V0203101N00311002741CN009999199+02501+02401999999ADDGA1021+000911999GA2041+002741999GA3081+021341999GE19MSL   +99999+99999GF199999021999000911999999MA1100901999999MW1611REMMET069METAR SBIZ 131800Z 31006KT 9999 -RA FEW003 SCT009 OVC070 25/24 Q1009=
0175825640999992017021320004-05531-047460FM-15+013199999V0209999C000010152419N009999199+02601+02501999999ADDGA1041+003961999GA2071+015241999GE19MSL   +99999+99999GF199999041999003961999999MA1100801999999MW1611REMMET062METAR SBIZ 132000Z 00000KT 9999 -RA SCT013 BKN050 26/25 Q1008=
0175825640999992017021322004-05531-047460FM-15+013199999V0201101N001510152419N009999199+02501+02401999999ADDGA1021+002131999GA2071+015241999GE19MSL   +99999+99999GF199999021999002131999999MA1100901999999MW1611REMMET062METAR SBIZ 132200Z 11003KT 9999 -RA FEW007 BKN050 25/24 Q1009=
0175825640999992017021323004-05531-047460FM-15+013199999V0201101N001010213419N009999199+02501+02401999999ADDGA1021+001521999GA2081+021341999GE19MSL   +99999+99999GF199999021999001521999999MA1101001999999MW1611REMMET062METAR SBIZ 132300Z 11002KT 9999 -RA FEW005 OVC070 25/24 Q1010=
0175825640999992017021400004-05531-047460FM-15+013199999V0201201N001510213419N009999199+02501+02501999999ADDGA1021+000911999GA2071+021341999GE19MSL   +99999+99999GF199999021999000911999999MA1101101999999MW1611REMMET062METAR SBIZ 140000Z 12003KT 9999 -RA FEW003 BKN070 25/25 Q1011=
0165825640999992017021408004-05531-047460FM-15+013199999V0209999C00001024381CN009999199+02401+02401999999ADDGA1021+003051999GA2041+024381999GE19MSL   +99999+99999GF199999021999003051999999MA1101101999999REMMET058METAR SBIZ 140800Z 00000KT 9999 FEW010 SCT080 24/24 Q1011=
0188825640999992017021409004-05531-047460FM-15+013199999V0209999C00001002441CN009999199+02401+02301999999ADDGA1021+000911999GA2041+002441999GA3071+021341999GE19MSL   +99999+99999GF199999021999000911999999MA1101101999999REMMET065METAR SBIZ 140900Z 00000KT 9999 FEW003 SCT008 BKN070 24/23 Q1011=
0165825640999992017021410004-05531-047460FM-15+013199999V0209999C000010213419N009999199+02401+02301999999ADDGA1021+003051999GA2071+021341999GE19MSL   +99999+99999GF199999021999003051999999MA1101101999999REMMET058METAR SBIZ 141000Z 00000KT 9999 FEW010 BKN070 24/23 Q1011=
0165825640999992017021412004-05531-047460FM-15+013199999V0201201N002610243819N009999199+02601+02301999999ADDGA1041+004571999GA2071+024381999GE19MSL   +99999+99999GF199999041999004571999999MA1101301999999REMMET058METAR SBIZ 141200Z 12005KT 9999 SCT015 BKN080 26/23 Q1013=
0165825640999992017021413004-05531-047460FM-15+013199999V0201401N002610045719N009999199+02801+02301999999ADDGA1071+004571999GA2041+021341999GE19MSL   +99999+99999GF199999071999004571999999MA1101301999999REMMET058METAR SBIZ 141300Z 14005KT 9999 BKN015 SCT070 28/23 Q1013=
0165825640999992017021414004-05531-047460FM-15+013199999V0201201N002610213419N009999199+03001+02301999999ADDGA1041+004571999GA2071+021341999GE19MSL   +99999+99999GF199999041999004571999999MA1101301999999REMMET058METAR SBIZ 141400Z 12005KT 9999 SCT015 BKN070 30/23 Q1013=
0165825640999992017021415004-05531-047460FM-15+013199999V0201201N002110152419N009999199+03001+02401999999ADDGA1041+005491999GA2071+015241999GE19MSL   +99999+99999GF199999041999005491999999MA1101201999999REMMET058METAR SBIZ 141500Z 12004KT 9999 SCT018 BKN050 30/24 Q1012=
0175825640999992017021416004-05531-047460FM-15+013199999V0200901N001510045719N009999199+02901+02401999999ADDGA1071+004571999GA2071+021341999GE19MSL   +99999+99999GF199999071999004571999999MA1101201999999MW1611REMMET062METAR SBIZ 141600Z 09003KT 9999 -RA BKN015 BKN070 29/24 Q1012=
0165825640999992017021417004-05531-047460FM-15+013199999V0200301N002610213419N009999199+03001+02601999999ADDGA1041+004571999GA2071+021341999GE19MSL   +99999+99999GF199999041999004571999999MA1101101999999REMMET058METAR SBIZ 141700Z 03005KT 9999 SCT015 BKN070 30/26 Q1011=
0165825640999992017021418004-05531-047460FM-15+013199999V0200201N002610213419N009999199+03101+02401999999ADDGA1041+005491999GA2071+021341999GE19MSL   +99999+99999GF199999041999005491999999MA1101001999999REMMET058METAR SBIZ 141800Z 02005KT 9999 SCT018 BKN070 31/24 Q1010=
0165825640999992017021419004-05531-047460FM-15+013199999V0203301N00261015241CN009999199+03201+02501999999ADDGA1041+006101999GA2041+015241999GE19MSL   +99999+99999GF199999041999006101999999MA1100901999999REMMET058METAR SBIZ 141900Z 33005KT 9999 SCT020 SCT050 32/25 Q1009=
0165825640999992017021420004-05531-047460FM-15+013199999V0203301N002110243819N009999199+03101+02401999999ADDGA1041+004571999GA2071+024381999GE19MSL   +99999+99999GF199999041999004571999999MA1100901999999REMMET058METAR SBIZ 142000Z 33004KT 9999 SCT015 BKN080 31/24 Q1009=
0142825640999992017021422004-05531-047460FM-15+013199999V0202501N001019999999N009999199+02901+02501999999ADDGA1041+004571999GE19MSL   +99999+99999GF199999041999004571999999MA1101001999999REMMET051METAR SBIZ 142200Z 25002KT 9999 SCT015 29/25 Q1010=
0142825640999992017021500004-05531-047460FM-15+013199999V0202101N001519999999N009999199+02701+02501999999ADDGA1041+004571999GE19MSL   +99999+99999GF199999041999004571999999MA1101201999999REMMET051METAR SBIZ 150000Z 21003KT 9999 SCT015 27/25 Q1012=
0072825640999992017021508004-05531-047460FM-15+013199999V0202201N001019999999Y999999999+02501+02401999999ADDMA1101301999999REMMET045METAR SBIZ 150800Z 22002KT CAVOK 25/24 Q1013=
0165825640999992017021509004-05531-047460FM-15+013199999V0202101N001010091419N009999199+02501+02501999999ADDGA1071+009141999GA2071+021341999GE19MSL   +99999+99999GF199999071999009141999999MA1101201999999REMMET058METAR SBIZ 150900Z 21002KT 9999 BKN030 BKN070 25/25 Q1012=
0165825640999992017021510004-05531-047460FM-15+013199999V0201701N001010121919N009999199+02401+02401999999ADDGA1071+012191999GA2041+024381999GE19MSL   +99999+99999GF199999071999012191999999MA1101201999999REMMET058METAR SBIZ 151000Z 17002KT 9999 BKN040 SCT080 24/24 Q1012=
0142825640999992017021511004-05531-047460FM-15+013199999V0201501N001510106719N009999199+02501+02401999999ADDGA1071+010671999GE19MSL   +99999+99999GF199999071999010671999999MA1101301999999REMMET051METAR SBIZ 151100Z 15003KT 9999 BKN035 25/24 Q1013=
0188825640999992017021512004-05531-047460FM-15+013199999V0201601N00151010671CN009999199+02601+02401999999ADDGA1021+003051999GA2041+010671999GA3071+024381999GE19MSL   +99999+99999GF199999021999003051999999MA1101401999999REMMET065METAR SBIZ 151200Z 16003KT 9999 FEW010 SCT035 BKN080 26/24 Q1014=
0188825640999992017021513004-05531-047460FM-15+013199999V0201901N00211012191CN009999199+02801+02401999999ADDGA1021+003661999GA2041+012191999GA3071+024381999GE19MSL   +99999+99999GF199999021999003661999999MA1101501999999REMMET065METAR SBIZ 151300Z 19004KT 9999 FEW012 SCT040 BKN080 28/24 Q1015=
0165825640999992017021515004-05531-047460FM-15+013199999V0201601N003110045719N009999199+03201+02301999999ADDGA1071+004571999GA2041+024381999GE19MSL   +99999+99999GF199999071999004571999999MA1101401999999REMMET058METAR SBIZ 151500Z 16006KT 9999 BKN015 SCT080 32/23 Q1014=
0165825640999992017021516004-05531-047460FM-15+013199999V0201501N005110061019N009999199+03301+02201999999ADDGA1021+004571999GA2071+006101999GE19MSL   +99999+99999GF199999021999004571999999MA1101301999999REMMET058METAR SBIZ 151600Z 15010KT 9999 FEW015 BKN020 33/22 Q1013=
0165825640999992017021517004-05531-047460FM-15+013199999V0201501N004610045719N009999199+03301+02301999999ADDGA1071+004571999GA2041+006101999GE19MSL   +99999+99999GF199999071999004571999999MA1101201999999REMMET058METAR SBIZ 151700Z 15009KT 9999 BKN015 SCT020 33/23 Q1012=
0165825640999992017021518004-05531-047460FM-15+013199999V0201501N003110061019N009999199+03401+02301999999ADDGA1021+004571999GA2071+006101999GE19MSL   +99999+99999GF199999021999004571999999MA1101101999999REMMET058METAR SBIZ 151800Z 15006KT 9999 FEW015 BKN020 34/23 Q1011=
0165825640999992017021520004-05531-047460FM-15+013199999V0202101N002610213419N009999199+03201+02401999999ADDGA1041+006101999GA2071+021341999GE19MSL   +99999+99999GF199999041999006101999999MA1101001999999REMMET058METAR SBIZ 152000Z 21005KT 9999 SCT020 BKN070 32/24 Q1010=
0165825640999992017021521004-05531-047460FM-15+013199999V0202101N001510213419N009999199+03101+02401999999ADDGA1021+006101999GA2071+021341999GE19MSL   +99999+99999GF199999021999006101999999MA1101101999999REMMET058METAR SBIZ 152100Z 21003KT 9999 FEW020 BKN070 31/24 Q1011=
0165825640999992017021522004-05531-047460FM-15+013199999V0201601N001510213419N009999199+02901+02501999999ADDGA1021+006101999GA2071+021341999GE19MSL   +99999+99999GF199999021999006101999999MA1101101999999REMMET058METAR SBIZ 152200Z 16003KT 9999 FEW020 BKN070 29/25 Q1011=
0072825640999992017021523004-05531-047460FM-15+013199999V0202401N001519999999Y999999999+02801+02501999999ADDMA1101201999999REMMET045METAR SBIZ 152300Z 24003KT CAVOK 28/25 Q1012=
0072825640999992017021600004-05531-047460FM-15+013199999V0202301N001519999999Y999999999+02701+02401999999ADDMA1101301999999REMMET045METAR SBIZ 160000Z 23003KT CAVOK 27/24 Q1013=
0142825640999992017021608004-05531-047460FM-15+013199999V0202601N000519999999N009999199+02501+02301999999ADDGA1041+013721999GE19MSL   +99999+99999GF199999041999013721999999MA1101201999999REMMET051METAR SBIZ 160800Z 26001KT 9999 SCT045 25/23 Q1012=
0142825640999992017021609004-05531-047460FM-15+013199999V0201501N000519999999N009999199+02501+02301999999ADDGA1041+012191999GE19MSL   +99999+99999GF199999041999012191999999MA1101301999999REMMET051METAR SBIZ 160900Z 15001KT 9999 SCT040 25/23 Q1013=
0165825640999992017021610004-05531-047460FM-15+013199999V0200601N002110304819N009999199+02501+02301999999ADDGA1041+012191999GA2071+030481999GE19MSL   +99999+99999GF199999041999012191999999MA1101401999999REMMET058METAR SBIZ 161000Z 06004KT 9999 SCT040 BKN100 25/23 Q1014=
0165825640999992017021611004-05531-047460FM-15+013199999V0200701N001510304819N009999199+02601+02301999999ADDGA1021+012191999GA2071+030481999GE19MSL   +99999+99999GF199999021999012191999999MA1101501999999REMMET058METAR SBIZ 161100Z 07003KT 9999 FEW040 BKN100 26/23 Q1015=
0188825640999992017021613004-05531-047460FM-15+013199999V0202801N00261009141CN009999199+02701+02401999999ADDGA1021+003661999GA2041+009141999GA3071+024381999GE19MSL   +99999+99999GF199999021999003661999999MA1101602999999REMMET065METAR SBIZ 161300Z 28005KT 9999 FEW012 SCT030 BKN080 27/24 Q1016=
0165825640999992017021614004-05531-047460FM-15+013199999V0202501N002610045719N009999199+02801+02301999999ADDGA1071+004571999GA2071+024381999GE19MSL   +99999+99999GF199999071999004571999999MA1101602999999REMMET058METAR SBIZ 161400Z 25005KT 9999 BKN015 BKN080 28/23 Q1016=
0165825640999992017021616004-05531-047460FM-15+013199999V0203101N003610243819N009999199+03001+02301999999ADDGA1041+004571999GA2071+024381999GE19MSL   +99999+99999GF199999041999004571999999MA1101401999999REMMET058METAR SBIZ 161600Z 31007KT 9999 SCT015 BKN080 30/23 Q1014=
0165825640999992017021617004-05531-047460FM-15+013199999V0202601N003110243819N009999199+03101+02301999999ADDGA1041+004571999GA2071+024381999GE19MSL   +99999+99999GF199999041999004571999999MA1101301999999REMMET058METAR SBIZ 161700Z 26006KT 9999 SCT015 BKN080 31/23 Q1013=
0188825640999992017021618004-05531-047460FM-15+013199999V0202401N00261006101CN009999199+03101+02401999999ADDGA1021+004571999GA2041+006101999GA3071+024381999GE19MSL   +99999+99999GF199999021999004571999999MA1101201999999REMMET065METAR SBIZ 161800Z 24005KT 9999 FEW015 SCT020 BKN080 31/24 Q1012=
0142825640999992017021620004-05531-047460FM-15+013199999V0202401N003119999999N009999199+03201+02701999999ADDGA1041+007621999GE19MSL   +99999+99999GF199999041999007621999999MA1101101999999REMMET051METAR SBIZ 162000Z 24006KT 9999 SCT025 32/27 Q1011=
0142825640999992017021621004-05531-047460FM-15+013199999V0202401N002119999999N009999199+03101+02401999999ADDGA1021+007621999GE19MSL   +99999+99999GF199999021999007621999999MA1101101999999REMMET051METAR SBIZ 162100Z 24004KT 9999 FEW025 31/24 Q1011=
0165825640999992017021623004-05531-047460FM-15+013199999V0201201N00101025301CN009999199+02801+02401999999ADDGA1021+006101999GA2041+025301999GE19MSL   +99999+99999GF199999021999006101999999MA1101201999999REMMET058METAR SBIZ 162300Z 12002KT 9999 FEW020 SCT083 28/24 Q1012=
0165825640999992017021700004-05531-047460FM-15+013199999V0200901N00151030481CN009999199+02601+02501999999ADDGA1021+006101999GA2041+030481999GE19MSL   +99999+99999GF199999021999006101999999MA1101301999999REMMET058METAR SBIZ 170000Z 09003KT 9999 FEW020 SCT100 26/25 Q1013=
0142825640999992017021708004-05531-047460FM-15+013199999V0209999C000010045719N009999199+02501+02501999999ADDGA1071+004571999GE19MSL   +99999+99999GF199999071999004571999999MA1101201999999REMMET051METAR SBIZ 170800Z 00000KT 9999 BKN015 25/25 Q1012=
0142825640999992017021709004-05531-047460FM-15+013199999V0200801N002110045719N009999199+02501+02401999999ADDGA1071+004571999GE19MSL   +99999+99999GF199999071999004571999999MA1101201999999REMMET051METAR SBIZ 170900Z 08004KT 9999 BKN015 25/24 Q1012=
0142825640999992017021711004-05531-047460FM-15+013199999V0200201N001510045719N009999199+02601+02401999999ADDGA1071+004571999GE19MSL   +99999+99999GF199999071999004571999999MA1101301999999REMMET051METAR SBIZ 171100Z 02003KT 9999 BKN015 26/24 Q1013=
0165825640999992017021712004-05531-047460FM-15+013199999V0203601N003110045719N009999199+02801+02401999999ADDGA1041+003661999GA2081+004571999GE19MSL   +99999+99999GF199999041999003661999999MA1101401999999REMMET058METAR SBIZ 171200Z 36006KT 9999 SCT012 OVC015 28/24 Q1014=
0165825640999992017021713004-05531-047460FM-15+013199999V0203501N004110045719N009999199+02801+02501999999ADDGA1041+003661999GA2081+004571999GE19MSL   +99999+99999GF199999041999003661999999MA1101401999999REMMET058METAR SBIZ 171300Z 35008KT 9999 SCT012 OVC015 28/25 Q1014=
0165825640999992017021714004-05531-047460FM-15+013199999V0200601N003110061019N009999199+02901+02401999999ADDGA1041+004571999GA2071+006101999GE19MSL   +99999+99999GF199999041999004571999999MA1101401999999REMMET058METAR SBIZ 171400Z 06006KT 9999 SCT015 BKN020 29/24 Q1014=
0165825640999992017021715004-05531-047460FM-15+013199999V0200301N003610061019N009999199+03001+02301999999ADDGA1041+004571999GA2071+006101999GE19MSL   +99999+99999GF199999041999004571999999MA1101401999999REMMET058METAR SBIZ 171500Z 03007KT 9999 SCT015 BKN020 30/23 Q1014=
0165825640999992017021716004-05531-047460FM-15+013199999V0200401N003610061019N009999199+03001+02301999999ADDGA1021+004571999GA2071+006101999GE19MSL   +99999+99999GF199999021999004571999999MA1101301999999REMMET058METAR SBIZ 171600Z 04007KT 9999 FEW015 BKN020 30/23 Q1013=
0165825640999992017021717004-05531-047460FM-15+013199999V0203601N003110243819N009999199+03001+02301999999ADDGA1041+006101999GA2071+024381999GE19MSL   +99999+99999GF199999041999006101999999MA1101201999999REMMET058METAR SBIZ 171700Z 36006KT 9999 SCT020 BKN080 30/23 Q1012=
0142825640999992017021718004-05531-047460FM-15+013199999V0200201N002619999999N009999199+02901+02301999999ADDGA1041+006101999GE19MSL   +99999+99999GF199999041999006101999999MA1101101999999REMMET051METAR SBIZ 171800Z 02005KT 9999 SCT020 29/23 Q1011=
0142825640999992017021719004-05531-047460FM-15+013199999V0203001N003119999999N009999199+03001+02301999999ADDGA1021+006101999GE19MSL   +99999+99999GF199999021999006101999999MA1101001999999REMMET051METAR SBIZ 171900Z 30006KT 9999 FEW020 30/23 Q1010=
0165825640999992017021720004-05531-047460FM-15+013199999V0203201N002610243819N009999199+03001+02401999999ADDGA1021+006101999GA2071+024381999GE19MSL   +99999+99999GF199999021999006101999999MA1100901999999REMMET058METAR SBIZ 172000Z 32005KT 9999 FEW020 BKN080 30/24 Q1009=
0198825640999992017021721004-05531-047460FM-15+013199999V0203101N00211009141CN009999199+02901+02401999999ADDGA1021+006101999GA2041+009141999GA3071+024381999GE19MSL   +99999+99999GF199999021999006101999999MA1101101999999MW1611REMMET069METAR SBIZ 172100Z 31004KT 9999 -RA FEW020 SCT030 BKN080 29/24 Q1011=
0211825640999992017021723004-05531-047460FM-15+013199999V0203001N002610243819N009999199+02701+02501999999ADDGA1021+004571999GA2021+007621091GA3071+024381999GE19MSL   +99999+99999GF199999021999004571999999MA1101201999999MW1131MW2611REMMET076METAR SBIZ 172300Z 30005KT 9999 -RA VCTS FEW015 FEW025CB BKN080 27/25 Q1012=
0201825640999992017021800004-05531-047460FM-15+013199999V0203301N00261024381CN009999199+02601+02501999999ADDGA1021+004571999GA2021+007621091GA3041+024381999GE19MSL   +99999+99999GF199999021999004571999999MA1101301999999MW1131REMMET072METAR SBIZ 180000Z 33005KT 9999 VCTS FEW015 FEW025CB SCT080 26/25 Q1013=
0198825640999992017021808004-05531-047460FM-15+013199999V0203601N001510045719N009999199+02401+02401999999ADDGA1021+002441999GA2071+004571999GA3071+021341999GE19MSL   +99999+99999GF199999021999002441999999MA1101301999999MW1611REMMET069METAR SBIZ 180800Z 36003KT 9999 -RA FEW008 BKN015 BKN070 24/24 Q1013=
0175825640999992017021809004-05531-047460FM-15+013199999V0203601N001510045719N009999199+02401+02401999999ADDGA1071+004571999GA2071+021341999GE19MSL   +99999+99999GF199999071999004571999999MA1101301999999MW1611REMMET062METAR SBIZ 180900Z 36003KT 9999 -RA BKN015 BKN070 24/24 Q1013=
0165825640999992017021811004-05531-047460FM-15+013199999V0203401N001010045719N009999199+02401+02401999999ADDGA1071+004571999GA2071+021341999GE19MSL   +99999+99999GF199999071999004571999999MA1101401999999REMMET058METAR SBIZ 181100Z 34002KT 9999 BKN015 BKN070 24/24 Q1014=
0165825640999992017021812004-05531-047460FM-15+013199999V0203601N002110045719N009999199+02601+02401999999ADDGA1071+004571999GA2071+021341999GE19MSL   +99999+99999GF199999071999004571999999MA1101501999999REMMET058METAR SBIZ 181200Z 36004KT 9999 BKN015 BKN070 26/24 Q1015=
0165825640999992017021813004-05531-047460FM-15+013199999V0203501N001510045719N009999199+02801+02401999999ADDGA1071+004571999GA2071+021341999GE19MSL   +99999+99999GF199999071999004571999999MA1101501999999REMMET058METAR SBIZ 181300Z 35003KT 9999 BKN015 BKN070 28/24 Q1015=
0165825640999992017021816004-05531-047460FM-15+013199999V0201301N001510045719N009999199+03001+02501999999ADDGA1071+004571999GA2071+021341999GE19MSL   +99999+99999GF199999071999004571999999MA1101401999999REMMET058METAR SBIZ 181600Z 13003KT 9999 BKN015 BKN070 30/25 Q1014=
0168825640999992017021817004-05531-047460FM-15+013199999V0203201N002619999999N009999199+03001+02401999999ADDGA1041+006101999GA2021+007621081GE19MSL   +99999+99999GF199999041999006101999999MA1101201999999REMMET061METAR SBIZ 181700Z 32005KT 9999 SCT020 FEW025TCU 30/24 Q1012=
0142825640999992017021818004-05531-047460FM-15+013199999V0202701N001519999999N009999199+03001+02501999999ADDGA1021+006101999GE19MSL   +99999+99999GF199999021999006101999999MA1101101999999REMMET051METAR SBIZ 181800Z 27003KT 9999 FEW020 30/25 Q1011=
0142825640999992017021819004-05531-047460FM-15+013199999V0202101N001019999999N009999199+03001+02501999999ADDGA1021+006101999GE19MSL   +99999+99999GF199999021999006101999999MA1101001999999REMMET051METAR SBIZ 181900Z 21002KT 9999 FEW020 30/25 Q1010=
0142825640999992017021820004-05531-047460FM-15+013199999V0201901N001519999999N009999199+03101+02401999999ADDGA1041+006101999GE19MSL   +99999+99999GF199999041999006101999999MA1100901999999REMMET051METAR SBIZ 182000Z 19003KT 9999 SCT020 31/24 Q1009=
0191825640999992017021821004-05531-047460FM-15+013199999V0202001N001019999999N009999199+03101+02401999999ADDGA1041+006101999GA2021+007621081GA3041+024381999GE19MSL   +99999+99999GF199999041999006101999999MA1101001999999REMMET068METAR SBIZ 182100Z 20002KT 9999 SCT020 FEW025TCU SCT080 31/24 Q1010=
0170825640999992017021823004-05531-047460FM-15+013199999V0200201N00151024381CN009999199+02901+02601999999ADDGA1041+007621999GA2041+024381999GE19MSL   +99999+99999GF199999041999007621999999MA1101201999999REMMET063METAR SBIZ 182300Z 02003KT 9999 SCT025 SCT080 29/26 Q1012 RETS=
0176825640999992017021900004-05531-047460FM-15+013199999V0200701N00151009141CN009999199+02801+02601999999ADDGA1041+007621091GA2041+009141999GE19MSL   +99999+99999GF199999041999007621999999MA1101301999999MW1171REMMET063METAR SBIZ 190000Z 07003KT 9999 TS SCT025CB SCT030 28/26 Q1013=
0198825640999992017021909004-05531-047460FM-15+013199999V0203301N00101006101CN009999199+02401+02301999999ADDGA1021+001521999GA2041+006101999GA3081+021341999GE19MSL   +99999+99999GF199999021999001521999999MA1101201999999MW1611REMMET069METAR SBIZ 190900Z 33002KT 9999 -RA FEW005 SCT020 OVC070 24/23 Q1012=
0188825640999992017021910004-05531-047460FM-15+013199999V0202601N00101010671CN009999199+02401+02401999999ADDGA1021+002131999GA2041+010671999GA3081+024381999GE19MSL   +99999+99999GF199999021999002131999999MA1101301999999REMMET065METAR SBIZ 191000Z 26002KT 9999 FEW007 SCT035 OVC080 24/24 Q1013=
0165825640999992017021911004-05531-047460FM-15+013199999V0209999C000010243819N009999199+02401+02401999999ADDGA1041+002741999GA2081+024381999GE19MSL   +99999+99999GF199999041999002741999999MA1101401999999REMMET058METAR SBIZ 191100Z 00000KT 9999 SCT009 OVC080 24/24 Q1014=
0165825640999992017021912004-05531-047460FM-15+013199999V0201801N000510243819N009999199+02501+02401999999ADDGA1041+003051999GA2071+024381999GE19MSL   +99999+99999GF199999041999003051999999MA1101501999999REMMET058METAR SBIZ 191200Z 18001KT 9999 SCT010 BKN080 25/24 Q1015=
0165825640999992017021913004-05531-047460FM-15+013199999V0201401N001010045719N009999199+02601+02401999999ADDGA1071+004571999GA2071+024381999GE19MSL   +99999+99999GF199999071999004571999999MA1101501999999REMMET058METAR SBIZ 191300Z 14002KT 9999 BKN015 BKN080 26/24 Q1015=
0165825640999992017021914004-05531-047460FM-15+013199999V0202901N001010304819N009999199+02801+02401999999ADDGA1021+004571999GA2071+030481999GE19MSL   +99999+99999GF199999021999004571999999MA1101401999999REMMET058METAR SBIZ 191400Z 29002KT 9999 FEW015 BKN100 28/24 Q1014=
0165825640999992017021915004-05531-047460FM-15+013199999V0200901N001010243819N009999199+02801+02401999999ADDGA1041+004571999GA2071+024381999GE19MSL   +99999+99999GF199999041999004571999999MA1101401999999REMMET058METAR SBIZ 191500Z 09002KT 9999 SCT015 BKN080 28/24 Q1014=
0165825640999992017021916004-05531-047460FM-15+013199999V0201001N001010243819N009999199+03001+02401999999ADDGA1041+004571999GA2071+024381999GE19MSL   +99999+99999GF199999041999004571999999MA1101301999999REMMET058METAR SBIZ 191600Z 10002KT 9999 SCT015 BKN080 30/24 Q1013=
0165825640999992017021917004-05531-047460FM-15+013199999V0202501N002610243819N009999199+03201+02501999999ADDGA1041+004571999GA2071+024381999GE19MSL   +99999+99999GF199999041999004571999999MA1101101999999REMMET058METAR SBIZ 191700Z 25005KT 9999 SCT015 BKN080 32/25 Q1011=
0165825640999992017021918004-05531-047460FM-15+013199999V0202401N00261024381CN009999199+03201+02401999999ADDGA1041+006101999GA2041+024381999GE19MSL   +99999+99999GF199999041999006101999999MA1101001999999REMMET058METAR SBIZ 191800Z 24005KT 9999 SCT020 SCT080 32/24 Q1010=
0165825640999992017021920004-05531-047460FM-15+013199999V0202401N00361024381CN009999199+03201+02501999999ADDGA1041+006101999GA2041+024381999GE19MSL   +99999+99999GF199999041999006101999999MA1100801999999REMMET058METAR SBIZ 192000Z 24007KT 9999 SCT020 SCT080 32/25 Q1008=
0176825640999992017021921004-05531-047460FM-15+013199999V0201801N00211024381CN009999199+03201+02601999999ADDGA1021+007621091GA2041+024381999GE19MSL   +99999+99999GF199999021999007621999999MA1100901999999MW1171REMMET063METAR SBIZ 192100Z 18004KT 9999 TS FEW025CB SCT080 32/26 Q1009=
0210825640999992017021922004-05531-047460FM-15+013199999V0200401N001510061019N009999199+02701+02701999999ADDGA1071+006101999GA2021+007621091GA3041+024381999GE19MSL   +99999+99999GF199999071999006101999999MA1101001999999MW1161MW2171REMMET075METAR SBIZ 192200Z 04003KT 9999 TS VCSH BKN020 FEW025CB SCT080 27/27 Q1010=
0216825640999992017021923004-05531-047460FM-15+013199999V0201001N001510243819N009999199+02701+02501999999ADDGA1021+006101999GA2021+007621091GA3071+024381999GE19MSL   +99999+99999GF199999021999006101999999MA1101101999999MW1131MW2611REMMET081METAR SBIZ 192300Z 10003KT 9999 -RA VCTS FEW020 FEW025CB BKN080 27/25 Q1011 RETS=
0178825640999992017022000004-05531-047460FM-15+013199999V0201601N00101009141CN009999199+02701+02701999999ADDGA1021+007621091GA2041+009141999GE19MSL   +99999+99999GF199999021999007621999999MA1101201999999MW1131REMMET065METAR SBIZ 200000Z 16002KT 9999 VCTS FEW025CB SCT030 27/27 Q1012=
0142825640999992017022001004-05531-047460FM-15+013199999V0200701N002619999999N009999199+02701+02701999999ADDGA1021+004571999GE19MSL   +99999+99999GF199999021999004571999999MA1101201999999REMMET051METAR SBIZ 200100Z 07005KT 9999 FEW015 27/27 Q1012=
0175825640999992017022009004-05531-047460FM-15+013199999V0203501N002110036619N009999199+02601+02401999999ADDGA1021+001521999GA2071+003661999GE19MSL   +99999+99999GF199999021999001521999999MA1101301999999MW1611REMMET062METAR SBIZ 200900Z 35004KT 9999 -RA FEW005 BKN012 26/24 Q1013=
0175825640999992017022011004-05531-047460FM-15+013199999V0203501N001010243819N009999199+02501+02401999999ADDGA1041+003051999GA2081+024381999GE19MSL   +99999+99999GF199999041999003051999999MA1101401999999MW1611REMMET062METAR SBIZ 201100Z 35002KT 9999 -RA SCT010 OVC080 25/24 Q1014=
0165825640999992017022013004-05531-047460FM-15+013199999V0200701N002610243819N009999199+02701+02401999999ADDGA1041+004571999GA2071+024381999GE19MSL   +99999+99999GF199999041999004571999999MA1101401999999REMMET058METAR SBIZ 201300Z 07005KT 9999 SCT015 BKN080 27/24 Q1014=
0165825640999992017022014004-05531-047460FM-15+013199999V0200301N002610304819N009999199+02901+02401999999ADDGA1041+005491999GA2071+030481999GE19MSL   +99999+99999GF199999041999005491999999MA1101301999999REMMET058METAR SBIZ 201400Z 03005KT 9999 SCT018 BKN100 29/24 Q1013=
0165825640999992017022015004-05531-047460FM-15+013199999V0200801N00261024381CN009999199+03001+02401999999ADDGA1041+005491999GA2041+024381999GE19MSL   +99999+99999GF199999041999005491999999MA1101301999999REMMET058METAR SBIZ 201500Z 08005KT 9999 SCT018 SCT080 30/24 Q1013=
0165825640999992017022016004-05531-047460FM-15+013199999V0201301N002110054919N009999199+03201+02401999999ADDGA1071+005491999GA2041+024381999GE19MSL   +99999+99999GF199999071999005491999999MA1101101999999REMMET058METAR SBIZ 201600Z 13004KT 9999 BKN018 SCT080 32/24 Q1011=
0165825640999992017022017004-05531-047460FM-15+013199999V0201101N003110051819N009999199+03201+02401999999ADDGA1071+005181999GA2041+024381999GE19MSL   +99999+99999GF199999071999005181999999MA1101001999999REMMET058METAR SBIZ 201700Z 11006KT 9999 BKN017 SCT080 32/24 Q1010=
0165825640999992017022018004-05531-047460FM-15+013199999V0201601N002110061019N009999199+03301+02301999999ADDGA1071+006101999GA2041+021341999GE19MSL   +99999+99999GF199999071999006101999999MA1100901999999REMMET058METAR SBIZ 201800Z 16004KT 9999 BKN020 SCT070 33/23 Q1009=
0199825640999992017022019004-05531-047460FM-15+013199999V0203301N00101006101CN009999199+02901+02401999999ADDGA1041+003661999GA2041+006101999GA3071+021341999GE19MSL   +99999+99999GF199999041999003661999999MA1100801999999MW1161REMMET070METAR SBIZ 201900Z 33002KT 9999 VCSH SCT012 SCT020 BKN070 29/24 Q1008=
0165825640999992017022022004-05531-047460FM-15+013199999V0203001N002110213419N009999199+02701+02501999999ADDGA1041+003661999GA2071+021341999GE19MSL   +99999+99999GF199999041999003661999999MA1101001999999REMMET058METAR SBIZ 202200Z 30004KT 9999 SCT012 BKN070 27/25 Q1010=
0202825640999992017022023004-05531-047460FM-15+013199999V0200701N002610213419N009000199+02501+02401999999ADDGA1041+003661999GA2021+007621091GA3081+021341999GE19MSL   +99999+99999GF199999041999003661999999MA1101101999999MW1951REMMET073METAR SBIZ 202300Z 07005KT 9000 -TSRA SCT012 FEW025CB OVC070 25/24 Q1011=
0180825640999992017022101004-05531-047460FM-15+013199999V0200201N002110045719N009000199+02501+02401999999ADDGA1071+004571999GA2081+021341999GE19MSL   +99999+99999GF199999071999004571999999MA1101201999999MW1611REMMET067METAR SBIZ 210100Z 02004KT 9000 -RA BKN015 OVC070 25/24 Q1012 RETS=
0198825640999992017022109004-05531-047460FM-15+013199999V0209999C000010045719N009999199+02301+02301999999ADDGA1041+003051999GA2071+004571999GA3071+024381999GE19MSL   +99999+99999GF199999041999003051999999MA1101301999999MW1611REMMET069METAR SBIZ 210900Z 00000KT 9999 -RA SCT010 BKN015 BKN080 23/23 Q1013=
0198825640999992017022110004-05531-047460FM-15+013199999V0200801N001010045719N009999199+02301+02301999999ADDGA1021+003051999GA2071+004571999GA3071+024381999GE19MSL   +99999+99999GF199999021999003051999999MA1101301999999MW1611REMMET069METAR SBIZ 211000Z 08002KT 9999 -RA FEW010 BKN015 BKN080 23/23 Q1013=
0188825640999992017022111004-05531-047460FM-15+013199999V0200401N00101004571CN009999199+02301+02301999999ADDGA1021+003051999GA2041+004571999GA3071+024381999GE19MSL   +99999+99999GF199999021999003051999999MA1101301999999REMMET065METAR SBIZ 211100Z 04002KT 9999 FEW010 SCT015 BKN080 23/23 Q1013=
0188825640999992017022113004-05531-047460FM-15+013199999V0203501N00211005491CN009999199+02601+02301999999ADDGA1021+003051999GA2041+005491999GA3071+024381999GE19MSL   +99999+99999GF199999021999003051999999MA1101301999999REMMET065METAR SBIZ 211300Z 35004KT 9999 FEW010 SCT018 BKN080 26/23 Q1013=
0165825640999992017022114004-05531-047460FM-15+013199999V0202201N00101030481CN009999199+02901+02301999999ADDGA1021+004571999GA2041+030481999GE19MSL   +99999+99999GF199999021999004571999999MA1101301999999REMMET058METAR SBIZ 211400Z 22002KT 9999 FEW015 SCT100 29/23 Q1013=
0165825640999992017022115004-05531-047460FM-15+013199999V0201901N001510243819N009999199+03001+02401999999ADDGA1041+004571999GA2071+024381999GE19MSL   +99999+99999GF199999041999004571999999MA1101201999999REMMET058METAR SBIZ 211500Z 19003KT 9999 SCT015 BKN080 30/24 Q1012=
0165825640999992017022116004-05531-047460FM-15+013199999V0202401N003110243819N009999199+03101+02401999999ADDGA1041+004571999GA2071+024381999GE19MSL   +99999+99999GF199999041999004571999999MA1101101999999REMMET058METAR SBIZ 211600Z 24006KT 9999 SCT015 BKN080 31/24 Q1011=
0165825640999992017022118004-05531-047460FM-15+013199999V0202401N003610243819N009999199+03001+02501999999ADDGA1021+004571999GA2071+024381999GE19MSL   +99999+99999GF199999021999004571999999MA1100901999999REMMET058METAR SBIZ 211800Z 24007KT 9999 FEW015 BKN080 30/25 Q1009=
0165825640999992017022119004-05531-047460FM-15+013199999V0201901N002610243819N009999199+02901+02501999999ADDGA1021+006101999GA2071+024381999GE19MSL   +99999+99999GF199999021999006101999999MA1100901999999REMMET058METAR SBIZ 211900Z 19005KT 9999 FEW020 BKN080 29/25 Q1009=
0165825640999992017022121004-05531-047460FM-15+013199999V0202401N00151024381CN009999199+03001+02501999999ADDGA1021+006101999GA2041+024381999GE19MSL   +99999+99999GF199999021999006101999999MA1100901999999REMMET058METAR SBIZ 212100Z 24003KT 9999 FEW020 SCT080 30/25 Q1009=
0165825640999992017022122004-05531-047460FM-15+013199999V0202501N001510243819N009999199+02701+02501999999ADDGA1021+004571999GA2071+024381999GE19MSL   +99999+99999GF199999021999004571999999MA1101001999999REMMET058METAR SBIZ 212200Z 25003KT 9999 FEW015 BKN080 27/25 Q1010=
0199825640999992017022123004-05531-047460FM-15+013199999V0201501N001010243819N009999199+02701+02601999999ADDGA1041+004571999GA2021+007621091GA3071+024381999GE19MSL   +99999+99999GF199999041999004571999999MA1101001999999MW1171REMMET070METAR SBIZ 212300Z 15002KT 9999 TS SCT015 FEW025CB BKN080 27/26 Q1010=
0170825640999992017022200004-05531-047460FM-15+013199999V0203601N002610213419N009999199+02701+02501999999ADDGA1041+004571999GA2071+021341999GE19MSL   +99999+99999GF199999041999004571999999MA1101101999999REMMET063METAR SBIZ 220000Z 36005KT 9999 SCT015 BKN070 27/25 Q1011 RETS=
0165825640999992017022201004-05531-047460FM-15+013199999V0200601N001510243819N009999199+02701+02501999999ADDGA1041+004571999GA2071+024381999GE19MSL   +99999+99999GF199999041999004571999999MA1101201999999REMMET058METAR SBIZ 220100Z 06003KT 9999 SCT015 BKN080 27/25 Q1012=
0142825640999992017022209004-05531-047460FM-15+013199999V0201801N003110045719N009999199+02501+02401999999ADDGA1071+004571999GE19MSL   +99999+99999GF199999071999004571999999MA1101001999999REMMET051METAR SBIZ 220900Z 18006KT 9999 BKN015 25/24 Q1010=
0165825640999992017022210004-05531-047460FM-15+013199999V0200301N001510045719N009999199+02501+02401999999ADDGA1021+003661999GA2071+004571999GE19MSL   +99999+99999GF199999021999003661999999MA1101101999999REMMET058METAR SBIZ 221000Z 03003KT 9999 FEW012 BKN015 25/24 Q1011=
0142825640999992017022211004-05531-047460FM-15+013199999V0200101N001510045719N009999199+02601+02401999999ADDGA1071+004571999GE19MSL   +99999+99999GF199999071999004571999999MA1101201999999REMMET051METAR SBIZ 221100Z 01003KT 9999 BKN015 26/24 Q1012=
0142825640999992017022212004-05531-047460FM-15+013199999V0202701N001510045719N009999199+02801+02301999999ADDGA1071+004571999GE19MSL   +99999+99999GF199999071999004571999999MA1101201999999REMMET051METAR SBIZ 221200Z 27003KT 9999 BKN015 28/23 Q1012=
0142825640999992017022214004-05531-047460FM-15+013199999V0202401N001510045719N009999199+03001+02401999999ADDGA1071+004571999GE19MSL   +99999+99999GF199999071999004571999999MA1101301999999REMMET051METAR SBIZ 221400Z 24003KT 9999 BKN015 30/24 Q1013=
0165825640999992017022215004-05531-047460FM-15+013199999V0203001N001010061019N009999199+03101+02501999999ADDGA1021+004571999GA2071+006101999GE19MSL   +99999+99999GF199999021999004571999999MA1101201999999REMMET058METAR SBIZ 221500Z 30002KT 9999 FEW015 BKN020 31/25 Q1012=
0165825640999992017022216004-05531-047460FM-15+013199999V0200401N00261006101CN009999199+03101+02401999999ADDGA1021+004571999GA2041+006101999GE19MSL   +99999+99999GF199999021999004571999999MA1101101999999REMMET058METAR SBIZ 221600Z 04005KT 9999 FEW015 SCT020 31/24 Q1011=
0165825640999992017022217004-05531-047460FM-15+013199999V0202101N00261006101CN009999199+03201+02501999999ADDGA1041+004571999GA2041+006101999GE19MSL   +99999+99999GF199999041999004571999999MA1101001999999REMMET058METAR SBIZ 221700Z 21005KT 9999 SCT015 SCT020 32/25 Q1010=
0165825640999992017022218004-05531-047460FM-15+013199999V0202101N003110061019N009999199+03001+02501999999ADDGA1041+004571999GA2071+006101999GE19MSL   +99999+99999GF199999041999004571999999MA1100901999999REMMET058METAR SBIZ 221800Z 21006KT 9999 SCT015 BKN020 30/25 Q1009=
0188825640999992017022219004-05531-047460FM-15+013199999V0202401N00311006101CN009999199+02701+02501999999ADDGA1041+004571999GA2041+006101999GA3071+021341999GE19MSL   +99999+99999GF199999041999004571999999MA1100901999999REMMET065METAR SBIZ 221900Z 24006KT 9999 SCT015 SCT020 BKN070 27/25 Q1009=
0165825640999992017022221004-05531-047460FM-15+013199999V0202601N003110304819N009999199+02601+02401999999ADDGA1041+006101999GA2071+030481999GE19MSL   +99999+99999GF199999041999006101999999MA1100901999999REMMET058METAR SBIZ 222100Z 26006KT 9999 SCT020 BKN100 26/24 Q1009=
0188825640999992017022222004-05531-047460FM-15+013199999V0202401N00261010671CN009999199+02501+02401999999ADDGA1021+006101999GA2041+010671999GA3071+030481999GE19MSL   +99999+99999GF199999021999006101999999MA1101001999999REMMET065METAR SBIZ 222200Z 24005KT 9999 FEW020 SCT035 BKN100 25/24 Q1010=
0165825640999992017022300004-05531-047460FM-15+013199999V0200201N001510304819N009999199+02501+02401999999ADDGA1021+010671999GA2071+030481999GE19MSL   +99999+99999GF199999021999010671999999MA1101101999999REMMET058METAR SBIZ 230000Z 02003KT 9999 FEW035 BKN100 25/24 Q1011=
0188825640999992017022301004-05531-047460FM-15+013199999V0203201N00151010671CN009999199+02501+02401999999ADDGA1021+002741999GA2041+010671999GA3071+030481999GE19MSL   +99999+99999GF199999021999002741999999MA1101201999999REMMET065METAR SBIZ 230100Z 32003KT 9999 FEW009 SCT035 BKN100 25/24 Q1012=
0147825640999992017022309004-05531-047460FM-15+013199999V0200501N001510045719N009999199+02301+02201999999ADDGA1071+004571999GE19MSL   +99999+99999GF199999071999004571999999MA1101301999999REMMET056METAR SBIZ 230900Z 05003KT 9999 BKN015 23/22 Q1013 RERA=
0175825640999992017022310004-05531-047460FM-15+013199999V0202901N001010045719N009999199+02301+02201999999ADDGA1071+004571999GA2041+021341999GE19MSL   +99999+99999GF199999071999004571999999MA1101301999999MW1611REMMET062METAR SBIZ 231000Z 29002KT 9999 -RA BKN015 SCT070 23/22 Q1013=
0188825640999992017022312004-05531-047460FM-15+013199999V0200801N000510045719N009999199+02501+02201999999ADDGA1021+003051999GA2071+004571999GA3071+021341999GE19MSL   +99999+99999GF199999021999003051999999MA1101401999999REMMET065METAR SBIZ 231200Z 08001KT 9999 FEW010 BKN015 BKN070 25/22 Q1014=
0188825640999992017022314004-05531-047460FM-15+013199999V0200301N003110054919N009999199+02801+02201999999ADDGA1021+003051999GA2071+005491999GA3071+024381999GE19MSL   +99999+99999GF199999021999003051999999MA1101501999999REMMET065METAR SBIZ 231400Z 03006KT 9999 FEW010 BKN018 BKN080 28/22 Q1015=
0165825640999992017022315004-05531-047460FM-15+013199999V0200501N003610243819N009999199+02901+02201999999ADDGA1021+006101999GA2071+024381999GE19MSL   +99999+99999GF199999021999006101999999MA1101301999999REMMET058METAR SBIZ 231500Z 05007KT 9999 FEW020 BKN080 29/22 Q1013=
0165825640999992017022317004-05531-047460FM-15+013199999V0200401N002610243819N009999199+03001+02201999999ADDGA1021+007621999GA2071+024381999GE19MSL   +99999+99999GF199999021999007621999999MA1101001999999REMMET058METAR SBIZ 231700Z 04005KT 9999 FEW025 BKN080 30/22 Q1010=
0165825640999992017022319004-05531-047460FM-15+013199999V0202401N00151024381CN009999199+03201+02401999999ADDGA1041+009141999GA2041+024381999GE19MSL   +99999+99999GF199999041999009141999999MA1100901999999REMMET058METAR SBIZ 231900Z 24003KT 9999 SCT030 SCT080 32/24 Q1009=
0165825640999992017022320004-05531-047460FM-15+013199999V0201601N00101024381CN009999199+03201+02301999999ADDGA1041+009141999GA2041+024381999GE19MSL   +99999+99999GF199999041999009141999999MA1100901999999REMMET058METAR SBIZ 232000Z 16002KT 9999 SCT030 SCT080 32/23 Q1009=
0165825640999992017022321004-05531-047460FM-15+013199999V0202401N00151024381CN009999199+03001+02201999999ADDGA1021+009141999GA2041+024381999GE19MSL   +99999+99999GF199999021999009141999999MA1100901999999REMMET058METAR SBIZ 232100Z 24003KT 9999 FEW030 SCT080 30/22 Q1009=
0165825640999992017022322004-05531-047460FM-15+013199999V0202201N00101024381CN009999199+02901+02301999999ADDGA1021+006101999GA2041+024381999GE19MSL   +99999+99999GF199999021999006101999999MA1100901999999REMMET058METAR SBIZ 232200Z 22002KT 9999 FEW020 SCT080 29/23 Q1009=
0072825640999992017022323004-05531-047460FM-15+013199999V0201801N001019999999Y999999999+02701+02401999999ADDMA1101001999999REMMET045METAR SBIZ 232300Z 18002KT CAVOK 27/24 Q1010=
0072825640999992017022400004-05531-047460FM-15+013199999V0202101N002119999999Y999999999+02701+02401999999ADDMA1101001999999REMMET045METAR SBIZ 240000Z 21004KT CAVOK 27/24 Q1010=
0072825640999992017022401004-05531-047460FM-15+013199999V0202101N002619999999Y999999999+02601+02501999999ADDMA1101101999999REMMET045METAR SBIZ 240100Z 21005KT CAVOK 26/25 Q1011=
0165825640999992017022409004-05531-047460FM-15+013199999V0209999C00001021341CN009999199+02401+02301999999ADDGA1021+004571999GA2041+021341999GE19MSL   +99999+99999GF199999021999004571999999MA1101001999999REMMET058METAR SBIZ 240900Z 00000KT 9999 FEW015 SCT070 24/23 Q1010=
0072825640999992017022411004-05531-047460FM-15+013199999V0200201N001519999999Y999999999+02601+02401999999ADDMA1101201999999REMMET045METAR SBIZ 241100Z 02003KT CAVOK 26/24 Q1012=
0165825640999992017022412004-05531-047460FM-15+013199999V0200101N003110213419N009999199+02701+02401999999ADDGA1021+006101999GA2071+021341999GE19MSL   +99999+99999GF199999021999006101999999MA1101201999999REMMET058METAR SBIZ 241200Z 01006KT 9999 FEW020 BKN070 27/24 Q1012=
0142825640999992017022413004-05531-047460FM-15+013199999V0200301N003619999999N009999199+02901+02301999999ADDGA1041+007621999GE19MSL   +99999+99999GF199999041999007621999999MA1101301999999REMMET051METAR SBIZ 241300Z 03007KT 9999 SCT025 29/23 Q1013=
0142825640999992017022414004-05531-047460FM-15+013199999V0200501N003610076219N009999199+03101+02401999999ADDGA1071+007621999GE19MSL   +99999+99999GF199999071999007621999999MA1101201999999REMMET051METAR SBIZ 241400Z 05007KT 9999 BKN025 31/24 Q1012=
0142825640999992017022416004-05531-047460FM-15+013199999V0200901N002110091419N009999199+03301+02401999999ADDGA1071+009141999GE19MSL   +99999+99999GF199999071999009141999999MA1101001999999REMMET051METAR SBIZ 241600Z 09004KT 9999 BKN030 33/24 Q1010=
0142825640999992017022417004-05531-047460FM-15+013199999V0200801N002610091419N009999199+03401+02301999999ADDGA1071+009141999GE19MSL   +99999+99999GF199999071999009141999999MA1100901999999REMMET051METAR SBIZ 241700Z 08005KT 9999 BKN030 34/23 Q1009=
0142825640999992017022418004-05531-047460FM-15+013199999V0200701N002110091419N009999199+03501+02301999999ADDGA1071+009141999GE19MSL   +99999+99999GF199999071999009141999999MA1100801999999REMMET051METAR SBIZ 241800Z 07004KT 9999 BKN030 35/23 Q1008=
0216825640999992017022419004-05531-047460FM-15+013199999V0201501N004110091419N009999199+03201+02501999999ADDGA1041+007621999GA2021+009141091GA3071+009141999GE19MSL   +99999+99999GF199999041999007621999999MA1100701999999MW1171MW2811REMMET081METAR SBIZ 241900Z 15008KT 9999 3000E TS SHRA SCT025 FEW030CB BKN030 32/25 Q1007=
0188825640999992017022421004-05531-047460FM-15+013199999V0201901N00211006101CN009999199+02801+02601999999ADDGA1041+004571999GA2041+006101999GA3071+021341999GE19MSL   +99999+99999GF199999041999004571999999MA1100801999999REMMET065METAR SBIZ 242100Z 19004KT 9999 SCT015 SCT020 BKN070 28/26 Q1008=
0224825640999992017022422004-05531-047460FM-15+013199999V0200801N002110045719N009999199+02701+02501999999ADDGA1071+004571999GA2041+006101999GA3021+007621091GA4081+021341999GE19MSL   +99999+99999GF199999071999004571999999MA1100901999999MW1131REMMET079METAR SBIZ 242200Z 08004KT 9999 VCTS BKN015 SCT020 FEW025CB OVC070 27/25 Q1009=
0147825640999992017022500004-05531-047460FM-15+013199999V0202101N001010045719N009999199+02601+02501999999ADDGA1071+004571999GE19MSL   +99999+99999GF199999071999004571999999MA1101001999999REMMET056METAR SBIZ 250000Z 21002KT 9999 BKN015 26/25 Q1010 RETS=
0142825640999992017022501004-05531-047460FM-15+013199999V0201001N003619999999N009999199+02601+02501999999ADDGA1041+004571999GE19MSL   +99999+99999GF199999041999004571999999MA1101101999999REMMET051METAR SBIZ 250100Z 10007KT 9999 SCT015 26/25 Q1011=
0165825640999992017022509004-05531-047460FM-15+013199999V0202101N00151003661CN009999199+02501+02501999999ADDGA1021+002131999GA2041+003661999GE19MSL   +99999+99999GF199999021999002131999999MA1101001999999REMMET058METAR SBIZ 250900Z 21003KT 9999 FEW007 SCT012 25/25 Q1010=
0142825640999992017022511004-05531-047460FM-15+013199999V0201901N000510045719N009999199+02601+02501999999ADDGA1071+004571999GE19MSL   +99999+99999GF199999071999004571999999MA1101201999999REMMET051METAR SBIZ 251100Z 19001KT 9999 BKN015 26/25 Q1012=
0165825640999992017022512004-05531-047460FM-15+013199999V0202901N001510045719N009999199+02701+02501999999ADDGA1071+004571999GA2071+024381999GE19MSL   +99999+99999GF199999071999004571999999MA1101201999999REMMET058METAR SBIZ 251200Z 29003KT 9999 BKN015 BKN080 27/25 Q1012=
0142825640999992017022513004-05531-047460FM-15+013199999V0200501N003610061019N009999199+03001+02401999999ADDGA1071+006101999GE19MSL   +99999+99999GF199999071999006101999999MA1101201999999REMMET051METAR SBIZ 251300Z 05007KT 9999 BKN020 30/24 Q1012=
0142825640999992017022514004-05531-047460FM-15+013199999V0200501N002610076219N009999199+03101+02401999999ADDGA1071+007621999GE19MSL   +99999+99999GF199999071999007621999999MA1101201999999REMMET051METAR SBIZ 251400Z 05005KT 9999 BKN025 31/24 Q1012=
0165825640999992017022515004-05531-047460FM-15+013199999V0201001N001010061019N009999199+03201+02401999999ADDGA1041+004571999GA2071+006101999GE19MSL   +99999+99999GF199999041999004571999999MA1101101999999REMMET058METAR SBIZ 251500Z 10002KT 9999 SCT015 BKN020 32/24 Q1011=
0165825640999992017022516004-05531-047460FM-15+013199999V0201301N003110061019N009999199+03301+02301999999ADDGA1021+004571999GA2071+006101999GE19MSL   +99999+99999GF199999021999004571999999MA1101001999999REMMET058METAR SBIZ 251600Z 13006KT 9999 FEW015 BKN020 33/23 Q1010=
0142825640999992017022518004-05531-047460FM-15+013199999V0202801N003610061019N009999199+03601+02201999999ADDGA1071+006101999GE19MSL   +99999+99999GF199999071999006101999999MA1100701999999REMMET051METAR SBIZ 251800Z 28007KT 9999 BKN020 36/22 Q1007=
0202825640999992017022519004-05531-047460FM-15+013199999V0200601N003610045719N008000199+03001+02501999999ADDGA1071+004571999GA2071+006101999GA3021+007621091GE19MSL   +99999+99999GF199999071999004571999999MA1100801999999MW1951REMMET073METAR SBIZ 251900Z 06007KT 8000 -TSRA BKN015 BKN020 FEW025CB 30/25 Q1008=
0225825640999992017022520004-05531-047460FM-15+013199999V0202101N002610045719N008000199+02701+02601999999ADDGA1071+004571999GA2041+006101999GA3021+007621091GA4071+021341999GE19MSL   +99999+99999GF199999071999004571999999MA1100801999999MW1951REMMET080METAR SBIZ 252000Z 21005KT 8000 -TSRA BKN015 SCT020 FEW025CB BKN070 27/26 Q1008=
0201825640999992017022522004-05531-047460FM-15+013199999V0200701N001010061019N009999199+02601+02501999999ADDGA1071+006101999GA2021+007621091GA3071+021341999GE19MSL   +99999+99999GF199999071999006101999999MA1100901999999MW1131REMMET072METAR SBIZ 252200Z 07002KT 9999 VCTS BKN020 FEW025CB BKN070 26/25 Q1009=
0201825640999992017022600004-05531-047460FM-15+013199999V0203601N00261009141CN009999199+02601+02501999999ADDGA1021+007621091GA2041+009141999GA3071+021341999GE19MSL   +99999+99999GF199999021999007621999999MA1101101999999MW1131REMMET072METAR SBIZ 260000Z 36005KT 9999 VCTS FEW025CB SCT030 BKN070 26/25 Q1011=
0072825640999992017022601004-05531-047460FM-15+013199999V0203601N002619999999Y999999999+02601+02401999999ADDMA1101201999999REMMET045METAR SBIZ 260100Z 36005KT CAVOK 26/24 Q1012=
0188825640999992017022610004-05531-047460FM-15+013199999V0203001N001510045719N009999199+02501+02501999999ADDGA1021+001521999GA2071+004571999GA3071+024381999GE19MSL   +99999+99999GF199999021999001521999999MA1101201999999REMMET065METAR SBIZ 261000Z 30003KT 9999 FEW005 BKN015 BKN080 25/25 Q1012=
0165825640999992017022612004-05531-047460FM-15+013199999V0203101N003110045719N009999199+02601+02401999999ADDGA1071+004571999GA2071+024381999GE19MSL   +99999+99999GF199999071999004571999999MA1101401999999REMMET058METAR SBIZ 261200Z 31006KT 9999 BKN015 BKN080 26/24 Q1014=
0165825640999992017022613004-05531-047460FM-15+013199999V0203001N002610045719N009999199+02701+02401999999ADDGA1071+004571999GA2071+024381999GE19MSL   +99999+99999GF199999071999004571999999MA1101401999999REMMET058METAR SBIZ 261300Z 30005KT 9999 BKN015 BKN080 27/24 Q1014=
0165825640999992017022614004-05531-047460FM-15+013199999V0203001N002610045719N009999199+02801+02401999999ADDGA1071+004571999GA2041+024381999GE19MSL   +99999+99999GF199999071999004571999999MA1101401999999REMMET058METAR SBIZ 261400Z 30005KT 9999 BKN015 SCT080 28/24 Q1014=
0165825640999992017022616004-05531-047460FM-15+013199999V0203101N002610045719N009999199+02801+02401999999ADDGA1071+004571999GA2071+024381999GE19MSL   +99999+99999GF199999071999004571999999MA1101201999999REMMET058METAR SBIZ 261600Z 31005KT 9999 BKN015 BKN080 28/24 Q1012=
0165825640999992017022617004-05531-047460FM-15+013199999V0202801N003610045719N009999199+02801+02401999999ADDGA1071+004571999GA2071+024381999GE19MSL   +99999+99999GF199999071999004571999999MA1101101999999REMMET058METAR SBIZ 261700Z 28007KT 9999 BKN015 BKN080 28/24 Q1011=
0165825640999992017022619004-05531-047460FM-15+013199999V0202501N003110061019N009999199+03101+02401999999ADDGA1071+006101999GA2071+024381999GE19MSL   +99999+99999GF199999071999006101999999MA1101001999999REMMET058METAR SBIZ 261900Z 25006KT 9999 BKN020 BKN080 31/24 Q1010=
0165825640999992017022620004-05531-047460FM-15+013199999V0202401N002110061019N009999199+03101+02501999999ADDGA1071+006101999GA2041+024381999GE19MSL   +99999+99999GF199999071999006101999999MA1101001999999REMMET058METAR SBIZ 262000Z 24004KT 9999 BKN020 SCT080 31/25 Q1010=
0165825640999992017022621004-05531-047460FM-15+013199999V0202401N004110061019N009999199+03101+02401999999ADDGA1071+006101999GA2041+024381999GE19MSL   +99999+99999GF199999071999006101999999MA1100901999999REMMET058METAR SBIZ 262100Z 24008KT 9999 BKN020 SCT080 31/24 Q1009=
0199825640999992017022623004-05531-047460FM-15+013199999V0203001N002619999999N009999199+02801+02501999999ADDGA1041+005181999GA2021+007621091GA3041+021341999GE19MSL   +99999+99999GF199999041999005181999999MA1101101999999MW1171REMMET070METAR SBIZ 262300Z 30005KT 9999 TS SCT017 FEW025CB SCT070 28/25 Q1011=
0199825640999992017022700004-05531-047460FM-15+013199999V0202601N002119999999N009999199+02801+02401999999ADDGA1041+005181999GA2021+007621091GA3041+021341999GE19MSL   +99999+99999GF199999041999005181999999MA1101201999999MW1171REMMET070METAR SBIZ 270000Z 26004KT 9999 TS SCT017 FEW025CB SCT070 28/24 Q1012=
0170825640999992017022701004-05531-047460FM-15+013199999V0202701N001010243819N009999199+02701+02501999999ADDGA1041+006101999GA2071+024381999GE19MSL   +99999+99999GF199999041999006101999999MA1101301999999REMMET063METAR SBIZ 270100Z 27002KT 9999 SCT020 BKN080 27/25 Q1013 RETS=
0142825640999992017022709004-05531-047460FM-15+013199999V0209999C000010045719N009999199+02401+02401999999ADDGA1071+004571999GE19MSL   +99999+99999GF199999071999004571999999MA1101101999999REMMET051METAR SBIZ 270900Z 00000KT 9999 BKN015 24/24 Q1011=
0165825640999992017022710004-05531-047460FM-15+013199999V0202101N002110045719N009999199+02401+02401999999ADDGA1071+004571999GA2071+024381999GE19MSL   +99999+99999GF199999071999004571999999MA1101101999999REMMET058METAR SBIZ 271000Z 21004KT 9999 BKN015 BKN080 24/24 Q1011=
0165825640999992017022712004-05531-047460FM-15+013199999V0201601N002110045719N009999199+02701+02401999999ADDGA1071+004571999GA2071+024381999GE19MSL   +99999+99999GF199999071999004571999999MA1101101999999REMMET058METAR SBIZ 271200Z 16004KT 9999 BKN015 BKN080 27/24 Q1011=
0165825640999992017022713004-05531-047460FM-15+013199999V0201901N002610045719N009999199+02801+02501999999ADDGA1071+004571999GA2041+024381999GE19MSL   +99999+99999GF199999071999004571999999MA1101201999999REMMET058METAR SBIZ 271300Z 19005KT 9999 BKN015 SCT080 28/25 Q1012=
0165825640999992017022714004-05531-047460FM-15+013199999V0202101N002610243819N009999199+03001+02501999999ADDGA1041+004571999GA2071+024381999GE19MSL   +99999+99999GF199999041999004571999999MA1101201999999REMMET058METAR SBIZ 271400Z 21005KT 9999 SCT015 BKN080 30/25 Q1012=
0165825640999992017022715004-05531-047460FM-15+013199999V0201901N002610054919N009999199+03001+02501999999ADDGA1071+005491999GA2071+024381999GE19MSL   +99999+99999GF199999071999005491999999MA1101101999999REMMET058METAR SBIZ 271500Z 19005KT 9999 BKN018 BKN080 30/25 Q1011=
0165825640999992017022716004-05531-047460FM-15+013199999V0201801N002110054919N009999199+03101+02401999999ADDGA1071+005491999GA2071+024381999GE19MSL   +99999+99999GF199999071999005491999999MA1101001999999REMMET058METAR SBIZ 271600Z 18004KT 9999 BKN018 BKN080 31/24 Q1010=
0165825640999992017022717004-05531-047460FM-15+013199999V0202201N002110054919N009999199+03201+02301999999ADDGA1071+005491999GA2041+024381999GE19MSL   +99999+99999GF199999071999005491999999MA1100901999999REMMET058METAR SBIZ 271700Z 22004KT 9999 BKN018 SCT080 32/23 Q1009=
0165825640999992017022719004-05531-047460FM-15+013199999V0201701N002110061019N009999199+03201+02301999999ADDGA1071+006101999GA2041+024381999GE19MSL   +99999+99999GF199999071999006101999999MA1100701999999REMMET058METAR SBIZ 271900Z 17004KT 9999 BKN020 SCT080 32/23 Q1007=
0165825640999992017022720004-05531-047460FM-15+013199999V0200901N001010213419N009999199+03401+02401999999ADDGA1041+006101999GA2071+021341999GE19MSL   +99999+99999GF199999041999006101999999MA1100701999999REMMET058METAR SBIZ 272000Z 09002KT 9999 SCT020 BKN070 34/24 Q1007=
0168825640999992017022721004-05531-047460FM-15+013199999V0209999C000019999999N009999199+03201+02401999999ADDGA1021+006101999GA2021+007621081GE19MSL   +99999+99999GF199999021999006101999999MA1100701999999REMMET061METAR SBIZ 272100Z 00000KT 9999 FEW020 FEW025TCU 32/24 Q1007=
0168825640999992017022722004-05531-047460FM-15+013199999V0201601N001019999999N009999199+03001+02501999999ADDGA1021+007621081GA2021+007621999GE19MSL   +99999+99999GF199999021999007621999999MA1100701999999REMMET061METAR SBIZ 272200Z 16002KT 9999 FEW025TCU FEW025 30/25 Q1007=
0142825640999992017022723004-05531-047460FM-15+013199999V0200901N002119999999N009999199+02901+02501999999ADDGA1021+007621999GE19MSL   +99999+99999GF199999021999007621999999MA1100801999999REMMET051METAR SBIZ 272300Z 09004KT 9999 FEW025 29/25 Q1008=
0142825640999992017022801004-05531-047460FM-15+013199999V0200801N002619999999N009999199+02701+02401999999ADDGA1021+007621999GE19MSL   +99999+99999GF199999021999007621999999MA1101101999999REMMET051METAR SBIZ 280100Z 08005KT 9999 FEW025 27/24 Q1011=
0165825640999992017022809004-05531-047460FM-15+013199999V0209999C00001021341CN009999199+02401+02301999999ADDGA1021+004571999GA2041+021341999GE19MSL   +99999+99999GF199999021999004571999999MA1100901999999REMMET058METAR SBIZ 280900Z 00000KT 9999 FEW015 SCT070 24/23 Q1009=
0072825640999992017022810004-05531-047460FM-15+013199999V0201501N001019999999Y999999999+02401+02301999999ADDMA1101001999999REMMET045METAR SBIZ 281000Z 15002KT CAVOK 24/23 Q1010=
0165825640999992017022811004-05531-047460FM-15+013199999V0201301N00101021341CN009999199+02601+02401999999ADDGA1021+004571999GA2041+021341999GE19MSL   +99999+99999GF199999021999004571999999MA1101101999999REMMET058METAR SBIZ 281100Z 13002KT 9999 FEW015 SCT070 26/24 Q1011=
0165825640999992017022812004-05531-047460FM-15+013199999V0201001N003110045719N009999199+02801+02501999999ADDGA1071+004571999GA2041+021341999GE19MSL   +99999+99999GF199999071999004571999999MA1101201999999REMMET058METAR SBIZ 281200Z 10006KT 9999 BKN015 SCT070 28/25 Q1012=
0165825640999992017022813004-05531-047460FM-15+013199999V0201001N003110045719N009999199+03001+02301999999ADDGA1071+004571999GA2071+021341999GE19MSL   +99999+99999GF199999071999004571999999MA1101301999999REMMET058METAR SBIZ 281300Z 10006KT 9999 BKN015 BKN070 30/23 Q1013=
0165825640999992017022814004-05531-047460FM-15+013199999V0200601N003610051819N009999199+03001+02401999999ADDGA1071+005181999GA2071+021341999GE19MSL   +99999+99999GF199999071999005181999999MA1101201999999REMMET058METAR SBIZ 281400Z 06007KT 9999 BKN017 BKN070 30/24 Q1012=
0142825640999992017022815004-05531-047460FM-15+013199999V0201401N003610051819N009999199+03101+02301999999ADDGA1071+005181999GE19MSL   +99999+99999GF199999071999005181999999MA1101201999999REMMET051METAR SBIZ 281500Z 14007KT 9999 BKN017 31/23 Q1012=
0142825640999992017022816004-05531-047460FM-15+013199999V0201301N002610051819N009999199+03101+02301999999ADDGA1071+005181999GE19MSL   +99999+99999GF199999071999005181999999MA1101001999999REMMET051METAR SBIZ 281600Z 13005KT 9999 BKN017 31/23 Q1010=
0168825640999992017022817004-05531-047460FM-15+013199999V0201101N002619999999N009999199+03301+02301999999ADDGA1041+005181999GA2021+007621081GE19MSL   +99999+99999GF199999041999005181999999MA1100901999999REMMET061METAR SBIZ 281700Z 11005KT 9999 SCT017 FEW025TCU 33/23 Q1009=
0168825640999992017022818004-05531-047460FM-15+013199999V0200501N001519999999N009999199+03301+02301999999ADDGA1041+006101999GA2021+007621081GE19MSL   +99999+99999GF199999041999006101999999MA1100801999999REMMET061METAR SBIZ 281800Z 05003KT 9999 SCT020 FEW025TCU 33/23 Q1008=
0178825640999992017022820004-05531-047460FM-15+013199999V0201701N002110054919N009999199+03201+02501999999ADDGA1071+005491999GA2021+007621081GE19MSL   +99999+99999GF199999071999005491999999MA1100601999999MW1611REMMET065METAR SBIZ 282000Z 17004KT 9999 -RA BKN018 FEW025TCU 32/25 Q1006=
0224825640999992017022822004-05531-047460FM-15+013199999V0203301N00101007621CN009999199+02601+02401999999ADDGA1021+006101999GA2041+007621999GA3021+009141091GA4071+024381999GE19MSL   +99999+99999GF199999021999006101999999MA1100701999999MW1131REMMET079METAR SBIZ 282200Z 33002KT 9999 VCTS FEW020 SCT025 FEW030CB BKN080 26/24 Q1007=
0178825640999992017022823004-05531-047460FM-15+013199999V0200601N00051009141CN009999199+02601+02401999999ADDGA1021+006101999GA2041+009141091GE19MSL   +99999+99999GF199999021999006101999999MA1100901999999MW1131REMMET065METAR SBIZ 282300Z 06001KT 9999 VCTS FEW020 SCT030CB 26/24 Q1009=
0207825640999992017030101004-05531-047460FM-15+013199999V0200701N00101007621CN009999199+02401+02401999999ADDGA1041+006101999GA2041+007621999GA3021+009141091GE19MSL   +99999+99999GF199999041999006101999999MA1101001999999MW1951REMMET078METAR SBIZ 010100Z 07002KT 9999 -TSRA SCT020 SCT025 FEW030CB 24/24 Q1010 RERA=
0175825640999992017030109004-05531-047460FM-15+013199999V0202201N001510045719N009000199+02401+02401999999ADDGA1041+003051999GA2071+004571999GE19MSL   +99999+99999GF199999041999003051999999MA1101101999999MW1611REMMET062METAR SBIZ 010900Z 22003KT 9000 -RA SCT010 BKN015 24/24 Q1011=
0188825640999992017030110004-05531-047460FM-15+013199999V0202401N002610045719N007000199+02401+02401999999ADDGA1041+002441999GA2071+004571999GA3081+021341999GE19MSL   +99999+99999GF199999041999002441999999MA1101101999999REMMET065METAR SBIZ 011000Z 24005KT 7000 SCT008 BKN015 OVC070 24/24 Q1011=
0188825640999992017030111004-05531-047460FM-15+013199999V0202201N002110045719N009999199+02401+02301999999ADDGA1041+001521999GA2071+004571999GA3081+021341999GE19MSL   +99999+99999GF199999041999001521999999MA1101201999999REMMET065METAR SBIZ 011100Z 22004KT 9999 SCT005 BKN015 OVC070 24/23 Q1012=
0175825640999992017030113004-05531-047460FM-15+013199999V0202201N002110045719N009000199+02501+02401999999ADDGA1071+004571999GA2081+021341999GE19MSL   +99999+99999GF199999071999004571999999MA1101401999999MW1611REMMET062METAR SBIZ 011300Z 22004KT 9000 -RA BKN015 OVC070 25/24 Q1014=
0188825640999992017030114004-05531-047460FM-15+013199999V0202701N002610045719N009999199+02701+02401999999ADDGA1071+004571999GA2041+021341999GA3071+024381999GE19MSL   +99999+99999GF199999071999004571999999MA1101301999999REMMET065METAR SBIZ 011400Z 27005KT 9999 BKN015 SCT070 BKN080 27/24 Q1013=
0165825640999992017030115004-05531-047460FM-15+013199999V0202601N00311005491CN009999199+02901+02301999999ADDGA1041+004571999GA2041+005491999GE19MSL   +99999+99999GF199999041999004571999999MA1101301999999REMMET058METAR SBIZ 011500Z 26006KT 9999 SCT015 SCT018 29/23 Q1013=
0165825640999992017030116004-05531-047460FM-15+013199999V0203401N00261006101CN009999199+02901+02301999999ADDGA1041+005491999GA2041+006101999GE19MSL   +99999+99999GF199999041999005491999999MA1101201999999REMMET058METAR SBIZ 011600Z 34005KT 9999 SCT018 SCT020 29/23 Q1012=
0142825640999992017030117004-05531-047460FM-15+013199999V0203001N003119999999N009999199+03001+02501999999ADDGA1041+006101999GE19MSL   +99999+99999GF199999041999006101999999MA1101001999999REMMET051METAR SBIZ 011700Z 30006KT 9999 SCT020 30/25 Q1010=
0165825640999992017030118004-05531-047460FM-15+013199999V0203301N003610304819N009999199+03001+02401999999ADDGA1041+007621999GA2071+030481999GE19MSL   +99999+99999GF199999041999007621999999MA1100901999999REMMET058METAR SBIZ 011800Z 33007KT 9999 SCT025 BKN100 30/24 Q1009=
0142825640999992017030120004-05531-047460FM-15+013199999V0203301N002119999999N009999199+03001+02401999999ADDGA1041+007621999GE19MSL   +99999+99999GF199999041999007621999999MA1100801999999REMMET051METAR SBIZ 012000Z 33004KT 9999 SCT025 30/24 Q1008=
0165825640999992017030122004-05531-047460FM-15+013199999V0200301N00101009141CN009999199+02801+02401999999ADDGA1021+007621999GA2041+009141999GE19MSL   +99999+99999GF199999021999007621999999MA1101001999999REMMET058METAR SBIZ 012200Z 03002KT 9999 FEW025 SCT030 28/24 Q1010=
0142825640999992017030200004-05531-047460FM-15+013199999V0200701N000519999999N009999199+02701+02401999999ADDGA1021+004571999GE19MSL   +99999+99999GF199999021999004571999999MA1101201999999REMMET051METAR SBIZ 020000Z 07001KT 9999 FEW015 27/24 Q1012=
0142825640999992017030201004-05531-047460FM-15+013199999V0200701N001019999999N009999199+02701+02401999999ADDGA1021+004571999GE19MSL   +99999+99999GF199999021999004571999999MA1101201999999REMMET051METAR SBIZ 020100Z 07002KT 9999 FEW015 27/24 Q1012=
0203825640999992017030209004-05531-047460FM-15+013199999V0201901N00101009141CN009999199+02301+02301999999ADDGA1021+001221999GA2041+009141999GA3081+021341999GE19MSL   +99999+99999GF199999021999001221999999MA1101201999999MW1611REMMET074METAR SBIZ 020900Z 19002KT 9999 -RA FEW004 SCT030 OVC070 23/23 Q1012 RERA=
0198825640999992017030210004-05531-047460FM-15+013199999V0201601N00151012191CN009999199+02301+02201999999ADDGA1021+001221999GA2041+012191999GA3081+021341999GE19MSL   +99999+99999GF199999021999001221999999MA1101301999999MW1611REMMET069METAR SBIZ 021000Z 16003KT 9999 -RA FEW004 SCT040 OVC070 23/22 Q1013=
0175825640999992017030211004-05531-047460FM-15+013199999V0201001N001510213419N009999199+02301+02201999999ADDGA1041+012191999GA2081+021341999GE19MSL   +99999+99999GF199999041999012191999999MA1101301999999MW1611REMMET062METAR SBIZ 021100Z 10003KT 9999 -RA SCT040 OVC070 23/22 Q1013=
0165825640999992017030212004-05531-047460FM-15+013199999V0201201N002610213419N009999199+02401+02201999999ADDGA1041+012191999GA2071+021341999GE19MSL   +99999+99999GF199999041999012191999999MA1101301999999REMMET058METAR SBIZ 021200Z 12005KT 9999 SCT040 BKN070 24/22 Q1013=
0072825640999992017030213004-05531-047460FM-15+013199999V0201101N003119999999Y999999999+02501+02301999999ADDMA1101301999999REMMET045METAR SBIZ 021300Z 11006KT CAVOK 25/23 Q1013=
0165825640999992017030214004-05531-047460FM-15+013199999V0201501N002110213419N009999199+02701+02301999999ADDGA1021+012191999GA2071+021341999GE19MSL   +99999+99999GF199999021999012191999999MA1101301999999REMMET058METAR SBIZ 021400Z 15004KT 9999 FEW040 BKN070 27/23 Q1013=
0165825640999992017030215004-05531-047460FM-15+013199999V0201501N002610243819N009999199+02801+02301999999ADDGA1021+009141999GA2071+024381999GE19MSL   +99999+99999GF199999021999009141999999MA1101301999999REMMET058METAR SBIZ 021500Z 15005KT 9999 FEW030 BKN080 28/23 Q1013=
0165825640999992017030216004-05531-047460FM-15+013199999V0202001N001010243819N009999199+02901+02301999999ADDGA1041+006101999GA2071+024381999GE19MSL   +99999+99999GF199999041999006101999999MA1101201999999REMMET058METAR SBIZ 021600Z 20002KT 9999 SCT020 BKN080 29/23 Q1012=
0165825640999992017030217004-05531-047460FM-15+013199999V0201501N002610243819N009999199+03201+02401999999ADDGA1041+006101999GA2071+024381999GE19MSL   +99999+99999GF199999041999006101999999MA1101101999999REMMET058METAR SBIZ 021700Z 15005KT 9999 SCT020 BKN080 32/24 Q1011=
0165825640999992017030218004-05531-047460FM-15+013199999V0201201N002610061019N009999199+03301+02401999999ADDGA1071+006101999GA2071+024381999GE19MSL   +99999+99999GF199999071999006101999999MA1101001999999REMMET058METAR SBIZ 021800Z 12005KT 9999 BKN020 BKN080 33/24 Q1010=
0165825640999992017030220004-05531-047460FM-15+013199999V0201401N002110061019N009999199+03101+02401999999ADDGA1071+006101999GA2041+024381999GE19MSL   +99999+99999GF199999071999006101999999MA1100801999999REMMET058METAR SBIZ 022000Z 14004KT 9999 BKN020 SCT080 31/24 Q1008=
0142825640999992017030222004-05531-047460FM-15+013199999V0201601N001510045719N009999199+02801+02401999999ADDGA1071+004571999GE19MSL   +99999+99999GF199999071999004571999999MA1101001999999REMMET051METAR SBIZ 022200Z 16003KT 9999 BKN015 28/24 Q1010=
0142825640999992017030300004-05531-047460FM-15+013199999V0201001N001519999999N009999199+02701+02501999999ADDGA1021+004571999GE19MSL   +99999+99999GF199999021999004571999999MA1101101999999REMMET051METAR SBIZ 030000Z 10003KT 9999 FEW015 27/25 Q1011=
0142825640999992017030301004-05531-047460FM-15+013199999V0200801N002619999999N009999199+02601+02501999999ADDGA1021+004571999GE19MSL   +99999+99999GF199999021999004571999999MA1101101999999REMMET051METAR SBIZ 030100Z 08005KT 9999 FEW015 26/25 Q1011=
0165825640999992017030309004-05531-047460FM-15+013199999V0209999C00001024381CN009999199+02501+02401999999ADDGA1041+009141999GA2041+024381999GE19MSL   +99999+99999GF199999041999009141999999MA1101101999999REMMET058METAR SBIZ 030900Z 00000KT 9999 SCT030 SCT080 25/24 Q1011=
0165825640999992017030310004-05531-047460FM-15+013199999V0200301N000510304819N009999199+02501+02401999999ADDGA1021+009141999GA2071+030481999GE19MSL   +99999+99999GF199999021999009141999999MA1101201999999REMMET058METAR SBIZ 031000Z 03001KT 9999 FEW030 BKN100 25/24 Q1012=
0165825640999992017030311004-05531-047460FM-15+013199999V0200901N00261003661CN009999199+02701+02401999999ADDGA1041+002441999GA2041+003661999GE19MSL   +99999+99999GF199999041999002441999999MA1101201999999REMMET058METAR SBIZ 031100Z 09005KT 9999 SCT008 SCT012 27/24 Q1012=
0142825640999992017030312004-05531-047460FM-15+013199999V0200901N003110045719N009999199+02801+02501999999ADDGA1071+004571999GE19MSL   +99999+99999GF199999071999004571999999MA1101301999999REMMET051METAR SBIZ 031200Z 09006KT 9999 BKN015 28/25 Q1013=
0142825640999992017030313004-05531-047460FM-15+013199999V0201401N002610045719N009999199+03001+02501999999ADDGA1071+004571999GE19MSL   +99999+99999GF199999071999004571999999MA1101301999999REMMET051METAR SBIZ 031300Z 14005KT 9999 BKN015 30/25 Q1013=
0142825640999992017030314004-05531-047460FM-15+013199999V0200601N002110045719N009999199+03101+02401999999ADDGA1071+004571999GE19MSL   +99999+99999GF199999071999004571999999MA1101301999999REMMET051METAR SBIZ 031400Z 06004KT 9999 BKN015 31/24 Q1013=
0165825640999992017030315004-05531-047460FM-15+013199999V0201101N002110061019N009999199+03301+02401999999ADDGA1021+004571999GA2071+006101999GE19MSL   +99999+99999GF199999021999004571999999MA1101201999999REMMET058METAR SBIZ 031500Z 11004KT 9999 FEW015 BKN020 33/24 Q1012=
0142825640999992017030317004-05531-047460FM-15+013199999V0201701N002110061019N009999199+03301+02401999999ADDGA1071+006101999GE19MSL   +99999+99999GF199999071999006101999999MA1101101999999REMMET051METAR SBIZ 031700Z 17004KT 9999 BKN020 33/24 Q1011=
0202825640999992017030319004-05531-047460FM-15+013199999V0200601N006710021319N003000199+02901+02401999999ADDGA1071+002131999GA2071+006101999GA3021+007621091GE19MSL   +99999+99999GF199999071999002131999999MA1100901999999MW1971REMMET073METAR SBIZ 031900Z 06013KT 3000 +TSRA BKN007 BKN020 FEW025CB 29/24 Q1009=
0170825640999992017030320004-05531-047460FM-15+013199999V0201501N001510045719N009999199+02701+02601999999ADDGA1071+004571999GA2071+006101999GE19MSL   +99999+99999GF199999071999004571999999MA1100801999999REMMET063METAR SBIZ 032000Z 15003KT 9999 BKN015 BKN020 27/26 Q1008 RETS=
0165825640999992017030322004-05531-047460FM-15+013199999V0201001N001510304819N009999199+02701+02501999999ADDGA1041+006101999GA2071+030481999GE19MSL   +99999+99999GF199999041999006101999999MA1101001999999REMMET058METAR SBIZ 032200Z 10003KT 9999 SCT020 BKN100 27/25 Q1010=
0142825640999992017030323004-05531-047460FM-15+013199999V0201101N003119999999N009999199+02701+02501999999ADDGA1021+004571999GE19MSL   +99999+99999GF199999021999004571999999MA1101001999999REMMET051METAR SBIZ 032300Z 11006KT 9999 FEW015 27/25 Q1010=
0142825640999992017030401004-05531-047460FM-15+013199999V0200701N002119999999N009999199+02601+02501999999ADDGA1021+004571999GE19MSL   +99999+99999GF199999021999004571999999MA1101201999999REMMET051METAR SBIZ 040100Z 07004KT 9999 FEW015 26/25 Q1012=
0142825640999992017030409004-05531-047460FM-15+013199999V0209999C000019999999N009999199+02401+02401999999ADDGA1021+004571999GE19MSL   +99999+99999GF199999021999004571999999MA1101101999999REMMET051METAR SBIZ 040900Z 00000KT 9999 FEW015 24/24 Q1011=
0142825640999992017030411004-05531-047460FM-15+013199999V0200201N001519999999N009999199+02601+02501999999ADDGA1041+004571999GE19MSL   +99999+99999GF199999041999004571999999MA1101201999999REMMET051METAR SBIZ 041100Z 02003KT 9999 SCT015 26/25 Q1012=
0142825640999992017030412004-05531-047460FM-15+013199999V0200301N002610045719N009999199+02801+02501999999ADDGA1071+004571999GE19MSL   +99999+99999GF199999071999004571999999MA1101201999999REMMET051METAR SBIZ 041200Z 03005KT 9999 BKN015 28/25 Q1012=
0165825640999992017030413004-05531-047460FM-15+013199999V0200601N002610061019N009999199+03001+02501999999ADDGA1041+004571999GA2071+006101999GE19MSL   +99999+99999GF199999041999004571999999MA1101201999999REMMET058METAR SBIZ 041300Z 06005KT 9999 SCT015 BKN020 30/25 Q1012=
0165825640999992017030414004-05531-047460FM-15+013199999V0200301N002110061019N009999199+03201+02401999999ADDGA1021+004571999GA2071+006101999GE19MSL   +99999+99999GF199999021999004571999999MA1101201999999REMMET058METAR SBIZ 041400Z 03004KT 9999 FEW015 BKN020 32/24 Q1012=
0142825640999992017030416004-05531-047460FM-15+013199999V0201301N004110061019N009999199+03201+02401999999ADDGA1071+006101999GE19MSL   +99999+99999GF199999071999006101999999MA1101001999999REMMET051METAR SBIZ 041600Z 13008KT 9999 BKN020 32/24 Q1010=
0142825640999992017030417004-05531-047460FM-15+013199999V0200901N002110070119N009999199+03401+02401999999ADDGA1071+007011999GE19MSL   +99999+99999GF199999071999007011999999MA1100901999999REMMET051METAR SBIZ 041700Z 09004KT 9999 BKN023 34/24 Q1009=
0176825640999992017030418004-05531-047460FM-15+013199999V0202801N001019999999N009999199+03501+02501999999ADDGA1041+007011999GA2021+007621091GE19MSL   +99999+99999GF199999041999007011999999MA1100801999999MW1171REMMET063METAR SBIZ 041800Z 28002KT 9999 TS SCT023 FEW025CB 35/25 Q1008=
0176825640999992017030419004-05531-047460FM-15+013199999V0202001N001519999999N009999199+03001+02401999999ADDGA1041+005491999GA2021+007621091GE19MSL   +99999+99999GF199999041999005491999999MA1100701999999MW1171REMMET063METAR SBIZ 041900Z 20003KT 9999 TS SCT018 FEW025CB 30/24 Q1007=
0165825640999992017030421004-05531-047460FM-15+013199999V0209999C00001024381CN009999199+02901+02601999999ADDGA1021+007621999GA2041+024381999GE19MSL   +99999+99999GF199999021999007621999999MA1100701999999REMMET058METAR SBIZ 042100Z 00000KT 9999 FEW025 SCT080 29/26 Q1007=
0155825640999992017030423004-05531-047460FM-15+013199999V0200701N000519999999N009999199+02701+02601999999ADDGA1041+007621091GE19MSL   +99999+99999GF199999041999007621999999MA1100801999999MW1131REMMET058METAR SBIZ 042300Z 07001KT 9999 VCTS SCT025CB 27/26 Q1008=
0155825640999992017030500004-05531-047460FM-15+013199999V0203601N001519999999N009999199+02601+02501999999ADDGA1021+007621091GE19MSL   +99999+99999GF199999021999007621999999MA1100901999999MW1131REMMET058METAR SBIZ 050000Z 36003KT 9999 VCTS FEW025CB 26/25 Q1009=
0155825640999992017030501004-05531-047460FM-15+013199999V0200401N002119999999N009999199+02601+02501999999ADDGA1041+007621091GE19MSL   +99999+99999GF199999041999007621999999MA1101001999999MW1131REMMET058METAR SBIZ 050100Z 04004KT 9999 VCTS SCT025CB 26/25 Q1010=
0155825640999992017030502004-05531-047460FM-15+013199999V0209999C000019999999N009999199+02601+02501999999ADDGA1041+007621091GE19MSL   +99999+99999GF199999041999007621999999MA1101001999999MW1131REMMET058METAR SBIZ 050200Z 00000KT 9999 VCTS SCT025CB 26/25 Q1010=
0155825640999992017030503004-05531-047460FM-15+013199999V0209999C000019999999N009999199+02601+02501999999ADDGA1041+007621091GE19MSL   +99999+99999GF199999041999007621999999MA1101001999999MW1131REMMET058METAR SBIZ 050300Z 00000KT 9999 VCTS SCT025CB 26/25 Q1010=
0211825640999992017030505004-05531-047460FM-15+013199999V0209999C000010243819N009999199+02601+02501999999ADDGA1041+007621999GA2021+009141091GA3071+024381999GE19MSL   +99999+99999GF199999041999007621999999MA1100801999999MW1131MW2611REMMET076METAR SBIZ 050500Z 00000KT 9999 -RA VCTS SCT025 FEW030CB BKN080 26/25 Q1008=
0170825640999992017030506004-05531-047460FM-15+013199999V0201901N001510054919N009999199+02601+02501999999ADDGA1071+005491999GA2071+024381999GE19MSL   +99999+99999GF199999071999005491999999MA1100801999999REMMET063METAR SBIZ 050600Z 19003KT 9999 BKN018 BKN080 26/25 Q1008 RETS=
0165825640999992017030507004-05531-047460FM-15+013199999V0203301N001010048819N009999199+02601+02501999999ADDGA1071+004881999GA2071+021341999GE19MSL   +99999+99999GF199999071999004881999999MA1100901999999REMMET058METAR SBIZ 050700Z 33002KT 9999 BKN016 BKN070 26/25 Q1009=
0201825640999992017030508004-05531-047460FM-15+013199999V0200301N001510213419N009999199+02601+02501999999ADDGA1041+005491999GA2021+007621091GA3071+021341999GE19MSL   +99999+99999GF199999041999005491999999MA1100801999999MW1131REMMET072METAR SBIZ 050800Z 03003KT 9999 VCTS SCT018 FEW025CB BKN070 26/25 Q1008=
0165825640999992017030509004-05531-047460FM-15+013199999V0209999C000010054919N009999199+02501+02501999999ADDGA1071+005491999GA2071+021341999GE19MSL   +99999+99999GF199999071999005491999999MA1100901999999REMMET058METAR SBIZ 050900Z 00000KT 9999 BKN018 BKN070 25/25 Q1009=
0165825640999992017030510004-05531-047460FM-15+013199999V0200801N001010045719N009999199+02601+02501999999ADDGA1071+004571999GA2071+021341999GE19MSL   +99999+99999GF199999071999004571999999MA1101001999999REMMET058METAR SBIZ 051000Z 08002KT 9999 BKN015 BKN070 26/25 Q1010=
0142825640999992017030511004-05531-047460FM-15+013199999V0200501N002119999999N009999199+02601+02501999999ADDGA1021+007011999GE19MSL   +99999+99999GF199999021999007011999999MA1101101999999REMMET051METAR SBIZ 051100Z 05004KT 9999 FEW023 26/25 Q1011=
0142825640999992017030513004-05531-047460FM-15+013199999V0200501N001519999999N009999199+02901+02401999999ADDGA1041+005491999GE19MSL   +99999+99999GF199999041999005491999999MA1101101999999REMMET051METAR SBIZ 051300Z 05003KT 9999 SCT018 29/24 Q1011=
0142825640999992017030515004-05531-047460FM-15+013199999V0200501N002110076219N009999199+03101+02501999999ADDGA1071+007621999GE19MSL   +99999+99999GF199999071999007621999999MA1101001999999REMMET051METAR SBIZ 051500Z 05004KT 9999 BKN025 31/25 Q1010=
0142825640999992017030516004-05531-047460FM-15+013199999V0201001N001010076219N009999199+03301+02401999999ADDGA1071+007621999GE19MSL   +99999+99999GF199999071999007621999999MA1100901999999REMMET051METAR SBIZ 051600Z 10002KT 9999 BKN025 33/24 Q1009=
0142825640999992017030518004-05531-047460FM-15+013199999V0200301N003610106719N009999199+03401+02601999999ADDGA1071+010671999GE19MSL   +99999+99999GF199999071999010671999999MA1100601999999REMMET051METAR SBIZ 051800Z 03007KT 9999 BKN035 34/26 Q1006=
0142825640999992017030519004-05531-047460FM-15+013199999V0200301N002110106719N009999199+03301+02401999999ADDGA1071+010671999GE19MSL   +99999+99999GF199999071999010671999999MA1100601999999REMMET051METAR SBIZ 051900Z 03004KT 9999 BKN035 33/24 Q1006=
0208825640999992017030520004-05531-047460FM-15+013199999V0202601N003610091419N009999199+02601+02501999999ADDGA1041+007621999GA2071+009141999GA3021+010671091GE19MSL   +99999+99999GF199999041999007621999999MA1100601999999MW1951REMMET079METAR SBIZ 052000Z 26007KT 9999 2000N -TSRA SCT025 BKN030 FEW035CB 26/25 Q1006=
0170825640999992017030522004-05531-047460FM-15+013199999V0201001N001510213419N009999199+02601+02501999999ADDGA1041+009141999GA2071+021341999GE19MSL   +99999+99999GF199999041999009141999999MA1100701999999REMMET063METAR SBIZ 052200Z 10003KT 9999 SCT030 BKN070 26/25 Q1007 RETS=
0178825640999992017030523004-05531-047460FM-15+013199999V0200401N001510213419N009999199+02601+02401999999ADDGA1021+007621091GA2071+021341999GE19MSL   +99999+99999GF199999021999007621999999MA1100701999999MW1131REMMET065METAR SBIZ 052300Z 04003KT 9999 VCTS FEW025CB BKN070 26/24 Q1007=
0155825640999992017030600004-05531-047460FM-15+013199999V0201101N001019999999N009999199+02701+02601999999ADDGA1021+007621091GE19MSL   +99999+99999GF199999021999007621999999MA1100801999999MW1131REMMET058METAR SBIZ 060000Z 11002KT 9999 VCTS FEW025CB 27/26 Q1008=
0072825640999992017030601004-05531-047460FM-15+013199999V0209999C000019999999Y999999999+02601+02601999999ADDMA1100801999999REMMET045METAR SBIZ 060100Z 00000KT CAVOK 26/26 Q1008=
0142825640999992017030610004-05531-047460FM-15+013199999V0201301N000510045719N009999199+02501+02501999999ADDGA1071+004571999GE19MSL   +99999+99999GF199999071999004571999999MA1101001999999REMMET051METAR SBIZ 061000Z 13001KT 9999 BKN015 25/25 Q1010=
0142825640999992017030612004-05531-047460FM-15+013199999V0200301N002119999999N009999199+02901+02501999999ADDGA1041+006101999GE19MSL   +99999+99999GF199999041999006101999999MA1101101999999REMMET051METAR SBIZ 061200Z 03004KT 9999 SCT020 29/25 Q1011=
0142825640999992017030613004-05531-047460FM-15+013199999V0200801N002110061019N009999199+03101+02501999999ADDGA1071+006101999GE19MSL   +99999+99999GF199999071999006101999999MA1101101999999REMMET051METAR SBIZ 061300Z 08004KT 9999 BKN020 31/25 Q1011=
0142825640999992017030614004-05531-047460FM-15+013199999V0201401N001510076219N009999199+03201+02501999999ADDGA1071+007621999GE19MSL   +99999+99999GF199999071999007621999999MA1101101999999REMMET051METAR SBIZ 061400Z 14003KT 9999 BKN025 32/25 Q1011=
0142825640999992017030616004-05531-047460FM-15+013199999V0201701N002610061019N009999199+03301+02401999999ADDGA1071+006101999GE19MSL   +99999+99999GF199999071999006101999999MA1101001999999REMMET051METAR SBIZ 061600Z 17005KT 9999 BKN020 33/24 Q1010=
0176825640999992017030618004-05531-047460FM-15+013199999V0202601N003110213419N009999199+03301+02401999999ADDGA1041+007621999GA2071+021341999GE19MSL   +99999+99999GF199999041999007621999999MA1100701999999MW1161REMMET063METAR SBIZ 061800Z 26006KT 9999 VCSH SCT025 BKN070 33/24 Q1007=
0142825640999992017030619004-05531-047460FM-15+013199999V0202701N001519999999N009999199+03201+02401999999ADDGA1021+007011999GE19MSL   +99999+99999GF199999021999007011999999MA1100701999999REMMET051METAR SBIZ 061900Z 27003KT 9999 FEW023 32/24 Q1007=
0142825640999992017030620004-05531-047460FM-15+013199999V0202101N001519999999N009999199+03301+02401999999ADDGA1021+007621999GE19MSL   +99999+99999GF199999021999007621999999MA1100601999999REMMET051METAR SBIZ 062000Z 21003KT 9999 FEW025 33/24 Q1006=
0142825640999992017030622004-05531-047460FM-15+013199999V0201401N001019999999N009999199+03101+02501999999ADDGA1021+004571999GE19MSL   +99999+99999GF199999021999004571999999MA1100801999999REMMET051METAR SBIZ 062200Z 14002KT 9999 FEW015 31/25 Q1008=
0142825640999992017030623004-05531-047460FM-15+013199999V0200801N002619999999N009999199+02901+02501999999ADDGA1021+004571999GE19MSL   +99999+99999GF199999021999004571999999MA1100901999999REMMET051METAR SBIZ 062300Z 08005KT 9999 FEW015 29/25 Q1009=
0178825640999992017030700004-05531-047460FM-15+013199999V0201001N003619999999N009999199+02801+02401999999ADDGA1021+004571999GA2021+007621091GE19MSL   +99999+99999GF199999021999004571999999MA1101001999999MW1131REMMET065METAR SBIZ 070000Z 10007KT 9999 VCTS FEW015 FEW025CB 28/24 Q1010=
0142825640999992017030701004-05531-047460FM-15+013199999V0200901N002619999999N009999199+02701+02401999999ADDGA1021+004571999GE19MSL   +99999+99999GF199999021999004571999999MA1101001999999REMMET051METAR SBIZ 070100Z 09005KT 9999 FEW015 27/24 Q1010=
0072825640999992017030709004-05531-047460FM-15+013199999V0200501N000519999999Y999999999+02401+02401999999ADDMA1101001999999REMMET045METAR SBIZ 070900Z 05001KT CAVOK 24/24 Q1010=
0165825640999992017030710004-05531-047460FM-15+013199999V0209999C00001021341CN009999199+02401+02401999999ADDGA1021+003051999GA2041+021341999GE19MSL   +99999+99999GF199999021999003051999999MA1101101999999REMMET058METAR SBIZ 071000Z 00000KT 9999 FEW010 SCT070 24/24 Q1011=
0165825640999992017030711004-05531-047460FM-15+013199999V0202301N00051021341CN009999199+02601+02401999999ADDGA1021+003661999GA2041+021341999GE19MSL   +99999+99999GF199999021999003661999999MA1101101999999REMMET058METAR SBIZ 071100Z 23001KT 9999 FEW012 SCT070 26/24 Q1011=
0142825640999992017030712004-05531-047460FM-15+013199999V0200801N002610051819N009999199+02801+02401999999ADDGA1071+005181999GE19MSL   +99999+99999GF199999071999005181999999MA1101201999999REMMET051METAR SBIZ 071200Z 08005KT 9999 BKN017 28/24 Q1012=
0142825640999992017030713004-05531-047460FM-15+013199999V0200501N002110061019N009999199+03001+02501999999ADDGA1071+006101999GE19MSL   +99999+99999GF199999071999006101999999MA1101201999999REMMET051METAR SBIZ 071300Z 05004KT 9999 BKN020 30/25 Q1012=
0142825640999992017030714004-05531-047460FM-15+013199999V0200301N002110061019N009999199+03201+02701999999ADDGA1071+006101999GE19MSL   +99999+99999GF199999071999006101999999MA1101201999999REMMET051METAR SBIZ 071400Z 03004KT 9999 BKN020 32/27 Q1012=
0165825640999992017030715004-05531-047460FM-15+013199999V0201201N002610054919N009999199+03301+02401999999ADDGA1071+005491999GA2041+024381999GE19MSL   +99999+99999GF199999071999005491999999MA1101101999999REMMET058METAR SBIZ 071500Z 12005KT 9999 BKN018 SCT080 33/24 Q1011=
0165825640999992017030723004-05531-047460FM-15+013199999V0200201N004610213419N009999199+02501+02501999999ADDGA1041+004571999GA2071+021341999GE19MSL   +99999+99999GF199999041999004571999999MA1101101999999REMMET058METAR SBIZ 072300Z 02009KT 9999 SCT015 BKN070 25/25 Q1011=
0165825640999992017030801004-05531-047460FM-15+013199999V0209999C00001021341CN009999199+02601+02501999999ADDGA1021+004571999GA2041+021341999GE19MSL   +99999+99999GF199999021999004571999999MA1101101999999REMMET058METAR SBIZ 080100Z 00000KT 9999 FEW015 SCT070 26/25 Q1011=
0111825640999992017030809004-05531-047460FM-15+013199999V0209999C000012200019N009999199+02501+02501999999ADDGF100991999999999999999999MA1101001999999MW1611REMMET052METAR SBIZ 080900Z 00000KT 9999 -RA NSC 25/25 Q1010=
0188825640999992017030810004-05531-047460FM-15+013199999V0209999C00001015241CN009999199+02501+02401999999ADDGA1021+000911999GA2041+015241999GA3071+024381999GE19MSL   +99999+99999GF199999021999000911999999MA1101101999999REMMET065METAR SBIZ 081000Z 00000KT 9999 FEW003 SCT050 BKN080 25/24 Q1011=
0142825640999992017030812004-05531-047460FM-15+013199999V0200301N002110045719N009999199+02701+02401999999ADDGA1071+004571999GE19MSL   +99999+99999GF199999071999004571999999MA1101201999999REMMET051METAR SBIZ 081200Z 03004KT 9999 BKN015 27/24 Q1012=
0142825640999992017030813004-05531-047460FM-15+013199999V0200801N002110045719N009999199+02801+02301999999ADDGA1071+004571999GE19MSL   +99999+99999GF199999071999004571999999MA1101301999999REMMET051METAR SBIZ 081300Z 08004KT 9999 BKN015 28/23 Q1013=
0142825640999992017030814004-05531-047460FM-15+013199999V0201101N002110054919N009999199+03001+02401999999ADDGA1071+005491999GE19MSL   +99999+99999GF199999071999005491999999MA1101201999999REMMET051METAR SBIZ 081400Z 11004KT 9999 BKN018 30/24 Q1012=
0165825640999992017030816004-05531-047460FM-15+013199999V0200501N001010045719N009999199+03101+02401999999ADDGA1071+004571999GA2041+006101999GE19MSL   +99999+99999GF199999071999004571999999MA1101101999999REMMET058METAR SBIZ 081600Z 05002KT 9999 BKN015 SCT020 31/24 Q1011=
0165825640999992017030817004-05531-047460FM-15+013199999V0202501N001010061019N009999199+03301+02501999999ADDGA1041+004571999GA2071+006101999GE19MSL   +99999+99999GF199999041999004571999999MA1100901999999REMMET058METAR SBIZ 081700Z 25002KT 9999 SCT015 BKN020 33/25 Q1009=
0188825640999992017030818004-05531-047460FM-15+013199999V0202001N00151006101CN009999199+03101+02601999999ADDGA1021+004571999GA2041+006101999GA3071+024381999GE19MSL   +99999+99999GF199999021999004571999999MA1100801999999REMMET065METAR SBIZ 081800Z 20003KT 9999 FEW015 SCT020 BKN080 31/26 Q1008=
0165825640999992017030819004-05531-047460FM-15+013199999V0202401N001510045719N009999199+03201+02501999999ADDGA1071+004571999GA2071+006101999GE19MSL   +99999+99999GF199999071999004571999999MA1100801999999REMMET058METAR SBIZ 081900Z 24003KT 9999 BKN015 BKN020 32/25 Q1008=
0202825640999992017030820004-05531-047460FM-15+013199999V0200701N007210045719N008000199+02701+02501999999ADDGA1071+004571999GA2071+006101999GA3021+007621091GE19MSL   +99999+99999GF199999071999004571999999MA1100801999999MW1951REMMET073METAR SBIZ 082000Z 07014KT 8000 -TSRA BKN015 BKN020 FEW025CB 27/25 Q1008=
0198825640999992017030822004-05531-047460FM-15+013199999V0209999C000010085319N009999199+02601+02501999999ADDGA1021+007011999GA2071+008531999GA3071+021341999GE19MSL   +99999+99999GF199999021999007011999999MA1101001999999MW1611REMMET069METAR SBIZ 082200Z 00000KT 9999 -RA FEW023 BKN028 BKN070 26/25 Q1010=
0170825640999992017030823004-05531-047460FM-15+013199999V0202301N000510213419N009999199+02601+02501999999ADDGA1041+004571999GA2071+021341999GE19MSL   +99999+99999GF199999041999004571999999MA1101101999999REMMET063METAR SBIZ 082300Z 23001KT 9999 SCT015 BKN070 26/25 Q1011 RERA=
0142825640999992017030900004-05531-047460FM-15+013199999V0202301N001019999999N009999199+02601+02501999999ADDGA1041+004571999GE19MSL   +99999+99999GF199999041999004571999999MA1101201999999REMMET051METAR SBIZ 090000Z 23002KT 9999 SCT015 26/25 Q1012=
0142825640999992017030901004-05531-047460FM-15+013199999V0202301N001019999999N009999199+02601+02501999999ADDGA1041+004571999GE19MSL   +99999+99999GF199999041999004571999999MA1101201999999REMMET051METAR SBIZ 090100Z 23002KT 9999 SCT015 26/25 Q1012=
0175825640999992017030909004-05531-047460FM-15+013199999V0209999C000010045719N007000199+02301+02301999999ADDGA1071+004571999GA2081+021341999GE19MSL   +99999+99999GF199999071999004571999999MA1101101999999MW1611REMMET062METAR SBIZ 090900Z 00000KT 7000 -RA BKN015 OVC070 23/23 Q1011=
0165825640999992017030910004-05531-047460FM-15+013199999V0209999C000010045719N009999199+02301+02301999999ADDGA1071+004571999GA2041+021341999GE19MSL   +99999+99999GF199999071999004571999999MA1101101999999REMMET058METAR SBIZ 091000Z 00000KT 9999 BKN015 SCT070 23/23 Q1011=
0165825640999992017030911004-05531-047460FM-15+013199999V0203001N001510061019N009999199+02401+02301999999ADDGA1071+006101999GA2041+021341999GE19MSL   +99999+99999GF199999071999006101999999MA1101101999999REMMET058METAR SBIZ 091100Z 30003KT 9999 BKN020 SCT070 24/23 Q1011=
0165825640999992017030912004-05531-047460FM-15+013199999V0202501N002610045719N009999199+02501+02401999999ADDGA1071+004571999GA2071+024381999GE19MSL   +99999+99999GF199999071999004571999999MA1101201999999REMMET058METAR SBIZ 091200Z 25005KT 9999 BKN015 BKN080 25/24 Q1012=
0142825640999992017030914004-05531-047460FM-15+013199999V0202701N002610045719N009999199+02701+02401999999ADDGA1071+004571999GE19MSL   +99999+99999GF199999071999004571999999MA1101201999999REMMET051METAR SBIZ 091400Z 27005KT 9999 BKN015 27/24 Q1012=
0142825640999992017030915004-05531-047460FM-15+013199999V0201001N001510045719N009999199+02901+02301999999ADDGA1071+004571999GE19MSL   +99999+99999GF199999071999004571999999MA1101201999999REMMET051METAR SBIZ 091500Z 10003KT 9999 BKN015 29/23 Q1012=
0165825640999992017030916004-05531-047460FM-15+013199999V0202701N001010054919N009999199+03001+02301999999ADDGA1071+005491999GA2041+024381999GE19MSL   +99999+99999GF199999071999005491999999MA1101001999999REMMET058METAR SBIZ 091600Z 27002KT 9999 BKN018 SCT080 30/23 Q1010=
0165825640999992017030917004-05531-047460FM-15+013199999V0201901N000510061019N009999199+03101+02401999999ADDGA1071+006101999GA2041+024381999GE19MSL   +99999+99999GF199999071999006101999999MA1100901999999REMMET058METAR SBIZ 091700Z 19001KT 9999 BKN020 SCT080 31/24 Q1009=
0142825640999992017030918004-05531-047460FM-15+013199999V0201801N000510061019N009999199+03201+02401999999ADDGA1071+006101999GE19MSL   +99999+99999GF199999071999006101999999MA1100801999999REMMET051METAR SBIZ 091800Z 18001KT 9999 BKN020 32/24 Q1008=
0142825640999992017030921004-05531-047460FM-15+013199999V0202501N001519999999N009999199+03001+02401999999ADDGA1021+004571999GE19MSL   +99999+99999GF199999021999004571999999MA1100801999999REMMET051METAR SBIZ 092100Z 25003KT 9999 FEW015 30/24 Q1008=
0142825640999992017030922004-05531-047460FM-15+013199999V0202501N001519999999N009999199+02901+02401999999ADDGA1021+007011999GE19MSL   +99999+99999GF199999021999007011999999MA1100801999999REMMET051METAR SBIZ 092200Z 25003KT 9999 FEW023 29/24 Q1008=
0142825640999992017031000004-05531-047460FM-15+013199999V0202101N001019999999N009999199+02801+02501999999ADDGA1041+004571999GE19MSL   +99999+99999GF199999041999004571999999MA1101001999999REMMET051METAR SBIZ 100000Z 21002KT 9999 SCT015 28/25 Q1010=
0176825640999992017031001004-05531-047460FM-15+013199999V0200601N004619999999N009999199+02701+02501999999ADDGA1021+001831999GA2021+007621091GE19MSL   +99999+99999GF199999021999001831999999MA1101101999999MW1171REMMET063METAR SBIZ 100100Z 06009KT 9999 TS FEW006 FEW025CB 27/25 Q1011=
0165825640999992017031009004-05531-047460FM-15+013199999V0209999C000010030519N009999199+02401+02401999999ADDGA1071+003051999GA2071+024381999GE19MSL   +99999+99999GF199999071999003051999999MA1101101999999REMMET058METAR SBIZ 100900Z 00000KT 9999 BKN010 BKN080 24/24 Q1011=
0165825640999992017031010004-05531-047460FM-15+013199999V0203001N00151024381CN009999199+02401+02401999999ADDGA1021+003051999GA2041+024381999GE19MSL   +99999+99999GF199999021999003051999999MA1101101999999REMMET058METAR SBIZ 101000Z 30003KT 9999 FEW010 SCT080 24/24 Q1011=
0142825640999992017031012004-05531-047460FM-15+013199999V0209999C000010045719N009999199+02801+02501999999ADDGA1071+004571999GE19MSL   +99999+99999GF199999071999004571999999MA1101201999999REMMET051METAR SBIZ 101200Z 00000KT 9999 BKN015 28/25 Q1012=
0142825640999992017031013004-05531-047460FM-15+013199999V0203201N002110045719N009999199+02901+02501999999ADDGA1071+004571999GE19MSL   +99999+99999GF199999071999004571999999MA1101301999999REMMET051METAR SBIZ 101300Z 32004KT 9999 BKN015 29/25 Q1013=
0142825640999992017031014004-05531-047460FM-15+013199999V0200701N001510045719N009999199+03001+02501999999ADDGA1071+004571999GE19MSL   +99999+99999GF199999071999004571999999MA1101201999999REMMET051METAR SBIZ 101400Z 07003KT 9999 BKN015 30/25 Q1012=
0142825640999992017031015004-05531-047460FM-15+013199999V0202801N001510054919N009999199+03101+02501999999ADDGA1071+005491999GE19MSL   +99999+99999GF199999071999005491999999MA1101101999999REMMET051METAR SBIZ 101500Z 28003KT 9999 BKN018 31/25 Q1011=
0142825640999992017031016004-05531-047460FM-15+013199999V0202101N000510061019N009999199+03301+02501999999ADDGA1071+006101999GE19MSL   +99999+99999GF199999071999006101999999MA1101001999999REMMET051METAR SBIZ 101600Z 21001KT 9999 BKN020 33/25 Q1010=
0142825640999992017031017004-05531-047460FM-15+013199999V0203401N004119999999N009999199+03001+02501999999ADDGA1041+004571999GE19MSL   +99999+99999GF199999041999004571999999MA1100801999999REMMET051METAR SBIZ 101700Z 34008KT 9999 SCT015 30/25 Q1008=
0165825640999992017031018004-05531-047460FM-15+013199999V0203401N00461007011CN009999199+03101+02601999999ADDGA1021+004571999GA2041+007011999GE19MSL   +99999+99999GF199999021999004571999999MA1100801999999REMMET058METAR SBIZ 101800Z 34009KT 9999 FEW015 SCT023 31/26 Q1008=
0176825640999992017031019004-05531-047460FM-15+013199999V0200801N004119999999N009999199+03101+02501999999ADDGA1021+004571999GA2021+007621091GE19MSL   +99999+99999GF199999021999004571999999MA1100801999999MW1171REMMET063METAR SBIZ 101900Z 08008KT 9999 TS FEW015 FEW025CB 31/25 Q1008=
0231825640999992017031021004-05531-047460FM-15+013199999V0201101N00311006101CN009999199+02501+02501999999ADDGA1021+001521999GA2041+006101999GA3021+007621091GA4071+021341999GE19MSL   +99999+99999GF199999021999001521999999MA1100901999999MW1951REMMET086METAR SBIZ 102100Z 11006KT 9999 -TSRA FEW005 SCT020 FEW025CB BKN070 25/25 Q1009 CB SW=
0175825640999992017031023004-05531-047460FM-15+013199999V0202201N002110213419N009999199+02501+02501999999ADDGA1041+001521999GA2071+021341999GE19MSL   +99999+99999GF199999041999001521999999MA1101101999999MW1611REMMET062METAR SBIZ 102300Z 22004KT 9999 -RA SCT005 BKN070 25/25 Q1011=
0198825640999992017031100004-05531-047460FM-15+013199999V0203601N00101004571CN009999199+02501+02401999999ADDGA1021+000911999GA2041+004571999GA3071+021341999GE19MSL   +99999+99999GF199999021999000911999999MA1101201999999MW1611REMMET069METAR SBIZ 110000Z 36002KT 9999 -RA FEW003 SCT015 BKN070 25/24 Q1012=
0198825640999992017031101004-05531-047460FM-15+013199999V0200101N001510076219N009999199+02501+02401999999ADDGA1021+000911999GA2071+007621999GA3071+021341999GE19MSL   +99999+99999GF199999021999000911999999MA1101301999999MW1611REMMET069METAR SBIZ 110100Z 01003KT 9999 -RA FEW003 BKN025 BKN070 25/24 Q1013=
0170825640999992017031109004-05531-047460FM-15+013199999V0200901N001010045719N009999199+02301+02301999999ADDGA1071+004571999GA2071+021341999GE19MSL   +99999+99999GF199999071999004571999999MA1101101999999REMMET063METAR SBIZ 110900Z 09002KT 9999 BKN015 BKN070 23/23 Q1011 RERA=
0165825640999992017031110004-05531-047460FM-15+013199999V0200901N001510213419N009999199+02401+02301999999ADDGA1041+005491999GA2071+021341999GE19MSL   +99999+99999GF199999041999005491999999MA1101201999999REMMET058METAR SBIZ 111000Z 09003KT 9999 SCT018 BKN070 24/23 Q1012=
0165825640999992017031111004-05531-047460FM-15+013199999V0201901N002110045719N009999199+02401+02401999999ADDGA1071+004571999GA2071+021341999GE19MSL   +99999+99999GF199999071999004571999999MA1101201999999REMMET058METAR SBIZ 111100Z 19004KT 9999 BKN015 BKN070 24/24 Q1012=
0142825640999992017031112004-05531-047460FM-15+013199999V0209999C000010054919N009999199+02601+02401999999ADDGA1071+005491999GE19MSL   +99999+99999GF199999071999005491999999MA1101301999999REMMET051METAR SBIZ 111200Z 00000KT 9999 BKN018 26/24 Q1013=
0165825640999992017031113004-05531-047460FM-15+013199999V0202501N00051024381CN009999199+02801+02401999999ADDGA1041+006101999GA2041+024381999GE19MSL   +99999+99999GF199999041999006101999999MA1101301999999REMMET058METAR SBIZ 111300Z 25001KT 9999 SCT020 SCT080 28/24 Q1013=
0142825640999992017031115004-05531-047460FM-15+013199999V0203201N002110061019N009999199+03101+02601999999ADDGA1071+006101999GE19MSL   +99999+99999GF199999071999006101999999MA1101201999999REMMET051METAR SBIZ 111500Z 32004KT 9999 BKN020 31/26 Q1012=
0142825640999992017031116004-05531-047460FM-15+013199999V0203401N001019999999N009999199+03101+02301999999ADDGA1041+006101999GE19MSL   +99999+99999GF199999041999006101999999MA1101101999999REMMET051METAR SBIZ 111600Z 34002KT 9999 SCT020 31/23 Q1011=
0210825640999992017031118004-05531-047460FM-15+013199999V0203101N003619999999N009999199+03201+02501999999ADDGA1041+006711999GA2021+007621091GA3041+015241999GE19MSL   +99999+99999GF199999041999006711999999MA1100801999999MW1161MW2171REMMET075METAR SBIZ 111800Z 31007KT 9999 TS VCSH SCT022 FEW025CB SCT050 32/25 Q1008=
0225825640999992017031119004-05531-047460FM-15+013199999V0201301N00261004571CN009999199+02701+02301999999ADDGA1041+003051999GA2041+004571999GA3021+007621091GA4071+021341999GE19MSL   +99999+99999GF199999041999003051999999MA1100901999999MW1951REMMET080METAR SBIZ 111900Z 13005KT 9999 -TSRA SCT010 SCT015 FEW025CB BKN070 27/23 Q1009=
0180825640999992017031120004-05531-047460FM-15+013199999V0200901N003110213419N009999199+02601+02501999999ADDGA1041+004571999GA2071+021341999GE19MSL   +99999+99999GF199999041999004571999999MA1100901999999MW1611REMMET067METAR SBIZ 112000Z 09006KT 9999 -RA SCT015 BKN070 26/25 Q1009 RETS=
0165825640999992017031122004-05531-047460FM-15+013199999V0200401N002110054919N009999199+02601+02301999999ADDGA1071+005491999GA2071+021341999GE19MSL   +99999+99999GF199999071999005491999999MA1100901999999REMMET058METAR SBIZ 112200Z 04004KT 9999 BKN018 BKN070 26/23 Q1009=
0165825640999992017031123004-05531-047460FM-15+013199999V0201601N001010243819N009999199+02601+02401999999ADDGA1041+005491999GA2071+024381999GE19MSL   +99999+99999GF199999041999005491999999MA1101001999999REMMET058METAR SBIZ 112300Z 16002KT 9999 SCT018 BKN080 26/24 Q1010=
0165825640999992017031200004-05531-047460FM-15+013199999V0200801N002610048819N009999199+02501+02501999999ADDGA1071+004881999GA2071+024381999GE19MSL   +99999+99999GF199999071999004881999999MA1101101999999REMMET058METAR SBIZ 120000Z 08005KT 9999 BKN016 BKN080 25/25 Q1011=
0152825640999992017031201004-05531-047460FM-15+013199999V0202301N001010054919N009999199+02501+02501999999ADDGA1071+005491999GE19MSL   +99999+99999GF199999071999005491999999MA1101301999999MW1611REMMET055METAR SBIZ 120100Z 23002KT 9999 -RA BKN018 25/25 Q1013=
0165825640999992017031209004-05531-047460FM-15+013199999V0209999C000010030519N009999199+02501+02501999999ADDGA1021+000611999GA2071+003051999GE19MSL   +99999+99999GF199999021999000611999999MA1101001999999REMMET058METAR SBIZ 120900Z 00000KT 9999 FEW002 BKN010 25/25 Q1010=
0188825640999992017031210004-05531-047460FM-15+013199999V0200201N00101003661CN009999199+02501+02401999999ADDGA1021+000911999GA2041+003661999GA3071+024381999GE19MSL   +99999+99999GF199999021999000911999999MA1101101999999REMMET065METAR SBIZ 121000Z 02002KT 9999 FEW003 SCT012 BKN080 25/24 Q1011=
0142825640999992017031211004-05531-047460FM-15+013199999V0203401N001519999999N009999199+02501+02501999999ADDGA1041+000911999GE19MSL   +99999+99999GF199999041999000911999999MA1101201999999REMMET051METAR SBIZ 121100Z 34003KT 9999 SCT003 25/25 Q1012=
0142825640999992017031212004-05531-047460FM-15+013199999V0203501N001510024419N009999199+02701+02501999999ADDGA1071+002441999GE19MSL   +99999+99999GF199999071999002441999999MA1101301999999REMMET051METAR SBIZ 121200Z 35003KT 9999 BKN008 27/25 Q1013=
0165825640999992017031213004-05531-047460FM-15+013199999V0203601N002110243819N009999199+02801+02501999999ADDGA1041+003661999GA2071+024381999GE19MSL   +99999+99999GF199999041999003661999999MA1101301999999REMMET058METAR SBIZ 121300Z 36004KT 9999 SCT012 BKN080 28/25 Q1013=
0142825640999992017031214004-05531-047460FM-15+013199999V0203601N002110045719N009999199+03001+02401999999ADDGA1071+004571999GE19MSL   +99999+99999GF199999071999004571999999MA1101301999999REMMET051METAR SBIZ 121400Z 36004KT 9999 BKN015 30/24 Q1013=
0165825640999992017031215004-05531-047460FM-15+013199999V0203001N002610045719N009999199+03101+02401999999ADDGA1071+004571999GA2071+024381999GE19MSL   +99999+99999GF199999071999004571999999MA1101201999999REMMET058METAR SBIZ 121500Z 30005KT 9999 BKN015 BKN080 31/24 Q1012=
0165825640999992017031216004-05531-047460FM-15+013199999V0203001N001510243819N009999199+03201+02401999999ADDGA1041+004571999GA2071+024381999GE19MSL   +99999+99999GF199999041999004571999999MA1101101999999REMMET058METAR SBIZ 121600Z 30003KT 9999 SCT015 BKN080 32/24 Q1011=
0165825640999992017031217004-05531-047460FM-15+013199999V0203001N00151024381CN009999199+03301+02601999999ADDGA1041+006101999GA2041+024381999GE19MSL   +99999+99999GF199999041999006101999999MA1101001999999REMMET058METAR SBIZ 121700Z 30003KT 9999 SCT020 SCT080 33/26 Q1010=
0165825640999992017031218004-05531-047460FM-15+013199999V0200601N00101006101CN009999199+03301+02401999999ADDGA1021+004571999GA2041+006101999GE19MSL   +99999+99999GF199999021999004571999999MA1100801999999REMMET058METAR SBIZ 121800Z 06002KT 9999 FEW015 SCT020 33/24 Q1008=
0186825640999992017031220004-05531-047460FM-15+013199999V0201201N003610061019N009999199+03001+02301999999ADDGA1071+006101999GA2021+007621091GE19MSL   +99999+99999GF199999071999006101999999MA1100701999999MW1951REMMET073METAR SBIZ 122000Z 12007KT 9999 3000NE -TSRA BKN020 FEW025CB 30/23 Q1007=
0202825640999992017031221004-05531-047460FM-15+013199999V0200101N001010045719N009999199+02601+02501999999ADDGA1071+004571999GA2041+006101999GA3021+007621091GE19MSL   +99999+99999GF199999071999004571999999MA1100801999999MW1951REMMET073METAR SBIZ 122100Z 01002KT 9999 -TSRA BKN015 SCT020 FEW025CB 26/25 Q1008=
0147825640999992017031222004-05531-047460FM-15+013199999V0209999C000010045719N009999199+02601+02501999999ADDGA1071+004571999GE19MSL   +99999+99999GF199999071999004571999999MA1100901999999REMMET056METAR SBIZ 122200Z 00000KT 9999 BKN015 26/25 Q1009 RETS=
0142825640999992017031223004-05531-047460FM-15+013199999V0200501N001010045719N009999199+02601+02401999999ADDGA1071+004571999GE19MSL   +99999+99999GF199999071999004571999999MA1101001999999REMMET051METAR SBIZ 122300Z 05002KT 9999 BKN015 26/24 Q1010=
0142825640999992017031300004-05531-047460FM-15+013199999V0200901N001510045719N009999199+02501+02501999999ADDGA1071+004571999GE19MSL   +99999+99999GF199999071999004571999999MA1101101999999REMMET051METAR SBIZ 130000Z 09003KT 9999 BKN015 25/25 Q1011=
0142825640999992017031301004-05531-047460FM-15+013199999V0201201N001510045719N009999199+02501+02401999999ADDGA1071+004571999GE19MSL   +99999+99999GF199999071999004571999999MA1101201999999REMMET051METAR SBIZ 130100Z 12003KT 9999 BKN015 25/24 Q1012=
0165825640999992017031310004-05531-047460FM-15+013199999V0202901N000510045719N009999199+02501+02501999999ADDGA1041+003661999GA2071+004571999GE19MSL   +99999+99999GF199999041999003661999999MA1101101999999REMMET058METAR SBIZ 131000Z 29001KT 9999 SCT012 BKN015 25/25 Q1011=
0188825640999992017031311004-05531-047460FM-15+013199999V0203401N00151004571CN009999199+02501+02501999999ADDGA1041+001831999GA2041+004571999GA3081+021341999GE19MSL   +99999+99999GF199999041999001831999999MA1101201999999REMMET065METAR SBIZ 131100Z 34003KT 9999 SCT006 SCT015 OVC070 25/25 Q1012=
0188825640999992017031312004-05531-047460FM-15+013199999V0203601N00361004571CN009999199+02701+02501999999ADDGA1041+002441999GA2041+004571999GA3081+021341999GE19MSL   +99999+99999GF199999041999002441999999MA1101301999999REMMET065METAR SBIZ 131200Z 36007KT 9999 SCT008 SCT015 OVC070 27/25 Q1013=
0142825640999992017031314004-05531-047460FM-15+013199999V0203401N002610045719N009999199+02901+02401999999ADDGA1071+004571999GE19MSL   +99999+99999GF199999071999004571999999MA1101301999999REMMET051METAR SBIZ 131400Z 34005KT 9999 BKN015 29/24 Q1013=
0142825640999992017031315004-05531-047460FM-15+013199999V0203101N001510045719N009999199+03001+02401999999ADDGA1071+004571999GE19MSL   +99999+99999GF199999071999004571999999MA1101301999999REMMET051METAR SBIZ 131500Z 31003KT 9999 BKN015 30/24 Q1013=
0165825640999992017031316004-05531-047460FM-15+013199999V0203601N002110045719N009999199+03101+02401999999ADDGA1071+004571999GA2071+006101999GE19MSL   +99999+99999GF199999071999004571999999MA1101201999999REMMET058METAR SBIZ 131600Z 36004KT 9999 BKN015 BKN020 31/24 Q1012=
0165825640999992017031317004-05531-047460FM-15+013199999V0203101N002610061019N009999199+03201+02501999999ADDGA1041+004571999GA2071+006101999GE19MSL   +99999+99999GF199999041999004571999999MA1101001999999REMMET058METAR SBIZ 131700Z 31005KT 9999 SCT015 BKN020 32/25 Q1010=
0188825640999992017031318004-05531-047460FM-15+013199999V0203201N00261006101CN009999199+03301+02501999999ADDGA1021+004571999GA2041+006101999GA3071+024381999GE19MSL   +99999+99999GF199999021999004571999999MA1100901999999REMMET065METAR SBIZ 131800Z 32005KT 9999 FEW015 SCT020 BKN080 33/25 Q1009=
0165825640999992017031320004-05531-047460FM-15+013199999V0203301N003110045719N009999199+02801+02601999999ADDGA1071+004571999GA2041+006101999GE19MSL   +99999+99999GF199999071999004571999999MA1100801999999REMMET058METAR SBIZ 132000Z 33006KT 9999 BKN015 SCT020 28/26 Q1008=
0165825640999992017031321004-05531-047460FM-15+013199999V0209999C00001024381CN009999199+03001+02501999999ADDGA1021+007011999GA2041+024381999GE19MSL   +99999+99999GF199999021999007011999999MA1100801999999REMMET058METAR SBIZ 132100Z 00000KT 9999 FEW023 SCT080 30/25 Q1008=
0142825640999992017031323004-05531-047460FM-15+013199999V0201401N000519999999N009999199+02701+02601999999ADDGA1021+004571999GE19MSL   +99999+99999GF199999021999004571999999MA1101001999999REMMET051METAR SBIZ 132300Z 14001KT 9999 FEW015 27/26 Q1010=
0165825640999992017031401004-05531-047460FM-15+013199999V0202301N00101024381CN009999199+02701+02601999999ADDGA1021+004571999GA2041+024381999GE19MSL   +99999+99999GF199999021999004571999999MA1101101999999REMMET058METAR SBIZ 140100Z 23002KT 9999 FEW015 SCT080 27/26 Q1011=
0142825640999992017031409004-05531-047460FM-15+013199999V0209999C000010045719N009999199+02501+02501999999ADDGA1071+004571999GE19MSL   +99999+99999GF199999071999004571999999MA1101101999999REMMET051METAR SBIZ 140900Z 00000KT 9999 BKN015 25/25 Q1011=
0112825640999992017031410004-05531-047460FM-15+013199999V0201001N001519999999N000800199+02501+02501999999ADDGF109991999999999999999999MA1101101999999MW1441REMMET053METAR SBIZ 141000Z 10003KT 0800 FG VV/// 25/25 Q1011=
0151825640999992017031411004-05531-047460FM-15+013199999V0200301N003110024419N002000199+02601+02501999999ADDGA1081+002441999GE19MSL   +99999+99999GF199999081999002441999999MA1101101999999MW1101REMMET054METAR SBIZ 141100Z 03006KT 2000 BR OVC008 26/25 Q1011=
0142825640999992017031412004-05531-047460FM-15+013199999V0200301N001510045719N009999199+02701+02501999999ADDGA1071+004571999GE19MSL   +99999+99999GF199999071999004571999999MA1101201999999REMMET051METAR SBIZ 141200Z 03003KT 9999 BKN015 27/25 Q1012=
0165825640999992017031414004-05531-047460FM-15+013199999V0203601N001510045719N009999199+03201+02401999999ADDGA1071+004571999GA2071+006101999GE19MSL   +99999+99999GF199999071999004571999999MA1101301999999REMMET058METAR SBIZ 141400Z 36003KT 9999 BKN015 BKN020 32/24 Q1013=
0142825640999992017031415004-05531-047460FM-15+013199999V0200501N001519999999N009999199+03201+02501999999ADDGA1041+007011999GE19MSL   +99999+99999GF199999041999007011999999MA1101101999999REMMET051METAR SBIZ 141500Z 05003KT 9999 SCT023 32/25 Q1011=
0165825640999992017031416004-05531-047460FM-15+013199999V0203101N00101007621CN009999199+03201+02501999999ADDGA1021+004571999GA2041+007621999GE19MSL   +99999+99999GF199999021999004571999999MA1101101999999REMMET058METAR SBIZ 141600Z 31002KT 9999 FEW015 SCT025 32/25 Q1011=
0168825640999992017031417004-05531-047460FM-15+013199999V0202901N003119999999N009999199+03201+02501999999ADDGA1021+004571999GA2021+007621081GE19MSL   +99999+99999GF199999021999004571999999MA1100901999999REMMET061METAR SBIZ 141700Z 29006KT 9999 FEW015 FEW025TCU 32/25 Q1009=
0176825640999992017031418004-05531-047460FM-15+013199999V0200501N003119999999N009999199+03001+02401999999ADDGA1021+007011999GA2021+007621091GE19MSL   +99999+99999GF199999021999007011999999MA1100801999999MW1171REMMET063METAR SBIZ 141800Z 05006KT 9999 TS FEW023 FEW025CB 30/24 Q1008=
0142825640999992017031420004-05531-047460FM-15+013199999V0201401N003619999999N009999199+03001+02401999999ADDGA1021+007621999GE19MSL   +99999+99999GF199999021999007621999999MA1100701999999REMMET051METAR SBIZ 142000Z 14007KT 9999 FEW025 30/24 Q1007=
0142825640999992017031422004-05531-047460FM-15+013199999V0200701N002619999999N009999199+02701+02401999999ADDGA1041+007621999GE19MSL   +99999+99999GF199999041999007621999999MA1100901999999REMMET051METAR SBIZ 142200Z 07005KT 9999 SCT025 27/24 Q1009=
0178825640999992017031423004-05531-047460FM-15+013199999V0201301N001019999999N009999199+02701+02501999999ADDGA1041+007621999GA2021+009141091GE19MSL   +99999+99999GF199999041999007621999999MA1100901999999MW1131REMMET065METAR SBIZ 142300Z 13002KT 9999 VCTS SCT025 FEW030CB 27/25 Q1009=
0178825640999992017031500004-05531-047460FM-15+013199999V0200301N001519999999N009999199+02601+02501999999ADDGA1021+004571999GA2021+009141091GE19MSL   +99999+99999GF199999021999004571999999MA1101001999999MW1131REMMET065METAR SBIZ 150000Z 03003KT 9999 VCTS FEW015 FEW030CB 26/25 Q1010=
0178825640999992017031501004-05531-047460FM-15+013199999V0200901N000519999999N009999199+02601+02501999999ADDGA1021+007621999GA2021+009141091GE19MSL   +99999+99999GF199999021999007621999999MA1101101999999MW1131REMMET065METAR SBIZ 150100Z 09001KT 9999 VCTS FEW025 FEW030CB 26/25 Q1011=
0229825640999992017031509004-05531-047460FM-15+013199999V0200901N001510045719N003000199+02401+02301999999ADDGA1041+002741999GA2071+004571999GA3021+007621091GA4071+021341999GE19MSL   +99999+99999GF199999041999002741999999MA1101101999999MW1951REMMET084METAR SBIZ 150900Z 09003KT 3000 TSRA SCT009 BKN015 FEW025CB BKN070 24/23 Q1011 RERA=
0225825640999992017031510004-05531-047460FM-15+013199999V0200101N00051004571CN004000199+02401+02401999999ADDGA1021+001831999GA2041+004571999GA3021+007621091GA4081+021341999GE19MSL   +99999+99999GF199999021999001831999999MA1101201999999MW1951REMMET080METAR SBIZ 151000Z 01001KT 4000 -TSRA FEW006 SCT015 FEW025CB OVC070 24/24 Q1012=
0188825640999992017031512004-05531-047460FM-15+013199999V0209999C00001004571CN009999199+02401+02401999999ADDGA1041+001831999GA2041+004571999GA3071+021341999GE19MSL   +99999+99999GF199999041999001831999999MA1101301999999REMMET065METAR SBIZ 151200Z 00000KT 9999 SCT006 SCT015 BKN070 24/24 Q1013=
0165825640999992017031513004-05531-047460FM-15+013199999V0202901N001010213419N009999199+02501+02401999999ADDGA1041+003051999GA2071+021341999GE19MSL   +99999+99999GF199999041999003051999999MA1101301999999REMMET058METAR SBIZ 151300Z 29002KT 9999 SCT010 BKN070 25/24 Q1013=
0165825640999992017031515004-05531-047460FM-15+013199999V0200201N001510045719N009999199+02801+02501999999ADDGA1071+004571999GA2081+030481999GE19MSL   +99999+99999GF199999071999004571999999MA1101201999999REMMET058METAR SBIZ 151500Z 02003KT 9999 BKN015 OVC100 28/25 Q1012=
0165825640999992017031516004-05531-047460FM-15+013199999V0200901N001510054919N009999199+02901+02501999999ADDGA1071+005491999GA2071+030481999GE19MSL   +99999+99999GF199999071999005491999999MA1101101999999REMMET058METAR SBIZ 151600Z 09003KT 9999 BKN018 BKN100 29/25 Q1011=
0165825640999992017031517004-05531-047460FM-15+013199999V0203201N002610061019N009999199+03001+02501999999ADDGA1071+006101999GA2081+030481999GE19MSL   +99999+99999GF199999071999006101999999MA1101001999999REMMET058METAR SBIZ 151700Z 32005KT 9999 BKN020 OVC100 30/25 Q1010=
0188825640999992017031518004-05531-047460FM-15+013199999V0202701N004610061019N009999199+02901+02501999999ADDGA1071+006101999GA2041+007621999GA3071+030481999GE19MSL   +99999+99999GF199999071999006101999999MA1100901999999REMMET065METAR SBIZ 151800Z 27009KT 9999 BKN020 SCT025 BKN100 29/25 Q1009=
0165825640999992017031519004-05531-047460FM-15+013199999V0202601N00361007621CN009999199+03001+02501999999ADDGA1021+006101999GA2041+007621999GE19MSL   +99999+99999GF199999021999006101999999MA1100801999999REMMET058METAR SBIZ 151900Z 26007KT 9999 FEW020 SCT025 30/25 Q1008=
0142825640999992017031520004-05531-047460FM-15+013199999V0202501N002119999999N009999199+03101+02601999999ADDGA1041+009141999GE19MSL   +99999+99999GF199999041999009141999999MA1100801999999REMMET051METAR SBIZ 152000Z 25004KT 9999 SCT030 31/26 Q1008=
0165825640999992017031521004-05531-047460FM-15+013199999V0202401N00311024381CN009999199+03001+02501999999ADDGA1041+007621999GA2041+024381999GE19MSL   +99999+99999GF199999041999007621999999MA1100901999999REMMET058METAR SBIZ 152100Z 24006KT 9999 SCT025 SCT080 30/25 Q1009=
0165825640999992017031522004-05531-047460FM-15+013199999V0202601N002110243819N009999199+02801+02501999999ADDGA1041+007621999GA2071+024381999GE19MSL   +99999+99999GF199999041999007621999999MA1101001999999REMMET058METAR SBIZ 152200Z 26004KT 9999 SCT025 BKN080 28/25 Q1010=
0142825640999992017031523004-05531-047460FM-15+013199999V0202201N001019999999N009999199+02701+02501999999ADDGA1041+007621999GE19MSL   +99999+99999GF199999041999007621999999MA1101101999999REMMET051METAR SBIZ 152300Z 22002KT 9999 SCT025 27/25 Q1011=
0178825640999992017031600004-05531-047460FM-15+013199999V0202101N001519999999N009999199+02601+02501999999ADDGA1021+006101999GA2021+007621091GE19MSL   +99999+99999GF199999021999006101999999MA1101201999999MW1131REMMET065METAR SBIZ 160000Z 21003KT 9999 VCTS FEW020 FEW025CB 26/25 Q1012=
0178825640999992017031601004-05531-047460FM-15+013199999V0202301N001019999999N009999199+02601+02301999999ADDGA1021+006101999GA2021+007621091GE19MSL   +99999+99999GF199999021999006101999999MA1101201999999MW1131REMMET065METAR SBIZ 160100Z 23002KT 9999 VCTS FEW020 FEW025CB 26/23 Q1012=
0165825640999992017031609004-05531-047460FM-15+013199999V0202601N00051009141CN009999199+02401+02401999999ADDGA1021+003051999GA2041+009141999GE19MSL   +99999+99999GF199999021999003051999999MA1101201999999REMMET058METAR SBIZ 160900Z 26001KT 9999 FEW010 SCT030 24/24 Q1012=
0142825640999992017031610004-05531-047460FM-15+013199999V0202601N000519999999N009999199+02501+02401999999ADDGA1021+003051999GE19MSL   +99999+99999GF199999021999003051999999MA1101201999999REMMET051METAR SBIZ 161000Z 26001KT 9999 FEW010 25/24 Q1012=
0142825640999992017031612004-05531-047460FM-15+013199999V0201601N003110045719N009999199+02701+02401999999ADDGA1071+004571999GE19MSL   +99999+99999GF199999071999004571999999MA1101301999999REMMET051METAR SBIZ 161200Z 16006KT 9999 BKN015 27/24 Q1013=
0142825640999992017031613004-05531-047460FM-15+013199999V0201201N001510054919N009999199+02901+02401999999ADDGA1071+005491999GE19MSL   +99999+99999GF199999071999005491999999MA1101301999999REMMET051METAR SBIZ 161300Z 12003KT 9999 BKN018 29/24 Q1013=
0142825640999992017031615004-05531-047460FM-15+013199999V0200901N001510061019N009999199+03001+02401999999ADDGA1071+006101999GE19MSL   +99999+99999GF199999071999006101999999MA1101201999999REMMET051METAR SBIZ 161500Z 09003KT 9999 BKN020 30/24 Q1012=
0165825640999992017031617004-05531-047460FM-15+013199999V0200701N002110274319N009999199+03201+02501999999ADDGA1041+006101999GA2071+027431999GE19MSL   +99999+99999GF199999041999006101999999MA1101001999999REMMET058METAR SBIZ 161700Z 07004KT 9999 SCT020 BKN090 32/25 Q1010=
0165825640999992017031618004-05531-047460FM-15+013199999V0201301N001010243819N009999199+03201+02501999999ADDGA1021+006101999GA2071+024381999GE19MSL   +99999+99999GF199999021999006101999999MA1100801999999REMMET058METAR SBIZ 161800Z 13002KT 9999 FEW020 BKN080 32/25 Q1008=
0165825640999992017031619004-05531-047460FM-15+013199999V0202501N002110213419N009999199+03201+02501999999ADDGA1021+006101999GA2071+021341999GE19MSL   +99999+99999GF199999021999006101999999MA1100801999999REMMET058METAR SBIZ 161900Z 25004KT 9999 FEW020 BKN070 32/25 Q1008=
0165825640999992017031620004-05531-047460FM-15+013199999V0202301N00261021341CN009999199+03101+02501999999ADDGA1021+006101999GA2041+021341999GE19MSL   +99999+99999GF199999021999006101999999MA1100701999999REMMET058METAR SBIZ 162000Z 23005KT 9999 FEW020 SCT070 31/25 Q1007=
0165825640999992017031621004-05531-047460FM-15+013199999V0202101N002110243819N009999199+03101+02401999999ADDGA1021+006101999GA2071+024381999GE19MSL   +99999+99999GF199999021999006101999999MA1100801999999REMMET058METAR SBIZ 162100Z 21004KT 9999 FEW020 BKN080 31/24 Q1008=
0165825640999992017031622004-05531-047460FM-15+013199999V0202401N001510243819N009999199+02901+02501999999ADDGA1021+004571999GA2071+024381999GE19MSL   +99999+99999GF199999021999004571999999MA1100901999999REMMET058METAR SBIZ 162200Z 24003KT 9999 FEW015 BKN080 29/25 Q1009=
0142825640999992017031623004-05531-047460FM-15+013199999V0209999C000019999999N009999199+02801+02501999999ADDGA1021+004571999GE19MSL   +99999+99999GF199999021999004571999999MA1101001999999REMMET051METAR SBIZ 162300Z 00000KT 9999 FEW015 28/25 Q1010=
0142825640999992017031700004-05531-047460FM-15+013199999V0200201N002119999999N009999199+02701+02501999999ADDGA1021+004571999GE19MSL   +99999+99999GF199999021999004571999999MA1101101999999REMMET051METAR SBIZ 170000Z 02004KT 9999 FEW015 27/25 Q1011=
0178825640999992017031701004-05531-047460FM-15+013199999V0203501N002119999999N009999199+02701+02501999999ADDGA1021+004571999GA2021+007621091GE19MSL   +99999+99999GF199999021999004571999999MA1101201999999MW1131REMMET065METAR SBIZ 170100Z 35004KT 9999 VCTS FEW015 FEW025CB 27/25 Q1012=
0165825640999992017031709004-05531-047460FM-15+013199999V0209999C00001024381CN009999199+02501+02401999999ADDGA1021+003051999GA2041+024381999GE19MSL   +99999+99999GF199999021999003051999999MA1101101999999REMMET058METAR SBIZ 170900Z 00000KT 9999 FEW010 SCT080 25/24 Q1011=
0165825640999992017031710004-05531-047460FM-15+013199999V0209999C00001024381CN009999199+02401+02301999999ADDGA1021+006101999GA2041+024381999GE19MSL   +99999+99999GF199999021999006101999999MA1101201999999REMMET058METAR SBIZ 171000Z 00000KT 9999 FEW020 SCT080 24/23 Q1012=
0165825640999992017031711004-05531-047460FM-15+013199999V0201001N002110243819N009999199+02601+02401999999ADDGA1041+004571999GA2071+024381999GE19MSL   +99999+99999GF199999041999004571999999MA1101301999999REMMET058METAR SBIZ 171100Z 10004KT 9999 SCT015 BKN080 26/24 Q1013=
0142825640999992017031712004-05531-047460FM-15+013199999V0200501N002610045719N009999199+02701+02301999999ADDGA1071+004571999GE19MSL   +99999+99999GF199999071999004571999999MA1101401999999REMMET051METAR SBIZ 171200Z 05005KT 9999 BKN015 27/23 Q1014=
0142825640999992017031713004-05531-047460FM-15+013199999V0200301N003110045719N009999199+02801+02301999999ADDGA1071+004571999GE19MSL   +99999+99999GF199999071999004571999999MA1101401999999REMMET051METAR SBIZ 171300Z 03006KT 9999 BKN015 28/23 Q1014=
0142825640999992017031714004-05531-047460FM-15+013199999V0203501N002110045719N009999199+02801+02401999999ADDGA1071+004571999GE19MSL   +99999+99999GF199999071999004571999999MA1101401999999REMMET051METAR SBIZ 171400Z 35004KT 9999 BKN015 28/24 Q1014=
0188825640999992017031715004-05531-047460FM-15+013199999V0203501N001510045719N009999199+02901+02401999999ADDGA1021+003661999GA2071+004571999GA3071+021341999GE19MSL   +99999+99999GF199999021999003661999999MA1101301999999REMMET065METAR SBIZ 171500Z 35003KT 9999 FEW012 BKN015 BKN070 29/24 Q1013=
0187825640999992017031717004-05531-047460FM-15+013199999V0203301N002610061019N009999199+02601+02501999999ADDGA1071+006101999GA2071+021341999GE19MSL   +99999+99999GF199999071999006101999999MA1101101999999MW1611REMMET074METAR SBIZ 171700Z 33005KT 9999 4000NW -RA BKN020 BKN070 26/25 Q1011 RERA=
0179825640999992017031719004-05531-047460FM-15+013199999V0203601N00361021341CN009999199+02901+02401999999ADDGA1021+007621081GA2041+021341999GE19MSL   +99999+99999GF199999021999007621999999MA1100901999999MW1161REMMET066METAR SBIZ 171900Z 36007KT 9999 VCSH FEW025TCU SCT070 29/24 Q1009=
0202825640999992017031720004-05531-047460FM-15+013199999V0200101N001510091419N009999199+02901+02401999999ADDGA1021+007621081GA2071+009141999GA3071+021341999GE19MSL   +99999+99999GF199999021999007621999999MA1100901999999MW1161REMMET073METAR SBIZ 172000Z 01003KT 9999 VCSH FEW025TCU BKN030 BKN070 29/24 Q1009=
0175825640999992017031721004-05531-047460FM-15+013199999V0200901N005710018319N001000199+02501+02401999999ADDGA1071+001831999GA2081+021341999GE19MSL   +99999+99999GF199999071999001831999999MA1101101999999MW1651REMMET062METAR SBIZ 172100Z 09011KT 1000 +RA BKN006 OVC070 25/24 Q1011=
0203825640999992017031722004-05531-047460FM-15+013199999V0200501N001010045719N005000199+02401+02401999999ADDGA1041+003051999GA2071+004571999GA3081+021341999GE19MSL   +99999+99999GF199999041999003051999999MA1101101999999MW1611REMMET074METAR SBIZ 172200Z 05002KT 5000 -RA SCT010 BKN015 OVC070 24/24 Q1011 RERA=
0175825640999992017031800004-05531-047460FM-15+013199999V0209999C000010045719N007000199+02401+02401999999ADDGA1071+004571999GA2081+021341999GE19MSL   +99999+99999GF199999071999004571999999MA1101301999999MW1611REMMET062METAR SBIZ 180000Z 00000KT 7000 -RA BKN015 OVC070 24/24 Q1013=
0175825640999992017031801004-05531-047460FM-15+013199999V0203001N001510213419N009000199+02401+02401999999ADDGA1041+004571999GA2081+021341999GE19MSL   +99999+99999GF199999041999004571999999MA1101301999999MW1611REMMET062METAR SBIZ 180100Z 30003KT 9000 -RA SCT015 OVC070 24/24 Q1013=
0142825640999992017031809004-05531-047460FM-15+013199999V0209999C000019999999N009999199+02401+02401999999ADDGA1041+000611999GE19MSL   +99999+99999GF199999041999000611999999MA1101201999999REMMET051METAR SBIZ 180900Z 00000KT 9999 SCT002 24/24 Q1012=
0165825640999992017031810004-05531-047460FM-15+013199999V0209999C000010213419N009999199+02401+02401999999ADDGA1041+002441999GA2081+021341999GE19MSL   +99999+99999GF199999041999002441999999MA1101201999999REMMET058METAR SBIZ 181000Z 00000KT 9999 SCT008 OVC070 24/24 Q1012=
0188825640999992017031811004-05531-047460FM-15+013199999V0209999C00001003051CN009999199+02501+02401999999ADDGA1021+000301999GA2041+003051999GA3071+024381999GE19MSL   +99999+99999GF199999021999000301999999MA1101401999999REMMET065METAR SBIZ 181100Z 00000KT 9999 FEW001 SCT010 BKN080 25/24 Q1014=
0142825640999992017031812004-05531-047460FM-15+013199999V0202601N000510045719N009999199+02701+02401999999ADDGA1071+004571999GE19MSL   +99999+99999GF199999071999004571999999MA1101401999999REMMET051METAR SBIZ 181200Z 26001KT 9999 BKN015 27/24 Q1014=
0165825640999992017031813004-05531-047460FM-15+013199999V0200601N000510045719N009999199+02801+02501999999ADDGA1071+004571999GA2041+024381999GE19MSL   +99999+99999GF199999071999004571999999MA1101401999999REMMET058METAR SBIZ 181300Z 06001KT 9999 BKN015 SCT080 28/25 Q1014=
0165825640999992017031814004-05531-047460FM-15+013199999V0201101N001510045719N009999199+03001+02401999999ADDGA1071+004571999GA2041+024381999GE19MSL   +99999+99999GF199999071999004571999999MA1101301999999REMMET058METAR SBIZ 181400Z 11003KT 9999 BKN015 SCT080 30/24 Q1013=
0165825640999992017031816004-05531-047460FM-15+013199999V0203501N001510061019N009999199+03301+02401999999ADDGA1041+004571999GA2071+006101999GE19MSL   +99999+99999GF199999041999004571999999MA1101201999999REMMET058METAR SBIZ 181600Z 35003KT 9999 SCT015 BKN020 33/24 Q1012=
0165825640999992017031818004-05531-047460FM-15+013199999V0202601N002610045719N009999199+03201+02501999999ADDGA1071+004571999GA2071+006101999GE19MSL   +99999+99999GF199999071999004571999999MA1101101999999REMMET058METAR SBIZ 181800Z 26005KT 9999 BKN015 BKN020 32/25 Q1011=
0188825640999992017031820004-05531-047460FM-15+013199999V0200301N004110045719N009999199+02701+02501999999ADDGA1071+004571999GA2041+006101999GA3071+024381999GE19MSL   +99999+99999GF199999071999004571999999MA1101001999999REMMET065METAR SBIZ 182000Z 03008KT 9999 BKN015 SCT020 BKN080 27/25 Q1010=
0142825640999992017031822004-05531-047460FM-15+013199999V0200701N001019999999N009999199+02701+02501999999ADDGA1021+004571999GE19MSL   +99999+99999GF199999021999004571999999MA1101201999999REMMET051METAR SBIZ 182200Z 07002KT 9999 FEW015 27/25 Q1012=
0142825640999992017031823004-05531-047460FM-15+013199999V0200501N000519999999N009999199+02601+02401999999ADDGA1021+004571999GE19MSL   +99999+99999GF199999021999004571999999MA1101301999999REMMET051METAR SBIZ 182300Z 05001KT 9999 FEW015 26/24 Q1013=
0142825640999992017031901004-05531-047460FM-15+013199999V0202201N000519999999N009999199+02501+02401999999ADDGA1021+004571999GE19MSL   +99999+99999GF199999021999004571999999MA1101401999999REMMET051METAR SBIZ 190100Z 22001KT 9999 FEW015 25/24 Q1014=
0151825640999992017031909004-05531-047460FM-15+013199999V0209999C000010045719N005000199+02401+02401999999ADDGA1071+004571999GE19MSL   +99999+99999GF199999071999004571999999MA1101201999999MW1101REMMET054METAR SBIZ 190900Z 00000KT 5000 BR BKN015 24/24 Q1012=
0174825640999992017031910004-05531-047460FM-15+013199999V0209999C000010045719N005000199+02401+02401999999ADDGA1071+004571999GA2081+021341999GE19MSL   +99999+99999GF199999071999004571999999MA1101201999999MW1101REMMET061METAR SBIZ 191000Z 00000KT 5000 BR BKN015 OVC070 24/24 Q1012=
0142825640999992017031912004-05531-047460FM-15+013199999V0201501N002110045719N009999199+02701+02401999999ADDGA1071+004571999GE19MSL   +99999+99999GF199999071999004571999999MA1101301999999REMMET051METAR SBIZ 191200Z 15004KT 9999 BKN015 27/24 Q1013=
0142825640999992017031913004-05531-047460FM-15+013199999V0201501N001019999999N009999199+02901+02501999999ADDGA1021+004571999GE19MSL   +99999+99999GF199999021999004571999999MA1101301999999REMMET051METAR SBIZ 191300Z 15002KT 9999 FEW015 29/25 Q1013=
0165825640999992017031914004-05531-047460FM-15+013199999V0200201N001510061019N009999199+03101+02401999999ADDGA1021+004571999GA2071+006101999GE19MSL   +99999+99999GF199999021999004571999999MA1101301999999REMMET058METAR SBIZ 191400Z 02003KT 9999 FEW015 BKN020 31/24 Q1013=
0142825640999992017031915004-05531-047460FM-15+013199999V0201101N004110061019N009999199+03301+02301999999ADDGA1071+006101999GE19MSL   +99999+99999GF199999071999006101999999MA1101201999999REMMET051METAR SBIZ 191500Z 11008KT 9999 BKN020 33/23 Q1012=
0142825640999992017031916004-05531-047460FM-15+013199999V0201901N001010070119N009999199+03401+02401999999ADDGA1071+007011999GE19MSL   +99999+99999GF199999071999007011999999MA1101101999999REMMET051METAR SBIZ 191600Z 19002KT 9999 BKN023 34/24 Q1011=
0142825640999992017031918004-05531-047460FM-15+013199999V0201101N001510076219N009999199+03501+02301999999ADDGA1071+007621999GE19MSL   +99999+99999GF199999071999007621999999MA1100901999999REMMET051METAR SBIZ 191800Z 11003KT 9999 BKN025 35/23 Q1009=
0142825640999992017031921004-05531-047460FM-15+013199999V0200401N002619999999N009999199+03101+02301999999ADDGA1021+006101999GE19MSL   +99999+99999GF199999021999006101999999MA1100901999999REMMET051METAR SBIZ 192100Z 04005KT 9999 FEW020 31/23 Q1009=
0142825640999992017031922004-05531-047460FM-15+013199999V0200401N002619999999N009999199+02901+02401999999ADDGA1021+006101999GE19MSL   +99999+99999GF199999021999006101999999MA1100901999999REMMET051METAR SBIZ 192200Z 04005KT 9999 FEW020 29/24 Q1009=
0142825640999992017031923004-05531-047460FM-15+013199999V0202201N001019999999N009999199+02701+02401999999ADDGA1021+004571999GE19MSL   +99999+99999GF199999021999004571999999MA1101001999999REMMET051METAR SBIZ 192300Z 22002KT 9999 FEW015 27/24 Q1010=
0142825640999992017032000004-05531-047460FM-15+013199999V0202001N001019999999N009999199+02701+02401999999ADDGA1021+004571999GE19MSL   +99999+99999GF199999021999004571999999MA1101101999999REMMET051METAR SBIZ 200000Z 20002KT 9999 FEW015 27/24 Q1011=
0142825640999992017032001004-05531-047460FM-15+013199999V0202101N001019999999N009999199+02601+02501999999ADDGA1021+004571999GE19MSL   +99999+99999GF199999021999004571999999MA1101101999999REMMET051METAR SBIZ 200100Z 21002KT 9999 FEW015 26/25 Q1011=
0142825640999992017032009004-05531-047460FM-15+013199999V0202301N000519999999N009999199+02401+02401999999ADDGA1021+009141999GE19MSL   +99999+99999GF199999021999009141999999MA1101201999999REMMET051METAR SBIZ 200900Z 23001KT 9999 FEW030 24/24 Q1012=
0072825640999992017032010004-05531-047460FM-15+013199999V0209999C000019999999Y999999999+02501+02401999999ADDMA1101301999999REMMET045METAR SBIZ 201000Z 00000KT CAVOK 25/24 Q1013=
0142825640999992017032012004-05531-047460FM-15+013199999V0200501N001519999999N009999199+02901+02401999999ADDGA1021+006101999GE19MSL   +99999+99999GF199999021999006101999999MA1101401999999REMMET051METAR SBIZ 201200Z 05003KT 9999 FEW020 29/24 Q1014=
0142825640999992017032013004-05531-047460FM-15+013199999V0200401N002119999999N009999199+03101+02401999999ADDGA1041+006101999GE19MSL   +99999+99999GF199999041999006101999999MA1101301999999REMMET051METAR SBIZ 201300Z 04004KT 9999 SCT020 31/24 Q1013=
0142825640999992017032014004-05531-047460FM-15+013199999V0200701N001010061019N009999199+03201+02401999999ADDGA1071+006101999GE19MSL   +99999+99999GF199999071999006101999999MA1101301999999REMMET051METAR SBIZ 201400Z 07002KT 9999 BKN020 32/24 Q1013=
0176825640999992017032016004-05531-047460FM-15+013199999V0201801N002110076219N009999199+03401+02501999999ADDGA1071+007621999GA2021+009141091GE19MSL   +99999+99999GF199999071999007621999999MA1101101999999MW1171REMMET063METAR SBIZ 201600Z 18004KT 9999 TS BKN025 FEW030CB 34/25 Q1011=
0184825640999992017032017004-05531-047460FM-15+013199999V0202301N002119999999N009999199+02801+02401999999ADDGA1041+007621999GA2021+009141081GE19MSL   +99999+99999GF199999041999007621999999MA1101001999999MW1161REMMET071METAR SBIZ 201700Z 23004KT 9999 VCSH SCT025 FEW030TCU 28/24 Q1010 RETS=
0187825640999992017032018004-05531-047460FM-15+013199999V0202701N001519999999N009999199+02901+02501999999ADDGA1041+007621999GA2021+009141091GE19MSL   +99999+99999GF199999041999007621999999MA1101001999999MW1161MW2171REMMET068METAR SBIZ 201800Z 27003KT 9999 TS VCSH SCT025 FEW030CB 29/25 Q1010=
0142825640999992017032020004-05531-047460FM-15+013199999V0200301N002119999999N009999199+02801+02401999999ADDGA1021+009141999GE19MSL   +99999+99999GF199999021999009141999999MA1100901999999REMMET051METAR SBIZ 202000Z 03004KT 9999 FEW030 28/24 Q1009=
0072825640999992017032022004-05531-047460FM-15+013199999V0203601N000519999999Y999999999+02701+02401999999ADDMA1101001999999REMMET045METAR SBIZ 202200Z 36001KT CAVOK 27/24 Q1010=
0072825640999992017032023004-05531-047460FM-15+013199999V0200601N001019999999Y999999999+02701+02501999999ADDMA1101101999999REMMET045METAR SBIZ 202300Z 06002KT CAVOK 27/25 Q1011=
0072825640999992017032100004-05531-047460FM-15+013199999V0209999C000019999999Y999999999+02601+02501999999ADDMA1101201999999REMMET045METAR SBIZ 210000Z 00000KT CAVOK 26/25 Q1012=
0072825640999992017032101004-05531-047460FM-15+013199999V0200201N001019999999Y999999999+02601+02501999999ADDMA1101301999999REMMET045METAR SBIZ 210100Z 02002KT CAVOK 26/25 Q1013=
0072825640999992017032102004-05531-047460FM-15+013199999V0201301N001019999999Y999999999+02601+02501999999ADDMA1101301999999REMMET045METAR SBIZ 210200Z 13002KT CAVOK 26/25 Q1013=
0178825640999992017032103004-05531-047460FM-15+013199999V0201401N00101021341CN009999199+02501+02501999999ADDGA1021+007621091GA2041+021341999GE19MSL   +99999+99999GF199999021999007621999999MA1101201999999MW1131REMMET065METAR SBIZ 210300Z 14002KT 9999 VCTS FEW025CB SCT070 25/25 Q1012=
0178825640999992017032105004-05531-047460FM-15+013199999V0200301N001019999999N009999199+02501+02501999999ADDGA1021+004571999GA2021+007621091GE19MSL   +99999+99999GF199999021999004571999999MA1101201999999MW1131REMMET065METAR SBIZ 210500Z 03002KT 9999 VCTS FEW015 FEW025CB 25/25 Q1012=
0202825640999992017032107004-05531-047460FM-15+013199999V0200401N00261003661CN009999199+02501+02401999999ADDGA1021+000911999GA2041+003661999GA3021+007621091GE19MSL   +99999+99999GF199999021999000911999999MA1101201999999MW1951REMMET073METAR SBIZ 210700Z 04005KT 9999 -TSRA FEW003 SCT012 FEW025CB 25/24 Q1012=
0224825640999992017032109004-05531-047460FM-15+013199999V0200101N00151004571CN009999199+02501+02401999999ADDGA1021+000911999GA2041+004571999GA3021+007621091GA4071+021341999GE19MSL   +99999+99999GF199999021999000911999999MA1101301999999MW1131REMMET079METAR SBIZ 210900Z 01003KT 9999 VCTS FEW003 SCT015 FEW025CB BKN070 25/24 Q1013=
0188825640999992017032111004-05531-047460FM-15+013199999V0209999C00001015241CN009999199+02501+02301999999ADDGA1021+003051999GA2041+015241999GA3071+024381999GE19MSL   +99999+99999GF199999021999003051999999MA1101501999999REMMET065METAR SBIZ 211100Z 00000KT 9999 FEW010 SCT050 BKN080 25/23 Q1015=
0188825640999992017032112004-05531-047460FM-15+013199999V0203201N00151015241CN009999199+02601+02401999999ADDGA1021+003051999GA2041+015241999GA3071+024381999GE19MSL   +99999+99999GF199999021999003051999999MA1101601999999REMMET065METAR SBIZ 211200Z 32003KT 9999 FEW010 SCT050 BKN080 26/24 Q1016=
0165825640999992017032114004-05531-047460FM-15+013199999V0203301N003110045719N009999199+02801+02401999999ADDGA1071+004571999GA2071+030481999GE19MSL   +99999+99999GF199999071999004571999999MA1101601999999REMMET058METAR SBIZ 211400Z 33006KT 9999 BKN015 BKN100 28/24 Q1016=
0165825640999992017032115004-05531-047460FM-15+013199999V0200101N004110054919N009999199+02801+02401999999ADDGA1071+005491999GA2081+021341999GE19MSL   +99999+99999GF199999071999005491999999MA1101501999999REMMET058METAR SBIZ 211500Z 01008KT 9999 BKN018 OVC070 28/24 Q1015=
0142825640999992017032116004-05531-047460FM-15+013199999V0203201N004119999999N009999199+02901+02501999999ADDGA1041+006101999GE19MSL   +99999+99999GF199999041999006101999999MA1101401999999REMMET051METAR SBIZ 211600Z 32008KT 9999 SCT020 29/25 Q1014=
0142825640999992017032117004-05531-047460FM-15+013199999V0203101N004119999999N009999199+03101+02501999999ADDGA1041+006101999GE19MSL   +99999+99999GF199999041999006101999999MA1101301999999REMMET051METAR SBIZ 211700Z 31008KT 9999 SCT020 31/25 Q1013=
0142825640999992017032118004-05531-047460FM-15+013199999V0202601N003119999999N009999199+03101+02501999999ADDGA1041+007011999GE19MSL   +99999+99999GF199999041999007011999999MA1101201999999REMMET051METAR SBIZ 211800Z 26006KT 9999 SCT023 31/25 Q1012=
0142825640999992017032120004-05531-047460FM-15+013199999V0202501N003119999999N009999199+03201+02401999999ADDGA1041+007621999GE19MSL   +99999+99999GF199999041999007621999999MA1101101999999REMMET051METAR SBIZ 212000Z 25006KT 9999 SCT025 32/24 Q1011=
0165825640999992017032121004-05531-047460FM-15+013199999V0202101N002110243819N009999199+03101+02501999999ADDGA1021+006101999GA2071+024381999GE19MSL   +99999+99999GF199999021999006101999999MA1101201999999REMMET058METAR SBIZ 212100Z 21004KT 9999 FEW020 BKN080 31/25 Q1012=
0165825640999992017032122004-05531-047460FM-15+013199999V0202401N00101024381CN009999199+02901+02501999999ADDGA1041+004571999GA2041+024381999GE19MSL   +99999+99999GF199999041999004571999999MA1101201999999REMMET058METAR SBIZ 212200Z 24002KT 9999 SCT015 SCT080 29/25 Q1012=
0142825640999992017032123004-05531-047460FM-15+013199999V0201101N000519999999N009999199+02801+02501999999ADDGA1021+004571999GE19MSL   +99999+99999GF199999021999004571999999MA1101301999999REMMET051METAR SBIZ 212300Z 11001KT 9999 FEW015 28/25 Q1013=
0142825640999992017032201004-05531-047460FM-15+013199999V0203501N003619999999N009999199+02701+02401999999ADDGA1041+004571999GE19MSL   +99999+99999GF199999041999004571999999MA1101501999999REMMET051METAR SBIZ 220100Z 35007KT 9999 SCT015 27/24 Q1015=
0165825640999992017032209004-05531-047460FM-15+013199999V0209999C00001030481CN009999199+02501+02401999999ADDGA1021+001831999GA2041+030481999GE19MSL   +99999+99999GF199999021999001831999999MA1101301999999REMMET058METAR SBIZ 220900Z 00000KT 9999 FEW006 SCT100 25/24 Q1013=
0165825640999992017032211004-05531-047460FM-15+013199999V0209999C000010304819N009999199+02601+02401999999ADDGA1041+002741999GA2071+030481999GE19MSL   +99999+99999GF199999041999002741999999MA1101501999999REMMET058METAR SBIZ 221100Z 00000KT 9999 SCT009 BKN100 26/24 Q1015=
0142825640999992017032213004-05531-047460FM-15+013199999V0201401N001010054919N009999199+03001+02501999999ADDGA1071+005491999GE19MSL   +99999+99999GF199999071999005491999999MA1101601999999REMMET051METAR SBIZ 221300Z 14002KT 9999 BKN018 30/25 Q1016=
0165825640999992017032214004-05531-047460FM-15+013199999V0200901N00151006101CN009999199+03001+02401999999ADDGA1041+005491999GA2041+006101999GE19MSL   +99999+99999GF199999041999005491999999MA1101501999999REMMET058METAR SBIZ 221400Z 09003KT 9999 SCT018 SCT020 30/24 Q1015=
0165825640999992017032215004-05531-047460FM-15+013199999V0203101N00211024381CN009999199+03201+02501999999ADDGA1041+006101999GA2041+024381999GE19MSL   +99999+99999GF199999041999006101999999MA1101501999999REMMET058METAR SBIZ 221500Z 31004KT 9999 SCT020 SCT080 32/25 Q1015=
0165825640999992017032216004-05531-047460FM-15+013199999V0202401N002110061019N009999199+03301+02401999999ADDGA1071+006101999GA2041+024381999GE19MSL   +99999+99999GF199999071999006101999999MA1101301999999REMMET058METAR SBIZ 221600Z 24004KT 9999 BKN020 SCT080 33/24 Q1013=
0165825640999992017032217004-05531-047460FM-15+013199999V0201501N001510061019N009999199+03301+02501999999ADDGA1021+004571999GA2071+006101999GE19MSL   +99999+99999GF199999021999004571999999MA1101201999999REMMET058METAR SBIZ 221700Z 15003KT 9999 FEW015 BKN020 33/25 Q1012=
0165825640999992017032218004-05531-047460FM-15+013199999V0201201N002610243819N009999199+03301+02501999999ADDGA1041+006101999GA2071+024381999GE19MSL   +99999+99999GF199999041999006101999999MA1101001999999REMMET058METAR SBIZ 221800Z 12005KT 9999 SCT020 BKN080 33/25 Q1010=
0165825640999992017032220004-05531-047460FM-15+013199999V0201501N002110243819N009999199+03401+02301999999ADDGA1021+006101999GA2071+024381999GE19MSL   +99999+99999GF199999021999006101999999MA1101001999999REMMET058METAR SBIZ 222000Z 15004KT 9999 FEW020 BKN080 34/23 Q1010=
0165825640999992017032221004-05531-047460FM-15+013199999V0201101N00211024381CN009999199+03201+02401999999ADDGA1021+006101999GA2041+024381999GE19MSL   +99999+99999GF199999021999006101999999MA1101101999999REMMET058METAR SBIZ 222100Z 11004KT 9999 FEW020 SCT080 32/24 Q1011=
0201825640999992017032223004-05531-047460FM-15+013199999V0201201N001510243819N009999199+02901+02501999999ADDGA1041+006101999GA2021+007621091GA3071+024381999GE19MSL   +99999+99999GF199999041999006101999999MA1101201999999MW1131REMMET072METAR SBIZ 222300Z 12003KT 9999 VCTS SCT020 FEW025CB BKN080 29/25 Q1012=
0170825640999992017032300004-05531-047460FM-15+013199999V0200301N002110243819N009999199+02801+02501999999ADDGA1021+006101999GA2071+024381999GE19MSL   +99999+99999GF199999021999006101999999MA1101301999999REMMET063METAR SBIZ 230000Z 03004KT 9999 FEW020 BKN080 28/25 Q1013 RETS=
0165825640999992017032301004-05531-047460FM-15+013199999V0203401N002610243819N009999199+02801+02501999999ADDGA1041+006101999GA2071+024381999GE19MSL   +99999+99999GF199999041999006101999999MA1101401999999REMMET058METAR SBIZ 230100Z 34005KT 9999 SCT020 BKN080 28/25 Q1014=
0142825640999992017032309004-05531-047460FM-15+013199999V0209999C000010045719N009999199+02301+02301999999ADDGA1071+004571999GE19MSL   +99999+99999GF199999071999004571999999MA1101201999999REMMET051METAR SBIZ 230900Z 00000KT 9999 BKN015 23/23 Q1012=
0142825640999992017032310004-05531-047460FM-15+013199999V0201101N001510045719N009999199+02401+02401999999ADDGA1071+004571999GE19MSL   +99999+99999GF199999071999004571999999MA1101301999999REMMET051METAR SBIZ 231000Z 11003KT 9999 BKN015 24/24 Q1013=
0142825640999992017032311004-05531-047460FM-15+013199999V0201101N001510045719N009999199+02501+02401999999ADDGA1081+004571999GE19MSL   +99999+99999GF199999081999004571999999MA1101401999999REMMET051METAR SBIZ 231100Z 11003KT 9999 OVC015 25/24 Q1014=
0142825640999992017032312004-05531-047460FM-15+013199999V0200901N002110045719N009999199+02701+02501999999ADDGA1071+004571999GE19MSL   +99999+99999GF199999071999004571999999MA1101401999999REMMET051METAR SBIZ 231200Z 09004KT 9999 BKN015 27/25 Q1014=
0142825640999992017032313004-05531-047460FM-15+013199999V0200601N002110045719N009999199+02801+02501999999ADDGA1081+004571999GE19MSL   +99999+99999GF199999081999004571999999MA1101501999999REMMET051METAR SBIZ 231300Z 06004KT 9999 OVC015 28/25 Q1015=
0142825640999992017032315004-05531-047460FM-15+013199999V0201201N001510045719N009999199+02901+02501999999ADDGA1071+004571999GE19MSL   +99999+99999GF199999071999004571999999MA1101301999999REMMET051METAR SBIZ 231500Z 12003KT 9999 BKN015 29/25 Q1013=
0165825640999992017032316004-05531-047460FM-15+013199999V0201101N00151021341CN009999199+03101+02501999999ADDGA1041+007011999GA2041+021341999GE19MSL   +99999+99999GF199999041999007011999999MA1101201999999REMMET058METAR SBIZ 231600Z 11003KT 9999 SCT023 SCT070 31/25 Q1012=
0142825640999992017032317004-05531-047460FM-15+013199999V0200101N002119999999N009999199+03201+02601999999ADDGA1041+007621999GE19MSL   +99999+99999GF199999041999007621999999MA1101101999999REMMET051METAR SBIZ 231700Z 01004KT 9999 SCT025 32/26 Q1011=
0142825640999992017032318004-05531-047460FM-15+013199999V0201601N001510061019N009999199+03301+02401999999ADDGA1071+006101999GE19MSL   +99999+99999GF199999071999006101999999MA1100901999999REMMET051METAR SBIZ 231800Z 16003KT 9999 BKN020 33/24 Q1009=
0142825640999992017032320004-05531-047460FM-15+013199999V0202201N002119999999N009999199+03301+02401999999ADDGA1041+006101999GE19MSL   +99999+99999GF199999041999006101999999MA1100901999999REMMET051METAR SBIZ 232000Z 22004KT 9999 SCT020 33/24 Q1009=
0142825640999992017032322004-05531-047460FM-15+013199999V0202601N001019999999N009999199+03001+02501999999ADDGA1021+007621999GE19MSL   +99999+99999GF199999021999007621999999MA1100901999999REMMET051METAR SBIZ 232200Z 26002KT 9999 FEW025 30/25 Q1009=
0072825640999992017032323004-05531-047460FM-15+013199999V0202301N001019999999Y999999999+02901+02601999999ADDMA1101001999999REMMET045METAR SBIZ 232300Z 23002KT CAVOK 29/26 Q1010=
0072825640999992017032400004-05531-047460FM-15+013199999V0202301N000519999999Y999999999+02701+02601999999ADDMA1101101999999REMMET045METAR SBIZ 240000Z 23001KT CAVOK 27/26 Q1011=
0142825640999992017032401004-05531-047460FM-15+013199999V0202501N001519999999N009999199+02701+02601999999ADDGA1021+004571999GE19MSL   +99999+99999GF199999021999004571999999MA1101201999999REMMET051METAR SBIZ 240100Z 25003KT 9999 FEW015 27/26 Q1012=
0142825640999992017032406004-05531-047460FM-15+013199999V0200701N002119999999N009999199+02601+02401999999ADDGA1021+004571999GE19MSL   +99999+99999GF199999021999004571999999MA1101001999999REMMET051METAR SBIZ 240600Z 07004KT 9999 FEW015 26/24 Q1010=
0142825640999992017032407004-05531-047460FM-15+013199999V0200701N001019999999N009999199+02501+02401999999ADDGA1021+004571999GE19MSL   +99999+99999GF199999021999004571999999MA1101001999999REMMET051METAR SBIZ 240700Z 07002KT 9999 FEW015 25/24 Q1010=
0142825640999992017032408004-05531-047460FM-15+013199999V0201401N000519999999N009999199+02501+02401999999ADDGA1021+004571999GE19MSL   +99999+99999GF199999021999004571999999MA1101101999999REMMET051METAR SBIZ 240800Z 14001KT 9999 FEW015 25/24 Q1011=
0142825640999992017032410004-05531-047460FM-15+013199999V0209999C000010045719N009999199+02401+02401999999ADDGA1071+004571999GE19MSL   +99999+99999GF199999071999004571999999MA1101201999999REMMET051METAR SBIZ 241000Z 00000KT 9999 BKN015 24/24 Q1012=
0142825640999992017032411004-05531-047460FM-15+013199999V0200601N001010045719N009999199+02601+02401999999ADDGA1081+004571999GE19MSL   +99999+99999GF199999081999004571999999MA1101301999999REMMET051METAR SBIZ 241100Z 06002KT 9999 OVC015 26/24 Q1013=
0142825640999992017032413004-05531-047460FM-15+013199999V0200901N002610045719N009999199+02901+02401999999ADDGA1071+004571999GE19MSL   +99999+99999GF199999071999004571999999MA1101401999999REMMET051METAR SBIZ 241300Z 09005KT 9999 BKN015 29/24 Q1014=
0165825640999992017032414004-05531-047460FM-15+013199999V0200901N003610045719N009999199+03101+02401999999ADDGA1071+004571999GA2041+006101999GE19MSL   +99999+99999GF199999071999004571999999MA1101401999999REMMET058METAR SBIZ 241400Z 09007KT 9999 BKN015 SCT020 31/24 Q1014=
0142825640999992017032415004-05531-047460FM-15+013199999V0201101N000510061019N009999199+03201+02401999999ADDGA1071+006101999GE19MSL   +99999+99999GF199999071999006101999999MA1101301999999REMMET051METAR SBIZ 241500Z 11001KT 9999 BKN020 32/24 Q1013=
0142825640999992017032416004-05531-047460FM-15+013199999V0201801N004110070119N009999199+03201+02301999999ADDGA1071+007011999GE19MSL   +99999+99999GF199999071999007011999999MA1101201999999REMMET051METAR SBIZ 241600Z 18008KT 9999 BKN023 32/23 Q1012=
0142825640999992017032417004-05531-047460FM-15+013199999V0201101N004110061019N009999199+03301+02401999999ADDGA1071+006101999GE19MSL   +99999+99999GF199999071999006101999999MA1101001999999REMMET051METAR SBIZ 241700Z 11008KT 9999 BKN020 33/24 Q1010=
0165825640999992017032418004-05531-047460FM-15+013199999V0200101N00411007621CN009999199+03001+02501999999ADDGA1021+004571999GA2041+007621999GE19MSL   +99999+99999GF199999021999004571999999MA1100901999999REMMET058METAR SBIZ 241800Z 01008KT 9999 FEW015 SCT025 30/25 Q1009=
0142825640999992017032419004-05531-047460FM-15+013199999V0200101N004119999999N009999199+03101+02501999999ADDGA1041+007621999GE19MSL   +99999+99999GF199999041999007621999999MA1100801999999REMMET051METAR SBIZ 241900Z 01008KT 9999 SCT025 31/25 Q1008=
0191825640999992017032421004-05531-047460FM-15+013199999V0200601N00101024381CN009999199+03101+02401999999ADDGA1021+006101999GA2021+007621081GA3041+024381999GE19MSL   +99999+99999GF199999021999006101999999MA1100801999999REMMET068METAR SBIZ 242100Z 06002KT 9999 FEW020 FEW025TCU SCT080 31/24 Q1008=
0165825640999992017032423004-05531-047460FM-15+013199999V0200601N001010243819N009999199+02801+02501999999ADDGA1041+006101999GA2071+024381999GE19MSL   +99999+99999GF199999041999006101999999MA1101001999999REMMET058METAR SBIZ 242300Z 06002KT 9999 SCT020 BKN080 28/25 Q1010=
0165825640999992017032500004-05531-047460FM-15+013199999V0200701N00311024381CN009999199+02701+02501999999ADDGA1041+007621999GA2041+024381999GE19MSL   +99999+99999GF199999041999007621999999MA1101101999999REMMET058METAR SBIZ 250000Z 07006KT 9999 SCT025 SCT080 27/25 Q1011=
0165825640999992017032501004-05531-047460FM-15+013199999V0201201N002110213419N009999199+02601+02501999999ADDGA1021+007621999GA2071+021341999GE19MSL   +99999+99999GF199999021999007621999999MA1101201999999REMMET058METAR SBIZ 250100Z 12004KT 9999 FEW025 BKN070 26/25 Q1012=
0165825640999992017032509004-05531-047460FM-15+013199999V0209999C00001009141CN009999199+02401+02401999999ADDGA1041+004571999GA2041+009141999GE19MSL   +99999+99999GF199999041999004571999999MA1101101999999REMMET058METAR SBIZ 250900Z 00000KT 9999 SCT015 SCT030 24/24 Q1011=
0165825640999992017032510004-05531-047460FM-15+013199999V0209999C000010045719N009999199+02501+02501999999ADDGA1071+004571999GA2071+021341999GE19MSL   +99999+99999GF199999071999004571999999MA1101201999999REMMET058METAR SBIZ 251000Z 00000KT 9999 BKN015 BKN070 25/25 Q1012=
0142825640999992017032511004-05531-047460FM-15+013199999V0200301N001519999999N009999199+02701+02401999999ADDGA1041+005491999GE19MSL   +99999+99999GF199999041999005491999999MA1101201999999REMMET051METAR SBIZ 251100Z 03003KT 9999 SCT018 27/24 Q1012=
0142825640999992017032512004-05531-047460FM-15+013199999V0200801N001010061019N009999199+02801+02401999999ADDGA1071+006101999GE19MSL   +99999+99999GF199999071999006101999999MA1101301999999REMMET051METAR SBIZ 251200Z 08002KT 9999 BKN020 28/24 Q1013=
0165825640999992017032515004-05531-047460FM-15+013199999V0202401N002610045719N009999199+03301+02601999999ADDGA1071+004571999GA2071+030481999GE19MSL   +99999+99999GF199999071999004571999999MA1101201999999REMMET058METAR SBIZ 251500Z 24005KT 9999 BKN015 BKN100 33/26 Q1012=
0179825640999992017032517004-05531-047460FM-15+013199999V0200901N003110061019N009999199+03201+02501999999ADDGA1071+006101999GA2021+007621081GE19MSL   +99999+99999GF199999071999006101999999MA1100901999999MW1161REMMET066METAR SBIZ 251700Z 09006KT 9999 VCSH BKN020 FEW025TCU 32/25 Q1009=
0187825640999992017032518004-05531-047460FM-15+013199999V0203501N004119999999N009999199+03301+02601999999ADDGA1041+006101999GA2021+007621091GE19MSL   +99999+99999GF199999041999006101999999MA1100801999999MW1161MW2171REMMET068METAR SBIZ 251800Z 35008KT 9999 TS VCSH SCT020 FEW025CB 33/26 Q1008=
0147825640999992017032520004-05531-047460FM-15+013199999V0200501N003119999999N009999199+02601+02501999999ADDGA1041+006101999GE19MSL   +99999+99999GF199999041999006101999999MA1100801999999REMMET056METAR SBIZ 252000Z 05006KT 9999 SCT020 26/25 Q1008 RETS=
0201825640999992017032522004-05531-047460FM-15+013199999V0201201N001519999999N009999199+02601+02501999999ADDGA1041+009141999GA2021+010671091GA3041+015241999GE19MSL   +99999+99999GF199999041999009141999999MA1101001999999MW1131REMMET072METAR SBIZ 252200Z 12003KT 9999 VCTS SCT030 FEW035CB SCT050 26/25 Q1010=
0178825640999992017032600004-05531-047460FM-15+013199999V0209999C000019999999N009999199+02601+02501999999ADDGA1041+009141999GA2021+010671091GE19MSL   +99999+99999GF199999041999009141999999MA1101201999999MW1131REMMET065METAR SBIZ 260000Z 00000KT 9999 VCTS SCT030 FEW035CB 26/25 Q1012=
0178825640999992017032601004-05531-047460FM-15+013199999V0209999C000019999999N009999199+02601+02501999999ADDGA1041+009141999GA2021+010671091GE19MSL   +99999+99999GF199999041999009141999999MA1101201999999MW1131REMMET065METAR SBIZ 260100Z 00000KT 9999 VCTS SCT030 FEW035CB 26/25 Q1012=
0165825640999992017032610004-05531-047460FM-15+013199999V0200301N001510045719N009999199+02501+02401999999ADDGA1071+004571999GA2041+021341999GE19MSL   +99999+99999GF199999071999004571999999MA1101201999999REMMET058METAR SBIZ 261000Z 03003KT 9999 BKN015 SCT070 25/24 Q1012=
0165825640999992017032611004-05531-047460FM-15+013199999V0200401N001510061019N009999199+02701+02401999999ADDGA1071+006101999GA2071+024381999GE19MSL   +99999+99999GF199999071999006101999999MA1101301999999REMMET058METAR SBIZ 261100Z 04003KT 9999 BKN020 BKN080 27/24 Q1013=
0142825640999992017032612004-05531-047460FM-15+013199999V0200201N002610061019N009999199+02801+02401999999ADDGA1071+006101999GE19MSL   +99999+99999GF199999071999006101999999MA1101301999999REMMET051METAR SBIZ 261200Z 02005KT 9999 BKN020 28/24 Q1013=
0142825640999992017032613004-05531-047460FM-15+013199999V0203601N002610061019N009999199+02801+02401999999ADDGA1071+006101999GE19MSL   +99999+99999GF199999071999006101999999MA1101401999999REMMET051METAR SBIZ 261300Z 36005KT 9999 BKN020 28/24 Q1014=
0142825640999992017032614004-05531-047460FM-15+013199999V0200201N002610061019N009999199+02901+02401999999ADDGA1071+006101999GE19MSL   +99999+99999GF199999071999006101999999MA1101301999999REMMET051METAR SBIZ 261400Z 02005KT 9999 BKN020 29/24 Q1013=
0165825640999992017032615004-05531-047460FM-15+013199999V0203301N00151007621CN009999199+03101+02401999999ADDGA1041+006101999GA2041+007621999GE19MSL   +99999+99999GF199999041999006101999999MA1101301999999REMMET058METAR SBIZ 261500Z 33003KT 9999 SCT020 SCT025 31/24 Q1013=
0165825640999992017032616004-05531-047460FM-15+013199999V0202501N002110243819N009999199+03101+02401999999ADDGA1041+006101999GA2071+024381999GE19MSL   +99999+99999GF199999041999006101999999MA1101101999999REMMET058METAR SBIZ 261600Z 25004KT 9999 SCT020 BKN080 31/24 Q1011=
0165825640999992017032617004-05531-047460FM-15+013199999V0203501N00101024381CN009999199+03201+02401999999ADDGA1041+006101999GA2041+024381999GE19MSL   +99999+99999GF199999041999006101999999MA1100901999999REMMET058METAR SBIZ 261700Z 35002KT 9999 SCT020 SCT080 32/24 Q1009=
0179825640999992017032619004-05531-047460FM-15+013199999V0201801N003610076219N009999199+03001+02401999999ADDGA1071+007621999GA2021+009141081GE19MSL   +99999+99999GF199999071999007621999999MA1100801999999MW1161REMMET066METAR SBIZ 261900Z 18007KT 9999 VCSH BKN025 FEW030TCU 30/24 Q1008=
0202825640999992017032620004-05531-047460FM-15+013199999V0201201N003610076219N009999199+02601+02401999999ADDGA1071+007621999GA2021+009141091GA3071+024381999GE19MSL   +99999+99999GF199999071999007621999999MA1100901999999MW1951REMMET073METAR SBIZ 262000Z 12007KT 9999 -TSRA BKN025 FEW030CB BKN080 26/24 Q1009=
0170825640999992017032621004-05531-047460FM-15+013199999V0200301N001010091419N009999199+02601+02401999999ADDGA1071+009141999GA2041+024381999GE19MSL   +99999+99999GF199999071999009141999999MA1101001999999REMMET063METAR SBIZ 262100Z 03002KT 9999 BKN030 SCT080 26/24 Q1010 RETS=
0201825640999992017032622004-05531-047460FM-15+013199999V0200601N001010076219N009999199+02501+02401999999ADDGA1071+007621999GA2021+009141091GA3041+021341999GE19MSL   +99999+99999GF199999071999007621999999MA1101001999999MW1131REMMET072METAR SBIZ 262200Z 06002KT 9999 VCTS BKN025 FEW030CB SCT070 25/24 Q1010=
0201825640999992017032623004-05531-047460FM-15+013199999V0209999C000010076219N009999199+02501+02401999999ADDGA1071+007621999GA2021+009141091GA3041+021341999GE19MSL   +99999+99999GF199999071999007621999999MA1101101999999MW1131REMMET072METAR SBIZ 262300Z 00000KT 9999 VCTS BKN025 FEW030CB SCT070 25/24 Q1011=
0147825640999992017032700004-05531-047460FM-15+013199999V0201201N001510076219N009999199+02501+02401999999ADDGA1071+007621999GE19MSL   +99999+99999GF199999071999007621999999MA1101201999999REMMET056METAR SBIZ 270000Z 12003KT 9999 BKN025 25/24 Q1012 RETS=
0072825640999992017032705004-05531-047460FM-15+013199999V0200101N001019999999Y999999999+02501+02401999999ADDMA1101201999999REMMET045METAR SBIZ 270500Z 01002KT CAVOK 25/24 Q1012=
0142825640999992017032708004-05531-047460FM-15+013199999V0209999C000019999999N009999199+02401+02301999999ADDGA1021+006101999GE19MSL   +99999+99999GF199999021999006101999999MA1101101999999REMMET051METAR SBIZ 270800Z 00000KT 9999 FEW020 24/23 Q1011=
0142825640999992017032710004-05531-047460FM-15+013199999V0209999C000010054919N009999199+02401+02401999999ADDGA1071+005491999GE19MSL   +99999+99999GF199999071999005491999999MA1101301999999REMMET051METAR SBIZ 271000Z 00000KT 9999 BKN018 24/24 Q1013=
0142825640999992017032712004-05531-047460FM-15+013199999V0200601N001510045719N009999199+02801+02401999999ADDGA1071+004571999GE19MSL   +99999+99999GF199999071999004571999999MA1101401999999REMMET051METAR SBIZ 271200Z 06003KT 9999 BKN015 28/24 Q1014=
0142825640999992017032713004-05531-047460FM-15+013199999V0200601N002610054919N009999199+02901+02501999999ADDGA1071+005491999GE19MSL   +99999+99999GF199999071999005491999999MA1101501999999REMMET051METAR SBIZ 271300Z 06005KT 9999 BKN018 29/25 Q1015=
0165825640999992017032714004-05531-047460FM-15+013199999V0200201N003110061019N009999199+03001+02401999999ADDGA1021+005491999GA2071+006101999GE19MSL   +99999+99999GF199999021999005491999999MA1101401999999REMMET058METAR SBIZ 271400Z 02006KT 9999 FEW018 BKN020 30/24 Q1014=
0142825640999992017032715004-05531-047460FM-15+013199999V0200901N002110076219N009999199+03101+02401999999ADDGA1071+007621999GE19MSL   +99999+99999GF199999071999007621999999MA1101401999999REMMET051METAR SBIZ 271500Z 09004KT 9999 BKN025 31/24 Q1014=
0165825640999992017032716004-05531-047460FM-15+013199999V0201401N00151009141CN009999199+03201+02501999999ADDGA1041+007621999GA2041+009141999GE19MSL   +99999+99999GF199999041999007621999999MA1101301999999REMMET058METAR SBIZ 271600Z 14003KT 9999 SCT025 SCT030 32/25 Q1013=
0165825640999992017032717004-05531-047460FM-15+013199999V0200601N003110076219N009999199+03201+02501999999ADDGA1041+006101999GA2071+007621999GE19MSL   +99999+99999GF199999041999006101999999MA1101101999999REMMET058METAR SBIZ 271700Z 06006KT 9999 SCT020 BKN025 32/25 Q1011=
0142825640999992017032718004-05531-047460FM-15+013199999V0202101N001010076219N009999199+03301+02601999999ADDGA1071+007621999GE19MSL   +99999+99999GF199999071999007621999999MA1101001999999REMMET051METAR SBIZ 271800Z 21002KT 9999 BKN025 33/26 Q1010=
0142825640999992017032719004-05531-047460FM-15+013199999V0200901N002119999999N009999199+03301+02501999999ADDGA1041+007621999GE19MSL   +99999+99999GF199999041999007621999999MA1100901999999REMMET051METAR SBIZ 271900Z 09004KT 9999 SCT025 33/25 Q1009=
0142825640999992017032720004-05531-047460FM-15+013199999V0201501N001019999999N009999199+03201+02401999999ADDGA1041+007621999GE19MSL   +99999+99999GF199999041999007621999999MA1100901999999REMMET051METAR SBIZ 272000Z 15002KT 9999 SCT025 32/24 Q1009=
0142825640999992017032721004-05531-047460FM-15+013199999V0200901N001519999999N009999199+03101+02401999999ADDGA1041+007621999GE19MSL   +99999+99999GF199999041999007621999999MA1101001999999REMMET051METAR SBIZ 272100Z 09003KT 9999 SCT025 31/24 Q1010=
0142825640999992017032805004-05531-047460FM-15+013199999V0209999C000019999999N009999199+02501+02401999999ADDGA1041+009141999GE19MSL   +99999+99999GF199999041999009141999999MA1101201999999REMMET051METAR SBIZ 280500Z 00000KT 9999 SCT030 25/24 Q1012=
0142825640999992017032807004-05531-047460FM-15+013199999V0209999C000019999999N009999199+02501+02401999999ADDGA1021+005491999GE19MSL   +99999+99999GF199999021999005491999999MA1101101999999REMMET051METAR SBIZ 280700Z 00000KT 9999 FEW018 25/24 Q1011=
0165825640999992017032808004-05531-047460FM-15+013199999V0209999C00001024381CN009999199+02401+02301999999ADDGA1041+005491999GA2041+024381999GE19MSL   +99999+99999GF199999041999005491999999MA1101101999999REMMET058METAR SBIZ 280800Z 00000KT 9999 SCT018 SCT080 24/23 Q1011=
0165825640999992017032810004-05531-047460FM-15+013199999V0200901N001510045719N009999199+02401+02401999999ADDGA1071+004571999GA2071+021341999GE19MSL   +99999+99999GF199999071999004571999999MA1101201999999REMMET058METAR SBIZ 281000Z 09003KT 9999 BKN015 BKN070 24/24 Q1012=
0165825640999992017032811004-05531-047460FM-15+013199999V0201301N000510091419N009999199+02501+02401999999ADDGA1071+009141999GA2041+021341999GE19MSL   +99999+99999GF199999071999009141999999MA1101301999999REMMET058METAR SBIZ 281100Z 13001KT 9999 BKN030 SCT070 25/24 Q1013=
0165825640999992017032812004-05531-047460FM-15+013199999V0200701N002110061019N009999199+02801+02501999999ADDGA1071+006101999GA2041+021341999GE19MSL   +99999+99999GF199999071999006101999999MA1101401999999REMMET058METAR SBIZ 281200Z 07004KT 9999 BKN020 SCT070 28/25 Q1014=
0165825640999992017032813004-05531-047460FM-15+013199999V0200801N002110061019N009999199+03001+02401999999ADDGA1071+006101999GA2041+024381999GE19MSL   +99999+99999GF199999071999006101999999MA1101401999999REMMET058METAR SBIZ 281300Z 08004KT 9999 BKN020 SCT080 30/24 Q1014=
0165825640999992017032815004-05531-047460FM-15+013199999V0201201N002110054919N009999199+03201+02401999999ADDGA1071+005491999GA2041+021341999GE19MSL   +99999+99999GF199999071999005491999999MA1101301999999REMMET058METAR SBIZ 281500Z 12004KT 9999 BKN018 SCT070 32/24 Q1013=
0142825640999992017032816004-05531-047460FM-15+013199999V0200901N003119999999N009999199+03301+02301999999ADDGA1041+006101999GE19MSL   +99999+99999GF199999041999006101999999MA1101201999999REMMET051METAR SBIZ 281600Z 09006KT 9999 SCT020 33/23 Q1012=
0142825640999992017032817004-05531-047460FM-15+013199999V0201501N004619999999N009999199+03301+02301999999ADDGA1041+007621999GE19MSL   +99999+99999GF199999041999007621999999MA1101101999999REMMET051METAR SBIZ 281700Z 15009KT 9999 SCT025 33/23 Q1011=
0142825640999992017032818004-05531-047460FM-15+013199999V0201501N004119999999N009999199+03301+02301999999ADDGA1041+007621999GE19MSL   +99999+99999GF199999041999007621999999MA1101001999999REMMET051METAR SBIZ 281800Z 15008KT 9999 SCT025 33/23 Q1010=
0142825640999992017032819004-05531-047460FM-15+013199999V0201301N004119999999N009999199+03401+02401999999ADDGA1041+007621999GE19MSL   +99999+99999GF199999041999007621999999MA1100901999999REMMET051METAR SBIZ 281900Z 13008KT 9999 SCT025 34/24 Q1009=
0142825640999992017032821004-05531-047460FM-15+013199999V0200801N003119999999N009999199+03101+02401999999ADDGA1041+007621999GE19MSL   +99999+99999GF199999041999007621999999MA1100901999999REMMET051METAR SBIZ 282100Z 08006KT 9999 SCT025 31/24 Q1009=
0072825640999992017032905004-05531-047460FM-15+013199999V0202101N000519999999Y999999999+02501+02501999999ADDMA1101101999999REMMET045METAR SBIZ 290500Z 21001KT CAVOK 25/25 Q1011=
0072825640999992017032906004-05531-047460FM-15+013199999V0209999C000019999999Y999999999+02501+02501999999ADDMA1101101999999REMMET045METAR SBIZ 290600Z 00000KT CAVOK 25/25 Q1011=
0072825640999992017032907004-05531-047460FM-15+013199999V0209999C000019999999Y999999999+02501+02501999999ADDMA1101101999999REMMET045METAR SBIZ 290700Z 00000KT CAVOK 25/25 Q1011=
0142825640999992017032908004-05531-047460FM-15+013199999V0209999C000019999999N009999199+02501+02401999999ADDGA1021+006101999GE19MSL   +99999+99999GF199999021999006101999999MA1101001999999REMMET051METAR SBIZ 290800Z 00000KT 9999 FEW020 25/24 Q1010=
0142825640999992017032909004-05531-047460FM-15+013199999V0201001N001019999999N009999199+02501+02401999999ADDGA1021+006101999GE19MSL   +99999+99999GF199999021999006101999999MA1101001999999REMMET051METAR SBIZ 290900Z 10002KT 9999 FEW020 25/24 Q1010=
0165825640999992017032910004-05531-047460FM-15+013199999V0201101N00051024381CN009999199+02501+02401999999ADDGA1041+006101999GA2041+024381999GE19MSL   +99999+99999GF199999041999006101999999MA1101101999999REMMET058METAR SBIZ 291000Z 11001KT 9999 SCT020 SCT080 25/24 Q1011=
0142825640999992017032911004-05531-047460FM-15+013199999V0201101N000519999999N009999199+02601+02501999999ADDGA1041+005491999GE19MSL   +99999+99999GF199999041999005491999999MA1101101999999REMMET051METAR SBIZ 291100Z 11001KT 9999 SCT018 26/25 Q1011=
0142825640999992017032912004-05531-047460FM-15+013199999V0200701N003610054919N009999199+02801+02401999999ADDGA1071+005491999GE19MSL   +99999+99999GF199999071999005491999999MA1101201999999REMMET051METAR SBIZ 291200Z 07007KT 9999 BKN018 28/24 Q1012=
0142825640999992017032913004-05531-047460FM-15+013199999V0201001N004110054919N009999199+03001+02501999999ADDGA1071+005491999GE19MSL   +99999+99999GF199999071999005491999999MA1101301999999REMMET051METAR SBIZ 291300Z 10008KT 9999 BKN018 30/25 Q1013=
0142825640999992017032915004-05531-047460FM-15+013199999V0201001N004110061019N009999199+03201+02501999999ADDGA1071+006101999GE19MSL   +99999+99999GF199999071999006101999999MA1101201999999REMMET051METAR SBIZ 291500Z 10008KT 9999 BKN020 32/25 Q1012=
0142825640999992017032917004-05531-047460FM-15+013199999V0200301N001519999999N009999199+03301+02401999999ADDGA1041+009141999GE19MSL   +99999+99999GF199999041999009141999999MA1101001999999REMMET051METAR SBIZ 291700Z 03003KT 9999 SCT030 33/24 Q1010=
0187825640999992017032919004-05531-047460FM-15+013199999V0202401N001519999999N009999199+02501+02501999999ADDGA1041+009141999GA2021+010671091GE19MSL   +99999+99999GF199999041999009141999999MA1100801999999MW1161MW2171REMMET068METAR SBIZ 291900Z 24003KT 9999 TS VCSH SCT030 FEW035CB 25/25 Q1008=
0168825640999992017032921004-05531-047460FM-15+013199999V0202701N001519999999N009999199+02701+02601999999ADDGA1021+009141999GA2021+010671081GE19MSL   +99999+99999GF199999021999009141999999MA1100801999999REMMET061METAR SBIZ 292100Z 27003KT 9999 FEW030 FEW035TCU 27/26 Q1008=
0072825640999992017033005004-05531-047460FM-15+013199999V0209999C000019999999Y999999999+02401+02401999999ADDMA1101001999999REMMET045METAR SBIZ 300500Z 00000KT CAVOK 24/24 Q1010=
0072825640999992017033006004-05531-047460FM-15+013199999V0209999C000019999999Y999999999+02401+02401999999ADDMA1101001999999REMMET045METAR SBIZ 300600Z 00000KT CAVOK 24/24 Q1010=
0165825640999992017033008004-05531-047460FM-15+013199999V0209999C00001021341CN009999199+02401+02301999999ADDGA1021+004571999GA2041+021341999GE19MSL   +99999+99999GF199999021999004571999999MA1101001999999REMMET058METAR SBIZ 300800Z 00000KT 9999 FEW015 SCT070 24/23 Q1010=
0174825640999992017033010004-05531-047460FM-15+013199999V0209999C000010042719N004000199+02401+02401999999ADDGA1071+004271999GA2041+021341999GE19MSL   +99999+99999GF199999071999004271999999MA1101101999999MW1101REMMET061METAR SBIZ 301000Z 00000KT 4000 BR BKN014 SCT070 24/24 Q1011=
0142825640999992017033012004-05531-047460FM-15+013199999V0200801N004619999999N009999199+02801+02501999999ADDGA1041+006101999GE19MSL   +99999+99999GF199999041999006101999999MA1101301999999REMMET051METAR SBIZ 301200Z 08009KT 9999 SCT020 28/25 Q1013=
0142825640999992017033013004-05531-047460FM-15+013199999V0200601N004110061019N009999199+03001+02501999999ADDGA1071+006101999GE19MSL   +99999+99999GF199999071999006101999999MA1101401999999REMMET051METAR SBIZ 301300Z 06008KT 9999 BKN020 30/25 Q1014=
0142825640999992017033014004-05531-047460FM-15+013199999V0200501N003110054919N009999199+03101+02501999999ADDGA1071+005491999GE19MSL   +99999+99999GF199999071999005491999999MA1101301999999REMMET051METAR SBIZ 301400Z 05006KT 9999 BKN018 31/25 Q1013=
0142825640999992017033016004-05531-047460FM-15+013199999V0202101N001010061019N009999199+03201+02501999999ADDGA1071+006101999GE19MSL   +99999+99999GF199999071999006101999999MA1101101999999REMMET051METAR SBIZ 301600Z 21002KT 9999 BKN020 32/25 Q1011=
0152825640999992017033017004-05531-047460FM-15+013199999V0201401N003610061019N009999199+03201+02601999999ADDGA1071+006101999GE19MSL   +99999+99999GF199999071999006101999999MA1101001999999MW1611REMMET055METAR SBIZ 301700Z 14007KT 9999 -RA BKN020 32/26 Q1010=
0142825640999992017033019004-05531-047460FM-15+013199999V0203501N002119999999N009999199+02901+02501999999ADDGA1021+003051999GE19MSL   +99999+99999GF199999021999003051999999MA1100801999999REMMET051METAR SBIZ 301900Z 35004KT 9999 FEW010 29/25 Q1008=
0142825640999992017033020004-05531-047460FM-15+013199999V0203101N002119999999N009999199+02801+02601999999ADDGA1021+006101999GE19MSL   +99999+99999GF199999021999006101999999MA1100901999999REMMET051METAR SBIZ 302000Z 31004KT 9999 FEW020 28/26 Q1009=
0142825640999992017033021004-05531-047460FM-15+013199999V0202601N001019999999N009999199+02801+02501999999ADDGA1021+006101999GE19MSL   +99999+99999GF199999021999006101999999MA1100901999999REMMET051METAR SBIZ 302100Z 26002KT 9999 FEW020 28/25 Q1009=
0072825640999992017033022004-05531-047460FM-15+013199999V0203001N001019999999Y999999999+02801+02501999999ADDMA1101001999999REMMET045METAR SBIZ 302200Z 30002KT CAVOK 28/25 Q1010=
0176825640999992017033023004-05531-047460FM-15+013199999V0200101N001019999999N009999199+02801+02501999999ADDGA1021+006101999GA2021+007621091GE19MSL   +99999+99999GF199999021999006101999999MA1101001999999MW1171REMMET063METAR SBIZ 302300Z 01002KT 9999 TS FEW020 FEW025CB 28/25 Q1010=
0176825640999992017033100004-05531-047460FM-15+013199999V0203601N002119999999N009999199+02701+02501999999ADDGA1021+006101999GA2021+007621091GE19MSL   +99999+99999GF199999021999006101999999MA1101201999999MW1171REMMET063METAR SBIZ 310000Z 36004KT 9999 TS FEW020 FEW025CB 27/25 Q1012=
0176825640999992017033101004-05531-047460FM-15+013199999V0209999C000019999999N009999199+02601+02501999999ADDGA1041+006101999GA2021+007621091GE19MSL   +99999+99999GF199999041999006101999999MA1101201999999MW1171REMMET063METAR SBIZ 310100Z 00000KT 9999 TS SCT020 FEW025CB 26/25 Q1012=
0176825640999992017033102004-05531-047460FM-15+013199999V0200601N002119999999N009999199+02601+02501999999ADDGA1041+006101999GA2021+007621091GE19MSL   +99999+99999GF199999041999006101999999MA1101301999999MW1171REMMET063METAR SBIZ 310200Z 06004KT 9999 TS SCT020 FEW025CB 26/25 Q1013=
0176825640999992017033103004-05531-047460FM-15+013199999V0200601N003110061019N009999199+02501+02401999999ADDGA1071+006101999GA2041+007621091GE19MSL   +99999+99999GF199999071999006101999999MA1101301999999MW1171REMMET063METAR SBIZ 310300Z 06006KT 9999 TS BKN020 SCT025CB 25/24 Q1013=
0199825640999992017033104004-05531-047460FM-15+013199999V0209999C00001006101CN009999199+02401+02401999999ADDGA1021+004571999GA2041+006101999GA3021+007621091GE19MSL   +99999+99999GF199999021999004571999999MA1101201999999MW1171REMMET070METAR SBIZ 310400Z 00000KT 9999 TS FEW015 SCT020 FEW025CB 24/24 Q1012=
0152825640999992017033107004-05531-047460FM-15+013199999V0202001N001510045719N008000199+02501+02401999999ADDGA1071+004571999GE19MSL   +99999+99999GF199999071999004571999999MA1101201999999MW1611REMMET055METAR SBIZ 310700Z 20003KT 8000 -RA BKN015 25/24 Q1012=
0197825640999992017033108004-05531-047460FM-15+013199999V0201101N004110045719N006000199+02401+02401999999ADDGA1041+003051999GA2071+004571999GA3071+021341999GE19MSL   +99999+99999GF199999041999003051999999MA1101201999999MW1631REMMET068METAR SBIZ 310800Z 11008KT 6000 RA SCT010 BKN015 BKN070 24/24 Q1012=
0165825640999992017033110004-05531-047460FM-15+013199999V0200801N001010213419N009999199+02301+02301999999ADDGA1021+004571999GA2081+021341999GE19MSL   +99999+99999GF199999021999004571999999MA1101401999999REMMET058METAR SBIZ 311000Z 08002KT 9999 FEW015 OVC070 23/23 Q1014=
0175825640999992017033111004-05531-047460FM-15+013199999V0200801N001010243819N009999199+02301+02301999999ADDGA1021+004571999GA2081+024381999GE19MSL   +99999+99999GF199999021999004571999999MA1101501999999MW1611REMMET062METAR SBIZ 311100Z 08002KT 9999 -RA FEW015 OVC080 23/23 Q1015=
0165825640999992017033113004-05531-047460FM-15+013199999V0201301N002110045719N009999199+02701+02401999999ADDGA1071+004571999GA2071+024381999GE19MSL   +99999+99999GF199999071999004571999999MA1101501999999REMMET058METAR SBIZ 311300Z 13004KT 9999 BKN015 BKN080 27/24 Q1015=
0165825640999992017033114004-05531-047460FM-15+013199999V0201001N001510054919N009999199+02901+02401999999ADDGA1071+005491999GA2071+024381999GE19MSL   +99999+99999GF199999071999005491999999MA1101501999999REMMET058METAR SBIZ 311400Z 10003KT 9999 BKN018 BKN080 29/24 Q1015=
0165825640999992017033116004-05531-047460FM-15+013199999V0201801N001010304819N009999199+03101+02401999999ADDGA1041+006101999GA2071+030481999GE19MSL   +99999+99999GF199999041999006101999999MA1101301999999REMMET058METAR SBIZ 311600Z 18002KT 9999 SCT020 BKN100 31/24 Q1013=
0165825640999992017033117004-05531-047460FM-15+013199999V0201201N00151024381CN009999199+03201+02501999999ADDGA1041+006101999GA2041+024381999GE19MSL   +99999+99999GF199999041999006101999999MA1101101999999REMMET058METAR SBIZ 311700Z 12003KT 9999 SCT020 SCT080 32/25 Q1011=
0165825640999992017033118004-05531-047460FM-15+013199999V0201101N00211024381CN009999199+03201+02401999999ADDGA1041+004571999GA2041+024381999GE19MSL   +99999+99999GF199999041999004571999999MA1101001999999REMMET058METAR SBIZ 311800Z 11004KT 9999 SCT015 SCT080 32/24 Q1010=
0165825640999992017033119004-05531-047460FM-15+013199999V0201401N00261024381CN009999199+03201+02401999999ADDGA1041+004571999GA2041+024381999GE19MSL   +99999+99999GF199999041999004571999999MA1100901999999REMMET058METAR SBIZ 311900Z 14005KT 9999 SCT015 SCT080 32/24 Q1009=
0165825640999992017033120004-05531-047460FM-15+013199999V0201201N00151024381CN009999199+03201+02401999999ADDGA1041+006101999GA2041+024381999GE19MSL   +99999+99999GF199999041999006101999999MA1100901999999REMMET058METAR SBIZ 312000Z 12003KT 9999 SCT020 SCT080 32/24 Q1009=
0165825640999992017033121004-05531-047460FM-15+013199999V0209999C00001024381CN009999199+03201+02401999999ADDGA1021+007621999GA2041+024381999GE19MSL   +99999+99999GF199999021999007621999999MA1100901999999REMMET058METAR SBIZ 312100Z 00000KT 9999 FEW025 SCT080 32/24 Q1009=
0165825640999992017033122004-05531-047460FM-15+013199999V0209999C000010243819N009999199+03001+02501999999ADDGA1021+006101999GA2071+024381999GE19MSL   +99999+99999GF199999021999006101999999MA1101101999999REMMET058METAR SBIZ 312200Z 00000KT 9999 FEW020 BKN080 30/25 Q1011=
0142825640999992017040105004-05531-047460FM-15+013199999V0209999C000019999999N009999199+02701+02501999999ADDGA1021+006101999GE19MSL   +99999+99999GF199999021999006101999999MA1101301999999REMMET051METAR SBIZ 010500Z 00000KT 9999 FEW020 27/25 Q1013=
0142825640999992017040106004-05531-047460FM-15+013199999V0209999C000019999999N009999199+02601+02501999999ADDGA1041+004571999GE19MSL   +99999+99999GF199999041999004571999999MA1101201999999REMMET051METAR SBIZ 010600Z 00000KT 9999 SCT015 26/25 Q1012=
0142825640999992017040107004-05531-047460FM-15+013199999V0209999C000019999999N009999199+02601+02501999999ADDGA1041+003661999GE19MSL   +99999+99999GF199999041999003661999999MA1101201999999REMMET051METAR SBIZ 010700Z 00000KT 9999 SCT012 26/25 Q1012=
0142825640999992017040108004-05531-047460FM-15+013199999V0200401N000519999999N009999199+02601+02501999999ADDGA1041+003661999GE19MSL   +99999+99999GF199999041999003661999999MA1101201999999REMMET051METAR SBIZ 010800Z 04001KT 9999 SCT012 26/25 Q1012=
0165825640999992017040109004-05531-047460FM-15+013199999V0200201N00051004571CN009999199+02601+02501999999ADDGA1021+003051999GA2041+004571999GE19MSL   +99999+99999GF199999021999003051999999MA1101201999999REMMET058METAR SBIZ 010900Z 02001KT 9999 FEW010 SCT015 26/25 Q1012=
0142825640999992017040110004-05531-047460FM-15+013199999V0209999C000010045719N009999199+02601+02401999999ADDGA1071+004571999GE19MSL   +99999+99999GF199999071999004571999999MA1101301999999REMMET051METAR SBIZ 011000Z 00000KT 9999 BKN015 26/24 Q1013=
0142825640999992017040111004-05531-047460FM-15+013199999V0200401N001519999999N009999199+02701+02501999999ADDGA1041+003051999GE19MSL   +99999+99999GF199999041999003051999999MA1101401999999REMMET051METAR SBIZ 011100Z 04003KT 9999 SCT010 27/25 Q1014=
0142825640999992017040112004-05531-047460FM-15+013199999V0200401N002119999999N009999199+03001+02401999999ADDGA1041+003661999GE19MSL   +99999+99999GF199999041999003661999999MA1101401999999REMMET051METAR SBIZ 011200Z 04004KT 9999 SCT012 30/24 Q1014=
0142825640999992017040113004-05531-047460FM-15+013199999V0200601N003110061019N009999199+03001+02401999999ADDGA1071+006101999GE19MSL   +99999+99999GF199999071999006101999999MA1101501999999REMMET051METAR SBIZ 011300Z 06006KT 9999 BKN020 30/24 Q1015=
0165825640999992017040114004-05531-047460FM-15+013199999V0200401N002110076219N009999199+03001+02501999999ADDGA1071+007621999GA2071+030481999GE19MSL   +99999+99999GF199999071999007621999999MA1101401999999REMMET058METAR SBIZ 011400Z 04004KT 9999 BKN025 BKN100 30/25 Q1014=
0165825640999992017040115004-05531-047460FM-15+013199999V0200201N00151030481CN009999199+03301+02401999999ADDGA1041+007621999GA2041+030481999GE19MSL   +99999+99999GF199999041999007621999999MA1101301999999REMMET058METAR SBIZ 011500Z 02003KT 9999 SCT025 SCT100 33/24 Q1013=
0142825640999992017040116004-05531-047460FM-15+013199999V0200701N002110091419N009999199+03401+02501999999ADDGA1071+009141999GE19MSL   +99999+99999GF199999071999009141999999MA1101201999999REMMET051METAR SBIZ 011600Z 07004KT 9999 BKN030 34/25 Q1012=
0175825640999992017040117004-05531-047460FM-15+013199999V0202101N002610076219N009999199+03201+02501999999ADDGA1041+006101999GA2071+007621999GE19MSL   +99999+99999GF199999041999006101999999MA1101101999999MW1611REMMET062METAR SBIZ 011700Z 21005KT 9999 -RA SCT020 BKN025 32/25 Q1011=
0188825640999992017040119004-05531-047460FM-15+013199999V0202701N00211006101CN009999199+03001+02501999999ADDGA1021+004571999GA2041+006101999GA3071+021341999GE19MSL   +99999+99999GF199999021999004571999999MA1101001999999REMMET065METAR SBIZ 011900Z 27004KT 9999 FEW015 SCT020 BKN070 30/25 Q1010=
0165825640999992017040120004-05531-047460FM-15+013199999V0202901N003610213419N009999199+02801+02501999999ADDGA1041+005491999GA2071+021341999GE19MSL   +99999+99999GF199999041999005491999999MA1101001999999REMMET058METAR SBIZ 012000Z 29007KT 9999 SCT018 BKN070 28/25 Q1010=
0156825640999992017040122004-05531-047460FM-15+013199999V0209999N999999999999N999999999+99999+99999999999REMMET147METAR SBIZ 012200Z 0200/0212 06005KT 9999 SCT020 FEW025TCU TN24/0206Z TX27/0212Z TEMPO 0200/0205 TS BKN020 FEW025CB BECMG 0206/0208 09005KT SCT015=
0165825640999992017040211004-05531-047460FM-15+013199999V0201001N002610213419N009999199+02601+02501999999ADDGA1041+007621999GA2071+021341999GE19MSL   +99999+99999GF199999041999007621999999MA1101301999999REMMET058METAR SBIZ 021100Z 10005KT 9999 SCT025 BKN070 26/25 Q1013=
0165825640999992017040212004-05531-047460FM-15+013199999V0200801N00311021341CN009999199+02801+02501999999ADDGA1041+007621999GA2041+021341999GE19MSL   +99999+99999GF199999041999007621999999MA1101301999999REMMET058METAR SBIZ 021200Z 08006KT 9999 SCT025 SCT070 28/25 Q1013=
0142825640999992017040213004-05531-047460FM-15+013199999V0200801N003110061019N009999199+03001+02501999999ADDGA1071+006101999GE19MSL   +99999+99999GF199999071999006101999999MA1101401999999REMMET051METAR SBIZ 021300Z 08006KT 9999 BKN020 30/25 Q1014=
0165825640999992017040214004-05531-047460FM-15+013199999V0200901N003610076219N009999199+03101+02501999999ADDGA1041+005491999GA2071+007621999GE19MSL   +99999+99999GF199999041999005491999999MA1101301999999REMMET058METAR SBIZ 021400Z 09007KT 9999 SCT018 BKN025 31/25 Q1013=
0165825640999992017040215004-05531-047460FM-15+013199999V0201201N002610076219N009999199+03201+02601999999ADDGA1041+005491999GA2071+007621999GE19MSL   +99999+99999GF199999041999005491999999MA1101201999999REMMET058METAR SBIZ 021500Z 12005KT 9999 SCT018 BKN025 32/26 Q1012=
0142825640999992017040216004-05531-047460FM-15+013199999V0201701N003119999999N009999199+03301+02401999999ADDGA1041+006101999GE19MSL   +99999+99999GF199999041999006101999999MA1101101999999REMMET051METAR SBIZ 021600Z 17006KT 9999 SCT020 33/24 Q1011=
0142825640999992017040218004-05531-047460FM-15+013199999V0201601N002110070119N009999199+03501+02301999999ADDGA1071+007011999GE19MSL   +99999+99999GF199999071999007011999999MA1100801999999REMMET051METAR SBIZ 021800Z 16004KT 9999 BKN023 35/23 Q1008=
0168825640999992017040220004-05531-047460FM-15+013199999V0200801N001519999999N009999199+03401+02401999999ADDGA1021+007011999GA2021+007621081GE19MSL   +99999+99999GF199999021999007011999999MA1100701999999REMMET061METAR SBIZ 022000Z 08003KT 9999 FEW023 FEW025TCU 34/24 Q1007=
0210825640999992017040221004-05531-047460FM-15+013199999V0201401N00511006101CN009999199+02801+02501999999ADDGA1041+004571999GA2041+006101999GA3021+007621091GE19MSL   +99999+99999GF199999041999004571999999MA1100901999999MW1171REMMET081METAR SBIZ 022100Z 14010KT 9999 3000E TS VCRA SCT015 SCT020 FEW025CB 28/25 Q1009=
0188825640999992017040322004-05531-047460FM-15+013199999V0209999C00001006101CN009999199+02401+02401999999ADDGA1021+001521999GA2041+006101999GA3071+021341999GE19MSL   +99999+99999GF199999021999001521999999MA1101101999999REMMET065METAR SBIZ 032200Z 00000KT 9999 FEW005 SCT020 BKN070 24/24 Q1011=
0142825640999992017040405004-05531-047460FM-15+013199999V0202801N001019999999N009999199+02501+02501999999ADDGA1041+002131999GE19MSL   +99999+99999GF199999041999002131999999MA1101101999999REMMET051METAR SBIZ 040500Z 28002KT 9999 SCT007 25/25 Q1011=
0142825640999992017040407004-05531-047460FM-15+013199999V0201001N001510021319N009999199+02501+02501999999ADDGA1071+002131999GE19MSL   +99999+99999GF199999071999002131999999MA1101101999999REMMET051METAR SBIZ 040700Z 10003KT 9999 BKN007 25/25 Q1011=
0142825640999992017040408004-05531-047460FM-15+013199999V0201401N001019999999N009999199+02501+02401999999ADDGA1041+002741999GE19MSL   +99999+99999GF199999041999002741999999MA1101101999999REMMET051METAR SBIZ 040800Z 14002KT 9999 SCT009 25/24 Q1011=
0165825640999992017040410004-05531-047460FM-15+013199999V0209999C00001024381CN009999199+02501+02401999999ADDGA1021+003051999GA2041+024381999GE19MSL   +99999+99999GF199999021999003051999999MA1101101999999REMMET058METAR SBIZ 041000Z 00000KT 9999 FEW010 SCT080 25/24 Q1011=
0142825640999992017040411004-05531-047460FM-15+013199999V0202101N002110045719N009999199+02501+02501999999ADDGA1071+004571999GE19MSL   +99999+99999GF199999071999004571999999MA1101201999999REMMET051METAR SBIZ 041100Z 21004KT 9999 BKN015 25/25 Q1012=
0165825640999992017040412004-05531-047460FM-15+013199999V0201501N000510045719N009999199+02701+02401999999ADDGA1071+004571999GA2041+024381999GE19MSL   +99999+99999GF199999071999004571999999MA1101301999999REMMET058METAR SBIZ 041200Z 15001KT 9999 BKN015 SCT080 27/24 Q1013=
0165825640999992017040413004-05531-047460FM-15+013199999V0201001N001010045719N009999199+02801+02501999999ADDGA1071+004571999GA2041+024381999GE19MSL   +99999+99999GF199999071999004571999999MA1101301999999REMMET058METAR SBIZ 041300Z 10002KT 9999 BKN015 SCT080 28/25 Q1013=
0165825640999992017040414004-05531-047460FM-15+013199999V0202801N002110243819N009999199+02901+02501999999ADDGA1041+004571999GA2071+024381999GE19MSL   +99999+99999GF199999041999004571999999MA1101301999999REMMET058METAR SBIZ 041400Z 28004KT 9999 SCT015 BKN080 29/25 Q1013=
0165825640999992017040416004-05531-047460FM-15+013199999V0202501N00211006101CN009999199+03301+02401999999ADDGA1041+004571999GA2041+006101999GE19MSL   +99999+99999GF199999041999004571999999MA1101101999999REMMET058METAR SBIZ 041600Z 25004KT 9999 SCT015 SCT020 33/24 Q1011=
0181825640999992017040417004-05531-047460FM-15+013199999V0209999C000010076219N009999199+02801+02501999999ADDGA1041+006101999GA2071+007621999GE19MSL   +99999+99999GF199999041999006101999999MA1101001999999MW1611REMMET068METAR SBIZ 041700Z 00000KT 9999 3000W -RA SCT020 BKN025 28/25 Q1010=
0153825640999992017040418004-05531-047460FM-15+013199999V0203401N001019999999N009999199+02801+02501999999ADDGA1041+007621999GE19MSL   +99999+99999GF199999041999007621999999MA1100901999999MW1161REMMET056METAR SBIZ 041800Z 34002KT 9999 VCSH SCT025 28/25 Q1009=
0172825640999992017040420004-05531-047460FM-15+013199999V0209999C00001024381CN009999199+02701+02501999999ADDGA1021+007621999GA2041+024381999GE19MSL   +99999+99999GF199999021999007621999999MA1100901999999REMMET065METAR SBIZ 042000Z 00000KT 9999 FEW025 SCT080 27/25 Q1009 RESHRA=
