0142827950999992017010104004-07270-035896FM-15+050299999V0201201N003610045719N009999199+02201+02001999999ADDGA1071+004571999GE19MSL   +99999+99999GF199999071999004571999999MA1101401999999REMMET051METAR SBKG 010400Z 12007KT 9999 BKN015 22/20 Q1014=
0142827950999992017010105004-07270-035896FM-15+050299999V0201201N003110045719N009999199+02201+02001999999ADDGA1071+004571999GE19MSL   +99999+99999GF199999071999004571999999MA1101401999999REMMET051METAR SBKG 010500Z 12006KT 9999 BKN015 22/20 Q1014=
0142827950999992017010106004-07270-035896FM-15+050299999V0201301N004119999999N009999199+02201+02001999999ADDGA1041+003961999GE19MSL   +99999+99999GF199999041999003961999999MA1101401999999REMMET051METAR SBKG 010600Z 13008KT 9999 SCT013 22/20 Q1014=
0142827950999992017010107004-07270-035896FM-15+050299999V0201001N002119999999N009999199+02101+02001999999ADDGA1041+003351999GE19MSL   +99999+99999GF199999041999003351999999MA1101401999999REMMET051METAR SBKG 010700Z 10004KT 9999 SCT011 21/20 Q1014=
0142827950999992017010109004-07270-035896FM-15+050299999V0201101N003119999999N009999199+02201+02001999999ADDGA1021+003351999GE19MSL   +99999+99999GF199999021999003351999999MA1101401999999REMMET051METAR SBKG 010900Z 11006KT 9999 FEW011 22/20 Q1014=
0165827950999992017010110004-07270-035896FM-15+050299999V0201201N00311004571CN009999199+02301+02001999999ADDGA1041+003961999GA2041+004571999GE19MSL   +99999+99999GF199999041999003961999999MA1101501999999REMMET058METAR SBKG 011000Z 12006KT 9999 SCT013 SCT015 23/20 Q1015=
0142827950999992017010111004-07270-035896FM-15+050299999V0201201N006219999999N009999199+02501+02001999999ADDGA1041+004881999GE19MSL   +99999+99999GF199999041999004881999999MA1101601999999REMMET051METAR SBKG 011100Z 12012KT 9999 SCT016 25/20 Q1016=
0165827950999992017010112004-07270-035896FM-15+050299999V0201101N005710121919N009999199+02501+02001999999ADDGA1041+006401999GA2071+012191999GE19MSL   +99999+99999GF199999041999006401999999MA1101601999999REMMET058METAR SBKG 011200Z 11011KT 9999 SCT021 BKN040 25/20 Q1016=
0150827950999992017010113004-07270-035896FM-15+050299999V0201101V004610073219N009999199+02601+02001999999ADDGA1071+007321999GE19MSL   +99999+99999GF199999071999007321999999MA1101601999999REMMET059METAR SBKG 011300Z 11009KT 080V140 9999 BKN024 26/20 Q1016=
0150827950999992017010114004-07270-035896FM-15+050299999V0201201V005710097519N009999199+02801+01901999999ADDGA1071+009751999GE19MSL   +99999+99999GF199999071999009751999999MA1101501999999REMMET059METAR SBKG 011400Z 12011KT 080V160 9999 BKN032 28/19 Q1015=
0150827950999992017010115004-07270-035896FM-15+050299999V0201101V003610137219N009999199+02901+01901999999ADDGA1071+013721999GE19MSL   +99999+99999GF199999071999013721999999MA1101501999999REMMET059METAR SBKG 011500Z 11007KT 060V140 9999 BKN045 29/19 Q1015=
0080827950999992017010116004-07270-035896FM-15+050299999V0201001V005719999999Y999999999+03001+01801999999ADDMA1101401999999REMMET053METAR SBKG 011600Z 10011KT 070V130 CAVOK 30/18 Q1014=
0080827950999992017010117004-07270-035896FM-15+050299999V0201201V005119999999Y999999999+03001+01701999999ADDMA1101301999999REMMET053METAR SBKG 011700Z 12010KT 090V160 CAVOK 30/17 Q1013=
0080827950999992017010118004-07270-035896FM-15+050299999V0201101V006219999999Y999999999+03101+01701999999ADDMA1101201999999REMMET053METAR SBKG 011800Z 11012KT 080V140 CAVOK 31/17 Q1012=
0080827950999992017010119004-07270-035896FM-15+050299999V0201001V007219999999Y999999999+03001+01901999999ADDMA1101201999999REMMET053METAR SBKG 011900Z 10014KT 070V130 CAVOK 30/19 Q1012=
0142827950999992017010120004-07270-035896FM-15+050299999V0200901N007719999999N009999199+02801+01901999999ADDGA1021+013111999GE19MSL   +99999+99999GF199999021999013111999999MA1101301999999REMMET051METAR SBKG 012000Z 09015KT 9999 FEW043 28/19 Q1013=
0142827950999992017010120454-07270-035896FM-16+050299999V0201001N007719999999N009999199+02801+01801999999ADDGA1021+012191999GE19MSL   +99999+99999GF199999021999012191999999MA1101301999999REMMET051SPECI SBKG 012045Z 10015KT 9999 FEW040 28/18 Q1013=
0142827950999992017010204004-07270-035896FM-15+050299999V0201301N001510048819N009999199+02201+02001999999ADDGA1071+004881999GE19MSL   +99999+99999GF199999071999004881999999MA1101501999999REMMET051METAR SBKG 020400Z 13003KT 9999 BKN016 22/20 Q1015=
0142827950999992017010205004-07270-035896FM-15+050299999V0201201N002110054919N009999199+02201+02001999999ADDGA1071+005491999GE19MSL   +99999+99999GF199999071999005491999999MA1101401999999REMMET051METAR SBKG 020500Z 12004KT 9999 BKN018 22/20 Q1014=
0142827950999992017010207004-07270-035896FM-15+050299999V0201501N001510045719N009999199+02201+02001999999ADDGA1071+004571999GE19MSL   +99999+99999GF199999071999004571999999MA1101401999999REMMET051METAR SBKG 020700Z 15003KT 9999 BKN015 22/20 Q1014=
0142827950999992017010209004-07270-035896FM-15+050299999V0209999V001019999999N009999199+02201+01901999999ADDGA1021+003961999GE19MSL   +99999+99999GF199999021999003961999999MA1101501999999REMMET051METAR SBKG 020900Z VRB02KT 9999 FEW013 22/19 Q1015=
0180827950999992017010210004-07270-035896FM-15+050299999V0201301V00361004571CN009999199+02301+01901999999ADDGA1041+003961999GA2041+004571999GA3071+015241999GE19MSL   +99999+99999GF199999041999003961999999REMMET072METAR SBKG 021000Z 13007KT 110V170 9999 SCT013 SCT015 BKN050 23/19 1015=
0184827950999992017010211004-07270-035896FM-15+050299999V0201401V003610057919N009999199+02401+01901999999ADDGA1071+005791999GA2071+007321999GE19MSL   +99999+99999GF199999071999005791999999MA1101501999999MW1161REMMET071METAR SBKG 021100Z 14007KT 110V170 9999 VCSH BKN019 BKN024 24/19 Q1015=
0150827950999992017010212004-07270-035896FM-15+050299999V0201401V004610070119N009999199+02501+01901999999ADDGA1071+007011999GE19MSL   +99999+99999GF199999071999007011999999MA1101501999999REMMET059METAR SBKG 021200Z 14009KT 100V180 9999 BKN023 25/19 Q1015=
0150827950999992017010213004-07270-035896FM-15+050299999V0201201V004110091419N009999199+02701+01901999999ADDGA1071+009141999GE19MSL   +99999+99999GF199999071999009141999999MA1101501999999REMMET059METAR SBKG 021300Z 12008KT 090V180 9999 BKN030 27/19 Q1015=
0150827950999992017010214004-07270-035896FM-15+050299999V0201201V004110100619N009999199+02801+01801999999ADDGA1071+010061999GE19MSL   +99999+99999GF199999071999010061999999MA1101501999999REMMET059METAR SBKG 021400Z 12008KT 050V160 9999 BKN033 28/18 Q1015=
0150827950999992017010215004-07270-035896FM-15+050299999V0201301V004619999999N009999199+02901+01901999999ADDGA1041+013721999GE19MSL   +99999+99999GF199999041999013721999999MA1101401999999REMMET059METAR SBKG 021500Z 13009KT 080V170 9999 SCT045 29/19 Q1014=
0142827950999992017010217004-07270-035896FM-15+050299999V0201101N006219999999N009999199+03001+01701999999ADDGA1041+012191999GE19MSL   +99999+99999GF199999041999012191999999MA1101201999999REMMET051METAR SBKG 021700Z 11012KT 9999 SCT040 30/17 Q1012=
0142827950999992017010218004-07270-035896FM-15+050299999V0201101N006219999999N009999199+03101+01701999999ADDGA1041+012191999GE19MSL   +99999+99999GF199999041999012191999999MA1101101999999REMMET051METAR SBKG 021800Z 11012KT 9999 SCT040 31/17 Q1011=
0142827950999992017010219004-07270-035896FM-15+050299999V0201101N006719999999N009999199+03001+01701999999ADDGA1021+012191999GE19MSL   +99999+99999GF199999021999012191999999MA1101101999999REMMET051METAR SBKG 021900Z 11013KT 9999 FEW040 30/17 Q1011=
0080827950999992017010220004-07270-035896FM-15+050299999V0200901V007219999999Y999999999+02901+01801999999ADDMA1101201999999REMMET053METAR SBKG 022000Z 09014KT 070V140 CAVOK 29/18 Q1012=
0072827950999992017010220454-07270-035896FM-16+050299999V0200901N006719999999Y999999999+02701+01801999999ADDMA1101201999999REMMET045SPECI SBKG 022045Z 09013KT CAVOK 27/18 Q1012=
0142827950999992017010303154-07270-035896FM-16+050299999V0200901N003119999999N009999199+02201+02001999999ADDGA1041+003351999GE19MSL   +99999+99999GF199999041999003351999999MA1101401999999REMMET051SPECI SBKG 030315Z 09006KT 9999 SCT011 22/20 Q1014=
0165827950999992017010304004-07270-035896FM-15+050299999V0200901N002610054919N009999199+02201+02001999999ADDGA1041+002741999GA2071+005491999GE19MSL   +99999+99999GF199999041999002741999999MA1101401999999REMMET058METAR SBKG 030400Z 09005KT 9999 SCT009 BKN018 22/20 Q1014=
0072827950999992017010305004-07270-035896FM-15+050299999V0200901N002119999999Y999999999+02101+02001999999ADDMA1101401999999REMMET045METAR SBKG 030500Z 09004KT CAVOK 21/20 Q1014=
0142827950999992017010306004-07270-035896FM-15+050299999V0201001N003619999999N009999199+02101+02001999999ADDGA1021+002131999GE19MSL   +99999+99999GF199999021999002131999999MA1101301999999REMMET051METAR SBKG 030600Z 10007KT 9999 FEW007 21/20 Q1013=
0072827950999992017010307004-07270-035896FM-15+050299999V0201001N003119999999Y999999999+02001+02001999999ADDMA1101301999999REMMET045METAR SBKG 030700Z 10006KT CAVOK 20/20 Q1013=
0142827950999992017010309004-07270-035896FM-15+050299999V0201001N002119999999N009999199+02101+02001999999ADDGA1041+003961999GE19MSL   +99999+99999GF199999041999003961999999MA1101401999999REMMET051METAR SBKG 030900Z 10004KT 9999 SCT013 21/20 Q1014=
0142827950999992017010310004-07270-035896FM-15+050299999V0201101N004110045719N009999199+02301+02001999999ADDGA1071+004571999GE19MSL   +99999+99999GF199999071999004571999999MA1101501999999REMMET051METAR SBKG 031000Z 11008KT 9999 BKN015 23/20 Q1015=
0142827950999992017010311004-07270-035896FM-15+050299999V0201001N004110054919N009999199+02401+02001999999ADDGA1071+005491999GE19MSL   +99999+99999GF199999071999005491999999MA1101501999999REMMET051METAR SBKG 031100Z 10008KT 9999 BKN018 24/20 Q1015=
0150827950999992017010312004-07270-035896FM-15+050299999V0201101V005110061019N009999199+02501+02001999999ADDGA1071+006101999GE19MSL   +99999+99999GF199999071999006101999999MA1101501999999REMMET059METAR SBKG 031200Z 11010KT 070V130 9999 BKN020 25/20 Q1015=
0142827950999992017010314004-07270-035896FM-15+050299999V0200901N004110091419N009999199+02801+01901999999ADDGA1071+009141999GE19MSL   +99999+99999GF199999071999009141999999MA1101501999999REMMET051METAR SBKG 031400Z 09008KT 9999 BKN030 28/19 Q1015=
0142827950999992017010315004-07270-035896FM-15+050299999V0201001N006210091419N009999199+02901+01901999999ADDGA1071+009141999GE19MSL   +99999+99999GF199999071999009141999999MA1101401999999REMMET051METAR SBKG 031500Z 10012KT 9999 BKN030 29/19 Q1014=
0142827950999992017010316004-07270-035896FM-15+050299999V0200901N004610091419N009999199+02901+01801999999ADDGA1071+009141999GE19MSL   +99999+99999GF199999071999009141999999MA1101401999999REMMET051METAR SBKG 031600Z 09009KT 9999 BKN030 29/18 Q1014=
0142827950999992017010318004-07270-035896FM-15+050299999V0201101N005119999999N009999199+03001+01901999999ADDGA1041+012191999GE19MSL   +99999+99999GF199999041999012191999999MA1101201999999REMMET051METAR SBKG 031800Z 11010KT 9999 SCT040 30/19 Q1012=
0142827950999992017010319004-07270-035896FM-15+050299999V0201001N006219999999N009999199+02901+01901999999ADDGA1041+012191999GE19MSL   +99999+99999GF199999041999012191999999MA1101201999999REMMET051METAR SBKG 031900Z 10012KT 9999 SCT040 29/19 Q1012=
0142827950999992017010320004-07270-035896FM-15+050299999V0201001N006719999999N009999199+02801+01901999999ADDGA1021+012191999GE19MSL   +99999+99999GF199999021999012191999999MA1101301999999REMMET051METAR SBKG 032000Z 10013KT 9999 FEW040 28/19 Q1013=
0142827950999992017010320454-07270-035896FM-16+050299999V0201001N005719999999N009999199+02701+02001999999ADDGA1021+006101999GE19MSL   +99999+99999GF199999021999006101999999MA1101301999999REMMET051SPECI SBKG 032045Z 10011KT 9999 FEW020 27/20 Q1013=
0142827950999992017010404004-07270-035896FM-15+050299999V0201101N006710021319N009999199+02201+02101999999ADDGA1071+002131999GE19MSL   +99999+99999GF199999071999002131999999MA1101501999999REMMET051METAR SBKG 040400Z 11013KT 9999 BKN007 22/21 Q1015=
0142827950999992017010406004-07270-035896FM-15+050299999V0201001N004610030519N009999199+02201+02101999999ADDGA1071+003051999GE19MSL   +99999+99999GF199999071999003051999999MA1101401999999REMMET051METAR SBKG 040600Z 10009KT 9999 BKN010 22/21 Q1014=
0142827950999992017010407004-07270-035896FM-15+050299999V0200901N004110021319N009999199+02301+02101999999ADDGA1071+002131999GE19MSL   +99999+99999GF199999071999002131999999MA1101501999999REMMET051METAR SBKG 040700Z 09008KT 9999 BKN007 23/21 Q1015=
0165827950999992017010408004-07270-035896FM-15+050299999V0201001N005110030519N009999199+02201+02101999999ADDGA1041+001221999GA2071+003051999GE19MSL   +99999+99999GF199999041999001221999999MA1101501999999REMMET058METAR SBKG 040800Z 10010KT 9999 SCT004 BKN010 22/21 Q1015=
0142827950999992017010409204-07270-035896FM-16+050299999V0201001N006210045719N009999199+02301+02101999999ADDGA1071+004571999GE19MSL   +99999+99999GF199999071999004571999999MA1101601999999REMMET051SPECI SBKG 040920Z 10012KT 9999 BKN015 23/21 Q1016=
0142827950999992017010410004-07270-035896FM-15+050299999V0201001N005110045719N009999199+02301+02101999999ADDGA1071+004571999GE19MSL   +99999+99999GF199999071999004571999999MA1101601999999REMMET051METAR SBKG 041000Z 10010KT 9999 BKN015 23/21 Q1016=
0142827950999992017010411004-07270-035896FM-15+050299999V0200901N005110061019N009999199+02501+02101999999ADDGA1071+006101999GE19MSL   +99999+99999GF199999071999006101999999MA1101701999999REMMET051METAR SBKG 041100Z 09010KT 9999 BKN020 25/21 Q1017=
0142827950999992017010412004-07270-035896FM-15+050299999V0201101N006710076219N009999199+02701+02001999999ADDGA1071+007621999GE19MSL   +99999+99999GF199999071999007621999999MA1101701999999REMMET051METAR SBKG 041200Z 11013KT 9999 BKN025 27/20 Q1017=
0142827950999992017010413004-07270-035896FM-15+050299999V0200801N005719999999N009999199+02701+01901999999ADDGA1041+009141999GE19MSL   +99999+99999GF199999041999009141999999MA1101601999999REMMET051METAR SBKG 041300Z 08011KT 9999 SCT030 27/19 Q1016=
0142827950999992017010415004-07270-035896FM-15+050299999V0201001N006719999999N009999199+03001+01701999999ADDGA1041+012191999GE19MSL   +99999+99999GF199999041999012191999999MA1101501999999REMMET051METAR SBKG 041500Z 10013KT 9999 SCT040 30/17 Q1015=
0072827950999992017010417004-07270-035896FM-15+050299999V0201001N007719999999Y999999999+03101+01701999999ADDMA1101401999999REMMET045METAR SBKG 041700Z 10015KT CAVOK 31/17 Q1014=
0072827950999992017010418004-07270-035896FM-15+050299999V0201001N006719999999Y999999999+03001+01701999999ADDMA1101301999999REMMET045METAR SBKG 041800Z 10013KT CAVOK 30/17 Q1013=
0072827950999992017010420004-07270-035896FM-15+050299999V0201001N007719999999Y999999999+02901+01801999999ADDMA1101401999999REMMET045METAR SBKG 042000Z 10015KT CAVOK 29/18 Q1014=
0072827950999992017010420454-07270-035896FM-16+050299999V0201001N007219999999Y999999999+02701+01901999999ADDMA1101501999999REMMET045SPECI SBKG 042045Z 10014KT CAVOK 27/19 Q1015=
0142827950999992017010503154-07270-035896FM-16+050299999V0200601N003110030519N009999199+02201+02001999999ADDGA1071+003051999GE19MSL   +99999+99999GF199999071999003051999999MA1101501999999REMMET051SPECI SBKG 050315Z 06006KT 9999 BKN010 22/20 Q1015=
0142827950999992017010504004-07270-035896FM-15+050299999V0201001N004110030519N009999199+02201+02001999999ADDGA1071+003051999GE19MSL   +99999+99999GF199999071999003051999999MA1101501999999REMMET051METAR SBKG 050400Z 10008KT 9999 BKN010 22/20 Q1015=
0142827950999992017010506004-07270-035896FM-15+050299999V0201001N003119999999N009999199+02201+02001999999ADDGA1041+004571999GE19MSL   +99999+99999GF199999041999004571999999MA1101401999999REMMET051METAR SBKG 050600Z 10006KT 9999 SCT015 22/20 Q1014=
0142827950999992017010507004-07270-035896FM-15+050299999V0201001N002619999999N009999199+02101+02001999999ADDGA1041+004571999GE19MSL   +99999+99999GF199999041999004571999999MA1101401999999REMMET051METAR SBKG 050700Z 10005KT 9999 SCT015 21/20 Q1014=
0142827950999992017010508004-07270-035896FM-15+050299999V0200901N001519999999N009999199+02101+02001999999ADDGA1041+004571999GE19MSL   +99999+99999GF199999041999004571999999MA1101501999999REMMET051METAR SBKG 050800Z 09003KT 9999 SCT015 21/20 Q1015=
0165827950999992017010510004-07270-035896FM-15+050299999V0201201N004110045719N009999199+02301+02001999999ADDGA1021+003961999GA2071+004571999GE19MSL   +99999+99999GF199999021999003961999999MA1101601999999REMMET058METAR SBKG 051000Z 12008KT 9999 FEW013 BKN015 23/20 Q1016=
0142827950999992017010512004-07270-035896FM-15+050299999V0201301N006210079219N009999199+02601+01901999999ADDGA1071+007921999GE19MSL   +99999+99999GF199999071999007921999999MA1101601999999REMMET051METAR SBKG 051200Z 13012KT 9999 BKN026 26/19 Q1016=
0165827950999992017010513004-07270-035896FM-15+050299999V0201201N006210304819N009999199+02601+01901999999ADDGA1041+010061999GA2071+030481999GE19MSL   +99999+99999GF199999041999010061999999MA1101601999999REMMET058METAR SBKG 051300Z 12012KT 9999 SCT033 BKN100 26/19 Q1016=
0142827950999992017010516004-07270-035896FM-15+050299999V0201201N006210121919N009999199+03001+01901999999ADDGA1071+012191999GE19MSL   +99999+99999GF199999071999012191999999MA1101501999999REMMET051METAR SBKG 051600Z 12012KT 9999 BKN040 30/19 Q1015=
0161827950999992017010518004-07270-035896FM-15+050299999V0201001V006710137219N009999199+03001+01901999999ADDGA1071+013721999GE19MSL   +99999+99999GF199999071999013721999999MA1101301999999OC101181REMMET062METAR SBKG 051800Z 10013G23KT 070V130 9999 BKN045 30/19 Q1013=
0142827950999992017010520004-07270-035896FM-15+050299999V0201201N009319999999N009999199+02801+01901999999ADDGA1021+011891999GE19MSL   +99999+99999GF199999021999011891999999MA1101301999999REMMET051METAR SBKG 052000Z 12018KT 9999 FEW039 28/19 Q1013=
0142827950999992017010520454-07270-035896FM-16+050299999V0201101N007719999999N009999199+02701+01901999999ADDGA1021+013411999GE19MSL   +99999+99999GF199999021999013411999999MA1101401999999REMMET051SPECI SBKG 052045Z 11015KT 9999 FEW044 27/19 Q1014=
0142827950999992017010603154-07270-035896FM-16+050299999V0209999C000019999999N009999199+02201+01901999999ADDGA1021+006401999GE19MSL   +99999+99999GF199999021999006401999999MA1101501999999REMMET051SPECI SBKG 060315Z 00000KT 9999 FEW021 22/19 Q1015=
0072827950999992017010604004-07270-035896FM-15+050299999V0201501N004119999999Y999999999+02101+01801999999ADDMA1101401999999REMMET045METAR SBKG 060400Z 15008KT CAVOK 21/18 Q1014=
0142827950999992017010605004-07270-035896FM-15+050299999V0201301N004119999999N009999199+02101+01801999999ADDGA1021+010061999GE19MSL   +99999+99999GF199999021999010061999999MA1101401999999REMMET051METAR SBKG 060500Z 13008KT 9999 FEW033 21/18 Q1014=
0072827950999992017010606004-07270-035896FM-15+050299999V0201301N003119999999Y999999999+02101+01901999999ADDMA1101401999999REMMET045METAR SBKG 060600Z 13006KT CAVOK 21/19 Q1014=
0142827950999992017010607004-07270-035896FM-15+050299999V0201501N003119999999N009999199+02101+01901999999ADDGA1041+005791999GE19MSL   +99999+99999GF199999041999005791999999MA1101401999999REMMET051METAR SBKG 060700Z 15006KT 9999 SCT019 21/19 Q1014=
0142827950999992017010609004-07270-035896FM-15+050299999V0201501N002619999999N009999199+02101+01901999999ADDGA1021+004881999GE19MSL   +99999+99999GF199999021999004881999999MA1101501999999REMMET051METAR SBKG 060900Z 15005KT 9999 FEW016 21/19 Q1015=
0142827950999992017010610004-07270-035896FM-15+050299999V0201401N004619999999N009999199+02201+01901999999ADDGA1021+003961999GE19MSL   +99999+99999GF199999021999003961999999MA1101501999999REMMET051METAR SBKG 061000Z 14009KT 9999 FEW013 22/19 Q1015=
0173827950999992017010611004-07270-035896FM-15+050299999V0201401V00511006711CN009999199+02401+01801999999ADDGA1021+005491999GA2041+006711999GE19MSL   +99999+99999GF199999021999005491999999MA1101601999999REMMET066METAR SBKG 061100Z 14010KT 110V170 9999 FEW018 SCT022 24/18 Q1016=
0150827950999992017010613004-07270-035896FM-15+050299999V0201401V006210112819N009999199+02701+01801999999ADDGA1071+011281999GE19MSL   +99999+99999GF199999071999011281999999MA1101601999999REMMET059METAR SBKG 061300Z 14012KT 110V180 9999 BKN037 27/18 Q1016=
0142827950999992017010614004-07270-035896FM-15+050299999V0201201N005710137219N009999199+02801+01701999999ADDGA1071+013721999GE19MSL   +99999+99999GF199999071999013721999999MA1101501999999REMMET051METAR SBKG 061400Z 12011KT 9999 BKN045 28/17 Q1015=
0072827950999992017010615004-07270-035896FM-15+050299999V0201101N007219999999Y999999999+02901+01701999999ADDMA1101401999999REMMET045METAR SBKG 061500Z 11014KT CAVOK 29/17 Q1014=
0142827950999992017010616004-07270-035896FM-15+050299999V0201201N004610121919N009999199+03101+01601999999ADDGA1071+012191999GE19MSL   +99999+99999GF199999071999012191999999MA1101301999999REMMET051METAR SBKG 061600Z 12009KT 9999 BKN040 31/16 Q1013=
0142827950999992017010617004-07270-035896FM-15+050299999V0201201N006210121919N009999199+03101+01701999999ADDGA1071+012191999GE19MSL   +99999+99999GF199999071999012191999999MA1101201999999REMMET051METAR SBKG 061700Z 12012KT 9999 BKN040 31/17 Q1012=
0142827950999992017010619004-07270-035896FM-15+050299999V0201101N007219999999N009999199+03001+01701999999ADDGA1041+012191999GE19MSL   +99999+99999GF199999041999012191999999MA1101201999999REMMET051METAR SBKG 061900Z 11014KT 9999 SCT040 30/17 Q1012=
0142827950999992017010620004-07270-035896FM-15+050299999V0200901N007719999999N009999199+02801+01901999999ADDGA1021+009141999GE19MSL   +99999+99999GF199999021999009141999999MA1101201999999REMMET051METAR SBKG 062000Z 09015KT 9999 FEW030 28/19 Q1012=
0072827950999992017010620454-07270-035896FM-16+050299999V0200801N007219999999Y999999999+02701+01901999999ADDMA1101301999999REMMET045SPECI SBKG 062045Z 08014KT CAVOK 27/19 Q1013=
0072827950999992017010703154-07270-035896FM-16+050299999V0201101N003119999999Y999999999+02101+01901999999ADDMA1101401999999REMMET045SPECI SBKG 070315Z 11006KT CAVOK 21/19 Q1014=
0142827950999992017010704004-07270-035896FM-15+050299999V0201301N003619999999N009999199+02101+01901999999ADDGA1041+005491999GE19MSL   +99999+99999GF199999041999005491999999MA1101401999999REMMET051METAR SBKG 070400Z 13007KT 9999 SCT018 21/19 Q1014=
0142827950999992017010705004-07270-035896FM-15+050299999V0201201N003119999999N009999199+02101+01901999999ADDGA1041+004271999GE19MSL   +99999+99999GF199999041999004271999999MA1101401999999REMMET051METAR SBKG 070500Z 12006KT 9999 SCT014 21/19 Q1014=
0142827950999992017010706004-07270-035896FM-15+050299999V0201301N001519999999N009999199+02101+01901999999ADDGA1041+003961999GE19MSL   +99999+99999GF199999041999003961999999MA1101301999999REMMET051METAR SBKG 070600Z 13003KT 9999 SCT013 21/19 Q1013=
0142827950999992017010707004-07270-035896FM-15+050299999V0201201N002119999999N009999199+02001+01901999999ADDGA1021+003961999GE19MSL   +99999+99999GF199999021999003961999999MA1101401999999REMMET051METAR SBKG 070700Z 12004KT 9999 FEW013 20/19 Q1014=
0165827950999992017010708004-07270-035896FM-15+050299999V0201001N001010051819N009999199+02001+01901999999ADDGA1041+003661999GA2071+005181999GE19MSL   +99999+99999GF199999041999003661999999MA1101501999999REMMET058METAR SBKG 070800Z 10002KT 9999 SCT012 BKN017 20/19 Q1015=
0142827950999992017010710004-07270-035896FM-15+050299999V0201401N003119999999N009999199+02201+01901999999ADDGA1021+004571999GE19MSL   +99999+99999GF199999021999004571999999MA1101501999999REMMET051METAR SBKG 071000Z 14006KT 9999 FEW015 22/19 Q1015=
0142827950999992017010712004-07270-035896FM-15+050299999V0201101N005110082319N009999199+02601+01801999999ADDGA1071+008231999GE19MSL   +99999+99999GF199999071999008231999999MA1101601999999REMMET051METAR SBKG 071200Z 11010KT 9999 BKN027 26/18 Q1016=
0142827950999992017010713004-07270-035896FM-15+050299999V0201101N006210091419N009999199+02701+01701999999ADDGA1071+009141999GE19MSL   +99999+99999GF199999071999009141999999MA1101601999999REMMET051METAR SBKG 071300Z 11012KT 9999 BKN030 27/17 Q1016=
0142827950999992017010714004-07270-035896FM-15+050299999V0200901N005710091419N009999199+02801+01701999999ADDGA1071+009141999GE19MSL   +99999+99999GF199999071999009141999999MA1101501999999REMMET051METAR SBKG 071400Z 09011KT 9999 BKN030 28/17 Q1015=
0142827950999992017010715004-07270-035896FM-15+050299999V0201101N004110121919N009999199+03001+01701999999ADDGA1071+012191999GE19MSL   +99999+99999GF199999071999012191999999MA1101501999999REMMET051METAR SBKG 071500Z 11008KT 9999 BKN040 30/17 Q1015=
0142827950999992017010717004-07270-035896FM-15+050299999V0200901N003619999999N009999199+03101+01601999999ADDGA1041+012191999GE19MSL   +99999+99999GF199999041999012191999999MA1101301999999REMMET051METAR SBKG 071700Z 09007KT 9999 SCT040 31/16 Q1013=
0142827950999992017010719004-07270-035896FM-15+050299999V0201101N006219999999N009999199+03001+01901999999ADDGA1041+012191999GE19MSL   +99999+99999GF199999041999012191999999MA1101201999999REMMET051METAR SBKG 071900Z 11012KT 9999 SCT040 30/19 Q1012=
0142827950999992017010720004-07270-035896FM-15+050299999V0201201N006219999999N009999199+02801+01801999999ADDGA1021+009141999GE19MSL   +99999+99999GF199999021999009141999999MA1101301999999REMMET051METAR SBKG 072000Z 12012KT 9999 FEW030 28/18 Q1013=
0142827950999992017010720454-07270-035896FM-16+050299999V0201101N007719999999N009999199+02601+01801999999ADDGA1021+009141999GE19MSL   +99999+99999GF199999021999009141999999MA1101301999999REMMET051SPECI SBKG 072045Z 11015KT 9999 FEW030 26/18 Q1013=
0072827950999992017010804004-07270-035896FM-15+050299999V0201201N004619999999Y999999999+02201+01801999999ADDMA1101401999999REMMET045METAR SBKG 080400Z 12009KT CAVOK 22/18 Q1014=
0142827950999992017010806004-07270-035896FM-15+050299999V0201101N002619999999N009999199+02101+01901999999ADDGA1021+004571999GE19MSL   +99999+99999GF199999021999004571999999MA1101401999999REMMET051METAR SBKG 080600Z 11005KT 9999 FEW015 21/19 Q1014=
0142827950999992017010808004-07270-035896FM-15+050299999V0201101N001519999999N009999199+02101+01801999999ADDGA1021+004571999GE19MSL   +99999+99999GF199999021999004571999999MA1101401999999REMMET051METAR SBKG 080800Z 11003KT 9999 FEW015 21/18 Q1014=
0142827950999992017010809004-07270-035896FM-15+050299999V0200901N002110061019N009999199+02101+01901999999ADDGA1071+006101999GE19MSL   +99999+99999GF199999071999006101999999MA1101501999999REMMET051METAR SBKG 080900Z 09004KT 9999 BKN020 21/19 Q1015=
0142827950999992017010810004-07270-035896FM-15+050299999V0201301N002110045719N009999199+02201+01901999999ADDGA1071+004571999GE19MSL   +99999+99999GF199999071999004571999999MA1101601999999REMMET051METAR SBKG 081000Z 13004KT 9999 BKN015 22/19 Q1016=
0142827950999992017010812004-07270-035896FM-15+050299999V0201101N005710091419N009999199+02501+01801999999ADDGA1071+009141999GE19MSL   +99999+99999GF199999071999009141999999MA1101601999999REMMET051METAR SBKG 081200Z 11011KT 9999 BKN030 25/18 Q1016=
0142827950999992017010813004-07270-035896FM-15+050299999V0201001N004619999999N009999199+02601+01901999999ADDGA1041+009141999GE19MSL   +99999+99999GF199999041999009141999999MA1101501999999REMMET051METAR SBKG 081300Z 10009KT 9999 SCT030 26/19 Q1015=
0142827950999992017010815004-07270-035896FM-15+050299999V0201001N005110091419N009999199+02801+01801999999ADDGA1071+009141999GE19MSL   +99999+99999GF199999071999009141999999MA1101401999999REMMET051METAR SBKG 081500Z 10010KT 9999 BKN030 28/18 Q1014=
0142827950999992017010816004-07270-035896FM-15+050299999V0200901N004610140219N009999199+02901+01801999999ADDGA1071+014021999GE19MSL   +99999+99999GF199999071999014021999999MA1101301999999REMMET051METAR SBKG 081600Z 09009KT 9999 BKN046 29/18 Q1013=
0072827950999992017010817004-07270-035896FM-15+050299999V0201001N004119999999Y999999999+03001+01701999999ADDMA1101201999999REMMET045METAR SBKG 081700Z 10008KT CAVOK 30/17 Q1012=
0072827950999992017010818004-07270-035896FM-15+050299999V0201001N006219999999Y999999999+03001+01701999999ADDMA1101101999999REMMET045METAR SBKG 081800Z 10012KT CAVOK 30/17 Q1011=
0072827950999992017010820004-07270-035896FM-15+050299999V0201101N006719999999Y999999999+02901+01701999999ADDMA1101201999999REMMET045METAR SBKG 082000Z 11013KT CAVOK 29/17 Q1012=
0072827950999992017010820454-07270-035896FM-16+050299999V0201001N006719999999Y999999999+02801+01701999999ADDMA1101201999999REMMET045SPECI SBKG 082045Z 10013KT CAVOK 28/17 Q1012=
0072827950999992017010903154-07270-035896FM-16+050299999V0201101N002119999999Y999999999+02101+01901999999ADDMA1101401999999REMMET045SPECI SBKG 090315Z 11004KT CAVOK 21/19 Q1014=
0142827950999992017010904004-07270-035896FM-15+050299999V0201101N002619999999N009999199+02101+01901999999ADDGA1041+004571999GE19MSL   +99999+99999GF199999041999004571999999MA1101401999999REMMET051METAR SBKG 090400Z 11005KT 9999 SCT015 21/19 Q1014=
0142827950999992017010905004-07270-035896FM-15+050299999V0201201N002119999999N009999199+02101+01901999999ADDGA1041+004571999GE19MSL   +99999+99999GF199999041999004571999999MA1101401999999REMMET051METAR SBKG 090500Z 12004KT 9999 SCT015 21/19 Q1014=
0142827950999992017010906004-07270-035896FM-15+050299999V0201501N001019999999N009999199+02101+01901999999ADDGA1041+004571999GE19MSL   +99999+99999GF199999041999004571999999MA1101301999999REMMET051METAR SBKG 090600Z 15002KT 9999 SCT015 21/19 Q1013=
0142827950999992017010907004-07270-035896FM-15+050299999V0201301N001519999999N009999199+02101+01901999999ADDGA1021+004571999GE19MSL   +99999+99999GF199999021999004571999999MA1101301999999REMMET051METAR SBKG 090700Z 13003KT 9999 FEW015 21/19 Q1013=
0097827950999992017010908004-07270-035896FM-15+050299999V0201501N001519999999N009999199+02105+01905999999ADDMA1101405999999REMMET051METAR SBKG 090800Z 15003KT 9999 SCTO15 21/19 Q1014=EQDD01      0ADE693
0142827950999992017010909004-07270-035896FM-15+050299999V0201401N002110045719N009999199+02101+02001999999ADDGA1071+004571999GE19MSL   +99999+99999GF199999071999004571999999MA1101501999999REMMET051METAR SBKG 090900Z 14004KT 9999 BKN015 21/20 Q1015=
0165827950999992017010911004-07270-035896FM-15+050299999V0201401N004610070119N009999199+02401+02001999999ADDGA1041+005181999GA2071+007011999GE19MSL   +99999+99999GF199999041999005181999999MA1101501999999REMMET058METAR SBKG 091100Z 14009KT 9999 SCT017 BKN023 24/20 Q1015=
0142827950999992017010913004-07270-035896FM-15+050299999V0201201N006210079219N009999199+02701+02001999999ADDGA1071+007921999GE19MSL   +99999+99999GF199999071999007921999999MA1101501999999REMMET051METAR SBKG 091300Z 12012KT 9999 BKN026 27/20 Q1015=
0142827950999992017010914004-07270-035896FM-15+050299999V0201301N006210109719N009999199+02901+01901999999ADDGA1071+010971999GE19MSL   +99999+99999GF199999071999010971999999MA1101501999999REMMET051METAR SBKG 091400Z 13012KT 9999 BKN036 29/19 Q1015=
0072827950999992017010915004-07270-035896FM-15+050299999V0201301N005719999999Y999999999+03001+01801999999ADDMA1101401999999REMMET045METAR SBKG 091500Z 13011KT CAVOK 30/18 Q1014=
0072827950999992017010916004-07270-035896FM-15+050299999V0201201N007219999999Y999999999+03101+01901999999ADDMA1101301999999REMMET045METAR SBKG 091600Z 12014KT CAVOK 31/19 Q1013=
0142827950999992017010917004-07270-035896FM-15+050299999V0200901N006710131119N009999199+03101+01901999999ADDGA1071+013111999GE19MSL   +99999+99999GF199999071999013111999999MA1101201999999REMMET051METAR SBKG 091700Z 09013KT 9999 BKN043 31/19 Q1012=
0072827950999992017010919004-07270-035896FM-15+050299999V0201001N007719999999Y999999999+03001+01901999999ADDMA1101101999999REMMET045METAR SBKG 091900Z 10015KT CAVOK 30/19 Q1011=
0142827950999992017010920004-07270-035896FM-15+050299999V0201001N010319999999N009999199+02801+02001999999ADDGA1041+011281999GE19MSL   +99999+99999GF199999041999011281999999MA1101201999999REMMET051METAR SBKG 092000Z 10020KT 9999 SCT037 28/20 Q1012=
0142827950999992017010920454-07270-035896FM-16+050299999V0201001N009819999999N009999199+02601+02001999999ADDGA1041+007621999GE19MSL   +99999+99999GF199999041999007621999999MA1101301999999REMMET051SPECI SBKG 092045Z 10019KT 9999 SCT025 26/20 Q1013=
0142827950999992017011004004-07270-035896FM-15+050299999V0200801N003610021319N009999199+02201+02101999999ADDGA1071+002131999GE19MSL   +99999+99999GF199999071999002131999999MA1101401999999REMMET051METAR SBKG 100400Z 08007KT 9999 BKN007 22/21 Q1014=
0152827950999992017011005004-07270-035896FM-15+050299999V0201301N002610021319N006000199+02201+02101999999ADDGA1071+002131999GE19MSL   +99999+99999GF199999071999002131999999MA1101301999999MW1611REMMET055METAR SBKG 100500Z 13005KT 6000 -RA BKN007 22/21 Q1013=
0142827950999992017011007004-07270-035896FM-15+050299999V0201101N005110021319N006000199+02201+02101999999ADDGA1071+002131999GE19MSL   +99999+99999GF199999071999002131999999MA1101301999999REMMET051METAR SBKG 100700Z 11010KT 6000 BKN007 22/21 Q1013=
0151827950999992017011008004-07270-035896FM-15+050299999V0200901N004110021319N005000199+02201+02201999999ADDGA1071+002131999GE19MSL   +99999+99999GF199999071999002131999999MA1101301999999MW1101REMMET054METAR SBKG 100800Z 09008KT 5000 BR BKN007 22/22 Q1013=
0165827950999992017011010004-07270-035896FM-15+050299999V0201101N00511004881CN009999199+02301+02101999999ADDGA1041+001831999GA2041+004881999GE19MSL   +99999+99999GF199999041999001831999999MA1101401999999REMMET058METAR SBKG 101000Z 11010KT 9999 SCT006 SCT016 23/21 Q1014=
0165827950999992017011011004-07270-035896FM-15+050299999V0201001N006210048819N009999199+02401+02101999999ADDGA1041+003961999GA2071+004881999GE19MSL   +99999+99999GF199999041999003961999999MA1101401999999REMMET058METAR SBKG 101100Z 10012KT 9999 SCT013 BKN016 24/21 Q1014=
0165827950999992017011012004-07270-035896FM-15+050299999V0201001N005110054919N009999199+02501+02101999999ADDGA1041+004571999GA2071+005491999GE19MSL   +99999+99999GF199999041999004571999999MA1101401999999REMMET058METAR SBKG 101200Z 10010KT 9999 SCT015 BKN018 25/21 Q1014=
0142827950999992017011015004-07270-035896FM-15+050299999V0200901N006210109719N009999199+02801+01901999999ADDGA1071+010971999GE19MSL   +99999+99999GF199999071999010971999999MA1101301999999REMMET051METAR SBKG 101500Z 09012KT 9999 BKN036 28/19 Q1013=
0142827950999992017011018004-07270-035896FM-15+050299999V0201001N006719999999N009999199+02901+01801999999ADDGA1041+014331999GE19MSL   +99999+99999GF199999041999014331999999MA1101101999999REMMET051METAR SBKG 101800Z 10013KT 9999 SCT047 29/18 Q1011=
0142827950999992017011019004-07270-035896FM-15+050299999V0200901N007219999999N009999199+02901+01901999999ADDGA1021+014331999GE19MSL   +99999+99999GF199999021999014331999999MA1101101999999REMMET051METAR SBKG 101900Z 09014KT 9999 FEW047 29/19 Q1011=
0142827950999992017011020004-07270-035896FM-15+050299999V0200801N007219999999N009999199+02801+01901999999ADDGA1021+013111999GE19MSL   +99999+99999GF199999021999013111999999MA1101201999999REMMET051METAR SBKG 102000Z 08014KT 9999 FEW043 28/19 Q1012=
0072827950999992017011020454-07270-035896FM-16+050299999V0200801N007219999999Y999999999+02701+01801999999ADDMA1101301999999REMMET045SPECI SBKG 102045Z 08014KT CAVOK 27/18 Q1013=
0165827950999992017011104004-07270-035896FM-15+050299999V0200901N004610033519N009999199+02201+02101999999ADDGA1041+001831999GA2071+003351999GE19MSL   +99999+99999GF199999041999001831999999MA1101401999999REMMET058METAR SBKG 110400Z 09009KT 9999 SCT006 BKN011 22/21 Q1014=
0165827950999992017011105004-07270-035896FM-15+050299999V0200901N005110061019N009999199+02201+02001999999ADDGA1041+002131999GA2071+006101999GE19MSL   +99999+99999GF199999041999002131999999MA1101301999999REMMET058METAR SBKG 110500Z 09010KT 9999 SCT007 BKN020 22/20 Q1013=
0165827950999992017011106004-07270-035896FM-15+050299999V0201001N004610036619N009999199+02201+02101999999ADDGA1041+001221999GA2071+003661999GE19MSL   +99999+99999GF199999041999001221999999MA1101301999999REMMET058METAR SBKG 110600Z 10009KT 9999 SCT004 BKN012 22/21 Q1013=
0165827950999992017011107004-07270-035896FM-15+050299999V0201001N003610030519N009999199+02101+02101999999ADDGA1041+001221999GA2071+003051999GE19MSL   +99999+99999GF199999041999001221999999MA1101301999999REMMET058METAR SBKG 110700Z 10007KT 9999 SCT004 BKN010 21/21 Q1013=
0165827950999992017011108004-07270-035896FM-15+050299999V0200901N003110012219N009999199+02101+02101999999ADDGA1071+001221999GA2071+002441999GE19MSL   +99999+99999GF199999071999001221999999MA1101401999999REMMET058METAR SBKG 110800Z 09006KT 9999 BKN004 BKN008 21/21 Q1014=
0165827950999992017011110004-07270-035896FM-15+050299999V0200901N004610030519N009999199+02201+02101999999ADDGA1041+001521999GA2071+003051999GE19MSL   +99999+99999GF199999041999001521999999MA1101501999999REMMET058METAR SBKG 111000Z 09009KT 9999 SCT005 BKN010 22/21 Q1015=
0165827950999992017011111004-07270-035896FM-15+050299999V0200901N005710048819N009999199+02401+02001999999ADDGA1021+003051999GA2071+004881999GE19MSL   +99999+99999GF199999021999003051999999MA1101601999999REMMET058METAR SBKG 111100Z 09011KT 9999 FEW010 BKN016 24/20 Q1016=
0135827950999992017011112004-07220-035880FM-12+054899999V0200901N0026100600199010000199+02471+01991101591ADDAA101999999AZ101061AZ201061GA1061+006001081GE19MSL   +99999+99999GF106991061999006001999999KA1120N+02031MA1999999095391REMSYN004BUFR
0142827950999992017011112004-07270-035896FM-15+050299999V0201001N006719999999N009999199+02601+01801999999ADDGA1041+007621999GE19MSL   +99999+99999GF199999041999007621999999MA1101601999999REMMET051METAR SBKG 111200Z 10013KT 9999 SCT025 26/18 Q1016=
0142827950999992017011113004-07270-035896FM-15+050299999V0201001N006219999999N009999199+02701+01701999999ADDGA1041+010971999GE19MSL   +99999+99999GF199999041999010971999999MA1101601999999REMMET051METAR SBKG 111300Z 10012KT 9999 SCT036 27/17 Q1016=
0080827950999992017011116004-07270-035896FM-15+050299999V0200901V006219999999Y999999999+03001+01601999999ADDMA1101301999999REMMET053METAR SBKG 111600Z 09012KT 060V120 CAVOK 30/16 Q1013=
0080827950999992017011117004-07270-035896FM-15+050299999V0200901V004119999999Y999999999+03001+01601999999ADDMA1101201999999REMMET053METAR SBKG 111700Z 09008KT 020V170 CAVOK 30/16 Q1012=
0138827950999992017011118004-07220-035880FM-12+054899999V0200901N0041199999999010000199+02911+01701101011ADDAA101999999AZ101061AZ201061GA1021+006001061GA2999+999999021GE19MSL   +99999+99999GF106991021999006001999999MA1999999094901REMSYN004BUFR
0080827950999992017011118004-07270-035896FM-15+050299999V0201001V006219999999Y999999999+03001+01701999999ADDMA1101201999999REMMET053METAR SBKG 111800Z 10012KT 070V130 CAVOK 30/17 Q1012=
0072827950999992017011120004-07270-035896FM-15+050299999V0200901N006719999999Y999999999+02801+01901999999ADDMA1101201999999REMMET045METAR SBKG 112000Z 09013KT CAVOK 28/19 Q1012=
0072827950999992017011120454-07270-035896FM-16+050299999V0200901N006719999999Y999999999+02701+01901999999ADDMA1101201999999REMMET045SPECI SBKG 112045Z 09013KT CAVOK 27/19 Q1012=
0122827950999992017011200004-07220-035880FM-12+054899999V0200901N0036199999999001000199+02301+02041101231ADDAA101999999AZ101061AZ201061GA1031+006001081GE19MSL   +99999+99999GF106991031999006001999999MA1999999095071REMSYN004BUFR
0165827950999992017011203154-07270-035896FM-16+050299999V0201001N004110045719N009999199+02201+02101999999ADDGA1041+002131999GA2071+004571999GE19MSL   +99999+99999GF199999041999002131999999MA1101301999999REMMET058SPECI SBKG 120315Z 10008KT 9999 SCT007 BKN015 22/21 Q1013=
0165827950999992017011204004-07270-035896FM-15+050299999V0201001N003610030519N009999199+02201+02101999999ADDGA1041+001831999GA2071+003051999GE19MSL   +99999+99999GF199999041999001831999999MA1101301999999REMMET058METAR SBKG 120400Z 10007KT 9999 SCT006 BKN010 22/21 Q1013=
0165827950999992017011206004-07270-035896FM-15+050299999V0200901N003110030519N009999199+02201+02101999999ADDGA1041+001221999GA2071+003051999GE19MSL   +99999+99999GF199999041999001221999999MA1101301999999REMMET058METAR SBKG 120600Z 09006KT 9999 SCT004 BKN010 22/21 Q1013=
0165827950999992017011207004-07270-035896FM-15+050299999V0200901N002610030519N009999199+02201+02101999999ADDGA1041+000911999GA2071+003051999GE19MSL   +99999+99999GF199999041999000911999999MA1101301999999REMMET058METAR SBKG 120700Z 09005KT 9999 SCT003 BKN010 22/21 Q1013=
0165827950999992017011208004-07270-035896FM-15+050299999V0201001N002610030519N009999199+02101+02101999999ADDGA1041+000911999GA2071+003051999GE19MSL   +99999+99999GF199999041999000911999999MA1101401999999REMMET058METAR SBKG 120800Z 10005KT 9999 SCT003 BKN010 21/21 Q1014=
0165827950999992017011210004-07270-035896FM-15+050299999V0201101N004110051819N009999199+02301+02001999999ADDGA1041+002131999GA2071+005181999GE19MSL   +99999+99999GF199999041999002131999999MA1101501999999REMMET058METAR SBKG 121000Z 11008KT 9999 SCT007 BKN017 23/20 Q1015=
0165827950999992017011211004-07270-035896FM-15+050299999V0201101N005710061019N009999199+02401+02001999999ADDGA1021+003661999GA2071+006101999GE19MSL   +99999+99999GF199999021999003661999999MA1101501999999REMMET058METAR SBKG 121100Z 11011KT 9999 FEW012 BKN020 24/20 Q1015=
0149827950999992017011212004-07220-035880FM-12+054899999V0201401N0021100600199010000199+02501+02031101411ADDAA101999999AZ101061AZ201061GA1061+006001081GE19MSL   +99999+99999GF106991061999006001999999KA1120N+02031MA1999999095261MD1999999-0131REMSYN004BUFR
0150827950999992017011213004-07270-035896FM-15+050299999V0200701V005710103619N009999199+02701+01901999999ADDGA1071+010361999GE19MSL   +99999+99999GF199999071999010361999999MA1101501999999REMMET059METAR SBKG 121300Z 07011KT 040V100 9999 BKN034 27/19 Q1015=
0142827950999992017011214004-07270-035896FM-15+050299999V0200801N005119999999N009999199+02901+01801999999ADDGA1041+012191999GE19MSL   +99999+99999GF199999041999012191999999MA1101501999999REMMET051METAR SBKG 121400Z 08010KT 9999 SCT040 29/18 Q1015=
0161827950999992017011215004-07270-035896FM-15+050299999V0200801V005119999999N009999199+03001+01901999999ADDGA1041+014941999GE19MSL   +99999+99999GF199999041999014941999999MA1101401999999OC101081REMMET062METAR SBKG 121500Z 08010G21KT 030V140 9999 SCT049 30/19 Q1014=
0142827950999992017011216004-07270-035896FM-15+050299999V0200801N006219999999N009999199+03001+01801999999ADDGA1041+012191999GE19MSL   +99999+99999GF199999041999012191999999MA1101301999999REMMET051METAR SBKG 121600Z 08012KT 9999 SCT040 30/18 Q1013=
0142827950999992017011217004-07270-035896FM-15+050299999V0200901N006219999999N009999199+03201+01801999999ADDGA1041+012191999GE19MSL   +99999+99999GF199999041999012191999999MA1101201999999REMMET051METAR SBKG 121700Z 09012KT 9999 SCT040 32/18 Q1012=
0152827950999992017011218004-07220-035880FM-12+054899999V0200901N0041199999999010000199+03001+01771100961ADDAA101999999AZ101061AZ201061GA1041+006001081GA2999+999999001GE19MSL   +99999+99999GF105991041999006001999999MA1999999094881MD1999999-0021REMSYN004BUFR
0142827950999992017011219004-07270-035896FM-15+050299999V0201001N006719999999N009999199+03101+01801999999ADDGA1021+012191999GE19MSL   +99999+99999GF199999021999012191999999MA1101201999999REMMET051METAR SBKG 121900Z 10013KT 9999 FEW040 31/18 Q1012=
0072827950999992017011220004-07270-035896FM-15+050299999V0201001N008219999999Y999999999+02901+01901999999ADDMA1101201999999REMMET045METAR SBKG 122000Z 10016KT CAVOK 29/19 Q1012=
0072827950999992017011220454-07270-035896FM-16+050299999V0200901N007219999999Y999999999+02701+01901999999ADDMA1101201999999REMMET045SPECI SBKG 122045Z 09014KT CAVOK 27/19 Q1012=
0152827950999992017011300004-07220-035880FM-12+054899999V0200901N0036199999999001000199+02301+02091101231ADDAA101999999AZ101061AZ201061GA1041+006001081GA2999+999999001GE19MSL   +99999+99999GF106991041999006001999999MA1999999095111MD1999999+0041REMSYN004BUFR
0142827950999992017011303154-07270-035896FM-16+050299999V0201001N003619999999N009999199+02201+02001999999ADDGA1021+003661999GE19MSL   +99999+99999GF199999021999003661999999MA1101301999999REMMET051SPECI SBKG 130315Z 10007KT 9999 FEW012 22/20 Q1013=
0165827950999992017011305004-07270-035896FM-15+050299999V0200901N001510054919N009999199+02101+02001999999ADDGA1021+004271999GA2071+005491999GE19MSL   +99999+99999GF199999021999004271999999MA1101301999999REMMET058METAR SBKG 130500Z 09003KT 9999 FEW014 BKN018 21/20 Q1013=
0142827950999992017011307004-07270-035896FM-15+050299999V0201101N002119999999N009999199+02101+02001999999ADDGA1021+005791999GE19MSL   +99999+99999GF199999021999005791999999MA1101201999999REMMET051METAR SBKG 130700Z 11004KT 9999 FEW019 21/20 Q1012=
0142827950999992017011309004-07270-035896FM-15+050299999V0200801N002619999999N009999199+02101+02001999999ADDGA1021+005491999GE19MSL   +99999+99999GF199999021999005491999999MA1101301999999REMMET051METAR SBKG 130900Z 08005KT 9999 FEW018 21/20 Q1013=
0142827950999992017011310004-07270-035896FM-15+050299999V0201001N004119999999N009999199+02201+02001999999ADDGA1041+006101999GE19MSL   +99999+99999GF199999041999006101999999MA1101301999999REMMET051METAR SBKG 131000Z 10008KT 9999 SCT020 22/20 Q1013=
0142827950999992017011311004-07270-035896FM-15+050299999V0201201N005719999999N009999199+02401+02001999999ADDGA1041+006101999GE19MSL   +99999+99999GF199999041999006101999999MA1101401999999REMMET051METAR SBKG 131100Z 12011KT 9999 SCT020 24/20 Q1014=
0149827950999992017011312004-07220-035880FM-12+054899999V0201401N0036100600199010000199+02501+01981101271ADDAA101999999AZ101061AZ201061GA1061+006001081GE19MSL   +99999+99999GF106991061999006001999999KA1120N+01981MA1999999095141MD1999999-0121REMSYN004BUFR
0072827950999992017011317004-07270-035896FM-15+050299999V0201001N003619999999Y999999999+03101+01801999999ADDMA1101101999999REMMET045METAR SBKG 131700Z 10007KT CAVOK 31/18 Q1011=
0136827950999992017011318004-07220-035880FM-12+054899999V0200901N0046199999999010000199+02951+01851100931ADDAA101999999AZ101061AZ201061GA1041+006001081GE19MSL   +99999+99999GF104991041999006001999999MA1999999094831MD1999999-0051REMSYN004BUFR
0072827950999992017011318004-07270-035896FM-15+050299999V0201101N005719999999Y999999999+03001+01801999999ADDMA1101101999999REMMET045METAR SBKG 131800Z 11011KT CAVOK 30/18 Q1011=
0072827950999992017011319004-07270-035896FM-15+050299999V0201001N006719999999Y999999999+03001+01801999999ADDMA1101101999999REMMET045METAR SBKG 131900Z 10013KT CAVOK 30/18 Q1011=
0142827950999992017011320004-07270-035896FM-15+050299999V0201001N007719999999N009999199+02901+01901999999ADDGA1021+012191999GE19MSL   +99999+99999GF199999021999012191999999MA1101101999999REMMET051METAR SBKG 132000Z 10015KT 9999 FEW040 29/19 Q1011=
0072827950999992017011320454-07270-035896FM-16+050299999V0201001N008219999999Y999999999+02701+01901999999ADDMA1101201999999REMMET045SPECI SBKG 132045Z 10016KT CAVOK 27/19 Q1012=
0136827950999992017011400004-07220-035880FM-12+054899999V0200901N0041100600199001000199+02271+02011101281ADDAA101999999AZ101061AZ201061GA1061+006001081GE19MSL   +99999+99999GF106991061999006001999999MA1999999095151MD1999999+0041REMSYN004BUFR
0142827950999992017011403154-07270-035896FM-16+050299999V0200901N004119999999N009999199+02201+02001999999ADDGA1041+004571999GE19MSL   +99999+99999GF199999041999004571999999MA1101301999999REMMET051SPECI SBKG 140315Z 09008KT 9999 SCT015 22/20 Q1013=
0142827950999992017011404004-07270-035896FM-15+050299999V0201001N004119999999N009999199+02201+02001999999ADDGA1041+004571999GE19MSL   +99999+99999GF199999041999004571999999MA1101301999999REMMET051METAR SBKG 140400Z 10008KT 9999 SCT015 22/20 Q1013=
0142827950999992017011406004-07270-035896FM-15+050299999V0201001N002619999999N009999199+02101+02001999999ADDGA1041+004571999GE19MSL   +99999+99999GF199999041999004571999999MA1101201999999REMMET051METAR SBKG 140600Z 10005KT 9999 SCT015 21/20 Q1012=
0142827950999992017011407004-07270-035896FM-15+050299999V0201001N001519999999N009999199+02101+02001999999ADDGA1041+004571999GE19MSL   +99999+99999GF199999041999004571999999MA1101201999999REMMET051METAR SBKG 140700Z 10003KT 9999 SCT015 21/20 Q1012=
0142827950999992017011408004-07270-035896FM-15+050299999V0201301N002119999999N009999199+02101+02001999999ADDGA1041+003051999GE19MSL   +99999+99999GF199999041999003051999999MA1101301999999REMMET051METAR SBKG 140800Z 13004KT 9999 SCT010 21/20 Q1013=
0142827950999992017011409004-07270-035896FM-15+050299999V0200901N002119999999N009999199+02201+02001999999ADDGA1041+004571999GE19MSL   +99999+99999GF199999041999004571999999MA1101301999999REMMET051METAR SBKG 140900Z 09004KT 9999 SCT015 22/20 Q1013=
0165827950999992017011410004-07270-035896FM-15+050299999V0201201N002610057919N009999199+02301+02101999999ADDGA1021+002441999GA2071+005791999GE19MSL   +99999+99999GF199999021999002441999999MA1101401999999REMMET058METAR SBKG 141000Z 12005KT 9999 FEW008 BKN019 23/21 Q1014=
0142827950999992017011411004-07270-035896FM-15+050299999V0201001N005710067119N009999199+02401+01901999999ADDGA1071+006711999GE19MSL   +99999+99999GF199999071999006711999999MA1101401999999REMMET051METAR SBKG 141100Z 10011KT 9999 BKN022 24/19 Q1014=
0149827950999992017011412004-07220-035880FM-12+054899999V0200901N0036100600199010000199+02511+01901101261ADDAA101999999AZ101061AZ201061GA1061+006001081GE19MSL   +99999+99999GF106991061999006001999999KA1120N+02051MA1999999095131MD1999999-0011REMSYN004BUFR
0142827950999992017011412004-07270-035896FM-15+050299999V0201101N005110079219N009999199+02601+01901999999ADDGA1071+007921999GE19MSL   +99999+99999GF199999071999007921999999MA1101401999999REMMET051METAR SBKG 141200Z 11010KT 9999 BKN026 26/19 Q1014=
0142827950999992017011413004-07270-035896FM-15+050299999V0201001N005110100619N009999199+02801+01901999999ADDGA1071+010061999GE19MSL   +99999+99999GF199999071999010061999999MA1101301999999REMMET051METAR SBKG 141300Z 10010KT 9999 BKN033 28/19 Q1013=
0142827950999992017011415004-07270-035896FM-15+050299999V0201101N003610140219N009999199+03001+01801999999ADDGA1071+014021999GE19MSL   +99999+99999GF199999071999014021999999MA1101201999999REMMET051METAR SBKG 141500Z 11007KT 9999 BKN046 30/18 Q1012=
0142827950999992017011417004-07270-035896FM-15+050299999V0200801N004610146319N009999199+03201+01701999999ADDGA1071+014631999GE19MSL   +99999+99999GF199999071999014631999999MA1101001999999REMMET051METAR SBKG 141700Z 08009KT 9999 BKN048 32/17 Q1010=
0152827950999992017011418004-07220-035880FM-12+054899999V0201401N0031100600199010000199+03021+01661100771ADDAA101999999AZ101061AZ201061GA1051+006001081GA2999+999999001GE19MSL   +99999+99999GF106991051999006001999999MA1999999094711MD1999999-0121REMSYN004BUFR
0072827950999992017011418004-07270-035896FM-15+050299999V0200801N006219999999Y999999999+03201+01701999999ADDMA1100901999999REMMET045METAR SBKG 141800Z 08012KT CAVOK 32/17 Q1009=
0072827950999992017011419004-07270-035896FM-15+050299999V0200701N004619999999Y999999999+03101+01801999999ADDMA1100901999999REMMET045METAR SBKG 141900Z 07009KT CAVOK 31/18 Q1009=
0072827950999992017011420004-07270-035896FM-15+050299999V0200901N007219999999Y999999999+02901+01901999999ADDMA1101001999999REMMET045METAR SBKG 142000Z 09014KT CAVOK 29/19 Q1010=
0072827950999992017011420454-07270-035896FM-16+050299999V0201001N008219999999Y999999999+02801+01901999999ADDMA1101001999999REMMET045SPECI SBKG 142045Z 10016KT CAVOK 28/19 Q1010=
0136827950999992017011500004-07220-035880FM-12+054899999V0200901N0041100600199010000199+02301+02021101111ADDAA101999999AZ101061AZ201061GA1061+006001081GE19MSL   +99999+99999GF106991061999006001999999MA1999999095011MD1999999-0141REMSYN004BUFR
0142827950999992017011503154-07270-035896FM-16+050299999V0200901N003110045719N009999199+02301+02101999999ADDGA1071+004571999GE19MSL   +99999+99999GF199999071999004571999999MA1101301999999REMMET051SPECI SBKG 150315Z 09006KT 9999 BKN015 23/21 Q1013=
0142827950999992017011504004-07270-035896FM-15+050299999V0200901N005710045719N009999199+02301+02101999999ADDGA1071+004571999GE19MSL   +99999+99999GF199999071999004571999999MA1101201999999REMMET051METAR SBKG 150400Z 09011KT 9999 BKN015 23/21 Q1012=
0142827950999992017011507004-07270-035896FM-15+050299999V0200901N004119999999N009999199+02201+02101999999ADDGA1041+003051999GE19MSL   +99999+99999GF199999041999003051999999MA1101201999999REMMET051METAR SBKG 150700Z 09008KT 9999 SCT010 22/21 Q1012=
0165827950999992017011509004-07270-035896FM-15+050299999V0200801N003610045719N009999199+02301+02101999999ADDGA1041+003051999GA2071+004571999GE19MSL   +99999+99999GF199999041999003051999999MA1101401999999REMMET058METAR SBKG 150900Z 08007KT 9999 SCT010 BKN015 23/21 Q1014=
0165827950999992017011510004-07270-035896FM-15+050299999V0200901N004110073219N009999199+02301+02101999999ADDGA1041+002741999GA2071+007321999GE19MSL   +99999+99999GF199999041999002741999999MA1101401999999REMMET058METAR SBKG 151000Z 09008KT 9999 SCT009 BKN024 23/21 Q1014=
0155827950999992017011512004-07220-035880FM-12+054899999V0200901N0031100600199010000199+02351+02091101451ADDAA124001031AY161061AY221061GA1061+006001081GE19MSL   +99999+99999GF106991061999006001999999KA1120N+02021MA1999999095251MD1999999+0121MW1021REMSYN004BUFR
0165827950999992017011512004-07270-035896FM-15+050299999V0200901N005110051819N009999199+02601+02001999999ADDGA1021+003961999GA2071+005181999GE19MSL   +99999+99999GF199999021999003961999999MA1101401999999REMMET058METAR SBKG 151200Z 09010KT 9999 FEW013 BKN017 26/20 Q1014=
0142827950999992017011513004-07270-035896FM-15+050299999V0200801N004610079219N009999199+02701+02001999999ADDGA1071+007921999GE19MSL   +99999+99999GF199999071999007921999999MA1101401999999REMMET051METAR SBKG 151300Z 08009KT 9999 BKN026 27/20 Q1014=
0142827950999992017011514004-07270-035896FM-15+050299999V0200901N005710140219N009999199+02801+02001999999ADDGA1071+014021999GE19MSL   +99999+99999GF199999071999014021999999MA1101301999999REMMET051METAR SBKG 151400Z 09011KT 9999 BKN046 28/20 Q1013=
0142827950999992017011515004-07270-035896FM-15+050299999V0200901N004610121919N009999199+02901+01901999999ADDGA1071+012191999GE19MSL   +99999+99999GF199999071999012191999999MA1101301999999REMMET051METAR SBKG 151500Z 09009KT 9999 BKN040 29/19 Q1013=
0150827950999992017011517004-07270-035896FM-15+050299999V0200601V005110134119N009999199+02901+01901999999ADDGA1071+013411999GE19MSL   +99999+99999GF199999071999013411999999MA1101101999999REMMET059METAR SBKG 151700Z 06010KT 030V090 9999 BKN044 29/19 Q1011=
0136827950999992017011518004-07220-035880FM-12+054899999V0200901N0041199999999010000199+02961+01961100881ADDAA101999999AZ101061AZ201061GA1041+006001081GE19MSL   +99999+99999GF104991041999006001999999MA1999999094801MD1999999+0091REMSYN004BUFR
0072827950999992017011519004-07270-035896FM-15+050299999V0200901N007719999999Y999999999+03001+02001999999ADDMA1101101999999REMMET045METAR SBKG 151900Z 09015KT CAVOK 30/20 Q1011=
0072827950999992017011520004-07270-035896FM-15+050299999V0201001N008819999999Y999999999+02801+02001999999ADDMA1101101999999REMMET045METAR SBKG 152000Z 10017KT CAVOK 28/20 Q1011=
0142827950999992017011520454-07270-035896FM-16+050299999V0201001N008219999999N009999199+02601+02001999999ADDGA1021+009141999GE19MSL   +99999+99999GF199999021999009141999999MA1101201999999REMMET051SPECI SBKG 152045Z 10016KT 9999 FEW030 26/20 Q1012=
0136827950999992017011600004-07220-035880FM-12+054899999V0200901N0036199999999001000199+02301+02001101241ADDAA101999999AZ101061AZ201061GA1041+006001081GE19MSL   +99999+99999GF104991041999006001999999MA1999999095091MD1999999+0081REMSYN004BUFR
0142827950999992017011603154-07270-035896FM-16+050299999V0200901N004619999999N009999199+02301+02101999999ADDGA1041+003351999GE19MSL   +99999+99999GF199999041999003351999999MA1101301999999REMMET051SPECI SBKG 160315Z 09009KT 9999 SCT011 23/21 Q1013=
0142827950999992017011604004-07270-035896FM-15+050299999V0200901N005119999999N009999199+02301+02101999999ADDGA1041+003351999GE19MSL   +99999+99999GF199999041999003351999999MA1101301999999REMMET051METAR SBKG 160400Z 09010KT 9999 SCT011 23/21 Q1013=
0142827950999992017011606004-07270-035896FM-15+050299999V0201101N001519999999N009999199+02201+02001999999ADDGA1041+004571999GE19MSL   +99999+99999GF199999041999004571999999MA1101201999999REMMET051METAR SBKG 160600Z 11003KT 9999 SCT015 22/20 Q1012=
0142827950999992017011607004-07270-035896FM-15+050299999V0201001N002619999999N009999199+02201+02001999999ADDGA1041+006401999GE19MSL   +99999+99999GF199999041999006401999999MA1101201999999REMMET051METAR SBKG 160700Z 10005KT 9999 SCT021 22/20 Q1012=
0165827950999992017011609004-07270-035896FM-15+050299999V0200901N003610121919N009999199+02201+02001999999ADDGA1041+004571999GA2071+012191999GE19MSL   +99999+99999GF199999041999004571999999MA1101301999999REMMET058METAR SBKG 160900Z 09007KT 9999 SCT015 BKN040 22/20 Q1013=
0165827950999992017011610004-07270-035896FM-15+050299999V0201001N005710121919N009999199+02301+02001999999ADDGA1041+004571999GA2071+012191999GE19MSL   +99999+99999GF199999041999004571999999MA1101401999999REMMET058METAR SBKG 161000Z 10011KT 9999 SCT015 BKN040 23/20 Q1014=
0165827950999992017011611004-07270-035896FM-15+050299999V0201001N006210121919N009999199+02401+02001999999ADDGA1021+004881999GA2071+012191999GE19MSL   +99999+99999GF199999021999004881999999MA1101401999999REMMET058METAR SBKG 161100Z 10012KT 9999 FEW016 BKN040 24/20 Q1014=
0149827950999992017011612004-07220-035880FM-12+054899999V0201401N0031100600199010000199+02451+01971101311ADDAA101999999AZ101061AZ201061GA1061+006001081GE19MSL   +99999+99999GF106991061999006001999999KA1120N+02091MA1999999095151MD1999999-0101REMSYN004BUFR
0165827950999992017011612004-07270-035896FM-15+050299999V0201101N006210304819N009999199+02601+01901999999ADDGA1041+007621999GA2071+030481999GE19MSL   +99999+99999GF199999041999007621999999MA1101401999999REMMET058METAR SBKG 161200Z 11012KT 9999 SCT025 BKN100 26/19 Q1014=
0142827950999992017011614004-07270-035896FM-15+050299999V0201001N005710100619N009999199+02801+01901999999ADDGA1071+010061999GE19MSL   +99999+99999GF199999071999010061999999MA1101401999999REMMET051METAR SBKG 161400Z 10011KT 9999 BKN033 28/19 Q1014=
0142827950999992017011615004-07270-035896FM-15+050299999V0201001N005110100619N009999199+02901+01901999999ADDGA1071+010061999GE19MSL   +99999+99999GF199999071999010061999999MA1101301999999REMMET051METAR SBKG 161500Z 10010KT 9999 BKN033 29/19 Q1013=
0080827950999992017011616004-07270-035896FM-15+050299999V0201001V005719999999Y999999999+02901+01801999999ADDMA1101201999999REMMET053METAR SBKG 161600Z 10011KT 060V130 CAVOK 29/18 Q1012=
0136827950999992017011618004-07220-035880FM-12+054899999V0200901N0041100600199010000199+02971+01891100871ADDAA101999999AZ101061AZ201061GA1051+006001081GE19MSL   +99999+99999GF105991051999006001999999MA1999999094791MD1999999-0011REMSYN004BUFR
0142827950999992017011618004-07270-035896FM-15+050299999V0201101N005110121919N009999199+03001+01801999999ADDGA1071+012191999GE19MSL   +99999+99999GF199999071999012191999999MA1101101999999REMMET051METAR SBKG 161800Z 11010KT 9999 BKN040 30/18 Q1011=
0142827950999992017011619004-07270-035896FM-15+050299999V0200901N005710149419N009999199+03001+01901999999ADDGA1071+014941999GE19MSL   +99999+99999GF199999071999014941999999MA1101101999999REMMET051METAR SBKG 161900Z 09011KT 9999 BKN049 30/19 Q1011=
0142827950999992017011620004-07270-035896FM-15+050299999V0201001N007719999999N009999199+02801+01901999999ADDGA1021+012191999GE19MSL   +99999+99999GF199999021999012191999999MA1101101999999REMMET051METAR SBKG 162000Z 10015KT 9999 FEW040 28/19 Q1011=
0072827950999992017011620454-07270-035896FM-16+050299999V0201001N007219999999Y999999999+02701+01901999999ADDMA1101101999999REMMET045SPECI SBKG 162045Z 10014KT CAVOK 27/19 Q1011=
0136827950999992017011700004-07220-035880FM-12+054899999V0201401N0041100600199001000199+02301+02041101221ADDAA101999999AZ101061AZ201061GA1061+006001081GE19MSL   +99999+99999GF106991061999006001999999MA1999999095081MD1999999-0011REMSYN004BUFR
0072827950999992017011703154-07270-035896FM-16+050299999V0201101N003619999999Y999999999+02201+02001999999ADDMA1101301999999REMMET045SPECI SBKG 170315Z 11007KT CAVOK 22/20 Q1013=
0142827950999992017011704004-07270-035896FM-15+050299999V0201201N002619999999N009999199+02101+02001999999ADDGA1041+005491999GE19MSL   +99999+99999GF199999041999005491999999MA1101301999999REMMET051METAR SBKG 170400Z 12005KT 9999 SCT018 21/20 Q1013=
0142827950999992017011705004-07270-035896FM-15+050299999V0201201N001519999999N009999199+02101+01901999999ADDGA1021+004571999GE19MSL   +99999+99999GF199999021999004571999999MA1101201999999REMMET051METAR SBKG 170500Z 12003KT 9999 FEW015 21/19 Q1012=
0142827950999992017011706004-07270-035896FM-15+050299999V0200901N002119999999N009999199+02101+01901999999ADDGA1041+003961999GE19MSL   +99999+99999GF199999041999003961999999MA1101201999999REMMET051METAR SBKG 170600Z 09004KT 9999 SCT013 21/19 Q1012=
0165827950999992017011707004-07270-035896FM-15+050299999V0201101N002110097519N009999199+02201+02001999999ADDGA1041+003961999GA2071+009751999GE19MSL   +99999+99999GF199999041999003961999999MA1101301999999REMMET058METAR SBKG 170700Z 11004KT 9999 SCT013 BKN032 22/20 Q1013=
0165827950999992017011708004-07270-035896FM-15+050299999V0201001N002110097519N009999199+02201+02001999999ADDGA1041+003051999GA2071+009751999GE19MSL   +99999+99999GF199999041999003051999999MA1101301999999REMMET058METAR SBKG 170800Z 10004KT 9999 SCT010 BKN032 22/20 Q1013=
0142827950999992017011709004-07270-035896FM-15+050299999V0201001N001519999999N009999199+02201+02001999999ADDGA1041+007621999GE19MSL   +99999+99999GF199999041999007621999999MA1101401999999REMMET051METAR SBKG 170900Z 10003KT 9999 SCT025 22/20 Q1014=
0142827950999992017011710004-07270-035896FM-15+050299999V0201001N003119999999N009999199+02301+02001999999ADDGA1041+003351999GE19MSL   +99999+99999GF199999041999003351999999MA1101501999999REMMET051METAR SBKG 171000Z 10006KT 9999 SCT011 23/20 Q1015=
0149827950999992017011712004-07220-035880FM-12+054899999V0200901N0021100600199010000199+02421+01951101381ADDAA101999999AZ101061AZ201061GA1061+006001081GE19MSL   +99999+99999GF106991061999006001999999KA1120N+02031MA1999999095231MD1999999+0081REMSYN004BUFR
0165827950999992017011712004-07270-035896FM-15+050299999V0200901N005110213419N009999199+02501+01801999999ADDGA1041+007011999GA2071+021341999GE19MSL   +99999+99999GF199999041999007011999999MA1101501999999REMMET058METAR SBKG 171200Z 09010KT 9999 SCT023 BKN070 25/18 Q1015=
0173827950999992017011714004-07270-035896FM-15+050299999V0201101V003610112819N009999199+02701+01801999999ADDGA1071+011281999GA2071+024381999GE19MSL   +99999+99999GF199999071999011281999999MA1101401999999REMMET066METAR SBKG 171400Z 11007KT 080V180 9999 BKN037 BKN080 27/18 Q1014=
0191827950999992017011715004-07270-035896FM-15+050299999V0209999V003610091419N009999199+02801+01801999999ADDGA1071+009141999GA2021+012191081GA3071+030481999GE19MSL   +99999+99999GF199999071999009141999999MA1101401999999REMMET068METAR SBKG 171500Z VRB07KT 9999 BKN030 FEW040TCU BKN100 28/18 Q1014=
0165827950999992017011717004-07270-035896FM-15+050299999V0201501N003110091419N009999199+02901+01701999999ADDGA1071+009141999GA2071+030481999GE19MSL   +99999+99999GF199999071999009141999999MA1101201999999REMMET058METAR SBKG 171700Z 15006KT 9999 BKN030 BKN100 29/17 Q1012=
0152827950999992017011718004-07220-035880FM-12+054899999V0200901N0031100600199010000199+02901+01841100971ADDAA101999999AZ101061AZ201061GA1051+006001081GA2999+999999021GE19MSL   +99999+99999GF107991051999006001999999MA1999999094871MD1999999+0081REMSYN004BUFR
0165827950999992017011718004-07270-035896FM-15+050299999V0201001N003610304819N009999199+03001+01701999999ADDGA1041+009141999GA2071+030481999GE19MSL   +99999+99999GF199999041999009141999999MA1101101999999REMMET058METAR SBKG 171800Z 10007KT 9999 SCT030 BKN100 30/17 Q1011=
0142827950999992017011720004-07270-035896FM-15+050299999V0201001N006219999999N009999199+02801+01901999999ADDGA1041+009141999GE19MSL   +99999+99999GF199999041999009141999999MA1101201999999REMMET051METAR SBKG 172000Z 10012KT 9999 SCT030 28/19 Q1012=
0142827950999992017011720454-07270-035896FM-16+050299999V0200801N005719999999N009999199+02701+01901999999ADDGA1041+006101999GE19MSL   +99999+99999GF199999041999006101999999MA1101201999999REMMET051SPECI SBKG 172045Z 08011KT 9999 SCT020 27/19 Q1012=
0136827950999992017011800004-07220-035880FM-12+054899999V0200901N0031100600199010000199+02301+02001101281ADDAA101999999AZ101061AZ201061GA1061+006001081GE19MSL   +99999+99999GF106991061999006001999999MA1999999095141MD1999999+0061REMSYN004BUFR
0165827950999992017011804004-07270-035896FM-15+050299999V0200901N005110036619N009999199+02201+02101999999ADDGA1041+002131999GA2071+003661999GE19MSL   +99999+99999GF199999041999002131999999MA1101201999999REMMET058METAR SBKG 180400Z 09010KT 9999 SCT007 BKN012 22/21 Q1012=
0165827950999992017011805004-07270-035896FM-15+050299999V0201001N006210039619N009999199+02201+02101999999ADDGA1041+002131999GA2071+003961999GE19MSL   +99999+99999GF199999041999002131999999MA1101101999999REMMET058METAR SBKG 180500Z 10012KT 9999 SCT007 BKN013 22/21 Q1011=
0165827950999992017011806004-07270-035896FM-15+050299999V0200901N005110033519N009999199+02201+02101999999ADDGA1041+001831999GA2071+003351999GE19MSL   +99999+99999GF199999041999001831999999MA1101101999999REMMET058METAR SBKG 180600Z 09010KT 9999 SCT006 BKN011 22/21 Q1011=
0188827950999992017011807004-07270-035896FM-15+050299999V0201101N005110036619N009999199+02201+02101999999ADDGA1041+001831999GA2071+003661999GA3071+005491999GE19MSL   +99999+99999GF199999041999001831999999MA1101101999999REMMET065METAR SBKG 180700Z 11010KT 9999 SCT006 BKN012 BKN018 22/21 Q1011=
0165827950999992017011809004-07270-035896FM-15+050299999V0201401N002610054919N009999199+02301+02101999999ADDGA1041+002741999GA2071+005491999GE19MSL   +99999+99999GF199999041999002741999999MA1101301999999REMMET058METAR SBKG 180900Z 14005KT 9999 SCT009 BKN018 23/21 Q1013=
0165827950999992017011811004-07270-035896FM-15+050299999V0201401N005110061019N009999199+02501+01901999999ADDGA1071+006101999GA2071+027431999GE19MSL   +99999+99999GF199999071999006101999999MA1101401999999REMMET058METAR SBKG 181100Z 14010KT 9999 BKN020 BKN090 25/19 Q1014=
0149827950999992017011812004-07220-035880FM-12+054899999V0200901N0021100600199010000199+02501+02091101251ADDAA101999999AZ101061AZ201061GA1071+006001071GE19MSL   +99999+99999GF107991071999006001999999KA1120N+02061MA1999999095111MD1999999-0121REMSYN004BUFR
0165827950999992017011812004-07270-035896FM-15+050299999V0201301N004610076219N009999199+02601+01901999999ADDGA1071+007621999GA2071+027431999GE19MSL   +99999+99999GF199999071999007621999999MA1101401999999REMMET058METAR SBKG 181200Z 13009KT 9999 BKN025 BKN090 26/19 Q1014=
0165827950999992017011813004-07270-035896FM-15+050299999V0201101N005110076219N009999199+02701+01801999999ADDGA1071+007621999GA2071+027431999GE19MSL   +99999+99999GF199999071999007621999999MA1101401999999REMMET058METAR SBKG 181300Z 11010KT 9999 BKN025 BKN090 27/18 Q1014=
0142827950999992017011814004-07270-035896FM-15+050299999V0201201N004110091419N009999199+02801+01801999999ADDGA1071+009141999GE19MSL   +99999+99999GF199999071999009141999999MA1101401999999REMMET051METAR SBKG 181400Z 12008KT 9999 BKN030 28/18 Q1014=
0142827950999992017011815004-07270-035896FM-15+050299999V0201101N004610121919N009999199+02901+01801999999ADDGA1071+012191999GE19MSL   +99999+99999GF199999071999012191999999MA1101301999999REMMET051METAR SBKG 181500Z 11009KT 9999 BKN040 29/18 Q1013=
0072827950999992017011816004-07270-035896FM-15+050299999V0201101N003619999999Y999999999+03001+01601999999ADDMA1101201999999REMMET045METAR SBKG 181600Z 11007KT CAVOK 30/16 Q1012=
0136827950999992017011818004-07220-035880FM-12+054899999V0201401N0036100600199010000199+02971+01721100881ADDAA101999999AZ101061AZ201061GA1051+006001081GE19MSL   +99999+99999GF105991051999006001999999MA1999999094801MD1999999-0071REMSYN004BUFR
0072827950999992017011818004-07270-035896FM-15+050299999V0201101N004119999999Y999999999+03101+01701999999ADDMA1101101999999REMMET045METAR SBKG 181800Z 11008KT CAVOK 31/17 Q1011=
0072827950999992017011820004-07270-035896FM-15+050299999V0201001N007719999999Y999999999+02901+01901999999ADDMA1101101999999REMMET045METAR SBKG 182000Z 10015KT CAVOK 29/19 Q1011=
0072827950999992017011820454-07270-035896FM-16+050299999V0201001N008219999999Y999999999+02701+02001999999ADDMA1101201999999REMMET045SPECI SBKG 182045Z 10016KT CAVOK 27/20 Q1012=
0136827950999992017011900004-07220-035880FM-12+054899999V0200901N0036100600199001000199+02351+02071101281ADDAA101999999AZ101061AZ201061GA1061+006001081GE19MSL   +99999+99999GF106991061999006001999999MA1999999095151MD1999999+0011REMSYN004BUFR
0142827950999992017011903154-07270-035896FM-16+050299999V0201101N002610045719N009999199+02301+01901999999ADDGA1071+004571999GE19MSL   +99999+99999GF199999071999004571999999MA1101401999999REMMET051SPECI SBKG 190315Z 11005KT 9999 BKN015 23/19 Q1014=
0142827950999992017011904004-07270-035896FM-15+050299999V0201201N002110045719N009999199+02201+01901999999ADDGA1071+004571999GE19MSL   +99999+99999GF199999071999004571999999MA1101301999999REMMET051METAR SBKG 190400Z 12004KT 9999 BKN015 22/19 Q1013=
0142827950999992017011905004-07270-035896FM-15+050299999V0201301N002110045719N009999199+02201+01901999999ADDGA1071+004571999GE19MSL   +99999+99999GF199999071999004571999999MA1101301999999REMMET051METAR SBKG 190500Z 13004KT 9999 BKN015 22/19 Q1013=
0165827950999992017011906004-07270-035896FM-15+050299999V0201401N003110045719N009999199+02201+01901999999ADDGA1041+001831999GA2071+004571999GE19MSL   +99999+99999GF199999041999001831999999MA1101301999999REMMET058METAR SBKG 190600Z 14006KT 9999 SCT006 BKN015 22/19 Q1013=
0142827950999992017011907004-07270-035896FM-15+050299999V0201401N002110045719N009999199+02201+02001999999ADDGA1071+004571999GE19MSL   +99999+99999GF199999071999004571999999MA1101301999999REMMET051METAR SBKG 190700Z 14004KT 9999 BKN015 22/20 Q1013=
0142827950999992017011909004-07270-035896FM-15+050299999V0201301N004619999999N009999199+02201+02001999999ADDGA1041+004571999GE19MSL   +99999+99999GF199999041999004571999999MA1101401999999REMMET051METAR SBKG 190900Z 13009KT 9999 SCT015 22/20 Q1014=
0142827950999992017011910004-07270-035896FM-15+050299999V0201401N005119999999N009999199+02301+02001999999ADDGA1041+005491999GE19MSL   +99999+99999GF199999041999005491999999MA1101501999999REMMET051METAR SBKG 191000Z 14010KT 9999 SCT018 23/20 Q1015=
0142827950999992017011911004-07270-035896FM-15+050299999V0201401N005119999999N009999199+02501+02001999999ADDGA1041+006101999GE19MSL   +99999+99999GF199999041999006101999999MA1101501999999REMMET051METAR SBKG 191100Z 14010KT 9999 SCT020 25/20 Q1015=
0149827950999992017011912004-07220-035880FM-12+054899999V0200901N0021100600199010000199+02521+02041101361ADDAA101999999AZ101061AZ201061GA1061+006001081GE19MSL   +99999+99999GF106991061999006001999999KA1120N+02081MA1999999095241MD1999999+0131REMSYN004BUFR
0142827950999992017011913004-07270-035896FM-15+050299999V0201301N006219999999N009999199+02801+01801999999ADDGA1041+012191999GE19MSL   +99999+99999GF199999041999012191999999MA1101501999999REMMET051METAR SBKG 191300Z 13012KT 9999 SCT040 28/18 Q1015=
0142827950999992017011914004-07270-035896FM-15+050299999V0201301N004119999999N009999199+02901+01801999999ADDGA1041+012191999GE19MSL   +99999+99999GF199999041999012191999999MA1101501999999REMMET051METAR SBKG 191400Z 13008KT 9999 SCT040 29/18 Q1015=
0142827950999992017011915004-07270-035896FM-15+050299999V0201301N005119999999N009999199+03001+01801999999ADDGA1041+012191999GE19MSL   +99999+99999GF199999041999012191999999MA1101401999999REMMET051METAR SBKG 191500Z 13010KT 9999 SCT040 30/18 Q1014=
0072827950999992017011916004-07270-035896FM-15+050299999V0201401N005719999999Y999999999+03101+01601999999ADDMA1101301999999REMMET045METAR SBKG 191600Z 14011KT CAVOK 31/16 Q1013=
0072827950999992017011917004-07270-035896FM-15+050299999V0201201N005719999999Y999999999+03101+01601999999ADDMA1101201999999REMMET045METAR SBKG 191700Z 12011KT CAVOK 31/16 Q1012=
0136827950999992017011918004-07220-035880FM-12+054899999V0201401N0031199999999010000199+03001+01751100921ADDAA101999999AZ101061AZ201061GA1041+006001081GE19MSL   +99999+99999GF104991041999006001999999MA1999999094851MD1999999+0051REMSYN004BUFR
0072827950999992017011918004-07270-035896FM-15+050299999V0201401N006219999999Y999999999+03101+01701999999ADDMA1101101999999REMMET045METAR SBKG 191800Z 14012KT CAVOK 31/17 Q1011=
0072827950999992017011919004-07270-035896FM-15+050299999V0200901N006719999999Y999999999+03101+01901999999ADDMA1101101999999REMMET045METAR SBKG 191900Z 09013KT CAVOK 31/19 Q1011=
0072827950999992017011920004-07270-035896FM-15+050299999V0200901N008819999999Y999999999+02901+01901999999ADDMA1101201999999REMMET045METAR SBKG 192000Z 09017KT CAVOK 29/19 Q1012=
0072827950999992017011920454-07270-035896FM-16+050299999V0200901N008219999999Y999999999+02701+01901999999ADDMA1101301999999REMMET045SPECI SBKG 192045Z 09016KT CAVOK 27/19 Q1013=
0136827950999992017012000004-07220-035880FM-12+054899999V0200901N0031199999999001000199+02301+01991101361ADDAA101999999AZ101061AZ201061GA1031+006001081GE19MSL   +99999+99999GF103991031999006001999999MA1999999095231MD1999999+0081REMSYN004BUFR
0142827950999992017012004004-07270-035896FM-15+050299999V0201301N003119999999N009999199+02101+01901999999ADDGA1021+004571999GE19MSL   +99999+99999GF199999021999004571999999MA1101501999999REMMET051METAR SBKG 200400Z 13006KT 9999 FEW015 21/19 Q1015=
0142827950999992017012005004-07270-035896FM-15+050299999V0201401N002119999999N009999199+02101+01901999999ADDGA1041+004571999GE19MSL   +99999+99999GF199999041999004571999999MA1101401999999REMMET051METAR SBKG 200500Z 14004KT 9999 SCT015 21/19 Q1014=
0142827950999992017012006004-07270-035896FM-15+050299999V0201201N002119999999N009999199+02101+01901999999ADDGA1041+004571999GE19MSL   +99999+99999GF199999041999004571999999MA1101401999999REMMET051METAR SBKG 200600Z 12004KT 9999 SCT015 21/19 Q1014=
0142827950999992017012007004-07270-035896FM-15+050299999V0201301N002119999999N009999199+02101+01901999999ADDGA1041+004571999GE19MSL   +99999+99999GF199999041999004571999999MA1101401999999REMMET051METAR SBKG 200700Z 13004KT 9999 SCT015 21/19 Q1014=
0142827950999992017012009004-07270-035896FM-15+050299999V0201401N001019999999N009999199+02101+01901999999ADDGA1041+004571999GE19MSL   +99999+99999GF199999041999004571999999MA1101501999999REMMET051METAR SBKG 200900Z 14002KT 9999 SCT015 21/19 Q1015=
0165827950999992017012010004-07270-035896FM-15+050299999V0201401N00411004881CN009999199+02301+01901999999ADDGA1041+003351999GA2041+004881999GE19MSL   +99999+99999GF199999041999003351999999MA1101601999999REMMET058METAR SBKG 201000Z 14008KT 9999 SCT011 SCT016 23/19 Q1016=
0149827950999992017012012004-07220-035880FM-12+054899999V0200901N0036100600199010000199+02551+02001101511ADDAA101999999AZ101061AZ201061GA1051+006001081GE19MSL   +99999+99999GF105991051999006001999999KA1120N+02061MA1999999095371MD1999999+0131REMSYN004BUFR
0142827950999992017012012004-07270-035896FM-15+050299999V0201401N005110079219N009999199+02601+01801999999ADDGA1071+007921999GE19MSL   +99999+99999GF199999071999007921999999MA1101601999999REMMET051METAR SBKG 201200Z 14010KT 9999 BKN026 26/18 Q1016=
0142827950999992017012013004-07270-035896FM-15+050299999V0201301N005110121919N009999199+02801+01701999999ADDGA1071+012191999GE19MSL   +99999+99999GF199999071999012191999999MA1101601999999REMMET051METAR SBKG 201300Z 13010KT 9999 BKN040 28/17 Q1016=
0072827950999992017012014004-07270-035896FM-15+050299999V0201301N004119999999Y999999999+03001+01601999999ADDMA1101501999999REMMET045METAR SBKG 201400Z 13008KT CAVOK 30/16 Q1015=
0072827950999992017012015004-07270-035896FM-15+050299999V0200901N003119999999Y999999999+03001+01601999999ADDMA1101501999999REMMET045METAR SBKG 201500Z 09006KT CAVOK 30/16 Q1015=
0072827950999992017012016004-07270-035896FM-15+050299999V0209999V002619999999Y999999999+03201+01601999999ADDMA1101401999999REMMET045METAR SBKG 201600Z VRB05KT CAVOK 32/16 Q1014=
0080827950999992017012017004-07270-035896FM-15+050299999V0201101V004619999999Y999999999+03201+01501999999ADDMA1101301999999REMMET053METAR SBKG 201700Z 11009KT 030V190 CAVOK 32/15 Q1013=
0136827950999992017012018004-07220-035880FM-12+054899999V0200901N0031100600199010000199+03111+01711101051ADDAA101999999AZ101061AZ201061GA1051+006001081GE19MSL   +99999+99999GF105991051999006001999999MA1999999094991MD1999999+0141REMSYN004BUFR
0080827950999992017012018004-07270-035896FM-15+050299999V0200901V006219999999Y999999999+03101+01601999999ADDMA1101301999999REMMET053METAR SBKG 201800Z 09012KT 070V130 CAVOK 31/16 Q1013=
0080827950999992017012019004-07270-035896FM-15+050299999V0201101V006719999999Y999999999+03201+01701999999ADDMA1101201999999REMMET053METAR SBKG 201900Z 11013KT 080V150 CAVOK 32/17 Q1012=
0150827950999992017012020004-07270-035896FM-15+050299999V0200801V007219999999N009999199+02901+01901999999ADDGA1041+014021999GE19MSL   +99999+99999GF199999041999014021999999MA1101301999999REMMET059METAR SBKG 202000Z 08014KT 040V110 9999 SCT046 29/19 Q1013=
0142827950999992017012020454-07270-035896FM-16+050299999V0201101N008219999999N009999199+02801+01901999999ADDGA1021+013721999GE19MSL   +99999+99999GF199999021999013721999999MA1101301999999REMMET051SPECI SBKG 202045Z 11016KT 9999 FEW045 28/19 Q1013=
0136827950999992017012100004-07220-035880FM-12+054899999V0200901N0031100600199001000199+02271+02051101461ADDAA101999999AZ101061AZ201061GA1051+006001081GE19MSL   +99999+99999GF106991051999006001999999MA1999999095321MD1999999+0091REMSYN004BUFR
0142827950999992017012103154-07270-035896FM-16+050299999V0200901N004110027419N009999199+02301+02101999999ADDGA1071+002741999GE19MSL   +99999+99999GF199999071999002741999999MA1101601999999REMMET051SPECI SBKG 210315Z 09008KT 9999 BKN009 23/21 Q1016=
0165827950999992017012105004-07270-035896FM-15+050299999V0201001N00361009141CN009999199+02301+02001999999ADDGA1021+003661999GA2041+009141999GE19MSL   +99999+99999GF199999021999003661999999MA1101501999999REMMET058METAR SBKG 210500Z 10007KT 9999 FEW012 SCT030 23/20 Q1015=
0165827950999992017012106004-07270-035896FM-15+050299999V0200901N00361009751CN009999199+02301+02001999999ADDGA1021+002741999GA2041+009751999GE19MSL   +99999+99999GF199999021999002741999999MA1101501999999REMMET058METAR SBKG 210600Z 09007KT 9999 FEW009 SCT032 23/20 Q1015=
0165827950999992017012107004-07270-035896FM-15+050299999V0200901N00311004881CN009999199+02201+02001999999ADDGA1021+003351999GA2041+004881999GE19MSL   +99999+99999GF199999021999003351999999MA1101401999999REMMET058METAR SBKG 210700Z 09006KT 9999 FEW011 SCT016 22/20 Q1014=
0142827950999992017012108004-07270-035896FM-15+050299999V0201001N004119999999N009999199+02201+02001999999ADDGA1041+002741999GE19MSL   +99999+99999GF199999041999002741999999MA1101501999999REMMET051METAR SBKG 210800Z 10008KT 9999 SCT009 22/20 Q1015=
0142827950999992017012109004-07270-035896FM-15+050299999V0201001N004119999999N009999199+02201+02101999999ADDGA1021+001831999GE19MSL   +99999+99999GF199999021999001831999999MA1101501999999REMMET051METAR SBKG 210900Z 10008KT 9999 FEW006 22/21 Q1015=
0165827950999992017012110004-07270-035896FM-15+050299999V0201101N00571003351CN009999199+02301+02001999999ADDGA1041+002741999GA2041+003351999GE19MSL   +99999+99999GF199999041999002741999999MA1101601999999REMMET058METAR SBKG 211000Z 11011KT 9999 SCT009 SCT011 23/20 Q1016=
0165827950999992017012111004-07270-035896FM-15+050299999V0201201N005710064019N009999199+02501+01901999999ADDGA1021+005491999GA2071+006401999GE19MSL   +99999+99999GF199999021999005491999999MA1101601999999REMMET058METAR SBKG 211100Z 12011KT 9999 FEW018 BKN021 25/19 Q1016=
0165827950999992017012112004-07220-035880FM-12+054899999V0200901N0041100600199010000199+02511+01971101521ADDAA101999999AZ101061AZ201061GA1051+006001081GA2999+999999001GE19MSL   +99999+99999GF106991051999006001999999KA1120N+02041MA1999999095381MD1999999+0011REMSYN004BUFR
0142827950999992017012114004-07270-035896FM-15+050299999V0201201N006210140219N009999199+03001+01801999999ADDGA1071+014021999GE19MSL   +99999+99999GF199999071999014021999999MA1101601999999REMMET051METAR SBKG 211400Z 12012KT 9999 BKN046 30/18 Q1016=
0072827950999992017012115004-07270-035896FM-15+050299999V0201301N005719999999Y999999999+03001+01801999999ADDMA1101401999999REMMET045METAR SBKG 211500Z 13011KT CAVOK 30/18 Q1014=
0072827950999992017012117004-07270-035896FM-15+050299999V0201401N005719999999Y999999999+03201+01701999999ADDMA1101201999999REMMET045METAR SBKG 211700Z 14011KT CAVOK 32/17 Q1012=
0152827950999992017012118004-07220-035880FM-12+054899999V0201401N0036199999999010000199+03061+01701100991ADDAA101999999AZ101061AZ201061GA1041+006001081GA2999+999999021GE19MSL   +99999+99999GF106991041999006001999999MA1999999094921MD1999999-0071REMSYN004BUFR
0072827950999992017012119004-07270-035896FM-15+050299999V0201001N006719999999Y999999999+03101+01801999999ADDMA1101201999999REMMET045METAR SBKG 211900Z 10013KT CAVOK 31/18 Q1012=
0072827950999992017012120004-07270-035896FM-15+050299999V0200801N006719999999Y999999999+02901+01901999999ADDMA1101301999999REMMET045METAR SBKG 212000Z 08013KT CAVOK 29/19 Q1013=
0142827950999992017012120454-07270-035896FM-16+050299999V0200801N007219999999N009999199+02801+01901999999ADDGA1021+006101999GE19MSL   +99999+99999GF199999021999006101999999MA1101301999999REMMET051SPECI SBKG 212045Z 08014KT 9999 FEW020 28/19 Q1013=
0152827950999992017012200004-07220-035880FM-12+054899999V0200901N0036199999999010000199+02321+02031101271ADDAA101999999AZ101061AZ201061GA1041+006001081GA2999+999999001GE19MSL   +99999+99999GF106991041999006001999999MA1999999095141MD1999999-0081REMSYN004BUFR
0142827950999992017012203154-07270-035896FM-16+050299999V0201001N005710027419N009999199+02301+02101999999ADDGA1071+002741999GE19MSL   +99999+99999GF199999071999002741999999MA1101401999999REMMET051SPECI SBKG 220315Z 10011KT 9999 BKN009 23/21 Q1014=
0142827950999992017012204004-07270-035896FM-15+050299999V0201001N004610027419N009999199+02301+02101999999ADDGA1071+002741999GE19MSL   +99999+99999GF199999071999002741999999MA1101401999999REMMET051METAR SBKG 220400Z 10009KT 9999 BKN009 23/21 Q1014=
0142827950999992017012205004-07270-035896FM-15+050299999V0200901N003610024419N009999199+02301+02101999999ADDGA1071+002441999GE19MSL   +99999+99999GF199999071999002441999999MA1101401999999REMMET051METAR SBKG 220500Z 09007KT 9999 BKN008 23/21 Q1014=
0142827950999992017012206004-07270-035896FM-15+050299999V0201001N003110021319N009999199+02201+02101999999ADDGA1071+002131999GE19MSL   +99999+99999GF199999071999002131999999MA1101301999999REMMET051METAR SBKG 220600Z 10006KT 9999 BKN007 22/21 Q1013=
0150827950999992017012207004-07270-035896FM-15+050299999V0201201V002110039619N009999199+02201+02101999999ADDGA1071+003961999GE19MSL   +99999+99999GF199999071999003961999999MA1101401999999REMMET059METAR SBKG 220700Z 12004KT 090V150 9999 BKN013 22/21 Q1014=
0165827950999992017012208004-07270-035896FM-15+050299999V0201301N001510036619N009999199+02201+02001999999ADDGA1071+003661999GA2041+021341999GE19MSL   +99999+99999GF199999071999003661999999MA1101401999999REMMET058METAR SBKG 220800Z 13003KT 9999 BKN012 SCT070 22/20 Q1014=
0142827950999992017012208304-07270-035896FM-16+050299999V0209999V000519999999N009999199+02201+02001999999ADDGA1021+004271999GE19MSL   +99999+99999GF199999021999004271999999MA1101401999999REMMET051SPECI SBKG 220830Z VRB01KT 9999 FEW014 22/20 Q1014=
0142827950999992017012209004-07270-035896FM-15+050299999V0209999V001019999999N009999199+02201+02001999999ADDGA1021+003961999GE19MSL   +99999+99999GF199999021999003961999999MA1101401999999REMMET051METAR SBKG 220900Z VRB02KT 9999 FEW013 22/20 Q1014=
0142827950999992017012211004-07270-035896FM-15+050299999V0201401N006219999999N009999199+02601+01801999999ADDGA1021+005491999GE19MSL   +99999+99999GF199999021999005491999999MA1101601999999REMMET051METAR SBKG 221100Z 14012KT 9999 FEW018 26/18 Q1016=
0149827950999992017012212004-07220-035880FM-12+054899999V0201401N0026100600199010000199+02601+02121101531ADDAA101999999AZ101061AZ201061GA1061+006001081GE19MSL   +99999+99999GF106991061999006001999999KA1120N+02031MA1999999095301MD1999999-0081REMSYN004BUFR
0184827950999992017012212004-07270-035896FM-15+050299999V0201301V00461030481CN009999199+02701+01801999999ADDGA1021+011281999GA2041+030481999GE19MSL   +99999+99999GF199999021999011281999999MA1101601999999MW1161REMMET071METAR SBKG 221200Z 13009KT 100V170 9999 VCSH FEW037 SCT100 27/18 Q1016=
0173827950999992017012213004-07270-035896FM-15+050299999V0201001V005710304819N009999199+02701+01901999999ADDGA1041+010671999GA2071+030481999GE19MSL   +99999+99999GF199999041999010671999999MA1101501999999REMMET066METAR SBKG 221300Z 10011KT 060V130 9999 SCT035 BKN100 27/19 Q1015=
0150827950999992017012215004-07270-035896FM-15+050299999V0201201V006710106719N009999199+03001+01901999999ADDGA1071+010671999GE19MSL   +99999+99999GF199999071999010671999999MA1101501999999REMMET059METAR SBKG 221500Z 12013KT 080V140 9999 BKN035 30/19 Q1015=
0165827950999992017012216004-07270-035896FM-15+050299999V0200801N007710091419N009999199+02801+02101999999ADDGA1071+009141999GA2071+027431999GE19MSL   +99999+99999GF199999071999009141999999MA1101401999999REMMET058METAR SBKG 221600Z 08015KT 9999 BKN030 BKN090 28/21 Q1014=
0165827950999992017012217004-07270-035896FM-15+050299999V0200701N008210045719N009999199+02501+02101999999ADDGA1071+004571999GA2071+027431999GE19MSL   +99999+99999GF199999071999004571999999MA1101401999999REMMET058METAR SBKG 221700Z 07016KT 9999 BKN015 BKN090 25/21 Q1014=
0136827950999992017012218004-07220-035880FM-12+054899999V0200901N0026199999999010000199+02501+01881101131ADDAA101999999AZ101061AZ201061GA1031+006001081GE19MSL   +99999+99999GF107991031999006001999999MA1999999094971MD1999999+0051REMSYN004BUFR
0165827950999992017012218004-07270-035896FM-15+050299999V0200801N008210274319N009999199+02501+01901999999ADDGA1041+006101999GA2071+027431999GE19MSL   +99999+99999GF199999041999006101999999MA1101401999999REMMET058METAR SBKG 221800Z 08016KT 9999 SCT020 BKN090 25/19 Q1014=
0165827950999992017012220004-07270-035896FM-15+050299999V0200901N007210274319N009999199+02301+01901999999ADDGA1041+006101999GA2071+027431999GE19MSL   +99999+99999GF199999041999006101999999MA1101401999999REMMET058METAR SBKG 222000Z 09014KT 9999 SCT020 BKN090 23/19 Q1014=
0165827950999992017012220454-07270-035896FM-16+050299999V0200801N007210274319N009999199+02301+01901999999ADDGA1041+006101999GA2071+027431999GE19MSL   +99999+99999GF199999041999006101999999MA1101401999999REMMET058SPECI SBKG 222045Z 08014KT 9999 SCT020 BKN090 23/19 Q1014=
0136827950999992017012300004-07220-035880FM-12+054899999V0200901N0036100600199001000199+02201+02081101491ADDAA101999999AZ101061AZ201061GA1061+006001081GE19MSL   +99999+99999GF106991061999006001999999MA1999999095351MD1999999+0211REMSYN004BUFR
0165827950999992017012303154-07270-035896FM-16+050299999V0201001N003110030519N009999199+02201+02101999999ADDGA1041+001221999GA2071+003051999GE19MSL   +99999+99999GF199999041999001221999999MA1101501999999REMMET058SPECI SBKG 230315Z 10006KT 9999 SCT004 BKN010 22/21 Q1015=
0188827950999992017012304004-07270-035896FM-15+050299999V0201001N004110021319N009999199+02201+02101999999ADDGA1041+000911999GA2071+002131999GA3071+003661999GE19MSL   +99999+99999GF199999041999000911999999MA1101501999999REMMET065METAR SBKG 230400Z 10008KT 9999 SCT003 BKN007 BKN012 22/21 Q1015=
0188827950999992017012305004-07270-035896FM-15+050299999V0201101N003610036619N009999199+02201+02101999999ADDGA1041+001221999GA2071+003661999GA3071+006401999GE19MSL   +99999+99999GF199999041999001221999999MA1101401999999REMMET065METAR SBKG 230500Z 11007KT 9999 SCT004 BKN012 BKN021 22/21 Q1014=
0165827950999992017012306004-07270-035896FM-15+050299999V0201101N00261006101CN009999199+02201+02101999999ADDGA1021+003051999GA2041+006101999GE19MSL   +99999+99999GF199999021999003051999999MA1101301999999REMMET058METAR SBKG 230600Z 11005KT 9999 FEW010 SCT020 22/21 Q1013=
0142827950999992017012307004-07270-035896FM-15+050299999V0201601N001019999999N009999199+02101+02101999999ADDGA1041+003661999GE19MSL   +99999+99999GF199999041999003661999999MA1101301999999REMMET051METAR SBKG 230700Z 16002KT 9999 SCT012 21/21 Q1013=
0165827950999992017012308004-07270-035896FM-15+050299999V0201101N00211003661CN009999199+02201+02101999999ADDGA1021+002741999GA2041+003661999GE19MSL   +99999+99999GF199999021999002741999999MA1101401999999REMMET058METAR SBKG 230800Z 11004KT 9999 FEW009 SCT012 22/21 Q1014=
0142827950999992017012310004-07270-035896FM-15+050299999V0201101N002610045719N009999199+02301+02201999999ADDGA1071+004571999GE19MSL   +99999+99999GF199999071999004571999999MA1101501999999REMMET051METAR SBKG 231000Z 11005KT 9999 BKN015 23/22 Q1015=
0165827950999992017012311004-07270-035896FM-15+050299999V0201201N004610048819N009999199+02401+02201999999ADDGA1041+004571999GA2071+004881999GE19MSL   +99999+99999GF199999041999004571999999MA1101601999999REMMET058METAR SBKG 231100Z 12009KT 9999 SCT015 BKN016 24/22 Q1016=
0187827950999992017012312004-07220-035880FM-12+054899999V0200901N0021100600199010000199+02361+02201101491ADDAA124000231AY151061AY221061GA1081+006001071GA2999+999999101GA3999+999999101GE19MSL   +99999+99999GF108991081999006001999999KA1120N+02061MA1999999095311MD1999999+0011MW1501REMSYN004BUFR
0165827950999992017012312004-07270-035896FM-15+050299999V0201101N003610045719N009999199+02401+02201999999ADDGA1041+003051999GA2071+004571999GE19MSL   +99999+99999GF199999041999003051999999MA1101601999999REMMET058METAR SBKG 231200Z 11007KT 9999 SCT010 BKN015 24/22 Q1016=
0142827950999992017012314004-07270-035896FM-15+050299999V0200901N005710091419N009999199+02901+02001999999ADDGA1071+009141999GE19MSL   +99999+99999GF199999071999009141999999MA1101501999999REMMET051METAR SBKG 231400Z 09011KT 9999 BKN030 29/20 Q1015=
0142827950999992017012315004-07270-035896FM-15+050299999V0200801N006219999999N009999199+02901+02001999999ADDGA1041+012191999GE19MSL   +99999+99999GF199999041999012191999999MA1101501999999REMMET051METAR SBKG 231500Z 08012KT 9999 SCT040 29/20 Q1015=
0142827950999992017012316004-07270-035896FM-15+050299999V0200701N006210131119N009999199+03001+01901999999ADDGA1071+013111999GE19MSL   +99999+99999GF199999071999013111999999MA1101301999999REMMET051METAR SBKG 231600Z 07012KT 9999 BKN043 30/19 Q1013=
0168827950999992017012318004-07220-035880FM-12+054899999V0200901N0041199999999010000199+02971+01911101051ADDAA101999999AZ101061AZ201061GA1021+006001081GA2999+999999031GA3999+999999001GE19MSL   +99999+99999GF104991021999006001999999MA1999999094961MD1999999-0011REMSYN004BUFR
0072827950999992017012318004-07270-035896FM-15+050299999V0200901N007719999999Y999999999+03101+01801999999ADDMA1101201999999REMMET045METAR SBKG 231800Z 09015KT CAVOK 31/18 Q1012=
0072827950999992017012319004-07270-035896FM-15+050299999V0201001N007719999999Y999999999+03101+01901999999ADDMA1101201999999REMMET045METAR SBKG 231900Z 10015KT CAVOK 31/19 Q1012=
0142827950999992017012320004-07270-035896FM-15+050299999V0201001N007719999999N009999199+02901+02001999999ADDGA1041+010971999GE19MSL   +99999+99999GF199999041999010971999999MA1101301999999REMMET051METAR SBKG 232000Z 10015KT 9999 SCT036 29/20 Q1013=
0072827950999992017012320454-07270-035896FM-16+050299999V0201001N008219999999Y999999999+02701+02001999999ADDMA1101301999999REMMET045SPECI SBKG 232045Z 10016KT CAVOK 27/20 Q1013=
0136827950999992017012400004-07220-035880FM-12+054899999V0200901N0036100600199001000199+02311+02091101391ADDAA101999999AZ101061AZ201061GA1061+006001081GE19MSL   +99999+99999GF106991061999006001999999MA1999999095241MD1999999-0111REMSYN004BUFR
0165827950999992017012403154-07270-035896FM-16+050299999V0201001N005710030519N009999199+02301+02201999999ADDGA1041+002131999GA2071+003051999GE19MSL   +99999+99999GF199999041999002131999999MA1101501999999REMMET058SPECI SBKG 240315Z 10011KT 9999 SCT007 BKN010 23/22 Q1015=
0165827950999992017012404004-07270-035896FM-15+050299999V0201001N005710030519N009999199+02301+02201999999ADDGA1041+001831999GA2071+003051999GE19MSL   +99999+99999GF199999041999001831999999MA1101501999999REMMET058METAR SBKG 240400Z 10011KT 9999 SCT006 BKN010 23/22 Q1015=
0165827950999992017012406004-07270-035896FM-15+050299999V0201001N006210030519N009999199+02301+02101999999ADDGA1041+001831999GA2071+003051999GE19MSL   +99999+99999GF199999041999001831999999MA1101501999999REMMET058METAR SBKG 240600Z 10012KT 9999 SCT006 BKN010 23/21 Q1015=
0165827950999992017012409004-07270-035896FM-15+050299999V0201001N006210030519N009999199+02301+02101999999ADDGA1041+001521999GA2071+003051999GE19MSL   +99999+99999GF199999041999001521999999MA1101501999999REMMET058METAR SBKG 240900Z 10012KT 9999 SCT005 BKN010 23/21 Q1015=
0165827950999992017012409204-07270-035896FM-16+050299999V0201101N006710045719N009999199+02301+02201999999ADDGA1041+003051999GA2071+004571999GE19MSL   +99999+99999GF199999041999003051999999MA1101601999999REMMET058SPECI SBKG 240920Z 11013KT 9999 SCT010 BKN015 23/22 Q1016=
0142827950999992017012411004-07270-035896FM-15+050299999V0201001N006210061019N009999199+02501+02101999999ADDGA1071+006101999GE19MSL   +99999+99999GF199999071999006101999999MA1101701999999REMMET051METAR SBKG 241100Z 10012KT 9999 BKN020 25/21 Q1017=
0149827950999992017012412004-07220-035880FM-12+054899999V0201401N0041100600199010000199+02501+02071101521ADDAA101999999AZ101061AZ201061GA1051+006001081GE19MSL   +99999+99999GF105991051999006001999999KA1120N+02081MA1999999095381MD1999999+0071REMSYN004BUFR
0142827950999992017012412004-07270-035896FM-15+050299999V0201001N007219999999N009999199+02701+02001999999ADDGA1041+009141999GE19MSL   +99999+99999GF199999041999009141999999MA1101701999999REMMET051METAR SBKG 241200Z 10014KT 9999 SCT030 27/20 Q1017=
0142827950999992017012414004-07270-035896FM-15+050299999V0201001N006719999999N009999199+02901+01801999999ADDGA1041+012191999GE19MSL   +99999+99999GF199999041999012191999999MA1101601999999REMMET051METAR SBKG 241400Z 10013KT 9999 SCT040 29/18 Q1016=
0142827950999992017012415004-07270-035896FM-15+050299999V0200901N005719999999N009999199+03101+01701999999ADDGA1041+012191999GE19MSL   +99999+99999GF199999041999012191999999MA1101501999999REMMET051METAR SBKG 241500Z 09011KT 9999 SCT040 31/17 Q1015=
0072827950999992017012416004-07270-035896FM-15+050299999V0200901N006219999999Y999999999+03101+01701999999ADDMA1101401999999REMMET045METAR SBKG 241600Z 09012KT CAVOK 31/17 Q1014=
0072827950999992017012417004-07270-035896FM-15+050299999V0200801N006719999999Y999999999+03201+01601999999ADDMA1101401999999REMMET045METAR SBKG 241700Z 08013KT CAVOK 32/16 Q1014=
0136827950999992017012418004-07220-035880FM-12+054899999V0201401N0046199999999010000199+03051+01881101111ADDAA101999999AZ101061AZ201061GA1041+006001081GE19MSL   +99999+99999GF104991041999006001999999MA1999999095031MD1999999+0071REMSYN004BUFR
0072827950999992017012419004-07270-035896FM-15+050299999V0200801N006719999999Y999999999+03101+01701999999ADDMA1101301999999REMMET045METAR SBKG 241900Z 08013KT CAVOK 31/17 Q1013=
0072827950999992017012420004-07270-035896FM-15+050299999V0200901N007219999999Y999999999+03001+01801999999ADDMA1101301999999REMMET045METAR SBKG 242000Z 09014KT CAVOK 30/18 Q1013=
0072827950999992017012420454-07270-035896FM-16+050299999V0200801N007219999999Y999999999+02801+01801999999ADDMA1101401999999REMMET045SPECI SBKG 242045Z 08014KT CAVOK 28/18 Q1014=
0136827950999992017012500004-07220-035880FM-12+054899999V0201401N0041199999999001000199+02321+02041101431ADDAA101999999AZ101061AZ201061GA1021+006001081GE19MSL   +99999+99999GF102991021999006001999999MA1999999095291MD1999999+0051REMSYN004BUFR
0142827950999992017012504004-07270-035896FM-15+050299999V0200901N003119999999N009999199+02101+02001999999ADDGA1041+003051999GE19MSL   +99999+99999GF199999041999003051999999MA1101501999999REMMET051METAR SBKG 250400Z 09006KT 9999 SCT010 21/20 Q1015=
0142827950999992017012505004-07270-035896FM-15+050299999V0201001N003619999999N009999199+02101+02101999999ADDGA1041+002131999GE19MSL   +99999+99999GF199999041999002131999999MA1101501999999REMMET051METAR SBKG 250500Z 10007KT 9999 SCT007 21/21 Q1015=
0142827950999992017012507004-07270-035896FM-15+050299999V0200901N002619999999N009999199+02101+02101999999ADDGA1041+003051999GE19MSL   +99999+99999GF199999041999003051999999MA1101501999999REMMET051METAR SBKG 250700Z 09005KT 9999 SCT010 21/21 Q1015=
0165827950999992017012508004-07270-035896FM-15+050299999V0200801N003110045719N009999199+02101+02001999999ADDGA1041+003051999GA2071+004571999GE19MSL   +99999+99999GF199999041999003051999999MA1101501999999REMMET058METAR SBKG 250800Z 08006KT 9999 SCT010 BKN015 21/20 Q1015=
0142827950999992017012509004-07270-035896FM-15+050299999V0201001N002610045719N009999199+02101+02001999999ADDGA1071+004571999GE19MSL   +99999+99999GF199999071999004571999999MA1101601999999REMMET051METAR SBKG 250900Z 10005KT 9999 BKN015 21/20 Q1016=
0142827950999992017012511004-07270-035896FM-15+050299999V0201201N006210064019N009999199+02501+02001999999ADDGA1071+006401999GE19MSL   +99999+99999GF199999071999006401999999MA1101701999999REMMET051METAR SBKG 251100Z 12012KT 9999 BKN021 25/20 Q1017=
0149827950999992017012512004-07220-035880FM-12+054899999V0201401N0036100600199010000199+02451+02071101571ADDAA101999999AZ101061AZ201061GA1061+006001081GE19MSL   +99999+99999GF106991061999006001999999KA1120N+02031MA1999999095421MD1999999+0041REMSYN004BUFR
0142827950999992017012512004-07270-035896FM-15+050299999V0201001N007710091419N009999199+02701+01901999999ADDGA1071+009141999GE19MSL   +99999+99999GF199999071999009141999999MA1101701999999REMMET051METAR SBKG 251200Z 10015KT 9999 BKN030 27/19 Q1017=
0142827950999992017012514004-07270-035896FM-15+050299999V0201001N006210131119N009999199+03001+01801999999ADDGA1071+013111999GE19MSL   +99999+99999GF199999071999013111999999MA1101601999999REMMET051METAR SBKG 251400Z 10012KT 9999 BKN043 30/18 Q1016=
0072827950999992017012515004-07270-035896FM-15+050299999V0201101N004119999999Y999999999+03001+01601999999ADDMA1101501999999REMMET045METAR SBKG 251500Z 11008KT CAVOK 30/16 Q1015=
0080827950999992017012516004-07270-035896FM-15+050299999V0201001V005719999999Y999999999+03201+01601999999ADDMA1101401999999REMMET053METAR SBKG 251600Z 10011KT 070V130 CAVOK 32/16 Q1014=
0136827950999992017012518004-07220-035880FM-12+054899999V0200901N0041199999999010000199+03101+01721101061ADDAA101999999AZ101061AZ201061GA1031+006001081GE19MSL   +99999+99999GF103991031999006001999999MA1999999094981MD1999999-0051REMSYN004BUFR
0142827950999992017012520004-07270-035896FM-15+050299999V0201901N008219999999N009999199+02901+02001999999ADDGA1021+013111999GE19MSL   +99999+99999GF199999021999013111999999MA1101301999999REMMET051METAR SBKG 252000Z 19016KT 9999 FEW043 29/20 Q1013=
0142827950999992017012520454-07270-035896FM-16+050299999V0201001N009319999999N009999199+02701+02001999999ADDGA1021+010061999GE19MSL   +99999+99999GF199999021999010061999999MA1101401999999REMMET051SPECI SBKG 252045Z 10018KT 9999 FEW033 27/20 Q1014=
0136827950999992017012600004-07220-035880FM-12+054899999V0201401N0046100600199001000199+02271+02091101521ADDAA101999999AZ101061AZ201061GA1061+006001081GE19MSL   +99999+99999GF106991061999006001999999MA1999999095361MD1999999+0071REMSYN004BUFR
0142827950999992017012604004-07270-035896FM-15+050299999V0200901N004119999999N009999199+02201+02001999999ADDGA1041+004571999GE19MSL   +99999+99999GF199999041999004571999999MA1101601999999REMMET051METAR SBKG 260400Z 09008KT 9999 SCT015 22/20 Q1016=
0175827950999992017012605004-07270-035896FM-15+050299999V0201001N003110045719N005000199+02201+02001999999ADDGA1041+003961999GA2071+004571999GE19MSL   +99999+99999GF199999041999003961999999MA1101501999999MW1511REMMET062METAR SBKG 260500Z 10006KT 5000 -DZ SCT013 BKN015 22/20 Q1015=
0165827950999992017012606004-07270-035896FM-15+050299999V0201001N00261004571CN009999199+02101+02001999999ADDGA1021+003351999GA2041+004571999GE19MSL   +99999+99999GF199999021999003351999999MA1101501999999REMMET058METAR SBKG 260600Z 10005KT 9999 FEW011 SCT015 21/20 Q1015=
0142827950999992017012607004-07270-035896FM-15+050299999V0200901N002610091419N009999199+02101+02001999999ADDGA1071+009141999GE19MSL   +99999+99999GF199999071999009141999999MA1101501999999REMMET051METAR SBKG 260700Z 09005KT 9999 BKN030 21/20 Q1015=
0165827950999992017012608004-07270-035896FM-15+050299999V0201101N00101007621CN009999199+02101+02001999999ADDGA1041+005181999GA2041+007621999GE19MSL   +99999+99999GF199999041999005181999999MA1101601999999REMMET058METAR SBKG 260800Z 11002KT 9999 SCT017 SCT025 21/20 Q1016=
0142827950999992017012609004-07270-035896FM-15+050299999V0200901N001510070119N009999199+02201+02001999999ADDGA1071+007011999GE19MSL   +99999+99999GF199999071999007011999999MA1101601999999REMMET051METAR SBKG 260900Z 09003KT 9999 BKN023 22/20 Q1016=
0184827950999992017012609404-07270-035896FM-16+050299999V0201401N004110036619N005000199+02101+02001999999ADDGA1041+001831999GA2071+003661999GE19MSL   +99999+99999GF199999041999001831999999MA1101701999999MW1101MW2611REMMET065SPECI SBKG 260940Z 14008KT 5000 -RA BR SCT006 BKN012 21/20 Q1017=
0165827950999992017012611004-07270-035896FM-15+050299999V0201301N003610045719N009999199+02201+02001999999ADDGA1041+003661999GA2071+004571999GE19MSL   +99999+99999GF199999041999003661999999MA1101701999999REMMET058METAR SBKG 261100Z 13007KT 9999 SCT012 BKN015 22/20 Q1017=
0187827950999992017012612004-07220-035880FM-12+054899999V0201401N0026100600199010000199+02271+02011101641ADDAA124000631AY161061AY221061GA1081+006001061GA2999+999999101GA3999+999999101GE19MSL   +99999+99999GF108991081999006001999999KA1120N+02011MA1999999095451MD1999999+0031MW1021REMSYN004BUFR
0165827950999992017012612004-07270-035896FM-15+050299999V0201101N005710061019N009999199+02401+02001999999ADDGA1021+005491999GA2071+006101999GE19MSL   +99999+99999GF199999021999005491999999MA1101701999999REMMET058METAR SBKG 261200Z 11011KT 9999 FEW018 BKN020 24/20 Q1017=
0165827950999992017012613004-07270-035896FM-15+050299999V0200801N004610076219N009999199+02601+01901999999ADDGA1041+005791999GA2071+007621999GE19MSL   +99999+99999GF199999041999005791999999MA1101701999999REMMET058METAR SBKG 261300Z 08009KT 9999 SCT019 BKN025 26/19 Q1017=
0142827950999992017012615004-07270-035896FM-15+050299999V0201101N004610121919N009999199+02901+01801999999ADDGA1071+012191999GE19MSL   +99999+99999GF199999071999012191999999MA1101601999999REMMET051METAR SBKG 261500Z 11009KT 9999 BKN040 29/18 Q1016=
0080827950999992017012617004-07270-035896FM-15+050299999V0201101V004619999999Y999999999+03001+01801999999ADDMA1101501999999REMMET053METAR SBKG 261700Z 11009KT 050V140 CAVOK 30/18 Q1015=
0136827950999992017012618004-07220-035880FM-12+054899999V0200901N0041199999999010000199+02961+01811101181ADDAA101999999AZ101061AZ201061GA1031+006001081GE19MSL   +99999+99999GF103991031999006001999999MA1999999095081MD1999999+0101REMSYN004BUFR
0080827950999992017012618004-07270-035896FM-15+050299999V0200801V005119999999Y999999999+03001+01801999999ADDMA1101401999999REMMET053METAR SBKG 261800Z 08010KT 030V120 CAVOK 30/18 Q1014=
0080827950999992017012619004-07270-035896FM-15+050299999V0200801V005119999999Y999999999+03001+01801999999ADDMA1101401999999REMMET053METAR SBKG 261900Z 08010KT 060V130 CAVOK 30/18 Q1014=
0072827950999992017012620004-07270-035896FM-15+050299999V0200901N007219999999Y999999999+03001+01801999999ADDMA1101401999999REMMET045METAR SBKG 262000Z 09014KT CAVOK 30/18 Q1014=
0072827950999992017012620454-07270-035896FM-16+050299999V0200801N006219999999Y999999999+02901+01801999999ADDMA1101401999999REMMET045SPECI SBKG 262045Z 08012KT CAVOK 29/18 Q1014=
0165827950999992017012703154-07270-035896FM-16+050299999V0200901N003610030519N009999199+02301+02201999999ADDGA1041+002441999GA2071+003051999GE19MSL   +99999+99999GF199999041999002441999999MA1101701999999REMMET058SPECI SBKG 270315Z 09007KT 9999 SCT008 BKN010 23/22 Q1017=
0165827950999992017012708004-07270-035896FM-15+050299999V0200901N004610030519N009999199+02201+02101999999ADDGA1041+001521999GA2071+003051999GE19MSL   +99999+99999GF199999041999001521999999MA1101601999999REMMET058METAR SBKG 270800Z 09009KT 9999 SCT005 BKN010 22/21 Q1016=
0165827950999992017012709004-07270-035896FM-15+050299999V0200801N00461003051CN009999199+02201+02101999999ADDGA1041+001521999GA2041+003051999GE19MSL   +99999+99999GF199999041999001521999999MA1101601999999REMMET058METAR SBKG 270900Z 08009KT 9999 SCT005 SCT010 22/21 Q1016=
0199827950999992017012711004-07270-035896FM-15+050299999V0200801V004610064019N009999199+02401+02101999999ADDGA1041+003661999GA2071+006401999GA3021+008841081GE19MSL   +99999+99999GF199999041999003661999999MA1101801999999REMMET076METAR SBKG 271100Z 08009KT 050V110 9999 SCT012 BKN021 FEW029TCU 24/21 Q1018=
0149827950999992017012712004-07220-035880FM-12+054899999V0201401N0036100600199010000199+02521+02071101621ADDAA101999999AZ101061AZ201061GA1051+006001081GE19MSL   +99999+99999GF105991051999006001999999KA1120N+02111MA1999999095471MD1999999+0021REMSYN004BUFR
0150827950999992017012712004-07270-035896FM-15+050299999V0201101V006210051819N009999199+02501+02101999999ADDGA1071+005181999GE19MSL   +99999+99999GF199999071999005181999999MA1101801999999REMMET059METAR SBKG 271200Z 11012KT 080V140 9999 BKN017 25/21 Q1018=
0150827950999992017012713004-07270-035896FM-15+050299999V0200801V006710067119N009999199+02701+02001999999ADDGA1071+006711999GE19MSL   +99999+99999GF199999071999006711999999MA1101801999999REMMET059METAR SBKG 271300Z 08013KT 060V130 9999 BKN022 27/20 Q1018=
0150827950999992017012714004-07270-035896FM-15+050299999V0201101V007719999999N009999199+02801+02001999999ADDGA1041+007621999GE19MSL   +99999+99999GF199999041999007621999999MA1101701999999REMMET059METAR SBKG 271400Z 11015KT 080V140 9999 SCT025 28/20 Q1017=
0142827950999992017012716004-07270-035896FM-15+050299999V0200801N005710121919N009999199+02801+01901999999ADDGA1071+012191999GE19MSL   +99999+99999GF199999071999012191999999MA1101601999999REMMET051METAR SBKG 271600Z 08011KT 9999 BKN040 28/19 Q1016=
0153827950999992017012717004-07270-035896FM-15+050299999V0201201N008210061019N008000199+02601+02001999999ADDGA1071+006101999GE19MSL   +99999+99999GF199999071999006101999999MA1101501999999MW1161REMMET056METAR SBKG 271700Z 12016KT 8000 VCSH BKN020 26/20 Q1015=
0158827950999992017012718004-07220-035880FM-12+054899999V0200901N0031100600199010000199+02271+02121101341ADDAA106000731AY161061AY221061GA1051+006001081GA2999+999999031GE19MSL   +99999+99999GF107991051999006001999999MA1999999095161MD1999999+0081MW1021REMSYN004BUFR
0142827950999992017012718004-07270-035896FM-15+050299999V0200701N007210061019N009999199+02301+02101999999ADDGA1071+006101999GE19MSL   +99999+99999GF199999071999006101999999MA1101501999999REMMET051METAR SBKG 271800Z 07014KT 9999 BKN020 23/21 Q1015=
0142827950999992017012719004-07270-035896FM-15+050299999V0200701N005719999999N009999199+02501+02101999999ADDGA1041+006101999GE19MSL   +99999+99999GF199999041999006101999999MA1101501999999REMMET051METAR SBKG 271900Z 07011KT 9999 SCT020 25/21 Q1015=
0142827950999992017012720004-07270-035896FM-15+050299999V0201001N006219999999N009999199+02501+02201999999ADDGA1041+006101999GE19MSL   +99999+99999GF199999041999006101999999MA1101501999999REMMET051METAR SBKG 272000Z 10012KT 9999 SCT020 25/22 Q1015=
0142827950999992017012720454-07270-035896FM-16+050299999V0201001N006219999999N009999199+02501+02201999999ADDGA1041+006101999GE19MSL   +99999+99999GF199999041999006101999999MA1101501999999REMMET051SPECI SBKG 272045Z 10012KT 9999 SCT020 25/22 Q1015=
0136827950999992017012800004-07220-035880FM-12+054899999V0200901N0041100600199001000199+02271+02151101661ADDAA101999999AZ101061AZ201061GA1071+006001081GE19MSL   +99999+99999GF107991071999006001999999MA1999999095451MD1999999-0041REMSYN004BUFR
0165827950999992017012803154-07270-035896FM-16+050299999V0201001N003110033519N009999199+02201+02101999999ADDGA1021+001521999GA2071+003351999GE19MSL   +99999+99999GF199999021999001521999999MA1101701999999REMMET058SPECI SBKG 280315Z 10006KT 9999 FEW005 BKN011 22/21 Q1017=
0165827950999992017012804004-07270-035896FM-15+050299999V0201001N003110021319N009999199+02201+02101999999ADDGA1041+001221999GA2071+002131999GE19MSL   +99999+99999GF199999041999001221999999MA1101701999999REMMET058METAR SBKG 280400Z 10006KT 9999 SCT004 BKN007 22/21 Q1017=
0165827950999992017012804254-07270-035896FM-16+050299999V0201001N003110015219N008000199+02201+02101999999ADDGA1041+000911999GA2071+001521999GE19MSL   +99999+99999GF199999041999000911999999MA1101601999999REMMET058SPECI SBKG 280425Z 10006KT 8000 SCT003 BKN005 22/21 Q1016=
0165827950999992017012805004-07270-035896FM-15+050299999V0201001N003610009119N008000199+02201+02101999999ADDGA1071+000911999GA2071+003051999GE19MSL   +99999+99999GF199999071999000911999999MA1101601999999REMMET058METAR SBKG 280500Z 10007KT 8000 BKN003 BKN010 22/21 Q1016=
0165827950999992017012806004-07270-035896FM-15+050299999V0201101N003610006119N006000199+02201+02101999999ADDGA1071+000611999GA2071+002441999GE19MSL   +99999+99999GF199999071999000611999999MA1101601999999REMMET058METAR SBKG 280600Z 11007KT 6000 BKN002 BKN008 22/21 Q1016=
0174827950999992017012807004-07270-035896FM-15+050299999V0201101N002610003019N004000199+02101+02101999999ADDGA1071+000301999GA2071+002131999GE19MSL   +99999+99999GF199999071999000301999999MA1101601999999MW1101REMMET061METAR SBKG 280700Z 11005KT 4000 BR BKN001 BKN007 21/21 Q1016=
0174827950999992017012808004-07270-035896FM-15+050299999V0201201N002110003019N001500199+02101+02101999999ADDGA1071+000301999GA2071+002741999GE19MSL   +99999+99999GF199999071999000301999999MA1101601999999MW1101REMMET061METAR SBKG 280800Z 12004KT 1500 BR BKN001 BKN009 21/21 Q1016=
0180827950999992017012808204-07270-035896FM-16+050299999V0201001N002610033519N005000199+02101+02101999999ADDGA1041+000301999GA2071+003351999GE19MSL   +99999+99999GF199999041999000301999999MA1101601999999MW1101REMMET067SPECI SBKG 280820Z 10005KT 5000 0800W BR SCT001 BKN011 21/21 Q1016=
0142827950999992017012810004-07270-035896FM-15+050299999V0201201N003619999999N009999199+02301+02101999999ADDGA1041+006101999GE19MSL   +99999+99999GF199999041999006101999999MA1101701999999REMMET051METAR SBKG 281000Z 12007KT 9999 SCT020 23/21 Q1017=
0142827950999992017012811004-07270-035896FM-15+050299999V0201201N006719999999N009999199+02501+02001999999ADDGA1041+006101999GE19MSL   +99999+99999GF199999041999006101999999MA1101801999999REMMET051METAR SBKG 281100Z 12013KT 9999 SCT020 25/20 Q1018=
0149827950999992017012812004-07220-035880FM-12+054899999V0201401N0036100600199010000199+02501+02081101671ADDAA101999999AZ101061AZ201061GA1061+006001081GE19MSL   +99999+99999GF106991061999006001999999KA1120N+02061MA1999999095511MD1999999+0041REMSYN004BUFR
0150827950999992017012813004-07270-035896FM-15+050299999V0201101V007719999999N009999199+02801+01801999999ADDGA1041+009141999GE19MSL   +99999+99999GF199999041999009141999999MA1101701999999REMMET059METAR SBKG 281300Z 11015KT 090V160 9999 SCT030 28/18 Q1017=
0142827950999992017012814004-07270-035896FM-15+050299999V0201101N007219999999N009999199+03001+01901999999ADDGA1041+012191999GE19MSL   +99999+99999GF199999041999012191999999MA1101701999999REMMET051METAR SBKG 281400Z 11014KT 9999 SCT040 30/19 Q1017=
0142827950999992017012815004-07270-035896FM-15+050299999V0201101N007219999999N009999199+03101+01801999999ADDGA1041+012191999GE19MSL   +99999+99999GF199999041999012191999999MA1101601999999REMMET051METAR SBKG 281500Z 11014KT 9999 SCT040 31/18 Q1016=
0142827950999992017012816004-07270-035896FM-15+050299999V0200701N006710109719N009999199+02901+02001999999ADDGA1071+010971999GE19MSL   +99999+99999GF199999071999010971999999MA1101501999999REMMET051METAR SBKG 281600Z 07013KT 9999 BKN036 29/20 Q1015=
0136827950999992017012818004-07220-035880FM-12+054899999V0200901N0036199999999010000199+02571+02051101321ADDAA101999999AZ101061AZ201061GA1041+006001081GE19MSL   +99999+99999GF107991041999006001999999MA1999999095161MD1999999+0001REMSYN004BUFR
0165827950999992017012818004-07270-035896FM-15+050299999V0200701N006710243819N009999199+02601+02101999999ADDGA1041+006401999GA2071+024381999GE19MSL   +99999+99999GF199999041999006401999999MA1101501999999REMMET058METAR SBKG 281800Z 07013KT 9999 SCT021 BKN080 26/21 Q1015=
0165827950999992017012820004-07270-035896FM-15+050299999V0200901N008810243819N009999199+02701+01901999999ADDGA1021+013411999GA2071+024381999GE19MSL   +99999+99999GF199999021999013411999999MA1101401999999REMMET058METAR SBKG 282000Z 09017KT 9999 FEW044 BKN080 27/19 Q1014=
0072827950999992017012820454-07270-035896FM-16+050299999V0200801N007219999999Y999999999+02601+02001999999ADDMA1101501999999REMMET045SPECI SBKG 282045Z 08014KT CAVOK 26/20 Q1015=
0136827950999992017012900004-07220-035880FM-12+054899999V0200901N0041100600199001000199+02271+02021101641ADDAA101999999AZ101061AZ201061GA1061+006001081GE19MSL   +99999+99999GF106991061999006001999999MA1999999095481MD1999999+0031REMSYN004BUFR
0142827950999992017012903154-07270-035896FM-16+050299999V0200901N003619999999N009999199+02201+02101999999ADDGA1041+003351999GE19MSL   +99999+99999GF199999041999003351999999MA1101601999999REMMET051SPECI SBKG 290315Z 09007KT 9999 SCT011 22/21 Q1016=
0165827950999992017012904004-07270-035896FM-15+050299999V0201001N00411005491CN009999199+02201+02101999999ADDGA1041+003351999GA2041+005491999GE19MSL   +99999+99999GF199999041999003351999999MA1101601999999REMMET058METAR SBKG 290400Z 10008KT 9999 SCT011 SCT018 22/21 Q1016=
0165827950999992017012905004-07270-035896FM-15+050299999V0200901N002110054919N009999199+02201+02101999999ADDGA1041+003661999GA2071+005491999GE19MSL   +99999+99999GF199999041999003661999999MA1101501999999REMMET058METAR SBKG 290500Z 09004KT 9999 SCT012 BKN018 22/21 Q1015=
0165827950999992017012907004-07270-035896FM-15+050299999V0200901N002110054919N009999199+02101+02001999999ADDGA1041+003661999GA2071+005491999GE19MSL   +99999+99999GF199999041999003661999999MA1101501999999REMMET058METAR SBKG 290700Z 09004KT 9999 SCT012 BKN018 21/20 Q1015=
0165827950999992017012909004-07270-035896FM-15+050299999V0200901N002110045719N009999199+02201+02101999999ADDGA1041+003051999GA2071+004571999GE19MSL   +99999+99999GF199999041999003051999999MA1101601999999REMMET058METAR SBKG 290900Z 09004KT 9999 SCT010 BKN015 22/21 Q1016=
0142827950999992017012910004-07270-035896FM-15+050299999V0201201N003619999999N009999199+02301+02101999999ADDGA1041+006101999GE19MSL   +99999+99999GF199999041999006101999999MA1101601999999REMMET051METAR SBKG 291000Z 12007KT 9999 SCT020 23/21 Q1016=
0165827950999992017012912004-07220-035880FM-12+054899999V0200901N0036100600199010000199+02471+02041101461ADDAA101999999AZ101061AZ201061GA1061+006001081GA2999+999999031GE19MSL   +99999+99999GF107991061999006001999999KA1120N+02081MA1999999095311MD1999999-0201REMSYN004BUFR
0142827950999992017012912004-07270-035896FM-15+050299999V0201201N005110076219N009999199+02601+02001999999ADDGA1071+007621999GE19MSL   +99999+99999GF199999071999007621999999MA1101701999999REMMET051METAR SBKG 291200Z 12010KT 9999 BKN025 26/20 Q1017=
0142827950999992017012913004-07270-035896FM-15+050299999V0201101N005710091419N009999199+02801+01901999999ADDGA1071+009141999GE19MSL   +99999+99999GF199999071999009141999999MA1101701999999REMMET051METAR SBKG 291300Z 11011KT 9999 BKN030 28/19 Q1017=
0142827950999992017012915004-07270-035896FM-15+050299999V0201001N006219999999N009999199+03001+01801999999ADDGA1041+012191999GE19MSL   +99999+99999GF199999041999012191999999MA1101601999999REMMET051METAR SBKG 291500Z 10012KT 9999 SCT040 30/18 Q1016=
0142827950999992017012916004-07270-035896FM-15+050299999V0201001N006219999999N009999199+03001+02001999999ADDGA1041+012191999GE19MSL   +99999+99999GF199999041999012191999999MA1101501999999REMMET051METAR SBKG 291600Z 10012KT 9999 SCT040 30/20 Q1015=
0168827950999992017012917004-07270-035896FM-15+050299999V0201001N008219999999N009999199+02801+02001999999ADDGA1041+008531999GA2021+010061081GE19MSL   +99999+99999GF199999041999008531999999MA1101501999999REMMET061METAR SBKG 291700Z 10016KT 9999 SCT028 FEW033TCU 28/20 Q1015=
0174827950999992017012918004-07220-035880FM-12+054899999V0201401N0041100300199002000199+02351+02291101361ADDAA106006031AY161061AY221061GA1071+003001081GA2999+999999031GA3999+999999101GE19MSL   +99999+99999GF108991071999003001999999MA1999999095181MD1999999+0021MW1601REMSYN004BUFR
0179827950999992017012918004-07270-035896FM-15+050299999V0200401N005710085319N008000199+02601+02101999999ADDGA1071+008531999GA2021+010061081GE19MSL   +99999+99999GF199999071999008531999999MA1101401999999MW1161REMMET066METAR SBKG 291800Z 04011KT 8000 VCSH BKN028 FEW033TCU 26/21 Q1014=
0142827950999992017012920004-07270-035896FM-15+050299999V0201001N007719999999N009999199+02701+02001999999ADDGA1021+010061999GE19MSL   +99999+99999GF199999021999010061999999MA1101501999999REMMET051METAR SBKG 292000Z 10015KT 9999 FEW033 27/20 Q1015=
0142827950999992017012920454-07270-035896FM-16+050299999V0201001N009319999999N009999199+02601+02001999999ADDGA1021+007011999GE19MSL   +99999+99999GF199999021999007011999999MA1101501999999REMMET051SPECI SBKG 292045Z 10018KT 9999 FEW023 26/20 Q1015=
0142827950999992017013000004-07220-035880FM-12+054899999V0200901N0041100600199001000199+02271+02101101581ADDAA106005031AY161061AY261061GA1061+006001081GE19MSL   +99999+99999GF106991061999006001999999MA1999999095421MD1999999-0061MW1021REMSYN004BUFR
0142827950999992017013004004-07270-035896FM-15+050299999V0201001N002110021319N009999199+02201+02101999999ADDGA1071+002131999GE19MSL   +99999+99999GF199999071999002131999999MA1101601999999REMMET051METAR SBKG 300400Z 10004KT 9999 BKN007 22/21 Q1016=
0142827950999992017013005004-07270-035896FM-15+050299999V0200801N002610045719N009999199+02201+02101999999ADDGA1071+004571999GE19MSL   +99999+99999GF199999071999004571999999MA1101501999999REMMET051METAR SBKG 300500Z 08005KT 9999 BKN015 22/21 Q1015=
0142827950999992017013006004-07270-035896FM-15+050299999V0201101N002610045719N009999199+02201+02101999999ADDGA1071+004571999GE19MSL   +99999+99999GF199999071999004571999999MA1101501999999REMMET051METAR SBKG 300600Z 11005KT 9999 BKN015 22/21 Q1015=
0142827950999992017013007004-07270-035896FM-15+050299999V0201001N002619999999N009999199+02201+02101999999ADDGA1041+004571999GE19MSL   +99999+99999GF199999041999004571999999MA1101501999999REMMET051METAR SBKG 300700Z 10005KT 9999 SCT015 22/21 Q1015=
0142827950999992017013009004-07270-035896FM-15+050299999V0201101N002119999999N009999199+02101+02101999999ADDGA1041+004571999GE19MSL   +99999+99999GF199999041999004571999999MA1101601999999REMMET051METAR SBKG 300900Z 11004KT 9999 SCT015 21/21 Q1016=
0165827950999992017013010004-07270-035896FM-15+050299999V0201201N003610061019N009999199+02301+02101999999ADDGA1041+003961999GA2071+006101999GE19MSL   +99999+99999GF199999041999003961999999MA1101601999999REMMET058METAR SBKG 301000Z 12007KT 9999 SCT013 BKN020 23/21 Q1016=
0165827950999992017013011004-07270-035896FM-15+050299999V0201001N005710073219N009999199+02401+02001999999ADDGA1021+004571999GA2071+007321999GE19MSL   +99999+99999GF199999021999004571999999MA1101701999999REMMET058METAR SBKG 301100Z 10011KT 9999 FEW015 BKN024 24/20 Q1017=
0149827950999992017013012004-07220-035880FM-12+054899999V0201401N0036100600199010000199+02461+02091101511ADDAA124012031AZ101061AZ201061GA1071+006001081GE19MSL   +99999+99999GF107991071999006001999999KA1120N+02081MA1999999095351MD1999999-0041REMSYN004BUFR
0142827950999992017013012004-07270-035896FM-15+050299999V0201201N006210079219N009999199+02601+02001999999ADDGA1071+007921999GE19MSL   +99999+99999GF199999071999007921999999MA1101701999999REMMET051METAR SBKG 301200Z 12012KT 9999 BKN026 26/20 Q1017=
0142827950999992017013014004-07270-035896FM-15+050299999V0201101N006710131119N009999199+03001+01701999999ADDGA1071+013111999GE19MSL   +99999+99999GF199999071999013111999999MA1101601999999REMMET051METAR SBKG 301400Z 11013KT 9999 BKN043 30/17 Q1016=
0072827950999992017013015004-07270-035896FM-15+050299999V0201201N006219999999Y999999999+03101+01701999999ADDMA1101501999999REMMET045METAR SBKG 301500Z 12012KT CAVOK 31/17 Q1015=
0080827950999992017013016004-07270-035896FM-15+050299999V0201301V005119999999Y999999999+03101+01701999999ADDMA1101401999999REMMET053METAR SBKG 301600Z 13010KT 090V200 CAVOK 31/17 Q1014=
0080827950999992017013017004-07270-035896FM-15+050299999V0200901V006719999999Y999999999+03201+01801999999ADDMA1101301999999REMMET053METAR SBKG 301700Z 09013KT 050V160 CAVOK 32/18 Q1013=
0136827950999992017013018004-07220-035880FM-12+054899999V0201401N0041100600199010000199+03001+01881101061ADDAA101999999AZ101061AZ201061GA1051+006001081GE19MSL   +99999+99999GF105991051999006001999999MA1999999094981MD1999999-0201REMSYN004BUFR
0080827950999992017013018004-07270-035896FM-15+050299999V0201201V007219999999Y999999999+03201+01801999999ADDMA1101301999999REMMET053METAR SBKG 301800Z 12014KT 070V140 CAVOK 32/18 Q1013=
0150827950999992017013019004-07270-035896FM-15+050299999V0201101V008219999999N009999199+03001+01801999999ADDGA1041+014631999GE19MSL   +99999+99999GF199999041999014631999999MA1101301999999REMMET059METAR SBKG 301900Z 11016KT 080V140 9999 SCT048 30/18 Q1013=
0168827950999992017013020004-07270-035896FM-15+050299999V0201001N009319999999N009999199+02801+02001999999ADDGA1041+010971999GA2021+012191081GE19MSL   +99999+99999GF199999041999010971999999MA1101301999999REMMET061METAR SBKG 302000Z 10018KT 9999 SCT036 FEW040TCU 28/20 Q1013=
0142827950999992017013020454-07270-035896FM-16+050299999V0201001N009319999999N009999199+02701+02001999999ADDGA1021+010971999GE19MSL   +99999+99999GF199999021999010971999999MA1101401999999REMMET051SPECI SBKG 302045Z 10018KT 9999 FEW036 27/20 Q1014=
0136827950999992017013100004-07220-035880FM-12+054899999V0200901N0041100600199001000199+02271+02001101541ADDAA101999999AZ101061AZ201061GA1061+006001081GE19MSL   +99999+99999GF106991061999006001999999MA1999999095381MD1999999-0041REMSYN004BUFR
0165827950999992017013104004-07270-035896FM-15+050299999V0201001N00461003661CN009999199+02301+02101999999ADDGA1041+002441999GA2041+003661999GE19MSL   +99999+99999GF199999041999002441999999MA1101501999999REMMET058METAR SBKG 310400Z 10009KT 9999 SCT008 SCT012 23/21 Q1015=
0142827950999992017013105004-07270-035896FM-15+050299999V0200901N003119999999N009999199+02201+02001999999ADDGA1041+005181999GE19MSL   +99999+99999GF199999041999005181999999MA1101501999999REMMET051METAR SBKG 310500Z 09006KT 9999 SCT017 22/20 Q1015=
0142827950999992017013106004-07270-035896FM-15+050299999V0201001N003110064019N009999199+02201+02001999999ADDGA1071+006401999GE19MSL   +99999+99999GF199999071999006401999999MA1101501999999REMMET051METAR SBKG 310600Z 10006KT 9999 BKN021 22/20 Q1015=
0165827950999992017013109004-07270-035896FM-15+050299999V0201001N003110051819N009999199+02201+02001999999ADDGA1071+005181999GA2071+030481999GE19MSL   +99999+99999GF199999071999005181999999MA1101601999999REMMET058METAR SBKG 310900Z 10006KT 9999 BKN017 BKN100 22/20 Q1016=
0165827950999992017013110004-07270-035896FM-15+050299999V0201201N004610054919N009999199+02301+02001999999ADDGA1041+004571999GA2071+005491999GE19MSL   +99999+99999GF199999041999004571999999MA1101601999999REMMET058METAR SBKG 311000Z 12009KT 9999 SCT015 BKN018 23/20 Q1016=
0165827950999992017013111004-07270-035896FM-15+050299999V0201201N005710061019N009999199+02501+02001999999ADDGA1041+005491999GA2071+006101999GE19MSL   +99999+99999GF199999041999005491999999MA1101701999999REMMET058METAR SBKG 311100Z 12011KT 9999 SCT018 BKN020 25/20 Q1017=
0165827950999992017013112004-07220-035880FM-12+054899999V0201401N0041199999999010000199+02521+02011101531ADDAA101999999AZ101061AZ201061GA1031+006001081GA2999+999999031GE19MSL   +99999+99999GF105991031999006001999999KA1120N+02081MA1999999095391MD1999999+0041REMSYN004BUFR
0142827950999992017013113004-07270-035896FM-15+050299999V0201301N005110121919N009999199+02901+01801999999ADDGA1071+012191999GE19MSL   +99999+99999GF199999071999012191999999MA1101601999999REMMET051METAR SBKG 311300Z 13010KT 9999 BKN040 29/18 Q1016=
0142827950999992017013114004-07270-035896FM-15+050299999V0201301N005119999999N009999199+03001+01801999999ADDGA1041+013111999GE19MSL   +99999+99999GF199999041999013111999999MA1101601999999REMMET051METAR SBKG 311400Z 13010KT 9999 SCT043 30/18 Q1016=
0142827950999992017013115004-07270-035896FM-15+050299999V0201201N005719999999N009999199+03101+01801999999ADDGA1041+013721999GE19MSL   +99999+99999GF199999041999013721999999MA1101501999999REMMET051METAR SBKG 311500Z 12011KT 9999 SCT045 31/18 Q1015=
0080827950999992017013116004-07270-035896FM-15+050299999V0201001V007219999999Y999999999+03001+01801999999ADDMA1101401999999REMMET053METAR SBKG 311600Z 10014KT 070V140 CAVOK 30/18 Q1014=
0150827950999992017013117004-07270-035896FM-15+050299999V0200801V006719999999N009999199+03001+01901999999ADDGA1041+014631999GE19MSL   +99999+99999GF199999041999014631999999MA1101301999999REMMET059METAR SBKG 311700Z 08013KT 040V130 9999 SCT048 30/19 Q1013=
0152827950999992017013118004-07220-035880FM-12+054899999V0200901N0051100600199010000199+02851+02011101141ADDAA101999999AZ101061AZ201061GA1051+006001081GA2999+999999031GE19MSL   +99999+99999GF107991051999006001999999MA1999999095031MD1999999+0051REMSYN004BUFR
0199827950999992017013118004-07270-035896FM-15+050299999V0201001V007710304819N009999199+02901+02001999999ADDGA1041+011281999GA2021+012191081GA3071+030481999GE19MSL   +99999+99999GF199999041999011281999999MA1101301999999REMMET076METAR SBKG 311800Z 10015KT 070V130 9999 SCT037 FEW040TCU BKN100 29/20 Q1013=
0173827950999992017013119004-07270-035896FM-15+050299999V0200801V005110304819N009999199+02901+02001999999ADDGA1041+010061999GA2071+030481999GE19MSL   +99999+99999GF199999041999010061999999MA1101301999999REMMET066METAR SBKG 311900Z 08010KT 050V110 9999 SCT033 BKN100 29/20 Q1013=
0173827950999992017013120004-07270-035896FM-15+050299999V0200801V008810304819N009999199+02801+02001999999ADDGA1021+003961999GA2071+030481999GE19MSL   +99999+99999GF199999021999003961999999MA1101301999999REMMET066METAR SBKG 312000Z 08017KT 040V110 9999 FEW013 BKN100 28/20 Q1013=
0165827950999992017013120454-07270-035896FM-16+050299999V0200801N008810304819N009999199+02701+02001999999ADDGA1021+009751999GA2071+030481999GE19MSL   +99999+99999GF199999021999009751999999MA1101301999999REMMET058SPECI SBKG 312045Z 08017KT 9999 FEW032 BKN100 27/20 Q1013=
0136827950999992017020100004-07220-035880FM-12+054899999V0200901N0041100600199001000199+02321+02031101431ADDAA101999999AZ101061AZ201061GA1051+006001081GE19MSL   +99999+99999GF105991051999006001999999MA1999999095291MD1999999-0091REMSYN004BUFR
0165827950999992017020103154-07270-035896FM-16+050299999V0201001N004610030519N009999199+02301+02101999999ADDGA1041+002131999GA2071+003051999GE19MSL   +99999+99999GF199999041999002131999999MA1101401999999REMMET058SPECI SBKG 010315Z 10009KT 9999 SCT007 BKN010 23/21 Q1014=
0165827950999992017020104004-07270-035896FM-15+050299999V0201101N004110030519N009999199+02301+02101999999ADDGA1041+002131999GA2071+003051999GE19MSL   +99999+99999GF199999041999002131999999MA1101401999999REMMET058METAR SBKG 010400Z 11008KT 9999 SCT007 BKN010 23/21 Q1014=
0165827950999992017020105004-07270-035896FM-15+050299999V0200901N002610030519N009999199+02201+02101999999ADDGA1041+002131999GA2071+003051999GE19MSL   +99999+99999GF199999041999002131999999MA1101401999999REMMET058METAR SBKG 010500Z 09005KT 9999 SCT007 BKN010 22/21 Q1014=
0165827950999992017020106004-07270-035896FM-15+050299999V0201301N001510030519N009999199+02201+02001999999ADDGA1041+002131999GA2071+003051999GE19MSL   +99999+99999GF199999041999002131999999MA1101301999999REMMET058METAR SBKG 010600Z 13003KT 9999 SCT007 BKN010 22/20 Q1013=
0165827950999992017020108004-07270-035896FM-15+050299999V0201001N002110045719N009999199+02201+02001999999ADDGA1041+003961999GA2071+004571999GE19MSL   +99999+99999GF199999041999003961999999MA1101401999999REMMET058METAR SBKG 010800Z 10004KT 9999 SCT013 BKN015 22/20 Q1014=
0165827950999992017020109004-07270-035896FM-15+050299999V0201101N002610054919N009999199+02201+02001999999ADDGA1041+004571999GA2071+005491999GE19MSL   +99999+99999GF199999041999004571999999MA1101501999999REMMET058METAR SBKG 010900Z 11005KT 9999 SCT015 BKN018 22/20 Q1015=
0173827950999992017020110004-07270-035896FM-15+050299999V0201301V00311012801CN009999199+02401+02001999999ADDGA1041+003661999GA2041+012801999GE19MSL   +99999+99999GF199999041999003661999999MA1101501999999REMMET066METAR SBKG 011000Z 13006KT 090V160 9999 SCT012 SCT042 24/20 Q1015=
0165827950999992017020112004-07220-035880FM-12+054899999V0200901N0026100600199010000199+02471+02161101491ADDAA101999999AZ101061AZ201061GA1061+006001081GA2999+999999031GE19MSL   +99999+99999GF107991061999006001999999KA1120N+02071MA1999999095351MD1999999-0041REMSYN004BUFR
0176827950999992017020112004-07270-035896FM-15+050299999V0201101V005110048819N009999199+02501+02101999999ADDGA1071+004881999GA2021+006711081GE19MSL   +99999+99999GF199999071999004881999999MA1101601999999REMMET069METAR SBKG 011200Z 11010KT 090V150 9999 BKN016 FEW022TCU 25/21 Q1016=
0150827950999992017020113004-07270-035896FM-15+050299999V0201101V004110070119N009999199+02701+02001999999ADDGA1071+007011999GE19MSL   +99999+99999GF199999071999007011999999MA1101601999999REMMET059METAR SBKG 011300Z 11008KT 090V150 9999 BKN023 27/20 Q1016=
0150827950999992017020114004-07270-035896FM-15+050299999V0200901V005110100619N009999199+02801+02001999999ADDGA1071+010061999GE19MSL   +99999+99999GF199999071999010061999999MA1101501999999REMMET059METAR SBKG 011400Z 09010KT 070V130 9999 BKN033 28/20 Q1015=
0142827950999992017020116004-07270-035896FM-15+050299999V0200801N006219999999N009999199+03201+01901999999ADDGA1041+012191999GE19MSL   +99999+99999GF199999041999012191999999MA1101301999999REMMET051METAR SBKG 011600Z 08012KT 9999 SCT040 32/19 Q1013=
0142827950999992017020117004-07270-035896FM-15+050299999V0201001N006719999999N009999199+03201+01901999999ADDGA1041+012191999GE19MSL   +99999+99999GF199999041999012191999999MA1101301999999REMMET051METAR SBKG 011700Z 10013KT 9999 SCT040 32/19 Q1013=
0136827950999992017020118004-07220-035880FM-12+054899999V0200901N0041100600199010000199+03001+01841101051ADDAA101999999AZ101061AZ201061GA1051+006001081GE19MSL   +99999+99999GF105991051999006001999999MA1999999094971MD1999999-0061REMSYN004BUFR
0142827950999992017020119004-07270-035896FM-15+050299999V0201001N007719999999N009999199+03001+01901999999ADDGA1041+012191999GE19MSL   +99999+99999GF199999041999012191999999MA1101201999999REMMET051METAR SBKG 011900Z 10015KT 9999 SCT040 30/19 Q1012=
0142827950999992017020120004-07270-035896FM-15+050299999V0201001N007719999999N009999199+02901+02001999999ADDGA1021+009141999GE19MSL   +99999+99999GF199999021999009141999999MA1101301999999REMMET051METAR SBKG 012000Z 10015KT 9999 FEW030 29/20 Q1013=
0142827950999992017020120454-07270-035896FM-16+050299999V0200901N007719999999N009999199+02801+02001999999ADDGA1021+009141999GE19MSL   +99999+99999GF199999021999009141999999MA1101301999999REMMET051SPECI SBKG 012045Z 09015KT 9999 FEW030 28/20 Q1013=
0136827950999992017020200004-07220-035880FM-12+054899999V0200901N0031100600199010000199+02301+02031101371ADDAA101999999AZ101061AZ201061GA1061+006001081GE19MSL   +99999+99999GF106991061999006001999999MA1999999095231MD1999999-0061REMSYN004BUFR
0165827950999992017020203154-07270-035896FM-16+050299999V0201001N004610024419N009999199+02301+02101999999ADDGA1071+002441999GA2071+004571999GE19MSL   +99999+99999GF199999071999002441999999MA1101401999999REMMET058SPECI SBKG 020315Z 10009KT 9999 BKN008 BKN015 23/21 Q1014=
0165827950999992017020204004-07270-035896FM-15+050299999V0201101N004610021319N009999199+02301+02101999999ADDGA1071+002131999GA2071+003051999GE19MSL   +99999+99999GF199999071999002131999999MA1101401999999REMMET058METAR SBKG 020400Z 11009KT 9999 BKN007 BKN010 23/21 Q1014=
0165827950999992017020205004-07270-035896FM-15+050299999V0200901N004610021319N009999199+02301+02101999999ADDGA1071+002131999GA2071+003051999GE19MSL   +99999+99999GF199999071999002131999999MA1101301999999REMMET058METAR SBKG 020500Z 09009KT 9999 BKN007 BKN010 23/21 Q1013=
0165827950999992017020207004-07270-035896FM-15+050299999V0200901N004610015219N009999199+02201+02101999999ADDGA1071+001521999GA2071+004271999GE19MSL   +99999+99999GF199999071999001521999999MA1101301999999REMMET058METAR SBKG 020700Z 09009KT 9999 BKN005 BKN014 22/21 Q1013=
0165827950999992017020208004-07270-035896FM-15+050299999V0201001N005110015219N009999199+02301+02101999999ADDGA1071+001521999GA2071+004271999GE19MSL   +99999+99999GF199999071999001521999999MA1101401999999REMMET058METAR SBKG 020800Z 10010KT 9999 BKN005 BKN014 23/21 Q1014=
0165827950999992017020209004-07270-035896FM-15+050299999V0200901N004610030519N009999199+02301+02101999999ADDGA1041+001831999GA2071+003051999GE19MSL   +99999+99999GF199999041999001831999999MA1101401999999REMMET058METAR SBKG 020900Z 09009KT 9999 SCT006 BKN010 23/21 Q1014=
0165827950999992017020210004-07270-035896FM-15+050299999V0201001N006210036619N009999199+02301+02201999999ADDGA1021+001831999GA2071+003661999GE19MSL   +99999+99999GF199999021999001831999999MA1101501999999REMMET058METAR SBKG 021000Z 10012KT 9999 FEW006 BKN012 23/22 Q1015=
0142827950999992017020211004-07270-035896FM-15+050299999V0200901N005710045719N009999199+02501+02101999999ADDGA1071+004571999GE19MSL   +99999+99999GF199999071999004571999999MA1101501999999REMMET051METAR SBKG 021100Z 09011KT 9999 BKN015 25/21 Q1015=
0165827950999992017020212004-07220-035880FM-12+054899999V0200901N0041199999999010000199+02521+02061101371ADDAA101999999AZ101061AZ201061GA1021+006001081GA2999+999999001GE19MSL   +99999+99999GF105991021999006001999999KA1120N+02101MA1999999095231MD1999999-0121REMSYN004BUFR
0142827950999992017020213004-07270-035896FM-15+050299999V0201201N006210082319N009999199+02801+01901999999ADDGA1071+008231999GE19MSL   +99999+99999GF199999071999008231999999MA1101501999999REMMET051METAR SBKG 021300Z 12012KT 9999 BKN027 28/19 Q1015=
0153827950999992017020214004-07270-035896FM-15+050299999V0201201N006210121919N009999199+02901+01901999999ADDGA1071+012191999GE19MSL   +99999+99999GF199999071999012191999999MA1101401999999OC101181REMMET054METAR SBKG 021400Z 12012G23KT 9999 BKN040 29/19 Q1014=
0142827950999992017020215004-07270-035896FM-15+050299999V0201101N007210121919N009999199+03201+01801999999ADDGA1071+012191999GE19MSL   +99999+99999GF199999071999012191999999MA1101401999999REMMET051METAR SBKG 021500Z 11014KT 9999 BKN040 32/18 Q1014=
0142827950999992017020216004-07270-035896FM-15+050299999V0201101N007719999999N009999199+03201+01801999999ADDGA1041+012191999GE19MSL   +99999+99999GF199999041999012191999999MA1101301999999REMMET051METAR SBKG 021600Z 11015KT 9999 SCT040 32/18 Q1013=
0136827950999992017020218004-07220-035880FM-12+054899999V0200901N0046199999999010000199+03051+01921100971ADDAA101999999AZ101061AZ201061GA1041+006001081GE19MSL   +99999+99999GF104991041999006001999999MA1999999094901MD1999999-0071REMSYN004BUFR
0150827950999992017020218004-07270-035896FM-15+050299999V0200901V007719999999N009999199+03201+01901999999ADDGA1041+012191999GE19MSL   +99999+99999GF199999041999012191999999MA1101201999999REMMET059METAR SBKG 021800Z 09015KT 050V130 9999 SCT040 32/19 Q1012=
0142827950999992017020220004-07270-035896FM-15+050299999V0200901N008219999999N009999199+02901+01901999999ADDGA1021+009141999GE19MSL   +99999+99999GF199999021999009141999999MA1101301999999REMMET051METAR SBKG 022000Z 09016KT 9999 FEW030 29/19 Q1013=
0072827950999992017020220454-07270-035896FM-16+050299999V0200901N007719999999Y999999999+02701+01901999999ADDMA1101301999999REMMET045SPECI SBKG 022045Z 09015KT CAVOK 27/19 Q1013=
0136827950999992017020300004-07220-035880FM-12+054899999V0200901N0041199999999001000199+02321+02071101391ADDAA101999999AZ101061AZ201061GA1021+006001081GE19MSL   +99999+99999GF102991021999006001999999MA1999999095251MD1999999+0021REMSYN004BUFR
0142827950999992017020303154-07270-035896FM-16+050299999V0201001N005110027419N009999199+02301+02101999999ADDGA1071+002741999GE19MSL   +99999+99999GF199999071999002741999999MA1101501999999REMMET051SPECI SBKG 030315Z 10010KT 9999 BKN009 23/21 Q1015=
0142827950999992017020304004-07270-035896FM-15+050299999V0201001N005710030519N009999199+02201+02101999999ADDGA1071+003051999GE19MSL   +99999+99999GF199999071999003051999999MA1101401999999REMMET051METAR SBKG 030400Z 10011KT 9999 BKN010 22/21 Q1014=
0142827950999992017020305004-07270-035896FM-15+050299999V0201101N004610030519N009999199+02201+02101999999ADDGA1071+003051999GE19MSL   +99999+99999GF199999071999003051999999MA1101401999999REMMET051METAR SBKG 030500Z 11009KT 9999 BKN010 22/21 Q1014=
0142827950999992017020306004-07270-035896FM-15+050299999V0201101N004110024419N009999199+02201+02101999999ADDGA1071+002441999GE19MSL   +99999+99999GF199999071999002441999999MA1101401999999REMMET051METAR SBKG 030600Z 11008KT 9999 BKN008 22/21 Q1014=
0165827950999992017020307004-07270-035896FM-15+050299999V0201101N00311004571CN009999199+02201+02101999999ADDGA1041+002131999GA2041+004571999GE19MSL   +99999+99999GF199999041999002131999999MA1101401999999REMMET058METAR SBKG 030700Z 11006KT 9999 SCT007 SCT015 22/21 Q1014=
0142827950999992017020308004-07270-035896FM-15+050299999V0201001N002619999999N009999199+02201+02001999999ADDGA1041+003051999GE19MSL   +99999+99999GF199999041999003051999999MA1101401999999REMMET051METAR SBKG 030800Z 10005KT 9999 SCT010 22/20 Q1014=
0142827950999992017020309004-07270-035896FM-15+050299999V0201001N003119999999N009999199+02201+02101999999ADDGA1041+004571999GE19MSL   +99999+99999GF199999041999004571999999MA1101501999999REMMET051METAR SBKG 030900Z 10006KT 9999 SCT015 22/21 Q1015=
0142827950999992017020310004-07270-035896FM-15+050299999V0201101N004110054919N009999199+02301+02101999999ADDGA1071+005491999GE19MSL   +99999+99999GF199999071999005491999999MA1101601999999REMMET051METAR SBKG 031000Z 11008KT 9999 BKN018 23/21 Q1016=
0142827950999992017020311004-07270-035896FM-15+050299999V0201101N006219999999N009999199+02401+02001999999ADDGA1041+006101999GE19MSL   +99999+99999GF199999041999006101999999MA1101601999999REMMET051METAR SBKG 031100Z 11012KT 9999 SCT020 24/20 Q1016=
0149827950999992017020312004-07220-035880FM-12+054899999V0200901N0036100600199010000199+02571+01981101461ADDAA101999999AZ101061AZ201061GA1051+006001081GE19MSL   +99999+99999GF105991051999006001999999KA1120N+02081MA1999999095321MD1999999+0091REMSYN004BUFR
0142827950999992017020313004-07270-035896FM-15+050299999V0200901N007219999999N009999199+02701+01801999999ADDGA1041+009141999GE19MSL   +99999+99999GF199999041999009141999999MA1101601999999REMMET051METAR SBKG 031300Z 09014KT 9999 SCT030 27/18 Q1016=
0142827950999992017020314004-07270-035896FM-15+050299999V0201001N006719999999N009999199+02901+01601999999ADDGA1041+012191999GE19MSL   +99999+99999GF199999041999012191999999MA1101501999999REMMET051METAR SBKG 031400Z 10013KT 9999 SCT040 29/16 Q1015=
0142827950999992017020315004-07270-035896FM-15+050299999V0201001N006719999999N009999199+03001+01701999999ADDGA1041+012191999GE19MSL   +99999+99999GF199999041999012191999999MA1101401999999REMMET051METAR SBKG 031500Z 10013KT 9999 SCT040 30/17 Q1014=
0136827950999992017020318004-07220-035880FM-12+054899999V0200901N0041100600199010000199+03051+01851101041ADDAA101999999AZ101061AZ201061GA1061+006001081GE19MSL   +99999+99999GF106991061999006001999999MA1999999094961MD1999999+0061REMSYN004BUFR
0142827950999992017020318004-07270-035896FM-15+050299999V0200901N007710140219N009999199+03101+01801999999ADDGA1071+014021999GE19MSL   +99999+99999GF199999071999014021999999MA1101201999999REMMET051METAR SBKG 031800Z 09015KT 9999 BKN046 31/18 Q1012=
0072827950999992017020319004-07270-035896FM-15+050299999V0201001N007719999999Y999999999+03101+01801999999ADDMA1101201999999REMMET045METAR SBKG 031900Z 10015KT CAVOK 31/18 Q1012=
0072827950999992017020320004-07270-035896FM-15+050299999V0200801N007719999999Y999999999+02901+01801999999ADDMA1101301999999REMMET045METAR SBKG 032000Z 08015KT CAVOK 29/18 Q1013=
0072827950999992017020320454-07270-035896FM-16+050299999V0200901N008219999999Y999999999+02801+01801999999ADDMA1101301999999REMMET045SPECI SBKG 032045Z 09016KT CAVOK 28/18 Q1013=
0142827950999992017020403154-07270-035896FM-16+050299999V0201001N005119999999N009999199+02201+02001999999ADDGA1041+003051999GE19MSL   +99999+99999GF199999041999003051999999MA1101501999999REMMET051SPECI SBKG 040315Z 10010KT 9999 SCT010 22/20 Q1015=
0142827950999992017020404004-07270-035896FM-15+050299999V0201001N004119999999N009999199+02201+02001999999ADDGA1041+003051999GE19MSL   +99999+99999GF199999041999003051999999MA1101501999999REMMET051METAR SBKG 040400Z 10008KT 9999 SCT010 22/20 Q1015=
0142827950999992017020406004-07270-035896FM-15+050299999V0200901N003619999999N009999199+02101+02001999999ADDGA1041+003051999GE19MSL   +99999+99999GF199999041999003051999999MA1101501999999REMMET051METAR SBKG 040600Z 09007KT 9999 SCT010 21/20 Q1015=
0142827950999992017020407004-07270-035896FM-15+050299999V0200901N002619999999N009999199+02101+02001999999ADDGA1041+004571999GE19MSL   +99999+99999GF199999041999004571999999MA1101501999999REMMET051METAR SBKG 040700Z 09005KT 9999 SCT015 21/20 Q1015=
0142827950999992017020408004-07270-035896FM-15+050299999V0200701N002619999999N009999199+02101+02001999999ADDGA1021+004571999GE19MSL   +99999+99999GF199999021999004571999999MA1101501999999REMMET051METAR SBKG 040800Z 07005KT 9999 FEW015 21/20 Q1015=
0142827950999992017020409004-07270-035896FM-15+050299999V0200901N002119999999N009999199+02101+02001999999ADDGA1021+005491999GE19MSL   +99999+99999GF199999021999005491999999MA1101501999999REMMET051METAR SBKG 040900Z 09004KT 9999 FEW018 21/20 Q1015=
0072827950999992017020410004-07270-035896FM-15+050299999V0201001N003619999999Y999999999+02301+02001999999ADDMA1101601999999REMMET045METAR SBKG 041000Z 10007KT CAVOK 23/20 Q1016=
0142827950999992017020411004-07270-035896FM-15+050299999V0201001N004610057919N009999199+02401+02001999999ADDGA1071+005791999GE19MSL   +99999+99999GF199999071999005791999999MA1101601999999REMMET051METAR SBKG 041100Z 10009KT 9999 BKN019 24/20 Q1016=
0165827950999992017020412004-07220-035880FM-12+054899999V0200901N0036199999999010000199+02471+02041101471ADDAA101999999AZ101061AZ201061GA1041+006001081GA2999+999999001GE19MSL   +99999+99999GF106991041999006001999999KA1120N+02041MA1999999095331MD1999999+0011REMSYN004BUFR
0142827950999992017020412004-07270-035896FM-15+050299999V0201101N006210085319N009999199+02701+01901999999ADDGA1071+008531999GE19MSL   +99999+99999GF199999071999008531999999MA1101601999999REMMET051METAR SBKG 041200Z 11012KT 9999 BKN028 27/19 Q1016=
0142827950999992017020414004-07270-035896FM-15+050299999V0201301N006719999999N009999199+03001+01601999999ADDGA1041+013111999GE19MSL   +99999+99999GF199999041999013111999999MA1101401999999REMMET051METAR SBKG 041400Z 13013KT 9999 SCT043 30/16 Q1014=
0072827950999992017020415004-07270-035896FM-15+050299999V0201401N006719999999Y999999999+03001+01601999999ADDMA1101401999999REMMET045METAR SBKG 041500Z 14013KT CAVOK 30/16 Q1014=
0136827950999992017020418004-07220-035880FM-12+054899999V0201401N0036199999999010000199+03101+01721100921ADDAA101999999AZ101061AZ201061GA1031+006001081GE19MSL   +99999+99999GF104991031999006001999999MA1999999094851MD1999999-0111REMSYN004BUFR
0091827950999992017020418004-07270-035896FM-15+050299999V0201101V005719999999Y999999999+03201+01701999999ADDMA1101101999999OC101081REMMET056METAR SBKG 041800Z 11011G21KT 070V160 CAVOK 32/17 Q1011=
0080827950999992017020419004-07270-035896FM-15+050299999V0200801V006219999999Y999999999+03201+01801999999ADDMA1101101999999REMMET053METAR SBKG 041900Z 08012KT 050V120 CAVOK 32/18 Q1011=
0072827950999992017020420004-07270-035896FM-15+050299999V0200801N007719999999Y999999999+03001+01901999999ADDMA1101201999999REMMET045METAR SBKG 042000Z 08015KT CAVOK 30/19 Q1012=
0072827950999992017020420454-07270-035896FM-16+050299999V0201001N008219999999Y999999999+02801+01901999999ADDMA1101201999999REMMET045SPECI SBKG 042045Z 10016KT CAVOK 28/19 Q1012=
0136827950999992017020500004-07220-035880FM-12+054899999V0201401N0041199999999001000199+02351+02031101331ADDAA101999999AZ101061AZ201061GA1021+006001081GE19MSL   +99999+99999GF102991021999006001999999MA1999999095201MD1999999-0051REMSYN004BUFR
0142827950999992017020504004-07270-035896FM-15+050299999V0201101N004619999999N009999199+02201+02001999999ADDGA1021+003351999GE19MSL   +99999+99999GF199999021999003351999999MA1101401999999REMMET051METAR SBKG 050400Z 11009KT 9999 FEW011 22/20 Q1014=
0072827950999992017020505004-07270-035896FM-15+050299999V0201001N002619999999Y999999999+02101+02001999999ADDMA1101301999999REMMET045METAR SBKG 050500Z 10005KT CAVOK 21/20 Q1013=
0165827950999992017020512004-07220-035880FM-12+054899999V0201401N0031199999999010000199+02551+02191101341ADDAA101999999AZ101061AZ201061GA1041+006001081GA2999+999999001GE19MSL   +99999+99999GF105991041999006001999999KA1120N+02051MA1999999095221MD1999999-0111REMSYN004BUFR
0136827950999992017020518004-07220-035880FM-12+054899999V0201401N0036199999999010000199+03121+01681100911ADDAA101999999AZ101061AZ201061GA1021+006001061GE19MSL   +99999+99999GF102991021999006001999999MA1999999094851MD1999999+0001REMSYN004BUFR
0142827950999992017020520454-07270-035896FM-16+050299999V0200801N009319999999N009999199+02801+01901999999ADDGA1021+012191999GE19MSL   +99999+99999GF199999021999012191999999MA1101201999999REMMET051SPECI SBKG 052045Z 08018KT 9999 FEW040 28/19 Q1012=
0136827950999992017020600004-07220-035880FM-12+054899999V0201401N0041199999999001000199+02351+01981101311ADDAA101999999AZ101061AZ201061GA1031+006001081GE19MSL   +99999+99999GF103991031999006001999999MA1999999095191MD1999999-0011REMSYN004BUFR
0165827950999992017020603154-07270-035896FM-16+050299999V0200901N004610039619N009999199+02301+02101999999ADDGA1041+003051999GA2071+003961999GE19MSL   +99999+99999GF199999041999003051999999MA1101301999999REMMET058SPECI SBKG 060315Z 09009KT 9999 SCT010 BKN013 23/21 Q1013=
0149827950999992017020612004-07220-035880FM-12+054899999V0201401N0036100600199010000199+02551+01981101351ADDAA101999999AZ101061AZ201061GA1051+006001081GE19MSL   +99999+99999GF105991051999006001999999KA1120N+02081MA1999999095231MD1999999+0111REMSYN004BUFR
0136827950999992017020618004-07220-035880FM-12+054899999V0201401N0041199999999010000199+03101+01701100901ADDAA101999999AZ101061AZ201061GA1021+006001081GE19MSL   +99999+99999GF102991021999006001999999MA1999999094841MD1999999-0011REMSYN004BUFR
0072827950999992017020620454-07270-035896FM-16+050299999V0200901N007719999999Y999999999+02801+01901999999ADDMA1101201999999REMMET045SPECI SBKG 062045Z 09015KT CAVOK 28/19 Q1012=
0136827950999992017020700004-07220-035880FM-12+054899999V0201401N0041199999999001000199+02311+02041101271ADDAA101999999AZ101061AZ201061GA1031+006001081GE19MSL   +99999+99999GF103991031999006001999999MA1999999095141MD1999999-0051REMSYN004BUFR
0142827950999992017020703154-07270-035896FM-16+050299999V0201101N004119999999N009999199+02201+02001999999ADDGA1041+002741999GE19MSL   +99999+99999GF199999041999002741999999MA1101301999999REMMET051SPECI SBKG 070315Z 11008KT 9999 SCT009 22/20 Q1013=
0142827950999992017020710004-07270-035896FM-15+050299999V0201101N003619999999N009999199+02301+02001999999ADDGA1041+003051999GE19MSL   +99999+99999GF199999041999003051999999MA1101401999999REMMET051METAR SBKG 071000Z 11007KT 9999 SCT010 23/20 Q1014=
0142827950999992017020711004-07270-035896FM-15+050299999V0201101N005110045719N009999199+02501+01901999999ADDGA1071+004571999GE19MSL   +99999+99999GF199999071999004571999999MA1101401999999REMMET051METAR SBKG 071100Z 11010KT 9999 BKN015 25/19 Q1014=
0149827950999992017020712004-07220-035880FM-12+054799999V0201401N0036100600199010000199+02501+02001101321ADDAA101999999AZ101061AZ201061GA1051+006001081GE19MSL   +99999+99999GF105991051999006001999999KA1120N+02041MA1999999095191MD1999999-0041REMSYN004BUFR
0142827950999992017020713004-07270-035896FM-15+050299999V0201101N004610082319N009999199+02801+01901999999ADDGA1071+008231999GE19MSL   +99999+99999GF199999071999008231999999MA1101401999999REMMET051METAR SBKG 071300Z 11009KT 9999 BKN027 28/19 Q1014=
0142827950999992017020714004-07270-035896FM-15+050299999V0200701N005110091419N009999199+02801+01801999999ADDGA1071+009141999GE19MSL   +99999+99999GF199999071999009141999999MA1101401999999REMMET051METAR SBKG 071400Z 07010KT 9999 BKN030 28/18 Q1014=
0072827950999992017020716004-07270-035896FM-15+050299999V0200801N004619999999Y999999999+03101+01801999999ADDMA1101201999999REMMET045METAR SBKG 071600Z 08009KT CAVOK 31/18 Q1012=
0072827950999992017020717004-07270-035896FM-15+050299999V0201001N005119999999Y999999999+03201+01701999999ADDMA1101101999999REMMET045METAR SBKG 071700Z 10010KT CAVOK 32/17 Q1011=
0136827950999992017020718004-07220-035880FM-12+054799999V0201401N0041199999999010000199+03001+01671100841ADDAA101999999AZ101061AZ201061GA1021+006001081GE19MSL   +99999+99999GF102991021999006001999999MA1999999094761MD1999999-0081REMSYN004BUFR
0072827950999992017020719004-07270-035896FM-15+050299999V0200801N005719999999Y999999999+03201+01801999999ADDMA1101101999999REMMET045METAR SBKG 071900Z 08011KT CAVOK 32/18 Q1011=
0072827950999992017020720004-07270-035896FM-15+050299999V0200801N006719999999Y999999999+03101+01801999999ADDMA1101001999999REMMET045METAR SBKG 072000Z 08013KT CAVOK 31/18 Q1010=
0136827950999992017020800004-07220-035880FM-12+054799999V0200901N0041199999999001000199+02321+01981101211ADDAA101999999AZ101061AZ201061GA1021+006001081GE19MSL   +99999+99999GF102991021999006001999999MA1999999095091MD1999999-0051REMSYN004BUFR
0142827950999992017020804004-07270-035896FM-15+050299999V0201001N004610036619N009999199+02201+02101999999ADDGA1071+003661999GE19MSL   +99999+99999GF199999071999003661999999MA1101301999999REMMET051METAR SBKG 080400Z 10009KT 9999 BKN012 22/21 Q1013=
0142827950999992017020806004-07270-035896FM-15+050299999V0200801N002610030519N009999199+02201+02001999999ADDGA1071+003051999GE19MSL   +99999+99999GF199999071999003051999999MA1101301999999REMMET051METAR SBKG 080600Z 08005KT 9999 BKN010 22/20 Q1013=
0142827950999992017020807004-07270-035896FM-15+050299999V0201001N002110024419N009999199+02201+02001999999ADDGA1071+002441999GE19MSL   +99999+99999GF199999071999002441999999MA1101301999999REMMET051METAR SBKG 080700Z 10004KT 9999 BKN008 22/20 Q1013=
0142827950999992017020808004-07270-035896FM-15+050299999V0200701N003110021319N009999199+02101+02001999999ADDGA1071+002131999GE19MSL   +99999+99999GF199999071999002131999999MA1101301999999REMMET051METAR SBKG 080800Z 07006KT 9999 BKN007 21/20 Q1013=
0165827950999992017020809004-07270-035896FM-15+050299999V0200901N00261004571CN009999199+02101+02001999999ADDGA1041+002131999GA2041+004571999GE19MSL   +99999+99999GF199999041999002131999999MA1101301999999REMMET058METAR SBKG 080900Z 09005KT 9999 SCT007 SCT015 21/20 Q1013=
0142827950999992017020810004-07270-035896FM-15+050299999V0201101N003619999999N009999199+02301+02001999999ADDGA1041+004571999GE19MSL   +99999+99999GF199999041999004571999999MA1101401999999REMMET051METAR SBKG 081000Z 11007KT 9999 SCT015 23/20 Q1014=
0149827950999992017020812004-07220-035880FM-12+054799999V0200901N0036199999999010000199+02571+02051101281ADDAA101999999AZ101061AZ201061GA1041+006001081GE19MSL   +99999+99999GF104991041999006001999999KA1120N+02081MA1999999095161MD1999999-0031REMSYN004BUFR
0142827950999992017020812004-07270-035896FM-15+050299999V0201001N005119999999N009999199+02601+01901999999ADDGA1041+007621999GE19MSL   +99999+99999GF199999041999007621999999MA1101401999999REMMET051METAR SBKG 081200Z 10010KT 9999 SCT025 26/19 Q1014=
0142827950999992017020813004-07270-035896FM-15+050299999V0201001N005119999999N009999199+02801+01801999999ADDGA1041+009141999GE19MSL   +99999+99999GF199999041999009141999999MA1101401999999REMMET051METAR SBKG 081300Z 10010KT 9999 SCT030 28/18 Q1014=
0150827950999992017020814004-07270-035896FM-15+050299999V0200701V004619999999N009999199+02801+01801999999ADDGA1041+012191999GE19MSL   +99999+99999GF199999041999012191999999MA1101401999999REMMET059METAR SBKG 081400Z 07009KT 040V120 9999 SCT040 28/18 Q1014=
0142827950999992017020815004-07270-035896FM-15+050299999V0201301N004119999999N009999199+03101+01801999999ADDGA1041+012191999GE19MSL   +99999+99999GF199999041999012191999999MA1101301999999REMMET051METAR SBKG 081500Z 13008KT 9999 SCT040 31/18 Q1013=
0072827950999992017020817004-07270-035896FM-15+050299999V0200701N006219999999Y999999999+03201+01701999999ADDMA1101101999999REMMET045METAR SBKG 081700Z 07012KT CAVOK 32/17 Q1011=
0136827950999992017020818004-07220-035880FM-12+054799999V0200901N0036199999999010000199+03051+01761100881ADDAA101999999AZ101061AZ201061GA1041+006001081GE19MSL   +99999+99999GF104991041999006001999999MA1999999094811MD1999999+0051REMSYN004BUFR
0072827950999992017020818004-07270-035896FM-15+050299999V0201001N006219999999Y999999999+03201+01701999999ADDMA1101101999999REMMET045METAR SBKG 081800Z 10012KT CAVOK 32/17 Q1011=
0072827950999992017020820004-07270-035896FM-15+050299999V0200801N008819999999Y999999999+03001+01701999999ADDMA1101001999999REMMET045METAR SBKG 082000Z 08017KT CAVOK 30/17 Q1010=
0136827950999992017020900004-07220-035880FM-12+054799999V0200901N0036199999999001000199+02371+02071101211ADDAA101999999AZ101061AZ201061GA1021+006001081GE19MSL   +99999+99999GF102991021999006001999999MA1999999095101MD1999999+0011REMSYN004BUFR
0142827950999992017020904004-07270-035896FM-15+050299999V0200801N002619999999N009999199+02301+02101999999ADDGA1041+004571999GE19MSL   +99999+99999GF199999041999004571999999MA1101401999999REMMET051METAR SBKG 090400Z 08005KT 9999 SCT015 23/21 Q1014=
0142827950999992017020906004-07270-035896FM-15+050299999V0200801N002610045719N009999199+02301+02101999999ADDGA1071+004571999GE19MSL   +99999+99999GF199999071999004571999999MA1101301999999REMMET051METAR SBKG 090600Z 08005KT 9999 BKN015 23/21 Q1013=
0142827950999992017020908004-07270-035896FM-15+050299999V0200701N003110045719N009999199+02301+02201999999ADDGA1071+004571999GE19MSL   +99999+99999GF199999071999004571999999MA1101301999999REMMET051METAR SBKG 090800Z 07006KT 9999 BKN015 23/22 Q1013=
0165827950999992017020909004-07270-035896FM-15+050299999V0200701N002610045719N009999199+02301+02101999999ADDGA1041+003051999GA2071+004571999GE19MSL   +99999+99999GF199999041999003051999999MA1101401999999REMMET058METAR SBKG 090900Z 07005KT 9999 SCT010 BKN015 23/21 Q1014=
0165827950999992017020911004-07270-035896FM-15+050299999V0200801N004610061019N009999199+02501+02101999999ADDGA1041+005181999GA2071+006101999GE19MSL   +99999+99999GF199999041999005181999999MA1101501999999REMMET058METAR SBKG 091100Z 08009KT 9999 SCT017 BKN020 25/21 Q1015=
0149827950999992017020912004-07220-035880FM-12+054799999V0200901N0036199999999010000199+02601+01991101341ADDAA101999999AZ101061AZ201061GA1041+006001081GE19MSL   +99999+99999GF104991041999006001999999KA1120N+02141MA1999999095231MD1999999+0071REMSYN004BUFR
0142827950999992017020913004-07270-035896FM-15+050299999V0200601N004610100619N009999199+02801+02001999999ADDGA1071+010061999GE19MSL   +99999+99999GF199999071999010061999999MA1101401999999REMMET051METAR SBKG 091300Z 06009KT 9999 BKN033 28/20 Q1014=
0142827950999992017020914004-07270-035896FM-15+050299999V0201001N006210121919N009999199+02901+01901999999ADDGA1071+012191999GE19MSL   +99999+99999GF199999071999012191999999MA1101401999999REMMET051METAR SBKG 091400Z 10012KT 9999 BKN040 29/19 Q1014=
0142827950999992017020915004-07270-035896FM-15+050299999V0200801N004610128019N009999199+03001+01901999999ADDGA1071+012801999GE19MSL   +99999+99999GF199999071999012801999999MA1101301999999REMMET051METAR SBKG 091500Z 08009KT 9999 BKN042 30/19 Q1013=
0080827950999992017020916004-07270-035896FM-15+050299999V0200701V005119999999Y999999999+03101+01801999999ADDMA1101201999999REMMET053METAR SBKG 091600Z 07010KT 030V090 CAVOK 31/18 Q1012=
0136827950999992017020918004-07220-035880FM-12+054799999V0200901N0041100600199010000199+02971+01661100921ADDAA101999999AZ101061AZ201061GA1051+006001081GE19MSL   +99999+99999GF105991051999006001999999MA1999999094841MD1999999+0031REMSYN004BUFR
0091827950999992017020918004-07270-035896FM-15+050299999V0200901V005119999999Y999999999+03301+01701999999ADDMA1101001999999OC101131REMMET056METAR SBKG 091800Z 09010G22KT 050V110 CAVOK 33/17 Q1010=
0080827950999992017020919004-07270-035896FM-15+050299999V0200701V007719999999Y999999999+03101+01901999999ADDMA1101001999999REMMET053METAR SBKG 091900Z 07015KT 040V100 CAVOK 31/19 Q1010=
0136827950999992017021000004-07220-035880FM-12+054799999V0200901N0041100600199001000199+02311+02061101231ADDAA101999999AZ101061AZ201061GA1051+006001081GE19MSL   +99999+99999GF105991051999006001999999MA1999999095121MD1999999+0021REMSYN004BUFR
0202827950999992017021004004-07270-035896FM-15+050299999V0201001N005110039619N008000199+02401+02201999999ADDGA1071+003961999GA2041+005491999GA3021+008231081GE19MSL   +99999+99999GF199999071999003961999999MA1101301999999MW1161REMMET073METAR SBKG 100400Z 10010KT 8000 VCSH BKN013 SCT018 FEW027TCU 24/22 Q1013=
0165827950999992017021006004-07270-035896FM-15+050299999V0200901N004610085319N009999199+02301+02201999999ADDGA1041+001521999GA2071+008531999GE19MSL   +99999+99999GF199999041999001521999999MA1101201999999REMMET058METAR SBKG 100600Z 09009KT 9999 SCT005 BKN028 23/22 Q1012=
0165827950999992017021007004-07270-035896FM-15+050299999V0200901N004610015219N009999199+02301+02201999999ADDGA1071+001521999GA2071+003351999GE19MSL   +99999+99999GF199999071999001521999999MA1101201999999REMMET058METAR SBKG 100700Z 09009KT 9999 BKN005 BKN011 23/22 Q1012=
0188827950999992017021008004-07270-035896FM-15+050299999V0200901N004610036619N009999199+02301+02201999999ADDGA1041+001521999GA2071+003661999GA3071+010061999GE19MSL   +99999+99999GF199999041999001521999999MA1101201999999REMMET065METAR SBKG 100800Z 09009KT 9999 SCT005 BKN012 BKN033 23/22 Q1012=
0188827950999992017021009004-07270-035896FM-15+050299999V0200701N00311004881CN009999199+02301+02201999999ADDGA1021+001521999GA2041+004881999GA3071+009141999GE19MSL   +99999+99999GF199999021999001521999999MA1101301999999REMMET065METAR SBKG 100900Z 07006KT 9999 FEW005 SCT016 BKN030 23/22 Q1013=
0165827950999992017021010004-07270-035896FM-15+050299999V0200901N004610048819N009999199+02301+02201999999ADDGA1041+003961999GA2071+004881999GE19MSL   +99999+99999GF199999041999003961999999MA1101401999999REMMET058METAR SBKG 101000Z 09009KT 9999 SCT013 BKN016 23/22 Q1014=
0155827950999992017021012004-07220-035880FM-12+054799999V0200901N0036100600199010000199+02501+02051101391ADDAA124002031AY161061AY221061GA1061+006001081GE19MSL   +99999+99999GF106991061999006001999999KA1120N+02151MA1999999095251MD1999999-0021MW1021REMSYN004BUFR
0165827950999992017021012004-07270-035896FM-15+050299999V0200801N004110070119N009999199+02601+02101999999ADDGA1041+005491999GA2071+007011999GE19MSL   +99999+99999GF199999041999005491999999MA1101501999999REMMET058METAR SBKG 101200Z 08008KT 9999 SCT018 BKN023 26/21 Q1015=
0165827950999992017021013004-07270-035896FM-15+050299999V0200801N003110076219N009999199+02701+02101999999ADDGA1041+005491999GA2071+007621999GE19MSL   +99999+99999GF199999041999005491999999MA1101401999999REMMET058METAR SBKG 101300Z 08006KT 9999 SCT018 BKN025 27/21 Q1014=
0142827950999992017021014004-07270-035896FM-15+050299999V0200801N005110109719N009999199+02801+01901999999ADDGA1071+010971999GE19MSL   +99999+99999GF199999071999010971999999MA1101401999999REMMET051METAR SBKG 101400Z 08010KT 9999 BKN036 28/19 Q1014=
0142827950999992017021015004-07270-035896FM-15+050299999V0201101N004610140219N009999199+03001+01901999999ADDGA1071+014021999GE19MSL   +99999+99999GF199999071999014021999999MA1101301999999REMMET051METAR SBKG 101500Z 11009KT 9999 BKN046 30/19 Q1013=
0210827950999992017021016004-07270-035896FM-15+050299999V0201101V003610140219N009999199+03101+01901999999ADDGA1071+014021999GA2021+015241081GA3081+021341999GE19MSL   +99999+99999GF199999071999014021999999MA1101201999999OC100881REMMET079METAR SBKG 101600Z 11007G17KT 070V150 9999 BKN046 FEW050TCU OVC070 31/19 Q1012=
0173827950999992017021017004-07270-035896FM-15+050299999V0201101V004110143319N009999199+03101+01901999999ADDGA1071+014331999GA2071+021341999GE19MSL   +99999+99999GF199999071999014331999999MA1101201999999REMMET066METAR SBKG 101700Z 11008KT 010V170 9999 BKN047 BKN070 31/19 Q1012=
0168827950999992017021018004-07220-035880FM-12+054799999V0200901N0041199999999010000199+03051+01971100861ADDAA101999999AZ101061AZ201061GA1041+006001081GA2999+999999031GA3999+999999001GE19MSL   +99999+99999GF106991041999006001999999MA1999999094811MD1999999-0031REMSYN004BUFR
0168827950999992017021020004-07270-035896FM-15+050299999V0200801N007719999999N009999199+02801+02101999999ADDGA1041+009141999GA2021+012191081GE19MSL   +99999+99999GF199999041999009141999999MA1101101999999REMMET061METAR SBKG 102000Z 08015KT 9999 SCT030 FEW040TCU 28/21 Q1011=
0136827950999992017021100004-07220-035880FM-12+054799999V0200901N0041100600199001000199+02351+02121101181ADDAA101999999AZ101061AZ201061GA1061+006001081GE19MSL   +99999+99999GF106991061999006001999999MA1999999095061MD1999999-0061REMSYN004BUFR
0165827950999992017021104004-07270-035896FM-15+050299999V0200901N004110030519N009999199+02301+02101999999ADDGA1041+002131999GA2071+003051999GE19MSL   +99999+99999GF199999041999002131999999MA1101301999999REMMET058METAR SBKG 110400Z 09008KT 9999 SCT007 BKN010 23/21 Q1013=
0165827950999992017021105004-07270-035896FM-15+050299999V0201001N005110030519N009999199+02301+02101999999ADDGA1041+002131999GA2071+003051999GE19MSL   +99999+99999GF199999041999002131999999MA1101201999999REMMET058METAR SBKG 110500Z 10010KT 9999 SCT007 BKN010 23/21 Q1012=
0165827950999992017021107004-07270-035896FM-15+050299999V0201001N002610030519N009999199+02301+02101999999ADDGA1041+001831999GA2071+003051999GE19MSL   +99999+99999GF199999041999001831999999MA1101201999999REMMET058METAR SBKG 110700Z 10005KT 9999 SCT006 BKN010 23/21 Q1012=
0122827950999992017021108004-07270-035896FM-15+050299999V0200901N004119999999N008000199+02305+02205999999ADDMA1101205999999MW1105MW2615REMMET064METAR SBKG 110800Z 09008KT 8000 -RABR SCT006 BKN010 23/22 Q1012=EQDD01      0ADE735
0165827950999992017021109004-07270-035896FM-15+050299999V0200901N004110054919N009999199+02301+02101999999ADDGA1041+004571999GA2071+005491999GE19MSL   +99999+99999GF199999041999004571999999MA1101201999999REMMET058METAR SBKG 110900Z 09008KT 9999 SCT015 BKN018 23/21 Q1012=
0198827950999992017021111004-07270-035896FM-15+050299999V0201001N005710039619N009999199+02401+02101999999ADDGA1041+003351999GA2071+003961999GA3071+010671999GE19MSL   +99999+99999GF199999041999003351999999MA1101401999999MW1611REMMET069METAR SBKG 111100Z 10011KT 9999 -RA SCT011 BKN013 BKN035 24/21 Q1014=
0187827950999992017021112004-07220-035880FM-12+054799999V0200901N0036100600199010000199+02301+02151101271ADDAA124000131AY161061AY221061GA1081+006001071GA2999+999999101GA3999+999999101GE19MSL   +99999+99999GF108991081999006001999999KA1120N+02101MA1999999095121MD1999999-0131MW1021REMSYN004BUFR
0184827950999992017021112004-07270-035896FM-15+050299999V0201001V004610091419N009999199+02501+02101999999ADDGA1041+004571999GA2071+009141999GE19MSL   +99999+99999GF199999041999004571999999MA1101401999999MW1161REMMET071METAR SBKG 111200Z 10009KT 070V130 9999 VCSH SCT015 BKN030 25/21 Q1014=
0187827950999992017021113004-07270-035896FM-15+050299999V0201101V004610070119N009999199+02601+02101999999ADDGA1071+007011999GA2021+009451081GE19MSL   +99999+99999GF199999071999007011999999MA1101401999999MW1161REMMET074METAR SBKG 111300Z 11009KT 080V140 9999 VCSH BKN023 FEW031TCU 26/21 Q1014=
0210827950999992017021114004-07270-035896FM-15+050299999V0200901V005110079219N009999199+02701+02001999999ADDGA1071+007921999GA2021+009141081GA3041+021341999GE19MSL   +99999+99999GF199999071999007921999999MA1101301999999MW1161REMMET081METAR SBKG 111400Z 09010KT 060V130 9999 VCSH BKN026 FEW030TCU SCT070 27/20 Q1013=
0176827950999992017021115004-07270-035896FM-15+050299999V0201301V005119999999N009999199+02901+02001999999ADDGA1041+007621999GA2021+012191081GE19MSL   +99999+99999GF199999041999007621999999MA1101301999999REMMET069METAR SBKG 111500Z 13010KT 050V180 9999 SCT025 FEW040TCU 29/20 Q1013=
0142827950999992017021117004-07270-035896FM-15+050299999V0200901N005110091419N009999199+02801+02001999999ADDGA1071+009141999GE19MSL   +99999+99999GF199999071999009141999999MA1101101999999REMMET051METAR SBKG 111700Z 09010KT 9999 BKN030 28/20 Q1011=
0152827950999992017021118004-07220-035880FM-12+054799999V0200901N0036100600199010000199+02851+02131100831ADDAA101999999AZ101061AZ201061GA1051+006001081GA2999+999999031GE19MSL   +99999+99999GF106991051999006001999999MA1999999094751MD1999999-0061REMSYN004BUFR
0142827950999992017021118004-07270-035896FM-15+050299999V0201101N007719999999N009999199+02701+02101999999ADDGA1041+007621999GE19MSL   +99999+99999GF199999041999007621999999MA1101101999999REMMET051METAR SBKG 111800Z 11015KT 9999 SCT025 27/21 Q1011=
0142827950999992017021119004-07270-035896FM-15+050299999V0200801N006719999999N009999199+02701+02001999999ADDGA1041+007621999GE19MSL   +99999+99999GF199999041999007621999999MA1101001999999REMMET051METAR SBKG 111900Z 08013KT 9999 SCT025 27/20 Q1010=
0142827950999992017021120004-07270-035896FM-15+050299999V0200901N008219999999N009999199+02501+02001999999ADDGA1041+006101999GE19MSL   +99999+99999GF199999041999006101999999MA1101001999999REMMET051METAR SBKG 112000Z 09016KT 9999 SCT020 25/20 Q1010=
0136827950999992017021200004-07220-035880FM-12+054799999V0200901N0031100600199001000199+02221+02031101211ADDAA101999999AZ101061AZ201061GA1061+006001081GE19MSL   +99999+99999GF106991061999006001999999MA1999999095051MD1999999-0011REMSYN004BUFR
0165827950999992017021204004-07270-035896FM-15+050299999V0201001N003110061019N009999199+02201+02001999999ADDGA1021+002131999GA2071+006101999GE19MSL   +99999+99999GF199999021999002131999999MA1101201999999REMMET058METAR SBKG 120400Z 10006KT 9999 FEW007 BKN020 22/20 Q1012=
0142827950999992017021205004-07270-035896FM-15+050299999V0201301N004110061019N009999199+02301+01901999999ADDGA1071+006101999GE19MSL   +99999+99999GF199999071999006101999999MA1101201999999REMMET051METAR SBKG 120500Z 13008KT 9999 BKN020 23/19 Q1012=
0142827950999992017021206004-07270-035896FM-15+050299999V0201201N005110061019N009999199+02301+01901999999ADDGA1071+006101999GE19MSL   +99999+99999GF199999071999006101999999MA1101101999999REMMET051METAR SBKG 120600Z 12010KT 9999 BKN020 23/19 Q1011=
0142827950999992017021207004-07270-035896FM-15+050299999V0201101N002119999999N009999199+02201+01901999999ADDGA1041+004571999GE19MSL   +99999+99999GF199999041999004571999999MA1101201999999REMMET051METAR SBKG 120700Z 11004KT 9999 SCT015 22/19 Q1012=
0142827950999992017021208004-07270-035896FM-15+050299999V0201301N002110045719N009999199+02201+01901999999ADDGA1071+004571999GE19MSL   +99999+99999GF199999071999004571999999MA1101201999999REMMET051METAR SBKG 120800Z 13004KT 9999 BKN015 22/19 Q1012=
0142827950999992017021209004-07270-035896FM-15+050299999V0201301N003619999999N009999199+02201+01901999999ADDGA1021+006101999GE19MSL   +99999+99999GF199999021999006101999999MA1101301999999REMMET051METAR SBKG 120900Z 13007KT 9999 FEW020 22/19 Q1013=
0176827950999992017021210004-07270-035896FM-15+050299999V0201101N005710045719N009999199+02401+01901999999ADDGA1071+004571999GA2041+024381999GE19MSL   +99999+99999GF199999071999004571999999MA1101301999999MW1161REMMET063METAR SBKG 121000Z 11011KT 9999 VCSH BKN015 SCT080 24/19 Q1013=
0202827950999992017021211004-07270-035896FM-15+050299999V0201101N006710067119N009999199+02401+01801999999ADDGA1071+006711999GA2021+009451081GA3041+021341999GE19MSL   +99999+99999GF199999071999006711999999MA1101401999999MW1161REMMET073METAR SBKG 121100Z 11013KT 9999 VCSH BKN022 FEW031TCU SCT070 24/18 Q1014=
0155827950999992017021212004-07220-035880FM-12+054799999V0201401N0026100600199010000199+02421+01881101241ADDAA124000231AY161061AY221061GA1061+006001081GE19MSL   +99999+99999GF106991061999006001999999KA1120N+02071MA1999999095091MD1999999-0031MW1021REMSYN004BUFR
0187827950999992017021213004-07270-035896FM-15+050299999V0201101V004610091419N009999199+02701+01901999999ADDGA1071+009141999GA2021+011891081GE19MSL   +99999+99999GF199999071999009141999999MA1101401999999OC100981REMMET072METAR SBKG 121300Z 11009G19KT 080V150 9999 BKN030 FEW039TCU 27/19 Q1014=
0161827950999992017021214004-07270-035896FM-15+050299999V0201201V005110140219N009999199+02801+01801999999ADDGA1071+014021999GE19MSL   +99999+99999GF199999071999014021999999MA1101301999999MW1161REMMET064METAR SBKG 121400Z 12010KT 070V200 9999 VCSH BKN046 28/18 Q1013=
0150827950999992017021216004-07270-035896FM-15+050299999V0201201V005710121919N009999199+02901+01701999999ADDGA1071+012191999GE19MSL   +99999+99999GF199999071999012191999999MA1101501999999REMMET059METAR SBKG 121600Z 12011KT 040V130 9999 BKN040 29/17 Q1015=
0142827950999992017021217004-07270-035896FM-15+050299999V0201001N005119999999N009999199+03001+01701999999ADDGA1041+012191999GE19MSL   +99999+99999GF199999041999012191999999MA1101101999999REMMET051METAR SBKG 121700Z 10010KT 9999 SCT040 30/17 Q1011=
0152827950999992017021218004-07220-035880FM-12+054799999V0201401N0026199999999010000199+02921+01711100841ADDAA101999999AZ101061AZ201061GA1041+006001081GA2999+999999021GE19MSL   +99999+99999GF106991041999006001999999MA1999999094761MD1999999+0011REMSYN004BUFR
0142827950999992017021218004-07270-035896FM-15+050299999V0201001N006219999999N009999199+03001+01701999999ADDGA1041+012191999GE19MSL   +99999+99999GF199999041999012191999999MA1101001999999REMMET051METAR SBKG 121800Z 10012KT 9999 SCT040 30/17 Q1010=
0142827950999992017021220004-07270-035896FM-15+050299999V0200901N007219999999N009999199+02801+01801999999ADDGA1021+009141999GE19MSL   +99999+99999GF199999021999009141999999MA1101101999999REMMET051METAR SBKG 122000Z 09014KT 9999 FEW030 28/18 Q1011=
0152827950999992017021300004-07220-035880FM-12+054799999V0201401N0031100600199001000199+02301+01961101151ADDAA101999999AZ101061AZ201061GA1051+006001081GA2999+999999001GE19MSL   +99999+99999GF106991051999006001999999MA1999999095021MD1999999-0031REMSYN004BUFR
0142827950999992017021305004-07270-035896FM-15+050299999V0201001N001510045719N009999199+02201+01901999999ADDGA1071+004571999GE19MSL   +99999+99999GF199999071999004571999999MA1101201999999REMMET051METAR SBKG 130500Z 10003KT 9999 BKN015 22/19 Q1012=
0165827950999992017021306004-07270-035896FM-15+050299999V0201301N001510045719N009999199+02201+01901999999ADDGA1021+003961999GA2071+004571999GE19MSL   +99999+99999GF199999021999003961999999MA1101201999999REMMET058METAR SBKG 130600Z 13003KT 9999 FEW013 BKN015 22/19 Q1012=
0142827950999992017021307004-07270-035896FM-15+050299999V0201601N002610045719N009999199+02101+01901999999ADDGA1071+004571999GE19MSL   +99999+99999GF199999071999004571999999MA1101201999999REMMET051METAR SBKG 130700Z 16005KT 9999 BKN015 21/19 Q1012=
0072827950999992017021308004-07270-035896FM-15+050299999V0201501N002119999999Y999999999+02101+01801999999ADDMA1101201999999REMMET045METAR SBKG 130800Z 15004KT CAVOK 21/18 Q1012=
0142827950999992017021309004-07270-035896FM-15+050299999V0201401N001019999999N009999199+02101+01901999999ADDGA1021+003661999GE19MSL   +99999+99999GF199999021999003661999999MA1101301999999REMMET051METAR SBKG 130900Z 14002KT 9999 FEW012 21/19 Q1013=
0165827950999992017021312004-07220-035880FM-12+054799999V0201401N0041100600199010000199+02421+02001101221ADDAA101999999AZ101061AZ201061GA1051+006001081GA2999+999999021GE19MSL   +99999+99999GF107991051999006001999999KA1120N+02001MA1999999095081MD1999999-0011REMSYN004BUFR
0142827950999992017021312004-07270-035896FM-15+050299999V0201101N005710061019N009999199+02501+02001999999ADDGA1071+006101999GE19MSL   +99999+99999GF199999071999006101999999MA1101401999999REMMET051METAR SBKG 131200Z 11011KT 9999 BKN020 25/20 Q1014=
0150827950999992017021314004-07270-035896FM-15+050299999V0201101V007219999999N009999199+02901+01901999999ADDGA1041+009141999GE19MSL   +99999+99999GF199999041999009141999999MA1101401999999REMMET059METAR SBKG 131400Z 11014KT 070V140 9999 SCT030 29/19 Q1014=
0142827950999992017021316004-07270-035896FM-15+050299999V0201001N006210131119N009999199+03001+01801999999ADDGA1071+013111999GE19MSL   +99999+99999GF199999071999013111999999MA1101201999999REMMET051METAR SBKG 131600Z 10012KT 9999 BKN043 30/18 Q1012=
0165827950999992017021317004-07270-035896FM-15+050299999V0200801N008210304819N009999199+02901+02001999999ADDGA1041+014631999GA2071+030481999GE19MSL   +99999+99999GF199999041999014631999999MA1101201999999REMMET058METAR SBKG 131700Z 08016KT 9999 SCT048 BKN100 29/20 Q1012=
0168827950999992017021318004-07220-035880FM-12+054799999V0201401N0036199999999010000199+02751+01961100911ADDAA101999999AZ101061AZ201061GA1041+006001081GA2999+999999031GA3999+999999021GE19MSL   +99999+99999GF106991041999006001999999MA1999999094791MD1999999+0031REMSYN004BUFR
0165827950999992017021318004-07270-035896FM-15+050299999V0201001N008210304819N009999199+02801+01901999999ADDGA1041+010061999GA2071+030481999GE19MSL   +99999+99999GF199999041999010061999999MA1101101999999REMMET058METAR SBKG 131800Z 10016KT 9999 SCT033 BKN100 28/19 Q1011=
0165827950999992017021320004-07270-035896FM-15+050299999V0201001N009310304819N009999199+02601+02001999999ADDGA1021+007011999GA2071+030481999GE19MSL   +99999+99999GF199999021999007011999999MA1101201999999REMMET058METAR SBKG 132000Z 10018KT 9999 FEW023 BKN100 26/20 Q1012=
0152827950999992017021400004-07220-035880FM-12+054799999V0201401N0041100600199001000199+02301+02041101231ADDAA101999999AZ101061AZ201061GA1051+006001081GA2999+999999031GE19MSL   +99999+99999GF107991051999006001999999MA1999999095091MD1999999+0071REMSYN004BUFR
0142827950999992017021405004-07270-035896FM-15+050299999V0201001N004110021319N009999199+02301+02101999999ADDGA1071+002131999GE19MSL   +99999+99999GF199999071999002131999999MA1101401999999REMMET051METAR SBKG 140500Z 10008KT 9999 BKN007 23/21 Q1014=
0142827950999992017021406004-07270-035896FM-15+050299999V0201001N003110021319N009999199+02201+02101999999ADDGA1071+002131999GE19MSL   +99999+99999GF199999071999002131999999MA1101401999999REMMET051METAR SBKG 140600Z 10006KT 9999 BKN007 22/21 Q1014=
0142827950999992017021407004-07270-035896FM-15+050299999V0201001N002610030519N009999199+02201+02101999999ADDGA1071+003051999GE19MSL   +99999+99999GF199999071999003051999999MA1101401999999REMMET051METAR SBKG 140700Z 10005KT 9999 BKN010 22/21 Q1014=
0142827950999992017021409004-07270-035896FM-15+050299999V0201101N003619999999N009999199+02301+02001999999ADDGA1041+004571999GE19MSL   +99999+99999GF199999041999004571999999MA1101401999999REMMET051METAR SBKG 140900Z 11007KT 9999 SCT015 23/20 Q1014=
0142827950999992017021410004-07270-035896FM-15+050299999V0201201N005710045719N009999199+02401+02001999999ADDGA1071+004571999GE19MSL   +99999+99999GF199999071999004571999999MA1101501999999REMMET051METAR SBKG 141000Z 12011KT 9999 BKN015 24/20 Q1015=
0142827950999992017021411004-07270-035896FM-15+050299999V0201201N006710064019N009999199+02501+01901999999ADDGA1071+006401999GE19MSL   +99999+99999GF199999071999006401999999MA1101601999999REMMET051METAR SBKG 141100Z 12013KT 9999 BKN021 25/19 Q1016=
0165827950999992017021412004-07220-035880FM-12+054799999V0201401N0041100600199010000199+02461+02031101451ADDAA101999999AZ101061AZ201061GA1051+006001081GA2999+999999021GE19MSL   +99999+99999GF107991051999006001999999KA1120N+02041MA1999999095301MD1999999+0221REMSYN004BUFR
0142827950999992017021412004-07270-035896FM-15+050299999V0201201N006210100619N009999199+02601+01901999999ADDGA1071+010061999GE19MSL   +99999+99999GF199999071999010061999999MA1101701999999REMMET051METAR SBKG 141200Z 12012KT 9999 BKN033 26/19 Q1017=
0142827950999992017021414004-07270-035896FM-15+050299999V0201201N006710121919N009999199+02801+01901999999ADDGA1071+012191999GE19MSL   +99999+99999GF199999071999012191999999MA1101601999999REMMET051METAR SBKG 141400Z 12013KT 9999 BKN040 28/19 Q1016=
0142827950999992017021415004-07270-035896FM-15+050299999V0201301N006210109719N009999199+02901+01901999999ADDGA1071+010971999GE19MSL   +99999+99999GF199999071999010971999999MA1101501999999REMMET051METAR SBKG 141500Z 13012KT 9999 BKN036 29/19 Q1015=
0196827950999992017021416004-07270-035896FM-15+050299999V0201101V006210125019N009999199+02801+02001999999ADDGA1071+012501999GA2071+015241999GA3071+021341999GE19MSL   +99999+99999GF199999071999012501999999MA1101501999999REMMET073METAR SBKG 141600Z 11012KT 070V140 9999 BKN041 BKN050 BKN070 28/20 Q1015=
0173827950999992017021417004-07270-035896FM-15+050299999V0201001V006710121919N009999199+03001+02001999999ADDGA1071+012191999GA2071+021341999GE19MSL   +99999+99999GF199999071999012191999999MA1101401999999REMMET066METAR SBKG 141700Z 10013KT 070V140 9999 BKN040 BKN070 30/20 Q1014=
0152827950999992017021418004-07220-035880FM-12+054799999V0200901N0046100600199010000199+02771+01981101181ADDAA101999999AZ101061AZ201061GA1051+006001081GA2999+999999021GE19MSL   +99999+99999GF107991051999006001999999MA1999999095061MD1999999+0271REMSYN004BUFR
0152827950999992017021419004-07270-035896FM-15+050299999V0201101N008819999999N009999199+02801+02001999999ADDGA1041+010061999GA2021+013111081GE19MSL   +99999+99999GF199999041999010061999999REMMET060METAR SBKG 141900Z 11017KT 9999 SCT033 FEW043TCU 28/20 1014=
0168827950999992017021420004-07270-035896FM-15+050299999V0201201N008219999999N009999199+02701+02001999999ADDGA1041+009141999GA2021+015241081GE19MSL   +99999+99999GF199999041999009141999999MA1101501999999REMMET061METAR SBKG 142000Z 12016KT 9999 SCT030 FEW050TCU 27/20 Q1015=
0136827950999992017021500004-07220-035880FM-12+054799999V0200901N0041100600199001000199+02321+02031101521ADDAA101999999AZ101061AZ201061GA1061+006001081GE19MSL   +99999+99999GF106991061999006001999999MA1999999095381MD1999999+0291REMSYN004BUFR
0142827950999992017021504004-07270-035896FM-15+050299999V0201201N003619999999N009999199+02301+01901999999ADDGA1041+005791999GE19MSL   +99999+99999GF199999041999005791999999MA1101601999999REMMET051METAR SBKG 150400Z 12007KT 9999 SCT019 23/19 Q1016=
0142827950999992017021505004-07270-035896FM-15+050299999V0201201N003619999999N009999199+02301+01901999999ADDGA1021+005791999GE19MSL   +99999+99999GF199999021999005791999999MA1101601999999REMMET051METAR SBKG 150500Z 12007KT 9999 FEW019 23/19 Q1016=
0142827950999992017021507004-07270-035896FM-15+050299999V0201301N001519999999N009999199+02301+02001999999ADDGA1041+004571999GE19MSL   +99999+99999GF199999041999004571999999MA1101601999999REMMET051METAR SBKG 150700Z 13003KT 9999 SCT015 23/20 Q1016=
0165827950999992017021510004-07270-035896FM-15+050299999V0201401N00411005491CN009999199+02401+02001999999ADDGA1041+004271999GA2041+005491999GE19MSL   +99999+99999GF199999041999004271999999MA1101701999999REMMET058METAR SBKG 151000Z 14008KT 9999 SCT014 SCT018 24/20 Q1017=
0142827950999992017021511004-07270-035896FM-15+050299999V0201301N006719999999N009999199+02601+02001999999ADDGA1041+005491999GE19MSL   +99999+99999GF199999041999005491999999MA1101701999999REMMET051METAR SBKG 151100Z 13013KT 9999 SCT018 26/20 Q1017=
0149827950999992017021512004-07220-035880FM-12+054799999V0201401N0036100600199010000199+02501+02041101631ADDAA101999999AZ101061AZ201061GA1061+006001081GE19MSL   +99999+99999GF106991061999006001999999KA1120N+02101MA1999999095481MD1999999+0181REMSYN004BUFR
0142827950999992017021513004-07270-035896FM-15+050299999V0201201N007719999999N009999199+02901+01801999999ADDGA1041+010671999GE19MSL   +99999+99999GF199999041999010671999999MA1101701999999REMMET051METAR SBKG 151300Z 12015KT 9999 SCT035 29/18 Q1017=
0080827950999992017021515004-07270-035896FM-15+050299999V0201201V007719999999Y999999999+03101+01701999999ADDMA1101601999999REMMET053METAR SBKG 151500Z 12015KT 080V150 CAVOK 31/17 Q1016=
0080827950999992017021517004-07270-035896FM-15+050299999V0201201V007719999999Y999999999+03201+01601999999ADDMA1101401999999REMMET053METAR SBKG 151700Z 12015KT 090V150 CAVOK 32/16 Q1014=
0136827950999992017021518004-07220-035880FM-12+054799999V0200901N0046199999999010000199+03101+01701101081ADDAA101999999AZ101061AZ201061GA1041+006001081GE19MSL   +99999+99999GF104991041999006001999999MA1999999095021MD1999999-0041REMSYN004BUFR
0083827950999992017021518004-07270-035896FM-15+050299999V0201401N006719999999Y999999999+03201+01601999999ADDMA1101301999999OC101291REMMET048METAR SBKG 151800Z 14013G25KT CAVOK 32/16 Q1013=
0080827950999992017021520004-07270-035896FM-15+050299999V0201101V009319999999Y999999999+03001+01801999999ADDMA1101401999999REMMET053METAR SBKG 152000Z 11018KT 090V150 CAVOK 30/18 Q1014=
0136827950999992017021600004-07220-035880FM-12+054799999V0200901N0036100600199001000199+02321+02081101561ADDAA101999999AZ101061AZ201061GA1051+006001081GE19MSL   +99999+99999GF105991051999006001999999MA1999999095421MD1999999+0041REMSYN004BUFR
0072827950999992017021604004-07270-035896FM-15+050299999V0201301N003119999999Y999999999+02201+01801999999ADDMA1101501999999REMMET045METAR SBKG 160400Z 13006KT CAVOK 22/18 Q1015=
0072827950999992017021605004-07270-035896FM-15+050299999V0201301N003619999999Y999999999+02201+01801999999ADDMA1101501999999REMMET045METAR SBKG 160500Z 13007KT CAVOK 22/18 Q1015=
0142827950999992017021607004-07270-035896FM-15+050299999V0201001N002619999999N009999199+02201+01901999999ADDGA1041+004571999GE19MSL   +99999+99999GF199999041999004571999999MA1101501999999REMMET051METAR SBKG 160700Z 10005KT 9999 SCT015 22/19 Q1015=
0142827950999992017021608004-07270-035896FM-15+050299999V0201101N002119999999N009999199+02101+01901999999ADDGA1041+004571999GE19MSL   +99999+99999GF199999041999004571999999MA1101501999999REMMET051METAR SBKG 160800Z 11004KT 9999 SCT015 21/19 Q1015=
0142827950999992017021609004-07270-035896FM-15+050299999V0201501N002119999999N009999199+02101+01901999999ADDGA1021+003051999GE19MSL   +99999+99999GF199999021999003051999999MA1101501999999REMMET051METAR SBKG 160900Z 15004KT 9999 FEW010 21/19 Q1015=
0150827950999992017021610004-07270-035896FM-15+050299999V0201601V004119999999N009999199+02301+01901999999ADDGA1041+004571999GE19MSL   +99999+99999GF199999041999004571999999MA1101601999999REMMET059METAR SBKG 161000Z 16008KT 130V190 9999 SCT015 23/19 Q1016=
0165827950999992017021612004-07220-035880FM-12+054799999V0200901N0041199999999010000199+02521+02021101521ADDAA101999999AZ101061AZ201061GA1041+006001081GA2999+999999031GE19MSL   +99999+99999GF107991041999006001999999KA1120N+02061MA1999999095381MD1999999-0101REMSYN004BUFR
0176827950999992017021612004-07270-035896FM-15+050299999V0201301V005110070119N009999199+02501+01901999999ADDGA1071+007011999GA2021+010671081GE19MSL   +99999+99999GF199999071999007011999999MA1101601999999REMMET069METAR SBKG 161200Z 13010KT 100V180 9999 BKN023 FEW035TCU 25/19 Q1016=
0150827950999992017021613004-07270-035896FM-15+050299999V0201401V004110103619N009999199+02701+01901999999ADDGA1071+010361999GE19MSL   +99999+99999GF199999071999010361999999MA1101601999999REMMET059METAR SBKG 161300Z 14008KT 110V170 9999 BKN034 27/19 Q1016=
0150827950999992017021614004-07270-035896FM-15+050299999V0201201V004110109719N009999199+02801+01801999999ADDGA1071+010971999GE19MSL   +99999+99999GF199999071999010971999999MA1101601999999REMMET059METAR SBKG 161400Z 12008KT 070V160 9999 BKN036 28/18 Q1016=
0161827950999992017021615004-07270-035896FM-15+050299999V0201401V005110140219N009999199+02901+01701999999ADDGA1071+014021999GE19MSL   +99999+99999GF199999071999014021999999MA1101501999999OC101031REMMET062METAR SBKG 161500Z 14010G20KT 090V170 9999 BKN046 29/17 Q1015=
0150827950999992017021617004-07270-035896FM-15+050299999V0201001V005110121919N009999199+03001+01701999999ADDGA1071+012191999GE19MSL   +99999+99999GF199999071999012191999999MA1101401999999REMMET059METAR SBKG 161700Z 10010KT 070V140 9999 BKN040 30/17 Q1014=
0152827950999992017021618004-07220-035880FM-12+054799999V0201401N0036100600199010000199+02951+01821101101ADDAA101999999AZ101061AZ201061GA1051+006001081GA2999+999999001GE19MSL   +99999+99999GF106991051999006001999999MA1999999095011MD1999999-0011REMSYN004BUFR
0142827950999992017021618004-07270-035896FM-15+050299999V0201301N005119999999N009999199+03001+01801999999ADDGA1041+012191999GE19MSL   +99999+99999GF199999041999012191999999MA1101301999999REMMET051METAR SBKG 161800Z 13010KT 9999 SCT040 30/18 Q1013=
0142827950999992017021620004-07270-035896FM-15+050299999V0201101N005119999999N009999199+03001+01701999999ADDGA1021+009141999GE19MSL   +99999+99999GF199999021999009141999999MA1101301999999REMMET051METAR SBKG 162000Z 11010KT 9999 FEW030 30/17 Q1013=
0152827950999992017021700004-07220-035880FM-12+054799999V0201401N0041199999999001000199+02351+02021101461ADDAA101999999AZ101061AZ201061GA1021+006001081GA2999+999999001GE19MSL   +99999+99999GF103991021999006001999999MA1999999095331MD1999999-0091REMSYN004BUFR
0072827950999992017021704004-07270-035896FM-15+050299999V0201201N002119999999Y999999999+02201+01901999999ADDMA1101501999999REMMET045METAR SBKG 170400Z 12004KT CAVOK 22/19 Q1015=
0072827950999992017021705004-07270-035896FM-15+050299999V0201301N001019999999Y999999999+02201+01901999999ADDMA1101501999999REMMET045METAR SBKG 170500Z 13002KT CAVOK 22/19 Q1015=
0072827950999992017021706004-07270-035896FM-15+050299999V0209999V000519999999Y999999999+02101+01901999999ADDMA1101401999999REMMET045METAR SBKG 170600Z VRB01KT CAVOK 21/19 Q1014=
0072827950999992017021707004-07270-035896FM-15+050299999V0201001N001019999999Y999999999+02201+02001999999ADDMA1101401999999REMMET045METAR SBKG 170700Z 10002KT CAVOK 22/20 Q1014=
0072827950999992017021709004-07270-035896FM-15+050299999V0201201N001519999999Y999999999+02101+01901999999ADDMA1101401999999REMMET045METAR SBKG 170900Z 12003KT CAVOK 21/19 Q1014=
0142827950999992017021710004-07270-035896FM-15+050299999V0201301N003619999999N009999199+02301+02001999999ADDGA1041+004571999GE19MSL   +99999+99999GF199999041999004571999999MA1101501999999REMMET051METAR SBKG 171000Z 13007KT 9999 SCT015 23/20 Q1015=
0165827950999992017021712004-07220-035880FM-12+054799999V0201401N0036199999999010000199+02571+02031101351ADDAA101999999AZ101061AZ201061GA1031+006001081GA2999+999999001GE19MSL   +99999+99999GF106991031999006001999999KA1120N+02081MA1999999095191MD1999999-0191REMSYN004BUFR
0142827950999992017021712004-07270-035896FM-15+050299999V0201201N003610054919N009999199+02601+01901999999ADDGA1071+005491999GE19MSL   +99999+99999GF199999071999005491999999MA1101501999999REMMET051METAR SBKG 171200Z 12007KT 9999 BKN018 26/19 Q1015=
0142827950999992017021713004-07270-035896FM-15+050299999V0201301N003610076219N009999199+02801+01901999999ADDGA1071+007621999GE19MSL   +99999+99999GF199999071999007621999999MA1101501999999REMMET051METAR SBKG 171300Z 13007KT 9999 BKN025 28/19 Q1015=
0142827950999992017021715004-07270-035896FM-15+050299999V0201401N003610121919N009999199+03001+01901999999ADDGA1071+012191999GE19MSL   +99999+99999GF199999071999012191999999MA1101401999999REMMET051METAR SBKG 171500Z 14007KT 9999 BKN040 30/19 Q1014=
0072827950999992017021717004-07270-035896FM-15+050299999V0201301N004119999999Y999999999+03101+01801999999ADDMA1101201999999REMMET045METAR SBKG 171700Z 13008KT CAVOK 31/18 Q1012=
0152827950999992017021718004-07220-035880FM-12+054799999V0201401N0036100600199010000199+03051+01881100981ADDAA101999999AZ101061AZ201061GA1051+006001081GA2999+999999001GE19MSL   +99999+99999GF106991051999006001999999MA1999999094911MD1999999-0101REMSYN004BUFR
0072827950999992017021719004-07270-035896FM-15+050299999V0201101N006719999999Y999999999+03001+01901999999ADDMA1101201999999REMMET045METAR SBKG 171900Z 11013KT CAVOK 30/19 Q1012=
0165827950999992017021720004-07270-035896FM-15+050299999V0201101N007710213419N009999199+02701+01801999999ADDGA1041+013721999GA2071+021341999GE19MSL   +99999+99999GF199999041999013721999999MA1101301999999REMMET058METAR SBKG 172000Z 11015KT 9999 SCT045 BKN070 27/18 Q1013=
0142827950999992017021800004-07220-035880FM-12+054799999V0201401N0036100600199001000199+02301+02121101441ADDAA106000131AY161061AY221061GA1071+006001081GE19MSL   +99999+99999GF107991071999006001999999MA1999999095301MD1999999-0031MW1211REMSYN004BUFR
0142827950999992017021804004-07270-035896FM-15+050299999V0201001N003119999999N009999199+02301+02001999999ADDGA1041+006101999GE19MSL   +99999+99999GF199999041999006101999999MA1101501999999REMMET051METAR SBKG 180400Z 10006KT 9999 SCT020 23/20 Q1015=
0142827950999992017021806004-07270-035896FM-15+050299999V0201001N002619999999N009999199+02301+02001999999ADDGA1041+004571999GE19MSL   +99999+99999GF199999041999004571999999MA1101401999999REMMET051METAR SBKG 180600Z 10005KT 9999 SCT015 23/20 Q1014=
0142827950999992017021807004-07270-035896FM-15+050299999V0201001N002619999999N009999199+02301+02001999999ADDGA1041+004571999GE19MSL   +99999+99999GF199999041999004571999999MA1101401999999REMMET051METAR SBKG 180700Z 10005KT 9999 SCT015 23/20 Q1014=
0142827950999992017021808004-07270-035896FM-15+050299999V0201301N002119999999N009999199+02301+02001999999ADDGA1021+004571999GE19MSL   +99999+99999GF199999021999004571999999MA1101501999999REMMET051METAR SBKG 180800Z 13004KT 9999 FEW015 23/20 Q1015=
0165827950999992017021809004-07270-035896FM-15+050299999V0201001N002610243819N009999199+02301+02001999999ADDGA1041+004571999GA2071+024381999GE19MSL   +99999+99999GF199999041999004571999999MA1101501999999REMMET058METAR SBKG 180900Z 10005KT 9999 SCT015 BKN080 23/20 Q1015=
0142827950999992017021810004-07270-035896FM-15+050299999V0201101N002619999999N009999199+02301+02001999999ADDGA1041+006101999GE19MSL   +99999+99999GF199999041999006101999999MA1101601999999REMMET051METAR SBKG 181000Z 11005KT 9999 SCT020 23/20 Q1016=
0165827950999992017021812004-07220-035880FM-12+054799999V0201401N0036199999999010000199+02521+02071101501ADDAA124000131AZ101061AZ201061GA1041+006001081GA2999+999999031GE19MSL   +99999+99999GF107991041999006001999999KA1120N+02101MA1999999095361MD1999999+0171REMSYN004BUFR
0142827950999992017021812004-07270-035896FM-15+050299999V0201001N004610076219N009999199+02601+02001999999ADDGA1071+007621999GE19MSL   +99999+99999GF199999071999007621999999MA1101601999999REMMET051METAR SBKG 181200Z 10009KT 9999 BKN025 26/20 Q1016=
0142827950999992017021814004-07270-035896FM-15+050299999V0201001N002110076219N009999199+02801+01901999999ADDGA1071+007621999GE19MSL   +99999+99999GF199999071999007621999999MA1101601999999REMMET051METAR SBKG 181400Z 10004KT 9999 BKN025 28/19 Q1016=
0142827950999992017021815004-07270-035896FM-15+050299999V0201501N003610091419N009999199+02901+02001999999ADDGA1071+009141999GE19MSL   +99999+99999GF199999071999009141999999MA1101501999999REMMET051METAR SBKG 181500Z 15007KT 9999 BKN030 29/20 Q1015=
0142827950999992017021817004-07270-035896FM-15+050299999V0200701N007210137219N009999199+02901+02001999999ADDGA1071+013721999GE19MSL   +99999+99999GF199999071999013721999999MA1101301999999REMMET051METAR SBKG 181700Z 07014KT 9999 BKN045 29/20 Q1013=
0168827950999992017021818004-07220-035880FM-12+054799999V0200901N0046199999999010000199+02671+02051101151ADDAA101999999AZ101061AZ201061GA1041+006001081GA2999+999999031GA3999+999999001GE19MSL   +99999+99999GF107991041999006001999999MA1999999095031MD1999999+0121REMSYN004BUFR
0165827950999992017021818004-07270-035896FM-15+050299999V0200901N008810064019N009999199+02701+02101999999ADDGA1071+006401999GA2071+024381999GE19MSL   +99999+99999GF199999071999006401999999MA1101301999999REMMET058METAR SBKG 181800Z 09017KT 9999 BKN021 BKN080 27/21 Q1013=
0165827950999992017021819004-07270-035896FM-15+050299999V0200901N008810304819N009999199+02701+02001999999ADDGA1041+007621999GA2071+030481999GE19MSL   +99999+99999GF199999041999007621999999MA1101301999999REMMET058METAR SBKG 181900Z 09017KT 9999 SCT025 BKN100 27/20 Q1013=
0165827950999992017021820004-07270-035896FM-15+050299999V0200701N006710304819N009999199+02701+02101999999ADDGA1041+007011999GA2071+030481999GE19MSL   +99999+99999GF199999041999007011999999MA1101301999999REMMET058METAR SBKG 182000Z 07013KT 9999 SCT023 BKN100 27/21 Q1013=
0152827950999992017021900004-07220-035880FM-12+054799999V0201401N0041199999999001000199+02321+02141101471ADDAA101999999AZ101061AZ201061GA1041+006001081GA2999+999999031GE19MSL   +99999+99999GF106991041999006001999999MA1999999095331MD1999999-0031REMSYN004BUFR
0142827950999992017021904004-07270-035896FM-15+050299999V0201301N002119999999N009999199+02301+02001999999ADDGA1041+004571999GE19MSL   +99999+99999GF199999041999004571999999MA1101601999999REMMET051METAR SBKG 190400Z 13004KT 9999 SCT015 23/20 Q1016=
0142827950999992017021905004-07270-035896FM-15+050299999V0201301N003619999999N009999199+02301+02001999999ADDGA1041+004571999GE19MSL   +99999+99999GF199999041999004571999999MA1101501999999REMMET051METAR SBKG 190500Z 13007KT 9999 SCT015 23/20 Q1015=
0142827950999992017021906004-07270-035896FM-15+050299999V0201201N003119999999N009999199+02201+02001999999ADDGA1041+004571999GE19MSL   +99999+99999GF199999041999004571999999MA1101501999999REMMET051METAR SBKG 190600Z 12006KT 9999 SCT015 22/20 Q1015=
0142827950999992017021907004-07270-035896FM-15+050299999V0201401N001519999999N009999199+02201+02001999999ADDGA1041+004571999GE19MSL   +99999+99999GF199999041999004571999999MA1101501999999REMMET051METAR SBKG 190700Z 14003KT 9999 SCT015 22/20 Q1015=
0165827950999992017021909004-07270-035896FM-15+050299999V0201401N002110045719N009999199+02201+02101999999ADDGA1041+003051999GA2071+004571999GE19MSL   +99999+99999GF199999041999003051999999MA1101601999999REMMET058METAR SBKG 190900Z 14004KT 9999 SCT010 BKN015 22/21 Q1016=
0165827950999992017021910004-07270-035896FM-15+050299999V0200901N003110045719N009999199+02201+02101999999ADDGA1041+002441999GA2071+004571999GE19MSL   +99999+99999GF199999041999002441999999MA1101701999999REMMET058METAR SBKG 191000Z 09006KT 9999 SCT008 BKN015 22/21 Q1017=
0165827950999992017021911004-07270-035896FM-15+050299999V0201001N004610054919N009999199+02501+02101999999ADDGA1021+004571999GA2071+005491999GE19MSL   +99999+99999GF199999021999004571999999MA1101701999999REMMET058METAR SBKG 191100Z 10009KT 9999 FEW015 BKN018 25/21 Q1017=
0149827950999992017021912004-07220-035880FM-12+054799999V0201401N0041100600199010000199+02501+02061101501ADDAA101999999AZ101061AZ201061GA1051+006001081GE19MSL   +99999+99999GF106991051999006001999999KA1120N+02091MA1999999095361MD1999999+0001REMSYN004BUFR
0142827950999992017021912004-07270-035896FM-15+050299999V0201201N006210064019N009999199+02701+02001999999ADDGA1071+006401999GE19MSL   +99999+99999GF199999071999006401999999MA1101701999999REMMET051METAR SBKG 191200Z 12012KT 9999 BKN021 27/20 Q1017=
0142827950999992017021913004-07270-035896FM-15+050299999V0201101N005710091419N009999199+02801+02001999999ADDGA1071+009141999GE19MSL   +99999+99999GF199999071999009141999999MA1101701999999REMMET051METAR SBKG 191300Z 11011KT 9999 BKN030 28/20 Q1017=
0072827950999992017021914004-07270-035896FM-15+050299999V0201201N005719999999Y999999999+02901+01901999999ADDMA1101601999999REMMET045METAR SBKG 191400Z 12011KT CAVOK 29/19 Q1016=
0142827950999992017021915004-07270-035896FM-15+050299999V0201301N005710140219N009999199+03101+01801999999ADDGA1071+014021999GE19MSL   +99999+99999GF199999071999014021999999MA1101501999999REMMET051METAR SBKG 191500Z 13011KT 9999 BKN046 31/18 Q1015=
0142827950999992017021916004-07270-035896FM-15+050299999V0201201N004610143319N009999199+03101+01901999999ADDGA1071+014331999GE19MSL   +99999+99999GF199999071999014331999999MA1101401999999REMMET051METAR SBKG 191600Z 12009KT 9999 BKN047 31/19 Q1014=
0165827950999992017021917004-07270-035896FM-15+050299999V0200701N009310143319N009999199+02801+02101999999ADDGA1041+005791999GA2071+014331999GE19MSL   +99999+99999GF199999041999005791999999MA1101301999999REMMET058METAR SBKG 191700Z 07018KT 9999 SCT019 BKN047 28/21 Q1013=
0136827950999992017021918004-07220-035880FM-12+054799999V0200901N0046199999999010000199+02901+02151101141ADDAA101999999AZ101061AZ201061GA1041+006001081GE19MSL   +99999+99999GF106991041999006001999999MA1999999095041MD1999999+0011REMSYN004BUFR
0165827950999992017021919004-07270-035896FM-15+050299999V0201001N009810243819N009999199+02701+02101999999ADDGA1041+007011999GA2071+024381999GE19MSL   +99999+99999GF199999041999007011999999MA1101301999999REMMET058METAR SBKG 191900Z 10019KT 9999 SCT023 BKN080 27/21 Q1013=
0165827950999992017021920004-07270-035896FM-15+050299999V0201001N008810304819N009999199+02601+02201999999ADDGA1041+006401999GA2071+030481999GE19MSL   +99999+99999GF199999041999006401999999MA1101301999999REMMET058METAR SBKG 192000Z 10017KT 9999 SCT021 BKN100 26/22 Q1013=
0136827950999992017022000004-07220-035880FM-12+054799999V0201401N0041100600199001000199+02351+02091101451ADDAA101999999AZ101061AZ201061GA1061+006001081GE19MSL   +99999+99999GF106991061999006001999999MA1999999095311MD1999999-0021REMSYN004BUFR
0165827950999992017022004004-07270-035896FM-15+050299999V0200901N004610021319N009999199+02301+02201999999ADDGA1041+001221999GA2071+002131999GE19MSL   +99999+99999GF199999041999001221999999MA1101501999999REMMET058METAR SBKG 200400Z 09009KT 9999 SCT004 BKN007 23/22 Q1015=
0142827950999992017022006004-07270-035896FM-15+050299999V0200901N003119999999N009999199+02201+02101999999ADDGA1021+003961999GE19MSL   +99999+99999GF199999021999003961999999MA1101401999999REMMET051METAR SBKG 200600Z 09006KT 9999 FEW013 22/21 Q1014=
0142827950999992017022007004-07270-035896FM-15+050299999V0209999C000010021319N009999199+02201+02101999999ADDGA1071+002131999GE19MSL   +99999+99999GF199999071999002131999999MA1101501999999REMMET051METAR SBKG 200700Z 00000KT 9999 BKN007 22/21 Q1015=
0165827950999992017022009004-07270-035896FM-15+050299999V0209999C000010054919N009999199+02201+02101999999ADDGA1041+003351999GA2071+005491999GE19MSL   +99999+99999GF199999041999003351999999MA1101501999999REMMET058METAR SBKG 200900Z 00000KT 9999 SCT011 BKN018 22/21 Q1015=
0142827950999992017022010004-07270-035896FM-15+050299999V0201301N002610054919N009999199+02301+02101999999ADDGA1071+005491999GE19MSL   +99999+99999GF199999071999005491999999MA1101601999999REMMET051METAR SBKG 201000Z 13005KT 9999 BKN018 23/21 Q1016=
0149827950999992017022012004-07220-035880FM-12+054799999V0201401N0041199999999010000199+02571+02061101441ADDAA101999999AZ101061AZ201061GA1041+006001081GE19MSL   +99999+99999GF105991041999006001999999KA1120N+02101MA1999999095321MD1999999-0041REMSYN004BUFR
0142827950999992017022012004-07270-035896FM-15+050299999V0201101N005110070119N009999199+02601+02001999999ADDGA1071+007011999GE19MSL   +99999+99999GF199999071999007011999999MA1101701999999REMMET051METAR SBKG 201200Z 11010KT 9999 BKN023 26/20 Q1017=
0142827950999992017022013004-07270-035896FM-15+050299999V0201001N006210100619N009999199+02801+01901999999ADDGA1071+010061999GE19MSL   +99999+99999GF199999071999010061999999MA1101601999999REMMET051METAR SBKG 201300Z 10012KT 9999 BKN033 28/19 Q1016=
0142827950999992017022014004-07270-035896FM-15+050299999V0201201N004619999999N009999199+03001+01901999999ADDGA1041+012191999GE19MSL   +99999+99999GF199999041999012191999999MA1101601999999REMMET051METAR SBKG 201400Z 12009KT 9999 SCT040 30/19 Q1016=
0142827950999992017022015004-07270-035896FM-15+050299999V0200801N005119999999N009999199+03101+01701999999ADDGA1041+013721999GE19MSL   +99999+99999GF199999041999013721999999MA1101501999999REMMET051METAR SBKG 201500Z 08010KT 9999 SCT045 31/17 Q1015=
0080827950999992017022016004-07270-035896FM-15+050299999V0200801V005719999999Y999999999+03101+01801999999ADDMA1101401999999REMMET053METAR SBKG 201600Z 08011KT 050V120 CAVOK 31/18 Q1014=
0136827950999992017022018004-07220-035880FM-12+054799999V0200901N0046199999999010000199+02751+01931101131ADDAA101999999AZ101061AZ201061GA1041+006001081GE19MSL   +99999+99999GF106991041999006001999999MA1999999095011MD1999999-0031REMSYN004BUFR
0199827950999992017022018004-07270-035896FM-15+050299999V0200701V007719999999N009999199+03001+01901999999ADDGA1041+014631999GA2021+015241081GA3041+021341999GE19MSL   +99999+99999GF199999041999014631999999MA1101301999999REMMET076METAR SBKG 201800Z 07015KT 030V110 9999 SCT048 FEW050TCU SCT070 30/19 Q1013=
0187827950999992017022019004-07270-035896FM-15+050299999V0200801V00821013721CN009999199+03001+01901999999ADDGA1021+013111999GA2041+013721081GE19MSL   +99999+99999GF199999021999013111999999MA1101301999999MW1161REMMET074METAR SBKG 201900Z 08016KT 050V110 9999 VCSH FEW043 SCT045TCU 30/19 Q1013=
0142827950999992017022020004-07270-035896FM-15+050299999V0201001N009310100619N009999199+02801+02001999999ADDGA1071+010061999GE19MSL   +99999+99999GF199999071999010061999999MA1101301999999REMMET051METAR SBKG 202000Z 10018KT 9999 BKN033 28/20 Q1013=
0142827950999992017022100004-07220-035880FM-12+054799999V0200901N0041100600199001000199+02321+02111101351ADDAA106000231AY161061AY221061GA1051+006001081GE19MSL   +99999+99999GF106991051999006001999999MA1999999095231MD1999999-0081MW1021REMSYN004BUFR
0165827950999992017022104004-07270-035896FM-15+050299999V0201001N003610033519N009999199+02301+02101999999ADDGA1041+002131999GA2071+003351999GE19MSL   +99999+99999GF199999041999002131999999MA1101501999999REMMET058METAR SBKG 210400Z 10007KT 9999 SCT007 BKN011 23/21 Q1015=
0165827950999992017022105004-07270-035896FM-15+050299999V0200901N002110033519N009999199+02301+02101999999ADDGA1041+002131999GA2071+003351999GE19MSL   +99999+99999GF199999041999002131999999MA1101501999999REMMET058METAR SBKG 210500Z 09004KT 9999 SCT007 BKN011 23/21 Q1015=
0165827950999992017022107004-07270-035896FM-15+050299999V0201101N002610039619N009999199+02201+02101999999ADDGA1041+002131999GA2071+003961999GE19MSL   +99999+99999GF199999041999002131999999MA1101501999999REMMET058METAR SBKG 210700Z 11005KT 9999 SCT007 BKN013 22/21 Q1015=
0165827950999992017022108004-07270-035896FM-15+050299999V0201001N002110054919N009999199+02201+02101999999ADDGA1041+003961999GA2071+005491999GE19MSL   +99999+99999GF199999041999003961999999MA1101501999999REMMET058METAR SBKG 210800Z 10004KT 9999 SCT013 BKN018 22/21 Q1015=
0165827950999992017022109004-07270-035896FM-15+050299999V0201101N002610054919N009999199+02201+02101999999ADDGA1041+003961999GA2071+005491999GE19MSL   +99999+99999GF199999041999003961999999MA1101501999999REMMET058METAR SBKG 210900Z 11005KT 9999 SCT013 BKN018 22/21 Q1015=
0176827950999992017022110004-07270-035896FM-15+050299999V0201001N004610045719N009999199+02301+02101999999ADDGA1041+002741999GA2071+004571999GE19MSL   +99999+99999GF199999041999002741999999MA1101501999999MW1161REMMET063METAR SBKG 211000Z 10009KT 9999 VCSH SCT009 BKN015 23/21 Q1015=
0173827950999992017022111004-07270-035896FM-15+050299999V0201001V006710045719N009999199+02501+02001999999ADDGA1041+003051999GA2071+004571999GE19MSL   +99999+99999GF199999041999003051999999MA1101601999999REMMET066METAR SBKG 211100Z 10013KT 080V140 9999 SCT010 BKN015 25/20 Q1016=
0165827950999992017022112004-07220-035880FM-12+054799999V0200901N0041100600199010000199+02511+02041101511ADDAA124000231AZ101061AZ201061GA1051+006001081GA2999+999999031GE19MSL   +99999+99999GF106991051999006001999999KA1120N+02131MA1999999095371MD1999999+0051REMSYN004BUFR
0184827950999992017022112004-07270-035896FM-15+050299999V0201101V006710064019N009999199+02501+02101999999ADDGA1071+006401999GA2041+021341999GE19MSL   +99999+99999GF199999071999006401999999MA1101601999999MW1161REMMET071METAR SBKG 211200Z 11013KT 080V140 9999 VCSH BKN021 SCT070 25/21 Q1016=
0161827950999992017022113004-07270-035896FM-15+050299999V0201001V006219999999N009999199+02801+01901999999ADDGA1041+009141999GE19MSL   +99999+99999GF199999041999009141999999MA1101601999999OC101291REMMET062METAR SBKG 211300Z 10012G25KT 070V130 9999 SCT030 28/19 Q1016=
0150827950999992017022114004-07270-035896FM-15+050299999V0201101V005110109719N009999199+02901+01901999999ADDGA1071+010971999GE19MSL   +99999+99999GF199999071999010971999999MA1101501999999REMMET059METAR SBKG 211400Z 11010KT 080V170 9999 BKN036 29/19 Q1015=
0142827950999992017022116004-07270-035896FM-15+050299999V0201201N008219999999N009999199+03001+02001999999ADDGA1041+012191999GE19MSL   +99999+99999GF199999041999012191999999MA1101301999999REMMET051METAR SBKG 211600Z 12016KT 9999 SCT040 30/20 Q1013=
0152827950999992017022118004-07220-035880FM-12+054799999V0201401N0046199999999010000199+03001+01801101031ADDAA101999999AZ101061AZ201061GA1041+006001081GA2999+999999001GE19MSL   +99999+99999GF105991041999006001999999MA1999999094951MD1999999-0061REMSYN004BUFR
0142827950999992017022118004-07270-035896FM-15+050299999V0201101N007219999999N009999199+03101+01801999999ADDGA1041+012191999GE19MSL   +99999+99999GF199999041999012191999999MA1101301999999REMMET051METAR SBKG 211800Z 11014KT 9999 SCT040 31/18 Q1013=
0142827950999992017022119004-07270-035896FM-15+050299999V0201101N007719999999N009999199+03001+01901999999ADDGA1041+012191999GE19MSL   +99999+99999GF199999041999012191999999MA1101301999999REMMET051METAR SBKG 211900Z 11015KT 9999 SCT040 30/19 Q1013=
0142827950999992017022120004-07270-035896FM-15+050299999V0201101N009319999999N009999199+02901+02001999999ADDGA1021+012191999GE19MSL   +99999+99999GF199999021999012191999999MA1101301999999REMMET051METAR SBKG 212000Z 11018KT 9999 FEW040 29/20 Q1013=
0136827950999992017022200004-07220-035880FM-12+054799999V0201401N0041100600199001000199+02301+02001101431ADDAA101999999AZ101061AZ201061GA1061+006001081GE19MSL   +99999+99999GF106991061999006001999999MA1999999095291MD1999999+0061REMSYN004BUFR
0142827950999992017022204004-07270-035896FM-15+050299999V0200901N002619999999N009999199+02201+02001999999ADDGA1021+006101999GE19MSL   +99999+99999GF199999021999006101999999MA1101501999999REMMET051METAR SBKG 220400Z 09005KT 9999 FEW020 22/20 Q1015=
0142827950999992017022205004-07270-035896FM-15+050299999V0201001N003119999999N009999199+02201+02001999999ADDGA1041+003661999GE19MSL   +99999+99999GF199999041999003661999999MA1101401999999REMMET051METAR SBKG 220500Z 10006KT 9999 SCT012 22/20 Q1014=
0072827950999992017022207004-07270-035896FM-15+050299999V0200701N002619999999Y999999999+02101+02001999999ADDMA1101401999999REMMET045METAR SBKG 220700Z 07005KT CAVOK 21/20 Q1014=
0142827950999992017022209004-07270-035896FM-15+050299999V0201001N002119999999N009999199+02201+02001999999ADDGA1021+006101999GE19MSL   +99999+99999GF199999021999006101999999MA1101501999999REMMET051METAR SBKG 220900Z 10004KT 9999 FEW020 22/20 Q1015=
0142827950999992017022211004-07270-035896FM-15+050299999V0201201N006210061019N009999199+02401+02001999999ADDGA1071+006101999GE19MSL   +99999+99999GF199999071999006101999999MA1101601999999REMMET051METAR SBKG 221100Z 12012KT 9999 BKN020 24/20 Q1016=
0165827950999992017022212004-07220-035880FM-12+054799999V0200901N0041199999999010000199+02551+02001101351ADDAA101999999AZ101061AZ201061GA1041+006001081GA2999+999999001GE19MSL   +99999+99999GF105991041999006001999999KA1120N+02071MA1999999095221MD1999999-0151REMSYN004BUFR
0142827950999992017022212004-07270-035896FM-15+050299999V0201201N006719999999N009999199+02701+02001999999ADDGA1041+006101999GE19MSL   +99999+99999GF199999041999006101999999MA1101501999999REMMET051METAR SBKG 221200Z 12013KT 9999 SCT020 27/20 Q1015=
0142827950999992017022213004-07270-035896FM-15+050299999V0201101N006210076219N009999199+02801+02001999999ADDGA1071+007621999GE19MSL   +99999+99999GF199999071999007621999999MA1101501999999REMMET051METAR SBKG 221300Z 11012KT 9999 BKN025 28/20 Q1015=
0142827950999992017022215004-07270-035896FM-15+050299999V0201301N006719999999N009999199+02901+01901999999ADDGA1041+012191999GE19MSL   +99999+99999GF199999041999012191999999MA1101401999999REMMET051METAR SBKG 221500Z 13013KT 9999 SCT040 29/19 Q1014=
0142827950999992017022216004-07270-035896FM-15+050299999V0201301N005710131119N009999199+03001+01901999999ADDGA1071+013111999GE19MSL   +99999+99999GF199999071999013111999999MA1101301999999REMMET051METAR SBKG 221600Z 13011KT 9999 BKN043 30/19 Q1013=
0152827950999992017022218004-07220-035880FM-12+054799999V0200901N0041199999999010000199+03001+01681100951ADDAA101999999AZ101061AZ201061GA1041+006001081GA2999+999999001GE19MSL   +99999+99999GF105991041999006001999999MA1999999094881MD1999999-0061REMSYN004BUFR
0072827950999992017022218004-07270-035896FM-15+050299999V0201201N006219999999Y999999999+03101+01601999999ADDMA1101201999999REMMET045METAR SBKG 221800Z 12012KT CAVOK 31/16 Q1012=
0072827950999992017022219004-07270-035896FM-15+050299999V0201101N006719999999Y999999999+03001+01701999999ADDMA1101201999999REMMET045METAR SBKG 221900Z 11013KT CAVOK 30/17 Q1012=
0072827950999992017022220004-07270-035896FM-15+050299999V0201101N008219999999Y999999999+03001+01601999999ADDMA1101301999999REMMET045METAR SBKG 222000Z 11016KT CAVOK 30/16 Q1013=
0136827950999992017022300004-07220-035880FM-12+054799999V0200901N0041199999999001000199+02351+02031101361ADDAA101999999AZ101061AZ201061GA1041+006001081GE19MSL   +99999+99999GF104991041999006001999999MA1999999095241MD1999999-0051REMSYN004BUFR
0142827950999992017022305004-07270-035896FM-15+050299999V0200801N002619999999N009999199+02101+02001999999ADDGA1021+004571999GE19MSL   +99999+99999GF199999021999004571999999MA1101401999999REMMET051METAR SBKG 230500Z 08005KT 9999 FEW015 21/20 Q1014=
0142827950999992017022306004-07270-035896FM-15+050299999V0201001N002619999999N009999199+02101+02001999999ADDGA1021+004571999GE19MSL   +99999+99999GF199999021999004571999999MA1101401999999REMMET051METAR SBKG 230600Z 10005KT 9999 FEW015 21/20 Q1014=
0142827950999992017022308004-07270-035896FM-15+050299999V0201601N001519999999N009999199+02101+02001999999ADDGA1041+004571999GE19MSL   +99999+99999GF199999041999004571999999MA1101501999999REMMET051METAR SBKG 230800Z 16003KT 9999 SCT015 21/20 Q1015=
0142827950999992017022309004-07270-035896FM-15+050299999V0201601N002119999999N009999199+02201+02001999999ADDGA1041+004271999GE19MSL   +99999+99999GF199999041999004271999999MA1101501999999REMMET051METAR SBKG 230900Z 16004KT 9999 SCT014 22/20 Q1015=
0165827950999992017022310004-07270-035896FM-15+050299999V0201301N004110243819N009999199+02301+01901999999ADDGA1021+007921999GA2071+024381999GE19MSL   +99999+99999GF199999021999007921999999MA1101501999999REMMET058METAR SBKG 231000Z 13008KT 9999 FEW026 BKN080 23/19 Q1015=
0165827950999992017022311004-07270-035896FM-15+050299999V0201401N00411007921CN009999199+02501+01901999999ADDGA1021+005181999GA2041+007921999GE19MSL   +99999+99999GF199999021999005181999999MA1101601999999REMMET058METAR SBKG 231100Z 14008KT 9999 FEW017 SCT026 25/19 Q1016=
0181827950999992017022312004-07220-035880FM-12+054799999V0200901N0046199999999010000199+02601+01911101341ADDAA101999999AZ101061AZ201061GA1021+006001081GA2999+999999031GA3999+999999001GE19MSL   +99999+99999GF104991021999006001999999KA1120N+02061MA1999999095221MD1999999-0021REMSYN004BUFR
0142827950999992017022312004-07270-035896FM-15+050299999V0201201N006710079219N009999199+02701+02001999999ADDGA1071+007921999GE19MSL   +99999+99999GF199999071999007921999999MA1101501999999REMMET051METAR SBKG 231200Z 12013KT 9999 BKN026 27/20 Q1015=
0142827950999992017022313004-07270-035896FM-15+050299999V0201101N004610100619N009999199+02701+01901999999ADDGA1071+010061999GE19MSL   +99999+99999GF199999071999010061999999MA1101501999999REMMET051METAR SBKG 231300Z 11009KT 9999 BKN033 27/19 Q1015=
0072827950999992017022315004-07270-035896FM-15+050299999V0201101N004619999999Y999999999+03001+01701999999ADDMA1101401999999REMMET045METAR SBKG 231500Z 11009KT CAVOK 30/17 Q1014=
0072827950999992017022317004-07270-035896FM-15+050299999V0201101N005719999999Y999999999+03101+01701999999ADDMA1101301999999REMMET045METAR SBKG 231700Z 11011KT CAVOK 31/17 Q1013=
0136827950999992017022318004-07220-035880FM-12+054799999V0201401N0036199999999010000199+02971+01651101001ADDAA101999999AZ101061AZ201061GA1041+006001081GE19MSL   +99999+99999GF105991041999006001999999MA1999999094921MD1999999+0041REMSYN004BUFR
0072827950999992017022318004-07270-035896FM-15+050299999V0200901N004619999999Y999999999+03101+01701999999ADDMA1101501999999REMMET045METAR SBKG 231800Z 09009KT CAVOK 31/17 Q1015=
0072827950999992017022319004-07270-035896FM-15+050299999V0201101N005119999999Y999999999+03101+01701999999ADDMA1101201999999REMMET045METAR SBKG 231900Z 11010KT CAVOK 31/17 Q1012=
0072827950999992017022320004-07270-035896FM-15+050299999V0201001N006219999999Y999999999+03101+01801999999ADDMA1101201999999REMMET045METAR SBKG 232000Z 10012KT CAVOK 31/18 Q1012=
0136827950999992017022400004-07220-035880FM-12+054799999V0200901N0041100600199001000199+02351+02001101281ADDAA101999999AZ101061AZ201061GA1051+006001081GE19MSL   +99999+99999GF106991051999006001999999MA1999999095161MD1999999-0081REMSYN004BUFR
0142827950999992017022404004-07270-035896FM-15+050299999V0201101N002119999999N009999199+02301+02001999999ADDGA1021+004881999GE19MSL   +99999+99999GF199999021999004881999999MA1101401999999REMMET051METAR SBKG 240400Z 11004KT 9999 FEW016 23/20 Q1014=
0142827950999992017022405004-07270-035896FM-15+050299999V0201201N002619999999N009999199+02301+02001999999ADDGA1041+004571999GE19MSL   +99999+99999GF199999041999004571999999MA1101401999999REMMET051METAR SBKG 240500Z 12005KT 9999 SCT015 23/20 Q1014=
0142827950999992017022407004-07270-035896FM-15+050299999V0201401N004119999999N009999199+02301+02001999999ADDGA1041+003961999GE19MSL   +99999+99999GF199999041999003961999999MA1101301999999REMMET051METAR SBKG 240700Z 14008KT 9999 SCT013 23/20 Q1013=
0165827950999992017022408004-07270-035896FM-15+050299999V0201301N004110048819N009999199+02401+02101999999ADDGA1041+003961999GA2071+004881999GE19MSL   +99999+99999GF199999041999003961999999MA1101401999999REMMET058METAR SBKG 240800Z 13008KT 9999 SCT013 BKN016 24/21 Q1014=
0165827950999992017022409004-07270-035896FM-15+050299999V0201001N003610228619N009999199+02201+02101999999ADDGA1021+002131999GA2071+022861999GE19MSL   +99999+99999GF199999021999002131999999MA1101401999999REMMET058METAR SBKG 240900Z 10007KT 9999 FEW007 BKN075 22/21 Q1014=
0165827950999992017022410004-07270-035896FM-15+050299999V0200901N003110061019N009999199+02301+02101999999ADDGA1041+004571999GA2071+006101999GE19MSL   +99999+99999GF199999041999004571999999MA1101501999999REMMET058METAR SBKG 241000Z 09006KT 9999 SCT015 BKN020 23/21 Q1015=
0199827950999992017022411004-07270-035896FM-15+050299999V0200901N004610030519N008000199+02401+02101999999ADDGA1041+002441999GA2071+003051999GA3071+004571999GE19MSL   +99999+99999GF199999041999002441999999MA1101501999999MW1161REMMET070METAR SBKG 241100Z 09009KT 8000 VCSH SCT008 BKN010 BKN015 24/21 Q1015=
0165827950999992017022412004-07220-035880FM-12+054799999V0201401N0036100600199010000199+02451+02061101451ADDAA101999999AZ101061AZ201061GA1051+006001081GA2999+999999031GE19MSL   +99999+99999GF107991051999006001999999KA1120N+02071MA1999999095311MD1999999+0091REMSYN004BUFR
0142827950999992017022413004-07270-035896FM-15+050299999V0201001N005710076219N009999199+02701+02001999999ADDGA1071+007621999GE19MSL   +99999+99999GF199999071999007621999999MA1101601999999REMMET051METAR SBKG 241300Z 10011KT 9999 BKN025 27/20 Q1016=
0142827950999992017022415004-07270-035896FM-15+050299999V0201001N004610091419N009999199+03001+01901999999ADDGA1071+009141999GE19MSL   +99999+99999GF199999071999009141999999MA1101401999999REMMET051METAR SBKG 241500Z 10009KT 9999 BKN030 30/19 Q1014=
0176827950999992017022416004-07270-035896FM-15+050299999V0201001V006219999999N009999199+03101+02001999999ADDGA1041+012501999GA2021+013721081GE19MSL   +99999+99999GF199999041999012501999999MA1101301999999REMMET069METAR SBKG 241600Z 10012KT 060V120 9999 SCT041 FEW045TCU 31/20 Q1013=
0136827950999992017022418004-07220-035880FM-12+054799999V0200901N0046199999999010000199+03001+02001101031ADDAA101999999AZ101061AZ201061GA1041+006001081GE19MSL   +99999+99999GF104991041999006001999999MA1999999094951MD1999999+0031REMSYN004BUFR
0176827950999992017022418004-07270-035896FM-15+050299999V0200901V008219999999N009999199+03101+02001999999ADDGA1041+013111999GA2021+015241081GE19MSL   +99999+99999GF199999041999013111999999MA1101201999999REMMET069METAR SBKG 241800Z 09016KT 060V120 9999 SCT043 FEW050TCU 31/20 Q1012=
0150827950999992017022420004-07270-035896FM-15+050299999V0200901V007719999999N009999199+02901+02001999999ADDGA1021+010061999GE19MSL   +99999+99999GF199999021999010061999999MA1101201999999REMMET059METAR SBKG 242000Z 09015KT 070V130 9999 FEW033 29/20 Q1012=
0165827950999992017022504004-07270-035896FM-15+050299999V0200901N00461003351CN009999199+02301+02101999999ADDGA1041+002131999GA2041+003351999GE19MSL   +99999+99999GF199999041999002131999999MA1101401999999REMMET058METAR SBKG 250400Z 09009KT 9999 SCT007 SCT011 23/21 Q1014=
0142827950999992017022506004-07270-035896FM-15+050299999V0201101N001519999999N009999199+02201+02101999999ADDGA1041+009141999GE19MSL   +99999+99999GF199999041999009141999999MA1101301999999REMMET051METAR SBKG 250600Z 11003KT 9999 SCT030 22/21 Q1013=
0142827950999992017022508004-07270-035896FM-15+050299999V0201401N001519999999N009999199+02201+02001999999ADDGA1021+003351999GE19MSL   +99999+99999GF199999021999003351999999MA1101301999999REMMET051METAR SBKG 250800Z 14003KT 9999 FEW011 22/20 Q1013=
0142827950999992017022509004-07270-035896FM-15+050299999V0201101N001519999999N009999199+02201+02001999999ADDGA1041+007011999GE19MSL   +99999+99999GF199999041999007011999999MA1101401999999REMMET051METAR SBKG 250900Z 11003KT 9999 SCT023 22/20 Q1014=
0142827950999992017022511004-07270-035896FM-15+050299999V0201301N003119999999N009999199+02501+01901999999ADDGA1041+006101999GE19MSL   +99999+99999GF199999041999006101999999MA1101501999999REMMET051METAR SBKG 251100Z 13006KT 9999 SCT020 25/19 Q1015=
0165827950999992017022512004-07220-035880FM-12+054799999V0201401N0041199999999010000199+02661+02001101311ADDAA101999999AZ101061AZ201061GA1041+006001081GA2999+999999001GE19MSL   +99999+99999GF105991041999006001999999KA1120N+02081MA1999999095211MD1999999-0101REMSYN004BUFR
0142827950999992017022512004-07270-035896FM-15+050299999V0201301N004110091419N009999199+02701+01901999999ADDGA1071+009141999GE19MSL   +99999+99999GF199999071999009141999999MA1101501999999REMMET051METAR SBKG 251200Z 13008KT 9999 BKN030 27/19 Q1015=
0142827950999992017022513004-07270-035896FM-15+050299999V0201101N000510109719N009999199+02801+01701999999ADDGA1071+010971999GE19MSL   +99999+99999GF199999071999010971999999MA1101501999999REMMET051METAR SBKG 251300Z 11001KT 9999 BKN036 28/17 Q1015=
0072827950999992017022515004-07270-035896FM-15+050299999V0201101N004119999999Y999999999+03001+01601999999ADDMA1101301999999REMMET045METAR SBKG 251500Z 11008KT CAVOK 30/16 Q1013=
0080827950999992017022516004-07270-035896FM-15+050299999V0201501V004119999999Y999999999+03101+01501999999ADDMA1101201999999REMMET053METAR SBKG 251600Z 15008KT 070V190 CAVOK 31/15 Q1012=
0091827950999992017022517004-07270-035896FM-15+050299999V0201201V004119999999Y999999999+03201+01601999999ADDMA1101101999999OC100981REMMET056METAR SBKG 251700Z 12008G19KT 080V160 CAVOK 32/16 Q1011=
0152827950999992017022518004-07220-035880FM-12+054799999V0201401N0041199999999010000199+03121+01761100851ADDAA101999999AZ101061AZ201061GA1031+006001061GA2999+999999001GE19MSL   +99999+99999GF104991031999006001999999MA1999999094801MD1999999-0101REMSYN004BUFR
0072827950999992017022518004-07270-035896FM-15+050299999V0209999V004619999999Y999999999+03201+01501999999ADDMA1101101999999REMMET045METAR SBKG 251800Z VRB09KT CAVOK 32/15 Q1011=
0080827950999992017022519004-07270-035896FM-15+050299999V0201001V006219999999Y999999999+03101+01801999999ADDMA1101101999999REMMET053METAR SBKG 251900Z 10012KT 060V120 CAVOK 31/18 Q1011=
0150827950999992017022520004-07270-035896FM-15+050299999V0201001V007719999999N009999199+03001+01901999999ADDGA1021+014331999GE19MSL   +99999+99999GF199999021999014331999999MA1101101999999REMMET059METAR SBKG 252000Z 10015KT 060V120 9999 FEW047 30/19 Q1011=
0072827950999992017022521004-07270-035896FM-15+050299999V0201001N007719999999Y999999999+02801+01901999999ADDMA1101201999999REMMET045METAR SBKG 252100Z 10015KT CAVOK 28/19 Q1012=
0072827950999992017022522004-07270-035896FM-15+050299999V0200901N007219999999Y999999999+02601+01901999999ADDMA1101301999999REMMET045METAR SBKG 252200Z 09014KT CAVOK 26/19 Q1013=
0072827950999992017022523004-07270-035896FM-15+050299999V0200801N007719999999Y999999999+02501+02001999999ADDMA1101401999999REMMET045METAR SBKG 252300Z 08015KT CAVOK 25/20 Q1014=
0072827950999992017022600004-07270-035896FM-15+050299999V0200901N007719999999Y999999999+02401+02001999999ADDMA1101401999999REMMET045METAR SBKG 260000Z 09015KT CAVOK 24/20 Q1014=
0142827950999992017022601004-07270-035896FM-15+050299999V0201001N006219999999N009999199+02301+02101999999ADDGA1041+003051999GE19MSL   +99999+99999GF199999041999003051999999MA1101501999999REMMET051METAR SBKG 260100Z 10012KT 9999 SCT010 23/21 Q1015=
0142827950999992017022604004-07270-035896FM-15+050299999V0201001N006219999999N009999199+02301+02101999999ADDGA1041+002131999GE19MSL   +99999+99999GF199999041999002131999999MA1101401999999REMMET051METAR SBKG 260400Z 10012KT 9999 SCT007 23/21 Q1014=
0142827950999992017022605004-07270-035896FM-15+050299999V0201101N004619999999N009999199+02201+02101999999ADDGA1041+002131999GE19MSL   +99999+99999GF199999041999002131999999MA1101401999999REMMET051METAR SBKG 260500Z 11009KT 9999 SCT007 22/21 Q1014=
0072827950999992017022607004-07270-035896FM-15+050299999V0201001N003119999999Y999999999+02201+02101999999ADDMA1101301999999REMMET045METAR SBKG 260700Z 10006KT CAVOK 22/21 Q1013=
0072827950999992017022609004-07270-035896FM-15+050299999V0201701N001019999999Y999999999+02101+02001999999ADDMA1101401999999REMMET045METAR SBKG 260900Z 17002KT CAVOK 21/20 Q1014=
0150827950999992017022610004-07270-035896FM-15+050299999V0201401V002119999999N009999199+02301+02001999999ADDGA1041+004271999GE19MSL   +99999+99999GF199999041999004271999999MA1101401999999REMMET059METAR SBKG 261000Z 14004KT 080V170 9999 SCT014 23/20 Q1014=
0173827950999992017022611004-07270-035896FM-15+050299999V0201101V00461012191CN009999199+02501+01901999999ADDGA1041+006101999GA2041+012191999GE19MSL   +99999+99999GF199999041999006101999999MA1101501999999REMMET066METAR SBKG 261100Z 11009KT 060V140 9999 SCT020 SCT040 25/19 Q1015=
0149827950999992017022612004-07220-035880FM-12+054799999V0201401N0036199999999010000199+02551+02041101461ADDAA101999999AZ101061AZ201061GA1031+006001081GE19MSL   +99999+99999GF106991031999006001999999KA1120N+02081MA1999999095321MD1999999+0111REMSYN004BUFR
0173827950999992017022612004-07270-035896FM-15+050299999V0201201V00411010971CN009999199+02701+01901999999ADDGA1041+007621999GA2041+010971999GE19MSL   +99999+99999GF199999041999007621999999MA1101501999999REMMET066METAR SBKG 261200Z 12008KT 090V160 9999 SCT025 SCT036 27/19 Q1015=
0150827950999992017022613004-07270-035896FM-15+050299999V0200901V005110100619N009999199+02801+01901999999ADDGA1071+010061999GE19MSL   +99999+99999GF199999071999010061999999MA1101501999999REMMET059METAR SBKG 261300Z 09010KT 050V130 9999 BKN033 28/19 Q1015=
0150827950999992017022615004-07270-035896FM-15+050299999V0200701V004119999999N009999199+03101+01901999999ADDGA1041+014021999GE19MSL   +99999+99999GF199999041999014021999999MA1101301999999REMMET059METAR SBKG 261500Z 07008KT 020V130 9999 SCT046 31/19 Q1013=
0142827950999992017022616004-07270-035896FM-15+050299999V0200801N004619999999N009999199+03201+01701999999ADDGA1041+012191999GE19MSL   +99999+99999GF199999041999012191999999MA1101201999999REMMET051METAR SBKG 261600Z 08009KT 9999 SCT040 32/17 Q1012=
0150827950999992017022617004-07270-035896FM-15+050299999V0200801V004610121919N009999199+03201+01801999999ADDGA1071+012191999GE19MSL   +99999+99999GF199999071999012191999999MA1101201999999REMMET059METAR SBKG 261700Z 08009KT 010V130 9999 BKN040 32/18 Q1012=
0136827950999992017022618004-07220-035880FM-12+054799999V0200901N0041199999999010000199+03111+01781100911ADDAA101999999AZ101061AZ201061GA1031+006001081GE19MSL   +99999+99999GF103991031999006001999999MA1999999094851MD1999999+0051REMSYN004BUFR
0142827950999992017022618004-07270-035896FM-15+050299999V0201101N005119999999N009999199+03201+01701999999ADDGA1041+012191999GE19MSL   +99999+99999GF199999041999012191999999MA1101101999999REMMET051METAR SBKG 261800Z 11010KT 9999 SCT040 32/17 Q1011=
0150827950999992017022619004-07270-035896FM-15+050299999V0201101V004119999999N009999199+03201+01701999999ADDGA1021+012191999GE19MSL   +99999+99999GF199999021999012191999999MA1101101999999REMMET059METAR SBKG 261900Z 11008KT 050V140 9999 FEW040 32/17 Q1011=
0142827950999992017022620004-07270-035896FM-15+050299999V0200801N007219999999N009999199+03101+01901999999ADDGA1021+012191999GE19MSL   +99999+99999GF199999021999012191999999MA1101201999999REMMET051METAR SBKG 262000Z 08014KT 9999 FEW040 31/19 Q1012=
0188827950999992017022704004-07270-035896FM-15+050299999V0201101N005110039619N009999199+02301+02201999999ADDGA1041+002131999GA2071+003961999GA3071+004881999GE19MSL   +99999+99999GF199999041999002131999999MA1101401999999REMMET065METAR SBKG 270400Z 11010KT 9999 SCT007 BKN013 BKN016 23/22 Q1014=
0188827950999992017022705004-07270-035896FM-15+050299999V0201101N003110045719N009999199+02301+02201999999ADDGA1041+002441999GA2071+004571999GA3071+006401999GE19MSL   +99999+99999GF199999041999002441999999MA1101401999999REMMET065METAR SBKG 270500Z 11006KT 9999 SCT008 BKN015 BKN021 23/22 Q1014=
0150827950999992017022706004-07270-035896FM-15+050299999V0201301V001510070119N009999199+02301+02101999999ADDGA1071+007011999GE19MSL   +99999+99999GF199999071999007011999999MA1101301999999REMMET059METAR SBKG 270600Z 13003KT 080V160 9999 BKN023 23/21 Q1013=
0165827950999992017022707004-07270-035896FM-15+050299999V0201401N002610057919N009999199+02301+02101999999ADDGA1041+003661999GA2071+005791999GE19MSL   +99999+99999GF199999041999003661999999MA1101301999999REMMET058METAR SBKG 270700Z 14005KT 9999 SCT012 BKN019 23/21 Q1013=
0165827950999992017022708004-07270-035896FM-15+050299999V0201101N001510057919N009999199+02301+02101999999ADDGA1041+003661999GA2071+005791999GE19MSL   +99999+99999GF199999041999003661999999MA1101401999999REMMET058METAR SBKG 270800Z 11003KT 9999 SCT012 BKN019 23/21 Q1014=
0165827950999992017022709004-07270-035896FM-15+050299999V0201701N002110054919N009999199+02301+02101999999ADDGA1041+003661999GA2071+005491999GE19MSL   +99999+99999GF199999041999003661999999MA1101401999999REMMET058METAR SBKG 270900Z 17004KT 9999 SCT012 BKN018 23/21 Q1014=
0142827950999992017022710004-07270-035896FM-15+050299999V0201401N002610045719N009999199+02401+02101999999ADDGA1071+004571999GE19MSL   +99999+99999GF199999071999004571999999MA1101501999999REMMET051METAR SBKG 271000Z 14005KT 9999 BKN015 24/21 Q1015=
0142827950999992017022711004-07270-035896FM-15+050299999V0201101N005710048819N009999199+02601+02101999999ADDGA1071+004881999GE19MSL   +99999+99999GF199999071999004881999999MA1101501999999REMMET051METAR SBKG 271100Z 11011KT 9999 BKN016 26/21 Q1015=
0165827950999992017022712004-07220-035880FM-12+054799999V0201401N0041199999999010000199+02571+02051101311ADDAA101999999AZ101061AZ201061GA1041+006001081GA2999+999999001GE19MSL   +99999+99999GF105991041999006001999999KA1120N+02141MA1999999095191MD1999999-0131REMSYN004BUFR
0142827950999992017022714004-07270-035896FM-15+050299999V0200901N006710121919N009999199+03101+01801999999ADDGA1071+012191999GE19MSL   +99999+99999GF199999071999012191999999MA1101401999999REMMET051METAR SBKG 271400Z 09013KT 9999 BKN040 31/18 Q1014=
0072827950999992017022716004-07270-035896FM-15+050299999V0200901N006719999999Y999999999+03201+01701999999ADDMA1101201999999REMMET045METAR SBKG 271600Z 09013KT CAVOK 32/17 Q1012=
0136827950999992017022718004-07220-035880FM-12+054799999V0200901N0046199999999010000199+03151+01801100841ADDAA101999999AZ101061AZ201061GA1031+006001081GE19MSL   +99999+99999GF103991031999006001999999MA1999999094801MD1999999-0051REMSYN004BUFR
0072827950999992017022718004-07270-035896FM-15+050299999V0201101N007219999999Y999999999+03301+01701999999ADDMA1101001999999REMMET045METAR SBKG 271800Z 11014KT CAVOK 33/17 Q1010=
0072827950999992017022719004-07270-035896FM-15+050299999V0200901N007719999999Y999999999+03201+01801999999ADDMA1101001999999REMMET045METAR SBKG 271900Z 09015KT CAVOK 32/18 Q1010=
0142827950999992017022720004-07270-035896FM-15+050299999V0200801N009319999999N009999199+03001+01901999999ADDGA1041+013111999GE19MSL   +99999+99999GF199999041999013111999999MA1101101999999REMMET051METAR SBKG 272000Z 08018KT 9999 SCT043 30/19 Q1011=
0142827950999992017022804004-07270-035896FM-15+050299999V0200801N004110030519N009999199+02301+02201999999ADDGA1071+003051999GE19MSL   +99999+99999GF199999071999003051999999MA1101301999999REMMET051METAR SBKG 280400Z 08008KT 9999 BKN010 23/22 Q1013=
0142827950999992017022805004-07270-035896FM-15+050299999V0201001N002610027419N009999199+02301+02201999999ADDGA1071+002741999GE19MSL   +99999+99999GF199999071999002741999999MA1101301999999REMMET051METAR SBKG 280500Z 10005KT 9999 BKN009 23/22 Q1013=
0175827950999992017022808004-07270-035896FM-15+050299999V0200901N00311004571CN009999199+02301+02201999999ADDGA1041+002131999GA2041+004571999GE19MSL   +99999+99999GF199999041999002131999999MA1101301999999MW1611REMMET062METAR SBKG 280800Z 09006KT 9999 -RA SCT007 SCT015 23/22 Q1013=
0142827950999992017022809004-07270-035896FM-15+050299999V0201101N004110030519N009999199+02301+02201999999ADDGA1071+003051999GE19MSL   +99999+99999GF199999071999003051999999MA1101401999999REMMET051METAR SBKG 280900Z 11008KT 9999 BKN010 23/22 Q1014=
0165827950999992017022810004-07270-035896FM-15+050299999V0201101N004110045719N009999199+02301+02201999999ADDGA1041+003051999GA2071+004571999GE19MSL   +99999+99999GF199999041999003051999999MA1101401999999REMMET058METAR SBKG 281000Z 11008KT 9999 SCT010 BKN015 23/22 Q1014=
0165827950999992017022811004-07270-035896FM-15+050299999V0201101N005110045719N009999199+02501+02201999999ADDGA1041+003351999GA2071+004571999GE19MSL   +99999+99999GF199999041999003351999999MA1101501999999REMMET058METAR SBKG 281100Z 11010KT 9999 SCT011 BKN015 25/22 Q1015=
0165827950999992017022812004-07220-035880FM-12+054799999V0201401N0041100600199010000199+02551+02101101361ADDAA101999999AZ101061AZ201061GA1051+006001081GA2999+999999001GE19MSL   +99999+99999GF106991051999006001999999KA1120N+02131MA1999999095241MD1999999+0051REMSYN004BUFR
0142827950999992017022812004-07270-035896FM-15+050299999V0201101N006210076219N009999199+02701+02001999999ADDGA1071+007621999GE19MSL   +99999+99999GF199999071999007621999999MA1101801999999REMMET051METAR SBKG 281200Z 11012KT 9999 BKN025 27/20 Q1018=
0142827950999992017022813004-07270-035896FM-15+050299999V0200901N006710091419N009999199+02801+02001999999ADDGA1071+009141999GE19MSL   +99999+99999GF199999071999009141999999MA1101501999999REMMET051METAR SBKG 281300Z 09013KT 9999 BKN030 28/20 Q1015=
0165827950999992017022815004-07270-035896FM-15+050299999V0200801N005710304819N009999199+02901+02101999999ADDGA1041+010361999GA2071+030481999GE19MSL   +99999+99999GF199999041999010361999999MA1101301999999REMMET058METAR SBKG 281500Z 08011KT 9999 SCT034 BKN100 29/21 Q1013=
0142827950999992017022817004-07270-035896FM-15+050299999V0200801N008219999999N009999199+02901+02001999999ADDGA1041+010971999GE19MSL   +99999+99999GF199999041999010971999999MA1101101999999REMMET051METAR SBKG 281700Z 08016KT 9999 SCT036 29/20 Q1011=
0152827950999992017022818004-07220-035880FM-12+054799999V0200901N0036199999999010000199+02751+02051100931ADDAA101999999AZ101061AZ201061GA1041+006001081GA2999+999999031GE19MSL   +99999+99999GF107991041999006001999999MA1999999094831MD1999999+0031REMSYN004BUFR
0142827950999992017022819004-07270-035896FM-15+050299999V0200801N007719999999N009999199+02901+01901999999ADDGA1021+010971999GE19MSL   +99999+99999GF199999021999010971999999MA1101101999999REMMET051METAR SBKG 281900Z 08015KT 9999 FEW036 29/19 Q1011=
0142827950999992017022820004-07270-035896FM-15+050299999V0200701N008219999999N009999199+02801+02001999999ADDGA1021+010971999GE19MSL   +99999+99999GF199999021999010971999999MA1101101999999REMMET051METAR SBKG 282000Z 07016KT 9999 FEW036 28/20 Q1011=
0165827950999992017030104004-07270-035896FM-15+050299999V0200901N003610039619N009999199+02301+02201999999ADDGA1041+002131999GA2071+003961999GE19MSL   +99999+99999GF199999041999002131999999MA1101201999999REMMET058METAR SBKG 010400Z 09007KT 9999 SCT007 BKN013 23/22 Q1012=
0165827950999992017030105004-07270-035896FM-15+050299999V0201101N004110039619N009999199+02301+02201999999ADDGA1041+002131999GA2071+003961999GE19MSL   +99999+99999GF199999041999002131999999MA1101201999999REMMET058METAR SBKG 010500Z 11008KT 9999 SCT007 BKN013 23/22 Q1012=
0165827950999992017030106004-07270-035896FM-15+050299999V0201101N002610039619N009999199+02301+02201999999ADDGA1041+002131999GA2071+003961999GE19MSL   +99999+99999GF199999041999002131999999MA1101101999999REMMET058METAR SBKG 010600Z 11005KT 9999 SCT007 BKN013 23/22 Q1011=
0165827950999992017030107004-07270-035896FM-15+050299999V0201001N003110039619N009999199+02301+02101999999ADDGA1021+002131999GA2071+003961999GE19MSL   +99999+99999GF199999021999002131999999MA1101101999999REMMET058METAR SBKG 010700Z 10006KT 9999 FEW007 BKN013 23/21 Q1011=
0165827950999992017030109004-07270-035896FM-15+050299999V0200901N003110036619N009999199+02301+02201999999ADDGA1041+001221999GA2071+003661999GE19MSL   +99999+99999GF199999041999001221999999MA1101201999999REMMET058METAR SBKG 010900Z 09006KT 9999 SCT004 BKN012 23/22 Q1012=
0165827950999992017030110004-07270-035896FM-15+050299999V0201001N004610048819N009999199+02401+02201999999ADDGA1041+002741999GA2071+004881999GE19MSL   +99999+99999GF199999041999002741999999MA1101301999999REMMET058METAR SBKG 011000Z 10009KT 9999 SCT009 BKN016 24/22 Q1013=
0165827950999992017030111004-07270-035896FM-15+050299999V0201001N005110054919N009999199+02501+02201999999ADDGA1041+004571999GA2071+005491999GE19MSL   +99999+99999GF199999041999004571999999MA1101301999999REMMET058METAR SBKG 011100Z 10010KT 9999 SCT015 BKN018 25/22 Q1013=
0149827950999992017030112004-07220-035880FM-12+054799999V0201401N0041100600199002000199+02501+02071101241ADDAA101999999AZ101061AZ201061GA1061+006001081GE19MSL   +99999+99999GF106991061999006001999999KA1120N+02121MA1999999095121MD1999999-0121REMSYN004BUFR
0142827950999992017030112004-07270-035896FM-15+050299999V0201101N006210070119N009999199+02701+02101999999ADDGA1071+007011999GE19MSL   +99999+99999GF199999071999007011999999MA1101401999999REMMET051METAR SBKG 011200Z 11012KT 9999 BKN023 27/21 Q1014=
0190827950999992017030114004-07270-035896FM-15+050299999V0200901N009810057919N008000199+02501+02101999999ADDGA1071+005791999GA2021+009141081GE19MSL   +99999+99999GF199999071999005791999999MA1101401999999MW1161OC101541REMMET069METAR SBKG 011400Z 09019G30KT 8000 VCSH BKN019 FEW030TCU 25/21 Q1014=
0175827950999992017030115004-07270-035896FM-15+050299999V0200901N005710121919N007000199+02201+02101999999ADDGA1041+005491999GA2071+012191999GE19MSL   +99999+99999GF199999041999005491999999MA1101401999999MW1611REMMET062METAR SBKG 011500Z 09011KT 7000 -RA SCT018 BKN040 22/21 Q1014=
0199827950999992017030116004-07270-035896FM-15+050299999V0201001N005110121919N009999199+02301+02201999999ADDGA1041+002131999GA2071+012191999GA3071+030481999GE19MSL   +99999+99999GF199999041999002131999999MA1101301999999MW1161REMMET070METAR SBKG 011600Z 10010KT 9999 VCSH SCT007 BKN040 BKN100 23/22 Q1013=
0188827950999992017030117004-07270-035896FM-15+050299999V0201001N006210070119N009999199+02401+02101999999ADDGA1021+002441999GA2071+007011999GA3071+030481999GE19MSL   +99999+99999GF199999021999002441999999MA1101201999999REMMET065METAR SBKG 011700Z 10012KT 9999 FEW008 BKN023 BKN100 24/21 Q1012=
0142827950999992017030118004-07220-035880FM-12+054799999V0200901N0036199999999010000199+02451+02101101041ADDAA106012031AY161061AY221061GA1041+006001081GE19MSL   +99999+99999GF107991041999006001999999MA1999999094901MD1999999+0071MW1021REMSYN004BUFR
0188827950999992017030118004-07270-035896FM-15+050299999V0200901N00571006101CN009999199+02501+02101999999ADDGA1021+004271999GA2041+006101999GA3071+030481999GE19MSL   +99999+99999GF199999021999004271999999MA1101201999999REMMET065METAR SBKG 011800Z 09011KT 9999 FEW014 SCT020 BKN100 25/21 Q1012=
0165827950999992017030119004-07270-035896FM-15+050299999V0201101N006210054919N009999199+02501+02201999999ADDGA1071+005491999GA2071+030481999GE19MSL   +99999+99999GF199999071999005491999999MA1101201999999REMMET058METAR SBKG 011900Z 11012KT 9999 BKN018 BKN100 25/22 Q1012=
0142827950999992017030120004-07270-035896FM-15+050299999V0201201N007219999999N009999199+02601+02101999999ADDGA1021+005491999GE19MSL   +99999+99999GF199999021999005491999999MA1101201999999REMMET051METAR SBKG 012000Z 12014KT 9999 FEW018 26/21 Q1012=
0168827950999992017030200004-07220-035880FM-12+054799999V0200901N0041100600199001000199+02271+02031101271ADDAA101999999AZ101061AZ201061GA1081+006001071GA2999+999999101GA3999+999999101GE19MSL   +99999+99999GF108991081999006001999999MA1999999095131MD1999999+0121REMSYN004BUFR
0174827950999992017030204004-07270-035896FM-15+050299999V0200701N00261003661CN005000199+02201+02101999999ADDGA1041+000911999GA2041+003661999GE19MSL   +99999+99999GF199999041999000911999999MA1101401999999MW1101REMMET061METAR SBKG 020400Z 07005KT 5000 BR SCT003 SCT012 22/21 Q1014=
0165827950999992017030205004-07270-035896FM-15+050299999V0200901N00211004571CN009999199+02201+02201999999ADDGA1021+001221999GA2041+004571999GE19MSL   +99999+99999GF199999021999001221999999MA1101301999999REMMET058METAR SBKG 020500Z 09004KT 9999 FEW004 SCT015 22/22 Q1013=
0165827950999992017030206004-07270-035896FM-15+050299999V0200901N00261006401CN009999199+02201+02101999999ADDGA1021+002131999GA2041+006401999GE19MSL   +99999+99999GF199999021999002131999999MA1101301999999REMMET058METAR SBKG 020600Z 09005KT 9999 FEW007 SCT021 22/21 Q1013=
0165827950999992017030207004-07270-035896FM-15+050299999V0200801N002610067119N009999199+02201+02101999999ADDGA1041+002131999GA2071+006711999GE19MSL   +99999+99999GF199999041999002131999999MA1101301999999REMMET058METAR SBKG 020700Z 08005KT 9999 SCT007 BKN022 22/21 Q1013=
0165827950999992017030208004-07270-035896FM-15+050299999V0200901N002110045719N009999199+02201+02101999999ADDGA1041+002441999GA2071+004571999GE19MSL   +99999+99999GF199999041999002441999999MA1101301999999REMMET058METAR SBKG 020800Z 09004KT 9999 SCT008 BKN015 22/21 Q1013=
0165827950999992017030209004-07270-035896FM-15+050299999V0201301N002110085319N009999199+02201+02201999999ADDGA1041+003351999GA2071+008531999GE19MSL   +99999+99999GF199999041999003351999999MA1101301999999REMMET058METAR SBKG 020900Z 13004KT 9999 SCT011 BKN028 22/22 Q1013=
0184827950999992017030210004-07270-035896FM-15+050299999V0201401N003110045719N008000199+02301+02201999999ADDGA1041+003051999GA2071+004571999GE19MSL   +99999+99999GF199999041999003051999999MA1101401999999MW1101MW2611REMMET065METAR SBKG 021000Z 14006KT 8000 -RA BR SCT010 BKN015 23/22 Q1014=
0165827950999992017030211004-07270-035896FM-15+050299999V0201301N003110045719N009999199+02401+02201999999ADDGA1041+002441999GA2071+004571999GE19MSL   +99999+99999GF199999041999002441999999MA1101501999999REMMET058METAR SBKG 021100Z 13006KT 9999 SCT008 BKN015 24/22 Q1015=
0149827950999992017030212004-07220-035880FM-12+054799999V0200901N0036100600199010000199+02451+02121101271ADDAA124013031AZ101061AZ201061GA1071+006001071GE19MSL   +99999+99999GF107991071999006001999999KA1120N+02091MA1999999095131MD1999999+0011REMSYN004BUFR
0176827950999992017030212004-07270-035896FM-15+050299999V0201501N005710054919N008000199+02401+02201999999ADDGA1041+004571999GA2071+005491999GE19MSL   +99999+99999GF199999041999004571999999MA1101501999999MW1161REMMET063METAR SBKG 021200Z 15011KT 8000 VCSH SCT015 BKN018 24/22 Q1015=
0175827950999992017030213004-07270-035896FM-15+050299999V0201501N005710054919N008000199+02501+02201999999ADDGA1041+004571999GA2071+005491999GE19MSL   +99999+99999GF199999041999004571999999MA1101501999999MW1611REMMET062METAR SBKG 021300Z 15011KT 8000 -RA SCT015 BKN018 25/22 Q1015=
0165827950999992017030215004-07270-035896FM-15+050299999V0201501N004110079219N009999199+02701+02001999999ADDGA1041+005791999GA2071+007921999GE19MSL   +99999+99999GF199999041999005791999999MA1101501999999REMMET058METAR SBKG 021500Z 15008KT 9999 SCT019 BKN026 27/20 Q1015=
0225827950999992017030217004-07270-035896FM-15+050299999V0200901N00621009141CN009999199+02401+02201999999ADDGA1041+003051999GA2041+009141999GA3021+010971081GA4071+015241999GE19MSL   +99999+99999GF199999041999003051999999MA1101301999999MW1161REMMET080METAR SBKG 021700Z 09012KT 9999 VCSH SCT010 SCT030 FEW036TCU BKN050 24/22 Q1013=
0174827950999992017030218004-07220-035880FM-12+054799999V0200901N0041100600199010000199+02371+02111101141ADDAA106000331AY161061AY221061GA1081+006001071GA2999+999999101GA3999+999999101GE19MSL   +99999+99999GF108991081999006001999999MA1999999094981MD1999999+0081MW1601REMSYN004BUFR
0202827950999992017030218004-07270-035896FM-15+050299999V0200801N005710213419N009999199+02501+02101999999ADDGA1041+004571999GA2021+010671081GA3071+021341999GE19MSL   +99999+99999GF199999041999004571999999MA1101301999999MW1161REMMET073METAR SBKG 021800Z 08011KT 9999 VCSH SCT015 FEW035TCU BKN070 25/21 Q1013=
0202827950999992017030219004-07270-035896FM-15+050299999V0200801N006210243819N009999199+02401+02101999999ADDGA1041+003961999GA2021+010671081GA3071+024381999GE19MSL   +99999+99999GF199999041999003961999999MA1101201999999MW1161REMMET073METAR SBKG 021900Z 08012KT 9999 VCSH SCT013 FEW035TCU BKN080 24/21 Q1012=
0176827950999992017030220004-07270-035896FM-15+050299999V0200801N007210274319N009999199+02401+02201999999ADDGA1041+003351999GA2081+027431999GE19MSL   +99999+99999GF199999041999003351999999MA1101301999999MW1161REMMET063METAR SBKG 022000Z 08014KT 9999 VCSH SCT011 OVC090 24/22 Q1013=
0152827950999992017030300004-07220-035880FM-12+054799999V0200901N0031100600199001000199+02261+02111101361ADDAA101999999AZ101061AZ201061GA1051+006001081GA2999+999999031GE19MSL   +99999+99999GF107991051999006001999999MA1999999095221MD1999999+0091REMSYN004BUFR
0142827950999992017030304004-07270-035896FM-15+050299999V0209999C000019999999N009999199+02101+02001999999ADDGA1041+005181999GE19MSL   +99999+99999GF199999041999005181999999MA1101501999999REMMET051METAR SBKG 030400Z 00000KT 9999 SCT017 21/20 Q1015=
0165827950999992017030305004-07270-035896FM-15+050299999V0201901N00101005181CN009999199+02101+02001999999ADDGA1041+004881999GA2041+005181999GE19MSL   +99999+99999GF199999041999004881999999MA1101501999999REMMET058METAR SBKG 030500Z 19002KT 9999 SCT016 SCT017 21/20 Q1015=
0142827950999992017030306004-07270-035896FM-15+050299999V0201501N002119999999N009999199+02201+02001999999ADDGA1041+005491999GE19MSL   +99999+99999GF199999041999005491999999MA1101401999999REMMET051METAR SBKG 030600Z 15004KT 9999 SCT018 22/20 Q1014=
0142827950999992017030307004-07270-035896FM-15+050299999V0201601N001519999999N009999199+02101+02001999999ADDGA1041+003961999GE19MSL   +99999+99999GF199999041999003961999999MA1101401999999REMMET051METAR SBKG 030700Z 16003KT 9999 SCT013 21/20 Q1014=
0072827950999992017030309004-07270-035896FM-15+050299999V0201401N001519999999Y999999999+02101+02001999999ADDMA1101501999999REMMET045METAR SBKG 030900Z 14003KT CAVOK 21/20 Q1015=
0150827950999992017030310004-07270-035896FM-15+050299999V0201401V002619999999N009999199+02301+02001999999ADDGA1041+003661999GE19MSL   +99999+99999GF199999041999003661999999MA1101601999999REMMET059METAR SBKG 031000Z 14005KT 110V180 9999 SCT012 23/20 Q1016=
0165827950999992017030311004-07270-035896FM-15+050299999V0201601N004110061019N009999199+02501+01901999999ADDGA1021+004571999GA2071+006101999GE19MSL   +99999+99999GF199999021999004571999999MA1101701999999REMMET058METAR SBKG 031100Z 16008KT 9999 FEW015 BKN020 25/19 Q1017=
0149827950999992017030312004-07220-035880FM-12+054799999V0201401N0036199999999010000199+02551+02111101461ADDAA124000331AZ101061AZ201061GA1031+006001081GE19MSL   +99999+99999GF105991031999006001999999KA1120N+02011MA1999999095321MD1999999+0051REMSYN004BUFR
0173827950999992017030313004-07270-035896FM-15+050299999V0201401V00411030481CN009999199+02701+01901999999ADDGA1041+010061999GA2041+030481999GE19MSL   +99999+99999GF199999041999010061999999MA1101601999999REMMET066METAR SBKG 031300Z 14008KT 080V190 9999 SCT033 SCT100 27/19 Q1016=
0173827950999992017030314004-07270-035896FM-15+050299999V0200901V004610118919N009999199+02901+01901999999ADDGA1071+011891999GA2071+030481999GE19MSL   +99999+99999GF199999071999011891999999MA1101601999999REMMET066METAR SBKG 031400Z 09009KT 050V130 9999 BKN039 BKN100 29/19 Q1016=
0173827950999992017030315004-07270-035896FM-15+050299999V0201201V004610137219N009999199+02901+01901999999ADDGA1071+013721999GA2041+030481999GE19MSL   +99999+99999GF199999071999013721999999MA1101501999999REMMET066METAR SBKG 031500Z 12009KT 070V150 9999 BKN045 SCT100 29/19 Q1015=
0150827950999992017030317004-07270-035896FM-15+050299999V0201101V004110121919N009999199+03101+01801999999ADDGA1071+012191999GE19MSL   +99999+99999GF199999071999012191999999MA1101301999999REMMET059METAR SBKG 031700Z 11008KT 050V160 9999 BKN040 31/18 Q1013=
0136827950999992017030318004-07220-035880FM-12+054799999V0200901N0041199999999010000199+03021+01921101071ADDAA101999999AZ101061AZ201061GA1041+006001081GE19MSL   +99999+99999GF104991041999006001999999MA1999999094981MD1999999+0001REMSYN004BUFR
0142827950999992017030318004-07270-035896FM-15+050299999V0200901N006719999999N009999199+03101+02001999999ADDGA1041+012191999GE19MSL   +99999+99999GF199999041999012191999999MA1101301999999REMMET051METAR SBKG 031800Z 09013KT 9999 SCT040 31/20 Q1013=
0142827950999992017030319004-07270-035896FM-15+050299999V0201001N006719999999N009999199+03001+01901999999ADDGA1021+009141999GE19MSL   +99999+99999GF199999021999009141999999MA1101201999999REMMET051METAR SBKG 031900Z 10013KT 9999 FEW030 30/19 Q1012=
0072827950999992017030320004-07270-035896FM-15+050299999V0200901N007719999999Y999999999+02901+02001999999ADDMA1101301999999REMMET045METAR SBKG 032000Z 09015KT CAVOK 29/20 Q1013=
0136827950999992017030400004-07220-035880FM-12+054799999V0200901N0041199999999001000199+02311+02021101331ADDAA101999999AZ101061AZ201061GA1041+006001081GE19MSL   +99999+99999GF104991041999006001999999MA1999999095201MD1999999-0021REMSYN004BUFR
0188827950999992017030405004-07270-035896FM-15+050299999V0201201N002610057919N009999199+02301+02101999999ADDGA1021+004271999GA2071+005791999GA3071+014941999GE19MSL   +99999+99999GF199999021999004271999999MA1101401999999REMMET065METAR SBKG 040500Z 12005KT 9999 FEW014 BKN019 BKN049 23/21 Q1014=
0165827950999992017030407004-07270-035896FM-15+050299999V0201301N002610152419N009999199+02301+02001999999ADDGA1021+004271999GA2071+015241999GE19MSL   +99999+99999GF199999021999004271999999MA1101301999999REMMET058METAR SBKG 040700Z 13005KT 9999 FEW014 BKN050 23/20 Q1013=
0072827950999992017030409004-07270-035896FM-15+050299999V0201001N002619999999Y999999999+02201+02001999999ADDMA1101401999999REMMET045METAR SBKG 040900Z 10005KT CAVOK 22/20 Q1014=
0142827950999992017030411004-07270-035896FM-15+050299999V0201401N003119999999N009999199+02501+01901999999ADDGA1021+004571999GE19MSL   +99999+99999GF199999021999004571999999MA1101501999999REMMET051METAR SBKG 041100Z 14006KT 9999 FEW015 25/19 Q1015=
0181827950999992017030412004-07220-035880FM-12+054799999V0201401N0041199999999010000199+02521+02081101411ADDAA101999999AZ101061AZ201061GA1021+006001081GA2999+999999031GA3999+999999021GE19MSL   +99999+99999GF105991021999006001999999KA1120N+02081MA1999999095271MD1999999-0051REMSYN004BUFR
0142827950999992017030412004-07270-035896FM-15+050299999V0201101N005119999999N009999199+02701+02001999999ADDGA1041+006711999GE19MSL   +99999+99999GF199999041999006711999999MA1101501999999REMMET051METAR SBKG 041200Z 11010KT 9999 SCT022 27/20 Q1015=
0142827950999992017030413004-07270-035896FM-15+050299999V0201101N003610091419N009999199+02801+01901999999ADDGA1071+009141999GE19MSL   +99999+99999GF199999071999009141999999MA1101501999999REMMET051METAR SBKG 041300Z 11007KT 9999 BKN030 28/19 Q1015=
0142827950999992017030414004-07270-035896FM-15+050299999V0201201N005710091419N009999199+02801+01901999999ADDGA1071+009141999GE19MSL   +99999+99999GF199999071999009141999999MA1101401999999REMMET051METAR SBKG 041400Z 12011KT 9999 BKN030 28/19 Q1014=
0165827950999992017030416004-07270-035896FM-15+050299999V0201101N004610091419N009999199+03001+01901999999ADDGA1071+009141999GA2071+027431999GE19MSL   +99999+99999GF199999071999009141999999MA1101201999999REMMET058METAR SBKG 041600Z 11009KT 9999 BKN030 BKN090 30/19 Q1012=
0173827950999992017030417004-07270-035896FM-15+050299999V0200701V006210091419N009999199+02901+02001999999ADDGA1071+009141999GA2071+027431999GE19MSL   +99999+99999GF199999071999009141999999MA1101201999999REMMET066METAR SBKG 041700Z 07012KT 080V150 9999 BKN030 BKN090 29/20 Q1012=
0152827950999992017030418004-07220-035880FM-12+054799999V0200901N0041199999999010000199+02751+02051100971ADDAA101999999AZ101061AZ201061GA1031+006001081GA2999+999999031GE19MSL   +99999+99999GF105991031999006001999999MA1999999094861MD1999999-0121REMSYN004BUFR
0165827950999992017030418004-07270-035896FM-15+050299999V0200801N007210274319N009999199+02901+01901999999ADDGA1041+009141999GA2071+027431999GE19MSL   +99999+99999GF199999041999009141999999MA1101101999999REMMET058METAR SBKG 041800Z 08014KT 9999 SCT030 BKN090 29/19 Q1011=
0165827950999992017030419004-07270-035896FM-15+050299999V0201101N005710274319N009999199+02901+01801999999ADDGA1041+009141999GA2071+027431999GE19MSL   +99999+99999GF199999041999009141999999MA1101101999999REMMET058METAR SBKG 041900Z 11011KT 9999 SCT030 BKN090 29/18 Q1011=
0165827950999992017030420004-07270-035896FM-15+050299999V0200901N005110274319N009999199+02901+01801999999ADDGA1041+009141999GA2071+027431999GE19MSL   +99999+99999GF199999041999009141999999MA1101101999999REMMET058METAR SBKG 042000Z 09010KT 9999 SCT030 BKN090 29/18 Q1011=
0152827950999992017030500004-07220-035880FM-12+054799999V0200901N0041199999999001000199+02301+02051101171ADDAA101999999AZ101061AZ201061GA1031+006001081GA2999+999999031GE19MSL   +99999+99999GF106991031999006001999999MA1999999095051MD1999999-0151REMSYN004BUFR
0142827950999992017030504004-07270-035896FM-15+050299999V0201001N003619999999N009999199+02301+02101999999ADDGA1041+004571999GE19MSL   +99999+99999GF199999041999004571999999MA1101201999999REMMET051METAR SBKG 050400Z 10007KT 9999 SCT015 23/21 Q1012=
0142827950999992017030505004-07270-035896FM-15+050299999V0200901N002619999999N009999199+02201+02101999999ADDGA1041+004571999GE19MSL   +99999+99999GF199999041999004571999999MA1101201999999REMMET051METAR SBKG 050500Z 09005KT 9999 SCT015 22/21 Q1012=
0142827950999992017030506004-07270-035896FM-15+050299999V0200801N003119999999N009999199+02201+02101999999ADDGA1041+004571999GE19MSL   +99999+99999GF199999041999004571999999MA1101101999999REMMET051METAR SBKG 050600Z 08006KT 9999 SCT015 22/21 Q1011=
0142827950999992017030508004-07270-035896FM-15+050299999V0200901N002619999999N009999199+02201+02101999999ADDGA1041+004571999GE19MSL   +99999+99999GF199999041999004571999999MA1101201999999REMMET051METAR SBKG 050800Z 09005KT 9999 SCT015 22/21 Q1012=
0142827950999992017030510004-07270-035896FM-15+050299999V0201001N002610045719N009999199+02301+02101999999ADDGA1071+004571999GE19MSL   +99999+99999GF199999071999004571999999MA1101301999999REMMET051METAR SBKG 051000Z 10005KT 9999 BKN015 23/21 Q1013=
0142827950999992017030511004-07270-035896FM-15+050299999V0201201N004610061019N009999199+02401+02001999999ADDGA1071+006101999GE19MSL   +99999+99999GF199999071999006101999999MA1101401999999REMMET051METAR SBKG 051100Z 12009KT 9999 BKN020 24/20 Q1014=
0181827950999992017030512004-07220-035880FM-12+054799999V0201401N0036199999999010000199+02521+02061101201ADDAA101999999AZ101061AZ201061GA1021+006001081GA2999+999999031GA3999+999999021GE19MSL   +99999+99999GF105991021999006001999999KA1120N+02101MA1999999095081MD1999999-0191REMSYN004BUFR
0142827950999992017030513004-07270-035896FM-15+050299999V0201601N003610076219N009999199+02701+02001999999ADDGA1071+007621999GE19MSL   +99999+99999GF199999071999007621999999MA1101401999999REMMET051METAR SBKG 051300Z 16007KT 9999 BKN025 27/20 Q1014=
0142827950999992017030514004-07270-035896FM-15+050299999V0201301N004610091419N009999199+02801+02001999999ADDGA1071+009141999GE19MSL   +99999+99999GF199999071999009141999999MA1101301999999REMMET051METAR SBKG 051400Z 13009KT 9999 BKN030 28/20 Q1013=
0150827950999992017030515004-07270-035896FM-15+050299999V0201201V003610091419N009999199+02901+01901999999ADDGA1071+009141999GE19MSL   +99999+99999GF199999071999009141999999MA1101201999999REMMET059METAR SBKG 051500Z 12007KT 070V160 9999 BKN030 29/19 Q1012=
0142827950999992017030516004-07270-035896FM-15+050299999V0200901N005710140219N009999199+03101+01901999999ADDGA1071+014021999GE19MSL   +99999+99999GF199999071999014021999999MA1101101999999REMMET051METAR SBKG 051600Z 09011KT 9999 BKN046 31/19 Q1011=
0142827950999992017030517004-07270-035896FM-15+050299999V0200801N005710146319N009999199+03101+01901999999ADDGA1071+014631999GE19MSL   +99999+99999GF199999071999014631999999MA1101001999999REMMET051METAR SBKG 051700Z 08011KT 9999 BKN048 31/19 Q1010=
0152827950999992017030518004-07220-035880FM-12+054799999V0200901N0046100600199010000199+02971+01921100821ADDAA101999999AZ101061AZ201061GA1051+006001081GA2999+999999021GE19MSL   +99999+99999GF107991051999006001999999MA1999999094751MD1999999-0111REMSYN004BUFR
0142827950999992017030518004-07270-035896FM-15+050299999V0200901N006710121919N009999199+03001+02001999999ADDGA1071+012191999GE19MSL   +99999+99999GF199999071999012191999999MA1101001999999REMMET051METAR SBKG 051800Z 09013KT 9999 BKN040 30/20 Q1010=
0142827950999992017030519004-07270-035896FM-15+050299999V0200801N007219999999N009999199+02901+02001999999ADDGA1021+011281999GE19MSL   +99999+99999GF199999021999011281999999MA1101001999999REMMET051METAR SBKG 051900Z 08014KT 9999 FEW037 29/20 Q1010=
0142827950999992017030520004-07270-035896FM-15+050299999V0200801N008819999999N009999199+02701+02101999999ADDGA1021+009141999GE19MSL   +99999+99999GF199999021999009141999999MA1101001999999REMMET051METAR SBKG 052000Z 08017KT 9999 FEW030 27/21 Q1010=
0136827950999992017030600004-07220-035880FM-12+054799999V0200901N0036100600199001000199+02311+02021101151ADDAA101999999AZ101061AZ201061GA1051+006001081GE19MSL   +99999+99999GF105991051999006001999999MA1999999095031MD1999999-0021REMSYN004BUFR
0142827950999992017030605004-07270-035896FM-15+050299999V0200801N003610021319N009999199+02301+02201999999ADDGA1071+002131999GE19MSL   +99999+99999GF199999071999002131999999MA1101201999999REMMET051METAR SBKG 060500Z 08007KT 9999 BKN007 23/22 Q1012=
0142827950999992017030606004-07270-035896FM-15+050299999V0200901N003110021319N009999199+02301+02101999999ADDGA1071+002131999GE19MSL   +99999+99999GF199999071999002131999999MA1101201999999REMMET051METAR SBKG 060600Z 09006KT 9999 BKN007 23/21 Q1012=
0142827950999992017030607004-07270-035896FM-15+050299999V0200801N003610021319N009999199+02201+02201999999ADDGA1071+002131999GE19MSL   +99999+99999GF199999071999002131999999MA1101201999999REMMET051METAR SBKG 060700Z 08007KT 9999 BKN007 22/22 Q1012=
0142827950999992017030608004-07270-035896FM-15+050299999V0200901N002610021319N008000199+02201+02201999999ADDGA1071+002131999GE19MSL   +99999+99999GF199999071999002131999999MA1101301999999REMMET051METAR SBKG 060800Z 09005KT 8000 BKN007 22/22 Q1013=
0165827950999992017030609004-07270-035896FM-15+050299999V0201001N002610030519N006000199+02201+02201999999ADDGA1041+002131999GA2071+003051999GE19MSL   +99999+99999GF199999041999002131999999MA1101301999999REMMET058METAR SBKG 060900Z 10005KT 6000 SCT007 BKN010 22/22 Q1013=
0174827950999992017030610004-07270-035896FM-15+050299999V0200901N003610033519N005000199+02301+02201999999ADDGA1041+001521999GA2071+003351999GE19MSL   +99999+99999GF199999041999001521999999MA1101401999999MW1101REMMET061METAR SBKG 061000Z 09007KT 5000 BR SCT005 BKN011 23/22 Q1014=
0188827950999992017030611004-07270-035896FM-15+050299999V0200801N00571004271CN009999199+02401+02201999999ADDGA1021+002441999GA2041+004271999GA3071+005491999GE19MSL   +99999+99999GF199999021999002441999999MA1101501999999REMMET065METAR SBKG 061100Z 08011KT 9999 FEW008 SCT014 BKN018 24/22 Q1015=
0165827950999992017030612004-07220-035880FM-12+054799999V0200901N0041100600199010000199+02451+02111101401ADDAA101999999AZ101061AZ201061GA1071+006001071GA2999+999999021GE19MSL   +99999+99999GF108991071999006001999999KA1120N+02121MA1999999095251MD1999999+0161REMSYN004BUFR
0165827950999992017030612004-07270-035896FM-15+050299999V0200901N005110045719N007000199+02401+02201999999ADDGA1041+003961999GA2071+004571999GE19MSL   +99999+99999GF199999041999003961999999MA1101501999999REMMET058METAR SBKG 061200Z 09010KT 7000 SCT013 BKN015 24/22 Q1015=
0142827950999992017030614004-07270-035896FM-15+050299999V0201001N005710079219N009999199+02801+02001999999ADDGA1071+007921999GE19MSL   +99999+99999GF199999071999007921999999MA1101501999999REMMET051METAR SBKG 061400Z 10011KT 9999 BKN026 28/20 Q1015=
0142827950999992017030615004-07270-035896FM-15+050299999V0201001N005110109719N009999199+02901+02001999999ADDGA1071+010971999GE19MSL   +99999+99999GF199999071999010971999999MA1101401999999REMMET051METAR SBKG 061500Z 10010KT 9999 BKN036 29/20 Q1014=
0142827950999992017030616004-07270-035896FM-15+050299999V0201001N004610140219N009999199+03001+01901999999ADDGA1071+014021999GE19MSL   +99999+99999GF199999071999014021999999MA1101201999999REMMET051METAR SBKG 061600Z 10009KT 9999 BKN046 30/19 Q1012=
0152827950999992017030618004-07220-035880FM-12+054799999V0200901N0036199999999010000199+02821+02231100981ADDAA101999999AZ101061AZ201061GA1041+006001081GA2999+999999021GE19MSL   +99999+99999GF106991041999006001999999MA1999999094881MD1999999+0131REMSYN004BUFR
0142827950999992017030618004-07270-035896FM-15+050299999V0200801N006710121919N009999199+02901+02001999999ADDGA1071+012191999GE19MSL   +99999+99999GF199999071999012191999999MA1101101999999REMMET051METAR SBKG 061800Z 08013KT 9999 BKN040 29/20 Q1011=
0142827950999992017030620004-07270-035896FM-15+050299999V0200901N006719999999N009999199+02901+01901999999ADDGA1041+009141999GE19MSL   +99999+99999GF199999041999009141999999MA1101201999999REMMET051METAR SBKG 062000Z 09013KT 9999 SCT030 29/19 Q1012=
0136827950999992017030700004-07220-035880FM-12+054799999V0200901N0041199999999001000199+02301+02071101261ADDAA101999999AZ101061AZ201061GA1041+006001081GE19MSL   +99999+99999GF104991041999006001999999MA1999999095121MD1999999+0091REMSYN004BUFR
0165827950999992017030704004-07270-035896FM-15+050299999V0200901N004610042719N009999199+02301+02201999999ADDGA1041+002131999GA2071+004271999GE19MSL   +99999+99999GF199999041999002131999999MA1101301999999REMMET058METAR SBKG 070400Z 09009KT 9999 SCT007 BKN014 23/22 Q1013=
0165827950999992017030705004-07270-035896FM-15+050299999V0200901N00511007921CN009999199+02301+02201999999ADDGA1041+002131999GA2041+007921999GE19MSL   +99999+99999GF199999041999002131999999MA1101301999999REMMET058METAR SBKG 070500Z 09010KT 9999 SCT007 SCT026 23/22 Q1013=
0188827950999992017030706004-07270-035896FM-15+050299999V0200901N00261003961CN009999199+02301+02201999999ADDGA1021+001521999GA2041+003961999GA3071+004881999GE19MSL   +99999+99999GF199999021999001521999999MA1101301999999REMMET065METAR SBKG 070600Z 09005KT 9999 FEW005 SCT013 BKN016 23/22 Q1013=
0165827950999992017030707004-07270-035896FM-15+050299999V0201101N005710027419N009999199+02301+02201999999ADDGA1041+001221999GA2071+002741999GE19MSL   +99999+99999GF199999041999001221999999MA1101301999999REMMET058METAR SBKG 070700Z 11011KT 9999 SCT004 BKN009 23/22 Q1013=
0165827950999992017030708004-07270-035896FM-15+050299999V0201201N003110030519N007000199+02301+02201999999ADDGA1041+001221999GA2071+003051999GE19MSL   +99999+99999GF199999041999001221999999MA1101401999999REMMET058METAR SBKG 070800Z 12006KT 7000 SCT004 BKN010 23/22 Q1014=
0165827950999992017030709004-07270-035896FM-15+050299999V0201101N00261003661CN009999199+02301+02201999999ADDGA1021+001221999GA2041+003661999GE19MSL   +99999+99999GF199999021999001221999999MA1101401999999REMMET058METAR SBKG 070900Z 11005KT 9999 FEW004 SCT012 23/22 Q1014=
0165827950999992017030711004-07270-035896FM-15+050299999V0201101N005110045719N009999199+02501+02101999999ADDGA1021+003961999GA2071+004571999GE19MSL   +99999+99999GF199999021999003961999999MA1101601999999REMMET058METAR SBKG 071100Z 11010KT 9999 FEW013 BKN015 25/21 Q1016=
0165827950999992017030712004-07220-035880FM-12+054799999V0200901N0036100600199010000199+02571+02121101351ADDAA101999999AZ101061AZ201061GA1051+006001081GA2999+999999001GE19MSL   +99999+99999GF106991051999006001999999KA1120N+02151MA1999999095231MD1999999-0021REMSYN004BUFR
0142827950999992017030712004-07270-035896FM-15+050299999V0201201N004610070119N009999199+02601+02001999999ADDGA1071+007011999GE19MSL   +99999+99999GF199999071999007011999999MA1101501999999REMMET051METAR SBKG 071200Z 12009KT 9999 BKN023 26/20 Q1015=
0142827950999992017030713004-07270-035896FM-15+050299999V0201201N005110100619N009999199+02801+02001999999ADDGA1071+010061999GE19MSL   +99999+99999GF199999071999010061999999MA1101501999999REMMET051METAR SBKG 071300Z 12010KT 9999 BKN033 28/20 Q1015=
0142827950999992017030715004-07270-035896FM-15+050299999V0201101N006710121919N009999199+03101+01901999999ADDGA1071+012191999GE19MSL   +99999+99999GF199999071999012191999999MA1101301999999REMMET051METAR SBKG 071500Z 11013KT 9999 BKN040 31/19 Q1013=
0152827950999992017030718004-07220-035880FM-12+054799999V0200901N0041199999999010000199+02861+01981100931ADDAA101999999AZ101061AZ201061GA1041+006001081GA2999+999999031GE19MSL   +99999+99999GF107991041999006001999999MA1999999094851MD1999999-0031REMSYN004BUFR
0152827950999992017030800004-07220-035880FM-12+054799999V0200901N0036199999999001000199+02321+02091101301ADDAA101999999AZ101061AZ201061GA1041+006001081GA2999+999999001GE19MSL   +99999+99999GF105991041999006001999999MA1999999095181MD1999999+0061REMSYN004BUFR
0142827950999992017030804004-07270-035896FM-15+050299999V0200901N004610045719N009999199+02301+02101999999ADDGA1071+004571999GE19MSL   +99999+99999GF199999071999004571999999MA1101301999999REMMET051METAR SBKG 080400Z 09009KT 9999 BKN015 23/21 Q1013=
0165827950999992017030805004-07270-035896FM-15+050299999V0201001N00461004571CN009999199+02301+02201999999ADDGA1021+002741999GA2041+004571999GE19MSL   +99999+99999GF199999021999002741999999MA1101301999999REMMET058METAR SBKG 080500Z 10009KT 9999 FEW009 SCT015 23/22 Q1013=
0165827950999992017030807004-07270-035896FM-15+050299999V0201101N003610030519N009999199+02301+02201999999ADDGA1041+001521999GA2071+003051999GE19MSL   +99999+99999GF199999041999001521999999MA1101301999999REMMET058METAR SBKG 080700Z 11007KT 9999 SCT005 BKN010 23/22 Q1013=
0165827950999992017030809004-07270-035896FM-15+050299999V0201301N002110054919N009999199+02201+02201999999ADDGA1041+004571999GA2071+005491999GE19MSL   +99999+99999GF199999041999004571999999MA1101401999999REMMET058METAR SBKG 080900Z 13004KT 9999 SCT015 BKN018 22/22 Q1014=
0142827950999992017030811004-07270-035896FM-15+050299999V0201201N005119999999N009999199+02401+02001999999ADDGA1041+003661999GE19MSL   +99999+99999GF199999041999003661999999MA1101501999999REMMET051METAR SBKG 081100Z 12010KT 9999 SCT012 24/20 Q1015=
0181827950999992017030812004-07220-035880FM-12+054799999V0200901N0036199999999010000199+02471+02131101421ADDAA101999999AZ101061AZ201061GA1041+006001081GA2999+999999031GA3999+999999001GE19MSL   +99999+99999GF106991041999006001999999KA1120N+02141MA1999999095281MD1999999+0051REMSYN004BUFR
0142827950999992017030812004-07270-035896FM-15+050299999V0201001N005110079219N009999199+02601+01901999999ADDGA1071+007921999GE19MSL   +99999+99999GF199999071999007921999999MA1101501999999REMMET051METAR SBKG 081200Z 10010KT 9999 BKN026 26/19 Q1015=
0150827950999992017030813004-07270-035896FM-15+050299999V0201101V004110091419N009999199+02801+01901999999ADDGA1071+009141999GE19MSL   +99999+99999GF199999071999009141999999MA1101501999999REMMET059METAR SBKG 081300Z 11008KT 060V130 9999 BKN030 28/19 Q1015=
0150827950999992017030814004-07270-035896FM-15+050299999V0201001V005710109719N009999199+02901+01801999999ADDGA1071+010971999GE19MSL   +99999+99999GF199999071999010971999999MA1101401999999REMMET059METAR SBKG 081400Z 10011KT 080V140 9999 BKN036 29/18 Q1014=
0150827950999992017030815004-07270-035896FM-15+050299999V0201101V005110131119N009999199+03101+01901999999ADDGA1071+013111999GE19MSL   +99999+99999GF199999071999013111999999MA1101301999999REMMET059METAR SBKG 081500Z 11010KT 050V160 9999 BKN043 31/19 Q1013=
0142827950999992017030816004-07270-035896FM-15+050299999V0201301N006710121919N009999199+03001+02001999999ADDGA1071+012191999GE19MSL   +99999+99999GF199999071999012191999999MA1101201999999REMMET051METAR SBKG 081600Z 13013KT 9999 BKN040 30/20 Q1012=
0150827950999992017030817004-07270-035896FM-15+050299999V0201201V006210121919N009999199+03101+01901999999ADDGA1071+012191999GE19MSL   +99999+99999GF199999071999012191999999MA1101101999999REMMET059METAR SBKG 081700Z 12012KT 090V160 9999 BKN040 31/19 Q1011=
0152827950999992017030818004-07220-035880FM-12+054799999V0201401N0046199999999010000199+02971+01951100901ADDAA101999999AZ101061AZ201061GA1031+006001081GA2999+999999021GE19MSL   +99999+99999GF105991031999006001999999MA1999999094831MD1999999-0021REMSYN004BUFR
0142827950999992017030818004-07270-035896FM-15+050299999V0201201N008219999999N009999199+03101+01901999999ADDGA1041+012191999GE19MSL   +99999+99999GF199999041999012191999999MA1101101999999REMMET051METAR SBKG 081800Z 12016KT 9999 SCT040 31/19 Q1011=
0142827950999992017030820004-07270-035896FM-15+050299999V0200901N007719999999N009999199+02901+01901999999ADDGA1021+009141999GE19MSL   +99999+99999GF199999021999009141999999MA1101101999999REMMET051METAR SBKG 082000Z 09015KT 9999 FEW030 29/19 Q1011=
0136827950999992017030900004-07220-035880FM-12+054799999V0200901N0036100600199001000199+02351+02141101311ADDAA101999999AZ101061AZ201061GA1051+006001081GE19MSL   +99999+99999GF105991051999006001999999MA1999999095181MD1999999+0001REMSYN004BUFR
0142827950999992017030904004-07270-035896FM-15+050299999V0200901N002610039619N009999199+02301+02101999999ADDGA1071+003961999GE19MSL   +99999+99999GF199999071999003961999999MA1101301999999REMMET051METAR SBKG 090400Z 09005KT 9999 BKN013 23/21 Q1013=
0142827950999992017030905004-07270-035896FM-15+050299999V0200801N002110033519N009999199+02301+02201999999ADDGA1071+003351999GE19MSL   +99999+99999GF199999071999003351999999MA1101301999999REMMET051METAR SBKG 090500Z 08004KT 9999 BKN011 23/22 Q1013=
0142827950999992017030906004-07270-035896FM-15+050299999V0200901N002110024419N009999199+02301+02201999999ADDGA1071+002441999GE19MSL   +99999+99999GF199999071999002441999999MA1101201999999REMMET051METAR SBKG 090600Z 09004KT 9999 BKN008 23/22 Q1012=
0165827950999992017030908004-07270-035896FM-15+050299999V0201101N002610036619N009999199+02301+02201999999ADDGA1071+003661999GA2071+006401999GE19MSL   +99999+99999GF199999071999003661999999MA1101301999999REMMET058METAR SBKG 090800Z 11005KT 9999 BKN012 BKN021 23/22 Q1013=
0142827950999992017030910004-07270-035896FM-15+050299999V0201301N003610045719N009999199+02401+02201999999ADDGA1071+004571999GE19MSL   +99999+99999GF199999071999004571999999MA1101401999999REMMET051METAR SBKG 091000Z 13007KT 9999 BKN015 24/22 Q1014=
0142827950999992017030911004-07270-035896FM-15+050299999V0201101N004610061019N009999199+02501+02101999999ADDGA1071+006101999GE19MSL   +99999+99999GF199999071999006101999999MA1101401999999REMMET051METAR SBKG 091100Z 11009KT 9999 BKN020 25/21 Q1014=
0165827950999992017030912004-07220-035880FM-12+054799999V0201401N0036199999999010000199+02551+02101101321ADDAA101999999AZ101061AZ201061GA1041+006001081GA2999+999999021GE19MSL   +99999+99999GF106991041999006001999999KA1120N+02181MA1999999095201MD1999999-0081REMSYN004BUFR
0165827950999992017030913004-07270-035896FM-15+050299999V0201501N00511024381CN009999199+02701+02201999999ADDGA1041+006101999GA2041+024381999GE19MSL   +99999+99999GF199999041999006101999999MA1101501999999REMMET058METAR SBKG 091300Z 15010KT 9999 SCT020 SCT080 27/22 Q1015=
0176827950999992017030915004-07270-035896FM-15+050299999V0201201N009310076219N009999199+02801+02001999999ADDGA1071+007621999GA2041+027431999GE19MSL   +99999+99999GF199999071999007621999999MA1101401999999MW1161REMMET063METAR SBKG 091500Z 12018KT 9999 VCSH BKN025 SCT090 28/20 Q1014=
0165827950999992017030917004-07270-035896FM-15+050299999V0201101N005710091419N009999199+02901+01901999999ADDGA1071+009141999GA2071+027431999GE19MSL   +99999+99999GF199999071999009141999999MA1101201999999REMMET058METAR SBKG 091700Z 11011KT 9999 BKN030 BKN090 29/19 Q1012=
0174827950999992017030918004-07220-035880FM-12+054799999V0201401N0036199999999010000199+02721+02041101001ADDAA106002031AY161061AY221061GA1041+006001081GA2999+999999031GA3999+999999101GE19MSL   +99999+99999GF108991041999006001999999MA1999999094901MD1999999+0071MW1021REMSYN004BUFR
0165827950999992017030919004-07270-035896FM-15+050299999V0200801N005110274319N009999199+02701+02001999999ADDGA1041+009141999GA2071+027431999GE19MSL   +99999+99999GF199999041999009141999999MA1101101999999REMMET058METAR SBKG 091900Z 08010KT 9999 SCT030 BKN090 27/20 Q1011=
0165827950999992017030920004-07270-035896FM-15+050299999V0200901N006210274319N009999199+02701+02101999999ADDGA1041+009141999GA2071+027431999GE19MSL   +99999+99999GF199999041999009141999999MA1101101999999REMMET058METAR SBKG 092000Z 09012KT 9999 SCT030 BKN090 27/21 Q1011=
0142827950999992017030922004-07270-035896FM-15+050299999V0200901N006210051819N009999199+02501+02101999999ADDGA1071+005181999GE19MSL   +99999+99999GF199999071999005181999999MA1101301999999REMMET051METAR SBKG 092200Z 09012KT 9999 BKN017 25/21 Q1013=
0165827950999992017030923004-07270-035896FM-15+050299999V0200901N005710051819N009999199+02401+02201999999ADDGA1021+003351999GA2071+005181999GE19MSL   +99999+99999GF199999021999003351999999MA1101301999999REMMET058METAR SBKG 092300Z 09011KT 9999 FEW011 BKN017 24/22 Q1013=
0152827950999992017031000004-07220-035880FM-12+054799999V0200901N0036100600199001000199+02321+02151101291ADDAA101999999AZ101061AZ201061GA1051+006001081GA2999+999999031GE19MSL   +99999+99999GF107991051999006001999999MA1999999095171MD1999999-0041REMSYN004BUFR
0165827950999992017031001004-07270-035896FM-15+050299999V0201001N005110048819N009999199+02401+02201999999ADDGA1041+002741999GA2071+004881999GE19MSL   +99999+99999GF199999041999002741999999MA1101401999999REMMET058METAR SBKG 100100Z 10010KT 9999 SCT009 BKN016 24/22 Q1014=
0165827950999992017031002004-07270-035896FM-15+050299999V0201101N00411003961CN009999199+02401+02201999999ADDGA1041+002131999GA2041+003961999GE19MSL   +99999+99999GF199999041999002131999999MA1101401999999REMMET058METAR SBKG 100200Z 11008KT 9999 SCT007 SCT013 24/22 Q1014=
0165827950999992017031003004-07270-035896FM-15+050299999V0201101N003610033519N009999199+02301+02201999999ADDGA1021+002131999GA2071+003351999GE19MSL   +99999+99999GF199999021999002131999999MA1101301999999REMMET058METAR SBKG 100300Z 11007KT 9999 FEW007 BKN011 23/22 Q1013=
0165827950999992017031005004-07270-035896FM-15+050299999V0201401N002610042719N009999199+02301+02101999999ADDGA1071+004271999GA2041+006101999GE19MSL   +99999+99999GF199999071999004271999999MA1101301999999REMMET058METAR SBKG 100500Z 14005KT 9999 BKN014 SCT020 23/21 Q1013=
0165827950999992017031007004-07270-035896FM-15+050299999V0201301N002110042719N009999199+02301+02101999999ADDGA1021+002741999GA2071+004271999GE19MSL   +99999+99999GF199999021999002741999999MA1101201999999REMMET058METAR SBKG 100700Z 13004KT 9999 FEW009 BKN014 23/21 Q1012=
0165827950999992017031009004-07270-035896FM-15+050299999V0201201N002610045719N009999199+02301+02101999999ADDGA1041+003351999GA2071+004571999GE19MSL   +99999+99999GF199999041999003351999999MA1101301999999REMMET058METAR SBKG 100900Z 12005KT 9999 SCT011 BKN015 23/21 Q1013=
0165827950999992017031010004-07270-035896FM-15+050299999V0201401N004110045719N009999199+02301+02101999999ADDGA1041+003051999GA2071+004571999GE19MSL   +99999+99999GF199999041999003051999999MA1101401999999REMMET058METAR SBKG 101000Z 14008KT 9999 SCT010 BKN015 23/21 Q1014=
0165827950999992017031012004-07220-035880FM-12+054799999V0200901N0036100600199010000199+02501+02111101281ADDAA124002031AZ101061AZ201061GA1061+006001081GA2999+999999031GE19MSL   +99999+99999GF107991061999006001999999KA1120N+02141MA1999999095151MD1999999-0051REMSYN004BUFR
0142827950999992017031012004-07270-035896FM-15+050299999V0201401N005110061019N009999199+02601+02001999999ADDGA1071+006101999GE19MSL   +99999+99999GF199999071999006101999999MA1101501999999REMMET051METAR SBKG 101200Z 14010KT 9999 BKN020 26/20 Q1015=
0142827950999992017031013004-07270-035896FM-15+050299999V0201401N006210091419N009999199+02801+01901999999ADDGA1071+009141999GE19MSL   +99999+99999GF199999071999009141999999MA1101501999999REMMET051METAR SBKG 101300Z 14012KT 9999 BKN030 28/19 Q1015=
0142827950999992017031014004-07270-035896FM-15+050299999V0201401N004610091419N009999199+03001+01901999999ADDGA1071+009141999GE19MSL   +99999+99999GF199999071999009141999999MA1101401999999REMMET051METAR SBKG 101400Z 14009KT 9999 BKN030 30/19 Q1014=
0142827950999992017031016004-07270-035896FM-15+050299999V0201601N008210140219N009999199+03001+02001999999ADDGA1071+014021999GE19MSL   +99999+99999GF199999071999014021999999MA1101201999999REMMET051METAR SBKG 101600Z 16016KT 9999 BKN046 30/20 Q1012=
0168827950999992017031017004-07270-035896FM-15+050299999V0201401N006219999999N009999199+03001+01901999999ADDGA1041+009751999GA2021+012801081GE19MSL   +99999+99999GF199999041999009751999999MA1101101999999REMMET061METAR SBKG 101700Z 14012KT 9999 SCT032 FEW042TCU 30/19 Q1011=
0152827950999992017031018004-07220-035880FM-12+054799999V0200901N0046100600199010000199+02751+02141100961ADDAA101999999AZ101061AZ201061GA1051+006001081GA2999+999999031GE19MSL   +99999+99999GF106991051999006001999999MA1999999094861MD1999999-0041REMSYN004BUFR
0142827950999992017031018004-07270-035896FM-15+050299999V0200901N007210131119N009999199+02901+02001999999ADDGA1071+013111999GE19MSL   +99999+99999GF199999071999013111999999MA1101101999999REMMET051METAR SBKG 101800Z 09014KT 9999 BKN043 29/20 Q1011=
0072827950999992017031020004-07270-035896FM-15+050299999V0200801N007219999999Y999999999+02801+01901999999ADDMA1101101999999REMMET045METAR SBKG 102000Z 08014KT CAVOK 28/19 Q1011=
0072827950999992017031021004-07270-035896FM-15+050299999V0200901N006719999999Y999999999+02701+02001999999ADDMA1101201999999REMMET045METAR SBKG 102100Z 09013KT CAVOK 27/20 Q1012=
0072827950999992017031022004-07270-035896FM-15+050299999V0200701N006719999999Y999999999+02601+02101999999ADDMA1101201999999REMMET045METAR SBKG 102200Z 07013KT CAVOK 26/21 Q1012=
0072827950999992017031023004-07270-035896FM-15+050299999V0200701N006219999999Y999999999+02401+02101999999ADDMA1101301999999REMMET045METAR SBKG 102300Z 07012KT CAVOK 24/21 Q1013=
0136827950999992017031100004-07220-035880FM-12+054799999V0200901N0036100600199001000199+02271+02001101281ADDAA101999999AZ101061AZ201061GA1061+006001081GE19MSL   +99999+99999GF106991061999006001999999MA1999999095141MD1999999-0031REMSYN004BUFR
0072827950999992017031100004-07270-035896FM-15+050299999V0201001N005719999999Y999999999+02401+02001999999ADDMA1101501999999REMMET045METAR SBKG 110000Z 10011KT CAVOK 24/20 Q1015=
0072827950999992017031101004-07270-035896FM-15+050299999V0200901N003119999999Y999999999+02301+02001999999ADDMA1101501999999REMMET045METAR SBKG 110100Z 09006KT CAVOK 23/20 Q1015=
0142827950999992017031102004-07270-035896FM-15+050299999V0201101N003119999999N009999199+02301+02001999999ADDGA1041+005181999GE19MSL   +99999+99999GF199999041999005181999999MA1101501999999REMMET051METAR SBKG 110200Z 11006KT 9999 SCT017 23/20 Q1015=
0072827950999992017031104004-07270-035896FM-15+050299999V0201601N001519999999Y999999999+02101+01901999999ADDMA1101401999999REMMET045METAR SBKG 110400Z 16003KT CAVOK 21/19 Q1014=
0072827950999992017031105004-07270-035896FM-15+050299999V0202401N001019999999Y999999999+02001+01901999999ADDMA1101301999999REMMET045METAR SBKG 110500Z 24002KT CAVOK 20/19 Q1013=
0072827950999992017031107004-07270-035896FM-15+050299999V0201401N001519999999Y999999999+02001+01801999999ADDMA1101301999999REMMET045METAR SBKG 110700Z 14003KT CAVOK 20/18 Q1013=
0072827950999992017031108004-07270-035896FM-15+050299999V0202101N002119999999Y999999999+02001+01801999999ADDMA1101301999999REMMET045METAR SBKG 110800Z 21004KT CAVOK 20/18 Q1013=
0072827950999992017031110004-07270-035896FM-15+050299999V0201901N001519999999Y999999999+02301+01801999999ADDMA1101401999999REMMET045METAR SBKG 111000Z 19003KT CAVOK 23/18 Q1014=
0072827950999992017031111004-07270-035896FM-15+050299999V0201401N001519999999Y999999999+02501+01901999999ADDMA1101401999999REMMET045METAR SBKG 111100Z 14003KT CAVOK 25/19 Q1014=
0165827950999992017031112004-07220-035880FM-12+054799999V0200901N0031199999999010000199+02621+01971101251ADDAA101999999AZ101061AZ201061GA1021+006001081GA2999+999999021GE19MSL   +99999+99999GF107991021999006001999999KA1120N+02061MA1999999095131MD1999999-0021REMSYN004BUFR
0072827950999992017031113004-07270-035896FM-15+050299999V0201101N004619999999Y999999999+02901+01701999999ADDMA1101401999999REMMET045METAR SBKG 111300Z 11009KT CAVOK 29/17 Q1014=
0072827950999992017031114004-07270-035896FM-15+050299999V0200901N003619999999Y999999999+03001+01701999999ADDMA1101401999999REMMET045METAR SBKG 111400Z 09007KT CAVOK 30/17 Q1014=
0072827950999992017031115004-07270-035896FM-15+050299999V0201401N002619999999Y999999999+03101+01601999999ADDMA1101301999999REMMET045METAR SBKG 111500Z 14005KT CAVOK 31/16 Q1013=
0080827950999992017031116004-07270-035896FM-15+050299999V0200501V002619999999Y999999999+03101+01601999999ADDMA1101201999999REMMET053METAR SBKG 111600Z 05005KT 330V120 CAVOK 31/16 Q1012=
0176827950999992017031117004-07270-035896FM-15+050299999V0200801V005710137219N009999199+03001+01801999999ADDGA1071+013721999GA2021+015241081GE19MSL   +99999+99999GF199999071999013721999999MA1101101999999REMMET069METAR SBKG 111700Z 08011KT 050V110 9999 BKN045 FEW050TCU 30/18 Q1011=
0152827950999992017031118004-07220-035880FM-12+054799999V0200901N0041199999999010000199+02971+01851100871ADDAA101999999AZ101061AZ201061GA1031+006001081GA2999+999999021GE19MSL   +99999+99999GF106991031999006001999999MA1999999094791MD1999999-0071REMSYN004BUFR
0210827950999992017031118004-07270-035896FM-15+050299999V0200901V007219999999N009999199+03001+01801999999ADDGA1041+012191999GA2021+013721081GA3041+025301999GE19MSL   +99999+99999GF199999041999012191999999MA1101101999999MW1161REMMET081METAR SBKG 111800Z 09014KT 050V120 9999 VCSH SCT040 FEW045TCU SCT083 30/18 Q1011=
0199827950999992017031119004-07270-035896FM-15+050299999V0200801V006210304819N009999199+02901+01801999999ADDGA1041+012191999GA2021+013721081GA3071+030481999GE19MSL   +99999+99999GF199999041999012191999999MA1101101999999REMMET076METAR SBKG 111900Z 08012KT 040V100 9999 SCT040 FEW045TCU BKN100 29/18 Q1011=
0191827950999992017031120004-07270-035896FM-15+050299999V0200801N007210304819N009999199+02801+02001999999ADDGA1021+009141999GA2021+012191081GA3071+030481999GE19MSL   +99999+99999GF199999021999009141999999MA1101101999999REMMET068METAR SBKG 112000Z 08014KT 9999 FEW030 FEW040TCU BKN100 28/20 Q1011=
0136827950999992017031200004-07220-035880FM-12+054799999V0200901N0041199999999010000199+02301+02061101311ADDAA101999999AZ101061AZ201061GA1041+006001081GE19MSL   +99999+99999GF104991041999006001999999MA1999999095191MD1999999+0051REMSYN004BUFR
0165827950999992017031205004-07270-035896FM-15+050299999V0201001N002110045719N009999199+02301+01901999999ADDGA1071+004571999GA2071+009141999GE19MSL   +99999+99999GF199999071999004571999999MA1101401999999REMMET058METAR SBKG 120500Z 10004KT 9999 BKN015 BKN030 23/19 Q1014=
0165827950999992017031207004-07270-035896FM-15+050299999V0201201N001510121919N009999199+02301+02001999999ADDGA1041+005181999GA2071+012191999GE19MSL   +99999+99999GF199999041999005181999999MA1101301999999REMMET058METAR SBKG 120700Z 12003KT 9999 SCT017 BKN040 23/20 Q1013=
0165827950999992017031208004-07270-035896FM-15+050299999V0201401N00211024381CN009999199+02301+02001999999ADDGA1021+004571999GA2041+024381999GE19MSL   +99999+99999GF199999021999004571999999MA1101301999999REMMET058METAR SBKG 120800Z 14004KT 9999 FEW015 SCT080 23/20 Q1013=
0072827950999992017031209004-07270-035896FM-15+050299999V0201601N002119999999Y999999999+02201+02001999999ADDMA1101401999999REMMET045METAR SBKG 120900Z 16004KT CAVOK 22/20 Q1014=
0142827950999992017031210004-07270-035896FM-15+050299999V0201601N003619999999N009999199+02301+02001999999ADDGA1041+004571999GE19MSL   +99999+99999GF199999041999004571999999MA1101401999999REMMET051METAR SBKG 121000Z 16007KT 9999 SCT015 23/20 Q1014=
0142827950999992017031211004-07270-035896FM-15+050299999V0201201N005710064019N009999199+02601+02001999999ADDGA1071+006401999GE19MSL   +99999+99999GF199999071999006401999999MA1101501999999REMMET051METAR SBKG 121100Z 12011KT 9999 BKN021 26/20 Q1015=
0149827950999992017031212004-07220-035880FM-12+054799999V0200901N0036199999999010000199+02601+02091101381ADDAA101999999AZ101061AZ201061GA1041+006001081GE19MSL   +99999+99999GF106991041999006001999999KA1120N+02131MA1999999095261MD1999999+0131REMSYN004BUFR
0165827950999992017031213004-07270-035896FM-15+050299999V0201001N003610091419N009999199+02701+02001999999ADDGA1021+005491999GA2071+009141999GE19MSL   +99999+99999GF199999021999005491999999MA1101501999999REMMET058METAR SBKG 121300Z 10007KT 9999 FEW018 BKN030 27/20 Q1015=
0165827950999992017031214004-07270-035896FM-15+050299999V0201501N005110091419N009999199+02901+02001999999ADDGA1041+005491999GA2071+009141999GE19MSL   +99999+99999GF199999041999005491999999MA1101401999999REMMET058METAR SBKG 121400Z 15010KT 9999 SCT018 BKN030 29/20 Q1014=
0165827950999992017031215004-07270-035896FM-15+050299999V0201001N004110091419N009999199+02801+02001999999ADDGA1021+005491999GA2071+009141999GE19MSL   +99999+99999GF199999021999005491999999MA1101301999999REMMET058METAR SBKG 121500Z 10008KT 9999 FEW018 BKN030 28/20 Q1013=
0210827950999992017031216004-07270-035896FM-15+050299999V0201001V007710042719N009999199+02601+02201999999ADDGA1071+004271999GA2041+015241081GA3071+021341999GE19MSL   +99999+99999GF199999071999004271999999MA1101201999999MW1161REMMET081METAR SBKG 121600Z 10015KT 060V120 9999 VCSH BKN014 SCT050TCU BKN070 26/22 Q1012=
0233827950999992017031217004-07270-035896FM-15+050299999V0201101V00881007621CN009999199+02501+02101999999ADDGA1041+004571999GA2041+007621999GA3021+015241081GA4071+021341999GE19MSL   +99999+99999GF199999041999004571999999MA1101201999999MW1161REMMET088METAR SBKG 121700Z 11017KT 070V130 9999 VCSH SCT015 SCT025 FEW050TCU BKN070 25/21 Q1012=
0152827950999992017031218004-07220-035880FM-12+054799999V0200901N0041100600199010000199+02401+02111101021ADDAA101999999AZ101061AZ201061GA1051+006001081GA2999+999999031GE19MSL   +99999+99999GF107991051999006001999999MA1999999094871MD1999999+0081REMSYN004BUFR
0210827950999992017031218004-07270-035896FM-15+050299999V0201001V007710042719N009999199+02401+02101999999ADDGA1071+004271999GA2041+010671081GA3081+021341999GE19MSL   +99999+99999GF199999071999004271999999MA1101201999999MW1161REMMET081METAR SBKG 121800Z 10015KT 060V150 9999 VCSH BKN014 SCT035TCU OVC070 24/21 Q1012=
0210827950999992017031220004-07270-035896FM-15+050299999V0201001V00461007621CN009999199+02401+02101999999ADDGA1041+003351999GA2041+007621081GA3071+021341999GE19MSL   +99999+99999GF199999041999003351999999MA1101201999999MW1161REMMET081METAR SBKG 122000Z 10009KT 060V120 9999 VCSH SCT011 SCT025TCU BKN070 24/21 Q1012=
0136827950999992017031300004-07220-035880FM-12+054799999V0200901N0031100600199001000199+02201+02051101291ADDAA101999999AZ101061AZ201061GA1061+006001081GE19MSL   +99999+99999GF106991061999006001999999MA1999999095161MD1999999-0031REMSYN004BUFR
0184827950999992017031304004-07270-035896FM-15+050299999V0200901N004610024419N005000199+02201+02001999999ADDGA1041+001221999GA2071+002441999GE19MSL   +99999+99999GF199999041999001221999999MA1101301999999MW1101MW2611REMMET065METAR SBKG 130400Z 09009KT 5000 -RA BR SCT004 BKN008 22/20 Q1013=
0165827950999992017031306004-07270-035896FM-15+050299999V0200801N004110006119N008000199+02101+02101999999ADDGA1071+000611999GA2071+003051999GE19MSL   +99999+99999GF199999071999000611999999MA1101201999999REMMET058METAR SBKG 130600Z 08008KT 8000 BKN002 BKN010 21/21 Q1012=
0165827950999992017031307004-07270-035896FM-15+050299999V0200801N003610006119N008000199+02101+02101999999ADDGA1071+000611999GA2071+003051999GE19MSL   +99999+99999GF199999071999000611999999MA1101201999999REMMET058METAR SBKG 130700Z 08007KT 8000 BKN002 BKN010 21/21 Q1012=
0165827950999992017031308004-07270-035896FM-15+050299999V0200801N003110030519N009999199+02101+02001999999ADDGA1041+001221999GA2071+003051999GE19MSL   +99999+99999GF199999041999001221999999MA1101301999999REMMET058METAR SBKG 130800Z 08006KT 9999 SCT004 BKN010 21/20 Q1013=
0151827950999992017031309004-07270-035896FM-15+050299999V0200701N003110021319N005000199+02101+02001999999ADDGA1081+002131999GE19MSL   +99999+99999GF199999081999002131999999MA1101301999999MW1101REMMET054METAR SBKG 130900Z 07006KT 5000 BR OVC007 21/20 Q1013=
0215827950999992017031311004-07270-035896FM-15+050299999V0201301V00311003051CN009999199+02201+02101999999ADDGA1021+001221999GA2041+003051999GA3071+007321999GE19MSL   +99999+99999GF199999021999001221999999MA1101501999999MW1581REMMET086METAR SBKG 131100Z 13006KT 080V140 9999 3500NE -RADZ FEW004 SCT010 BKN024 22/21 Q1015=
0155827950999992017031312004-07220-035880FM-12+054799999V0200901N0031100600199010000199+02401+02141101421ADDAA124000231AY161061AY221061GA1071+006001071GE19MSL   +99999+99999GF107991071999006001999999KA1120N+01901MA1999999095261MD1999999+0001MW1021REMSYN004BUFR
0210827950999992017031312004-07270-035896FM-15+050299999V0201201V003610054919N009999199+02501+02001999999ADDGA1071+005491999GA2021+009751081GA3081+021341999GE19MSL   +99999+99999GF199999071999005491999999MA1101601999999MW1161REMMET081METAR SBKG 131200Z 12007KT 080V140 9999 VCSH BKN018 FEW032TCU OVC070 25/20 Q1016=
0199827950999992017031313004-07270-035896FM-15+050299999V0201001V005110082319N009999199+02601+02001999999ADDGA1071+008231999GA2021+012801081GA3081+021341999GE19MSL   +99999+99999GF199999071999008231999999MA1101501999999REMMET076METAR SBKG 131300Z 10010KT 070V140 9999 BKN027 FEW042TCU OVC070 26/20 Q1015=
0173827950999992017031315004-07270-035896FM-15+050299999V0201101V005110109719N009999199+02901+02001999999ADDGA1071+010971999GA2041+021341999GE19MSL   +99999+99999GF199999071999010971999999MA1101401999999REMMET066METAR SBKG 131500Z 11010KT 090V150 9999 BKN036 SCT070 29/20 Q1014=
0142827950999992017031316004-07270-035896FM-15+050299999V0200801N004110121919N009999199+02901+01901999999ADDGA1071+012191999GE19MSL   +99999+99999GF199999071999012191999999MA1101201999999REMMET051METAR SBKG 131600Z 08008KT 9999 BKN040 29/19 Q1012=
0168827950999992017031318004-07220-035880FM-12+054799999V0200901N0041199999999010000199+02871+02001100961ADDAA101999999AZ101061AZ201061GA1041+006001081GA2999+999999031GA3999+999999001GE19MSL   +99999+99999GF106991041999006001999999MA1999999094851MD1999999-0021REMSYN004BUFR
0142827950999992017031318004-07270-035896FM-15+050299999V0200601N005719999999N009999199+03001+02001999999ADDGA1041+012191999GE19MSL   +99999+99999GF199999041999012191999999MA1101101999999REMMET051METAR SBKG 131800Z 06011KT 9999 SCT040 30/20 Q1011=
0142827950999992017031319004-07270-035896FM-15+050299999V0200901N007219999999N009999199+02901+02001999999ADDGA1041+012191999GE19MSL   +99999+99999GF199999041999012191999999MA1101101999999REMMET051METAR SBKG 131900Z 09014KT 9999 SCT040 29/20 Q1011=
0142827950999992017031320004-07270-035896FM-15+050299999V0200801N005719999999N009999199+02801+02001999999ADDGA1021+012191999GE19MSL   +99999+99999GF199999021999012191999999MA1101101999999REMMET051METAR SBKG 132000Z 08011KT 9999 FEW040 28/20 Q1011=
0152827950999992017031400004-07220-035880FM-12+054799999V0200901N0031199999999001000199+02321+02091101231ADDAA101999999AZ101061AZ201061GA1031+006001081GA2999+999999031GE19MSL   +99999+99999GF104991031999006001999999MA1999999095091MD1999999-0071REMSYN004BUFR
0188827950999992017031404004-07270-035896FM-15+050299999V0200901N002610033519N009999199+02301+02101999999ADDGA1041+001831999GA2071+003351999GA3071+021341999GE19MSL   +99999+99999GF199999041999001831999999MA1101301999999REMMET065METAR SBKG 140400Z 09005KT 9999 SCT006 BKN011 BKN070 23/21 Q1013=
0165827950999992017031405004-07270-035896FM-15+050299999V0201001N002610045719N009999199+02301+02101999999ADDGA1021+001831999GA2071+004571999GE19MSL   +99999+99999GF199999021999001831999999MA1101301999999REMMET058METAR SBKG 140500Z 10005KT 9999 FEW006 BKN015 23/21 Q1013=
0188827950999992017031406004-07270-035896FM-15+050299999V0201101N00361004271CN009999199+02301+02101999999ADDGA1021+002741999GA2041+004271999GA3071+027431999GE19MSL   +99999+99999GF199999021999002741999999MA1101201999999REMMET065METAR SBKG 140600Z 11007KT 9999 FEW009 SCT014 BKN090 23/21 Q1012=
0188827950999992017031407004-07270-035896FM-15+050299999V0201201N00361003961CN009999199+02301+02101999999ADDGA1021+002441999GA2041+003961999GA3071+027431999GE19MSL   +99999+99999GF199999021999002441999999MA1101301999999REMMET065METAR SBKG 140700Z 12007KT 9999 FEW008 SCT013 BKN090 23/21 Q1013=
0165827950999992017031408004-07270-035896FM-15+050299999V0200901N001510274319N009999199+02301+02101999999ADDGA1041+005791999GA2071+027431999GE19MSL   +99999+99999GF199999041999005791999999MA1101301999999REMMET058METAR SBKG 140800Z 09003KT 9999 SCT019 BKN090 23/21 Q1013=
0165827950999992017031410004-07270-035896FM-15+050299999V0201201N00361003961CN009999199+02301+02101999999ADDGA1041+003051999GA2041+003961999GE19MSL   +99999+99999GF199999041999003051999999MA1101401999999REMMET058METAR SBKG 141000Z 12007KT 9999 SCT010 SCT013 23/21 Q1014=
0142827950999992017031411004-07270-035896FM-15+050299999V0201101N005710045719N009999199+02501+02101999999ADDGA1071+004571999GE19MSL   +99999+99999GF199999071999004571999999MA1101501999999REMMET051METAR SBKG 141100Z 11011KT 9999 BKN015 25/21 Q1015=
0155827950999992017031412004-07220-035880FM-12+054799999V0200901N0031100600199010000199+02451+02111101461ADDAA124000131AY161061AY221061GA1071+006001071GE19MSL   +99999+99999GF107991071999006001999999KA1120N+02111MA1999999095311MD1999999+0051MW1021REMSYN004BUFR
0142827950999992017031412004-07270-035896FM-15+050299999V0201001N005110057919N009999199+02501+02001999999ADDGA1071+005791999GE19MSL   +99999+99999GF199999071999005791999999MA1101501999999REMMET051METAR SBKG 141200Z 10010KT 9999 BKN019 25/20 Q1015=
0142827950999992017031413004-07270-035896FM-15+050299999V0201101N004110061019N009999199+02601+02101999999ADDGA1071+006101999GE19MSL   +99999+99999GF199999071999006101999999MA1101601999999REMMET051METAR SBKG 141300Z 11008KT 9999 BKN020 26/21 Q1016=
0142827950999992017031415004-07270-035896FM-15+050299999V0201401N004110091419N009999199+02901+02001999999ADDGA1071+009141999GE19MSL   +99999+99999GF199999071999009141999999MA1101401999999REMMET051METAR SBKG 141500Z 14008KT 9999 BKN030 29/20 Q1014=
0165827950999992017031416004-07270-035896FM-15+050299999V0201201N004610243819N009999199+02901+01901999999ADDGA1041+012191999GA2071+024381999GE19MSL   +99999+99999GF199999041999012191999999MA1101301999999REMMET058METAR SBKG 141600Z 12009KT 9999 SCT040 BKN080 29/19 Q1013=
0165827950999992017031417004-07270-035896FM-15+050299999V0201001N004610243819N009999199+02901+02001999999ADDGA1041+013111999GA2071+024381999GE19MSL   +99999+99999GF199999041999013111999999MA1101201999999REMMET058METAR SBKG 141700Z 10009KT 9999 SCT043 BKN080 29/20 Q1012=
0136827950999992017031418004-07220-035880FM-12+054799999V0200901N0041100600199010000199+02871+01991100921ADDAA101999999AZ101061AZ201061GA1051+006001081GE19MSL   +99999+99999GF105991051999006001999999MA1999999094841MD1999999-0011REMSYN004BUFR
0142827950999992017031419004-07270-035896FM-15+050299999V0200801N006719999999N009999199+02901+02001999999ADDGA1041+012191999GE19MSL   +99999+99999GF199999041999012191999999MA1101101999999REMMET051METAR SBKG 141900Z 08013KT 9999 SCT040 29/20 Q1011=
0142827950999992017031420004-07270-035896FM-15+050299999V0200801N007719999999N009999199+02801+02101999999ADDGA1041+010971999GE19MSL   +99999+99999GF199999041999010971999999MA1101101999999REMMET051METAR SBKG 142000Z 08015KT 9999 SCT036 28/21 Q1011=
0152827950999992017031500004-07220-035880FM-12+054799999V0200901N0036199999999001000199+02271+02071101291ADDAA101999999AZ101061AZ201061GA1031+006001081GA2999+999999021GE19MSL   +99999+99999GF106991031999006001999999MA1999999095151MD1999999+0061REMSYN004BUFR
0170827950999992017031504004-07270-035896FM-15+050299999V0200901N004610042719N009999199+02201+02101999999ADDGA1041+002131999GA2071+004271999GE19MSL   +99999+99999GF199999041999002131999999MA1101401999999REMMET063METAR SBKG 150400Z 09009KT 9999 SCT007 BKN014 22/21 Q1014 RERA=
0165827950999992017031505004-07270-035896FM-15+050299999V0201001N00261006101CN009999199+02201+02101999999ADDGA1041+000911999GA2041+006101999GE19MSL   +99999+99999GF199999041999000911999999MA1101301999999REMMET058METAR SBKG 150500Z 10005KT 9999 SCT003 SCT020 22/21 Q1013=
0142827950999992017031506004-07270-035896FM-15+050299999V0201401N001519999999N009999199+02201+02101999999ADDGA1041+003051999GE19MSL   +99999+99999GF199999041999003051999999MA1101301999999REMMET051METAR SBKG 150600Z 14003KT 9999 SCT010 22/21 Q1013=
0165827950999992017031507004-07270-035896FM-15+050299999V0201201N00211002441CN009999199+02201+02101999999ADDGA1041+001831999GA2041+002441999GE19MSL   +99999+99999GF199999041999001831999999MA1101301999999REMMET058METAR SBKG 150700Z 12004KT 9999 SCT006 SCT008 22/21 Q1013=
0165827950999992017031508004-07270-035896FM-15+050299999V0201401N00261002741CN009999199+02201+02101999999ADDGA1021+000911999GA2041+002741999GE19MSL   +99999+99999GF199999021999000911999999MA1101301999999REMMET058METAR SBKG 150800Z 14005KT 9999 FEW003 SCT009 22/21 Q1013=
0142827950999992017031510004-07270-035896FM-15+050299999V0201501N002619999999N009999199+02301+02101999999ADDGA1041+004571999GE19MSL   +99999+99999GF199999041999004571999999MA1101401999999REMMET051METAR SBKG 151000Z 15005KT 9999 SCT015 23/21 Q1014=
0142827950999992017031511004-07270-035896FM-15+050299999V0200901N002119999999N009999199+02401+02001999999ADDGA1041+006101999GE19MSL   +99999+99999GF199999041999006101999999MA1101501999999REMMET051METAR SBKG 151100Z 09004KT 9999 SCT020 24/20 Q1015=
0155827950999992017031512004-07220-035880FM-12+054799999V0200901N0041199999999010000199+02511+02141101351ADDAA124002031AY161061AY221061GA1041+006001081GE19MSL   +99999+99999GF106991041999006001999999KA1120N+02051MA1999999095221MD1999999-0091MW1021REMSYN004BUFR
0142827950999992017031513004-07270-035896FM-15+050299999V0201001N006219999999N009999199+02801+02001999999ADDGA1041+009141999GE19MSL   +99999+99999GF199999041999009141999999MA1101401999999REMMET051METAR SBKG 151300Z 10012KT 9999 SCT030 28/20 Q1014=
0150827950999992017031514004-07270-035896FM-15+050299999V0201001V006219999999N009999199+02801+02001999999ADDGA1041+009141999GE19MSL   +99999+99999GF199999041999009141999999MA1101401999999REMMET059METAR SBKG 151400Z 10012KT 060V130 9999 SCT030 28/20 Q1014=
0142827950999992017031516004-07270-035896FM-15+050299999V0201301N005710125019N009999199+03001+01901999999ADDGA1071+012501999GE19MSL   +99999+99999GF199999071999012501999999MA1101201999999REMMET051METAR SBKG 151600Z 13011KT 9999 BKN041 30/19 Q1012=
0165827950999992017031517004-07270-035896FM-15+050299999V0201101N005110149419N009999199+03001+02001999999ADDGA1071+014941999GA2071+022561999GE19MSL   +99999+99999GF199999071999014941999999MA1101101999999REMMET058METAR SBKG 151700Z 11010KT 9999 BKN049 BKN074 30/20 Q1011=
0136827950999992017031518004-07220-035880FM-12+054799999V0200901N0051100600199010000199+02901+01991100921ADDAA101999999AZ101061AZ201061GA1051+006001081GE19MSL   +99999+99999GF105991051999006001999999MA1999999094821MD1999999-0021REMSYN004BUFR
0165827950999992017031518004-07270-035896FM-15+050299999V0201101N006710243819N009999199+03001+02001999999ADDGA1041+014631999GA2071+024381999GE19MSL   +99999+99999GF199999041999014631999999MA1101101999999REMMET058METAR SBKG 151800Z 11013KT 9999 SCT048 BKN080 30/20 Q1011=
0165827950999992017031519004-07270-035896FM-15+050299999V0200701N00771024991CN009999199+02801+02101999999ADDGA1021+007921999GA2041+024991999GE19MSL   +99999+99999GF199999021999007921999999MA1101101999999REMMET058METAR SBKG 151900Z 07015KT 9999 FEW026 SCT082 28/21 Q1011=
0142827950999992017031520004-07270-035896FM-15+050299999V0200901N007719999999N009999199+02801+02101999999ADDGA1041+007921999GE19MSL   +99999+99999GF199999041999007921999999MA1101101999999REMMET051METAR SBKG 152000Z 09015KT 9999 SCT026 28/21 Q1011=
0136827950999992017031600004-07220-035880FM-12+054799999V0201401N0036100600199001000199+02321+02151101311ADDAA101999999AZ101061AZ201061GA1061+006001081GE19MSL   +99999+99999GF106991061999006001999999MA1999999095181MD1999999+0031REMSYN004BUFR
0142827950999992017031604004-07270-035896FM-15+050299999V0201101N001019999999N009999199+02301+02101999999ADDGA1041+004571999GE19MSL   +99999+99999GF199999041999004571999999MA1101501999999REMMET051METAR SBKG 160400Z 11002KT 9999 SCT015 23/21 Q1015=
0142827950999992017031605004-07270-035896FM-15+050299999V0201601N001519999999N009999199+02201+02101999999ADDGA1041+004571999GE19MSL   +99999+99999GF199999041999004571999999MA1101401999999REMMET051METAR SBKG 160500Z 16003KT 9999 SCT015 22/21 Q1014=
0072827950999992017031606004-07270-035896FM-15+050299999V0201901N001019999999Y999999999+02301+02101999999ADDMA1101501999999REMMET045METAR SBKG 160600Z 19002KT CAVOK 23/21 Q1015=
0072827950999992017031607004-07270-035896FM-15+050299999V0201401N001519999999Y999999999+02201+02101999999ADDMA1101401999999REMMET045METAR SBKG 160700Z 14003KT CAVOK 22/21 Q1014=
0142827950999992017031609004-07270-035896FM-15+050299999V0201501N001519999999N009999199+02201+02101999999ADDGA1021+005491999GE19MSL   +99999+99999GF199999021999005491999999MA1101401999999REMMET051METAR SBKG 160900Z 15003KT 9999 FEW018 22/21 Q1014=
0142827950999992017031610004-07270-035896FM-15+050299999V0201301N003119999999N009999199+02301+02101999999ADDGA1041+005791999GE19MSL   +99999+99999GF199999041999005791999999MA1101401999999REMMET051METAR SBKG 161000Z 13006KT 9999 SCT019 23/21 Q1014=
0165827950999992017031612004-07220-035880FM-12+054799999V0200901N0041199999999010000199+02561+02111101311ADDAA101999999AZ101061AZ201061GA1031+006001081GA2999+999999021GE19MSL   +99999+99999GF106991031999006001999999KA1120N+02121MA1999999095191MD1999999-0031REMSYN004BUFR
0142827950999992017031612004-07270-035896FM-15+050299999V0201101N005110076219N009999199+02701+02001999999ADDGA1071+007621999GE19MSL   +99999+99999GF199999071999007621999999MA1101501999999REMMET051METAR SBKG 161200Z 11010KT 9999 BKN025 27/20 Q1015=
0142827950999992017031613004-07270-035896FM-15+050299999V0201101N005710100619N009999199+02901+02001999999ADDGA1071+010061999GE19MSL   +99999+99999GF199999071999010061999999MA1101401999999REMMET051METAR SBKG 161300Z 11011KT 9999 BKN033 29/20 Q1014=
0142827950999992017031615004-07270-035896FM-15+050299999V0201001N004110121919N009999199+03001+01901999999ADDGA1071+012191999GE19MSL   +99999+99999GF199999071999012191999999MA1101301999999REMMET051METAR SBKG 161500Z 10008KT 9999 BKN040 30/19 Q1013=
0142827950999992017031616004-07270-035896FM-15+050299999V0200501N007210091419N009999199+02801+02201999999ADDGA1071+009141999GE19MSL   +99999+99999GF199999071999009141999999MA1101201999999REMMET051METAR SBKG 161600Z 05014KT 9999 BKN030 28/22 Q1012=
0158827950999992017031618004-07220-035880FM-12+054799999V0201401N0057199999999010000199+02851+02081100911ADDAA106999999AY161061AY221061GA1041+006001081GA2999+999999031GE19MSL   +99999+99999GF107991041999006001999999MA1999999094831MD1999999+0011MW1021REMSYN004BUFR
0173827950999992017031618004-07270-035896FM-15+050299999V0201001V007710076219N009999199+02901+02001999999ADDGA1071+007621999GA2041+024381999GE19MSL   +99999+99999GF199999071999007621999999MA1101101999999REMMET066METAR SBKG 161800Z 10015KT 060V120 9999 BKN025 SCT080 29/20 Q1011=
0191827950999992017031619004-07270-035896FM-15+050299999V0200701N007710121919N009999199+02601+02101999999ADDGA1071+012191999GA2021+015241081GA3041+030481999GE19MSL   +99999+99999GF199999071999012191999999MA1101101999999REMMET068METAR SBKG 161900Z 07015KT 9999 BKN040 FEW050TCU SCT100 26/21 Q1011=
0072827950999992017031620004-07270-035896FM-15+050299999V0200901N006719999999Y999999999+02601+02101999999ADDMA1101101999999REMMET045METAR SBKG 162000Z 09013KT CAVOK 26/21 Q1011=
0168827950999992017031700004-07220-035880FM-12+054799999V0201401N0036199999999001000199+02311+02151101301ADDAA101999999AZ101061AZ201061GA1031+006001081GA2999+999999031GA3999+999999001GE19MSL   +99999+99999GF106991031999006001999999MA1999999095181MD1999999+0001REMSYN004BUFR
0176827950999992017031704004-07270-035896FM-15+050299999V0200901N004110033519N008000199+02301+02201999999ADDGA1041+002441999GA2071+003351999GE19MSL   +99999+99999GF199999041999002441999999MA1101401999999MW1161REMMET063METAR SBKG 170400Z 09008KT 8000 VCSH SCT008 BKN011 23/22 Q1014=
0174827950999992017031705004-07270-035896FM-15+050299999V0200801N004110027419N005000199+02301+02201999999ADDGA1041+001521999GA2071+002741999GE19MSL   +99999+99999GF199999041999001521999999MA1101301999999MW1101REMMET061METAR SBKG 170500Z 08008KT 5000 BR SCT005 BKN009 23/22 Q1013=
0142827950999992017031707004-07270-035896FM-15+050299999V0200701N004619999999N009999199+02201+02001999999ADDGA1021+001521999GE19MSL   +99999+99999GF199999021999001521999999MA1101301999999REMMET051METAR SBKG 170700Z 07009KT 9999 FEW005 22/20 Q1013=
0165827950999992017031709004-07270-035896FM-15+050299999V0200801N00211005181CN009999199+02201+02101999999ADDGA1041+003961999GA2041+005181999GE19MSL   +99999+99999GF199999041999003961999999MA1101401999999REMMET058METAR SBKG 170900Z 08004KT 9999 SCT013 SCT017 22/21 Q1014=
0142827950999992017031710004-07270-035896FM-15+050299999V0200601N003619999999N009999199+02401+02101999999ADDGA1041+005791999GE19MSL   +99999+99999GF199999041999005791999999MA1101501999999REMMET051METAR SBKG 171000Z 06007KT 9999 SCT019 24/21 Q1015=
0165827950999992017031711004-07270-035896FM-15+050299999V0200601N004610064019N009999199+02401+02101999999ADDGA1021+003661999GA2071+006401999GE19MSL   +99999+99999GF199999021999003661999999MA1101501999999REMMET058METAR SBKG 171100Z 06009KT 9999 FEW012 BKN021 24/21 Q1015=
0181827950999992017031712004-07220-035880FM-12+054799999V0201401N0036199999999010000199+02551+02131101381ADDAA124000131AZ101061AZ201061GA1041+006001081GA2999+999999031GA3999+999999001GE19MSL   +99999+99999GF106991041999006001999999KA1120N+02111MA1999999095241MD1999999+0051REMSYN004BUFR
0142827950999992017031712004-07270-035896FM-15+050299999V0200701N004119999999N009999199+02701+02001999999ADDGA1041+007621999GE19MSL   +99999+99999GF199999041999007621999999MA1101501999999REMMET051METAR SBKG 171200Z 07008KT 9999 SCT025 27/20 Q1015=
0142827950999992017031713004-07270-035896FM-15+050299999V0200601N004610091419N009999199+02701+02001999999ADDGA1071+009141999GE19MSL   +99999+99999GF199999071999009141999999MA1101501999999REMMET051METAR SBKG 171300Z 06009KT 9999 BKN030 27/20 Q1015=
0142827950999992017031714004-07270-035896FM-15+050299999V0200701N005110100619N009999199+02901+01901999999ADDGA1071+010061999GE19MSL   +99999+99999GF199999071999010061999999MA1101501999999REMMET051METAR SBKG 171400Z 07010KT 9999 BKN033 29/19 Q1015=
0142827950999992017031716004-07270-035896FM-15+050299999V0200601N004119999999N009999199+03201+01901999999ADDGA1041+012191999GE19MSL   +99999+99999GF199999041999012191999999MA1101301999999REMMET051METAR SBKG 171600Z 06008KT 9999 SCT040 32/19 Q1013=
0142827950999992017031717004-07270-035896FM-15+050299999V0200701N008219999999N009999199+03001+02001999999ADDGA1021+012191999GE19MSL   +99999+99999GF199999021999012191999999MA1101301999999REMMET051METAR SBKG 171700Z 07016KT 9999 FEW040 30/20 Q1013=
0168827950999992017031718004-07220-035880FM-12+054799999V0200901N0051199999999010000199+02811+02041101031ADDAA101999999AZ101061AZ201061GA1041+006001081GA2999+999999031GA3999+999999001GE19MSL   +99999+99999GF106991041999006001999999MA1999999094931MD1999999+0101REMSYN004BUFR
0142827950999992017031718004-07270-035896FM-15+050299999V0200601N008219999999N009999199+02901+02001999999ADDGA1021+012191999GE19MSL   +99999+99999GF199999021999012191999999MA1101201999999REMMET051METAR SBKG 171800Z 06016KT 9999 FEW040 29/20 Q1012=
0142827950999992017031720004-07270-035896FM-15+050299999V0200801N007219999999N009999199+02701+02101999999ADDGA1041+009141999GE19MSL   +99999+99999GF199999041999009141999999MA1101301999999REMMET051METAR SBKG 172000Z 08014KT 9999 SCT030 27/21 Q1013=
0136827950999992017031800004-07220-035880FM-12+054799999V0200901N0041100600199001000199+02321+02101101341ADDAA101999999AZ101061AZ201061GA1051+006001081GE19MSL   +99999+99999GF105991051999006001999999MA1999999095221MD1999999+0041REMSYN004BUFR
0165827950999992017031804004-07270-035896FM-15+050299999V0200601N002610033519N009999199+02301+02201999999ADDGA1041+002131999GA2071+003351999GE19MSL   +99999+99999GF199999041999002131999999MA1101401999999REMMET058METAR SBKG 180400Z 06005KT 9999 SCT007 BKN011 23/22 Q1014=
0142827950999992017031806004-07270-035896FM-15+050299999V0200601N002610030519N009999199+02301+02101999999ADDGA1071+003051999GE19MSL   +99999+99999GF199999071999003051999999MA1101401999999REMMET051METAR SBKG 180600Z 06005KT 9999 BKN010 23/21 Q1014=
0142827950999992017031807004-07270-035896FM-15+050299999V0200701N002610030519N009999199+02201+02101999999ADDGA1071+003051999GE19MSL   +99999+99999GF199999071999003051999999MA1101401999999REMMET051METAR SBKG 180700Z 07005KT 9999 BKN010 22/21 Q1014=
0142827950999992017031808004-07270-035896FM-15+050299999V0200601N001510030519N009999199+02201+02101999999ADDGA1071+003051999GE19MSL   +99999+99999GF199999071999003051999999MA1101401999999REMMET051METAR SBKG 180800Z 06003KT 9999 BKN010 22/21 Q1014=
0165827950999992017031809004-07270-035896FM-15+050299999V0200701N003610054919N009999199+02301+02101999999ADDGA1041+003051999GA2071+005491999GE19MSL   +99999+99999GF199999041999003051999999MA1101501999999REMMET058METAR SBKG 180900Z 07007KT 9999 SCT010 BKN018 23/21 Q1015=
0165827950999992017031811004-07270-035896FM-15+050299999V0200801N00411006101CN009999199+02501+02101999999ADDGA1021+003961999GA2041+006101999GE19MSL   +99999+99999GF199999021999003961999999MA1101601999999REMMET058METAR SBKG 181100Z 08008KT 9999 FEW013 SCT020 25/21 Q1016=
0165827950999992017031812004-07220-035880FM-12+054799999V0200901N0036199999999010000199+02521+02081101461ADDAA101999999AZ101061AZ201061GA1041+006001081GA2999+999999001GE19MSL   +99999+99999GF106991041999006001999999KA1120N+02101MA1999999095321MD1999999+0081REMSYN004BUFR
0142827950999992017031812004-07270-035896FM-15+050299999V0201001N004619999999N009999199+02601+01901999999ADDGA1041+007011999GE19MSL   +99999+99999GF199999041999007011999999MA1101701999999REMMET051METAR SBKG 181200Z 10009KT 9999 SCT023 26/19 Q1017=
0150827950999992017031813004-07270-035896FM-15+050299999V0201001V004119999999N009999199+02701+01701999999ADDGA1041+009451999GE19MSL   +99999+99999GF199999041999009451999999MA1101601999999REMMET059METAR SBKG 181300Z 10008KT 050V140 9999 SCT031 27/17 Q1016=
0142827950999992017031815004-07270-035896FM-15+050299999V0201001N005719999999N009999199+02801+01801999999ADDGA1021+013411999GE19MSL   +99999+99999GF199999021999013411999999MA1101501999999REMMET051METAR SBKG 181500Z 10011KT 9999 FEW044 28/18 Q1015=
0142827950999992017031817004-07270-035896FM-15+050299999V0200801N004119999999N009999199+02901+01801999999ADDGA1021+012191999GE19MSL   +99999+99999GF199999021999012191999999MA1101401999999REMMET051METAR SBKG 181700Z 08008KT 9999 FEW040 29/18 Q1014=
0152827950999992017031818004-07220-035880FM-12+054799999V0200901N0036199999999010000199+02801+01871101151ADDAA101999999AZ101061AZ201061GA1041+006001081GA2999+999999021GE19MSL   +99999+99999GF106991041999006001999999MA1999999095051MD1999999+0121REMSYN004BUFR
0150827950999992017031818004-07270-035896FM-15+050299999V0200801V006219999999N009999199+02901+01901999999ADDGA1041+009141999GE19MSL   +99999+99999GF199999041999009141999999MA1101401999999REMMET059METAR SBKG 181800Z 08012KT 020V110 9999 SCT030 29/19 Q1014=
0142827950999992017031819004-07270-035896FM-15+050299999V0200901N006219999999N009999199+02901+01901999999ADDGA1021+009141999GE19MSL   +99999+99999GF199999021999009141999999MA1101401999999REMMET051METAR SBKG 181900Z 09012KT 9999 FEW030 29/19 Q1014=
0142827950999992017031820004-07270-035896FM-15+050299999V0200901N006219999999N009999199+02801+01801999999ADDGA1021+009141999GE19MSL   +99999+99999GF199999021999009141999999MA1101401999999REMMET051METAR SBKG 182000Z 09012KT 9999 FEW030 28/18 Q1014=
0152827950999992017031900004-07220-035880FM-12+054799999V0200901N0031100600199001000199+02301+02001101491ADDAA101999999AZ101061AZ201061GA1051+006001081GA2999+999999001GE19MSL   +99999+99999GF106991051999006001999999MA1999999095351MD1999999+0131REMSYN004BUFR
0142827950999992017031905004-07270-035896FM-15+050299999V0201001N002110015219N009999199+02201+02101999999ADDGA1071+001521999GE19MSL   +99999+99999GF199999071999001521999999MA1101501999999REMMET051METAR SBKG 190500Z 10004KT 9999 BKN005 22/21 Q1015=
0165827950999992017031907004-07270-035896FM-15+050299999V0201101N00151004881CN009999199+02201+02101999999ADDGA1041+003661999GA2041+004881999GE19MSL   +99999+99999GF199999041999003661999999MA1101501999999REMMET058METAR SBKG 190700Z 11003KT 9999 SCT012 SCT016 22/21 Q1015=
0142827950999992017031908004-07270-035896FM-15+050299999V0209999C000010036619N009999199+02201+02101999999ADDGA1071+003661999GE19MSL   +99999+99999GF199999071999003661999999MA1101501999999REMMET051METAR SBKG 190800Z 00000KT 9999 BKN012 22/21 Q1015=
0142827950999992017031909004-07270-035896FM-15+050299999V0201601N002119999999N009999199+02201+02101999999ADDGA1021+002741999GE19MSL   +99999+99999GF199999021999002741999999MA1101601999999REMMET051METAR SBKG 190900Z 16004KT 9999 FEW009 22/21 Q1016=
0142827950999992017031910004-07270-035896FM-15+050299999V0201501N002619999999N009999199+02401+02101999999ADDGA1021+003051999GE19MSL   +99999+99999GF199999021999003051999999MA1101601999999REMMET051METAR SBKG 191000Z 15005KT 9999 FEW010 24/21 Q1016=
0142827950999992017031911004-07270-035896FM-15+050299999V0201201N004119999999N009999199+02601+02001999999ADDGA1021+004571999GE19MSL   +99999+99999GF199999021999004571999999MA1101701999999REMMET051METAR SBKG 191100Z 12008KT 9999 FEW015 26/20 Q1017=
0165827950999992017031912004-07220-035880FM-12+054799999V0200901N0041199999999010000199+02561+02061101511ADDAA101999999AZ101061AZ201061GA1041+006001081GA2999+999999031GE19MSL   +99999+99999GF106991041999006001999999KA1120N+02141MA1999999095371MD1999999+0051REMSYN004BUFR
0142827950999992017031912004-07270-035896FM-15+050299999V0201001N006210061019N009999199+02801+02001999999ADDGA1071+006101999GE19MSL   +99999+99999GF199999071999006101999999MA1101701999999REMMET051METAR SBKG 191200Z 10012KT 9999 BKN020 28/20 Q1017=
0142827950999992017031913004-07270-035896FM-15+050299999V0201101N005110082319N009999199+02901+01901999999ADDGA1071+008231999GE19MSL   +99999+99999GF199999071999008231999999MA1101601999999REMMET051METAR SBKG 191300Z 11010KT 9999 BKN027 29/19 Q1016=
0142827950999992017031915004-07270-035896FM-15+050299999V0200901N006210121919N009999199+03201+01801999999ADDGA1071+012191999GE19MSL   +99999+99999GF199999071999012191999999MA1101401999999REMMET051METAR SBKG 191500Z 09012KT 9999 BKN040 32/18 Q1014=
0142827950999992017031917004-07270-035896FM-15+050299999V0201001N006219999999N009999199+03101+01901999999ADDGA1041+012191999GE19MSL   +99999+99999GF199999041999012191999999MA1101301999999REMMET051METAR SBKG 191700Z 10012KT 9999 SCT040 31/19 Q1013=
0152827950999992017031918004-07220-035880FM-12+054799999V0201401N0046100600199010000199+03071+01941101031ADDAA101999999AZ101061AZ201061GA1051+006001081GA2999+999999031GE19MSL   +99999+99999GF106991051999006001999999MA1999999094971MD1999999-0081REMSYN004BUFR
0142827950999992017031918004-07270-035896FM-15+050299999V0201001N006719999999N009999199+03201+01801999999ADDGA1041+012191999GE19MSL   +99999+99999GF199999041999012191999999MA1101301999999REMMET051METAR SBKG 191800Z 10013KT 9999 SCT040 32/18 Q1013=
0142827950999992017031920004-07270-035896FM-15+050299999V0201001N008219999999N009999199+02901+02001999999ADDGA1021+009141999GE19MSL   +99999+99999GF199999021999009141999999MA1101301999999REMMET051METAR SBKG 192000Z 10016KT 9999 FEW030 29/20 Q1013=
0136827950999992017032000004-07220-035880FM-12+054799999V0200901N0041199999999001000199+02311+02041101361ADDAA101999999AZ101061AZ201061GA1041+006001081GE19MSL   +99999+99999GF104991041999006001999999MA1999999095241MD1999999-0111REMSYN004BUFR
0142827950999992017032004004-07270-035896FM-15+050299999V0201001N002619999999N009999199+02301+02201999999ADDGA1021+003661999GE19MSL   +99999+99999GF199999021999003661999999MA1101501999999REMMET051METAR SBKG 200400Z 10005KT 9999 FEW012 23/22 Q1015=
0142827950999992017032006004-07270-035896FM-15+050299999V0200901N001519999999N009999199+02301+02101999999ADDGA1021+004571999GE19MSL   +99999+99999GF199999021999004571999999MA1101501999999REMMET051METAR SBKG 200600Z 09003KT 9999 FEW015 23/21 Q1015=
0142827950999992017032007004-07270-035896FM-15+050299999V0201101N002119999999N009999199+02301+02101999999ADDGA1041+004571999GE19MSL   +99999+99999GF199999041999004571999999MA1101501999999REMMET051METAR SBKG 200700Z 11004KT 9999 SCT015 23/21 Q1015=
0142827950999992017032008004-07270-035896FM-15+050299999V0200801N001519999999N009999199+02201+02101999999ADDGA1041+004571999GE19MSL   +99999+99999GF199999041999004571999999MA1101501999999REMMET051METAR SBKG 200800Z 08003KT 9999 SCT015 22/21 Q1015=
0142827950999992017032010004-07270-035896FM-15+050299999V0201401N003610054919N009999199+02401+02101999999ADDGA1071+005491999GE19MSL   +99999+99999GF199999071999005491999999MA1101701999999REMMET051METAR SBKG 201000Z 14007KT 9999 BKN018 24/21 Q1017=
0165827950999992017032012004-07220-035880FM-12+054799999V0201401N0041100600199010000199+02611+02091101521ADDAA101999999AZ101061AZ201061GA1051+006001081GA2999+999999001GE19MSL   +99999+99999GF106991051999006001999999KA1120N+02151MA1999999095391MD1999999+0021REMSYN004BUFR
0142827950999992017032012004-07270-035896FM-15+050299999V0201201N004610091419N009999199+02701+01801999999ADDGA1071+009141999GE19MSL   +99999+99999GF199999071999009141999999MA1101701999999REMMET051METAR SBKG 201200Z 12009KT 9999 BKN030 27/18 Q1017=
0142827950999992017032013004-07270-035896FM-15+050299999V0201201N006719999999N009999199+02901+01801999999ADDGA1041+012191999GE19MSL   +99999+99999GF199999041999012191999999MA1101701999999REMMET051METAR SBKG 201300Z 12013KT 9999 SCT040 29/18 Q1017=
0142827950999992017032014004-07270-035896FM-15+050299999V0200901N006219999999N009999199+03001+01701999999ADDGA1041+012191999GE19MSL   +99999+99999GF199999041999012191999999MA1101601999999REMMET051METAR SBKG 201400Z 09012KT 9999 SCT040 30/17 Q1016=
0142827950999992017032015004-07270-035896FM-15+050299999V0201601N005119999999N009999199+03101+01701999999ADDGA1041+012191999GE19MSL   +99999+99999GF199999041999012191999999MA1101501999999REMMET051METAR SBKG 201500Z 16010KT 9999 SCT040 31/17 Q1015=
0142827950999992017032016004-07270-035896FM-15+050299999V0201201N005110137219N009999199+03101+01801999999ADDGA1071+013721999GE19MSL   +99999+99999GF199999071999013721999999MA1101401999999REMMET051METAR SBKG 201600Z 12010KT 9999 BKN045 31/18 Q1014=
0136827950999992017032018004-07220-035880FM-12+054799999V0201401N0041199999999010000199+03071+01911101041ADDAA101999999AZ101061AZ201061GA1041+006001081GE19MSL   +99999+99999GF104991041999006001999999MA1999999094981MD1999999+0011REMSYN004BUFR
0142827950999992017032019004-07270-035896FM-15+050299999V0200901N007219999999N009999199+03101+01901999999ADDGA1041+013721999GE19MSL   +99999+99999GF199999041999013721999999MA1101301999999REMMET051METAR SBKG 201900Z 09014KT 9999 SCT045 31/19 Q1013=
0072827950999992017032020004-07270-035896FM-15+050299999V0200901N007219999999Y999999999+03001+01901999999ADDMA1101401999999REMMET045METAR SBKG 202000Z 09014KT CAVOK 30/19 Q1014=
0136827950999992017032100004-07220-035880FM-12+054799999V0201401N0041100600199001000199+02351+02081101381ADDAA101999999AZ101061AZ201061GA1051+006001081GE19MSL   +99999+99999GF105991051999006001999999MA1999999095261MD1999999+0021REMSYN004BUFR
0142827950999992017032104004-07270-035896FM-15+050299999V0201101N004119999999N009999199+02301+02101999999ADDGA1041+002131999GE19MSL   +99999+99999GF199999041999002131999999MA1101501999999REMMET051METAR SBKG 210400Z 11008KT 9999 SCT007 23/21 Q1015=
0142827950999992017032105004-07270-035896FM-15+050299999V0201001N003119999999N009999199+02201+02101999999ADDGA1041+004571999GE19MSL   +99999+99999GF199999041999004571999999MA1101401999999REMMET051METAR SBKG 210500Z 10006KT 9999 SCT015 22/21 Q1014=
0142827950999992017032106004-07270-035896FM-15+050299999V0201601N001010045719N009999199+02201+02101999999ADDGA1071+004571999GE19MSL   +99999+99999GF199999071999004571999999MA1101501999999REMMET051METAR SBKG 210600Z 16002KT 9999 BKN015 22/21 Q1015=
0142827950999992017032107004-07270-035896FM-15+050299999V0201601N001019999999N009999199+02101+02101999999ADDGA1041+004571999GE19MSL   +99999+99999GF199999041999004571999999MA1101501999999REMMET051METAR SBKG 210700Z 16002KT 9999 SCT015 21/21 Q1015=
0142827950999992017032109004-07270-035896FM-15+050299999V0202801N000519999999N009999199+02101+02101999999ADDGA1041+004571999GE19MSL   +99999+99999GF199999041999004571999999MA1101601999999REMMET051METAR SBKG 210900Z 28001KT 9999 SCT015 21/21 Q1016=
0165827950999992017032110004-07270-035896FM-15+050299999V0201501N00311004881CN009999199+02301+02101999999ADDGA1021+002741999GA2041+004881999GE19MSL   +99999+99999GF199999021999002741999999MA1101701999999REMMET058METAR SBKG 211000Z 15006KT 9999 FEW009 SCT016 23/21 Q1017=
0142827950999992017032111004-07270-035896FM-15+050299999V0201601N003110051819N009999199+02601+02101999999ADDGA1071+005181999GE19MSL   +99999+99999GF199999071999005181999999MA1101701999999REMMET051METAR SBKG 211100Z 16006KT 9999 BKN017 26/21 Q1017=
0149827950999992017032112004-07220-035880FM-12+054799999V0201401N0036100600199010000199+02651+02101101611ADDAA101999999AZ101061AZ201061GA1051+006001081GE19MSL   +99999+99999GF105991051999006001999999KA1120N+02161MA1999999095491MD1999999+0101REMSYN004BUFR
0142827950999992017032112004-07270-035896FM-15+050299999V0201501N003610100619N009999199+02601+02001999999ADDGA1071+010061999GE19MSL   +99999+99999GF199999071999010061999999MA1101701999999REMMET051METAR SBKG 211200Z 15007KT 9999 BKN033 26/20 Q1017=
0142827950999992017032113004-07270-035896FM-15+050299999V0201401N003110121919N009999199+02901+01901999999ADDGA1071+012191999GE19MSL   +99999+99999GF199999071999012191999999MA1101701999999REMMET051METAR SBKG 211300Z 14006KT 9999 BKN040 29/19 Q1017=
0072827950999992017032115004-07270-035896FM-15+050299999V0201101N004619999999Y999999999+03101+01701999999ADDMA1101501999999REMMET045METAR SBKG 211500Z 11009KT CAVOK 31/17 Q1015=
0080827950999992017032116004-07270-035896FM-15+050299999V0200901V004619999999Y999999999+03201+01601999999ADDMA1101401999999REMMET053METAR SBKG 211600Z 09009KT 050V150 CAVOK 32/16 Q1014=
0080827950999992017032117004-07270-035896FM-15+050299999V0200801V004619999999Y999999999+03201+01701999999ADDMA1101401999999REMMET053METAR SBKG 211700Z 08009KT 050V170 CAVOK 32/17 Q1014=
0136827950999992017032118004-07220-035880FM-12+054799999V0200901N0031100600199010000199+03171+01801101111ADDAA101999999AZ101061AZ201061GA1051+006001081GE19MSL   +99999+99999GF105991051999006001999999MA1999999095051MD1999999+0071REMSYN004BUFR
0080827950999992017032119004-07270-035896FM-15+050299999V0200701V007719999999Y999999999+03101+01901999999ADDMA1101301999999REMMET053METAR SBKG 211900Z 07015KT 040V100 CAVOK 31/19 Q1013=
0072827950999992017032120004-07270-035896FM-15+050299999V0201001N008219999999Y999999999+03001+02101999999ADDMA1101401999999REMMET045METAR SBKG 212000Z 10016KT CAVOK 30/21 Q1014=
0136827950999992017032200004-07220-035880FM-12+054799999V0200901N0041199999999001000199+02451+02131101471ADDAA101999999AZ101061AZ201061GA1031+006001081GE19MSL   +99999+99999GF103991031999006001999999MA1999999095351MD1999999+0091REMSYN004BUFR
0165827950999992017032204004-07270-035896FM-15+050299999V0200901N002610085319N009999199+02401+02201999999ADDGA1021+002441999GA2071+008531999GE19MSL   +99999+99999GF199999021999002441999999MA1101501999999REMMET058METAR SBKG 220400Z 09005KT 9999 FEW008 BKN028 24/22 Q1015=
0142827950999992017032205004-07270-035896FM-15+050299999V0201001N002110109719N009999199+02301+02101999999ADDGA1071+010971999GE19MSL   +99999+99999GF199999071999010971999999MA1101501999999REMMET051METAR SBKG 220500Z 10004KT 9999 BKN036 23/21 Q1015=
0198827950999992017032207004-07270-035896FM-15+050299999V0201101N00261006101CN005000199+02301+02201999999ADDGA1041+003961999GA2041+006101999GA3071+009751999GE19MSL   +99999+99999GF199999041999003961999999MA1101601999999MW1611REMMET069METAR SBKG 220700Z 11005KT 5000 -RA SCT013 SCT020 BKN032 23/22 Q1016=
0165827950999992017032208004-07270-035896FM-15+050299999V0200901N001010082319N009999199+02301+02201999999ADDGA1041+003351999GA2071+008231999GE19MSL   +99999+99999GF199999041999003351999999MA1101601999999REMMET058METAR SBKG 220800Z 09002KT 9999 SCT011 BKN027 23/22 Q1016=
0165827950999992017032209004-07270-035896FM-15+050299999V0201001N001510064019N009999199+02301+02201999999ADDGA1041+005181999GA2071+006401999GE19MSL   +99999+99999GF199999041999005181999999MA1101601999999REMMET058METAR SBKG 220900Z 10003KT 9999 SCT017 BKN021 23/22 Q1016=
0165827950999992017032211004-07270-035896FM-15+050299999V0201201N003610064019N009999199+02601+02201999999ADDGA1041+005491999GA2071+006401999GE19MSL   +99999+99999GF199999041999005491999999MA1101701999999REMMET058METAR SBKG 221100Z 12007KT 9999 SCT018 BKN021 26/22 Q1017=
0155827950999992017032212004-07220-035880FM-12+054799999V0200901N0041100600199010000199+02651+02141101561ADDAA124000331AY161061AY221061GA1061+006001081GE19MSL   +99999+99999GF106991061999006001999999KA1120N+02191MA1999999095441MD1999999-0051MW1021REMSYN004BUFR
0142827950999992017032213004-07270-035896FM-15+050299999V0201301N004110121919N009999199+03001+02001999999ADDGA1071+012191999GE19MSL   +99999+99999GF199999071999012191999999MA1101701999999REMMET051METAR SBKG 221300Z 13008KT 9999 BKN040 30/20 Q1017=
0142827950999992017032215004-07270-035896FM-15+050299999V0201701N004119999999N009999199+03301+01801999999ADDGA1041+013721999GE19MSL   +99999+99999GF199999041999013721999999MA1101501999999REMMET051METAR SBKG 221500Z 17008KT 9999 SCT045 33/18 Q1015=
0080827950999992017032216004-07270-035896FM-15+050299999V0201201V005719999999Y999999999+03201+01801999999ADDMA1101401999999REMMET053METAR SBKG 221600Z 12011KT 100V180 CAVOK 32/18 Q1014=
0080827950999992017032217004-07270-035896FM-15+050299999V0201101V004619999999Y999999999+03101+01901999999ADDMA1101301999999REMMET053METAR SBKG 221700Z 11009KT 040V130 CAVOK 31/19 Q1013=
0152827950999992017032218004-07220-035880FM-12+054799999V0201401N0041199999999010000199+03051+01971101041ADDAA101999999AZ101061AZ201061GA1041+006001081GA2999+999999001GE19MSL   +99999+99999GF105991041999006001999999MA1999999094981MD1999999-0071REMSYN004BUFR
0190827950999992017032218004-07270-035896FM-15+050299999V0201001N006210121919N009999199+03101+02101999999ADDGA1071+012191999GA2041+014631081GE19MSL   +99999+99999GF199999071999012191999999MA1101301999999MW1161OC101181REMMET069METAR SBKG 221800Z 10012G23KT 9999 VCSH BKN040 SCT048TCU 31/21 Q1013=
0192827950999992017032219004-07270-035896FM-15+050299999V0202301V004610051819N003000199+02102+02001999999ADDGA1071+005181999GA2041+009141091GE19MSL   +99999+99999GF199999071999005181999999MA1101301999999MW1951REMMET079METAR SBKG 221900Z 23009KT 200V260 3000 -TSRA BKN017 SCT030CB 21/20 Q1013 RETS=
0173827950999992017032220004-07270-035896FM-15+050299999V0200901N006719999999N009999199+02601+02301999999ADDGA1041+007921999GA2021+009141081GE19MSL   +99999+99999GF199999041999007921999999MA1101301999999REMMET066METAR SBKG 222000Z 09013KT 9999 SCT026 FEW030TCU 26/23 Q1013 RETS=
0142827950999992017032300004-07220-035880FM-12+054799999V0200901N0041100600199001000199+02401+02221101451ADDAA106000231AY191061AY261061GA1071+006001081GE19MSL   +99999+99999GF107991071999006001999999MA1999999095331MD1999999-0021MW1021REMSYN004BUFR
0165827950999992017032304004-07270-035896FM-15+050299999V0201001N002610045719N009999199+02301+02201999999ADDGA1041+003961999GA2071+004571999GE19MSL   +99999+99999GF199999041999003961999999MA1101501999999REMMET058METAR SBKG 230400Z 10005KT 9999 SCT013 BKN015 23/22 Q1015=
0165827950999992017032305004-07270-035896FM-15+050299999V0201101N002110030519N009999199+02301+02201999999ADDGA1071+003051999GA2071+004571999GE19MSL   +99999+99999GF199999071999003051999999MA1101501999999REMMET058METAR SBKG 230500Z 11004KT 9999 BKN010 BKN015 23/22 Q1015=
0165827950999992017032306004-07270-035896FM-15+050299999V0201301N003110030519N009999199+02301+02201999999ADDGA1041+002441999GA2071+003051999GE19MSL   +99999+99999GF199999041999002441999999MA1101501999999REMMET058METAR SBKG 230600Z 13006KT 9999 SCT008 BKN010 23/22 Q1015=
0142827950999992017032307004-07270-035896FM-15+050299999V0201401N003610030519N009999199+02301+02101999999ADDGA1071+003051999GE19MSL   +99999+99999GF199999071999003051999999MA1101501999999REMMET051METAR SBKG 230700Z 14007KT 9999 BKN010 23/21 Q1015=
0142827950999992017032308004-07270-035896FM-15+050299999V0201501N002119999999N009999199+02201+02101999999ADDGA1041+003661999GE19MSL   +99999+99999GF199999041999003661999999MA1101501999999REMMET051METAR SBKG 230800Z 15004KT 9999 SCT012 22/21 Q1015=
0142827950999992017032309004-07270-035896FM-15+050299999V0201401N003619999999N009999199+02301+02101999999ADDGA1041+003961999GE19MSL   +99999+99999GF199999041999003961999999MA1101501999999REMMET051METAR SBKG 230900Z 14007KT 9999 SCT013 23/21 Q1015=
0153827950999992017032310004-07270-035896FM-15+050299999V0201401N004610045719N009999199+02301+02101999999ADDGA1071+004571999GE19MSL   +99999+99999GF199999071999004571999999MA1101501999999MW1161REMMET056METAR SBKG 231000Z 14009KT 9999 VCSH BKN015 23/21 Q1015=
0142827950999992017032311004-07270-035896FM-15+050299999V0201301N004119999999N009999199+02501+02101999999ADDGA1041+004881999GE19MSL   +99999+99999GF199999041999004881999999MA1101601999999REMMET051METAR SBKG 231100Z 13008KT 9999 SCT016 25/21 Q1016=
0187827950999992017032312004-07220-035880FM-12+054799999V0200901N0036100600199010000199+02571+02191101441ADDAA124001031AY161061AY221061GA1051+006001081GA2999+999999031GA3999+999999021GE19MSL   +99999+99999GF106991051999006001999999KA1120N+02121MA1999999095321MD1999999-0121MW1021REMSYN004BUFR
0150827950999992017032312004-07270-035896FM-15+050299999V0201601V004110082319N009999199+02601+02101999999ADDGA1071+008231999GE19MSL   +99999+99999GF199999071999008231999999MA1101601999999REMMET059METAR SBKG 231200Z 16008KT 120V190 9999 BKN027 26/21 Q1016=
0153827950999992017032313004-07270-035896FM-15+050299999V0201401N004610091419N009999199+02601+02101999999ADDGA1071+009141999GE19MSL   +99999+99999GF199999071999009141999999MA1101601999999MW1161REMMET056METAR SBKG 231300Z 14009KT 9999 VCSH BKN030 26/21 Q1016=
0150827950999992017032314004-07270-035896FM-15+050299999V0201401V004610097519N009999199+02901+02101999999ADDGA1071+009751999GE19MSL   +99999+99999GF199999071999009751999999MA1101601999999REMMET059METAR SBKG 231400Z 14009KT 110V180 9999 BKN032 29/21 Q1016=
0142827950999992017032316004-07270-035896FM-15+050299999V0201501N003610091419N009999199+02901+02101999999ADDGA1071+009141999GE19MSL   +99999+99999GF199999071999009141999999MA1101301999999REMMET051METAR SBKG 231600Z 15007KT 9999 BKN030 29/21 Q1013=
0150827950999992017032317004-07270-035896FM-15+050299999V0201301V005719999999N009999199+03001+02101999999ADDGA1041+012191999GE19MSL   +99999+99999GF199999041999012191999999MA1101201999999REMMET059METAR SBKG 231700Z 13011KT 110V190 9999 SCT040 30/21 Q1012=
0152827950999992017032318004-07220-035880FM-12+054799999V0201401N0026100600199010000199+02961+02071100941ADDAA101999999AZ101061AZ201061GA1051+006001081GA2999+999999001GE19MSL   +99999+99999GF106991051999006001999999MA1999999094871MD1999999-0111REMSYN004BUFR
0142827950999992017032319004-07270-035896FM-15+050299999V0200901N007219999999N009999199+03001+02001999999ADDGA1041+012191999GE19MSL   +99999+99999GF199999041999012191999999MA1101101999999REMMET051METAR SBKG 231900Z 09014KT 9999 SCT040 30/20 Q1011=
0142827950999992017032320004-07270-035896FM-15+050299999V0200801N007219999999N009999199+02901+02101999999ADDGA1021+012191999GE19MSL   +99999+99999GF199999021999012191999999MA1101201999999REMMET051METAR SBKG 232000Z 08014KT 9999 FEW040 29/21 Q1012=
0152827950999992017032400004-07220-035880FM-12+054799999V0201401N0041100600199001000199+02401+02181101321ADDAA101999999AZ101061AZ201061GA1051+006001081GA2999+999999001GE19MSL   +99999+99999GF106991051999006001999999MA1999999095201MD1999999-0131REMSYN004BUFR
0142827950999992017032404004-07270-035896FM-15+050299999V0201201N003110054919N009999199+02201+02001999999ADDGA1071+005491999GE19MSL   +99999+99999GF199999071999005491999999MA1101401999999REMMET051METAR SBKG 240400Z 12006KT 9999 BKN018 22/20 Q1014=
0150827950999992017032405004-07270-035896FM-15+050299999V0201201V002110045719N009999199+02201+02001999999ADDGA1071+004571999GE19MSL   +99999+99999GF199999071999004571999999MA1101301999999REMMET059METAR SBKG 240500Z 12004KT 090V150 9999 BKN015 22/20 Q1013=
0165827950999992017032406004-07270-035896FM-15+050299999V0209999V001010061019N009999199+02201+02001999999ADDGA1041+004271999GA2071+006101999GE19MSL   +99999+99999GF199999041999004271999999MA1101401999999REMMET058METAR SBKG 240600Z VRB02KT 9999 SCT014 BKN020 22/20 Q1014=
0173827950999992017032407004-07270-035896FM-15+050299999V0201301V002110070119N009999199+02201+02001999999ADDGA1041+004881999GA2071+007011999GE19MSL   +99999+99999GF199999041999004881999999MA1101401999999REMMET066METAR SBKG 240700Z 13004KT 100V160 9999 SCT016 BKN023 22/20 Q1014=
0165827950999992017032409004-07270-035896FM-15+050299999V0201601N002110073219N009999199+02201+02001999999ADDGA1041+005791999GA2071+007321999GE19MSL   +99999+99999GF199999041999005791999999MA1101401999999REMMET058METAR SBKG 240900Z 16004KT 9999 SCT019 BKN024 22/20 Q1014=
0142827950999992017032410004-07270-035896FM-15+050299999V0201401N003119999999N009999199+02401+02001999999ADDGA1041+004571999GE19MSL   +99999+99999GF199999041999004571999999MA1101501999999REMMET051METAR SBKG 241000Z 14006KT 9999 SCT015 24/20 Q1015=
0149827950999992017032412004-07220-035880FM-12+054799999V0201401N0041199999999010000199+02551+02151101471ADDAA101999999AZ101061AZ201061GA1041+006001081GE19MSL   +99999+99999GF106991041999006001999999KA1120N+02101MA1999999095341MD1999999+0021REMSYN004BUFR
0142827950999992017032412004-07270-035896FM-15+050299999V0201601N004619999999N009999199+02701+02001999999ADDGA1041+006101999GE19MSL   +99999+99999GF199999041999006101999999MA1101601999999REMMET051METAR SBKG 241200Z 16009KT 9999 SCT020 27/20 Q1016=
0142827950999992017032413004-07270-035896FM-15+050299999V0201701N004119999999N009999199+02801+02001999999ADDGA1041+009141999GE19MSL   +99999+99999GF199999041999009141999999MA1101601999999REMMET051METAR SBKG 241300Z 17008KT 9999 SCT030 28/20 Q1016=
0142827950999992017032414004-07270-035896FM-15+050299999V0201701N005719999999N009999199+02901+01901999999ADDGA1041+009141999GE19MSL   +99999+99999GF199999041999009141999999MA1101501999999REMMET051METAR SBKG 241400Z 17011KT 9999 SCT030 29/19 Q1015=
0072827950999992017032416004-07270-035896FM-15+050299999V0200901N006219999999Y999999999+03101+01801999999ADDMA1101301999999REMMET045METAR SBKG 241600Z 09012KT CAVOK 31/18 Q1013=
0072827950999992017032417004-07270-035896FM-15+050299999V0201101N004619999999Y999999999+03201+01701999999ADDMA1101201999999REMMET045METAR SBKG 241700Z 11009KT CAVOK 32/17 Q1012=
0152827950999992017032418004-07220-035880FM-12+054799999V0201401N0036199999999010000199+03071+01911100951ADDAA101999999AZ101061AZ201061GA1041+006001081GA2999+999999021GE19MSL   +99999+99999GF106991041999006001999999MA1999999094891MD1999999+0021REMSYN004BUFR
0072827950999992017032418004-07270-035896FM-15+050299999V0201001N006719999999Y999999999+03201+01701999999ADDMA1101201999999REMMET045METAR SBKG 241800Z 10013KT CAVOK 32/17 Q1012=
0142827950999992017032419004-07270-035896FM-15+050299999V0201001N008219999999N009999199+03001+01901999999ADDGA1041+014021999GE19MSL   +99999+99999GF199999041999014021999999MA1101201999999REMMET051METAR SBKG 241900Z 10016KT 9999 SCT046 30/19 Q1012=
0142827950999992017032420004-07270-035896FM-15+050299999V0201001N008219999999N009999199+02801+02001999999ADDGA1021+014021999GE19MSL   +99999+99999GF199999021999014021999999MA1101301999999REMMET051METAR SBKG 242000Z 10016KT 9999 FEW046 28/20 Q1013=
0136827950999992017032500004-07220-035880FM-12+054799999V0201401N0041100600199001000199+02301+02111101341ADDAA101999999AZ101061AZ201061GA1051+006001081GE19MSL   +99999+99999GF105991051999006001999999MA1999999095211MD1999999+0011REMSYN004BUFR
0142827950999992017032504004-07270-035896FM-15+050299999V0201001N001010021319N009999199+02201+02101999999ADDGA1071+002131999GE19MSL   +99999+99999GF199999071999002131999999MA1101401999999REMMET051METAR SBKG 250400Z 10002KT 9999 BKN007 22/21 Q1014=
0142827950999992017032505004-07270-035896FM-15+050299999V0201101N002110021319N009999199+02201+02101999999ADDGA1071+002131999GE19MSL   +99999+99999GF199999071999002131999999MA1101401999999REMMET051METAR SBKG 250500Z 11004KT 9999 BKN007 22/21 Q1014=
0142827950999992017032506004-07270-035896FM-15+050299999V0201301N002119999999N009999199+02101+02101999999ADDGA1041+002131999GE19MSL   +99999+99999GF199999041999002131999999MA1101301999999REMMET051METAR SBKG 250600Z 13004KT 9999 SCT007 21/21 Q1013=
0142827950999992017032507004-07270-035896FM-15+050299999V0201201N002119999999N009999199+02101+02101999999ADDGA1041+002131999GE19MSL   +99999+99999GF199999041999002131999999MA1101301999999REMMET051METAR SBKG 250700Z 12004KT 9999 SCT007 21/21 Q1013=
0142827950999992017032508004-07270-035896FM-15+050299999V0201001N001519999999N009999199+02101+02101999999ADDGA1021+000301999GE19MSL   +99999+99999GF199999021999000301999999MA1101401999999REMMET051METAR SBKG 250800Z 10003KT 9999 FEW001 21/21 Q1014=
0142827950999992017032509004-07270-035896FM-15+050299999V0201101N002119999999N009999199+02101+02001999999ADDGA1041+004271999GE19MSL   +99999+99999GF199999041999004271999999MA1101401999999REMMET051METAR SBKG 250900Z 11004KT 9999 SCT014 21/20 Q1014=
0142827950999992017032510004-07270-035896FM-15+050299999V0201301N002110061019N009999199+02201+02001999999ADDGA1071+006101999GE19MSL   +99999+99999GF199999071999006101999999MA1101501999999REMMET051METAR SBKG 251000Z 13004KT 9999 BKN020 22/20 Q1015=
0165827950999992017032512004-07220-035880FM-12+054799999V0201401N0031100600199010000199+02501+02041101481ADDAA101999999AZ101061AZ201061GA1051+006001081GA2999+999999021GE19MSL   +99999+99999GF107991051999006001999999KA1120N+02061MA1999999095341MD1999999+0001REMSYN004BUFR
0142827950999992017032512004-07270-035896FM-15+050299999V0201101N005719999999N009999199+02601+01901999999ADDGA1041+009141999GE19MSL   +99999+99999GF199999041999009141999999MA1101601999999REMMET051METAR SBKG 251200Z 11011KT 9999 SCT030 26/19 Q1016=
0142827950999992017032513004-07270-035896FM-15+050299999V0200901N006219999999N009999199+02901+01901999999ADDGA1041+012191999GE19MSL   +99999+99999GF199999041999012191999999MA1101501999999REMMET051METAR SBKG 251300Z 09012KT 9999 SCT040 29/19 Q1015=
0150827950999992017032514004-07270-035896FM-15+050299999V0201101V006719999999N009999199+03001+01801999999ADDGA1041+012191999GE19MSL   +99999+99999GF199999041999012191999999MA1101501999999REMMET059METAR SBKG 251400Z 11013KT 050V140 9999 SCT040 30/18 Q1015=
0142827950999992017032515004-07270-035896FM-15+050299999V0200901N006719999999N009999199+03001+01701999999ADDGA1041+012191999GE19MSL   +99999+99999GF199999041999012191999999MA1101301999999REMMET051METAR SBKG 251500Z 09013KT 9999 SCT040 30/17 Q1013=
0142827950999992017032516004-07270-035896FM-15+050299999V0201101N006719999999N009999199+03101+01801999999ADDGA1041+012191999GE19MSL   +99999+99999GF199999041999012191999999MA1101201999999REMMET051METAR SBKG 251600Z 11013KT 9999 SCT040 31/18 Q1012=
0142827950999992017032517004-07270-035896FM-15+050299999V0201001N005719999999N009999199+03201+01701999999ADDGA1041+012191999GE19MSL   +99999+99999GF199999041999012191999999MA1101201999999REMMET051METAR SBKG 251700Z 10011KT 9999 SCT040 32/17 Q1012=
0136827950999992017032518004-07220-035880FM-12+054799999V0200901N0046199999999010000199+03051+01791100911ADDAA101999999AZ101061AZ201061GA1041+006001081GE19MSL   +99999+99999GF104991041999006001999999MA1999999094841MD1999999-0051REMSYN004BUFR
0142827950999992017032519004-07270-035896FM-15+050299999V0201001N007219999999N009999199+03101+01801999999ADDGA1041+012191999GE19MSL   +99999+99999GF199999041999012191999999MA1101201999999REMMET051METAR SBKG 251900Z 10014KT 9999 SCT040 31/18 Q1012=
0142827950999992017032520004-07270-035896FM-15+050299999V0201001N008819999999N009999199+02901+01901999999ADDGA1021+012191999GE19MSL   +99999+99999GF199999021999012191999999MA1101201999999REMMET051METAR SBKG 252000Z 10017KT 9999 FEW040 29/19 Q1012=
0142827950999992017032604004-07270-035896FM-15+050299999V0201001N004119999999N009999199+02301+02201999999ADDGA1041+004571999GE19MSL   +99999+99999GF199999041999004571999999MA1101401999999REMMET051METAR SBKG 260400Z 10008KT 9999 SCT015 23/22 Q1014=
0142827950999992017032605004-07270-035896FM-15+050299999V0201001N004110045719N009999199+02301+02201999999ADDGA1071+004571999GE19MSL   +99999+99999GF199999071999004571999999MA1101401999999REMMET051METAR SBKG 260500Z 10008KT 9999 BKN015 23/22 Q1014=
0142827950999992017032606004-07270-035896FM-15+050299999V0201101N004610045719N009999199+02301+02201999999ADDGA1071+004571999GE19MSL   +99999+99999GF199999071999004571999999MA1101301999999REMMET051METAR SBKG 260600Z 11009KT 9999 BKN015 23/22 Q1013=
0142827950999992017032607004-07270-035896FM-15+050299999V0201001N003110045719N009999199+02301+02201999999ADDGA1071+004571999GE19MSL   +99999+99999GF199999071999004571999999MA1101301999999REMMET051METAR SBKG 260700Z 10006KT 9999 BKN015 23/22 Q1013=
0142827950999992017032608004-07270-035896FM-15+050299999V0200801N003110045719N009999199+02301+02101999999ADDGA1071+004571999GE19MSL   +99999+99999GF199999071999004571999999MA1101301999999REMMET051METAR SBKG 260800Z 08006KT 9999 BKN015 23/21 Q1013=
0142827950999992017032609004-07270-035896FM-15+050299999V0201001N003610045719N009999199+02301+02201999999ADDGA1071+004571999GE19MSL   +99999+99999GF199999071999004571999999MA1101401999999REMMET051METAR SBKG 260900Z 10007KT 9999 BKN015 23/22 Q1014=
0165827950999992017032610004-07270-035896FM-15+050299999V0201001N00411005491CN009999199+02401+02101999999ADDGA1041+002741999GA2041+005491999GE19MSL   +99999+99999GF199999041999002741999999MA1101501999999REMMET058METAR SBKG 261000Z 10008KT 9999 SCT009 SCT018 24/21 Q1015=
0142827950999992017032611004-07270-035896FM-15+050299999V0201001N006219999999N009999199+02601+02001999999ADDGA1041+006401999GE19MSL   +99999+99999GF199999041999006401999999MA1101501999999REMMET051METAR SBKG 261100Z 10012KT 9999 SCT021 26/20 Q1015=
0149827950999992017032612004-07220-035880FM-12+054799999V0201401N0041100600199010000199+02611+02001101411ADDAA101999999AZ101061AZ201061GA1061+006001081GE19MSL   +99999+99999GF106991061999006001999999KA1120N+02151MA1999999095291MD1999999-0051REMSYN004BUFR
0142827950999992017032612004-07270-035896FM-15+050299999V0201001N007210091419N009999199+02701+02001999999ADDGA1071+009141999GE19MSL   +99999+99999GF199999071999009141999999MA1101601999999REMMET051METAR SBKG 261200Z 10014KT 9999 BKN030 27/20 Q1016=
0142827950999992017032613004-07270-035896FM-15+050299999V0201101N007710121919N009999199+02901+01801999999ADDGA1071+012191999GE19MSL   +99999+99999GF199999071999012191999999MA1101501999999REMMET051METAR SBKG 261300Z 11015KT 9999 BKN040 29/18 Q1015=
0142827950999992017032614004-07270-035896FM-15+050299999V0200901N007710131119N009999199+03001+01801999999ADDGA1071+013111999GE19MSL   +99999+99999GF199999071999013111999999MA1101501999999REMMET051METAR SBKG 261400Z 09015KT 9999 BKN043 30/18 Q1015=
0072827950999992017032615004-07270-035896FM-15+050299999V0201101N008219999999Y999999999+03101+01801999999ADDMA1101401999999REMMET045METAR SBKG 261500Z 11016KT CAVOK 31/18 Q1014=
0080827950999992017032616004-07270-035896FM-15+050299999V0201001V007719999999Y999999999+03201+01801999999ADDMA1101201999999REMMET053METAR SBKG 261600Z 10015KT 080V150 CAVOK 32/18 Q1012=
0080827950999992017032617004-07270-035896FM-15+050299999V0201201V008219999999Y999999999+03101+01901999999ADDMA1101201999999REMMET053METAR SBKG 261700Z 12016KT 090V160 CAVOK 31/19 Q1012=
0136827950999992017032618004-07220-035880FM-12+054799999V0201801N0051199999999010000199+03021+01901100941ADDAA101999999AZ101061AZ201061GA1031+006001081GE19MSL   +99999+99999GF103991031999006001999999MA1999999094881MD1999999+0041REMSYN004BUFR
0080827950999992017032619004-07270-035896FM-15+050299999V0201001V007719999999Y999999999+03101+01801999999ADDMA1101101999999REMMET053METAR SBKG 261900Z 10015KT 060V120 CAVOK 31/18 Q1011=
0080827950999992017032620004-07270-035896FM-15+050299999V0200901V007719999999Y999999999+03001+01801999999ADDMA1101201999999REMMET053METAR SBKG 262000Z 09015KT 060V120 CAVOK 30/18 Q1012=
0136827950999992017032700004-07220-035880FM-12+054799999V0200901N0046100600199001000199+02351+02061101311ADDAA101999999AZ101061AZ201061GA1051+006001081GE19MSL   +99999+99999GF105991051999006001999999MA1999999095191MD1999999-0031REMSYN004BUFR
0165827950999992017032704004-07270-035896FM-15+050299999V0201001N00261003351CN009999199+02301+02201999999ADDGA1041+001521999GA2041+003351999GE19MSL   +99999+99999GF199999041999001521999999MA1101401999999REMMET058METAR SBKG 270400Z 10005KT 9999 SCT005 SCT011 23/22 Q1014=
0165827950999992017032705004-07270-035896FM-15+050299999V0201001N002610027419N009999199+02301+02201999999ADDGA1041+001221999GA2071+002741999GE19MSL   +99999+99999GF199999041999001221999999MA1101401999999REMMET058METAR SBKG 270500Z 10005KT 9999 SCT004 BKN009 23/22 Q1014=
0165827950999992017032706004-07270-035896FM-15+050299999V0200901N004110036619N009999199+02301+02201999999ADDGA1041+001521999GA2071+003661999GE19MSL   +99999+99999GF199999041999001521999999MA1101301999999REMMET058METAR SBKG 270600Z 09008KT 9999 SCT005 BKN012 23/22 Q1013=
0165827950999992017032707004-07270-035896FM-15+050299999V0200901N004110042719N009999199+02301+02201999999ADDGA1041+001521999GA2071+004271999GE19MSL   +99999+99999GF199999041999001521999999MA1101301999999REMMET058METAR SBKG 270700Z 09008KT 9999 SCT005 BKN014 23/22 Q1013=
0165827950999992017032708004-07270-035896FM-15+050299999V0200801N003610033519N009999199+02301+02201999999ADDGA1041+001521999GA2071+003351999GE19MSL   +99999+99999GF199999041999001521999999MA1101401999999REMMET058METAR SBKG 270800Z 08007KT 9999 SCT005 BKN011 23/22 Q1014=
0142827950999992017032709004-07270-035896FM-15+050299999V0201001N003110033519N006000199+02301+02201999999ADDGA1071+003351999GE19MSL   +99999+99999GF199999071999003351999999MA1101501999999REMMET051METAR SBKG 270900Z 10006KT 6000 BKN011 23/22 Q1015=
0188827950999992017032710004-07270-035896FM-15+050299999V0201101N003610030519N009999199+02401+02201999999ADDGA1041+001521999GA2071+003051999GA3071+004571999GE19MSL   +99999+99999GF199999041999001521999999MA1101601999999REMMET065METAR SBKG 271000Z 11007KT 9999 SCT005 BKN010 BKN015 24/22 Q1016=
0149827950999992017032712004-07220-035880FM-12+054799999V0201401N0041100600199010000199+02521+02151101421ADDAA101999999AZ101061AZ201061GA1061+006001081GE19MSL   +99999+99999GF106991061999006001999999KA1120N+02131MA1999999095321MD1999999+0031REMSYN004BUFR
0165827950999992017032712004-07270-035896FM-15+050299999V0201001N005110304819N009999199+02601+02101999999ADDGA1041+005491999GA2071+030481999GE19MSL   +99999+99999GF199999041999005491999999MA1101701999999REMMET058METAR SBKG 271200Z 10010KT 9999 SCT018 BKN100 26/21 Q1017=
0165827950999992017032713004-07270-035896FM-15+050299999V0201001N006710304819N009999199+02801+02001999999ADDGA1021+005491999GA2071+030481999GE19MSL   +99999+99999GF199999021999005491999999MA1101601999999REMMET058METAR SBKG 271300Z 10013KT 9999 FEW018 BKN100 28/20 Q1016=
0142827950999992017032715004-07270-035896FM-15+050299999V0201001N006719999999N009999199+03001+02001999999ADDGA1041+011891999GE19MSL   +99999+99999GF199999041999011891999999MA1101501999999REMMET051METAR SBKG 271500Z 10013KT 9999 SCT039 30/20 Q1015=
0165827950999992017032716004-07270-035896FM-15+050299999V0201101N005110274319N009999199+03101+01901999999ADDGA1041+012191999GA2071+027431999GE19MSL   +99999+99999GF199999041999012191999999MA1101301999999REMMET058METAR SBKG 271600Z 11010KT 9999 SCT040 BKN090 31/19 Q1013=
0173827950999992017032717004-07270-035896FM-15+050299999V0201101V006210274319N009999199+03101+01901999999ADDGA1041+012191999GA2071+027431999GE19MSL   +99999+99999GF199999041999012191999999MA1101301999999REMMET066METAR SBKG 271700Z 11012KT 070V150 9999 SCT040 BKN090 31/19 Q1013=
0136827950999992017032718004-07220-035880FM-12+054799999V0200901N0036100600199010000199+03051+01921101031ADDAA101999999AZ101061AZ201061GA1051+006001081GE19MSL   +99999+99999GF106991051999006001999999MA1999999094971MD1999999+0091REMSYN004BUFR
0165827950999992017032718004-07270-035896FM-15+050299999V0200901N005110274319N009999199+03201+01901999999ADDGA1041+012191999GA2071+027431999GE19MSL   +99999+99999GF199999041999012191999999MA1101201999999REMMET058METAR SBKG 271800Z 09010KT 9999 SCT040 BKN090 32/19 Q1012=
0142827950999992017032719004-07270-035896FM-15+050299999V0200901N005119999999N009999199+03101+01901999999ADDGA1021+012191999GE19MSL   +99999+99999GF199999021999012191999999MA1101201999999REMMET051METAR SBKG 271900Z 09010KT 9999 FEW040 31/19 Q1012=
0165827950999992017032720004-07270-035896FM-15+050299999V0200901N00721024381CN009999199+02901+01901999999ADDGA1021+009141999GA2041+024381999GE19MSL   +99999+99999GF199999021999009141999999MA1101301999999REMMET058METAR SBKG 272000Z 09014KT 9999 FEW030 SCT080 29/19 Q1013=
0136827950999992017032800004-07220-035880FM-12+054799999V0200901N0036100600199001000199+02351+02071101441ADDAA101999999AZ101061AZ201061GA1061+006001081GE19MSL   +99999+99999GF106991061999006001999999MA1999999095301MD1999999+0111REMSYN004BUFR
0165827950999992017032804004-07270-035896FM-15+050299999V0201001N00261003051CN009999199+02301+02201999999ADDGA1041+002131999GA2041+003051999GE19MSL   +99999+99999GF199999041999002131999999MA1101501999999REMMET058METAR SBKG 280400Z 10005KT 9999 SCT007 SCT010 23/22 Q1015=
0165827950999992017032806004-07270-035896FM-15+050299999V0200901N00261004271CN009999199+02301+02201999999ADDGA1041+002441999GA2041+004271999GE19MSL   +99999+99999GF199999041999002441999999MA1101401999999REMMET058METAR SBKG 280600Z 09005KT 9999 SCT008 SCT014 23/22 Q1014=
0165827950999992017032807004-07270-035896FM-15+050299999V0200801N002610030519N009999199+02301+02201999999ADDGA1041+001521999GA2071+003051999GE19MSL   +99999+99999GF199999041999001521999999MA1101401999999REMMET058METAR SBKG 280700Z 08005KT 9999 SCT005 BKN010 23/22 Q1014=
0165827950999992017032808004-07270-035896FM-15+050299999V0200701N002110030519N009999199+02301+02201999999ADDGA1041+001521999GA2071+003051999GE19MSL   +99999+99999GF199999041999001521999999MA1101401999999REMMET058METAR SBKG 280800Z 07004KT 9999 SCT005 BKN010 23/22 Q1014=
0165827950999992017032809004-07270-035896FM-15+050299999V0200801N00261003051CN009999199+02301+02201999999ADDGA1041+001221999GA2041+003051999GE19MSL   +99999+99999GF199999041999001221999999MA1101401999999REMMET058METAR SBKG 280900Z 08005KT 9999 SCT004 SCT010 23/22 Q1014=
0173827950999992017032810004-07270-035896FM-15+050299999V0200901V002610051819N009999199+02401+02201999999ADDGA1041+001521999GA2071+005181999GE19MSL   +99999+99999GF199999041999001521999999MA1101501999999REMMET066METAR SBKG 281000Z 09005KT 060V120 9999 SCT005 BKN017 24/22 Q1015=
0149827950999992017032812004-07220-035880FM-12+054799999V0201401N0031100600199010000199+02601+02141101441ADDAA101999999AZ101061AZ201061GA1061+006001081GE19MSL   +99999+99999GF106991061999006001999999KA1120N+02161MA1999999095311MD1999999-0011REMSYN004BUFR
0150827950999992017032812004-07270-035896FM-15+050299999V0201001V003119999999N009999199+02801+02101999999ADDGA1041+007011999GE19MSL   +99999+99999GF199999041999007011999999MA1101601999999REMMET059METAR SBKG 281200Z 10006KT 070V170 9999 SCT023 28/21 Q1016=
0150827950999992017032813004-07270-035896FM-15+050299999V0201001V004619999999N009999199+02901+02001999999ADDGA1041+009141999GE19MSL   +99999+99999GF199999041999009141999999MA1101601999999REMMET059METAR SBKG 281300Z 10009KT 050V130 9999 SCT030 29/20 Q1016=
0161827950999992017032814004-07270-035896FM-15+050299999V0200901V005119999999N009999199+03001+02001999999ADDGA1041+012191999GE19MSL   +99999+99999GF199999041999012191999999MA1101601999999OC101031REMMET062METAR SBKG 281400Z 09010G20KT 350V130 9999 SCT040 30/20 Q1016=
0080827950999992017032815004-07270-035896FM-15+050299999V0200501V004119999999Y999999999+03101+01901999999ADDMA1101501999999REMMET053METAR SBKG 281500Z 05008KT 010V120 CAVOK 31/19 Q1015=
0142827950999992017032816004-07270-035896FM-15+050299999V0200701N004619999999N009999199+03201+01801999999ADDGA1041+012191999GE19MSL   +99999+99999GF199999041999012191999999MA1101301999999REMMET051METAR SBKG 281600Z 07009KT 9999 SCT040 32/18 Q1013=
0136827950999992017032818004-07220-035880FM-12+054799999V0200901N0041100600199010000199+03101+01931100991ADDAA101999999AZ101061AZ201061GA1051+006001081GE19MSL   +99999+99999GF105991051999006001999999MA1999999094931MD1999999-0041REMSYN004BUFR
0153827950999992017032818004-07270-035896FM-15+050299999V0200701N005719999999N009999199+03201+01901999999ADDGA1041+012191999GE19MSL   +99999+99999GF199999041999012191999999MA1101201999999OC101131REMMET054METAR SBKG 281800Z 07011G22KT 9999 SCT040 32/19 Q1012=
0072827950999992017032820004-07270-035896FM-15+050299999V0200801N008219999999Y999999999+03001+02001999999ADDMA1101201999999REMMET045METAR SBKG 282000Z 08016KT CAVOK 30/20 Q1012=
0165827950999992017032904004-07270-035896FM-15+050299999V0200701N00361003351CN009999199+02301+02201999999ADDGA1021+001831999GA2041+003351999GE19MSL   +99999+99999GF199999021999001831999999MA1101401999999REMMET058METAR SBKG 290400Z 07007KT 9999 FEW006 SCT011 23/22 Q1014=
0165827950999992017032905004-07270-035896FM-15+050299999V0200701N00361003351CN009999199+02301+02201999999ADDGA1041+002441999GA2041+003351999GE19MSL   +99999+99999GF199999041999002441999999MA1101401999999REMMET058METAR SBKG 290500Z 07007KT 9999 SCT008 SCT011 23/22 Q1014=
0173827950999992017032906004-07270-035896FM-15+050299999V0200701V00151002741CN009999199+02301+02201999999ADDGA1041+001521999GA2041+002741999GE19MSL   +99999+99999GF199999041999001521999999MA1101301999999REMMET066METAR SBKG 290600Z 07003KT 030V090 9999 SCT005 SCT009 23/22 Q1013=
0165827950999992017032907004-07270-035896FM-15+050299999V0200701N00311004571CN009999199+02201+02101999999ADDGA1041+001521999GA2041+004571999GE19MSL   +99999+99999GF199999041999001521999999MA1101301999999REMMET058METAR SBKG 290700Z 07006KT 9999 SCT005 SCT015 22/21 Q1013=
0142827950999992017032908004-07270-035896FM-15+050299999V0200701N002619999999N009999199+02201+02101999999ADDGA1041+001221999GE19MSL   +99999+99999GF199999041999001221999999MA1101301999999REMMET051METAR SBKG 290800Z 07005KT 9999 SCT004 22/21 Q1013=
0151827950999992017032909004-07270-035896FM-15+050299999V0200601N002610006119N001500199+02201+02101999999ADDGA1071+000611999GE19MSL   +99999+99999GF199999071999000611999999MA1101301999999MW1101REMMET054METAR SBKG 290900Z 06005KT 1500 BR BKN002 22/21 Q1013=
0142827950999992017032910004-07270-035896FM-15+050299999V0200801N003119999999N009999199+02401+02101999999ADDGA1041+002441999GE19MSL   +99999+99999GF199999041999002441999999MA1101401999999REMMET051METAR SBKG 291000Z 08006KT 9999 SCT008 24/21 Q1014=
0165827950999992017032912004-07220-035880FM-12+054799999V0200901N0031199999999010000199+02621+02111101221ADDAA101999999AZ101061AZ201061GA1021+006001061GA2999+999999021GE19MSL   +99999+99999GF104991021999006001999999KA1120N+02161MA1999999095121MD1999999-0191REMSYN004BUFR
0142827950999992017032912004-07270-035896FM-15+050299999V0200701N005119999999N009999199+02801+02001999999ADDGA1021+006101999GE19MSL   +99999+99999GF199999021999006101999999MA1101401999999REMMET051METAR SBKG 291200Z 07010KT 9999 FEW020 28/20 Q1014=
0142827950999992017032913004-07270-035896FM-15+050299999V0200601N005719999999N009999199+02901+02001999999ADDGA1021+006711999GE19MSL   +99999+99999GF199999021999006711999999MA1101401999999REMMET051METAR SBKG 291300Z 06011KT 9999 FEW022 29/20 Q1014=
0142827950999992017032915004-07270-035896FM-15+050299999V0200801N006210091419N009999199+03101+01901999999ADDGA1071+009141999GE19MSL   +99999+99999GF199999071999009141999999MA1101401999999REMMET051METAR SBKG 291500Z 08012KT 9999 BKN030 31/19 Q1014=
0142827950999992017032917004-07270-035896FM-15+050299999V0200901N006710131119N009999199+03101+02001999999ADDGA1071+013111999GE19MSL   +99999+99999GF199999071999013111999999MA1101101999999REMMET051METAR SBKG 291700Z 09013KT 9999 BKN043 31/20 Q1011=
0152827950999992017032918004-07220-035880FM-12+054799999V0200901N0036100600199010000199+02971+02001100901ADDAA101999999AZ101061AZ201061GA1051+006001081GA2999+999999001GE19MSL   +99999+99999GF106991051999006001999999MA1999999094831MD1999999-0141REMSYN004BUFR
0072827950999992017032919004-07270-035896FM-15+050299999V0200901N007219999999Y999999999+03201+02001999999ADDMA1101001999999REMMET045METAR SBKG 291900Z 09014KT CAVOK 32/20 Q1010=
0072827950999992017032920004-07270-035896FM-15+050299999V0201001N007719999999Y999999999+03001+02101999999ADDMA1101101999999REMMET045METAR SBKG 292000Z 10015KT CAVOK 30/21 Q1011=
0165827950999992017033004004-07270-035896FM-15+050299999V0201001N00411004571CN009999199+02401+02201999999ADDGA1021+002741999GA2041+004571999GE19MSL   +99999+99999GF199999021999002741999999MA1101401999999REMMET058METAR SBKG 300400Z 10008KT 9999 FEW009 SCT015 24/22 Q1014=
0142827950999992017033005004-07270-035896FM-15+050299999V0200801N003119999999N009999199+02401+02201999999ADDGA1041+004571999GE19MSL   +99999+99999GF199999041999004571999999MA1101301999999REMMET051METAR SBKG 300500Z 08006KT 9999 SCT015 24/22 Q1013=
0165827950999992017033007004-07270-035896FM-15+050299999V0201101N00311004571CN009999199+02401+02301999999ADDGA1021+001831999GA2041+004571999GE19MSL   +99999+99999GF199999021999001831999999MA1101301999999REMMET058METAR SBKG 300700Z 11006KT 9999 FEW006 SCT015 24/23 Q1013=
0142827950999992017033008004-07270-035896FM-15+050299999V0201101N002119999999N009999199+02401+02201999999ADDGA1041+003051999GE19MSL   +99999+99999GF199999041999003051999999MA1101301999999REMMET051METAR SBKG 300800Z 11004KT 9999 SCT010 24/22 Q1013=
0142827950999992017033009004-07270-035896FM-15+050299999V0200901N002119999999N009999199+02401+02201999999ADDGA1021+003051999GE19MSL   +99999+99999GF199999021999003051999999MA1101301999999REMMET051METAR SBKG 300900Z 09004KT 9999 FEW010 24/22 Q1013=
0165827950999992017033011004-07270-035896FM-15+050299999V0200901N004610274319N009999199+02601+02201999999ADDGA1041+004571999GA2071+027431999GE19MSL   +99999+99999GF199999041999004571999999MA1101401999999REMMET058METAR SBKG 301100Z 09009KT 9999 SCT015 BKN090 26/22 Q1014=
0155827950999992017033012004-07220-035880FM-12+054799999V0200901N0026199999999010000199+02601+02211101301ADDAA124001031AY161061AY221061GA1031+006001081GE19MSL   +99999+99999GF107991031999006001999999KA1120N+02181MA1999999095181MD1999999+0061MW1021REMSYN004BUFR
0165827950999992017033012004-07270-035896FM-15+050299999V0201001N006710274319N009999199+02701+02201999999ADDGA1041+006101999GA2071+027431999GE19MSL   +99999+99999GF199999041999006101999999MA1101501999999REMMET058METAR SBKG 301200Z 10013KT 9999 SCT020 BKN090 27/22 Q1015=
0165827950999992017033013004-07270-035896FM-15+050299999V0200601N005710061019N009999199+02501+02201999999ADDGA1071+006101999GA2071+027431999GE19MSL   +99999+99999GF199999071999006101999999MA1101501999999REMMET058METAR SBKG 301300Z 06011KT 9999 BKN020 BKN090 25/22 Q1015=
0142827950999992017033014004-07270-035896FM-15+050299999V0200601N003110091419N009999199+02601+02201999999ADDGA1071+009141999GE19MSL   +99999+99999GF199999071999009141999999MA1101501999999REMMET051METAR SBKG 301400Z 06006KT 9999 BKN030 26/22 Q1015=
0142827950999992017033016004-07270-035896FM-15+050299999V0200701N007219999999N009999199+03001+02101999999ADDGA1041+012191999GE19MSL   +99999+99999GF199999041999012191999999MA1101201999999REMMET051METAR SBKG 301600Z 07014KT 9999 SCT040 30/21 Q1012=
0178827950999992017033017004-07270-035896FM-15+050299999V0200301N00461010061CN004500199+02202+02201999999ADDGA1041+005791999GA2041+010061091GE19MSL   +99999+99999GF199999041999005791999999MA1101301999999MW1951REMMET065METAR SBKG 301700Z 03009KT 4500 TSRA SCT019 SCT033CB 22/22 Q1013=
0174827950999992017033018004-07220-035880FM-12+054799999V0200901N0026199999999010000199+02571+02291101031ADDAA106014031AY191061AY261061GA1041+006001081GA2999+999999031GA3999+999999021GE19MSL   +99999+99999GF106991041999006001999999MA1999999094901MD1999999+0111MW1021REMSYN004BUFR
0170827950999992017033018004-07270-035896FM-15+050299999V0200801N00361024381CN009999199+02601+02301999999ADDGA1041+007621999GA2041+024381999GE19MSL   +99999+99999GF199999041999007621999999MA1101101999999REMMET063METAR SBKG 301800Z 08007KT 9999 SCT025 SCT080 26/23 Q1011 RETS=
0165827950999992017033020004-07270-035896FM-15+050299999V0201001N006710057919N009999199+02601+02301999999ADDGA1041+004571999GA2071+005791999GE19MSL   +99999+99999GF199999041999004571999999MA1101201999999REMMET058METAR SBKG 302000Z 10013KT 9999 SCT015 BKN019 26/23 Q1012=
0174827950999992017033100004-07220-035880FM-12+054799999V0200901N0031100600199001000199+02351+02181101281ADDAA106008031AY161061AY221061GA1081+006001071GA2999+999999101GA3999+999999101GE19MSL   +99999+99999GF108991081999006001999999MA1999999095161MD1999999+0051MW1021REMSYN004BUFR
0142827950999992017033104004-07270-035896FM-15+050299999V0200901N003610021319N009999199+02401+02301999999ADDGA1071+002131999GE19MSL   +99999+99999GF199999071999002131999999MA1101401999999REMMET051METAR SBKG 310400Z 09007KT 9999 BKN007 24/23 Q1014=
0142827950999992017033105004-07270-035896FM-15+050299999V0200901N003610021319N009999199+02401+02301999999ADDGA1071+002131999GE19MSL   +99999+99999GF199999071999002131999999MA1101401999999REMMET051METAR SBKG 310500Z 09007KT 9999 BKN007 24/23 Q1014=
0142827950999992017033106004-07270-035896FM-15+050299999V0201001N003110021319N009999199+02401+02301999999ADDGA1071+002131999GE19MSL   +99999+99999GF199999071999002131999999MA1101401999999REMMET051METAR SBKG 310600Z 10006KT 9999 BKN007 24/23 Q1014=
0142827950999992017033107004-07270-035896FM-15+050299999V0201201N003110021319N009999199+02401+02301999999ADDGA1071+002131999GE19MSL   +99999+99999GF199999071999002131999999MA1101401999999REMMET051METAR SBKG 310700Z 12006KT 9999 BKN007 24/23 Q1014=
0165827950999992017033109004-07270-035896FM-15+050299999V0201101N002610045719N009999199+02301+02301999999ADDGA1041+003051999GA2071+004571999GE19MSL   +99999+99999GF199999041999003051999999MA1101401999999REMMET058METAR SBKG 310900Z 11005KT 9999 SCT010 BKN015 23/23 Q1014=
0165827950999992017033110004-07270-035896FM-15+050299999V0201201N002610064019N009999199+02401+02301999999ADDGA1041+003961999GA2071+006401999GE19MSL   +99999+99999GF199999041999003961999999MA1101501999999REMMET058METAR SBKG 311000Z 12005KT 9999 SCT013 BKN021 24/23 Q1015=
0165827950999992017033111004-07270-035896FM-15+050299999V0201101N005110073219N009999199+02601+02301999999ADDGA1041+004571999GA2071+007321999GE19MSL   +99999+99999GF199999041999004571999999MA1101501999999REMMET058METAR SBKG 311100Z 11010KT 9999 SCT015 BKN024 26/23 Q1015=
0171827950999992017033112004-07220-035880FM-12+054799999V0201401N0036100600199010000199+02571+02311101331ADDAA124024031AY161061AY221061GA1061+006001081GA2999+999999001GE19MSL   +99999+99999GF107991061999006001999999KA1120N+02211MA1999999095211MD1999999+0031MW1021REMSYN004BUFR
0142827950999992017033112004-07270-035896FM-15+050299999V0201001N005710064019N009999199+02701+02201999999ADDGA1071+006401999GE19MSL   +99999+99999GF199999071999006401999999MA1101601999999REMMET051METAR SBKG 311200Z 10011KT 9999 BKN021 27/22 Q1016=
0142827950999992017033113004-07270-035896FM-15+050299999V0200901N005710091419N009999199+02801+02201999999ADDGA1071+009141999GE19MSL   +99999+99999GF199999071999009141999999MA1101601999999REMMET051METAR SBKG 311300Z 09011KT 9999 BKN030 28/22 Q1016=
0142827950999992017033114004-07270-035896FM-15+050299999V0201201N006210100619N009999199+02901+02201999999ADDGA1071+010061999GE19MSL   +99999+99999GF199999071999010061999999MA1101501999999REMMET051METAR SBKG 311400Z 12012KT 9999 BKN033 29/22 Q1015=
0142827950999992017033115004-07270-035896FM-15+050299999V0201101N008210121919N009999199+02201+02101999999ADDGA1071+012191999GE19MSL   +99999+99999GF199999071999012191999999MA1101401999999REMMET051METAR SBKG 311500Z 11016KT 9999 BKN040 22/21 Q1014=
0168827950999992017033116004-07270-035896FM-15+050299999V0200901N00881013721CN009999199+03102+02101999999ADDGA1041+012191999GA2041+013721081GE19MSL   +99999+99999GF199999041999012191999999MA1101301999999REMMET061METAR SBKG 311600Z 09017KT 9999 SCT040 SCT045TCU 31/21 Q1013=
0168827950999992017033117004-07270-035896FM-15+050299999V0200701N008219999999N009999199+03101+02101999999ADDGA1041+014021999GA2021+015241081GE19MSL   +99999+99999GF199999041999014021999999MA1101201999999REMMET061METAR SBKG 311700Z 07016KT 9999 SCT046 FEW050TCU 31/21 Q1012=
0136827950999992017033118004-07220-035880FM-12+054799999V0201401N0041100600199010000199+03051+01791101001ADDAA101999999AZ101061AZ201061GA1061+006001081GE19MSL   +99999+99999GF106991061999006001999999MA1999999094931MD1999999+0091REMSYN004BUFR
0150827950999992017033118004-07270-035896FM-15+050299999V0200501V006710094519N009999199+03001+02201999999ADDGA1071+009451999GE19MSL   +99999+99999GF199999071999009451999999MA1101201999999REMMET059METAR SBKG 311800Z 05013KT 020V090 9999 BKN031 30/22 Q1012=
0153827950999992017033119004-07270-035896FM-15+050299999V0200701N007219999999N009999199+02901+02201999999ADDGA1041+012501999GE19MSL   +99999+99999GF199999041999012501999999MA1101301999999OC101241REMMET054METAR SBKG 311900Z 07014G24KT 9999 SCT041 29/22 Q1013=
0142827950999992017033120004-07270-035896FM-15+050299999V0200801N007219999999N009999199+02801+02101999999ADDGA1041+010971999GE19MSL   +99999+99999GF199999041999010971999999MA1101301999999REMMET051METAR SBKG 312000Z 08014KT 9999 SCT036 28/21 Q1013=
0136827950999992017040100004-07220-035880FM-12+054799999V0201401N0041100600199001000199+02361+02171101411ADDAA101999999AZ101061AZ201061GA1061+006001081GE19MSL   +99999+99999GF106991061999006001999999MA1999999095291MD1999999+0131REMSYN004BUFR
0174827950999992017040104004-07270-035896FM-15+050299999V0201001N003110030519N005000199+02301+02301999999ADDGA1041+000911999GA2071+003051999GE19MSL   +99999+99999GF199999041999000911999999MA1101501999999MW1101REMMET061METAR SBKG 010400Z 10006KT 5000 BR SCT003 BKN010 23/23 Q1015=
0072827950999992017040107004-07270-035896FM-15+050299999V0201201N002619999999Y999999999+02201+02201999999ADDMA1101401999999REMMET045METAR SBKG 010700Z 12005KT CAVOK 22/22 Q1014=
0072827950999992017040108004-07270-035896FM-15+050299999V0200901N002119999999Y999999999+02201+02101999999ADDMA1101401999999REMMET045METAR SBKG 010800Z 09004KT CAVOK 22/21 Q1014=
0142827950999992017040109004-07270-035896FM-15+050299999V0200901N002119999999N009999199+02201+02101999999ADDGA1041+004881999GE19MSL   +99999+99999GF199999041999004881999999MA1101501999999REMMET051METAR SBKG 010900Z 09004KT 9999 SCT016 22/21 Q1015=
0142827950999992017040110004-07270-035896FM-15+050299999V0201101N004119999999N009999199+02401+02201999999ADDGA1041+004571999GE19MSL   +99999+99999GF199999041999004571999999MA1101501999999REMMET051METAR SBKG 011000Z 11008KT 9999 SCT015 24/22 Q1015=
0149827950999992017040112004-07220-035880FM-12+054799999V0201401N0036100600199010000199+02601+02031101371ADDAA101999999AZ101061AZ201061GA1061+006001081GE19MSL   +99999+99999GF106991061999006001999999KA1120N+02101MA1999999095251MD1999999+0041REMSYN004BUFR
0142827950999992017040112004-07270-035896FM-15+050299999V0201301N005719999999N009999199+02701+02001999999ADDGA1041+007621999GE19MSL   +99999+99999GF199999041999007621999999MA1101601999999REMMET051METAR SBKG 011200Z 13011KT 9999 SCT025 27/20 Q1016=
0142827950999992017040113004-07270-035896FM-15+050299999V0201101N006219999999N009999199+02801+01901999999ADDGA1041+012191999GE19MSL   +99999+99999GF199999041999012191999999MA1101601999999REMMET051METAR SBKG 011300Z 11012KT 9999 SCT040 28/19 Q1016=
0142827950999992017040114004-07270-035896FM-15+050299999V0201001N006719999999N009999199+03001+01901999999ADDGA1041+012191999GE19MSL   +99999+99999GF199999041999012191999999MA1101501999999REMMET051METAR SBKG 011400Z 10013KT 9999 SCT040 30/19 Q1015=
0142827950999992017040115004-07270-035896FM-15+050299999V0201301N007710149419N009999199+03001+01801999999ADDGA1071+014941999GE19MSL   +99999+99999GF199999071999014941999999MA1101501999999REMMET051METAR SBKG 011500Z 13015KT 9999 BKN049 30/18 Q1015=
0080827950999992017040117004-07270-035896FM-15+050299999V0200701V006719999999Y999999999+03001+01901999999ADDMA1101301999999REMMET053METAR SBKG 011700Z 07013KT 050V110 CAVOK 30/19 Q1013=
0152827950999992017040118004-07220-035880FM-12+054799999V0200901N0036199999999010000199+03021+01891101061ADDAA101999999AZ101061AZ201061GA1031+006001061GA2999+999999021GE19MSL   +99999+99999GF107991031999006001999999MA1999999094981MD1999999+0051REMSYN004BUFR
0168827950999992017040118004-07270-035896FM-15+050299999V0200701N006719999999N009999199+03101+01801999999ADDGA1021+012191999GA2021+015241081GE19MSL   +99999+99999GF199999021999012191999999MA1101301999999REMMET061METAR SBKG 011800Z 07013KT 9999 FEW040 FEW050TCU 31/18 Q1013=
0072827950999992017040119004-07270-035896FM-15+050299999V0200801N007719999999Y999999999+03001+01901999999ADDMA1101301999999REMMET045METAR SBKG 011900Z 08015KT CAVOK 30/19 Q1013=
0142827950999992017040121004-07270-035896FM-15+050299999V0200801N007219999999N009999199+02701+02001999999ADDGA1021+010671999GE19MSL   +99999+99999GF199999021999010671999999MA1101401999999REMMET051METAR SBKG 012100Z 08014KT 9999 FEW035 27/20 Q1014=
0142827950999992017040122004-07270-035896FM-15+050299999V0200901N007219999999N009999199+02501+02201999999ADDGA1021+006101999GE19MSL   +99999+99999GF199999021999006101999999MA1101401999999REMMET051METAR SBKG 012200Z 09014KT 9999 FEW020 25/22 Q1014=
0072827950999992017040123004-07270-035896FM-15+050299999V0200701N005119999999Y999999999+02401+02101999999ADDMA1101501999999REMMET045METAR SBKG 012300Z 07010KT CAVOK 24/21 Q1015=
0152827950999992017040200004-07220-035880FM-12+054799999V0200901N0036100600199001000199+02351+02111101431ADDAA101999999AZ101061AZ201061GA1051+006001081GA2999+999999021GE19MSL   +99999+99999GF107991051999006001999999MA1999999095311MD1999999+0021REMSYN004BUFR
0142827950999992017040201004-07270-035896FM-15+050299999V0200801N004619999999N009999199+02401+02201999999ADDGA1041+003661999GE19MSL   +99999+99999GF199999041999003661999999MA1101601999999REMMET051METAR SBKG 020100Z 08009KT 9999 SCT012 24/22 Q1016=
0165827950999992017040203004-07270-035896FM-15+050299999V0200801N00411024381CN009999199+02301+02201999999ADDGA1041+003661999GA2041+024381999GE19MSL   +99999+99999GF199999041999003661999999MA1101601999999REMMET058METAR SBKG 020300Z 08008KT 9999 SCT012 SCT080 23/22 Q1016=
0165827950999992017040204004-07270-035896FM-15+050299999V0200901N001510030519N009999199+02301+02201999999ADDGA1041+002441999GA2071+003051999GE19MSL   +99999+99999GF199999041999002441999999MA1101501999999REMMET058METAR SBKG 020400Z 09003KT 9999 SCT008 BKN010 23/22 Q1015=
0165827950999992017040205004-07270-035896FM-15+050299999V0200901N002610030519N009999199+02301+02201999999ADDGA1041+002441999GA2071+003051999GE19MSL   +99999+99999GF199999041999002441999999MA1101401999999REMMET058METAR SBKG 020500Z 09005KT 9999 SCT008 BKN010 23/22 Q1014=
0165827950999992017040207004-07270-035896FM-15+050299999V0200701N002110030519N009999199+02301+02201999999ADDGA1041+001831999GA2071+003051999GE19MSL   +99999+99999GF199999041999001831999999MA1101401999999REMMET058METAR SBKG 020700Z 07004KT 9999 SCT006 BKN010 23/22 Q1014=
0142827950999992017040208004-07270-035896FM-15+050299999V0209999C000019999999N009999199+02301+02201999999ADDGA1041+004571999GE19MSL   +99999+99999GF199999041999004571999999MA1101501999999REMMET051METAR SBKG 020800Z 00000KT 9999 SCT015 23/22 Q1015=
0165827950999992017040209004-07270-035896FM-15+050299999V0201401N000510061019N009999199+02301+02201999999ADDGA1041+004571999GA2071+006101999GE19MSL   +99999+99999GF199999041999004571999999MA1101501999999REMMET058METAR SBKG 020900Z 14001KT 9999 SCT015 BKN020 23/22 Q1015=
0198827950999992017040211004-07270-035896FM-15+050299999V0201001N003610061019N009000199+02401+02201999999ADDGA1041+003351999GA2071+006101999GA3071+030481999GE19MSL   +99999+99999GF199999041999003351999999MA1101601999999MW1611REMMET069METAR SBKG 021100Z 10007KT 9000 -RA SCT011 BKN020 BKN100 24/22 Q1016=
0187827950999992017040212004-07220-035880FM-12+054799999V0201401N0041100600199010000199+02451+02281101491ADDAA124000131AY161061AY221061GA1081+006001071GA2999+999999101GA3999+999999101GE19MSL   +99999+99999GF108991081999006001999999KA1120N+02121MA1999999095351MD1999999+0101MW1021REMSYN004BUFR
0188827950999992017040212004-07270-035896FM-15+050299999V0201001N00511009141CN009999199+02401+02201999999ADDGA1041+001521999GA2041+009141999GA3071+030481999GE19MSL   +99999+99999GF199999041999001521999999MA1101701999999REMMET065METAR SBKG 021200Z 10010KT 9999 SCT005 SCT030 BKN100 24/22 Q1017=
0165827950999992017040213004-07270-035896FM-15+050299999V0201001N005110061019N009999199+02501+02101999999ADDGA1041+003961999GA2071+006101999GE19MSL   +99999+99999GF199999041999003961999999MA1101601999999REMMET058METAR SBKG 021300Z 10010KT 9999 SCT013 BKN020 25/21 Q1016=
0165827950999992017040214004-07270-035896FM-15+050299999V0201101N004110304819N009999199+02601+02101999999ADDGA1021+006101999GA2071+030481999GE19MSL   +99999+99999GF199999021999006101999999MA1101601999999REMMET058METAR SBKG 021400Z 11008KT 9999 FEW020 BKN100 26/21 Q1016=
0173827950999992017040215004-07270-035896FM-15+050299999V0201001V006210304819N009999199+02701+02001999999ADDGA1041+006101999GA2071+030481999GE19MSL   +99999+99999GF199999041999006101999999MA1101501999999REMMET066METAR SBKG 021500Z 10012KT 070V130 9999 SCT020 BKN100 27/20 Q1015=
0165827950999992017040217004-07270-035896FM-15+050299999V0201001N005110243819N009999199+02801+02001999999ADDGA1041+009141999GA2071+024381999GE19MSL   +99999+99999GF199999041999009141999999MA1101301999999REMMET058METAR SBKG 021700Z 10010KT 9999 SCT030 BKN080 28/20 Q1013=
0168827950999992017040218004-07220-035880FM-12+054799999V0201401N0041199999999010000199+02661+02021101091ADDAA101999999AZ101061AZ201061GA1041+006001081GA2999+999999031GA3999+999999101GE19MSL   +99999+99999GF108991041999006001999999MA1999999094961MD1999999-0021REMSYN004BUFR
0165827950999992017040218004-07270-035896FM-15+050299999V0200901N006710243819N009999199+02801+02001999999ADDGA1041+009141999GA2071+024381999GE19MSL   +99999+99999GF199999041999009141999999MA1101201999999REMMET058METAR SBKG 021800Z 09013KT 9999 SCT030 BKN080 28/20 Q1012=
0165827950999992017040219004-07270-035896FM-15+050299999V0201101N007210243819N009999199+02701+02001999999ADDGA1041+009141999GA2071+024381999GE19MSL   +99999+99999GF199999041999009141999999MA1101201999999REMMET058METAR SBKG 021900Z 11014KT 9999 SCT030 BKN080 27/20 Q1012=
0165827950999992017040220004-07270-035896FM-15+050299999V0201101N007210243819N009999199+02701+02001999999ADDGA1041+007621999GA2071+024381999GE19MSL   +99999+99999GF199999041999007621999999MA1101201999999REMMET058METAR SBKG 022000Z 11014KT 9999 SCT025 BKN080 27/20 Q1012=
0142827950999992017040321004-07270-035896FM-15+050299999V0201001N007219999999N009999199+02601+02001999999ADDGA1041+006101999GE19MSL   +99999+99999GF199999041999006101999999MA1101301999999REMMET051METAR SBKG 032100Z 10014KT 9999 SCT020 26/20 Q1013=
0072827950999992017040323004-07270-035896FM-15+050299999V0201001N004119999999Y999999999+02401+02001999999ADDMA1101501999999REMMET045METAR SBKG 032300Z 10008KT CAVOK 24/20 Q1015=
0136827950999992017040400004-07220-035880FM-12+054799999V0201401N0036100600199001000199+02351+02081101351ADDAA101999999AZ101061AZ201061GA1061+006001081GE19MSL   +99999+99999GF106991061999006001999999MA1999999095231MD1999999-0021REMSYN004BUFR
0072827950999992017040400004-07270-035896FM-15+050299999V0201001N003619999999Y999999999+02401+02101999999ADDMA1101501999999REMMET045METAR SBKG 040000Z 10007KT CAVOK 24/21 Q1015=
0072827950999992017040401004-07270-035896FM-15+050299999V0200901N003619999999Y999999999+02301+02101999999ADDMA1101501999999REMMET045METAR SBKG 040100Z 09007KT CAVOK 23/21 Q1015=
0142827950999992017040402004-07270-035896FM-15+050299999V0200801N003110057919N009999199+02301+02101999999ADDGA1071+005791999GE19MSL   +99999+99999GF199999071999005791999999MA1101501999999REMMET051METAR SBKG 040200Z 08006KT 9999 BKN019 23/21 Q1015=
0175827950999992017040403004-07270-035896FM-15+050299999V0201001N004110085319N004000199+02301+02201999999ADDGA1041+003351999GA2071+008531999GE19MSL   +99999+99999GF199999041999003351999999MA1101501999999MW1611REMMET062METAR SBKG 040300Z 10008KT 4000 -RA SCT011 BKN028 23/22 Q1015=
0142827950999992017040404004-07270-035896FM-15+050299999V0200901N004119999999N009999199+02201+02101999999ADDGA1041+001831999GE19MSL   +99999+99999GF199999041999001831999999MA1101401999999REMMET051METAR SBKG 040400Z 09008KT 9999 SCT006 22/21 Q1014=
0142827950999992017040406004-07270-035896FM-15+050299999V0201001N002619999999N009999199+02201+02101999999ADDGA1041+002131999GE19MSL   +99999+99999GF199999041999002131999999MA1101301999999REMMET051METAR SBKG 040600Z 10005KT 9999 SCT007 22/21 Q1013=
0142827950999992017040407004-07270-035896FM-15+050299999V0201301N001019999999N009999199+02101+02101999999ADDGA1021+001831999GE19MSL   +99999+99999GF199999021999001831999999MA1101301999999REMMET051METAR SBKG 040700Z 13002KT 9999 FEW006 21/21 Q1013=
0142827950999992017040408004-07270-035896FM-15+050299999V0201201N001519999999N009999199+02201+02101999999ADDGA1021+000911999GE19MSL   +99999+99999GF199999021999000911999999MA1101401999999REMMET051METAR SBKG 040800Z 12003KT 9999 FEW003 22/21 Q1014=
0142827950999992017040409004-07270-035896FM-15+050299999V0201101N002619999999N009999199+02201+02101999999ADDGA1041+004271999GE19MSL   +99999+99999GF199999041999004271999999MA1101401999999REMMET051METAR SBKG 040900Z 11005KT 9999 SCT014 22/21 Q1014=
0142827950999992017040411004-07270-035896FM-15+050299999V0201001N004110061019N009999199+02401+02101999999ADDGA1071+006101999GE19MSL   +99999+99999GF199999071999006101999999MA1101501999999REMMET051METAR SBKG 041100Z 10008KT 9999 BKN020 24/21 Q1015=
0187827950999992017040412004-07220-035880FM-12+054799999V0201401N0031100600199010000199+02421+02111101471ADDAA124000531AY161061AY221061GA1081+006001071GA2999+999999101GA3999+999999101GE19MSL   +99999+99999GF108991081999006001999999KA1120N+02081MA1999999095311MD1999999+0061MW1021REMSYN004BUFR
0142827950999992017040413004-07270-035896FM-15+050299999V0201101N006219999999N009999199+02701+02001999999ADDGA1041+006101999GE19MSL   +99999+99999GF199999041999006101999999MA1101601999999REMMET051METAR SBKG 041300Z 11012KT 9999 SCT020 27/20 Q1016=
0142827950999992017040414004-07270-035896FM-15+050299999V0201201N005719999999N009999199+02801+02101999999ADDGA1041+009141999GE19MSL   +99999+99999GF199999041999009141999999MA1101501999999REMMET051METAR SBKG 041400Z 12011KT 9999 SCT030 28/21 Q1015=
0142827950999992017040415004-07270-035896FM-15+050299999V0201101N005719999999N009999199+02901+01901999999ADDGA1041+009141999GE19MSL   +99999+99999GF199999041999009141999999MA1101401999999REMMET051METAR SBKG 041500Z 11011KT 9999 SCT030 29/19 Q1014=
0142827950999992017040416004-07270-035896FM-15+050299999V0200901N006210140219N009999199+03001+01601999999ADDGA1071+014021999GE19MSL   +99999+99999GF199999071999014021999999MA1101301999999REMMET051METAR SBKG 041600Z 09012KT 9999 BKN046 30/16 Q1013=
0072827950999992017040417004-07270-035896FM-15+050299999V0201101N005719999999Y999999999+03001+01501999999ADDMA1101201999999REMMET045METAR SBKG 041700Z 11011KT CAVOK 30/15 Q1012=
0152827950999992017040418004-07220-035880FM-12+054799999V0200901N0041199999999010000199+03001+02001100971ADDAA101999999AZ101061AZ201061GA1041+006001081GA2999+999999001GE19MSL   +99999+99999GF105991041999006001999999MA1999999094901MD1999999+0011REMSYN004BUFR
0072827950999992017040418004-07270-035896FM-15+050299999V0201101N005119999999Y999999999+03101+01701999999ADDMA1101201999999REMMET045METAR SBKG 041800Z 11010KT CAVOK 31/17 Q1012=
0072827950999992017040420004-07270-035896FM-15+050299999V0200801N006719999999Y999999999+02901+01801999999ADDMA1101301999999REMMET045METAR SBKG 042000Z 08013KT CAVOK 29/18 Q1013=
0072827950999992017040421004-07270-035896FM-15+050299999V0200901N006219999999Y999999999+02701+01901999999ADDMA1101301999999REMMET045METAR SBKG 042100Z 09012KT CAVOK 27/19 Q1013=
