0165832880999992017010112004-13251-043405FM-12+044099999V0200901N0005199999999020000199+02951+01971101211ADDAA101999999AZ101061AZ201061GA1021+012501031GA2999+999999001GE19MSL   +99999+99999GF104991021999012501999999KA1120N+02241MA1999999096401MD1999999-0031REMSYN004BUFR
0152832880999992017010118004-13251-043405FM-12+044099999V0203601N0000199999999020000199+03601+01881100751ADDAA101999999AZ101061AZ201061GA1031+006001061GA2999+999999051GE19MSL   +99999+99999GF106991031999006001999999MA1999999096001MD1999999-0061REMSYN004BUFR
0072832880999992017010211154-13262-043408FM-16+044399999V0201101N002619999999Y999999999+03101+01801999999ADDMA1101401999999REMMET045SPECI SBLP 021115Z 11005KT CAVOK 31/18 Q1014=
0149832880999992017010212004-13251-043405FM-12+044099999V0203601N0005199999999020000199+03001+02101100981ADDAA101999999AZ101061AZ201061GA1999+080001001GE19MSL   +99999+99999GF103991999999080001999999KA1120N+02481MA1999999096201MD1999999-0201REMSYN004BUFR
0072832880999992017010213004-13262-043408FM-15+044399999V0202701N001519999999Y999999999+03301+01801999999ADDMA1101401999999REMMET045METAR SBLP 021300Z 27003KT CAVOK 33/18 Q1014=
0142832880999992017010214004-13262-043408FM-15+044399999V0203401N001519999999N009999199+03501+01801999999ADDGA1021+009141999GE19MSL   +99999+99999GF199999021999009141999999MA1101301999999REMMET051METAR SBLP 021400Z 34003KT 9999 FEW030 35/18 Q1013=
0142832880999992017010215004-13262-043408FM-15+044399999V0202701N003619999999N009999199+03601+01501999999ADDGA1041+009141999GE19MSL   +99999+99999GF199999041999009141999999MA1101301999999REMMET051METAR SBLP 021500Z 27007KT 9999 SCT030 36/15 Q1013=
0165832880999992017010217004-13262-043408FM-15+044399999V0203001N00151030481CN009999199+03701+01701999999ADDGA1041+009141999GA2041+030481999GE19MSL   +99999+99999GF199999041999009141999999MA1101001999999REMMET058METAR SBLP 021700Z 30003KT 9999 SCT030 SCT100 37/17 Q1010=
0152832880999992017010218004-13251-043405FM-12+044099999V0202701N0010199999999020000199+03621+02241100501ADDAA101999999AZ101061AZ201061GA1041+006001061GA2999+999999001GE19MSL   +99999+99999GF106991041999006001999999MA1999999095801MD1999999-0201REMSYN004BUFR
0165832880999992017010218004-13262-043408FM-15+044399999V0202801N00261030481CN009999199+03601+01501999999ADDGA1041+009141999GA2041+030481999GE19MSL   +99999+99999GF199999041999009141999999MA1101001999999REMMET058METAR SBLP 021800Z 28005KT 9999 SCT030 SCT100 36/15 Q1010=
0142832880999992017010311154-13262-043408FM-16+044399999V0200101N002119999999N009999199+03201+01701999999ADDGA1021+009141999GE19MSL   +99999+99999GF199999021999009141999999MA1101301999999REMMET051SPECI SBLP 031115Z 01004KT 9999 FEW030 32/17 Q1013=
0149832880999992017010312004-13251-043405FM-12+044099999V0200501N0005199999999020000199+03101+02101100911ADDAA101999999AZ101061AZ201061GA1031+050001001GE19MSL   +99999+99999GF103991031999050001999999KA1120N+02521MA1999999096151MD1999999-0051REMSYN004BUFR
0142832880999992017010312004-13262-043408FM-15+044399999V0200101N002619999999N009999199+03301+01701999999ADDGA1021+009141999GE19MSL   +99999+99999GF199999021999009141999999MA1101301999999REMMET051METAR SBLP 031200Z 01005KT 9999 FEW030 33/17 Q1013=
0142832880999992017010314004-13262-043408FM-15+044399999V0203401N002619999999N009999199+03601+01601999999ADDGA1021+009141999GE19MSL   +99999+99999GF199999021999009141999999MA1101301999999REMMET051METAR SBLP 031400Z 34005KT 9999 FEW030 36/16 Q1013=
0142832880999992017010315004-13262-043408FM-15+044399999V0203301N003119999999N009999199+03801+01501999999ADDGA1021+009141999GE19MSL   +99999+99999GF199999021999009141999999MA1101201999999REMMET051METAR SBLP 031500Z 33006KT 9999 FEW030 38/15 Q1012=
0142832880999992017010317004-13262-043408FM-15+044399999V0200101N003119999999N009999199+03901+01601999999ADDGA1041+009141999GE19MSL   +99999+99999GF199999041999009141999999MA1101001999999REMMET051METAR SBLP 031700Z 01006KT 9999 SCT030 39/16 Q1010=
0168832880999992017010318004-13251-043405FM-12+044099999V0203601N0005199999999020000199+03801+02281100381ADDAA101999999AZ101061AZ201061GA1031+006001081GA2999+999999031GA3999+999999021GE19MSL   +99999+99999GF106991031999006001999999MA1999999095711MD1999999-0091REMSYN004BUFR
0142832880999992017010318004-13262-043408FM-15+044399999V0202101N003119999999N009999199+03901+01402999999ADDGA1041+009141999GE19MSL   +99999+99999GF199999041999009141999999MA1100801999999REMMET051METAR SBLP 031800Z 21006KT 9999 SCT030 39/14 Q1008=
0142832880999992017010319004-13262-043408FM-15+044399999V0201001N001519999999N009999199+03801+01901999999ADDGA1041+009141999GE19MSL   +99999+99999GF199999041999009141999999MA1100801999999REMMET051METAR SBLP 031900Z 10003KT 9999 SCT030 38/19 Q1008=
0142832880999992017010319454-13262-043408FM-16+044399999V0201201N001519999999N009999199+03801+01601999999ADDGA1041+009141999GE19MSL   +99999+99999GF199999041999009141999999MA1100801999999REMMET051SPECI SBLP 031945Z 12003KT 9999 SCT030 38/16 Q1008=
0149832880999992017010412004-13251-043405FM-12+044099999V0200501N0010199999999020000199+03011+02031101091ADDAA101999999AZ101061AZ201061GA1999+080001001GE19MSL   +99999+99999GF102991999999080001999999KA1120N+02401MA1999999096301MD1999999+0151REMSYN004BUFR
0072832880999992017010412004-13262-043408FM-15+044399999V0201001N003119999999Y999999999+03201+01901999999ADDMA1101501999999REMMET045METAR SBLP 041200Z 10006KT CAVOK 32/19 Q1015=
0142832880999992017010413004-13262-043408FM-15+044399999V0200501N004619999999N009999199+03401+02001999999ADDGA1021+009141999GE19MSL   +99999+99999GF199999021999009141999999MA1101501999999REMMET051METAR SBLP 041300Z 05009KT 9999 FEW030 34/20 Q1015=
0142832880999992017010415004-13262-043408FM-15+044399999V0200301N002119999999N009999199+03601+01901999999ADDGA1021+009141999GE19MSL   +99999+99999GF199999021999009141999999MA1101401999999REMMET051METAR SBLP 041500Z 03004KT 9999 FEW030 36/19 Q1014=
0142832880999992017010417004-13262-043408FM-15+044399999V0200101N002619999999N009999199+03801+01801999999ADDGA1041+009141999GE19MSL   +99999+99999GF199999041999009141999999MA1101201999999REMMET051METAR SBLP 041700Z 01005KT 9999 SCT030 38/18 Q1012=
0152832880999992017010418004-13251-043405FM-12+044099999V0202701N0005199999999020000199+03601+02181100661ADDAA101999999AZ101061AZ201061GA1041+006001081GA2999+999999001GE19MSL   +99999+99999GF106991041999006001999999MA1999999095951MD1999999+0241REMSYN004BUFR
0142832880999992017010418004-13262-043408FM-15+044399999V0209999C000019999999N009999199+03801+01501999999ADDGA1041+009141999GE19MSL   +99999+99999GF199999041999009141999999MA1101101999999REMMET051METAR SBLP 041800Z 00000KT 9999 SCT030 38/15 Q1011=
0168832880999992017010419004-13262-043408FM-15+044399999V0202701N002619999999N009999199+03701+01801999999ADDGA1041+009141999GA2021+012191081GE19MSL   +99999+99999GF199999041999009141999999MA1101001999999REMMET061METAR SBLP 041900Z 27005KT 9999 SCT030 FEW040TCU 37/18 Q1010=
0168832880999992017010419454-13262-043408FM-16+044399999V0203001N002619999999N009999199+03501+01901999999ADDGA1041+009141999GA2021+012191081GE19MSL   +99999+99999GF199999041999009141999999MA1101001999999REMMET061SPECI SBLP 041945Z 30005KT 9999 SCT030 FEW040TCU 35/19 Q1010=
0152832880999992017010500004-13251-043405FM-12+044099999V0201801N0010199999999002000199+02911+01911100811ADDAA101999999AZ101061AZ201061GA1011+006001081GA2999+999999031GE19MSL   +99999+99999GF102991011999006001999999MA1999999096031MD1999999+0111REMSYN004BUFR
0111832880999992017010512004-13251-043405FM-12+044099999V0200501N0015122000199020000199+02971+02111101231ADDAA101999999AZ101061AZ201061GF100991999999999999999999KA1120N+02261MA1999999096431MD1999999+0121REMSYN004BUFR
0072832880999992017010512004-13262-043408FM-15+044399999V0202401N001019999999Y999999999+03101+01701999999ADDMA1101601999999REMMET045METAR SBLP 051200Z 24002KT CAVOK 31/17 Q1016=
0142832880999992017010516154-13262-043408FM-16+044399999V0201801N004619999999N009999199+03701+02201999999ADDGA1021+009141999GE19MSL   +99999+99999GF199999021999009141999999MA1101301999999REMMET051SPECI SBLP 051615Z 18009KT 9999 FEW030 37/22 Q1013=
0142832880999992017010517004-13262-043408FM-15+044399999V0201201N002619999999N009999199+03901+02001999999ADDGA1041+009141999GE19MSL   +99999+99999GF199999041999009141999999MA1101301999999REMMET051METAR SBLP 051700Z 12005KT 9999 SCT030 39/20 Q1013=
0136832880999992017010518004-13251-043405FM-12+044099999V0201401N0005199999999020000199+03621+02011100761ADDAA101999999AZ101061AZ201061GA1041+006001081GE19MSL   +99999+99999GF104991041999006001999999MA1999999096051MD1999999+0101REMSYN004BUFR
0142832880999992017010518004-13262-043408FM-15+044399999V0201201N003619999999N009999199+03801+01501999999ADDGA1041+009141999GE19MSL   +99999+99999GF199999041999009141999999MA1101201999999REMMET051METAR SBLP 051800Z 12007KT 9999 SCT030 38/15 Q1012=
0142832880999992017010519004-13262-043408FM-15+044399999V0201201N002619999999N009999199+03801+01401999999ADDGA1021+009141999GE19MSL   +99999+99999GF199999021999009141999999MA1101101999999REMMET051METAR SBLP 051900Z 12005KT 9999 FEW030 38/14 Q1011=
0142832880999992017010519454-13262-043408FM-16+044399999V0201201N005719999999N009999199+03801+01401999999ADDGA1021+009141999GE19MSL   +99999+99999GF199999021999009141999999MA1101101999999REMMET051SPECI SBLP 051945Z 12011KT 9999 FEW030 38/14 Q1011=
0136832880999992017010600004-13251-043405FM-12+044099999V0202301N0005199999999002000199+03001+01741100781ADDAA101999999AZ101061AZ201061GA1031+006001081GE19MSL   +99999+99999GF103991031999006001999999MA1999999096071MD1999999+0041REMSYN004BUFR
0072832880999992017010611154-13262-043408FM-16+044399999V0200301N002619999999Y999999999+03001+01701999999ADDMA1101601999999REMMET045SPECI SBLP 061115Z 03005KT CAVOK 30/17 Q1016=
0149832880999992017010612004-13251-043405FM-12+044099999V0200901N0015199999999020000199+03011+01851101111ADDAA101999999AZ101061AZ201061GA1999+080001021GE19MSL   +99999+99999GF104991999999080001999999KA1120N+02381MA1999999096321MD1999999-0101REMSYN004BUFR
0072832880999992017010612004-13262-043408FM-15+044399999V0200601N003119999999Y999999999+03101+01601999999ADDMA1101601999999REMMET045METAR SBLP 061200Z 06006KT CAVOK 31/16 Q1016=
0072832880999992017010613004-13262-043408FM-15+044399999V0200601N002619999999Y999999999+03301+01701999999ADDMA1101501999999REMMET045METAR SBLP 061300Z 06005KT CAVOK 33/17 Q1015=
0072832880999992017010614004-13262-043408FM-15+044399999V0202401N001019999999Y999999999+03401+01701999999ADDMA1101401999999REMMET045METAR SBLP 061400Z 24002KT CAVOK 34/17 Q1014=
0142832880999992017010615004-13262-043408FM-15+044399999V0201901N003619999999N009999199+03601+01501999999ADDGA1021+009141999GE19MSL   +99999+99999GF199999021999009141999999MA1101401999999REMMET051METAR SBLP 061500Z 19007KT 9999 FEW030 36/15 Q1014=
0142832880999992017010617004-13262-043408FM-15+044399999V0201201N006719999999N009999199+03901+01301999999ADDGA1021+009141999GE19MSL   +99999+99999GF199999021999009141999999MA1101101999999REMMET051METAR SBLP 061700Z 12013KT 9999 FEW030 39/13 Q1011=
0152832880999992017010618004-13251-043405FM-12+044099999V0201401N0015199999999020000199+03701+01901100611ADDAA101999999AZ101061AZ201061GA1021+006001081GA2999+999999021GE19MSL   +99999+99999GF104991021999006001999999MA1999999095911MD1999999-0141REMSYN004BUFR
0142832880999992017010619004-13262-043408FM-15+044399999V0201501N004619999999N009999199+03801+01401999999ADDGA1021+009141999GE19MSL   +99999+99999GF199999021999009141999999MA1101001999999REMMET051METAR SBLP 061900Z 15009KT 9999 FEW030 38/14 Q1010=
0142832880999992017010619454-13262-043408FM-16+044399999V0201501N005119999999N009999199+03801+01601999999ADDGA1021+009141999GE19MSL   +99999+99999GF199999021999009141999999MA1101001999999REMMET051SPECI SBLP 061945Z 15010KT 9999 FEW030 38/16 Q1010=
0152832880999992017010700004-13251-043405FM-12+044099999V0201801N0010199999999002000199+03001+01831100791ADDAA101999999AZ101061AZ201061GA1011+006001081GA2999+999999021GE19MSL   +99999+99999GF105991011999006001999999MA1999999096021MD1999999-0051REMSYN004BUFR
0111832880999992017010712004-13251-043405FM-12+044099999V0201401N0010122000199020000199+02921+01841101251ADDAA101999999AZ101061AZ201061GF100991999999999999999999KA1120N+02361MA1999999096451MD1999999+0131REMSYN004BUFR
0136832880999992017010718004-13251-043405FM-12+044099999V0203601N0005199999999020000199+03601+01811100721ADDAA101999999AZ101061AZ201061GA1041+050001021GE19MSL   +99999+99999GF104991041999050001999999MA1999999096051MD1999999+0101REMSYN004BUFR
0111832880999992017010812004-13251-043405FM-12+044099999V0200901N0005122000199020000199+02901+01801101111ADDAA101999999AZ101061AZ201061GF100991999999999999999999KA1120N+02261MA1999999096311MD1999999-0141REMSYN004BUFR
0098832880999992017010818004-13251-043405FM-12+044099999V0200901N0010122000199020000199+03621+01591100471ADDAA101999999AZ101061AZ201061GF100991999999999999999999MA1999999095771MD1999999-0241REMSYN004BUFR
0072832880999992017010911154-13262-043408FM-16+044399999V0200701N002119999999Y999999999+02901+01801999999ADDMA1101401999999REMMET045SPECI SBLP 091115Z 07004KT CAVOK 29/18 Q1014=
0111832880999992017010912004-13251-043405FM-12+044099999V0201401N0010122000199020000199+02971+02001101041ADDAA101999999AZ101061AZ201061GF100991999999999999999999KA1120N+02281MA1999999096221MD1999999-0091REMSYN004BUFR
0072832880999992017010912004-13262-043408FM-15+044399999V0200601N003119999999Y999999999+03101+01701999999ADDMA1101501999999REMMET045METAR SBLP 091200Z 06006KT CAVOK 31/17 Q1015=
0072832880999992017010913004-13262-043408FM-15+044399999V0203301N001019999999Y999999999+03301+01701999999ADDMA1101501999999REMMET045METAR SBLP 091300Z 33002KT CAVOK 33/17 Q1015=
0142832880999992017010914004-13262-043408FM-15+044399999V0200601N002619999999N009999199+03401+01701999999ADDGA1021+009141999GE19MSL   +99999+99999GF199999021999009141999999MA1101401999999REMMET051METAR SBLP 091400Z 06005KT 9999 FEW030 34/17 Q1014=
0142832880999992017010915004-13262-043408FM-15+044399999V0203001N004119999999N009999199+03601+01701999999ADDGA1041+009141999GE19MSL   +99999+99999GF199999041999009141999999MA1101301999999REMMET051METAR SBLP 091500Z 30008KT 9999 SCT030 36/17 Q1013=
0142832880999992017010916154-13262-043408FM-16+044399999V0202001N002119999999N009999199+03601+01701999999ADDGA1041+009141999GE19MSL   +99999+99999GF199999041999009141999999MA1101201999999REMMET051SPECI SBLP 091615Z 20004KT 9999 SCT030 36/17 Q1012=
0142832880999992017010917004-13262-043408FM-15+044399999V0202701N003119999999N009999199+03701+01601999999ADDGA1041+009141999GE19MSL   +99999+99999GF199999041999009141999999MA1101101999999REMMET051METAR SBLP 091700Z 27006KT 9999 SCT030 37/16 Q1011=
0136832880999992017010918004-13251-043405FM-12+044099999V0203601N0000199999999020000199+03601+02141100611ADDAA101999999AZ101061AZ201061GA1041+006001081GE19MSL   +99999+99999GF104991041999006001999999MA1999999095851MD1999999+0081REMSYN004BUFR
0142832880999992017010919004-13262-043408FM-15+044399999V0209999C000019999999N009999199+03701+01302999999ADDGA1041+009141999GE19MSL   +99999+99999GF199999041999009141999999MA1100901999999REMMET051METAR SBLP 091900Z 00000KT 9999 SCT030 37/13 Q1009=
0142832880999992017010919454-13262-043408FM-16+044399999V0209999C000019999999N009999199+03701+01301999999ADDGA1021+009141999GE19MSL   +99999+99999GF199999021999009141999999MA1100901999999REMMET051SPECI SBLP 091945Z 00000KT 9999 FEW030 37/13 Q1009=
0098832880999992017011000004-13251-043405FM-12+044099999V0200901N0005122000199002000199+03021+01911100691ADDAA101999999AZ101061AZ201061GF100991999999999999999999MA1999999095921MD1999999+0021REMSYN004BUFR
0072832880999992017011011154-13262-043408FM-16+044399999V0201001N002619999999Y999999999+03101+01701999999ADDMA1101301999999REMMET045SPECI SBLP 101115Z 10005KT CAVOK 31/17 Q1013=
0111832880999992017011012004-13251-043405FM-12+044099999V0200901N0005122000199020000199+03021+01991100871ADDAA101999999AZ101061AZ201061GF100991999999999999999999KA1120N+02361MA1999999096091MD1999999-0131REMSYN004BUFR
0072832880999992017011012004-13262-043408FM-15+044399999V0200701N003119999999Y999999999+03301+01701999999ADDMA1101301999999REMMET045METAR SBLP 101200Z 07006KT CAVOK 33/17 Q1013=
0142832880999992017011015004-13262-043408FM-15+044399999V0203301N003119999999N009999199+03601+01701999999ADDGA1021+009141999GE19MSL   +99999+99999GF199999021999009141999999MA1101101999999REMMET051METAR SBLP 101500Z 33006KT 9999 FEW030 36/17 Q1011=
0142832880999992017011016154-13262-043408FM-16+044399999V0203001N003119999999N009999199+03901+01401999999ADDGA1021+009141999GE19MSL   +99999+99999GF199999021999009141999999MA1101001999999REMMET051SPECI SBLP 101615Z 30006KT 9999 FEW030 39/14 Q1010=
0136832880999992017011018004-13251-043405FM-12+044099999V0203601N0005199999999020000199+03821+02261100441ADDAA101999999AZ101061AZ201061GA1041+006001081GE19MSL   +99999+99999GF104991041999006001999999MA1999999095761MD1999999-0091REMSYN004BUFR
0142832880999992017011018004-13262-043408FM-15+044399999V0202501N004119999999N009999199+03901+01401999999ADDGA1041+009141999GE19MSL   +99999+99999GF199999041999009141999999MA1100801999999REMMET051METAR SBLP 101800Z 25008KT 9999 SCT030 39/14 Q1008=
0142832880999992017011019004-13262-043408FM-15+044399999V0202901N002619999999N009999199+04001+01202999999ADDGA1021+009141999GE19MSL   +99999+99999GF199999021999009141999999MA1100701999999REMMET051METAR SBLP 101900Z 29005KT 9999 FEW030 40/12 Q1007=
0142832880999992017011019454-13262-043408FM-16+044399999V0202101N003119999999N009999199+03901+01401999999ADDGA1021+009141999GE19MSL   +99999+99999GF199999021999009141999999MA1100701999999REMMET051SPECI SBLP 101945Z 21006KT 9999 FEW030 39/14 Q1007=
0136832880999992017011100004-13251-043405FM-12+044099999V0201401N0010199999999002000199+03201+01881100481ADDAA101999999AZ101061AZ201061GA1031+006001081GE19MSL   +99999+99999GF103991031999006001999999MA1999999095741MD1999999-0181REMSYN004BUFR
0072832880999992017011111154-13262-043408FM-16+044399999V0203601N002619999999Y999999999+03001+01901999999ADDMA1101401999999REMMET045SPECI SBLP 111115Z 36005KT CAVOK 30/19 Q1014=
0149832880999992017011112004-13251-043405FM-12+044099999V0200501N0015199999999020000199+03011+02181101041ADDAA101999999AZ101061AZ201061GA1011+050001021GE19MSL   +99999+99999GF101991011999050001999999KA1120N+02521MA1999999096271MD1999999+0181REMSYN004BUFR
0072832880999992017011112004-13262-043408FM-15+044399999V0203401N005119999999Y999999999+03201+01901999999ADDMA1101501999999REMMET045METAR SBLP 111200Z 34010KT CAVOK 32/19 Q1015=
0142832880999992017011114004-13262-043408FM-15+044399999V0203201N005719999999N009999199+03401+01901999999ADDGA1021+009141999GE19MSL   +99999+99999GF199999021999009141999999MA1101301999999REMMET051METAR SBLP 111400Z 32011KT 9999 FEW030 34/19 Q1013=
0142832880999992017011116154-13262-043408FM-16+044399999V0203001N002619999999N009999199+03701+01701999999ADDGA1041+009141999GE19MSL   +99999+99999GF199999041999009141999999MA1101201999999REMMET051SPECI SBLP 111615Z 30005KT 9999 SCT030 37/17 Q1012=
0142832880999992017011117004-13262-043408FM-15+044399999V0202201N001019999999N009999199+03701+01701999999ADDGA1041+009141999GE19MSL   +99999+99999GF199999041999009141999999MA1101001999999REMMET051METAR SBLP 111700Z 22002KT 9999 SCT030 37/17 Q1010=
0136832880999992017011118004-13251-043405FM-12+044099999V0203201N0005199999999020000199+03711+02241100611ADDAA101999999AZ101061AZ201061GA1041+006001091GE19MSL   +99999+99999GF104991041999006001999999MA1999999095741MD1999999-0021REMSYN004BUFR
0176832880999992017011118004-13262-043408FM-15+044399999V0203101N003119999999N009999199+03901+01601999999ADDGA1021+009141999GA2021+012191091GE19MSL   +99999+99999GF199999021999009141999999MA1100901999999MW1171REMMET063METAR SBLP 111800Z 31006KT 9999 TS FEW030 FEW040CB 39/16 Q1009=
0179832880999992017011119004-13262-043408FM-15+044399999V0200301N006219999999N009999199+03301+02201999999ADDGA1041+009141999GA2021+012191091GE19MSL   +99999+99999GF199999041999009141999999MA1100901999999MW1951REMMET066METAR SBLP 111900Z 03012KT 9999 -TSRA SCT030 FEW040CB 33/22 Q1009=
0199832880999992017011119454-13262-043408FM-16+044399999V0203601N003619999999N009999199+03201+01901999999ADDGA1041+009141999GA2021+012191091GA3041+030481999GE19MSL   +99999+99999GF199999041999009141999999MA1100801999999MW1171REMMET070SPECI SBLP 111945Z 36007KT 9999 TS SCT030 FEW040CB SCT100 32/19 Q1008=
0152832880999992017011200004-13251-043405FM-12+044099999V0200901N0010199999999002000199+02621+02021100911ADDAA101999999AZ101061AZ201061GA1041+006001081GA2999+999999051GE19MSL   +99999+99999GF105991041999006001999999MA1999999096091MD1999999+0351REMSYN004BUFR
0072832880999992017011211154-13262-043408FM-16+044399999V0209999C000019999999Y999999999+02901+01901999999ADDMA1101501999999REMMET045SPECI SBLP 121115Z 00000KT CAVOK 29/19 Q1015=
0149832880999992017011212004-13251-043405FM-12+044099999V0200901N0005199999999020000199+02771+02221101171ADDAA101999999AZ101061AZ201061GA1999+012501031GE19MSL   +99999+99999GF102991999999012501999999KA1120N+02221MA1999999096321MD1999999+0051REMSYN004BUFR
0072832880999992017011212004-13262-043408FM-15+044399999V0200101N002619999999Y999999999+03001+01901999999ADDMA1101501999999REMMET045METAR SBLP 121200Z 01005KT CAVOK 30/19 Q1015=
0142832880999992017011214004-13262-043408FM-15+044399999V0203601N002619999999N009999199+03301+01901999999ADDGA1021+009141999GE19MSL   +99999+99999GF199999021999009141999999MA1101501999999REMMET051METAR SBLP 121400Z 36005KT 9999 FEW030 33/19 Q1015=
0142832880999992017011215004-13262-043408FM-15+044399999V0203301N002619999999N009999199+03501+01901999999ADDGA1041+009141999GE19MSL   +99999+99999GF199999041999009141999999MA1101401999999REMMET051METAR SBLP 121500Z 33005KT 9999 SCT030 35/19 Q1014=
0142832880999992017011216154-13262-043408FM-16+044399999V0203601N002119999999N009999199+03701+01801999999ADDGA1041+009141999GE19MSL   +99999+99999GF199999041999009141999999MA1101201999999REMMET051SPECI SBLP 121615Z 36004KT 9999 SCT030 37/18 Q1012=
0142832880999992017011217004-13262-043408FM-15+044399999V0202401N001019999999N009999199+03601+01801999999ADDGA1041+009141999GE19MSL   +99999+99999GF199999041999009141999999MA1101101999999REMMET051METAR SBLP 121700Z 24002KT 9999 SCT030 36/18 Q1011=
0152832880999992017011218004-13251-043405FM-12+044099999V0202701N0005199999999020000199+03651+02461100531ADDAA101999999AZ101061AZ201061GA1041+006001081GA2999+999999021GE19MSL   +99999+99999GF105991041999006001999999MA1999999095791MD1999999+0051REMSYN004BUFR
0168832880999992017011218004-13262-043408FM-15+044399999V0203001N002119999999N009999199+03701+01801999999ADDGA1041+009141999GA2021+012191081GE19MSL   +99999+99999GF199999041999009141999999MA1101001999999REMMET061METAR SBLP 121800Z 30004KT 9999 SCT030 FEW040TCU 37/18 Q1010=
0176832880999992017011218354-13262-043408FM-16+044399999V0200901N007219999999N009999199+03701+01801999999ADDGA1021+009141999GA2021+012191091GE19MSL   +99999+99999GF199999021999009141999999MA1101001999999MW1171REMMET063SPECI SBLP 121835Z 09014KT 9999 TS FEW030 FEW040CB 37/18 Q1010=
0179832880999992017011219004-13262-043408FM-15+044399999V0200901N010319999999N008000199+02802+02201999999ADDGA1021+009141999GA2021+012191091GE19MSL   +99999+99999GF199999021999009141999999MA1101001999999MW1951REMMET066METAR SBLP 121900Z 09020KT 8000 -TSRA FEW030 FEW040CB 28/22 Q1010=
0199832880999992017011219454-13262-043408FM-16+044399999V0200101N00101030481CN009999199+03001+02201999999ADDGA1021+009141999GA2021+012191091GA3041+030481999GE19MSL   +99999+99999GF199999021999009141999999MA1100901999999MW1171REMMET070SPECI SBLP 121945Z 01002KT 9999 TS FEW030 FEW040CB SCT100 30/22 Q1009=
0165832880999992017011312004-13251-043405FM-12+044099999V0202301N0005199999999020000199+02871+02321101121ADDAA124015031AZ101061AZ201061GA1041+012501051GA2999+999999021GE19MSL   +99999+99999GF106991041999012501999999KA1120N+02521MA1999999096291MD1999999-0031REMSYN004BUFR
0072832880999992017011312004-13262-043408FM-15+044399999V0202001N003119999999Y999999999+03001+02101999999ADDMA1101401999999REMMET045METAR SBLP 131200Z 20006KT CAVOK 30/21 Q1014=
0199832880999992017011316154-13262-043408FM-16+044399999V0202201N006210304819N009999199+03201+02001999999ADDGA1021+009141999GA2021+012191091GA3071+030481999GE19MSL   +99999+99999GF199999021999009141999999MA1101201999999MW1171REMMET070SPECI SBLP 131615Z 22012KT 9999 TS FEW030 FEW040CB BKN100 32/20 Q1012=
0199832880999992017011317004-13262-043408FM-15+044399999V0201701N006210304819N009999199+03101+02001999999ADDGA1021+009141999GA2021+012191091GA3071+030481999GE19MSL   +99999+99999GF199999021999009141999999MA1101201999999MW1171REMMET070METAR SBLP 131700Z 17012KT 9999 TS FEW030 FEW040CB BKN100 31/20 Q1012=
0168832880999992017011318004-13251-043405FM-12+044099999V0201401N0005100600199020000199+03021+02311100761ADDAA101999999AZ101061AZ201061GA1081+006001061GA2999+999999101GA3999+999999101GE19MSL   +99999+99999GF108991081999006001999999MA1999999095951MD1999999+0161REMSYN004BUFR
0165832880999992017011318004-13262-043408FM-15+044399999V0201801N003610304819N009999199+03101+02101999999ADDGA1021+009141999GA2071+030481999GE19MSL   +99999+99999GF199999021999009141999999MA1101101999999REMMET058METAR SBLP 131800Z 18007KT 9999 FEW030 BKN100 31/21 Q1011=
0165832880999992017011319004-13262-043408FM-15+044399999V0201701N00361030481CN009999199+03301+02001999999ADDGA1021+009141999GA2041+030481999GE19MSL   +99999+99999GF199999021999009141999999MA1101001999999REMMET058METAR SBLP 131900Z 17007KT 9999 FEW030 SCT100 33/20 Q1010=
0072832880999992017011319454-13262-043408FM-16+044399999V0201501N003119999999Y999999999+03401+01901999999ADDMA1100901999999REMMET045SPECI SBLP 131945Z 15006KT CAVOK 34/19 Q1009=
0098832880999992017011400004-13251-043405FM-12+044099999V0201401N0005122000199002000199+02771+02271100941ADDAA101999999AZ101061AZ201061GF100991999999999999999999MA1999999096121MD1999999+0071REMSYN004BUFR
0181832880999992017011412004-13251-043405FM-12+044099999V0200901N0005199999999020000199+02671+02321101011ADDAA101999999AZ101061AZ201061GA1021+006001081GA2999+999999031GA3999+999999021GE19MSL   +99999+99999GF106991021999006001999999KA1120N+02421MA1999999096171MD1999999-0121REMSYN004BUFR
0168832880999992017011418004-13251-043405FM-12+044099999V0201401N0015199999999020000199+03171+02301100561ADDAA101999999AZ101061AZ201061GA1031+006001061GA2999+999999031GA3999+999999021GE19MSL   +99999+99999GF106991031999006001999999MA1999999095801MD1999999-0151REMSYN004BUFR
0187832880999992017011512004-13251-043405FM-12+044099999V0203601N0000100600199020000199+02551+02441101221ADDAA124002031AY161061AY261061GA1081+006001061GA2999+999999101GA3999+999999101GE19MSL   +99999+99999GF108991081999006001999999KA1120N+02321MA1999999096331MD1999999+0161MW1021REMSYN004BUFR
0187832880999992017011518004-13251-043405FM-12+044099999V0203601N0000199999999020000199+03121+02291100671ADDAA101999999AZ101061AZ201061GA1072+006001061GA2999+999999031GA3999+999999101GE19MSL   +99999+99999GF103992072999006001999999MA1999999095861MD1999999+0061REMSYN004BUFREQDQ01 006003SCOCIG
0149832880999992017011612004-13251-043405FM-12+044099999V0200901N0010199999999020000199+02911+02131100951ADDAA101999999AZ101061AZ201061GA1999+080001021GE19MSL   +99999+99999GF103991999999080001999999KA1120N+02301MA1999999096151MD1999999-0181REMSYN004BUFR
0072832880999992017011612004-13262-043408FM-15+044399999V0201701N003619999999Y999999999+03101+01901999999ADDMA1101401999999REMMET045METAR SBLP 161200Z 17007KT CAVOK 31/19 Q1014=
0142832880999992017011614004-13262-043408FM-15+044399999V0201401N002119999999N009999199+03401+01901999999ADDGA1021+009141999GE19MSL   +99999+99999GF199999021999009141999999MA1101301999999REMMET051METAR SBLP 161400Z 14004KT 9999 FEW030 34/19 Q1013=
0142832880999992017011615004-13262-043408FM-15+044399999V0209999C000019999999N009999199+03401+01901999999ADDGA1041+009141999GE19MSL   +99999+99999GF199999041999009141999999MA1101201999999REMMET051METAR SBLP 161500Z 00000KT 9999 SCT030 34/19 Q1012=
0142832880999992017011616154-13262-043408FM-16+044399999V0202001N002610091419N009999199+03601+01901999999ADDGA1071+009141999GE19MSL   +99999+99999GF199999071999009141999999MA1101001999999REMMET051SPECI SBLP 161615Z 20005KT 9999 BKN030 36/19 Q1010=
0142832880999992017011617004-13262-043408FM-15+044399999V0201701N006210091419N009999199+03601+01801999999ADDGA1071+009141999GE19MSL   +99999+99999GF199999071999009141999999MA1101001999999REMMET051METAR SBLP 161700Z 17012KT 9999 BKN030 36/18 Q1010=
0152832880999992017011618004-13251-043405FM-12+044099999V0201801N0015199999999020000199+03521+02321100481ADDAA101999999AZ101061AZ201061GA1041+006001081GA2999+999999021GE19MSL   +99999+99999GF105991041999006001999999MA1999999095721MD1999999-0141REMSYN004BUFR
0142832880999992017011618004-13262-043408FM-15+044399999V0201401N003610091419N009999199+03701+01801999999ADDGA1071+009141999GE19MSL   +99999+99999GF199999071999009141999999MA1100901999999REMMET051METAR SBLP 161800Z 14007KT 9999 BKN030 37/18 Q1009=
0142832880999992017011619004-13262-043408FM-15+044399999V0201701N003619999999N009999199+03701+01701999999ADDGA1041+009141999GE19MSL   +99999+99999GF199999041999009141999999MA1100801999999REMMET051METAR SBLP 161900Z 17007KT 9999 SCT030 37/17 Q1008=
0142832880999992017011619454-13262-043408FM-16+044399999V0201701N004119999999N009999199+03601+01701999999ADDGA1041+009141999GE19MSL   +99999+99999GF199999041999009141999999MA1100801999999REMMET051SPECI SBLP 161945Z 17008KT 9999 SCT030 36/17 Q1008=
0152832880999992017011700004-13251-043405FM-12+044099999V0201801N0005199999999002000199+02971+02301100661ADDAA101999999AZ101061AZ201061GA1031+006001061GA2999+999999021GE19MSL   +99999+99999GF104991031999006001999999MA1999999095881MD1999999-0051REMSYN004BUFR
0165832880999992017011712004-13251-043405FM-12+044099999V0200901N0015199999999020000199+02901+01901100981ADDAA101999999AZ101061AZ201061GA1021+012501031GA2999+999999021GE19MSL   +99999+99999GF103991021999012501999999KA1120N+02271MA1999999096181MD1999999+0031REMSYN004BUFR
0072832880999992017011712004-13262-043408FM-15+044399999V0200901N002619999999Y999999999+03101+01801999999ADDMA1101301999999REMMET045METAR SBLP 171200Z 09005KT CAVOK 31/18 Q1013=
0142832880999992017011714004-13262-043408FM-15+044399999V0209999C000019999999N009999199+03401+01701999999ADDGA1021+009141999GE19MSL   +99999+99999GF199999021999009141999999MA1101301999999REMMET051METAR SBLP 171400Z 00000KT 9999 FEW030 34/17 Q1013=
0142832880999992017011715004-13262-043408FM-15+044399999V0201201N002619999999N009999199+03601+01601999999ADDGA1021+009141999GE19MSL   +99999+99999GF199999021999009141999999MA1101201999999REMMET051METAR SBLP 171500Z 12005KT 9999 FEW030 36/16 Q1012=
0142832880999992017011716154-13262-043408FM-16+044399999V0202501N001519999999N009999199+03601+01701999999ADDGA1041+009141999GE19MSL   +99999+99999GF199999041999009141999999MA1101101999999REMMET051SPECI SBLP 171615Z 25003KT 9999 SCT030 36/17 Q1011=
0142832880999992017011717004-13262-043408FM-15+044399999V0200701N003119999999N009999199+03601+01601999999ADDGA1041+009141999GE19MSL   +99999+99999GF199999041999009141999999MA1101001999999REMMET051METAR SBLP 171700Z 07006KT 9999 SCT030 36/16 Q1010=
0168832880999992017011718004-13251-043405FM-12+044099999V0202301N0005199999999020000199+03551+02241100431ADDAA101999999AZ101061AZ201061GA1031+006001091GA2999+999999031GA3999+999999021GE19MSL   +99999+99999GF106991031999006001999999MA1999999095721MD1999999+0001REMSYN004BUFR
0142832880999992017011718004-13262-043408FM-15+044399999V0209999C000019999999N009999199+03801+01601999999ADDGA1041+009141999GE19MSL   +99999+99999GF199999041999009141999999MA1100901999999REMMET051METAR SBLP 171800Z 00000KT 9999 SCT030 38/16 Q1009=
0142832880999992017011719004-13262-043408FM-15+044399999V0200901N002110091419N009999199+03701+01501999999ADDGA1071+009141999GE19MSL   +99999+99999GF199999071999009141999999MA1100801999999REMMET051METAR SBLP 171900Z 09004KT 9999 BKN030 37/15 Q1008=
0142832880999992017011719454-13262-043408FM-16+044399999V0201301N001510091419N009999199+03501+01601999999ADDGA1071+009141999GE19MSL   +99999+99999GF199999071999009141999999MA1100801999999REMMET051SPECI SBLP 171945Z 13003KT 9999 BKN030 35/16 Q1008=
0098832880999992017011800004-13251-043405FM-12+044099999V0202301N0010122000199002000199+02961+02051100571ADDAA101999999AZ101061AZ201061GF100991999999999999999999MA1999999095791MD1999999-0091REMSYN004BUFR
0165832880999992017011812004-13251-043405FM-12+044099999V0200901N0010199999999020000199+02901+01981100981ADDAA101999999AZ101061AZ201061GA1011+006001081GA2999+999999021GE19MSL   +99999+99999GF102991011999006001999999KA1120N+02201MA1999999096181MD1999999+0001REMSYN004BUFR
0072832880999992017011812004-13262-043408FM-15+044399999V0200601N003619999999Y999999999+03101+01801999999ADDMA1101401999999REMMET045METAR SBLP 181200Z 06007KT CAVOK 31/18 Q1014=
0072832880999992017011813004-13262-043408FM-15+044399999V0200301N004119999999Y999999999+03301+01601999999ADDMA1101401999999REMMET045METAR SBLP 181300Z 03008KT CAVOK 33/16 Q1014=
0142832880999992017011814004-13262-043408FM-15+044399999V0203401N002119999999N009999199+03501+01601999999ADDGA1021+009141999GE19MSL   +99999+99999GF199999021999009141999999MA1101401999999REMMET051METAR SBLP 181400Z 34004KT 9999 FEW030 35/16 Q1014=
0142832880999992017011815004-13262-043408FM-15+044399999V0203601N004619999999N009999199+03501+01701999999ADDGA1021+009141999GE19MSL   +99999+99999GF199999021999009141999999MA1101301999999REMMET051METAR SBLP 181500Z 36009KT 9999 FEW030 35/17 Q1013=
0142832880999992017011816154-13262-043408FM-16+044399999V0203601N002619999999N009999199+03701+01701999999ADDGA1041+009141999GE19MSL   +99999+99999GF199999041999009141999999MA1101101999999REMMET051SPECI SBLP 181615Z 36005KT 9999 SCT030 37/17 Q1011=
0142832880999992017011817004-13262-043408FM-15+044399999V0209999C000019999999N009999199+03701+01501999999ADDGA1041+009141999GE19MSL   +99999+99999GF199999041999009141999999MA1101101999999REMMET051METAR SBLP 181700Z 00000KT 9999 SCT030 37/15 Q1011=
0136832880999992017011818004-13251-043405FM-12+044099999V0203601N0010199999999020000199+03561+02251100531ADDAA101999999AZ101061AZ201061GA1041+006001081GE19MSL   +99999+99999GF104991041999006001999999MA1999999095811MD1999999+0091REMSYN004BUFR
0142832880999992017011818004-13262-043408FM-15+044399999V0200301N002619999999N009999199+03701+01501999999ADDGA1041+009141999GE19MSL   +99999+99999GF199999041999009141999999MA1101001999999REMMET051METAR SBLP 181800Z 03005KT 9999 SCT030 37/15 Q1010=
0142832880999992017011819004-13262-043408FM-15+044399999V0200701N003119999999N009999199+03601+01501999999ADDGA1041+009141999GE19MSL   +99999+99999GF199999041999009141999999MA1100901999999REMMET051METAR SBLP 181900Z 07006KT 9999 SCT030 36/15 Q1009=
0142832880999992017011819454-13262-043408FM-16+044399999V0200601N002119999999N009999199+03601+01401999999ADDGA1041+009141999GE19MSL   +99999+99999GF199999041999009141999999MA1100901999999REMMET051SPECI SBLP 181945Z 06004KT 9999 SCT030 36/14 Q1009=
0098832880999992017011900004-13251-043405FM-12+044099999V0200901N0005122000199002000199+03021+02141100741ADDAA101999999AZ101061AZ201061GF100991999999999999999999MA1999999095961MD1999999+0171REMSYN004BUFR
0072832880999992017011911154-13262-043408FM-16+044399999V0200401N004119999999Y999999999+02901+02101999999ADDMA1101501999999REMMET045SPECI SBLP 191115Z 04008KT CAVOK 29/21 Q1015=
0181832880999992017011912004-13251-043405FM-12+044099999V0200501N0015199999999020000199+02851+02231101191ADDAA101999999AZ101061AZ201061GA1031+006001091GA2999+999999031GA3999+999999021GE19MSL   +99999+99999GF106991031999006001999999KA1120N+02321MA1999999096381MD1999999+0201REMSYN004BUFR
0142832880999992017011912004-13262-043408FM-15+044399999V0200101N005719999999N009999199+03001+02101999999ADDGA1021+009141999GE19MSL   +99999+99999GF199999021999009141999999MA1101501999999REMMET051METAR SBLP 191200Z 01011KT 9999 FEW030 30/21 Q1015=
0142832880999992017011913004-13262-043408FM-15+044399999V0200301N004619999999N009999199+03101+02101999999ADDGA1041+009141999GE19MSL   +99999+99999GF199999041999009141999999MA1101501999999REMMET051METAR SBLP 191300Z 03009KT 9999 SCT030 31/21 Q1015=
0142832880999992017011914004-13262-043408FM-15+044399999V0203301N002119999999N009999199+03201+02001999999ADDGA1041+009141999GE19MSL   +99999+99999GF199999041999009141999999MA1101501999999REMMET051METAR SBLP 191400Z 33004KT 9999 SCT030 32/20 Q1015=
0142832880999992017011915004-13262-043408FM-15+044399999V0209999C000019999999N009999199+03401+02001999999ADDGA1041+009141999GE19MSL   +99999+99999GF199999041999009141999999MA1101401999999REMMET051METAR SBLP 191500Z 00000KT 9999 SCT030 34/20 Q1014=
0142832880999992017011917004-13262-043408FM-15+044399999V0209999C000010091419N009999199+03701+01701999999ADDGA1071+009141999GE19MSL   +99999+99999GF199999071999009141999999MA1101201999999REMMET051METAR SBLP 191700Z 00000KT 9999 BKN030 37/17 Q1012=
0152832880999992017011918004-13251-043405FM-12+044099999V0203601N0000199999999020000199+03501+02231100651ADDAA101999999AZ101061AZ201061GA1041+006001091GA2999+999999051GE19MSL   +99999+99999GF106991041999006001999999MA1999999095931MD1999999+0121REMSYN004BUFR
0142832880999992017011918004-13262-043408FM-15+044399999V0209999C000010091419N009999199+03701+01701999999ADDGA1071+009141999GE19MSL   +99999+99999GF199999071999009141999999MA1101001999999REMMET051METAR SBLP 191800Z 00000KT 9999 BKN030 37/17 Q1010=
0142832880999992017011919004-13262-043408FM-15+044399999V0202001N003610091419N009999199+03701+01901999999ADDGA1071+009141999GE19MSL   +99999+99999GF199999071999009141999999MA1101001999999REMMET051METAR SBLP 191900Z 20007KT 9999 BKN030 37/19 Q1010=
0176832880999992017011919454-13262-043408FM-16+044399999V0201501N003619999999N009999199+03601+01601999999ADDGA1041+009141999GA2021+012191091GE19MSL   +99999+99999GF199999041999009141999999MA1101001999999MW1171REMMET063SPECI SBLP 191945Z 15007KT 9999 TS SCT030 FEW040CB 36/16 Q1010=
0136832880999992017012000004-13251-043405FM-12+044099999V0200901N0010199999999002000199+03021+01991100851ADDAA101999999AZ101061AZ201061GA1031+006001081GE19MSL   +99999+99999GF103991031999006001999999MA1999999096051MD1999999+0091REMSYN004BUFR
0072832880999992017012011154-13262-043408FM-16+044399999V0209999C000019999999Y999999999+02901+01901999999ADDMA1101601999999REMMET045SPECI SBLP 201115Z 00000KT CAVOK 29/19 Q1016=
0149832880999992017012012004-13251-043405FM-12+044099999V0200501N0005199999999020000199+02911+02131101221ADDAA101999999AZ101061AZ201061GA1999+080001021GE19MSL   +99999+99999GF103991999999080001999999KA1120N+02501MA1999999096421MD1999999+0041REMSYN004BUFR
0072832880999992017012012004-13262-043408FM-15+044399999V0209999C000019999999Y999999999+03201+01801999999ADDMA1101601999999REMMET045METAR SBLP 201200Z 00000KT CAVOK 32/18 Q1016=
0072832880999992017012013004-13262-043408FM-15+044399999V0201701N001519999999Y999999999+03301+01901999999ADDMA1101601999999REMMET045METAR SBLP 201300Z 17003KT CAVOK 33/19 Q1016=
0142832880999992017012014004-13262-043408FM-15+044399999V0201601N002119999999N009999199+03501+01801999999ADDGA1021+009141999GE19MSL   +99999+99999GF199999021999009141999999MA1101501999999REMMET051METAR SBLP 201400Z 16004KT 9999 FEW030 35/18 Q1015=
0142832880999992017012015004-13262-043408FM-15+044399999V0201701N004619999999N009999199+03701+01701999999ADDGA1021+009141999GE19MSL   +99999+99999GF199999021999009141999999MA1101501999999REMMET051METAR SBLP 201500Z 17009KT 9999 FEW030 37/17 Q1015=
0142832880999992017012016154-13262-043408FM-16+044399999V0201101N003119999999N009999199+03601+01701999999ADDGA1041+009141999GE19MSL   +99999+99999GF199999041999009141999999MA1101301999999REMMET051SPECI SBLP 201615Z 11006KT 9999 SCT030 36/17 Q1013=
0152832880999992017012018004-13251-043405FM-12+044099999V0202701N0005199999999020000199+03651+02191100671ADDAA101999999AZ101061AZ201061GA1031+006001081GA2999+999999021GE19MSL   +99999+99999GF104991031999006001999999MA1999999095951MD1999999+0021REMSYN004BUFR
0142832880999992017012018004-13262-043408FM-15+044399999V0209999C000019999999N009999199+03701+01501999999ADDGA1041+009141999GE19MSL   +99999+99999GF199999041999009141999999MA1101101999999REMMET051METAR SBLP 201800Z 00000KT 9999 SCT030 37/15 Q1011=
0142832880999992017012019004-13262-043408FM-15+044399999V0202101N003619999999N009999199+03801+01501999999ADDGA1021+009141999GE19MSL   +99999+99999GF199999021999009141999999MA1101101999999REMMET051METAR SBLP 201900Z 21007KT 9999 FEW030 38/15 Q1011=
0142832880999992017012019454-13262-043408FM-16+044399999V0201601N005119999999N009999199+03801+01501999999ADDGA1021+009141999GE19MSL   +99999+99999GF199999021999009141999999MA1101001999999REMMET051SPECI SBLP 201945Z 16010KT 9999 FEW030 38/15 Q1010=
0098832880999992017012100004-13251-043405FM-12+044099999V0201801N0010122000199002000199+03001+01931100891ADDAA101999999AZ101061AZ201061GF100991999999999999999999MA1999999096101MD1999999+0051REMSYN004BUFR
0149832880999992017012112004-13251-043405FM-12+044099999V0200901N0015199999999020000199+03001+01931101161ADDAA101999999AZ101061AZ201061GA1021+050001021GE19MSL   +99999+99999GF102991021999050001999999KA1120N+02361MA1999999096371MD1999999-0051REMSYN004BUFR
0136832880999992017012118004-13251-043405FM-12+044099999V0201401N0005100600199020000199+03671+02061100641ADDAA101999999AZ101061AZ201061GA1051+006001081GE19MSL   +99999+99999GF105991051999006001999999MA1999999095941MD1999999-0011REMSYN004BUFR
0149832880999992017012212004-13251-043405FM-12+044099999V0200901N0015199999999020000199+03011+01981101081ADDAA101999999AZ101061AZ201061GA1999+080001001GE19MSL   +99999+99999GF103991999999080001999999KA1120N+02441MA1999999096291MD1999999-0081REMSYN004BUFR
0136832880999992017012218004-13251-043405FM-12+044099999V0201801N0005100600199020000199+03601+02221100491ADDAA101999999AZ101061AZ201061GA1051+006001081GE19MSL   +99999+99999GF105991051999006001999999MA1999999095791MD1999999-0151REMSYN004BUFR
0072832880999992017012311154-13262-043408FM-16+044399999V0201501N003119999999Y999999999+03101+01901999999ADDMA1101501999999REMMET045SPECI SBLP 231115Z 15006KT CAVOK 31/19 Q1015=
0149832880999992017012312004-13251-043405FM-12+044099999V0200501N0010199999999020000199+03071+02121101091ADDAA101999999AZ101061AZ201061GA1021+012501031GE19MSL   +99999+99999GF102991021999012501999999KA1120N+02561MA1999999096321MD1999999+0031REMSYN004BUFR
0072832880999992017012312004-13262-043408FM-15+044399999V0201201N003119999999Y999999999+03301+01901999999ADDMA1101501999999REMMET045METAR SBLP 231200Z 12006KT CAVOK 33/19 Q1015=
0142832880999992017012313004-13262-043408FM-15+044399999V0203201N001519999999N009999199+03401+01901999999ADDGA1021+009141999GE19MSL   +99999+99999GF199999021999009141999999MA1101501999999REMMET051METAR SBLP 231300Z 32003KT 9999 FEW030 34/19 Q1015=
0142832880999992017012314004-13262-043408FM-15+044399999V0200501N003619999999N009999199+03401+01901999999ADDGA1041+009141999GE19MSL   +99999+99999GF199999041999009141999999MA1101501999999REMMET051METAR SBLP 231400Z 05007KT 9999 SCT030 34/19 Q1015=
0142832880999992017012315004-13262-043408FM-15+044399999V0200201N001510091419N009999199+03601+01801999999ADDGA1071+009141999GE19MSL   +99999+99999GF199999071999009141999999MA1101401999999REMMET051METAR SBLP 231500Z 02003KT 9999 BKN030 36/18 Q1014=
0168832880999992017012316154-13262-043408FM-16+044399999V0200501N002610091419N009999199+03801+01701999999ADDGA1021+009141081GA2071+009141999GE19MSL   +99999+99999GF199999021999009141999999MA1101201999999REMMET061SPECI SBLP 231615Z 05005KT 9999 FEW030TCU BKN030 38/17 Q1012=
0179832880999992017012317004-13262-043408FM-15+044399999V0201501N008819999999N005000199+02902+02301999999ADDGA1041+009141999GA2021+012191091GE19MSL   +99999+99999GF199999041999009141999999MA1101201999999MW1951REMMET066METAR SBLP 231700Z 15017KT 5000 -TSRA SCT030 FEW040CB 29/23 Q1012=
0174832880999992017012318004-13251-043405FM-12+044099999V0201401N0005100600199020000199+02751+02201100861ADDAA106001031AY161061AY261061GA1081+006001061GA2999+999999101GA3999+999999101GE19MSL   +99999+99999GF108991081999006001999999MA1999999096061MD1999999+0271MW1021REMSYN004BUFR
0165832880999992017012319004-13262-043408FM-15+044399999V0209999C000010304819N009999199+02801+02201999999ADDGA1021+006101999GA2071+030481999GE19MSL   +99999+99999GF199999021999006101999999MA1101001999999REMMET058METAR SBLP 231900Z 00000KT 9999 FEW020 BKN100 28/22 Q1010=
0165832880999992017012319454-13262-043408FM-16+044399999V0201801N001010304819N009999199+02901+02301999999ADDGA1021+006101999GA2071+030481999GE19MSL   +99999+99999GF199999021999006101999999MA1101001999999REMMET058SPECI SBLP 231945Z 18002KT 9999 FEW020 BKN100 29/23 Q1010=
0168832880999992017012400004-13251-043405FM-12+044099999V0203601N0000100600199002000199+02901+02421100861ADDAA101999999AZ101061AZ201061GA1081+006001061GA2999+999999101GA3999+999999101GE19MSL   +99999+99999GF108991081999006001999999MA1999999096081MD1999999+0131REMSYN004BUFR
0072832880999992017012411154-13262-043408FM-16+044399999V0201201N002619999999Y999999999+02901+02101999999ADDMA1101601999999REMMET045SPECI SBLP 241115Z 12005KT CAVOK 29/21 Q1016=
0165832880999992017012412004-13251-043405FM-12+044099999V0200901N0010199999999020000199+02911+02081101201ADDAA101999999AZ101061AZ201061GA1021+012501031GA2999+999999021GE19MSL   +99999+99999GF105991021999012501999999KA1120N+02501MA1999999096391MD1999999+0071REMSYN004BUFR
0072832880999992017012412004-13262-043408FM-15+044399999V0200901N003119999999Y999999999+03001+02101999999ADDMA1101601999999REMMET045METAR SBLP 241200Z 09006KT CAVOK 30/21 Q1016=
0142832880999992017012414004-13262-043408FM-15+044399999V0201701N003619999999N009999199+03201+02001999999ADDGA1021+009141999GE19MSL   +99999+99999GF199999021999009141999999MA1101601999999REMMET051METAR SBLP 241400Z 17007KT 9999 FEW030 32/20 Q1016=
0142832880999992017012415004-13262-043408FM-15+044399999V0201701N002119999999N009999199+03601+01901999999ADDGA1041+009141999GE19MSL   +99999+99999GF199999041999009141999999MA1101501999999REMMET051METAR SBLP 241500Z 17004KT 9999 SCT030 36/19 Q1015=
0142832880999992017012416154-13262-043408FM-16+044399999V0209999C000019999999N009999199+03501+01901999999ADDGA1041+009141999GE19MSL   +99999+99999GF199999041999009141999999MA1101301999999REMMET051SPECI SBLP 241615Z 00000KT 9999 SCT030 35/19 Q1013=
0142832880999992017012417004-13262-043408FM-15+044399999V0201201N003610091419N009999199+03701+01801999999ADDGA1071+009141999GE19MSL   +99999+99999GF199999071999009141999999MA1101201999999REMMET051METAR SBLP 241700Z 12007KT 9999 BKN030 37/18 Q1012=
0136832880999992017012418004-13251-043405FM-12+044099999V0200901N0005199999999020000199+03501+02091100741ADDAA101999999AZ101061AZ201061GA1041+006001081GE19MSL   +99999+99999GF104991041999006001999999MA1999999095991MD1999999-0071REMSYN004BUFR
0142832880999992017012419004-13262-043408FM-15+044399999V0201901N003119999999N009999199+03701+01701999999ADDGA1041+009141999GE19MSL   +99999+99999GF199999041999009141999999MA1101101999999REMMET051METAR SBLP 241900Z 19006KT 9999 SCT030 37/17 Q1011=
0142832880999992017012419454-13262-043408FM-16+044399999V0201701N004619999999N009999199+03701+01501999999ADDGA1041+009141999GE19MSL   +99999+99999GF199999041999009141999999MA1101101999999REMMET051SPECI SBLP 241945Z 17009KT 9999 SCT030 37/15 Q1011=
0168832880999992017012500004-13251-043405FM-12+044099999V0202701N0015100600199002000199+02911+02281101061ADDAA101999999AZ101061AZ201061GA1081+006001061GA2999+999999101GA3999+999999101GE19MSL   +99999+99999GF108991081999006001999999MA1999999096251MD1999999+0171REMSYN004BUFR
0149832880999992017012512004-13251-043405FM-12+044099999V0200501N0010199999999020000199+02821+02201101361ADDAA101999999AZ101061AZ201061GA1041+050001001GE19MSL   +99999+99999GF104991041999050001999999KA1120N+02311MA1999999096541MD1999999+0151REMSYN004BUFR
0142832880999992017012513004-13262-043408FM-15+044399999V0209999C000019999999N009999199+03301+01901999999ADDGA1021+009141999GE19MSL   +99999+99999GF199999021999009141999999MA1101701999999REMMET051METAR SBLP 251300Z 00000KT 9999 FEW030 33/19 Q1017=
0142832880999992017012514004-13262-043408FM-15+044399999V0203301N002619999999N009999199+03401+01901999999ADDGA1041+009141999GE19MSL   +99999+99999GF199999041999009141999999MA1101601999999REMMET051METAR SBLP 251400Z 33005KT 9999 SCT030 34/19 Q1016=
0142832880999992017012515004-13262-043408FM-15+044399999V0202901N002119999999N009999199+03501+01801999999ADDGA1041+009141999GE19MSL   +99999+99999GF199999041999009141999999MA1101601999999REMMET051METAR SBLP 251500Z 29004KT 9999 SCT030 35/18 Q1016=
0142832880999992017012516154-13262-043408FM-16+044399999V0201401N002619999999N009999199+03701+01701999999ADDGA1041+009141999GE19MSL   +99999+99999GF199999041999009141999999MA1101401999999REMMET051SPECI SBLP 251615Z 14005KT 9999 SCT030 37/17 Q1014=
0136832880999992017012518004-13251-043405FM-12+044099999V0201401N0010100300199020000199+03421+02161100901ADDAA101999999AZ101061AZ201061GA1051+003001081GE19MSL   +99999+99999GF105991051999003001999999MA1999999096161MD1999999+0171REMSYN004BUFR
0142832880999992017012519004-13262-043408FM-15+044399999V0209999C000019999999N009999199+03701+01601999999ADDGA1041+009141999GE19MSL   +99999+99999GF199999041999009141999999MA1101101999999REMMET051METAR SBLP 251900Z 00000KT 9999 SCT030 37/16 Q1011=
0142832880999992017012519454-13262-043408FM-16+044399999V0200501N003119999999N009999199+03701+01701999999ADDGA1021+009141999GE19MSL   +99999+99999GF199999021999009141999999MA1101001999999REMMET051SPECI SBLP 251945Z 05006KT 9999 FEW030 37/17 Q1010=
0098832880999992017012600004-13251-043405FM-12+044099999V0200901N0005122000199002000199+03021+02071100941ADDAA101999999AZ101061AZ201061GF100991999999999999999999MA1999999096141MD1999999-0111REMSYN004BUFR
0072832880999992017012611154-13262-043408FM-16+044399999V0201001N002119999999Y999999999+03001+01801999999ADDMA1101601999999REMMET045SPECI SBLP 261115Z 10004KT CAVOK 30/18 Q1016=
0111832880999992017012612004-13251-043405FM-12+044099999V0200501N0010122000199020000199+02971+02081101191ADDAA101999999AZ101061AZ201061GF100991999999999999999999KA1120N+02421MA1999999096401MD1999999-0141REMSYN004BUFR
0072832880999992017012612004-13262-043408FM-15+044399999V0200301N002119999999Y999999999+03101+01801999999ADDMA1101601999999REMMET045METAR SBLP 261200Z 03004KT CAVOK 31/18 Q1016=
0142832880999992017012613004-13262-043408FM-15+044399999V0202601N003119999999N009999199+03301+01701999999ADDGA1021+009141999GE19MSL   +99999+99999GF199999021999009141999999MA1101601999999REMMET051METAR SBLP 261300Z 26006KT 9999 FEW030 33/17 Q1016=
0142832880999992017012615004-13262-043408FM-15+044399999V0202701N003119999999N009999199+03601+01701999999ADDGA1041+009141999GE19MSL   +99999+99999GF199999041999009141999999MA1101501999999REMMET051METAR SBLP 261500Z 27006KT 9999 SCT030 36/17 Q1015=
0142832880999992017012616154-13262-043408FM-16+044399999V0203101N005119999999N009999199+03701+01701999999ADDGA1041+009141999GE19MSL   +99999+99999GF199999041999009141999999MA1101401999999REMMET051SPECI SBLP 261615Z 31010KT 9999 SCT030 37/17 Q1014=
0142832880999992017012617004-13262-043408FM-15+044399999V0209999C000019999999N009999199+03701+01601999999ADDGA1041+009141999GE19MSL   +99999+99999GF199999041999009141999999MA1101301999999REMMET051METAR SBLP 261700Z 00000KT 9999 SCT030 37/16 Q1013=
0136832880999992017012618004-13251-043405FM-12+044099999V0201801N0010199999999020000199+03651+02021100701ADDAA101999999AZ101061AZ201061GA1041+006001081GE19MSL   +99999+99999GF104991041999006001999999MA1999999095971MD1999999-0181REMSYN004BUFR
0142832880999992017012618004-13262-043408FM-15+044399999V0200901N002619999999N009999199+03801+01601999999ADDGA1041+009141999GE19MSL   +99999+99999GF199999041999009141999999MA1101201999999REMMET051METAR SBLP 261800Z 09005KT 9999 SCT030 38/16 Q1012=
0142832880999992017012619004-13262-043408FM-15+044399999V0202601N001519999999N009999199+03801+01601999999ADDGA1041+009141999GE19MSL   +99999+99999GF199999041999009141999999MA1101101999999REMMET051METAR SBLP 261900Z 26003KT 9999 SCT030 38/16 Q1011=
0142832880999992017012619454-13262-043408FM-16+044399999V0201801N004119999999N009999199+03801+01501999999ADDGA1041+009141999GE19MSL   +99999+99999GF199999041999009141999999MA1101101999999REMMET051SPECI SBLP 261945Z 18008KT 9999 SCT030 38/15 Q1011=
0072832880999992017012711154-13262-043408FM-16+044399999V0200801N003119999999Y999999999+03101+01701999999ADDMA1101701999999REMMET045SPECI SBLP 271115Z 08006KT CAVOK 31/17 Q1017=
0111832880999992017012712004-13251-043405FM-12+044099999V0200901N0010122000199020000199+03011+01921101231ADDAA101999999AZ101061AZ201061GF100991999999999999999999KA1120N+02361MA1999999096461MD1999999+0061REMSYN004BUFR
0072832880999992017012712004-13262-043408FM-15+044399999V0200901N003619999999Y999999999+03201+01601999999ADDMA1101701999999REMMET045METAR SBLP 271200Z 09007KT CAVOK 32/16 Q1017=
0072832880999992017012713004-13262-043408FM-15+044399999V0209999C000019999999Y999999999+03301+01801999999ADDMA1101701999999REMMET045METAR SBLP 271300Z 00000KT CAVOK 33/18 Q1017=
0142832880999992017012715004-13262-043408FM-15+044399999V0200101N002619999999N009999199+03701+01501999999ADDGA1041+009141999GE19MSL   +99999+99999GF199999041999009141999999MA1101601999999REMMET051METAR SBLP 271500Z 01005KT 9999 SCT030 37/15 Q1016=
0152832880999992017012718004-13251-043405FM-12+044099999V0202301N0010199999999020000199+03751+02271100781ADDAA101999999AZ101061AZ201061GA1041+006001091GA2999+999999051GE19MSL   +99999+99999GF106991041999006001999999MA1999999096081MD1999999+0111REMSYN004BUFR
0142832880999992017012718004-13262-043408FM-15+044399999V0202101N002619999999N009999199+03901+01501999999ADDGA1041+009141999GE19MSL   +99999+99999GF199999041999009141999999MA1101201999999REMMET051METAR SBLP 271800Z 21005KT 9999 SCT030 39/15 Q1012=
0142832880999992017012719004-13262-043408FM-15+044399999V0201801N006219999999N009999199+03901+01302999999ADDGA1021+009141999GE19MSL   +99999+99999GF199999021999009141999999MA1101101999999REMMET051METAR SBLP 271900Z 18012KT 9999 FEW030 39/13 Q1011=
0142832880999992017012719454-13262-043408FM-16+044399999V0202101N005119999999N009999199+03801+01401999999ADDGA1021+009141999GE19MSL   +99999+99999GF199999021999009141999999MA1101101999999REMMET051SPECI SBLP 271945Z 21010KT 9999 FEW030 38/14 Q1011=
0098832880999992017012800004-13251-043405FM-12+044099999V0203601N0000122000199002000199+03071+01841101061ADDAA101999999AZ101061AZ201061GF100991999999999999999999MA1999999096271MD1999999+0201REMSYN004BUFR
0111832880999992017012812004-13251-043405FM-12+044099999V0200901N0005122000199020000199+02901+01981101321ADDAA101999999AZ101061AZ201061GF100991999999999999999999KA1120N+02421MA1999999096521MD1999999+0061REMSYN004BUFR
0152832880999992017012818004-13251-043405FM-12+044099999V0202301N0010199999999020000199+03521+01911100821ADDAA101999999AZ101061AZ201061GA1031+006001081GA2999+999999001GE19MSL   +99999+99999GF104991031999006001999999MA1999999096091MD1999999+0011REMSYN004BUFR
0111832880999992017012912004-13251-043405FM-12+044099999V0200501N0005122000199020000199+02911+01851101351ADDAA101999999AZ101061AZ201061GF100991999999999999999999KA1120N+02391MA1999999096551MD1999999+0031REMSYN004BUFR
0136832880999992017012918004-13251-043405FM-12+044099999V0201401N0005100600199020000199+03571+02001100871ADDAA101999999AZ101061AZ201061GA1051+006001081GE19MSL   +99999+99999GF105991051999006001999999MA1999999096141MD1999999+0051REMSYN004BUFR
0072832880999992017013011154-13262-043408FM-16+044399999V0201201N005119999999Y999999999+02901+01801999999ADDMA1101701999999REMMET045SPECI SBLP 301115Z 12010KT CAVOK 29/18 Q1017=
0165832880999992017013012004-13251-043405FM-12+044099999V0200901N0010199999999020000199+02871+02221101271ADDAA101999999AZ101061AZ201061GA1011+006001081GA2999+999999021GE19MSL   +99999+99999GF103991011999006001999999KA1120N+02421MA1999999096461MD1999999-0091REMSYN004BUFR
0072832880999992017013012004-13262-043408FM-15+044399999V0201401N002119999999Y999999999+03001+01701999999ADDMA1101701999999REMMET045METAR SBLP 301200Z 14004KT CAVOK 30/17 Q1017=
0072832880999992017013013004-13262-043408FM-15+044399999V0201201N004119999999Y999999999+03301+01601999999ADDMA1101601999999REMMET045METAR SBLP 301300Z 12008KT CAVOK 33/16 Q1016=
0142832880999992017013015004-13262-043408FM-15+044399999V0202001N003119999999N009999199+03601+01601999999ADDGA1021+009141999GE19MSL   +99999+99999GF199999021999009141999999MA1101401999999REMMET051METAR SBLP 301500Z 20006KT 9999 FEW030 36/16 Q1014=
0142832880999992017013016154-13262-043408FM-16+044399999V0200401N005119999999N009999199+03701+01501999999ADDGA1041+009141999GE19MSL   +99999+99999GF199999041999009141999999MA1101301999999REMMET051SPECI SBLP 301615Z 04010KT 9999 SCT030 37/15 Q1013=
0142832880999992017013017004-13262-043408FM-15+044399999V0202101N001019999999N009999199+03701+01401999999ADDGA1041+009141999GE19MSL   +99999+99999GF199999041999009141999999MA1101201999999REMMET051METAR SBLP 301700Z 21002KT 9999 SCT030 37/14 Q1012=
0152832880999992017013018004-13251-043405FM-12+044099999V0201801N0010199999999020000199+03621+01961100691ADDAA101999999AZ101061AZ201061GA1031+006001081GA2999+999999021GE19MSL   +99999+99999GF105991031999006001999999MA1999999095971MD1999999-0171REMSYN004BUFR
0142832880999992017013018004-13262-043408FM-15+044399999V0201801N005719999999N009999199+03801+01501999999ADDGA1041+009141999GE19MSL   +99999+99999GF199999041999009141999999MA1101101999999REMMET051METAR SBLP 301800Z 18011KT 9999 SCT030 38/15 Q1011=
0142832880999992017013019004-13262-043408FM-15+044399999V0202001N004619999999N009999199+03801+01501999999ADDGA1021+009141999GE19MSL   +99999+99999GF199999021999009141999999MA1101101999999REMMET051METAR SBLP 301900Z 20009KT 9999 FEW030 38/15 Q1011=
0142832880999992017013019454-13262-043408FM-16+044399999V0201701N003619999999N009999199+03701+01201999999ADDGA1021+009141999GE19MSL   +99999+99999GF199999021999009141999999MA1101101999999REMMET051SPECI SBLP 301945Z 17007KT 9999 FEW030 37/12 Q1011=
0098832880999992017013100004-13251-043405FM-12+044099999V0201801N0010122000199002000199+03071+01941100861ADDAA101999999AZ101061AZ201061GF100991999999999999999999MA1999999096081MD1999999-0151REMSYN004BUFR
0072832880999992017013111154-13262-043408FM-16+044399999V0209999C000019999999Y999999999+03001+01701999999ADDMA1101601999999REMMET045SPECI SBLP 311115Z 00000KT CAVOK 30/17 Q1016=
0149832880999992017013112004-13251-043405FM-12+044099999V0200901N0010199999999020000199+02971+01941101231ADDAA101999999AZ101061AZ201061GA1031+050001001GE19MSL   +99999+99999GF103991031999050001999999KA1120N+02311MA1999999096441MD1999999-0021REMSYN004BUFR
0072832880999992017013112004-13262-043408FM-15+044399999V0201501N001519999999Y999999999+03101+01801999999ADDMA1101601999999REMMET045METAR SBLP 311200Z 15003KT CAVOK 31/18 Q1016=
0072832880999992017013113004-13262-043408FM-15+044399999V0209999C000019999999Y999999999+03301+01601999999ADDMA1101601999999REMMET045METAR SBLP 311300Z 00000KT CAVOK 33/16 Q1016=
0072832880999992017013114004-13262-043408FM-15+044399999V0203401N002619999999Y999999999+03501+01701999999ADDMA1101501999999REMMET045METAR SBLP 311400Z 34005KT CAVOK 35/17 Q1015=
0142832880999992017013115004-13262-043408FM-15+044399999V0202701N002119999999N009999199+03401+01701999999ADDGA1021+009141999GE19MSL   +99999+99999GF199999021999009141999999MA1101401999999REMMET051METAR SBLP 311500Z 27004KT 9999 FEW030 34/17 Q1014=
0142832880999992017013116154-13262-043408FM-16+044399999V0202501N002619999999N009999199+03701+01401999999ADDGA1021+009141999GE19MSL   +99999+99999GF199999021999009141999999MA1101201999999REMMET051SPECI SBLP 311615Z 25005KT 9999 FEW030 37/14 Q1012=
0142832880999992017013117004-13262-043408FM-15+044399999V0202701N005119999999N009999199+03701+01501999999ADDGA1021+009141999GE19MSL   +99999+99999GF199999021999009141999999MA1101201999999REMMET051METAR SBLP 311700Z 27010KT 9999 FEW030 37/15 Q1012=
0168832880999992017013118004-13251-043405FM-12+044099999V0202301N0010199999999020000199+03671+02061100621ADDAA101999999AZ101061AZ201061GA1031+006001091GA2999+999999051GA3999+999999001GE19MSL   +99999+99999GF105991031999006001999999MA1999999095921MD1999999-0051REMSYN004BUFR
0142832880999992017013118004-13262-043408FM-15+044399999V0202801N003119999999N009999199+03701+01401999999ADDGA1041+009141999GE19MSL   +99999+99999GF199999041999009141999999MA1101001999999REMMET051METAR SBLP 311800Z 28006KT 9999 SCT030 37/14 Q1010=
0142832880999992017013119004-13262-043408FM-15+044399999V0202301N005719999999N009999199+03801+01401999999ADDGA1041+009141999GE19MSL   +99999+99999GF199999041999009141999999MA1101001999999REMMET051METAR SBLP 311900Z 23011KT 9999 SCT030 38/14 Q1010=
0142832880999992017013119454-13262-043408FM-16+044399999V0201501N003119999999N009999199+03701+01401999999ADDGA1041+009141999GE19MSL   +99999+99999GF199999041999009141999999MA1101001999999REMMET051SPECI SBLP 311945Z 15006KT 9999 SCT030 37/14 Q1010=
0098832880999992017020100004-13251-043405FM-12+044099999V0203601N0000122000199002000199+03061+02021100701ADDAA101999999AZ101061AZ201061GF100991999999999999999999MA1999999095931MD1999999-0151REMSYN004BUFR
0111832880999992017020112004-13251-043405FM-12+044099999V0201401N0015122000199020000199+03061+02111100971ADDAA101999999AZ101061AZ201061GF100991999999999999999999KA1120N+02441MA1999999096201MD1999999-0241REMSYN004BUFR
0072832880999992017020112004-13262-043408FM-15+044399999V0201101N003119999999Y999999999+03201+01701999999ADDMA1101401999999REMMET045METAR SBLP 011200Z 11006KT CAVOK 32/17 Q1014=
0072832880999992017020113004-13262-043408FM-15+044399999V0203201N002119999999Y999999999+03301+01801999999ADDMA1101401999999REMMET045METAR SBLP 011300Z 32004KT CAVOK 33/18 Q1014=
0142832880999992017020114004-13262-043408FM-15+044399999V0203001N001519999999N009999199+03401+01801999999ADDGA1021+009141999GE19MSL   +99999+99999GF199999021999009141999999MA1101401999999REMMET051METAR SBLP 011400Z 30003KT 9999 FEW030 34/18 Q1014=
0142832880999992017020116154-13262-043408FM-16+044399999V0201201N003119999999N009999199+03701+01601999999ADDGA1041+009141999GE19MSL   +99999+99999GF199999041999009141999999MA1101101999999REMMET051SPECI SBLP 011615Z 12006KT 9999 SCT030 37/16 Q1011=
0142832880999992017020117004-13262-043408FM-15+044399999V0200301N003110091419N009999199+03701+01701999999ADDGA1071+009141999GE19MSL   +99999+99999GF199999071999009141999999MA1101101999999REMMET051METAR SBLP 011700Z 03006KT 9999 BKN030 37/17 Q1011=
0136832880999992017020118004-13251-043405FM-12+044099999V0200901N0015100600199020000199+03651+01981100511ADDAA101999999AZ101061AZ201061GA1071+006001081GE19MSL   +99999+99999GF107991071999006001999999MA1999999095791MD1999999-0131REMSYN004BUFR
0142832880999992017020119004-13262-043408FM-15+044399999V0200601N003119999999N009999199+03801+01601999999ADDGA1041+009141999GE19MSL   +99999+99999GF199999041999009141999999MA1100901999999REMMET051METAR SBLP 011900Z 06006KT 9999 SCT030 38/16 Q1009=
0142832880999992017020119454-13262-043408FM-16+044399999V0201601N001519999999N009999199+03901+01401999999ADDGA1041+009141999GE19MSL   +99999+99999GF199999041999009141999999MA1100801999999REMMET051SPECI SBLP 011945Z 16003KT 9999 SCT030 39/14 Q1008=
0168832880999992017020211154-13262-043408FM-16+044399999V0203401N002110304819N009999199+02601+02201999999ADDGA1021+012191081GA2071+030481999GE19MSL   +99999+99999GF199999021999012191999999MA1101601999999REMMET061SPECI SBLP 021115Z 34004KT 9999 FEW040TCU BKN100 26/22 Q1016=
0181832880999992017020212004-13251-043405FM-12+044099999V0203201N0010100600199020000199+02511+02221101261ADDAA101999999AZ101061AZ201061GA1081+006001061GA2999+999999101GA3999+999999101GE19MSL   +99999+99999GF108991081999006001999999KA1120N+02321MA1999999096431MD1999999+0231REMSYN004BUFR
0191832880999992017020213004-13262-043408FM-15+044399999V0202701N001510304819N009999199+02501+02201999999ADDGA1021+009141999GA2021+012191081GA3071+030481999GE19MSL   +99999+99999GF199999021999009141999999MA1101601999999REMMET068METAR SBLP 021300Z 27003KT 9999 FEW030 FEW040TCU BKN100 25/22 Q1016=
0165832880999992017020214004-13262-043408FM-15+044399999V0202801N002110304819N009999199+02601+02101999999ADDGA1021+009141999GA2071+030481999GE19MSL   +99999+99999GF199999021999009141999999MA1101601999999REMMET058METAR SBLP 021400Z 28004KT 9999 FEW030 BKN100 26/21 Q1016=
0165832880999992017020215004-13262-043408FM-15+044399999V0202701N002610304819N009999199+02701+02101999999ADDGA1021+006101999GA2071+030481999GE19MSL   +99999+99999GF199999021999006101999999MA1101501999999REMMET058METAR SBLP 021500Z 27005KT 9999 FEW020 BKN100 27/21 Q1015=
0165832880999992017020216154-13262-043408FM-16+044399999V0202901N003110304819N009999199+02901+02001999999ADDGA1021+006101999GA2071+030481999GE19MSL   +99999+99999GF199999021999006101999999MA1101401999999REMMET058SPECI SBLP 021615Z 29006KT 9999 FEW020 BKN100 29/20 Q1014=
0152832880999992017020218004-13251-043405FM-12+044099999V0203201N0015199999999020000199+03111+02371100851ADDAA101999999AZ101061AZ201061GA1031+006001081GA2999+999999031GE19MSL   +99999+99999GF106991031999006001999999MA1999999096081MD1999999+0291REMSYN004BUFR
0165832880999992017020218004-13262-043408FM-15+044399999V0209999C000010304819N009999199+03201+02001999999ADDGA1021+006101999GA2071+030481999GE19MSL   +99999+99999GF199999021999006101999999MA1101201999999REMMET058METAR SBLP 021800Z 00000KT 9999 FEW020 BKN100 32/20 Q1012=
0165832880999992017020219004-13262-043408FM-15+044399999V0202801N003110304819N009999199+03101+02001999999ADDGA1021+009141999GA2071+030481999GE19MSL   +99999+99999GF199999021999009141999999MA1101101999999REMMET058METAR SBLP 021900Z 28006KT 9999 FEW030 BKN100 31/20 Q1011=
0165832880999992017020219454-13262-043408FM-16+044399999V0203001N00311030481CN009999199+03101+02101999999ADDGA1021+009141999GA2041+030481999GE19MSL   +99999+99999GF199999021999009141999999MA1101101999999REMMET058SPECI SBLP 021945Z 30006KT 9999 FEW030 SCT100 31/21 Q1011=
0181832880999992017020312004-13251-043405FM-12+044099999V0201401N0015100600199020000199+02401+02101101401ADDAA101999999AZ101061AZ201061GA1061+006001061GA2999+999999031GA3999+999999101GE19MSL   +99999+99999GF108991061999006001999999KA1120N+02201MA1999999096521MD1999999+0091REMSYN004BUFR
0191832880999992017020312004-13262-043408FM-15+044399999V0201401N00461030481CN009999199+02501+02101999999ADDGA1021+006101999GA2021+012191081GA3041+030481999GE19MSL   +99999+99999GF199999021999006101999999MA1101701999999REMMET068METAR SBLP 031200Z 14009KT 9999 FEW020 FEW040TCU SCT100 25/21 Q1017=
0165832880999992017020314004-13262-043408FM-15+044399999V0209999C00001030481CN009999199+02901+02101999999ADDGA1021+009141999GA2041+030481999GE19MSL   +99999+99999GF199999021999009141999999MA1101601999999REMMET058METAR SBLP 031400Z 00000KT 9999 FEW030 SCT100 29/21 Q1016=
0165832880999992017020315004-13262-043408FM-15+044399999V0200901N00211030481CN009999199+03101+02101999999ADDGA1021+009141999GA2041+030481999GE19MSL   +99999+99999GF199999021999009141999999MA1101501999999REMMET058METAR SBLP 031500Z 09004KT 9999 FEW030 SCT100 31/21 Q1015=
0165832880999992017020316154-13262-043408FM-16+044399999V0200601N00151030481CN009999199+03301+02101999999ADDGA1021+009141999GA2041+030481999GE19MSL   +99999+99999GF199999021999009141999999MA1101401999999REMMET058SPECI SBLP 031615Z 06003KT 9999 FEW030 SCT100 33/21 Q1014=
0152832880999992017020318004-13251-043405FM-12+044099999V0203201N0010199999999020000199+03351+02381100791ADDAA101999999AZ101061AZ201061GA1041+006001081GA2999+999999051GE19MSL   +99999+99999GF106991041999006001999999MA1999999096001MD1999999-0081REMSYN004BUFR
0142832880999992017020318004-13262-043408FM-15+044399999V0200201N001519999999N009999199+03501+01901999999ADDGA1021+009141999GE19MSL   +99999+99999GF199999021999009141999999MA1101101999999REMMET051METAR SBLP 031800Z 02003KT 9999 FEW030 35/19 Q1011=
0142832880999992017020319004-13262-043408FM-15+044399999V0200701N001519999999N009999199+03601+01701999999ADDGA1021+009141999GE19MSL   +99999+99999GF199999021999009141999999MA1101001999999REMMET051METAR SBLP 031900Z 07003KT 9999 FEW030 36/17 Q1010=
0142832880999992017020319454-13262-043408FM-16+044399999V0200901N002619999999N009999199+03501+01801999999ADDGA1021+009141999GE19MSL   +99999+99999GF199999021999009141999999MA1101101999999REMMET051SPECI SBLP 031945Z 09005KT 9999 FEW030 35/18 Q1011=
0149832880999992017020412004-13251-043405FM-12+044099999V0202701N0015199999999020000199+02871+02311101171ADDAA101999999AZ101061AZ201061GA1999+080001011GE19MSL   +99999+99999GF102991999999080001999999KA1120N+02361MA1999999096331MD1999999-0191REMSYN004BUFR
0152832880999992017020418004-13251-043405FM-12+044099999V0200501N0015199999999020000199+02951+02161100661ADDAA101999999AZ101061AZ201061GA1031+017501081GA2999+999999031GE19MSL   +99999+99999GF107991031999017501999999MA1999999095851MD1999999-0151REMSYN004BUFR
0187832880999992017020512004-13251-043405FM-12+044099999V0203601N0000199999999004000199+02421+02361101211ADDAA124002031AY161061AY261061GA1041+006001061GA2999+999999041GA3999+999999101GE19MSL   +99999+99999GF108991041999006001999999KA1120N+02381MA1999999096341MD1999999+0011MW1031REMSYN004BUFR
0168832880999992017020518004-13251-043405FM-12+044099999V0202301N0005199999999020000199+03221+02481100671ADDAA101999999AZ101061AZ201061GA1021+006001081GA2999+999999041GA3999+999999021GE19MSL   +99999+99999GF106991021999006001999999MA1999999095901MD1999999-0051REMSYN004BUFR
0187832880999992017020612004-13251-043405FM-12+044099999V0202301N0010100600199002000199+02451+02311101261ADDAA124004031AY161061AY261061GA1081+006001071GA2999+999999101GA3999+999999101GE19MSL   +99999+99999GF108991081999006001999999KA1120N+02241MA1999999096361MD1999999+0021MW1021REMSYN004BUFR
0136832880999992017020618004-13251-043405FM-12+044099999V0203201N0010100600199020000199+03371+02381100651ADDAA101999999AZ101061AZ201061GA1061+006001061GE19MSL   +99999+99999GF106991061999006001999999MA1999999095861MD1999999-0041REMSYN004BUFR
0171832880999992017020712004-13251-043405FM-12+044899999V0202301N0015199999999020000199+02321+02241101091ADDAA124010031AY151061AY251061GA1011+006001061GA2999+999999021GE19MSL   +99999+99999GF103991011999006001999999KA1120N+02311MA1999999096221MD1999999-0141MW1501REMSYN004BUFR
0175832880999992017020712004-13262-043408FM-15+044399999V0202401N003110304819N009999199+02401+02301999999ADDGA1021+006101999GA2071+030481999GE19MSL   +99999+99999GF199999021999006101999999MA1101401999999MW1611REMMET062METAR SBLP 071200Z 24006KT 9999 -RA FEW020 BKN100 24/23 Q1014=
0165832880999992017020713004-13262-043408FM-15+044399999V0202201N004110304819N009999199+02401+02201999999ADDGA1041+006101999GA2071+030481999GE19MSL   +99999+99999GF199999041999006101999999MA1101501999999REMMET058METAR SBLP 071300Z 22008KT 9999 SCT020 BKN100 24/22 Q1015=
0165832880999992017020714004-13262-043408FM-15+044399999V0202301N003610304819N009999199+02401+02201999999ADDGA1041+006101999GA2071+030481999GE19MSL   +99999+99999GF199999041999006101999999MA1101501999999REMMET058METAR SBLP 071400Z 23007KT 9999 SCT020 BKN100 24/22 Q1015=
0165832880999992017020715004-13262-043408FM-15+044399999V0202601N003110304819N009999199+02501+02201999999ADDGA1041+006101999GA2071+030481999GE19MSL   +99999+99999GF199999041999006101999999MA1101401999999REMMET058METAR SBLP 071500Z 26006KT 9999 SCT020 BKN100 25/22 Q1014=
0165832880999992017020717004-13262-043408FM-15+044399999V0202701N002110304819N009999199+02801+02201999999ADDGA1041+006101999GA2071+030481999GE19MSL   +99999+99999GF199999041999006101999999MA1101201999999REMMET058METAR SBLP 071700Z 27004KT 9999 SCT020 BKN100 28/22 Q1012=
0136832880999992017020718004-13251-043405FM-12+044899999V0201801N0015199999999020000199+02821+02291100741ADDAA101999999AZ101061AZ201061GA1999+080001021GE19MSL   +99999+99999GF107991999999080001999999MA1999999095911MD1999999+0051REMSYN004BUFR
0165832880999992017020719004-13262-043408FM-15+044399999V0201801N00311030481CN009999199+02901+02201999999ADDGA1021+006101999GA2041+030481999GE19MSL   +99999+99999GF199999021999006101999999MA1101101999999REMMET058METAR SBLP 071900Z 18006KT 9999 FEW020 SCT100 29/22 Q1011=
0181832880999992017020812004-13251-043405FM-12+044899999V0200901N0005199999999020000199+02411+02201101101ADDAA101999999AZ101061AZ201061GA1041+006001081GA2999+999999031GA3999+999999001GE19MSL   +99999+99999GF107991041999006001999999KA1120N+02321MA1999999096221MD1999999+0001REMSYN004BUFR
0165832880999992017020812004-13262-043408FM-15+044399999V0200701N003110304819N009999199+02501+02301999999ADDGA1021+006101999GA2071+030481999GE19MSL   +99999+99999GF199999021999006101999999MA1101501999999REMMET058METAR SBLP 081200Z 07006KT 9999 FEW020 BKN100 25/23 Q1015=
0165832880999992017020813004-13262-043408FM-15+044399999V0200601N002610304819N009999199+02701+02201999999ADDGA1021+006101999GA2071+030481999GE19MSL   +99999+99999GF199999021999006101999999MA1101501999999REMMET058METAR SBLP 081300Z 06005KT 9999 FEW020 BKN100 27/22 Q1015=
0165832880999992017020814004-13262-043408FM-15+044399999V0200901N00311009141CN009999199+03001+02301999999ADDGA1021+006101999GA2041+009141999GE19MSL   +99999+99999GF199999021999006101999999MA1101401999999REMMET058METAR SBLP 081400Z 09006KT 9999 FEW020 SCT030 30/23 Q1014=
0165832880999992017020815004-13262-043408FM-15+044399999V0200101N00261009141CN009999199+03201+02201999999ADDGA1021+006101999GA2041+009141999GE19MSL   +99999+99999GF199999021999006101999999MA1101301999999REMMET058METAR SBLP 081500Z 01005KT 9999 FEW020 SCT030 32/22 Q1013=
0191832880999992017020817004-13262-043408FM-15+044399999V0209999C000019999999N009999199+03201+02101999999ADDGA1041+009141999GA2021+012191081GA3041+030481999GE19MSL   +99999+99999GF199999041999009141999999MA1101101999999REMMET068METAR SBLP 081700Z 00000KT 9999 SCT030 FEW040TCU SCT100 32/21 Q1011=
0152832880999992017020818004-13251-043405FM-12+044899999V0202301N0015100600199020000199+03001+02411100711ADDAA101999999AZ101061AZ201061GA1051+006001061GA2999+999999031GE19MSL   +99999+99999GF107991051999006001999999MA1999999095871MD1999999-0041REMSYN004BUFR
0191832880999992017020818004-13262-043408FM-15+044399999V0202001N003619999999N009999199+03001+02301999999ADDGA1041+009141999GA2021+012191081GA3041+030481999GE19MSL   +99999+99999GF199999041999009141999999MA1101001999999REMMET068METAR SBLP 081800Z 20007KT 9999 SCT030 FEW040TCU SCT100 30/23 Q1010=
0202832880999992017020819004-13262-043408FM-15+044399999V0202701N005110304819N009999199+02301+02101999999ADDGA1041+009141999GA2021+012191091GA3071+030481999GE19MSL   +99999+99999GF199999041999009141999999MA1101101999999MW1951REMMET073METAR SBLP 081900Z 27010KT 9999 -TSRA SCT030 FEW040CB BKN100 23/21 Q1011=
0181832880999992017020912004-13251-043405FM-12+044899999V0201401N0010100600199020000199+02611+02281101151ADDAA124007031AZ101061AZ201061GA1081+006001061GA2999+999999101GA3999+999999101GE19MSL   +99999+99999GF108991081999006001999999KA1120N+02291MA1999999096261MD1999999+0041REMSYN004BUFR
0188832880999992017020913004-13262-043408FM-15+044399999V0201601N00211009141CN009999199+02801+02201999999ADDGA1021+006101999GA2041+009141999GA3071+030481999GE19MSL   +99999+99999GF199999021999006101999999MA1101401999999REMMET065METAR SBLP 091300Z 16004KT 9999 FEW020 SCT030 BKN100 28/22 Q1014=
0188832880999992017020914004-13262-043408FM-15+044399999V0209999C00001009141CN009999199+02901+02301999999ADDGA1041+006101999GA2041+009141999GA3071+030481999GE19MSL   +99999+99999GF199999041999006101999999MA1101401999999REMMET065METAR SBLP 091400Z 00000KT 9999 SCT020 SCT030 BKN100 29/23 Q1014=
0199832880999992017020915004-13262-043408FM-15+044399999V0209999C000010304819N009999199+03001+02101999999ADDGA1041+006101999GA2021+012191091GA3071+030481999GE19MSL   +99999+99999GF199999041999006101999999MA1101301999999MW1171REMMET070METAR SBLP 091500Z 00000KT 9999 TS SCT020 FEW040CB BKN100 30/21 Q1013=
0202832880999992017020917004-13262-043408FM-15+044399999V0202401N003110304819N009999199+02901+02301999999ADDGA1041+009141999GA2021+012191091GA3071+030481999GE19MSL   +99999+99999GF199999041999009141999999MA1101101999999MW1951REMMET073METAR SBLP 091700Z 24006KT 9999 -TSRA SCT030 FEW040CB BKN100 29/23 Q1011=
0168832880999992017020918004-13251-043405FM-12+044899999V0200901N0015100600199020000199+02751+02351100781ADDAA101999999AZ101061AZ201061GA1061+006001061GA2999+999999031GA3999+999999101GE19MSL   +99999+99999GF108991061999006001999999MA1999999095911MD1999999+0041REMSYN004BUFR
0196832880999992017020918004-13262-043408FM-15+044399999V0201801N005110304819N009999199+02801+02301999999ADDGA1021+009141999GA2021+012191081GA3071+030481999GE19MSL   +99999+99999GF199999021999009141999999MA1101101999999REMMET073METAR SBLP 091800Z 18010KT 9999 FEW030 FEW040TCU BKN100 28/23 Q1011 RETS=
0191832880999992017020919004-13262-043408FM-15+044399999V0201701N006210304819N009999199+02701+02301999999ADDGA1021+009141999GA2021+012191081GA3071+030481999GE19MSL   +99999+99999GF199999021999009141999999MA1101001999999REMMET068METAR SBLP 091900Z 17012KT 9999 FEW030 FEW040TCU BKN100 27/23 Q1010=
0165832880999992017021012004-13251-043405FM-12+044899999V0203601N0000100300199020000199+02471+02251101201ADDAA124000831AZ101061AZ201061GA1071+003001061GA2999+999999021GE19MSL   +99999+99999GF108991071999003001999999KA1120N+02241MA1999999096301MD1999999+0041REMSYN004BUFR
0165832880999992017021012004-13262-043408FM-15+044399999V0209999C000010061019N009999199+02501+02201999999ADDGA1071+006101999GA2071+030481999GE19MSL   +99999+99999GF199999071999006101999999MA1101501999999REMMET058METAR SBLP 101200Z 00000KT 9999 BKN020 BKN100 25/22 Q1015=
0165832880999992017021013004-13262-043408FM-15+044399999V0202701N002110061019N009999199+02701+02201999999ADDGA1071+006101999GA2071+030481999GE19MSL   +99999+99999GF199999071999006101999999MA1101501999999REMMET058METAR SBLP 101300Z 27004KT 9999 BKN020 BKN100 27/22 Q1015=
0165832880999992017021014004-13262-043408FM-15+044399999V0202201N001510304819N009999199+02701+02301999999ADDGA1041+006101999GA2071+030481999GE19MSL   +99999+99999GF199999041999006101999999MA1101501999999REMMET058METAR SBLP 101400Z 22003KT 9999 SCT020 BKN100 27/23 Q1015=
0165832880999992017021015004-13262-043408FM-15+044399999V0202001N003110304819N009999199+02901+02201999999ADDGA1041+006101999GA2071+030481999GE19MSL   +99999+99999GF199999041999006101999999MA1101501999999REMMET058METAR SBLP 101500Z 20006KT 9999 SCT020 BKN100 29/22 Q1015=
0191832880999992017021017004-13262-043408FM-15+044399999V0201501N002110304819N009999199+03101+02101999999ADDGA1041+009141999GA2021+012191081GA3071+030481999GE19MSL   +99999+99999GF199999041999009141999999MA1101201999999REMMET068METAR SBLP 101700Z 15004KT 9999 SCT030 FEW040TCU BKN100 31/21 Q1012=
0158832880999992017021018004-13251-043405FM-12+044899999V0200901N0026100300199020000199+02401+02291100731ADDAA106003031AY161061AY251061GA1061+003001061GA2999+999999021GE19MSL   +99999+99999GF108991061999003001999999MA1999999096021MD1999999+0111MW1631REMSYN004BUFR
0199832880999992017021019004-13262-043408FM-15+044399999V0201401N005110304819N009999199+02501+02201999999ADDGA1041+006101999GA2021+012191091GA3071+030481999GE19MSL   +99999+99999GF199999041999006101999999MA1101201999999MW1171REMMET070METAR SBLP 101900Z 14010KT 9999 TS SCT020 FEW040CB BKN100 25/22 Q1012=
0187832880999992017021112004-13251-043405FM-12+044899999V0201801N0010100600199020000199+02351+02241101221ADDAA124007031AY161061AY261061GA1051+006001061GA2999+999999041GA3999+999999101GE19MSL   +99999+99999GF108991051999006001999999KA1120N+02261MA1999999096301MD1999999+0001MW1021REMSYN004BUFR
0152832880999992017021118004-13251-043405FM-12+044899999V0201801N0015199999999020000199+02911+02261100821ADDAA101999999AZ101061AZ201061GA1041+006001061GA2999+999999031GE19MSL   +99999+99999GF106991041999006001999999MA1999999095871MD1999999-0151REMSYN004BUFR
0187832880999992017021212004-13251-043405FM-12+044899999V0203601N0005199999999020000199+02471+02331101041ADDAA124004031AY151061AY251061GA1041+006001061GA2999+999999041GA3999+999999101GE19MSL   +99999+99999GF108991041999006001999999KA1120N+02221MA1999999096141MD1999999+0161MW1031REMSYN004BUFR
0168832880999992017021218004-13251-043405FM-12+044899999V0203201N0015100600199020000199+03101+01241100701ADDAA101999999AZ101061AZ201061GA1081+006001061GA2999+999999101GA3999+999999101GE19MSL   +99999+99999GF108991081999006001999999MA1999999095871MD1999999+0001REMSYN004BUFR
0149832880999992017021312004-13251-043405FM-12+044899999V0200501N0015199999999020000199+02651+02091101031ADDAA101999999AZ101061AZ201061GA1999+080001011GE19MSL   +99999+99999GF106991999999080001999999KA1120N+02221MA1999999096171MD1999999+0031REMSYN004BUFR
0165832880999992017021312004-13262-043408FM-15+044399999V0200101N00311030481CN009999199+02801+02001999999ADDGA1021+009141999GA2041+030481999GE19MSL   +99999+99999GF199999021999009141999999MA1101401999999REMMET058METAR SBLP 131200Z 01006KT 9999 FEW030 SCT100 28/20 Q1014=
0165832880999992017021313004-13262-043408FM-15+044399999V0201101N00461030481CN009999199+03001+01901999999ADDGA1021+006101999GA2041+030481999GE19MSL   +99999+99999GF199999021999006101999999MA1101401999999REMMET058METAR SBLP 131300Z 11009KT 9999 FEW020 SCT100 30/19 Q1014=
0165832880999992017021315004-13262-043408FM-15+044399999V0200301N00411030481CN009999199+03201+01901999999ADDGA1041+009141999GA2041+030481999GE19MSL   +99999+99999GF199999041999009141999999MA1101301999999REMMET058METAR SBLP 131500Z 03008KT 9999 SCT030 SCT100 32/19 Q1013=
0168832880999992017021317004-13262-043408FM-15+044399999V0209999C000019999999N009999199+03301+01801999999ADDGA1041+009141999GA2021+012191081GE19MSL   +99999+99999GF199999041999009141999999MA1101101999999REMMET061METAR SBLP 131700Z 00000KT 9999 SCT030 FEW040TCU 33/18 Q1011=
0136832880999992017021318004-13251-043405FM-12+044899999V0200901N0021100600199020000199+03251+02161100641ADDAA101999999AZ101061AZ201061GA1051+006001081GE19MSL   +99999+99999GF105991051999006001999999MA1999999095831MD1999999-0041REMSYN004BUFR
0168832880999992017021318004-13262-043408FM-15+044399999V0201201N003119999999N009999199+03401+01801999999ADDGA1041+009141999GA2021+012191081GE19MSL   +99999+99999GF199999041999009141999999MA1101001999999REMMET061METAR SBLP 131800Z 12006KT 9999 SCT030 FEW040TCU 34/18 Q1010=
0142832880999992017021319004-13262-043408FM-15+044399999V0201401N004119999999N009999199+03401+01801999999ADDGA1021+009141999GE19MSL   +99999+99999GF199999021999009141999999MA1100901999999REMMET051METAR SBLP 131900Z 14008KT 9999 FEW030 34/18 Q1009=
0165832880999992017021412004-13251-043405FM-12+044899999V0201401N0015199999999020000199+02701+01771101341ADDAA124002031AZ101061AZ201061GA1011+006001081GA2999+999999031GE19MSL   +99999+99999GF102991011999006001999999KA1120N+02161MA1999999096481MD1999999-0311REMSYN004BUFR
0072832880999992017021412004-13262-043408FM-15+044399999V0201201N003119999999Y999999999+02801+01601999999ADDMA1101701999999REMMET045METAR SBLP 141200Z 12006KT CAVOK 28/16 Q1017=
0072832880999992017021413004-13262-043408FM-15+044399999V0201901N002619999999Y999999999+03101+01501999999ADDMA1101701999999REMMET045METAR SBLP 141300Z 19005KT CAVOK 31/15 Q1017=
0072832880999992017021414004-13262-043408FM-15+044399999V0209999C000019999999Y999999999+03101+01601999999ADDMA1101701999999REMMET045METAR SBLP 141400Z 00000KT CAVOK 31/16 Q1017=
0072832880999992017021415004-13262-043408FM-15+044399999V0201101N003119999999Y999999999+03301+01501999999ADDMA1101601999999REMMET045METAR SBLP 141500Z 11006KT CAVOK 33/15 Q1016=
0142832880999992017021417004-13262-043408FM-15+044399999V0202101N003119999999N009999199+03401+01601999999ADDGA1021+009141999GE19MSL   +99999+99999GF199999021999009141999999MA1101501999999REMMET051METAR SBLP 141700Z 21006KT 9999 FEW030 34/16 Q1015=
0152832880999992017021418004-13251-043405FM-12+044899999V0201401N0010199999999020000199+03271+02071100981ADDAA101999999AZ101061AZ201061GA1011+006001081GA2999+999999031GE19MSL   +99999+99999GF102991011999006001999999MA1999999096191MD1999999+0361REMSYN004BUFR
0142832880999992017021419004-13262-043408FM-15+044399999V0202001N003119999999N009999199+03501+01501999999ADDGA1021+009141999GE19MSL   +99999+99999GF199999021999009141999999MA1101301999999REMMET051METAR SBLP 141900Z 20006KT 9999 FEW030 35/15 Q1013=
0181832880999992017021512004-13251-043405FM-12+044899999V0200901N0005100600199020000199+02401+02141101811ADDAA124002031AZ101061AZ201061GA1081+006001061GA2999+999999101GA3999+999999101GE19MSL   +99999+99999GF108991081999006001999999KA1120N+02191MA1999999096871MD1999999+0391REMSYN004BUFR
0165832880999992017021512004-13262-043408FM-15+044399999V0201901N00311030481CN009999199+02501+02001999999ADDGA1021+006101999GA2041+030481999GE19MSL   +99999+99999GF199999021999006101999999MA1101901999999REMMET058METAR SBLP 151200Z 19006KT 9999 FEW020 SCT100 25/20 Q1019=
0165832880999992017021513004-13262-043408FM-15+044399999V0201801N00311030481CN009999199+02701+01901999999ADDGA1021+006101999GA2041+030481999GE19MSL   +99999+99999GF199999021999006101999999MA1102001999999REMMET058METAR SBLP 151300Z 18006KT 9999 FEW020 SCT100 27/19 Q1020=
0165832880999992017021515004-13262-043408FM-15+044399999V0201801N005110304819N009999199+03001+01801999999ADDGA1021+006101999GA2071+030481999GE19MSL   +99999+99999GF199999021999006101999999MA1101901999999REMMET058METAR SBLP 151500Z 18010KT 9999 FEW020 BKN100 30/18 Q1019=
0165832880999992017021517004-13262-043408FM-15+044399999V0202001N005110304819N009999199+02901+01901999999ADDGA1021+006101999GA2071+030481999GE19MSL   +99999+99999GF199999021999006101999999MA1101801999999REMMET058METAR SBLP 151700Z 20010KT 9999 FEW020 BKN100 29/19 Q1018=
0168832880999992017021518004-13251-043405FM-12+044899999V0201401N0005100600199020000199+02811+02071101401ADDAA101999999AZ101061AZ201061GA1081+006001071GA2999+999999101GA3999+999999101GE19MSL   +99999+99999GF108991081999006001999999MA1999999096511MD1999999+0321REMSYN004BUFR
0165832880999992017021518004-13262-043408FM-15+044399999V0201201N004610304819N009999199+02901+01701999999ADDGA1021+006101999GA2071+030481999GE19MSL   +99999+99999GF199999021999006101999999MA1101701999999REMMET058METAR SBLP 151800Z 12009KT 9999 FEW020 BKN100 29/17 Q1017=
0165832880999992017021519004-13262-043408FM-15+044399999V0209999C000010304819N009999199+02901+01801999999ADDGA1021+006101999GA2071+030481999GE19MSL   +99999+99999GF199999021999006101999999MA1101701999999REMMET058METAR SBLP 151900Z 00000KT 9999 FEW020 BKN100 29/18 Q1017=
0149832880999992017021612004-13251-043405FM-12+044899999V0201401N0026199999999020000199+02611+01941101501ADDAA101999999AZ101061AZ201061GA1999+080001011GE19MSL   +99999+99999GF104991999999080001999999KA1120N+02241MA1999999096601MD1999999-0271REMSYN004BUFR
0072832880999992017021612004-13262-043408FM-15+044399999V0201201N002619999999Y999999999+02801+01801999999ADDMA1101801999999REMMET045METAR SBLP 161200Z 12005KT CAVOK 28/18 Q1018=
0142832880999992017021613004-13262-043408FM-15+044399999V0201501N005119999999N009999199+02901+01901999999ADDGA1021+006101999GE19MSL   +99999+99999GF199999021999006101999999MA1101801999999REMMET051METAR SBLP 161300Z 15010KT 9999 FEW020 29/19 Q1018=
0142832880999992017021614004-13262-043408FM-15+044399999V0201701N003619999999N009999199+03001+01901999999ADDGA1021+006101999GE19MSL   +99999+99999GF199999021999006101999999MA1101801999999REMMET051METAR SBLP 161400Z 17007KT 9999 FEW020 30/19 Q1018=
0142832880999992017021615004-13262-043408FM-15+044399999V0201701N007719999999N009999199+03201+01801999999ADDGA1021+009141999GE19MSL   +99999+99999GF199999021999009141999999MA1101701999999REMMET051METAR SBLP 161500Z 17015KT 9999 FEW030 32/18 Q1017=
0142832880999992017021617004-13262-043408FM-15+044399999V0201501N006219999999N009999199+03401+01801999999ADDGA1041+009141999GE19MSL   +99999+99999GF199999041999009141999999MA1101501999999REMMET051METAR SBLP 161700Z 15012KT 9999 SCT030 34/18 Q1015=
0136832880999992017021618004-13251-043405FM-12+044899999V0201801N0026199999999020000199+03351+02151101041ADDAA101999999AZ101061AZ201061GA1031+006001081GE19MSL   +99999+99999GF103991031999006001999999MA1999999096231MD1999999-0281REMSYN004BUFR
0142832880999992017021618004-13262-043408FM-15+044399999V0201801N002619999999N009999199+03401+01801999999ADDGA1041+009141999GE19MSL   +99999+99999GF199999041999009141999999MA1101401999999REMMET051METAR SBLP 161800Z 18005KT 9999 SCT030 34/18 Q1014=
0142832880999992017021619004-13262-043408FM-15+044399999V0201801N005119999999N009999199+03401+01801999999ADDGA1041+009141999GE19MSL   +99999+99999GF199999041999009141999999MA1101401999999REMMET051METAR SBLP 161900Z 18010KT 9999 SCT030 34/18 Q1014=
0181832880999992017021712004-13251-043405FM-12+044899999V0201801N0015100600199020000199+02551+02101101291ADDAA101999999AZ101061AZ201061GA1061+006001081GA2999+999999041GA3999+999999101GE19MSL   +99999+99999GF108991061999006001999999KA1120N+02281MA1999999096441MD1999999-0161REMSYN004BUFR
0165832880999992017021712004-13262-043408FM-15+044399999V0202001N004610304819N009999199+02701+02001999999ADDGA1041+006101999GA2071+030481999GE19MSL   +99999+99999GF199999041999006101999999MA1101701999999REMMET058METAR SBLP 171200Z 20009KT 9999 SCT020 BKN100 27/20 Q1017=
0165832880999992017021713004-13262-043408FM-15+044399999V0201701N00311030481CN009999199+03001+01901999999ADDGA1021+006101999GA2041+030481999GE19MSL   +99999+99999GF199999021999006101999999MA1101701999999REMMET058METAR SBLP 171300Z 17006KT 9999 FEW020 SCT100 30/19 Q1017=
0165832880999992017021715004-13262-043408FM-15+044399999V0201801N005110304819N009999199+03101+02001999999ADDGA1021+009141999GA2071+030481999GE19MSL   +99999+99999GF199999021999009141999999MA1101601999999REMMET058METAR SBLP 171500Z 18010KT 9999 FEW030 BKN100 31/20 Q1016=
0165832880999992017021717004-13262-043408FM-15+044399999V0201601N004610304819N009999199+03301+01901999999ADDGA1021+009141999GA2071+030481999GE19MSL   +99999+99999GF199999021999009141999999MA1101401999999REMMET058METAR SBLP 171700Z 16009KT 9999 FEW030 BKN100 33/19 Q1014=
0152832880999992017021718004-13251-043405FM-12+044899999V0201401N0010199999999020000199+03201+02141100951ADDAA101999999AZ101061AZ201061GA1031+006001081GA2999+999999051GE19MSL   +99999+99999GF107991031999006001999999MA1999999096151MD1999999-0081REMSYN004BUFR
0165832880999992017021719004-13262-043408FM-15+044399999V0202101N003110304819N009999199+03201+01801999999ADDGA1021+006101999GA2071+030481999GE19MSL   +99999+99999GF199999021999006101999999MA1101301999999REMMET058METAR SBLP 171900Z 21006KT 9999 FEW020 BKN100 32/18 Q1013=
0181832880999992017021812004-13251-043405FM-12+044899999V0200901N0005100600199020000199+02721+02111101251ADDAA101999999AZ101061AZ201061GA1061+006001061GA2999+999999031GA3999+999999101GE19MSL   +99999+99999GF108991061999006001999999KA1120N+02321MA1999999096421MD1999999-0021REMSYN004BUFR
0168832880999992017021818004-13251-043405FM-12+044899999V0202301N0005100600199020000199+03351+02191100971ADDAA101999999AZ101061AZ201061GA1081+006001061GA2999+999999101GA3999+999999101GE19MSL   +99999+99999GF108991081999006001999999MA1999999096171MD1999999+0021REMSYN004BUFR
0149832880999992017021912004-13251-043405FM-12+044899999V0201401N0015199999999020000199+02771+02041101301ADDAA124002031AZ101061AZ201061GA1999+080001011GE19MSL   +99999+99999GF101991999999080001999999KA1120N+02321MA1999999096461MD1999999+0041REMSYN004BUFR
0136832880999992017021918004-13251-043405FM-12+044899999V0201401N0026199999999020000199+03401+02141100971ADDAA101999999AZ101061AZ201061GA1021+006001081GE19MSL   +99999+99999GF102991021999006001999999MA1999999096101MD1999999-0071REMSYN004BUFR
0181832880999992017022012004-13251-043405FM-12+044899999V0200901N0005199999999020000199+02811+02041101301ADDAA101999999AZ101061AZ201061GA1011+006001081GA2999+999999031GA3999+999999001GE19MSL   +99999+99999GF103991011999006001999999KA1120N+02241MA1999999096481MD1999999+0021REMSYN004BUFR
0072832880999992017022012004-13262-043408FM-15+044399999V0201001N003119999999Y999999999+03001+01801999999ADDMA1101701999999REMMET045METAR SBLP 201200Z 10006KT CAVOK 30/18 Q1017=
0072832880999992017022013004-13262-043408FM-15+044399999V0201801N003119999999Y999999999+03201+01801999999ADDMA1101701999999REMMET045METAR SBLP 201300Z 18006KT CAVOK 32/18 Q1017=
0142832880999992017022014004-13262-043408FM-15+044399999V0201901N003119999999N009999199+03301+01701999999ADDGA1021+009141999GE19MSL   +99999+99999GF199999021999009141999999MA1101601999999REMMET051METAR SBLP 201400Z 19006KT 9999 FEW030 33/17 Q1016=
0142832880999992017022015004-13262-043408FM-15+044399999V0201701N002619999999N009999199+03501+01701999999ADDGA1021+009141999GE19MSL   +99999+99999GF199999021999009141999999MA1101501999999REMMET051METAR SBLP 201500Z 17005KT 9999 FEW030 35/17 Q1015=
0142832880999992017022017004-13262-043408FM-15+044399999V0202701N003619999999N009999199+03501+01701999999ADDGA1041+009141999GE19MSL   +99999+99999GF199999041999009141999999MA1101301999999REMMET051METAR SBLP 201700Z 27007KT 9999 SCT030 35/17 Q1013=
0136832880999992017022018004-13251-043405FM-12+044899999V0201801N0005199999999020000199+03271+02131100811ADDAA101999999AZ101061AZ201061GA1041+006001081GE19MSL   +99999+99999GF104991041999006001999999MA1999999096041MD1999999-0061REMSYN004BUFR
0142832880999992017022018004-13262-043408FM-15+044399999V0202001N006210091419N009999199+03401+01701999999ADDGA1071+009141999GE19MSL   +99999+99999GF199999071999009141999999MA1101201999999REMMET051METAR SBLP 201800Z 20012KT 9999 BKN030 34/17 Q1012=
0165832880999992017022019004-13262-043408FM-15+044399999V0201901N00311009141CN009999199+03501+01801999999ADDGA1021+006101999GA2041+009141999GE19MSL   +99999+99999GF199999021999006101999999MA1101201999999REMMET058METAR SBLP 201900Z 19006KT 9999 FEW020 SCT030 35/18 Q1012=
0149832880999992017022112004-13251-043405FM-12+044899999V0201801N0005101250199020000199+02771+01981101321ADDAA101999999AZ101061AZ201061GA1061+012501031GE19MSL   +99999+99999GF106991061999012501999999KA1120N+02281MA1999999096481MD1999999+0001REMSYN004BUFR
0072832880999992017022112004-13262-043408FM-15+044399999V0201201N003119999999Y999999999+02901+01801999999ADDMA1101701999999REMMET045METAR SBLP 211200Z 12006KT CAVOK 29/18 Q1017=
0142832880999992017022113004-13262-043408FM-15+044399999V0209999C000019999999N009999199+03101+01801999999ADDGA1021+009141999GE19MSL   +99999+99999GF199999021999009141999999MA1101601999999REMMET051METAR SBLP 211300Z 00000KT 9999 FEW030 31/18 Q1016=
0142832880999992017022114004-13262-043408FM-15+044399999V0209999C000019999999N009999199+03301+01801999999ADDGA1021+009141999GE19MSL   +99999+99999GF199999021999009141999999MA1101601999999REMMET051METAR SBLP 211400Z 00000KT 9999 FEW030 33/18 Q1016=
0142832880999992017022115004-13262-043408FM-15+044399999V0201401N004119999999N009999199+03401+01901999999ADDGA1041+009141999GE19MSL   +99999+99999GF199999041999009141999999MA1101501999999REMMET051METAR SBLP 211500Z 14008KT 9999 SCT030 34/19 Q1015=
0168832880999992017022117004-13262-043408FM-15+044399999V0202701N001519999999N009999199+03401+01801999999ADDGA1041+009141999GA2021+012191081GE19MSL   +99999+99999GF199999041999009141999999MA1101301999999REMMET061METAR SBLP 211700Z 27003KT 9999 SCT030 FEW040TCU 34/18 Q1013=
0168832880999992017022118004-13251-043405FM-12+044899999V0200901N0010100600199020000199+03001+02051101011ADDAA101999999AZ101061AZ201061GA1081+006001071GA2999+999999101GA3999+999999101GE19MSL   +99999+99999GF108991081999006001999999MA1999999096211MD1999999+0171REMSYN004BUFR
0201832880999992017022118004-13262-043408FM-15+044399999V0201301N00881009141CN009000199+03201+01901999999ADDGA1021+006101999GA2041+009141999GA3021+012191091GE19MSL   +99999+99999GF199999021999006101999999MA1101401999999MW1951REMMET072METAR SBLP 211800Z 13017KT 9000 TSRA FEW020 SCT030 FEW040CB 32/19 Q1014=
0204832880999992017022119004-13262-043408FM-15+044399999V0202101N00151009141CN009999199+02402+02101999999ADDGA1021+006101999GA2041+009141999GA3021+012191091GE19MSL   +99999+99999GF199999021999006101999999MA1101301999999MW1171REMMET075METAR SBLP 211900Z 21003KT 9999 TS FEW020 SCT030 FEW040CB 24/21 Q1013 RERA=
0149832880999992017022212004-13251-043405FM-12+044899999V0201401N0021199999999020000199+02621+02031101371ADDAA124009031AZ101061AZ201061GA1011+006001081GE19MSL   +99999+99999GF101991011999006001999999KA1120N+02241MA1999999096471MD1999999-0011REMSYN004BUFR
0142832880999992017022212004-13262-043408FM-15+044399999V0201901N003619999999N009999199+02801+01901999999ADDGA1021+009141999GE19MSL   +99999+99999GF199999021999009141999999MA1101701999999REMMET051METAR SBLP 221200Z 19007KT 9999 FEW030 28/19 Q1017=
0142832880999992017022215004-13262-043408FM-15+044399999V0209999C000019999999N009999199+03101+02001999999ADDGA1041+009141999GE19MSL   +99999+99999GF199999041999009141999999MA1101601999999REMMET051METAR SBLP 221500Z 00000KT 9999 SCT030 31/20 Q1016=
0142832880999992017022217004-13262-043408FM-15+044399999V0201901N003619999999N009999199+03401+01901999999ADDGA1041+009141999GE19MSL   +99999+99999GF199999041999009141999999MA1101301999999REMMET051METAR SBLP 221700Z 19007KT 9999 SCT030 34/19 Q1013=
0136832880999992017022218004-13251-043405FM-12+044899999V0201401N0026199999999020000199+03151+02071100901ADDAA101999999AZ101061AZ201061GA1041+006001081GE19MSL   +99999+99999GF104991041999006001999999MA1999999096071MD1999999-0141REMSYN004BUFR
0142832880999992017022218004-13262-043408FM-15+044399999V0201901N005119999999N009999199+03301+01801999999ADDGA1041+009141999GE19MSL   +99999+99999GF199999041999009141999999MA1101201999999REMMET051METAR SBLP 221800Z 19010KT 9999 SCT030 33/18 Q1012=
0142832880999992017022219004-13262-043408FM-15+044399999V0202101N005119999999N009999199+03401+01901999999ADDGA1041+009141999GE19MSL   +99999+99999GF199999041999009141999999MA1101201999999REMMET051METAR SBLP 221900Z 21010KT 9999 SCT030 34/19 Q1012=
0149832880999992017022312004-13251-043405FM-12+044899999V0202301N0005199999999020000199+02701+02051101351ADDAA101999999AZ101061AZ201061GA1011+006001081GE19MSL   +99999+99999GF101991011999006001999999KA1120N+02121MA1999999096501MD1999999+0031REMSYN004BUFR
0142832880999992017022312004-13262-043408FM-15+044399999V0201701N003119999999N009999199+02901+01901999999ADDGA1021+009141999GE19MSL   +99999+99999GF199999021999009141999999MA1101701999999REMMET051METAR SBLP 231200Z 17006KT 9999 FEW030 29/19 Q1017=
0142832880999992017022313004-13262-043408FM-15+044399999V0201901N002119999999N009999199+03001+01901999999ADDGA1021+009141999GE19MSL   +99999+99999GF199999021999009141999999MA1101701999999REMMET051METAR SBLP 231300Z 19004KT 9999 FEW030 30/19 Q1017=
0142832880999992017022314004-13262-043408FM-15+044399999V0202701N002119999999N009999199+03101+01801999999ADDGA1021+009141999GE19MSL   +99999+99999GF199999021999009141999999MA1101701999999REMMET051METAR SBLP 231400Z 27004KT 9999 FEW030 31/18 Q1017=
0142832880999992017022315004-13262-043408FM-15+044399999V0202001N002619999999N009999199+03201+01901999999ADDGA1041+009141999GE19MSL   +99999+99999GF199999041999009141999999MA1101601999999REMMET051METAR SBLP 231500Z 20005KT 9999 SCT030 32/19 Q1016=
0142832880999992017022317004-13262-043408FM-15+044399999V0202201N003119999999N009999199+03501+01801999999ADDGA1041+009141999GE19MSL   +99999+99999GF199999041999009141999999MA1101301999999REMMET051METAR SBLP 231700Z 22006KT 9999 SCT030 35/18 Q1013=
0152832880999992017022318004-13251-043405FM-12+044899999V0202301N0010199999999020000199+03361+01981100801ADDAA101999999AZ101061AZ201061GA1031+006001081GA2999+999999001GE19MSL   +99999+99999GF104991031999006001999999MA1999999096031MD1999999-0041REMSYN004BUFR
0142832880999992017022318004-13262-043408FM-15+044399999V0201901N003119999999N009999199+03401+01701999999ADDGA1041+009141999GE19MSL   +99999+99999GF199999041999009141999999MA1101201999999REMMET051METAR SBLP 231800Z 19006KT 9999 SCT030 34/17 Q1012=
0142832880999992017022319004-13262-043408FM-15+044399999V0201901N003619999999N009999199+03501+01701999999ADDGA1021+009141999GE19MSL   +99999+99999GF199999021999009141999999MA1101101999999REMMET051METAR SBLP 231900Z 19007KT 9999 FEW030 35/17 Q1011=
0149832880999992017022412004-13251-043405FM-12+044899999V0201401N0010199999999020000199+02851+02081101151ADDAA101999999AZ101061AZ201061GA1031+050001001GE19MSL   +99999+99999GF103991031999050001999999KA1120N+02181MA1999999096321MD1999999-0181REMSYN004BUFR
0072832880999992017022412004-13262-043408FM-15+044399999V0201801N004119999999Y999999999+03001+01901999999ADDMA1101501999999REMMET045METAR SBLP 241200Z 18008KT CAVOK 30/19 Q1015=
0072832880999992017022413004-13262-043408FM-15+044399999V0202001N003119999999Y999999999+03201+01901999999ADDMA1101501999999REMMET045METAR SBLP 241300Z 20006KT CAVOK 32/19 Q1015=
0142832880999992017022414004-13262-043408FM-15+044399999V0201201N002119999999N009999199+03301+01901999999ADDGA1021+009141999GE19MSL   +99999+99999GF199999021999009141999999MA1101501999999REMMET051METAR SBLP 241400Z 12004KT 9999 FEW030 33/19 Q1015=
0142832880999992017022415004-13262-043408FM-15+044399999V0209999C000019999999N009999199+03301+01901999999ADDGA1021+009141999GE19MSL   +99999+99999GF199999021999009141999999MA1101401999999REMMET051METAR SBLP 241500Z 00000KT 9999 FEW030 33/19 Q1014=
0142832880999992017022417004-13262-043408FM-15+044399999V0201401N002119999999N009999199+03501+01801999999ADDGA1021+009141999GE19MSL   +99999+99999GF199999021999009141999999MA1101201999999REMMET051METAR SBLP 241700Z 14004KT 9999 FEW030 35/18 Q1012=
0152832880999992017022418004-13251-043405FM-12+044899999V0200901N0005199999999020000199+03561+02181100661ADDAA101999999AZ101061AZ201061GA1031+006001091GA2999+999999031GE19MSL   +99999+99999GF105991031999006001999999MA1999999096021MD1999999-0011REMSYN004BUFR
0142832880999992017022418004-13262-043408FM-15+044399999V0202001N003619999999N009999199+03701+01601999999ADDGA1021+009141999GE19MSL   +99999+99999GF199999021999009141999999MA1101101999999REMMET051METAR SBLP 241800Z 20007KT 9999 FEW030 37/16 Q1011=
0176832880999992017022419004-13262-043408FM-15+044399999V0201701N003619999999N009999199+03701+01601999999ADDGA1021+009141999GA2021+012191091GE19MSL   +99999+99999GF199999021999009141999999MA1101001999999MW1171REMMET063METAR SBLP 241900Z 17007KT 9999 TS FEW030 FEW040CB 37/16 Q1010=
0149832880999992017022512004-13251-043405FM-12+044899999V0200901N0021199999999020000199+02911+02041101031ADDAA101999999AZ101061AZ201061GA1999+080001011GE19MSL   +99999+99999GF106991999999080001999999KA1120N+02401MA1999999096241MD1999999-0141REMSYN004BUFR
0136832880999992017022518004-13251-043405FM-12+044899999V0200501N0021100600199020000199+03221+02171100661ADDAA101999999AZ101061AZ201061GA1071+006001081GE19MSL   +99999+99999GF107991071999006001999999MA1999999095811MD1999999-0211REMSYN004BUFR
0181832880999992017022612004-13251-043405FM-12+044899999V0202301N0005199999999020000199+02621+02081101221ADDAA101999999AZ101061AZ201061GA1011+006001081GA2999+999999031GA3999+999999001GE19MSL   +99999+99999GF104991011999006001999999KA1120N+02321MA1999999096391MD1999999+0151REMSYN004BUFR
0168832880999992017022618004-13251-043405FM-12+044899999V0202701N0010199999999020000199+03261+02271100791ADDAA101999999AZ101061AZ201061GA1021+006001081GA2999+999999031GA3999+999999021GE19MSL   +99999+99999GF106991021999006001999999MA1999999096041MD1999999+0231REMSYN004BUFR
0149832880999992017022712004-13251-043405FM-12+044899999V0201401N0010199999999020000199+02801+02191101191ADDAA101999999AZ101061AZ201061GA1011+006001091GE19MSL   +99999+99999GF101991011999006001999999KA1120N+02271MA1999999096371MD1999999+0021REMSYN004BUFR
0072832880999992017022712004-13262-043408FM-15+044399999V0209999C000019999999Y999999999+03001+02001999999ADDMA1101501999999REMMET045METAR SBLP 271200Z 00000KT CAVOK 30/20 Q1015=
0142832880999992017022714004-13262-043408FM-15+044399999V0201601N001519999999N009999199+03301+01901999999ADDGA1021+009141999GE19MSL   +99999+99999GF199999021999009141999999MA1101401999999REMMET051METAR SBLP 271400Z 16003KT 9999 FEW030 33/19 Q1014=
0142832880999992017022715004-13262-043408FM-15+044399999V0202701N001519999999N009999199+03401+01801999999ADDGA1041+009141999GE19MSL   +99999+99999GF199999041999009141999999MA1101301999999REMMET051METAR SBLP 271500Z 27003KT 9999 SCT030 34/18 Q1013=
0142832880999992017022717004-13262-043408FM-15+044399999V0209999C000019999999N009999199+03701+01701999999ADDGA1041+009141999GE19MSL   +99999+99999GF199999041999009141999999MA1101001999999REMMET051METAR SBLP 271700Z 00000KT 9999 SCT030 37/17 Q1010=
0152832880999992017022718004-13251-043405FM-12+044899999V0203201N0010199999999020000199+03471+02211100581ADDAA101999999AZ101061AZ201061GA1031+006001081GA2999+999999051GE19MSL   +99999+99999GF104991031999006001999999MA1999999095821MD1999999-0221REMSYN004BUFR
0142832880999992017022719004-13262-043408FM-15+044399999V0202501N003119999999N009999199+03701+01701999999ADDGA1041+009141999GE19MSL   +99999+99999GF199999041999009141999999MA1100801999999REMMET051METAR SBLP 271900Z 25006KT 9999 SCT030 37/17 Q1008=
0149832880999992017022812004-13251-043405FM-12+044899999V0203601N0000199999999020000199+02751+02151100971ADDAA101999999AZ101061AZ201061GA1021+012501031GE19MSL   +99999+99999GF102991021999012501999999KA1120N+02421MA1999999096151MD1999999-0221REMSYN004BUFR
0072832880999992017022812004-13262-043408FM-15+044399999V0201801N001019999999Y999999999+03001+02001999999ADDMA1101401999999REMMET045METAR SBLP 281200Z 18002KT CAVOK 30/20 Q1014=
0072832880999992017022813004-13262-043408FM-15+044399999V0201201N003119999999Y999999999+03101+02001999999ADDMA1101401999999REMMET045METAR SBLP 281300Z 12006KT CAVOK 31/20 Q1014=
0142832880999992017022814004-13262-043408FM-15+044399999V0202701N002619999999N009999199+03301+02001999999ADDGA1021+009141999GE19MSL   +99999+99999GF199999021999009141999999MA1101301999999REMMET051METAR SBLP 281400Z 27005KT 9999 FEW030 33/20 Q1013=
0142832880999992017022815004-13262-043408FM-15+044399999V0200501N002119999999N009999199+03401+01901999999ADDGA1041+009141999GE19MSL   +99999+99999GF199999041999009141999999MA1101201999999REMMET051METAR SBLP 281500Z 05004KT 9999 SCT030 34/19 Q1012=
0142832880999992017022817004-13262-043408FM-15+044399999V0203301N003119999999N009999199+03701+01701999999ADDGA1041+009141999GE19MSL   +99999+99999GF199999041999009141999999MA1100901999999REMMET051METAR SBLP 281700Z 33006KT 9999 SCT030 37/17 Q1009=
0152832880999992017022818004-13251-043405FM-12+044899999V0203601N0010199999999020000199+03601+02321100401ADDAA101999999AZ101061AZ201061GA1031+006001081GA2999+999999001GE19MSL   +99999+99999GF104991031999006001999999MA1999999095691MD1999999-0131REMSYN004BUFR
0168832880999992017022819004-13262-043408FM-15+044399999V0202501N005119999999N009999199+03601+01801999999ADDGA1021+009141999GA2021+012191081GE19MSL   +99999+99999GF199999021999009141999999MA1100801999999REMMET061METAR SBLP 281900Z 25010KT 9999 FEW030 FEW040TCU 36/18 Q1008=
0187832880999992017030112004-13251-043405FM-12+044899999V0203601N0000100600199020000199+02211+02021101291ADDAA124011031AY161061AY261061GA1051+006001071GA2999+999999041GA3999+999999101GE19MSL   +99999+99999GF108991051999006001999999KA1120N+02101MA1999999096371MD1999999+0221MW1031REMSYN004BUFR
0191832880999992017030112004-13262-043408FM-15+044399999V0209999C000010304819N009999199+02301+02001999999ADDGA1021+006101999GA2021+012191081GA3071+030481999GE19MSL   +99999+99999GF199999021999006101999999MA1101601999999REMMET068METAR SBLP 011200Z 00000KT 9999 FEW020 FEW040TCU BKN100 23/20 Q1016=
0191832880999992017030113004-13262-043408FM-15+044399999V0209999C000010304819N009999199+02301+02101999999ADDGA1021+006101999GA2021+012191081GA3071+030481999GE19MSL   +99999+99999GF199999021999006101999999MA1101701999999REMMET068METAR SBLP 011300Z 00000KT 9999 FEW020 FEW040TCU BKN100 23/21 Q1017=
0175832880999992017030114004-13262-043408FM-15+044399999V0209999C000010304819N009999199+02401+02101999999ADDGA1041+006101999GA2071+030481999GE19MSL   +99999+99999GF199999041999006101999999MA1101601999999MW1611REMMET062METAR SBLP 011400Z 00000KT 9999 -RA SCT020 BKN100 24/21 Q1016=
0175832880999992017030115004-13262-043408FM-15+044399999V0202601N002610061019N009999199+02401+02201999999ADDGA1071+006101999GA2071+030481999GE19MSL   +99999+99999GF199999071999006101999999MA1101601999999MW1611REMMET062METAR SBLP 011500Z 26005KT 9999 -RA BKN020 BKN100 24/22 Q1016=
0175832880999992017030117004-13262-043408FM-15+044399999V0202801N002110061019N009999199+02401+02201999999ADDGA1071+006101999GA2071+030481999GE19MSL   +99999+99999GF199999071999006101999999MA1101501999999MW1611REMMET062METAR SBLP 011700Z 28004KT 9999 -RA BKN020 BKN100 24/22 Q1015=
0174832880999992017030118004-13251-043405FM-12+044899999V0202701N0005199999999020000199+02411+02221101101ADDAA106001031AY161061AY221061GA1031+006001081GA2999+999999051GA3999+999999101GE19MSL   +99999+99999GF108991031999006001999999MA1999999096211MD1999999+0521MW1031REMSYN004BUFR
0165832880999992017030118004-13262-043408FM-15+044399999V0203401N001510304819N009999199+02401+02201999999ADDGA1041+006101999GA2071+030481999GE19MSL   +99999+99999GF199999041999006101999999MA1101401999999REMMET058METAR SBLP 011800Z 34003KT 9999 SCT020 BKN100 24/22 Q1014=
0165832880999992017030119004-13262-043408FM-15+044399999V0202701N002110304819N009999199+02401+02101999999ADDGA1021+009141999GA2071+030481999GE19MSL   +99999+99999GF199999021999009141999999MA1101301999999REMMET058METAR SBLP 011900Z 27004KT 9999 FEW030 BKN100 24/21 Q1013=
0149832880999992017030212004-13251-043405FM-12+044899999V0203601N0000199999999020000199+02651+02251101321ADDAA124000131AZ101061AZ201061GA1999+080001011GE19MSL   +99999+99999GF101991999999080001999999KA1120N+02161MA1999999096421MD1999999+0051REMSYN004BUFR
0072832880999992017030212004-13262-043408FM-15+044399999V0201801N002619999999Y999999999+02801+02101999999ADDMA1101601999999REMMET045METAR SBLP 021200Z 18005KT CAVOK 28/21 Q1016=
0142832880999992017030213004-13262-043408FM-15+044399999V0201801N001019999999N009999199+02901+02201999999ADDGA1021+009141999GE19MSL   +99999+99999GF199999021999009141999999MA1101601999999REMMET051METAR SBLP 021300Z 18002KT 9999 FEW030 29/22 Q1016=
0142832880999992017030214004-13262-043408FM-15+044399999V0201401N004119999999N009999199+03001+02201999999ADDGA1041+009141999GE19MSL   +99999+99999GF199999041999009141999999MA1101601999999REMMET051METAR SBLP 021400Z 14008KT 9999 SCT030 30/22 Q1016=
0142832880999992017030215004-13262-043408FM-15+044399999V0202301N001519999999N009999199+03201+02001999999ADDGA1041+009141999GE19MSL   +99999+99999GF199999041999009141999999MA1101501999999REMMET051METAR SBLP 021500Z 23003KT 9999 SCT030 32/20 Q1015=
0142832880999992017030217004-13262-043408FM-15+044399999V0202001N003119999999N009999199+03501+01901999999ADDGA1041+009141999GE19MSL   +99999+99999GF199999041999009141999999MA1101201999999REMMET051METAR SBLP 021700Z 20006KT 9999 SCT030 35/19 Q1012=
0136832880999992017030218004-13251-043405FM-12+044899999V0201801N0015199999999020000199+03461+02331100621ADDAA101999999AZ101061AZ201061GA1041+006001081GE19MSL   +99999+99999GF104991041999006001999999MA1999999095831MD1999999-0381REMSYN004BUFR
0168832880999992017030218004-13262-043408FM-15+044399999V0201801N003119999999N009999199+03501+02001999999ADDGA1041+009141999GA2021+012191081GE19MSL   +99999+99999GF199999041999009141999999MA1101101999999REMMET061METAR SBLP 021800Z 18006KT 9999 SCT030 FEW040TCU 35/20 Q1011=
0176832880999992017030219004-13262-043408FM-15+044399999V0209999C000019999999N009999199+03301+02001999999ADDGA1041+009141999GA2021+012191091GE19MSL   +99999+99999GF199999041999009141999999MA1101101999999MW1171REMMET063METAR SBLP 021900Z 00000KT 9999 TS SCT030 FEW040CB 33/20 Q1011=
0111832880999992017030312004-13251-043405FM-12+044899999V0200901N0005122000199020000199+02771+02121101311ADDAA101999999AZ101061AZ201061GF100991999999999999999999KA1120N+02181MA1999999096441MD1999999+0021REMSYN004BUFR
0072832880999992017030312004-13262-043408FM-15+044399999V0200201N002119999999Y999999999+03001+01901999999ADDMA1101701999999REMMET045METAR SBLP 031200Z 02004KT CAVOK 30/19 Q1017=
0072832880999992017030313004-13262-043408FM-15+044399999V0201301N002119999999Y999999999+03101+01901999999ADDMA1101701999999REMMET045METAR SBLP 031300Z 13004KT CAVOK 31/19 Q1017=
0142832880999992017030314004-13262-043408FM-15+044399999V0209999C000019999999N009999199+03201+01901999999ADDGA1021+009141999GE19MSL   +99999+99999GF199999021999009141999999MA1101601999999REMMET051METAR SBLP 031400Z 00000KT 9999 FEW030 32/19 Q1016=
0142832880999992017030315004-13262-043408FM-15+044399999V0202901N002119999999N009999199+03301+01901999999ADDGA1021+009141999GE19MSL   +99999+99999GF199999021999009141999999MA1101501999999REMMET051METAR SBLP 031500Z 29004KT 9999 FEW030 33/19 Q1015=
0142832880999992017030317004-13262-043408FM-15+044399999V0202201N003619999999N009999199+03501+01601999999ADDGA1041+009141999GE19MSL   +99999+99999GF199999041999009141999999MA1101301999999REMMET051METAR SBLP 031700Z 22007KT 9999 SCT030 35/16 Q1013=
0136832880999992017030318004-13251-043405FM-12+044899999V0200901N0010199999999020000199+03461+02091100751ADDAA101999999AZ101061AZ201061GA1031+006001081GE19MSL   +99999+99999GF103991031999006001999999MA1999999095981MD1999999+0151REMSYN004BUFR
0142832880999992017030318004-13262-043408FM-15+044399999V0201801N003119999999N009999199+03601+01601999999ADDGA1021+009141999GE19MSL   +99999+99999GF199999021999009141999999MA1101201999999REMMET051METAR SBLP 031800Z 18006KT 9999 FEW030 36/16 Q1012=
0142832880999992017030319004-13262-043408FM-15+044399999V0202401N001519999999N009999199+03601+01801999999ADDGA1021+009141999GE19MSL   +99999+99999GF199999021999009141999999MA1101201999999REMMET051METAR SBLP 031900Z 24003KT 9999 FEW030 36/18 Q1012=
0111832880999992017030412004-13251-043405FM-12+044899999V0201801N0015122000199020000199+02821+02071101091ADDAA101999999AZ101061AZ201061GF100991999999999999999999KA1120N+02121MA1999999096271MD1999999+0291REMSYN004BUFR
0136832880999992017030418004-13251-043405FM-12+044899999V0202301N0026199999999020000199+03521+02291100631ADDAA101999999AZ101061AZ201061GA1011+006001081GE19MSL   +99999+99999GF101991011999006001999999MA1999999095861MD1999999-0121REMSYN004BUFR
0149832880999992017030512004-13251-043405FM-12+044899999V0203601N0000199999999020000199+02751+01871101021ADDAA101999999AZ101061AZ201061GA1999+080001011GE19MSL   +99999+99999GF101991999999080001999999KA1120N+02201MA1999999096151MD1999999-0121REMSYN004BUFR
0136832880999992017030518004-13251-043405FM-12+044899999V0203201N0026199999999020000199+03661+02241100511ADDAA101999999AZ101061AZ201061GA1021+006001081GE19MSL   +99999+99999GF102991021999006001999999MA1999999095751MD1999999-0111REMSYN004BUFR
0111832880999992017030612004-13251-043405FM-12+044899999V0200901N0015122000199020000199+03011+01881100931ADDAA101999999AZ101061AZ201061GF100991999999999999999999KA1120N+02301MA1999999096151MD1999999+0001REMSYN004BUFR
0072832880999992017030612004-13262-043408FM-15+044399999V0201001N001519999999Y999999999+03201+01801999999ADDMA1101301999999REMMET045METAR SBLP 061200Z 10003KT CAVOK 32/18 Q1013=
0072832880999992017030613004-13262-043408FM-15+044399999V0200601N001519999999Y999999999+03401+01701999999ADDMA1101301999999REMMET045METAR SBLP 061300Z 06003KT CAVOK 34/17 Q1013=
0142832880999992017030614004-13262-043408FM-15+044399999V0200401N003119999999N009999199+03601+01601999999ADDGA1021+009141999GE19MSL   +99999+99999GF199999021999009141999999MA1101301999999REMMET051METAR SBLP 061400Z 04006KT 9999 FEW030 36/16 Q1013=
0142832880999992017030615004-13262-043408FM-15+044399999V0200601N002619999999N009999199+03601+01701999999ADDGA1021+009141999GE19MSL   +99999+99999GF199999021999009141999999MA1101201999999REMMET051METAR SBLP 061500Z 06005KT 9999 FEW030 36/17 Q1012=
0142832880999992017030617004-13262-043408FM-15+044399999V0200501N002619999999N009999199+03801+01601999999ADDGA1041+009141999GE19MSL   +99999+99999GF199999041999009141999999MA1101001999999REMMET051METAR SBLP 061700Z 05005KT 9999 SCT030 38/16 Q1010=
0136832880999992017030618004-13251-043405FM-12+044899999V0203201N0015199999999020000199+03761+02171100451ADDAA101999999AZ101061AZ201061GA1021+006001081GE19MSL   +99999+99999GF102991021999006001999999MA1999999095741MD1999999-0011REMSYN004BUFR
0142832880999992017030619004-13262-043408FM-15+044399999V0203201N003119999999N009999199+03801+01601999999ADDGA1041+009141999GE19MSL   +99999+99999GF199999041999009141999999MA1100901999999REMMET051METAR SBLP 061900Z 32006KT 9999 SCT030 38/16 Q1009=
0149832880999992017030712004-13251-043405FM-12+044899999V0200901N0005199999999020000199+03121+01961100961ADDAA101999999AZ101061AZ201061GA1011+006001081GE19MSL   +99999+99999GF101991011999006001999999KA1120N+02381MA1999999096221MD1999999+0071REMSYN004BUFR
0072832880999992017030712004-13262-043408FM-15+044399999V0209999C000019999999Y999999999+03401+01701999999ADDMA1101401999999REMMET045METAR SBLP 071200Z 00000KT CAVOK 34/17 Q1014=
0072832880999992017030713004-13262-043408FM-15+044399999V0209999C000019999999Y999999999+03501+01701999999ADDMA1101401999999REMMET045METAR SBLP 071300Z 00000KT CAVOK 35/17 Q1014=
0142832880999992017030715004-13262-043408FM-15+044399999V0209999C000019999999N009999199+03801+01601999999ADDGA1041+009141999GE19MSL   +99999+99999GF199999041999009141999999MA1101201999999REMMET051METAR SBLP 071500Z 00000KT 9999 SCT030 38/16 Q1012=
0152832880999992017030718004-13251-043405FM-12+044899999V0202301N0010199999999020000199+03671+02101100501ADDAA101999999AZ101061AZ201061GA1031+006001081GA2999+999999001GE19MSL   +99999+99999GF104991031999006001999999MA1999999095811MD1999999+0071REMSYN004BUFR
0111832880999992017030812004-13251-043405FM-12+044899999V0201401N0015122000199020000199+03051+01941100991ADDAA101999999AZ101061AZ201061GF100991999999999999999999KA1120N+02301MA1999999096231MD1999999+0011REMSYN004BUFR
0072832880999992017030812004-13262-043408FM-15+044399999V0201501N002619999999Y999999999+03201+01801999999ADDMA1101501999999REMMET045METAR SBLP 081200Z 15005KT CAVOK 32/18 Q1015=
0072832880999992017030813004-13262-043408FM-15+044399999V0201901N003619999999Y999999999+03401+01801999999ADDMA1101401999999REMMET045METAR SBLP 081300Z 19007KT CAVOK 34/18 Q1014=
0142832880999992017030814004-13262-043408FM-15+044399999V0201601N002619999999N009999199+03501+01701999999ADDGA1021+009141999GE19MSL   +99999+99999GF199999021999009141999999MA1101401999999REMMET051METAR SBLP 081400Z 16005KT 9999 FEW030 35/17 Q1014=
0142832880999992017030815004-13262-043408FM-15+044399999V0209999C000019999999N009999199+03601+01501999999ADDGA1021+009141999GE19MSL   +99999+99999GF199999021999009141999999MA1101301999999REMMET051METAR SBLP 081500Z 00000KT 9999 FEW030 36/15 Q1013=
0142832880999992017030817004-13262-043408FM-15+044399999V0202901N001519999999N009999199+03701+01401999999ADDGA1021+009141999GE19MSL   +99999+99999GF199999021999009141999999MA1101001999999REMMET051METAR SBLP 081700Z 29003KT 9999 FEW030 37/14 Q1010=
0136832880999992017030818004-13251-043405FM-12+044899999V0201401N0026199999999020000199+03761+01951100481ADDAA101999999AZ101061AZ201061GA1011+006001081GE19MSL   +99999+99999GF101991011999006001999999MA1999999095771MD1999999-0041REMSYN004BUFR
0142832880999992017030818004-13262-043408FM-15+044399999V0209999C000019999999N009999199+03801+01201999999ADDGA1021+009141999GE19MSL   +99999+99999GF199999021999009141999999MA1100901999999REMMET051METAR SBLP 081800Z 00000KT 9999 FEW030 38/12 Q1009=
0142832880999992017030819004-13262-043408FM-15+044399999V0202101N002119999999N009999199+03901+01201999999ADDGA1021+009141999GE19MSL   +99999+99999GF199999021999009141999999MA1100901999999REMMET051METAR SBLP 081900Z 21004KT 9999 FEW030 39/12 Q1009=
0149832880999992017030912004-13251-043405FM-12+044899999V0200901N0015199999999020000199+02871+01821101091ADDAA101999999AZ101061AZ201061GA1999+080001001GE19MSL   +99999+99999GF104991999999080001999999KA1120N+02761MA1999999096291MD1999999+0061REMSYN004BUFR
0072832880999992017030912004-13262-043408FM-15+044399999V0201101N003119999999Y999999999+03001+01601999999ADDMA1101501999999REMMET045METAR SBLP 091200Z 11006KT CAVOK 30/16 Q1015=
0072832880999992017030913004-13262-043408FM-15+044399999V0201201N004619999999Y999999999+03201+01601999999ADDMA1101501999999REMMET045METAR SBLP 091300Z 12009KT CAVOK 32/16 Q1015=
0072832880999992017030914004-13262-043408FM-15+044399999V0209999C000019999999Y999999999+03301+01401999999ADDMA1101401999999REMMET045METAR SBLP 091400Z 00000KT CAVOK 33/14 Q1014=
0152832880999992017030918004-13251-043405FM-12+044899999V0201801N0005199999999020000199+03661+01821100471ADDAA101999999AZ101061AZ201061GA1011+006001081GA2999+999999021GE19MSL   +99999+99999GF104991011999006001999999MA1999999095781MD1999999+0011REMSYN004BUFR
0072832880999992017030919004-13262-043408FM-15+044399999V0201701N005119999999Y999999999+03801+01002999999ADDMA1100901999999REMMET045METAR SBLP 091900Z 17010KT CAVOK 38/10 Q1009=
0111832880999992017031012004-13251-043405FM-12+044899999V0201401N0021122000199020000199+02851+01931101121ADDAA101999999AZ101061AZ201061GF100991999999999999999999KA1120N+02161MA1999999096311MD1999999+0021REMSYN004BUFR
0072832880999992017031012004-13262-043408FM-15+044399999V0201301N003119999999Y999999999+03001+01701999999ADDMA1101501999999REMMET045METAR SBLP 101200Z 13006KT CAVOK 30/17 Q1015=
0072832880999992017031013004-13262-043408FM-15+044399999V0209999C000019999999Y999999999+03201+01701999999ADDMA1101501999999REMMET045METAR SBLP 101300Z 00000KT CAVOK 32/17 Q1015=
0142832880999992017031017004-13262-043408FM-15+044399999V0201701N004619999999N009999199+03801+01501999999ADDGA1021+009141999GE19MSL   +99999+99999GF199999021999009141999999MA1101101999999REMMET051METAR SBLP 101700Z 17009KT 9999 FEW030 38/15 Q1011=
0136832880999992017031018004-13251-043405FM-12+044899999V0201801N0026199999999020000199+03601+01901100561ADDAA101999999AZ101061AZ201061GA1011+050001081GE19MSL   +99999+99999GF101991011999050001999999MA1999999095811MD1999999+0031REMSYN004BUFR
0142832880999992017031018004-13262-043408FM-15+044399999V0201701N004619999999N009999199+03701+01401999999ADDGA1021+009141999GE19MSL   +99999+99999GF199999021999009141999999MA1101001999999REMMET051METAR SBLP 101800Z 17009KT 9999 FEW030 37/14 Q1010=
0142832880999992017031019004-13262-043408FM-15+044399999V0209999C000019999999N009999199+03801+01301999999ADDGA1021+009141999GE19MSL   +99999+99999GF199999021999009141999999MA1101001999999REMMET051METAR SBLP 101900Z 00000KT 9999 FEW030 38/13 Q1010=
0111832880999992017031112004-13251-043405FM-12+044899999V0203601N0000122000199020000199+02821+01951101111ADDAA101999999AZ101061AZ201061GF100991999999999999999999KA1120N+02321MA1999999096311MD1999999+0001REMSYN004BUFR
0136832880999992017031118004-13251-043405FM-12+044899999V0201801N0015100600199020000199+03601+02031100491ADDAA101999999AZ101061AZ201061GA1051+006001081GE19MSL   +99999+99999GF105991051999006001999999MA1999999095771MD1999999-0041REMSYN004BUFR
0149832880999992017031212004-13251-043405FM-12+044899999V0201401N0015199999999020000199+02871+02011101071ADDAA101999999AZ101061AZ201061GA1999+080001001GE19MSL   +99999+99999GF101991999999080001999999KA1120N+02321MA1999999096251MD1999999-0061REMSYN004BUFR
0136832880999992017031218004-13251-043405FM-12+044899999V0201401N0015199999999020000199+03471+02181100631ADDAA101999999AZ101061AZ201061GA1021+006001081GE19MSL   +99999+99999GF102991021999006001999999MA1999999095761MD1999999-0011REMSYN004BUFR
0165832880999992017031312004-13251-043405FM-12+044899999V0201401N0010199999999020000199+02871+02021101111ADDAA101999999AZ101061AZ201061GA1011+006001081GA2999+999999031GE19MSL   +99999+99999GF103991011999006001999999KA1120N+02321MA1999999096311MD1999999-0031REMSYN004BUFR
0072832880999992017031312004-13262-043408FM-15+044399999V0200901N001519999999Y999999999+03001+01801999999ADDMA1101501999999REMMET045METAR SBLP 131200Z 09003KT CAVOK 30/18 Q1015=
0142832880999992017031313004-13262-043408FM-15+044399999V0209999C000019999999N009999199+03201+01701999999ADDGA1021+009141999GE19MSL   +99999+99999GF199999021999009141999999MA1101501999999REMMET051METAR SBLP 131300Z 00000KT 9999 FEW030 32/17 Q1015=
0142832880999992017031315004-13262-043408FM-15+044399999V0200201N002619999999N009999199+03401+01701999999ADDGA1021+009141999GE19MSL   +99999+99999GF199999021999009141999999MA1101301999999REMMET051METAR SBLP 131500Z 02005KT 9999 FEW030 34/17 Q1013=
0142832880999992017031317004-13262-043408FM-15+044399999V0202801N002619999999N009999199+03601+01701999999ADDGA1041+009141999GE19MSL   +99999+99999GF199999041999009141999999MA1101101999999REMMET051METAR SBLP 131700Z 28005KT 9999 SCT030 36/17 Q1011=
0152832880999992017031318004-13251-043405FM-12+044899999V0203601N0015199999999020000199+03501+02051100571ADDAA101999999AZ101061AZ201061GA1031+006001081GA2999+999999021GE19MSL   +99999+99999GF105991031999006001999999MA1999999095851MD1999999+0091REMSYN004BUFR
0142832880999992017031318004-13262-043408FM-15+044399999V0202101N001519999999N009999199+03601+01701999999ADDGA1041+009141999GE19MSL   +99999+99999GF199999041999009141999999MA1101001999999REMMET051METAR SBLP 131800Z 21003KT 9999 SCT030 36/17 Q1010=
0142832880999992017031319004-13262-043408FM-15+044399999V0203401N002119999999N009999199+03601+01701999999ADDGA1041+009141999GE19MSL   +99999+99999GF199999041999009141999999MA1100901999999REMMET051METAR SBLP 131900Z 34004KT 9999 SCT030 36/17 Q1009=
0165832880999992017031412004-13251-043405FM-12+044899999V0200901N0015199999999020000199+02951+01911101031ADDAA101999999AZ101061AZ201061GA1021+006001081GA2999+999999001GE19MSL   +99999+99999GF106991021999006001999999KA1120N+02581MA1999999096251MD1999999-0061REMSYN004BUFR
0072832880999992017031412004-13262-043408FM-15+044399999V0201201N002619999999Y999999999+03001+01801999999ADDMA1101501999999REMMET045METAR SBLP 141200Z 12005KT CAVOK 30/18 Q1015=
0072832880999992017031413004-13262-043408FM-15+044399999V0201701N003119999999Y999999999+03301+01801999999ADDMA1101501999999REMMET045METAR SBLP 141300Z 17006KT CAVOK 33/18 Q1015=
0142832880999992017031414004-13262-043408FM-15+044399999V0201801N004119999999N009999199+03501+01801999999ADDGA1021+009141999GE19MSL   +99999+99999GF199999021999009141999999MA1101401999999REMMET051METAR SBLP 141400Z 18008KT 9999 FEW030 35/18 Q1014=
0165832880999992017031415004-13262-043408FM-15+044399999V0209999C00001030481CN009999199+03301+01701999999ADDGA1041+009141999GA2041+030481999GE19MSL   +99999+99999GF199999041999009141999999MA1101301999999REMMET058METAR SBLP 141500Z 00000KT 9999 SCT030 SCT100 33/17 Q1013=
0165832880999992017031417004-13262-043408FM-15+044399999V0203001N002110304819N009999199+03401+01601999999ADDGA1041+009141999GA2071+030481999GE19MSL   +99999+99999GF199999041999009141999999MA1101101999999REMMET058METAR SBLP 141700Z 30004KT 9999 SCT030 BKN100 34/16 Q1011=
0152832880999992017031418004-13251-043405FM-12+044899999V0201401N0015199999999020000199+03451+02111100561ADDAA101999999AZ101061AZ201061GA1021+006001081GA2999+999999001GE19MSL   +99999+99999GF107991021999006001999999MA1999999095821MD1999999-0031REMSYN004BUFR
0165832880999992017031418004-13262-043408FM-15+044399999V0201801N003610304819N009999199+03601+01601999999ADDGA1021+009141999GA2071+030481999GE19MSL   +99999+99999GF199999021999009141999999MA1101001999999REMMET058METAR SBLP 141800Z 18007KT 9999 FEW030 BKN100 36/16 Q1010=
0165832880999992017031419004-13262-043408FM-15+044399999V0201701N00261030481CN009999199+03501+01601999999ADDGA1021+009141999GA2041+030481999GE19MSL   +99999+99999GF199999021999009141999999MA1101001999999REMMET058METAR SBLP 141900Z 17005KT 9999 FEW030 SCT100 35/16 Q1010=
0181832880999992017031512004-13251-043405FM-12+044899999V0201801N0010199999999020000199+02521+01951101111ADDAA101999999AZ101061AZ201061GA1011+006001081GA2999+999999051GA3999+999999101GE19MSL   +99999+99999GF108991011999006001999999KA1120N+02321MA1999999096281MD1999999+0031REMSYN004BUFR
0165832880999992017031512004-13262-043408FM-15+044399999V0201801N002110304819N009999199+02601+01801999999ADDGA1021+006101999GA2071+030481999GE19MSL   +99999+99999GF199999021999006101999999MA1101501999999REMMET058METAR SBLP 151200Z 18004KT 9999 FEW020 BKN100 26/18 Q1015=
0165832880999992017031513004-13262-043408FM-15+044399999V0201801N003110304819N009999199+02701+01701999999ADDGA1021+006101999GA2071+030481999GE19MSL   +99999+99999GF199999021999006101999999MA1101501999999REMMET058METAR SBLP 151300Z 18006KT 9999 FEW020 BKN100 27/17 Q1015=
0072832880999992017031514004-13262-043408FM-15+044399999V0201801N002619999999Y999999999+02801+01601999999ADDMA1101501999999REMMET045METAR SBLP 151400Z 18005KT CAVOK 28/16 Q1015=
0072832880999992017031515004-13262-043408FM-15+044399999V0209999C000019999999Y999999999+02801+01701999999ADDMA1101501999999REMMET045METAR SBLP 151500Z 00000KT CAVOK 28/17 Q1015=
0072832880999992017031517004-13262-043408FM-15+044399999V0202901N002119999999Y999999999+03101+01601999999ADDMA1101301999999REMMET045METAR SBLP 151700Z 29004KT CAVOK 31/16 Q1013=
0168832880999992017031518004-13251-043405FM-12+044899999V0202701N0005199999999020000199+03071+02061100871ADDAA101999999AZ101061AZ201061GA1031+006001061GA2999+999999051GA3999+999999101GE19MSL   +99999+99999GF108991031999006001999999MA1999999096091MD1999999+0271REMSYN004BUFR
0072832880999992017031518004-13262-043408FM-15+044399999V0203001N002619999999Y999999999+03101+01701999999ADDMA1101301999999REMMET045METAR SBLP 151800Z 30005KT CAVOK 31/17 Q1013=
0072832880999992017031519004-13262-043408FM-15+044399999V0202601N002619999999Y999999999+03001+01701999999ADDMA1101201999999REMMET045METAR SBLP 151900Z 26005KT CAVOK 30/17 Q1012=
0149832880999992017031612004-13251-043405FM-12+044899999V0201401N0015199999999020000199+02711+01801101181ADDAA101999999AZ101061AZ201061GA1999+080001011GE19MSL   +99999+99999GF105991999999080001999999KA1120N+02321MA1999999096321MD1999999+0041REMSYN004BUFR
0072832880999992017031612004-13262-043408FM-15+044399999V0200901N003119999999Y999999999+02901+01701999999ADDMA1101501999999REMMET045METAR SBLP 161200Z 09006KT CAVOK 29/17 Q1015=
0072832880999992017031613004-13262-043408FM-15+044399999V0200501N003119999999Y999999999+03101+01701999999ADDMA1101501999999REMMET045METAR SBLP 161300Z 05006KT CAVOK 31/17 Q1015=
0142832880999992017031615004-13262-043408FM-15+044399999V0201301N002619999999N009999199+03301+01601999999ADDGA1021+009141999GE19MSL   +99999+99999GF199999021999009141999999MA1101401999999REMMET051METAR SBLP 161500Z 13005KT 9999 FEW030 33/16 Q1014=
0142832880999992017031617004-13262-043408FM-15+044399999V0202101N004119999999N009999199+03401+01501999999ADDGA1041+009141999GE19MSL   +99999+99999GF199999041999009141999999MA1101201999999REMMET051METAR SBLP 161700Z 21008KT 9999 SCT030 34/15 Q1012=
0152832880999992017031618004-13251-043405FM-12+044899999V0203201N0021100600199020000199+03451+02141100711ADDAA101999999AZ101061AZ201061GA1061+006001081GA2999+999999001GE19MSL   +99999+99999GF107991061999006001999999MA1999999095931MD1999999-0161REMSYN004BUFR
0142832880999992017031618004-13262-043408FM-15+044399999V0209999C000010091419N009999199+03401+01501999999ADDGA1071+009141999GE19MSL   +99999+99999GF199999071999009141999999MA1101101999999REMMET051METAR SBLP 161800Z 00000KT 9999 BKN030 34/15 Q1011=
0142832880999992017031619004-13262-043408FM-15+044399999V0201801N002119999999N009999199+03501+01401999999ADDGA1041+009141999GE19MSL   +99999+99999GF199999041999009141999999MA1101001999999REMMET051METAR SBLP 161900Z 18004KT 9999 SCT030 35/14 Q1010=
0165832880999992017031712004-13251-043405FM-12+044899999V0200501N0005199999999020000199+02921+01931101111ADDAA101999999AZ101061AZ201061GA1011+006001081GA2999+999999031GE19MSL   +99999+99999GF102991011999006001999999KA1120N+02521MA1999999096311MD1999999-0011REMSYN004BUFR
0072832880999992017031712004-13262-043408FM-15+044399999V0200601N001519999999Y999999999+03101+01801999999ADDMA1101501999999REMMET045METAR SBLP 171200Z 06003KT CAVOK 31/18 Q1015=
0072832880999992017031713004-13262-043408FM-15+044399999V0209999C000019999999Y999999999+03301+01701999999ADDMA1101501999999REMMET045METAR SBLP 171300Z 00000KT CAVOK 33/17 Q1015=
0142832880999992017031714004-13262-043408FM-15+044399999V0202101N003119999999N009999199+03401+01701999999ADDGA1021+009141999GE19MSL   +99999+99999GF199999021999009141999999MA1101401999999REMMET051METAR SBLP 171400Z 21006KT 9999 FEW030 34/17 Q1014=
0142832880999992017031715004-13262-043408FM-15+044399999V0209999C000019999999N009999199+03701+01701999999ADDGA1041+009141999GE19MSL   +99999+99999GF199999041999009141999999MA1101301999999REMMET051METAR SBLP 171500Z 00000KT 9999 SCT030 37/17 Q1013=
0142832880999992017031717004-13262-043408FM-15+044399999V0201301N002110091419N009999199+03601+01601999999ADDGA1071+009141999GE19MSL   +99999+99999GF199999071999009141999999MA1101101999999REMMET051METAR SBLP 171700Z 13004KT 9999 BKN030 36/16 Q1011=
0136832880999992017031718004-13251-043405FM-12+044899999V0203601N0005100600199020000199+03561+02181100551ADDAA101999999AZ101061AZ201061GA1051+006001081GE19MSL   +99999+99999GF105991051999006001999999MA1999999095811MD1999999-0111REMSYN004BUFR
0142832880999992017031718004-13262-043408FM-15+044399999V0203301N002110091419N009999199+03701+01501999999ADDGA1071+009141999GE19MSL   +99999+99999GF199999071999009141999999MA1101001999999REMMET051METAR SBLP 171800Z 33004KT 9999 BKN030 37/15 Q1010=
0142832880999992017031719004-13262-043408FM-15+044399999V0202701N002619999999N009999199+03601+01601999999ADDGA1041+009141999GE19MSL   +99999+99999GF199999041999009141999999MA1100901999999REMMET051METAR SBLP 171900Z 27005KT 9999 SCT030 36/16 Q1009=
0149832880999992017031812004-13251-043405FM-12+044899999V0203601N0026199999999020000199+02721+02221101161ADDAA101999999AZ101061AZ201061GA1011+006001081GE19MSL   +99999+99999GF101991011999006001999999KA1120N+02461MA1999999096371MD1999999+0061REMSYN004BUFR
0158832880999992017031818004-13251-043405FM-12+044899999V0201801N0026199999999020000199+02571+02291100871ADDAA106020031AY181061AY281061GA1031+006001081GA2999+999999021GE19MSL   +99999+99999GF108991031999006001999999MA1999999096041MD1999999+0231MW1031REMSYN004BUFR
0181832880999992017031912004-13251-043405FM-12+044899999V0201801N0015199999999020000199+02521+02181101421ADDAA124020031AZ101061AZ201061GA1021+006001081GA2999+999999031GA3999+999999001GE19MSL   +99999+99999GF105991021999006001999999KA1120N+02301MA1999999096521MD1999999+0151REMSYN004BUFR
0152832880999992017031918004-13251-043405FM-12+044899999V0202301N0010199999999020000199+03321+02201100751ADDAA101999999AZ101061AZ201061GA1031+006001081GA2999+999999001GE19MSL   +99999+99999GF104991031999006001999999MA1999999095951MD1999999-0091REMSYN004BUFR
0111832880999992017032012004-13251-043405FM-12+044899999V0203601N0000122000199020000199+02721+02281101271ADDAA101999999AZ101061AZ201061GF100991999999999999999999KA1120N+02321MA1999999096441MD1999999-0081REMSYN004BUFR
0072832880999992017032012004-13262-043408FM-15+044399999V0209999C000019999999Y999999999+02901+02201999999ADDMA1101601999999REMMET045METAR SBLP 201200Z 00000KT CAVOK 29/22 Q1016=
0142832880999992017032014004-13262-043408FM-15+044399999V0209999C000019999999N009999199+03401+02001999999ADDGA1021+009141999GE19MSL   +99999+99999GF199999021999009141999999MA1101601999999REMMET051METAR SBLP 201400Z 00000KT 9999 FEW030 34/20 Q1016=
0142832880999992017032015004-13262-043408FM-15+044399999V0203101N002619999999N009999199+03501+01901999999ADDGA1041+009141999GE19MSL   +99999+99999GF199999041999009141999999MA1101501999999REMMET051METAR SBLP 201500Z 31005KT 9999 SCT030 35/19 Q1015=
0136832880999992017032018004-13251-043405FM-12+044899999V0201801N0026199999999020000199+03571+02271100811ADDAA101999999AZ101061AZ201061GA1021+006001081GE19MSL   +99999+99999GF102991021999006001999999MA1999999095951MD1999999+0001REMSYN004BUFR
0142832880999992017032019004-13262-043408FM-15+044399999V0202301N004119999999N009999199+03801+01701999999ADDGA1041+009141999GE19MSL   +99999+99999GF199999041999009141999999MA1101001999999REMMET051METAR SBLP 201900Z 23008KT 9999 SCT030 38/17 Q1010=
0158832880999992017032100004-13251-043405FM-12+044899999V0200901N0015100600199002000199+02521+02311101091ADDAA106016031AY191061AY261061GA1072+006001081GA2999+999999001GE19MSL   +99999+99999GF106992072999006001999999MA1999999096231MD1999999+0081MW1031REMSYN004BUFR
0149832880999992017032112004-13251-043405FM-12+044899999V0203601N0005199999999020000199+03701+02361101351ADDAA124016031AZ101061AZ201061GA1999+080001001GE19MSL   +99999+99999GF102991999999080001999999KA1120N+02261MA1999999096471MD1999999+0031REMSYN004BUFR
0072832880999992017032112004-13262-043408FM-15+044399999V0203201N001519999999Y999999999+02901+02201999999ADDMA1101701999999REMMET045METAR SBLP 211200Z 32003KT CAVOK 29/22 Q1017=
0072832880999992017032113004-13262-043408FM-15+044399999V0209999C000019999999Y999999999+03101+02101999999ADDMA1101701999999REMMET045METAR SBLP 211300Z 00000KT CAVOK 31/21 Q1017=
0142832880999992017032115004-13262-043408FM-15+044399999V0202701N003119999999N009999199+03401+01901999999ADDGA1021+009141999GE19MSL   +99999+99999GF199999021999009141999999MA1101601999999REMMET051METAR SBLP 211500Z 27006KT 9999 FEW030 34/19 Q1016=
0142832880999992017032117004-13262-043408FM-15+044399999V0202801N002619999999N009999199+03601+01901999999ADDGA1041+009141999GE19MSL   +99999+99999GF199999041999009141999999MA1101401999999REMMET051METAR SBLP 211700Z 28005KT 9999 SCT030 36/19 Q1014=
0152832880999992017032118004-13251-043405FM-12+044899999V0203601N0005199999999020000199+03471+02351100851ADDAA101999999AZ101061AZ201061GA1031+006001081GA2999+999999021GE19MSL   +99999+99999GF104991031999006001999999MA1999999096071MD1999999+0121REMSYN004BUFR
0142832880999992017032119004-13262-043408FM-15+044399999V0202601N002619999999N009999199+03601+01801999999ADDGA1041+009141999GE19MSL   +99999+99999GF199999041999009141999999MA1101201999999REMMET051METAR SBLP 211900Z 26005KT 9999 SCT030 36/18 Q1012=
0158832880999992017032200004-13251-043405FM-12+044899999V0202301N0010199999999002000199+02721+02201101121ADDAA101999999AY191061AY211061GA1031+006001091GA2999+999999051GE19MSL   +99999+99999GF106991031999006001999999MA1999999096271MD1999999+0041MW1131REMSYN004BUFR
0149832880999992017032212004-13251-043405FM-12+044899999V0201401N0010199999999020000199+02901+02221101451ADDAA101999999AZ101061AZ201061GA1031+050001001GE19MSL   +99999+99999GF103991031999050001999999KA1120N+02421MA1999999096611MD1999999+0141REMSYN004BUFR
0072832880999992017032212004-13262-043408FM-15+044399999V0200901N002619999999Y999999999+03001+02101999999ADDMA1101801999999REMMET045METAR SBLP 221200Z 09005KT CAVOK 30/21 Q1018=
0142832880999992017032213004-13262-043408FM-15+044399999V0201701N004619999999N009999199+03201+02101999999ADDGA1021+009141999GE19MSL   +99999+99999GF199999021999009141999999MA1101801999999REMMET051METAR SBLP 221300Z 17009KT 9999 FEW030 32/21 Q1018=
0142832880999992017032214004-13262-043408FM-15+044399999V0202301N002619999999N009999199+03301+02001999999ADDGA1041+009141999GE19MSL   +99999+99999GF199999041999009141999999MA1101701999999REMMET051METAR SBLP 221400Z 23005KT 9999 SCT030 33/20 Q1017=
0142832880999992017032215004-13262-043408FM-15+044399999V0201801N004619999999N009999199+03401+02001999999ADDGA1041+009141999GE19MSL   +99999+99999GF199999041999009141999999MA1101601999999REMMET051METAR SBLP 221500Z 18009KT 9999 SCT030 34/20 Q1016=
0142832880999992017032217004-13262-043408FM-15+044399999V0202101N004610091419N009999199+03501+02001999999ADDGA1071+009141999GE19MSL   +99999+99999GF199999071999009141999999MA1101401999999REMMET051METAR SBLP 221700Z 21009KT 9999 BKN030 35/20 Q1014=
0136832880999992017032218004-13251-043405FM-12+044899999V0201801N0010199999999020000199+03051+02261100861ADDAA101999999AZ101061AZ201061GA1041+006001081GE19MSL   +99999+99999GF104991041999006001999999MA1999999096061MD1999999-0011REMSYN004BUFR
0168832880999992017032218004-13262-043408FM-15+044399999V0201801N006219999999N009999199+03601+01901999999ADDGA1041+009141999GA2021+012191081GE19MSL   +99999+99999GF199999041999009141999999MA1101201999999REMMET061METAR SBLP 221800Z 18012KT 9999 SCT030 FEW040TCU 36/19 Q1012=
0168832880999992017032219004-13262-043408FM-15+044399999V0202201N002619999999N009999199+03501+01701999999ADDGA1021+009141999GA2021+012191081GE19MSL   +99999+99999GF199999021999009141999999MA1101201999999REMMET061METAR SBLP 221900Z 22005KT 9999 FEW030 FEW040TCU 35/17 Q1012=
0098832880999992017032300004-13251-043405FM-12+044899999V0201401N0010122000199002000199+03011+02281100981ADDAA101999999AZ101061AZ201061GF100991999999999999999999MA1999999096191MD1999999-0081REMSYN004BUFR
0149832880999992017032312004-13251-043405FM-12+044899999V0203601N0000199999999020000199+02801+02111101361ADDAA101999999AZ101061AZ201061GA1999+080001001GE19MSL   +99999+99999GF102991999999080001999999KA1120N+02381MA1999999096541MD1999999-0071REMSYN004BUFR
0142832880999992017032312004-13262-043408FM-15+044399999V0200901N002619999999N009999199+03001+01901999999ADDGA1021+009141999GE19MSL   +99999+99999GF199999021999009141999999MA1101801999999REMMET051METAR SBLP 231200Z 09005KT 9999 FEW030 30/19 Q1018=
0142832880999992017032313004-13262-043408FM-15+044399999V0209999C000019999999N009999199+03201+01901999999ADDGA1041+009141999GE19MSL   +99999+99999GF199999041999009141999999MA1101801999999REMMET051METAR SBLP 231300Z 00000KT 9999 SCT030 32/19 Q1018=
0142832880999992017032314004-13262-043408FM-15+044399999V0202201N002619999999N009999199+03201+01801999999ADDGA1041+009141999GE19MSL   +99999+99999GF199999041999009141999999MA1101701999999REMMET051METAR SBLP 231400Z 22005KT 9999 SCT030 32/18 Q1017=
0142832880999992017032315004-13262-043408FM-15+044399999V0209999C000010091419N009999199+03201+01901999999ADDGA1071+009141999GE19MSL   +99999+99999GF199999071999009141999999MA1101501999999REMMET051METAR SBLP 231500Z 00000KT 9999 BKN030 32/19 Q1015=
0142832880999992017032317004-13262-043408FM-15+044399999V0203101N002619999999N009999199+03601+01801999999ADDGA1041+009141999GE19MSL   +99999+99999GF199999041999009141999999MA1101201999999REMMET051METAR SBLP 231700Z 31005KT 9999 SCT030 36/18 Q1012=
0136832880999992017032318004-13251-043405FM-12+044899999V0203601N0015199999999020000199+03461+02131100651ADDAA101999999AZ101061AZ201061GA1031+006001081GE19MSL   +99999+99999GF103991031999006001999999MA1999999095901MD1999999-0161REMSYN004BUFR
0142832880999992017032318004-13262-043408FM-15+044399999V0202201N003119999999N009999199+03601+01701999999ADDGA1041+009141999GE19MSL   +99999+99999GF199999041999009141999999MA1101101999999REMMET051METAR SBLP 231800Z 22006KT 9999 SCT030 36/17 Q1011=
0142832880999992017032319004-13262-043408FM-15+044399999V0209999C000019999999N009999199+03601+01601999999ADDGA1021+009141999GE19MSL   +99999+99999GF199999021999009141999999MA1101101999999REMMET051METAR SBLP 231900Z 00000KT 9999 FEW030 36/16 Q1011=
0098832880999992017032400004-13251-043405FM-12+044899999V0203601N0000122000199002000199+02971+02101100821ADDAA101999999AZ101061AZ201061GF100991999999999999999999MA1999999096031MD1999999-0161REMSYN004BUFR
0149832880999992017032412004-13251-043405FM-12+044899999V0201401N0010199999999020000199+02871+01991101161ADDAA101999999AZ101061AZ201061GA1999+080001021GE19MSL   +99999+99999GF102991999999080001999999KA1120N+02321MA1999999096351MD1999999-0191REMSYN004BUFR
0072832880999992017032412004-13262-043408FM-15+044399999V0209999C000019999999Y999999999+03001+01701999999ADDMA1101501999999REMMET045METAR SBLP 241200Z 00000KT CAVOK 30/17 Q1015=
0072832880999992017032413004-13262-043408FM-15+044399999V0200701N002619999999Y999999999+03201+01701999999ADDMA1101601999999REMMET045METAR SBLP 241300Z 07005KT CAVOK 32/17 Q1016=
0142832880999992017032414004-13262-043408FM-15+044399999V0200301N002619999999N009999199+03301+01801999999ADDGA1021+009141999GE19MSL   +99999+99999GF199999021999009141999999MA1101501999999REMMET051METAR SBLP 241400Z 03005KT 9999 FEW030 33/18 Q1015=
0142832880999992017032415004-13262-043408FM-15+044399999V0203301N002619999999N009999199+03401+01801999999ADDGA1021+009141999GE19MSL   +99999+99999GF199999021999009141999999MA1101401999999REMMET051METAR SBLP 241500Z 33005KT 9999 FEW030 34/18 Q1014=
0142832880999992017032417004-13262-043408FM-15+044399999V0203001N002619999999N009999199+03601+01701999999ADDGA1041+009141999GE19MSL   +99999+99999GF199999041999009141999999MA1101101999999REMMET051METAR SBLP 241700Z 30005KT 9999 SCT030 36/17 Q1011=
0136832880999992017032418004-13251-043405FM-12+044899999V0203601N0015199999999020000199+03561+02291100571ADDAA101999999AZ101061AZ201061GA1031+006001081GE19MSL   +99999+99999GF103991031999006001999999MA1999999095851MD1999999-0051REMSYN004BUFR
0142832880999992017032418004-13262-043408FM-15+044399999V0202701N003119999999N009999199+03601+01601999999ADDGA1041+009141999GE19MSL   +99999+99999GF199999041999009141999999MA1101001999999REMMET051METAR SBLP 241800Z 27006KT 9999 SCT030 36/16 Q1010=
0142832880999992017032419004-13262-043408FM-15+044399999V0209999C000019999999N009999199+03701+01601999999ADDGA1021+009141999GE19MSL   +99999+99999GF199999021999009141999999MA1100901999999REMMET051METAR SBLP 241900Z 00000KT 9999 FEW030 37/16 Q1009=
0098832880999992017032500004-13251-043405FM-12+044899999V0202301N0010122000199002000199+03001+01931100761ADDAA101999999AZ101061AZ201061GF100991999999999999999999MA1999999095971MD1999999-0061REMSYN004BUFR
0149832880999992017032512004-13251-043405FM-12+044899999V0203601N0000199999999020000199+02801+02191101111ADDAA101999999AZ101061AZ201061GA1031+050001001GE19MSL   +99999+99999GF103991031999050001999999KA1120N+02381MA1999999096301MD1999999-0051REMSYN004BUFR
0152832880999992017032518004-13251-043405FM-12+044899999V0202301N0005199999999020000199+03621+02161100541ADDAA101999999AZ101061AZ201061GA1031+006001081GA2999+999999031GE19MSL   +99999+99999GF104991031999006001999999MA1999999095821MD1999999-0031REMSYN004BUFR
0111832880999992017032612004-13251-043405FM-12+044899999V0200501N0021122000199020000199+02911+02171101071ADDAA101999999AZ101061AZ201061GF100991999999999999999999KA1120N+02561MA1999999096291MD1999999-0011REMSYN004BUFR
0136832880999992017032618004-13251-043405FM-12+044899999V0203601N0000199999999020000199+03501+02301100461ADDAA101999999AZ101061AZ201061GA1011+006001081GE19MSL   +99999+99999GF101991011999006001999999MA1999999095741MD1999999-0081REMSYN004BUFR
0165832880999992017032712004-13251-043405FM-12+044899999V0200901N0005199999999020000199+02501+02261101261ADDAA101999999AZ101061AZ201061GA1021+006001081GA2999+999999051GE19MSL   +99999+99999GF106991021999006001999999KA1120N+02381MA1999999096411MD1999999+0121REMSYN004BUFR
0165832880999992017032712004-13262-043408FM-15+044399999V0202001N001010304819N009999199+02601+02201999999ADDGA1021+009141999GA2071+030481999GE19MSL   +99999+99999GF199999021999009141999999MA1101601999999REMMET058METAR SBLP 271200Z 20002KT 9999 FEW030 BKN100 26/22 Q1016=
0165832880999992017032713004-13262-043408FM-15+044399999V0209999C000010304819N009999199+02901+02201999999ADDGA1021+009141999GA2071+030481999GE19MSL   +99999+99999GF199999021999009141999999MA1101601999999REMMET058METAR SBLP 271300Z 00000KT 9999 FEW030 BKN100 29/22 Q1016=
0165832880999992017032714004-13262-043408FM-15+044399999V0202701N003110304819N009999199+03101+02101999999ADDGA1021+009141999GA2071+030481999GE19MSL   +99999+99999GF199999021999009141999999MA1101601999999REMMET058METAR SBLP 271400Z 27006KT 9999 FEW030 BKN100 31/21 Q1016=
0165832880999992017032715004-13262-043408FM-15+044399999V0209999C000010304819N009999199+03201+02101999999ADDGA1021+009141999GA2071+030481999GE19MSL   +99999+99999GF199999021999009141999999MA1101501999999REMMET058METAR SBLP 271500Z 00000KT 9999 FEW030 BKN100 32/21 Q1015=
0165832880999992017032717004-13262-043408FM-15+044399999V0209999C00001030481CN009999199+03601+01801999999ADDGA1021+009141999GA2041+030481999GE19MSL   +99999+99999GF199999021999009141999999MA1101101999999REMMET058METAR SBLP 271700Z 00000KT 9999 FEW030 SCT100 36/18 Q1011=
0168832880999992017032718004-13251-043405FM-12+044899999V0203601N0010199999999020000199+03421+02321100591ADDAA101999999AZ101061AZ201061GA1011+006001081GA2999+999999031GA3999+999999001GE19MSL   +99999+99999GF105991011999006001999999MA1999999095861MD1999999+0121REMSYN004BUFR
0165832880999992017032718004-13262-043408FM-15+044399999V0202501N00311030481CN009999199+03601+01901999999ADDGA1021+009141999GA2041+030481999GE19MSL   +99999+99999GF199999021999009141999999MA1101001999999REMMET058METAR SBLP 271800Z 25006KT 9999 FEW030 SCT100 36/19 Q1010=
0165832880999992017032719004-13262-043408FM-15+044399999V0202401N00311030481CN009999199+03401+02001999999ADDGA1021+009141999GA2041+030481999GE19MSL   +99999+99999GF199999021999009141999999MA1101001999999REMMET058METAR SBLP 271900Z 24006KT 9999 FEW030 SCT100 34/20 Q1010=
0142832880999992017032800004-13251-043405FM-12+044899999V0201801N0010199999999002000199+02971+02341100921ADDAA101999999AY111061AY211061GA1021+006001091GE19MSL   +99999+99999GF102991021999006001999999MA1999999096081MD1999999+0121MW1131REMSYN004BUFR
0149832880999992017032812004-13251-043405FM-12+044899999V0203201N0010101250199020000199+02711+02291101301ADDAA101999999AZ101061AZ201061GA1061+012501031GE19MSL   +99999+99999GF106991061999012501999999KA1120N+02381MA1999999096461MD1999999+0051REMSYN004BUFR
0165832880999992017032812004-13262-043408FM-15+044399999V0203301N00261030481CN009999199+02801+02201999999ADDGA1021+009141999GA2041+030481999GE19MSL   +99999+99999GF199999021999009141999999MA1101601999999REMMET058METAR SBLP 281200Z 33005KT 9999 FEW030 SCT100 28/22 Q1016=
0142832880999992017032813004-13262-043408FM-15+044399999V0200501N002619999999N009999199+03001+02101999999ADDGA1021+009141999GE19MSL   +99999+99999GF199999021999009141999999MA1101601999999REMMET051METAR SBLP 281300Z 05005KT 9999 FEW030 30/21 Q1016=
0142832880999992017032814004-13262-043408FM-15+044399999V0200101N004119999999N009999199+03101+02101999999ADDGA1021+009141999GE19MSL   +99999+99999GF199999021999009141999999MA1101501999999REMMET051METAR SBLP 281400Z 01008KT 9999 FEW030 31/21 Q1015=
0201832880999992017032815004-13262-043408FM-15+044399999V0203501N00771009141CN009999199+03301+02001999999ADDGA1021+006101999GA2041+009141999GA3021+012191081GE19MSL   +99999+99999GF199999021999006101999999MA1101401999999MW1611REMMET072METAR SBLP 281500Z 35015KT 9999 -RA FEW020 SCT030 FEW040TCU 33/20 Q1014=
0165832880999992017032817004-13262-043408FM-15+044399999V0209999C00001030481CN009999199+03401+02201999999ADDGA1021+009141999GA2041+030481999GE19MSL   +99999+99999GF199999021999009141999999MA1101201999999REMMET058METAR SBLP 281700Z 00000KT 9999 FEW030 SCT100 34/22 Q1012=
0174832880999992017032818004-13251-043405FM-12+044899999V0203201N0010100600199020000199+03271+02431100721ADDAA106006031AY161061AY261061GA1051+006001061GA2999+999999031GA3999+999999101GE19MSL   +99999+99999GF108991051999006001999999MA1999999095931MD1999999+0071MW1021REMSYN004BUFR
0165832880999992017032819004-13262-043408FM-15+044399999V0200401N00261030481CN009999199+03301+02001999999ADDGA1021+009141999GA2041+030481999GE19MSL   +99999+99999GF199999021999009141999999MA1101001999999REMMET058METAR SBLP 281900Z 04005KT 9999 FEW030 SCT100 33/20 Q1010=
0136832880999992017032900004-13251-043405FM-12+044899999V0200901N0005199999999002000199+02921+02481100881ADDAA101999999AZ101061AZ201061GA1041+006001061GE19MSL   +99999+99999GF104991041999006001999999MA1999999096061MD1999999-0021REMSYN004BUFR
0187832880999992017032912004-13251-043405FM-12+044899999V0201401N0015199999999020000199+02301+02201101251ADDAA124012031AY161061AY251061GA1031+006001061GA2999+999999051GA3999+999999021GE19MSL   +99999+99999GF108991031999006001999999KA1120N+02201MA1999999096371MD1999999-0091MW1031REMSYN004BUFR
0175832880999992017032912004-13262-043408FM-15+044399999V0201801N001010061019N009999199+02401+02201999999ADDGA1071+006101999GA2071+030481999GE19MSL   +99999+99999GF199999071999006101999999MA1101601999999MW1611REMMET062METAR SBLP 291200Z 18002KT 9999 -RA BKN020 BKN100 24/22 Q1016=
0175832880999992017032913004-13262-043408FM-15+044399999V0201801N003610061019N009999199+02401+02301999999ADDGA1071+006101999GA2071+030481999GE19MSL   +99999+99999GF199999071999006101999999MA1101701999999MW1611REMMET062METAR SBLP 291300Z 18007KT 9999 -RA BKN020 BKN100 24/23 Q1017=
0175832880999992017032914004-13262-043408FM-15+044399999V0201601N003110304819N009999199+02401+02201999999ADDGA1041+006101999GA2071+030481999GE19MSL   +99999+99999GF199999041999006101999999MA1101701999999MW1611REMMET062METAR SBLP 291400Z 16006KT 9999 -RA SCT020 BKN100 24/22 Q1017=
0165832880999992017032915004-13262-043408FM-15+044399999V0201601N003110304819N009999199+02401+02301999999ADDGA1041+006101999GA2071+030481999GE19MSL   +99999+99999GF199999041999006101999999MA1101501999999REMMET058METAR SBLP 291500Z 16006KT 9999 SCT020 BKN100 24/23 Q1015=
0165832880999992017032917004-13262-043408FM-15+044399999V0201201N002610304819N009999199+02701+02201999999ADDGA1041+006101999GA2071+030481999GE19MSL   +99999+99999GF199999041999006101999999MA1101301999999REMMET058METAR SBLP 291700Z 12005KT 9999 SCT020 BKN100 27/22 Q1013=
0158832880999992017032918004-13251-043405FM-12+044899999V0200901N0010199999999020000199+02611+02211100931ADDAA106002031AY151061AY251061GA1031+006001061GA2999+999999011GE19MSL   +99999+99999GF106991031999006001999999MA1999999096071MD1999999+0141MW1021REMSYN004BUFR
0165832880999992017032918004-13262-043408FM-15+044399999V0200901N002610304819N009999199+02801+02301999999ADDGA1041+006101999GA2071+030481999GE19MSL   +99999+99999GF199999041999006101999999MA1101201999999REMMET058METAR SBLP 291800Z 09005KT 9999 SCT020 BKN100 28/23 Q1012=
0165832880999992017032919004-13262-043408FM-15+044399999V0200901N002110304819N009999199+02801+02201999999ADDGA1021+006101999GA2071+030481999GE19MSL   +99999+99999GF199999021999006101999999MA1101201999999REMMET058METAR SBLP 291900Z 09004KT 9999 FEW020 BKN100 28/22 Q1012=
0152832880999992017033000004-13251-043405FM-12+044899999V0203601N0000199999999002000199+02501+02321101001ADDAA101999999AZ101061AZ201061GA1021+006001061GA2999+999999021GE19MSL   +99999+99999GF108991021999006001999999MA1999999096071MD1999999+0011REMSYN004BUFR
0187832880999992017033012004-13251-043405FM-12+044899999V0202301N0005100600199020000199+02401+02301101271ADDAA124004031AY161061AY261061GA1051+006001061GA2999+999999041GA3999+999999101GE19MSL   +99999+99999GF108991051999006001999999KA1120N+02281MA1999999096361MD1999999-0011MW1031REMSYN004BUFR
0165832880999992017033012004-13262-043408FM-15+044399999V0202101N002610304819N009999199+02501+02301999999ADDGA1041+006101999GA2071+030481999GE19MSL   +99999+99999GF199999041999006101999999MA1101601999999REMMET058METAR SBLP 301200Z 21005KT 9999 SCT020 BKN100 25/23 Q1016=
0165832880999992017033013004-13262-043408FM-15+044399999V0209999C000010304819N009999199+02601+02301999999ADDGA1041+006101999GA2071+030481999GE19MSL   +99999+99999GF199999041999006101999999MA1101601999999REMMET058METAR SBLP 301300Z 00000KT 9999 SCT020 BKN100 26/23 Q1016=
0165832880999992017033014004-13262-043408FM-15+044399999V0202001N001510304819N009999199+02801+02401999999ADDGA1041+006101999GA2071+030481999GE19MSL   +99999+99999GF199999041999006101999999MA1101601999999REMMET058METAR SBLP 301400Z 20003KT 9999 SCT020 BKN100 28/24 Q1016=
0165832880999992017033015004-13262-043408FM-15+044399999V0202401N002610304819N009999199+02701+02401999999ADDGA1041+006101999GA2071+030481999GE19MSL   +99999+99999GF199999041999006101999999MA1101501999999REMMET058METAR SBLP 301500Z 24005KT 9999 SCT020 BKN100 27/24 Q1015=
0152832880999992017033018004-13251-043405FM-12+044899999V0201801N0010199999999020000199+03011+02331100821ADDAA101999999AZ101061AZ201061GA1031+006001081GA2999+999999031GE19MSL   +99999+99999GF104991031999006001999999MA1999999095971MD1999999-0101REMSYN004BUFR
0165832880999992017033018004-13262-043408FM-15+044399999V0201701N00211009141CN009999199+03201+02201999999ADDGA1021+006101999GA2041+009141999GE19MSL   +99999+99999GF199999021999006101999999MA1101201999999REMMET058METAR SBLP 301800Z 17004KT 9999 FEW020 SCT030 32/22 Q1012=
0142832880999992017033019004-13262-043408FM-15+044399999V0202001N001019999999N009999199+03201+02101999999ADDGA1041+009141999GE19MSL   +99999+99999GF199999041999009141999999MA1101101999999REMMET051METAR SBLP 301900Z 20002KT 9999 SCT030 32/21 Q1011=
0174832880999992017033100004-13251-043405FM-12+044899999V0203601N0010100600199002000199+02221+02201101271ADDAA106059031AY191061AY211061GA1081+006001071GA2999+999999101GA3999+999999101GE19MSL   +99999+99999GF108991081999006001999999MA1999999096341MD1999999+0271MW1631REMSYN004BUFR
0187832880999992017033112004-13251-043405FM-12+044899999V0203601N0000100600199020000199+02471+02281101441ADDAA124074031AY161061AY261061GA1081+006001061GA2999+999999101GA3999+999999101GE19MSL   +99999+99999GF108991081999006001999999KA1120N+02201MA1999999096511MD1999999+0151MW1021REMSYN004BUFR
0165832880999992017033112004-13262-043408FM-15+044399999V0209999C00001030481CN009999199+02701+02201999999ADDGA1041+006101999GA2041+030481999GE19MSL   +99999+99999GF199999041999006101999999MA1101701999999REMMET058METAR SBLP 311200Z 00000KT 9999 SCT020 SCT100 27/22 Q1017=
0165832880999992017033114004-13262-043408FM-15+044399999V0203301N00211030481CN009999199+02801+02301999999ADDGA1021+006101999GA2041+030481999GE19MSL   +99999+99999GF199999021999006101999999MA1101601999999REMMET058METAR SBLP 311400Z 33004KT 9999 FEW020 SCT100 28/23 Q1016=
0191832880999992017033115004-13262-043408FM-15+044399999V0209999C00001009141CN009999199+03001+02201999999ADDGA1021+006101999GA2041+009141999GA3021+012191081GE19MSL   +99999+99999GF199999021999006101999999MA1101601999999REMMET068METAR SBLP 311500Z 00000KT 9999 FEW020 SCT030 FEW040TCU 30/22 Q1016=
0168832880999992017033117004-13262-043408FM-15+044399999V0202901N001519999999N009999199+03001+02301999999ADDGA1021+009141999GA2021+012191081GE19MSL   +99999+99999GF199999021999009141999999MA1101301999999REMMET061METAR SBLP 311700Z 29003KT 9999 FEW030 FEW040TCU 30/23 Q1013=
0174832880999992017033118004-13251-043405FM-12+044899999V0203201N0015100600199020000199+03011+02451100981ADDAA106002031AY161061AY261061GA1081+006001061GA2999+999999101GA3999+999999101GE19MSL   +99999+99999GF108991081999006001999999MA1999999096121MD1999999+0151MW1031REMSYN004BUFR
0168832880999992017033118004-13262-043408FM-15+044399999V0203501N005119999999N009999199+03201+02201999999ADDGA1021+009141999GA2021+012191081GE19MSL   +99999+99999GF199999021999009141999999MA1101301999999REMMET061METAR SBLP 311800Z 35010KT 9999 FEW030 FEW040TCU 32/22 Q1013=
0201832880999992017033119004-13262-043408FM-15+044399999V0202901N00361030481CN009999199+02501+02101999999ADDGA1021+006101999GA2021+012191081GA3041+030481999GE19MSL   +99999+99999GF199999021999006101999999MA1101301999999MW1611REMMET072METAR SBLP 311900Z 29007KT 9999 -RA FEW020 FEW040TCU SCT100 25/21 Q1013=
0174832880999992017040100004-13251-043405FM-12+044899999V0201401N0005100600199002000199+02421+02291101251ADDAA106000831AY151061AY221061GA1051+006001061GA2999+999999041GA3999+999999101GE19MSL   +99999+99999GF108991051999006001999999MA1999999096321MD1999999-0021MW1031REMSYN004BUFR
0149832880999992017040112004-13251-043405FM-12+044899999V0203601N0000100300199020000199+02471+02281101401ADDAA124006031AZ101061AZ201061GA1051+003001061GE19MSL   +99999+99999GF105991051999003001999999KA1120N+02221MA1999999096491MD1999999-0021REMSYN004BUFR
0136832880999992017040118004-13251-043405FM-12+044899999V0203201N0015199999999020000199+03221+02291100811ADDAA101999999AZ101061AZ201061GA1011+006001081GE19MSL   +99999+99999GF101991011999006001999999MA1999999095991MD1999999-0131REMSYN004BUFR
0187832880999992017040212004-13251-043405FM-12+044899999V0203601N0000100600199004000199+02301+02211101421ADDAA124004031AY151061AY221061GA1081+006001071GA2999+999999051GA3999+999999101GE19MSL   +99999+99999GF108991081999006001999999KA1120N+02281MA1999999096501MD1999999+0011MW1611REMSYN004BUFR
0158832880999992017040218004-13251-043405FM-12+044899999V0203601N0010199999999020000199+02601+02091101051ADDAA106000831AY151061AY221061GA1041+006001091GA2999+999999031GE19MSL   +99999+99999GF106991041999006001999999MA1999999096161MD1999999+0171MW1021REMSYN004BUFR
0149832880999992017040412004-13251-043405FM-12+044899999V0203601N0000101750199020000199+02601+02291101261ADDAA101999999AZ101061AZ201061GA1071+017501031GE19MSL   +99999+99999GF107991071999017501999999KA1120N+02351MA1999999096381MD1999999-0071REMSYN004BUFR
0072832880999992017040412004-13262-043408FM-15+044399999V0201701N002119999999Y999999999+02701+02101999999ADDMA1101601999999REMMET045METAR SBLP 041200Z 17004KT CAVOK 27/21 Q1016=
0165832880999992017040413004-13262-043408FM-15+044399999V0201501N00311030481CN009999199+02901+02101999999ADDGA1041+009141999GA2041+030481999GE19MSL   +99999+99999GF199999041999009141999999MA1101601999999REMMET058METAR SBLP 041300Z 15006KT 9999 SCT030 SCT100 29/21 Q1016=
0165832880999992017040414004-13262-043408FM-15+044399999V0200301N00211030481CN009999199+03001+02101999999ADDGA1041+009141999GA2041+030481999GE19MSL   +99999+99999GF199999041999009141999999MA1101601999999REMMET058METAR SBLP 041400Z 03004KT 9999 SCT030 SCT100 30/21 Q1016=
0142832880999992017040415004-13262-043408FM-15+044399999V0200601N003110091419N009999199+03101+02101999999ADDGA1071+009141999GE19MSL   +99999+99999GF199999071999009141999999MA1101401999999REMMET051METAR SBLP 041500Z 06006KT 9999 BKN030 31/21 Q1014=
0168832880999992017040417004-13262-043408FM-15+044399999V0200701N003119999999N009999199+03101+02101999999ADDGA1021+009141999GA2021+012191081GE19MSL   +99999+99999GF199999021999009141999999MA1101301999999REMMET061METAR SBLP 041700Z 07006KT 9999 FEW030 FEW040TCU 31/21 Q1013=
0136832880999992017040418004-13251-043405FM-12+044899999V0201801N0021100600199020000199+02511+02291100861ADDAA101999999AZ101061AZ201061GA1061+006001081GE19MSL   +99999+99999GF106991061999006001999999MA1999999096041MD1999999+0051REMSYN004BUFR
0168832880999992017040418004-13262-043408FM-15+044399999V0201801N003119999999N009999199+03101+02001999999ADDGA1021+009141999GA2021+012191081GE19MSL   +99999+99999GF199999021999009141999999MA1101201999999REMMET061METAR SBLP 041800Z 18006KT 9999 FEW030 FEW040TCU 31/20 Q1012=
0168832880999992017040419004-13262-043408FM-15+044399999V0200901N005119999999N009999199+03201+02201999999ADDGA1021+009141999GA2021+012191081GE19MSL   +99999+99999GF199999021999009141999999MA1101201999999REMMET061METAR SBLP 041900Z 09010KT 9999 FEW030 FEW040TCU 32/22 Q1012=
