0149833440999992017010112004-14886-040801FM-12+084099999V0200901N0021199999999020000199+02271+01621101881ADDAA101999999AZ101061AZ201061GA1021+003001081GE19MSL   +99999+99999GF102991021999003001999999KA1120N+01361MA1999999091961MD1999999+0001REMSYN004BUFR
0072833440999992017010113004-14863-040863FM-15+091499999V0201401N004619999999Y999999999+02301+01601999999ADDMA1102101999999REMMET045METAR SBQV 011300Z 14009KT CAVOK 23/16 Q1021=
0142833440999992017010114004-14863-040863FM-15+091499999V0200701N003619999999N009999199+02601+01501999999ADDGA1021+009141999GE19MSL   +99999+99999GF199999021999009141999999MA1102001999999REMMET051METAR SBQV 011400Z 07007KT 9999 FEW030 26/15 Q1020=
0142833440999992017010115004-14863-040863FM-15+091499999V0201001N003619999999N009999199+02601+01601999999ADDGA1041+009141999GE19MSL   +99999+99999GF199999041999009141999999MA1102001999999REMMET051METAR SBQV 011500Z 10007KT 9999 SCT030 26/16 Q1020=
0142833440999992017010116004-14863-040863FM-15+091499999V0200501N002619999999N009999199+02801+01601999999ADDGA1041+009141999GE19MSL   +99999+99999GF199999041999009141999999MA1101901999999REMMET051METAR SBQV 011600Z 05005KT 9999 SCT030 28/16 Q1019=
0142833440999992017010117004-14863-040863FM-15+091499999V0200901N002619999999N009999199+02801+01501999999ADDGA1041+009141999GE19MSL   +99999+99999GF199999041999009141999999MA1101901999999REMMET051METAR SBQV 011700Z 09005KT 9999 SCT030 28/15 Q1019=
0136833440999992017010118004-14886-040801FM-12+084099999V0200901N0021199999999020000199+02851+01601999999ADDAA101999999AZ101061AZ201061GA1031+003001081GE19MSL   +99999+99999GF103991031999003001999999MA1999999091591MD1999999-0081REMSYN004BUFR
0142833440999992017010118004-14863-040863FM-15+091499999V0201401N003119999999N009999199+02901+01501999999ADDGA1041+009141999GE19MSL   +99999+99999GF199999041999009141999999MA1101801999999REMMET051METAR SBQV 011800Z 14006KT 9999 SCT030 29/15 Q1018=
0142833440999992017010119004-14863-040863FM-15+091499999V0201501N004619999999N009999199+02901+01601999999ADDGA1041+009141999GE19MSL   +99999+99999GF199999041999009141999999MA1101801999999REMMET051METAR SBQV 011900Z 15009KT 9999 SCT030 29/16 Q1018=
0142833440999992017010120004-14863-040863FM-15+091499999V0201601N004119999999N009999199+02701+01501999999ADDGA1041+009141999GE19MSL   +99999+99999GF199999041999009141999999MA1101801999999REMMET051METAR SBQV 012000Z 16008KT 9999 SCT030 27/15 Q1018=
0142833440999992017010121004-14863-040863FM-15+091499999V0201401N005719999999N009999199+02601+01501999999ADDGA1021+009141999GE19MSL   +99999+99999GF199999021999009141999999MA1101801999999REMMET051METAR SBQV 012100Z 14011KT 9999 FEW030 26/15 Q1018=
0072833440999992017010122004-14863-040863FM-15+091499999V0201301N003119999999Y999999999+02601+01501999999ADDMA1101801999999REMMET045METAR SBQV 012200Z 13006KT CAVOK 26/15 Q1018=
0072833440999992017010123004-14863-040863FM-15+091499999V0201201N002119999999Y999999999+02501+01601999999ADDMA1101801999999REMMET045METAR SBQV 012300Z 12004KT CAVOK 25/16 Q1018=
0072833440999992017010200004-14863-040863FM-15+091499999V0201201N006719999999Y999999999+02201+01701999999ADDMA1101901999999REMMET045METAR SBQV 020000Z 12013KT CAVOK 22/17 Q1019=
0072833440999992017010207004-14863-040863FM-15+091499999V0209999C000019999999Y999999999+01801+01501999999ADDMA1101701999999REMMET045METAR SBQV 020700Z 00000KT CAVOK 18/15 Q1017=
0072833440999992017010208004-14863-040863FM-15+091499999V0209999C000019999999Y999999999+01901+01601999999ADDMA1101801999999REMMET045METAR SBQV 020800Z 00000KT CAVOK 19/16 Q1018=
0072833440999992017010209004-14863-040863FM-15+091499999V0200401N004119999999Y999999999+01801+01501999999ADDMA1101801999999REMMET045METAR SBQV 020900Z 04008KT CAVOK 18/15 Q1018=
0073833440999992017010210004-14863-040863FM-15+091499999V0209999N999999999999Y999999999+02101+01601999999ADDMA1101801999999REMMET046METAR SBQV 021000Z 000000KT CAVOK 21/16 Q1018=
0072833440999992017010211004-14863-040863FM-15+091499999V0200201N002619999999Y999999999+02301+01701999999ADDMA1101901999999REMMET045METAR SBQV 021100Z 02005KT CAVOK 23/17 Q1019=
0111833440999992017010212004-14886-040801FM-12+084099999V0200501N0021122000199020000199+02301+01771101281ADDAA101999999AZ101061AZ201061GF100991999999999999999999KA1120N+01561MA1999999091751MD1999999+0211REMSYN004BUFR
0072833440999992017010213004-14863-040863FM-15+091499999V0200701N001519999999Y999999999+02601+01701999999ADDMA1101901999999REMMET045METAR SBQV 021300Z 07003KT CAVOK 26/17 Q1019=
0072833440999992017010214004-14863-040863FM-15+091499999V0203401N001519999999Y999999999+02801+01601999999ADDMA1101801999999REMMET045METAR SBQV 021400Z 34003KT CAVOK 28/16 Q1018=
0072833440999992017010215004-14863-040863FM-15+091499999V0202501N001519999999Y999999999+02901+01501999999ADDMA1101801999999REMMET045METAR SBQV 021500Z 25003KT CAVOK 29/15 Q1018=
0142833440999992017010216004-14863-040863FM-15+091499999V0202601N001519999999N009999199+03001+01501999999ADDGA1041+007621999GE19MSL   +99999+99999GF199999041999007621999999MA1101701999999REMMET051METAR SBQV 021600Z 26003KT 9999 SCT025 30/15 Q1017=
0136833440999992017010218004-14886-040801FM-12+084099999V0201801N0015100300199020000199+03121+01711999999ADDAA101999999AZ101061AZ201061GA1061+003001081GE19MSL   +99999+99999GF106991061999003001999999MA1999999091411MD1999999+0181REMSYN004BUFR
0142833440999992017010218004-14863-040863FM-15+091499999V0200601N004110091419N009999199+03201+01501999999ADDGA1071+009141999GE19MSL   +99999+99999GF199999071999009141999999MA1101501999999REMMET051METAR SBQV 021800Z 06008KT 9999 BKN030 32/15 Q1015=
0142833440999992017010219004-14863-040863FM-15+091499999V0201201N004119999999N009999199+02801+01601999999ADDGA1041+009141999GE19MSL   +99999+99999GF199999041999009141999999MA1101501999999REMMET051METAR SBQV 021900Z 12008KT 9999 SCT030 28/16 Q1015=
0142833440999992017010220004-14863-040863FM-15+091499999V0201401N004119999999N009999199+02901+01501999999ADDGA1041+009141999GE19MSL   +99999+99999GF199999041999009141999999MA1101501999999REMMET051METAR SBQV 022000Z 14008KT 9999 SCT030 29/15 Q1015=
0142833440999992017010221004-14863-040863FM-15+091499999V0201201N004619999999N009999199+02801+01601999999ADDGA1021+009141999GE19MSL   +99999+99999GF199999021999009141999999MA1101501999999REMMET051METAR SBQV 022100Z 12009KT 9999 FEW030 28/16 Q1015=
0072833440999992017010222004-14863-040863FM-15+091499999V0201001N005719999999Y999999999+02601+01601999999ADDMA1101601999999REMMET045METAR SBQV 022200Z 10011KT CAVOK 26/16 Q1016=
0072833440999992017010223004-14863-040863FM-15+091499999V0200901N005119999999Y999999999+02601+01601999999ADDMA1101601999999REMMET045METAR SBQV 022300Z 09010KT CAVOK 26/16 Q1016=
0072833440999992017010300004-14863-040863FM-15+091499999V0200801N005719999999Y999999999+02401+01801999999ADDMA1101601999999REMMET045METAR SBQV 030000Z 08011KT CAVOK 24/18 Q1016=
0072833440999992017010301004-14863-040863FM-15+091499999V0200601N003619999999Y999999999+02201+01801999999ADDMA1101701999999REMMET045METAR SBQV 030100Z 06007KT CAVOK 22/18 Q1017=
0072833440999992017010307004-14863-040863FM-15+091499999V0201301N003119999999Y999999999+01901+01601999999ADDMA1101601999999REMMET045METAR SBQV 030700Z 13006KT CAVOK 19/16 Q1016=
0072833440999992017010308004-14863-040863FM-15+091499999V0209999C000019999999Y999999999+01901+01701999999ADDMA1101701999999REMMET045METAR SBQV 030800Z 00000KT CAVOK 19/17 Q1017=
0072833440999992017010309004-14863-040863FM-15+091499999V0209999C000019999999Y999999999+01801+01601999999ADDMA1101701999999REMMET045METAR SBQV 030900Z 00000KT CAVOK 18/16 Q1017=
0072833440999992017010310004-14863-040863FM-15+091499999V0209999C000019999999Y999999999+02101+01601999999ADDMA1101801999999REMMET045METAR SBQV 031000Z 00000KT CAVOK 21/16 Q1018=
0072833440999992017010311004-14863-040863FM-15+091499999V0200901N002619999999Y999999999+02201+01701999999ADDMA1101901999999REMMET045METAR SBQV 031100Z 09005KT CAVOK 22/17 Q1019=
0181833440999992017010312004-14886-040801FM-12+084099999V0200901N0015100300199020000199+02421+01741101211ADDAA101999999AZ101061AZ201061GA1081+003001081GA2999+999999031GA3999+999999011GE19MSL   +99999+99999GF108991081999003001999999KA1120N+01621MA1999999091741MD1999999-0011REMSYN004BUFR
0072833440999992017010312004-14863-040863FM-15+091499999V0201001N003119999999Y999999999+02401+01701999999ADDMA1101901999999REMMET045METAR SBQV 031200Z 10006KT CAVOK 24/17 Q1019=
0072833440999992017010313004-14863-040863FM-15+091499999V0200801N002119999999Y999999999+02601+01601999999ADDMA1101901999999REMMET045METAR SBQV 031300Z 08004KT CAVOK 26/16 Q1019=
0072833440999992017010314004-14863-040863FM-15+091499999V0201401N003619999999Y999999999+02801+01701999999ADDMA1101801999999REMMET045METAR SBQV 031400Z 14007KT CAVOK 28/17 Q1018=
0142833440999992017010315004-14863-040863FM-15+091499999V0201601N003619999999N009999199+02801+01501999999ADDGA1021+009141999GE19MSL   +99999+99999GF199999021999009141999999MA1101801999999REMMET051METAR SBQV 031500Z 16007KT 9999 FEW030 28/15 Q1018=
0142833440999992017010317004-14863-040863FM-15+091499999V0201201N004119999999N009999199+02801+01701999999ADDGA1041+009141999GE19MSL   +99999+99999GF199999041999009141999999MA1101601999999REMMET051METAR SBQV 031700Z 12008KT 9999 SCT030 28/17 Q1016=
0152833440999992017010318004-14886-040801FM-12+084099999V0201401N0031199999999020000199+02971+01641999999ADDAA101999999AZ101061AZ201061GA1021+003001081GA2999+999999031GE19MSL   +99999+99999GF106991021999003001999999MA1999999091431MD1999999+0021REMSYN004BUFR
0142833440999992017010318004-14863-040863FM-15+091499999V0201101N005119999999N009999199+03001+01601999999ADDGA1041+009141999GE19MSL   +99999+99999GF199999041999009141999999MA1101601999999REMMET051METAR SBQV 031800Z 11010KT 9999 SCT030 30/16 Q1016=
0168833440999992017010319004-14863-040863FM-15+091499999V0201401N00511009141CN009999199+02901+01601999999ADDGA1041+009141999GA2021+009141081GE19MSL   +99999+99999GF199999041999009141999999MA1101501999999REMMET061METAR SBQV 031900Z 14010KT 9999 SCT030 FEW030TCU 29/16 Q1015=
0142833440999992017010320004-14863-040863FM-15+091499999V0201401N006219999999N009999199+02901+01501999999ADDGA1021+009141999GE19MSL   +99999+99999GF199999021999009141999999MA1101501999999REMMET051METAR SBQV 032000Z 14012KT 9999 FEW030 29/15 Q1015=
0142833440999992017010321004-14863-040863FM-15+091499999V0201101N006719999999N009999199+02801+01601999999ADDGA1021+009141999GE19MSL   +99999+99999GF199999021999009141999999MA1101601999999REMMET051METAR SBQV 032100Z 11013KT 9999 FEW030 28/16 Q1016=
0072833440999992017010322004-14863-040863FM-15+091499999V0201101N006219999999Y999999999+02701+01701999999ADDMA1101601999999REMMET045METAR SBQV 032200Z 11012KT CAVOK 27/17 Q1016=
0072833440999992017010400004-14863-040863FM-15+091499999V0200901N005719999999Y999999999+02201+01801999999ADDMA1101701999999REMMET045METAR SBQV 040000Z 09011KT CAVOK 22/18 Q1017=
0072833440999992017010401004-14863-040863FM-15+091499999V0201001N006219999999Y999999999+02201+01801999999ADDMA1101701999999REMMET045METAR SBQV 040100Z 10012KT CAVOK 22/18 Q1017=
0142833440999992017010407004-14863-040863FM-15+091499999V0201001N005119999999N009999199+01801+01601999999ADDGA1021+009141999GE19MSL   +99999+99999GF199999021999009141999999MA1101801999999REMMET051METAR SBQV 040700Z 10010KT 9999 FEW030 18/16 Q1018=
0142833440999992017010409004-14863-040863FM-15+091499999V0209999C000019999999N009999199+01901+01601999999ADDGA1021+009141999GE19MSL   +99999+99999GF199999021999009141999999MA1101901999999REMMET051METAR SBQV 040900Z 00000KT 9999 FEW030 19/16 Q1019=
0142833440999992017010410004-14863-040863FM-15+091499999V0200601N002110076219N009999199+02001+01601999999ADDGA1071+007621999GE19MSL   +99999+99999GF199999071999007621999999MA1102001999999REMMET051METAR SBQV 041000Z 06004KT 9999 BKN025 20/16 Q1020=
0142833440999992017010411004-14863-040863FM-15+091499999V0200801N003110091419N009999199+02001+01601999999ADDGA1071+009141999GE19MSL   +99999+99999GF199999071999009141999999MA1102001999999REMMET051METAR SBQV 041100Z 08006KT 9999 BKN030 20/16 Q1020=
0181833440999992017010412004-14886-040801FM-12+084099999V0200501N0031100300199020000199+02121+01721101431ADDAA101999999AZ101061AZ201061GA1081+003001071GA2999+999999101GA3999+999999101GE19MSL   +99999+99999GF108991081999003001999999KA1120N+01661MA1999999091871MD1999999-0111REMSYN004BUFR
0142833440999992017010412004-14863-040863FM-15+091499999V0200801N003610091419N009999199+02101+01601999999ADDGA1071+009141999GE19MSL   +99999+99999GF199999071999009141999999MA1102001999999REMMET051METAR SBQV 041200Z 08007KT 9999 BKN030 21/16 Q1020=
0142833440999992017010413004-14863-040863FM-15+091499999V0200601N003610091419N009999199+02201+01701999999ADDGA1071+009141999GE19MSL   +99999+99999GF199999071999009141999999MA1102101999999REMMET051METAR SBQV 041300Z 06007KT 9999 BKN030 22/17 Q1021=
0142833440999992017010414004-14863-040863FM-15+091499999V0200801N003110091419N009999199+02401+01701999999ADDGA1071+009141999GE19MSL   +99999+99999GF199999071999009141999999MA1102101999999REMMET051METAR SBQV 041400Z 08006KT 9999 BKN030 24/17 Q1021=
0142833440999992017010416004-14863-040863FM-15+091499999V0209999C000010091419N009999199+02701+01701999999ADDGA1071+009141999GE19MSL   +99999+99999GF199999071999009141999999MA1101901999999REMMET051METAR SBQV 041600Z 00000KT 9999 BKN030 27/17 Q1019=
0152833440999992017010418004-14886-040801FM-12+084099999V0203601N0015199999999020000199+02821+01681999999ADDAA101999999AZ101061AZ201061GA1041+003001081GA2999+999999031GE19MSL   +99999+99999GF106991041999003001999999MA1999999091691MD1999999-0261REMSYN004BUFR
0142833440999992017010418004-14863-040863FM-15+091499999V0200801N002619999999N009999199+03001+01601999999ADDGA1041+009141999GE19MSL   +99999+99999GF199999041999009141999999MA1101801999999REMMET051METAR SBQV 041800Z 08005KT 9999 SCT030 30/16 Q1018=
0142833440999992017010419004-14863-040863FM-15+091499999V0201201N003619999999N009999199+02901+01501999999ADDGA1041+009141999GE19MSL   +99999+99999GF199999041999009141999999MA1101701999999REMMET051METAR SBQV 041900Z 12007KT 9999 SCT030 29/15 Q1017=
0142833440999992017010420004-14863-040863FM-15+091499999V0201201N004119999999N009999199+02901+01501999999ADDGA1021+009141999GE19MSL   +99999+99999GF199999021999009141999999MA1101701999999REMMET051METAR SBQV 042000Z 12008KT 9999 FEW030 29/15 Q1017=
0142833440999992017010421004-14863-040863FM-15+091499999V0201301N004119999999N009999199+02701+01401999999ADDGA1021+009141999GE19MSL   +99999+99999GF199999021999009141999999MA1101701999999REMMET051METAR SBQV 042100Z 13008KT 9999 FEW030 27/14 Q1017=
0142833440999992017010422004-14863-040863FM-15+091499999V0201101N002619999999N009999199+02601+01501999999ADDGA1021+009141999GE19MSL   +99999+99999GF199999021999009141999999MA1101701999999REMMET051METAR SBQV 042200Z 11005KT 9999 FEW030 26/15 Q1017=
0142833440999992017010423004-14863-040863FM-15+091499999V0201101N006219999999N009999199+02301+01701999999ADDGA1021+009141999GE19MSL   +99999+99999GF199999021999009141999999MA1101801999999REMMET051METAR SBQV 042300Z 11012KT 9999 FEW030 23/17 Q1018=
0136833440999992017010500004-14886-040801FM-12+084099999V0200901N0026100600199004000199+02301+01831101271ADDAA101999999AZ101061AZ201061GA1051+006001061GE19MSL   +99999+99999GF105991051999006001999999MA1999999091721MD1999999-0171REMSYN004BUFR
0142833440999992017010500004-14863-040863FM-15+091499999V0201101N005719999999N009999199+02201+01801999999ADDGA1021+007011999GE19MSL   +99999+99999GF199999021999007011999999MA1101901999999REMMET051METAR SBQV 050000Z 11011KT 9999 FEW023 22/18 Q1019=
0142833440999992017010501004-14863-040863FM-15+091499999V0201101N004619999999N009999199+02001+01801999999ADDGA1021+007011999GE19MSL   +99999+99999GF199999021999007011999999MA1101901999999REMMET051METAR SBQV 050100Z 11009KT 9999 FEW023 20/18 Q1019=
0142833440999992017010507004-14863-040863FM-15+091499999V0201201N001519999999N009999199+01901+01601999999ADDGA1021+007621999GE19MSL   +99999+99999GF199999021999007621999999MA1101901999999REMMET051METAR SBQV 050700Z 12003KT 9999 FEW025 19/16 Q1019=
0142833440999992017010508004-14863-040863FM-15+091499999V0209999C000019999999N009999199+01801+01501999999ADDGA1021+007621999GE19MSL   +99999+99999GF199999021999007621999999MA1102001999999REMMET051METAR SBQV 050800Z 00000KT 9999 FEW025 18/15 Q1020=
0142833440999992017010509004-14863-040863FM-15+091499999V0200801N002119999999N009999199+01801+01601999999ADDGA1041+007621999GE19MSL   +99999+99999GF199999041999007621999999MA1102001999999REMMET051METAR SBQV 050900Z 08004KT 9999 SCT025 18/16 Q1020=
0142833440999992017010510004-14863-040863FM-15+091499999V0201001N003119999999N009999199+01901+01601999999ADDGA1041+007621999GE19MSL   +99999+99999GF199999041999007621999999MA1102101999999REMMET051METAR SBQV 051000Z 10006KT 9999 SCT025 19/16 Q1021=
0149833440999992017010512004-14886-040801FM-12+084099999V0200901N0015199999999020000199+02251+01621101631ADDAA101999999AZ101061AZ201061GA1031+003001061GE19MSL   +99999+99999GF103991031999003001999999KA1120N+01521MA1999999092061MD1999999+0191REMSYN004BUFR
0142833440999992017010512004-14863-040863FM-15+091499999V0201101N004619999999N009999199+02301+01501999999ADDGA1041+009141999GE19MSL   +99999+99999GF199999041999009141999999MA1102201999999REMMET051METAR SBQV 051200Z 11009KT 9999 SCT030 23/15 Q1022=
0142833440999992017010513004-14863-040863FM-15+091499999V0200801N004119999999N009999199+02501+01701999999ADDGA1021+009141999GE19MSL   +99999+99999GF199999021999009141999999MA1102101999999REMMET051METAR SBQV 051300Z 08008KT 9999 FEW030 25/17 Q1021=
0142833440999992017010516004-14863-040863FM-15+091499999V0200901N004619999999N009999199+02901+01401999999ADDGA1021+009141999GE19MSL   +99999+99999GF199999021999009141999999MA1102001999999REMMET051METAR SBQV 051600Z 09009KT 9999 FEW030 29/14 Q1020=
0142833440999992017010517004-14863-040863FM-15+091499999V0201001N005110091419N009999199+02901+01401999999ADDGA1071+009141999GE19MSL   +99999+99999GF199999071999009141999999MA1101901999999REMMET051METAR SBQV 051700Z 10010KT 9999 BKN030 29/14 Q1019=
0168833440999992017010518004-14886-040801FM-12+084099999V0201401N0046199999999020000199+02951+01481999999ADDAA101999999AZ101061AZ201061GA1021+003001081GA2999+999999031GA3999+999999001GE19MSL   +99999+99999GF106991021999003001999999MA1999999091701MD1999999+0011REMSYN004BUFR
0142833440999992017010518004-14863-040863FM-15+091499999V0201201N004119999999N009999199+02901+01301999999ADDGA1041+009141999GE19MSL   +99999+99999GF199999041999009141999999MA1101801999999REMMET051METAR SBQV 051800Z 12008KT 9999 SCT030 29/13 Q1018=
0142833440999992017010519004-14863-040863FM-15+091499999V0200901N004619999999N009999199+02801+01201999999ADDGA1021+009141999GE19MSL   +99999+99999GF199999021999009141999999MA1101801999999REMMET051METAR SBQV 051900Z 09009KT 9999 FEW030 28/12 Q1018=
0142833440999992017010520004-14863-040863FM-15+091499999V0200901N004619999999N009999199+02801+01101999999ADDGA1021+009141999GE19MSL   +99999+99999GF199999021999009141999999MA1101801999999REMMET051METAR SBQV 052000Z 09009KT 9999 FEW030 28/11 Q1018=
0072833440999992017010521004-14863-040863FM-15+091499999V0200801N005119999999Y999999999+02701+01401999999ADDMA1101801999999REMMET045METAR SBQV 052100Z 08010KT CAVOK 27/14 Q1018=
0072833440999992017010522004-14863-040863FM-15+091499999V0200901N005119999999Y999999999+02601+01601999999ADDMA1101801999999REMMET045METAR SBQV 052200Z 09010KT CAVOK 26/16 Q1018=
0098833440999992017010600004-14886-040801FM-12+084099999V0200901N0021122000199004000199+02201+01671101331ADDAA101999999AZ101061AZ201061GF100991999999999999999999MA1999999091771MD1999999+0051REMSYN004BUFR
0072833440999992017010600004-14863-040863FM-15+091499999V0200801N004619999999Y999999999+02201+01601999999ADDMA1101901999999REMMET045METAR SBQV 060000Z 08009KT CAVOK 22/16 Q1019=
0072833440999992017010601004-14863-040863FM-15+091499999V0201001N005719999999Y999999999+02001+01601999999ADDMA1101901999999REMMET045METAR SBQV 060100Z 10011KT CAVOK 20/16 Q1019=
0072833440999992017010602004-14863-040863FM-15+091499999V0200901N005719999999Y999999999+02101+01701999999ADDMA1101901999999REMMET045METAR SBQV 060200Z 09011KT CAVOK 21/17 Q1019=
0072833440999992017010603004-14863-040863FM-15+091499999V0201001N004619999999Y999999999+01901+01601999999ADDMA1101901999999REMMET045METAR SBQV 060300Z 10009KT CAVOK 19/16 Q1019=
0142833440999992017010607004-14863-040863FM-15+091499999V0201201N001510021319N009999199+01701+01601999999ADDGA1071+002131999GE19MSL   +99999+99999GF199999071999002131999999MA1101901999999REMMET051METAR SBQV 060700Z 12003KT 9999 BKN007 17/16 Q1019=
0142833440999992017010608004-14863-040863FM-15+091499999V0200801N003110076219N009999199+01801+01601999999ADDGA1071+007621999GE19MSL   +99999+99999GF199999071999007621999999MA1101901999999REMMET051METAR SBQV 060800Z 08006KT 9999 BKN025 18/16 Q1019=
0142833440999992017010609004-14863-040863FM-15+091499999V0200901N002619999999N009999199+01701+01501999999ADDGA1041+007621999GE19MSL   +99999+99999GF199999041999007621999999MA1102001999999REMMET051METAR SBQV 060900Z 09005KT 9999 SCT025 17/15 Q1020=
0142833440999992017010610004-14863-040863FM-15+091499999V0201201N004610076219N009999199+01801+01601999999ADDGA1071+007621999GE19MSL   +99999+99999GF199999071999007621999999MA1102101999999REMMET051METAR SBQV 061000Z 12009KT 9999 BKN025 18/16 Q1021=
0142833440999992017010611004-14863-040863FM-15+091499999V0200901N003610076219N009999199+01901+01601999999ADDGA1071+007621999GE19MSL   +99999+99999GF199999071999007621999999MA1102101999999REMMET051METAR SBQV 061100Z 09007KT 9999 BKN025 19/16 Q1021=
0149833440999992017010612004-14886-040801FM-12+084099999V0200501N0010100300199020000199+02071+01661101521ADDAA101999999AZ101061AZ201061GA1071+003001061GE19MSL   +99999+99999GF107991071999003001999999KA1120N+01581MA1999999091931MD1999999+0131REMSYN004BUFR
0142833440999992017010612004-14863-040863FM-15+091499999V0200701N004619999999N009999199+02101+01601999999ADDGA1041+009141999GE19MSL   +99999+99999GF199999041999009141999999MA1102101999999REMMET051METAR SBQV 061200Z 07009KT 9999 SCT030 21/16 Q1021=
0142833440999992017010614004-14863-040863FM-15+091499999V0201201N003619999999N009999199+02601+01601999999ADDGA1041+009141999GE19MSL   +99999+99999GF199999041999009141999999MA1102001999999REMMET051METAR SBQV 061400Z 12007KT 9999 SCT030 26/16 Q1020=
0142833440999992017010615004-14863-040863FM-15+091499999V0201501N004110091419N009999199+02601+01501999999ADDGA1071+009141999GE19MSL   +99999+99999GF199999071999009141999999MA1102001999999REMMET051METAR SBQV 061500Z 15008KT 9999 BKN030 26/15 Q1020=
0142833440999992017010616004-14863-040863FM-15+091499999V0201701N004110091419N009999199+02701+01501999999ADDGA1071+009141999GE19MSL   +99999+99999GF199999071999009141999999MA1101901999999REMMET051METAR SBQV 061600Z 17008KT 9999 BKN030 27/15 Q1019=
0168833440999992017010618004-14886-040801FM-12+084099999V0201401N0031199999999020000199+02721+01561999999ADDAA101999999AZ101061AZ201061GA1041+003001081GA2999+999999031GA3999+999999001GE19MSL   +99999+99999GF106991041999003001999999MA1999999091641MD1999999+0031REMSYN004BUFR
0142833440999992017010618004-14863-040863FM-15+091499999V0201301N005719999999N009999199+02601+01301999999ADDGA1041+009141999GE19MSL   +99999+99999GF199999041999009141999999MA1101801999999REMMET051METAR SBQV 061800Z 13011KT 9999 SCT030 26/13 Q1018=
0072833440999992017010619004-14863-040863FM-15+091499999V0201401N004619999999Y999999999+02701+01301999999ADDMA1101701999999REMMET045METAR SBQV 061900Z 14009KT CAVOK 27/13 Q1017=
0142833440999992017010620004-14863-040863FM-15+091499999V0201601N004119999999N009999199+02601+01401999999ADDGA1041+009141999GE19MSL   +99999+99999GF199999041999009141999999MA1101701999999REMMET051METAR SBQV 062000Z 16008KT 9999 SCT030 26/14 Q1017=
0142833440999992017010621004-14863-040863FM-15+091499999V0201401N005119999999N009999199+02601+01401999999ADDGA1021+009141999GE19MSL   +99999+99999GF199999021999009141999999MA1101801999999REMMET051METAR SBQV 062100Z 14010KT 9999 FEW030 26/14 Q1018=
0142833440999992017010622004-14863-040863FM-15+091499999V0201301N003119999999N009999199+02401+01501999999ADDGA1021+007621999GE19MSL   +99999+99999GF199999021999007621999999MA1101801999999REMMET051METAR SBQV 062200Z 13006KT 9999 FEW025 24/15 Q1018=
0072833440999992017010623004-14863-040863FM-15+091499999V0200901N004619999999Y999999999+02301+01501999999ADDMA1101801999999REMMET045METAR SBQV 062300Z 09009KT CAVOK 23/15 Q1018=
0098833440999992017010700004-14886-040801FM-12+084099999V0200901N0031122000199004000199+02171+01611101331ADDAA101999999AZ101061AZ201061GF100991999999999999999999MA1999999091731MD1999999+0041REMSYN004BUFR
0072833440999992017010700004-14863-040863FM-15+091499999V0201001N004119999999Y999999999+02201+01601999999ADDMA1101901999999REMMET045METAR SBQV 070000Z 10008KT CAVOK 22/16 Q1019=
0072833440999992017010702004-14863-040863FM-15+091499999V0201101N003619999999Y999999999+01901+01501999999ADDMA1101901999999REMMET045METAR SBQV 070200Z 11007KT CAVOK 19/15 Q1019=
0072833440999992017010703004-14863-040863FM-15+091499999V0201301N004619999999Y999999999+01901+01501999999ADDMA1101901999999REMMET045METAR SBQV 070300Z 13009KT CAVOK 19/15 Q1019=
0072833440999992017010707004-14863-040863FM-15+091499999V0201401N003619999999Y999999999+01601+01501999999ADDMA1101801999999REMMET045METAR SBQV 070700Z 14007KT CAVOK 16/15 Q1018=
0142833440999992017010709004-14863-040863FM-15+091499999V0201201N002619999999N009999199+01801+01601999999ADDGA1021+009141999GE19MSL   +99999+99999GF199999021999009141999999MA1102001999999REMMET051METAR SBQV 070900Z 12005KT 9999 FEW030 18/16 Q1020=
0072833440999992017010711004-14863-040863FM-15+091499999V0201101N004619999999Y999999999+02101+01401999999ADDMA1102101999999REMMET045METAR SBQV 071100Z 11009KT CAVOK 21/14 Q1021=
0165833440999992017010712004-14886-040801FM-12+084099999V0200901N0026199999999020000199+02211+01561101541ADDAA101999999AZ101061AZ201061GA1021+003001081GA2999+999999001GE19MSL   +99999+99999GF103991021999003001999999KA1120N+01421MA1999999091971MD1999999-0041REMSYN004BUFR
0142833440999992017010712004-14863-040863FM-15+091499999V0201001N003119999999N009999199+02201+01401999999ADDGA1021+009141999GE19MSL   +99999+99999GF199999021999009141999999MA1102101999999REMMET051METAR SBQV 071200Z 10006KT 9999 FEW030 22/14 Q1021=
0142833440999992017010713004-14863-040863FM-15+091499999V0201201N005119999999N009999199+02501+01501999999ADDGA1041+009141999GE19MSL   +99999+99999GF199999041999009141999999MA1102101999999REMMET051METAR SBQV 071300Z 12010KT 9999 SCT030 25/15 Q1021=
0142833440999992017010714004-14863-040863FM-15+091499999V0201101N005119999999N009999199+02501+01601999999ADDGA1041+009141999GE19MSL   +99999+99999GF199999041999009141999999MA1102101999999REMMET051METAR SBQV 071400Z 11010KT 9999 SCT030 25/16 Q1021=
0142833440999992017010715004-14863-040863FM-15+091499999V0201301N006710091419N009999199+02601+01501999999ADDGA1071+009141999GE19MSL   +99999+99999GF199999071999009141999999MA1102001999999REMMET051METAR SBQV 071500Z 13013KT 9999 BKN030 26/15 Q1020=
0142833440999992017010716004-14863-040863FM-15+091499999V0201201N004610091419N009999199+02601+01501999999ADDGA1071+009141999GE19MSL   +99999+99999GF199999071999009141999999MA1101901999999REMMET051METAR SBQV 071600Z 12009KT 9999 BKN030 26/15 Q1019=
0142833440999992017010717004-14863-040863FM-15+091499999V0201301N004619999999N009999199+02701+01501999999ADDGA1041+009141999GE19MSL   +99999+99999GF199999041999009141999999MA1101901999999REMMET051METAR SBQV 071700Z 13009KT 9999 SCT030 27/15 Q1019=
0152833440999992017010718004-14886-040801FM-12+084099999V0200901N0021199999999020000199+02821+01611999999ADDAA101999999AZ101061AZ201061GA1031+003001061GA2999+999999001GE19MSL   +99999+99999GF106991031999003001999999MA1999999091661MD1999999-0021REMSYN004BUFR
0181833440999992017010812004-14886-040801FM-12+084099999V0200901N0026199999999020000199+02201+01611101451ADDAA101999999AZ101061AZ201061GA1031+003001061GA2999+999999031GA3999+999999001GE19MSL   +99999+99999GF106991031999003001999999KA1120N+01321MA1999999091891MD1999999+0081REMSYN004BUFR
0142833440999992017010814004-14863-040863FM-15+091499999V0201401N005710091419N009999199+02501+01601999999ADDGA1071+009141999GE19MSL   +99999+99999GF199999071999009141999999MA1101901999999REMMET051METAR SBQV 081400Z 14011KT 9999 BKN030 25/16 Q1019=
0146833440999992017010815004-14863-040863FM-15+091499999V0201001N003610091419N009999199+02501+01401999999ADDGA1071+009141999GE19MSL   +99999+99999GF199999071999009141999999REMMET051METAR SBQV 081500Z 10007KT 9999 BKN030 25/14 Q1010=EQDQ011010  3APOA  
0142833440999992017010816004-14863-040863FM-15+091499999V0201101N003110091419N009999199+02601+01401999999ADDGA1071+009141999GE19MSL   +99999+99999GF199999071999009141999999MA1101801999999REMMET051METAR SBQV 081600Z 11006KT 9999 BKN030 26/14 Q1018=
0142833440999992017010817004-14863-040863FM-15+091499999V0201601N004610091419N009999199+02501+01501999999ADDGA1071+009141999GE19MSL   +99999+99999GF199999071999009141999999MA1101701999999REMMET051METAR SBQV 081700Z 16009KT 9999 BKN030 25/15 Q1017=
0168833440999992017010818004-14886-040801FM-12+084099999V0200901N0021100300199020000199+02571+01591999999ADDAA101999999AZ101061AZ201061GA1051+003001071GA2999+999999051GA3999+999999001GE19MSL   +99999+99999GF107991051999003001999999MA1999999091641MD1999999+0021REMSYN004BUFR
0142833440999992017010818004-14863-040863FM-15+091499999V0201201N002610091419N009999199+02601+01601999999ADDGA1071+009141999GE19MSL   +99999+99999GF199999071999009141999999MA1101701999999REMMET051METAR SBQV 081800Z 12005KT 9999 BKN030 26/16 Q1017=
0142833440999992017010819004-14863-040863FM-15+091499999V0201101N003610076219N009999199+02401+01501999999ADDGA1071+007621999GE19MSL   +99999+99999GF199999071999007621999999MA1101601999999REMMET051METAR SBQV 081900Z 11007KT 9999 BKN025 24/15 Q1016=
0153833440999992017010821004-14863-040863FM-15+091499999V0201001N005719999999N009999199+02101+01601999999ADDGA1041+007621999GE19MSL   +99999+99999GF199999041999007621999999MA1101701999999MW1161REMMET056METAR SBQV 082100Z 10011KT 9999 VCSH SCT025 21/16 Q1017=
0142833440999992017010823004-14863-040863FM-15+091499999V0201101N005119999999N009999199+02101+01601999999ADDGA1041+007621999GE19MSL   +99999+99999GF199999041999007621999999MA1101801999999REMMET051METAR SBQV 082300Z 11010KT 9999 SCT025 21/16 Q1018=
0142833440999992017010900004-14863-040863FM-15+091499999V0201001N005119999999N009999199+02001+01601999999ADDGA1041+007621999GE19MSL   +99999+99999GF199999041999007621999999MA1101801999999REMMET051METAR SBQV 090000Z 10010KT 9999 SCT025 20/16 Q1018=
0142833440999992017010901004-14863-040863FM-15+091499999V0201001N005119999999N009999199+02001+01601999999ADDGA1041+007621999GE19MSL   +99999+99999GF199999041999007621999999MA1101801999999REMMET051METAR SBQV 090100Z 10010KT 9999 SCT025 20/16 Q1018=
0142833440999992017010905104-14863-040863FM-16+091499999V0201501N002619999999N009999199+01701+01601999999ADDGA1021+007621999GE19MSL   +99999+99999GF199999021999007621999999MA1101801999999REMMET051SPECI SBQV 090510Z 15005KT 9999 FEW025 17/16 Q1018=
0142833440999992017010906004-14863-040863FM-15+091499999V0201501N002619999999N009999199+01701+01601999999ADDGA1021+007621999GE19MSL   +99999+99999GF199999021999007621999999MA1101801999999REMMET051METAR SBQV 090600Z 15005KT 9999 FEW025 17/16 Q1018=
0142833440999992017010907004-14863-040863FM-15+091499999V0201001N004119999999N009999199+01801+01501999999ADDGA1021+007621999GE19MSL   +99999+99999GF199999021999007621999999MA1101801999999REMMET051METAR SBQV 090700Z 10008KT 9999 FEW025 18/15 Q1018=
0142833440999992017010908004-14863-040863FM-15+091499999V0201101N004119999999N009999199+01701+01501999999ADDGA1021+007621999GE19MSL   +99999+99999GF199999021999007621999999MA1101801999999REMMET051METAR SBQV 090800Z 11008KT 9999 FEW025 17/15 Q1018=
0142833440999992017010909004-14863-040863FM-15+091499999V0201001N002119999999N009999199+01701+01501999999ADDGA1041+009141999GE19MSL   +99999+99999GF199999041999009141999999MA1101801999999REMMET051METAR SBQV 090900Z 10004KT 9999 SCT030 17/15 Q1018=
0072833440999992017010910004-14863-040863FM-15+091499999V0201101N003619999999Y999999999+02001+01601999999ADDMA1101901999999REMMET045METAR SBQV 091000Z 11007KT CAVOK 20/16 Q1019=
0072833440999992017010911004-14863-040863FM-15+091499999V0201001N003619999999Y999999999+02201+01501999999ADDMA1101901999999REMMET045METAR SBQV 091100Z 10007KT CAVOK 22/15 Q1019=
0111833440999992017010912004-14886-040801FM-12+084099999V0200901N0021122000199020000199+02401+01551101411ADDAA101999999AZ101061AZ201061GF100991999999999999999999KA1120N+01441MA1999999091801MD1999999-0091REMSYN004BUFR
0072833440999992017010912004-14863-040863FM-15+091499999V0200801N002619999999Y999999999+02201+01401999999ADDMA1101901999999REMMET045METAR SBQV 091200Z 08005KT CAVOK 22/14 Q1019=
0072833440999992017010913004-14863-040863FM-15+091499999V0201901N002119999999Y999999999+02601+01201999999ADDMA1101901999999REMMET045METAR SBQV 091300Z 19004KT CAVOK 26/12 Q1019=
0142833440999992017010914004-14863-040863FM-15+091499999V0209999C000019999999N009999199+02701+01101999999ADDGA1041+009141999GE19MSL   +99999+99999GF199999041999009141999999MA1101901999999REMMET051METAR SBQV 091400Z 00000KT 9999 SCT030 27/11 Q1019=
0142833440999992017010915004-14863-040863FM-15+091499999V0209999C000019999999N009999199+02801+01101999999ADDGA1041+009141999GE19MSL   +99999+99999GF199999041999009141999999MA1101801999999REMMET051METAR SBQV 091500Z 00000KT 9999 SCT030 28/11 Q1018=
0142833440999992017010916004-14863-040863FM-15+091499999V0201401N004110091419N009999199+02801+01101999999ADDGA1071+009141999GE19MSL   +99999+99999GF199999071999009141999999MA1101701999999REMMET051METAR SBQV 091600Z 14008KT 9999 BKN030 28/11 Q1017=
0142833440999992017010917004-14863-040863FM-15+091499999V0202101N002110091419N009999199+02901+01101999999ADDGA1071+009141999GE19MSL   +99999+99999GF199999071999009141999999MA1101601999999REMMET051METAR SBQV 091700Z 21004KT 9999 BKN030 29/11 Q1016=
0152833440999992017010918004-14886-040801FM-12+084099999V0200901N0021199999999020000199+02971+01161999999ADDAA101999999AZ101061AZ201061GA1031+006001081GA2999+999999001GE19MSL   +99999+99999GF104991031999006001999999MA1999999091421MD1999999-0221REMSYN004BUFR
0142833440999992017010918004-14863-040863FM-15+091499999V0201401N003119999999N009999199+03001+01201999999ADDGA1041+009141999GE19MSL   +99999+99999GF199999041999009141999999MA1101601999999REMMET051METAR SBQV 091800Z 14006KT 9999 SCT030 30/12 Q1016=
0142833440999992017010919004-14863-040863FM-15+091499999V0200901N003119999999N009999199+03101+01201999999ADDGA1041+009141999GE19MSL   +99999+99999GF199999041999009141999999MA1101501999999REMMET051METAR SBQV 091900Z 09006KT 9999 SCT030 31/12 Q1015=
0142833440999992017010920004-14863-040863FM-15+091499999V0201601N003119999999N009999199+02901+01101999999ADDGA1041+009141999GE19MSL   +99999+99999GF199999041999009141999999MA1101501999999REMMET051METAR SBQV 092000Z 16006KT 9999 SCT030 29/11 Q1015=
0142833440999992017010922004-14863-040863FM-15+091499999V0201201N004119999999N009999199+02601+01101999999ADDGA1021+009141999GE19MSL   +99999+99999GF199999021999009141999999MA1101601999999REMMET051METAR SBQV 092200Z 12008KT 9999 FEW030 26/11 Q1016=
0098833440999992017011000004-14886-040801FM-12+084099999V0200901N0026122000199020000199+02121+01761101051ADDAA101999999AZ101061AZ201061GF100991999999999999999999MA1999999091541MD1999999-0061REMSYN004BUFR
0072833440999992017011000004-14863-040863FM-15+091499999V0201001N004619999999Y999999999+02301+01701999999ADDMA1101701999999REMMET045METAR SBQV 100000Z 10009KT CAVOK 23/17 Q1017=
0072833440999992017011001004-14863-040863FM-15+091499999V0201001N006219999999Y999999999+02001+01601999999ADDMA1101701999999REMMET045METAR SBQV 100100Z 10012KT CAVOK 20/16 Q1017=
0072833440999992017011007004-14863-040863FM-15+091499999V0200501N004119999999Y999999999+01801+01501999999ADDMA1101701999999REMMET045METAR SBQV 100700Z 05008KT CAVOK 18/15 Q1017=
0072833440999992017011008004-14863-040863FM-15+091499999V0200501N004119999999Y999999999+01801+01401999999ADDMA1101701999999REMMET045METAR SBQV 100800Z 05008KT CAVOK 18/14 Q1017=
0072833440999992017011009004-14863-040863FM-15+091499999V0200801N002619999999Y999999999+01901+01401999999ADDMA1101701999999REMMET045METAR SBQV 100900Z 08005KT CAVOK 19/14 Q1017=
0072833440999992017011010004-14863-040863FM-15+091499999V0201201N002619999999Y999999999+02001+01501999999ADDMA1101801999999REMMET045METAR SBQV 101000Z 12005KT CAVOK 20/15 Q1018=
0072833440999992017011011004-14863-040863FM-15+091499999V0200101N002119999999Y999999999+02301+01701999999ADDMA1101801999999REMMET045METAR SBQV 101100Z 01004KT CAVOK 23/17 Q1018=
0111833440999992017011012004-14886-040801FM-12+084099999V0200501N0026122000199020000199+02371+01831101071ADDAA101999999AZ101061AZ201061GF100991999999999999999999KA1120N+01621MA1999999091561MD1999999+0241REMSYN004BUFR
0072833440999992017011013004-14863-040863FM-15+091499999V0209999C000019999999Y999999999+02601+01501999999ADDMA1101801999999REMMET045METAR SBQV 101300Z 00000KT CAVOK 26/15 Q1018=
0150833440999992017011015004-14863-040863FM-15+091499999V0203301V001519999999N009999199+03001+01201999999ADDGA1041+009141999GE19MSL   +99999+99999GF199999041999009141999999MA1101601999999REMMET059METAR SBQV 101500Z 33003KT 180V350 9999 SCT030 30/12 Q1016=
0142833440999992017011016004-14863-040863FM-15+091499999V0200101N001519999999N009999199+03101+01201999999ADDGA1041+009141999GE19MSL   +99999+99999GF199999041999009141999999MA1101601999999REMMET051METAR SBQV 101600Z 01003KT 9999 SCT030 31/12 Q1016=
0152833440999992017011018004-14886-040801FM-12+084099999V0201401N0015199999999020000199+03121+01111999999ADDAA101999999AZ101061AZ201061GA1031+003001081GA2999+999999001GE19MSL   +99999+99999GF104991031999003001999999MA1999999091331MD1999999+0091REMSYN004BUFR
0142833440999992017011018004-14863-040863FM-15+091499999V0200901N001519999999N009999199+03101+01101999999ADDGA1041+009141999GE19MSL   +99999+99999GF199999041999009141999999MA1101401999999REMMET051METAR SBQV 101800Z 09003KT 9999 SCT030 31/11 Q1014=
0142833440999992017011019004-14863-040863FM-15+091499999V0201501N003119999999N009999199+03101+01101999999ADDGA1041+009141999GE19MSL   +99999+99999GF199999041999009141999999MA1101401999999REMMET051METAR SBQV 101900Z 15006KT 9999 SCT030 31/11 Q1014=
0142833440999992017011021004-14863-040863FM-15+091499999V0201301N005719999999N009999199+02801+01101999999ADDGA1021+009141999GE19MSL   +99999+99999GF199999021999009141999999MA1101401999999REMMET051METAR SBQV 102100Z 13011KT 9999 FEW030 28/11 Q1014=
0072833440999992017011022004-14863-040863FM-15+091499999V0201201N003619999999Y999999999+02601+01201999999ADDMA1101501999999REMMET045METAR SBQV 102200Z 12007KT CAVOK 26/12 Q1015=
0072833440999992017011023004-14863-040863FM-15+091499999V0201001N005119999999Y999999999+02501+01601999999ADDMA1101501999999REMMET045METAR SBQV 102300Z 10010KT CAVOK 25/16 Q1015=
0098833440999992017011100004-14886-040801FM-12+084099999V0200901N0026122000199004000199+02301+01881101921ADDAA101999999AZ101061AZ201061GF100991999999999999999999MA1999999091441MD1999999+0101REMSYN004BUFR
0072833440999992017011100004-14863-040863FM-15+091499999V0201001N005719999999Y999999999+02301+01801999999ADDMA1101601999999REMMET045METAR SBQV 110000Z 10011KT CAVOK 23/18 Q1016=
0072833440999992017011101004-14863-040863FM-15+091499999V0201001N006219999999Y999999999+02101+01801999999ADDMA1101701999999REMMET045METAR SBQV 110100Z 10012KT CAVOK 21/18 Q1017=
0072833440999992017011108004-14863-040863FM-15+091499999V0201001N004119999999Y999999999+01801+01701999999ADDMA1101701999999REMMET045METAR SBQV 110800Z 10008KT CAVOK 18/17 Q1017=
0142833440999992017011109004-14863-040863FM-15+091499999V0200601N004119999999N009999199+01901+01701999999ADDGA1021+003961999GE19MSL   +99999+99999GF199999021999003961999999MA1101701999999REMMET051METAR SBQV 110900Z 06008KT 9999 FEW013 19/17 Q1017=
0142833440999992017011110004-14863-040863FM-15+091499999V0200901N005719999999N009999199+02101+01701999999ADDGA1021+003961999GE19MSL   +99999+99999GF199999021999003961999999MA1101801999999REMMET051METAR SBQV 111000Z 09011KT 9999 FEW013 21/17 Q1018=
0142833440999992017011111004-14863-040863FM-15+091499999V0200501N003119999999N009999199+02301+01801999999ADDGA1041+004571999GE19MSL   +99999+99999GF199999041999004571999999MA1101801999999REMMET051METAR SBQV 111100Z 05006KT 9999 SCT015 23/18 Q1018=
0149833440999992017011112004-14886-040801FM-12+084099999V0200901N0015100300199020000199+02471+01781101171ADDAA101999999AZ101061AZ201061GA1061+003001061GE19MSL   +99999+99999GF106991061999003001999999KA1120N+01741MA1999999091701MD1999999+0141REMSYN004BUFR
0142833440999992017011112004-14863-040863FM-15+091499999V0200301N004119999999N009999199+02301+01701999999ADDGA1041+005181999GE19MSL   +99999+99999GF199999041999005181999999MA1101901999999REMMET051METAR SBQV 111200Z 03008KT 9999 SCT017 23/17 Q1019=
0142833440999992017011113004-14863-040863FM-15+091499999V0200401N003619999999N009999199+02401+01601999999ADDGA1041+006101999GE19MSL   +99999+99999GF199999041999006101999999MA1101901999999REMMET051METAR SBQV 111300Z 04007KT 9999 SCT020 24/16 Q1019=
0142833440999992017011114004-14863-040863FM-15+091499999V0203501N003110061019N009999199+02701+01701999999ADDGA1071+006101999GE19MSL   +99999+99999GF199999071999006101999999MA1101801999999REMMET051METAR SBQV 111400Z 35006KT 9999 BKN020 27/17 Q1018=
0142833440999992017011116004-14863-040863FM-15+091499999V0209999C000010076219N009999199+02701+01601999999ADDGA1071+007621999GE19MSL   +99999+99999GF199999071999007621999999MA1101701999999REMMET051METAR SBQV 111600Z 00000KT 9999 BKN025 27/16 Q1017=
0142833440999992017011117004-14863-040863FM-15+091499999V0209999C000019999999N009999199+02901+01601999999ADDGA1041+009141999GE19MSL   +99999+99999GF199999041999009141999999MA1101601999999REMMET051METAR SBQV 111700Z 00000KT 9999 SCT030 29/16 Q1016=
0136833440999992017011118004-14886-040801FM-12+084099999V0201401N0026199999999020000199+02501+01691999999ADDAA101999999AZ101061AZ201061GA1021+003001081GE19MSL   +99999+99999GF102991021999003001999999MA1999999091401MD1999999+0071REMSYN004BUFR
0142833440999992017011118004-14863-040863FM-15+091499999V0201401N002619999999N009999199+03001+01601999999ADDGA1041+010671999GE19MSL   +99999+99999GF199999041999010671999999MA1101501999999REMMET051METAR SBQV 111800Z 14005KT 9999 SCT035 30/16 Q1015=
0142833440999992017011120004-14863-040863FM-15+091499999V0201501N004119999999N009999199+02901+01501999999ADDGA1021+010671999GE19MSL   +99999+99999GF199999021999010671999999MA1101401999999REMMET051METAR SBQV 112000Z 15008KT 9999 FEW035 29/15 Q1014=
0142833440999992017011121004-14863-040863FM-15+091499999V0201401N004619999999N009999199+02801+01501999999ADDGA1021+010671999GE19MSL   +99999+99999GF199999021999010671999999MA1101401999999REMMET051METAR SBQV 112100Z 14009KT 9999 FEW035 28/15 Q1014=
0072833440999992017011122004-14863-040863FM-15+091499999V0201301N003619999999Y999999999+02601+01601999999ADDMA1101501999999REMMET045METAR SBQV 112200Z 13007KT CAVOK 26/16 Q1015=
0072833440999992017011123004-14863-040863FM-15+091499999V0201201N003619999999Y999999999+02601+01601999999ADDMA1101601999999REMMET045METAR SBQV 112300Z 12007KT CAVOK 26/16 Q1016=
0098833440999992017011200004-14886-040801FM-12+084099999V0200901N0021122000199004000199+02221+01801100941ADDAA101999999AZ101061AZ201061GF100991999999999999999999MA1999999091471MD1999999+0031REMSYN004BUFR
0072833440999992017011200004-14863-040863FM-15+091499999V0201101N005119999999Y999999999+02501+01701999999ADDMA1101601999999REMMET045METAR SBQV 120000Z 11010KT CAVOK 25/17 Q1016=
0142833440999992017011207004-14863-040863FM-15+091499999V0201101N002619999999N009999199+01801+01701999999ADDGA1041+002131999GE19MSL   +99999+99999GF199999041999002131999999MA1101701999999REMMET051METAR SBQV 120700Z 11005KT 9999 SCT007 18/17 Q1017=
0142833440999992017011208004-14863-040863FM-15+091499999V0200901N002119999999N009999199+01901+01701999999ADDGA1041+002131999GE19MSL   +99999+99999GF199999041999002131999999MA1101701999999REMMET051METAR SBQV 120800Z 09004KT 9999 SCT007 19/17 Q1017=
0072833440999992017011209004-14863-040863FM-15+091499999V0200801N001519999999Y999999999+02001+01801999999ADDMA1101801999999REMMET045METAR SBQV 120900Z 08003KT CAVOK 20/18 Q1018=
0142833440999992017011210004-14863-040863FM-15+091499999V0200601N002619999999N009999199+02201+01801999999ADDGA1021+003961999GE19MSL   +99999+99999GF199999021999003961999999MA1101801999999REMMET051METAR SBQV 121000Z 06005KT 9999 FEW013 22/18 Q1018=
0142833440999992017011211004-14863-040863FM-15+091499999V0200701N002619999999N009999199+02401+01801999999ADDGA1041+004571999GE19MSL   +99999+99999GF199999041999004571999999MA1101901999999REMMET051METAR SBQV 121100Z 07005KT 9999 SCT015 24/18 Q1019=
0165833440999992017011212004-14886-040801FM-12+084099999V0200901N0021100300199020000199+02401+01871101181ADDAA101999999AZ101061AZ201061GA1051+003001071GA2999+999999001GE19MSL   +99999+99999GF107991051999003001999999KA1120N+01801MA1999999091741MD1999999-0041REMSYN004BUFR
0142833440999992017011212004-14863-040863FM-15+091499999V0200301N003619999999N009999199+02401+01801999999ADDGA1041+006101999GE19MSL   +99999+99999GF199999041999006101999999MA1101901999999REMMET051METAR SBQV 121200Z 03007KT 9999 SCT020 24/18 Q1019=
0142833440999992017011213004-14863-040863FM-15+091499999V0200201N002110061019N009999199+02501+01801999999ADDGA1071+006101999GE19MSL   +99999+99999GF199999071999006101999999MA1101901999999REMMET051METAR SBQV 121300Z 02004KT 9999 BKN020 25/18 Q1019=
0142833440999992017011214004-14863-040863FM-15+091499999V0209999C000010070119N009999199+02601+01801999999ADDGA1071+007011999GE19MSL   +99999+99999GF199999071999007011999999MA1101901999999REMMET051METAR SBQV 121400Z 00000KT 9999 BKN023 26/18 Q1019=
0142833440999992017011215004-14863-040863FM-15+091499999V0209999C000010076219N009999199+02501+01701999999ADDGA1071+007621999GE19MSL   +99999+99999GF199999071999007621999999MA1101801999999REMMET051METAR SBQV 121500Z 00000KT 9999 BKN025 25/17 Q1018=
0142833440999992017011216004-14863-040863FM-15+091499999V0203001N001510082319N009999199+02901+01801999999ADDGA1071+008231999GE19MSL   +99999+99999GF199999071999008231999999MA1101801999999REMMET051METAR SBQV 121600Z 30003KT 9999 BKN027 29/18 Q1018=
0152833440999992017011218004-14886-040801FM-12+084099999V0201401N0015100300199020000199+03011+01781999999ADDAA101999999AZ101061AZ201061GA1051+003001061GA2999+999999001GE19MSL   +99999+99999GF106991051999003001999999MA1999999091451MD1999999-0051REMSYN004BUFR
0142833440999992017011219004-14863-040863FM-15+091499999V0201301N003619999999N009999199+03001+01801999999ADDGA1041+012191999GE19MSL   +99999+99999GF199999041999012191999999MA1101501999999REMMET051METAR SBQV 121900Z 13007KT 9999 SCT040 30/18 Q1015=
0142833440999992017011220004-14863-040863FM-15+091499999V0201601N006219999999N009999199+02801+01601999999ADDGA1021+012191999GE19MSL   +99999+99999GF199999021999012191999999MA1101501999999REMMET051METAR SBQV 122000Z 16012KT 9999 FEW040 28/16 Q1015=
0142833440999992017011221004-14863-040863FM-15+091499999V0201301N004619999999N009999199+02701+01601999999ADDGA1021+012191999GE19MSL   +99999+99999GF199999021999012191999999MA1101501999999REMMET051METAR SBQV 122100Z 13009KT 9999 FEW040 27/16 Q1015=
0072833440999992017011222004-14863-040863FM-15+091499999V0201301N004119999999Y999999999+02601+01701999999ADDMA1101501999999REMMET045METAR SBQV 122200Z 13008KT CAVOK 26/17 Q1015=
0072833440999992017011223004-14863-040863FM-15+091499999V0201001N004119999999Y999999999+02601+01701999999ADDMA1101601999999REMMET045METAR SBQV 122300Z 10008KT CAVOK 26/17 Q1016=
0072833440999992017011300004-14863-040863FM-15+091499999V0200701N004119999999Y999999999+02301+01801999999ADDMA1101701999999REMMET045METAR SBQV 130000Z 07008KT CAVOK 23/18 Q1017=
0142833440999992017011308004-14863-040863FM-15+091499999V0200801N002119999999N009999199+02001+01701999999ADDGA1021+003351999GE19MSL   +99999+99999GF199999021999003351999999MA1101601999999REMMET051METAR SBQV 130800Z 08004KT 9999 FEW011 20/17 Q1016=
0072833440999992017011309004-14863-040863FM-15+091499999V0200801N003119999999Y999999999+02001+01801999999ADDMA1101701999999REMMET045METAR SBQV 130900Z 08006KT CAVOK 20/18 Q1017=
0072833440999992017011310004-14863-040863FM-15+091499999V0201201N002619999999Y999999999+02201+01801999999ADDMA1101801999999REMMET045METAR SBQV 131000Z 12005KT CAVOK 22/18 Q1018=
0072833440999992017011311004-14863-040863FM-15+091499999V0201201N003119999999Y999999999+02201+01801999999ADDMA1101801999999REMMET045METAR SBQV 131100Z 12006KT CAVOK 22/18 Q1018=
0149833440999992017011312004-14886-040801FM-12+084099999V0200501N0005100300199020000199+02401+01821101161ADDAA101999999AZ101061AZ201061GA1061+003001061GE19MSL   +99999+99999GF106991061999003001999999KA1120N+01781MA1999999091691MD1999999-0051REMSYN004BUFR
0142833440999992017011312004-14863-040863FM-15+091499999V0200401N003119999999N009999199+02401+01801999999ADDGA1041+005181999GE19MSL   +99999+99999GF199999041999005181999999MA1101901999999REMMET051METAR SBQV 131200Z 04006KT 9999 SCT017 24/18 Q1019=
0191833440999992017011317004-14863-040863FM-15+091499999V0201501N00571010671CN009999199+02701+01801999999ADDGA1021+006101999GA2021+007621081GA3041+010671999GE19MSL   +99999+99999GF199999021999006101999999MA1101701999999REMMET068METAR SBQV 131700Z 15011KT 9999 FEW020 FEW025TCU SCT035 27/18 Q1017=
0168833440999992017011318004-14886-040801FM-12+084099999V0200501N0021199999999020000199+02851+01931999999ADDAA101999999AZ101061AZ201061GA1021+003001081GA2999+999999031GA3999+999999001GE19MSL   +99999+99999GF107991021999003001999999MA1999999091411MD1999999-0041REMSYN004BUFR
0191833440999992017011318004-14863-040863FM-15+091499999V0201801N00571010671CN009999199+02701+01801999999ADDGA1021+006101999GA2021+007621081GA3041+010671999GE19MSL   +99999+99999GF199999021999006101999999MA1101601999999REMMET068METAR SBQV 131800Z 18011KT 9999 FEW020 FEW025TCU SCT035 27/18 Q1016=
0142833440999992017011319004-14863-040863FM-15+091499999V0201501N006219999999N009999199+02701+01801999999ADDGA1021+012191999GE19MSL   +99999+99999GF199999021999012191999999MA1101501999999REMMET051METAR SBQV 131900Z 15012KT 9999 FEW040 27/18 Q1015=
0142833440999992017011320004-14863-040863FM-15+091499999V0201401N006219999999N009999199+02801+01801999999ADDGA1021+012191999GE19MSL   +99999+99999GF199999021999012191999999MA1101501999999REMMET051METAR SBQV 132000Z 14012KT 9999 FEW040 28/18 Q1015=
0145833440999992017011321004-14863-040863FM-15+091499999V0201401N006219999999N009999199+02501+01801999999ADDGA1021+009141081GE19MSL   +99999+99999GF199999021999009141999999MA1101501999999REMMET054METAR SBQV 132100Z 14012KT 9999 FEW030TCU 25/18 Q1015=
0072833440999992017011322004-14863-040863FM-15+091499999V0201301N005719999999Y999999999+02401+01801999999ADDMA1101501999999REMMET045METAR SBQV 132200Z 13011KT CAVOK 24/18 Q1015=
0168833440999992017011400004-14886-040801FM-12+084099999V0200901N0015101250199004000199+02211+01921101001ADDAA101999999AZ101061AZ201061GA1081+012501081GA2999+999999101GA3999+999999101GE19MSL   +99999+99999GF108991081999012501999999MA1999999091511MD1999999+0091REMSYN004BUFR
0072833440999992017011400004-14863-040863FM-15+091499999V0201101N004619999999Y999999999+02301+01901999999ADDMA1101701999999REMMET045METAR SBQV 140000Z 11009KT CAVOK 23/19 Q1017=
0142833440999992017011407004-14863-040863FM-15+091499999V0201201N002110045719N009999199+01901+01601999999ADDGA1071+004571999GE19MSL   +99999+99999GF199999071999004571999999MA1101601999999REMMET051METAR SBQV 140700Z 12004KT 9999 BKN015 19/16 Q1016=
0072833440999992017011408004-14863-040863FM-15+091499999V0201101N003119999999Y999999999+01801+01601999999ADDMA1101601999999REMMET045METAR SBQV 140800Z 11006KT CAVOK 18/16 Q1016=
0142833440999992017011409004-14863-040863FM-15+091499999V0200601N002619999999N009999199+01801+01601999999ADDGA1021+004571999GE19MSL   +99999+99999GF199999021999004571999999MA1101701999999REMMET051METAR SBQV 140900Z 06005KT 9999 FEW015 18/16 Q1017=
0142833440999992017011410004-14863-040863FM-15+091499999V0200901N002619999999N009999199+01901+01601999999ADDGA1021+004571999GE19MSL   +99999+99999GF199999021999004571999999MA1101701999999REMMET051METAR SBQV 141000Z 09005KT 9999 FEW015 19/16 Q1017=
0072833440999992017011411004-14863-040863FM-15+091499999V0200701N002119999999Y999999999+02201+01601999999ADDMA1101801999999REMMET045METAR SBQV 141100Z 07004KT CAVOK 22/16 Q1018=
0165833440999992017011412004-14886-040801FM-12+084099999V0200501N0021199999999020000199+02321+01651101111ADDAA101999999AZ101061AZ201061GA1031+003001061GA2999+999999001GE19MSL   +99999+99999GF106991031999003001999999KA1120N+01601MA1999999091611MD1999999+0081REMSYN004BUFR
0142833440999992017011413004-14863-040863FM-15+091499999V0201401N002119999999N009999199+02501+01501999999ADDGA1021+007621999GE19MSL   +99999+99999GF199999021999007621999999MA1101701999999REMMET051METAR SBQV 141300Z 14004KT 9999 FEW025 25/15 Q1017=
0142833440999992017011414004-14863-040863FM-15+091499999V0201001N002619999999N009999199+02701+01601999999ADDGA1041+010671999GE19MSL   +99999+99999GF199999041999010671999999MA1101701999999REMMET051METAR SBQV 141400Z 10005KT 9999 SCT035 27/16 Q1017=
0142833440999992017011415004-14863-040863FM-15+091499999V0200801N003110121919N009999199+02701+01601999999ADDGA1071+012191999GE19MSL   +99999+99999GF199999071999012191999999MA1101601999999REMMET051METAR SBQV 141500Z 08006KT 9999 BKN040 27/16 Q1016=
0142833440999992017011417004-14863-040863FM-15+091499999V0201501N002610121919N009999199+02901+01601999999ADDGA1071+012191999GE19MSL   +99999+99999GF199999071999012191999999MA1101501999999REMMET051METAR SBQV 141700Z 15005KT 9999 BKN040 29/16 Q1015=
0152833440999992017011418004-14886-040801FM-12+084099999V0200901N0031100300199020000199+02901+01791999999ADDAA101999999AZ101061AZ201061GA1051+003001081GA2999+999999001GE19MSL   +99999+99999GF107991051999003001999999MA1999999091251MD1999999+0161REMSYN004BUFR
0181833440999992017011512004-14886-040801FM-12+084099999V0200901N0015199999999020000199+02411+01771101151ADDAA101999999AZ101061AZ201061GA1021+003001081GA2999+999999031GA3999+999999001GE19MSL   +99999+99999GF106991021999003001999999KA1120N+01781MA1999999091661MD1999999+0051REMSYN004BUFR
0142833440999992017011514004-14863-040863FM-15+091499999V0201401N003610106719N009999199+02601+01801999999ADDGA1071+010671999GE19MSL   +99999+99999GF199999071999010671999999MA1101801999999REMMET051METAR SBQV 151400Z 14007KT 9999 BKN035 26/18 Q1018=
0165833440999992017011516004-14863-040863FM-15+091499999V0201801N00261021341CN009999199+02801+01701999999ADDGA1041+012191999GA2041+021341999GE19MSL   +99999+99999GF199999041999012191999999MA1101701999999REMMET058METAR SBQV 151600Z 18005KT 9999 SCT040 SCT070 28/17 Q1017=
0165833440999992017011517004-14863-040863FM-15+091499999V0201501N006210304819N009999199+02801+01701999999ADDGA1041+012191999GA2071+030481999GE19MSL   +99999+99999GF199999041999012191999999MA1101601999999REMMET058METAR SBQV 151700Z 15012KT 9999 SCT040 BKN100 28/17 Q1016=
0168833440999992017011518004-14886-040801FM-12+084099999V0200901N0031199999999020000199+02771+01801999999ADDAA101999999AZ101061AZ201061GA1021+003001081GA2999+999999051GA3999+999999001GE19MSL   +99999+99999GF106991021999003001999999MA1999999091411MD1999999+0161REMSYN004BUFR
0165833440999992017011518004-14863-040863FM-15+091499999V0201401N005710304819N009999199+02801+01701999999ADDGA1041+012191999GA2071+030481999GE19MSL   +99999+99999GF199999041999012191999999MA1101601999999REMMET058METAR SBQV 151800Z 14011KT 9999 SCT040 BKN100 28/17 Q1016=
0165833440999992017011519004-14863-040863FM-15+091499999V0201401N006210304819N009999199+02701+01601999999ADDGA1021+012191999GA2071+030481999GE19MSL   +99999+99999GF199999021999012191999999MA1101501999999REMMET058METAR SBQV 151900Z 14012KT 9999 FEW040 BKN100 27/16 Q1015=
0165833440999992017011521004-14863-040863FM-15+091499999V0201301N006210304819N009999199+02401+01701999999ADDGA1021+012191999GA2071+030481999GE19MSL   +99999+99999GF199999021999012191999999MA1101601999999REMMET058METAR SBQV 152100Z 13012KT 9999 FEW040 BKN100 24/17 Q1016=
0165833440999992017011522004-14863-040863FM-15+091499999V0201301N00571030481CN009999199+02301+01701999999ADDGA1021+012191999GA2041+030481999GE19MSL   +99999+99999GF199999021999012191999999MA1101601999999REMMET058METAR SBQV 152200Z 13011KT 9999 FEW040 SCT100 23/17 Q1016=
0072833440999992017011523004-14863-040863FM-15+091499999V0201201N005119999999Y999999999+02301+01801999999ADDMA1101601999999REMMET045METAR SBQV 152300Z 12010KT CAVOK 23/18 Q1016=
0072833440999992017011600004-14863-040863FM-15+091499999V0201201N005719999999Y999999999+02201+01701999999ADDMA1101701999999REMMET045METAR SBQV 160000Z 12011KT CAVOK 22/17 Q1017=
0142833440999992017011607004-14863-040863FM-15+091499999V0201101N003110045719N009999199+01901+01601999999ADDGA1071+004571999GE19MSL   +99999+99999GF199999071999004571999999MA1101701999999REMMET051METAR SBQV 160700Z 11006KT 9999 BKN015 19/16 Q1017=
0161833440999992017011609004-14863-040863FM-15+091499999V0201401N002619999999N009999199+99999+99999999999ADDGA1021+004571999GE19AGL   +99999+99999GF199999021999004571999999MA1101805999999REMMET051METAR SBQV 160900Z 14005KT 9999 FEW015 ///// Q1018=EQDD01      0ADE693
0161833440999992017011611004-14863-040863FM-15+091499999V0209999N999990030519N009999199+99999+99999999999ADDGA1071+003051999GE19AGL   +99999+99999GF199999071999003051999999MA1101805999999REMMET051METAR SBQV 161100Z /////KT 9999 BKN010 ///// Q1018=EQDD01      0ADE693
0181833440999992017011612004-14886-040801FM-12+084099999V0200901N0021100300199020000199+02221+01691101281ADDAA101999999AZ101061AZ201061GA1081+003001071GA2999+999999101GA3999+999999101GE19MSL   +99999+99999GF108991081999003001999999KA1120N+01581MA1999999091711MD1999999-0051REMSYN004BUFR
0161833440999992017011612004-14863-040863FM-15+091499999V0209999N999990036619N009999199+99999+99999999999ADDGA1071+003661999GE19AGL   +99999+99999GF199999071999003661999999MA1101905999999REMMET051METAR SBQV 161200Z /////KT 9999 BKN012 ///// Q1019=EQDD01      0ADE693
0161833440999992017011614004-14863-040863FM-15+091499999V0209999N999990076219N009999199+99999+99999999999ADDGA1071+007621999GE19AGL   +99999+99999GF199999071999007621999999MA1101905999999REMMET051METAR SBQV 161400Z /////KT 9999 BKN025 ///// Q1019=EQDD01      0ADE693
0161833440999992017011615004-14863-040863FM-15+091499999V0209999N999999999999N009999199+99999+99999999999ADDGA1041+009141999GE19AGL   +99999+99999GF199999041999009141999999MA1101805999999REMMET051METAR SBQV 161500Z /////KT 9999 SCT030 ///// Q1018=EQDD01      0ADE693
0184833440999992017011616004-14863-040863FM-15+091499999V0209999N99999030481CN009999199+99999+99999999999ADDGA1021+012191999GA2041+030481999GE19AGL   +99999+99999GF199999021999012191999999MA1101705999999REMMET058METAR SBQV 161600Z /////KT 9999 FEW040 SCT100 ///// Q1017=EQDD01      0ADE693
0168833440999992017011618004-14886-040801FM-12+084099999V0200901N0015100300199020000199+02871+01581999999ADDAA101999999AZ101061AZ201061GA1051+003001061GA2999+999999031GA3999+999999001GE19MSL   +99999+99999GF106991051999003001999999MA1999999091441MD1999999-0031REMSYN004BUFR
0165833440999992017011618004-14863-040863FM-15+091499999V0201301N007210304819N009999199+02801+01401999999ADDGA1021+012191999GA2071+030481999GE19MSL   +99999+99999GF199999021999012191999999MA1101601999999REMMET058METAR SBQV 161800Z 13014KT 9999 FEW040 BKN100 28/14 Q1016=
0165833440999992017011620004-14863-040863FM-15+091499999V0201501N00511030481CN009999199+02801+01401999999ADDGA1021+012191999GA2041+030481999GE19MSL   +99999+99999GF199999021999012191999999MA1101501999999REMMET058METAR SBQV 162000Z 15010KT 9999 FEW040 SCT100 28/14 Q1015=
0165833440999992017011621004-14863-040863FM-15+091499999V0201401N00721030481CN009999199+02601+01401999999ADDGA1021+012191999GA2041+030481999GE19MSL   +99999+99999GF199999021999012191999999MA1101501999999REMMET058METAR SBQV 162100Z 14014KT 9999 FEW040 SCT100 26/14 Q1015=
0142833440999992017011622004-14863-040863FM-15+091499999V0201101N004619999999N009999199+02401+01501999999ADDGA1041+012191999GE19MSL   +99999+99999GF199999041999012191999999MA1101601999999REMMET051METAR SBQV 162200Z 11009KT 9999 SCT040 24/15 Q1016=
0136833440999992017011700004-14886-040801FM-12+084099999V0200901N0026199999999004000199+02171+01571101081ADDAA101999999AZ101061AZ201061GA1031+003001081GE19MSL   +99999+99999GF103991031999003001999999MA1999999091551MD1999999+0041REMSYN004BUFR
0072833440999992017011700004-14863-040863FM-15+091499999V0201001N006219999999Y999999999+02101+01301999999ADDMA1101701999999REMMET045METAR SBQV 170000Z 10012KT CAVOK 21/13 Q1017=
0072833440999992017011701004-14863-040863FM-15+091499999V0201201N004119999999Y999999999+02101+01301999999ADDMA1101801999999REMMET045METAR SBQV 170100Z 12008KT CAVOK 21/13 Q1018=
0072833440999992017011707004-14863-040863FM-15+091499999V0201101N003119999999Y999999999+01601+01501999999ADDMA1101701999999REMMET045METAR SBQV 170700Z 11006KT CAVOK 16/15 Q1017=
0072833440999992017011708004-14863-040863FM-15+091499999V0201101N004119999999Y999999999+01601+01501999999ADDMA1101801999999REMMET045METAR SBQV 170800Z 11008KT CAVOK 16/15 Q1018=
0072833440999992017011709004-14863-040863FM-15+091499999V0201101N004119999999Y999999999+01701+01501999999ADDMA1101801999999REMMET045METAR SBQV 170900Z 11008KT CAVOK 17/15 Q1018=
0072833440999992017011710004-14863-040863FM-15+091499999V0201001N004619999999Y999999999+01701+01501999999ADDMA1101801999999REMMET045METAR SBQV 171000Z 10009KT CAVOK 17/15 Q1018=
0181833440999992017011712004-14886-040801FM-12+084099999V0200901N0031199999999020000199+02421+01491101151ADDAA101999999AZ101061AZ201061GA1011+003001081GA2999+999999031GA3999+999999001GE19MSL   +99999+99999GF104991011999003001999999KA1120N+01281MA1999999091651MD1999999-0061REMSYN004BUFR
0072833440999992017011712004-14863-040863FM-15+091499999V0201101N005719999999Y999999999+02301+01401999999ADDMA1101801999999REMMET045METAR SBQV 171200Z 11011KT CAVOK 23/14 Q1018=
0142833440999992017011715004-14863-040863FM-15+091499999V0201301N005119999999N009999199+02601+01401999999ADDGA1041+007621999GE19MSL   +99999+99999GF199999041999007621999999MA1101701999999REMMET051METAR SBQV 171500Z 13010KT 9999 SCT025 26/14 Q1017=
0142833440999992017011716004-14863-040863FM-15+091499999V0200801N002619999999N009999199+02801+01301999999ADDGA1041+007621999GE19MSL   +99999+99999GF199999041999007621999999MA1101701999999REMMET051METAR SBQV 171600Z 08005KT 9999 SCT025 28/13 Q1017=
0142833440999992017011717004-14863-040863FM-15+091499999V0201201N003119999999N009999199+02701+01301999999ADDGA1041+012191999GE19MSL   +99999+99999GF199999041999012191999999MA1101601999999REMMET051METAR SBQV 171700Z 12006KT 9999 SCT040 27/13 Q1016=
0136833440999992017011718004-14886-040801FM-12+084099999V0201401N0015199999999020000199+02901+01661999999ADDAA101999999AZ101061AZ201061GA1021+003001081GE19MSL   +99999+99999GF102991021999003001999999MA1999999091351MD1999999-0091REMSYN004BUFR
0142833440999992017011718004-14863-040863FM-15+091499999V0201201N004619999999N009999199+02801+01201999999ADDGA1041+012191999GE19MSL   +99999+99999GF199999041999012191999999MA1101501999999REMMET051METAR SBQV 171800Z 12009KT 9999 SCT040 28/12 Q1015=
0142833440999992017011720004-14863-040863FM-15+091499999V0201401N006219999999N009999199+02901+01401999999ADDGA1021+012191999GE19MSL   +99999+99999GF199999021999012191999999MA1101501999999REMMET051METAR SBQV 172000Z 14012KT 9999 FEW040 29/14 Q1015=
0142833440999992017011721004-14863-040863FM-15+091499999V0201301N006219999999N009999199+02701+01301999999ADDGA1021+012191999GE19MSL   +99999+99999GF199999021999012191999999MA1101501999999REMMET051METAR SBQV 172100Z 13012KT 9999 FEW040 27/13 Q1015=
0072833440999992017011722004-14863-040863FM-15+091499999V0201301N005119999999Y999999999+02501+01401999999ADDMA1101501999999REMMET045METAR SBQV 172200Z 13010KT CAVOK 25/14 Q1015=
0072833440999992017011723004-14863-040863FM-15+091499999V0201101N006219999999Y999999999+02301+01701999999ADDMA1101601999999REMMET045METAR SBQV 172300Z 11012KT CAVOK 23/17 Q1016=
0098833440999992017011800004-14886-040801FM-12+084099999V0200901N0015122000199004000199+02071+01761101011ADDAA101999999AZ101061AZ201061GF100991999999999999999999MA1999999091501MD1999999-0051REMSYN004BUFR
0142833440999992017011800004-14863-040863FM-15+091499999V0201201N006219999999N009999199+02101+01701999999ADDGA1021+006101999GE19MSL   +99999+99999GF199999021999006101999999MA1101601999999REMMET051METAR SBQV 180000Z 12012KT 9999 FEW020 21/17 Q1016=
0072833440999992017011807004-14863-040863FM-15+091499999V0201201N005119999999Y999999999+01701+01501999999ADDMA1101701999999REMMET045METAR SBQV 180700Z 12010KT CAVOK 17/15 Q1017=
0142833440999992017011808004-14863-040863FM-15+091499999V0201301N004619999999N009999199+01701+01501999999ADDGA1021+006101999GE19MSL   +99999+99999GF199999021999006101999999MA1101701999999REMMET051METAR SBQV 180800Z 13009KT 9999 FEW020 17/15 Q1017=
0165833440999992017011809004-14863-040863FM-15+091499999V0201301N00671021341CN009999199+01701+01501999999ADDGA1041+006101999GA2041+021341999GE19MSL   +99999+99999GF199999041999006101999999MA1101801999999REMMET058METAR SBQV 180900Z 13013KT 9999 SCT020 SCT070 17/15 Q1018=
0165833440999992017011811004-14863-040863FM-15+091499999V0201101N00361030481CN009999199+01901+01601999999ADDGA1041+004571999GA2041+030481999GE19MSL   +99999+99999GF199999041999004571999999MA1101901999999REMMET058METAR SBQV 181100Z 11007KT 9999 SCT015 SCT100 19/16 Q1019=
0165833440999992017011812004-14886-040801FM-12+084099999V0200901N0015100300199020000199+02121+01601101331ADDAA101999999AZ101061AZ201061GA1051+003001061GA2999+999999001GE19MSL   +99999+99999GF106991051999003001999999KA1120N+01561MA1999999091731MD1999999-0081REMSYN004BUFR
0165833440999992017011812004-14863-040863FM-15+091499999V0201001N00411030481CN009999199+02201+01501999999ADDGA1021+006101999GA2041+030481999GE19MSL   +99999+99999GF199999021999006101999999MA1101901999999REMMET058METAR SBQV 181200Z 10008KT 9999 FEW020 SCT100 22/15 Q1019=
0165833440999992017011813004-14863-040863FM-15+091499999V0200901N00311030481CN009999199+02301+01401999999ADDGA1041+009141999GA2041+030481999GE19MSL   +99999+99999GF199999041999009141999999MA1101901999999REMMET058METAR SBQV 181300Z 09006KT 9999 SCT030 SCT100 23/14 Q1019=
0142833440999992017011814004-14863-040863FM-15+091499999V0201401N005119999999N009999199+02701+01501999999ADDGA1041+012191999GE19MSL   +99999+99999GF199999041999012191999999MA1101901999999REMMET051METAR SBQV 181400Z 14010KT 9999 SCT040 27/15 Q1019=
0142833440999992017011816004-14863-040863FM-15+091499999V0201201N004119999999N009999199+02801+01501999999ADDGA1041+012191999GE19MSL   +99999+99999GF199999041999012191999999MA1101701999999REMMET051METAR SBQV 181600Z 12008KT 9999 SCT040 28/15 Q1017=
0142833440999992017011817004-14863-040863FM-15+091499999V0201201N006719999999N009999199+02801+01301999999ADDGA1041+010671999GE19MSL   +99999+99999GF199999041999010671999999MA1101701999999REMMET051METAR SBQV 181700Z 12013KT 9999 SCT035 28/13 Q1017=
0152833440999992017011818004-14886-040801FM-12+084099999V0201401N0015199999999020000199+02901+01521999999ADDAA101999999AZ101061AZ201061GA1041+003001061GA2999+999999001GE19MSL   +99999+99999GF106991041999003001999999MA1999999091481MD1999999-0131REMSYN004BUFR
0142833440999992017011818004-14863-040863FM-15+091499999V0201401N003619999999N009999199+02901+01401999999ADDGA1041+010671999GE19MSL   +99999+99999GF199999041999010671999999MA1101601999999REMMET051METAR SBQV 181800Z 14007KT 9999 SCT035 29/14 Q1016=
0142833440999992017011820004-14863-040863FM-15+091499999V0201201N005119999999N009999199+02801+01201999999ADDGA1041+010671999GE19MSL   +99999+99999GF199999041999010671999999MA1101601999999REMMET051METAR SBQV 182000Z 12010KT 9999 SCT035 28/12 Q1016=
0142833440999992017011821004-14863-040863FM-15+091499999V0201201N004619999999N009999199+02801+01301999999ADDGA1021+010671999GE19MSL   +99999+99999GF199999021999010671999999MA1101601999999REMMET051METAR SBQV 182100Z 12009KT 9999 FEW035 28/13 Q1016=
0072833440999992017011822004-14863-040863FM-15+091499999V0201201N004119999999Y999999999+02601+01401999999ADDMA1101601999999REMMET045METAR SBQV 182200Z 12008KT CAVOK 26/14 Q1016=
0072833440999992017011823004-14863-040863FM-15+091499999V0201101N005719999999Y999999999+02501+01501999999ADDMA1101701999999REMMET045METAR SBQV 182300Z 11011KT CAVOK 25/15 Q1017=
0098833440999992017011900004-14886-040801FM-12+084099999V0200901N0015122000199004000199+02311+01751101141ADDAA101999999AZ101061AZ201061GF100991999999999999999999MA1999999091621MD1999999-0121REMSYN004BUFR
0072833440999992017011900004-14863-040863FM-15+091499999V0201101N005119999999Y999999999+02201+01701999999ADDMA1101801999999REMMET045METAR SBQV 190000Z 11010KT CAVOK 22/17 Q1018=
0072833440999992017011907004-14863-040863FM-15+091499999V0201301N004119999999Y999999999+01801+01601999999ADDMA1101701999999REMMET045METAR SBQV 190700Z 13008KT CAVOK 18/16 Q1017=
0142833440999992017011908004-14863-040863FM-15+091499999V0201301N004119999999N009999199+01701+01601999999ADDGA1021+002441999GE19MSL   +99999+99999GF199999021999002441999999MA1101801999999REMMET051METAR SBQV 190800Z 13008KT 9999 FEW008 17/16 Q1018=
0142833440999992017011908174-14863-040863FM-16+091499999V0201401N004110024419N009999199+01701+01601999999ADDGA1071+002441999GE19MSL   +99999+99999GF199999071999002441999999MA1101801999999REMMET051SPECI SBQV 190817Z 14008KT 9999 BKN008 17/16 Q1018=
0142833440999992017011910004-14863-040863FM-15+091499999V0201201N005110030519N009999199+01801+01501999999ADDGA1071+003051999GE19MSL   +99999+99999GF199999071999003051999999MA1101901999999REMMET051METAR SBQV 191000Z 12010KT 9999 BKN010 18/15 Q1019=
0149833440999992017011912004-14886-040801FM-12+084099999V0200901N0021100300199020000199+02251+01691101401ADDAA101999999AZ101061AZ201061GA1061+003001061GE19MSL   +99999+99999GF106991061999003001999999KA1120N+01601MA1999999091871MD1999999+0141REMSYN004BUFR
0142833440999992017011912004-14863-040863FM-15+091499999V0201401N004119999999N009999199+02301+01501999999ADDGA1041+004571999GE19MSL   +99999+99999GF199999041999004571999999MA1102001999999REMMET051METAR SBQV 191200Z 14008KT 9999 SCT015 23/15 Q1020=
0142833440999992017011913004-14863-040863FM-15+091499999V0201401N003119999999N009999199+02401+01501999999ADDGA1041+004571999GE19MSL   +99999+99999GF199999041999004571999999MA1102001999999REMMET051METAR SBQV 191300Z 14006KT 9999 SCT015 24/15 Q1020=
0142833440999992017011914004-14863-040863FM-15+091499999V0201201N005719999999N009999199+02501+01501999999ADDGA1041+009141999GE19MSL   +99999+99999GF199999041999009141999999MA1102001999999REMMET051METAR SBQV 191400Z 12011KT 9999 SCT030 25/15 Q1020=
0142833440999992017011915004-14863-040863FM-15+091499999V0201301N005719999999N009999199+02701+01501999999ADDGA1041+012191999GE19MSL   +99999+99999GF199999041999012191999999MA1101901999999REMMET051METAR SBQV 191500Z 13011KT 9999 SCT040 27/15 Q1019=
0142833440999992017011916004-14863-040863FM-15+091499999V0201401N004119999999N009999199+02701+01501999999ADDGA1041+012191999GE19MSL   +99999+99999GF199999041999012191999999MA1101901999999REMMET051METAR SBQV 191600Z 14008KT 9999 SCT040 27/15 Q1019=
0142833440999992017011917004-14863-040863FM-15+091499999V0201501N006219999999N009999199+02901+01501999999ADDGA1041+010671999GE19MSL   +99999+99999GF199999041999010671999999MA1101801999999REMMET051METAR SBQV 191700Z 15012KT 9999 SCT035 29/15 Q1018=
0136833440999992017011918004-14886-040801FM-12+084099999V0201401N0036199999999020000199+02911+01521999999ADDAA101999999AZ101061AZ201061GA1021+003001081GE19MSL   +99999+99999GF102991021999003001999999MA1999999091581MD1999999+0101REMSYN004BUFR
0142833440999992017011918004-14863-040863FM-15+091499999V0201201N006219999999N009999199+02801+01401999999ADDGA1041+010671999GE19MSL   +99999+99999GF199999041999010671999999MA1101701999999REMMET051METAR SBQV 191800Z 12012KT 9999 SCT035 28/14 Q1017=
0142833440999992017011919004-14863-040863FM-15+091499999V0201201N005119999999N009999199+02801+01301999999ADDGA1021+010671999GE19MSL   +99999+99999GF199999021999010671999999MA1101701999999REMMET051METAR SBQV 191900Z 12010KT 9999 FEW035 28/13 Q1017=
0142833440999992017011921004-14863-040863FM-15+091499999V0201201N007219999999N009999199+02801+01301999999ADDGA1021+010671999GE19MSL   +99999+99999GF199999021999010671999999MA1101701999999REMMET051METAR SBQV 192100Z 12014KT 9999 FEW035 28/13 Q1017=
0072833440999992017011922004-14863-040863FM-15+091499999V0201401N006219999999Y999999999+02501+01401999999ADDMA1101701999999REMMET045METAR SBQV 192200Z 14012KT CAVOK 25/14 Q1017=
0072833440999992017011923004-14863-040863FM-15+091499999V0201001N005719999999Y999999999+02301+01601999999ADDMA1101801999999REMMET045METAR SBQV 192300Z 10011KT CAVOK 23/16 Q1018=
0098833440999992017012000004-14886-040801FM-12+084099999V0200901N0031122000199004000199+02171+01741101131ADDAA101999999AZ101061AZ201061GF100991999999999999999999MA1999999091721MD1999999+0101REMSYN004BUFR
0072833440999992017012000004-14863-040863FM-15+091499999V0201101N007219999999Y999999999+02201+01701999999ADDMA1101901999999REMMET045METAR SBQV 200000Z 11014KT CAVOK 22/17 Q1019=
0165833440999992017012007004-14863-040863FM-15+091499999V0201301N00311006101CN009999199+01801+01601999999ADDGA1041+002741999GA2041+006101999GE19MSL   +99999+99999GF199999041999002741999999MA1101901999999REMMET058METAR SBQV 200700Z 13006KT 9999 SCT009 SCT020 18/16 Q1019=
0142833440999992017012008004-14863-040863FM-15+091499999V0201301N003619999999N009999199+01801+01601999999ADDGA1041+003051999GE19MSL   +99999+99999GF199999041999003051999999MA1101901999999REMMET051METAR SBQV 200800Z 13007KT 9999 SCT010 18/16 Q1019=
0142833440999992017012010004-14863-040863FM-15+091499999V0201101N004619999999N009999199+01901+01601999999ADDGA1041+003051999GE19MSL   +99999+99999GF199999041999003051999999MA1102001999999REMMET051METAR SBQV 201000Z 11009KT 9999 SCT010 19/16 Q1020=
0142833440999992017012011004-14863-040863FM-15+091499999V0201401N005719999999N009999199+02101+01601999999ADDGA1021+003661999GE19MSL   +99999+99999GF199999021999003661999999MA1102001999999REMMET051METAR SBQV 201100Z 14011KT 9999 FEW012 21/16 Q1020=
0149833440999992017012012004-14886-040801FM-12+084099999V0201401N0015100300199020000199+02311+01681101451ADDAA101999999AZ101061AZ201061GA1061+003001061GE19MSL   +99999+99999GF106991061999003001999999KA1120N+01561MA1999999091901MD1999999-0031REMSYN004BUFR
0142833440999992017012012004-14863-040863FM-15+091499999V0201101N004119999999N009999199+02201+01601999999ADDGA1041+004571999GE19MSL   +99999+99999GF199999041999004571999999MA1102101999999REMMET051METAR SBQV 201200Z 11008KT 9999 SCT015 22/16 Q1021=
0142833440999992017012014004-14863-040863FM-15+091499999V0201301N006719999999N009999199+02501+01401999999ADDGA1041+007621999GE19MSL   +99999+99999GF199999041999007621999999MA1102001999999REMMET051METAR SBQV 201400Z 13013KT 9999 SCT025 25/14 Q1020=
0142833440999992017012015004-14863-040863FM-15+091499999V0201601N006719999999N009999199+02601+01301999999ADDGA1041+010671999GE19MSL   +99999+99999GF199999041999010671999999MA1102001999999REMMET051METAR SBQV 201500Z 16013KT 9999 SCT035 26/13 Q1020=
0142833440999992017012016004-14863-040863FM-15+091499999V0201501N005119999999N009999199+02701+01401999999ADDGA1041+012191999GE19MSL   +99999+99999GF199999041999012191999999MA1101901999999REMMET051METAR SBQV 201600Z 15010KT 9999 SCT040 27/14 Q1019=
0142833440999992017012017004-14863-040863FM-15+091499999V0201401N006219999999N009999199+02901+01401999999ADDGA1041+012191999GE19MSL   +99999+99999GF199999041999012191999999MA1101901999999REMMET051METAR SBQV 201700Z 14012KT 9999 SCT040 29/14 Q1019=
0136833440999992017012018004-14886-040801FM-12+084099999V0201401N0031100300199020000199+02871+01551999999ADDAA101999999AZ101061AZ201061GA1061+003001081GE19MSL   +99999+99999GF106991061999003001999999MA1999999091661MD1999999-0081REMSYN004BUFR
0142833440999992017012018004-14863-040863FM-15+091499999V0201601N009819999999N009999199+02901+01401999999ADDGA1041+012191999GE19MSL   +99999+99999GF199999041999012191999999MA1101801999999REMMET051METAR SBQV 201800Z 16019KT 9999 SCT040 29/14 Q1018=
0142833440999992017012020004-14863-040863FM-15+091499999V0201301N005719999999N009999199+02801+01301999999ADDGA1041+012191999GE19MSL   +99999+99999GF199999041999012191999999MA1101701999999REMMET051METAR SBQV 202000Z 13011KT 9999 SCT040 28/13 Q1017=
0142833440999992017012021004-14863-040863FM-15+091499999V0201201N006219999999N009999199+02701+01301999999ADDGA1021+012191999GE19MSL   +99999+99999GF199999021999012191999999MA1101701999999REMMET051METAR SBQV 202100Z 12012KT 9999 FEW040 27/13 Q1017=
0072833440999992017012022004-14863-040863FM-15+091499999V0201201N004619999999Y999999999+02501+01401999999ADDMA1101801999999REMMET045METAR SBQV 202200Z 12009KT CAVOK 25/14 Q1018=
0142833440999992017012023004-14863-040863FM-15+091499999V0201101N006719999999N009999199+02301+01401999999ADDGA1041+006101999GE19MSL   +99999+99999GF199999041999006101999999MA1101901999999REMMET051METAR SBQV 202300Z 11013KT 9999 SCT020 23/14 Q1019=
0136833440999992017012100004-14886-040801FM-12+084099999V0200901N0026100300199004000199+02321+01811101261ADDAA101999999AZ101061AZ201061GA1051+003001061GE19MSL   +99999+99999GF105991051999003001999999MA1999999091751MD1999999-0031REMSYN004BUFR
0142833440999992017012100004-14863-040863FM-15+091499999V0200901N005719999999N009999199+02201+01701999999ADDGA1041+006101999GE19MSL   +99999+99999GF199999041999006101999999MA1102001999999REMMET051METAR SBQV 210000Z 09011KT 9999 SCT020 22/17 Q1020=
0072833440999992017012107004-14863-040863FM-15+091499999V0201301N004119999999Y999999999+01701+01601999999ADDMA1101901999999REMMET045METAR SBQV 210700Z 13008KT CAVOK 17/16 Q1019=
0072833440999992017012108004-14863-040863FM-15+091499999V0201301N003119999999Y999999999+01701+01601999999ADDMA1101901999999REMMET045METAR SBQV 210800Z 13006KT CAVOK 17/16 Q1019=
0072833440999992017012109004-14863-040863FM-15+091499999V0201201N003619999999Y999999999+01701+01601999999ADDMA1101901999999REMMET045METAR SBQV 210900Z 12007KT CAVOK 17/16 Q1019=
0072833440999992017012110004-14863-040863FM-15+091499999V0201301N005119999999Y999999999+01901+01601999999ADDMA1102001999999REMMET045METAR SBQV 211000Z 13010KT CAVOK 19/16 Q1020=
0142833440999992017012111004-14863-040863FM-15+091499999V0201201N006719999999N009999199+02101+01601999999ADDGA1021+004571999GE19MSL   +99999+99999GF199999021999004571999999MA1102101999999REMMET051METAR SBQV 211100Z 12013KT 9999 FEW015 21/16 Q1021=
0149833440999992017012112004-14886-040801FM-12+084099999V0200901N0031199999999020000199+02371+01561101431ADDAA101999999AZ101061AZ201061GA1021+003001081GE19MSL   +99999+99999GF102991021999003001999999KA1120N+01541MA1999999091921MD1999999+0021REMSYN004BUFR
0142833440999992017012112004-14863-040863FM-15+091499999V0201001N005719999999N009999199+02201+01501999999ADDGA1021+004571999GE19MSL   +99999+99999GF199999021999004571999999MA1102001999999REMMET051METAR SBQV 211200Z 10011KT 9999 FEW015 22/15 Q1020=
0142833440999992017012113004-14863-040863FM-15+091499999V0201201N005119999999N009999199+02401+01301999999ADDGA1021+004571999GE19MSL   +99999+99999GF199999021999004571999999MA1102001999999REMMET051METAR SBQV 211300Z 12010KT 9999 FEW015 24/13 Q1020=
0142833440999992017012115004-14863-040863FM-15+091499999V0201101N004119999999N009999199+02601+01401999999ADDGA1021+007621999GE19MSL   +99999+99999GF199999021999007621999999MA1102001999999REMMET051METAR SBQV 211500Z 11008KT 9999 FEW025 26/14 Q1020=
0142833440999992017012116004-14863-040863FM-15+091499999V0201101N005119999999N009999199+02701+01301999999ADDGA1021+007621999GE19MSL   +99999+99999GF199999021999007621999999MA1101901999999REMMET051METAR SBQV 211600Z 11010KT 9999 FEW025 27/13 Q1019=
0142833440999992017012117004-14863-040863FM-15+091499999V0201401N002119999999N009999199+02701+01301999999ADDGA1021+007621999GE19MSL   +99999+99999GF199999021999007621999999MA1101801999999REMMET051METAR SBQV 211700Z 14004KT 9999 FEW025 27/13 Q1018=
0136833440999992017012118004-14886-040801FM-12+084099999V0201401N0026199999999020000199+02821+01511999999ADDAA101999999AZ101061AZ201061GA1021+003001081GE19MSL   +99999+99999GF102991021999003001999999MA1999999091571MD1999999+0181REMSYN004BUFR
0142833440999992017012118004-14863-040863FM-15+091499999V0201301N004619999999N009999199+02701+02302999999ADDGA1021+007621999GE19MSL   +99999+99999GF199999021999007621999999MA1101801999999REMMET051METAR SBQV 211800Z 13009KT 9999 FEW025 27/23 Q1018=
0149833440999992017012212004-14886-040801FM-12+084099999V0200901N0010199999999020000199+02311+01631101151ADDAA101999999AZ101061AZ201061GA1031+003001061GE19MSL   +99999+99999GF103991031999003001999999KA1120N+01641MA1999999091631MD1999999-0291REMSYN004BUFR
0142833440999992017012213004-14863-040863FM-15+091499999V0201301N005119999999N009999199+02701+02001999999ADDGA1041+006101999GE19MSL   +99999+99999GF199999041999006101999999MA1101801999999REMMET051METAR SBQV 221300Z 13010KT 9999 SCT020 27/20 Q1018=
0142833440999992017012214004-14863-040863FM-15+091499999V0200701N003619999999N009999199+02701+01701999999ADDGA1041+006101999GE19MSL   +99999+99999GF199999041999006101999999MA1101901999999REMMET051METAR SBQV 221400Z 07007KT 9999 SCT020 27/17 Q1019=
0142833440999992017012215004-14863-040863FM-15+091499999V0201501N003619999999N009999199+02701+01501999999ADDGA1041+007621999GE19MSL   +99999+99999GF199999041999007621999999MA1101901999999REMMET051METAR SBQV 221500Z 15007KT 9999 SCT025 27/15 Q1019=
0142833440999992017012217004-14863-040863FM-15+091499999V0201201N005719999999N009999199+03001+01301999999ADDGA1041+007621999GE19MSL   +99999+99999GF199999041999007621999999MA1101701999999REMMET051METAR SBQV 221700Z 12011KT 9999 SCT025 30/13 Q1017=
0136833440999992017012218004-14886-040801FM-12+084099999V0201801N0021199999999020000199+03071+01301999999ADDAA101999999AZ101061AZ201061GA1031+003001081GE19MSL   +99999+99999GF103991031999003001999999MA1999999091461MD1999999-0111REMSYN004BUFR
0142833440999992017012218004-14863-040863FM-15+091499999V0201801N004619999999N009999199+02901+01201999999ADDGA1041+007621999GE19MSL   +99999+99999GF199999041999007621999999MA1101601999999REMMET051METAR SBQV 221800Z 18009KT 9999 SCT025 29/12 Q1016=
0142833440999992017012219004-14863-040863FM-15+091499999V0201701N003619999999N009999199+02901+01201999999ADDGA1041+007621999GE19MSL   +99999+99999GF199999041999007621999999MA1101601999999REMMET051METAR SBQV 221900Z 17007KT 9999 SCT025 29/12 Q1016=
0142833440999992017012221004-14863-040863FM-15+091499999V0201401N006719999999N009999199+02701+01101999999ADDGA1041+009141999GE19MSL   +99999+99999GF199999041999009141999999MA1101601999999REMMET051METAR SBQV 222100Z 14013KT 9999 SCT030 27/11 Q1016=
0072833440999992017012223004-14863-040863FM-15+091499999V0201201N005119999999Y999999999+02501+01201999999ADDMA1101701999999REMMET045METAR SBQV 222300Z 12010KT CAVOK 25/12 Q1017=
0072833440999992017012300004-14863-040863FM-15+091499999V0201001N006719999999Y999999999+02301+01701999999ADDMA1101801999999REMMET045METAR SBQV 230000Z 10013KT CAVOK 23/17 Q1018=
0072833440999992017012308004-14863-040863FM-15+091499999V0200501N002119999999Y999999999+01801+01601999999ADDMA1101801999999REMMET045METAR SBQV 230800Z 05004KT CAVOK 18/16 Q1018=
0142833440999992017012309004-14863-040863FM-15+091499999V0200901N002619999999N009999199+01901+01601999999ADDGA1041+004571999GE19MSL   +99999+99999GF199999041999004571999999MA1101901999999REMMET051METAR SBQV 230900Z 09005KT 9999 SCT015 19/16 Q1019=
0142833440999992017012310004-14863-040863FM-15+091499999V0200701N003110045719N009999199+01901+01601999999ADDGA1071+004571999GE19MSL   +99999+99999GF199999071999004571999999MA1102001999999REMMET051METAR SBQV 231000Z 07006KT 9999 BKN015 19/16 Q1020=
0165833440999992017012312004-14886-040801FM-12+084099999V0200901N0015100300199020000199+02311+01771101361ADDAA101999999AZ101061AZ201061GA1051+003001061GA2999+999999001GE19MSL   +99999+99999GF106991051999003001999999KA1120N+01621MA1999999091861MD1999999-0231REMSYN004BUFR
0142833440999992017012312004-14863-040863FM-15+091499999V0200701N004110061019N009999199+02201+01601999999ADDGA1071+006101999GE19MSL   +99999+99999GF199999071999006101999999MA1102001999999REMMET051METAR SBQV 231200Z 07008KT 9999 BKN020 22/16 Q1020=
0142833440999992017012314004-14863-040863FM-15+091499999V0200101N003610061019N009999199+02701+01601999999ADDGA1071+006101999GE19MSL   +99999+99999GF199999071999006101999999MA1102001999999REMMET051METAR SBQV 231400Z 01007KT 9999 BKN020 27/16 Q1020=
0142833440999992017012315004-14863-040863FM-15+091499999V0201301N003610076219N009999199+02801+01401999999ADDGA1071+007621999GE19MSL   +99999+99999GF199999071999007621999999MA1101901999999REMMET051METAR SBQV 231500Z 13007KT 9999 BKN025 28/14 Q1019=
0142833440999992017012316004-14863-040863FM-15+091499999V0201601N005119999999N009999199+02801+01401999999ADDGA1041+012191999GE19MSL   +99999+99999GF199999041999012191999999MA1101801999999REMMET051METAR SBQV 231600Z 16010KT 9999 SCT040 28/14 Q1018=
0168833440999992017012318004-14886-040801FM-12+084099999V0201801N0021199999999020000199+02971+01681999999ADDAA101999999AZ101061AZ201061GA1041+003001081GA2999+999999041GA3999+999999001GE19MSL   +99999+99999GF106991041999003001999999MA1999999091551MD1999999-0091REMSYN004BUFR
0142833440999992017012318004-14863-040863FM-15+091499999V0201401N006719999999N009999199+02801+01301999999ADDGA1041+012191999GE19MSL   +99999+99999GF199999041999012191999999MA1101701999999REMMET051METAR SBQV 231800Z 14013KT 9999 SCT040 28/13 Q1017=
0142833440999992017012319004-14863-040863FM-15+091499999V0201601N005719999999N009999199+02801+01301999999ADDGA1021+012191999GE19MSL   +99999+99999GF199999021999012191999999MA1101601999999REMMET051METAR SBQV 231900Z 16011KT 9999 FEW040 28/13 Q1016=
0142833440999992017012320004-14863-040863FM-15+091499999V0201501N005719999999N009999199+02801+01301999999ADDGA1021+012191999GE19MSL   +99999+99999GF199999021999012191999999MA1101601999999REMMET051METAR SBQV 232000Z 15011KT 9999 FEW040 28/13 Q1016=
0142833440999992017012321004-14863-040863FM-15+091499999V0201401N005119999999N009999199+02801+01301999999ADDGA1021+012191999GE19MSL   +99999+99999GF199999021999012191999999MA1101601999999REMMET051METAR SBQV 232100Z 14010KT 9999 FEW040 28/13 Q1016=
0142833440999992017012322004-14863-040863FM-15+091499999V0201401N003619999999N009999199+02601+01401999999ADDGA1021+012191999GE19MSL   +99999+99999GF199999021999012191999999MA1101701999999REMMET051METAR SBQV 232200Z 14007KT 9999 FEW040 26/14 Q1017=
0072833440999992017012323004-14863-040863FM-15+091499999V0201201N005719999999Y999999999+02501+01601999999ADDMA1101801999999REMMET045METAR SBQV 232300Z 12011KT CAVOK 25/16 Q1018=
0098833440999992017012400004-14886-040801FM-12+084099999V0200901N0031122000199004000199+02371+01801101121ADDAA101999999AZ101061AZ201061GF100991999999999999999999MA1999999091711MD1999999-0201REMSYN004BUFR
0072833440999992017012400004-14863-040863FM-15+091499999V0201201N007719999999Y999999999+02301+01701999999ADDMA1101901999999REMMET045METAR SBQV 240000Z 12015KT CAVOK 23/17 Q1019=
0142833440999992017012409004-14863-040863FM-15+091499999V0201101N004110045719N009999199+01801+01601999999ADDGA1071+004571999GE19MSL   +99999+99999GF199999071999004571999999MA1101901999999REMMET051METAR SBQV 240900Z 11008KT 9999 BKN015 18/16 Q1019=
0142833440999992017012410004-14863-040863FM-15+091499999V0200901N004619999999N009999199+02001+01701999999ADDGA1041+004571999GE19MSL   +99999+99999GF199999041999004571999999MA1102001999999REMMET051METAR SBQV 241000Z 09009KT 9999 SCT015 20/17 Q1020=
0142833440999992017012411004-14863-040863FM-15+091499999V0200901N004610061019N009999199+02201+01701999999ADDGA1071+006101999GE19MSL   +99999+99999GF199999071999006101999999MA1102101999999REMMET051METAR SBQV 241100Z 09009KT 9999 BKN020 22/17 Q1021=
0149833440999992017012412004-14886-040801FM-12+084099999V0200901N0026100600199020000199+02411+01651101431ADDAA101999999AZ101061AZ201061GA1071+006001061GE19MSL   +99999+99999GF107991071999006001999999KA1120N+01681MA1999999091941MD1999999+0081REMSYN004BUFR
0142833440999992017012412004-14863-040863FM-15+091499999V0200801N004110061019N009999199+02201+01601999999ADDGA1071+006101999GE19MSL   +99999+99999GF199999071999006101999999MA1102101999999REMMET051METAR SBQV 241200Z 08008KT 9999 BKN020 22/16 Q1021=
0142833440999992017012414004-14863-040863FM-15+091499999V0201001N005710076219N009999199+02601+01501999999ADDGA1071+007621999GE19MSL   +99999+99999GF199999071999007621999999MA1102001999999REMMET051METAR SBQV 241400Z 10011KT 9999 BKN025 26/15 Q1020=
0142833440999992017012416004-14863-040863FM-15+091499999V0201501N003619999999N009999199+02801+01401999999ADDGA1041+012191999GE19MSL   +99999+99999GF199999041999012191999999MA1101901999999REMMET051METAR SBQV 241600Z 15007KT 9999 SCT040 28/14 Q1019=
0142833440999992017012417004-14863-040863FM-15+091499999V0201401N002610121919N009999199+02801+01301999999ADDGA1071+012191999GE19MSL   +99999+99999GF199999071999012191999999MA1101801999999REMMET051METAR SBQV 241700Z 14005KT 9999 BKN040 28/13 Q1018=
0136833440999992017012418004-14886-040801FM-12+084099999V0201401N0041100600199020000199+02901+01641999999ADDAA101999999AZ101061AZ201061GA1061+006001061GE19MSL   +99999+99999GF106991061999006001999999MA1999999091691MD1999999+0071REMSYN004BUFR
0165833440999992017012419004-14863-040863FM-15+091499999V0201401N00461021341CN009999199+02801+01501999999ADDGA1021+012191999GA2041+021341999GE19MSL   +99999+99999GF199999021999012191999999MA1101701999999REMMET058METAR SBQV 241900Z 14009KT 9999 FEW040 SCT070 28/15 Q1017=
0165833440999992017012420004-14863-040863FM-15+091499999V0201501N00621021341CN009999199+02801+01301999999ADDGA1021+012191999GA2041+021341999GE19MSL   +99999+99999GF199999021999012191999999MA1101701999999REMMET058METAR SBQV 242000Z 15012KT 9999 FEW040 SCT070 28/13 Q1017=
0142833440999992017012421004-14863-040863FM-15+091499999V0201401N005719999999N009999199+02601+01401999999ADDGA1021+012191999GE19MSL   +99999+99999GF199999021999012191999999MA1101801999999REMMET051METAR SBQV 242100Z 14011KT 9999 FEW040 26/14 Q1018=
0072833440999992017012422004-14863-040863FM-15+091499999V0201401N004119999999Y999999999+02601+01601999999ADDMA1101801999999REMMET045METAR SBQV 242200Z 14008KT CAVOK 26/16 Q1018=
0136833440999992017012500004-14886-040801FM-12+084099999V0200901N0046199999999004000199+02221+01801101361ADDAA101999999AZ101061AZ201061GA1031+006001061GE19MSL   +99999+99999GF103991031999006001999999MA1999999091841MD1999999+0131REMSYN004BUFR
0072833440999992017012500004-14863-040863FM-15+091499999V0201001N006719999999Y999999999+02201+01701999999ADDMA1102001999999REMMET045METAR SBQV 250000Z 10013KT CAVOK 22/17 Q1020=
0072833440999992017012507004-14863-040863FM-15+091499999V0201001N004119999999Y999999999+01801+01701999999ADDMA1101901999999REMMET045METAR SBQV 250700Z 10008KT CAVOK 18/17 Q1019=
0072833440999992017012508004-14863-040863FM-15+091499999V0201101N003619999999Y999999999+01801+01701999999ADDMA1101901999999REMMET045METAR SBQV 250800Z 11007KT CAVOK 18/17 Q1019=
0072833440999992017012510004-14863-040863FM-15+091499999V0200801N003619999999Y999999999+01901+01701999999ADDMA1102101999999REMMET045METAR SBQV 251000Z 08007KT CAVOK 19/17 Q1021=
0142833440999992017012511004-14863-040863FM-15+091499999V0200501N003619999999N009999199+02101+01701999999ADDGA1041+005491999GE19MSL   +99999+99999GF199999041999005491999999MA1102101999999REMMET051METAR SBQV 251100Z 05007KT 9999 SCT018 21/17 Q1021=
0149833440999992017012512004-14886-040801FM-12+084099999V0200901N0021100300199020000199+02311+01701101581ADDAA101999999AZ101061AZ201061GA1061+003001061GE19MSL   +99999+99999GF106991061999003001999999KA1120N+01641MA1999999092021MD1999999+0081REMSYN004BUFR
0142833440999992017012514004-14863-040863FM-15+091499999V0200501N002610061019N009999199+02601+01601999999ADDGA1071+006101999GE19MSL   +99999+99999GF199999071999006101999999MA1102101999999REMMET051METAR SBQV 251400Z 05005KT 9999 BKN020 26/16 Q1021=
0142833440999992017012516004-14863-040863FM-15+091499999V0200901N003110091419N009999199+02901+01401999999ADDGA1071+009141999GE19MSL   +99999+99999GF199999071999009141999999MA1102001999999REMMET051METAR SBQV 251600Z 09006KT 9999 BKN030 29/14 Q1020=
0168833440999992017012518004-14886-040801FM-12+084099999V0201801N0015199999999020000199+02901+01391999999ADDAA101999999AZ101061AZ201061GA1021+003001081GA2999+999999031GA3999+999999001GE19MSL   +99999+99999GF106991021999003001999999MA1999999091671MD1999999+0051REMSYN004BUFR
0142833440999992017012520004-14863-040863FM-15+091499999V0201101N003119999999N009999199+02801+01401999999ADDGA1021+009141999GE19MSL   +99999+99999GF199999021999009141999999MA1101701999999REMMET051METAR SBQV 252000Z 11006KT 9999 FEW030 28/14 Q1017=
0142833440999992017012521004-14863-040863FM-15+091499999V0201101N006219999999N009999199+02601+01601999999ADDGA1021+009141999GE19MSL   +99999+99999GF199999021999009141999999MA1101801999999REMMET051METAR SBQV 252100Z 11012KT 9999 FEW030 26/16 Q1018=
0072833440999992017012523004-14863-040863FM-15+091499999V0200901N007219999999Y999999999+02301+01601999999ADDMA1101801999999REMMET045METAR SBQV 252300Z 09014KT CAVOK 23/16 Q1018=
0072833440999992017012600004-14863-040863FM-15+091499999V0201001N007219999999Y999999999+02301+01601999999ADDMA1101901999999REMMET045METAR SBQV 260000Z 10014KT CAVOK 23/16 Q1019=
0072833440999992017012607004-14863-040863FM-15+091499999V0200901N003119999999Y999999999+01801+01601999999ADDMA1101901999999REMMET045METAR SBQV 260700Z 09006KT CAVOK 18/16 Q1019=
0072833440999992017012608004-14863-040863FM-15+091499999V0201401N001519999999Y999999999+01701+01501999999ADDMA1102001999999REMMET045METAR SBQV 260800Z 14003KT CAVOK 17/15 Q1020=
0072833440999992017012610004-14863-040863FM-15+091499999V0201201N002119999999Y999999999+01801+01601999999ADDMA1102101999999REMMET045METAR SBQV 261000Z 12004KT CAVOK 18/16 Q1021=
0072833440999992017012611004-14863-040863FM-15+091499999V0200901N004619999999Y999999999+02101+01501999999ADDMA1102101999999REMMET045METAR SBQV 261100Z 09009KT CAVOK 21/15 Q1021=
0149833440999992017012612004-14886-040801FM-12+084099999V0200901N0021199999999020000199+02321+01601101511ADDAA101999999AZ101061AZ201061GA1031+003001081GE19MSL   +99999+99999GF103991031999003001999999KA1120N+01381MA1999999091961MD1999999+0061REMSYN004BUFR
0072833440999992017012612004-14863-040863FM-15+091499999V0200701N005119999999Y999999999+02301+01501999999ADDMA1102101999999REMMET045METAR SBQV 261200Z 07010KT CAVOK 23/15 Q1021=
0072833440999992017012614004-14863-040863FM-15+091499999V0201201N002619999999Y999999999+02601+01401999999ADDMA1102001999999REMMET045METAR SBQV 261400Z 12005KT CAVOK 26/14 Q1020=
0072833440999992017012615004-14863-040863FM-15+091499999V0201301N003119999999Y999999999+02801+01301999999ADDMA1102001999999REMMET045METAR SBQV 261500Z 13006KT CAVOK 28/13 Q1020=
0142833440999992017012616004-14863-040863FM-15+091499999V0201501N005119999999N009999199+02901+01101999999ADDGA1021+009141999GE19MSL   +99999+99999GF199999021999009141999999MA1101901999999REMMET051METAR SBQV 261600Z 15010KT 9999 FEW030 29/11 Q1019=
0142833440999992017012617004-14863-040863FM-15+091499999V0201901N002619999999N009999199+02901+01001999999ADDGA1021+009141999GE19MSL   +99999+99999GF199999021999009141999999MA1101801999999REMMET051METAR SBQV 261700Z 19005KT 9999 FEW030 29/10 Q1018=
0136833440999992017012618004-14886-040801FM-12+084099999V0201401N0026199999999020000199+03001+01271999999ADDAA101999999AZ101061AZ201061GA1031+003001081GE19MSL   +99999+99999GF103991031999003001999999MA1999999091641MD1999999-0031REMSYN004BUFR
0142833440999992017012618004-14863-040863FM-15+091499999V0201901N003119999999N009999199+03001+01001999999ADDGA1021+009141999GE19MSL   +99999+99999GF199999021999009141999999MA1101801999999REMMET051METAR SBQV 261800Z 19006KT 9999 FEW030 30/10 Q1018=
0142833440999992017012619004-14863-040863FM-15+091499999V0201201N004119999999N009999199+03101+01101999999ADDGA1021+009141999GE19MSL   +99999+99999GF199999021999009141999999MA1101801999999REMMET051METAR SBQV 261900Z 12008KT 9999 FEW030 31/11 Q1018=
0142833440999992017012620004-14863-040863FM-15+091499999V0200901N004119999999N009999199+03001+01201999999ADDGA1021+009141999GE19MSL   +99999+99999GF199999021999009141999999MA1101701999999REMMET051METAR SBQV 262000Z 09008KT 9999 FEW030 30/12 Q1017=
0142833440999992017012621004-14863-040863FM-15+091499999V0201101N004619999999N009999199+02801+01101999999ADDGA1021+009141999GE19MSL   +99999+99999GF199999021999009141999999MA1101801999999REMMET051METAR SBQV 262100Z 11009KT 9999 FEW030 28/11 Q1018=
0072833440999992017012623004-14863-040863FM-15+091499999V0201001N004619999999Y999999999+02401+01501999999ADDMA1101801999999REMMET045METAR SBQV 262300Z 10009KT CAVOK 24/15 Q1018=
0072833440999992017012701004-14863-040863FM-15+091499999V0201101N006219999999Y999999999+02101+01601999999ADDMA1102001999999REMMET045METAR SBQV 270100Z 11012KT CAVOK 21/16 Q1020=
0072833440999992017012708004-14863-040863FM-15+091499999V0201001N004619999999Y999999999+01701+01601999999ADDMA1102001999999REMMET045METAR SBQV 270800Z 10009KT CAVOK 17/16 Q1020=
0142833440999992017012709004-14863-040863FM-15+091499999V0201001N004119999999N009999199+01801+01501999999ADDGA1021+003351999GE19MSL   +99999+99999GF199999021999003351999999MA1102001999999REMMET051METAR SBQV 270900Z 10008KT 9999 FEW011 18/15 Q1020=
0142833440999992017012710004-14863-040863FM-15+091499999V0200801N003119999999N009999199+01801+01501999999ADDGA1021+003351999GE19MSL   +99999+99999GF199999021999003351999999MA1102101999999REMMET051METAR SBQV 271000Z 08006KT 9999 FEW011 18/15 Q1021=
0142833440999992017012711004-14863-040863FM-15+091499999V0200701N005119999999N009999199+02001+01501999999ADDGA1041+004571999GE19MSL   +99999+99999GF199999041999004571999999MA1102201999999REMMET051METAR SBQV 271100Z 07010KT 9999 SCT015 20/15 Q1022=
0168833440999992017012712004-14886-040801FM-12+084099999V0200501N0031199999999020000199+02251+01531101651ADDAA101999999AZ101061AZ201061GA1052+006001081GE19MSL   +99999+99999GF104992052999006001999999KA1120N+01581MA1999999092081MD1999999+0121REMSYN004BUFREQDQ01 006003SCOCIG
0142833440999992017012712004-14863-040863FM-15+091499999V0200801N004619999999N009999199+02301+01501999999ADDGA1041+006101999GE19MSL   +99999+99999GF199999041999006101999999MA1102201999999REMMET051METAR SBQV 271200Z 08009KT 9999 SCT020 23/15 Q1022=
0142833440999992017012714004-14863-040863FM-15+091499999V0201201N004119999999N009999199+02601+01201999999ADDGA1041+007011999GE19MSL   +99999+99999GF199999041999007011999999MA1102101999999REMMET051METAR SBQV 271400Z 12008KT 9999 SCT023 26/12 Q1021=
0142833440999992017012715004-14863-040863FM-15+091499999V0201101N004619999999N009999199+02701+01301999999ADDGA1041+007011999GE19MSL   +99999+99999GF199999041999007011999999MA1102101999999REMMET051METAR SBQV 271500Z 11009KT 9999 SCT023 27/13 Q1021=
0142833440999992017012716004-14863-040863FM-15+091499999V0201801N002119999999N009999199+02901+01001999999ADDGA1041+009141999GE19MSL   +99999+99999GF199999041999009141999999MA1102001999999REMMET051METAR SBQV 271600Z 18004KT 9999 SCT030 29/10 Q1020=
0142833440999992017012717004-14863-040863FM-15+091499999V0200301N003619999999N009999199+02901+01201999999ADDGA1041+009141999GE19MSL   +99999+99999GF199999041999009141999999MA1101901999999REMMET051METAR SBQV 271700Z 03007KT 9999 SCT030 29/12 Q1019=
0136833440999992017012718004-14886-040801FM-12+084099999V0201401N0031101250199020000199+02951+01621999999ADDAA101999999AZ101061AZ201061GA1061+012501081GE19MSL   +99999+99999GF106991061999012501999999MA1999999091731MD1999999+0091REMSYN004BUFR
0142833440999992017012718004-14863-040863FM-15+091499999V0201301N005119999999N009999199+02901+01301999999ADDGA1041+009141999GE19MSL   +99999+99999GF199999041999009141999999MA1101901999999REMMET051METAR SBQV 271800Z 13010KT 9999 SCT030 29/13 Q1019=
0142833440999992017012720004-14863-040863FM-15+091499999V0201401N005719999999N009999199+02801+01301999999ADDGA1041+009141999GE19MSL   +99999+99999GF199999041999009141999999MA1101901999999REMMET051METAR SBQV 272000Z 14011KT 9999 SCT030 28/13 Q1019=
0142833440999992017012721004-14863-040863FM-15+091499999V0201101N004619999999N009999199+02801+01401999999ADDGA1021+009141999GE19MSL   +99999+99999GF199999021999009141999999MA1101901999999REMMET051METAR SBQV 272100Z 11009KT 9999 FEW030 28/14 Q1019=
0072833440999992017012722004-14863-040863FM-15+091499999V0201101N004119999999Y999999999+02501+01301999999ADDMA1101901999999REMMET045METAR SBQV 272200Z 11008KT CAVOK 25/13 Q1019=
0098833440999992017012800004-14886-040801FM-12+084099999V0201401N0031122000199004000199+02371+01541101511ADDAA101999999AZ101061AZ201061GF100991999999999999999999MA1999999091971MD1999999+0171REMSYN004BUFR
0072833440999992017012801004-14863-040863FM-15+091499999V0201101N007219999999Y999999999+02101+01701999999ADDMA1102101999999REMMET045METAR SBQV 280100Z 11014KT CAVOK 21/17 Q1021=
0142833440999992017012807004-14863-040863FM-15+091499999V0201201N005119999999N009999199+01901+01701999999ADDGA1041+002441999GE19MSL   +99999+99999GF199999041999002441999999MA1102101999999REMMET051METAR SBQV 280700Z 12010KT 9999 SCT008 19/17 Q1021=
0142833440999992017012808004-14863-040863FM-15+091499999V0201201N005119999999N009999199+01801+01601999999ADDGA1021+002441999GE19MSL   +99999+99999GF199999021999002441999999MA1102101999999REMMET051METAR SBQV 280800Z 12010KT 9999 FEW008 18/16 Q1021=
0142833440999992017012809004-14863-040863FM-15+091499999V0201201N005119999999N009999199+01701+01601999999ADDGA1021+002441999GE19MSL   +99999+99999GF199999021999002441999999MA1102101999999REMMET051METAR SBQV 280900Z 12010KT 9999 FEW008 17/16 Q1021=
0142833440999992017012810004-14863-040863FM-15+091499999V0201201N005719999999N009999199+01901+01701999999ADDGA1041+003961999GE19MSL   +99999+99999GF199999041999003961999999MA1102201999999REMMET051METAR SBQV 281000Z 12011KT 9999 SCT013 19/17 Q1022=
0142833440999992017012811004-14863-040863FM-15+091499999V0201101N006719999999N009999199+02101+01601999999ADDGA1041+004571999GE19MSL   +99999+99999GF199999041999004571999999MA1102201999999REMMET051METAR SBQV 281100Z 11013KT 9999 SCT015 21/16 Q1022=
0165833440999992017012812004-14886-040801FM-12+084099999V0200901N0031199999999020000199+02371+01801101661ADDAA101999999AZ101061AZ201061GA1021+003001081GA2999+999999031GE19MSL   +99999+99999GF106991021999003001999999KA1120N+01581MA1999999092131MD1999999+0051REMSYN004BUFR
0142833440999992017012812004-14863-040863FM-15+091499999V0201201N007719999999N009999199+02201+01601999999ADDGA1041+004571999GE19MSL   +99999+99999GF199999041999004571999999MA1102201999999REMMET051METAR SBQV 281200Z 12015KT 9999 SCT015 22/16 Q1022=
0142833440999992017012813004-14863-040863FM-15+091499999V0201101N007719999999N009999199+02401+01401999999ADDGA1041+006101999GE19MSL   +99999+99999GF199999041999006101999999MA1102301999999REMMET051METAR SBQV 281300Z 11015KT 9999 SCT020 24/14 Q1023=
0142833440999992017012814004-14863-040863FM-15+091499999V0201201N009319999999N009999199+02501+01401999999ADDGA1041+006101999GE19MSL   +99999+99999GF199999041999006101999999MA1102201999999REMMET051METAR SBQV 281400Z 12018KT 9999 SCT020 25/14 Q1022=
0142833440999992017012816004-14863-040863FM-15+091499999V0201201N006719999999N009999199+02801+01501999999ADDGA1041+007621999GE19MSL   +99999+99999GF199999041999007621999999MA1102101999999REMMET051METAR SBQV 281600Z 12013KT 9999 SCT025 28/15 Q1021=
0142833440999992017012817004-14863-040863FM-15+091499999V0201201N008219999999N009999199+02801+01401999999ADDGA1041+007621999GE19MSL   +99999+99999GF199999041999007621999999MA1102001999999REMMET051METAR SBQV 281700Z 12016KT 9999 SCT025 28/14 Q1020=
0136833440999992017012818004-14886-040801FM-12+084099999V0201401N0031199999999020000199+02921+01531999999ADDAA101999999AZ101061AZ201061GA1021+003001081GE19MSL   +99999+99999GF102991021999003001999999MA1999999091841MD1999999+0111REMSYN004BUFR
0072833440999992017012903004-14863-040863FM-15+091499999V0201201N004119999999Y999999999+01901+01601999999ADDMA1102101999999REMMET045METAR SBQV 290300Z 12008KT CAVOK 19/16 Q1021=
0072833440999992017012904004-14863-040863FM-15+091499999V0201201N002619999999Y999999999+01801+01601999999ADDMA1102001999999REMMET045METAR SBQV 290400Z 12005KT CAVOK 18/16 Q1020=
0142833440999992017012905004-14863-040863FM-15+091499999V0201301N003619999999N009999199+01901+01601999999ADDGA1041+003961999GE19MSL   +99999+99999GF199999041999003961999999MA1102001999999REMMET051METAR SBQV 290500Z 13007KT 9999 SCT013 19/16 Q1020=
0142833440999992017012906004-14863-040863FM-15+091499999V0201201N003119999999N009999199+01801+01601999999ADDGA1041+003961999GE19MSL   +99999+99999GF199999041999003961999999MA1102001999999REMMET051METAR SBQV 290600Z 12006KT 9999 SCT013 18/16 Q1020=
0193833440999992017012912004-14886-040801FM-12+084099999V0201401N0021100300199020000199+02111+01841101641ADDAA124003031AY151061AY221061GA1081+003001071GA2999+999999101GA3999+999999101GE19MSL   +99999+99999GF108991081999003001999999MA1999999092061MD1999999-0071MW1031REMSYN004BUFREQDQ0122.5  2EATMN 
0142833440999992017012913004-14863-040863FM-15+091499999V0201201N006219999999N009999199+02301+01701999999ADDGA1041+006101999GE19MSL   +99999+99999GF199999041999006101999999MA1102201999999REMMET051METAR SBQV 291300Z 12012KT 9999 SCT020 23/17 Q1022=
0142833440999992017012914004-14863-040863FM-15+091499999V0201501N004110061019N009999199+02401+01801999999ADDGA1071+006101999GE19MSL   +99999+99999GF199999071999006101999999MA1102201999999REMMET051METAR SBQV 291400Z 15008KT 9999 BKN020 24/18 Q1022=
0142833440999992017012915004-14863-040863FM-15+091499999V0201501N006210061019N009999199+02301+01801999999ADDGA1071+006101999GE19MSL   +99999+99999GF199999071999006101999999MA1102101999999REMMET051METAR SBQV 291500Z 15012KT 9999 BKN020 23/18 Q1021=
0142833440999992017012916004-14863-040863FM-15+091499999V0201401N004610061019N009999199+02601+01801999999ADDGA1071+006101999GE19MSL   +99999+99999GF199999071999006101999999MA1102101999999REMMET051METAR SBQV 291600Z 14009KT 9999 BKN020 26/18 Q1021=
0142833440999992017012917004-14863-040863FM-15+091499999V0201501N006219999999N009999199+02701+01801999999ADDGA1041+006101999GE19MSL   +99999+99999GF199999041999006101999999MA1102001999999REMMET051METAR SBQV 291700Z 15012KT 9999 SCT020 27/18 Q1020=
0152833440999992017012918004-14886-040801FM-12+084099999V0201401N0015100600199020000199+02711+01831999999ADDAA101999999AZ101061AZ201061GA1051+006001081GA2999+999999001GE19MSL   +99999+99999GF106991051999006001999999MA1999999091841MD1999999+0001REMSYN004BUFR
0142833440999992017012918004-14863-040863FM-15+091499999V0201101N003119999999N009999199+02701+01601999999ADDGA1041+006101999GE19MSL   +99999+99999GF199999041999006101999999MA1101901999999REMMET051METAR SBQV 291800Z 11006KT 9999 SCT020 27/16 Q1019=
0142833440999992017012919004-14863-040863FM-15+091499999V0201101N005719999999N009999199+02701+01701999999ADDGA1041+006101999GE19MSL   +99999+99999GF199999041999006101999999MA1101901999999REMMET051METAR SBQV 291900Z 11011KT 9999 SCT020 27/17 Q1019=
0142833440999992017012920004-14863-040863FM-15+091499999V0201301N006719999999N009999199+02801+01401999999ADDGA1041+006101999GE19MSL   +99999+99999GF199999041999006101999999MA1101901999999REMMET051METAR SBQV 292000Z 13013KT 9999 SCT020 28/14 Q1019=
0142833440999992017012921004-14863-040863FM-15+091499999V0201301N007219999999N009999199+02601+01401999999ADDGA1021+006101999GE19MSL   +99999+99999GF199999021999006101999999MA1101901999999REMMET051METAR SBQV 292100Z 13014KT 9999 FEW020 26/14 Q1019=
0142833440999992017012922004-14863-040863FM-15+091499999V0201201N004619999999N009999199+02401+01501999999ADDGA1021+006101999GE19MSL   +99999+99999GF199999021999006101999999MA1102001999999REMMET051METAR SBQV 292200Z 12009KT 9999 FEW020 24/15 Q1020=
0142833440999992017012923004-14863-040863FM-15+091499999V0201001N006219999999N009999199+02301+01701999999ADDGA1021+006101999GE19MSL   +99999+99999GF199999021999006101999999MA1102001999999REMMET051METAR SBQV 292300Z 10012KT 9999 FEW020 23/17 Q1020=
0142833440999992017013001004-14863-040863FM-15+091499999V0201401N006219999999N009999199+02101+01701999999ADDGA1021+005181999GE19MSL   +99999+99999GF199999021999005181999999MA1102101999999REMMET051METAR SBQV 300100Z 14012KT 9999 FEW017 21/17 Q1021=
0142833440999992017013007004-14863-040863FM-15+091499999V0201401N004119999999N009999199+01801+01601999999ADDGA1041+002441999GE19MSL   +99999+99999GF199999041999002441999999MA1102001999999REMMET051METAR SBQV 300700Z 14008KT 9999 SCT008 18/16 Q1020=
0142833440999992017013008004-14863-040863FM-15+091499999V0201401N003619999999N009999199+01801+01701999999ADDGA1041+002441999GE19MSL   +99999+99999GF199999041999002441999999MA1102001999999REMMET051METAR SBQV 300800Z 14007KT 9999 SCT008 18/17 Q1020=
0142833440999992017013009004-14863-040863FM-15+091499999V0201401N002619999999N009999199+01801+01701999999ADDGA1021+002441999GE19MSL   +99999+99999GF199999021999002441999999MA1102101999999REMMET051METAR SBQV 300900Z 14005KT 9999 FEW008 18/17 Q1021=
0142833440999992017013010004-14863-040863FM-15+091499999V0201201N004119999999N009999199+01901+01601999999ADDGA1021+003051999GE19MSL   +99999+99999GF199999021999003051999999MA1102101999999REMMET051METAR SBQV 301000Z 12008KT 9999 FEW010 19/16 Q1021=
0142833440999992017013011004-14863-040863FM-15+091499999V0201301N005110045719N009999199+02001+01601999999ADDGA1071+004571999GE19MSL   +99999+99999GF199999071999004571999999MA1102101999999REMMET051METAR SBQV 301100Z 13010KT 9999 BKN015 20/16 Q1021=
0155833440999992017013012004-14886-040801FM-12+084099999V0200901N0041100600199020000199+02401+01661101501ADDAA124003031AY151061AY221061GA1061+006001081GE19MSL   +99999+99999GF106991061999006001999999KA1120N+01601MA1999999092001MD1999999-0061MW1031REMSYN004BUFR
0142833440999992017013012004-14863-040863FM-15+091499999V0201301N005710045719N009999199+02201+01501999999ADDGA1071+004571999GE19MSL   +99999+99999GF199999071999004571999999MA1102201999999REMMET051METAR SBQV 301200Z 13011KT 9999 BKN015 22/15 Q1022=
0142833440999992017013013004-14863-040863FM-15+091499999V0201501N004610061019N009999199+02401+01501999999ADDGA1071+006101999GE19MSL   +99999+99999GF199999071999006101999999MA1102101999999REMMET051METAR SBQV 301300Z 15009KT 9999 BKN020 24/15 Q1021=
0142833440999992017013014004-14863-040863FM-15+091499999V0201401N005710076219N009999199+02601+01501999999ADDGA1071+007621999GE19MSL   +99999+99999GF199999071999007621999999MA1102101999999REMMET051METAR SBQV 301400Z 14011KT 9999 BKN025 26/15 Q1021=
0142833440999992017013015004-14863-040863FM-15+091499999V0201301N005110076219N009999199+02601+01601999999ADDGA1071+007621999GE19MSL   +99999+99999GF199999071999007621999999MA1102001999999REMMET051METAR SBQV 301500Z 13010KT 9999 BKN025 26/16 Q1020=
0142833440999992017013016004-14863-040863FM-15+091499999V0201201N005110091419N009999199+02601+01501999999ADDGA1071+009141999GE19MSL   +99999+99999GF199999071999009141999999MA1101901999999REMMET051METAR SBQV 301600Z 12010KT 9999 BKN030 26/15 Q1019=
0142833440999992017013017004-14863-040863FM-15+091499999V0201001N004610082319N009999199+02601+01401999999ADDGA1071+008231999GE19MSL   +99999+99999GF199999071999008231999999MA1101901999999REMMET051METAR SBQV 301700Z 10009KT 9999 BKN027 26/14 Q1019=
0136833440999992017013018004-14886-040801FM-12+084099999V0200901N0031100300199020000199+02751+01781999999ADDAA101999999AZ101061AZ201061GA1061+003001081GE19MSL   +99999+99999GF106991061999003001999999MA1999999091661MD1999999-0181REMSYN004BUFR
0142833440999992017013018004-14863-040863FM-15+091499999V0201501N006210082319N009999199+02801+01401999999ADDGA1071+008231999GE19MSL   +99999+99999GF199999071999008231999999MA1101801999999REMMET051METAR SBQV 301800Z 15012KT 9999 BKN027 28/14 Q1018=
0142833440999992017013019004-14863-040863FM-15+091499999V0201301N008219999999N009999199+02701+01501999999ADDGA1041+008231999GE19MSL   +99999+99999GF199999041999008231999999MA1101801999999REMMET051METAR SBQV 301900Z 13016KT 9999 SCT027 27/15 Q1018=
0142833440999992017013020004-14863-040863FM-15+091499999V0201401N008819999999N009999199+02501+01701999999ADDGA1041+008231999GE19MSL   +99999+99999GF199999041999008231999999MA1101901999999REMMET051METAR SBQV 302000Z 14017KT 9999 SCT027 25/17 Q1019=
0142833440999992017013021004-14863-040863FM-15+091499999V0201201N006719999999N009999199+02301+01501999999ADDGA1021+008231999GE19MSL   +99999+99999GF199999021999008231999999MA1101901999999REMMET051METAR SBQV 302100Z 12013KT 9999 FEW027 23/15 Q1019=
0142833440999992017013022004-14863-040863FM-15+091499999V0201301N007219999999N009999199+02301+01701999999ADDGA1041+007621999GE19MSL   +99999+99999GF199999041999007621999999MA1101901999999REMMET051METAR SBQV 302200Z 13014KT 9999 SCT025 23/17 Q1019=
0142833440999992017013023004-14863-040863FM-15+091499999V0201101N006219999999N009999199+02201+01601999999ADDGA1041+007621999GE19MSL   +99999+99999GF199999041999007621999999MA1101901999999REMMET051METAR SBQV 302300Z 11012KT 9999 SCT025 22/16 Q1019=
0136833440999992017013100004-14886-040801FM-12+084099999V0200901N0021199999999004000199+02111+01781101421ADDAA101999999AZ101061AZ201061GA1031+012501061GE19MSL   +99999+99999GF103991031999012501999999MA1999999090871MD1999999+0001REMSYN004BUFR
0142833440999992017013100004-14863-040863FM-15+091499999V0201101N006719999999N009999199+02201+01701999999ADDGA1041+007621999GE19MSL   +99999+99999GF199999041999007621999999MA1102001999999REMMET051METAR SBQV 310000Z 11013KT 9999 SCT025 22/17 Q1020=
0142833440999992017013101004-14863-040863FM-15+091499999V0201101N007219999999N009999199+02001+01601999999ADDGA1041+007011999GE19MSL   +99999+99999GF199999041999007011999999MA1102001999999REMMET051METAR SBQV 310100Z 11014KT 9999 SCT023 20/16 Q1020=
0072833440999992017013107004-14863-040863FM-15+091499999V0201301N003619999999Y999999999+01801+01601999999ADDMA1102001999999REMMET045METAR SBQV 310700Z 13007KT CAVOK 18/16 Q1020=
0142833440999992017013109004-14863-040863FM-15+091499999V0201201N001519999999N009999199+01601+01501999999ADDGA1041+002441999GE19MSL   +99999+99999GF199999041999002441999999MA1102001999999REMMET051METAR SBQV 310900Z 12003KT 9999 SCT008 16/15 Q1020=
0142833440999992017013110004-14863-040863FM-15+091499999V0201401N004119999999N009999199+01801+01601999999ADDGA1041+002441999GE19MSL   +99999+99999GF199999041999002441999999MA1102001999999REMMET051METAR SBQV 311000Z 14008KT 9999 SCT008 18/16 Q1020=
0142833440999992017013111004-14863-040863FM-15+091499999V0201301N006710045719N009999199+02001+01601999999ADDGA1071+004571999GE19MSL   +99999+99999GF199999071999004571999999MA1102101999999REMMET051METAR SBQV 311100Z 13013KT 9999 BKN015 20/16 Q1021=
0149833440999992017013112004-14886-040801FM-12+084099999V0200901N0031199999999020000199+02301+01731101491ADDAA101999999AZ101061AZ201061GA1041+003001061GE19MSL   +99999+99999GF104991041999003001999999KA1120N+01481MA1999999091921MD1999999-0081REMSYN004BUFR
0142833440999992017013112004-14863-040863FM-15+091499999V0201201N004610045719N009999199+02301+01601999999ADDGA1071+004571999GE19MSL   +99999+99999GF199999071999004571999999MA1102101999999REMMET051METAR SBQV 311200Z 12009KT 9999 BKN015 23/16 Q1021=
0142833440999992017013113004-14863-040863FM-15+091499999V0201301N003610061019N009999199+02401+01501999999ADDGA1071+006101999GE19MSL   +99999+99999GF199999071999006101999999MA1102101999999REMMET051METAR SBQV 311300Z 13007KT 9999 BKN020 24/15 Q1021=
0142833440999992017013114004-14863-040863FM-15+091499999V0201501N004110076219N009999199+02701+01601999999ADDGA1071+007621999GE19MSL   +99999+99999GF199999071999007621999999MA1102001999999REMMET051METAR SBQV 311400Z 15008KT 9999 BKN025 27/16 Q1020=
0142833440999992017013115004-14863-040863FM-15+091499999V0201201N004610091419N009999199+02801+01601999999ADDGA1071+009141999GE19MSL   +99999+99999GF199999071999009141999999MA1101901999999REMMET051METAR SBQV 311500Z 12009KT 9999 BKN030 28/16 Q1019=
0142833440999992017013116004-14863-040863FM-15+091499999V0201501N004610091419N009999199+02701+01501999999ADDGA1071+009141999GE19MSL   +99999+99999GF199999071999009141999999MA1101901999999REMMET051METAR SBQV 311600Z 15009KT 9999 BKN030 27/15 Q1019=
0142833440999992017013117004-14863-040863FM-15+091499999V0201401N004610076219N009999199+02801+01301999999ADDGA1071+007621999GE19MSL   +99999+99999GF199999071999007621999999MA1101801999999REMMET051METAR SBQV 311700Z 14009KT 9999 BKN025 28/13 Q1018=
0136833440999992017013118004-14886-040801FM-12+084099999V0201401N0031199999999020000199+02951+01591999999ADDAA101999999AZ101061AZ201061GA1041+003001061GE19MSL   +99999+99999GF104991041999003001999999MA1999999091531MD1999999-0131REMSYN004BUFR
0142833440999992017013118004-14863-040863FM-15+091499999V0201401N005710076219N009999199+02901+01401999999ADDGA1071+007621999GE19MSL   +99999+99999GF199999071999007621999999MA1101701999999REMMET051METAR SBQV 311800Z 14011KT 9999 BKN025 29/14 Q1017=
0142833440999992017013119004-14863-040863FM-15+091499999V0201301N005119999999N009999199+02801+01301999999ADDGA1041+007621999GE19MSL   +99999+99999GF199999041999007621999999MA1101601999999REMMET051METAR SBQV 311900Z 13010KT 9999 SCT025 28/13 Q1016=
0142833440999992017013120004-14863-040863FM-15+091499999V0201401N004619999999N009999199+02901+01201999999ADDGA1041+007621999GE19MSL   +99999+99999GF199999041999007621999999MA1101601999999REMMET051METAR SBQV 312000Z 14009KT 9999 SCT025 29/12 Q1016=
0142833440999992017013121004-14863-040863FM-15+091499999V0201401N006719999999N009999199+02701+01301999999ADDGA1021+007621999GE19MSL   +99999+99999GF199999021999007621999999MA1101601999999REMMET051METAR SBQV 312100Z 14013KT 9999 FEW025 27/13 Q1016=
0072833440999992017013123004-14863-040863FM-15+091499999V0201301N007219999999Y999999999+02301+01501999999ADDMA1101701999999REMMET045METAR SBQV 312300Z 13014KT CAVOK 23/15 Q1017=
0136833440999992017020100004-14886-040801FM-12+084099999V0201401N0021199999999004000199+02271+01861101151ADDAA101999999AZ101061AZ201061GA1021+012501051GE19MSL   +99999+99999GF103991021999012501999999MA1999999091651MD1999999-0221REMSYN004BUFR
0072833440999992017020100004-14863-040863FM-15+091499999V0201201N006719999999Y999999999+02301+01701999999ADDMA1101801999999REMMET045METAR SBQV 010000Z 12013KT CAVOK 23/17 Q1018=
0072833440999992017020101004-14863-040863FM-15+091499999V0201201N007219999999Y999999999+02201+01701999999ADDMA1101801999999REMMET045METAR SBQV 010100Z 12014KT CAVOK 22/17 Q1018=
0142833440999992017020107004-14863-040863FM-15+091499999V0201001N003619999999N009999199+01701+01501999999ADDGA1021+002441999GE19MSL   +99999+99999GF199999021999002441999999MA1101801999999REMMET051METAR SBQV 010700Z 10007KT 9999 FEW008 17/15 Q1018=
0142833440999992017020108004-14863-040863FM-15+091499999V0201001N004619999999N009999199+01801+01501999999ADDGA1041+002441999GE19MSL   +99999+99999GF199999041999002441999999MA1101801999999REMMET051METAR SBQV 010800Z 10009KT 9999 SCT008 18/15 Q1018=
0072833440999992017020109004-14863-040863FM-15+091499999V0201001N004619999999Y999999999+01801+01501999999ADDMA1101901999999REMMET045METAR SBQV 010900Z 10009KT CAVOK 18/15 Q1019=
0072833440999992017020110004-14863-040863FM-15+091499999V0201301N003119999999Y999999999+02001+01601999999ADDMA1101901999999REMMET045METAR SBQV 011000Z 13006KT CAVOK 20/16 Q1019=
0142833440999992017020111004-14863-040863FM-15+091499999V0200901N004619999999N009999199+02201+01601999999ADDGA1041+004571999GE19MSL   +99999+99999GF199999041999004571999999MA1101901999999REMMET051METAR SBQV 011100Z 09009KT 9999 SCT015 22/16 Q1019=
0149833440999992017020112004-14886-040801FM-12+084099999V0200901N0015100300199020000199+02271+01711101281ADDAA101999999AZ101061AZ201061GA1061+003001081GE19MSL   +99999+99999GF106991061999003001999999KA1120N+01561MA1999999091771MD1999999-0121REMSYN004BUFR
0142833440999992017020112004-14863-040863FM-15+091499999V0201501N003610061019N009999199+02301+01501999999ADDGA1071+006101999GE19MSL   +99999+99999GF199999071999006101999999MA1101901999999REMMET051METAR SBQV 011200Z 15007KT 9999 BKN020 23/15 Q1019=
0142833440999992017020113004-14863-040863FM-15+091499999V0200701N002110061019N009999199+02501+01601999999ADDGA1071+006101999GE19MSL   +99999+99999GF199999071999006101999999MA1101901999999REMMET051METAR SBQV 011300Z 07004KT 9999 BKN020 25/16 Q1019=
0142833440999992017020115004-14863-040863FM-15+091499999V0201701N002110076219N009999199+02701+01401999999ADDGA1071+007621999GE19MSL   +99999+99999GF199999071999007621999999MA1101801999999REMMET051METAR SBQV 011500Z 17004KT 9999 BKN025 27/14 Q1018=
0142833440999992017020116004-14863-040863FM-15+091499999V0201101N003610091419N009999199+02901+01501999999ADDGA1071+009141999GE19MSL   +99999+99999GF199999071999009141999999MA1101801999999REMMET051METAR SBQV 011600Z 11007KT 9999 BKN030 29/15 Q1018=
0142833440999992017020117004-14863-040863FM-15+091499999V0201301N004110091419N009999199+02801+01401999999ADDGA1071+009141999GE19MSL   +99999+99999GF199999071999009141999999MA1101701999999REMMET051METAR SBQV 011700Z 13008KT 9999 BKN030 28/14 Q1017=
0168833440999992017020118004-14886-040801FM-12+084099999V0201401N0021199999999020000199+02851+01601999999ADDAA101999999AZ101061AZ201061GA1041+003001081GA2999+999999031GA3999+999999001GE19MSL   +99999+99999GF106991041999003001999999MA1999999091511MD1999999+0021REMSYN004BUFR
0142833440999992017020118004-14863-040863FM-15+091499999V0201101N005719999999N009999199+02901+01401999999ADDGA1041+009141999GE19MSL   +99999+99999GF199999041999009141999999MA1101601999999REMMET051METAR SBQV 011800Z 11011KT 9999 SCT030 29/14 Q1016=
0142833440999992017020119004-14863-040863FM-15+091499999V0201301N005719999999N009999199+02801+01301999999ADDGA1041+009141999GE19MSL   +99999+99999GF199999041999009141999999MA1101601999999REMMET051METAR SBQV 011900Z 13011KT 9999 SCT030 28/13 Q1016=
0142833440999992017020120004-14863-040863FM-15+091499999V0201401N005719999999N009999199+02801+01301999999ADDGA1021+009141999GE19MSL   +99999+99999GF199999021999009141999999MA1101501999999REMMET051METAR SBQV 012000Z 14011KT 9999 FEW030 28/13 Q1015=
0142833440999992017020121004-14863-040863FM-15+091499999V0201201N005119999999N009999199+02801+01201999999ADDGA1021+009141999GE19MSL   +99999+99999GF199999021999009141999999MA1101601999999REMMET051METAR SBQV 012100Z 12010KT 9999 FEW030 28/12 Q1016=
0142833440999992017020122004-14863-040863FM-15+091499999V0201201N004619999999N009999199+02701+01201999999ADDGA1021+009141999GE19MSL   +99999+99999GF199999021999009141999999MA1101601999999REMMET051METAR SBQV 012200Z 12009KT 9999 FEW030 27/12 Q1016=
0072833440999992017020123004-14863-040863FM-15+091499999V0201001N006219999999Y999999999+02401+01601999999ADDMA1101701999999REMMET045METAR SBQV 012300Z 10012KT CAVOK 24/16 Q1017=
0072833440999992017020200004-14863-040863FM-15+091499999V0201001N006219999999Y999999999+02301+01801999999ADDMA1101701999999REMMET045METAR SBQV 020000Z 10012KT CAVOK 23/18 Q1017=
0142833440999992017020207004-14863-040863FM-15+091499999V0200901N003619999999N009999199+02101+01801999999ADDGA1041+002441999GE19MSL   +99999+99999GF199999041999002441999999MA1101701999999REMMET051METAR SBQV 020700Z 09007KT 9999 SCT008 21/18 Q1017=
0142833440999992017020208004-14863-040863FM-15+091499999V0201101N004119999999N009999199+01901+01701999999ADDGA1041+002441999GE19MSL   +99999+99999GF199999041999002441999999MA1101701999999REMMET051METAR SBQV 020800Z 11008KT 9999 SCT008 19/17 Q1017=
0142833440999992017020209004-14863-040863FM-15+091499999V0201001N002119999999N009999199+01901+01701999999ADDGA1021+002441999GE19MSL   +99999+99999GF199999021999002441999999MA1101801999999REMMET051METAR SBQV 020900Z 10004KT 9999 FEW008 19/17 Q1018=
0142833440999992017020210004-14863-040863FM-15+091499999V0200801N001510024419N009999199+02101+01801999999ADDGA1071+002441999GE19MSL   +99999+99999GF199999071999002441999999MA1101901999999REMMET051METAR SBQV 021000Z 08003KT 9999 BKN008 21/18 Q1019=
0142833440999992017020211004-14863-040863FM-15+091499999V0200601N002610030519N009999199+02101+01701999999ADDGA1071+003051999GE19MSL   +99999+99999GF199999071999003051999999MA1101901999999REMMET051METAR SBQV 021100Z 06005KT 9999 BKN010 21/17 Q1019=
0165833440999992017020212004-14886-040801FM-12+084099999V0200501N0015199999999020000199+02421+01881101251ADDAA101999999AZ101061AZ201061GA1041+006001061GA2999+999999001GE19MSL   +99999+99999GF107991041999006001999999KA1120N+01761MA1999999091771MD1999999+0001REMSYN004BUFR
0142833440999992017020212004-14863-040863FM-15+091499999V0200101N002110045719N009999199+02301+01701999999ADDGA1071+004571999GE19MSL   +99999+99999GF199999071999004571999999MA1101901999999REMMET051METAR SBQV 021200Z 01004KT 9999 BKN015 23/17 Q1019=
0142833440999992017020213004-14863-040863FM-15+091499999V0201001N001510061019N009999199+02401+01701999999ADDGA1071+006101999GE19MSL   +99999+99999GF199999071999006101999999MA1101901999999REMMET051METAR SBQV 021300Z 10003KT 9999 BKN020 24/17 Q1019=
0142833440999992017020214004-14863-040863FM-15+091499999V0203401N002110061019N009999199+02601+01601999999ADDGA1071+006101999GE19MSL   +99999+99999GF199999071999006101999999MA1101901999999REMMET051METAR SBQV 021400Z 34004KT 9999 BKN020 26/16 Q1019=
0142833440999992017020215004-14863-040863FM-15+091499999V0200101N003110076219N009999199+02801+01601999999ADDGA1071+007621999GE19MSL   +99999+99999GF199999071999007621999999MA1101801999999REMMET051METAR SBQV 021500Z 01006KT 9999 BKN025 28/16 Q1018=
0142833440999992017020216004-14863-040863FM-15+091499999V0200301N002610091419N009999199+03001+01501999999ADDGA1071+009141999GE19MSL   +99999+99999GF199999071999009141999999MA1101701999999REMMET051METAR SBQV 021600Z 03005KT 9999 BKN030 30/15 Q1017=
0142833440999992017020217004-14863-040863FM-15+091499999V0209999C000010091419N009999199+03001+01501999999ADDGA1071+009141999GE19MSL   +99999+99999GF199999071999009141999999MA1101601999999REMMET051METAR SBQV 021700Z 00000KT 9999 BKN030 30/15 Q1016=
0152833440999992017020218004-14886-040801FM-12+084099999V0201401N0031100600199020000199+03071+01921999999ADDAA101999999AZ101061AZ201061GA1051+006001091GA2999+999999001GE19MSL   +99999+99999GF107991051999006001999999MA1999999091511MD1999999+0001REMSYN004BUFR
0142833440999992017020218004-14863-040863FM-15+091499999V0201101N004610091419N009999199+03001+01601999999ADDGA1071+009141999GE19MSL   +99999+99999GF199999071999009141999999MA1101601999999REMMET051METAR SBQV 021800Z 11009KT 9999 BKN030 30/16 Q1016=
0178833440999992017020219004-14863-040863FM-15+091499999V0200201N006710091419N008000199+02501+01801999999ADDGA1071+009141999GA2021+009141081GE19MSL   +99999+99999GF199999071999009141999999MA1101601999999MW1611REMMET065METAR SBQV 021900Z 02013KT 8000 -RA BKN030 FEW030TCU 25/18 Q1016=
0165833440999992017020220004-14863-040863FM-15+091499999V0200901N003610304819N009999199+02401+01701999999ADDGA1041+008231999GA2071+030481999GE19MSL   +99999+99999GF199999041999008231999999MA1101501999999REMMET058METAR SBQV 022000Z 09007KT 9999 SCT027 BKN100 24/17 Q1015=
0165833440999992017020221004-14863-040863FM-15+091499999V0200501N004110304819N009999199+02601+01801999999ADDGA1041+008231999GA2071+030481999GE19MSL   +99999+99999GF199999041999008231999999MA1101501999999REMMET058METAR SBQV 022100Z 05008KT 9999 SCT027 BKN100 26/18 Q1015=
0165833440999992017020223004-14863-040863FM-15+091499999V0200901N00511030481CN009999199+02301+01901999999ADDGA1021+008231999GA2041+030481999GE19MSL   +99999+99999GF199999021999008231999999MA1101701999999REMMET058METAR SBQV 022300Z 09010KT 9999 FEW027 SCT100 23/19 Q1017=
0165833440999992017020300004-14863-040863FM-15+091499999V0201001N00461030481CN009999199+02201+01901999999ADDGA1041+008231999GA2041+030481999GE19MSL   +99999+99999GF199999041999008231999999MA1101801999999REMMET058METAR SBQV 030000Z 10009KT 9999 SCT027 SCT100 22/19 Q1018=
0142833440999992017020307004-14863-040863FM-15+091499999V0200901N001519999999N009999199+02101+01801999999ADDGA1041+002441999GE19MSL   +99999+99999GF199999041999002441999999MA1101801999999REMMET051METAR SBQV 030700Z 09003KT 9999 SCT008 21/18 Q1018=
0142833440999992017020308004-14863-040863FM-15+091499999V0200501N001519999999N009999199+02001+01701999999ADDGA1021+002441999GE19MSL   +99999+99999GF199999021999002441999999MA1101801999999REMMET051METAR SBQV 030800Z 05003KT 9999 FEW008 20/17 Q1018=
0142833440999992017020309004-14863-040863FM-15+091499999V0201001N001519999999N009999199+01901+01701999999ADDGA1041+003051999GE19MSL   +99999+99999GF199999041999003051999999MA1101901999999REMMET051METAR SBQV 030900Z 10003KT 9999 SCT010 19/17 Q1019=
0142833440999992017020310004-14863-040863FM-15+091499999V0200301N002619999999N009999199+02001+01801999999ADDGA1041+003051999GE19MSL   +99999+99999GF199999041999003051999999MA1101901999999REMMET051METAR SBQV 031000Z 03005KT 9999 SCT010 20/18 Q1019=
0142833440999992017020311004-14863-040863FM-15+091499999V0200601N004619999999N009999199+02101+01701999999ADDGA1041+004571999GE19MSL   +99999+99999GF199999041999004571999999MA1101901999999REMMET051METAR SBQV 031100Z 06009KT 9999 SCT015 21/17 Q1019=
0165833440999992017020312004-14886-040801FM-12+084099999V0200501N0015100300199020000199+02351+01741101391ADDAA124000231AZ101061AZ201061GA1081+003001051GA2999+999999101GE19MSL   +99999+99999GF108991081999003001999999KA1120N+01701MA1999999091881MD1999999+0111REMSYN004BUFR
0142833440999992017020312004-14863-040863FM-15+091499999V0200801N001010045719N009999199+02301+01801999999ADDGA1071+004571999GE19MSL   +99999+99999GF199999071999004571999999MA1102001999999REMMET051METAR SBQV 031200Z 08002KT 9999 BKN015 23/18 Q1020=
0142833440999992017020313004-14863-040863FM-15+091499999V0200301N002110061019N009999199+02401+01801999999ADDGA1071+006101999GE19MSL   +99999+99999GF199999071999006101999999MA1102001999999REMMET051METAR SBQV 031300Z 03004KT 9999 BKN020 24/18 Q1020=
0142833440999992017020315004-14863-040863FM-15+091499999V0201001N001510076219N009999199+02701+01701999999ADDGA1071+007621999GE19MSL   +99999+99999GF199999071999007621999999MA1101901999999REMMET051METAR SBQV 031500Z 10003KT 9999 BKN025 27/17 Q1019=
0142833440999992017020316004-14863-040863FM-15+091499999V0202801N001010091419N009999199+02801+01601999999ADDGA1071+009141999GE19MSL   +99999+99999GF199999071999009141999999MA1101801999999REMMET051METAR SBQV 031600Z 28002KT 9999 BKN030 28/16 Q1018=
0136833440999992017020318004-14886-040801FM-12+084099999V0200901N0015199999999020000199+03101+01561999999ADDAA101999999AZ101061AZ201061GA1041+003001061GE19MSL   +99999+99999GF104991041999003001999999MA1999999091391MD1999999-0121REMSYN004BUFR
0142833440999992017020318004-14863-040863FM-15+091499999V0200701N002110091419N009999199+03001+01501999999ADDGA1071+009141999GE19MSL   +99999+99999GF199999071999009141999999MA1101601999999REMMET051METAR SBQV 031800Z 07004KT 9999 BKN030 30/15 Q1016=
0142833440999992017020320004-14863-040863FM-15+091499999V0201001N005119999999N009999199+03001+01601999999ADDGA1041+009141999GE19MSL   +99999+99999GF199999041999009141999999MA1101501999999REMMET051METAR SBQV 032000Z 10010KT 9999 SCT030 30/16 Q1015=
0142833440999992017020321004-14863-040863FM-15+091499999V0201201N005119999999N009999199+02901+01501999999ADDGA1041+009141999GE19MSL   +99999+99999GF199999041999009141999999MA1101601999999REMMET051METAR SBQV 032100Z 12010KT 9999 SCT030 29/15 Q1016=
0142833440999992017020323004-14863-040863FM-15+091499999V0201101N005119999999N009999199+02501+01801999999ADDGA1021+008231999GE19MSL   +99999+99999GF199999021999008231999999MA1101801999999REMMET051METAR SBQV 032300Z 11010KT 9999 FEW027 25/18 Q1018=
0142833440999992017020400004-14863-040863FM-15+091499999V0201101N005119999999N009999199+02401+01901999999ADDGA1021+007621999GE19MSL   +99999+99999GF199999021999007621999999MA1101901999999REMMET051METAR SBQV 040000Z 11010KT 9999 FEW025 24/19 Q1019=
0142833440999992017020401004-14863-040863FM-15+091499999V0201101N004619999999N009999199+02301+01801999999ADDGA1021+007621999GE19MSL   +99999+99999GF199999021999007621999999MA1102001999999REMMET051METAR SBQV 040100Z 11009KT 9999 FEW025 23/18 Q1020=
0072833440999992017020407004-14863-040863FM-15+091499999V0201101N002619999999Y999999999+01901+01601999999ADDMA1101801999999REMMET045METAR SBQV 040700Z 11005KT CAVOK 19/16 Q1018=
0072833440999992017020408004-14863-040863FM-15+091499999V0200801N001519999999Y999999999+01801+01601999999ADDMA1101801999999REMMET045METAR SBQV 040800Z 08003KT CAVOK 18/16 Q1018=
0142833440999992017020409004-14863-040863FM-15+091499999V0200901N002619999999N009999199+01901+01601999999ADDGA1041+003051999GE19MSL   +99999+99999GF199999041999003051999999MA1101901999999REMMET051METAR SBQV 040900Z 09005KT 9999 SCT010 19/16 Q1019=
0142833440999992017020410004-14863-040863FM-15+091499999V0200801N002619999999N009999199+02001+01701999999ADDGA1041+003051999GE19MSL   +99999+99999GF199999041999003051999999MA1101901999999REMMET051METAR SBQV 041000Z 08005KT 9999 SCT010 20/17 Q1019=
0142833440999992017020411004-14863-040863FM-15+091499999V0200901N003119999999N009999199+02201+01701999999ADDGA1041+004571999GE19MSL   +99999+99999GF199999041999004571999999MA1101901999999REMMET051METAR SBQV 041100Z 09006KT 9999 SCT015 22/17 Q1019=
0149833440999992017020412004-14886-040801FM-12+084099999V0200501N0031100600199020000199+02321+01761101321ADDAA101999999AZ101061AZ201061GA1061+006001081GE19MSL   +99999+99999GF106991061999006001999999KA1120N+01661MA1999999091801MD1999999-0081REMSYN004BUFR
0142833440999992017020412004-14863-040863FM-15+091499999V0200601N003110045719N009999199+02301+01701999999ADDGA1071+004571999GE19MSL   +99999+99999GF199999071999004571999999MA1101901999999REMMET051METAR SBQV 041200Z 06006KT 9999 BKN015 23/17 Q1019=
0142833440999992017020413004-14863-040863FM-15+091499999V0200501N003610061019N009999199+02601+01801999999ADDGA1071+006101999GE19MSL   +99999+99999GF199999071999006101999999MA1101901999999REMMET051METAR SBQV 041300Z 05007KT 9999 BKN020 26/18 Q1019=
0142833440999992017020414004-14863-040863FM-15+091499999V0200401N002110061019N009999199+02701+01701999999ADDGA1071+006101999GE19MSL   +99999+99999GF199999071999006101999999MA1101901999999REMMET051METAR SBQV 041400Z 04004KT 9999 BKN020 27/17 Q1019=
0142833440999992017020415004-14863-040863FM-15+091499999V0201001N003610076219N009999199+02801+01701999999ADDGA1071+007621999GE19MSL   +99999+99999GF199999071999007621999999MA1101801999999REMMET051METAR SBQV 041500Z 10007KT 9999 BKN025 28/17 Q1018=
0142833440999992017020416004-14863-040863FM-15+091499999V0200701N004110076219N009999199+02801+01601999999ADDGA1071+007621999GE19MSL   +99999+99999GF199999071999007621999999MA1101701999999REMMET051METAR SBQV 041600Z 07008KT 9999 BKN025 28/16 Q1017=
0142833440999992017020417004-14863-040863FM-15+091499999V0200601N001510091419N009999199+03001+01501999999ADDGA1071+009141999GE19MSL   +99999+99999GF199999071999009141999999MA1101601999999REMMET051METAR SBQV 041700Z 06003KT 9999 BKN030 30/15 Q1016=
0152833440999992017020418004-14886-040801FM-12+084099999V0200901N0015199999999020000199+03071+01801999999ADDAA101999999AZ101061AZ201061GA1041+006001081GA2999+999999001GE19MSL   +99999+99999GF106991041999006001999999MA1999999091391MD1999999+0001REMSYN004BUFR
0181833440999992017020512004-14886-040801FM-12+084099999V0201901N0021100300199020000199+02271+01751101351ADDAA101999999AZ101061AZ201061GA1071+003001071GA2999+999999101GA3999+999999101GE19MSL   +99999+99999GF107991071999003001999999KA1120N+01841MA1999999091791MD1999999-0011REMSYN004BUFR
0168833440999992017020518004-14886-040801FM-12+084099999V0200901N0021100300199020000199+02851+01671999999ADDAA101999999AZ101061AZ201061GA1051+003001061GA2999+999999041GA3999+999999001GE19MSL   +99999+99999GF106991051999003001999999MA1999999091431MD1999999-0041REMSYN004BUFR
0181833440999992017020612004-14886-040801FM-12+084099999V0200901N0021100300199020000199+02171+01841101201ADDAA101999999AZ101061AZ201061GA1081+003001071GA2999+999999101GA3999+999999101GE19MSL   +99999+99999GF108991081999003001999999KA1120N+01861MA1999999091671MD1999999+0111REMSYN004BUFR
0136833440999992017020618004-14886-040801FM-12+084099999V0200901N0021199999999020000199+03001+01971999999ADDAA101999999AZ101061AZ201061GA1041+003001061GE19MSL   +99999+99999GF104991041999003001999999MA1999999091281MD1999999-0151REMSYN004BUFR
0142833440999992017020709004-14863-040863FM-15+091499999V0200701N003119999999N009999199+02001+01801999999ADDGA1041+003961999GE19MSL   +99999+99999GF199999041999003961999999MA1101601999999REMMET051METAR SBQV 070900Z 07006KT 9999 SCT013 20/18 Q1016=
0142833440999992017020711004-14863-040863FM-15+091499999V0200301N004110045719N009999199+02201+01801999999ADDGA1071+004571999GE19MSL   +99999+99999GF199999071999004571999999MA1101701999999REMMET051METAR SBQV 071100Z 03008KT 9999 BKN015 22/18 Q1017=
0181833440999992017020712004-14886-040801FM-12+088099999V0200501N0031100300199020000199+02251+01901101121ADDAA101999999AZ101061AZ201061GA1081+003001071GA2999+999999101GA3999+999999101GE19MSL   +99999+99999GF108991081999003001999999KA1120N+01861MA1999999091601MD1999999+0071REMSYN004BUFR
0142833440999992017020712004-14863-040863FM-15+091499999V0200201N003110045719N009999199+02301+01901999999ADDGA1071+004571999GE19MSL   +99999+99999GF199999071999004571999999MA1101801999999REMMET051METAR SBQV 071200Z 02006KT 9999 BKN015 23/19 Q1018=
0142833440999992017020713004-14863-040863FM-15+091499999V0200301N003610061019N009999199+02201+01801999999ADDGA1071+006101999GE19MSL   +99999+99999GF199999071999006101999999MA1101801999999REMMET051METAR SBQV 071300Z 03007KT 9999 BKN020 22/18 Q1018=
0142833440999992017020714004-14863-040863FM-15+091499999V0203601N002110061019N009999199+02301+01801999999ADDGA1071+006101999GE19MSL   +99999+99999GF199999071999006101999999MA1101801999999REMMET051METAR SBQV 071400Z 36004KT 9999 BKN020 23/18 Q1018=
0142833440999992017020715004-14863-040863FM-15+091499999V0209999C000010070119N009999199+02601+01901999999ADDGA1071+007011999GE19MSL   +99999+99999GF199999071999007011999999MA1101701999999REMMET051METAR SBQV 071500Z 00000KT 9999 BKN023 26/19 Q1017=
0142833440999992017020716004-14863-040863FM-15+091499999V0200301N002610070119N009999199+02701+01801999999ADDGA1071+007011999GE19MSL   +99999+99999GF199999071999007011999999MA1101601999999REMMET051METAR SBQV 071600Z 03005KT 9999 BKN023 27/18 Q1016=
0142833440999992017020717004-14863-040863FM-15+091499999V0209999C000010076219N009999199+02601+01901999999ADDGA1071+007621999GE19MSL   +99999+99999GF199999071999007621999999MA1101601999999REMMET051METAR SBQV 071700Z 00000KT 9999 BKN025 26/19 Q1016=
0174833440999992017020718004-14886-040801FM-12+088099999V0202701N0015100300199020000199+02471+02211999999ADDAA106002031AY151061AY221061GA1081+003001071GA2999+999999101GA3999+999999101GE19MSL   +99999+99999GF108991081999003001999999MA1999999091381MD1999999-0101MW1501REMSYN004BUFR
0142833440999992017020718004-14863-040863FM-15+091499999V0201801N003110076219N009999199+02201+02001999999ADDGA1071+007621999GE19MSL   +99999+99999GF199999071999007621999999MA1101501999999REMMET051METAR SBQV 071800Z 18006KT 9999 BKN025 22/20 Q1015=
0152833440999992017020719004-14863-040863FM-15+091499999V0201701N002610076219N009999199+02201+02001999999ADDGA1071+007621999GE19MSL   +99999+99999GF199999071999007621999999MA1101501999999MW1611REMMET055METAR SBQV 071900Z 17005KT 9999 -RA BKN025 22/20 Q1015=
0072833440999992017020721004-14863-040863FM-15+091499999V0201401N002619999999Y999999999+02201+02101999999ADDMA1101401999999REMMET045METAR SBQV 072100Z 14005KT CAVOK 22/21 Q1014=
0072833440999992017020723004-14863-040863FM-15+091499999V0201401N001519999999Y999999999+02301+02001999999ADDMA1101601999999REMMET045METAR SBQV 072300Z 14003KT CAVOK 23/20 Q1016=
0152833440999992017020800004-14863-040863FM-15+091499999V0201401N002110076219N005000199+02201+02101999999ADDGA1071+007621999GE19MSL   +99999+99999GF199999071999007621999999MA1101701999999MW1611REMMET055METAR SBQV 080000Z 14004KT 5000 -RA BKN025 22/21 Q1017=
0151833440999992017020807004-14863-040863FM-15+091499999V0201001N003610015219N004000199+02101+01901999999ADDGA1071+001521999GE19MSL   +99999+99999GF199999071999001521999999MA1101501999999MW1101REMMET054METAR SBQV 080700Z 10007KT 4000 BR BKN005 21/19 Q1015=
0165833440999992017020808004-14863-040863FM-15+091499999V0200601N00361024381CN008000199+02001+01901999999ADDGA1021+003051999GA2041+024381999GE19MSL   +99999+99999GF199999021999003051999999MA1101601999999REMMET058METAR SBQV 080800Z 06007KT 8000 FEW010 SCT080 20/19 Q1016=
0165833440999992017020809004-14863-040863FM-15+091499999V0200301N002110243819N008000199+01901+01801999999ADDGA1021+001831999GA2071+024381999GE19MSL   +99999+99999GF199999021999001831999999MA1101601999999REMMET058METAR SBQV 080900Z 03004KT 8000 FEW006 BKN080 19/18 Q1016=
0165833440999992017020810004-14863-040863FM-15+091499999V0200501N003610243819N006000199+02001+01801999999ADDGA1041+002131999GA2071+024381999GE19MSL   +99999+99999GF199999041999002131999999MA1101701999999REMMET058METAR SBQV 081000Z 05007KT 6000 SCT007 BKN080 20/18 Q1017=
0165833440999992017020811004-14863-040863FM-15+091499999V0200301N003110243819N007000199+02101+01901999999ADDGA1041+002131999GA2071+024381999GE19MSL   +99999+99999GF199999041999002131999999MA1101801999999REMMET058METAR SBQV 081100Z 03006KT 7000 SCT007 BKN080 21/19 Q1018=
0187833440999992017020812004-14886-040801FM-12+088099999V0200501N0026100300199020000199+02301+02001101211ADDAA124005031AY151061AY221061GA1081+003001071GA2999+999999101GA3999+999999101GE19MSL   +99999+99999GF108991081999003001999999KA1120N+01841MA1999999091671MD1999999+0071MW1021REMSYN004BUFR
0188833440999992017020812004-14863-040863FM-15+091499999V0200101N00261003961CN009999199+02301+01901999999ADDGA1041+003051999GA2041+003961999GA3071+024381999GE19MSL   +99999+99999GF199999041999003051999999MA1101801999999REMMET065METAR SBQV 081200Z 01005KT 9999 SCT010 SCT013 BKN080 23/19 Q1018=
0142833440999992017020813004-14863-040863FM-15+091499999V0200101N003610051819N009999199+02301+01901999999ADDGA1071+005181999GE19MSL   +99999+99999GF199999071999005181999999MA1101801999999REMMET051METAR SBQV 081300Z 01007KT 9999 BKN017 23/19 Q1018=
0142833440999992017020814004-14863-040863FM-15+091499999V0203501N003110051819N009999199+02301+01901999999ADDGA1071+005181999GE19MSL   +99999+99999GF199999071999005181999999MA1101801999999REMMET051METAR SBQV 081400Z 35006KT 9999 BKN017 23/19 Q1018=
0165833440999992017020815004-14863-040863FM-15+091499999V0203601N005110061019N009999199+02601+02001999999ADDGA1071+006101999GA2071+027431999GE19MSL   +99999+99999GF199999071999006101999999MA1101701999999REMMET058METAR SBQV 081500Z 36010KT 9999 BKN020 BKN090 26/20 Q1017=
0165833440999992017020816004-14863-040863FM-15+091499999V0203501N003610076219N009999199+02501+01901999999ADDGA1071+007621999GA2071+030481999GE19MSL   +99999+99999GF199999071999007621999999MA1101601999999REMMET058METAR SBQV 081600Z 35007KT 9999 BKN025 BKN100 25/19 Q1016=
0142833440999992017020817004-14863-040863FM-15+091499999V0200101N003110076219N009999199+02701+01801999999ADDGA1071+007621999GE19MSL   +99999+99999GF199999071999007621999999MA1101501999999REMMET051METAR SBQV 081700Z 01006KT 9999 BKN025 27/18 Q1015=
0174833440999992017020818004-14886-040801FM-12+088099999V0201401N0015100300199010000199+02671+02041999999ADDAA101999999AY121061AY221061GA1081+003001091GA2999+999999101GA3999+999999101GE19MSL   +99999+99999GF108991081999003001999999MA1999999091321MD1999999-0061MW1151REMSYN004BUFR
0142833440999992017020819004-14863-040863FM-15+091499999V0201601N004119999999N009999199+02501+01901999999ADDGA1041+009141999GE19MSL   +99999+99999GF199999041999009141999999MA1101501999999REMMET051METAR SBQV 081900Z 16008KT 9999 SCT030 25/19 Q1015=
0152833440999992017020820004-14863-040863FM-15+091499999V0201701N005710045719N009999199+02201+02101999999ADDGA1071+004571999GE19MSL   +99999+99999GF199999071999004571999999MA1101501999999MW1611REMMET055METAR SBQV 082000Z 17011KT 9999 -RA BKN015 22/21 Q1015=
0157833440999992017020821004-14863-040863FM-15+091499999V0201301N004610045719N005000199+02001+02001999999ADDGA1071+004571999GE19MSL   +99999+99999GF199999071999004571999999MA1101501999999MW1611REMMET060METAR SBQV 082100Z 13009KT 5000 -RA BKN015 20/20 Q1015 RERA=
0142833440999992017020822004-14863-040863FM-15+091499999V0201501N002619999999N009999199+02101+01901999999ADDGA1041+007621999GE19MSL   +99999+99999GF199999041999007621999999MA1101601999999REMMET051METAR SBQV 082200Z 15005KT 9999 SCT025 21/19 Q1016=
0142833440999992017020823004-14863-040863FM-15+091499999V0201301N003619999999N009999199+02101+02001999999ADDGA1041+009141999GE19MSL   +99999+99999GF199999041999009141999999MA1101601999999REMMET051METAR SBQV 082300Z 13007KT 9999 SCT030 21/20 Q1016=
0165833440999992017020900004-14863-040863FM-15+091499999V0201301N00361009141CN009999199+02201+02101999999ADDGA1041+002441999GA2041+009141999GE19MSL   +99999+99999GF199999041999002441999999MA1101701999999REMMET058METAR SBQV 090000Z 13007KT 9999 SCT008 SCT030 22/21 Q1017=
0151833440999992017020907004-14863-040863FM-15+091499999V0200701N002110012219N004000199+02001+01901999999ADDGA1071+001221999GE19MSL   +99999+99999GF199999071999001221999999MA1101601999999MW1101REMMET054METAR SBQV 090700Z 07004KT 4000 BR BKN004 20/19 Q1016=
0183833440999992017020908004-14863-040863FM-15+091499999V0201201N002110018319N002000199+02001+02001999999ADDGA1071+001831999GA2081+021341999GE19MSL   +99999+99999GF199999071999001831999999MA1101601999999MW1101MW2631REMMET064METAR SBQV 090800Z 12004KT 2000 RA BR BKN006 OVC070 20/20 Q1016=
0175833440999992017020910004-14863-040863FM-15+091499999V0200701N002110213419N008000199+01901+01901999999ADDGA1041+002131999GA2081+021341999GE19MSL   +99999+99999GF199999041999002131999999MA1101801999999MW1611REMMET062METAR SBQV 091000Z 07004KT 8000 -RA SCT007 OVC070 19/19 Q1018=
0175833440999992017020911004-14863-040863FM-15+091499999V0200901N001510213419N008000199+02001+01801999999ADDGA1041+002131999GA2081+021341999GE19MSL   +99999+99999GF199999041999002131999999MA1101901999999MW1611REMMET062METAR SBQV 091100Z 09003KT 8000 -RA SCT007 OVC070 20/18 Q1019=
0187833440999992017020912004-14886-040801FM-12+088099999V0203601N0000100300199010000199+01971+01831101281ADDAA124035031AY161061AY221061GA1081+003001071GA2999+999999101GA3999+999999101GE19MSL   +99999+99999GF108991081999003001999999KA1120N+01801MA1999999091661MD1999999-0011MW1521REMSYN004BUFR
0175833440999992017020912004-14863-040863FM-15+091499999V0201001N001510213419N008000199+02001+01801999999ADDGA1041+002131999GA2081+021341999GE19MSL   +99999+99999GF199999041999002131999999MA1101901999999MW1611REMMET062METAR SBQV 091200Z 10003KT 8000 -RA SCT007 OVC070 20/18 Q1019=
0184833440999992017020913004-14863-040863FM-15+091499999V0201301N002110021319N004000199+02001+01901999999ADDGA1071+002131999GA2081+021341999GE19MSL   +99999+99999GF199999071999002131999999MA1101901999999MW1101MW2611REMMET065METAR SBQV 091300Z 13004KT 4000 -RA BR BKN007 OVC070 20/19 Q1019=
0175833440999992017020915004-14863-040863FM-15+091499999V0201301N002610021319N006000199+02001+01901999999ADDGA1071+002131999GA2081+021341999GE19MSL   +99999+99999GF199999071999002131999999MA1101801999999MW1611REMMET062METAR SBQV 091500Z 13005KT 6000 -RA BKN007 OVC070 20/19 Q1018=
0165833440999992017020916004-14863-040863FM-15+091499999V0201401N003110021319N008000199+02101+02001999999ADDGA1071+002131999GA2081+021341999GE19MSL   +99999+99999GF199999071999002131999999MA1101801999999REMMET058METAR SBQV 091600Z 14006KT 8000 BKN007 OVC070 21/20 Q1018=
0142833440999992017020917004-14863-040863FM-15+091499999V0201301N004110030519N009999199+02201+02001999999ADDGA1071+003051999GE19MSL   +99999+99999GF199999071999003051999999MA1101701999999REMMET051METAR SBQV 091700Z 13008KT 9999 BKN010 22/20 Q1017=
0174833440999992017020918004-14886-040801FM-12+088099999V0200901N0021100300199010000199+02211+01971999999ADDAA106002031AY161061AY221061GA1081+003001071GA2999+999999101GA3999+999999101GE19MSL   +99999+99999GF108991081999003001999999MA1999999091371MD1999999+0051MW1021REMSYN004BUFR
0142833440999992017020918004-14863-040863FM-15+091499999V0201401N005110030519N009999199+02401+02001999999ADDGA1071+003051999GE19MSL   +99999+99999GF199999071999003051999999MA1101601999999REMMET051METAR SBQV 091800Z 14010KT 9999 BKN010 24/20 Q1016=
0142833440999992017020919004-14863-040863FM-15+091499999V0201301N005710030519N009999199+02301+01901999999ADDGA1071+003051999GE19MSL   +99999+99999GF199999071999003051999999MA1101601999999REMMET051METAR SBQV 091900Z 13011KT 9999 BKN010 23/19 Q1016=
0142833440999992017020920004-14863-040863FM-15+091499999V0201401N006210045719N009999199+02101+01901999999ADDGA1071+004571999GE19MSL   +99999+99999GF199999071999004571999999MA1101601999999REMMET051METAR SBQV 092000Z 14012KT 9999 BKN015 21/19 Q1016=
0142833440999992017020923004-14863-040863FM-15+091499999V0201301N006210021319N009999199+02001+01801999999ADDGA1071+002131999GE19MSL   +99999+99999GF199999071999002131999999MA1101701999999REMMET051METAR SBQV 092300Z 13012KT 9999 BKN007 20/18 Q1017=
0142833440999992017021000004-14863-040863FM-15+091499999V0201201N004119999999N009999199+02001+01801999999ADDGA1041+002441999GE19MSL   +99999+99999GF199999041999002441999999MA1101801999999REMMET051METAR SBQV 100000Z 12008KT 9999 SCT008 20/18 Q1018=
0142833440999992017021007004-14863-040863FM-15+091499999V0201101N003619999999N009999199+01801+01701999999ADDGA1041+001831999GE19MSL   +99999+99999GF199999041999001831999999MA1101701999999REMMET051METAR SBQV 100700Z 11007KT 9999 SCT006 18/17 Q1017=
0175833440999992017021008004-14863-040863FM-15+091499999V0201001N003610018319N006000199+01801+01701999999ADDGA1071+001831999GA2081+021341999GE19MSL   +99999+99999GF199999071999001831999999MA1101701999999MW1511REMMET062METAR SBQV 100800Z 10007KT 6000 -DZ BKN006 OVC070 18/17 Q1017=
0165833440999992017021009004-14863-040863FM-15+091499999V0200901N00361021341CN008000199+01801+01701999999ADDGA1041+001831999GA2041+021341999GE19MSL   +99999+99999GF199999041999001831999999MA1101701999999REMMET058METAR SBQV 100900Z 09007KT 8000 SCT006 SCT070 18/17 Q1017=
0151833440999992017021010004-14863-040863FM-15+091499999V0201101N002610015219N002000199+01801+01701999999ADDGA1081+001521999GE19MSL   +99999+99999GF199999081999001521999999MA1101801999999MW1101REMMET054METAR SBQV 101000Z 11005KT 2000 BR OVC005 18/17 Q1018=
0161833440999992017021011004-14863-040863FM-15+091499999V0201101N004110018319N005000199+01901+01801999999ADDGA1081+001831999GE19MSL   +99999+99999GF199999081999001831999999MA1101901999999MW1101MW2511REMMET058METAR SBQV 101100Z 11008KT 5000 -DZ BR OVC006 19/18 Q1019=
0187833440999992017021012004-14886-040801FM-12+088099999V0200901N0021100300199020000199+02071+01781101201ADDAA124003031AY151061AY221061GA1081+003001071GA2999+999999101GA3999+999999101GE19MSL   +99999+99999GF108991081999003001999999KA1120N+01741MA1999999091661MD1999999+0001MW1031REMSYN004BUFR
0165833440999992017021012004-14863-040863FM-15+091499999V0200901N003610274319N009999199+02101+01801999999ADDGA1041+003961999GA2071+027431999GE19MSL   +99999+99999GF199999041999003961999999MA1101901999999REMMET058METAR SBQV 101200Z 09007KT 9999 SCT013 BKN090 21/18 Q1019=
0142833440999992017021013004-14863-040863FM-15+091499999V0201001N004610051819N009999199+02201+01801999999ADDGA1071+005181999GE19MSL   +99999+99999GF199999071999005181999999MA1101901999999REMMET051METAR SBQV 101300Z 10009KT 9999 BKN017 22/18 Q1019=
0142833440999992017021014004-14863-040863FM-15+091499999V0200601N004110051819N009999199+02201+01801999999ADDGA1071+005181999GE19MSL   +99999+99999GF199999071999005181999999MA1101901999999REMMET051METAR SBQV 101400Z 06008KT 9999 BKN017 22/18 Q1019=
0142833440999992017021016004-14863-040863FM-15+091499999V0201201N004110051819N009999199+02401+01801999999ADDGA1071+005181999GE19MSL   +99999+99999GF199999071999005181999999MA1101801999999REMMET051METAR SBQV 101600Z 12008KT 9999 BKN017 24/18 Q1018=
0142833440999992017021017004-14863-040863FM-15+091499999V0201501N005119999999N009999199+02201+01901999999ADDGA1041+003051999GE19MSL   +99999+99999GF199999041999003051999999MA1101801999999REMMET051METAR SBQV 101700Z 15010KT 9999 SCT010 22/19 Q1018=
0168833440999992017021018004-14886-040801FM-12+088099999V0200901N0015100300199020000199+02301+02031999999ADDAA101999999AZ101061AZ201061GA1081+003001071GA2999+999999101GA3999+999999101GE19MSL   +99999+99999GF108991081999003001999999MA1999999091591MD1999999-0221REMSYN004BUFR
0182833440999992017021018004-14863-040863FM-15+091499999V0200401N002110076219N009999199+01901+01801999999ADDGA1041+002441999GA2071+007621999GE19MSL   +99999+99999GF199999041999002441999999MA1101701999999MW1611REMMET069METAR SBQV 101800Z 04004KT 9999 2500NE -RA SCT008 BKN025 19/18 Q1017=
0142833440999992017021020004-14863-040863FM-15+091499999V0201301N003610121919N009999199+02201+01901999999ADDGA1071+012191999GE19MSL   +99999+99999GF199999071999012191999999MA1101701999999REMMET051METAR SBQV 102000Z 13007KT 9999 BKN040 22/19 Q1017=
0142833440999992017021021004-14863-040863FM-15+091499999V0201301N003610121919N009999199+02201+01801999999ADDGA1071+012191999GE19MSL   +99999+99999GF199999071999012191999999MA1101701999999REMMET051METAR SBQV 102100Z 13007KT 9999 BKN040 22/18 Q1017=
0072833440999992017021022004-14863-040863FM-15+091499999V0201401N003619999999Y999999999+02101+01801999999ADDMA1101701999999REMMET045METAR SBQV 102200Z 14007KT CAVOK 21/18 Q1017=
0072833440999992017021023004-14863-040863FM-15+091499999V0201301N003619999999Y999999999+02001+01701999999ADDMA1101801999999REMMET045METAR SBQV 102300Z 13007KT CAVOK 20/17 Q1018=
0072833440999992017021100004-14863-040863FM-15+091499999V0201201N003119999999Y999999999+02001+01801999999ADDMA1101801999999REMMET045METAR SBQV 110000Z 12006KT CAVOK 20/18 Q1018=
0142833440999992017021107004-14863-040863FM-15+091499999V0201201N003619999999N009999199+01801+01701999999ADDGA1021+001831999GE19MSL   +99999+99999GF199999021999001831999999MA1101701999999REMMET051METAR SBQV 110700Z 12007KT 9999 FEW006 18/17 Q1017=
0142833440999992017021108004-14863-040863FM-15+091499999V0201101N002119999999N009999199+01701+01701999999ADDGA1021+001831999GE19MSL   +99999+99999GF199999021999001831999999MA1101701999999REMMET051METAR SBQV 110800Z 11004KT 9999 FEW006 17/17 Q1017=
0142833440999992017021109004-14863-040863FM-15+091499999V0201201N004119999999N009999199+01801+01701999999ADDGA1041+002131999GE19MSL   +99999+99999GF199999041999002131999999MA1101701999999REMMET051METAR SBQV 110900Z 12008KT 9999 SCT007 18/17 Q1017=
0142833440999992017021110004-14863-040863FM-15+091499999V0201101N004119999999N009999199+01901+01701999999ADDGA1041+002131999GE19MSL   +99999+99999GF199999041999002131999999MA1101801999999REMMET051METAR SBQV 111000Z 11008KT 9999 SCT007 19/17 Q1018=
0142833440999992017021111004-14863-040863FM-15+091499999V0201101N004119999999N009999199+01901+01701999999ADDGA1041+002441999GE19MSL   +99999+99999GF199999041999002441999999MA1101801999999REMMET051METAR SBQV 111100Z 11008KT 9999 SCT008 19/17 Q1018=
0181833440999992017021112004-14886-040801FM-12+088099999V0201401N0031100300199020000199+02121+01761101341ADDAA101999999AZ101061AZ201061GA1081+003001071GA2999+999999101GA3999+999999101GE19MSL   +99999+99999GF108991081999003001999999KA1120N+01621MA1999999091721MD1999999+0061REMSYN004BUFR
0142833440999992017021112004-14863-040863FM-15+091499999V0201101N004619999999N009999199+02001+01701999999ADDGA1041+003961999GE19MSL   +99999+99999GF199999041999003961999999MA1101901999999REMMET051METAR SBQV 111200Z 11009KT 9999 SCT013 20/17 Q1019=
0142833440999992017021113004-14863-040863FM-15+091499999V0200901N004119999999N009999199+02201+01701999999ADDGA1041+005491999GE19MSL   +99999+99999GF199999041999005491999999MA1101901999999REMMET051METAR SBQV 111300Z 09008KT 9999 SCT018 22/17 Q1019=
0142833440999992017021114004-14863-040863FM-15+091499999V0201301N004619999999N009999199+02201+01801999999ADDGA1041+006101999GE19MSL   +99999+99999GF199999041999006101999999MA1101801999999REMMET051METAR SBQV 111400Z 13009KT 9999 SCT020 22/18 Q1018=
0142833440999992017021115004-14863-040863FM-15+091499999V0201601N004619999999N009999199+02401+01801999999ADDGA1041+006101999GE19MSL   +99999+99999GF199999041999006101999999MA1101801999999REMMET051METAR SBQV 111500Z 16009KT 9999 SCT020 24/18 Q1018=
0153833440999992017021116004-14863-040863FM-15+091499999V0201501N004119999999N008000199+02401+01801999999ADDGA1041+006101999GE19MSL   +99999+99999GF199999041999006101999999MA1101701999999MW1161REMMET056METAR SBQV 111600Z 15008KT 8000 VCSH SCT020 24/18 Q1017=
0153833440999992017021117004-14863-040863FM-15+091499999V0200501N002619999999N009999199+02401+01801999999ADDGA1041+006101999GE19MSL   +99999+99999GF199999041999006101999999MA1101701999999MW1161REMMET056METAR SBQV 111700Z 05005KT 9999 VCSH SCT020 24/18 Q1017=
0152833440999992017021118004-14886-040801FM-12+088099999V0200501N0031199999999020000199+02571+01731999999ADDAA101999999AZ101061AZ201061GA1041+003001071GA2999+999999031GE19MSL   +99999+99999GF106991041999003001999999MA1999999091461MD1999999-0131REMSYN004BUFR
0149833440999992017021212004-14886-040801FM-12+088099999V0200901N0031199999999020000199+02151+01681101571ADDAA101999999AZ101061AZ201061GA1041+003001061GE19MSL   +99999+99999GF104991041999003001999999KA1120N+01541MA1999999091701MD1999999-0021REMSYN004BUFR
0142833440999992017021212004-14863-040863FM-15+091499999V0201101N005719999999N009999199+02201+01701999999ADDGA1041+004571999GE19MSL   +99999+99999GF199999041999004571999999MA1101801999999REMMET051METAR SBQV 121200Z 11011KT 9999 SCT015 22/17 Q1018=
0161833440999992017021214004-14863-040863FM-15+091499999V0201101N005719999999N009999199+02301+99999999999ADDGA1041+005491999GE19MSL   +99999+99999GF199999041999005491999999MA1101801999999REMMET051METAR SBQV 121400Z 11011KT 9999 SCT018 23/47 Q1018=EQDQ0147    1ATOD  
0142833440999992017021215004-14863-040863FM-15+091499999V0201201N003619999999N009999199+02501+01601999999ADDGA1041+006101999GE19MSL   +99999+99999GF199999041999006101999999MA1101801999999REMMET051METAR SBQV 121500Z 12007KT 9999 SCT020 25/16 Q1018=
0142833440999992017021216004-14863-040863FM-15+091499999V0201301N006219999999N009999199+02601+01601999999ADDGA1041+006101999GE19MSL   +99999+99999GF199999041999006101999999MA1101701999999REMMET051METAR SBQV 121600Z 13012KT 9999 SCT020 26/16 Q1017=
0142833440999992017021217004-14863-040863FM-15+091499999V0201301N002619999999N009999199+02601+01601999999ADDGA1041+006101999GE19MSL   +99999+99999GF199999041999006101999999MA1101601999999REMMET051METAR SBQV 121700Z 13005KT 9999 SCT020 26/16 Q1016=
0152833440999992017021218004-14886-040801FM-12+088099999V0201401N0031199999999020000199+02751+01611999999ADDAA101999999AZ101061AZ201061GA1031+003001091GA2999+999999031GE19MSL   +99999+99999GF106991031999003001999999MA1999999091481MD1999999+0021REMSYN004BUFR
0142833440999992017021218004-14863-040863FM-15+091499999V0201101N004619999999N009999199+02801+01601999999ADDGA1041+007011999GE19MSL   +99999+99999GF199999041999007011999999MA1101501999999REMMET051METAR SBQV 121800Z 11009KT 9999 SCT023 28/16 Q1015=
0142833440999992017021219004-14863-040863FM-15+091499999V0201301N006719999999N009999199+02701+01701999999ADDGA1041+007011999GE19MSL   +99999+99999GF199999041999007011999999MA1101501999999REMMET051METAR SBQV 121900Z 13013KT 9999 SCT023 27/17 Q1015=
0142833440999992017021220004-14863-040863FM-15+091499999V0201201N006219999999N009999199+02501+01701999999ADDGA1041+007011999GE19MSL   +99999+99999GF199999041999007011999999MA1101501999999REMMET051METAR SBQV 122000Z 12012KT 9999 SCT023 25/17 Q1015=
0142833440999992017021221004-14863-040863FM-15+091499999V0201201N007219999999N009999199+02301+01701999999ADDGA1041+007011999GE19MSL   +99999+99999GF199999041999007011999999MA1101501999999REMMET051METAR SBQV 122100Z 12014KT 9999 SCT023 23/17 Q1015=
0142833440999992017021222004-14863-040863FM-15+091499999V0201001N005119999999N009999199+02101+01701999999ADDGA1021+007011999GE19MSL   +99999+99999GF199999021999007011999999MA1101601999999REMMET051METAR SBQV 122200Z 10010KT 9999 FEW023 21/17 Q1016=
0142833440999992017021223004-14863-040863FM-15+091499999V0200901N006219999999N009999199+02001+01801999999ADDGA1021+007011999GE19MSL   +99999+99999GF199999021999007011999999MA1101701999999REMMET051METAR SBQV 122300Z 09012KT 9999 FEW023 20/18 Q1017=
0142833440999992017021300004-14863-040863FM-15+091499999V0200901N007219999999N009999199+01801+01601999999ADDGA1021+007011999GE19MSL   +99999+99999GF199999021999007011999999MA1101701999999REMMET051METAR SBQV 130000Z 09014KT 9999 FEW023 18/16 Q1017=
0161833440999992017021307004-14863-040863FM-15+091499999V0200901N004110015219N004000199+01701+01601999999ADDGA1081+001521999GE19MSL   +99999+99999GF199999081999001521999999MA1101701999999MW1101MW2511REMMET058METAR SBQV 130700Z 09008KT 4000 -DZ BR OVC005 17/16 Q1017=
0152833440999992017021308004-14863-040863FM-15+091499999V0201001N002610018319N008000199+01701+01601999999ADDGA1071+001831999GE19MSL   +99999+99999GF199999071999001831999999MA1101701999999MW1511REMMET055METAR SBQV 130800Z 10005KT 8000 -DZ BKN006 17/16 Q1017=
0142833440999992017021309004-14863-040863FM-15+091499999V0201101N003610021319N009999199+01701+01701999999ADDGA1071+002131999GE19MSL   +99999+99999GF199999071999002131999999MA1101701999999REMMET051METAR SBQV 130900Z 11007KT 9999 BKN007 17/17 Q1017=
0142833440999992017021310004-14863-040863FM-15+091499999V0200901N004619999999N009999199+01801+01601999999ADDGA1041+002441999GE19MSL   +99999+99999GF199999041999002441999999MA1101801999999REMMET051METAR SBQV 131000Z 09009KT 9999 SCT008 18/16 Q1018=
0142833440999992017021311004-14863-040863FM-15+091499999V0201101N004619999999N009999199+02001+01601999999ADDGA1041+003051999GE19MSL   +99999+99999GF199999041999003051999999MA1101801999999REMMET051METAR SBQV 131100Z 11009KT 9999 SCT010 20/16 Q1018=
0187833440999992017021312004-14886-040801FM-12+088099999V0200901N0031100300199020000199+02051+01801101371ADDAA124002031AY151061AY221061GA1081+003001071GA2999+999999101GA3999+999999101GE19MSL   +99999+99999GF108991081999003001999999KA1120N+01661MA1999999091731MD1999999-0031MW1021REMSYN004BUFR
0153833440999992017021313004-14863-040863FM-15+091499999V0201101N006219999999N009999199+02301+01701999999ADDGA1041+003961999GE19MSL   +99999+99999GF199999041999003961999999MA1101901999999MW1161REMMET056METAR SBQV 131300Z 11012KT 9999 VCSH SCT013 23/17 Q1019=
0142833440999992017021314004-14863-040863FM-15+091499999V0201201N006219999999N009999199+02201+01601999999ADDGA1041+004571999GE19MSL   +99999+99999GF199999041999004571999999MA1101901999999REMMET051METAR SBQV 131400Z 12012KT 9999 SCT015 22/16 Q1019=
0142833440999992017021316004-14863-040863FM-15+091499999V0201101N007719999999N009999199+02501+01601999999ADDGA1041+007011999GE19MSL   +99999+99999GF199999041999007011999999MA1101801999999REMMET051METAR SBQV 131600Z 11015KT 9999 SCT023 25/16 Q1018=
0165833440999992017021317004-14863-040863FM-15+091499999V0201401N00571021341CN009999199+02201+01801999999ADDGA1041+006101999GA2041+021341999GE19MSL   +99999+99999GF199999041999006101999999MA1101801999999REMMET058METAR SBQV 131700Z 14011KT 9999 SCT020 SCT070 22/18 Q1018=
0152833440999992017021318004-14886-040801FM-12+088099999V0200901N0021100300199020000199+02471+01581999999ADDAA101999999AZ101061AZ201061GA1051+003001081GA2999+999999001GE19MSL   +99999+99999GF106991051999003001999999MA1999999091581MD1999999-0101REMSYN004BUFR
0165833440999992017021318004-14863-040863FM-15+091499999V0201401N00771021341CN009999199+02601+01501999999ADDGA1041+006101999GA2041+021341999GE19MSL   +99999+99999GF199999041999006101999999MA1101701999999REMMET058METAR SBQV 131800Z 14015KT 9999 SCT020 SCT070 26/15 Q1017=
0165833440999992017021319004-14863-040863FM-15+091499999V0201001N00571021341CN009999199+02601+01601999999ADDGA1041+007621999GA2041+021341999GE19MSL   +99999+99999GF199999041999007621999999MA1101601999999REMMET058METAR SBQV 131900Z 10011KT 9999 SCT025 SCT070 26/16 Q1016=
0142833440999992017021320004-14863-040863FM-15+091499999V0201201N007719999999N009999199+02601+01701999999ADDGA1041+009141999GE19MSL   +99999+99999GF199999041999009141999999MA1101601999999REMMET051METAR SBQV 132000Z 12015KT 9999 SCT030 26/17 Q1016=
0142833440999992017021321004-14863-040863FM-15+091499999V0201201N005719999999N009999199+02301+01401999999ADDGA1021+009141999GE19MSL   +99999+99999GF199999021999009141999999MA1101601999999REMMET051METAR SBQV 132100Z 12011KT 9999 FEW030 23/14 Q1016=
0072833440999992017021322004-14863-040863FM-15+091499999V0201301N004619999999Y999999999+02301+01501999999ADDMA1101701999999REMMET045METAR SBQV 132200Z 13009KT CAVOK 23/15 Q1017=
0072833440999992017021323004-14863-040863FM-15+091499999V0201201N005719999999Y999999999+02201+01401999999ADDMA1101801999999REMMET045METAR SBQV 132300Z 12011KT CAVOK 22/14 Q1018=
0072833440999992017021400004-14863-040863FM-15+091499999V0201301N004119999999Y999999999+02001+01501999999ADDMA1101901999999REMMET045METAR SBQV 140000Z 13008KT CAVOK 20/15 Q1019=
0142833440999992017021408004-14863-040863FM-15+091499999V0201101N003119999999N008000199+01701+01601999999ADDGA1041+002131999GE19MSL   +99999+99999GF199999041999002131999999MA1101901999999REMMET051METAR SBQV 140800Z 11006KT 8000 SCT007 17/16 Q1019=
0142833440999992017021409004-14863-040863FM-15+091499999V0200901N002110015219N006000199+01701+01601999999ADDGA1071+001521999GE19MSL   +99999+99999GF199999071999001521999999MA1102001999999REMMET051METAR SBQV 140900Z 09004KT 6000 BKN005 17/16 Q1020=
0142833440999992017021410004-14863-040863FM-15+091499999V0201001N003110021319N008000199+01801+01601999999ADDGA1071+002131999GE19MSL   +99999+99999GF199999071999002131999999MA1102101999999REMMET051METAR SBQV 141000Z 10006KT 8000 BKN007 18/16 Q1021=
0155833440999992017021412004-14886-040801FM-12+088099999V0200901N0031100300199020000199+02171+01721101671ADDAA124001031AY151061AY221061GA1071+003001071GE19MSL   +99999+99999GF107991071999003001999999KA1120N+01601MA1999999092051MD1999999-0321MW1031REMSYN004BUFR
0142833440999992017021412004-14863-040863FM-15+091499999V0201001N005110039619N009999199+02101+01601999999ADDGA1071+003961999GE19MSL   +99999+99999GF199999071999003961999999MA1102201999999REMMET051METAR SBQV 141200Z 10010KT 9999 BKN013 21/16 Q1022=
0142833440999992017021413004-14863-040863FM-15+091499999V0201201N006710054919N009999199+02201+01601999999ADDGA1071+005491999GE19MSL   +99999+99999GF199999071999005491999999MA1102201999999REMMET051METAR SBQV 141300Z 12013KT 9999 BKN018 22/16 Q1022=
0142833440999992017021414004-14863-040863FM-15+091499999V0201101N006210054919N009999199+02201+01401999999ADDGA1071+005491999GE19MSL   +99999+99999GF199999071999005491999999MA1102201999999REMMET051METAR SBQV 141400Z 11012KT 9999 BKN018 22/14 Q1022=
0142833440999992017021415004-14863-040863FM-15+091499999V0201101N004119999999N009999199+02201+01601999999ADDGA1041+005491999GE19MSL   +99999+99999GF199999041999005491999999MA1102101999999REMMET051METAR SBQV 141500Z 11008KT 9999 SCT018 22/16 Q1021=
0142833440999992017021416004-14863-040863FM-15+091499999V0201001N005719999999N009999199+02201+01401999999ADDGA1041+005491999GE19MSL   +99999+99999GF199999041999005491999999MA1102101999999REMMET051METAR SBQV 141600Z 10011KT 9999 SCT018 22/14 Q1021=
0142833440999992017021417004-14863-040863FM-15+091499999V0201501N003610076219N009999199+02301+01701999999ADDGA1071+007621999GE19MSL   +99999+99999GF199999071999007621999999MA1102101999999REMMET051METAR SBQV 141700Z 15007KT 9999 BKN025 23/17 Q1021=
0174833440999992017021418004-14886-040801FM-12+088099999V0201401N0015100200199010000199+01971+01901999999ADDAA106001031AY151061AY221061GA1081+002001071GA2999+999999101GA3999+999999101GE19MSL   +99999+99999GF108991081999002001999999MA1999999091931MD1999999+0351MW1021REMSYN004BUFR
0152833440999992017021418004-14863-040863FM-15+091499999V0201201N005110061019N009999199+01901+01701999999ADDGA1071+006101999GE19MSL   +99999+99999GF199999071999006101999999MA1102101999999MW1611REMMET055METAR SBQV 141800Z 12010KT 9999 -RA BKN020 19/17 Q1021=
0165833440999992017021419004-14863-040863FM-15+091499999V0201101N004110213419N009999199+02201+01601999999ADDGA1021+007621999GA2071+021341999GE19MSL   +99999+99999GF199999021999007621999999MA1102001999999REMMET058METAR SBQV 141900Z 11008KT 9999 FEW025 BKN070 22/16 Q1020=
0165833440999992017021420004-14863-040863FM-15+091499999V0201401N004110213419N009999199+02101+01701999999ADDGA1021+007621999GA2071+021341999GE19MSL   +99999+99999GF199999021999007621999999MA1102001999999REMMET058METAR SBQV 142000Z 14008KT 9999 FEW025 BKN070 21/17 Q1020=
0072833440999992017021421004-14863-040863FM-15+091499999V0201101N004619999999Y999999999+02201+01701999999ADDMA1102101999999REMMET045METAR SBQV 142100Z 11009KT CAVOK 22/17 Q1021=
0072833440999992017021422004-14863-040863FM-15+091499999V0201001N003119999999Y999999999+02101+01601999999ADDMA1102101999999REMMET045METAR SBQV 142200Z 10006KT CAVOK 21/16 Q1021=
0072833440999992017021423004-14863-040863FM-15+091499999V0201101N005119999999Y999999999+02001+01701999999ADDMA1102101999999REMMET045METAR SBQV 142300Z 11010KT CAVOK 20/17 Q1021=
0072833440999992017021500004-14863-040863FM-15+091499999V0201301N006219999999Y999999999+02001+01701999999ADDMA1102201999999REMMET045METAR SBQV 150000Z 13012KT CAVOK 20/17 Q1022=
0142833440999992017021507004-14863-040863FM-15+091499999V0201001N002119999999N009999199+01701+01701999999ADDGA1021+002131999GE19MSL   +99999+99999GF199999021999002131999999MA1102201999999REMMET051METAR SBQV 150700Z 10004KT 9999 FEW007 17/17 Q1022=
0142833440999992017021508004-14863-040863FM-15+091499999V0201201N003110015219N009999199+01801+01701999999ADDGA1071+001521999GE19MSL   +99999+99999GF199999071999001521999999MA1102201999999REMMET051METAR SBQV 150800Z 12006KT 9999 BKN005 18/17 Q1022=
0150833440999992017021510004-14863-040863FM-15+091499999V0201501N00411000301WN000100199+01901+01801999999ADDGA1091+000301999GE19MSL   +99999+99999GF109991091999000301999999MA1102301999999MW1441REMMET053METAR SBQV 151000Z 15008KT 0100 FG VV001 19/18 Q1023=
0161833440999992017021511004-14863-040863FM-15+091499999V0201301N005110015219N003000199+01801+01701999999ADDGA1081+001521999GE19MSL   +99999+99999GF199999081999001521999999MA1102301999999MW1101MW2511REMMET058METAR SBQV 151100Z 13010KT 3000 -DZ BR OVC005 18/17 Q1023=
0187833440999992017021512004-14886-040801FM-12+088099999V0200901N0015100300199010000199+01951+01861101901ADDAA124002031AY151061AY221061GA1081+003001071GA2999+999999101GA3999+999999101GE19MSL   +99999+99999GF108991081999003001999999KA1120N+01661MA1999999092211MD1999999+0161MW1521REMSYN004BUFR
0152833440999992017021512004-14863-040863FM-15+091499999V0201201N004110015219N003000199+01901+01801999999ADDGA1081+001521999GE19MSL   +99999+99999GF199999081999001521999999MA1102301999999MW1511REMMET055METAR SBQV 151200Z 12008KT 3000 -DZ OVC005 19/18 Q1023=
0160833440999992017021513004-14863-040863FM-15+091499999V0201301N005110015219N001000199+01901+01801999999ADDGA1081+001521999GE19MSL   +99999+99999GF199999081999001521999999MA1102301999999MW1101MW2531REMMET057METAR SBQV 151300Z 13010KT 1000 DZ BR OVC005 19/18 Q1023=
0142833440999992017021514004-14863-040863FM-15+091499999V0201101N004110045719N009999199+02201+01901999999ADDGA1081+004571999GE19MSL   +99999+99999GF199999081999004571999999MA1102301999999REMMET051METAR SBQV 151400Z 11008KT 9999 OVC015 22/19 Q1023=
0160833440999992017021515004-14863-040863FM-15+091499999V0201401N004610021319N001000199+02101+02001999999ADDGA1081+002131999GE19MSL   +99999+99999GF199999081999002131999999MA1102301999999MW1101MW2531REMMET057METAR SBQV 151500Z 14009KT 1000 DZ BR OVC007 21/20 Q1023=
0142833440999992017021517004-14863-040863FM-15+091499999V0201701N005110061019N009999199+02201+01801999999ADDGA1071+006101999GE19MSL   +99999+99999GF199999071999006101999999MA1102101999999REMMET051METAR SBQV 151700Z 17010KT 9999 BKN020 22/18 Q1021=
0174833440999992017021518004-14886-040801FM-12+088099999V0200901N0015100300199010000199+02071+02001999999ADDAA106002031AY161061AY221061GA1081+003001071GA2999+999999101GA3999+999999101GE19MSL   +99999+99999GF108991081999003001999999MA1999999091991MD1999999+0061MW1021REMSYN004BUFR
0142833440999992017021518004-14863-040863FM-15+091499999V0201501N003610061019N009999199+02101+02001999999ADDGA1071+006101999GE19MSL   +99999+99999GF199999071999006101999999MA1102101999999REMMET051METAR SBQV 151800Z 15007KT 9999 BKN020 21/20 Q1021=
0142833440999992017021519004-14863-040863FM-15+091499999V0201501N007710045719N009999199+02101+01901999999ADDGA1071+004571999GE19MSL   +99999+99999GF199999071999004571999999MA1102101999999REMMET051METAR SBQV 151900Z 15015KT 9999 BKN015 21/19 Q1021=
0152833440999992017021520004-14863-040863FM-15+091499999V0201601N005710024419N003000199+02101+02001999999ADDGA1071+002441999GE19MSL   +99999+99999GF199999071999002441999999MA1102101999999MW1611REMMET055METAR SBQV 152000Z 16011KT 3000 -RA BKN008 21/20 Q1021=
0072833440999992017021523004-14863-040863FM-15+091499999V0201301N004619999999Y999999999+02001+01801999999ADDMA1102201999999REMMET045METAR SBQV 152300Z 13009KT CAVOK 20/18 Q1022=
0142833440999992017021600004-14863-040863FM-15+091499999V0201401N004119999999N009999199+02001+01801999999ADDGA1021+002131999GE19MSL   +99999+99999GF199999021999002131999999MA1102201999999REMMET051METAR SBQV 160000Z 14008KT 9999 FEW007 20/18 Q1022=
0165833440999992017021607004-14863-040863FM-15+091499999V0201201N00211021341CN009999199+01801+01701999999ADDGA1041+002131999GA2041+021341999GE19MSL   +99999+99999GF199999041999002131999999MA1102001999999REMMET058METAR SBQV 160700Z 12004KT 9999 SCT007 SCT070 18/17 Q1020=
0142833440999992017021608004-14863-040863FM-15+091499999V0201301N002110015219N009999199+01801+01701999999ADDGA1081+001521999GE19MSL   +99999+99999GF199999081999001521999999MA1102001999999REMMET051METAR SBQV 160800Z 13004KT 9999 OVC005 18/17 Q1020=
0151833440999992017021609004-14863-040863FM-15+091499999V0201401N003610009119N002000199+01701+01701999999ADDGA1081+000911999GE19MSL   +99999+99999GF199999081999000911999999MA1102101999999MW1101REMMET054METAR SBQV 160900Z 14007KT 2000 BR OVC003 17/17 Q1021=
0161833440999992017021610004-14863-040863FM-15+091499999V0201401N004110012219N001000199+01801+01801999999ADDGA1081+001221999GE19MSL   +99999+99999GF199999081999001221999999MA1102101999999MW1101MW2511REMMET058METAR SBQV 161000Z 14008KT 1000 -DZ BR OVC004 18/18 Q1021=
0187833440999992017021612004-14886-040801FM-12+088099999V0200901N0015100300199020000199+01951+01611101731ADDAA124003031AY151061AY221061GA1081+003001071GA2999+999999101GA3999+999999101GE19MSL   +99999+99999GF108991081999003001999999KA1120N+01661MA1999999092061MD1999999+0151MW1021REMSYN004BUFR
0142833440999992017021612004-14863-040863FM-15+091499999V0201501N005710030519N008000199+02001+01901999999ADDGA1081+003051999GE19MSL   +99999+99999GF199999081999003051999999MA1102201999999REMMET051METAR SBQV 161200Z 15011KT 8000 OVC010 20/19 Q1022=
0161833440999992017021613004-14863-040863FM-15+091499999V0201401N006210030519N005000199+02101+01901999999ADDGA1081+003051999GE19MSL   +99999+99999GF199999081999003051999999MA1102201999999MW1101MW2511REMMET058METAR SBQV 161300Z 14012KT 5000 -DZ BR OVC010 21/19 Q1022=
0142833440999992017021614004-14863-040863FM-15+091499999V0201501N005110039619N009999199+02301+01901999999ADDGA1071+003961999GE19MSL   +99999+99999GF199999071999003961999999MA1102201999999REMMET051METAR SBQV 161400Z 15010KT 9999 BKN013 23/19 Q1022=
0142833440999992017021615004-14863-040863FM-15+091499999V0201601N003610045719N009999199+02201+01901999999ADDGA1071+004571999GE19MSL   +99999+99999GF199999071999004571999999MA1102101999999REMMET051METAR SBQV 161500Z 16007KT 9999 BKN015 22/19 Q1021=
0142833440999992017021616004-14863-040863FM-15+091499999V0201501N004610045719N009999199+02401+01801999999ADDGA1071+004571999GE19MSL   +99999+99999GF199999071999004571999999MA1102101999999REMMET051METAR SBQV 161600Z 15009KT 9999 BKN015 24/18 Q1021=
0168833440999992017021618004-14886-040801FM-12+088099999V0201401N0021100300199020000199+02411+02031999999ADDAA101999999AZ101061AZ201061GA1081+003001071GA2999+999999101GA3999+999999101GE19MSL   +99999+99999GF108991081999003001999999MA1999999091811MD1999999-0181REMSYN004BUFR
0165833440999992017021618004-14863-040863FM-15+091499999V0201701N005710213419N009999199+02301+01901999999ADDGA1041+006101999GA2071+021341999GE19MSL   +99999+99999GF199999041999006101999999MA1101901999999REMMET058METAR SBQV 161800Z 17011KT 9999 SCT020 BKN070 23/19 Q1019=
0207833440999992017021620004-14863-040863FM-15+091499999V0201401N005110021319N002000199+02101+02001999999ADDGA1071+002131999GA2071+006101999GA3081+021341999GE19MSL   +99999+99999GF199999071999002131999999MA1101901999999MW1101MW2611REMMET072METAR SBQV 162000Z 14010KT 2000 -RA BR BKN007 BKN020 OVC070 21/20 Q1019=
0207833440999992017021621004-14863-040863FM-15+091499999V0201501N003610021319N004000199+02001+01901999999ADDGA1071+002131999GA2071+006101999GA3081+021341999GE19MSL   +99999+99999GF199999071999002131999999MA1101901999999MW1101MW2611REMMET072METAR SBQV 162100Z 15007KT 4000 -RA BR BKN007 BKN020 OVC070 20/19 Q1019=
0142833440999992017021622004-14863-040863FM-15+091499999V0201201N002110045719N009999199+01901+01901999999ADDGA1071+004571999GE19MSL   +99999+99999GF199999071999004571999999MA1102001999999REMMET051METAR SBQV 162200Z 12004KT 9999 BKN015 19/19 Q1020=
0161833440999992017021623004-14863-040863FM-15+091499999V0201201N002610015219N002500199+01901+01801999999ADDGA1071+001521999GE19MSL   +99999+99999GF199999071999001521999999MA1102001999999MW1101MW2551REMMET058METAR SBQV 162300Z 12005KT 2500 +DZ BR BKN005 19/18 Q1020=
0161833440999992017021700004-14863-040863FM-15+091499999V0201401N004110018319N003100199+01801+01801999999ADDGA1071+001831999GE19MSL   +99999+99999GF199999071999001831999999MA1102101999999MW1101MW2511REMMET058METAR SBQV 170000Z 14008KT 3100 -DZ BR BKN006 18/18 Q1021=
0161833440999992017021701004-14863-040863FM-15+091499999V0201501N003610012219N002000199+01901+01801999999ADDGA1071+001221999GE19MSL   +99999+99999GF199999071999001221999999MA1102101999999MW1101MW2511REMMET058METAR SBQV 170100Z 15007KT 2000 -DZ BR BKN004 19/18 Q1021=
0161833440999992017021707004-14863-040863FM-15+091499999V0201201N002110015219N005000199+01701+01701999999ADDGA1081+001521999GE19MSL   +99999+99999GF199999081999001521999999MA1101901999999MW1101MW2511REMMET058METAR SBQV 170700Z 12004KT 5000 -DZ BR OVC005 17/17 Q1019=
0161833440999992017021708004-14863-040863FM-15+091499999V0201201N001510015219N005000199+01701+01701999999ADDGA1081+001521999GE19MSL   +99999+99999GF199999081999001521999999MA1101901999999MW1101MW2511REMMET058METAR SBQV 170800Z 12003KT 5000 -DZ BR OVC005 17/17 Q1019=
0142833440999992017021710004-14863-040863FM-15+091499999V0201101N002610015219N009999199+01801+01801999999ADDGA1081+001521999GE19MSL   +99999+99999GF199999081999001521999999MA1102001999999REMMET051METAR SBQV 171000Z 11005KT 9999 OVC005 18/18 Q1020=
0142833440999992017021711004-14863-040863FM-15+091499999V0201201N004610045719N009999199+02001+01801999999ADDGA1081+004571999GE19MSL   +99999+99999GF199999081999004571999999MA1102101999999REMMET051METAR SBQV 171100Z 12009KT 9999 OVC015 20/18 Q1021=
0171833440999992017021712004-14886-040801FM-12+088099999V0201401N0015100300199020000199+02001+01911101601ADDAA124014031AY161061AY251061GA1051+003001071GA2999+999999001GE19MSL   +99999+99999GF107991051999003001999999KA1120N+01721MA1999999091941MD1999999-0121MW1031REMSYN004BUFR
0142833440999992017021712004-14863-040863FM-15+091499999V0201301N004610054919N009999199+02201+01901999999ADDGA1071+005491999GE19MSL   +99999+99999GF199999071999005491999999MA1102101999999REMMET051METAR SBQV 171200Z 13009KT 9999 BKN018 22/19 Q1021=
0142833440999992017021714004-14863-040863FM-15+091499999V0201501N008810061019N009999199+02401+01801999999ADDGA1071+006101999GE19MSL   +99999+99999GF199999071999006101999999MA1102001999999REMMET051METAR SBQV 171400Z 15017KT 9999 BKN020 24/18 Q1020=
0142833440999992017021715004-14863-040863FM-15+091499999V0201301N002610061019N009999199+02401+01701999999ADDGA1071+006101999GE19MSL   +99999+99999GF199999071999006101999999MA1102001999999REMMET051METAR SBQV 171500Z 13005KT 9999 BKN020 24/17 Q1020=
0142833440999992017021716004-14863-040863FM-15+091499999V0201401N003619999999N009999199+02501+01701999999ADDGA1041+007621999GE19MSL   +99999+99999GF199999041999007621999999MA1101901999999REMMET051METAR SBQV 171600Z 14007KT 9999 SCT025 25/17 Q1019=
0152833440999992017021718004-14886-040801FM-12+088099999V0201401N0031199999999020000199+02661+01871999999ADDAA101999999AZ101061AZ201061GA1041+006001081GA2999+999999001GE19MSL   +99999+99999GF106991041999006001999999MA1999999091661MD1999999-0151REMSYN004BUFR
0142833440999992017021719004-14863-040863FM-15+091499999V0201801N004119999999N009999199+02701+01601999999ADDGA1021+012191999GE19MSL   +99999+99999GF199999021999012191999999MA1101801999999REMMET051METAR SBQV 171900Z 18008KT 9999 FEW040 27/16 Q1018=
0142833440999992017021720004-14863-040863FM-15+091499999V0201501N004619999999N009999199+02601+01501999999ADDGA1021+012191999GE19MSL   +99999+99999GF199999021999012191999999MA1101801999999REMMET051METAR SBQV 172000Z 15009KT 9999 FEW040 26/15 Q1018=
0142833440999992017021722004-14863-040863FM-15+091499999V0201401N003119999999N009999199+02301+01601999999ADDGA1021+012191999GE19MSL   +99999+99999GF199999021999012191999999MA1101801999999REMMET051METAR SBQV 172200Z 14006KT 9999 FEW040 23/16 Q1018=
0142833440999992017021723004-14863-040863FM-15+091499999V0201401N004119999999N009999199+02201+01701999999ADDGA1021+012191999GE19MSL   +99999+99999GF199999021999012191999999MA1101901999999REMMET051METAR SBQV 172300Z 14008KT 9999 FEW040 22/17 Q1019=
0142833440999992017021800004-14863-040863FM-15+091499999V0201501N007219999999N009999199+02101+01901999999ADDGA1021+006101999GE19MSL   +99999+99999GF199999021999006101999999MA1101901999999REMMET051METAR SBQV 180000Z 15014KT 9999 FEW020 21/19 Q1019=
0072833440999992017021807004-14863-040863FM-15+091499999V0201401N004119999999Y999999999+01801+01701999999ADDMA1101901999999REMMET045METAR SBQV 180700Z 14008KT CAVOK 18/17 Q1019=
0142833440999992017021809004-14863-040863FM-15+091499999V0201301N002619999999N009999199+01801+01701999999ADDGA1021+004571999GE19MSL   +99999+99999GF199999021999004571999999MA1101901999999REMMET051METAR SBQV 180900Z 13005KT 9999 FEW015 18/17 Q1019=
0142833440999992017021810004-14863-040863FM-15+091499999V0201001N003610027419N009999199+01801+01701999999ADDGA1071+002741999GE19MSL   +99999+99999GF199999071999002741999999MA1102001999999REMMET051METAR SBQV 181000Z 10007KT 9999 BKN009 18/17 Q1020=
0187833440999992017021812004-14886-040801FM-12+088099999V0200901N0026100300199020000199+02211+01821101541ADDAA124000331AY151061AY221061GA1081+003001071GA2999+999999101GA3999+999999101GE19MSL   +99999+99999GF108991081999003001999999KA1120N+01661MA1999999091951MD1999999+0011MW1021REMSYN004BUFR
0165833440999992017021812004-14863-040863FM-15+091499999V0201001N003110304819N009999199+02101+01601999999ADDGA1041+006101999GA2071+030481999GE19MSL   +99999+99999GF199999041999006101999999MA1102101999999REMMET058METAR SBQV 181200Z 10006KT 9999 SCT020 BKN100 21/16 Q1021=
0165833440999992017021814004-14863-040863FM-15+091499999V0201101N003610304819N009999199+02401+01601999999ADDGA1041+009141999GA2071+030481999GE19MSL   +99999+99999GF199999041999009141999999MA1102101999999REMMET058METAR SBQV 181400Z 11007KT 9999 SCT030 BKN100 24/16 Q1021=
0165833440999992017021815004-14863-040863FM-15+091499999V0201401N003610304819N009999199+02501+01701999999ADDGA1041+009141999GA2071+030481999GE19MSL   +99999+99999GF199999041999009141999999MA1102001999999REMMET058METAR SBQV 181500Z 14007KT 9999 SCT030 BKN100 25/17 Q1020=
0165833440999992017021816004-14863-040863FM-15+091499999V0201701N004110304819N009999199+02601+01601999999ADDGA1041+010671999GA2071+030481999GE19MSL   +99999+99999GF199999041999010671999999MA1102001999999REMMET058METAR SBQV 181600Z 17008KT 9999 SCT035 BKN100 26/16 Q1020=
0165833440999992017021817004-14863-040863FM-15+091499999V0201601N004610304819N009999199+02701+01701999999ADDGA1041+010671999GA2071+030481999GE19MSL   +99999+99999GF199999041999010671999999MA1101901999999REMMET058METAR SBQV 181700Z 16009KT 9999 SCT035 BKN100 27/17 Q1019=
0168833440999992017021818004-14886-040801FM-12+088099999V0201401N0031199999999020000199+02651+01881999999ADDAA101999999AZ101061AZ201061GA1021+006001061GA2999+999999051GA3999+999999021GE19MSL   +99999+99999GF107991021999006001999999MA1999999091721MD1999999+0061REMSYN004BUFR
0149833440999992017021912004-14886-040801FM-12+088099999V0200901N0015199999999020000199+02251+01691101621ADDAA101999999AZ101061AZ201061GA1031+003001081GE19MSL   +99999+99999GF103991031999003001999999KA1120N+01701MA1999999092011MD1999999+0061REMSYN004BUFR
0142833440999992017021913004-14863-040863FM-15+091499999V0201201N005119999999N009999199+02401+01501999999ADDGA1041+009141999GE19MSL   +99999+99999GF199999041999009141999999MA1102201999999REMMET051METAR SBQV 191300Z 12010KT 9999 SCT030 24/15 Q1022=
0142833440999992017021914004-14863-040863FM-15+091499999V0201301N005119999999N009999199+02501+01601999999ADDGA1041+010671999GE19MSL   +99999+99999GF199999041999010671999999MA1102101999999REMMET051METAR SBQV 191400Z 13010KT 9999 SCT035 25/16 Q1021=
0142833440999992017021915004-14863-040863FM-15+091499999V0201201N003619999999N009999199+02701+01701999999ADDGA1041+012191999GE19MSL   +99999+99999GF199999041999012191999999MA1102101999999REMMET051METAR SBQV 191500Z 12007KT 9999 SCT040 27/17 Q1021=
0142833440999992017021916004-14863-040863FM-15+091499999V0201201N004619999999N009999199+02701+01601999999ADDGA1041+012191999GE19MSL   +99999+99999GF199999041999012191999999MA1102001999999REMMET051METAR SBQV 191600Z 12009KT 9999 SCT040 27/16 Q1020=
0142833440999992017021917004-14863-040863FM-15+091499999V0201601N007219999999N009999199+02701+01601999999ADDGA1041+012191999GE19MSL   +99999+99999GF199999041999012191999999MA1101901999999REMMET051METAR SBQV 191700Z 16014KT 9999 SCT040 27/16 Q1019=
0152833440999992017021918004-14886-040801FM-12+088099999V0201401N0031199999999020000199+02701+01781999999ADDAA101999999AZ101061AZ201061GA1021+003001081GA2999+999999031GE19MSL   +99999+99999GF105991021999003001999999MA1999999091711MD1999999-0011REMSYN004BUFR
0165833440999992017021918004-14863-040863FM-15+091499999V0201501N00511021341CN009999199+02801+01701999999ADDGA1041+012191999GA2041+021341999GE19MSL   +99999+99999GF199999041999012191999999MA1101901999999REMMET058METAR SBQV 191800Z 15010KT 9999 SCT040 SCT070 28/17 Q1019=
0225833440999992017021920004-14863-040863FM-15+091499999V0201601N00571012191CN009999199+02001+01901999999ADDGA1021+009141999GA2021+010671081GA3041+012191999GA4071+030481999GE19MSL   +99999+99999GF199999021999009141999999MA1101901999999MW1161REMMET080METAR SBQV 192000Z 16011KT 9999 VCSH FEW030 FEW035TCU SCT040 BKN100 20/19 Q1019=
0165833440999992017021921004-14863-040863FM-15+091499999V0201401N00411012191CN009999199+02001+01901999999ADDGA1041+009141999GA2041+012191999GE19MSL   +99999+99999GF199999041999009141999999MA1101901999999REMMET058METAR SBQV 192100Z 14008KT 9999 SCT030 SCT040 20/19 Q1019=
0142833440999992017021922004-14863-040863FM-15+091499999V0201501N004619999999N009999199+02101+01901999999ADDGA1041+009141999GE19MSL   +99999+99999GF199999041999009141999999MA1101901999999REMMET051METAR SBQV 192200Z 15009KT 9999 SCT030 21/19 Q1019=
0142833440999992017021923004-14863-040863FM-15+091499999V0201401N006219999999N009999199+02001+01901999999ADDGA1041+009141999GE19MSL   +99999+99999GF199999041999009141999999MA1101901999999REMMET051METAR SBQV 192300Z 14012KT 9999 SCT030 20/19 Q1019=
0153833440999992017022000004-14863-040863FM-15+091499999V0201401N004610030519N006000199+01901+01901999999ADDGA1071+003051999GE19MSL   +99999+99999GF199999071999003051999999MA1102001999999MW1161REMMET056METAR SBQV 200000Z 14009KT 6000 VCSH BKN010 19/19 Q1020=
0142833440999992017022001004-14863-040863FM-15+091499999V0201601N004619999999N008000199+01901+01801999999ADDGA1041+001521999GE19MSL   +99999+99999GF199999041999001521999999MA1102101999999REMMET051METAR SBQV 200100Z 16009KT 8000 SCT005 19/18 Q1021=
0165833440999992017022009004-14863-040863FM-15+091499999V0201401N00311021341CN009999199+01801+01701999999ADDGA1021+006101999GA2041+021341999GE19MSL   +99999+99999GF199999021999006101999999MA1102001999999REMMET058METAR SBQV 200900Z 14006KT 9999 FEW020 SCT070 18/17 Q1020=
0165833440999992017022010004-14863-040863FM-15+091499999V0201501N00461021341CN009999199+01801+01701999999ADDGA1041+006101999GA2041+021341999GE19MSL   +99999+99999GF199999041999006101999999MA1102101999999REMMET058METAR SBQV 201000Z 15009KT 9999 SCT020 SCT070 18/17 Q1021=
0171833440999992017022012004-14886-040801FM-12+088099999V0200901N0021199999999020000199+02151+01821101681ADDAA124006031AY161061AY221061GA1041+003001061GA2999+999999031GE19MSL   +99999+99999GF106991041999003001999999KA1120N+01661MA1999999092031MD1999999+0021MW1021REMSYN004BUFR
0142833440999992017022012004-14863-040863FM-15+091499999V0201301N004619999999N009999199+02101+01701999999ADDGA1041+004571999GE19MSL   +99999+99999GF199999041999004571999999MA1102201999999REMMET051METAR SBQV 201200Z 13009KT 9999 SCT015 21/17 Q1022=
0142833440999992017022013004-14863-040863FM-15+091499999V0201301N005719999999N009999199+02301+01701999999ADDGA1041+007621999GE19MSL   +99999+99999GF199999041999007621999999MA1102101999999REMMET051METAR SBQV 201300Z 13011KT 9999 SCT025 23/17 Q1021=
0142833440999992017022014004-14863-040863FM-15+091499999V0201201N003619999999N009999199+02301+01701999999ADDGA1041+007621999GE19MSL   +99999+99999GF199999041999007621999999MA1102101999999REMMET051METAR SBQV 201400Z 12007KT 9999 SCT025 23/17 Q1021=
0165833440999992017022015004-14863-040863FM-15+091499999V0201001N00361030481CN009999199+02601+01801999999ADDGA1041+009141999GA2041+030481999GE19MSL   +99999+99999GF199999041999009141999999MA1102001999999REMMET058METAR SBQV 201500Z 10007KT 9999 SCT030 SCT100 26/18 Q1020=
0191833440999992017022016004-14863-040863FM-15+091499999V0201601N005710106719N009999199+02601+01801999999ADDGA1021+007621999GA2021+009141081GA3071+010671999GE19MSL   +99999+99999GF199999021999007621999999MA1102001999999REMMET068METAR SBQV 201600Z 16011KT 9999 FEW025 FEW030TCU BKN035 26/18 Q1020=
0142833440999992017022017004-14863-040863FM-15+091499999V0201601N004619999999N009999199+02601+01901999999ADDGA1041+009141999GE19MSL   +99999+99999GF199999041999009141999999MA1101901999999REMMET051METAR SBQV 201700Z 16009KT 9999 SCT030 26/19 Q1019=
0152833440999992017022018004-14886-040801FM-12+088099999V0201401N0031199999999020000199+02521+01841999999ADDAA101999999AZ101061AZ201061GA1041+003001061GA2999+999999031GE19MSL   +99999+99999GF107991041999003001999999MA1999999091731MD1999999+0021REMSYN004BUFR
0168833440999992017022019004-14863-040863FM-15+091499999V0201501N008819999999N009999199+02201+01901999999ADDGA1041+009141999GA2021+010671081GE19MSL   +99999+99999GF199999041999009141999999MA1101801999999REMMET061METAR SBQV 201900Z 15017KT 9999 SCT030 FEW035TCU 22/19 Q1018=
0168833440999992017022020004-14863-040863FM-15+091499999V0201301N007210030519N003000199+02301+01901999999ADDGA1071+003051999GE19MSL   +99999+99999GF199999071999003051999999MA1101901999999MW1101MW2511REMMET065METAR SBQV 202000Z 13014KT 3000 1000SE -DZ BR BKN010 23/19 Q1019=
0142833440999992017022023004-14863-040863FM-15+091499999V0201101N006210021319N009999199+01901+01801999999ADDGA1071+002131999GE19MSL   +99999+99999GF199999071999002131999999MA1102001999999REMMET051METAR SBQV 202300Z 11012KT 9999 BKN007 19/18 Q1020=
0142833440999992017022100004-14863-040863FM-15+091499999V0201101N006210021319N009999199+01801+01701999999ADDGA1071+002131999GE19MSL   +99999+99999GF199999071999002131999999MA1102001999999REMMET051METAR SBQV 210000Z 11012KT 9999 BKN007 18/17 Q1020=
0142833440999992017022101004-14863-040863FM-15+091499999V0201101N006210021319N009999199+01901+01701999999ADDGA1071+002131999GE19MSL   +99999+99999GF199999071999002131999999MA1102101999999REMMET051METAR SBQV 210100Z 11012KT 9999 BKN007 19/17 Q1021=
0142833440999992017022102004-14863-040863FM-15+091499999V0201201N004610021319N009999199+01801+01701999999ADDGA1071+002131999GE19MSL   +99999+99999GF199999071999002131999999MA1102101999999REMMET051METAR SBQV 210200Z 12009KT 9999 BKN007 18/17 Q1021=
0142833440999992017022108004-14863-040863FM-15+091499999V0201301N004619999999N009999199+01801+01701999999ADDGA1041+003051999GE19MSL   +99999+99999GF199999041999003051999999MA1101901999999REMMET051METAR SBQV 210800Z 13009KT 9999 SCT010 18/17 Q1019=
0152833440999992017022109004-14863-040863FM-15+091499999V0201301N003610030519N009999199+01901+01701999999ADDGA1081+003051999GE19MSL   +99999+99999GF199999081999003051999999MA1101901999999MW1511REMMET055METAR SBQV 210900Z 13007KT 9999 -DZ OVC010 19/17 Q1019=
0165833440999992017022110004-14863-040863FM-15+091499999V0201301N00461021341CN009999199+01901+01701999999ADDGA1041+003051999GA2041+021341999GE19MSL   +99999+99999GF199999041999003051999999MA1102001999999REMMET058METAR SBQV 211000Z 13009KT 9999 SCT010 SCT070 19/17 Q1020=
0187833440999992017022112004-14886-040801FM-12+088099999V0200901N0031100300199020000199+02101+01761101671ADDAA124003031AY151061AY221061GA1081+003001071GA2999+999999101GA3999+999999101GE19MSL   +99999+99999GF108991081999003001999999KA1120N+01721MA1999999092021MD1999999-0011MW1021REMSYN004BUFR
0142833440999992017022112004-14863-040863FM-15+091499999V0200901N004610045719N009999199+02101+01701999999ADDGA1071+004571999GE19MSL   +99999+99999GF199999071999004571999999MA1102101999999REMMET051METAR SBQV 211200Z 09009KT 9999 BKN015 21/17 Q1021=
0142833440999992017022113004-14863-040863FM-15+091499999V0201201N004110061019N009999199+02101+01701999999ADDGA1081+006101999GE19MSL   +99999+99999GF199999081999006101999999MA1102201999999REMMET051METAR SBQV 211300Z 12008KT 9999 OVC020 21/17 Q1022=
0142833440999992017022114004-14863-040863FM-15+091499999V0201501N004610061019N009999199+02301+01801999999ADDGA1071+006101999GE19MSL   +99999+99999GF199999071999006101999999MA1102101999999REMMET051METAR SBQV 211400Z 15009KT 9999 BKN020 23/18 Q1021=
0165833440999992017022116004-14863-040863FM-15+091499999V0201401N00411021341CN009999199+02101+01901999999ADDGA1021+006101999GA2041+021341999GE19MSL   +99999+99999GF199999021999006101999999MA1102101999999REMMET058METAR SBQV 211600Z 14008KT 9999 FEW020 SCT070 21/19 Q1021=
0165833440999992017022117004-14863-040863FM-15+091499999V0201401N00571021341CN009999199+02301+01801999999ADDGA1041+006101999GA2041+021341999GE19MSL   +99999+99999GF199999041999006101999999MA1102001999999REMMET058METAR SBQV 211700Z 14011KT 9999 SCT020 SCT070 23/18 Q1020=
0158833440999992017022118004-14886-040801FM-12+088099999V0200901N0036199999999010000199+02361+01951999999ADDAA106002031AY151061AY221061GA1041+003001071GA2999+999999051GE19MSL   +99999+99999GF107991041999003001999999MA1999999091771MD1999999+0041MW1151REMSYN004BUFR
0165833440999992017022118004-14863-040863FM-15+091499999V0201301N00571021341CN009999199+02401+01801999999ADDGA1041+006101999GA2041+021341999GE19MSL   +99999+99999GF199999041999006101999999MA1101901999999REMMET058METAR SBQV 211800Z 13011KT 9999 SCT020 SCT070 24/18 Q1019=
0165833440999992017022120004-14863-040863FM-15+091499999V0201201N00671021341CN009999199+02201+01701999999ADDGA1021+007621999GA2041+021341999GE19MSL   +99999+99999GF199999021999007621999999MA1101901999999REMMET058METAR SBQV 212000Z 12013KT 9999 FEW025 SCT070 22/17 Q1019=
0165833440999992017022121004-14863-040863FM-15+091499999V0201201N00671021341CN009999199+02101+01601999999ADDGA1021+004571999GA2041+021341999GE19MSL   +99999+99999GF199999021999004571999999MA1101901999999REMMET058METAR SBQV 212100Z 12013KT 9999 FEW015 SCT070 21/16 Q1019=
0072833440999992017022122004-14863-040863FM-15+091499999V0201201N004619999999Y999999999+01901+01701999999ADDMA1101901999999REMMET045METAR SBQV 212200Z 12009KT CAVOK 19/17 Q1019=
0142833440999992017022200004-14863-040863FM-15+091499999V0201201N004110021319N009999199+01901+01701999999ADDGA1071+002131999GE19MSL   +99999+99999GF199999071999002131999999MA1102001999999REMMET051METAR SBQV 220000Z 12008KT 9999 BKN007 19/17 Q1020=
0142833440999992017022201004-14863-040863FM-15+091499999V0201101N005719999999N009999199+01901+01701999999ADDGA1041+002131999GE19MSL   +99999+99999GF199999041999002131999999MA1102101999999REMMET051METAR SBQV 220100Z 11011KT 9999 SCT007 19/17 Q1021=
0142833440999992017022208004-14863-040863FM-15+091499999V0201401N003610024419N009999199+01701+01701999999ADDGA1071+002441999GE19MSL   +99999+99999GF199999071999002441999999MA1101901999999REMMET051METAR SBQV 220800Z 14007KT 9999 BKN008 17/17 Q1019=
0142833440999992017022210004-14863-040863FM-15+091499999V0201401N004619999999N009999199+01801+01701999999ADDGA1021+003051999GE19MSL   +99999+99999GF199999021999003051999999MA1102001999999REMMET051METAR SBQV 221000Z 14009KT 9999 FEW010 18/17 Q1020=
0149833440999992017022212004-14886-040801FM-12+088099999V0200901N0031199999999020000199+02251+01731101591ADDAA124002031AZ101061AZ201061GA1041+003001091GE19MSL   +99999+99999GF104991041999003001999999KA1120N+01621MA1999999091961MD1999999-0061REMSYN004BUFR
0142833440999992017022212004-14863-040863FM-15+091499999V0201201N004619999999N009999199+02201+01701999999ADDGA1041+006101999GE19MSL   +99999+99999GF199999041999006101999999MA1102101999999REMMET051METAR SBQV 221200Z 12009KT 9999 SCT020 22/17 Q1021=
0142833440999992017022213004-14863-040863FM-15+091499999V0201501N005710061019N009999199+02201+01701999999ADDGA1071+006101999GE19MSL   +99999+99999GF199999071999006101999999MA1102101999999REMMET051METAR SBQV 221300Z 15011KT 9999 BKN020 22/17 Q1021=
0142833440999992017022215004-14863-040863FM-15+091499999V0201401N003610076219N009999199+02401+01701999999ADDGA1071+007621999GE19MSL   +99999+99999GF199999071999007621999999MA1102001999999REMMET051METAR SBQV 221500Z 14007KT 9999 BKN025 24/17 Q1020=
0142833440999992017022217004-14863-040863FM-15+091499999V0201801N005110106719N009999199+02701+01801999999ADDGA1071+010671999GE19MSL   +99999+99999GF199999071999010671999999MA1101901999999REMMET051METAR SBQV 221700Z 18010KT 9999 BKN035 27/18 Q1019=
0136833440999992017022218004-14886-040801FM-12+088099999V0201401N0015100300199020000199+02611+01961999999ADDAA101999999AZ101061AZ201061GA1061+003001061GE19MSL   +99999+99999GF106991061999003001999999MA1999999091681MD1999999-0091REMSYN004BUFR
0142833440999992017022218004-14863-040863FM-15+091499999V0201301N007210106719N009999199+02701+01801999999ADDGA1071+010671999GE19MSL   +99999+99999GF199999071999010671999999MA1101901999999REMMET051METAR SBQV 221800Z 13014KT 9999 BKN035 27/18 Q1019=
0176833440999992017022220004-14863-040863FM-15+091499999V0201201N006210213419N009999199+02001+01801999999ADDGA1021+004571999GA2071+021341999GE19MSL   +99999+99999GF199999021999004571999999MA1101901999999MW1161REMMET063METAR SBQV 222000Z 12012KT 9999 VCSH FEW015 BKN070 20/18 Q1019=
0072833440999992017022222004-14863-040863FM-15+091499999V0201101N004119999999Y999999999+01901+01701999999ADDMA1101901999999REMMET045METAR SBQV 222200Z 11008KT CAVOK 19/17 Q1019=
0072833440999992017022223004-14863-040863FM-15+091499999V0201301N005719999999Y999999999+01901+01701999999ADDMA1101901999999REMMET045METAR SBQV 222300Z 13011KT CAVOK 19/17 Q1019=
0072833440999992017022300004-14863-040863FM-15+091499999V0201001N004119999999Y999999999+01801+01701999999ADDMA1102001999999REMMET045METAR SBQV 230000Z 10008KT CAVOK 18/17 Q1020=
0165833440999992017022302004-14863-040863FM-15+091499999V0201101N005110021319N009999199+01801+01701999999ADDGA1071+002131999GA2071+021341999GE19MSL   +99999+99999GF199999071999002131999999MA1102001999999REMMET058METAR SBQV 230200Z 11010KT 9999 BKN007 BKN070 18/17 Q1020=
0142833440999992017022304004-14863-040863FM-15+091499999V0201101N005119999999N009999199+01901+01801999999ADDGA1041+002131999GE19MSL   +99999+99999GF199999041999002131999999MA1101901999999REMMET051METAR SBQV 230400Z 11010KT 9999 SCT007 19/18 Q1019=
0142833440999992017022305004-14863-040863FM-15+091499999V0201101N006719999999N009999199+01701+01601999999ADDGA1041+002131999GE19MSL   +99999+99999GF199999041999002131999999MA1101801999999REMMET051METAR SBQV 230500Z 11013KT 9999 SCT007 17/16 Q1018=
0142833440999992017022308004-14863-040863FM-15+091499999V0201301N002619999999N009999199+01701+01601999999ADDGA1041+003051999GE19MSL   +99999+99999GF199999041999003051999999MA1101901999999REMMET051METAR SBQV 230800Z 13005KT 9999 SCT010 17/16 Q1019=
0142833440999992017022309004-14863-040863FM-15+091499999V0201401N002619999999N009999199+01701+01601999999ADDGA1041+003051999GE19MSL   +99999+99999GF199999041999003051999999MA1101901999999REMMET051METAR SBQV 230900Z 14005KT 9999 SCT010 17/16 Q1019=
0142833440999992017022310004-14863-040863FM-15+091499999V0201401N003119999999N009999199+01801+01701999999ADDGA1041+004571999GE19MSL   +99999+99999GF199999041999004571999999MA1102001999999REMMET051METAR SBQV 231000Z 14006KT 9999 SCT015 18/17 Q1020=
0142833440999992017022311004-14863-040863FM-15+091499999V0201301N003119999999N009999199+02001+01701999999ADDGA1041+004571999GE19MSL   +99999+99999GF199999041999004571999999MA1102101999999REMMET051METAR SBQV 231100Z 13006KT 9999 SCT015 20/17 Q1021=
0181833440999992017022312004-14886-040801FM-12+088099999V0200901N0015100300199020000199+02211+01761101651ADDAA124000231AZ101061AZ201061GA1081+003001071GA2999+999999051GA3999+999999101GE19MSL   +99999+99999GF108991081999003001999999KA1120N+01661MA1999999092001MD1999999-0041REMSYN004BUFR
0142833440999992017022313004-14863-040863FM-15+091499999V0201201N002610045719N009999199+02201+01701999999ADDGA1071+004571999GE19MSL   +99999+99999GF199999071999004571999999MA1102101999999REMMET051METAR SBQV 231300Z 12005KT 9999 BKN015 22/17 Q1021=
0142833440999992017022314004-14863-040863FM-15+091499999V0201201N003110061019N009999199+02301+01701999999ADDGA1071+006101999GE19MSL   +99999+99999GF199999071999006101999999MA1102101999999REMMET051METAR SBQV 231400Z 12006KT 9999 BKN020 23/17 Q1021=
0142833440999992017022315004-14863-040863FM-15+091499999V0201001N002610091419N009999199+02501+01701999999ADDGA1071+009141999GE19MSL   +99999+99999GF199999071999009141999999MA1102001999999REMMET051METAR SBQV 231500Z 10005KT 9999 BKN030 25/17 Q1020=
0142833440999992017022316004-14863-040863FM-15+091499999V0200801N003610091419N009999199+02601+01801999999ADDGA1071+009141999GE19MSL   +99999+99999GF199999071999009141999999MA1101901999999REMMET051METAR SBQV 231600Z 08007KT 9999 BKN030 26/18 Q1019=
0142833440999992017022317004-14863-040863FM-15+091499999V0201201N001519999999N009999199+02601+01801999999ADDGA1041+010671999GE19MSL   +99999+99999GF199999041999010671999999MA1101901999999REMMET051METAR SBQV 231700Z 12003KT 9999 SCT035 26/18 Q1019=
0152833440999992017022318004-14886-040801FM-12+088099999V0200901N0021100300199020000199+02701+01991999999ADDAA101999999AZ101061AZ201061GA1061+003001061GA2999+999999001GE19MSL   +99999+99999GF106991061999003001999999MA1999999091681MD1999999+0001REMSYN004BUFR
0142833440999992017022318004-14863-040863FM-15+091499999V0201201N003619999999N009999199+02601+01801999999ADDGA1041+010671999GE19MSL   +99999+99999GF199999041999010671999999MA1101801999999REMMET051METAR SBQV 231800Z 12007KT 9999 SCT035 26/18 Q1018=
0142833440999992017022319004-14863-040863FM-15+091499999V0201101N004619999999N009999199+02601+01701999999ADDGA1041+010671999GE19MSL   +99999+99999GF199999041999010671999999MA1101701999999REMMET051METAR SBQV 231900Z 11009KT 9999 SCT035 26/17 Q1017=
0142833440999992017022320004-14863-040863FM-15+091499999V0201201N005119999999N009999199+02501+01701999999ADDGA1041+010671999GE19MSL   +99999+99999GF199999041999010671999999MA1101701999999REMMET051METAR SBQV 232000Z 12010KT 9999 SCT035 25/17 Q1017=
0142833440999992017022321004-14863-040863FM-15+091499999V0201501N007219999999N009999199+02301+01901999999ADDGA1041+010671999GE19MSL   +99999+99999GF199999041999010671999999MA1101801999999REMMET051METAR SBQV 232100Z 15014KT 9999 SCT035 23/19 Q1018=
0168833440999992017022322004-14863-040863FM-15+091499999V0201201N005719999999N009999199+02201+01901999999ADDGA1021+006101999GA2021+007621081GE19MSL   +99999+99999GF199999021999006101999999MA1101801999999REMMET061METAR SBQV 232200Z 12011KT 9999 FEW020 FEW025TCU 22/19 Q1018=
0142833440999992017022400004-14863-040863FM-15+091499999V0201201N005119999999N009999199+02101+01901999999ADDGA1041+002131999GE19MSL   +99999+99999GF199999041999002131999999MA1101901999999REMMET051METAR SBQV 240000Z 12010KT 9999 SCT007 21/19 Q1019=
0142833440999992017022401004-14863-040863FM-15+091499999V0201201N005710021319N009999199+02101+01901999999ADDGA1071+002131999GE19MSL   +99999+99999GF199999071999002131999999MA1101901999999REMMET051METAR SBQV 240100Z 12011KT 9999 BKN007 21/19 Q1019=
0142833440999992017022408004-14863-040863FM-15+091499999V0201001N003610021319N009999199+01701+01701999999ADDGA1071+002131999GE19MSL   +99999+99999GF199999071999002131999999MA1101801999999REMMET051METAR SBQV 240800Z 10007KT 9999 BKN007 17/17 Q1018=
0142833440999992017022409004-14863-040863FM-15+091499999V0201101N004610045719N009999199+01801+01601999999ADDGA1071+004571999GE19MSL   +99999+99999GF199999071999004571999999MA1101901999999REMMET051METAR SBQV 240900Z 11009KT 9999 BKN015 18/16 Q1019=
0142833440999992017022411004-14863-040863FM-15+091499999V0200501N003619999999N009999199+02001+01601999999ADDGA1041+004571999GE19MSL   +99999+99999GF199999041999004571999999MA1102001999999REMMET051METAR SBQV 241100Z 05007KT 9999 SCT015 20/16 Q1020=
0165833440999992017022412004-14886-040801FM-12+088099999V0200901N0031199999999020000199+02211+01691101421ADDAA101999999AZ101061AZ201061GA1021+003001081GA2999+999999031GE19MSL   +99999+99999GF106991021999003001999999KA1120N+01561MA1999999091841MD1999999-0161REMSYN004BUFR
0142833440999992017022412004-14863-040863FM-15+091499999V0200901N002110076219N009999199+02201+01701999999ADDGA1071+007621999GE19MSL   +99999+99999GF199999071999007621999999MA1102001999999REMMET051METAR SBQV 241200Z 09004KT 9999 BKN025 22/17 Q1020=
0142833440999992017022413004-14863-040863FM-15+091499999V0201101N003119999999N009999199+02301+01701999999ADDGA1041+009141999GE19MSL   +99999+99999GF199999041999009141999999MA1102001999999REMMET051METAR SBQV 241300Z 11006KT 9999 SCT030 23/17 Q1020=
0142833440999992017022414004-14863-040863FM-15+091499999V0201001N003610091419N009999199+02401+01701999999ADDGA1071+009141999GE19MSL   +99999+99999GF199999071999009141999999MA1102001999999REMMET051METAR SBQV 241400Z 10007KT 9999 BKN030 24/17 Q1020=
0142833440999992017022415004-14863-040863FM-15+091499999V0201301N004619999999N009999199+02701+01601999999ADDGA1041+010671999GE19MSL   +99999+99999GF199999041999010671999999MA1101901999999REMMET051METAR SBQV 241500Z 13009KT 9999 SCT035 27/16 Q1019=
0142833440999992017022416004-14863-040863FM-15+091499999V0201401N003119999999N009999199+02801+01701999999ADDGA1041+010671999GE19MSL   +99999+99999GF199999041999010671999999MA1101801999999REMMET051METAR SBQV 241600Z 14006KT 9999 SCT035 28/17 Q1018=
0142833440999992017022417004-14863-040863FM-15+091499999V0201701N004119999999N009999199+02801+01701999999ADDGA1041+010671999GE19MSL   +99999+99999GF199999041999010671999999MA1101801999999REMMET051METAR SBQV 241700Z 17008KT 9999 SCT035 28/17 Q1018=
0136833440999992017022418004-14886-040801FM-12+088099999V0201401N0031199999999020000199+02771+01661999999ADDAA101999999AZ101061AZ201061GA1021+003001081GE19MSL   +99999+99999GF102991021999003001999999MA1999999091571MD1999999-0111REMSYN004BUFR
0142833440999992017022418004-14863-040863FM-15+091499999V0201801N006719999999N009999199+02701+01701999999ADDGA1021+012191999GE19MSL   +99999+99999GF199999021999012191999999MA1101701999999REMMET051METAR SBQV 241800Z 18013KT 9999 FEW040 27/17 Q1017=
0142833440999992017022419004-14863-040863FM-15+091499999V0201801N005719999999N009999199+02801+01801999999ADDGA1021+012191999GE19MSL   +99999+99999GF199999021999012191999999MA1101701999999REMMET051METAR SBQV 241900Z 18011KT 9999 FEW040 28/18 Q1017=
0142833440999992017022420004-14863-040863FM-15+091499999V0201701N006719999999N009999199+02601+01701999999ADDGA1021+012191999GE19MSL   +99999+99999GF199999021999012191999999MA1101701999999REMMET051METAR SBQV 242000Z 17013KT 9999 FEW040 26/17 Q1017=
0142833440999992017022421004-14863-040863FM-15+091499999V0201701N005719999999N009999199+02401+01801999999ADDGA1021+012191999GE19MSL   +99999+99999GF199999021999012191999999MA1101701999999REMMET051METAR SBQV 242100Z 17011KT 9999 FEW040 24/18 Q1017=
0072833440999992017022423004-14863-040863FM-15+091499999V0201401N005119999999Y999999999+02201+01801999999ADDMA1101701999999REMMET045METAR SBQV 242300Z 14010KT CAVOK 22/18 Q1017=
0072833440999992017022500004-14863-040863FM-15+091499999V0201201N005119999999Y999999999+02101+01901999999ADDMA1101701999999REMMET045METAR SBQV 250000Z 12010KT CAVOK 21/19 Q1017=
0142833440999992017022501004-14863-040863FM-15+091499999V0201201N006719999999N009999199+02001+01901999999ADDGA1021+003661999GE19MSL   +99999+99999GF199999021999003661999999MA1101801999999REMMET051METAR SBQV 250100Z 12013KT 9999 FEW012 20/19 Q1018=
0142833440999992017022508004-14863-040863FM-15+091499999V0201501N002119999999N009999199+01801+01701999999ADDGA1021+004571999GE19MSL   +99999+99999GF199999021999004571999999MA1101801999999REMMET051METAR SBQV 250800Z 15004KT 9999 FEW015 18/17 Q1018=
0072833440999992017022509004-14863-040863FM-15+091499999V0201601N002619999999Y999999999+01701+01601999999ADDMA1101801999999REMMET045METAR SBQV 250900Z 16005KT CAVOK 17/16 Q1018=
0142833440999992017022511004-14863-040863FM-15+091499999V0200501N004110036619N009999199+02001+01701999999ADDGA1081+003661999GE19MSL   +99999+99999GF199999081999003661999999MA1101901999999REMMET051METAR SBQV 251100Z 05008KT 9999 OVC012 20/17 Q1019=
0181833440999992017022512004-14886-040801FM-12+088099999V0200901N0015100300199020000199+02071+01741101421ADDAA101999999AZ101061AZ201061GA1081+003001071GA2999+999999101GA3999+999999101GE19MSL   +99999+99999GF108991081999003001999999KA1120N+01561MA1999999091811MD1999999+0031REMSYN004BUFR
0142833440999992017022512004-14863-040863FM-15+091499999V0200901N002610045719N009999199+02201+01701999999ADDGA1071+004571999GE19MSL   +99999+99999GF199999071999004571999999MA1101901999999REMMET051METAR SBQV 251200Z 09005KT 9999 BKN015 22/17 Q1019=
0142833440999992017022513004-14863-040863FM-15+091499999V0200701N002110061019N009999199+02401+01701999999ADDGA1071+006101999GE19MSL   +99999+99999GF199999071999006101999999MA1101901999999REMMET051METAR SBQV 251300Z 07004KT 9999 BKN020 24/17 Q1019=
0142833440999992017022516004-14863-040863FM-15+091499999V0201701N002619999999N009999199+02701+01701999999ADDGA1041+012191999GE19MSL   +99999+99999GF199999041999012191999999MA1101701999999REMMET051METAR SBQV 251600Z 17005KT 9999 SCT040 27/17 Q1017=
0142833440999992017022517004-14863-040863FM-15+091499999V0201301N002619999999N009999199+02701+01701999999ADDGA1041+012191999GE19MSL   +99999+99999GF199999041999012191999999MA1101601999999REMMET051METAR SBQV 251700Z 13005KT 9999 SCT040 27/17 Q1016=
0152833440999992017022518004-14886-040801FM-12+088099999V0200901N0021100300199020000199+02771+02071999999ADDAA101999999AZ101061AZ201061GA1051+003001061GA2999+999999001GE19MSL   +99999+99999GF106991051999003001999999MA1999999091471MD1999999+0101REMSYN004BUFR
0142833440999992017022518004-14863-040863FM-15+091499999V0201401N005719999999N009999199+02701+01801999999ADDGA1041+012191999GE19MSL   +99999+99999GF199999041999012191999999MA1101601999999REMMET051METAR SBQV 251800Z 14011KT 9999 SCT040 27/18 Q1016=
0142833440999992017022519004-14863-040863FM-15+091499999V0201601N003619999999N009999199+02701+01801999999ADDGA1021+012191999GE19MSL   +99999+99999GF199999021999012191999999MA1101601999999REMMET051METAR SBQV 251900Z 16007KT 9999 FEW040 27/18 Q1016=
0142833440999992017022520004-14863-040863FM-15+091499999V0201701N005119999999N009999199+02601+01701999999ADDGA1021+012191999GE19MSL   +99999+99999GF199999021999012191999999MA1101501999999REMMET051METAR SBQV 252000Z 17010KT 9999 FEW040 26/17 Q1015=
0149833440999992017022612004-14886-040801FM-12+088099999V0200901N0015100300199020000199+02321+01761101291ADDAA101999999AZ101061AZ201061GA1061+003001071GE19MSL   +99999+99999GF106991061999003001999999KA1120N+01781MA1999999091811MD1999999+0001REMSYN004BUFR
0142833440999992017022613004-14863-040863FM-15+091499999V0200901N002110091419N009999199+02301+01701999999ADDGA1071+009141999GE19MSL   +99999+99999GF199999071999009141999999MA1102001999999REMMET051METAR SBQV 261300Z 09004KT 9999 BKN030 23/17 Q1020=
0142833440999992017022614004-14863-040863FM-15+091499999V0201201N003619999999N009999199+02601+01701999999ADDGA1041+010671999GE19MSL   +99999+99999GF199999041999010671999999MA1101901999999REMMET051METAR SBQV 261400Z 12007KT 9999 SCT035 26/17 Q1019=
0142833440999992017022615004-14863-040863FM-15+091499999V0209999C000019999999N009999199+02601+01601999999ADDGA1041+012191999GE19MSL   +99999+99999GF199999041999012191999999MA1101901999999REMMET051METAR SBQV 261500Z 00000KT 9999 SCT040 26/16 Q1019=
0142833440999992017022617004-14863-040863FM-15+091499999V0201201N002619999999N009999199+02801+01601999999ADDGA1041+012191999GE19MSL   +99999+99999GF199999041999012191999999MA1101701999999REMMET051METAR SBQV 261700Z 12005KT 9999 SCT040 28/16 Q1017=
0136833440999992017022618004-14886-040801FM-12+088099999V0201401N0021199999999020000199+02871+01921999999ADDAA101999999AZ101061AZ201061GA1021+003001081GE19MSL   +99999+99999GF102991021999003001999999MA1999999091541MD1999999+0071REMSYN004BUFR
0142833440999992017022619004-14863-040863FM-15+091499999V0201501N003119999999N009999199+02801+01801999999ADDGA1021+012191999GE19MSL   +99999+99999GF199999021999012191999999MA1101701999999REMMET051METAR SBQV 261900Z 15006KT 9999 FEW040 28/18 Q1017=
0142833440999992017022620004-14863-040863FM-15+091499999V0201601N005119999999N009999199+02601+01801999999ADDGA1021+012191999GE19MSL   +99999+99999GF199999021999012191999999MA1101601999999REMMET051METAR SBQV 262000Z 16010KT 9999 FEW040 26/18 Q1016=
0142833440999992017022621004-14863-040863FM-15+091499999V0201501N006219999999N009999199+02501+01701999999ADDGA1021+012191999GE19MSL   +99999+99999GF199999021999012191999999MA1101701999999REMMET051METAR SBQV 262100Z 15012KT 9999 FEW040 25/17 Q1017=
0072833440999992017022622004-14863-040863FM-15+091499999V0201301N004119999999Y999999999+02301+01701999999ADDMA1101701999999REMMET045METAR SBQV 262200Z 13008KT CAVOK 23/17 Q1017=
0072833440999992017022623004-14863-040863FM-15+091499999V0201401N003119999999Y999999999+02301+01701999999ADDMA1101801999999REMMET045METAR SBQV 262300Z 14006KT CAVOK 23/17 Q1018=
0072833440999992017022701004-14863-040863FM-15+091499999V0201301N004619999999Y999999999+02201+01701999999ADDMA1101801999999REMMET045METAR SBQV 270100Z 13009KT CAVOK 22/17 Q1018=
0072833440999992017022708004-14863-040863FM-15+091499999V0201001N003119999999Y999999999+01901+01601999999ADDMA1101801999999REMMET045METAR SBQV 270800Z 10006KT CAVOK 19/16 Q1018=
0072833440999992017022709004-14863-040863FM-15+091499999V0200901N004119999999Y999999999+01801+01601999999ADDMA1101801999999REMMET045METAR SBQV 270900Z 09008KT CAVOK 18/16 Q1018=
0142833440999992017022710004-14863-040863FM-15+091499999V0200701N003110030519N009999199+02101+01701999999ADDGA1071+003051999GE19MSL   +99999+99999GF199999071999003051999999MA1101901999999REMMET051METAR SBQV 271000Z 07006KT 9999 BKN010 21/17 Q1019=
0142833440999992017022711004-14863-040863FM-15+091499999V0200201N003119999999N009999199+02101+01701999999ADDGA1041+004571999GE19MSL   +99999+99999GF199999041999004571999999MA1101901999999REMMET051METAR SBQV 271100Z 02006KT 9999 SCT015 21/17 Q1019=
0149833440999992017022712004-14886-040801FM-12+088099999V0200501N0021199999999020000199+02321+01701101331ADDAA101999999AZ101061AZ201061GA1021+003001081GE19MSL   +99999+99999GF102991021999003001999999KA1120N+01621MA1999999091771MD1999999-0041REMSYN004BUFR
0142833440999992017022712004-14863-040863FM-15+091499999V0200701N003119999999N009999199+02401+01701999999ADDGA1021+006101999GE19MSL   +99999+99999GF199999021999006101999999MA1101901999999REMMET051METAR SBQV 271200Z 07006KT 9999 FEW020 24/17 Q1019=
0142833440999992017022714004-14863-040863FM-15+091499999V0201201N003119999999N009999199+02801+01601999999ADDGA1021+012191999GE19MSL   +99999+99999GF199999021999012191999999MA1101901999999REMMET051METAR SBQV 271400Z 12006KT 9999 FEW040 28/16 Q1019=
0142833440999992017022715004-14863-040863FM-15+091499999V0200501N002619999999N009999199+02801+01501999999ADDGA1021+012191999GE19MSL   +99999+99999GF199999021999012191999999MA1101801999999REMMET051METAR SBQV 271500Z 05005KT 9999 FEW040 28/15 Q1018=
0142833440999992017022716004-14863-040863FM-15+091499999V0201501N002619999999N009999199+02801+01501999999ADDGA1021+012191999GE19MSL   +99999+99999GF199999021999012191999999MA1101701999999REMMET051METAR SBQV 271600Z 15005KT 9999 FEW040 28/15 Q1017=
0142833440999992017022717004-14863-040863FM-15+091499999V0201501N006719999999N009999199+02901+01901999999ADDGA1041+012191999GE19MSL   +99999+99999GF199999041999012191999999MA1101601999999REMMET051METAR SBQV 271700Z 15013KT 9999 SCT040 29/19 Q1016=
0136833440999992017022718004-14886-040801FM-12+088099999V0201401N0026199999999020000199+02851+01731999999ADDAA101999999AZ101061AZ201061GA1021+003001081GE19MSL   +99999+99999GF102991021999003001999999MA1999999091431MD1999999-0111REMSYN004BUFR
0142833440999992017022718004-14863-040863FM-15+091499999V0201601N006719999999N009999199+02901+01801999999ADDGA1041+012191999GE19MSL   +99999+99999GF199999041999012191999999MA1101501999999REMMET051METAR SBQV 271800Z 16013KT 9999 SCT040 29/18 Q1015=
0142833440999992017022719004-14863-040863FM-15+091499999V0201501N006719999999N009999199+02901+01601999999ADDGA1021+012191999GE19MSL   +99999+99999GF199999021999012191999999MA1101501999999REMMET051METAR SBQV 271900Z 15013KT 9999 FEW040 29/16 Q1015=
0142833440999992017022720004-14863-040863FM-15+091499999V0201301N006719999999N009999199+02801+01401999999ADDGA1021+012191999GE19MSL   +99999+99999GF199999021999012191999999MA1101501999999REMMET051METAR SBQV 272000Z 13013KT 9999 FEW040 28/14 Q1015=
0142833440999992017022721004-14863-040863FM-15+091499999V0201301N006219999999N009999199+02601+01601999999ADDGA1021+012191999GE19MSL   +99999+99999GF199999021999012191999999MA1101501999999REMMET051METAR SBQV 272100Z 13012KT 9999 FEW040 26/16 Q1015=
0142833440999992017022723004-14863-040863FM-15+091499999V0201101N006719999999N009999199+02201+01801999999ADDGA1021+012191999GE19MSL   +99999+99999GF199999021999012191999999MA1101601999999REMMET051METAR SBQV 272300Z 11013KT 9999 FEW040 22/18 Q1016=
0142833440999992017022808004-14863-040863FM-15+091499999V0200601N003110027419N009999199+02001+01901999999ADDGA1071+002741999GE19MSL   +99999+99999GF199999071999002741999999MA1101701999999REMMET051METAR SBQV 280800Z 06006KT 9999 BKN009 20/19 Q1017=
0142833440999992017022809004-14863-040863FM-15+091499999V0200501N001510036619N009999199+02001+01901999999ADDGA1071+003661999GE19MSL   +99999+99999GF199999071999003661999999MA1101801999999REMMET051METAR SBQV 280900Z 05003KT 9999 BKN012 20/19 Q1018=
0142833440999992017022810004-14863-040863FM-15+091499999V0200701N004110045719N009999199+02101+01801999999ADDGA1071+004571999GE19MSL   +99999+99999GF199999071999004571999999MA1101801999999REMMET051METAR SBQV 281000Z 07008KT 9999 BKN015 21/18 Q1018=
0142833440999992017022811004-14863-040863FM-15+091499999V0200801N002610076219N009999199+02301+01901999999ADDGA1071+007621999GE19MSL   +99999+99999GF199999071999007621999999MA1101801999999REMMET051METAR SBQV 281100Z 08005KT 9999 BKN025 23/19 Q1018=
0165833440999992017022812004-14886-040801FM-12+088099999V0200501N0021199999999020000199+02301+01941101121ADDAA101999999AZ101061AZ201061GA1041+003001081GA2999+999999001GE19MSL   +99999+99999GF106991041999003001999999KA1120N+01881MA1999999091681MD1999999-0091REMSYN004BUFR
0142833440999992017022812004-14863-040863FM-15+091499999V0200601N003610091419N009999199+02301+01901999999ADDGA1071+009141999GE19MSL   +99999+99999GF199999071999009141999999MA1101801999999REMMET051METAR SBQV 281200Z 06007KT 9999 BKN030 23/19 Q1018=
0142833440999992017022813004-14863-040863FM-15+091499999V0200601N002610100619N009999199+02501+01801999999ADDGA1071+010061999GE19MSL   +99999+99999GF199999071999010061999999MA1101801999999REMMET051METAR SBQV 281300Z 06005KT 9999 BKN033 25/18 Q1018=
0142833440999992017022814004-14863-040863FM-15+091499999V0200801N002619999999N009999199+02801+01701999999ADDGA1041+012191999GE19MSL   +99999+99999GF199999041999012191999999MA1101801999999REMMET051METAR SBQV 281400Z 08005KT 9999 SCT040 28/17 Q1018=
0142833440999992017022815004-14863-040863FM-15+091499999V0201301N002619999999N009999199+02801+01701999999ADDGA1041+012191999GE19MSL   +99999+99999GF199999041999012191999999MA1101701999999REMMET051METAR SBQV 281500Z 13005KT 9999 SCT040 28/17 Q1017=
0142833440999992017022817004-14863-040863FM-15+091499999V0201201N005710091419N009999199+02701+02001999999ADDGA1071+009141999GE19MSL   +99999+99999GF199999071999009141999999MA1101601999999REMMET051METAR SBQV 281700Z 12011KT 9999 BKN030 27/20 Q1016=
0136833440999992017022818004-14886-040801FM-12+088099999V0200901N0026100300199020000199+02721+02301999999ADDAA101999999AZ101061AZ201061GA1061+003001081GE19MSL   +99999+99999GF106991061999003001999999MA1999999091431MD1999999+0001REMSYN004BUFR
0142833440999992017022818004-14863-040863FM-15+091499999V0201201N004110045719N009999199+02501+02001999999ADDGA1071+004571999GE19MSL   +99999+99999GF199999071999004571999999MA1101501999999REMMET051METAR SBQV 281800Z 12008KT 9999 BKN015 25/20 Q1015=
0142833440999992017022819004-14863-040863FM-15+091499999V0201301N004110091419N009999199+02601+02001999999ADDGA1071+009141999GE19MSL   +99999+99999GF199999071999009141999999MA1101401999999REMMET051METAR SBQV 281900Z 13008KT 9999 BKN030 26/20 Q1014=
0072833440999992017022820004-14863-040863FM-15+091499999V0201101N005119999999Y999999999+02501+01901999999ADDMA1101401999999REMMET045METAR SBQV 282000Z 11010KT CAVOK 25/19 Q1014=
0165833440999992017022821004-14863-040863FM-15+091499999V0201101N00671024381CN009999199+02301+01901999999ADDGA1021+006101999GA2041+024381999GE19MSL   +99999+99999GF199999021999006101999999MA1101401999999REMMET058METAR SBQV 282100Z 11013KT 9999 FEW020 SCT080 23/19 Q1014=
0142833440999992017022822004-14863-040863FM-15+091499999V0201101N005119999999N009999199+02201+01901999999ADDGA1021+006101999GE19MSL   +99999+99999GF199999021999006101999999MA1101501999999REMMET051METAR SBQV 282200Z 11010KT 9999 FEW020 22/19 Q1015=
0072833440999992017022823004-14863-040863FM-15+091499999V0201001N004619999999Y999999999+02101+01901999999ADDMA1101501999999REMMET045METAR SBQV 282300Z 10009KT CAVOK 21/19 Q1015=
0142833440999992017030108004-14863-040863FM-15+091499999V0201101N002610061019N009999199+01901+01801999999ADDGA1071+006101999GE19MSL   +99999+99999GF199999071999006101999999MA1101601999999REMMET051METAR SBQV 010800Z 11005KT 9999 BKN020 19/18 Q1016=
0165833440999992017030109004-14863-040863FM-15+091499999V0200501N001510045719N009999199+02101+01901999999ADDGA1071+004571999GA2071+006101999GE19MSL   +99999+99999GF199999071999004571999999MA1101601999999REMMET058METAR SBQV 010900Z 05003KT 9999 BKN015 BKN020 21/19 Q1016=
0165833440999992017030110004-14863-040863FM-15+091499999V0200601N003610061019N009999199+02101+01801999999ADDGA1021+004571999GA2071+006101999GE19MSL   +99999+99999GF199999021999004571999999MA1101701999999REMMET058METAR SBQV 011000Z 06007KT 9999 FEW015 BKN020 21/18 Q1017=
0142833440999992017030111004-14863-040863FM-15+091499999V0200401N002110061019N009999199+02101+01801999999ADDGA1071+006101999GE19MSL   +99999+99999GF199999071999006101999999MA1101801999999REMMET051METAR SBQV 011100Z 04004KT 9999 BKN020 21/18 Q1018=
0181833440999992017030112004-14886-040801FM-12+088099999V0200501N0010100300199020000199+02311+01851101261ADDAA101999999AZ101061AZ201061GA1081+003001071GA2999+999999101GA3999+999999101GE19MSL   +99999+99999GF108991081999003001999999KA1120N+01721MA1999999091711MD1999999+0031REMSYN004BUFR
0142833440999992017030112004-14863-040863FM-15+091499999V0200801N001510076219N009999199+02301+01801999999ADDGA1071+007621999GE19MSL   +99999+99999GF199999071999007621999999MA1101901999999REMMET051METAR SBQV 011200Z 08003KT 9999 BKN025 23/18 Q1019=
0142833440999992017030113004-14863-040863FM-15+091499999V0200801N002610076219N009999199+02301+01801999999ADDGA1071+007621999GE19MSL   +99999+99999GF199999071999007621999999MA1101901999999REMMET051METAR SBQV 011300Z 08005KT 9999 BKN025 23/18 Q1019=
0142833440999992017030114004-14863-040863FM-15+091499999V0200801N001510091419N009999199+02601+01801999999ADDGA1071+009141999GE19MSL   +99999+99999GF199999071999009141999999MA1101901999999REMMET051METAR SBQV 011400Z 08003KT 9999 BKN030 26/18 Q1019=
0142833440999992017030116004-14863-040863FM-15+091499999V0201301N002110091419N009999199+02501+02001999999ADDGA1071+009141999GE19MSL   +99999+99999GF199999071999009141999999MA1101801999999REMMET051METAR SBQV 011600Z 13004KT 9999 BKN030 25/20 Q1018=
0142833440999992017030117004-14863-040863FM-15+091499999V0202101N003110121919N009999199+02601+01901999999ADDGA1071+012191999GE19MSL   +99999+99999GF199999071999012191999999MA1101701999999REMMET051METAR SBQV 011700Z 21006KT 9999 BKN040 26/19 Q1017=
0136833440999992017030118004-14886-040801FM-12+088099999V0201801N0015100300199020000199+02811+01981999999ADDAA101999999AZ101061AZ201061GA1061+003001071GE19MSL   +99999+99999GF106991061999003001999999MA1999999091431MD1999999+0001REMSYN004BUFR
0142833440999992017030118004-14863-040863FM-15+091499999V0201401N003110091419N009999199+02701+01901999999ADDGA1071+009141999GE19MSL   +99999+99999GF199999071999009141999999MA1101601999999REMMET051METAR SBQV 011800Z 14006KT 9999 BKN030 27/19 Q1016=
0142833440999992017030119004-14863-040863FM-15+091499999V0201801N004110091419N009999199+02601+01801999999ADDGA1071+009141999GE19MSL   +99999+99999GF199999071999009141999999MA1101601999999REMMET051METAR SBQV 011900Z 18008KT 9999 BKN030 26/18 Q1016=
0165833440999992017030120004-14863-040863FM-15+091499999V0201701N00571024381CN009999199+02601+01901999999ADDGA1041+009141999GA2041+024381999GE19MSL   +99999+99999GF199999041999009141999999MA1101601999999REMMET058METAR SBQV 012000Z 17011KT 9999 SCT030 SCT080 26/19 Q1016=
0165833440999992017030121004-14863-040863FM-15+091499999V0201501N00571024381CN009999199+02401+02001999999ADDGA1041+012191999GA2041+024381999GE19MSL   +99999+99999GF199999041999012191999999MA1101701999999REMMET058METAR SBQV 012100Z 15011KT 9999 SCT040 SCT080 24/20 Q1017=
0072833440999992017030122004-14863-040863FM-15+091499999V0201401N005119999999Y999999999+02301+01901999999ADDMA1101701999999REMMET045METAR SBQV 012200Z 14010KT CAVOK 23/19 Q1017=
0072833440999992017030123004-14863-040863FM-15+091499999V0201401N003619999999Y999999999+02301+02001999999ADDMA1101701999999REMMET045METAR SBQV 012300Z 14007KT CAVOK 23/20 Q1017=
0072833440999992017030200004-14863-040863FM-15+091499999V0201201N004619999999Y999999999+02201+01901999999ADDMA1101801999999REMMET045METAR SBQV 020000Z 12009KT CAVOK 22/19 Q1018=
0072833440999992017030201004-14863-040863FM-15+091499999V0201201N005119999999Y999999999+02101+02001999999ADDMA1101801999999REMMET045METAR SBQV 020100Z 12010KT CAVOK 21/20 Q1018=
0142833440999992017030208004-14863-040863FM-15+091499999V0201301N004110036619N009999199+01901+01701999999ADDGA1071+003661999GE19MSL   +99999+99999GF199999071999003661999999MA1101801999999REMMET051METAR SBQV 020800Z 13008KT 9999 BKN012 19/17 Q1018=
0142833440999992017030209004-14863-040863FM-15+091499999V0201301N004119999999N009999199+01801+01701999999ADDGA1021+006101999GE19MSL   +99999+99999GF199999021999006101999999MA1101901999999REMMET051METAR SBQV 020900Z 13008KT 9999 FEW020 18/17 Q1019=
0142833440999992017030210004-14863-040863FM-15+091499999V0201401N003119999999N009999199+02001+01801999999ADDGA1021+007621999GE19MSL   +99999+99999GF199999021999007621999999MA1101901999999REMMET051METAR SBQV 021000Z 14006KT 9999 FEW025 20/18 Q1019=
0142833440999992017030211004-14863-040863FM-15+091499999V0201201N003619999999N009999199+02201+01701999999ADDGA1021+009141999GE19MSL   +99999+99999GF199999021999009141999999MA1102001999999REMMET051METAR SBQV 021100Z 12007KT 9999 FEW030 22/17 Q1020=
0165833440999992017030212004-14886-040801FM-12+088099999V0200901N0031199999999020000199+02471+01631101391ADDAA101999999AZ101061AZ201061GA1031+006001081GA2999+999999001GE19MSL   +99999+99999GF105991031999006001999999KA1120N+01701MA1999999091881MD1999999+0171REMSYN004BUFR
0142833440999992017030212004-14863-040863FM-15+091499999V0201401N002619999999N009999199+02401+01601999999ADDGA1021+009141999GE19MSL   +99999+99999GF199999021999009141999999MA1102001999999REMMET051METAR SBQV 021200Z 14005KT 9999 FEW030 24/16 Q1020=
0142833440999992017030213004-14863-040863FM-15+091499999V0201601N002119999999N009999199+02601+01601999999ADDGA1021+009141999GE19MSL   +99999+99999GF199999021999009141999999MA1102001999999REMMET051METAR SBQV 021300Z 16004KT 9999 FEW030 26/16 Q1020=
0142833440999992017030214004-14863-040863FM-15+091499999V0201201N002619999999N009999199+02601+01401999999ADDGA1021+012191999GE19MSL   +99999+99999GF199999021999012191999999MA1102001999999REMMET051METAR SBQV 021400Z 12005KT 9999 FEW040 26/14 Q1020=
0142833440999992017030215004-14863-040863FM-15+091499999V0201701N004619999999N009999199+02801+01601999999ADDGA1021+012191999GE19MSL   +99999+99999GF199999021999012191999999MA1101901999999REMMET051METAR SBQV 021500Z 17009KT 9999 FEW040 28/16 Q1019=
0142833440999992017030216004-14863-040863FM-15+091499999V0201701N007219999999N009999199+02701+01501999999ADDGA1021+012191999GE19MSL   +99999+99999GF199999021999012191999999MA1101801999999REMMET051METAR SBQV 021600Z 17014KT 9999 FEW040 27/15 Q1018=
0142833440999992017030217004-14863-040863FM-15+091499999V0201501N006719999999N009999199+02801+01501999999ADDGA1021+012191999GE19MSL   +99999+99999GF199999021999012191999999MA1101801999999REMMET051METAR SBQV 021700Z 15013KT 9999 FEW040 28/15 Q1018=
0136833440999992017030218004-14886-040801FM-12+088099999V0200901N0031100600199020000199+02821+01941999999ADDAA101999999AZ101061AZ201061GA1061+006001081GE19MSL   +99999+99999GF106991061999006001999999MA1999999091551MD1999999+0121REMSYN004BUFR
0142833440999992017030218004-14863-040863FM-15+091499999V0201501N006219999999N009999199+02801+01601999999ADDGA1041+012191999GE19MSL   +99999+99999GF199999041999012191999999MA1101701999999REMMET051METAR SBQV 021800Z 15012KT 9999 SCT040 28/16 Q1017=
0142833440999992017030219004-14863-040863FM-15+091499999V0201301N005719999999N009999199+02701+01601999999ADDGA1041+012191999GE19MSL   +99999+99999GF199999041999012191999999MA1101701999999REMMET051METAR SBQV 021900Z 13011KT 9999 SCT040 27/16 Q1017=
0142833440999992017030220004-14863-040863FM-15+091499999V0201501N007219999999N009999199+02701+01701999999ADDGA1041+012191999GE19MSL   +99999+99999GF199999041999012191999999MA1101701999999REMMET051METAR SBQV 022000Z 15014KT 9999 SCT040 27/17 Q1017=
0142833440999992017030221004-14863-040863FM-15+091499999V0201501N006719999999N009999199+02501+01701999999ADDGA1021+012191999GE19MSL   +99999+99999GF199999021999012191999999MA1101701999999REMMET051METAR SBQV 022100Z 15013KT 9999 FEW040 25/17 Q1017=
0072833440999992017030222004-14863-040863FM-15+091499999V0201501N004119999999Y999999999+02301+01701999999ADDMA1101701999999REMMET045METAR SBQV 022200Z 15008KT CAVOK 23/17 Q1017=
0072833440999992017030223004-14863-040863FM-15+091499999V0201501N004119999999Y999999999+02301+01701999999ADDMA1101801999999REMMET045METAR SBQV 022300Z 15008KT CAVOK 23/17 Q1018=
0072833440999992017030300004-14863-040863FM-15+091499999V0201201N005719999999Y999999999+02201+01801999999ADDMA1101901999999REMMET045METAR SBQV 030000Z 12011KT CAVOK 22/18 Q1019=
0072833440999992017030301004-14863-040863FM-15+091499999V0201201N005719999999Y999999999+02001+01701999999ADDMA1102001999999REMMET045METAR SBQV 030100Z 12011KT CAVOK 20/17 Q1020=
0072833440999992017030302004-14863-040863FM-15+091499999V0201401N003619999999Y999999999+02001+01801999999ADDMA1102001999999REMMET045METAR SBQV 030200Z 14007KT CAVOK 20/18 Q1020=
0072833440999992017030303004-14863-040863FM-15+091499999V0201201N004619999999Y999999999+01901+01701999999ADDMA1102001999999REMMET045METAR SBQV 030300Z 12009KT CAVOK 19/17 Q1020=
0072833440999992017030304004-14863-040863FM-15+091499999V0201601N002119999999Y999999999+01901+01701999999ADDMA1102001999999REMMET045METAR SBQV 030400Z 16004KT CAVOK 19/17 Q1020=
0142833440999992017030308004-14863-040863FM-15+091499999V0201501N002610045719N009999199+01801+01601999999ADDGA1071+004571999GE19MSL   +99999+99999GF199999071999004571999999MA1102001999999REMMET051METAR SBQV 030800Z 15005KT 9999 BKN015 18/16 Q1020=
0142833440999992017030309004-14863-040863FM-15+091499999V0201101N001519999999N009999199+01901+01601999999ADDGA1041+004571999GE19MSL   +99999+99999GF199999041999004571999999MA1102001999999REMMET051METAR SBQV 030900Z 11003KT 9999 SCT015 19/16 Q1020=
0072833440999992017030310004-14863-040863FM-15+091499999V0201301N002119999999Y999999999+02101+01701999999ADDMA1102001999999REMMET045METAR SBQV 031000Z 13004KT CAVOK 21/17 Q1020=
0142833440999992017030311004-14863-040863FM-15+091499999V0201001N003119999999N009999199+02201+01701999999ADDGA1021+009141999GE19MSL   +99999+99999GF199999021999009141999999MA1102101999999REMMET051METAR SBQV 031100Z 10006KT 9999 FEW030 22/17 Q1021=
0149833440999992017030312004-14886-040801FM-12+088099999V0200901N0031100600199020000199+02321+01631101531ADDAA101999999AZ101061AZ201061GA1071+006001061GE19MSL   +99999+99999GF107991071999006001999999KA1120N+01541MA1999999091971MD1999999+0091REMSYN004BUFR
0142833440999992017030312004-14863-040863FM-15+091499999V0200901N003119999999N009999199+02201+01601999999ADDGA1041+009141999GE19MSL   +99999+99999GF199999041999009141999999MA1102101999999REMMET051METAR SBQV 031200Z 09006KT 9999 SCT030 22/16 Q1021=
0142833440999992017030313004-14863-040863FM-15+091499999V0201201N004119999999N009999199+02401+01501999999ADDGA1041+009141999GE19MSL   +99999+99999GF199999041999009141999999MA1102101999999REMMET051METAR SBQV 031300Z 12008KT 9999 SCT030 24/15 Q1021=
0142833440999992017030314004-14863-040863FM-15+091499999V0200901N002619999999N009999199+02701+01501999999ADDGA1041+009141999GE19MSL   +99999+99999GF199999041999009141999999MA1102001999999REMMET051METAR SBQV 031400Z 09005KT 9999 SCT030 27/15 Q1020=
0142833440999992017030315004-14863-040863FM-15+091499999V0201301N003119999999N009999199+02701+01501999999ADDGA1041+009141999GE19MSL   +99999+99999GF199999041999009141999999MA1102001999999REMMET051METAR SBQV 031500Z 13006KT 9999 SCT030 27/15 Q1020=
0142833440999992017030316004-14863-040863FM-15+091499999V0201301N004619999999N009999199+02801+01601999999ADDGA1041+009141999GE19MSL   +99999+99999GF199999041999009141999999MA1101901999999REMMET051METAR SBQV 031600Z 13009KT 9999 SCT030 28/16 Q1019=
0142833440999992017030317004-14863-040863FM-15+091499999V0201501N005110091419N009999199+02601+01801999999ADDGA1071+009141999GE19MSL   +99999+99999GF199999071999009141999999MA1101901999999REMMET051METAR SBQV 031700Z 15010KT 9999 BKN030 26/18 Q1019=
0152833440999992017030318004-14886-040801FM-12+088099999V0201401N0046199999999020000199+02721+01821999999ADDAA101999999AZ101061AZ201061GA1021+006001081GA2999+999999001GE19MSL   +99999+99999GF104991021999006001999999MA1999999091671MD1999999+0121REMSYN004BUFR
0142833440999992017030318004-14863-040863FM-15+091499999V0201501N004610091419N009999199+02801+01801999999ADDGA1071+009141999GE19MSL   +99999+99999GF199999071999009141999999MA1101801999999REMMET051METAR SBQV 031800Z 15009KT 9999 BKN030 28/18 Q1018=
0142833440999992017030319004-14863-040863FM-15+091499999V0201701N005719999999N009999199+02701+01701999999ADDGA1041+009141999GE19MSL   +99999+99999GF199999041999009141999999MA1101801999999REMMET051METAR SBQV 031900Z 17011KT 9999 SCT030 27/17 Q1018=
0142833440999992017030320004-14863-040863FM-15+091499999V0201501N007219999999N009999199+02501+01601999999ADDGA1021+009141999GE19MSL   +99999+99999GF199999021999009141999999MA1101801999999REMMET051METAR SBQV 032000Z 15014KT 9999 FEW030 25/16 Q1018=
0142833440999992017030321004-14863-040863FM-15+091499999V0201501N006219999999N009999199+02401+01701999999ADDGA1021+009141999GE19MSL   +99999+99999GF199999021999009141999999MA1101801999999REMMET051METAR SBQV 032100Z 15012KT 9999 FEW030 24/17 Q1018=
0072833440999992017030322004-14863-040863FM-15+091499999V0201201N006219999999Y999999999+02301+01801999999ADDMA1101801999999REMMET045METAR SBQV 032200Z 12012KT CAVOK 23/18 Q1018=
0072833440999992017030323004-14863-040863FM-15+091499999V0201101N005119999999Y999999999+02101+01701999999ADDMA1101801999999REMMET045METAR SBQV 032300Z 11010KT CAVOK 21/17 Q1018=
0072833440999992017030400004-14863-040863FM-15+091499999V0201201N004619999999Y999999999+02101+01701999999ADDMA1101901999999REMMET045METAR SBQV 040000Z 12009KT CAVOK 21/17 Q1019=
0072833440999992017030401004-14863-040863FM-15+091499999V0201201N005719999999Y999999999+02101+01701999999ADDMA1101901999999REMMET045METAR SBQV 040100Z 12011KT CAVOK 21/17 Q1019=
0142833440999992017030409004-14863-040863FM-15+091499999V0201201N003619999999N009999199+01701+01601999999ADDGA1021+003051999GE19MSL   +99999+99999GF199999021999003051999999MA1101801999999REMMET051METAR SBQV 040900Z 12007KT 9999 FEW010 17/16 Q1018=
0142833440999992017030410004-14863-040863FM-15+091499999V0201301N002119999999N009999199+01901+01601999999ADDGA1021+004571999GE19MSL   +99999+99999GF199999021999004571999999MA1101901999999REMMET051METAR SBQV 041000Z 13004KT 9999 FEW015 19/16 Q1019=
0072833440999992017030411004-14863-040863FM-15+091499999V0200801N002619999999Y999999999+02101+01501999999ADDMA1102001999999REMMET045METAR SBQV 041100Z 08005KT CAVOK 21/15 Q1020=
0149833440999992017030412004-14886-040801FM-12+088099999V0201401N0031199999999020000199+02321+01551101371ADDAA101999999AZ101061AZ201061GA1011+003001081GE19MSL   +99999+99999GF101991011999003001999999KA1120N+01561MA1999999091791MD1999999-0181REMSYN004BUFR
0072833440999992017030412004-14863-040863FM-15+091499999V0201201N004119999999Y999999999+02301+01401999999ADDMA1101901999999REMMET045METAR SBQV 041200Z 12008KT CAVOK 23/14 Q1019=
0142833440999992017030414004-14863-040863FM-15+091499999V0209999C000019999999N009999199+02601+01401999999ADDGA1021+009141999GE19MSL   +99999+99999GF199999021999009141999999MA1101901999999REMMET051METAR SBQV 041400Z 00000KT 9999 FEW030 26/14 Q1019=
0142833440999992017030415004-14863-040863FM-15+091499999V0201501N004619999999N009999199+02801+01501999999ADDGA1021+009141999GE19MSL   +99999+99999GF199999021999009141999999MA1101801999999REMMET051METAR SBQV 041500Z 15009KT 9999 FEW030 28/15 Q1018=
0142833440999992017030416004-14863-040863FM-15+091499999V0201501N003619999999N009999199+02801+01501999999ADDGA1041+009141999GE19MSL   +99999+99999GF199999041999009141999999MA1101701999999REMMET051METAR SBQV 041600Z 15007KT 9999 SCT030 28/15 Q1017=
0142833440999992017030417004-14863-040863FM-15+091499999V0201801N004619999999N009999199+02801+01501999999ADDGA1041+012191999GE19MSL   +99999+99999GF199999041999012191999999MA1101601999999REMMET051METAR SBQV 041700Z 18009KT 9999 SCT040 28/15 Q1016=
0152833440999992017030418004-14886-040801FM-12+088099999V0201401N0041199999999020000199+02851+01571999999ADDAA101999999AZ101061AZ201061GA1011+003001081GA2999+999999031GE19MSL   +99999+99999GF102991011999003001999999MA1999999091431MD1999999-0241REMSYN004BUFR
0142833440999992017030418004-14863-040863FM-15+091499999V0201601N006219999999N009999199+02901+01501999999ADDGA1041+012191999GE19MSL   +99999+99999GF199999041999012191999999MA1101601999999REMMET051METAR SBQV 041800Z 16012KT 9999 SCT040 29/15 Q1016=
0149833440999992017030512004-14886-040801FM-12+088099999V0200901N0015199999999020000199+02471+01661101111ADDAA101999999AZ101061AZ201061GA1999+080001001GE19MSL   +99999+99999GF107991999999080001999999KA1120N+01521MA1999999091611MD1999999-0181REMSYN004BUFR
0142833440999992017030514004-14863-040863FM-15+091499999V0209999C000019999999N009999199+02701+01401999999ADDGA1041+012191999GE19MSL   +99999+99999GF199999041999012191999999MA1101701999999REMMET051METAR SBQV 051400Z 00000KT 9999 SCT040 27/14 Q1017=
0142833440999992017030515004-14863-040863FM-15+091499999V0200201N001519999999N009999199+02901+01301999999ADDGA1041+009141999GE19MSL   +99999+99999GF199999041999009141999999MA1101701999999REMMET051METAR SBQV 051500Z 02003KT 9999 SCT030 29/13 Q1017=
0142833440999992017030516004-14863-040863FM-15+091499999V0209999C000019999999N009999199+03101+01201999999ADDGA1041+012191999GE19MSL   +99999+99999GF199999041999012191999999MA1101601999999REMMET051METAR SBQV 051600Z 00000KT 9999 SCT040 31/12 Q1016=
0142833440999992017030517004-14863-040863FM-15+091499999V0209999C000019999999N009999199+03101+01201999999ADDGA1041+012191999GE19MSL   +99999+99999GF199999041999012191999999MA1101501999999REMMET051METAR SBQV 051700Z 00000KT 9999 SCT040 31/12 Q1015=
0168833440999992017030518004-14886-040801FM-12+088099999V0201401N0031199999999020000199+02921+01671999999ADDAA101999999AZ101061AZ201061GA1021+003001081GA2999+999999031GA3999+999999001GE19MSL   +99999+99999GF106991021999003001999999MA1999999091291MD1999999-0141REMSYN004BUFR
0142833440999992017030518004-14863-040863FM-15+091499999V0201701N003610121919N009999199+03101+01601999999ADDGA1071+012191999GE19MSL   +99999+99999GF199999071999012191999999MA1101401999999REMMET051METAR SBQV 051800Z 17007KT 9999 BKN040 31/16 Q1014=
0142833440999992017030519004-14863-040863FM-15+091499999V0201601N004119999999N009999199+02901+01601999999ADDGA1021+012191999GE19MSL   +99999+99999GF199999021999012191999999MA1101401999999REMMET051METAR SBQV 051900Z 16008KT 9999 FEW040 29/16 Q1014=
0142833440999992017030520004-14863-040863FM-15+091499999V0201601N004619999999N009999199+02701+01501999999ADDGA1041+012191999GE19MSL   +99999+99999GF199999041999012191999999MA1101401999999REMMET051METAR SBQV 052000Z 16009KT 9999 SCT040 27/15 Q1014=
0142833440999992017030521004-14863-040863FM-15+091499999V0201401N004119999999N009999199+02601+01601999999ADDGA1021+012191999GE19MSL   +99999+99999GF199999021999012191999999MA1101401999999REMMET051METAR SBQV 052100Z 14008KT 9999 FEW040 26/16 Q1014=
0072833440999992017030522004-14863-040863FM-15+091499999V0201301N003619999999Y999999999+02501+01601999999ADDMA1101501999999REMMET045METAR SBQV 052200Z 13007KT CAVOK 25/16 Q1015=
0072833440999992017030523004-14863-040863FM-15+091499999V0201201N004119999999Y999999999+02301+01601999999ADDMA1101501999999REMMET045METAR SBQV 052300Z 12008KT CAVOK 23/16 Q1015=
0072833440999992017030600004-14863-040863FM-15+091499999V0201401N004119999999Y999999999+02401+01601999999ADDMA1101501999999REMMET045METAR SBQV 060000Z 14008KT CAVOK 24/16 Q1015=
0072833440999992017030601004-14863-040863FM-15+091499999V0201301N004619999999Y999999999+02301+01601999999ADDMA1101501999999REMMET045METAR SBQV 060100Z 13009KT CAVOK 23/16 Q1015=
0142833440999992017030608004-14863-040863FM-15+091499999V0200601N002119999999N009999199+01901+01601999999ADDGA1021+006101999GE19MSL   +99999+99999GF199999021999006101999999MA1101601999999REMMET051METAR SBQV 060800Z 06004KT 9999 FEW020 19/16 Q1016=
0142833440999992017030609004-14863-040863FM-15+091499999V0200501N004119999999N009999199+01901+01501999999ADDGA1041+006101999GE19MSL   +99999+99999GF199999041999006101999999MA1101701999999REMMET051METAR SBQV 060900Z 05008KT 9999 SCT020 19/15 Q1017=
0142833440999992017030610004-14863-040863FM-15+091499999V0200201N002619999999N009999199+02001+01701999999ADDGA1041+006101999GE19MSL   +99999+99999GF199999041999006101999999MA1101801999999REMMET051METAR SBQV 061000Z 02005KT 9999 SCT020 20/17 Q1018=
0142833440999992017030611004-14863-040863FM-15+091499999V0200201N002619999999N009999199+02101+01701999999ADDGA1021+007621999GE19MSL   +99999+99999GF199999021999007621999999MA1101801999999REMMET051METAR SBQV 061100Z 02005KT 9999 FEW025 21/17 Q1018=
0149833440999992017030612004-14886-040801FM-12+088099999V0200501N0021199999999020000199+02421+01791101211ADDAA101999999AZ101061AZ201061GA1041+006001081GE19MSL   +99999+99999GF104991041999006001999999KA1120N+01681MA1999999091701MD1999999+0091REMSYN004BUFR
0142833440999992017030612004-14863-040863FM-15+091499999V0200801N001519999999N009999199+02301+01701999999ADDGA1021+009141999GE19MSL   +99999+99999GF199999021999009141999999MA1101901999999REMMET051METAR SBQV 061200Z 08003KT 9999 FEW030 23/17 Q1019=
0142833440999992017030613004-14863-040863FM-15+091499999V0200401N002619999999N009999199+02601+01701999999ADDGA1021+009141999GE19MSL   +99999+99999GF199999021999009141999999MA1101801999999REMMET051METAR SBQV 061300Z 04005KT 9999 FEW030 26/17 Q1018=
0142833440999992017030614004-14863-040863FM-15+091499999V0202201N001519999999N009999199+02801+01701999999ADDGA1041+009141999GE19MSL   +99999+99999GF199999041999009141999999MA1101801999999REMMET051METAR SBQV 061400Z 22003KT 9999 SCT030 28/17 Q1018=
0142833440999992017030615004-14863-040863FM-15+091499999V0202001N002619999999N009999199+02801+01401999999ADDGA1041+009141999GE19MSL   +99999+99999GF199999041999009141999999MA1101701999999REMMET051METAR SBQV 061500Z 20005KT 9999 SCT030 28/14 Q1017=
0142833440999992017030616004-14863-040863FM-15+091499999V0201401N005719999999N009999199+02901+01601999999ADDGA1041+009141999GE19MSL   +99999+99999GF199999041999009141999999MA1101601999999REMMET051METAR SBQV 061600Z 14011KT 9999 SCT030 29/16 Q1016=
0142833440999992017030617004-14863-040863FM-15+091499999V0202501N002119999999N009999199+02801+01501999999ADDGA1041+009141999GE19MSL   +99999+99999GF199999041999009141999999MA1101601999999REMMET051METAR SBQV 061700Z 25004KT 9999 SCT030 28/15 Q1016=
0136833440999992017030618004-14886-040801FM-12+088099999V0201401N0031199999999020000199+02911+01651999999ADDAA101999999AZ101061AZ201061GA1031+006001081GE19MSL   +99999+99999GF103991031999006001999999MA1999999091401MD1999999+0111REMSYN004BUFR
0142833440999992017030618004-14863-040863FM-15+091499999V0201701N004619999999N009999199+03101+01601999999ADDGA1041+012191999GE19MSL   +99999+99999GF199999041999012191999999MA1101501999999REMMET051METAR SBQV 061800Z 17009KT 9999 SCT040 31/16 Q1015=
0142833440999992017030620004-14863-040863FM-15+091499999V0201601N005719999999N009999199+02901+01201999999ADDGA1021+012191999GE19MSL   +99999+99999GF199999021999012191999999MA1101501999999REMMET051METAR SBQV 062000Z 16011KT 9999 FEW040 29/12 Q1015=
0142833440999992017030621004-14863-040863FM-15+091499999V0201501N006219999999N009999199+02701+01401999999ADDGA1021+012191999GE19MSL   +99999+99999GF199999021999012191999999MA1101601999999REMMET051METAR SBQV 062100Z 15012KT 9999 FEW040 27/14 Q1016=
0072833440999992017030622004-14863-040863FM-15+091499999V0201301N003619999999Y999999999+02501+01401999999ADDMA1101601999999REMMET045METAR SBQV 062200Z 13007KT CAVOK 25/14 Q1016=
0072833440999992017030623004-14863-040863FM-15+091499999V0201401N004119999999Y999999999+02401+01401999999ADDMA1101601999999REMMET045METAR SBQV 062300Z 14008KT CAVOK 24/14 Q1016=
0072833440999992017030700004-14863-040863FM-15+091499999V0201401N004619999999Y999999999+02201+01701999999ADDMA1101701999999REMMET045METAR SBQV 070000Z 14009KT CAVOK 22/17 Q1017=
0072833440999992017030701004-14863-040863FM-15+091499999V0201401N005119999999Y999999999+02201+01801999999ADDMA1101701999999REMMET045METAR SBQV 070100Z 14010KT CAVOK 22/18 Q1017=
0072833440999992017030708004-14863-040863FM-15+091499999V0201301N003119999999Y999999999+01901+01701999999ADDMA1101701999999REMMET045METAR SBQV 070800Z 13006KT CAVOK 19/17 Q1017=
0072833440999992017030709004-14863-040863FM-15+091499999V0200801N003619999999Y999999999+01901+01701999999ADDMA1101801999999REMMET045METAR SBQV 070900Z 08007KT CAVOK 19/17 Q1018=
0072833440999992017030710004-14863-040863FM-15+091499999V0200701N004119999999Y999999999+02001+01701999999ADDMA1101801999999REMMET045METAR SBQV 071000Z 07008KT CAVOK 20/17 Q1018=
0142833440999992017030711004-14863-040863FM-15+091499999V0200701N003619999999N009999199+02101+01701999999ADDGA1021+009141999GE19MSL   +99999+99999GF199999021999009141999999MA1101901999999REMMET051METAR SBQV 071100Z 07007KT 9999 FEW030 21/17 Q1019=
0149833440999992017030712004-14886-040801FM-12+088099999V0200501N0031100600199020000199+02451+01741101311ADDAA101999999AZ101061AZ201061GA1061+006001081GE19MSL   +99999+99999GF106991061999006001999999KA1120N+01581MA1999999091791MD1999999+0091REMSYN004BUFR
0142833440999992017030712004-14863-040863FM-15+091499999V0200701N003619999999N009999199+02301+01601999999ADDGA1041+009141999GE19MSL   +99999+99999GF199999041999009141999999MA1101901999999REMMET051METAR SBQV 071200Z 07007KT 9999 SCT030 23/16 Q1019=
0142833440999992017030713004-14863-040863FM-15+091499999V0201501N003119999999N009999199+02501+01401999999ADDGA1041+009141999GE19MSL   +99999+99999GF199999041999009141999999MA1101901999999REMMET051METAR SBQV 071300Z 15006KT 9999 SCT030 25/14 Q1019=
0142833440999992017030714004-14863-040863FM-15+091499999V0201701N002119999999N009999199+02701+01401999999ADDGA1021+012191999GE19MSL   +99999+99999GF199999021999012191999999MA1101901999999REMMET051METAR SBQV 071400Z 17004KT 9999 FEW040 27/14 Q1019=
0142833440999992017030715004-14863-040863FM-15+091499999V0201501N006219999999N009999199+02701+01501999999ADDGA1021+012191999GE19MSL   +99999+99999GF199999021999012191999999MA1101801999999REMMET051METAR SBQV 071500Z 15012KT 9999 FEW040 27/15 Q1018=
0152833440999992017030718004-14886-040801FM-12+088099999V0201401N0031199999999020000199+02901+01401999999ADDAA101999999AZ101061AZ201061GA1021+006001081GA2999+999999001GE19MSL   +99999+99999GF103991021999006001999999MA1999999091491MD1999999+0091REMSYN004BUFR
0072833440999992017030800004-14863-040863FM-15+091499999V0201401N003119999999Y999999999+02201+01501999999ADDMA1101801999999REMMET045METAR SBQV 080000Z 14006KT CAVOK 22/15 Q1018=
0072833440999992017030801004-14863-040863FM-15+091499999V0201201N004119999999Y999999999+02101+01601999999ADDMA1101801999999REMMET045METAR SBQV 080100Z 12008KT CAVOK 21/16 Q1018=
0072833440999992017030808004-14863-040863FM-15+091499999V0201001N002619999999Y999999999+01801+01401999999ADDMA1101801999999REMMET045METAR SBQV 080800Z 10005KT CAVOK 18/14 Q1018=
0142833440999992017030809004-14863-040863FM-15+091499999V0201101N001519999999N009999199+01801+01401999999ADDGA1021+007621999GE19MSL   +99999+99999GF199999021999007621999999MA1101801999999REMMET051METAR SBQV 080900Z 11003KT 9999 FEW025 18/14 Q1018=
0072833440999992017030810004-14863-040863FM-15+091499999V0201401N002619999999Y999999999+02001+01501999999ADDMA1101901999999REMMET045METAR SBQV 081000Z 14005KT CAVOK 20/15 Q1019=
0181833440999992017030812004-14886-040801FM-12+088099999V0200901N0031199999999020000199+02321+01651101391ADDAA101999999AZ101061AZ201061GA1021+003001081GA2999+999999031GA3999+999999011GE19MSL   +99999+99999GF106991021999003001999999KA1120N+01541MA1999999091831MD1999999+0041REMSYN004BUFR
0142833440999992017030812004-14863-040863FM-15+091499999V0201201N004619999999N009999199+02301+01501999999ADDGA1021+012191999GE19MSL   +99999+99999GF199999021999012191999999MA1102001999999REMMET051METAR SBQV 081200Z 12009KT 9999 FEW040 23/15 Q1020=
0072833440999992017030813004-14863-040863FM-15+091499999V0201101N004619999999Y999999999+02501+01401999999ADDMA1102001999999REMMET045METAR SBQV 081300Z 11009KT CAVOK 25/14 Q1020=
0072833440999992017030814004-14863-040863FM-15+091499999V0201201N004619999999Y999999999+02501+01401999999ADDMA1101901999999REMMET045METAR SBQV 081400Z 12009KT CAVOK 25/14 Q1019=
0072833440999992017030815004-14863-040863FM-15+091499999V0201601N006219999999Y999999999+02701+01401999999ADDMA1101801999999REMMET045METAR SBQV 081500Z 16012KT CAVOK 27/14 Q1018=
0072833440999992017030816004-14863-040863FM-15+091499999V0201401N005119999999Y999999999+02701+01401999999ADDMA1101801999999REMMET045METAR SBQV 081600Z 14010KT CAVOK 27/14 Q1018=
0152833440999992017030818004-14886-040801FM-12+088099999V0201401N0041199999999020000199+02851+01431999999ADDAA101999999AZ101061AZ201061GA1031+003001061GA2999+999999051GE19MSL   +99999+99999GF104991031999003001999999MA1999999091501MD1999999+0011REMSYN004BUFR
0142833440999992017030818004-14863-040863FM-15+091499999V0201401N006719999999N009999199+02701+01401999999ADDGA1021+009141999GE19MSL   +99999+99999GF199999021999009141999999MA1101601999999REMMET051METAR SBQV 081800Z 14013KT 9999 FEW030 27/14 Q1016=
0072833440999992017030819004-14863-040863FM-15+091499999V0201401N005119999999Y999999999+02701+01301999999ADDMA1101601999999REMMET045METAR SBQV 081900Z 14010KT CAVOK 27/13 Q1016=
0072833440999992017030820004-14863-040863FM-15+091499999V0201401N005719999999Y999999999+02801+01401999999ADDMA1101601999999REMMET045METAR SBQV 082000Z 14011KT CAVOK 28/14 Q1016=
0072833440999992017030821004-14863-040863FM-15+091499999V0201501N005719999999Y999999999+02501+01301999999ADDMA1101601999999REMMET045METAR SBQV 082100Z 15011KT CAVOK 25/13 Q1016=
0072833440999992017030822004-14863-040863FM-15+091499999V0201501N004119999999Y999999999+02301+01301999999ADDMA1101701999999REMMET045METAR SBQV 082200Z 15008KT CAVOK 23/13 Q1017=
0072833440999992017030823004-14863-040863FM-15+091499999V0201601N005119999999Y999999999+02301+01401999999ADDMA1101801999999REMMET045METAR SBQV 082300Z 16010KT CAVOK 23/14 Q1018=
0072833440999992017030900004-14863-040863FM-15+091499999V0201101N004619999999Y999999999+02301+01601999999ADDMA1101801999999REMMET045METAR SBQV 090000Z 11009KT CAVOK 23/16 Q1018=
0072833440999992017030901004-14863-040863FM-15+091499999V0201201N005119999999Y999999999+02101+01601999999ADDMA1101901999999REMMET045METAR SBQV 090100Z 12010KT CAVOK 21/16 Q1019=
0072833440999992017030908004-14863-040863FM-15+091499999V0201301N002619999999Y999999999+01801+01501999999ADDMA1101801999999REMMET045METAR SBQV 090800Z 13005KT CAVOK 18/15 Q1018=
0142833440999992017030909004-14863-040863FM-15+091499999V0201401N002619999999N009999199+01701+01501999999ADDGA1041+006101999GE19MSL   +99999+99999GF199999041999006101999999MA1101801999999REMMET051METAR SBQV 090900Z 14005KT 9999 SCT020 17/15 Q1018=
0142833440999992017030910004-14863-040863FM-15+091499999V0201501N003619999999N009999199+01801+01601999999ADDGA1041+006101999GE19MSL   +99999+99999GF199999041999006101999999MA1101901999999REMMET051METAR SBQV 091000Z 15007KT 9999 SCT020 18/16 Q1019=
0142833440999992017030911004-14863-040863FM-15+091499999V0201101N004619999999N009999199+02101+01301999999ADDGA1021+006101999GE19MSL   +99999+99999GF199999021999006101999999MA1101901999999REMMET051METAR SBQV 091100Z 11009KT 9999 FEW020 21/13 Q1019=
0149833440999992017030912004-14886-040801FM-12+088099999V0200901N0031199999999020000199+02411+01321101321ADDAA101999999AZ101061AZ201061GA1021+003001081GE19MSL   +99999+99999GF102991021999003001999999KA1120N+01421MA1999999091781MD1999999-0051REMSYN004BUFR
0142833440999992017030912004-14863-040863FM-15+091499999V0201101N006219999999N009999199+02201+01101999999ADDGA1021+009141999GE19MSL   +99999+99999GF199999021999009141999999MA1102001999999REMMET051METAR SBQV 091200Z 11012KT 9999 FEW030 22/11 Q1020=
0142833440999992017030913004-14863-040863FM-15+091499999V0201201N006219999999N009999199+02501+01201999999ADDGA1021+009141999GE19MSL   +99999+99999GF199999021999009141999999MA1101901999999REMMET051METAR SBQV 091300Z 12012KT 9999 FEW030 25/12 Q1019=
0072833440999992017030914004-14863-040863FM-15+091499999V0201201N006719999999Y999999999+02801+01001999999ADDMA1101901999999REMMET045METAR SBQV 091400Z 12013KT CAVOK 28/10 Q1019=
0142833440999992017030915004-14863-040863FM-15+091499999V0201301N006219999999N009999199+02701+01101999999ADDGA1021+009141999GE19MSL   +99999+99999GF199999021999009141999999MA1101801999999REMMET051METAR SBQV 091500Z 13012KT 9999 FEW030 27/11 Q1018=
0142833440999992017030917004-14863-040863FM-15+091499999V0201101N005119999999N009999199+02901+01301999999ADDGA1021+012191999GE19MSL   +99999+99999GF199999021999012191999999MA1101601999999REMMET051METAR SBQV 091700Z 11010KT 9999 FEW040 29/13 Q1016=
0136833440999992017030918004-14886-040801FM-12+088099999V0200901N0036199999999020000199+02821+01581999999ADDAA101999999AZ101061AZ201061GA1041+003001081GE19MSL   +99999+99999GF104991041999003001999999MA1999999091471MD1999999-0031REMSYN004BUFR
0142833440999992017030919004-14863-040863FM-15+091499999V0201501N006719999999N009999199+02701+01701999999ADDGA1041+012191999GE19MSL   +99999+99999GF199999041999012191999999MA1101601999999REMMET051METAR SBQV 091900Z 15013KT 9999 SCT040 27/17 Q1016=
0142833440999992017030920004-14863-040863FM-15+091499999V0201501N006719999999N009999199+02601+01701999999ADDGA1041+012191999GE19MSL   +99999+99999GF199999041999012191999999MA1101701999999REMMET051METAR SBQV 092000Z 15013KT 9999 SCT040 26/17 Q1017=
0142833440999992017030921004-14863-040863FM-15+091499999V0201401N007219999999N009999199+02301+01701999999ADDGA1041+012191999GE19MSL   +99999+99999GF199999041999012191999999MA1101701999999REMMET051METAR SBQV 092100Z 14014KT 9999 SCT040 23/17 Q1017=
0072833440999992017030922004-14863-040863FM-15+091499999V0201301N005119999999Y999999999+02101+01701999999ADDMA1101701999999REMMET045METAR SBQV 092200Z 13010KT CAVOK 21/17 Q1017=
0072833440999992017031000004-14863-040863FM-15+091499999V0201001N005719999999Y999999999+02001+01701999999ADDMA1101801999999REMMET045METAR SBQV 100000Z 10011KT CAVOK 20/17 Q1018=
0072833440999992017031001004-14863-040863FM-15+091499999V0201101N006219999999Y999999999+01901+01701999999ADDMA1101901999999REMMET045METAR SBQV 100100Z 11012KT CAVOK 19/17 Q1019=
0142833440999992017031008004-14863-040863FM-15+091499999V0201401N003619999999N009999199+01801+01601999999ADDGA1041+006101999GE19MSL   +99999+99999GF199999041999006101999999MA1101801999999REMMET051METAR SBQV 100800Z 14007KT 9999 SCT020 18/16 Q1018=
0142833440999992017031010004-14863-040863FM-15+091499999V0201401N005710061019N009999199+01701+01601999999ADDGA1071+006101999GE19MSL   +99999+99999GF199999071999006101999999MA1101901999999REMMET051METAR SBQV 101000Z 14011KT 9999 BKN020 17/16 Q1019=
0142833440999992017031011004-14863-040863FM-15+091499999V0201401N005719999999N009999199+01901+01601999999ADDGA1041+006101999GE19MSL   +99999+99999GF199999041999006101999999MA1102001999999REMMET051METAR SBQV 101100Z 14011KT 9999 SCT020 19/16 Q1020=
0149833440999992017031012004-14886-040801FM-12+088099999V0200901N0031101250199020000199+02321+01671101421ADDAA101999999AZ101061AZ201061GA1061+012501061GE19MSL   +99999+99999GF106991061999012501999999KA1120N+01581MA1999999091841MD1999999+0061REMSYN004BUFR
0142833440999992017031012004-14863-040863FM-15+091499999V0201401N006219999999N009999199+02201+01501999999ADDGA1041+007621999GE19MSL   +99999+99999GF199999041999007621999999MA1102001999999REMMET051METAR SBQV 101200Z 14012KT 9999 SCT025 22/15 Q1020=
0142833440999992017031013004-14863-040863FM-15+091499999V0201201N004619999999N009999199+02401+01501999999ADDGA1021+009141999GE19MSL   +99999+99999GF199999021999009141999999MA1102001999999REMMET051METAR SBQV 101300Z 12009KT 9999 FEW030 24/15 Q1020=
0142833440999992017031014004-14863-040863FM-15+091499999V0201601N006719999999N009999199+02601+01401999999ADDGA1021+012191999GE19MSL   +99999+99999GF199999021999012191999999MA1102001999999REMMET051METAR SBQV 101400Z 16013KT 9999 FEW040 26/14 Q1020=
0142833440999992017031016004-14863-040863FM-15+091499999V0201201N007219999999N009999199+02701+01501999999ADDGA1041+010671999GE19MSL   +99999+99999GF199999041999010671999999MA1101801999999REMMET051METAR SBQV 101600Z 12014KT 9999 SCT035 27/15 Q1018=
0142833440999992017031017004-14863-040863FM-15+091499999V0201101N005110106719N009999199+02701+01601999999ADDGA1071+010671999GE19MSL   +99999+99999GF199999071999010671999999MA1101801999999REMMET051METAR SBQV 101700Z 11010KT 9999 BKN035 27/16 Q1018=
0174833440999992017031018004-14886-040801FM-12+088099999V0201401N0051100300199004000199+02371+01791999999ADDAA101999999AY121061AY221061GA1081+003001071GA2999+999999101GA3999+999999101GE19MSL   +99999+99999GF108991081999003001999999MA1999999091641MD1999999+0171MW1151REMSYN004BUFR
0142833440999992017031018004-14863-040863FM-15+091499999V0201501N006710091419N009999199+02601+01701999999ADDGA1071+009141999GE19MSL   +99999+99999GF199999071999009141999999MA1101801999999REMMET051METAR SBQV 101800Z 15013KT 9999 BKN030 26/17 Q1018=
0142833440999992017031019004-14863-040863FM-15+091499999V0201501N009310061019N009999199+02301+01801999999ADDGA1071+006101999GE19MSL   +99999+99999GF199999071999006101999999MA1101801999999REMMET051METAR SBQV 101900Z 15018KT 9999 BKN020 23/18 Q1018=
0142833440999992017031021004-14863-040863FM-15+091499999V0201501N005119999999N009999199+02001+01901999999ADDGA1041+003051999GE19MSL   +99999+99999GF199999041999003051999999MA1101901999999REMMET051METAR SBQV 102100Z 15010KT 9999 SCT010 20/19 Q1019=
0142833440999992017031022004-14863-040863FM-15+091499999V0201501N004619999999N009999199+02101+01901999999ADDGA1041+002441999GE19MSL   +99999+99999GF199999041999002441999999MA1101801999999REMMET051METAR SBQV 102200Z 15009KT 9999 SCT008 21/19 Q1018=
0142833440999992017031023004-14863-040863FM-15+091499999V0201501N005119999999N009999199+02001+01801999999ADDGA1041+002441999GE19MSL   +99999+99999GF199999041999002441999999MA1101901999999REMMET051METAR SBQV 102300Z 15010KT 9999 SCT008 20/18 Q1019=
0142833440999992017031100004-14863-040863FM-15+091499999V0201401N006210015219N009999199+02001+01801999999ADDGA1071+001521999GE19MSL   +99999+99999GF199999071999001521999999MA1101901999999REMMET051METAR SBQV 110000Z 14012KT 9999 BKN005 20/18 Q1019=
0142833440999992017031101004-14863-040863FM-15+091499999V0201501N006219999999N009999199+02001+01801999999ADDGA1041+002131999GE19MSL   +99999+99999GF199999041999002131999999MA1101901999999REMMET051METAR SBQV 110100Z 15012KT 9999 SCT007 20/18 Q1019=
0142833440999992017031108004-14863-040863FM-15+091499999V0201401N001519999999N009999199+01701+01601999999ADDGA1041+002441999GE19MSL   +99999+99999GF199999041999002441999999MA1101801999999REMMET051METAR SBQV 110800Z 14003KT 9999 SCT008 17/16 Q1018=
0142833440999992017031109004-14863-040863FM-15+091499999V0201701N002119999999N009999199+01701+01601999999ADDGA1041+002441999GE19MSL   +99999+99999GF199999041999002441999999MA1101801999999REMMET051METAR SBQV 110900Z 17004KT 9999 SCT008 17/16 Q1018=
0142833440999992017031110004-14863-040863FM-15+091499999V0201701N002119999999N009999199+01801+01701999999ADDGA1041+002131999GE19MSL   +99999+99999GF199999041999002131999999MA1101901999999REMMET051METAR SBQV 111000Z 17004KT 9999 SCT007 18/17 Q1019=
0151833440999992017031111004-14863-040863FM-15+091499999V0201401N002610015219N001500199+01901+01801999999ADDGA1071+001521999GE19MSL   +99999+99999GF199999071999001521999999MA1102001999999MW1101REMMET054METAR SBQV 111100Z 14005KT 1500 BR BKN005 19/18 Q1020=
0187833440999992017031112004-14886-040801FM-12+088099999V0203601N0000100200199002000199+02001+01931101481ADDAA124002031AY151061AY221061GA1081+002001071GA2999+999999101GA3999+999999101GE19MSL   +99999+99999GF108991081999002001999999KA1120N+01481MA1999999091831MD1999999-0011MW1501REMSYN004BUFR
0142833440999992017031112004-14863-040863FM-15+091499999V0201401N002610021319N009999199+02001+01801999999ADDGA1071+002131999GE19MSL   +99999+99999GF199999071999002131999999MA1102001999999REMMET051METAR SBQV 111200Z 14005KT 9999 BKN007 20/18 Q1020=
0142833440999992017031113004-14863-040863FM-15+091499999V0201601N003110024419N009999199+02101+01801999999ADDGA1071+002441999GE19MSL   +99999+99999GF199999071999002441999999MA1102001999999REMMET051METAR SBQV 111300Z 16006KT 9999 BKN008 21/18 Q1020=
0142833440999992017031114004-14863-040863FM-15+091499999V0201501N003610024419N009999199+02201+01801999999ADDGA1071+002441999GE19MSL   +99999+99999GF199999071999002441999999MA1101901999999REMMET051METAR SBQV 111400Z 15007KT 9999 BKN008 22/18 Q1019=
0142833440999992017031115004-14863-040863FM-15+091499999V0201301N003610045719N009999199+02301+01701999999ADDGA1071+004571999GE19MSL   +99999+99999GF199999071999004571999999MA1101901999999REMMET051METAR SBQV 111500Z 13007KT 9999 BKN015 23/17 Q1019=
0142833440999992017031116004-14863-040863FM-15+091499999V0201601N005710061019N009999199+02701+01701999999ADDGA1071+006101999GE19MSL   +99999+99999GF199999071999006101999999MA1101801999999REMMET051METAR SBQV 111600Z 16011KT 9999 BKN020 27/17 Q1018=
0174833440999992017031118004-14886-040801FM-12+088099999V0200901N0036100200199010000199+02401+01971999999ADDAA106000231AY151061AY221061GA1081+002001071GA2999+999999101GA3999+999999101GE19MSL   +99999+99999GF108991081999002001999999MA1999999091581MD1999999-0061MW1151REMSYN004BUFR
0142833440999992017031118004-14863-040863FM-15+091499999V0201401N005710076219N009999199+02401+01601999999ADDGA1071+007621999GE19MSL   +99999+99999GF199999071999007621999999MA1101701999999REMMET051METAR SBQV 111800Z 14011KT 9999 BKN025 24/16 Q1017=
0165833440999992017031212004-14886-040801FM-12+088099999V0200901N0041199999999020000199+02221+01711101451ADDAA124000331AZ101061AZ201061GA1021+003001071GA2999+999999031GE19MSL   +99999+99999GF105991021999003001999999KA1120N+01661MA1999999091841MD1999999+0011REMSYN004BUFR
0142833440999992017031214004-14863-040863FM-15+091499999V0201501N003610076219N009999199+02301+01601999999ADDGA1071+007621999GE19MSL   +99999+99999GF199999071999007621999999MA1101901999999REMMET051METAR SBQV 121400Z 15007KT 9999 BKN025 23/16 Q1019=
0175833440999992017031215004-14863-040863FM-15+091499999V0201401N003610076219N009999199+02301+01701999999ADDGA1041+004571999GA2071+007621999GE19MSL   +99999+99999GF199999041999004571999999MA1101901999999MW1611REMMET062METAR SBQV 121500Z 14007KT 9999 -RA SCT015 BKN025 23/17 Q1019=
0165833440999992017031216004-14863-040863FM-15+091499999V0201101N002110213419N009999199+02201+01801999999ADDGA1041+006101999GA2071+021341999GE19MSL   +99999+99999GF199999041999006101999999MA1101801999999REMMET058METAR SBQV 121600Z 11004KT 9999 SCT020 BKN070 22/18 Q1018=
0165833440999992017031217004-14863-040863FM-15+091499999V0201801N00211021341CN009999199+02401+01701999999ADDGA1041+007621999GA2041+021341999GE19MSL   +99999+99999GF199999041999007621999999MA1101701999999REMMET058METAR SBQV 121700Z 18004KT 9999 SCT025 SCT070 24/17 Q1017=
0168833440999992017031218004-14886-040801FM-12+088099999V0201401N0051100300199020000199+02271+01791999999ADDAA101999999AZ101061AZ201061GA1081+003001071GA2999+999999101GA3999+999999101GE19MSL   +99999+99999GF108991081999003001999999MA1999999091561MD1999999-0021REMSYN004BUFR
0198833440999992017031218004-14863-040863FM-15+091499999V0201301N008210076219N009999199+02501+02001999999ADDGA1041+006101999GA2071+007621999GA3071+021341999GE19MSL   +99999+99999GF199999041999006101999999MA1101701999999MW1611REMMET069METAR SBQV 121800Z 13016KT 9999 -RA SCT020 BKN025 BKN070 25/20 Q1017=
0188833440999992017031219004-14863-040863FM-15+091499999V0201401N00361007621CN009999199+02201+01901999999ADDGA1021+006101999GA2041+007621999GA3071+021341999GE19MSL   +99999+99999GF199999021999006101999999MA1101701999999REMMET065METAR SBQV 121900Z 14007KT 9999 FEW020 SCT025 BKN070 22/19 Q1017=
0165833440999992017031221004-14863-040863FM-15+091499999V0201201N002610304819N009999199+02201+01901999999ADDGA1041+012191999GA2071+030481999GE19MSL   +99999+99999GF199999041999012191999999MA1101701999999REMMET058METAR SBQV 122100Z 12005KT 9999 SCT040 BKN100 22/19 Q1017=
0165833440999992017031222004-14863-040863FM-15+091499999V0201301N003610304819N009999199+02001+01901999999ADDGA1041+012191999GA2071+030481999GE19MSL   +99999+99999GF199999041999012191999999MA1101701999999REMMET058METAR SBQV 122200Z 13007KT 9999 SCT040 BKN100 20/19 Q1017=
0072833440999992017031301004-14863-040863FM-15+091499999V0201201N005719999999Y999999999+02001+01701999999ADDMA1101801999999REMMET045METAR SBQV 130100Z 12011KT CAVOK 20/17 Q1018=
0165833440999992017031308004-14863-040863FM-15+091499999V0201301N003610243819N009999199+01701+01601999999ADDGA1041+003051999GA2071+024381999GE19MSL   +99999+99999GF199999041999003051999999MA1101801999999REMMET058METAR SBQV 130800Z 13007KT 9999 SCT010 BKN080 17/16 Q1018=
0165833440999992017031309004-14863-040863FM-15+091499999V0201301N004610030519N009999199+01801+01601999999ADDGA1071+003051999GA2071+024381999GE19MSL   +99999+99999GF199999071999003051999999MA1101801999999REMMET058METAR SBQV 130900Z 13009KT 9999 BKN010 BKN080 18/16 Q1018=
0142833440999992017031310004-14863-040863FM-15+091499999V0201401N005719999999N009999199+01801+01601999999ADDGA1021+003051999GE19MSL   +99999+99999GF199999021999003051999999MA1101901999999REMMET051METAR SBQV 131000Z 14011KT 9999 FEW010 18/16 Q1019=
0142833440999992017031311004-14863-040863FM-15+091499999V0201201N003619999999N009999199+02001+01701999999ADDGA1041+004571999GE19MSL   +99999+99999GF199999041999004571999999MA1102001999999REMMET051METAR SBQV 131100Z 12007KT 9999 SCT015 20/17 Q1020=
0149833440999992017031312004-14886-040801FM-12+088099999V0201401N0015199999999020000199+02171+01741101461ADDAA124002031AZ101061AZ201061GA1031+003001081GE19MSL   +99999+99999GF103991031999003001999999KA1120N+01681MA1999999091831MD1999999-0011REMSYN004BUFR
0142833440999992017031312004-14863-040863FM-15+091499999V0201501N002619999999N009999199+02101+01601999999ADDGA1021+006101999GE19MSL   +99999+99999GF199999021999006101999999MA1102001999999REMMET051METAR SBQV 131200Z 15005KT 9999 FEW020 21/16 Q1020=
0142833440999992017031313004-14863-040863FM-15+091499999V0201601N004119999999N009999199+02301+01501999999ADDGA1021+007621999GE19MSL   +99999+99999GF199999021999007621999999MA1101901999999REMMET051METAR SBQV 131300Z 16008KT 9999 FEW025 23/15 Q1019=
0142833440999992017031314004-14863-040863FM-15+091499999V0201801N004119999999N009999199+02501+01501999999ADDGA1021+010671999GE19MSL   +99999+99999GF199999021999010671999999MA1101901999999REMMET051METAR SBQV 131400Z 18008KT 9999 FEW035 25/15 Q1019=
0142833440999992017031315004-14863-040863FM-15+091499999V0201001N004119999999N009999199+02701+01401999999ADDGA1021+012191999GE19MSL   +99999+99999GF199999021999012191999999MA1101801999999REMMET051METAR SBQV 131500Z 10008KT 9999 FEW040 27/14 Q1018=
0142833440999992017031316004-14863-040863FM-15+091499999V0200701N002119999999N009999199+02801+01301999999ADDGA1021+012191999GE19MSL   +99999+99999GF199999021999012191999999MA1101701999999REMMET051METAR SBQV 131600Z 07004KT 9999 FEW040 28/13 Q1017=
0142833440999992017031317004-14863-040863FM-15+091499999V0201301N003119999999N009999199+02801+01401999999ADDGA1021+012191999GE19MSL   +99999+99999GF199999021999012191999999MA1101601999999REMMET051METAR SBQV 131700Z 13006KT 9999 FEW040 28/14 Q1016=
0136833440999992017031318004-14886-040801FM-12+088099999V0201401N0026199999999020000199+02821+01581999999ADDAA101999999AZ101061AZ201061GA1021+003001081GE19MSL   +99999+99999GF102991021999003001999999MA1999999091421MD1999999-0141REMSYN004BUFR
0142833440999992017031318004-14863-040863FM-15+091499999V0201701N005119999999N009999199+02901+01401999999ADDGA1041+012191999GE19MSL   +99999+99999GF199999041999012191999999MA1101601999999REMMET051METAR SBQV 131800Z 17010KT 9999 SCT040 29/14 Q1016=
0142833440999992017031319004-14863-040863FM-15+091499999V0201401N005119999999N009999199+02701+01201999999ADDGA1041+012191999GE19MSL   +99999+99999GF199999041999012191999999MA1101501999999REMMET051METAR SBQV 131900Z 14010KT 9999 SCT040 27/12 Q1015=
0142833440999992017031320004-14863-040863FM-15+091499999V0201601N005719999999N009999199+02701+01401999999ADDGA1021+012191999GE19MSL   +99999+99999GF199999021999012191999999MA1101501999999REMMET051METAR SBQV 132000Z 16011KT 9999 FEW040 27/14 Q1015=
0142833440999992017031321004-14863-040863FM-15+091499999V0201401N005719999999N009999199+02501+01501999999ADDGA1021+012191999GE19MSL   +99999+99999GF199999021999012191999999MA1101601999999REMMET051METAR SBQV 132100Z 14011KT 9999 FEW040 25/15 Q1016=
0072833440999992017031322004-14863-040863FM-15+091499999V0201301N005119999999Y999999999+02401+01701999999ADDMA1101601999999REMMET045METAR SBQV 132200Z 13010KT CAVOK 24/17 Q1016=
0072833440999992017031323004-14863-040863FM-15+091499999V0201401N004619999999Y999999999+02201+01801999999ADDMA1101701999999REMMET045METAR SBQV 132300Z 14009KT CAVOK 22/18 Q1017=
0072833440999992017031400004-14863-040863FM-15+091499999V0201301N005119999999Y999999999+02101+01801999999ADDMA1101701999999REMMET045METAR SBQV 140000Z 13010KT CAVOK 21/18 Q1017=
0072833440999992017031401004-14863-040863FM-15+091499999V0201301N004619999999Y999999999+02101+01701999999ADDMA1101801999999REMMET045METAR SBQV 140100Z 13009KT CAVOK 21/17 Q1018=
0142833440999992017031408004-14863-040863FM-15+091499999V0201301N004119999999N009999199+01801+01601999999ADDGA1041+003051999GE19MSL   +99999+99999GF199999041999003051999999MA1101801999999REMMET051METAR SBQV 140800Z 13008KT 9999 SCT010 18/16 Q1018=
0142833440999992017031409004-14863-040863FM-15+091499999V0201201N004119999999N009999199+01801+01601999999ADDGA1041+003051999GE19MSL   +99999+99999GF199999041999003051999999MA1101801999999REMMET051METAR SBQV 140900Z 12008KT 9999 SCT010 18/16 Q1018=
0149833440999992017031412004-14886-040801FM-12+088099999V0200901N0031100600199020000199+02401+01661101381ADDAA101999999AZ101061AZ201061GA1061+006001081GE19MSL   +99999+99999GF106991061999006001999999KA1120N+01681MA1999999091841MD1999999+0011REMSYN004BUFR
0142833440999992017031412004-14863-040863FM-15+091499999V0201301N003619999999N009999199+02301+01601999999ADDGA1041+007621999GE19MSL   +99999+99999GF199999041999007621999999MA1102001999999REMMET051METAR SBQV 141200Z 13007KT 9999 SCT025 23/16 Q1020=
0142833440999992017031413004-14863-040863FM-15+091499999V0201301N006219999999N009999199+02401+01501999999ADDGA1041+009141999GE19MSL   +99999+99999GF199999041999009141999999MA1102001999999REMMET051METAR SBQV 141300Z 13012KT 9999 SCT030 24/15 Q1020=
0142833440999992017031414004-14863-040863FM-15+091499999V0201201N005119999999N009999199+02501+01401999999ADDGA1041+010671999GE19MSL   +99999+99999GF199999041999010671999999MA1102001999999REMMET051METAR SBQV 141400Z 12010KT 9999 SCT035 25/14 Q1020=
0142833440999992017031415004-14863-040863FM-15+091499999V0201301N005719999999N009999199+02601+01401999999ADDGA1041+012191999GE19MSL   +99999+99999GF199999041999012191999999MA1101901999999REMMET051METAR SBQV 141500Z 13011KT 9999 SCT040 26/14 Q1019=
0142833440999992017031416004-14863-040863FM-15+091499999V0201401N004619999999N009999199+02701+01301999999ADDGA1021+012191999GE19MSL   +99999+99999GF199999021999012191999999MA1101801999999REMMET051METAR SBQV 141600Z 14009KT 9999 FEW040 27/13 Q1018=
0142833440999992017031417004-14863-040863FM-15+091499999V0201401N005719999999N009999199+02701+01301999999ADDGA1021+012191999GE19MSL   +99999+99999GF199999021999012191999999MA1101701999999REMMET051METAR SBQV 141700Z 14011KT 9999 FEW040 27/13 Q1017=
0152833440999992017031418004-14886-040801FM-12+088099999V0201401N0036199999999020000199+02811+01391999999ADDAA101999999AZ101061AZ201061GA1031+006001081GA2999+999999001GE19MSL   +99999+99999GF107991031999006001999999MA1999999091511MD1999999+0091REMSYN004BUFR
0142833440999992017031419004-14863-040863FM-15+091499999V0201401N006219999999N009999199+02701+01201999999ADDGA1041+012191999GE19MSL   +99999+99999GF199999041999012191999999MA1101601999999REMMET051METAR SBQV 141900Z 14012KT 9999 SCT040 27/12 Q1016=
0142833440999992017031420004-14863-040863FM-15+091499999V0201501N006219999999N009999199+02701+01401999999ADDGA1021+012191999GE19MSL   +99999+99999GF199999021999012191999999MA1101601999999REMMET051METAR SBQV 142000Z 15012KT 9999 FEW040 27/14 Q1016=
0072833440999992017031422004-14863-040863FM-15+091499999V0201401N005719999999Y999999999+02401+01701999999ADDMA1101701999999REMMET045METAR SBQV 142200Z 14011KT CAVOK 24/17 Q1017=
0072833440999992017031423004-14863-040863FM-15+091499999V0201401N004119999999Y999999999+02201+01701999999ADDMA1101701999999REMMET045METAR SBQV 142300Z 14008KT CAVOK 22/17 Q1017=
0072833440999992017031500004-14863-040863FM-15+091499999V0201201N004619999999Y999999999+02201+01801999999ADDMA1101801999999REMMET045METAR SBQV 150000Z 12009KT CAVOK 22/18 Q1018=
0072833440999992017031501004-14863-040863FM-15+091499999V0201301N005719999999Y999999999+02101+01701999999ADDMA1101901999999REMMET045METAR SBQV 150100Z 13011KT CAVOK 21/17 Q1019=
0142833440999992017031508004-14863-040863FM-15+091499999V0201501N003619999999N009999199+01701+01701999999ADDGA1041+001521999GE19MSL   +99999+99999GF199999041999001521999999MA1101801999999REMMET051METAR SBQV 150800Z 15007KT 9999 SCT005 17/17 Q1018=
0142833440999992017031509004-14863-040863FM-15+091499999V0201601N003610021319N009999199+01701+01701999999ADDGA1071+002131999GE19MSL   +99999+99999GF199999071999002131999999MA1101801999999REMMET051METAR SBQV 150900Z 16007KT 9999 BKN007 17/17 Q1018=
0142833440999992017031510004-14863-040863FM-15+091499999V0201601N004110024419N009999199+01801+01701999999ADDGA1071+002441999GE19MSL   +99999+99999GF199999071999002441999999MA1101901999999REMMET051METAR SBQV 151000Z 16008KT 9999 BKN008 18/17 Q1019=
0142833440999992017031511004-14863-040863FM-15+091499999V0201701N005110030519N009999199+02001+01701999999ADDGA1071+003051999GE19MSL   +99999+99999GF199999071999003051999999MA1101901999999REMMET051METAR SBQV 151100Z 17010KT 9999 BKN010 20/17 Q1019=
0181833440999992017031512004-14886-040801FM-12+088099999V0201401N0026100300199020000199+02151+01821101391ADDAA101999999AZ101061AZ201061GA1081+003001071GA2999+999999101GA3999+999999101GE19MSL   +99999+99999GF108991081999003001999999KA1120N+01521MA1999999091811MD1999999-0031REMSYN004BUFR
0142833440999992017031513004-14863-040863FM-15+091499999V0201501N005710061019N009999199+02201+01601999999ADDGA1071+006101999GE19MSL   +99999+99999GF199999071999006101999999MA1102001999999REMMET051METAR SBQV 151300Z 15011KT 9999 BKN020 22/16 Q1020=
0142833440999992017031514004-14863-040863FM-15+091499999V0201401N003610076219N009999199+02301+01701999999ADDGA1071+007621999GE19MSL   +99999+99999GF199999071999007621999999MA1102001999999REMMET051METAR SBQV 151400Z 14007KT 9999 BKN025 23/17 Q1020=
0142833440999992017031515004-14863-040863FM-15+091499999V0201601N004610091419N009999199+02501+01601999999ADDGA1071+009141999GE19MSL   +99999+99999GF199999071999009141999999MA1101901999999REMMET051METAR SBQV 151500Z 16009KT 9999 BKN030 25/16 Q1019=
0165833440999992017031516004-14863-040863FM-15+091499999V0201601N00571024381CN009999199+02601+01601999999ADDGA1041+012191999GA2041+024381999GE19MSL   +99999+99999GF199999041999012191999999MA1101801999999REMMET058METAR SBQV 151600Z 16011KT 9999 SCT040 SCT080 26/16 Q1018=
0165833440999992017031517004-14863-040863FM-15+091499999V0201501N006710243819N009999199+02501+01601999999ADDGA1041+012191999GA2071+024381999GE19MSL   +99999+99999GF199999041999012191999999MA1101801999999REMMET058METAR SBQV 151700Z 15013KT 9999 SCT040 BKN080 25/16 Q1018=
0168833440999992017031518004-14886-040801FM-12+088099999V0200901N0036199999999020000199+02651+01601999999ADDAA101999999AZ101061AZ201061GA1021+006001081GA2999+999999051GA3999+999999001GE19MSL   +99999+99999GF108991021999006001999999MA1999999091601MD1999999+0091REMSYN004BUFR
0165833440999992017031518004-14863-040863FM-15+091499999V0201401N00671021341CN009999199+02601+01601999999ADDGA1041+010671999GA2041+021341999GE19MSL   +99999+99999GF199999041999010671999999MA1101701999999REMMET058METAR SBQV 151800Z 14013KT 9999 SCT035 SCT070 26/16 Q1017=
0165833440999992017031519004-14863-040863FM-15+091499999V0201401N006210213419N009999199+02501+01701999999ADDGA1041+010671999GA2071+021341999GE19MSL   +99999+99999GF199999041999010671999999MA1101701999999REMMET058METAR SBQV 151900Z 14012KT 9999 SCT035 BKN070 25/17 Q1017=
0165833440999992017031520004-14863-040863FM-15+091499999V0201501N005710213419N009999199+02501+01701999999ADDGA1041+010671999GA2071+021341999GE19MSL   +99999+99999GF199999041999010671999999MA1101701999999REMMET058METAR SBQV 152000Z 15011KT 9999 SCT035 BKN070 25/17 Q1017=
0165833440999992017031521004-14863-040863FM-15+091499999V0201201N007210213419N009999199+02301+01601999999ADDGA1021+010671999GA2071+021341999GE19MSL   +99999+99999GF199999021999010671999999MA1101801999999REMMET058METAR SBQV 152100Z 12014KT 9999 FEW035 BKN070 23/16 Q1018=
0072833440999992017031522004-14863-040863FM-15+091499999V0201201N005719999999Y999999999+02101+01601999999ADDMA1101801999999REMMET045METAR SBQV 152200Z 12011KT CAVOK 21/16 Q1018=
0072833440999992017031523004-14863-040863FM-15+091499999V0201101N005119999999Y999999999+02101+01701999999ADDMA1101801999999REMMET045METAR SBQV 152300Z 11010KT CAVOK 21/17 Q1018=
0072833440999992017031600004-14863-040863FM-15+091499999V0201001N005719999999Y999999999+02001+01701999999ADDMA1101901999999REMMET045METAR SBQV 160000Z 10011KT CAVOK 20/17 Q1019=
0165833440999992017031605004-14863-040863FM-15+091499999V0201201N00411021341CN009999199+01801+01601999999ADDGA1041+004571999GA2041+021341999GE19MSL   +99999+99999GF199999041999004571999999MA1101901999999REMMET058METAR SBQV 160500Z 12008KT 9999 SCT015 SCT070 18/16 Q1019=
0165833440999992017031606004-14863-040863FM-15+091499999V0201101N00411021341CN009999199+01901+01701999999ADDGA1041+004571999GA2041+021341999GE19MSL   +99999+99999GF199999041999004571999999MA1101901999999REMMET058METAR SBQV 160600Z 11008KT 9999 SCT015 SCT070 19/17 Q1019=
0165833440999992017031609004-14863-040863FM-15+091499999V0201501N00261021341CN009999199+01801+01701999999ADDGA1021+002131999GA2041+021341999GE19MSL   +99999+99999GF199999021999002131999999MA1101901999999REMMET058METAR SBQV 160900Z 15005KT 9999 FEW007 SCT070 18/17 Q1019=
0165833440999992017031610004-14863-040863FM-15+091499999V0201301N003610213419N009999199+01801+01601999999ADDGA1041+003051999GA2071+021341999GE19MSL   +99999+99999GF199999041999003051999999MA1101901999999REMMET058METAR SBQV 161000Z 13007KT 9999 SCT010 BKN070 18/16 Q1019=
0181833440999992017031612004-14886-040801FM-12+088099999V0201401N0015100300199020000199+02011+01811101541ADDAA101999999AZ101061AZ201061GA1081+003001071GA2999+999999101GA3999+999999101GE19MSL   +99999+99999GF108991081999003001999999KA1120N+01641MA1999999091901MD1999999+0091REMSYN004BUFR
0165833440999992017031612004-14863-040863FM-15+091499999V0201301N004110030519N009999199+02001+01801999999ADDGA1071+003051999GA2071+021341999GE19MSL   +99999+99999GF199999071999003051999999MA1102001999999REMMET058METAR SBQV 161200Z 13008KT 9999 BKN010 BKN070 20/18 Q1020=
0165833440999992017031613004-14863-040863FM-15+091499999V0201201N004110036619N009999199+02101+01701999999ADDGA1071+003661999GA2071+021341999GE19MSL   +99999+99999GF199999071999003661999999MA1102001999999REMMET058METAR SBQV 161300Z 12008KT 9999 BKN012 BKN070 21/17 Q1020=
0165833440999992017031615004-14863-040863FM-15+091499999V0201301N005110213419N009999199+02201+01701999999ADDGA1041+006101999GA2071+021341999GE19MSL   +99999+99999GF199999041999006101999999MA1101901999999REMMET058METAR SBQV 161500Z 13010KT 9999 SCT020 BKN070 22/17 Q1019=
0165833440999992017031616004-14863-040863FM-15+091499999V0201301N003110213419N009999199+02401+01801999999ADDGA1041+006101999GA2071+021341999GE19MSL   +99999+99999GF199999041999006101999999MA1101901999999REMMET058METAR SBQV 161600Z 13006KT 9999 SCT020 BKN070 24/18 Q1019=
0165833440999992017031617004-14863-040863FM-15+091499999V0201401N004610213419N009999199+02301+01701999999ADDGA1041+007621999GA2071+021341999GE19MSL   +99999+99999GF199999041999007621999999MA1101801999999REMMET058METAR SBQV 161700Z 14009KT 9999 SCT025 BKN070 23/17 Q1018=
0168833440999992017031618004-14886-040801FM-12+088099999V0201401N0031100300199020000199+02311+01981999999ADDAA101999999AZ101061AZ201061GA1081+003001071GA2999+999999101GA3999+999999101GE19MSL   +99999+99999GF108991081999003001999999MA1999999091571MD1999999-0031REMSYN004BUFR
0165833440999992017031618004-14863-040863FM-15+091499999V0201401N005710213419N009999199+02301+01801999999ADDGA1041+007621999GA2071+021341999GE19MSL   +99999+99999GF199999041999007621999999MA1101701999999REMMET058METAR SBQV 161800Z 14011KT 9999 SCT025 BKN070 23/18 Q1017=
0165833440999992017031619004-14863-040863FM-15+091499999V0201301N004610213419N009999199+02401+01901999999ADDGA1041+009141999GA2071+021341999GE19MSL   +99999+99999GF199999041999009141999999MA1101701999999REMMET058METAR SBQV 161900Z 13009KT 9999 SCT030 BKN070 24/19 Q1017=
0165833440999992017031621004-14863-040863FM-15+091499999V0201201N006210213419N009999199+02201+01801999999ADDGA1021+004571999GA2071+021341999GE19MSL   +99999+99999GF199999021999004571999999MA1101801999999REMMET058METAR SBQV 162100Z 12012KT 9999 FEW015 BKN070 22/18 Q1018=
0072833440999992017031622004-14863-040863FM-15+091499999V0201101N006219999999Y999999999+02101+01701999999ADDMA1101801999999REMMET045METAR SBQV 162200Z 11012KT CAVOK 21/17 Q1018=
0165833440999992017031700004-14863-040863FM-15+091499999V0201001N005710213419N009999199+02001+01801999999ADDGA1021+006101999GA2071+021341999GE19MSL   +99999+99999GF199999021999006101999999MA1101901999999REMMET058METAR SBQV 170000Z 10011KT 9999 FEW020 BKN070 20/18 Q1019=
0165833440999992017031701004-14863-040863FM-15+091499999V0201201N004610030519N009999199+02001+01801999999ADDGA1071+003051999GA2071+021341999GE19MSL   +99999+99999GF199999071999003051999999MA1101901999999REMMET058METAR SBQV 170100Z 12009KT 9999 BKN010 BKN070 20/18 Q1019=
0165833440999992017031708004-14863-040863FM-15+091499999V0201701N00211006101CN009999199+01901+01801999999ADDGA1041+001521999GA2041+006101999GE19MSL   +99999+99999GF199999041999001521999999MA1101801999999REMMET058METAR SBQV 170800Z 17004KT 9999 SCT005 SCT020 19/18 Q1018=
0165833440999992017031710004-14863-040863FM-15+091499999V0201401N003110045719N009999199+01901+01801999999ADDGA1021+002131999GA2071+004571999GE19MSL   +99999+99999GF199999021999002131999999MA1101901999999REMMET058METAR SBQV 171000Z 14006KT 9999 FEW007 BKN015 19/18 Q1019=
0181833440999992017031712004-14886-040801FM-12+088099999V0201401N0015100300199020000199+02271+01881101481ADDAA101999999AZ101061AZ201061GA1081+003001071GA2999+999999101GA3999+999999101GE19MSL   +99999+99999GF108991081999003001999999KA1120N+01801MA1999999091891MD1999999-0011REMSYN004BUFR
0142833440999992017031712004-14863-040863FM-15+091499999V0201601N003110061019N009999199+02101+01801999999ADDGA1071+006101999GE19MSL   +99999+99999GF199999071999006101999999MA1102001999999REMMET051METAR SBQV 171200Z 16006KT 9999 BKN020 21/18 Q1020=
0142833440999992017031713004-14863-040863FM-15+091499999V0201401N004610076219N009999199+02301+01701999999ADDGA1071+007621999GE19MSL   +99999+99999GF199999071999007621999999MA1102001999999REMMET051METAR SBQV 171300Z 14009KT 9999 BKN025 23/17 Q1020=
0142833440999992017031714004-14863-040863FM-15+091499999V0201101N003119999999N009999199+02601+01701999999ADDGA1041+010671999GE19MSL   +99999+99999GF199999041999010671999999MA1101901999999REMMET051METAR SBQV 171400Z 11006KT 9999 SCT035 26/17 Q1019=
0142833440999992017031715004-14863-040863FM-15+091499999V0200801N002110121919N009999199+02701+01701999999ADDGA1071+012191999GE19MSL   +99999+99999GF199999071999012191999999MA1101901999999REMMET051METAR SBQV 171500Z 08004KT 9999 BKN040 27/17 Q1019=
0142833440999992017031716004-14863-040863FM-15+091499999V0201301N003119999999N009999199+02701+01701999999ADDGA1041+012191999GE19MSL   +99999+99999GF199999041999012191999999MA1101801999999REMMET051METAR SBQV 171600Z 13006KT 9999 SCT040 27/17 Q1018=
0142833440999992017031717004-14863-040863FM-15+091499999V0201301N003619999999N009999199+02801+01601999999ADDGA1041+012191999GE19MSL   +99999+99999GF199999041999012191999999MA1101701999999REMMET051METAR SBQV 171700Z 13007KT 9999 SCT040 28/16 Q1017=
0136833440999992017031718004-14886-040801FM-12+088099999V0200901N0036199999999020000199+02901+02432999999ADDAA101999999AZ101061AZ201061GA1021+003001081GE19MSL   +99999+99999GF102991021999003001999999MA1999999091461MD1999999-0111REMSYN004BUFR
0142833440999992017031718004-14863-040863FM-15+091499999V0201201N005710121919N009999199+01902+01701999999ADDGA1071+012191999GE19MSL   +99999+99999GF199999071999012191999999MA1101601999999REMMET051METAR SBQV 171800Z 12011KT 9999 BKN040 19/17 Q1016=
0142833440999992017031720004-14863-040863FM-15+091499999V0201301N007219999999N009999199+02601+01801999999ADDGA1041+012191999GE19MSL   +99999+99999GF199999041999012191999999MA1101601999999REMMET051METAR SBQV 172000Z 13014KT 9999 SCT040 26/18 Q1016=
0142833440999992017031721004-14863-040863FM-15+091499999V0201201N006719999999N009999199+02401+01901999999ADDGA1021+012191999GE19MSL   +99999+99999GF199999021999012191999999MA1101701999999REMMET051METAR SBQV 172100Z 12013KT 9999 FEW040 24/19 Q1017=
0072833440999992017031722004-14863-040863FM-15+091499999V0200901N006219999999Y999999999+02201+01901999999ADDMA1101701999999REMMET045METAR SBQV 172200Z 09012KT CAVOK 22/19 Q1017=
0072833440999992017031800004-14863-040863FM-15+091499999V0200901N006719999999Y999999999+02101+01801999999ADDMA1101901999999REMMET045METAR SBQV 180000Z 09013KT CAVOK 21/18 Q1019=
0072833440999992017031801004-14863-040863FM-15+091499999V0201001N005719999999Y999999999+02101+01801999999ADDMA1101901999999REMMET045METAR SBQV 180100Z 10011KT CAVOK 21/18 Q1019=
0072833440999992017031808004-14863-040863FM-15+091499999V0200701N003119999999Y999999999+01901+01701999999ADDMA1101801999999REMMET045METAR SBQV 180800Z 07006KT CAVOK 19/17 Q1018=
0072833440999992017031809004-14863-040863FM-15+091499999V0201101N002619999999Y999999999+01801+01701999999ADDMA1101801999999REMMET045METAR SBQV 180900Z 11005KT CAVOK 18/17 Q1018=
0072833440999992017031810004-14863-040863FM-15+091499999V0201201N004119999999Y999999999+02101+01801999999ADDMA1101801999999REMMET045METAR SBQV 181000Z 12008KT CAVOK 21/18 Q1018=
0165833440999992017031811004-14863-040863FM-15+091499999V0200801N00261024381CN009999199+02201+01801999999ADDGA1021+004571999GA2041+024381999GE19MSL   +99999+99999GF199999021999004571999999MA1101901999999REMMET058METAR SBQV 181100Z 08005KT 9999 FEW015 SCT080 22/18 Q1019=
0165833440999992017031812004-14886-040801FM-12+088099999V0200901N0021199999999020000199+02571+01801101271ADDAA101999999AZ101061AZ201061GA1011+003001081GA2999+999999031GE19MSL   +99999+99999GF103991011999003001999999KA1120N+01661MA1999999091771MD1999999-0121REMSYN004BUFR
0165833440999992017031812004-14863-040863FM-15+091499999V0200601N00151030481CN009999199+02501+01801999999ADDGA1021+007621999GA2041+030481999GE19MSL   +99999+99999GF199999021999007621999999MA1101901999999REMMET058METAR SBQV 181200Z 06003KT 9999 FEW025 SCT100 25/18 Q1019=
0142833440999992017031813004-14863-040863FM-15+091499999V0209999C000019999999N009999199+02601+01701999999ADDGA1041+009141999GE19MSL   +99999+99999GF199999041999009141999999MA1102001999999REMMET051METAR SBQV 181300Z 00000KT 9999 SCT030 26/17 Q1020=
0165833440999992017031814004-14863-040863FM-15+091499999V0201201N00261030481CN009999199+02801+01601999999ADDGA1041+012191999GA2041+030481999GE19MSL   +99999+99999GF199999041999012191999999MA1102001999999REMMET058METAR SBQV 181400Z 12005KT 9999 SCT040 SCT100 28/16 Q1020=
0142833440999992017031815004-14863-040863FM-15+091499999V0201201N002110121919N009999199+02901+01501999999ADDGA1071+012191999GE19MSL   +99999+99999GF199999071999012191999999MA1101901999999REMMET051METAR SBQV 181500Z 12004KT 9999 BKN040 29/15 Q1019=
0136833440999992017031818004-14886-040801FM-12+088099999V0201401N0031199999999020000199+02811+01901999999ADDAA101999999AZ101061AZ201061GA1031+003001061GE19MSL   +99999+99999GF103991031999003001999999MA1999999091541MD1999999+0081REMSYN004BUFR
0142833440999992017031818004-14863-040863FM-15+091499999V0201501N005719999999N009999199+02701+02001999999ADDGA1041+012191999GE19MSL   +99999+99999GF199999041999012191999999MA1101701999999REMMET051METAR SBQV 181800Z 15011KT 9999 SCT040 27/20 Q1017=
0165833440999992017031912004-14886-040801FM-12+088099999V0200501N0021199999999020000199+02521+01661101411ADDAA101999999AZ101061AZ201061GA1021+003001081GA2999+999999031GE19MSL   +99999+99999GF106991021999003001999999KA1120N+01661MA1999999091901MD1999999+0131REMSYN004BUFR
0165833440999992017031915004-14863-040863FM-15+091499999V0203201N001510304819N009999199+02901+01401999999ADDGA1021+012191999GA2071+030481999GE19MSL   +99999+99999GF199999021999012191999999MA1101901999999REMMET058METAR SBQV 191500Z 32003KT 9999 FEW040 BKN100 29/14 Q1019=
0165833440999992017031916004-14863-040863FM-15+091499999V0201201N003110304819N009999199+03001+01301999999ADDGA1021+012191999GA2071+030481999GE19MSL   +99999+99999GF199999021999012191999999MA1101801999999REMMET058METAR SBQV 191600Z 12006KT 9999 FEW040 BKN100 30/13 Q1018=
0142833440999992017031917004-14863-040863FM-15+091499999V0201301N003619999999N009999199+02901+01301999999ADDGA1021+012191999GE19MSL   +99999+99999GF199999021999012191999999MA1101801999999REMMET051METAR SBQV 191700Z 13007KT 9999 FEW040 29/13 Q1018=
0168833440999992017031918004-14886-040801FM-12+088099999V0201401N0031199999999020000199+03001+01891999999ADDAA101999999AZ101061AZ201061GA1021+003001081GA2999+999999031GA3999+999999001GE19MSL   +99999+99999GF108991021999003001999999MA1999999091531MD1999999-0021REMSYN004BUFR
0142833440999992017031918004-14863-040863FM-15+091499999V0200401N002619999999N009999199+03201+01201999999ADDGA1021+012191999GE19MSL   +99999+99999GF199999021999012191999999MA1101701999999REMMET051METAR SBQV 191800Z 04005KT 9999 FEW040 32/12 Q1017=
0142833440999992017031919004-14863-040863FM-15+091499999V0201701N005119999999N009999199+02901+01701999999ADDGA1021+012191999GE19MSL   +99999+99999GF199999021999012191999999MA1101701999999REMMET051METAR SBQV 191900Z 17010KT 9999 FEW040 29/17 Q1017=
0142833440999992017031920004-14863-040863FM-15+091499999V0201301N006219999999N009999199+02701+01601999999ADDGA1021+012191999GE19MSL   +99999+99999GF199999021999012191999999MA1101701999999REMMET051METAR SBQV 192000Z 13012KT 9999 FEW040 27/16 Q1017=
0142833440999992017031921004-14863-040863FM-15+091499999V0201301N006219999999N009999199+02701+01601999999ADDGA1021+012191999GE19MSL   +99999+99999GF199999021999012191999999MA1101701999999REMMET051METAR SBQV 192100Z 13012KT 9999 FEW040 27/16 Q1017=
0072833440999992017031922004-14863-040863FM-15+091499999V0201301N004619999999Y999999999+02401+01701999999ADDMA1101801999999REMMET045METAR SBQV 192200Z 13009KT CAVOK 24/17 Q1018=
0072833440999992017032000004-14863-040863FM-15+091499999V0201201N004619999999Y999999999+02201+01601999999ADDMA1101901999999REMMET045METAR SBQV 200000Z 12009KT CAVOK 22/16 Q1019=
0072833440999992017032001004-14863-040863FM-15+091499999V0201301N004619999999Y999999999+02201+01801999999ADDMA1101901999999REMMET045METAR SBQV 200100Z 13009KT CAVOK 22/18 Q1019=
0142833440999992017032008004-14863-040863FM-15+091499999V0200801N004119999999N009999199+01901+01701999999ADDGA1021+004571999GE19MSL   +99999+99999GF199999021999004571999999MA1101901999999REMMET051METAR SBQV 200800Z 08008KT 9999 FEW015 19/17 Q1019=
0142833440999992017032010004-14863-040863FM-15+091499999V0200701N003619999999N009999199+02001+01701999999ADDGA1021+006101999GE19MSL   +99999+99999GF199999021999006101999999MA1102001999999REMMET051METAR SBQV 201000Z 07007KT 9999 FEW020 20/17 Q1020=
0165833440999992017032012004-14886-040801FM-12+088099999V0200901N0021199999999020000199+02501+01751101411ADDAA101999999AZ101061AZ201061GA1041+006001081GA2999+999999031GE19MSL   +99999+99999GF106991041999006001999999KA1120N+01741MA1999999091921MD1999999+0021REMSYN004BUFR
0142833440999992017032012004-14863-040863FM-15+091499999V0200801N002119999999N009999199+02401+01601999999ADDGA1021+006101999GE19MSL   +99999+99999GF199999021999006101999999MA1102101999999REMMET051METAR SBQV 201200Z 08004KT 9999 FEW020 24/16 Q1021=
0142833440999992017032013004-14863-040863FM-15+091499999V0201201N003619999999N009999199+02501+01701999999ADDGA1041+007621999GE19MSL   +99999+99999GF199999041999007621999999MA1102101999999REMMET051METAR SBQV 201300Z 12007KT 9999 SCT025 25/17 Q1021=
0142833440999992017032014004-14863-040863FM-15+091499999V0201201N003119999999N009999199+02801+01601999999ADDGA1041+007621999GE19MSL   +99999+99999GF199999041999007621999999MA1102001999999REMMET051METAR SBQV 201400Z 12006KT 9999 SCT025 28/16 Q1020=
0142833440999992017032016004-14863-040863FM-15+091499999V0201201N003110106719N009999199+02901+01701999999ADDGA1071+010671999GE19MSL   +99999+99999GF199999071999010671999999MA1101901999999REMMET051METAR SBQV 201600Z 12006KT 9999 BKN035 29/17 Q1019=
0142833440999992017032017004-14863-040863FM-15+091499999V0201401N004110121919N009999199+02801+01601999999ADDGA1071+012191999GE19MSL   +99999+99999GF199999071999012191999999MA1101801999999REMMET051METAR SBQV 201700Z 14008KT 9999 BKN040 28/16 Q1018=
0168833440999992017032018004-14886-040801FM-12+088099999V0201401N0015199999999020000199+02921+01801999999ADDAA101999999AZ101061AZ201061GA1021+006001081GA2999+999999031GA3999+999999001GE19MSL   +99999+99999GF106991021999006001999999MA1999999091601MD1999999+0081REMSYN004BUFR
0142833440999992017032019004-14863-040863FM-15+091499999V0201301N004119999999N009999199+02801+01501999999ADDGA1021+012191999GE19MSL   +99999+99999GF199999021999012191999999MA1101701999999REMMET051METAR SBQV 201900Z 13008KT 9999 FEW040 28/15 Q1017=
0142833440999992017032021004-14863-040863FM-15+091499999V0201401N005119999999N009999199+02601+01601999999ADDGA1021+012191999GE19MSL   +99999+99999GF199999021999012191999999MA1101801999999REMMET051METAR SBQV 202100Z 14010KT 9999 FEW040 26/16 Q1018=
0072833440999992017032023004-14863-040863FM-15+091499999V0201401N003619999999Y999999999+02501+01601999999ADDMA1101901999999REMMET045METAR SBQV 202300Z 14007KT CAVOK 25/16 Q1019=
0098833440999992017032100004-14886-040801FM-12+088099999V0200901N0015122000199020000199+02271+01821101221ADDAA101999999AZ101061AZ201061GF100991999999999999999999MA1999999091751MD1999999+0071REMSYN004BUFR
0072833440999992017032100004-14863-040863FM-15+091499999V0201201N004119999999Y999999999+02401+01701999999ADDMA1101901999999REMMET045METAR SBQV 210000Z 12008KT CAVOK 24/17 Q1019=
0072833440999992017032101004-14863-040863FM-15+091499999V0201101N004619999999Y999999999+02301+01801999999ADDMA1102001999999REMMET045METAR SBQV 210100Z 11009KT CAVOK 23/18 Q1020=
0072833440999992017032108004-14863-040863FM-15+091499999V0201001N002619999999Y999999999+01901+01701999999ADDMA1101901999999REMMET045METAR SBQV 210800Z 10005KT CAVOK 19/17 Q1019=
0072833440999992017032109004-14863-040863FM-15+091499999V0201201N003619999999Y999999999+01801+01701999999ADDMA1102001999999REMMET045METAR SBQV 210900Z 12007KT CAVOK 18/17 Q1020=
0072833440999992017032110004-14863-040863FM-15+091499999V0201401N003119999999Y999999999+01801+01701999999ADDMA1102001999999REMMET045METAR SBQV 211000Z 14006KT CAVOK 18/17 Q1020=
0142833440999992017032111004-14863-040863FM-15+091499999V0201401N003119999999N009999199+02101+01801999999ADDGA1021+006101999GE19MSL   +99999+99999GF199999021999006101999999MA1102101999999REMMET051METAR SBQV 211100Z 14006KT 9999 FEW020 21/18 Q1021=
0187833440999992017032112004-14886-040801FM-12+088099999V0200901N0031199999999010000199+02221+01881101591ADDAA101999999AY121061AY221061GA1041+017501071GA2999+999999051GA3999+999999101GE19MSL   +99999+99999GF108991041999017501999999KA1120N+01641MA1999999092031MD1999999+0111MW1141REMSYN004BUFR
0142833440999992017032112004-14863-040863FM-15+091499999V0201201N004110076219N009999199+02201+01701999999ADDGA1081+007621999GE19MSL   +99999+99999GF199999081999007621999999MA1102201999999REMMET051METAR SBQV 211200Z 12008KT 9999 OVC025 22/17 Q1022=
0142833440999992017032114004-14863-040863FM-15+091499999V0201201N005110091419N009999199+02401+01801999999ADDGA1081+009141999GE19MSL   +99999+99999GF199999081999009141999999MA1102101999999REMMET051METAR SBQV 211400Z 12010KT 9999 OVC030 24/18 Q1021=
0142833440999992017032115004-14863-040863FM-15+091499999V0201201N004110091419N009999199+02501+01801999999ADDGA1081+009141999GE19MSL   +99999+99999GF199999081999009141999999MA1102101999999REMMET051METAR SBQV 211500Z 12008KT 9999 OVC030 25/18 Q1021=
0142833440999992017032116004-14863-040863FM-15+091499999V0201201N004610091419N009999199+02601+01701999999ADDGA1071+009141999GE19MSL   +99999+99999GF199999071999009141999999MA1102001999999REMMET051METAR SBQV 211600Z 12009KT 9999 BKN030 26/17 Q1020=
0142833440999992017032117004-14863-040863FM-15+091499999V0201401N003110106719N009999199+02701+01801999999ADDGA1071+010671999GE19MSL   +99999+99999GF199999071999010671999999MA1102001999999REMMET051METAR SBQV 211700Z 14006KT 9999 BKN035 27/18 Q1020=
0152833440999992017032118004-14886-040801FM-12+088099999V0201401N0031199999999020000199+02671+01971999999ADDAA101999999AZ101061AZ201061GA1041+006001061GA2999+999999031GE19MSL   +99999+99999GF107991041999006001999999MA1999999091821MD1999999+0221REMSYN004BUFR
0165833440999992017032118004-14863-040863FM-15+091499999V0201601N004110152419N009999199+02601+01701999999ADDGA1021+012191999GA2071+015241999GE19MSL   +99999+99999GF199999021999012191999999MA1101901999999REMMET058METAR SBQV 211800Z 16008KT 9999 FEW040 BKN050 26/17 Q1019=
0142833440999992017032119004-14863-040863FM-15+091499999V0201601N004619999999N009999199+02701+01801999999ADDGA1021+012191999GE19MSL   +99999+99999GF199999021999012191999999MA1101901999999REMMET051METAR SBQV 211900Z 16009KT 9999 FEW040 27/18 Q1019=
0142833440999992017032120004-14863-040863FM-15+091499999V0201601N007219999999N009999199+02601+02001999999ADDGA1021+012191999GE19MSL   +99999+99999GF199999021999012191999999MA1101901999999REMMET051METAR SBQV 212000Z 16014KT 9999 FEW040 26/20 Q1019=
0165833440999992017032121004-14863-040863FM-15+091499999V0201501N00571021341CN009999199+02301+01801999999ADDGA1021+012191999GA2041+021341999GE19MSL   +99999+99999GF199999021999012191999999MA1102001999999REMMET058METAR SBQV 212100Z 15011KT 9999 FEW040 SCT070 23/18 Q1020=
0142833440999992017032122004-14863-040863FM-15+091499999V0201501N005719999999N009999199+02201+01901999999ADDGA1021+004571999GE19MSL   +99999+99999GF199999021999004571999999MA1102001999999REMMET051METAR SBQV 212200Z 15011KT 9999 FEW015 22/19 Q1020=
0142833440999992017032123004-14863-040863FM-15+091499999V0201401N007710045719N009999199+02101+01901999999ADDGA1071+004571999GE19MSL   +99999+99999GF199999071999004571999999MA1102101999999REMMET051METAR SBQV 212300Z 14015KT 9999 BKN015 21/19 Q1021=
0174833440999992017032200004-14886-040801FM-12+088099999V0201401N0031100200199002000199+02151+02021101561ADDAA106000131AY151061AY221061GA1081+002001071GA2999+999999101GA3999+999999101GE19MSL   +99999+99999GF108991081999002001999999MA1999999091981MD1999999+0231MW1501REMSYN004BUFR
0142833440999992017032200004-14863-040863FM-15+091499999V0201501N006710024419N009999199+02201+02001999999ADDGA1071+002441999GE19MSL   +99999+99999GF199999071999002441999999MA1102101999999REMMET051METAR SBQV 220000Z 15013KT 9999 BKN008 22/20 Q1021=
0161833440999992017032201004-14863-040863FM-15+091499999V0201401N006210015219N005000199+02001+01901999999ADDGA1071+001521999GE19MSL   +99999+99999GF199999071999001521999999MA1102201999999MW1101MW2511REMMET058METAR SBQV 220100Z 14012KT 5000 -DZ BR BKN005 20/19 Q1022=
0161833440999992017032202004-14863-040863FM-15+091499999V0201501N006710015219N005000199+02001+01901999999ADDGA1071+001521999GE19MSL   +99999+99999GF199999071999001521999999MA1102101999999MW1101MW2511REMMET058METAR SBQV 220200Z 15013KT 5000 -DZ BR BKN005 20/19 Q1021=
0165833440999992017032210004-14863-040863FM-15+091499999V0201401N004610213419N009999199+01901+01701999999ADDGA1041+009141999GA2071+021341999GE19MSL   +99999+99999GF199999041999009141999999MA1102201999999REMMET058METAR SBQV 221000Z 14009KT 9999 SCT030 BKN070 19/17 Q1022=
0142833440999992017032211004-14863-040863FM-15+091499999V0201201N005710076219N009999199+01901+01701999999ADDGA1071+007621999GE19MSL   +99999+99999GF199999071999007621999999MA1102201999999REMMET051METAR SBQV 221100Z 12011KT 9999 BKN025 19/17 Q1022=
0171833440999992017032212004-14886-040801FM-12+088099999V0201401N0026100300199020000199+02051+01741101991ADDAA124002031AY151061AY221061GA1051+003001071GA2999+999999031GE19MSL   +99999+99999GF107991051999003001999999KA1120N+01721MA1999999092332MD1999999+0301MW1031REMSYN004BUFR
0165833440999992017032212004-14863-040863FM-15+091499999V0201301N007710091419N009999199+02201+01701999999ADDGA1071+009141999GA2071+021341999GE19MSL   +99999+99999GF199999071999009141999999MA1102301999999REMMET058METAR SBQV 221200Z 13015KT 9999 BKN030 BKN070 22/17 Q1023=
0165833440999992017032213004-14863-040863FM-15+091499999V0201401N007210213419N009999199+02301+01601999999ADDGA1021+009141999GA2071+021341999GE19MSL   +99999+99999GF199999021999009141999999MA1102301999999REMMET058METAR SBQV 221300Z 14014KT 9999 FEW030 BKN070 23/16 Q1023=
0165833440999992017032214004-14863-040863FM-15+091499999V0201401N008210213419N009999199+02501+01601999999ADDGA1021+009141999GA2071+021341999GE19MSL   +99999+99999GF199999021999009141999999MA1102201999999REMMET058METAR SBQV 221400Z 14016KT 9999 FEW030 BKN070 25/16 Q1022=
0165833440999992017032216004-14863-040863FM-15+091499999V0201601N00411021341CN009999199+02601+01601999999ADDGA1021+010671999GA2041+021341999GE19MSL   +99999+99999GF199999021999010671999999MA1102001999999REMMET058METAR SBQV 221600Z 16008KT 9999 FEW035 SCT070 26/16 Q1020=
0142833440999992017032217004-14863-040863FM-15+091499999V0201201N005110106719N009999199+02801+01701999999ADDGA1071+010671999GE19MSL   +99999+99999GF199999071999010671999999MA1101901999999REMMET051METAR SBQV 221700Z 12010KT 9999 BKN035 28/17 Q1019=
0152833440999992017032218004-14886-040801FM-12+088099999V0201401N0031100600199020000199+02601+01821999999ADDAA101999999AZ101061AZ201061GA1092+006001091GA2999+999999031GE19MSL   +99999+99999GF107992092999006001999999MA1999999091771MD1999999-0051REMSYN004BUFR
0142833440999992017032218004-14863-040863FM-15+091499999V0201401N007210106719N009999199+02601+01701999999ADDGA1071+010671999GE19MSL   +99999+99999GF199999071999010671999999MA1101901999999REMMET051METAR SBQV 221800Z 14014KT 9999 BKN035 26/17 Q1019=
0142833440999992017032219004-14863-040863FM-15+091499999V0201501N006719999999N009999199+02701+01701999999ADDGA1041+012191999GE19MSL   +99999+99999GF199999041999012191999999MA1101901999999REMMET051METAR SBQV 221900Z 15013KT 9999 SCT040 27/17 Q1019=
0142833440999992017032220004-14863-040863FM-15+091499999V0201301N005110121919N009999199+02501+01701999999ADDGA1071+012191999GE19MSL   +99999+99999GF199999071999012191999999MA1101901999999REMMET051METAR SBQV 222000Z 13010KT 9999 BKN040 25/17 Q1019=
0142833440999992017032221004-14863-040863FM-15+091499999V0201301N007219999999N009999199+02301+01701999999ADDGA1041+012191999GE19MSL   +99999+99999GF199999041999012191999999MA1101901999999REMMET051METAR SBQV 222100Z 13014KT 9999 SCT040 23/17 Q1019=
0072833440999992017032223004-14863-040863FM-15+091499999V0201301N004619999999Y999999999+02101+01701999999ADDMA1102001999999REMMET045METAR SBQV 222300Z 13009KT CAVOK 21/17 Q1020=
0098833440999992017032300004-14886-040801FM-12+088099999V0200901N0026122000199004000199+02101+01761101531ADDAA101999999AZ101061AZ201061GF100991999999999999999999MA1999999091891MD1999999-0091REMSYN004BUFR
0072833440999992017032300004-14863-040863FM-15+091499999V0201401N004619999999Y999999999+02101+01701999999ADDMA1102101999999REMMET045METAR SBQV 230000Z 14009KT CAVOK 21/17 Q1021=
0142833440999992017032301004-14863-040863FM-15+091499999V0201401N005719999999N009999199+02001+01801999999ADDGA1041+002441999GE19MSL   +99999+99999GF199999041999002441999999MA1102101999999REMMET051METAR SBQV 230100Z 14011KT 9999 SCT008 20/18 Q1021=
0142833440999992017032308004-14863-040863FM-15+091499999V0201301N004619999999N009999199+01701+01601999999ADDGA1021+003051999GE19MSL   +99999+99999GF199999021999003051999999MA1102001999999REMMET051METAR SBQV 230800Z 13009KT 9999 FEW010 17/16 Q1020=
0142833440999992017032309004-14863-040863FM-15+091499999V0201201N005119999999N009999199+01602+01502999999ADDGA1021+003051999GE19MSL   +99999+99999GF199999021999003051999999MA1102001999999REMMET051METAR SBQV 230900Z 12010KT 9999 FEW010 16/15 Q1020=
0142833440999992017032310004-14863-040863FM-15+091499999V0201301N005710061019N009999199+01701+01501999999ADDGA1071+006101999GE19MSL   +99999+99999GF199999071999006101999999MA1102101999999REMMET051METAR SBQV 231000Z 13011KT 9999 BKN020 17/15 Q1021=
0142833440999992017032311004-14863-040863FM-15+091499999V0201401N006710076219N009999199+01901+01501999999ADDGA1071+007621999GE19MSL   +99999+99999GF199999071999007621999999MA1102101999999REMMET051METAR SBQV 231100Z 14013KT 9999 BKN025 19/15 Q1021=
0149833440999992017032312004-14886-040801FM-12+088099999V0201401N0036100600199020000199+02201+01631101631ADDAA101999999AZ101061AZ201061GA1061+006001081GE19MSL   +99999+99999GF106991061999006001999999KA1120N+01581MA1999999092021MD1999999-0101REMSYN004BUFR
0142833440999992017032313004-14863-040863FM-15+091499999V0201201N006219999999N009999199+02301+01501999999ADDGA1021+009141999GE19MSL   +99999+99999GF199999021999009141999999MA1102101999999REMMET051METAR SBQV 231300Z 12012KT 9999 FEW030 23/15 Q1021=
0142833440999992017032314004-14863-040863FM-15+091499999V0201601N006719999999N009999199+02501+01401999999ADDGA1021+009141999GE19MSL   +99999+99999GF199999021999009141999999MA1102101999999REMMET051METAR SBQV 231400Z 16013KT 9999 FEW030 25/14 Q1021=
0142833440999992017032315004-14863-040863FM-15+091499999V0201501N004619999999N009999199+02501+01501999999ADDGA1021+010671999GE19MSL   +99999+99999GF199999021999010671999999MA1102001999999REMMET051METAR SBQV 231500Z 15009KT 9999 FEW035 25/15 Q1020=
0142833440999992017032317004-14863-040863FM-15+091499999V0201201N005119999999N009999199+02701+01401999999ADDGA1021+010671999GE19MSL   +99999+99999GF199999021999010671999999MA1101801999999REMMET051METAR SBQV 231700Z 12010KT 9999 FEW035 27/14 Q1018=
0152833440999992017032318004-14886-040801FM-12+088099999V0201401N0021199999999020000199+02721+01591999999ADDAA101999999AZ101061AZ201061GA1031+006001081GA2999+999999031GE19MSL   +99999+99999GF105991031999006001999999MA1999999091571MD1999999-0201REMSYN004BUFR
0142833440999992017032318004-14863-040863FM-15+091499999V0201401N004119999999N009999199+02701+01301999999ADDGA1021+012191999GE19MSL   +99999+99999GF199999021999012191999999MA1101701999999REMMET051METAR SBQV 231800Z 14008KT 9999 FEW040 27/13 Q1017=
0142833440999992017032319004-14863-040863FM-15+091499999V0201601N005119999999N009999199+02701+01301999999ADDGA1021+012191999GE19MSL   +99999+99999GF199999021999012191999999MA1101701999999REMMET051METAR SBQV 231900Z 16010KT 9999 FEW040 27/13 Q1017=
0142833440999992017032320004-14863-040863FM-15+091499999V0201501N005119999999N009999199+02701+01401999999ADDGA1021+012191999GE19MSL   +99999+99999GF199999021999012191999999MA1101701999999REMMET051METAR SBQV 232000Z 15010KT 9999 FEW040 27/14 Q1017=
0142833440999992017032321004-14863-040863FM-15+091499999V0201401N005719999999N009999199+02501+01401999999ADDGA1021+012191999GE19MSL   +99999+99999GF199999021999012191999999MA1101801999999REMMET051METAR SBQV 232100Z 14011KT 9999 FEW040 25/14 Q1018=
0142833440999992017032322004-14863-040863FM-15+091499999V0201401N005119999999N009999199+02301+01401999999ADDGA1021+012191999GE19MSL   +99999+99999GF199999021999012191999999MA1101801999999REMMET051METAR SBQV 232200Z 14010KT 9999 FEW040 23/14 Q1018=
0072833440999992017032323004-14863-040863FM-15+091499999V0201401N004119999999Y999999999+02201+01501999999ADDMA1101801999999REMMET045METAR SBQV 232300Z 14008KT CAVOK 22/15 Q1018=
0098833440999992017032400004-14886-040801FM-12+088099999V0200901N0026122000199004000199+02121+01531101311ADDAA101999999AZ101061AZ201061GF100991999999999999999999MA1999999091741MD1999999-0151REMSYN004BUFR
0072833440999992017032400004-14863-040863FM-15+091499999V0201301N004619999999Y999999999+02201+01601999999ADDMA1101801999999REMMET045METAR SBQV 240000Z 13009KT CAVOK 22/16 Q1018=
0072833440999992017032401004-14863-040863FM-15+091499999V0201301N004619999999Y999999999+02101+01501999999ADDMA1101901999999REMMET045METAR SBQV 240100Z 13009KT CAVOK 21/15 Q1019=
0165833440999992017032409004-14863-040863FM-15+091499999V0201301N004110213419N009999199+01801+01601999999ADDGA1021+004571999GA2071+021341999GE19MSL   +99999+99999GF199999021999004571999999MA1101901999999REMMET058METAR SBQV 240900Z 13008KT 9999 FEW015 BKN070 18/16 Q1019=
0142833440999992017032410004-14863-040863FM-15+091499999V0201301N004119999999N009999199+01801+01501999999ADDGA1021+009141999GE19MSL   +99999+99999GF199999021999009141999999MA1101901999999REMMET051METAR SBQV 241000Z 13008KT 9999 FEW030 18/15 Q1019=
0142833440999992017032411004-14863-040863FM-15+091499999V0201201N005119999999N009999199+02101+01701999999ADDGA1021+006101999GE19MSL   +99999+99999GF199999021999006101999999MA1102001999999REMMET051METAR SBQV 241100Z 12010KT 9999 FEW020 21/17 Q1020=
0181833440999992017032412004-14886-040801FM-12+088099999V0201401N0031100300199020000199+02101+01661101521ADDAA101999999AZ101061AZ201061GA1081+003001071GA2999+999999101GA3999+999999101GE19MSL   +99999+99999GF108991081999003001999999KA1120N+01621MA1999999091901MD1999999-0121REMSYN004BUFR
0142833440999992017032412004-14863-040863FM-15+091499999V0201301N005110076219N009999199+02001+01501999999ADDGA1071+007621999GE19MSL   +99999+99999GF199999071999007621999999MA1102001999999REMMET051METAR SBQV 241200Z 13010KT 9999 BKN025 20/15 Q1020=
0142833440999992017032413004-14863-040863FM-15+091499999V0201101N003619999999N009999199+02201+01601999999ADDGA1041+007621999GE19MSL   +99999+99999GF199999041999007621999999MA1102001999999REMMET051METAR SBQV 241300Z 11007KT 9999 SCT025 22/16 Q1020=
0142833440999992017032414004-14863-040863FM-15+091499999V0201301N003610091419N009999199+02401+01501999999ADDGA1071+009141999GE19MSL   +99999+99999GF199999071999009141999999MA1102001999999REMMET051METAR SBQV 241400Z 13007KT 9999 BKN030 24/15 Q1020=
0142833440999992017032415004-14863-040863FM-15+091499999V0201801N001510106719N009999199+02601+01501999999ADDGA1071+010671999GE19MSL   +99999+99999GF199999071999010671999999MA1101901999999REMMET051METAR SBQV 241500Z 18003KT 9999 BKN035 26/15 Q1019=
0142833440999992017032416004-14863-040863FM-15+091499999V0201201N002610106719N009999199+02801+01501999999ADDGA1071+010671999GE19MSL   +99999+99999GF199999071999010671999999MA1101801999999REMMET051METAR SBQV 241600Z 12005KT 9999 BKN035 28/15 Q1018=
0142833440999992017032417004-14863-040863FM-15+091499999V0202201N002610106719N009999199+02801+01501999999ADDGA1071+010671999GE19MSL   +99999+99999GF199999071999010671999999MA1101701999999REMMET051METAR SBQV 241700Z 22005KT 9999 BKN035 28/15 Q1017=
0152833440999992017032418004-14886-040801FM-12+088099999V0201401N0015199999999020000199+02771+01801999999ADDAA101999999AZ101061AZ201061GA1021+003001081GA2999+999999031GE19MSL   +99999+99999GF104991021999003001999999MA1999999091451MD1999999-0121REMSYN004BUFR
0142833440999992017032419004-14863-040863FM-15+091499999V0201501N003619999999N009999199+02801+01501999999ADDGA1021+012191999GE19MSL   +99999+99999GF199999021999012191999999MA1101601999999REMMET051METAR SBQV 241900Z 15007KT 9999 FEW040 28/15 Q1016=
0142833440999992017032420004-14863-040863FM-15+091499999V0201401N003619999999N009999199+02701+01601999999ADDGA1021+012191999GE19MSL   +99999+99999GF199999021999012191999999MA1101601999999REMMET051METAR SBQV 242000Z 14007KT 9999 FEW040 27/16 Q1016=
0072833440999992017032422004-14863-040863FM-15+091499999V0201301N004619999999Y999999999+02301+01501999999ADDMA1101701999999REMMET045METAR SBQV 242200Z 13009KT CAVOK 23/15 Q1017=
0072833440999992017032423004-14863-040863FM-15+091499999V0201301N004619999999Y999999999+02201+01501999999ADDMA1101701999999REMMET045METAR SBQV 242300Z 13009KT CAVOK 22/15 Q1017=
0098833440999992017032500004-14886-040801FM-12+088099999V0200901N0021122000199004000199+02111+01741101231ADDAA101999999AZ101061AZ201061GF100991999999999999999999MA1999999091641MD1999999-0101REMSYN004BUFR
0072833440999992017032500004-14863-040863FM-15+091499999V0201201N004619999999Y999999999+02201+01601999999ADDMA1101801999999REMMET045METAR SBQV 250000Z 12009KT CAVOK 22/16 Q1018=
0072833440999992017032501004-14863-040863FM-15+091499999V0201101N005119999999Y999999999+02201+01801999999ADDMA1101801999999REMMET045METAR SBQV 250100Z 11010KT CAVOK 22/18 Q1018=
0142833440999992017032509004-14863-040863FM-15+091499999V0201101N004110091419N009999199+01801+01601999999ADDGA1071+009141999GE19MSL   +99999+99999GF199999071999009141999999MA1101801999999REMMET051METAR SBQV 250900Z 11008KT 9999 BKN030 18/16 Q1018=
0142833440999992017032510004-14863-040863FM-15+091499999V0200801N004119999999N009999199+02001+01601999999ADDGA1021+009141999GE19MSL   +99999+99999GF199999021999009141999999MA1101901999999REMMET051METAR SBQV 251000Z 08008KT 9999 FEW030 20/16 Q1019=
0149833440999992017032512004-14886-040801FM-12+088099999V0200501N0015199999999020000199+02371+01781101321ADDAA101999999AZ101061AZ201061GA1021+003001081GE19MSL   +99999+99999GF102991021999003001999999KA1120N+01661MA1999999091781MD1999999-0121REMSYN004BUFR
0072833440999992017032512004-14863-040863FM-15+091499999V0200201N003119999999Y999999999+02301+01601999999ADDMA1102001999999REMMET045METAR SBQV 251200Z 02006KT CAVOK 23/16 Q1020=
0142833440999992017032514004-14863-040863FM-15+091499999V0200501N004119999999N009999199+02801+01501999999ADDGA1041+009141999GE19MSL   +99999+99999GF199999041999009141999999MA1101801999999REMMET051METAR SBQV 251400Z 05008KT 9999 SCT030 28/15 Q1018=
0142833440999992017032515004-14863-040863FM-15+091499999V0200601N001519999999N009999199+02801+01501999999ADDGA1041+010671999GE19MSL   +99999+99999GF199999041999010671999999MA1101801999999REMMET051METAR SBQV 251500Z 06003KT 9999 SCT035 28/15 Q1018=
0142833440999992017032516004-14863-040863FM-15+091499999V0200401N002619999999N009999199+02901+01401999999ADDGA1041+010671999GE19MSL   +99999+99999GF199999041999010671999999MA1101701999999REMMET051METAR SBQV 251600Z 04005KT 9999 SCT035 29/14 Q1017=
0142833440999992017032517004-14863-040863FM-15+091499999V0201101N001519999999N009999199+02901+01401999999ADDGA1041+010671999GE19MSL   +99999+99999GF199999041999010671999999MA1101601999999REMMET051METAR SBQV 251700Z 11003KT 9999 SCT035 29/14 Q1016=
0136833440999992017032518004-14886-040801FM-12+088099999V0201401N0031199999999020000199+03001+01661999999ADDAA101999999AZ101061AZ201061GA1041+003001061GE19MSL   +99999+99999GF104991041999003001999999MA1999999091401MD1999999-0051REMSYN004BUFR
0142833440999992017032518004-14863-040863FM-15+091499999V0201901N002610121919N009999199+03001+01401999999ADDGA1071+012191999GE19MSL   +99999+99999GF199999071999012191999999MA1101501999999REMMET051METAR SBQV 251800Z 19005KT 9999 BKN040 30/14 Q1015=
0149833440999992017032612004-14886-040801FM-12+088099999V0200501N0026199999999020000199+02571+01561101141ADDAA101999999AZ101061AZ201061GA1021+012501031GE19MSL   +99999+99999GF102991021999012501999999KA1120N+01761MA1999999091721MD1999999-0061REMSYN004BUFR
0142833440999992017032613004-14863-040863FM-15+091499999V0200101N002119999999N009999199+02801+01701999999ADDGA1021+007621999GE19MSL   +99999+99999GF199999021999007621999999MA1101901999999REMMET051METAR SBQV 261300Z 01004KT 9999 FEW025 28/17 Q1019=
0142833440999992017032614004-14863-040863FM-15+091499999V0200301N002110091419N009999199+02901+01601999999ADDGA1071+009141999GE19MSL   +99999+99999GF199999071999009141999999MA1101801999999REMMET051METAR SBQV 261400Z 03004KT 9999 BKN030 29/16 Q1018=
0142833440999992017032615004-14863-040863FM-15+091499999V0200701N002619999999N009999199+03001+01701999999ADDGA1041+009141999GE19MSL   +99999+99999GF199999041999009141999999MA1101701999999REMMET051METAR SBQV 261500Z 07005KT 9999 SCT030 30/17 Q1017=
0142833440999992017032616004-14863-040863FM-15+091499999V0200101N003119999999N009999199+03101+01501999999ADDGA1041+010671999GE19MSL   +99999+99999GF199999041999010671999999MA1101601999999REMMET051METAR SBQV 261600Z 01006KT 9999 SCT035 31/15 Q1016=
0142833440999992017032617004-14863-040863FM-15+091499999V0201101N003110106719N009999199+02901+01501999999ADDGA1071+010671999GE19MSL   +99999+99999GF199999071999010671999999MA1101501999999REMMET051METAR SBQV 261700Z 11006KT 9999 BKN035 29/15 Q1015=
0152833440999992017032618004-14886-040801FM-12+088099999V0201401N0031199999999020000199+02901+01801999999ADDAA101999999AZ101061AZ201061GA1021+003001081GA2999+999999031GE19MSL   +99999+99999GF104991021999003001999999MA1999999091311MD1999999-0091REMSYN004BUFR
0142833440999992017032618004-14863-040863FM-15+091499999V0201401N004110106719N009999199+02601+01901999999ADDGA1071+010671999GE19MSL   +99999+99999GF199999071999010671999999MA1101501999999REMMET051METAR SBQV 261800Z 14008KT 9999 BKN035 26/19 Q1015=
0142833440999992017032620004-14863-040863FM-15+091499999V0201001N003619999999N009999199+02901+01801999999ADDGA1041+012191999GE19MSL   +99999+99999GF199999041999012191999999MA1101501999999REMMET051METAR SBQV 262000Z 10007KT 9999 SCT040 29/18 Q1015=
0142833440999992017032621004-14863-040863FM-15+091499999V0200301N004619999999N009999199+02601+01901999999ADDGA1041+012191999GE19MSL   +99999+99999GF199999041999012191999999MA1101501999999REMMET051METAR SBQV 262100Z 03009KT 9999 SCT040 26/19 Q1015=
0165833440999992017032622004-14863-040863FM-15+091499999V0200501N00411021341CN009999199+02401+01801999999ADDGA1021+010671999GA2041+021341999GE19MSL   +99999+99999GF199999021999010671999999MA1101601999999REMMET058METAR SBQV 262200Z 05008KT 9999 FEW035 SCT070 24/18 Q1016=
0072833440999992017032700004-14863-040863FM-15+091499999V0201001N005719999999Y999999999+02401+01901999999ADDMA1101701999999REMMET045METAR SBQV 270000Z 10011KT CAVOK 24/19 Q1017=
0072833440999992017032702004-14863-040863FM-15+091499999V0200901N004119999999Y999999999+02301+01901999999ADDMA1101801999999REMMET045METAR SBQV 270200Z 09008KT CAVOK 23/19 Q1018=
0072833440999992017032703004-14863-040863FM-15+091499999V0200901N003619999999Y999999999+02301+01801999999ADDMA1101801999999REMMET045METAR SBQV 270300Z 09007KT CAVOK 23/18 Q1018=
0142833440999992017032708004-14863-040863FM-15+091499999V0209999C000019999999N009999199+02101+01701999999ADDGA1021+007621999GE19MSL   +99999+99999GF199999021999007621999999MA1101701999999REMMET051METAR SBQV 270800Z 00000KT 9999 FEW025 21/17 Q1017=
0142833440999992017032709004-14863-040863FM-15+091499999V0200301N002619999999N009999199+02001+01801999999ADDGA1021+009141999GE19MSL   +99999+99999GF199999021999009141999999MA1101801999999REMMET051METAR SBQV 270900Z 03005KT 9999 FEW030 20/18 Q1018=
0142833440999992017032711004-14863-040863FM-15+091499999V0200501N004119999999N009999199+02201+01801999999ADDGA1021+006101999GE19MSL   +99999+99999GF199999021999006101999999MA1101901999999REMMET051METAR SBQV 271100Z 05008KT 9999 FEW020 22/18 Q1019=
0165833440999992017032712004-14886-040801FM-12+088099999V0200501N0026199999999020000199+02501+01851101321ADDAA101999999AZ101061AZ201061GA1041+006001081GA2999+999999021GE19MSL   +99999+99999GF106991041999006001999999KA1120N+01861MA1999999091861MD1999999+0061REMSYN004BUFR
0142833440999992017032712004-14863-040863FM-15+091499999V0200701N002619999999N009999199+02301+01801999999ADDGA1021+007621999GE19MSL   +99999+99999GF199999021999007621999999MA1102001999999REMMET051METAR SBQV 271200Z 07005KT 9999 FEW025 23/18 Q1020=
0142833440999992017032713004-14863-040863FM-15+091499999V0203601N004619999999N009999199+02501+01801999999ADDGA1021+009141999GE19MSL   +99999+99999GF199999021999009141999999MA1102001999999REMMET051METAR SBQV 271300Z 36009KT 9999 FEW030 25/18 Q1020=
0142833440999992017032714004-14863-040863FM-15+091499999V0200501N003119999999N009999199+02701+01701999999ADDGA1041+012191999GE19MSL   +99999+99999GF199999041999012191999999MA1101901999999REMMET051METAR SBQV 271400Z 05006KT 9999 SCT040 27/17 Q1019=
0142833440999992017032715004-14863-040863FM-15+091499999V0202901N001519999999N009999199+02801+01601999999ADDGA1041+012191999GE19MSL   +99999+99999GF199999041999012191999999MA1101801999999REMMET051METAR SBQV 271500Z 29003KT 9999 SCT040 28/16 Q1018=
0142833440999992017032716004-14863-040863FM-15+091499999V0203101N003610121919N009999199+03001+01701999999ADDGA1071+012191999GE19MSL   +99999+99999GF199999071999012191999999MA1101701999999REMMET051METAR SBQV 271600Z 31007KT 9999 BKN040 30/17 Q1017=
0142833440999992017032717004-14863-040863FM-15+091499999V0200101N002619999999N009999199+03001+01701999999ADDGA1041+012191999GE19MSL   +99999+99999GF199999041999012191999999MA1101601999999REMMET051METAR SBQV 271700Z 01005KT 9999 SCT040 30/17 Q1016=
0168833440999992017032718004-14886-040801FM-12+088099999V0200901N0031199999999020000199+02911+02171999999ADDAA101999999AZ101061AZ201061GA1041+006001091GA2999+999999051GA3999+999999101GE19MSL   +99999+99999GF108991041999006001999999MA1999999091381MD1999999+0071REMSYN004BUFR
0142833440999992017032719004-14863-040863FM-15+091499999V0209999C000019999999N009999199+02901+01701999999ADDGA1041+012191999GE19MSL   +99999+99999GF199999041999012191999999MA1101501999999REMMET051METAR SBQV 271900Z 00000KT 9999 SCT040 29/17 Q1015=
0142833440999992017032720004-14863-040863FM-15+091499999V0200901N004110121919N009999199+02901+01701999999ADDGA1071+012191999GE19MSL   +99999+99999GF199999071999012191999999MA1101501999999REMMET051METAR SBQV 272000Z 09008KT 9999 BKN040 29/17 Q1015=
0153833440999992017032721004-14863-040863FM-15+091499999V0200801N004110121919N009999199+02601+01901999999ADDGA1071+012191999GE19MSL   +99999+99999GF199999071999012191999999MA1101601999999MW1161REMMET056METAR SBQV 272100Z 08008KT 9999 VCSH BKN040 26/19 Q1016=
0165833440999992017032722004-14863-040863FM-15+091499999V0201201N00511021341CN009999199+02601+01801999999ADDGA1041+012191999GA2041+021341999GE19MSL   +99999+99999GF199999041999012191999999MA1101601999999REMMET058METAR SBQV 272200Z 12010KT 9999 SCT040 SCT070 26/18 Q1016=
0174833440999992017032800004-14886-040801FM-12+088099999V0200901N0021100200199004000199+02351+02071101091ADDAA106000731AY191061AY261061GA1081+002001091GA2999+999999101GA3999+999999101GE19MSL   +99999+99999GF108991081999002001999999MA1999999091641MD1999999+0151MW1171REMSYN004BUFR
0142833440999992017032800004-14863-040863FM-15+091499999V0200901N004610091419N009999199+02501+02001999999ADDGA1071+009141999GE19MSL   +99999+99999GF199999071999009141999999MA1101801999999REMMET051METAR SBQV 280000Z 09009KT 9999 BKN030 25/20 Q1018=
0165833440999992017032802004-14863-040863FM-15+091499999V0200801N00361021341CN009999199+02301+02001999999ADDGA1041+009141999GA2041+021341999GE19MSL   +99999+99999GF199999041999009141999999MA1101801999999REMMET058METAR SBQV 280200Z 08007KT 9999 SCT030 SCT070 23/20 Q1018=
0202833440999992017032809004-14863-040863FM-15+091499999V0200901N002610042719N009999199+02101+01901999999ADDGA1071+004271999GA2021+007621091GA3071+021341999GE19MSL   +99999+99999GF199999071999004271999999MA1101801999999MW1951REMMET073METAR SBQV 280900Z 09005KT 9999 -TSRA BKN014 FEW025CB BKN070 21/19 Q1018=
0202833440999992017032810004-14863-040863FM-15+091499999V0200901N002110243819N009999199+02001+01901999999ADDGA1041+006101999GA2021+007621091GA3071+024381999GE19MSL   +99999+99999GF199999041999006101999999MA1101901999999MW1951REMMET073METAR SBQV 281000Z 09004KT 9999 -TSRA SCT020 FEW025CB BKN080 20/19 Q1019=
0187833440999992017032812004-14886-040801FM-12+088099999V0203601N0000199999999002000199+02071+01961101491ADDAA124016031AY191061AY281061GA1041+002001091GA2999+999999051GA3999+999999101GE19MSL   +99999+99999GF108991041999002001999999KA1120N+01841MA1999999091921MD1999999+0061MW1161REMSYN004BUFR
0175833440999992017032812004-14863-040863FM-15+091499999V0209999C000010061019N009999199+02001+01901999999ADDGA1071+006101999GA2071+024381999GE19MSL   +99999+99999GF199999071999006101999999MA1102101999999MW1611REMMET062METAR SBQV 281200Z 00000KT 9999 -RA BKN020 BKN080 20/19 Q1021=
0165833440999992017032813004-14863-040863FM-15+091499999V0200601N003110243819N009999199+02201+01801999999ADDGA1021+007621999GA2071+024381999GE19MSL   +99999+99999GF199999021999007621999999MA1102001999999REMMET058METAR SBQV 281300Z 06006KT 9999 FEW025 BKN080 22/18 Q1020=
0165833440999992017032814004-14863-040863FM-15+091499999V0203501N004110243819N009999199+02301+01701999999ADDGA1021+007621999GA2071+024381999GE19MSL   +99999+99999GF199999021999007621999999MA1101901999999REMMET058METAR SBQV 281400Z 35008KT 9999 FEW025 BKN080 23/17 Q1019=
0165833440999992017032815004-14863-040863FM-15+091499999V0200201N003110243819N009999199+02501+01701999999ADDGA1021+009141999GA2071+024381999GE19MSL   +99999+99999GF199999021999009141999999MA1101801999999REMMET058METAR SBQV 281500Z 02006KT 9999 FEW030 BKN080 25/17 Q1018=
0165833440999992017032816004-14863-040863FM-15+091499999V0202801N00211021341CN009999199+02701+01701999999ADDGA1041+009141999GA2041+021341999GE19MSL   +99999+99999GF199999041999009141999999MA1101701999999REMMET058METAR SBQV 281600Z 28004KT 9999 SCT030 SCT070 27/17 Q1017=
0165833440999992017032817004-14863-040863FM-15+091499999V0203201N003610091419N009999199+02901+01701999999ADDGA1071+009141999GA2041+021341999GE19MSL   +99999+99999GF199999071999009141999999MA1101601999999REMMET058METAR SBQV 281700Z 32007KT 9999 BKN030 SCT070 29/17 Q1016=
0168833440999992017032818004-14886-040801FM-12+088099999V0203201N0031199999999020000199+03011+02031999999ADDAA101999999AZ101061AZ201061GA1041+002001091GA2999+999999031GA3999+999999001GE19MSL   +99999+99999GF107991041999002001999999MA1999999091371MD1999999-0011REMSYN004BUFR
0165833440999992017032820004-14863-040863FM-15+091499999V0209999C00001021341CN009999199+02801+01501999999ADDGA1041+012191999GA2041+021341999GE19MSL   +99999+99999GF199999041999012191999999MA1101501999999REMMET058METAR SBQV 282000Z 00000KT 9999 SCT040 SCT070 28/15 Q1015=
0165833440999992017032821004-14863-040863FM-15+091499999V0201001N003610213419N009999199+02601+02101999999ADDGA1041+010671999GA2071+021341999GE19MSL   +99999+99999GF199999041999010671999999MA1101501999999REMMET058METAR SBQV 282100Z 10007KT 9999 SCT035 BKN070 26/21 Q1015=
0072833440999992017032822004-14863-040863FM-15+091499999V0201101N003619999999Y999999999+02401+01901999999ADDMA1101601999999REMMET045METAR SBQV 282200Z 11007KT CAVOK 24/19 Q1016=
0072833440999992017032823004-14863-040863FM-15+091499999V0201101N001519999999Y999999999+02401+01901999999ADDMA1101601999999REMMET045METAR SBQV 282300Z 11003KT CAVOK 24/19 Q1016=
0174833440999992017032900004-14886-040801FM-12+088099999V0201801N0005100200199002000199+02351+02131101071ADDAA106000131AY151061AY221061GA1081+002001071GA2999+999999101GA3999+999999101GE19MSL   +99999+99999GF108991081999002001999999MA1999999091541MD1999999-0101MW1501REMSYN004BUFR
0111833440999992017032901004-14863-040863FM-15+091499999V0201301N002612200019N009999199+02201+02001999999ADDGF100991999999999999999999MA1101701999999MW1611REMMET052METAR SBQV 290100Z 13005KT 9999 -RA NSC 22/20 Q1017=
0152833440999992017032910004-14863-040863FM-15+091499999V0209999C000010024419N009999199+01901+01801999999ADDGA1071+002441999GE19MSL   +99999+99999GF199999071999002441999999MA1101801999999MW1611REMMET055METAR SBQV 291000Z 00000KT 9999 -RA BKN008 19/18 Q1018=
0152833440999992017032911004-14863-040863FM-15+091499999V0201301N002110015219N002000199+01801+01801999999ADDGA1071+001521999GE19MSL   +99999+99999GF199999071999001521999999MA1101901999999MW1611REMMET055METAR SBQV 291100Z 13004KT 2000 -RA BKN005 18/18 Q1019=
0187833440999992017032912004-14886-040801FM-12+088099999V0200501N0010199999999010000199+02001+01921101351ADDAA124083031AY191061AY281061GA1041+002001091GA2999+999999051GA3999+999999101GE19MSL   +99999+99999GF108991041999002001999999KA1120N+01721MA1999999091771MD1999999-0151MW1021REMSYN004BUFR
0142833440999992017032912004-14863-040863FM-15+091499999V0209999C000010061019N009999199+02001+01801999999ADDGA1071+006101999GE19MSL   +99999+99999GF199999071999006101999999MA1101901999999REMMET051METAR SBQV 291200Z 00000KT 9999 BKN020 20/18 Q1019=
0175833440999992017032913004-14863-040863FM-15+091499999V0200101N002610061019N009999199+02001+01801999999ADDGA1041+002441999GA2071+006101999GE19MSL   +99999+99999GF199999041999002441999999MA1101901999999MW1611REMMET062METAR SBQV 291300Z 01005KT 9999 -RA SCT008 BKN020 20/18 Q1019=
0152833440999992017032914004-14863-040863FM-15+091499999V0203301N004110021319N005000199+02001+01901999999ADDGA1071+002131999GE19MSL   +99999+99999GF199999071999002131999999MA1102001999999MW1611REMMET055METAR SBQV 291400Z 33008KT 5000 -RA BKN007 20/19 Q1020=
0152833440999992017032915004-14863-040863FM-15+091499999V0203301N004610015219N002000199+01801+01801999999ADDGA1071+001521999GE19MSL   +99999+99999GF199999071999001521999999MA1101901999999MW1611REMMET055METAR SBQV 291500Z 33009KT 2000 -RA BKN005 18/18 Q1019=
0142833440999992017032916004-14863-040863FM-15+091499999V0209999C000010091419N009999199+02001+01801999999ADDGA1071+009141999GE19MSL   +99999+99999GF199999071999009141999999MA1101801999999REMMET051METAR SBQV 291600Z 00000KT 9999 BKN030 20/18 Q1018=
0165833440999992017032917004-14863-040863FM-15+091499999V0203401N003110213419N009999199+02101+01701999999ADDGA1041+004571999GA2071+021341999GE19MSL   +99999+99999GF199999041999004571999999MA1101701999999REMMET058METAR SBQV 291700Z 34006KT 9999 SCT015 BKN070 21/17 Q1017=
0174833440999992017032918004-14886-040801FM-12+088099999V0203601N0015199999999020000199+02211+01881999999ADDAA106006031AY181061AY261061GA1041+002001091GA2999+999999051GA3999+999999101GE19MSL   +99999+99999GF108991041999002001999999MA1999999091491MD1999999+0121MW1021REMSYN004BUFR
0165833440999992017032918004-14863-040863FM-15+091499999V0200101N002610213419N009999199+02101+01801999999ADDGA1041+004571999GA2081+021341999GE19MSL   +99999+99999GF199999041999004571999999MA1101601999999REMMET058METAR SBQV 291800Z 01005KT 9999 SCT015 OVC070 21/18 Q1016=
0165833440999992017032920004-14863-040863FM-15+091499999V0202901N002110213419N009999199+02101+01801999999ADDGA1021+006101999GA2071+021341999GE19MSL   +99999+99999GF199999021999006101999999MA1101601999999REMMET058METAR SBQV 292000Z 29004KT 9999 FEW020 BKN070 21/18 Q1016=
0072833440999992017032921004-14863-040863FM-15+091499999V0209999C000019999999Y999999999+02201+01901999999ADDMA1101601999999REMMET045METAR SBQV 292100Z 00000KT CAVOK 22/19 Q1016=
0072833440999992017032922004-14863-040863FM-15+091499999V0209999C000019999999Y999999999+02101+01801999999ADDMA1101601999999REMMET045METAR SBQV 292200Z 00000KT CAVOK 21/18 Q1016=
0072833440999992017032923004-14863-040863FM-15+091499999V0201201N002619999999Y999999999+02101+01901999999ADDMA1101701999999REMMET045METAR SBQV 292300Z 12005KT CAVOK 21/19 Q1017=
0136833440999992017033000004-14886-040801FM-12+088099999V0201801N0015199999999004000199+02001+01901101221ADDAA101999999AZ101061AZ201061GA1021+003001081GE19MSL   +99999+99999GF102991021999003001999999MA1999999091591MD1999999+0051REMSYN004BUFR
0142833440999992017033001004-14863-040863FM-15+091499999V0201301N003610012219N009999199+02001+01901999999ADDGA1071+001221999GE19MSL   +99999+99999GF199999071999001221999999MA1101801999999REMMET051METAR SBQV 300100Z 13007KT 9999 BKN004 20/19 Q1018=
0142833440999992017033002004-14863-040863FM-15+091499999V0201201N004110012219N009999199+02001+01901999999ADDGA1071+001221999GE19MSL   +99999+99999GF199999071999001221999999MA1101801999999REMMET051METAR SBQV 300200Z 12008KT 9999 BKN004 20/19 Q1018=
0142833440999992017033009004-14863-040863FM-15+091499999V0201401N004110015219N009999199+01901+01801999999ADDGA1071+001521999GE19MSL   +99999+99999GF199999071999001521999999MA1101701999999REMMET051METAR SBQV 300900Z 14008KT 9999 BKN005 19/18 Q1017=
0142833440999992017033010004-14863-040863FM-15+091499999V0201301N004110018319N009999199+01801+01601999999ADDGA1071+001831999GE19MSL   +99999+99999GF199999071999001831999999MA1101801999999REMMET051METAR SBQV 301000Z 13008KT 9999 BKN006 18/16 Q1018=
0152833440999992017033011004-14863-040863FM-15+091499999V0201201N003610018319N003000199+01701+01701999999ADDGA1071+001831999GE19MSL   +99999+99999GF199999071999001831999999MA1101901999999MW1611REMMET055METAR SBQV 301100Z 12007KT 3000 -RA BKN006 17/17 Q1019=
0187833440999992017033012004-14886-040801FM-12+088099999V0201801N0005100300199010000199+01851+01741101471ADDAA124009031AY161061AY221061GA1081+003001071GA2999+999999101GA3999+999999101GE19MSL   +99999+99999GF108991081999003001999999KA1120N+01701MA1999999091781MD1999999+0011MW1621REMSYN004BUFR
0152833440999992017033012004-14863-040863FM-15+091499999V0201201N004610018319N005000199+01801+01701999999ADDGA1071+001831999GE19MSL   +99999+99999GF199999071999001831999999MA1101901999999MW1611REMMET055METAR SBQV 301200Z 12009KT 5000 -RA BKN006 18/17 Q1019=
0142833440999992017033013004-14863-040863FM-15+091499999V0201601N004110018319N009999199+01801+01801999999ADDGA1071+001831999GE19MSL   +99999+99999GF199999071999001831999999MA1102001999999REMMET051METAR SBQV 301300Z 16008KT 9999 BKN006 18/18 Q1020=
0152833440999992017033014004-14863-040863FM-15+091499999V0201201N003610018319N009999199+01801+01701999999ADDGA1071+001831999GE19MSL   +99999+99999GF199999071999001831999999MA1102001999999MW1611REMMET055METAR SBQV 301400Z 12007KT 9999 -RA BKN006 18/17 Q1020=
0142833440999992017033015004-14863-040863FM-15+091499999V0201401N003110021319N009999199+01801+01801999999ADDGA1071+002131999GE19MSL   +99999+99999GF199999071999002131999999MA1101901999999REMMET051METAR SBQV 301500Z 14006KT 9999 BKN007 18/18 Q1019=
0152833440999992017033016004-14863-040863FM-15+091499999V0201601N003610018319N009999199+01801+01801999999ADDGA1071+001831999GE19MSL   +99999+99999GF199999071999001831999999MA1101901999999MW1611REMMET055METAR SBQV 301600Z 16007KT 9999 -RA BKN006 18/18 Q1019=
0174833440999992017033018004-14886-040801FM-12+088099999V0201401N0005100200199004000199+01921+01841999999ADDAA106002031AY151061AY221061GA1081+002001071GA2999+999999101GA3999+999999101GE19MSL   +99999+99999GF108991081999002001999999MA1999999091601MD1999999+0111MW1161REMSYN004BUFR
0142833440999992017033018004-14863-040863FM-15+091499999V0201301N004610021319N009999199+01901+01801999999ADDGA1081+002131999GE19MSL   +99999+99999GF199999081999002131999999MA1101801999999REMMET051METAR SBQV 301800Z 13009KT 9999 OVC007 19/18 Q1018=
0142833440999992017033019004-14863-040863FM-15+091499999V0201401N004110021319N009999199+01801+01701999999ADDGA1071+002131999GE19MSL   +99999+99999GF199999071999002131999999MA1101701999999REMMET051METAR SBQV 301900Z 14008KT 9999 BKN007 18/17 Q1017=
0142833440999992017033020004-14863-040863FM-15+091499999V0201101N003610045719N009999199+01901+01801999999ADDGA1071+004571999GE19MSL   +99999+99999GF199999071999004571999999MA1101701999999REMMET051METAR SBQV 302000Z 11007KT 9999 BKN015 19/18 Q1017=
0142833440999992017033022004-14863-040863FM-15+091499999V0201101N003110015219N009999199+01901+01801999999ADDGA1071+001521999GE19MSL   +99999+99999GF199999071999001521999999MA1101801999999REMMET051METAR SBQV 302200Z 11006KT 9999 BKN005 19/18 Q1018=
0142833440999992017033023004-14863-040863FM-15+091499999V0201101N003610012219N009999199+01801+01801999999ADDGA1071+001221999GE19MSL   +99999+99999GF199999071999001221999999MA1101901999999REMMET051METAR SBQV 302300Z 11007KT 9999 BKN004 18/18 Q1019=
0168833440999992017033100004-14886-040801FM-12+088099999V0200901N0005100200199002000199+01871+01811101481ADDAA101999999AZ101061AZ201061GA1081+002001071GA2999+999999101GA3999+999999101GE19MSL   +99999+99999GF108991081999002001999999MA1999999091761MD1999999+0171REMSYN004BUFR
0142833440999992017033100004-14863-040863FM-15+091499999V0201301N003610012219N009999199+01901+01801999999ADDGA1071+001221999GE19MSL   +99999+99999GF199999071999001221999999MA1101901999999REMMET051METAR SBQV 310000Z 13007KT 9999 BKN004 19/18 Q1019=
0142833440999992017033101004-14863-040863FM-15+091499999V0201101N002610012219N009999199+01801+01801999999ADDGA1071+001221999GE19MSL   +99999+99999GF199999071999001221999999MA1101901999999REMMET051METAR SBQV 310100Z 11005KT 9999 BKN004 18/18 Q1019=
0146833440999992017033109004-14863-040863FM-15+091499999V0209999C000010009119N004000199+99999+99999999999ADDGA1081+000911999GE19MSL   +99999+99999GF199999081999000911999999MW1101MW2511REMMET058METAR SBQV 310900Z 00000KT 4000 -DZ BR OVC003 ///// Q1019=
0127833440999992017033111004-14863-040863FM-15+091499999V0200201N001510012219N009999199+99999+99999999999ADDGA1081+001221999GE19MSL   +99999+99999GF199999081999001221999999REMMET051METAR SBQV 311100Z 02003KT 9999 OVC004 ///// Q1020=
0187833440999992017033112004-14886-040801FM-12+088099999V0200501N0015100300199020000199+02221+01941101501ADDAA124002031AY151061AY221061GA1082+003001071GA2999+999999101GA3999+999999101GE19MSL   +99999+99999GF107992082999003001999999KA1120N+01681MA1999999091861MD1999999+0081MW1031REMSYN004BUFR
0142833440999992017033112004-14863-040863FM-15+091499999V0200201N002610030519N009999199+02101+01901999999ADDGA1071+003051999GE19MSL   +99999+99999GF199999071999003051999999MA1102001999999REMMET051METAR SBQV 311200Z 02005KT 9999 BKN010 21/19 Q1020=
0142833440999992017033113004-14863-040863FM-15+091499999V0200601N002610045719N009999199+02401+02001999999ADDGA1071+004571999GE19MSL   +99999+99999GF199999071999004571999999MA1102001999999REMMET051METAR SBQV 311300Z 06005KT 9999 BKN015 24/20 Q1020=
0142833440999992017033114004-14863-040863FM-15+091499999V0200301N002110061019N009999199+02401+01901999999ADDGA1071+006101999GE19MSL   +99999+99999GF199999071999006101999999MA1102001999999REMMET051METAR SBQV 311400Z 03004KT 9999 BKN020 24/19 Q1020=
0142833440999992017033115004-14863-040863FM-15+091499999V0200101N003610076219N009999199+02401+01901999999ADDGA1071+007621999GE19MSL   +99999+99999GF199999071999007621999999MA1101901999999REMMET051METAR SBQV 311500Z 01007KT 9999 BKN025 24/19 Q1019=
0175833440999992017033116004-14863-040863FM-15+091499999V0200201N003110076219N009999199+02301+02001999999ADDGA1041+004571999GA2071+007621999GE19MSL   +99999+99999GF199999041999004571999999MA1101801999999MW1511REMMET062METAR SBQV 311600Z 02006KT 9999 -DZ SCT015 BKN025 23/20 Q1018=
0142833440999992017033117004-14863-040863FM-15+091499999V0200101N003110091419N009999199+02601+02001999999ADDGA1071+009141999GE19MSL   +99999+99999GF199999071999009141999999MA1101801999999REMMET051METAR SBQV 311700Z 01006KT 9999 BKN030 26/20 Q1018=
0152833440999992017033118004-14886-040801FM-12+088099999V0201401N0031199999999020000199+02271+02071999999ADDAA101999999AZ101061AZ201061GA1041+006001081GA2999+999999051GE19MSL   +99999+99999GF107991041999006001999999MA1999999091571MD1999999-0031REMSYN004BUFR
0142833440999992017033118004-14863-040863FM-15+091499999V0209999C000010091419N009999199+02601+02001999999ADDGA1071+009141999GE19MSL   +99999+99999GF199999071999009141999999MA1101701999999REMMET051METAR SBQV 311800Z 00000KT 9999 BKN030 26/20 Q1017=
0142833440999992017033119004-14863-040863FM-15+091499999V0201301N004619999999N009999199+02301+01901999999ADDGA1041+009141999GE19MSL   +99999+99999GF199999041999009141999999MA1101701999999REMMET051METAR SBQV 311900Z 13009KT 9999 SCT030 23/19 Q1017=
0142833440999992017033120004-14863-040863FM-15+091499999V0201201N004110045719N009999199+02101+02001999999ADDGA1071+004571999GE19MSL   +99999+99999GF199999071999004571999999MA1101801999999REMMET051METAR SBQV 312000Z 12008KT 9999 BKN015 21/20 Q1018=
0152833440999992017033121004-14863-040863FM-15+091499999V0201101N006210021319N009999199+02001+01901999999ADDGA1071+002131999GE19MSL   +99999+99999GF199999071999002131999999MA1101801999999MW1511REMMET055METAR SBQV 312100Z 11012KT 9999 -DZ BKN007 20/19 Q1018=
0152833440999992017033123004-14863-040863FM-15+091499999V0201201N003610021319N008000199+02001+02001999999ADDGA1071+002131999GE19MSL   +99999+99999GF199999071999002131999999MA1101901999999MW1611REMMET055METAR SBQV 312300Z 12007KT 8000 -RA BKN007 20/20 Q1019=
0174833440999992017040100004-14886-040801FM-12+088099999V0200901N0010100300199002000199+02011+01931101431ADDAA106020031AY161061AY221061GA1081+003001071GA2999+999999101GA3999+999999101GE19MSL   +99999+99999GF108991081999003001999999MA1999999091821MD1999999+0061MW1621REMSYN004BUFR
0161833440999992017040100004-14863-040863FM-15+091499999V0201201N003110015219N005000199+02001+01901999999ADDGA1071+001521999GE19MSL   +99999+99999GF199999071999001521999999MA1102001999999MW1101MW2611REMMET058METAR SBQV 010000Z 12006KT 5000 -RA BR BKN005 20/19 Q1020=
0184833440999992017040110004-14863-040863FM-15+091499999V0201301N005710015219N003000199+01701+01701999999ADDGA1071+001521999GA2081+021341999GE19MSL   +99999+99999GF199999071999001521999999MA1101901999999MW1101MW2511REMMET065METAR SBQV 011000Z 13011KT 3000 -DZ BR BKN005 OVC070 17/17 Q1019=
0165833440999992017040111004-14863-040863FM-15+091499999V0201301N006710015219N008000199+01701+01701999999ADDGA1071+001521999GA2081+021341999GE19MSL   +99999+99999GF199999071999001521999999MA1102001999999REMMET058METAR SBQV 011100Z 13013KT 8000 BKN005 OVC070 17/17 Q1020=
0187833440999992017040112004-14886-040801FM-12+088099999V0201801N0031100300199010000199+01871+01761101601ADDAA124032031AY161061AY221061GA1081+003001071GA2999+999999101GA3999+999999101GE19MSL   +99999+99999GF108991081999003001999999KA1120N+01681MA1999999091921MD1999999+0101MW1021REMSYN004BUFR
0165833440999992017040112004-14863-040863FM-15+091499999V0201301N005710015219N008000199+01801+01801999999ADDGA1071+001521999GA2081+021341999GE19MSL   +99999+99999GF199999071999001521999999MA1102101999999REMMET058METAR SBQV 011200Z 13011KT 8000 BKN005 OVC070 18/18 Q1021=
0207833440999992017040113004-14863-040863FM-15+091499999V0201201N006210015219N004000199+01801+01801999999ADDGA1071+001521999GA2071+001831999GA3081+021341999GE19MSL   +99999+99999GF199999071999001521999999MA1102101999999MW1101MW2611REMMET072METAR SBQV 011300Z 12012KT 4000 -RA BR BKN005 BKN006 OVC070 18/18 Q1021=
0175833440999992017040114004-14863-040863FM-15+091499999V0201301N005710021319N006000199+01801+01801999999ADDGA1071+002131999GA2081+021341999GE19MSL   +99999+99999GF199999071999002131999999MA1102001999999MW1611REMMET062METAR SBQV 011400Z 13011KT 6000 -RA BKN007 OVC070 18/18 Q1020=
0175833440999992017040115004-14863-040863FM-15+091499999V0201301N004110021319N006000199+02001+01901999999ADDGA1071+002131999GA2081+021341999GE19MSL   +99999+99999GF199999071999002131999999MA1102001999999MW1611REMMET062METAR SBQV 011500Z 13008KT 6000 -RA BKN007 OVC070 20/19 Q1020=
0184833440999992017040116004-14863-040863FM-15+091499999V0201201N005110018319N003000199+01901+01901999999ADDGA1071+001831999GA2081+021341999GE19MSL   +99999+99999GF199999071999001831999999MA1101901999999MW1101MW2611REMMET065METAR SBQV 011600Z 12010KT 3000 -RA BR BKN006 OVC070 19/19 Q1019=
0165833440999992017040117004-14863-040863FM-15+091499999V0200601N003610024419N008000199+02001+01901999999ADDGA1071+002441999GA2081+021341999GE19MSL   +99999+99999GF199999071999002441999999MA1101901999999REMMET058METAR SBQV 011700Z 06007KT 8000 BKN008 OVC070 20/19 Q1019=
0193833440999992017040118004-14886-040801FM-12+088099999V0201401N0026100200199004000199+99999+01841999999ADDAA106004031AY151061AY221061GA1081+002001071GA2999+999999101GA3999+999999101GE19MSL   +99999+99999GF108991081999002001999999MA1999999091681MD1999999+0111MW1511REMSYN004BUFREQDQ0129.2  3ATOT  
0175833440999992017040118004-14863-040863FM-15+091499999V0201001N003110024419N006000199+02001+01801999999ADDGA1071+002441999GA2081+021341999GE19MSL   +99999+99999GF199999071999002441999999MA1101801999999MW1611REMMET062METAR SBQV 011800Z 10006KT 6000 -RA BKN008 OVC070 20/18 Q1018=
0184833440999992017040119004-14863-040863FM-15+091499999V0201201N003110015219N002000199+01901+01801999999ADDGA1071+001521999GA2081+021341999GE19MSL   +99999+99999GF199999071999001521999999MA1101801999999MW1101MW2611REMMET065METAR SBQV 011900Z 12006KT 2000 -RA BR BKN005 OVC070 19/18 Q1018=
0184833440999992017040120004-14863-040863FM-15+091499999V0201301N002610012219N002000199+01901+01801999999ADDGA1071+001221999GA2081+021341999GE19MSL   +99999+99999GF199999071999001221999999MA1101801999999MW1101MW2511REMMET065METAR SBQV 012000Z 13005KT 2000 -DZ BR BKN004 OVC070 19/18 Q1018=
0184833440999992017040121004-14863-040863FM-15+091499999V0201501N003110012219N001500199+01801+01801999999ADDGA1071+001221999GA2081+021341999GE19MSL   +99999+99999GF199999071999001221999999MA1101901999999MW1101MW2511REMMET065METAR SBQV 012100Z 15006KT 1500 -DZ BR BKN004 OVC070 18/18 Q1019=
0184833440999992017040204004-14863-040863FM-15+091499999V0201201N004110213419N004000199+01801+01701999999ADDGA1041+001831999GA2081+021341999GE19MSL   +99999+99999GF199999041999001831999999MA1101901999999MW1101MW2511REMMET065METAR SBQV 020400Z 12008KT 4000 -DZ BR SCT006 OVC070 18/17 Q1019=
0187833440999992017040212004-14886-040801FM-12+088099999V0201801N0021100300199010000199+01871+01861101621ADDAA124021031AY161061AY221061GA1081+003001071GA2999+999999101GA3999+999999101GE19MSL   +99999+99999GF108991081999003001999999KA1120N+01721MA1999999091891MD1999999-0031MW1031REMSYN004BUFR
0165833440999992017040213004-14863-040863FM-15+091499999V0201301N003110021319N009999199+01901+01801999999ADDGA1071+002131999GA2071+021341999GE19MSL   +99999+99999GF199999071999002131999999MA1102001999999REMMET058METAR SBQV 021300Z 13006KT 9999 BKN007 BKN070 19/18 Q1020=
0175833440999992017040214004-14863-040863FM-15+091499999V0201201N002110024419N009999199+02101+01901999999ADDGA1071+002441999GA2071+021341999GE19MSL   +99999+99999GF199999071999002441999999MA1102001999999MW1511REMMET062METAR SBQV 021400Z 12004KT 9999 -DZ BKN008 BKN070 21/19 Q1020=
0184833440999992017040215004-14863-040863FM-15+091499999V0200201N002610024419N003000199+02101+01901999999ADDGA1071+002441999GA2081+021341999GE19MSL   +99999+99999GF199999071999002441999999MA1101901999999MW1101MW2611REMMET065METAR SBQV 021500Z 02005KT 3000 -RA BR BKN008 OVC070 21/19 Q1019=
0176833440999992017040216004-14863-040863FM-15+091499999V0202901N001510213419N006000199+02201+02001999999ADDGA1041+003351999GA2071+021341999GE19MSL   +99999+99999GF199999041999003351999999MA1101801999999MW1161REMMET063METAR SBQV 021600Z 29003KT 6000 VCSH SCT011 BKN070 22/20 Q1018=
0175833440999992017040217004-14863-040863FM-15+091499999V0200401N002110213419N006000199+02201+01901999999ADDGA1041+002741999GA2071+021341999GE19MSL   +99999+99999GF199999041999002741999999MA1101801999999MW1611REMMET062METAR SBQV 021700Z 04004KT 6000 -RA SCT009 BKN070 22/19 Q1018=
0174833440999992017040218004-14886-040801FM-12+088099999V0201801N0031100300199010000199+02021+01951999999ADDAA106001031AY161061AY221061GA1081+003001071GA2999+999999101GA3999+999999101GE19MSL   +99999+99999GF108991081999003001999999MA1999999091581MD1999999-0101MW1621REMSYN004BUFR
0165833440999992017040218004-14863-040863FM-15+091499999V0201801N003110213419N009999199+02001+01901999999ADDGA1041+002741999GA2071+021341999GE19MSL   +99999+99999GF199999041999002741999999MA1101701999999REMMET058METAR SBQV 021800Z 18006KT 9999 SCT009 BKN070 20/19 Q1017=
0176833440999992017040219004-14863-040863FM-15+091499999V0201601N004110213419N008000199+02101+02001999999ADDGA1041+002131999GA2071+021341999GE19MSL   +99999+99999GF199999041999002131999999MA1101701999999MW1161REMMET063METAR SBQV 021900Z 16008KT 8000 VCSH SCT007 BKN070 21/20 Q1017=
0175833440999992017040220004-14863-040863FM-15+091499999V0201101N002110021319N006000199+02001+01901999999ADDGA1071+002131999GA2071+021341999GE19MSL   +99999+99999GF199999071999002131999999MA1101801999999MW1611REMMET062METAR SBQV 022000Z 11004KT 6000 -RA BKN007 BKN070 20/19 Q1018=
0184833440999992017040221004-14863-040863FM-15+091499999V0201201N002610213419N004000199+02001+01901999999ADDGA1041+001831999GA2071+021341999GE19MSL   +99999+99999GF199999041999001831999999MA1101801999999MW1101MW2611REMMET065METAR SBQV 022100Z 12005KT 4000 -RA BR SCT006 BKN070 20/19 Q1018=
0142833440999992017040322004-14863-040863FM-15+091499999V0201201N006719999999N009999199+02001+01801999999ADDGA1041+004571999GE19MSL   +99999+99999GF199999041999004571999999MA1101801999999REMMET051METAR SBQV 032200Z 12013KT 9999 SCT015 20/18 Q1018=
0142833440999992017040323004-14863-040863FM-15+091499999V0201101N006219999999N009999199+01901+01801999999ADDGA1041+004571999GE19MSL   +99999+99999GF199999041999004571999999MA1101901999999REMMET051METAR SBQV 032300Z 11012KT 9999 SCT015 19/18 Q1019=
0142833440999992017040400004-14863-040863FM-15+091499999V0201101N005119999999N009999199+01901+01701999999ADDGA1041+004571999GE19MSL   +99999+99999GF199999041999004571999999MA1101901999999REMMET051METAR SBQV 040000Z 11010KT 9999 SCT015 19/17 Q1019=
0142833440999992017040401004-14863-040863FM-15+091499999V0201301N003619999999N009999199+01901+01701999999ADDGA1041+004571999GE19MSL   +99999+99999GF199999041999004571999999MA1101901999999REMMET051METAR SBQV 040100Z 13007KT 9999 SCT015 19/17 Q1019=
0142833440999992017040402004-14863-040863FM-15+091499999V0201301N002619999999N009999199+01801+01701999999ADDGA1041+004571999GE19MSL   +99999+99999GF199999041999004571999999MA1101901999999REMMET051METAR SBQV 040200Z 13005KT 9999 SCT015 18/17 Q1019=
0142833440999992017040409004-14863-040863FM-15+091499999V0201401N002110045719N009999199+01701+01601999999ADDGA1071+004571999GE19MSL   +99999+99999GF199999071999004571999999MA1101901999999REMMET051METAR SBQV 040900Z 14004KT 9999 BKN015 17/16 Q1019=
0072833440999992017040410004-14863-040863FM-15+091499999V0201301N003619999999Y999999999+01901+01701999999ADDMA1101901999999REMMET045METAR SBQV 041000Z 13007KT CAVOK 19/17 Q1019=
0072833440999992017040411004-14863-040863FM-15+091499999V0201201N004119999999Y999999999+02001+01601999999ADDMA1102001999999REMMET045METAR SBQV 041100Z 12008KT CAVOK 20/16 Q1020=
0187833440999992017040412004-14886-040801FM-12+088099999V0200901N0031199999999020000199+02301+01661101521ADDAA124000131AY151061AY221061GA1021+006001061GA2999+999999031GA3999+999999021GE19MSL   +99999+99999GF106991021999006001999999KA1120N+01641MA1999999091901MD1999999+0061MW1031REMSYN004BUFR
0072833440999992017040412004-14863-040863FM-15+091499999V0201001N005119999999Y999999999+02301+01601999999ADDMA1102101999999REMMET045METAR SBQV 041200Z 10010KT CAVOK 23/16 Q1021=
0072833440999992017040413004-14863-040863FM-15+091499999V0201301N004619999999Y999999999+02301+01601999999ADDMA1102101999999REMMET045METAR SBQV 041300Z 13009KT CAVOK 23/16 Q1021=
0142833440999992017040414004-14863-040863FM-15+091499999V0201101N004119999999N009999199+02501+01701999999ADDGA1041+006101999GE19MSL   +99999+99999GF199999041999006101999999MA1102001999999REMMET051METAR SBQV 041400Z 11008KT 9999 SCT020 25/17 Q1020=
0142833440999992017040415004-14863-040863FM-15+091499999V0201301N002610091419N009999199+02501+01701999999ADDGA1071+009141999GE19MSL   +99999+99999GF199999071999009141999999MA1101901999999REMMET051METAR SBQV 041500Z 13005KT 9999 BKN030 25/17 Q1019=
0142833440999992017040416004-14863-040863FM-15+091499999V0201401N003610091419N009999199+02501+01801999999ADDGA1071+009141999GE19MSL   +99999+99999GF199999071999009141999999MA1101801999999REMMET051METAR SBQV 041600Z 14007KT 9999 BKN030 25/18 Q1018=
0142833440999992017040417004-14863-040863FM-15+091499999V0201501N004610091419N009999199+02501+01901999999ADDGA1071+009141999GE19MSL   +99999+99999GF199999071999009141999999MA1101801999999REMMET051METAR SBQV 041700Z 15009KT 9999 BKN030 25/19 Q1018=
0152833440999992017040418004-14886-040801FM-12+088099999V0201401N0031199999999020000199+02501+02011999999ADDAA101999999AZ101061AZ201061GA1041+006001091GA2999+999999031GE19MSL   +99999+99999GF107991041999006001999999MA1999999091611MD1999999+0021REMSYN004BUFR
0142833440999992017040418004-14863-040863FM-15+091499999V0201401N004610076219N009999199+02401+01801999999ADDGA1071+007621999GE19MSL   +99999+99999GF199999071999007621999999MA1101801999999REMMET051METAR SBQV 041800Z 14009KT 9999 BKN025 24/18 Q1018=
0142833440999992017040420004-14863-040863FM-15+091499999V0201201N005719999999N009999199+02301+01901999999ADDGA1021+007621999GE19MSL   +99999+99999GF199999021999007621999999MA1101801999999REMMET051METAR SBQV 042000Z 12011KT 9999 FEW025 23/19 Q1018=
0142833440999992017040421004-14863-040863FM-15+091499999V0201201N004619999999N009999199+02101+01801999999ADDGA1021+007621999GE19MSL   +99999+99999GF199999021999007621999999MA1101901999999REMMET051METAR SBQV 042100Z 12009KT 9999 FEW025 21/18 Q1019=
