0201821980999992010010112004-01717-045400FM-12+004499999V0201101N002110450019N0010001N1+02521+02421101291ADDAA124022191AY161061AY221061GF108991041031004501021999KA1240N+02211MA1999999100771MD1999999+0081MW1031REMSYN088AAXX  01124 82198 21494 81104 10252 20242 30077 40129 70362 8432/ 333 20221 58008 60224;
0182821980999992010010118004-01717-045400FM-12+004499999V0200901N002110450019N0010001N1+02711+02301100961ADDAA106001091AY161061AY221061GF108991041051004501021999MA1999999100451MD1999999+0091MW1021REMSYN082AAXX  01184 82198 21494 80904 10271 20230 30045 40096 70262 8452/ 333 58009 60011;
0226821980999992010010200004-01717-045400FM-12+004499999V0203201N001510042019N0002001N1+02421+02321101101ADDAA106000391AY151061AY221061GF108991061031004501011999KA1240M+02761MA1999999100591MD1999999-0081REMSYN100AAXX  02004 82198 21492 83203 10242 20232 30059 40110 72452 8631/ 333 10276 29090 55000 59008 69931;EQDQ01+000242PRSWM1
0173821980999992010010212004-01717-045400FM-12+004499999V0201101N002110450019N0010001N1+02551+02421101191ADDAA124002091GF108991041021004501031041KA1240N+02241MA1999999100681MD1999999-0091REMSYN082AAXX  02124 82198 22494 81104 10255 20242 30068 40119 84234 333 20224 59009 60024;
0137821980999992010010218004-01717-045400FM-12+004499999V0200701N005110450019N0020001N1+03111+02261100801ADDGF106991041021004501061041MA1999999100291MD1999999-0161REMSYN070AAXX  02184 82198 32495 60710 10311 20226 30029 40080 84264 333 59016;
0213821980999992010010300004-01717-045400FM-12+004499999V0200901N005710042019N0001001N1+02301+02271101281ADDAA106093091AY191061AY261061GF108991051091004501021999KA1240M+03171MA1999999100761MD1999999+0171MW1651REMSYN100AAXX  03004 82198 21491 80911 10230 20227 30076 40128 76596 8592/ 333 10317 29087 55019 58017 60931;
0201821980999992010010312004-01717-045400FM-12+004499999V0201101N002110450019N0020001N1+02601+02501101141ADDAA124112091AY161061AY251061GF106991031021004501031061KA1240N+02201MA1999999100621MD1999999-0061MW1011REMSYN088AAXX  03124 82198 21495 61104 10260 20250 30062 40114 70165 83236 333 20220 59006 61124;
0182821980999992010010318004-01717-045400FM-12+004499999V0200701N001010042019N0020001N1+02491+02371100881ADDAA106017091AY161061AY221061GF108991051071004501061001MA1999999100361MD1999999+0071MW1621REMSYN082AAXX  03184 82198 21495 80702 10249 20237 30036 40088 76262 85760 333 58007 60171;
0168821980999992010010400004-01717-045400FM-12+004499999V0200501N002112200019N0002001N1+02531+02361101071ADDGF103991031021004501001001KA1240M+03031MA1999999100561MD1999999-0201REMSYN088AAXX  04004 82198 32492 30504 10253 20236 30056 40107 83200 333 10303 29094 55020 59020;
0173821980999992010010412004-01717-045400FM-12+004499999V0200701N004610042019N0020001N1+02921+02291101211ADDAA124017091GF106991061021004501001001KA1240N+02451MA1999999100701MD1999999+0081REMSYN082AAXX  04124 82198 22495 60709 10292 20229 30070 40121 86200 333 20245 58008 60174;
0137821980999992010010418004-01717-045400FM-12+004499999V0200701N003112200019N0020001N1+03251+02091101031ADDGF103991031021004501001001MA1999999100521MD1999999+0161REMSYN070AAXX  04184 82198 32495 30706 10325 20209 30052 40103 83200 333 58016;
0178821980999992010010500004-01717-045400FM-12+004499999V0200901N002112200019N0002001N1+02631+02271101141ADDGA1001+999999999GF100991001001999999001001KA1240M+03341MA1999999100631MD1999999+0071REMSYN082AAXX  05004 82198 32992 00904 10263 20227 30063 40114 333 10334 29071 55108 58007;
0156821980999992010010512004-01717-045400FM-12+004499999V0200201N003112200019N0020001N1+02871+02301101171ADDGF104991041021004501001001KA1240N+02331MA1999999100661MD1999999-0041REMSYN076AAXX  05124 82198 32495 40206 10287 20230 30066 40117 84200 333 20233 59004;
0137821980999992010010518004-01717-045400FM-12+004499999V0200501N005112200019N0020001N1+03201+02151100921ADDGF103991021021004501061001MA1999999100411MD1999999-0111REMSYN070AAXX  05184 82198 32495 30510 10320 20215 30041 40092 82260 333 59011;
0178821980999992010010600004-01717-045400FM-12+004499999V0200501N002112200019N0002001N1+02621+02311100971ADDGA1001+999999999GF100991001001999999001001KA1240M+03301MA1999999100461MD1999999-0171REMSYN082AAXX  06004 82198 32992 00504 10262 20231 30046 40097 333 10330 29073 55106 59017;
0156821980999992010010612004-01717-045400FM-12+004499999V0200501N003612200019N0020001N1+02881+02281101091ADDGF104991041021004501001001KA1240N+02331MA1999999100581MD1999999-0081REMSYN076AAXX  06124 82198 32495 40507 10288 20228 30058 40109 84200 333 20233 59008;
0137821980999992010010618004-01717-045400FM-12+004499999V0200501N005112200019N0020001N1+03341+02221100751ADDGF103991031021004501001001MA1999999100241MD1999999-0171REMSYN070AAXX  06184 82198 32495 30510 10334 20222 30024 40075 83200 333 59017;
0178821980999992010010700004-01717-045400FM-12+004499999V0200501N001512200019N0002001N1+02651+02371100941ADDGA1001+999999999GF100991001001999999001001KA1240M+03381MA1999999100431MD1999999-0031REMSYN082AAXX  07004 82198 32992 00503 10265 20237 30043 40094 333 10338 29073 55108 59003;
0156821980999992010010712004-01717-045400FM-12+004499999V0200501N002610450019N0020001N1+02891+02411101091ADDGF106991041021004501061001KA1240N+02311MA1999999100581MD1999999+0001REMSYN076AAXX  07124 82198 32495 60505 10289 20241 30058 40109 84260 333 20231 58000;
0137821980999992010010718004-01717-045400FM-12+004499999V0200201N004612200019N0020001N1+03041+02281100851ADDGF103991021021004501061001MA1999999100341MD1999999+0101REMSYN070AAXX  07184 82198 32495 30209 10304 20228 30034 40085 82260 333 58010;
0178821980999992010010800004-01717-045400FM-12+004499999V0200501N002612200019N0002001N1+02661+02411100991ADDGA1001+999999999GF100991001001999999001001KA1240M+03251MA1999999100481MD1999999+0051REMSYN082AAXX  08004 82198 32992 00505 10266 20241 30048 40099 333 10325 29078 55087 58005;
0156821980999992010010812004-01717-045400FM-12+004499999V0200501N003110450019N0020001N1+02961+02351101141ADDGF106991041021004501061001KA1240N+02341MA1999999100631MD1999999+0051REMSYN076AAXX  08124 82198 32495 60506 10296 20235 30063 40114 84260 333 20234 58005;
0137821980999992010010818004-01717-045400FM-12+004499999V0200501N003610450019N0020001N1+03141+02211100911ADDGF105991031021004501061001MA1999999100401MD1999999+0061REMSYN070AAXX  08184 82198 32495 50507 10314 20221 30040 40091 83260 333 58006;
0178821980999992010010900004-01717-045400FM-12+004499999V0200501N002112200019N0002001N1+02681+02391101071ADDGA1001+999999999GF100991001001999999001001KA1240M+03281MA1999999100561MD1999999+0081REMSYN082AAXX  09004 82198 32992 00504 10268 20239 30056 40107 333 10328 29074 55090 58008;
0184821980999992010010912004-01717-045400FM-12+004499999V0200901N002110450019N0010001N1+02681+02461101121ADDAY121061AY201061GF108991041031004501041999KA1240N+02341MA1999999100611MD1999999-0021MW1041REMSYN082AAXX  09124 82198 31494 80904 10268 20246 30061 40112 70420 8434/ 333 20234 59002;
0182821980999992010010918004-01717-045400FM-12+004499999V0200701N002110042019N0010001N1+02781+02561100871ADDAA106006191AY161061AY221061GF108991051031004501041999MA1999999100861MD1999999-0041MW1021REMSYN082AAXX  09184 82198 21494 80704 10278 20256 30086 40087 70262 8534/ 333 59004 60061;
0168821980999992010011000004-01717-045400FM-12+004499999V0200201N000510450019N0002001N1+02551+02401101051ADDGF108991041051004501041999KA1240M+02981MA1999999100541MD1999999-0021REMSYN088AAXX  10004 82198 32492 80201 10255 20240 30054 40105 8454/ 333 10298 29090 55001 59002;
0173821980999992010011012004-01717-045400FM-12+004499999V0200501N001510042019N0020001N1+02781+02501101091ADDAA124006191GF107991051031004501061001KA1240N+02311MA1999999100581MD1999999-0031REMSYN082AAXX  10124 82198 22495 70503 10278 20250 30058 40109 85360 333 20231 59003 60064;
0182821980999992010011018004-01717-045400FM-12+004499999V0203601N002610450019N0020001N1+03041+02451100841ADDAA106000391AY151061AY221061GF105991031021004501041001MA1999999100331MD1999999-0031MW1021REMSYN082AAXX  10184 82198 21495 53605 10304 20245 30033 40084 70252 83240 333 59003 69931;
0178821980999992010011100004-01717-045400FM-12+004499999V0200701N002112200019N0002001N1+02621+02421101021ADDGA1001+999999999GF100991001001999999001001KA1240M+03071MA1999999100511MD1999999-0031REMSYN082AAXX  11004 82198 32992 00704 10262 20242 30051 40102 333 10307 29084 55018 59003;
0173821980999992010011112004-01717-045400FM-12+004499999V0200701N002612200019N0020001N1+02861+02331101161ADDAA124000391GF106991041021004501001011KA1240N+02301MA1999999100651MD1999999+0071REMSYN082AAXX  11124 82198 22495 60705 10286 20233 30065 40116 84201 333 20230 58007 69934;
0137821980999992010011118004-01717-045400FM-12+004499999V0200701N004612200019N0020001N1+03221+02291100871ADDGF104991031021004501061001MA1999999100361MD1999999+0031REMSYN070AAXX  11184 82198 32495 40709 10322 20229 30036 40087 83260 333 58003;
0178821980999992010011200004-01717-045400FM-12+004499999V0200501N002612200019N0002001N1+02671+02391101031ADDGA1001+999999999GF100991001001999999001001KA1240M+03381MA1999999100521MD1999999+0011REMSYN082AAXX  12004 82198 32992 00505 10267 20239 30052 40103 333 10338 29075 55102 58001;
0156821980999992010011212004-01717-045400FM-12+004499999V0200901N002610450019N0020001N1+02911+02321101191ADDGF105991031021004501061001KA1240N+02461MA1999999100681MD1999999+0031REMSYN076AAXX  12124 82198 32495 50905 10291 20232 30068 40119 83260 333 20246 58003;
0137821980999992010011218004-01717-045400FM-12+004499999V0200701N005112200019N0020001N1+03111+02151100931ADDGF105991041021004501001011MA1999999100421MD1999999+0061REMSYN070AAXX  12184 82198 32495 50710 10311 20215 30042 40093 84201 333 58006;
0178821980999992010011300004-01717-045400FM-12+004499999V0200201N002612200019N0002001N1+02711+02351101121ADDGA1001+999999999GF100991001001999999001001KA1240M+03421MA1999999100611MD1999999+0091REMSYN082AAXX  13004 82198 32992 00205 10271 20235 30061 40112 333 10342 29072 55107 58009;
0156821980999992010011312004-01717-045400FM-12+004499999V0200901N002610450019N0020001N1+02941+02451101301ADDGF106991031021004501041061KA1240N+02421MA1999999100791MD1999999+0111REMSYN076AAXX  13124 82198 32495 60905 10294 20245 30079 40130 83246 333 20242 58011;
0137821980999992010011318004-01717-045400FM-12+004499999V0200901N003110450019N0020001N1+03041+02331101041ADDGF107991041051004501011041MA1999999100531MD1999999+0111REMSYN070AAXX  13184 82198 32495 70906 10304 20233 30053 40104 84514 333 58011;
0178821980999992010011400004-01717-045400FM-12+004499999V0200701N002612200019N0002001N1+02711+02391101201ADDGA1001+999999999GF100991001001999999001001KA1240M+03151MA1999999100691MD1999999+0081REMSYN082AAXX  14004 82198 32992 00705 10271 20239 30069 40120 333 10315 29077 55031 58008;
0201821980999992010011412004-01717-045400FM-12+004499999V0201101N001010450019N0020001N1+02701+02541101301ADDAA124000591AY161061AY221061GF108991041051004501061999KA1240N+02491MA1999999100791MD1999999+0001MW1031REMSYN088AAXX  14124 82198 21495 81102 10270 20254 30079 40130 70362 8456/ 333 20249 58000 69954;
0182821980999992010011418004-01717-045400FM-12+004499999V0200901N003110450019N0020001N1+03011+02421101021ADDAA106000591AY161061AY221061GF107991031051004501031001MA1999999100511MD1999999-0021MW1011REMSYN082AAXX  14184 82198 21495 70906 10301 20242 30051 40102 70162 83530 333 59002 69961;
0178821980999992010011500004-01717-045400FM-12+004499999V0200901N002612200019N0002001N1+02731+02411101161ADDGA1001+999999999GF100991001001999999001001KA1240M+03271MA1999999100651MD1999999-0041REMSYN082AAXX  15004 82198 32992 00905 10273 20241 30065 40116 333 10327 29082 55038 59004;
0173821980999992010011512004-01717-045400FM-12+004499999V0200701N002610450019N0020001N1+02991+02491101281ADDAA124000591GF106991031021004501031011KA1240N+02451MA1999999100771MD1999999-0021REMSYN082AAXX  15124 82198 22495 60705 10299 20249 30077 40128 83231 333 20245 59002 69964;
0137821980999992010011518004-01717-045400FM-12+004499999V0200701N006710450019N0020001N1+03241+02221101101ADDGF106991041021004501031001MA1999999100591MD1999999+0081REMSYN070AAXX  15184 82198 32495 60713 10324 20222 30059 40110 84230 333 58008;
0178821980999992010011600004-01717-045400FM-12+004499999V0200501N003612200019N0002001N1+02721+02371101261ADDGA1001+999999999GF100991001001999999001001KA1240M+03341MA1999999100751MD1999999+0101REMSYN082AAXX  16004 82198 32992 00507 10272 20237 30075 40126 333 10334 29073 55078 58010;
0156821980999992010011612004-01717-045400FM-12+004499999V0200901N003610450019N0020001N1+02971+02421101301ADDGF105991041021004501031001KA1240N+02491MA1999999100791MD1999999+0021REMSYN076AAXX  16124 82198 32495 50907 10297 20242 30079 40130 84230 333 20249 58002;
0137821980999992010011618004-01717-045400FM-12+004499999V0200701N005712200019N0020001N1+03221+02141101051ADDGF106991041021004501001011MA1999999100541MD1999999-0051REMSYN070AAXX  16184 82198 32495 60711 10322 20214 30054 40105 84201 333 59005;
0178821980999992010011700004-01717-045400FM-12+004499999V0200901N003112200019N0002001N1+02711+02391101181ADDGA1001+999999999GF100991001001999999001001KA1240M+03351MA1999999100671MD1999999-0081REMSYN082AAXX  17004 82198 32992 00906 10271 20239 30067 40118 333 10335 29072 55090 59008;
0156821980999992010011712004-01717-045400FM-12+004499999V0200901N003610042019N0020001N1+02921+02341101311ADDGF105991051021004501001001KA1240N+02481MA1999999100801MD1999999+0011REMSYN076AAXX  17124 82198 32495 50907 10292 20234 30080 40131 85200 333 20248 58001;
0137821980999992010011718004-01717-045400FM-12+004499999V0200701N005110042019N0020001N1+03231+02181101081ADDGF105991051021004501001001MA1999999100571MD1999999+0031REMSYN070AAXX  17184 82198 32495 50710 10323 20218 30057 40108 85200 333 58003;
0168821980999992010011800004-01717-045400FM-12+004499999V0200501N002612200019N0002001N1+02691+02391101231ADDGF102991021011004501001001KA1240M+03301MA1999999100721MD1999999+0051REMSYN088AAXX  18004 82198 32492 20505 10269 20239 30072 40123 82100 333 10330 29073 55088 58005;
0156821980999992010011812004-01717-045400FM-12+004499999V0200501N004110042019N0020001N1+02901+02321101311ADDGF105991051021004501001001KA1240N+02431MA1999999100801MD1999999+0001REMSYN076AAXX  18124 82198 32495 50508 10290 20232 30080 40131 85200 333 20243 58000;
0137821980999992010011818004-01717-045400FM-12+004499999V0203601N005712200019N0020001N1+03031+02341101051ADDGF103991031021004501001001MA1999999100541MD1999999-0031REMSYN070AAXX  18184 82198 32495 33611 10303 20234 30054 40105 83200 333 59003;
0156821980999992010011912004-01717-045400FM-12+004499999V0200701N003110042019N0020001N1+02881+02411101231ADDGF105991051021004501001001KA1240N+02361MA1999999100721MD1999999-0081REMSYN076AAXX  19124 82198 32495 50706 10288 20241 30072 40123 85200 333 20236 59008;
0201821980999992010011918004-01717-045400FM-12+004499999V0200201N005710450019N0020001N1+02971+02351100951ADDAA106000091AY151061AY221061GF105991031021004501041001MA1999999100441MD1999999-0101MW1021REMSYN082AAXX  19184 82198 21495 50211 10297 20235 30044 40095 70252 83240 333 59010 69911;EQDQ01  00002PRCP06
0168821980999992010012000004-01717-045400FM-12+004499999V0200501N002610450019N0002001N1+02751+02421101161ADDGF106991031021004501041001KA1240M+03161MA1999999100651MD1999999-0051REMSYN088AAXX  20004 82198 32492 60505 10275 20242 30065 40116 83240 333 10316 29078 55078 59005;
0192821980999992010012012004-01717-045400FM-12+004499999V0200201N003610450019N0020001N1+02821+02441101221ADDAA124000091GF107991041071004501041001KA1240N+02431MA1999999100711MD1999999-0011REMSYN082AAXX  20124 82198 22495 70207 10282 20244 30071 40122 84740 333 20243 59001 69914;EQDQ01  00002PRCP24
0182821980999992010012018004-01717-045400FM-12+004499999V0200701N003110042019N0010001N1+02791+02401100941ADDAA106002091AY161061AY251061GF108991051071004501021999MA1999999100431MD1999999-0011MW1151REMSYN082AAXX  20184 82198 21494 80706 10279 20240 30043 40094 71565 8572/ 333 59001 60021;
0213821980999992010012100004-01717-045400FM-12+004499999V0200201N003112200019N0002001N1+02681+02461101041ADDAA106001091AY161061AY221061GF104991021051004501041001KA1240M+03151MA1999999100531MD1999999-0121MW1021REMSYN100AAXX  21004 82198 21492 40206 10268 20246 30053 40104 70262 82540 333 10315 29084 55029 59012 60011;
0173821980999992010012112004-01717-045400FM-12+004499999V0200201N005710450019N0020001N1+02941+02361101231ADDAA124004191GF105991031021004501031001KA1240N+02431MA1999999100721MD1999999+0011REMSYN082AAXX  21124 82198 22495 50211 10294 20236 30072 40123 83230 333 20243 58001 60044;
0137821980999992010012118004-01717-045400FM-12+004499999V0200201N004112200019N0020001N1+03131+02331100891ADDGF104991031021004501061001MA1999999100381MD1999999-0051REMSYN070AAXX  21184 82198 32495 40208 10313 20233 30038 40089 83260 333 59005;
0168821980999992010012200004-01717-045400FM-12+004499999V0200501N002612200019N0002001N1+02701+02391101081ADDGF102991021021004501001001KA1240M+03241MA1999999100571MD1999999+0041REMSYN088AAXX  22004 82198 32492 20505 10270 20239 30057 40108 82200 333 10324 29075 55099 58004;
0156821980999992010012212004-01717-045400FM-12+004499999V0200701N003612200019N0020001N1+03041+02451101131ADDGF104991031021004501061001KA1240N+02371MA1999999100621MD1999999-0101REMSYN076AAXX  22124 82198 32495 40707 10304 20245 30062 40113 83260 333 20237 59010;
0137821980999992010012218004-01717-045400FM-12+004499999V0200201N004612200019N0020001N1+03051+02381100851ADDGF104991041021004501001001MA1999999100341MD1999999-0041REMSYN070AAXX  22184 82198 32495 40209 10305 20238 30034 40085 84200 333 59004;
0168821980999992010012300004-01717-045400FM-12+004499999V0200501N003112200019N0002001N1+02701+02411100991ADDGF102991021021004501001001KA1240M+03171MA1999999100481MD1999999-0091REMSYN088AAXX  23004 82198 32492 20506 10270 20241 30048 40099 82200 333 10317 29077 55101 59009;
0156821980999992010012312004-01717-045400FM-12+004499999V0200201N002110042019N0020001N1+02851+02421101071ADDGF106991051021004501041001KA1240N+02361MA1999999100561MD1999999-0061REMSYN076AAXX  23124 82198 32495 60204 10285 20242 30056 40107 85240 333 20236 59006;
0182821980999992010012318004-01717-045400FM-12+004499999V0200201N004610450019N0020001N1+02981+02471100651ADDAA106002091AY161061AY221061GF106991041021004501041001MA1999999100141MD1999999-0201MW1021REMSYN082AAXX  23184 82198 21495 60209 10298 20247 30014 40065 70262 84240 333 59020 60021;
0168821980999992010012400004-01717-045400FM-12+004499999V0200701N002610090019N0002001N1+02731+02431100961ADDGF106991051081004501061001KA1240M+03151MA1999999100451MD1999999-0031REMSYN088AAXX  24004 82198 32492 60705 10273 20243 30045 40096 85860 333 10315 29080 55060 59003;
0173821980999992010012412004-01717-045400FM-12+004499999V0200701N003110042019N0020001N1+02931+02471101011ADDAA124002091GF107991051051004501031001KA1240N+02441MA1999999100501MD1999999-0061REMSYN082AAXX  24124 82198 22495 70706 10293 20247 30050 40101 85530 333 20244 59006 60024;
0137821980999992010012418004-01717-045400FM-12+004499999V0200201N004610450019N0020001N1+03101+02341100641ADDGF105991031021004501061001MA1999999100131MD1999999-0011REMSYN070AAXX  24184 82198 32495 50209 10310 20234 30013 40064 83260 333 59001;
0232821980999992010012500004-01717-045400FM-12+004499999V0200501N003110450019N0002001N1+02751+02451101021ADDAA106000091AY151061AY221061GF107991041021004501041001KA1240M+03241MA1999999100511MD1999999+0061MW1021REMSYN100AAXX  25004 82198 21492 70506 10275 20245 30051 40102 70252 84240 333 10324 29077 55055 58006 69911;EQDQ01  00002PRCP06
0201821980999992010012512004-01717-045400FM-12+004499999V0200501N002110042019N0020001N1+02821+02331101111ADDAA124000391AY151061AY221061GF108991051031004501031999KA1240N+02351MA1999999100661MD1999999+0101MW1021REMSYN088AAXX  25124 82198 21495 80504 10282 20233 30066 40111 70252 8533/ 333 20235 58010 69934;
0137821980999992010012518004-01717-045400FM-12+004499999V0200201N005710042019N0020001N1+02921+02361100881ADDGF108991051031004501041999MA1999999100371MD1999999+0241REMSYN070AAXX  25184 82198 32495 80211 10292 20236 30037 40088 8534/ 333 58024;
0213821980999992010012600004-01717-045400FM-12+004499999V0202001N002110042019N0002001N1+02601+02501101071ADDAA106002091AY161061AY221061GF108991051051004501021999KA1240M+03151MA1999999100561MD1999999+0051MW1021REMSYN100AAXX  26004 82198 21492 82004 10260 20250 30056 40107 70262 8552/ 333 10315 29084 55006 58005 60021;
0201821980999992010012612004-01717-045400FM-12+004499999V0200901N003110042019N0010001N1+02621+02521101061ADDAA124007191AY161061AY221061GF108991051031004501061001KA1240N+02411MA1999999100551MD1999999-0051MW1611REMSYN088AAXX  26124 82198 21494 80906 10262 20252 30055 40106 76162 85360 333 20241 59005 60074;
0182821980999992010012618004-01717-045400FM-12+004499999V0203501N001010450019N0020001N1+02671+02311100761ADDAA106016091AY161061AY221061GF107991041021004501031041MA1999999100251MD1999999-0121MW1021REMSYN082AAXX  26184 82198 21495 73502 10267 20231 30025 40076 70262 84234 333 59012 60161;
0168821980999992010012700004-01717-045400FM-12+004499999V0200501N002610450019N0002001N1+02681+02451100911ADDGF105991031021004501031011KA1240M+02771MA1999999100401MD1999999-0161REMSYN088AAXX  27004 82198 32492 50505 10268 20245 30040 40091 83231 333 10277 29088 55012 59016;
0173821980999992010012712004-01717-045400FM-12+004499999V0201101N003610450019N0005001N1+02411+02231101131ADDAA124016091GF108991041071004501021999KA1240N+02311MA1999999100621MD1999999+0071REMSYN082AAXX  27124 82198 22493 81107 10241 20223 30062 40113 8472/ 333 20231 58007 60164;
0137821980999992010012718004-01717-045400FM-12+004499999V0200501N002610450019N0020001N1+03211+02211100721ADDGF106991031021004501031011MA1999999100211MD1999999-0041REMSYN070AAXX  27184 82198 32495 60505 10321 20221 30021 40072 83231 333 59004;
0178821980999992010012800004-01717-045400FM-12+004499999V0200501N002112200019N0002001N1+02641+02391100981ADDGA1001+999999999GF100991001001999999001001KA1240M+03281MA1999999100471MD1999999+0071REMSYN082AAXX  28004 82198 32992 00504 10264 20239 30047 40098 333 10328 29080 55049 58007;
0173821980999992010012812004-01717-045400FM-12+004499999V0201401N002610450019N0010001N1+02671+02351101101ADDAA124000591GF108991041071004501031001KA1240N+02351MA1999999100591MD1999999-0031REMSYN082AAXX  28124 82198 22494 81405 10267 20235 30059 40110 84730 333 20235 59003 69944;
0182821980999992010012818004-01717-045400FM-12+004499999V0203601N004110450019N0020001N1+02851+02311100751ADDAA106000391AY151061AY221061GF107991031071004501061001MA1999999100241MD1999999+0031MW1011REMSYN082AAXX  28184 82198 21495 73608 10285 20231 30024 40075 70152 83760 333 58003 69931;
0213821980999992010012900004-01717-045400FM-12+004499999V0200501N002610450019N0002001N1+02511+02401100971ADDAA106010991AY161061AY221061GF108991041071004501021999KA1240M+03061MA1999999100461MD1999999-0011MW1621REMSYN100AAXX  29004 82198 21492 80505 10251 20240 30046 40097 76262 8472/ 333 10306 29087 55016 59001 60111;
0201821980999992010012912004-01717-045400FM-12+004499999V0201101N001510450019N0010001N1+02611+02461101011ADDAA124011991AY161061AY251061GF108991041071004501031999KA1240N+02321MA1999999100501MD1999999-0091MW1021REMSYN088AAXX  29124 82198 21494 81103 10261 20246 30050 40101 70265 8473/ 333 20232 59009 60124;
0137821980999992010012918004-01717-045400FM-12+004499999V0200501N006710450019N0010001N1+03051+02241100701ADDGF107991041051004501061061MA1999999100191MD1999999-0051REMSYN070AAXX  29184 82198 32494 70513 10305 20224 30019 40070 84566 333 59005;
0213821980999992010013000004-01717-045400FM-12+004499999V0200501N003110450019N0002001N1+02651+02421100931ADDAA106002091AY161061AY221061GF107991041021004501011041KA1240M+03271MA1999999100421MD1999999-0041MW1021REMSYN100AAXX  30004 82198 21492 70506 10265 20242 30042 40093 70262 84214 333 10327 29084 55036 59004 60021;
0173821980999992010013012004-01717-045400FM-12+004499999V0200701N003610450019N0010001N1+02841+02501101011ADDAA124002091GF108991041051004501011011KA1240N+02471MA1999999100501MD1999999+0001REMSYN082AAXX  30124 82198 22494 80707 10284 20250 30050 40101 84511 333 20247 58000 60024;
0137821980999992010013018004-01717-045400FM-12+004499999V0200501N004610450019N0010001N1+03191+02331100821ADDGF107991041021004501031041MA1999999100311MD1999999+0121REMSYN070AAXX  30184 82198 32494 70509 10319 20233 30031 40082 84234 333 58012;
0168821980999992010013100004-01717-045400FM-12+004499999V0200501N002119999999N0002001N1+02691+02311100941ADDGF106991031001004501011011KA1240M+03331MA1999999100431MD1999999+0011REMSYN088AAXX  31004 82198 32492 60504 10269 20231 30043 40094 83011 333 10333 29078 55060 58001;
0156821980999992010013112004-01717-045400FM-12+004499999V0200701N005110450019N0020001N1+02891+02311101041ADDGF106991041021004501061001KA1240N+02511MA1999999100531MD1999999+0031REMSYN076AAXX  31124 82198 32495 60710 10289 20231 30053 40104 84260 333 20251 58003;
0137821980999992010013118004-01717-045400FM-12+004499999V0200701N006210450019N0020001N1+03241+02441100771ADDGF107991041071004501011041MA1999999100261MD1999999-0051REMSYN070AAXX  31184 82198 32495 70712 10324 20244 30026 40077 84714 333 59005;
0196821980999992010020100004-01717-045400FM-12+004499999V0200501N003112200019N0002001N1+02771+02501100941ADDAY121061AY211061GF104991021021004501011011KA1240M+03321MA1999999100431MD1999999+0001MW1131REMSYN094AAXX  01004 82198 31492 40506 10277 20250 30043 40094 71321 82211 333 10332 29076 55070 58000;
0156821980999992010020112004-01717-045400FM-12+004499999V0200501N004110450019N0010001N1+02841+02381101141ADDGF108991041051004501061011KA1240N+02581MA1999999100631MD1999999+0101REMSYN076AAXX  01124 82198 32494 80508 10284 20238 30063 40114 84561 333 20258 58010;
0137821980999992010020118004-01717-045400FM-12+004499999V0200501N005110450019N0010001N1+03171+02481100861ADDGF107991031071004501061041MA1999999100351MD1999999+0091REMSYN070AAXX  01184 82198 32494 70510 10317 20248 30035 40086 83764 333 58009;
0168821980999992010020200004-01717-045400FM-12+004499999V0200501N004112200019N0002001N1+02781+02401101041ADDGF102991021001017501031001KA1240M+03281MA1999999100531MD1999999+0101REMSYN088AAXX  02004 82198 32792 20508 10278 20240 30053 40104 82030 333 10328 29076 55038 58010;
0220821980999992010020212004-01717-045400FM-12+004499999V0200701N005110450019N0020001N1+02921+02501101021ADDAA124000091AY151061AY221061GF107991041021004501061001KA1240N+02421MA1999999100511MD1999999-0121MW1021REMSYN088AAXX  02124 82198 21495 70710 10292 20250 30051 40102 70252 84260 333 20242 59012 69914;EQDQ01  00002PRCP24
0137821980999992010020218004-01717-045400FM-12+004499999V0200701N005710450019N0020001N1+03241+02251100821ADDGF105991031021004501061001MA1999999100311MD1999999-0041REMSYN070AAXX  02184 82198 32495 50711 10324 20225 30031 40082 83260 333 59004;
0168821980999992010020300004-01717-045400FM-12+004499999V0200501N002610450019N0002001N1+02791+02421101111ADDGF107991041021004501041001KA1240M+03351MA1999999100601MD1999999+0071REMSYN088AAXX  03004 82198 32492 70505 10279 20242 30060 40111 84240 333 10335 29074 55084 58007;
0156821980999992010020312004-01717-045400FM-12+004499999V0200701N005710450019N0020001N1+02991+02471101031ADDGF106991041021004501041001KA1240N+02471MA1999999100521MD1999999+0011REMSYN076AAXX  03124 82198 32495 60711 10299 20247 30052 40103 84240 333 20247 58001;
0137821980999992010020318004-01717-045400FM-12+004499999V0200701N005110450019N0020001N1+03181+02311100781ADDGF106991031021004501061001MA1999999100271MD1999999-0041REMSYN070AAXX  03184 82198 32495 60710 10318 20231 30027 40078 83260 333 59004;
0168821980999992010020400004-01717-045400FM-12+004499999V0200501N002112200019N0002001N1+02751+02451100981ADDGF102991021001012501061001KA1240M+03281MA1999999100471MD1999999-0131REMSYN088AAXX  04004 82198 32692 20504 10275 20245 30047 40098 82060 333 10328 29076 55067 59013;
0156821980999992010020412004-01717-045400FM-12+004499999V0200701N005112200019N0020001N1+03041+02431101051ADDGF104991041011004501001001KA1240N+02371MA1999999100541MD1999999+0021REMSYN076AAXX  04124 82198 32495 40710 10304 20243 30054 40105 84100 333 20237 58002;
0137821980999992010020418004-01717-045400FM-12+004499999V0200701N007712200019N0020001N1+03291+02231100741ADDGF103991031011004501001001MA1999999100231MD1999999-0041REMSYN070AAXX  04184 82198 32495 30715 10329 20223 30023 40074 83100 333 59004;
0168821980999992010020500004-01717-045400FM-12+004499999V0200201N002112200019N0002001N1+02821+02501100871ADDGF103991031001012501061001KA1240M+03401MA1999999100361MD1999999-0111REMSYN088AAXX  05004 82198 32692 30204 10282 20250 30036 40087 83060 333 10340 29072 55105 59011;
0156821980999992010020512004-01717-045400FM-12+004499999V0200701N005110042019N0020001N1+03041+02431100971ADDGF106991061021004501001001KA1240N+02491MA1999999100461MD1999999-0081REMSYN076AAXX  05124 82198 32495 60710 10304 20243 30046 40097 86200 333 20249 59008;
0137821980999992010020518004-01717-045400FM-12+004499999V0200701N005710450019N0020001N1+03271+02441100741ADDGF107991041021004501011001MA1999999100231MD1999999+0001REMSYN070AAXX  05184 82198 32495 70711 10327 20244 30023 40074 84210 333 58000;
0168821980999992010020600004-01717-045400FM-12+004499999V0200501N002110450019N0002001N1+02801+02521100951ADDGF108991031021004501011999KA1240M+03341MA1999999100441MD1999999+0081REMSYN088AAXX  06004 82198 32492 80504 10280 20252 30044 40095 8321/ 333 10334 29076 55074 58008;
0156821980999992010020612004-01717-045400FM-12+004499999V0200701N004110042019N0020001N1+03011+02531100991ADDGF107991051051004501031001KA1240N+02451MA1999999100481MD1999999+0021REMSYN076AAXX  06124 82198 32495 70708 10301 20253 30048 40099 85530 333 20245 58002;
0137821980999992010020618004-01717-045400FM-12+004499999V0200701N006710450019N0020001N1+03191+02441100761ADDGF106991041021004501041001MA1999999100261MD1999999+0031REMSYN070AAXX  06184 82198 32495 60713 10319 20244 30026 40076 84240 333 58003;
0168821980999992010020700004-01717-045400FM-12+004499999V0200701N002612200019N0002001N1+02761+02441100881ADDGF104991041001012501061001KA1240M+03361MA1999999100371MD1999999-0071REMSYN088AAXX  07004 82198 32692 40705 10276 20244 30037 40088 84060 333 10336 29077 55071 59007;
0192821980999992010020712004-01717-045400FM-12+004499999V0200501N003110450019N0020001N1+03031+02441100951ADDAA124000091GF105991031021004501031001KA1240N+02401MA1999999100441MD1999999-0041REMSYN082AAXX  07124 82198 22495 50506 10303 20244 30044 40095 83230 333 20240 59004 69914;EQDQ01  00002PRCP24
0201821980999992010020718004-01717-045400FM-12+004499999V0200201N004110450019N0020001N1+03021+02551100731ADDAA106000091AY151061AY221061GF105991031021004501061001MA1999999100221MD1999999-0041MW1021REMSYN082AAXX  07184 82198 21495 50208 10302 20255 30022 40073 70252 83260 333 59004 69911;EQDQ01  00002PRCP06
0168821980999992010020800004-01717-045400FM-12+004499999V0200701N002110450019N0002001N1+02701+02521100891ADDGF105991031011004501041001KA1240M+03261MA1999999100381MD1999999+0011REMSYN088AAXX  08004 82198 32492 50704 10270 20252 30038 40089 83140 333 10326 29082 55073 58001;
0192821980999992010020812004-01717-045400FM-12+004499999V0200201N003610450019N0020001N1+02941+02431101081ADDAA124000091GF106991031021004501031001KA1240N+02461MA1999999100571MD1999999+0131REMSYN082AAXX  08124 82198 22495 60207 10294 20243 30057 40108 83230 333 20246 58013 69914;EQDQ01  00002PRCP24
0137821980999992010020818004-01717-045400FM-12+004499999V0200201N005110450019N0020001N1+03071+02371100771ADDGF106991041021004501061001MA1999999100361MD1999999+0041REMSYN070AAXX  08184 82198 32495 60210 10307 20237 30036 40077 84260 333 58004;
0168821980999992010020900004-01717-045400FM-12+004499999V0200701N003610450019N0002001N1+02781+02421100971ADDGF105991031021004501061001KA1240M+03251MA1999999100461MD1999999+0081REMSYN088AAXX  09004 82198 32492 50707 10278 20242 30046 40097 83260 333 10325 29078 55047 58008;
0201821980999992010020912004-01717-045400FM-12+004499999V0201401N002610450019N0020001N1+02671+02251101041ADDAA124002091AY161061AY221061GF106991031051004501031011KA1240N+02251MA1999999100531MD1999999-0041MW1021REMSYN088AAXX  09124 82198 21495 61405 10267 20225 30053 40104 70262 83531 333 20225 59004 60024;
0137821980999992010020918004-01717-045400FM-12+004499999V0203601N003610450019N0020001N1+03091+02391100701ADDGF106991031051004501061011MA1999999100191MD1999999-0071REMSYN070AAXX  09184 82198 32495 63607 10309 20239 30019 40070 83561 333 59007;
0178821980999992010021000004-01717-045400FM-12+004499999V0200501N002612200019N0002001N1+02681+02431100871ADDGA1001+999999999GF100991001001999999001001KA1240M+03181MA1999999100361MD1999999-0101REMSYN082AAXX  10004 82198 32992 00505 10268 20243 30036 40087 333 10318 29081 55055 59010;
0156821980999992010021012004-01717-045400FM-12+004499999V0200501N002610450019N0020001N1+02881+02461100911ADDGF106991031021004501061011KA1240N+02461MA1999999100401MD1999999-0071REMSYN076AAXX  10124 82198 32495 60505 10288 20246 30040 40091 83261 333 20246 59007;
0182821980999992010021018004-01717-045400FM-12+004499999V0200201N002110450019N0010001N1+02411+02301100691ADDAA106025991AY191061AY261061GF108991041051004501021999MA1999999100181MD1999999-0011MW1631REMSYN082AAXX  10184 82198 21494 80204 10241 20230 30018 40069 76396 8452/ 333 59001 60261;
0184821980999992010021100004-01717-045400FM-12+004499999V0203601N002110003019N0002001N1+02681+02451100781ADDGA1091+999999999GF109991091999999999999999KA1240M+03011MA1999999100271MD1999999-0091REMSYN088AAXX  11004 82198 32/92 93604 10268 20245 30027 40078 8//// 333 10301 29086 55014 59009;
0201821980999992010021112004-01717-045400FM-12+004499999V0209999C000010450019N0005001N1+02691+02481100861ADDAA124047091AY161061AY221061GF108991031051004501061011KA1240N+02321MA1999999100351MD1999999-0051MW1021REMSYN088AAXX  11124 82198 21493 80000 10269 20248 30035 40086 70262 83561 333 20232 59005 60474;
0182821980999992010021118004-01717-045400FM-12+004499999V0203601N003610450019N0005001N1+02801+02501100551ADDAA106002091AY161061AY221061GF108991041031004501021001MA1999999100041MD1999999-0141MW1151REMSYN082AAXX  11184 82198 21493 83607 10280 20250 30004 40055 71562 84320 333 59014 60021;
0226821980999992010021200004-01717-045400FM-12+004499999V0200501N001510450019N0002001N1+02481+02431100791ADDAA106031091AY131061AY261061GF108991041051004501021999KA1240M+03011MA1999999100281MD1999999+0011REMSYN100AAXX  12004 82198 21492 80503 10248 20243 30028 40079 77636 8452/ 333 10301 29093 55022 58001 60311;EQDQ01+000762PRSWM1
0201821980999992010021212004-01717-045400FM-12+004499999V0201801N003110450019N0005001N1+02401+02331101111ADDAA124051191AY161061AY221061GF108991041031004501021999KA1240N+02291MA1999999100591MD1999999+0241MW1631REMSYN088AAXX  12124 82198 21493 81806 10240 20233 30059 40111 76362 8432/ 333 20229 58024 60514;
0182821980999992010021218004-01717-045400FM-12+004499999V0200201N000510450019N0005001N1+02651+02421100911ADDAA106004191AY161061AY221061GF108991041031004501021999MA1999999100401MD1999999+0361MW1021REMSYN082AAXX  12184 82198 21493 80201 10265 20242 30040 40091 70262 8432/ 333 58036 60041;
0213821980999992010021300004-01717-045400FM-12+004499999V0209999C000010042019N0002001N1+02431+02311101101ADDAA106005191AY161061AY221061GF108991051051004501021999KA1240M+02681MA1999999100581MD1999999+0301MW1021REMSYN100AAXX  13004 82198 21492 80000 10243 20231 30058 40110 70262 8552/ 333 10268 29094 55000 58030 60051;
0173821980999992010021312004-01717-045400FM-12+004499999V0200501N001510450019N0020001N1+02731+02481101041ADDAA124008991GF107991041051004501031001KA1240N+02251MA1999999100521MD1999999-0071REMSYN082AAXX  13124 82198 22495 70503 10273 20248 30052 40104 84530 333 20225 59007 60094;
0137821980999992010021318004-01717-045400FM-12+004499999V0200501N005110450019N0020001N1+03201+02301100761ADDGF106991031021004501031011MA1999999100251MD1999999-0151REMSYN070AAXX  13184 82198 32495 60510 10320 20230 30025 40076 83231 333 59015;
0213821980999992010021400004-01717-045400FM-12+004499999V0200901N003110450019N0002001N1+02601+02371101051ADDAA106003091AY121061AY221061GF106991031051004501061001KA1240M+03311MA1999999100531MD1999999-0051MW1621REMSYN100AAXX  14004 82198 21492 60906 10260 20237 30053 40105 76222 83560 333 10331 29080 55046 59005 60031;
0201821980999992010021412004-01717-045400FM-12+004499999V0209999C000010450019N0010001N1+02701+02611101151ADDAA124019191AY161061AY221061GF108991041071004501021999KA1240N+02331MA1999999100631MD1999999+0111MW1031REMSYN088AAXX  14124 82198 21494 80000 10270 20261 30063 40115 70362 8472/ 333 20233 58011 60194;
0182821980999992010021418004-01717-045400FM-12+004499999V0203601N002110450019N0020001N1+02961+02381100881ADDAA106001091AY161061AY221061GF107991041051004501061011MA1999999100371MD1999999+0121MW1021REMSYN082AAXX  14184 82198 21495 73604 10296 20238 30037 40088 70262 84561 333 58012 60011;
0213821980999992010021500004-01717-045400FM-12+004499999V0200501N003112200019N0002001N1+02641+02441100941ADDAA106002091AY161061AY211061GF102991021021004501001001KA1240M+03071MA1999999100431MD1999999-0101MW1011REMSYN100AAXX  15004 82198 21492 20506 10264 20244 30043 40094 70161 82200 333 10307 29086 55014 59010 60021;
0173821980999992010021512004-01717-045400FM-12+004499999V0200701N004110450019N0020001N1+02921+02411101061ADDAA124043991GF106991031021004501031011KA1240N+02531MA1999999100551MD1999999-0081REMSYN082AAXX  15124 82198 22495 60708 10292 20241 30055 40106 83231 333 20253 59008 60444;
0182821980999992010021518004-01717-045400FM-12+004499999V0200701N003610450019N0020001N1+02861+02601100831ADDAA106002091AY161061AY221061GF106991031021004501041041MA1999999100321MD1999999-0051MW1021REMSYN082AAXX  15184 82198 21495 60707 10286 20260 30032 40083 70262 83244 333 59005 60021;
0168821980999992010021600004-01717-045400FM-12+004499999V0200501N002612200019N0002001N1+02681+02391100991ADDGF103991021021004501061001KA1240M+03141MA1999999100481MD1999999+0051REMSYN088AAXX  16004 82198 32492 30505 10268 20239 30048 40099 82260 333 10314 29082 55052 58005;
0173821980999992010021612004-01717-045400FM-12+004499999V0200701N004110042019N0020001N1+02951+02451101011ADDAA124002091GF107991051021004501041001KA1240N+02361MA1999999100501MD1999999-0051REMSYN082AAXX  16124 82198 22495 70708 10295 20245 30050 40101 85240 333 20236 59005 60024;
0182821980999992010021618004-01717-045400FM-12+004499999V0200701N006210450019N0020001N1+03111+02441100821ADDAA106000591AY121061AY221061GF105991031021004501061001MA1999999100311MD1999999-0011MW1201REMSYN082AAXX  16184 82198 21495 50712 10311 20244 30031 40082 72022 83260 333 59001 69961;
0168821980999992010021700004-01717-045400FM-12+004499999V0200501N002610450019N0002001N1+02721+02451100971ADDGF105991021011004501061001KA1240M+03281MA1999999100461MD1999999-0021REMSYN088AAXX  17004 82198 32492 50505 10272 20245 30046 40097 82160 333 10328 29078 55080 59002;
0173821980999992010021712004-01717-045400FM-12+004499999V0200701N005710450019N0020001N1+03041+02381101051ADDAA124000591GF106991031021004501031001KA1240N+02391MA1999999100541MD1999999+0041REMSYN082AAXX  17124 82198 22495 60711 10304 20238 30054 40105 83230 333 20239 58004 69964;
0137821980999992010021718004-01717-045400FM-12+004499999V0200701N005112200019N0020001N1+03191+02361100871ADDGF104991041021004501001001MA1999999100361MD1999999+0051REMSYN070AAXX  17184 82198 32495 40710 10319 20236 30036 40087 84200 333 58005;
0168821980999992010021800004-01717-045400FM-12+004499999V0200501N002112200019N0002001N1+02701+02411100981ADDGF104991031021004501061001KA1240M+03291MA1999999100471MD1999999+0011REMSYN088AAXX  18004 82198 32492 40504 10270 20241 30047 40098 83260 333 10329 29074 55103 58001;
0156821980999992010021812004-01717-045400FM-12+004499999V0200701N003610042019N0020001N1+03011+02461101141ADDGF106991051021004501061001KA1240N+02391MA1999999100631MD1999999+0091REMSYN076AAXX  18124 82198 32495 60707 10301 20246 30063 40114 85260 333 20239 58009;
0137821980999992010021818004-01717-045400FM-12+004499999V0200701N004110042019N0020001N1+03221+02451100841ADDGF105991051021004501001001MA1999999100231MD1999999-0031REMSYN070AAXX  18184 82198 32495 50708 10322 20245 30023 40084 85200 333 59003;
0168821980999992010021900004-01717-045400FM-12+004499999V0200501N003112200019N0002001N1+02681+02461100991ADDGF103991031001012501061001KA1240M+03301MA1999999100481MD1999999+0011REMSYN088AAXX  19004 82198 32692 30506 10268 20246 30048 40099 83060 333 10330 29078 55104 58001;
0156821980999992010021912004-01717-045400FM-12+004499999V0200701N005710450019N0020001N1+02971+02441101171ADDGF106991031021004501061011KA1240N+02421MA1999999100661MD1999999+0031REMSYN076AAXX  19124 82198 32495 60711 10297 20244 30066 40117 83261 333 20242 58003;
0137821980999992010021918004-01717-045400FM-12+004499999V0200701N005112200019N0020001N1+03241+02251100891ADDGF104991021021004501001011MA1999999100381MD1999999+0051REMSYN070AAXX  19184 82198 32495 40710 10324 20225 30038 40089 82201 333 58005;
0168821980999992010022000004-01717-045400FM-12+004499999V0200501N002112200019N0002001N1+02751+02401101041ADDGF102991021001012501061001KA1240M+03341MA1999999100531MD1999999+0051REMSYN088AAXX  20004 82198 32692 20504 10275 20240 30053 40104 82060 333 10334 29073 55100 58005;
0156821980999992010022012004-01717-045400FM-12+004499999V0200701N006710450019N0020001N1+03021+02441100991ADDGF106991041021004501061001KA1240N+02411MA1999999100481MD1999999-0181REMSYN076AAXX  20124 82198 32495 60713 10302 20244 30048 40099 84260 333 20241 59018;
0137821980999992010022018004-01717-045400FM-12+004499999V0200701N006712200019N0020001N1+03231+02371100751ADDGF104991041021004501001001MA1999999100241MD1999999-0141REMSYN070AAXX  20184 82198 32495 40713 10323 20237 30024 40075 84200 333 59014;
0168821980999992010022100004-01717-045400FM-12+004499999V0200501N002612200019N0002001N1+02801+02481100931ADDGF104991021021004501061001KA1240M+03321MA1999999100421MD1999999-0111REMSYN088AAXX  21004 82198 32492 40505 10280 20248 30042 40093 82260 333 10332 29074 55101 59011;
0156821980999992010022112004-01717-045400FM-12+004499999V02099999999990450019N0020001N1+02981+02491101071ADDGF105991031021004501061001KA1240N+02461MA1999999100561MD1999999+0081REMSYN076AAXX  21124 82198 32495 505// 10298 20249 30056 40107 83260 333 20246 58008;
0201821980999992010022118004-01717-045400FM-12+004499999V0200901N001010450019N0020001N1+03121+02461100741ADDAA106000091AY151061AY221061GF106991041021004501061001MA1999999100231MD1999999-0011MW1021REMSYN082AAXX  21184 82198 21495 60902 10312 20246 30023 40074 70252 84260 333 59001 69911;EQDQ01  00002PRCP06
0168821980999992010022200004-01717-045400FM-12+004499999V0200501N002110450019N0002001N1+02791+02541101021ADDGF105991041021004501061001KA1240M+03361MA1999999100511MD1999999+0091REMSYN088AAXX  22004 82198 32492 50504 10279 20254 30051 40102 84260 333 10336 29079 55078 58009;
0192821980999992010022212004-01717-045400FM-12+004499999V0200701N003110450019N0020001N1+02941+02401101151ADDAA124000091GF106991041021004501041001KA1240N+02301MA1999999100641MD1999999+0081REMSYN082AAXX  22124 82198 22495 60706 10294 20240 30064 40115 84240 333 20230 58008 69914;EQDQ01  00002PRCP24
0182821980999992010022218004-01717-045400FM-12+004499999V0200501N004610450019N0020001N1+03091+02371100851ADDAA106000391AY151061AY221061GF106991031031004501041001MA1999999100301MD1999999+0111MW1021REMSYN082AAXX  22184 82198 21495 60509 10309 20237 30030 40085 70252 83340 333 58011 69931;
0168821980999992010022300004-01717-045400FM-12+004499999V0200501N002112200019N0002001N1+02741+02451100971ADDGF103991021011004501061001KA1240M+03341MA1999999100461MD1999999-0111REMSYN088AAXX  23004 82198 32492 30504 10274 20245 30046 40097 82160 333 10334 29077 55045 59011;
0173821980999992010022312004-01717-045400FM-12+004499999V0200501N004110450019N0020001N1+02921+02541101061ADDAA124000391GF106991031021004501061041KA1240N+02561MA1999999100551MD1999999-0091REMSYN082AAXX  23124 82198 22495 60508 10292 20254 30055 40106 83264 333 20256 59009 69934;
0182821980999992010022318004-01717-045400FM-12+004499999V0200701N005112200019N0020001N1+03261+02531100791ADDAA106002091AY161061AY221061GF106991041021004501001061MA1999999100281MD1999999-0061MW1021REMSYN082AAXX  23184 82198 21495 60710 10326 20253 30028 40079 70262 84206 333 59006 60021;
0207821980999992010022412004-01717-045400FM-12+004499999V0200701N002110450019N0010001N1+02861+02561101201ADDAA124002091AY151061AY221061GF107991041071004501061041KA1240N+02501MA1999999100691MD1999999+0141MW1031REMSYN094AAXX  24124 82198 21494 70704 10286 20256 30069 40120 70352 84764 333 20250 58014 60024 10019;
0182821980999992010022418004-01717-045400FM-12+004499999V0203601N004610450019N0020001N1+03091+02391100881ADDAA106001091AY161061AY221061GF107991041021004501061041MA1999999100371MD1999999+0091MW1021REMSYN082AAXX  24184 82198 21495 73609 10309 20239 30037 40088 70262 84264 333 58009 60011;
0168821980999992010022500004-01717-045400FM-12+004499999V0203601N002112200019N0002001N1+02741+02451101011ADDGF105991021021004501001061KA1240M+03341MA1999999100501MD1999999+0071REMSYN088AAXX  25004 82198 32492 53604 10274 20245 30050 40101 82206 333 10334 29081 55080 58007;
0173821980999992010022512004-01717-045400FM-12+004499999V0200501N004110042019N0020001N1+03011+02491101121ADDAA124001091GF106991051021004501001091KA1240N+02511MA1999999100611MD1999999-0081REMSYN082AAXX  25124 82198 22495 60508 10301 20249 30061 40112 85209 333 20251 59008 60014;
0137821980999992010022518004-01717-045400FM-12+004499999V0203601N004112200019N0020001N1+03161+02391100801ADDGF105991031021004501001041MA1999999100291MD1999999-0081REMSYN070AAXX  25184 82198 32495 53608 10316 20239 30029 40080 83204 333 59008;
0168821980999992010022600004-01717-045400FM-12+004499999V0200501N002612200019N0002001N1+02741+02471100911ADDGF105991031021004501001041KA1240M+03271MA1999999100401MD1999999-0101REMSYN088AAXX  26004 82198 32492 50505 10274 20247 30040 40091 83204 333 10327 29077 55092 59010;
0156821980999992010022612004-01717-045400FM-12+004499999V0200701N003110450019N0020001N1+02971+02531101021ADDGF107991031071004501061091KA1240N+02501MA1999999100511MD1999999-0101REMSYN076AAXX  26124 82198 32495 70706 10297 20253 30051 40102 83769 333 20250 59010;
0182821980999992010022618004-01717-045400FM-12+004499999V0203601N003610450019N0010001N1+03071+02441100731ADDAA106000591AY151061AY221061GF107991041071004501061001MA1999999100221MD1999999-0071MW1021REMSYN082AAXX  26184 82198 21494 73607 10307 20244 30022 40073 70252 84760 333 59007 69951;
0168821980999992010022700004-01717-045400FM-12+004499999V0203601N003110450019N0002001N1+02791+02621100961ADDGF106991041021004501061001KA1240M+03151MA1999999100451MD1999999+0051REMSYN088AAXX  27004 82198 32492 63606 10279 20262 30045 40096 84260 333 10315 29082 55045 58005;
0173821980999992010022712004-01717-045400FM-12+004499999V0203601N002110450019N0010001N1+02881+02521101131ADDAA124000591GF107991041071004501061001KA1240N+02531MA1999999100621MD1999999+0111REMSYN082AAXX  27124 82198 22494 73604 10288 20252 30062 40113 84760 333 20253 58011 69954;
0137821980999992010022718004-01717-045400FM-12+004499999V0200501N002610450019N0020001N1+03101+02411100791ADDGF106991031021004501061041MA1999999100281MD1999999+0061REMSYN070AAXX  27184 82198 32495 60505 10310 20241 30028 40079 83264 333 58006;
0168821980999992010022800004-01717-045400FM-12+004499999V0200501N002112200019N0002001N1+02751+02661101101ADDGF103991031021004501001001KA1240M+03251MA1999999100591MD1999999+0141REMSYN088AAXX  28004 82198 32492 30504 10275 20266 30059 40110 83200 333 10325 29080 55057 58014;
0156821980999992010022812004-01717-045400FM-12+004499999V0203601N002610450019N0020001N1+02941+02521101251ADDGF106991031021004501061011KA1240N+02591MA1999999100741MD1999999+0121REMSYN076AAXX  28124 82198 32495 63605 10294 20252 30074 40125 83261 333 20259 58012;
0137821980999992010022818004-01717-045400FM-12+004499999V0203601N004612200019N0020001N1+03051+02321100931ADDGF106991031021004501001041MA1999999100431MD1999999+0151REMSYN070AAXX  28184 82198 32495 63609 10305 20232 30043 40093 83204 333 58015;
0168821980999992010030100004-01717-045400FM-12+004499999V0203601N002612200019N0002001N1+02751+02421101141ADDGF103991011011004501001041KA1240M+03211MA1999999100631MD1999999+0041REMSYN088AAXX  01004 82198 32492 33605 10275 20242 30063 40114 81104 333 10321 29076 55090 58004;
0156821980999992010030112004-01717-045400FM-12+004499999V0200701N002612200019N0020001N1+03101+02491101241ADDGF106991041021004501001041KA1240N+02521MA1999999100731MD1999999-0011REMSYN076AAXX  01124 82198 32495 60705 10310 20249 30073 40124 84204 333 20252 59001;
0137821980999992010030118004-01717-045400FM-12+004499999V0203601N003110450019N0020001N1+03021+02481101001ADDGF106991031021004501041061MA1999999100491MD1999999+0061REMSYN070AAXX  01184 82198 32495 63606 10302 20248 30049 40100 83246 333 58006;
0168821980999992010030200004-01717-045400FM-12+004499999V0203601N002612200019N0002001N1+02761+02401101181ADDGF103991021011004501001041KA1240M+03301MA1999999100671MD1999999+0041REMSYN088AAXX  02004 82198 32492 33605 10276 20240 30067 40118 82104 333 10330 29076 55079 58004;
0156821980999992010030212004-01717-045400FM-12+004499999V0200201N003610450019N0020001N1+03001+02491101251ADDGF105991041021004501061001KA1240N+02431MA1999999100741MD1999999+0011REMSYN076AAXX  02124 82198 32495 50207 10300 20249 30074 40125 84260 333 20243 58001;
0137821980999992010030218004-01717-045400FM-12+004499999V0200201N004610042019N0020001N1+03191+02441100931ADDGF105991051021004501001001MA1999999100421MD1999999-0071REMSYN070AAXX  02184 82198 32495 50209 10319 20244 30042 40093 85200 333 59007;
0168821980999992010030300004-01717-045400FM-12+004499999V0200201N003612200019N0002001N1+02801+02401101061ADDGF104991041011004501001001KA1240M+03331MA1999999100551MD1999999-0121REMSYN088AAXX  03004 82198 32492 40207 10280 20240 30055 40106 84100 333 10333 29074 55098 59012;
0156821980999992010030312004-01717-045400FM-12+004499999V0200701N005110042019N0020001N1+03111+02411101241ADDGF105991051021004501001001KA1240N+02381MA1999999100731MD1999999-0011REMSYN076AAXX  03124 82198 32495 50710 10311 20241 30073 40124 85200 333 20238 59001;
0137821980999992010030318004-01717-045400FM-12+004499999V0200201N004610042019N0020001N1+03191+02441100931ADDGF105991051021004501001001MA1999999100421MD1999999-0071REMSYN070AAXX  03184 82198 32495 50209 10319 20244 30042 40093 85200 333 59007;
0168821980999992010030400004-01717-045400FM-12+004499999V0200201N002112200019N0002001N1+02781+02421100981ADDGF102991021021004501001001KA1240M+03431MA1999999100471MD1999999-0081REMSYN088AAXX  04004 82198 32492 20204 10278 20242 30047 40098 82200 333 10343 29071 55105 59008;
0156821980999992010030412004-01717-045400FM-12+004499999V0200501N003610042019N0020001N1+03151+02471101141ADDGF105991051011004501001001KA1240N+02511MA1999999100631MD1999999-0101REMSYN076AAXX  04124 82198 32495 50507 10315 20247 30063 40114 85100 333 20251 59010;
0182821980999992010030418004-01717-045400FM-12+004499999V0200501N006210450019N0020001N1+03171+02361100871ADDAA106002091AY161061AY221061GF105991031021004501041011MA1999999100361MD1999999-0041MW1021REMSYN082AAXX  04184 82198 21495 50512 10317 20236 30036 40087 70262 83241 333 59004 60021;
0173821980999992010030512004-01717-045400FM-12+004499999V0200201N002110450019N0020001N1+03001+02461101131ADDAA124002091GF106991041021008001041001KA1240N+02451MA1999999100621MD1999999-0011REMSYN082AAXX  05124 82198 22595 60204 10300 20246 30062 40113 84240 333 20245 59001 60024;
0137821980999992010030518004-01717-045400FM-12+004499999V0200201N006212200019N0020001N1+03131+02381100771ADDGF104991031021004501001011MA1999999100261MD1999999-0101REMSYN070AAXX  05184 82198 32495 40212 10313 20238 30026 40077 83201 333 59010;
0178821980999992010030600004-01717-045400FM-12+004499999V0200501N002112200019N0002001N1+02761+02461100981ADDGA1001+999999999GF100991001001999999001001KA1240M+03291MA1999999100471MD1999999-0061REMSYN082AAXX  06004 82198 32992 00504 10276 20246 30047 40098 333 10329 29076 55102 59006;
0156821980999992010030612004-01717-045400FM-12+004499999V0200201N004112200019N0020001N1+03051+02501100971ADDGF105991031021004501001011KA1240N+02431MA1999999100461MD1999999-0161REMSYN076AAXX  06124 82198 32495 50208 10305 20250 30046 40097 83201 333 20243 59016;
0137821980999992010030618004-01717-045400FM-12+004499999V0200201N005112200019N0020001N1+03151+02451100751ADDGF105991031021004501001011MA1999999100241MD1999999-0021REMSYN070AAXX  06184 82198 32495 50210 10315 20245 30024 40075 83201 333 59002;
0168821980999992010030700004-01717-045400FM-12+004499999V0200501N002112200019N0002001N1+02791+02481100891ADDGF102991021011004501001001KA1240M+03321MA1999999100381MD1999999-0091REMSYN088AAXX  07004 82198 32492 20504 10279 20248 30038 40089 82100 333 10332 29077 55103 59009;
0156821980999992010030712004-01717-045400FM-12+004499999V0200201N002610450019N0020001N1+02991+02531101151ADDGF106991031021004501041011KA1240N+02381MA1999999100641MD1999999+0181REMSYN076AAXX  07124 82198 32495 60205 10299 20253 30064 40115 83241 333 20238 58018;
0137821980999992010030718004-01717-045400FM-12+004499999V0200201N005112200019N0020001N1+03121+02411100841ADDGF104991021021004501061011MA1999999100331MD1999999+0091REMSYN070AAXX  07184 82198 32495 40210 10312 20241 30033 40084 82261 333 58009;
0178821980999992010030800004-01717-045400FM-12+004499999V0200201N003612200019N0002001N1+02771+02441100971ADDGA1001+999999999GF100991001001999999001001KA1240M+03291MA1999999100461MD1999999+0081REMSYN082AAXX  08004 82198 32992 00207 10277 20244 30046 40097 333 10329 29077 55101 58008;
0156821980999992010030812004-01717-045400FM-12+004499999V0200501N004610042019N0020001N1+03011+02441101191ADDGF105991051021004501001001KA1240N+02441MA1999999100681MD1999999+0041REMSYN076AAXX  08124 82198 32495 50509 10301 20244 30068 40119 85200 333 20244 58004;
0137821980999992010030818004-01717-045400FM-12+004499999V0200201N004112200019N0020001N1+03341+02251100851ADDGF103991031021004501001001MA1999999100341MD1999999+0011REMSYN070AAXX  08184 82198 32495 30208 10334 20225 30034 40085 83200 333 58001;
0178821980999992010030900004-01717-045400FM-12+004499999V0200501N002112200019N0002001N1+02741+02381101031ADDGA1001+999999999GF100991001001999999001001KA1240M+03421MA1999999100521MD1999999+0061REMSYN082AAXX  09004 82198 32992 00504 10274 20238 30052 40103 333 10342 29072 55104 58006;
0156821980999992010030912004-01717-045400FM-12+004499999V0200701N005110042019N0020001N1+03061+02301101131ADDGF106991061021004501001001KA1240N+02441MA1999999100621MD1999999-0061REMSYN076AAXX  09124 82198 32495 60710 10306 20230 30062 40113 86200 333 20244 59006;
0137821980999992010030918004-01717-045400FM-12+004499999V0200501N004112200019N0020001N1+03341+02371100901ADDGF104991041021004501001001MA1999999100391MD1999999+0051REMSYN070AAXX  09184 82198 32495 40508 10334 20237 30039 40090 84200 333 58005;
0196821980999992010031000004-01717-045400FM-12+004499999V0203601N003612200019N0002001N1+02791+02421101011ADDAY111061AY201061GF103991021021004501061001KA1240M+03401MA1999999100501MD1999999-0021MW1131REMSYN094AAXX  10004 82198 31492 33607 10279 20242 30050 40101 71310 82260 333 10340 29070 55096 59002;
0156821980999992010031012004-01717-045400FM-12+004499999V0203601N003610042019N0020001N1+03011+02291101081ADDGF105991051021004501001001KA1240N+02641MA1999999100571MD1999999-0051REMSYN076AAXX  10124 82198 32495 53607 10301 20229 30057 40108 85200 333 20264 59005;
0182821980999992010031018004-01717-045400FM-12+004499999V0203601N005712200019N0020001N1+03081+02401100861ADDAA106000591AY151061AY221061GF104991021021004501061001MA1999999100351MD1999999-0041MW1021REMSYN082AAXX  10184 82198 21495 43611 10308 20240 30035 40086 70252 82260 333 59004 69951;
0178821980999992010031100004-01717-045400FM-12+004499999V0203601N003112200019N0002001N1+02751+02401101011ADDGA1001+999999999GF100991001001999999001001KA1240M+03231MA1999999100501MD1999999+0001REMSYN082AAXX  11004 82198 32992 03606 10275 20240 30050 40101 333 10323 29073 55078 58000;
0173821980999992010031112004-01717-045400FM-12+004499999V0203601N004610042019N0020001N1+03001+02291101031ADDAA124000591GF106991061021004501001001KA1240N+02491MA1999999100521MD1999999-0051REMSYN082AAXX  11124 82198 22495 63609 10300 20229 30052 40103 86200 333 20249 59005 69954;
0137821980999992010031118004-01717-045400FM-12+004499999V0203601N004612200019N0020001N1+03191+02271100781ADDGF104991041021004501001001MA1999999100271MD1999999-0081REMSYN070AAXX  11184 82198 32495 43609 10319 20227 30027 40078 84200 333 59008;
0168821980999992010031200004-01717-045400FM-12+004499999V0203501N001512200019N0002001N1+02721+02451100861ADDGF102991021011004501001001KA1240M+03351MA1999999100351MD1999999-0151REMSYN088AAXX  12004 82198 32492 23503 10272 20245 30035 40086 82100 333 10335 29074 55100 59015;
0156821980999992010031212004-01717-045400FM-12+004499999V0203601N001010450019N0020001N1+03021+02551101081ADDGF106991041021004501061001KA1240N+02371MA1999999100571MD1999999+0051REMSYN076AAXX  12124 82198 32495 63602 10302 20255 30057 40108 84260 333 20237 58005;
0165821980999992010031218004-01717-045400FM-12+004499999V0203601N005710450019N0010001N1+02981+02441100801ADDAY121061AY221061GF107991031031004501021061MA1999999100291MD1999999+0021MW1171REMSYN076AAXX  12184 82198 31494 73611 10298 20244 30029 40080 71722 83326 333 58002;
0196821980999992010031300004-01717-045400FM-12+004499999V0200501N002110450019N0002001N1+02561+02361101101ADDAY121061AY221061GF106991041071004501061001KA1240M+03481MA1999999100591MD1999999+0241MW1131REMSYN094AAXX  13004 82198 31492 60504 10256 20236 30059 40110 71322 84760 333 10348 29082 55067 58024;
0201821980999992010031312004-01717-045400FM-12+004499999V0200701N003610450019N0010001N1+02561+02311101251ADDAA124007991AY191061AY261061GF107991041051004501011041KA1240N+02331MA1999999100741MD1999999+0171MW1021REMSYN088AAXX  13124 82198 21494 70707 10256 20231 30074 40125 70296 84514 333 20233 58017 60084;
0137821980999992010031318004-01717-045400FM-12+004499999V0200201N003110450019N0010001N1+03061+02471101021ADDGF107991041071004501011061MA1999999100511MD1999999+0221REMSYN070AAXX  13184 82198 32494 70206 10306 20247 30051 40102 84716 333 58022;
0168821980999992010031400004-01717-045400FM-12+004499999V0200201N003112200019N0002001N1+02731+02431101191ADDGF103991021021004501061001KA1240M+03201MA1999999100681MD1999999+0091REMSYN088AAXX  14004 82198 32492 30206 10273 20243 30068 40119 82260 333 10320 29082 55046 58009;
0201821980999992010031412004-01717-045400FM-12+004499999V0200701N005710042019N0020001N1+03061+02401101121ADDAA124001091AY161061AY221061GF106991061021004501001001KA1240N+02511MA1999999100611MD1999999-0131MW1031REMSYN088AAXX  14124 82198 21495 60711 10306 20240 30061 40112 70362 86200 333 20251 59013 60014;
0137821980999992010031418004-01717-045400FM-12+004499999V0200701N005712200019N0020001N1+03311+02121100961ADDGF103991031021004501001001MA1999999100451MD1999999-0061REMSYN070AAXX  14184 82198 32495 30711 10331 20212 30045 40096 83200 333 59006;
0168821980999992010031500004-01717-045400FM-12+004499999V0200501N002612200019N0002001N1+02791+02481101121ADDGF103991021021004501061001KA1240M+03471MA1999999100611MD1999999-0071REMSYN088AAXX  15004 82198 32492 30505 10279 20248 30061 40112 82260 333 10347 29071 55107 59007;
0156821980999992010031512004-01717-045400FM-12+004499999V0200501N006210450019N0020001N1+03071+02391101051ADDGF106991041021004501061001KA1240N+02601MA1999999100541MD1999999-0071REMSYN076AAXX  15124 82198 32495 60512 10307 20239 30054 40105 84260 333 20260 59007;
0137821980999992010031518004-01717-045400FM-12+004499999V0200701N006210450019N0020001N1+03271+02301100781ADDGF106991031021004501061041MA1999999100271MD1999999-0181REMSYN070AAXX  15184 82198 32495 60712 10327 20230 30027 40078 83264 333 59018;
0178821980999992010031600004-01717-045400FM-12+004499999V0200501N002612200019N0002001N1+02821+02461100961ADDGA1001+999999999GF100991001001999999001001KA1240M+03401MA1999999100451MD1999999-0161REMSYN082AAXX  16004 82198 32992 00505 10282 20246 30045 40096 333 10340 29073 55083 59016;
0156821980999992010031612004-01717-045400FM-12+004499999V0200501N003610042019N0020001N1+03081+02491101091ADDGF107991071021004501001001KA1240N+02461MA1999999100581MD1999999+0041REMSYN076AAXX  16124 82198 32495 70507 10308 20249 30058 40109 87200 333 20246 58004;
0182821980999992010031618004-01717-045400FM-12+004499999V0200501N006210042019N0020001N1+03171+02391100721ADDAA106000891AY151061AY221061GF107991051051004501041001MA1999999100211MD1999999-0061MW1021REMSYN082AAXX  16184 82198 21495 70512 10317 20239 30021 40072 70252 85540 333 59006 69981;
0168821980999992010031700004-01717-045400FM-12+004499999V0200501N003112200019N0002001N1+02761+02481100941ADDGF104991021031004501061001KA1240M+03341MA1999999100431MD1999999-0021REMSYN088AAXX  17004 82198 32492 40506 10276 20248 30043 40094 82360 333 10334 29076 55062 59002;
0173821980999992010031712004-01717-045400FM-12+004499999V0200501N003610042019N0020001N1+03101+02411101091ADDAA124000891GF106991061021004501001001KA1240N+02461MA1999999100581MD1999999+0001REMSYN082AAXX  17124 82198 22495 60507 10310 20241 30058 40109 86200 333 20246 58000 69984;
0182821980999992010031718004-01717-045400FM-12+004499999V0200501N003110042019N0020001N1+03021+02531100801ADDAA106003091AY161061AY221061GF106991051051004501041001MA1999999100291MD1999999+0081MW1021REMSYN082AAXX  17184 82198 21495 60506 10302 20253 30029 40080 70262 85540 333 58008 60031;
0232821980999992010031800004-01717-045400FM-12+004499999V0200201N002112200019N0002001N1+02741+02471101051ADDAA106000091AY151061AY221061GF104991031011004501041001KA1240M+03321MA1999999100541MD1999999+0111MW1021REMSYN100AAXX  18004 82198 21492 40204 10274 20247 30054 40105 70252 83140 333 10332 29078 55060 58011 69911;EQDQ01  00002PRCP06
0173821980999992010031812004-01717-045400FM-12+004499999V0200201N004110450019N0020001N1+03001+02441101181ADDAA124003091GF106991031021004501061041KA1240N+02501MA1999999100671MD1999999+0091REMSYN082AAXX  18124 82198 22495 60208 10300 20244 30067 40118 83264 333 20250 58009 60034;
0182821980999992010031818004-01717-045400FM-12+004499999V0200201N006212200019N0020001N1+03051+02451100971ADDAA106000591AY151061AY221061GF104991031021004501041011MA1999999100461MD1999999+0171MW1021REMSYN082AAXX  18184 82198 21495 40212 10305 20245 30046 40097 70252 83241 333 58017 69941;
0178821980999992010031900004-01717-045400FM-12+004499999V0200201N003112200019N0002001N1+02781+02401101141ADDGA1001+999999999GF100991001001999999001001KA1240M+03211MA1999999100631MD1999999+0091REMSYN082AAXX  19004 82198 32992 00206 10278 20240 30063 40114 333 10321 29076 55092 58009;
0173821980999992010031912004-01717-045400FM-12+004499999V0200701N004612200019N0020001N1+03141+02551101271ADDAA124000591GF105991041021004501001011KA1240N+02461MA1999999100761MD1999999+0091REMSYN082AAXX  19124 82198 22495 50709 10314 20255 30076 40127 84201 333 20246 58009 69944;
0182821980999992010031918004-01717-045400FM-12+004499999V0200201N001510450019N0020001N1+02741+02601101041ADDAA106019191AY191061AY261061GF105991041021004501041001MA1999999100531MD1999999+0071MW1631REMSYN082AAXX  19184 82198 21495 50203 10274 20260 30053 40104 76396 84240 333 58007 60191;
0178821980999992010032000004-01717-045400FM-12+004499999V0200501N002112200019N0002001N1+02741+02471101151ADDGA1001+999999999GF100991001001999999001001KA1240M+03371MA1999999100641MD1999999+0011REMSYN082AAXX  20004 82198 32992 00504 10274 20247 30064 40115 333 10337 29083 55084 58001;
0201821980999992010032012004-01717-045400FM-12+004499999V0200701N003110450019N0020001N1+02931+02501101231ADDAA124021191AY161061AY221061GF105991031051004501041001KA1240N+02311MA1999999100721MD1999999-0041MW1031REMSYN088AAXX  20124 82198 21495 50706 10293 20250 30072 40123 70362 83540 333 20231 59004 60214;
0182821980999992010032018004-01717-045400FM-12+004499999V0200701N003110042019N0020001N1+02931+02471100881ADDAA106002091AY161061AY221061GF106991051051004501041001MA1999999100371MD1999999-0171MW1201REMSYN082AAXX  20184 82198 21495 60706 10293 20247 30037 40088 72062 85540 333 59017 60021;
0213821980999992010032100004-01717-045400FM-12+004499999V0200501N002612200019N0002001N1+02751+02401101141ADDAA106000591AY151061AY221061GF102991021001012501061001KA1240M+03231MA1999999100631MD1999999-0011MW1011REMSYN100AAXX  21004 82198 21692 20505 10275 20240 30063 40114 70152 82060 333 10323 29080 55052 59001 69941;
0173821980999992010032112004-01717-045400FM-12+004499999V0200201N004110450019N0020001N1+02941+02381101221ADDAA124002091GF106991041021004501041001KA1240N+02321MA1999999100711MD1999999-0011REMSYN082AAXX  21124 82198 22495 60208 10294 20238 30071 40122 84240 333 20232 59001 60024;
0137821980999992010032118004-01717-045400FM-12+004499999V0203501N003110042019N0020001N1+02851+02421100911ADDGF107991051051004501041001MA1999999100401MD1999999+0031REMSYN070AAXX  21184 82198 32495 73506 10285 20242 30040 40091 85540 333 58003;
0213821980999992010032200004-01717-045400FM-12+004499999V0201601N002110042019N0002001N1+02441+02231101191ADDAA106003091AY151061AY221061GF107991051051004501021001KA1240M+03271MA1999999100681MD1999999+0051MW1631REMSYN100AAXX  22004 82198 21492 71604 10244 20223 30068 40119 76352 85520 333 10327 29082 55061 58005 60031;
0201821980999992010032212004-01717-045400FM-12+004499999V0201401N002110042019N0020001N1+02591+02251101231ADDAA124037191AY161061AY221061GF108991061051004501011999KA1240N+02101MA1999999100721MD1999999+0011MW1021REMSYN088AAXX  22124 82198 21495 81404 10259 20225 30072 40123 70262 8651/ 333 20210 58001 60374;
0182821980999992010032218004-01717-045400FM-12+004499999V0201701N000510042019N0020001N1+02661+02541100871ADDAA106011991AY161061AY221061GF107991051051004501021001MA1999999100361MD1999999-0041MW1521REMSYN082AAXX  22184 82198 21495 71701 10266 20254 30036 40087 75262 85520 333 59004 60121;
0213821980999992010032300004-01717-045400FM-12+004499999V0200501N002110450019N0002001N1+02561+02441100991ADDAA106000391AY151061AY221061GF105991021011004501031001KA1240M+03051MA1999999100481MD1999999-0201MW1021REMSYN100AAXX  23004 82198 21492 50504 10256 20244 30048 40099 70252 82130 333 10305 29090 55009 59020 69931;
0173821980999992010032312004-01717-045400FM-12+004499999V0200501N002610450019N0020001N1+02921+02411101171ADDAA124011991GF106991031051004501061011KA1240N+02391MA1999999100661MD1999999-0061REMSYN082AAXX  23124 82198 22495 60505 10292 20241 30066 40117 83561 333 20239 59006 60124;
0201821980999992010032412004-01717-045400FM-12+004499999V0202701N001010042019N0010001N1+02431+02331101201ADDAA124053191AY161061AY221061GF108991051051004501021001KA1240N+02201MA1999999100691MD1999999+0031MW1031REMSYN088AAXX  24124 82198 21494 82702 10243 20233 30069 40120 70362 85520 333 20220 58003 60534;
0165821980999992010032418004-01717-045400FM-12+004499999V0200501N002610450019N0010001N1+02931+02391100881ADDAY121061AY221061GF108991031031004501021999MA1999999100371MD1999999+0071MW1171REMSYN076AAXX  24184 82198 31494 80505 10293 20239 30037 40088 71722 8332/ 333 58007;
0213821980999992010032500004-01717-045400FM-12+004499999V0203201N001010450019N0002001N1+02571+02501101031ADDAA106002091AY121061AY221061GF108991041051004501011999KA1240M+03161MA1999999100521MD1999999+0011MW1211REMSYN100AAXX  25004 82198 21492 83202 10257 20250 30052 40103 72122 8451/ 333 10316 29090 55012 58001 60021;
0201821980999992010032512004-01717-045400FM-12+004499999V0202301N000510042019N0010001N1+02661+02571101091ADDAA124002091AY141061AY221061GF108991051031004501021999KA1240N+02371MA1999999100571MD1999999-0121MW1281REMSYN088AAXX  25124 82198 21494 82301 10266 20257 30057 40109 72842 8532/ 333 20237 59012 60024;
0182821980999992010032518004-01717-045400FM-12+004499999V0201801N001510450019N0010001N1+02661+02461100861ADDAA106002091AY161061AY221061GF108991041071004501061999MA1999999100351MD1999999-0021MW1621REMSYN082AAXX  25184 82198 21494 81803 10266 20246 30035 40086 76262 8476/ 333 59002 60021;
0168821980999992010032600004-01717-045400FM-12+004499999V0200701N003110450019N0002001N1+02641+02411101031ADDGF108991041051004501011999KA1240M+02881MA1999999100511MD1999999-0011REMSYN088AAXX  26004 82198 32492 80706 10264 20241 30051 40103 8451/ 333 10288 29090 55002 59001;
0173821980999992010032612004-01717-045400FM-12+004499999V0200201N002110450019N0020001N1+02621+02411101171ADDAA124002091GF108991041051004501041011KA1240N+02311MA1999999100651MD1999999+0081REMSYN082AAXX  26124 82198 21495 80204 10262 20241 30065 40117 84541 333 20231 58008 60024;
0137821980999992010032618004-01717-045400FM-12+004499999V0203601N003110450019N0020001N1+03121+02431100821ADDGF106991031071004501041041MA1999999100311MD1999999-0041REMSYN070AAXX  26184 82198 32495 63606 10312 20243 30031 40082 83744 333 59004;
0168821980999992010032700004-01717-045400FM-12+004499999V0200501N000510450019N0002001N1+02621+02411101011ADDGF108991041051004501011999KA1240M+03291MA1999999100501MD1999999-0011REMSYN088AAXX  27004 82198 32492 80501 10262 20241 30050 40101 8451/ 333 10329 29083 55057 59001;
0156821980999992010032712004-01717-045400FM-12+004499999V0200701N002610450019N0020001N1+02931+02461101111ADDGF106991031021004501031041KA1240N+02381MA1999999100601MD1999999-0051REMSYN076AAXX  27124 82198 32495 60705 10293 20246 30060 40111 83234 333 20238 59005;
0137821980999992010032718004-01717-045400FM-12+004499999V0203601N004110450019N0020001N1+03061+02401100731ADDGF106991031021004501061041MA1999999100221MD1999999-0091REMSYN070AAXX  27184 82198 32495 63608 10306 20240 30022 40073 83264 333 59009;
0196821980999992010032800004-01717-045400FM-12+004499999V0203601N004110450019N0002001N1+02771+02441101011ADDAY121061AY211061GF106991031021004501011011KA1240M+03271MA1999999100501MD1999999+0001MW1131REMSYN094AAXX  28004 82198 31492 63608 10277 20244 30050 40101 71321 83211 333 10327 29077 55076 58000;
0156821980999992010032812004-01717-045400FM-12+004499999V0203601N003110450019N0020001N1+02941+02451101141ADDGF106991031021004501041061KA1240N+02421MA1999999100631MD1999999+0031REMSYN076AAXX  28124 82198 32495 63606 10294 20245 30063 40114 83246 333 20242 58003;
0137821980999992010032818004-01717-045400FM-12+004499999V0203601N004110450019N0020001N1+03031+02491100581ADDGF107991031021004501041061MA1999999100271MD1999999+0051REMSYN070AAXX  28184 82198 32495 73608 10303 20249 30027 40058 83246 333 58005;
0232821980999992010032900004-01717-045400FM-12+004499999V0200501N001010450019N0002001N1+02661+02591101051ADDAA106000091AY151061AY221061GF108991041071004501011999KA1240M+03151MA1999999100541MD1999999+0041MW1031REMSYN100AAXX  29004 82198 21492 80502 10266 20259 30054 40105 70352 8471/ 333 10315 29085 55049 58004 69911;EQDQ01  00002PRCP06
0201821980999992010032912004-01717-045400FM-12+004499999V0201801N002110450019N0010001N1+02681+02351101151ADDAA124000391AY151061AY221061GF107991041051004501061041KA1240N+02441MA1999999100641MD1999999-0011MW1021REMSYN088AAXX  29124 82198 21494 71804 10268 20235 30064 40115 70252 84564 333 20244 59001 69934;
0201821980999992010032918004-01717-045400FM-12+004499999V0200501N001510450019N0010001N1+02931+02461100891ADDAA106000091AY151061AY221061GF107991031031004501041061MA1999999100381MD1999999+0111MW1171REMSYN082AAXX  29184 82198 21494 70503 10293 20246 30038 40089 71752 83346 333 58011 69911;EQDQ01  00002PRCP06
0196821980999992010033000004-01717-045400FM-12+004499999V0200501N002610450019N0002001N1+02721+02391101041ADDAY121061AY221061GF107991031051004501011061KA1240M+03241MA1999999100531MD1999999-0011MW1131REMSYN094AAXX  30004 82198 31492 70505 10272 20239 30053 40104 71322 83516 333 10324 29084 55041 59001;
0192821980999992010033012004-01717-045400FM-12+004499999V0200701N003110450019N0020001N1+03021+02481101071ADDAA124000091GF106991031051004501021001KA1240N+02361MA1999999100561MD1999999-0081REMSYN082AAXX  30124 82198 22495 60706 10302 20248 30056 40107 83520 333 20236 59008 69914;EQDQ01  00002PRCP24
0182821980999992010033018004-01717-045400FM-12+004499999V0200701N004110042019N0010001N1+02561+02401100851ADDAA106015091AY161061AY221061GF108991051051004501021999MA1999999100341MD1999999-0041MW1621REMSYN082AAXX  30184 82198 21494 80708 10256 20240 30034 40085 76262 8552/ 333 59004 60151;
0213821980999992010033100004-01717-045400FM-12+004499999V0200901N002110075019N0002001N1+02651+02521101011ADDAA106000391AY151061AY221061GF108991051071008001011999KA1240M+03241MA1999999100501MD1999999-0031MW1021REMSYN100AAXX  31004 82198 21592 80904 10265 20252 30050 40101 70252 8571/ 333 10324 29086 55047 59003 69931;
0173821980999992010033112004-01717-045400FM-12+004499999V0200701N005110450019N0020001N1+03071+02561100971ADDAA124015091GF105991031021004501061001KA1240N+02361MA1999999100461MD1999999-0101REMSYN082AAXX  31124 82198 22495 50710 10307 20256 30046 40097 83260 333 20236 59010 60154;
0182821980999992010033118004-01717-045400FM-12+004499999V0200901N001510042019N0010001N1+02471+02361100691ADDAA106054191AY191061AY261061GF108991051051004501041999MA1999999100181MD1999999-0161MW1631REMSYN082AAXX  31184 82198 21494 80903 10247 20236 30018 40069 76396 8554/ 333 59016 60541;
0168821980999992010040100004-01717-045400FM-12+004499999V0200701N003610450019N0002001N1+02621+02461100841ADDGF108991041051004501041999KA1240M+03181MA1999999100331MD1999999-0171REMSYN088AAXX  01004 82198 32492 80707 10262 20246 30033 40084 8454/ 333 10318 29087 55043 59017;
0201821980999992010040112004-01717-045400FM-12+004499999V0200501N003610042019N0020001N1+02951+02471100941ADDAA124055991AY161061AY221061GF107991051031004501041001KA1240N+02281MA1999999100431MD1999999-0061MW1021REMSYN088AAXX  01124 82198 21495 70507 10295 20247 30043 40094 70262 85340 333 20228 59006 60564;
0137821980999992010040118004-01717-045400FM-12+004499999V0200201N005110042019N0010001N1+02991+02491100571ADDGF108991051051004501041999MA1999999100061MD1999999-0121REMSYN070AAXX  01184 82198 32494 80210 10299 20249 30006 40057 8554/ 333 59012;
0168821980999992010040200004-01717-045400FM-12+004499999V0200701N001010042019N0002001N1+02601+02461100881ADDGF108991051051004501021999KA1240M+03201MA1999999100371MD1999999+0041REMSYN088AAXX  02004 82198 32492 80702 10260 20246 30037 40088 8552/ 333 10320 29084 55055 58004;
0220821980999992010040212004-01717-045400FM-12+004499999V0200701N001010450019N0020001N1+02721+02501100991ADDAA124000091AY151061AY221061GF108991031021004501071999KA1240N+02211MA1999999100481MD1999999+0051MW1021REMSYN088AAXX  02124 82198 21495 80702 10272 20250 30048 40099 70252 8327/ 333 20221 58005 69924;EQDQ01  00002PRCP24
0195821980999992010040218004-01717-045400FM-12+004499999V0200201N001510450019N0020001N1+02821+02561100721ADDAA106005191AY161061AY221061GF108991031051004501021999MA1999999100211MD1999999+0151REMSYN082AAXX  02184 82198 21495 80203 10282 20256 30021 40072 77262 8352/ 333 58015 60051;EQDQ01+000722PRSWM1
0213821980999992010040300004-01717-045400FM-12+004499999V0203501N000512200019N0002001N1+02501+02401100991ADDAA106005191AY161061AY221061GF103991031031004501001001KA1240M+03081MA1999999100481MD1999999+0111MW1011REMSYN100AAXX  03004 82198 21492 33501 10250 20240 30048 40099 70162 83300 333 10308 29091 55008 58011 60051;
0201821980999992010040312004-01717-045400FM-12+004499999V0200501N000510042019N0010001N1+02561+02461101121ADDAA124036191AY161061AY221061GF108991051061004501041999KA1240N+02181MA1999999100611MD1999999+0131MW1021REMSYN088AAXX  03124 82198 21494 80501 10256 20246 30061 40112 70262 8564/ 333 20218 58013 60364;
0182821980999992010040318004-01717-045400FM-12+004499999V0203601N003610450019N0020001N1+02611+02461100791ADDAA106005191AY161061AY221061GF107991031051004501041001MA1999999100281MD1999999+0071MW1021REMSYN082AAXX  03184 82198 21495 73607 10261 20246 30028 40079 70262 83540 333 58007 60051;
0168821980999992010040400004-01717-045400FM-12+004499999V0209999C000012200019N0002001N1+02571+02441100991ADDGF102991021031004501001001KA1240M+02801MA1999999100481MD1999999+0001REMSYN088AAXX  04004 82198 32492 20000 10257 20244 30048 40099 82300 333 10280 29093 55008 58000;
0173821980999992010040412004-01717-045400FM-12+004499999V0201101N001010450019N0020001N1+02821+02621101151ADDAA124005191GF105991031021004501061001KA1240N+02181MA1999999100641MD1999999+0031REMSYN082AAXX  04124 82198 22495 51102 10282 20262 30064 40115 83260 333 20218 58003 60054;
0182821980999992010040418004-01717-045400FM-12+004499999V0203201N001010450019N0010001N1+02661+02541100821ADDAA106011991AY191061AY261061GF108991041051004501021999MA1999999100311MD1999999+0031MW1631REMSYN082AAXX  04184 82198 21494 83202 10266 20254 30031 40082 76396 8452/ 333 58003 60121;
0168821980999992010040500004-01717-045400FM-12+004499999V0200901N001512200019N0002001N1+02601+02511100951ADDGF104991031051004501011001KA1240M+03101MA1999999100441MD1999999-0041REMSYN088AAXX  05004 82198 32492 40903 10260 20251 30044 40095 83510 333 10310 29093 55026 59004;
0173821980999992010040512004-01717-045400FM-12+004499999V0200701N004112200019N0020001N1+02971+02471101011ADDAA124011991GF106991041021004501001011KA1240N+02311MA1999999100501MD1999999-0141REMSYN082AAXX  05124 82198 22495 60708 10297 20247 30050 40101 84201 333 20231 59014 60124;
0182821980999992010040518004-01717-045400FM-12+004499999V0200701N001510450019N0020001N1+02861+02541100761ADDAA106000891AY121061AY221061GF107991031031004501041001MA1999999100251MD1999999-0061MW1211REMSYN082AAXX  05184 82198 21495 70703 10286 20254 30025 40076 72122 83340 333 59006 69981;
0168821980999992010040600004-01717-045400FM-12+004499999V0200501N001510450019N0002001N1+02691+02481100891ADDGF105991031031004501061001KA1240M+03331MA1999999100381MD1999999-0061REMSYN088AAXX  06004 82198 32492 50503 10269 20248 30038 40089 83360 333 10333 29084 55053 59006;
0173821980999992010040612004-01717-045400FM-12+004499999V0200501N001010450019N0020001N1+02961+02401100981ADDAA124000891GF106991041051004501031011KA1240N+02361MA1999999100471MD1999999-0031REMSYN082AAXX  06124 82198 22495 60502 10296 20240 30047 40098 84531 333 20236 59003 69984;
0182821980999992010040618004-01717-045400FM-12+004499999V0200501N003110450019N0020001N1+02841+02541100671ADDAA106007191AY161061AY221061GF107991041051004501011001MA1999999100161MD1999999-0091MW1031REMSYN082AAXX  06184 82198 21495 70506 10284 20254 30016 40067 70362 84510 333 59009 60071;
0168821980999992010040700004-01717-045400FM-12+004499999V0200501N001510042019N0002001N1+02701+02501100871ADDGF108991051011004501061999KA1240M+03131MA1999999100361MD1999999-0021REMSYN088AAXX  07004 82198 32492 80503 10270 20250 30036 40087 8516/ 333 10313 29084 55026 59002;
0201821980999992010040712004-01717-045400FM-12+004499999V0201801N002610450019N0020001N1+02811+02561101011ADDAA124007191AY111061AY221061GF106991041071004501061011KA1240N+02411MA1999999100501MD1999999+0031MW1151REMSYN088AAXX  07124 82198 21495 61805 10281 20256 30050 40101 71512 84761 333 20241 58003 60074;
0137821980999992010040718004-01717-045400FM-12+004499999V0203601N002610450019N0020001N1+02981+02441100641ADDGF106991031071004501061041MA1999999100131MD1999999-0031REMSYN070AAXX  07184 82198 32495 63605 10298 20244 30013 40064 83764 333 59003;
0168821980999992010040800004-01717-045400FM-12+004499999V0209999C000012200019N0002001N1+02691+02421100991ADDGF103991031011004501001001KA1240M+03211MA1999999100481MD1999999+0121REMSYN088AAXX  08004 82198 32492 30000 10269 20242 30048 40099 83100 333 10321 29085 55051 58012;
0156821980999992010040812004-01717-045400FM-12+004499999V0202701N002610450019N0010001N1+02701+02481101101ADDGF108991041071004501021011KA1240N+02341MA1999999100591MD1999999+0091REMSYN076AAXX  08124 82198 32494 82705 10270 20248 30059 40110 84721 333 20234 58009;
0137821980999992010040818004-01717-045400FM-12+004499999V0203601N003110450019N0010001N1+02761+02501100861ADDGF108991041071004501021999MA1999999100351MD1999999+0021REMSYN070AAXX  08184 82198 32494 83606 10276 20250 30035 40086 8472/ 333 58002;
0229821980999992010040900004-01717-045400FM-12+004499999V0202901N001510003019N0002001N1+02531+02431101161ADDAA106003091AY161061AY221061GA1091+999999999GF109991091999999999999999KA1240M+02991MA1999999100651MD1999999+0171MW1021REMSYN100AAXX  09004 82198 21/92 92903 10253 20243 30065 40116 70262 8//// 333 10299 29092 55007 58017 60031;
0201821980999992010040912004-01717-045400FM-12+004499999V0201801N001510042019N0010001N1+02531+02401101431ADDAA124003091AY151061AY241061GF108991051071004501011041KA1240N+02211MA1999999100781MD1999999+0191MW1021REMSYN088AAXX  09124 82198 21494 81803 10253 20240 30078 40143 70254 85714 333 20221 58019 60034;
0201821980999992010040918004-01717-045400FM-12+004499999V0202701N002610450019N0020001N1+02821+02481100911ADDAA106000091AY151061AY221061GF106991041071004501061011MA1999999100401MD1999999+0051MW1171REMSYN082AAXX  09184 82198 21495 62705 10282 20248 30040 40091 71752 84761 333 58005 69911;EQDQ01  00002PRCP06
0213821980999992010041000004-01717-045400FM-12+004499999V0203201N001012200019N0002001N1+02431+02331101271ADDAA106047091AY161061AY221061GF104991031021004501061001KA1240M+03091MA1999999100751MD1999999+0101MW1011REMSYN100AAXX  10004 82198 21492 43202 10243 20233 30075 40127 70162 83260 333 10309 29092 55022 58010 60471;
0173821980999992010041012004-01717-045400FM-12+004499999V0203601N001012200019N0020001N1+02791+02561101171ADDAA124047091GF105991031021004501001011KA1240N+02231MA1999999100661MD1999999-0121REMSYN082AAXX  10124 82198 22495 53602 10279 20256 30066 40117 83201 333 20223 59012 60474;
0137821980999992010041018004-01717-045400FM-12+004499999V0201401N002610450019N0010001N1+02751+02381100871ADDGF108991041071004501061041MA1999999100361MD1999999-0041REMSYN070AAXX  10184 82198 32494 81405 10275 20238 30036 40087 84764 333 59004;
0213821980999992010041100004-01717-045400FM-12+004499999V0203601N000510450019N0002001N1+02631+02461101111ADDAA106018091AY161061AY221061GF105991031021004501061001KA1240M+03301MA1999999100601MD1999999-0151MW1011REMSYN100AAXX  11004 82198 21492 53601 10263 20246 30060 40111 70162 83260 333 10330 29087 55062 59015 60181;
0173821980999992010041112004-01717-045400FM-12+004499999V0201101N002110042019N0010001N1+02881+02561101091ADDAA124018091GF108991061071004501021999KA1240N+02381MA1999999100581MD1999999-0081REMSYN082AAXX  11124 82198 22494 81104 10288 20256 30058 40109 8672/ 333 20238 59008 60184;
0182821980999992010041118004-01717-045400FM-12+004499999V0200901N002110042019N0010001N1+02781+02401100761ADDAA106003091AY161061AY221061GF108991061031004501011999MA1999999100251MD1999999-0111MW1021REMSYN082AAXX  11184 82198 21494 80904 10278 20240 30025 40076 70262 8631/ 333 59011 60031;
0168821980999992010041200004-01717-045400FM-12+004499999V0201601N002610450019N0002001N1+02531+02381101021ADDGF105991031021004501061001KA1240M+03001MA1999999100511MD1999999-0091REMSYN088AAXX  12004 82198 32492 51605 10253 20238 30051 40102 83260 333 10300 29087 55018 59009;
0173821980999992010041212004-01717-045400FM-12+004499999V0200701N002610450019N0010001N1+02651+02211101171ADDAA124003091GF108991041031004501021999KA1240N+02341MA1999999100651MD1999999+0071REMSYN082AAXX  12124 82198 22494 80705 10265 20221 30065 40117 8432/ 333 20234 58007 60034;
0137821980999992010041218004-01717-045400FM-12+004499999V0200701N001010450019N0020001N1+02941+02451100691ADDGF107991041021004501041041MA1999999100181MD1999999-0071REMSYN070AAXX  12184 82198 32495 70702 10294 20245 30018 40069 84244 333 59007;
0168821980999992010041300004-01717-045400FM-12+004499999V0200701N001012200019N0002001N1+02681+02501101061ADDGF103991031021004501001001KA1240M+03121MA1999999100541MD1999999+0031REMSYN088AAXX  13004 82198 32492 30702 10268 20250 30054 40106 83200 333 10312 29084 55025 58003;
0201821980999992010041312004-01717-045400FM-12+004499999V0200901N001010042019N0020001N1+02521+02381101291ADDAA124007991AY161061AY221061GF108991051051004501021999KA1240N+02231MA1999999100771MD1999999+0121MW1631REMSYN088AAXX  13124 82198 21495 80902 10252 20238 30077 40129 76362 8552/ 333 20223 58012 60084;
0182821980999992010041318004-01717-045400FM-12+004499999V0201101N002610450019N0020001N1+03051+02431100831ADDAA106003091AY161061AY221061GF106991031021004501061001MA1999999100321MD1999999+0141MW1021REMSYN082AAXX  13184 82198 21495 61105 10305 20243 30032 40083 70262 83260 333 58014 60031;
0213821980999992010041400004-01717-045400FM-12+004499999V0209999C000010042019N0002001N1+02591+02491101081ADDAA106002091AY161061AY221061GF108991051051004501041999KA1240M+03161MA1999999100571MD1999999+0031MW1131REMSYN100AAXX  14004 82198 21492 80000 10259 20249 30057 40108 71362 8554/ 333 10316 29088 55019 58003 60021;
0201821980999992010041412004-01717-045400FM-12+004499999V0200901N002110450019N0020001N1+02681+02481101181ADDAA124006191AY161061AY221061GF106991031021004501041001KA1240N+02281MA1999999100671MD1999999-0101MW1021REMSYN088AAXX  14124 82198 21495 60904 10268 20248 30067 40118 70262 83240 333 20228 59010 60064;
0182821980999992010041418004-01717-045400FM-12+004499999V0201101N000510450019N0020001N1+02901+02621100841ADDAA106009991AY161061AY221061GF106991041031004501041001MA1999999100331MD1999999+0011MW1021REMSYN082AAXX  14184 82198 21495 61101 10290 20262 30033 40084 70262 84340 333 58001 60101;
0168821980999992010041500004-01717-045400FM-12+004499999V0200701N002112200019N0002001N1+02701+02521101061ADDGF104991041001012501041001KA1240M+03071MA1999999100541MD1999999-0031REMSYN088AAXX  15004 82198 32692 40704 10270 20252 30054 40106 84040 333 10307 29088 55024 59003;
0173821980999992010041512004-01717-045400FM-12+004499999V0200701N003610450019N0020001N1+03021+02531101021ADDAA124009991GF105991031021008001061011KA1240N+02341MA1999999100511MD1999999-0161REMSYN082AAXX  15124 82198 22595 50707 10302 20253 30051 40102 83261 333 20234 59016 60104;
0137821980999992010041518004-01717-045400FM-12+004499999V0200701N003610042019N0020001N1+03021+02481100671ADDGF108991051031004501041999MA1999999100161MD1999999-0171REMSYN070AAXX  15184 82198 32495 80707 10302 20248 30016 40067 8534/ 333 59017;
0168821980999992010041600004-01717-045400FM-12+004499999V0200701N002112200019N0002001N1+02721+02521100951ADDGF104991041001012501061001KA1240M+03141MA1999999100441MD1999999-0101REMSYN088AAXX  16004 82198 32692 40704 10272 20252 30044 40095 84060 333 10314 29082 55024 59010;
0156821980999992010041612004-01717-045400FM-12+004499999V0200701N001510450019N0020001N1+03021+02611101071ADDGF106991041021004501061001KA1240N+02261MA1999999100561MD1999999+0051REMSYN076AAXX  16124 82198 32495 60703 10302 20261 30056 40107 84260 333 20226 58005;
0182821980999992010041618004-01717-045400FM-12+004499999V0202301N001510450019N0020001N1+02701+02481100751ADDAA106017091AY191061AY261061GF108991041031004501041999MA1999999100241MD1999999+0081MW1021REMSYN082AAXX  16184 82198 21495 82303 10270 20248 30024 40075 70296 8434/ 333 58008 60171;
0213821980999992010041700004-01717-045400FM-12+004499999V0201401N001510042019N0002001N1+02531+02401101051ADDAA106006191AY121061AY221061GF108991051051004501021999KA1240M+03201MA1999999100531MD1999999+0091MW1211REMSYN100AAXX  17004 82198 21492 81403 10253 20240 30053 40105 72122 8552/ 333 10320 29088 55035 58009 60061;
0201821980999992010041712004-01717-045400FM-12+004499999V0200901N002110450019N0010001N1+02421+02321101301ADDAA124063091AY161061AY221061GF108991041051004501021999KA1240N+02211MA1999999100681MD1999999+0121MW1621REMSYN088AAXX  17124 82198 21494 80904 10242 20232 30068 40130 76262 8452/ 333 20221 58012 60634;
0182821980999992010041718004-01717-045400FM-12+004499999V0202501N001010450019N0020001N1+02661+02541100881ADDAA106031091AY161061AY221061GF106991041031004501041001MA1999999100371MD1999999+0131MW1021REMSYN082AAXX  17184 82198 21495 62502 10266 20254 30037 40088 70262 84340 333 58013 60311;
0168821980999992010041800004-01717-045400FM-12+004499999V0203501N000512200019N0002001N1+02621+02481101161ADDGF104991021011004501041001KA1240M+02961MA1999999100641MD1999999+0111REMSYN088AAXX  18004 82198 32492 43501 10262 20248 30064 40116 82140 333 10296 29093 55012 58011;
0201821980999992010041812004-01717-045400FM-12+004499999V0200701N002610042019N0010001N1+02481+02411101371ADDAA124041991AY161061AY221061GF108991061051004501021999KA1240N+02151MA1999999100851MD1999999+0171MW1611REMSYN088AAXX  18124 82198 21494 80705 10248 20241 30085 40137 76162 8652/ 333 20215 58017 60424;
0182821980999992010041818004-01717-045400FM-12+004499999V0201401N001510042019N0010001N1+02661+02461101081ADDAA106004191AY161061AY221061GF107991051041004501041001MA1999999100561MD1999999+0191MW1021REMSYN082AAXX  18184 82198 21494 71403 10266 20246 30056 40108 70262 85440 333 58019 60041;
0168821980999992010041900004-01717-045400FM-12+004499999V0203601N001012200019N0002001N1+02601+02501101261ADDGF103991031001012501061001KA1240M+03191MA1999999100741MD1999999+0101REMSYN088AAXX  19004 82198 32692 33602 10260 20250 30074 40126 83060 333 10319 29093 55010 58010;
0201821980999992010041912004-01717-045400FM-12+004499999V0200901N000510450019N0020001N1+02861+02421101311ADDAA124005191AY161061AY221061GF106991041021004501041001KA1240N+02231MA1999999100791MD1999999-0061MW1021REMSYN088AAXX  19124 82198 21495 60901 10286 20242 30079 40131 70262 84240 333 20223 59006 60054;
0182821980999992010041918004-01717-045400FM-12+004499999V0202001N000510042019N0010001N1+02821+02401100941ADDAA106003091AY161061AY221061GF107991051071004501041001MA1999999100431MD1999999-0131MW1021REMSYN082AAXX  19184 82198 21494 72001 10282 20240 30043 40094 70262 85740 333 59013 60031;
0168821980999992010042000004-01717-045400FM-12+004499999V0209999C000010450019N0002001N1+02701+02521101141ADDGF106991031031004501061001KA1240M+03151MA1999999100631MD1999999-0111REMSYN088AAXX  20004 82198 32492 60000 10270 20252 30063 40114 83360 333 10315 29084 55049 59011;
0201821980999992010042012004-01717-045400FM-12+004499999V0200701N003110450019N0005001N1+02601+02501101161ADDAA124003091AY141061AY221061GF108991041031004501021999KA1240N+02401MA1999999100641MD1999999-0151MW1031REMSYN088AAXX  20124 82198 21493 80706 10260 20250 30064 40116 70342 8432/ 333 20240 59015 60034;
0165821980999992010042018004-01717-045400FM-12+004499999V0200501N003610450019N0005001N1+02801+02601100971ADDAY151061AY221061GF108991041031004501021999MA1999999100461MD1999999+0031MW1021REMSYN076AAXX  20184 82198 31493 80507 10280 20260 30046 40097 70252 8432/ 333 58003;
0168821980999992010042100004-01717-045400FM-12+004499999V0200501N001510450019N0002001N1+02571+02501101141ADDGF106991041021004501061001KA1240M+02911MA1999999100621MD1999999-0011REMSYN088AAXX  21004 82198 32492 60503 10257 20250 30062 40114 84260 333 10291 29093 55000 59001;
0201821980999992010042112004-01717-045400FM-12+004499999V0200201N000510450019N0010001N1+02601+02391101251ADDAA124010991AY161061AY221061GF108991041071004501061999KA1240N+02371MA1999999100731MD1999999+0091MW1501REMSYN088AAXX  21124 82198 21494 80201 10260 20239 30073 40125 75062 8476/ 333 20237 58009 60114;
0182821980999992010042118004-01717-045400FM-12+004499999V0203601N002610450019N0020001N1+02841+02501100881ADDAA106005191AY161061AY221061GF106991031051004501041041MA1999999100371MD1999999-0091MW1031REMSYN082AAXX  21184 82198 21495 63605 10284 20250 30037 40088 70362 83544 333 59009 60051;
0168821980999992010042200004-01717-045400FM-12+004499999V0200701N002112200019N0002001N1+02691+02371101071ADDGF102991021011004501001001KA1240M+03041MA1999999100551MD1999999-0071REMSYN088AAXX  22004 82198 32492 20704 10269 20237 30055 40107 82100 333 10304 29086 55021 59007;
0201821980999992010042212004-01717-045400FM-12+004499999V0209999C000010450019N0020001N1+02801+02581101171ADDAA124005191AY141061AY221061GF107991041051004501061001KA1240N+02371MA1999999100661MD1999999-0071MW1031REMSYN088AAXX  22124 82198 21495 70000 10280 20258 30066 40117 70342 84560 333 20237 59007 60054;
0182821980999992010042218004-01717-045400FM-12+004499999V0203201N001510450019N0020001N1+02761+02561100801ADDAA106007191AY191061AY261061GF107991041071004501011041MA1999999100291MD1999999-0081MW1021REMSYN082AAXX  22184 82198 21495 73203 10276 20256 30029 40080 70296 84714 333 59008 60071;
0196821980999992010042300004-01717-045400FM-12+004499999V0202301N002112200019N0002001N1+02541+02311101171ADDAY111061AY201061GF103991021021004501001011KA1240M+03181MA1999999100651MD1999999+0101MW1131REMSYN094AAXX  23004 82198 31492 32304 10254 20231 30065 40117 71310 82201 333 10318 29092 55038 58010;
0201821980999992010042312004-01717-045400FM-12+004499999V0209999C000010450019N0002001N1+02601+02501101271ADDAA124036191AY161061AY221061GF108991041071004501021999KA1240N+02311MA1999999100751MD1999999+0091MW1031REMSYN088AAXX  23124 82198 21492 80000 10260 20250 30075 40127 70362 8472/ 333 20231 58009 60364;
0182821980999992010042318004-01717-045400FM-12+004499999V0200501N002110450019N0010001N1+02621+02481100911ADDAA106007991AY161061AY221061GF108991041071004501061999MA1999999100401MD1999999+0111MW1021REMSYN082AAXX  23184 82198 21494 80504 10262 20248 30040 40091 70262 8476/ 333 58011 60081;
0196821980999992010042400004-01717-045400FM-12+004499999V0201401N001010450019N0002001N1+02671+02511101121ADDAY121061AY221061GF108991041051004501011999KA1240M+02951MA1999999100601MD1999999-0051MW1131REMSYN094AAXX  24004 82198 31492 81402 10267 20251 30060 40112 71322 8451/ 333 10295 29094 55002 59005;
0201821980999992010042412004-01717-045400FM-12+004499999V0200901N001010450019N0020001N1+02641+02481101181ADDAA124021191AY191061AY261061GF107991041051004501061011KA1240N+02371MA1999999100661MD1999999-0091MW1021REMSYN088AAXX  24124 82198 21495 70902 10264 20248 30066 40118 70296 84561 333 20237 59009 60214;
0137821980999992010042418004-01717-045400FM-12+004499999V0200701N004610450019N0020001N1+03121+02481100741ADDGF107991041021004501041061MA1999999100231MD1999999-0171REMSYN070AAXX  24184 82198 32495 70709 10312 20248 30023 40074 84246 333 59017;
0196821980999992010042500004-01717-045400FM-12+004499999V0200501N001510450019N0002001N1+02731+02461101021ADDAY111061AY211061GF105991031021004501011061KA1240M+03201MA1999999100501MD1999999-0101MW1131REMSYN094AAXX  25004 82198 31492 50503 10273 20246 30050 40102 71311 83216 333 10320 29084 55030 59010;
0184821980999992010042512004-01717-045400FM-12+004499999V0200701N003110450019N0020001N1+02941+02561101011ADDAY141061AY221061GF106991031021004501031011KA1240N+02281MA1999999100491MD1999999-0171MW1021REMSYN082AAXX  25124 82198 31495 60706 10294 20256 30049 40101 70242 83231 333 20228 59017;
0137821980999992010042518004-01717-045400FM-12+004499999V0200501N004110450019N0020001N1+03091+02421100781ADDGF106991031021004501011041MA1999999100271MD1999999+0041REMSYN070AAXX  25184 82198 32495 60508 10309 20242 30027 40078 83214 333 58004;
0196821980999992010042600004-01717-045400FM-12+004499999V0200501N003110450019N0002001N1+02721+02411101051ADDAY121061AY211061GF105991031011004501031041KA1240M+03261MA1999999100541MD1999999+0041MW1131REMSYN094AAXX  26004 82198 31492 50506 10272 20241 30054 40105 71321 83134 333 10326 29079 55067 58004;
0156821980999992010042612004-01717-045400FM-12+004499999V0200701N003110450019N0020001N1+02951+02511101191ADDGF105991031021004501031041KA1240N+02511MA1999999100671MD1999999+0181REMSYN076AAXX  26124 82198 32495 50706 10295 20251 30067 40119 83234 333 20251 58018;
0182821980999992010042618004-01717-045400FM-12+004499999V0200501N001510450019N0020001N1+03041+02571100871ADDAA106003091AY161061AY221061GF106991031021004501031061MA1999999100361MD1999999+0091MW1031REMSYN082AAXX  26184 82198 21495 60503 10304 20257 30036 40087 70362 83236 333 58009 60031;
0168821980999992010042700004-01717-045400FM-12+004499999V0200501N002110450019N0002001N1+02741+02521101121ADDGF108991041021004501031001KA1240M+03271MA1999999100611MD1999999+0071REMSYN088AAXX  27004 82198 32492 80504 10274 20252 30061 40112 84230 333 10327 29082 55068 58007;
0173821980999992010042712004-01717-045400FM-12+004499999V0200901N003610450019N0020001N1+02871+02351101191ADDAA124003091GF105991021021004501061001KA1240N+02351MA1999999100681MD1999999+0011REMSYN082AAXX  27124 82198 22495 50907 10287 20235 30068 40119 82260 333 20235 58001 60034;
0182821980999992010042718004-01717-045400FM-12+004499999V0203601N001010450019N0020001N1+02741+02501100921ADDAA106003091AY161061AY221061GF107991041051004501061001MA1999999100411MD1999999+0051MW1021REMSYN082AAXX  27184 82198 21495 73602 10274 20250 30041 40092 70262 84560 333 58005 60031;
0168821980999992010042800004-01717-045400FM-12+004499999V0202901N002110450019N0002001N1+02501+02401101151ADDGF106991031011004501041001KA1240M+03201MA1999999100641MD1999999+0031REMSYN088AAXX  28004 82198 32492 62904 10250 20240 30064 40115 83140 333 10320 29087 55039 58003;
0201821980999992010042812004-01717-045400FM-12+004499999V0200501N001510042019N0010001N1+02421+02281101241ADDAA124005191AY151061AY221061GF108991051051004501021999KA1240N+02131MA1999999100731MD1999999+0051MW1211REMSYN088AAXX  28124 82198 21494 80503 10242 20228 30073 40124 72152 8552/ 333 20213 58005 60054;
0137821980999992010042818004-01717-045400FM-12+004499999V0200701N000510042019N0020001N1+02871+02481100901ADDGF108991051031004501041999MA1999999100391MD1999999-0021REMSYN070AAXX  28184 82198 32495 80701 10287 20248 30039 40090 8534/ 333 59002;
0168821980999992010042900004-01717-045400FM-12+004499999V0200501N000510450019N0002001N1+02641+02521101121ADDGF105991021011004501061001KA1240M+02921MA1999999100611MD1999999-0031REMSYN088AAXX  29004 82198 32492 50501 10264 20252 30061 40112 82160 333 10292 29090 55000 59003;
0201821980999992010042912004-01717-045400FM-12+004499999V0200901N003110042019N0020001N1+02721+02501101291ADDAA124002091AY161061AY221061GF107991051051004501061001KA1240N+02201MA1999999100781MD1999999+0051MW1151REMSYN088AAXX  29124 82198 21495 70906 10272 20250 30078 40129 71562 85560 333 20220 58005 60024;
0137821980999992010042918004-01717-045400FM-12+004499999V0209999C002110450019N0020001N1+02851+02461100921ADDGF107991031031004501041001MA1999999100411MD1999999+0021REMSYN070AAXX  29184 82198 32495 70004 10285 20246 30041 40092 83340 333 58002;
0168821980999992010043000004-01717-045400FM-12+004499999V0200501N002110042019N0002001N1+02671+02501101191ADDGF108991051051004501041999KA1240M+02911MA1999999100681MD1999999+0071REMSYN088AAXX  30004 82198 32492 80504 10267 20250 30068 40119 8554/ 333 10291 29088 55006 58007;
0201821980999992010043012004-01717-045400FM-12+004499999V0203601N001510450019N0020001N1+02861+02581101151ADDAA124005191AY161061AY221061GF106991021011004501061001KA1240N+02191MA1999999100641MD1999999-0141MW1021REMSYN088AAXX  30124 82198 21495 63603 10286 20258 30064 40115 70262 82160 333 20219 59014 60054;
0182821980999992010043018004-01717-045400FM-12+004499999V0201101N006710042019N0010001N1+02501+02311100891ADDAA106001091AY191061AY261061GF108991051051004501021999MA1999999100381MD1999999+0031MW1531REMSYN082AAXX  30184 82198 21494 81113 10250 20231 30038 40089 75396 8552/ 333 58003 60011;
0196821980999992010050100004-01717-045400FM-12+004499999V0202901N001510450019N0002001N1+02501+02411101151ADDAY121061AY221061GF107991041051004501041001KA1240M+03301MA1999999100641MD1999999-0041MW1131REMSYN094AAXX  01004 82198 31492 72903 10250 20241 30064 40115 71322 84540 333 10330 29091 55057 59004;
0201821980999992010050112004-01717-045400FM-12+004499999V0203601N001010450019N0020001N1+02691+02501101351ADDAA124008991AY161061AY221061GF106991041061004501031001KA1240N+02241MA1999999100841MD1999999+0201MW1021REMSYN088AAXX  01124 82198 21495 63602 10269 20250 30084 40135 70262 84630 333 20224 58020 60094;
0137821980999992010050118004-01717-045400FM-12+004499999V0200201N004110450019N0020001N1+02891+02441100931ADDGF106991031031004501061001MA1999999100421MD1999999+0041REMSYN070AAXX  01184 82198 32495 60208 10289 20244 30042 40093 83360 333 58004;
0213821980999992010050200004-01717-045400FM-12+004499999V0203601N002110450019N0002001N1+02611+02401101251ADDAA106000891AY151061AY221061GF106991031051004501041001KA1240M+03191MA1999999100731MD1999999+0091MW1021REMSYN100AAXX  02004 82198 21492 63604 10261 20240 30073 40125 70252 83540 333 10319 29086 55047 58009 69971;
0173821980999992010050212004-01717-045400FM-12+004499999V0200201N000510450019N0020001N1+02691+02581101231ADDAA124000891GF106991021011004501041001KA1240N+02241MA1999999100731MD1999999-0131REMSYN082AAXX  02124 82198 22495 60201 10269 20258 30073 40123 82140 333 20224 59013 69974;
0137821980999992010050218004-01717-045400FM-12+004499999V0200201N003110450019N0020001N1+03121+02431100931ADDGF106991031021004501061001MA1999999100421MD1999999+0001REMSYN070AAXX  02184 82198 32495 60206 10312 20243 30042 40093 83260 333 58000;
0168821980999992010050300004-01717-045400FM-12+004499999V0200701N002110450019N0002001N1+02691+02481101151ADDGF106991031031004501041001KA1240M+03201MA1999999100641MD1999999-0091REMSYN088AAXX  03004 82198 32492 60704 10269 20248 30064 40115 83340 333 10320 29085 55056 59009;
0156821980999992010050312004-01717-045400FM-12+004499999V0200701N003612200019N0020001N1+02971+02531101211ADDGF104991021021004501061001KA1240N+02311MA1999999100701MD1999999-0011REMSYN076AAXX  03124 82198 32495 40707 10297 20253 30070 40121 82260 333 20231 59001;
0137821980999992010050318004-01717-045400FM-12+004499999V0200701N004610042019N0020001N1+03121+02411100861ADDGF106991051021004501061001MA1999999100351MD1999999-0071REMSYN070AAXX  03184 82198 32495 60709 10312 20241 30035 40086 85260 333 59007;
0168821980999992010050400004-01717-045400FM-12+004499999V0200901N001510450019N0002001N1+02701+02461101121ADDGF106991031011004501061001KA1240M+03241MA1999999100611MD1999999-0031REMSYN088AAXX  04004 82198 32492 60903 10270 20246 30061 40112 83160 333 10324 29079 55080 59003;
0201821980999992010050412004-01717-045400FM-12+004499999V0200701N002110450019N0020001N1+02641+02411101151ADDAA124006191AY141061AY221061GF107991041051004501061001KA1240N+02231MA1999999100631MD1999999-0071MW1251REMSYN088AAXX  04124 82198 21495 70704 10264 20241 30063 40115 72542 84560 333 20223 59007 60064;
0182821980999992010050418004-01717-045400FM-12+004499999V0200701N002110450019N0010001N1+02711+02521100861ADDAA106006191AY191061AY261061GF107991041071004501061011MA1999999100351MD1999999+0001MW1021REMSYN082AAXX  04184 82198 21494 70704 10271 20252 30035 40086 70296 84761 333 58000 60061;
0213821980999992010050500004-01717-045400FM-12+004499999V0202301N002610450019N0002001N1+02461+02371101181ADDAA106007191AY191061AY261061GF108991041031004501021999KA1240M+03231MA1999999100661MD1999999+0051MW1621REMSYN100AAXX  05004 82198 21492 82305 10246 20237 30066 40118 76296 8432/ 333 10323 29092 55033 58005 60071;
0201821980999992010050512004-01717-045400FM-12+004499999V0201101N002110450019N0020001N1+02781+02541101161ADDAA124018091AY161061AY221061GF107991041051004501061011KA1240N+02231MA1999999100641MD1999999+0011MW1011REMSYN088AAXX  05124 82198 21495 71104 10278 20254 30064 40116 70162 84561 333 20223 58001 60184;
0137821980999992010050518004-01717-045400FM-12+004499999V0203601N003610450019N0020001N1+02921+02471100791ADDGF107991041071004501061011MA1999999100281MD1999999-0071REMSYN070AAXX  05184 82198 32495 73607 10292 20247 30028 40079 84761 333 59007;
0168821980999992010050600004-01717-045400FM-12+004499999V0200501N002112200019N0002001N1+02691+02391101081ADDGF102991021021004501001001KA1240M+03181MA1999999100571MD1999999-0091REMSYN088AAXX  06004 82198 32492 20504 10269 20239 30057 40108 82200 333 10318 29085 55063 59009;
0201821980999992010050612004-01717-045400FM-12+004499999V0200501N003110450019N0002001N1+02701+02451101191ADDAA124004191AY161061AY241061GF108991041071004501021999KA1240N+02381MA1999999100671MD1999999+0031MW1031REMSYN088AAXX  06124 82198 21492 80506 10270 20245 30067 40119 70364 8472/ 333 20238 58003 60044;
0182821980999992010050618004-01717-045400FM-12+004499999V0200501N002610450019N0010001N1+02811+02421100941ADDAA106001091AY161061AY221061GF108991041031004501061041MA1999999100431MD1999999+0151MW1021REMSYN082AAXX  06184 82198 21494 80505 10281 20242 30043 40094 70262 84364 333 58015 60011;
0168821980999992010050700004-01717-045400FM-12+004499999V0201401N001012200019N0002001N1+02581+02491101231ADDGF102991021011004501001001KA1240M+03051MA1999999100711MD1999999+0141REMSYN088AAXX  07004 82198 32492 21402 10258 20249 30071 40123 82100 333 10305 29089 55028 58014;
0201821980999992010050712004-01717-045400FM-12+004499999V0201401N000510450019N0020001N1+02791+02361101291ADDAA124001091AY141061AY221061GF106991031021004501041011KA1240N+02271MA1999999100771MD1999999+0101MW1031REMSYN088AAXX  07124 82198 21495 61401 10279 20236 30077 40129 70342 83241 333 20227 58010 60014;
0165821980999992010050718004-01717-045400FM-12+004499999V0200501N001510450019N0020001N1+02881+02371100881ADDAY191061AY221061GF106991031021004501041061MA1999999100371MD1999999-0061MW1021REMSYN076AAXX  07184 82198 31495 60503 10288 20237 30037 40088 70292 83246 333 59006;
0213821980999992010050800004-01717-045400FM-12+004499999V0200701N001512200019N0002001N1+02651+02441101171ADDAA106000891AY161061AY221061GF103991021021004501061001KA1240M+03341MA1999999100651MD1999999-0061MW1131REMSYN100AAXX  08004 82198 21492 30703 10265 20244 30065 40117 71362 82260 333 10334 29086 55073 59006 69981;
0201821980999992010050812004-01717-045400FM-12+004499999V0200501N002112200019N0020001N1+02981+02581101201ADDAA124000891AY141061AY221061GF104991021021004501001011KA1240N+02301MA1999999100681MD1999999-0091MW1011REMSYN088AAXX  08124 82198 21495 40504 10298 20258 30068 40120 70142 82201 333 20230 59009 69984;
0182821980999992010050818004-01717-045400FM-12+004499999V0203601N000510450019N0010001N1+02571+02441100951ADDAA106002091AY191061AY261061GF108991041071004501011999MA1999999100441MD1999999+0071MW1031REMSYN082AAXX  08184 82198 21494 83601 10257 20244 30044 40095 70396 8471/ 333 58007 60021;
0168821980999992010050900004-01717-045400FM-12+004499999V0200701N000512200019N0002001N1+02591+02511101081ADDGF102991021011004501001001KA1240M+03211MA1999999100571MD1999999-0081REMSYN088AAXX  09004 82198 32492 20701 10259 20251 30057 40108 82100 333 10321 29090 55044 59008;
0201821980999992010050912004-01717-045400FM-12+004499999V0200701N001510450019N0020001N1+02901+02621101241ADDAA124002091AY141061AY221061GF107991041031004501031041KA1240N+02281MA1999999100721MD1999999+0041MW1501REMSYN088AAXX  09124 82198 21495 70703 10290 20262 30072 40124 75042 84334 333 20228 58004 60024;
0137821980999992010050918004-01717-045400FM-12+004499999V0200201N002112200019N0020001N1+03001+02461100891ADDGF104991041021004501001001MA1999999100371MD1999999-0071REMSYN070AAXX  09184 82198 32495 40204 10300 20246 30037 40089 84200 333 59007;
0178821980999992010051000004-01717-045400FM-12+004499999V0200501N003112200019N0002001N1+02701+02461101081ADDGA1001+999999999GF100991001001999999001001KA1240M+03241MA1999999100571MD1999999+0001REMSYN082AAXX  10004 82198 32992 00506 10270 20246 30057 40108 333 10324 29083 55049 58000;
0156821980999992010051012004-01717-045400FM-12+004499999V0200501N003110042019N0020001N1+02991+02531101061ADDGF105991051021004501001001KA1240N+02351MA1999999100551MD1999999-0171REMSYN076AAXX  10124 82198 32495 50506 10299 20253 30055 40106 85200 333 20235 59017;
0165821980999992010051018004-01717-045400FM-12+004499999V0203601N003110450019N0020001N1+03151+02431100801ADDAY121061AY221061GF105991031021004501021011MA1999999100291MD1999999-0081MW1151REMSYN076AAXX  10184 82198 31495 53606 10315 20243 30029 40080 71522 83221 333 59008;
0206821980999992010051100004-01717-045400FM-12+004499999V0200501N002612200019N0002001N1+02721+02501101081ADDAY121061AY201061GA1001+999999999GF100991001001999999001001KA1240M+03321MA1999999100571MD1999999+0001MW1131REMSYN088AAXX  11004 82198 31992 00505 10272 20250 30057 40108 71320 333 10332 29079 55095 58000;
0156821980999992010051112004-01717-045400FM-12+004499999V0200701N001012200019N0020001N1+03001+02601101151ADDGF103991031021004501001001KA1240N+02211MA1999999100641MD1999999+0091REMSYN076AAXX  11124 82198 32495 30702 10300 20260 30064 40115 83200 333 20221 58009;
0242821980999992010051200004-01717-045400FM-12+004499999V0200501N002112200019N0002001N1+02751+02481101091ADDAA106000091AY151061AY221061GA1001+999999999GF100991001001999999001001KA1240M+03401MA1999999100581MD1999999+0011MW1011REMSYN094AAXX  12004 82198 21992 00504 10275 20248 30058 40109 70152 333 10340 29079 55092 58001 69911;EQDQ01  00002PRCP06
0192821980999992010051212004-01717-045400FM-12+004499999V0200201N002612200019N0020001N1+03071+02541101091ADDAA124000091GF104991041021004501001001KA1240N+02251MA1999999100581MD1999999-0061REMSYN082AAXX  12124 82198 22495 40205 10307 20254 30058 40109 84200 333 20225 59006 69914;EQDQ01  00002PRCP24
0182821980999992010051218004-01717-045400FM-12+004499999V0200201N004610450019N0020001N1+02861+02481100771ADDAA106000891AY151061AY221061GF107991041051004501041001MA1999999100261MD1999999-0021MW1021REMSYN082AAXX  12184 82198 21495 70209 10286 20248 30026 40077 70252 84540 333 59002 69981;
0213821980999992010051300004-01717-045400FM-12+004499999V0200701N002612200019N0002001N1+02711+02501101121ADDAA106007191AY161061AY221061GF103991031001012501041001KA1240M+03441MA1999999100611MD1999999+0031MW1131REMSYN100AAXX  13004 82198 21692 30705 10271 20250 30061 40112 71362 83040 333 10344 29083 55064 58003 60071;
0173821980999992010051312004-01717-045400FM-12+004499999V0200201N003112200019N0020001N1+03041+02451101191ADDAA124007991GF105991041021004501001011KA1240N+02301MA1999999100681MD1999999+0101REMSYN082AAXX  13124 82198 22495 50206 10304 20245 30068 40119 84201 333 20230 58010 60084;
0137821980999992010051318004-01717-045400FM-12+004499999V0203601N003612200019N0020001N1+03161+02451100861ADDGF104991031021004501001011MA1999999100351MD1999999-0091REMSYN070AAXX  13184 82198 32495 43607 10316 20245 30035 40086 83201 333 59009;
0178821980999992010051400004-01717-045400FM-12+004499999V0200501N002112200019N0002001N1+02741+02471101081ADDGA1001+999999999GF100991001001999999001001KA1240M+03311MA1999999100571MD1999999-0041REMSYN082AAXX  14004 82198 32992 00504 10274 20247 30057 40108 333 10331 29077 55101 59004;
0156821980999992010051412004-01717-045400FM-12+004499999V0200701N001510450019N0020001N1+03061+02501101231ADDGF106991041021004501061011KA1240N+02261MA1999999100721MD1999999+0041REMSYN076AAXX  14124 82198 32495 60703 10306 20250 30072 40123 84261 333 20226 58004;
0182821980999992010051418004-01717-045400FM-12+004499999V0200701N002610450019N0020001N1+03161+02381100941ADDAA106001091AY161061AY221061GF105991031021004501061001MA1999999100431MD1999999+0081MW1021REMSYN082AAXX  14184 82198 21495 50705 10316 20238 30043 40094 70262 83260 333 58008 60011;
0213821980999992010051500004-01717-045400FM-12+004499999V0202301N001510450019N0002001N1+02581+02491101151ADDAA106002091AY161061AY221061GF106991031051004501041001KA1240M+03321MA1999999100641MD1999999+0071MW1021REMSYN100AAXX  15004 82198 21492 62303 10258 20249 30064 40115 70262 83540 333 10332 29082 55071 58007 60021;
0173821980999992010051512004-01717-045400FM-12+004499999V0201101N002110450019N0020001N1+02891+02521101091ADDAA124003091GF106991031021004501041021KA1240N+02201MA1999999100581MD1999999-0141REMSYN082AAXX  15124 82198 22495 61104 10289 20252 30058 40109 83242 333 20220 59014 60034;
0182821980999992010051518004-01717-045400FM-12+004499999V0200901N002610450019N0020001N1+02991+02421100851ADDAA106003091AY161061AY221061GF105991031021004501061001MA1999999100341MD1999999-0091MW1021REMSYN082AAXX  15184 82198 21495 50905 10299 20242 30034 40085 70262 83260 333 59009 60031;
0168821980999992010051600004-01717-045400FM-12+004499999V0200901N001512200019N0002001N1+02761+02441101101ADDGF103991031001012501061001KA1240M+03371MA1999999100591MD1999999-0061REMSYN088AAXX  16004 82198 32692 30903 10276 20244 30059 40110 83060 333 10337 29080 55081 59006;
0173821980999992010051612004-01717-045400FM-12+004499999V0200701N001510450019N0020001N1+03011+02601101151ADDAA124004191GF107991041031004501041001KA1240N+02311MA1999999100641MD1999999+0061REMSYN082AAXX  16124 82198 22495 70703 10301 20260 30064 40115 84340 333 20231 58006 60044;
0137821980999992010051618004-01717-045400FM-12+004499999V0200501N003110450019N0020001N1+02881+02441100861ADDGF106991041021004501061001MA1999999100351MD1999999+0011REMSYN070AAXX  16184 82198 32495 60506 10288 20244 30035 40086 84260 333 58001;
0168821980999992010051700004-01717-045400FM-12+004499999V0203501N002112200019N0002001N1+02631+02421101091ADDGF104991021011004501061001KA1240M+03101MA1999999100581MD1999999-0011REMSYN088AAXX  17004 82198 32492 43504 10263 20242 30058 40109 82160 333 10310 29084 55023 59001;
0156821980999992010051712004-01717-045400FM-12+004499999V0200501N001510450019N0020001N1+02931+02501101121ADDGF106991041021004501061001KA1240N+02261MA1999999100611MD1999999-0031REMSYN076AAXX  17124 82198 32495 60503 10293 20250 30061 40112 84260 333 20226 59003;
0182821980999992010051718004-01717-045400FM-12+004499999V0203601N002610450019N0020001N1+02711+02391100881ADDAA106000021AY121061AY221061GF107991041051004501061001MA1999999100371MD1999999+0021MW1511REMSYN082AAXX  17184 82198 21495 73605 10271 20239 30037 40088 75122 84560 333 58002 69921;
0213821980999992010051800004-01717-045400FM-12+004499999V0201401N003110042019N0002001N1+02581+02331101161ADDAA106001091AY121061AY221061GF107991051051004501021001KA1240M+03371MA1999999100651MD1999999+0071MW1631REMSYN100AAXX  18004 82198 21492 71406 10258 20233 30065 40116 76322 85520 333 10337 29083 55042 58007 60011;
0201821980999992010051812004-01717-045400FM-12+004499999V0200901N001512200019N0020001N1+03011+02601101111ADDAA124022191AY161061AY241061GF103991021021004501031001KA1240N+02211MA1999999100601MD1999999-0011MW1011REMSYN088AAXX  18124 82198 21495 30903 10301 20260 30060 40111 70164 82230 333 20221 59001 60224;
0182821980999992010051818004-01717-045400FM-12+004499999V0200501N003610450019N0010001N1+02621+02371100881ADDAA106015091AY191061AY261061GF108991041071004501021999MA1999999100371MD1999999+0001MW1621REMSYN082AAXX  18184 82198 21494 80507 10262 20237 30037 40088 76296 8472/ 333 58000 60151;
0213821980999992010051900004-01717-045400FM-12+004499999V0200201N001512200019N0002001N1+02491+02241101061ADDAA106004191AY161061AY211061GF103991031001017501031001KA1240M+03461MA1999999100551MD1999999-0101MW1011REMSYN100AAXX  19004 82198 21792 30203 10249 20224 30055 40106 70161 83030 333 10346 29087 55057 59010 60041;
0201821980999992010051912004-01717-045400FM-12+004499999V0203501N001010450019N0010001N1+02501+02401101221ADDAA124024991AY191061AY261061GF108991041051004501021011KA1240N+02251MA1999999100701MD1999999+0101MW1031REMSYN088AAXX  19124 82198 21494 83502 10250 20240 30070 40122 70396 84521 333 20225 58010 60254;
0182821980999992010051918004-01717-045400FM-12+004499999V0201801N000510450019N0020001N1+02611+02371100961ADDAA106003091AY191061AY261061GF108991041051004501011041MA1999999100451MD1999999+0081MW1021REMSYN082AAXX  19184 82198 21495 81801 10261 20237 30045 40096 70296 84514 333 58008 60031;
0213821980999992010052000004-01717-045400FM-12+004499999V0200701N002110450019N0002001N1+02511+02411101191ADDAA106002091AY161061AY221061GF108991041051004501061999KA1240M+02991MA1999999100681MD1999999+0131MW1021REMSYN100AAXX  20004 82198 21492 80704 10251 20241 30068 40119 70262 8456/ 333 10299 29093 55002 58013 60021;
0173821980999992010052012004-01717-045400FM-12+004499999V0200701N002110450019N0020001N1+02831+02581101111ADDAA124005191GF108991041021004501031011KA1240N+02231MA1999999100591MD1999999-0111REMSYN082AAXX  20124 82198 22495 80704 10283 20258 30059 40111 84231 333 20223 59011 60054;
0182821980999992010052018004-01717-045400FM-12+004499999V0203601N002110450019N0010001N1+03081+02561100771ADDAA106003091AY161061AY221061GF107991041071004501061041MA1999999100261MD1999999-0191MW1021REMSYN082AAXX  20184 82198 21494 73604 10308 20256 30026 40077 70262 84764 333 59019 60031;
0168821980999992010052100004-01717-045400FM-12+004499999V0200501N001512200019N0002001N1+02701+02591101041ADDGF103991021021004501011001KA1240M+03201MA1999999100531MD1999999-0051REMSYN088AAXX  21004 82198 32492 30503 10270 20259 30053 40104 82210 333 10320 29088 55003 59005;
0173821980999992010052112004-01717-045400FM-12+004499999V0200701N003610450019N0020001N1+02811+02421101241ADDAA124003091GF106991031051004501031011KA1240N+02441MA1999999100721MD1999999+0131REMSYN082AAXX  21124 82198 22495 60707 10281 20242 30072 40124 83531 333 20244 58013 60034;
0165821980999992010052118004-01717-045400FM-12+004499999V0200701N007210042019N0010001N1+02811+02361100811ADDAY121061AY221061GF108991051031004501021999MA1999999100301MD1999999+0041MW1151REMSYN076AAXX  21184 82198 31494 80714 10281 20236 30030 40081 71522 8532/ 333 58004;
0156821980999992010052212004-01717-045400FM-12+004499999V0200701N003110042019N0020001N1+03021+02531101061ADDGF105991051021004501001001KA1240N+02471MA1999999100551MD1999999-0171REMSYN076AAXX  22124 82198 32495 50706 10302 20253 30055 40106 85200 333 20247 59017;
0165821980999992010052218004-01717-045400FM-12+004499999V0203601N004110450019N0020001N1+03141+02501100721ADDAY121061AY221061GF106991041071004501061011MA1999999100211MD1999999-0091MW1151REMSYN076AAXX  22184 82198 31495 63608 10314 20250 30021 40072 71522 84761 333 59009;
0168821980999992010052300004-01717-045400FM-12+004499999V0200701N003112200019N0002001N1+02731+02431100871ADDGF103991011021004501001061KA1240M+03321MA1999999100361MD1999999-0121REMSYN088AAXX  23004 82198 32492 30706 10273 20243 30036 40087 81206 333 10332 29078 55083 59012;
0156821980999992010052312004-01717-045400FM-12+004499999V0200701N003612200019N0020001N1+03041+02551100941ADDGF105991031021004501001041KA1240N+02511MA1999999100431MD1999999-0121REMSYN076AAXX  23124 82198 32495 50707 10304 20255 30043 40094 83204 333 20251 59012;
0182821980999992010052318004-01717-045400FM-12+004499999V0200701N005710450019N0020001N1+03151+02531100621ADDAA106000591AY191061AY221061GF106991031071004501061011MA1999999100111MD1999999-0101MW1211REMSYN082AAXX  23184 82198 21495 60711 10315 20253 30011 40062 72192 83761 333 59010 69961;
0196821980999992010052400004-01717-045400FM-12+004499999V0200701N003110450019N0002001N1+02751+02521100871ADDAY121061AY221061GF105991031011000751011061KA1240M+03401MA1999999100361MD1999999+0001MW1131REMSYN094AAXX  24004 82198 31192 50706 10275 20252 30036 40087 71322 83116 333 10340 29078 55067 58000;
0173821980999992010052412004-01717-045400FM-12+004499999V0200701N003110450019N0020001N1+03011+02531100971ADDAA124000591GF107991041071004501061001KA1240N+02511MA1999999100461MD1999999+0031REMSYN082AAXX  24124 82198 22495 70706 10301 20253 30046 40097 84760 333 20251 58003 69964;
0137821980999992010052418004-01717-045400FM-12+004499999V0200701N005110450019N0010001N1+03081+02441100701ADDGF108991041071004501021011MA1999999100191MD1999999+0081REMSYN070AAXX  24184 82198 32494 80710 10308 20244 30019 40070 84721 333 58008;
0156821980999992010052512004-01717-045400FM-12+004499999V0200701N003110042019N0020001N1+03151+02521101081ADDGF106991061021004501001001KA1240N+02401MA1999999100571MD1999999+0111REMSYN076AAXX  25124 82198 32495 60706 10315 20252 30057 40108 86200 333 20240 58011;
0182821980999992010052518004-01717-045400FM-12+004499999V0200701N003610450019N0020001N1+02911+02541100721ADDAA106004191AY191061AY261061GF107991041051004501041001MA1999999100211MD1999999+0021MW1151REMSYN082AAXX  25184 82198 21495 70707 10291 20254 30021 40072 71596 84540 333 58002 60041;
0168821980999992010052600004-01717-045400FM-12+004499999V0200701N002110450019N0002001N1+02721+02561101011ADDGF107991021031004501011001KA1240M+03291MA1999999100501MD1999999+0041REMSYN088AAXX  26004 82198 32492 70704 10272 20256 30050 40101 82310 333 10329 29083 55050 58004;
0173821980999992010052612004-01717-045400FM-12+004499999V0200701N003610042019N0020001N1+03111+02511101091ADDAA124004191GF106991061021004501001001KA1240N+02401MA1999999100581MD1999999+0011REMSYN082AAXX  26124 82198 22495 60707 10311 20251 30058 40109 86200 333 20240 58001 60044;
0182821980999992010052618004-01717-045400FM-12+004499999V0200901N002610450019N0020001N1+02821+02621100741ADDAA106015091AY161061AY221061GF105991031031004501041001MA1999999100231MD1999999+0021MW1021REMSYN082AAXX  26184 82198 21495 50905 10282 20262 30023 40074 70262 83340 333 58002 60151;
0168821980999992010052700004-01717-045400FM-12+004499999V0200701N002112200019N0002001N1+02721+02561101021ADDGF103991021021004501041001KA1240M+03281MA1999999100511MD1999999+0011REMSYN088AAXX  27004 82198 32492 30704 10272 20256 30051 40102 82240 333 10328 29086 55059 58001;
0173821980999992010052712004-01717-045400FM-12+004499999V0200701N003610450019N0020001N1+03071+02581101111ADDAA124015091GF106991031021004501031001KA1240N+02391MA1999999100601MD1999999+0021REMSYN082AAXX  27124 82198 22495 60707 10307 20258 30060 40111 83230 333 20239 58002 60154;
0182821980999992010052718004-01717-045400FM-12+004499999V0202001N001510450019N0020001N1+02761+02581100861ADDAA106008991AY161061AY221061GF108991041051004501041999MA1999999100351MD1999999+0121MW1021REMSYN082AAXX  27184 82198 21495 82003 10276 20258 30035 40086 70262 8454/ 333 58012 60091;
0213821980999992010052800004-01717-045400FM-12+004499999V0200901N003110042019N0002001N1+02671+02541101091ADDAA106005191AY151061AY221061GF108991051051004501021999KA1240M+03141MA1999999100581MD1999999+0071MW1631REMSYN100AAXX  28004 82198 21492 80906 10267 20254 30058 40109 76352 8552/ 333 10314 29087 55037 58007 60051;
0173821980999992010052812004-01717-045400FM-12+004499999V0201101N001010450019N0020001N1+02951+02601101141ADDAA124013091GF106991041021004501061001KA1240N+02281MA1999999100631MD1999999+0031REMSYN082AAXX  28124 82198 22495 61102 10295 20260 30063 40114 84260 333 20228 58003 60134;
0182821980999992010052818004-01717-045400FM-12+004499999V0200201N004610450019N0020001N1+03101+02291100791ADDAA106003091AY161061AY221061GF106991031021004501041001MA1999999100281MD1999999-0071MW1151REMSYN082AAXX  28184 82198 21495 60209 10310 20229 30028 40079 71562 83240 333 59007 60031;
0168821980999992010052900004-01717-045400FM-12+004499999V0200501N001012200019N0002001N1+02661+02481101051ADDGF104991021011004501061001KA1240M+03321MA1999999100541MD1999999-0041REMSYN088AAXX  29004 82198 32492 40502 10266 20248 30054 40105 82160 333 10332 29081 55073 59004;
0201821980999992010052912004-01717-045400FM-12+004499999V0201401N002110450019N0020001N1+02911+02561101171ADDAA124003091AY151061AY221061GF105991031021004501061001KA1240N+02211MA1999999100661MD1999999+0031MW1021REMSYN088AAXX  29124 82198 21495 51404 10291 20256 30066 40117 70252 83260 333 20221 58003 60034;
0182821980999992010052918004-01717-045400FM-12+004499999V0201101N002110450019N0020001N1+03041+02571100831ADDAA106003091AY161061AY221061GF105991031021004501041001MA1999999100321MD1999999+0041MW1021REMSYN082AAXX  29184 82198 21495 51104 10304 20257 30032 40083 70262 83240 333 58004 60031;
0168821980999992010053000004-01717-045400FM-12+004499999V0200701N001512200019N0002001N1+02721+02521101121ADDGF104991021011004501081001KA1240M+03181MA1999999100611MD1999999+0071REMSYN088AAXX  30004 82198 32492 40703 10272 20252 30061 40112 82180 333 10318 29084 55062 58007;
0173821980999992010053012004-01717-045400FM-12+004499999V0200701N003610450019N0020001N1+03061+02501101281ADDAA124003091GF106991041021004501061001KA1240N+02421MA1999999100771MD1999999+0111REMSYN082AAXX  30124 82198 22495 60707 10306 20250 30077 40128 84260 333 20242 58011 60034;
0182821980999992010053018004-01717-045400FM-12+004499999V0200901N000510042019N0010001N1+02471+02411101151ADDAA106014091AY191061AY261061GF108991051051004501021999MA1999999100641MD1999999+0321MW1211REMSYN082AAXX  30184 82198 21494 80901 10247 20241 30064 40115 72196 8552/ 333 58032 60141;
0213821980999992010053100004-01717-045400FM-12+004499999V0200901N003110042019N0002001N1+02341+02241101501ADDAA106010991AY161061AY221061GF108991051051004501021999KA1240M+03251MA1999999100991MD1999999+0381MW1631REMSYN100AAXX  31004 82198 21492 80906 10234 20224 30099 40150 76362 8552/ 333 10325 29089 55035 58038 60111;
0201821980999992010053112004-01717-045400FM-12+004499999V0201401N002110450019N0010001N1+02321+02151101761ADDAA124048091AY191061AY261061GF108991041051004501021999KA1240N+02061MA1999999101241MD1999999+0471MW1631REMSYN088AAXX  31124 82198 21494 81404 10232 20215 30124 40176 76396 8452/ 333 20206 58047 60484;
0182821980999992010053118004-01717-045400FM-12+004499999V0201601N001010042019N0020001N1+02641+02411101451ADDAA106005191AY161061AY221061GF108991051051004501041999MA1999999100941MD1999999+0301MW1021REMSYN082AAXX  31184 82198 21495 81602 10264 20241 30094 40145 70262 8554/ 333 58030 60051;
0168821980999992010060100004-01717-045400FM-12+004499999V0209999C000012200019N0002001N1+02501+02401101481ADDGF103991031031004501001001KA1240M+02681MA1999999100961MD1999999-0031REMSYN088AAXX  01004 82198 32492 30000 10250 20240 30096 40148 83300 333 10268 29091 55000 59003;
0173821980999992010060112004-01717-045400FM-12+004499999V0203501N001012200019N0020001N1+02741+02381101431ADDAA124005191GF103991011011004501001061KA1240N+02191MA1999999100911MD1999999-0331REMSYN082AAXX  01124 82198 22495 33502 10274 20238 30091 40143 81106 333 20219 59033 60054;
0137821980999992010060118004-01717-045400FM-12+004499999V0203601N002612200019N0020001N1+03131+02311101171ADDGF103991031021004501001001MA1999999100661MD1999999-0281REMSYN070AAXX  01184 82198 32495 33605 10313 20231 30066 40117 83200 333 59028;
0178821980999992010060200004-01717-045400FM-12+004499999V0203601N001012200019N0002001N1+02601+02371101371ADDGA1001+999999999GF100991001001999999001001KA1240M+03211MA1999999100851MD1999999-0111REMSYN082AAXX  02004 82198 32992 03602 10260 20237 30085 40137 333 10321 29080 55086 59011;
0156821980999992010060212004-01717-045400FM-12+004499999V0200901N002612200019N0020001N1+02871+02311101321ADDGF103991031011004501001001KA1240N+02231MA1999999100801MD1999999-0111REMSYN076AAXX  02124 82198 32495 30905 10287 20231 30080 40132 83100 333 20223 59011;
0137821980999992010060218004-01717-045400FM-12+004499999V0203601N003112200019N0020001N1+03171+02381101031ADDGF103991031021004501001001MA1999999100521MD1999999-0141REMSYN070AAXX  02184 82198 32495 33606 10317 20238 30052 40103 83200 333 59014;
0178821980999992010060300004-01717-045400FM-12+004499999V0200501N002112200019N0002001N1+02651+02311101261ADDGA1001+999999999GF100991001001999999001001KA1240M+03411MA1999999100741MD1999999-0111REMSYN082AAXX  03004 82198 32992 00504 10265 20231 30074 40126 333 10341 29076 55102 59011;
0201821980999992010060312004-01717-045400FM-12+004499999V0201401N002112200019N0020001N1+02791+02561101381ADDAA124000021AY101061AY221061GF104991031021004501001041KA1240N+02301MA1999999100861MD1999999+0061MW1211REMSYN088AAXX  03124 82198 21495 41404 10279 20256 30086 40138 72102 83204 333 20230 58006 69924;
0182821980999992010060318004-01717-045400FM-12+004499999V0200501N001510450019N0020001N1+03141+02551101031ADDAA106000021AY161061AY221061GF106991031021004501061011MA1999999100521MD1999999+0001MW1031REMSYN082AAXX  03184 82198 21495 60503 10314 20255 30052 40103 70362 83261 333 58000 69921;
0196821980999992010060400004-01717-045400FM-12+004499999V0200901N001012200019N0002001N1+02741+02541101321ADDAY111061AY211061GF102991011021004501061001KA1240M+03301MA1999999100801MD1999999+0061MW1131REMSYN094AAXX  04004 82198 31492 20902 10274 20254 30080 40132 71311 81260 333 10330 29084 55082 58006;
0201821980999992010060412004-01717-045400FM-12+004499999V0201101N002610042019N0005001N1+02591+02371101511ADDAA124002091AY161061AY221061GF108991051071004501021001KA1240N+02301MA1999999100981MD1999999+0121MW1621REMSYN088AAXX  04124 82198 21493 81105 10259 20237 30098 40151 76262 85720 333 20230 58012 60024;
0182821980999992010060418004-01717-045400FM-12+004499999V0201401N002110450019N0010001N1+02591+02461101311ADDAA106017091AY191061AY261061GF107991041071004501041041MA1999999100791MD1999999+0271MW1211REMSYN082AAXX  04184 82198 21494 71404 10259 20246 30079 40131 72196 84744 333 58027 60171;
0173821980999992010060512004-01717-045400FM-12+004499999V0200901N003112200019N0020001N1+02801+02401101581ADDAA124017091GF103991011021004501031011KA1240N+02271MA1999999101061MD1999999+0081REMSYN082AAXX  05124 82198 22495 30906 10280 20240 30106 40158 81231 333 20227 58008 60174;
0182821980999992010060518004-01717-045400FM-12+004499999V0203501N001510450019N0020001N1+02701+02461101281ADDAA106003091AY191061AY261061GF106991031021004501061011MA1999999100761MD1999999-0031MW1031REMSYN082AAXX  05184 82198 21495 63503 10270 20246 30076 40128 70396 83261 333 59003 60031;
0232821980999992010060600004-01717-045400FM-12+004499999V0203601N000512200019N0002001N1+02511+02291101441ADDAA106000091AY161061AY211061GF102991021021004501001001KA1240M+03151MA1999999100921MD1999999-0071MW1011REMSYN100AAXX  06004 82198 21492 23601 10251 20229 30092 40144 70161 82200 333 10315 29086 55076 59007 69921;EQDQ01  00002PRCP06
0173821980999992010060612004-01717-045400FM-12+004499999V0200501N002112200019N0020001N1+02951+02551101431ADDAA124003091GF102991021021004501001001KA1240N+02311MA1999999100911MD1999999-0151REMSYN082AAXX  06124 82198 22495 20504 10295 20255 30091 40143 82200 333 20231 59015 60034;
0182821980999992010060618004-01717-045400FM-12+004499999V0200501N004110450019N0020001N1+02711+02331101181ADDAA106000391AY121061AY221061GF106991031071004501061041MA1999999100671MD1999999-0091MW1601REMSYN082AAXX  06184 82198 21495 60508 10271 20233 30067 40118 76022 83764 333 59009 69931;
0178821980999992010060700004-01717-045400FM-12+004499999V0200501N002112200019N0002001N1+02661+02391101361ADDGA1001+999999999GF100991001001999999001001KA1240M+03351MA1999999100841MD1999999-0081REMSYN082AAXX  07004 82198 32992 00504 10266 20239 30084 40136 333 10335 29082 55085 59008;
0173821980999992010060712004-01717-045400FM-12+004499999V0200501N002612200019N0020001N1+03011+02511101431ADDAA124000391GF104991041021004501001001KA1240N+02331MA1999999100921MD1999999-0011REMSYN082AAXX  07124 82198 22495 40505 10301 20251 30092 40143 84200 333 20233 59001 69934;
0182821980999992010060718004-01717-045400FM-12+004499999V0201601N003110450019N0010001N1+02711+02351101091ADDAA106013091AY191061AY261061GF106991031071004501061011MA1999999100581MD1999999-0091MW1621REMSYN082AAXX  07184 82198 21494 61606 10271 20235 30058 40109 76296 83761 333 59009 60131;
0173821980999992010060812004-01717-045400FM-12+004499999V0200901N002112200019N0020001N1+02901+02481101421ADDAA124062091GF103991021011004501061001KA1240N+02181MA1999999100911MD1999999-0011REMSYN082AAXX  08124 82198 22495 30904 10290 20248 30091 40142 82160 333 20218 59001 60624;
0182821980999992010060818004-01717-045400FM-12+004499999V0201101N004610450019N0020001N1+02661+02371101141ADDAA106004191AY161061AY221061GF107991031021004501041001MA1999999100631MD1999999+0051MW1521REMSYN082AAXX  08184 82198 21495 71109 10266 20237 30063 40114 75262 83240 333 58005 60041;
0168821980999992010060900004-01717-045400FM-12+004499999V0200701N002112200019N0002001N1+02611+02401101391ADDGF103991031031004501001001KA1240M+03271MA1999999100881MD1999999-0061REMSYN088AAXX  09004 82198 32492 30704 10261 20240 30088 40139 83300 333 10327 29085 55063 59006;
0173821980999992010060912004-01717-045400FM-12+004499999V0200501N002610450019N0020001N1+02981+02491101421ADDAA124004191GF106991041021004501061011KA1240N+02301MA1999999100911MD1999999+0001REMSYN082AAXX  09124 82198 22495 60505 10298 20249 30091 40142 84261 333 20230 58000 60044;
0137821980999992010060918004-01717-045400FM-12+004499999V0200701N005110042019N0020001N1+03061+02351101171ADDGF107991051051004501041001MA1999999100661MD1999999+0031REMSYN070AAXX  09184 82198 32495 70710 10306 20235 30066 40117 85540 333 58003;
0168821980999992010061000004-01717-045400FM-12+004499999V0200501N001510450019N0002001N1+02631+02411101341ADDGF105991031021004501061001KA1240M+03301MA1999999100831MD1999999-0051REMSYN088AAXX  10004 82198 32492 50503 10263 20241 30083 40134 83260 333 10330 29079 55084 59005;
0156821980999992010061012004-01717-045400FM-12+004499999V0200701N002112200019N0020001N1+02971+02471101391ADDGF103991031011004501001001KA1240N+02241MA1999999100881MD1999999-0031REMSYN076AAXX  10124 82198 32495 30704 10297 20247 30088 40139 83100 333 20224 59003;
0201821980999992010061018004-01717-045400FM-12+004499999V0203601N003112200019N0020001N1+03061+02381101111ADDAA106000091AY151061AY221061GF104991021021004501061001MA1999999100601MD1999999-0061MW1011REMSYN082AAXX  10184 82198 21495 43606 10306 20238 30060 40111 70152 82260 333 59006 69921;EQDQ01  00002PRCP06
0213821980999992010061100004-01717-045400FM-12+004499999V0200201N001012200019N0002001N1+02601+02421101271ADDAA106000591AY151061AY221061GF103991031031004501001001KA1240M+03301MA1999999100761MD1999999-0071MW1011REMSYN100AAXX  11004 82198 21492 30202 10260 20242 30076 40127 70152 83300 333 10330 29080 55095 59007 69941;
0173821980999992010061112004-01717-045400FM-12+004499999V0201401N001510042019N0020001N1+02881+02501101371ADDAA124000591GF105991051021004501001001KA1240N+02161MA1999999100861MD1999999-0021REMSYN082AAXX  11124 82198 22495 51403 10288 20250 30086 40137 85200 333 20216 59002 69964;
0137821980999992010061118004-01717-045400FM-12+004499999V0203601N002110450019N0020001N1+02761+02421101181ADDGF106991041031004501041001MA1999999100671MD1999999+0071REMSYN070AAXX  11184 82198 32495 63604 10276 20242 30067 40118 84340 333 58007;
0213821980999992010061200004-01717-045400FM-12+004499999V0200701N002110450019N0002001N1+02451+02321101381ADDAA106002091AY191061AY261061GF106991031051004501041001KA1240M+03231MA1999999100861MD1999999+0101MW1131REMSYN100AAXX  12004 82198 21492 60704 10245 20232 30086 40138 71396 83540 333 10323 29087 55053 58010 60021;
0173821980999992010061212004-01717-045400FM-12+004499999V0200701N002112200019N0020001N1+02941+02521101441ADDAA124002091GF103991021011004501001011KA1240N+02161MA1999999100931MD1999999+0071REMSYN082AAXX  12124 82198 22495 30704 10294 20252 30093 40144 82101 333 20216 58007 60024;
0182821980999992010061218004-01717-045400FM-12+004499999V0200201N002610450019N0020001N1+02901+02371101181ADDAA106001091AY161061AY221061GF105991031021004501061001MA1999999100671MD1999999+0001MW1021REMSYN082AAXX  12184 82198 21495 50205 10290 20237 30067 40118 70262 83260 333 58000 60011;
0173821980999992010061312004-01717-045400FM-12+004499999V0200201N002110450019N0020001N1+02921+02501101341ADDAA124037191GF106991041021004501031001KA1240N+02101MA1999999100831MD1999999-0101REMSYN082AAXX  13124 82198 22495 60204 10292 20250 30083 40134 84230 333 20210 59010 60374;
0182821980999992010061318004-01717-045400FM-12+004499999V0203601N003110450019N0010001N1+02491+02361101091ADDAA106036191AY191061AY261061GF108991041051004501021999MA1999999100581MD1999999-0091MW1631REMSYN082AAXX  13184 82198 21494 83606 10249 20236 30058 40109 76396 8452/ 333 59009 60361;
0213821980999992010061400004-01717-045400FM-12+004499999V0203501N000510042019N0002001N1+02331+02241101421ADDAA106027991AY191061AY261061GF108991061051004501021999KA1240M+03171MA1999999100901MD1999999+0041MW1621REMSYN100AAXX  14004 82198 21492 83501 10233 20224 30090 40142 76296 8652/ 333 10317 29090 55044 58004 60281;
0201821980999992010061412004-01717-045400FM-12+004499999V0200901N001511050019N0020001N1+02781+02441101231ADDAA124067191AY161061AY221061GF105991041021004501001021KA1240N+02041MA1999999100721MD1999999-0111MW1021REMSYN088AAXX  14124 82198 21495 50903 10278 20244 30072 40123 70262 84202 333 20204 59011 60674;
0182821980999992010061418004-01717-045400FM-12+004499999V0203601N002110042019N0010001N1+02621+02481101041ADDAA106030091AY161061AY221061GF108991051071004501021999MA1999999100531MD1999999-0051MW1021REMSYN082AAXX  14184 82198 21494 83604 10262 20248 30053 40104 70262 8572/ 333 59005 60301;
0213821980999992010061500004-01717-045400FM-12+004499999V0201401N001012200019N0002001N1+02461+02341101231ADDAA106004191AY161061AY221061GF104991021031004501041001KA1240M+03131MA1999999100711MD1999999-0191MW1131REMSYN100AAXX  15004 82198 21492 41402 10246 20234 30071 40123 71362 82340 333 10313 29090 55037 59019 60041;
0201821980999992010061512004-01717-045400FM-12+004499999V0203201N001510450019N0005001N1+02491+02351101291ADDAA124035191AY161061AY221061GF107991031071004501061011KA1240N+02181MA1999999100771MD1999999+0051MW1031REMSYN088AAXX  15124 82198 21493 73203 10249 20235 30077 40129 70362 83761 333 20218 58005 60354;
0182821980999992010061518004-01717-045400FM-12+004499999V0201801N001010450019N0020001N1+02841+02541101111ADDAA106001091AY161061AY221061GF107991031071004501011061MA1999999100601MD1999999+0071MW1021REMSYN082AAXX  15184 82198 21495 71802 10284 20254 30060 40111 70262 83716 333 58007 60011;
0168821980999992010061600004-01717-045400FM-12+004499999V0201801N002612200019N0002001N1+02551+02461101331ADDGF104991031021004501061001KA1240M+03061MA1999999100811MD1999999+0101REMSYN088AAXX  16004 82198 32492 41805 10255 20246 30081 40133 83260 333 10306 29091 55019 58010;
0173821980999992010061612004-01717-045400FM-12+004499999V0201101N002612200019N0020001N1+02881+02461101191ADDAA124001091GF102991011021004501001011KA1240N+02301MA1999999100681MD1999999-0091REMSYN082AAXX  16124 82198 22495 21105 10288 20246 30068 40119 81201 333 20230 59009 60014;
0137821980999992010061618004-01717-045400FM-12+004499999V0200901N002112200019N0020001N1+03061+02171101041ADDGF104991041021004501001001MA1999999100531MD1999999-0071REMSYN070AAXX  16184 82198 32495 40904 10306 20217 30053 40104 84200 333 59007;
0168821980999992010061700004-01717-045400FM-12+004499999V0200901N000512200019N0002001N1+02691+02371101241ADDGF104991031021004501011001KA1240M+03211MA1999999100721MD1999999-0091REMSYN088AAXX  17004 82198 32492 40901 10269 20237 30072 40124 83210 333 10321 29075 55084 59009;
0184821980999992010061712004-01717-045400FM-12+004499999V0202701N001512200019N0010001N1+02631+02461101171ADDAY101061AY211061GF105991031021004501001061KA1240N+02191MA1999999100661MD1999999-0021MW1041REMSYN082AAXX  17124 82198 31494 52703 10263 20246 30066 40117 70401 83206 333 20219 59002;
0165821980999992010061718004-01717-045400FM-12+004499999V0201601N002110450019N0010001N1+03271+02381100911ADDAY191061AY221061GF108991041071004501021999MA1999999100401MD1999999-0131MW1151REMSYN076AAXX  17184 82198 31494 81604 10327 20238 30040 40091 71592 8472/ 333 59013;
0201821980999992010061812004-01717-045400FM-12+004499999V0201101N003610450019N0005001N1+02431+02331101321ADDAA124025991AY161061AY221061GF108991031071004501021999KA1240N+02311MA1999999100801MD1999999+0141MW1631REMSYN088AAXX  18124 82198 21493 81107 10243 20233 30080 40132 76362 8372/ 333 20231 58014 60264;
0137821980999992010061818004-01717-045400FM-12+004499999V0201101N004110450019N0010001N1+02991+02371100911ADDGF108991041071004501061011MA1999999100401MD1999999+0001REMSYN070AAXX  18184 82198 32494 81108 10299 20237 30040 40091 84761 333 58000;
0168821980999992010061900004-01717-045400FM-12+004499999V0200501N002119999999N0002001N1+02561+02361101121ADDGF105991051001022501001061KA1240M+03001MA1999999100611MD1999999-0011REMSYN088AAXX  19004 82198 32892 50504 10256 20236 30061 40112 85006 333 10300 29087 55014 59001;
0156821980999992010061912004-01717-045400FM-12+004499999V0200501N002610042019N0020001N1+02901+02501101131ADDGF105991051021004501001001KA1240N+02271MA1999999100621MD1999999-0181REMSYN076AAXX  19124 82198 32495 50505 10290 20250 30062 40113 85200 333 20227 59018;
0182821980999992010061918004-01717-045400FM-12+004499999V0200701N003612200019N0020001N1+03171+02351100871ADDAA106003091AY161061AY221061GF105991031021004501001011MA1999999100361MD1999999-0041MW1021REMSYN082AAXX  19184 82198 21495 50707 10317 20235 30036 40087 70262 83201 333 59004 60031;
0168821980999992010062000004-01717-045400FM-12+004499999V0200901N002112200019N0002001N1+02601+02391101061ADDGF103991021011004501041001KA1240M+03271MA1999999100551MD1999999-0061REMSYN088AAXX  20004 82198 32492 30904 10260 20239 30055 40106 82140 333 10327 29079 55091 59006;
0173821980999992010062012004-01717-045400FM-12+004499999V0200901N002612200019N0020001N1+02881+02441101011ADDAA124003091GF104991041021004501001001KA1240N+02311MA1999999100501MD1999999-0121REMSYN082AAXX  20124 82198 22495 40905 10288 20244 30050 40101 84200 333 20231 59012 60034;
0201821980999992010062018004-01717-045400FM-12+004499999V0200701N003610450019N0020001N1+03111+02411100781ADDAA106000091AY151061AY221061GF106991031021004501031001MA1999999100271MD1999999-0071MW1031REMSYN082AAXX  20184 82198 21495 60707 10311 20241 30027 40078 70352 83230 333 59007 69921;EQDQ01  00002PRCP06
0168821980999992010062100004-01717-045400FM-12+004499999V0200501N002612200019N0002001N1+02691+02391100981ADDGF103991011011004501031001KA1240M+03201MA1999999100471MD1999999-0081REMSYN088AAXX  21004 82198 32492 30505 10269 20239 30047 40098 81130 333 10320 29080 55085 59008;
0192821980999992010062112004-01717-045400FM-12+004499999V0200701N003112200019N0020001N1+02981+02511101121ADDAA124000091GF106991041021004501001011KA1240N+02451MA1999999100611MD1999999+0111REMSYN082AAXX  21124 82198 22495 60706 10298 20251 30061 40112 84201 333 20245 58011 69924;EQDQ01  00002PRCP24
0182821980999992010062118004-01717-045400FM-12+004499999V0201801N001010450019N0010001N1+02661+02411100901ADDAA106024991AY161061AY221061GF107991041071004501061001MA1999999100391MD1999999+0121MW1031REMSYN082AAXX  21184 82198 21494 71802 10266 20241 30039 40090 70362 84760 333 58012 60251;
0173821980999992010062212004-01717-045400FM-12+004499999V0200701N003110450019N0020001N1+02971+02511101341ADDAA124024991GF106991031021004501031001KA1240N+02071MA1999999100831MD1999999+0221REMSYN082AAXX  22124 82198 22495 60706 10297 20251 30083 40134 83230 333 20207 58022 60254;
0182821980999992010062218004-01717-045400FM-12+004499999V0200201N002610450019N0010001N1+02511+02271101051ADDAA106013091AY191061AY261061GF108991031071004501021999MA1999999100541MD1999999+0151MW1201REMSYN082AAXX  22184 82198 21494 80205 10251 20227 30054 40105 72096 8372/ 333 58015 60131;
0213821980999992010062300004-01717-045400FM-12+004499999V0200901N002612200019N0002001N1+02451+02341101341ADDAA106002091AY161061AY221061GF104991011021008001061001KA1240M+03181MA1999999100821MD1999999+0141MW1021REMSYN100AAXX  23004 82198 21592 40905 10245 20234 30082 40134 70262 81260 333 10318 29088 55040 58014 60021;
0173821980999992010062312004-01717-045400FM-12+004499999V0200501N002610450019N0020001N1+02881+02481101391ADDAA124015091GF106991031021008001041001KA1240N+02181MA1999999100881MD1999999+0051REMSYN082AAXX  23124 82198 22595 60505 10288 20248 30088 40139 83240 333 20218 58005 60154;
0137821980999992010062318004-01717-045400FM-12+004499999V0200201N004610450019N0020001N1+03001+02291101071ADDGF106991041021004501061001MA1999999100561MD1999999+0021REMSYN070AAXX  23184 82198 32495 60209 10300 20229 30056 40107 84260 333 58002;
0178821980999992010062400004-01717-045400FM-12+004499999V0200501N002112200019N0002001N1+02601+02391101271ADDGA1001+999999999GF100991001001999999001001KA1240M+03141MA1999999100761MD1999999-0061REMSYN082AAXX  24004 82198 32992 00504 10260 20239 30076 40127 333 10314 29080 55083 59006;
0201821980999992010062412004-01717-045400FM-12+004499999V0200901N005710450019N0010001N1+02531+02401101451ADDAA124004191AY121061AY211061GF108991031051004501021999KA1240N+02261MA1999999100941MD1999999+0061MW1631REMSYN088AAXX  24124 82198 21494 80911 10253 20240 30094 40145 76321 8352/ 333 20226 58006 60044;
0182821980999992010062418004-01717-045400FM-12+004499999V0200701N002610450019N0020001N1+02711+02451101111ADDAA106019191AY161061AY221061GF107991031031004501061001MA1999999100601MD1999999+0041MW1021REMSYN082AAXX  24184 82198 21495 70705 10271 20245 30060 40111 70262 83360 333 58004 60191;
0196821980999992010062500004-01717-045400FM-12+004499999V0200501N002610450019N0002001N1+02621+02351101331ADDAY121061AY221061GF106991021021004501031001KA1240M+02861MA1999999100811MD1999999+0051MW1131REMSYN094AAXX  25004 82198 31492 60505 10262 20235 30081 40133 71322 82230 333 10286 29087 55004 58005;
0173821980999992010062512004-01717-045400FM-12+004499999V0200901N002612200019N0020001N1+02941+02491101451ADDAA124019191GF104991041021004501001001KA1240N+02121MA1999999100941MD1999999+0001REMSYN082AAXX  25124 82198 22495 40905 10294 20249 30094 40145 84200 333 20212 58000 60194;
0182821980999992010062518004-01717-045400FM-12+004499999V0201101N002610450019N0020001N1+02681+02481101121ADDAA106017091AY161061AY221061GF107991041051004501041001MA1999999100611MD1999999+0011MW1211REMSYN082AAXX  25184 82198 21495 71105 10268 20248 30061 40112 72162 84540 333 58001 60171;
0168821980999992010062600004-01717-045400FM-12+004499999V0202001N002110450019N0002001N1+02451+02301101261ADDGF106991021011004501031001KA1240M+03081MA1999999100751MD1999999-0061REMSYN088AAXX  26004 82198 32492 62004 10245 20230 30075 40126 82130 333 10308 29088 55053 59006;
0173821980999992010062612004-01717-045400FM-12+004499999V0201101N001512200019N0020001N1+02861+02501101191ADDAA124017091GF103991031021004501001001KA1240N+02121MA1999999100681MD1999999-0261REMSYN082AAXX  26124 82198 22495 31103 10286 20250 30068 40119 83200 333 20212 59026 60174;
0137821980999992010062618004-01717-045400FM-12+004499999V0201401N004112200019N0020001N1+03171+02171100951ADDGF103991031021004501001001MA1999999100441MD1999999-0171REMSYN070AAXX  26184 82198 32495 31408 10317 20217 30044 40095 83200 333 59017;
0168821980999992010062700004-01717-045400FM-12+004499999V0200901N001512200019N0002001N1+02691+02391101131ADDGF102991021021004501001001KA1240M+03251MA1999999100621MD1999999-0131REMSYN088AAXX  27004 82198 32492 20903 10269 20239 30062 40113 82200 333 10325 29076 55096 59013;
0156821980999992010062712004-01717-045400FM-12+004499999V0200901N003112200019N0020001N1+02941+02471101141ADDGF104991041021004501001001KA1240N+02201MA1999999100631MD1999999-0051REMSYN076AAXX  27124 82198 32495 40906 10294 20247 30063 40114 84200 333 20220 59005;
0137821980999992010062718004-01717-045400FM-12+004499999V0201101N004110450019N0020001N1+02841+02141100951ADDGF106991031071004501041001MA1999999100441MD1999999+0001REMSYN070AAXX  27184 82198 32495 61108 10284 20214 30044 40095 83740 333 58000;
0168821980999992010062800004-01717-045400FM-12+004499999V0201601N002112200019N0002001N1+02681+02331101181ADDGF102991021001012501061001KA1240M+03201MA1999999100671MD1999999+0051REMSYN088AAXX  28004 82198 32692 21604 10268 20233 30067 40118 82060 333 10320 29076 55067 58005;
0156821980999992010062812004-01717-045400FM-12+004499999V0201101N004612200019N0020001N1+02761+02231101311ADDGF104991011011004501061001KA1240N+02101MA1999999100801MD1999999+0171REMSYN076AAXX  28124 82198 32495 41109 10276 20223 30080 40131 81160 333 20210 58017;
0137821980999992010062818004-01717-045400FM-12+004499999V0201401N003110450019N0020001N1+03081+02241100971ADDGF106991041031004501061001MA1999999100461MD1999999+0021REMSYN070AAXX  28184 82198 32495 61406 10308 20224 30046 40097 84360 333 58002;
0168821980999992010062900004-01717-045400FM-12+004499999V0209999C000012200019N0002001N1+02741+02451101271ADDGF104991041001012501061001KA1240M+03171MA1999999100761MD1999999+0091REMSYN088AAXX  29004 82198 32692 40000 10274 20245 30076 40127 84060 333 10317 29076 55082 58009;
0201821980999992010062912004-01717-045400FM-12+004499999V0200701N000510450019N0020001N1+02861+02331101251ADDAA124000891AY151061AY221061GF105991011031004501061001KA1240N+02181MA1999999100741MD1999999-0061MW1021REMSYN088AAXX  29124 82198 21495 50701 10286 20233 30074 40125 70252 81360 333 20218 59006 69974;
0137821980999992010062918004-01717-045400FM-12+004499999V0201801N002610450019N0020001N1+02901+02321101021ADDGF107991031031004501041001MA1999999100511MD1999999+0051REMSYN070AAXX  29184 82198 32495 71805 10290 20232 30051 40102 83340 333 58005;
0168821980999992010063000004-01717-045400FM-12+004499999V0203601N001010450019N0002001N1+02571+02331101241ADDGF106991031031004501061001KA1240M+03181MA1999999100731MD1999999-0031REMSYN088AAXX  30004 82198 32492 63602 10257 20233 30073 40124 83360 333 10318 29079 55031 59003;
0156821980999992010063012004-01717-045400FM-12+004499999V0203601N001010450019N0020001N1+02831+02461101341ADDGF106991041021004501061001KA1240N+02201MA1999999100831MD1999999+0091REMSYN076AAXX  30124 82198 32495 63602 10283 20246 30083 40134 84260 333 20220 58009;
0182821980999992010063018004-01717-045400FM-12+004499999V0200501N002610042019N0020001N1+02561+02361101091ADDAA106000891AY121061AY221061GF107991051051004501041001MA1999999100581MD1999999+0071MW1201REMSYN082AAXX  30184 82198 21495 70505 10256 20236 30058 40109 72022 85540 333 58007 69971;
0168821980999992010070100004-01717-045400FM-12+004499999V0203501N001010450019N0002001N1+02461+02341101341ADDGF105991021051004501061001KA1240M+03321MA1999999100831MD1999999+0101REMSYN088AAXX  01004 82198 32492 53502 10246 20234 30083 40134 82560 333 10332 29089 55056 58010;
0201821980999992010070112004-01717-045400FM-12+004499999V0200501N003110042019N0010001N1+02461+02371101401ADDAA124001091AY121061AY221061GF108991051071004501021999KA1240N+02101MA1999999100891MD1999999+0061MW1201REMSYN088AAXX  01124 82198 21494 80506 10246 20237 30089 40140 72022 8572/ 333 20210 58006 60014;
0137821980999992010070118004-01717-045400FM-12+004499999V0200501N001010450019N0020001N1+02981+02471101121ADDGF105991031021004501031011MA1999999100611MD1999999+0031REMSYN070AAXX  01184 82198 32495 50502 10298 20247 30061 40112 83231 333 58003;
0213821980999992010070200004-01717-045400FM-12+004499999V0203501N002612200019N0002001N1+02411+02301101291ADDAA106047091AY191061AY261061GF103991031031004501001001KA1240M+03151MA1999999100771MD1999999-0061MW1021REMSYN100AAXX  02004 82198 21492 33505 10241 20230 30077 40129 70296 83300 333 10315 29089 55013 59006 60471;
0173821980999992010070212004-01717-045400FM-12+004499999V0200701N003110450019N0020001N1+02911+02461101271ADDAA124047091GF105991041021004501061001KA1240N+02141MA1999999100761MD1999999-0131REMSYN082AAXX  02124 82198 22495 50706 10291 20246 30076 40127 84260 333 20214 59013 60474;
0182821980999992010070218004-01717-045400FM-12+004499999V0200701N001512200019N0020001N1+02861+02461101021ADDAA106004191AY161061AY221061GF104991021031004501041001MA1999999100511MD1999999-0101MW1211REMSYN082AAXX  02184 82198 21495 40703 10286 20246 30051 40102 72162 82340 333 59010 60041;
0196821980999992010070300004-01717-045400FM-12+004499999V0200701N002112200019N0002001N1+02621+02441101231ADDAY121061AY211061GF102991021001012501061001KA1240M+03211MA1999999100721MD1999999-0051MW1131REMSYN094AAXX  03004 82198 31692 20704 10262 20244 30072 40123 71321 82060 333 10321 29084 55079 59005;
0201821980999992010070312004-01717-045400FM-12+004499999V0200701N002110042019N0020001N1+02471+02411101271ADDAA124013091AY191061AY261061GF107991051041004501041001KA1240N+02101MA1999999100761MD1999999+0001MW1021REMSYN088AAXX  03124 82198 21495 70704 10247 20241 30076 40127 70296 85440 333 20210 58000 60134;
0182821980999992010070318004-01717-045400FM-12+004499999V0203201N001010450019N0020001N1+02521+02381101121ADDAA106007991AY191061AY261061GF107991041031004501041001MA1999999100611MD1999999+0101MW1021REMSYN082AAXX  03184 82198 21495 73202 10252 20238 30061 40112 70296 84340 333 58010 60081;
0168821980999992010070400004-01717-045400FM-12+004499999V0203601N000510450019N0002001N1+02491+02391101231ADDGF106991031041004501061001KA1240M+03211MA1999999100721MD1999999+0001REMSYN088AAXX  04004 82198 32492 63601 10249 20239 30072 40123 83460 333 10321 29094 55032 58000;
0173821980999992010070412004-01717-045400FM-12+004499999V0200901N002112200019N0020001N1+02921+02561101221ADDAA124007991GF104991021021004501061001KA1240N+02231MA1999999100711MD1999999-0051REMSYN082AAXX  04124 82198 22495 40904 10292 20256 30071 40122 82260 333 20223 59005 60084;
0182821980999992010070418004-01717-045400FM-12+004499999V0203201N001510450019N0020001N1+02621+02391100991ADDAA106003091AY161061AY221061GF106991031031004501041001MA1999999100481MD1999999-0131MW1021REMSYN082AAXX  04184 82198 21495 63203 10262 20239 30048 40099 70262 83340 333 59013 60031;
0168821980999992010070500004-01717-045400FM-12+004499999V0200501N001510450019N0002001N1+02551+02401101181ADDGF106991041011004501041001KA1240M+03171MA1999999100671MD1999999-0051REMSYN088AAXX  05004 82198 32492 60503 10255 20240 30067 40118 84140 333 10317 29088 55045 59005;
0173821980999992010070512004-01717-045400FM-12+004499999V0200701N003110450019N0020001N1+02961+02481101181ADDAA124003091GF105991041011004501061001KA1240N+02181MA1999999100671MD1999999-0041REMSYN082AAXX  05124 82198 22495 50706 10296 20248 30067 40118 84160 333 20218 59004 60034;
0137821980999992010070518004-01717-045400FM-12+004499999V0200701N004610450019N0020001N1+03021+02441100951ADDGF105991031021004501061001MA1999999100441MD1999999-0041REMSYN070AAXX  05184 82198 32495 50709 10302 20244 30044 40095 83260 333 59004;
0168821980999992010070600004-01717-045400FM-12+004499999V0200501N002110450019N0002001N1+02651+02421101171ADDGF106991041011004501061001KA1240M+03271MA1999999100661MD1999999-0011REMSYN088AAXX  06004 82198 32492 60504 10265 20242 30066 40117 84160 333 10327 29081 55074 59001;
0156821980999992010070612004-01717-045400FM-12+004499999V0200701N002612200019N0020001N1+02961+02451101251ADDGF103991031011004501001001KA1240N+02181MA1999999100741MD1999999+0071REMSYN076AAXX  06124 82198 32495 30705 10296 20245 30074 40125 83100 333 20218 58007;
0137821980999992010070618004-01717-045400FM-12+004499999V0202001N002612200019N0020001N1+03061+02301101041ADDGF104991021021004501061001MA1999999100531MD1999999+0091REMSYN070AAXX  06184 82198 32495 42005 10306 20230 30053 40104 82260 333 58009;
0168821980999992010070700004-01717-045400FM-12+004499999V0200501N002112200019N0002001N1+02571+02381101221ADDGF102991021001012501061001KA1240M+03201MA1999999100711MD1999999+0051REMSYN088AAXX  07004 82198 32692 20504 10257 20238 30071 40122 82060 333 10320 29079 55088 58005;
0156821980999992010070712004-01717-045400FM-12+004499999V0200201N002612200019N0020001N1+02911+02461101231ADDGF104991031011004501041001KA1240N+02081MA1999999100721MD1999999-0021REMSYN076AAXX  07124 82198 32495 40205 10291 20246 30072 40123 83140 333 20208 59002;
0182821980999992010070718004-01717-045400FM-12+004499999V0200701N002110042019N0010001N1+02631+02411101051ADDAA106021191AY121061AY221061GF108991051051004501021999MA1999999100541MD1999999+0011MW1631REMSYN082AAXX  07184 82198 21494 80704 10263 20241 30054 40105 76322 8552/ 333 58001 60211;
0213821980999992010070800004-01717-045400FM-12+004499999V0200701N001510450019N0002001N1+02611+02401101301ADDAA106004191AY161061AY221061GF106991031011004501041001KA1240M+03251MA1999999100791MD1999999+0081MW1131REMSYN100AAXX  08004 82198 21492 60703 10261 20240 30079 40130 71362 83140 333 10325 29086 55067 58008 60041;
0173821980999992010070812004-01717-045400FM-12+004499999V0200701N002610450019N0020001N1+02891+02411101341ADDAA124025991GF105991031021004501061001KA1240N+02271MA1999999100831MD1999999+0111REMSYN082AAXX  08124 82198 22495 50705 10289 20241 30083 40134 83260 333 20227 58011 60264;
0137821980999992010070818004-01717-045400FM-12+004499999V0200701N002610450019N0020001N1+03031+02441101021ADDGF106991031021004501031001MA1999999100511MD1999999-0031REMSYN070AAXX  08184 82198 32495 60705 10303 20244 30051 40102 83230 333 59003;
0196821980999992010070900004-01717-045400FM-12+004499999V0200701N002112200019N0002001N1+02681+02391101291ADDAY121061AY211061GF104991031021004501031001KA1240M+03201MA1999999100781MD1999999-0011MW1131REMSYN094AAXX  09004 82198 31492 40704 10268 20239 30078 40129 71321 83230 333 10320 29079 55069 59001;
0201821980999992010070912004-01717-045400FM-12+004499999V0200701N002610450019N0020001N1+02981+02531101281ADDAA124005191AY161061AY221061GF105991031011004501061001KA1240N+02161MA1999999100771MD1999999-0061MW1021REMSYN088AAXX  09124 82198 21495 50705 10298 20253 30077 40128 70262 83160 333 20216 59006 60054;
0182821980999992010070918004-01717-045400FM-12+004499999V0203501N001510042019N0010001N1+02691+02461100971ADDAA106006191AY161061AY221061GF108991051051004501041999MA1999999100461MD1999999-0051MW1021REMSYN082AAXX  09184 82198 21494 83503 10269 20246 30046 40097 70262 8554/ 333 59005 60061;
0213821980999992010071000004-01717-045400FM-12+004499999V0200701N002112200019N0002001N1+02551+02441101161ADDAA106001091AY161061AY221061GF104991021031004501061001KA1240M+03281MA1999999100651MD1999999-0131MW1011REMSYN100AAXX  10004 82198 21492 40704 10255 20244 30065 40116 70162 82360 333 10328 29088 55056 59013 60011;
0173821980999992010071012004-01717-045400FM-12+004499999V0200701N003112200019N0020001N1+02931+02451101251ADDAA124007191GF104991021021004501061001KA1240N+02261MA1999999100741MD1999999-0031REMSYN082AAXX  10124 82198 22495 40706 10293 20245 30074 40125 82260 333 20226 59003 60074;
0182821980999992010071018004-01717-045400FM-12+004499999V0200701N001510450019N0020001N1+02741+02521100921ADDAA106000891AY151061AY221061GF107991021031004501041001MA1999999100411MD1999999-0051MW1021REMSYN082AAXX  10184 82198 21495 70703 10274 20252 30041 40092 70252 82340 333 59005 69981;
0178821980999992010071100004-01717-045400FM-12+004499999V0200501N001012200019N0002001N1+02581+02381101141ADDGA1001+999999999GF100991001001999999001001KA1240M+03001MA1999999100631MD1999999-0021REMSYN082AAXX  11004 82198 32992 00502 10258 20238 30063 40114 333 10300 29086 55028 59002;
0173821980999992010071112004-01717-045400FM-12+004499999V0200701N004110042019N0020001N1+02941+02471101111ADDAA124000891GF105991051021004501001001KA1240N+02211MA1999999100601MD1999999-0141REMSYN082AAXX  11124 82198 22495 50708 10294 20247 30060 40111 85200 333 20221 59014 69984;
0137821980999992010071118004-01717-045400FM-12+004499999V0201101N002612200019N0020001N1+02901+02371100811ADDGF104991031021004501061001MA1999999100301MD1999999-0111REMSYN070AAXX  11184 82198 32495 41105 10290 20237 30030 40081 83260 333 59011;
0178821980999992010071200004-01717-045400FM-12+004499999V0200501N002112200019N0002001N1+02631+02441100981ADDGA1001+999999999GF100991001001999999001001KA1240M+03241MA1999999100471MD1999999-0161REMSYN082AAXX  12004 82198 32992 00504 10263 20244 30047 40098 333 10324 29082 55088 59016;
0156821980999992010071212004-01717-045400FM-12+004499999V0200701N004110042019N0020001N1+02941+02431101161ADDGF105991051021004501001001KA1240N+02251MA1999999100651MD1999999+0051REMSYN076AAXX  12124 82198 32495 50708 10294 20243 30065 40116 85200 333 20225 58005;
0137821980999992010071218004-01717-045400FM-12+004499999V0200901N005112200019N0020001N1+03011+02271100841ADDGF104991031021004501001021MA1999999100331MD1999999+0031REMSYN070AAXX  12184 82198 32495 40910 10301 20227 30033 40084 83202 333 58003;
0178821980999992010071300004-01717-045400FM-12+004499999V0200501N001512200019N0002001N1+02601+02351101041ADDGA1001+999999999GF100991001001999999001001KA1240M+03211MA1999999100531MD1999999+0061REMSYN082AAXX  13004 82198 32992 00503 10260 20235 30053 40104 333 10321 29078 55099 58006;
0156821980999992010071312004-01717-045400FM-12+004499999V0200701N004112200019N0020001N1+02971+02421101141ADDGF103991011011004501001011KA1240N+02161MA1999999100631MD1999999-0021REMSYN076AAXX  13124 82198 32495 30708 10297 20242 30063 40114 81101 333 20216 59002;
0182821980999992010071318004-01717-045400FM-12+004499999V0201101N001510042019N0020001N1+02921+02541100921ADDAA106002091AY121061AY211061GF106991051051004501041001MA1999999100411MD1999999+0081MW1621REMSYN082AAXX  13184 82198 21495 61103 10292 20254 30041 40092 76221 85540 333 58008 60021;
0223821980999992010071400004-01717-045400FM-12+004499999V0200501N001512200019N0002001N1+02641+02441101021ADDAA106000591AY151061AY221061GA1001+999999999GF100991001001999999001001KA1240M+03281MA1999999100511MD1999999-0021MW1131REMSYN094AAXX  14004 82198 21992 00503 10264 20244 30051 40102 71352 333 10328 29082 55075 59002 69951;
0173821980999992010071412004-01717-045400FM-12+004499999V0200701N003110450019N0020001N1+02881+02441101241ADDAA124002091GF107991041031004501041001KA1240N+02261MA1999999100731MD1999999+0101REMSYN082AAXX  14124 82198 22495 70706 10288 20244 30073 40124 84340 333 20226 58010 60024;
0182821980999992010071418004-01717-045400FM-12+004499999V0200701N005110450019N0020001N1+02781+02401100991ADDAA106006191AY161061AY221061GF106991031031004501061001MA1999999100481MD1999999+0071MW1021REMSYN082AAXX  14184 82198 21495 60710 10278 20240 30048 40099 70262 83360 333 58007 60061;
0168821980999992010071500004-01717-045400FM-12+004499999V0200901N002112200019N0002001N1+02581+02401101121ADDGF102991021001012501061001KA1240M+03071MA1999999100611MD1999999+0101REMSYN088AAXX  15004 82198 32692 20904 10258 20240 30061 40112 82060 333 10307 29085 55041 58010;
0173821980999992010071512004-01717-045400FM-12+004499999V0200701N005110042019N0020001N1+02931+02361101181ADDAA124006191GF106991051021004501001011KA1240N+02211MA1999999100671MD1999999-0061REMSYN082AAXX  15124 82198 22495 60710 10293 20236 30067 40118 85201 333 20221 59006 60064;
0137821980999992010071518004-01717-045400FM-12+004499999V0200701N005710042019N0020001N1+03101+02291100981ADDGF105991051021004501001001MA1999999100471MD1999999-0011REMSYN070AAXX  15184 82198 32495 50711 10310 20229 30047 40098 85200 333 59001;
0178821980999992010071600004-01717-045400FM-12+004499999V0200501N001512200019N0002001N1+02621+02411101221ADDGA1001+999999999GF100991001001999999001001KA1240M+03241MA1999999100711MD1999999+0101REMSYN082AAXX  16004 82198 32992 00503 10262 20241 30071 40122 333 10324 29078 55097 58010;
0156821980999992010071612004-01717-045400FM-12+004499999V0200701N004610042019N0020001N1+02991+02491101321ADDGF105991051021004501001001KA1240N+02261MA1999999100811MD1999999+0141REMSYN076AAXX  16124 82198 32495 50709 10299 20249 30081 40132 85200 333 20226 58014;
0182821980999992010071618004-01717-045400FM-12+004499999V0200901N005712200019N0020001N1+03041+02201101101ADDAA106000891AY151061AY221061GF104991031021004501001011MA1999999100591MD1999999+0121MW1021REMSYN082AAXX  16184 82198 21495 40911 10304 20220 30059 40110 70252 83201 333 58012 69981;
0178821980999992010071700004-01717-045400FM-12+004499999V0200701N002612200019N0002001N1+02621+02411101301ADDGA1001+999999999GF100991001001999999001001KA1240M+03151MA1999999100791MD1999999+0081REMSYN082AAXX  17004 82198 32992 00705 10262 20241 30079 40130 333 10315 29078 55094 58008;
0173821980999992010071712004-01717-045400FM-12+004499999V0200501N002610042019N0020001N1+02901+02431101451ADDAA124000891GF106991061021004501001001KA1240N+02211MA1999999100941MD1999999+0131REMSYN082AAXX  17124 82198 22495 60505 10290 20243 30094 40145 86200 333 20221 58013 69984;
0137821980999992010071718004-01717-045400FM-12+004499999V0200701N003610042019N0020001N1+03161+02321101181ADDGF105991051021004501001001MA1999999100671MD1999999+0081REMSYN070AAXX  17184 82198 32495 50707 10316 20232 30067 40118 85200 333 58008;
0178821980999992010071800004-01717-045400FM-12+004499999V0200501N002112200019N0002001N1+02641+02411101421ADDGA1001+999999999GF100991001001999999001001KA1240M+03271MA1999999100911MD1999999+0121REMSYN082AAXX  18004 82198 32992 00504 10264 20241 30091 40142 333 10327 29078 55094 58012;
0156821980999992010071812004-01717-045400FM-12+004499999V0200501N002112200019N0020001N1+02901+02501101451ADDGF104991021021004501061001KA1240N+02161MA1999999100941MD1999999+0001REMSYN076AAXX  18124 82198 32495 40504 10290 20250 30094 40145 82260 333 20216 58000;
0182821980999992010071818004-01717-045400FM-12+004499999V0201101N002110042019N0010001N1+02381+02291101281ADDAA106067191AY191061AY261061GF108991051051004501021999MA1999999100771MD1999999+0101MW1621REMSYN082AAXX  18184 82198 21494 81104 10238 20229 30077 40128 76296 8552/ 333 58010 60671;
0213821980999992010071900004-01717-045400FM-12+004499999V0203201N000512200019N0002001N1+02401+02311101421ADDAA106006191AY161061AY221061GF103991031001012501061001KA1240M+03101MA1999999100911MD1999999+0001MW1011REMSYN100AAXX  19004 82198 21692 33201 10240 20231 30091 40142 70162 83060 333 10310 29091 55050 58000 60061;
0173821980999992010071912004-01717-045400FM-12+004499999V0200701N003110042019N0020001N1+02821+02401101451ADDAA124071991GF106991061021004501001001KA1240N+02061MA1999999100941MD1999999+0001REMSYN082AAXX  19124 82198 22495 60706 10282 20240 30094 40145 86200 333 20206 58000 60724;
0182821980999992010071918004-01717-045400FM-12+004499999V0203201N001510450019N0020001N1+02811+02341101221ADDAA106006191AY191061AY261061GF105991031021004501041001MA1999999100711MD1999999-0061MW1211REMSYN082AAXX  19184 82198 21495 53203 10281 20234 30071 40122 72196 83240 333 59006 60061;
0168821980999992010072000004-01717-045400FM-12+004499999V0200501N002112200019N0002001N1+02521+02341101441ADDGF102991021021004501001001KA1240M+03241MA1999999100931MD1999999+0021REMSYN088AAXX  20004 82198 32492 20504 10252 20234 30093 40144 82200 333 10324 29084 55058 58002;
0173821980999992010072012004-01717-045400FM-12+004499999V0200501N002110042019N0020001N1+02891+02481101441ADDAA124006191GF105991051021004501001001KA1240N+02131MA1999999100931MD1999999-0011REMSYN082AAXX  20124 82198 22495 50504 10289 20248 30093 40144 85200 333 20213 59001 60064;
0182821980999992010072018004-01717-045400FM-12+004499999V0200201N001010450019N0020001N1+02401+02381101231ADDAA106022191AY191061AY261061GF107991041071004501041001MA1999999100721MD1999999+0011MW1151REMSYN082AAXX  20184 82198 21495 70202 10240 20238 30072 40123 71596 84740 333 58001 60221;
0178821980999992010072100004-01717-045400FM-12+004499999V0200701N002612200019N0002001N1+02481+02391101421ADDGA1001+999999999GF100991001001999999001001KA1240M+03141MA1999999100911MD1999999-0021REMSYN082AAXX  21004 82198 32992 00705 10248 20239 30091 40142 333 10314 29091 55046 59002;
0173821980999992010072112004-01717-045400FM-12+004499999V0200701N003110042019N0020001N1+02931+02471101381ADDAA124022191GF106991061021004501001001KA1240N+02101MA1999999100871MD1999999-0061REMSYN082AAXX  21124 82198 22495 60706 10293 20247 30087 40138 86200 333 20210 59006 60224;
0182821980999992010072118004-01717-045400FM-12+004499999V0200501N003110450019N0020001N1+03041+02361101141ADDAA106000391AY151061AY221061GF106991041031004501041001MA1999999100631MD1999999-0091MW1021REMSYN082AAXX  21184 82198 21495 60506 10304 20236 30063 40114 70252 84340 333 59009 69931;
0178821980999992010072200004-01717-045400FM-12+004499999V0200901N002112200019N0002001N1+02571+02231101391ADDGA1001+999999999GF100991001001999999001001KA1240M+03121MA1999999100881MD1999999-0031REMSYN082AAXX  22004 82198 32992 00904 10257 20223 30088 40139 333 10312 29077 55071 59003;
0173821980999992010072212004-01717-045400FM-12+004499999V0200701N003612200019N0020001N1+02951+02451101431ADDAA124000391GF103991021011004501031001KA1240N+02101MA1999999100921MD1999999+0051REMSYN082AAXX  22124 82198 22495 30707 10295 20245 30092 40143 82130 333 20210 58005 69934;
0182821980999992010072218004-01717-045400FM-12+004499999V0200201N002610450019N0020001N1+03061+02451101151ADDAA106007991AY161061AY221061GF106991041021004501041001MA1999999100641MD1999999+0011MW1151REMSYN082AAXX  22184 82198 21495 60205 10306 20245 30064 40115 71562 84240 333 58001 60081;
0178821980999992010072300004-01717-045400FM-12+004499999V0200701N002112200019N0002001N1+02591+02351101371ADDGA1001+999999999GF100991001001999999001001KA1240M+03271MA1999999100861MD1999999-0021REMSYN082AAXX  23004 82198 32992 00704 10259 20235 30086 40137 333 10327 29080 55073 59002;
0173821980999992010072312004-01717-045400FM-12+004499999V0200701N003112200019N0020001N1+02951+02491101451ADDAA124007991GF104991021011004501061011KA1240N+02201MA1999999100941MD1999999+0021REMSYN082AAXX  23124 82198 22495 40706 10295 20249 30094 40145 82161 333 20220 58002 60084;
0137821980999992010072318004-01717-045400FM-12+004499999V0201101N003110450019N0020001N1+03221+02341101131ADDGF106991041021004501041001MA1999999100621MD1999999-0021REMSYN070AAXX  23184 82198 32495 61106 10322 20234 30062 40113 84240 333 59002;
0168821980999992010072400004-01717-045400FM-12+004499999V0202901N001512200019N0002001N1+02651+02461101371ADDGF102991021001012501061001KA1240M+03331MA1999999100861MD1999999+0001REMSYN088AAXX  24004 82198 32692 22903 10265 20246 30086 40137 82060 333 10333 29079 55081 58000;
0156821980999992010072412004-01717-045400FM-12+004499999V0200701N002110042019N0020001N1+02961+02491101421ADDGF107991051021004501061001KA1240N+02081MA1999999100911MD1999999-0031REMSYN076AAXX  24124 82198 32495 70704 10296 20249 30091 40142 85260 333 20208 59003;
0182821980999992010072418004-01717-045400FM-12+004499999V0200901N001010450019N0020001N1+02641+02481101171ADDAA106000891AY151061AY221061GF106991031031004501041001MA1999999100661MD1999999+0041MW1201REMSYN082AAXX  24184 82198 21495 60902 10264 20248 30066 40117 72052 83340 333 58004 69981;
0178821980999992010072500004-01717-045400FM-12+004499999V0200901N000512200019N0002001N1+02551+02381101321ADDGA1001+999999999GF100991001001999999001001KA1240M+03151MA1999999100811MD1999999-0051REMSYN082AAXX  25004 82198 32992 00901 10255 20238 30081 40132 333 10315 29087 55058 59005;
0173821980999992010072512004-01717-045400FM-12+004499999V0200701N002612200019N0020001N1+02961+02471101341ADDAA124000891GF102991021011004501001001KA1240N+02131MA1999999100831MD1999999-0081REMSYN082AAXX  25124 82198 22495 20705 10296 20247 30083 40134 82100 333 20213 59008 69984;
0182821980999992010072518004-01717-045400FM-12+004499999V0201401N006210042019N0010001N1+02581+02331101011ADDAA106004191AY161061AY221061GF107991051051004501021001MA1999999100501MD1999999-0161MW1631REMSYN082AAXX  25184 82198 21494 71412 10258 20233 30050 40101 76362 85520 333 59016 60041;
0213821980999992010072600004-01717-045400FM-12+004499999V0200901N001512200019N0005001N1+02621+02411101321ADDAA106005191AY161061AY221061GF102991021001012501061001KA1240M+03181MA1999999100811MD1999999+0001MW1021REMSYN100AAXX  26004 82198 21693 20903 10262 20241 30081 40132 70262 82060 333 10318 29084 55072 58000 60051;
0173821980999992010072612004-01717-045400FM-12+004499999V0200701N004110450019N0020001N1+03001+02491101321ADDAA124008991GF105991031021004501031001KA1240N+02201MA1999999100811MD1999999-0021REMSYN082AAXX  26124 82198 22495 50708 10300 20249 30081 40132 83230 333 20220 59002 60094;
0182821980999992010072618004-01717-045400FM-12+004499999V0201401N001010450019N0020001N1+02831+02331101041ADDAA106013091AY161061AY221061GF106991021021004501061001MA1999999100531MD1999999+0031MW1021REMSYN082AAXX  26184 82198 21495 61402 10283 20233 30053 40104 70262 82260 333 58003 60131;
0213821980999992010072700004-01717-045400FM-12+004499999V0200201N001512200019N0002001N1+02481+02341101041ADDAA106004191AY191061AY261061GF102991021001012501061001KA1240M+03211MA1999999100531MD1999999+0031MW1131REMSYN100AAXX  27004 82198 21692 20203 10248 20234 30053 40104 71396 82060 333 10321 29083 55065 58003 60041;
0173821980999992010072712004-01717-045400FM-12+004499999V0200701N002610042019N0020001N1+02831+02501101271ADDAA124017091GF106991051021004501061001KA1240N+02161MA1999999100761MD1999999-0051REMSYN082AAXX  27124 82198 22495 60705 10283 20250 30076 40127 85260 333 20216 59005 60174;
0182821980999992010072718004-01717-045400FM-12+004499999V0202301N001510450019N0020001N1+02701+02431101061ADDAA106008991AY191061AY261061GF106991021021004501041001MA1999999100551MD1999999+0021MW1021REMSYN082AAXX  27184 82198 21495 62303 10270 20243 30055 40106 70296 82240 333 58002 60091;
0168821980999992010072800004-01717-045400FM-12+004499999V0200201N000512200019N0002001N1+02521+02381101251ADDGF103991031001012501061001KA1240M+03081MA1999999100741MD1999999+0081REMSYN088AAXX  28004 82198 32692 30201 10252 20238 30074 40125 83060 333 10308 29088 55033 58008;
0173821980999992010072812004-01717-045400FM-12+004499999V0200701N002612200019N0020001N1+02941+02401101291ADDAA124008991GF103991021011004501001011KA1240N+02141MA1999999100781MD1999999+0061REMSYN082AAXX  28124 82198 22495 30705 10294 20240 30078 40129 82101 333 20214 58006 60094;
0137821980999992010072818004-01717-045400FM-12+004499999V0203601N003110450019N0020001N1+02981+02511101061ADDGF106991041021004501061001MA1999999100551MD1999999+0001REMSYN070AAXX  28184 82198 32495 63606 10298 20251 30055 40106 84260 333 58000;
0168821980999992010072900004-01717-045400FM-12+004499999V0200701N002112200019N0002001N1+02681+02461101281ADDGF102991021001012501061001KA1240M+03251MA1999999100771MD1999999+0031REMSYN088AAXX  29004 82198 32692 20704 10268 20246 30077 40128 82060 333 10325 29081 55080 58003;
0156821980999992010072912004-01717-045400FM-12+004499999V0200501N002110042019N0020001N1+02981+02471101331ADDGF106991051021004501061001KA1240N+02281MA1999999100821MD1999999+0041REMSYN076AAXX  29124 82198 32495 60504 10298 20247 30082 40133 85260 333 20228 58004;
0182821980999992010072918004-01717-045400FM-12+004499999V0202701N001010450019N0020001N1+02721+02521100981ADDAA106007991AY161061AY221061GF107991041031004501041001MA1999999100471MD1999999-0081MW1211REMSYN082AAXX  29184 82198 21495 72702 10272 20252 30047 40098 72162 84340 333 59008 60081;
0213821980999992010073000004-01717-045400FM-12+004499999V0200901N001510450019N0002001N1+02491+02391101161ADDAA106024991AY191061AY261061GF105991031031004501061001KA1240M+03161MA1999999100641MD1999999-0131MW1021REMSYN100AAXX  30004 82198 21492 50903 10249 20239 30064 40116 70296 83360 333 10316 29088 55042 59013 60251;
0201821980999992010073012004-01717-045400FM-12+004499999V0200901N003610450019N0020001N1+02921+02431101141ADDAA124034091AY151061AY221061GF106991031011004501031001KA1240N+02181MA1999999100631MD1999999-0191MW1021REMSYN088AAXX  30124 82198 21495 60907 10292 20243 30063 40114 70252 83130 333 20218 59019 60344;
0182821980999992010073018004-01717-045400FM-12+004499999V0200501N001010450019N0020001N1+03001+02421100881ADDAA106004191AY161061AY221061GF106991041031004501041001MA1999999100371MD1999999-0101MW1021REMSYN082AAXX  30184 82198 21495 60502 10300 20242 30037 40088 70262 84340 333 59010 60041;
0213821980999992010073100004-01717-045400FM-12+004499999V0203201N001510450019N0002001N1+02501+02401101051ADDAA106003091AY161061AY221061GF105991031031004501061001KA1240M+03151MA1999999100541MD1999999-0101MW1021REMSYN100AAXX  31004 82198 21492 53203 10250 20240 30054 40105 70262 83360 333 10315 29084 55051 59010 60031;
0173821980999992010073112004-01717-045400FM-12+004499999V0200901N002112200019N0020001N1+02751+02601101091ADDAA124006191GF103991031021004501001001KA1240N+02391MA1999999100581MD1999999-0051REMSYN082AAXX  31124 82198 22495 30904 10275 20260 30058 40109 83200 333 20239 59005 60064;
0137821980999992010073118004-01717-045400FM-12+004499999V0200701N003610042019N0020001N1+03211+02361100761ADDGF105991051021004501001001MA1999999100251MD1999999-0121REMSYN070AAXX  31184 82198 32495 50707 10321 20236 30025 40076 85200 333 59012;
0178821980999992010080100004-01717-045400FM-12+004499999V0200501N002612200019N0002001N1+02601+02351101061ADDGA1001+999999999GF100991001001999999001001KA1240M+03251MA1999999100551MD1999999+0011REMSYN082AAXX  01004 82198 32992 00505 10260 20235 30055 40106 333 10325 29080 55089 58001;
0156821980999992010080112004-01717-045400FM-12+004499999V0200701N003112200019N0020001N1+02911+02431101081ADDGF103991031021004501001001KA1240N+02191MA1999999100571MD1999999-0011REMSYN076AAXX  01124 82198 32495 30706 10291 20243 30057 40108 83200 333 20219 59001;
0165821980999992010080118004-01717-045400FM-12+004499999V0200501N003610450019N0010001N1+03111+02411100861ADDAY121061AY291061GF107991041071004501061001MA1999999100351MD1999999+0101MW1151REMSYN076AAXX  01184 82198 31494 70507 10311 20241 30035 40086 71529 84760 333 58010;
0178821980999992010080200004-01717-045400FM-12+004499999V0200701N002612200019N0002001N1+02621+02311101091ADDGA1001+999999999GF100991001001999999001001KA1240M+03431MA1999999100581MD1999999+0031REMSYN082AAXX  02004 82198 32992 00705 10262 20231 30058 40109 333 10343 29077 55081 58003;
0156821980999992010080212004-01717-045400FM-12+004499999V0200701N004112200019N0020001N1+02911+02581101121ADDGF103991021011004501001011KA1240N+02271MA1999999100611MD1999999+0041REMSYN076AAXX  02124 82198 32495 30708 10291 20258 30061 40112 82101 333 20227 58004;
0201821980999992010080218004-01717-045400FM-12+004499999V0200701N003110450019N0020001N1+03121+02411100931ADDAA106000091AY151061AY221061GF106991031051004501061011MA1999999100421MD1999999+0071MW1031REMSYN082AAXX  02184 82198 21495 60706 10312 20241 30042 40093 70352 83561 333 58007 69921;EQDQ01  00002PRCP06
0178821980999992010080300004-01717-045400FM-12+004499999V0200501N002112200019N0002001N1+02631+02351101141ADDGA1001+999999999GF100991001001999999001001KA1240M+03251MA1999999100631MD1999999+0051REMSYN082AAXX  03004 82198 32992 00504 10263 20235 30063 40114 333 10325 29080 55075 58005;
0192821980999992010080312004-01717-045400FM-12+004499999V0200901N003610042019N0020001N1+02961+02471101271ADDAA124000091GF107991051021004501001021KA1240N+02221MA1999999100761MD1999999+0151REMSYN082AAXX  03124 82198 22495 70907 10296 20247 30076 40127 85202 333 20222 58015 69924;EQDQ01  00002PRCP24
0182821980999992010080318004-01717-045400FM-12+004499999V0200901N000510450019N0020001N1+03131+02461100961ADDAA106001091AY161061AY221061GF106991041021004501061001MA1999999100451MD1999999+0031MW1021REMSYN082AAXX  03184 82198 21495 60901 10313 20246 30045 40096 70262 84260 333 58003 60011;
0213821980999992010080400004-01717-045400FM-12+004499999V0200701N002112200019N0002001N1+02561+02441101191ADDAA106005191AY161061AY221061GF102991021001012501061001KA1240M+03261MA1999999100681MD1999999+0051MW1011REMSYN100AAXX  04004 82198 21692 20704 10256 20244 30068 40119 70162 82060 333 10326 29082 55071 58005 60051;
0173821980999992010080412004-01717-045400FM-12+004499999V0200701N003110450019N0020001N1+02871+02501101251ADDAA124006191GF107991031021004501061001KA1240N+02261MA1999999100741MD1999999-0021REMSYN082AAXX  04124 82198 22495 70706 10287 20250 30074 40125 83260 333 20226 59002 60064;
0182821980999992010080418004-01717-045400FM-12+004499999V0202301N002110042019N0010001N1+02471+02301101021ADDAA106018091AY161061AY221061GF108991051051004501021999MA1999999100511MD1999999+0061MW1631REMSYN082AAXX  04184 82198 21494 82304 10247 20230 30051 40102 76362 8552/ 333 58006 60181;
0213821980999992010080500004-01717-045400FM-12+004499999V0203201N001510450019N0002001N1+02401+02311101251ADDAA106027991AY191061AY261061GF105991021051004501041001KA1240M+03271MA1999999100741MD1999999+0061MW1021REMSYN100AAXX  05004 82198 21492 53203 10240 20231 30074 40125 70296 82540 333 10327 29090 55012 58006 60281;
0173821980999992010080512004-01717-045400FM-12+004499999V0200501N002112200019N0020001N1+02941+02491101291ADDAA124046091GF102991021011004501001001KA1240N+02071MA1999999100781MD1999999+0041REMSYN082AAXX  05124 82198 22495 20504 10294 20249 30078 40129 82100 333 20207 58004 60464;
0201821980999992010080518004-01717-045400FM-12+004499999V0200701N002110450019N0020001N1+02781+02441101021ADDAA106000091AY121061AY221061GF107991041051004501041001MA1999999100511MD1999999+0001MW1051REMSYN082AAXX  05184 82198 21495 70704 10278 20244 30051 40102 70522 84540 333 58000 69911;EQDQ01  00002PRCP06
0178821980999992010080600004-01717-045400FM-12+004499999V0200701N002112200019N0002001N1+02511+02381101261ADDGA1001+999999999GF100991001001999999001001KA1240M+03321MA1999999100751MD1999999+0011REMSYN082AAXX  06004 82198 32992 00704 10251 20238 30075 40126 333 10332 29086 55068 58001;
0192821980999992010080612004-01717-045400FM-12+004499999V0200701N003610450019N0020001N1+02971+02491101271ADDAA124000091GF107991031021004501031001KA1240N+02101MA1999999100761MD1999999-0021REMSYN082AAXX  06124 82198 22495 70707 10297 20249 30076 40127 83230 333 20210 59002 69914;EQDQ01  00002PRCP24
0137821980999992010080618004-01717-045400FM-12+004499999V0200501N002110042019N0020001N1+03151+02371101041ADDGF106991061021004501001001MA1999999100531MD1999999+0021REMSYN070AAXX  06184 82198 32495 60504 10315 20237 30053 40104 86200 333 58002;
0178821980999992010080700004-01717-045400FM-12+004499999V0200701N001512200019N0002001N1+02621+02391101281ADDGA1001+999999999GF100991001001999999001001KA1240M+03301MA1999999100771MD1999999+0021REMSYN082AAXX  07004 82198 32992 00703 10262 20239 30077 40128 333 10330 29078 55080 58002;
0156821980999992010080712004-01717-045400FM-12+004499999V0200701N003610450019N0020001N1+02801+02361101391ADDGF107991031011004501061001KA1240N+02211MA1999999100881MD1999999+0121REMSYN076AAXX  07124 82198 32495 70707 10280 20236 30088 40139 83160 333 20221 58012;
0137821980999992010080718004-01717-045400FM-12+004499999V0200901N004610450019N0020001N1+03091+02271101131ADDGF107991041031004501041001MA1999999100621MD1999999+0091REMSYN070AAXX  07184 82198 32495 70909 10309 20227 30062 40113 84340 333 58009;
0178821980999992010080800004-01717-045400FM-12+004499999V0200501N002112200019N0002001N1+02601+02351101361ADDGA1001+999999999GF100991001001999999001001KA1240M+03281MA1999999100851MD1999999+0081REMSYN082AAXX  08004 82198 32992 00504 10260 20235 30085 40136 333 10328 29078 55039 58008;
0156821980999992010080812004-01717-045400FM-12+004499999V0200701N003610042019N0020001N1+02901+02431101441ADDGF106991061021004501001001KA1240N+02161MA1999999100931MD1999999+0051REMSYN076AAXX  08124 82198 32495 60707 10290 20243 30093 40144 86200 333 20216 58005;
0137821980999992010080818004-01717-045400FM-12+004499999V0200901N007210450019N0020001N1+02991+02231101161ADDGF105991041021004501061001MA1999999100651MD1999999+0031REMSYN070AAXX  08184 82198 32495 50914 10299 20223 30065 40116 84260 333 58003;
0178821980999992010080900004-01717-045400FM-12+004499999V0200901N002112200019N0002001N1+02581+02371101371ADDGA1001+999999999GF100991001001999999001001KA1240M+03231MA1999999100861MD1999999+0011REMSYN082AAXX  09004 82198 32992 00904 10258 20237 30086 40137 333 10323 29079 55092 58001;
0156821980999992010080912004-01717-045400FM-12+004499999V0200901N004610042019N0020001N1+02891+02351101391ADDGF105991051021004501001001KA1240N+02161MA1999999100881MD1999999-0051REMSYN076AAXX  09124 82198 32495 50909 10289 20235 30088 40139 85200 333 20216 59005;
0137821980999992010080918004-01717-045400FM-12+004499999V0200901N005712200019N0020001N1+03051+02251101131ADDGF103991031021004501001001MA1999999100621MD1999999-0031REMSYN070AAXX  09184 82198 32495 30911 10305 20225 30062 40113 83200 333 59003;
0178821980999992010081000004-01717-045400FM-12+004499999V0200501N002112200019N0002001N1+02611+02331101341ADDGA1001+999999999GF100991001001999999001001KA1240M+03221MA1999999100831MD1999999-0031REMSYN082AAXX  10004 82198 32992 00504 10261 20233 30083 40134 333 10322 29076 55085 59003;
0156821980999992010081012004-01717-045400FM-12+004499999V0200701N004610042019N0020001N1+02861+02421101401ADDGF106991061021004501001001KA1240N+02251MA1999999100891MD1999999+0011REMSYN076AAXX  10124 82198 32495 60709 10286 20242 30089 40140 86200 333 20225 58001;
0137821980999992010081018004-01717-045400FM-12+004499999V0200701N003610450019N0020001N1+03121+02251101131ADDGF106991031021004501061001MA1999999100621MD1999999+0001REMSYN070AAXX  10184 82198 32495 60707 10312 20225 30062 40113 83260 333 58000;
0178821980999992010081100004-01717-045400FM-12+004499999V0200501N002612200019N0002001N1+02651+02331101401ADDGA1001+999999999GF100991001001999999001001KA1240M+03341MA1999999100891MD1999999+0061REMSYN082AAXX  11004 82198 32992 00505 10265 20233 30089 40140 333 10334 29077 55089 58006;
0156821980999992010081112004-01717-045400FM-12+004499999V0200901N003610450019N0010001N1+02861+02391101501ADDGF107991041021004501031011KA1240N+02361MA1999999100981MD1999999+0091REMSYN076AAXX  11124 82198 32494 70907 10286 20239 30098 40150 84231 333 20236 58009;
0182821980999992010081118004-01717-045400FM-12+004499999V0200901N005712200019N0020001N1+03131+02121101211ADDAA106000891AY161061AY221061GF104991031011004501001011MA1999999100701MD1999999+0081MW1041REMSYN082AAXX  11184 82198 21495 40911 10313 20212 30070 40121 70462 83101 333 58008 69971;
0178821980999992010081200004-01717-045400FM-12+004499999V0200701N001512200019N0002001N1+02551+02271101361ADDGA1001+999999999GF100991001001999999001001KA1240M+03181MA1999999100851MD1999999-0041REMSYN082AAXX  12004 82198 32992 00703 10255 20227 30085 40136 333 10318 29074 55089 59004;
0173821980999992010081212004-01717-045400FM-12+004499999V0200901N006210450019N0020001N1+02831+02271101441ADDAA124000891GF106991031021004501061001KA1240N+02221MA1999999100941MD1999999-0061REMSYN082AAXX  12124 82198 22495 60912 10283 20227 30094 40144 83260 333 20222 59006 69974;
0182821980999992010081218004-01717-045400FM-12+004499999V0200901N005710042019N0020001N1+03061+02191101161ADDAA106000591AY161061AY221061GF106991061021004501001001MA1999999100651MD1999999-0051MW1021REMSYN082AAXX  12184 82198 21495 60911 10306 20219 30065 40116 70262 86200 333 59005 69961;
0178821980999992010081300004-01717-045400FM-12+004499999V0200701N003112200019N0002001N1+02571+02291101391ADDGA1001+999999999GF100991001001999999001001KA1240M+03181MA1999999100871MD1999999+0021REMSYN082AAXX  13004 82198 32992 00706 10257 20229 30087 40139 333 10318 29075 55092 58002;
0173821980999992010081312004-01717-045400FM-12+004499999V0200701N002110450019N0020001N1+02871+02311101441ADDAA124000591GF106991041021004501061001KA1240N+02231MA1999999100931MD1999999+0011REMSYN082AAXX  13124 82198 22495 60704 10287 20231 30093 40144 84260 333 20223 58001 69964;
0182821980999992010081318004-01717-045400FM-12+004499999V0201601N001010042019N0010001N1+02681+02351101271ADDAA106000891AY161061AY221061GF108991051051004501061001MA1999999100761MD1999999+0111MW1031REMSYN082AAXX  13184 82198 21494 81602 10268 20235 30076 40127 70362 85560 333 58011 69971;
0178821980999992010081400004-01717-045400FM-12+004499999V0203201N001012200019N0002001N1+02391+02301101351ADDGA1001+999999999GF100991001001999999001001KA1240M+03181MA1999999100831MD1999999-0041REMSYN082AAXX  14004 82198 32992 03202 10239 20230 30083 40135 333 10318 29086 55048 59004;
0173821980999992010081412004-01717-045400FM-12+004499999V0200501N003610450019N0020001N1+02841+02441101351ADDAA124000891GF107991041021004501061001KA1240N+02141MA1999999100831MD1999999-0101REMSYN082AAXX  14124 82198 22495 70507 10284 20244 30083 40135 84260 333 20214 59010 69974;
0182821980999992010081418004-01717-045400FM-12+004499999V0200201N002610450019N0010001N1+02991+02511101081ADDAA106000591AY161061AY221061GF107991041071004501061001MA1999999100571MD1999999-0191MW1021REMSYN082AAXX  14184 82198 21494 70205 10299 20251 30057 40108 70262 84760 333 59019 69961;
0168821980999992010081500004-01717-045400FM-12+004499999V0200701N002612200019N0002001N1+02611+02331101301ADDGF103991031021004501001001KA1240M+03251MA1999999100791MD1999999-0041REMSYN088AAXX  15004 82198 32492 30705 10261 20233 30079 40130 83200 333 10325 29081 55063 59004;
0173821980999992010081512004-01717-045400FM-12+004499999V0200901N002610450019N0010001N1+02901+02411101341ADDAA124000591GF106991041021004501031001KA1240N+02331MA1999999100801MD1999999+0001REMSYN082AAXX  15124 82198 22494 60905 10290 20241 30080 40134 84230 333 20233 58000 69964;
0137821980999992010081518004-01717-045400FM-12+004499999V0200201N004110042019N0020001N1+03131+02231101121ADDGF106991061021004501001001MA1999999100611MD1999999+0041REMSYN070AAXX  15184 82198 32495 60208 10313 20223 30061 40112 86200 333 58004;
0178821980999992010081600004-01717-045400FM-12+004499999V0200501N002612200019N0002001N1+02631+02351101331ADDGA1001+999999999GF100991001001999999001001KA1240M+03371MA1999999100821MD1999999+0031REMSYN082AAXX  16004 82198 32992 00505 10263 20235 30082 40133 333 10337 29077 55092 58003;
0156821980999992010081612004-01717-045400FM-12+004499999V0200501N003110450019N0020001N1+02901+02411101431ADDGF106991041021004501061001KA1240N+02371MA1999999100911MD1999999+0081REMSYN076AAXX  16124 82198 32495 60506 10290 20241 30091 40143 84260 333 20237 58008;
0137821980999992010081618004-01717-045400FM-12+004499999V0203601N004110450019N0020001N1+03081+02271101101ADDGF107991041071004501061001MA1999999100591MD1999999-0021REMSYN070AAXX  16184 82198 32495 73608 10308 20227 30059 40110 84760 333 59002;
0223821980999992010081700004-01717-045400FM-12+004499999V0200701N002112200019N0002001N1+02611+02371101361ADDAA106000591AY161061AY201061GA1001+999999999GF100991001001999999001001KA1240M+03221MA1999999100851MD1999999+0031MW1001REMSYN094AAXX  17004 82198 21992 00704 10261 20237 30085 40136 70060 333 10322 29078 55079 58003 69941;
0173821980999992010081712004-01717-045400FM-12+004499999V0200701N003610042019N0020001N1+02951+02451101471ADDAA124000591GF106991061021004501001001KA1240N+02291MA1999999100961MD1999999+0051REMSYN082AAXX  17124 82198 22495 60707 10295 20245 30096 40147 86200 333 20229 58005 69944;
0182821980999992010081718004-01717-045400FM-12+004499999V0200701N004112200019N0020001N1+03051+02281101141ADDAA106000021AY121061AY211061GF104991041021004501001001MA1999999100631MD1999999+0041MW1201REMSYN082AAXX  17184 82198 21495 40708 10305 20228 30063 40114 72021 84200 333 58004 69911;
0178821980999992010081800004-01717-045400FM-12+004499999V0200701N002112200019N0002001N1+02621+02371101341ADDGA1001+999999999GF100991001001999999001001KA1240M+03171MA1999999100831MD1999999-0021REMSYN082AAXX  18004 82198 32992 00704 10262 20237 30083 40134 333 10317 29078 55074 59002;
0173821980999992010081812004-01717-045400FM-12+004499999V0200901N003110042019N0020001N1+02901+02391101461ADDAA124000021GF107991051021004501061001KA1240N+02341MA1999999100951MD1999999-0011REMSYN082AAXX  18124 82198 22495 70906 10290 20239 30095 40146 85260 333 20234 59001 69914;
0182821980999992010081818004-01717-045400FM-12+004499999V0201601N005110450019N0010001N1+02691+02061101071ADDAA106001091AY151061AY221061GF107991041051004501021001MA1999999100561MD1999999-0071MW1621REMSYN082AAXX  18184 82198 21494 71610 10269 20206 30056 40107 76252 84520 333 59007 60011;
0213821980999992010081900004-01717-045400FM-12+004499999V0200701N002112200019N0002001N1+02581+02371101241ADDAA106001091AY161061AY221061GF103991031001012501061001KA1240M+03171MA1999999100731MD1999999-0101MW1011REMSYN100AAXX  19004 82198 21692 30704 10258 20237 30073 40124 70162 83060 333 10317 29080 55074 59010 60011;
0173821980999992010081912004-01717-045400FM-12+004499999V0200901N004110042019N0020001N1+02861+02421101391ADDAA124002091GF105991051021004501001001KA1240N+02261MA1999999100781MD1999999-0171REMSYN082AAXX  19124 82198 22495 50908 10286 20242 30078 40139 85200 333 20226 59017 60024;
0182821980999992010081918004-01717-045400FM-12+004499999V0200901N004110450019N0020001N1+02751+02191101061ADDAA106000891AY151061AY221061GF108991041031004501041999MA1999999100551MD1999999-0011MW1151REMSYN082AAXX  19184 82198 21495 80908 10275 20219 30055 40106 71552 8434/ 333 59001 69981;
0178821980999992010082000004-01717-045400FM-12+004499999V0200501N002112200019N0002001N1+02541+02351101241ADDGA1001+999999999GF100991001001999999001001KA1240M+03101MA1999999100731MD1999999+0001REMSYN082AAXX  20004 82198 32992 00504 10254 20235 30073 40124 333 10310 29082 55048 58000;
0173821980999992010082012004-01717-045400FM-12+004499999V0200901N003612200019N0002001N1+02881+02391101341ADDAA124000891GF102991021011004501001001KA1240N+02271MA1999999100831MD1999999+0051REMSYN082AAXX  20124 82198 22492 20907 10288 20239 30083 40134 82100 333 20227 58005 69984;
0137821980999992010082018004-01717-045400FM-12+004499999V0200201N002612200019N0020001N1+03141+02401100981ADDGF104991041021004501001001MA1999999100471MD1999999-0081REMSYN070AAXX  20184 82198 32495 40205 10314 20240 30047 40098 84200 333 59008;
0178821980999992010082100004-01717-045400FM-12+004499999V0200701N002112200019N0002001N1+02601+02361101311ADDGA1001+999999999GF100991001001999999001001KA1240M+03361MA1999999100801MD1999999+0071REMSYN082AAXX  21004 82198 32992 00704 10260 20236 30080 40131 333 10336 29078 55081 58007;
0156821980999992010082112004-01717-045400FM-12+004499999V0201101N003112200019N0020001N1+02881+02321101421ADDGF102991021011004501001001KA1240N+02261MA1999999100911MD1999999+0081REMSYN076AAXX  21124 82198 32495 21106 10288 20232 30091 40142 82100 333 20226 58008;
0137821980999992010082118004-01717-045400FM-12+004499999V0200701N003612200019N0020001N1+03201+02351101131ADDGF104991041021004501001001MA1999999100621MD1999999+0151REMSYN070AAXX  21184 82198 32495 40707 10320 20235 30062 40113 84200 333 58015;
0178821980999992010082200004-01717-045400FM-12+004499999V0200901N002112200019N0002001N1+02601+02311101411ADDGA1001+999999999GF100991001001999999001001KA1240M+03341MA1999999100901MD1999999+0101REMSYN082AAXX  22004 82198 32992 00904 10260 20231 30090 40141 333 10334 29075 55079 58010;
0156821980999992010082212004-01717-045400FM-12+004499999V0200701N003610042019N0020001N1+02961+02451101481ADDGF105991051021004501001001KA1240N+02311MA1999999100971MD1999999+0061REMSYN076AAXX  22124 82198 32495 50707 10296 20245 30097 40148 85200 333 20231 58006;
0137821980999992010082218004-01717-045400FM-12+004499999V0200701N004112200019N0020001N1+03241+02421101151ADDGF104991041021004501001001MA1999999100641MD1999999+0021REMSYN070AAXX  22184 82198 32495 40708 10324 20242 30064 40115 84200 333 58002;
0168821980999992010082300004-01717-045400FM-12+004499999V0200701N002112200019N0002001N1+02621+02351101371ADDGF102991021001012501061001KA1240M+03381MA1999999100861MD1999999-0041REMSYN088AAXX  23004 82198 32692 20704 10262 20235 30086 40137 82060 333 10338 29075 55092 59004;
0156821980999992010082312004-01717-045400FM-12+004499999V0200701N004110450019N0020001N1+02871+02291101371ADDGF107991041051004501061001KA1240N+02401MA1999999100861MD1999999-0111REMSYN076AAXX  23124 82198 32495 70708 10287 20229 30086 40137 84560 333 20240 59011;
0137821980999992010082318004-01717-045400FM-12+004499999V0200901N006210450019N0020001N1+02921+02271101021ADDGF106991031051004501031011MA1999999100511MD1999999-0101REMSYN070AAXX  23184 82198 32495 60912 10292 20227 30051 40102 83531 333 59010;
0168821980999992010082400004-01717-045400FM-12+004499999V0200701N001512200019N0002001N1+02601+02371101251ADDGF103991031001017501011001KA1240M+03261MA1999999100741MD1999999-0121REMSYN088AAXX  24004 82198 32792 30703 10260 20237 30074 40125 83010 333 10326 29079 55060 59012;
0156821980999992010082412004-01717-045400FM-12+004499999V0200901N005110450019N0020001N1+02941+02331101211ADDGF106991041021004501061001KA1240N+02361MA1999999100701MD1999999-0161REMSYN076AAXX  24124 82198 32495 60910 10294 20233 30070 40121 84260 333 20236 59016;
0137821980999992010082418004-01717-045400FM-12+004499999V0200901N005710042019N0020001N1+03161+02291100951ADDGF105991051021004501001001MA1999999100441MD1999999-0101REMSYN070AAXX  24184 82198 32495 50911 10316 20229 30044 40095 85200 333 59010;
0178821980999992010082500004-01717-045400FM-12+004499999V0200701N002612200019N0002001N1+02611+02291101151ADDGA1001+999999999GF100991001001999999001001KA1240M+03371MA1999999100641MD1999999-0101REMSYN082AAXX  25004 82198 32992 00705 10261 20229 30064 40115 333 10337 29074 55098 59010;
0156821980999992010082512004-01717-045400FM-12+004499999V0200701N005110450019N0020001N1+02911+02321101311ADDGF106991041021004501061001KA1240N+02351MA1999999100801MD1999999+0101REMSYN076AAXX  25124 82198 32495 60710 10291 20232 30080 40131 84260 333 20235 58010;
0137821980999992010082518004-01717-045400FM-12+004499999V0200901N006210042019N0020001N1+03201+02211101061ADDGF105991051021004501001001MA1999999100551MD1999999+0111REMSYN070AAXX  25184 82198 32495 50912 10320 20221 30055 40106 85200 333 58011;
0178821980999992010082600004-01717-045400FM-12+004499999V0200701N002612200019N0002001N1+02641+02371101211ADDGA1001+999999999GF100991001001999999001001KA1240M+03291MA1999999100701MD1999999+0061REMSYN082AAXX  26004 82198 32992 00705 10264 20237 30070 40121 333 10329 29074 55096 58006;
0156821980999992010082612004-01717-045400FM-12+004499999V0200701N004110450019N0020001N1+02891+02291101301ADDGF106991041021004501061001KA1240N+02421MA1999999100791MD1999999-0011REMSYN076AAXX  26124 82198 32495 60708 10289 20229 30079 40130 84260 333 20242 59001;
0182821980999992010082618004-01717-045400FM-12+004499999V0200701N004612200019N0020001N1+03141+02381101081ADDAA106000891AY161061AY221061GF105991031021004501001011MA1999999100571MD1999999+0021MW1011REMSYN082AAXX  26184 82198 21495 50709 10314 20238 30057 40108 70162 83201 333 58002 69981;
0168821980999992010082700004-01717-045400FM-12+004499999V0200501N003112200019N0002001N1+02621+02351101221ADDGF103991021011004501031001KA1240M+03201MA1999999100711MD1999999+0011REMSYN088AAXX  27004 82198 32492 30506 10262 20235 30071 40122 82130 333 10320 29077 55084 58001;
0173821980999992010082712004-01717-045400FM-12+004499999V0200701N004610450019N0010001N1+02951+02461101221ADDAA124000891GF106991031021004501061001KA1240N+02351MA1999999100711MD1999999-0081REMSYN082AAXX  27124 82198 22494 60709 10295 20246 30071 40122 83260 333 20235 59008 69984;
0182821980999992010082718004-01717-045400FM-12+004499999V0200701N005710042019N0020001N1+03081+02131100971ADDAA106001091AY161061AY221061GF105991051021004501001001MA1999999100461MD1999999-0111MW1011REMSYN082AAXX  27184 82198 21495 50711 10308 20213 30046 40097 70162 85200 333 59011 69991;
0168821980999992010082800004-01717-045400FM-12+004499999V0200501N004112200019N0002001N1+02641+02271101111ADDGF102991021001017501011001KA1240M+03221MA1999999100601MD1999999-0111REMSYN088AAXX  28004 82198 32792 20508 10264 20227 30060 40111 82010 333 10322 29072 55077 59011;
0173821980999992010082812004-01717-045400FM-12+004499999V0200701N005710450019N0010001N1+02891+02271101251ADDAA124001091GF106991041051004501061001KA1240N+02441MA1999999100741MD1999999+0031REMSYN082AAXX  28124 82198 22494 60711 10289 20227 30074 40125 84560 333 20244 58003 69994;
0137821980999992010082818004-01717-045400FM-12+004499999V0200701N005110450019N0020001N1+03201+02331100961ADDGF106991041021004501061001MA1999999100451MD1999999-0011REMSYN070AAXX  28184 82198 32495 60710 10320 20233 30045 40096 84260 333 59001;
0178821980999992010082900004-01717-045400FM-12+004499999V0200701N003112200019N0002001N1+02611+02331101111ADDGA1001+999999999GF100991001001999999001001KA1240M+03281MA1999999100601MD1999999+0001REMSYN082AAXX  29004 82198 32992 00706 10261 20233 30060 40111 333 10328 29076 55073 58000;
0156821980999992010082912004-01717-045400FM-12+004499999V0200701N004610042019N0020001N1+02951+02341101271ADDGF106991061021004501001001KA1240N+02401MA1999999100761MD1999999+0021REMSYN076AAXX  29124 82198 32495 60709 10295 20234 30076 40127 86200 333 20240 58002;
0137821980999992010082918004-01717-045400FM-12+004499999V0200501N003612200019N0020001N1+03201+02331101081ADDGF105991031021004501001011MA1999999100571MD1999999+0121REMSYN070AAXX  29184 82198 32495 50507 10320 20233 30057 40108 83201 333 58012;
0178821980999992010083000004-01717-045400FM-12+004499999V0200701N003112200019N0002001N1+02631+02291101221ADDGA1001+999999999GF100991001001999999001001KA1240M+03201MA1999999100711MD1999999+0111REMSYN082AAXX  30004 82198 32992 00706 10263 20229 30071 40122 333 10320 29074 55094 58011;
0156821980999992010083012004-01717-045400FM-12+004499999V0200701N004610450019N0010001N1+02891+02181101311ADDGF107991041051004501061001KA1240N+02391MA1999999100801MD1999999+0041REMSYN076AAXX  30124 82198 32494 70709 10289 20218 30080 40131 84560 333 20239 58004;
0182821980999992010083018004-01717-045400FM-12+004499999V0200901N006210042019N0020001N1+03141+02321101001ADDAA106002091AY161061AY221061GF105991051021004501001001MA1999999100491MD1999999-0081MW1031REMSYN082AAXX  30184 82198 21495 50912 10314 20232 30049 40100 70362 85200 333 59008 60021;
0178821980999992010083100004-01717-045400FM-12+004499999V0200701N002612200019N0002001N1+02611+02351101101ADDGA1001+999999999GF100991001001999999001001KA1240M+03201MA1999999100591MD1999999-0121REMSYN082AAXX  31004 82198 32992 00705 10261 20235 30059 40110 333 10320 29076 55082 59012;
0173821980999992010083112004-01717-045400FM-12+004499999V0200701N005110450019N0020001N1+02891+02271101171ADDAA124002091GF107991041051004501061001KA1240N+02381MA1999999100661MD1999999-0141REMSYN082AAXX  31124 82198 22495 70710 10289 20227 30066 40117 84560 333 20238 59014 60024;
0137821980999992010083118004-01717-045400FM-12+004499999V0200901N005712200019N0020001N1+03151+02151100991ADDGF102991021011004501001001MA1999999100481MD1999999-0011REMSYN070AAXX  31184 82198 32495 20911 10315 20215 30048 40099 82100 333 59001;
0178821980999992010090100004-01717-045400FM-12+004499999V0200701N003112200019N0002001N1+02591+02291101111ADDGA1001+999999999GF100991001001999999001001KA1240M+03211MA1999999100601MD1999999+0011REMSYN082AAXX  01004 82198 32992 00706 10259 20229 30060 40111 333 10321 29073 55096 58001;
0175821980999992010090112004-01717-045400FM-12+004499999V0200701N004610042019N0020001N1+02901+02321101181ADDGF106991999021004501001001KA1240N+02341MA1999999100671MD1999999+0011REMSYN076AAXX  01124 82198 32495 60709 10290 20232 30067 40118 85200 333 20234 58001;EQDQ01+000052SCOTLC
0137821980999992010090118004-01717-045400FM-12+004499999V0201401N004610450019N0020001N1+03151+02331100981ADDGF106991041021004501061001MA1999999100471MD1999999-0011REMSYN070AAXX  01184 82198 32495 61409 10315 20233 30047 40098 84260 333 59001;
0178821980999992010090200004-01717-045400FM-12+004499999V0200501N002612200019N0002001N1+02621+02351101251ADDGA1001+999999999GF100991001001999999001001KA1240M+03341MA1999999100741MD1999999+0141REMSYN082AAXX  02004 82198 32992 00505 10262 20235 30074 40125 333 10334 29076 55087 58014;
0156821980999992010090212004-01717-045400FM-12+004499999V0200901N003610042019N0020001N1+02921+02341101411ADDGF106991061021004501001001KA1240N+02331MA1999999100891MD1999999+0221REMSYN076AAXX  02124 82198 32495 60907 10292 20234 30089 40141 86200 333 20233 58022;
0182821980999992010090218004-01717-045400FM-12+004499999V0200901N003110450019N0020001N1+02861+02311101151ADDAA106016091AY161061AY221061GF106991031021004501031011MA1999999100641MD1999999+0071MW1021REMSYN082AAXX  02184 82198 21495 60906 10286 20231 30064 40115 70262 83231 333 58007 60161;
0178821980999992010090300004-01717-045400FM-12+004499999V0200501N001512200019N0002001N1+02541+02401101331ADDGA1001+999999999GF100991001001999999001001KA1240M+03291MA1999999100821MD1999999+0081REMSYN082AAXX  03004 82198 32992 00503 10254 20240 30082 40133 333 10329 29082 55076 58008;
0173821980999992010090312004-01717-045400FM-12+004499999V0200901N004612200019N0020001N1+02901+02341101391ADDAA124016091GF103991031011004501001001KA1240N+02311MA1999999100881MD1999999-0011REMSYN082AAXX  03124 82198 22495 30909 10290 20234 30088 40139 83100 333 20231 59001 60164;
0137821980999992010090318004-01717-045400FM-12+004499999V0200701N004110042019N0020001N1+03111+02261101111ADDGF106991061021004501001001MA1999999100601MD1999999-0041REMSYN070AAXX  03184 82198 32495 60708 10311 20226 30060 40111 86200 333 59004;
0178821980999992010090400004-01717-045400FM-12+004499999V0200501N002112200019N0002001N1+02571+02211101341ADDGA1001+999999999GF100991001001999999001001KA1240M+03221MA1999999100831MD1999999+0011REMSYN082AAXX  04004 82198 32992 00504 10257 20221 30083 40134 333 10322 29073 55081 58001;
0156821980999992010090412004-01717-045400FM-12+004499999V0200701N004112200019N0020001N1+02891+02291101351ADDGF103991011011004501001011KA1240N+02321MA1999999100841MD1999999-0041REMSYN076AAXX  04124 82198 32495 30708 10289 20229 30084 40135 81101 333 20232 59004;
0137821980999992010090418004-01717-045400FM-12+004499999V0200901N004110042019N0020001N1+03231+02301101081ADDGF105991051021004501001001MA1999999100571MD1999999-0031REMSYN070AAXX  04184 82198 32495 50908 10323 20230 30057 40108 85200 333 59003;
0178821980999992010090500004-01717-045400FM-12+004499999V0200701N003112200019N0002001N1+02621+02311101341ADDGA1001+999999999GF100991001001999999001001KA1240M+03411MA1999999100831MD1999999+0001REMSYN082AAXX  05004 82198 32992 00706 10262 20231 30083 40134 333 10341 29075 55098 58000;
0156821980999992010090512004-01717-045400FM-12+004499999V0200701N004110450019N0020001N1+02871+02341101371ADDGF106991041021004501061001KA1240N+02351MA1999999100861MD1999999+0021REMSYN076AAXX  05124 82198 32495 60708 10287 20234 30086 40137 84260 333 20235 58002;
0137821980999992010090518004-01717-045400FM-12+004499999V0200701N005710450019N0020001N1+03241+02391101101ADDGF107991041021004501061041MA1999999100591MD1999999-0021REMSYN070AAXX  05184 82198 32495 70711 10324 20239 30059 40110 84264 333 59002;
0178821980999992010090600004-01717-045400FM-12+004499999V0200701N002612200019N0002001N1+02621+02351101341ADDGA1001+999999999GF100991001001999999001001KA1240M+03391MA1999999100831MD1999999+0001REMSYN082AAXX  06004 82198 32992 00705 10262 20235 30083 40134 333 10339 29077 55094 58000;
0156821980999992010090612004-01717-045400FM-12+004499999V0200501N003110450019N0020001N1+02871+02341101391ADDGF107991041021004501061001KA1240N+02391MA1999999100881MD1999999+0021REMSYN076AAXX  06124 82198 32495 70506 10287 20234 30088 40139 84260 333 20239 58002;
0137821980999992010090618004-01717-045400FM-12+004499999V0200901N004110042019N0020001N1+03281+02341101101ADDGF106991061021004501001001MA1999999100591MD1999999+0001REMSYN070AAXX  06184 82198 32495 60908 10328 20234 30059 40110 86200 333 58000;
0178821980999992010090700004-01717-045400FM-12+004499999V0200701N003112200019N0002001N1+02631+02351101291ADDGA1001+999999999GF100991001001999999001001KA1240M+03361MA1999999100781MD1999999-0051REMSYN082AAXX  07004 82198 32992 00706 10263 20235 30078 40129 333 10336 29076 55092 59005;
0156821980999992010090712004-01717-045400FM-12+004499999V0200901N006710450019N0020001N1+02971+02391101451ADDGF106991041021004501061001KA1240N+02421MA1999999100931MD1999999+0051REMSYN076AAXX  07124 82198 32495 60913 10297 20239 30093 40145 84260 333 20242 58005;
0165821980999992010090718004-01717-045400FM-12+004499999V0200701N004610450019N0010001N1+03041+02231101091ADDAY141061AY221061GF106991031021004501041061MA1999999100581MD1999999-0011MW1021REMSYN076AAXX  07184 82198 31494 60709 10304 20223 30058 40109 70242 83246 333 59001;
0178821980999992010090800004-01717-045400FM-12+004499999V0200701N002112200019N0002001N1+02571+02271101261ADDGA1001+999999999GF100991001001999999001001KA1240M+03181MA1999999100751MD1999999-0031REMSYN082AAXX  08004 82198 32992 00704 10257 20227 30075 40126 333 10318 29074 55081 59003;
0156821980999992010090812004-01717-045400FM-12+004499999V0200901N004610450019N0020001N1+02851+02271101361ADDGF106991041021004501061001KA1240N+02331MA1999999100851MD1999999-0081REMSYN076AAXX  08124 82198 32495 60909 10285 20227 30085 40136 84260 333 20233 59008;
0137821980999992010090818004-01717-045400FM-12+004499999V0200901N005712200019N0020001N1+03161+02201101021ADDGF104991031021004501001011MA1999999100511MD1999999-0071REMSYN070AAXX  08184 82198 32495 40911 10316 20220 30051 40102 83201 333 59007;
0178821980999992010090900004-01717-045400FM-12+004499999V0200701N002112200019N0002001N1+02611+02291101151ADDGA1001+999999999GF100991001001999999001001KA1240M+03311MA1999999100641MD1999999-0111REMSYN082AAXX  09004 82198 32992 00704 10261 20229 30064 40115 333 10331 29074 55100 59011;
0184821980999992010090912004-01717-045400FM-12+004499999V0200701N004610450019N0010001N1+02921+02361101291ADDAY141061AY221061GF106991031021004501061001KA1240N+02301MA1999999100781MD1999999-0071MW1031REMSYN082AAXX  09124 82198 31494 60709 10292 20236 30078 40129 70342 83260 333 20230 59007;
0165821980999992010090918004-01717-045400FM-12+004499999V0200901N006712200019N0020001N1+03201+02211101061ADDAY141061AY221061GF105991031021004501001011MA1999999100551MD1999999+0041MW1031REMSYN076AAXX  09184 82198 31495 50913 10320 20221 30055 40106 70342 83201 333 58004;
0178821980999992010091000004-01717-045400FM-12+004499999V0200701N002612200019N0002001N1+02591+02271101231ADDGA1001+999999999GF100991001001999999001001KA1240M+03281MA1999999100721MD1999999+0081REMSYN082AAXX  10004 82198 32992 00705 10259 20227 30072 40123 333 10328 29073 55102 58008;
0175821980999992010091012004-01717-045400FM-12+004499999V0200701N004119999999N0020001N1+02931+02301101311ADDGF106991999031004501041021KA1240N+02351MA1999999100801MD1999999+0021REMSYN076AAXX  10124 82198 32495 60708 10293 20230 30080 40131 80342 333 20235 58002;EQDQ01+000002SCOTLC
0137821980999992010091018004-01717-045400FM-12+004499999V0200901N006712200019N0020001N1+03241+02191101111ADDGF103991031021004501001001MA1999999100601MD1999999+0051REMSYN070AAXX  10184 82198 32495 30913 10324 20219 30060 40111 83200 333 58005;
0196821980999992010091100004-01717-045400FM-12+004499999V0200701N002612200019N0002001N1+02641+02331101191ADDAY111061AY211061GF102991021001017501061001KA1240M+03351MA1999999100681MD1999999-0041MW1131REMSYN094AAXX  11004 82198 31792 20705 10264 20233 30068 40119 71311 82060 333 10335 29072 55107 59004;
0201821980999992010091112004-01717-045400FM-12+004499999V0200901N002610450019N0010001N1+02701+02561101321ADDAA124002091AY161061AY221061GF107991041071004501061001KA1240N+02411MA1999999100801MD1999999+0001MW1101REMSYN088AAXX  11124 82198 21494 70905 10270 20256 30080 40132 71062 84760 333 20241 58000 60024;
0182821980999992010091118004-01717-045400FM-12+004499999V0200901N004610042019N0020001N1+03171+02241100951ADDAA106000891AY161061AY221061GF105991051021004501001001MA1999999100441MD1999999-0161MW1011REMSYN082AAXX  11184 82198 21495 50909 10317 20224 30044 40095 70162 85200 333 59016 69971;
0178821980999992010091200004-01717-045400FM-12+004499999V0200701N002612200019N0002001N1+02641+02391101131ADDGA1001+999999999GF100991001001999999001001KA1240M+03211MA1999999100621MD1999999-0061REMSYN082AAXX  12004 82198 32992 00705 10264 20239 30062 40113 333 10321 29082 55071 59006;
0201821980999992010091212004-01717-045400FM-12+004499999V0201101N005110450019N0020001N1+02831+02271101281ADDAA124000891AY141061AY221061GF106991041021004501061001KA1240N+02341MA1999999100771MD1999999-0031MW1031REMSYN088AAXX  12124 82198 21495 61110 10283 20227 30077 40128 70342 84260 333 20234 59003 69974;
0137821980999992010091218004-01717-045400FM-12+004499999V0200901N004110042019N0020001N1+03251+02181100901ADDGF106991061021004501001001MA1999999100391MD1999999-0051REMSYN070AAXX  12184 82198 32495 60908 10325 20218 30039 40090 86200 333 59005;
0178821980999992010091300004-01717-045400FM-12+004499999V0200701N002612200019N0002001N1+02611+02291101121ADDGA1001+999999999GF100991001001999999001001KA1240M+03341MA1999999100611MD1999999-0011REMSYN082AAXX  13004 82198 32992 00705 10261 20229 30061 40112 333 10334 29074 55099 59001;
0184821980999992010091312004-01717-045400FM-12+004499999V0200901N005110450019N0020001N1+02901+02391101191ADDAY141061AY221061GF105991031011004501031001KA1240N+02351MA1999999100681MD1999999-0091MW1031REMSYN082AAXX  13124 82198 31495 50910 10290 20239 30068 40119 70342 83130 333 20235 59009;
0137821980999992010091318004-01717-045400FM-12+004499999V0200901N004612200019N0020001N1+03291+02091100921ADDGF103991011021004501041011MA1999999100411MD1999999+0021REMSYN070AAXX  13184 82198 32495 30909 10329 20209 30041 40092 81241 333 58002;
0168821980999992010091400004-01717-045400FM-12+004499999V0200501N003110150019N0002001N1+02661+02331101131ADDGF105991051001017501031001KA1240M+03371MA1999999100621MD1999999+0011REMSYN088AAXX  14004 82198 32792 50506 10266 20233 30062 40113 85030 333 10337 29072 55103 58001;
0184821980999992010091412004-01717-045400FM-12+004499999V0200901N003610450019N0020001N1+03021+02391101251ADDAY141061AY221061GF106991031021004501061001KA1240N+02381MA1999999100741MD1999999+0061MW1031REMSYN082AAXX  14124 82198 31495 60907 10302 20239 30074 40125 70342 83260 333 20238 58006;
0137821980999992010091418004-01717-045400FM-12+004499999V0200901N004612200019N0020001N1+03261+02211101001ADDGF104991021011004501031011MA1999999100491MD1999999+0081REMSYN070AAXX  14184 82198 32495 40909 10326 20221 30049 40100 82131 333 58008;
0168821980999992010091500004-01717-045400FM-12+004499999V0200701N002112200019N0020001N1+02611+02391101201ADDGF103991011011004501031011KA1240M+03341MA1999999100691MD1999999+0071REMSYN088AAXX  15004 82198 32495 30704 10261 20239 30069 40120 81131 333 10334 29075 55098 58007;
0184821980999992010091512004-01717-045400FM-12+004499999V0200901N004110450019N0020001N1+02881+02321101221ADDAY141061AY221061GF107991041021004501061001KA1240N+02391MA1999999100711MD1999999-0031MW1031REMSYN082AAXX  15124 82198 31495 70908 10288 20232 30071 40122 70342 84260 333 20239 59003;
0137821980999992010091518004-01717-045400FM-12+004499999V0200701N005712200019N0020001N1+03281+02231100931ADDGF104991041021004501001001MA1999999100421MD1999999-0071REMSYN070AAXX  15184 82198 32495 40711 10328 20223 30042 40093 84200 333 59007;
0178821980999992010091600004-01717-045400FM-12+004499999V0200501N003612200019N0002001N1+02661+02331101061ADDGA1001+999999999GF100991001001999999001001KA1240M+03331MA1999999100551MD1999999-0141REMSYN082AAXX  16004 82198 32992 00507 10266 20233 30055 40106 333 10333 29072 55096 59014;
0184821980999992010091612004-01717-045400FM-12+004499999V0200701N004610450019N0020001N1+02971+02391101101ADDAY141061AY221061GF107991041051004501061001KA1240N+02411MA1999999100591MD1999999-0121MW1031REMSYN082AAXX  16124 82198 31495 70709 10297 20239 30059 40110 70342 84560 333 20241 59012;
0137821980999992010091618004-01717-045400FM-12+004499999V0200701N005712200019N0020001N1+03281+02261100821ADDGF103991031021004501001001MA1999999100311MD1999999-0111REMSYN070AAXX  16184 82198 32495 30711 10328 20226 30031 40082 83200 333 59011;
0178821980999992010091700004-01717-045400FM-12+004499999V0200701N003112200019N0002001N1+02611+02211100971ADDGA1001+999999999GF100991001001999999001001KA1240M+03331MA1999999100461MD1999999-0091REMSYN082AAXX  17004 82198 32992 00706 10261 20221 30046 40097 333 10333 29071 55100 59009;
0184821980999992010091712004-01717-045400FM-12+004499999V0200701N004110450019N0010001N1+02961+02311101131ADDAY141061AY221061GF106991041051004501061001KA1240N+02391MA1999999100621MD1999999+0031MW1041REMSYN082AAXX  17124 82198 31494 60708 10296 20231 30062 40113 70442 84560 333 20239 58003;
0165821980999992010091718004-01717-045400FM-12+004499999V0200901N004610450019N0010001N1+03221+02201100881ADDAY121061AY221061GF106991041021004501061001MA1999999100371MD1999999+0061MW1041REMSYN076AAXX  17184 82198 31494 60909 10322 20220 30037 40088 70422 84260 333 58006;
0178821980999992010091800004-01717-045400FM-12+004499999V0200701N003112200019N0002001N1+02631+02231101121ADDGA1001+999999999GF100991001001999999001001KA1240M+03281MA1999999100611MD1999999+0151REMSYN082AAXX  18004 82198 32992 00706 10263 20223 30061 40112 333 10328 29071 55082 58015;
0184821980999992010091812004-01717-045400FM-12+004499999V0200901N004112200019N0020001N1+02941+02331101211ADDAY141061AY211061GF103991031011004501001001KA1240N+02371MA1999999100701MD1999999+0081MW1031REMSYN082AAXX  18124 82198 31495 30908 10294 20233 30070 40121 70341 83100 333 20237 58008;
0165821980999992010091818004-01717-045400FM-12+004499999V0200901N005112200019N0020001N1+03261+02111101001ADDAY111061AY211061GF103991031021004501001001MA1999999100491MD1999999+0121MW1041REMSYN076AAXX  18184 82198 31495 30910 10326 20211 30049 40100 70411 83200 333 58012;
0184821980999992010091912004-01717-045400FM-12+004499999V0200701N005710450019N0020001N1+02881+02321101231ADDAY141061AY221061GF106991031051004501061001KA1240N+02371MA1999999100721MD1999999+0021MW1031REMSYN082AAXX  19124 82198 31495 60711 10288 20232 30072 40123 70342 83560 333 20237 58002;
0165821980999992010091918004-01717-045400FM-12+004499999V0200901N005710042019N0020001N1+03151+02301100931ADDAY121061AY221061GF105991051021004501001001MA1999999100421MD1999999-0071MW1041REMSYN076AAXX  19184 82198 31495 50911 10315 20230 30042 40093 70422 85200 333 59007;
0184821980999992010092012004-01717-045400FM-12+004499999V0200901N003610450019N0010001N1+02871+02131101181ADDAY141061AY221061GF107991041051004501061001KA1240N+02411MA1999999100671MD1999999-0051MW1031REMSYN082AAXX  20124 82198 31494 70907 10287 20213 30067 40118 70342 84560 333 20241 59005;
0137821980999992010092018004-01717-045400FM-12+004499999V0200701N005112200019N0020001N1+03201+02121100811ADDGF103991021021004501001011MA1999999100301MD1999999-0121REMSYN070AAXX  20184 82198 32495 30710 10320 20212 30030 40081 82201 333 59012;
0178821980999992010092100004-01717-045400FM-12+004499999V0200701N004612200019N0002001N1+02631+02291100921ADDGA1001+999999999GF100991001001999999001001KA1240M+03301MA1999999100411MD1999999-0121REMSYN082AAXX  21004 82198 32992 00709 10263 20229 30041 40092 333 10330 29072 55082 59012;
0184821980999992010092112004-01717-045400FM-12+004499999V0200901N006210450019N0010001N1+02881+02211101181ADDAY141061AY221061GF107991041051004501061001KA1240N+02371MA1999999100671MD1999999+0001MW1041REMSYN082AAXX  21124 82198 31494 70912 10288 20221 30067 40118 70442 84560 333 20237 58000;
0165821980999992010092118004-01717-045400FM-12+004499999V0200901N005712200019N0010001N1+03201+02061100901ADDAY121061AY221061GF104991031011004501011001MA1999999100391MD1999999+0091MW1041REMSYN076AAXX  21184 82198 31494 40911 10320 20206 30039 40090 70422 83110 333 58009;
0168821980999992010092200004-01717-045400FM-12+004499999V0200701N002612200019N0002001N1+02591+02251101071ADDGF103991031001022501001011KA1240M+03311MA1999999100561MD1999999+0151REMSYN088AAXX  22004 82198 32892 30705 10259 20225 30056 40107 83001 333 10331 29070 55078 58015;
0184821980999992010092212004-01717-045400FM-12+004499999V0200901N005710042019N0010001N1+02971+02371101201ADDAY141061AY221061GF106991061021004501001001KA1240N+02361MA1999999100691MD1999999+0021MW1041REMSYN082AAXX  22124 82198 31494 60911 10297 20237 30069 40120 70442 86200 333 20236 58002;
0137821980999992010092218004-01717-045400FM-12+004499999V0200901N005712200019N0020001N1+03261+02111100901ADDGF102991011011004501001011MA1999999100391MD1999999+0001REMSYN070AAXX  22184 82198 32495 20911 10326 20211 30039 40090 81101 333 58000;
0168821980999992010092300004-01717-045400FM-12+004499999V0200701N003612200019N0002001N1+02651+02351101091ADDGF102991021001022501001011KA1240M+03321MA1999999100581MD1999999+0021REMSYN088AAXX  23004 82198 32892 20707 10265 20235 30058 40109 82001 333 10332 29073 55100 58002;
0184821980999992010092312004-01717-045400FM-12+004499999V0200701N005710042019N0020001N1+02871+02251101231ADDAY141061AY221061GF108991061051004501061999KA1240N+02201MA1999999100721MD1999999+0031MW1031REMSYN082AAXX  23124 82198 31495 80711 10287 20225 30072 40123 70342 8656/ 333 20220 58003;
0165821980999992010092318004-01717-045400FM-12+004499999V0200701N004610042019N0010001N1+03141+02181100851ADDAY121061AY221061GF107991051021004501011001MA1999999100341MD1999999-0051MW1041REMSYN076AAXX  23184 82198 31494 70709 10314 20218 30034 40085 70422 85210 333 59005;
0178821980999992010092400004-01717-045400FM-12+004499999V0200701N004612200019N0002001N1+02601+02351101111ADDGA1001+999999999GF100991001001999999001001KA1240M+03361MA1999999100601MD1999999+0021REMSYN082AAXX  24004 82198 32992 00709 10260 20235 30060 40111 333 10336 29075 55074 58002;
0184821980999992010092412004-01717-045400FM-12+004499999V0200701N007710450019N0020001N1+02961+02181101141ADDAY141061AY221061GF107991041021004501061001KA1240N+02471MA1999999100631MD1999999-0091MW1031REMSYN082AAXX  24124 82198 31495 70715 10296 20218 30063 40114 70342 84260 333 20247 59009;
0165821980999992010092418004-01717-045400FM-12+004499999V0200901N005712200019N0010001N1+03141+02071100911ADDAY121061AY221061GF104991021021004501001041MA1999999100401MD1999999+0061MW1041REMSYN076AAXX  24184 82198 31494 40911 10314 20207 30040 40091 70422 82204 333 58006;
0168821980999992010092500004-01717-045400FM-12+004499999V0200701N002612200019N0002001N1+02591+02271101081ADDGF103991011011004501001011KA1240M+03281MA1999999100571MD1999999-0031REMSYN088AAXX  25004 82198 32492 30705 10259 20227 30057 40108 81101 333 10328 29070 55102 59003;
0156821980999992010092812004-01717-045400FM-12+004499999V0200701N005110042019N0020001N1+02991+02241100981ADDGF106991061021004501001001KA1240N+02441MA1999999100471MD1999999-0061REMSYN076AAXX  28124 82198 32495 60710 10299 20224 30047 40098 86200 333 20244 59006;
0165821980999992010092818004-01717-045400FM-12+004499999V0200901N004610042019N0010001N1+03201+02301100611ADDAY121061AY221061GF106991061021004501001001MA1999999100101MD1999999-0101MW1041REMSYN076AAXX  28184 82198 31494 60909 10320 20230 30010 40061 70422 86200 333 59010;
0178821980999992010092900004-01717-045400FM-12+004499999V0200701N003112200019N0002001N1+02611+02311100791ADDGA1001+999999999GF100991001001999999001001KA1240M+03381MA1999999100281MD1999999-0191REMSYN082AAXX  29004 82198 32992 00706 10261 20231 30028 40079 333 10338 29073 55092 59019;
0184821980999992010092912004-01717-045400FM-12+004499999V0200701N005710450019N0010001N1+02941+02261100981ADDAY141061AY221061GF106991041021004501061001KA1240N+02451MA1999999100471MD1999999+0001MW1041REMSYN082AAXX  29124 82198 31494 60711 10294 20226 30047 40098 70442 84260 333 20245 58000;
0165821980999992010092918004-01717-045400FM-12+004499999V0200701N004110450019N0010001N1+03111+02201100771ADDAY121061AY221061GF106991031021004501031011MA1999999100231MD1999999+0161MW1041REMSYN076AAXX  29184 82198 31494 60708 10311 20220 30023 40077 70422 83231 333 58016;
0178821980999992010093000004-01717-045400FM-12+004499999V0200701N003112200019N0002001N1+02631+02291100811ADDGA1001+999999999GF100991001001999999001001KA1240M+03311MA1999999100301MD1999999+0021REMSYN082AAXX  30004 82198 32992 00706 10263 20229 30030 40081 333 10331 29073 55073 58002;
0184821980999992010093012004-01717-045400FM-12+004499999V0200701N002610042019N0010001N1+03011+02371101041ADDAY111061AY221061GF106991061021004501001001KA1240N+02401MA1999999100531MD1999999+0061MW1041REMSYN082AAXX  30124 82198 31494 60705 10301 20237 30053 40104 70412 86200 333 20240 58006;
0165821980999992010093018004-01717-045400FM-12+004499999V0203601N004110042019N0020001N1+03211+02271100721ADDAY121061AY221061GF105991051021004501001001MA1999999100211MD1999999-0051MW1041REMSYN076AAXX  30184 82198 31495 53608 10321 20227 30021 40072 70422 85200 333 59005;
0178821980999992010100100004-01717-045400FM-12+004499999V0200701N003612200019N0002001N1+02621+02291100911ADDGA1001+999999999GF100991001001999999001001KA1240M+03341MA1999999100401MD1999999+0101REMSYN082AAXX  01004 82198 32992 00707 10262 20229 30040 40091 333 10334 29073 55091 58010;
0156821980999992010100112004-01717-045400FM-12+004499999V0200701N006710042019N0020001N1+03011+02221100971ADDGF106991061021004501001001KA1240N+02481MA1999999100461MD1999999-0061REMSYN076AAXX  01124 82198 32495 60713 10301 20222 30046 40097 86200 333 20248 59006;
0137821980999992010100118004-01717-045400FM-12+004499999V0200701N003610450019N0020001N1+03091+02271100851ADDGF106991031021004501061001MA1999999100341MD1999999+0131REMSYN070AAXX  01184 82198 32495 60707 10309 20227 30034 40085 83260 333 58013;
0178821980999992010100200004-01717-045400FM-12+004499999V0200701N002612200019N0002001N1+02621+02391100961ADDGA1001+999999999GF100991001001999999001001KA1240M+03241MA1999999100451MD1999999+0051REMSYN082AAXX  02004 82198 32992 00705 10262 20239 30045 40096 333 10324 29075 55065 58005;
0156821980999992010100212004-01717-045400FM-12+004499999V0200501N003110042019N0020001N1+02981+02351101111ADDGF106991061021004501001001KA1240N+02431MA1999999100601MD1999999+0131REMSYN076AAXX  02124 82198 32495 60506 10298 20235 30060 40111 86200 333 20243 58013;
0137821980999992010100218004-01717-045400FM-12+004499999V0200701N004612200019N0020001N1+03161+02321100811ADDGF103991031021004501001001MA1999999100301MD1999999-0041REMSYN070AAXX  02184 82198 32495 30709 10316 20232 30030 40081 83200 333 59004;
0178821980999992010100300004-01717-045400FM-12+004499999V0200701N002112200019N0002001N1+02611+02331100951ADDGA1001+999999999GF100991001001999999001001KA1240M+03231MA1999999100441MD1999999-0011REMSYN082AAXX  03004 82198 32992 00704 10261 20233 30044 40095 333 10323 29075 55107 59001;
0156821980999992010100312004-01717-045400FM-12+004499999V0200701N001510042019N0020001N1+02981+02351101091ADDGF105991051021004501001001KA1240N+02261MA1999999100581MD1999999-0021REMSYN076AAXX  03124 82198 32495 50703 10298 20235 30058 40109 85200 333 20226 59002;
0137821980999992010100318004-01717-045400FM-12+004499999V0200201N003112200019N0020001N1+03241+02311100741ADDGF103991031021004501001001MA1999999100231MD1999999-0071REMSYN070AAXX  03184 82198 32495 30206 10324 20231 30023 40074 83200 333 59007;
0178821980999992010100400004-01717-045400FM-12+004499999V0200501N003112200019N0002001N1+02641+02331101021ADDGA1001+999999999GF100991001001999999001001KA1240M+03281MA1999999100511MD1999999+0071REMSYN082AAXX  04004 82198 32992 00506 10264 20233 30051 40102 333 10328 29073 55101 58007;
0156821980999992010100412004-01717-045400FM-12+004499999V0200701N003610042019N0020001N1+03041+02361101111ADDGF106991061021004501001001KA1240N+02491MA1999999100601MD1999999+0021REMSYN076AAXX  04124 82198 32495 60707 10304 20236 30060 40111 86200 333 20249 58002;
0137821980999992010100418004-01717-045400FM-12+004499999V0200501N005110042019N0020001N1+03061+02351100831ADDGF105991051021004501001001MA1999999100321MD1999999+0091REMSYN070AAXX  04184 82198 32495 50510 10306 20235 30032 40083 85200 333 58009;
0178821980999992010100500004-01717-045400FM-12+004499999V0200501N003112200019N0002001N1+02641+02411100981ADDGA1001+999999999GF100991001001999999001001KA1240M+03341MA1999999100471MD1999999-0031REMSYN082AAXX  05004 82198 32992 00506 10264 20241 30047 40098 333 10334 29077 55100 59003;
0184821980999992010100512004-01717-045400FM-12+004499999V0200701N004110450019N0010001N1+03031+02321101171ADDAY141061AY221061GF106991041021004501061001KA1240N+02481MA1999999100661MD1999999+0061MW1041REMSYN082AAXX  05124 82198 31494 60708 10303 20232 30066 40117 70442 84260 333 20248 58006;
0165821980999992010100518004-01717-045400FM-12+004499999V0200701N004610042019N0020001N1+03091+02241100891ADDAY121061AY221061GF105991051021004501001001MA1999999100381MD1999999+0061MW1041REMSYN076AAXX  05184 82198 31495 50709 10309 20224 30038 40089 70422 85200 333 58006;
0178821980999992010100600004-01717-045400FM-12+004499999V0200501N004612200019N0002001N1+02661+02331101041ADDGA1001+999999999GF100991001001999999001001KA1240M+03261MA1999999100531MD1999999+0061REMSYN082AAXX  06004 82198 32992 00509 10266 20233 30053 40104 333 10326 29074 55098 58006;
0184821980999992010100612004-01717-045400FM-12+004499999V0200501N002110042019N0010001N1+03011+02321101151ADDAY111061AY221061GF105991051021004501001001KA1240N+02451MA1999999100641MD1999999-0021MW1041REMSYN082AAXX  06124 82198 31494 50504 10301 20232 30064 40115 70412 85200 333 20245 59002;
0165821980999992010100618004-01717-045400FM-12+004499999V0203601N004610042019N0020001N1+03091+02191100841ADDAY121061AY221061GF105991051021004501001001MA1999999100331MD1999999-0051MW1041REMSYN076AAXX  06184 82198 31495 53609 10309 20219 30033 40084 70422 85200 333 59005;
0178821980999992010100700004-01717-045400FM-12+004499999V0200201N002612200019N0002001N1+02641+02391101051ADDGA1001+999999999GF100991001001999999001001KA1240M+03461MA1999999100541MD1999999+0011REMSYN082AAXX  07004 82198 32992 00205 10264 20239 30054 40105 333 10346 29075 55096 58001;
0184821980999992010100712004-01717-045400FM-12+004499999V0200501N003612200019N0020001N1+02991+02321101181ADDAY111061AY221061GF106991041021004501001011KA1240N+02431MA1999999100671MD1999999+0031MW1041REMSYN082AAXX  07124 82198 31495 60507 10299 20232 30067 40118 70412 84201 333 20243 58003;
0165821980999992010100718004-01717-045400FM-12+004499999V0200501N005112200019N0020001N1+03301+02211100911ADDAY121061AY221061GF105991031021004501001011MA1999999100401MD1999999+0071MW1041REMSYN076AAXX  07184 82198 31495 50510 10330 20221 30040 40091 70422 83201 333 58007;
0178821980999992010100800004-01717-045400FM-12+004499999V0200701N003612200019N0002001N1+02631+02251101131ADDGA1001+999999999GF100991001001999999001001KA1240M+03401MA1999999100621MD1999999+0081REMSYN082AAXX  08004 82198 32992 00707 10263 20225 30062 40113 333 10340 29070 55094 58008;
0184821980999992010100812004-01717-045400FM-12+004499999V0200701N004610450019N0010001N1+03011+02271101331ADDAY141061AY221061GF106991031021004501011011KA1240N+02461MA1999999100821MD1999999+0151MW1041REMSYN082AAXX  08124 82198 31494 60709 10301 20227 30082 40133 70442 83211 333 20246 58015;
0165821980999992010100818004-01717-045400FM-12+004499999V0200501N005112200019N0020001N1+03261+02271101081ADDAY121061AY211061GF104991041021004501001001MA1999999100571MD1999999+0171MW1041REMSYN076AAXX  08184 82198 31495 40510 10326 20227 30057 40108 70421 84200 333 58017;
0178821980999992010100900004-01717-045400FM-12+004499999V0200501N002612200019N0002001N1+02651+02351101241ADDGA1001+999999999GF100991001001999999001001KA1240M+03241MA1999999100731MD1999999+0111REMSYN082AAXX  09004 82198 32992 00505 10265 20235 30073 40124 333 10324 29073 55103 58011;
0184821980999992010100912004-01717-045400FM-12+004499999V0200501N004110450019N0010001N1+02901+02271101251ADDAY141061AY221061GF106991041021004501061001KA1240N+02451MA1999999100741MD1999999-0081MW1041REMSYN082AAXX  09124 82198 31494 60508 10290 20227 30074 40125 70442 84260 333 20245 59008;
0165821980999992010100918004-01717-045400FM-12+004499999V0203601N004612200019N0010001N1+03191+02271100921ADDAY121061AY211061GF103991031021004501001001MA1999999100411MD1999999-0161MW1041REMSYN076AAXX  09184 82198 31494 33609 10319 20227 30041 40092 70421 83200 333 59016;
0178821980999992010101000004-01717-045400FM-12+004499999V0200501N003612200019N0002001N1+02671+02291101151ADDGA1001+999999999GF100991001001999999001001KA1240M+03361MA1999999100641MD1999999-0091REMSYN082AAXX  10004 82198 32992 00507 10267 20229 30064 40115 333 10336 29073 55101 59009;
0156821980999992010101012004-01717-045400FM-12+004499999V0203601N005110042019N0020001N1+02941+02291101261ADDGF106991061021004501001001KA1240N+02501MA1999999100751MD1999999+0011REMSYN076AAXX  10124 82198 32495 63610 10294 20229 30075 40126 86200 333 20250 58001;
0165821980999992010101018004-01717-045400FM-12+004499999V0203601N003110042019N0010001N1+02981+02301101021ADDAY121061AY221061GF108991051051004501061001MA1999999100511MD1999999+0101MW1041REMSYN076AAXX  10184 82198 31494 83606 10298 20230 30051 40102 70422 85560 333 58010;
0178821980999992010101100004-01717-045400FM-12+004499999V0200501N003112200019N0002001N1+02671+02291101131ADDGA1001+999999999GF100991001001999999001001KA1240M+03251MA1999999100621MD1999999-0021REMSYN082AAXX  11004 82198 32992 00506 10267 20229 30062 40113 333 10325 29075 55069 59002;
0184821980999992010101112004-01717-045400FM-12+004499999V0200701N005110450019N0010001N1+02941+02311101181ADDAY141061AY221061GF106991041021004501061001KA1240N+02491MA1999999100671MD1999999-0081MW1041REMSYN082AAXX  11124 82198 31494 60710 10294 20231 30067 40118 70442 84260 333 20249 59008;
0165821980999992010101118004-01717-045400FM-12+004499999V0200501N004610450019N0020001N1+03101+02261100901ADDAY121061AY221061GF106991041021004501061001MA1999999100391MD1999999-0121MW1041REMSYN076AAXX  11184 82198 31495 60509 10310 20226 30039 40090 70422 84260 333 59012;
0178821980999992010101200004-01717-045400FM-12+004499999V0200501N003112200019N0002001N1+02671+02291101071ADDGA1001+999999999GF100991001001999999001001KA1240M+03381MA1999999100561MD1999999-0061REMSYN082AAXX  12004 82198 32992 00506 10267 20229 30056 40107 333 10338 29074 55075 59006;
0156821980999992010101212004-01717-045400FM-12+004499999V0200501N004610042019N0020001N1+02961+02331101191ADDGF106991061021004501001001KA1240N+02561MA1999999100681MD1999999+0011REMSYN076AAXX  12124 82198 32495 60509 10296 20233 30068 40119 86200 333 20256 58001;
0137821980999992010101218004-01717-045400FM-12+004499999V0200501N004612200019N0020001N1+03141+02351100891ADDGF104991041021004501001001MA1999999100381MD1999999-0071REMSYN070AAXX  12184 82198 32495 40509 10314 20235 30038 40089 84200 333 59007;
0168821980999992010101300004-01717-045400FM-12+004499999V0200501N003112200019N0002001N1+02701+02391101041ADDGF103991031021004501001001KA1240M+03251MA1999999100531MD1999999-0031REMSYN088AAXX  13004 82198 32492 30506 10270 20239 30053 40104 83200 333 10325 29074 55068 59003;
0156821980999992010101312004-01717-045400FM-12+004499999V0200501N003610042019N0020001N1+02931+02391101151ADDGF105991051021004501001001KA1240N+02531MA1999999100641MD1999999-0041REMSYN076AAXX  13124 82198 32495 50507 10293 20239 30064 40115 85200 333 20253 59004;
0156821980999992010101412004-01717-045400FM-12+004499999V0200701N003110042019N0020001N1+03001+02391101111ADDGF106991061021004501001001KA1240N+02491MA1999999100601MD1999999-0041REMSYN076AAXX  14124 82198 32495 60706 10300 20239 30060 40111 86200 333 20249 59004;
0137821980999992010101418004-01717-045400FM-12+004499999V0200701N003610042019N0020001N1+03361+02331100721ADDGF105991051021004501001001MA1999999100211MD1999999-0051REMSYN070AAXX  14184 82198 32495 50707 10336 20233 30021 40072 85200 333 59005;
0178821980999992010101500004-01717-045400FM-12+004499999V0200701N002612200019N0002001N1+02661+02391100911ADDGA1001+999999999GF100991001001999999001001KA1240M+03451MA1999999100401MD1999999-0061REMSYN082AAXX  15004 82198 32992 00705 10266 20239 30040 40091 333 10345 29074 55097 59006;
0156821980999992010101512004-01717-045400FM-12+004499999V0200701N003610042019N0020001N1+03031+02341100961ADDGF106991061021004501001001KA1240N+02471MA1999999100451MD1999999-0151REMSYN076AAXX  15124 82198 32495 60707 10303 20234 30045 40096 86200 333 20247 59015;
0137821980999992010101518004-01717-045400FM-12+004499999V0200701N004612200019N0020001N1+03311+02151100571ADDGF103991021011004501061001MA1999999100061MD1999999-0151REMSYN070AAXX  15184 82198 32495 30709 10331 20215 30006 40057 82160 333 59015;
0168821980999992010101600004-01717-045400FM-12+004499999V0200501N003612200019N0002001N1+02681+02311100821ADDGF102991021011004501001001KA1240M+03401MA1999999100311MD1999999-0091REMSYN088AAXX  16004 82198 32492 20507 10268 20231 30031 40082 82100 333 10340 29070 55097 59009;
0156821980999992010101612004-01717-045400FM-12+004499999V0200701N005110042019N0020001N1+03101+02361100911ADDGF106991061021004501001001KA1240N+02481MA1999999100401MD1999999-0051REMSYN076AAXX  16124 82198 32495 60710 10310 20236 30040 40091 86200 333 20248 59005;
0137821980999992010101618004-01717-045400FM-12+004499999V0200501N004110450019N0020001N1+03221+02321100601ADDGF105991031021004501061001MA1999999100091MD1999999+0031REMSYN070AAXX  16184 82198 32495 50508 10322 20232 30009 40060 83260 333 58003;
0168821980999992010101700004-01717-045400FM-12+004499999V0200501N002612200019N0002001N1+02651+02311100741ADDGF102991021011004501001001KA1240M+03381MA1999999100211MD1999999-0051REMSYN088AAXX  17004 82198 32492 20505 10265 20231 30021 40074 82100 333 10338 29072 55086 59005;
0156821980999992010101712004-01717-045400FM-12+004499999V0200501N004610042019N0020001N1+02981+02331100921ADDGF106991061021004501001001KA1240N+02491MA1999999100411MD1999999+0011REMSYN076AAXX  17124 82198 32495 60509 10298 20233 30041 40092 86200 333 20249 58001;
0137821980999992010101718004-01717-045400FM-12+004499999V0200201N004610042019N0020001N1+03081+02401100531ADDGF105991051021004501001001MA1999999100021MD1999999-0071REMSYN070AAXX  17184 82198 32495 50209 10308 20240 30002 40053 85200 333 59007;
0178821980999992010101800004-01717-045400FM-12+004499999V0200501N002612200019N0002001N1+02661+02391100751ADDGA1001+999999999GF100991001001999999001001KA1240M+03251MA1999999100241MD1999999+0011REMSYN082AAXX  18004 82198 32992 00505 10266 20239 30024 40075 333 10325 29076 55073 58001;
0156821980999992010101812004-01717-045400FM-12+004499999V0200201N003612200019N0020001N1+02961+02351100981ADDGF104991041021004501001001KA1240N+02481MA1999999100471MD1999999+0061REMSYN076AAXX  18124 82198 32495 40207 10296 20235 30047 40098 84200 333 20248 58006;
0137821980999992010101818004-01717-045400FM-12+004499999V0200201N005112200019N0020001N1+03101+02341100571ADDGF104991041021004501001001MA1999999100061MD1999999+0041REMSYN070AAXX  18184 82198 32495 40210 10310 20234 30006 40057 84200 333 58004;
0168821980999992010101900004-01717-045400FM-12+004499999V0200701N002112200019N0002001N1+02661+02391100771ADDGF102991021001008001061001KA1240M+03271MA1999999100261MD1999999+0021REMSYN088AAXX  19004 82198 32592 20704 10266 20239 30026 40077 82060 333 10327 29076 55105 58002;
0184821980999992010101912004-01717-045400FM-12+004499999V0200901N003112200019N0010001N1+03001+02391101151ADDAY111061AY221061GF104991041021004501001001KA1240N+02301MA1999999100641MD1999999+0171MW1041REMSYN082AAXX  19124 82198 31494 40906 10300 20239 30064 40115 70412 84200 333 20230 58017;
0137821980999992010101918004-01717-045400FM-12+004499999V0203601N005712200019N0020001N1+03141+02211100861ADDGF103991031021004501001001MA1999999100351MD1999999+0291REMSYN070AAXX  19184 82198 32495 33611 10314 20221 30035 40086 83200 333 58029;
0168821980999992010102000004-01717-045400FM-12+004499999V0200501N003612200019N0002001N1+02691+02271101031ADDGF102991011011004501011001KA1240M+03351MA1999999100521MD1999999+0261REMSYN088AAXX  20004 82198 32492 20507 10269 20227 30052 40103 81110 333 10335 29073 55105 58026;
0156821980999992010102012004-01717-045400FM-12+004499999V0200501N002610042019N0020001N1+02941+02361101151ADDGF105991051021004501001001KA1240N+02491MA1999999100641MD1999999+0001REMSYN076AAXX  20124 82198 32495 50505 10294 20236 30064 40115 85200 333 20249 58000;
0137821980999992010102018004-01717-045400FM-12+004499999V0203601N004612200019N0020001N1+03241+02101100751ADDGF103991031021004501001001MA1999999100241MD1999999-0111REMSYN070AAXX  20184 82198 32495 33609 10324 20210 30024 40075 83200 333 59011;
0168821980999992010102100004-01717-045400FM-12+004499999V0200501N003112200019N0002001N1+02691+02291100971ADDGF101991011011004501001001KA1240M+03451MA1999999100461MD1999999-0061REMSYN088AAXX  21004 82198 32492 10506 10269 20229 30046 40097 81100 333 10345 29072 55107 59006;
0156821980999992010102112004-01717-045400FM-12+004499999V0200501N002612200019N0020001N1+03011+02341101141ADDGF104991041021004501001001KA1240N+02481MA1999999100631MD1999999-0011REMSYN076AAXX  21124 82198 32495 40505 10301 20234 30063 40114 84200 333 20248 59001;
0137821980999992010102118004-01717-045400FM-12+004499999V0203601N004612200019N0020001N1+03201+02151100811ADDGF103991021021004501001011MA1999999100301MD1999999+0061REMSYN070AAXX  21184 82198 32495 33609 10320 20215 30030 40081 82201 333 58006;
0168821980999992010102200004-01717-045400FM-12+004499999V0200501N003112200019N0002001N1+02691+02271100961ADDGF101991011011004501001001KA1240M+03381MA1999999100451MD1999999-0011REMSYN088AAXX  22004 82198 32492 10506 10269 20227 30045 40096 81100 333 10338 29072 55107 59001;
0156821980999992010102212004-01717-045400FM-12+004499999V0203601N003110042019N0020001N1+03041+02381101071ADDGF105991051021004501001001KA1240N+02451MA1999999100561MD1999999-0071REMSYN076AAXX  22124 82198 32495 53606 10304 20238 30056 40107 85200 333 20245 59007;
0137821980999992010102218004-01717-045400FM-12+004499999V0203601N004612200019N0020001N1+03211+02241100801ADDGF104991021021004501041041MA1999999100291MD1999999-0011REMSYN070AAXX  22184 82198 32495 43609 10321 20224 30029 40080 82244 333 59001;
0168821980999992010102300004-01717-045400FM-12+004499999V0203601N004112200019N0002001N1+02731+02261100941ADDGF102991021021004501001001KA1240M+03331MA1999999100431MD1999999-0021REMSYN088AAXX  23004 82198 32492 23608 10273 20226 30043 40094 82200 333 10333 29070 55108 59002;
0156821980999992010102312004-01717-045400FM-12+004499999V0200901N002610450019N0010001N1+02931+02371101041ADDGF107991041071004501031001KA1240N+02341MA1999999100531MD1999999-0031REMSYN076AAXX  23124 82198 32494 70905 10293 20237 30053 40104 84730 333 20234 59003;
0137821980999992010102318004-01717-045400FM-12+004499999V0203601N005110450019N0020001N1+03141+02181100641ADDGF107991041071004501031091MA1999999100131MD1999999-0161REMSYN070AAXX  23184 82198 32495 73610 10314 20218 30013 40064 84739 333 59016;
0168821980999992010102400004-01717-045400FM-12+004499999V0200701N003611050019N0002001N1+02691+02291100871ADDGF105991021011004501011041KA1240M+03431MA1999999100361MD1999999-0071REMSYN088AAXX  24004 82198 32492 50707 10269 20229 30036 40087 82114 333 10343 29074 55064 59007;
0156821980999992010102412004-01717-045400FM-12+004499999V0200701N002610042019N0020001N1+03081+02351100921ADDGF105991051021004501001001KA1240N+02491MA1999999100411MD1999999-0121REMSYN076AAXX  24124 82198 32495 50705 10308 20235 30041 40092 85200 333 20249 59012;
0165821980999992010102418004-01717-045400FM-12+004499999V0203601N006712200019N0020001N1+03211+02351101491ADDAY161061AY221061GF104991041021004501001001MA1999999099981MD1999999-0151MW1151REMSYN076AAXX  24184 82198 31495 43613 10321 20235 39998 40149 71562 84200 333 59015;
0196821980999992010102500004-01717-045400FM-12+004499999V0200501N002612200019N0002001N1+02701+02371100701ADDAY111061AY201061GF102991021011004501001001KA1240M+03451MA1999999100191MD1999999-0171MW1131REMSYN094AAXX  25004 82198 31492 20505 10270 20237 30019 40070 71310 82100 333 10345 29072 55103 59017;
0156821980999992010102512004-01717-045400FM-12+004499999V0200701N004610450019N0020001N1+02971+02341100841ADDGF106991041021004501061001KA1240N+02561MA1999999100331MD1999999-0081REMSYN076AAXX  25124 82198 32495 60709 10297 20234 30033 40084 84260 333 20256 59008;
0156821980999992010102612004-01717-045400FM-12+004499999V0200201N004612200019N0020001N1+03051+02381100981ADDGF104991031021004501001011KA1240N+02531MA1999999100471MD1999999+0141REMSYN076AAXX  26124 82198 32495 40209 10305 20238 30047 40098 83201 333 20253 58014;
0137821980999992010102618004-01717-045400FM-12+004499999V0200201N005112200019N0020001N1+03171+02231100671ADDGF103991021021004501061001MA1999999100161MD1999999+0211REMSYN070AAXX  26184 82198 32495 30210 10317 20223 30016 40067 82260 333 58021;
0178821980999992010102700004-01717-045400FM-12+004499999V0200201N003112200019N0002001N1+02641+02411100841ADDGA1001+999999999GF100991001001999999001001KA1240M+03341MA1999999100331MD1999999+0021REMSYN082AAXX  27004 82198 32992 00206 10264 20241 30033 40084 333 10334 29075 55106 58002;
0156821980999992010102712004-01717-045400FM-12+004499999V0200501N003612200019N0020001N1+03141+02481100781ADDGF104991031021004501061001KA1240N+02311MA1999999100271MD1999999-0201REMSYN076AAXX  27124 82198 32495 40507 10314 20248 30027 40078 83260 333 20231 59020;
0165821980999992010102718004-01717-045400FM-12+004499999V0201601N002610450019N0010001N1+02921+02291100491ADDAY191061AY221061GF107991031051004501021001MA1999999099981MD1999999-0181MW1151REMSYN076AAXX  27184 82198 31494 71605 10292 20229 39998 40049 71592 83520 333 59018;
0168821980999992010102800004-01717-045400FM-12+004499999V0200701N001510450019N0002001N1+02621+02391100641ADDGF105991031021004501061001KA1240M+03521MA1999999100131MD1999999-0271REMSYN088AAXX  28004 82198 32492 50703 10262 20239 30013 40064 83260 333 10352 29078 55077 59027;
0156821980999992010102812004-01717-045400FM-12+004499999V0200701N004110042019N0020001N1+03181+02361100711ADDGF105991051021004501001001KA1240N+02541MA1999999100301MD1999999-0071REMSYN076AAXX  28124 82198 32495 50708 10318 20236 30030 40071 85200 333 20254 59007;
0137821980999992010102818004-01717-045400FM-12+004499999V0200901N004112200019N0020001N1+03461+02261100321ADDGF104991041021004501001001MA1999999099811MD1999999-0171REMSYN070AAXX  28184 82198 32495 40908 10346 20226 39981 40032 84200 333 59017;
0196821980999992010102900004-01717-045400FM-12+004499999V0200501N002612200019N0002001N1+02731+02411100691ADDAY111061AY201061GF102991021021004501001001KA1240M+03541MA1999999100181MD1999999+0051MW1131REMSYN094AAXX  29004 82198 31492 20505 10273 20241 30018 40069 71310 82200 333 10354 29070 55101 58005;
0156821980999992010102912004-01717-045400FM-12+004499999V0200901N003110450019N0020001N1+03021+02311100921ADDGF107991041021004501061001KA1240N+02571MA1999999100411MD1999999+0211REMSYN076AAXX  29124 82198 32495 70906 10302 20231 30041 40092 84260 333 20257 58021;
0137821980999992010102918004-01717-045400FM-12+004499999V0200201N004110042019N0020001N1+03041+02311100491ADDGF105991051021004501001001MA1999999099981MD1999999+0171REMSYN070AAXX  29184 82198 32495 50208 10304 20231 39998 40049 85200 333 58017;
0178821980999992010103000004-01717-045400FM-12+004499999V0200701N002112200019N0002001N1+02701+02391100681ADDGA1001+999999999GF100991001001999999001001KA1240M+03301MA1999999100171MD1999999-0011REMSYN082AAXX  30004 82198 32992 00704 10270 20239 30017 40068 333 10330 29074 55035 59001;
0156821980999992010103012004-01717-045400FM-12+004499999V0200901N006210042019N0020001N1+03141+02211100931ADDGF106991051021004501061001KA1240N+02431MA1999999100421MD1999999+0011REMSYN076AAXX  30124 82198 32495 60912 10314 20221 30042 40093 85260 333 20243 58001;
0137821980999992010103018004-01717-045400FM-12+004499999V0200701N005710450019N0020001N1+03291+02231100541ADDGF105991031021004501061001MA1999999100031MD1999999+0051REMSYN070AAXX  30184 82198 32495 50711 10329 20223 30003 40054 83260 333 58005;
0168821980999992010103100004-01717-045400FM-12+004499999V0200701N002112200019N0002001N1+02681+02331100771ADDGF103991031001012501061001KA1240M+03451MA1999999100261MD1999999+0091REMSYN088AAXX  31004 82198 32692 30704 10268 20233 30026 40077 83060 333 10345 29068 55102 58009;
0156821980999992010103112004-01717-045400FM-12+004499999V0200701N005110042019N0020001N1+03041+02281100771ADDGF106991061021004501001001KA1240N+02431MA1999999100261MD1999999-0161REMSYN076AAXX  31124 82198 32495 60710 10304 20228 30026 40077 86200 333 20243 59016;
0137821980999992010103118004-01717-045400FM-12+004499999V0200701N004610042019N0020001N1+03241+02131100551ADDGF105991051021004501001001MA1999999100041MD1999999+0011REMSYN070AAXX  31184 82198 32495 50709 10324 20213 30004 40055 85200 333 58001;
0178821980999992010110100004-01717-045400FM-12+004499999V0200701N003112200019N0002001N1+02691+02391100821ADDGA1001+999999999GF100991001001999999001001KA1240M+03431MA1999999100311MD1999999+0051REMSYN082AAXX  01004 82198 32992 00706 10269 20239 30031 40082 333 10343 29071 55097 58005;
0156821980999992010110112004-01717-045400FM-12+004499999V0200701N006210042019N0020001N1+03121+02281100961ADDGF106991061021004501001001KA1240N+02491MA1999999100451MD1999999+0191REMSYN076AAXX  01124 82198 32495 60712 10312 20228 30045 40096 86200 333 20249 58019;
0137821980999992010110118004-01717-045400FM-12+004499999V0200701N005110042019N0020001N1+03281+02161100551ADDGF105991051021004501001001MA1999999100041MD1999999+0001REMSYN070AAXX  01184 82198 32495 50710 10328 20216 30004 40055 85200 333 58000;
0178821980999992010110200004-01717-045400FM-12+004499999V0200701N002112200019N0002001N1+02681+02331100771ADDGA1001+999999999GF100991001001999999001001KA1240M+03431MA1999999100261MD1999999-0051REMSYN082AAXX  02004 82198 32992 00704 10268 20233 30026 40077 333 10343 29068 55109 59005;
0156821980999992010110212004-01717-045400FM-12+004499999V0200701N003612200019N0020001N1+03131+02311100981ADDGF104991041021004501001001KA1240N+02531MA1999999100471MD1999999+0021REMSYN076AAXX  02124 82198 32495 40707 10313 20231 30047 40098 84200 333 20253 58002;
0137821980999992010110218004-01717-045400FM-12+004499999V0203601N004610042019N0020001N1+03141+02321100591ADDGF105991051021004501001001MA1999999100081MD1999999+0041REMSYN070AAXX  02184 82198 32495 53609 10314 20232 30008 40059 85200 333 58004;
0196821980999992010110300004-01717-045400FM-12+004499999V0200501N003612200019N0002001N1+02691+02291100961ADDAY111061AY201061GF103991021021004501061001KA1240M+03341MA1999999100451MD1999999-0191MW1131REMSYN094AAXX  03004 82198 31492 30507 10269 20229 30045 40096 71310 82260 333 10334 29073 55103 59019;
0184821980999992010110312004-01717-045400FM-12+004499999V0203601N003110450019N0010001N1+02961+02311101051ADDAY141061AY221061GF106991041021004501061001KA1240N+02501MA1999999100541MD1999999+0071MW1041REMSYN082AAXX  03124 82198 31494 63606 10296 20231 30054 40105 70442 84260 333 20250 58007;
0165821980999992010110318004-01717-045400FM-12+004499999V0203601N004612200019N0020001N1+03191+02211100701ADDAY121061AY221061GF104991041021004501001001MA1999999100191MD1999999+0111MW1041REMSYN076AAXX  03184 82198 31495 43609 10319 20221 30019 40070 70422 84200 333 58011;
0178821980999992010110400004-01717-045400FM-12+004499999V0200501N002612200019N0002001N1+02631+02311100931ADDGA1001+999999999GF100991001001999999001001KA1240M+03361MA1999999100421MD1999999-0031REMSYN082AAXX  04004 82198 32992 00505 10263 20231 30042 40093 333 10336 29073 55101 59003;
0156821980999992010110412004-01717-045400FM-12+004499999V0200501N004112200019N0020001N1+03061+02331101001ADDGF106991041021004501001041KA1240N+02441MA1999999100491MD1999999-0041REMSYN076AAXX  04124 82198 32495 60508 10306 20233 30049 40100 84204 333 20244 59004;
0137821980999992010110418004-01717-045400FM-12+004499999V0203601N003112200019N0020001N1+03201+02301100741ADDGF105991031021004501001041MA1999999100231MD1999999+0041REMSYN070AAXX  04184 82198 32495 53606 10320 20230 30023 40074 83204 333 58004;
0178821980999992010110500004-01717-045400FM-12+004499999V0200701N002612200019N0002001N1+02691+02271100961ADDGA1001+999999999GF100991001001999999001001KA1240M+03311MA1999999100451MD1999999+0031REMSYN082AAXX  05004 82198 32992 00705 10269 20227 30045 40096 333 10331 29072 55091 58003;
0156821980999992010110512004-01717-045400FM-12+004499999V0200901N004610450019N0020001N1+02981+02351101231ADDGF106991031051004501061011KA1240N+02581MA1999999100721MD1999999+0231REMSYN076AAXX  05124 82198 32495 60909 10298 20235 30072 40123 83561 333 20258 58023;
0137821980999992010110518004-01717-045400FM-12+004499999V0200701N005112200019N0020001N1+03251+02271100871ADDGF104991021021004501011041MA1999999100361MD1999999+0131REMSYN070AAXX  05184 82198 32495 40710 10325 20227 30036 40087 82214 333 58013;
0178821980999992010110600004-01717-045400FM-12+004499999V0200501N003612200019N0002001N1+02651+02211101061ADDGA1001+999999999GF100991001001999999001001KA1240M+03441MA1999999100551MD1999999+0101REMSYN082AAXX  06004 82198 32992 00507 10265 20221 30055 40106 333 10344 29070 55091 58010;
0156821980999992010110612004-01717-045400FM-12+004499999V0200701N005710450019N0020001N1+03051+02221101101ADDGF106991031021004501061001KA1240N+02491MA1999999100591MD1999999-0131REMSYN076AAXX  06124 82198 32495 60711 10305 20222 30059 40110 83260 333 20249 59013;
0137821980999992010110618004-01717-045400FM-12+004499999V0200701N004110450019N0020001N1+03301+02211100861ADDGF106991031021004501011041MA1999999100351MD1999999-0011REMSYN070AAXX  06184 82198 32495 60708 10330 20221 30035 40086 83214 333 59001;
0178821980999992010110700004-01717-045400FM-12+004499999V0200501N002612200019N0002001N1+02701+02391100951ADDGA1001+999999999GF100991001001999999001001KA1240M+03411MA1999999100441MD1999999-0111REMSYN082AAXX  07004 82198 32992 00505 10270 20239 30044 40095 333 10341 29070 55093 59011;
0156821980999992010110712004-01717-045400FM-12+004499999V0200501N003612200019N0020001N1+02911+02201101071ADDGF106991041021004501001041KA1240N+02551MA1999999100561MD1999999-0031REMSYN076AAXX  07124 82198 32495 60507 10291 20220 30056 40107 84204 333 20255 59003;
0137821980999992010110718004-01717-045400FM-12+004499999V0200501N005712200019N0020001N1+03321+02121100741ADDGF106991041021004501001061MA1999999100231MD1999999-0121REMSYN070AAXX  07184 82198 32495 60511 10332 20212 30023 40074 84206 333 59012;
0178821980999992010110800004-01717-045400FM-12+004499999V0200701N002112200019N0002001N1+02701+02391100981ADDGA1001+999999999GF100991001001999999001001KA1240M+03491MA1999999100471MD1999999+0031REMSYN082AAXX  08004 82198 32992 00704 10270 20239 30047 40098 333 10349 29070 55097 58003;
0156821980999992010110812004-01717-045400FM-12+004499999V0200901N005110042019N0020001N1+03061+02431100941ADDGF107991051051004501061001KA1240N+02531MA1999999100431MD1999999-0131REMSYN076AAXX  08124 82198 32495 70910 10306 20243 30043 40094 85560 333 20253 59013;
0137821980999992010110818004-01717-045400FM-12+004499999V0200701N005710042019N0020001N1+03371+02271100651ADDGF107991051021004501011041MA1999999100141MD1999999-0091REMSYN070AAXX  08184 82198 32495 70711 10337 20227 30014 40065 85214 333 59009;
0178821980999992010110900004-01717-045400FM-12+004499999V0200701N002112200019N0002001N1+02731+02411100821ADDGA1001+999999999GF100991001001999999001001KA1240M+03521MA1999999100311MD1999999-0161REMSYN082AAXX  09004 82198 32992 00704 10273 20241 30031 40082 333 10352 29072 55056 59016;
0156821980999992010110912004-01717-045400FM-12+004499999V0200701N002610042019N0020001N1+03021+02391100961ADDGF107991051021004501061001KA1240N+02551MA1999999100451MD1999999+0021REMSYN076AAXX  09124 82198 32495 70705 10302 20239 30045 40096 85260 333 20255 58002;
0182821980999992010110918004-01717-045400FM-12+004499999V0200201N004110450019N0020001N1+03111+02411100551ADDAA106003091AY161061AY221061GF105991031021004501061001MA1999999100041MD1999999-0101MW1021REMSYN082AAXX  09184 82198 21495 50208 10311 20241 30004 40055 70262 83260 333 59010 60031;
0168821980999992010111000004-01717-045400FM-12+004499999V0200201N003612200019N0002001N1+02741+02361100841ADDGF102991021021004501001001KA1240M+03351MA1999999100331MD1999999+0021REMSYN088AAXX  10004 82198 32492 20207 10274 20236 30033 40084 82200 333 10335 29074 55056 58002;
0173821980999992010111012004-01717-045400FM-12+004499999V0200701N005112200019N0020001N1+03021+02311101041ADDAA124003091GF104991041021004501001001KA1240N+02561MA1999999100531MD1999999+0081REMSYN082AAXX  10124 82198 22495 40710 10302 20231 30053 40104 84200 333 20256 58008 60034;
0137821980999992010111018004-01717-045400FM-12+004499999V0200201N002110450019N0020001N1+03421+02261100621ADDGF105991041021004501061001MA1999999100111MD1999999+0071REMSYN070AAXX  10184 82198 32495 50204 10342 20226 30011 40062 84260 333 58007;
0178821980999992010111100004-01717-045400FM-12+004499999V0200701N003112200019N0002001N1+02691+02331100901ADDGA1001+999999999GF100991001001999999001001KA1240M+03541MA1999999100391MD1999999+0061REMSYN082AAXX  11004 82198 32992 00706 10269 20233 30039 40090 333 10354 29070 55101 58006;
0156821980999992010111112004-01717-045400FM-12+004499999V0200501N005110042019N0020001N1+02961+02261101041ADDGF106991061021004501001001KA1240N+02541MA1999999100531MD1999999+0001REMSYN076AAXX  11124 82198 32495 60510 10296 20226 30053 40104 86200 333 20254 58000;
0137821980999992010111118004-01717-045400FM-12+004499999V0200701N006210450019N0020001N1+03171+02221100791ADDGF105991031021004501061011MA1999999100281MD1999999+0171REMSYN070AAXX  11184 82198 32495 50712 10317 20222 30028 40079 83261 333 58017;
0178821980999992010111200004-01717-045400FM-12+004499999V0200701N002112200019N0002001N1+02681+02371100951ADDGA1001+999999999GF100991001001999999001001KA1240M+03241MA1999999100441MD1999999+0051REMSYN082AAXX  12004 82198 32992 00704 10268 20237 30044 40095 333 10324 29072 55098 58005;
0156821980999992010111212004-01717-045400FM-12+004499999V0200701N006210042019N0020001N1+03101+02291101061ADDGF105991051021004501001001KA1240N+02481MA1999999100551MD1999999+0021REMSYN076AAXX  12124 82198 32495 50712 10310 20229 30055 40106 85200 333 20248 58002;
0137821980999992010111218004-01717-045400FM-12+004499999V0200701N004112200019N0020001N1+03341+02281100641ADDGF104991041021004501001001MA1999999100131MD1999999-0151REMSYN070AAXX  12184 82198 32495 40708 10334 20228 30013 40064 84200 333 59015;
0168821980999992010111300004-01717-045400FM-12+004499999V0200501N003612200019N0002001N1+02721+02371100841ADDGF102991021011004501001001KA1240M+03451MA1999999100331MD1999999-0111REMSYN088AAXX  13004 82198 32492 20507 10272 20237 30033 40084 82100 333 10345 29070 55108 59011;
0156821980999992010111312004-01717-045400FM-12+004499999V0200901N003110042019N0020001N1+03051+02451100961ADDGF106991051021004501061001KA1240N+02541MA1999999100451MD1999999-0101REMSYN076AAXX  13124 82198 32495 60906 10305 20245 30045 40096 85260 333 20254 59010;
0201821980999992010111318004-01717-045400FM-12+004499999V0200201N004610450019N0020001N1+03131+02361100551ADDAA106000091AY151061AY221061GF105991031021004501061001MA1999999100041MD1999999-0091MW1021REMSYN082AAXX  13184 82198 21495 50209 10313 20236 30004 40055 70252 83260 333 59009 69921;EQDQ01  00002PRCP06
0168821980999992010111400004-01717-045400FM-12+004499999V0200701N002112200019N0002001N1+02731+02281100941ADDGF103991031001012501061001KA1240M+03371MA1999999100431MD1999999+0101REMSYN088AAXX  14004 82198 32692 30704 10273 20228 30043 40094 83060 333 10337 29072 55089 58010;
0192821980999992010111412004-01717-045400FM-12+004499999V0200701N002110042019N0020001N1+03001+02491100991ADDAA124000091GF107991051021004501061001KA1240N+02551MA1999999100481MD1999999+0031REMSYN082AAXX  14124 82198 22495 70704 10300 20249 30048 40099 85260 333 20255 58003 69924;EQDQ01  00002PRCP24
0137821980999992010111418004-01717-045400FM-12+004499999V0200501N003610450019N0020001N1+02941+02361100671ADDGF106991041021004501061001MA1999999100161MD1999999+0121REMSYN070AAXX  14184 82198 32495 60507 10294 20236 30016 40067 84260 333 58012;
0168821980999992010111500004-01717-045400FM-12+004499999V0200201N001010450019N0002001N1+02661+02431100981ADDGF105991031021004501041001KA1240M+03291MA1999999100471MD1999999+0041REMSYN088AAXX  15004 82198 32492 50202 10266 20243 30047 40098 83240 333 10329 29080 55042 58004;
0156821980999992010111512004-01717-045400FM-12+004499999V0201101N002110450019N0020001N1+03061+02351101011ADDGF106991041021004501061001KA1240N+02351MA1999999100501MD1999999+0021REMSYN076AAXX  15124 82198 32495 61104 10306 20235 30050 40101 84260 333 20235 58002;
0182821980999992010111518004-01717-045400FM-12+004499999V0200501N000510450019N0020001N1+02841+02311100811ADDAA106013091AY191061AY261061GF107991041031004501061001MA1999999100301MD1999999+0141MW1151REMSYN082AAXX  15184 82198 21495 70501 10284 20231 30030 40081 71596 84360 333 58014 60131;
0213821980999992010111600004-01717-045400FM-12+004499999V0200701N002112200019N0002001N1+02521+02421100921ADDAA106006191AY161061AY221061GF102991021001012501061001KA1240M+03201MA1999999100411MD1999999-0061MW1011REMSYN100AAXX  16004 82198 21692 20704 10252 20242 30041 40092 70162 82060 333 10320 29082 55036 59006 60061;
0201821980999992010111612004-01717-045400FM-12+004499999V0200501N003110450019N0020001N1+02911+02411101161ADDAA124019191AY111061AY221061GF106991041021004501061001KA1240N+02321MA1999999100651MD1999999+0151MW1041REMSYN088AAXX  16124 82198 21495 60506 10291 20241 30065 40116 70412 84260 333 20232 58015 60194;
0137821980999992010111618004-01717-045400FM-12+004499999V0203601N006710042019N0020001N1+03041+02201100821ADDGF106991061021004501001001MA1999999100311MD1999999+0011REMSYN070AAXX  16184 82198 32495 63613 10304 20220 30031 40082 86200 333 58001;
0168821980999992010111700004-01717-045400FM-12+004499999V0200501N002612200019N0002001N1+02651+02331100991ADDGF103991011011004501011011KA1240M+03151MA1999999100481MD1999999+0071REMSYN088AAXX  17004 82198 32492 30505 10265 20233 30048 40099 81111 333 10315 29076 55090 58007;
0156821980999992010111712004-01717-045400FM-12+004499999V0200501N003610450019N0020001N1+02981+02371101111ADDGF106991041021004501061001KA1240N+02471MA1999999100601MD1999999-0051REMSYN076AAXX  17124 82198 32495 60507 10298 20237 30060 40111 84260 333 20247 59005;
0137821980999992010111718004-01717-045400FM-12+004499999V0200701N005710042019N0020001N1+03291+02091100711ADDGF105991051021004501001001MA1999999100201MD1999999-0111REMSYN070AAXX  17184 82198 32495 50711 10329 20209 30020 40071 85200 333 59011;
0168821980999992010111800004-01717-045400FM-12+004499999V0200701N002112200019N0002001N1+02691+02291100901ADDGF102991011011004501011001KA1240M+03361MA1999999100391MD1999999-0091REMSYN088AAXX  18004 82198 32492 20704 10269 20229 30039 40090 81110 333 10336 29072 55106 59009;
0156821980999992010111812004-01717-045400FM-12+004499999V0200901N002612200019N0020001N1+02991+02341101001ADDGF106991041021004501001041KA1240N+02481MA1999999100491MD1999999-0111REMSYN076AAXX  18124 82198 32495 60905 10299 20234 30049 40100 84204 333 20248 59011;
0137821980999992010111818004-01717-045400FM-12+004499999V0203601N004112200019N0020001N1+03151+02331100531ADDGF106991041021004501001041MA1999999100021MD1999999-0181REMSYN070AAXX  18184 82198 32495 63608 10315 20233 30002 40053 84204 333 59018;
0168821980999992010111900004-01717-045400FM-12+004499999V0200501N002612200019N0002001N1+02711+02301100871ADDGF106991041011004501001011KA1240M+03381MA1999999100361MD1999999-0031REMSYN088AAXX  19004 82198 32492 60505 10271 20230 30036 40087 84101 333 10338 29072 55104 59003;
0175821980999992010111912004-01717-045400FM-12+004499999V0200501N003119999999N0020001N1+02961+02331100931ADDGF107991999041004501061011KA1240N+02521MA1999999100421MD1999999-0071REMSYN076AAXX  19124 82198 32495 70506 10296 20233 30042 40093 88461 333 20252 59007;EQDQ01+000082SCOTLC
0182821980999992010111918004-01717-045400FM-12+004499999V0203601N003110450019N0020001N1+02961+02421100601ADDAA106003091AY161061AY221061GF107991041021004501061061MA1999999100091MD1999999+0071MW1171REMSYN082AAXX  19184 82198 21495 73606 10296 20242 30009 40060 71762 84266 333 58007 60031;
0168821980999992010112000004-01717-045400FM-12+004499999V0200501N003111050019N0002001N1+02701+02391100951ADDGF106991011021004501011061KA1240M+03151MA1999999100441MD1999999+0081REMSYN088AAXX  20004 82198 32492 60506 10270 20239 30044 40095 81216 333 10315 29077 55070 58008;
0173821980999992010112012004-01717-045400FM-12+004499999V0200501N002112200019N0020001N1+02971+02511101121ADDAA124003091GF106991041021004501001011KA1240N+02521MA1999999100611MD1999999+0191REMSYN082AAXX  20124 82198 22495 60504 10297 20251 30061 40112 84201 333 20252 58019 60034;
0168821980999992010112100004-01717-045400FM-12+004499999V0200701N003112200019N0002001N1+02701+02391100901ADDGF102991011011004501001011KA1240M+03361MA1999999100391MD1999999-0051REMSYN088AAXX  21004 82198 32492 20706 10270 20239 30039 40090 81101 333 10336 29074 55084 59005;
0156821980999992010112112004-01717-045400FM-12+004499999V0200701N004110042019N0020001N1+02991+02341101081ADDGF106991061021004501001001KA1240N+02461MA1999999100571MD1999999-0041REMSYN076AAXX  21124 82198 32495 60708 10299 20234 30057 40108 86200 333 20246 59004;
0137821980999992010112118004-01717-045400FM-12+004499999V0200701N005110450019N0020001N1+03181+02151100781ADDGF108991041021004501011041MA1999999100271MD1999999+0051REMSYN070AAXX  21184 82198 32495 80710 10318 20215 30027 40078 84214 333 58005;
0168821980999992010112200004-01717-045400FM-12+004499999V0200501N002612200019N0002001N1+02681+02311100851ADDGF103991031001022501001041KA1240M+03371MA1999999100341MD1999999-0051REMSYN088AAXX  22004 82198 32892 30505 10268 20231 30034 40085 83004 333 10337 29071 55080 59005;
0156821980999992010112212004-01717-045400FM-12+004499999V0200701N002610450019N0020001N1+02901+02341100971ADDGF106991041051004501031001KA1240N+02511MA1999999100461MD1999999-0111REMSYN076AAXX  22124 82198 32495 60705 10290 20234 30046 40097 84530 333 20251 59011;
0137821980999992010112218004-01717-045400FM-12+004499999V0203601N005710042019N0020001N1+03061+02111100601ADDGF105991051021004501001001MA1999999100091MD1999999-0181REMSYN070AAXX  22184 82198 32495 53611 10306 20211 30009 40060 85200 333 59018;
0168821980999992010112300004-01717-045400FM-12+004499999V0200701N002612200019N0002001N1+02661+02351100721ADDGF101991011021004501001001KA1240M+03231MA1999999100211MD1999999-0131REMSYN088AAXX  23004 82198 32492 10705 10266 20235 30021 40072 81200 333 10323 29074 55088 59013;
0156821980999992010112312004-01717-045400FM-12+004499999V0200501N003610042019N0020001N1+02891+02321100841ADDGF105991051021004501001001KA1240N+02501MA1999999100331MD1999999-0131REMSYN076AAXX  23124 82198 32495 50507 10289 20232 30033 40084 85200 333 20250 59013;
0137821980999992010112318004-01717-045400FM-12+004499999V0200201N005112200019N0020001N1+03091+02161100631ADDGF104991041021004501001001MA1999999100121MD1999999+0031REMSYN070AAXX  23184 82198 32495 40210 10309 20216 30012 40063 84200 333 58003;
0168821980999992010112400004-01717-045400FM-12+004499999V0200701N002112200019N0002001N1+02701+02371100651ADDGF102991021021004501001001KA1240M+03261MA1999999100141MD1999999-0071REMSYN088AAXX  24004 82198 32492 20704 10270 20237 30014 40065 82200 333 10326 29074 55101 59007;
0156821980999992010112412004-01717-045400FM-12+004499999V0200501N004110042019N0020001N1+03891+02301100941ADDGF105991051021004501001001KA1240N+02501MA1999999100431MD1999999+0101REMSYN076AAXX  24124 82198 32495 50508 10389 20230 30043 40094 85200 333 20250 58010;
0137821980999992010112418004-01717-045400FM-12+004499999V0200201N005110042019N0020001N1+03021+02311100561ADDGF105991051021004501001001MA1999999100051MD1999999-0071REMSYN070AAXX  24184 82198 32495 50210 10302 20231 30005 40056 85200 333 59007;
0168821980999992010112500004-01717-045400FM-12+004499999V0200701N002112200019N0002001N1+02701+02411100701ADDGF102991021021008001001001KA1240M+03191MA1999999100191MD1999999+0051REMSYN088AAXX  25004 82198 32592 20704 10270 20241 30019 40070 82200 333 10319 29076 55095 58005;
0156821980999992010112512004-01717-045400FM-12+004499999V0200701N004110042019N0020001N1+03021+02181100961ADDGF106991051021004501001011KA1240N+02471MA1999999100451MD1999999+0021REMSYN076AAXX  25124 82198 32495 60708 10302 20218 30045 40096 85201 333 20247 58002;
0137821980999992010112518004-01717-045400FM-12+004499999V0200701N005112200019N0020001N1+03371+02291100581ADDGF104991041021004501001001MA1999999100071MD1999999+0021REMSYN070AAXX  25184 82198 32495 40710 10337 20229 30007 40058 84200 333 58002;
0178821980999992010112600004-01717-045400FM-12+004499999V0200701N002112200019N0002001N1+02721+02431100741ADDGA1001+999999999GF100991001001999999001001KA1240M+03451MA1999999100231MD1999999+0041REMSYN082AAXX  26004 82198 32992 00704 10272 20243 30023 40074 333 10345 29071 55107 58004;
0156821980999992010112612004-01717-045400FM-12+004499999V0200701N006710042019N0020001N1+03081+02271100881ADDGF106991061021004501001001KA1240N+02471MA1999999100371MD1999999-0081REMSYN076AAXX  26124 82198 32495 60713 10308 20227 30037 40088 86200 333 20247 59008;
0137821980999992010112618004-01717-045400FM-12+004499999V0200701N003610450019N0020001N1+03221+02341100581ADDGF105991031021004501061001MA1999999100071MD1999999+0001REMSYN070AAXX  26184 82198 32495 50707 10322 20234 30007 40058 83260 333 58000;
0178821980999992010112700004-01717-045400FM-12+004499999V0200701N002112200019N0002001N1+02721+02411100631ADDGA1001+999999999GF100991001001999999001001KA1240M+03411MA1999999100121MD1999999-0111REMSYN082AAXX  27004 82198 32992 00704 10272 20241 30012 40063 333 10341 29072 55088 59011;
0156821980999992010112712004-01717-045400FM-12+004499999V0200501N002610042019N0020001N1+03021+02391100961ADDGF106991061021004501001001KA1240N+02501MA1999999100451MD1999999+0081REMSYN076AAXX  27124 82198 32495 60505 10302 20239 30045 40096 86200 333 20250 58008;
0137821980999992010112718004-01717-045400FM-12+004499999V0200201N003610042019N0020001N1+03131+02361100661ADDGF105991051021004501001001MA1999999100151MD1999999+0071REMSYN070AAXX  27184 82198 32495 50207 10313 20236 30015 40066 85200 333 58007;
0168821980999992010112800004-01717-045400FM-12+004499999V0200501N002112200019N0002001N1+02721+02411100751ADDGF102991021011004501001001KA1240M+03261MA1999999100241MD1999999+0121REMSYN088AAXX  28004 82198 32492 20504 10272 20241 30024 40075 82100 333 10326 29075 55067 58012;
0156821980999992010112812004-01717-045400FM-12+004499999V0200201N004110450019N0020001N1+02941+02361100921ADDGF106991041021004501061001KA1240N+02531MA1999999100411MD1999999-0041REMSYN076AAXX  28124 82198 32495 60208 10294 20236 30041 40092 84260 333 20253 59004;
0182821980999992010112818004-01717-045400FM-12+004499999V0200501N003110450019N0020001N1+03021+02461100681ADDAA106006191AY161061AY221061GF105991041021004501061001MA1999999100171MD1999999+0021MW1021REMSYN082AAXX  28184 82198 21495 50506 10302 20246 30017 40068 70262 84260 333 58002 60061;
0168821980999992010112900004-01717-045400FM-12+004499999V0200501N002612200019N0002001N1+02671+02461100861ADDGF103991031001012501041001KA1240M+03161MA1999999100351MD1999999+0111REMSYN088AAXX  29004 82198 32692 30505 10267 20246 30035 40086 83040 333 10316 29080 55069 58011;
0173821980999992010112912004-01717-045400FM-12+004499999V0200901N002610450019N0020001N1+02931+02291100981ADDAA124006191GF106991041021004501061021KA1240N+02321MA1999999100471MD1999999+0061REMSYN082AAXX  29124 82198 22495 60905 10293 20229 30047 40098 84262 333 20232 58006 60064;
0137821980999992010112918004-01717-045400FM-12+004499999V0200701N004612200019N0020001N1+03321+02321100601ADDGF104991041021004501001001MA1999999100091MD1999999-0081REMSYN070AAXX  29184 82198 32495 40709 10332 20232 30009 40060 84200 333 59008;
0184821980999992010113012004-01717-045400FM-12+004499999V0200701N003110450019N0010001N1+02971+02441100911ADDAY111061AY221061GF106991041071004501061001KA1240N+02441MA1999999100401MD1999999-0071MW1041REMSYN082AAXX  30124 82198 31494 60706 10297 20244 30040 40091 70412 84760 333 20244 59007;
0182821980999992010113018004-01717-045400FM-12+004499999V0200701N005710042019N0020001N1+03181+02311100631ADDAA106003091AY161061AY221061GF106991061021004501001001MA1999999100121MD1999999+0031MW1021REMSYN082AAXX  30184 82198 21495 60711 10318 20231 30012 40063 70262 86200 333 58003 60031;
0184821980999992010120212004-01717-045400FM-12+004499999V0200701N003110450019N0020001N1+03001+02461100971ADDAY101061AY221061GF106991041021004501031011KA1240N+02491MA1999999100461MD1999999+0021MW1281REMSYN082AAXX  02124 82198 31495 60706 10300 20246 30046 40097 72802 84231 333 20249 58002;
0165821980999992010120218004-01717-045400FM-12+004499999V0203601N003110450019N0010001N1+03271+02241100621ADDAY151061AY221061GF106991031021004501011061MA1999999100111MD1999999-0071MW1041REMSYN076AAXX  02184 82198 31494 63606 10327 20224 30011 40062 70452 83216 333 59007;
0178821980999992010120300004-01717-045400FM-12+004499999V0200501N003112200019N0002001N1+02741+02431100881ADDGA1001+999999999GF100991001001999999001001KA1240M+03351MA1999999100371MD1999999-0021REMSYN082AAXX  03004 82198 32992 00506 10274 20243 30037 40088 333 10335 29074 55101 59002;
0156821980999992010120312004-01717-045400FM-12+004499999V0200501N002610042019N0010001N1+02831+02441100961ADDGF108991051071004501021001KA1240N+02541MA1999999100451MD1999999-0011REMSYN076AAXX  03124 82198 32494 80505 10283 20244 30045 40096 85720 333 20254 59001;
0178821980999992010120400004-01717-045400FM-12+004499999V0200701N002612200019N0002001N1+02661+02431100941ADDGA1001+999999999GF100991001001999999001001KA1240M+03251MA1999999100431MD1999999+0061REMSYN082AAXX  04004 82198 32992 00705 10266 20243 30043 40094 333 10325 29084 55034 58006;
0156821980999992010120412004-01717-045400FM-12+004499999V0200701N004110450019N0020001N1+03041+02451101001ADDGF106991041021004501061011KA1240N+02491MA1999999100491MD1999999+0041REMSYN076AAXX  04124 82198 32495 60708 10304 20245 30049 40100 84261 333 20249 58004;
0165821980999992010120418004-01717-045400FM-12+004499999V0200701N004612200019N0020001N1+03281+02271100681ADDAY121061AY211061GF103991031021004501001001MA1999999100171MD1999999+0021MW1041REMSYN076AAXX  04184 82198 31495 30709 10328 20227 30017 40068 70421 83200 333 58002;
0178821980999992010120500004-01717-045400FM-12+004499999V0200501N002112200019N0002001N1+02731+02411100951ADDGA1001+999999999GF100991001001999999001001KA1240M+03431MA1999999100441MD1999999+0011REMSYN082AAXX  05004 82198 32992 00504 10273 20241 30044 40095 333 10343 29074 55100 58001;
0156821980999992010120512004-01717-045400FM-12+004499999V0200501N003110450019N0040001N1+02951+02491101111ADDGF106991041021004501061001KA1240N+02571MA1999999100601MD1999999+0111REMSYN076AAXX  05124 82198 32496 60506 10295 20249 30060 40111 84260 333 20257 58011;
0182821980999992010120518004-01717-045400FM-12+004499999V0203601N003110450019N0010001N1+02861+02481100771ADDAA106004191AY191061AY261061GF107991041021004501061011MA1999999100261MD1999999+0091MW1041REMSYN082AAXX  05184 82198 21494 73606 10286 20248 30026 40077 70496 84261 333 58009 60041;
0178821980999992010120600004-01717-045400FM-12+004499999V0200701N001512200019N0002001N1+02691+02371100991ADDGA1001+999999999GF100991001001999999001001KA1240M+03181MA1999999100481MD1999999+0041REMSYN082AAXX  06004 82198 32992 00703 10269 20237 30048 40099 333 10318 29082 55068 58004;
0173821980999992010120612004-01717-045400FM-12+004499999V0200501N003110450019N0020001N1+02821+02331101131ADDAA124004191GF106991031071004501061011KA1240N+02351MA1999999100621MD1999999+0021REMSYN082AAXX  06124 82198 22495 60506 10282 20233 30062 40113 83761 333 20235 58002 60044;
0182821980999992010120618004-01717-045400FM-12+004499999V0203601N005712200019N0020001N1+03071+02241100811ADDAA106000591AY161061AY221061GF104991021021004501001041MA1999999100301MD1999999+0041MW1011REMSYN082AAXX  06184 82198 21495 43611 10307 20224 30030 40081 70162 82204 333 58004 69941;
0178821980999992010120700004-01717-045400FM-12+004499999V0200501N002112200019N0002001N1+02691+02331101011ADDGA1001+999999999GF100991001001999999001001KA1240M+03181MA1999999100501MD1999999+0021REMSYN082AAXX  07004 82198 32992 00504 10269 20233 30050 40101 333 10318 29077 55093 58002;
0173821980999992010120712004-01717-045400FM-12+004499999V0200701N004110450019N0020001N1+02941+02361101011ADDAA124000591GF106991041021004501061001KA1240N+02471MA1999999100501MD1999999-0121REMSYN082AAXX  07124 82198 22495 60708 10294 20236 30050 40101 84260 333 20247 59012 69944;
0137821980999992010120718004-01717-045400FM-12+004499999V0200201N005112200019N0020001N1+03111+02341100651ADDGF104991041021004501001001MA1999999100141MD1999999-0161REMSYN070AAXX  07184 82198 32495 40210 10311 20234 30014 40065 84200 333 59016;
0178821980999992010120800004-01717-045400FM-12+004499999V0200701N002112200019N0002001N1+02711+02371100951ADDGA1001+999999999GF100991001001999999001001KA1240M+03331MA1999999100441MD1999999-0061REMSYN082AAXX  08004 82198 32992 00704 10271 20237 30044 40095 333 10333 29075 55100 59006;
0156821980999992010120812004-01717-045400FM-12+004499999V0200501N003110450019N0020001N1+02901+02341100991ADDGF106991041021004501061011KA1240N+02531MA1999999100481MD1999999-0021REMSYN076AAXX  08124 82198 32495 60506 10290 20234 30048 40099 84261 333 20253 59002;
0137821980999992010120818004-01717-045400FM-12+004499999V0200201N004112200019N0020001N1+03081+02241100701ADDGF104991041021004501001001MA1999999100191MD1999999+0051REMSYN070AAXX  08184 82198 32495 40208 10308 20224 30019 40070 84200 333 58005;
0178821980999992010120900004-01717-045400FM-12+004499999V0200501N003112200019N0002001N1+02701+02351100841ADDGA1001+999999999GF100991001001999999001001KA1240M+03241MA1999999100331MD1999999-0111REMSYN082AAXX  09004 82198 32992 00506 10270 20235 30033 40084 333 10324 29074 55102 59011;
0156821980999992010120912004-01717-045400FM-12+004499999V0200501N004112200019N0020001N1+02961+02231100951ADDGF104991031021004501001011KA1240N+02431MA1999999100441MD1999999-0041REMSYN076AAXX  09124 82198 32495 40508 10296 20223 30044 40095 83201 333 20243 59004;
0137821980999992010120918004-01717-045400FM-12+004499999V0200201N003612200019N0020001N1+03121+02191100691ADDGF102991021021004501001001MA1999999100181MD1999999-0011REMSYN070AAXX  09184 82198 32495 20207 10312 20219 30018 40069 82200 333 59001;
0213821980999992010121000004-01717-045400FM-12+004499999V0200701N002112200019N0002001N1+02691+02371999999ADDGA1001+999999999GF100991001001999999001001KA1240M+03241MA1999999100321MD1999999-0011REMSYN082AAXX  10004 82198 32992 00704 10269 20237 30032 49008 333 10324 29072 55111 59001;EQDQ01+090083APOSLPQ02 090083APOSLP
0156821980999992010121012004-01717-045400FM-12+004499999V0200901N002612200019N0020001N1+02951+02331100861ADDGF104991041021004501001001KA1240N+02431MA1999999100351MD1999999-0091REMSYN076AAXX  10124 82198 32495 40905 10295 20233 30035 40086 84200 333 20243 59009;
0137821980999992010121018004-01717-045400FM-12+004499999V0200201N005112200019N0020001N1+03101+02231100641ADDGF104991021021004501061001MA1999999100131MD1999999-0051REMSYN070AAXX  10184 82198 32495 40210 10310 20223 30013 40064 82260 333 59005;
0178821980999992010121100004-01717-045400FM-12+004499999V0200701N002112200019N0002001N1+02661+02391100791ADDGA1001+999999999GF100991001001999999001001KA1240M+03271MA1999999100281MD1999999-0041REMSYN082AAXX  11004 82198 32992 00704 10266 20239 30028 40079 333 10327 29075 55108 59004;
0156821980999992010121112004-01717-045400FM-12+004499999V0200701N002610450019N0020001N1+03031+02291100851ADDGF105991041021004501061001KA1240N+02391MA1999999100341MD1999999-0011REMSYN076AAXX  11124 82198 32495 50705 10303 20229 30034 40085 84260 333 20239 59001;
0137821980999992010121118004-01717-045400FM-12+004499999V0200201N004612200019N0020001N1+03101+02291100601ADDGF104991031021004501061001MA1999999100091MD1999999-0041REMSYN070AAXX  11184 82198 32495 40209 10310 20229 30009 40060 83260 333 59004;
0178821980999992010121200004-01717-045400FM-12+004499999V0200501N002112200019N0002001N1+02681+02391100651ADDGA1001+999999999GF100991001001999999001001KA1240M+03281MA1999999100141MD1999999-0121REMSYN082AAXX  12004 82198 32992 00504 10268 20239 30014 40065 333 10328 29074 55099 59012;
0156821980999992010121212004-01717-045400FM-12+004499999V0200501N002610450019N0020001N1+02901+02321100691ADDGF107991041021004501061001KA1240N+02401MA1999999100181MD1999999-0161REMSYN076AAXX  12124 82198 32495 70505 10290 20232 30018 40069 84260 333 20240 59016;
0137821980999992010121218004-01717-045400FM-12+004499999V0203601N004610450019N0020001N1+02981+02281100631ADDGF107991031021004501011001MA1999999100121MD1999999+0031REMSYN070AAXX  12184 82198 32495 73609 10298 20228 30012 40063 83210 333 58003;
0168821980999992010121300004-01717-045400FM-12+004499999V0200201N002110450019N0002001N1+02721+02391100661ADDGF107991031021004501041001KA1240M+03191MA1999999100151MD1999999-0011REMSYN088AAXX  13004 82198 32492 70204 10272 20239 30015 40066 83240 333 10319 29075 55058 59001;
0201821980999992010121312004-01717-045400FM-12+004499999V0200701N002110450019N0020001N1+02591+02211100571ADDAA124039991AY161061AY221061GF108991031071004501011999KA1240N+02161MA1999999100061MD1999999-0121MW1021REMSYN088AAXX  13124 82198 21495 80704 10259 20221 30006 40057 70262 8371/ 333 20216 59012 60404;
0165821980999992010121318004-01717-045400FM-12+004499999V0200901N001010450019N0020001N1+03061+02361100481ADDAY121061AY221061GF106991041021004501061001MA1999999099971MD1999999-0151MW1041REMSYN076AAXX  13184 82198 31495 60902 10306 20236 39997 40048 70422 84260 333 59015;
0168821980999992010121400004-01717-045400FM-12+004499999V0200701N001510450019N0002001N1+02681+02481100531ADDGF107991041031004501041001KA1240M+03141MA1999999100021MD1999999-0131REMSYN088AAXX  14004 82198 32492 70703 10268 20248 30002 40053 84340 333 10314 29081 55003 59013;
0184821980999992010121412004-01717-045400FM-12+004499999V0200901N002110450019N0010001N1+02761+02441100761ADDAY111061AY221061GF107991041051004501031041KA1240N+02431MA1999999100251MD1999999+0191MW1041REMSYN082AAXX  14124 82198 31494 70904 10276 20244 30025 40076 70412 84534 333 20243 58019;
0165821980999992010121418004-01717-045400FM-12+004499999V0203601N004610450019N0010001N1+02931+02371101431ADDAY121061AY221061GF107991041031004501011041MA1999999099921MD1999999-0051MW1171REMSYN076AAXX  14184 82198 31494 73609 10293 20237 39992 40143 71722 84314 333 59005;
0156821980999992010121512004-01717-045400FM-12+004499999V0200901N002610450019N0020001N1+02951+02571100851ADDGF106991031021004501061041KA1240N+02501MA1999999100341MD1999999+0091REMSYN076AAXX  15124 82198 32495 60905 10295 20257 30034 40085 83264 333 20250 58009;
0182821980999992010121518004-01717-045400FM-12+004499999V0200901N002110450019N0020001N1+02581+02531100551ADDAA106024991AY191061AY261061GF107991041051004501011041MA1999999100041MD1999999+0121MW1171REMSYN082AAXX  15184 82198 21495 70904 10258 20253 30004 40055 71796 84514 333 58012 60251;
0213821980999992010121600004-01717-045400FM-12+004499999V0202301N002110450019N0002001N1+02481+02341100821ADDAA106000021AY151061AY221061GF108991041071004501021999KA1240M+03091MA1999999100311MD1999999+0071MW1511REMSYN100AAXX  16004 82198 21492 82304 10248 20234 30031 40082 75152 8472/ 333 10309 29090 55018 58007 69911;
0201821980999992010121612004-01717-045400FM-12+004499999V0200901N002110450019N0010001N1+02681+02391100981ADDAA124024991AY141061AY221061GF108991041021004501031011KA1240N+02321MA1999999100471MD1999999+0131MW1281REMSYN088AAXX  16124 82198 21494 80904 10268 20239 30047 40098 72842 84231 333 20232 58013 60254;
0137821980999992010121618004-01717-045400FM-12+004499999V0201801N002110450019N0020001N1+02951+02371100681ADDGF108991041021004501011041MA1999999100171MD1999999+0131REMSYN070AAXX  16184 82198 32495 81804 10295 20237 30017 40068 84214 333 58013;
0168821980999992010121700004-01717-045400FM-12+004499999V0200501N002610450019N0002001N1+02621+02331101001ADDGF106991031011004501031001KA1240M+03181MA1999999100491MD1999999+0181REMSYN088AAXX  17004 82198 32492 60505 10262 20233 30049 40100 83130 333 10318 29080 55010 58018;
0156821980999992010121712004-01717-045400FM-12+004499999V0203601N002610450019N0020001N1+02871+02291100961ADDGF106991031021004501041061KA1240N+02351MA1999999100451MD1999999-0021REMSYN076AAXX  17124 82198 32495 63605 10287 20229 30045 40096 83246 333 20235 59002;
0137821980999992010121718004-01717-045400FM-12+004499999V0203601N002610450019N0020001N1+02871+02201100621ADDGF108991041021004501011011MA1999999100111MD1999999-0061REMSYN070AAXX  17184 82198 32495 83605 10287 20220 30011 40062 84211 333 59006;
0168821980999992010121800004-01717-045400FM-12+004499999V0209999C000010450019N0002001N1+02651+02331100941ADDGF107991041011004501031011KA1240M+03161MA1999999100431MD1999999-0061REMSYN088AAXX  18004 82198 32492 70000 10265 20233 30043 40094 84131 333 10316 29078 55068 59006;
0156821980999992010121812004-01717-045400FM-12+004499999V0201801N003610450019N0010001N1+02501+02271101051ADDGF108991041071004501021999KA1240N+02221MA1999999100541MD1999999+0091REMSYN076AAXX  18124 82198 32494 81807 10250 20227 30054 40105 8472/ 333 20222 58009;
0165821980999992010121818004-01717-045400FM-12+004499999V0200901N001510450019N0020001N1+03081+02241100601ADDAY121061AY221061GF106991021031004501041091MA1999999100091MD1999999-0021MW1171REMSYN076AAXX  18184 82198 31495 60903 10308 20224 30009 40060 71722 82349 333 59002;
0173821980999992010121912004-01717-045400FM-12+004499999V0201401N002110450019N0020001N1+02791+02461100921ADDAA124001091GF107991041021004501041061KA1240N+02231MA1999999100411MD1999999-0131REMSYN082AAXX  19124 82198 22495 71404 10279 20246 30041 40092 84246 333 20223 59013 60014;
0182821980999992010121918004-01717-045400FM-12+004499999V0203501N002110450019N0010001N1+02421+02331100741ADDAA106018091AY191061AY261061GF107991031071004501041011MA1999999100231MD1999999-0141MW1151REMSYN082AAXX  19184 82198 21494 73504 10242 20233 30023 40074 71596 83741 333 59014 60181;
0168821980999992010122000004-01717-045400FM-12+004499999V0200501N002110450019N0002001N1+02601+02401100931ADDGF107991041011004501031001KA1240M+03091MA1999999100421MD1999999+0171REMSYN088AAXX  20004 82198 32492 70504 10260 20240 30042 40093 84130 333 10309 29089 55032 58017;
0173821980999992010122012004-01717-045400FM-12+004499999V0200901N004610450019N0020001N1+02681+02181101091ADDAA124018091GF106991041021004501061011KA1240N+02371MA1999999100571MD1999999+0161REMSYN082AAXX  20124 82198 22495 60909 10268 20218 30057 40109 84261 333 20237 58016 60184;
0182821980999992010122018004-01717-045400FM-12+004499999V0200901N008210450019N0020001N1+03171+02091100811ADDAA106000891AY161061AY221061GF105991041021004501011001MA1999999100301MD1999999+0071MW1011REMSYN082AAXX  20184 82198 21495 50916 10317 20209 30030 40081 70162 84210 333 58007 69981;
0168821980999992010122100004-01717-045400FM-12+004499999V0200901N002112200019N0002001N1+02661+02371100991ADDGF101991011001017501011001KA1240M+03231MA1999999100481MD1999999+0061REMSYN088AAXX  21004 82198 32792 10904 10266 20237 30048 40099 81010 333 10323 29074 55108 58006;
0173821980999992010122112004-01717-045400FM-12+004499999V0200901N007210450019N0020001N1+03001+02321101011ADDAA124000891GF106991041021004501061001KA1240N+02481MA1999999100501MD1999999-0071REMSYN082AAXX  21124 82198 22495 60914 10300 20232 30050 40101 84260 333 20248 59007 69984;
0182821980999992010122118004-01717-045400FM-12+004499999V0200901N004610042019N0020001N1+02681+02391100791ADDAA106017091AY191061AY261061GF108991051021004501041999MA1999999100281MD1999999-0021MW1021REMSYN082AAXX  21184 82198 21495 80909 10268 20239 30028 40079 70296 8524/ 333 59002 60171;
0168821980999992010122200004-01717-045400FM-12+004499999V0200901N001510450019N0002001N1+02631+02411100891ADDGF106991021011004501061001KA1240M+03101MA1999999100381MD1999999-0101REMSYN088AAXX  22004 82198 32492 60903 10263 20241 30038 40089 82160 333 10310 29082 55043 59010;
0173821980999992010122212004-01717-045400FM-12+004499999V0201101N004110042019N0020001N1+02901+02341101041ADDAA124017091GF107991051021004501041001KA1240N+02431MA1999999100531MD1999999+0031REMSYN082AAXX  22124 82198 22495 71108 10290 20234 30053 40104 85240 333 20243 58003 60174;
0137821980999992010122218004-01717-045400FM-12+004499999V0200901N005110450019N0020001N1+03241+02221100641ADDGF105991031021004501061011MA1999999100131MD1999999-0151REMSYN070AAXX  22184 82198 32495 50910 10324 20222 30013 40064 83261 333 59015;
0168821980999992010122300004-01717-045400FM-12+004499999V0200501N002112200019N0002001N1+02681+02461100781ADDGF102991021011004501001001KA1240M+03291MA1999999100271MD1999999-0111REMSYN088AAXX  23004 82198 32492 20504 10268 20246 30027 40078 82100 333 10329 29076 55090 59011;
0156821980999992010122312004-01717-045400FM-12+004499999V0200501N004110450019N0020001N1+02841+02501100861ADDGF107991041031004501041001KA1240N+02521MA1999999100351MD1999999-0181REMSYN076AAXX  23124 82198 32495 70508 10284 20250 30035 40086 84340 333 20252 59018;
0182821980999992010122318004-01717-045400FM-12+004499999V0200201N002610042019N0010001N1+02741+02451100641ADDAA106001091AY161061AY221061GF108991051071004501021999MA1999999100131MD1999999+0001MW1151REMSYN082AAXX  23184 82198 21494 80205 10274 20245 30013 40064 71562 8572/ 333 58000 60011;
0213821980999992010122400004-01717-045400FM-12+004499999V0200701N002110450019N0002001N1+02551+02441100821ADDAA106000391AY151061AY221061GF106991041031004501041001KA1240M+03101MA1999999100311MD1999999+0041MW1021REMSYN100AAXX  24004 82198 21492 60704 10255 20244 30031 40082 70252 84340 333 10310 29088 55028 58004 69931;
0173821980999992010122412004-01717-045400FM-12+004499999V0200701N002610450019N0020001N1+02871+02461100851ADDAA124001091GF106991041021004501061011KA1240N+02421MA1999999100341MD1999999-0011REMSYN082AAXX  24124 82198 22495 60705 10287 20246 30034 40085 84261 333 20242 59001 60014;
0182821980999992010122418004-01717-045400FM-12+004499999V0200201N004610450019N0020001N1+02911+02371100641ADDAA106003091AY161061AY221061GF108991031031004501041021MA1999999100131MD1999999+0001MW1151REMSYN082AAXX  24184 82198 21495 80209 10291 20237 30013 40064 71562 83342 333 58000 60031;
0213821980999992010122500004-01717-045400FM-12+004499999V0200701N002110450019N0002001N1+02541+02441100871ADDAA106009991AY161061AY221061GF106991031031004501041001KA1240M+03051MA1999999100361MD1999999+0051MW1021REMSYN100AAXX  25004 82198 21492 60704 10254 20244 30036 40087 70262 83340 333 10305 29085 55055 58005 60101;
0173821980999992010122512004-01717-045400FM-12+004499999V0200901N002612200019N0020001N1+02861+02521100951ADDAA124013091GF104991031021004501061001KA1240N+02261MA1999999100441MD1999999+0101REMSYN082AAXX  25124 82198 22495 40905 10286 20252 30044 40095 83260 333 20226 58010 60134;
0182821980999992010122518004-01717-045400FM-12+004499999V0200201N003610450019N0020001N1+02871+02441100641ADDAA106000591AY151061AY221061GF105991031031004501061001MA1999999100131MD1999999+0001MW1021REMSYN082AAXX  25184 82198 21495 50207 10287 20244 30013 40064 70252 83360 333 58000 69951;
0178821980999992010122600004-01717-045400FM-12+004499999V0200701N002112200019N0002001N1+02621+02421100841ADDGA1001+999999999GF100991001001999999001001KA1240M+03081MA1999999100331MD1999999-0031REMSYN082AAXX  26004 82198 32992 00704 10262 20242 30033 40084 333 10308 29084 55068 59003;
0173821980999992010122612004-01717-045400FM-12+004499999V0200901N004612200019N0020001N1+03011+02441100921ADDAA124000591GF105991041021004501001011KA1240N+02431MA1999999100411MD1999999-0031REMSYN082AAXX  26124 82198 22495 50909 10301 20244 30041 40092 84201 333 20243 59003 69954;
0182821980999992010122618004-01717-045400FM-12+004499999V0200201N004112200019N0020001N1+03021+02501100571ADDAA106001091AY151061AY221061GF103991031021004501001001MA1999999100061MD1999999-0071MW1021REMSYN082AAXX  26184 82198 21495 30208 10302 20250 30006 40057 70252 83200 333 59007 60011;
0178821980999992010122700004-01717-045400FM-12+004499999V0200701N002112200019N0002001N1+02631+02411100771ADDGA1001+999999999GF100991001001999999001001KA1240M+03091MA1999999100261MD1999999-0071REMSYN082AAXX  27004 82198 32992 00704 10263 20241 30026 40077 333 10309 29080 55086 59007;
0173821980999992010122712004-01717-045400FM-12+004499999V0200501N002610450019N0020001N1+02801+02311100811ADDAA124001091GF105991041021004501061001KA1240N+02441MA1999999100301MD1999999-0111REMSYN082AAXX  27124 82198 22495 50505 10280 20231 30030 40081 84260 333 20244 59011 60014;
0137821980999992010122718004-01717-045400FM-12+004499999V0200201N003612200019N0020001N1+03011+02371100641ADDGF104991041021004501001001MA1999999100131MD1999999+0071REMSYN070AAXX  27184 82198 32495 40207 10301 20237 30013 40064 84200 333 58007;
0178821980999992010122800004-01717-045400FM-12+004499999V0200701N002612200019N0002001N1+02631+02331100591ADDGA1001+999999999GF100991001001999999001001KA1240M+03161MA1999999100081MD1999999-0181REMSYN082AAXX  28004 82198 32992 00705 10263 20233 30008 40059 333 10316 29078 55096 59018;
0156821980999992010122812004-01717-045400FM-12+004499999V0200501N002610450019N0020001N1+02861+02351100911ADDGF105991031021004501061001KA1240N+02481MA1999999100401MD1999999+0101REMSYN076AAXX  28124 82198 32495 50505 10286 20235 30040 40091 83260 333 20248 58010;
0137821980999992010122818004-01717-045400FM-12+004499999V0203601N005712200019N0020001N1+03011+02291100581ADDGF104991021021004501011011MA1999999100071MD1999999-0061REMSYN070AAXX  28184 82198 32495 43611 10301 20229 30007 40058 82211 333 59006;
0178821980999992010122900004-01717-045400FM-12+004499999V0200501N001012200019N0002001N1+02631+02211100851ADDGA1001+999999999GF100991001001999999001001KA1240M+03101MA1999999100341MD1999999+0261REMSYN082AAXX  29004 82198 32992 00502 10263 20221 30034 40085 333 10310 29074 55097 58026;
0156821980999992010122912004-01717-045400FM-12+004499999V0203601N003112200019N0020001N1+02881+02321100861ADDGF104991031021004501001011KA1240N+02321MA1999999100351MD1999999-0051REMSYN076AAXX  29124 82198 32495 43606 10288 20232 30035 40086 83201 333 20232 59005;
0165821980999992010122918004-01717-045400FM-12+004499999V0203601N003610042019N0010001N1+02851+02251100541ADDAY191061AY221061GF108991051071004501061011MA1999999100031MD1999999-0041MW1041REMSYN076AAXX  29184 82198 31494 83607 10285 20225 30003 40054 70492 85761 333 59004;
0178821980999992010123000004-01717-045400FM-12+004499999V0200501N002112200019N0002001N1+02641+02371100771ADDGA1001+999999999GF100991001001999999001001KA1240M+03251MA1999999100261MD1999999-0081REMSYN082AAXX  30004 82198 32992 00504 10264 20237 30026 40077 333 10325 29078 55076 59008;
0184821980999992010123012004-01717-045400FM-12+004499999V0203501N001510042019N0010001N1+02751+02461100891ADDAY141061AY221061GF106991061021004501001001KA1240N+02281MA1999999100381MD1999999+0031MW1041REMSYN082AAXX  30124 82198 31494 63503 10275 20246 30038 40089 70442 86200 333 20228 58003;
0137821980999992010123018004-01717-045400FM-12+004499999V0203601N004610450019N0020001N1+02871+02271100611ADDGF107991041071004501041061MA1999999100101MD1999999+0071REMSYN070AAXX  30184 82198 32495 73609 10287 20227 30010 40061 84746 333 58007;
0178821980999992010123100004-01717-045400FM-12+004499999V0200501N002112200019N0002001N1+02661+02371100881ADDGA1001+999999999GF100991001001999999001001KA1240M+03201MA1999999100371MD1999999+0111REMSYN082AAXX  31004 82198 32992 00504 10266 20237 30037 40088 333 10320 29081 55074 58011;
0156821980999992010123112004-01717-045400FM-12+004499999V0200501N002610450019N0010001N1+02761+02341100761ADDGF108991041021004501011061KA1240N+02541MA1999999100251MD1999999-0131REMSYN076AAXX  31124 82198 32494 80505 10276 20234 30025 40076 84216 333 20254 59013;
0137821980999992010123118004-01717-045400FM-12+004499999V0203601N003110450019N0020001N1+02991+02341101491ADDGF106991031021004501011041MA1999999099981MD1999999-0121REMSYN070AAXX  31184 82198 32495 63606 10299 20234 39998 40149 83214 333 59012;
