0168823920999992010010100004-03700-040350FM-12+008399999V0200501N003112200019N0040001N1+02701+02181101101ADDGF104991031041004501031001KA1240M+03661MA1999999100081MD1999999+0031REMSYN088AAXX  01004 82392 32496 40506 10270 20218 30008 40110 83430 333 10366 29060 55077 58003;
0156823920999992010010112004-03700-040350FM-12+008399999V0200501N004110450019N0500001N1+02801+02001101221ADDGF108991031051004501021999KA1240N+02471MA1999999100201MD1999999+0001REMSYN076AAXX  01124 82392 32499 80508 10280 20200 30020 40122 8352/ 333 20247 58000;
0137823920999992010010118004-03700-040350FM-12+008399999V0200501N002610450019N0500001N1+03101+01771100871ADDGF108991031051004501021999MA1999999099851MD1999999+0101REMSYN070AAXX  01184 82392 32499 80505 10310 20177 39985 40087 8352/ 333 58010;
0168823920999992010010200004-03700-040350FM-12+008399999V0203601N001010450019N0040001N1+02601+02101101171ADDGF108991041051004501011999KA1240M+03181MA1999999100151MD1999999+0071REMSYN088AAXX  02004 82392 32496 83602 10260 20210 30015 40117 8451/ 333 10318 29064 55001 58007;
0201823920999992010010212004-03700-040350FM-12+008399999V0200901N000510042019N0500001N1+02721+02241101181ADDAA124001091AY151061AY251061GF107991051021004501031001KA1240N+02331MA1999999100161MD1999999-0041MW1021REMSYN088AAXX  02124 82392 21499 70901 10272 20224 30016 40118 70255 85230 333 20233 59004 69994;
0137823920999992010010218004-03700-040350FM-12+008399999V0203601N003110042019N0500001N1+03031+02091100761ADDGF107991051041004501021001MA1999999099741MD1999999-0111REMSYN070AAXX  02184 82392 32499 73606 10303 20209 39974 40076 85420 333 59011;
0168823920999992010010300004-03700-040350FM-12+008399999V0201801N000510042019N0040001N1+02481+02251101111ADDGF108991061041004501021999KA1240M+03341MA1999999100091MD1999999-0061REMSYN088AAXX  03004 82392 32496 81801 10248 20225 30009 40111 8642/ 333 10334 29077 55038 59006;
0201823920999992010010312004-03700-040350FM-12+008399999V0203601N000510450019N0500001N1+02581+02311101261ADDAA124001091AY121061AY221061GF108991041061004501021999KA1240N+02201MA1999999100231MD1999999+0071MW1611REMSYN088AAXX  03124 82392 21499 83601 10258 20231 30023 40126 76122 8462/ 333 20220 58007 60014;
0182823920999992010010318004-03700-040350FM-12+008399999V0200901N002110450019N0500001N1+02481+02271101021ADDAA106000591AY151061AY221061GF108991031071004501021999MA1999999099991MD1999999+0251MW1021REMSYN082AAXX  03184 82392 21499 80904 10248 20227 39999 40102 70252 8372/ 333 58025 69951;
0178823920999992010010400004-03700-040350FM-12+008399999V0200901N000512200019N0040001N1+02401+02231101071ADDGA1001+999999999GF100991001001999999001001KA1240M+03001MA1999999100041MD1999999-0051REMSYN082AAXX  04004 82392 32996 00901 10240 20223 30004 40107 333 10300 29088 55106 59005;
0173823920999992010010412004-03700-040350FM-12+008399999V0203601N002612200019N0500001N1+02861+02011101231ADDAA124000591GF104991041021004501001001KA1240N+02201MA1999999100211MD1999999-0021REMSYN082AAXX  04124 82392 22499 43605 10286 20201 30021 40123 84200 333 20220 59002 69954;
0156823920999992010010418004-03700-040350FM-12+008399999V0200501N005110042019N0500001N1+03381+01871100851ADDGF106991999041004501001001MA1999999099831MD1999999-0161REMSYN070AAXX  04184 82392 32499 60510 10338 20187 39983 40085 85400 333 59016;EQDQ01+000052SCOTLC
0178823920999992010010500004-03700-040350FM-12+008399999V0203601N001512200019N0040001N1+02671+02111101131ADDGA1001+999999999GF100991001001999999001001KA1240M+03501MA1999999100111MD1999999+0071REMSYN082AAXX  05004 82392 32996 03603 10267 20211 30011 40113 333 10350 29061 55078 58007;
0156823920999992010010512004-03700-040350FM-12+008399999V0201801N001012200019N0500001N1+02671+02091101201ADDGF103991021011004501051001KA1240N+02121MA1999999100181MD1999999-0031REMSYN076AAXX  05124 82392 32499 31802 10267 20209 30018 40120 82150 333 20212 59003;
0137823920999992010010518004-03700-040350FM-12+008399999V0200501N000512200019N0500001N1+03561+01531100681ADDGF104991041021004501001001MA1999999099671MD1999999-0161REMSYN070AAXX  05184 82392 32499 40501 10356 20153 39967 40068 84200 333 59016;
0178823920999992010010600004-03700-040350FM-12+008399999V0200501N001512200019N0040001N1+02731+02071100921ADDGA1001+999999999GF100991001001999999001001KA1240M+03661MA1999999099901MD1999999-0211REMSYN082AAXX  06004 82392 32996 00503 10273 20207 39990 40092 333 10366 29059 55068 59021;
0156823920999992010010612004-03700-040350FM-12+008399999V0200501N001012200019N0500001N1+02891+02041101081ADDGF104991041021004501001001KA1240N+02101MA1999999100061MD1999999-0121REMSYN076AAXX  06124 82392 32499 40502 10289 20204 30006 40108 84200 333 20210 59012;
0137823920999992010010618004-03700-040350FM-12+008399999V0200901N004112200019N0500001N1+03661+01511100571ADDGF104991031021004501031001MA1999999099571MD1999999-0101REMSYN070AAXX  06184 82392 32499 40908 10366 20151 39957 40057 83230 333 59010;
0178823920999992010010700004-03700-040350FM-12+008399999V0203601N000512200019N0040001N1+02761+02071100861ADDGA1001+999999999GF100991001001999999001001KA1240M+03761MA1999999099841MD1999999-0061REMSYN082AAXX  07004 82392 32996 03601 10276 20207 39984 40086 333 10376 29055 55102 59006;
0156823920999992010010712004-03700-040350FM-12+008399999V0200901N002110450019N0500001N1+02811+02171101081ADDGF107991031021004501031001KA1240N+02351MA1999999100061MD1999999+0001REMSYN076AAXX  07124 82392 32499 70904 10281 20217 30006 40108 83230 333 20235 58000;
0137823920999992010010718004-03700-040350FM-12+008399999V0200901N000510450019N0500001N1+03431+01801100711ADDGF107991041061004501031001MA1999999099701MD1999999+0131REMSYN070AAXX  07184 82392 32499 70901 10343 20180 39970 40071 84630 333 58013;
0168823920999992010010800004-03700-040350FM-12+008399999V0200501N004112200019N0040001N1+02741+02211101041ADDGF102991021011008001001001KA1240M+03481MA1999999100021MD1999999+0181REMSYN088AAXX  08004 82392 32596 20508 10274 20221 30002 40104 82100 333 10348 29063 55016 58018;
0156823920999992010010812004-03700-040350FM-12+008399999V0200501N003110450019N0500001N1+02921+02061101081ADDGF106991031021004501031001KA1240N+02401MA1999999100061MD1999999+0001REMSYN076AAXX  08124 82392 32499 60506 10292 20206 30006 40108 83230 333 20240 58000;
0137823920999992010010818004-03700-040350FM-12+008399999V0201401N001010450019N0500001N1+03071+01961100761ADDGF107991031061004501031001MA1999999099741MD1999999+0041REMSYN070AAXX  08184 82392 32499 71402 10307 20196 39974 40076 83630 333 58004;
0168823920999992010010900004-03700-040350FM-12+008399999V0200501N002110042019N0040001N1+02921+02061101061ADDGF106991051051004501031001KA1240M+03541MA1999999100051MD1999999+0031REMSYN088AAXX  09004 82392 32496 60504 10292 20206 30005 40106 85530 333 10354 29058 55042 58003;
0156823920999992010010912004-03700-040350FM-12+008399999V0200901N001010450019N0500001N1+02821+02001101131ADDGF106991031021004501031001KA1240N+02301MA1999999100121MD1999999+0061REMSYN076AAXX  09124 82392 32499 60902 10282 20200 30012 40113 83230 333 20230 58006;
0182823920999992010010918004-03700-040350FM-12+008399999V0203601N000510450019N0500001N1+02661+02661100811ADDAA106007191AY121061AY221061GF108991041061004501021999MA1999999099781MD1999999+0041MW1631REMSYN082AAXX  09184 82392 21499 83601 10266 20266 39978 40081 76322 8462/ 333 58004 60071;
0168823920999992010011000004-03700-040350FM-12+008399999V0201801N002610450019N0040001N1+02471+02271101071ADDGF108991041071004501021999KA1240M+03441MA1999999100051MD1999999+0001REMSYN088AAXX  10004 82392 32496 81805 10247 20227 30005 40107 8472/ 333 10344 29080 55015 58000;
0201823920999992010011012004-03700-040350FM-12+008399999V0202701N000510042019N0500001N1+02351+02091101131ADDAA124009991AY151061AY251061GF108991051051004501021999KA1240N+02151MA1999999100101MD1999999-0051MW1021REMSYN088AAXX  10124 82392 21499 82701 10235 20209 30010 40113 70255 8552/ 333 20215 59005 60104;
0137823920999992010011018004-03700-040350FM-12+008399999V0201801N001010042019N0500001N1+03031+02261100801ADDGF108991051051004501011999MA1999999099781MD1999999+0001REMSYN070AAXX  10184 82392 32499 81802 10303 20226 39978 40080 8551/ 333 58000;
0213823920999992010011100004-03700-040350FM-12+008399999V0209999C000010450019N0040001N1+02531+02401101041ADDAA106000021AY101061AY221061GF108991041051004501021001KA1240M+02981MA1999999100011MD1999999-0041MW1201REMSYN100AAXX  11004 82392 21496 80000 10253 20240 30001 40104 72002 84520 333 10298 29083 55008 59004 69921;
0201823920999992010011112004-03700-040350FM-12+008399999V0200901N001010450019N0500001N1+02781+02181101161ADDAA124000591AY151061AY251061GF106991031021004501031001KA1240N+02311MA1999999100141MD1999999+0041MW1021REMSYN088AAXX  11124 82392 21499 60902 10278 20218 30014 40116 70255 83230 333 20231 58004 69954;
0137823920999992010011118004-03700-040350FM-12+008399999V0200901N001012200019N0500001N1+03521+01961100751ADDGF103991031021004501001001MA1999999099741MD1999999-0041REMSYN070AAXX  11184 82392 32499 30902 10352 20196 39974 40075 83200 333 59004;
0178823920999992010011200004-03700-040350FM-12+008399999V0200501N001512200019N0040001N1+02731+02121101041ADDGA1001+999999999GF100991001001999999001001KA1240M+03701MA1999999100021MD1999999+0011REMSYN082AAXX  12004 82392 32996 00503 10273 20212 30002 40104 333 10370 29062 55091 58001;
0156823920999992010011212004-03700-040350FM-12+008399999V0202301N000512200019N0500001N1+02781+02061101221ADDGF104991041021004501001001KA1240N+02221MA1999999100201MD1999999+0061REMSYN076AAXX  12124 82392 32499 42301 10278 20206 30020 40122 84200 333 20222 58006;
0137823920999992010011218004-03700-040350FM-12+008399999V0200501N001010450019N0500001N1+03431+01841100741ADDGF106991021061004501031011MA1999999099731MD1999999-0011REMSYN070AAXX  12184 82392 32499 60502 10343 20184 39973 40074 82631 333 59001;
0178823920999992010011300004-03700-040350FM-12+008399999V0203601N001512200019N0040001N1+02711+02191101171ADDGA1001+999999999GF100991001001999999001001KA1240M+03601MA1999999100081MD1999999+0061REMSYN082AAXX  13004 82392 32496 03603 10271 20219 30008 40117 333 10360 29063 55076 58006;
0156823920999992010011312004-03700-040350FM-12+008399999V0200901N004612200019N0500001N1+02941+02051101281ADDGF104991031021004501001021KA1240N+02161MA1999999100261MD1999999+0061REMSYN076AAXX  13124 82392 32499 40909 10294 20205 30026 40128 83202 333 20216 58006;
0137823920999992010011318004-03700-040350FM-12+008399999V0200901N003110042019N0500001N1+03541+01521100841ADDGF106991051041004501031001MA1999999099831MD1999999+0101REMSYN070AAXX  13184 82392 32499 60906 10354 20152 39983 40084 85430 333 58010;
0168823920999992010011400004-03700-040350FM-12+008399999V0203601N002112200019N0040001N1+02781+02131101111ADDGF102991021021004501001001KA1240M+03701MA1999999100101MD1999999+0021REMSYN088AAXX  14004 82392 32496 23604 10278 20213 30010 40111 82200 333 10370 29056 55083 58002;
0156823920999992010011412004-03700-040350FM-12+008399999V0201801N000510450019N0500001N1+02831+02171101331ADDGF106991021021004501031001KA1240N+02401MA1999999100311MD1999999+0051REMSYN076AAXX  14124 82392 32499 61801 10283 20217 30031 40133 82230 333 20240 58005;
0137823920999992010011418004-03700-040350FM-12+008399999V0200901N000510450019N0500001N1+03481+01841100861ADDGF105991021041004501031001MA1999999099851MD1999999+0031REMSYN070AAXX  14184 82392 32499 50901 10348 20184 39985 40086 82430 333 58003;
0178823920999992010011500004-03700-040350FM-12+008399999V0203601N005112200019N0040001N1+02801+02081101141ADDGA1001+999999999GF100991001001999999001001KA1240M+03601MA1999999100121MD1999999+0021REMSYN082AAXX  15004 82392 32996 03610 10280 20208 30012 40114 333 10360 29059 55051 58002;
0156823920999992010011512004-03700-040350FM-12+008399999V0200501N004112200019N0500001N1+02941+01851101311ADDGF104991031021004501001011KA1240N+02301MA1999999100301MD1999999-0011REMSYN076AAXX  15124 82392 32499 40508 10294 20185 30030 40131 83201 333 20230 59001;
0137823920999992010011518004-03700-040350FM-12+008399999V0200901N001510450019N0500001N1+03491+01861100891ADDGF105991041021004501031001MA1999999099881MD1999999+0031REMSYN070AAXX  15184 82392 32499 50903 10349 20186 39988 40089 84230 333 58003;
0178823920999992010011600004-03700-040350FM-12+008399999V0200501N004612200019N0040001N1+02741+02171101241ADDGA1001+999999999GF100991001001999999001001KA1240M+03661MA1999999100221MD1999999+0101REMSYN082AAXX  16004 82392 32996 00509 10274 20217 30022 40124 333 10366 29058 55088 58010;
0156823920999992010011612004-03700-040350FM-12+008399999V0200501N001010450019N0500001N1+02791+02221101371ADDGF106991041041004501031001KA1240N+02211MA1999999100351MD1999999+0051REMSYN076AAXX  16124 82392 32499 60502 10279 20222 30035 40137 84430 333 20221 58005;
0137823920999992010011618004-03700-040350FM-12+008399999V0200501N001010450019N0500001N1+03501+01811100861ADDGF106991031021004501031001MA1999999099851MD1999999-0031REMSYN070AAXX  16184 82392 32499 60502 10350 20181 39985 40086 83230 333 59003;
0178823920999992010011700004-03700-040350FM-12+008399999V0203601N003112200019N0040001N1+02771+02061101211ADDGA1001+999999999GF100991001001999999001001KA1240M+03681MA1999999100191MD1999999-0031REMSYN082AAXX  17004 82392 32996 03606 10277 20206 30019 40121 333 10368 29060 55070 59003;
0175823920999992010011712004-03700-040350FM-12+008399999V0200901N004619999999N0500001N1+02941+01911101311ADDGF105991999021004501001001KA1240N+02221MA1999999100301MD1999999-0051REMSYN076AAXX  17124 82392 32499 50909 10294 20191 30030 40131 84200 333 20222 59005;EQDQ01+000042SCOTLC
0137823920999992010011718004-03700-040350FM-12+008399999V0200901N004112200019N0500001N1+03681+01641100861ADDGF103991031021004501001001MA1999999099851MD1999999+0001REMSYN070AAXX  17184 82392 32499 30908 10368 20164 39985 40086 83200 333 58000;
0178823920999992010011800004-03700-040350FM-12+008399999V0200501N003612200019N0040001N1+02801+02001101211ADDGA1001+999999999GF100991001001999999001001KA1240M+03761MA1999999100201MD1999999+0011REMSYN082AAXX  18004 82392 32996 00507 10280 20200 30020 40121 333 10376 29052 55101 58001;
0156823920999992010011812004-03700-040350FM-12+008399999V0200901N003110450019N0500001N1+02901+02041101311ADDGF106991041021004501031001KA1240N+02301MA1999999100301MD1999999+0001REMSYN076AAXX  18124 82392 32499 60906 10290 20204 30030 40131 84230 333 20230 58000;
0137823920999992010011818004-03700-040350FM-12+008399999V0203201N000510042019N0500001N1+03541+01711100821ADDGF106991051041004501031001MA1999999099811MD1999999-0041REMSYN070AAXX  18184 82392 32499 63201 10354 20171 39981 40082 85430 333 59004;
0168823920999992010011900004-03700-040350FM-12+008399999V0203601N002612200019N0040001N1+02831+02191101341ADDGF104991041021004501001001KA1240M+03701MA1999999100301MD1999999-0071REMSYN088AAXX  19004 82392 32496 43605 10283 20219 30030 40134 84200 333 10370 29058 55072 59007;
0175823920999992010011912004-03700-040350FM-12+008399999V0200501N002119999999N0500001N1+02881+01971101171ADDGF105991999021004501001001KA1240N+02451MA1999999100161MD1999999-0141REMSYN076AAXX  19124 82392 32499 50504 10288 20197 30016 40117 84200 333 20245 59014;EQDQ01+000042SCOTLC
0137823920999992010011918004-03700-040350FM-12+008399999V0202701N000510450019N0500001N1+03341+01981100731ADDGF106991041061004501031001MA1999999099721MD1999999-0091REMSYN070AAXX  19184 82392 32499 62701 10334 20198 39972 40073 84630 333 59009;
0187823920999992010012000004-03700-040350FM-12+008399999V0203601N001019999999N0040001N1+02531+02151101091ADDGF106991999021008001001001KA1240M+03541MA1999999100071MD1999999-0061REMSYN088AAXX  20004 82392 32596 63602 10253 20215 30007 40109 83200 333 10354 29066 55060 59006;EQDQ01+000032SCOTLC
0201823920999992010012012004-03700-040350FM-12+008399999V0203601N001010450019N0500001N1+02221+02151101221ADDAA124052191AY161061AY261061GF108991031071004501021999KA1240N+02061MA1999999100191MD1999999+0031MW1021REMSYN088AAXX  20124 82392 21499 83602 10222 20215 30019 40122 70266 8372/ 333 20206 58003 60524;
0137823920999992010012018004-03700-040350FM-12+008399999V0203601N002612200019N0500001N1+03181+02221100821ADDGF104991041041004501001001MA1999999099811MD1999999+0091REMSYN070AAXX  20184 82392 32499 43605 10318 20222 39981 40082 84400 333 58009;
0213823920999992010012100004-03700-040350FM-12+008399999V0203601N001510450019N0040001N1+02691+02351101091ADDAA106005191AY161061AY261061GF106991031041004501021001KA1240M+03281MA1999999100061MD1999999-0011MW1021REMSYN100AAXX  21004 82392 21496 63603 10269 20235 30006 40109 70266 83420 333 10328 29079 55053 59001 60051;
0173823920999992010012112004-03700-040350FM-12+008399999V0203601N000510042019N0500001N1+02811+02241101221ADDAA124005191GF106991061021004501001001KA1240N+02221MA1999999100201MD1999999+0011REMSYN082AAXX  21124 82392 22499 63601 10281 20224 30020 40122 86200 333 20222 58001 60054;
0137823920999992010012118004-03700-040350FM-12+008399999V0200501N001510450019N0500001N1+03451+01861100791ADDGF106991031021004501011011MA1999999099781MD1999999-0031REMSYN070AAXX  21184 82392 32499 60503 10345 20186 39978 40079 83211 333 59003;
0168823920999992010012200004-03700-040350FM-12+008399999V0200501N004110042019N0040001N1+02761+02281101121ADDGF106991051051004501031001KA1240M+03541MA1999999100101MD1999999+0041REMSYN088AAXX  22004 82392 32496 60508 10276 20228 30010 40112 85530 333 10354 29065 55086 58004;
0156823920999992010012212004-03700-040350FM-12+008399999V0201401N002610042019N0500001N1+02861+02091101131ADDGF106991051041004501031001KA1240N+02341MA1999999100111MD1999999-0091REMSYN076AAXX  22124 82392 32499 61405 10286 20209 30011 40113 85430 333 20234 59009;
0137823920999992010012218004-03700-040350FM-12+008399999V0201801N001010450019N0500001N1+03331+01831100721ADDGF106991041061004501031001MA1999999099711MD1999999-0071REMSYN070AAXX  22184 82392 32499 61802 10333 20183 39971 40072 84630 333 59007;
0168823920999992010012300004-03700-040350FM-12+008399999V0200501N003112200019N0040001N1+02781+02161100921ADDGF103991031001004501031001KA1240M+03501MA1999999099901MD1999999-0101REMSYN088AAXX  23004 82392 32496 30506 10278 20216 39990 40092 83030 333 10350 29060 55095 59010;
0175823920999992010012312004-03700-040350FM-12+008399999V0200901N002619999999N0500001N1+02801+02181101021ADDGF105991999021004501001001KA1240N+02221MA1999999100001MD1999999-0111REMSYN076AAXX  23124 82392 32499 50905 10280 20218 30000 40102 84200 333 20222 59011;EQDQ01+000042SCOTLC
0156823920999992010012318004-03700-040350FM-12+008399999V0201801N002112200019N0500001N1+03421+01911100561ADDGF103991999021004501001001MA1999999099561MD1999999-0151REMSYN070AAXX  23184 82392 32499 31804 10342 20191 39956 40056 86200 333 59015;EQDQ01+000062SCOTLC
0168823920999992010012400004-03700-040350FM-12+008399999V0200501N004612200019N0040001N1+02801+02181100891ADDGF104991041041004501021001KA1240M+03541MA1999999099871MD1999999-0031REMSYN088AAXX  24004 82392 32496 40509 10280 20218 39987 40089 84420 333 10354 29062 55097 59003;
0156823920999992010012412004-03700-040350FM-12+008399999V0200901N002612200019N0500001N1+02901+02151100971ADDGF103991031021004501001001KA1240N+02231MA1999999099961MD1999999-0041REMSYN076AAXX  24124 82392 32499 30905 10290 20215 39996 40097 83200 333 20223 59004;
0137823920999992010012418004-03700-040350FM-12+008399999V0201801N001012200019N0500001N1+03531+02011100561ADDGF103991021021004501001011MA1999999099561MD1999999+0001REMSYN070AAXX  24184 82392 32499 31802 10353 20201 39956 40056 82201 333 58000;
0168823920999992010012500004-03700-040350FM-12+008399999V0203601N003110075019N0040001N1+02591+02271100911ADDGF107991051051008001031001KA1240M+03581MA1999999099891MD1999999+0021REMSYN088AAXX  25004 82392 32596 73606 10259 20227 39989 40091 85530 333 10358 29065 55106 58002;
0156823920999992010012512004-03700-040350FM-12+008399999V0200901N003110075019N0500001N1+02801+02181101021ADDGF106991051041008001021001KA1240N+02401MA1999999100001MD1999999+0041REMSYN076AAXX  25124 82392 32599 60906 10280 20218 30000 40102 85420 333 20240 58004;
0156823920999992010012518004-03700-040350FM-12+008399999V0200501N004110042019N0500001N1+03241+02061100651ADDGF107991999031004501001001MA1999999099641MD1999999+0081REMSYN070AAXX  25184 82392 32499 70508 10324 20206 39964 40065 85300 333 58008;EQDQ01+000052SCOTLC
0187823920999992010012600004-03700-040350FM-12+008399999V0203601N002619999999N0040001N1+02711+02321101021ADDGF108991999021004501001001KA1240M+03431MA1999999100001MD1999999+0111REMSYN088AAXX  26004 82392 32496 83605 10271 20232 30000 40102 83200 333 10343 29069 55046 58011;EQDQ01+000032SCOTLC
0201823920999992010012612004-03700-040350FM-12+008399999V0201801N001012200019N0500001N1+02701+02221101021ADDAA124002091AY161061AY221061GF104991031021004501031001KA1240N+02401MA1999999100001MD1999999+0001MW1021REMSYN088AAXX  26124 82392 21499 41802 10270 20222 30000 40102 70262 83230 333 20240 58000 60024;
0182823920999992010012618004-03700-040350FM-12+008399999V0200901N002110042019N0500001N1+02541+02421100731ADDAA106004191AY101061AY221061GF107991071051004501031001MA1999999099701MD1999999+0141MW1611REMSYN082AAXX  26184 82392 21499 70904 10254 20242 39970 40073 76102 87530 333 58014 60041;
0168823920999992010012700004-03700-040350FM-12+008399999V0200501N001010042019N0040001N1+02531+02381100901ADDGF108991081051004501999999KA1240M+03321MA1999999099881MD1999999-0121REMSYN088AAXX  27004 82392 32496 80502 10253 20238 39988 40090 885// 333 10332 29088 55044 59012;
0201823920999992010012712004-03700-040350FM-12+008399999V0200901N001510450019N0500001N1+02801+02181101021ADDAA124006191AY161061AY261061GF106991031041004501031001KA1240N+02401MA1999999100001MD1999999+0001MW1021REMSYN088AAXX  27124 82392 21499 60903 10280 20218 30000 40102 70266 83430 333 20240 58000 60064;
0137823920999992010012718004-03700-040350FM-12+008399999V0200501N005110450019N0500001N1+03101+02201100511ADDGF108991041071004501021999MA1999999099501MD1999999-0201REMSYN070AAXX  27184 82392 32499 80510 10310 20220 39950 40051 8472/ 333 59020;
0213823920999992010012800004-03700-040350FM-12+008399999V0201801N001010042019N0040001N1+02391+02351100961ADDAA106039991AY161061AY261061GF108991051051004501031999KA1240M+03461MA1999999099941MD1999999+0061MW1021REMSYN100AAXX  28004 82392 21496 81802 10239 20235 39994 40096 70266 8553/ 333 10346 29081 55062 58006 60401;
0173823920999992010012812004-03700-040350FM-12+008399999V0201401N000510450019N0500001N1+02691+02301101081ADDAA124039991GF107991031021004501031001KA1240N+02261MA1999999100051MD1999999+0051REMSYN082AAXX  28124 82392 22499 71401 10269 20230 30005 40108 83230 333 20226 58005 60404;
0137823920999992010012818004-03700-040350FM-12+008399999V0200901N000510450019N0500001N1+03231+02361100561ADDGF106991021011004501031021MA1999999099551MD1999999+0051REMSYN070AAXX  28184 82392 32499 60901 10323 20236 39955 40056 82132 333 58005;
0213823920999992010012900004-03700-040350FM-12+008399999V0203601N000510450019N0040001N1+02301+02221100881ADDAA106052191AY161061AY261061GF108991041061004501021001KA1240M+03301MA1999999099851MD1999999-0091MW1511REMSYN100AAXX  29004 82392 21496 83601 10230 20222 39985 40088 75166 84620 333 10330 29082 55056 59009 60521;
0173823920999992010012912004-03700-040350FM-12+008399999V0200901N002610450019N0500001N1+02781+02111100981ADDAA124052191GF108991031071004501021999KA1240N+02301MA1999999099951MD1999999-0101REMSYN082AAXX  29124 82392 22499 80905 10278 20211 39995 40098 8372/ 333 20230 59010 60524;
0137823920999992010012918004-03700-040350FM-12+008399999V0201401N000510042019N0500001N1+03151+02371100611ADDGF107991051061004501001021MA1999999099601MD1999999+0051REMSYN070AAXX  29184 82392 32499 71401 10315 20237 39960 40061 85602 333 58005;
0213823920999992010013000004-03700-040350FM-12+008399999V0200501N002112200019N0040001N1+02501+02431100871ADDAA106005191AY161061AY261061GF102991021001004501031001KA1240M+03361MA1999999099851MD1999999+0001MW1021REMSYN100AAXX  30004 82392 21496 20504 10250 20243 39985 40087 70266 82030 333 10336 29080 55080 58000 60051;
0173823920999992010013012004-03700-040350FM-12+008399999V0200901N000512200019N0500001N1+02791+02341100991ADDAA124005191GF103991031021004501001001KA1240N+02311MA1999999099971MD1999999+0021REMSYN082AAXX  30124 82392 22499 30901 10279 20234 39997 40099 83200 333 20231 58002 60054;
0137823920999992010013018004-03700-040350FM-12+008399999V0201401N000510450019N0500001N1+03281+02031100681ADDGF107991031021004501021001MA1999999099661MD1999999+0061REMSYN070AAXX  30184 82392 32499 71401 10328 20203 39966 40068 83220 333 58006;
0187823920999992010013100004-03700-040350FM-12+008399999V0203601N002612200019N0040001N1+02801+02181100931ADDGF102991999021004501011001KA1240M+03431MA1999999099911MD1999999+0061REMSYN088AAXX  31004 82392 32496 23605 10280 20218 39991 40093 88210 333 10343 29066 55089 58006;EQDQ01+000082SCOTLC
0156823920999992010013112004-03700-040350FM-12+008399999V0200901N003110450019N0500001N1+02841+02221101041ADDGF105991041041004501031001KA1240N+02401MA1999999100021MD1999999+0051REMSYN076AAXX  31124 82392 32499 50906 10284 20222 30002 40104 84430 333 20240 58005;
0137823920999992010013118004-03700-040350FM-12+008399999V0201401N002610450019N0500001N1+03361+02001100711ADDGF105991031021004501031001MA1999999099701MD1999999+0041REMSYN070AAXX  31184 82392 32499 51405 10336 20200 39970 40071 83230 333 58004;
0168823920999992010020100004-03700-040350FM-12+008399999V0200501N004610450019N0040001N1+02801+02181100921ADDGF107991031051004501011001KA1240M+03441MA1999999099901MD1999999-0011REMSYN088AAXX  01004 82392 32496 70509 10280 20218 39990 40092 83510 333 10344 29063 55089 59001;
0156823920999992010020112004-03700-040350FM-12+008399999V0200901N003112200019N0500001N1+02861+02011101141ADDGF104991041021004501001001KA1240N+02501MA1999999100121MD1999999+0101REMSYN076AAXX  01124 82392 32499 40906 10286 20201 30012 40114 84200 333 20250 58010;
0137823920999992010020118004-03700-040350FM-12+008399999V0200901N002110450019N0500001N1+03361+02041100831ADDGF107991031041004501011001MA1999999099821MD1999999+0121REMSYN070AAXX  01184 82392 32499 70904 10336 20204 39982 40083 83410 333 58012;
0213823920999992010020200004-03700-040350FM-12+008399999V0200501N000510450019N0040001N1+02711+02281101091ADDAA106002091AY161061AY261061GF105991021021004501011001KA1240M+03441MA1999999100071MD1999999+0171MW1021REMSYN100AAXX  02004 82392 21496 50501 10271 20228 30007 40109 70266 82210 333 10344 29065 55062 58017 60021;
0173823920999992010020212004-03700-040350FM-12+008399999V0200901N002610450019N0500001N1+02821+02171101121ADDAA124002091GF106991031041004501031001KA1240N+02401MA1999999100101MD1999999-0021REMSYN082AAXX  02124 82392 22499 60905 10282 20217 30010 40112 83430 333 20240 59002 60024;
0137823920999992010020218004-03700-040350FM-12+008399999V0200901N002610450019N0500001N1+03341+02191100731ADDGF105991031041004501031001MA1999999099721MD1999999-0101REMSYN070AAXX  02184 82392 32499 50905 10334 20219 39972 40073 83430 333 59010;
0178823920999992010020300004-03700-040350FM-12+008399999V0200501N001512200019N0040001N1+02811+02221101051ADDGA1001+999999999GF100991001001999999001001KA1240M+03421MA1999999100031MD1999999-0041REMSYN082AAXX  03004 82392 32996 00503 10281 20222 30003 40105 333 10342 29065 55087 59004;
0156823920999992010020312004-03700-040350FM-12+008399999V0200901N004610450019N0500001N1+02861+02091101071ADDGF106991031041004501031001KA1240N+02301MA1999999100051MD1999999-0051REMSYN076AAXX  03124 82392 32499 60909 10286 20209 30005 40107 83430 333 20230 59005;
0137823920999992010020318004-03700-040350FM-12+008399999V0200901N004112200019N0500001N1+03441+01921100671ADDGF104991041021004501001001MA1999999099661MD1999999-0061REMSYN070AAXX  03184 82392 32499 40908 10344 20192 39966 40067 84200 333 59006;
0168823920999992010020400004-03700-040350FM-12+008399999V0203601N000512200019N0040001N1+02731+02121101021ADDGF102991021021004501001001KA1240M+03481MA1999999100001MD1999999-0031REMSYN088AAXX  04004 82392 32496 23601 10273 20212 30000 40102 82200 333 10348 29061 55102 59003;
0156823920999992010020412004-03700-040350FM-12+008399999V0200901N001510042019N0500001N1+02831+02311101101ADDGF106991061041004501001001KA1240N+02271MA1999999100081MD1999999+0031REMSYN076AAXX  04124 82392 32499 60903 10283 20231 30008 40110 86400 333 20227 58003;
0156823920999992010020418004-03700-040350FM-12+008399999V0200901N003119999999N0500001N1+03421+02091100641ADDGF105991999021004501001001MA1999999099641MD1999999-0021REMSYN070AAXX  04184 82392 32499 50906 10342 20209 39964 40064 83200 333 59002;EQDQ01+000032SCOTLC
0168823920999992010020500004-03700-040350FM-12+008399999V0200501N002112200019N0040001N1+02881+02101100861ADDGF102991021001008001031001KA1240M+03481MA1999999099851MD1999999-0151REMSYN088AAXX  05004 82392 32596 20504 10288 20210 39985 40086 82030 333 10348 29061 55095 59015;
0156823920999992010020512004-03700-040350FM-12+008399999V0200901N001012200019N0500001N1+02921+02121101011ADDGF103991031021004501001001KA1240N+02291MA1999999100001MD1999999-0081REMSYN076AAXX  05124 82392 32499 30902 10292 20212 30000 40101 83200 333 20229 59008;
0137823920999992010020518004-03700-040350FM-12+008399999V0201401N001510042019N0500001N1+03591+02221100551ADDGF105991051021004501001001MA1999999099551MD1999999-0091REMSYN070AAXX  05184 82392 32499 51403 10359 20222 39955 40055 85200 333 59009;
0178823920999992010020600004-03700-040350FM-12+008399999V0203601N005112200019N0040001N1+02801+01921100861ADDGA1001+999999999GF100991001001999999001001KA1240M+03661MA1999999099851MD1999999+0001REMSYN082AAXX  06004 82392 32996 03610 10280 20192 39985 40086 333 10366 29056 55096 58000;
0156823920999992010020612004-03700-040350FM-12+008399999V0200901N003110042019N0500001N1+02821+02021101061ADDGF107991051051004501031001KA1240N+02301MA1999999100041MD1999999+0041REMSYN076AAXX  06124 82392 32499 70906 10282 20202 30004 40106 85530 333 20230 58004;
0137823920999992010020618004-03700-040350FM-12+008399999V0200901N002610450019N0500001N1+03401+01891100661ADDGF106991041041004501031001MA1999999099651MD1999999+0101REMSYN070AAXX  06184 82392 32499 60905 10340 20189 39965 40066 84430 333 58010;
0178823920999992010020700004-03700-040350FM-12+008399999V0200501N004612200019N0040001N1+02781+02041100971ADDGA1001+999999999GF100991001001999999001001KA1240M+03461MA1999999099951MD1999999+0101REMSYN082AAXX  07004 82392 32996 00509 10278 20204 39995 40097 333 10346 29058 55064 58010;
0156823920999992010020712004-03700-040350FM-12+008399999V0200901N003112200019N0500001N1+02911+02291101051ADDGF103991031021004501001001KA1240N+02231MA1999999100041MD1999999+0001REMSYN076AAXX  07124 82392 32499 30906 10291 20229 30004 40105 83200 333 20223 58000;
0137823920999992010020718004-03700-040350FM-12+008399999V0200901N002110450019N0500001N1+03411+02091100481ADDGF107991021021004501031001MA1999999099471MD1999999-0181REMSYN070AAXX  07184 82392 32499 70904 10341 20209 39947 40048 82230 333 59018;
0178823920999992010020800004-03700-040350FM-12+008399999V0203601N001512200019N0040001N1+02791+02131100841ADDGA1001+999999999GF100991001001999999001001KA1240M+03521MA1999999099831MD1999999-0121REMSYN082AAXX  08004 82392 32996 03603 10279 20213 39983 40084 333 10352 29062 55073 59012;
0156823920999992010020812004-03700-040350FM-12+008399999V0200501N002110450019N0500001N1+02801+02181101061ADDGF108991031051004501011999KA1240N+02501MA1999999100041MD1999999+0001REMSYN076AAXX  08124 82392 32499 80504 10280 20218 30004 40106 8351/ 333 20250 58000;
0182823920999992010020818004-03700-040350FM-12+008399999V0201801N001010450019N0500001N1+02361+02261100781ADDAA106007991AY161061AY261061GF108991031071004501021999MA1999999099751MD1999999+0281MW1021REMSYN082AAXX  08184 82392 21499 81802 10236 20226 39975 40078 70266 8372/ 333 58028 60081;
0213823920999992010020900004-03700-040350FM-12+008399999V0202301N000510042019N0040001N1+02311+02241101041ADDAA106001091AY161061AY261061GF108991081051004501999999KA1240M+03261MA1999999100021MD1999999+0191MW1021REMSYN100AAXX  09004 82392 21496 82301 10231 20224 30002 40104 70266 885// 333 10326 29088 55008 58019 60011;
0173823920999992010020912004-03700-040350FM-12+008399999V0202301N001010450019N0500001N1+02601+02391101031ADDAA124009991GF108991041061004501021999KA1240N+02241MA1999999100001MD1999999-0041REMSYN082AAXX  09124 82392 22499 82302 10260 20239 30000 40103 8462/ 333 20224 59004 60104;
0137823920999992010020918004-03700-040350FM-12+008399999V0201801N000510450019N0500001N1+03161+02391100511ADDGF105991031061004501031011MA1999999099501MD1999999-0251REMSYN070AAXX  09184 82392 32499 51801 10316 20239 39950 40051 83631 333 59025;
0213823920999992010021000004-03700-040350FM-12+008399999V0202301N000510450019N0040001N1+02361+02281100881ADDAA106021191AY161061AY261061GF108991031041004501021999KA1240M+03291MA1999999099851MD1999999-0171MW1021REMSYN100AAXX  10004 82392 21496 82301 10236 20228 39985 40088 70266 8342/ 333 10329 29086 55043 59017 60211;
0173823920999992010021012004-03700-040350FM-12+008399999V0200901N001510450019N0500001N1+02721+02301100951ADDAA124021191GF106991031041004501011001KA1240N+02091MA1999999099921MD1999999-0081REMSYN082AAXX  10124 82392 22499 60903 10272 20230 39992 40095 83410 333 20209 59008 60214;
0182823920999992010021018004-03700-040350FM-12+008399999V0203601N002110450019N0500001N1+02681+02261100731ADDAA106000891AY151061AY221061GF108991041051004501021999MA1999999099701MD1999999+0201MW1021REMSYN082AAXX  10184 82392 21499 83604 10268 20226 39970 40073 70252 8452/ 333 58020 69971;
0168823920999992010021100004-03700-040350FM-12+008399999V0203601N000510450019N0040001N1+02611+02371100851ADDGF107991031041004501021001KA1240M+02841MA1999999099831MD1999999-0021REMSYN088AAXX  11004 82392 32496 73601 10261 20237 39983 40085 83420 333 10284 29082 55011 59002;
0173823920999992010021112004-03700-040350FM-12+008399999V0200901N000510042019N0500001N1+02761+02381100861ADDAA124001091GF107991051041004501031011KA1240N+02461MA1999999099841MD1999999-0081REMSYN082AAXX  11124 82392 22499 70901 10276 20238 39984 40086 85431 333 20246 59008 60014;
0137823920999992010021118004-03700-040350FM-12+008399999V0202301N001010450019N0500001N1+03071+02491100441ADDGF107991021021004501021011MA1999999099431MD1999999-0271REMSYN070AAXX  11184 82392 32499 72302 10307 20249 39943 40044 82221 333 59027;
0168823920999992010021200004-03700-040350FM-12+008399999V0203601N000510450019N0040001N1+02661+02181100871ADDGF106991031051004501031001KA1240M+03241MA1999999099851MD1999999-0011REMSYN088AAXX  12004 82392 32496 63601 10266 20218 39985 40087 83530 333 10324 29072 55055 59001;
0156823920999992010021212004-03700-040350FM-12+008399999V0203601N000512200019N0500001N1+02761+02211101061ADDGF104991041021004501001001KA1240N+02401MA1999999100041MD1999999+0201REMSYN076AAXX  12124 82392 32499 43601 10276 20221 30004 40106 84200 333 20240 58020;
0182823920999992010021218004-03700-040350FM-12+008399999V0201401N001010450019N0500001N1+02901+02371100701ADDAA106003091AY161061AY261061GF107991031061004501011001MA1999999099681MD1999999+0151MW1021REMSYN082AAXX  12184 82392 21499 71402 10290 20237 39968 40070 70266 83610 333 58015 60031;
0168823920999992010021300004-03700-040350FM-12+008399999V0200901N001019999999N0040001N1+02701+02301101071ADDGF105991041041999999031001KA1240M+03281MA1999999100051MD1999999+0231REMSYN088AAXX  13004 82392 32996 50902 10270 20230 30005 40107 84430 333 10328 29078 55046 58023;
0173823920999992010021312004-03700-040350FM-12+008399999V0200901N002110450019N0500001N1+02811+02441101131ADDAA124003091GF107991041041004501031001KA1240N+02391MA1999999100111MD1999999+0071REMSYN082AAXX  13124 82392 22499 70904 10281 20244 30011 40113 84430 333 20239 58007 60034;
0182823920999992010021318004-03700-040350FM-12+008399999V0203601N003110042019N0200001N1+02481+02431100891ADDAA106004191AY151061AY251061GF108991061061004501021999MA1999999099861MD1999999+0181MW1971REMSYN082AAXX  13184 82392 21498 83606 10248 20243 39986 40089 79755 8662/ 333 58018 60041;
0213823920999992010021400004-03700-040350FM-12+008399999V0201801N000510450019N0040001N1+02341+02271101011ADDAA106010991AY161061AY261061GF107991041061004501021001KA1240M+03241MA1999999099991MD1999999-0061MW1021REMSYN100AAXX  14004 82392 21496 71801 10234 20227 39999 40101 70266 84620 333 10324 29092 55042 59006 60111;
0173823920999992010021412004-03700-040350FM-12+008399999V0201801N001012200019N0500001N1+02781+02361101151ADDAA124015091GF104991041021004501001001KA1240N+02301MA1999999100131MD1999999+0021REMSYN082AAXX  14124 82392 22499 41802 10278 20236 30013 40115 84200 333 20230 58002 60154;
0137823920999992010021418004-03700-040350FM-12+008399999V0203201N000510450019N0500001N1+03281+02261100821ADDGF105991041021004501031001MA1999999099801MD1999999-0061REMSYN070AAXX  14184 82392 32499 53201 10328 20226 39980 40082 84230 333 59006;
0213823920999992010021500004-03700-040350FM-12+008399999V0200501N000510450019N0040001N1+02581+02331101001ADDAA106016091AY161061AY261061GF108991031071004501021999KA1240M+03361MA1999999099981MD1999999-0011MW1511REMSYN100AAXX  15004 82392 21496 80501 10258 20233 39998 40100 75166 8372/ 333 10336 29076 55071 59001 60161;
0173823920999992010021512004-03700-040350FM-12+008399999V0200901N002610450019N0500001N1+02721+02281101111ADDAA124016091GF106991031041004501031001KA1240N+02201MA1999999100091MD1999999-0041REMSYN082AAXX  15124 82392 22499 60905 10272 20228 30009 40111 83430 333 20220 59004 60164;
0137823920999992010021518004-03700-040350FM-12+008399999V0200501N002110450019N0500001N1+03201+02151100671ADDGF106991041051004501031001MA1999999099661MD1999999-0141REMSYN070AAXX  15184 82392 32499 60504 10320 20215 39966 40067 84530 333 59014;
0168823920999992010021600004-03700-040350FM-12+008399999V0203601N001010450019N0040001N1+02591+02271100931ADDGF107991031051004501021001KA1240M+03361MA1999999099911MD1999999-0071REMSYN088AAXX  16004 82392 32496 73602 10259 20227 39991 40093 83520 333 10336 29074 55057 59007;
0156823920999992010021612004-03700-040350FM-12+008399999V0200901N004112200019N0500001N1+02801+02251101021ADDGF104991021011004501031001KA1240N+02371MA1999999100001MD1999999-0091REMSYN076AAXX  16124 82392 32499 40908 10280 20225 30000 40102 82130 333 20237 59009;
0137823920999992010021618004-03700-040350FM-12+008399999V0200901N001010450019N0500001N1+03261+02181100731ADDGF106991031021004501031001MA1999999099711MD1999999+0051REMSYN070AAXX  16184 82392 32499 60902 10326 20218 39971 40073 83230 333 58005;
0168823920999992010021700004-03700-040350FM-12+008399999V0200501N001010450019N0040001N1+02671+02241101001ADDGF108991031061004501031999KA1240M+03341MA1999999099981MD1999999+0071REMSYN088AAXX  17004 82392 32496 80502 10267 20224 39998 40100 8363/ 333 10334 29070 55083 58007;
0156823920999992010021712004-03700-040350FM-12+008399999V0200501N003110450019N0500001N1+02801+02181101071ADDGF106991031021004501031001KA1240N+02301MA1999999100051MD1999999+0051REMSYN076AAXX  17124 82392 32499 60506 10280 20218 30005 40107 83230 333 20230 58005;
0137823920999992010021718004-03700-040350FM-12+008399999V0200901N002610450019N0500001N1+03301+02121100721ADDGF106991031011004501031001MA1999999099701MD1999999-0011REMSYN070AAXX  17184 82392 32499 60905 10330 20212 39970 40072 83130 333 59001;
0178823920999992010021800004-03700-040350FM-12+008399999V0203601N002612200019N0040001N1+02671+02201100971ADDGA1001+999999999GF100991001001999999001001KA1240M+03411MA1999999099951MD1999999-0031REMSYN082AAXX  18004 82392 32996 03605 10267 20220 39995 40097 333 10341 29067 55095 59003;
0156823920999992010021812004-03700-040350FM-12+008399999V0200901N001012200019N0500001N1+02831+02311101181ADDGF103991031021004501001001KA1240N+02211MA1999999100161MD1999999+0111REMSYN076AAXX  18124 82392 32499 30902 10283 20231 30016 40118 83200 333 20221 58011;
0137823920999992010021818004-03700-040350FM-12+008399999V0200901N002112200019N0500001N1+03311+02101100771ADDGF104991021021004501031001MA1999999099751MD1999999+0051REMSYN070AAXX  18184 82392 32499 40904 10331 20210 39975 40077 82230 333 58005;
0178823920999992010021900004-03700-040350FM-12+008399999V0200501N002112200019N0040001N1+02701+02131101021ADDGA1001+999999999GF100991001001999999001001KA1240M+03481MA1999999100001MD1999999+0051REMSYN082AAXX  19004 82392 32996 00504 10270 20213 30000 40102 333 10348 29066 55106 58005;
0156823920999992010021912004-03700-040350FM-12+008399999V0200901N005112200019N0500001N1+02861+02161101191ADDGF103991031021004501001001KA1240N+02251MA1999999100171MD1999999+0011REMSYN076AAXX  19124 82392 32499 30910 10286 20216 30017 40119 83200 333 20225 58001;
0137823920999992010021918004-03700-040350FM-12+008399999V0200901N002110450019N0500001N1+03381+02261100721ADDGF106991031021004501011001MA1999999099711MD1999999-0041REMSYN070AAXX  19184 82392 32499 60904 10338 20226 39971 40072 83210 333 59004;
0178823920999992010022000004-03700-040350FM-12+008399999V0200501N004112200019N0040001N1+02681+02111101021ADDGA1001+999999999GF100991001001999999001001KA1240M+03481MA1999999100001MD1999999+0001REMSYN082AAXX  20004 82392 32996 00508 10268 20211 30000 40102 333 10348 29065 55099 58000;
0156823920999992010022012004-03700-040350FM-12+008399999V0200901N001012200019N0500001N1+02901+02041101061ADDGF104991041021004501001001KA1240N+02321MA1999999100041MD1999999-0131REMSYN076AAXX  20124 82392 32499 40902 10290 20204 30004 40106 84200 333 20232 59013;
0137823920999992010022018004-03700-040350FM-12+008399999V0200901N004612200019N0500001N1+03501+01771100541ADDGF103991031011004501001001MA1999999099541MD1999999-0171REMSYN070AAXX  20184 82392 32499 30909 10350 20177 39954 40054 83100 333 59017;
0178823920999992010022100004-03700-040350FM-12+008399999V0200501N005112200019N0040001N1+02821+02021100841ADDGA1001+999999999GF100991001001999999001001KA1240M+03601MA1999999099831MD1999999-0171REMSYN082AAXX  21004 82392 32996 00510 10282 20202 39983 40084 333 10360 29055 55106 59017;
0156823920999992010022112004-03700-040350FM-12+008399999V0200501N003110450019N0500001N1+02911+02241101061ADDGF106991031021004501031001KA1240N+02391MA1999999100051MD1999999+0011REMSYN076AAXX  21124 82392 32499 60506 10291 20224 30005 40106 83230 333 20239 58001;
0137823920999992010022118004-03700-040350FM-12+008399999V0200901N001512200019N0500001N1+03451+02131100561ADDGF104991021021004501001011MA1999999099561MD1999999+0021REMSYN070AAXX  21184 82392 32499 40903 10345 20213 39956 40056 82201 333 58002;
0168823920999992010022200004-03700-040350FM-12+008399999V0200501N001512200019N0040001N1+02771+02231100971ADDGF102991011011004501011001KA1240M+03501MA1999999099951MD1999999+0121REMSYN088AAXX  22004 82392 32496 20503 10277 20223 39995 40097 81110 333 10350 29064 55096 58012;
0156823920999992010022212004-03700-040350FM-12+008399999V0200501N001012200019N0500001N1+02761+02141101101ADDGF104991011011004501031001KA1240N+02401MA1999999100081MD1999999+0031REMSYN076AAXX  22124 82392 32499 40502 10276 20214 30008 40110 81130 333 20240 58003;
0137823920999992010022218004-03700-040350FM-12+008399999V0203601N003112200019N0500001N1+03441+01841100591ADDGF102991021011004501001001MA1999999099591MD1999999+0031REMSYN070AAXX  22184 82392 32499 23606 10344 20184 39959 40059 82100 333 58003;
0168823920999992010022300004-03700-040350FM-12+008399999V0200501N003110450019N0040001N1+02711+02371100911ADDGF106991031011004501011001KA1240M+03541MA1999999099891MD1999999-0061REMSYN088AAXX  23004 82392 32496 60506 10271 20237 39989 40091 83110 333 10354 29068 55084 59006;
0156823920999992010022312004-03700-040350FM-12+008399999V0201401N001010450019N0500001N1+02281+02101101101ADDGF105991041021004501031001KA1240N+02281MA1999999100081MD1999999+0001REMSYN076AAXX  23124 82392 32499 51402 10228 20210 30008 40110 84230 333 20228 58000;
0137823920999992010022318004-03700-040350FM-12+008399999V0200501N003612200019N0500001N1+03601+01721100591ADDGF104991041021004501001001MA1999999099591MD1999999+0001REMSYN070AAXX  23184 82392 32499 40507 10360 20172 39959 40059 84200 333 58000;
0178823920999992010022400004-03700-040350FM-12+008399999V0200501N005112200019N0040001N1+02741+02101100871ADDGA1001+999999999GF100991001001999999001001KA1240M+03681MA1999999099851MD1999999-0041REMSYN082AAXX  24004 82392 32996 00510 10274 20210 39985 40087 333 10368 29058 55096 59004;
0156823920999992010022412004-03700-040350FM-12+008399999V0200501N001010450019N0500001N1+02871+02391101181ADDGF105991031021004501031001KA1240N+02261MA1999999100161MD1999999+0081REMSYN076AAXX  24124 82392 32499 50502 10287 20239 30016 40118 83230 333 20226 58008;
0137823920999992010022418004-03700-040350FM-12+008399999V0200901N000511050019N0500001N1+03581+02011100601ADDGF105991021021004501031011MA1999999099601MD1999999+0011REMSYN070AAXX  24184 82392 32499 50901 10358 20201 39960 40060 82231 333 58001;
0168823920999992010022500004-03700-040350FM-12+008399999V0200501N001012200019N0040001N1+02831+02191100931ADDGF102991021001008001011001KA1240M+03721MA1999999099921MD1999999+0171REMSYN088AAXX  25004 82392 32596 20502 10283 20219 39992 40093 82010 333 10372 29063 55093 58017;
0156823920999992010022512004-03700-040350FM-12+008399999V0200501N000510450019N0500001N1+02961+02331101021ADDGF105991031021004501031001KA1240N+02321MA1999999100011MD1999999-0151REMSYN076AAXX  25124 82392 32499 50501 10296 20233 30001 40102 83230 333 20232 59015;
0137823920999992010022518004-03700-040350FM-12+008399999V0200901N000510450019N0500001N1+03541+02011100601ADDGF105991021021004501031001MA1999999099601MD1999999+0001REMSYN070AAXX  25184 82392 32499 50901 10354 20201 39960 40060 82230 333 58000;
0168823920999992010022600004-03700-040350FM-12+008399999V0200501N003110450019N0040001N1+02781+02131100811ADDGF107991021051004501011001KA1240M+03661MA1999999099801MD1999999-0121REMSYN088AAXX  26004 82392 32496 70506 10278 20213 39980 40081 82510 333 10366 29062 55071 59012;
0156823920999992010022612004-03700-040350FM-12+008399999V0201401N001510450019N0500001N1+02841+02121101021ADDGF106991031021004501031001KA1240N+02401MA1999999100001MD1999999-0011REMSYN076AAXX  26124 82392 32499 61403 10284 20212 30000 40102 83230 333 20240 59001;
0137823920999992010022618004-03700-040350FM-12+008399999V0200901N000510450019N0500001N1+03441+02111100491ADDGF105991031021004501031001MA1999999099491MD1999999-0111REMSYN070AAXX  26184 82392 32499 50901 10344 20211 39949 40049 83230 333 59011;
0178823920999992010022700004-03700-040350FM-12+008399999V0200501N004112200019N0040001N1+02881+02031100841ADDGA1001+999999999GF100991001001999999001001KA1240M+03781MA1999999099831MD1999999+0031REMSYN082AAXX  27004 82392 32996 00508 10288 20203 39983 40084 333 10378 29058 55097 58003;
0156823920999992010022712004-03700-040350FM-12+008399999V0200501N000512200019N0500001N1+02911+02291101121ADDGF104991041021004501001001KA1240N+02301MA1999999100111MD1999999+0111REMSYN076AAXX  27124 82392 32499 40501 10291 20229 30011 40112 84200 333 20230 58011;
0137823920999992010022718004-03700-040350FM-12+008399999V0200901N000510042019N0500001N1+03631+01981100561ADDGF106991061021004501001001MA1999999099561MD1999999+0071REMSYN070AAXX  27184 82392 32499 60901 10363 20198 39956 40056 86200 333 58007;
0168823920999992010022800004-03700-040350FM-12+008399999V0203601N001512200019N0040001N1+02771+02251101031ADDGF102991021021004501001001KA1240M+03781MA1999999100011MD1999999+0181REMSYN088AAXX  28004 82392 32496 23603 10277 20225 30001 40103 82200 333 10378 29063 55097 58018;
0175823920999992010022812004-03700-040350FM-12+008399999V0200901N001012200019N0500001N1+02761+01801101221ADDGF104991999021004501001001KA1240N+02301MA1999999100201MD1999999+0091REMSYN076AAXX  28124 82392 32499 40902 10276 20180 30020 40122 83200 333 20230 58009;EQDQ01+000032SCOTLC
0137823920999992010022818004-03700-040350FM-12+008399999V0203601N000512200019N0500001N1+03581+01441100761ADDGF102991021011004501001001MA1999999099751MD1999999+0191REMSYN070AAXX  28184 82392 32499 23601 10358 20144 39975 40076 82100 333 58019;
0178823920999992010030100004-03700-040350FM-12+008399999V0200501N005112200019N0040001N1+02761+01891101101ADDGA1001+999999999GF100991001001999999001001KA1240M+03741MA1999999100081MD1999999+0071REMSYN082AAXX  01004 82392 32996 00510 10276 20189 30008 40110 333 10374 29050 55088 58007;
0156823920999992010030112004-03700-040350FM-12+008399999V0201401N002112200019N0500001N1+02801+01921101271ADDGF103991031011004501001001KA1240N+02141MA1999999100251MD1999999+0051REMSYN076AAXX  01124 82392 32499 31404 10280 20192 30025 40127 83100 333 20214 58005;
0137823920999992010030118004-03700-040350FM-12+008399999V0203201N000512200019N0500001N1+03661+01511100771ADDGF102991021011004501001001MA1999999099761MD1999999+0011REMSYN070AAXX  01184 82392 32499 23201 10366 20151 39976 40077 82100 333 58001;
0178823920999992010030200004-03700-040350FM-12+008399999V0203601N001512200019N0040001N1+03771+02231101021ADDGA1001+999999999GF100991001001999999001001KA1240M+03781MA1999999100071MD1999999-0081REMSYN082AAXX  02004 82392 32996 03603 10377 20223 30007 40102 333 10378 29058 55104 59008;
0175823920999992010030212004-03700-040350FM-12+008399999V0201801N001012200019N0040001N1+02921+01981101251ADDGF102991999011999999001001KA1240N+02341MA1999999100231MD1999999-0021REMSYN076AAXX  02124 82392 32996 21802 10292 20198 30023 40125 81100 333 20234 59002;EQDQ01+000012SCOTLC
0156823920999992010030218004-03700-040350FM-12+008399999V0203601N001512200019N0500001N1+03611+01961999999ADDGF104991041021004501001001MA1999999099671MD1999999-0091REMSYN070AAXX  02184 82392 32499 43603 10361 20196 39967 49967 84200 333 59009;EQDQ01+099673APOSLP
0178823920999992010030300004-03700-040350FM-12+008399999V0203601N003112200019N0040001N1+02731+02241101061ADDGA1001+999999999GF100991001001999999001001KA1240M+03781MA1999999100041MD1999999+0041REMSYN082AAXX  03004 82392 32996 03606 10273 20224 30004 40106 333 10378 29061 55100 58004;
0156823920999992010030312004-03700-040350FM-12+008399999V0200501N002612200019N0500001N1+02921+01891101231ADDGF103991031021004501001001KA1240N+02381MA1999999100211MD1999999-0021REMSYN076AAXX  03124 82392 32499 30505 10292 20189 30021 40123 83200 333 20238 59002;
0137823920999992010030318004-03700-040350FM-12+008399999V0203601N003112200019N0500001N1+03581+01701100701ADDGF104991041021004501001001MA1999999099691MD1999999+0021REMSYN070AAXX  03184 82392 32499 43606 10358 20170 39969 40070 84200 333 58002;
0178823920999992010030400004-03700-040350FM-12+008399999V0200501N002112200019N0040001N1+02811+02271101011ADDGA1001+999999999GF100991001001999999001001KA1240M+03741MA1999999100001MD1999999-0041REMSYN082AAXX  04004 82392 32996 00504 10281 20227 30000 40101 333 10374 29058 55102 59004;
0156823920999992010030412004-03700-040350FM-12+008399999V0202701N000510042019N0500001N1+02911+02321101161ADDGF106991061021004501001001KA1240N+02271MA1999999100151MD1999999-0061REMSYN076AAXX  04124 82392 32499 62701 10291 20232 30015 40116 86200 333 20227 59006;
0137823920999992010030418004-03700-040350FM-12+008399999V0200501N001010450019N0500001N1+03711+01921100661ADDGF106991041021004501011001MA1999999099651MD1999999-0041REMSYN070AAXX  04184 82392 32499 60502 10371 20192 39965 40066 84210 333 59004;
0156823920999992010030512004-03700-040350FM-12+008399999V0201801N001010450019N0500001N1+02881+01941101121ADDGF106991041041004501031001KA1240N+02341MA1999999100101MD1999999-0051REMSYN076AAXX  05124 82392 32499 61802 10288 20194 30010 40112 84430 333 20234 59005;
0137823920999992010030518004-03700-040350FM-12+008399999V0200901N001010450019N0500001N1+03591+01941100561ADDGF106991041041004501011001MA1999999099561MD1999999-0091REMSYN070AAXX  05184 82392 32499 60902 10359 20194 39956 40056 84410 333 59009;
0178823920999992010030600004-03700-040350FM-12+008399999V0200501N004612200019N0040001N1+02761+02041100871ADDGA1001+999999999GF100991001001999999001001KA1240M+03721MA1999999099851MD1999999-0051REMSYN082AAXX  06004 82392 32996 00509 10276 20204 39985 40087 333 10372 29056 55088 59005;
0156823920999992010030612004-03700-040350FM-12+008399999V0200501N001012200019N0500001N1+02921+01981100971ADDGF104991041021004501001001KA1240N+02341MA1999999099951MD1999999-0151REMSYN076AAXX  06124 82392 32499 40502 10292 20198 39995 40097 84200 333 20234 59015;
0137823920999992010030618004-03700-040350FM-12+008399999V0203601N004112200019N0500001N1+03581+01791100551ADDGF104991021011004501031001MA1999999099551MD1999999-0011REMSYN070AAXX  06184 82392 32499 43608 10358 20179 39955 40055 82130 333 59001;
0168823920999992010030700004-03700-040350FM-12+008399999V0200501N004612200019N0040001N1+02841+02041100861ADDGF102991021001008001031001KA1240M+03701MA1999999099851MD1999999+0001REMSYN088AAXX  07004 82392 32596 20509 10284 20204 39985 40086 82030 333 10370 29054 55085 58000;
0156823920999992010030712004-03700-040350FM-12+008399999V0200901N000510450019N0500001N1+02941+02311101071ADDGF106991041041004501011001KA1240N+02411MA1999999100061MD1999999+0111REMSYN076AAXX  07124 82392 32499 60901 10294 20231 30006 40107 84410 333 20241 58011;
0137823920999992010030718004-03700-040350FM-12+008399999V0203201N001010450019N0500001N1+03551+02111100631ADDGF106991041041004501011001MA1999999099631MD1999999+0081REMSYN070AAXX  07184 82392 32499 63202 10355 20211 39963 40063 84410 333 58008;
0168823920999992010030800004-03700-040350FM-12+008399999V0203601N002112200019N0040001N1+02761+02441100981ADDGF102991021011004501001001KA1240M+03661MA1999999099971MD1999999+0121REMSYN088AAXX  08004 82392 32496 23604 10276 20244 39997 40098 82100 333 10366 29070 55091 58012;
0156823920999992010030812004-03700-040350FM-12+008399999V0201401N001012200019N0500001N1+02841+01931101221ADDGF102991021011004501001001KA1240N+02441MA1999999100201MD1999999+0141REMSYN076AAXX  08124 82392 32499 21402 10284 20193 30020 40122 82100 333 20244 58014;
0137823920999992010030818004-03700-040350FM-12+008399999V0200501N002112200019N0500001N1+03681+01291100681ADDGF103991031021004501001001MA1999999099671MD1999999+0041REMSYN070AAXX  08184 82392 32499 30504 10368 20129 39967 40068 83200 333 58004;
0178823920999992010030900004-03700-040350FM-12+008399999V0203601N002612200019N0040001N1+02731+02241101011ADDGA1001+999999999GF100991001001999999001001KA1240M+03831MA1999999099991MD1999999+0021REMSYN082AAXX  09004 82392 32996 03605 10273 20224 39999 40101 333 10383 29058 55103 58002;
0156823920999992010030912004-03700-040350FM-12+008399999V0201401N002110450019N0500001N1+02901+01961101161ADDGF106991041041004501031001KA1240N+02291MA1999999100141MD1999999-0061REMSYN076AAXX  09124 82392 32499 61404 10290 20196 30014 40116 84430 333 20229 59006;
0137823920999992010030918004-03700-040350FM-12+008399999V0200901N001512200019N0500001N1+03881+01811100561ADDGF104991041021004501001001MA1999999099561MD1999999-0111REMSYN070AAXX  09184 82392 32499 40903 10388 20181 39956 40056 84200 333 59011;
0178823920999992010031000004-03700-040350FM-12+008399999V0203601N002612200019N0040001N1+02791+02271100941ADDGA1001+999999999GF100991001001999999001001KA1240M+03931MA1999999099931MD1999999-0061REMSYN082AAXX  10004 82392 32996 03605 10279 20227 39993 40094 333 10393 29058 55100 59006;
0156823920999992010031012004-03700-040350FM-12+008399999V0200501N002112200019N0500001N1+02881+02031101121ADDGF104991041021004501001001KA1240N+02261MA1999999100101MD1999999-0041REMSYN076AAXX  10124 82392 32499 40504 10288 20203 30010 40112 84200 333 20226 59004;
0137823920999992010031018004-03700-040350FM-12+008399999V0203601N000512200019N0500001N1+03701+01311100531ADDGF103991031011004501001001MA1999999099531MD1999999-0031REMSYN070AAXX  10184 82392 32499 33601 10370 20131 39953 40053 83100 333 59003;
0178823920999992010031100004-03700-040350FM-12+008399999V0203601N001512200019N0040001N1+02761+02321100891ADDGA1001+999999999GF100991001001999999001001KA1240M+03841MA1999999099871MD1999999-0061REMSYN082AAXX  11004 82392 32996 03603 10276 20232 39987 40089 333 10384 29060 55092 59006;
0156823920999992010031112004-03700-040350FM-12+008399999V0200901N001510042019N0500001N1+02831+02291101101ADDGF106991061041004501001001KA1240N+02291MA1999999100081MD1999999-0021REMSYN076AAXX  11124 82392 32499 60903 10283 20229 30008 40110 86400 333 20229 59002;
0156823920999992010031118004-03700-040350FM-12+008399999V0200501N001510042019N0500001N1+03581+01791100501ADDGF106991999021004501001001MA1999999099501MD1999999-0031REMSYN070AAXX  11184 82392 32499 60503 10358 20179 39950 40050 85200 333 59003;EQDQ01+000052SCOTLC
0178823920999992010031200004-03700-040350FM-12+008399999V0200501N005112200019N0040001N1+02801+02001100721ADDGA1001+999999999GF100991001001999999001001KA1240M+03821MA1999999099701MD1999999-0171REMSYN082AAXX  12004 82392 32996 00510 10280 20200 39970 40072 333 10382 29058 55077 59017;
0156823920999992010031212004-03700-040350FM-12+008399999V0200501N002610042019N0500001N1+02941+02001101091ADDGF106991051051004501031001KA1240N+02501MA1999999100081MD1999999+0001REMSYN076AAXX  12124 82392 32499 60505 10294 20200 30008 40109 85530 333 20250 58000;
0137823920999992010031218004-03700-040350FM-12+008399999V0200501N003110450019N0500001N1+03171+02331100621ADDGF106991041051004501031001MA1999999099621MD1999999+0121REMSYN070AAXX  12184 82392 32499 60506 10317 20233 39962 40062 84530 333 58012;
0168823920999992010031300004-03700-040350FM-12+008399999V0200501N005110450019N0040001N1+02801+01921100911ADDGF106991031051004501031001KA1240M+03521MA1999999099901MD1999999+0201REMSYN088AAXX  13004 82392 32496 60510 10280 20192 39990 40091 83530 333 10352 29059 55069 58020;
0156823920999992010031312004-03700-040350FM-12+008399999V0200901N000510042019N0500001N1+02981+02371101161ADDGF105991051021004501001001KA1240N+02551MA1999999100151MD1999999+0071REMSYN076AAXX  13124 82392 32499 50901 10298 20237 30015 40116 85200 333 20255 58007;
0137823920999992010031318004-03700-040350FM-12+008399999V0203601N003110042019N0500001N1+02871+02301100981ADDGF106991051061004501031001MA1999999099961MD1999999+0341REMSYN070AAXX  13184 82392 32499 63606 10287 20230 39996 40098 85630 333 58034;
0168823920999992010031400004-03700-040350FM-12+008399999V0203601N003112200019N0040001N1+02711+02391101161ADDGF103991021011004501011001KA1240M+03581MA1999999100151MD1999999+0251REMSYN088AAXX  14004 82392 32496 33606 10271 20239 30015 40116 82110 333 10358 29076 55062 58025;
0156823920999992010031412004-03700-040350FM-12+008399999V0200501N003112200019N0500001N1+02961+01871101241ADDGF104991041021004501001001KA1240N+02401MA1999999100221MD1999999+0071REMSYN076AAXX  14124 82392 32499 40506 10296 20187 30022 40124 84200 333 20240 58007;
0137823920999992010031418004-03700-040350FM-12+008399999V0200501N002110450019N0500001N1+03361+01691100831ADDGF106991041041004501031001MA1999999099821MD1999999-0141REMSYN070AAXX  14184 82392 32499 60504 10336 20169 39982 40083 84430 333 59014;
0178823920999992010031500004-03700-040350FM-12+008399999V0200501N004612200019N0040001N1+02841+01961101111ADDGA1001+999999999GF100991001001999999001001KA1240M+03701MA1999999100101MD1999999-0051REMSYN082AAXX  15004 82392 32996 00509 10284 20196 30010 40111 333 10370 29052 55091 59005;
0156823920999992010031512004-03700-040350FM-12+008399999V0200501N004610450019N0500001N1+02941+02001101131ADDGF106991041021004501031001KA1240N+02381MA1999999100121MD1999999-0101REMSYN076AAXX  15124 82392 32499 60509 10294 20200 30012 40113 84230 333 20238 59010;
0137823920999992010031518004-03700-040350FM-12+008399999V0200501N004110450019N0500001N1+03721+01621100551ADDGF105991041041004501031001MA1999999099551MD1999999-0271REMSYN070AAXX  15184 82392 32499 50508 10372 20162 39955 40055 84430 333 59027;
0178823920999992010031600004-03700-040350FM-12+008399999V0200501N002112200019N0040001N1+02871+02181100851ADDGA1001+999999999GF100991001001999999001001KA1240M+03841MA1999999099841MD1999999-0161REMSYN082AAXX  16004 82392 32996 00504 10287 20218 39984 40085 333 10384 29055 55097 59016;
0156823920999992010031612004-03700-040350FM-12+008399999V0200501N004612200019N0500001N1+03141+01971101121ADDGF104991041021004501001001KA1240N+02541MA1999999100111MD1999999-0011REMSYN076AAXX  16124 82392 32499 40509 10314 20197 30011 40112 84200 333 20254 59001;
0137823920999992010031618004-03700-040350FM-12+008399999V0201401N002110042019N0500001N1+03701+01811100511ADDGF106991061021004501001001MA1999999099521MD1999999-0031REMSYN070AAXX  16184 82392 32499 61404 10370 20181 39952 40051 86200 333 59003;
0178823920999992010031700004-03700-040350FM-12+008399999V0203601N002612200019N0040001N1+02791+02151100841ADDGA1001+999999999GF100991001001999999001001KA1240M+03841MA1999999099831MD1999999-0011REMSYN082AAXX  17004 82392 32996 03605 10279 20215 39983 40084 333 10384 29055 55085 59001;
0156823920999992010031712004-03700-040350FM-12+008399999V0200901N004110042019N0500001N1+02921+02011101111ADDGF106991061041004501001001KA1240N+02221MA1999999100101MD1999999-0011REMSYN076AAXX  17124 82392 32499 60908 10292 20201 30010 40111 86400 333 20222 59001;
0137823920999992010031718004-03700-040350FM-12+008399999V0200901N003112200019N0500001N1+03741+01581100621ADDGF103991031011004501001001MA1999999099611MD1999999+0091REMSYN070AAXX  17184 82392 32499 30906 10374 20158 39961 40062 83100 333 58009;
0178823920999992010031800004-03700-040350FM-12+008399999V0203601N001512200019N0040001N1+02761+02121100961ADDGA1001+999999999GF100991001001999999001001KA1240M+03821MA1999999099941MD1999999+0111REMSYN082AAXX  18004 82392 32996 03603 10276 20212 39994 40096 333 10382 29056 55090 58011;
0156823920999992010031812004-03700-040350FM-12+008399999V0202301N000512200019N0500001N1+02981+02281101181ADDGF104991041021004501001001KA1240N+02191MA1999999100171MD1999999+0071REMSYN076AAXX  18124 82392 32499 42301 10298 20228 30017 40118 84200 333 20219 58007;
0137823920999992010031818004-03700-040350FM-12+008399999V0203601N001510042019N0500001N1+03501+02111100751ADDGF106991061051004501001001MA1999999099741MD1999999+0131REMSYN070AAXX  18184 82392 32499 63603 10350 20211 39974 40075 86500 333 58013;
0178823920999992010031900004-03700-040350FM-12+008399999V0200501N004112200019N0040001N1+02801+02081101111ADDGA1001+999999999GF100991001001999999001001KA1240M+03861MA1999999100101MD1999999+0161REMSYN082AAXX  19004 82392 32996 00508 10280 20208 30010 40111 333 10386 29060 55098 58016;
0156823920999992010031912004-03700-040350FM-12+008399999V0200901N003110450019N0500001N1+02901+02071101281ADDGF106991041041004501031001KA1240N+02341MA1999999100271MD1999999+0101REMSYN076AAXX  19124 82392 32499 60906 10290 20207 30027 40128 84430 333 20234 58010;
0182823920999992010031918004-03700-040350FM-12+008399999V0200901N002110042019N0500001N1+02621+02251101071ADDAA106007191AY161061AY261061GF108991061061004501031999MA1999999100051MD1999999+0311MW1211REMSYN082AAXX  19184 82392 21499 80904 10262 20225 30005 40107 72166 8663/ 333 58031 60071;
0213823920999992010032000004-03700-040350FM-12+008399999V0202301N000510450019N0040001N1+02401+02261101171ADDAA106019191AY161061AY261061GF107991031071004501011001KA1240M+03421MA1999999100151MD1999999+0051MW1021REMSYN100AAXX  20004 82392 21496 72301 10240 20226 30015 40117 70266 83710 333 10342 29081 55030 58005 60191;
0192823920999992010032012004-03700-040350FM-12+008399999V0201801N000519999999N0500001N1+02701+02131101181ADDAA124025991GF106991999021004501001001KA1240N+02301MA1999999100161MD1999999-0111REMSYN082AAXX  20124 82392 22499 61801 10270 20213 30016 40118 83200 333 20230 59011 60264;EQDQ01+000032SCOTLC
0182823920999992010032018004-03700-040350FM-12+008399999V0203201N000510450019N0500001N1+02501+02071100971ADDAA106010991AY161061AY221061GF108991031061004501021999MA1999999099941MD1999999-0111MW1021REMSYN082AAXX  20184 82392 21499 83201 10250 20207 39994 40097 70262 8362/ 333 59011 60111;
0168823920999992010032100004-03700-040350FM-12+008399999V0203601N001012200019N0040001N1+02441+02371101071ADDGF104991041001004501031001KA1240M+03181MA1999999100051MD1999999-0101REMSYN088AAXX  21004 82392 32496 43602 10244 20237 30005 40107 84030 333 10318 29085 55050 59010;
0173823920999992010032112004-03700-040350FM-12+008399999V0200901N001010450019N0500001N1+02731+02341101201ADDAA124010991GF106991021021004501031001KA1240N+02341MA1999999100181MD1999999+0021REMSYN082AAXX  21124 82392 22499 60902 10273 20234 30018 40120 82230 333 20234 58002 60114;
0137823920999992010032118004-03700-040350FM-12+008399999V0200501N001510450019N0500001N1+03041+02261100771ADDGF107991021021004501031001MA1999999099751MD1999999-0191REMSYN070AAXX  21184 82392 32499 70503 10304 20226 39975 40077 82230 333 59019;
0168823920999992010032200004-03700-040350FM-12+008399999V0203601N000510042019N0040001N1+02691+02281101051ADDGF108991081051004501999999KA1240M+03141MA1999999100031MD1999999-0021REMSYN088AAXX  22004 82392 32496 83601 10269 20228 30003 40105 885// 333 10314 29075 55006 59002;
0156823920999992010032212004-03700-040350FM-12+008399999V0200901N002112200019N0500001N1+02741+02171101181ADDGF104991011011004501031001KA1240N+02381MA1999999100161MD1999999-0021REMSYN076AAXX  22124 82392 32499 40904 10274 20217 30016 40118 81130 333 20238 59002;
0137823920999992010032218004-03700-040350FM-12+008399999V0200501N005110450019N0500001N1+03481+02021100711ADDGF106991041041004501031001MA1999999099701MD1999999-0051REMSYN070AAXX  22184 82392 32499 60510 10348 20202 39970 40071 84430 333 59005;
0168823920999992010032300004-03700-040350FM-12+008399999V0203601N000510450019N0040001N1+02771+02231100971ADDGF108991031021004501031001KA1240M+03601MA1999999099951MD1999999-0081REMSYN088AAXX  23004 82392 32496 83601 10277 20223 39995 40097 83230 333 10360 29065 55053 59008;
0201823920999992010032312004-03700-040350FM-12+008399999V0200901N001010450019N0500001N1+02901+01991101161ADDAA124001091AY161061AY221061GF105991041041004501031001KA1240N+02441MA1999999100141MD1999999-0021MW1021REMSYN088AAXX  23124 82392 21499 50902 10290 20199 30014 40116 70262 84430 333 20244 59002 60014;
0156823920999992010032318004-03700-040350FM-12+008399999V0200901N002119999999N0500001N1+03531+02091100851ADDGF106991999021004501001001MA1999999099551MD1999999-0151REMSYN070AAXX  23184 82392 32499 60904 10353 20209 39955 40085 83200 333 59015;EQDQ01+000032SCOTLC
0168823920999992010032400004-03700-040350FM-12+008399999V0203601N001010450019N0040001N1+02791+02251100881ADDGF107991021021004501011001KA1240M+03621MA1999999099871MD1999999-0081REMSYN088AAXX  24004 82392 32496 73602 10279 20225 39987 40088 82210 333 10362 29061 55086 59008;
0156823920999992010032412004-03700-040350FM-12+008399999V0202701N000510450019N0500001N1+02741+01971101071ADDGF105991031021004501031001KA1240N+02401MA1999999100051MD1999999-0091REMSYN076AAXX  24124 82392 32499 52701 10274 20197 30005 40107 83230 333 20240 59009;
0137823920999992010032418004-03700-040350FM-12+008399999V0200501N005710450019N0500001N1+03061+02221100621ADDGF105991041051004501031001MA1999999099611MD1999999+0061REMSYN070AAXX  24184 82392 32499 50511 10306 20222 39961 40062 84530 333 58006;
0213823920999992010032500004-03700-040350FM-12+008399999V0209999C000010042019N0040001N1+02481+02411101001ADDAA106004191AY161061AY261061GF108991081061004501999999KA1240M+03541MA1999999099981MD1999999+0011MW1211REMSYN100AAXX  25004 82392 21496 80000 10248 20241 39998 40100 72166 886// 333 10354 29079 55051 58001 60041;
0201823920999992010032512004-03700-040350FM-12+008399999V0203201N000510042019N0500001N1+02731+02481101111ADDAA124005191AY151061AY251061GF107991051041004501031001KA1240N+02441MA1999999100091MD1999999+0041MW1021REMSYN088AAXX  25124 82392 21499 73201 10273 20248 30009 40111 70255 85430 333 20244 58004 60054;
0137823920999992010032518004-03700-040350FM-12+008399999V0200901N001510042019N0500001N1+02531+02251100831ADDGF108991081051004501999999MA1999999099801MD1999999+0211REMSYN070AAXX  25184 82392 32499 80903 10253 20225 39980 40083 885// 333 58021;
0168823920999992010032600004-03700-040350FM-12+008399999V0202301N000510450019N0040001N1+02421+02251101071ADDGF108991041061004501011999KA1240M+03281MA1999999100051MD1999999+0071REMSYN088AAXX  26004 82392 32496 82301 10242 20225 30005 40107 8461/ 333 10328 29088 55037 58007;
0156823920999992010032612004-03700-040350FM-12+008399999V0200501N000510042019N0500001N1+02461+02361101311ADDGF108991051061004501021999KA1240N+02361MA1999999100281MD1999999+0191REMSYN076AAXX  26124 82392 32499 80501 10246 20236 30028 40131 8562/ 333 20236 58019;
0156823920999992010032618004-03700-040350FM-12+008399999V0200901N000510042019N0500001N1+03231+02181100791ADDGF107991999021004501001001MA1999999099771MD1999999-0031REMSYN070AAXX  26184 82392 32499 70901 10323 20218 39977 40079 86200 333 59003;EQDQ01+000062SCOTLC
0168823920999992010032700004-03700-040350FM-12+008399999V0200501N002110450019N0040001N1+02621+02211100981ADDGF106991041041004501031001KA1240M+03161MA1999999099951MD1999999-0181REMSYN088AAXX  27004 82392 32496 60504 10262 20221 39995 40098 84430 333 10316 29078 55028 59018;
0156823920999992010032712004-03700-040350FM-12+008399999V0200901N000512200019N0500001N1+02881+02301101121ADDGF104991021021004501001021KA1240N+02311MA1999999100101MD1999999-0121REMSYN076AAXX  27124 82392 32499 40901 10288 20230 30010 40112 82202 333 20231 59012;
0137823920999992010032718004-03700-040350FM-12+008399999V0203201N001012200019N0500001N1+03441+02071100601ADDGF104991021021004501001011MA1999999099601MD1999999-0171REMSYN070AAXX  27184 82392 32499 43202 10344 20207 39960 40060 82201 333 59017;
0168823920999992010032800004-03700-040350FM-12+008399999V0203601N001010450019N0040001N1+02731+02381100961ADDGF108991031021004501011999KA1240M+03521MA1999999099941MD1999999-0011REMSYN088AAXX  28004 82392 32496 83602 10273 20238 39994 40096 8321/ 333 10352 29070 55097 59001;
0201823920999992010032812004-03700-040350FM-12+008399999V0200501N001010450019N0500001N1+02521+02341101171ADDAA124001091AY161061AY221061GF108991041071004501021999KA1240N+02471MA1999999100151MD1999999+0051MW1211REMSYN088AAXX  28124 82392 21499 80502 10252 20234 30015 40117 72162 8472/ 333 20247 58005 60014;
0182823920999992010032818004-03700-040350FM-12+008399999V0200501N001010450019N0500001N1+02581+02401100871ADDAA106001091AY151061AY251061GF108991041071004501021999MA1999999099841MD1999999+0241MW1511REMSYN082AAXX  28184 82392 21499 80502 10258 20240 39984 40087 75155 8472/ 333 58024 60011;
0213823920999992010032900004-03700-040350FM-12+008399999V0200501N000510450019N0040001N1+02481+02361101081ADDAA106000591AY151061AY251061GF108991041071004501021999KA1240M+03121MA1999999100051MD1999999+0111MW1511REMSYN100AAXX  29004 82392 21496 80501 10248 20236 30005 40108 75155 8472/ 333 10312 29091 55027 58011 69951;
0173823920999992010032912004-03700-040350FM-12+008399999V0202301N000510450019N0500001N1+02741+02361101181ADDAA124002091GF107991031051004501031001KA1240N+02401MA1999999100161MD1999999+0011REMSYN082AAXX  29124 82392 22499 72301 10274 20236 30016 40118 83530 333 20240 58001 60024;
0137823920999992010032918004-03700-040350FM-12+008399999V0200501N000510450019N0500001N1+03281+02101100821ADDGF105991011011004501031001MA1999999099821MD1999999-0041REMSYN070AAXX  29184 82392 32499 50501 10328 20210 39982 40082 81130 333 59004;
0213823920999992010033000004-03700-040350FM-12+008399999V0209999C000010450019N0040001N1+02481+02301101111ADDAA106020191AY161061AY261061GF108991031061004501011999KA1240M+03361MA1999999100091MD1999999+0041MW1021REMSYN100AAXX  30004 82392 21496 80000 10248 20230 30009 40111 70266 8361/ 333 10336 29078 55070 58004 60201;
0173823920999992010033012004-03700-040350FM-12+008399999V0200501N004610450019N0500001N1+02861+02061101171ADDAA124020191GF106991031041004501031001KA1240N+02301MA1999999100151MD1999999-0011REMSYN082AAXX  30124 82392 22499 60509 10286 20206 30015 40117 83430 333 20230 59001 60204;
0137823920999992010033018004-03700-040350FM-12+008399999V0203601N001510450019N0500001N1+03361+02421100591ADDGF106991041061004501021021MA1999999099591MD1999999-0211REMSYN070AAXX  30184 82392 32499 63603 10336 20242 39959 40059 84622 333 59021;
0173823920999992010033112004-03700-040350FM-12+008399999V0200901N002110450019N0500001N1+02821+02021101071ADDAA124015091GF105991031021004501031001KA1240N+02401MA1999999100051MD1999999-0101REMSYN082AAXX  31124 82392 22499 50904 10282 20202 30005 40107 83230 333 20240 59010 60154;
0137823920999992010033118004-03700-040350FM-12+008399999V0200501N002612200019N0500001N1+03501+01771100501ADDGF103991031011004501001001MA1999999099501MD1999999-0091REMSYN070AAXX  31184 82392 32499 30505 10350 20177 39950 40050 83100 333 59009;
0168823920999992010040100004-03700-040350FM-12+008399999V0203601N000512200019N0040001N1+02641+02411100771ADDGF103991011011004501011001KA1240M+03541MA1999999099751MD1999999+0181REMSYN088AAXX  01004 82392 32496 33601 10264 20241 39975 40077 81110 333 10354 29068 55086 58018;
0156823920999992010040112004-03700-040350FM-12+008399999V0203601N001010042019N0500001N1+02871+02481100941ADDGF107991051051004501031001KA1240N+02491MA1999999099921MD1999999-0131REMSYN076AAXX  01124 82392 32499 73602 10287 20248 39992 40094 85530 333 20249 59013;
0201823920999992010040118004-03700-040350FM-12+008399999V0202301N000510042019N0100001N1+02671+02451100571ADDAA106046091AY161061AY261061GF108991999021004501001001MA1999999099561MD1999999+0061MW1291REMSYN082AAXX  01184 82392 21497 82301 10267 20245 39956 40057 72966 86200 333 58006 60461;EQDQ01+000062SCOTLC
0213823920999992010040200004-03700-040350FM-12+008399999V0201801N000510450019N0040001N1+02461+02361100921ADDAA106000591AY161061AY251061GF108991041071004501021999KA1240M+03161MA1999999099901MD1999999+0151MW1021REMSYN100AAXX  02004 82392 21496 81801 10246 20236 39990 40092 70265 8472/ 333 10316 29088 55033 58015 69951;
0173823920999992010040212004-03700-040350FM-12+008399999V0201801N000510450019N0500001N1+02701+02431100931ADDAA124047091GF105991021011004501031001KA1240N+02301MA1999999099911MD1999999-0011REMSYN082AAXX  02124 82392 22499 51801 10270 20243 39991 40093 82130 333 20230 59001 60474;
0182823920999992010040218004-03700-040350FM-12+008399999V0203601N001010042019N0200001N1+02551+02421100641ADDAA106007991AY101061AY221061GF108991081061004501999999MA1999999099621MD1999999+0061MW1971REMSYN082AAXX  02184 82392 21498 83602 10255 20242 39962 40064 79702 886// 333 58006 60081;
0178823920999992010040300004-03700-040350FM-12+008399999V0201801N000512200019N0040001N1+02481+02361100971ADDGA1001+999999999GF100991001001999999001001KA1240M+03381MA1999999099951MD1999999+0051REMSYN082AAXX  03004 82392 32996 01801 10248 20236 39995 40097 333 10338 29091 55068 58005;
0173823920999992010040312004-03700-040350FM-12+008399999V0203201N000512200019N0500001N1+02701+02411101121ADDAA124007991GF104991041041004501001001KA1240N+02301MA1999999100101MD1999999+0191REMSYN082AAXX  03124 82392 22499 43201 10270 20241 30010 40112 84400 333 20230 58019 60084;
0182823920999992010040318004-03700-040350FM-12+008399999V0203601N001010450019N0500001N1+02661+02391100781ADDAA106002091AY161061AY221061GF108991041071004501021999MA1999999099751MD1999999+0131MW1031REMSYN082AAXX  03184 82392 21499 83602 10266 20239 39975 40078 70362 8472/ 333 58013 60021;
0178823920999992010040400004-03700-040350FM-12+008399999V0203601N001012200019N0040001N1+02501+02361101041ADDGA1001+999999999GF100991001001999999001001KA1240M+03261MA1999999100021MD1999999+0071REMSYN082AAXX  04004 82392 32996 03602 10250 20236 30002 40104 333 10326 29088 55036 58007;
0201823920999992010040412004-03700-040350FM-12+008399999V0209999C000010450019N0500001N1+02641+02421101201ADDAA124005191AY161061AY261061GF107991031061004501011001KA1240N+02371MA1999999100181MD1999999+0081MW1021REMSYN088AAXX  04124 82392 21499 70000 10264 20242 30018 40120 70266 83610 333 20237 58008 60054;
0182823920999992010040418004-03700-040350FM-12+008399999V0203601N003110450019N0500001N1+03151+02551100721ADDAA106000591AY161061AY261061GF107991041061004501011011MA1999999099701MD1999999-0051MW1021REMSYN082AAXX  04184 82392 21499 73606 10315 20255 39970 40072 70266 84611 333 59005 69941;
0232823920999992010040500004-03700-040350FM-12+008399999V0209999C000010450019N0040001N1+02611+02421100941ADDAA106000091AY151061AY251061GF106991031061004501011001KA1240M+03261MA1999999099921MD1999999-0101MW1021REMSYN100AAXX  05004 82392 21496 60000 10261 20242 39992 40094 70255 83610 333 10326 29084 55057 59010 69911;EQDQ01  00002PRCP06
0173823920999992010040512004-03700-040350FM-12+008399999V0200501N002112200019N0500001N1+02901+02061101091ADDAA124000591GF102991021011004501001001KA1240N+02341MA1999999100071MD1999999-0111REMSYN082AAXX  05124 82392 22499 20504 10290 20206 30007 40109 82100 333 20234 59011 69954;
0137823920999992010040518004-03700-040350FM-12+008399999V0200501N002612200019N0500001N1+03381+01791100591ADDGF104991041021004501001001MA1999999099591MD1999999-0111REMSYN070AAXX  05184 82392 32499 40505 10338 20179 39959 40059 84200 333 59011;
0178823920999992010040600004-03700-040350FM-12+008399999V0203601N002612200019N0040001N1+02771+02461100851ADDGA1001+999999999GF100991001001999999001001KA1240M+03431MA1999999099841MD1999999-0081REMSYN082AAXX  06004 82392 32996 03605 10277 20246 39984 40085 333 10343 29066 55106 59008;
0156823920999992010040612004-03700-040350FM-12+008399999V0200901N002612200019N0500001N1+02841+02011100961ADDGF104991041021004501001001KA1240N+02401MA1999999099941MD1999999-0131REMSYN076AAXX  06124 82392 32499 40905 10284 20201 39994 40096 84200 333 20240 59013;
0137823920999992010040618004-03700-040350FM-12+008399999V0203601N001512200019N0500001N1+03341+02251100441ADDGF104991021021004501011011MA1999999099441MD1999999-0151REMSYN070AAXX  06184 82392 32499 43603 10334 20225 39944 40044 82211 333 59015;
0232823920999992010040700004-03700-040350FM-12+008399999V0209999C000012200019N0040001N1+02621+02411100771ADDAA106000091AY151061AY251061GF101991011021004501001001KA1240M+03411MA1999999099751MD1999999-0091MW1021REMSYN100AAXX  07004 82392 21496 10000 10262 20241 39975 40077 70255 81200 333 10341 29073 55089 59009 69911;EQDQ01  00002PRCP06
0192823920999992010040712004-03700-040350FM-12+008399999V0200901N001012200019N0500001N1+02741+02171100941ADDAA124000091GF104991031011004501031001KA1240N+02361MA1999999099921MD1999999-0021REMSYN082AAXX  07124 82392 22499 40902 10274 20217 39992 40094 83130 333 20236 59002 69914;EQDQ01  00002PRCP24
0182823920999992010040718004-03700-040350FM-12+008399999V0200501N002610450019N0500001N1+02741+02211100601ADDAA106009991AY151061AY251061GF107991031051004501011001MA1999999099591MD1999999+0151MW1021REMSYN082AAXX  07184 82392 21499 70505 10274 20221 39959 40060 70255 83510 333 58015 60101;
0187823920999992010040800004-03700-040350FM-12+008399999V0209999C000019999999N0040001N1+02531+02351100911ADDGF105991999031004501011001KA1240M+03101MA1999999099891MD1999999+0141REMSYN088AAXX  08004 82392 32496 50000 10253 20235 39989 40091 80310 333 10310 29081 55028 58014;EQDQ01+000002SCOTLC
0173823920999992010040812004-03700-040350FM-12+008399999V0209999C000010042019N0500001N1+02831+02481101021ADDAA124009991GF106991061041004501001001KA1240N+02391MA1999999100001MD1999999+0081REMSYN082AAXX  08124 82392 22499 63600 10283 20248 30000 40102 86400 333 20239 58008 60104;
0137823920999992010040818004-03700-040350FM-12+008399999V0203601N000510042019N0500001N1+02691+02371100631ADDGF107991051061004501011001MA1999999099621MD1999999+0031REMSYN070AAXX  08184 82392 32499 73601 10269 20237 39962 40063 85610 333 58003;
0178823920999992010040900004-03700-040350FM-12+008399999V0200501N000512200019N0040001N1+02581+02231101091ADDGA1001+999999999GF100991001001999999001001KA1240M+03201MA1999999100071MD1999999+0181REMSYN082AAXX  09004 82392 32996 00501 10258 20223 30007 40109 333 10320 29082 55080 58018;
0156823920999992010040912004-03700-040350FM-12+008399999V0202301N001010450019N0500001N1+02781+02131101291ADDGF105991031021004501031001KA1240N+02401MA1999999100271MD1999999+0271REMSYN076AAXX  09124 82392 32499 52302 10278 20213 30027 40129 83230 333 20240 58027;
0137823920999992010040918004-03700-040350FM-12+008399999V0203601N000510450019N0500001N1+02751+02481100791ADDGF107991041061004501011021MA1999999099771MD1999999+0151REMSYN070AAXX  09184 82392 32499 73601 10275 20248 39977 40079 84612 333 58015;
0168823920999992010041000004-03700-040350FM-12+008399999V0200501N001010450019N0040001N1+02561+02291101261ADDGF106991031041004501031001KA1240M+03301MA1999999100241MD1999999+0171REMSYN088AAXX  10004 82392 32496 60502 10256 20229 30024 40126 83430 333 10330 29081 55040 58017;
0156823920999992010041012004-03700-040350FM-12+008399999V0201401N000510450019N0500001N1+02611+02461101251ADDGF107991041051004501011001KA1240N+02321MA1999999100231MD1999999-0041REMSYN076AAXX  10124 82392 32499 71401 10261 20246 30023 40125 84510 333 20232 59004;
0201823920999992010041018004-03700-040350FM-12+008399999V0200501N000510042019N0500001N1+02641+02461100801ADDAA106000091AY151061AY251061GF107991051051004501011001MA1999999099771MD1999999+0001MW1021REMSYN082AAXX  10184 82392 21499 70501 10264 20246 39977 40080 70255 85510 333 58000 69911;EQDQ01  00002PRCP06
0168823920999992010041100004-03700-040350FM-12+008399999V0200501N000510450019N0040001N1+02451+02411101161ADDGF108991041051004501021999KA1240M+03081MA1999999100131MD1999999-0111REMSYN088AAXX  11004 82392 32496 80501 10245 20241 30013 40116 8452/ 333 10308 29094 55022 59011;
0201823920999992010041112004-03700-040350FM-12+008399999V0200901N002612200019N0500001N1+02781+02161101121ADDAA124000591AY151061AY251061GF104991041021004501001001KA1240N+02301MA1999999100101MD1999999-0131MW1021REMSYN088AAXX  11124 82392 21499 40905 10278 20216 30010 40112 70255 84200 333 20230 59013 69944;
0137823920999992010041118004-03700-040350FM-12+008399999V0200501N000512200019N0500001N1+03001+02171100631ADDGF103991011011004501031001MA1999999099621MD1999999-0151REMSYN070AAXX  11184 82392 32499 30501 10300 20217 39962 40063 81130 333 59015;
0178823920999992010041200004-03700-040350FM-12+008399999V0200501N000512200019N0040001N1+02581+02011100891ADDGA1001+999999999GF100991001001999999001001KA1240M+03141MA1999999099871MD1999999-0261REMSYN082AAXX  12004 82392 32996 00501 10258 20201 39987 40089 333 10314 29068 55013 59026;
0156823920999992010041212004-03700-040350FM-12+008399999V0202301N002110450019N0500001N1+02701+02131101071ADDGF107991041041004501031001KA1240N+02381MA1999999100751MD1999999-0051REMSYN076AAXX  12124 82392 32499 72304 10270 20213 30075 40107 84430 333 20238 59005;
0156823920999992010041218004-03700-040350FM-12+008399999V0202301N002610450019N0500001N1+02761+02141100631ADDGF107991031051004501031001MA1999999099622MD1999999+0001REMSYN070AAXX  12184 82392 32499 72305 10276 20214 39962 40063 83530 333 58000;EQDQ01+099623APOSP 
0168823920999992010041300004-03700-040350FM-12+008399999V0201801N000510450019N0040001N1+02501+02431101001ADDGF106991031051004501021001KA1240M+03171MA1999999099981MD1999999+0111REMSYN088AAXX  13004 82392 32496 61801 10250 20243 39998 40100 83520 333 10317 29083 55036 58011;
0175823920999992010041312004-03700-040350FM-12+008399999V0201801N002119999999N0500001N1+02701+02131101171ADDGF105991999021004501001001KA1240N+02301MA1999999100151MD1999999+0101REMSYN076AAXX  13124 82392 32499 51804 10270 20213 30015 40117 84200 333 20230 58010;EQDQ01+000042SCOTLC
0137823920999992010041318004-03700-040350FM-12+008399999V0200901N001010450019N0500001N1+03201+02181100781ADDGF106991031021004501031011MA1999999099761MD1999999+0141REMSYN070AAXX  13184 82392 32499 60902 10320 20218 39976 40078 83231 333 58014;
0178823920999992010041400004-03700-040350FM-12+008399999V0203601N000512200019N0040001N1+02621+02391101081ADDGA1001+999999999GF100991001001999999001001KA1240M+03311MA1999999100061MD1999999+0081REMSYN082AAXX  14004 82392 32996 03601 10262 20239 30006 40108 333 10331 29075 55086 58008;
0156823920999992010041412004-03700-040350FM-12+008399999V0200901N002612200019N0500001N1+02901+02041101121ADDGF103991031011004501001001KA1240N+02241MA1999999100101MD1999999-0051REMSYN076AAXX  14124 82392 32499 30905 10290 20204 30010 40112 83100 333 20224 59005;
0137823920999992010041418004-03700-040350FM-12+008399999V0200901N003112200019N0500001N1+03341+01801100771ADDGF102991021011004501001001MA1999999099761MD1999999+0001REMSYN070AAXX  14184 82392 32499 20906 10334 20180 39976 40077 82100 333 58000;
0178823920999992010041500004-03700-040350FM-12+008399999V0203601N000512200019N0040001N1+02661+02411101011ADDGA1001+999999999GF100991001001999999001001KA1240M+03421MA1999999099991MD1999999-0071REMSYN082AAXX  15004 82392 32996 03601 10266 20241 39999 40101 333 10342 29068 55093 59007;
0156823920999992010041512004-03700-040350FM-12+008399999V0201401N000510450019N0500001N1+02911+02521101011ADDGF106991041021004501011001KA1240N+02251MA1999999100091MD1999999-0011REMSYN076AAXX  15124 82392 32499 61401 10291 20252 30009 40101 84210 333 20225 59001;
0137823920999992010041518004-03700-040350FM-12+008399999V0200901N001512200019N0500001N1+03411+02161100551ADDGF104991031021004501001011MA1999999099541MD1999999-0221REMSYN070AAXX  15184 82392 32499 40903 10341 20216 39954 40055 83201 333 59022;
0168823920999992010041600004-03700-040350FM-12+008399999V0200501N002612200019N0040001N1+02761+02041100921ADDGF102991021001004501031001KA1240M+03501MA1999999099901MD1999999-0091REMSYN088AAXX  16004 82392 32496 20505 10276 20204 39990 40092 82030 333 10350 29064 55092 59009;
0156823920999992010041612004-03700-040350FM-12+008399999V0202301N001012200019N0500001N1+02881+02031101071ADDGF104991041021004501001001KA1240N+02401MA1999999100051MD1999999-0041REMSYN076AAXX  16124 82392 32499 42302 10288 20203 30005 40107 84200 333 20240 59004;
0182823920999992010041618004-03700-040350FM-12+008399999V0203601N005110042019N0500001N1+02711+02521100701ADDAA106000021AY151061AY251061GF107991061051004501021001MA1999999099681MD1999999+0011MW1201REMSYN082AAXX  16184 82392 21499 73610 10271 20252 39968 40070 72055 86520 333 58001 69921;
0178823920999992010041700004-03700-040350FM-12+008399999V0202301N001012200019N0040001N1+02461+02321101091ADDGA1001+999999999GF100991001001999999001001KA1240M+03281MA1999999100071MD1999999+0171REMSYN082AAXX  17004 82392 32996 02302 10246 20232 30007 40109 333 10328 29083 55066 58017;
0201823920999992010041712004-03700-040350FM-12+008399999V0201801N000512200019N0500001N1+02701+02331101151ADDAA124003091AY161061AY261061GF103991031011004501001001KA1240N+02321MA1999999100131MD1999999+0081MW1021REMSYN088AAXX  17124 82392 21499 31801 10270 20233 30013 40115 70266 83100 333 20232 58008 60034;
0137823920999992010041718004-03700-040350FM-12+008399999V0200901N001010450019N0500001N1+03261+02081100791ADDGF106991041021004501031001MA1999999099781MD1999999+0101REMSYN070AAXX  17184 82392 32499 60902 10326 20208 39978 40079 84230 333 58010;
0213823920999992010041800004-03700-040350FM-12+008399999V0200501N002610075019N0040001N1+02601+02031101171ADDAA106000591AY161061AY221061GF106991051041008001031001KA1240M+03401MA1999999100151MD1999999+0071MW1021REMSYN100AAXX  18004 82392 21596 60505 10260 20203 30015 40117 70262 85430 333 10340 29068 55085 58007 69961;
0201823920999992010041812004-03700-040350FM-12+008399999V0209999C000010042019N0500001N1+02641+02421101311ADDAA124000891AY151061AY251061GF108991061051004501011999KA1240N+02401MA1999999100291MD1999999+0161MW1021REMSYN088AAXX  18124 82392 21499 80900 10264 20242 30029 40131 70255 8651/ 333 20240 58016 69984;
0137823920999992010041818004-03700-040350FM-12+008399999V0200501N000511050019N0500001N1+03161+02341100911ADDGF105991021021004501031011MA1999999099891MD1999999+0111REMSYN070AAXX  18184 82392 32499 50501 10316 20234 39989 40091 82231 333 58011;
0168823920999992010041900004-03700-040350FM-12+008399999V0200501N000512200019N0040001N1+02621+02441101201ADDGF102991021051004501001001KA1240M+03261MA1999999100181MD1999999+0041REMSYN088AAXX  19004 82392 32496 20501 10262 20244 30018 40120 82500 333 10326 29083 55073 58004;
0156823920999992010041912004-03700-040350FM-12+008399999V0201401N001012200019N0500001N1+02821+02221101231ADDGF104991041021004501001001KA1240N+02401MA1999999100211MD1999999-0081REMSYN076AAXX  19124 82392 32499 41402 10282 20222 30021 40123 84200 333 20240 59008;
0137823920999992010041918004-03700-040350FM-12+008399999V0201401N001012200019N0500001N1+03241+02101100831ADDGF104991041021004501001001MA1999999099821MD1999999-0071REMSYN070AAXX  19184 82392 32499 41402 10324 20210 39982 40083 84200 333 59007;
0213823920999992010042000004-03700-040350FM-12+008399999V0209999C000012200019N0200001N1+02521+02451101061ADDAA106003091AY161061AY261061GF102991011051004501011001KA1240M+03371MA1999999100041MD1999999-0141MW1021REMSYN100AAXX  20004 82392 21498 20000 10252 20245 30004 40106 70266 81510 333 10337 29078 55064 59014 60031;
0201823920999992010042012004-03700-040350FM-12+008399999V0200901N004610450019N0200001N1+02501+02401101181ADDAA124006191AY161061AY261061GF108991041071004501021999KA1240N+02381MA1999999100151MD1999999-0061MW1631REMSYN088AAXX  20124 82392 21498 80909 10250 20240 30015 40118 76366 8472/ 333 20238 59006 60064;
0182823920999992010042018004-03700-040350FM-12+008399999V0201401N000510450019N0500001N1+02961+02471100851ADDAA106000021AY151061AY251061GF107991041051004501031001MA1999999099831MD1999999+0011MW1021REMSYN082AAXX  20184 82392 21499 71401 10296 20247 39983 40085 70255 84530 333 58001 69911;
0168823920999992010042100004-03700-040350FM-12+008399999V0209999C000012200019N0040001N1+02591+02481101091ADDGF102991011051004501011001KA1240M+03021MA1999999100071MD1999999+0031REMSYN088AAXX  21004 82392 32496 20000 10259 20248 30007 40109 81510 333 10302 29089 55016 58003;
0173823920999992010042112004-03700-040350FM-12+008399999V0202301N001012200019N0500001N1+02761+02041101121ADDAA124000021GF104991041021004501001001KA1240N+02401MA1999999100101MD1999999-0051REMSYN082AAXX  21124 82392 22499 42302 10276 20204 30010 40112 84200 333 20240 59005 69914;
0182823920999992010042118004-03700-040350FM-12+008399999V0203601N003110042019N0500001N1+02781+02061100821ADDAA106007991AY161061AY221061GF107991051051004501031001MA1999999099801MD1999999-0031MW1031REMSYN082AAXX  21184 82392 21499 73606 10278 20206 39980 40082 70362 85530 333 59003 60081;
0168823920999992010042200004-03700-040350FM-12+008399999V0209999C000010450019N0040001N1+02591+02481101081ADDGF106991021051004501031001KA1240M+03081MA1999999100061MD1999999-0011REMSYN088AAXX  22004 82392 32496 60000 10259 20248 30006 40108 82530 333 10308 29079 55038 59001;
0173823920999992010042212004-03700-040350FM-12+008399999V0202701N000510450019N0040001N1+02781+02501101121ADDAA124007991GF106991031021004501031001KA1240N+02361MA1999999100101MD1999999+0061REMSYN082AAXX  22124 82392 22496 62701 10278 20250 30010 40112 83230 333 20236 58006 60084;
0182823920999992010042218004-03700-040350FM-12+008399999V0200501N000510450019N0500001N1+02761+02561100771ADDAA106005191AY161061AY261061GF107991041071004501011001MA1999999099751MD1999999-0051MW1021REMSYN082AAXX  22184 82392 21499 70501 10276 20256 39975 40077 70266 84710 333 59005 60051;
0213823920999992010042300004-03700-040350FM-12+008399999V0203601N000510450019N0040001N1+02381+02281101161ADDAA106021191AY161061AY261061GF108991041061004501021999KA1240M+03241MA1999999100141MD1999999+0081MW1511REMSYN100AAXX  23004 82392 21496 83601 10238 20228 30014 40116 75166 8462/ 333 10324 29090 55043 58008 60211;
0173823920999992010042312004-03700-040350FM-12+008399999V0200901N002612200019N0500001N1+02801+02181101221ADDAA124025991GF104991021021004501031001KA1240N+02241MA1999999100201MD1999999+0101REMSYN082AAXX  23124 82392 22499 40905 10280 20218 30020 40122 82230 333 20224 58010 60264;
0137823920999992010042318004-03700-040350FM-12+008399999V0201401N002610042019N0500001N1+02811+02461100881ADDGF107991061071004501031001MA1999999099851MD1999999+0101REMSYN070AAXX  23184 82392 32499 71405 10281 20246 39985 40088 86730 333 58010;
0168823920999992010042400004-03700-040350FM-12+008399999V0202301N000512200019N0040001N1+02561+01971101061ADDGF104991021011004501031001KA1240M+03221MA1999999100041MD1999999-0101REMSYN088AAXX  24004 82392 32496 42301 10256 20197 30004 40106 82130 333 10322 29072 55079 59010;
0156823920999992010042412004-03700-040350FM-12+008399999V0200901N000512200019N0500001N1+02911+02521101171ADDGF104991031021004501001011KA1240N+02331MA1999999100151MD1999999-0051REMSYN076AAXX  24124 82392 32499 40901 10291 20252 30015 40117 83201 333 20233 59005;
0137823920999992010042418004-03700-040350FM-12+008399999V0200901N001012200019N0500001N1+03311+02071100741ADDGF103991021011004501031001MA1999999099731MD1999999-0121REMSYN070AAXX  24184 82392 32499 30902 10331 20207 39973 40074 82130 333 59012;
0168823920999992010042500004-03700-040350FM-12+008399999V0209999C000010450019N0040001N1+02481+02251100981ADDGF105991011011004501031001KA1240M+02481MA1999999099961MD1999999-0081REMSYN088AAXX  25004 82392 32496 50900 10248 20225 39996 40098 81130 333 10248 29075 55108 59008;
0156823920999992010042512004-03700-040350FM-12+008399999V0200901N002112200019N0500001N1+02841+02121101111ADDGF104991021011004501031001KA1240N+02291MA1999999100091MD1999999-0061REMSYN076AAXX  25124 82392 32499 40904 10284 20212 30009 40111 82130 333 20229 59006;
0137823920999992010042518004-03700-040350FM-12+008399999V0200501N004612200019N0500001N1+03201+01891100761ADDGF101991011011004501001001MA1999999099741MD1999999+0011REMSYN070AAXX  25184 82392 32499 10509 10320 20189 39974 40076 81100 333 58001;
0232823920999992010042600004-03700-040350FM-12+008399999V0200901N003110450019N0040001N1+02561+02251101151ADDAA106000091AY151061AY221061GF108991041061004501021999KA1240M+03301MA1999999100131MD1999999+0171MW1021REMSYN100AAXX  26004 82392 21496 80906 10256 20225 30013 40115 70252 8462/ 333 10330 29069 55097 58017 69911;EQDQ01  00002PRCP06
0192823920999992010042612004-03700-040350FM-12+008399999V0202301N000512200019N0500001N1+02781+02231101181ADDAA124000091GF104991021011004501031001KA1240N+02221MA1999999100161MD1999999+0071REMSYN082AAXX  26124 82392 22499 42301 10278 20223 30016 40118 82130 333 20222 58007 69914;EQDQ01  00002PRCP24
0137823920999992010042618004-03700-040350FM-12+008399999V0201801N001012200019N0500001N1+03261+02081100811ADDGF104991041021004501001001MA1999999099791MD1999999+0051REMSYN070AAXX  26184 82392 32499 41802 10326 20208 39979 40081 84200 333 58005;
0168823920999992010042700004-03700-040350FM-12+008399999V0200501N000512200019N0040001N1+02551+02251101121ADDGF102991021001008001011001KA1240M+03241MA1999999100101MD1999999+0031REMSYN088AAXX  27004 82392 32596 20501 10255 20225 30010 40112 82010 333 10324 29072 55089 58003;
0156823920999992010042712004-03700-040350FM-12+008399999V0200901N001512200019N0500001N1+02881+02031101251ADDGF101991011011004501001001KA1240N+02201MA1999999100231MD1999999+0071REMSYN076AAXX  27124 82392 32499 10903 10288 20203 30023 40125 81100 333 20220 58007;
0137823920999992010042718004-03700-040350FM-12+008399999V0201801N001010450019N0500001N1+03331+02281100791ADDGF106991031051004501031001MA1999999099771MD1999999-0021REMSYN070AAXX  27184 82392 32499 61802 10333 20228 39977 40079 83530 333 59002;
0213823920999992010042800004-03700-040350FM-12+008399999V0203601N000512200019N0040001N1+02571+02371101081ADDAA106000591AY161061AY261061GF102991021001008001031001KA1240M+03401MA1999999100061MD1999999-0041MW1021REMSYN100AAXX  28004 82392 21596 23601 10257 20237 30006 40108 70266 82030 333 10340 29073 55084 59004 69951;
0173823920999992010042812004-03700-040350FM-12+008399999V0203601N001010450019N0500001N1+02761+02041101121ADDAA124000591GF106991031021004501031001KA1240N+02241MA1999999100101MD1999999-0131REMSYN082AAXX  28124 82392 22499 63602 10276 20204 30010 40112 83230 333 20224 59013 69954;
0156823920999992010042818004-03700-040350FM-12+008399999V0200501N002612200019N0500001N1+03341+01951100791ADDGF104991999021004501001001MA1999999099771MD1999999+0001REMSYN070AAXX  28184 82392 32499 40505 10334 20195 39977 40079 83200 333 58000;EQDQ01+000032SCOTLC
0168823920999992010042900004-03700-040350FM-12+008399999V0200501N000519999999N0040001N1+02631+02421101111ADDGF106991061001008001031001KA1240M+03421MA1999999100091MD1999999-0071REMSYN088AAXX  29004 82392 32596 60501 10263 20242 30009 40111 86030 333 10342 29071 55065 59007;
0156823920999992010042912004-03700-040350FM-12+008399999V0200901N001010450019N0500001N1+02871+02391101281ADDGF106991021021004501031001KA1240N+02251MA1999999100261MD1999999+0161REMSYN076AAXX  29124 82392 32499 60902 10287 20239 30026 40128 82230 333 20225 58016;
0182823920999992010042918004-03700-040350FM-12+008399999V0201801N000510450019N0500001N1+02791+02581100871ADDAA106007991AY161061AY261061GF106991031051004501011001MA1999999099841MD1999999+0071MW1211REMSYN082AAXX  29184 82392 21499 61801 10279 20258 39984 40087 72166 83510 333 58007 60081;
0213823920999992010043000004-03700-040350FM-12+008399999V0200501N001012200019N0040001N1+02421+02351101061ADDAA106008991AY161061AY261061GF102991021001004501031001KA1240M+03201MA1999999100041MD1999999-0051MW1021REMSYN100AAXX  30004 82392 21496 20502 10242 20235 30004 40106 70266 82030 333 10320 29089 55038 59005 60091;
0173823920999992010043012004-03700-040350FM-12+008399999V0202701N001010450019N0500001N1+02721+02151101171ADDAA124017091GF105991031021004501031001KA1240N+02201MA1999999100151MD1999999-0111REMSYN082AAXX  30124 82392 22499 52702 10272 20215 30015 40117 83230 333 20220 59011 60174;
0137823920999992010043018004-03700-040350FM-12+008399999V0203201N000510450019N0500001N1+03471+02281100671ADDGF106991031051004501011011MA1999999099661MD1999999-0181REMSYN070AAXX  30184 82392 32499 63201 10347 20228 39966 40067 83511 333 59018;
0213823920999992010050100004-03700-040350FM-12+008399999V0203601N000510450019N0040001N1+02481+02361101021ADDAA106002091AY161061AY261061GF106991031041004501031001KA1240M+03601MA1999999100001MD1999999-0041MW1021REMSYN100AAXX  01004 82392 21496 63601 10248 20236 30000 40102 70266 83430 333 10360 29077 55075 59004 60021;
0173823920999992010050112004-03700-040350FM-12+008399999V0201401N001010450019N0500001N1+02801+02181101141ADDAA124002091GF106991031051004501011001KA1240N+02401MA1999999100121MD1999999-0031REMSYN082AAXX  01124 82392 22499 61402 10280 20218 30012 40114 83510 333 20240 59003 60024;
0137823920999992010050118004-03700-040350FM-12+008399999V0200501N004610042019N0500001N1+02921+02141100761ADDGF107991051051004501011001MA1999999099741MD1999999+0081REMSYN070AAXX  01184 82392 32499 70509 10292 20214 39974 40076 85510 333 58008;
0168823920999992010050200004-03700-040350FM-12+008399999V0202701N000510450019N0040001N1+02501+02311101061ADDGF106991041041004501031001KA1240M+03381MA1999999100041MD1999999+0041REMSYN088AAXX  02004 82392 32496 62701 10250 20231 30004 40106 84430 333 10338 29078 55068 58004;
0156823920999992010050212004-03700-040350FM-12+008399999V0209999C000010042019N0500001N1+02811+02441101291ADDGF107991051051004501031001KA1240N+02451MA1999999100271MD1999999+0151REMSYN076AAXX  02124 82392 32499 70000 10281 20244 30027 40129 85530 333 20245 58015;
0182823920999992010050218004-03700-040350FM-12+008399999V0200501N002610042019N0500001N1+03001+02601100871ADDAA106000021AY101061AY221061GF107991051061004501031001MA1999999099851MD1999999+0111MW1201REMSYN082AAXX  02184 82392 21499 70505 10300 20260 39985 40087 72002 85630 333 58011 69911;
0213823920999992010050300004-03700-040350FM-12+008399999V0209999C000012200019N0040001N1+02461+02361101201ADDAA106000021AY151061AY251061GF104991021041004501021999KA1240M+03281MA1999999100181MD1999999+0141MW1021REMSYN100AAXX  03004 82392 21496 40000 10246 20236 30018 40120 70255 8242/ 333 10328 29087 55058 58014 69921;
0173823920999992010050312004-03700-040350FM-12+008399999V0200901N002612200019N0500001N1+02721+02301101301ADDAA124000591GF104991031021004501031001KA1240N+02301MA1999999100281MD1999999+0011REMSYN082AAXX  03124 82392 22499 40905 10272 20230 30028 40130 83230 333 20230 58001 69944;
0182823920999992010050318004-03700-040350FM-12+008399999V0202701N000510450019N0500001N1+02781+02421100921ADDAA106003091AY161061AY281061GF106991031041004501011001MA1999999099901MD1999999+0051MW1021REMSYN082AAXX  03184 82392 21499 62701 10278 20242 39990 40092 70268 83410 333 58005 60031;
0213823920999992010050400004-03700-040350FM-12+008399999V0209999C000012200019N0040001N1+02461+02391101061ADDAA106000591AY161061AY261061GF104991021021004501011001KA1240M+03071MA1999999100041MD1999999-0141MW1021REMSYN100AAXX  04004 82392 21496 40000 10246 20239 30004 40106 70266 82210 333 10307 29088 55020 59014 69951;
0173823920999992010050412004-03700-040350FM-12+008399999V0201401N001510450019N0500001N1+02841+02221101121ADDAA124004191GF105991041021004501031001KA1240N+02301MA1999999100101MD1999999-0181REMSYN082AAXX  04124 82392 22499 51403 10284 20222 30010 40112 84230 333 20230 59018 60044;
0137823920999992010050418004-03700-040350FM-12+008399999V0201401N002112200019N0500001N1+03361+02111100751ADDGF104991041021004501001001MA1999999099731MD1999999-0171REMSYN070AAXX  04184 82392 32499 41404 10336 20211 39973 40075 84200 333 59017;
0178823920999992010050500004-03700-040350FM-12+008399999V0203601N000512200019N0040001N1+02621+02391100941ADDGA1001+999999999GF100991001001999999001001KA1240M+03431MA1999999099921MD1999999-0121REMSYN082AAXX  05004 82392 32996 03601 10262 20239 39992 40094 333 10343 29073 55106 59012;
0156823920999992010050512004-03700-040350FM-12+008399999V0200501N000510042019N0500001N1+02741+02101101111ADDGF107991051051004501031001KA1240N+02301MA1999999100091MD1999999-0011REMSYN076AAXX  05124 82392 32499 70501 10274 20210 30009 40111 85530 333 20230 59001;
0182823920999992010050518004-03700-040350FM-12+008399999V0202301N000510450019N0500001N1+02561+02081100811ADDAA106001091AY161061AY221061GF108991041051004501011999MA1999999099781MD1999999+0051MW1021REMSYN082AAXX  05184 82392 21499 82301 10256 20208 39978 40081 70262 8451/ 333 58005 60011;
0213823920999992010050600004-03700-040350FM-12+008399999V0209999C000012200019N0040001N1+02411+02391101071ADDAA106000591AY151061AY251061GF104991021051004501021001KA1240M+02411MA1999999100051MD1999999+0131MW1021REMSYN100AAXX  06004 82392 21496 40500 10241 20239 30005 40107 70255 82520 333 10241 29085 55034 58013 69951;
0173823920999992010050612004-03700-040350FM-12+008399999V0209999C000010450019N0500001N1+02691+02411101181ADDAA124002091GF106991031021004501031001KA1240N+02221MA1999999100161MD1999999+0071REMSYN082AAXX  06124 82392 22499 63600 10269 20241 30016 40118 83230 333 20222 58007 60024;
0137823920999992010050618004-03700-040350FM-12+008399999V0200901N000510042019N0500001N1+03291+02391100741ADDGF105991051051004501001001MA1999999099721MD1999999-0061REMSYN070AAXX  06184 82392 32499 50901 10329 20239 39972 40074 85500 333 59006;
0213823920999992010050700004-03700-040350FM-12+008399999V0203201N000510450019N0040001N1+02501+02341101161ADDAA106005191AY161061AY221061GF106991031041004501031001KA1240M+03781MA1999999100141MD1999999+0091MW1021REMSYN100AAXX  07004 82392 21496 63201 10250 20234 30014 40116 70262 83430 333 10378 29081 55082 58009 60051;
0173823920999992010050712004-03700-040350FM-12+008399999V0200501N000512200019N0500001N1+02641+02141101231ADDAA124005191GF104991041021004501001001KA1240N+02301MA1999999100211MD1999999+0051REMSYN082AAXX  07124 82392 22499 40501 10264 20214 30021 40123 84200 333 20230 58005 60054;
0137823920999992010050718004-03700-040350FM-12+008399999V0203601N001512200019N0500001N1+03301+02391100721ADDGF102991021021004501001001MA1999999099711MD1999999-0011REMSYN070AAXX  07184 82392 32499 23603 10330 20239 39971 40072 82200 333 59001;
0168823920999992010050800004-03700-040350FM-12+008399999V0200501N004612200019N0040001N1+02741+02321101041ADDGF104991041021004501001001KA1240M+03361MA1999999100021MD1999999-0121REMSYN088AAXX  08004 82392 32496 40509 10274 20232 30002 40104 84200 333 10336 29072 55090 59012;
0201823920999992010050812004-03700-040350FM-12+008399999V0201401N000512200019N0500001N1+02831+02501101211ADDAA124013091AY161061AY261061GF106991031021004501001011KA1240N+02291MA1999999100191MD1999999-0021MW1021REMSYN088AAXX  08124 82392 21499 61401 10283 20250 30019 40121 70266 83201 333 20229 59002 60134;
0137823920999992010050818004-03700-040350FM-12+008399999V0200501N000512200019N0500001N1+03281+02201100791ADDGF104991011011004501001011MA1999999099771MD1999999+0061REMSYN070AAXX  08184 82392 32499 40501 10328 20220 39977 40079 81101 333 58006;
0168823920999992010050900004-03700-040350FM-12+008399999V0200501N000512200019N0040001N1+02541+02441101091ADDGF103991011041004501031001KA1240M+03381MA1999999100071MD1999999+0051REMSYN088AAXX  09004 82392 32496 30501 10254 20244 30007 40109 81430 333 10338 29081 55088 58005;
0156823920999992010050912004-03700-040350FM-12+008399999V0200901N001012200019N0500001N1+02761+02141101181ADDGF101991011011004501001001KA1240N+02201MA1999999100161MD1999999-0031REMSYN076AAXX  09124 82392 32499 10902 10276 20214 30016 40118 81100 333 20220 59003;
0137823920999992010050918004-03700-040350FM-12+008399999V0200501N001012200019N0500001N1+03301+02021100801ADDGF101991011011004501001001MA1999999099781MD1999999-0011REMSYN070AAXX  09184 82392 32499 10502 10330 20202 39978 40080 81100 333 59001;
0168823920999992010051000004-03700-040350FM-12+008399999V0203601N002112200019N0040001N1+02641+02231101011ADDGF103991031001004501031001KA1240M+03421MA1999999099991MD1999999-0081REMSYN088AAXX  10004 82392 32496 33604 10264 20223 39999 40101 83030 333 10342 29068 55104 59008;
0156823920999992010051012004-03700-040350FM-12+008399999V0200501N001010450019N0500001N1+02701+02111101101ADDGF105991041021004501031001KA1240N+02261MA1999999100081MD1999999-0081REMSYN076AAXX  10124 82392 32499 50502 10270 20211 30008 40110 84230 333 20226 59008;
0137823920999992010051018004-03700-040350FM-12+008399999V0200501N002612200019N0500001N1+03321+01891100621ADDGF103991031021004501001001MA1999999099621MD1999999-0161REMSYN070AAXX  10184 82392 32499 30505 10332 20189 39962 40062 83200 333 59016;
0156823920999992010051112004-03700-040350FM-12+008399999V0200501N003110450019N0500001N1+02781+01851101191ADDGF105991041021004501031001KA1240N+02321MA1999999100171MD1999999+0091REMSYN076AAXX  11124 82392 32499 50506 10278 20185 30017 40119 84230 333 20232 58009;
0137823920999992010051118004-03700-040350FM-12+008399999V0203601N000512200019N0500001N1+03291+02181100721ADDGF102991021011004501001001MA1999999099701MD1999999+0081REMSYN070AAXX  11184 82392 32499 23601 10329 20218 39970 40072 82100 333 58008;
0178823920999992010051200004-03700-040350FM-12+008399999V0203601N000512200019N0040001N1+02631+02441101081ADDGA1001+999999999GF100991001001999999001001KA1240M+03391MA1999999100061MD1999999+0071REMSYN082AAXX  12004 82392 32496 03601 10263 20244 30006 40108 333 10339 29072 55093 58007;
0156823920999992010051212004-03700-040350FM-12+008399999V0203601N001010450019N0500001N1+02741+02101101141ADDGF106991041021004501031001KA1240N+02201MA1999999100121MD1999999-0051REMSYN076AAXX  12124 82392 32499 63602 10274 20210 30012 40114 84230 333 20220 59005;
0137823920999992010051218004-03700-040350FM-12+008399999V0202701N001012200019N0500001N1+03381+01791100731ADDGF102991011011004501001011MA1999999099711MD1999999+0011REMSYN070AAXX  12184 82392 32499 22702 10338 20179 39971 40073 81101 333 58001;
0168823920999992010051300004-03700-040350FM-12+008399999V0203601N001510450019N0040001N1+02621+02431101161ADDGF107991041041004501021001KA1240M+03471MA1999999100141MD1999999+0081REMSYN088AAXX  13004 82392 32496 73603 10262 20243 30014 40116 84420 333 10347 29070 55079 58008;
0156823920999992010051312004-03700-040350FM-12+008399999V0200501N000510042019N0500001N1+02861+02521101221ADDGF106991051041004501031001KA1240N+02391MA1999999100201MD1999999+0081REMSYN076AAXX  13124 82392 32499 60501 10286 20252 30020 40122 85430 333 20239 58008;
0201823920999992010051318004-03700-040350FM-12+008399999V0203601N002110042019N0500001N1+03001+02461100841ADDAA106000591AY161061AY221061GF107991999021004501001001MA1999999099821MD1999999+0111MW1031REMSYN082AAXX  13184 82392 21499 73604 10300 20246 39982 40084 70362 86200 333 58011 69951;EQDQ01+000062SCOTLC
0213823920999992010051400004-03700-040350FM-12+008399999V0203601N000510450019N0040001N1+02521+02231101161ADDAA106000891AY151061AY251061GF106991041051004501031001KA1240M+03381MA1999999100141MD1999999+0001MW1021REMSYN100AAXX  14004 82392 21496 63601 10252 20223 30014 40116 70255 84530 333 10338 29081 55052 58000 69981;
0173823920999992010051412004-03700-040350FM-12+008399999V0200901N003110450019N0500001N1+02861+02011101261ADDAA124001091GF105991041021004501031001KA1240N+02361MA1999999100241MD1999999+0041REMSYN082AAXX  14124 82392 22499 50906 10286 20201 30024 40126 84230 333 20236 58004 60014;
0137823920999992010051418004-03700-040350FM-12+008399999V0201801N001511050019N0500001N1+03281+02371100881ADDGF106991031041004501001021MA1999999099861MD1999999+0041REMSYN070AAXX  14184 82392 32499 61803 10328 20237 39986 40088 83402 333 58004;
0178823920999992010051500004-03700-040350FM-12+008399999V0200501N002112200019N0040001N1+02641+02071101121ADDGA1001+999999999GF100991001001999999001001KA1240M+03401MA1999999100101MD1999999-0041REMSYN082AAXX  15004 82392 32996 00504 10264 20207 30010 40112 333 10340 29065 55085 59004;
0156823920999992010051512004-03700-040350FM-12+008399999V0200901N001012200019N0500001N1+02901+02041101171ADDGF101991011011004501001001KA1240N+02101MA1999999100151MD1999999-0091REMSYN076AAXX  15124 82392 32499 10902 10290 20204 30015 40117 81100 333 20210 59009;
0137823920999992010051518004-03700-040350FM-12+008399999V0200501N004612200019N0500001N1+03361+01771100771ADDGF104991031011004501031001MA1999999099751MD1999999-0111REMSYN070AAXX  15184 82392 32499 40509 10336 20177 39975 40077 83130 333 59011;
0168823920999992010051600004-03700-040350FM-12+008399999V0200501N003112200019N0040001N1+02701+02131101041ADDGF102991021001004501031001KA1240M+03501MA1999999100021MD1999999-0081REMSYN088AAXX  16004 82392 32496 20506 10270 20213 30002 40104 82030 333 10350 29060 55097 59008;
0156823920999992010051612004-03700-040350FM-12+008399999V0200901N000512200019N0500001N1+03011+02181101101ADDGF103991011011004501031001KA1240N+02231MA1999999100091MD1999999-0061REMSYN076AAXX  16124 82392 32499 30901 10301 20218 30009 40110 81130 333 20223 59006;
0137823920999992010051618004-03700-040350FM-12+008399999V0200901N002112200019N0500001N1+03511+01391100701ADDGF103991011011004501031001MA1999999099691MD1999999-0061REMSYN070AAXX  16184 82392 32499 30904 10351 20139 39969 40070 81130 333 59006;
0168823920999992010051700004-03700-040350FM-12+008399999V0203601N000512200019N0040001N1+02501+02111101031ADDGF102991021001008001031001KA1240M+03621MA1999999100011MD1999999-0011REMSYN088AAXX  17004 82392 32596 23601 10250 20211 30001 40103 82030 333 10362 29062 55098 59001;
0156823920999992010051712004-03700-040350FM-12+008399999V0200901N002612200019N0500001N1+02861+02011101181ADDGF104991041021004501001001KA1240N+02001MA1999999100161MD1999999+0071REMSYN076AAXX  17124 82392 32499 40905 10286 20201 30016 40118 84200 333 20200 58007;
0137823920999992010051718004-03700-040350FM-12+008399999V0200901N004112200019N0500001N1+03441+01671100781ADDGF102991011011004501031001MA1999999099761MD1999999+0071REMSYN070AAXX  17184 82392 32499 20908 10344 20167 39976 40078 81130 333 58007;
0168823920999992010051800004-03700-040350FM-12+008399999V0203601N000512200019N0040001N1+02631+02311101091ADDGF101991011001008001031001KA1240M+03541MA1999999100071MD1999999+0061REMSYN088AAXX  18004 82392 32596 13601 10263 20231 30007 40109 81030 333 10354 29065 55106 58006;
0156823920999992010051812004-03700-040350FM-12+008399999V0200501N001012200019N0500001N1+02881+01941101081ADDGF101991011011004501001001KA1240N+02121MA1999999100061MD1999999-0101REMSYN076AAXX  18124 82392 32499 10502 10288 20194 30006 40108 81100 333 20212 59010;
0137823920999992010051818004-03700-040350FM-12+008399999V0200901N002112200019N0500001N1+03561+01911100641ADDGF103991021011004501031001MA1999999099641MD1999999-0121REMSYN070AAXX  18184 82392 32499 30904 10356 20191 39964 40064 82130 333 59012;
0168823920999992010051900004-03700-040350FM-12+008399999V0200601N001010450019N0040001N1+02741+02281100981ADDGF105991021041004501031001KA1240M+03641MA1999999099961MD1999999-0111REMSYN088AAXX  19004 82392 32496 50602 10274 20228 39996 40098 82430 333 10364 29062 55101 59011;
0156823920999992010051912004-03700-040350FM-12+008399999V0200501N002610450019N0500001N1+02981+01981101191ADDGF105991031021004501031001KA1240N+02241MA1999999100171MD1999999+0111REMSYN076AAXX  19124 82392 32499 50505 10298 20198 30017 40119 83230 333 20224 58011;
0156823920999992010051918004-03700-040350FM-12+008399999V0200501N003119999999N0500001N1+03421+01561100811ADDGF105991999021004501001001MA1999999099801MD1999999+0161REMSYN070AAXX  19184 82392 32499 50506 10342 20156 39980 40081 84200 333 58016;EQDQ01+000042SCOTLC
0168823920999992010052000004-03700-040350FM-12+008399999V0203601N001512200019N0040001N1+02731+02261101061ADDGF103991011011004501031001KA1240M+03561MA1999999100051MD1999999+0091REMSYN088AAXX  20004 82392 32496 33603 10273 20226 30005 40106 81130 333 10356 29060 55077 58009;
0156823920999992010052012004-03700-040350FM-12+008399999V0200501N000512200019N0500001N1+02941+02391101071ADDGF106991041041004501001011KA1240N+02261MA1999999100051MD1999999-0121REMSYN076AAXX  20124 82392 32499 60501 10294 20239 30005 40107 84401 333 20226 59012;
0137823920999992010052018004-03700-040350FM-12+008399999V0200901N000512200019N0500001N1+03571+01971100581ADDGF103991031011004501001001MA1999999099581MD1999999-0221REMSYN070AAXX  20184 82392 32499 30901 10357 20197 39958 40058 83100 333 59022;
0168823920999992010052100004-03700-040350FM-12+008399999V0203601N005112200019N0040001N1+02701+02131100961ADDGF104991021011004501031001KA1240M+03641MA1999999099941MD1999999-0111REMSYN088AAXX  21004 82392 32496 43610 10270 20213 39994 40096 82130 333 10364 29062 55089 59011;
0156823920999992010052112004-03700-040350FM-12+008399999V0200501N003110450019N0500001N1+02861+01981101171ADDGF106991041021004501031001KA1240N+02301MA1999999100151MD1999999+0101REMSYN076AAXX  21124 82392 32499 60506 10286 20198 30015 40117 84230 333 20230 58010;
0137823920999992010052118004-03700-040350FM-12+008399999V0209999C000012200019N0500001N1+03461+02131100591ADDGF102991021021004501001001MA1999999099591MD1999999+0011REMSYN070AAXX  21184 82392 32499 23600 10346 20213 39959 40059 82200 333 58001;
0168823920999992010052200004-03700-040350FM-12+008399999V0203601N004112200019N0040001N1+02701+02131100921ADDGF102991021001004501031001KA1240M+03621MA1999999099901MD1999999-0041REMSYN088AAXX  22004 82392 32496 23608 10270 20213 39990 40092 82030 333 10362 29062 55080 59004;
0156823920999992010052212004-03700-040350FM-12+008399999V0201401N001010042019N0500001N1+02821+02221101061ADDGF105991051021004501001001KA1240N+02321MA1999999100041MD1999999-0111REMSYN076AAXX  22124 82392 32499 51402 10282 20222 30004 40106 85200 333 20232 59011;
0137823920999992010052218004-03700-040350FM-12+008399999V0200501N000512200019N0500001N1+03481+02041100611ADDGF104991031021004501031001MA1999999099611MD1999999+0021REMSYN070AAXX  22184 82392 32499 40501 10348 20204 39961 40061 83230 333 58002;
0168823920999992010052300004-03700-040350FM-12+008399999V0203601N001512200019N0040001N1+02681+02371100901ADDGF102991011011004501031001KA1240M+03561MA1999999099881MD1999999-0021REMSYN088AAXX  23004 82392 32496 23603 10268 20237 39988 40090 81130 333 10356 29070 55101 59002;
0156823920999992010052312004-03700-040350FM-12+008399999V0201401N002110450019N0500001N1+02861+01981101041ADDGF106991041041004501031001KA1240N+02301MA1999999100021MD1999999-0021REMSYN076AAXX  23124 82392 32499 61404 10286 20198 30002 40104 84430 333 20230 59002;
0137823920999992010052318004-03700-040350FM-12+008399999V0200501N001012200019N0500001N1+03541+01711100501ADDGF104991041021004501001001MA1999999099501MD1999999-0111REMSYN070AAXX  23184 82392 32499 40502 10354 20171 39950 40050 84200 333 59011;
0223823920999992010052400004-03700-040350FM-12+008399999V0200501N002112200019N0040001N1+02581+02331100861ADDAA106014091AY161061AY221061GA1001+999999999GF100991001001999999001001KA1240M+03681MA1999999099841MD1999999-0041MW1021REMSYN094AAXX  24004 82392 21996 00504 10258 20233 39984 40086 70262 333 10368 29066 55080 59004 60141;
0173823920999992010052412004-03700-040350FM-12+008399999V0201401N000512200019N0500001N1+02841+02191100971ADDAA124014091GF104991041021004501001001KA1240N+02301MA1999999099951MD1999999-0071REMSYN082AAXX  24124 82392 22499 41401 10284 20219 39995 40097 84200 333 20230 59007 60144;
0137823920999992010052418004-03700-040350FM-12+008399999V0200901N002612200019N0500001N1+03401+01961100571ADDGF103991021011004501001011MA1999999099571MD1999999+0071REMSYN070AAXX  24184 82392 32499 30905 10340 20196 39957 40057 82101 333 58007;
0168823920999992010052500004-03700-040350FM-12+008399999V0200501N000512200019N0040001N1+02721+02341100871ADDGF102991011011004501011001KA1240M+03521MA1999999099851MD1999999+0011REMSYN088AAXX  25004 82392 32496 20501 10272 20234 39985 40087 81110 333 10352 29068 55095 58001;
0175823920999992010052512004-03700-040350FM-12+008399999V0201401N002112200019N0500001N1+02961+01991101101ADDGF104991999021004501001001KA1240N+02401MA1999999100081MD1999999+0131REMSYN076AAXX  25124 82392 32499 41404 10296 20199 30008 40110 83200 333 20240 58013;EQDQ01+000032SCOTLC
0156823920999992010052518004-03700-040350FM-12+008399999V0200901N001519999999N0500001N1+03581+01881100611ADDGF105991999021004501001001MA1999999099611MD1999999+0041REMSYN070AAXX  25184 82392 32499 50903 10358 20188 39961 40061 83200 333 58004;EQDQ01+000032SCOTLC
0168823920999992010052600004-03700-040350FM-12+008399999V0203601N002612200019N0040001N1+02781+02161100961ADDGF104991011011004501011021KA1240M+03661MA1999999099951MD1999999+0101REMSYN088AAXX  26004 82392 32496 43605 10278 20216 39995 40096 81112 333 10366 29058 55101 58010;
0156823920999992010052612004-03700-040350FM-12+008399999V0200901N004610450019N0500001N1+03021+02021101141ADDGF105991041041004501031001KA1240N+02221MA1999999100131MD1999999+0051REMSYN076AAXX  26124 82392 32499 50909 10302 20202 30013 40114 84430 333 20222 58005;
0137823920999992010052618004-03700-040350FM-12+008399999V0203601N005112200019N0500001N1+03101+02001100711ADDGF103991031021004501001001MA1999999099691MD1999999+0081REMSYN070AAXX  26184 82392 32499 33610 10310 20200 39969 40071 83200 333 58008;
0168823920999992010052700004-03700-040350FM-12+008399999V0203601N001510450019N0500001N1+02621+02411101051ADDGF106991021021004501031001KA1240M+03441MA1999999100031MD1999999+0081REMSYN088AAXX  27004 82392 32499 63603 10262 20241 30003 40105 82230 333 10344 29071 55052 58008;
0156823920999992010052712004-03700-040350FM-12+008399999V0201401N000512200019N0500001N1+02931+02361101141ADDGF104991031021004501011001KA1240N+02371MA1999999100121MD1999999-0011REMSYN076AAXX  27124 82392 32499 41401 10293 20236 30012 40114 83210 333 20237 59001;
0137823920999992010052718004-03700-040350FM-12+008399999V0200901N001010450019N0500001N1+03461+02061100741ADDGF106991031041004501031001MA1999999099731MD1999999+0041REMSYN070AAXX  27184 82392 32499 60902 10346 20206 39973 40074 83430 333 58004;
0168823920999992010052800004-03700-040350FM-12+008399999V0200501N004610450019N0040001N1+02741+02171101041ADDGF107991031051004501031001KA1240M+03251MA1999999100021MD1999999-0011REMSYN088AAXX  28004 82392 32496 70509 10274 20217 30002 40104 83530 333 10325 29077 55064 59001;
0156823920999992010052812004-03700-040350FM-12+008399999V0200901N001010450019N0500001N1+02841+01961101171ADDGF107991041041004501031001KA1240N+02341MA1999999100151MD1999999+0031REMSYN076AAXX  28124 82392 32499 70902 10284 20196 30015 40117 84430 333 20234 58003;
0156823920999992010052818004-03700-040350FM-12+008399999V0203601N001019999999N0500001N1+03591+02021100691ADDGF106991999021004501001001MA1999999099681MD1999999-0051REMSYN070AAXX  28184 82392 32499 63602 10359 20202 39968 40069 83200 333 59005;EQDQ01+000032SCOTLC
0178823920999992010052900004-03700-040350FM-12+008399999V0200501N003112200019N0040001N1+02761+02071101021ADDGA1001+999999999GF100991001001999999001001KA1240M+03681MA1999999100001MD1999999-0021REMSYN082AAXX  29004 82392 32496 00506 10276 20207 30000 40102 333 10368 29058 55084 59002;
0156823920999992010052912004-03700-040350FM-12+008399999V0200901N002110450019N0500001N1+02901+02041101211ADDGF105991041021004501031001KA1240N+02301MA1999999100191MD1999999+0041REMSYN076AAXX  29124 82392 32499 50904 10290 20204 30019 40121 84230 333 20230 58004;
0137823920999992010052918004-03700-040350FM-12+008399999V0203601N001012200019N0500001N1+03561+01681100751ADDGF104991041021004501001001MA1999999099741MD1999999+0051REMSYN070AAXX  29184 82392 32499 43602 10356 20168 39974 40075 84200 333 58005;
0178823920999992010053000004-03700-040350FM-12+008399999V0200501N004112200019N0040001N1+02711+02151101121ADDGA1001+999999999GF100991001001999999001001KA1240M+03681MA1999999100101MD1999999+0101REMSYN082AAXX  30004 82392 32996 00508 10271 20215 30010 40112 333 10368 29059 55091 58010;
0156823920999992010053012004-03700-040350FM-12+008399999V0201401N000512200019N0500001N1+02991+02241101351ADDGF104991021021004501031001KA1240N+02231MA1999999100341MD1999999+0151REMSYN076AAXX  30124 82392 32499 41401 10299 20224 30034 40135 82230 333 20223 58015;
0137823920999992010053018004-03700-040350FM-12+008399999V0200501N002612200019N0500001N1+03621+01921100861ADDGF105991031021004501001011MA1999999099851MD1999999+0121REMSYN070AAXX  30184 82392 32499 50505 10362 20192 39985 40086 83201 333 58012;
0168823920999992010053100004-03700-040350FM-12+008399999V0200501N001512200019N0040001N1+02751+02141101261ADDGF102991011011004501011001KA1240M+03721MA1999999100251MD1999999+0151REMSYN088AAXX  31004 82392 32496 20503 10275 20214 30025 40126 81110 333 10372 29060 55079 58015;
0156823920999992010053112004-03700-040350FM-12+008399999V0200501N003110450019N0500001N1+02921+02061101521ADDGF106991041021004501031001KA1240N+02381MA1999999100491MD1999999+0151REMSYN076AAXX  31124 82392 32499 60506 10292 20206 30049 40152 84230 333 20238 58015;
0182823920999992010053118004-03700-040350FM-12+008399999V0200501N004110450019N0500001N1+02421+02211101371ADDAA106036191AY161061AY221061GF108991041061004501021999MA1999999100341MD1999999+0191MW1201REMSYN082AAXX  31184 82392 21499 80508 10242 20221 30034 40137 72062 8462/ 333 58019 60361;
0168823920999992010060100004-03700-040350FM-12+008399999V0209999C000012200019N0040001N1+02331+02291101501ADDGF102991021051999999001001KA1240M+03311MA1999999100471MD1999999+0221REMSYN088AAXX  01004 82392 32996 20000 10233 20229 30047 40150 82500 333 10331 29087 55037 58022;
0173823920999992010060112004-03700-040350FM-12+008399999V0202301N000512200019N0500001N1+02541+02401101541ADDAA124036191GF104991041011004501001001KA1240N+02231MA1999999100501MD1999999+0011REMSYN082AAXX  01124 82392 22499 42301 10254 20240 30050 40154 84100 333 20223 58001 60364;
0137823920999992010060118004-03700-040350FM-12+008399999V0200501N000512200019N0500001N1+03311+02171101021ADDGF103991021021004501001011MA1999999100001MD1999999-0341REMSYN070AAXX  01184 82392 32499 30501 10331 20217 30000 40102 82201 333 59034;
0168823920999992010060200004-03700-040350FM-12+008399999V0203601N001512200019N0040001N1+02621+02371101301ADDGF102991011011004501011001KA1240M+03381MA1999999100281MD1999999-0191REMSYN088AAXX  02004 82392 32496 23603 10262 20237 30028 40130 81110 333 10338 29079 55085 59019;
0156823920999992010060212004-03700-040350FM-12+008399999V0200501N004610450019N0500001N1+02761+02091101421ADDGF106991041041004501031001KA1240N+02401MA1999999100401MD1999999-0101REMSYN076AAXX  02124 82392 32499 60509 10276 20209 30040 40142 84430 333 20240 59010;
0137823920999992010060218004-03700-040350FM-12+008399999V0200901N001012200019N0500001N1+03421+01871100911ADDGF104991041021004501001001MA1999999099901MD1999999-0101REMSYN070AAXX  02184 82392 32499 40902 10342 20187 39990 40091 84200 333 59010;
0178823920999992010060300004-03700-040350FM-12+008399999V0203601N002112200019N0040001N1+02691+02351101191ADDGA1001+999999999GF100991001001999999001001KA1240M+03511MA1999999100171MD1999999-0111REMSYN082AAXX  03004 82392 32996 03604 10269 20235 30017 40119 333 10351 29067 55087 59011;
0156823920999992010060312004-03700-040350FM-12+008399999V0200901N000510042019N0500001N1+02831+02351101401ADDGF106991061041004501001001KA1240N+02331MA1999999100381MD1999999-0021REMSYN076AAXX  03124 82392 32499 60901 10283 20235 30038 40140 86400 333 20233 59002;
0137823920999992010060318004-03700-040350FM-12+008399999V0200901N001510450019N0500001N1+03391+01961100911ADDGF105991031021004501011001MA1999999099901MD1999999+0001REMSYN070AAXX  03184 82392 32499 50903 10339 20196 39990 40091 83210 333 58000;
0178823920999992010060400004-03700-040350FM-12+008399999V0200501N002612200019N0040001N1+02681+02131101231ADDGA1001+999999999GF100991001001999999001001KA1240M+03541MA1999999100201MD1999999+0031REMSYN082AAXX  04004 82392 32996 00505 10268 20213 30020 40123 333 10354 29066 55094 58003;
0201823920999992010060412004-03700-040350FM-12+008399999V0201401N001010450019N0500001N1+02481+02361101511ADDAA124006191AY161061AY221061GF108991031071004501021999KA1240N+02381MA1999999100481MD1999999+0101MW1031REMSYN088AAXX  04124 82392 21499 81402 10248 20236 30048 40151 70362 8372/ 333 20238 58010 60064;
0137823920999992010060418004-03700-040350FM-12+008399999V0209999C000010042019N0500001N1+03011+02441101111ADDGF106991051061004501031001MA1999999100091MD1999999+0191REMSYN070AAXX  04184 82392 32499 60000 10301 20244 30009 40111 85630 333 58019;
0213823920999992010060500004-03700-040350FM-12+008399999V0200901N001010450019N0040001N1+02441+02301101451ADDAA106027991AY161061AY261061GF108991041061004501021999KA1240M+03261MA1999999100421MD1999999+0231MW1031REMSYN100AAXX  05004 82392 21496 80902 10244 20230 30042 40145 70366 8462/ 333 10326 29087 55041 58023 60281;
0173823920999992010060512004-03700-040350FM-12+008399999V0201401N002112200019N0500001N1+02721+01981101591ADDAA124027991GF102991021021004501001001KA1240N+02301MA1999999100561MD1999999+0081REMSYN082AAXX  05124 82392 22499 21404 10272 20198 30056 40159 82200 333 20230 58008 60284;
0137823920999992010060518004-03700-040350FM-12+008399999V0209999C000012200019N0500001N1+03271+02001101131ADDGF103991031021004501001001MA1999999100111MD1999999+0021REMSYN070AAXX  05184 82392 32499 30000 10327 20200 30011 40113 83200 333 58002;
0168823920999992010060600004-03700-040350FM-12+008399999V0203601N000512200019N0040001N1+02671+02391101421ADDGF103991031021004501001001KA1240M+03361MA1999999100401MD1999999-0021REMSYN088AAXX  06004 82392 32496 33601 10267 20239 30040 40142 83200 333 10336 29070 55101 59002;
0156823920999992010060612004-03700-040350FM-12+008399999V0201401N001012200019N0500001N1+02701+02131101421ADDGF101991011011004501001001KA1240N+02121MA1999999100401MD1999999-0161REMSYN076AAXX  06124 82392 32499 11402 10270 20213 30040 40142 81100 333 20212 59016;
0137823920999992010060618004-03700-040350FM-12+008399999V0203601N000512200019N0040001N1+03321+02131101021ADDGF101991011011004501001001MA1999999100001MD1999999-0111REMSYN070AAXX  06184 82392 32496 13601 10332 20213 30000 40102 81100 333 59011;
0168823920999992010060700004-03700-040350FM-12+008399999V0200501N002112200019N0040001N1+02681+02111101271ADDGF101991011001008001031001KA1240M+03361MA1999999100251MD1999999-0151REMSYN088AAXX  07004 82392 32596 10504 10268 20211 30025 40127 81030 333 10336 29066 55107 59015;
0156823920999992010060712004-03700-040350FM-12+008399999V0200501N004110450019N0500001N1+02821+01941101481ADDGF106991041041004501031001KA1240N+02301MA1999999100451MD1999999+0051REMSYN076AAXX  07124 82392 32499 60508 10282 20194 30045 40148 84430 333 20230 58005;
0137823920999992010060718004-03700-040350FM-12+008399999V0200501N003112200019N0500001N1+03361+01601100991ADDGF103991031021004501001001MA1999999099981MD1999999-0021REMSYN070AAXX  07184 82392 32499 30506 10336 20160 39998 40099 83200 333 59002;
0168823920999992010060800004-03700-040350FM-12+008399999V0203601N002112200019N0040001N1+02641+02391101381ADDGF102991021021004501001001KA1240M+03461MA1999999100361MD1999999+0111REMSYN088AAXX  08004 82392 32496 23604 10264 20239 30036 40138 82200 333 10346 29067 55094 58011;
0156823920999992010060812004-03700-040350FM-12+008399999V0200901N000512200019N0500001N1+02761+01911101481ADDGF104991041021004501001001KA1240N+02201MA1999999100451MD1999999+0001REMSYN076AAXX  08124 82392 32499 40901 10276 20191 30045 40148 84200 333 20220 58000;
0156823920999992010060818004-03700-040350FM-12+008399999V0200901N001512200019N0500001N1+03391+01891101051ADDGF104991999021004501001001MA1999999100031MD1999999+0051REMSYN070AAXX  08184 82392 32499 40903 10339 20189 30003 40105 83200 333 58005;EQDQ01+000032SCOTLC
0156823920999992010060912004-03700-040350FM-12+008399999V0202301N000512200019N0500001N1+02721+02151101511ADDGF104991021011004501031001KA1240N+02101MA1999999100481MD1999999+0031REMSYN076AAXX  09124 82392 32499 42301 10272 20215 30048 40151 82130 333 20210 58003;
0137823920999992010060918004-03700-040350FM-12+008399999V0200501N002612200019N0500001N1+03401+01501101021ADDGF102991021011004501001001MA1999999100001MD1999999-0031REMSYN070AAXX  09184 82392 32499 20505 10340 20150 30000 40102 82100 333 59003;
0168823920999992010061000004-03700-040350FM-12+008399999V0200501N000512200019N0040001N1+02481+02031101341ADDGF102991011011004501011001KA1240M+03461MA1999999100321MD1999999-0031REMSYN088AAXX  10004 82392 32496 20501 10248 20203 30032 40134 81110 333 10346 29064 55103 59003;
0156823920999992010061012004-03700-040350FM-12+008399999V0201801N000512200019N0500001N1+02711+02001101421ADDGF101991011021004501001001KA1240N+01961MA1999999100401MD1999999-0081REMSYN076AAXX  10124 82392 32499 11801 10271 20200 30040 40142 81200 333 20196 59008;
0137823920999992010061018004-03700-040350FM-12+008399999V0200901N000512200019N0500001N1+03431+01531100931ADDGF102991011011004501001011MA1999999099911MD1999999-0091REMSYN070AAXX  10184 82392 32499 20901 10343 20153 39991 40093 81101 333 59009;
0168823920999992010061100004-03700-040350FM-12+008399999V0200501N004612200019N0500001N1+02821+01971101271ADDGF102991021001004501031001KA1240M+03501MA1999999100251MD1999999-0071REMSYN088AAXX  11004 82392 32499 20509 10282 20197 30025 40127 82030 333 10350 29054 55107 59007;
0156823920999992010061112004-03700-040350FM-12+008399999V0201401N001012200019N0500001N1+02881+02031101441ADDGF101991011011004501001001KA1240N+02201MA1999999100421MD1999999+0021REMSYN076AAXX  11124 82392 32499 11402 10288 20203 30042 40144 81100 333 20220 58002;
0137823920999992010061118004-03700-040350FM-12+008399999V0200901N000510042019N0500001N1+03361+01731101011ADDGF106991061021004501001001MA1999999100001MD1999999+0091REMSYN070AAXX  11184 82392 32499 60901 10336 20173 30000 40101 86200 333 58009;
0178823920999992010061200004-03700-040350FM-12+008399999V0203601N001012200019N0040001N1+02761+02141101341ADDGA1001+999999999GF100991001001999999001001KA1240M+03481MA1999999100321MD1999999+0071REMSYN082AAXX  12004 82392 32996 03602 10276 20214 30032 40134 333 10348 29059 55103 58007;
0156823920999992010061212004-03700-040350FM-12+008399999V0200501N000512200019N0500001N1+02741+02021101421ADDGF101991011011004501001001KA1240N+02101MA1999999100401MD1999999-0021REMSYN076AAXX  12124 82392 32499 10501 10274 20202 30040 40142 81100 333 20210 59002;
0137823920999992010061218004-03700-040350FM-12+008399999V0200901N002110042019N0500001N1+03321+01781101501ADDGF106991051041004501031001MA1999999100031MD1999999+0031REMSYN070AAXX  12184 82392 32499 60904 10332 20178 30003 40150 85430 333 58003;
0178823920999992010061300004-03700-040350FM-12+008399999V0200501N003112200019N0040001N1+02661+02141101291ADDGA1001+999999999GF100991001001999999001001KA1240M+03461MA1999999100271MD1999999-0051REMSYN082AAXX  13004 82392 32996 00506 10266 20214 30027 40129 333 10346 29063 55083 59005;
0156823920999992010061312004-03700-040350FM-12+008399999V0201801N000512200019N0500001N1+02901+01931101381ADDGF103991011021004501001021KA1240N+02341MA1999999100351MD1999999-0051REMSYN076AAXX  13124 82392 32499 31801 10290 20193 30035 40138 81202 333 20234 59005;
0156823920999992010061318004-03700-040350FM-12+008399999V0200901N000519999999N0500001N1+03341+01871100961ADDGF106991999021004501001001MA1999999099951MD1999999-0081REMSYN070AAXX  13184 82392 32499 60901 10334 20187 39995 40096 83200 333 59008;EQDQ01+000032SCOTLC
0187823920999992010061400004-03700-040350FM-12+008399999V0203601N001012200019N0040001N1+02671+02351101241ADDGF101991999011004501001001KA1240M+03401MA1999999100221MD1999999-0051REMSYN088AAXX  14004 82392 32496 13602 10267 20235 30022 40124 82100 333 10340 29066 55078 59005;EQDQ01+000022SCOTLC
0156823920999992010061412004-03700-040350FM-12+008399999V0201801N004112200019N0500001N1+02821+01941101341ADDGF102991021011004501001001KA1240N+02221MA1999999100321MD1999999-0031REMSYN076AAXX  14124 82392 32499 21808 10282 20194 30032 40134 82100 333 20222 59003;
0137823920999992010061418004-03700-040350FM-12+008399999V0200501N004110450019N0500001N1+03361+01811100941ADDGF106991041041004501031001MA1999999099921MD1999999-0031REMSYN070AAXX  14184 82392 32499 60508 10336 20181 39992 40094 84430 333 59003;
0168823920999992010061500004-03700-040350FM-12+008399999V0209999C000012200019N0040001N1+02801+01981101221ADDGF103991011011004501021001KA1240M+03471MA1999999100201MD1999999-0021REMSYN088AAXX  15004 82392 32496 30900 10280 20198 30020 40122 81120 333 10347 29055 55083 59002;
0156823920999992010061512004-03700-040350FM-12+008399999V0201801N003112200019N0500001N1+02901+01961101341ADDGF103991021011004501001011KA1240N+02001MA1999999100331MD1999999+0011REMSYN076AAXX  15124 82392 32499 31806 10290 20196 30033 40134 82101 333 20200 58001;
0156823920999992010061518004-03700-040350FM-12+008399999V0200501N002619999999N0500001N1+03191+01891101071ADDGF106991999021004501001001MA1999999100051MD1999999+0131REMSYN070AAXX  15184 82392 32499 60505 10319 20189 30005 40107 83200 333 58013;EQDQ01+000032SCOTLC
0203823920999992010061600004-03700-040350FM-12+008399999V0209999C000012200019N0040001N1+02731+01921101291ADDGF102991021021004501001001KA1240M+03321MA1999999999999MD1999999+0071REMSYN088AAXX  16004 82392 32496 20000 10273 20192 30227 40129 82200 333 10332 29056 55053 58007;EQDQ01+102273APOSP Q02 102273APOSP 
0156823920999992010061612004-03700-040350FM-12+008399999V0200501N004612200019N0500001N1+02961+01961101231ADDGF102991021011004501001001KA1240N+02101MA1999999100211MD1999999-0121REMSYN076AAXX  16124 82392 32499 20509 10296 20196 30021 40123 82100 333 20210 59012;
0137823920999992010061618004-03700-040350FM-12+008399999V0200501N002612200019N0500001N1+03401+01681100911ADDGF103991031021004501001001MA1999999099901MD1999999-0151REMSYN070AAXX  16184 82392 32499 30505 10340 20168 39990 40091 83200 333 59015;
0168823920999992010061700004-03700-040350FM-12+008399999V0203601N000512200019N0040001N1+02721+02241101151ADDGF101991011001008001031001KA1240M+03541MA1999999100131MD1999999-0141REMSYN088AAXX  17004 82392 32596 13601 10272 20224 30013 40115 81030 333 10354 29060 55103 59014;
0156823920999992010061712004-03700-040350FM-12+008399999V0201401N001012200019N0500001N1+03011+02021101111ADDGF104991011011004501031011KA1240N+02171MA1999999100101MD1999999-0111REMSYN076AAXX  17124 82392 32499 41402 10301 20202 30010 40111 81131 333 20217 59011;
0137823920999992010061718004-03700-040350FM-12+008399999V0200501N001010450019N0500001N1+03331+02051100771ADDGF107991041061004501031001MA1999999099751MD1999999-0151REMSYN070AAXX  17184 82392 32499 70502 10333 20205 39975 40077 84630 333 59015;
0213823920999992010061800004-03700-040350FM-12+008399999V0203601N000510450019N0040001N1+02681+02111101121ADDAA106004191AY161061AY221061GF106991041041004501031001KA1240M+03421MA1999999100101MD1999999-0031MW1031REMSYN100AAXX  18004 82392 21496 63601 10268 20211 30010 40112 70362 84430 333 10342 29061 55057 59003 60041;
0173823920999992010061812004-03700-040350FM-12+008399999V0200501N003110450019N0500001N1+02761+01891101241ADDAA124004191GF106991031041004501031001KA1240N+02301MA1999999100221MD1999999+0121REMSYN082AAXX  18124 82392 22499 60506 10276 20189 30022 40124 83430 333 20230 58012 60044;
0156823920999992010061818004-03700-040350FM-12+008399999V0201401N001019999999N0500001N1+03341+01951100731ADDGF105991999021004501001001MA1999999099711MD1999999-0041REMSYN070AAXX  18184 82392 32499 51402 10334 20195 39971 40073 83200 333 59004;EQDQ01+000032SCOTLC
0168823920999992010061900004-03700-040350FM-12+008399999V0203601N001012200019N0040001N1+02621+02051101121ADDGF102991021001004501031001KA1240M+03341MA1999999100101MD1999999+0001REMSYN088AAXX  19004 82392 32496 23602 10262 20205 30010 40112 82030 333 10334 29061 55061 58000;
0175823920999992010061912004-03700-040350FM-12+008399999V0200501N001019999999N0500001N1+02861+02191101161ADDGF106991999021004501001001KA1240N+02161MA1999999100141MD1999999-0081REMSYN076AAXX  19124 82392 32499 60502 10286 20219 30014 40116 84200 333 20216 59008;EQDQ01+000042SCOTLC
0156823920999992010061918004-03700-040350FM-12+008399999V0200501N001519999999N0500001N1+03451+01921100701ADDGF105991999021008001001001MA1999999099691MD1999999-0021REMSYN070AAXX  19184 82392 32599 50503 10345 20192 39969 40070 83200 333 59002;EQDQ01+000032SCOTLC
0168823920999992010062000004-03700-040350FM-12+008399999V0203601N000512200019N0040001N1+02651+02041101071ADDGF102991011011004501011001KA1240M+03521MA1999999100051MD1999999-0051REMSYN088AAXX  20004 82392 32496 23601 10265 20204 30005 40107 81110 333 10352 29061 55093 59005;
0156823920999992010062012004-03700-040350FM-12+008399999V0200901N001012200019N0500001N1+02781+01821101121ADDGF103991011011004501031001KA1240N+02001MA1999999100101MD1999999-0041REMSYN076AAXX  20124 82392 32499 30902 10278 20182 30010 40112 81130 333 20200 59004;
0137823920999992010062018004-03700-040350FM-12+008399999V0200501N004610450019N0500001N1+03421+01781100691ADDGF106991031041004501031001MA1999999099671MD1999999-0021REMSYN070AAXX  20184 82392 32499 60509 10342 20178 39967 40069 83430 333 59002;
0168823920999992010062100004-03700-040350FM-12+008399999V0200501N004112200019N0040001N1+02681+01971100901ADDGF101991011001008001031001KA1240M+03501MA1999999099881MD1999999-0171REMSYN088AAXX  21004 82392 32596 10508 10268 20197 39988 40090 81030 333 10350 29056 55065 59017;
0156823920999992010062112004-03700-040350FM-12+008399999V0200901N004612200019N0500001N1+02801+01811101201ADDGF103991031021004501001001KA1240N+02161MA1999999100181MD1999999+0181REMSYN076AAXX  21124 82392 32499 30909 10280 20181 30018 40120 83200 333 20216 58018;
0137823920999992010062118004-03700-040350FM-12+008399999V0200501N002112200019N0500001N1+03521+01281100731ADDGF101991011011004501001001MA1999999099721MD1999999+0051REMSYN070AAXX  21184 82392 32499 10504 10352 20128 39972 40073 81100 333 58005;
0168823920999992010062200004-03700-040350FM-12+008399999V0203601N000512200019N0040001N1+02591+01941101111ADDGF101991011011004501001001KA1240M+03601MA1999999100091MD1999999+0211REMSYN088AAXX  22004 82392 32496 13601 10259 20194 30009 40111 81100 333 10360 29054 55106 58021;
0175823920999992010062212004-03700-040350FM-12+008399999V0203201N001012200019N0500001N1+02821+01831101271ADDGF102991999021004501001001KA1240N+01901MA1999999100251MD1999999+0071REMSYN076AAXX  22124 82392 32499 23202 10282 20183 30025 40127 83200 333 20190 58007;EQDQ01+000032SCOTLC
0156823920999992010062218004-03700-040350FM-12+008399999V0200901N000512200019N0500001N1+03581+01551100831ADDGF104991999021008001001001MA1999999099811MD1999999+0091REMSYN070AAXX  22184 82392 32599 40901 10358 20155 39981 40083 83200 333 58009;EQDQ01+000032SCOTLC
0168823920999992010062300004-03700-040350FM-12+008399999V0203601N001012200019N0500001N1+02701+02151101301ADDGF103991031021004501001001KA1240M+03661MA1999999100281MD1999999+0191REMSYN088AAXX  23004 82392 32499 33602 10270 20215 30028 40130 83200 333 10366 29057 55106 58019;
0156823920999992010062312004-03700-040350FM-12+008399999V0200901N002112200019N0500001N1+02921+01981101461ADDGF102991021011004501001001KA1240N+02101MA1999999100441MD1999999+0191REMSYN076AAXX  23124 82392 32499 20904 10292 20198 30044 40146 82100 333 20210 58019;
0137823920999992010062318004-03700-040350FM-12+008399999V0201401N001012200019N0500001N1+03461+01781100941ADDGF104991021021004501031001MA1999999099931MD1999999+0121REMSYN070AAXX  23184 82392 32499 41402 10346 20178 39993 40094 82230 333 58012;
0168823920999992010062400004-03700-040350FM-12+008399999V0200501N000512200019N0040001N1+02691+02281101281ADDGF102991011011004501031001KA1240M+03591MA1999999100261MD1999999-0021REMSYN088AAXX  24004 82392 32496 20501 10269 20228 30026 40128 81130 333 10359 29063 55083 59002;
0156823920999992010062412004-03700-040350FM-12+008399999V0201401N002110450019N0500001N1+02811+01941101511ADDGF106991021021004501031011KA1240N+02191MA1999999100481MD1999999+0041REMSYN076AAXX  24124 82392 32499 61404 10281 20194 30048 40151 82231 333 20219 58004;
0137823920999992010062418004-03700-040350FM-12+008399999V0200501N001512200019N0500001N1+03451+01731101031ADDGF104991041021004501001001MA1999999100011MD1999999+0081REMSYN070AAXX  24184 82392 32499 40503 10345 20173 30001 40103 84200 333 58008;
0178823920999992010062500004-03700-040350FM-12+008399999V0200501N001012200019N0040001N1+02801+01921101271ADDGA1001+999999999GF100991001001999999001001KA1240M+03541MA1999999100251MD1999999-0051REMSYN082AAXX  25004 82392 32996 00502 10280 20192 30025 40127 333 10354 29053 55104 59005;
0156823920999992010062512004-03700-040350FM-12+008399999V0201401N003112200019N0500001N1+02901+01871101411ADDGF101991011011004501001001KA1240N+02211MA1999999100401MD1999999-0081REMSYN076AAXX  25124 82392 32499 11406 10290 20187 30040 40141 81100 333 20221 59008;
0137823920999992010062518004-03700-040350FM-12+008399999V0201801N000512200019N0500001N1+03461+01501101001ADDGF103991031011004501001001MA1999999099991MD1999999-0021REMSYN070AAXX  25184 82392 32499 31801 10346 20150 39999 40100 83100 333 59002;
0168823920999992010062600004-03700-040350FM-12+008399999V0203601N003110450019N0040001N1+02801+01921101171ADDGF106991031021004501031001KA1240M+03601MA1999999100161MD1999999-0091REMSYN088AAXX  26004 82392 32496 63606 10280 20192 30016 40117 83230 333 10360 29051 55107 59009;
0156823920999992010062612004-03700-040350FM-12+008399999V0201401N002612200019N0500001N1+02901+01871101211ADDGF101991011011004501001001KA1240N+02001MA1999999100201MD1999999-0201REMSYN076AAXX  26124 82392 32499 11405 10290 20187 30020 40121 81100 333 20200 59020;
0137823920999992010062618004-03700-040350FM-12+008399999V0201401N000512200019N0500001N1+03561+01731100761ADDGF101991011011004501001001MA1999999099751MD1999999-0241REMSYN070AAXX  26184 82392 32499 11401 10356 20173 39975 40076 81100 333 59024;
0178823920999992010062700004-03700-040350FM-12+008399999V0200501N003112200019N0040001N1+02721+02081101031ADDGA1001+999999999GF100991001001999999001001KA1240M+03661MA1999999100011MD1999999-0151REMSYN082AAXX  27004 82392 32996 00506 10272 20208 30001 40103 333 10366 29056 55109 59015;
0156823920999992010062712004-03700-040350FM-12+008399999V0201401N002112200019N0500001N1+02831+01601101251ADDGF101991011011004501001001KA1240N+02041MA1999999100231MD1999999+0031REMSYN076AAXX  27124 82392 32499 11404 10283 20160 30023 40125 81100 333 20204 58003;
0137823920999992010062718004-03700-040350FM-12+008399999V0200901N002612200019N0500001N1+03571+01211100831ADDGF101991011011004501001001MA1999999099821MD1999999+0071REMSYN070AAXX  27184 82392 32499 10905 10357 20121 39982 40083 81100 333 58007;
0178823920999992010062800004-03700-040350FM-12+008399999V0209999C000012200019N0040001N1+02631+01601101151ADDGA1001+999999999GF100991001001999999001001KA1240M+03631MA1999999100131MD1999999+0121REMSYN082AAXX  28004 82392 32996 00000 10263 20160 30013 40115 333 10363 29044 55107 58012;
0156823920999992010062812004-03700-040350FM-12+008399999V0201401N003112200019N0500001N1+02801+01921101301ADDGF102991021011004501001001KA1240N+02001MA1999999100281MD1999999+0051REMSYN076AAXX  28124 82392 32499 21406 10280 20192 30028 40130 82100 333 20200 58005;
0137823920999992010062818004-03700-040350FM-12+008399999V0200501N002112200019N0500001N1+03401+01671100921ADDGF103991031021004501001001MA1999999099901MD1999999+0081REMSYN070AAXX  28184 82392 32499 30504 10340 20167 39990 40092 83200 333 58008;
0168823920999992010062900004-03700-040350FM-12+008399999V0209999C000010450019N0040001N1+02811+02021101151ADDGF105991011011004501031001KA1240M+03491MA1999999100131MD1999999+0001REMSYN088AAXX  29004 82392 32496 50000 10281 20202 30013 40115 81130 333 10349 29055 55094 58000;
0156823920999992010062912004-03700-040350FM-12+008399999V0201401N002612200019N0500001N1+02961+01961101291ADDGF101991011011004501001001KA1240N+02101MA1999999100281MD1999999+0001REMSYN076AAXX  29124 82392 32499 11405 10296 20196 30028 40129 81100 333 20210 58000;
0137823920999992010062918004-03700-040350FM-12+008399999V0200901N000510450019N0500001N1+03491+01721100811ADDGF106991041021004501031001MA1999999099801MD1999999-0101REMSYN070AAXX  29184 82392 32499 60901 10349 20172 39980 40081 84230 333 59010;
0168823920999992010063000004-03700-040350FM-12+008399999V0203601N001012200019N0040001N1+02811+02081101101ADDGF104991011021004501031001KA1240M+03681MA1999999100091MD1999999-0041REMSYN088AAXX  30004 82392 32496 43602 10281 20208 30009 40110 81230 333 10368 29055 55088 59004;
0156823920999992010063012004-03700-040350FM-12+008399999V0200901N002112200019N0500001N1+02901+02041101291ADDGF104991021021004501031001KA1240N+02211MA1999999100281MD1999999+0001REMSYN076AAXX  30124 82392 32499 40904 10290 20204 30028 40129 82230 333 20221 58000;
0137823920999992010063018004-03700-040350FM-12+008399999V0200901N001510042019N0500001N1+03401+01811100931ADDGF107991051041004501031001MA1999999099921MD1999999+0121REMSYN070AAXX  30184 82392 32499 70903 10340 20181 39992 40093 85430 333 58012;
0168823920999992010070100004-03700-040350FM-12+008399999V0200501N001010450019N0040001N1+02831+02041101191ADDGF105991031021004501031001KA1240M+03501MA1999999100181MD1999999+0091REMSYN088AAXX  01004 82392 32496 50502 10283 20204 30018 40119 83230 333 10350 29056 55066 58009;
0156823920999992010070112004-03700-040350FM-12+008399999V0201401N001012200019N0500001N1+03051+01961101331ADDGF103991021021004501031001KA1240N+02351MA1999999100321MD1999999+0041REMSYN076AAXX  01124 82392 32499 31402 10305 20196 30032 40133 82230 333 20235 58004;
0178823920999992010070200004-03700-040350FM-12+008399999V0200501N004112200019N0040001N1+02701+02221101211ADDGA1001+999999999GF100991001001999999001001KA1240M+03481MA1999999100201MD1999999+0021REMSYN082AAXX  02004 82392 32996 00508 10270 20222 30020 40121 333 10348 29067 55049 58002;
0156823920999992010070212004-03700-040350FM-12+008399999V0201401N003112200019N0500001N1+02881+02031101321ADDGF102991021031004501001001KA1240N+02101MA1999999100301MD1999999-0021REMSYN076AAXX  02124 82392 32499 21406 10288 20203 30030 40132 82300 333 20210 59002;
0178823920999992010070300004-03700-040350FM-12+008399999V0203601N001012200019N0040001N1+02781+02161101171ADDGA1001+999999999GF100991001001999999001001KA1240M+03521MA1999999100151MD1999999-0051REMSYN082AAXX  03004 82392 32996 03602 10278 20216 30015 40117 333 10352 29066 55068 59005;
0156823920999992010070312004-03700-040350FM-12+008399999V0201801N001012200019N0500001N1+02911+01961101251ADDGF104991041021004501001001KA1240N+02331MA1999999100241MD1999999-0061REMSYN076AAXX  03124 82392 32499 41802 10291 20196 30024 40125 84200 333 20233 59006;
0168823920999992010070400004-03700-040350FM-12+008399999V0203601N001512200019N0040001N1+02761+02121101151ADDGF101991011001008001031001KA1240M+03681MA1999999100131MD1999999-0021REMSYN088AAXX  04004 82392 32596 13603 10276 20212 30013 40115 81030 333 10368 29064 55099 59002;
0156823920999992010070412004-03700-040350FM-12+008399999V0201801N000512200019N0500001N1+02851+02141101251ADDGF102991011011004501031001KA1240N+02061MA1999999100231MD1999999-0011REMSYN076AAXX  04124 82392 32499 21801 10285 20214 30023 40125 81130 333 20206 59001;
0168823920999992010070500004-03700-040350FM-12+008399999V0203601N001512200019N0040001N1+02691+02111101081ADDGF101991011001008001031001KA1240M+03591MA1999999100061MD1999999-0071REMSYN088AAXX  05004 82392 32596 13603 10269 20211 30006 40108 81030 333 10359 29068 55097 59007;
0156823920999992010070512004-03700-040350FM-12+008399999V0201801N002612200019N0500001N1+02861+02211101231ADDGF101991011011004501001001KA1240N+01841MA1999999100211MD1999999-0021REMSYN076AAXX  05124 82392 32499 11805 10286 20221 30021 40123 81100 333 20184 59002;
0178823920999992010070600004-03700-040350FM-12+008399999V0203601N001012200019N0040001N1+02761+02111101131ADDGA1001+999999999GF100991001001999999001001KA1240M+03781MA1999999100111MD1999999+0061REMSYN082AAXX  06004 82392 32996 03602 10276 20211 30011 40113 333 10378 29060 55106 58006;
0156823920999992010070612004-03700-040350FM-12+008399999V0201401N001512200019N0500001N1+02881+01911101231ADDGF101991011011004501001001KA1240N+01961MA1999999100211MD1999999+0001REMSYN076AAXX  06124 82392 32499 11403 10288 20191 30021 40123 81100 333 20196 58000;
0178823920999992010070700004-03700-040350FM-12+008399999V0203601N000512200019N0040001N1+02751+02091101121ADDGA1001+999999999GF100991001001999999001001KA1240M+03651MA1999999100101MD1999999-0011REMSYN082AAXX  07004 82392 32996 03601 10275 20209 30010 40112 333 10365 29063 55106 59001;
0156823920999992010070712004-03700-040350FM-12+008399999V0201801N001510450019N0500001N1+02741+02171101291ADDGF107991011011004501031001KA1240N+02051MA1999999100271MD1999999+0061REMSYN076AAXX  07124 82392 32499 71803 10274 20217 30027 40129 81130 333 20205 58006;
0168823920999992010070800004-03700-040350FM-12+008399999V0200501N002110042019N0040001N1+02771+02041101251ADDGF108991061041004501011999KA1240M+03541MA1999999100231MD1999999+0131REMSYN088AAXX  08004 82392 32496 80504 10277 20204 30023 40125 8641/ 333 10354 29060 55043 58013;
0156823920999992010070812004-03700-040350FM-12+008399999V0201401N000512200019N0500001N1+02991+02111101311ADDGF104991011011004501031001KA1240N+02471MA1999999100301MD1999999+0031REMSYN076AAXX  08124 82392 32499 41401 10299 20211 30030 40131 81130 333 20247 58003;
0168823920999992010070900004-03700-040350FM-12+008399999V0203601N002110450019N0040001N1+02831+02171101201ADDGF108991021041004501021999KA1240M+03581MA1999999100191MD1999999-0041REMSYN088AAXX  09004 82392 32496 83604 10283 20217 30019 40120 8242/ 333 10358 29064 55062 59004;
0156823920999992010070912004-03700-040350FM-12+008399999V0201401N001012200019N0500001N1+02961+02211101241ADDGF103991031021004501001001KA1240N+02331MA1999999100231MD1999999-0071REMSYN076AAXX  09124 82392 32499 31402 10296 20221 30023 40124 83200 333 20233 59007;
0213823920999992010071000004-03700-040350FM-12+008399999V0200501N001512200019N0040001N1+02731+02171101161ADDAA106008991AY161061AY261061GF102991021061004501001001KA1240M+03691MA1999999100151MD1999999-0041MW1021REMSYN100AAXX  10004 82392 21496 20503 10273 20217 30015 40116 70266 82600 333 10369 29069 55086 59004 60091;
0173823920999992010071012004-03700-040350FM-12+008399999V0200901N003112200019N0500001N1+02881+02101101291ADDAA124008991GF103991011011004501001011KA1240N+02341MA1999999100271MD1999999+0041REMSYN082AAXX  10124 82392 22499 30906 10288 20210 30027 40129 81101 333 20234 58004 60094;
0168823920999992010071100004-03700-040350FM-12+008399999V0200501N002112200019N0040001N1+02821+02071101031ADDGF103991031001008001031001KA1240M+03541MA1999999100021MD1999999-0131REMSYN088AAXX  11004 82392 32596 30504 10282 20207 30002 40103 83030 333 10354 29064 55089 59013;
0156823920999992010071112004-03700-040350FM-12+008399999V0200901N001510450019N0500001N1+02721+02121101231ADDGF108991021011004501031999KA1240N+02291MA1999999100211MD1999999-0061REMSYN076AAXX  11124 82392 32499 80903 10272 20212 30021 40123 8213/ 333 20229 59006;
0156823920999992010071212004-03700-040350FM-12+008399999V0200901N001010042019N0500001N1+02811+02171101231ADDGF106991051021004501031001KA1240N+02121MA1999999100211MD1999999+0001REMSYN076AAXX  12124 82392 32499 60902 10281 20217 30021 40123 85230 333 20212 58000;
0178823920999992010071300004-03700-040350FM-12+008399999V0203601N002112200019N0040001N1+02691+02011101011ADDGA1001+999999999GF100991001001999999001001KA1240M+03581MA1999999099991MD1999999-0011REMSYN082AAXX  13004 82392 32996 03604 10269 20201 39999 40101 333 10358 29067 55096 59001;
0156823920999992010071312004-03700-040350FM-12+008399999V0209999C000010042019N0500001N1+02871+02211101201ADDGF105991051021004501001001KA1240N+02181MA1999999100181MD1999999-0031REMSYN076AAXX  13124 82392 32499 51400 10287 20221 30018 40120 85200 333 20218 59003;
0168823920999992010071400004-03700-040350FM-12+008399999V0200501N001512200019N0040001N1+02801+02131101011ADDGF104991041001008001031001KA1240M+03441MA1999999099991MD1999999+0001REMSYN088AAXX  14004 82392 32596 40503 10280 20213 39999 40101 84030 333 10344 29057 55057 58000;
0156823920999992010071412004-03700-040350FM-12+008399999V0200901N002110450019N0500001N1+02891+02101101331ADDGF106991021021004501011011KA1240N+02261MA1999999100321MD1999999+0141REMSYN076AAXX  14124 82392 32499 60904 10289 20210 30032 40133 82211 333 20226 58014;
0178823920999992010071500004-03700-040350FM-12+008399999V0203601N001012200019N0040001N1+02761+02041101091ADDGA1001+999999999GF100991001001999999001001KA1240M+03561MA1999999100071MD1999999+0081REMSYN082AAXX  15004 82392 32996 03602 10276 20204 30007 40109 333 10356 29064 55088 58008;
0175823920999992010071512004-03700-040350FM-12+008399999V0200901N001512200019N0500001N1+02071+01951101261ADDGF102991021011004501001001KA1240N+99999MA1999999100251MD1999999-0071REMSYN076AAXX  15124 82392 32499 20903 10207 20195 30025 40126 82100 333 20214 59007;EQDQ01 +02142ATMN  
0178823920999992010071600004-03700-040350FM-12+008399999V0203601N000512200019N0040001N1+02741+02071101181ADDGA1001+999999999GF100991001001999999001001KA1240M+03661MA1999999100171MD1999999+0101REMSYN082AAXX  16004 82392 32996 03601 10274 20207 30017 40118 333 10366 29063 55107 58010;
0156823920999992010071612004-03700-040350FM-12+008399999V0201801N001010450019N0500001N1+02861+02311101401ADDGF106991041041004501031001KA1240N+02131MA1999999100381MD1999999+0131REMSYN076AAXX  16124 82392 32499 61802 10286 20231 30038 40140 84430 333 20213 58013;
0168823920999992010071700004-03700-040350FM-12+008399999V0203601N001512200019N0040001N1+02711+02151101291ADDGF101991011001008001031001KA1240M+03401MA1999999100271MD1999999+0101REMSYN088AAXX  17004 82392 32596 13603 10271 20215 30027 40129 81030 333 10340 29071 55038 58010;
0156823920999992010071712004-03700-040350FM-12+008399999V0200901N002112200019N0500001N1+02931+02161101491ADDGF104991041021004501001001KA1240N+02271MA1999999100461MD1999999+0081REMSYN076AAXX  17124 82392 32499 40904 10293 20216 30046 40149 84200 333 20227 58008;
0168823920999992010071800004-03700-040350FM-12+008399999V0200501N001512200019N0040001N1+02731+02211101341ADDGF102991021011004501001001KA1240M+03661MA1999999100321MD1999999+0051REMSYN088AAXX  18004 82392 32496 20503 10273 20221 30032 40134 82100 333 10366 29070 55105 58005;
0156823920999992010071812004-03700-040350FM-12+008399999V0201401N000510450019N0500001N1+02861+02311101501ADDGF106991041041004501031001KA1240N+02291MA1999999100471MD1999999+0011REMSYN076AAXX  18124 82392 32499 61401 10286 20231 30047 40150 84430 333 20229 58001;
0187823920999992010071900004-03700-040350FM-12+008399999V0200501N001012200019N0040001N1+02781+01911101281ADDGF102991021001008001031001KA1240M+03581MA1999999999999MD1999999-0061REMSYN088AAXX  19004 82392 32596 20502 10278 20191 39026 40128 82030 333 10358 29063 55059 59006;EQDQ01 090263APOSP 
0175823920999992010071912004-03700-040350FM-12+008399999V0201401N001012200019N0200001N1+02911+02171101441ADDGF102991999021008001001001KA1240N+02161MA1999999100431MD1999999-0041REMSYN076AAXX  19124 82392 32598 21402 10291 20217 30043 40144 83200 333 20216 59004;EQDQ01+000032SCOTLC
0168823920999992010072000004-03700-040350FM-12+008399999V0203601N002119999999N0040001N1+02781+02211101391ADDGF105991051001008001031001KA1240M+03661MA1999999100381MD1999999+0121REMSYN088AAXX  20004 82392 32596 53604 10278 20221 30038 40139 85030 333 10366 29069 55092 58012;
0168823920999992010072100004-03700-040350FM-12+008399999V0203601N001512200019N0040001N1+02661+02021101391ADDGF101991011001008001031001KA1240M+03661MA1999999100371MD1999999-0011REMSYN088AAXX  21004 82392 32596 13603 10266 20202 30037 40139 81030 333 10366 29069 55106 59001;
0156823920999992010072112004-03700-040350FM-12+008399999V0209999C000012200019N0500001N1+02781+02061101511ADDGF102991021011004501001001KA1240N+02021MA1999999100481MD1999999-0011REMSYN076AAXX  21124 82392 32499 21400 10278 20206 30048 40151 82100 333 20202 59001;
0168823920999992010072200004-03700-040350FM-12+008399999V0203601N001012200019N0040001N1+02661+02041101391ADDGF101991011001008001031001KA1240M+03681MA1999999100371MD1999999+0001REMSYN088AAXX  22004 82392 32596 13602 10266 20204 30037 40139 81030 333 10368 29068 55094 58000;
0175823920999992010072212004-03700-040350FM-12+008399999V0201801N001010042019N0040001N1+02891+02221101491ADDGF106991999021004501001001KA1240N+02171MA1999999100461MD1999999-0021REMSYN076AAXX  22124 82392 32496 61802 10289 20222 30046 40149 85200 333 20217 59002;EQDQ01+000052SCOTLC
0168823920999992010072300004-03700-040350FM-12+008399999V0203601N001012200019N0040001N1+02821+02151101321ADDGF102991021001008001031001KA1240M+03541MA1999999100311MD1999999-0061REMSYN088AAXX  23004 82392 32596 23602 10282 20215 30031 40132 82030 333 10354 29067 55074 59006;
0156823920999992010072312004-03700-040350FM-12+008399999V0201801N001010042019N0500001N1+02831+02291101571ADDGF106991051041004501031001KA1240N+02391MA1999999100541MD1999999+0081REMSYN076AAXX  23124 82392 32499 61802 10283 20229 30054 40157 85430 333 20239 58008;
0187823920999992010072400004-03700-040350FM-12+008399999V0203601N001012200019N0040001N1+02801+01951101311ADDGF102991999021008001001001KA1240M+03341MA1999999100291MD1999999-0021REMSYN088AAXX  24004 82392 32596 23602 10280 20195 30029 40131 83200 333 10334 29064 55031 59002;EQDQ01+000032SCOTLC
0156823920999992010072412004-03700-040350FM-12+008399999V0201401N002112200019N0500001N1+02871+01971101461ADDGF101991011011004501001001KA1240N+02071MA1999999100441MD1999999-0101REMSYN076AAXX  24124 82392 32499 11404 10287 20197 30044 40146 81100 333 20207 59010;
0168823920999992010072500004-03700-040350FM-12+008399999V0200901N000512200019N0040001N1+02941+01791101211ADDGF104991011011004501031001KA1240M+03661MA1999999100201MD1999999-0091REMSYN088AAXX  25004 82392 32496 40901 10294 20179 30020 40121 81130 333 10366 29053 55108 59009;
0156823920999992010072512004-03700-040350FM-12+008399999V0201401N000512200019N0500001N1+02911+01921101301ADDGF102991011011004501001021KA1240N+02151MA1999999100291MD1999999-0151REMSYN076AAXX  25124 82392 32499 21401 10291 20192 30029 40130 81102 333 20215 59015;
0168823920999992010072600004-03700-040350FM-12+008399999V0203601N001010042019N0040001N1+02911+02241101221ADDGF108991061061004501011999KA1240M+03681MA1999999100211MD1999999+0011REMSYN088AAXX  26004 82392 32496 83602 10291 20224 30021 40122 8661/ 333 10368 29063 55087 58001;
0156823920999992010072612004-03700-040350FM-12+008399999V0200901N002110450019N0500001N1+02941+02151101331ADDGF106991041041004501031001KA1240N+02461MA1999999100321MD1999999+0031REMSYN076AAXX  26124 82392 32499 60904 10294 20215 30032 40133 84430 333 20246 58003;
0168823920999992010072700004-03700-040350FM-12+008399999V0203601N001512200019N0040001N1+02771+02271101141ADDGF101991011001008001031001KA1240M+03571MA1999999100131MD1999999-0081REMSYN088AAXX  27004 82392 32596 13603 10277 20227 30013 40114 81030 333 10357 29070 55071 59008;
0156823920999992010072712004-03700-040350FM-12+008399999V0201401N001012200019N0500001N1+02871+02211101301ADDGF102991021011004501001001KA1240N+02111MA1999999100281MD1999999-0041REMSYN076AAXX  27124 82392 32499 21402 10287 20221 30028 40130 82100 333 20211 59004;
0168823920999992010072800004-03700-040350FM-12+008399999V0203601N000512200019N0040001N1+02781+02181101171ADDGF101991011011004501001001KA1240M+03711MA1999999100151MD1999999+0021REMSYN088AAXX  28004 82392 32496 13601 10278 20218 30015 40117 81100 333 10371 29069 55105 58002;
0156823920999992010072812004-03700-040350FM-12+008399999V0200501N000512200019N0500001N1+02951+02211101361ADDGF103991011011004501001011KA1240N+02091MA1999999100351MD1999999+0071REMSYN076AAXX  28124 82392 32499 30501 10295 20221 30035 40136 81101 333 20209 58007;
0168823920999992010072900004-03700-040350FM-12+008399999V0203601N001012200019N0040001N1+02911+02241101131ADDGF102991011021004501031001KA1240M+03671MA1999999100121MD1999999-0031REMSYN088AAXX  29004 82392 32496 23602 10291 20224 30012 40113 81230 333 10367 29066 55089 59003;
0156823920999992010072912004-03700-040350FM-12+008399999V0201401N002112200019N0500001N1+02931+01851101441ADDGF102991011011004501001011KA1240N+02231MA1999999100431MD1999999+0081REMSYN076AAXX  29124 82392 32499 21404 10293 20185 30043 40144 81101 333 20223 58008;
0178823920999992010073000004-03700-040350FM-12+008399999V0200501N001012200019N0040001N1+02741+02071101141ADDGA1001+999999999GF100991001001999999001001KA1240M+03691MA1999999100121MD1999999+0001REMSYN082AAXX  30004 82392 32996 00502 10274 20207 30012 40114 333 10369 29062 55105 58000;
0156823920999992010073012004-03700-040350FM-12+008399999V0201801N002612200019N0500001N1+02861+02031101191ADDGF101991011011004501001001KA1240N+02041MA1999999100171MD1999999-0261REMSYN076AAXX  30124 82392 32499 11805 10286 20203 30017 40119 81100 333 20204 59026;
0178823920999992010073100004-03700-040350FM-12+008399999V0203601N000512200019N0040001N1+02731+01891101021ADDGA1001+999999999GF100991001001999999001001KA1240M+03621MA1999999100001MD1999999-0121REMSYN082AAXX  31004 82392 32996 03601 10273 20189 30000 40102 333 10362 29060 55110 59012;
0156823920999992010073112004-03700-040350FM-12+008399999V0201401N000512200019N0500001N1+02871+02181101111ADDGF102991011011004501031001KA1240N+01981MA1999999100091MD1999999-0081REMSYN076AAXX  31124 82392 32499 21401 10287 20218 30009 40111 81130 333 20198 59008;
0137823920999992010073118004-03700-040350FM-12+008399999V0201401N001512200019N0500001N1+03531+02011100601ADDGF104991031011004501031001MA1999999099591MD1999999-0031REMSYN070AAXX  31184 82392 32499 41403 10353 20201 39959 40060 83130 333 59003;
0168823920999992010080100004-03700-040350FM-12+008399999V0203601N001012200019N0040001N1+02791+02291101041ADDGF101991011001008001031001KA1240M+03661MA1999999100021MD1999999+0021REMSYN088AAXX  01004 82392 32596 13602 10279 20229 30002 40104 81030 333 10366 29063 55107 58002;
0156823920999992010080112004-03700-040350FM-12+008399999V0201401N000512200019N0500001N1+02821+02311101101ADDGF103991031011004501001001KA1240N+02151MA1999999100081MD1999999-0011REMSYN076AAXX  01124 82392 32499 31401 10282 20231 30008 40110 83100 333 20215 59001;
0137823920999992010080118004-03700-040350FM-12+008399999V0200901N000510042019N0500001N1+03501+02091100611ADDGF106991061021004501001001MA1999999099611MD1999999+0021REMSYN070AAXX  01184 82392 32499 60901 10350 20209 39961 40061 86200 333 58002;
0168823920999992010080200004-03700-040350FM-12+008399999V0203601N001512200019N0040001N1+02811+02201101011ADDGF102991021001008001011001KA1240M+03691MA1999999099991MD1999999-0031REMSYN088AAXX  02004 82392 32596 23603 10281 20220 39999 40101 82010 333 10369 29064 55085 59003;
0156823920999992010080212004-03700-040350FM-12+008399999V0200901N002612200019N0500001N1+02921+02341101211ADDGF103991011011004501001011KA1240N+02301MA1999999100201MD1999999+0121REMSYN076AAXX  02124 82392 32499 30905 10292 20234 30020 40121 81101 333 20230 58012;
0156823920999992010080218004-03700-040350FM-12+008399999V0200901N001012200019N0500001N1+03611+02181999999ADDGF106991031011004501001011MA1999999099701MD1999999+0091REMSYN070AAXX  02184 82392 32499 60902 10361 20218 39970 49971 83101 333 58009;EQDQ01+099713APOSLP
0178823920999992010080300004-03700-040350FM-12+008399999V0203601N001512200019N0040001N1+02731+02211101031ADDGA1001+999999999GF100991001001999999001001KA1240M+03711MA1999999100041MD1999999+0051REMSYN082AAXX  03004 82392 32996 03603 10273 20221 30004 40103 333 10371 29062 55096 58005;
0156823920999992010080312004-03700-040350FM-12+008399999V0200901N004112200019N0500001N1+02981+02041101291ADDGF103991031011004501001001KA1240N+02221MA1999999100281MD1999999+0081REMSYN076AAXX  03124 82392 32499 30908 10298 20204 30028 40129 83100 333 20222 58008;
0137823920999992010080318004-03700-040350FM-12+008399999V0200901N002112200019N0500001N1+03531+02091100761ADDGF104991021011004501001011MA1999999099751MD1999999+0051REMSYN070AAXX  03184 82392 32499 40904 10353 20209 39975 40076 82101 333 58005;
0168823920999992010080400004-03700-040350FM-12+008399999V0203601N001512200019N0040001N1+02761+02251101121ADDGF101991011011004501001001KA1240M+03681MA1999999100111MD1999999+0071REMSYN088AAXX  04004 82392 32496 13603 10276 20225 30011 40112 81100 333 10368 29062 55104 58007;
0156823920999992010080412004-03700-040350FM-12+008399999V0200901N005112200019N0500001N1+02881+02041101341ADDGF101991011011004501001001KA1240N+02301MA1999999100321MD1999999+0041REMSYN076AAXX  04124 82392 32499 10910 10288 20204 30032 40134 81100 333 20230 58004;
0137823920999992010080418004-03700-040350FM-12+008399999V0201401N002612200019N0500001N1+03521+02071100861ADDGF103991021011004501001011MA1999999099851MD1999999+0101REMSYN070AAXX  04184 82392 32499 31405 10352 20207 39985 40086 82101 333 58010;
0168823920999992010080500004-03700-040350FM-12+008399999V0200501N001519999999N0040001N1+02811+02051101121ADDGF105991051001008001031001KA1240M+03621MA1999999100111MD1999999+0001REMSYN088AAXX  05004 82392 32596 50503 10281 20205 30011 40112 85030 333 10362 29058 55094 58000;
0156823920999992010080512004-03700-040350FM-12+008399999V0200901N000512200019N0500001N1+02911+02171101301ADDGF101991011011004501001001KA1240N+02231MA1999999100291MD1999999-0031REMSYN076AAXX  05124 82392 32499 10901 10291 20217 30029 40130 81100 333 20223 59003;
0137823920999992010080518004-03700-040350FM-12+008399999V0200901N000512200019N0500001N1+03611+02161100781ADDGF102991011011004501011001MA1999999099761MD1999999-0091REMSYN070AAXX  05184 82392 32499 20901 10361 20216 39976 40078 81110 333 59009;
0178823920999992010080600004-03700-040350FM-12+008399999V0200501N005112200019N0040001N1+02701+02131101121ADDGA1001+999999999GF100991001001999999001001KA1240M+03741MA1999999100101MD1999999-0011REMSYN082AAXX  06004 82392 32996 00510 10270 20213 30010 40112 333 10374 29062 55016 59001;
0156823920999992010080612004-03700-040350FM-12+008399999V0200901N004112200019N0500001N1+02821+02201101411ADDGF103991031011004501001001KA1240N+02201MA1999999100391MD1999999+0101REMSYN076AAXX  06124 82392 32499 30908 10282 20220 30039 40141 83100 333 20220 58010;
0137823920999992010080618004-03700-040350FM-12+008399999V0201401N000510042019N0500001N1+03411+02191100881ADDGF106991061021004501001001MA1999999099861MD1999999+0101REMSYN070AAXX  06184 82392 32499 61401 10341 20219 39986 40088 86200 333 58010;
0168823920999992010080700004-03700-040350FM-12+008399999V0203601N005112200019N0040001N1+02701+02081101251ADDGF104991041021004501001001KA1240M+03561MA1999999100131MD1999999+0131REMSYN088AAXX  07004 82392 32496 43610 10270 20208 30013 40125 84200 333 10356 29064 55065 58013;
0156823920999992010080712004-03700-040350FM-12+008399999V0201401N000510042019N0500001N1+02631+02251101601ADDGF107991061051004501031001KA1240N+02171MA1999999100571MD1999999+0181REMSYN076AAXX  07124 82392 32499 71401 10263 20225 30057 40160 86530 333 20217 58018;
0137823920999992010080718004-03700-040350FM-12+008399999V0200901N001512200019N0500001N1+03481+02251101001ADDGF105991031021004501001011MA1999999099991MD1999999+0131REMSYN070AAXX  07184 82392 32499 50903 10348 20225 39999 40100 83201 333 58013;
0178823920999992010080800004-03700-040350FM-12+008399999V0200501N001012200019N0040001N1+02651+02141101411ADDGA1001+999999999GF100991001001999999001001KA1240M+03581MA1999999100391MD1999999+0161REMSYN082AAXX  08004 82392 32996 00502 10265 20214 30039 40141 333 10358 29069 55070 58016;
0156823920999992010080812004-03700-040350FM-12+008399999V0200901N002112200019N0500001N1+02681+02041101551ADDGF101991011011004501001001KA1240N+02041MA1999999100521MD1999999-0051REMSYN076AAXX  08124 82392 32499 10904 10268 20204 30052 40155 81100 333 20204 59005;
0137823920999992010080818004-03700-040350FM-12+008399999V0200901N002612200019N0500001N1+03481+01661101061ADDGF103991031021004501001001MA1999999100041MD1999999+0051REMSYN070AAXX  08184 82392 32499 30905 10348 20166 30004 40106 83200 333 58005;
0178823920999992010080900004-03700-040350FM-12+008399999V0200501N002112200019N0040001N1+02661+02091101341ADDGA1001+999999999GF100991001001999999001001KA1240M+03621MA1999999100321MD1999999-0071REMSYN082AAXX  09004 82392 32996 00504 10266 20209 30032 40134 333 10362 29061 55094 59007;
0156823920999992010080912004-03700-040350FM-12+008399999V0200901N004112200019N0500001N1+02881+02031101531ADDGF101991011011004501001001KA1240N+02001MA1999999100501MD1999999-0021REMSYN076AAXX  09124 82392 32499 10908 10288 20203 30050 40153 81100 333 20200 59002;
0137823920999992010080918004-03700-040350FM-12+008399999V0201401N002612200019N0500001N1+03661+01671100901ADDGF101991011011004501001001MA1999999099891MD1999999-0151REMSYN070AAXX  09184 82392 32499 11405 10366 20167 39989 40090 81100 333 59015;
0178823920999992010081000004-03700-040350FM-12+008399999V0203601N000512200019N0040001N1+02781+02301101221ADDGA1001+999999999GF100991001001999999001001KA1240M+03731MA1999999100201MD1999999-0121REMSYN082AAXX  10004 82392 32496 03601 10278 20230 30020 40122 333 10373 29060 55111 59012;
0156823920999992010081012004-03700-040350FM-12+008399999V0201401N003112200019N0500001N1+03001+02111101411ADDGF102991021011004501001001KA1240N+02201MA1999999100401MD1999999-0101REMSYN076AAXX  10124 82392 32499 21406 10300 20211 30040 40141 82100 333 20220 59010;
0137823920999992010081018004-03700-040350FM-12+008399999V0200901N000510042019N0500001N1+03331+02431101091ADDGF106991051041004501011001MA1999999100071MD1999999+0181REMSYN070AAXX  10184 82392 32499 60901 10333 20243 30007 40109 85410 333 58018;
0168823920999992010081100004-03700-040350FM-12+008399999V0200901N000512200019N0040001N1+02851+02191101401ADDGF101991011001008001031001KA1240M+03441MA1999999100391MD1999999+0191REMSYN088AAXX  11004 82392 32596 10901 10285 20219 30039 40140 81030 333 10344 29063 55059 58019;
0156823920999992010081112004-03700-040350FM-12+008399999V0200901N003112200019N0500001N1+02961+02021101601ADDGF101991011011004501001001KA1240N+02201MA1999999100581MD1999999+0181REMSYN076AAXX  11124 82392 32499 10906 10296 20202 30058 40160 81100 333 20220 58018;
0137823920999992010081118004-03700-040350FM-12+008399999V0200901N002112200019N0500001N1+03581+01701101091ADDGF103991031021004501001001MA1999999100081MD1999999+0011REMSYN070AAXX  11184 82392 32499 30904 10358 20170 30008 40109 83200 333 58001;
0178823920999992010081200004-03700-040350FM-12+008399999V0203601N000512200019N0040001N1+02671+02061101351ADDGA1001+999999999GF100991001001999999001001KA1240M+03641MA1999999100331MD1999999-0061REMSYN082AAXX  12004 82392 32996 03601 10267 20206 30033 40135 333 10364 29057 55111 59006;
0156823920999992010081212004-03700-040350FM-12+008399999V0201401N002112200019N0500001N1+02871+02251101521ADDGF102991021011004501001001KA1240N+02081MA1999999100491MD1999999-0091REMSYN076AAXX  12124 82392 32499 21404 10287 20225 30049 40152 82100 333 20208 59009;
0137823920999992010081218004-03700-040350FM-12+008399999V0200501N001512200019N0500001N1+03531+02301101001ADDGF101991011011004501001001MA1999999099981MD1999999-0101REMSYN070AAXX  12184 82392 32499 10503 10353 20230 39998 40100 81100 333 59010;
0178823920999992010081300004-03700-040350FM-12+008399999V0200501N004112200019N0040001N1+02701+02081101351ADDGA1001+999999999GF100991001001999999001001KA1240M+03661MA1999999100331MD1999999+0001REMSYN082AAXX  13004 82392 32996 00508 10270 20208 30033 40135 333 10366 29069 55109 58000;
0156823920999992010081312004-03700-040350FM-12+008399999V0201401N003112200019N0500001N1+02861+02111101521ADDGF101991011001008001001011KA1240N+02001MA1999999100491MD1999999+0001REMSYN076AAXX  13124 82392 32599 11406 10286 20211 30049 40152 81001 333 20200 58000;
0137823920999992010081318004-03700-040350FM-12+008399999V0201401N000512200019N0500001N1+03531+02431101031ADDGF101991011011004501001001MA1999999100011MD1999999+0031REMSYN070AAXX  13184 82392 32499 11401 10353 20243 30001 40103 81100 333 58003;
0178823920999992010081400004-03700-040350FM-12+008399999V0200501N005112200019N0040001N1+02681+02131101231ADDGA1001+999999999GF100991001001999999001001KA1240M+03661MA1999999100211MD1999999-0121REMSYN082AAXX  14004 82392 32996 00510 10268 20213 30021 40123 333 10366 29065 55107 59012;
0156823920999992010081412004-03700-040350FM-12+008399999V0200901N002112200019N0500001N1+02821+01911101351ADDGF102991021011004501001001KA1240N+02001MA1999999100331MD1999999-0161REMSYN076AAXX  14124 82392 32499 20904 10282 20191 30033 40135 82100 333 20200 59016;
0137823920999992010081418004-03700-040350FM-12+008399999V0201401N001012200019N0500001N1+03561+01731100901ADDGF103991021011004501001011MA1999999099891MD1999999-0121REMSYN070AAXX  14184 82392 32499 31402 10356 20173 39989 40090 82101 333 59012;
0168823920999992010081500004-03700-040350FM-12+008399999V0200501N005112200019N0040001N1+02701+02061101221ADDGF104991041021004501001001KA1240M+03661MA1999999100201MD1999999-0011REMSYN088AAXX  15004 82392 32496 40510 10270 20206 30020 40122 84200 333 10366 29057 55093 59001;
0156823920999992010081512004-03700-040350FM-12+008399999V0200501N000512200019N0500001N1+02801+02381101381ADDGF102991011011004501031001KA1240N+02131MA1999999100361MD1999999+0031REMSYN076AAXX  15124 82392 32499 20501 10280 20238 30036 40138 81130 333 20213 58003;
0137823920999992010081518004-03700-040350FM-12+008399999V0201801N001012200019N0500001N1+02801+02381100841ADDGF101991011011004501001001MA1999999099831MD1999999-0061REMSYN070AAXX  15184 82392 32499 11802 10280 20238 39983 40084 81100 333 59006;
0168823920999992010081600004-03700-040350FM-12+008399999V0203601N001512200019N0040001N1+02661+02331101301ADDGF101991011001008001031001KA1240M+03711MA1999999100281MD1999999+0081REMSYN088AAXX  16004 82392 32596 13603 10266 20233 30028 40130 81030 333 10371 29071 55106 58008;
0156823920999992010081612004-03700-040350FM-12+008399999V0200901N003112200019N0500001N1+02821+01941101461ADDGF103991031021004501001001KA1240N+02201MA1999999100441MD1999999+0081REMSYN076AAXX  16124 82392 32499 30906 10282 20194 30044 40146 83200 333 20220 58008;
0137823920999992010081618004-03700-040350FM-12+008399999V0203601N000510450019N0500001N1+03541+01801100961ADDGF106991041021004501031001MA1999999099951MD1999999+0121REMSYN070AAXX  16184 82392 32499 63601 10354 20180 39995 40096 84230 333 58012;
0168823920999992010081700004-03700-040350FM-12+008399999V0203601N001512200019N0040001N1+02661+02431101281ADDGF102991021001008001031001KA1240M+03601MA1999999100361MD1999999-0021REMSYN088AAXX  17004 82392 32596 23603 10266 20243 30036 40128 82030 333 10360 29067 55095 59002;
0156823920999992010081712004-03700-040350FM-12+008399999V0201401N003112200019N0500001N1+02961+02131101441ADDGF103991031021004501001001KA1240N+02091MA1999999100421MD1999999-0021REMSYN076AAXX  17124 82392 32499 31406 10296 20213 30042 40144 83200 333 20209 59002;
0137823920999992010081718004-03700-040350FM-12+008399999V0201401N001512200019N0500001N1+03711+02091100881ADDGF102991011011004501001011MA1999999099871MD1999999-0081REMSYN070AAXX  17184 82392 32499 21403 10371 20209 39987 40088 81101 333 59008;
0168823920999992010081800004-03700-040350FM-12+008399999V0203601N002612200019N0040001N1+02711+02391101291ADDGF101991011001008001031001KA1240M+03761MA1999999100271MD1999999+0011REMSYN088AAXX  18004 82392 32596 13605 10271 20239 30027 40129 81030 333 10376 29066 55106 58001;
0156823920999992010081812004-03700-040350FM-12+008399999V0200901N002112200019N0500001N1+02821+01861101481ADDGF102991021011004501001001KA1240N+02011MA1999999100451MD1999999+0031REMSYN076AAXX  18124 82392 32499 20904 10282 20186 30045 40148 82100 333 20201 58003;
0137823920999992010081818004-03700-040350FM-12+008399999V0201401N003112200019N0500001N1+03381+01791101021ADDGF102991021011004501001001MA1999999100001MD1999999+0131REMSYN070AAXX  18184 82392 32499 21406 10338 20179 30000 40102 82100 333 58013;
0168823920999992010081900004-03700-040350FM-12+008399999V0203601N001012200019N0040001N1+02781+02341101231ADDGF102991021001008001031001KA1240M+03511MA1999999100211MD1999999-0061REMSYN088AAXX  19004 82392 32596 23602 10278 20234 30021 40123 82030 333 10351 29062 55103 59006;
0156823920999992010081912004-03700-040350FM-12+008399999V0201801N001512200019N0500001N1+02741+01971101411ADDGF102991011011004501041001KA1240N+02021MA1999999100391MD1999999-0061REMSYN076AAXX  19124 82392 32499 21803 10274 20197 30039 40141 81140 333 20202 59006;
0137823920999992010081918004-03700-040350FM-12+008399999V0201801N001012200019N0500001N1+03501+02231100801ADDGF103991021011004501031011MA1999999099781MD1999999-0221REMSYN070AAXX  19184 82392 32499 31802 10350 20223 39978 40080 82131 333 59022;
0156823920999992010082012004-03700-040350FM-12+008399999V0200901N001012200019N0500001N1+02861+01901101321ADDGF103991011011004501031001KA1240N+02101MA1999999100301MD1999999-0091REMSYN076AAXX  20124 82392 32499 30902 10286 20190 30030 40132 81130 333 20210 59009;
0137823920999992010082018004-03700-040350FM-12+008399999V0201401N001511050019N0500001N1+03501+02271100841ADDGF106991011011004501001021MA1999999099821MD1999999+0041REMSYN070AAXX  20184 82392 32499 61403 10350 20227 39982 40084 81102 333 58004;
0168823920999992010082100004-03700-040350FM-12+008399999V0200501N005112200019N0040001N1+02661+02091101201ADDGF101991011001008001031001KA1240M+03661MA1999999100181MD1999999+0081REMSYN088AAXX  21004 82392 32596 10510 10266 20209 30018 40120 81030 333 10366 29062 55096 58008;
0156823920999992010082112004-03700-040350FM-12+008399999V0201401N000510450019N0500001N1+02811+02271101501ADDGF105991041011004501031001KA1240N+02231MA1999999100471MD1999999+0171REMSYN076AAXX  21124 82392 32499 51401 10281 20227 30047 40150 84130 333 20223 58017;
0137823920999992010082118004-03700-040350FM-12+008399999V0200501N000512200019N0500001N1+03431+02281101041ADDGF105991041011004501001011MA1999999100021MD1999999+0201REMSYN070AAXX  21184 82392 32499 50501 10343 20228 30002 40104 84101 333 58020;
0168823920999992010082200004-03700-040350FM-12+008399999V0203601N002612200019N0040001N1+02701+02301101341ADDGF101991011001008001031001KA1240M+03641MA1999999100321MD1999999+0141REMSYN088AAXX  22004 82392 32596 13605 10270 20230 30032 40134 81030 333 10364 29070 55104 58014;
0156823920999992010082212004-03700-040350FM-12+008399999V0201401N002610042019N0500001N1+02831+02381101571ADDGF107991061041004501031001KA1240N+02351MA1999999100541MD1999999+0071REMSYN076AAXX  22124 82392 32499 71405 10283 20238 30054 40157 86430 333 20235 58007;
0137823920999992010082218004-03700-040350FM-12+008399999V0200901N002110042019N0500001N1+03481+02251101021ADDGF106991051021004501001011MA1999999100011MD1999999-0011REMSYN070AAXX  22184 82392 32499 60904 10348 20225 30001 40102 85201 333 59001;
0168823920999992010082300004-03700-040350FM-12+008399999V0203601N002112200019N0040001N1+02691+02461101311ADDGF101991011001008001011001KA1240M+03571MA1999999100291MD1999999-0031REMSYN088AAXX  23004 82392 32596 13604 10269 20246 30029 40131 81010 333 10357 29075 55093 59003;
0156823920999992010082312004-03700-040350FM-12+008399999V0201801N001012200019N0500001N1+02821+02071101421ADDGF104991041021004501001001KA1240N+02261MA1999999100401MD1999999-0141REMSYN076AAXX  23124 82392 32499 41802 10282 20207 30040 40142 84200 333 20226 59014;
0137823920999992010082318004-03700-040350FM-12+008399999V0200901N003112200019N0500001N1+03561+01681100851ADDGF103991021011004501001011MA1999999099841MD1999999-0171REMSYN070AAXX  23184 82392 32499 30906 10356 20168 39984 40085 82101 333 59017;
0168823920999992010082400004-03700-040350FM-12+008399999V0203601N001512200019N0040001N1+02721+02321101191ADDGF102991011011004501031001KA1240M+03641MA1999999100131MD1999999-0121REMSYN088AAXX  24004 82392 32496 23603 10272 20232 30013 40119 81130 333 10364 29064 55107 59012;
0156823920999992010082412004-03700-040350FM-12+008399999V0201401N001012200019N0500001N1+02901+02021101271ADDGF103991031011004501001001KA1240N+02201MA1999999100251MD1999999-0151REMSYN076AAXX  24124 82392 32499 31402 10290 20202 30025 40127 83100 333 20220 59015;
0137823920999992010082418004-03700-040350FM-12+008399999V0200901N002612200019N0500001N1+03681+01691100751ADDGF103991031021004501001001MA1999999099741MD1999999-0101REMSYN070AAXX  24184 82392 32499 30905 10368 20169 39974 40075 83200 333 59010;
0168823920999992010082500004-03700-040350FM-12+008399999V0203601N001512200019N0040001N1+02691+02241101121ADDGF101991011011004501001001KA1240M+03781MA1999999100101MD1999999-0071REMSYN088AAXX  25004 82392 32496 13603 10269 20224 30010 40112 81100 333 10378 29061 55105 59007;
0156823920999992010082512004-03700-040350FM-12+008399999V0200901N003112200019N0500001N1+02961+01961101321ADDGF101991011011004501001001KA1240N+02301MA1999999100301MD1999999+0051REMSYN076AAXX  25124 82392 32499 10906 10296 20196 30030 40132 81100 333 20230 58005;
0137823920999992010082518004-03700-040350FM-12+008399999V0201401N000510042019N0500001N1+03591+02181100831ADDGF105991051021004501001001MA1999999099821MD1999999+0081REMSYN070AAXX  25184 82392 32499 51401 10359 20218 39982 40083 85200 333 58008;
0168823920999992010082600004-03700-040350FM-12+008399999V0203601N002112200019N0040001N1+02711+02241101121ADDGF101991011011004501001001KA1240M+03761MA1999999100101MD1999999+0001REMSYN088AAXX  26004 82392 32496 13604 10271 20224 30010 40112 81100 333 10376 29062 55102 58000;
0156823920999992010082612004-03700-040350FM-12+008399999V0200901N003112200019N0500001N1+02961+02331101351ADDGF104991041011004501001001KA1240N+02251MA1999999100331MD1999999+0031REMSYN076AAXX  26124 82392 32499 40906 10296 20233 30033 40135 84100 333 20225 58003;
0137823920999992010082618004-03700-040350FM-12+008399999V0200501N002112200019N0500001N1+03661+02041100801ADDGF103991031011004501001001MA1999999099791MD1999999-0031REMSYN070AAXX  26184 82392 32499 30504 10366 20204 39979 40080 83100 333 59003;
0178823920999992010082700004-03700-040350FM-12+008399999V0200501N005112200019N0040001N1+02781+02231101061ADDGA1001+999999999GF100991001001999999001001KA1240M+03771MA1999999100051MD1999999-0051REMSYN082AAXX  27004 82392 32996 00510 10278 20223 30005 40106 333 10377 29063 55103 59005;
0156823920999992010082712004-03700-040350FM-12+008399999V0200901N005112200019N0500001N1+02961+01961101271ADDGF102991021011004501001001KA1240N+02101MA1999999100261MD1999999-0071REMSYN076AAXX  27124 82392 32499 20910 10296 20196 30026 40127 82100 333 20210 59007;
0137823920999992010082718004-03700-040350FM-12+008399999V0200501N000512200019N0500001N1+03601+01621100711ADDGF103991031021004501001001MA1999999099701MD1999999-0091REMSYN070AAXX  27184 82392 32499 30501 10360 20162 39970 40071 83200 333 59009;
0178823920999992010082800004-03700-040350FM-12+008399999V0203601N005112200019N0040001N1+02721+02151101041ADDGA1001+999999999GF100991001001999999001001KA1240M+03801MA1999999100021MD1999999-0031REMSYN082AAXX  28004 82392 32996 03610 10272 20215 30002 40104 333 10380 29057 55101 59003;
0156823920999992010082812004-03700-040350FM-12+008399999V0200901N003112200019N0500001N1+02921+02061101271ADDGF102991021011004501001001KA1240N+02281MA1999999100251MD1999999-0011REMSYN076AAXX  28124 82392 32499 20906 10292 20206 30025 40127 82100 333 20228 59001;
0137823920999992010082818004-03700-040350FM-12+008399999V0201801N001012200019N0500001N1+03661+01671100711ADDGF104991031011004501001011MA1999999099701MD1999999+0001REMSYN070AAXX  28184 82392 32499 41802 10366 20167 39970 40071 83101 333 58000;
0178823920999992010082900004-03700-040350FM-12+008399999V0200501N004612200019N0040001N1+02681+02131101021ADDGA1001+999999999GF100991001001999999001001KA1240M+03801MA1999999100001MD1999999-0021REMSYN082AAXX  29004 82392 32996 00509 10268 20213 30000 40102 333 10380 29059 55098 59002;
0156823920999992010082912004-03700-040350FM-12+008399999V0201401N002112200019N0500001N1+02901+02271101271ADDGF102991021011004501001001KA1240N+02161MA1999999100251MD1999999+0001REMSYN076AAXX  29124 82392 32499 21404 10290 20227 30025 40127 82100 333 20216 58000;
0137823920999992010082918004-03700-040350FM-12+008399999V0200901N001012200019N0500001N1+03691+02191100741ADDGF102991021011004501001001MA1999999099731MD1999999+0031REMSYN070AAXX  29184 82392 32499 20902 10369 20219 39973 40074 82100 333 58003;
0178823920999992010083000004-03700-040350FM-12+008399999V0203601N002612200019N0040001N1+02711+02391101091ADDGA1001+999999999GF100991001001999999001001KA1240M+03791MA1999999100071MD1999999+0071REMSYN082AAXX  30004 82392 32996 03605 10271 20239 30007 40109 333 10379 29069 55105 58007;
0156823920999992010083012004-03700-040350FM-12+008399999V0201401N003112200019N0500001N1+02901+02041101341ADDGF104991021011004501031001KA1240N+02301MA1999999100321MD1999999+0071REMSYN076AAXX  30124 82392 32499 41406 10290 20204 30032 40134 82130 333 20230 58007;
0137823920999992010083018004-03700-040350FM-12+008399999V0201401N002612200019N0500001N1+03601+01721100801ADDGF104991031021004501031001MA1999999099791MD1999999+0061REMSYN070AAXX  30184 82392 32499 41405 10360 20172 39979 40080 83230 333 58006;
0178823920999992010083100004-03700-040350FM-12+008399999V0203601N002612200019N0040001N1+02711+02301101071ADDGA1001+999999999GF100991001001999999001001KA1240M+03681MA1999999100051MD1999999-0021REMSYN082AAXX  31004 82392 32996 03605 10271 20230 30005 40107 333 10368 29062 55099 59002;
0156823920999992010083112004-03700-040350FM-12+008399999V0200901N004112200019N0500001N1+02981+01921101271ADDGF104991021011004501001011KA1240N+02101MA1999999100261MD1999999-0061REMSYN076AAXX  31124 82392 32499 40908 10298 20192 30026 40127 82101 333 20210 59006;
0137823920999992010083118004-03700-040350FM-12+008399999V0200501N002112200019N0500001N1+03581+02201100791ADDGF104991021011004501011001MA1999999099781MD1999999-0011REMSYN070AAXX  31184 82392 32499 40504 10358 20220 39978 40079 82110 333 59001;
0178823920999992010090100004-03700-040350FM-12+008399999V0203601N001012200019N0040001N1+02731+02301101051ADDGA1001+999999999GF100991001001999999001001KA1240M+03681MA1999999100041MD1999999-0011REMSYN082AAXX  01004 82392 32996 03602 10273 20230 30004 40105 333 10368 29063 55088 59001;
0156823920999992010090112004-03700-040350FM-12+008399999V0201401N002112200019N0040001N1+02981+01891101231ADDGF101991011011004501001001KA1240N+02241MA1999999100221MD1999999-0041REMSYN076AAXX  01124 82392 32496 11404 10298 20189 30022 40123 81100 333 20224 59004;
0137823920999992010090118004-03700-040350FM-12+008399999V0200901N003112200019N0500001N1+03561+01591100811ADDGF101991011011004501001001MA1999999099801MD1999999+0021REMSYN070AAXX  01184 82392 32499 10906 10356 20159 39980 40081 81100 333 58002;
0168823920999992010090200004-03700-040350FM-12+008399999V0203601N001512200019N0500001N1+02831+01991101121ADDGF101991011011004501001001KA1240M+03661MA1999999100111MD1999999+0071REMSYN088AAXX  02004 82392 32499 13603 10283 20199 30011 40112 81100 333 10366 29050 55101 58007;
0156823920999992010090212004-03700-040350FM-12+008399999V0201401N001510450019N0500001N1+02881+02211101421ADDGF106991041041004501031061KA1240N+02041MA1999999100411MD1999999+0191REMSYN076AAXX  02124 82392 32499 61403 10288 20221 30041 40142 84436 333 20204 58019;
0137823920999992010090218004-03700-040350FM-12+008399999V0201401N002112200019N0500001N1+03571+02201100911ADDGF104991041011004501001001MA1999999099901MD1999999+0101REMSYN070AAXX  02184 82392 32499 41404 10357 20220 39990 40091 84100 333 58010;
0178823920999992010090300004-03700-040350FM-12+008399999V0200501N004612200019N0040001N1+02721+02001101251ADDGA1001+999999999GF100991001001999999001001KA1240M+03681MA1999999100231MD1999999+0121REMSYN082AAXX  03004 82392 32996 00509 10272 20200 30023 40125 333 10368 29060 55101 58012;
0156823920999992010090312004-03700-040350FM-12+008399999V0201801N002112200019N0500001N1+02921+01981101401ADDGF103991031011004501001001KA1240N+02101MA1999999100381MD1999999-0031REMSYN076AAXX  03124 82392 32499 31804 10292 20198 30038 40140 83100 333 20210 59003;
0137823920999992010090318004-03700-040350FM-12+008399999V0201401N000512200019N0500001N1+03411+02131100951ADDGF103991031011004501001001MA1999999099931MD1999999+0031REMSYN070AAXX  03184 82392 32499 31401 10341 20213 39993 40095 83100 333 58003;
0178823920999992010090400004-03700-040350FM-12+008399999V0200501N004112200019N0040001N1+02741+02021101221ADDGA1001+999999999GF100991001001999999001001KA1240M+03601MA1999999100201MD1999999-0031REMSYN082AAXX  04004 82392 32996 00508 10274 20202 30020 40122 333 10360 29058 55105 59003;
0156823920999992010090412004-03700-040350FM-12+008399999V0200901N003112200019N0500001N1+02871+02101101451ADDGF101991011011004501001001KA1240N+02131MA1999999100431MD1999999+0051REMSYN076AAXX  04124 82392 32499 10906 10287 20210 30043 40145 81100 333 20213 58005;
0137823920999992010090418004-03700-040350FM-12+008399999V0201401N000512200019N0500001N1+03591+02071100851ADDGF103991011011004501001011MA1999999099841MD1999999-0091REMSYN070AAXX  04184 82392 32499 31401 10359 20207 39984 40085 81101 333 59009;
0178823920999992010090500004-03700-040350FM-12+008399999V0203601N002612200019N0040001N1+02711+02281101241ADDGA1001+999999999GF100991001001999999001001KA1240M+02711MA1999999100221MD1999999+0021REMSYN082AAXX  05004 82392 32996 03605 10271 20228 30022 40124 333 10271 29065 55101 58002;
0156823920999992010090512004-03700-040350FM-12+008399999V0201401N003112200019N0500001N1+02941+02001101351ADDGF102991021011004501001001KA1240N+02301MA1999999100331MD1999999-0101REMSYN076AAXX  05124 82392 32499 21406 10294 20200 30033 40135 82100 333 20230 59010;
0137823920999992010090518004-03700-040350FM-12+008399999V0202301N002112200019N0500001N1+03201+01941100891ADDGF104991021011004501031001MA1999999099881MD1999999+0041REMSYN070AAXX  05184 82392 32499 42304 10320 20194 39988 40089 82130 333 58004;
0178823920999992010090600004-03700-040350FM-12+008399999V0200501N005112200019N0040001N1+02661+02141101171ADDGA1001+999999999GF100991001001999999001001KA1240M+03701MA1999999100151MD1999999-0071REMSYN082AAXX  06004 82392 32996 00510 10266 20214 30015 40117 333 10370 29061 55101 59007;
0156823920999992010090612004-03700-040350FM-12+008399999V0200901N002612200019N0500001N1+02821+02021101531ADDGF102991021011004501001001KA1240N+02191MA1999999100501MD1999999+0171REMSYN076AAXX  06124 82392 32499 20905 10282 20202 30050 40153 82100 333 20219 58017;
0137823920999992010090618004-03700-040350FM-12+008399999V0201401N002112200019N0500001N1+03701+01431100841ADDGF102991021011004501001001MA1999999099831MD1999999-0051REMSYN070AAXX  06184 82392 32499 21404 10370 20143 39983 40084 82100 333 59005;
0168823920999992010090700004-03700-040350FM-12+008399999V0200501N002612200019N0040001N1+02611+02311101271ADDGF104991041001008001011001KA1240M+03801MA1999999100251MD1999999+0101REMSYN088AAXX  07004 82392 32596 40505 10261 20231 30025 40127 84010 333 10380 29064 55097 58010;
0156823920999992010090712004-03700-040350FM-12+008399999V0200901N004112200019N0500001N1+02821+01941101491ADDGF104991041021004501001001KA1240N+02101MA1999999100461MD1999999-0041REMSYN076AAXX  07124 82392 32499 40908 10282 20194 30046 40149 84200 333 20210 59004;
0137823920999992010090718004-03700-040350FM-12+008399999V0201801N002612200019N0500001N1+03601+01861100871ADDGF102991011011004501001011MA1999999099861MD1999999+0031REMSYN070AAXX  07184 82392 32499 21805 10360 20186 39986 40087 81101 333 58003;
0178823920999992010090800004-03700-040350FM-12+008399999V0203601N002612200019N0040001N1+02641+02201101181ADDGA1001+999999999GF100991001001999999001001KA1240M+03701MA1999999100161MD1999999-0091REMSYN082AAXX  08004 82392 32996 03605 10264 20220 30016 40118 333 10370 29062 55108 59009;
0156823920999992010090812004-03700-040350FM-12+008399999V0200901N002112200019N0500001N1+02801+01981101371ADDGF102991021011004501001001KA1240N+02021MA1999999100351MD1999999-0111REMSYN076AAXX  08124 82392 32499 20904 10280 20198 30035 40137 82100 333 20202 59011;
0137823920999992010090818004-03700-040350FM-12+008399999V0200501N001012200019N0500001N1+03561+01481100851ADDGF103991031021004501001001MA1999999099841MD1999999-0021REMSYN070AAXX  08184 82392 32499 30502 10356 20148 39984 40085 83200 333 59002;
0178823920999992010090900004-03700-040350FM-12+008399999V0203601N003112200019N0040001N1+02651+02221101151ADDGA1001+999999999GF100991001001999999001001KA1240M+03691MA1999999100131MD1999999-0031REMSYN082AAXX  09004 82392 32496 03606 10265 20222 30013 40115 333 10369 29061 55107 59003;
0156823920999992010090912004-03700-040350FM-12+008399999V0200901N003110042019N0500001N1+02831+02261101371ADDGF106991051021004501031001KA1240N+02191MA1999999100351MD1999999+0041REMSYN076AAXX  09124 82392 32499 60906 10283 20226 30035 40137 85230 333 20219 58004;
0137823920999992010090918004-03700-040350FM-12+008399999V0200901N002112200019N0500001N1+03531+02091100911ADDGF102991021011004501001001MA1999999099901MD1999999+0061REMSYN070AAXX  09184 82392 32499 20904 10353 20209 39990 40091 82100 333 58006;
0178823920999992010091000004-03700-040350FM-12+008399999V0200501N003112200019N0040001N1+02701+02061101241ADDGA1001+999999999GF100991001001999999001001KA1240M+03681MA1999999100221MD1999999+0091REMSYN082AAXX  10004 82392 32996 00506 10270 20206 30022 40124 333 10368 29062 55107 58009;
0142823920999992010091012004-03700-040350FM-12+008399999V0200501N004112200019N0500001N1+03081+02191101261ADDGF102991021011004501001001KA1240N+02291MA1999999100251REMSYN076AAXX  10124 82392 32499 20508 10308 20219 30025 40126 82100 333 20229 5////;
0137823920999992010091018004-03700-040350FM-12+008399999V0200501N001010450019N0500001N1+03461+02131100881ADDGF107991041021004501031001MA1999999099871MD1999999-0031REMSYN070AAXX  10184 82392 32499 70502 10346 20213 39987 40088 84230 333 59003;
0178823920999992010091100004-03700-040350FM-12+008399999V0200501N004612200019N0040001N1+02721+02151101111ADDGA1001+999999999GF100991001001999999001001KA1240M+03581MA1999999100101MD1999999-0121REMSYN082AAXX  11004 82392 32996 00509 10272 20215 30010 40111 333 10358 29062 55092 59012;
0156823920999992010091112004-03700-040350FM-12+008399999V0201801N002112200019N0500001N1+02841+02221101281ADDGF101991011011004501001001KA1240N+02201MA1999999100261MD1999999+0011REMSYN076AAXX  11124 82392 32499 11804 10284 20222 30026 40128 81100 333 20220 58001;
0137823920999992010091118004-03700-040350FM-12+008399999V0201401N002112200019N0500001N1+03701+01111100761ADDGF101991011011004501001001MA1999999099751MD1999999-0121REMSYN070AAXX  11184 82392 32499 11404 10370 20111 39975 40076 81100 333 59012;
0178823920999992010091200004-03700-040350FM-12+008399999V0200501N005112200019N0040001N1+02741+02101101041ADDGA1001+999999999GF100991001001999999001001KA1240M+03801MA1999999100021MD1999999-0081REMSYN082AAXX  12004 82392 32996 00510 10274 20210 30002 40104 333 10380 29056 55111 59008;
0156823920999992010091212004-03700-040350FM-12+008399999V0201401N004110450019N0500001N1+02761+02091101241ADDGF106991041021004501031001KA1240N+02101MA1999999100221MD1999999-0041REMSYN076AAXX  12124 82392 32499 61408 10276 20209 30022 40124 84230 333 20210 59004;
0137823920999992010091218004-03700-040350FM-12+008399999V0200501N002112200019N0500001N1+03521+01741100751ADDGF103991031021004501001001MA1999999099741MD1999999-0011REMSYN070AAXX  12184 82392 32499 30504 10352 20174 39974 40075 83200 333 59001;
0178823920999992010091300004-03700-040350FM-12+008399999V0200501N005112200019N0040001N1+02781+01981100981ADDGA1001+999999999GF100991001001999999001001KA1240M+03681MA1999999099961MD1999999-0061REMSYN082AAXX  13004 82392 32996 00510 10278 20198 39996 40098 333 10368 29056 55103 59006;
0156823920999992010091312004-03700-040350FM-12+008399999V0200901N004612200019N0500001N1+03041+01881101161ADDGF101991011011004501001001KA1240N+02081MA1999999100151MD1999999-0071REMSYN076AAXX  13124 82392 32499 10909 10304 20188 30015 40116 81100 333 20208 59007;
0137823920999992010091318004-03700-040350FM-12+008399999V0200901N004112200019N0500001N1+03601+01621100721ADDGF102991011011004501001011MA1999999099711MD1999999-0031REMSYN070AAXX  13184 82392 32499 20908 10360 20162 39971 40072 81101 333 59003;
0178823920999992010091400004-03700-040350FM-12+008399999V0203601N003112200019N0040001N1+02741+02001101091ADDGA1001+999999999GF100991001001999999001001KA1240M+03761MA1999999100081MD1999999+0121REMSYN082AAXX  14004 82392 32996 03606 10274 20200 30008 40109 333 10376 29052 55100 58012;
0175823920999992010091412004-03700-040350FM-12+008399999V0201401N004112200019N0500001N1+03141+01661101291ADDGF101991999011008001001001KA1240N+02201MA1999999100211MD1999999+0061REMSYN076AAXX  14124 82392 32599 11408 10314 20166 30021 40129 82100 333 20220 58006;EQDQ01+000022SCOTLC
0137823920999992010091418004-03700-040350FM-12+008399999V0200901N001512200019N0500001N1+03631+01941100811ADDGF101991011011004501001001MA1999999099801MD1999999+0091REMSYN070AAXX  14184 82392 32499 10903 10363 20194 39980 40081 81100 333 58009;
0178823920999992010091500004-03700-040350FM-12+008399999V0203601N001012200019N0040001N1+02771+02061101151ADDGA1001+999999999GF100991001001999999001001KA1240M+03761MA1999999100141MD1999999+0061REMSYN082AAXX  15004 82392 32496 03602 10277 20206 30014 40115 333 10376 29053 55107 58006;
0156823920999992010091512004-03700-040350FM-12+008399999V0201801N001012200019N0500001N1+03001+02081101161ADDGF101991011011004501001001KA1240N+02211MA1999999100151MD1999999-0061REMSYN076AAXX  15124 82392 32499 11802 10300 20208 30015 40116 81100 333 20221 59006;
0137823920999992010091518004-03700-040350FM-12+008399999V0202301N002112200019N0500001N1+03661+01721100601ADDGF102991021011004501001001MA1999999099601MD1999999-0201REMSYN070AAXX  15184 82392 32499 22304 10366 20172 39960 40060 82100 333 59020;
0168823920999992010091600004-03700-040350FM-12+008399999V0203601N002112200019N0040001N1+02691+02221100991ADDGF101991011011004501001001KA1240M+03821MA1999999099981MD1999999-0161REMSYN088AAXX  16004 82392 32496 13604 10269 20222 39998 40099 81100 333 10382 29060 55102 59016;
0156823920999992010091612004-03700-040350FM-12+008399999V0200901N001012200019N0500001N1+02911+02171101241ADDGF102991021011004501001001KA1240N+02241MA1999999100221MD1999999+0071REMSYN076AAXX  16124 82392 32499 20902 10291 20217 30022 40124 82100 333 20224 58007;
0137823920999992010091618004-03700-040350FM-12+008399999V0200901N001012200019N0500001N1+03661+02041100521ADDGF104991041021004501001001MA1999999099521MD1999999-0081REMSYN070AAXX  16184 82392 32499 40902 10366 20204 39952 40052 84200 333 59008;
0178823920999992010091700004-03700-040350FM-12+008399999V0203601N005112200019N0040001N1+02701+02131100871ADDGA1001+999999999GF100991001001999999001001KA1240M+03801MA1999999099851MD1999999-0131REMSYN082AAXX  17004 82392 32996 03610 10270 20213 39985 40087 333 10380 29061 55106 59013;
0156823920999992010091712004-03700-040350FM-12+008399999V0201401N002112200019N0500001N1+02981+02061101141ADDGF101991011011004501001001KA1240N+02121MA1999999100121MD1999999-0101REMSYN076AAXX  17124 82392 32499 11404 10298 20206 30012 40114 81100 333 20212 59010;
0137823920999992010091718004-03700-040350FM-12+008399999V0200901N000512200019N0500001N1+03631+02021100631ADDGF102991021011004501001001MA1999999099631MD1999999+0111REMSYN070AAXX  17184 82392 32499 20901 10363 20202 39963 40063 82100 333 58011;
0178823920999992010091800004-03700-040350FM-12+008399999V0203601N005112200019N0040001N1+02721+02101101011ADDGA1001+999999999GF100991001001999999001001KA1240M+03761MA1999999100001MD1999999+0151REMSYN082AAXX  18004 82392 32996 03610 10272 20210 30000 40101 333 10376 29059 55106 58015;
0156823920999992010091812004-03700-040350FM-12+008399999V0201401N000512200019N0500001N1+02981+02121101301ADDGF102991021011004501001001KA1240N+02271MA1999999100281MD1999999+0161REMSYN076AAXX  18124 82392 32499 21401 10298 20212 30028 40130 82100 333 20227 58016;
0178823920999992010091900004-03700-040350FM-12+008399999V0200501N001512200019N0040001N1+02741+02051101071ADDGA1001+999999999GF100991001001999999001001KA1240M+03741MA1999999100051MD1999999+0051REMSYN082AAXX  19004 82392 32996 00503 10274 20205 30005 40107 333 10374 29058 55106 58005;
0156823920999992010091912004-03700-040350FM-12+008399999V0200901N004612200019N0500001N1+02921+01981101251ADDGF101991011011004501001001KA1240N+02201MA1999999100231MD1999999-0051REMSYN076AAXX  19124 82392 32499 10909 10292 20198 30023 40125 81100 333 20220 59005;
0137823920999992010091918004-03700-040350FM-12+008399999V0200501N005112200019N0500001N1+03621+01641100691ADDGF101991011011004501001001MA1999999099681MD1999999-0031REMSYN070AAXX  19184 82392 32499 10510 10362 20164 39968 40069 81100 333 59003;
0168823920999992010092000004-03700-040350FM-12+008399999V0200501N004112200019N0040001N1+02661+02241101021ADDGF102991021001008001031001KA1240M+03741MA1999999100001MD1999999-0051REMSYN088AAXX  20004 82392 32596 20508 10266 20224 30000 40102 82030 333 10374 29061 55103 59005;
0156823920999992010092012004-03700-040350FM-12+008399999V0200901N003112200019N0500001N1+02921+02061101231ADDGF103991021011004501031001KA1240N+02301MA1999999100211MD1999999-0021REMSYN076AAXX  20124 82392 32499 30906 10292 20206 30021 40123 82130 333 20230 59002;
0137823920999992010092018004-03700-040350FM-12+008399999V0200901N002112200019N0500001N1+03581+01661100531ADDGF103991021011004501001011MA1999999099531MD1999999-0151REMSYN070AAXX  20184 82392 32499 30904 10358 20166 39953 40053 82101 333 59015;
0168823920999992010092100004-03700-040350FM-12+008399999V0203601N000512200019N0040001N1+02711+01951100931ADDGF101991011001008001011001KA1240M+03701MA1999999099911MD1999999-0091REMSYN088AAXX  21004 82392 32596 13601 10271 20195 39991 40093 81010 333 10370 29055 55088 59009;
0156823920999992010092112004-03700-040350FM-12+008399999V0200901N004112200019N0500001N1+03001+02001101161ADDGF101991011011004501001001KA1240N+02101MA1999999100151MD1999999-0061REMSYN076AAXX  21124 82392 32499 10908 10300 20200 30015 40116 81100 333 20210 59006;
0137823920999992010092118004-03700-040350FM-12+008399999V0203601N000512200019N0500001N1+03691+01111100631ADDGF101991011001012501001011MA1999999099631MD1999999+0101REMSYN070AAXX  21184 82392 32699 13601 10369 20111 39963 40063 81001 333 58010;
0178823920999992010092200004-03700-040350FM-12+008399999V0203601N000512200019N0040001N1+02831+01731100961ADDGA1001+999999999GF100991001001999999001001KA1240M+03771MA1999999099951MD1999999+0041REMSYN082AAXX  22004 82392 32996 03601 10283 20173 39995 40096 333 10377 29045 55109 58004;
0156823920999992010092212004-03700-040350FM-12+008399999V0200501N004612200019N0500001N1+03021+02021101211ADDGF101991011011004501001001KA1240N+02191MA1999999100201MD1999999+0051REMSYN076AAXX  22124 82392 32499 10509 10302 20202 30020 40121 81100 333 20219 58005;
0156823920999992010092218004-03700-040350FM-12+008399999V0201801N002112200019N0500001N1+03701+01491100641ADDGF102991999011004501001001MA1999999099631MD1999999+0001REMSYN070AAXX  22184 82392 32499 21804 10370 20149 39963 40064 81100 333 58000;EQDQ01+000012SCOTLC
0178823920999992010092300004-03700-040350FM-12+008399999V0203601N001012200019N0040001N1+02731+01891101031ADDGA1001+999999999GF100991001001999999001001KA1240M+03771MA1999999100021MD1999999+0071REMSYN082AAXX  23004 82392 32996 03602 10273 20189 30002 40103 333 10377 29051 55108 58007;
0156823920999992010092312004-03700-040350FM-12+008399999V0200901N002612200019N0500001N1+02991+01781101271ADDGF102991021011004501001001KA1240N+02161MA1999999100261MD1999999+0061REMSYN076AAXX  23124 82392 32499 20905 10299 20178 30026 40127 82100 333 20216 58006;
0137823920999992010092318004-03700-040350FM-12+008399999V0201401N000512200019N0500001N1+03671+01471100621ADDGF102991021011004501001001MA1999999099621MD1999999-0011REMSYN070AAXX  23184 82392 32499 21401 10367 20147 39962 40062 82100 333 59001;
0178823920999992010092400004-03700-040350FM-12+008399999V0200501N005112200019N0040001N1+02601+02061101071ADDGA1001+999999999GF100991001001999999001001KA1240M+03781MA1999999100051MD1999999+0031REMSYN082AAXX  24004 82392 32996 00510 10260 20206 30005 40107 333 10378 29055 55106 58003;
0156823920999992010092412004-03700-040350FM-12+008399999V0200501N005112200019N0040001N1+03021+02021101261ADDGF101991011001008001001011KA1240N+02101MA1999999100241MD1999999+0021REMSYN076AAXX  24124 82392 32596 10510 10302 20202 30024 40126 81001 333 20210 58002;
0137823920999992010092418004-03700-040350FM-12+008399999V0200901N002112200019N0500001N1+03691+01311100701ADDGF102991011011004501001011MA1999999099691MD1999999+0071REMSYN070AAXX  24184 82392 32499 20904 10369 20131 39969 40070 81101 333 58007;
0178823920999992010092500004-03700-040350FM-12+008399999V0200501N004112200019N0040001N1+02681+02061101011ADDGA1001+999999999GF100991001001999999001001KA1240M+03781MA1999999100001MD1999999-0051REMSYN082AAXX  25004 82392 32996 00508 10268 20206 30000 40101 333 10378 29054 55107 59005;
0156823920999992010092812004-03700-040350FM-12+008399999V0200901N004112200019N0500001N1+03001+02001101011ADDGF102991021011004501001001KA1240N+02281MA1999999100001MD1999999-0051REMSYN076AAXX  28124 82392 32499 20908 10300 20200 30000 40101 82100 333 20228 59005;
0156823920999992010092818004-03700-040350FM-12+008399999V0200501N003112200019N0500001N1+03701+01601100381ADDGF103991999011004501001001MA1999999099381MD1999999-0061REMSYN070AAXX  28184 82392 32499 30506 10370 20160 39938 40038 82100 333 59006;EQDQ01+000022SCOTLC
0178823920999992010092900004-03700-040350FM-12+008399999V0203601N001512200019N0040001N1+02691+02111100811ADDGA1001+999999999GF100991001001999999001001KA1240M+03801MA1999999099801MD1999999+0011REMSYN082AAXX  29004 82392 32996 03603 10269 20211 39980 40081 333 10380 29056 55108 58001;
0156823920999992010092912004-03700-040350FM-12+008399999V0200901N003112200019N0500001N1+02961+01991101101ADDGF102991021011004501001001KA1240N+02201MA1999999100081MD1999999+0081REMSYN076AAXX  29124 82392 32499 20906 10296 20199 30008 40110 82100 333 20220 58008;
0137823920999992010092918004-03700-040350FM-12+008399999V0200501N002612200019N0500001N1+03721+01621100551ADDGF101991011021004501001001MA1999999099551MD1999999+0171REMSYN070AAXX  29184 82392 32499 10505 10372 20162 39955 40055 81200 333 58017;
0178823920999992010093000004-03700-040350FM-12+008399999V0203601N002112200019N0040001N1+02611+02121100871ADDGA1001+999999999GF100991001001999999001001KA1240M+03801MA1999999099851MD1999999+0051REMSYN082AAXX  30004 82392 32996 03604 10261 20212 39985 40087 333 10380 29058 55107 58005;
0156823920999992010093012004-03700-040350FM-12+008399999V0200501N001512200019N0500001N1+02941+01971101091ADDGF102991021011004501001001KA1240N+02231MA1999999100071MD1999999-0011REMSYN076AAXX  30124 82392 32499 20503 10294 20197 30007 40109 82100 333 20223 59001;
0137823920999992010093018004-03700-040350FM-12+008399999V0200901N000512200019N0500001N1+03711+01621100551ADDGF102991021011004501001001MA1999999099551MD1999999+0001REMSYN070AAXX  30184 82392 32499 20901 10371 20162 39955 40055 82100 333 58000;
0178823920999992010100100004-03700-040350FM-12+008399999V0200501N004112200019N0040001N1+02661+01951101001ADDGA1001+999999999GF100991001001999999001001KA1240M+03841MA1999999099981MD1999999+0131REMSYN082AAXX  01004 82392 32996 00508 10266 20195 39998 40100 333 10384 29054 55105 58013;
0156823920999992010100112004-03700-040350FM-12+008399999V0200901N003112200019N0500001N1+02941+01911101181ADDGF103991031021004501001001KA1240N+02201MA1999999100161MD1999999+0091REMSYN076AAXX  01124 82392 32499 30906 10294 20191 30016 40118 83200 333 20220 58009;
0137823920999992010100118004-03700-040350FM-12+008399999V0200501N001012200019N0500001N1+03681+01641100571ADDGF102991021011008001001001MA1999999099571MD1999999+0021REMSYN070AAXX  01184 82392 32599 20502 10368 20164 39957 40057 82100 333 58002;
0178823920999992010100200004-03700-040350FM-12+008399999V0200501N004612200019N0040001N1+02681+01941100971ADDGA1001+999999999GF100991001001999999001001KA1240M+03801MA1999999099951MD1999999-0031REMSYN082AAXX  02004 82392 32996 00509 10268 20194 39995 40097 333 10380 29052 55107 59003;
0156823920999992010100212004-03700-040350FM-12+008399999V0200501N003110042019N0500001N1+02991+02001101151ADDGF107991071021004501001001KA1240N+02351MA1999999100131MD1999999-0031REMSYN076AAXX  02124 82392 32499 70506 10299 20200 30013 40115 87200 333 20235 59003;
0137823920999992010100218004-03700-040350FM-12+008399999V0200501N003110042019N0500001N1+03661+01461100601ADDGF105991051011004501001001MA1999999099601MD1999999+0031REMSYN070AAXX  02184 82392 32499 50506 10366 20146 39960 40060 85100 333 58003;
0178823920999992010100300004-03700-040350FM-12+008399999V0203601N002112200019N0040001N1+02621+02051101011ADDGA1001+999999999GF100991001001999999001001KA1240M+03741MA1999999099991MD1999999+0041REMSYN082AAXX  03004 82392 32996 03604 10262 20205 39999 40101 333 10374 29056 55104 58004;
0156823920999992010100312004-03700-040350FM-12+008399999V0201801N001012200019N0500001N1+02941+01911101201ADDGF104991041021004501001001KA1240N+02101MA1999999100181MD1999999+0551REMSYN076AAXX  03124 82392 32499 41802 10294 20191 30018 40120 84200 333 20210 58055;
0137823920999992010100318004-03700-040350FM-12+008399999V0201801N000512200019N0500001N1+03761+01421100661ADDGF102991011011004501001011MA1999999099651MD1999999+0051REMSYN070AAXX  03184 82392 32499 21801 10376 20142 39965 40066 81101 333 58005;
0178823920999992010100400004-03700-040350FM-12+008399999V0200501N005112200019N0040001N1+02721+02031101021ADDGA1001+999999999GF100991001001999999001001KA1240M+03881MA1999999100001MD1999999+0011REMSYN082AAXX  04004 82392 32996 00510 10272 20203 30000 40102 333 10388 29053 55099 58001;
0156823920999992010100412004-03700-040350FM-12+008399999V0200501N004612200019N0500001N1+03041+02001101281ADDGF104991021021004501031001KA1240N+02201MA1999999100271MD1999999+0091REMSYN076AAXX  04124 82392 32499 40509 10304 20200 30027 40128 82230 333 20220 58009;
0137823920999992010100418004-03700-040350FM-12+008399999V0200901N004112200019N0500001N1+03801+01391100711ADDGF101991011011004501001001MA1999999099701MD1999999+0051REMSYN070AAXX  04184 82392 32499 10908 10380 20139 39970 40071 81100 333 58005;
0178823920999992010100500004-03700-040350FM-12+008399999V0203601N002112200019N0040001N1+02631+01981101151ADDGA1001+999999999GF100991001001999999001001KA1240M+03861MA1999999100131MD1999999+0131REMSYN082AAXX  05004 82392 32996 03604 10263 20198 30013 40115 333 10386 29053 55106 58013;
0156823920999992010100512004-03700-040350FM-12+008399999V0200501N003112200019N0500001N1+03021+01891101251ADDGF102991021011004501001001KA1240N+02301MA1999999100231MD1999999-0041REMSYN076AAXX  05124 82392 32499 20506 10302 20189 30023 40125 82100 333 20230 59004;
0137823920999992010100518004-03700-040350FM-12+008399999V0200901N001512200019N0500001N1+03711+01261100691ADDGF101991011011004501001001MA1999999099681MD1999999-0021REMSYN070AAXX  05184 82392 32499 10903 10371 20126 39968 40069 81100 333 59002;
0178823920999992010100600004-03700-040350FM-12+008399999V0203601N002612200019N0040001N1+02671+01861101141ADDGA1001+999999999GF100991001001999999001001KA1240M+03801MA1999999100131MD1999999+0001REMSYN082AAXX  06004 82392 32996 03605 10267 20186 30013 40114 333 10380 29049 55107 58000;
0156823920999992010100612004-03700-040350FM-12+008399999V0200901N004112200019N0500001N1+02921+01921101271ADDGF103991021011004501001011KA1240N+02081MA1999999100251MD1999999+0021REMSYN076AAXX  06124 82392 32499 30908 10292 20192 30025 40127 82101 333 20208 58002;
0137823920999992010100618004-03700-040350FM-12+008399999V0200901N001012200019N0500001N1+03781+01241100631ADDGF101991011001008001001011MA1999999099631MD1999999-0031REMSYN070AAXX  06184 82392 32599 10902 10378 20124 39963 40063 81001 333 59003;
0178823920999992010100700004-03700-040350FM-12+008399999V0203601N003112200019N0040001N1+02631+02001101121ADDGA1001+999999999GF100991001001999999001001KA1240M+03831MA1999999100101MD1999999-0031REMSYN082AAXX  07004 82392 32996 03606 10263 20200 30010 40112 333 10383 29053 55108 59003;
0156823920999992010100712004-03700-040350FM-12+008399999V0201801N001010042019N0500001N1+02801+01981101391ADDGF106991061021004501001001KA1240N+02171MA1999999100371MD1999999+0121REMSYN076AAXX  07124 82392 32499 61802 10280 20198 30037 40139 86200 333 20217 58012;
0137823920999992010100718004-03700-040350FM-12+008399999V0200901N001512200019N0500001N1+03771+01371100691ADDGF101991011011004501001001MA1999999099681MD1999999+0051REMSYN070AAXX  07184 82392 32499 10903 10377 20137 39968 40069 81100 333 58005;
0178823920999992010100800004-03700-040350FM-12+008399999V0200501N004112200019N0040001N1+02621+01961101191ADDGA1001+999999999GF100991001001999999001001KA1240M+03911MA1999999100171MD1999999+0071REMSYN082AAXX  08004 82392 32996 00508 10262 20196 30017 40119 333 10391 29055 55103 58007;
0156823920999992010100812004-03700-040350FM-12+008399999V0200901N003112200019N0500001N1+02961+01871101531ADDGF104991031021004501031001KA1240N+02381MA1999999100501MD1999999+0131REMSYN076AAXX  08124 82392 32499 40906 10296 20187 30050 40153 83230 333 20238 58013;
0137823920999992010100818004-03700-040350FM-12+008399999V0201401N001512200019N0500001N1+03601+01571100961ADDGF103991031011004501001001MA1999999099951MD1999999+0281REMSYN070AAXX  08184 82392 32499 31403 10360 20157 39995 40096 83100 333 58028;
0178823920999992010100900004-03700-040350FM-12+008399999V0200501N004112200019N0040001N1+02741+02181101311ADDGA1001+999999999GF100991001001999999001001KA1240M+03771MA1999999100301MD1999999+0131REMSYN082AAXX  09004 82392 32996 00508 10274 20218 30030 40131 333 10377 29049 55106 58013;
0156823920999992010100912004-03700-040350FM-12+008399999V0200501N003112200019N0500001N1+03001+01841101391ADDGF101991011011004501001001KA1240N+02101MA1999999100381MD1999999-0121REMSYN076AAXX  09124 82392 32499 10506 10300 20184 30038 40139 81100 333 20210 59012;
0137823920999992010100918004-03700-040350FM-12+008399999V0200901N002612200019N0500001N1+03781+01371100751ADDGF101991011001008001001011MA1999999099741MD1999999-0211REMSYN070AAXX  09184 82392 32599 10905 10378 20137 39974 40075 81001 333 59021;
0178823920999992010101000004-03700-040350FM-12+008399999V0200501N005112200019N0040001N1+02721+02081101111ADDGA1001+999999999GF100991001001999999001001KA1240M+03891MA1999999100101MD1999999-0201REMSYN082AAXX  10004 82392 32996 00510 10272 20208 30010 40111 333 10389 29048 55105 59020;
0156823920999992010101012004-03700-040350FM-12+008399999V0200901N001010042019N0500001N1+02831+02091101391ADDGF107991071041004501001001KA1240N+02251MA1999999100371MD1999999-0011REMSYN076AAXX  10124 82392 32499 70902 10283 20209 30037 40139 87400 333 20225 59001;
0137823920999992010101018004-03700-040350FM-12+008399999V0200901N003112200019N0500001N1+03691+01711100781ADDGF103991031021004501001001MA1999999099771MD1999999+0031REMSYN070AAXX  10184 82392 32499 30906 10369 20171 39977 40078 83200 333 58003;
0178823920999992010101100004-03700-040350FM-12+008399999V0203601N002112200019N0040001N1+02681+01941101161ADDGA1001+999999999GF100991001001999999001001KA1240M+03801MA1999999100141MD1999999+0041REMSYN082AAXX  11004 82392 32996 03604 10268 20194 30014 40116 333 10380 29056 55087 58004;
0156823920999992010101112004-03700-040350FM-12+008399999V0200901N003110042019N0500001N1+02881+02001101311ADDGF107991051041004501031001KA1240N+02261MA1999999100291MD1999999-0081REMSYN076AAXX  11124 82392 32499 70906 10288 20200 30029 40131 85430 333 20226 59008;
0137823920999992010101118004-03700-040350FM-12+008399999V0200901N003112200019N0500001N1+03541+01621100761ADDGF104991031011004501001011MA1999999099751MD1999999-0021REMSYN070AAXX  11184 82392 32499 40906 10354 20162 39975 40076 83101 333 59002;
0178823920999992010101200004-03700-040350FM-12+008399999V0203601N001512200019N0040001N1+02771+01851101101ADDGA1001+999999999GF100991001001999999001001KA1240M+03641MA1999999100081MD1999999-0061REMSYN082AAXX  12004 82392 32996 03603 10277 20185 30008 40110 333 10364 29051 55071 59006;
0156823920999992010101212004-03700-040350FM-12+008399999V0201401N002112200019N0500001N1+02941+02001101311ADDGF104991021021004501031001KA1240N+02221MA1999999100301MD1999999+0011REMSYN076AAXX  12124 82392 32499 41404 10294 20200 30030 40131 82230 333 20222 58001;
0137823920999992010101218004-03700-040350FM-12+008399999V0200901N001012200019N0500001N1+03641+01601100751ADDGF104991041021004501001001MA1999999099741MD1999999-0011REMSYN070AAXX  12184 82392 32499 40902 10364 20160 39974 40075 84200 333 59001;
0178823920999992010101300004-03700-040350FM-12+008399999V0203601N002112200019N0040001N1+02741+02021101111ADDGA1001+999999999GF100991001001999999001001KA1240M+03741MA1999999100101MD1999999+0021REMSYN082AAXX  13004 82392 32996 03604 10274 20202 30010 40111 333 10374 29054 55101 58002;
0156823920999992010101312004-03700-040350FM-12+008399999V0200901N004110450019N0500001N1+02901+01961101271ADDGF106991031021004501031001KA1240N+02201MA1999999100261MD1999999-0041REMSYN076AAXX  13124 82392 32499 60908 10290 20196 30026 40127 83230 333 20220 59004;
0137823920999992010101318004-03700-040350FM-12+008399999V0200901N003112200019N0500001N1+03641+01441100781ADDGF104991031021004501001011MA1999999099771MD1999999+0031REMSYN070AAXX  13184 82392 32499 40906 10364 20144 39977 40078 83201 333 58003;
0178823920999992010101400004-03700-040350FM-12+008399999V0203601N002112200019N0040001N1+02711+01931101171ADDGA1001+999999999GF100991001001999999001001KA1240M+03741MA1999999100151MD1999999+0051REMSYN082AAXX  14004 82392 32496 03604 10271 20193 30015 40117 333 10374 29052 55097 58005;
0156823920999992010101412004-03700-040350FM-12+008399999V0200901N004112200019N0500001N1+02991+01611101371ADDGF102991011011004501011001KA1240N+02311MA1999999100361MD1999999+0101REMSYN076AAXX  14124 82392 32499 20908 10299 20161 30036 40137 81110 333 20231 58010;
0137823920999992010101418004-03700-040350FM-12+008399999V0200901N003112200019N0500001N1+03641+01441100781ADDGF104991031021004501001011MA1999999099771MD1999999+0031REMSYN070AAXX  14184 82392 32499 40906 10364 20144 39977 40078 83201 333 58003;
0168823920999992010101500004-03700-040350FM-12+008399999V0200501N004612200019N0040001N1+02741+02071101131ADDGF101991011001008001031001KA1240M+03701MA1999999100121MD1999999-0031REMSYN088AAXX  15004 82392 32596 10509 10274 20207 30012 40113 81030 333 10370 29051 55094 59003;
0156823920999992010101512004-03700-040350FM-12+008399999V0200901N004112200019N0500001N1+03061+01731101191ADDGF101991011011004501001001KA1240N+02211MA1999999100181MD1999999-0181REMSYN076AAXX  15124 82392 32499 10908 10306 20173 30018 40119 81100 333 20221 59018;
0137823920999992010101518004-03700-040350FM-12+008399999V0200501N003110450019N0500001N1+03731+01461100581ADDGF106991021011004501011001MA1999999099581MD1999999-0181REMSYN070AAXX  15184 82392 32499 60506 10373 20146 39958 40058 82110 333 59018;
0178823920999992010101600004-03700-040350FM-12+008399999V0200501N005112200019N0040001N1+02701+02081101051ADDGA1001+999999999GF100991001001999999001001KA1240M+03821MA1999999100041MD1999999-0081REMSYN082AAXX  16004 82392 32996 00510 10270 20208 30004 40105 333 10382 29052 55101 59008;
0156823920999992010101612004-03700-040350FM-12+008399999V0200901N002112200019N0500001N1+03031+01601101111ADDGF105991011011004501001011KA1240N+02231MA1999999100101MD1999999-0081REMSYN076AAXX  16124 82392 32499 50904 10303 20160 30010 40111 81101 333 20223 59008;
0137823920999992010101618004-03700-040350FM-12+008399999V0200501N001511050019N0500001N1+03641+01551100661ADDGF106991011011004501001021MA1999999099651MD1999999+0071REMSYN070AAXX  16184 82392 32499 60503 10364 20155 39965 40066 81102 333 58007;
0178823920999992010101700004-03700-040350FM-12+008399999V0203601N001512200019N0040001N1+02681+01811100961ADDGA1001+999999999GF100991001001999999001001KA1240M+03721MA1999999099951MD1999999-0091REMSYN082AAXX  17004 82392 32996 03603 10268 20181 39995 40096 333 10372 29041 55100 59009;
0156823920999992010101712004-03700-040350FM-12+008399999V0200501N005112200019N0500001N1+03001+01841101221ADDGF102991021011004501001001KA1240N+02101MA1999999100201MD1999999+0101REMSYN076AAXX  17124 82392 32499 20510 10300 20184 30020 40122 82100 333 20210 58010;
0137823920999992010101718004-03700-040350FM-12+008399999V0201401N000512200019N0500001N1+03721+01671100661ADDGF101991011011004501001001MA1999999099651MD1999999+0001REMSYN070AAXX  17184 82392 32499 11401 10372 20167 39965 40066 81100 333 58000;
0178823920999992010101800004-03700-040350FM-12+008399999V0203601N004112200019N0040001N1+02761+02091101041ADDGA1001+999999999GF100991001001999999001001KA1240M+03821MA1999999100031MD1999999+0081REMSYN082AAXX  18004 82392 32996 03608 10276 20209 30003 40104 333 10382 29054 55104 58008;
0156823920999992010101812004-03700-040350FM-12+008399999V0200901N001010450019N0500001N1+02771+01911101331ADDGF107991031051004501011001KA1240N+02301MA1999999100311MD1999999+0111REMSYN076AAXX  18124 82392 32499 70902 10277 20191 30031 40133 83510 333 20230 58011;
0137823920999992010101818004-03700-040350FM-12+008399999V0200501N000512200019N0500001N1+03641+01601100761ADDGF101991011011004501001001MA1999999099751MD1999999+0101REMSYN070AAXX  18184 82392 32499 10501 10364 20160 39975 40076 81100 333 58010;
0178823920999992010101900004-03700-040350FM-12+008399999V0203601N002112200019N0040001N1+02631+02141101091ADDGA1001+999999999GF100991001001999999001001KA1240M+03731MA1999999100071MD1999999+0041REMSYN082AAXX  19004 82392 32996 03604 10263 20214 30007 40109 333 10373 29059 55064 58004;
0156823920999992010101912004-03700-040350FM-12+008399999V0200901N000510450019N0500001N1+02801+01981101321ADDGF107991041051004501011001KA1240N+02401MA1999999100301MD1999999-0011REMSYN076AAXX  19124 82392 32499 70901 10280 20198 30030 40132 84510 333 20240 59001;
0137823920999992010101918004-03700-040350FM-12+008399999V0200501N001012200019N0500001N1+03421+01781100731ADDGF105991011021004501001011MA1999999099721MD1999999-0031REMSYN070AAXX  19184 82392 32499 50502 10342 20178 39972 40073 81201 333 59003;
0178823920999992010102000004-03700-040350FM-12+008399999V0200501N002112200019N0040001N1+02631+02181101121ADDGA1001+999999999GF100991001001999999001001KA1240M+03671MA1999999100101MD1999999+0031REMSYN082AAXX  20004 82392 32996 00504 10263 20218 30010 40112 333 10367 29063 55063 58003;
0156823920999992010102012004-03700-040350FM-12+008399999V0200501N004612200019N0500001N1+02981+01981101261ADDGF103991031021004501001001KA1240N+02301MA1999999100241MD1999999-0061REMSYN076AAXX  20124 82392 32499 30509 10298 20198 30024 40126 83200 333 20230 59006;
0137823920999992010102018004-03700-040350FM-12+008399999V0200501N003112200019N0500001N1+03681+01531100671ADDGF102991021011004501001001MA1999999099661MD1999999-0061REMSYN070AAXX  20184 82392 32499 20506 10368 20153 39966 40067 82100 333 59006;
0168823920999992010102100004-03700-040350FM-12+008399999V0203601N002612200019N0040001N1+02641+02141101031ADDGF102991021001008001031001KA1240M+03761MA1999999100011MD1999999-0091REMSYN088AAXX  21004 82392 32596 23605 10264 20214 30001 40103 82030 333 10376 29058 55108 59009;
0156823920999992010102112004-03700-040350FM-12+008399999V0200901N002110042019N0500001N1+02971+02141101291ADDGF106991051021004501031001KA1240N+02381MA1999999100271MD1999999+0031REMSYN076AAXX  21124 82392 32499 60904 10297 20214 30027 40129 85230 333 20238 58003;
0137823920999992010102118004-03700-040350FM-12+008399999V0201801N000510450019N0500001N1+03611+01641100571ADDGF105991041021004501011001MA1999999099571MD1999999-0091REMSYN070AAXX  21184 82392 32499 51801 10361 20164 39957 40057 84210 333 59009;
0178823920999992010102200004-03700-040350FM-12+008399999V0203601N005712200019N0040001N1+02701+02131100981ADDGA1001+999999999GF100991001001999999001001KA1240M+03781MA1999999099961MD1999999-0051REMSYN082AAXX  22004 82392 32996 03611 10270 20213 39996 40098 333 10378 29058 55091 59005;
0156823920999992010102212004-03700-040350FM-12+008399999V0201401N002112200019N0500001N1+02881+02001101191ADDGF104991021011004501031001KA1240N+02341MA1999999100171MD1999999-0101REMSYN076AAXX  22124 82392 32499 41404 10288 20200 30017 40119 82130 333 20234 59010;
0137823920999992010102218004-03700-040350FM-12+008399999V0203201N001510450019N0500001N1+03391+02001100611ADDGF105991031041004501031001MA1999999099961MD1999999+0041REMSYN070AAXX  22184 82392 32499 53203 10339 20200 39996 40061 83430 333 58004;
0213823920999992010102300004-03700-040350FM-12+008399999V0200501N004110450019N0040001N1+02481+02191100981ADDAA106009991AY161061AY221061GF108991031051004501031999KA1240M+03571MA1999999099961MD1999999+0001MW1021REMSYN100AAXX  23004 82392 21496 80508 10248 20219 39996 40098 70262 8353/ 333 10357 29068 55048 58000 60101;
0173823920999992010102312004-03700-040350FM-12+008399999V0201401N001010450019N0500001N1+02761+02141101121ADDAA124009991GF106991041011004501051001KA1240N+02311MA1999999100101MD1999999-0071REMSYN082AAXX  23124 82392 22499 61402 10276 20214 30010 40112 84150 333 20231 59007 60104;
0137823920999992010102318004-03700-040350FM-12+008399999V0201801N002110450019N0500001N1+03041+02201100721ADDGF105991041011004501031001MA1999999099701MD1999999+0091REMSYN070AAXX  23184 82392 32499 51804 10304 20220 39970 40072 84130 333 58009;
0168823920999992010102400004-03700-040350FM-12+008399999V0200501N002110450019N0040001N1+02641+02141101021ADDGF106991031041004501031001KA1240M+03261MA1999999100001MD1999999+0041REMSYN088AAXX  24004 82392 32496 60504 10264 20214 30000 40102 83430 333 10326 29069 55032 58004;
0156823920999992010102412004-03700-040350FM-12+008399999V0203601N000510450019N0500001N1+02911+02021101021ADDGF106991031041004501031001KA1240N+02411MA1999999100001MD1999999-0101REMSYN076AAXX  24124 82392 32499 63601 10291 20202 30000 40102 83430 333 20241 59010;
0137823920999992010102418004-03700-040350FM-12+008399999V0203601N000512200019N0500001N1+03621+01961100461ADDGF104991041021004501001001MA1999999100461MD1999999-0241REMSYN070AAXX  24184 82392 32499 43601 10362 20196 30046 40046 84200 333 59024;
0168823920999992010102500004-03700-040350FM-12+008399999V0203601N002612200019N0040001N1+02711+02221100821ADDGF102991021001008001031001KA1240M+03681MA1999999099801MD1999999-0201REMSYN088AAXX  25004 82392 32596 23605 10271 20222 39980 40082 82030 333 10368 29062 55077 59020;
0156823920999992010102512004-03700-040350FM-12+008399999V0200501N003112200019N0500001N1+02841+02221101021ADDGF104991041021004501001001KA1240N+02531MA1999999100001MD1999999+0001REMSYN076AAXX  25124 82392 32499 40506 10284 20222 30000 40102 84200 333 20253 58000;
0137823920999992010102518004-03700-040350FM-12+008399999V0200901N001512200019N0500001N1+03621+01591100391ADDGF102991021011004501001001MA1999999099391MD1999999-0071REMSYN070AAXX  25184 82392 32499 20903 10362 20159 39939 40039 82100 333 59007;
0178823920999992010102600004-03700-040350FM-12+008399999V0203601N002612200019N0040001N1+02671+01991100791ADDGA1001+999999999GF100991001001999999001001KA1240M+03741MA1999999099771MD1999999-0031REMSYN082AAXX  26004 82392 32996 03605 10267 20199 39977 40079 333 10374 29058 55091 59003;
0156823920999992010102612004-03700-040350FM-12+008399999V0200501N001010042019N0500001N1+02861+01951101041ADDGF105991051021004501001001KA1240N+02301MA1999999100021MD1999999+0021REMSYN076AAXX  26124 82392 32499 50502 10286 20195 30002 40104 85200 333 20230 58002;
0137823920999992010102618004-03700-040350FM-12+008399999V0209999C000010042019N0500001N1+03571+01701100531ADDGF105991051021004501001001MA1999999099531MD1999999+0141REMSYN070AAXX  26184 82392 32499 50000 10357 20170 39953 40053 85200 333 58014;
0178823920999992010102700004-03700-040350FM-12+008399999V0203601N002112200019N0040001N1+02671+02091100981ADDGA1001+999999999GF100991001001999999001001KA1240M+03701MA1999999099961MD1999999+0191REMSYN082AAXX  27004 82392 32996 03604 10267 20209 39996 40098 333 10370 29058 55097 58019;
0156823920999992010102712004-03700-040350FM-12+008399999V0201401N002112200019N0500001N1+02941+01911100921ADDGF101991011001004501001011KA1240N+02191MA1999999099901MD1999999-0121REMSYN076AAXX  27124 82392 32499 11404 10294 20191 39990 40092 81001 333 20219 59012;
0137823920999992010102718004-03700-040350FM-12+008399999V0201801N001512200019N0500001N1+03681+01691100411ADDGF103991031021004501001001MA1999999099411MD1999999-0121REMSYN070AAXX  27184 82392 32499 31803 10368 20169 39941 40041 83200 333 59012;
0168823920999992010102800004-03700-040350FM-12+008399999V0200501N001512200019N0040001N1+02711+02101100851ADDGF102991021001008001031001KA1240M+03841MA1999999099831MD1999999-0131REMSYN088AAXX  28004 82392 32596 20503 10271 20210 39983 40085 82030 333 10384 29056 55106 59013;
0156823920999992010102812004-03700-040350FM-12+008399999V0209999C000010042019N0500001N1+02721+02241101041ADDGF107991061061004501031001KA1240N+02561MA1999999100021MD1999999+0121REMSYN076AAXX  28124 82392 32499 70000 10272 20224 30002 40104 86630 333 20256 58012;
0156823920999992010102818004-03700-040350FM-12+008399999V0201401N001019999999N0500001N1+03441+01841100491ADDGF106991999021004501001001MA1999999099491MD1999999+0081REMSYN070AAXX  28184 82392 32499 61402 10344 20184 39949 40049 84200 333 58008;EQDQ01+000042SCOTLC
0178823920999992010102900004-03700-040350FM-12+008399999V0200501N003112200019N0040001N1+02681+02091100861ADDGA1001+999999999GF100991001001999999001001KA1240M+03641MA1999999099841MD1999999+0011REMSYN082AAXX  29004 82392 32996 00506 10268 20209 39984 40086 333 10364 29064 55052 58001;
0156823920999992010102912004-03700-040350FM-12+008399999V0203601N001010450019N0500001N1+02821+02021101121ADDGF108991031051004501031011KA1240N+02381MA1999999100101MD1999999+0081REMSYN076AAXX  29124 82392 32499 83602 10282 20202 30010 40112 83531 333 20238 58008;
0137823920999992010102918004-03700-040350FM-12+008399999V0200901N000510450019N0500001N1+03511+01831100561ADDGF105991041021004501031001MA1999999099561MD1999999+0071REMSYN070AAXX  29184 82392 32499 50901 10351 20183 39956 40056 84230 333 58007;
0178823920999992010103000004-03700-040350FM-12+008399999V0200501N003112200019N0040001N1+02721+02001100941ADDGA1001+999999999GF100991001001999999001001KA1240M+03701MA1999999099921MD1999999+0001REMSYN082AAXX  30004 82392 32996 00506 10272 20200 39992 40094 333 10370 29057 55069 58000;
0156823920999992010103012004-03700-040350FM-12+008399999V0203601N001010042019N0500001N1+02831+02091101131ADDGF106991051041004501031001KA1240N+02191MA1999999100121MD1999999+0021REMSYN076AAXX  30124 82392 32499 63602 10283 20209 30012 40113 85430 333 20219 58002;
0137823920999992010103018004-03700-040350FM-12+008399999V0200501N002610042019N0500001N1+03541+01801100571ADDGF106991051031004501001011MA1999999099571MD1999999+0011REMSYN070AAXX  30184 82392 32499 60505 10354 20180 39957 40057 85301 333 58001;
0178823920999992010103100004-03700-040350FM-12+008399999V0203601N001512200019N0040001N1+02691+02081101071ADDGA1001+999999999GF100991001001999999001001KA1240M+02721MA1999999100051MD1999999+0131REMSYN082AAXX  31004 82392 32996 03603 10269 20208 30005 40107 333 10272 29060 55088 58013;
0156823920999992010103112004-03700-040350FM-12+008399999V0200501N004612200019N0500001N1+02921+01981101141ADDGF102991021011004501001001KA1240N+02121MA1999999100121MD1999999+0001REMSYN076AAXX  31124 82392 32499 20509 10292 20198 30012 40114 82100 333 20212 58000;
0137823920999992010103118004-03700-040350FM-12+008399999V0200901N004112200019N0500001N1+03721+01391100571ADDGF102991011011004501001011MA1999999099571MD1999999+0001REMSYN070AAXX  31184 82392 32499 20908 10372 20139 39957 40057 81101 333 58000;
0178823920999992010110100004-03700-040350FM-12+008399999V0203601N003112200019N0040001N1+02741+01951101021ADDGA1001+999999999GF100991001001999999001001KA1240M+03781MA1999999100001MD1999999-0051REMSYN082AAXX  01004 82392 32996 03606 10274 20195 30000 40102 333 10378 29052 55111 59005;
0156823920999992010110112004-03700-040350FM-12+008399999V0200901N005112200019N0500001N1+03061+01871101291ADDGF104991041021004501001001KA1240N+02121MA1999999100281MD1999999+0161REMSYN076AAXX  01124 82392 32499 40910 10306 20187 30028 40129 84200 333 20212 58016;
0137823920999992010110118004-03700-040350FM-12+008399999V0201401N001512200019N0500001N1+03601+01411100681ADDGF102991021011004501001001MA1999999099671MD1999999+0101REMSYN070AAXX  01184 82392 32499 21403 10360 20141 39967 40068 82100 333 58010;
0178823920999992010110200004-03700-040350FM-12+008399999V0203601N002112200019N0040001N1+02811+02051100951ADDGA1001+999999999GF100991001001999999001001KA1240M+03761MA1999999099941MD1999999-0061REMSYN082AAXX  02004 82392 32496 03604 10281 20205 39994 40095 333 10376 29051 55114 59006;
0156823920999992010110212004-03700-040350FM-12+008399999V0200501N002112200019N0500001N1+03081+01851101111ADDGF102991021011004501001001KA1240N+02491MA1999999100101MD1999999-0181REMSYN076AAXX  02124 82392 32499 20504 10308 20185 30010 40111 82100 333 20249 59018;
0137823920999992010110218004-03700-040350FM-12+008399999V0200501N002112200019N0500001N1+03701+01491100441ADDGF104991041021004501001001MA1999999099441MD1999999-0231REMSYN070AAXX  02184 82392 32499 40504 10370 20149 39944 40044 84200 333 59023;
0178823920999992010110300004-03700-040350FM-12+008399999V0203601N004112200019N0040001N1+02691+01961100871ADDGA1001+999999999GF100991001001999999001001KA1240M+03821MA1999999099861MD1999999-0081REMSYN082AAXX  03004 82392 32996 03608 10269 20196 39986 40087 333 10382 29051 55109 59008;
0156823920999992010110312004-03700-040350FM-12+008399999V0200501N002112200019N0500001N1+02901+01891101081ADDGF102991021011004501001001KA1240N+02301MA1999999100061MD1999999-0041REMSYN076AAXX  03124 82392 32499 20504 10290 20189 30006 40108 82100 333 20230 59004;
0156823920999992010110318004-03700-040350FM-12+008399999V0200501N004119999999N0500001N1+03681+01741100451ADDGF105991999021004501001001MA1999999099451MD1999999+0011REMSYN070AAXX  03184 82392 32499 50508 10368 20174 39945 40045 84200 333 58001;EQDQ01+000042SCOTLC
0168823920999992010110400004-03700-040350FM-12+008399999V0203601N002112200019N0040001N1+02641+02071100981ADDGF101991011011004501001001KA1240M+03761MA1999999099961MD1999999+0101REMSYN088AAXX  04004 82392 32496 13604 10264 20207 39996 40098 81100 333 10376 29057 55104 58010;
0156823920999992010110412004-03700-040350FM-12+008399999V0200901N002110042019N0500001N1+02931+01971101061ADDGF106991061021004501001001KA1240N+02441MA1999999100041MD1999999-0021REMSYN076AAXX  04124 82392 32499 60904 10293 20197 30004 40106 86200 333 20244 59002;
0137823920999992010110418004-03700-040350FM-12+008399999V0200901N003112200019N0500001N1+03711+01561100471ADDGF105991041021004501001011MA1999999099461MD1999999+0011REMSYN070AAXX  04184 82392 32499 50906 10371 20156 39946 40047 84201 333 58001;
0178823920999992010110500004-03700-040350FM-12+008399999V0200501N005112200019N0040001N1+02681+02111100981ADDGA1001+999999999GF100991001001999999001001KA1240M+03811MA1999999099961MD1999999+0001REMSYN082AAXX  05004 82392 32996 00510 10268 20211 39996 40098 333 10381 29056 55090 58000;
0156823920999992010110512004-03700-040350FM-12+008399999V0200901N005112200019N0500001N1+03081+01951101191ADDGF103991031021004501001001KA1240N+02211MA1999999100181MD1999999+0141REMSYN076AAXX  05124 82392 32499 30910 10308 20195 30018 40119 83200 333 20221 58014;
0137823920999992010110518004-03700-040350FM-12+008399999V0200901N002112200019N0500001N1+03661+01771100631ADDGF104991041021004501001001MA1999999099631MD1999999+0171REMSYN070AAXX  05184 82392 32499 40904 10366 20177 39963 40063 84200 333 58017;
0178823920999992010110600004-03700-040350FM-12+008399999V0200501N005112200019N0040001N1+02821+01971101011ADDGA1001+999999999GF100991001001999999001001KA1240M+03771MA1999999100001MD1999999+0041REMSYN082AAXX  06004 82392 32996 00510 10282 20197 30000 40101 333 10377 29051 55101 58004;
0156823920999992010110612004-03700-040350FM-12+008399999V0200901N004612200019N0500001N1+03001+02081101141ADDGF104991041021004501001001KA1240N+02391MA1999999100131MD1999999-0051REMSYN076AAXX  06124 82392 32499 40909 10300 20208 30013 40114 84200 333 20239 59005;
0137823920999992010110618004-03700-040350FM-12+008399999V0200501N005112200019N0500001N1+03761+01461100601ADDGF102991021011004501001001MA1999999099601MD1999999-0031REMSYN070AAXX  06184 82392 32499 20510 10376 20146 39960 40060 82100 333 59003;
0178823920999992010110700004-03700-040350FM-12+008399999V0200501N005112200019N0040001N1+02741+02021100911ADDGA1001+999999999GF100991001001999999001001KA1240M+03861MA1999999099901MD1999999-0101REMSYN082AAXX  07004 82392 32996 00510 10274 20202 39990 40091 333 10386 29054 55100 59010;
0156823920999992010110712004-03700-040350FM-12+008399999V0200901N001510042019N0500001N1+03131+02001101031ADDGF105991051021004501001001KA1240N+02251MA1999999100021MD1999999-0111REMSYN076AAXX  07124 82392 32499 50903 10313 20200 30002 40103 85200 333 20225 59011;
0137823920999992010110718004-03700-040350FM-12+008399999V0200901N001510042019N0500001N1+03631+01751100551ADDGF106991051021004501011001MA1999999099951MD1999999-0051REMSYN070AAXX  07184 82392 32499 60903 10363 20175 39995 40055 85210 333 59005;
0178823920999992010110800004-03700-040350FM-12+008399999V0203601N001512200019N0040001N1+02771+02161100941ADDGA1001+999999999GF100991001001999999001001KA1240M+03781MA1999999099931MD1999999+0031REMSYN082AAXX  08004 82392 32996 03603 10277 20216 39993 40094 333 10378 29056 55094 58003;
0156823920999992010110812004-03700-040350FM-12+008399999V0200501N004612200019N0500001N1+03041+02031101001ADDGF104991031021004501001011KA1240N+02361MA1999999099991MD1999999-0031REMSYN076AAXX  08124 82392 32499 40509 10304 20203 39999 40100 83201 333 20236 59003;
0137823920999992010110818004-03700-040350FM-12+008399999V0201401N004112200019N0500001N1+03781+01501100441ADDGF103991031011004501001001MA1999999099441MD1999999-0111REMSYN070AAXX  08184 82392 32499 31408 10378 20150 39944 40044 83100 333 59011;
0178823920999992010110900004-03700-040350FM-12+008399999V0200501N001012200019N0040001N1+02771+02111100761ADDGA1001+999999999GF100991001001999999001001KA1240M+03881MA1999999099751MD1999999-0181REMSYN082AAXX  09004 82392 32996 00502 10277 20211 39975 40076 333 10388 29054 55110 59018;
0156823920999992010110912004-03700-040350FM-12+008399999V0200501N004612200019N0500001N1+03141+01771100851ADDGF101991011011004501001001KA1240N+02131MA1999999099841MD1999999-0151REMSYN076AAXX  09124 82392 32499 10509 10314 20177 39984 40085 81100 333 20213 59015;
0137823920999992010110918004-03700-040350FM-12+008399999V0201801N002612200019N0500001N1+03791+01191100251ADDGF102991021021004501001001MA1999999099251MD1999999-0191REMSYN070AAXX  09184 82392 32499 21805 10379 20119 39925 40025 82200 333 59019;
0178823920999992010111000004-03700-040350FM-12+008399999V0203601N001512200019N0040001N1+02761+01891100761ADDGA1001+999999999GF100991001001999999001001KA1240M+03861MA1999999099751MD1999999+0001REMSYN082AAXX  10004 82392 32996 03603 10276 20189 39975 40076 333 10386 29046 55112 58000;
0156823920999992010111012004-03700-040350FM-12+008399999V0200901N004612200019N0500001N1+03111+01601101001ADDGF101991011011004501001001KA1240N+02201MA1999999099991MD1999999+0151REMSYN076AAXX  10124 82392 32499 10909 10311 20160 39999 40100 81100 333 20220 58015;
0137823920999992010111018004-03700-040350FM-12+008399999V0200501N001010450019N0500001N1+03661+01671100521ADDGF105991041021004501031001MA1999999099521MD1999999-0271REMSYN070AAXX  10184 82392 32499 50502 10366 20167 39952 40052 84230 333 59027;
0178823920999992010111100004-03700-040350FM-12+008399999V0200501N001512200019N0040001N1+02731+02001100971ADDGA1001+999999999GF100991001001999999001001KA1240M+03781MA1999999099961MD1999999+0211REMSYN082AAXX  11004 82392 32996 00503 10273 20200 39996 40097 333 10378 29050 55104 58021;
0156823920999992010111112004-03700-040350FM-12+008399999V0200901N001010042019N0500001N1+03071+02011101121ADDGF106991061021004501001001KA1240N+02181MA1999999100111MD1999999+0151REMSYN076AAXX  11124 82392 32499 60902 10307 20201 30011 40112 86200 333 20218 58015;
0137823920999992010111118004-03700-040350FM-12+008399999V0200901N001010042019N0500001N1+03611+01641100641ADDGF105991051021004501001001MA1999999099641MD1999999+0121REMSYN070AAXX  11184 82392 32499 50902 10361 20164 39964 40064 85200 333 58012;
0178823920999992010111200004-03700-040350FM-12+008399999V0200501N005112200019N0040001N1+02741+02171100991ADDGA1001+999999999GF100991001001999999001001KA1240M+03741MA1999999099981MD1999999+0021REMSYN082AAXX  12004 82392 32996 00510 10274 20217 39998 40099 333 10374 29056 55102 58002;
0156823920999992010111212004-03700-040350FM-12+008399999V0200901N004110450019N0500001N1+03061+02081101131ADDGF105991031051004501031001KA1240N+02201MA1999999100121MD1999999+0011REMSYN076AAXX  12124 82392 32499 50908 10306 20208 30012 40113 83530 333 20220 58001;
0137823920999992010111218004-03700-040350FM-12+008399999V0200501N002612200019N0500001N1+03791+01391100531ADDGF104991041021004501001001MA1999999099531MD1999999-0111REMSYN070AAXX  12184 82392 32499 40505 10379 20139 39953 40053 84200 333 59011;
0178823920999992010111300004-03700-040350FM-12+008399999V0200501N005112200019N0040001N1+02821+02021100911ADDGA1001+999999999GF100991001001999999001001KA1240M+03881MA1999999099901MD1999999-0081REMSYN082AAXX  13004 82392 32496 00510 10282 20202 39990 40091 333 10388 29051 55110 59008;
0156823920999992010111312004-03700-040350FM-12+008399999V0201401N001510042019N0500001N1+03101+02031101091ADDGF106991061021004501001001KA1240N+02291MA1999999100081MD1999999-0041REMSYN076AAXX  13124 82392 32499 61403 10310 20203 30008 40109 86200 333 20229 59004;
0137823920999992010111318004-03700-040350FM-12+008399999V0200901N001512200019N0500001N1+03811+01471100451ADDGF104991041011004501001001MA1999999099451MD1999999-0081REMSYN070AAXX  13184 82392 32499 40903 10381 20147 39945 40045 84100 333 59008;
0168823920999992010111400004-03700-040350FM-12+008399999V0203601N002112200019N0040001N1+02801+01781100831ADDGF103991031001008001011001KA1240M+03891MA1999999099821MD1999999-0081REMSYN088AAXX  14004 82392 32596 33604 10280 20178 39982 40083 83010 333 10389 29047 55110 59008;
0156823920999992010111412004-03700-040350FM-12+008399999V0200901N004112200019N0500001N1+03041+01941100951ADDGF103991021011004501001011KA1240N+02291MA1999999099941MD1999999-0141REMSYN076AAXX  14124 82392 32499 30908 10304 20194 39994 40095 82101 333 20229 59014;
0137823920999992010111418004-03700-040350FM-12+008399999V0200501N004612200019N0500001N1+03641+01651100511ADDGF104991041021004501001001MA1999999099511MD1999999+0061REMSYN070AAXX  14184 82392 32499 40509 10364 20165 39951 40051 84200 333 58006;
0168823920999992010111500004-03700-040350FM-12+008399999V0200501N005110450019N0040001N1+02841+02041100861ADDGF105991031021004501031001KA1240M+03781MA1999999099851MD1999999+0031REMSYN088AAXX  15004 82392 32496 50510 10284 20204 39985 40086 83230 333 10378 29052 55087 58003;
0156823920999992010111512004-03700-040350FM-12+008399999V0200901N002110450019N0500001N1+02981+02061101091ADDGF106991041021004501031001KA1240N+02491MA1999999100081MD1999999+0141REMSYN076AAXX  15124 82392 32499 60904 10298 20206 30008 40109 84230 333 20249 58014;
0137823920999992010111518004-03700-040350FM-12+008399999V0201401N002112200019N0500001N1+03641+01751100571ADDGF104991041021004501001001MA1999999099571MD1999999+0061REMSYN070AAXX  15184 82392 32499 41404 10364 20175 39957 40057 84200 333 58006;
0168823920999992010111600004-03700-040350FM-12+008399999V0203601N002112200019N0040001N1+03681+02161101061ADDGF103991031001008001031001KA1240M+03701MA1999999100041MD1999999+0191REMSYN088AAXX  16004 82392 32596 33604 10368 20216 30004 40106 83030 333 10370 29059 55084 58019;
0156823920999992010111612004-03700-040350FM-12+008399999V0200901N004610042019N0500001N1+02991+02051101161ADDGF105991051021004501001001KA1240N+02281MA1999999100141MD1999999+0061REMSYN076AAXX  16124 82392 32499 50909 10299 20205 30014 40116 85200 333 20228 58006;
0137823920999992010111618004-03700-040350FM-12+008399999V0201801N001010042019N0500001N1+03511+01741100661ADDGF105991051021004501001001MA1999999099651MD1999999+0081REMSYN070AAXX  16184 82392 32499 51802 10351 20174 39965 40066 85200 333 58008;
0168823920999992010111700004-03700-040350FM-12+008399999V0203601N003112200019N0040001N1+02671+02181100961ADDGF101991011001008001031001KA1240M+03671MA1999999099941MD1999999-0101REMSYN088AAXX  17004 82392 32596 13606 10267 20218 39994 40096 81030 333 10367 29060 55073 59010;
0156823920999992010111712004-03700-040350FM-12+008399999V0200501N001010042019N0500001N1+02891+02101101161ADDGF106991051021004501031001KA1240N+02251MA1999999100141MD1999999+0001REMSYN076AAXX  17124 82392 32499 60502 10289 20210 30014 40116 85230 333 20225 58000;
0137823920999992010111718004-03700-040350FM-12+008399999V0200901N004110450019N0500001N1+03521+01701100531ADDGF105991041021004501031001MA1999999099531MD1999999-0121REMSYN070AAXX  17184 82392 32499 50908 10352 20170 39953 40053 84230 333 59012;
0168823920999992010111800004-03700-040350FM-12+008399999V0200501N005112200019N0040001N1+02651+02201100801ADDGF101991011001004501031001KA1240M+03661MA1999999099781MD1999999-0161REMSYN088AAXX  18004 82392 32496 10510 10265 20220 39978 40080 81030 333 10366 29062 55089 59016;
0156823920999992010111812004-03700-040350FM-12+008399999V0200901N002610450019N0500001N1+02931+02001101081ADDGF107991041021004501011001KA1240N+02191MA1999999100061MD1999999-0081REMSYN076AAXX  18124 82392 32499 70905 10293 20200 30006 40108 84210 333 20219 59008;
0137823920999992010111818004-03700-040350FM-12+008399999V0201401N000510450019N0500001N1+03571+01601100311ADDGF106991021021004501031081MA1999999099311MD1999999-0221REMSYN070AAXX  18184 82392 32499 61401 10357 20160 39931 40031 82238 333 59022;
0178823920999992010111900004-03700-040350FM-12+008399999V0200501N005112200019N0040001N1+02711+01931100721ADDGA1001+999999999GF100991001001999999001001KA1240M+03781MA1999999099701MD1999999-0081REMSYN082AAXX  19004 82392 32996 00510 10271 20193 39970 40072 333 10378 29053 55095 59008;
0156823920999992010111912004-03700-040350FM-12+008399999V0201401N001012200019N0500001N1+03001+02001100961ADDGF104991041021004501001001KA1240N+02481MA1999999099951MD1999999-0111REMSYN076AAXX  19124 82392 32499 41402 10300 20200 39995 40096 84200 333 20248 59011;
0137823920999992010111918004-03700-040350FM-12+008399999V0201401N000512200019N0500001N1+03731+01741100401ADDGF103991021021004501011001MA1999999099401MD1999999+0091REMSYN070AAXX  19184 82392 32499 31401 10373 20174 39940 40040 82210 333 58009;
0178823920999992010112000004-03700-040350FM-12+008399999V0200501N005112200019N0040001N1+02801+02281100841ADDGA1001+999999999GF100991001001999999001001KA1240M+03801MA1999999099831MD1999999+0131REMSYN082AAXX  20004 82392 32996 00510 10280 20228 39983 40084 333 10380 29054 55095 58013;
0156823920999992010112012004-03700-040350FM-12+008399999V0200501N003110042019N0500001N1+02921+02071101171ADDGF106991051021004501031001KA1240N+02501MA1999999100161MD1999999+0211REMSYN076AAXX  20124 82392 32499 60506 10292 20207 30016 40117 85230 333 20250 58021;
0137823920999992010112018004-03700-040350FM-12+008399999V0201401N001012200019N0500001N1+03441+01841100751ADDGF104991031021004501031001MA1999999099741MD1999999+0341REMSYN070AAXX  20184 82392 32499 41402 10344 20184 39974 40075 83230 333 58034;
0178823920999992010112100004-03700-040350FM-12+008399999V0200501N005712200019N0040001N1+02781+02081100901ADDGA1001+999999999GF100991001001999999001001KA1240M+03581MA1999999099881MD1999999+0051REMSYN082AAXX  21004 82392 32996 00511 10278 20208 39988 40090 333 10358 29059 55049 58005;
0156823920999992010112112004-03700-040350FM-12+008399999V0200901N004112200019N0500001N1+03031+01781101101ADDGF103991021011004501011001KA1240N+02331MA1999999100091MD1999999-0071REMSYN076AAXX  21124 82392 32499 30908 10303 20178 30009 40110 82110 333 20233 59007;
0137823920999992010112118004-03700-040350FM-12+008399999V0200501N002112200019N0500001N1+03691+01431100501ADDGF104991041021004501001001MA1999999099501MD1999999-0241REMSYN070AAXX  21184 82392 32499 40504 10369 20143 39950 40050 84200 333 59024;
0168823920999992010112200004-03700-040350FM-12+008399999V0203601N002612200019N0040001N1+02691+01961100811ADDGF101991011001008001031001KA1240M+03841MA1999999099801MD1999999-0081REMSYN088AAXX  22004 82392 32596 13605 10269 20196 39980 40081 81030 333 10384 29050 55107 59008;
0156823920999992010112212004-03700-040350FM-12+008399999V0200901N003112200019N0500001N1+02901+01961100961ADDGF103991031021004501001001KA1240N+02201MA1999999099941MD1999999-0151REMSYN076AAXX  22124 82392 32499 30906 10290 20196 39994 40096 83200 333 20220 59015;
0137823920999992010112218004-03700-040350FM-12+008399999V0200501N003112200019N0500001N1+03601+01571100321ADDGF104991041021004501001001MA1999999099321MD1999999-0181REMSYN070AAXX  22184 82392 32499 40506 10360 20157 39932 40032 84200 333 59018;
0168823920999992010112300004-03700-040350FM-12+008399999V0200501N003112200019N0040001N1+02671+02131100671ADDGF102991021001008001031001KA1240M+03741MA1999999099651MD1999999-0151REMSYN088AAXX  23004 82392 32596 20506 10267 20213 39965 40067 82030 333 10374 29058 55090 59015;
0156823920999992010112312004-03700-040350FM-12+008399999V0200901N004110450019N0500001N1+02881+01941100801ADDGF106991041041004501031001KA1240N+02201MA1999999099781MD1999999-0161REMSYN076AAXX  23124 82392 32499 60908 10288 20194 39978 40080 84430 333 20220 59016;
0137823920999992010112318004-03700-040350FM-12+008399999V0200501N003110450019N0500001N1+03481+01711100281ADDGF106991041021004501031001MA1999999099281MD1999999-0041REMSYN070AAXX  23184 82392 32499 60506 10348 20171 39928 40028 84230 333 59004;
0178823920999992010112400004-03700-040350FM-12+008399999V0203601N002612200019N0040001N1+02691+02031100661ADDGA1001+999999999GF100991001001999999001001KA1240M+03631MA1999999099601MD1999999-0051REMSYN082AAXX  24004 82392 32996 03605 10269 20203 39960 40066 333 10363 29057 55088 59005;
0156823920999992010112412004-03700-040350FM-12+008399999V0200501N004610450019N0500001N1+02961+02071100901ADDGF106991041041004501031001KA1240N+02381MA1999999099881MD1999999+0101REMSYN076AAXX  24124 82392 32499 60509 10296 20207 39988 40090 84430 333 20238 58010;
0137823920999992010112418004-03700-040350FM-12+008399999V0200501N005712200019N0500001N1+03541+01931100381ADDGF104991031011004501031001MA1999999099381MD1999999+0101REMSYN070AAXX  24184 82392 32499 40511 10354 20193 39938 40038 83130 333 58010;
0178823920999992010112500004-03700-040350FM-12+008399999V0203601N002612200019N0040001N1+02681+02181100781ADDGA1001+999999999GF100991001001999999001001KA1240M+03661MA1999999099761MD1999999+0161REMSYN082AAXX  25004 82392 32996 03605 10268 20218 39976 40078 333 10366 29062 55067 58016;
0156823920999992010112512004-03700-040350FM-12+008399999V0200901N002110042019N0500001N1+03081+01881100991ADDGF106991061021004501001001KA1240N+02281MA1999999099981MD1999999+0101REMSYN076AAXX  25124 82392 32499 60904 10308 20188 39998 40099 86200 333 20228 58010;
0137823920999992010112518004-03700-040350FM-12+008399999V0200501N002110042019N0500001N1+03601+01621100471ADDGF106991051021004501011001MA1999999099471MD1999999+0091REMSYN070AAXX  25184 82392 32499 60504 10360 20162 39947 40047 85210 333 58009;
0178823920999992010112600004-03700-040350FM-12+008399999V0200501N005112200019N0040001N1+02751+02021100841ADDGA1001+999999999GF100991001001999999001001KA1240M+03721MA1999999099831MD1999999+0071REMSYN082AAXX  26004 82392 32996 00510 10275 20202 39983 40084 333 10372 29052 55092 58007;
0156823920999992010112612004-03700-040350FM-12+008399999V0200901N004110450019N0500001N1+02921+01921100971ADDGF105991041021004501031001KA1240N+02191MA1999999099951MD1999999-0031REMSYN076AAXX  26124 82392 32499 50908 10292 20192 39995 40097 84230 333 20219 59003;
0137823920999992010112618004-03700-040350FM-12+008399999V0200501N003110042019N0500001N1+03611+01741100411ADDGF105991051021004501001001MA1999999099411MD1999999-0041REMSYN070AAXX  26184 82392 32499 50506 10361 20174 39941 40041 85200 333 59004;
0178823920999992010112700004-03700-040350FM-12+008399999V0200501N005712200019N0040001N1+02721+01931100761ADDGA1001+999999999GF100991001001999999001001KA1240M+03781MA1999999099701MD1999999-0131REMSYN082AAXX  27004 82392 32996 00511 10272 20193 39970 40076 333 10378 29053 55103 59013;
0156823920999992010112712004-03700-040350FM-12+008399999V0200901N001510042019N0500001N1+02991+02111100951ADDGF106991051041004501031001KA1240N+02231MA1999999099941MD1999999-0011REMSYN076AAXX  27124 82392 32499 60903 10299 20211 39994 40095 85430 333 20223 59001;
0137823920999992010112718004-03700-040350FM-12+008399999V0200901N000512200019N0500001N1+03731+01741100351ADDGF104991041021004501001001MA1999999099351MD1999999-0061REMSYN070AAXX  27184 82392 32499 40901 10373 20174 39935 40035 84200 333 59006;
0178823920999992010112800004-03700-040350FM-12+008399999V0203601N002612200019N0040001N1+02731+02121100681ADDGA1001+999999999GF100991001001999999001001KA1240M+03791MA1999999099671MD1999999-0031REMSYN082AAXX  28004 82392 32996 03605 10273 20212 39967 40068 333 10379 29057 55091 59003;
0156823920999992010112812004-03700-040350FM-12+008399999V0200501N001510042019N0500001N1+02861+02091100981ADDGF107991051051004501031001KA1240N+02411MA1999999099961MD1999999+0021REMSYN076AAXX  28124 82392 32499 70503 10286 20209 39996 40098 85530 333 20241 58002;
0137823920999992010112818004-03700-040350FM-12+008399999V0200501N004610042019N0500001N1+03541+01971100501ADDGF106991051051004501031001MA1999999099501MD1999999+0151REMSYN070AAXX  28184 82392 32499 60509 10354 20197 39950 40050 85530 333 58015;
0178823920999992010112900004-03700-040350FM-12+008399999V0200501N004112200019N0040001N1+02761+02041100851ADDGA1001+999999999GF100991001001999999001001KA1240M+03741MA1999999099831MD1999999+0161REMSYN082AAXX  29004 82392 32996 00508 10276 20204 39983 40085 333 10374 29058 55072 58016;
0156823920999992010112912004-03700-040350FM-12+008399999V0201401N002112200019N0500001N1+02961+01961101061ADDGF104991031011004501031001KA1240N+02401MA1999999100051MD1999999+0091REMSYN076AAXX  29124 82392 32499 41404 10296 20196 30005 40106 83130 333 20240 58009;
0137823920999992010112918004-03700-040350FM-12+008399999V0200901N004612200019N0500001N1+03721+01621100521ADDGF104991041021004501001001MA1999999099521MD1999999+0021REMSYN070AAXX  29184 82392 32499 40909 10372 20162 39952 40052 84200 333 58002;
0178823920999992010113000004-03700-040350FM-12+008399999V0200501N003112200019N0040001N1+02751+02141100881ADDGA1001+999999999GF100991001001999999001001KA1240M+03761MA1999999099871MD1999999+0041REMSYN082AAXX  30004 82392 32996 00506 10275 20214 39987 40088 333 10376 29056 55085 58004;
0156823920999992010113012004-03700-040350FM-12+008399999V0200501N003110450019N0500001N1+02981+01981100931ADDGF105991031021004501031001KA1240N+02301MA1999999099921MD1999999-0131REMSYN076AAXX  30124 82392 32499 50506 10298 20198 39992 40093 83230 333 20230 59013;
0137823920999992010113018004-03700-040350FM-12+008399999V0200901N001512200019N0500001N1+03591+01671100481ADDGF104991041021008001001001MA1999999099481MD1999999-0041REMSYN070AAXX  30184 82392 32599 40903 10359 20167 39948 40048 84200 333 59004;
0178823920999992010120100004-03700-040350FM-12+008399999V0203601N003112200019N0040001N1+02661+02001100831ADDGA1001+999999999GF100991001001999999001001KA1240M+03711MA1999999099811MD1999999-0061REMSYN082AAXX  01004 82392 32996 03606 10266 20200 39981 40083 333 10371 29055 55093 59006;
0156823920999992010120112004-03700-040350FM-12+008399999V0200901N004612200019N0500001N1+03121+01791100931ADDGF101991011011004501001001KA1240N+02291MA1999999099921MD1999999+0001REMSYN076AAXX  01124 82392 32499 10909 10312 20179 39992 40093 81100 333 20229 58000;
0178823920999992010120200004-03700-040350FM-12+008399999V0203601N002112200019N0040001N1+02751+02141100811ADDGA1001+999999999GF100991001001999999001001KA1240M+03761MA1999999099801MD1999999-0011REMSYN082AAXX  02004 82392 32996 03604 10275 20214 39980 40081 333 10376 29061 55107 59001;
0156823920999992010120212004-03700-040350FM-12+008399999V0200901N002110450019N0500001N1+03111+01951100981ADDGF105991041021004501031001KA1240N+02241MA1999999099971MD1999999+0051REMSYN076AAXX  02124 82392 32499 50904 10311 20195 39997 40098 84230 333 20224 58005;
0178823920999992010120300004-03700-040350FM-12+008399999V0203601N002612200019N0040001N1+02841+01961100871ADDGA1001+999999999GF100991001001999999001001KA1240M+03521MA1999999099861MD1999999+0061REMSYN082AAXX  03004 82392 32996 03605 10284 20196 39986 40087 333 10352 29056 55060 58006;
0156823920999992010120312004-03700-040350FM-12+008399999V0200901N004612200019N0500001N1+03161+01961100911ADDGF103991021011004501001011KA1240N+02491MA1999999099901MD1999999-0071REMSYN076AAXX  03124 82392 32499 30909 10316 20196 39990 40091 82101 333 20249 59007;
0178823920999992010120400004-03700-040350FM-12+008399999V0200501N005112200019N0040001N1+02801+01951100831ADDGA1001+999999999GF100991001001999999001001KA1240M+03781MA1999999099821MD1999999-0041REMSYN082AAXX  04004 82392 32996 00510 10280 20195 39982 40083 333 10378 29056 55083 59004;
0156823920999992010120412004-03700-040350FM-12+008399999V0200901N004112200019N0500001N1+03001+02081101011ADDGF104991041021004501001001KA1240N+02301MA1999999100001MD1999999+0101REMSYN076AAXX  04124 82392 32499 40908 10300 20208 30000 40101 84200 333 20230 58010;
0178823920999992010120500004-03700-040350FM-12+008399999V0200501N005112200019N0040001N1+02781+02061100851ADDGA1001+999999999GF100991001001999999001001KA1240M+03761MA1999999099841MD1999999+0021REMSYN082AAXX  05004 82392 32996 00510 10278 20206 39984 40085 333 10376 29063 55092 58002;
0156823920999992010120512004-03700-040350FM-12+008399999V0203601N001010450019N0500001N1+02781+02161101101ADDGF107991041051004501011001KA1240N+02321MA1999999100081MD1999999+0081REMSYN076AAXX  05124 82392 32499 73602 10278 20216 30008 40110 84510 333 20232 58008;
0178823920999992010120600004-03700-040350FM-12+008399999V0200501N005112200019N0040001N1+02741+02141100921ADDGA1001+999999999GF100991001001999999001001KA1240M+03681MA1999999099901MD1999999+0061REMSYN082AAXX  06004 82392 32996 00510 10274 20214 39990 40092 333 10368 29052 55066 58006;
0156823920999992010120612004-03700-040350FM-12+008399999V0201401N001010450019N0500001N1+02901+02071101141ADDGF105991041021004501031001KA1240N+02311MA1999999100121MD1999999+0041REMSYN076AAXX  06124 82392 32499 51402 10290 20207 30012 40114 84230 333 20231 58004;
0168823920999992010120700004-03700-040350FM-12+008399999V0200501N004612200019N0040001N1+02741+02171100941ADDGF101991011001008001031001KA1240M+03681MA1999999099921MD1999999+0021REMSYN088AAXX  07004 82392 32596 10509 10274 20217 39992 40094 81030 333 10368 29068 55089 58002;
0156823920999992010120712004-03700-040350FM-12+008399999V0203601N002112200019N0500001N1+02961+01961101011ADDGF102991021011004501001001KA1240N+02381MA1999999100001MD1999999-0121REMSYN076AAXX  07124 82392 32499 23604 10296 20196 30000 40101 82100 333 20238 59012;
0178823920999992010120800004-03700-040350FM-12+008399999V0200501N005112200019N0040001N1+02701+02171100811ADDGA1001+999999999GF100991001001999999001001KA1240M+03701MA1999999099801MD1999999-0121REMSYN082AAXX  08004 82392 32996 00510 10270 20217 39980 40081 333 10370 29066 55094 59012;
0156823920999992010120812004-03700-040350FM-12+008399999V0203601N001510450019N0500001N1+02901+02071101001ADDGF105991041021004501031001KA1240N+02301MA1999999099981MD1999999-0021REMSYN076AAXX  08124 82392 32499 53603 10290 20207 39998 40100 84230 333 20230 59002;
0178823920999992010120900004-03700-040350FM-12+008399999V0203601N005112200019N0040001N1+02681+02161100821ADDGA1001+999999999GF100991001001999999001001KA1240M+03581MA1999999099801MD1999999+0001REMSYN082AAXX  09004 82392 32996 03610 10268 20216 39980 40082 333 10358 29069 55084 58000;
0156823920999992010120912004-03700-040350FM-12+008399999V0200501N005112200019N0500001N1+02861+02031100921ADDGF104991031021004501031001KA1240N+02221MA1999999099901MD1999999-0081REMSYN076AAXX  09124 82392 32499 40510 10286 20203 39990 40092 83230 333 20222 59008;
0168823920999992010121000004-03700-040350FM-12+008399999V0203601N005110450019N0040001N1+02701+02121100851ADDGF105991031041004501031001KA1240M+03521MA1999999099831MD1999999+0031REMSYN088AAXX  10004 82392 32496 53610 10270 20212 39983 40085 83430 333 10352 29067 55068 58003;
0156823920999992010121012004-03700-040350FM-12+008399999V0203601N002112200019N0500001N1+02901+02041100971ADDGF102991021011004501001001KA1240N+02391MA1999999099951MD1999999+0051REMSYN076AAXX  10124 82392 32499 23604 10290 20204 39995 40097 82100 333 20239 58005;
0168823920999992010121100004-03700-040350FM-12+008399999V0200501N005112200019N0040001N1+02761+02141100871ADDGF103991031001004501031001KA1240M+03741MA1999999099851MD1999999+0021REMSYN088AAXX  11004 82392 32496 30510 10276 20214 39985 40087 83030 333 10374 29066 55098 58002;
0156823920999992010121112004-03700-040350FM-12+008399999V0200501N004110042019N0500001N1+02901+02121100921ADDGF107991051051004501031001KA1240N+02401MA1999999099901MD1999999-0051REMSYN076AAXX  11124 82392 32499 70508 10290 20212 39990 40092 85530 333 20240 59005;
0168823920999992010121200004-03700-040350FM-12+008399999V0200501N004110450019N0040001N1+02721+02191100871ADDGF108991031051004501021999KA1240M+03581MA1999999099851MD1999999+0001REMSYN088AAXX  12004 82392 32496 80508 10272 20219 39985 40087 8352/ 333 10358 29070 55042 58000;
0156823920999992010121212004-03700-040350FM-12+008399999V0200501N003110450019N0500001N1+02921+02061100721ADDGF106991031021004501031001KA1240N+02411MA1999999099701MD1999999-0201REMSYN076AAXX  12124 82392 32499 60506 10292 20206 39970 40072 83230 333 20241 59020;
0213823920999992010121300004-03700-040350FM-12+008399999V0203201N000510450019N0040001N1+02401+02151100671ADDAA106015091AY161061AY221061GF108991041071004501021999KA1240M+03381MA1999999099651MD1999999-0201MW1511REMSYN100AAXX  13004 82392 21496 83201 10240 20215 39965 40067 75162 8472/ 333 10338 29077 55022 59020 60151;
0201823920999992010121312004-03700-040350FM-12+008399999V0202701N000510450019N0500001N1+02551+02471100731ADDAA124018091AY161061AY261061GF108991031071004501021999KA1240N+02301MA1999999099701MD1999999+0001MW1021REMSYN088AAXX  13124 82392 21499 82701 10255 20247 39970 40073 70266 8372/ 333 20230 58000 60184;
0213823920999992010121400004-03700-040350FM-12+008399999V0200501N001010450019N0040001N1+02421+02281100661ADDAA106001091AY151061AY251061GF108991041061004501021999KA1240M+03141MA1999999099641MD1999999-0011MW1021REMSYN100AAXX  14004 82392 21496 80502 10242 20228 39964 40066 70255 8462/ 333 10314 29093 55011 59001 60011;
0173823920999992010121412004-03700-040350FM-12+008399999V0201801N001010450019N0500001N1+02781+02251100721ADDAA124001091GF106991041041004501031001KA1240N+02321MA1999999099701MD1999999+0001REMSYN082AAXX  14124 82392 22499 61802 10278 20225 39970 40072 84430 333 20232 58000 60014;
0168823920999992010121500004-03700-040350FM-12+008399999V0203601N003110450019N0040001N1+02601+02331100631ADDGF108991041061004501021999KA1240M+03361MA1999999099621MD1999999-0021REMSYN088AAXX  15004 82392 32496 83606 10260 20233 39962 40063 8462/ 333 10336 29081 55029 59002;
0201823920999992010121512004-03700-040350FM-12+008399999V0203201N000510450019N0500001N1+02661+02371100971ADDAA124004191AY161061AY221061GF108991031051004501011999KA1240N+02281MA1999999099951MD1999999+0251MW1021REMSYN088AAXX  15124 82392 21499 83201 10266 20237 39995 40097 70262 8351/ 333 20228 58025 60044;
0232823920999992010121600004-03700-040350FM-12+008399999V0200501N003110450019N0040001N1+02601+02191100821ADDAA106000091AY151061AY221061GF108991031071004501021999KA1240M+03201MA1999999099801MD1999999+0181MW1021REMSYN100AAXX  16004 82392 21496 80506 10260 20219 39980 40082 70252 8372/ 333 10320 29080 55008 58018 69921;EQDQ01  00002PRCP06
0192823920999992010121612004-03700-040350FM-12+008399999V0200901N003112200019N0500001N1+02861+02091100971ADDAA124000091GF104991021011004501031001KA1240N+02201MA1999999099951MD1999999+0001REMSYN082AAXX  16124 82392 22499 40906 10286 20209 39995 40097 82130 333 20220 58000 69924;EQDQ01  00002PRCP24
0168823920999992010121700004-03700-040350FM-12+008399999V0200901N003110450019N0040001N1+02741+02061100921ADDGF106991031021004501031001KA1240M+03461MA1999999099901MD1999999+0101REMSYN088AAXX  17004 82392 32496 60906 10274 20206 39990 40092 83230 333 10346 29071 55048 58010;
0156823920999992010121712004-03700-040350FM-12+008399999V0200901N004110450019N0500001N1+02921+02061100881ADDGF105991041041004501031001KA1240N+02311MA1999999099861MD1999999-0091REMSYN076AAXX  17124 82392 32499 50908 10292 20206 39986 40088 84430 333 20231 59009;
0213823920999992010121800004-03700-040350FM-12+008399999V0202701N001010450019N0040001N1+02361+02151100791ADDAA106001091AY151061AY221061GF108991031071004501021999KA1240M+03501MA1999999099771MD1999999-0131MW1031REMSYN100AAXX  18004 82392 21496 82702 10236 20215 39977 40079 70352 8372/ 333 10350 29079 55073 59013 69991;
0201823920999992010121812004-03700-040350FM-12+008399999V0201801N001010450019N0500001N1+02561+02291100981ADDAA124002091AY151061AY251061GF107991041051004501031001KA1240N+02201MA1999999099951MD1999999+0091MW1021REMSYN088AAXX  18124 82392 21499 71802 10256 20229 39995 40098 70255 84530 333 20220 58009 60024;
0168823920999992010121900004-03700-040350FM-12+008399999V0202701N000510450019N0040001N1+02401+02111100691ADDGF108991041071004501021999KA1240M+03001MA1999999099661MD1999999-0011REMSYN088AAXX  19004 82392 32496 82701 10240 20211 39966 40069 8472/ 333 10300 29084 55009 59001;
0156823920999992010121912004-03700-040350FM-12+008399999V0202301N000510450019N0500001N1+02621+02121100931ADDGF106991031041004501031001KA1240N+02301MA1999999099901MD1999999-0051REMSYN076AAXX  19124 82392 32499 62301 10262 20212 39990 40093 83430 333 20230 59005;
0213823920999992010122000004-03700-040350FM-12+008399999V0200501N001010450019N0040001N1+02501+02211100961ADDAA106004191AY161061AY221061GF106991041051004501031001KA1240M+03441MA1999999099941MD1999999+0281MW1031REMSYN100AAXX  20004 82392 21496 60502 10250 20221 39994 40096 70362 84530 333 10344 29081 55054 58028 60041;
0173823920999992010122012004-03700-040350FM-12+008399999V0200501N004112200019N0500001N1+02861+02011101121ADDAA124004191GF103991031011004501001001KA1240N+02141MA1999999100101MD1999999+0101REMSYN082AAXX  20124 82392 22499 30508 10286 20201 30010 40112 83100 333 20214 58010 60044;
0178823920999992010122100004-03700-040350FM-12+008399999V0200501N003112200019N0040001N1+02761+02211101021ADDGA1001+999999999GF100991001001999999001001KA1240M+03541MA1999999100001MD1999999-0051REMSYN082AAXX  21004 82392 32996 00506 10276 20221 30000 40102 333 10354 29068 55087 59005;
0156823920999992010122112004-03700-040350FM-12+008399999V0200901N002110450019N0500001N1+02321+02121101081ADDGF105991031021004501031001KA1240N+02301MA1999999100061MD1999999-0041REMSYN076AAXX  21124 82392 32499 50904 10232 20212 30006 40108 83230 333 20230 59004;
0178823920999992010122200004-03700-040350FM-12+008399999V0200501N002112200019N0040001N1+02781+02131100911ADDGA1001+999999999GF100991001001999999001001KA1240M+03561MA1999999099901MD1999999-0101REMSYN082AAXX  22004 82392 32996 00504 10278 20213 39990 40091 333 10356 29066 55100 59010;
0156823920999992010122212004-03700-040350FM-12+008399999V0201401N002612200019N0500001N1+02941+02081101071ADDGF104991041021004501001001KA1240N+02281MA1999999100061MD1999999+0001REMSYN076AAXX  22124 82392 32499 41405 10294 20208 30006 40107 84200 333 20228 58000;
0168823920999992010122300004-03700-040350FM-12+008399999V0200501N003112200019N0040001N1+02941+02081100791ADDGF103991021011004501031001KA1240M+03601MA1999999099781MD1999999-0121REMSYN088AAXX  23004 82392 32496 30506 10294 20208 39978 40079 82130 333 10360 29060 55098 59012;
0156823920999992010122312004-03700-040350FM-12+008399999V0200501N004612200019N0500001N1+03021+01861100811ADDGF102991021011004501001001KA1240N+02321MA1999999099801MD1999999-0061REMSYN076AAXX  23124 82392 32499 20509 10302 20186 39980 40081 82100 333 20232 59006;
0168823920999992010122400004-03700-040350FM-12+008399999V0203601N003112200019N0040001N1+02721+02081100851ADDGF102991021001004501031001KA1240M+03621MA1999999099841MD1999999+0061REMSYN088AAXX  24004 82392 32496 23606 10272 20208 39984 40085 82030 333 10362 29062 55078 58006;
0156823920999992010122412004-03700-040350FM-12+008399999V0200901N003110450019N0500001N1+02841+02171100951ADDGF105991031021004501031001KA1240N+02301MA1999999099931MD1999999+0131REMSYN076AAXX  24124 82392 32499 50906 10284 20217 39993 40095 83230 333 20230 58013;
0223823920999992010122500004-03700-040350FM-12+008399999V0200501N004612200019N0040001N1+02581+02041100881ADDAA106005191AY151061AY261061GA1001+999999999GF100991001001999999001001KA1240M+03521MA1999999099861MD1999999+0021MW1021REMSYN094AAXX  25004 82392 21996 00509 10258 20204 39986 40088 70256 333 10352 29070 55078 58002 60051;
0173823920999992010122512004-03700-040350FM-12+008399999V0200901N004112200019N0500001N1+02801+02221101051ADDAA124006191GF104991041041004501001001KA1240N+02301MA1999999100031MD1999999+0101REMSYN082AAXX  25124 82392 22499 40908 10280 20222 30003 40105 84400 333 20230 58010 60064;
0213823920999992010122600004-03700-040350FM-12+008399999V0201801N001010450019N0040001N1+02341+02271100931ADDAA106023991AY161061AY261061GF108991041071004501021999KA1240M+03401MA1999999099901MD1999999+0041MW1031REMSYN100AAXX  26004 82392 21496 81802 10234 20227 39990 40093 70366 8472/ 333 10340 29088 55075 58004 60241;
0173823920999992010122612004-03700-040350FM-12+008399999V0200501N001012200019N0500001N1+02741+02141101071ADDAA124023991GF102991021011004501001001KA1240N+02281MA1999999100041MD1999999+0011REMSYN082AAXX  26124 82392 22499 20502 10274 20214 30004 40107 82100 333 20228 58001 60244;
0156823920999992010122712004-03700-040350FM-12+008399999V0200501N002112200019N0500001N1+02801+02001101021ADDGF103991031021004501001001KA1240N+02261MA1999999100001MD1999999-0041REMSYN076AAXX  27124 82392 32499 30504 10280 20200 30000 40102 83200 333 20226 59004;
0168823920999992010122800004-03700-040350FM-12+008399999V0200501N004612200019N0500001N1+02701+02131100761ADDGF102991021001004501031001KA1240M+03541MA1999999099741MD1999999-0151REMSYN088AAXX  28004 82392 32499 20509 10270 20213 39974 40076 82030 333 10354 29068 55096 59015;
0156823920999992010122812004-03700-040350FM-12+008399999V0201401N001010450019N0500001N1+02761+02121100881ADDGF105991041021004501031001KA1240N+02201MA1999999099861MD1999999-0141REMSYN076AAXX  28124 82392 32499 51402 10276 20212 39986 40088 84230 333 20220 59014;
0178823920999992010122900004-03700-040350FM-12+008399999V0203601N003112200019N0040001N1+02671+02111100741ADDGA1001+999999999GF100991001001999999001001KA1240M+03521MA1999999099721MD1999999-0021REMSYN082AAXX  29004 82392 32996 03606 10267 20211 39972 40074 333 10352 29071 55107 59002;
0156823920999992010122912004-03700-040350FM-12+008399999V0200501N002612200019N0500001N1+02741+02171100871ADDGF104991031021004501031001KA1240N+02401MA1999999099851MD1999999-0011REMSYN076AAXX  29124 82392 32499 40505 10274 20217 39985 40087 83230 333 20240 59001;
0168823920999992010123000004-03700-040350FM-12+008399999V0200501N005712200019N0040001N1+02761+02211100671ADDGF102991021001004501031001KA1240M+03501MA1999999099651MD1999999-0071REMSYN088AAXX  30004 82392 32496 20511 10276 20221 39965 40067 82030 333 10350 29072 55096 59007;
0156823920999992010123012004-03700-040350FM-12+008399999V0200501N002110450019N0500001N1+02621+02211100881ADDGF107991041051004501031001KA1240N+02471MA1999999099861MD1999999+0011REMSYN076AAXX  30124 82392 32499 70504 10262 20221 39986 40088 84530 333 20247 58001;
0168823920999992010123100004-03700-040350FM-12+008399999V0200501N004612200019N0040001N1+02701+02131100821ADDGF102991021011004501001001KA1240M+03521MA1999999099761MD1999999+0111REMSYN088AAXX  31004 82392 32496 20509 10270 20213 39976 40082 82100 333 10352 29073 55057 58011;
0156823920999992010123112004-03700-040350FM-12+008399999V0200501N003112200019N0500001N1+02821+02051100861ADDGF104991031021004501031001KA1240N+02281MA1999999099841MD1999999-0021REMSYN076AAXX  31124 82392 32499 40506 10282 20205 39984 40086 83230 333 20228 59002;
0137823920999992010123118004-03700-040350FM-12+008399999V0201401N002110450019N0500001N1+03401+01891100441ADDGF105991041021004501021001MA1999999099441MD1999999-0021REMSYN070AAXX  31184 82392 32499 51404 10340 20189 39944 40044 84220 333 59002;
