0178825830999992010091500004-05167-040667FM-12+029999999V0200901N003612200019N0040001N1+03021+01511101111ADDGA1001+999999999GF100991001001999999001001KA1240M+03621MA1999999097781MD1999999+0081REMSYN082AAXX  15004 82583 32996 00907 10302 20151 39778 40111 333 10362 29040 55104 58008;
0156825830999992010091512004-05167-040667FM-12+029999999V0201401N005112200019N0500001N1+02851+01841101281ADDGF103991031011008001001001KA1240N+02391MA1999999097941MD1999999-0021REMSYN076AAXX  15124 82583 32599 31410 10285 20184 39794 40128 83100 333 20239 59002;
0137825830999992010091518004-05167-040667FM-12+029999999V0201401N005112200019N0500001N1+03541+01301100671ADDGF101991011011008001001001MA1999999097351MD1999999-0201REMSYN070AAXX  15184 82583 32599 11410 10354 20130 39735 40067 81100 333 59020;
0168825830999992010091600004-05167-040667FM-12+029999999V0200901N003112200019N0040001N1+03071+01401100881ADDGF101991011011008001001001KA1240M+03641MA1999999097561MD1999999-0221REMSYN088AAXX  16004 82583 32596 10906 10307 20140 39756 40088 81100 333 10364 29038 55109 59022;
0156825830999992010091612004-05167-040667FM-12+029999999V0201401N006212200019N0500001N1+02751+01891101141ADDGF103991031011008001001001KA1240N+02351MA1999999097801MD1999999-0141REMSYN076AAXX  16124 82583 32599 31412 10275 20189 39780 40114 83100 333 20235 59014;
0137825830999992010091618004-05167-040667FM-12+029999999V0201401N004112200019N0500001N1+03471+01571100591ADDGF101991011011008001001001MA1999999097271MD1999999-0081REMSYN070AAXX  16184 82583 32599 11408 10347 20157 39727 40059 81100 333 59008;
0178825830999992010091700004-05167-040667FM-12+029999999V0200901N003112200019N0040001N1+03041+01281100821ADDGA1001+999999999GF100991001001999999001001KA1240M+03591MA1999999097491MD1999999+0071REMSYN082AAXX  17004 82583 32996 00906 10304 20128 39749 40082 333 10359 29040 55105 58007;
0156825830999992010091712004-05167-040667FM-12+029999999V0201401N005110450019N0500001N1+02821+01831101231ADDGF105991041011008001021001KA1240N+02301MA1999999097891MD1999999+0091REMSYN076AAXX  17124 82583 32599 51410 10282 20183 39789 40123 84120 333 20230 58009;
0137825830999992010091718004-05167-040667FM-12+029999999V0201401N005112200019N0500001N1+03541+01301100691ADDGF103991031011008001001001MA1999999097371MD1999999+0101REMSYN070AAXX  17184 82583 32599 31410 10354 20130 39737 40069 83100 333 58010;
0178825830999992010091800004-05167-040667FM-12+029999999V0200901N003112200019N0040001N1+03011+01301101021ADDGA1001+999999999GF100991001001999999001001KA1240M+03621MA1999999097681MD1999999+0191REMSYN082AAXX  18004 82583 32996 00906 10301 20130 39768 40102 333 10362 29038 55107 58019;
0156825830999992010091812004-05167-040667FM-12+029999999V0200901N005712200019N0500001N1+02761+01891101311ADDGF104991031011008001001011KA1240N+02331MA1999999097971MD1999999+0081REMSYN076AAXX  18124 82583 32599 40911 10276 20189 39797 40131 83101 333 20233 58008;
0137825830999992010091818004-05167-040667FM-12+029999999V0201401N002112200019N0500001N1+03471+01611100801ADDGF104991041011008001001001MA1999999097481MD1999999+0111REMSYN070AAXX  18184 82583 32599 41404 10347 20161 39748 40080 84100 333 58011;
0178825830999992010091900004-05167-040667FM-12+029999999V0200901N002612200019N0040001N1+03031+01411101021ADDGA1001+999999999GF100991001001999999001001KA1240M+03531MA1999999097681MD1999999+0001REMSYN082AAXX  19004 82583 32996 00905 10303 20141 39768 40102 333 10353 29042 55106 58000;
0156825830999992010091912004-05167-040667FM-12+029999999V0200901N005712200019N0500001N1+02811+01711101341ADDGF104991041011008001001001KA1240N+02371MA1999999097991MD1999999+0021REMSYN076AAXX  19124 82583 32599 40911 10281 20171 39799 40134 84100 333 20237 58002;
0137825830999992010091918004-05167-040667FM-12+029999999V0201401N003110075019N0500001N1+03371+01621100791ADDGF106991061021008001001001MA1999999097471MD1999999-0011REMSYN070AAXX  19184 82583 32599 61406 10337 20162 39747 40079 86200 333 59001;
0168825830999992010092000004-05167-040667FM-12+029999999V0201401N003112200019N0040001N1+02931+01401101001ADDGF102991011011008001001011KA1240M+03531MA1999999097631MD1999999-0051REMSYN088AAXX  20004 82583 32596 21406 10293 20140 39763 40100 81101 333 10353 29041 55101 59005;
0156825830999992010092012004-05167-040667FM-12+029999999V0201401N004110450019N0500001N1+02631+01771101361ADDGF105991031051008001061011KA1240N+02361MA1999999098001MD1999999+0011REMSYN076AAXX  20124 82583 32599 51408 10263 20177 39800 40136 83561 333 20236 58001;
0137825830999992010092018004-05167-040667FM-12+029999999V0200901N003612200019N0500001N1+03411+01471100671ADDGF103991021011008001001011MA1999999097351MD1999999-0121REMSYN070AAXX  20184 82583 32599 30907 10341 20147 39735 40067 82101 333 59012;
0168825830999992010092100004-05167-040667FM-12+029999999V0200901N002612200019N0040001N1+02891+01521100951ADDGF103991021011008001031011KA1240M+03511MA1999999097601MD1999999-0031REMSYN088AAXX  21004 82583 32596 30905 10289 20152 39760 40095 82131 333 10351 29044 55078 59003;
0156825830999992010092112004-05167-040667FM-12+029999999V0200901N005112200019N0500001N1+02731+01761101241ADDGF104991041011008001001001KA1240N+02281MA1999999097901MD1999999-0101REMSYN076AAXX  21124 82583 32599 40910 10273 20176 39790 40124 84100 333 20228 59010;
0137825830999992010092118004-05167-040667FM-12+029999999V0201401N003612200019N0500001N1+03431+01381100711ADDGF102991011011008001001011MA1999999097381MD1999999+0031REMSYN070AAXX  21184 82583 32599 21407 10343 20138 39738 40071 81101 333 58003;
0168825830999992010092200004-05167-040667FM-12+029999999V0200901N003112200019N0040001N1+02921+01171101041ADDGF102991021001017501031001KA1240M+03571MA1999999097691MD1999999+0091REMSYN088AAXX  22004 82583 32796 20906 10292 20117 39769 40104 82030 333 10357 29038 55104 58009;
0156825830999992010092212004-05167-040667FM-12+029999999V0201401N004612200019N0500001N1+02841+01851101271ADDGF103991021011008001001021KA1240N+02391MA1999999097931MD1999999+0031REMSYN076AAXX  22124 82583 32599 31409 10284 20185 39793 40127 82102 333 20239 58003;
0137825830999992010092218004-05167-040667FM-12+029999999V0200901N004612200019N0500001N1+03581+01441100641ADDGF102991021011008001001001MA1999999097341MD1999999-0041REMSYN070AAXX  22184 82583 32599 20909 10358 20144 39734 40064 82100 333 59004;
0168825830999992010092300004-05167-040667FM-12+029999999V0200901N002612200019N0040001N1+02951+01291101001ADDGF101991011011008001001001KA1240M+03651MA1999999097661MD1999999-0091REMSYN088AAXX  23004 82583 32596 10905 10295 20129 39766 40100 81100 333 10365 29039 55103 59009;
0156825830999992010092312004-05167-040667FM-12+029999999V0201401N004610075019N0500001N1+02741+01921101311ADDGF106991061021008001001001KA1240N+02361MA1999999097951MD1999999+0021REMSYN076AAXX  23124 82583 32599 61409 10274 20192 39795 40131 86200 333 20236 58002;
0137825830999992010092318004-05167-040667FM-12+029999999V0201401N002612200019N0500001N1+03581+01391100611ADDGF101991011011008001001001MA1999999097301MD1999999-0041REMSYN070AAXX  23184 82583 32599 11405 10358 20139 39730 40061 81100 333 59004;
0168825830999992010092400004-05167-040667FM-12+029999999V0200901N002612200019N0040001N1+02991+01151100971ADDGF101991011011008001001001KA1240M+03691MA1999999097631MD1999999-0031REMSYN088AAXX  24004 82583 32596 10905 10299 20115 39763 40097 81100 333 10369 29038 55088 59003;
0156825830999992010092412004-05167-040667FM-12+029999999V0201401N004110075019N0500001N1+02751+01891101321ADDGF105991051011008001001001KA1240N+02401MA1999999097971MD1999999+0021REMSYN076AAXX  24124 82583 32599 51408 10275 20189 39797 40132 85100 333 20240 58002;
0137825830999992010092418004-05167-040667FM-12+029999999V0201401N005112200019N0500001N1+03511+01341100761ADDGF102991021011008001001001MA1999999097441MD1999999+0141REMSYN070AAXX  24184 82583 32599 21410 10351 20134 39744 40076 82100 333 58014;
0178825830999992010092500004-05167-040667FM-12+029999999V0200901N004112200019N0040001N1+02951+01251101021ADDGA1001+999999999GF100991001001999999001001KA1240M+03541MA1999999097681MD1999999+0051REMSYN082AAXX  25004 82583 32996 00908 10295 20125 39768 40102 333 10354 29039 55100 58005;
0156825830999992010092812004-05167-040667FM-12+029999999V0200901N004112200019N0500001N1+02881+01801100991ADDGF102991021001017501011001KA1240N+02391MA1999999097671MD1999999-0131REMSYN076AAXX  28124 82583 32799 20908 10288 20180 39767 40099 82010 333 20239 59013;
0137825830999992010092818004-05167-040667FM-12+029999999V0200901N002612200019N0500001N1+03631+01441100411ADDGF103991021011008001011001MA1999999097151MD1999999-0071REMSYN070AAXX  28184 82583 32599 30905 10363 20144 39715 40041 82110 333 59007;
0178825830999992010092900004-05167-040667FM-12+029999999V0200901N001012200019N0040001N1+03091+01421100651ADDGA1001+999999999GF100991001001999999001001KA1240M+03731MA1999999097341MD1999999-0031REMSYN082AAXX  29004 82583 32996 00902 10309 20142 39734 40065 333 10373 29038 55108 59003;
0156825830999992010092912004-05167-040667FM-12+029999999V0200901N003612200019N0500001N1+02821+01861101071ADDGF101991011011008001001001KA1240N+02521MA1999999097741MD1999999+0071REMSYN076AAXX  29124 82583 32599 10907 10282 20186 39774 40107 81100 333 20252 58007;
0137825830999992010092918004-05167-040667FM-12+029999999V0200901N004112200019N0500001N1+03731+01281100491ADDGF101991011011008001001001MA1999999097191MD1999999+0081REMSYN070AAXX  29184 82583 32599 10908 10373 20128 39719 40049 81100 333 58008;
0178825830999992010093000004-05167-040667FM-12+029999999V0200901N002612200019N0040001N1+03031+01281100681ADDGA1001+999999999GF100991001001999999001001KA1240M+03851MA1999999097351MD1999999+0011REMSYN082AAXX  30004 82583 32996 00905 10303 20128 39735 40068 333 10385 29037 55091 58001;
0156825830999992010093012004-05167-040667FM-12+029999999V0200901N005112200019N0500001N1+02871+01771101131ADDGF102991011011008001011001KA1240N+02431MA1999999097791MD1999999+0051REMSYN076AAXX  30124 82583 32599 20910 10287 20177 39779 40113 81110 333 20243 58005;
0137825830999992010093018004-05167-040667FM-12+029999999V0201401N001512200019N0500001N1+03601+01771100491ADDGF101991011011008001001001MA1999999097181MD1999999-0011REMSYN070AAXX  30184 82583 32599 11403 10360 20177 39718 40049 81100 333 59001;
0178825830999992010100100004-05167-040667FM-12+029999999V0200901N002612200019N0040001N1+03141+01501100801ADDGA1001+999999999GF100991001001999999001001KA1240M+03751MA1999999097481MD1999999+0131REMSYN082AAXX  01004 82583 32996 00905 10314 20150 39748 40080 333 10375 29040 55096 58013;
0156825830999992010100112004-05167-040667FM-12+029999999V0200901N004112200019N0500001N1+02911+01831101091ADDGF101991011011008001001001KA1240N+02441MA1999999097761MD1999999-0031REMSYN076AAXX  01124 82583 32599 10908 10291 20183 39776 40109 81100 333 20244 59003;
0137825830999992010100118004-05167-040667FM-12+029999999V0200901N003612200019N0500001N1+03641+01381100531ADDGF103991031021008001001001MA1999999097221MD1999999-0041REMSYN070AAXX  01184 82583 32599 30907 10364 20138 39722 40053 83200 333 59004;
0178825830999992010100200004-05167-040667FM-12+029999999V0200901N003112200019N0040001N1+03111+01391100771ADDGA1001+999999999GF100991001001999999001001KA1240M+03721MA1999999097451MD1999999-0031REMSYN082AAXX  02004 82583 32996 00906 10311 20139 39745 40077 333 10372 29037 55106 59003;
0156825830999992010100212004-05167-040667FM-12+029999999V0200901N007210450019N0500001N1+02821+01891101231ADDGF105991041011008001031001KA1240N+02381MA1999999097881MD1999999+0121REMSYN076AAXX  02124 82583 32599 50914 10282 20189 39788 40123 84130 333 20238 58012;
0156825830999992010100218004-05167-040667FM-12+029999999V0200901N005112200019N0500001N1+03581+01141100601ADDGF104991999011008001001001MA1999999097291MD1999999+0071REMSYN070AAXX  02184 82583 32599 40910 10358 20114 39729 40060 83100 333 58007;EQDQ01+000032SCOTLC
0178825830999992010100300004-05167-040667FM-12+029999999V0200901N000512200019N0040001N1+03031+01571100871ADDGA1001+999999999GF100991001001999999001001KA1240M+03651MA1999999097541MD1999999+0091REMSYN082AAXX  03004 82583 32996 00901 10303 20157 39754 40087 333 10365 29042 55085 58009;
0156825830999992010100312004-05167-040667FM-12+029999999V0200901N003612200019N0500001N1+02841+01991101221ADDGF102991021011008001001001KA1240N+02261MA1999999097881MD1999999+0001REMSYN076AAXX  03124 82583 32599 20907 10284 20199 39788 40122 82100 333 20226 58000;
0137825830999992010100318004-05167-040667FM-12+029999999V0201401N005112200019N0500001N1+03741+01071100601ADDGF103991031011008001001001MA1999999097301MD1999999+0011REMSYN070AAXX  03184 82583 32599 31410 10374 20107 39730 40060 83100 333 58001;
0168825830999992010100400004-05167-040667FM-12+029999999V0200501N001012200019N0040001N1+03081+01521100941ADDGF101991011011008001001001KA1240M+03841MA1999999097621MD1999999+0081REMSYN088AAXX  04004 82583 32596 10502 10308 20152 39762 40094 81100 333 10384 29040 55101 58008;
0156825830999992010100412004-05167-040667FM-12+029999999V0200901N004612200019N0500001N1+02911+01601101331ADDGF102991021001017501001011KA1240N+02371MA1999999097991MD1999999+0111REMSYN076AAXX  04124 82583 32799 20909 10291 20160 39799 40133 82001 333 20237 58011;
0137825830999992010100418004-05167-040667FM-12+029999999V0201401N003112200019N0500001N1+03701+01181100731ADDGF102991011011008001001011MA1999999097431MD1999999+0131REMSYN070AAXX  04184 82583 32599 21406 10370 20118 39743 40073 81101 333 58013;
0178825830999992010100500004-05167-040667FM-12+029999999V0200901N002112200019N0040001N1+03051+01731100931ADDGA1001+999999999GF100991001001999999001001KA1240M+03761MA1999999097611MD1999999-0011REMSYN082AAXX  05004 82583 32996 00904 10305 20173 39761 40093 333 10376 29042 55108 59001;
0156825830999992010100512004-05167-040667FM-12+029999999V0200901N003610075019N0500001N1+02881+01911101261ADDGF105991051011008001001001KA1240N+02321MA1999999097921MD1999999-0071REMSYN076AAXX  05124 82583 32599 50907 10288 20191 39792 40126 85100 333 20232 59007;
0137825830999992010100518004-05167-040667FM-12+029999999V0200901N003612200019N0500001N1+03631+01321100671ADDGF101991011011008001001001MA1999999097351MD1999999-0081REMSYN070AAXX  05184 82583 32599 10907 10363 20132 39735 40067 81100 333 59008;
0178825830999992010100600004-05167-040667FM-12+029999999V0200901N003112200019N0040001N1+03081+01641100951ADDGA1001+999999999GF100991001001999999001001KA1240M+03721MA1999999097631MD1999999+0021REMSYN082AAXX  06004 82583 32996 00906 10308 20164 39763 40095 333 10372 29041 55110 58002;
0156825830999992010100612004-05167-040667FM-12+029999999V0200901N003612200019N0500001N1+02891+01841101331ADDGF101991011001017501001011KA1240N+02241MA1999999097991MD1999999+0071REMSYN076AAXX  06124 82583 32799 10907 10289 20184 39799 40133 81001 333 20224 58007;
0137825830999992010100618004-05167-040667FM-12+029999999V0200901N001512200019N0500001N1+03581+01441100651ADDGF102991021011008001001001MA1999999097381MD1999999-0011REMSYN070AAXX  06184 82583 32599 20903 10358 20144 39738 40065 82100 333 59001;
0178825830999992010100700004-05167-040667FM-12+029999999V0200901N001012200019N0040001N1+03051+01511100951ADDGA1001+999999999GF100991001001999999001001KA1240M+03771MA1999999097631MD1999999+0001REMSYN082AAXX  07004 82583 32996 00902 10305 20151 39763 40095 333 10377 29040 55107 58000;
0156825830999992010100712004-05167-040667FM-12+029999999V0200901N005112200019N0500001N1+02851+01921101341ADDGF101991011011008001001001KA1240N+02311MA1999999098001MD1999999+0011REMSYN076AAXX  07124 82583 32599 10910 10285 20192 39800 40134 81100 333 20231 58001;
0147825830999992010100718004-05167-040667FM-12+029999999V0201401N004612200019N0500001N1+03681+00941100731ADDGA1001+999999999GF100991001001999999001001MA1999999097411MD1999999+0071REMSYN064AAXX  07184 82583 32999 01409 10368 20094 39741 40073 333 58007;
0178825830999992010100800004-05167-040667FM-12+029999999V0200901N001512200019N0040001N1+02951+01021101061ADDGA1001+999999999GF100991001001999999001001KA1240M+03771MA1999999097721MD1999999+0091REMSYN082AAXX  08004 82583 32996 00903 10295 20102 39772 40106 333 10377 29034 55095 58009;
0156825830999992010100812004-05167-040667FM-12+029999999V0200901N006212200019N0500001N1+02831+01671101571ADDGF102991021011008001001011KA1240N+02281MA1999999098221MD1999999+0221REMSYN076AAXX  08124 82583 32599 20912 10283 20167 39822 40157 82101 333 20228 58022;
0137825830999992010100818004-05167-040667FM-12+029999999V0200501N004112200019N0500001N1+03541+01351100971ADDGF101991011011008001001001MA1999999097641MD1999999+0231REMSYN070AAXX  08184 82583 32599 10508 10354 20135 39764 40097 81100 333 58023;
0178825830999992010100900004-05167-040667FM-12+029999999V0200901N003612200019N0040001N1+03041+01321101231ADDGA1001+999999999GF100991001001999999001001KA1240M+03611MA1999999097891MD1999999+0171REMSYN082AAXX  09004 82583 32996 00907 10304 20132 39789 40123 333 10361 29036 55107 58017;
0156825830999992010100912004-05167-040667FM-12+029999999V0200901N005112200019N0500001N1+02891+01931101391ADDGF101991011011008001001001KA1240N+02301MA1999999098051MD1999999-0171REMSYN076AAXX  09124 82583 32599 10910 10289 20193 39805 40139 81100 333 20230 59017;
0137825830999992010100918004-05167-040667FM-12+029999999V0200901N004612200019N0500001N1+03701+01431100721ADDGF102991021011008001001001MA1999999097401MD1999999-0241REMSYN070AAXX  09184 82583 32599 20909 10370 20143 39740 40072 82100 333 59024;
0178825830999992010101000004-05167-040667FM-12+029999999V0200901N003612200019N0040001N1+03181+01311101021ADDGA1001+999999999GF100991001001999999001001KA1240M+03771MA1999999097701MD1999999-0191REMSYN082AAXX  10004 82583 32996 00907 10318 20131 39770 40102 333 10377 29036 55109 59019;
0156825830999992010101012004-05167-040667FM-12+029999999V0200501N001510075019N0500001N1+02681+02041100891ADDGF107991071051008001999999KA1240N+02351MA1999999098071MD1999999+0021REMSYN076AAXX  10124 82583 32599 70503 10268 20204 39807 40089 875// 333 20235 58002;
0137825830999992010101018004-05167-040667FM-12+029999999V0201401N004612200019N0500001N1+03591+01411100841ADDGF104991041011008001001001MA1999999097521MD1999999+0121REMSYN070AAXX  10184 82583 32599 41409 10359 20141 39752 40084 84100 333 58012;
0178825830999992010101100004-05167-040667FM-12+029999999V0200901N002112200019N0040001N1+03031+01451101061ADDGA1001+999999999GF100991001001999999001001KA1240M+03651MA1999999097721MD1999999+0021REMSYN082AAXX  11004 82583 32996 00904 10303 20145 39772 40106 333 10365 29043 55074 58002;
0156825830999992010101112004-05167-040667FM-12+029999999V0200501N002110120019N0500001N1+02631+02031101341ADDGF108991081081008001999999KA1240N+02431MA1999999097981MD1999999-0091REMSYN076AAXX  11124 82583 32599 80504 10263 20203 39798 40134 888// 333 20243 59009;
0137825830999992010101118004-05167-040667FM-12+029999999V0201401N003112200019N0500001N1+03431+01631100741ADDGF102991021011008001001001MA1999999097411MD1999999-0111REMSYN070AAXX  11184 82583 32599 21406 10343 20163 39741 40074 82100 333 59011;
0168825830999992010101200004-05167-040667FM-12+029999999V0200901N001512200019N0040001N1+02981+01731100991ADDGF101991011011008001001001KA1240M+03531MA1999999097651MD1999999-0071REMSYN088AAXX  12004 82583 32596 10903 10298 20173 39765 40099 81100 333 10353 29049 55059 59007;
0156825830999992010101212004-05167-040667FM-12+029999999V0201401N004110075019N0500001N1+02841+01991101321ADDGF106991061011008001001001KA1240N+02451MA1999999097971MD1999999-0011REMSYN076AAXX  12124 82583 32599 61408 10284 20199 39797 40132 86100 333 20245 59001;
0137825830999992010101218004-05167-040667FM-12+029999999V0201401N004610075019N0500001N1+03591+01671100761ADDGF105991051011008001001001MA1999999097451MD1999999+0041REMSYN070AAXX  12184 82583 32599 51409 10359 20167 39745 40076 85100 333 58004;
0178825830999992010101300004-05167-040667FM-12+029999999V0200901N002612200019N0040001N1+03061+01581100971ADDGA1001+999999999GF100991001001999999001001KA1240M+03681MA1999999097651MD1999999+0001REMSYN082AAXX  13004 82583 32996 00905 10306 20158 39765 40097 333 10368 29044 55078 58000;
0156825830999992010101312004-05167-040667FM-12+029999999V0200901N002110120019N0500001N1+02771+02161101361ADDGF106991061081008001001001KA1240N+02361MA1999999097921MD1999999-0051REMSYN076AAXX  13124 82583 32599 60904 10277 20216 39792 40136 86800 333 20236 59005;
0137825830999992010101318004-05167-040667FM-12+029999999V0201401N004612200019N0500001N1+03621+01361100691ADDGF104991041021008001001001MA1999999097371MD1999999-0081REMSYN070AAXX  13184 82583 32599 41409 10362 20136 39737 40069 84200 333 59008;
0178825830999992010101400004-05167-040667FM-12+029999999V0200901N002112200019N0040001N1+03091+01191100971ADDGA1001+999999999GF100991001001999999001001KA1240M+03601MA1999999097651MD1999999+0001REMSYN082AAXX  14004 82583 32996 00904 10309 20119 39765 40097 333 10360 29038 55094 58000;
0156825830999992010101412004-05167-040667FM-12+029999999V0200901N005110075019N0500001N1+02821+01861101401ADDGF106991051051008001031001KA1240N+02391MA1999999098061MD1999999+0141REMSYN076AAXX  14124 82583 32599 60910 10282 20186 39806 40140 85530 333 20239 58014;
0137825830999992010101418004-05167-040667FM-12+029999999V0200901N006712200019N0500001N1+03571+01391100761ADDGF103991031001017501001021MA1999999097451MD1999999+0081REMSYN070AAXX  14184 82583 32799 30913 10357 20139 39745 40076 83002 333 58008;
0168825830999992010101500004-05167-040667FM-12+029999999V0200901N002612200019N0040001N1+02981+01401101061ADDGF102991021001017501001011KA1240M+03641MA1999999097721MD1999999+0071REMSYN088AAXX  15004 82583 32796 20905 10298 20140 39772 40106 82001 333 10364 29040 55104 58007;
0156825830999992010101512004-05167-040667FM-12+029999999V0201401N006212200019N0500001N1+02921+01861101191ADDGF102991021011008001001001KA1240N+02431MA1999999097851MD1999999-0211REMSYN076AAXX  15124 82583 32599 21412 10292 20186 39785 40119 82100 333 20243 59021;
0137825830999992010101518004-05167-040667FM-12+029999999V0201401N003612200019N0500001N1+03661+01271100571ADDGF101991011011008001001001MA1999999097271MD1999999-0181REMSYN070AAXX  15184 82583 32599 11407 10366 20127 39727 40057 81100 333 59018;
0178825830999992010101600004-05167-040667FM-12+029999999V0200901N002112200019N0040001N1+03051+01151100901ADDGA1001+999999999GF100991001001999999001001KA1240M+03671MA1999999097581MD1999999-0141REMSYN082AAXX  16004 82583 32996 00904 10305 20115 39758 40090 333 10367 29035 55105 59014;
0156825830999992010101612004-05167-040667FM-12+029999999V0200901N006212200019N0500001N1+02921+01861101131ADDGF104991031011008001011021KA1240N+02401MA1999999097801MD1999999-0051REMSYN076AAXX  16124 82583 32599 40912 10292 20186 39780 40113 83112 333 20240 59005;
0137825830999992010101618004-05167-040667FM-12+029999999V0201801N004619999999N0500001N1+03501+01201100671ADDGF105991051001017501001021MA1999999097351MD1999999+0081REMSYN070AAXX  16184 82583 32799 51809 10350 20120 39735 40067 85002 333 58008;
0178825830999992010101700004-05167-040667FM-12+029999999V0200901N002112200019N0040001N1+02931+01151100921ADDGA1001+999999999GF100991001001999999001001KA1240M+03691MA1999999097591MD1999999+0011REMSYN082AAXX  17004 82583 32996 00904 10293 20115 39759 40092 333 10369 29036 55092 58001;
0156825830999992010101712004-05167-040667FM-12+029999999V0200901N004110450019N0500001N1+02861+01921101241ADDGF105991041011008001031001KA1240N+02411MA1999999097901MD1999999+0101REMSYN076AAXX  17124 82583 32599 50908 10286 20192 39790 40124 84130 333 20241 58010;
0137825830999992010101718004-05167-040667FM-12+029999999V0200901N003112200019N0500001N1+03511+01551100581ADDGF104991041011008001001001MA1999999097271MD1999999-0081REMSYN070AAXX  17184 82583 32599 40906 10351 20155 39727 40058 84100 333 59008;
0178825830999992010101800004-05167-040667FM-12+029999999V0200901N003612200019N0040001N1+03201+01461100861ADDGA1001+999999999GF100991001001999999001001KA1240M+03691MA1999999097541MD1999999-0051REMSYN082AAXX  18004 82583 32996 00907 10320 20146 39754 40086 333 10369 29040 55103 59005;
0156825830999992010101812004-05167-040667FM-12+029999999V0200901N003110075019N0500001N1+02921+01951101251ADDGF105991051011008001001001KA1240N+02331MA1999999097931MD1999999+0031REMSYN076AAXX  18124 82583 32599 50906 10292 20195 39793 40125 85100 333 20233 58003;
0137825830999992010101818004-05167-040667FM-12+029999999V0201401N002612200019N0500001N1+03601+01811100671ADDGF104991031011008001001011MA1999999097371MD1999999+0101REMSYN070AAXX  18184 82583 32599 41405 10360 20181 39737 40067 83101 333 58010;
0168825830999992010101900004-05167-040667FM-12+029999999V0203601N000512200019N0040001N1+03181+01941100891ADDGF102991021011008001001001KA1240M+03761MA1999999097571MD1999999+0031REMSYN088AAXX  19004 82583 32596 23601 10318 20194 39757 40089 82100 333 10376 29040 55106 58003;
0156825830999992010101912004-05167-040667FM-12+029999999V0200901N004110075019N0500001N1+02691+02031101281ADDGF105991051011008001001001KA1240N+02381MA1999999097941MD1999999+0011REMSYN076AAXX  19124 82583 32599 50908 10269 20203 39794 40128 85100 333 20238 58001;
0137825830999992010101918004-05167-040667FM-12+029999999V0200501N003110075019N0500001N1+03461+01941100681ADDGF105991051021008001001001MA1999999097361MD1999999-0011REMSYN070AAXX  19184 82583 32599 50506 10346 20194 39736 40068 85200 333 59001;
0178825830999992010102000004-05167-040667FM-12+029999999V0200501N003112200019N0040001N1+03031+01821100961ADDGA1001+999999999GF100991001001999999001001KA1240M+03571MA1999999097621MD1999999+0051REMSYN082AAXX  20004 82583 32996 00506 10303 20182 39762 40096 333 10357 29051 55066 58005;
0156825830999992010102012004-05167-040667FM-12+029999999V0200901N003610075019N0500001N1+02711+02001101271ADDGF106991061011008001999999KA1240N+02321MA1999999097931MD1999999-0011REMSYN076AAXX  20124 82583 32599 60907 10271 20200 39793 40127 861// 333 20232 59001;
0137825830999992010102018004-05167-040667FM-12+029999999V0200501N003112200019N0500001N1+03621+01641100621ADDGF104991031011008001001011MA1999999097311MD1999999-0051REMSYN070AAXX  20184 82583 32599 40506 10362 20164 39731 40062 83101 333 59005;
0168825830999992010102100004-05167-040667FM-12+029999999V0203601N002110075019N0040001N1+03131+01971100941ADDGF107991061051008001051999KA1240M+03181MA1999999097611MD1999999-0011REMSYN088AAXX  21004 82583 32596 73604 10313 20197 39761 40094 8655/ 333 10318 29049 55084 59001;
0156825830999992010102112004-05167-040667FM-12+029999999V0200501N002612200019N0500001N1+02831+02141101221ADDGF102991021011008001001001KA1240N+02431MA1999999097891MD1999999-0041REMSYN076AAXX  21124 82583 32599 20505 10283 20214 39789 40122 82100 333 20243 59004;
0137825830999992010102118004-05167-040667FM-12+029999999V0201401N002110075019N0500001N1+03581+01791100551ADDGF106991061011008001001001MA1999999097241MD1999999-0071REMSYN070AAXX  21184 82583 32599 61404 10358 20179 39724 40055 86100 333 59007;
0168825830999992010102200004-05167-040667FM-12+029999999V0200501N001512200019N0040001N1+03171+01801100761ADDGF102991021031008001001001KA1240M+03661MA1999999097441MD1999999-0171REMSYN088AAXX  22004 82583 32596 20503 10317 20180 39744 40076 82300 333 10366 29047 55109 59017;
0156825830999992010102212004-05167-040667FM-12+029999999V0200901N004110075019N0500001N1+02771+02131101201ADDGF106991051051008001031001KA1240N+02491MA1999999097851MD1999999-0041REMSYN076AAXX  22124 82583 32599 60908 10277 20213 39785 40120 85530 333 20249 59004;
0184825830999992010102218004-05167-040667FM-12+029999999V0200901N002619999999N0500001N1+03361+02041100631ADDAY121061AY221061GF106991999051008001999999MA1999999097311MD1999999+0071MW1161REMSYN076AAXX  22184 82583 31599 60905 10336 20204 39731 40063 71622 885// 333 58007;EQDQ01+000082SCOTLC
0232825830999992010102300004-05167-040667FM-12+029999999V0203201N003610075019N0040001N1+02461+02281101011ADDAA106000091AY151061AY251061GF107991071071008001999999KA1240M+03441MA1999999097641MD1999999+0201MW1021REMSYN100AAXX  23004 82583 21596 73207 10246 20228 39764 40101 70255 877// 333 10344 29073 55050 58020 69921;EQDQ01  00002PRCP06
0201825830999992010102312004-05167-040667FM-12+029999999V0203201N001510075019N0100001N1+02261+02181101271ADDAA124025991AY161061AY261061GF108991081051008001999999KA1240N+02191MA1999999097871MD1999999+0021MW1621REMSYN088AAXX  23124 82583 21597 83203 10226 20218 39787 40127 76266 885// 333 20219 58002 60264;
0182825830999992010102318004-05167-040667FM-12+029999999V0202701N002110075019N0100001N1+02391+02071100891ADDAA106004191AY161061AY261061GF108991081051008001999999MA1999999097481MD1999999+0171MW1021REMSYN082AAXX  23184 82583 21597 82704 10239 20207 39748 40089 70266 885// 333 58017 60041;
0168825830999992010102400004-05167-040667FM-12+029999999V0202701N001510075019N0040001N1+02381+02221101141ADDGF107991071051008001999999KA1240M+02491MA1999999097731MD1999999+0091REMSYN088AAXX  24004 82583 32596 72703 10238 20222 39773 40114 875// 333 10249 29090 55000 58009;
0156825830999992010102412004-05167-040667FM-12+029999999V0200901N004610075019N0500001N1+02681+02201101121ADDGF107991071051008001999999KA1240N+02201MA1999999097741MD1999999-0131REMSYN076AAXX  24124 82583 32599 70909 10268 20220 39774 40112 875// 333 20220 59013;
0137825830999992010102418004-05167-040667FM-12+029999999V0201401N003110450019N0500001N1+03321+01851100541ADDGF105991041021008001031001MA1999999097211MD1999999-0271REMSYN070AAXX  24184 82583 32599 51406 10332 20185 39721 40054 84230 333 59027;
0232825830999992010102500004-05167-040667FM-12+029999999V0200901N001012200019N0040001N1+02881+02231100791ADDAA106000091AY121061AY251061GF104991041051008001001001KA1240M+03431MA1999999097451MD1999999-0281MW1031REMSYN100AAXX  25004 82583 21596 40902 10288 20223 39745 40079 70325 84500 333 10343 29063 55079 59028 69921;EQDQ01  00002PRCP06
0192825830999992010102512004-05167-040667FM-12+029999999V0200901N003110075019N0500001N1+02711+02151100971ADDAA124000091GF106991061021008001001001KA1240N+02401MA1999999097631MD1999999-0111REMSYN082AAXX  25124 82583 22599 60906 10271 20215 39763 40097 86200 333 20240 59011 69924;EQDQ01  00002PRCP24
0137825830999992010102518004-05167-040667FM-12+029999999V0202301N002110075019N0500001N1+03311+02001100461ADDGF105991051021008001001001MA1999999097141MD1999999-0071REMSYN070AAXX  25184 82583 32599 52304 10331 20200 39714 40046 85200 333 59007;
0168825830999992010102600004-05167-040667FM-12+029999999V0203601N002612200019N0040001N1+02931+02111100701ADDGF101991011001017501031001KA1240M+03501MA1999999097361MD1999999-0091REMSYN088AAXX  26004 82583 32796 13605 10293 20211 39736 40070 81030 333 10350 29060 55077 59009;
0156825830999992010102612004-05167-040667FM-12+029999999V0200901N003610450019N0500001N1+02811+02001101031ADDGF105991041011008001031001KA1240N+02381MA1999999097691MD1999999+0061REMSYN076AAXX  26124 82583 32599 50907 10281 20200 39769 40103 84130 333 20238 58006;
0137825830999992010102618004-05167-040667FM-12+029999999V0200501N001512200019N0500001N1+03301+01841100571ADDGF105991031011008001001011MA1999999097241MD1999999+0101REMSYN070AAXX  26184 82583 32599 50503 10330 20184 39724 40057 83101 333 58010;
0168825830999992010102700004-05167-040667FM-12+029999999V0202701N005712200019N0040001N1+02791+02031100861ADDGF104991041051008001001001KA1240M+03451MA1999999097521MD1999999+0161REMSYN088AAXX  27004 82583 32596 42711 10279 20203 39752 40086 84500 333 10345 29058 55080 58016;
0156825830999992010102712004-05167-040667FM-12+029999999V0200901N001012200019N0500001N1+02641+02091101011ADDGF103991011011008001001011KA1240N+02391MA1999999097651MD1999999-0041REMSYN076AAXX  27124 82583 32599 30902 10264 20209 39765 40101 81101 333 20239 59004;
0137825830999992010102718004-05167-040667FM-12+029999999V0200901N003112200019N0500001N1+03441+01801100471ADDGF103991021011008001031001MA1999999097151MD1999999-0091REMSYN070AAXX  27184 82583 32599 30906 10344 20180 39715 40047 82130 333 59009;
0168825830999992010102800004-05167-040667FM-12+029999999V0200901N001012200019N0040001N1+02941+02141100691ADDGF102991021011008001001001KA1240M+03531MA1999999097361MD1999999-0161REMSYN088AAXX  28004 82583 32596 20902 10294 20214 39736 40069 82100 333 10353 29059 55073 59016;
0156825830999992010102812004-05167-040667FM-12+029999999V0200901N004610075019N0500001N1+02701+02061101041ADDGF108991081051008001999999KA1240N+02501MA1999999097681MD1999999+0031REMSYN076AAXX  28124 82583 32599 80909 10270 20206 39768 40104 885// 333 20250 58003;
0137825830999992010102818004-05167-040667FM-12+029999999V0200901N004612200019N0500001N1+03321+01931100561ADDGF104991041021008001001001MA1999999097341MD1999999+0091REMSYN070AAXX  28184 82583 32599 40909 10332 20193 39734 40056 84200 333 58009;
0178825830999992010102900004-05167-040667FM-12+029999999V0200901N001012200019N0040001N1+02891+01811100781ADDGA1001+999999999GF100991001001999999001001KA1240M+03401MA1999999097441MD1999999+0081REMSYN082AAXX  29004 82583 32996 00902 10289 20181 39744 40078 333 10340 29054 55047 58008;
0156825830999992010102912004-05167-040667FM-12+029999999V0200901N003110120019N0500001N1+02671+02091101101ADDGF108991081081008001999999KA1240N+02361MA1999999097751MD1999999+0071REMSYN076AAXX  29124 82583 32599 80906 10267 20209 39775 40110 888// 333 20236 58007;
0137825830999992010102918004-05167-040667FM-12+029999999V0200901N004112200019N0500001N1+03391+01721100591ADDGF103991021011008001001011MA1999999097271MD1999999+0031REMSYN070AAXX  29184 82583 32599 30908 10339 20172 39727 40059 82101 333 58003;
0178825830999992010103000004-05167-040667FM-12+029999999V0200901N001512200019N0040001N1+02981+01921100841ADDGA1001+999999999GF100991001001999999001001KA1240M+03511MA1999999097501MD1999999+0061REMSYN082AAXX  30004 82583 32996 00903 10298 20192 39750 40084 333 10351 29053 55072 58006;
0156825830999992010103012004-05167-040667FM-12+029999999V0200901N004110075019N0500001N1+02711+02141101151ADDGF108991081051008001999999KA1240N+02481MA1999999097811MD1999999+0061REMSYN076AAXX  30124 82583 32599 80908 10271 20214 39781 40115 885// 333 20248 58006;
0137825830999992010103018004-05167-040667FM-12+029999999V0201401N004612200019N0500001N1+03451+01781100681ADDGF104991041011008001001001MA1999999097361MD1999999+0091REMSYN070AAXX  30184 82583 32599 41409 10345 20178 39736 40068 84100 333 58009;
0178825830999992010103100004-05167-040667FM-12+029999999V0200901N001512200019N0040001N1+02821+01771100971ADDGA1001+999999999GF100991001001999999001001KA1240M+03511MA1999999097621MD1999999+0121REMSYN082AAXX  31004 82583 32996 00903 10282 20177 39762 40097 333 10351 29053 55058 58012;
0156825830999992010103112004-05167-040667FM-12+029999999V0200901N005112200019N0500001N1+02871+01861101111ADDGF102991021011008001001001KA1240N+02291MA1999999097771MD1999999-0041REMSYN076AAXX  31124 82583 32599 20910 10287 20186 39777 40111 82100 333 20229 59004;
0137825830999992010103118004-05167-040667FM-12+029999999V0200901N004612200019N0500001N1+03531+01461100621ADDGF101991011011008001001001MA1999999097311MD1999999-0051REMSYN070AAXX  31184 82583 32599 10909 10353 20146 39731 40062 81100 333 59005;
0178825830999992010110100004-05167-040667FM-12+029999999V0201401N004112200019N0040001N1+02931+01401100921ADDGA1001+999999999GF100991001001999999001001KA1240M+03601MA1999999097591MD1999999-0031REMSYN082AAXX  01004 82583 32996 01408 10293 20140 39759 40092 333 10360 29040 55103 59003;
0156825830999992010110112004-05167-040667FM-12+029999999V0200901N005112200019N0500001N1+02911+01931101381ADDGF104991041011008001001001KA1240N+02331MA1999999098031MD1999999+0261REMSYN076AAXX  01124 82583 32599 40910 10291 20193 39803 40138 84100 333 20233 58026;
0137825830999992010110118004-05167-040667FM-12+029999999V0200901N004612200019N0500001N1+03451+01451100741ADDGF103991031011008001001001MA1999999097421MD1999999+0111REMSYN070AAXX  01184 82583 32599 30909 10345 20145 39742 40074 83100 333 58011;
0178825830999992010110200004-05167-040667FM-12+029999999V0200901N002612200019N0040001N1+02891+01621100971ADDGA1001+999999999GF100991001001999999001001KA1240M+03561MA1999999097641MD1999999+0051REMSYN082AAXX  02004 82583 32996 00905 10289 20162 39764 40097 333 10356 29044 55111 58005;
0156825830999992010110212004-05167-040667FM-12+029999999V0200901N003612200019N0500001N1+02891+01931101111ADDGF101991011011008001001001KA1240N+02361MA1999999097771MD1999999-0261REMSYN076AAXX  02124 82583 32599 10907 10289 20193 39777 40111 81100 333 20236 59026;
0137825830999992010110218004-05167-040667FM-12+029999999V0201401N002612200019N0500001N1+03611+01301100461ADDGF102991021011008001001001MA1999999097161MD1999999-0261REMSYN070AAXX  02184 82583 32599 21405 10361 20130 39716 40046 82100 333 59026;
0178825830999992010110300004-05167-040667FM-12+029999999V0201401N001512200019N0040001N1+03051+01831100641ADDGA1001+999999999GF100991001001999999001001KA1240M+03711MA1999999097321MD1999999-0321REMSYN082AAXX  03004 82583 32996 01403 10305 20183 39732 40064 333 10371 29044 55115 59032;
0156825830999992010110312004-05167-040667FM-12+029999999V0200501N003110075019N0500001N1+02701+01991101141ADDGF105991051011008001001001KA1240N+02441MA1999999097791MD1999999+0021REMSYN076AAXX  03124 82583 32599 50506 10270 20199 39779 40114 85100 333 20244 58002;
0137825830999992010110318004-05167-040667FM-12+029999999V0201801N002612200019N0500001N1+03551+01431100471ADDGF104991031011008001021001MA1999999097161MD1999999+0001REMSYN070AAXX  03184 82583 32599 41805 10355 20143 39716 40047 83120 333 58000;
0178825830999992010110400004-05167-040667FM-12+029999999V0200901N001012200019N0040001N1+03051+02021100811ADDGA1001+999999999GF100991001001999999001001KA1240M+03681MA1999999097481MD1999999+0111REMSYN082AAXX  04004 82583 32996 00902 10305 20202 39748 40081 333 10368 29052 55094 58011;
0156825830999992010110412004-05167-040667FM-12+029999999V0200901N005112200019N0500001N1+02791+02001101101ADDGF103991021011008001001011KA1240N+02401MA1999999097761MD1999999-0031REMSYN076AAXX  04124 82583 32599 30910 10279 20200 39776 40110 82101 333 20240 59003;
0137825830999992010110418004-05167-040667FM-12+029999999V0201401N007712200019N0500001N1+03611+01421100471ADDGF103991011011008001001011MA1999999097171MD1999999+0011REMSYN070AAXX  04184 82583 32599 31415 10361 20142 39717 40047 81101 333 58001;
0178825830999992010110500004-05167-040667FM-12+029999999V0200901N003112200019N0040001N1+03031+01281100921ADDGA1001+999999999GF100991001001999999001001KA1240M+03681MA1999999097481MD1999999+0001REMSYN082AAXX  05004 82583 32996 00906 10303 20128 39748 40092 333 10368 29039 55105 58000;
0156825830999992010110512004-05167-040667FM-12+029999999V0200901N008712200019N0500001N1+02931+01791101251ADDGF104991031011008001001021KA1240N+02421MA1999999097921MD1999999+0161REMSYN076AAXX  05124 82583 32599 40917 10293 20179 39792 40125 83102 333 20242 58016;
0137825830999992010110518004-05167-040667FM-12+029999999V0200901N004110450019N0500001N1+03491+01431100901ADDGF105991041011008001021011MA1999999097581MD1999999+0211REMSYN070AAXX  05184 82583 32599 50908 10349 20143 39758 40090 84121 333 58021;
0178825830999992010110600004-05167-040667FM-12+029999999V0200901N002112200019N0040001N1+02951+01611100931ADDGA1001+999999999GF100991001001999999001001KA1240M+03591MA1999999097611MD1999999+0131REMSYN082AAXX  06004 82583 32996 00904 10295 20161 39761 40093 333 10359 29042 55104 58013;
0156825830999992010110612004-05167-040667FM-12+029999999V0200501N002110075019N0500001N1+02761+02041101181ADDGF106991061011008001001001KA1240N+02391MA1999999097841MD1999999-0081REMSYN076AAXX  06124 82583 32599 60504 10276 20204 39784 40118 86100 333 20239 59008;
0137825830999992010110618004-05167-040667FM-12+029999999V0200901N004612200019N0500001N1+03571+01551100611ADDGF104991041011008001001011MA1999999097311MD1999999-0071REMSYN070AAXX  06184 82583 32599 40909 10357 20155 39731 40061 84101 333 59007;
0197825830999992010110700004-05167-040667FM-12+029999999V0200901N001012200019N0040001N1+03951+01641100841ADDGA1001+999999999GF100991001001999999001001KA1240M+99999MA1999999097501MD1999999-0111REMSYN082AAXX  07004 82583 32996 00902 10395 20164 39750 40084 333 10363 29046 55096 59011;EQDQ01 +03632ATMX  
0156825830999992010110712004-05167-040667FM-12+029999999V0200901N004612200019N0500001N1+02971+01011101071ADDGF102991021011008001001011KA1240N+02451MA1999999097741MD1999999-0101REMSYN076AAXX  07124 82583 32599 20909 10297 20101 39774 40107 82101 333 20245 59010;
0137825830999992010110718004-05167-040667FM-12+029999999V0200901N004612200019N0500001N1+03611+01641100611ADDGF104991041011008001001011MA1999999097301MD1999999-0011REMSYN070AAXX  07184 82583 32599 40909 10361 20164 39730 40061 84101 333 59001;
0178825830999992010110800004-05167-040667FM-12+029999999V0200901N002112200019N0040001N1+03071+01781100881ADDGA1001+999999999GF100991001001999999001001KA1240M+03681MA1999999097561MD1999999+0061REMSYN082AAXX  08004 82583 32996 00904 10307 20178 39756 40088 333 10368 29045 55109 58006;
0156825830999992010110812004-05167-040667FM-12+029999999V0200901N005712200019N0500001N1+02931+01911101001ADDGF102991011011008001001011KA1240N+02491MA1999999097681MD1999999-0061REMSYN076AAXX  08124 82583 32599 20911 10293 20191 39768 40100 81101 333 20249 59006;
0137825830999992010110818004-05167-040667FM-12+029999999V0200901N004612200019N0500001N1+03641+01381100451ADDGF103991011011008001031001MA1999999097171MD1999999-0131REMSYN070AAXX  08184 82583 32599 30909 10364 20138 39717 40045 81130 333 59013;
0168825830999992010110900004-05167-040667FM-12+029999999V0201401N002612200019N0040001N1+03041+01531100701ADDGF101991011011008001001001KA1240M+03741MA1999999097381MD1999999-0181REMSYN088AAXX  09004 82583 32596 11405 10304 20153 39738 40070 81100 333 10374 29040 55111 59018;
0156825830999992010110912004-05167-040667FM-12+029999999V0200901N006212200019N0500001N1+02971+01511100951ADDGF102991021001008001001011KA1240N+02431MA1999999097631MD1999999-0051REMSYN076AAXX  09124 82583 32599 20912 10297 20151 39763 40095 82001 333 20243 59005;
0137825830999992010110918004-05167-040667FM-12+029999999V0201401N006212200019N0500001N1+03541+01301100371ADDGF102991021001008001001011MA1999999097081MD1999999-0091REMSYN070AAXX  09184 82583 32599 21412 10354 20130 39708 40037 82001 333 59009;
0178825830999992010111000004-05167-040667FM-12+029999999V0200901N002612200019N0040001N1+02891+01361100751ADDGA1001+999999999GF100991001001999999001001KA1240M+03641MA1999999097431MD1999999+0051REMSYN082AAXX  10004 82583 32996 00905 10289 20136 39743 40075 333 10364 29036 55113 58005;
0156825830999992010111012004-05167-040667FM-12+029999999V0201401N005112200019N0500001N1+02911+01801101021ADDGF101991011011008001001001KA1240N+02351MA1999999097681MD1999999+0051REMSYN076AAXX  10124 82583 32599 11410 10291 20180 39768 40102 81100 333 20235 58005;
0137825830999992010111018004-05167-040667FM-12+029999999V0200901N003612200019N0500001N1+03531+01411100571ADDGF103991021011008001001011MA1999999097251MD1999999+0171REMSYN070AAXX  10184 82583 32599 30907 10353 20141 39725 40057 82101 333 58017;
0168825830999992010111100004-05167-040667FM-12+029999999V0200901N003112200019N0040001N1+03051+01381100801ADDGF101991011011008001001001KA1240M+03611MA1999999097481MD1999999+0051REMSYN088AAXX  11004 82583 32596 10906 10305 20138 39748 40080 81100 333 10361 29038 55108 58005;
0156825830999992010111112004-05167-040667FM-12+029999999V0200901N004610075019N0500001N1+02861+01921101151ADDGF106991051011008001031001KA1240N+02381MA1999999097811MD1999999+0131REMSYN076AAXX  11124 82583 32599 60909 10286 20192 39781 40115 85130 333 20238 58013;
0137825830999992010111118004-05167-040667FM-12+029999999V0200901N004612200019N0500001N1+03501+01531100721ADDGF104991041011008001001001MA1999999097401MD1999999+0151REMSYN070AAXX  11184 82583 32599 40909 10350 20153 39740 40072 84100 333 58015;
0178825830999992010111200004-05167-040667FM-12+029999999V0200901N002112200019N0040001N1+03001+01641100961ADDGA1001+999999999GF100991001001999999001001KA1240M+03561MA1999999097641MD1999999+0161REMSYN082AAXX  12004 82583 32996 00904 10300 20164 39764 40096 333 10356 29044 55084 58016;
0156825830999992010111212004-05167-040667FM-12+029999999V0200901N005110075019N0500001N1+02911+01921101201ADDGF105991051011008001001001KA1240N+02481MA1999999097861MD1999999+0051REMSYN076AAXX  12124 82583 32599 50910 10291 20192 39786 40120 85100 333 20248 58005;
0137825830999992010111218004-05167-040667FM-12+029999999V0200901N003610075019N0500001N1+03481+01841100621ADDGF105991051011008001001001MA1999999097311MD1999999-0091REMSYN070AAXX  12184 82583 32599 50907 10348 20184 39731 40062 85100 333 59009;
0156825830999992010111312004-05167-040667FM-12+029999999V0200901N005112200019N0500001N1+02941+02051101111ADDGF103991031011008001001001KA1240N+02531MA1999999097781MD1999999-0081REMSYN076AAXX  13124 82583 32599 30910 10294 20205 39778 40111 83100 333 20253 59008;
0137825830999992010111318004-05167-040667FM-12+029999999V0201401N001012200019N0500001N1+03581+01551100491ADDGF104991041011008001001001MA1999999097211MD1999999-0101REMSYN070AAXX  13184 82583 32599 41402 10358 20155 39721 40049 84100 333 59010;
0168825830999992010111400004-05167-040667FM-12+029999999V0200901N002612200019N0040001N1+02981+01271100721ADDGF101991011001017501001011KA1240M+03691MA1999999097401MD1999999-0071REMSYN088AAXX  14004 82583 32796 10905 10298 20127 39740 40072 81001 333 10369 29040 55093 59007;
0156825830999992010111412004-05167-040667FM-12+029999999V0200901N004110075019N0500001N1+02861+01901100981ADDGF108991081051008001999999KA1240N+02391MA1999999097651MD1999999-0131REMSYN076AAXX  14124 82583 32599 80908 10286 20190 39765 40098 885// 333 20239 59013;
0137825830999992010111418004-05167-040667FM-12+029999999V0203201N000510075019N0500001N1+03371+01871100541ADDGF108991081051008001999999MA1999999097221MD1999999+0011REMSYN070AAXX  14184 82583 32599 83201 10337 20187 39722 40054 885// 333 58001;
0168825830999992010111500004-05167-040667FM-12+029999999V0200901N001512200019N0040001N1+03071+01481100791ADDGF103991031051008001001001KA1240M+03501MA1999999097471MD1999999+0071REMSYN088AAXX  15004 82583 32596 30903 10307 20148 39747 40079 83500 333 10350 29043 55050 58007;
0156825830999992010111512004-05167-040667FM-12+029999999V0200901N001512200019N0500001N1+02811+01941101151ADDGF104991041051008001001001KA1240N+02471MA1999999097811MD1999999+0161REMSYN076AAXX  15124 82583 32599 40903 10281 20194 39781 40115 84500 333 20247 58016;
0137825830999992010111518004-05167-040667FM-12+029999999V0203201N000510450019N0500001N1+03251+02081100721ADDGF106991041011008001021021MA1999999097401MD1999999+0181REMSYN070AAXX  15184 82583 32599 63201 10325 20208 39740 40072 84122 333 58018;
0168825830999992010111600004-05167-040667FM-12+029999999V0203601N001012200019N0040001N1+02971+02171100911ADDGF103991031011008001001001KA1240M+03331MA1999999097581MD1999999+0111REMSYN088AAXX  16004 82583 32596 33602 10297 20217 39758 40091 83100 333 10333 29058 55017 58011;
0156825830999992010111612004-05167-040667FM-12+029999999V0200901N003610075019N0500001N1+02771+02051101201ADDGF106991061021008001001001KA1240N+02481MA1999999097861MD1999999+0051REMSYN076AAXX  16124 82583 32599 60907 10277 20205 39786 40120 86200 333 20248 58005;
0137825830999992010111618004-05167-040667FM-12+029999999V0200901N003112200019N0500001N1+03361+01891100701ADDGF103991031021008001001001MA1999999097371MD1999999-0031REMSYN070AAXX  16184 82583 32599 30906 10336 20189 39737 40070 83200 333 59003;
0178825830999992010111700004-05167-040667FM-12+029999999V0203601N001512200019N0040001N1+02981+01951100831ADDGA1001+999999999GF100991001001999999001001KA1240M+03511MA1999999097501MD1999999-0081REMSYN082AAXX  17004 82583 32996 03603 10298 20195 39750 40083 333 10351 29053 55056 59008;
0156825830999992010111712004-05167-040667FM-12+029999999V0200901N005110075019N0500001N1+02811+02051101151ADDGF106991061011008001001001KA1240N+02451MA1999999097811MD1999999-0051REMSYN076AAXX  17124 82583 32599 60910 10281 20205 39781 40115 86100 333 20245 59005;
0137825830999992010111718004-05167-040667FM-12+029999999V0200901N004110075019N0500001N1+03401+01891100571ADDGF105991051011008001001001MA1999999097251MD1999999-0121REMSYN070AAXX  17184 82583 32599 50908 10340 20189 39725 40057 85100 333 59012;
0178825830999992010111800004-05167-040667FM-12+029999999V0201801N001512200019N0040001N1+02891+01871100741ADDGA1001+999999999GF100991001001999999001001KA1240M+03511MA1999999097401MD1999999-0101REMSYN082AAXX  18004 82583 32996 01803 10289 20187 39740 40074 333 10351 29053 55077 59010;
0156825830999992010111812004-05167-040667FM-12+029999999V0200901N004610075019N0500001N1+02721+02001100991ADDGF106991051021008001001011KA1240N+02341MA1999999097651MD1999999-0161REMSYN076AAXX  18124 82583 32599 60909 10272 20200 39765 40099 85201 333 20234 59016;
0137825830999992010111818004-05167-040667FM-12+029999999V0201401N003112200019N0500001N1+03511+01831100391ADDGF103991031021008001001021MA1999999097081MD1999999-0171REMSYN070AAXX  18184 82583 32599 31406 10351 20183 39708 40039 83202 333 59017;
0178825830999992010111900004-05167-040667FM-12+029999999V0200901N002612200019N0040001N1+03111+01521100571ADDGA1001+999999999GF100991001001999999001001KA1240M+03651MA1999999097251MD1999999-0151REMSYN082AAXX  19004 82583 32996 00905 10311 20152 39725 40057 333 10365 29044 55099 59015;
0156825830999992010111912004-05167-040667FM-12+029999999V0200901N004610075019N0500001N1+02901+01901100951ADDGF105991051011008001001011KA1240N+02281MA1999999097631MD1999999-0021REMSYN076AAXX  19124 82583 32599 50909 10290 20190 39763 40095 85101 333 20228 59002;
0137825830999992010111918004-05167-040667FM-12+029999999V0201401N004612200019N0500001N1+03491+01861100451ADDGF103991021011008001001011MA1999999097151MD1999999+0081REMSYN070AAXX  19184 82583 32599 31409 10349 20186 39715 40045 82101 333 58008;
0168825830999992010112000004-05167-040667FM-12+029999999V0200901N001512200019N0040001N1+03131+01771100711ADDGF102991021011008001001001KA1240M+03571MA1999999097391MD1999999+0141REMSYN088AAXX  20004 82583 32596 20903 10313 20177 39739 40071 82100 333 10357 29046 55109 58014;
0201825830999992010112012004-05167-040667FM-12+029999999V0200901N003610120019N0500001N1+02771+02011101171ADDAA124000391AY161061AY261061GF107991071081008001001001KA1240N+02491MA1999999097831MD1999999+0201MW1021REMSYN088AAXX  20124 82583 21599 70907 10277 20201 39783 40117 70266 87800 333 20249 58020 69934;
0137825830999992010112018004-05167-040667FM-12+029999999V0200901N002612200019N0500001N1+03361+01931100691ADDGF103991031021008001001001MA1999999097371MD1999999+0221REMSYN070AAXX  20184 82583 32599 30905 10336 20193 39737 40069 83200 333 58022;
0178825830999992010112100004-05167-040667FM-12+029999999V0200501N002112200019N0040001N1+02981+01861100691ADDGA1001+999999999GF100991001001999999001001KA1240M+03461MA1999999097361MD1999999-0031REMSYN082AAXX  21004 82583 32996 00504 10298 20186 39736 40069 333 10346 29052 55064 59003;
0156825830999992010112112004-05167-040667FM-12+029999999V0200901N005710075019N0500001N1+02901+01901101061ADDGF105991051011008001001001KA1240N+02371MA1999999097731MD1999999-0101REMSYN076AAXX  21124 82583 32599 50911 10290 20190 39773 40106 85100 333 20237 59010;
0137825830999992010112118004-05167-040667FM-12+029999999V0200901N003612200019N0500001N1+03531+01621100521ADDGF104991041011008001001001MA1999999097211MD1999999-0161REMSYN070AAXX  21184 82583 32599 40907 10353 20162 39721 40052 84100 333 59016;
0168825830999992010112200004-05167-040667FM-12+029999999V0200901N002112200019N0040001N1+02991+01571100641ADDGF101991011011008001001001KA1240M+03611MA1999999097321MD1999999-0041REMSYN088AAXX  22004 82583 32596 10904 10299 20157 39732 40064 81100 333 10361 29043 55097 59004;
0156825830999992010112212004-05167-040667FM-12+029999999V0200901N003112200019N0500001N1+02751+01911100931ADDGF104991041011008001001001KA1240N+02381MA1999999097591MD1999999-0181REMSYN076AAXX  22124 82583 32599 40906 10275 20191 39759 40093 84100 333 20238 59018;
0137825830999992010112218004-05167-040667FM-12+029999999V0203201N001510075019N0500001N1+03501+01861100391ADDGF105991051021008001001001MA1999999097801MD1999999-0131REMSYN070AAXX  22184 82583 32599 53203 10350 20186 39780 40039 85200 333 59013;
0168825830999992010112300004-05167-040667FM-12+029999999V0200901N001512200019N0500001N1+03051+01551100501ADDGF103991031011008001001001KA1240M+03571MA1999999097181MD1999999-0141REMSYN088AAXX  23004 82583 32599 30903 10305 20155 39718 40050 83100 333 10357 29044 55098 59014;
0156825830999992010112312004-05167-040667FM-12+029999999V0200901N005112200019N0500001N1+02831+01671100801ADDGF101991011011008001001001KA1240N+02311MA1999999097481MD1999999-0111REMSYN076AAXX  23124 82583 32599 10910 10283 20167 39748 40080 81100 333 20231 59011;
0137825830999992010112318004-05167-040667FM-12+029999999V0201401N002110075019N0500001N1+03421+01741100981ADDGF106991061011008001001001MA1999999096971MD1999999-0111REMSYN070AAXX  23184 82583 32599 61404 10342 20174 39697 40098 86100 333 59011;
0168825830999992010112400004-05167-040667FM-12+029999999V0200501N001512200019N0040001N1+03081+01851100441ADDGF101991011011008001001001KA1240M+03521MA1999999097131MD1999999-0051REMSYN088AAXX  24004 82583 32596 10503 10308 20185 39713 40044 81100 333 10352 29046 55091 59005;
0156825830999992010112412004-05167-040667FM-12+029999999V0200901N005110075019N0500001N1+02831+01991100861ADDGF106991051021008001031001KA1240N+02391MA1999999097541MD1999999+0061REMSYN076AAXX  24124 82583 32599 60910 10283 20199 39754 40086 85230 333 20239 58006;
0137825830999992010112418004-05167-040667FM-12+029999999V0200901N002112200019N0500001N1+03481+01791100391ADDGF104991041011008001001001MA1999999097081MD1999999+0111REMSYN070AAXX  24184 82583 32599 40904 10348 20179 39708 40039 84100 333 58011;
0232825830999992010112500004-05167-040667FM-12+029999999V0203601N002610075019N0040001N1+02841+02071100691ADDAA106000091AY161061AY261061GF105991051051008001001001KA1240M+03571MA1999999097351MD1999999+0221MW1021REMSYN100AAXX  25004 82583 21596 53605 10284 20207 39735 40069 70266 85500 333 10357 29056 55076 58022 69911;EQDQ01  00002PRCP06
0192825830999992010112512004-05167-040667FM-12+029999999V0200901N002612200019N0500001N1+02821+01981101011ADDAA124000091GF104991041011008001001001KA1240N+02431MA1999999097671MD1999999+0131REMSYN082AAXX  25124 82583 22599 40905 10282 20198 39767 40101 84100 333 20243 58013 69914;EQDQ01  00002PRCP24
0137825830999992010112518004-05167-040667FM-12+029999999V0200901N003612200019N0500001N1+03531+01851100491ADDGF104991031021008001001011MA1999999097181MD1999999+0101REMSYN070AAXX  25184 82583 32599 40907 10353 20185 39718 40049 83201 333 58010;
0168825830999992010112600004-05167-040667FM-12+029999999V0200901N003112200019N0040001N1+03081+01641100701ADDGF101991011011008001001001KA1240M+03651MA1999999097381MD1999999+0031REMSYN088AAXX  26004 82583 32596 10906 10308 20164 39738 40070 81100 333 10365 29044 55103 58003;
0156825830999992010112612004-05167-040667FM-12+029999999V0200901N005112200019N0500001N1+02831+01881101001ADDGF104991041011008001001001KA1240N+02391MA1999999097671MD1999999+0001REMSYN076AAXX  26124 82583 32599 40910 10283 20188 39767 40100 84100 333 20239 58000;
0137825830999992010112618004-05167-040667FM-12+029999999V0200901N002112200019N0500001N1+03511+01741100441ADDGF102991021011008001001001MA1999999097831MD1999999-0051REMSYN070AAXX  26184 82583 32599 20904 10351 20174 39783 40044 82100 333 59005;
0178825830999992010112700004-05167-040667FM-12+029999999V0200901N003112200019N0040001N1+03141+01581100521ADDGA1001+999999999GF100991001001999999001001KA1240M+03651MA1999999097211MD1999999-0131REMSYN082AAXX  27004 82583 32996 00906 10314 20158 39721 40052 333 10365 29042 55106 59013;
0156825830999992010112712004-05167-040667FM-12+029999999V0200901N004610075019N0500001N1+02771+02011101111ADDGF108991081051008001999999KA1240N+02411MA1999999097771MD1999999+0101REMSYN076AAXX  27124 82583 32599 80909 10277 20201 39777 40111 885// 333 20241 58010;
0137825830999992010112718004-05167-040667FM-12+029999999V0200901N002612200019N0500001N1+03561+01731100441ADDGF104991041011008001001001MA1999999097141MD1999999+0051REMSYN070AAXX  27184 82583 32599 40905 10356 20173 39714 40044 84100 333 58005;
0178825830999992010112800004-05167-040667FM-12+029999999V0200901N002112200019N0040001N1+03101+01801100601ADDGA1001+999999999GF100991001001999999001001KA1240M+03641MA1999999097281MD1999999+0071REMSYN082AAXX  28004 82583 32996 00904 10310 20180 39728 40060 333 10364 29047 55063 58007;
0156825830999992010112812004-05167-040667FM-12+029999999V0200501N002110075019N0500001N1+02711+02121100941ADDGF106991061051008001001001KA1240N+02411MA1999999097611MD1999999-0161REMSYN076AAXX  28124 82583 32599 60504 10271 20212 39761 40094 86500 333 20241 59016;
0137825830999992010112818004-05167-040667FM-12+029999999V0200501N002110075019N0500001N1+03471+01711101011ADDGF107991071051008001999999MA1999999097171MD1999999+0031REMSYN070AAXX  28184 82583 32599 70504 10347 20171 39717 40101 875// 333 58003;
0168825830999992010112900004-05167-040667FM-12+029999999V0203601N003112200019N0500001N1+03051+01931100751ADDGF101991011011008001001001KA1240M+03571MA1999999097421MD1999999+0141REMSYN088AAXX  29004 82583 32599 13606 10305 20193 39742 40075 81100 333 10357 29052 55062 58014;
0156825830999992010112912004-05167-040667FM-12+029999999V0200901N004610450019N0500001N1+02801+01981101111ADDGF105991041011008001031011KA1240N+02501MA1999999097771MD1999999+0161REMSYN076AAXX  29124 82583 32599 50909 10280 20198 39777 40111 84131 333 20250 58016;
0137825830999992010112918004-05167-040667FM-12+029999999V0200901N002112200019N0500001N1+03511+01741100611ADDGF104991031011008001021001MA1999999097301MD1999999+0131REMSYN070AAXX  29184 82583 32599 40904 10351 20174 39730 40061 83120 333 58013;
0178825830999992010113000004-05167-040667FM-12+029999999V0200901N002112200019N0040001N1+03011+01731100861ADDGA1001+999999999GF100991001001999999001001KA1240M+03561MA1999999097561MD1999999+0111REMSYN082AAXX  30004 82583 32996 00904 10301 20173 39756 40086 333 10356 29047 55067 58011;
0156825830999992010113012004-05167-040667FM-12+029999999V0200901N006710075019N0500001N1+02691+01941101031ADDGF107991071051008001999999KA1240N+02401MA1999999097691MD1999999-0081REMSYN076AAXX  30124 82583 32599 70913 10269 20194 39769 40103 875// 333 20240 59008;
0137825830999992010113018004-05167-040667FM-12+029999999V0200501N001512200019N0500001N1+03521+01601100521ADDGF103991031011008001001001MA1999999097211MD1999999-0091REMSYN070AAXX  30184 82583 32599 30503 10352 20160 39721 40052 83100 333 59009;
0178825830999992010120100004-05167-040667FM-12+029999999V0200901N002112200019N0040001N1+02991+01241100691ADDGA1001+999999999GF100991001001999999001001KA1240M+03621MA1999999097371MD1999999-0161REMSYN082AAXX  01004 82583 32996 00904 10299 20124 39737 40069 333 10362 29041 55076 59016;
0156825830999992010120112004-05167-040667FM-12+029999999V0200901N006712200019N0500001N1+02931+01511100941ADDGF102991021011008001001001KA1240N+02411MA1999999097621MD1999999-0071REMSYN076AAXX  01124 82583 32599 20913 10293 20151 39762 40094 82100 333 20241 59007;
0178825830999992010120200004-05167-040667FM-12+029999999V0200901N000512200019N0040001N1+02931+01611100731ADDGA1001+999999999GF100991001001999999001001KA1240M+03631MA1999999097411MD1999999+0041REMSYN082AAXX  02004 82583 32996 00901 10293 20161 39741 40073 333 10363 29/// 55116 58004;
0156825830999992010120212004-05167-040667FM-12+029999999V0200901N005712200019N0500001N1+02941+01721101021ADDGF103991021011008001031011KA1240N+02511MA1999999097691MD1999999+0071REMSYN076AAXX  02124 82583 32599 30911 10294 20172 39769 40102 82131 333 20251 58007;
0168825830999992010120300004-05167-040667FM-12+029999999V0200901N001512200019N0040001N1+02931+01761100921ADDGF101991011011008001001001KA1240M+03481MA1999999097601MD1999999+0191REMSYN088AAXX  03004 82583 32596 10903 10293 20176 39760 40092 81100 333 10348 29/// 55072 58019;
0156825830999992010120312004-05167-040667FM-12+029999999V0200901N003612200019N0500001N1+02961+02021100931ADDGF105991041011008001001011KA1240N+02371MA1999999097611MD1999999-0081REMSYN076AAXX  03124 82583 32599 50907 10296 20202 39761 40093 84101 333 20237 59008;
0178825830999992010120400004-05167-040667FM-12+029999999V0200901N001012200019N0040001N1+03081+01781100711ADDGA1001+999999999GF100991001001999999001001KA1240M+03621MA1999999097391MD1999999-0211REMSYN082AAXX  04004 82583 32996 00902 10308 20178 39739 40071 333 10362 29/// 55092 59021;
0156825830999992010120412004-05167-040667FM-12+029999999V0200901N002610075019N0500001N1+02731+02051101051ADDGF106991061021008001001001KA1240N+02541MA1999999097711MD1999999+0101REMSYN076AAXX  04124 82583 32599 60905 10273 20205 39771 40105 86200 333 20254 58010;
0178825830999992010120500004-05167-040667FM-12+029999999V0200901N002612200019N0040001N1+03111+01791100721ADDGA1001+999999999GF100991001001999999001001KA1240M+03621MA1999999097391MD1999999+0001REMSYN082AAXX  05004 82583 32996 00905 10311 20179 39739 40072 333 10362 29048 55086 58000;
0156825830999992010120512004-05167-040667FM-12+029999999V0200901N003610075019N0500001N1+02821+02001101151ADDGF106991061011008001001001KA1240N+02481MA1999999097811MD1999999+0101REMSYN076AAXX  05124 82583 32599 60907 10282 20200 39781 40115 86100 333 20248 58010;
0168825830999992010120600004-05167-040667FM-12+029999999V0200501N001012200019N0040001N1+03071+01751100751ADDGF101991011001017501001011KA1240M+03621MA1999999097431MD1999999+0041REMSYN088AAXX  06004 82583 32796 10502 10307 20175 39743 40075 81001 333 10362 29050 55055 58004;
0156825830999992010120612004-05167-040667FM-12+029999999V0200901N003610075019N0500001N1+02751+02071101161ADDGF107991071051008001999999KA1240N+02461MA1999999097821MD1999999+0011REMSYN076AAXX  06124 82583 32599 70907 10275 20207 39782 40116 875// 333 20246 58001;
0178825830999992010120700004-05167-040667FM-12+029999999V0200901N001512200019N0040001N1+03011+01991100781ADDGA1001+999999999GF100991001001999999001001KA1240M+03621MA1999999097451MD1999999+0021REMSYN082AAXX  07004 82583 32996 00903 10301 20199 39745 40078 333 10362 29053 55060 58002;
0156825830999992010120712004-05167-040667FM-12+029999999V0200501N000510450019N0500001N1+02651+02111101041ADDGF105991041011008001031001KA1240N+02471MA1999999097701MD1999999-0121REMSYN076AAXX  07124 82583 32599 50501 10265 20211 39770 40104 84130 333 20247 59012;
0178825830999992010120800004-05167-040667FM-12+029999999V0200501N002112200019N0040001N1+03061+01931100651ADDGA1001+999999999GF100991001001999999001001KA1240M+03471MA1999999097331MD1999999-0121REMSYN082AAXX  08004 82583 32996 00504 10306 20193 39733 40065 333 10347 29055 55050 59012;
0156825830999992010120812004-05167-040667FM-12+029999999V0200901N002610075019N0500001N1+02691+02081100971ADDGF106991061011008001001001KA1240N+02451MA1999999097641MD1999999-0061REMSYN076AAXX  08124 82583 32599 60905 10269 20208 39764 40097 86100 333 20245 59006;
0168825830999992010120900004-05167-040667FM-12+029999999V0203601N004612200019N0040001N1+03011+02041100611ADDGF103991031051008001001001KA1240M+03371MA1999999097291MD1999999-0041REMSYN088AAXX  09004 82583 32596 33609 10301 20204 39729 40061 83500 333 10337 29056 55033 59004;
0201825830999992010120912004-05167-040667FM-12+029999999V0200501N004110075019N0500001N1+02691+02081100931ADDAA124000891AY161061AY261061GF107991061071008001031999KA1240N+02381MA1999999097591MD1999999-0051MW1031REMSYN088AAXX  09124 82583 21599 70508 10269 20208 39759 40093 70366 8673/ 333 20238 59005 69984;
0213825830999992010121000004-05167-040667FM-12+029999999V0202301N004612200019N0040001N1+02611+02161100851ADDAA106000591AY111061AY251061GF104991041071008001001001KA1240M+03291MA1999999097491MD1999999+0201MW1501REMSYN100AAXX  10004 82583 21596 42309 10261 20216 39749 40085 75015 84700 333 10329 29066 55007 58020 69941;
0173825830999992010121012004-05167-040667FM-12+029999999V0200901N004110450019N0500001N1+02861+02021100971ADDAA124000591GF105991041011008001031011KA1240N+02361MA1999999097621MD1999999+0031REMSYN082AAXX  10124 82583 22599 50908 10286 20202 39762 40097 84131 333 20236 58003 69944;
0168825830999992010121100004-05167-040667FM-12+029999999V0203601N002612200019N0040001N1+02811+02151100841ADDGF104991041071008001001001KA1240M+03471MA1999999097501MD1999999+0011REMSYN088AAXX  11004 82583 32596 43605 10281 20215 39750 40084 84700 333 10347 29058 55054 58001;
0201825830999992010121112004-05167-040667FM-12+029999999V0200901N002610075019N0500001N1+02491+02321101001ADDAA124015091AY161061AY261061GF106991051051008001031001KA1240N+02281MA1999999097641MD1999999+0021MW1031REMSYN088AAXX  11124 82583 21599 60905 10249 20232 39764 40100 70366 85530 333 20228 58002 60154;
0168825830999992010121200004-05167-040667FM-12+029999999V0201801N001512200019N0040001N1+02781+02321100771ADDGF104991041051008001001001KA1240M+03151MA1999999097451MD1999999-0091REMSYN088AAXX  12004 82583 32596 41803 10278 20232 39745 40077 84500 333 10315 29073 55034 59009;
0156825830999992010121212004-05167-040667FM-12+029999999V0200501N002610075019N0500001N1+02661+02221100821ADDGF106991061051008001001001KA1240N+02381MA1999999097471MD1999999-0171REMSYN076AAXX  12124 82583 32599 60505 10266 20222 39747 40082 86500 333 20238 59017;
0168825830999992010121300004-05167-040667FM-12+029999999V0203201N001010120019N0040001N1+02441+02231100691ADDGF105991051081008001001001KA1240M+03131MA1999999097331MD1999999-0081REMSYN088AAXX  13004 82583 32596 53202 10244 20223 39733 40069 85800 333 10313 29076 55002 59008;
0201825830999992010121312004-05167-040667FM-12+029999999V0203601N001010075019N0500001N1+02361+02191100731ADDAA124051191AY161061AY261061GF108991081051008001999999KA1240N+02141MA1999999097391MD1999999-0081MW1031REMSYN088AAXX  13124 82583 21599 83602 10236 20219 39739 40073 70366 885// 333 20214 59008 60514;
0213825830999992010121400004-05167-040667FM-12+029999999V0200901N002110075019N0040001N1+02431+02191100751ADDAA106000021AY151061AY251061GF108991081051008001999999KA1240M+03061MA1999999097371MD1999999+0041MW1601REMSYN100AAXX  14004 82583 21596 80904 10243 20219 39737 40075 76055 885// 333 10306 29080 55018 58004 69921;
0201825830999992010121412004-05167-040667FM-12+029999999V0201801N000510075019N0500001N1+02471+02231100871ADDAA124000591AY161061AY261061GF106991061051008001001001KA1240N+02241MA1999999097491MD1999999+0101MW1031REMSYN088AAXX  14124 82583 21599 61801 10247 20223 39749 40087 70366 86500 333 20224 58010 69954;
0168825830999992010121500004-05167-040667FM-12+029999999V0202301N002110075019N0040001N1+02581+02121100761ADDGF108991081051008001999999KA1240M+03191MA1999999097391MD1999999+0021REMSYN088AAXX  15004 82583 32596 82304 10258 20212 39739 40076 885// 333 10319 29070 55024 58002;
0156825830999992010121512004-05167-040667FM-12+029999999V0202701N001010075019N0500001N1+02501+02271101031ADDGF108991081051008001999999KA1240N+02341MA1999999097651MD1999999+0161REMSYN076AAXX  15124 82583 32599 82702 10250 20227 39765 40103 885// 333 20234 58016;
0213825830999992010121600004-05167-040667FM-12+029999999V0201801N001510450019N0040001N1+02371+02281100871ADDAA106002091AY161061AY261061GF105991041051008001031001KA1240M+03651MA1999999097491MD1999999+0101MW1031REMSYN100AAXX  16004 82583 21596 51803 10237 20228 39749 40087 70366 84530 333 10365 29089 55000 58010 60021;
0173825830999992010121612004-05167-040667FM-12+029999999V0200901N006710450019N0500001N1+02651+02041101171ADDAA124002091GF105991041011008001051011KA1240N+02231MA1999999097791MD1999999+0141REMSYN082AAXX  16124 82583 22599 50913 10265 20204 39779 40117 84151 333 20223 58014 60024;
0168825830999992010121700004-05167-040667FM-12+029999999V0200501N002610075019N0040001N1+02811+02071100921ADDGF106991061051008001001001KA1240M+03341MA1999999097571MD1999999+0081REMSYN088AAXX  17004 82583 32596 60505 10281 20207 39757 40092 86500 333 10334 29058 55061 58008;
0220825830999992010121712004-05167-040667FM-12+029999999V0200901N004110075019N0500001N1+02701+02131100941ADDAA124000091AY121061AY221061GF106991051011008001061011KA1240N+02371MA1999999097591MD1999999-0201MW1031REMSYN088AAXX  17124 82583 21599 60908 10270 20213 39759 40094 70322 85161 333 20237 59020 69914;EQDQ01  00002PRCP24
0213825830999992010121800004-05167-040667FM-12+029999999V0201801N001010075019N0040001N1+02501+02291100891ADDAA106000591AY121061AY251061GF108991081071008001999999KA1240M+03281MA1999999097531MD1999999-0041MW1601REMSYN100AAXX  18004 82583 21596 81802 10250 20229 39753 40089 76025 887// 333 10328 29073 55035 59004 69951;
0201825830999992010121812004-05167-040667FM-12+029999999V0201801N001510075019N0500001N1+02281+02181101131ADDAA124037191AY161061AY261061GF108991081051008001999999KA1240N+02121MA1999999097741MD1999999+0151MW1501REMSYN088AAXX  18124 82583 21599 81803 10228 20218 39774 40113 75066 885// 333 20212 58015 60374;
0168825830999992010121900004-05167-040667FM-12+029999999V0201801N000510450019N0040001N1+02451+02281100791ADDGF105991041011008001031001KA1240M+02841MA1999999097391MD1999999-0141REMSYN088AAXX  19004 82583 32596 51801 10245 20228 39739 40079 84130 333 10284 29083 55000 59014;
0156825830999992010121912004-05167-040667FM-12+029999999V0201401N003110075019N0500001N1+02441+02171101031ADDGF106991051051008001061001KA1240N+02261MA1999999097651MD1999999-0091REMSYN076AAXX  19124 82583 32599 61406 10244 20217 39765 40103 85560 333 20226 59009;
0213825830999992010122000004-05167-040667FM-12+029999999V0203601N002110075019N0040001N1+02461+02171101021ADDAA106000391AY151061AY251061GF108991081051008001999999KA1240M+03021MA1999999097641MD1999999+0251MW1021REMSYN100AAXX  20004 82583 21596 83604 10246 20217 39764 40102 70255 885// 333 10302 29077 55010 58025 69931;
0173825830999992010122012004-05167-040667FM-12+029999999V0200901N006212200019N0500001N1+02641+01951101221ADDAA124000391GF104991041011008001001001KA1240N+02221MA1999999097841MD1999999+0191REMSYN082AAXX  20124 82583 22599 40912 10264 20195 39784 40122 84100 333 20222 58019 69934;
0168825830999992010122100004-05167-040667FM-12+029999999V0200901N003610450019N0040001N1+02751+02091101041ADDGF105991041011008001031011KA1240M+03231MA1999999097681MD1999999+0041REMSYN088AAXX  21004 82583 32596 50907 10275 20209 39768 40104 84131 333 10323 29061 55111 58004;
0156825830999992010122112004-05167-040667FM-12+029999999V0200901N007710075019N0500001N1+02751+02121101171ADDGF105991051011008001001001KA1240N+02351MA1999999097811MD1999999-0031REMSYN076AAXX  21124 82583 32599 50915 10275 20212 39781 40117 85100 333 20235 59003;
0168825830999992010122200004-05167-040667FM-12+029999999V0200901N003612200019N0040001N1+02801+01911100961ADDGF104991041011008001001001KA1240M+03261MA1999999097611MD1999999-0071REMSYN088AAXX  22004 82583 32596 40907 10280 20191 39761 40096 84100 333 10326 29060 55098 59007;
0156825830999992010122212004-05167-040667FM-12+029999999V0200901N003612200019N0500001N1+02721+02221101201ADDGF104991041011008001001001KA1240N+02371MA1999999097841MD1999999+0031REMSYN076AAXX  22124 82583 32599 40907 10272 20222 39784 40120 84100 333 20237 58003;
0168825830999992010122300004-05167-040667FM-12+029999999V0200901N001012200019N0040001N1+02691+02171100781ADDGF102991021001017501031001KA1240M+03301MA1999999097431MD1999999-0181REMSYN088AAXX  23004 82583 32796 20902 10269 20217 39743 40078 82030 333 10330 29047 55095 59018;
0156825830999992010122312004-05167-040667FM-12+029999999V0200901N001510075019N0500001N1+02621+02251100951ADDGF106991061011008001001001KA1240N+02391MA1999999097591MD1999999-0251REMSYN076AAXX  23124 82583 32599 60903 10262 20225 39759 40095 86100 333 20239 59025;
0168825830999992010122400004-05167-040667FM-12+029999999V0200901N002610450019N0040001N1+02841+01881100791ADDGF105991041011008001031001KA1240M+03311MA1999999097451MD1999999+0021REMSYN088AAXX  24004 82583 32596 50905 10284 20188 39745 40079 84130 333 10331 29058 55060 58002;
0156825830999992010122412004-05167-040667FM-12+029999999V0200901N002610075019N0500001N1+02621+02141101001ADDGF105991051011008001001001KA1240N+02351MA1999999097651MD1999999+0061REMSYN076AAXX  24124 82583 32599 50905 10262 20214 39765 40100 85100 333 20235 58006;
0178825830999992010122500004-05167-040667FM-12+029999999V0203201N002112200019N0040001N1+02521+02131100951ADDGA1001+999999999GF100991001001999999001001KA1240M+03311MA1999999097581MD1999999+0131REMSYN082AAXX  25004 82583 32996 03204 10252 20213 39758 40095 333 10331 29070 55079 58013;
0156825830999992010122512004-05167-040667FM-12+029999999V0200901N003110075019N0500001N1+02611+02211101131ADDGF106991061011008001001001KA1240N+02351MA1999999097751MD1999999+0101REMSYN076AAXX  25124 82583 32599 60906 10261 20221 39775 40113 86100 333 20235 58010;
0178825830999992010122600004-05167-040667FM-12+029999999V0203601N002112200019N0040001N1+02601+02171100931ADDGA1001+999999999GF100991001001999999001001KA1240M+03251MA1999999097571MD1999999-0011REMSYN082AAXX  26004 82583 32996 03604 10260 20217 39757 40093 333 10325 29069 55050 59001;
0156825830999992010122612004-05167-040667FM-12+029999999V0200901N003110450019N0500001N1+02651+02201101101ADDGF105991041011008001031011KA1240N+02321MA1999999097731MD1999999-0021REMSYN076AAXX  26124 82583 32599 50906 10265 20220 39773 40110 84131 333 20232 59002;
0178825830999992010122700004-05167-040667FM-12+029999999V0200901N001012200019N0040001N1+02731+02071100841ADDGA1001+999999999GF100991001001999999001001KA1240M+03331MA1999999097491MD1999999-0081REMSYN082AAXX  27004 82583 32996 00902 10273 20207 39749 40084 333 10333 29062 55091 59008;
0156825830999992010122712004-05167-040667FM-12+029999999V0200901N004610075019N0500001N1+02621+02051101091ADDGF106991061021008001001001KA1240N+02201MA1999999097731MD1999999+0081REMSYN076AAXX  27124 82583 32599 60909 10262 20205 39773 40109 86200 333 20220 58008;
0178825830999992010122800004-05167-040667FM-12+029999999V0200901N002112200019N0040001N1+02701+01991100781ADDGA1001+999999999GF100991001001999999001001KA1240M+03311MA1999999097361MD1999999-0131REMSYN082AAXX  28004 82583 32996 00904 10270 20199 39736 40078 333 10331 29062 55098 59013;
0156825830999992010122812004-05167-040667FM-12+029999999V0200901N002612200019N0500001N1+02601+02101101031ADDGF104991041011008001001001KA1240N+02131MA1999999097671MD1999999-0061REMSYN076AAXX  28124 82583 32599 40905 10260 20210 39767 40103 84100 333 20213 59006;
0178825830999992010122900004-05167-040667FM-12+029999999V0203601N000512200019N0040001N1+02821+02151100661ADDGA1001+999999999GF100991001001999999001001KA1240M+03321MA1999999097321MD1999999-0041REMSYN082AAXX  29004 82583 32996 03601 10282 20215 39732 40066 333 10332 29063 55098 59004;
0156825830999992010122912004-05167-040667FM-12+029999999V0200901N000510075019N0500001N1+02531+02171100911ADDGF106991061021008001001001KA1240N+02211MA1999999097551MD1999999-0021REMSYN076AAXX  29124 82583 32599 60901 10253 20217 39755 40091 86200 333 20221 59002;
0178825830999992010123000004-05167-040667FM-12+029999999V0203601N001512200019N0040001N1+02851+02161100611ADDGA1001+999999999GF100991001001999999001001KA1240M+03321MA1999999097271MD1999999-0051REMSYN082AAXX  30004 82583 32996 03603 10285 20216 39727 40061 333 10332 29064 55076 59005;
0156825830999992010123012004-05167-040667FM-12+029999999V0200501N003110075019N0500001N1+02611+02231100911ADDGF105991051021008001001001KA1240N+02341MA1999999097561MD1999999+0011REMSYN076AAXX  30124 82583 32599 50506 10261 20223 39756 40091 85200 333 20234 58001;
0178825830999992010123100004-05167-040667FM-12+029999999V0200901N002112200019N0040001N1+02801+02151100701ADDGA1001+999999999GF100991001001999999001001KA1240M+03391MA1999999097351MD1999999+0061REMSYN082AAXX  31004 82583 32996 00904 10280 20215 39735 40070 333 10339 29064 55079 58006;
0156825830999992010123112004-05167-040667FM-12+029999999V0200901N004610075019N0500001N1+02491+02051100891ADDGF108991081051008001999999KA1240N+02281MA1999999097531MD1999999-0031REMSYN076AAXX  31124 82583 32599 80909 10249 20205 39753 40089 885// 333 20228 59003;
0137825830999992010123118004-05167-040667FM-12+029999999V0200901N003110075019N0500001N1+03081+01881100541ADDGF105991051011008001001011MA1999999097201MD1999999+0041REMSYN070AAXX  31184 82583 32599 50906 10308 20188 39720 40054 85101 333 58004;
