0168831820999992010010100004-11300-041867FM-12+074799999V0200901N001010075019N0010001N1+02331+02061101111ADDGF108991051051008001021999KA1240M+02711MA1999999092921MD1999999+0011REMSYN088AAXX  01004 83182 32594 80902 10233 20206 39292 40111 8552/ 333 10271 29082 55000 58001;
0143831820999992010010112004-11300-041867FM-12+074799999V0200901N004110450019N0100001N1+02491+01841101171ADDGF108991021021008001041011MA1999999093011MD1999999+0021REMSYN076AAXX  01124 83182 32597 80908 10249 20184 39301 40117 82241 333 2//// 58002;
0137831820999992010010118004-11300-041867FM-12+074799999V0200901N005110450019N0100001N1+02581+01511100781ADDGF108991031021008001041021MA1999999092681MD1999999-0081REMSYN070AAXX  01184 83182 32597 80910 10258 20151 39268 40078 83242 333 59008;
0168831820999992010010200004-11300-041867FM-12+074799999V0203201N001510075019N0100001N1+02201+02061101161ADDGF108991081051008001999999KA1240M+03001MA1999999092981MD1999999+0061REMSYN088AAXX  02004 83182 32597 83203 10220 20206 39298 40116 885// 333 10300 29074 55074 58006;
0143831820999992010010212004-11300-041867FM-12+074799999V0200901N003110075019N0100001N1+02391+01811101231ADDGF108991051021008001041011MA1999999093031MD1999999+0021REMSYN076AAXX  02124 83182 32597 80906 10239 20181 39303 40123 85241 333 2//// 58002;
0137831820999992010010218004-11300-041867FM-12+074799999V0201401N002612200019N0100001N1+03051+01101100841ADDGF102991021021008001001001MA1999999092741MD1999999+0061REMSYN070AAXX  02184 83182 32597 21405 10305 20110 39274 40084 82200 333 58006;
0168831820999992010010300004-11300-041867FM-12+074799999V0200901N004610450019N0010001N1+02431+01801101051ADDGF105991011031008001031001KA1240M+03111MA1999999092901MD1999999-0081REMSYN088AAXX  03004 83182 32594 50909 10243 20180 39290 40105 81330 333 10311 29058 55103 59008;
0143831820999992010010312004-11300-041867FM-12+074799999V0201401N005112200019N0100001N1+02461+01631101301ADDGF102991021021008001001001MA1999999093151MD1999999+0121REMSYN076AAXX  03124 83182 32597 21410 10246 20163 39315 40130 82200 333 2//// 58012;
0137831820999992010010318004-11300-041867FM-12+074799999V0200901N004112200019N0100001N1+03291+00971100941ADDGF102991021021008001001001MA1999999092791MD1999999+0051REMSYN070AAXX  03184 83182 32597 20908 10329 20097 39279 40094 82200 333 58005;
0168831820999992010010400004-11300-041867FM-12+074799999V0201401N004612200019N0010001N1+02401+01771101161ADDGF102991011021008001041001KA1240M+03301MA1999999093021MD1999999+0121REMSYN088AAXX  04004 83182 32594 21409 10240 20177 39302 40116 81240 333 10330 29055 55113 58012;
0143831820999992010010412004-11300-041867FM-12+074799999V0200901N004110075019N0100001N1+02421+01671101211ADDGF107991071021008001001001MA1999999093051MD1999999-0101REMSYN076AAXX  04124 83182 32597 70908 10242 20167 39305 40121 87200 333 2//// 59010;
0172831820999992010010418004-11300-041867FM-12+074799999V0201401N999992200019N0100001N1+03001+01201100981ADDGF102991021021008001001001MA1999999092861MD1999999+0071REMSYN070AAXX  04184 83182 32597 21496 10300 20120 39286 40098 82200 333 58007;EQDQ01+004933WOSPD Q020004933WOSPD 
0178831820999992010010500004-11300-041867FM-12+074799999V0200901N002612200019N0010001N1+02551+01371101001ADDGA1001+999999999GF100991001001999999001001KA1240M+03131MA1999999092881MD1999999-0141REMSYN082AAXX  05004 83182 32994 00905 10255 20137 39288 40100 333 10313 29048 55099 59014;
0143831820999992010010512004-11300-041867FM-12+074799999V0200901N003112200019N0100001N1+02521+01791101121ADDGF101991011011012501001001MA1999999093011MD1999999+0131REMSYN076AAXX  05124 83182 32697 10906 10252 20179 39301 40112 81100 333 2//// 58013;
0137831820999992010010518004-11300-041867FM-12+074799999V0201401N003110450019N0100001N1+03101+01371100801ADDGF108991031031008001041021MA1999999092741MD1999999-0121REMSYN070AAXX  05184 83182 32597 81406 10310 20137 39274 40080 83342 333 59012;
0168831820999992010010600004-11300-041867FM-12+074799999V0200901N004110075019N0010001N1+02671+01661100861ADDGF108991071051008001001011KA1240M+03271MA1999999092791MD1999999-0091REMSYN088AAXX  06004 83182 32594 80908 10267 20166 39279 40086 87501 333 10327 29052 55105 59009;
0143831820999992010010612004-11300-041867FM-12+074799999V0200901N002612200019N0100001N1+02521+01861100941ADDGF102991021021008001041001MA1999999092861MD1999999-0151REMSYN076AAXX  06124 83182 32597 20905 10252 20186 39286 40094 82240 333 2//// 59015;
0137831820999992010010618004-11300-041867FM-12+074799999V0200501N003110450019N0100001N1+03101+01661100701ADDGF108991031031008001041011MA1999999092641MD1999999-0101REMSYN070AAXX  06184 83182 32597 80506 10310 20166 39264 40070 83341 333 59010;
0213831820999992010010700004-11300-041867FM-12+074799999V0202301N002110042019N0010001N1+02171+02021101021ADDAA106005191AY161061AY221061GF108991061071004501021999KA1240M+03191MA1999999092851MD1999999+0031MW1021REMSYN100AAXX  07004 83182 21494 82304 10217 20202 39285 40102 70262 8672/ 333 10319 29073 55083 58003 60051;
0188831820999992010010712004-11300-041867FM-12+074799999V0201801N001010075019N0100001N1+02281+02091101261ADDAA124043991AY161061AY261061GF108991051021008001041999MA1999999093021MD1999999+0161MW1021REMSYN088AAXX  07124 83182 21597 81802 10228 20209 39302 40126 70266 8524/ 333 2//// 58016 60444;
0165831820999992010010718004-11300-041867FM-12+074799999V0203601N003610075019N0100001N1+02891+01861101011ADDAY121061AY221061GF108991061031008001021999MA1999999092721MD1999999+0081MW1951REMSYN076AAXX  07184 83182 31597 83607 10289 20186 39272 40101 79522 8632/ 333 58008;
0213831820999992010010800004-11300-041867FM-12+074799999V0200901N004110042019N0010001N1+02041+01871101281ADDAA106014091AY161061AY261061GF108991051031004501021999KA1240M+03031MA1999999093031MD1999999+0181MW1611REMSYN100AAXX  08004 83182 21494 80908 10204 20187 39303 40128 76166 8532/ 333 10303 29081 55045 58018 60141;
0188831820999992010010812004-11300-041867FM-12+074799999V0200901N003110450019N0100001N1+02301+01851101291ADDAA124015091AY161061AY221061GF108991041051008001041999MA1999999093051MD1999999+0031MW1021REMSYN088AAXX  08124 83182 21597 80906 10230 20185 39305 40129 70262 8454/ 333 2//// 58003 60154;
0137831820999992010010818004-11300-041867FM-12+074799999V0200501N002610450019N0100001N1+02731+01911101061ADDGF108991031031008001041021MA1999999092891MD1999999+0171REMSYN070AAXX  08184 83182 32597 80505 10273 20191 39289 40106 83342 333 58017;
0232831820999992010010900004-11300-041867FM-12+074799999V0201401N001510075019N0010001N1+02171+02001101191ADDAA106000091AY161061AY221061GF108991061031008001021999KA1240M+02771MA1999999092971MD1999999-0061MW1131REMSYN100AAXX  09004 83182 21594 81403 10217 20200 39297 40119 71362 8632/ 333 10277 29079 55036 59006 69911;EQDQ01  00002PRCP06
0188831820999992010010912004-11300-041867FM-12+074799999V0200901N004110075019N0100001N1+02371+02011101221ADDAA124026991AY161061AY221061GF108991081051008001999999MA1999999093021MD1999999-0031MW1021REMSYN088AAXX  09124 83182 21597 80908 10237 20201 39302 40122 70262 885// 333 2//// 59003 60274;
0137831820999992010010918004-11300-041867FM-12+074799999V0200901N002610450019N0100001N1+02891+01711100911ADDGF108991041031008001041011MA1999999092771MD1999999-0121REMSYN070AAXX  09184 83182 32597 80905 10289 20171 39277 40091 84341 333 59012;
0213831820999992010011000004-11300-041867FM-12+074799999V0201801N002110042019N0010001N1+02171+01961101131ADDAA106003091AY161061AY221061GF108991081051004501999999KA1240M+02991MA1999999092931MD1999999-0041MW1021REMSYN100AAXX  10004 83182 21494 81804 10217 20196 39293 40113 70262 885// 333 10299 29076 55093 59004 60031;
0160831820999992010011012004-11300-041867FM-12+074799999V0200901N003110075019N0100001N1+02301+01901101251ADDAA124003091GF108991061021008001041999MA1999999093011MD1999999-0011REMSYN082AAXX  10124 83182 22597 80906 10230 20190 39301 40125 8624/ 333 2//// 59001 60034;
0137831820999992010011018004-11300-041867FM-12+074799999V0200901N001512200019N0100001N1+02851+01611100961ADDGF102991021021008001001001MA1999999092821MD1999999+0051REMSYN070AAXX  10184 83182 32597 20903 10285 20161 39282 40096 82200 333 58005;
0168831820999992010011100004-11300-041867FM-12+074799999V0200901N002612200019N0010001N1+02431+01751101081ADDGF102991011021008001001021KA1240M+03001MA1999999092891MD1999999-0041REMSYN088AAXX  11004 83182 32594 20905 10243 20175 39289 40108 81202 333 10300 29064 55106 59004;
0143831820999992010011112004-11300-041867FM-12+074799999V0200901N003610450019N0100001N1+02471+01821101181ADDGF108991031021008001041011MA1999999093041MD1999999+0031REMSYN076AAXX  11124 83182 32597 80907 10247 20182 39304 40118 83241 333 2//// 58003;
0137831820999992010011118004-11300-041867FM-12+074799999V0200501N002612200019N0100001N1+02981+01681100961ADDGF106991031031008001001041MA1999999092821MD1999999+0001REMSYN070AAXX  11184 83182 32597 60505 10298 20168 39282 40096 83304 333 58000;
0168831820999992010011200004-11300-041867FM-12+074799999V0200901N002112200019N0010001N1+02531+01851100941ADDGF103991011011012501001041KA1240M+03071MA1999999092831MD1999999-0061REMSYN088AAXX  12004 83182 32694 30904 10253 20185 39283 40094 81104 333 10307 29062 55100 59006;
0143831820999992010011212004-11300-041867FM-12+074799999V0200901N001012200019N0100001N1+02551+02051101121ADDGF102991021021008001001001MA1999999093011MD1999999-0031REMSYN076AAXX  12124 83182 32597 20902 10255 20205 39301 40112 82200 333 2//// 59003;
0137831820999992010011218004-11300-041867FM-12+074799999V0201401N002112200019N0100001N1+03211+01761100861ADDGF106991021021008001001041MA1999999092751MD1999999-0071REMSYN070AAXX  12184 83182 32597 61404 10321 20176 39275 40086 82204 333 59007;
0168831820999992010011300004-11300-041867FM-12+074799999V0203601N001010042019N0010001N1+02421+01861101061ADDGF108991051071004501021999KA1240M+03211MA1999999092941MD1999999+0111REMSYN088AAXX  13004 83182 32494 83602 10242 20186 39294 40106 8572/ 333 10321 29064 55091 58011;
0143831820999992010011312004-11300-041867FM-12+074799999V0201401N005112200019N0100001N1+02481+01961101291ADDGF101991011011012501001001MA1999999093231MD1999999+0221REMSYN076AAXX  13124 83182 32697 11410 10248 20196 39323 40129 81100 333 2//// 58022;
0137831820999992010011318004-11300-041867FM-12+074799999V0201401N000512200019N0100001N1+03071+01551100941ADDGF107991031031008001001011MA1999999092841MD1999999+0091REMSYN070AAXX  13184 83182 32597 71401 10307 20155 39284 40094 83301 333 58009;
0196831820999992010011400004-11300-041867FM-12+074799999V0200901N002610075019N0010001N1+02331+02011101201ADDAY121061AY221061GF108991051031008001021999KA1240M+03211MA1999999093041MD1999999+0101MW1131REMSYN094AAXX  14004 83182 31594 80905 10233 20201 39304 40120 71322 8532/ 333 10321 29069 55094 58010;
0188831820999992010011412004-11300-041867FM-12+074799999V0200901N003612200019N0100001N1+02471+02061101301ADDAA124000391AY161061AY211061GF102991021031017501001001MA1999999093131MD1999999-0101MW1031REMSYN088AAXX  14124 83182 21797 20907 10247 20206 39313 40130 70361 82300 333 2//// 59010 69934;
0137831820999992010011418004-11300-041867FM-12+074799999V0200501N002610450019N0100001N1+03021+01441101041ADDGF106991031031008001031001MA1999999092911MD1999999+0071REMSYN070AAXX  14184 83182 32597 60505 10302 20144 39291 40104 83330 333 58007;
0168831820999992010011500004-11300-041867FM-12+074799999V0200901N002110450019N0010001N1+02461+01831101151ADDGF108991041021017501031011KA1240M+03201MA1999999093011MD1999999-0031REMSYN088AAXX  15004 83182 32794 80904 10246 20183 39301 40115 84231 333 10320 29063 55103 59003;
0143831820999992010011512004-11300-041867FM-12+074799999V0200901N002610075019N0100001N1+02431+02121101441ADDGF108991081051008001001001MA1999999093281MD1999999+0151REMSYN076AAXX  15124 83182 32597 80905 10243 20212 39328 40144 88500 333 2//// 58015;
0137831820999992010011518004-11300-041867FM-12+074799999V0201401N003112200019N0100001N1+03131+01721101131ADDGF106991041031008001001011MA1999999093011MD1999999+0101REMSYN070AAXX  15184 83182 32597 61406 10313 20172 39301 40113 84301 333 58010;
0168831820999992010011600004-11300-041867FM-12+074799999V0200901N003619999999N0010001N1+02461+01761101261ADDGF108991001001999999001011KA1240M+03191MA1999999093111MD1999999+0101REMSYN088AAXX  16004 83182 32994 80907 10246 20176 39311 40126 80001 333 10319 29064 55095 58010;
0143831820999992010011612004-11300-041867FM-12+074799999V0201401N005110075019N0100001N1+02291+01761101571ADDGF106991061021008001001001MA1999999093371MD1999999+0091REMSYN076AAXX  16124 83182 32597 61410 10229 20176 39337 40157 86200 333 2//// 58009;
0147831820999992010011618004-11300-041867FM-12+074799999V0201401N004112200019N0100001N1+03091+01281101161ADDGA1001+999999999GF100991001001999999001001MA1999999093031MD1999999+0021REMSYN064AAXX  16184 83182 32997 01408 10309 20128 39303 40116 333 58002;
0178831820999992010011700004-11300-041867FM-12+074799999V0201401N002612200019N0010001N1+02471+01641101311ADDGA1001+999999999GF100991001001999999001001KA1240M+03191MA1999999093141MD1999999+0031REMSYN082AAXX  17004 83182 32994 01405 10247 20164 39314 40131 333 10319 29056 55112 58003;
0188831820999992010011712004-11300-041867FM-12+074799999V0200901N003610075019N0100001N1+02401+02111101601ADDAA124011991AY161061AY221061GF108991061021008001041011MA1999999093421MD1999999+0051MW1021REMSYN088AAXX  17124 83182 21597 80907 10240 20211 39342 40160 70262 86241 333 2//// 58005 60124;
0137831820999992010011718004-11300-041867FM-12+074799999V02099999999992200019N0100001N1+02961+01641101191ADDGF102991021021008001001001MA1999999093071MD1999999+0041REMSYN070AAXX  17184 83182 32597 209// 10296 20164 39307 40119 82200 333 58004;
0168831820999992010011800004-11300-041867FM-12+074799999V02099999999992200019N0010001N1+02231+01731101311ADDGF102991011021008001001011KA1240M+03101MA1999999093121MD1999999-0521REMSYN088AAXX  18004 83182 32594 214// 10223 20173 39312 40131 81201 333 10310 29066 55085 59052;
0143831820999992010011812004-11300-041867FM-12+074799999V02099999999992200019N0100001N1+02271+01781101561ADDGF101991011011008001001001MA1999999093331MD1999999-0091REMSYN076AAXX  18124 83182 32597 109// 10227 20178 39333 40156 81100 333 2//// 59009;
0137831820999992010011818004-11300-041867FM-12+074799999V02099999999992200019N0100001N1+03031+01311101191ADDGF102991011011012501001011MA1999999093031MD1999999-0041REMSYN070AAXX  18184 83182 32697 214// 10303 20131 39303 40119 81101 333 59004;
0168831820999992010011900004-11300-041867FM-12+074799999V02099999999992200019N0010001N1+02401+01441101201ADDGF103991011021008001041011KA1240M+03371MA1999999093021MD1999999-0091REMSYN088AAXX  19004 83182 32594 309// 10240 20144 39302 40120 81241 333 10337 29057 55111 59009;
0143831820999992010011912004-11300-041867FM-12+074799999V02099999999990075019N0100001N1+02311+01991101421ADDGF107991071021008001001001MA1999999093281MD1999999+0201REMSYN076AAXX  19124 83182 32597 709// 10231 20199 39328 40142 87200 333 2//// 58020;
0137831820999992010011918004-11300-041867FM-12+074799999V02099999999992200019N0100001N1+03031+01701101041ADDGF102991011011012501001021MA1999999092901MD1999999-0131REMSYN070AAXX  19184 83182 32697 214// 10303 20170 39290 40104 81102 333 59013;
0178831820999992010012000004-11300-041867FM-12+074799999V02099999999992200019N0010001N1+02511+01781101161ADDGA1001+999999999GF100991001001999999001001KA1240M+03151MA1999999093001MD1999999-0021REMSYN082AAXX  20004 83182 32994 009// 10251 20178 39300 40116 333 10315 29064 55101 59002;
0143831820999992010012012004-11300-041867FM-12+074799999V02099999999992200019N0100001N1+02401+01751101241ADDGF101991011011012501001001MA1999999093091MD1999999+0091REMSYN076AAXX  20124 83182 32697 109// 10240 20175 39309 40124 81100 333 2//// 58009;
0137831820999992010012018004-11300-041867FM-12+074799999V02099999999992200019N0100001N1+03151+01461100921ADDGF102991021021008001001001MA1999999092791MD1999999-0111REMSYN070AAXX  20184 83182 32597 214// 10315 20146 39279 40092 82200 333 59011;
0178831820999992010012100004-11300-041867FM-12+074799999V02099999999992200019N0010001N1+02591+01471100931ADDGA1001+999999999GF100991001001999999001001KA1240M+03291MA1999999092821MD1999999-0181REMSYN082AAXX  21004 83182 32994 014// 10259 20147 39282 40093 333 10329 29051 55108 59018;
0143831820999992010012112004-11300-041867FM-12+074799999V02099999999992200019N0100001N1+02431+01941101311ADDGF102991021021008001001001MA1999999093171MD1999999+0081REMSYN076AAXX  21124 83182 32597 209// 10243 20194 39317 40131 82200 333 2//// 58008;
0137831820999992010012118004-11300-041867FM-12+074799999V02099999999992200019N0100001N1+03111+01851100941ADDGF102991011021008001041001MA1999999092861MD1999999+0071REMSYN070AAXX  21184 83182 32597 209// 10311 20185 39286 40094 81240 333 58007;
0168831820999992010012200004-11300-041867FM-12+074799999V02099999999992200019N0010001N1+02531+01711101111ADDGF108991041031008001001011KA1240M+03211MA1999999092981MD1999999+0161REMSYN088AAXX  22004 83182 32594 814// 10253 20171 39298 40111 84301 333 10321 29062 55107 58016;
0143831820999992010012212004-11300-041867FM-12+074799999V02099999999990450019N0100001N1+02431+01911101251ADDGF108991031021008001011999MA1999999093121MD1999999-0051REMSYN076AAXX  22124 83182 32597 809// 10243 20191 39312 40125 8321/ 333 2//// 59005;
0137831820999992010012218004-11300-041867FM-12+074799999V02099999999990450019N0100001N1+02931+01841101031ADDGF108991021021008001041021MA1999999092891MD1999999+0031REMSYN070AAXX  22184 83182 32597 809// 10293 20184 39289 40103 82242 333 58003;
0168831820999992010012300004-11300-041867FM-12+074799999V02099999999990450019N0010001N1+02531+01801101031ADDGF108991011021008001041011KA1240M+03021MA1999999092911MD1999999-0071REMSYN088AAXX  23004 83182 32594 814// 10253 20180 39291 40103 81241 333 10302 29063 55032 59007;
0143831820999992010012312004-11300-041867FM-12+074799999V02099999999992200019N0100001N1+02521+01961101201ADDGF104991021021008001001011MA1999999093071MD1999999-0051REMSYN076AAXX  23124 83182 32597 405// 10252 20196 39307 40120 82201 333 2//// 59005;
0137831820999992010012318004-11300-041867FM-12+074799999V02099999999992200019N0100001N1+03241+01331100911ADDGF102991021021008001001011MA1999999092801MD1999999-0091REMSYN070AAXX  23184 83182 32597 209// 10324 20133 39280 40091 82201 333 59009;
0168831820999992010012400004-11300-041867FM-12+074799999V02099999999999999999N0010001N1+02581+01521100941ADDGF108991001001999999001011KA1240M+03331MA1999999092851MD1999999-0061REMSYN088AAXX  24004 83182 32994 814// 10258 20152 39285 40094 80001 333 10333 29052 55110 59006;
0143831820999992010012412004-11300-041867FM-12+074799999V02099999999992200019N0100001N1+02601+01921101111ADDGF104991011061012501001011MA1999999093021MD1999999-0051REMSYN076AAXX  24124 83182 32697 409// 10260 20192 39302 40111 81601 333 2//// 59005;
0137831820999992010012418004-11300-041867FM-12+074799999V02099999999992200019N0100001N1+03211+01331100751ADDGF107991041031008001001011MA1999999092691MD1999999-0111REMSYN070AAXX  24184 83182 32597 714// 10321 20133 39269 40075 84301 333 59011;
0168831820999992010012500004-11300-041867FM-12+074799999V02099999999990450019N0010001N1+02561+01501100931ADDGF108991021021008001051011KA1240M+03291MA1999999092851MD1999999+0001REMSYN088AAXX  25004 83182 32594 836// 10256 20150 39285 40093 82251 333 10329 29050 55104 58000;
0143831820999992010012512004-11300-041867FM-12+074799999V02099999999992200019N0100001N1+02521+01731101151ADDGF104991031021008001001011MA1999999093041MD1999999-0021REMSYN076AAXX  25124 83182 32597 409// 10252 20173 39304 40115 83201 333 2//// 59002;
0156831820999992010012518004-11300-041867FM-12+074799999V02099999999999999999N0100001N1+03131+01261101251ADDGF105991999031008001001001MA1999999092781MD1999999+0091REMSYN070AAXX  25184 83182 32597 514// 10313 20126 39278 40125 84300 333 58009;EQDQ01+000042SCOTLC
0168831820999992010012600004-11300-041867FM-12+074799999V02099999999999999999N0010001N1+02511+01431100851ADDGF108991001001999999001011KA1240M+03271MA1999999092761MD1999999-0091REMSYN088AAXX  26004 83182 32994 809// 10251 20143 39276 40085 80001 333 10327 29049 55110 59009;
0143831820999992010012612004-11300-041867FM-12+074799999V02099999999990450019N0100001N1+02331+01771101111ADDGF108991011011012501041091MA1999999092951MD1999999-0091REMSYN076AAXX  26124 83182 32697 805// 10233 20177 39295 40111 81149 333 2//// 59009;
0137831820999992010012618004-11300-041867FM-12+074799999V02099999999992200019N0100001N1+03141+01361100681ADDGF103991031031008001001001MA1999999092631MD1999999-0151REMSYN070AAXX  26184 83182 32597 314// 10314 20136 39263 40068 83300 333 59015;
0168831820999992010012700004-11300-041867FM-12+074799999V02099999999999999999N0010001N1+02561+01211100781ADDGF108991001001999999001011KA1240M+03291MA1999999092661MD1999999-0101REMSYN088AAXX  27004 83182 32994 809// 10256 20121 39266 40078 80001 333 10329 29048 55105 59010;
0143831820999992010012712004-11300-041867FM-12+074799999V02099999999990450019N0100001N1+02551+01791101121ADDGF108991021021008001041011MA1999999093011MD1999999+0031REMSYN076AAXX  27124 83182 32597 818// 10255 20179 39301 40112 82241 333 2//// 58003;
0137831820999992010012718004-11300-041867FM-12+074799999V02099999999992200019N0100001N1+03251+01371100701ADDGF107991041031008001001011MA1999999092661MD1999999-0021REMSYN070AAXX  27184 83182 32597 709// 10325 20137 39266 40070 84301 333 59002;
0168831820999992010012800004-11300-041867FM-12+074799999V02099999999990450019N0010001N1+02681+01321100721ADDGF108991011021008001051011KA1240M+03301MA1999999092661MD1999999+0001REMSYN088AAXX  28004 83182 32594 809// 10268 20132 39266 40072 81251 333 10330 29045 55102 58000;
0143831820999992010012812004-11300-041867FM-12+074799999V02099999999992200019N0100001N1+02551+01771101131ADDGF104991031021008001001011MA1999999093041MD1999999+0031REMSYN076AAXX  28124 83182 32597 414// 10255 20177 39304 40113 83201 333 2//// 58003;
0137831820999992010012818004-11300-041867FM-12+074799999V02099999999992200019N0100001N1+03221+01481100711ADDGF103991031031008001001001MA1999999092651MD1999999+0041REMSYN070AAXX  28184 83182 32597 305// 10322 20148 39265 40071 83300 333 58004;
0168831820999992010012900004-11300-041867FM-12+074799999V02099999999992200019N0010001N1+02631+01571100771ADDGF108991021001017501041011KA1240M+03331MA1999999092711MD1999999+0061REMSYN088AAXX  29004 83182 32794 809// 10263 20157 39271 40077 82041 333 10333 29050 55108 58006;
0143831820999992010012912004-11300-041867FM-12+074799999V02099999999992200019N0100001N1+02341+01641101161ADDGF108991021021008001001011MA1999999093031MD1999999-0011REMSYN076AAXX  29124 83182 32597 814// 10234 20164 39303 40116 82201 333 2//// 59001;
0137831820999992010012918004-11300-041867FM-12+074799999V02099999999990075019N0100001N1+03201+01511100801ADDGF108991061031008001001011MA1999999092741MD1999999+0091REMSYN070AAXX  29184 83182 32597 809// 10320 20151 39274 40080 86301 333 58009;
0168831820999992010013000004-11300-041867FM-12+074799999V02099999999999999999N0010001N1+02561+01351100851ADDGF108991001001999999001011KA1240M+03271MA1999999092731MD1999999+0021REMSYN088AAXX  30004 83182 32994 809// 10256 20135 39273 40085 80001 333 10327 29049 55098 58002;
0143831820999992010013012004-11300-041867FM-12+074799999V02099999999992200019N0100001N1+02421+01621101181ADDGF108991011021008001001011MA1999999093051MD1999999+0021REMSYN076AAXX  30124 83182 32597 818// 10242 20162 39305 40118 81201 333 2//// 58002;
0137831820999992010013018004-11300-041867FM-12+074799999V02099999999992200019N0100001N1+03281+01241100921ADDGF102991011011012501001011MA1999999092821MD1999999+0081REMSYN070AAXX  30184 83182 32697 209// 10328 20124 39282 40092 81101 333 58008;
0178831820999992010013100004-11300-041867FM-12+074799999V02099999999992200019N0010001N1+02591+01591101081ADDGA1001+999999999GF100991001001999999001001KA1240M+03391MA1999999092951MD1999999+0221REMSYN082AAXX  31004 83182 32994 014// 10259 20159 39295 40108 333 10339 29050 55111 58022;
0143831820999992010013112004-11300-041867FM-12+074799999V02099999999992200019N0100001N1+02501+01641101311ADDGF108991021021008001001011MA1999999093191MD1999999+0141REMSYN076AAXX  31124 83182 32597 809// 10250 20164 39319 40131 82201 333 2//// 58014;
0137831820999992010013118004-11300-041867FM-12+074799999V02099999999999999999N0100001N1+03301+01361100941ADDGF108991001001999999001011MA1999999092881MD1999999+0061REMSYN070AAXX  31184 83182 32997 809// 10330 20136 39288 40094 80001 333 58006;
0168831820999992010020100004-11300-041867FM-12+074799999V02099999999999999999N0010001N1+02641+01481100991ADDGF108991001001999999001011KA1240M+03351MA1999999092911MD1999999-0041REMSYN088AAXX  01004 83182 32994 809// 10264 20148 39291 40099 80001 333 10335 29047 55104 59004;
0143831820999992010020112004-11300-041867FM-12+074799999V02099999999990450019N0100001N1+02471+02001101371ADDGF108991041051008001041011MA1999999093251MD1999999+0061REMSYN076AAXX  01124 83182 32597 814// 10247 20200 39325 40137 84541 333 2//// 58006;
0137831820999992010020118004-11300-041867FM-12+074799999V02099999999990075019N0100001N1+02961+01781101181ADDGF108991051031008001041001MA1999999093021MD1999999-0171REMSYN070AAXX  01184 83182 32597 809// 10296 20178 39302 40118 85340 333 59017;
0168831820999992010020200004-11300-041867FM-12+074799999V02099999999999999999N0010001N1+02601+01761101191ADDGF108991001001999999001011KA1240M+03031MA1999999093071MD1999999+0161REMSYN088AAXX  02004 83182 32994 814// 10260 20176 39307 40119 80001 333 10303 29061 55036 58016;
0143831820999992010020212004-11300-041867FM-12+074799999V02099999999990450019N0100001N1+02421+01881101371ADDGF108991031041008001041021MA1999999093231MD1999999-0021REMSYN076AAXX  02124 83182 32597 809// 10242 20188 39323 40137 83442 333 2//// 59002;
0137831820999992010020218004-11300-041867FM-12+074799999V02099999999990450019N0100001N1+03101+01501101001ADDGF108991021021008001041031MA1999999092921MD1999999-0101REMSYN070AAXX  02184 83182 32597 814// 10310 20150 39292 40100 82243 333 59010;
0168831820999992010020300004-11300-041867FM-12+074799999V02099999999990450019N0010001N1+02631+01651101211ADDGF108991031051008001031011KA1240M+03231MA1999999093081MD1999999+0011REMSYN088AAXX  03004 83182 32594 809// 10263 20165 39308 40121 83531 333 10323 29054 55064 58001;
0143831820999992010020312004-11300-041867FM-12+074799999V02099999999992200019N0100001N1+02421+01701101301ADDGF107991031001017501041011MA1999999093161MD1999999-0071REMSYN076AAXX  03124 83182 32797 718// 10242 20170 39316 40130 83041 333 2//// 59007;
0137831820999992010020318004-11300-041867FM-12+074799999V02099999999992200019N0100001N1+03351+01021100861ADDGF102991011011012501041001MA1999999092761MD1999999-0161REMSYN070AAXX  03184 83182 32697 214// 10335 20102 39276 40086 81140 333 59016;
0178831820999992010020400004-11300-041867FM-12+074799999V02099999999992200019N0010001N1+02661+01151101071ADDGA1001+999999999GF100991001001999999001001KA1240M+03431MA1999999092961MD1999999-0121REMSYN082AAXX  04004 83182 32994 009// 10266 20115 39296 40107 333 10343 29042 55111 59012;
0143831820999992010020412004-11300-041867FM-12+074799999V02099999999992200019N0100001N1+02441+01861101251ADDGF102991021011012501001001MA1999999093131MD1999999-0031REMSYN076AAXX  04124 83182 32697 209// 10244 20186 39313 40125 82100 333 2//// 59003;
0137831820999992010020418004-11300-041867FM-12+074799999V02099999999990075019N0100001N1+03311+01321100881ADDGF105991051031008001001001MA1999999092811MD1999999+0051REMSYN070AAXX  04184 83182 32597 514// 10331 20132 39281 40088 85300 333 58005;
0196831820999992010020500004-11300-041867FM-12+074799999V02099999999992200019N0010001N1+02741+01511100961ADDAY121061AY221061GF108991011031008001001011KA1240M+03391MA1999999092881MD1999999-0081MW1131REMSYN094AAXX  05004 83182 31594 809// 10274 20151 39288 40096 71322 81301 333 10339 29049 55105 59008;
0143831820999992010020512004-11300-041867FM-12+074799999V02099999999990450019N0100001N1+02551+01891101101ADDGF106991041021008001041001MA1999999093031MD1999999-0101REMSYN076AAXX  05124 83182 32597 614// 10255 20189 39303 40110 84240 333 2//// 59010;
0137831820999992010020518004-11300-041867FM-12+074799999V02099999999992200019N0100001N1+03281+01441100841ADDGF103991021031008001001011MA1999999092761MD1999999+0001REMSYN070AAXX  05184 83182 32597 309// 10328 20144 39276 40084 82301 333 58000;
0168831820999992010020600004-11300-041867FM-12+074799999V02099999999992200019N0010001N1+02771+01571100921ADDGF108991031001017501031011KA1240M+03391MA1999999092861MD1999999-0021REMSYN088AAXX  06004 83182 32794 809// 10277 20157 39286 40092 83031 333 10339 29049 55103 59002;
0143831820999992010020612004-11300-041867FM-12+074799999V02099999999990075019N0100001N1+02421+01951101121ADDGF108991051051008001021999MA1999999093031MD1999999+0171REMSYN076AAXX  06124 83182 32597 814// 10242 20195 39303 40112 8552/ 333 2//// 58017;
0137831820999992010020618004-11300-041867FM-12+074799999V02099999999990450019N0100001N1+03041+01601101081ADDGF108991021011012501031011MA1999999092821MD1999999+0061REMSYN070AAXX  06184 83182 32697 809// 10304 20160 39282 40108 82131 333 58006;
0178831820999992010020700004-11300-041867FM-12+074799999V02099999999992200019N0010001N1+02531+01441100931ADDGA1001+999999999GF100991001001999999001001KA1240M+03171MA1999999092821MD1999999-0041REMSYN082AAXX  07004 83182 32994 009// 10253 20144 39282 40093 333 10317 29054 55025 59004;
0143831820999992010020712004-11300-041867FM-12+074799999V02099999999992200019N0100001N1+02381+01631101221ADDGF108991041001017501041011MA1999999093071MD1999999+0041REMSYN076AAXX  07124 83182 32797 814// 10238 20163 39307 40122 84041 333 2//// 58004;
0137831820999992010020718004-11300-041867FM-12+074799999V02099999999990450019N0100001N1+03001+01751100881ADDGF108991031021008001031011MA1999999092811MD1999999-0011REMSYN070AAXX  07184 83182 32597 809// 10300 20175 39281 40088 83231 333 59001;
0168831820999992010020800004-11300-041867FM-12+074799999V02099999999990075019N0010001N1+02541+01681100961ADDGF108991081051008001999999KA1240M+03191MA1999999092831MD1999999+0011REMSYN088AAXX  08004 83182 32594 809// 10254 20168 39283 40096 885// 333 10319 29057 55005 58001;
0188831820999992010020812004-11300-041867FM-12+074799999V02099999999990450019N0100001N1+02341+01761101161ADDAA124000591AY151061AY221061GF108991021021008001041031MA1999999093021MD1999999-0051MW1021REMSYN088AAXX  08124 83182 21597 814// 10234 20176 39302 40116 70252 82243 333 2//// 59005 69954;
0137831820999992010020818004-11300-041867FM-12+074799999V02099999999990450019N0100001N1+02941+01661100891ADDGF108991021021008001021999MA1999999092801MD1999999-0011REMSYN070AAXX  08184 83182 32597 809// 10294 20166 39280 40089 8222/ 333 59001;
0168831820999992010020900004-11300-041867FM-12+074799999V02099999999990075019N0010001N1+02641+01581100981ADDGF108991061051008001021999KA1240M+03021MA1999999092861MD1999999+0031REMSYN088AAXX  09004 83182 32594 814// 10264 20158 39286 40098 8652/ 333 10302 29055 55003 58003;
0188831820999992010020912004-11300-041867FM-12+074799999V02099999999990450019N0100001N1+02341+01111101101ADDAA124001091AY151061AY221061GF108991041071004501021999MA1999999092971MD1999999+0111MW1021REMSYN088AAXX  09124 83182 21497 814// 10234 20111 39297 40110 70252 8472/ 333 2//// 58011 69994;
0137831820999992010020918004-11300-041867FM-12+074799999V02099999999990075019N0100001N1+03021+01691100701ADDGF108991051021008001011999MA1999999092631MD1999999-0171REMSYN070AAXX  09184 83182 32597 809// 10302 20169 39263 40070 8521/ 333 59017;
0213831820999992010021000004-11300-041867FM-12+074799999V02099999999990450019N0010001N1+02111+02031101191ADDAA106024991AY161061AY261061GF108991041071004501021999KA1240M+03131MA1999999092951MD1999999+0091MW1601REMSYN100AAXX  10004 83182 21494 809// 10211 20203 39295 40119 76066 8472/ 333 10313 29080 55012 58009 60251;
0188831820999992010021012004-11300-041867FM-12+074799999V02099999999990450019N0100001N1+02341+02011101211ADDAA124026991AY161061AY261061GF108991041051008001021999MA1999999092971MD1999999+0001MW1021REMSYN088AAXX  10124 83182 21597 809// 10234 20201 39297 40121 70266 8452/ 333 2//// 58000 60274;
0137831820999992010021018004-11300-041867FM-12+074799999V02099999999990075019N0100001N1+02891+01681100801ADDGF108991061021008001041999MA1999999092681MD1999999+0051REMSYN070AAXX  10184 83182 32597 814// 10289 20168 39268 40080 8624/ 333 58005;
0168831820999992010021100004-11300-041867FM-12+074799999V02099999999990450019N0010001N1+02361+01911100871ADDGF108991011021008001031011KA1240M+02971MA1999999092701MD1999999-0251REMSYN088AAXX  11004 83182 32594 809// 10236 20191 39270 40087 81231 333 10297 29072 55054 59025;
0143831820999992010021112004-11300-041867FM-12+074799999V02099999999992200019N0100001N1+02251+01631101161ADDGF102991021021008001001001MA1999999092981MD1999999+0011REMSYN076AAXX  11124 83182 32597 214// 10225 20163 39298 40116 82200 333 2//// 58001;
0137831820999992010021118004-11300-041867FM-12+074799999V02099999999992200019N0100001N1+03121+01561100731ADDGF102991021011012501001001MA1999999092621MD1999999-0061REMSYN070AAXX  11184 83182 32697 209// 10312 20156 39262 40073 82100 333 59006;
0143831820999992010021212004-11300-041867FM-12+074799999V02099999999992200019N0100001N1+02421+02111101111ADDGF107991041021008001001011MA1999999092981MD1999999+0001REMSYN076AAXX  12124 83182 32597 714// 10242 20211 39298 40111 84201 333 2//// 58000;
0137831820999992010021218004-11300-041867FM-12+074799999V02099999999990450019N0100001N1+03021+01761100991ADDGF108991041021008001031011MA1999999092861MD1999999+0241REMSYN070AAXX  12184 83182 32597 809// 10302 20176 39286 40099 84231 333 58024;
0143831820999992010021312004-11300-041867FM-12+074799999V02099999999990450019N0100001N1+02321+02051101301ADDGF108991041021008001021011MA1999999093161MD1999999+0181REMSYN076AAXX  13124 83182 32597 818// 10232 20205 39316 40130 84221 333 2//// 58018;
0137831820999992010021318004-11300-041867FM-12+074799999V02099999999990075019N0100001N1+03171+01801100931ADDGF105991051021008001001001MA1999999092871MD1999999+0011REMSYN070AAXX  13184 83182 32597 509// 10317 20180 39287 40093 85200 333 58001;
0143831820999992010021412004-11300-041867FM-12+074799999V02099999999990075019N0010001N1+02441+01691101281ADDGF108991061021008001001011MA1999999093161MD1999999+0001REMSYN076AAXX  14124 83182 32594 814// 10244 20169 39316 40128 86201 333 2//// 58000;
0137831820999992010021418004-11300-041867FM-12+074799999V02099999999992200019N0100001N1+03321+01221100901ADDGF105991031021008001001011MA1999999092861MD1999999-0011REMSYN070AAXX  14184 83182 32597 505// 10332 20122 39286 40090 83201 333 59001;
0143831820999992010021512004-11300-041867FM-12+074799999V02099999999992200019N0100001N1+02521+01061101201ADDGF102991011011012501001011MA1999999093081MD1999999-0081REMSYN076AAXX  15124 83182 32697 214// 10252 20106 39308 40120 81101 333 2//// 59008;
0137831820999992010021518004-11300-041867FM-12+074799999V02099999999992200019N0100001N1+03261+01331100961ADDGF102991011021008001001011MA1999999092921MD1999999+0061REMSYN070AAXX  15184 83182 32597 209// 10326 20133 39292 40096 81201 333 58006;
0143831820999992010021612004-11300-041867FM-12+074799999V02099999999992200019N0100001N1+02541+02061101181ADDGF104991021021008001001011MA1999999093081MD1999999+0001REMSYN076AAXX  16124 83182 32597 414// 10254 20206 39308 40118 82201 333 2//// 58000;
0137831820999992010021618004-11300-041867FM-12+074799999V02099999999992200019N0100001N1+03001+01491101011ADDGF104991041031008001001001MA1999999092931MD1999999+0011REMSYN070AAXX  16184 83182 32597 409// 10300 20149 39293 40101 84300 333 58001;
0143831820999992010021712004-11300-041867FM-12+074799999V02099999999992200019N0100001N1+02561+02081101311ADDGF103991011011012501041011MA1999999093321MD1999999+0141REMSYN076AAXX  17124 83182 32697 318// 10256 20208 39332 40131 81141 333 2//// 58014;
0137831820999992010021718004-11300-041867FM-12+074799999V02099999999992200019N0100001N1+03381+01571100911ADDGF102991021021008001001001MA1999999092861MD1999999-0071REMSYN070AAXX  17184 83182 32597 209// 10338 20157 39286 40091 82200 333 59007;
0143831820999992010021812004-11300-041867FM-12+074799999V02099999999992200019N0100001N1+02621+02051101181ADDGF103991031021008001001001MA1999999093121MD1999999-0101REMSYN076AAXX  18124 83182 32597 314// 10262 20205 39312 40118 83200 333 2//// 59010;
0137831820999992010021818004-11300-041867FM-12+074799999V02099999999992200019N0100001N1+03371+01471100841ADDGF108991021021008001001011MA1999999092841MD1999999-0021REMSYN070AAXX  18184 83182 32597 809// 10337 20147 39284 40084 82201 333 59002;
0168831820999992010021900004-11300-041867FM-12+074799999V02099999999999999999N0010001N1+02831+01691101121ADDGF108991001001999999001011KA1240M+03491MA1999999093061MD1999999+0191REMSYN088AAXX  19004 83182 32994 809// 10283 20169 39306 40112 80001 333 10349 29051 55103 58019;
0143831820999992010021912004-11300-041867FM-12+074799999V02099999999999999999N0100001N1+02631+02081101101ADDGF108991001001999999001021MA1999999093071MD1999999+0011REMSYN076AAXX  19124 83182 32997 805// 10263 20208 39307 40110 80002 333 2//// 58001;
0137831820999992010021918004-11300-041867FM-12+074799999V02099999999991050019N0100001N1+03511+01591100931ADDGF108991031021008001001031MA1999999092921MD1999999+0081REMSYN070AAXX  19184 83182 32597 809// 10351 20159 39292 40093 83203 333 58008;
0168831820999992010022000004-11300-041867FM-12+074799999V02099999999999999999N0010001N1+02721+01681101131ADDGF108991001001999999001011KA1240M+03551MA1999999093051MD1999999-0011REMSYN088AAXX  20004 83182 32994 814// 10272 20168 39305 40113 80001 333 10355 29052 55104 59001;
0143831820999992010022012004-11300-041867FM-12+074799999V02099999999990450019N0100001N1+02441+02171101341ADDGF108991021021008001041031MA1999999093231MD1999999+0161REMSYN076AAXX  20124 83182 32597 809// 10244 20217 39323 40134 82243 333 2//// 58016;
0137831820999992010022018004-11300-041867FM-12+074799999V02099999999991050019N0100001N1+03191+01921100921ADDGF108991031021008001001031MA1999999092901MD1999999-0021REMSYN070AAXX  20184 83182 32597 814// 10319 20192 39290 40092 83203 333 59002;
0168831820999992010022100004-11300-041867FM-12+074799999V02099999999990150019N0010001N1+02681+02041101041ADDGF108991081001017501011999KA1240M+03271MA1999999092941MD1999999-0111REMSYN088AAXX  21004 83182 32794 809// 10268 20204 39294 40104 8801/ 333 10327 29067 55042 59011;
0143831820999992010022112004-11300-041867FM-12+074799999V02099999999990450019N0100001N1+02681+02091101161ADDGF108991021021008001031011MA1999999093101MD1999999-0131REMSYN076AAXX  21124 83182 32597 809// 10268 20209 39310 40116 82231 333 2//// 59013;
0137831820999992010022118004-11300-041867FM-12+074799999V02099999999990450019N0100001N1+03281+01701100851ADDGF108991041021008001041011MA1999999092821MD1999999-0091REMSYN070AAXX  21184 83182 32597 814// 10328 20170 39282 40085 84241 333 59009;
0168831820999992010022200004-11300-041867FM-12+074799999V02099999999992200019N0010001N1+02641+01541100911ADDGF108991031001017501041011KA1240M+03411MA1999999092821MD1999999-0121REMSYN088AAXX  22004 83182 32794 809// 10264 20154 39282 40091 83041 333 10341 29053 55094 59012;
0143831820999992010022212004-11300-041867FM-12+074799999V02099999999991050019N0100001N1+02541+01651101231ADDGF108991041001017501031031MA1999999093131MD1999999+0001REMSYN076AAXX  22124 83182 32797 814// 10254 20165 39313 40123 84033 333 2//// 58000;
0137831820999992010022218004-11300-041867FM-12+074799999V02099999999990450019N0100001N1+03301+01091100691ADDGF108991031021008001031999MA1999999092701MD1999999-0121REMSYN070AAXX  22184 83182 32597 805// 10330 20109 39270 40069 8323/ 333 59012;
0168831820999992010022300004-11300-041867FM-12+074799999V02099999999990450019N0010001N1+02801+01461100911ADDGF108991041071004501021999KA1240M+03431MA1999999092851MD1999999+0031REMSYN088AAXX  23004 83182 32494 809// 10280 20146 39285 40091 8472/ 333 10343 29043 55055 58003;
0143831820999992010022312004-11300-041867FM-12+074799999V02099999999990450019N0100001N1+02441+01831101221ADDGF108991031051008001021999MA1999999093121MD1999999-0011REMSYN076AAXX  23124 83182 32597 809// 10244 20183 39312 40122 8352/ 333 2//// 59001;
0182831820999992010022318004-11300-041867FM-12+074799999V02099999999990042019N0100001N1+02141+02001100981ADDAA106011991AY121061AY221061GF108991051071004501021999MA1999999092801MD1999999-0051MW1621REMSYN082AAXX  23184 83182 21497 814// 10214 20200 39280 40098 76222 8572/ 333 59005 60121;
0213831820999992010022400004-11300-041867FM-12+074799999V02099999999990450019N0010001N1+02201+02011101131ADDAA106011991AY161061AY221061GF108991021071004501021999KA1240M+03161MA1999999092941MD1999999+0091MW1021REMSYN100AAXX  24004 83182 21494 814// 10220 20201 39294 40113 70262 8272/ 333 10316 29085 55014 58009 60121;
0160831820999992010022412004-11300-041867FM-12+074799999V02099999999990450019N0010001N1+02541+01981101351ADDAA124023991GF108991011021008001051011MA1999999093151MD1999999+0031REMSYN082AAXX  24124 83182 22594 814// 10254 20198 39315 40135 81251 333 2//// 58003 60244;
0137831820999992010022418004-11300-041867FM-12+074799999V02099999999991050019N0100001N1+02811+01611100841ADDGF108991041031008001001021MA1999999092741MD1999999-0061REMSYN070AAXX  24184 83182 32597 809// 10281 20161 39274 40084 84302 333 59006;
0213831820999992010022500004-11300-041867FM-12+074799999V02099999999990450019N0010001N1+02021+01761101111ADDAA106002091AY161061AY221061GF108991041071004501021999KA1240M+03051MA1999999092921MD1999999-0021MW1021REMSYN100AAXX  25004 83182 21494 809// 10202 20176 39292 40111 70262 8472/ 333 10305 29072 55059 59002 60021;
0188831820999992010022512004-11300-041867FM-12+074799999V02099999999990150019N0100001N1+02421+01721101291ADDAA124002091AY161061AY221061GF108991081001017501031011MA1999999093051MD1999999+0131MW1031REMSYN088AAXX  25124 83182 21797 814// 10242 20172 39305 40129 70362 88031 333 2//// 58013 60024;
0137831820999992010022518004-11300-041867FM-12+074799999V02099999999991050019N0100001N1+03231+01481100741ADDGF105991021021008001041021MA1999999092631MD1999999-0111REMSYN070AAXX  25184 83182 32597 527// 10323 20148 39263 40074 82242 333 59011;
0168831820999992010022600004-11300-041867FM-12+074799999V02099999999990450019N0010001N1+02481+01751101041ADDGF108991031051008001051011KA1240M+03301MA1999999092901MD1999999-0021REMSYN088AAXX  26004 83182 32594 836// 10248 20175 39290 40104 83551 333 10330 29057 55099 59002;
0143831820999992010022612004-11300-041867FM-12+074799999V02099999999992200019N0100001N1+02621+01551101061ADDGF102991021001017501041011MA1999999092951MD1999999-0101REMSYN076AAXX  26124 83182 32797 218// 10262 20155 39295 40106 82041 333 2//// 59010;
0165831820999992010022618004-11300-041867FM-12+074799999V02099999999990075019N0100001N1+03411+01071100641ADDAY111061AY221061GF108991051031008001041011MA1999999092641MD1999999+0011MW1151REMSYN076AAXX  26184 83182 31597 809// 10341 20107 39264 40064 71512 85341 333 58001;
0213831820999992010022700004-11300-041867FM-12+074799999V02099999999990450019N0200001N1+02641+01801100861ADDAA106003091AY161061AY221061GF108991011021008001051011KA1240M+03431MA1999999092811MD1999999-0091MW1021REMSYN100AAXX  27004 83182 21598 809// 10264 20180 39281 40086 70262 81251 333 10343 29050 55100 59009 60031;
0188831820999992010022712004-11300-041867FM-12+074799999V02099999999990075019N0100001N1+02641+01901101141ADDAA124003091AY161061AY221061GF108991061021008001041999MA1999999093061MD1999999+0111MW1031REMSYN088AAXX  27124 83182 21597 809// 10264 20190 39306 40114 70362 8624/ 333 2//// 58011 60034;
0182831820999992010022718004-11300-041867FM-12+074799999V02099999999990075019N0100001N1+03141+01451100681ADDAA106003091AY161061AY221061GF108991051031008001001021MA1999999092641MD1999999+0001MW1021REMSYN082AAXX  27184 83182 21597 814// 10314 20145 39264 40068 70262 85302 333 58000 60031;
0213831820999992010022800004-11300-041867FM-12+074799999V02099999999990042019N0010001N1+02411+02081101081ADDAA106000021AY121061AY221061GF108991061031004501021999KA1240M+03251MA1999999092971MD1999999+0161MW1601REMSYN100AAXX  28004 83182 21494 805// 10241 20208 39297 40108 76022 8632/ 333 10325 29066 55068 58016 69911;
0160831820999992010022812004-11300-041867FM-12+074799999V02099999999990450019N0100001N1+02701+01911101241ADDAA124003091GF108991011021008001051011MA1999999093121MD1999999+0061REMSYN082AAXX  28124 83182 22597 809// 10270 20191 39312 40124 81251 333 2//// 58006 60034;
0137831820999992010022818004-11300-041867FM-12+074799999V02099999999990075019N0100001N1+03321+01221100711ADDGF107991061031008001001011MA1999999092721MD1999999+0081REMSYN070AAXX  28184 83182 32597 714// 10332 20122 39272 40071 86301 333 58008;
0213831820999992010030100004-11300-041867FM-12+074799999V02099999999990075019N0010001N1+02441+02111101111ADDAA106003091AY161061AY221061GF108991081051008001999999KA1240M+03371MA1999999093001MD1999999+0031MW1021REMSYN100AAXX  01004 83182 21594 823// 10244 20211 39300 40111 70262 885// 333 10337 29064 55099 58003 60031;
0188831820999992010030112004-11300-041867FM-12+074799999V02099999999990042019N0100001N1+02201+02031101431ADDAA124039191AY161061AY261061GF108991051071004501021999MA1999999093211MD1999999-0211MW1621REMSYN088AAXX  01124 83182 21497 809// 10220 20203 39321 40143 76266 8572/ 333 2//// 59021 60394;
0182831820999992010030118004-11300-041867FM-12+074799999V02099999999990450019N0100001N1+02721+01851101031ADDAA106003091AY161061AY221061GF108991041021008001031011MA1999999092911MD1999999+0191MW1021REMSYN082AAXX  01184 83182 21597 809// 10272 20185 39291 40103 70262 84231 333 58019 60031;
0168831820999992010030200004-11300-041867FM-12+074799999V02099999999990450019N0010001N1+02271+02001101151ADDGF108991041051008001031011KA1240M+02841MA1999999092971MD1999999-0031REMSYN088AAXX  02004 83182 32594 814// 10227 20200 39297 40115 84531 333 10284 29080 55022 59003;
0143831820999992010030212004-11300-041867FM-12+074799999V02099999999992200019N0100001N1+02641+01581101201ADDGF108991021021008001001011MA1999999093051MD1999999-0161REMSYN076AAXX  02124 83182 32597 809// 10264 20158 39305 40120 82201 333 2//// 59016;
0137831820999992010030218004-11300-041867FM-12+074799999V02099999999990450019N0100001N1+02341+01781101111ADDGF108991041031008001021011MA1999999092881MD1999999-0031REMSYN070AAXX  02184 83182 32597 805// 10234 20178 39288 40111 84321 333 59003;
0168831820999992010030300004-11300-041867FM-12+074799999V02099999999990450019N0010001N1+02621+02161100991ADDGF108991011031008001041021KA1240M+03021MA1999999092911MD1999999-0061REMSYN088AAXX  03004 83182 32594 814// 10262 20216 39291 40099 81342 333 10302 29069 55068 59006;
0143831820999992010030312004-11300-041867FM-12+074799999V02099999999990075019N0100001N1+02541+01661101271ADDGF108991051031008001021999MA1999999093161MD1999999+0111REMSYN076AAXX  03124 83182 32597 809// 10254 20166 39316 40127 8532/ 333 2//// 58011;
0182831820999992010030318004-11300-041867FM-12+074799999V02099999999990075019N0100001N1+02661+02141100941ADDAA106000591AY121061AY221061GF108991061031008001021011MA1999999092801MD1999999-0081MW1601REMSYN082AAXX  03184 83182 21597 809// 10266 20214 39280 40094 76022 86321 333 59008 69951;
0213831820999992010030400004-11300-041867FM-12+074799999V02099999999990450019N0010001N1+02141+01901101141ADDAA106006191AY161061AY261061GF108991041071004501021999KA1240M+03161MA1999999092961MD1999999+0061MW1501REMSYN100AAXX  04004 83182 21494 814// 10214 20190 39296 40114 75066 8472/ 333 10316 29080 55004 58006 60061;
0188831820999992010030412004-11300-041867FM-12+074799999V02099999999990450019N0100001N1+02241+01971101291ADDAA124013091AY161061AY261061GF108991031051008001021011MA1999999093051MD1999999-0111MW1021REMSYN088AAXX  04124 83182 21597 809// 10224 20197 39305 40129 70266 83521 333 2//// 59011 60134;
0137831820999992010030418004-11300-041867FM-12+074799999V02099999999990450019N0100001N1+02961+01781100871ADDGF108991041031008001031011MA1999999092761MD1999999-0041REMSYN070AAXX  04184 83182 32597 814// 10296 20178 39276 40087 84331 333 59004;
0188831820999992010030512004-11300-041867FM-12+074799999V02099999999990042019N0100001N1+02121+01911101391ADDAA124064091AY161061AY261061GF108991071071004501021999MA1999999093111MD1999999+0061MW1601REMSYN088AAXX  05124 83182 21497 823// 10212 20191 39311 40139 76066 8772/ 333 2//// 58006 60644;
0182831820999992010030518004-11300-041867FM-12+074799999V02099999999990450019N0100001N1+02331+02021101061ADDAA106011991AY161061AY221061GF108991011031008001021999MA1999999092841MD1999999+0081MW1021REMSYN082AAXX  05184 83182 21597 809// 10233 20202 39284 40106 70262 8132/ 333 58008 60121;
0168831820999992010030600004-11300-041867FM-12+074799999V02099999999990042019N0010001N1+02271+02081101071ADDGF108991061071004501021999KA1240M+02531MA1999999092851MD1999999+0101REMSYN088AAXX  06004 83182 32494 832// 10227 20208 39285 40107 8672/ 333 10253 29087 55007 58010;
0188831820999992010030612004-11300-041867FM-12+074799999V02099999999990450019N0100001N1+02441+01741100951ADDAA124000891AY161061AY221061GF108991021021017501031011MA1999999092811MD1999999-0301MW1031REMSYN088AAXX  06124 83182 21797 809// 10244 20174 39281 40095 70362 82231 333 2//// 59030 69984;
0137831820999992010030618004-11300-041867FM-12+074799999V02099999999990450019N0100001N1+03021+01731100541ADDGF108991041021008001041011MA1999999092481MD1999999-0361REMSYN070AAXX  06184 83182 32597 827// 10302 20173 39248 40054 84241 333 59036;
0168831820999992010030700004-11300-041867FM-12+074799999V02099999999990042019N0010001N1+02381+02011100941ADDGF108991061071004501021999KA1240M+03101MA1999999092801MD1999999-0051REMSYN088AAXX  07004 83182 32494 827// 10238 20201 39280 40094 8672/ 333 10310 29068 55099 59005;
0143831820999992010030712004-11300-041867FM-12+074799999V02099999999990450019N0100001N1+02461+01831101021ADDGF108991021021008001051011MA1999999092871MD1999999+0021REMSYN076AAXX  07124 83182 32597 827// 10246 20183 39287 40102 82251 333 2//// 58002;
0182831820999992010030718004-11300-041867FM-12+074799999V02099999999990075019N0100001N1+02721+01931100801ADDAA106006191AY161061AY221061GF108991051031008001041011MA1999999092661MD1999999+0181MW1021REMSYN082AAXX  07184 83182 21597 832// 10272 20193 39266 40080 70262 85341 333 58018 60061;
0213831820999992010030800004-11300-041867FM-12+074799999V02099999999990042019N0010001N1+02231+02001101131ADDAA106000591AY161061AY221061GF108991061071004501021999KA1240M+02911MA1999999092951MD1999999+0151MW1021REMSYN100AAXX  08004 83182 21494 814// 10223 20200 39295 40113 70262 8672/ 333 10291 29076 55049 58015 69951;
0188831820999992010030812004-11300-041867FM-12+074799999V02099999999990450019N0100001N1+02431+02081101261ADDAA124007191AY161061AY221061GF106991011021008001041011MA1999999093051MD1999999+0181MW1031REMSYN088AAXX  08124 83182 21597 614// 10243 20208 39305 40126 70362 81241 333 2//// 58018 60074;
0137831820999992010030818004-11300-041867FM-12+074799999V02099999999991050019N0100001N1+03121+01681100791ADDGF107991031031008001001021MA1999999092731MD1999999+0071REMSYN070AAXX  08184 83182 32597 736// 10312 20168 39273 40079 83302 333 58007;
0168831820999992010030900004-11300-041867FM-12+074799999V02099999999990450019N0010001N1+02561+01931101081ADDGF108991041021008001021001KA1240M+03281MA1999999092951MD1999999+0001REMSYN088AAXX  09004 83182 32594 809// 10256 20193 39295 40108 84220 333 10328 29071 55092 58000;
0143831820999992010030912004-11300-041867FM-12+074799999V02099999999990075019N0100001N1+02761+02121101191ADDGF108991061021008001031011MA1999999093131MD1999999+0081REMSYN076AAXX  09124 83182 32597 814// 10276 20212 39313 40119 86231 333 2//// 58008;
0182831820999992010030918004-11300-041867FM-12+074799999V02099999999990450019N0100001N1+02361+02191101101ADDAA106011991AY161061AY261061GF108991031031004501021999MA1999999092911MD1999999+0181MW1021REMSYN082AAXX  09184 83182 21497 818// 10236 20219 39291 40110 70266 8332/ 333 58018 60121;
0232831820999992010031000004-11300-041867FM-12+074799999V02099999999990450019N0010001N1+02311+02191101091ADDAA106000091AY161061AY221061GF108991031071004501021999KA1240M+02971MA1999999092981MD1999999+0031MW1021REMSYN100AAXX  10004 83182 21494 814// 10231 20219 39298 40109 70262 8372/ 333 10297 29086 55041 58003 69921;EQDQ01  00002PRCP06
0188831820999992010031012004-11300-041867FM-12+074799999V02099999999992200019N0100001N1+02481+02031101151ADDAA124011991AY161061AY221061GF103991021011012501041011MA1999999092991MD1999999-0141MW1031REMSYN088AAXX  10124 83182 21697 318// 10248 20203 39299 40115 70362 82141 333 2//// 59014 60124;
0137831820999992010031018004-11300-041867FM-12+074799999V02099999999990075019N0100001N1+03021+01621100761ADDGF107991051031008001001011MA1999999092701MD1999999-0211REMSYN070AAXX  10184 83182 32597 709// 10302 20162 39270 40076 85301 333 59021;
0168831820999992010031100004-11300-041867FM-12+074799999V02099999999992200019N0010001N1+02601+01571100871ADDGF103991011021008001001011KA1240M+03111MA1999999092781MD1999999-0201REMSYN088AAXX  11004 83182 32594 309// 10260 20157 39278 40087 81201 333 10311 29056 55102 59020;
0143831820999992010031112004-11300-041867FM-12+074799999V02099999999999999999N0100001N1+02621+01981101011ADDGF108991001001999999001011MA1999999092931MD1999999-0061REMSYN076AAXX  11124 83182 32997 809// 10262 20198 39293 40101 80001 333 2//// 59006;
0137831820999992010031118004-11300-041867FM-12+074799999V02099999999992200019N0100001N1+02341+01451100631ADDGF104991021021008001001011MA1999999092611MD1999999-0091REMSYN070AAXX  11184 83182 32597 432// 10234 20145 39261 40063 82201 333 59009;
0178831820999992010031200004-11300-041867FM-12+074799999V02099999999992200019N0010001N1+02721+01821100721ADDGA1001+999999999GF100991001001999999001001KA1240M+03411MA1999999092681MD1999999-0101REMSYN082AAXX  12004 83182 32994 014// 10272 20182 39268 40072 333 10341 29054 55108 59010;
0143831820999992010031212004-11300-041867FM-12+074799999V02099999999992200019N0100001N1+02771+02041101041ADDGF108991011011012501001011MA1999999093011MD1999999+0081REMSYN076AAXX  12124 83182 32697 814// 10277 20204 39301 40104 81101 333 2//// 58008;
0137831820999992010031218004-11300-041867FM-12+074799999V02099999999992200019N0100001N1+03341+01401100611ADDGF103991021021008001001011MA1999999092611MD1999999+0001REMSYN070AAXX  12184 83182 32597 318// 10334 20140 39261 40061 82201 333 58000;
0168831820999992010031300004-11300-041867FM-12+074799999V02099999999992200019N0100001N1+02701+01661100961ADDGF105991021021008001001011KA1240M+03401MA1999999092941MD1999999+0261REMSYN088AAXX  13004 83182 32597 509// 10270 20166 39294 40096 82201 333 10340 29050 55109 58026;
0143831820999992010031312004-11300-041867FM-12+074799999V02099999999992200019N0100001N1+02801+01901101201ADDGF101991011001017501041001MA1999999093141MD1999999+0131REMSYN076AAXX  13124 83182 32797 109// 10280 20190 39314 40120 81040 333 2//// 58013;
0137831820999992010031318004-11300-041867FM-12+074799999V02099999999992200019N0100001N1+03341+00811100801ADDGF101991011011012501001001MA1999999092741MD1999999+0131REMSYN070AAXX  13184 83182 32697 109// 10334 20081 39274 40080 81100 333 58013;
0178831820999992010031400004-11300-041867FM-12+074799999V02099999999992200019N0010001N1+02481+01701101121ADDGA1001+999999999GF100991001001999999001001KA1240M+03371MA1999999093031MD1999999+0091REMSYN082AAXX  14004 83182 32994 009// 10248 20170 39303 40112 333 10337 29051 55107 58009;
0143831820999992010031412004-11300-041867FM-12+074799999V02099999999992200019N0100001N1+02641+01691101361ADDGF102991011011012501001011MA1999999093241MD1999999+0101REMSYN076AAXX  14124 83182 32697 209// 10264 20169 39324 40136 81101 333 2//// 58010;
0137831820999992010031418004-11300-041867FM-12+074799999V02099999999992200019N0100001N1+03061+01421100991ADDGF108991021021008001001011MA1999999092891MD1999999+0151REMSYN070AAXX  14184 83182 32597 818// 10306 20142 39289 40099 82201 333 58015;
0168831820999992010031500004-11300-041867FM-12+074799999V02099999999999999999N0010001N1+02531+01741101221ADDGF108991001001999999001011KA1240M+03161MA1999999093121MD1999999+0091REMSYN088AAXX  15004 83182 32994 809// 10253 20174 39312 40122 80001 333 10316 29054 55103 58009;
0143831820999992010031512004-11300-041867FM-12+074799999V02099999999990075019N0100001N1+02461+01971101341ADDGF108991081021008001001001MA1999999092201MD1999999-0041REMSYN076AAXX  15124 83182 32597 814// 10246 20197 39220 40134 88200 333 2//// 59004;
0137831820999992010031518004-11300-041867FM-12+074799999V02099999999992200019N0100001N1+03081+01521101031ADDGF106991041031008001001011MA1999999092931MD1999999+0041REMSYN070AAXX  15184 83182 32597 614// 10308 20152 39293 40103 84301 333 58004;
0178831820999992010031600004-11300-041867FM-12+074799999V02099999999992200019N0010001N1+02441+01641101061ADDGA1001+999999999GF100991001001999999001001KA1240M+03161MA1999999092921MD1999999-0201REMSYN082AAXX  16004 83182 32994 009// 10244 20164 39292 40106 333 10316 29059 55107 59020;
0143831820999992010031612004-11300-041867FM-12+074799999V02099999999990075019N0100001N1+02581+01741101361ADDGF105991051021008001001001MA1999999093221MD1999999+0021REMSYN076AAXX  16124 83182 32597 514// 10258 20174 39322 40136 85200 333 2//// 58002;
0137831820999992010031618004-11300-041867FM-12+074799999V02099999999992200019N0100001N1+03121+01561100891ADDGF102991021021008001001001MA1999999092801MD1999999-0131REMSYN070AAXX  16184 83182 32597 209// 10312 20156 39280 40089 82200 333 59013;
0168831820999992010031700004-11300-041867FM-12+074799999V02099999999992200019N0010001N1+02441+01691101031ADDGF102991021011012501001001KA1240M+03211MA1999999092911MD1999999-0011REMSYN088AAXX  17004 83182 32694 209// 10244 20169 39291 40103 82100 333 10321 29056 55109 59001;
0143831820999992010031712004-11300-041867FM-12+074799999V02099999999992200019N0100001N1+02441+01691101361ADDGF104991041021008001001001MA1999999093201MD1999999-0021REMSYN076AAXX  17124 83182 32597 414// 10244 20169 39320 40136 84200 333 2//// 59002;
0137831820999992010031718004-11300-041867FM-12+074799999V02099999999992200019N0100001N1+03141+01411100891ADDGF106991031021008001001011MA1999999092801MD1999999+0001REMSYN070AAXX  17184 83182 32597 609// 10314 20141 39280 40089 83201 333 58000;
0168831820999992010031800004-11300-041867FM-12+074799999V02099999999999999999N0010001N1+02431+01631101141ADDGF108991001001999999001011KA1240M+03181MA1999999093011MD1999999+0101REMSYN088AAXX  18004 83182 32994 809// 10243 20163 39301 40114 80001 333 10318 29055 55106 58010;
0143831820999992010031812004-11300-041867FM-12+074799999V02099999999992200019N0100001N1+02531+01991101371ADDGF103991021021008001001011MA1999999093231MD1999999+0031REMSYN076AAXX  18124 83182 32597 314// 10253 20199 39323 40137 82201 333 2//// 58003;
0137831820999992010031818004-11300-041867FM-12+074799999V02099999999992200019N0100001N1+03181+01661101031ADDGF106991041031008001001011MA1999999092961MD1999999+0161REMSYN070AAXX  18184 83182 32597 618// 10318 20166 39296 40103 84301 333 58016;
0168831820999992010031900004-11300-041867FM-12+074799999V02099999999999999999N0010001N1+02541+01681101201ADDGF108991001001999999001011KA1240M+03281MA1999999093081MD1999999+0071REMSYN088AAXX  19004 83182 32994 814// 10254 20168 39308 40120 80001 333 10328 29057 55106 58007;
0143831820999992010031912004-11300-041867FM-12+074799999V02099999999990075019N0100001N1+02471+01931101471ADDGF108991081051008001999999MA1999999093321MD1999999+0091REMSYN076AAXX  19124 83182 32597 809// 10247 20193 39332 40147 885// 333 2//// 58009;
0137831820999992010031918004-11300-041867FM-12+074799999V02099999999990450019N0100001N1+03041+01571100881ADDGF108991041021008001041011MA1999999092811MD1999999-0151REMSYN070AAXX  19184 83182 32597 809// 10304 20157 39281 40088 84241 333 59015;
0168831820999992010032000004-11300-041867FM-12+074799999V02099999999990450019N9999999N1+02521+01841101171ADDGF108991021021008001041011KA1240M+03151MA1999999093041MD1999999-0041REMSYN088AAXX  20004 83182 325// 809// 10252 20184 39304 40117 82241 333 10315 29061 55062 59004;
0188831820999992010032012004-11300-041867FM-12+074799999V02099999999990075019N0100001N1+02341+02181101381ADDAA124007191AY161061AY221061GF108991061071008001021999MA1999999093241MD1999999-0081MW1021REMSYN088AAXX  20124 83182 21597 818// 10234 20218 39324 40138 70262 8672/ 333 2//// 59008 60074;
0137831820999992010032018004-11300-041867FM-12+074799999V02099999999992200019N0100001N1+02941+01881100851ADDGF108991031021008001001011MA1999999092781MD1999999-0031REMSYN070AAXX  20184 83182 32597 827// 10294 20188 39278 40085 83201 333 59003;
0168831820999992010032100004-11300-041867FM-12+074799999V02099999999990450019N0010001N1+02301+01921101151ADDGF108991031051008001061021KA1240M+02941MA1999999092951MD1999999-0091REMSYN088AAXX  21004 83182 32594 814// 10230 20192 39295 40115 83562 333 10294 29076 55052 59009;
0188831820999992010032112004-11300-041867FM-12+074799999V02099999999990075019N0100001N1+02421+02251101271ADDAA124019191AY161061AY261061GF108991051021008001041011MA1999999093081MD1999999-0161MW1021REMSYN088AAXX  21124 83182 21597 814// 10242 20225 39308 40127 70266 85241 333 2//// 59016 60194;
0165831820999992010032118004-11300-041867FM-12+074799999V02099999999990450019N0100001N1+02681+02111100951ADDAY111061AY261061GF108991041031008001041031MA1999999092801MD1999999+0021MW1021REMSYN076AAXX  21184 83182 31597 832// 10268 20211 39280 40095 70216 84343 333 58002;
0213831820999992010032200004-11300-041867FM-12+074799999V02099999999990042019N0010001N1+02121+02101101161ADDAA106000891AY161061AY221061GF108991051071004501021999KA1240M+03001MA1999999092961MD1999999+0011MW1601REMSYN100AAXX  22004 83182 21494 836// 10212 20210 39296 40116 76062 8572/ 333 10300 29090 55018 58001 69981;
0188831820999992010032212004-11300-041867FM-12+074799999V02099999999990450019N0100001N1+02361+02091101351ADDAA124003091AY161061AY261061GF106991041021008001041001MA1999999093121MD1999999+0041MW1031REMSYN088AAXX  22124 83182 21597 609// 10236 20209 39312 40135 70366 84240 333 2//// 58004 60034;
0137831820999992010032218004-11300-041867FM-12+074799999V02099999999990075019N0100001N1+02721+02101100941ADDGF108991051021008001031021MA1999999092801MD1999999+0001REMSYN070AAXX  22184 83182 32597 832// 10272 20210 39280 40094 85232 333 58000;
0168831820999992010032300004-11300-041867FM-12+074799999V02099999999999999999N0010001N1+02181+02031101261ADDGF108991001001999999001011KA1240M+02831MA1999999093041MD1999999+0081REMSYN088AAXX  23004 83182 32994 814// 10218 20203 39304 40126 80001 333 10283 29084 55052 58008;
0188831820999992010032312004-11300-041867FM-12+074799999V02099999999990450019N0100001N1+02381+02111101441ADDAA124001091AY161061AY221061GF108991021021008001031001MA1999999093221MD1999999+0101MW1021REMSYN088AAXX  23124 83182 21597 836// 10238 20211 39322 40144 70262 82230 333 2//// 58010 69994;
0182831820999992010032318004-11300-041867FM-12+074799999V02099999999990450019N0100001N1+02441+02091101131ADDAA106010991AY161061AY261061GF108991041031008001021011MA1999999092901MD1999999+0101MW1621REMSYN082AAXX  23184 83182 21597 823// 10244 20209 39290 40113 76266 84321 333 58010 60111;
0213831820999992010032400004-11300-041867FM-12+074799999V02099999999999999999N0010001N1+02301+02271101151ADDAA106000021AY161061AY221061GF108991001001999999001011KA1240M+02961MA1999999092971MD1999999-0071MW1021REMSYN100AAXX  24004 83182 21994 814// 10230 20227 39297 40115 70262 80001 333 10296 29090 55023 59007 69921;
0160831820999992010032412004-11300-041867FM-12+074799999V02099999999990450019N0100001N1+02541+01881101341ADDAA124010991GF108991021021008001041011MA1999999093161MD1999999-0061REMSYN082AAXX  24124 83182 22597 809// 10254 20188 39316 40134 82241 333 2//// 59006 60114;
0137831820999992010032418004-11300-041867FM-12+074799999V02099999999992200019N0100001N1+02981+01441100921ADDGF104991031021008001031001MA1999999092831MD1999999-0071REMSYN070AAXX  24184 83182 32597 409// 10298 20144 39283 40092 83230 333 59007;
0178831820999992010032500004-11300-041867FM-12+074799999V02099999999992200019N0010001N1+02201+01691101111ADDGA1001+999999999GF100991001001999999001001KA1240M+03041MA1999999092941MD1999999-0031REMSYN082AAXX  25004 83182 32994 014// 10220 20169 39294 40111 333 10304 29063 55096 59003;
0143831820999992010032512004-11300-041867FM-12+074799999V02099999999990450019N0100001N1+02381+01731101451ADDGF106991021021008001041001MA1999999093231MD1999999+0061REMSYN076AAXX  25124 83182 32597 609// 10238 20173 39323 40145 82240 333 2//// 58006;
0137831820999992010032518004-11300-041867FM-12+074799999V02099999999992200019N0100001N1+02941+01511101081ADDGF105991041021008001001011MA1999999092911MD1999999+0081REMSYN070AAXX  25184 83182 32597 509// 10294 20151 39291 40108 84201 333 58008;
0168831820999992010032600004-11300-041867FM-12+074799999V02099999999992200019N0010001N1+02321+02001101141ADDGF102991001001999999001011KA1240M+03031MA1999999092961MD1999999+0021REMSYN088AAXX  26004 83182 32994 214// 10232 20200 39296 40114 80001 333 10303 29068 55106 58002;
0143831820999992010032612004-11300-041867FM-12+074799999V02099999999990075019N0100001N1+02441+01811101361ADDGF106991061021008001001001MA1999999093181MD1999999-0051REMSYN076AAXX  26124 83182 32597 605// 10244 20181 39318 40136 86200 333 2//// 59005;
0137831820999992010032618004-11300-041867FM-12+074799999V02099999999992200019N0100001N1+02781+01821100981ADDGF102991011031008001001011MA1999999092821MD1999999-0091REMSYN070AAXX  26184 83182 32597 214// 10278 20182 39282 40098 81301 333 59009;
0168831820999992010032700004-11300-041867FM-12+074799999V02099999999991050019N0010001N1+02041+01951101311ADDGF108991021001017501061021KA1240M+02881MA1999999093081MD1999999+0121REMSYN088AAXX  27004 83182 32794 814// 10204 20195 39308 40131 82062 333 10288 29076 55077 58012;
0143831820999992010032712004-11300-041867FM-12+074799999V02099999999990075019N0100001N1+02481+01921101391ADDGF108991081051008001999999MA1999999093151MD1999999-0031REMSYN076AAXX  27124 83182 32597 809// 10248 20192 39315 40139 885// 333 2//// 59003;
0137831820999992010032718004-11300-041867FM-12+074799999V02099999999992200019N0100001N1+02941+01511100961ADDGF104991031021008001001011MA1999999092831MD1999999+0011REMSYN070AAXX  27184 83182 32597 409// 10294 20151 39283 40096 83201 333 58001;
0168831820999992010032800004-11300-041867FM-12+074799999V02099999999999999999N0010001N1+02281+01881101121ADDGF108991001001999999001011KA1240M+02991MA1999999092961MD1999999-0121REMSYN088AAXX  28004 83182 32994 814// 10228 20188 39296 40112 80001 333 10299 29067 55098 59012;
0143831820999992010032812004-11300-041867FM-12+074799999V02099999999990075019N0100001N1+02541+01951101301ADDGF106991061021008001001001MA1999999093121MD1999999-0021REMSYN076AAXX  28124 83182 32597 609// 10254 20195 39312 40130 86200 333 2//// 59002;
0137831820999992010032818004-11300-041867FM-12+074799999V02099999999992200019N0100001N1+02961+01741100831ADDGF103991031021008001001001MA1999999092711MD1999999-0121REMSYN070AAXX  28184 83182 32597 314// 10296 20174 39271 40083 83200 333 59012;
0168831820999992010032900004-11300-041867FM-12+074799999V02099999999990150019N0010001N1+03041+01871101161ADDGF106991061001017501051001KA1240M+03041MA1999999093061MD1999999+0061REMSYN088AAXX  29004 83182 32794 609// 10304 20187 39306 40116 86050 333 10304 29068 55096 58006;
0143831820999992010032912004-11300-041867FM-12+074799999V02099999999990450019N0100001N1+02421+01911101221ADDGF108991021021008001031011MA1999999093171MD1999999+0041REMSYN076AAXX  29124 83182 32597 809// 10242 20191 39317 40122 82231 333 2//// 58004;
0156831820999992010032918004-11300-041867FM-12+074799999V02099999999990075019N0100001N1+02941+01691100961ADDGF108991999031008001001001MA1999999092831MD1999999+0121REMSYN070AAXX  29184 83182 32597 809// 10294 20169 39283 40096 86300 333 58012;EQDQ01+000062SCOTLC
0168831820999992010033000004-11300-041867FM-12+074799999V02099999999999999999N0010001N1+02421+01991101141ADDGF107991001001999999001011KA1240M+03011MA1999999093001MD1999999-0021REMSYN088AAXX  30004 83182 32994 709// 10242 20199 39300 40114 80001 333 10301 29069 55045 59002;
0143831820999992010033012004-11300-041867FM-12+074799999V02099999999992200019N0100001N1+02521+01791101241ADDGF103991011011012501041001MA1999999093091MD1999999-0081REMSYN076AAXX  30124 83182 32697 314// 10252 20179 39309 40124 81140 333 2//// 59008;
0137831820999992010033018004-11300-041867FM-12+074799999V02099999999992200019N0100001N1+03161+01671100861ADDGF102991021031008001001001MA1999999092791MD1999999+0041REMSYN070AAXX  30184 83182 32597 223// 10316 20167 39279 40086 82300 333 58004;
0213831820999992010033100004-11300-041867FM-12+074799999V02099999999992200019N0010001N1+02321+02051101111ADDAA106005191AY161061AY221061GF108991031001017501041011KA1240M+03251MA1999999092951MD1999999-0051MW1021REMSYN100AAXX  31004 83182 21794 809// 10232 20205 39295 40111 70262 83041 333 10325 29069 55091 59005 60051;
0160831820999992010033112004-11300-041867FM-12+074799999V02099999999992200019N0100001N1+02601+02061101111ADDAA124005191GF102991021021008001001001MA1999999092971MD1999999-0121REMSYN082AAXX  31124 83182 22597 214// 10260 20206 39297 40111 82200 333 2//// 59012 60054;
0137831820999992010033118004-11300-041867FM-12+074799999V02099999999992200019N0100001N1+03221+01341100651ADDGF108991021021008001001011MA1999999092601MD1999999-0191REMSYN070AAXX  31184 83182 32597 809// 10322 20134 39260 40065 82201 333 59019;
0168831820999992010040100004-11300-041867FM-12+074799999V02099999999999999999N0010001N1+02441+01861100931ADDGF108991001001999999001011KA1240M+03351MA1999999092821MD1999999-0131REMSYN088AAXX  01004 83182 32994 809// 10244 20186 39282 40093 80001 333 10335 29061 55107 59013;
0143831820999992010040112004-11300-041867FM-12+074799999V02099999999992200019N0100001N1+02561+01951101041ADDGF103991021021008001001011MA1999999092921MD1999999-0051REMSYN076AAXX  01124 83182 32597 309// 10256 20195 39292 40104 82201 333 2//// 59005;
0137831820999992010040118004-11300-041867FM-12+074799999V02099999999992200019N0100001N1+03121+01391100691ADDGF107991041031008001001011MA1999999092621MD1999999+0021REMSYN070AAXX  01184 83182 32597 723// 10312 20139 39262 40069 84301 333 58002;
0168831820999992010040200004-11300-041867FM-12+074799999V02099999999990150019N0010001N1+02541+01761100861ADDGF108991081001017501011999KA1240M+03241MA1999999092771MD1999999-0051REMSYN088AAXX  02004 83182 32794 814// 10254 20176 39277 40086 8801/ 333 10324 29057 55099 59005;
0143831820999992010040212004-11300-041867FM-12+074799999V02099999999990075019N0100001N1+02541+01981101121ADDGF108991081051008001999999MA1999999093011MD1999999+0091REMSYN076AAXX  02124 83182 32597 809// 10254 20198 39301 40112 885// 333 2//// 58009;
0137831820999992010040218004-11300-041867FM-12+074799999V02099999999992200019N0100001N1+03081+01851100651ADDGF108991021031008001001011MA1999999092611MD1999999-0011REMSYN070AAXX  02184 83182 32597 814// 10308 20185 39261 40065 82301 333 59001;
0196831820999992010040300004-11300-041867FM-12+074799999V02099999999990450019N0010001N1+02501+01941101031ADDAY121061AY221061GF108991021031008001041021KA1240M+03131MA1999999092911MD1999999+0141MW1131REMSYN094AAXX  03004 83182 31594 809// 10250 20194 39291 40103 71322 82342 333 10313 29065 55086 58014;
0143831820999992010040312004-11300-041867FM-12+074799999V02099999999990075019N0100001N1+02661+01971101271ADDGF107991061021008001041001MA1999999093161MD1999999+0151REMSYN076AAXX  03124 83182 32597 709// 10266 20197 39316 40127 86240 333 2//// 58015;
0182831820999992010040318004-11300-041867FM-12+074799999V02099999999990450019N0100001N1+02561+02161100961ADDAA106007991AY161061AY221061GF108991021031008001061021MA1999999092801MD1999999+0191MW1151REMSYN082AAXX  03184 83182 21597 836// 10256 20216 39280 40096 71562 82362 333 58019 60081;
0168831820999992010040400004-11300-041867FM-12+074799999V02099999999990075019N0010001N1+02341+02071101181ADDGF108991081051008001999999KA1240M+03061MA1999999093051MD1999999+0141REMSYN088AAXX  04004 83182 32594 814// 10234 20207 39305 40118 885// 333 10306 29078 55042 58014;
0188831820999992010040412004-11300-041867FM-12+074799999V02099999999990075019N0100001N1+02421+01951101281ADDAA124007991AY161061AY221061GF108991071021008001041001MA1999999093111MD1999999+0011MW1021REMSYN088AAXX  04124 83182 21597 809// 10242 20195 39311 40128 70262 87240 333 2//// 58001 60084;
0182831820999992010040418004-11300-041867FM-12+074799999V02099999999990075019N0100001N1+02721+02051100871ADDAA106003091AY161061AY221061GF108991061031008001001021MA1999999092751MD1999999-0051MW1501REMSYN082AAXX  04184 83182 21597 814// 10272 20205 39275 40087 75062 86302 333 59005 60031;
0213831820999992010040500004-11300-041867FM-12+074799999V02099999999990075019N0010001N1+02341+02051101041ADDAA106000021AY161061AY221061GF108991051051008001021999KA1240M+03001MA1999999092891MD1999999-0161MW1021REMSYN100AAXX  05004 83182 21594 809// 10234 20205 39289 40104 70262 8552/ 333 10300 29078 55078 59016 69921;
0188831820999992010040512004-11300-041867FM-12+074799999V02099999999990075019N0100001N1+02521+02001101221ADDAA124004191AY161061AY221061GF105991051021008001001001MA1999999093051MD1999999-0061MW1031REMSYN088AAXX  05124 83182 21597 523// 10252 20200 39305 40122 70362 85200 333 2//// 59006 60044;
0137831820999992010040518004-11300-041867FM-12+074799999V02099999999990075019N0100001N1+03121+01751100901ADDGF107991051031008001001021MA1999999092801MD1999999+0051REMSYN070AAXX  05184 83182 32597 714// 10312 20175 39280 40090 85302 333 58005;
0168831820999992010040600004-11300-041867FM-12+074799999V02099999999999999999N0010001N1+02501+01981100941ADDGF106991001001999999001011KA1240M+03131MA1999999092831MD1999999+0061REMSYN088AAXX  06004 83182 32994 609// 10250 20198 39283 40094 80001 333 10313 29066 55093 58006;
0143831820999992010040612004-11300-041867FM-12+074799999V02099999999992200019N0100001N1+02521+02001101031ADDGF104991021021008001001011MA1999999092911MD1999999-0141REMSYN076AAXX  06124 83182 32597 409// 10252 20200 39291 40103 82201 333 2//// 59014;
0137831820999992010040618004-11300-041867FM-12+074799999V02099999999992200019N0100001N1+03211+01431100531ADDGF105991031031008001001011MA1999999092531MD1999999-0271REMSYN070AAXX  06184 83182 32597 536// 10321 20143 39253 40053 83301 333 59027;
0168831820999992010040700004-11300-041867FM-12+074799999V02099999999992200019N0010001N1+02641+01901100631ADDGF104991001001999999001011KA1240M+03381MA1999999092561MD1999999-0271REMSYN088AAXX  07004 83182 32994 414// 10264 20190 39256 40063 80001 333 10338 29059 55095 59027;
0143831820999992010040712004-11300-041867FM-12+074799999V02099999999990075019N0100001N1+02681+02111100851ADDGF108991061031008001001011MA1999999092801MD1999999-0111REMSYN076AAXX  07124 83182 32597 836// 10268 20211 39280 40085 86301 333 2//// 59011;
0201831820999992010040718004-11300-041867FM-12+074799999V02099999999990075019N0100001N1+02541+02041100551ADDAA106000091AY161061AY221061GF108991061051008001021999MA1999999092441MD1999999-0091MW1021REMSYN082AAXX  07184 83182 21597 805// 10254 20204 39244 40055 70262 8652/ 333 59009 69911;EQDQ01  00002PRCP06
0168831820999992010040800004-11300-041867FM-12+074799999V02099999999990075019N0010001N1+02261+02111100961ADDGF108991081051008001999999KA1240M+02771MA1999999092831MD1999999+0271REMSYN088AAXX  08004 83182 32594 836// 10226 20211 39283 40096 885// 333 10277 29082 55032 58027;
0188831820999992010040812004-11300-041867FM-12+074799999V02099999999990042019N0100001N1+02041+01971101131ADDAA124026991AY161061AY261061GF108991051071004501021999MA1999999092881MD1999999+0081MW1021REMSYN088AAXX  08124 83182 21497 814// 10204 20197 39288 40113 70266 8572/ 333 2//// 58008 60274;
0182831820999992010040818004-11300-041867FM-12+074799999V02099999999990075019N0100001N1+02681+02351100751ADDAA106006191AY161061AY221061GF108991051031008001031999MA1999999092611MD1999999+0171MW1021REMSYN082AAXX  08184 83182 21597 809// 10268 20235 39261 40075 70262 8533/ 333 58017 60061;
0213831820999992010040900004-11300-041867FM-12+074799999V02099999999990042019N0010001N1+02021+02001101261ADDAA106024991AY161061AY261061GF108991061051004501021999KA1240M+02811MA1999999092971MD1999999+0141MW1601REMSYN100AAXX  09004 83182 21494 814// 10202 20200 39297 40126 76066 8652/ 333 10281 29094 55012 58014 60251;
0188831820999992010040912004-11300-041867FM-12+074799999V02099999999990075019N0100001N1+02441+02131101211ADDAA124055191AY161061AY221061GF108991061051008001051011MA1999999092991MD1999999+0111MW1021REMSYN088AAXX  09124 83182 21597 809// 10244 20213 39299 40121 70262 86551 333 2//// 58011 60554;
0137831820999992010040918004-11300-041867FM-12+074799999V02099999999990042019N0100001N1+02461+02151101051ADDGF108991071071004501021999MA1999999092851MD1999999+0241REMSYN070AAXX  09184 83182 32497 836// 10246 20215 39285 40105 8772/ 333 58024;
0213831820999992010041000004-11300-041867FM-12+074799999V02099999999990042019N0010001N1+02121+02021101411ADDAA106018091AY161061AY261061GF108991061071004501021999KA1240M+02811MA1999999093191MD1999999+0221MW1021REMSYN100AAXX  10004 83182 21494 814// 10212 20202 39319 40141 70266 8672/ 333 10281 29088 55022 58022 60181;
0188831820999992010041012004-11300-041867FM-12+074799999V02099999999990042019N0100001N1+02071+01791101611ADDAA124021191AY161061AY261061GF108991061071004501021999MA1999999093311MD1999999+0321MW1021REMSYN088AAXX  10124 83182 21497 814// 10207 20179 39331 40161 70266 8672/ 333 2//// 58032 60214;
0137831820999992010041018004-11300-041867FM-12+074799999V02099999999990075019N0100001N1+02441+01901101131ADDGF108991061051008001061021MA1999999092881MD1999999+0031REMSYN070AAXX  10184 83182 32597 814// 10244 20190 39288 40113 86562 333 58003;
0168831820999992010041100004-11300-041867FM-12+074799999V02099999999990042019N0010001N1+02081+01781101371ADDGF108991071071004501021999KA1240M+02551MA1999999093191MD1999999+0001REMSYN088AAXX  11004 83182 32494 814// 10208 20178 39319 40137 8772/ 333 10255 29080 55007 58000;
0143831820999992010041112004-11300-041867FM-12+074799999V02099999999990075019N0100001N1+02141+01721101381ADDGF108991081051008001999999MA1999999093101MD1999999-0211REMSYN076AAXX  11124 83182 32597 814// 10214 20172 39310 40138 885// 333 2//// 59021;
0137831820999992010041118004-11300-041867FM-12+074799999V02099999999990075019N0100001N1+02381+01841101051ADDGF108991061051008001011999MA1999999092811MD1999999-0071REMSYN070AAXX  11184 83182 32597 818// 10238 20184 39281 40105 8651/ 333 59007;
0168831820999992010041200004-11300-041867FM-12+074799999V02099999999990450019N0010001N1+02031+01781101381ADDGF108991011051008001051021KA1240M+02551MA1999999093101MD1999999-0091REMSYN088AAXX  12004 83182 32594 814// 10203 20178 39310 40138 81552 333 10255 29081 55005 59009;
0143831820999992010041212004-11300-041867FM-12+074799999V02099999999992200019N0100001N1+02321+01791101291ADDGF107991031021008001001011MA1999999093051MD1999999-0051REMSYN076AAXX  12124 83182 32597 714// 10232 20179 39305 40129 83201 333 2//// 59005;
0137831820999992010041218004-11300-041867FM-12+074799999V02099999999990450019N0100001N1+02621+01811101091ADDGF108991041021008001091021MA1999999092901MD1999999+0091REMSYN070AAXX  12184 83182 32597 818// 10262 20181 39290 40109 84292 333 58009;
0168831820999992010041300004-11300-041867FM-12+074799999V02099999999990450019N0010001N1+02181+01881101281ADDGF108991041051008001031999KA1240M+02711MA1999999093051MD1999999-0051REMSYN088AAXX  13004 83182 32594 809// 10218 20188 39305 40128 8453/ 333 10271 29075 55056 59005;
0143831820999992010041312004-11300-041867FM-12+074799999V02099999999990075019N0100001N1+02301+01791101511ADDGF106991061021008001001001MA1999999093271MD1999999+0221REMSYN076AAXX  13124 83182 32597 614// 10230 20179 39327 40151 86200 333 2//// 58022;
0137831820999992010041318004-11300-041867FM-12+074799999V02099999999990450019N0100001N1+02741+01771101181ADDGF108991041021008001091081MA1999999092981MD1999999+0081REMSYN070AAXX  13184 83182 32597 814// 10274 20177 39298 40118 84298 333 58008;
0178831820999992010041400004-11300-041867FM-12+074799999V02099999999992200019N0010001N1+02171+01941101281ADDGA1001+999999999GF100991001001999999001001KA1240M+02851MA1999999093051MD1999999+0001REMSYN082AAXX  14004 83182 32994 009// 10217 20194 39305 40128 333 10285 29076 55103 58000;
0143831820999992010041412004-11300-041867FM-12+074799999V02099999999990075019N0100001N1+02491+01941101491ADDGF106991061051008001001001MA1999999093281MD1999999+0011REMSYN076AAXX  14124 83182 32597 614// 10249 20194 39328 40149 86500 333 2//// 58001;
0137831820999992010041418004-11300-041867FM-12+074799999V02099999999990075019N0100001N1+02611+01971101151ADDGF106991061051008001001001MA1999999092971MD1999999-0011REMSYN070AAXX  14184 83182 32597 614// 10261 20197 39297 40115 86500 333 59001;
0168831820999992010041500004-11300-041867FM-12+074799999V02099999999990075019N0010001N1+02171+01841101361ADDGF107991071051008001001001KA1240M+02761MA1999999093161MD1999999+0111REMSYN088AAXX  15004 83182 32594 714// 10217 20184 39316 40136 87500 333 10276 29076 55061 58011;
0143831820999992010041512004-11300-041867FM-12+074799999V02099999999990075019N0100001N1+02161+01991101421ADDGF107991051021008001041001MA1999999093151MD1999999-0131REMSYN076AAXX  15124 83182 32597 709// 10216 20199 39315 40142 85240 333 2//// 59013;
0137831820999992010041518004-11300-041867FM-12+074799999V02099999999990450019N0100001N1+02721+01901100981ADDGF106991041051008001031011MA1999999092841MD1999999-0131REMSYN070AAXX  15184 83182 32597 614// 10272 20190 39284 40098 84531 333 59013;
0168831820999992010041600004-11300-041867FM-12+074799999V02099999999990075019N0010001N1+02201+01901101261ADDGF107991071051008001001001KA1240M+02871MA1999999093021MD1999999-0141REMSYN088AAXX  16004 83182 32594 714// 10220 20190 39302 40126 87500 333 10287 29079 55057 59014;
0143831820999992010041612004-11300-041867FM-12+074799999V02099999999990075019N0100001N1+02481+02011101291ADDGF107991071051008001001001MA1999999093101MD1999999-0051REMSYN076AAXX  16124 83182 32597 714// 10248 20201 39310 40129 87500 333 2//// 59005;
0137831820999992010041618004-11300-041867FM-12+074799999V02099999999992200019N0100001N1+03001+01781100981ADDGF102991021021008001001001MA1999999092861MD1999999+0021REMSYN070AAXX  16184 83182 32597 209// 10300 20178 39286 40098 82200 333 58002;
0178831820999992010041700004-11300-041867FM-12+074799999V02099999999992200019N0010001N1+02301+01961101171ADDGA1001+999999999GF100991001001999999001001KA1240M+03131MA1999999093011MD1999999-0011REMSYN082AAXX  17004 83182 32994 009// 10230 20196 39301 40117 333 10313 29071 55096 59001;
0143831820999992010041712004-11300-041867FM-12+074799999V02099999999990075019N0100001N1+02501+01981101431ADDGF107991071051008001001001MA1999999093251MD1999999+0151REMSYN076AAXX  17124 83182 32597 709// 10250 20198 39325 40143 87500 333 2//// 58015;
0137831820999992010041718004-11300-041867FM-12+074799999V02099999999992200019N0100001N1+02901+01991101041ADDGF103991021021008001051001MA1999999092891MD1999999+0031REMSYN070AAXX  17184 83182 32597 314// 10290 20199 39289 40104 82250 333 58003;
0178831820999992010041800004-11300-041867FM-12+074799999V02099999999992200019N0010001N1+02341+01951101301ADDGA1001+999999999GF100991001001999999001001KA1240M+03051MA1999999093131MD1999999+0121REMSYN082AAXX  18004 83182 32994 009// 10234 20195 39313 40130 333 10305 29072 55102 58012;
0143831820999992010041812004-11300-041867FM-12+074799999V02099999999990075019N0100001N1+02521+01961101431ADDGF108991061021008001041001MA1999999093261MD1999999+0011REMSYN076AAXX  18124 83182 32597 814// 10252 20196 39326 40143 86240 333 2//// 58001;
0137831820999992010041818004-11300-041867FM-12+074799999V02099999999992200019N0100001N1+03021+01891101201ADDGF103991021031008001041001MA1999999093071MD1999999+0181REMSYN070AAXX  18184 83182 32597 309// 10302 20189 39307 40120 82340 333 58018;
0162831820999992010041900004-11300-041867FM-12+074799999V02099999999992200019N0010001N1+02331+02231101351ADDGF101991999999999999999999KA1240M+03131MA1999999093171MD1999999+0041REMSYN082AAXX  19004 83182 32994 108// 10233 20223 39317 40135 333 10313 29077 55085 58004;
0143831820999992010041912004-11300-041867FM-12+074799999V02099999999992200019N0100001N1+02321+01741101571ADDGF108991031011012501001011MA1999999093341MD1999999+0081REMSYN076AAXX  19124 83182 32697 814// 10232 20174 39334 40157 83101 333 2//// 58008;
0137831820999992010041918004-11300-041867FM-12+074799999V02099999999990075019N0100001N1+02881+01571101151ADDGF105991051021008001001001MA1999999093031MD1999999-0041REMSYN070AAXX  19184 83182 32597 509// 10288 20157 39303 40115 85200 333 59004;
0178831820999992010042000004-11300-041867FM-12+074799999V02099999999992200019N0010001N1+02181+01881101351ADDGA1001+999999999GF100991001001999999001001KA1240M+03001MA1999999093121MD1999999-0051REMSYN082AAXX  20004 83182 32994 018// 10218 20188 39312 40135 333 10300 29069 55112 59005;
0143831820999992010042012004-11300-041867FM-12+074799999V02099999999990450019N0100001N1+02221+01761101451ADDGF106991031021008001041011MA1999999093201MD1999999-0141REMSYN076AAXX  20124 83182 32597 609// 10222 20176 39320 40145 83241 333 2//// 59014;
0137831820999992010042018004-11300-041867FM-12+074799999V02099999999992200019N0100001N1+02861+01411101041ADDGF104991041021008001001001MA1999999092891MD1999999-0141REMSYN070AAXX  20184 83182 32597 414// 10286 20141 39289 40104 84200 333 59014;
0168831820999992010042100004-11300-041867FM-12+074799999V02099999999990075019N0010001N1+02221+01691101271ADDGF107991071051008001001001KA1240M+03001MA1999999093031MD1999999-0091REMSYN088AAXX  21004 83182 32594 718// 10222 20169 39303 40127 87500 333 10300 29065 55110 59009;
0143831820999992010042112004-11300-041867FM-12+074799999V02099999999999999999N0100001N1+02481+01701101271ADDGF108991001001999999001011MA1999999093081MD1999999-0121REMSYN076AAXX  21124 83182 32997 814// 10248 20170 39308 40127 80001 333 2//// 59012;
0137831820999992010042118004-11300-041867FM-12+074799999V02099999999992200019N0100001N1+03001+01331100961ADDGF108991011021008001001011MA1999999092821MD1999999-0071REMSYN070AAXX  21184 83182 32597 805// 10300 20133 39282 40096 81201 333 59007;
0168831820999992010042200004-11300-041867FM-12+074799999V02099999999999999999N0010001N1+02181+01671101331ADDGF108991001001999999001011KA1240M+03121MA1999999093171MD1999999+0141REMSYN088AAXX  22004 83182 32994 814// 10218 20167 39317 40133 80001 333 10312 29061 55111 58014;
0143831820999992010042212004-11300-041867FM-12+074799999V02099999999992200019N0100001N1+02341+01871101411ADDGF101991011011012501001001MA1999999093171MD1999999-0091REMSYN076AAXX  22124 83182 32697 114// 10234 20187 39317 40141 81100 333 2//// 59009;
0137831820999992010042218004-11300-041867FM-12+074799999V02099999999992200019N0100001N1+03021+01301100971ADDGF102991021021008001001001MA1999999092811MD1999999-0011REMSYN070AAXX  22184 83182 32597 214// 10302 20130 39281 40097 82200 333 59001;
0168831820999992010042300004-11300-041867FM-12+074799999V02099999999992200019N0010001N1+02261+01981101211ADDGF103991001001999999001011KA1240M+03171MA1999999093011MD1999999-0161REMSYN088AAXX  23004 83182 32994 309// 10226 20198 39301 40121 80001 333 10317 29070 55103 59016;
0143831820999992010042312004-11300-041867FM-12+074799999V02099999999992200019N0100001N1+02521+01911101411ADDGF108991011021008001001011MA1999999093271MD1999999+0101REMSYN076AAXX  23124 83182 32597 809// 10252 20191 39327 40141 81201 333 2//// 58010;
0137831820999992010042318004-11300-041867FM-12+074799999V02099999999992200019N0100001N1+03041+01531101001ADDGF108991011021008001001011MA1999999092861MD1999999+0051REMSYN070AAXX  23184 83182 32597 809// 10304 20153 39286 40100 81201 333 58005;
0168831820999992010042400004-11300-041867FM-12+074799999V02099999999992200019N0010001N1+02261+01791101311ADDGF108991021001017501051011KA1240M+03171MA1999999093141MD1999999+0131REMSYN088AAXX  24004 83182 32794 809// 10226 20179 39314 40131 82051 333 10317 29065 55101 58013;
0153831820999992010042412004-11300-041867FM-12+074799999V02099999999992200019N0100001N1+02461+01831101481ADDGA1001+999999999GF100991001001999999001001MA1999999093281MD1999999+0011REMSYN070AAXX  24124 83182 32997 014// 10246 20183 39328 40148 333 2//// 58001;
0137831820999992010042418004-11300-041867FM-12+074799999V02099999999992200019N0100001N1+02981+01551101051ADDGF102991021021008001001001MA1999999092861MD1999999+0001REMSYN070AAXX  24184 83182 32597 209// 10298 20155 39286 40105 82200 333 58000;
0178831820999992010042500004-11300-041867FM-12+074799999V02099999999992200019N0010001N1+02301+01831101331ADDGA1001+999999999GF100991001001999999001001KA1240M+03101MA1999999093151MD1999999+0011REMSYN082AAXX  25004 83182 32994 014// 10230 20183 39315 40133 333 10310 29065 55108 58001;
0143831820999992010042512004-11300-041867FM-12+074799999V02099999999992200019N0100001N1+02531+01711101411ADDGF102991021021008001001001MA1999999093231MD1999999-0051REMSYN076AAXX  25124 83182 32597 214// 10253 20171 39323 40141 82200 333 2//// 59005;
0137831820999992010042518004-11300-041867FM-12+074799999V02099999999992200019N0100001N1+02911+01551100941ADDGF102991021021008001001001MA1999999092811MD1999999-0051REMSYN070AAXX  25184 83182 32597 214// 10291 20155 39281 40094 82200 333 59005;
0178831820999992010042600004-11300-041867FM-12+074799999V02099999999992200019N0010001N1+02161+01781101311ADDGA1001+999999999GF100991001001999999001001KA1240M+03061MA1999999093121MD1999999-0031REMSYN082AAXX  26004 83182 32994 014// 10216 20178 39312 40131 333 10306 29066 55109 59003;
0143831820999992010042612004-11300-041867FM-12+074799999V02099999999992200019N0100001N1+02301+01751101511ADDGF101991011011012501001001MA1999999093271MD1999999+0001REMSYN076AAXX  26124 83182 32697 114// 10230 20175 39327 40151 81100 333 2//// 58000;
0137831820999992010042618004-11300-041867FM-12+074799999V02099999999992200019N0100001N1+03081+01221101021ADDGF102991021011008001001001MA1999999092911MD1999999+0101REMSYN070AAXX  26184 83182 32597 214// 10308 20122 39291 40102 82100 333 58010;
0168831820999992010042700004-11300-041867FM-12+074799999V02099999999992200019N0010001N1+02261+01751101201ADDGF102991011021008001001011KA1240M+03171MA1999999093001MD1999999-0121REMSYN088AAXX  27004 83182 32594 209// 10226 20175 39300 40120 81201 333 10317 29062 55104 59012;
0143831820999992010042712004-11300-041867FM-12+074799999V02099999999992200019N0100001N1+02421+01841101421ADDGF101991011011012501001001MA1999999093221MD1999999-0051REMSYN076AAXX  27124 83182 32697 109// 10242 20184 39322 40142 81100 333 2//// 59005;
0137831820999992010042718004-11300-041867FM-12+074799999V02099999999992200019N0100001N1+03021+01071101111ADDGF102991011021008001001011MA1999999092951MD1999999+0041REMSYN070AAXX  27184 83182 32597 218// 10302 20107 39295 40111 81201 333 58004;
0178831820999992010042800004-11300-041867FM-12+074799999V02099999999992200019N0010001N1+02301+01721101251ADDGA1001+999999999GF100991001001999999001001KA1240M+03191MA1999999093061MD1999999+0061REMSYN082AAXX  28004 83182 32994 014// 10230 20172 39306 40125 333 10319 29060 55107 58006;
0143831820999992010042812004-11300-041867FM-12+074799999V02099999999992200019N0100001N1+02481+01801101501ADDGF108991011021008001001011MA1999999093271MD1999999+0051REMSYN076AAXX  28124 83182 32597 809// 10248 20180 39327 40150 81201 333 2//// 58005;
0137831820999992010042818004-11300-041867FM-12+074799999V02099999999992200019N0100001N1+03081+01171101021ADDGF108991021021008001001011MA1999999092881MD1999999-0071REMSYN070AAXX  28184 83182 32597 814// 10308 20117 39288 40102 82201 333 59007;
0168831820999992010042900004-11300-041867FM-12+074799999V02099999999992200019N0010001N1+02301+01681101411ADDGF108991041001017501051011KA1240M+03081MA1999999093231MD1999999+0171REMSYN088AAXX  29004 83182 32794 814// 10230 20168 39323 40141 84051 333 10308 29058 55102 58017;
0143831820999992010042912004-11300-041867FM-12+074799999V02099999999990450019N0100001N1+02361+01661101411ADDGF106991021021008001061001MA1999999092211MD1999999-0021REMSYN076AAXX  29124 83182 32597 609// 10236 20166 39221 40141 82260 333 2//// 59002;
0137831820999992010042918004-11300-041867FM-12+074799999V02099999999990450019N0100001N1+02921+01341101011ADDGF105991041021008001041001MA1999999092861MD1999999-0021REMSYN070AAXX  29184 83182 32597 509// 10292 20134 39286 40101 84240 333 59002;
0143831820999992010043012004-11300-041867FM-12+074799999V02099999999999999999N0100001N1+02511+01681999999ADDGF108991001001999999001011MA1999999093191MD1999999-0021REMSYN076AAXX  30124 83182 32997 814// 10251 20168 39319 4//// 80001 333 2//// 59002;
0137831820999992010043018004-11300-041867FM-12+074799999V02099999999992200019N0100001N1+03041+01091100961ADDGF108991031021008001001011MA1999999092821MD1999999-0041REMSYN070AAXX  30184 83182 32597 818// 10304 20109 39282 40096 83201 333 59004;
0154831820999992010050100004-11300-041867FM-12+074799999V02099999999999999999N0010001N1+02231+01591101281ADDGF108991001001999999001011KA1240M+03231MA1999999093091REMSYN088AAXX  01004 83182 32994 814// 10223 20159 39309 40128 80001 333 10323 29056 55102 5////;
0143831820999992010050112004-11300-041867FM-12+074799999V02099999999992200019N0100001N1+02381+01731101461ADDGF101991011021008001001001MA1999999093241MD1999999+0051REMSYN076AAXX  01124 83182 32597 109// 10238 20173 39324 40146 81200 333 2//// 58005;
0137831820999992010050118004-11300-041867FM-12+074799999V02099999999992200019N0100001N1+03021+01171101021ADDGF102991021021008001001001MA1999999092851MD1999999+0031REMSYN070AAXX  01184 83182 32597 209// 10302 20117 39285 40102 82200 333 58003;
0168831820999992010050200004-11300-041867FM-12+074799999V02099999999992200019N0010001N1+02261+01641101241ADDGF101991011001017501051001KA1240M+03081MA1999999093041MD1999999-0051REMSYN088AAXX  02004 83182 32794 109// 10226 20164 39304 40124 81050 333 10308 29059 55105 59005;
0143831820999992010050212004-11300-041867FM-12+074799999V02099999999992200019N0100001N1+02261+01791101471ADDGF102991011021008001041001MA1999999093231MD1999999-0011REMSYN076AAXX  02124 83182 32597 214// 10226 20179 39323 40147 81240 333 2//// 59001;
0156831820999992010050218004-11300-041867FM-12+074799999V02099999999992200019N0100001N1+03001+01201999999ADDGF102991021021008001001001MA1999999092961MD1999999+0111REMSYN070AAXX  02184 83182 32597 209// 10300 20120 39296 40012 82200 333 58011;EQDQ01+100123APOSLP
0168831820999992010050300004-11300-041867FM-12+074799999V02099999999992200019N0010001N1+02221+01601101441ADDGF102991001001999999001011KA1240M+03091MA1999999093201MD1999999+0161REMSYN088AAXX  03004 83182 32994 214// 10222 20160 39320 40144 80001 333 10309 29060 55109 58016;
0143831820999992010050312004-11300-041867FM-12+074799999V02099999999992200019N0100001N1+02281+01591101561ADDGF102991021021008001001001MA1999999093321MD1999999+0091REMSYN076AAXX  03124 83182 32597 214// 10228 20159 39332 40156 82200 333 2//// 58009;
0137831820999992010050318004-11300-041867FM-12+074799999V02099999999992200019N0100001N1+02761+01591101291ADDGF104991031021008001061001MA1999999093081MD1999999+0121REMSYN070AAXX  03184 83182 32597 409// 10276 20159 39308 40129 83260 333 58012;
0178831820999992010050400004-11300-041867FM-12+074799999V02099999999992200019N0010001N1+02191+01791101401ADDGA1001+999999999GF100991001001999999001001KA1240M+02891MA1999999093161MD1999999-0041REMSYN082AAXX  04004 83182 32994 014// 10219 20179 39316 40140 333 10289 29068 55095 59004;
0143831820999992010050412004-11300-041867FM-12+074799999V02099999999992200019N0100001N1+02221+01531101461ADDGF101991011011012501001001MA1999999093211MD1999999-0111REMSYN076AAXX  04124 83182 32697 109// 10222 20153 39321 40146 81100 333 2//// 59011;
0137831820999992010050418004-11300-041867FM-12+074799999V02099999999990450019N0100001N1+03021+01521101031ADDGF105991041021008001041001MA1999999092911MD1999999-0171REMSYN070AAXX  04184 83182 32597 514// 10302 20152 39291 40103 84240 333 59017;
0168831820999992010050500004-11300-041867FM-12+074799999V02099999999992200019N0010001N1+02331+01661101201ADDGF101991001001999999001011KA1240M+03071MA1999999092981MD1999999-0181REMSYN088AAXX  05004 83182 32994 109// 10233 20166 39298 40120 80001 333 10307 29059 55099 59018;
0153831820999992010050512004-11300-041867FM-12+074799999V02099999999992200019N0100001N1+02541+01571101281ADDGA1001+999999999GF100991001001999999001001MA1999999093111MD1999999-0101REMSYN070AAXX  05124 83182 32997 014// 10254 20157 39311 40128 333 2//// 59010;
0137831820999992010050518004-11300-041867FM-12+074799999V02099999999990075019N0100001N1+02681+01811101071ADDGF108991081051008001999999MA1999999092861MD1999999-0051REMSYN070AAXX  05184 83182 32597 809// 10268 20181 39286 40107 885// 333 59005;
0143831820999992010050612004-11300-041867FM-12+074799999V02099999999990075019N0100001N1+02331+01861101241ADDGF107991071051008001999999MA1999999093121MD1999999+0011REMSYN076AAXX  06124 83182 32597 714// 10233 20186 39312 40124 875// 333 2//// 58001;
0137831820999992010050618004-11300-041867FM-12+074799999V02099999999990450019N0100001N1+03001+01781101031ADDGF108991041051008001031999MA1999999092911MD1999999+0051REMSYN070AAXX  06184 83182 32597 805// 10300 20178 39291 40103 8453/ 333 58005;
0168831820999992010050700004-11300-041867FM-12+074799999V02099999999992200019N0010001N1+02351+02011101371ADDGF103991001001999999001011KA1240M+03121MA1999999093171MD1999999+0061REMSYN088AAXX  07004 83182 32994 314// 10235 20201 39317 40137 80001 333 10312 29071 55052 58006;
0143831820999992010050712004-11300-041867FM-12+074799999V02099999999992200019N0100001N1+02441+01691101551ADDGF103991021021008001001011MA1999999093351MD1999999+0231REMSYN076AAXX  07124 83182 32597 318// 10244 20169 39335 40155 82201 333 2//// 58023;
0137831820999992010050718004-11300-041867FM-12+074799999V02099999999999999999N0100001N1+03121+01161101091ADDGF108991001001999999001011MA1999999092961MD1999999+0051REMSYN070AAXX  07184 83182 32997 809// 10312 20116 39296 40109 80001 333 58005;
0168831820999992010050800004-11300-041867FM-12+074799999V02099999999999999999N0010001N1+02181+01521101351ADDGF108991001001999999001011KA1240M+03211MA1999999093141MD1999999-0031REMSYN088AAXX  08004 83182 32994 814// 10218 20152 39314 40135 80001 333 10321 29056 55107 59003;
0143831820999992010050812004-11300-041867FM-12+074799999V02099999999992200019N0100001N1+02361+01461101581ADDGF101991001001999999001011MA1999999093341MD1999999-0011REMSYN076AAXX  08124 83182 32997 109// 10236 20146 39334 40158 80001 333 2//// 59001;
0137831820999992010050818004-11300-041867FM-12+074799999V02099999999999999999N0100001N1+03141+00961101131ADDGF108991001001999999001011MA1999999092951MD1999999-0011REMSYN070AAXX  08184 83182 32997 814// 10314 20096 39295 40113 80001 333 59001;
0168831820999992010050900004-11300-041867FM-12+074799999V02099999999999999999N0010001N1+02241+01241101321ADDGF108991001001999999001011KA1240M+03231MA1999999093111MD1999999-0031REMSYN088AAXX  09004 83182 32994 814// 10224 20124 39311 40132 80001 333 10323 29053 55100 59003;
0143831820999992010050912004-11300-041867FM-12+074799999V02099999999999999999N0100001N1+02531+01751101361ADDGF108991001001999999001011MA1999999093181MD1999999-0161REMSYN076AAXX  09124 83182 32997 814// 10253 20175 39318 40136 80001 333 2//// 59016;
0137831820999992010050918004-11300-041867FM-12+074799999V02099999999992200019N0100001N1+03181+01051101401ADDGF102991011021008001001011MA1999999093241MD1999999+0291REMSYN070AAXX  09184 83182 32597 209// 10318 20105 39324 40140 81201 333 58029;
0178831820999992010051000004-11300-041867FM-12+074799999V02099999999992200019N0010001N1+02361+01711101131ADDGA1001+999999999GF100991001001999999001001KA1240M+03291MA1999999092991MD1999999-0121REMSYN082AAXX  10004 83182 32994 014// 10236 20171 39299 40113 333 10329 29056 55109 59012;
0143831820999992010051012004-11300-041867FM-12+074799999V02099999999999999999N0100001N1+02421+01821101131ADDGF108991001001999999001011MA1999999092971MD1999999-0211REMSYN076AAXX  10124 83182 32997 809// 10242 20182 39297 40113 80001 333 2//// 59021;
0137831820999992010051018004-11300-041867FM-12+074799999V02099999999992200019N0100001N1+03161+01241100681ADDGF108991031021008001001011MA1999999092611MD1999999-0631REMSYN070AAXX  10184 83182 32597 809// 10316 20124 39261 40068 83201 333 59063;
0168831820999992010051100004-11300-041867FM-12+074799999V02099999999992200019N0010001N1+02491+01611100981ADDGF103991001001999999001011KA1240M+03291MA1999999092851MD1999999-0141REMSYN088AAXX  11004 83182 32994 318// 10249 20161 39285 40098 80001 333 10329 29054 55105 59014;
0143831820999992010051112004-11300-041867FM-12+074799999V02099999999992200019N0100001N1+02531+01831101221ADDGF104991001001999999001011MA1999999093091MD1999999-0121REMSYN076AAXX  11124 83182 32997 409// 10253 20183 39309 40122 80001 333 2//// 59012;
0168831820999992010051200004-11300-041867FM-12+074799999V02099999999992200019N0010001N1+02511+01811101111ADDGF103991001001999999001011KA1240M+03251MA1999999092981MD1999999+0131REMSYN088AAXX  12004 83182 32994 314// 10251 20181 39298 40111 80001 333 10325 29057 55093 58013;
0143831820999992010051212004-11300-041867FM-12+074799999V02099999999990075019N0100001N1+02631+01881101121ADDGF108991051021008001001011MA1999999093011MD1999999-0081REMSYN076AAXX  12124 83182 32597 814// 10263 20188 39301 40112 85201 333 2//// 59008;
0137831820999992010051218004-11300-041867FM-12+074799999V02099999999992200019N0100001N1+03041+01711100761ADDGF104991041021008001001001MA1999999092681MD1999999-0021REMSYN070AAXX  12184 83182 32597 414// 10304 20171 39268 40076 84200 333 59002;
0168831820999992010051300004-11300-041867FM-12+074799999V02099999999999999999N0010001N1+02331+01771101211ADDGF108991001001999999001011KA1240M+03171MA1999999093081MD1999999+0101REMSYN088AAXX  13004 83182 32994 814// 10233 20177 39308 40121 80001 333 10317 29063 55071 58010;
0143831820999992010051312004-11300-041867FM-12+074799999V02099999999992200019N0100001N1+02421+01771101371ADDGF108991011011012501001011MA1999999093171MD1999999+0161REMSYN076AAXX  13124 83182 32697 809// 10242 20177 39317 40137 81101 333 2//// 58016;
0137831820999992010051318004-11300-041867FM-12+074799999V02099999999992200019N0100001N1+03111+01201100961ADDGF108991021021008001001011MA1999999092861MD1999999+0181REMSYN070AAXX  13184 83182 32597 814// 10311 20120 39286 40096 82201 333 58018;
0168831820999992010051400004-11300-041867FM-12+074799999V02099999999999999999N0010001N1+02341+01831101311ADDGF108991001001999999001011KA1240M+03151MA1999999093141MD1999999+0061REMSYN088AAXX  14004 83182 32994 814// 10234 20183 39314 40131 80001 333 10315 29062 55057 58006;
0143831820999992010051412004-11300-041867FM-12+074799999V02099999999990075019N0100001N1+02611+01951101431ADDGF108991061021008001001011MA1999999093281MD1999999+0111REMSYN076AAXX  14124 83182 32597 809// 10261 20195 39328 40143 86201 333 2//// 58011;
0137831820999992010051418004-11300-041867FM-12+074799999V02099999999990450019N0100001N1+03071+01771100971ADDGF108991031021008001051011MA1999999092891MD1999999+0031REMSYN070AAXX  14184 83182 32597 814// 10307 20177 39289 40097 83251 333 58003;
0168831820999992010051500004-11300-041867FM-12+074799999V02099999999999999999N0010001N1+02501+01911101401ADDGF108991001001999999001011KA1240M+03211MA1999999093271MD1999999+0131REMSYN088AAXX  15004 83182 32994 814// 10250 20191 39327 40140 80001 333 10321 29064 55101 58013;
0143831820999992010051512004-11300-041867FM-12+074799999V02099999999990075019N0100001N1+02761+01831101341ADDGF106991051021008001041001MA1999999093251MD1999999-0031REMSYN076AAXX  15124 83182 32597 609// 10276 20183 39325 40134 85240 333 2//// 59003;
0137831820999992010051518004-11300-041867FM-12+074799999V02099999999990450019N0100001N1+03121+01681100841ADDGF105991041021008001041001MA1999999092811MD1999999-0081REMSYN070AAXX  15184 83182 32597 514// 10312 20168 39281 40084 84240 333 59008;
0168831820999992010051600004-11300-041867FM-12+074799999V02099999999990150019N0010001N1+02261+01941101341ADDGF106991061001017501051001KA1240M+03131MA1999999093201MD1999999-0071REMSYN088AAXX  16004 83182 32794 614// 10226 20194 39320 40134 86050 333 10313 29066 55095 59007;
0143831820999992010051612004-11300-041867FM-12+074799999V02099999999990075019N0100001N1+02241+01871101461ADDGF108991051051008001021999MA1999999093241MD1999999-0011REMSYN076AAXX  16124 83182 32597 809// 10224 20187 39324 40146 8552/ 333 2//// 59001;
0137831820999992010051618004-11300-041867FM-12+074799999V02099999999990450019N0100001N1+02761+01891101111ADDGF108991041051008001011999MA1999999092951MD1999999+0141REMSYN070AAXX  16184 83182 32597 814// 10276 20189 39295 40111 8451/ 333 58014;
0168831820999992010051700004-11300-041867FM-12+074799999V02099999999999999999N0010001N1+02321+01851101271ADDGF108991001001999999001011KA1240M+02831MA1999999093081MD1999999-0121REMSYN088AAXX  17004 83182 32994 809// 10232 20185 39308 40127 80001 333 10283 29071 55013 59012;
0143831820999992010051712004-11300-041867FM-12+074799999V02099999999990075019N0100001N1+02421+01961101331ADDGF108991061021008001041001MA1999999093151MD1999999-0091REMSYN076AAXX  17124 83182 32597 814// 10242 20196 39315 40133 86240 333 2//// 59009;
0137831820999992010051718004-11300-041867FM-12+074799999V02099999999990450019N0100001N1+02681+01921101151ADDGF108991041051008001021999MA1999999092971MD1999999+0021REMSYN070AAXX  17184 83182 32597 814// 10268 20192 39297 40115 8452/ 333 58002;
0168831820999992010051800004-11300-041867FM-12+074799999V02099999999992200019N0010001N1+02231+02091101351ADDGF103991001001999999001011KA1240M+02981MA1999999093151MD1999999+0071REMSYN088AAXX  18004 83182 32994 314// 10223 20209 39315 40135 80001 333 10298 29080 55059 58007;
0188831820999992010051812004-11300-041867FM-12+074799999V02099999999990450019N0100001N1+02221+01921101511ADDAA124000391AY161061AY221061GF108991041011012501021999MA1999999093251MD1999999+0101MW1021REMSYN088AAXX  18124 83182 21697 809// 10222 20192 39325 40151 70262 8412/ 333 2//// 58010 69934;
0137831820999992010051818004-11300-041867FM-12+074799999V02099999999992200019N0100001N1+02871+01411101171ADDGF102991011011012501001011MA1999999093031MD1999999+0061REMSYN070AAXX  18184 83182 32697 214// 10287 20141 39303 40117 81101 333 58006;
0178831820999992010051900004-11300-041867FM-12+074799999V02099999999992200019N0010001N1+02141+01791101361ADDGA1001+999999999GF100991001001999999001001KA1240M+02971MA1999999093121MD1999999-0031REMSYN082AAXX  19004 83182 32994 018// 10214 20179 39312 40136 333 10297 29061 55075 59003;
0143831820999992010051912004-11300-041867FM-12+074799999V02099999999992200019N0100001N1+02501+01721101461ADDGF108991011021008001001011MA1999999093241MD1999999-0011REMSYN076AAXX  19124 83182 32597 809// 10250 20172 39324 40146 81201 333 2//// 59001;
0137831820999992010051918004-11300-041867FM-12+074799999V02099999999992200019N0100001N1+02881+01571101101ADDGF108991041021008001001011MA1999999092931MD1999999-0101REMSYN070AAXX  19184 83182 32597 814// 10288 20157 39293 40110 84201 333 59010;
0168831820999992010052000004-11300-041867FM-12+074799999V02099999999999999999N0010001N1+02161+01631101231ADDGF108991001001999999001011KA1240M+03061MA1999999093041MD1999999-0071REMSYN088AAXX  20004 83182 32994 809// 10216 20163 39304 40123 80001 333 10306 29063 55076 59007;
0143831820999992010052012004-11300-041867FM-12+074799999V02099999999992200019N0100001N1+02221+01711101361ADDGF108991011011012501001011MA1999999093121MD1999999-0121REMSYN076AAXX  20124 83182 32697 814// 10222 20171 39312 40136 81101 333 2//// 59012;
0137831820999992010052018004-11300-041867FM-12+074799999V02099999999990075019N0100001N1+03021+01391100991ADDGF105991051021008001001001MA1999999092831MD1999999-0101REMSYN070AAXX  20184 83182 32597 514// 10302 20139 39283 40099 85200 333 59010;
0178831820999992010052100004-11300-041867FM-12+074799999V02099999999992200019N0010001N1+02241+01691101211ADDGA1001+999999999GF100991001001999999001001KA1240M+03111MA1999999092971MD1999999-0081REMSYN082AAXX  21004 83182 32994 009// 10224 20169 39297 40121 333 10311 29063 55092 59008;
0153831820999992010052112004-11300-041867FM-12+074799999V02099999999992200019N0100001N1+02531+01591101261ADDGA1001+999999999GF100991001001999999001001MA1999999093091MD1999999-0031REMSYN070AAXX  21124 83182 32997 014// 10253 20159 39309 40126 333 2//// 59003;
0137831820999992010052118004-11300-041867FM-12+074799999V02099999999992200019N0100001N1+03191+01351100731ADDGF104991041021008001001001MA1999999092641MD1999999-0191REMSYN070AAXX  21184 83182 32597 414// 10319 20135 39264 40073 84200 333 59019;
0168831820999992010052200004-11300-041867FM-12+074799999V02099999999992200019N0010001N1+02361+01611100981ADDGF101991011001017501051001KA1240M+03301MA1999999092851MD1999999-0121REMSYN088AAXX  22004 83182 32794 109// 10236 20161 39285 40098 81050 333 10330 29054 55105 59012;
0143831820999992010052212004-11300-041867FM-12+074799999V02099999999990450019N0100001N1+02501+01621101291ADDGF108991011021008001041011MA1999999093141MD1999999+0051REMSYN076AAXX  22124 83182 32597 809// 10250 20162 39314 40129 81241 333 2//// 58005;
0137831820999992010052218004-11300-041867FM-12+074799999V02099999999992200019N0100001N1+03161+01381100721ADDGF108991021021008001001011MA1999999092631MD1999999-0011REMSYN070AAXX  22184 83182 32597 818// 10316 20138 39263 40072 82201 333 59001;
0168831820999992010052300004-11300-041867FM-12+074799999V02099999999999999999N0010001N1+02361+01591100951ADDGF108991001001999999001011KA1240M+03271MA1999999092821MD1999999-0031REMSYN088AAXX  23004 83182 32994 814// 10236 20159 39282 40095 80001 333 10327 29054 55110 59003;
0143831820999992010052312004-11300-041867FM-12+074799999V02099999999992200019N0100001N1+02681+01761101181ADDGF108991011011012501001011MA1999999093051MD1999999-0091REMSYN076AAXX  23124 83182 32697 814// 10268 20176 39305 40118 81101 333 2//// 59009;
0137831820999992010052318004-11300-041867FM-12+074799999V02099999999990450019N0100001N1+03101+01581100731ADDGF108991031021008001051011MA1999999092631MD1999999-0011REMSYN070AAXX  23184 83182 32597 814// 10310 20158 39263 40073 83251 333 59001;
0168831820999992010052400004-11300-041867FM-12+074799999V02099999999999999999N0010001N1+02381+01681100871ADDGF108991001001999999001011KA1240M+03201MA1999999092871MD1999999+0051REMSYN088AAXX  24004 83182 32994 809// 10238 20168 39287 40087 80001 333 10320 29057 55083 58005;
0143831820999992010052412004-11300-041867FM-12+074799999V02099999999992200019N0100001N1+02431+01701101201ADDGF104991011011012501001011MA1999999093041MD1999999-0011REMSYN076AAXX  24124 83182 32697 414// 10243 20170 39304 40120 81101 333 2//// 59001;
0137831820999992010052418004-11300-041867FM-12+074799999V02099999999990075019N0100001N1+03041+01681100901ADDGF108991061021008001001021MA1999999092791MD1999999+0171REMSYN070AAXX  24184 83182 32597 814// 10304 20168 39279 40090 86202 333 58017;
0168831820999992010052500004-11300-041867FM-12+074799999V02099999999992200019N0010001N1+02361+01781101161ADDGF108991021011012501001011KA1240M+03191MA1999999093001MD1999999+0131REMSYN088AAXX  25004 83182 32694 814// 10236 20178 39300 40116 82101 333 10319 29062 55072 58013;
0143831820999992010052512004-11300-041867FM-12+074799999V02099999999990450019N0100001N1+02421+01841101431ADDGF105991041021008001041001MA1999999093251MD1999999+0211REMSYN076AAXX  25124 83182 32597 514// 10242 20184 39325 40143 84240 333 2//// 58021;
0137831820999992010052518004-11300-041867FM-12+074799999V02099999999992200019N0100001N1+03011+01421101071ADDGF106991031021008001001011MA1999999092931MD1999999+0141REMSYN070AAXX  25184 83182 32597 609// 10301 20142 39293 40107 83201 333 58014;
0168831820999992010052600004-11300-041867FM-12+074799999V02099999999992200019N0010001N1+02381+01681101171ADDGF102991001001999999001011KA1240M+03061MA1999999093011MD1999999+0011REMSYN088AAXX  26004 83182 32994 209// 10238 20168 39301 40117 80001 333 10306 29060 55093 58001;
0153831820999992010052612004-11300-041867FM-12+074799999V02099999999992200019N0100001N1+02441+01591101371ADDGA1001+999999999GF100991001001999999001001MA1999999093191MD1999999-0061REMSYN070AAXX  26124 83182 32997 009// 10244 20159 39319 40137 333 2//// 59006;
0137831820999992010052618004-11300-041867FM-12+074799999V02099999999992200019N0100001N1+03011+01291100911ADDGF108991011021008001001011MA1999999092811MD1999999-0121REMSYN070AAXX  26184 83182 32597 814// 10301 20129 39281 40091 81201 333 59012;
0168831820999992010052700004-11300-041867FM-12+074799999V02099999999992200019N0010001N1+02331+01541101221ADDGF102991011021008001041001KA1240M+03271MA1999999093051MD1999999+0041REMSYN088AAXX  27004 83182 32594 214// 10233 20154 39305 40122 81240 333 10327 29054 55102 58004;
0143831820999992010052712004-11300-041867FM-12+074799999V02099999999992200019N0100001N1+02271+01601101491ADDGF104991001001999999001011MA1999999093261MD1999999+0071REMSYN076AAXX  27124 83182 32997 414// 10227 20160 39326 40149 80001 333 2//// 58007;
0137831820999992010052718004-11300-041867FM-12+074799999V02099999999992200019N0100001N1+02941+01051101021ADDGF102991021011012501001011MA1999999092901MD1999999+0091REMSYN070AAXX  27184 83182 32697 218// 10294 20105 39290 40102 82101 333 58009;
0178831820999992010052800004-11300-041867FM-12+074799999V02099999999992200019N0010001N1+02141+01461101341ADDGA1001+999999999GF100991001001999999001001KA1240M+03061MA1999999093111MD1999999+0061REMSYN082AAXX  28004 83182 32994 014// 10214 20146 39311 40134 333 10306 29057 55102 58006;
0143831820999992010052812004-11300-041867FM-12+074799999V02099999999999999999N0100001N1+02441+01591101521ADDGF107991001001999999001011MA1999999093291MD1999999+0031REMSYN076AAXX  28124 83182 32997 714// 10244 20159 39329 40152 80001 333 2//// 58003;
0137831820999992010052818004-11300-041867FM-12+074799999V02099999999992200019N0100001N1+03001+01371100991ADDGF108991021021008001001011MA1999999092851MD1999999-0051REMSYN070AAXX  28184 83182 32597 814// 10300 20137 39285 40099 82201 333 59005;
0168831820999992010052900004-11300-041867FM-12+074799999V02099999999999999999N0010001N1+02241+01401101301ADDGF108991001001999999001011KA1240M+03101MA1999999093111MD1999999+0001REMSYN088AAXX  29004 83182 32994 809// 10224 20140 39311 40130 80001 333 10310 29053 55099 58000;
0143831820999992010052912004-11300-041867FM-12+074799999V02099999999992200019N0100001N1+02401+01601101501ADDGF108991011021008001001011MA1999999093271MD1999999-0021REMSYN076AAXX  29124 83182 32597 814// 10240 20160 39327 40150 81201 333 2//// 59002;
0137831820999992010052918004-11300-041867FM-12+074799999V02099999999992200019N0100001N1+02931+01471101071ADDGF108991021021008001001011MA1999999092881MD1999999+0031REMSYN070AAXX  29184 83182 32597 814// 10293 20147 39288 40107 82201 333 58003;
0168831820999992010053000004-11300-041867FM-12+074799999V02099999999990150019N0010001N1+02281+01641101371ADDGF108991051001017501051011KA1240M+03081MA1999999093171MD1999999+0061REMSYN088AAXX  30004 83182 32794 814// 10228 20164 39317 40137 85051 333 10308 29059 55092 58006;
0143831820999992010053012004-11300-041867FM-12+074799999V02099999999992200019N0100001N1+02321+01761101611ADDGF102991001001999999001011MA1999999093381MD1999999+0111REMSYN076AAXX  30124 83182 32997 214// 10232 20176 39338 40161 80001 333 2//// 58011;
0137831820999992010053018004-11300-041867FM-12+074799999V02099999999992200019N0100001N1+03161+01141101111ADDGF104991041021008001001001MA1999999093001MD1999999+0121REMSYN070AAXX  30184 83182 32597 409// 10316 20114 39300 40111 84200 333 58012;
0168831820999992010053100004-11300-041867FM-12+074799999V02099999999992200019N0010001N1+02431+01481101391ADDGF103991021021008001001011KA1240M+03291MA1999999093211MD1999999+0041REMSYN088AAXX  31004 83182 32594 314// 10243 20148 39321 40139 82201 333 10329 29054 55103 58004;
0143831820999992010053112004-11300-041867FM-12+074799999V02099999999992200019N0010001N1+02431+01481101391ADDGF103991021021008001001011MA1999999093211MD1999999+0031REMSYN076AAXX  31124 83182 32594 314// 10243 20148 39321 40139 82201 333 2//// 58003;
0137831820999992010053118004-11300-041867FM-12+074799999V02099999999992200019N0100001N1+03161+01141101111ADDGF104991021021008001001011MA1999999093001MD1999999+0001REMSYN070AAXX  31184 83182 32597 423// 10316 20114 39300 40111 82201 333 58000;
0168831820999992010060100004-11300-041867FM-12+074799999V02099999999992200019N0010001N1+02451+00761101331ADDGF102991001001999999001011KA1240M+03311MA1999999093171MD1999999-0041REMSYN088AAXX  01004 83182 32994 218// 10245 20076 39317 40133 80001 333 10331 29044 55100 59004;
0143831820999992010060112004-11300-041867FM-12+074799999V02099999999990150019N0100001N1+02421+01671101611ADDGF108991081001017501031001MA1999999093411MD1999999+0001REMSYN076AAXX  01124 83182 32797 836// 10242 20167 39341 40161 88030 333 2//// 58000;
0137831820999992010060118004-11300-041867FM-12+074799999V02099999999990450019N0100001N1+03151+01421101091ADDGF108991041021008001061001MA1999999093001MD1999999-0171REMSYN070AAXX  01184 83182 32597 814// 10315 20142 39300 40109 84260 333 59017;
0168831820999992010060200004-11300-041867FM-12+074799999V02099999999992200019N0010001N1+02511+01621101291ADDGF103991001001999999001011KA1240M+03211MA1999999093231MD1999999+0191REMSYN088AAXX  02004 83182 32994 314// 10251 20162 39323 40129 80001 333 10321 29054 55039 58019;
0143831820999992010060212004-11300-041867FM-12+074799999V02099999999990450019N0100001N1+02341+01601101681ADDGF108991041051008001051011MA1999999093471MD1999999+0061REMSYN076AAXX  02124 83182 32597 814// 10234 20160 39347 40168 84551 333 2//// 58006;
0137831820999992010060218004-11300-041867FM-12+074799999V0201401N005112200019N0100001N1+02741+01611101391ADDGF104991041021008001001001MA1999999093191MD1999999+0191REMSYN070AAXX  02184 83182 32597 41410 10274 20161 39319 40139 84200 333 58019;
0178831820999992010060300004-11300-041867FM-12+074799999V0200901N003112200019N0010001N1+02181+01701101671ADDGA1001+999999999GF100991001001999999001001KA1240M+02921MA1999999093421MD1999999+0191REMSYN082AAXX  03004 83182 32994 00906 10218 20170 39342 40167 333 10292 29065 55071 58019;
0143831820999992010060312004-11300-041867FM-12+074799999V0201401N006710075019N0100001N1+02221+01601101871ADDGF108991061051008001021999MA1999999093581MD1999999+0161REMSYN076AAXX  03124 83182 32597 81413 10222 20160 39358 40187 8652/ 333 2//// 58016;
0137831820999992010060318004-11300-041867FM-12+074799999V0201401N005112200019N0100001N1+02741+01441101451ADDGF102991021021008001001001MA1999999093231MD1999999+0041REMSYN070AAXX  03184 83182 32597 21410 10274 20144 39323 40145 82200 333 58004;
0178831820999992010060400004-11300-041867FM-12+074799999V0201401N004112200019N0010001N1+02141+01661101771ADDGA1001+999999999GF100991001001999999001001KA1240M+02931MA1999999093491MD1999999+0071REMSYN082AAXX  04004 83182 32994 01408 10214 20166 39349 40177 333 10293 29062 55083 58007;
0143831820999992010060412004-11300-041867FM-12+074799999V0201401N005710450019N0100001N1+02181+01441102011ADDGF107991011021008001051001MA1999999093691MD1999999+0111REMSYN076AAXX  04124 83182 32597 71411 10218 20144 39369 40201 81250 333 2//// 58011;
0137831820999992010060418004-11300-041867FM-12+074799999V0201401N006210075019N0100001N1+02641+01481101621ADDGF107991071051008001001001MA1999999093391MD1999999+0161REMSYN070AAXX  04184 83182 32597 71412 10264 20148 39339 40162 87500 333 58016;
0178831820999992010060500004-11300-041867FM-12+074799999V0201401N002612200019N0010001N1+01961+01501101861ADDGA1001+999999999GF100991001001999999001001KA1240M+02831MA1999999093521MD1999999+0031REMSYN082AAXX  05004 83182 32994 01405 10196 20150 39352 40186 333 10283 29066 55065 58003;
0143831820999992010060512004-11300-041867FM-12+074799999V0201401N004112200019N0100001N1+02271+01521101931ADDGF102991011021008001041011MA1999999093601MD1999999-0091REMSYN076AAXX  05124 83182 32597 21408 10227 20152 39360 40193 81241 333 2//// 59009;
0137831820999992010060518004-11300-041867FM-12+074799999V0201801N002612200019N0100001N1+02961+01161101351ADDGF101991011021008001001001MA1999999093151MD1999999-0241REMSYN070AAXX  05184 83182 32597 11805 10296 20116 39315 40135 81200 333 59024;
0178831820999992010060600004-11300-041867FM-12+074799999V0200901N002612200019N0010001N1+02221+01411101611ADDGA1001+999999999GF100991001001999999001001KA1240M+03031MA1999999093361MD1999999-0161REMSYN082AAXX  06004 83182 32994 00905 10222 20141 39336 40161 333 10303 29054 55091 59016;
0143831820999992010060612004-11300-041867FM-12+074799999V0201401N001510150019N0100001N1+02641+01481101581ADDGF108991071001017501041011MA1999999093401MD1999999-0201REMSYN076AAXX  06124 83182 32797 81403 10264 20148 39340 40158 87041 333 2//// 59020;
0137831820999992010060618004-11300-041867FM-12+074799999V0209999C000012200019N0100001N1+03241+00581101081ADDGF102991011011012501001011MA1999999092941MD1999999-0211REMSYN070AAXX  06184 83182 32697 21400 10324 20058 39294 40108 81101 333 59021;
0178831820999992010060700004-11300-041867FM-12+074799999V0201401N003112200019N0010001N1+02391+01311101421ADDGA1001+999999999GF100991001001999999001001KA1240M+03291MA1999999093271MD1999999-0091REMSYN082AAXX  07004 83182 32994 01406 10239 20131 39327 40142 333 10329 29045 55095 59009;
0143831820999992010060712004-11300-041867FM-12+074799999V0201401N004612200019N0100001N1+02421+01461101711ADDGF102991011011012501001041MA1999999093501MD1999999+0231REMSYN076AAXX  07124 83182 32697 21409 10242 20146 39350 40171 81104 333 2//// 58023;
0137831820999992010060718004-11300-041867FM-12+074799999V0201401N004112200019N0100001N1+03121+01481101341ADDGF102991021021008001001001MA1999999093201MD1999999+0261REMSYN070AAXX  07184 83182 32597 21408 10312 20148 39320 40134 82200 333 58026;
0178831820999992010060800004-11300-041867FM-12+074799999V0201401N002612200019N0010001N1+02281+01541101631ADDGA1001+999999999GF100991001001999999001001KA1240M+03191MA1999999093401MD1999999+0131REMSYN082AAXX  08004 83182 32994 01405 10228 20154 39340 40163 333 10319 29054 55105 58013;
0143831820999992010060812004-11300-041867FM-12+074799999V0200901N002610075019N0100001N1+02271+01801101841ADDGF108991061051008001021999MA1999999093571MD1999999+0071REMSYN076AAXX  08124 83182 32597 80905 10227 20180 39357 40184 8652/ 333 2//// 58007;
0137831820999992010060818004-11300-041867FM-12+074799999V0200901N003110075019N0100001N1+02911+01491101381ADDGF106991061021008001001001MA1999999093241MD1999999+0041REMSYN070AAXX  08184 83182 32597 60906 10291 20149 39324 40138 86200 333 58004;
0168831820999992010060900004-11300-041867FM-12+074799999V0201401N003112200019N0010001N1+02231+01891101731ADDGF102991001001999999001011KA1240M+03161MA1999999093471MD1999999+0071REMSYN088AAXX  09004 83182 32994 21406 10223 20189 39347 40173 80001 333 10316 29070 55076 58007;
0143831820999992010060912004-11300-041867FM-12+074799999V0200901N005110075019N0100001N1+02241+01761101871ADDGF108991081051008001999999MA1999999093601MD1999999+0031REMSYN076AAXX  09124 83182 32597 80910 10224 20176 39360 40187 885// 333 2//// 58003;
0137831820999992010060918004-11300-041867FM-12+074799999V0201401N004112200019N0100001N1+02781+01331101311ADDGF102991021021008001001001MA1999999093141MD1999999-0101REMSYN070AAXX  09184 83182 32597 21408 10278 20133 39314 40131 82200 333 59010;
0168831820999992010061000004-11300-041867FM-12+074799999V0200901N004110075019N0010001N1+02231+01511101731ADDGF108991081051008001999999KA1240M+02871MA1999999093471MD1999999+0001REMSYN088AAXX  10004 83182 32594 80908 10223 20151 39347 40173 885// 333 10287 29058 55068 58000;
0162831820999992010061012004-11300-041867FM-12+074799999V0200901N005110075019N0100001N1+02121+01701101781ADDGF108991999051008001021999MA1999999093541MD1999999-0061REMSYN076AAXX  10124 83182 32597 80910 10212 20170 39354 40178 8852/ 333 2//// 59006;EQDQ01+000082SCOTLC
0137831820999992010061018004-11300-041867FM-12+074799999V0200901N003612200019N0100001N1+02911+01561101421ADDGF103991031021008001001011MA1999999093241MD1999999+0101REMSYN070AAXX  10184 83182 32597 30907 10291 20156 39324 40142 83201 333 58010;
0168831820999992010061100004-11300-041867FM-12+074799999V0200901N003119999999N0010001N1+02111+01581101711ADDGF108991001001999999001011KA1240M+02901MA1999999093401MD1999999-0071REMSYN088AAXX  11004 83182 32994 80906 10211 20158 39340 40171 80001 333 10290 29066 55045 59007;
0143831820999992010061112004-11300-041867FM-12+074799999V0201401N005112200019N0100001N1+02261+01541101871ADDGF108991011011008001001011MA1999999093581MD1999999+0041REMSYN076AAXX  11124 83182 32597 81410 10226 20154 39358 40187 81101 333 2//// 58004;
0137831820999992010061118004-11300-041867FM-12+074799999V0200901N002612200019N0100001N1+03061+01301101311ADDGF108991021021008001001011MA1999999093141MD1999999-0101REMSYN070AAXX  11184 83182 32597 80905 10306 20130 39314 40131 82201 333 59010;
0168831820999992010061200004-11300-041867FM-12+074799999V0200901N003619999999N0010001N1+02261+01421101801ADDGF108991001001999999001011KA1240M+03131MA1999999093541MD1999999+0141REMSYN088AAXX  12004 83182 32994 80907 10226 20142 39354 40180 80001 333 10313 29054 55096 58014;
0143831820999992010061212004-11300-041867FM-12+074799999V0200901N005119999999N0100001N1+02431+01461101731ADDGF108991001001999999001011MA1999999093511MD1999999-0071REMSYN076AAXX  12124 83182 32997 80910 10243 20146 39351 40173 80001 333 2//// 59007;
0137831820999992010061218004-11300-041867FM-12+074799999V0200901N003112200019N0100001N1+02931+01341101381ADDGF102991021021008001001001MA1999999093181MD1999999+0041REMSYN070AAXX  12184 83182 32597 20906 10293 20134 39318 40138 82200 333 58004;
0178831820999992010061300004-11300-041867FM-12+074799999V0200901N003612200019N0010001N1+02151+01591101761ADDGA1001+999999999GF100991001001999999001001KA1240M+03061MA1999999093461MD1999999-0081REMSYN082AAXX  13004 83182 32994 00907 10215 20159 39346 40176 333 10306 29059 55104 59008;
0143831820999992010061312004-11300-041867FM-12+074799999V0201401N004612200019N0100001N1+02151+01441101891ADDGF102991021021008001001001MA1999999093571MD1999999+0061REMSYN076AAXX  13124 83182 32597 21409 10215 20144 39357 40189 82200 333 2//// 58006;
0137831820999992010061318004-11300-041867FM-12+074799999V0201401N002612200019N0100001N1+02821+01091101371ADDGF108991021011008001001011MA1999999093141MD1999999-0041REMSYN070AAXX  13184 83182 32597 81405 10282 20109 39314 40137 82101 333 59004;
0168831820999992010061400004-11300-041867FM-12+074799999V0200901N002619999999N0010001N1+02121+01151101601ADDGF108991001001999999001011KA1240M+03071MA1999999093321MD1999999-0141REMSYN088AAXX  14004 83182 32994 80905 10212 20115 39332 40160 80001 333 10307 29052 55104 59014;
0143831820999992010061412004-11300-041867FM-12+074799999V0200901N004612200019N0100001N1+01841+01101101881ADDGF103991001001999999001011MA1999999093531MD1999999-0041REMSYN076AAXX  14124 83182 32997 30909 10184 20110 39353 40188 80001 333 2//// 59004;
0137831820999992010061418004-11300-041867FM-12+074799999V0200901N004112200019N0100001N1+02711+00651101511ADDGF102991011011012501001011MA1999999093201MD1999999+0061REMSYN070AAXX  14184 83182 32697 20908 10271 20065 39320 40151 81101 333 58006;
0178831820999992010061500004-11300-041867FM-12+074799999V0200901N003112200019N0010001N1+01991+01001101821ADDGA1001+999999999GF100991001001999999001001KA1240M+02811MA1999999093441MD1999999+0121REMSYN082AAXX  15004 83182 32994 00906 10199 20100 39344 40182 333 10281 29049 55103 58012;
0143831820999992010061512004-11300-041867FM-12+074799999V0201401N005112200019N0100001N1+01961+01261101911ADDGF101991011011012501001001MA1999999093551MD1999999+0021REMSYN076AAXX  15124 83182 32697 11410 10196 20126 39355 40191 81100 333 2//// 58002;
0147831820999992010061518004-11300-041867FM-12+074799999V0201401N002612200019N0100001N1+02821+00851101581ADDGA1001+999999999GF100991001001999999001001MA1999999093281MD1999999+0081REMSYN064AAXX  15184 83182 32997 01405 10282 20085 39328 40158 333 58008;
0168831820999992010061600004-11300-041867FM-12+074799999V0200901N003112200019N0010001N1+02011+01311101811ADDGF102991001001999999001011KA1240M+02881MA1999999093461MD1999999+0021REMSYN088AAXX  16004 83182 32994 20906 10201 20131 39346 40181 80001 333 10288 29055 55105 58002;
0143831820999992010061612004-11300-041867FM-12+074799999V0201401N004110075019N0100001N1+02161+01521101811ADDGF108991081051008001999999MA1999999093491MD1999999-0061REMSYN076AAXX  16124 83182 32597 81408 10216 20152 39349 40181 885// 333 2//// 59006;
0137831820999992010061618004-11300-041867FM-12+074799999V0201401N004612200019N0100001N1+02781+01371101461ADDGF102991011011012501001011MA1999999093191MD1999999-0091REMSYN070AAXX  16184 83182 32697 21409 10278 20137 39319 40146 81101 333 59009;
0168831820999992010061700004-11300-041867FM-12+074799999V0201401N004612200019N0010001N1+01911+01551101631ADDGF101991001001999999001011KA1240M+02841MA1999999093451MD1999999-0011REMSYN088AAXX  17004 83182 32994 11409 10191 20155 39345 40163 80001 333 10284 29067 55091 59001;
0143831820999992010061712004-11300-041867FM-12+074799999V0200901N004612200019N0100001N1+02041+01411101781ADDGF101991001001999999001011MA1999999093431MD1999999-0061REMSYN076AAXX  17124 83182 32997 10909 10204 20141 39343 40178 80001 333 2//// 59006;
0137831820999992010061718004-11300-041867FM-12+074799999V0200901N002612200019N0100001N1+03021+01071101321ADDGF101991011011012501001001MA1999999093111MD1999999-0091REMSYN070AAXX  17184 83182 32697 10905 10302 20107 39311 40132 81100 333 59009;
0178831820999992010061800004-11300-041867FM-12+074799999V0200901N003112200019N0010001N1+02221+01351101521ADDGA1001+999999999GF100991001001999999001001KA1240M+03121MA1999999093231MD1999999-0221REMSYN082AAXX  18004 83182 32994 00906 10222 20135 39323 40152 333 10312 29053 55103 59022;
0143831820999992010061812004-11300-041867FM-12+074799999V0201401N004612200019N0100001N1+02161+01401101631ADDGF101991011011008001001001MA1999999093361MD1999999-0071REMSYN076AAXX  18124 83182 32597 11409 10216 20140 39336 40163 81100 333 2//// 59007;
0137831820999992010061818004-11300-041867FM-12+074799999V0200501N003119999999N0100001N1+02931+00611101231ADDGF108991001001999999001011MA1999999092991MD1999999-0121REMSYN070AAXX  18184 83182 32997 80506 10293 20061 39299 40123 80001 333 59012;
0168831820999992010061900004-11300-041867FM-12+074799999V0200901N004119999999N0010001N1+02121+01101101421ADDGF108991001001999999001011KA1240M+02981MA1999999093191MD1999999-0041REMSYN088AAXX  19004 83182 32994 80908 10212 20110 39319 40142 80001 333 10298 29047 55098 59004;
0143831820999992010061912004-11300-041867FM-12+074799999V0200901N005110450019N0100001N1+02361+01511101541ADDGF108991021021008001041011MA1999999093301MD1999999-0061REMSYN076AAXX  19124 83182 32597 80910 10236 20151 39330 40154 82241 333 2//// 59006;
0137831820999992010061918004-11300-041867FM-12+074799999V0201401N003110075019N0100001N1+02581+01581101381ADDGF108991081051008001999999MA1999999093101MD1999999+0111REMSYN070AAXX  19184 83182 32597 81406 10258 20158 39310 40138 885// 333 58011;
0168831820999992010062000004-11300-041867FM-12+074799999V0200901N001510075019N0010001N1+02341+01621101451ADDGF108991081051008001999999KA1240M+02741MA1999999093251MD1999999+0061REMSYN088AAXX  20004 83182 32594 80903 10234 20162 39325 40145 885// 333 10274 29060 55035 58006;
0153831820999992010062012004-11300-041867FM-12+074799999V0200901N002612200019N0100001N1+02361+01561101471ADDGA1001+999999999GF100991001001999999001001MA1999999093261MD1999999-0041REMSYN070AAXX  20124 83182 32997 00905 10236 20156 39326 40147 333 2//// 59004;
0147831820999992010062018004-11300-041867FM-12+074799999V0200901N002112200019N0100001N1+03181+00751100941ADDGA1001+999999999GF100991001001999999001001MA1999999092831MD1999999-0271REMSYN064AAXX  20184 83182 32997 00904 10318 20075 39283 40094 333 59027;
0178831820999992010062100004-11300-041867FM-12+074799999V0200901N004612200019N0010001N1+02201+01441101251ADDGA1001+999999999GF100991001001999999001001KA1240M+03231MA1999999093051MD1999999-0201REMSYN082AAXX  21004 83182 32994 00909 10220 20144 39305 40125 333 10323 29052 55104 59020;
0143831820999992010062112004-11300-041867FM-12+074799999V0200901N004610075019N0100001N1+02281+01541101521ADDGF106991061021008001001001MA1999999093261MD1999999+0001REMSYN076AAXX  21124 83182 32597 60909 10228 20154 39326 40152 86200 333 2//// 58000;
0147831820999992010062118004-11300-041867FM-12+074799999V0201401N003112200019N0100001N1+03021+00841101071ADDGA1001+999999999GF100991001001999999001001MA1999999092901MD1999999+0071REMSYN064AAXX  21184 83182 32997 01406 10302 20084 39290 40107 333 58007;
0168831820999992010062200004-11300-041867FM-12+074799999V0200901N003612200019N0010001N1+02231+01041101461ADDGF103991001001999999001011KA1240M+03231MA1999999093221MD1999999+0171REMSYN088AAXX  22004 83182 32994 30907 10223 20104 39322 40146 80001 333 10323 29046 55096 58017;
0153831820999992010062212004-11300-041867FM-12+074799999V0200901N003612200019N0100001N1+02311+01361101571ADDGA1001+999999999GF100991001001999999001001MA1999999093331MD1999999+0071REMSYN070AAXX  22124 83182 32997 00907 10231 20136 39333 40157 333 2//// 58007;
0137831820999992010062218004-11300-041867FM-12+074799999V0200901N002112200019N0100001N1+03181+01051101191ADDGF104991041021008001001001MA1999999093011MD1999999+0111REMSYN070AAXX  22184 83182 32597 40904 10318 20105 39301 40119 84200 333 58011;
0178831820999992010062300004-11300-041867FM-12+074799999V0200901N003612200019N0010001N1+02451+01491101351ADDGA1001+999999999GF100991001001999999001001KA1240M+03251MA1999999093171MD1999999-0051REMSYN082AAXX  23004 83182 32994 00907 10245 20149 39317 40135 333 10325 29049 55099 59005;
0143831820999992010062312004-11300-041867FM-12+074799999V0200901N004110075019N0100001N1+02501+01771101631ADDGF106991061021008001001001MA1999999093461MD1999999+0131REMSYN076AAXX  23124 83182 32597 60908 10250 20177 39346 40163 86200 333 2//// 58013;
0137831820999992010062318004-11300-041867FM-12+074799999V0201401N004112200019N0100001N1+02941+01511101301ADDGF102991021021008001001001MA1999999093131MD1999999+0121REMSYN070AAXX  23184 83182 32597 21408 10294 20151 39313 40130 82200 333 58012;
0178831820999992010062400004-11300-041867FM-12+074799999V0201401N002112200019N0010001N1+02241+01571101671ADDGA1001+999999999GF100991001001999999001001KA1240M+03001MA1999999093451MD1999999+0281REMSYN082AAXX  24004 83182 32994 01404 10224 20157 39345 40167 333 10300 29060 55088 58028;
0143831820999992010062412004-11300-041867FM-12+074799999V0200901N008212200019N0100001N1+02121+01411101971ADDGF102991011021008001001011MA1999999093671MD1999999+0211REMSYN076AAXX  24124 83182 32597 20916 10212 20141 39367 40197 81201 333 2//// 58021;
0156831820999992010062418004-11300-041867FM-12+074799999V0200901N005112200019N0100001N1+02681+00921101621ADDGF104991999021008001001001MA1999999093361MD1999999+0231REMSYN070AAXX  24184 83182 32597 40910 10268 20092 39336 40162 86200 333 58023;EQDQ01+000062SCOTLC
0178831820999992010062500004-11300-041867FM-12+074799999V0200901N003112200019N0010001N1+02081+01271101781ADDGA1001+999999999GF100991001001999999001001KA1240M+02771MA1999999093461MD1999999+0011REMSYN082AAXX  25004 83182 32994 00906 10208 20127 39346 40178 333 10277 29054 55104 58001;
0143831820999992010062512004-11300-041867FM-12+074799999V0200901N006710075019N0100001N1+02281+01441102011ADDGF105991051021008001001001MA1999999093691MD1999999+0021REMSYN076AAXX  25124 83182 32597 50913 10228 20144 39369 40201 85200 333 2//// 58002;
0137831820999992010062518004-11300-041867FM-12+074799999V0200901N005110075019N0100001N1+02421+01741101701ADDGF108991081051008001999999MA1999999093371MD1999999+0011REMSYN070AAXX  25184 83182 32597 80910 10242 20174 39337 40170 885// 333 58001;
0168831820999992010062600004-11300-041867FM-12+074799999V0201401N003110075019N0010001N1+01991+01791101821ADDGF108991081051008001999999KA1240M+02681MA1999999093521MD1999999+0061REMSYN088AAXX  26004 83182 32594 81406 10199 20179 39352 40182 885// 333 10268 29078 55040 58006;
0143831820999992010062612004-11300-041867FM-12+074799999V0201401N007710075019N0100001N1+02161+01571101801ADDGF106991061051008001001001MA1999999093481MD1999999-0211REMSYN076AAXX  26124 83182 32597 61415 10216 20157 39348 40180 86500 333 2//// 59021;
0137831820999992010062618004-11300-041867FM-12+074799999V0201401N005110075019N0100001N1+02281+01501101431ADDGF108991081051008001999999MA1999999093191MD1999999-0181REMSYN070AAXX  26184 83182 32597 81410 10228 20150 39319 40143 885// 333 59018;
0168831820999992010062700004-11300-041867FM-12+074799999V0201401N004110075019N0010001N1+01971+01531101711ADDGF108991081051008001999999KA1240M+02441MA1999999093381MD1999999-0141REMSYN088AAXX  27004 83182 32594 81408 10197 20153 39338 40171 885// 333 10244 29071 55025 59014;
0143831820999992010062712004-11300-041867FM-12+074799999V0200901N007712200019N0100001N1+02121+01341101781ADDGF103991031021008001001001MA1999999093401MD1999999-0021REMSYN076AAXX  27124 83182 32597 30915 10212 20134 39340 40178 83200 333 2//// 59002;
0137831820999992010062718004-11300-041867FM-12+074799999V0200901N004612200019N0100001N1+02751+01071101491ADDGF102991021021008001001001MA1999999093251MD1999999-0061REMSYN070AAXX  27184 83182 32597 20909 10275 20107 39325 40149 82200 333 59006;
0168831820999992010062800004-11300-041867FM-12+074799999V0200901N004112200019N0010001N1+02081+01401101701ADDGF102991021021008001001001KA1240M+02781MA1999999093391MD1999999+0011REMSYN088AAXX  28004 83182 32594 20908 10208 20140 39339 40170 82200 333 10278 29057 55096 58001;
0143831820999992010062812004-11300-041867FM-12+074799999V0200901N002610075019N0100001N1+01951+01491101851ADDGF108991081051008001999999MA1999999093501MD1999999+0101REMSYN076AAXX  28124 83182 32597 80905 10195 20149 39350 40185 885// 333 2//// 58010;
0137831820999992010062818004-11300-041867FM-12+074799999V0201401N003610075019N0100001N1+02541+01421101561ADDGF107991071051008001001001MA1999999093261MD1999999+0011REMSYN070AAXX  28184 83182 32597 71407 10254 20142 39326 40156 87500 333 58001;
0168831820999992010062900004-11300-041867FM-12+074799999V0200901N002610075019N0010001N1+02051+01711101781ADDGF108991071021008001001011KA1240M+02791MA1999999093431MD1999999+0041REMSYN088AAXX  29004 83182 32594 80905 10205 20171 39343 40178 87201 333 10279 29072 55031 58004;
0143831820999992010062912004-11300-041867FM-12+074799999V0200901N005710075019N0100001N1+02111+01591101751ADDGF108991081051008001001001MA1999999093441MD1999999+0011REMSYN076AAXX  29124 83182 32597 80911 10211 20159 39344 40175 88500 333 2//// 58001;
0137831820999992010062918004-11300-041867FM-12+074799999V0201401N006210075019N0100001N1+02621+01561101471ADDGF106991061021008001001001MA1999999093221MD1999999-0041REMSYN070AAXX  29184 83182 32597 61412 10262 20156 39322 40147 86200 333 59004;
0168831820999992010063000004-11300-041867FM-12+074799999V0201401N004110075019N0010001N1+02091+01751101611ADDGF107991061051008001031001KA1240M+02711MA1999999093311MD1999999-0121REMSYN088AAXX  30004 83182 32594 71408 10209 20175 39331 40161 86530 333 10271 29071 55065 59012;
0143831820999992010063012004-11300-041867FM-12+074799999V0201401N006710075019N0100001N1+02101+01391101911ADDGF108991081051008001999999MA1999999093581MD1999999+0141REMSYN076AAXX  30124 83182 32597 81413 10210 20139 39358 40191 885// 333 2//// 58014;
0137831820999992010063018004-11300-041867FM-12+074799999V0201401N004110075019N0100001N1+02431+01511101601ADDGF108991081051008001999999MA1999999093301MD1999999+0081REMSYN070AAXX  30184 83182 32597 81408 10243 20151 39330 40160 885// 333 58008;
0168831820999992010070100004-11300-041867FM-12+074799999V0201401N004610075019N0010001N1+01981+01611101831ADDGF108991081051008001999999KA1240M+02541MA1999999093491MD1999999+0181REMSYN088AAXX  01004 83182 32594 81409 10198 20161 39349 40183 885// 333 10254 29070 55019 58018;
0143831820999992010070112004-11300-041867FM-12+074799999V0201401N006210450019N0100001N1+02071+01461101791ADDGF105991041021008001041001MA1999999093441MD1999999-0141REMSYN076AAXX  01124 83182 32597 51412 10207 20146 39344 40179 84240 333 2//// 59014;
0137831820999992010070118004-11300-041867FM-12+074799999V0200901N005110075019N0100001N1+02591+01311101581ADDGF108991081051008001001001MA1999999093321MD1999999+0021REMSYN070AAXX  01184 83182 32597 80910 10259 20131 39332 40158 88500 333 58002;
0168831820999992010070200004-11300-041867FM-12+074799999V0201401N003610075019N0010001N1+02121+01641101721ADDGF108991061051008001031001KA1240M+02631MA1999999093411MD1999999-0081REMSYN088AAXX  02004 83182 32594 81407 10212 20164 39341 40172 86530 333 10263 29065 55058 59008;
0143831820999992010070212004-11300-041867FM-12+074799999V0201401N005710075019N0100001N1+02301+01581101771ADDGF108991061021008001001011MA1999999093491MD1999999-0051REMSYN076AAXX  02124 83182 32597 81411 10230 20158 39349 40177 86201 333 2//// 59005;
0137831820999992010070218004-11300-041867FM-12+074799999V0200901N005110075019N0100001N1+02531+01691101451ADDGF108991051051008001051011MA1999999093201MD1999999-0121REMSYN070AAXX  02184 83182 32597 80910 10253 20169 39320 40145 85551 333 59012;
0168831820999992010070300004-11300-041867FM-12+074799999V0201401N002610075019N0010001N1+02041+01661101731ADDGF108991081051008001999999KA1240M+02651MA1999999093441MD1999999+0031REMSYN088AAXX  03004 83182 32594 81405 10204 20166 39344 40173 885// 333 10265 29072 55058 58003;
0143831820999992010070312004-11300-041867FM-12+074799999V0200901N005112200019N0100001N1+02261+01701101711ADDGF108991011021008001001011MA1999999093421MD1999999-0071REMSYN076AAXX  03124 83182 32597 80910 10226 20170 39342 40171 81201 333 2//// 59007;
0137831820999992010070318004-11300-041867FM-12+074799999V0201401N004110075019N0100001N1+02491+01301101461ADDGF108991081051008001999999MA1999999093211MD1999999+0041REMSYN070AAXX  03184 83182 32597 81408 10249 20130 39321 40146 885// 333 58004;
0168831820999992010070400004-11300-041867FM-12+074799999V0201401N003110075019N0010001N1+02101+01601101641ADDGF108991081051008001999999KA1240M+02681MA1999999093371MD1999999-0071REMSYN088AAXX  04004 83182 32594 81406 10210 20160 39337 40164 885// 333 10268 29063 55064 59007;
0143831820999992010070412004-11300-041867FM-12+074799999V0201401N006210450019N0100001N1+02121+01481101721ADDGF108991041051008001051011MA1999999093411MD1999999-0011REMSYN076AAXX  04124 83182 32597 81412 10212 20148 39341 40172 84551 333 2//// 59001;
0137831820999992010070418004-11300-041867FM-12+074799999V0200901N005112200019N0100001N1+02681+01391101371ADDGF102991011021008001041001MA1999999093171MD1999999-0041REMSYN070AAXX  04184 83182 32597 20910 10268 20139 39317 40137 81240 333 59004;
0178831820999992010070500004-11300-041867FM-12+074799999V0200901N002612200019N0010001N1+01951+01401101641ADDGA1001+999999999GF100991001001999999001001KA1240M+02751MA1999999093321MD1999999-0051REMSYN082AAXX  05004 83182 32594 00905 10195 20140 39332 40164 333 10275 29087 55087 59005;
0143831820999992010070512004-11300-041867FM-12+074799999V0201401N005112200019N0100001N1+02111+01381101761ADDGF102991021021008001001001MA1999999093401MD1999999+0081REMSYN076AAXX  05124 83182 32597 21410 10211 20138 39340 40176 82200 333 2//// 58008;
0137831820999992010070518004-11300-041867FM-12+074799999V0201401N005710075019N0100001N1+02561+01351101381ADDGF108991081051008001999999MA1999999093141MD1999999-0031REMSYN070AAXX  05184 83182 32597 81411 10256 20135 39314 40138 885// 333 59003;
0178831820999992010070600004-11300-041867FM-12+074799999V0200901N002112200019N0010001N1+02001+01501101521ADDGA1001+999999999GF100991001001999999001001KA1240M+02711MA1999999093211MD1999999-0111REMSYN082AAXX  06004 83182 32994 00904 10200 20150 39321 40152 333 10271 29064 55074 59011;
0143831820999992010070612004-11300-041867FM-12+074799999V0200901N007212200019N0100001N1+02011+01381101771ADDGF102991021011012501001001MA1999999093421MD1999999+0021REMSYN076AAXX  06124 83182 32697 20914 10201 20138 39342 40177 82100 333 2//// 58002;
0137831820999992010070618004-11300-041867FM-12+074799999V0201401N005110075019N0100001N1+02471+01091101501ADDGF108991061021008001041011MA1999999093211MD1999999+0071REMSYN070AAXX  06184 83182 32597 81410 10247 20109 39321 40150 86241 333 58007;
0178831820999992010070700004-11300-041867FM-12+074799999V0200901N004112200019N0010001N1+01921+00971101671ADDGA1001+999999999GF100991001001999999001001KA1240M+02581MA1999999093311MD1999999+0101REMSYN082AAXX  07004 83182 32994 00908 10192 20097 39331 40167 333 10258 29054 55082 58010;
0143831820999992010070712004-11300-041867FM-12+074799999V0200901N005710075019N0100001N1+02181+01371101581ADDGF106991061021008001001001MA1999999093261MD1999999-0161REMSYN076AAXX  07124 83182 32597 60911 10218 20137 39326 40158 86200 333 2//// 59016;
0137831820999992010070718004-11300-041867FM-12+074799999V0200901N005112200019N0100001N1+02581+01431101441ADDGF102991021021008001001001MA1999999093141MD1999999+0071REMSYN070AAXX  07184 83182 32597 20910 10258 20143 39314 40144 82200 333 58007;
0178831820999992010070800004-11300-041867FM-12+074799999V0200901N002612200019N0010001N1+01861+01411101821ADDGA1001+999999999GF100991001001999999001001KA1240M+02661MA1999999093471MD1999999+0161REMSYN082AAXX  08004 83182 32994 00905 10186 20141 39347 40182 333 10266 29065 55096 58016;
0143831820999992010070812004-11300-041867FM-12+074799999V0200901N005112200019N0100001N1+02061+01361101731ADDGF102991011011012501001011MA1999999093371MD1999999-0101REMSYN076AAXX  08124 83182 32697 20910 10206 20136 39337 40173 81101 333 2//// 59010;
0137831820999992010070818004-11300-041867FM-12+074799999V0201401N002610075019N0100001N1+02911+01261101321ADDGF106991061021008001001001MA1999999093081MD1999999-0061REMSYN070AAXX  08184 83182 32597 61405 10291 20126 39308 40132 86200 333 59006;
0178831820999992010070900004-11300-041867FM-12+074799999V0200901N003612200019N0010001N1+02041+01331101591ADDGA1001+999999999GF100991001001999999001001KA1240M+02961MA1999999093271MD1999999-0201REMSYN082AAXX  09004 83182 32994 00907 10204 20133 39327 40159 333 10296 29057 55102 59020;
0153831820999992010070912004-11300-041867FM-12+074799999V0201401N004612200019N0100001N1+02381+01661101711ADDGA1001+999999999GF100991001001999999001001MA1999999093441MD1999999+0071REMSYN070AAXX  09124 83182 32997 01409 10238 20166 39344 40171 333 2//// 58007;
0137831820999992010070918004-11300-041867FM-12+074799999V0201401N003112200019N0100001N1+03101+00871101151ADDGF102991021021008001001001MA1999999092991MD1999999-0091REMSYN070AAXX  09184 83182 32597 21406 10310 20087 39299 40115 82200 333 59009;
0168831820999992010071000004-11300-041867FM-12+074799999V0200901N005110075019N0010001N1+02251+01531101471ADDGF108991081051008001999999KA1240M+03161MA1999999093251MD1999999-0021REMSYN088AAXX  10004 83182 32594 80910 10225 20153 39325 40147 885// 333 10316 29054 55102 59002;
0143831820999992010071012004-11300-041867FM-12+074799999V0201401N004110075019N0100001N1+02341+01521101631ADDGF106991061021008001001001MA1999999093401MD1999999-0041REMSYN076AAXX  10124 83182 32597 61408 10234 20152 39340 40163 86200 333 2//// 59004;
0137831820999992010071018004-11300-041867FM-12+074799999V0201401N003112200019N0100001N1+02881+01181101181ADDGF102991021021008001001001MA1999999093001MD1999999+0011REMSYN070AAXX  10184 83182 32597 21406 10288 20118 39300 40118 82200 333 58001;
0178831820999992010071100004-11300-041867FM-12+074799999V0201401N004612200019N0010001N1+02101+01491101431ADDGA1001+999999999GF100991001001999999001001KA1240M+02941MA1999999093181MD1999999-0071REMSYN082AAXX  11004 83182 32994 01409 10210 20149 39318 40143 333 10294 29058 55090 59007;
0143831820999992010071112004-11300-041867FM-12+074799999V0200901N005712200019N0100001N1+02161+01381101531ADDGF103991021011012501001011MA1999999093241MD1999999-0161REMSYN076AAXX  11124 83182 32697 30911 10216 20138 39324 40153 82101 333 2//// 59016;
0137831820999992010071118004-11300-041867FM-12+074799999V0200501N004112200019N0100001N1+02921+00931101051ADDGF102991011021008001001011MA1999999092911MD1999999-0091REMSYN070AAXX  11184 83182 32597 20508 10292 20093 39291 40105 81201 333 59009;
0178831820999992010071200004-11300-041867FM-12+074799999V0200901N002612200019N0010001N1+02031+01401101381ADDGA1001+999999999GF100991001001999999001001KA1240M+02991MA1999999093101MD1999999-0081REMSYN082AAXX  12004 83182 32994 00905 10203 20140 39310 40138 333 10299 29056 55097 59008;
0143831820999992010071212004-11300-041867FM-12+074799999V0201401N005712200019N0100001N1+02091+01451101701ADDGF101991011011012501001001MA1999999093371MD1999999+0131REMSYN076AAXX  12124 83182 32697 11411 10209 20145 39337 40170 81100 333 2//// 58013;
0137831820999992010071218004-11300-041867FM-12+074799999V0200901N004112200019N0100001N1+02921+01081101171ADDGF102991011011012501001011MA1999999092971MD1999999+0061REMSYN070AAXX  12184 83182 32697 20908 10292 20108 39297 40117 81101 333 58006;
0178831820999992010071300004-11300-041867FM-12+074799999V0200901N002112200019N0010001N1+02221+01531101441ADDGA1001+999999999GF100991001001999999001001KA1240M+02981MA1999999093171MD1999999+0071REMSYN082AAXX  13004 83182 32994 00904 10222 20153 39317 40144 333 10298 29057 55102 58007;
0143831820999992010071312004-11300-041867FM-12+074799999V0201401N005110450019N0100001N1+02211+01651101551ADDGF105991031021008001041001MA1999999093291MD1999999-0081REMSYN076AAXX  13124 83182 32597 51410 10221 20165 39329 40155 83240 333 2//// 59008;
0137831820999992010071318004-11300-041867FM-12+074799999V0200901N003110075019N0100001N1+02721+01681101211ADDGF108991081051008001001001MA1999999093011MD1999999+0041REMSYN070AAXX  13184 83182 32597 80906 10272 20168 39301 40121 88500 333 58004;
0178831820999992010071400004-11300-041867FM-12+074799999V0201401N003612200019N0010001N1+02291+01761101311ADDGA1001+999999999GF100991001001999999001001KA1240M+02791MA1999999093081MD1999999-0091REMSYN082AAXX  14004 83182 32994 01407 10229 20176 39308 40131 333 10279 29067 55025 59009;
0143831820999992010071412004-11300-041867FM-12+074799999V0200901N004112200019N0100001N1+02341+01571101601ADDGF108991021021008001001011MA1999999093371MD1999999+0081REMSYN076AAXX  14124 83182 32597 80908 10234 20157 39337 40160 82201 333 2//// 58008;
0137831820999992010071418004-11300-041867FM-12+074799999V0200901N004612200019N0100001N1+02941+01231101321ADDGF108991021021008001001011MA1999999093091MD1999999+0081REMSYN070AAXX  14184 83182 32597 80909 10294 20123 39309 40132 82201 333 58008;
0168831820999992010071500004-11300-041867FM-12+074799999V0200901N002119999999N0010001N1+02161+01471101491ADDGF108991001001999999001011KA1240M+03001MA1999999093251MD1999999+0171REMSYN088AAXX  15004 83182 32994 80904 10216 20147 39325 40149 80001 333 10300 29057 55095 58017;
0143831820999992010071512004-11300-041867FM-12+074799999V0201401N005110450019N0100001N1+02281+01541101671ADDGF108991041021008001041011MA1999999093401MD1999999+0031REMSYN076AAXX  15124 83182 32597 81410 10228 20154 39340 40167 84241 333 2//// 58003;
0137831820999992010071518004-11300-041867FM-12+074799999V0200901N005110075019N0100001N1+02801+00671101411ADDGF106991051021008001001011MA1999999093191MD1999999+0101REMSYN070AAXX  15184 83182 32597 60910 10280 20067 39319 40141 85201 333 58010;
0178831820999992010071600004-11300-041867FM-12+074799999V0200901N004112200019N0010001N1+02221+01161101571ADDGA1001+999999999GF100991001001999999001001KA1240M+02871MA1999999093331MD1999999+0081REMSYN082AAXX  16004 83182 32994 00908 10222 20116 39333 40157 333 10287 29048 55074 58008;
0143831820999992010071612004-11300-041867FM-12+074799999V0201401N005112200019N0100001N1+02301+01561101791ADDGF108991011021008001001011MA1999999093531MD1999999+0131REMSYN076AAXX  16124 83182 32597 81410 10230 20156 39353 40179 81201 333 2//// 58013;
0156831820999992010071618004-11300-041867FM-12+074799999V0200901N005110075019N0100001N1+02671+01541101471ADDGF108991999051008001001001MA1999999093221MD1999999+0031REMSYN070AAXX  16184 83182 32597 80910 10267 20154 39322 40147 87500 333 58003;EQDQ01+000072SCOTLC
0168831820999992010071700004-11300-041867FM-12+074799999V0200901N004110075019N0100001N1+02131+01781101751ADDGF108991081051008001999999KA1240M+02791MA1999999093471MD1999999+0141REMSYN088AAXX  17004 83182 32597 80908 10213 20178 39347 40175 885// 333 10279 29069 55073 58014;
0188831820999992010071712004-11300-041867FM-12+074799999V0201401N006710075019N0100001N1+02121+01621101941ADDAA124000591AY161061AY221061GF108991061051008001051011MA1999999093611MD1999999+0081MW1021REMSYN088AAXX  17124 83182 21597 81413 10212 20162 39361 40194 70262 86551 333 2//// 58008 69954;
0137831820999992010071718004-11300-041867FM-12+074799999V0201401N004110075019N0100001N1+02401+01701101761ADDGF108991081051008001999999MA1999999093481MD1999999+0261REMSYN070AAXX  17184 83182 32597 81408 10240 20170 39348 40176 885// 333 58026;
0213831820999992010071800004-11300-041867FM-12+074799999V0201401N003110075019N0010001N1+01961+01861101961ADDAA106000021AY121061AY221061GF108991081051008001999999KA1240M+02531MA1999999093601MD1999999+0171MW1601REMSYN100AAXX  18004 83182 21594 81406 10196 20186 39360 40196 76022 885// 333 10253 29082 55036 58017 69921;
0160831820999992010071812004-11300-041867FM-12+074799999V0201401N006712200019N0100001N1+02101+01461101951ADDAA124000021GF103991021051008001041001MA1999999093611MD1999999+0001REMSYN082AAXX  18124 83182 22597 31413 10210 20146 39361 40195 82540 333 2//// 58000 69924;
0137831820999992010071818004-11300-041867FM-12+074799999V0201401N004612200019N0100001N1+02601+01321101551ADDGF102991021021008001001001MA1999999093271MD1999999-0211REMSYN070AAXX  18184 83182 32597 21409 10260 20132 39327 40155 82200 333 59021;
0168831820999992010071900004-11300-041867FM-12+074799999V0201401N005710075019N0010001N1+02141+01431101811ADDGF108991081051008001999999KA1240M+02661MA1999999093491MD1999999-0111REMSYN088AAXX  19004 83182 32594 81411 10214 20143 39349 40181 885// 333 10266 29060 55070 59011;
0188831820999992010071912004-11300-041867FM-12+074799999V0201401N004612200019N0100001N1+01931+01281102011ADDAA124000591AY161061AY221061GF101991011011012501001001MA1999999093661MD1999999+0051MW1031REMSYN088AAXX  19124 83182 21697 11409 10193 20128 39366 40201 70362 81100 333 2//// 58005 69944;
0141831820999992010071918004-11300-041867FM-12+074799999V0201401N004112200019N0100001N1+02821+00801101681ADDGF103991031021008001001001MD1999999+0121REMSYN070AAXX  19184 83182 32597 31408 10282 20080 30168 40168 83200 333 58012;EQDQ01+101683APOSP 
0168831820999992010072000004-11300-041867FM-12+074799999V0201401N005710075019N0010001N1+02121+01571101891ADDGF105991051021008001001001KA1240M+02911MA1999999094141MD1999999+0061REMSYN088AAXX  20004 83182 32594 51411 10212 20157 39414 40189 85200 333 10291 29059 55104 58006;
0143831820999992010072012004-11300-041867FM-12+074799999V0201401N004110075019N0100001N1+02141+01431101871ADDGF106991061021008001001001MA1999999093561MD1999999+0021REMSYN076AAXX  20124 83182 32597 61408 10214 20143 39356 40187 86200 333 2//// 58002;
0137831820999992010072018004-11300-041867FM-12+074799999V0201401N004612200019N0100001N1+02641+01251101521ADDGF107991041021008001001011MA1999999093261MD1999999-0131REMSYN070AAXX  20184 83182 32597 71409 10264 20125 39326 40152 84201 333 59013;
0178831820999992010072100004-11300-041867FM-12+074799999V0200901N003112200019N0010001N1+02071+01531101791ADDGA1001+999999999GF100991001001999999001001KA1240M+02831MA1999999093471MD1999999-0071REMSYN082AAXX  21004 83182 32994 00906 10207 20153 39347 40179 333 10283 29062 55090 59007;
0143831820999992010072112004-11300-041867FM-12+074799999V0201401N006212200019N0100001N1+02201+01441101931ADDGF101991011021008001001001MA1999999093621MD1999999+0061REMSYN076AAXX  21124 83182 32597 11412 10220 20144 39362 40193 81200 333 2//// 58006;
0137831820999992010072118004-11300-041867FM-12+074799999V0200901N005712200019N0100001N1+02721+01201101501ADDGF108991011011012501001011MA1999999093261MD1999999+0001REMSYN070AAXX  21184 83182 32697 80911 10272 20120 39326 40150 81101 333 58000;
0178831820999992010072200004-11300-041867FM-12+074799999V0201401N004112200019N0010001N1+01941+01571101881ADDGA1001+999999999GF100991001001999999001001KA1240M+02811MA1999999093541MD1999999+0071REMSYN082AAXX  22004 83182 32994 01408 10194 20157 39354 40188 333 10281 29065 55104 58007;
0162831820999992010072212004-11300-041867FM-12+074799999V0200901N004612200019N0100001N1+01921+01271102121ADDGF101991001001999999001011MA1999999093731MD1999999+0141REMSYN076AAXX  22124 83182 32697 10909 10192 20127 39373 40212 80001 333 2//// 58014;EQDQ01+012502SCOLCB
0137831820999992010072218004-11300-041867FM-12+074799999V0200901N004610075019N0100001N1+02841+01191101601ADDGF106991061021008001001001MA1999999093321MD1999999+0061REMSYN070AAXX  22184 83182 32597 60909 10284 20119 39332 40160 86200 333 58006;
0168831820999992010072300004-11300-041867FM-12+074799999V0201401N003610450019N0010001N1+02061+01601101921ADDGF108991021051008001051011KA1240M+02861MA1999999093561MD1999999+0021REMSYN088AAXX  23004 83182 32594 81407 10206 20160 39356 40192 82551 333 10286 29062 55100 58002;
0143831820999992010072312004-11300-041867FM-12+074799999V0201401N005710075019N0100001N1+02041+01311102121ADDGF108991081051008001999999MA1999999093801MD1999999+0031REMSYN076AAXX  23124 83182 32597 81411 10204 20131 39380 40212 885// 333 2//// 58003;
0137831820999992010072318004-11300-041867FM-12+074799999V0201401N004612200019N0100001N1+02561+01351101751ADDGF103991031021008001001001MA1999999093471MD1999999+0151REMSYN070AAXX  23184 83182 32597 31409 10256 20135 39347 40175 83200 333 58015;
0178831820999992010072400004-11300-041867FM-12+074799999V0200901N001512200019N0010001N1+01861+01121102051ADDGA1001+999999999GF100991001001999999001001KA1240M+02601MA1999999093661MD1999999+0101REMSYN082AAXX  24004 83182 32594 00903 10186 20112 39366 40205 333 10260 29058 55075 58010;
0143831820999992010072412004-11300-041867FM-12+074799999V0201401N006210075019N0100001N1+02101+01271102041ADDGF108991081051008001999999MA1999999093671MD1999999-0131REMSYN076AAXX  24124 83182 32597 81412 10210 20127 39367 40204 885// 333 2//// 59013;
0137831820999992010072418004-11300-041867FM-12+074799999V0200901N006212200019N0100001N1+02711+01301101511ADDGF104991041021008001001001MA1999999093271MD1999999-0201REMSYN070AAXX  24184 83182 32597 40912 10271 20130 39327 40151 84200 333 59020;
0168831820999992010072500004-11300-041867FM-12+074799999V02099999999990075019N0010001N1+01881+01551101961ADDGF106991061051008001001001KA1240M+02751MA1999999093601MD1999999-0061REMSYN088AAXX  25004 83182 32594 614// 10188 20155 39360 40196 86500 333 10275 29066 55062 59006;
0143831820999992010072512004-11300-041867FM-12+074799999V0201401N006210075019N0100001N1+02001+01461101971ADDGF108991081051008001001001MA1999999093591MD1999999-0081REMSYN076AAXX  25124 83182 32597 81412 10200 20146 39359 40197 88500 333 2//// 59008;
0137831820999992010072518004-11300-041867FM-12+074799999V0201401N005110075019N0100001N1+02681+01131101541ADDGF105991051021008001001001MA1999999093281MD1999999+0011REMSYN070AAXX  25184 83182 32597 51410 10268 20113 39328 40154 85200 333 58001;
0178831820999992010072600004-11300-041867FM-12+074799999V0200901N004612200019N0010001N1+02031+01531101881ADDGA1001+999999999GF100991001001999999001001KA1240M+02711MA1999999093531MD1999999-0071REMSYN082AAXX  26004 83182 32994 00909 10203 20153 39353 40188 333 10271 29064 55084 59007;
0143831820999992010072612004-11300-041867FM-12+074799999V0201401N005110075019N0100001N1+02131+01451101781ADDGF108991081021008001001001MA1999999093471MD1999999-0131REMSYN076AAXX  26124 83182 32597 81410 10213 20145 39347 40178 88200 333 2//// 59013;
0137831820999992010072618004-11300-041867FM-12+074799999V0201401N005110075019N0100001N1+02781+01441101471ADDGF108991051021008001001011MA1999999093261MD1999999-0021REMSYN070AAXX  26184 83182 32597 81410 10278 20144 39326 40147 85201 333 59002;
0168831820999992010072700004-11300-041867FM-12+074799999V0201401N004112200019N0010001N1+01971+01711101751ADDGF108991041051008001001011KA1240M+02831MA1999999093421MD1999999-0111REMSYN088AAXX  27004 83182 32594 81408 10197 20171 39342 40175 84501 333 10283 29070 55063 59011;
0143831820999992010072712004-11300-041867FM-12+074799999V0201401N005110075019N0100001N1+02061+01541101771ADDGF108991081051008001001001MA1999999093421MD1999999+0001REMSYN076AAXX  27124 83182 32597 81410 10206 20154 39342 40177 88500 333 2//// 58000;
0137831820999992010072718004-11300-041867FM-12+074799999V0201401N005110075019N0100001N1+02611+00941101601ADDGF105991051021008001001011MA1999999093321MD1999999+0061REMSYN070AAXX  27184 83182 32597 51410 10261 20094 39332 40160 85201 333 58006;
0178831820999992010072800004-11300-041867FM-12+074799999V0200901N003612200019N0010001N1+01981+01371101801ADDGA1001+999999999GF100991001001999999001001KA1240M+02771MA1999999093451MD1999999+0031REMSYN082AAXX  28004 83182 32994 00907 10198 20137 39345 40180 333 10277 29061 55071 58003;
0143831820999992010072812004-11300-041867FM-12+074799999V0201401N005710075019N0100001N1+02001+01661101861ADDGF108991081051008001999999MA1999999093511MD1999999+0091REMSYN076AAXX  28124 83182 32597 81411 10200 20166 39351 40186 885// 333 2//// 58009;
0137831820999992010072818004-11300-041867FM-12+074799999V0201401N006712200019N0100001N1+02641+00881101651ADDGF102991021011012501001001MA1999999093361MD1999999+0041REMSYN070AAXX  28184 83182 32697 21413 10264 20088 39336 40165 82100 333 58004;
0168831820999992010072900004-11300-041867FM-12+074799999V0201401N004112200019N0010001N1+02021+01111101891ADDGF104991021021008001001011KA1240M+02711MA1999999093541MD1999999+0091REMSYN088AAXX  29004 83182 32594 41408 10202 20111 39354 40189 82201 333 10271 29056 55086 58009;
0143831820999992010072912004-11300-041867FM-12+074799999V0201401N008212200019N0100001N1+02201+01251101921ADDGF101991011011012501001001MA1999999093591MD1999999+0081REMSYN076AAXX  29124 83182 32697 11416 10220 20125 39359 40192 81100 333 2//// 58008;
0137831820999992010072918004-11300-041867FM-12+074799999V0200901N005712200019N0100001N1+02711+00851101581ADDGF101991011011012501001001MA1999999093301MD1999999-0061REMSYN070AAXX  29184 83182 32697 10911 10271 20085 39330 40158 81100 333 59006;
0178831820999992010073000004-11300-041867FM-12+074799999V0200901N004612200019N0010001N1+01991+01361101731ADDGA1001+999999999GF100991001001999999001001KA1240M+02781MA1999999093421MD1999999-0121REMSYN082AAXX  30004 83182 32994 00909 10199 20136 39342 40173 333 10278 29055 55106 59012;
0143831820999992010073012004-11300-041867FM-12+074799999V0200901N005712200019N0100001N1+02141+01171101811ADDGF108991011021008001001011MA1999999093471MD1999999-0121REMSYN076AAXX  30124 83182 32597 80911 10214 20117 39347 40181 81201 333 2//// 59012;
0137831820999992010073018004-11300-041867FM-12+074799999V0200901N005119999999N0100001N1+02831+00851101341ADDGF108991001001999999001011MA1999999093061MD1999999-0241REMSYN070AAXX  30184 83182 32997 80910 10283 20085 39306 40134 80001 333 59024;
0168831820999992010073100004-11300-041867FM-12+074799999V0201401N003119999999N9999999N1+02031+01341101561ADDGF108991001001999999001011KA1240M+02851MA1999999093261MD1999999-0161REMSYN088AAXX  31004 83182 329// 81406 10203 20134 39326 40156 80001 333 10285 29053 55103 59016;
0162831820999992010073112004-11300-041867FM-12+074799999V0201401N008212200019N0100001N1+02281+01211101601ADDGF102991999021008001001001MA1999999093321MD1999999-0151REMSYN076AAXX  31124 83182 32597 21416 10228 20121 39332 40160 81200 333 2//// 59015;EQDQ01+000012SCOTLC
0137831820999992010073118004-11300-041867FM-12+074799999V0200901N005712200019N0100001N1+02611+01031101311ADDGF101991011021008001001001MA1999999093071MD1999999+0011REMSYN070AAXX  31184 83182 32597 10911 10261 20103 39307 40131 81200 333 58001;
0143831820999992010080112004-11300-041867FM-12+074799999V0200901N005112200019N0100001N1+02261+01421101611ADDGF101991011021008001001001MA1999999093291MD1999999-0031REMSYN076AAXX  01124 83182 32597 10910 10226 20142 39329 40161 81200 333 2//// 59003;
0137831820999992010080118004-11300-041867FM-12+074799999V0200901N005110075019N0100001N1+02681+01211101261ADDGF106991061021008001001001MA1999999092991MD1999999-0081REMSYN070AAXX  01184 83182 32597 60910 10268 20121 39299 40126 86200 333 59008;
0168831820999992010080200004-11300-041867FM-12+074799999V0201401N003110075019N0010001N1+01941+01661101581ADDGF108991081051008001999999KA1240M+02801MA1999999093281MD1999999+0051REMSYN088AAXX  02004 83182 32594 81406 10194 20166 39328 40158 885// 333 10280 29067 55087 58005;
0143831820999992010080212004-11300-041867FM-12+074799999V0200901N005110075019N0100001N1+02091+01311101741ADDGF108991081051008001001001MA1999999093391MD1999999+0071REMSYN076AAXX  02124 83182 32597 80910 10209 20131 39339 40174 88500 333 2//// 58007;
0137831820999992010080218004-11300-041867FM-12+074799999V0200901N005712200019N0100001N1+02721+01011101451ADDGF106991041021008001001011MA1999999093211MD1999999+0221REMSYN070AAXX  02184 83182 32597 60911 10272 20101 39321 40145 84201 333 58022;
0168831820999992010080300004-11300-041867FM-12+074799999V0200901N002112200019N0010001N1+01951+01321101681ADDGF102991001001999999001011KA1240M+02831MA1999999093341MD1999999+0061REMSYN088AAXX  03004 83182 32994 20904 10195 20132 39334 40168 80001 333 10283 29058 55082 58006;
0143831820999992010080312004-11300-041867FM-12+074799999V0200901N003610075019N0100001N1+02061+01521101861ADDGF108991081051008001999999MA1999999093511MD1999999+0121REMSYN076AAXX  03124 83182 32597 80907 10206 20152 39351 40186 885// 333 2//// 58012;
0137831820999992010080318004-11300-041867FM-12+074799999V0201401N004612200019N0100001N1+02811+01031101431ADDGF106991041021008001001011MA1999999093191MD1999999-0021REMSYN070AAXX  03184 83182 32597 61409 10281 20103 39319 40143 84201 333 59002;
0178831820999992010080400004-11300-041867FM-12+074799999V0200901N002612200019N0010001N1+02021+01341101711ADDGA1001+999999999GF100991001001999999001001KA1240M+02821MA1999999093381MD1999999+0041REMSYN082AAXX  04004 83182 32994 00905 10202 20134 39338 40171 333 10282 29058 55082 58004;
0143831820999992010080412004-11300-041867FM-12+074799999V0201401N006712200019N0100001N1+02161+01271101841ADDGF108991021021008001001011MA1999999093521MD1999999+0011REMSYN076AAXX  04124 83182 32597 81413 10216 20127 39352 40184 82201 333 2//// 58001;
0137831820999992010080418004-11300-041867FM-12+074799999V0200901N007712200019N0100001N1+02781+01181101411ADDGF108991021021008001001011MA1999999093161MD1999999-0031REMSYN070AAXX  04184 83182 32597 80915 10278 20118 39316 40141 82201 333 59003;
0168831820999992010080500004-11300-041867FM-12+074799999V0200901N003112200019N0010001N1+02041+01541101691ADDGF102991001001999999001011KA1240M+02901MA1999999093381MD1999999+0001REMSYN088AAXX  05004 83182 32994 20906 10204 20154 39338 40169 80001 333 10290 29060 55098 58000;
0143831820999992010080512004-11300-041867FM-12+074799999V0200901N003110075019N0100001N1+02101+01551101881ADDGF108991081051008001999999MA1999999093541MD1999999+0021REMSYN076AAXX  05124 83182 32597 80906 10210 20155 39354 40188 885// 333 2//// 58002;
0182831820999992010080518004-11300-041867FM-12+074799999V0200901N005110075019N0100001N1+02491+01671101581ADDAA106000891AY161061AY221061GF108991081051008001001001MA1999999093281MD1999999+0121MW1021REMSYN082AAXX  05184 83182 21597 80910 10249 20167 39328 40158 70262 88500 333 58012 69971;
0168831820999992010080600004-11300-041867FM-12+074799999V0200901N004610075019N0010001N1+01941+01491101681ADDGF108991081051008001999999KA1240M+02641MA1999999093341MD1999999-0041REMSYN088AAXX  06004 83182 32594 80909 10194 20149 39334 40168 885// 333 10264 29070 55057 59004;
0160831820999992010080612004-11300-041867FM-12+074799999V0200901N004610075019N0100001N1+02161+01351101821ADDAA124000891GF108991061051008001001011MA1999999093521MD1999999-0021REMSYN082AAXX  06124 83182 22597 80909 10216 20135 39352 40182 86501 333 2//// 59002 69974;
0137831820999992010080618004-11300-041867FM-12+074799999V0200901N004610450019N0100001N1+02721+01121101271ADDGF108991011011012501041011MA1999999093031MD1999999-0251REMSYN070AAXX  06184 83182 32697 80909 10272 20112 39303 40127 81141 333 59025;
0168831820999992010080700004-11300-041867FM-12+074799999V02099999999992200019N0010001N1+02041+01341101691ADDGF108991021001017501051011KA1240M+02841MA1999999093381MD1999999+0041REMSYN088AAXX  07004 83182 32794 809// 10204 20134 39338 40169 82051 333 10284 29056 55089 58004;
0143831820999992010080712004-11300-041867FM-12+074799999V02099999999992200019N0100001N1+02481+01271101841ADDGF108991011021008001001011MA1999999093581MD1999999+0061REMSYN076AAXX  07124 83182 32597 814// 10248 20127 39358 40184 81201 333 2//// 58006;
0137831820999992010080718004-11300-041867FM-12+074799999V0200901N003612200019N0100001N1+02761+01161101621ADDGF108991021021008001001011MA1999999093351MD1999999+0321REMSYN070AAXX  07184 83182 32597 80907 10276 20116 39335 40162 82201 333 58032;
0168831820999992010080800004-11300-041867FM-12+074799999V0200901N004119999999N0010001N1+02031+01421101831ADDGF108991001001999999001011KA1240M+02831MA1999999093561MD1999999+0181REMSYN088AAXX  08004 83182 32994 80908 10203 20142 39356 40183 80001 333 10283 29055 55097 58018;
0143831820999992010080812004-11300-041867FM-12+074799999V0200901N005119999999N0100001N1+02011+00961101941ADDGF108991001001999999001011MA1999999093581MD1999999+0081REMSYN076AAXX  08124 83182 32997 80910 10201 20096 39358 40194 80001 333 2//// 58008;
0137831820999992010080818004-11300-041867FM-12+074799999V0200501N003119999999N0100001N1+02981+00211101521ADDGF108991001001999999001011MA1999999093281MD1999999-0071REMSYN070AAXX  08184 83182 32997 80506 10298 20021 39328 40152 80001 333 59007;
0178831820999992010080900004-11300-041867FM-12+074799999V0200901N003612200019N0010001N1+02041+01021101601ADDGA1001+999999999GF100991001001999999001001KA1240M+03021MA1999999093521MD1999999-0041REMSYN082AAXX  09004 83182 32994 00907 10204 20102 39352 40160 333 10302 29043 55089 59004;
0143831820999992010080912004-11300-041867FM-12+074799999V0200901N004119999999N0100001N1+02001+01171102001ADDGF108991001001999999001011MA1999999093641MD1999999+0061REMSYN076AAXX  09124 83182 32997 80908 10200 20117 39364 40200 80001 333 2//// 58006;
0137831820999992010080918004-11300-041867FM-12+074799999V0200901N002112200019N0100001N1+02951+00091101451ADDGF102991011011012501001011MA1999999093201MD1999999-0081REMSYN070AAXX  09184 83182 32697 20904 10295 20009 39320 40145 81101 333 59008;
0178831820999992010081000004-11300-041867FM-12+074799999V0200901N004112200019N0010001N1+02241+01501101691ADDGA1001+999999999GF100991001001999999001001KA1240M+03051MA1999999093381MD1999999-0141REMSYN082AAXX  10004 83182 32994 00908 10224 20150 39338 40169 333 10305 29054 55103 59014;
0143831820999992010081012004-11300-041867FM-12+074799999V0200901N004112200019N0100001N1+02231+01581101871ADDGF101991011011012501001001MA1999999093601MD1999999-0041REMSYN076AAXX  10124 83182 32697 10908 10223 20158 39360 40187 81100 333 2//// 59004;
0137831820999992010081018004-11300-041867FM-12+074799999V0200901N005112200019N0100001N1+02941+01321101491ADDGF101991011011012501001001MA1999999093241MD1999999+0041REMSYN070AAXX  10184 83182 32697 10910 10294 20132 39324 40149 81100 333 58004;
0178831820999992010081100004-11300-041867FM-12+074799999V02099999999992200019N0010001N1+02041+01081101871ADDGA1001+999999999GF100991001001999999001001KA1240M+03001MA1999999093561MD1999999+0181REMSYN082AAXX  11004 83182 32994 014// 10204 20108 39356 40187 333 10300 29053 55108 58018;
0143831820999992010081112004-11300-041867FM-12+074799999V02099999999992200019N0100001N1+02181+01001102261ADDGF102991021021008001001001MA1999999093911MD1999999+0311REMSYN076AAXX  11124 83182 32597 214// 10218 20100 39391 40226 82200 333 2//// 58031;
0137831820999992010081118004-11300-041867FM-12+074799999V0200901N006212200019N0100001N1+02701+00981101821ADDGF102991021011012501001001MA1999999093471MD1999999+0231REMSYN070AAXX  11184 83182 32697 20912 10270 20098 39347 40182 82100 333 58023;
0178831820999992010081200004-11300-041867FM-12+074799999V0200901N005712200019N0010001N1+01881+01731101991ADDGA1001+999999999GF100991001001999999001001KA1240M+02811MA1999999093631MD1999999+0071REMSYN082AAXX  12004 83182 32994 00911 10188 20173 39363 40199 333 10281 29066 55103 58007;
0143831820999992010081212004-11300-041867FM-12+074799999V0200901N005710075019N0100001N1+01741+01661102181ADDGF108991081051008001999999MA1999999093731MD1999999+0101REMSYN076AAXX  12124 83182 32597 80911 10174 20166 39373 40218 885// 333 2//// 58010;
0137831820999992010081218004-11300-041867FM-12+074799999V0200901N005110075019N0100001N1+02481+01461101931ADDGF107991071021008001001001MA1999999093541MD1999999+0071REMSYN070AAXX  12184 83182 32597 70910 10248 20146 39354 40193 87200 333 58007;
0168831820999992010081300004-11300-041867FM-12+074799999V0200901N003612200019N0010001N1+01861+01691102061ADDGF103991001001999999001011KA1240M+02681MA1999999093641MD1999999+0011REMSYN088AAXX  13004 83182 32994 30907 10186 20169 39364 40206 80001 333 10268 29082 55059 58001;
0143831820999992010081312004-11300-041867FM-12+074799999V02099999999992200019N0100001N1+02101+01241102181ADDGF101991011021008001001001MA1999999093801MD1999999+0031REMSYN076AAXX  13124 83182 32597 109// 10210 20124 39380 40218 81200 333 2//// 58003;
0137831820999992010081318004-11300-041867FM-12+074799999V0200501N005112200019N0100001N1+02781+01261101701ADDGF102991021021008001001001MA1999999093391MD1999999-0151REMSYN070AAXX  13184 83182 32597 20510 10278 20126 39339 40170 82200 333 59015;
0178831820999992010081400004-11300-041867FM-12+074799999V02099999999992200019N0010001N1+01981+01401101831ADDGA1001+999999999GF100991001001999999001001KA1240M+02861MA1999999093491MD1999999-0151REMSYN082AAXX  14004 83182 32994 014// 10198 20140 39349 40183 333 10286 29059 55107 59015;
0156831820999992010081412004-11300-041867FM-12+074799999V0200901N003119999999N0100001N1+02341+01301101781ADDGF108991001001999999001011KA1240N+01481MA1999999093481MD1999999-0321REMSYN076AAXX  14124 83182 32997 80906 10234 20130 39348 40178 80001 333 20148 59032;
0137831820999992010081418004-11300-041867FM-12+074799999V0200501N003619999999N0100001N1+03021+00911101201ADDGF108991001001999999001011MA1999999092961MD1999999-0431REMSYN070AAXX  14184 83182 32997 80507 10302 20091 39296 40120 80001 333 59043;
0168831820999992010081500004-11300-041867FM-12+074799999V0200901N003119999999N0010001N1+02161+01471101401ADDGF108991001001999999001011KA1240M+03061MA1999999093161MD1999999-0331REMSYN088AAXX  15004 83182 32994 80906 10216 20147 39316 40140 80001 333 10306 29052 55108 59033;
0166831820999992010081512004-11300-041867FM-12+074799999V0200901N004612200019N0100001N1+02401+01261101701ADDGA1001+999999999GF100991001001999999001001KA1240N+01541MA1999999093481MD1999999-0021REMSYN070AAXX  15124 83182 32997 00909 10240 20126 39348 40170 333 20154 59002;
0147831820999992010081518004-11300-041867FM-12+074799999V0201401N004112200019N0100001N1+03101+00751101171ADDGA1001+999999999GF100991001001999999001001MA1999999093011MD1999999+0051REMSYN064AAXX  15184 83182 32997 01408 10310 20075 39301 40117 333 58005;
0178831820999992010081600004-11300-041867FM-12+074799999V0200901N003612200019N0010001N1+02261+01421101421ADDGA1001+999999999GF100991001001999999001001KA1240M+03161MA1999999093221MD1999999+0061REMSYN082AAXX  16004 83182 32994 00907 10226 20142 39322 40142 333 10316 29048 55107 58006;
0156831820999992010081612004-11300-041867FM-12+074799999V0201401N003112200019N0100001N1+02001+01631101711ADDGF103991001001999999001011KA1240N+01681MA1999999093441MD1999999-0021REMSYN076AAXX  16124 83182 32997 31406 10200 20163 39344 40171 80001 333 20168 59002;
0137831820999992010081618004-11300-041867FM-12+074799999V0201401N004110075019N0100001N1+02991+01361101381ADDGF106991061021008001001001MA1999999093151MD1999999+0141REMSYN070AAXX  16184 83182 32597 61408 10299 20136 39315 40138 86200 333 58014;
0168831820999992010081700004-11300-041867FM-12+074799999V0200901N002612200019N0010001N1+02221+01531101621ADDGF103991031001008001031001KA1240M+03131MA1999999093351MD1999999+0131REMSYN088AAXX  17004 83182 32594 30905 10222 20153 39335 40162 83030 333 10313 29059 55106 58013;
0156831820999992010081712004-11300-041867FM-12+074799999V0201401N005710075019N0100001N1+01991+01431102001ADDGF108991081051008001001001KA1240N+01901MA1999999093661MD1999999+0311REMSYN076AAXX  17124 83182 32597 81411 10199 20143 39366 40200 88500 333 20190 58031;
0137831820999992010081718004-11300-041867FM-12+074799999V0201401N006212200019N0100001N1+02541+01331101691ADDGF104991011011012501001011MA1999999093401MD1999999+0251REMSYN070AAXX  17184 83182 32697 41412 10254 20133 39340 40169 81101 333 58025;
0178831820999992010081800004-11300-041867FM-12+074799999V0200901N003112200019N0010001N1+01841+01351101971ADDGA1001+999999999GF100991001001999999001001KA1240M+02631MA1999999093571MD1999999+0221REMSYN082AAXX  18004 83182 32994 00906 10184 20135 39357 40197 333 10263 29066 55075 58022;
0156831820999992010081812004-11300-041867FM-12+074799999V0201401N006712200019N0100001N1+02041+01111102131ADDGF108991011021008001001011KA1240N+01481MA1999999093741MD1999999+0081REMSYN076AAXX  18124 83182 32597 81413 10204 20111 39374 40213 81201 333 20148 58008;
0137831820999992010081818004-11300-041867FM-12+074799999V0201401N004612200019N0100001N1+02611+01251101511ADDGF108991011021008001001011MA1999999093271MD1999999-0131REMSYN070AAXX  18184 83182 32597 81409 10261 20125 39327 40151 81201 333 59013;
0168831820999992010081900004-11300-041867FM-12+074799999V0201401N004612200019N0010001N1+01901+01231101811ADDGF108991021001017501051011KA1240M+02661MA1999999093451MD1999999-0121REMSYN088AAXX  19004 83182 32794 81409 10190 20123 39345 40181 82051 333 10266 29057 55105 59012;
0156831820999992010081912004-11300-041867FM-12+074799999V0201401N004610075019N0100001N1+01711+01441102021ADDGF108991081051008001999999KA1240N+01381MA1999999093581MD1999999-0161REMSYN076AAXX  19124 83182 32597 81409 10171 20144 39358 40202 885// 333 20138 59016;
0137831820999992010081918004-11300-041867FM-12+074799999V0200901N007710075019N0100001N1+02271+01481101731ADDGF108991081051008001001001MA1999999093301MD1999999+0021REMSYN070AAXX  19184 83182 32597 80915 10227 20148 39330 40173 88500 333 58002;
0168831820999992010082000004-11300-041867FM-12+074799999V0201401N004612200019N0010001N1+01861+01191101951ADDGF104991041001017501051001KA1240M+02361MA1999999093521MD1999999+0071REMSYN088AAXX  20004 83182 32794 41409 10186 20119 39352 40195 84050 333 10236 29069 55015 58007;
0156831820999992010082012004-11300-041867FM-12+074799999V0200901N005110075019N0100001N1+01941+01381102051ADDGF108991081051008001999999KA1240N+01341MA1999999093651MD1999999+0071REMSYN076AAXX  20124 83182 32597 80910 10194 20138 39365 40205 885// 333 20134 58007;
0137831820999992010082018004-11300-041867FM-12+074799999V0201401N006212200019N0100001N1+02531+01141101531ADDGF108991011021008001001011MA1999999093181MD1999999-0121REMSYN070AAXX  20184 83182 32597 81412 10253 20114 39318 40153 81201 333 59012;
0168831820999992010082100004-11300-041867FM-12+074799999V0201401N003119999999N0010001N1+01941+01291101921ADDGF108991001001999999001011KA1240M+02661MA1999999093531MD1999999+0011REMSYN088AAXX  21004 83182 32994 81406 10194 20129 39353 40192 80001 333 10266 29061 55080 58001;
0156831820999992010082112004-11300-041867FM-12+074799999V0201401N005710075019N0100001N1+02101+01191102171ADDGF105991051021008001001001KA1240N+01361MA1999999093791MD1999999+0141REMSYN076AAXX  21124 83182 32597 51411 10210 20119 39379 40217 85200 333 20136 58014;
0156831820999992010082118004-11300-041867FM-12+074799999V0201401N005119999999N0100001N1+02721+01081101591ADDGF108991999021008001001001MA1999999093281MD1999999+0101REMSYN070AAXX  21184 83182 32597 81410 10272 20108 39328 40159 81200 333 58010;EQDQ01+000012SCOTLC
0168831820999992010082200004-11300-041867FM-12+074799999V0201401N003112200019N0010001N1+02031+01351101931ADDGF108991011001017501051011KA1240M+02761MA1999999093581MD1999999+0031REMSYN088AAXX  22004 83182 32794 81406 10203 20135 39358 40193 81051 333 10276 29056 55108 58003;
0156831820999992010082212004-11300-041867FM-12+074799999V0201401N005712200019N0100001N1+02041+01881102101ADDGF108991021021008001001011KA1240N+01571MA1999999093731MD1999999-0061REMSYN076AAXX  22124 83182 32597 81411 10204 20188 39373 40210 82201 333 20157 59006;
0137831820999992010082218004-11300-041867FM-12+074799999V0200901N002612200019N0100001N1+02821+01041101561ADDGF106991011011012501001011MA1999999093301MD1999999+0021REMSYN070AAXX  22184 83182 32697 60905 10282 20104 39330 40156 81101 333 58002;
0168831820999992010082300004-11300-041867FM-12+074799999V0200901N002612200019N0010001N1+02091+01041101821ADDGF102991021021008001001001KA1240M+02891MA1999999093481MD1999999-0101REMSYN088AAXX  23004 83182 32594 20905 10209 20104 39348 40182 82200 333 10289 29050 55109 59010;
0156831820999992010082312004-11300-041867FM-12+074799999V0200901N004612200019N0100001N1+02121+01151101891ADDGF102991011011012501001011KA1240N+01461MA1999999093561MD1999999+0081REMSYN076AAXX  23124 83182 32697 20909 10212 20115 39356 40189 81101 333 20146 58008;
0137831820999992010082318004-11300-041867FM-12+074799999V0200901N004610075019N0100001N1+02731+01131101481ADDGF106991061021008001001001MA1999999093211MD1999999-0091REMSYN070AAXX  23184 83182 32597 60909 10273 20113 39321 40148 86200 333 59009;
0168831820999992010082400004-11300-041867FM-12+074799999V0201401N004112200019N0010001N1+01911+01541101801ADDGF102991021021008001001001KA1240M+02871MA1999999093451MD1999999-0031REMSYN088AAXX  24004 83182 32594 21408 10191 20154 39345 40180 82200 333 10287 29062 55108 59003;
0156831820999992010082412004-11300-041867FM-12+074799999V0200901N006212200019N0100001N1+02041+01291101881ADDGF102991011011012501001011KA1240N+01501MA1999999093511MD1999999-0061REMSYN076AAXX  24124 83182 32697 20912 10204 20129 39351 40188 81101 333 20150 59006;
0137831820999992010082418004-11300-041867FM-12+074799999V0201401N005112200019N0100001N1+02881+01141101491ADDGF103991031021008001001001MA1999999093211MD1999999+0001REMSYN070AAXX  24184 83182 32597 31410 10288 20114 39321 40149 83200 333 58000;
0168831820999992010082500004-11300-041867FM-12+074799999V0201401N002612200019N0010001N1+02161+01271101611ADDGF101991001001999999001011KA1240M+02961MA1999999093311MD1999999-0141REMSYN088AAXX  25004 83182 32994 11405 10216 20127 39331 40161 80001 333 10296 29052 55112 59014;
0166831820999992010082512004-11300-041867FM-12+074799999V0201401N004112200019N0100001N1+02301+01481101821ADDGA1001+999999999GF100991001001999999001001KA1240N+01461MA1999999093551MD1999999+0041REMSYN070AAXX  25124 83182 32997 01408 10230 20148 39355 40182 333 20146 58004;
0137831820999992010082518004-11300-041867FM-12+074799999V0200901N005112200019N0100001N1+02941+01231101281ADDGF102991021021008001001001MA1999999093041MD1999999-0171REMSYN070AAXX  25184 83182 32597 20910 10294 20123 39304 40128 82200 333 59017;
0178831820999992010082600004-11300-041867FM-12+074799999V0201401N005712200019N0010001N1+02161+01611101671ADDGA1001+999999999GF100991001001999999001001KA1240M+03041MA1999999093421MD1999999+0111REMSYN082AAXX  26004 83182 32994 01411 10216 20161 39342 40167 333 10304 29059 55108 58011;
0156831820999992010082612004-11300-041867FM-12+074799999V0200901N005112200019N0100001N1+02041+01341101841ADDGF101991011011012501001001KA1240N+01531MA1999999093521MD1999999-0031REMSYN076AAXX  26124 83182 32697 10910 10204 20134 39352 40184 81100 333 20153 59003;
0147831820999992010082618004-11300-041867FM-12+074799999V0200901N004112200019N0100001N1+03041+00821101291ADDGA1001+999999999GF100991001001999999001001MA1999999093061MD1999999+0021REMSYN064AAXX  26184 83182 32997 00908 10304 20082 39306 40129 333 58002;
0178831820999992010082700004-11300-041867FM-12+074799999V0201401N005112200019N0010001N1+02141+01461101571ADDGA1001+999999999GF100991001001999999001001KA1240M+03091MA1999999093271MD1999999-0151REMSYN082AAXX  27004 83182 32994 01410 10214 20146 39327 40157 333 10309 29055 55109 59015;
0156831820999992010082712004-11300-041867FM-12+074799999V0200901N005712200019N0100001N1+02481+01511101681ADDGF104991041021008001001001KA1240N+01661MA1999999093451MD1999999-0071REMSYN076AAXX  27124 83182 32597 40911 10248 20151 39345 40168 84200 333 20166 59007;
0137831820999992010082718004-11300-041867FM-12+074799999V0200901N004112200019N0100001N1+02981+01181101151ADDGF102991021021008001001001MA1999999092951MD1999999-0111REMSYN070AAXX  27184 83182 32597 20908 10298 20118 39295 40115 82200 333 59011;
0178831820999992010082800004-11300-041867FM-12+074799999V0200901N004612200019N0010001N1+02241+01481101361ADDGA1001+999999999GF100991001001999999001001KA1240M+03061MA1999999093161MD1999999-0111REMSYN082AAXX  28004 83182 32994 00909 10224 20148 39316 40136 333 10306 29053 55112 59011;
0156831820999992010082812004-11300-041867FM-12+074799999V0200901N004110075019N0100001N1+02331+01411101611ADDGF106991061021008001001001KA1240N+01761MA1999999093381MD1999999-0071REMSYN076AAXX  28124 83182 32597 60908 10233 20141 39338 40161 86200 333 20176 59007;
0137831820999992010082818004-11300-041867FM-12+074799999V0201401N004112200019N0100001N1+03081+01071101021ADDGF101991011011012501001001MA1999999092891MD1999999-0061REMSYN070AAXX  28184 83182 32697 11408 10308 20107 39289 40102 81100 333 59006;
0178831820999992010082900004-11300-041867FM-12+074799999V0200901N005112200019N0010001N1+02241+01351101351ADDGA1001+999999999GF100991001001999999001001KA1240M+03141MA1999999093141MD1999999-0061REMSYN082AAXX  29004 83182 32994 00910 10224 20135 39314 40135 333 10314 29050 55108 59006;
0156831820999992010082912004-11300-041867FM-12+074799999V0200901N004612200019N0100001N1+02421+01431101661ADDGF102991021021008001001001KA1240N+01631MA1999999093441MD1999999+0061REMSYN076AAXX  29124 83182 32597 20909 10242 20143 39344 40166 82200 333 20163 58006;
0137831820999992010082918004-11300-041867FM-12+074799999V0201401N005112200019N0100001N1+02981+01181101241ADDGF102991021021008001001001MA1999999093041MD1999999+0151REMSYN070AAXX  29184 83182 32597 21410 10298 20118 39304 40124 82200 333 58015;
0178831820999992010083000004-11300-041867FM-12+074799999V0201401N005112200019N0010001N1+02201+01511101471ADDGA1001+999999999GF100991001001999999001001KA1240M+03031MA1999999093251MD1999999+0111REMSYN082AAXX  30004 83182 32994 01410 10220 20151 39325 40147 333 10303 29054 55107 58011;
0156831820999992010083012004-11300-041867FM-12+074799999V0200901N005712200019N0100001N1+02221+01301101751ADDGF101991011011012501001001KA1240N+01501MA1999999093471MD1999999+0031REMSYN076AAXX  30124 83182 32697 10911 10222 20130 39347 40175 81100 333 20150 58003;
0137831820999992010083018004-11300-041867FM-12+074799999V0200901N004112200019N0100001N1+03041+01091101281ADDGF101991011011999999001001MA1999999093071MD1999999+0031REMSYN070AAXX  30184 83182 32997 10908 10304 20109 39307 40128 81100 333 58003;
0178831820999992010083100004-11300-041867FM-12+074799999V0201401N003112200019N0010001N1+02251+01511101461ADDGA1001+999999999GF100991001001999999001001KA1240M+03021MA1999999093221MD1999999-0031REMSYN082AAXX  31004 83182 32994 01406 10225 20151 39322 40146 333 10302 29053 55111 59003;
0156831820999992010083112004-11300-041867FM-12+074799999V0201401N004610075019N0100001N1+02131+01471101741ADDGF108991081051008001999999KA1240N+01481MA1999999093461MD1999999-0011REMSYN076AAXX  31124 83182 32597 81409 10213 20147 39346 40174 885// 333 20148 59001;
0137831820999992010083118004-11300-041867FM-12+074799999V0201401N006210075019N0100001N1+02841+01431101401ADDGF106991051021008001001011MA1999999093141MD1999999+0071REMSYN070AAXX  31184 83182 32597 61412 10284 20143 39314 40140 85201 333 58007;
0168831820999992010090100004-11300-041867FM-12+074799999V0201401N005110075019N0010001N1+02161+01401101701ADDGF108991081051008001999999KA1240M+02901MA1999999093411MD1999999+0191REMSYN088AAXX  01004 83182 32594 81410 10216 20140 39341 40170 885// 333 10290 29058 55073 58019;
0156831820999992010090112004-11300-041867FM-12+074799999V0201401N010310075019N0100001N1+02301+01381101841ADDGF106991061021008001001001KA1240N+01701MA1999999093571MD1999999+0111REMSYN076AAXX  01124 83182 32597 61420 10230 20138 39357 40184 86200 333 20170 58011;
0137831820999992010090118004-11300-041867FM-12+074799999V0201401N006712200019N0100001N1+02741+01061101451ADDGF102991021021008001001001MA1999999093201MD1999999+0061REMSYN070AAXX  01184 83182 32597 21413 10274 20106 39320 40145 82200 333 58006;
0178831820999992010090200004-11300-041867FM-12+074799999V0201401N006212200019N0010001N1+02061+01041101741ADDGA1001+999999999GF100991001001999999001001KA1240M+02801MA1999999093461MD1999999+0051REMSYN082AAXX  02004 83182 32994 01412 10206 20104 39346 40174 333 10280 29052 55077 58005;
0156831820999992010090212004-11300-041867FM-12+074799999V0201401N005110075019N0100001N1+01861+01641101961ADDGF108991081051008001001001KA1240N+01701MA1999999093581MD1999999+0011REMSYN076AAXX  02124 83182 32597 81410 10186 20164 39358 40196 88500 333 20170 58001;
0182831820999992010090218004-11300-041867FM-12+074799999V0201401N006710075019N0100001N1+02701+01231101561ADDAA106000891AY161061AY221061GF106991061021008001001001MA1999999093301MD1999999+0101MW1021REMSYN082AAXX  02184 83182 21597 61413 10270 20123 39330 40156 70262 86200 333 58010 69971;
0168831820999992010090300004-11300-041867FM-12+074799999V0201401N005710075019N0010001N1+02041+01451101951ADDGF108991081051008001999999KA1240M+02771MA1999999093571MD1999999+0111REMSYN088AAXX  03004 83182 32594 81411 10204 20145 39357 40195 885// 333 10277 29066 55073 58011;
0156831820999992010090312004-11300-041867FM-12+074799999V0200901N003112200019N0100001N1+02281+01591102051ADDGF108991011021008001001011KA1240N+01321MA1999999093731MD1999999+0151REMSYN076AAXX  03124 83182 32597 80906 10228 20159 39373 40205 81201 333 20132 58015;
0137831820999992010090318004-11300-041867FM-12+074799999V0200901N005112200019N0100001N1+02781+01051101451ADDGF108991011021008001001011MA1999999093161MD1999999-0141REMSYN070AAXX  03184 83182 32597 80910 10278 20105 39316 40145 81201 333 59014;
0168831820999992010090400004-11300-041867FM-12+074799999V0201401N003119999999N0010001N1+02081+01301101721ADDGF108991001001999999001011KA1240M+02831MA1999999093451MD1999999-0121REMSYN088AAXX  04004 83182 32994 81406 10208 20130 39345 40172 80001 333 10283 29055 55105 59012;
0156831820999992010090412004-11300-041867FM-12+074799999V0200901N003612200019N0100001N1+02321+01471101861ADDGF103991031021008001001001KA1240N+01601MA1999999093601MD1999999-0131REMSYN076AAXX  04124 83182 32597 30907 10232 20147 39360 40186 83200 333 20160 59013;
0137831820999992010090418004-11300-041867FM-12+074799999V0201401N002112200019N0100001N1+02931+01081101231ADDGF108991011021008001001011MA1999999093051MD1999999-0111REMSYN070AAXX  04184 83182 32597 81404 10293 20108 39305 40123 81201 333 59011;
0168831820999992010090500004-11300-041867FM-12+074799999V0200901N003619999999N0010001N1+02221+01191101611ADDGF108991001001999999001011KA1240M+03051MA1999999093361MD1999999-0091REMSYN088AAXX  05004 83182 32994 80907 10222 20119 39336 40161 80001 333 10305 29049 55111 59009;
0166831820999992010090512004-11300-041867FM-12+074799999V0201401N004612200019N0100001N1+02031+01401101701ADDGA1001+999999999GF100991001001999999001001KA1240N+01531MA1999999093391MD1999999-0211REMSYN070AAXX  05124 83182 32997 01409 10203 20140 39339 40170 333 20153 59021;
0137831820999992010090518004-11300-041867FM-12+074799999V0201401N002612200019N0100001N1+02841+01151101641ADDGF101991001001999999001011MA1999999093371MD1999999-0321REMSYN070AAXX  05184 83182 32997 11405 10284 20115 39337 40164 80001 333 59032;
0178831820999992010090600004-11300-041867FM-12+074799999V0200901N003612200019N0010001N1+02421+01081101481ADDGA1001+999999999GF100991001001999999001001KA1240M+03241MA1999999093231MD1999999-0131REMSYN082AAXX  06004 83182 32994 00907 10242 20108 39323 40148 333 10324 29047 55111 59013;
0166831820999992010090612004-11300-041867FM-12+074799999V0201401N005712200019N0100001N1+02101+01391101801ADDGA1001+999999999GF100991001001999999001001KA1240N+01481MA1999999093541MD1999999+0151REMSYN070AAXX  06124 83182 32997 01411 10210 20139 39354 40180 333 20148 58015;
0137831820999992010090618004-11300-041867FM-12+074799999V0201401N006212200019N0100001N1+02901+01021101481ADDGF101991001001999999001011MA1999999093241MD1999999-0131REMSYN070AAXX  06184 83182 32997 11412 10290 20102 39324 40148 80001 333 59013;
0187831820999992010090700004-11300-041867FM-12+074799999V0200901N006212200019N0010001N1+02201+01391101791ADDGF101991001001999999001011KA1240M+99999MA1999999093471MD1999999+0241REMSYN088AAXX  07004 83182 32994 10912 10220 20139 39347 40179 80001 333 10210 29054 55109 58024;EQDQ01 +02102ATMX  
0156831820999992010090712004-11300-041867FM-12+074799999V0201401N005710075019N0100001N1+02031+01551101971ADDGF108991081051008001001001KA1240N+01681MA1999999093641MD1999999+0101REMSYN076AAXX  07124 83182 32597 81411 10203 20155 39364 40197 88500 333 20168 58010;
0137831820999992010090718004-11300-041867FM-12+074799999V0200501N005112200019N0100001N1+02881+01141101431ADDGF102991021021008001001011MA1999999093231MD1999999-0011REMSYN070AAXX  07184 83182 32597 20510 10288 20114 39323 40143 82201 333 59001;
0168831820999992010090800004-11300-041867FM-12+074799999V0200901N002612200019N0010001N1+02091+01101101661ADDGF106991041001017501031011KA1240M+03001MA1999999093341MD1999999-0131REMSYN088AAXX  08004 83182 32794 60905 10209 20110 39334 40166 84031 333 10300 29054 55089 59013;
0156831820999992010090812004-11300-041867FM-12+074799999V0200901N003610075019N0100001N1+02301+01561101721ADDGF106991061021008001001001KA1240N+01651MA1999999093451MD1999999-0191REMSYN076AAXX  08124 83182 32597 60907 10230 20156 39345 40172 86200 333 20165 59019;
0137831820999992010090818004-11300-041867FM-12+074799999V0200901N004112200019N0100001N1+02941+01101101081ADDGF102991021021008001001001MA1999999092931MD1999999-0301REMSYN070AAXX  08184 83182 32597 20908 10294 20110 39293 40108 82200 333 59030;
0178831820999992010090900004-11300-041867FM-12+074799999V0201401N003112200019N0010001N1+02261+01471101471ADDGA1001+999999999GF100991001001999999001001KA1240M+03041MA1999999093251MD1999999-0091REMSYN082AAXX  09004 83182 32994 01406 10226 20147 39325 40147 333 10304 29054 55102 59009;
0156831820999992010090912004-11300-041867FM-12+074799999V0201401N003112200019N0100001N1+02321+01631101661ADDGF102991021021008001001001KA1240N+01731MA1999999093431MD1999999-0021REMSYN076AAXX  09124 83182 32597 21406 10232 20163 39343 40166 82200 333 20173 59002;
0137831820999992010090918004-11300-041867FM-12+074799999V0200901N005112200019N0100001N1+03041+01281101411ADDGF102991021021008001001001MA1999999093101MD1999999+0171REMSYN070AAXX  09184 83182 32597 20910 10304 20128 39310 40141 82200 333 58017;
0178831820999992010091000004-11300-041867FM-12+074799999V0201801N003612200019N0010001N1+02401+01321101551ADDGA1001+999999999GF100991001001999999001001KA1240M+03101MA1999999093341MD1999999+0091REMSYN082AAXX  10004 83182 32994 01807 10240 20132 39334 40155 333 10310 29050 55111 58009;
0156831820999992010091012004-11300-041867FM-12+074799999V0201401N006710075019N0100001N1+02331+01401101901ADDGF106991061021008001001001KA1240N+01851MA1999999093661MD1999999+0231REMSYN076AAXX  10124 83182 32597 61413 10233 20140 39366 40190 86200 333 20185 58023;
0137831820999992010091018004-11300-041867FM-12+074799999V0201401N006212200019N0100001N1+02741+01371101461ADDGF102991021021008001001001MA1999999093241MD1999999+0141REMSYN070AAXX  10184 83182 32597 21412 10274 20137 39324 40146 82200 333 58014;
0178831820999992010091100004-11300-041867FM-12+074799999V0201401N005112200019N0010001N1+02061+01561101691ADDGA1001+999999999GF100991001001999999001001KA1240M+02831MA1999999093421MD1999999+0081REMSYN082AAXX  11004 83182 32994 01410 10206 20156 39342 40169 333 10283 29061 55100 58008;
0156831820999992010091112004-11300-041867FM-12+074799999V0201401N006712200019N0100001N1+02231+01311101981ADDGF103991031021008001001001KA1240N+01671MA1999999093661MD1999999+0001REMSYN076AAXX  11124 83182 32597 31413 10223 20131 39366 40198 83200 333 20167 58000;
0137831820999992010091118004-11300-041867FM-12+074799999V0201401N005112200019N0100001N1+02941+01361101271ADDGF101991011021008001001001MA1999999093061MD1999999-0181REMSYN070AAXX  11184 83182 32597 11410 10294 20136 39306 40127 81200 333 59018;
0178831820999992010091200004-11300-041867FM-12+074799999V0200901N006212200019N0010001N1+02131+01241101621ADDGA1001+999999999GF100991001001999999001001KA1240M+02951MA1999999093351MD1999999-0071REMSYN082AAXX  12004 83182 32994 00912 10213 20124 39335 40162 333 10295 29052 55110 59007;
0156831820999992010091212004-11300-041867FM-12+074799999V0201401N005712200019N0100001N1+02201+01251101801ADDGF102991021021008001001001KA1240N+01541MA1999999093501MD1999999-0161REMSYN076AAXX  12124 83182 32597 21411 10220 20125 39350 40180 82200 333 20154 59016;
0137831820999992010091218004-11300-041867FM-12+074799999V0200901N005112200019N0100001N1+02841+01191101261ADDGF102991021021008001001001MA1999999093011MD1999999-0051REMSYN070AAXX  12184 83182 32597 20910 10284 20119 39301 40126 82200 333 59005;
0178831820999992010091300004-11300-041867FM-12+074799999V0201401N004612200019N0010001N1+02151+01341101531ADDGA1001+999999999GF100991001001999999001001KA1240M+02961MA1999999093271MD1999999-0081REMSYN082AAXX  13004 83182 32994 01409 10215 20134 39327 40153 333 10296 29053 55104 59008;
0156831820999992010091312004-11300-041867FM-12+074799999V0201401N005712200019N0100001N1+02081+01471101711ADDGF104991041021008001001001KA1240N+01611MA1999999093401MD1999999-0101REMSYN076AAXX  13124 83182 32597 41411 10208 20147 39340 40171 84200 333 20161 59010;
0137831820999992010091318004-11300-041867FM-12+074799999V0201401N004610075019N0100001N1+02721+01521101421ADDGF105991051021008001001001MA1999999093151MD1999999+0141REMSYN070AAXX  13184 83182 32597 51409 10272 20152 39315 40142 85200 333 58014;
0178831820999992010091400004-11300-041867FM-12+074799999V0201401N004612200019N0010001N1+02141+01551101631ADDGA1001+999999999GF100991001001999999001001KA1240M+02871MA1999999093331MD1999999+0061REMSYN082AAXX  14004 83182 32994 01409 10214 20155 39333 40163 333 10287 29064 55106 58006;
0156831820999992010091412004-11300-041867FM-12+074799999V0201401N004110075019N0100001N1+02061+01561101751ADDGF107991071051008001001001KA1240N+01641MA1999999093441MD1999999+0041REMSYN076AAXX  14124 83182 32597 71408 10206 20156 39344 40175 87500 333 20164 58004;
0137831820999992010091418004-11300-041867FM-12+074799999V0200901N003610075019N0100001N1+02871+01301101361ADDGF105991051021008001001001MA1999999093131MD1999999-0021REMSYN070AAXX  14184 83182 32597 50907 10287 20130 39313 40136 85200 333 59002;
