0143832880999992010010110004-13267-043417FM-15+0443SBLP V0209999C000010300019N0112651N1+02201+02101999999ADDGA1041+003001999GA2071+030001999GF107991999999999999999999MA1101291999999REMMET058METAR SBLP 011000Z 00000KT 9999 SCT010 BKN100 22/21 Q1013;
0143832880999992010010111004-13267-043417FM-15+0443SBLP V0209999C000010300019N0112651N1+02301+02101999999ADDGA1041+003001999GA2071+030001999GF107991999999999999999999MA1101391999999REMMET058METAR SBLP 011100Z 00000KT 9999 SCT010 BKN100 23/21 Q1014;
0143832880999992010010112004-13267-043417FM-15+0443SBLP V0209999C000010300019N0112651N1+02601+02101999999ADDGA1041+003001999GA2071+030001999GF107991999999999999999999MA1101491999999REMMET058METAR SBLP 011200Z 00000KT 9999 SCT010 BKN100 26/21 Q1015;
0143832880999992010010113004-13267-043417FM-15+0443SBLP V0209999C000010300019N0112651N1+02801+02101999999ADDGA1041+004501999GA2071+030001999GF107991999999999999999999MA1101491999999REMMET058METAR SBLP 011300Z 00000KT 9999 SCT015 BKN100 28/21 Q1015;
0143832880999992010010114004-13267-043417FM-15+0443SBLP V0200901N003110300019N0112651N1+02801+02101999999ADDGA1041+006001999GA2071+030001999GF107991999999999999999999MA1101391999999REMMET058METAR SBLP 011400Z 09006KT 9999 SCT020 BKN100 28/21 Q1014;
0143832880999992010010115004-13267-043417FM-15+0443SBLP V0200901N003110300019N0112651N1+02801+02101999999ADDGA1041+006001999GA2071+030001999GF107991999999999999999999MA1101291999999REMMET058METAR SBLP 011500Z 09006KT 9999 SCT020 BKN100 28/21 Q1013;
0143832880999992010010116004-13267-043417FM-15+0443SBLP V0209999C000010300019N0112651N1+02601+02201999999ADDGA1041+008101999GA2071+030001999GF107991999999999999999999MA1101191999999REMMET058METAR SBLP 011600Z 00000KT 9999 SCT027 BKN100 26/22 Q1012;
0143832880999992010010117004-13267-043417FM-15+0443SBLP V0209999C000010300019N0112651N1+02701+02301999999ADDGA1021+006001999GA2071+030001999GF107991999999999999999999MA1101081999999REMMET058METAR SBLP 011700Z 00000KT 9999 FEW020 BKN100 27/23 Q1011;
0143832880999992010010118004-13267-043417FM-15+0443SBLP V0209999C000010300019N0112651N1+02701+02301999999ADDGA1021+006001999GA2071+030001999GF107991999999999999999999MA1101081999999REMMET058METAR SBLP 011800Z 00000KT 9999 FEW020 BKN100 27/23 Q1011;
0143832880999992010010119004-13267-043417FM-15+0443SBLP V0209999C000012200019N0112651N1+02701+02301999999ADDGA1021+009001999GA2041+030001999GF104991999999999999999999MA1101021999999REMMET058METAR SBLP 011900Z 00000KT 9999 FEW030 SCT100 27/23 Q1010;
0143832880999992010010120004-13267-043417FM-15+0443SBLP V0202101N002110300019N0112651N1+02701+02301999999ADDGA1021+009001999GA2071+030001999GF107991999999999999999999MA1101021999999REMMET058METAR SBLP 012000Z 21004KT 9999 FEW030 BKN100 27/23 Q1010;
0143832880999992010010121004-13267-043417FM-15+0443SBLP V0209999C000010300019N0112651N1+02501+02401999999ADDGA1041+009001999GA2071+030001999GF107991999999999999999999MA1101081999999REMMET058METAR SBLP 012100Z 00000KT 9999 SCT030 BKN100 25/24 Q1011;
0143832880999992010010210004-13267-043417FM-15+0443SBLP V0209999C000012200019N0112651N1+02401+02001999999ADDGA1021+003001999GA2041+030001999GF104991999999999999999999MA1101491999999REMMET058METAR SBLP 021000Z 00000KT 9999 FEW010 SCT100 24/20 Q1015;
0143832880999992010010211004-13267-043417FM-15+0443SBLP V0209999C000012200019N0112651N1+02701+02001999999ADDGA1021+004501999GA2041+030001999GF104991999999999999999999MA1101591999999REMMET058METAR SBLP 021100Z 00000KT 9999 FEW015 SCT100 27/20 Q1016;
0143832880999992010010212004-13267-043417FM-15+0443SBLP V0209999C000012200019N0112651N1+02801+02001999999ADDGA1021+006001999GA2041+030001999GF104991999999999999999999MA1101591999999REMMET058METAR SBLP 021200Z 00000KT 9999 FEW020 SCT100 28/20 Q1016;
0120832880999992010010213004-13267-043417FM-15+0443SBLP V0209999C000012200019N0112651N1+02901+02001999999ADDGA1041+006001999GF104991999999999999999999MA1101591999999REMMET051METAR SBLP 021300Z 00000KT 9999 SCT020 29/20 Q1016;
0120832880999992010010214004-13267-043417FM-15+0443SBLP V0209999C000012200019N0112651N1+03001+02001999999ADDGA1041+006001999GF104991999999999999999999MA1101591999999REMMET051METAR SBLP 021400Z 00000KT 9999 SCT020 30/20 Q1016;
0120832880999992010010215004-13267-043417FM-15+0443SBLP V0209999C000012200019N0112651N1+03001+02001999999ADDGA1041+006001999GF104991999999999999999999MA1101491999999REMMET051METAR SBLP 021500Z 00000KT 9999 SCT020 30/20 Q1015;
0120832880999992010010216004-13267-043417FM-15+0443SBLP V0202101N003112200019N0112651N1+03001+02101999999ADDGA1041+008101999GF104991999999999999999999MA1101391999999REMMET051METAR SBLP 021600Z 21006KT 9999 SCT027 30/21 Q1014;
0120832880999992010010217004-13267-043417FM-15+0443SBLP V0209999C000012200019N0112651N1+03101+02101999999ADDGA1041+009001999GF104991999999999999999999MA1101291999999REMMET051METAR SBLP 021700Z 00000KT 9999 SCT030 31/21 Q1013;
0120832880999992010010218004-13267-043417FM-15+0443SBLP V0203601N002112200019N0112651N1+03201+02201999999ADDGA1041+009001999GF104991999999999999999999MA1101191999999REMMET051METAR SBLP 021800Z 36004KT 9999 SCT030 32/22 Q1012;
0120832880999992010010219004-13267-043417FM-15+0443SBLP V0209999C000012200019N0112651N1+03201+02101999999ADDGA1041+009001999GF104991999999999999999999MA1101081999999REMMET051METAR SBLP 021900Z 00000KT 9999 SCT030 32/21 Q1011;
0120832880999992010010220004-13267-043417FM-15+0443SBLP V0201601N002112200019N0112651N1+03101+02201999999ADDGA1041+009001999GF104991999999999999999999MA1101081999999REMMET051METAR SBLP 022000Z 16004KT 9999 SCT030 31/22 Q1011;
0120832880999992010010221004-13267-043417FM-15+0443SBLP V0201801N003112200019N0112651N1+03001+02201999999ADDGA1021+009001999GF102991999999999999999999MA1101081999999REMMET051METAR SBLP 022100Z 18006KT 9999 FEW030 30/22 Q1011;
0072832880999992010010310004-13267-043417FM-15+0443SBLP V0209999C000019999999Y0099001N1+02401+02101999999ADDMA1101491999999REMMET045METAR SBLP 031000Z 00000KT CAVOK 24/21 Q1015;
0072832880999992010010311004-13267-043417FM-15+0443SBLP V0209999C000019999999Y0099001N1+02701+02001999999ADDMA1101591999999REMMET045METAR SBLP 031100Z 00000KT CAVOK 27/20 Q1016;
0072832880999992010010312004-13267-043417FM-15+0443SBLP V0209999C000019999999Y0099001N1+02901+02001999999ADDMA1101591999999REMMET045METAR SBLP 031200Z 00000KT CAVOK 29/20 Q1016;
0072832880999992010010313004-13267-043417FM-15+0443SBLP V0209999C000019999999Y0099001N1+03001+02001999999ADDMA1101591999999REMMET045METAR SBLP 031300Z 00000KT CAVOK 30/20 Q1016;
0072832880999992010010314004-13267-043417FM-15+0443SBLP V0209999C000019999999Y0099001N1+03101+02101999999ADDMA1101591999999REMMET045METAR SBLP 031400Z 00000KT CAVOK 31/21 Q1016;
0120832880999992010010315004-13267-043417FM-15+0443SBLP V0209999C000012200019N0112651N1+03201+02101999999ADDGA1021+009001999GF102991999999999999999999MA1101491999999REMMET051METAR SBLP 031500Z 00000KT 9999 FEW030 32/21 Q1015;
0120832880999992010010316004-13267-043417FM-15+0443SBLP V0201701N003112200019N0112651N1+03201+02001999999ADDGA1041+009001999GF104991999999999999999999MA1101391999999REMMET051METAR SBLP 031600Z 17006KT 9999 SCT030 32/20 Q1014;
0120832880999992010010317004-13267-043417FM-15+0443SBLP V0202701N003112200019N0112651N1+03201+02001999999ADDGA1041+009001999GF104991999999999999999999MA1101291999999REMMET051METAR SBLP 031700Z 27006KT 9999 SCT030 32/20 Q1013;
0120832880999992010010318004-13267-043417FM-15+0443SBLP V0202601N002112200019N0112651N1+03301+02001999999ADDGA1041+009001999GF104991999999999999999999MA1101191999999REMMET051METAR SBLP 031800Z 26004KT 9999 SCT030 33/20 Q1012;
0120832880999992010010319004-13267-043417FM-15+0443SBLP V0202101N004112200019N0112651N1+03301+02001999999ADDGA1021+009001999GF102991999999999999999999MA1101191999999REMMET051METAR SBLP 031900Z 21008KT 9999 FEW030 33/20 Q1012;
0120832880999992010010320004-13267-043417FM-15+0443SBLP V0201801N004112200019N0112651N1+03301+02001999999ADDGA1021+009001999GF102991999999999999999999MA1101191999999REMMET051METAR SBLP 032000Z 18008KT 9999 FEW030 33/20 Q1012;
0120832880999992010010321004-13267-043417FM-15+0443SBLP V0201801N003112200019N0112651N1+03101+02001999999ADDGA1041+009001999GF104991999999999999999999MA1101191999999REMMET051METAR SBLP 032100Z 18006KT 9999 SCT030 31/20 Q1012;
0072832880999992010010410004-13267-043417FM-15+0443SBLP V0209999C000019999999Y0099001N1+02401+02001999999ADDMA1101491999999REMMET045METAR SBLP 041000Z 00000KT CAVOK 24/20 Q1015;
0072832880999992010010411004-13267-043417FM-15+0443SBLP V0209999C000019999999Y0099001N1+02701+02001999999ADDMA1101591999999REMMET045METAR SBLP 041100Z 00000KT CAVOK 27/20 Q1016;
0072832880999992010010412004-13267-043417FM-15+0443SBLP V0209999C000019999999Y0099001N1+02901+01901999999ADDMA1101591999999REMMET045METAR SBLP 041200Z 00000KT CAVOK 29/19 Q1016;
0120832880999992010010413004-13267-043417FM-15+0443SBLP V0209999C000012200019N0112651N1+03101+02001999999ADDGA1021+009001999GF102991999999999999999999MA1101691999999REMMET051METAR SBLP 041300Z 00000KT 9999 FEW030 31/20 Q1017;
0120832880999992010010414004-13267-043417FM-15+0443SBLP V0209999C000012200019N0112651N1+03101+02001999999ADDGA1041+009001999GF104991999999999999999999MA1101591999999REMMET051METAR SBLP 041400Z 00000KT 9999 SCT030 31/20 Q1016;
0120832880999992010010415004-13267-043417FM-15+0443SBLP V0209999C000012200019N0112651N1+03201+01901999999ADDGA1041+009001999GF104991999999999999999999MA1101491999999REMMET051METAR SBLP 041500Z 00000KT 9999 SCT030 32/19 Q1015;
0120832880999992010010416004-13267-043417FM-15+0443SBLP V0209999C000012200019N0112651N1+03301+02001999999ADDGA1041+009001999GF104991999999999999999999MA1101391999999REMMET051METAR SBLP 041600Z 00000KT 9999 SCT030 33/20 Q1014;
0120832880999992010010417004-13267-043417FM-15+0443SBLP V0201701N003112200019N0112651N1+03301+02001999999ADDGA1041+009001999GF104991999999999999999999MA1101291999999REMMET051METAR SBLP 041700Z 17006KT 9999 SCT030 33/20 Q1013;
0120832880999992010010418004-13267-043417FM-15+0443SBLP V0202701N003112200019N0112651N1+03301+02001999999ADDGA1041+009001999GF104991999999999999999999MA1101291999999REMMET051METAR SBLP 041800Z 27006KT 9999 SCT030 33/20 Q1013;
0120832880999992010010419004-13267-043417FM-15+0443SBLP V0201801N003112200019N0112651N1+03401+02001999999ADDGA1041+009001999GF104991999999999999999999MA1101191999999REMMET051METAR SBLP 041900Z 18006KT 9999 SCT030 34/20 Q1012;
0120832880999992010010420004-13267-043417FM-15+0443SBLP V0202701N003112200019N0112651N1+03301+02001999999ADDGA1041+009001999GF104991999999999999999999MA1101191999999REMMET051METAR SBLP 042000Z 27006KT 9999 SCT030 33/20 Q1012;
0120832880999992010010421004-13267-043417FM-15+0443SBLP V0202101N002112200019N0112651N1+03201+02201999999ADDGA1021+009001999GF102991999999999999999999MA1101191999999REMMET051METAR SBLP 042100Z 21004KT 9999 FEW030 32/22 Q1012;
0072832880999992010010510004-13267-043417FM-15+0443SBLP V0200301N002119999999Y0099001N1+02501+02101999999ADDMA1101491999999REMMET045METAR SBLP 051000Z 03004KT CAVOK 25/21 Q1015;
0072832880999992010010511004-13267-043417FM-15+0443SBLP V0200601N003119999999Y0099001N1+02701+02101999999ADDMA1101491999999REMMET045METAR SBLP 051100Z 06006KT CAVOK 27/21 Q1015;
0072832880999992010010512004-13267-043417FM-15+0443SBLP V0200601N003119999999Y0099001N1+02901+02101999999ADDMA1101491999999REMMET045METAR SBLP 051200Z 06006KT CAVOK 29/21 Q1015;
0072832880999992010010513004-13267-043417FM-15+0443SBLP V0200301N004119999999Y0099001N1+03101+02101999999ADDMA1101491999999REMMET045METAR SBLP 051300Z 03008KT CAVOK 31/21 Q1015;
0120832880999992010010514004-13267-043417FM-15+0443SBLP V0200901N002112200019N0112651N1+03301+02001999999ADDGA1021+009001999GF102991999999999999999999MA1101391999999REMMET051METAR SBLP 051400Z 09004KT 9999 FEW030 33/20 Q1014;
0120832880999992010010515004-13267-043417FM-15+0443SBLP V0200901N002112200019N0112651N1+03301+02101999999ADDGA1041+009001999GF104991999999999999999999MA1101391999999REMMET051METAR SBLP 051500Z 09004KT 9999 SCT030 33/21 Q1014;
0120832880999992010010516004-13267-043417FM-15+0443SBLP V0203601N003112200019N0112651N1+03401+02101999999ADDGA1041+009001999GF104991999999999999999999MA1101291999999REMMET051METAR SBLP 051600Z 36006KT 9999 SCT030 34/21 Q1013;
0120832880999992010010517004-13267-043417FM-15+0443SBLP V0203601N003112200019N0112651N1+03401+02001999999ADDGA1041+009001999GF104991999999999999999999MA1101191999999REMMET051METAR SBLP 051700Z 36006KT 9999 SCT030 34/20 Q1012;
0120832880999992010010518004-13267-043417FM-15+0443SBLP V0203601N003112200019N0112651N1+03501+01901999999ADDGA1041+009001999GF104991999999999999999999MA1101081999999REMMET051METAR SBLP 051800Z 36006KT 9999 SCT030 35/19 Q1011;
0120832880999992010010519004-13267-043417FM-15+0443SBLP V0203601N003112200019N0112651N1+03501+01901999999ADDGA1041+009001999GF104991999999999999999999MA1101021999999REMMET051METAR SBLP 051900Z 36006KT 9999 SCT030 35/19 Q1010;
0130832880999992010010520004-13267-043417FM-15+0443SBLP V0203601N003112200019N0090001N1+03001+02101999999ADDGA1041+009001999GF104991999999999999999999MA1101081999999MW1611REMMET055METAR SBLP 052000Z 36006KT 9000 -RA SCT030 30/21 Q1011;
0120832880999992010010521004-13267-043417FM-15+0443SBLP V0209999C000012200019N0112651N1+02801+02101999999ADDGA1041+009001999GF104991999999999999999999MA1101021999999REMMET051METAR SBLP 052100Z 00000KT 9999 SCT030 28/21 Q1010;
0072832880999992010010610004-13267-043417FM-15+0443SBLP V0209999C000019999999Y0099001N1+02501+02201999999ADDMA1101191999999REMMET045METAR SBLP 061000Z 00000KT CAVOK 25/22 Q1012;
0072832880999992010010611004-13267-043417FM-15+0443SBLP V0209999C000019999999Y0099001N1+02801+02201999999ADDMA1101291999999REMMET045METAR SBLP 061100Z 00000KT CAVOK 28/22 Q1013;
0072832880999992010010612004-13267-043417FM-15+0443SBLP V0209999C000019999999Y0099001N1+02901+02101999999ADDMA1101291999999REMMET045METAR SBLP 061200Z 00000KT CAVOK 29/21 Q1013;
0072832880999992010010613004-13267-043417FM-15+0443SBLP V0203601N003119999999Y0099001N1+02901+02101999999ADDMA1101291999999REMMET045METAR SBLP 061300Z 36006KT CAVOK 29/21 Q1013;
0120832880999992010010614004-13267-043417FM-15+0443SBLP V0200301N004112200019N0112651N1+03101+02101999999ADDGA1021+009001999GF102991999999999999999999MA1101291999999REMMET051METAR SBLP 061400Z 03008KT 9999 FEW030 31/21 Q1013;
0120832880999992010010615004-13267-043417FM-15+0443SBLP V0203301N002112200019N0112651N1+03201+02201999999ADDGA1041+009001999GF104991999999999999999999MA1101291999999REMMET051METAR SBLP 061500Z 33004KT 9999 SCT030 32/22 Q1013;
0120832880999992010010616004-13267-043417FM-15+0443SBLP V0203601N003112200019N0112651N1+03301+02101999999ADDGA1041+009001999GF104991999999999999999999MA1101191999999REMMET051METAR SBLP 061600Z 36006KT 9999 SCT030 33/21 Q1012;
0120832880999992010010617004-13267-043417FM-15+0443SBLP V0203601N003112200019N0112651N1+03401+02001999999ADDGA1041+009001999GF104991999999999999999999MA1101021999999REMMET051METAR SBLP 061700Z 36006KT 9999 SCT030 34/20 Q1010;
0120832880999992010010618004-13267-043417FM-15+0443SBLP V0203601N003112200019N0112651N1+03501+01901999999ADDGA1041+009001999GF104991999999999999999999MA1100911999999REMMET051METAR SBLP 061800Z 36006KT 9999 SCT030 35/19 Q1009;
0120832880999992010010619004-13267-043417FM-15+0443SBLP V0203601N003112200019N0112651N1+03501+01901999999ADDGA1041+009001999GF104991999999999999999999MA1100911999999REMMET051METAR SBLP 061900Z 36006KT 9999 SCT030 35/19 Q1009;
0120832880999992010010620004-13267-043417FM-15+0443SBLP V0203601N003112200019N0112651N1+03501+01901999999ADDGA1041+009001999GF104991999999999999999999MA1100911999999REMMET051METAR SBLP 062000Z 36006KT 9999 SCT030 35/19 Q1009;
0120832880999992010010621004-13267-043417FM-15+0443SBLP V0203601N003112200019N0112651N1+03301+01901999999ADDGA1021+009001999GF102991999999999999999999MA1100911999999REMMET051METAR SBLP 062100Z 36006KT 9999 FEW030 33/19 Q1009;
0143832880999992010010710004-13267-043417FM-15+0443SBLP V0209999C000010300019N0112651N1+02301+02101999999ADDGA1041+003001999GA2071+030001999GF107991999999999999999999MA1101391999999REMMET058METAR SBLP 071000Z 00000KT 9999 SCT010 BKN100 23/21 Q1014;
0143832880999992010010711004-13267-043417FM-15+0443SBLP V0209999C000010300019N0112651N1+02401+02101999999ADDGA1041+004501999GA2071+030001999GF107991999999999999999999MA1101491999999REMMET058METAR SBLP 071100Z 00000KT 9999 SCT015 BKN100 24/21 Q1015;
0143832880999992010010712004-13267-043417FM-15+0443SBLP V0209999C000010300019N0112651N1+02501+02101999999ADDGA1021+006001999GA2071+030001999GF107991999999999999999999MA1101491999999REMMET058METAR SBLP 071200Z 00000KT 9999 FEW020 BKN100 25/21 Q1015;
0143832880999992010010713004-13267-043417FM-15+0443SBLP V0209999C000010300019N0112651N1+02601+02101999999ADDGA1021+006001999GA2071+030001999GF107991999999999999999999MA1101491999999REMMET058METAR SBLP 071300Z 00000KT 9999 FEW020 BKN100 26/21 Q1015;
0143832880999992010010714004-13267-043417FM-15+0443SBLP V0209999C000010300019N0112651N1+02701+02101999999ADDGA1021+006001999GA2071+030001999GF107991999999999999999999MA1101491999999REMMET058METAR SBLP 071400Z 00000KT 9999 FEW020 BKN100 27/21 Q1015;
0143832880999992010010715004-13267-043417FM-15+0443SBLP V0209999C000012200019N0112651N1+02901+02001999999ADDGA1021+006001999GA2041+030001999GF104991999999999999999999MA1101391999999REMMET058METAR SBLP 071500Z 00000KT 9999 FEW020 SCT100 29/20 Q1014;
0143832880999992010010716004-13267-043417FM-15+0443SBLP V0209999C000010300019N0112651N1+02901+02101999999ADDGA1041+009001999GA2071+030001999GF107991999999999999999999MA1101391999999REMMET058METAR SBLP 071600Z 00000KT 9999 SCT030 BKN100 29/21 Q1014;
0143832880999992010010717004-13267-043417FM-15+0443SBLP V0209999C000010300019N0112651N1+02901+02101999999ADDGA1041+006001999GA2071+030001999GF107991999999999999999999MA1101291999999REMMET058METAR SBLP 071700Z 00000KT 9999 SCT020 BKN100 29/21 Q1013;
0143832880999992010010718004-13267-043417FM-15+0443SBLP V0201801N003110300019N0112651N1+02701+02101999999ADDGA1041+006001999GA2071+030001999GF107991999999999999999999MA1101191999999REMMET058METAR SBLP 071800Z 18006KT 9999 SCT020 BKN100 27/21 Q1012;
0143832880999992010010719004-13267-043417FM-15+0443SBLP V0201601N003110300019N0112651N1+02701+02201999999ADDGA1021+006001999GA2071+030001999GF107991999999999999999999MA1101081999999REMMET058METAR SBLP 071900Z 16006KT 9999 FEW020 BKN100 27/22 Q1011;
0143832880999992010010720004-13267-043417FM-15+0443SBLP V0201601N003110300019N0112651N1+02601+02301999999ADDGA1021+006001999GA2071+030001999GF107991999999999999999999MA1101081999999REMMET058METAR SBLP 072000Z 16006KT 9999 FEW020 BKN100 26/23 Q1011;
0143832880999992010010721004-13267-043417FM-15+0443SBLP V0201801N003110300019N0112651N1+02601+02201999999ADDGA1021+006001999GA2071+030001999GF107991999999999999999999MA1101191999999REMMET058METAR SBLP 072100Z 18006KT 9999 FEW020 BKN100 26/22 Q1012;
0072832880999992010010810004-13267-043417FM-15+0443SBLP V0209999C000019999999Y0099001N1+02501+02001999999ADDMA1101391999999REMMET045METAR SBLP 081000Z 00000KT CAVOK 25/20 Q1014;
0072832880999992010010811004-13267-043417FM-15+0443SBLP V0209999C000019999999Y0099001N1+02801+02001999999ADDMA1101491999999REMMET045METAR SBLP 081100Z 00000KT CAVOK 28/20 Q1015;
0120832880999992010010812004-13267-043417FM-15+0443SBLP V0209999C000012200019N0112651N1+03001+02001999999ADDGA1021+009001999GF102991999999999999999999MA1101491999999REMMET051METAR SBLP 081200Z 00000KT 9999 FEW030 30/20 Q1015;
0120832880999992010010813004-13267-043417FM-15+0443SBLP V0209999C000012200019N0112651N1+03201+02001999999ADDGA1021+009001999GF102991999999999999999999MA1101491999999REMMET051METAR SBLP 081300Z 00000KT 9999 FEW030 32/20 Q1015;
0120832880999992010010815004-13267-043417FM-15+0443SBLP V0203601N003112200019N0112651N1+03301+02001999999ADDGA1041+009001999GF104991999999999999999999MA1101391999999REMMET051METAR SBLP 081500Z 36006KT 9999 SCT030 33/20 Q1014;
0143832880999992010010817004-13267-043417FM-15+0443SBLP V0201401N003110300019N0112651N1+03001+02301999999ADDGA1041+008101999GA2071+030001999GF107991999999999999999999MA1101291999999REMMET058METAR SBLP 081700Z 14006KT 9999 SCT027 BKN100 30/23 Q1013;
0143832880999992010010818004-13267-043417FM-15+0443SBLP V0201401N003110300019N0112651N1+02701+02301999999ADDGA1041+008101999GA2071+030001999GF107991999999999999999999MA1101191999999REMMET058METAR SBLP 081800Z 14006KT 9999 SCT027 BKN100 27/23 Q1012;
0143832880999992010010819004-13267-043417FM-15+0443SBLP V0209999C000010300019N0112651N1+02601+02301999999ADDGA1041+008101999GA2071+030001999GF107991999999999999999999MA1101081999999REMMET058METAR SBLP 081900Z 00000KT 9999 SCT027 BKN100 26/23 Q1011;
0143832880999992010010820004-13267-043417FM-15+0443SBLP V0203301N004110300019N0112651N1+02501+02401999999ADDGA1041+006001999GA2071+030001999GF107991999999999999999999MA1101291999999REMMET058METAR SBLP 082000Z 33008KT 9999 SCT020 BKN100 25/24 Q1013;
0186832880999992010010821004-13267-043417FM-15+0443SBLP V0203501N00311012001CN0090001N1+02201+02201999999ADDGA1041+004501999GA2021+012001091GA3071+030001999GF107991999999999999999999MA1101491999999MW1801MW2951REMMET073METAR SBLP 082100Z 35006KT 9000 -TSRA SCT015 FEW040CB BKN100 22/22 Q1015;
0120832880999992010010910004-13267-043417FM-15+0443SBLP V0201501N003112200019N0112651N1+02201+02001999999ADDGA1041+006001999GF104991999999999999999999MA1101591999999REMMET051METAR SBLP 091000Z 15006KT 9999 SCT020 22/20 Q1016;
0120832880999992010010911004-13267-043417FM-15+0443SBLP V0201201N002112200019N0112651N1+02501+02101999999ADDGA1041+006001999GF104991999999999999999999MA1101591999999REMMET051METAR SBLP 091100Z 12004KT 9999 SCT020 25/21 Q1016;
0120832880999992010010912004-13267-043417FM-15+0443SBLP V0201801N003112200019N0112651N1+02701+02201999999ADDGA1041+006001999GF104991999999999999999999MA1101591999999REMMET051METAR SBLP 091200Z 18006KT 9999 SCT020 27/22 Q1016;
0120832880999992010010913004-13267-043417FM-15+0443SBLP V0201801N003112200019N0112651N1+02801+02201999999ADDGA1041+006001999GF104991999999999999999999MA1101591999999REMMET051METAR SBLP 091300Z 18006KT 9999 SCT020 28/22 Q1016;
0120832880999992010010914004-13267-043417FM-15+0443SBLP V0201801N003112200019N0112651N1+02601+02301999999ADDGA1041+006001999GF104991999999999999999999MA1101591999999REMMET051METAR SBLP 091400Z 18006KT 9999 SCT020 26/23 Q1016;
0120832880999992010010915004-13267-043417FM-15+0443SBLP V0201801N003112200019N0112651N1+02901+02201999999ADDGA1041+006001999GF104991999999999999999999MA1101491999999REMMET051METAR SBLP 091500Z 18006KT 9999 SCT020 29/22 Q1015;
0120832880999992010010916004-13267-043417FM-15+0443SBLP V0202301N002112200019N0112651N1+03101+02301999999ADDGA1041+009001999GF104991999999999999999999MA1101391999999REMMET051METAR SBLP 091600Z 23004KT 9999 SCT030 31/23 Q1014;
0131832880999992010010917004-13267-043417FM-15+0443SBLP V0203301N002110090019N0080001N1+02901+02301999999ADDGA1071+009001999GF107991999999999999999999MA1101291999999MW1161REMMET056METAR SBLP 091700Z 33004KT 8000 VCSH BKN030 29/23 Q1013;
0139832880999992010010918004-13267-043417FM-15+0443SBLP V0203001N004112200019N0112651N1+02801+02401999999ADDGA1041+009001999GA2021+009001021MA1101191999999REMMET061METAR SBLP 091800Z 30008KT 9999 SCT030 FEW030TCU 28/24 Q1012;EQDQ01+000022SCOTCV
0150832880999992010010919004-13267-043417FM-15+0443SBLP V0202601N001512200019N0080001N1+03101+02301999999ADDGA1041+009001999GA2021+009001021MA1101081999999MW1161REMMET066METAR SBLP 091900Z 26003KT 8000 VCSH SCT030 FEW030TCU 31/23 Q1011;EQDQ01+000022SCOTCV
0120832880999992010010920004-13267-043417FM-15+0443SBLP V0201801N003112200019N0112651N1+03101+02301999999ADDGA1041+009001999GF104991999999999999999999MA1101081999999REMMET051METAR SBLP 092000Z 18006KT 9999 SCT030 31/23 Q1011;
0120832880999992010010921004-13267-043417FM-15+0443SBLP V0209999C000012200019N0112651N1+02701+02201999999ADDGA1041+009001999GF104991999999999999999999MA1101081999999REMMET051METAR SBLP 092100Z 00000KT 9999 SCT030 27/22 Q1011;
0072832880999992010011010004-13267-043417FM-15+0443SBLP V0202101N001519999999Y0099001N1+02401+02001999999ADDMA1101391999999REMMET045METAR SBLP 101000Z 21003KT CAVOK 24/20 Q1014;
0072832880999992010011011004-13267-043417FM-15+0443SBLP V0201201N001519999999Y0099001N1+02701+02001999999ADDMA1101491999999REMMET045METAR SBLP 101100Z 12003KT CAVOK 27/20 Q1015;
0120832880999992010011012004-13267-043417FM-15+0443SBLP V0202701N001512200019N0112651N1+02801+02001999999ADDGA1021+009001999GF102991999999999999999999MA1101491999999REMMET051METAR SBLP 101200Z 27003KT 9999 FEW030 28/20 Q1015;
0120832880999992010011013004-13267-043417FM-15+0443SBLP V0209999C000012200019N0112651N1+02901+02001999999ADDGA1021+009001999GF102991999999999999999999MA1101491999999REMMET051METAR SBLP 101300Z 00000KT 9999 FEW030 29/20 Q1015;
0120832880999992010011014004-13267-043417FM-15+0443SBLP V0200701N002112200019N0112651N1+03101+01901999999ADDGA1021+009001999GF102991999999999999999999MA1101491999999REMMET051METAR SBLP 101400Z 07004KT 9999 FEW030 31/19 Q1015;
0120832880999992010011015004-13267-043417FM-15+0443SBLP V0209999C000012200019N0112651N1+03101+02001999999ADDGA1021+009001999GF102991999999999999999999MA1101391999999REMMET051METAR SBLP 101500Z 00000KT 9999 FEW030 31/20 Q1014;
0120832880999992010011016004-13267-043417FM-15+0443SBLP V0209999C000012200019N0112651N1+03101+01901999999ADDGA1021+009001999GF102991999999999999999999MA1101291999999REMMET051METAR SBLP 101600Z 00000KT 9999 FEW030 31/19 Q1013;
0120832880999992010011017004-13267-043417FM-15+0443SBLP V0209999C000012200019N0112651N1+03201+01901999999ADDGA1021+009001999GF102991999999999999999999MA1101191999999REMMET051METAR SBLP 101700Z 00000KT 9999 FEW030 32/19 Q1012;
0120832880999992010011018004-13267-043417FM-15+0443SBLP V0209999C000012200019N0112651N1+03201+01901999999ADDGA1021+009001999GF102991999999999999999999MA1101191999999REMMET051METAR SBLP 101800Z 00000KT 9999 FEW030 32/19 Q1012;
0120832880999992010011019004-13267-043417FM-15+0443SBLP V0209999C000012200019N0112651N1+03301+01901999999ADDGA1021+009001999GF102991999999999999999999MA1101191999999REMMET051METAR SBLP 101900Z 00000KT 9999 FEW030 33/19 Q1012;
0072832880999992010011020004-13267-043417FM-15+0443SBLP V0209999C000019999999Y0099001N1+03201+01901999999ADDMA1101081999999REMMET045METAR SBLP 102000Z 00000KT CAVOK 32/19 Q1011;
0072832880999992010011021004-13267-043417FM-15+0443SBLP V0209999C000019999999Y0099001N1+03101+01901999999ADDMA1101081999999REMMET045METAR SBLP 102100Z 00000KT CAVOK 31/19 Q1011;
0072832880999992010011110004-13267-043417FM-15+0443SBLP V0209999C000019999999Y0099001N1+02401+02001999999ADDMA1101291999999REMMET045METAR SBLP 111000Z 00000KT CAVOK 24/20 Q1013;
0072832880999992010011111004-13267-043417FM-15+0443SBLP V0209999C000019999999Y0099001N1+02701+02101999999ADDMA1101391999999REMMET045METAR SBLP 111100Z 00000KT CAVOK 27/21 Q1014;
0072832880999992010011112004-13267-043417FM-15+0443SBLP V0200301N002119999999Y0099001N1+03001+02101999999ADDMA1101391999999REMMET045METAR SBLP 111200Z 03004KT CAVOK 30/21 Q1014;
0072832880999992010011113004-13267-043417FM-15+0443SBLP V0200301N001519999999Y0099001N1+03101+02001999999ADDMA1101391999999REMMET045METAR SBLP 111300Z 03003KT CAVOK 31/20 Q1014;
0120832880999992010011114004-13267-043417FM-15+0443SBLP V0201801N001512200019N0112651N1+03201+02101999999ADDGA1041+009001999GF104991999999999999999999MA1101391999999REMMET051METAR SBLP 111400Z 18003KT 9999 SCT030 32/21 Q1014;
0120832880999992010011115004-13267-043417FM-15+0443SBLP V0209999C000012200019N0112651N1+03201+02201999999ADDGA1041+009001999GF104991999999999999999999MA1101391999999REMMET051METAR SBLP 111500Z 00000KT 9999 SCT030 32/22 Q1014;
0120832880999992010011116004-13267-043417FM-15+0443SBLP V0203601N003112200019N0112651N1+03201+02101999999ADDGA1041+009001999GF104991999999999999999999MA1101291999999REMMET051METAR SBLP 111600Z 36006KT 9999 SCT030 32/21 Q1013;
0120832880999992010011117004-13267-043417FM-15+0443SBLP V0203601N003110090019N0112651N1+03301+02001999999ADDGA1071+009001999GF107991999999999999999999MA1101191999999REMMET051METAR SBLP 111700Z 36006KT 9999 BKN030 33/20 Q1012;
0147832880999992010011118004-13267-043417FM-15+0443SBLP V0203601N003112200019N0112651N1+03301+02001999999ADDGA1041+009001999GA2021+012001091MA1101191999999MW1171REMMET063METAR SBLP 111800Z 36006KT 9999 TS SCT030 FEW040CB 33/20 Q1012;EQDQ01+000022SCOTCV
0177832880999992010011119004-13267-043417FM-15+0443SBLP V0200901N003112200019N0112651N1+03001+02001999999ADDGA1041+009001999GA2021+012001091GA3041+030001999GF104991999999999999999999MA1101081999999MW1171REMMET070METAR SBLP 111900Z 09006KT 9999 TS SCT030 FEW040CB SCT100 30/20 Q1011;
0143832880999992010011120004-13267-043417FM-15+0443SBLP V0200901N003110300019N0112651N1+02601+02101999999ADDGA1041+009001999GA2071+030001999GF107991999999999999999999MA1101191999999REMMET058METAR SBLP 112000Z 09006KT 9999 SCT030 BKN100 26/21 Q1012;
0143832880999992010011121004-13267-043417FM-15+0443SBLP V0201801N003110300019N0112651N1+02401+02101999999ADDGA1041+009001999GA2071+030001999GF107991999999999999999999MA1101191999999REMMET058METAR SBLP 112100Z 18006KT 9999 SCT030 BKN100 24/21 Q1012;
0072832880999992010011210004-13267-043417FM-15+0443SBLP V0209999C000019999999Y0099001N1+02401+02101999999ADDMA1101391999999REMMET045METAR SBLP 121000Z 00000KT CAVOK 24/21 Q1014;
0072832880999992010011211004-13267-043417FM-15+0443SBLP V0209999C000019999999Y0099001N1+02701+02101999999ADDMA1101491999999REMMET045METAR SBLP 121100Z 00000KT CAVOK 27/21 Q1015;
0072832880999992010011212004-13267-043417FM-15+0443SBLP V0209999C000019999999Y0099001N1+02901+02001999999ADDMA1101491999999REMMET045METAR SBLP 121200Z 00000KT CAVOK 29/20 Q1015;
0072832880999992010011213004-13267-043417FM-15+0443SBLP V0209999C000019999999Y0099001N1+03101+01901999999ADDMA1101491999999REMMET045METAR SBLP 121300Z 00000KT CAVOK 31/19 Q1015;
0120832880999992010011214004-13267-043417FM-15+0443SBLP V0209999C000012200019N0112651N1+03201+01901999999ADDGA1021+009001999GF102991999999999999999999MA1101491999999REMMET051METAR SBLP 121400Z 00000KT 9999 FEW030 32/19 Q1015;
0120832880999992010011215004-13267-043417FM-15+0443SBLP V0203601N003112200019N0112651N1+03201+01901999999ADDGA1021+009001999GF102991999999999999999999MA1101391999999REMMET051METAR SBLP 121500Z 36006KT 9999 FEW030 32/19 Q1014;
0120832880999992010011216004-13267-043417FM-15+0443SBLP V0209999C000012200019N0112651N1+03301+02001999999ADDGA1021+009001999GF102991999999999999999999MA1101291999999REMMET051METAR SBLP 121600Z 00000KT 9999 FEW030 33/20 Q1013;
0143832880999992010011217004-13267-043417FM-15+0443SBLP V0209999C000012200019N0112651N1+03301+02001999999ADDGA1021+009001999GA2041+030001999GF104991999999999999999999MA1101191999999REMMET058METAR SBLP 121700Z 00000KT 9999 FEW030 SCT100 33/20 Q1012;
0143832880999992010011218004-13267-043417FM-15+0443SBLP V0201201N002112200019N0112651N1+03401+02001999999ADDGA1021+009001999GA2041+030001999GF104991999999999999999999MA1101081999999REMMET058METAR SBLP 121800Z 12004KT 9999 FEW030 SCT100 34/20 Q1011;
0177832880999992010011219004-13267-043417FM-15+0443SBLP V0200601N00411012001CN0112651N1+03301+02201999999ADDGA1041+009001999GA2021+012001091GA3071+030001999GF107991999999999999999999MA1101081999999MW1171REMMET070METAR SBLP 121900Z 06008KT 9999 TS SCT030 FEW040CB BKN100 33/22 Q1011;
0177832880999992010011220004-13267-043417FM-15+0443SBLP V0209999C00001012001CN0112651N1+02901+02301999999ADDGA1041+009001999GA2021+012001091GA3071+030001999GF107991999999999999999999MA1101081999999MW1171REMMET070METAR SBLP 122000Z 00000KT 9999 TS SCT030 FEW040CB BKN100 29/23 Q1011;
0143832880999992010011221004-13267-043417FM-15+0443SBLP V0203601N003112200019N0112651N1+02701+02401999999ADDGA1021+009001999GA2041+030001999GF104991999999999999999999MA1101191999999REMMET058METAR SBLP 122100Z 36006KT 9999 FEW030 SCT100 27/24 Q1012;
0072832880999992010011310004-13267-043417FM-15+0443SBLP V0209999C000019999999Y0099001N1+02401+02101999999ADDMA1101491999999REMMET045METAR SBLP 131000Z 00000KT CAVOK 24/21 Q1015;
0072832880999992010011311004-13267-043417FM-15+0443SBLP V0209999C000019999999Y0099001N1+02701+02001999999ADDMA1101591999999REMMET045METAR SBLP 131100Z 00000KT CAVOK 27/20 Q1016;
0072832880999992010011312004-13267-043417FM-15+0443SBLP V0209999C000019999999Y0099001N1+02901+02001999999ADDMA1101591999999REMMET045METAR SBLP 131200Z 00000KT CAVOK 29/20 Q1016;
0143832880999992010011313004-13267-043417FM-15+0443SBLP V0202101N003112200019N0112651N1+03001+02101999999ADDGA1021+009001999GA2041+030001999GF104991999999999999999999MA1101591999999REMMET058METAR SBLP 131300Z 21006KT 9999 FEW030 SCT100 30/21 Q1016;
0143832880999992010011314004-13267-043417FM-15+0443SBLP V0202701N003112200019N0112651N1+03101+02101999999ADDGA1021+009001999GA2041+030001999GF104991999999999999999999MA1101591999999REMMET058METAR SBLP 131400Z 27006KT 9999 FEW030 SCT100 31/21 Q1016;
0143832880999992010011315004-13267-043417FM-15+0443SBLP V0209999C000012200019N0112651N1+03201+02101999999ADDGA1021+009001999GA2041+090001999GF104991999999999999999999MA1101491999999REMMET058METAR SBLP 131500Z 00000KT 9999 FEW030 SCT300 32/21 Q1015;
0120832880999992010011316004-13267-043417FM-15+0443SBLP V0203301N003112200019N0112651N1+03301+02001999999ADDGA1041+009001999GF104991999999999999999999MA1101391999999REMMET051METAR SBLP 131600Z 33006KT 9999 SCT030 33/20 Q1014;
0131832880999992010011317004-13267-043417FM-15+0443SBLP V0200601N009310090019N0080001N1+02901+02101999999ADDGA1071+009001999GF107991999999999999999999MA1101291999999MW1161REMMET056METAR SBLP 131700Z 06018KT 8000 VCSH BKN030 29/21 Q1013;
0158832880999992010011318004-13267-043417FM-15+0443SBLP V0201201N00511009001CN0080001N1+02601+02301999999ADDGA1021+009001091GA2071+009001999MA1101291999999MW1161MW2171REMMET068METAR SBLP 131800Z 12010KT 8000 TS VCSH BKN030 FEW030CB 26/23 Q1013;EQDQ01+000022SCOTCV
0158832880999992010011319004-13267-043417FM-15+0443SBLP V0202101N003110300019N0112651N1+02601+02301999999ADDGA1041+009001999GA2071+030001999GF107991999999999999999999MA1101291999999MW1611REMMET067METAR SBLP 131900Z 21006KT 9999 -RA SCT030 BKN100 26/23 Q1013 RETS;
0143832880999992010011320004-13267-043417FM-15+0443SBLP V0201201N003110300019N0112651N1+02701+02101999999ADDGA1021+009001999GA2071+030001999GF107991999999999999999999MA1101291999999REMMET058METAR SBLP 132000Z 12006KT 9999 FEW030 BKN100 27/21 Q1013;
0143832880999992010011321004-13267-043417FM-15+0443SBLP V0209999C000010300019N0112651N1+02501+02201999999ADDGA1021+009001999GA2071+030001999GF107991999999999999999999MA1101391999999REMMET058METAR SBLP 132100Z 00000KT 9999 FEW030 BKN100 25/22 Q1014;
0072832880999992010011410004-13267-043417FM-15+0443SBLP V0209999C000019999999Y0099001N1+02301+02101999999ADDMA1101591999999REMMET045METAR SBLP 141000Z 00000KT CAVOK 23/21 Q1016;
0143832880999992010011411004-13267-043417FM-15+0443SBLP V0201201N002112200019N0112651N1+02601+02001999999ADDGA1021+006001999GA2041+090001999GF104991999999999999999999MA1101691999999REMMET058METAR SBLP 141100Z 12004KT 9999 FEW020 SCT300 26/20 Q1017;
0120832880999992010011412004-13267-043417FM-15+0443SBLP V0209999C000012200019N0112651N1+03001+01901999999ADDGA1021+006001999GF102991999999999999999999MA1101691999999REMMET051METAR SBLP 141200Z 00000KT 9999 FEW020 30/19 Q1017;
0143832880999992010011413004-13267-043417FM-15+0443SBLP V0200601N002112200019N0112651N1+02901+02001999999ADDGA1021+006001999GA2041+030001999GF104991999999999999999999MA1101691999999REMMET058METAR SBLP 141300Z 06004KT 9999 FEW020 SCT100 29/20 Q1017;
0143832880999992010011414004-13267-043417FM-15+0443SBLP V0209999C000012200019N0112651N1+03001+02001999999ADDGA1021+009001999GA2041+030001999GF104991999999999999999999MA1101591999999REMMET058METAR SBLP 141400Z 00000KT 9999 FEW030 SCT100 30/20 Q1016;
0143832880999992010011415004-13267-043417FM-15+0443SBLP V0202401N003112200019N0112651N1+03101+02001999999ADDGA1021+009001999GA2041+030001999GF104991999999999999999999MA1101591999999REMMET058METAR SBLP 141500Z 24006KT 9999 FEW030 SCT100 31/20 Q1016;
0120832880999992010011416004-13267-043417FM-15+0443SBLP V0202001N002112200019N0112651N1+03201+02201999999ADDGA1041+009001999GF104991999999999999999999MA1101491999999REMMET051METAR SBLP 141600Z 20004KT 9999 SCT030 32/22 Q1015;
0120832880999992010011417004-13267-043417FM-15+0443SBLP V0202701N003112200019N0112651N1+03301+02101999999ADDGA1041+009001999GF104991999999999999999999MA1101391999999REMMET051METAR SBLP 141700Z 27006KT 9999 SCT030 33/21 Q1014;
0120832880999992010011418004-13267-043417FM-15+0443SBLP V0209999C000012200019N0112651N1+03301+02001999999ADDGA1041+009001999GF104991999999999999999999MA1101291999999REMMET051METAR SBLP 141800Z 00000KT 9999 SCT030 33/20 Q1013;
0120832880999992010011419004-13267-043417FM-15+0443SBLP V0202201N003112200019N0112651N1+03301+02001999999ADDGA1041+009001999GF104991999999999999999999MA1101191999999REMMET051METAR SBLP 141900Z 22006KT 9999 SCT030 33/20 Q1012;
0120832880999992010011420004-13267-043417FM-15+0443SBLP V0201201N001512200019N0112651N1+03201+02101999999ADDGA1021+009001999GF102991999999999999999999MA1101191999999REMMET051METAR SBLP 142000Z 12003KT 9999 FEW030 32/21 Q1012;
0120832880999992010011421004-13267-043417FM-15+0443SBLP V0201001N001512200019N0112651N1+03001+02201999999ADDGA1021+009001999GF102991999999999999999999MA1101191999999REMMET051METAR SBLP 142100Z 10003KT 9999 FEW030 30/22 Q1012;
0072832880999992010011510004-13267-043417FM-15+0443SBLP V0209999C000019999999Y0099001N1+02501+02101999999ADDMA1101591999999REMMET045METAR SBLP 151000Z 00000KT CAVOK 25/21 Q1016;
0072832880999992010011511004-13267-043417FM-15+0443SBLP V0209999C000019999999Y0099001N1+02801+02001999999ADDMA1101691999999REMMET045METAR SBLP 151100Z 00000KT CAVOK 28/20 Q1017;
0072832880999992010011512004-13267-043417FM-15+0443SBLP V0209999C000019999999Y0099001N1+03001+02001999999ADDMA1101691999999REMMET045METAR SBLP 151200Z 00000KT CAVOK 30/20 Q1017;
0120832880999992010011513004-13267-043417FM-15+0443SBLP V0209999C000012200019N0112651N1+03001+02001999999ADDGA1021+009001999GF102991999999999999999999MA1101691999999REMMET051METAR SBLP 151300Z 00000KT 9999 FEW030 30/20 Q1017;
0120832880999992010011514004-13267-043417FM-15+0443SBLP V0209999C000012200019N0112651N1+03101+02001999999ADDGA1021+009001999GF102991999999999999999999MA1101691999999REMMET051METAR SBLP 151400Z 00000KT 9999 FEW030 31/20 Q1017;
0120832880999992010011515004-13267-043417FM-15+0443SBLP V0209999C000012200019N0112651N1+03201+02001999999ADDGA1041+009001999GF104991999999999999999999MA1101591999999REMMET051METAR SBLP 151500Z 00000KT 9999 SCT030 32/20 Q1016;
0120832880999992010011516004-13267-043417FM-15+0443SBLP V0209999C000012200019N0112651N1+03301+02001999999ADDGA1041+009001999GF104991999999999999999999MA1101591999999REMMET051METAR SBLP 151600Z 00000KT 9999 SCT030 33/20 Q1016;
0120832880999992010011517004-13267-043417FM-15+0443SBLP V0209999C000012200019N0112651N1+03301+01901999999ADDGA1041+009001999GF104991999999999999999999MA1101391999999REMMET051METAR SBLP 151700Z 00000KT 9999 SCT030 33/19 Q1014;
0120832880999992010011518004-13267-043417FM-15+0443SBLP V0209999C000012200019N0112651N1+03401+01901999999ADDGA1041+009001999GF104991999999999999999999MA1101291999999REMMET051METAR SBLP 151800Z 00000KT 9999 SCT030 34/19 Q1013;
0120832880999992010011519004-13267-043417FM-15+0443SBLP V0209999C000012200019N0112651N1+03401+01901999999ADDGA1021+009001999GF102991999999999999999999MA1101291999999REMMET051METAR SBLP 151900Z 00000KT 9999 FEW030 34/19 Q1013;
0120832880999992010011520004-13267-043417FM-15+0443SBLP V0209999C000012200019N0112651N1+03301+01901999999ADDGA1021+009001999GF102991999999999999999999MA1101291999999REMMET051METAR SBLP 152000Z 00000KT 9999 FEW030 33/19 Q1013;
0120832880999992010011521004-13267-043417FM-15+0443SBLP V0209999C000012200019N0112651N1+03201+01901999999ADDGA1021+009001999GF102991999999999999999999MA1101291999999REMMET051METAR SBLP 152100Z 00000KT 9999 FEW030 32/19 Q1013;
0072832880999992010011610004-13267-043417FM-15+0443SBLP V0209999C000019999999Y0099001N1+02501+02001999999ADDMA1101691999999REMMET045METAR SBLP 161000Z 00000KT CAVOK 25/20 Q1017;
0072832880999992010011611004-13267-043417FM-15+0443SBLP V0209999C000019999999Y0099001N1+02801+02001999999ADDMA1101801999999REMMET045METAR SBLP 161100Z 00000KT CAVOK 28/20 Q1018;
0072832880999992010011612004-13267-043417FM-15+0443SBLP V0209999C000019999999Y0099001N1+03001+01901999999ADDMA1101801999999REMMET045METAR SBLP 161200Z 00000KT CAVOK 30/19 Q1018;
0072832880999992010011613004-13267-043417FM-15+0443SBLP V0209999C000019999999Y0099001N1+03001+01901999999ADDMA1101801999999REMMET045METAR SBLP 161300Z 00000KT CAVOK 30/19 Q1018;
0072832880999992010011614004-13267-043417FM-15+0443SBLP V0209999C000019999999Y0099001N1+03201+01801999999ADDMA1101801999999REMMET045METAR SBLP 161400Z 00000KT CAVOK 32/18 Q1018;
0072832880999992010011615004-13267-043417FM-15+0443SBLP V0201801N003119999999Y0099001N1+03201+01901999999ADDMA1101691999999REMMET045METAR SBLP 161500Z 18006KT CAVOK 32/19 Q1017;
0072832880999992010011616004-13267-043417FM-15+0443SBLP V0200901N002119999999Y0099001N1+03401+01801999999ADDMA1101591999999REMMET045METAR SBLP 161600Z 09004KT CAVOK 34/18 Q1016;
0072832880999992010011617004-13267-043417FM-15+0443SBLP V0201201N003119999999Y0099001N1+03501+01801999999ADDMA1101491999999REMMET045METAR SBLP 161700Z 12006KT CAVOK 35/18 Q1015;
0072832880999992010011618004-13267-043417FM-15+0443SBLP V0201801N002119999999Y0099001N1+03501+01901999999ADDMA1101391999999REMMET045METAR SBLP 161800Z 18004KT CAVOK 35/19 Q1014;
0072832880999992010011619004-13267-043417FM-15+0443SBLP V0201201N003119999999Y0099001N1+03601+01801999999ADDMA1101291999999REMMET045METAR SBLP 161900Z 12006KT CAVOK 36/18 Q1013;
0072832880999992010011620004-13267-043417FM-15+0443SBLP V0201401N003119999999Y0099001N1+03501+01901999999ADDMA1101291999999REMMET045METAR SBLP 162000Z 14006KT CAVOK 35/19 Q1013;
0072832880999992010011621004-13267-043417FM-15+0443SBLP V0201601N002119999999Y0099001N1+03401+01901999999ADDMA1101291999999REMMET045METAR SBLP 162100Z 16004KT CAVOK 34/19 Q1013;
0072832880999992010011710004-13267-043417FM-15+0443SBLP V0209999C000019999999Y0099001N1+02501+02001999999ADDMA1101691999999REMMET045METAR SBLP 171000Z 00000KT CAVOK 25/20 Q1017;
0072832880999992010011711004-13267-043417FM-15+0443SBLP V0209999C000019999999Y0099001N1+02701+02001999999ADDMA1101801999999REMMET045METAR SBLP 171100Z 00000KT CAVOK 27/20 Q1018;
0072832880999992010011712004-13267-043417FM-15+0443SBLP V0209999C000019999999Y0099001N1+02901+02001999999ADDMA1101901999999REMMET045METAR SBLP 171200Z 00000KT CAVOK 29/20 Q1019;
0120832880999992010011713004-13267-043417FM-15+0443SBLP V0200901N003112200019N0112651N1+03101+02001999999ADDGA1021+009001999GF102991999999999999999999MA1101901999999REMMET051METAR SBLP 171300Z 09006KT 9999 FEW030 31/20 Q1019;
0120832880999992010011714004-13267-043417FM-15+0443SBLP V0200901N003112200019N0112651N1+03101+02001999999ADDGA1021+009001999GF102991999999999999999999MA1101801999999REMMET051METAR SBLP 171400Z 09006KT 9999 FEW030 31/20 Q1018;
0120832880999992010011715004-13267-043417FM-15+0443SBLP V0200901N003112200019N0112651N1+03201+02001999999ADDGA1041+009001999GF104991999999999999999999MA1101691999999REMMET051METAR SBLP 171500Z 09006KT 9999 SCT030 32/20 Q1017;
0143832880999992010011716004-13267-043417FM-15+0443SBLP V0200601N003112200019N0112651N1+03201+02001999999ADDGA1041+009001999GA2041+030001999GF104991999999999999999999MA1101691999999REMMET058METAR SBLP 171600Z 06006KT 9999 SCT030 SCT100 32/20 Q1017;
0143832880999992010011717004-13267-043417FM-15+0443SBLP V0201601N003112200019N0112651N1+03401+01901999999ADDGA1021+009001999GA2041+030001999GF104991999999999999999999MA1101591999999REMMET058METAR SBLP 171700Z 16006KT 9999 FEW030 SCT100 34/19 Q1016;
0120832880999992010011718004-13267-043417FM-15+0443SBLP V0201201N003112200019N0112651N1+03401+01901999999ADDGA1041+009001999GF104991999999999999999999MA1101491999999REMMET051METAR SBLP 171800Z 12006KT 9999 SCT030 34/19 Q1015;
0120832880999992010011719004-13267-043417FM-15+0443SBLP V0201201N003112200019N0112651N1+03401+01901999999ADDGA1041+009001999GF104991999999999999999999MA1101391999999REMMET051METAR SBLP 171900Z 12006KT 9999 SCT030 34/19 Q1014;
0120832880999992010011720004-13267-043417FM-15+0443SBLP V0201201N003112200019N0112651N1+03401+02001999999ADDGA1021+009001999GF102991999999999999999999MA1101391999999REMMET051METAR SBLP 172000Z 12006KT 9999 FEW030 34/20 Q1014;
0120832880999992010011721004-13267-043417FM-15+0443SBLP V0201201N003112200019N0112651N1+03201+02001999999ADDGA1021+009001999GF102991999999999999999999MA1101391999999REMMET051METAR SBLP 172100Z 12006KT 9999 FEW030 32/20 Q1014;
0072832880999992010011810004-13267-043417FM-15+0443SBLP V0209999C000019999999Y0099001N1+02201+01901999999ADDMA1101801999999REMMET045METAR SBLP 181000Z 00000KT CAVOK 22/19 Q1018;
0072832880999992010011811004-13267-043417FM-15+0443SBLP V0200901N002119999999Y0099001N1+02601+01801999999ADDMA1101801999999REMMET045METAR SBLP 181100Z 09004KT CAVOK 26/18 Q1018;
0072832880999992010011812004-13267-043417FM-15+0443SBLP V0200601N003119999999Y0099001N1+02801+01801999999ADDMA1101801999999REMMET045METAR SBLP 181200Z 06006KT CAVOK 28/18 Q1018;
0072832880999992010011813004-13267-043417FM-15+0443SBLP V0200401N003119999999Y0099001N1+03001+01801999999ADDMA1101801999999REMMET045METAR SBLP 181300Z 04006KT CAVOK 30/18 Q1018;
0072832880999992010011814004-13267-043417FM-15+0443SBLP V0200901N003119999999Y0099001N1+03101+01801999999ADDMA1101691999999REMMET045METAR SBLP 181400Z 09006KT CAVOK 31/18 Q1017;
0072832880999992010011815004-13267-043417FM-15+0443SBLP V0201501N003119999999Y0099001N1+03201+01801999999ADDMA1101591999999REMMET045METAR SBLP 181500Z 15006KT CAVOK 32/18 Q1016;
0072832880999992010011816004-13267-043417FM-15+0443SBLP V0200901N003119999999Y0099001N1+03301+01701999999ADDMA1101591999999REMMET045METAR SBLP 181600Z 09006KT CAVOK 33/17 Q1016;
0072832880999992010011817004-13267-043417FM-15+0443SBLP V0200901N003119999999Y0099001N1+03401+01701999999ADDMA1101491999999REMMET045METAR SBLP 181700Z 09006KT CAVOK 34/17 Q1015;
0072832880999992010011818004-13267-043417FM-15+0443SBLP V0200901N003119999999Y0099001N1+03401+01601999999ADDMA1101391999999REMMET045METAR SBLP 181800Z 09006KT CAVOK 34/16 Q1014;
0072832880999992010011819004-13267-043417FM-15+0443SBLP V0209999C000019999999Y0099001N1+03401+01601999999ADDMA1101291999999REMMET045METAR SBLP 181900Z 00000KT CAVOK 34/16 Q1013;
0072832880999992010011820004-13267-043417FM-15+0443SBLP V0209999C000019999999Y0099001N1+03301+01601999999ADDMA1101291999999REMMET045METAR SBLP 182000Z 00000KT CAVOK 33/16 Q1013;
0072832880999992010011821004-13267-043417FM-15+0443SBLP V0209999C000019999999Y0099001N1+03201+01601999999ADDMA1101291999999REMMET045METAR SBLP 182100Z 00000KT CAVOK 32/16 Q1013;
0072832880999992010011910004-13267-043417FM-15+0443SBLP V0209999C000019999999Y0099001N1+02201+01901999999ADDMA1101491999999REMMET045METAR SBLP 191000Z 00000KT CAVOK 22/19 Q1015;
0072832880999992010011911004-13267-043417FM-15+0443SBLP V0201801N002119999999Y0099001N1+02601+02001999999ADDMA1101591999999REMMET045METAR SBLP 191100Z 18004KT CAVOK 26/20 Q1016;
0072832880999992010011912004-13267-043417FM-15+0443SBLP V0201601N003119999999Y0099001N1+02801+02001999999ADDMA1101591999999REMMET045METAR SBLP 191200Z 16006KT CAVOK 28/20 Q1016;
0072832880999992010011913004-13267-043417FM-15+0443SBLP V0201801N003119999999Y0099001N1+03101+01901999999ADDMA1101591999999REMMET045METAR SBLP 191300Z 18006KT CAVOK 31/19 Q1016;
0120832880999992010011914004-13267-043417FM-15+0443SBLP V0209999C000012200019N0112651N1+03201+01901999999ADDGA1021+009001999GF102991999999999999999999MA1101491999999REMMET051METAR SBLP 191400Z 00000KT 9999 FEW030 32/19 Q1015;
0120832880999992010011915004-13267-043417FM-15+0443SBLP V0209999C000012200019N0112651N1+03301+01801999999ADDGA1021+009001999GF102991999999999999999999MA1101491999999REMMET051METAR SBLP 191500Z 00000KT 9999 FEW030 33/18 Q1015;
0120832880999992010011916004-13267-043417FM-15+0443SBLP V0202701N003112200019N0112651N1+03301+01801999999ADDGA1021+009001999GF102991999999999999999999MA1101391999999REMMET051METAR SBLP 191600Z 27006KT 9999 FEW030 33/18 Q1014;
0120832880999992010011917004-13267-043417FM-15+0443SBLP V0202201N003112200019N0112651N1+03501+01601999999ADDGA1021+009001999GF102991999999999999999999MA1101291999999REMMET051METAR SBLP 191700Z 22006KT 9999 FEW030 35/16 Q1013;
0120832880999992010011918004-13267-043417FM-15+0443SBLP V0202101N004112200019N0112651N1+03501+01501999999ADDGA1021+009001999GF102991999999999999999999MA1101191999999REMMET051METAR SBLP 191800Z 21008KT 9999 FEW030 35/15 Q1012;
0120832880999992010011919004-13267-043417FM-15+0443SBLP V0202701N001512200019N0112651N1+03501+01501999999ADDGA1021+009001999GF102991999999999999999999MA1101191999999REMMET051METAR SBLP 191900Z 27003KT 9999 FEW030 35/15 Q1012;
0131832880999992010011920004-13267-043417FM-15+0443SBLP V0202201N003112200019N0080001N1+03501+01501999999ADDGA1041+009001999GF104991999999999999999999MA1101081999999MW1161REMMET056METAR SBLP 192000Z 22006KT 8000 VCSH SCT030 35/15 Q1011;
0147832880999992010011921004-13267-043417FM-15+0443SBLP V0202901N002112200019N0112651N1+02801+02001999999ADDGA1021+009001091GA2041+009001999MA1101191999999MW1171REMMET063METAR SBLP 192100Z 29004KT 9999 TS SCT030 FEW030CB 28/20 Q1012;EQDQ01+000022SCOTCV
0072832880999992010012010004-13267-043417FM-15+0443SBLP V0209999C000019999999Y0099001N1+02501+02001999999ADDMA1101391999999REMMET045METAR SBLP 201000Z 00000KT CAVOK 25/20 Q1014;
0072832880999992010012011004-13267-043417FM-15+0443SBLP V0200901N005119999999Y0099001N1+02801+02001999999ADDMA1101391999999REMMET045METAR SBLP 201100Z 09010KT CAVOK 28/20 Q1014;
0072832880999992010012012004-13267-043417FM-15+0443SBLP V0200901N003119999999Y0099001N1+03001+01901999999ADDMA1101491999999REMMET045METAR SBLP 201200Z 09006KT CAVOK 30/19 Q1015;
0072832880999992010012013004-13267-043417FM-15+0443SBLP V0201001N003119999999Y0099001N1+03101+01901999999ADDMA1101491999999REMMET045METAR SBLP 201300Z 10006KT CAVOK 31/19 Q1015;
0072832880999992010012014004-13267-043417FM-15+0443SBLP V0201401N003119999999Y0099001N1+03301+01901999999ADDMA1101391999999REMMET045METAR SBLP 201400Z 14006KT CAVOK 33/19 Q1014;
0120832880999992010012015004-13267-043417FM-15+0443SBLP V0202101N001512200019N0112651N1+03301+01901999999ADDGA1021+009001999GF102991999999999999999999MA1101291999999REMMET051METAR SBLP 201500Z 21003KT 9999 FEW030 33/19 Q1013;
0120832880999992010012016004-13267-043417FM-15+0443SBLP V0201801N003112200019N0112651N1+03401+01801999999ADDGA1021+009001999GF102991999999999999999999MA1101191999999REMMET051METAR SBLP 201600Z 18006KT 9999 FEW030 34/18 Q1012;
0120832880999992010012017004-13267-043417FM-15+0443SBLP V0201801N003112200019N0112651N1+03501+01801999999ADDGA1041+009001999GF104991999999999999999999MA1101081999999REMMET051METAR SBLP 201700Z 18006KT 9999 SCT030 35/18 Q1011;
0120832880999992010012018004-13267-043417FM-15+0443SBLP V0201801N003112200019N0112651N1+03601+01801999999ADDGA1041+009001999GF104991999999999999999999MA1101021999999REMMET051METAR SBLP 201800Z 18006KT 9999 SCT030 36/18 Q1010;
0120832880999992010012019004-13267-043417FM-15+0443SBLP V0201801N003112200019N0112651N1+03501+01801999999ADDGA1021+009001999GF102991999999999999999999MA1101021999999REMMET051METAR SBLP 201900Z 18006KT 9999 FEW030 35/18 Q1010;
0120832880999992010012020004-13267-043417FM-15+0443SBLP V0201801N003112200019N0112651N1+03501+01801999999ADDGA1021+009001999GF102991999999999999999999MA1100911999999REMMET051METAR SBLP 202000Z 18006KT 9999 FEW030 35/18 Q1009;
0072832880999992010012021004-13267-043417FM-15+0443SBLP V0209999C000019999999Y0099001N1+03301+01801999999ADDMA1100911999999REMMET045METAR SBLP 202100Z 00000KT CAVOK 33/18 Q1009;
0072832880999992010012110004-13267-043417FM-15+0443SBLP V0209999C000019999999Y0099001N1+02501+01801999999ADDMA1101391999999REMMET045METAR SBLP 211000Z 00000KT CAVOK 25/18 Q1014;
0072832880999992010012111004-13267-043417FM-15+0443SBLP V0203601N001519999999Y0099001N1+02801+01801999999ADDMA1101491999999REMMET045METAR SBLP 211100Z 36003KT CAVOK 28/18 Q1015;
0072832880999992010012112004-13267-043417FM-15+0443SBLP V0203301N002119999999Y0099001N1+03001+02001999999ADDMA1101491999999REMMET045METAR SBLP 211200Z 33004KT CAVOK 30/20 Q1015;
0120832880999992010012113004-13267-043417FM-15+0443SBLP V0203301N002112200019N0112651N1+03201+02001999999ADDGA1021+009001999GF102991999999999999999999MA1101491999999REMMET051METAR SBLP 211300Z 33004KT 9999 FEW030 32/20 Q1015;
0120832880999992010012114004-13267-043417FM-15+0443SBLP V0209999C000012200019N0112651N1+03301+01901999999ADDGA1021+009001999GF102991999999999999999999MA1101491999999REMMET051METAR SBLP 211400Z 00000KT 9999 FEW030 33/19 Q1015;
0120832880999992010012115004-13267-043417FM-15+0443SBLP V0203001N002112200019N0112651N1+03301+01901999999ADDGA1021+009001999GF102991999999999999999999MA1101391999999REMMET051METAR SBLP 211500Z 30004KT 9999 FEW030 33/19 Q1014;
0120832880999992010012116004-13267-043417FM-15+0443SBLP V0202701N003112200019N0112651N1+03401+01901999999ADDGA1041+009001999GF104991999999999999999999MA1101291999999REMMET051METAR SBLP 211600Z 27006KT 9999 SCT030 34/19 Q1013;
0120832880999992010012117004-13267-043417FM-15+0443SBLP V0202701N003112200019N0112651N1+03501+01801999999ADDGA1041+009001999GF104991999999999999999999MA1101191999999REMMET051METAR SBLP 211700Z 27006KT 9999 SCT030 35/18 Q1012;
0120832880999992010012118004-13267-043417FM-15+0443SBLP V0202701N003112200019N0112651N1+03601+01801999999ADDGA1041+009001999GF104991999999999999999999MA1101081999999REMMET051METAR SBLP 211800Z 27006KT 9999 SCT030 36/18 Q1011;
0120832880999992010012119004-13267-043417FM-15+0443SBLP V0201801N003112200019N0112651N1+03601+01801999999ADDGA1041+009001999GF104991999999999999999999MA1101021999999REMMET051METAR SBLP 211900Z 18006KT 9999 SCT030 36/18 Q1010;
0120832880999992010012120004-13267-043417FM-15+0443SBLP V0209999C000012200019N0112651N1+03401+01901999999ADDGA1041+009001999GF104991999999999999999999MA1101021999999REMMET051METAR SBLP 212000Z 00000KT 9999 SCT030 34/19 Q1010;
0120832880999992010012121004-13267-043417FM-15+0443SBLP V0203601N003112200019N0112651N1+03201+01901999999ADDGA1041+009001999GF104991999999999999999999MA1101081999999REMMET051METAR SBLP 212100Z 36006KT 9999 SCT030 32/19 Q1011;
0072832880999992010012210004-13267-043417FM-15+0443SBLP V0209999C000019999999Y0099001N1+02501+02001999999ADDMA1101491999999REMMET045METAR SBLP 221000Z 00000KT CAVOK 25/20 Q1015;
0072832880999992010012211004-13267-043417FM-15+0443SBLP V0209999C000019999999Y0099001N1+02801+02001999999ADDMA1101491999999REMMET045METAR SBLP 221100Z 00000KT CAVOK 28/20 Q1015;
0072832880999992010012212004-13267-043417FM-15+0443SBLP V0209999C000019999999Y0099001N1+03001+02001999999ADDMA1101491999999REMMET045METAR SBLP 221200Z 00000KT CAVOK 30/20 Q1015;
0072832880999992010012213004-13267-043417FM-15+0443SBLP V0209999C000019999999Y0099001N1+03201+01901999999ADDMA1101491999999REMMET045METAR SBLP 221300Z 00000KT CAVOK 32/19 Q1015;
0120832880999992010012214004-13267-043417FM-15+0443SBLP V0209999C000012200019N0112651N1+03301+01801999999ADDGA1021+009001999GF102991999999999999999999MA1101491999999REMMET051METAR SBLP 221400Z 00000KT 9999 FEW030 33/18 Q1015;
0120832880999992010012215004-13267-043417FM-15+0443SBLP V0209999C000012200019N0112651N1+03301+01801999999ADDGA1021+009001999GF102991999999999999999999MA1101391999999REMMET051METAR SBLP 221500Z 00000KT 9999 FEW030 33/18 Q1014;
0120832880999992010012216004-13267-043417FM-15+0443SBLP V0202401N003112200019N0112651N1+03401+01901999999ADDGA1041+009001999GF104991999999999999999999MA1101291999999REMMET051METAR SBLP 221600Z 24006KT 9999 SCT030 34/19 Q1013;
0120832880999992010012217004-13267-043417FM-15+0443SBLP V0202701N003112200019N0112651N1+03501+01801999999ADDGA1041+009001999GF104991999999999999999999MA1101191999999REMMET051METAR SBLP 221700Z 27006KT 9999 SCT030 35/18 Q1012;
0120832880999992010012218004-13267-043417FM-15+0443SBLP V0202101N003112200019N0112651N1+03701+01801999999ADDGA1041+009001999GF104991999999999999999999MA1101021999999REMMET051METAR SBLP 221800Z 21006KT 9999 SCT030 37/18 Q1010;
0120832880999992010012219004-13267-043417FM-15+0443SBLP V0209999C000012200019N0112651N1+03401+01901999999ADDGA1021+009001999GF102991999999999999999999MA1101021999999REMMET051METAR SBLP 221900Z 00000KT 9999 FEW030 34/19 Q1010;
0143832880999992010012220004-13267-043417FM-15+0443SBLP V0201801N003110900019N0112651N1+03401+02001999999ADDGA1021+009001999GA2071+090001999GF107991999999999999999999MA1100911999999REMMET058METAR SBLP 222000Z 18006KT 9999 FEW030 BKN300 34/20 Q1009;
0072832880999992010012221004-13267-043417FM-15+0443SBLP V0201801N003119999999Y0099001N1+03201+01901999999ADDMA1101021999999REMMET045METAR SBLP 222100Z 18006KT CAVOK 32/19 Q1010;
0072832880999992010012310004-13267-043417FM-15+0443SBLP V0209999C000019999999Y0099001N1+02601+02101999999ADDMA1101491999999REMMET045METAR SBLP 231000Z 00000KT CAVOK 26/21 Q1015;
0072832880999992010012311004-13267-043417FM-15+0443SBLP V0209999C000019999999Y0099001N1+02701+02101999999ADDMA1101491999999REMMET045METAR SBLP 231100Z 00000KT CAVOK 27/21 Q1015;
0120832880999992010012312004-13267-043417FM-15+0443SBLP V0209999C000012200019N0112651N1+02901+02101999999ADDGA1021+009001999GF102991999999999999999999MA1101491999999REMMET051METAR SBLP 231200Z 00000KT 9999 FEW030 29/21 Q1015;
0120832880999992010012313004-13267-043417FM-15+0443SBLP V0209999C000012200019N0112651N1+03101+02101999999ADDGA1021+009001999GF102991999999999999999999MA1101491999999REMMET051METAR SBLP 231300Z 00000KT 9999 FEW030 31/21 Q1015;
0120832880999992010012314004-13267-043417FM-15+0443SBLP V0201501N003112200019N0112651N1+03201+02101999999ADDGA1041+009001999GF104991999999999999999999MA1101391999999REMMET051METAR SBLP 231400Z 15006KT 9999 SCT030 32/21 Q1014;
0120832880999992010012315004-13267-043417FM-15+0443SBLP V0209999C000012200019N0112651N1+03301+02101999999ADDGA1041+009001999GF104991999999999999999999MA1101291999999REMMET051METAR SBLP 231500Z 00000KT 9999 SCT030 33/21 Q1013;
0143832880999992010012316004-13267-043417FM-15+0443SBLP V0201801N002112200019N0112651N1+03401+01901999999ADDGA1041+009001999GA2041+030001999GF104991999999999999999999MA1101191999999REMMET058METAR SBLP 231600Z 18004KT 9999 SCT030 SCT100 34/19 Q1012;
0143832880999992010012317004-13267-043417FM-15+0443SBLP V0202701N004112200019N0112651N1+03501+01901999999ADDGA1041+009001999GA2041+030001999GF104991999999999999999999MA1101081999999REMMET058METAR SBLP 231700Z 27008KT 9999 SCT030 SCT100 35/19 Q1011;
0143832880999992010012318004-13267-043417FM-15+0443SBLP V0202201N002112200019N0112651N1+03501+01901999999ADDGA1041+009001999GA2041+030001999GF104991999999999999999999MA1101021999999REMMET058METAR SBLP 231800Z 22004KT 9999 SCT030 SCT100 35/19 Q1010;
0120832880999992010012319004-13267-043417FM-15+0443SBLP V0202101N004112200019N0112651N1+03501+01901999999ADDGA1041+009001999GF104991999999999999999999MA1100911999999REMMET051METAR SBLP 231900Z 21008KT 9999 SCT030 35/19 Q1009;
0120832880999992010012320004-13267-043417FM-15+0443SBLP V0201801N003112200019N0112651N1+03301+02001999999ADDGA1021+009001999GF102991999999999999999999MA1100911999999REMMET051METAR SBLP 232000Z 18006KT 9999 FEW030 33/20 Q1009;
0120832880999992010012321004-13267-043417FM-15+0443SBLP V0209999C000012200019N0112651N1+03001+02201999999ADDGA1021+009001999GF102991999999999999999999MA1101021999999REMMET051METAR SBLP 232100Z 00000KT 9999 FEW030 30/22 Q1010;
0072832880999992010012410004-13267-043417FM-15+0443SBLP V0202601N003119999999Y0099001N1+02501+02001999999ADDMA1101291999999REMMET045METAR SBLP 241000Z 26006KT CAVOK 25/20 Q1013;
0072832880999992010012411004-13267-043417FM-15+0443SBLP V0201801N003119999999Y0099001N1+02701+02101999999ADDMA1101391999999REMMET045METAR SBLP 241100Z 18006KT CAVOK 27/21 Q1014;
0072832880999992010012412004-13267-043417FM-15+0443SBLP V0209999C000019999999Y0099001N1+03001+02001999999ADDMA1101391999999REMMET045METAR SBLP 241200Z 00000KT CAVOK 30/20 Q1014;
0120832880999992010012413004-13267-043417FM-15+0443SBLP V0200601N003112200019N0112651N1+03201+02001999999ADDGA1021+009001999GF102991999999999999999999MA1101391999999REMMET051METAR SBLP 241300Z 06006KT 9999 FEW030 32/20 Q1014;
0120832880999992010012414004-13267-043417FM-15+0443SBLP V0200601N003112200019N0112651N1+03401+01901999999ADDGA1021+009001999GF102991999999999999999999MA1101291999999REMMET051METAR SBLP 241400Z 06006KT 9999 FEW030 34/19 Q1013;
0120832880999992010012415004-13267-043417FM-15+0443SBLP V0209999C000012200019N0112651N1+03401+01901999999ADDGA1041+009001999GF104991999999999999999999MA1101191999999REMMET051METAR SBLP 241500Z 00000KT 9999 SCT030 34/19 Q1012;
0120832880999992010012416004-13267-043417FM-15+0443SBLP V0202101N004112200019N0112651N1+03501+02101999999ADDGA1041+009001999GF104991999999999999999999MA1101081999999REMMET051METAR SBLP 241600Z 21008KT 9999 SCT030 35/21 Q1011;
0120832880999992010012417004-13267-043417FM-15+0443SBLP V0203301N002112200019N0112651N1+03501+02001999999ADDGA1041+009001999GF104991999999999999999999MA1101021999999REMMET051METAR SBLP 241700Z 33004KT 9999 SCT030 35/20 Q1010;
0120832880999992010012418004-13267-043417FM-15+0443SBLP V0202301N004112200019N0112651N1+03601+02001999999ADDGA1041+009001999GF104991999999999999999999MA1100911999999REMMET051METAR SBLP 241800Z 23008KT 9999 SCT030 36/20 Q1009;
0156832880999992010012419004-13267-043417FM-15+0443SBLP V0200601N004112200019N0112651N1+03001+02201999999ADDGA1021+009001091GA2041+009001999MA1100911999999MW1801MW2951REMMET066METAR SBLP 241900Z 06008KT 9999 -TSRA SCT030 FEW030CB 30/22 Q1009;EQDQ01+000022SCOTCV
0152832880999992010012420004-13267-043417FM-15+0443SBLP V0209999C000012200019N0112651N1+02801+02001999999ADDGA1021+009001091GA2041+009001999MA1100911999999MW1171REMMET068METAR SBLP 242000Z 00000KT 9999 TS SCT030 FEW030CB 28/20 Q1009 RERA;EQDQ01+000022SCOTCV
0139832880999992010012421004-13267-043417FM-15+0443SBLP V0202301N004112200019N0112651N1+03602+02001999999ADDGA1041+009001999GF104991999999999999999999MA1100911999999REMMET051METAR SBLP 242100Z 23008KT 9999 SCT030 36/20 Q1009;EQDQ01+003603ATOT  
0072832880999992010012510004-13267-043417FM-15+0443SBLP V0209999C000019999999Y0099001N1+02501+02201999999ADDMA1101291999999REMMET045METAR SBLP 251000Z 00000KT CAVOK 25/22 Q1013;
0072832880999992010012511004-13267-043417FM-15+0443SBLP V0200901N001519999999Y0099001N1+02801+02101999999ADDMA1101391999999REMMET045METAR SBLP 251100Z 09003KT CAVOK 28/21 Q1014;
0072832880999992010012512004-13267-043417FM-15+0443SBLP V0200901N004119999999Y0099001N1+03001+01901999999ADDMA1101391999999REMMET045METAR SBLP 251200Z 09008KT CAVOK 30/19 Q1014;
0120832880999992010012513004-13267-043417FM-15+0443SBLP V0201201N002112200019N0112651N1+03201+01901999999ADDGA1021+009001999GF102991999999999999999999MA1101391999999REMMET051METAR SBLP 251300Z 12004KT 9999 FEW030 32/19 Q1014;
0120832880999992010012514004-13267-043417FM-15+0443SBLP V0209999C000012200019N0112651N1+03201+01901999999ADDGA1021+009001999GF102991999999999999999999MA1101391999999REMMET051METAR SBLP 251400Z 00000KT 9999 FEW030 32/19 Q1014;
0120832880999992010012515004-13267-043417FM-15+0443SBLP V0201201N003112200019N0112651N1+03401+01901999999ADDGA1041+009001999GF104991999999999999999999MA1101291999999REMMET051METAR SBLP 251500Z 12006KT 9999 SCT030 34/19 Q1013;
0120832880999992010012516004-13267-043417FM-15+0443SBLP V0200901N003112200019N0112651N1+03401+01801999999ADDGA1041+009001999GF104991999999999999999999MA1101191999999REMMET051METAR SBLP 251600Z 09006KT 9999 SCT030 34/18 Q1012;
0120832880999992010012517004-13267-043417FM-15+0443SBLP V0201801N003112200019N0112651N1+03601+01801999999ADDGA1041+009001999GF104991999999999999999999MA1101081999999REMMET051METAR SBLP 251700Z 18006KT 9999 SCT030 36/18 Q1011;
0120832880999992010012518004-13267-043417FM-15+0443SBLP V0201801N003112200019N0112651N1+03601+01801999999ADDGA1041+009001999GF104991999999999999999999MA1100911999999REMMET051METAR SBLP 251800Z 18006KT 9999 SCT030 36/18 Q1009;
0120832880999992010012519004-13267-043417FM-15+0443SBLP V0209999C000012200019N0112651N1+03701+01801999999ADDGA1041+009001999GF104991999999999999999999MA1100911999999REMMET051METAR SBLP 251900Z 00000KT 9999 SCT030 37/18 Q1009;
0120832880999992010012520004-13267-043417FM-15+0443SBLP V0209999C000012200019N0112651N1+03601+01801999999ADDGA1041+009001999GF104991999999999999999999MA1100911999999REMMET051METAR SBLP 252000Z 00000KT 9999 SCT030 36/18 Q1009;
0120832880999992010012521004-13267-043417FM-15+0443SBLP V0209999C000012200019N0112651N1+03401+01801999999ADDGA1041+009001999GF104991999999999999999999MA1100911999999REMMET051METAR SBLP 252100Z 00000KT 9999 SCT030 34/18 Q1009;
0072832880999992010012610004-13267-043417FM-15+0443SBLP V0200501N002119999999Y0099001N1+02401+02101999999ADDMA1101291999999REMMET045METAR SBLP 261000Z 05004KT CAVOK 24/21 Q1013;
0072832880999992010012611004-13267-043417FM-15+0443SBLP V0209999C000019999999Y0099001N1+02801+02001999999ADDMA1101291999999REMMET045METAR SBLP 261100Z 00000KT CAVOK 28/20 Q1013;
0072832880999992010012612004-13267-043417FM-15+0443SBLP V0200801N001519999999Y0099001N1+03001+01801999999ADDMA1101391999999REMMET045METAR SBLP 261200Z 08003KT CAVOK 30/18 Q1014;
0072832880999992010012613004-13267-043417FM-15+0443SBLP V0200301N003119999999Y0099001N1+03201+01701999999ADDMA1101391999999REMMET045METAR SBLP 261300Z 03006KT CAVOK 32/17 Q1014;
0120832880999992010012614004-13267-043417FM-15+0443SBLP V0201501N002112200019N0112651N1+03301+01701999999ADDGA1021+009001999GF102991999999999999999999MA1101291999999REMMET051METAR SBLP 261400Z 15004KT 9999 FEW030 33/17 Q1013;
0120832880999992010012616004-13267-043417FM-15+0443SBLP V0201801N003112200019N0112651N1+03501+01701999999ADDGA1041+009001999GF104991999999999999999999MA1101081999999REMMET051METAR SBLP 261600Z 18006KT 9999 SCT030 35/17 Q1011;
0120832880999992010012617004-13267-043417FM-15+0443SBLP V0201801N003112200019N0112651N1+03601+01601999999ADDGA1041+009001999GF104991999999999999999999MA1101021999999REMMET051METAR SBLP 261700Z 18006KT 9999 SCT030 36/16 Q1010;
0120832880999992010012618004-13267-043417FM-15+0443SBLP V0200901N003112200019N0112651N1+03701+01601999999ADDGA1041+009001999GF104991999999999999999999MA1100911999999REMMET051METAR SBLP 261800Z 09006KT 9999 SCT030 37/16 Q1009;
0120832880999992010012619004-13267-043417FM-15+0443SBLP V0200901N003112200019N0112651N1+03601+01701999999ADDGA1041+009001999GF104991999999999999999999MA1100811999999REMMET051METAR SBLP 261900Z 09006KT 9999 SCT030 36/17 Q1008;
0120832880999992010012620004-13267-043417FM-15+0443SBLP V0200901N003112200019N0112651N1+03501+01701999999ADDGA1021+009001999GF102991999999999999999999MA1100811999999REMMET051METAR SBLP 262000Z 09006KT 9999 FEW030 35/17 Q1008;
0120832880999992010012621004-13267-043417FM-15+0443SBLP V0200901N003112200019N0112651N1+03301+01801999999ADDGA1021+009001999GF102991999999999999999999MA1100811999999REMMET051METAR SBLP 262100Z 09006KT 9999 FEW030 33/18 Q1008;
0072832880999992010012710004-13267-043417FM-15+0443SBLP V0209999C000019999999Y0099001N1+02501+02101999999ADDMA1101291999999REMMET045METAR SBLP 271000Z 00000KT CAVOK 25/21 Q1013;
0072832880999992010012711004-13267-043417FM-15+0443SBLP V0209999C000019999999Y0099001N1+02701+02101999999ADDMA1101391999999REMMET045METAR SBLP 271100Z 00000KT CAVOK 27/21 Q1014;
0120832880999992010012712004-13267-043417FM-15+0443SBLP V0209999C000012200019N0112651N1+02901+02001999999ADDGA1021+009001999GF102991999999999999999999MA1101391999999REMMET051METAR SBLP 271200Z 00000KT 9999 FEW030 29/20 Q1014;
0120832880999992010012713004-13267-043417FM-15+0443SBLP V0209999C000012200019N0112651N1+03101+01901999999ADDGA1021+009001999GF102991999999999999999999MA1101391999999REMMET051METAR SBLP 271300Z 00000KT 9999 FEW030 31/19 Q1014;
0120832880999992010012714004-13267-043417FM-15+0443SBLP V0209999C000012200019N0112651N1+03201+01901999999ADDGA1041+009001999GF104991999999999999999999MA1101291999999REMMET051METAR SBLP 271400Z 00000KT 9999 SCT030 32/19 Q1013;
0120832880999992010012715004-13267-043417FM-15+0443SBLP V0202701N003112200019N0112651N1+03301+01901999999ADDGA1041+009001999GF104991999999999999999999MA1101191999999REMMET051METAR SBLP 271500Z 27006KT 9999 SCT030 33/19 Q1012;
0120832880999992010012716004-13267-043417FM-15+0443SBLP V0203001N002112200019N0112651N1+03301+02001999999ADDGA1041+009001999GF104991999999999999999999MA1101081999999REMMET051METAR SBLP 271600Z 30004KT 9999 SCT030 33/20 Q1011;
0120832880999992010012717004-13267-043417FM-15+0443SBLP V0202701N003112200019N0112651N1+03401+01901999999ADDGA1041+009001999GF104991999999999999999999MA1101021999999REMMET051METAR SBLP 271700Z 27006KT 9999 SCT030 34/19 Q1010;
0120832880999992010012718004-13267-043417FM-15+0443SBLP V0202701N003112200019N0112651N1+03501+01901999999ADDGA1041+009001999GF104991999999999999999999MA1100911999999REMMET051METAR SBLP 271800Z 27006KT 9999 SCT030 35/19 Q1009;
0120832880999992010012719004-13267-043417FM-15+0443SBLP V0203301N002112200019N0112651N1+03501+01901999999ADDGA1021+009001999GF102991999999999999999999MA1100811999999REMMET051METAR SBLP 271900Z 33004KT 9999 FEW030 35/19 Q1008;
0120832880999992010012720004-13267-043417FM-15+0443SBLP V0209999C000012200019N0112651N1+03501+01901999999ADDGA1021+009001999GF102991999999999999999999MA1100811999999REMMET051METAR SBLP 272000Z 00000KT 9999 FEW030 35/19 Q1008;
0120832880999992010012721004-13267-043417FM-15+0443SBLP V0209999C000012200019N0112651N1+03501+01901999999ADDGA1021+009001999GF102991999999999999999999MA1100811999999REMMET051METAR SBLP 272100Z 00000KT 9999 FEW030 35/19 Q1008;
0072832880999992010012810004-13267-043417FM-15+0443SBLP V0203601N003119999999Y0099001N1+02501+02101999999ADDMA1101291999999REMMET045METAR SBLP 281000Z 36006KT CAVOK 25/21 Q1013;
0072832880999992010012811004-13267-043417FM-15+0443SBLP V0203601N003119999999Y0099001N1+02701+02101999999ADDMA1101491999999REMMET045METAR SBLP 281100Z 36006KT CAVOK 27/21 Q1015;
0120832880999992010012812004-13267-043417FM-15+0443SBLP V0203601N003112200019N0112651N1+02901+02001999999ADDGA1021+009001999GF102991999999999999999999MA1101491999999REMMET051METAR SBLP 281200Z 36006KT 9999 FEW030 29/20 Q1015;
0120832880999992010012813004-13267-043417FM-15+0443SBLP V0203601N003112200019N0112651N1+03101+02001999999ADDGA1021+009001999GF102991999999999999999999MA1101391999999REMMET051METAR SBLP 281300Z 36006KT 9999 FEW030 31/20 Q1014;
0120832880999992010012814004-13267-043417FM-15+0443SBLP V0203601N003112200019N0112651N1+03301+01901999999ADDGA1041+009001999GF104991999999999999999999MA1101391999999REMMET051METAR SBLP 281400Z 36006KT 9999 SCT030 33/19 Q1014;
0120832880999992010012815004-13267-043417FM-15+0443SBLP V0200901N003112200019N0112651N1+03301+01901999999ADDGA1041+009001999GF104991999999999999999999MA1101291999999REMMET051METAR SBLP 281500Z 09006KT 9999 SCT030 33/19 Q1013;
0120832880999992010012816004-13267-043417FM-15+0443SBLP V0209999C000012200019N0112651N1+03401+01901999999ADDGA1041+009001999GF104991999999999999999999MA1101191999999REMMET051METAR SBLP 281600Z 00000KT 9999 SCT030 34/19 Q1012;
0120832880999992010012817004-13267-043417FM-15+0443SBLP V0209999C000012200019N0112651N1+03501+01901999999ADDGA1041+009001999GF104991999999999999999999MA1101081999999REMMET051METAR SBLP 281700Z 00000KT 9999 SCT030 35/19 Q1011;
0120832880999992010012818004-13267-043417FM-15+0443SBLP V0202701N003112200019N0112651N1+03501+01901999999ADDGA1041+009001999GF104991999999999999999999MA1100911999999REMMET051METAR SBLP 281800Z 27006KT 9999 SCT030 35/19 Q1009;
0120832880999992010012819004-13267-043417FM-15+0443SBLP V0203001N002112200019N0112651N1+03601+01901999999ADDGA1021+009001999GF102991999999999999999999MA1100811999999REMMET051METAR SBLP 281900Z 30004KT 9999 FEW030 36/19 Q1008;
0120832880999992010012820004-13267-043417FM-15+0443SBLP V0201801N003112200019N0112651N1+03501+01901999999ADDGA1021+009001999GF102991999999999999999999MA1100811999999REMMET051METAR SBLP 282000Z 18006KT 9999 FEW030 35/19 Q1008;
0120832880999992010012821004-13267-043417FM-15+0443SBLP V0201801N003112200019N0112651N1+03501+01901999999ADDGA1021+009001999GF102991999999999999999999MA1100811999999REMMET051METAR SBLP 282100Z 18006KT 9999 FEW030 35/19 Q1008;
0072832880999992010012910004-13267-043417FM-15+0443SBLP V0209999C000019999999Y0099001N1+02501+01801999999ADDMA1101291999999REMMET045METAR SBLP 291000Z 00000KT CAVOK 25/18 Q1013;
0072832880999992010012911004-13267-043417FM-15+0443SBLP V0201201N003119999999Y0099001N1+02901+01701999999ADDMA1101391999999REMMET045METAR SBLP 291100Z 12006KT CAVOK 29/17 Q1014;
0072832880999992010012912004-13267-043417FM-15+0443SBLP V0209999C000019999999Y0099001N1+03001+01801999999ADDMA1101391999999REMMET045METAR SBLP 291200Z 00000KT CAVOK 30/18 Q1014;
0072832880999992010012913004-13267-043417FM-15+0443SBLP V0200801N003119999999Y0099001N1+03201+01701999999ADDMA1101391999999REMMET045METAR SBLP 291300Z 08006KT CAVOK 32/17 Q1014;
0072832880999992010012914004-13267-043417FM-15+0443SBLP V0200601N003119999999Y0099001N1+03301+01801999999ADDMA1101391999999REMMET045METAR SBLP 291400Z 06006KT CAVOK 33/18 Q1014;
0072832880999992010012915004-13267-043417FM-15+0443SBLP V0209999C000019999999Y0099001N1+03401+01801999999ADDMA1101291999999REMMET045METAR SBLP 291500Z 00000KT CAVOK 34/18 Q1013;
0120832880999992010012916004-13267-043417FM-15+0443SBLP V0203301N003112200019N0112651N1+03501+01501999999ADDGA1021+009001999GF102991999999999999999999MA1101191999999REMMET051METAR SBLP 291600Z 33006KT 9999 FEW030 35/15 Q1012;
0120832880999992010012917004-13267-043417FM-15+0443SBLP V0200901N002112200019N0112651N1+03601+01501999999ADDGA1021+009001999GF102991999999999999999999MA1101081999999REMMET051METAR SBLP 291700Z 09004KT 9999 FEW030 36/15 Q1011;
0120832880999992010012918004-13267-043417FM-15+0443SBLP V0202701N003112200019N0112651N1+03701+01501999999ADDGA1021+009001999GF102991999999999999999999MA1101021999999REMMET051METAR SBLP 291800Z 27006KT 9999 FEW030 37/15 Q1010;
0120832880999992010012919004-13267-043417FM-15+0443SBLP V0201801N001512200019N0112651N1+03701+01701999999ADDGA1041+009001999GF104991999999999999999999MA1100911999999REMMET051METAR SBLP 291900Z 18003KT 9999 SCT030 37/17 Q1009;
0120832880999992010012920004-13267-043417FM-15+0443SBLP V0202701N002112200019N0112651N1+03701+01801999999ADDGA1021+009001999GF102991999999999999999999MA1100911999999REMMET051METAR SBLP 292000Z 27004KT 9999 FEW030 37/18 Q1009;
0120832880999992010012921004-13267-043417FM-15+0443SBLP V0202701N003112200019N0112651N1+03501+01701999999ADDGA1021+009001999GF102991999999999999999999MA1100911999999REMMET051METAR SBLP 292100Z 27006KT 9999 FEW030 35/17 Q1009;
0072832880999992010013010004-13267-043417FM-15+0443SBLP V0201701N002119999999Y0099001N1+02501+01801999999ADDMA1101391999999REMMET045METAR SBLP 301000Z 17004KT CAVOK 25/18 Q1014;
0072832880999992010013011004-13267-043417FM-15+0443SBLP V0201901N002119999999Y0099001N1+02701+01801999999ADDMA1101491999999REMMET045METAR SBLP 301100Z 19004KT CAVOK 27/18 Q1015;
0072832880999992010013012004-13267-043417FM-15+0443SBLP V0202801N003119999999Y0099001N1+02901+01901999999ADDMA1101491999999REMMET045METAR SBLP 301200Z 28006KT CAVOK 29/19 Q1015;
0072832880999992010013013004-13267-043417FM-15+0443SBLP V0201901N003119999999Y0099001N1+03001+02001999999ADDMA1101491999999REMMET045METAR SBLP 301300Z 19006KT CAVOK 30/20 Q1015;
0072832880999992010013014004-13267-043417FM-15+0443SBLP V0202401N001519999999Y0099001N1+03201+01901999999ADDMA1101391999999REMMET045METAR SBLP 301400Z 24003KT CAVOK 32/19 Q1014;
0072832880999992010013015004-13267-043417FM-15+0443SBLP V0201501N003119999999Y0099001N1+03301+01801999999ADDMA1101291999999REMMET045METAR SBLP 301500Z 15006KT CAVOK 33/18 Q1013;
0072832880999992010013016004-13267-043417FM-15+0443SBLP V0200901N003119999999Y0099001N1+03501+01701999999ADDMA1101191999999REMMET045METAR SBLP 301600Z 09006KT CAVOK 35/17 Q1012;
0072832880999992010013017004-13267-043417FM-15+0443SBLP V0200901N003119999999Y0099001N1+03701+01601999999ADDMA1101081999999REMMET045METAR SBLP 301700Z 09006KT CAVOK 37/16 Q1011;
0072832880999992010013018004-13267-043417FM-15+0443SBLP V0209999C000019999999Y0099001N1+03801+01601999999ADDMA1101021999999REMMET045METAR SBLP 301800Z 00000KT CAVOK 38/16 Q1010;
0072832880999992010013019004-13267-043417FM-15+0443SBLP V0209999C000019999999Y0099001N1+03801+01601999999ADDMA1101021999999REMMET045METAR SBLP 301900Z 00000KT CAVOK 38/16 Q1010;
0072832880999992010013020004-13267-043417FM-15+0443SBLP V0209999C000019999999Y0099001N1+03701+01601999999ADDMA1101021999999REMMET045METAR SBLP 302000Z 00000KT CAVOK 37/16 Q1010;
0072832880999992010013021004-13267-043417FM-15+0443SBLP V0209999C000019999999Y0099001N1+03601+01601999999ADDMA1101021999999REMMET045METAR SBLP 302100Z 00000KT CAVOK 36/16 Q1010;
0072832880999992010013110004-13267-043417FM-15+0443SBLP V0209999C000019999999Y0099001N1+02501+02001999999ADDMA1101491999999REMMET045METAR SBLP 311000Z 00000KT CAVOK 25/20 Q1015;
0072832880999992010013111004-13267-043417FM-15+0443SBLP V0209999C000019999999Y0099001N1+02701+02001999999ADDMA1101591999999REMMET045METAR SBLP 311100Z 00000KT CAVOK 27/20 Q1016;
0072832880999992010013112004-13267-043417FM-15+0443SBLP V0209999C000019999999Y0099001N1+02901+02001999999ADDMA1101591999999REMMET045METAR SBLP 311200Z 00000KT CAVOK 29/20 Q1016;
0072832880999992010013113004-13267-043417FM-15+0443SBLP V0209999C000019999999Y0099001N1+03101+01901999999ADDMA1101591999999REMMET045METAR SBLP 311300Z 00000KT CAVOK 31/19 Q1016;
0072832880999992010013114004-13267-043417FM-15+0443SBLP V0209999C000019999999Y0099001N1+03201+01801999999ADDMA1101491999999REMMET045METAR SBLP 311400Z 00000KT CAVOK 32/18 Q1015;
0072832880999992010013115004-13267-043417FM-15+0443SBLP V0201801N003119999999Y0099001N1+03301+01801999999ADDMA1101491999999REMMET045METAR SBLP 311500Z 18006KT CAVOK 33/18 Q1015;
0072832880999992010013116004-13267-043417FM-15+0443SBLP V0201201N003119999999Y0099001N1+03501+01701999999ADDMA1101391999999REMMET045METAR SBLP 311600Z 12006KT CAVOK 35/17 Q1014;
0072832880999992010013117004-13267-043417FM-15+0443SBLP V0202701N003119999999Y0099001N1+03501+01801999999ADDMA1101191999999REMMET045METAR SBLP 311700Z 27006KT CAVOK 35/18 Q1012;
0072832880999992010013118004-13267-043417FM-15+0443SBLP V0202101N003119999999Y0099001N1+03601+01701999999ADDMA1101191999999REMMET045METAR SBLP 311800Z 21006KT CAVOK 36/17 Q1012;
0072832880999992010013119004-13267-043417FM-15+0443SBLP V0202101N003119999999Y0099001N1+03601+01701999999ADDMA1101081999999REMMET045METAR SBLP 311900Z 21006KT CAVOK 36/17 Q1011;
0072832880999992010013120004-13267-043417FM-15+0443SBLP V0202101N003119999999Y0099001N1+03501+01701999999ADDMA1101081999999REMMET045METAR SBLP 312000Z 21006KT CAVOK 35/17 Q1011;
0072832880999992010013121004-13267-043417FM-15+0443SBLP V0201601N003119999999Y0099001N1+03401+01801999999ADDMA1101081999999REMMET045METAR SBLP 312100Z 16006KT CAVOK 34/18 Q1011;
0072832880999992010020110004-13267-043417FM-15+0443SBLP V0209999C000019999999Y0099001N1+02601+01901999999ADDMA1101591999999REMMET045METAR SBLP 011000Z 00000KT CAVOK 26/19 Q1016;
0072832880999992010020111004-13267-043417FM-15+0443SBLP V0209999C000019999999Y0099001N1+02801+01901999999ADDMA1101691999999REMMET045METAR SBLP 011100Z 00000KT CAVOK 28/19 Q1017;
0072832880999992010020112004-13267-043417FM-15+0443SBLP V0209999C000019999999Y0099001N1+03001+01901999999ADDMA1101691999999REMMET045METAR SBLP 011200Z 00000KT CAVOK 30/19 Q1017;
0072832880999992010020113004-13267-043417FM-15+0443SBLP V0209999C000019999999Y0099001N1+03101+01801999999ADDMA1101691999999REMMET045METAR SBLP 011300Z 00000KT CAVOK 31/18 Q1017;
0072832880999992010020114004-13267-043417FM-15+0443SBLP V0200901N003119999999Y0099001N1+03301+01801999999ADDMA1101591999999REMMET045METAR SBLP 011400Z 09006KT CAVOK 33/18 Q1016;
0072832880999992010020115004-13267-043417FM-15+0443SBLP V0200901N003119999999Y0099001N1+03301+01801999999ADDMA1101491999999REMMET045METAR SBLP 011500Z 09006KT CAVOK 33/18 Q1015;
0072832880999992010020116004-13267-043417FM-15+0443SBLP V0201201N003119999999Y0099001N1+03501+01701999999ADDMA1101391999999REMMET045METAR SBLP 011600Z 12006KT CAVOK 35/17 Q1014;
0072832880999992010020117004-13267-043417FM-15+0443SBLP V0202401N003119999999Y0099001N1+03501+01701999999ADDMA1101291999999REMMET045METAR SBLP 011700Z 24006KT CAVOK 35/17 Q1013;
0072832880999992010020118004-13267-043417FM-15+0443SBLP V0202101N003119999999Y0099001N1+03601+01701999999ADDMA1101291999999REMMET045METAR SBLP 011800Z 21006KT CAVOK 36/17 Q1013;
0072832880999992010020119004-13267-043417FM-15+0443SBLP V0202101N003119999999Y0099001N1+03501+01801999999ADDMA1101191999999REMMET045METAR SBLP 011900Z 21006KT CAVOK 35/18 Q1012;
0072832880999992010020120004-13267-043417FM-15+0443SBLP V0202401N003119999999Y0099001N1+03501+01901999999ADDMA1101191999999REMMET045METAR SBLP 012000Z 24006KT CAVOK 35/19 Q1012;
0072832880999992010020121004-13267-043417FM-15+0443SBLP V0209999C000019999999Y0099001N1+03401+02001999999ADDMA1101191999999REMMET045METAR SBLP 012100Z 00000KT CAVOK 34/20 Q1012;
0072832880999992010020210004-13267-043417FM-15+0443SBLP V0209999C000019999999Y0099001N1+02501+01801999999ADDMA1101591999999REMMET045METAR SBLP 021000Z 00000KT CAVOK 25/18 Q1016;
0072832880999992010020211004-13267-043417FM-15+0443SBLP V0209999C000019999999Y0099001N1+02801+02001999999ADDMA1101591999999REMMET045METAR SBLP 021100Z 00000KT CAVOK 28/20 Q1016;
0120832880999992010020212004-13267-043417FM-15+0443SBLP V0209999C000012200019N0112651N1+03001+02001999999ADDGA1021+009001999GF102991999999999999999999MA1101691999999REMMET051METAR SBLP 021200Z 00000KT 9999 FEW030 30/20 Q1017;
0120832880999992010020213004-13267-043417FM-15+0443SBLP V0200601N002112200019N0112651N1+03201+02001999999ADDGA1021+009001999GF102991999999999999999999MA1101591999999REMMET051METAR SBLP 021300Z 06004KT 9999 FEW030 32/20 Q1016;
0120832880999992010020214004-13267-043417FM-15+0443SBLP V0201201N003112200019N0112651N1+03301+02001999999ADDGA1041+009001999GF104991999999999999999999MA1101591999999REMMET051METAR SBLP 021400Z 12006KT 9999 SCT030 33/20 Q1016;
0120832880999992010020215004-13267-043417FM-15+0443SBLP V0202101N003112200019N0112651N1+03401+02001999999ADDGA1041+009001999GF104991999999999999999999MA1101491999999REMMET051METAR SBLP 021500Z 21006KT 9999 SCT030 34/20 Q1015;
0120832880999992010020216004-13267-043417FM-15+0443SBLP V0202101N002112200019N0112651N1+03501+02001999999ADDGA1041+009001999GF104991999999999999999999MA1101391999999REMMET051METAR SBLP 021600Z 21004KT 9999 SCT030 35/20 Q1014;
0120832880999992010020217004-13267-043417FM-15+0443SBLP V0201801N004112200019N0112651N1+03701+02001999999ADDGA1021+009001999GF102991999999999999999999MA1101191999999REMMET051METAR SBLP 021700Z 18008KT 9999 FEW030 37/20 Q1012;
0072832880999992010020218004-13267-043417FM-15+0443SBLP V0201201N004119999999Y0099001N1+03701+01501999999ADDMA1101081999999REMMET045METAR SBLP 021800Z 12008KT CAVOK 37/15 Q1011;
0072832880999992010020219004-13267-043417FM-15+0443SBLP V0201201N007719999999Y0099001N1+03901+01501999999ADDMA1101081999999REMMET045METAR SBLP 021900Z 12015KT CAVOK 39/15 Q1011;
0120832880999992010020220004-13267-043417FM-15+0443SBLP V0201201N003112200019N0112651N1+03701+01301999999ADDGA1021+009001999GF102991999999999999999999MA1101081999999REMMET051METAR SBLP 022000Z 12006KT 9999 FEW030 37/13 Q1011;
0120832880999992010020221004-13267-043417FM-15+0443SBLP V0201201N003112200019N0112651N1+03701+01401999999ADDGA1021+009001999GF102991999999999999999999MA1101081999999REMMET051METAR SBLP 022100Z 12006KT 9999 FEW030 37/14 Q1011;
0072832880999992010020310004-13267-043417FM-15+0443SBLP V0209999C000019999999Y0099001N1+02401+01701999999ADDMA1101491999999REMMET045METAR SBLP 031000Z 00000KT CAVOK 24/17 Q1015;
0072832880999992010020311004-13267-043417FM-15+0443SBLP V0201201N003119999999Y0099001N1+02701+01701999999ADDMA1101491999999REMMET045METAR SBLP 031100Z 12006KT CAVOK 27/17 Q1015;
0072832880999992010020312004-13267-043417FM-15+0443SBLP V0201201N003119999999Y0099001N1+03001+01801999999ADDMA1101491999999REMMET045METAR SBLP 031200Z 12006KT CAVOK 30/18 Q1015;
0072832880999992010020313004-13267-043417FM-15+0443SBLP V0200601N003119999999Y0099001N1+03301+01701999999ADDMA1101491999999REMMET045METAR SBLP 031300Z 06006KT CAVOK 33/17 Q1015;
0072832880999992010020314004-13267-043417FM-15+0443SBLP V0200901N003119999999Y0099001N1+03501+01701999999ADDMA1101491999999REMMET045METAR SBLP 031400Z 09006KT CAVOK 35/17 Q1015;
0072832880999992010020315004-13267-043417FM-15+0443SBLP V0200901N003119999999Y0099001N1+03501+01701999999ADDMA1101491999999REMMET045METAR SBLP 031500Z 09006KT CAVOK 35/17 Q1015;
0120832880999992010020316004-13267-043417FM-15+0443SBLP V0201201N006212200019N0112651N1+03701+01801999999ADDGA1021+009001999GF102991999999999999999999MA1101291999999REMMET051METAR SBLP 031600Z 12012KT 9999 FEW030 37/18 Q1013;
0120832880999992010020317004-13267-043417FM-15+0443SBLP V0200901N004112200019N0112651N1+03801+01801999999ADDGA1021+009001999GF102991999999999999999999MA1101081999999REMMET051METAR SBLP 031700Z 09008KT 9999 FEW030 38/18 Q1011;
0120832880999992010020318004-13267-043417FM-15+0443SBLP V0209999C000012200019N0112651N1+03701+01401999999ADDGA1041+009001999GF104991999999999999999999MA1101021999999REMMET051METAR SBLP 031800Z 00000KT 9999 SCT030 37/14 Q1010;
0120832880999992010020319004-13267-043417FM-15+0443SBLP V0200901N004112200019N0112651N1+03801+01601999999ADDGA1041+009001999GF104991999999999999999999MA1101021999999REMMET051METAR SBLP 031900Z 09008KT 9999 SCT030 38/16 Q1010;
0120832880999992010020320004-13267-043417FM-15+0443SBLP V0209999C000012200019N0112651N1+03701+01501999999ADDGA1021+009001999GF102991999999999999999999MA1101021999999REMMET051METAR SBLP 032000Z 00000KT 9999 FEW030 37/15 Q1010;
0120832880999992010020321004-13267-043417FM-15+0443SBLP V0201201N005112200019N0112651N1+03701+01501999999ADDGA1041+009001999GF104991999999999999999999MA1101021999999REMMET051METAR SBLP 032100Z 12010KT 9999 SCT030 37/15 Q1010;
0072832880999992010020410004-13267-043417FM-15+0443SBLP V0209999C000019999999Y0099001N1+02501+01801999999ADDMA1101491999999REMMET045METAR SBLP 041000Z 00000KT CAVOK 25/18 Q1015;
0072832880999992010020411004-13267-043417FM-15+0443SBLP V0201301N002119999999Y0099001N1+02901+01801999999ADDMA1101491999999REMMET045METAR SBLP 041100Z 13004KT CAVOK 29/18 Q1015;
0072832880999992010020412004-13267-043417FM-15+0443SBLP V0201801N001519999999Y0099001N1+03001+01701999999ADDMA1101491999999REMMET045METAR SBLP 041200Z 18003KT CAVOK 30/17 Q1015;
0072832880999992010020413004-13267-043417FM-15+0443SBLP V0209999C000019999999Y0099001N1+03301+01701999999ADDMA1101491999999REMMET045METAR SBLP 041300Z 00000KT CAVOK 33/17 Q1015;
0120832880999992010020414004-13267-043417FM-15+0443SBLP V0203301N005112200019N0112651N1+03501+01701999999ADDGA1021+009001999GF102991999999999999999999MA1101391999999REMMET051METAR SBLP 041400Z 33010KT 9999 FEW030 35/17 Q1014;
0120832880999992010020415004-13267-043417FM-15+0443SBLP V0202401N003112200019N0112651N1+03501+01701999999ADDGA1041+009001999GF104991999999999999999999MA1101291999999REMMET051METAR SBLP 041500Z 24006KT 9999 SCT030 35/17 Q1013;
0120832880999992010020416004-13267-043417FM-15+0443SBLP V0201801N003112200019N0112651N1+03601+01701999999ADDGA1041+009001999GF104991999999999999999999MA1101191999999REMMET051METAR SBLP 041600Z 18006KT 9999 SCT030 36/17 Q1012;
0120832880999992010020417004-13267-043417FM-15+0443SBLP V0201801N003112200019N0112651N1+03701+01701999999ADDGA1041+009001999GF104991999999999999999999MA1101081999999REMMET051METAR SBLP 041700Z 18006KT 9999 SCT030 37/17 Q1011;
0120832880999992010020418004-13267-043417FM-15+0443SBLP V0201801N003112200019N0112651N1+03801+01701999999ADDGA1041+009001999GF104991999999999999999999MA1101021999999REMMET051METAR SBLP 041800Z 18006KT 9999 SCT030 38/17 Q1010;
0120832880999992010020419004-13267-043417FM-15+0443SBLP V0201801N003112200019N0112651N1+03801+01701999999ADDGA1021+009001999GF102991999999999999999999MA1101021999999REMMET051METAR SBLP 041900Z 18006KT 9999 FEW030 38/17 Q1010;
0120832880999992010020420004-13267-043417FM-15+0443SBLP V0201801N003112200019N0112651N1+03701+01701999999ADDGA1021+009001999GF102991999999999999999999MA1101021999999REMMET051METAR SBLP 042000Z 18006KT 9999 FEW030 37/17 Q1010;
0072832880999992010020421004-13267-043417FM-15+0443SBLP V0201801N003119999999Y0099001N1+03501+01701999999ADDMA1101021999999REMMET045METAR SBLP 042100Z 18006KT CAVOK 35/17 Q1010;
0072832880999992010020510004-13267-043417FM-15+0443SBLP V0209999C000019999999Y0099001N1+02401+01901999999ADDMA1101391999999REMMET045METAR SBLP 051000Z 00000KT CAVOK 24/19 Q1014;
0072832880999992010020511004-13267-043417FM-15+0443SBLP V0201601N004119999999Y0099001N1+02901+01901999999ADDMA1101491999999REMMET045METAR SBLP 051100Z 16008KT CAVOK 29/19 Q1015;
0072832880999992010020512004-13267-043417FM-15+0443SBLP V0200901N002119999999Y0099001N1+03001+02001999999ADDMA1101491999999REMMET045METAR SBLP 051200Z 09004KT CAVOK 30/20 Q1015;
0072832880999992010020513004-13267-043417FM-15+0443SBLP V0200601N001519999999Y0099001N1+03301+01901999999ADDMA1101491999999REMMET045METAR SBLP 051300Z 06003KT CAVOK 33/19 Q1015;
0120832880999992010020514004-13267-043417FM-15+0443SBLP V0209999C000012200019N0112651N1+03401+01901999999ADDGA1021+009001999GF102991999999999999999999MA1101391999999REMMET051METAR SBLP 051400Z 00000KT 9999 FEW030 34/19 Q1014;
0120832880999992010020515004-13267-043417FM-15+0443SBLP V0202901N003112200019N0112651N1+03401+02001999999ADDGA1041+009001999GF104991999999999999999999MA1101291999999REMMET051METAR SBLP 051500Z 29006KT 9999 SCT030 34/20 Q1013;
0120832880999992010020516004-13267-043417FM-15+0443SBLP V0201801N003112200019N0112651N1+03501+01901999999ADDGA1041+009001999GF104991999999999999999999MA1101191999999REMMET051METAR SBLP 051600Z 18006KT 9999 SCT030 35/19 Q1012;
0147832880999992010020517004-13267-043417FM-15+0443SBLP V0200901N006212200019N0112651N1+03701+01701999999ADDGA1041+009001999GA2021+012001091MA1101081999999MW1171REMMET063METAR SBLP 051700Z 09012KT 9999 TS SCT030 FEW040CB 37/17 Q1011;EQDQ01+000022SCOTCV
0177832880999992010020518004-13267-043417FM-15+0443SBLP V0200901N006212200019N0112651N1+03701+01701999999ADDGA1041+009001999GA2021+012001091GA3041+030001999GF104991999999999999999999MA1101021999999MW1171REMMET070METAR SBLP 051800Z 09012KT 9999 TS SCT030 FEW040CB SCT100 37/17 Q1010;
0143832880999992010020519004-13267-043417FM-15+0443SBLP V0201801N003110300019N0112651N1+03501+01801999999ADDGA1041+009001999GA2071+030001999GF107991999999999999999999MA1100911999999REMMET058METAR SBLP 051900Z 18006KT 9999 SCT030 BKN100 35/18 Q1009;
0143832880999992010020520004-13267-043417FM-15+0443SBLP V0209999C000010300019N0112651N1+03301+01901999999ADDGA1041+009001999GA2071+030001999GF107991999999999999999999MA1100911999999REMMET058METAR SBLP 052000Z 00000KT 9999 SCT030 BKN100 33/19 Q1009;
0143832880999992010020521004-13267-043417FM-15+0443SBLP V0209999C000010300019N0112651N1+03001+02001999999ADDGA1041+009001999GA2071+030001999GF107991999999999999999999MA1101021999999REMMET058METAR SBLP 052100Z 00000KT 9999 SCT030 BKN100 30/20 Q1010;
0143832880999992010020610004-13267-043417FM-15+0443SBLP V0209999C000010300019N0112651N1+02201+02001999999ADDGA1021+006001999GA2071+030001999GF107991999999999999999999MA1101391999999REMMET058METAR SBLP 061000Z 00000KT 9999 FEW020 BKN100 22/20 Q1014;
0143832880999992010020611004-13267-043417FM-15+0443SBLP V0209999C000010300019N0112651N1+02301+02001999999ADDGA1021+006001999GA2071+030001999GF107991999999999999999999MA1101491999999REMMET058METAR SBLP 061100Z 00000KT 9999 FEW020 BKN100 23/20 Q1015;
0143832880999992010020612004-13267-043417FM-15+0443SBLP V0209999C000010300019N0112651N1+02501+02001999999ADDGA1021+006001999GA2071+030001999GF107991999999999999999999MA1101491999999REMMET058METAR SBLP 061200Z 00000KT 9999 FEW020 BKN100 25/20 Q1015;
0143832880999992010020613004-13267-043417FM-15+0443SBLP V0209999C000010300019N0112651N1+02701+02001999999ADDGA1021+006001999GA2071+030001999GF107991999999999999999999MA1101491999999REMMET058METAR SBLP 061300Z 00000KT 9999 FEW020 BKN100 27/20 Q1015;
0143832880999992010020614004-13267-043417FM-15+0443SBLP V0209999C000010300019N0112651N1+02701+02001999999ADDGA1021+006001999GA2071+030001999GF107991999999999999999999MA1101491999999REMMET058METAR SBLP 061400Z 00000KT 9999 FEW020 BKN100 27/20 Q1015;
0143832880999992010020615004-13267-043417FM-15+0443SBLP V0201801N003110300019N0112651N1+02701+02001999999ADDGA1021+006001999GA2071+030001999GF107991999999999999999999MA1101391999999REMMET058METAR SBLP 061500Z 18006KT 9999 FEW020 BKN100 27/20 Q1014;
0143832880999992010020616004-13267-043417FM-15+0443SBLP V0203601N003110300019N0112651N1+02601+02101999999ADDGA1021+006001999GA2071+030001999GF107991999999999999999999MA1101391999999REMMET058METAR SBLP 061600Z 36006KT 9999 FEW020 BKN100 26/21 Q1014;
0143832880999992010020617004-13267-043417FM-15+0443SBLP V0203601N003110300019N0112651N1+02701+02101999999ADDGA1021+006001999GA2071+030001999GF107991999999999999999999MA1101291999999REMMET058METAR SBLP 061700Z 36006KT 9999 FEW020 BKN100 27/21 Q1013;
0143832880999992010020618004-13267-043417FM-15+0443SBLP V0203601N003110300019N0112651N1+02801+02201999999ADDGA1021+006001999GA2071+030001999GF107991999999999999999999MA1101191999999REMMET058METAR SBLP 061800Z 36006KT 9999 FEW020 BKN100 28/22 Q1012;
0143832880999992010020619004-13267-043417FM-15+0443SBLP V0200401N003110300019N0112651N1+02801+02101999999ADDGA1021+006001999GA2071+030001999GF107991999999999999999999MA1101081999999REMMET058METAR SBLP 061900Z 04006KT 9999 FEW020 BKN100 28/21 Q1011;
0072832880999992010020620004-13267-043417FM-15+0443SBLP V0200301N003119999999Y0099001N1+03001+02101999999ADDMA1101081999999REMMET045METAR SBLP 062000Z 03006KT CAVOK 30/21 Q1011;
0072832880999992010020621004-13267-043417FM-15+0443SBLP V0209999C000019999999Y0099001N1+03001+02101999999ADDMA1101081999999REMMET045METAR SBLP 062100Z 00000KT CAVOK 30/21 Q1011;
0072832880999992010020710004-13267-043417FM-15+0443SBLP V0202101N003119999999Y0099001N1+02301+02001999999ADDMA1101391999999REMMET045METAR SBLP 071000Z 21006KT CAVOK 23/20 Q1014;
0072832880999992010020711004-13267-043417FM-15+0443SBLP V0202101N003119999999Y0099001N1+02601+01901999999ADDMA1101491999999REMMET045METAR SBLP 071100Z 21006KT CAVOK 26/19 Q1015;
0072832880999992010020712004-13267-043417FM-15+0443SBLP V0209999C000019999999Y0099001N1+02801+01901999999ADDMA1101491999999REMMET045METAR SBLP 071200Z 00000KT CAVOK 28/19 Q1015;
0072832880999992010020713004-13267-043417FM-15+0443SBLP V0202101N003119999999Y0099001N1+03101+01801999999ADDMA1101391999999REMMET045METAR SBLP 071300Z 21006KT CAVOK 31/18 Q1014;
0143832880999992010020714004-13267-043417FM-15+0443SBLP V0202101N003112200019N0112651N1+03201+01901999999ADDGA1021+009001999GA2041+090001999GF104991999999999999999999MA1101391999999REMMET058METAR SBLP 071400Z 21006KT 9999 FEW030 SCT300 32/19 Q1014;
0120832880999992010020715004-13267-043417FM-15+0443SBLP V0202101N003112200019N0112651N1+03301+02001999999ADDGA1021+009001999GF102991999999999999999999MA1101291999999REMMET051METAR SBLP 071500Z 21006KT 9999 FEW030 33/20 Q1013;
0120832880999992010020716004-13267-043417FM-15+0443SBLP V0202701N003112200019N0112651N1+03401+01901999999ADDGA1041+009001999GF104991999999999999999999MA1101191999999REMMET051METAR SBLP 071600Z 27006KT 9999 SCT030 34/19 Q1012;
0120832880999992010020717004-13267-043417FM-15+0443SBLP V0202701N003112200019N0112651N1+03501+01901999999ADDGA1041+009001999GF104991999999999999999999MA1101081999999REMMET051METAR SBLP 071700Z 27006KT 9999 SCT030 35/19 Q1011;
0120832880999992010020718004-13267-043417FM-15+0443SBLP V0201801N003112200019N0112651N1+03501+01801999999ADDGA1041+009001999GF104991999999999999999999MA1101021999999REMMET051METAR SBLP 071800Z 18006KT 9999 SCT030 35/18 Q1010;
0120832880999992010020719004-13267-043417FM-15+0443SBLP V0201801N003112200019N0112651N1+03401+01801999999ADDGA1041+009001999GF104991999999999999999999MA1101021999999REMMET051METAR SBLP 071900Z 18006KT 9999 SCT030 34/18 Q1010;
0143832880999992010020720004-13267-043417FM-15+0443SBLP V0209999C000012200019N0112651N1+03301+01901999999ADDGA1041+009001999GA2041+030001999GF104991999999999999999999MA1101021999999REMMET058METAR SBLP 072000Z 00000KT 9999 SCT030 SCT100 33/19 Q1010;
0143832880999992010020721004-13267-043417FM-15+0443SBLP V0209999C000012200019N0112651N1+03001+02001999999ADDGA1041+009001999GA2041+030001999GF104991999999999999999999MA1101081999999REMMET058METAR SBLP 072100Z 00000KT 9999 SCT030 SCT100 30/20 Q1011;
0153832880999992010020810004-13267-043417FM-15+0443SBLP V0202301N002110045019N0112651N1+02001+02001999999ADDGA1071+004501999GA2081+030001999GF108991999999999999999999MA1101591999999MW1611REMMET062METAR SBLP 081000Z 23004KT 9999 -RA BKN015 OVC100 20/20 Q1016;
0153832880999992010020811004-13267-043417FM-15+0443SBLP V0201501N002110045019N0080001N1+02001+02001999999ADDGA1071+004501999GA2071+030001999GF107991999999999999999999MA1101591999999MW1611REMMET062METAR SBLP 081100Z 15004KT 8000 -RA BKN015 BKN100 20/20 Q1016;
0153832880999992010020812004-13267-043417FM-15+0443SBLP V0201701N002110060019N0080001N1+02101+02001999999ADDGA1071+006001999GA2071+030001999GF107991999999999999999999MA1101591999999MW1611REMMET062METAR SBLP 081200Z 17004KT 8000 -RA BKN020 BKN100 21/20 Q1016;
0148832880999992010020813004-13267-043417FM-15+0443SBLP V0201001N002110300019N0112651N1+02301+02101999999ADDGA1041+006001999GA2071+030001999GF107991999999999999999999MA1101591999999REMMET063METAR SBLP 081300Z 10004KT 9999 SCT020 BKN100 23/21 Q1016 RERA;
0143832880999992010020814004-13267-043417FM-15+0443SBLP V0201201N002110300019N0112651N1+02401+02201999999ADDGA1041+006001999GA2071+030001999GF107991999999999999999999MA1101591999999REMMET058METAR SBLP 081400Z 12004KT 9999 SCT020 BKN100 24/22 Q1016;
0143832880999992010020815004-13267-043417FM-15+0443SBLP V0201501N003110300019N0112651N1+02501+02101999999ADDGA1021+009001999GA2071+030001999GF107991999999999999999999MA1101491999999REMMET058METAR SBLP 081500Z 15006KT 9999 FEW030 BKN100 25/21 Q1015;
0143832880999992010020816004-13267-043417FM-15+0443SBLP V0201701N003110300019N0112651N1+02601+02101999999ADDGA1021+009001999GA2071+030001999GF107991999999999999999999MA1101391999999REMMET058METAR SBLP 081600Z 17006KT 9999 FEW030 BKN100 26/21 Q1014;
0143832880999992010020817004-13267-043417FM-15+0443SBLP V0201501N004110300019N0112651N1+02801+02101999999ADDGA1021+009001999GA2071+030001999GF107991999999999999999999MA1101291999999REMMET058METAR SBLP 081700Z 15008KT 9999 FEW030 BKN100 28/21 Q1013;
0143832880999992010020818004-13267-043417FM-15+0443SBLP V0202101N002110300019N0112651N1+02901+02101999999ADDGA1021+009001999GA2071+030001999GF107991999999999999999999MA1101081999999REMMET058METAR SBLP 081800Z 21004KT 9999 FEW030 BKN100 29/21 Q1011;
0143832880999992010020819004-13267-043417FM-15+0443SBLP V0202201N002110300019N0112651N1+02901+02101999999ADDGA1021+009001999GA2071+030001999GF107991999999999999999999MA1101081999999REMMET058METAR SBLP 081900Z 22004KT 9999 FEW030 BKN100 29/21 Q1011;
0143832880999992010020821004-13267-043417FM-15+0443SBLP V0203601N003110300019N0112651N1+02801+02201999999ADDGA1021+009001999GA2071+030001999GF107991999999999999999999MA1101081999999REMMET058METAR SBLP 082100Z 36006KT 9999 FEW030 BKN100 28/22 Q1011;
0072832880999992010020910004-13267-043417FM-15+0443SBLP V0201501N001019999999Y0099001N1+02201+02101999999ADDMA1101291999999REMMET045METAR SBLP 091000Z 15002KT CAVOK 22/21 Q1013;
0072832880999992010020911004-13267-043417FM-15+0443SBLP V0201001N002119999999Y0099001N1+02401+02001999999ADDMA1101391999999REMMET045METAR SBLP 091100Z 10004KT CAVOK 24/20 Q1014;
0143832880999992010020912004-13267-043417FM-15+0443SBLP V0209999C000010300019N0112651N1+02501+02001999999ADDGA1041+006001999GA2071+030001999GF107991999999999999999999MA1101491999999REMMET058METAR SBLP 091200Z 00000KT 9999 SCT020 BKN100 25/20 Q1015;
0143832880999992010020913004-13267-043417FM-15+0443SBLP V0209999C000010300019N0112651N1+02601+02001999999ADDGA1021+009001999GA2071+030001999GF107991999999999999999999MA1101391999999REMMET058METAR SBLP 091300Z 00000KT 9999 FEW030 BKN100 26/20 Q1014;
0143832880999992010020914004-13267-043417FM-15+0443SBLP V0203001N003110300019N0112651N1+02901+02001999999ADDGA1021+009001999GA2071+030001999GF107991999999999999999999MA1101391999999REMMET058METAR SBLP 091400Z 30006KT 9999 FEW030 BKN100 29/20 Q1014;
0143832880999992010020915004-13267-043417FM-15+0443SBLP V0209999C000010900019N0112651N1+02901+02001999999ADDGA1021+009001999GA2071+090001999GF107991999999999999999999MA1101291999999REMMET058METAR SBLP 091500Z 00000KT 9999 FEW030 BKN300 29/20 Q1013;
0143832880999992010020916004-13267-043417FM-15+0443SBLP V0209999C000010300019N0112651N1+02901+02101999999ADDGA1041+009001999GA2071+030001999GF107991999999999999999999MA1101191999999REMMET058METAR SBLP 091600Z 00000KT 9999 SCT030 BKN100 29/21 Q1012;
0143832880999992010020917004-13267-043417FM-15+0443SBLP V0203601N003110300019N0112651N1+02901+02101999999ADDGA1041+009001999GA2071+030001999GF107991999999999999999999MA1101081999999REMMET058METAR SBLP 091700Z 36006KT 9999 SCT030 BKN100 29/21 Q1011;
0143832880999992010020918004-13267-043417FM-15+0443SBLP V0203601N003110300019N0112651N1+02901+02101999999ADDGA1041+009001999GA2071+030001999GF107991999999999999999999MA1101081999999REMMET058METAR SBLP 091800Z 36006KT 9999 SCT030 BKN100 29/21 Q1011;
0143832880999992010020919004-13267-043417FM-15+0443SBLP V0203601N003110300019N0112651N1+02801+02101999999ADDGA1041+009001999GA2071+030001999GF107991999999999999999999MA1101081999999REMMET058METAR SBLP 091900Z 36006KT 9999 SCT030 BKN100 28/21 Q1011;
0143832880999992010020920004-13267-043417FM-15+0443SBLP V0203601N003110300019N0112651N1+02701+02101999999ADDGA1021+009001999GA2071+030001999GF107991999999999999999999MA1101081999999REMMET058METAR SBLP 092000Z 36006KT 9999 FEW030 BKN100 27/21 Q1011;
0143832880999992010020921004-13267-043417FM-15+0443SBLP V0209999C000010300019N0112651N1+02601+02101999999ADDGA1021+009001999GA2071+030001999GF107991999999999999999999MA1101081999999REMMET058METAR SBLP 092100Z 00000KT 9999 FEW030 BKN100 26/21 Q1011;
0143832880999992010021010004-13267-043417FM-15+0443SBLP V0209999C000010300019N0112651N1+02201+02101999999ADDGA1021+004501999GA2071+030001999GF107991999999999999999999MA1101291999999REMMET058METAR SBLP 101000Z 00000KT 9999 FEW015 BKN100 22/21 Q1013;
0143832880999992010021011004-13267-043417FM-15+0443SBLP V0209999C000012200019N0112651N1+02401+02101999999ADDGA1021+006001999GA2041+030001999GF104991999999999999999999MA1101391999999REMMET058METAR SBLP 101100Z 00000KT 9999 FEW020 SCT100 24/21 Q1014;
0143832880999992010021012004-13267-043417FM-15+0443SBLP V0201801N003112200019N0112651N1+02701+02101999999ADDGA1021+006001999GA2041+030001999GF104991999999999999999999MA1101391999999REMMET058METAR SBLP 101200Z 18006KT 9999 FEW020 SCT100 27/21 Q1014;
0143832880999992010021013004-13267-043417FM-15+0443SBLP V0201801N003112200019N0112651N1+02901+02001999999ADDGA1021+006001999GA2041+030001999GF104991999999999999999999MA1101291999999REMMET058METAR SBLP 101300Z 18006KT 9999 FEW020 SCT100 29/20 Q1013;
0143832880999992010021014004-13267-043417FM-15+0443SBLP V0200901N003112200019N0112651N1+03101+02001999999ADDGA1021+006001999GA2041+030001999GF104991999999999999999999MA1101291999999REMMET058METAR SBLP 101400Z 09006KT 9999 FEW020 SCT100 31/20 Q1013;
0120832880999992010021015004-13267-043417FM-15+0443SBLP V0200901N003112200019N0112651N1+03301+01901999999ADDGA1041+009001999GF104991999999999999999999MA1101191999999REMMET051METAR SBLP 101500Z 09006KT 9999 SCT030 33/19 Q1012;
0120832880999992010021016004-13267-043417FM-15+0443SBLP V0200901N003112200019N0112651N1+03401+01801999999ADDGA1041+009001999GF104991999999999999999999MA1101081999999REMMET051METAR SBLP 101600Z 09006KT 9999 SCT030 34/18 Q1011;
0120832880999992010021017004-13267-043417FM-15+0443SBLP V0200601N003112200019N0112651N1+03601+01801999999ADDGA1041+009001999GF104991999999999999999999MA1100911999999REMMET051METAR SBLP 101700Z 06006KT 9999 SCT030 36/18 Q1009;
0120832880999992010021018004-13267-043417FM-15+0443SBLP V0200901N003112200019N0112651N1+03701+01801999999ADDGA1041+009001999GF104991999999999999999999MA1100811999999REMMET051METAR SBLP 101800Z 09006KT 9999 SCT030 37/18 Q1008;
0120832880999992010021019004-13267-043417FM-15+0443SBLP V0200901N003112200019N0112651N1+03701+01801999999ADDGA1041+009001999GF104991999999999999999999MA1100711999999REMMET051METAR SBLP 101900Z 09006KT 9999 SCT030 37/18 Q1007;
0120832880999992010021020004-13267-043417FM-15+0443SBLP V0203601N003112200019N0112651N1+03401+02001999999ADDGA1041+009001999GF104991999999999999999999MA1100711999999REMMET051METAR SBLP 102000Z 36006KT 9999 SCT030 34/20 Q1007;
0120832880999992010021021004-13267-043417FM-15+0443SBLP V0200401N003112200019N0112651N1+03201+02101999999ADDGA1041+009001999GF104991999999999999999999MA1100811999999REMMET051METAR SBLP 102100Z 04006KT 9999 SCT030 32/21 Q1008;
0072832880999992010021110004-13267-043417FM-15+0443SBLP V0209999C000019999999Y0099001N1+02201+02001999999ADDMA1101291999999REMMET045METAR SBLP 111000Z 00000KT CAVOK 22/20 Q1013;
0072832880999992010021111004-13267-043417FM-15+0443SBLP V0209999C000019999999Y0099001N1+02601+01801999999ADDMA1101291999999REMMET045METAR SBLP 111100Z 00000KT CAVOK 26/18 Q1013;
0072832880999992010021112004-13267-043417FM-15+0443SBLP V0201201N003119999999Y0099001N1+02901+01701999999ADDMA1101391999999REMMET045METAR SBLP 111200Z 12006KT CAVOK 29/17 Q1014;
0120832880999992010021113004-13267-043417FM-15+0443SBLP V0209999C000012200019N0112651N1+03101+01801999999ADDGA1021+009001999GF102991999999999999999999MA1101291999999REMMET051METAR SBLP 111300Z 00000KT 9999 FEW030 31/18 Q1013;
0120832880999992010021114004-13267-043417FM-15+0443SBLP V0209999C000012200019N0112651N1+03101+01801999999ADDGA1021+009001999GF102991999999999999999999MA1101291999999REMMET051METAR SBLP 111400Z 00000KT 9999 FEW030 31/18 Q1013;
0120832880999992010021115004-13267-043417FM-15+0443SBLP V0209999C000012200019N0112651N1+03401+01701999999ADDGA1041+009001999GF104991999999999999999999MA1101191999999REMMET051METAR SBLP 111500Z 00000KT 9999 SCT030 34/17 Q1012;
0120832880999992010021116004-13267-043417FM-15+0443SBLP V0201801N003110090019N0112651N1+03401+01801999999ADDGA1071+009001999GF107991999999999999999999MA1101081999999REMMET051METAR SBLP 111600Z 18006KT 9999 BKN030 34/18 Q1011;
0120832880999992010021117004-13267-043417FM-15+0443SBLP V0200901N003110090019N0112651N1+03501+01801999999ADDGA1071+009001999GF107991999999999999999999MA1101021999999REMMET051METAR SBLP 111700Z 09006KT 9999 BKN030 35/18 Q1010;
0120832880999992010021118004-13267-043417FM-15+0443SBLP V0200901N003110090019N0112651N1+03501+01901999999ADDGA1071+009001999GF107991999999999999999999MA1100911999999REMMET051METAR SBLP 111800Z 09006KT 9999 BKN030 35/19 Q1009;
0147832880999992010021120004-13267-043417FM-15+0443SBLP V0200901N006212200019N0112651N1+03301+01901999999ADDGA1041+009001999GA2021+012001091MA1101021999999MW1171REMMET063METAR SBLP 112000Z 09012KT 9999 TS SCT030 FEW040CB 33/19 Q1010;EQDQ01+000022SCOTCV
0150832880999992010021121004-13267-043417FM-15+0443SBLP V0203601N003112200019N0112651N1+02901+02001999999ADDGA1041+009001021GA2021+012001091MA1101021999999MW1171REMMET066METAR SBLP 112100Z 36006KT 9999 TS SCT030TCU FEW040CB 29/20 Q1010;EQDQ01+000022SCOTCV
0072832880999992010021210004-13267-043417FM-15+0443SBLP V0209999C000019999999Y0099001N1+02401+02001999999ADDMA1101291999999REMMET045METAR SBLP 121000Z 00000KT CAVOK 24/20 Q1013;
0072832880999992010021211004-13267-043417FM-15+0443SBLP V0201801N003119999999Y0099001N1+02701+02001999999ADDMA1101391999999REMMET045METAR SBLP 121100Z 18006KT CAVOK 27/20 Q1014;
0120832880999992010021212004-13267-043417FM-15+0443SBLP V0201801N003112200019N0112651N1+02901+02001999999ADDGA1021+006001999GF102991999999999999999999MA1101391999999REMMET051METAR SBLP 121200Z 18006KT 9999 FEW020 29/20 Q1014;
0120832880999992010021214004-13267-043417FM-15+0443SBLP V0200901N003112200019N0112651N1+02901+02001999999ADDGA1041+006001999GF104991999999999999999999MA1101491999999REMMET051METAR SBLP 121400Z 09006KT 9999 SCT020 29/20 Q1015;
0143832880999992010021215004-13267-043417FM-15+0443SBLP V0202701N003112200019N0112651N1+03001+02001999999ADDGA1041+009001999GA2041+030001999GF104991999999999999999999MA1101391999999REMMET058METAR SBLP 121500Z 27006KT 9999 SCT030 SCT100 30/20 Q1014;
0120832880999992010021216004-13267-043417FM-15+0443SBLP V0202201N007712200019N0112651N1+03001+02101999999ADDGA1041+009001999GF104991999999999999999999MA1101291999999REMMET051METAR SBLP 121600Z 22015KT 9999 SCT030 30/21 Q1013;
0139832880999992010021217004-13267-043417FM-15+0443SBLP V0200301N00511009001CN0112651N1+02901+02101999999ADDGA1071+009001999GA2021+009601021MA1101291999999REMMET061METAR SBLP 121700Z 03010KT 9999 BKN030 FEW032TCU 29/21 Q1013;EQDQ01+000022SCOTCV
0146832880999992010021218004-13267-043417FM-15+0443SBLP V0202701N003112200019N0112651N1+02701+02301999999ADDGA1021+008401999GA2041+009001021GF104991999999999999999999MA1101191999999REMMET061METAR SBLP 121800Z 27006KT 9999 FEW028 SCT030TCU 27/23 Q1012;
0164832880999992010021219004-13267-043417FM-15+0443SBLP V0202401N00511008401CN0112651N1+02801+02201999999ADDGA1071+008401999GA2021+009601091MA1101191999999MW1161MW2171REMMET074METAR SBLP 121900Z 24010KT 9999 8000S TS VCSH BKN028 FEW032CB 28/22 Q1012;EQDQ01+000022SCOTCV
0144832880999992010021220004-13267-043417FM-15+0443SBLP V0201501N004112200019N0112651N1+02801+02201999999ADDGA1041+008401999GA2021+009001021MA1101191999999REMMET066METAR SBLP 122000Z 15008KT 9999 SCT028 FEW030TCU 28/22 Q1012 RETS;EQDQ01+000022SCOTCV
0139832880999992010021221004-13267-043417FM-15+0443SBLP V0201801N006212200019N0112651N1+02801+02201999999ADDGA1041+008401999GA2021+009001021MA1101291999999REMMET061METAR SBLP 122100Z 18012KT 9999 SCT028 FEW030TCU 28/22 Q1013;EQDQ01+000022SCOTCV
0120832880999992010021309154-13267-043417FM-15+0443SBLP V0209999C000012200019N0112651N1+02101+02001999999ADDGA1041+006001999GF104991999999999999999999MA1101491999999REMMET051METAR SBLP 130915Z 00000KT 9999 SCT020 21/20 Q1015;
0120832880999992010021310004-13267-043417FM-15+0443SBLP V0209999C000012200019N0112651N1+02101+02001999999ADDGA1041+006001999GF104991999999999999999999MA1101491999999REMMET051METAR SBLP 131000Z 00000KT 9999 SCT020 21/20 Q1015;
0120832880999992010021311004-13267-043417FM-15+0443SBLP V0201301N002112200019N0112651N1+02501+02101999999ADDGA1041+006001999GF104991999999999999999999MA1101591999999REMMET051METAR SBLP 131100Z 13004KT 9999 SCT020 25/21 Q1016;
0120832880999992010021312004-13267-043417FM-15+0443SBLP V0200301N003112200019N0112651N1+02901+01901999999ADDGA1021+006001999GF102991999999999999999999MA1101591999999REMMET051METAR SBLP 131200Z 03006KT 9999 FEW020 29/19 Q1016;
0120832880999992010021313004-13267-043417FM-15+0443SBLP V0201601N002612200019N0112651N1+03101+01801999999ADDGA1021+009001999GF102991999999999999999999MA1101591999999REMMET051METAR SBLP 131300Z 16005KT 9999 FEW030 31/18 Q1016;
0143832880999992010021314004-13267-043417FM-15+0443SBLP V0200601N004110900019N0112651N1+03301+01601999999ADDGA1021+009001999GA2071+090001999GF107991999999999999999999MA1101491999999REMMET058METAR SBLP 131400Z 06008KT 9999 FEW030 BKN300 33/16 Q1015;
0120832880999992010021317004-13267-043417FM-15+0443SBLP V0202201N003112200019N0112651N1+03601+01601999999ADDGA1021+009001999GF102991999999999999999999MA1101191999999REMMET051METAR SBLP 131700Z 22006KT 9999 FEW030 36/16 Q1012;
0120832880999992010021318004-13267-043417FM-15+0443SBLP V0202601N003112200019N0112651N1+03601+01601999999ADDGA1021+009001999GF102991999999999999999999MA1101081999999REMMET051METAR SBLP 131800Z 26006KT 9999 FEW030 36/16 Q1011;
0120832880999992010021319004-13267-043417FM-15+0443SBLP V0202401N003112200019N0112651N1+03601+01601999999ADDGA1021+009001999GF102991999999999999999999MA1101021999999REMMET051METAR SBLP 131900Z 24006KT 9999 FEW030 36/16 Q1010;
0120832880999992010021320004-13267-043417FM-15+0443SBLP V0202801N003112200019N0112651N1+03601+01601999999ADDGA1021+009001999GF102991999999999999999999MA1101021999999REMMET051METAR SBLP 132000Z 28006KT 9999 FEW030 36/16 Q1010;
0120832880999992010021321004-13267-043417FM-15+0443SBLP V0201801N005112200019N0112651N1+03401+01601999999ADDGA1021+009001999GF102991999999999999999999MA1101021999999REMMET051METAR SBLP 132100Z 18010KT 9999 FEW030 34/16 Q1010;
0072832880999992010021410004-13267-043417FM-15+0443SBLP V0200901N002119999999Y0099001N1+02401+01901999999ADDMA1101391999999REMMET045METAR SBLP 141000Z 09004KT CAVOK 24/19 Q1014;
0072832880999992010021412004-13267-043417FM-15+0443SBLP V0209999C000019999999Y0099001N1+03101+01801999999ADDMA1101491999999REMMET045METAR SBLP 141200Z 00000KT CAVOK 31/18 Q1015;
0072832880999992010021413004-13267-043417FM-15+0443SBLP V0200901N003119999999Y0099001N1+03301+01801999999ADDMA1101491999999REMMET045METAR SBLP 141300Z 09006KT CAVOK 33/18 Q1015;
0120832880999992010021414004-13267-043417FM-15+0443SBLP V0201301N004112200019N0112651N1+03401+01701999999ADDGA1021+009001999GF102991999999999999999999MA1101491999999REMMET051METAR SBLP 141400Z 13008KT 9999 FEW030 34/17 Q1015;
0120832880999992010021415004-13267-043417FM-15+0443SBLP V0209999C000012200019N0112651N1+03501+01701999999ADDGA1021+009001999GF102991999999999999999999MA1101391999999REMMET051METAR SBLP 141500Z 00000KT 9999 FEW030 35/17 Q1014;
0120832880999992010021416004-13267-043417FM-15+0443SBLP V0202701N002612200019N0112651N1+03501+02001999999ADDGA1041+009001999GF104991999999999999999999MA1101291999999REMMET051METAR SBLP 141600Z 27005KT 9999 SCT030 35/20 Q1013;
0120832880999992010021417004-13267-043417FM-15+0443SBLP V0201801N001512200019N0112651N1+03601+01701999999ADDGA1041+009001999GF104991999999999999999999MA1101081999999REMMET051METAR SBLP 141700Z 18003KT 9999 SCT030 36/17 Q1011;
0120832880999992010021418004-13267-043417FM-15+0443SBLP V0202301N004112200019N0112651N1+03801+01701999999ADDGA1041+009001999GF104991999999999999999999MA1101021999999REMMET051METAR SBLP 141800Z 23008KT 9999 SCT030 38/17 Q1010;
0120832880999992010021419004-13267-043417FM-15+0443SBLP V0202301N002612200019N0112651N1+03701+01701999999ADDGA1041+009001999GF104991999999999999999999MA1100911999999REMMET051METAR SBLP 141900Z 23005KT 9999 SCT030 37/17 Q1009;
0120832880999992010021420004-13267-043417FM-15+0443SBLP V0201601N004112200019N0112651N1+03601+01701999999ADDGA1041+009001999GF104991999999999999999999MA1100911999999REMMET051METAR SBLP 142000Z 16008KT 9999 SCT030 36/17 Q1009;
0120832880999992010021421004-13267-043417FM-15+0443SBLP V0201301N002612200019N0112651N1+03601+01601999999ADDGA1021+009001999GF102991999999999999999999MA1100911999999REMMET051METAR SBLP 142100Z 13005KT 9999 FEW030 36/16 Q1009;
0072832880999992010021510004-13267-043417FM-15+0443SBLP V0201401N003119999999Y0099001N1+02501+02001999999ADDMA1101391999999REMMET045METAR SBLP 151000Z 14006KT CAVOK 25/20 Q1014;
0072832880999992010021511004-13267-043417FM-15+0443SBLP V0200901N006219999999Y0099001N1+02901+01801999999ADDMA1101491999999REMMET045METAR SBLP 151100Z 09012KT CAVOK 29/18 Q1015;
0072832880999992010021512004-13267-043417FM-15+0443SBLP V0209999C000019999999Y0099001N1+03101+01801999999ADDMA1101491999999REMMET045METAR SBLP 151200Z 00000KT CAVOK 31/18 Q1015;
0072832880999992010021513004-13267-043417FM-15+0443SBLP V0201201N003119999999Y0099001N1+03201+01701999999ADDMA1101491999999REMMET045METAR SBLP 151300Z 12006KT CAVOK 32/17 Q1015;
0072832880999992010021514004-13267-043417FM-15+0443SBLP V0209999C000019999999Y0099001N1+03401+01601999999ADDMA1101391999999REMMET045METAR SBLP 151400Z 00000KT CAVOK 34/16 Q1014;
0120832880999992010021515004-13267-043417FM-15+0443SBLP V0202401N005112200019N0112651N1+03501+01701999999ADDGA1021+009001999GF102991999999999999999999MA1101291999999REMMET051METAR SBLP 151500Z 24010KT 9999 FEW030 35/17 Q1013;
0120832880999992010021516004-13267-043417FM-15+0443SBLP V0201801N003112200019N0112651N1+03501+01601999999ADDGA1021+009001999GF102991999999999999999999MA1101191999999REMMET051METAR SBLP 151600Z 18006KT 9999 FEW030 35/16 Q1012;
0120832880999992010021517004-13267-043417FM-15+0443SBLP V0202701N003112200019N0112651N1+03601+01601999999ADDGA1041+009001999GF104991999999999999999999MA1101081999999REMMET051METAR SBLP 151700Z 27006KT 9999 SCT030 36/16 Q1011;
0120832880999992010021518004-13267-043417FM-15+0443SBLP V0202701N003112200019N0112651N1+03701+01601999999ADDGA1041+009001999GF104991999999999999999999MA1101021999999REMMET051METAR SBLP 151800Z 27006KT 9999 SCT030 37/16 Q1010;
0120832880999992010021519004-13267-043417FM-15+0443SBLP V0202701N003112200019N0112651N1+03701+01601999999ADDGA1041+009001999GF104991999999999999999999MA1100911999999REMMET051METAR SBLP 151900Z 27006KT 9999 SCT030 37/16 Q1009;
0120832880999992010021520004-13267-043417FM-15+0443SBLP V0202701N003112200019N0112651N1+03601+01601999999ADDGA1041+009001999GF104991999999999999999999MA1100911999999REMMET051METAR SBLP 152000Z 27006KT 9999 SCT030 36/16 Q1009;
0120832880999992010021521004-13267-043417FM-15+0443SBLP V0202701N003112200019N0112651N1+03501+01601999999ADDGA1041+009001999GF104991999999999999999999MA1100911999999REMMET051METAR SBLP 152100Z 27006KT 9999 SCT030 35/16 Q1009;
0072832880999992010021610004-13267-043417FM-15+0443SBLP V0209999C000019999999Y0099001N1+02401+01901999999ADDMA1101291999999REMMET045METAR SBLP 161000Z 00000KT CAVOK 24/19 Q1013;
0072832880999992010021611004-13267-043417FM-15+0443SBLP V0209999C000019999999Y0099001N1+02801+01901999999ADDMA1101391999999REMMET045METAR SBLP 161100Z 00000KT CAVOK 28/19 Q1014;
0072832880999992010021612004-13267-043417FM-15+0443SBLP V0200901N003119999999Y0099001N1+03101+01801999999ADDMA1101491999999REMMET045METAR SBLP 161200Z 09006KT CAVOK 31/18 Q1015;
0072832880999992010021613004-13267-043417FM-15+0443SBLP V0200901N003119999999Y0099001N1+03301+01801999999ADDMA1101391999999REMMET045METAR SBLP 161300Z 09006KT CAVOK 33/18 Q1014;
0120832880999992010021614004-13267-043417FM-15+0443SBLP V0200901N003112200019N0112651N1+03401+01701999999ADDGA1021+009001999GF102991999999999999999999MA1101391999999REMMET051METAR SBLP 161400Z 09006KT 9999 FEW030 34/17 Q1014;
0120832880999992010021615004-13267-043417FM-15+0443SBLP V0201801N003112200019N0112651N1+03501+01701999999ADDGA1021+009001999GF102991999999999999999999MA1101291999999REMMET051METAR SBLP 161500Z 18006KT 9999 FEW030 35/17 Q1013;
0120832880999992010021616004-13267-043417FM-15+0443SBLP V0202701N003112200019N0112651N1+03801+01701999999ADDGA1041+009001999GF104991999999999999999999MA1101191999999REMMET051METAR SBLP 161600Z 27006KT 9999 SCT030 38/17 Q1012;
0120832880999992010021617004-13267-043417FM-15+0443SBLP V0202701N003112200019N0112651N1+03801+01601999999ADDGA1041+009001999GF104991999999999999999999MA1101081999999REMMET051METAR SBLP 161700Z 27006KT 9999 SCT030 38/16 Q1011;
0120832880999992010021618004-13267-043417FM-15+0443SBLP V0202501N004112200019N0112651N1+03901+01701999999ADDGA1041+009001999GF104991999999999999999999MA1101021999999REMMET051METAR SBLP 161800Z 25008KT 9999 SCT030 39/17 Q1010;
0120832880999992010021619004-13267-043417FM-15+0443SBLP V0202701N004112200019N0112651N1+03801+01801999999ADDGA1041+009001999GF104991999999999999999999MA1100911999999REMMET051METAR SBLP 161900Z 27008KT 9999 SCT030 38/18 Q1009;
0120832880999992010021620004-13267-043417FM-15+0443SBLP V0201601N003112200019N0112651N1+03801+01601999999ADDGA1021+009001999GF102991999999999999999999MA1100911999999REMMET051METAR SBLP 162000Z 16006KT 9999 FEW030 38/16 Q1009;
0120832880999992010021621004-13267-043417FM-15+0443SBLP V0201801N002112200019N0112651N1+03601+01801999999ADDGA1021+009001999GF102991999999999999999999MA1100911999999REMMET051METAR SBLP 162100Z 18004KT 9999 FEW030 36/18 Q1009;
0072832880999992010021710004-13267-043417FM-15+0443SBLP V0209999C000019999999Y0099001N1+02401+02101999999ADDMA1101491999999REMMET045METAR SBLP 171000Z 00000KT CAVOK 24/21 Q1015;
0072832880999992010021711004-13267-043417FM-15+0443SBLP V0209999C000019999999Y0099001N1+02701+02001999999ADDMA1101491999999REMMET045METAR SBLP 171100Z 00000KT CAVOK 27/20 Q1015;
0072832880999992010021712004-13267-043417FM-15+0443SBLP V0209999C000019999999Y0099001N1+03001+02001999999ADDMA1101491999999REMMET045METAR SBLP 171200Z 00000KT CAVOK 30/20 Q1015;
0072832880999992010021713004-13267-043417FM-15+0443SBLP V0209999C000019999999Y0099001N1+03201+01901999999ADDMA1101491999999REMMET045METAR SBLP 171300Z 00000KT CAVOK 32/19 Q1015;
0120832880999992010021714004-13267-043417FM-15+0443SBLP V0209999C000012200019N0112651N1+03401+01801999999ADDGA1021+009001999GF102991999999999999999999MA1101391999999REMMET051METAR SBLP 171400Z 00000KT 9999 FEW030 34/18 Q1014;
0120832880999992010021715004-13267-043417FM-15+0443SBLP V0203601N003112200019N0112651N1+03501+01801999999ADDGA1021+009001999GF102991999999999999999999MA1101291999999REMMET051METAR SBLP 171500Z 36006KT 9999 FEW030 35/18 Q1013;
0120832880999992010021716004-13267-043417FM-15+0443SBLP V0202401N004112200019N0112651N1+03601+01801999999ADDGA1021+009001999GF102991999999999999999999MA1101191999999REMMET051METAR SBLP 171600Z 24008KT 9999 FEW030 36/18 Q1012;
0120832880999992010021717004-13267-043417FM-15+0443SBLP V0202701N002612200019N0112651N1+03701+01901999999ADDGA1041+009001999GF104991999999999999999999MA1101081999999REMMET051METAR SBLP 171700Z 27005KT 9999 SCT030 37/19 Q1011;
0123832880999992010021718004-13267-043417FM-15+0443SBLP V0202401N005112200019N0112651N1+03701+01901999999ADDGA1041+009001021GF104991999999999999999999MA1101021999999REMMET054METAR SBLP 171800Z 24010KT 9999 SCT030TCU 37/19 Q1010;
0120832880999992010021719004-13267-043417FM-15+0443SBLP V0202301N002112200019N0112651N1+03801+01801999999ADDGA1021+009001999GF102991999999999999999999MA1100911999999REMMET051METAR SBLP 171900Z 23004KT 9999 FEW030 38/18 Q1009;
0120832880999992010021720004-13267-043417FM-15+0443SBLP V0202701N002112200019N0112651N1+03801+01701999999ADDGA1021+009001999GF102991999999999999999999MA1100811999999REMMET051METAR SBLP 172000Z 27004KT 9999 FEW030 38/17 Q1008;
0120832880999992010021721004-13267-043417FM-15+0443SBLP V0202301N002112200019N0112651N1+03701+01801999999ADDGA1021+009001999GF102991999999999999999999MA1100811999999REMMET051METAR SBLP 172100Z 23004KT 9999 FEW030 37/18 Q1008;
0120832880999992010021810004-13267-043417FM-15+0443SBLP V0209999C000012200019N0112651N1+02501+02001999999ADDGA1021+009001999GF102991999999999999999999MA1101391999999REMMET051METAR SBLP 181000Z 00000KT 9999 FEW030 25/20 Q1014;
0120832880999992010021811004-13267-043417FM-15+0443SBLP V0209999C000012200019N0112651N1+02901+02101999999ADDGA1021+009001999GF102991999999999999999999MA1101391999999REMMET051METAR SBLP 181100Z 00000KT 9999 FEW030 29/21 Q1014;
0120832880999992010021812004-13267-043417FM-15+0443SBLP V0200301N002612200019N0112651N1+03101+01901999999ADDGA1021+009001999GF102991999999999999999999MA1101491999999REMMET051METAR SBLP 181200Z 03005KT 9999 FEW030 31/19 Q1015;
0072832880999992010021813004-13267-043417FM-15+0443SBLP V0200201N002119999999Y0099001N1+03301+01801999999ADDMA1101491999999REMMET045METAR SBLP 181300Z 02004KT CAVOK 33/18 Q1015;
0120832880999992010021814004-13267-043417FM-15+0443SBLP V0203301N004112200019N0112651N1+03401+01901999999ADDGA1021+009001999GF102991999999999999999999MA1101391999999REMMET051METAR SBLP 181400Z 33008KT 9999 FEW030 34/19 Q1014;
0120832880999992010021815004-13267-043417FM-15+0443SBLP V0203401N003112200019N0112651N1+03501+01801999999ADDGA1021+009001999GF102991999999999999999999MA1101291999999REMMET051METAR SBLP 181500Z 34006KT 9999 FEW030 35/18 Q1013;
0120832880999992010021816004-13267-043417FM-15+0443SBLP V0209999C000012200019N0112651N1+03701+01701999999ADDGA1041+009001999GF104991999999999999999999MA1101191999999REMMET051METAR SBLP 181600Z 00000KT 9999 SCT030 37/17 Q1012;
0120832880999992010021817004-13267-043417FM-15+0443SBLP V0202701N003112200019N0112651N1+03801+01801999999ADDGA1041+009001999GF104991999999999999999999MA1101081999999REMMET051METAR SBLP 181700Z 27006KT 9999 SCT030 38/18 Q1011;
0120832880999992010021818004-13267-043417FM-15+0443SBLP V0201801N005112200019N0112651N1+03901+01701999999ADDGA1041+009001999GF104991999999999999999999MA1101021999999REMMET051METAR SBLP 181800Z 18010KT 9999 SCT030 39/17 Q1010;
0147832880999992010021819004-13267-043417FM-15+0443SBLP V0202401N005112200019N0112651N1+03901+01801999999ADDGA1021+009001091GA2041+009001999MA1100911999999MW1171REMMET063METAR SBLP 181900Z 24010KT 9999 TS SCT030 FEW030CB 39/18 Q1009;EQDQ01+000022SCOTCV
0120832880999992010021820004-13267-043417FM-15+0443SBLP V0202201N002112200019N0112651N1+03401+02001999999ADDGA1021+009001999GF102991999999999999999999MA1100911999999REMMET051METAR SBLP 182000Z 22004KT 9999 FEW030 34/20 Q1009;
0120832880999992010021821004-13267-043417FM-15+0443SBLP V0202401N001512200019N0112651N1+03401+02001999999ADDGA1021+009001999GF102991999999999999999999MA1100911999999REMMET051METAR SBLP 182100Z 24003KT 9999 FEW030 34/20 Q1009;
0072832880999992010021910004-13267-043417FM-15+0443SBLP V0209999C000019999999Y0099001N1+02501+02001999999ADDMA1101591999999REMMET045METAR SBLP 191000Z 00000KT CAVOK 25/20 Q1016;
0072832880999992010021911004-13267-043417FM-15+0443SBLP V0201201N001519999999Y0099001N1+02801+02001999999ADDMA1101591999999REMMET045METAR SBLP 191100Z 12003KT CAVOK 28/20 Q1016;
0072832880999992010021912004-13267-043417FM-15+0443SBLP V0201201N002619999999Y0099001N1+03201+01801999999ADDMA1101691999999REMMET045METAR SBLP 191200Z 12005KT CAVOK 32/18 Q1017;
0072832880999992010021913004-13267-043417FM-15+0443SBLP V0201301N002119999999Y0099001N1+03401+01801999999ADDMA1101591999999REMMET045METAR SBLP 191300Z 13004KT CAVOK 34/18 Q1016;
0072832880999992010021914004-13267-043417FM-15+0443SBLP V0201201N005119999999Y0099001N1+03601+01601999999ADDMA1101591999999REMMET045METAR SBLP 191400Z 12010KT CAVOK 36/16 Q1016;
0120832880999992010021915004-13267-043417FM-15+0443SBLP V0201301N004112200019N0112651N1+03601+01801999999ADDGA1021+009001999GF102991999999999999999999MA1101491999999REMMET051METAR SBLP 191500Z 13008KT 9999 FEW030 36/18 Q1015;
0120832880999992010021916004-13267-043417FM-15+0443SBLP V0201801N002112200019N0112651N1+03801+01601999999ADDGA1021+009001999GF102991999999999999999999MA1101391999999REMMET051METAR SBLP 191600Z 18004KT 9999 FEW030 38/16 Q1014;
0120832880999992010021917004-13267-043417FM-15+0443SBLP V0209999C000012200019N0112651N1+03901+01501999999ADDGA1041+009001999GF104991999999999999999999MA1101291999999REMMET051METAR SBLP 191700Z 00000KT 9999 SCT030 39/15 Q1013;
0120832880999992010021918004-13267-043417FM-15+0443SBLP V0202101N004112200019N0112651N1+03601+01801999999ADDGA1041+009001999GF104991999999999999999999MA1101191999999REMMET051METAR SBLP 191800Z 21008KT 9999 SCT030 36/18 Q1012;
0120832880999992010021919004-13267-043417FM-15+0443SBLP V0201201N003112200019N0112651N1+03801+01301999999ADDGA1021+009001999GF102991999999999999999999MA1101191999999REMMET051METAR SBLP 191900Z 12006KT 9999 FEW030 38/13 Q1012;
0120832880999992010021920004-13267-043417FM-15+0443SBLP V0201201N003112200019N0112651N1+03801+01501999999ADDGA1021+009001999GF102991999999999999999999MA1101191999999REMMET051METAR SBLP 192000Z 12006KT 9999 FEW030 38/15 Q1012;
0120832880999992010021921004-13267-043417FM-15+0443SBLP V0201501N001512200019N0112651N1+03601+01501999999ADDGA1021+009001999GF102991999999999999999999MA1101191999999REMMET051METAR SBLP 192100Z 15003KT 9999 FEW030 36/15 Q1012;
0072832880999992010022010004-13267-043417FM-15+0443SBLP V0209999C000019999999Y0099001N1+02401+01901999999ADDMA1101591999999REMMET045METAR SBLP 201000Z 00000KT CAVOK 24/19 Q1016;
0072832880999992010022011004-13267-043417FM-15+0443SBLP V0200901N002119999999Y0099001N1+02801+01901999999ADDMA1101591999999REMMET045METAR SBLP 201100Z 09004KT CAVOK 28/19 Q1016;
0072832880999992010022012004-13267-043417FM-15+0443SBLP V0201201N003119999999Y0099001N1+02901+01901999999ADDMA1101691999999REMMET045METAR SBLP 201200Z 12006KT CAVOK 29/19 Q1017;
0072832880999992010022013004-13267-043417FM-15+0443SBLP V0200401N003119999999Y0099001N1+03001+01901999999ADDMA1101691999999REMMET045METAR SBLP 201300Z 04006KT CAVOK 30/19 Q1017;
0072832880999992010022014004-13267-043417FM-15+0443SBLP V0200401N004119999999Y0099001N1+03301+01801999999ADDMA1101591999999REMMET045METAR SBLP 201400Z 04008KT CAVOK 33/18 Q1016;
0072832880999992010022015004-13267-043417FM-15+0443SBLP V0201201N005119999999Y0099001N1+03401+01801999999ADDMA1101491999999REMMET045METAR SBLP 201500Z 12010KT CAVOK 34/18 Q1015;
0120832880999992010022017004-13267-043417FM-15+0443SBLP V0200901N003112200019N0112651N1+03701+01701999999ADDGA1021+009001999GF102991999999999999999999MA1101191999999REMMET051METAR SBLP 201700Z 09006KT 9999 FEW030 37/17 Q1012;
0120832880999992010022018004-13267-043417FM-15+0443SBLP V0200901N003112200019N0112651N1+03801+01701999999ADDGA1041+009001999GF104991999999999999999999MA1101081999999REMMET051METAR SBLP 201800Z 09006KT 9999 SCT030 38/17 Q1011;
0143832880999992010022020004-13267-043417FM-15+0443SBLP V0200901N003112200019N0112651N1+03601+01701999999ADDGA1041+009001999GA2041+030001999GF104991999999999999999999MA1101081999999REMMET058METAR SBLP 202000Z 09006KT 9999 SCT030 SCT100 36/17 Q1011;
0143832880999992010022021004-13267-043417FM-15+0443SBLP V0200901N003112200019N0112651N1+03301+01801999999ADDGA1041+009001999GA2041+030001999GF104991999999999999999999MA1101081999999REMMET058METAR SBLP 202100Z 09006KT 9999 SCT030 SCT100 33/18 Q1011;
0072832880999992010022110004-13267-043417FM-15+0443SBLP V0209999C000019999999Y0099001N1+02401+01901999999ADDMA1101491999999REMMET045METAR SBLP 211000Z 00000KT CAVOK 24/19 Q1015;
0072832880999992010022111004-13267-043417FM-15+0443SBLP V0201801N003119999999Y0099001N1+02601+01901999999ADDMA1101491999999REMMET045METAR SBLP 211100Z 18006KT CAVOK 26/19 Q1015;
0072832880999992010022112004-13267-043417FM-15+0443SBLP V0201801N003119999999Y0099001N1+02801+01901999999ADDMA1101491999999REMMET045METAR SBLP 211200Z 18006KT CAVOK 28/19 Q1015;
0072832880999992010022113004-13267-043417FM-15+0443SBLP V0201801N003119999999Y0099001N1+02801+01901999999ADDMA1101491999999REMMET045METAR SBLP 211300Z 18006KT CAVOK 28/19 Q1015;
0143832880999992010022114004-13267-043417FM-15+0443SBLP V0201801N003112200019N0112651N1+02901+01901999999ADDGA1021+009001999GA2041+030001999GF104991999999999999999999MA1101491999999REMMET058METAR SBLP 211400Z 18006KT 9999 FEW030 SCT100 29/19 Q1015;
0143832880999992010022115004-13267-043417FM-15+0443SBLP V0200901N003110300019N0112651N1+03001+01801999999ADDGA1021+009001999GA2071+030001999GF107991999999999999999999MA1101391999999REMMET058METAR SBLP 211500Z 09006KT 9999 FEW030 BKN100 30/18 Q1014;
0120832880999992010022116004-13267-043417FM-15+0443SBLP V0202601N003112200019N0112651N1+03001+01901999999ADDGA1021+009001999GF102991999999999999999999MA1101291999999REMMET051METAR SBLP 211600Z 26006KT 9999 FEW030 30/19 Q1013;
0143832880999992010022117004-13267-043417FM-15+0443SBLP V0202301N003112200019N0112651N1+03001+02001999999ADDGA1021+009001999GA2041+030001999GF104991999999999999999999MA1101291999999REMMET058METAR SBLP 211700Z 23006KT 9999 FEW030 SCT100 30/20 Q1013;
0120832880999992010022118004-13267-043417FM-15+0443SBLP V0202701N003112200019N0112651N1+03101+01901999999ADDGA1021+009001999GF102991999999999999999999MA1101191999999REMMET051METAR SBLP 211800Z 27006KT 9999 FEW030 31/19 Q1012;
0072832880999992010022119004-13267-043417FM-15+0443SBLP V0202401N001519999999Y0099001N1+03101+01901999999ADDMA1101081999999REMMET045METAR SBLP 211900Z 24003KT CAVOK 31/19 Q1011;
0072832880999992010022120004-13267-043417FM-15+0443SBLP V0202401N002119999999Y0099001N1+03201+01801999999ADDMA1101081999999REMMET045METAR SBLP 212000Z 24004KT CAVOK 32/18 Q1011;
0072832880999992010022121004-13267-043417FM-15+0443SBLP V0202301N002119999999Y0099001N1+03201+01901999999ADDMA1101081999999REMMET045METAR SBLP 212100Z 23004KT CAVOK 32/19 Q1011;
0143832880999992010022210004-13267-043417FM-15+0443SBLP V0209999C000010300019N0112651N1+02501+02101999999ADDGA1021+006001999GA2071+030001999GF107991999999999999999999MA1101491999999REMMET058METAR SBLP 221000Z 00000KT 9999 FEW020 BKN100 25/21 Q1015;
0143832880999992010022211004-13267-043417FM-15+0443SBLP V0209999C000010300019N0112651N1+02701+02001999999ADDGA1021+006001999GA2071+030001999GF107991999999999999999999MA1101491999999REMMET058METAR SBLP 221100Z 00000KT 9999 FEW020 BKN100 27/20 Q1015;
0143832880999992010022212004-13267-043417FM-15+0443SBLP V0209999C000012200019N0112651N1+02901+02001999999ADDGA1021+006001999GA2041+030001999GF104991999999999999999999MA1101491999999REMMET058METAR SBLP 221200Z 00000KT 9999 FEW020 SCT100 29/20 Q1015;
0143832880999992010022213004-13267-043417FM-15+0443SBLP V0209999C000012200019N0112651N1+03101+01901999999ADDGA1021+009001999GA2041+030001999GF104991999999999999999999MA1101491999999REMMET058METAR SBLP 221300Z 00000KT 9999 FEW030 SCT100 31/19 Q1015;
0120832880999992010022214004-13267-043417FM-15+0443SBLP V0203601N003112200019N0112651N1+03201+01901999999ADDGA1041+009001999GF104991999999999999999999MA1101391999999REMMET051METAR SBLP 221400Z 36006KT 9999 SCT030 32/19 Q1014;
0120832880999992010022215004-13267-043417FM-15+0443SBLP V0203601N003112200019N0112651N1+03301+01801999999ADDGA1041+009001999GF104991999999999999999999MA1101291999999REMMET051METAR SBLP 221500Z 36006KT 9999 SCT030 33/18 Q1013;
0120832880999992010022216004-13267-043417FM-15+0443SBLP V0202801N006212200019N0112651N1+03401+02101999999ADDGA1041+009001999GF104991999999999999999999MA1101191999999REMMET051METAR SBLP 221600Z 28012KT 9999 SCT030 34/21 Q1012;
0131832880999992010022217004-13267-043417FM-15+0443SBLP V0202801N003112200019N0080001N1+03501+02001999999ADDGA1041+009001999GF104991999999999999999999MA1101081999999MW1161REMMET056METAR SBLP 221700Z 28006KT 8000 VCSH SCT030 35/20 Q1011;
0158832880999992010022218004-13267-043417FM-15+0443SBLP V0201301N007712200019N0080001N1+03401+02001999999ADDGA1021+009001091GA2041+009001999MA1101081999999MW1161MW2171REMMET068METAR SBLP 221800Z 13015KT 8000 TS VCSH SCT030 FEW030CB 34/20 Q1011;EQDQ01+000022SCOTCV
0125832880999992010022219004-13267-043417FM-15+0443SBLP V0200901N004112200019N0112651N1+03201+02101999999ADDGA1021+009001999GF102991999999999999999999MA1101021999999REMMET056METAR SBLP 221900Z 09008KT 9999 FEW030 32/21 Q1010 RETS;
0120832880999992010022220004-13267-043417FM-15+0443SBLP V0200901N004112200019N0112651N1+03201+02101999999ADDGA1021+009001999GF102991999999999999999999MA1101021999999REMMET051METAR SBLP 222000Z 09008KT 9999 FEW030 32/21 Q1010;
0120832880999992010022221004-13267-043417FM-15+0443SBLP V0200901N004112200019N0112651N1+03101+02001999999ADDGA1021+009001999GF102991999999999999999999MA1101021999999REMMET051METAR SBLP 222100Z 09008KT 9999 FEW030 31/20 Q1010;
0120832880999992010022310004-13267-043417FM-15+0443SBLP V0201801N005112200019N0112651N1+02401+02101999999ADDGA1041+007501999GF104991999999999999999999MA1101491999999REMMET051METAR SBLP 231000Z 18010KT 9999 SCT025 24/21 Q1015;
0120832880999992010022311004-13267-043417FM-15+0443SBLP V0201201N003112200019N0112651N1+02501+02101999999ADDGA1041+007501999GF104991999999999999999999MA1101491999999REMMET051METAR SBLP 231100Z 12006KT 9999 SCT025 25/21 Q1015;
0120832880999992010022312004-13267-043417FM-15+0443SBLP V0201201N002612200019N0112651N1+02601+02101999999ADDGA1041+007501999GF104991999999999999999999MA1101591999999REMMET051METAR SBLP 231200Z 12005KT 9999 SCT025 26/21 Q1016;
0120832880999992010022313004-13267-043417FM-15+0443SBLP V0201001N003612200019N0112651N1+02801+02101999999ADDGA1041+008101999GF104991999999999999999999MA1101591999999REMMET051METAR SBLP 231300Z 10007KT 9999 SCT027 28/21 Q1016;
0139832880999992010022314004-13267-043417FM-15+0443SBLP V0201101N004112200019N0112651N1+02901+01801999999ADDGA1041+008101999GA2021+009601021MA1101591999999REMMET061METAR SBLP 231400Z 11008KT 9999 SCT027 FEW032TCU 29/18 Q1016;EQDQ01+000022SCOTCV
0139832880999992010022315004-13267-043417FM-15+0443SBLP V0203301N002112200019N0112651N1+02801+02101999999ADDGA1041+008101999GA2021+009601021MA1101491999999REMMET061METAR SBLP 231500Z 33004KT 9999 SCT027 FEW032TCU 28/21 Q1015;EQDQ01+000022SCOTCV
0143832880999992010022316004-13267-043417FM-15+0443SBLP V0203301N003110300019N0112651N1+03001+02101999999ADDGA1021+009001999GA2071+030001999GF107991999999999999999999MA1101391999999REMMET058METAR SBLP 231600Z 33006KT 9999 FEW030 BKN100 30/21 Q1014;
0143832880999992010022317004-13267-043417FM-15+0443SBLP V0201301N003112200019N0112651N1+03301+02001999999ADDGA1021+009001999GA2041+030001999GF104991999999999999999999MA1101191999999REMMET058METAR SBLP 231700Z 13006KT 9999 FEW030 SCT100 33/20 Q1012;
0143832880999992010022318004-13267-043417FM-15+0443SBLP V0209999C000012200019N0112651N1+03401+01901999999ADDGA1021+009001999GA2041+030001999GF104991999999999999999999MA1101081999999REMMET058METAR SBLP 231800Z 00000KT 9999 FEW030 SCT100 34/19 Q1011;
0143832880999992010022319004-13267-043417FM-15+0443SBLP V0202601N003112200019N0112651N1+03501+01701999999ADDGA1021+009001999GA2041+030001999GF104991999999999999999999MA1101021999999REMMET058METAR SBLP 231900Z 26006KT 9999 FEW030 SCT100 35/17 Q1010;
0143832880999992010022320004-13267-043417FM-15+0443SBLP V0203301N004110300019N0112651N1+03301+01701999999ADDGA1021+009001999GA2071+030001999GF107991999999999999999999MA1101081999999REMMET058METAR SBLP 232000Z 33008KT 9999 FEW030 BKN100 33/17 Q1011;
0143832880999992010022321004-13267-043417FM-15+0443SBLP V0203601N005110300019N0112651N1+03101+01801999999ADDGA1021+009001999GA2071+030001999GF107991999999999999999999MA1101081999999REMMET058METAR SBLP 232100Z 36010KT 9999 FEW030 BKN100 31/18 Q1011;
0072832880999992010022410004-13267-043417FM-15+0443SBLP V0209999C000019999999Y0099001N1+02301+02001999999ADDMA1101491999999REMMET045METAR SBLP 241000Z 00000KT CAVOK 23/20 Q1015;
0072832880999992010022411004-13267-043417FM-15+0443SBLP V0209999C000019999999Y0099001N1+02601+02101999999ADDMA1101491999999REMMET045METAR SBLP 241100Z 00000KT CAVOK 26/21 Q1015;
0072832880999992010022412004-13267-043417FM-15+0443SBLP V0209999C000019999999Y0099001N1+03001+02101999999ADDMA1101491999999REMMET045METAR SBLP 241200Z 00000KT CAVOK 30/21 Q1015;
0072832880999992010022413004-13267-043417FM-15+0443SBLP V0209999C000019999999Y0099001N1+03201+02101999999ADDMA1101491999999REMMET045METAR SBLP 241300Z 00000KT CAVOK 32/21 Q1015;
0120832880999992010022414004-13267-043417FM-15+0443SBLP V0202401N003112200019N0112651N1+03301+02101999999ADDGA1021+009001999GF102991999999999999999999MA1101391999999REMMET051METAR SBLP 241400Z 24006KT 9999 FEW030 33/21 Q1014;
0120832880999992010022415004-13267-043417FM-15+0443SBLP V0202501N004112200019N0112651N1+03501+01901999999ADDGA1041+009001999GF104991999999999999999999MA1101291999999REMMET051METAR SBLP 241500Z 25008KT 9999 SCT030 35/19 Q1013;
0120832880999992010022416004-13267-043417FM-15+0443SBLP V0201801N003112200019N0112651N1+03601+01901999999ADDGA1041+009001999GF104991999999999999999999MA1101081999999REMMET051METAR SBLP 241600Z 18006KT 9999 SCT030 36/19 Q1011;
0120832880999992010022417004-13267-043417FM-15+0443SBLP V0201801N003112200019N0112651N1+03701+01801999999ADDGA1041+009001999GF104991999999999999999999MA1101021999999REMMET051METAR SBLP 241700Z 18006KT 9999 SCT030 37/18 Q1010;
0120832880999992010022418004-13267-043417FM-15+0443SBLP V0201801N003112200019N0112651N1+03801+01701999999ADDGA1041+009001999GF104991999999999999999999MA1100911999999REMMET051METAR SBLP 241800Z 18006KT 9999 SCT030 38/17 Q1009;
0120832880999992010022419004-13267-043417FM-15+0443SBLP V0202701N003112200019N0112651N1+03701+01701999999ADDGA1041+009001999GF104991999999999999999999MA1100811999999REMMET051METAR SBLP 241900Z 27006KT 9999 SCT030 37/17 Q1008;
0120832880999992010022420004-13267-043417FM-15+0443SBLP V0203601N006210090019N0112651N1+03501+01801999999ADDGA1071+009001999GF107991999999999999999999MA1100911999999REMMET051METAR SBLP 242000Z 36012KT 9999 BKN030 35/18 Q1009;
0120832880999992010022421004-13267-043417FM-15+0443SBLP V0203601N003110090019N0112651N1+03301+01901999999ADDGA1071+009001999GF107991999999999999999999MA1101021999999REMMET051METAR SBLP 242100Z 36006KT 9999 BKN030 33/19 Q1010;
0072832880999992010022509114-13267-043417FM-15+0443SBLP V0209999C000019999999Y0099001N1+02201+02001999999ADDMA1101291999999REMMET045METAR SBLP 250911Z 00000KT CAVOK 22/20 Q1013;
0072832880999992010022510004-13267-043417FM-15+0443SBLP V0209999C000019999999Y0099001N1+02401+02101999999ADDMA1101391999999REMMET045METAR SBLP 251000Z 00000KT CAVOK 24/21 Q1014;
0072832880999992010022511004-13267-043417FM-15+0443SBLP V0203101N001519999999Y0099001N1+02701+02001999999ADDMA1101491999999REMMET045METAR SBLP 251100Z 31003KT CAVOK 27/20 Q1015;
0072832880999992010022512004-13267-043417FM-15+0443SBLP V0209999C000019999999Y0099001N1+02901+02101999999ADDMA1101491999999REMMET045METAR SBLP 251200Z 00000KT CAVOK 29/21 Q1015;
0072832880999992010022513004-13267-043417FM-15+0443SBLP V0202701N002119999999Y0099001N1+03101+02101999999ADDMA1101391999999REMMET045METAR SBLP 251300Z 27004KT CAVOK 31/21 Q1014;
0120832880999992010022514004-13267-043417FM-15+0443SBLP V0203301N004112200019N0112651N1+03301+02001999999ADDGA1041+009001999GF104991999999999999999999MA1101391999999REMMET051METAR SBLP 251400Z 33008KT 9999 SCT030 33/20 Q1014;
0120832880999992010022515004-13267-043417FM-15+0443SBLP V0203401N002112200019N0112651N1+03401+02101999999ADDGA1041+009001999GF104991999999999999999999MA1101291999999REMMET051METAR SBLP 251500Z 34004KT 9999 SCT030 34/21 Q1013;
0120832880999992010022516004-13267-043417FM-15+0443SBLP V0203601N003112200019N0112651N1+03501+02001999999ADDGA1041+009001999GF104991999999999999999999MA1101191999999REMMET051METAR SBLP 251600Z 36006KT 9999 SCT030 35/20 Q1012;
0120832880999992010022517004-13267-043417FM-15+0443SBLP V0203601N003112200019N0112651N1+03601+01901999999ADDGA1041+009001999GF104991999999999999999999MA1101021999999REMMET051METAR SBLP 251700Z 36006KT 9999 SCT030 36/19 Q1010;
0120832880999992010022518004-13267-043417FM-15+0443SBLP V0203601N003112200019N0112651N1+03801+01801999999ADDGA1041+009001999GF104991999999999999999999MA1100911999999REMMET051METAR SBLP 251800Z 36006KT 9999 SCT030 38/18 Q1009;
0120832880999992010022520004-13267-043417FM-15+0443SBLP V0203601N003112200019N0112651N1+03701+01801999999ADDGA1041+009001999GF104991999999999999999999MA1100811999999REMMET051METAR SBLP 252000Z 36006KT 9999 SCT030 37/18 Q1008;
0120832880999992010022521004-13267-043417FM-15+0443SBLP V0203601N003112200019N0112651N1+03301+01901999999ADDGA1041+009001999GF104991999999999999999999MA1100811999999REMMET051METAR SBLP 252100Z 36006KT 9999 SCT030 33/19 Q1008;
0072832880999992010022610004-13267-043417FM-15+0443SBLP V0209999C000019999999Y0099001N1+02501+02101999999ADDMA1101191999999REMMET045METAR SBLP 261000Z 00000KT CAVOK 25/21 Q1012;
0072832880999992010022611004-13267-043417FM-15+0443SBLP V0209999C000019999999Y0099001N1+02801+02001999999ADDMA1101291999999REMMET045METAR SBLP 261100Z 00000KT CAVOK 28/20 Q1013;
0120832880999992010022612004-13267-043417FM-15+0443SBLP V0203601N003112200019N0112651N1+03001+02001999999ADDGA1021+009001999GF102991999999999999999999MA1101391999999REMMET051METAR SBLP 261200Z 36006KT 9999 FEW030 30/20 Q1014;
0120832880999992010022613004-13267-043417FM-15+0443SBLP V0203601N003112200019N0112651N1+03001+02001999999ADDGA1021+009001999GF102991999999999999999999MA1101391999999REMMET051METAR SBLP 261300Z 36006KT 9999 FEW030 30/20 Q1014;
0120832880999992010022614004-13267-043417FM-15+0443SBLP V0203601N003112200019N0112651N1+03401+01801999999ADDGA1041+009001999GF104991999999999999999999MA1101291999999REMMET051METAR SBLP 261400Z 36006KT 9999 SCT030 34/18 Q1013;
0120832880999992010022615004-13267-043417FM-15+0443SBLP V0203601N003112200019N0112651N1+03401+01801999999ADDGA1041+009001999GF104991999999999999999999MA1101191999999REMMET051METAR SBLP 261500Z 36006KT 9999 SCT030 34/18 Q1012;
0120832880999992010022616004-13267-043417FM-15+0443SBLP V0203601N003112200019N0112651N1+03601+01801999999ADDGA1041+009001999GF104991999999999999999999MA1101021999999REMMET051METAR SBLP 261600Z 36006KT 9999 SCT030 36/18 Q1010;
0120832880999992010022617004-13267-043417FM-15+0443SBLP V0203601N003112200019N0112651N1+03701+01801999999ADDGA1041+009001999GF104991999999999999999999MA1100811999999REMMET051METAR SBLP 261700Z 36006KT 9999 SCT030 37/18 Q1008;
0120832880999992010022618004-13267-043417FM-15+0443SBLP V0203601N003112200019N0112651N1+03701+01801999999ADDGA1041+009001999GF104991999999999999999999MA1100711999999REMMET051METAR SBLP 261800Z 36006KT 9999 SCT030 37/18 Q1007;
0120832880999992010022619004-13267-043417FM-15+0443SBLP V0203601N003112200019N0112651N1+03701+01801999999ADDGA1041+009001999GF104991999999999999999999MA1100711999999REMMET051METAR SBLP 261900Z 36006KT 9999 SCT030 37/18 Q1007;
0147832880999992010022620004-13267-043417FM-15+0443SBLP V0200901N006212200019N0112651N1+03601+01801999999ADDGA1041+009001999GA2021+012001091MA1100811999999MW1171REMMET063METAR SBLP 262000Z 09012KT 9999 TS SCT030 FEW040CB 36/18 Q1008;EQDQ01+000022SCOTCV
0147832880999992010022621004-13267-043417FM-15+0443SBLP V0203601N003112200019N0112651N1+03001+02001999999ADDGA1041+009001999GA2021+012001091MA1100911999999MW1171REMMET063METAR SBLP 262100Z 36006KT 9999 TS SCT030 FEW040CB 30/20 Q1009;EQDQ01+000022SCOTCV
0072832880999992010022710004-13267-043417FM-15+0443SBLP V0209999C000019999999Y0099001N1+02401+02301999999ADDMA1101291999999REMMET045METAR SBLP 271000Z 00000KT CAVOK 24/23 Q1013;
0072832880999992010022712004-13267-043417FM-15+0443SBLP V0209999C000019999999Y0099001N1+02801+02301999999ADDMA1101491999999REMMET045METAR SBLP 271200Z 00000KT CAVOK 28/23 Q1015;
0143832880999992010022713004-13267-043417FM-15+0443SBLP V0201801N003112200019N0112651N1+03001+02201999999ADDGA1021+009001999GA2041+030001999GF104991999999999999999999MA1101491999999REMMET058METAR SBLP 271300Z 18006KT 9999 FEW030 SCT100 30/22 Q1015;
0143832880999992010022714004-13267-043417FM-15+0443SBLP V0202701N002110300019N0112651N1+03101+02201999999ADDGA1041+009001999GA2071+030001999GF107991999999999999999999MA1101391999999REMMET058METAR SBLP 271400Z 27004KT 9999 SCT030 BKN100 31/22 Q1014;
0143832880999992010022715004-13267-043417FM-15+0443SBLP V0203301N002112200019N0112651N1+03201+02201999999ADDGA1041+009001999GA2041+030001999GF104991999999999999999999MA1101291999999REMMET058METAR SBLP 271500Z 33004KT 9999 SCT030 SCT100 32/22 Q1013;
0143832880999992010022716004-13267-043417FM-15+0443SBLP V0209999C000012200019N0112651N1+03401+02201999999ADDGA1041+009001999GA2041+030001999GF104991999999999999999999MA1101081999999REMMET058METAR SBLP 271600Z 00000KT 9999 SCT030 SCT100 34/22 Q1011;
0143832880999992010022717004-13267-043417FM-15+0443SBLP V0200401N004110300019N0112651N1+03101+02301999999ADDGA1041+009001999GA2071+030001999GF107991999999999999999999MA1101081999999REMMET058METAR SBLP 271700Z 04008KT 9999 SCT030 BKN100 31/23 Q1011;
0143832880999992010022718004-13267-043417FM-15+0443SBLP V0200401N003110300019N0112651N1+03001+02301999999ADDGA1041+009001999GA2071+030001999GF107991999999999999999999MA1101021999999REMMET058METAR SBLP 271800Z 04006KT 9999 SCT030 BKN100 30/23 Q1010;
0143832880999992010022719004-13267-043417FM-15+0443SBLP V0200401N003110300019N0112651N1+02901+02401999999ADDGA1021+009001999GA2071+030001999GF107991999999999999999999MA1101081999999REMMET058METAR SBLP 271900Z 04006KT 9999 FEW030 BKN100 29/24 Q1011;
0143832880999992010022720004-13267-043417FM-15+0443SBLP V0209999C000010300019N0112651N1+02901+02301999999ADDGA1041+009001999GA2071+030001999GF107991999999999999999999MA1101081999999REMMET058METAR SBLP 272000Z 00000KT 9999 SCT030 BKN100 29/23 Q1011;
0143832880999992010022721004-13267-043417FM-15+0443SBLP V0202701N003110300019N0112651N1+02701+02401999999ADDGA1021+009001999GA2071+030001999GF107991999999999999999999MA1101081999999REMMET058METAR SBLP 272100Z 27006KT 9999 FEW030 BKN100 27/24 Q1011;
0143832880999992010022810004-13267-043417FM-15+0443SBLP V0209999C000010300019N0112651N1+02401+02401999999ADDGA1041+004501999GA2071+030001999GF107991999999999999999999MA1101491999999REMMET058METAR SBLP 281000Z 00000KT 9999 SCT015 BKN100 24/24 Q1015;
0143832880999992010022811004-13267-043417FM-15+0443SBLP V0209999C000010300019N0112651N1+02501+02401999999ADDGA1041+004501999GA2071+030001999GF107991999999999999999999MA1101591999999REMMET058METAR SBLP 281100Z 00000KT 9999 SCT015 BKN100 25/24 Q1016;
0143832880999992010022812004-13267-043417FM-15+0443SBLP V0209999C000010300019N0112651N1+02401+02401999999ADDGA1041+004501999GA2071+030001999GF107991999999999999999999MA1101591999999REMMET058METAR SBLP 281200Z 00000KT 9999 SCT015 BKN100 24/24 Q1016;
0143832880999992010022813004-13267-043417FM-15+0443SBLP V0202401N003110300019N0112651N1+02601+02401999999ADDGA1041+006001999GA2071+030001999GF107991999999999999999999MA1101691999999REMMET058METAR SBLP 281300Z 24006KT 9999 SCT020 BKN100 26/24 Q1017;
0143832880999992010022814004-13267-043417FM-15+0443SBLP V0202701N003110300019N0112651N1+02701+02401999999ADDGA1041+006001999GA2071+030001999GF107991999999999999999999MA1101591999999REMMET058METAR SBLP 281400Z 27006KT 9999 SCT020 BKN100 27/24 Q1016;
0143832880999992010022815004-13267-043417FM-15+0443SBLP V0209999C000012200019N0112651N1+02901+02301999999ADDGA1021+006001999GA2041+030001999GF104991999999999999999999MA1101491999999REMMET058METAR SBLP 281500Z 00000KT 9999 FEW020 SCT100 29/23 Q1015;
0143832880999992010022816004-13267-043417FM-15+0443SBLP V0202401N003112200019N0112651N1+03001+02301999999ADDGA1041+009001999GA2041+030001999GF104991999999999999999999MA1101391999999REMMET058METAR SBLP 281600Z 24006KT 9999 SCT030 SCT100 30/23 Q1014;
0120832880999992010022817004-13267-043417FM-15+0443SBLP V0202401N002112200019N0112651N1+03101+02201999999ADDGA1041+009001999GF104991999999999999999999MA1101191999999REMMET051METAR SBLP 281700Z 24004KT 9999 SCT030 31/22 Q1012;
0120832880999992010022818004-13267-043417FM-15+0443SBLP V0201801N003112200019N0112651N1+03301+02101999999ADDGA1041+009001999GF104991999999999999999999MA1101081999999REMMET051METAR SBLP 281800Z 18006KT 9999 SCT030 33/21 Q1011;
0120832880999992010022819004-13267-043417FM-15+0443SBLP V0202101N003112200019N0112651N1+03401+02201999999ADDGA1041+009001999GF104991999999999999999999MA1101021999999REMMET051METAR SBLP 281900Z 21006KT 9999 SCT030 34/22 Q1010;
0185832880999992010022820004-13267-043417FM-15+0443SBLP V0201201N00621030001CN0060001N1+02601+02301999999ADDGA1021+009001091GA2071+009001999GA3071+030001999GF107991999999999999999999MA1101081999999MW1811MW2951REMMET072METAR SBLP 282000Z 12012KT 6000 TSRA BKN030 FEW030CB BKN100 26/23 Q1011;
0182832880999992010022821004-13267-043417FM-15+0443SBLP V0203001N005110300019N0112651N1+02401+02201999999ADDGA1021+009001091GA2041+009001999GA3071+030001999GF107991999999999999999999MA1101191999999MW1171REMMET075METAR SBLP 282100Z 30010KT 9999 TS SCT030 FEW030CB BKN100 24/22 Q1012 RERA;
0143832880999992010030110004-13267-043417FM-15+0443SBLP V0209999C000010300019N0112651N1+02401+02301999999ADDGA1021+006001999GA2071+030001999GF107991999999999999999999MA1101491999999REMMET058METAR SBLP 011000Z 00000KT 9999 FEW020 BKN100 24/23 Q1015;
0143832880999992010030111004-13267-043417FM-15+0443SBLP V0200901N003110300019N0112651N1+02501+02301999999ADDGA1041+006001999GA2071+030001999GF107991999999999999999999MA1101491999999REMMET058METAR SBLP 011100Z 09006KT 9999 SCT020 BKN100 25/23 Q1015;
0143832880999992010030112004-13267-043417FM-15+0443SBLP V0200601N003110300019N0112651N1+02701+02401999999ADDGA1041+006001999GA2071+030001999GF107991999999999999999999MA1101591999999REMMET058METAR SBLP 011200Z 06006KT 9999 SCT020 BKN100 27/24 Q1016;
0143832880999992010030113004-13267-043417FM-15+0443SBLP V0209999C000010300019N0112651N1+02901+02401999999ADDGA1041+006001999GA2071+030001999GF107991999999999999999999MA1101591999999REMMET058METAR SBLP 011300Z 00000KT 9999 SCT020 BKN100 29/24 Q1016;
0143832880999992010030114004-13267-043417FM-15+0443SBLP V0203001N003110300019N0112651N1+02901+02401999999ADDGA1041+006001999GA2071+030001999GF107991999999999999999999MA1101591999999REMMET058METAR SBLP 011400Z 30006KT 9999 SCT020 BKN100 29/24 Q1016;
0143832880999992010030115004-13267-043417FM-15+0443SBLP V0203001N003110300019N0112651N1+02901+02501999999ADDGA1041+006001999GA2071+030001999GF107991999999999999999999MA1101491999999REMMET058METAR SBLP 011500Z 30006KT 9999 SCT020 BKN100 29/25 Q1015;
0143832880999992010030116004-13267-043417FM-15+0443SBLP V0203601N003110300019N0112651N1+02901+02201999999ADDGA1041+006001999GA2071+030001999GF107991999999999999999999MA1101491999999REMMET058METAR SBLP 011600Z 36006KT 9999 SCT020 BKN100 29/22 Q1015;
0143832880999992010030117004-13267-043417FM-15+0443SBLP V0203601N003110300019N0112651N1+02901+02101999999ADDGA1021+009001999GA2071+030001999GF107991999999999999999999MA1101391999999REMMET058METAR SBLP 011700Z 36006KT 9999 FEW030 BKN100 29/21 Q1014;
0143832880999992010030118004-13267-043417FM-15+0443SBLP V0203601N003110300019N0112651N1+02901+02101999999ADDGA1021+009001999GA2071+030001999GF107991999999999999999999MA1101291999999REMMET058METAR SBLP 011800Z 36006KT 9999 FEW030 BKN100 29/21 Q1013;
0143832880999992010030119004-13267-043417FM-15+0443SBLP V0203601N003110300019N0112651N1+02901+02101999999ADDGA1021+009001999GA2071+030001999GF107991999999999999999999MA1101191999999REMMET058METAR SBLP 011900Z 36006KT 9999 FEW030 BKN100 29/21 Q1012;
0143832880999992010030120004-13267-043417FM-15+0443SBLP V0203601N003112200019N0112651N1+02901+02101999999ADDGA1021+009001999GA2041+030001999GF104991999999999999999999MA1101191999999REMMET058METAR SBLP 012000Z 36006KT 9999 FEW030 SCT100 29/21 Q1012;
0143832880999992010030121004-13267-043417FM-15+0443SBLP V0203601N003110300019N0112651N1+02801+02101999999ADDGA1021+009001999GA2071+030001999GF107991999999999999999999MA1101191999999REMMET058METAR SBLP 012100Z 36006KT 9999 FEW030 BKN100 28/21 Q1012;
0072832880999992010030210004-13267-043417FM-15+0443SBLP V0209999C000019999999Y0099001N1+02401+02201999999ADDMA1101391999999REMMET045METAR SBLP 021000Z 00000KT CAVOK 24/22 Q1014;
0072832880999992010030211004-13267-043417FM-15+0443SBLP V0209999C000019999999Y0099001N1+02601+02201999999ADDMA1101491999999REMMET045METAR SBLP 021100Z 00000KT CAVOK 26/22 Q1015;
0072832880999992010030212004-13267-043417FM-15+0443SBLP V0201501N002119999999Y0099001N1+02801+02201999999ADDMA1101491999999REMMET045METAR SBLP 021200Z 15004KT CAVOK 28/22 Q1015;
0072832880999992010030213004-13267-043417FM-15+0443SBLP V0209999C000019999999Y0099001N1+03001+02101999999ADDMA1101491999999REMMET045METAR SBLP 021300Z 00000KT CAVOK 30/21 Q1015;
0120832880999992010030214004-13267-043417FM-15+0443SBLP V0209999C000012200019N0112651N1+03201+02101999999ADDGA1021+009001999GF102991999999999999999999MA1101491999999REMMET051METAR SBLP 021400Z 00000KT 9999 FEW030 32/21 Q1015;
0120832880999992010030216004-13267-043417FM-15+0443SBLP V0202701N003112200019N0112651N1+03401+02101999999ADDGA1041+009001999GF104991999999999999999999MA1101191999999REMMET051METAR SBLP 021600Z 27006KT 9999 SCT030 34/21 Q1012;
0120832880999992010030217004-13267-043417FM-15+0443SBLP V0203601N003112200019N0112651N1+03501+02001999999ADDGA1041+009001999GF104991999999999999999999MA1101081999999REMMET051METAR SBLP 021700Z 36006KT 9999 SCT030 35/20 Q1011;
0120832880999992010030218004-13267-043417FM-15+0443SBLP V0203601N003110090019N0112651N1+03601+01901999999ADDGA1071+009001999GF107991999999999999999999MA1101021999999REMMET051METAR SBLP 021800Z 36006KT 9999 BKN030 36/19 Q1010;
0143832880999992010030219004-13267-043417FM-15+0443SBLP V0202701N003112200019N0112651N1+03501+02001999999ADDGA1041+009001999GA2041+030001999GF104991999999999999999999MA1101021999999REMMET058METAR SBLP 021900Z 27006KT 9999 SCT030 SCT100 35/20 Q1010;
0143832880999992010030220004-13267-043417FM-15+0443SBLP V0202701N003110300019N0112651N1+03301+02001999999ADDGA1041+009001999GA2071+030001999GF107991999999999999999999MA1101021999999REMMET058METAR SBLP 022000Z 27006KT 9999 SCT030 BKN100 33/20 Q1010;
0143832880999992010030221004-13267-043417FM-15+0443SBLP V0201801N003110300019N0112651N1+03101+02101999999ADDGA1041+009001999GA2071+030001999GF107991999999999999999999MA1101081999999REMMET058METAR SBLP 022100Z 18006KT 9999 SCT030 BKN100 31/21 Q1011;
0143832880999992010030310004-13267-043417FM-15+0443SBLP V0209999C000010300019N0112651N1+02301+02101999999ADDGA1041+003001999GA2071+030001999GF107991999999999999999999MA1101491999999REMMET058METAR SBLP 031000Z 00000KT 9999 SCT010 BKN100 23/21 Q1015;
0153832880999992010030311004-13267-043417FM-15+0443SBLP V0209999C000010300019N0090001N1+02301+02101999999ADDGA1041+003001999GA2071+030001999GF107991999999999999999999MA1101591999999MW1611REMMET062METAR SBLP 031100Z 00000KT 9000 -RA SCT010 BKN100 23/21 Q1016;
0143832880999992010030312004-13267-043417FM-15+0443SBLP V0201801N003110300019N0112651N1+02401+02101999999ADDGA1041+003001999GA2071+030001999GF107991999999999999999999MA1101591999999REMMET058METAR SBLP 031200Z 18006KT 9999 SCT010 BKN100 24/21 Q1016;
0143832880999992010030313004-13267-043417FM-15+0443SBLP V0201801N003110300019N0112651N1+02601+02101999999ADDGA1041+004501999GA2071+030001999GF107991999999999999999999MA1101591999999REMMET058METAR SBLP 031300Z 18006KT 9999 SCT015 BKN100 26/21 Q1016;
0143832880999992010030314004-13267-043417FM-15+0443SBLP V0201801N003110300019N0112651N1+02701+02101999999ADDGA1041+004501999GA2071+030001999GF107991999999999999999999MA1101591999999REMMET058METAR SBLP 031400Z 18006KT 9999 SCT015 BKN100 27/21 Q1016;
0143832880999992010030315004-13267-043417FM-15+0443SBLP V0201801N003112200019N0112651N1+02901+02101999999ADDGA1041+006001999GA2041+030001999GF104991999999999999999999MA1101491999999REMMET058METAR SBLP 031500Z 18006KT 9999 SCT020 SCT100 29/21 Q1015;
0143832880999992010030316004-13267-043417FM-15+0443SBLP V0201801N003110300019N0112651N1+02901+02101999999ADDGA1041+006001999GA2071+030001999GF107991999999999999999999MA1101391999999REMMET058METAR SBLP 031600Z 18006KT 9999 SCT020 BKN100 29/21 Q1014;
0177832880999992010030317004-13267-043417FM-15+0443SBLP V0200101N00621012001CN0112651N1+02901+02501999999ADDGA1041+006001999GA2021+012001091GA3071+030001999GF107991999999999999999999MA1101391999999MW1171REMMET070METAR SBLP 031700Z 01012KT 9999 TS SCT020 FEW040CB BKN100 29/25 Q1014;
0185832880999992010030318004-13267-043417FM-15+0443SBLP V0203601N00311012001CN0090001N1+02401+02401999999ADDGA1041+006001999GA2021+012001091GA3071+030001999GF107991999999999999999999MA1101291999999MW1811MW2951REMMET072METAR SBLP 031800Z 36006KT 9000 TSRA SCT020 FEW040CB BKN100 24/24 Q1013;
0143832880999992010030320004-13267-043417FM-15+0443SBLP V0200401N003110300019N0112651N1+02501+02401999999ADDGA1041+006001999GA2071+030001999GF107991999999999999999999MA1101191999999REMMET058METAR SBLP 032000Z 04006KT 9999 SCT020 BKN100 25/24 Q1012;
0143832880999992010030321004-13267-043417FM-15+0443SBLP V0200901N003110300019N0112651N1+02501+02501999999ADDGA1041+006001999GA2071+030001999GF107991999999999999999999MA1101291999999REMMET058METAR SBLP 032100Z 09006KT 9999 SCT020 BKN100 25/25 Q1013;
0143832880999992010030410004-13267-043417FM-15+0443SBLP V0209999C000010300019N0112651N1+02301+02101999999ADDGA1041+003001999GA2071+030001999GF107991999999999999999999MA1101491999999REMMET058METAR SBLP 041000Z 00000KT 9999 SCT010 BKN100 23/21 Q1015;
0143832880999992010030411004-13267-043417FM-15+0443SBLP V0201801N003110300019N0112651N1+02301+02101999999ADDGA1041+003001999GA2071+030001999GF107991999999999999999999MA1101491999999REMMET058METAR SBLP 041100Z 18006KT 9999 SCT010 BKN100 23/21 Q1015;
0143832880999992010030412004-13267-043417FM-15+0443SBLP V0201801N003110300019N0112651N1+02501+02101999999ADDGA1041+004501999GA2071+030001999GF107991999999999999999999MA1101591999999REMMET058METAR SBLP 041200Z 18006KT 9999 SCT015 BKN100 25/21 Q1016;
0143832880999992010030413004-13267-043417FM-15+0443SBLP V0201801N003110300019N0112651N1+02501+02101999999ADDGA1041+006001999GA2071+030001999GF107991999999999999999999MA1101491999999REMMET058METAR SBLP 041300Z 18006KT 9999 SCT020 BKN100 25/21 Q1015;
0143832880999992010030414004-13267-043417FM-15+0443SBLP V0201801N003110300019N0112651N1+02501+02101999999ADDGA1041+006001999GA2071+030001999GF107991999999999999999999MA1101491999999REMMET058METAR SBLP 041400Z 18006KT 9999 SCT020 BKN100 25/21 Q1015;
0143832880999992010030415004-13267-043417FM-15+0443SBLP V0203601N003110300019N0112651N1+02801+02101999999ADDGA1021+006001999GA2071+030001999GF107991999999999999999999MA1101391999999REMMET058METAR SBLP 041500Z 36006KT 9999 FEW020 BKN100 28/21 Q1014;
0143832880999992010030416004-13267-043417FM-15+0443SBLP V0209999C000010300019N0112651N1+02901+02101999999ADDGA1021+006001999GA2071+030001999GF107991999999999999999999MA1101291999999REMMET058METAR SBLP 041600Z 00000KT 9999 FEW020 BKN100 29/21 Q1013;
0143832880999992010030417004-13267-043417FM-15+0443SBLP V0203501N003110300019N0112651N1+03001+02101999999ADDGA1021+009001999GA2071+030001999GF107991999999999999999999MA1101081999999REMMET058METAR SBLP 041700Z 35006KT 9999 FEW030 BKN100 30/21 Q1011;
0143832880999992010030418004-13267-043417FM-15+0443SBLP V0209999C000012200019N0112651N1+03101+02201999999ADDGA1021+006001999GA2041+030001999GF104991999999999999999999MA1101021999999REMMET058METAR SBLP 041800Z 00000KT 9999 FEW020 SCT100 31/22 Q1010;
0143832880999992010030419004-13267-043417FM-15+0443SBLP V0209999C000010300019N0112651N1+03201+02201999999ADDGA1021+006001999GA2071+030001999GF107991999999999999999999MA1101021999999REMMET058METAR SBLP 041900Z 00000KT 9999 FEW020 BKN100 32/22 Q1010;
0143832880999992010030420004-13267-043417FM-15+0443SBLP V0209999C000010300019N0112651N1+03201+02201999999ADDGA1021+006001999GA2071+030001999GF107991999999999999999999MA1100911999999REMMET058METAR SBLP 042000Z 00000KT 9999 FEW020 BKN100 32/22 Q1009;
0143832880999992010030510004-13267-043417FM-15+0443SBLP V0209999C000010300019N0112651N1+02401+02301999999ADDGA1041+006001999GA2071+030001999GF107991999999999999999999MA1101391999999REMMET058METAR SBLP 051000Z 00000KT 9999 SCT020 BKN100 24/23 Q1014;
0143832880999992010030511004-13267-043417FM-15+0443SBLP V0203601N003110300019N0112651N1+02301+02301999999ADDGA1041+006001999GA2071+030001999GF107991999999999999999999MA1101391999999REMMET058METAR SBLP 051100Z 36006KT 9999 SCT020 BKN100 23/23 Q1014;
0143832880999992010030513004-13267-043417FM-15+0443SBLP V0209999C000010300019N0112651N1+02301+02301999999ADDGA1041+004501999GA2071+030001999GF107991999999999999999999MA1101391999999REMMET058METAR SBLP 051300Z 00000KT 9999 SCT015 BKN100 23/23 Q1014;
0143832880999992010030514004-13267-043417FM-15+0443SBLP V0209999C000010300019N0112651N1+02701+02201999999ADDGA1041+006001999GA2071+030001999GF107991999999999999999999MA1101391999999REMMET058METAR SBLP 051400Z 00000KT 9999 SCT020 BKN100 27/22 Q1014;
0143832880999992010030515004-13267-043417FM-15+0443SBLP V0209999C000010300019N0112651N1+02801+02401999999ADDGA1021+006001999GA2071+030001999GF107991999999999999999999MA1101291999999REMMET058METAR SBLP 051500Z 00000KT 9999 FEW020 BKN100 28/24 Q1013;
0143832880999992010030516004-13267-043417FM-15+0443SBLP V0201201N001512200019N0112651N1+03001+02401999999ADDGA1021+009001999GA2041+030001999GF104991999999999999999999MA1101191999999REMMET058METAR SBLP 051600Z 12003KT 9999 FEW030 SCT100 30/24 Q1012;
0143832880999992010030517004-13267-043417FM-15+0443SBLP V0201201N001512200019N0112651N1+03201+02301999999ADDGA1021+009001999GA2041+030001999GF104991999999999999999999MA1101081999999REMMET058METAR SBLP 051700Z 12003KT 9999 FEW030 SCT100 32/23 Q1011;
0120832880999992010030518004-13267-043417FM-15+0443SBLP V0203301N001512200019N0112651N1+03201+02201999999ADDGA1041+009001999GF104991999999999999999999MA1100911999999REMMET051METAR SBLP 051800Z 33003KT 9999 SCT030 32/22 Q1009;
0120832880999992010030519004-13267-043417FM-15+0443SBLP V0209999C000012200019N0112651N1+03201+02101999999ADDGA1041+009001999GF104991999999999999999999MA1100911999999REMMET051METAR SBLP 051900Z 00000KT 9999 SCT030 32/21 Q1009;
0120832880999992010030520004-13267-043417FM-15+0443SBLP V0203401N001512200019N0112651N1+03101+02301999999ADDGA1041+009001999GF104991999999999999999999MA1100811999999REMMET051METAR SBLP 052000Z 34003KT 9999 SCT030 31/23 Q1008;
0120832880999992010030521004-13267-043417FM-15+0443SBLP V0203601N003112200019N0112651N1+02601+02201999999ADDGA1041+009001999GF104991999999999999999999MA1100911999999REMMET051METAR SBLP 052100Z 36006KT 9999 SCT030 26/22 Q1009;
0143832880999992010030610004-13267-043417FM-15+0443SBLP V0209999C000010300019N0112651N1+02401+02301999999ADDGA1041+006001999GA2071+030001999GF107991999999999999999999MA1101081999999REMMET058METAR SBLP 061000Z 00000KT 9999 SCT020 BKN100 24/23 Q1011;
0143832880999992010030611004-13267-043417FM-15+0443SBLP V0203601N003110300019N0112651N1+02401+02301999999ADDGA1041+006001999GA2071+030001999GF107991999999999999999999MA1101081999999REMMET058METAR SBLP 061100Z 36006KT 9999 SCT020 BKN100 24/23 Q1011;
0143832880999992010030612004-13267-043417FM-15+0443SBLP V0203601N003110300019N0112651N1+02601+02301999999ADDGA1021+006001999GA2071+030001999GF107991999999999999999999MA1101081999999REMMET058METAR SBLP 061200Z 36006KT 9999 FEW020 BKN100 26/23 Q1011;
0143832880999992010030613004-13267-043417FM-15+0443SBLP V0203601N003110300019N0112651N1+02701+02301999999ADDGA1041+006001999GA2071+030001999GF107991999999999999999999MA1101191999999REMMET058METAR SBLP 061300Z 36006KT 9999 SCT020 BKN100 27/23 Q1012;
0143832880999992010030614004-13267-043417FM-15+0443SBLP V0202701N003110300019N0112651N1+02901+02301999999ADDGA1021+009001999GA2071+030001999GF107991999999999999999999MA1101081999999REMMET058METAR SBLP 061400Z 27006KT 9999 FEW030 BKN100 29/23 Q1011;
0143832880999992010030615004-13267-043417FM-15+0443SBLP V0203301N003110300019N0112651N1+03001+02301999999ADDGA1041+009001999GA2071+030001999GF107991999999999999999999MA1101021999999REMMET058METAR SBLP 061500Z 33006KT 9999 SCT030 BKN100 30/23 Q1010;
0177832880999992010030616004-13267-043417FM-15+0443SBLP V0202401N00621030001CN0048001N1+03001+02301999999ADDGA1021+009001091GA2071+009001999GA3071+030001999GF107991999999999999999999MA1100911999999MW1171REMMET070METAR SBLP 061600Z 24012KT 4800 TS BKN030 FEW030CB BKN100 30/23 Q1009;
0148832880999992010030617004-13267-043417FM-15+0443SBLP V0202501N002110300019N0112651N1+02601+02301999999ADDGA1041+009001999GA2071+030001999GF107991999999999999999999MA1100811999999REMMET063METAR SBLP 061700Z 25004KT 9999 SCT030 BKN100 26/23 Q1008 RETS;
0143832880999992010030618004-13267-043417FM-15+0443SBLP V0203601N004110300019N0112651N1+02701+02401999999ADDGA1041+009001999GA2071+030001999GF107991999999999999999999MA1100711999999REMMET058METAR SBLP 061800Z 36008KT 9999 SCT030 BKN100 27/24 Q1007;
0177832880999992010030619004-13267-043417FM-15+0443SBLP V0203601N00621030001CN0112651N1+02701+02401999999ADDGA1021+009001091GA2071+009001999GA3071+030001999GF107991999999999999999999MA1100811999999MW1171REMMET070METAR SBLP 061900Z 36012KT 9999 TS BKN030 FEW030CB BKN100 27/24 Q1008;
0158832880999992010030620004-13267-043417FM-15+0443SBLP V0202301N002110090019N0112651N1+02501+02401999999ADDGA1071+009001999GA2071+030001999GF107991999999999999999999MA1100911999999MW1611REMMET067METAR SBLP 062000Z 23004KT 9999 -RA BKN030 BKN100 25/24 Q1009 RETS;
0148832880999992010030621004-13267-043417FM-15+0443SBLP V0200601N003110300019N0112651N1+02501+02401999999ADDGA1041+009001999GA2071+030001999GF107991999999999999999999MA1100911999999REMMET063METAR SBLP 062100Z 06006KT 9999 SCT030 BKN100 25/24 Q1009 RERA;
0143832880999992010030710004-13267-043417FM-15+0443SBLP V0203601N003110060019N0112651N1+02301+02301999999ADDGA1071+006001999GA2071+030001999GF107991999999999999999999MA1101081999999REMMET058METAR SBLP 071000Z 36006KT 9999 BKN020 BKN100 23/23 Q1011;
0143832880999992010030711004-13267-043417FM-15+0443SBLP V0203601N004110300019N0112651N1+02401+02301999999ADDGA1041+006001999GA2071+030001999GF107991999999999999999999MA1101191999999REMMET058METAR SBLP 071100Z 36008KT 9999 SCT020 BKN100 24/23 Q1012;
0143832880999992010030712004-13267-043417FM-15+0443SBLP V0203601N003110300019N0112651N1+02701+02301999999ADDGA1041+006001999GA2071+030001999GF107991999999999999999999MA1101291999999REMMET058METAR SBLP 071200Z 36006KT 9999 SCT020 BKN100 27/23 Q1013;
0143832880999992010030713004-13267-043417FM-15+0443SBLP V0203401N003110300019N0112651N1+02801+02301999999ADDGA1041+006001999GA2071+030001999GF107991999999999999999999MA1101291999999REMMET058METAR SBLP 071300Z 34006KT 9999 SCT020 BKN100 28/23 Q1013;
0143832880999992010030714004-13267-043417FM-15+0443SBLP V0203601N005110090019N0112651N1+02901+02401999999ADDGA1071+009001999GA2071+030001999GF107991999999999999999999MA1101191999999REMMET058METAR SBLP 071400Z 36010KT 9999 BKN030 BKN100 29/24 Q1012;
0143832880999992010030715004-13267-043417FM-15+0443SBLP V0203601N003112200019N0112651N1+03101+02401999999ADDGA1041+009001999GA2041+030001999GF104991999999999999999999MA1101081999999REMMET058METAR SBLP 071500Z 36006KT 9999 SCT030 SCT100 31/24 Q1011;
0143832880999992010030716004-13267-043417FM-15+0443SBLP V0203601N003110300019N0112651N1+03201+02101999999ADDGA1041+009001999GA2071+030001999GF107991999999999999999999MA1101021999999REMMET058METAR SBLP 071600Z 36006KT 9999 SCT030 BKN100 32/21 Q1010;
0185832880999992010030717004-13267-043417FM-15+0443SBLP V0203601N00311012001CN0090001N1+02901+02101999999ADDGA1041+009001999GA2021+012001091GA3071+030001999GF107991999999999999999999MA1101021999999MW1811MW2951REMMET072METAR SBLP 071700Z 36006KT 9000 TSRA SCT030 FEW040CB BKN100 29/21 Q1010;
0153832880999992010030718004-13267-043417FM-15+0443SBLP V0203601N003110300019N0090001N1+02801+02101999999ADDGA1041+009001999GA2071+030001999GF107991999999999999999999MA1100911999999MW1611REMMET062METAR SBLP 071800Z 36006KT 9000 -RA SCT030 BKN100 28/21 Q1009;
0143832880999992010030719004-13267-043417FM-15+0443SBLP V0203601N003110300019N0112651N1+02801+02101999999ADDGA1041+009001999GA2071+030001999GF107991999999999999999999MA1100911999999REMMET058METAR SBLP 071900Z 36006KT 9999 SCT030 BKN100 28/21 Q1009;
0153832880999992010030720004-13267-043417FM-15+0443SBLP V0203601N003110300019N0090001N1+02701+02101999999ADDGA1041+009001999GA2071+030001999GF107991999999999999999999MA1100911999999MW1611REMMET062METAR SBLP 072000Z 36006KT 9000 -RA SCT030 BKN100 27/21 Q1009;
0143832880999992010030721004-13267-043417FM-15+0443SBLP V0203601N003110300019N0112651N1+02601+02101999999ADDGA1041+009001999GA2071+030001999GF107991999999999999999999MA1101021999999REMMET058METAR SBLP 072100Z 36006KT 9999 SCT030 BKN100 26/21 Q1010;
0143832880999992010030810004-13267-043417FM-15+0443SBLP V0200901N003110300019N0112651N1+02201+02101999999ADDGA1041+003001999GA2071+030001999GF107991999999999999999999MA1101291999999REMMET058METAR SBLP 081000Z 09006KT 9999 SCT010 BKN100 22/21 Q1013;
0143832880999992010030811004-13267-043417FM-15+0443SBLP V0200901N003110300019N0112651N1+02301+02101999999ADDGA1041+004501999GA2071+030001999GF107991999999999999999999MA1101491999999REMMET058METAR SBLP 081100Z 09006KT 9999 SCT015 BKN100 23/21 Q1015;
0143832880999992010030812004-13267-043417FM-15+0443SBLP V0203601N003110300019N0112651N1+02501+02101999999ADDGA1021+006001999GA2071+030001999GF107991999999999999999999MA1101491999999REMMET058METAR SBLP 081200Z 36006KT 9999 FEW020 BKN100 25/21 Q1015;
0143832880999992010030813004-13267-043417FM-15+0443SBLP V0203601N003110300019N0112651N1+02801+02101999999ADDGA1021+006001999GA2071+030001999GF107991999999999999999999MA1101491999999REMMET058METAR SBLP 081300Z 36006KT 9999 FEW020 BKN100 28/21 Q1015;
0143832880999992010030814004-13267-043417FM-15+0443SBLP V0203601N003112200019N0112651N1+03001+02101999999ADDGA1041+006001999GA2041+030001999GF104991999999999999999999MA1101491999999REMMET058METAR SBLP 081400Z 36006KT 9999 SCT020 SCT100 30/21 Q1015;
0143832880999992010030815004-13267-043417FM-15+0443SBLP V0203601N003112200019N0112651N1+03001+02101999999ADDGA1041+009001999GA2041+030001999GF104991999999999999999999MA1101391999999REMMET058METAR SBLP 081500Z 36006KT 9999 SCT030 SCT100 30/21 Q1014;
0143832880999992010030816004-13267-043417FM-15+0443SBLP V0209999C000012200019N0112651N1+03101+02101999999ADDGA1041+009001999GA2041+030001999GF104991999999999999999999MA1101191999999REMMET058METAR SBLP 081600Z 00000KT 9999 SCT030 SCT100 31/21 Q1012;
0143832880999992010030817004-13267-043417FM-15+0443SBLP V0203301N003110300019N0112651N1+03201+02101999999ADDGA1041+009001999GA2071+030001999GF107991999999999999999999MA1101081999999REMMET058METAR SBLP 081700Z 33006KT 9999 SCT030 BKN100 32/21 Q1011;
0143832880999992010030818004-13267-043417FM-15+0443SBLP V0203601N003110300019N0112651N1+03101+02201999999ADDGA1041+008101999GA2071+030001999GF107991999999999999999999MA1101081999999REMMET058METAR SBLP 081800Z 36006KT 9999 SCT027 BKN100 31/22 Q1011;
0143832880999992010030819004-13267-043417FM-15+0443SBLP V0202601N003110300019N0112651N1+02901+02401999999ADDGA1041+009001999GA2071+030001999GF107991999999999999999999MA1101081999999REMMET058METAR SBLP 081900Z 26006KT 9999 SCT030 BKN100 29/24 Q1011;
0143832880999992010030820004-13267-043417FM-15+0443SBLP V0209999C000010300019N0112651N1+02901+02401999999ADDGA1021+009001999GA2071+030001999GF107991999999999999999999MA1101081999999REMMET058METAR SBLP 082000Z 00000KT 9999 FEW030 BKN100 29/24 Q1011;
0143832880999992010030821004-13267-043417FM-15+0443SBLP V0209999C000012200019N0112651N1+02801+02401999999ADDGA1021+009001999GA2041+030001999GF104991999999999999999999MA1101081999999REMMET058METAR SBLP 082100Z 00000KT 9999 FEW030 SCT100 28/24 Q1011;
0153832880999992010030910004-13267-043417FM-15+0443SBLP V0202701N003110300019N0060001N1+02201+02101999999ADDGA1041+003001999GA2071+030001999GF107991999999999999999999MA1101491999999MW1611REMMET062METAR SBLP 091000Z 27006KT 6000 -RA SCT010 BKN100 22/21 Q1015;
0153832880999992010030911004-13267-043417FM-15+0443SBLP V0203601N003110030019N0060001N1+02201+02101999999ADDGA1071+003001999GA2081+030001999GF108991999999999999999999MA1101591999999MW1611REMMET062METAR SBLP 091100Z 36006KT 6000 -RA BKN010 OVC100 22/21 Q1016;
0153832880999992010030911454-13267-043417FM-15+0443SBLP V0200901N003110300019N0090001N1+02201+02101999999ADDGA1041+003001999GA2081+030001999GF108991999999999999999999MA1101591999999MW1611REMMET062METAR SBLP 091145Z 09006KT 9000 -RA SCT010 OVC100 22/21 Q1016;
0143832880999992010030913004-13267-043417FM-15+0443SBLP V0200901N003110300019N0112651N1+02301+02101999999ADDGA1041+003001999GA2071+030001999GF107991999999999999999999MA1101591999999REMMET058METAR SBLP 091300Z 09006KT 9999 SCT010 BKN100 23/21 Q1016;
0143832880999992010030914004-13267-043417FM-15+0443SBLP V0200901N003110300019N0112651N1+02601+02101999999ADDGA1041+004501999GA2071+030001999GF107991999999999999999999MA1101591999999REMMET058METAR SBLP 091400Z 09006KT 9999 SCT015 BKN100 26/21 Q1016;
0143832880999992010030915004-13267-043417FM-15+0443SBLP V0200901N003110300019N0112651N1+02801+02101999999ADDGA1021+006001999GA2071+030001999GF107991999999999999999999MA1101491999999REMMET058METAR SBLP 091500Z 09006KT 9999 FEW020 BKN100 28/21 Q1015;
0143832880999992010030916004-13267-043417FM-15+0443SBLP V0209999C000010300019N0112651N1+02901+02101999999ADDGA1021+006001999GA2071+030001999GF107991999999999999999999MA1101291999999REMMET058METAR SBLP 091600Z 00000KT 9999 FEW020 BKN100 29/21 Q1013;
0143832880999992010030917004-13267-043417FM-15+0443SBLP V0209999C000010300019N0112651N1+03001+02201999999ADDGA1021+006001999GA2071+030001999GF107991999999999999999999MA1101191999999REMMET058METAR SBLP 091700Z 00000KT 9999 FEW020 BKN100 30/22 Q1012;
0143832880999992010030918004-13267-043417FM-15+0443SBLP V0209999C000010300019N0112651N1+03001+02201999999ADDGA1021+006001999GA2071+030001999GF107991999999999999999999MA1101081999999REMMET058METAR SBLP 091800Z 00000KT 9999 FEW020 BKN100 30/22 Q1011;
0143832880999992010030919004-13267-043417FM-15+0443SBLP V0209999C000010300019N0112651N1+03201+02201999999ADDGA1021+006001999GA2071+030001999GF107991999999999999999999MA1101081999999REMMET058METAR SBLP 091900Z 00000KT 9999 FEW020 BKN100 32/22 Q1011;
0143832880999992010030920004-13267-043417FM-15+0443SBLP V0209999C000010300019N0112651N1+02901+02201999999ADDGA1041+006001999GA2071+030001999GF107991999999999999999999MA1101081999999REMMET058METAR SBLP 092000Z 00000KT 9999 SCT020 BKN100 29/22 Q1011;
0143832880999992010030921004-13267-043417FM-15+0443SBLP V0201201N003110300019N0112651N1+02701+02401999999ADDGA1021+006001999GA2071+030001999GF107991999999999999999999MA1101191999999REMMET058METAR SBLP 092100Z 12006KT 9999 FEW020 BKN100 27/24 Q1012;
0072832880999992010031010004-13267-043417FM-15+0443SBLP V0209999C000019999999Y0099001N1+02301+02201999999ADDMA1101291999999REMMET045METAR SBLP 101000Z 00000KT CAVOK 23/22 Q1013;
0072832880999992010031011004-13267-043417FM-15+0443SBLP V0202701N002119999999Y0099001N1+02401+02201999999ADDMA1101391999999REMMET045METAR SBLP 101100Z 27004KT CAVOK 24/22 Q1014;
0072832880999992010031012004-13267-043417FM-15+0443SBLP V0209999C000019999999Y0099001N1+02701+02101999999ADDMA1101391999999REMMET045METAR SBLP 101200Z 00000KT CAVOK 27/21 Q1014;
0120832880999992010031013004-13267-043417FM-15+0443SBLP V0209999C000012200019N0112651N1+02901+02201999999ADDGA1021+009001999GF102991999999999999999999MA1101391999999REMMET051METAR SBLP 101300Z 00000KT 9999 FEW030 29/22 Q1014;
0120832880999992010031014004-13267-043417FM-15+0443SBLP V0209999C000012200019N0112651N1+02901+02201999999ADDGA1021+009001999GF102991999999999999999999MA1101391999999REMMET051METAR SBLP 101400Z 00000KT 9999 FEW030 29/22 Q1014;
0120832880999992010031015004-13267-043417FM-15+0443SBLP V0209999C000012200019N0112651N1+03101+02201999999ADDGA1021+009001999GF102991999999999999999999MA1101291999999REMMET051METAR SBLP 101500Z 00000KT 9999 FEW030 31/22 Q1013;
0120832880999992010031016004-13267-043417FM-15+0443SBLP V0202101N003112200019N0112651N1+03201+02201999999ADDGA1021+009001999GF102991999999999999999999MA1101191999999REMMET051METAR SBLP 101600Z 21006KT 9999 FEW030 32/22 Q1012;
0120832880999992010031017004-13267-043417FM-15+0443SBLP V0209999C000012200019N0112651N1+03301+02001999999ADDGA1021+009001999GF102991999999999999999999MA1101021999999REMMET051METAR SBLP 101700Z 00000KT 9999 FEW030 33/20 Q1010;
0120832880999992010031018004-13267-043417FM-15+0443SBLP V0209999C000012200019N0112651N1+03301+02201999999ADDGA1021+009001999GF102991999999999999999999MA1100911999999REMMET051METAR SBLP 101800Z 00000KT 9999 FEW030 33/22 Q1009;
0120832880999992010031019004-13267-043417FM-15+0443SBLP V0201501N002112200019N0112651N1+03401+02101999999ADDGA1021+009001999GF102991999999999999999999MA1100911999999REMMET051METAR SBLP 101900Z 15004KT 9999 FEW030 34/21 Q1009;
0120832880999992010031020004-13267-043417FM-15+0443SBLP V0201801N003112200019N0112651N1+03401+02101999999ADDGA1021+009001999GF102991999999999999999999MA1100911999999REMMET051METAR SBLP 102000Z 18006KT 9999 FEW030 34/21 Q1009;
0120832880999992010031021004-13267-043417FM-15+0443SBLP V0201501N001512200019N0112651N1+03201+02201999999ADDGA1021+009001999GF102991999999999999999999MA1100911999999REMMET051METAR SBLP 102100Z 15003KT 9999 FEW030 32/22 Q1009;
0143832880999992010031110004-13267-043417FM-15+0443SBLP V0201501N003110300019N0112651N1+02301+02101999999ADDGA1021+009001999GA2071+030001999GF107991999999999999999999MA1101191999999REMMET058METAR SBLP 111000Z 15006KT 9999 FEW030 BKN100 23/21 Q1012;
0143832880999992010031111004-13267-043417FM-15+0443SBLP V0209999C000010300019N0112651N1+02401+02001999999ADDGA1021+009001999GA2071+030001999GF107991999999999999999999MA1101291999999REMMET058METAR SBLP 111100Z 00000KT 9999 FEW030 BKN100 24/20 Q1013;
0072832880999992010031112004-13267-043417FM-15+0443SBLP V0201501N001519999999Y0099001N1+02501+02201999999ADDMA1101391999999REMMET045METAR SBLP 111200Z 15003KT CAVOK 25/22 Q1014;
0072832880999992010031113004-13267-043417FM-15+0443SBLP V0201501N003119999999Y0099001N1+02701+02301999999ADDMA1101391999999REMMET045METAR SBLP 111300Z 15006KT CAVOK 27/23 Q1014;
0143832880999992010031114004-13267-043417FM-15+0443SBLP V0201501N003112200019N0112651N1+03001+02301999999ADDGA1021+009001999GA2041+030001999GF104991999999999999999999MA1101291999999REMMET058METAR SBLP 111400Z 15006KT 9999 FEW030 SCT100 30/23 Q1013;
0143832880999992010031115004-13267-043417FM-15+0443SBLP V0201501N003112200019N0112651N1+03001+02301999999ADDGA1021+009001999GA2041+030001999GF104991999999999999999999MA1101291999999REMMET058METAR SBLP 111500Z 15006KT 9999 FEW030 SCT100 30/23 Q1013;
0143832880999992010031116004-13267-043417FM-15+0443SBLP V0202701N003110300019N0112651N1+03201+02101999999ADDGA1021+009001999GA2071+030001999GF107991999999999999999999MA1101081999999REMMET058METAR SBLP 111600Z 27006KT 9999 FEW030 BKN100 32/21 Q1011;
0143832880999992010031117004-13267-043417FM-15+0443SBLP V0202701N003112200019N0112651N1+03301+02101999999ADDGA1041+009001999GA2041+030001999GF104991999999999999999999MA1100911999999REMMET058METAR SBLP 111700Z 27006KT 9999 SCT030 SCT100 33/21 Q1009;
0120832880999992010031118004-13267-043417FM-15+0443SBLP V0203601N003112200019N0112651N1+03501+01901999999ADDGA1041+009001999GF104991999999999999999999MA1100911999999REMMET051METAR SBLP 111800Z 36006KT 9999 SCT030 35/19 Q1009;
0119832880999992010031119004-13267-043417FM-15+0443SBLP V0203601N003112200019N0112651N1+03401+01901999999ADDGA1041+009001999GF104991999999999999999999MA1100911999999REMMET050METAR SBLP 111900Z 36006KT 9999 SCT03034/19 Q1009;
0120832880999992010031120004-13267-043417FM-15+0443SBLP V0203601N003112200019N0112651N1+03301+01901999999ADDGA1041+009001999GF104991999999999999999999MA1100911999999REMMET051METAR SBLP 112000Z 36006KT 9999 SCT030 33/19 Q1009;
0120832880999992010031121004-13267-043417FM-15+0443SBLP V0203601N003112200019N0112651N1+03101+01901999999ADDGA1041+009001999GF104991999999999999999999MA1100911999999REMMET051METAR SBLP 112100Z 36006KT 9999 SCT030 31/19 Q1009;
0072832880999992010031210004-13267-043417FM-15+0443SBLP V0209999C000019999999Y0099001N1+02401+02201999999ADDMA1101291999999REMMET045METAR SBLP 121000Z 00000KT CAVOK 24/22 Q1013;
0072832880999992010031211004-13267-043417FM-15+0443SBLP V0201801N002119999999Y0099001N1+02601+02201999999ADDMA1101391999999REMMET045METAR SBLP 121100Z 18004KT CAVOK 26/22 Q1014;
0072832880999992010031212004-13267-043417FM-15+0443SBLP V0202401N001519999999Y0099001N1+02801+02301999999ADDMA1101391999999REMMET045METAR SBLP 121200Z 24003KT CAVOK 28/23 Q1014;
0120832880999992010031213004-13267-043417FM-15+0443SBLP V0202401N003112200019N0112651N1+03101+02301999999ADDGA1021+009001999GF102991999999999999999999MA1101391999999REMMET051METAR SBLP 121300Z 24006KT 9999 FEW030 31/23 Q1014;
0120832880999992010031214004-13267-043417FM-15+0443SBLP V0202701N001512200019N0112651N1+03201+02401999999ADDGA1021+009001999GF102991999999999999999999MA1101391999999REMMET051METAR SBLP 121400Z 27003KT 9999 FEW030 32/24 Q1014;
0120832880999992010031215004-13267-043417FM-15+0443SBLP V0209999C000012200019N0112651N1+03301+02301999999ADDGA1041+009001999GF104991999999999999999999MA1101291999999REMMET051METAR SBLP 121500Z 00000KT 9999 SCT030 33/23 Q1013;
0120832880999992010031216004-13267-043417FM-15+0443SBLP V0202701N003112200019N0112651N1+03401+02101999999ADDGA1041+009001999GF104991999999999999999999MA1101081999999REMMET051METAR SBLP 121600Z 27006KT 9999 SCT030 34/21 Q1011;
0120832880999992010031217004-13267-043417FM-15+0443SBLP V0202701N003112200019N0112651N1+03501+02001999999ADDGA1041+009001999GF104991999999999999999999MA1101021999999REMMET051METAR SBLP 121700Z 27006KT 9999 SCT030 35/20 Q1010;
0120832880999992010031218004-13267-043417FM-15+0443SBLP V0201801N003112200019N0112651N1+03601+02001999999ADDGA1041+003001999GF104991999999999999999999MA1101021999999REMMET051METAR SBLP 121800Z 18006KT 9999 SCT010 36/20 Q1010;
0120832880999992010031219004-13267-043417FM-15+0443SBLP V0201801N003112200019N0112651N1+03601+01901999999ADDGA1041+009001999GF104991999999999999999999MA1101021999999REMMET051METAR SBLP 121900Z 18006KT 9999 SCT030 36/19 Q1010;
0120832880999992010031220004-13267-043417FM-15+0443SBLP V0209999C000012200019N0112651N1+03401+02001999999ADDGA1041+009001999GF104991999999999999999999MA1101021999999REMMET051METAR SBLP 122000Z 00000KT 9999 SCT030 34/20 Q1010;
0120832880999992010031221004-13267-043417FM-15+0443SBLP V0209999C000010090019N0112651N1+03201+02001999999ADDGA1071+009001999GF107991999999999999999999MA1101081999999REMMET051METAR SBLP 122100Z 00000KT 9999 BKN030 32/20 Q1011;
0072832880999992010031310004-13267-043417FM-15+0443SBLP V0209999C000019999999Y0099001N1+02501+02101999999ADDMA1101291999999REMMET045METAR SBLP 131000Z 00000KT CAVOK 25/21 Q1013;
0072832880999992010031311004-13267-043417FM-15+0443SBLP V0209999C000019999999Y0099001N1+02701+02101999999ADDMA1101491999999REMMET045METAR SBLP 131100Z 00000KT CAVOK 27/21 Q1015;
0072832880999992010031312004-13267-043417FM-15+0443SBLP V0201801N003119999999Y0099001N1+02801+02101999999ADDMA1101491999999REMMET045METAR SBLP 131200Z 18006KT CAVOK 28/21 Q1015;
0072832880999992010031313004-13267-043417FM-15+0443SBLP V0202701N003119999999Y0099001N1+03101+02001999999ADDMA1101491999999REMMET045METAR SBLP 131300Z 27006KT CAVOK 31/20 Q1015;
0072832880999992010031314004-13267-043417FM-15+0443SBLP V0202701N003119999999Y0099001N1+03201+02001999999ADDMA1101391999999REMMET045METAR SBLP 131400Z 27006KT CAVOK 32/20 Q1014;
0120832880999992010031315004-13267-043417FM-15+0443SBLP V0203601N003112200019N0112651N1+03301+02001999999ADDGA1021+009001999GF102991999999999999999999MA1101391999999REMMET051METAR SBLP 131500Z 36006KT 9999 FEW030 33/20 Q1014;
0120832880999992010031316004-13267-043417FM-15+0443SBLP V0209999C000012200019N0112651N1+03401+02001999999ADDGA1021+009001999GF102991999999999999999999MA1101291999999REMMET051METAR SBLP 131600Z 00000KT 9999 FEW030 34/20 Q1013;
0120832880999992010031317004-13267-043417FM-15+0443SBLP V0203001N003112200019N0112651N1+03501+02001999999ADDGA1021+009001999GF102991999999999999999999MA1101081999999REMMET051METAR SBLP 131700Z 30006KT 9999 FEW030 35/20 Q1011;
0120832880999992010031318004-13267-043417FM-15+0443SBLP V0202701N003112200019N0112651N1+03501+02001999999ADDGA1021+009001999GF102991999999999999999999MA1101081999999REMMET051METAR SBLP 131800Z 27006KT 9999 FEW030 35/20 Q1011;
0120832880999992010031319004-13267-043417FM-15+0443SBLP V0202701N003112200019N0112651N1+03501+02001999999ADDGA1021+009001999GF102991999999999999999999MA1101081999999REMMET051METAR SBLP 131900Z 27006KT 9999 FEW030 35/20 Q1011;
0120832880999992010031320004-13267-043417FM-15+0443SBLP V0202101N003112200019N0112651N1+03501+02101999999ADDGA1021+009001999GF102991999999999999999999MA1101021999999REMMET051METAR SBLP 132000Z 21006KT 9999 FEW030 35/21 Q1010;
0120832880999992010031321004-13267-043417FM-15+0443SBLP V0201801N003112200019N0112651N1+03401+02101999999ADDGA1021+009001999GF102991999999999999999999MA1101081999999REMMET051METAR SBLP 132100Z 18006KT 9999 FEW030 34/21 Q1011;
0072832880999992010031409004-13267-043417FM-15+0443SBLP V0209999C000019999999Y0099001N1+02201+02001999999ADDMA1101391999999REMMET045METAR SBLP 140900Z 00000KT CAVOK 22/20 Q1014;
0072832880999992010031410004-13267-043417FM-15+0443SBLP V0209999C000019999999Y0099001N1+02401+02001999999ADDMA1101491999999REMMET045METAR SBLP 141000Z 00000KT CAVOK 24/20 Q1015;
0072832880999992010031411004-13267-043417FM-15+0443SBLP V0200901N003119999999Y0099001N1+02801+02001999999ADDMA1101491999999REMMET045METAR SBLP 141100Z 09006KT CAVOK 28/20 Q1015;
0072832880999992010031412004-13267-043417FM-15+0443SBLP V0200901N003119999999Y0099001N1+03001+02101999999ADDMA1101591999999REMMET045METAR SBLP 141200Z 09006KT CAVOK 30/21 Q1016;
0072832880999992010031413004-13267-043417FM-15+0443SBLP V0209999C000019999999Y0099001N1+03101+02201999999ADDMA1101591999999REMMET045METAR SBLP 141300Z 00000KT CAVOK 31/22 Q1016;
0072832880999992010031414004-13267-043417FM-15+0443SBLP V0209999C000019999999Y0099001N1+03301+02101999999ADDMA1101591999999REMMET045METAR SBLP 141400Z 00000KT CAVOK 33/21 Q1016;
0072832880999992010031415004-13267-043417FM-15+0443SBLP V0209999C000019999999Y0099001N1+03401+02101999999ADDMA1101491999999REMMET045METAR SBLP 141500Z 00000KT CAVOK 34/21 Q1015;
0077832880999992010031416004-13267-043417FM-15+0443SBLP V0209999C000012200019N0112651N1+03501+02001999999ADDMA1101401999999REMMET050METAR SBLP 141600Z 00000KT 9999 CAV0K 35/20 Q1014;
0072832880999992010031417004-13267-043417FM-15+0443SBLP V0209999C000019999999Y0099001N1+03501+02001999999ADDMA1101291999999REMMET045METAR SBLP 141700Z 00000KT CAVOK 35/20 Q1013;
0072832880999992010031418004-13267-043417FM-15+0443SBLP V0209999C000019999999Y0099001N1+03601+01901999999ADDMA1101291999999REMMET045METAR SBLP 141800Z 00000KT CAVOK 36/19 Q1013;
0072832880999992010031419004-13267-043417FM-15+0443SBLP V0209999C000019999999Y0099001N1+03501+01901999999ADDMA1101191999999REMMET045METAR SBLP 141900Z 00000KT CAVOK 35/19 Q1012;
0072832880999992010031420004-13267-043417FM-15+0443SBLP V0209999C000019999999Y0099001N1+03401+01901999999ADDMA1101191999999REMMET045METAR SBLP 142000Z 00000KT CAVOK 34/19 Q1012;
0072832880999992010031421004-13267-043417FM-15+0443SBLP V0209999C000019999999Y0099001N1+03201+01901999999ADDMA1101191999999REMMET045METAR SBLP 142100Z 00000KT CAVOK 32/19 Q1012;
0072832880999992010031510004-13267-043417FM-15+0443SBLP V0209999C000019999999Y0099001N1+02201+02101999999ADDMA1101491999999REMMET045METAR SBLP 151000Z 00000KT CAVOK 22/21 Q1015;
0072832880999992010031511004-13267-043417FM-15+0443SBLP V0209999C000019999999Y0099001N1+02601+02101999999ADDMA1101591999999REMMET045METAR SBLP 151100Z 00000KT CAVOK 26/21 Q1016;
0072832880999992010031512004-13267-043417FM-15+0443SBLP V0209999C000019999999Y0099001N1+02901+02201999999ADDMA1101591999999REMMET045METAR SBLP 151200Z 00000KT CAVOK 29/22 Q1016;
0072832880999992010031513004-13267-043417FM-15+0443SBLP V0209999C000019999999Y0099001N1+03001+02201999999ADDMA1101591999999REMMET045METAR SBLP 151300Z 00000KT CAVOK 30/22 Q1016;
0072832880999992010031514004-13267-043417FM-15+0443SBLP V0201201N003119999999Y0099001N1+03201+02201999999ADDMA1101591999999REMMET045METAR SBLP 151400Z 12006KT CAVOK 32/22 Q1016;
0120832880999992010031515004-13267-043417FM-15+0443SBLP V0200901N003112200019N0112651N1+03301+02101999999ADDGA1021+009001999GF102991999999999999999999MA1101491999999REMMET051METAR SBLP 151500Z 09006KT 9999 FEW030 33/21 Q1015;
0120832880999992010031516004-13267-043417FM-15+0443SBLP V0202401N003112200019N0112651N1+03401+02101999999ADDGA1041+009001999GF104991999999999999999999MA1101391999999REMMET051METAR SBLP 151600Z 24006KT 9999 SCT030 34/21 Q1014;
0120832880999992010031517004-13267-043417FM-15+0443SBLP V0201801N004112200019N0112651N1+03501+01901999999ADDGA1041+009001999GF104991999999999999999999MA1101291999999REMMET051METAR SBLP 151700Z 18008KT 9999 SCT030 35/19 Q1013;
0147832880999992010031518004-13267-043417FM-15+0443SBLP V0201801N003112200019N0080001N1+03401+02001999999ADDGA1021+009001091GA2041+009001999MA1101191999999MW1171REMMET063METAR SBLP 151800Z 18006KT 8000 TS SCT030 FEW030CB 34/20 Q1012;EQDQ01+000022SCOTCV
0185832880999992010031519004-13267-043417FM-15+0443SBLP V0202101N00931030001CN0060001N1+02401+02301999999ADDGA1021+009001091GA2071+009001999GA3071+030001999GF107991999999999999999999MA1101291999999MW1811MW2951REMMET072METAR SBLP 151900Z 21018KT 6000 TSRA BKN030 FEW030CB BKN100 24/23 Q1013;
0148832880999992010031520004-13267-043417FM-15+0443SBLP V0202401N002112200019N0112651N1+02601+02201999999ADDGA1041+009001999GA2041+030001999GF104991999999999999999999MA1101191999999REMMET063METAR SBLP 152000Z 24004KT 9999 SCT030 SCT100 26/22 Q1012 RETS;
0143832880999992010031521004-13267-043417FM-15+0443SBLP V0209999C000012200019N0112651N1+02601+02301999999ADDGA1021+009001999GA2041+030001999GF104991999999999999999999MA1101081999999REMMET058METAR SBLP 152100Z 00000KT 9999 FEW030 SCT100 26/23 Q1011;
0072832880999992010031610004-13267-043417FM-15+0443SBLP V0201201N003119999999Y0099001N1+02201+02001999999ADDMA1101491999999REMMET045METAR SBLP 161000Z 12006KT CAVOK 22/20 Q1015;
0072832880999992010031611004-13267-043417FM-15+0443SBLP V0201201N003119999999Y0099001N1+02601+02001999999ADDMA1101591999999REMMET045METAR SBLP 161100Z 12006KT CAVOK 26/20 Q1016;
0072832880999992010031612004-13267-043417FM-15+0443SBLP V0209999C000019999999Y0099001N1+02901+02101999999ADDMA1101591999999REMMET045METAR SBLP 161200Z 00000KT CAVOK 29/21 Q1016;
0120832880999992010031613004-13267-043417FM-15+0443SBLP V0201201N003112200019N0112651N1+03101+02101999999ADDGA1021+009001999GF102991999999999999999999MA1101591999999REMMET051METAR SBLP 161300Z 12006KT 9999 FEW030 31/21 Q1016;
0120832880999992010031614004-13267-043417FM-15+0443SBLP V0209999C000012200019N0112651N1+03101+02101999999ADDGA1041+009001999GF104991999999999999999999MA1101591999999REMMET051METAR SBLP 161400Z 00000KT 9999 SCT030 31/21 Q1016;
0120832880999992010031615004-13267-043417FM-15+0443SBLP V0202101N003112200019N0112651N1+03201+02201999999ADDGA1041+009001999GF104991999999999999999999MA1101491999999REMMET051METAR SBLP 161500Z 21006KT 9999 SCT030 32/22 Q1015;
0120832880999992010031616004-13267-043417FM-15+0443SBLP V0201401N003112200019N0112651N1+03301+02201999999ADDGA1041+009001999GF104991999999999999999999MA1101391999999REMMET051METAR SBLP 161600Z 14006KT 9999 SCT030 33/22 Q1014;
0120832880999992010031617004-13267-043417FM-15+0443SBLP V0202101N004112200019N0112651N1+03301+02101999999ADDGA1041+009001999GF104991999999999999999999MA1101291999999REMMET051METAR SBLP 161700Z 21008KT 9999 SCT030 33/21 Q1013;
0120832880999992010031618004-13267-043417FM-15+0443SBLP V0202001N002112200019N0112651N1+03301+01901999999ADDGA1041+009001999GF104991999999999999999999MA1101191999999REMMET051METAR SBLP 161800Z 20004KT 9999 SCT030 33/19 Q1012;
0120832880999992010031619004-13267-043417FM-15+0443SBLP V0201801N005112200019N0112651N1+03301+01901999999ADDGA1021+009001999GF102991999999999999999999MA1101081999999REMMET051METAR SBLP 161900Z 18010KT 9999 FEW030 33/19 Q1011;
0120832880999992010031620004-13267-043417FM-15+0443SBLP V0201801N003112200019N0112651N1+03301+02001999999ADDGA1021+009001999GF102991999999999999999999MA1101081999999REMMET051METAR SBLP 162000Z 18006KT 9999 FEW030 33/20 Q1011;
0120832880999992010031621004-13267-043417FM-15+0443SBLP V0201801N003112200019N0112651N1+03101+02001999999ADDGA1021+009001999GF102991999999999999999999MA1101191999999REMMET051METAR SBLP 162100Z 18006KT 9999 FEW030 31/20 Q1012;
0072832880999992010031710004-13267-043417FM-15+0443SBLP V0209999C000019999999Y0099001N1+02301+02001999999ADDMA1101391999999REMMET045METAR SBLP 171000Z 00000KT CAVOK 23/20 Q1014;
0072832880999992010031711004-13267-043417FM-15+0443SBLP V0201801N002119999999Y0099001N1+02501+02001999999ADDMA1101491999999REMMET045METAR SBLP 171100Z 18004KT CAVOK 25/20 Q1015;
0072832880999992010031712004-13267-043417FM-15+0443SBLP V0209999C000019999999Y0099001N1+02801+02101999999ADDMA1101591999999REMMET045METAR SBLP 171200Z 00000KT CAVOK 28/21 Q1016;
0072832880999992010031713004-13267-043417FM-15+0443SBLP V0209999C000019999999Y0099001N1+03001+02101999999ADDMA1101591999999REMMET045METAR SBLP 171300Z 00000KT CAVOK 30/21 Q1016;
0120832880999992010031714004-13267-043417FM-15+0443SBLP V0200901N003112200019N0112651N1+03101+02101999999ADDGA1021+009001999GF102991999999999999999999MA1101491999999REMMET051METAR SBLP 171400Z 09006KT 9999 FEW030 31/21 Q1015;
0120832880999992010031715004-13267-043417FM-15+0443SBLP V0209999C000012200019N0112651N1+03301+02101999999ADDGA1021+009001999GF102991999999999999999999MA1101491999999REMMET051METAR SBLP 171500Z 00000KT 9999 FEW030 33/21 Q1015;
0120832880999992010031716004-13267-043417FM-15+0443SBLP V0200901N003112200019N0112651N1+03301+02001999999ADDGA1021+009001999GF102991999999999999999999MA1101291999999REMMET051METAR SBLP 171600Z 09006KT 9999 FEW030 33/20 Q1013;
0120832880999992010031717004-13267-043417FM-15+0443SBLP V0200901N003112200019N0112651N1+03401+01901999999ADDGA1021+009001999GF102991999999999999999999MA1101191999999REMMET051METAR SBLP 171700Z 09006KT 9999 FEW030 34/19 Q1012;
0120832880999992010031718004-13267-043417FM-15+0443SBLP V0200901N003112200019N0112651N1+03601+01801999999ADDGA1021+009001999GF102991999999999999999999MA1101191999999REMMET051METAR SBLP 171800Z 09006KT 9999 FEW030 36/18 Q1012;
0120832880999992010031719004-13267-043417FM-15+0443SBLP V0200901N003112200019N0112651N1+03601+01801999999ADDGA1021+009001999GF102991999999999999999999MA1101191999999REMMET051METAR SBLP 171900Z 09006KT 9999 FEW030 36/18 Q1012;
0072832880999992010031720004-13267-043417FM-15+0443SBLP V0200901N003119999999Y0099001N1+03501+01801999999ADDMA1101191999999REMMET045METAR SBLP 172000Z 09006KT CAVOK 35/18 Q1012;
0072832880999992010031721004-13267-043417FM-15+0443SBLP V0209999C000019999999Y0099001N1+03301+01901999999ADDMA1101191999999REMMET045METAR SBLP 172100Z 00000KT CAVOK 33/19 Q1012;
0072832880999992010031810004-13267-043417FM-15+0443SBLP V0209999C000019999999Y0099001N1+02501+02001999999ADDMA1101491999999REMMET045METAR SBLP 181000Z 00000KT CAVOK 25/20 Q1015;
0072832880999992010031811004-13267-043417FM-15+0443SBLP V0209999C000019999999Y0099001N1+02701+02001999999ADDMA1101591999999REMMET045METAR SBLP 181100Z 00000KT CAVOK 27/20 Q1016;
0072832880999992010031812004-13267-043417FM-15+0443SBLP V0209999C000019999999Y0099001N1+02701+02001999999ADDMA1101591999999REMMET045METAR SBLP 181200Z 00000KT CAVOK 27/20 Q1016;
0072832880999992010031813004-13267-043417FM-15+0443SBLP V0200901N003119999999Y0099001N1+03101+02001999999ADDMA1101591999999REMMET045METAR SBLP 181300Z 09006KT CAVOK 31/20 Q1016;
0120832880999992010031814004-13267-043417FM-15+0443SBLP V0200901N003112200019N0112651N1+03201+02001999999ADDGA1021+009001999GF102991999999999999999999MA1101591999999REMMET051METAR SBLP 181400Z 09006KT 9999 FEW030 32/20 Q1016;
0120832880999992010031815004-13267-043417FM-15+0443SBLP V0200901N003112200019N0112651N1+03301+02001999999ADDGA1021+009001999GF102991999999999999999999MA1101591999999REMMET051METAR SBLP 181500Z 09006KT 9999 FEW030 33/20 Q1016;
0120832880999992010031816004-13267-043417FM-15+0443SBLP V0201801N003112200019N0112651N1+03401+02001999999ADDGA1041+009001999GF104991999999999999999999MA1101491999999REMMET051METAR SBLP 181600Z 18006KT 9999 SCT030 34/20 Q1015;
0120832880999992010031817004-13267-043417FM-15+0443SBLP V0201801N003112200019N0112651N1+03401+02001999999ADDGA1041+009001999GF104991999999999999999999MA1101291999999REMMET051METAR SBLP 181700Z 18006KT 9999 SCT030 34/20 Q1013;
0120832880999992010031818004-13267-043417FM-15+0443SBLP V0209999C000012200019N0112651N1+03401+02001999999ADDGA1041+009001999GF104991999999999999999999MA1101291999999REMMET051METAR SBLP 181800Z 00000KT 9999 SCT030 34/20 Q1013;
0120832880999992010031819004-13267-043417FM-15+0443SBLP V0202101N003112200019N0112651N1+03601+02001999999ADDGA1021+009001999GF102991999999999999999999MA1101191999999REMMET051METAR SBLP 181900Z 21006KT 9999 FEW030 36/20 Q1012;
0120832880999992010031820004-13267-043417FM-15+0443SBLP V0201801N003112200019N0112651N1+03501+02001999999ADDGA1021+009001999GF102991999999999999999999MA1101191999999REMMET051METAR SBLP 182000Z 18006KT 9999 FEW030 35/20 Q1012;
0072832880999992010031821004-13267-043417FM-15+0443SBLP V0209999C000019999999Y0099001N1+03401+02001999999ADDMA1101191999999REMMET045METAR SBLP 182100Z 00000KT CAVOK 34/20 Q1012;
0072832880999992010031910004-13267-043417FM-15+0443SBLP V0209999C000019999999Y0099001N1+02501+02001999999ADDMA1101491999999REMMET045METAR SBLP 191000Z 00000KT CAVOK 25/20 Q1015;
0072832880999992010031911004-13267-043417FM-15+0443SBLP V0201801N003119999999Y0099001N1+02701+02001999999ADDMA1101591999999REMMET045METAR SBLP 191100Z 18006KT CAVOK 27/20 Q1016;
0072832880999992010031912004-13267-043417FM-15+0443SBLP V0201801N003119999999Y0099001N1+02801+02001999999ADDMA1101691999999REMMET045METAR SBLP 191200Z 18006KT CAVOK 28/20 Q1017;
0072832880999992010031913004-13267-043417FM-15+0443SBLP V0201801N003119999999Y0099001N1+03001+02001999999ADDMA1101691999999REMMET045METAR SBLP 191300Z 18006KT CAVOK 30/20 Q1017;
0120832880999992010031914004-13267-043417FM-15+0443SBLP V0201801N003112200019N0112651N1+03101+02001999999ADDGA1021+009001999GF102991999999999999999999MA1101691999999REMMET051METAR SBLP 191400Z 18006KT 9999 FEW030 31/20 Q1017;
0120832880999992010031915004-13267-043417FM-15+0443SBLP V0200901N003112200019N0112651N1+03201+02001999999ADDGA1021+009001999GF102991999999999999999999MA1101591999999REMMET051METAR SBLP 191500Z 09006KT 9999 FEW030 32/20 Q1016;
0120832880999992010031916004-13267-043417FM-15+0443SBLP V0201501N003112200019N0112651N1+03201+02201999999ADDGA1041+009001999GF104991999999999999999999MA1101491999999REMMET051METAR SBLP 191600Z 15006KT 9999 SCT030 32/22 Q1015;
0143832880999992010031917004-13267-043417FM-15+0443SBLP V0201501N002110090019N0112651N1+03301+02101999999ADDGA1071+009001999GA2071+090001999GF107991999999999999999999MA1101291999999REMMET058METAR SBLP 191700Z 15004KT 9999 BKN030 BKN300 33/21 Q1013;
0120832880999992010031919004-13267-043417FM-15+0443SBLP V0202101N001512200019N0112651N1+03001+02301999999ADDGA1041+009001999GF104991999999999999999999MA1101191999999REMMET051METAR SBLP 191900Z 21003KT 9999 SCT030 30/23 Q1012;
0120832880999992010031920004-13267-043417FM-15+0443SBLP V0202101N001512200019N0112651N1+03001+02301999999ADDGA1041+009001999GF104991999999999999999999MA1101191999999REMMET051METAR SBLP 192000Z 21003KT 9999 SCT030 30/23 Q1012;
0120832880999992010031921004-13267-043417FM-15+0443SBLP V0202101N003112200019N0112651N1+02901+02401999999ADDGA1041+009001999GF104991999999999999999999MA1101291999999REMMET051METAR SBLP 192100Z 21006KT 9999 SCT030 29/24 Q1013;
0143832880999992010032010004-13267-043417FM-15+0443SBLP V0202101N003112200019N0112651N1+02401+02201999999ADDGA1021+009001999GA2041+030001999GF104991999999999999999999MA1101591999999REMMET058METAR SBLP 201000Z 21006KT 9999 FEW030 SCT100 24/22 Q1016;
0143832880999992010032011004-13267-043417FM-15+0443SBLP V0209999C000012200019N0112651N1+02501+02201999999ADDGA1021+009001999GA2041+030001999GF104991999999999999999999MA1101591999999REMMET058METAR SBLP 201100Z 00000KT 9999 FEW030 SCT100 25/22 Q1016;
0120832880999992010032012004-13267-043417FM-15+0443SBLP V0202101N002112200019N0112651N1+02701+02201999999ADDGA1021+009001999GF102991999999999999999999MA1101691999999REMMET051METAR SBLP 201200Z 21004KT 9999 FEW030 27/22 Q1017;
0120832880999992010032013004-13267-043417FM-15+0443SBLP V0209999C000012200019N0112651N1+02801+02201999999ADDGA1041+009001999GF104991999999999999999999MA1101591999999REMMET051METAR SBLP 201300Z 00000KT 9999 SCT030 28/22 Q1016;
0120832880999992010032014004-13267-043417FM-15+0443SBLP V0209999C000010090019N0112651N1+03001+02201999999ADDGA1071+009001999GF107991999999999999999999MA1101591999999REMMET051METAR SBLP 201400Z 00000KT 9999 BKN030 30/22 Q1016;
0120832880999992010032015004-13267-043417FM-15+0443SBLP V0203601N005112200019N0112651N1+03101+02101999999ADDGA1041+009001999GF104991999999999999999999MA1101491999999REMMET051METAR SBLP 201500Z 36010KT 9999 SCT030 31/21 Q1015;
0120832880999992010032016004-13267-043417FM-15+0443SBLP V0203301N003112200019N0112651N1+03201+02201999999ADDGA1021+009001999GF102991999999999999999999MA1101291999999REMMET051METAR SBLP 201600Z 33006KT 9999 FEW030 32/22 Q1013;
0120832880999992010032017004-13267-043417FM-15+0443SBLP V0203601N003112200019N0112651N1+03201+02201999999ADDGA1041+009001999GF104991999999999999999999MA1101191999999REMMET051METAR SBLP 201700Z 36006KT 9999 SCT030 32/22 Q1012;
0120832880999992010032018004-13267-043417FM-15+0443SBLP V0209999C000012200019N0112651N1+03301+02201999999ADDGA1041+009001999GF104991999999999999999999MA1101081999999REMMET051METAR SBLP 201800Z 00000KT 9999 SCT030 33/22 Q1011;
0120832880999992010032019004-13267-043417FM-15+0443SBLP V0202701N003112200019N0112651N1+03501+02101999999ADDGA1041+009001999GF104991999999999999999999MA1101081999999REMMET051METAR SBLP 201900Z 27006KT 9999 SCT030 35/21 Q1011;
0120832880999992010032020004-13267-043417FM-15+0443SBLP V0203301N003112200019N0112651N1+03401+02201999999ADDGA1041+009001999GF104991999999999999999999MA1101081999999REMMET051METAR SBLP 202000Z 33006KT 9999 SCT030 34/22 Q1011;
0120832880999992010032021004-13267-043417FM-15+0443SBLP V0209999C000012200019N0112651N1+03001+02301999999ADDGA1041+009001999GF104991999999999999999999MA1101081999999REMMET051METAR SBLP 202100Z 00000KT 9999 SCT030 30/23 Q1011;
0072832880999992010032110004-13267-043417FM-15+0443SBLP V0203301N003119999999Y0099001N1+02401+02101999999ADDMA1101391999999REMMET045METAR SBLP 211000Z 33006KT CAVOK 24/21 Q1014;
0143832880999992010032111004-13267-043417FM-15+0443SBLP V0203301N003112200019N0112651N1+02501+02101999999ADDGA1021+009001999GA2041+030001999GF104991999999999999999999MA1101491999999REMMET058METAR SBLP 211100Z 33006KT 9999 FEW030 SCT100 25/21 Q1015;
0143832880999992010032112004-13267-043417FM-15+0443SBLP V0203601N003112200019N0112651N1+02801+02101999999ADDGA1021+009001999GA2041+030001999GF104991999999999999999999MA1101491999999REMMET058METAR SBLP 211200Z 36006KT 9999 FEW030 SCT100 28/21 Q1015;
0120832880999992010032113004-13267-043417FM-15+0443SBLP V0202201N003112200019N0112651N1+02801+02101999999ADDGA1041+009001999GF104991999999999999999999MA1101491999999REMMET051METAR SBLP 211300Z 22006KT 9999 SCT030 28/21 Q1015;
0120832880999992010032114004-13267-043417FM-15+0443SBLP V0209999C000012200019N0112651N1+03001+02101999999ADDGA1041+009001999GF104991999999999999999999MA1101391999999REMMET051METAR SBLP 211400Z 00000KT 9999 SCT030 30/21 Q1014;
0120832880999992010032115004-13267-043417FM-15+0443SBLP V0203601N003112200019N0112651N1+03101+02001999999ADDGA1041+009001999GF104991999999999999999999MA1101291999999REMMET051METAR SBLP 211500Z 36006KT 9999 SCT030 31/20 Q1013;
0143832880999992010032116004-13267-043417FM-15+0443SBLP V0202601N004112200019N0112651N1+03201+02101999999ADDGA1041+009001999GA2041+030001999GF104991999999999999999999MA1101191999999REMMET058METAR SBLP 211600Z 26008KT 9999 SCT030 SCT100 32/21 Q1012;
0143832880999992010032117004-13267-043417FM-15+0443SBLP V0202401N004112200019N0112651N1+03201+02101999999ADDGA1041+009001999GA2041+030001999GF104991999999999999999999MA1101081999999REMMET058METAR SBLP 211700Z 24008KT 9999 SCT030 SCT100 32/21 Q1011;
0120832880999992010032118004-13267-043417FM-15+0443SBLP V0203001N001012200019N0112651N1+03301+02001999999ADDGA1041+009001999GF104991999999999999999999MA1100911999999REMMET051METAR SBLP 211800Z 30002KT 9999 SCT030 33/20 Q1009;
0120832880999992010032119004-13267-043417FM-15+0443SBLP V0203601N003112200019N0112651N1+03401+02101999999ADDGA1021+009001999GF102991999999999999999999MA1100811999999REMMET051METAR SBLP 211900Z 36006KT 9999 FEW030 34/21 Q1008;
0120832880999992010032120004-13267-043417FM-15+0443SBLP V0203601N002112200019N0112651N1+03301+01901999999ADDGA1021+009001999GF102991999999999999999999MA1100811999999REMMET051METAR SBLP 212000Z 36004KT 9999 FEW030 33/19 Q1008;
0120832880999992010032121004-13267-043417FM-15+0443SBLP V0203601N004112200019N0112651N1+03101+02101999999ADDGA1021+009001999GF102991999999999999999999MA1100911999999REMMET051METAR SBLP 212100Z 36008KT 9999 FEW030 31/21 Q1009;
0143832880999992010032210004-13267-043417FM-15+0443SBLP V0203601N003110300019N0112651N1+02301+02201999999ADDGA1021+006001999GA2071+030001999GF107991999999999999999999MA1101391999999REMMET058METAR SBLP 221000Z 36006KT 9999 FEW020 BKN100 23/22 Q1014;
0143832880999992010032211004-13267-043417FM-15+0443SBLP V0203601N003110300019N0112651N1+02501+02201999999ADDGA1021+006001999GA2071+030001999GF107991999999999999999999MA1101491999999REMMET058METAR SBLP 221100Z 36006KT 9999 FEW020 BKN100 25/22 Q1015;
0143832880999992010032212004-13267-043417FM-15+0443SBLP V0203401N003110060019N0112651N1+02501+02201999999ADDGA1071+006001999GA2071+030001999GF107991999999999999999999MA1101591999999REMMET058METAR SBLP 221200Z 34006KT 9999 BKN020 BKN100 25/22 Q1016;
0143832880999992010032213004-13267-043417FM-15+0443SBLP V0203601N003110060019N0112651N1+02701+02201999999ADDGA1071+006001999GA2071+030001999GF107991999999999999999999MA1101591999999REMMET058METAR SBLP 221300Z 36006KT 9999 BKN020 BKN100 27/22 Q1016;
0143832880999992010032214004-13267-043417FM-15+0443SBLP V0203601N003110060019N0112651N1+02801+02201999999ADDGA1071+006001999GA2071+030001999GF107991999999999999999999MA1101591999999REMMET058METAR SBLP 221400Z 36006KT 9999 BKN020 BKN100 28/22 Q1016;
0153832880999992010032215004-13267-043417FM-15+0443SBLP V0203601N002110045019N0060001N1+02501+02301999999ADDGA1071+004501999GA2071+030001999GF107991999999999999999999MA1101491999999MW1611REMMET062METAR SBLP 221500Z 36004KT 6000 -RA BKN015 BKN100 25/23 Q1015;
0177832880999992010032216004-13267-043417FM-15+0443SBLP V0203601N00311012001CN0112651N1+02701+02201999999ADDGA1041+006001999GA2021+012001091GA3071+030001999GF107991999999999999999999MA1101391999999MW1171REMMET070METAR SBLP 221600Z 36006KT 9999 TS SCT020 FEW040CB BKN100 27/22 Q1014;
0177832880999992010032217004-13267-043417FM-15+0443SBLP V0203601N00311012001CN0112651N1+02701+02101999999ADDGA1041+006001999GA2021+012001091GA3071+030001999GF107991999999999999999999MA1101291999999MW1171REMMET070METAR SBLP 221700Z 36006KT 9999 TS SCT020 FEW040CB BKN100 27/21 Q1013;
0153832880999992010032218004-13267-043417FM-15+0443SBLP V0203601N003110300019N0090001N1+02701+02101999999ADDGA1041+006001999GA2071+030001999GF107991999999999999999999MA1101291999999MW1611REMMET062METAR SBLP 221800Z 36006KT 9000 -RA SCT020 BKN100 27/21 Q1013;
0143832880999992010032219004-13267-043417FM-15+0443SBLP V0200901N003110300019N0112651N1+02701+02101999999ADDGA1041+009001999GA2071+030001999GF107991999999999999999999MA1101191999999REMMET058METAR SBLP 221900Z 09006KT 9999 SCT030 BKN100 27/21 Q1012;
0143832880999992010032220004-13267-043417FM-15+0443SBLP V0209999C000010300019N0112651N1+02601+02101999999ADDGA1041+009001999GA2071+030001999GF107991999999999999999999MA1101191999999REMMET058METAR SBLP 222000Z 00000KT 9999 SCT030 BKN100 26/21 Q1012;
0143832880999992010032221004-13267-043417FM-15+0443SBLP V0209999C000010300019N0112651N1+02501+02101999999ADDGA1021+009001999GA2071+030001999GF107991999999999999999999MA1101191999999REMMET058METAR SBLP 222100Z 00000KT 9999 FEW030 BKN100 25/21 Q1012;
0143832880999992010032310004-13267-043417FM-15+0443SBLP V0203601N003110300019N0112651N1+02201+02101999999ADDGA1041+003001999GA2071+030001999GF107991999999999999999999MA1101491999999REMMET058METAR SBLP 231000Z 36006KT 9999 SCT010 BKN100 22/21 Q1015;
0143832880999992010032311004-13267-043417FM-15+0443SBLP V0203601N003110300019N0112651N1+02201+02101999999ADDGA1041+003001999GA2071+030001999GF107991999999999999999999MA1101591999999REMMET058METAR SBLP 231100Z 36006KT 9999 SCT010 BKN100 22/21 Q1016;
0143832880999992010032312004-13267-043417FM-15+0443SBLP V0203601N003110300019N0112651N1+02301+02101999999ADDGA1041+003001999GA2071+030001999GF107991999999999999999999MA1101591999999REMMET058METAR SBLP 231200Z 36006KT 9999 SCT010 BKN100 23/21 Q1016;
0143832880999992010032313004-13267-043417FM-15+0443SBLP V0203601N003110300019N0112651N1+02401+02101999999ADDGA1041+004501999GA2071+030001999GF107991999999999999999999MA1101591999999REMMET058METAR SBLP 231300Z 36006KT 9999 SCT015 BKN100 24/21 Q1016;
0143832880999992010032314004-13267-043417FM-15+0443SBLP V0203601N003112200019N0112651N1+02701+02101999999ADDGA1041+006001999GA2041+030001999GF104991999999999999999999MA1101591999999REMMET058METAR SBLP 231400Z 36006KT 9999 SCT020 SCT100 27/21 Q1016;
0143832880999992010032315004-13267-043417FM-15+0443SBLP V0203601N003112200019N0112651N1+02901+02101999999ADDGA1021+006001999GA2041+030001999GF104991999999999999999999MA1101491999999REMMET058METAR SBLP 231500Z 36006KT 9999 FEW020 SCT100 29/21 Q1015;
0143832880999992010032316004-13267-043417FM-15+0443SBLP V0203301N003110300019N0112651N1+03001+02201999999ADDGA1041+006001999GA2071+030001999GF107991999999999999999999MA1101391999999REMMET058METAR SBLP 231600Z 33006KT 9999 SCT020 BKN100 30/22 Q1014;
0143832880999992010032317004-13267-043417FM-15+0443SBLP V0209999C000010300019N0112651N1+03101+02301999999ADDGA1041+006001999GA2071+030001999GF107991999999999999999999MA1101291999999REMMET058METAR SBLP 231700Z 00000KT 9999 SCT020 BKN100 31/23 Q1013;
0143832880999992010032318004-13267-043417FM-15+0443SBLP V0202401N003110300019N0112651N1+02801+02501999999ADDGA1041+006001999GA2071+030001999GF107991999999999999999999MA1101191999999REMMET058METAR SBLP 231800Z 24006KT 9999 SCT020 BKN100 28/25 Q1012;
0143832880999992010032319004-13267-043417FM-15+0443SBLP V0209999C000012200019N0112651N1+02901+02401999999ADDGA1021+006001999GA2041+030001999GF104991999999999999999999MA1101081999999REMMET058METAR SBLP 231900Z 00000KT 9999 FEW020 SCT100 29/24 Q1011;
0143832880999992010032320004-13267-043417FM-15+0443SBLP V0201601N003112200019N0112651N1+02801+02401999999ADDGA1021+006001999GA2041+030001999GF104991999999999999999999MA1101081999999REMMET058METAR SBLP 232000Z 16006KT 9999 FEW020 SCT100 28/24 Q1011;
0143832880999992010032321004-13267-043417FM-15+0443SBLP V0209999C000012200019N0112651N1+02701+02501999999ADDGA1021+006001999GA2041+030001999GF104991999999999999999999MA1101081999999REMMET058METAR SBLP 232100Z 00000KT 9999 FEW020 SCT100 27/25 Q1011;
0143832880999992010032410004-13267-043417FM-15+0443SBLP V0209999C000010300019N0112651N1+02301+02101999999ADDGA1041+004501999GA2071+030001999GF107991999999999999999999MA1101491999999REMMET058METAR SBLP 241000Z 00000KT 9999 SCT015 BKN100 23/21 Q1015;
0143832880999992010032411004-13267-043417FM-15+0443SBLP V0209999C000010300019N0112651N1+02501+02101999999ADDGA1021+006001999GA2071+030001999GF107991999999999999999999MA1101591999999REMMET058METAR SBLP 241100Z 00000KT 9999 FEW020 BKN100 25/21 Q1016;
0143832880999992010032412004-13267-043417FM-15+0443SBLP V0201801N003110300019N0112651N1+02601+02101999999ADDGA1021+006001999GA2071+030001999GF107991999999999999999999MA1101691999999REMMET058METAR SBLP 241200Z 18006KT 9999 FEW020 BKN100 26/21 Q1017;
0143832880999992010032413004-13267-043417FM-15+0443SBLP V0202701N003112200019N0112651N1+02701+02101999999ADDGA1041+006001999GA2041+030001999GF104991999999999999999999MA1101691999999REMMET058METAR SBLP 241300Z 27006KT 9999 SCT020 SCT100 27/21 Q1017;
0143832880999992010032414004-13267-043417FM-15+0443SBLP V0202701N003112200019N0112651N1+02901+02101999999ADDGA1041+006001999GA2041+030001999GF104991999999999999999999MA1101591999999REMMET058METAR SBLP 241400Z 27006KT 9999 SCT020 SCT100 29/21 Q1016;
0120832880999992010032415004-13267-043417FM-15+0443SBLP V0202701N003112200019N0112651N1+03001+02101999999ADDGA1041+009001999GF104991999999999999999999MA1101491999999REMMET051METAR SBLP 241500Z 27006KT 9999 SCT030 30/21 Q1015;
0120832880999992010032416004-13267-043417FM-15+0443SBLP V0209999C000012200019N0112651N1+03101+02101999999ADDGA1041+009001999GF104991999999999999999999MA1101391999999REMMET051METAR SBLP 241600Z 00000KT 9999 SCT030 31/21 Q1014;
0120832880999992010032417004-13267-043417FM-15+0443SBLP V0209999C000012200019N0112651N1+03401+02001999999ADDGA1041+009001999GF104991999999999999999999MA1101291999999REMMET051METAR SBLP 241700Z 00000KT 9999 SCT030 34/20 Q1013;
0120832880999992010032418004-13267-043417FM-15+0443SBLP V0203401N003112200019N0112651N1+03101+02301999999ADDGA1041+009001999GF104991999999999999999999MA1101191999999REMMET051METAR SBLP 241800Z 34006KT 9999 SCT030 31/23 Q1012;
0120832880999992010032419004-13267-043417FM-15+0443SBLP V0202401N003112200019N0112651N1+03201+02201999999ADDGA1021+009001999GF102991999999999999999999MA1101081999999REMMET051METAR SBLP 241900Z 24006KT 9999 FEW030 32/22 Q1011;
0120832880999992010032420004-13267-043417FM-15+0443SBLP V0202101N003112200019N0112651N1+03001+02301999999ADDGA1021+009001999GF102991999999999999999999MA1101081999999REMMET051METAR SBLP 242000Z 21006KT 9999 FEW030 30/23 Q1011;
0120832880999992010032421004-13267-043417FM-15+0443SBLP V0209999C000012200019N0112651N1+02801+02401999999ADDGA1021+009001999GF102991999999999999999999MA1101081999999REMMET051METAR SBLP 242100Z 00000KT 9999 FEW030 28/24 Q1011;
0072832880999992010032510004-13267-043417FM-15+0443SBLP V0209999C000019999999Y0099001N1+02201+02001999999ADDMA1101491999999REMMET045METAR SBLP 251000Z 00000KT CAVOK 22/20 Q1015;
0072832880999992010032511004-13267-043417FM-15+0443SBLP V0209999C000019999999Y0099001N1+02501+02101999999ADDMA1101591999999REMMET045METAR SBLP 251100Z 00000KT CAVOK 25/21 Q1016;
0072832880999992010032512004-13267-043417FM-15+0443SBLP V0209999C000019999999Y0099001N1+02801+02101999999ADDMA1101691999999REMMET045METAR SBLP 251200Z 00000KT CAVOK 28/21 Q1017;
0120832880999992010032513004-13267-043417FM-15+0443SBLP V0200901N003112200019N0112651N1+02901+02201999999ADDGA1021+009001999GF102991999999999999999999MA1101691999999REMMET051METAR SBLP 251300Z 09006KT 9999 FEW030 29/22 Q1017;
0120832880999992010032514004-13267-043417FM-15+0443SBLP V0209999C000012200019N0112651N1+03001+02101999999ADDGA1041+009001999GF104991999999999999999999MA1101591999999REMMET051METAR SBLP 251400Z 00000KT 9999 SCT030 30/21 Q1016;
0120832880999992010032515004-13267-043417FM-15+0443SBLP V0201201N003112200019N0112651N1+03101+02301999999ADDGA1041+009001999GF104991999999999999999999MA1101491999999REMMET051METAR SBLP 251500Z 12006KT 9999 SCT030 31/23 Q1015;
0120832880999992010032516004-13267-043417FM-15+0443SBLP V0201501N003112200019N0112651N1+03101+01901999999ADDGA1041+009001999GF104991999999999999999999MA1101391999999REMMET051METAR SBLP 251600Z 15006KT 9999 SCT030 31/19 Q1014;
0120832880999992010032517004-13267-043417FM-15+0443SBLP V0209999C000012200019N0112651N1+03301+01901999999ADDGA1041+009001999GF104991999999999999999999MA1101291999999REMMET051METAR SBLP 251700Z 00000KT 9999 SCT030 33/19 Q1013;
0120832880999992010032518004-13267-043417FM-15+0443SBLP V0201501N002112200019N0112651N1+03301+02001999999ADDGA1041+009001999GF104991999999999999999999MA1101291999999REMMET051METAR SBLP 251800Z 15004KT 9999 SCT030 33/20 Q1013;
0120832880999992010032519004-13267-043417FM-15+0443SBLP V0203101N003112200019N0112651N1+03301+02001999999ADDGA1021+009001999GF102991999999999999999999MA1101191999999REMMET051METAR SBLP 251900Z 31006KT 9999 FEW030 33/20 Q1012;
0120832880999992010032520004-13267-043417FM-15+0443SBLP V0201501N003112200019N0112651N1+03201+02101999999ADDGA1021+009001999GF102991999999999999999999MA1101191999999REMMET051METAR SBLP 252000Z 15006KT 9999 FEW030 32/21 Q1012;
0120832880999992010032521004-13267-043417FM-15+0443SBLP V0201501N003112200019N0112651N1+03001+02001999999ADDGA1021+009001999GF102991999999999999999999MA1101191999999REMMET051METAR SBLP 252100Z 15006KT 9999 FEW030 30/20 Q1012;
0072832880999992010032610004-13267-043417FM-15+0443SBLP V0201801N003119999999Y0099001N1+02301+02001999999ADDMA1101491999999REMMET045METAR SBLP 261000Z 18006KT CAVOK 23/20 Q1015;
0072832880999992010032611004-13267-043417FM-15+0443SBLP V0201801N003119999999Y0099001N1+02601+02101999999ADDMA1101591999999REMMET045METAR SBLP 261100Z 18006KT CAVOK 26/21 Q1016;
0072832880999992010032612004-13267-043417FM-15+0443SBLP V0201801N002119999999Y0099001N1+02801+02001999999ADDMA1101591999999REMMET045METAR SBLP 261200Z 18004KT CAVOK 28/20 Q1016;
0120832880999992010032613004-13267-043417FM-15+0443SBLP V0201201N002112200019N0112651N1+02901+02001999999ADDGA1021+009001999GF102991999999999999999999MA1101591999999REMMET051METAR SBLP 261300Z 12004KT 9999 FEW030 29/20 Q1016;
0120832880999992010032614004-13267-043417FM-15+0443SBLP V0201501N003112200019N0112651N1+03101+02001999999ADDGA1041+009001999GF104991999999999999999999MA1101591999999REMMET051METAR SBLP 261400Z 15006KT 9999 SCT030 31/20 Q1016;
0120832880999992010032615004-13267-043417FM-15+0443SBLP V0201201N005112200019N0112651N1+03101+02001999999ADDGA1041+009001999GF104991999999999999999999MA1101491999999REMMET051METAR SBLP 261500Z 12010KT 9999 SCT030 31/20 Q1015;
0120832880999992010032616004-13267-043417FM-15+0443SBLP V0201801N003112200019N0112651N1+03401+01801999999ADDGA1041+009001999GF104991999999999999999999MA1101391999999REMMET051METAR SBLP 261600Z 18006KT 9999 SCT030 34/18 Q1014;
0120832880999992010032617004-13267-043417FM-15+0443SBLP V0201801N003112200019N0112651N1+03401+01801999999ADDGA1041+009001999GF104991999999999999999999MA1101291999999REMMET051METAR SBLP 261700Z 18006KT 9999 SCT030 34/18 Q1013;
0120832880999992010032619004-13267-043417FM-15+0443SBLP V0201801N003112200019N0112651N1+03501+01801999999ADDGA1021+009001999GF102991999999999999999999MA1101081999999REMMET051METAR SBLP 261900Z 18006KT 9999 FEW030 35/18 Q1011;
0120832880999992010032620004-13267-043417FM-15+0443SBLP V0201801N003112200019N0112651N1+03401+01801999999ADDGA1021+009001999GF102991999999999999999999MA1101081999999REMMET051METAR SBLP 262000Z 18006KT 9999 FEW030 34/18 Q1011;
0120832880999992010032621004-13267-043417FM-15+0443SBLP V0201801N003112200019N0112651N1+03201+01901999999ADDGA1021+009001999GF102991999999999999999999MA1101191999999REMMET051METAR SBLP 262100Z 18006KT 9999 FEW030 32/19 Q1012;
0072832880999992010032710004-13267-043417FM-15+0443SBLP V0201801N002119999999Y0099001N1+02101+02001999999ADDMA1101391999999REMMET045METAR SBLP 271000Z 18004KT CAVOK 21/20 Q1014;
0072832880999992010032711004-13267-043417FM-15+0443SBLP V0201801N001519999999Y0099001N1+02501+02101999999ADDMA1101491999999REMMET045METAR SBLP 271100Z 18003KT CAVOK 25/21 Q1015;
0072832880999992010032712004-13267-043417FM-15+0443SBLP V0201201N002119999999Y0099001N1+02801+02001999999ADDMA1101591999999REMMET045METAR SBLP 271200Z 12004KT CAVOK 28/20 Q1016;
0120832880999992010032713004-13267-043417FM-15+0443SBLP V0200901N002112200019N0112651N1+02901+02001999999ADDGA1041+009001999GF104991999999999999999999MA1101591999999REMMET051METAR SBLP 271300Z 09004KT 9999 SCT030 29/20 Q1016;
0120832880999992010032714004-13267-043417FM-15+0443SBLP V0201201N003110090019N0112651N1+03001+02001999999ADDGA1071+009001999GF107991999999999999999999MA1101491999999REMMET051METAR SBLP 271400Z 12006KT 9999 BKN030 30/20 Q1015;
0120832880999992010032715004-13267-043417FM-15+0443SBLP V0201801N003110090019N0112651N1+03101+02101999999ADDGA1071+009001999GF107991999999999999999999MA1101491999999REMMET051METAR SBLP 271500Z 18006KT 9999 BKN030 31/21 Q1015;
0120832880999992010032716004-13267-043417FM-15+0443SBLP V0201801N003110090019N0112651N1+03201+02001999999ADDGA1071+009001999GF107991999999999999999999MA1101291999999REMMET051METAR SBLP 271600Z 18006KT 9999 BKN030 32/20 Q1013;
0120832880999992010032717004-13267-043417FM-15+0443SBLP V0201801N003110090019N0112651N1+03201+02001999999ADDGA1071+009001999GF107991999999999999999999MA1101191999999REMMET051METAR SBLP 271700Z 18006KT 9999 BKN030 32/20 Q1012;
0120832880999992010032718004-13267-043417FM-15+0443SBLP V0201801N003110090019N0112651N1+03401+02001999999ADDGA1071+009001999GF107991999999999999999999MA1101191999999REMMET051METAR SBLP 271800Z 18006KT 9999 BKN030 34/20 Q1012;
0120832880999992010032719004-13267-043417FM-15+0443SBLP V0201801N003112200019N0112651N1+03501+01901999999ADDGA1041+009001999GF104991999999999999999999MA1101081999999REMMET051METAR SBLP 271900Z 18006KT 9999 SCT030 35/19 Q1011;
0120832880999992010032720004-13267-043417FM-15+0443SBLP V0209999C000012200019N0112651N1+03301+01901999999ADDGA1041+009001999GF104991999999999999999999MA1101081999999REMMET051METAR SBLP 272000Z 00000KT 9999 SCT030 33/19 Q1011;
0120832880999992010032721004-13267-043417FM-15+0443SBLP V0209999C000012200019N0112651N1+03201+01901999999ADDGA1021+009001999GF102991999999999999999999MA1101081999999REMMET051METAR SBLP 272100Z 00000KT 9999 FEW030 32/19 Q1011;
0072832880999992010032810004-13267-043417FM-15+0443SBLP V0209999C000019999999Y0099001N1+02401+02001999999ADDMA1101391999999REMMET045METAR SBLP 281000Z 00000KT CAVOK 24/20 Q1014;
0072832880999992010032811004-13267-043417FM-15+0443SBLP V0209999C000019999999Y0099001N1+02501+02001999999ADDMA1101491999999REMMET045METAR SBLP 281100Z 00000KT CAVOK 25/20 Q1015;
0072832880999992010032812004-13267-043417FM-15+0443SBLP V0209999C000019999999Y0099001N1+02801+02001999999ADDMA1101491999999REMMET045METAR SBLP 281200Z 00000KT CAVOK 28/20 Q1015;
0120832880999992010032813004-13267-043417FM-15+0443SBLP V0209999C000012200019N0112651N1+02901+02001999999ADDGA1021+009001999GF102991999999999999999999MA1101491999999REMMET051METAR SBLP 281300Z 00000KT 9999 FEW030 29/20 Q1015;
0120832880999992010032814004-13267-043417FM-15+0443SBLP V0209999C000012200019N0112651N1+03101+02001999999ADDGA1021+009001999GF102991999999999999999999MA1101491999999REMMET051METAR SBLP 281400Z 00000KT 9999 FEW030 31/20 Q1015;
0120832880999992010032815004-13267-043417FM-15+0443SBLP V0202701N003112200019N0112651N1+03101+02001999999ADDGA1041+009001999GF104991999999999999999999MA1101391999999REMMET051METAR SBLP 281500Z 27006KT 9999 SCT030 31/20 Q1014;
0120832880999992010032816004-13267-043417FM-15+0443SBLP V0202701N003112200019N0112651N1+03301+02001999999ADDGA1041+009001999GF104991999999999999999999MA1101291999999REMMET051METAR SBLP 281600Z 27006KT 9999 SCT030 33/20 Q1013;
0120832880999992010032817004-13267-043417FM-15+0443SBLP V0209999C000012200019N0112651N1+03301+02001999999ADDGA1041+009001999GF104991999999999999999999MA1101191999999REMMET051METAR SBLP 281700Z 00000KT 9999 SCT030 33/20 Q1012;
0120832880999992010032818004-13267-043417FM-15+0443SBLP V0201501N003112200019N0112651N1+03301+02101999999ADDGA1041+009001999GF104991999999999999999999MA1101081999999REMMET051METAR SBLP 281800Z 15006KT 9999 SCT030 33/21 Q1011;
0120832880999992010032820004-13267-043417FM-15+0443SBLP V0201401N003112200019N0112651N1+03201+02201999999ADDGA1021+009001999GF102991999999999999999999MA1101021999999REMMET051METAR SBLP 282000Z 14006KT 9999 FEW030 32/22 Q1010;
0072832880999992010032821004-13267-043417FM-15+0443SBLP V0209999C000019999999Y0099001N1+02901+02301999999ADDMA1101021999999REMMET045METAR SBLP 282100Z 00000KT CAVOK 29/23 Q1010;
0072832880999992010032910004-13267-043417FM-15+0443SBLP V0209999C000019999999Y0099001N1+02301+02101999999ADDMA1101391999999REMMET045METAR SBLP 291000Z 00000KT CAVOK 23/21 Q1014;
0072832880999992010032911004-13267-043417FM-15+0443SBLP V0200901N002119999999Y0099001N1+02501+02101999999ADDMA1101491999999REMMET045METAR SBLP 291100Z 09004KT CAVOK 25/21 Q1015;
0072832880999992010032912004-13267-043417FM-15+0443SBLP V0203601N003119999999Y0099001N1+02901+02001999999ADDMA1101591999999REMMET045METAR SBLP 291200Z 36006KT CAVOK 29/20 Q1016;
0072832880999992010032913004-13267-043417FM-15+0443SBLP V0203601N003119999999Y0099001N1+03001+02101999999ADDMA1101591999999REMMET045METAR SBLP 291300Z 36006KT CAVOK 30/21 Q1016;
0120832880999992010032914004-13267-043417FM-15+0443SBLP V0203501N003112200019N0112651N1+03101+02101999999ADDGA1041+009001999GF104991999999999999999999MA1101591999999REMMET051METAR SBLP 291400Z 35006KT 9999 SCT030 31/21 Q1016;
0120832880999992010032915004-13267-043417FM-15+0443SBLP V0209999C000012200019N0112651N1+03101+02101999999ADDGA1041+009001999GF104991999999999999999999MA1101491999999REMMET051METAR SBLP 291500Z 00000KT 9999 SCT030 31/21 Q1015;
0120832880999992010032916004-13267-043417FM-15+0443SBLP V0203301N003112200019N0112651N1+03201+02101999999ADDGA1041+009001999GF104991999999999999999999MA1101391999999REMMET051METAR SBLP 291600Z 33006KT 9999 SCT030 32/21 Q1014;
0120832880999992010032917004-13267-043417FM-15+0443SBLP V0202201N004112200019N0112651N1+03301+02101999999ADDGA1041+009001999GF104991999999999999999999MA1101191999999REMMET051METAR SBLP 291700Z 22008KT 9999 SCT030 33/21 Q1012;
0120832880999992010032918004-13267-043417FM-15+0443SBLP V0202201N004112200019N0112651N1+03401+02101999999ADDGA1041+009001999GF104991999999999999999999MA1101191999999REMMET051METAR SBLP 291800Z 22008KT 9999 SCT030 34/21 Q1012;
0120832880999992010032919004-13267-043417FM-15+0443SBLP V0202401N003112200019N0112651N1+03401+02001999999ADDGA1041+009001999GF104991999999999999999999MA1101081999999REMMET051METAR SBLP 291900Z 24006KT 9999 SCT030 34/20 Q1011;
0125832880999992010032920004-13267-043417FM-15+0443SBLP V0200901N005112200019N0112651N1+03101+02301999999ADDGA1041+009001999GF104991999999999999999999MA1101191999999REMMET056METAR SBLP 292000Z 09010KT 9999 SCT030 31/23 Q1012 RERA;
0120832880999992010032921004-13267-043417FM-15+0443SBLP V0203301N003112200019N0112651N1+02901+02401999999ADDGA1041+009001999GF104991999999999999999999MA1101191999999REMMET051METAR SBLP 292100Z 33006KT 9999 SCT030 29/24 Q1012;
0072832880999992010033010004-13267-043417FM-15+0443SBLP V0200301N001519999999Y0099001N1+02301+02201999999ADDMA1101391999999REMMET045METAR SBLP 301000Z 03003KT CAVOK 23/22 Q1014;
0072832880999992010033011004-13267-043417FM-15+0443SBLP V0209999C000019999999Y0099001N1+02501+02201999999ADDMA1101491999999REMMET045METAR SBLP 301100Z 00000KT CAVOK 25/22 Q1015;
0072832880999992010033012004-13267-043417FM-15+0443SBLP V0209999C000019999999Y0099001N1+02801+02201999999ADDMA1101591999999REMMET045METAR SBLP 301200Z 00000KT CAVOK 28/22 Q1016;
0143832880999992010033013004-13267-043417FM-15+0443SBLP V0209999C000012200019N0112651N1+03001+02201999999ADDGA1021+009001999GA2041+030001999GF104991999999999999999999MA1101591999999REMMET058METAR SBLP 301300Z 00000KT 9999 FEW030 SCT100 30/22 Q1016;
0143832880999992010033014004-13267-043417FM-15+0443SBLP V0209999C000012200019N0112651N1+03101+02201999999ADDGA1041+009001999GA2041+030001999GF104991999999999999999999MA1101491999999REMMET058METAR SBLP 301400Z 00000KT 9999 SCT030 SCT100 31/22 Q1015;
0120832880999992010033015004-13267-043417FM-15+0443SBLP V0200901N002112200019N0112651N1+03201+02201999999ADDGA1041+009001999GF104991999999999999999999MA1101491999999REMMET051METAR SBLP 301500Z 09004KT 9999 SCT030 32/22 Q1015;
0120832880999992010033016004-13267-043417FM-15+0443SBLP V0202101N003112200019N0112651N1+03201+02201999999ADDGA1041+009001999GF104991999999999999999999MA1101291999999REMMET051METAR SBLP 301600Z 21006KT 9999 SCT030 32/22 Q1013;
0120832880999992010033017004-13267-043417FM-15+0443SBLP V0202101N003112200019N0112651N1+03301+02201999999ADDGA1041+009001999GF104991999999999999999999MA1101191999999REMMET051METAR SBLP 301700Z 21006KT 9999 SCT030 33/22 Q1012;
0120832880999992010033018004-13267-043417FM-15+0443SBLP V0209999C000012200019N0112651N1+03401+02101999999ADDGA1041+009001999GF104991999999999999999999MA1101081999999REMMET051METAR SBLP 301800Z 00000KT 9999 SCT030 34/21 Q1011;
0120832880999992010033019004-13267-043417FM-15+0443SBLP V0209999C000012200019N0112651N1+03501+02101999999ADDGA1041+009001999GF104991999999999999999999MA1101081999999REMMET051METAR SBLP 301900Z 00000KT 9999 SCT030 35/21 Q1011;
0120832880999992010033020004-13267-043417FM-15+0443SBLP V0201801N003112200019N0112651N1+03301+02201999999ADDGA1041+009001999GF104991999999999999999999MA1101081999999REMMET051METAR SBLP 302000Z 18006KT 9999 SCT030 33/22 Q1011;
0120832880999992010033021004-13267-043417FM-15+0443SBLP V0200901N003112200019N0112651N1+02901+02301999999ADDGA1041+009001999GF104991999999999999999999MA1101191999999REMMET051METAR SBLP 302100Z 09006KT 9999 SCT030 29/23 Q1012;
0072832880999992010033110004-13267-043417FM-15+0443SBLP V0209999C000019999999Y0099001N1+02401+02101999999ADDMA1101291999999REMMET045METAR SBLP 311000Z 00000KT CAVOK 24/21 Q1013;
0072832880999992010033111004-13267-043417FM-15+0443SBLP V0209999C000019999999Y0099001N1+02801+02001999999ADDMA1101391999999REMMET045METAR SBLP 311100Z 00000KT CAVOK 28/20 Q1014;
0072832880999992010033112004-13267-043417FM-15+0443SBLP V0209999C000019999999Y0099001N1+03001+02101999999ADDMA1101391999999REMMET045METAR SBLP 311200Z 00000KT CAVOK 30/21 Q1014;
0143832880999992010033113004-13267-043417FM-15+0443SBLP V0202401N003112200019N0112651N1+03001+02201999999ADDGA1021+009001999GA2041+030001999GF104991999999999999999999MA1101391999999REMMET058METAR SBLP 311300Z 24006KT 9999 FEW030 SCT100 30/22 Q1014;
0120832880999992010033114004-13267-043417FM-15+0443SBLP V0209999C000012200019N0112651N1+03101+02301999999ADDGA1021+009001999GF102991999999999999999999MA1101291999999REMMET051METAR SBLP 311400Z 00000KT 9999 FEW030 31/23 Q1013;
0120832880999992010033115004-13267-043417FM-15+0443SBLP V0202601N003112200019N0112651N1+03201+02201999999ADDGA1041+009001999GF104991999999999999999999MA1101191999999REMMET051METAR SBLP 311500Z 26006KT 9999 SCT030 32/22 Q1012;
0120832880999992010033116004-13267-043417FM-15+0443SBLP V0201801N003112200019N0112651N1+03301+02101999999ADDGA1041+009001999GF104991999999999999999999MA1101081999999REMMET051METAR SBLP 311600Z 18006KT 9999 SCT030 33/21 Q1011;
0120832880999992010033117004-13267-043417FM-15+0443SBLP V0201801N003112200019N0112651N1+03401+02101999999ADDGA1041+009001999GF104991999999999999999999MA1101021999999REMMET051METAR SBLP 311700Z 18006KT 9999 SCT030 34/21 Q1010;
0120832880999992010033118004-13267-043417FM-15+0443SBLP V0201801N003112200019N0112651N1+03501+02001999999ADDGA1041+009001999GF104991999999999999999999MA1100811999999REMMET051METAR SBLP 311800Z 18006KT 9999 SCT030 35/20 Q1008;
0120832880999992010033119004-13267-043417FM-15+0443SBLP V0201801N003112200019N0112651N1+03401+02001999999ADDGA1041+009001999GF104991999999999999999999MA1100811999999REMMET051METAR SBLP 311900Z 18006KT 9999 SCT030 34/20 Q1008;
0120832880999992010033120004-13267-043417FM-15+0443SBLP V0202701N003112200019N0112651N1+03301+02001999999ADDGA1041+009001999GF104991999999999999999999MA1100811999999REMMET051METAR SBLP 312000Z 27006KT 9999 SCT030 33/20 Q1008;
0120832880999992010033121004-13267-043417FM-15+0443SBLP V0202701N003112200019N0112651N1+03101+02001999999ADDGA1041+009001999GF104991999999999999999999MA1100811999999REMMET051METAR SBLP 312100Z 27006KT 9999 SCT030 31/20 Q1008;
0072832880999992010040110004-13267-043417FM-15+0443SBLP V0209999C000019999999Y0099001N1+02501+02101999999ADDMA1101191999999REMMET045METAR SBLP 011000Z 00000KT CAVOK 25/21 Q1012;
0072832880999992010040111004-13267-043417FM-15+0443SBLP V0209999C000019999999Y0099001N1+02601+02101999999ADDMA1101291999999REMMET045METAR SBLP 011100Z 00000KT CAVOK 26/21 Q1013;
0120832880999992010040112004-13267-043417FM-15+0443SBLP V0200901N003112200019N0112651N1+02801+02101999999ADDGA1021+009001999GF102991999999999999999999MA1101391999999REMMET051METAR SBLP 011200Z 09006KT 9999 FEW030 28/21 Q1014;
0120832880999992010040113004-13267-043417FM-15+0443SBLP V0200901N003112200019N0112651N1+03001+02101999999ADDGA1021+009001999GF102991999999999999999999MA1101391999999REMMET051METAR SBLP 011300Z 09006KT 9999 FEW030 30/21 Q1014;
0120832880999992010040114004-13267-043417FM-15+0443SBLP V0200901N003112200019N0112651N1+03001+02101999999ADDGA1041+009001999GF104991999999999999999999MA1101291999999REMMET051METAR SBLP 011400Z 09006KT 9999 SCT030 30/21 Q1013;
0120832880999992010040115004-13267-043417FM-15+0443SBLP V0200901N003112200019N0112651N1+03101+02101999999ADDGA1041+009001999GF104991999999999999999999MA1101191999999REMMET051METAR SBLP 011500Z 09006KT 9999 SCT030 31/21 Q1012;
0120832880999992010040116004-13267-043417FM-15+0443SBLP V0202401N004112200019N0112651N1+03401+02201999999ADDGA1041+009001999GF104991999999999999999999MA1101081999999REMMET051METAR SBLP 011600Z 24008KT 9999 SCT030 34/22 Q1011;
0120832880999992010040117004-13267-043417FM-15+0443SBLP V0203001N002112200019N0112651N1+03301+02201999999ADDGA1041+009001999GF104991999999999999999999MA1101021999999REMMET051METAR SBLP 011700Z 30004KT 9999 SCT030 33/22 Q1010;
0131832880999992010040118004-13267-043417FM-15+0443SBLP V0202101N004112200019N0080001N1+03501+02201999999ADDGA1041+009001999GF104991999999999999999999MA1100911999999MW1161REMMET056METAR SBLP 011800Z 21008KT 8000 VCSH SCT030 35/22 Q1009;
0147832880999992010040119004-13267-043417FM-15+0443SBLP V0200601N005112200019N0112651N1+02701+02201999999ADDGA1021+009001091GA2041+009001999MA1100911999999MW1171REMMET063METAR SBLP 011900Z 06010KT 9999 TS SCT030 FEW030CB 27/22 Q1009;EQDQ01+000022SCOTCV
0143832880999992010040120004-13267-043417FM-15+0443SBLP V0203601N004110300019N0112651N1+02601+02101999999ADDGA1021+009001999GA2071+030001999GF107991999999999999999999MA1101021999999REMMET058METAR SBLP 012000Z 36008KT 9999 FEW030 BKN100 26/21 Q1010;
0143832880999992010040121004-13267-043417FM-15+0443SBLP V0201601N002110300019N0112651N1+02601+02101999999ADDGA1021+009001999GA2071+030001999GF107991999999999999999999MA1100911999999REMMET058METAR SBLP 012100Z 16004KT 9999 FEW030 BKN100 26/21 Q1009;
0143832880999992010040210004-13267-043417FM-15+0443SBLP V0201801N003110300019N0112651N1+02301+02101999999ADDGA1041+003001999GA2071+030001999GF107991999999999999999999MA1101291999999REMMET058METAR SBLP 021000Z 18006KT 9999 SCT010 BKN100 23/21 Q1013;
0143832880999992010040211004-13267-043417FM-15+0443SBLP V0201801N003110300019N0112651N1+02401+02101999999ADDGA1041+003001999GA2071+030001999GF107991999999999999999999MA1101391999999REMMET058METAR SBLP 021100Z 18006KT 9999 SCT010 BKN100 24/21 Q1014;
0143832880999992010040212004-13267-043417FM-15+0443SBLP V0201801N003110300019N0112651N1+02501+02101999999ADDGA1041+003001999GA2071+030001999GF107991999999999999999999MA1101391999999REMMET058METAR SBLP 021200Z 18006KT 9999 SCT010 BKN100 25/21 Q1014;
0143832880999992010040213004-13267-043417FM-15+0443SBLP V0202701N003112200019N0112651N1+02701+02101999999ADDGA1041+004501999GA2041+030001999GF104991999999999999999999MA1101391999999REMMET058METAR SBLP 021300Z 27006KT 9999 SCT015 SCT100 27/21 Q1014;
0143832880999992010040214004-13267-043417FM-15+0443SBLP V0201801N003112200019N0112651N1+02901+02101999999ADDGA1041+006001999GA2041+030001999GF104991999999999999999999MA1101391999999REMMET058METAR SBLP 021400Z 18006KT 9999 SCT020 SCT100 29/21 Q1014;
0143832880999992010040215004-13267-043417FM-15+0443SBLP V0201801N003112200019N0112651N1+03001+02101999999ADDGA1021+006001999GA2041+030001999GF104991999999999999999999MA1101291999999REMMET058METAR SBLP 021500Z 18006KT 9999 FEW020 SCT100 30/21 Q1013;
0143832880999992010040216004-13267-043417FM-15+0443SBLP V0201801N003112200019N0112651N1+03201+02001999999ADDGA1041+006001999GA2041+030001999GF104991999999999999999999MA1101191999999REMMET058METAR SBLP 021600Z 18006KT 9999 SCT020 SCT100 32/20 Q1012;
0143832880999992010040217004-13267-043417FM-15+0443SBLP V0201801N003112200019N0112651N1+03201+02001999999ADDGA1041+009001999GA2041+030001999GF104991999999999999999999MA1101081999999REMMET058METAR SBLP 021700Z 18006KT 9999 SCT030 SCT100 32/20 Q1011;
0177832880999992010040218004-13267-043417FM-15+0443SBLP V0200901N006212200019N0112651N1+03301+02001999999ADDGA1041+009001999GA2021+012001091GA3041+030001999GF104991999999999999999999MA1101081999999MW1171REMMET070METAR SBLP 021800Z 09012KT 9999 TS SCT030 FEW040CB SCT100 33/20 Q1011;
0177832880999992010040219004-13267-043417FM-15+0443SBLP V0200901N003112200019N0112651N1+03001+02101999999ADDGA1041+009001999GA2021+012001091GA3041+030001999GF104991999999999999999999MA1101021999999MW1171REMMET070METAR SBLP 021900Z 09006KT 9999 TS SCT030 FEW040CB SCT100 30/21 Q1010;
0177832880999992010040220004-13267-043417FM-15+0443SBLP V0200901N003112200019N0112651N1+02901+02101999999ADDGA1041+009001999GA2021+012001091GA3041+030001999GF104991999999999999999999MA1101021999999MW1171REMMET070METAR SBLP 022000Z 09006KT 9999 TS SCT030 FEW040CB SCT100 29/21 Q1010;
0143832880999992010040221004-13267-043417FM-15+0443SBLP V0200901N003110300019N0112651N1+02701+02101999999ADDGA1041+009001999GA2071+030001999GF107991999999999999999999MA1101081999999REMMET058METAR SBLP 022100Z 09006KT 9999 SCT030 BKN100 27/21 Q1011;
0072832880999992010040310004-13267-043417FM-15+0443SBLP V0201201N001519999999Y0099001N1+02401+02301999999ADDMA1101391999999REMMET045METAR SBLP 031000Z 12003KT CAVOK 24/23 Q1014;
0143832880999992010040311004-13267-043417FM-15+0443SBLP V0209999C000012200019N0112651N1+02601+02301999999ADDGA1021+006901999GA2041+030001999GF104991999999999999999999MA1101491999999REMMET058METAR SBLP 031100Z 00000KT 9999 FEW023 SCT100 26/23 Q1015;
0143832880999992010040312004-13267-043417FM-15+0443SBLP V0209999C000012200019N0112651N1+02801+02301999999ADDGA1021+008101999GA2041+030001999GF104991999999999999999999MA1101591999999REMMET058METAR SBLP 031200Z 00000KT 9999 FEW027 SCT100 28/23 Q1016;
0120832880999992010040313004-13267-043417FM-15+0443SBLP V0209999C000010090019N0112651N1+02901+02301999999ADDGA1071+009001999GF107991999999999999999999MA1101591999999REMMET051METAR SBLP 031300Z 00000KT 9999 BKN030 29/23 Q1016;
0120832880999992010040314004-13267-043417FM-15+0443SBLP V0201201N002110081019N0112651N1+03001+02301999999ADDGA1071+008101999GF107991999999999999999999MA1101491999999REMMET051METAR SBLP 031400Z 12004KT 9999 BKN027 30/23 Q1015;
0120832880999992010040315004-13267-043417FM-15+0443SBLP V0201201N001510081019N0112651N1+03001+02301999999ADDGA1071+008101999GF107991999999999999999999MA1101391999999REMMET051METAR SBLP 031500Z 12003KT 9999 BKN027 30/23 Q1014;
0120832880999992010040316004-13267-043417FM-15+0443SBLP V0201801N003110081019N0112651N1+03101+02401999999ADDGA1071+008101999GF107991999999999999999999MA1101291999999REMMET051METAR SBLP 031600Z 18006KT 9999 BKN027 31/24 Q1013;
0120832880999992010040317004-13267-043417FM-15+0443SBLP V0201801N003112200019N0112651N1+03301+02401999999ADDGA1041+008101999GF104991999999999999999999MA1101081999999REMMET051METAR SBLP 031700Z 18006KT 9999 SCT027 33/24 Q1011;
0153832880999992010040318004-13267-043417FM-15+0443SBLP V0200901N003110300019N0112651N1+02601+02501999999ADDGA1041+008101999GA2071+030001999GF107991999999999999999999MA1101081999999MW1611REMMET062METAR SBLP 031800Z 09006KT 9999 -RA SCT027 BKN100 26/25 Q1011;
0143832880999992010040319004-13267-043417FM-15+0443SBLP V0209999C000012200019N0112651N1+02901+02401999999ADDGA1021+009001999GA2041+030001999GF104991999999999999999999MA1101021999999REMMET058METAR SBLP 031900Z 00000KT 9999 FEW030 SCT100 29/24 Q1010;
0143832880999992010040320004-13267-043417FM-15+0443SBLP V0209999C000010300019N0112651N1+02801+02401999999ADDGA1021+009001999GA2071+030001999GF107991999999999999999999MA1101081999999REMMET058METAR SBLP 032000Z 00000KT 9999 FEW030 BKN100 28/24 Q1011;
0143832880999992010040321004-13267-043417FM-15+0443SBLP V0209999C000010300019N0112651N1+02701+02501999999ADDGA1041+009001999GA2071+030001999GF107991999999999999999999MA1101191999999REMMET058METAR SBLP 032100Z 00000KT 9999 SCT030 BKN100 27/25 Q1012;
0143832880999992010040410004-13267-043417FM-15+0443SBLP V0209999C000012200019N0112651N1+02301+02201999999ADDGA1021+006001999GA2041+030001999GF104991999999999999999999MA1101591999999REMMET058METAR SBLP 041000Z 00000KT 9999 FEW020 SCT100 23/22 Q1016;
0143832880999992010040411004-13267-043417FM-15+0443SBLP V0201201N001512200019N0112651N1+02501+02301999999ADDGA1021+006901999GA2041+030001999GF104991999999999999999999MA1101591999999REMMET058METAR SBLP 041100Z 12003KT 9999 FEW023 SCT100 25/23 Q1016;
0136832880999992010040412004-13267-043417FM-15+0443SBLP V0209999C00001006901CN0112651N1+02801+02501999999ADDGA1071+006901999GA2041+030001999MA1101691999999REMMET058METAR SBLP 041200Z 00000KT 9999 BKN023 SCT100 28/25 Q1017;EQDQ01+000042SCOTCV
0143832880999992010040413004-13267-043417FM-15+0443SBLP V0201201N001512200019N0112651N1+02801+02201999999ADDGA1041+006901999GA2041+030001999GF104991999999999999999999MA1101691999999REMMET058METAR SBLP 041300Z 12003KT 9999 SCT023 SCT100 28/22 Q1017;
0143832880999992010040414004-13267-043417FM-15+0443SBLP V0202101N002612200019N0112651N1+02901+02301999999ADDGA1041+006901999GA2041+030001999GF104991999999999999999999MA1101591999999REMMET058METAR SBLP 041400Z 21005KT 9999 SCT023 SCT100 29/23 Q1016;
0143832880999992010040415004-13267-043417FM-15+0443SBLP V0209999C000012200019N0112651N1+03001+02201999999ADDGA1041+008101999GA2041+030001999GF104991999999999999999999MA1101491999999REMMET058METAR SBLP 041500Z 00000KT 9999 SCT027 SCT100 30/22 Q1015;
0143832880999992010040416004-13267-043417FM-15+0443SBLP V0209999C000010300019N0112651N1+03101+02301999999ADDGA1041+009001999GA2071+030001999GF107991999999999999999999MA1101391999999REMMET058METAR SBLP 041600Z 00000KT 9999 SCT030 BKN100 31/23 Q1014;
0143832880999992010040417004-13267-043417FM-15+0443SBLP V0209999C000010300019N0112651N1+03201+02301999999ADDGA1041+009001999GA2071+030001999GF107991999999999999999999MA1101291999999REMMET058METAR SBLP 041700Z 00000KT 9999 SCT030 BKN100 32/23 Q1013;
0143832880999992010040418004-13267-043417FM-15+0443SBLP V0200901N003112200019N0112651N1+03301+02201999999ADDGA1021+009001999GA2041+030001999GF104991999999999999999999MA1101191999999REMMET058METAR SBLP 041800Z 09006KT 9999 FEW030 SCT100 33/22 Q1012;
0143832880999992010040419004-13267-043417FM-15+0443SBLP V0201801N003112200019N0112651N1+03201+02301999999ADDGA1021+009001999GA2041+030001999GF104991999999999999999999MA1101081999999REMMET058METAR SBLP 041900Z 18006KT 9999 FEW030 SCT100 32/23 Q1011;
0143832880999992010040420004-13267-043417FM-15+0443SBLP V0209999C000012200019N0112651N1+03201+02301999999ADDGA1021+009001999GA2041+030001999GF104991999999999999999999MA1101081999999REMMET058METAR SBLP 042000Z 00000KT 9999 FEW030 SCT100 32/23 Q1011;
0143832880999992010040421004-13267-043417FM-15+0443SBLP V0200901N003112200019N0112651N1+02901+02501999999ADDGA1021+009001999GA2041+030001999GF104991999999999999999999MA1101191999999REMMET058METAR SBLP 042100Z 09006KT 9999 FEW030 SCT100 29/25 Q1012;
0143832880999992010040510004-13267-043417FM-15+0443SBLP V0209999C000012200019N0112651N1+02301+02101999999ADDGA1021+006001999GA2041+030001999GF104991999999999999999999MA1101391999999REMMET058METAR SBLP 051000Z 00000KT 9999 FEW020 SCT100 23/21 Q1014;
0143832880999992010040511004-13267-043417FM-15+0443SBLP V0202001N002112200019N0112651N1+02501+02201999999ADDGA1021+006001999GA2041+030001999GF104991999999999999999999MA1101491999999REMMET058METAR SBLP 051100Z 20004KT 9999 FEW020 SCT100 25/22 Q1015;
0143832880999992010040512004-13267-043417FM-15+0443SBLP V0209999C000012200019N0112651N1+02801+02201999999ADDGA1021+009001999GA2041+030001999GF104991999999999999999999MA1101491999999REMMET058METAR SBLP 051200Z 00000KT 9999 FEW030 SCT100 28/22 Q1015;
0143832880999992010040513004-13267-043417FM-15+0443SBLP V0209999C000012200019N0112651N1+02901+02201999999ADDGA1021+009001999GA2041+030001999GF104991999999999999999999MA1101491999999REMMET058METAR SBLP 051300Z 00000KT 9999 FEW030 SCT100 29/22 Q1015;
0143832880999992010040514004-13267-043417FM-15+0443SBLP V0200301N003112200019N0112651N1+03101+02301999999ADDGA1041+009001999GA2041+030001999GF104991999999999999999999MA1101391999999REMMET058METAR SBLP 051400Z 03006KT 9999 SCT030 SCT100 31/23 Q1014;
0143832880999992010040515004-13267-043417FM-15+0443SBLP V0209999C000012200019N0112651N1+03201+02301999999ADDGA1021+009001999GA2041+030001999GF104991999999999999999999MA1101291999999REMMET058METAR SBLP 051500Z 00000KT 9999 FEW030 SCT100 32/23 Q1013;
0120832880999992010040516004-13267-043417FM-15+0443SBLP V0202401N003112200019N0112651N1+03301+02201999999ADDGA1041+009001999GF104991999999999999999999MA1101191999999REMMET051METAR SBLP 051600Z 24006KT 9999 SCT030 33/22 Q1012;
0154832880999992010040517004-13267-043417FM-15+0443SBLP V0202101N001512200019N0080001N1+03201+02201999999ADDGA1041+009001999GA2041+030001999GF104991999999999999999999MA1101081999999MW1161REMMET063METAR SBLP 051700Z 21003KT 8000 VCSH SCT030 SCT100 32/22 Q1011;
0169832880999992010040518004-13267-043417FM-15+0443SBLP V0202701N005110300019N0112651N1+03001+02501999999ADDGA1041+009001999GA2021+009001021GA3071+030001999GF107991999999999999999999MA1101081999999REMMET068METAR SBLP 051800Z 27010KT 9999 SCT030 FEW030TCU BKN100 30/25 Q1011;
0120832880999992010040519004-13267-043417FM-15+0443SBLP V0200301N001512200019N0112651N1+02901+02401999999ADDGA1021+009001999GF102991999999999999999999MA1101081999999REMMET051METAR SBLP 051900Z 03003KT 9999 FEW030 29/24 Q1011;
0120832880999992010040520004-13267-043417FM-15+0443SBLP V0209999C000012200019N0112651N1+02801+02401999999ADDGA1021+009001999GF102991999999999999999999MA1101081999999REMMET051METAR SBLP 052000Z 00000KT 9999 FEW030 28/24 Q1011;
0143832880999992010040521004-13267-043417FM-15+0443SBLP V0201501N002110300019N0112651N1+02701+02401999999ADDGA1021+009001999GA2071+030001999GF107991999999999999999999MA1101191999999REMMET058METAR SBLP 052100Z 15004KT 9999 FEW030 BKN100 27/24 Q1012;
0072832880999992010040610004-13267-043417FM-15+0443SBLP V0209999C000019999999Y0099001N1+02401+02301999999ADDMA1101191999999REMMET045METAR SBLP 061000Z 00000KT CAVOK 24/23 Q1012;
0143832880999992010040611004-13267-043417FM-15+0443SBLP V0202301N002110300019N0112651N1+02501+02301999999ADDGA1041+006001999GA2071+030001999GF107991999999999999999999MA1101291999999REMMET058METAR SBLP 061100Z 23004KT 9999 SCT020 BKN100 25/23 Q1013;
0143832880999992010040612004-13267-043417FM-15+0443SBLP V0209999C000010300019N0112651N1+02601+02301999999ADDGA1021+006001999GA2071+030001999GF107991999999999999999999MA1101291999999REMMET058METAR SBLP 061200Z 00000KT 9999 FEW020 BKN100 26/23 Q1013;
0120832880999992010040613004-13267-043417FM-15+0443SBLP V0209999C000012200019N0112651N1+03001+02301999999ADDGA1021+009001999GF102991999999999999999999MA1101291999999REMMET051METAR SBLP 061300Z 00000KT 9999 FEW030 30/23 Q1013;
0120832880999992010040614004-13267-043417FM-15+0443SBLP V0203301N001512200019N0112651N1+03101+02301999999ADDGA1021+009001999GF102991999999999999999999MA1101191999999REMMET051METAR SBLP 061400Z 33003KT 9999 FEW030 31/23 Q1012;
0120832880999992010040615004-13267-043417FM-15+0443SBLP V0203201N003112200019N0112651N1+03201+02301999999ADDGA1041+009001999GF104991999999999999999999MA1101081999999REMMET051METAR SBLP 061500Z 32006KT 9999 SCT030 32/23 Q1011;
0120832880999992010040616004-13267-043417FM-15+0443SBLP V0203601N003112200019N0112651N1+03301+02201999999ADDGA1041+009001999GF104991999999999999999999MA1100911999999REMMET051METAR SBLP 061600Z 36006KT 9999 SCT030 33/22 Q1009;
0120832880999992010040617004-13267-043417FM-15+0443SBLP V0203601N003112200019N0112651N1+03501+02001999999ADDGA1041+009001999GF104991999999999999999999MA1100811999999REMMET051METAR SBLP 061700Z 36006KT 9999 SCT030 35/20 Q1008;
0120832880999992010040618004-13267-043417FM-15+0443SBLP V0203601N003112200019N0112651N1+03501+02001999999ADDGA1041+009001999GF104991999999999999999999MA1100811999999REMMET051METAR SBLP 061800Z 36006KT 9999 SCT030 35/20 Q1008;
0128832880999992010040620004-13267-043417FM-15+0443SBLP V0203601N003112200019N0112651N1+03101+02101999999ADDGA1041+009001999GA2021+012001091MA1100811999999MW1171REMMET063METAR SBLP 062000Z 36006KT 9999 TS SCT030 FEW040CB 31/21 Q1008;
0143832880999992010040621004-13267-043417FM-15+0443SBLP V0203601N003112200019N0112651N1+02901+02101999999ADDGA1041+009001999GA2041+030001999GF104991999999999999999999MA1100811999999REMMET058METAR SBLP 062100Z 36006KT 9999 SCT030 SCT100 29/21 Q1008;
0143832880999992010040710004-13267-043417FM-15+0443SBLP V0209999C000010300019N0112651N1+02401+02101999999ADDGA1041+004501999GA2071+030001999GF107991999999999999999999MA1101081999999REMMET058METAR SBLP 071000Z 00000KT 9999 SCT015 BKN100 24/21 Q1011;
0143832880999992010040711004-13267-043417FM-15+0443SBLP V0209999C000010300019N0112651N1+02601+02101999999ADDGA1021+006001999GA2071+030001999GF107991999999999999999999MA1101081999999REMMET058METAR SBLP 071100Z 00000KT 9999 FEW020 BKN100 26/21 Q1011;
0143832880999992010040712004-13267-043417FM-15+0443SBLP V0209999C000010300019N0112651N1+02801+02101999999ADDGA1021+006001999GA2071+030001999GF107991999999999999999999MA1101191999999REMMET058METAR SBLP 071200Z 00000KT 9999 FEW020 BKN100 28/21 Q1012;
0143832880999992010040713004-13267-043417FM-15+0443SBLP V0209999C000012200019N0112651N1+02901+02101999999ADDGA1021+006001999GA2041+030001999GF104991999999999999999999MA1101191999999REMMET058METAR SBLP 071300Z 00000KT 9999 FEW020 SCT100 29/21 Q1012;
0143832880999992010040714004-13267-043417FM-15+0443SBLP V0209999C000012200019N0112651N1+03001+02101999999ADDGA1041+006001999GA2041+030001999GF104991999999999999999999MA1101191999999REMMET058METAR SBLP 071400Z 00000KT 9999 SCT020 SCT100 30/21 Q1012;
0120832880999992010040715004-13267-043417FM-15+0443SBLP V0202701N003112200019N0112651N1+03001+02101999999ADDGA1041+009001999GF104991999999999999999999MA1101081999999REMMET051METAR SBLP 071500Z 27006KT 9999 SCT030 30/21 Q1011;
0120832880999992010040716004-13267-043417FM-15+0443SBLP V0203001N001512200019N0112651N1+03201+02201999999ADDGA1041+009001999GF104991999999999999999999MA1100911999999REMMET051METAR SBLP 071600Z 30003KT 9999 SCT030 32/22 Q1009;
0136832880999992010040717004-13267-043417FM-15+0443SBLP V0201801N00311009001CN0112651N1+03201+02301999999ADDGA1071+009001999GA2041+030001999MA1100811999999REMMET058METAR SBLP 071700Z 18006KT 9999 BKN030 SCT100 32/23 Q1008;EQDQ01+000042SCOTCV
0143832880999992010040718004-13267-043417FM-15+0443SBLP V0209999C000012200019N0112651N1+03201+02301999999ADDGA1041+009001999GA2041+030001999GF104991999999999999999999MA1100711999999REMMET058METAR SBLP 071800Z 00000KT 9999 SCT030 SCT100 32/23 Q1007;
0143832880999992010040719004-13267-043417FM-15+0443SBLP V0202001N002112200019N0112651N1+03301+02101999999ADDGA1041+009001999GA2041+030001999GF104991999999999999999999MA1100711999999REMMET058METAR SBLP 071900Z 20004KT 9999 SCT030 SCT100 33/21 Q1007;
0120832880999992010040720004-13267-043417FM-15+0443SBLP V0200301N003112200019N0112651N1+03201+02201999999ADDGA1041+009001999GF104991999999999999999999MA1100811999999REMMET051METAR SBLP 072000Z 03006KT 9999 SCT030 32/22 Q1008;
0143832880999992010040721004-13267-043417FM-15+0443SBLP V0203501N003112200019N0112651N1+03201+02601999999ADDGA1041+008101999GA2041+030001999GF104991999999999999999999MA1100811999999REMMET058METAR SBLP 072100Z 35006KT 9999 SCT027 SCT100 32/26 Q1008;
0143832880999992010040810004-13267-043417FM-15+0443SBLP V0209999C000010300019N0112651N1+02301+02201999999ADDGA1041+006901999GA2071+030001999GF107991999999999999999999MA1101191999999REMMET058METAR SBLP 081000Z 00000KT 9999 SCT023 BKN100 23/22 Q1012;
0143832880999992010040811004-13267-043417FM-15+0443SBLP V0202101N001010300019N0112651N1+02501+02301999999ADDGA1041+006901999GA2071+030001999GF107991999999999999999999MA1101391999999REMMET058METAR SBLP 081100Z 21002KT 9999 SCT023 BKN100 25/23 Q1014;
0143832880999992010040812004-13267-043417FM-15+0443SBLP V0202701N002110300019N0112651N1+02501+02301999999ADDGA1041+006901999GA2071+030001999GF107991999999999999999999MA1101491999999REMMET058METAR SBLP 081200Z 27004KT 9999 SCT023 BKN100 25/23 Q1015;
0143832880999992010040813004-13267-043417FM-15+0443SBLP V0209999C000010300019N0112651N1+02701+02001999999ADDGA1021+008101999GA2071+030001999GF107991999999999999999999MA1101491999999REMMET058METAR SBLP 081300Z 00000KT 9999 FEW027 BKN100 27/20 Q1015;
0143832880999992010040814004-13267-043417FM-15+0443SBLP V0201501N002610300019N0112651N1+02801+01801999999ADDGA1021+008101999GA2071+030001999GF107991999999999999999999MA1101391999999REMMET058METAR SBLP 081400Z 15005KT 9999 FEW027 BKN100 28/18 Q1014;
0143832880999992010040815004-13267-043417FM-15+0443SBLP V0202101N004110300019N0112651N1+02801+01801999999ADDGA1021+009001999GA2071+030001999GF107991999999999999999999MA1101291999999REMMET058METAR SBLP 081500Z 21008KT 9999 FEW030 BKN100 28/18 Q1013;
0143832880999992010040816004-13267-043417FM-15+0443SBLP V0201801N003110300019N0112651N1+02901+01901999999ADDGA1021+009001999GA2071+030001999GF107991999999999999999999MA1101191999999REMMET058METAR SBLP 081600Z 18006KT 9999 FEW030 BKN100 29/19 Q1012;
0143832880999992010040817004-13267-043417FM-15+0443SBLP V0202101N003110300019N0112651N1+03001+01901999999ADDGA1021+009001999GA2071+030001999GF107991999999999999999999MA1101081999999REMMET058METAR SBLP 081700Z 21006KT 9999 FEW030 BKN100 30/19 Q1011;
0143832880999992010040818004-13267-043417FM-15+0443SBLP V0202101N003110300019N0112651N1+03001+01901999999ADDGA1021+009001999GA2071+030001999GF107991999999999999999999MA1101081999999REMMET058METAR SBLP 081800Z 21006KT 9999 FEW030 BKN100 30/19 Q1011;
0143832880999992010040819004-13267-043417FM-15+0443SBLP V0201801N003110300019N0112651N1+03001+01901999999ADDGA1021+009001999GA2071+030001999GF107991999999999999999999MA1101081999999REMMET058METAR SBLP 081900Z 18006KT 9999 FEW030 BKN100 30/19 Q1011;
0143832880999992010040820004-13267-043417FM-15+0443SBLP V0201801N003110300019N0112651N1+03001+01901999999ADDGA1021+009001999GA2071+030001999GF107991999999999999999999MA1101081999999REMMET058METAR SBLP 082000Z 18006KT 9999 FEW030 BKN100 30/19 Q1011;
0143832880999992010040821004-13267-043417FM-15+0443SBLP V0209999C000010300019N0112651N1+02701+02101999999ADDGA1021+009001999GA2071+030001999GF107991999999999999999999MA1101081999999REMMET058METAR SBLP 082100Z 00000KT 9999 FEW030 BKN100 27/21 Q1011;
0072832880999992010040910004-13267-043417FM-15+0443SBLP V0209999C000019999999Y0099001N1+02001+02001999999ADDMA1101391999999REMMET045METAR SBLP 091000Z 00000KT CAVOK 20/20 Q1014;
0072832880999992010040911004-13267-043417FM-15+0443SBLP V0201801N003119999999Y0099001N1+02201+02101999999ADDMA1101491999999REMMET045METAR SBLP 091100Z 18006KT CAVOK 22/21 Q1015;
0072832880999992010040912004-13267-043417FM-15+0443SBLP V0201801N003119999999Y0099001N1+02501+02101999999ADDMA1101591999999REMMET045METAR SBLP 091200Z 18006KT CAVOK 25/21 Q1016;
0072832880999992010040913004-13267-043417FM-15+0443SBLP V0209999C000019999999Y0099001N1+02701+02101999999ADDMA1101591999999REMMET045METAR SBLP 091300Z 00000KT CAVOK 27/21 Q1016;
0120832880999992010040914004-13267-043417FM-15+0443SBLP V0201801N003112200019N0112651N1+02901+02001999999ADDGA1021+009001999GF102991999999999999999999MA1101591999999REMMET051METAR SBLP 091400Z 18006KT 9999 FEW030 29/20 Q1016;
0120832880999992010040915004-13267-043417FM-15+0443SBLP V0209999C000012200019N0112651N1+03001+02001999999ADDGA1041+009001999GF104991999999999999999999MA1101491999999REMMET051METAR SBLP 091500Z 00000KT 9999 SCT030 30/20 Q1015;
0120832880999992010040916004-13267-043417FM-15+0443SBLP V0202401N003112200019N0112651N1+03101+02101999999ADDGA1041+009001999GF104991999999999999999999MA1101391999999REMMET051METAR SBLP 091600Z 24006KT 9999 SCT030 31/21 Q1014;
0120832880999992010040917004-13267-043417FM-15+0443SBLP V0201801N003112200019N0112651N1+03201+02001999999ADDGA1041+009001999GF104991999999999999999999MA1101291999999REMMET051METAR SBLP 091700Z 18006KT 9999 SCT030 32/20 Q1013;
0120832880999992010040918004-13267-043417FM-15+0443SBLP V0201801N003112200019N0112651N1+03201+02001999999ADDGA1041+009001999GF104991999999999999999999MA1101291999999REMMET051METAR SBLP 091800Z 18006KT 9999 SCT030 32/20 Q1013;
0120832880999992010040919004-13267-043417FM-15+0443SBLP V0202101N003112200019N0112651N1+03101+01901999999ADDGA1021+009001999GF102991999999999999999999MA1101291999999REMMET051METAR SBLP 091900Z 21006KT 9999 FEW030 31/19 Q1013;
0120832880999992010040920004-13267-043417FM-15+0443SBLP V0201801N002112200019N0112651N1+03101+02101999999ADDGA1021+009001999GF102991999999999999999999MA1101291999999REMMET051METAR SBLP 092000Z 18004KT 9999 FEW030 31/21 Q1013;
0120832880999992010040921004-13267-043417FM-15+0443SBLP V0202101N003112200019N0112651N1+02801+02101999999ADDGA1021+009001999GF102991999999999999999999MA1101291999999REMMET051METAR SBLP 092100Z 21006KT 9999 FEW030 28/21 Q1013;
0072832880999992010041010004-13267-043417FM-15+0443SBLP V0209999C000019999999Y0099001N1+02101+02001999999ADDMA1101591999999REMMET045METAR SBLP 101000Z 00000KT CAVOK 21/20 Q1016;
0072832880999992010041011004-13267-043417FM-15+0443SBLP V0201301N003119999999Y0099001N1+02301+02001999999ADDMA1101691999999REMMET045METAR SBLP 101100Z 13006KT CAVOK 23/20 Q1017;
0072832880999992010041012004-13267-043417FM-15+0443SBLP V0201201N002119999999Y0099001N1+02601+02001999999ADDMA1101691999999REMMET045METAR SBLP 101200Z 12004KT CAVOK 26/20 Q1017;
0072832880999992010041013004-13267-043417FM-15+0443SBLP V0200901N002119999999Y0099001N1+02701+02001999999ADDMA1101801999999REMMET045METAR SBLP 101300Z 09004KT CAVOK 27/20 Q1018;
0143832880999992010041014004-13267-043417FM-15+0443SBLP V0209999C000010300019N0112651N1+02801+02001999999ADDGA1041+009001999GA2071+030001999GF107991999999999999999999MA1101691999999REMMET058METAR SBLP 101400Z 00000KT 9999 SCT030 BKN100 28/20 Q1017;
0143832880999992010041015004-13267-043417FM-15+0443SBLP V0209999C000010090019N0112651N1+02801+02001999999ADDGA1071+009001999GA2071+030001999GF107991999999999999999999MA1101591999999REMMET058METAR SBLP 101500Z 00000KT 9999 BKN030 BKN100 28/20 Q1016;
0143832880999992010041016004-13267-043417FM-15+0443SBLP V0201201N001510081019N0112651N1+02801+02001999999ADDGA1071+008101999GA2071+030001999GF107991999999999999999999MA1101491999999REMMET058METAR SBLP 101600Z 12003KT 9999 BKN027 BKN100 28/20 Q1015;
0143832880999992010041017004-13267-043417FM-15+0443SBLP V0200401N001510081019N0112651N1+02901+01901999999ADDGA1071+008101999GA2071+030001999GF107991999999999999999999MA1101491999999REMMET058METAR SBLP 101700Z 04003KT 9999 BKN027 BKN100 29/19 Q1015;
0143832880999992010041018004-13267-043417FM-15+0443SBLP V0201501N001510300019N0112651N1+02901+01901999999ADDGA1041+009001999GA2071+030001999GF107991999999999999999999MA1101391999999REMMET058METAR SBLP 101800Z 15003KT 9999 SCT030 BKN100 29/19 Q1014;
0143832880999992010041019004-13267-043417FM-15+0443SBLP V0209999C000012200019N0112651N1+03001+02001999999ADDGA1021+009001999GA2041+030001999GF104991999999999999999999MA1101291999999REMMET058METAR SBLP 101900Z 00000KT 9999 FEW030 SCT100 30/20 Q1013;
0120832880999992010041020004-13267-043417FM-15+0443SBLP V0200901N001512200019N0112651N1+02901+02001999999ADDGA1021+009001999GF102991999999999999999999MA1101391999999REMMET051METAR SBLP 102000Z 09003KT 9999 FEW030 29/20 Q1014;
0120832880999992010041021004-13267-043417FM-15+0443SBLP V0200901N001012200019N0112651N1+02701+02101999999ADDGA1041+009001999GF104991999999999999999999MA1101391999999REMMET051METAR SBLP 102100Z 09002KT 9999 SCT030 27/21 Q1014;
0072832880999992010041110004-13267-043417FM-15+0443SBLP V0202001N001519999999Y0099001N1+02001+01801999999ADDMA1101491999999REMMET045METAR SBLP 111000Z 20003KT CAVOK 20/18 Q1015;
0072832880999992010041111004-13267-043417FM-15+0443SBLP V0201901N003119999999Y0099001N1+02301+01901999999ADDMA1101591999999REMMET045METAR SBLP 111100Z 19006KT CAVOK 23/19 Q1016;
0072832880999992010041112004-13267-043417FM-15+0443SBLP V0201301N002119999999Y0099001N1+02501+01801999999ADDMA1101591999999REMMET045METAR SBLP 111200Z 13004KT CAVOK 25/18 Q1016;
0072832880999992010041113004-13267-043417FM-15+0443SBLP V0209999C000019999999Y0099001N1+02701+01901999999ADDMA1101591999999REMMET045METAR SBLP 111300Z 00000KT CAVOK 27/19 Q1016;
0120832880999992010041114004-13267-043417FM-15+0443SBLP V0201501N002112200019N0112651N1+02901+01901999999ADDGA1021+009001999GF102991999999999999999999MA1101491999999REMMET051METAR SBLP 111400Z 15004KT 9999 FEW030 29/19 Q1015;
0120832880999992010041115004-13267-043417FM-15+0443SBLP V0202101N004112200019N0112651N1+03001+01801999999ADDGA1041+009001999GF104991999999999999999999MA1101491999999REMMET051METAR SBLP 111500Z 21008KT 9999 SCT030 30/18 Q1015;
0120832880999992010041119004-13267-043417FM-15+0443SBLP V0201801N002612200019N0112651N1+03101+01701999999ADDGA1021+009001999GF102991999999999999999999MA1101191999999REMMET051METAR SBLP 111900Z 18005KT 9999 FEW030 31/17 Q1012;
0120832880999992010041120004-13267-043417FM-15+0443SBLP V0202001N002112200019N0112651N1+03001+01501999999ADDGA1021+009001999GF102991999999999999999999MA1101191999999REMMET051METAR SBLP 112000Z 20004KT 9999 FEW030 30/15 Q1012;
0120832880999992010041121004-13267-043417FM-15+0443SBLP V0201801N001012200019N0112651N1+02801+01901999999ADDGA1021+009001999GF102991999999999999999999MA1101191999999REMMET051METAR SBLP 112100Z 18002KT 9999 FEW030 28/19 Q1012;
0072832880999992010041210004-13267-043417FM-15+0443SBLP V0209999C000019999999Y0099001N1+02501+02101999999ADDMA1101491999999REMMET045METAR SBLP 121000Z 00000KT CAVOK 25/21 Q1015;
0072832880999992010041211004-13267-043417FM-15+0443SBLP V0209999C000019999999Y0099001N1+02701+02001999999ADDMA1101591999999REMMET045METAR SBLP 121100Z 00000KT CAVOK 27/20 Q1016;
0072832880999992010041212004-13267-043417FM-15+0443SBLP V0201801N003119999999Y0099001N1+02801+02001999999ADDMA1101591999999REMMET045METAR SBLP 121200Z 18006KT CAVOK 28/20 Q1016;
0072832880999992010041213004-13267-043417FM-15+0443SBLP V0201801N003119999999Y0099001N1+02801+02001999999ADDMA1101691999999REMMET045METAR SBLP 121300Z 18006KT CAVOK 28/20 Q1017;
0072832880999992010041214004-13267-043417FM-15+0443SBLP V0201801N003119999999Y0099001N1+02901+01901999999ADDMA1101591999999REMMET045METAR SBLP 121400Z 18006KT CAVOK 29/19 Q1016;
0120832880999992010041215004-13267-043417FM-15+0443SBLP V0201801N003112200019N0112651N1+02901+01901999999ADDGA1021+009001999GF102991999999999999999999MA1101491999999REMMET051METAR SBLP 121500Z 18006KT 9999 FEW030 29/19 Q1015;
0120832880999992010041216004-13267-043417FM-15+0443SBLP V0201801N003112200019N0112651N1+03001+01801999999ADDGA1021+009001999GF102991999999999999999999MA1101391999999REMMET051METAR SBLP 121600Z 18006KT 9999 FEW030 30/18 Q1014;
0120832880999992010041217004-13267-043417FM-15+0443SBLP V0201801N003112200019N0112651N1+03001+01801999999ADDGA1021+009001999GF102991999999999999999999MA1101391999999REMMET051METAR SBLP 121700Z 18006KT 9999 FEW030 30/18 Q1014;
0120832880999992010041218004-13267-043417FM-15+0443SBLP V0201801N002612200019N0112651N1+03101+01701999999ADDGA1021+009001999GF102991999999999999999999MA1101291999999REMMET051METAR SBLP 121800Z 18005KT 9999 FEW030 31/17 Q1013;
0120832880999992010041219004-13267-043417FM-15+0443SBLP V0201801N002612200019N0112651N1+03101+01701999999ADDGA1021+009001999GF102991999999999999999999MA1101291999999REMMET051METAR SBLP 121900Z 18005KT 9999 FEW030 31/17 Q1013;
0072832880999992010041220004-13267-043417FM-15+0443SBLP V0201801N002619999999Y0099001N1+03001+01701999999ADDMA1101291999999REMMET045METAR SBLP 122000Z 18005KT CAVOK 30/17 Q1013;
0072832880999992010041221004-13267-043417FM-15+0443SBLP V0201801N002119999999Y0099001N1+02801+01701999999ADDMA1101291999999REMMET045METAR SBLP 122100Z 18004KT CAVOK 28/17 Q1013;
0072832880999992010041310004-13267-043417FM-15+0443SBLP V0201801N002119999999Y0099001N1+02101+01701999999ADDMA1101691999999REMMET045METAR SBLP 131000Z 18004KT CAVOK 21/17 Q1017;
0072832880999992010041311004-13267-043417FM-15+0443SBLP V0201501N003119999999Y0099001N1+02401+01801999999ADDMA1101801999999REMMET045METAR SBLP 131100Z 15006KT CAVOK 24/18 Q1018;
0072832880999992010041312004-13267-043417FM-15+0443SBLP V0201801N002619999999Y0099001N1+02601+01801999999ADDMA1101801999999REMMET045METAR SBLP 131200Z 18005KT CAVOK 26/18 Q1018;
0072832880999992010041313004-13267-043417FM-15+0443SBLP V0201101N003119999999Y0099001N1+02801+01801999999ADDMA1101801999999REMMET045METAR SBLP 131300Z 11006KT CAVOK 28/18 Q1018;
0072832880999992010041314004-13267-043417FM-15+0443SBLP V0201501N004119999999Y0099001N1+03001+01801999999ADDMA1101801999999REMMET045METAR SBLP 131400Z 15008KT CAVOK 30/18 Q1018;
0120832880999992010041315004-13267-043417FM-15+0443SBLP V0201201N002112200019N0112651N1+03101+01901999999ADDGA1021+009001999GF102991999999999999999999MA1101691999999REMMET051METAR SBLP 131500Z 12004KT 9999 FEW030 31/19 Q1017;
0120832880999992010041316004-13267-043417FM-15+0443SBLP V0209999C000012200019N0112651N1+03101+01901999999ADDGA1021+009001999GF102991999999999999999999MA1101591999999REMMET051METAR SBLP 131600Z 00000KT 9999 FEW030 31/19 Q1016;
0120832880999992010041317004-13267-043417FM-15+0443SBLP V0209999C000012200019N0112651N1+03201+01901999999ADDGA1021+009001999GF102991999999999999999999MA1101491999999REMMET051METAR SBLP 131700Z 00000KT 9999 FEW030 32/19 Q1015;
0120832880999992010041318004-13267-043417FM-15+0443SBLP V0201201N003112200019N0112651N1+03201+01901999999ADDGA1041+009001999GF104991999999999999999999MA1101391999999REMMET051METAR SBLP 131800Z 12006KT 9999 SCT030 32/19 Q1014;
0120832880999992010041319004-13267-043417FM-15+0443SBLP V0201801N003112200019N0112651N1+03101+01901999999ADDGA1021+009001999GF102991999999999999999999MA1101391999999REMMET051METAR SBLP 131900Z 18006KT 9999 FEW030 31/19 Q1014;
0120832880999992010041320004-13267-043417FM-15+0443SBLP V0201001N003112200019N0112651N1+02901+02001999999ADDGA1021+009001999GF102991999999999999999999MA1101491999999REMMET051METAR SBLP 132000Z 10006KT 9999 FEW030 29/20 Q1015;
0072832880999992010041321004-13267-043417FM-15+0443SBLP V0201601N003119999999Y0099001N1+02801+02101999999ADDMA1101491999999REMMET045METAR SBLP 132100Z 16006KT CAVOK 28/21 Q1015;
0072832880999992010041410004-13267-043417FM-15+0443SBLP V0201801N003119999999Y0099001N1+02101+01901999999ADDMA1101801999999REMMET045METAR SBLP 141000Z 18006KT CAVOK 21/19 Q1018;
0072832880999992010041411004-13267-043417FM-15+0443SBLP V0201801N003119999999Y0099001N1+02201+02001999999ADDMA1101901999999REMMET045METAR SBLP 141100Z 18006KT CAVOK 22/20 Q1019;
0072832880999992010041412004-13267-043417FM-15+0443SBLP V0201801N003119999999Y0099001N1+02501+01901999999ADDMA1101901999999REMMET045METAR SBLP 141200Z 18006KT CAVOK 25/19 Q1019;
0120832880999992010041413004-13267-043417FM-15+0443SBLP V0201201N003112200019N0112651N1+02701+01901999999ADDGA1041+009001999GF104991999999999999999999MA1101901999999REMMET051METAR SBLP 141300Z 12006KT 9999 SCT030 27/19 Q1019;
0120832880999992010041414004-13267-043417FM-15+0443SBLP V0201801N003110081019N0112651N1+02801+01901999999ADDGA1071+008101999GF107991999999999999999999MA1101801999999REMMET051METAR SBLP 141400Z 18006KT 9999 BKN027 28/19 Q1018;
0120832880999992010041415004-13267-043417FM-15+0443SBLP V0201601N003110081019N0112651N1+03001+01901999999ADDGA1071+008101999GF107991999999999999999999MA1101691999999REMMET051METAR SBLP 141500Z 16006KT 9999 BKN027 30/19 Q1017;
0120832880999992010041416004-13267-043417FM-15+0443SBLP V0201501N005110069019N0112651N1+03001+02001999999ADDGA1071+006901999GF107991999999999999999999MA1101691999999REMMET051METAR SBLP 141600Z 15010KT 9999 BKN023 30/20 Q1017;
0120832880999992010041417004-13267-043417FM-15+0443SBLP V0201501N005110069019N0112651N1+03001+02001999999ADDGA1071+006901999GF107991999999999999999999MA1101591999999REMMET051METAR SBLP 141700Z 15010KT 9999 BKN023 30/20 Q1016;
0143832880999992010041418004-13267-043417FM-15+0443SBLP V0201601N006210300019N0112651N1+02901+02001999999ADDGA1041+006001999GA2071+030001999GF107991999999999999999999MA1101491999999REMMET058METAR SBLP 141800Z 16012KT 9999 SCT020 BKN100 29/20 Q1015;
0072832880999992010041419004-13267-043417FM-15+0443SBLP V0201301N005119999999Y0099001N1+03001+02101999999ADDMA1101491999999REMMET045METAR SBLP 141900Z 13010KT CAVOK 30/21 Q1015;
0072832880999992010041420004-13267-043417FM-15+0443SBLP V0201301N003119999999Y0099001N1+03001+02101999999ADDMA1101491999999REMMET045METAR SBLP 142000Z 13006KT CAVOK 30/21 Q1015;
0072832880999992010041421004-13267-043417FM-15+0443SBLP V0201201N001519999999Y0099001N1+02801+02001999999ADDMA1101491999999REMMET045METAR SBLP 142100Z 12003KT CAVOK 28/20 Q1015;
0072832880999992010041509004-13267-043417FM-15+0443SBLP V0209999C000019999999Y0099001N1+01901+01801999999ADDMA1101691999999REMMET045METAR SBLP 150900Z 00000KT CAVOK 19/18 Q1017;
0072832880999992010041510004-13267-043417FM-15+0443SBLP V0209999C000019999999Y0099001N1+02101+01901999999ADDMA1101801999999REMMET045METAR SBLP 151000Z 00000KT CAVOK 21/19 Q1018;
0072832880999992010041511004-13267-043417FM-15+0443SBLP V0201501N004119999999Y0099001N1+02401+02001999999ADDMA1101801999999REMMET045METAR SBLP 151100Z 15008KT CAVOK 24/20 Q1018;
0120832880999992010041512004-13267-043417FM-15+0443SBLP V0201501N003112200019N0112651N1+02501+02001999999ADDGA1021+009001999GF102991999999999999999999MA1101801999999REMMET051METAR SBLP 151200Z 15006KT 9999 FEW030 25/20 Q1018;
0143832880999992010041513004-13267-043417FM-15+0443SBLP V0201501N003112200019N0112651N1+02701+02001999999ADDGA1041+009001999GA2041+030001999GF104991999999999999999999MA1101801999999REMMET058METAR SBLP 151300Z 15006KT 9999 SCT030 SCT100 27/20 Q1018;
0143832880999992010041514004-13267-043417FM-15+0443SBLP V0209999C000012200019N0112651N1+02801+02001999999ADDGA1041+009001999GA2041+030001999GF104991999999999999999999MA1101691999999REMMET058METAR SBLP 151400Z 00000KT 9999 SCT030 SCT100 28/20 Q1017;
0143832880999992010041515004-13267-043417FM-15+0443SBLP V0209999C000012200019N0112651N1+02801+02001999999ADDGA1041+009001999GA2041+030001999GF104991999999999999999999MA1101691999999REMMET058METAR SBLP 151500Z 00000KT 9999 SCT030 SCT100 28/20 Q1017;
0120832880999992010041516004-13267-043417FM-15+0443SBLP V0201501N005110090019N0112651N1+02901+02001999999ADDGA1071+009001999GF107991999999999999999999MA1101491999999REMMET051METAR SBLP 151600Z 15010KT 9999 BKN030 29/20 Q1015;
0120832880999992010041517004-13267-043417FM-15+0443SBLP V0202101N004110090019N0112651N1+03001+02101999999ADDGA1071+009001999GF107991999999999999999999MA1101391999999REMMET051METAR SBLP 151700Z 21008KT 9999 BKN030 30/21 Q1014;
0143832880999992010041518004-13267-043417FM-15+0443SBLP V0201801N003110300019N0112651N1+03101+02101999999ADDGA1021+009001999GA2071+030001999GF107991999999999999999999MA1101291999999REMMET058METAR SBLP 151800Z 18006KT 9999 FEW030 BKN100 31/21 Q1013;
0143832880999992010041520004-13267-043417FM-15+0443SBLP V0201801N003110300019N0112651N1+02901+02101999999ADDGA1021+009001999GA2071+030001999GF107991999999999999999999MA1101291999999REMMET058METAR SBLP 152000Z 18006KT 9999 FEW030 BKN100 29/21 Q1013;
0072832880999992010041521004-13267-043417FM-15+0443SBLP V0201201N004119999999Y0099001N1+02801+02001999999ADDMA1101291999999REMMET045METAR SBLP 152100Z 12008KT CAVOK 28/20 Q1013;
0072832880999992010041610004-13267-043417FM-15+0443SBLP V0201801N003119999999Y0099001N1+02301+02001999999ADDMA1101491999999REMMET045METAR SBLP 161000Z 18006KT CAVOK 23/20 Q1015;
0072832880999992010041611004-13267-043417FM-15+0443SBLP V0201801N005119999999Y0099001N1+02401+02001999999ADDMA1101591999999REMMET045METAR SBLP 161100Z 18010KT CAVOK 24/20 Q1016;
0120832880999992010041613004-13267-043417FM-15+0443SBLP V0201801N003112200019N0112651N1+02901+02101999999ADDGA1021+009001999GF102991999999999999999999MA1101591999999REMMET051METAR SBLP 161300Z 18006KT 9999 FEW030 29/21 Q1016;
0120832880999992010041614004-13267-043417FM-15+0443SBLP V0209999C000012200019N0112651N1+03001+02101999999ADDGA1041+009001999GF104991999999999999999999MA1101591999999REMMET051METAR SBLP 161400Z 00000KT 9999 SCT030 30/21 Q1016;
0120832880999992010041615004-13267-043417FM-15+0443SBLP V0209999C000010090019N0112651N1+03201+02101999999ADDGA1071+009001999GF107991999999999999999999MA1101491999999REMMET051METAR SBLP 161500Z 00000KT 9999 BKN030 32/21 Q1015;
0120832880999992010041616004-13267-043417FM-15+0443SBLP V0201801N003112200019N0112651N1+03301+02001999999ADDGA1041+009001999GF104991999999999999999999MA1101391999999REMMET051METAR SBLP 161600Z 18006KT 9999 SCT030 33/20 Q1014;
0120832880999992010041617004-13267-043417FM-15+0443SBLP V0201801N003112200019N0112651N1+03301+02001999999ADDGA1041+009001999GF104991999999999999999999MA1101291999999REMMET051METAR SBLP 161700Z 18006KT 9999 SCT030 33/20 Q1013;
0120832880999992010041618004-13267-043417FM-15+0443SBLP V0201801N003110090019N0112651N1+03301+01901999999ADDGA1071+009001999GF107991999999999999999999MA1101191999999REMMET051METAR SBLP 161800Z 18006KT 9999 BKN030 33/19 Q1012;
0120832880999992010041619004-13267-043417FM-15+0443SBLP V0201801N003112200019N0112651N1+03201+02001999999ADDGA1041+009001999GF104991999999999999999999MA1101191999999REMMET051METAR SBLP 161900Z 18006KT 9999 SCT030 32/20 Q1012;
0120832880999992010041620004-13267-043417FM-15+0443SBLP V0209999C000012200019N0112651N1+03101+02001999999ADDGA1041+009001999GF104991999999999999999999MA1101191999999REMMET051METAR SBLP 162000Z 00000KT 9999 SCT030 31/20 Q1012;
0120832880999992010041621004-13267-043417FM-15+0443SBLP V0209999C000012200019N0112651N1+03001+02001999999ADDGA1041+009001999GF104991999999999999999999MA1101191999999REMMET051METAR SBLP 162100Z 00000KT 9999 SCT030 30/20 Q1012;
0072832880999992010041710004-13267-043417FM-15+0443SBLP V0209999C000019999999Y0099001N1+02401+02001999999ADDMA1101491999999REMMET045METAR SBLP 171000Z 00000KT CAVOK 24/20 Q1015;
0072832880999992010041711004-13267-043417FM-15+0443SBLP V0209999C000019999999Y0099001N1+02701+02001999999ADDMA1101591999999REMMET045METAR SBLP 171100Z 00000KT CAVOK 27/20 Q1016;
0072832880999992010041712004-13267-043417FM-15+0443SBLP V0200901N003119999999Y0099001N1+02901+02001999999ADDMA1101591999999REMMET045METAR SBLP 171200Z 09006KT CAVOK 29/20 Q1016;
0072832880999992010041713004-13267-043417FM-15+0443SBLP V0200901N003119999999Y0099001N1+03001+02001999999ADDMA1101591999999REMMET045METAR SBLP 171300Z 09006KT CAVOK 30/20 Q1016;
0120832880999992010041714004-13267-043417FM-15+0443SBLP V0200901N003112200019N0112651N1+03201+02001999999ADDGA1021+009001999GF102991999999999999999999MA1101591999999REMMET051METAR SBLP 171400Z 09006KT 9999 FEW030 32/20 Q1016;
0120832880999992010041715004-13267-043417FM-15+0443SBLP V0201801N003112200019N0112651N1+03301+02001999999ADDGA1021+009001999GF102991999999999999999999MA1101491999999REMMET051METAR SBLP 171500Z 18006KT 9999 FEW030 33/20 Q1015;
0120832880999992010041716004-13267-043417FM-15+0443SBLP V0201801N001012200019N0112651N1+03301+02001999999ADDGA1021+009001999GF102991999999999999999999MA1101491999999REMMET051METAR SBLP 171600Z 18002KT 9999 FEW030 33/20 Q1015;
0120832880999992010041717004-13267-043417FM-15+0443SBLP V0202001N002112200019N0112651N1+03401+02001999999ADDGA1021+009001999GF102991999999999999999999MA1101391999999REMMET051METAR SBLP 171700Z 20004KT 9999 FEW030 34/20 Q1014;
0120832880999992010041718004-13267-043417FM-15+0443SBLP V0202301N002612200019N0112651N1+03401+01901999999ADDGA1021+009001999GF102991999999999999999999MA1101291999999REMMET051METAR SBLP 171800Z 23005KT 9999 FEW030 34/19 Q1013;
0120832880999992010041719004-13267-043417FM-15+0443SBLP V0202101N002112200019N0112651N1+03401+02101999999ADDGA1021+009001999GF102991999999999999999999MA1101291999999REMMET051METAR SBLP 171900Z 21004KT 9999 FEW030 34/21 Q1013;
0120832880999992010041720004-13267-043417FM-15+0443SBLP V0201801N001012200019N0112651N1+03401+02101999999ADDGA1021+009001999GF102991999999999999999999MA1101291999999REMMET051METAR SBLP 172000Z 18002KT 9999 FEW030 34/21 Q1013;
0120832880999992010041721004-13267-043417FM-15+0443SBLP V0209999C000012200019N0112651N1+03101+02001999999ADDGA1021+009001999GF102991999999999999999999MA1101291999999REMMET051METAR SBLP 172100Z 00000KT 9999 FEW030 31/20 Q1013;
0072832880999992010041810004-13267-043417FM-15+0443SBLP V0209999C000019999999Y0099001N1+02401+02101999999ADDMA1101591999999REMMET045METAR SBLP 181000Z 00000KT CAVOK 24/21 Q1016;
0072832880999992010041811004-13267-043417FM-15+0443SBLP V0209999C000019999999Y0099001N1+02701+02001999999ADDMA1101691999999REMMET045METAR SBLP 181100Z 00000KT CAVOK 27/20 Q1017;
0072832880999992010041812004-13267-043417FM-15+0443SBLP V0209999C000019999999Y0099001N1+02901+02001999999ADDMA1101801999999REMMET045METAR SBLP 181200Z 00000KT CAVOK 29/20 Q1018;
0120832880999992010041813004-13267-043417FM-15+0443SBLP V0201801N003112200019N0112651N1+03101+02001999999ADDGA1021+009001999GF102991999999999999999999MA1101801999999REMMET051METAR SBLP 181300Z 18006KT 9999 FEW030 31/20 Q1018;
0120832880999992010041814004-13267-043417FM-15+0443SBLP V0201801N003112200019N0112651N1+03201+01901999999ADDGA1021+009001999GF102991999999999999999999MA1101801999999REMMET051METAR SBLP 181400Z 18006KT 9999 FEW030 32/19 Q1018;
0120832880999992010041815004-13267-043417FM-15+0443SBLP V0201801N003112200019N0112651N1+03301+01901999999ADDGA1041+009001999GF104991999999999999999999MA1101691999999REMMET051METAR SBLP 181500Z 18006KT 9999 SCT030 33/19 Q1017;
0120832880999992010041816004-13267-043417FM-15+0443SBLP V0201801N003112200019N0112651N1+03301+02001999999ADDGA1041+009001999GF104991999999999999999999MA1101591999999REMMET051METAR SBLP 181600Z 18006KT 9999 SCT030 33/20 Q1016;
0120832880999992010041817004-13267-043417FM-15+0443SBLP V0201801N003112200019N0112651N1+03301+01901999999ADDGA1041+009001999GF104991999999999999999999MA1101491999999REMMET051METAR SBLP 181700Z 18006KT 9999 SCT030 33/19 Q1015;
0120832880999992010041818004-13267-043417FM-15+0443SBLP V0201801N003112200019N0112651N1+03401+01901999999ADDGA1041+009001999GF104991999999999999999999MA1101491999999REMMET051METAR SBLP 181800Z 18006KT 9999 SCT030 34/19 Q1015;
0120832880999992010041819004-13267-043417FM-15+0443SBLP V0201801N003112200019N0112651N1+03301+01901999999ADDGA1021+009001999GF102991999999999999999999MA1101391999999REMMET051METAR SBLP 181900Z 18006KT 9999 FEW030 33/19 Q1014;
0120832880999992010041820004-13267-043417FM-15+0443SBLP V0201801N003112200019N0112651N1+03201+01901999999ADDGA1021+009001999GF102991999999999999999999MA1101391999999REMMET051METAR SBLP 182000Z 18006KT 9999 FEW030 32/19 Q1014;
0072832880999992010041821004-13267-043417FM-15+0443SBLP V0201801N003119999999Y0099001N1+03101+02001999999ADDMA1101491999999REMMET045METAR SBLP 182100Z 18006KT CAVOK 31/20 Q1015;
0072832880999992010041910004-13267-043417FM-15+0443SBLP V0202101N001519999999Y0099001N1+02201+02001999999ADDMA1101691999999REMMET045METAR SBLP 191000Z 21003KT CAVOK 22/20 Q1017;
0072832880999992010041911004-13267-043417FM-15+0443SBLP V0201801N002119999999Y0099001N1+02501+02001999999ADDMA1101801999999REMMET045METAR SBLP 191100Z 18004KT CAVOK 25/20 Q1018;
0072832880999992010041912004-13267-043417FM-15+0443SBLP V0202001N002119999999Y0099001N1+02801+02001999999ADDMA1101801999999REMMET045METAR SBLP 191200Z 20004KT CAVOK 28/20 Q1018;
0072832880999992010041913004-13267-043417FM-15+0443SBLP V0209999C000019999999Y0099001N1+02901+01801999999ADDMA1101801999999REMMET045METAR SBLP 191300Z 00000KT CAVOK 29/18 Q1018;
0120832880999992010041914004-13267-043417FM-15+0443SBLP V0202101N002112200019N0112651N1+03101+02001999999ADDGA1021+009001999GF102991999999999999999999MA1101801999999REMMET051METAR SBLP 191400Z 21004KT 9999 FEW030 31/20 Q1018;
0120832880999992010041915004-13267-043417FM-15+0443SBLP V0209999C000012200019N0112651N1+03201+02001999999ADDGA1021+009001999GF102991999999999999999999MA1101691999999REMMET051METAR SBLP 191500Z 00000KT 9999 FEW030 32/20 Q1017;
0120832880999992010041916004-13267-043417FM-15+0443SBLP V0202401N003112200019N0112651N1+03301+02001999999ADDGA1041+009001999GF104991999999999999999999MA1101591999999REMMET051METAR SBLP 191600Z 24006KT 9999 SCT030 33/20 Q1016;
0120832880999992010041917004-13267-043417FM-15+0443SBLP V0201601N003112200019N0112651N1+03301+02001999999ADDGA1041+009001999GF104991999999999999999999MA1101491999999REMMET051METAR SBLP 191700Z 16006KT 9999 SCT030 33/20 Q1015;
0120832880999992010041918004-13267-043417FM-15+0443SBLP V0209999C000012200019N0112651N1+03301+02101999999ADDGA1021+009001999GF102991999999999999999999MA1101391999999REMMET051METAR SBLP 191800Z 00000KT 9999 FEW030 33/21 Q1014;
0120832880999992010041919004-13267-043417FM-15+0443SBLP V0209999C000012200019N0112651N1+03301+02001999999ADDGA1021+009001999GF102991999999999999999999MA1101391999999REMMET051METAR SBLP 191900Z 00000KT 9999 FEW030 33/20 Q1014;
0120832880999992010041920004-13267-043417FM-15+0443SBLP V0209999C000012200019N0112651N1+03301+02101999999ADDGA1021+009001999GF102991999999999999999999MA1101391999999REMMET051METAR SBLP 192000Z 00000KT 9999 FEW030 33/21 Q1014;
0072832880999992010041921004-13267-043417FM-15+0443SBLP V0209999C000019999999Y0099001N1+03201+02101999999ADDMA1101391999999REMMET045METAR SBLP 192100Z 00000KT CAVOK 32/21 Q1014;
0072832880999992010042010004-13267-043417FM-15+0443SBLP V0209999C000019999999Y0099001N1+02101+02001999999ADDMA1101491999999REMMET045METAR SBLP 201000Z 00000KT CAVOK 21/20 Q1015;
0072832880999992010042011004-13267-043417FM-15+0443SBLP V0209999C000019999999Y0099001N1+02501+02001999999ADDMA1101591999999REMMET045METAR SBLP 201100Z 00000KT CAVOK 25/20 Q1016;
0072832880999992010042012004-13267-043417FM-15+0443SBLP V0202101N003119999999Y0099001N1+02701+02001999999ADDMA1101591999999REMMET045METAR SBLP 201200Z 21006KT CAVOK 27/20 Q1016;
0072832880999992010042013004-13267-043417FM-15+0443SBLP V0201501N003119999999Y0099001N1+02801+02001999999ADDMA1101691999999REMMET045METAR SBLP 201300Z 15006KT CAVOK 28/20 Q1017;
0072832880999992010042014004-13267-043417FM-15+0443SBLP V0200901N003119999999Y0099001N1+03001+02001999999ADDMA1101591999999REMMET045METAR SBLP 201400Z 09006KT CAVOK 30/20 Q1016;
0120832880999992010042015004-13267-043417FM-15+0443SBLP V0209999C000012200019N0112651N1+03001+02001999999ADDGA1021+009001999GF102991999999999999999999MA1101491999999REMMET051METAR SBLP 201500Z 00000KT 9999 FEW030 30/20 Q1015;
0120832880999992010042016004-13267-043417FM-15+0443SBLP V0201801N003112200019N0112651N1+03301+02001999999ADDGA1041+009001999GF104991999999999999999999MA1101291999999REMMET051METAR SBLP 201600Z 18006KT 9999 SCT030 33/20 Q1013;
0120832880999992010042017004-13267-043417FM-15+0443SBLP V0201801N004112200019N0112651N1+03301+01801999999ADDGA1041+009001999GF104991999999999999999999MA1101291999999REMMET051METAR SBLP 201700Z 18008KT 9999 SCT030 33/18 Q1013;
0120832880999992010042018004-13267-043417FM-15+0443SBLP V0201501N003112200019N0112651N1+03301+01701999999ADDGA1041+009001999GF104991999999999999999999MA1101191999999REMMET051METAR SBLP 201800Z 15006KT 9999 SCT030 33/17 Q1012;
0120832880999992010042019004-13267-043417FM-15+0443SBLP V0201501N003112200019N0112651N1+03301+01701999999ADDGA1021+009001999GF102991999999999999999999MA1101191999999REMMET051METAR SBLP 201900Z 15006KT 9999 FEW030 33/17 Q1012;
0072832880999992010042020004-13267-043417FM-15+0443SBLP V0200901N001519999999Y0099001N1+03201+01901999999ADDMA1101191999999REMMET045METAR SBLP 202000Z 09003KT CAVOK 32/19 Q1012;
0072832880999992010042021004-13267-043417FM-15+0443SBLP V0209999C000019999999Y0099001N1+03001+02001999999ADDMA1101191999999REMMET045METAR SBLP 202100Z 00000KT CAVOK 30/20 Q1012;
0072832880999992010042110004-13267-043417FM-15+0443SBLP V0202101N002119999999Y0099001N1+02001+01701999999ADDMA1101491999999REMMET045METAR SBLP 211000Z 21004KT CAVOK 20/17 Q1015;
0072832880999992010042111004-13267-043417FM-15+0443SBLP V0209999C000019999999Y0099001N1+02301+01801999999ADDMA1101591999999REMMET045METAR SBLP 211100Z 00000KT CAVOK 23/18 Q1016;
0072832880999992010042112004-13267-043417FM-15+0443SBLP V0209999C000019999999Y0099001N1+02601+01801999999ADDMA1101591999999REMMET045METAR SBLP 211200Z 00000KT CAVOK 26/18 Q1016;
0072832880999992010042113004-13267-043417FM-15+0443SBLP V0201201N003119999999Y0099001N1+02901+01701999999ADDMA1101591999999REMMET045METAR SBLP 211300Z 12006KT CAVOK 29/17 Q1016;
0072832880999992010042114004-13267-043417FM-15+0443SBLP V0209999C000019999999Y0099001N1+03001+01801999999ADDMA1101591999999REMMET045METAR SBLP 211400Z 00000KT CAVOK 30/18 Q1016;
0072832880999992010042115004-13267-043417FM-15+0443SBLP V0202501N003119999999Y0099001N1+03001+01801999999ADDMA1101491999999REMMET045METAR SBLP 211500Z 25006KT CAVOK 30/18 Q1015;
0077832880999992010042116004-13267-043417FM-15+0443SBLP V0201801N003119999999Y0112651N1+03201+01701999999ADDMA1101401999999REMMET050METAR SBLP 211600Z 18006KT 9999 CAVOK 32/17 Q1014;
0072832880999992010042117004-13267-043417FM-15+0443SBLP V0201801N003119999999Y0099001N1+03201+01701999999ADDMA1101291999999REMMET045METAR SBLP 211700Z 18006KT CAVOK 32/17 Q1013;
0072832880999992010042118004-13267-043417FM-15+0443SBLP V0201801N003119999999Y0099001N1+03301+01601999999ADDMA1101191999999REMMET045METAR SBLP 211800Z 18006KT CAVOK 33/16 Q1012;
0072832880999992010042119004-13267-043417FM-15+0443SBLP V0201801N003119999999Y0099001N1+03201+01601999999ADDMA1101191999999REMMET045METAR SBLP 211900Z 18006KT CAVOK 32/16 Q1012;
0072832880999992010042120004-13267-043417FM-15+0443SBLP V0209999C000019999999Y0099001N1+03201+01601999999ADDMA1101191999999REMMET045METAR SBLP 212000Z 00000KT CAVOK 32/16 Q1012;
0072832880999992010042121004-13267-043417FM-15+0443SBLP V0209999C000019999999Y0099001N1+03001+01701999999ADDMA1101291999999REMMET045METAR SBLP 212100Z 00000KT CAVOK 30/17 Q1013;
0072832880999992010042210004-13267-043417FM-15+0443SBLP V0209999C000019999999Y0099001N1+02301+02001999999ADDMA1101491999999REMMET045METAR SBLP 221000Z 00000KT CAVOK 23/20 Q1015;
0072832880999992010042211004-13267-043417FM-15+0443SBLP V0209999C000019999999Y0099001N1+02601+01901999999ADDMA1101591999999REMMET045METAR SBLP 221100Z 00000KT CAVOK 26/19 Q1016;
0072832880999992010042212004-13267-043417FM-15+0443SBLP V0209999C000019999999Y0099001N1+02901+01901999999ADDMA1101691999999REMMET045METAR SBLP 221200Z 00000KT CAVOK 29/19 Q1017;
0072832880999992010042213004-13267-043417FM-15+0443SBLP V0209999C000019999999Y0099001N1+03001+01901999999ADDMA1101591999999REMMET045METAR SBLP 221300Z 00000KT CAVOK 30/19 Q1016;
0077832880999992010042215004-13267-043417FM-15+0443SBLP V0200901N003112200019N9999999N1+03201+01801999999ADDMA1101501999999REMMET050METAR SBLP 221500Z 09006KT 999 FEW030 32/18 Q1015;
0120832880999992010042216004-13267-043417FM-15+0443SBLP V0202101N002112200019N0112651N1+03201+02001999999ADDGA1021+009001999GF102991999999999999999999MA1101391999999REMMET051METAR SBLP 221600Z 21004KT 9999 FEW030 32/20 Q1014;
0120832880999992010042217004-13267-043417FM-15+0443SBLP V0202101N001512200019N0112651N1+03301+01901999999ADDGA1021+009001999GF102991999999999999999999MA1101291999999REMMET051METAR SBLP 221700Z 21003KT 9999 FEW030 33/19 Q1013;
0120832880999992010042218004-13267-043417FM-15+0443SBLP V0202101N002112200019N0112651N1+03301+01801999999ADDGA1021+009001999GF102991999999999999999999MA1101191999999REMMET051METAR SBLP 221800Z 21004KT 9999 FEW030 33/18 Q1012;
0120832880999992010042219004-13267-043417FM-15+0443SBLP V0201501N001512200019N0112651N1+03401+01801999999ADDGA1021+009001999GF102991999999999999999999MA1101191999999REMMET051METAR SBLP 221900Z 15003KT 9999 FEW030 34/18 Q1012;
0120832880999992010042220004-13267-043417FM-15+0443SBLP V0209999N002112200019N0112651N1+03301+01901999999ADDGA1021+009001999GF102991999999999999999999MA1101191999999REMMET051METAR SBLP 222000Z 20404KT 9999 FEW030 33/19 Q1012;
0072832880999992010042221004-13267-043417FM-15+0443SBLP V0202401N001019999999Y0099001N1+03001+02101999999ADDMA1101191999999REMMET045METAR SBLP 222100Z 24002KT CAVOK 30/21 Q1012;
0072832880999992010042310004-13267-043417FM-15+0443SBLP V0202101N002119999999Y0099001N1+02201+02001999999ADDMA1101591999999REMMET045METAR SBLP 231000Z 21004KT CAVOK 22/20 Q1016;
0072832880999992010042311004-13267-043417FM-15+0443SBLP V0201301N001519999999Y0099001N1+02601+02101999999ADDMA1101591999999REMMET045METAR SBLP 231100Z 13003KT CAVOK 26/21 Q1016;
0072832880999992010042312004-13267-043417FM-15+0443SBLP V0200401N001519999999Y0099001N1+02901+02001999999ADDMA1101591999999REMMET045METAR SBLP 231200Z 04003KT CAVOK 29/20 Q1016;
0072832880999992010042313004-13267-043417FM-15+0443SBLP V0200701N002119999999Y0099001N1+03101+02101999999ADDMA1101591999999REMMET045METAR SBLP 231300Z 07004KT CAVOK 31/21 Q1016;
0120832880999992010042314004-13267-043417FM-15+0443SBLP V0200901N001512200019N0112651N1+03201+02001999999ADDGA1021+009001999GF102991999999999999999999MA1101591999999REMMET051METAR SBLP 231400Z 09003KT 9999 FEW030 32/20 Q1016;
0120832880999992010042315004-13267-043417FM-15+0443SBLP V0200901N001512200019N0112651N1+03301+02001999999ADDGA1021+009001999GF102991999999999999999999MA1101491999999REMMET051METAR SBLP 231500Z 09003KT 9999 FEW030 33/20 Q1015;
0120832880999992010042316004-13267-043417FM-15+0443SBLP V0201501N003112200019N0112651N1+03301+02001999999ADDGA1041+009001999GF104991999999999999999999MA1101391999999REMMET051METAR SBLP 231600Z 15006KT 9999 SCT030 33/20 Q1014;
0155832880999992010042317004-13267-043417FM-15+0443SBLP V0202401N003112200019N0112651N1+03401+99999999999ADDGA1041+009001999GF104991999999999999999999MA1101291999999REMMET051METAR SBLP 231700Z 24006KT 9999 SCT030 34/00 Q1013;EQDQ01+000003ATOD  Q02 +00003ATOD  
0120832880999992010042318004-13267-043417FM-15+0443SBLP V0202301N003112200019N0112651N1+03401+02101999999ADDGA1021+009001999GF102991999999999999999999MA1101191999999REMMET051METAR SBLP 231800Z 23006KT 9999 FEW030 34/21 Q1012;
0120832880999992010042319004-13267-043417FM-15+0443SBLP V0201201N003112200019N0112651N1+03401+02101999999ADDGA1021+009001999GF102991999999999999999999MA1101191999999REMMET051METAR SBLP 231900Z 12006KT 9999 FEW030 34/21 Q1012;
0120832880999992010042320004-13267-043417FM-15+0443SBLP V0209999C000012200019N0112651N1+03301+02101999999ADDGA1021+009001999GF102991999999999999999999MA1101191999999REMMET051METAR SBLP 232000Z 00000KT 9999 FEW030 33/21 Q1012;
0072832880999992010042321004-13267-043417FM-15+0443SBLP V0209999C000019999999Y0099001N1+03001+02201999999ADDMA1101291999999REMMET045METAR SBLP 232100Z 00000KT CAVOK 30/22 Q1013;
0072832880999992010042410004-13267-043417FM-15+0443SBLP V0209999C000019999999Y0099001N1+02201+02001999999ADDMA1101691999999REMMET045METAR SBLP 241000Z 00000KT CAVOK 22/20 Q1017;
0072832880999992010042411004-13267-043417FM-15+0443SBLP V0209999C000019999999Y0099001N1+02501+02101999999ADDMA1101691999999REMMET045METAR SBLP 241100Z 00000KT CAVOK 25/21 Q1017;
0072832880999992010042412004-13267-043417FM-15+0443SBLP V0200901N003119999999Y0099001N1+02901+02001999999ADDMA1101691999999REMMET045METAR SBLP 241200Z 09006KT CAVOK 29/20 Q1017;
0072832880999992010042413004-13267-043417FM-15+0443SBLP V0200901N003119999999Y0099001N1+03101+02001999999ADDMA1101691999999REMMET045METAR SBLP 241300Z 09006KT CAVOK 31/20 Q1017;
0120832880999992010042414004-13267-043417FM-15+0443SBLP V0201801N003112200019N0112651N1+03201+02001999999ADDGA1021+009001999GF102991999999999999999999MA1101591999999REMMET051METAR SBLP 241400Z 18006KT 9999 FEW030 32/20 Q1016;
0120832880999992010042415004-13267-043417FM-15+0443SBLP V0209999C000012200019N0112651N1+03401+02001999999ADDGA1021+009001999GF102991999999999999999999MA1101491999999REMMET051METAR SBLP 241500Z 00000KT 9999 FEW030 34/20 Q1015;
0120832880999992010042416004-13267-043417FM-15+0443SBLP V0201801N004112200019N0112651N1+03401+02001999999ADDGA1041+009001999GF104991999999999999999999MA1101391999999REMMET051METAR SBLP 241600Z 18008KT 9999 SCT030 34/20 Q1014;
0120832880999992010042417004-13267-043417FM-15+0443SBLP V0201401N005112200019N0112651N1+03501+01901999999ADDGA1041+009001999GF104991999999999999999999MA1101291999999REMMET051METAR SBLP 241700Z 14010KT 9999 SCT030 35/19 Q1013;
0120832880999992010042418004-13267-043417FM-15+0443SBLP V0201201N003112200019N0112651N1+03501+01701999999ADDGA1021+009001999GF102991999999999999999999MA1101191999999REMMET051METAR SBLP 241800Z 12006KT 9999 FEW030 35/17 Q1012;
0072832880999992010042420004-13267-043417FM-15+0443SBLP V0201201N002119999999Y0099001N1+03401+01901999999ADDMA1101191999999REMMET045METAR SBLP 242000Z 12004KT CAVOK 34/19 Q1012;
0072832880999992010042421004-13267-043417FM-15+0443SBLP V0209999C000019999999Y0099001N1+03101+02101999999ADDMA1101191999999REMMET045METAR SBLP 242100Z 00000KT CAVOK 31/21 Q1012;
0072832880999992010042510004-13267-043417FM-15+0443SBLP V0209999C000019999999Y0099001N1+02101+01901999999ADDMA1101591999999REMMET045METAR SBLP 251000Z 00000KT CAVOK 21/19 Q1016;
0072832880999992010042511004-13267-043417FM-15+0443SBLP V0201601N002119999999Y0099001N1+02601+02101999999ADDMA1101691999999REMMET045METAR SBLP 251100Z 16004KT CAVOK 26/21 Q1017;
0072832880999992010042512004-13267-043417FM-15+0443SBLP V0201201N003119999999Y0099001N1+02801+02101999999ADDMA1101691999999REMMET045METAR SBLP 251200Z 12006KT CAVOK 28/21 Q1017;
0072832880999992010042513004-13267-043417FM-15+0443SBLP V0201201N003119999999Y0099001N1+02901+02101999999ADDMA1101691999999REMMET045METAR SBLP 251300Z 12006KT CAVOK 29/21 Q1017;
0120832880999992010042514004-13267-043417FM-15+0443SBLP V0200901N003112200019N0112651N1+03101+02101999999ADDGA1021+009001999GF102991999999999999999999MA1101591999999REMMET051METAR SBLP 251400Z 09006KT 9999 FEW030 31/21 Q1016;
0120832880999992010042515004-13267-043417FM-15+0443SBLP V0209999C000012200019N0112651N1+03201+02001999999ADDGA1021+009001999GF102991999999999999999999MA1101491999999REMMET051METAR SBLP 251500Z 00000KT 9999 FEW030 32/20 Q1015;
0120832880999992010042517004-13267-043417FM-15+0443SBLP V0201401N003112200019N0112651N1+03401+01801999999ADDGA1041+009001999GF104991999999999999999999MA1101291999999REMMET051METAR SBLP 251700Z 14006KT 9999 SCT030 34/18 Q1013;
0120832880999992010042518004-13267-043417FM-15+0443SBLP V0201801N001512200019N0112651N1+03401+01701999999ADDGA1021+009001999GF102991999999999999999999MA1101191999999REMMET051METAR SBLP 251800Z 18003KT 9999 FEW030 34/17 Q1012;
0120832880999992010042519004-13267-043417FM-15+0443SBLP V0201501N003112200019N0112651N1+03401+01601999999ADDGA1021+009001999GF102991999999999999999999MA1101191999999REMMET051METAR SBLP 251900Z 15006KT 9999 FEW030 34/16 Q1012;
0120832880999992010042520004-13267-043417FM-15+0443SBLP V0201701N003112200019N0112651N1+03201+01701999999ADDGA1021+009001999GF102991999999999999999999MA1101191999999REMMET051METAR SBLP 252000Z 17006KT 9999 FEW030 32/17 Q1012;
0120832880999992010042521004-13267-043417FM-15+0443SBLP V0201501N003112200019N0112651N1+03001+01801999999ADDGA1041+009001999GF104991999999999999999999MA1101291999999REMMET051METAR SBLP 252100Z 15006KT 9999 SCT030 30/18 Q1013;
0072832880999992010042610004-13267-043417FM-15+0443SBLP V0201801N002119999999Y0099001N1+02001+01901999999ADDMA1101591999999REMMET045METAR SBLP 261000Z 18004KT CAVOK 20/19 Q1016;
0072832880999992010042611004-13267-043417FM-15+0443SBLP V0201501N003119999999Y0099001N1+02501+01901999999ADDMA1101691999999REMMET045METAR SBLP 261100Z 15006KT CAVOK 25/19 Q1017;
0072832880999992010042612004-13267-043417FM-15+0443SBLP V0201801N003119999999Y0099001N1+02701+01901999999ADDMA1101801999999REMMET045METAR SBLP 261200Z 18006KT CAVOK 27/19 Q1018;
0072832880999992010042613004-13267-043417FM-15+0443SBLP V0200901N002119999999Y0099001N1+02901+01901999999ADDMA1101801999999REMMET045METAR SBLP 261300Z 09004KT CAVOK 29/19 Q1018;
0072832880999992010042614004-13267-043417FM-15+0443SBLP V0201601N003119999999Y0099001N1+03001+01801999999ADDMA1101691999999REMMET045METAR SBLP 261400Z 16006KT CAVOK 30/18 Q1017;
0072832880999992010042615004-13267-043417FM-15+0443SBLP V0200801N001519999999Y0099001N1+03101+01901999999ADDMA1101591999999REMMET045METAR SBLP 261500Z 08003KT CAVOK 31/19 Q1016;
0072832880999992010042616004-13267-043417FM-15+0443SBLP V0201801N003119999999Y0099001N1+03201+01901999999ADDMA1101391999999REMMET045METAR SBLP 261600Z 18006KT CAVOK 32/19 Q1014;
0072832880999992010042617004-13267-043417FM-15+0443SBLP V0201801N003119999999Y0099001N1+03301+01801999999ADDMA1101291999999REMMET045METAR SBLP 261700Z 18006KT CAVOK 33/18 Q1013;
0072832880999992010042618004-13267-043417FM-15+0443SBLP V0201801N003119999999Y0099001N1+03401+01801999999ADDMA1101291999999REMMET045METAR SBLP 261800Z 18006KT CAVOK 34/18 Q1013;
0072832880999992010042619004-13267-043417FM-15+0443SBLP V0201801N003119999999Y0099001N1+03301+01801999999ADDMA1101291999999REMMET045METAR SBLP 261900Z 18006KT CAVOK 33/18 Q1013;
0072832880999992010042620004-13267-043417FM-15+0443SBLP V0209999C000019999999Y0099001N1+03201+01801999999ADDMA1101291999999REMMET045METAR SBLP 262000Z 00000KT CAVOK 32/18 Q1013;
0072832880999992010042621004-13267-043417FM-15+0443SBLP V0209999C000019999999Y0099001N1+03101+01901999999ADDMA1101291999999REMMET045METAR SBLP 262100Z 00000KT CAVOK 31/19 Q1013;
0072832880999992010042710004-13267-043417FM-15+0443SBLP V0209999C000019999999Y0099001N1+02401+02001999999ADDMA1101591999999REMMET045METAR SBLP 271000Z 00000KT CAVOK 24/20 Q1016;
0072832880999992010042711004-13267-043417FM-15+0443SBLP V0209999C000019999999Y0099001N1+02601+02001999999ADDMA1101691999999REMMET045METAR SBLP 271100Z 00000KT CAVOK 26/20 Q1017;
0072832880999992010042712004-13267-043417FM-15+0443SBLP V0209999C000019999999Y0099001N1+02801+01901999999ADDMA1101801999999REMMET045METAR SBLP 271200Z 00000KT CAVOK 28/19 Q1018;
0072832880999992010042713004-13267-043417FM-15+0443SBLP V0209999C000019999999Y0099001N1+02801+01901999999ADDMA1101801999999REMMET045METAR SBLP 271300Z 00000KT CAVOK 28/19 Q1018;
0072832880999992010042714004-13267-043417FM-15+0443SBLP V0209999C000019999999Y0099001N1+03101+01801999999ADDMA1101691999999REMMET045METAR SBLP 271400Z 00000KT CAVOK 31/18 Q1017;
0120832880999992010042715004-13267-043417FM-15+0443SBLP V0209999C000012200019N0112651N1+03201+01801999999ADDGA1021+009001999GF102991999999999999999999MA1101591999999REMMET051METAR SBLP 271500Z 00000KT 9999 FEW030 32/18 Q1016;
0120832880999992010042716004-13267-043417FM-15+0443SBLP V0201801N002612200019N0112651N1+03401+01901999999ADDGA1021+009001999GF102991999999999999999999MA1101491999999REMMET051METAR SBLP 271600Z 18005KT 9999 FEW030 34/19 Q1015;
0120832880999992010042717004-13267-043417FM-15+0443SBLP V0202401N002112200019N0112651N1+03401+01701999999ADDGA1021+009001999GF102991999999999999999999MA1101391999999REMMET051METAR SBLP 271700Z 24004KT 9999 FEW030 34/17 Q1014;
0120832880999992010042718004-13267-043417FM-15+0443SBLP V0202701N002112200019N0112651N1+03401+01701999999ADDGA1021+009001999GF102991999999999999999999MA1101291999999REMMET051METAR SBLP 271800Z 27004KT 9999 FEW030 34/17 Q1013;
0120832880999992010042719004-13267-043417FM-15+0443SBLP V0201601N001512200019N0112651N1+03501+01701999999ADDGA1021+009001999GF102991999999999999999999MA1101291999999REMMET051METAR SBLP 271900Z 16003KT 9999 FEW030 35/17 Q1013;
0072832880999992010042720004-13267-043417FM-15+0443SBLP V0202701N001519999999Y0099001N1+03401+01601999999ADDMA1101291999999REMMET045METAR SBLP 272000Z 27003KT CAVOK 34/16 Q1013;
0072832880999992010042721004-13267-043417FM-15+0443SBLP V0209999C000019999999Y0099001N1+03101+01701999999ADDMA1101291999999REMMET045METAR SBLP 272100Z 00000KT CAVOK 31/17 Q1013;
0178832880999992010042800004-13267-043417FM-12+0443SBLP V0201801N001012200019N0020001N1+02631+02041101141ADDGA1001+999999999GF100991001001999999001001KA1240M+03291MA1999999096271MD1999999+0001REMSYN082AAXX  28004 83288 32995 01802 10263 20204 39627 40114 333 10329 29063 55107 58000;
0072832880999992010042810004-13267-043417FM-15+0443SBLP V0202101N002119999999Y0099001N1+02101+01701999999ADDMA1101491999999REMMET045METAR SBLP 281000Z 21004KT CAVOK 21/17 Q1015;
0072832880999992010042811004-13267-043417FM-15+0443SBLP V0201801N001519999999Y0099001N1+02301+01901999999ADDMA1101591999999REMMET045METAR SBLP 281100Z 18003KT CAVOK 23/19 Q1016;
0072832880999992010042812004-13267-043417FM-15+0443SBLP V0201501N002119999999Y0099001N1+02701+02001999999ADDMA1101691999999REMMET045METAR SBLP 281200Z 15004KT CAVOK 27/20 Q1017;
0072832880999992010042813004-13267-043417FM-15+0443SBLP V0202101N002119999999Y0099001N1+02901+01801999999ADDMA1101691999999REMMET045METAR SBLP 281300Z 21004KT CAVOK 29/18 Q1017;
0072832880999992010042814004-13267-043417FM-15+0443SBLP V0201101N001519999999Y0099001N1+03101+01701999999ADDMA1101591999999REMMET045METAR SBLP 281400Z 11003KT CAVOK 31/17 Q1016;
0120832880999992010042815004-13267-043417FM-15+0443SBLP V0201201N002612200019N0112651N1+03301+01701999999ADDGA1021+009001999GF102991999999999999999999MA1101491999999REMMET051METAR SBLP 281500Z 12005KT 9999 FEW030 33/17 Q1015;
0120832880999992010042816004-13267-043417FM-15+0443SBLP V0209999C000012200019N0112651N1+03301+01701999999ADDGA1021+009001999GF102991999999999999999999MA1101391999999REMMET051METAR SBLP 281600Z 00000KT 9999 FEW030 33/17 Q1014;
0120832880999992010042817004-13267-043417FM-15+0443SBLP V0201801N003112200019N0112651N1+03301+01801999999ADDGA1041+009001999GF104991999999999999999999MA1101291999999REMMET051METAR SBLP 281700Z 18006KT 9999 SCT030 33/18 Q1013;
0120832880999992010042818004-13267-043417FM-15+0443SBLP V0201201N003112200019N0112651N1+03301+02001999999ADDGA1041+009001999GF104991999999999999999999MA1101291999999REMMET051METAR SBLP 281800Z 12006KT 9999 SCT030 33/20 Q1013;
0120832880999992010042819004-13267-043417FM-15+0443SBLP V0201801N003112200019N0112651N1+03201+01801999999ADDGA1021+009001999GF102991999999999999999999MA1101291999999REMMET051METAR SBLP 281900Z 18006KT 9999 FEW030 32/18 Q1013;
0072832880999992010042820004-13267-043417FM-15+0443SBLP V0209999C000019999999Y0099001N1+03201+02001999999ADDMA1101291999999REMMET045METAR SBLP 282000Z 00000KT CAVOK 32/20 Q1013;
0072832880999992010042821004-13267-043417FM-15+0443SBLP V0209999C000019999999Y0099001N1+03001+02101999999ADDMA1101291999999REMMET045METAR SBLP 282100Z 00000KT CAVOK 30/21 Q1013;
0072832880999992010042910004-13267-043417FM-15+0443SBLP V0209999C000019999999Y0099001N1+01901+01701999999ADDMA1101691999999REMMET045METAR SBLP 291000Z 00000KT CAVOK 19/17 Q1017;
0072832880999992010042911004-13267-043417FM-15+0443SBLP V0201801N003119999999Y0099001N1+02401+01901999999ADDMA1101691999999REMMET045METAR SBLP 291100Z 18006KT CAVOK 24/19 Q1017;
0072832880999992010042912004-13267-043417FM-15+0443SBLP V0200901N003119999999Y0099001N1+02701+02101999999ADDMA1101801999999REMMET045METAR SBLP 291200Z 09006KT CAVOK 27/21 Q1018;
0072832880999992010042913004-13267-043417FM-15+0443SBLP V0201201N003119999999Y0099001N1+02901+02001999999ADDMA1101801999999REMMET045METAR SBLP 291300Z 12006KT CAVOK 29/20 Q1018;
0072832880999992010042914004-13267-043417FM-15+0443SBLP V0201401N003119999999Y0099001N1+03101+02001999999ADDMA1101691999999REMMET045METAR SBLP 291400Z 14006KT CAVOK 31/20 Q1017;
0120832880999992010042915004-13267-043417FM-15+0443SBLP V0201201N003112200019N0112651N1+03201+02001999999ADDGA1021+009001999GF102991999999999999999999MA1101591999999REMMET051METAR SBLP 291500Z 12006KT 9999 FEW030 32/20 Q1016;
0120832880999992010042916004-13267-043417FM-15+0443SBLP V0201501N001512200019N0112651N1+03401+01601999999ADDGA1021+009001999GF102991999999999999999999MA1101391999999REMMET051METAR SBLP 291600Z 15003KT 9999 FEW030 34/16 Q1014;
0120832880999992010042917004-13267-043417FM-15+0443SBLP V0201201N004112200019N0112651N1+03401+01601999999ADDGA1021+009001999GF102991999999999999999999MA1101291999999REMMET051METAR SBLP 291700Z 12008KT 9999 FEW030 34/16 Q1013;
0120832880999992010042918004-13267-043417FM-15+0443SBLP V0201301N002612200019N0112651N1+03501+01401999999ADDGA1021+009001999GF102991999999999999999999MA1101291999999REMMET051METAR SBLP 291800Z 13005KT 9999 FEW030 35/14 Q1013;
0120832880999992010042919004-13267-043417FM-15+0443SBLP V0201101N002112200019N0112651N1+03401+01501999999ADDGA1021+009001999GF102991999999999999999999MA1101191999999REMMET051METAR SBLP 291900Z 11004KT 9999 FEW030 34/15 Q1012;
0072832880999992010042920004-13267-043417FM-15+0443SBLP V0201201N002119999999Y0099001N1+03201+01601999999ADDMA1101191999999REMMET045METAR SBLP 292000Z 12004KT CAVOK 32/16 Q1012;
0072832880999992010042921004-13267-043417FM-15+0443SBLP V0209999C000019999999Y0099001N1+03001+01701999999ADDMA1101291999999REMMET045METAR SBLP 292100Z 00000KT CAVOK 30/17 Q1013;
0072832880999992010043010004-13267-043417FM-15+0443SBLP V0209999C000019999999Y0099001N1+02101+01801999999ADDMA1101591999999REMMET045METAR SBLP 301000Z 00000KT CAVOK 21/18 Q1016;
0072832880999992010043011004-13267-043417FM-15+0443SBLP V0201501N003119999999Y0099001N1+02501+01801999999ADDMA1101691999999REMMET045METAR SBLP 301100Z 15006KT CAVOK 25/18 Q1017;
0072832880999992010043012004-13267-043417FM-15+0443SBLP V0201101N005119999999Y0099001N1+02801+01901999999ADDMA1101691999999REMMET045METAR SBLP 301200Z 11010KT CAVOK 28/19 Q1017;
0072832880999992010043013004-13267-043417FM-15+0443SBLP V0200801N003119999999Y0099001N1+03001+01801999999ADDMA1101691999999REMMET045METAR SBLP 301300Z 08006KT CAVOK 30/18 Q1017;
0072832880999992010043014004-13267-043417FM-15+0443SBLP V0209999C000019999999Y0099001N1+03101+01801999999ADDMA1101691999999REMMET045METAR SBLP 301400Z 00000KT CAVOK 31/18 Q1017;
0120832880999992010043015004-13267-043417FM-15+0443SBLP V0201201N003112200019N0112651N1+03201+01801999999ADDGA1021+009001999GF102991999999999999999999MA1101591999999REMMET051METAR SBLP 301500Z 12006KT 9999 FEW030 32/18 Q1016;
0120832880999992010043016004-13267-043417FM-15+0443SBLP V0201801N003112200019N0112651N1+03301+01801999999ADDGA1021+009001999GF102991999999999999999999MA1101491999999REMMET051METAR SBLP 301600Z 18006KT 9999 FEW030 33/18 Q1015;
0120832880999992010043017004-13267-043417FM-15+0443SBLP V0201801N003112200019N0112651N1+03401+01701999999ADDGA1021+009001999GF102991999999999999999999MA1101291999999REMMET051METAR SBLP 301700Z 18006KT 9999 FEW030 34/17 Q1013;
0120832880999992010043018004-13267-043417FM-15+0443SBLP V0201801N003112200019N0112651N1+03401+01701999999ADDGA1021+009001999GF102991999999999999999999MA1101291999999REMMET051METAR SBLP 301800Z 18006KT 9999 FEW030 34/17 Q1013;
0120832880999992010043019004-13267-043417FM-15+0443SBLP V0209999C000012200019N0112651N1+03401+01701999999ADDGA1021+009001999GF102991999999999999999999MA1101291999999REMMET051METAR SBLP 301900Z 00000KT 9999 FEW030 34/17 Q1013;
0072832880999992010043020004-13267-043417FM-15+0443SBLP V0209999C000019999999Y0099001N1+03301+01701999999ADDMA1101291999999REMMET045METAR SBLP 302000Z 00000KT CAVOK 33/17 Q1013;
0072832880999992010043021004-13267-043417FM-15+0443SBLP V0209999C000019999999Y0099001N1+03101+01801999999ADDMA1101291999999REMMET045METAR SBLP 302100Z 00000KT CAVOK 31/18 Q1013;
0072832880999992010050110004-13267-043417FM-15+0443SBLP V0209999C000019999999Y0099001N1+02301+01901999999ADDMA1101491999999REMMET045METAR SBLP 011000Z 00000KT CAVOK 23/19 Q1015;
0072832880999992010050111004-13267-043417FM-15+0443SBLP V0209999C000019999999Y0099001N1+02501+01901999999ADDMA1101591999999REMMET045METAR SBLP 011100Z 00000KT CAVOK 25/19 Q1016;
0072832880999992010050112004-13267-043417FM-15+0443SBLP V0209999C000019999999Y0099001N1+02701+01901999999ADDMA1101691999999REMMET045METAR SBLP 011200Z 00000KT CAVOK 27/19 Q1017;
0072832880999992010050113004-13267-043417FM-15+0443SBLP V0209999C000019999999Y0099001N1+03001+01901999999ADDMA1101691999999REMMET045METAR SBLP 011300Z 00000KT CAVOK 30/19 Q1017;
0072832880999992010050114004-13267-043417FM-15+0443SBLP V0209999C000019999999Y0099001N1+03101+01901999999ADDMA1101591999999REMMET045METAR SBLP 011400Z 00000KT CAVOK 31/19 Q1016;
0072832880999992010050115004-13267-043417FM-15+0443SBLP V0209999C000019999999Y0099001N1+03201+01801999999ADDMA1101491999999REMMET045METAR SBLP 011500Z 00000KT CAVOK 32/18 Q1015;
0120832880999992010050116004-13267-043417FM-15+0443SBLP V0209999C000012200019N0112651N1+03301+01801999999ADDGA1021+009001999GF102991999999999999999999MA1101391999999REMMET051METAR SBLP 011600Z 00000KT 9999 FEW030 33/18 Q1014;
0120832880999992010050117004-13267-043417FM-15+0443SBLP V0202401N003112200019N0112651N1+03401+01801999999ADDGA1021+009001999GF102991999999999999999999MA1101291999999REMMET051METAR SBLP 011700Z 24006KT 9999 FEW030 34/18 Q1013;
0120832880999992010050118004-13267-043417FM-15+0443SBLP V0201501N001512200019N0112651N1+03401+01701999999ADDGA1021+009001999GF102991999999999999999999MA1101191999999REMMET051METAR SBLP 011800Z 15003KT 9999 FEW030 34/17 Q1012;
0120832880999992010050119004-13267-043417FM-15+0443SBLP V0202201N002112200019N0112651N1+03401+01701999999ADDGA1021+009001999GF102991999999999999999999MA1101191999999REMMET051METAR SBLP 011900Z 22004KT 9999 FEW030 34/17 Q1012;
0120832880999992010050120004-13267-043417FM-15+0443SBLP V0201701N002612200019N0112651N1+03201+01801999999ADDGA1021+009001999GF102991999999999999999999MA1101191999999REMMET051METAR SBLP 012000Z 17005KT 9999 FEW030 32/18 Q1012;
0120832880999992010050121004-13267-043417FM-15+0443SBLP V0201501N001512200019N0112651N1+03001+01801999999ADDGA1021+009001999GF102991999999999999999999MA1101191999999REMMET051METAR SBLP 012100Z 15003KT 9999 FEW030 30/18 Q1012;
0072832880999992010050210004-13267-043417FM-15+0443SBLP V0209999C000019999999Y0099001N1+02301+02001999999ADDMA1101591999999REMMET045METAR SBLP 021000Z 00000KT CAVOK 23/20 Q1016;
0072832880999992010050211004-13267-043417FM-15+0443SBLP V0209999C000019999999Y0099001N1+02501+01901999999ADDMA1101691999999REMMET045METAR SBLP 021100Z 00000KT CAVOK 25/19 Q1017;
0072832880999992010050212004-13267-043417FM-15+0443SBLP V0209999C000019999999Y0099001N1+02801+01901999999ADDMA1101801999999REMMET045METAR SBLP 021200Z 00000KT CAVOK 28/19 Q1018;
0072832880999992010050213004-13267-043417FM-15+0443SBLP V0200901N003119999999Y0099001N1+03001+01801999999ADDMA1101801999999REMMET045METAR SBLP 021300Z 09006KT CAVOK 30/18 Q1018;
0072832880999992010050214004-13267-043417FM-15+0443SBLP V0200901N003119999999Y0099001N1+03101+01801999999ADDMA1101691999999REMMET045METAR SBLP 021400Z 09006KT CAVOK 31/18 Q1017;
0120832880999992010050215004-13267-043417FM-15+0443SBLP V0200901N003112200019N0112651N1+03101+01801999999ADDGA1021+009001999GF102991999999999999999999MA1101591999999REMMET051METAR SBLP 021500Z 09006KT 9999 FEW030 31/18 Q1016;
0120832880999992010050216004-13267-043417FM-15+0443SBLP V0201801N003112200019N0112651N1+03301+01901999999ADDGA1021+009001999GF102991999999999999999999MA1101491999999REMMET051METAR SBLP 021600Z 18006KT 9999 FEW030 33/19 Q1015;
0120832880999992010050217004-13267-043417FM-15+0443SBLP V0202101N005112200019N0112651N1+03401+02001999999ADDGA1041+009001999GF104991999999999999999999MA1101391999999REMMET051METAR SBLP 021700Z 21010KT 9999 SCT030 34/20 Q1014;
0120832880999992010050218004-13267-043417FM-15+0443SBLP V0201801N001512200019N0112651N1+03101+01901999999ADDGA1041+009001999GF104991999999999999999999MA1101291999999REMMET051METAR SBLP 021800Z 18003KT 9999 SCT030 31/19 Q1013;
0120832880999992010050219004-13267-043417FM-15+0443SBLP V0209999C000012200019N0112651N1+03301+01701999999ADDGA1021+009001999GF102991999999999999999999MA1101291999999REMMET051METAR SBLP 021900Z 00000KT 9999 FEW030 33/17 Q1013;
0120832880999992010050220004-13267-043417FM-15+0443SBLP V0201601N001512200019N0112651N1+03301+01801999999ADDGA1021+009001999GF102991999999999999999999MA1101391999999REMMET051METAR SBLP 022000Z 16003KT 9999 FEW030 33/18 Q1014;
0072832880999992010050221004-13267-043417FM-15+0443SBLP V0201501N002119999999Y0099001N1+02901+02001999999ADDMA1101391999999REMMET045METAR SBLP 022100Z 15004KT CAVOK 29/20 Q1014;
0072832880999992010050310004-13267-043417FM-15+0443SBLP V0209999C000019999999Y0099001N1+02301+01901999999ADDMA1101801999999REMMET045METAR SBLP 031000Z 00000KT CAVOK 23/19 Q1018;
0072832880999992010050311004-13267-043417FM-15+0443SBLP V0209999C000019999999Y0099001N1+02501+01901999999ADDMA1101901999999REMMET045METAR SBLP 031100Z 00000KT CAVOK 25/19 Q1019;
0072832880999992010050312004-13267-043417FM-15+0443SBLP V0201801N003119999999Y0099001N1+02701+01901999999ADDMA1101901999999REMMET045METAR SBLP 031200Z 18006KT CAVOK 27/19 Q1019;
0072832880999992010050313004-13267-043417FM-15+0443SBLP V0201801N003119999999Y0099001N1+03001+01801999999ADDMA1101801999999REMMET045METAR SBLP 031300Z 18006KT CAVOK 30/18 Q1018;
0072832880999992010050314004-13267-043417FM-15+0443SBLP V0201801N003119999999Y0099001N1+03101+01801999999ADDMA1101801999999REMMET045METAR SBLP 031400Z 18006KT CAVOK 31/18 Q1018;
0072832880999992010050315004-13267-043417FM-15+0443SBLP V0201801N003119999999Y0099001N1+03101+01801999999ADDMA1101691999999REMMET045METAR SBLP 031500Z 18006KT CAVOK 31/18 Q1017;
0120832880999992010050316004-13267-043417FM-15+0443SBLP V0201201N003112200019N0112651N1+03201+01901999999ADDGA1021+009001999GF102991999999999999999999MA1101591999999REMMET051METAR SBLP 031600Z 12006KT 9999 FEW030 32/19 Q1016;
0120832880999992010050317004-13267-043417FM-15+0443SBLP V0201801N003112200019N0112651N1+03301+01801999999ADDGA1021+009001999GF102991999999999999999999MA1101491999999REMMET051METAR SBLP 031700Z 18006KT 9999 FEW030 33/18 Q1015;
0120832880999992010050318004-13267-043417FM-15+0443SBLP V0201801N003112200019N0112651N1+03401+01801999999ADDGA1021+009001999GF102991999999999999999999MA1101391999999REMMET051METAR SBLP 031800Z 18006KT 9999 FEW030 34/18 Q1014;
0120832880999992010050319004-13267-043417FM-15+0443SBLP V0209999C000012200019N0112651N1+03401+01801999999ADDGA1021+009001999GF102991999999999999999999MA1101391999999REMMET051METAR SBLP 031900Z 00000KT 9999 FEW030 34/18 Q1014;
0120832880999992010050320004-13267-043417FM-15+0443SBLP V0201201N003112200019N0112651N1+03201+01901999999ADDGA1021+009001999GF102991999999999999999999MA1101391999999REMMET051METAR SBLP 032000Z 12006KT 9999 FEW030 32/19 Q1014;
0072832880999992010050321004-13267-043417FM-15+0443SBLP V0209999C000019999999Y0099001N1+02901+02001999999ADDMA1101391999999REMMET045METAR SBLP 032100Z 00000KT CAVOK 29/20 Q1014;
0072832880999992010050410004-13267-043417FM-15+0443SBLP V0209999C000019999999Y0099001N1+01901+01701999999ADDMA1101801999999REMMET045METAR SBLP 041000Z 00000KT CAVOK 19/17 Q1018;
0072832880999992010050411004-13267-043417FM-15+0443SBLP V0209999C000019999999Y0099001N1+02201+01701999999ADDMA1101801999999REMMET045METAR SBLP 041100Z 00000KT CAVOK 22/17 Q1018;
0072832880999992010050412004-13267-043417FM-15+0443SBLP V0201801N003119999999Y0099001N1+02601+01701999999ADDMA1101801999999REMMET045METAR SBLP 041200Z 18006KT CAVOK 26/17 Q1018;
0072832880999992010050413004-13267-043417FM-15+0443SBLP V0209999C000019999999Y0099001N1+02801+01701999999ADDMA1101801999999REMMET045METAR SBLP 041300Z 00000KT CAVOK 28/17 Q1018;
0072832880999992010050414004-13267-043417FM-15+0443SBLP V0209999C000019999999Y0099001N1+02901+01901999999ADDMA1101691999999REMMET045METAR SBLP 041400Z 00000KT CAVOK 29/19 Q1017;
0072832880999992010050415004-13267-043417FM-15+0443SBLP V0209999C000019999999Y0099001N1+03101+01901999999ADDMA1101591999999REMMET045METAR SBLP 041500Z 00000KT CAVOK 31/19 Q1016;
0120832880999992010050416004-13267-043417FM-15+0443SBLP V0202101N002112200019N0112651N1+03101+01701999999ADDGA1021+009001999GF102991999999999999999999MA1101491999999REMMET051METAR SBLP 041600Z 21004KT 9999 FEW030 31/17 Q1015;
0120832880999992010050418004-13267-043417FM-15+0443SBLP V0202701N002112200019N0112651N1+03301+01601999999ADDGA1021+009001999GF102991999999999999999999MA1101291999999REMMET051METAR SBLP 041800Z 27004KT 9999 FEW030 33/16 Q1013;
0120832880999992010050419004-13267-043417FM-15+0443SBLP V0202101N003112200019N0112651N1+03301+01601999999ADDGA1021+009001999GF102991999999999999999999MA1101291999999REMMET051METAR SBLP 041900Z 21006KT 9999 FEW030 33/16 Q1013;
0120832880999992010050420004-13267-043417FM-15+0443SBLP V0202501N002112200019N0112651N1+03101+01601999999ADDGA1021+009001999GF102991999999999999999999MA1101291999999REMMET051METAR SBLP 042000Z 25004KT 9999 FEW030 31/16 Q1013;
0072832880999992010050421004-13267-043417FM-15+0443SBLP V0209999C000019999999Y0099001N1+02901+01901999999ADDMA1101291999999REMMET045METAR SBLP 042100Z 00000KT CAVOK 29/19 Q1013;
0072832880999992010050510004-13267-043417FM-15+0443SBLP V0202401N001519999999Y0099001N1+01901+01601999999ADDMA1101491999999REMMET045METAR SBLP 051000Z 24003KT CAVOK 19/16 Q1015;
0072832880999992010050511004-13267-043417FM-15+0443SBLP V0201801N002119999999Y0099001N1+02301+01801999999ADDMA1101491999999REMMET045METAR SBLP 051100Z 18004KT CAVOK 23/18 Q1015;
0072832880999992010050512004-13267-043417FM-15+0443SBLP V0209999C000019999999Y0099001N1+02701+01901999999ADDMA1101491999999REMMET045METAR SBLP 051200Z 00000KT CAVOK 27/19 Q1015;
0072832880999992010050513004-13267-043417FM-15+0443SBLP V0200901N003119999999Y0099001N1+02901+01901999999ADDMA1101491999999REMMET045METAR SBLP 051300Z 09006KT CAVOK 29/19 Q1015;
0072832880999992010050514004-13267-043417FM-15+0443SBLP V0201801N002119999999Y0099001N1+03001+01901999999ADDMA1101491999999REMMET045METAR SBLP 051400Z 18004KT CAVOK 30/19 Q1015;
0120832880999992010050515004-13267-043417FM-15+0443SBLP V0201801N003112200019N0112651N1+03101+01801999999ADDGA1021+009001999GF102991999999999999999999MA1101391999999REMMET051METAR SBLP 051500Z 18006KT 9999 FEW030 31/18 Q1014;
0120832880999992010050516004-13267-043417FM-15+0443SBLP V0201801N003112200019N0112651N1+03201+01801999999ADDGA1021+009001999GF102991999999999999999999MA1101191999999REMMET051METAR SBLP 051600Z 18006KT 9999 FEW030 32/18 Q1012;
0120832880999992010050517004-13267-043417FM-15+0443SBLP V0201801N003112200019N0112651N1+03301+01801999999ADDGA1021+009001999GF102991999999999999999999MA1101081999999REMMET051METAR SBLP 051700Z 18006KT 9999 FEW030 33/18 Q1011;
0120832880999992010050518004-13267-043417FM-15+0443SBLP V0201801N003112200019N0112651N1+03501+01701999999ADDGA1021+009001999GF102991999999999999999999MA1101081999999REMMET051METAR SBLP 051800Z 18006KT 9999 FEW030 35/17 Q1011;
0072832880999992010050519004-13267-043417FM-15+0443SBLP V0201801N003119999999Y0099001N1+03401+01701999999ADDMA1101081999999REMMET045METAR SBLP 051900Z 18006KT CAVOK 34/17 Q1011;
0072832880999992010050520004-13267-043417FM-15+0443SBLP V0209999C000019999999Y0099001N1+03401+01701999999ADDMA1101081999999REMMET045METAR SBLP 052000Z 00000KT CAVOK 34/17 Q1011;
0072832880999992010050521004-13267-043417FM-15+0443SBLP V0209999C000019999999Y0099001N1+03101+01901999999ADDMA1101081999999REMMET045METAR SBLP 052100Z 00000KT CAVOK 31/19 Q1011;
0072832880999992010050610004-13267-043417FM-15+0443SBLP V0209999C000019999999Y0099001N1+02401+01901999999ADDMA1101491999999REMMET045METAR SBLP 061000Z 00000KT CAVOK 24/19 Q1015;
0072832880999992010050611004-13267-043417FM-15+0443SBLP V0209999C000019999999Y0099001N1+02601+01801999999ADDMA1101591999999REMMET045METAR SBLP 061100Z 00000KT CAVOK 26/18 Q1016;
0072832880999992010050612004-13267-043417FM-15+0443SBLP V0200901N003119999999Y0099001N1+02801+01801999999ADDMA1101591999999REMMET045METAR SBLP 061200Z 09006KT CAVOK 28/18 Q1016;
0072832880999992010050613004-13267-043417FM-15+0443SBLP V0200901N003119999999Y0099001N1+03101+01801999999ADDMA1101591999999REMMET045METAR SBLP 061300Z 09006KT CAVOK 31/18 Q1016;
0120832880999992010050614004-13267-043417FM-15+0443SBLP V0200901N003112200019N0112651N1+03201+01801999999ADDGA1021+009001999GF102991999999999999999999MA1101591999999REMMET051METAR SBLP 061400Z 09006KT 9999 FEW030 32/18 Q1016;
0120832880999992010050615004-13267-043417FM-15+0443SBLP V0200901N003112200019N0112651N1+03301+01801999999ADDGA1021+009001999GF102991999999999999999999MA1101491999999REMMET051METAR SBLP 061500Z 09006KT 9999 FEW030 33/18 Q1015;
0120832880999992010050616004-13267-043417FM-15+0443SBLP V0209999C000012200019N0112651N1+03401+01401999999ADDGA1021+009001999GF102991999999999999999999MA1101291999999REMMET051METAR SBLP 061600Z 00000KT 9999 FEW030 34/14 Q1013;
0120832880999992010050617004-13267-043417FM-15+0443SBLP V0202701N003112200019N0112651N1+03501+02001999999ADDGA1021+009001999GF102991999999999999999999MA1101291999999REMMET051METAR SBLP 061700Z 27006KT 9999 FEW030 35/20 Q1013;
0120832880999992010050618004-13267-043417FM-15+0443SBLP V0201801N002112200019N0112651N1+03501+01901999999ADDGA1041+009001999GF104991999999999999999999MA1101191999999REMMET051METAR SBLP 061800Z 18004KT 9999 SCT030 35/19 Q1012;
0120832880999992010050619004-13267-043417FM-15+0443SBLP V0202101N003112200019N0112651N1+03501+01901999999ADDGA1041+009001999GF104991999999999999999999MA1101191999999REMMET051METAR SBLP 061900Z 21006KT 9999 SCT030 35/19 Q1012;
0120832880999992010050620004-13267-043417FM-15+0443SBLP V0209999C000012200019N0112651N1+03401+02101999999ADDGA1041+009001999GF104991999999999999999999MA1101291999999REMMET051METAR SBLP 062000Z 00000KT 9999 SCT030 34/21 Q1013;
0120832880999992010050621004-13267-043417FM-15+0443SBLP V0201101N001012200019N0112651N1+03301+01901999999ADDGA1041+009001999GF104991999999999999999999MA1101291999999REMMET051METAR SBLP 062100Z 11002KT 9999 SCT030 33/19 Q1013;
0072832880999992010050710004-13267-043417FM-15+0443SBLP V0201201N001019999999Y0099001N1+02201+02001999999ADDMA1101591999999REMMET045METAR SBLP 071000Z 12002KT CAVOK 22/20 Q1016;
0072832880999992010050711004-13267-043417FM-15+0443SBLP V0201201N001019999999Y0099001N1+02701+02201999999ADDMA1101691999999REMMET045METAR SBLP 071100Z 12002KT CAVOK 27/22 Q1017;
0072832880999992010050712004-13267-043417FM-15+0443SBLP V0201201N002119999999Y0099001N1+02901+02001999999ADDMA1101691999999REMMET045METAR SBLP 071200Z 12004KT CAVOK 29/20 Q1017;
0072832880999992010050713004-13267-043417FM-15+0443SBLP V0201201N002119999999Y0099001N1+02901+02001999999ADDMA1101691999999REMMET045METAR SBLP 071300Z 12004KT CAVOK 29/20 Q1017;
0120832880999992010050714004-13267-043417FM-15+0443SBLP V0209999C000012200019N0112651N1+03101+02001999999ADDGA1021+009001999GF102991999999999999999999MA1101691999999REMMET051METAR SBLP 071400Z 00000KT 9999 FEW030 31/20 Q1017;
0120832880999992010050715004-13267-043417FM-15+0443SBLP V0201201N001512200019N0112651N1+03401+01901999999ADDGA1021+009001999GF102991999999999999999999MA1101591999999REMMET051METAR SBLP 071500Z 12003KT 9999 FEW030 34/19 Q1016;
0120832880999992010050716004-13267-043417FM-15+0443SBLP V0209999C000012200019N0112651N1+03401+01901999999ADDGA1041+009001999GF104991999999999999999999MA1101491999999REMMET051METAR SBLP 071600Z 00000KT 9999 SCT030 34/19 Q1015;
0120832880999992010050717004-13267-043417FM-15+0443SBLP V0201201N004112200019N0112651N1+03401+02001999999ADDGA1041+009001999GF104991999999999999999999MA1101291999999REMMET051METAR SBLP 071700Z 12008KT 9999 SCT030 34/20 Q1013;
0120832880999992010050718004-13267-043417FM-15+0443SBLP V0202101N003112200019N0112651N1+03501+02001999999ADDGA1021+009001999GF102991999999999999999999MA1101291999999REMMET051METAR SBLP 071800Z 21006KT 9999 FEW030 35/20 Q1013;
0120832880999992010050719004-13267-043417FM-15+0443SBLP V0209999C000012200019N0112651N1+03401+02001999999ADDGA1021+009001999GF102991999999999999999999MA1101291999999REMMET051METAR SBLP 071900Z 00000KT 9999 FEW030 34/20 Q1013;
0072832880999992010050720004-13267-043417FM-15+0443SBLP V0209999C000019999999Y0099001N1+03201+02001999999ADDMA1101291999999REMMET045METAR SBLP 072000Z 00000KT CAVOK 32/20 Q1013;
0072832880999992010050721004-13267-043417FM-15+0443SBLP V0209999C000019999999Y0099001N1+03001+02201999999ADDMA1101291999999REMMET045METAR SBLP 072100Z 00000KT CAVOK 30/22 Q1013;
0072832880999992010050810004-13267-043417FM-15+0443SBLP V0209999C000019999999Y0099001N1+02201+01801999999ADDMA1101591999999REMMET045METAR SBLP 081000Z 00000KT CAVOK 22/18 Q1016;
0072832880999992010050811004-13267-043417FM-15+0443SBLP V0200901N002119999999Y0099001N1+02601+01801999999ADDMA1101591999999REMMET045METAR SBLP 081100Z 09004KT CAVOK 26/18 Q1016;
0072832880999992010050812004-13267-043417FM-15+0443SBLP V0200701N002119999999Y0099001N1+02901+01701999999ADDMA1101591999999REMMET045METAR SBLP 081200Z 07004KT CAVOK 29/17 Q1016;
0072832880999992010050813004-13267-043417FM-15+0443SBLP V0200401N003119999999Y0099001N1+03201+01601999999ADDMA1101691999999REMMET045METAR SBLP 081300Z 04006KT CAVOK 32/16 Q1017;
0072832880999992010050815004-13267-043417FM-15+0443SBLP V0209999C000019999999Y0099001N1+03301+01701999999ADDMA1101391999999REMMET045METAR SBLP 081500Z 00000KT CAVOK 33/17 Q1014;
0072832880999992010050816004-13267-043417FM-15+0443SBLP V0201601N004119999999Y0099001N1+03401+01901999999ADDMA1101291999999REMMET045METAR SBLP 081600Z 16008KT CAVOK 34/19 Q1013;
0120832880999992010050817004-13267-043417FM-15+0443SBLP V0201201N005112200019N0112651N1+03501+01801999999ADDGA1021+009001999GF102991999999999999999999MA1101191999999REMMET051METAR SBLP 081700Z 12010KT 9999 FEW030 35/18 Q1012;
0120832880999992010050818004-13267-043417FM-15+0443SBLP V0202401N002112200019N0112651N1+03401+01801999999ADDGA1021+009001999GF102991999999999999999999MA1101081999999REMMET051METAR SBLP 081800Z 24004KT 9999 FEW030 34/18 Q1011;
0120832880999992010050819004-13267-043417FM-15+0443SBLP V0202701N003112200019N0112651N1+03501+01701999999ADDGA1021+009001999GF102991999999999999999999MA1101081999999REMMET051METAR SBLP 081900Z 27006KT 9999 FEW030 35/17 Q1011;
0072832880999992010050820004-13267-043417FM-15+0443SBLP V0202401N001519999999Y0099001N1+03401+01801999999ADDMA1101191999999REMMET045METAR SBLP 082000Z 24003KT CAVOK 34/18 Q1012;
0072832880999992010050821004-13267-043417FM-15+0443SBLP V0202701N002119999999Y0099001N1+03201+01901999999ADDMA1101191999999REMMET045METAR SBLP 082100Z 27004KT CAVOK 32/19 Q1012;
0072832880999992010050910004-13267-043417FM-15+0443SBLP V0209999C000019999999Y0099001N1+02001+01901999999ADDMA1101491999999REMMET045METAR SBLP 091000Z 00000KT CAVOK 20/19 Q1015;
0072832880999992010050912004-13267-043417FM-15+0443SBLP V0209999C000019999999Y0099001N1+02801+02001999999ADDMA1101591999999REMMET045METAR SBLP 091200Z 00000KT CAVOK 28/20 Q1016;
0072832880999992010050913004-13267-043417FM-15+0443SBLP V0209999C000019999999Y0099001N1+03001+01901999999ADDMA1101591999999REMMET045METAR SBLP 091300Z 00000KT CAVOK 30/19 Q1016;
0072832880999992010050914004-13267-043417FM-15+0443SBLP V0203301N003119999999Y0099001N1+03201+01801999999ADDMA1101491999999REMMET045METAR SBLP 091400Z 33006KT CAVOK 32/18 Q1015;
0072832880999992010050916004-13267-043417FM-15+0443SBLP V0209999C000019999999Y0099001N1+03401+01601999999ADDMA1101291999999REMMET045METAR SBLP 091600Z 00000KT CAVOK 34/16 Q1013;
0072832880999992010050917004-13267-043417FM-15+0443SBLP V0202101N002119999999Y0099001N1+03501+01601999999ADDMA1101191999999REMMET045METAR SBLP 091700Z 21004KT CAVOK 35/16 Q1012;
0072832880999992010050918004-13267-043417FM-15+0443SBLP V0202101N003119999999Y0099001N1+03501+01501999999ADDMA1101081999999REMMET045METAR SBLP 091800Z 21006KT CAVOK 35/15 Q1011;
0072832880999992010050920004-13267-043417FM-15+0443SBLP V0202101N002119999999Y0099001N1+03401+01801999999ADDMA1101081999999REMMET045METAR SBLP 092000Z 21004KT CAVOK 34/18 Q1011;
0072832880999992010050921004-13267-043417FM-15+0443SBLP V0209999C000019999999Y0099001N1+03101+01901999999ADDMA1101081999999REMMET045METAR SBLP 092100Z 00000KT CAVOK 31/19 Q1011;
0072832880999992010051010004-13267-043417FM-15+0443SBLP V0203401N002119999999Y0099001N1+02201+01801999999ADDMA1101291999999REMMET045METAR SBLP 101000Z 34004KT CAVOK 22/18 Q1013;
0072832880999992010051011004-13267-043417FM-15+0443SBLP V0209999C000019999999Y0099001N1+02501+01901999999ADDMA1101391999999REMMET045METAR SBLP 101100Z 00000KT CAVOK 25/19 Q1014;
0072832880999992010051012004-13267-043417FM-15+0443SBLP V0203001N002119999999Y0099001N1+02701+01901999999ADDMA1101391999999REMMET045METAR SBLP 101200Z 30004KT CAVOK 27/19 Q1014;
0072832880999992010051013004-13267-043417FM-15+0443SBLP V0203301N002119999999Y0099001N1+03001+01801999999ADDMA1101391999999REMMET045METAR SBLP 101300Z 33004KT CAVOK 30/18 Q1014;
0072832880999992010051014004-13267-043417FM-15+0443SBLP V0203001N003119999999Y0099001N1+03201+01801999999ADDMA1101291999999REMMET045METAR SBLP 101400Z 30006KT CAVOK 32/18 Q1013;
0120832880999992010051015004-13267-043417FM-15+0443SBLP V0202601N003112200019N0112651N1+03301+01801999999ADDGA1021+009001999GF102991999999999999999999MA1101191999999REMMET051METAR SBLP 101500Z 26006KT 9999 FEW030 33/18 Q1012;
0120832880999992010051016004-13267-043417FM-15+0443SBLP V0202401N003112200019N0112651N1+03401+01801999999ADDGA1021+009001999GF102991999999999999999999MA1101081999999REMMET051METAR SBLP 101600Z 24006KT 9999 FEW030 34/18 Q1011;
0120832880999992010051017004-13267-043417FM-15+0443SBLP V0201801N003112200019N0112651N1+03501+01801999999ADDGA1021+009001999GF102991999999999999999999MA1101021999999REMMET051METAR SBLP 101700Z 18006KT 9999 FEW030 35/18 Q1010;
0120832880999992010051018004-13267-043417FM-15+0443SBLP V0201801N003112200019N0112651N1+03501+01801999999ADDGA1021+009001999GF102991999999999999999999MA1100911999999REMMET051METAR SBLP 101800Z 18006KT 9999 FEW030 35/18 Q1009;
0072832880999992010051019004-13267-043417FM-15+0443SBLP V0201801N003119999999Y0099001N1+03501+01801999999ADDMA1100911999999REMMET045METAR SBLP 101900Z 18006KT CAVOK 35/18 Q1009;
0072832880999992010051020004-13267-043417FM-15+0443SBLP V0209999C000019999999Y0099001N1+03401+01801999999ADDMA1101021999999REMMET045METAR SBLP 102000Z 00000KT CAVOK 34/18 Q1010;
0072832880999992010051021004-13267-043417FM-15+0443SBLP V0209999C000019999999Y0099001N1+03301+01901999999ADDMA1101021999999REMMET045METAR SBLP 102100Z 00000KT CAVOK 33/19 Q1010;
0072832880999992010051110004-13267-043417FM-15+0443SBLP V0209999C000019999999Y0099001N1+02401+02001999999ADDMA1101291999999REMMET045METAR SBLP 111000Z 00000KT CAVOK 24/20 Q1013;
0072832880999992010051111004-13267-043417FM-15+0443SBLP V0209999C000019999999Y0099001N1+02701+02001999999ADDMA1101391999999REMMET045METAR SBLP 111100Z 00000KT CAVOK 27/20 Q1014;
0072832880999992010051112004-13267-043417FM-15+0443SBLP V0209999C000019999999Y0099001N1+02901+01901999999ADDMA1101491999999REMMET045METAR SBLP 111200Z 00000KT CAVOK 29/19 Q1015;
0072832880999992010051113004-13267-043417FM-15+0443SBLP V0209999C000019999999Y0099001N1+03101+01901999999ADDMA1101491999999REMMET045METAR SBLP 111300Z 00000KT CAVOK 31/19 Q1015;
0120832880999992010051114004-13267-043417FM-15+0443SBLP V0203601N003112200019N0112651N1+03301+01801999999ADDGA1021+009001999GF102991999999999999999999MA1101391999999REMMET051METAR SBLP 111400Z 36006KT 9999 FEW030 33/18 Q1014;
0120832880999992010051115004-13267-043417FM-15+0443SBLP V0203601N003112200019N0112651N1+03301+01801999999ADDGA1021+009001999GF102991999999999999999999MA1101291999999REMMET051METAR SBLP 111500Z 36006KT 9999 FEW030 33/18 Q1013;
0120832880999992010051116004-13267-043417FM-15+0443SBLP V0203401N003112200019N0112651N1+03401+02001999999ADDGA1041+009001999GF104991999999999999999999MA1101191999999REMMET051METAR SBLP 111600Z 34006KT 9999 SCT030 34/20 Q1012;
0120832880999992010051117004-13267-043417FM-15+0443SBLP V0203401N001512200019N0112651N1+03501+02001999999ADDGA1041+009001999GF104991999999999999999999MA1101081999999REMMET051METAR SBLP 111700Z 34003KT 9999 SCT030 35/20 Q1011;
0143832880999992010051118004-13267-043417FM-15+0443SBLP V0202101N002112200019N0112651N1+03301+02001999999ADDGA1041+009001999GA2041+030001999GF104991999999999999999999MA1101081999999REMMET058METAR SBLP 111800Z 21004KT 9999 SCT030 SCT100 33/20 Q1011;
0143832880999992010051119004-13267-043417FM-15+0443SBLP V0202401N001510300019N0112651N1+03201+02001999999ADDGA1021+009001999GA2071+030001999GF107991999999999999999999MA1101081999999REMMET058METAR SBLP 111900Z 24003KT 9999 FEW030 BKN100 32/20 Q1011;
0143832880999992010051120004-13267-043417FM-15+0443SBLP V0202101N001512200019N0112651N1+03201+02101999999ADDGA1021+009001999GA2041+030001999GF104991999999999999999999MA1101081999999REMMET058METAR SBLP 112000Z 21003KT 9999 FEW030 SCT100 32/21 Q1011;
0072832880999992010051121004-13267-043417FM-15+0443SBLP V0202101N002119999999Y0099001N1+02901+02201999999ADDMA1101081999999REMMET045METAR SBLP 112100Z 21004KT CAVOK 29/22 Q1011;
0153832880999992010051210004-13267-043417FM-15+0443SBLP V0201201N003110300019N0112651N1+02301+02201999999ADDGA1041+006901999GA2071+030001999GF107991999999999999999999MA1101391999999MW1611REMMET062METAR SBLP 121000Z 12006KT 9999 -RA SCT023 BKN100 23/22 Q1014;
0143832880999992010051211004-13267-043417FM-15+0443SBLP V0200901N001510300019N0112651N1+02301+02201999999ADDGA1041+006901999GA2071+030001999GF107991999999999999999999MA1101391999999REMMET058METAR SBLP 121100Z 09003KT 9999 SCT023 BKN100 23/22 Q1014;
0143832880999992010051212004-13267-043417FM-15+0443SBLP V0209999C000010300019N0112651N1+02501+02201999999ADDGA1021+006901999GA2071+030001999GF107991999999999999999999MA1101491999999REMMET058METAR SBLP 121200Z 00000KT 9999 FEW023 BKN100 25/22 Q1015;
0143832880999992010051213004-13267-043417FM-15+0443SBLP V0209999C000012200019N0112651N1+02701+02001999999ADDGA1021+008101999GA2041+030001999GF104991999999999999999999MA1101491999999REMMET058METAR SBLP 121300Z 00000KT 9999 FEW027 SCT100 27/20 Q1015;
0143832880999992010051214004-13267-043417FM-15+0443SBLP V0209999C000012200019N0112651N1+02901+02201999999ADDGA1021+009001999GA2041+030001999GF104991999999999999999999MA1101391999999REMMET058METAR SBLP 121400Z 00000KT 9999 FEW030 SCT100 29/22 Q1014;
0120832880999992010051215004-13267-043417FM-15+0443SBLP V0200301N001512200019N0112651N1+03001+02101999999ADDGA1021+009001999GF102991999999999999999999MA1101291999999REMMET051METAR SBLP 121500Z 03003KT 9999 FEW030 30/21 Q1013;
0120832880999992010051216004-13267-043417FM-15+0443SBLP V0209999C000012200019N0112651N1+03101+02101999999ADDGA1021+009001999GF102991999999999999999999MA1101191999999REMMET051METAR SBLP 121600Z 00000KT 9999 FEW030 31/21 Q1012;
0120832880999992010051217004-13267-043417FM-15+0443SBLP V0209999C000012200019N0112651N1+03201+02001999999ADDGA1041+009001999GF104991999999999999999999MA1101081999999REMMET051METAR SBLP 121700Z 00000KT 9999 SCT030 32/20 Q1011;
0120832880999992010051218004-13267-043417FM-15+0443SBLP V0201801N003112200019N0112651N1+03301+02001999999ADDGA1041+009001999GF104991999999999999999999MA1101021999999REMMET051METAR SBLP 121800Z 18006KT 9999 SCT030 33/20 Q1010;
0120832880999992010051219004-13267-043417FM-15+0443SBLP V0201801N003112200019N0112651N1+03201+02001999999ADDGA1041+009001999GF104991999999999999999999MA1101021999999REMMET051METAR SBLP 121900Z 18006KT 9999 SCT030 32/20 Q1010;
0120832880999992010051220004-13267-043417FM-15+0443SBLP V0209999C000012200019N0112651N1+03101+02001999999ADDGA1041+009001999GF104991999999999999999999MA1101081999999REMMET051METAR SBLP 122000Z 00000KT 9999 SCT030 31/20 Q1011;
0120832880999992010051221004-13267-043417FM-15+0443SBLP V0209999C000012200019N0112651N1+03001+02001999999ADDGA1041+009001999GF104991999999999999999999MA1101191999999REMMET051METAR SBLP 122100Z 00000KT 9999 SCT030 30/20 Q1012;
0072832880999992010051310004-13267-043417FM-15+0443SBLP V0202301N001019999999Y0099001N1+02401+02301999999ADDMA1101491999999REMMET045METAR SBLP 131000Z 23002KT CAVOK 24/23 Q1015;
0072832880999992010051311004-13267-043417FM-15+0443SBLP V0209999C000019999999Y0099001N1+02601+02301999999ADDMA1101491999999REMMET045METAR SBLP 131100Z 00000KT CAVOK 26/23 Q1015;
0072832880999992010051312004-13267-043417FM-15+0443SBLP V0209999C000019999999Y0099001N1+02801+02201999999ADDMA1101591999999REMMET045METAR SBLP 131200Z 00000KT CAVOK 28/22 Q1016;
0072832880999992010051313004-13267-043417FM-15+0443SBLP V0209999C000019999999Y0099001N1+03101+02201999999ADDMA1101591999999REMMET045METAR SBLP 131300Z 00000KT CAVOK 31/22 Q1016;
0120832880999992010051314004-13267-043417FM-15+0443SBLP V0209999C000012200019N0112651N1+03101+02301999999ADDGA1021+009001999GF102991999999999999999999MA1101491999999REMMET051METAR SBLP 131400Z 00000KT 9999 FEW030 31/23 Q1015;
0143832880999992010051315004-13267-043417FM-15+0443SBLP V0202701N002112200019N0112651N1+03301+02101999999ADDGA1021+009001999GA2041+090001999GF104991999999999999999999MA1101391999999REMMET058METAR SBLP 131500Z 27004KT 9999 FEW030 SCT300 33/21 Q1014;
0143832880999992010051317004-13267-043417FM-15+0443SBLP V0201801N003110300019N0112651N1+03401+02101999999ADDGA1021+009001999GA2071+030001999GF107991999999999999999999MA1101291999999REMMET058METAR SBLP 131700Z 18006KT 9999 FEW030 BKN100 34/21 Q1013;
0143832880999992010051318004-13267-043417FM-15+0443SBLP V0202101N003112200019N0112651N1+03401+02101999999ADDGA1021+009001999GA2041+090001999GF104991999999999999999999MA1101191999999REMMET058METAR SBLP 131800Z 21006KT 9999 FEW030 SCT300 34/21 Q1012;
0120832880999992010051319004-13267-043417FM-15+0443SBLP V0201801N003112200019N0112651N1+03301+02101999999ADDGA1021+009001999GF102991999999999999999999MA1101191999999REMMET051METAR SBLP 131900Z 18006KT 9999 FEW030 33/21 Q1012;
0072832880999992010051320004-13267-043417FM-15+0443SBLP V0209999C000019999999Y0099001N1+03101+02201999999ADDMA1101191999999REMMET045METAR SBLP 132000Z 00000KT CAVOK 31/22 Q1012;
0072832880999992010051321004-13267-043417FM-15+0443SBLP V0209999C000019999999Y0099001N1+02901+02301999999ADDMA1101191999999REMMET045METAR SBLP 132100Z 00000KT CAVOK 29/23 Q1012;
0072832880999992010051410004-13267-043417FM-15+0443SBLP V0209999C000019999999Y0099001N1+02301+02101999999ADDMA1101591999999REMMET045METAR SBLP 141000Z 00000KT CAVOK 23/21 Q1016;
0072832880999992010051411004-13267-043417FM-15+0443SBLP V0209999C000019999999Y0099001N1+02501+02101999999ADDMA1101691999999REMMET045METAR SBLP 141100Z 00000KT CAVOK 25/21 Q1017;
0072832880999992010051412004-13267-043417FM-15+0443SBLP V0209999C000019999999Y0099001N1+02801+02001999999ADDMA1101691999999REMMET045METAR SBLP 141200Z 00000KT CAVOK 28/20 Q1017;
0072832880999992010051413004-13267-043417FM-15+0443SBLP V0209999C000019999999Y0099001N1+03001+02001999999ADDMA1101691999999REMMET045METAR SBLP 141300Z 00000KT CAVOK 30/20 Q1017;
0072832880999992010051414004-13267-043417FM-15+0443SBLP V0209999C000019999999Y0099001N1+03101+01901999999ADDMA1101591999999REMMET045METAR SBLP 141400Z 00000KT CAVOK 31/19 Q1016;
0072832880999992010051415004-13267-043417FM-15+0443SBLP V0209999C000019999999Y0099001N1+03201+01901999999ADDMA1101591999999REMMET045METAR SBLP 141500Z 00000KT CAVOK 32/19 Q1016;
0120832880999992010051416004-13267-043417FM-15+0443SBLP V0202101N003112200019N0112651N1+03401+02201999999ADDGA1021+009001999GF102991999999999999999999MA1101391999999REMMET051METAR SBLP 141600Z 21006KT 9999 FEW030 34/22 Q1014;
0120832880999992010051417004-13267-043417FM-15+0443SBLP V0202401N003112200019N0112651N1+03401+02101999999ADDGA1021+009001999GF102991999999999999999999MA1101291999999REMMET051METAR SBLP 141700Z 24006KT 9999 FEW030 34/21 Q1013;
0120832880999992010051419004-13267-043417FM-15+0443SBLP V0202601N003112200019N0112651N1+03501+02101999999ADDGA1021+009001999GF102991999999999999999999MA1101191999999REMMET051METAR SBLP 141900Z 26006KT 9999 FEW030 35/21 Q1012;
0120832880999992010051420004-13267-043417FM-15+0443SBLP V0202101N001512200019N0112651N1+03401+02101999999ADDGA1021+009001999GF102991999999999999999999MA1101191999999REMMET051METAR SBLP 142000Z 21003KT 9999 FEW030 34/21 Q1012;
0120832880999992010051421004-13267-043417FM-15+0443SBLP V0209999C000012200019N0112651N1+03201+02301999999ADDGA1021+009001999GF102991999999999999999999MA1101291999999REMMET051METAR SBLP 142100Z 00000KT 9999 FEW030 32/23 Q1013;
0072832880999992010051510004-13267-043417FM-15+0443SBLP V0201201N002119999999Y0099001N1+02301+02101999999ADDMA1101591999999REMMET045METAR SBLP 151000Z 12004KT CAVOK 23/21 Q1016;
0072832880999992010051511004-13267-043417FM-15+0443SBLP V0201601N003119999999Y0099001N1+02601+02201999999ADDMA1101691999999REMMET045METAR SBLP 151100Z 16006KT CAVOK 26/22 Q1017;
0072832880999992010051512004-13267-043417FM-15+0443SBLP V0201201N003119999999Y0099001N1+02901+02101999999ADDMA1101691999999REMMET045METAR SBLP 151200Z 12006KT CAVOK 29/21 Q1017;
0120832880999992010051513004-13267-043417FM-15+0443SBLP V0200901N003112200019N0112651N1+03101+02101999999ADDGA1021+009001999GF102991999999999999999999MA1101691999999REMMET051METAR SBLP 151300Z 09006KT 9999 FEW030 31/21 Q1017;
0120832880999992010051514004-13267-043417FM-15+0443SBLP V0209999C000012200019N0112651N1+03201+02201999999ADDGA1021+009001999GF102991999999999999999999MA1101691999999REMMET051METAR SBLP 151400Z 00000KT 9999 FEW030 32/22 Q1017;
0120832880999992010051515004-13267-043417FM-15+0443SBLP V0201901N002112200019N0112651N1+03301+02101999999ADDGA1041+009001999GF104991999999999999999999MA1101591999999REMMET051METAR SBLP 151500Z 19004KT 9999 SCT030 33/21 Q1016;
0120832880999992010051516004-13267-043417FM-15+0443SBLP V0202701N003112200019N0112651N1+03401+02001999999ADDGA1041+009001999GF104991999999999999999999MA1101391999999REMMET051METAR SBLP 151600Z 27006KT 9999 SCT030 34/20 Q1014;
0120832880999992010051517004-13267-043417FM-15+0443SBLP V0202701N003112200019N0112651N1+03501+01901999999ADDGA1041+009001999GF104991999999999999999999MA1101291999999REMMET051METAR SBLP 151700Z 27006KT 9999 SCT030 35/19 Q1013;
0120832880999992010051518004-13267-043417FM-15+0443SBLP V0201801N003112200019N0112651N1+03601+01901999999ADDGA1041+009001999GF104991999999999999999999MA1101191999999REMMET051METAR SBLP 151800Z 18006KT 9999 SCT030 36/19 Q1012;
0120832880999992010051519004-13267-043417FM-15+0443SBLP V0201801N003112200019N0112651N1+03501+01901999999ADDGA1021+009001999GF102991999999999999999999MA1101291999999REMMET051METAR SBLP 151900Z 18006KT 9999 FEW030 35/19 Q1013;
0120832880999992010051520004-13267-043417FM-15+0443SBLP V0201801N003112200019N0112651N1+03401+01901999999ADDGA1021+009001999GF102991999999999999999999MA1101291999999REMMET051METAR SBLP 152000Z 18006KT 9999 FEW030 34/19 Q1013;
0072832880999992010051521004-13267-043417FM-15+0443SBLP V0201801N003119999999Y0099001N1+03101+02001999999ADDMA1101291999999REMMET045METAR SBLP 152100Z 18006KT CAVOK 31/20 Q1013;
0072832880999992010051610004-13267-043417FM-15+0443SBLP V0202201N002119999999Y0099001N1+02201+02101999999ADDMA1101591999999REMMET045METAR SBLP 161000Z 22004KT CAVOK 22/21 Q1016;
0072832880999992010051611004-13267-043417FM-15+0443SBLP V0201801N003119999999Y0099001N1+02401+02101999999ADDMA1101691999999REMMET045METAR SBLP 161100Z 18006KT CAVOK 24/21 Q1017;
0072832880999992010051612004-13267-043417FM-15+0443SBLP V0201801N003119999999Y0099001N1+02701+02101999999ADDMA1101691999999REMMET045METAR SBLP 161200Z 18006KT CAVOK 27/21 Q1017;
0072832880999992010051613004-13267-043417FM-15+0443SBLP V0201201N003119999999Y0099001N1+02901+02101999999ADDMA1101691999999REMMET045METAR SBLP 161300Z 12006KT CAVOK 29/21 Q1017;
0120832880999992010051614004-13267-043417FM-15+0443SBLP V0201801N003112200019N0112651N1+03001+02101999999ADDGA1021+009001999GF102991999999999999999999MA1101591999999REMMET051METAR SBLP 161400Z 18006KT 9999 FEW030 30/21 Q1016;
0120832880999992010051615004-13267-043417FM-15+0443SBLP V0201801N003112200019N0112651N1+03101+02101999999ADDGA1021+009001999GF102991999999999999999999MA1101491999999REMMET051METAR SBLP 161500Z 18006KT 9999 FEW030 31/21 Q1015;
0120832880999992010051616004-13267-043417FM-15+0443SBLP V0201801N003112200019N0112651N1+03301+02001999999ADDGA1041+009001999GF104991999999999999999999MA1101391999999REMMET051METAR SBLP 161600Z 18006KT 9999 SCT030 33/20 Q1014;
0120832880999992010051617004-13267-043417FM-15+0443SBLP V0201801N003112200019N0112651N1+03401+01901999999ADDGA1041+009001999GF104991999999999999999999MA1101291999999REMMET051METAR SBLP 161700Z 18006KT 9999 SCT030 34/19 Q1013;
0120832880999992010051618004-13267-043417FM-15+0443SBLP V0201801N003112200019N0112651N1+03501+01901999999ADDGA1041+009001999GF104991999999999999999999MA1101191999999REMMET051METAR SBLP 161800Z 18006KT 9999 SCT030 35/19 Q1012;
0120832880999992010051619004-13267-043417FM-15+0443SBLP V0201801N003112200019N0112651N1+03501+01901999999ADDGA1021+009001999GF102991999999999999999999MA1101191999999REMMET051METAR SBLP 161900Z 18006KT 9999 FEW030 35/19 Q1012;
0120832880999992010051620004-13267-043417FM-15+0443SBLP V0201801N003112200019N0112651N1+03301+01901999999ADDGA1021+009001999GF102991999999999999999999MA1101191999999REMMET051METAR SBLP 162000Z 18006KT 9999 FEW030 33/19 Q1012;
0072832880999992010051621004-13267-043417FM-15+0443SBLP V0209999C000019999999Y0099001N1+03201+01901999999ADDMA1101191999999REMMET045METAR SBLP 162100Z 00000KT CAVOK 32/19 Q1012;
0072832880999992010051710004-13267-043417FM-15+0443SBLP V0209999C000019999999Y0099001N1+02401+02001999999ADDMA1101591999999REMMET045METAR SBLP 171000Z 00000KT CAVOK 24/20 Q1016;
0072832880999992010051711004-13267-043417FM-15+0443SBLP V0209999C000019999999Y0099001N1+02401+02001999999ADDMA1101591999999REMMET045METAR SBLP 171100Z 00000KT CAVOK 24/20 Q1016;
0072832880999992010051712004-13267-043417FM-15+0443SBLP V0209999C000019999999Y0099001N1+02801+02001999999ADDMA1101591999999REMMET045METAR SBLP 171200Z 00000KT CAVOK 28/20 Q1016;
0072832880999992010051713004-13267-043417FM-15+0443SBLP V0209999C000019999999Y0099001N1+02901+02001999999ADDMA1101591999999REMMET045METAR SBLP 171300Z 00000KT CAVOK 29/20 Q1016;
0072832880999992010051714004-13267-043417FM-15+0443SBLP V0201801N003119999999Y0099001N1+03101+01901999999ADDMA1101591999999REMMET045METAR SBLP 171400Z 18006KT CAVOK 31/19 Q1016;
0120832880999992010051715004-13267-043417FM-15+0443SBLP V0201801N003112200019N0112651N1+03301+01901999999ADDGA1021+009001999GF102991999999999999999999MA1101491999999REMMET051METAR SBLP 171500Z 18006KT 9999 FEW030 33/19 Q1015;
0120832880999992010051716004-13267-043417FM-15+0443SBLP V0201801N002112200019N0112651N1+03301+01801999999ADDGA1021+009001999GF102991999999999999999999MA1101391999999REMMET051METAR SBLP 171600Z 18004KT 9999 FEW030 33/18 Q1014;
0120832880999992010051717004-13267-043417FM-15+0443SBLP V0201801N003112200019N0112651N1+03401+01801999999ADDGA1021+009001999GF102991999999999999999999MA1101291999999REMMET051METAR SBLP 171700Z 18006KT 9999 FEW030 34/18 Q1013;
0120832880999992010051718004-13267-043417FM-15+0443SBLP V0201801N001512200019N0112651N1+03501+01801999999ADDGA1021+009001999GF102991999999999999999999MA1101191999999REMMET051METAR SBLP 171800Z 18003KT 9999 FEW030 35/18 Q1012;
0072832880999992010051720004-13267-043417FM-15+0443SBLP V0202401N001519999999Y0099001N1+03401+02001999999ADDMA1101191999999REMMET045METAR SBLP 172000Z 24003KT CAVOK 34/20 Q1012;
0072832880999992010051721004-13267-043417FM-15+0443SBLP V0209999C000019999999Y0099001N1+03201+02101999999ADDMA1101291999999REMMET045METAR SBLP 172100Z 00000KT CAVOK 32/21 Q1013;
0072832880999992010051810004-13267-043417FM-15+0443SBLP V0201201N001519999999Y0099001N1+02301+02001999999ADDMA1101591999999REMMET045METAR SBLP 181000Z 12003KT CAVOK 23/20 Q1016;
0072832880999992010051811004-13267-043417FM-15+0443SBLP V0201201N001519999999Y0099001N1+02601+02001999999ADDMA1101591999999REMMET045METAR SBLP 181100Z 12003KT CAVOK 26/20 Q1016;
0120832880999992010051812004-13267-043417FM-15+0443SBLP V0200901N003112200019N0112651N1+02901+02001999999ADDGA1021+009001999GF102991999999999999999999MA1101691999999REMMET051METAR SBLP 181200Z 09006KT 9999 FEW030 29/20 Q1017;
0120832880999992010051813004-13267-043417FM-15+0443SBLP V0200901N003112200019N0112651N1+03001+02001999999ADDGA1021+009001999GF102991999999999999999999MA1101691999999REMMET051METAR SBLP 181300Z 09006KT 9999 FEW030 30/20 Q1017;
0120832880999992010051814004-13267-043417FM-15+0443SBLP V0200901N003112200019N0112651N1+03101+02101999999ADDGA1041+009001999GF104991999999999999999999MA1101591999999REMMET051METAR SBLP 181400Z 09006KT 9999 SCT030 31/21 Q1016;
0120832880999992010051815004-13267-043417FM-15+0443SBLP V0201801N002612200019N0112651N1+03201+02001999999ADDGA1041+009001999GF104991999999999999999999MA1101491999999REMMET051METAR SBLP 181500Z 18005KT 9999 SCT030 32/20 Q1015;
0120832880999992010051816004-13267-043417FM-15+0443SBLP V0201801N003112200019N0112651N1+03301+02001999999ADDGA1041+009001999GF104991999999999999999999MA1101391999999REMMET051METAR SBLP 181600Z 18006KT 9999 SCT030 33/20 Q1014;
0120832880999992010051817004-13267-043417FM-15+0443SBLP V0201801N003112200019N0112651N1+03301+02001999999ADDGA1041+009001999GF104991999999999999999999MA1101291999999REMMET051METAR SBLP 181700Z 18006KT 9999 SCT030 33/20 Q1013;
0120832880999992010051818004-13267-043417FM-15+0443SBLP V0202101N003112200019N0112651N1+03401+02001999999ADDGA1021+009001999GF102991999999999999999999MA1101191999999REMMET051METAR SBLP 181800Z 21006KT 9999 FEW030 34/20 Q1012;
0120832880999992010051819004-13267-043417FM-15+0443SBLP V0201801N003112200019N0112651N1+03401+02001999999ADDGA1021+009001999GF102991999999999999999999MA1101191999999REMMET051METAR SBLP 181900Z 18006KT 9999 FEW030 34/20 Q1012;
0072832880999992010051820004-13267-043417FM-15+0443SBLP V0209999C000019999999Y0099001N1+03201+02001999999ADDMA1101191999999REMMET045METAR SBLP 182000Z 00000KT CAVOK 32/20 Q1012;
0072832880999992010051821004-13267-043417FM-15+0443SBLP V0209999C000019999999Y0099001N1+02901+02201999999ADDMA1101191999999REMMET045METAR SBLP 182100Z 00000KT CAVOK 29/22 Q1012;
0072832880999992010051910004-13267-043417FM-15+0443SBLP V0209999C000019999999Y0099001N1+02201+02001999999ADDMA1101491999999REMMET045METAR SBLP 191000Z 00000KT CAVOK 22/20 Q1015;
0072832880999992010051911004-13267-043417FM-15+0443SBLP V0209999C000019999999Y0099001N1+02501+01901999999ADDMA1101591999999REMMET045METAR SBLP 191100Z 00000KT CAVOK 25/19 Q1016;
0072832880999992010051912004-13267-043417FM-15+0443SBLP V0209999C000019999999Y0099001N1+02801+01901999999ADDMA1101591999999REMMET045METAR SBLP 191200Z 00000KT CAVOK 28/19 Q1016;
0072832880999992010051913004-13267-043417FM-15+0443SBLP V0209999C000019999999Y0099001N1+02901+01901999999ADDMA1101591999999REMMET045METAR SBLP 191300Z 00000KT CAVOK 29/19 Q1016;
0072832880999992010051914004-13267-043417FM-15+0443SBLP V0201201N003119999999Y0099001N1+03001+01901999999ADDMA1101491999999REMMET045METAR SBLP 191400Z 12006KT CAVOK 30/19 Q1015;
0120832880999992010051915004-13267-043417FM-15+0443SBLP V0200801N003112200019N0112651N1+03301+01801999999ADDGA1021+009001999GF102991999999999999999999MA1101391999999REMMET051METAR SBLP 191500Z 08006KT 9999 FEW030 33/18 Q1014;
0120832880999992010051917004-13267-043417FM-15+0443SBLP V0202101N003112200019N0112651N1+03401+02001999999ADDGA1021+009001999GF102991999999999999999999MA1101191999999REMMET051METAR SBLP 191700Z 21006KT 9999 FEW030 34/20 Q1012;
0120832880999992010051918004-13267-043417FM-15+0443SBLP V0202101N003112200019N0112651N1+03401+02001999999ADDGA1021+009001999GF102991999999999999999999MA1101191999999REMMET051METAR SBLP 191800Z 21006KT 9999 FEW030 34/20 Q1012;
0120832880999992010051919004-13267-043417FM-15+0443SBLP V0202301N003112200019N0112651N1+03301+02001999999ADDGA1021+009001999GF102991999999999999999999MA1101191999999REMMET051METAR SBLP 191900Z 23006KT 9999 FEW030 33/20 Q1012;
0120832880999992010051920004-13267-043417FM-15+0443SBLP V0202101N001512200019N0112651N1+03301+02001999999ADDGA1021+009001999GF102991999999999999999999MA1101191999999REMMET051METAR SBLP 192000Z 21003KT 9999 FEW030 33/20 Q1012;
0072832880999992010051921004-13267-043417FM-15+0443SBLP V0209999C000019999999Y0099001N1+03101+02101999999ADDMA1101191999999REMMET045METAR SBLP 192100Z 00000KT CAVOK 31/21 Q1012;
0072832880999992010052010004-13267-043417FM-15+0443SBLP V0209999C000019999999Y0099001N1+02201+01901999999ADDMA1101391999999REMMET045METAR SBLP 201000Z 00000KT CAVOK 22/19 Q1014;
0072832880999992010052011004-13267-043417FM-15+0443SBLP V0209999C000019999999Y0099001N1+02501+01901999999ADDMA1101391999999REMMET045METAR SBLP 201100Z 00000KT CAVOK 25/19 Q1014;
0072832880999992010052012004-13267-043417FM-15+0443SBLP V0200901N003119999999Y0099001N1+02801+01901999999ADDMA1101491999999REMMET045METAR SBLP 201200Z 09006KT CAVOK 28/19 Q1015;
0072832880999992010052013004-13267-043417FM-15+0443SBLP V0200901N003119999999Y0099001N1+03001+01801999999ADDMA1101491999999REMMET045METAR SBLP 201300Z 09006KT CAVOK 30/18 Q1015;
0120832880999992010052014004-13267-043417FM-15+0443SBLP V0201801N003112200019N0112651N1+03201+01801999999ADDGA1021+009001999GF102991999999999999999999MA1101391999999REMMET051METAR SBLP 201400Z 18006KT 9999 FEW030 32/18 Q1014;
0120832880999992010052015004-13267-043417FM-15+0443SBLP V0202101N003112200019N0112651N1+03301+01901999999ADDGA1021+009001999GF102991999999999999999999MA1101291999999REMMET051METAR SBLP 201500Z 21006KT 9999 FEW030 33/19 Q1013;
0120832880999992010052016004-13267-043417FM-15+0443SBLP V0202401N003112200019N0112651N1+03301+01901999999ADDGA1021+009001999GF102991999999999999999999MA1101191999999REMMET051METAR SBLP 201600Z 24006KT 9999 FEW030 33/19 Q1012;
0120832880999992010052017004-13267-043417FM-15+0443SBLP V0209999C000012200019N0112651N1+03401+02001999999ADDGA1021+009001999GF102991999999999999999999MA1101081999999REMMET051METAR SBLP 201700Z 00000KT 9999 FEW030 34/20 Q1011;
0120832880999992010052018004-13267-043417FM-15+0443SBLP V0209999C000012200019N0112651N1+03401+02001999999ADDGA1021+009001999GF102991999999999999999999MA1101081999999REMMET051METAR SBLP 201800Z 00000KT 9999 FEW030 34/20 Q1011;
0120832880999992010052019004-13267-043417FM-15+0443SBLP V0201801N003112200019N0112651N1+03401+02001999999ADDGA1021+009001999GF102991999999999999999999MA1101081999999REMMET051METAR SBLP 201900Z 18006KT 9999 FEW030 34/20 Q1011;
0143832880999992010052020004-13267-043417FM-15+0443SBLP V0209999C000012200019N0112651N1+03201+02001999999ADDGA1021+009001999GA2041+030001999GF104991999999999999999999MA1101081999999REMMET058METAR SBLP 202000Z 00000KT 9999 FEW030 SCT100 32/20 Q1011;
0143832880999992010052021004-13267-043417FM-15+0443SBLP V0209999C000012200019N0112651N1+03001+02201999999ADDGA1021+009001999GA2041+030001999GF104991999999999999999999MA1101081999999REMMET058METAR SBLP 202100Z 00000KT 9999 FEW030 SCT100 30/22 Q1011;
0072832880999992010052110004-13267-043417FM-15+0443SBLP V0209999C000019999999Y0099001N1+02401+02101999999ADDMA1101391999999REMMET045METAR SBLP 211000Z 00000KT CAVOK 24/21 Q1014;
0072832880999992010052111004-13267-043417FM-15+0443SBLP V0209999C000019999999Y0099001N1+02501+02101999999ADDMA1101491999999REMMET045METAR SBLP 211100Z 00000KT CAVOK 25/21 Q1015;
0072832880999992010052112004-13267-043417FM-15+0443SBLP V0200901N002119999999Y0099001N1+02801+02101999999ADDMA1101491999999REMMET045METAR SBLP 211200Z 09004KT CAVOK 28/21 Q1015;
0072832880999992010052113004-13267-043417FM-15+0443SBLP V0203601N002619999999Y0099001N1+03001+02001999999ADDMA1101491999999REMMET045METAR SBLP 211300Z 36005KT CAVOK 30/20 Q1015;
0072832880999992010052114004-13267-043417FM-15+0443SBLP V0200901N003119999999Y0099001N1+03101+02001999999ADDMA1101391999999REMMET045METAR SBLP 211400Z 09006KT CAVOK 31/20 Q1014;
0143832880999992010052115004-13267-043417FM-15+0443SBLP V0203301N002112200019N0112651N1+03201+01801999999ADDGA1021+009001999GA2041+030001999GF104991999999999999999999MA1101291999999REMMET058METAR SBLP 211500Z 33004KT 9999 FEW030 SCT100 32/18 Q1013;
0143832880999992010052116004-13267-043417FM-15+0443SBLP V0202701N003112200019N0112651N1+03201+01901999999ADDGA1021+009001999GA2041+030001999GF104991999999999999999999MA1101191999999REMMET058METAR SBLP 211600Z 27006KT 9999 FEW030 SCT100 32/19 Q1012;
0120832880999992010052117004-13267-043417FM-15+0443SBLP V0202701N003112200019N0112651N1+03201+01901999999ADDGA1041+009001999GF104991999999999999999999MA1101081999999REMMET051METAR SBLP 211700Z 27006KT 9999 SCT030 32/19 Q1011;
0120832880999992010052118004-13267-043417FM-15+0443SBLP V0202701N003112200019N0112651N1+03301+01901999999ADDGA1041+009001999GF104991999999999999999999MA1101021999999REMMET051METAR SBLP 211800Z 27006KT 9999 SCT030 33/19 Q1010;
0120832880999992010052119004-13267-043417FM-15+0443SBLP V0209999C000012200019N0112651N1+03201+01901999999ADDGA1041+009001999GF104991999999999999999999MA1101021999999REMMET051METAR SBLP 211900Z 00000KT 9999 SCT030 32/19 Q1010;
0120832880999992010052120004-13267-043417FM-15+0443SBLP V0209999C000012200019N0112651N1+03101+01901999999ADDGA1041+009001999GF104991999999999999999999MA1101081999999REMMET051METAR SBLP 212000Z 00000KT 9999 SCT030 31/19 Q1011;
0120832880999992010052121004-13267-043417FM-15+0443SBLP V0209999C000012200019N0112651N1+03001+02001999999ADDGA1041+009001999GF104991999999999999999999MA1101081999999REMMET051METAR SBLP 212100Z 00000KT 9999 SCT030 30/20 Q1011;
0072832880999992010052210004-13267-043417FM-15+0443SBLP V0209999C000019999999Y0099001N1+02501+02001999999ADDMA1101291999999REMMET045METAR SBLP 221000Z 00000KT CAVOK 25/20 Q1013;
0072832880999992010052211004-13267-043417FM-15+0443SBLP V0209999C000019999999Y0099001N1+02701+02001999999ADDMA1101391999999REMMET045METAR SBLP 221100Z 00000KT CAVOK 27/20 Q1014;
0072832880999992010052212004-13267-043417FM-15+0443SBLP V0209999C000019999999Y0099001N1+02901+01901999999ADDMA1101391999999REMMET045METAR SBLP 221200Z 00000KT CAVOK 29/19 Q1014;
0072832880999992010052213004-13267-043417FM-15+0443SBLP V0209999C000019999999Y0099001N1+03001+01901999999ADDMA1101391999999REMMET045METAR SBLP 221300Z 00000KT CAVOK 30/19 Q1014;
0120832880999992010052214004-13267-043417FM-15+0443SBLP V0209999C000012200019N0112651N1+03101+01901999999ADDGA1021+009001999GF102991999999999999999999MA1101291999999REMMET051METAR SBLP 221400Z 00000KT 9999 FEW030 31/19 Q1013;
0120832880999992010052215004-13267-043417FM-15+0443SBLP V0202701N003112200019N0112651N1+03201+01901999999ADDGA1021+009001999GF102991999999999999999999MA1101191999999REMMET051METAR SBLP 221500Z 27006KT 9999 FEW030 32/19 Q1012;
0072832880999992010052216004-13267-043417FM-15+0443SBLP V0203301N002119999999Y0099001N1+03301+01901999999ADDMA1101081999999REMMET045METAR SBLP 221600Z 33004KT CAVOK 33/19 Q1011;
0120832880999992010052217004-13267-043417FM-15+0443SBLP V0203301N004112200019N0112651N1+03401+01801999999ADDGA1021+009001999GF102991999999999999999999MA1101021999999REMMET051METAR SBLP 221700Z 33008KT 9999 FEW030 34/18 Q1010;
0120832880999992010052218004-13267-043417FM-15+0443SBLP V0209999C000012200019N0112651N1+03401+01901999999ADDGA1021+009001999GF102991999999999999999999MA1100911999999REMMET051METAR SBLP 221800Z 00000KT 9999 FEW030 34/19 Q1009;
0120832880999992010052219004-13267-043417FM-15+0443SBLP V0201501N002112200019N0112651N1+03401+01801999999ADDGA1021+009001999GF102991999999999999999999MA1100911999999REMMET051METAR SBLP 221900Z 15004KT 9999 FEW030 34/18 Q1009;
0120832880999992010052220004-13267-043417FM-15+0443SBLP V0202101N002112200019N0112651N1+03401+02001999999ADDGA1021+009001999GF102991999999999999999999MA1100911999999REMMET051METAR SBLP 222000Z 21004KT 9999 FEW030 34/20 Q1009;
0072832880999992010052221004-13267-043417FM-15+0443SBLP V0209999C000019999999Y0099001N1+03101+02001999999ADDMA1101021999999REMMET045METAR SBLP 222100Z 00000KT CAVOK 31/20 Q1010;
0072832880999992010052310004-13267-043417FM-15+0443SBLP V0209999C000019999999Y0099001N1+02401+02001999999ADDMA1101191999999REMMET045METAR SBLP 231000Z 00000KT CAVOK 24/20 Q1012;
0072832880999992010052311004-13267-043417FM-15+0443SBLP V0209999C000019999999Y0099001N1+02601+02001999999ADDMA1101291999999REMMET045METAR SBLP 231100Z 00000KT CAVOK 26/20 Q1013;
0072832880999992010052312004-13267-043417FM-15+0443SBLP V0209999C000019999999Y0099001N1+02801+02001999999ADDMA1101391999999REMMET045METAR SBLP 231200Z 00000KT CAVOK 28/20 Q1014;
0120832880999992010052313004-13267-043417FM-15+0443SBLP V0209999C000012200019N0112651N1+02901+02001999999ADDGA1021+009001999GF102991999999999999999999MA1101391999999REMMET051METAR SBLP 231300Z 00000KT 9999 FEW030 29/20 Q1014;
0120832880999992010052314004-13267-043417FM-15+0443SBLP V0209999C000012200019N0112651N1+03001+02001999999ADDGA1021+009001999GF102991999999999999999999MA1101291999999REMMET051METAR SBLP 231400Z 00000KT 9999 FEW030 30/20 Q1013;
0120832880999992010052315004-13267-043417FM-15+0443SBLP V0202701N003112200019N0112651N1+03101+02001999999ADDGA1041+009001999GF104991999999999999999999MA1101191999999REMMET051METAR SBLP 231500Z 27006KT 9999 SCT030 31/20 Q1012;
0120832880999992010052316004-13267-043417FM-15+0443SBLP V0202001N001512200019N0112651N1+03201+01901999999ADDGA1021+009001999GF102991999999999999999999MA1101081999999REMMET051METAR SBLP 231600Z 20003KT 9999 FEW030 32/19 Q1011;
0120832880999992010052317004-13267-043417FM-15+0443SBLP V0202101N002112200019N0112651N1+03401+01801999999ADDGA1021+009001999GF102991999999999999999999MA1101021999999REMMET051METAR SBLP 231700Z 21004KT 9999 FEW030 34/18 Q1010;
0120832880999992010052318004-13267-043417FM-15+0443SBLP V0202701N003112200019N0112651N1+03401+01901999999ADDGA1021+009001999GF102991999999999999999999MA1100911999999REMMET051METAR SBLP 231800Z 27006KT 9999 FEW030 34/19 Q1009;
0120832880999992010052319004-13267-043417FM-15+0443SBLP V0202101N003112200019N0112651N1+03401+02101999999ADDGA1021+009001999GF102991999999999999999999MA1100911999999REMMET051METAR SBLP 231900Z 21006KT 9999 FEW030 34/21 Q1009;
0120832880999992010052320004-13267-043417FM-15+0443SBLP V0202001N002112200019N0112651N1+03301+02001999999ADDGA1021+009001999GF102991999999999999999999MA1101021999999REMMET051METAR SBLP 232000Z 20004KT 9999 FEW030 33/20 Q1010;
0120832880999992010052321004-13267-043417FM-15+0443SBLP V0201501N002112200019N0112651N1+03001+02001999999ADDGA1041+009001999GF104991999999999999999999MA1101021999999REMMET051METAR SBLP 232100Z 15004KT 9999 SCT030 30/20 Q1010;
0072832880999992010052410004-13267-043417FM-15+0443SBLP V0209999C000019999999Y0099001N1+02201+02001999999ADDMA1101291999999REMMET045METAR SBLP 241000Z 00000KT CAVOK 22/20 Q1013;
0072832880999992010052411004-13267-043417FM-15+0443SBLP V0201801N001519999999Y0099001N1+02501+02001999999ADDMA1101391999999REMMET045METAR SBLP 241100Z 18003KT CAVOK 25/20 Q1014;
0072832880999992010052412004-13267-043417FM-15+0443SBLP V0200901N002119999999Y0099001N1+02901+02001999999ADDMA1101491999999REMMET045METAR SBLP 241200Z 09004KT CAVOK 29/20 Q1015;
0072832880999992010052413004-13267-043417FM-15+0443SBLP V0201201N002619999999Y0099001N1+03101+02001999999ADDMA1101391999999REMMET045METAR SBLP 241300Z 12005KT CAVOK 31/20 Q1014;
0120832880999992010052414004-13267-043417FM-15+0443SBLP V0200601N002612200019N0112651N1+03201+02001999999ADDGA1021+009001999GF102991999999999999999999MA1101391999999REMMET051METAR SBLP 241400Z 06005KT 9999 FEW030 32/20 Q1014;
0120832880999992010052415004-13267-043417FM-15+0443SBLP V0201301N002612200019N0112651N1+03401+01901999999ADDGA1021+009001999GF102991999999999999999999MA1101291999999REMMET051METAR SBLP 241500Z 13005KT 9999 FEW030 34/19 Q1013;
0120832880999992010052416004-13267-043417FM-15+0443SBLP V0201601N003112200019N0112651N1+03401+02001999999ADDGA1021+009001999GF102991999999999999999999MA1101081999999REMMET051METAR SBLP 241600Z 16006KT 9999 FEW030 34/20 Q1011;
0120832880999992010052417004-13267-043417FM-15+0443SBLP V0201201N003112200019N0112651N1+03501+02001999999ADDGA1021+009001999GF102991999999999999999999MA1101081999999REMMET051METAR SBLP 241700Z 12006KT 9999 FEW030 35/20 Q1011;
0120832880999992010052418004-13267-043417FM-15+0443SBLP V0201801N003112200019N0112651N1+03501+02001999999ADDGA1021+009001999GF102991999999999999999999MA1101021999999REMMET051METAR SBLP 241800Z 18006KT 9999 FEW030 35/20 Q1010;
0120832880999992010052419004-13267-043417FM-15+0443SBLP V0201601N003112200019N0112651N1+03501+02001999999ADDGA1021+009001999GF102991999999999999999999MA1101021999999REMMET051METAR SBLP 241900Z 16006KT 9999 FEW030 35/20 Q1010;
0120832880999992010052420004-13267-043417FM-15+0443SBLP V0201601N003112200019N0112651N1+03301+02001999999ADDGA1021+009001999GF102991999999999999999999MA1101021999999REMMET051METAR SBLP 242000Z 16006KT 9999 FEW030 33/20 Q1010;
0072832880999992010052421004-13267-043417FM-15+0443SBLP V0209999C000019999999Y0099001N1+03001+02201999999ADDMA1101081999999REMMET045METAR SBLP 242100Z 00000KT CAVOK 30/22 Q1011;
0072832880999992010052510004-13267-043417FM-15+0443SBLP V0200901N003119999999Y0099001N1+02301+02001999999ADDMA1101491999999REMMET045METAR SBLP 251000Z 09006KT CAVOK 23/20 Q1015;
0072832880999992010052511004-13267-043417FM-15+0443SBLP V0209999C000019999999Y0099001N1+02501+02001999999ADDMA1101691999999REMMET045METAR SBLP 251100Z 00000KT CAVOK 25/20 Q1017;
0072832880999992010052512004-13267-043417FM-15+0443SBLP V0201801N003119999999Y0099001N1+02801+01901999999ADDMA1101691999999REMMET045METAR SBLP 251200Z 18006KT CAVOK 28/19 Q1017;
0120832880999992010052513004-13267-043417FM-15+0443SBLP V0201101N003112200019N0112651N1+03001+02001999999ADDGA1021+009001999GF102991999999999999999999MA1101691999999REMMET051METAR SBLP 251300Z 11006KT 9999 FEW030 30/20 Q1017;
0120832880999992010052514004-13267-043417FM-15+0443SBLP V0209999C000012200019N0112651N1+03101+02001999999ADDGA1021+009001999GF102991999999999999999999MA1101591999999REMMET051METAR SBLP 251400Z 00000KT 9999 FEW030 31/20 Q1016;
0120832880999992010052515004-13267-043417FM-15+0443SBLP V0201201N003112200019N0112651N1+03201+02001999999ADDGA1021+009001999GF102991999999999999999999MA1101491999999REMMET051METAR SBLP 251500Z 12006KT 9999 FEW030 32/20 Q1015;
0120832880999992010052516004-13267-043417FM-15+0443SBLP V0203201N001512200019N0112651N1+03401+02001999999ADDGA1041+009001999GF104991999999999999999999MA1101291999999REMMET051METAR SBLP 251600Z 32003KT 9999 SCT030 34/20 Q1013;
0120832880999992010052517004-13267-043417FM-15+0443SBLP V0202101N003112200019N0112651N1+03401+01901999999ADDGA1041+009001999GF104991999999999999999999MA1101191999999REMMET051METAR SBLP 251700Z 21006KT 9999 SCT030 34/19 Q1012;
0120832880999992010052518004-13267-043417FM-15+0443SBLP V0202401N003112200019N0112651N1+03501+01901999999ADDGA1041+009001999GF104991999999999999999999MA1101081999999REMMET051METAR SBLP 251800Z 24006KT 9999 SCT030 35/19 Q1011;
0120832880999992010052519004-13267-043417FM-15+0443SBLP V0202401N002112200019N0112651N1+03401+02001999999ADDGA1041+009001999GF104991999999999999999999MA1101081999999REMMET051METAR SBLP 251900Z 24004KT 9999 SCT030 34/20 Q1011;
0120832880999992010052520004-13267-043417FM-15+0443SBLP V0202101N001512200019N0112651N1+03301+02001999999ADDGA1021+009001999GF102991999999999999999999MA1101081999999REMMET051METAR SBLP 252000Z 21003KT 9999 FEW030 33/20 Q1011;
0072832880999992010052521004-13267-043417FM-15+0443SBLP V0209999C000019999999Y0099001N1+03001+02201999999ADDMA1101191999999REMMET045METAR SBLP 252100Z 00000KT CAVOK 30/22 Q1012;
0072832880999992010052610004-13267-043417FM-15+0443SBLP V0202101N002119999999Y0099001N1+02101+01801999999ADDMA1101491999999REMMET045METAR SBLP 261000Z 21004KT CAVOK 21/18 Q1015;
0072832880999992010052611004-13267-043417FM-15+0443SBLP V0202101N002119999999Y0099001N1+02301+01801999999ADDMA1101591999999REMMET045METAR SBLP 261100Z 21004KT CAVOK 23/18 Q1016;
0072832880999992010052612004-13267-043417FM-15+0443SBLP V0202101N003119999999Y0099001N1+02701+01801999999ADDMA1101691999999REMMET045METAR SBLP 261200Z 21006KT CAVOK 27/18 Q1017;
0072832880999992010052613004-13267-043417FM-15+0443SBLP V0201901N004119999999Y0099001N1+02901+01801999999ADDMA1101691999999REMMET045METAR SBLP 261300Z 19008KT CAVOK 29/18 Q1017;
0072832880999992010052614004-13267-043417FM-15+0443SBLP V0209999C000019999999Y0099001N1+03101+01801999999ADDMA1101591999999REMMET045METAR SBLP 261400Z 00000KT CAVOK 31/18 Q1016;
0120832880999992010052615004-13267-043417FM-15+0443SBLP V0201801N003112200019N0112651N1+03201+01801999999ADDGA1021+009001999GF102991999999999999999999MA1101591999999REMMET051METAR SBLP 261500Z 18006KT 9999 FEW030 32/18 Q1016;
0120832880999992010052616004-13267-043417FM-15+0443SBLP V0202701N002112200019N0112651N1+03201+01801999999ADDGA1021+009001999GF102991999999999999999999MA1101391999999REMMET051METAR SBLP 261600Z 27004KT 9999 FEW030 32/18 Q1014;
0120832880999992010052617004-13267-043417FM-15+0443SBLP V0202101N002612200019N0112651N1+03401+01801999999ADDGA1021+009001999GF102991999999999999999999MA1101291999999REMMET051METAR SBLP 261700Z 21005KT 9999 FEW030 34/18 Q1013;
0120832880999992010052618004-13267-043417FM-15+0443SBLP V0201801N003112200019N0112651N1+03401+01401999999ADDGA1021+009001999GF102991999999999999999999MA1101191999999REMMET051METAR SBLP 261800Z 18006KT 9999 FEW030 34/14 Q1012;
0120832880999992010052619004-13267-043417FM-15+0443SBLP V0201601N003112200019N0112651N1+03401+01601999999ADDGA1021+009001999GF102991999999999999999999MA1101191999999REMMET051METAR SBLP 261900Z 16006KT 9999 FEW030 34/16 Q1012;
0120832880999992010052620004-13267-043417FM-15+0443SBLP V0201501N002112200019N0112651N1+03301+01601999999ADDGA1021+009001999GF102991999999999999999999MA1101191999999REMMET051METAR SBLP 262000Z 15004KT 9999 FEW030 33/16 Q1012;
0120832880999992010052621004-13267-043417FM-15+0443SBLP V0201301N002112200019N0112651N1+03001+01701999999ADDGA1021+009001999GF102991999999999999999999MA1101291999999REMMET051METAR SBLP 262100Z 13004KT 9999 FEW030 30/17 Q1013;
0072832880999992010052710004-13267-043417FM-15+0443SBLP V0201301N001519999999Y0099001N1+01901+01501999999ADDMA1101591999999REMMET045METAR SBLP 271000Z 13003KT CAVOK 19/15 Q1016;
0072832880999992010052711004-13267-043417FM-15+0443SBLP V0201301N001519999999Y0099001N1+02301+01601999999ADDMA1101691999999REMMET045METAR SBLP 271100Z 13003KT CAVOK 23/16 Q1017;
0072832880999992010052712004-13267-043417FM-15+0443SBLP V0201601N003119999999Y0099001N1+02601+01701999999ADDMA1101801999999REMMET045METAR SBLP 271200Z 16006KT CAVOK 26/17 Q1018;
0072832880999992010052713004-13267-043417FM-15+0443SBLP V0201301N003119999999Y0099001N1+02901+01701999999ADDMA1101801999999REMMET045METAR SBLP 271300Z 13006KT CAVOK 29/17 Q1018;
0120832880999992010052714004-13267-043417FM-15+0443SBLP V0201901N003112200019N0112651N1+03001+01801999999ADDGA1021+009001999GF102991999999999999999999MA1101691999999REMMET051METAR SBLP 271400Z 19006KT 9999 FEW030 30/18 Q1017;
0120832880999992010052715004-13267-043417FM-15+0443SBLP V0201501N002112200019N0112651N1+03101+01501999999ADDGA1021+009001999GF102991999999999999999999MA1101591999999REMMET051METAR SBLP 271500Z 15004KT 9999 FEW030 31/15 Q1016;
0120832880999992010052716004-13267-043417FM-15+0443SBLP V0201401N003112200019N0112651N1+03201+01601999999ADDGA1021+009001999GF102991999999999999999999MA1101391999999REMMET051METAR SBLP 271600Z 14006KT 9999 FEW030 32/16 Q1014;
0120832880999992010052717004-13267-043417FM-15+0443SBLP V0201801N003112200019N0112651N1+03301+01501999999ADDGA1021+009001999GF102991999999999999999999MA1101391999999REMMET051METAR SBLP 271700Z 18006KT 9999 FEW030 33/15 Q1014;
0120832880999992010052718004-13267-043417FM-15+0443SBLP V0201801N004112200019N0112651N1+03301+01501999999ADDGA1021+009001999GF102991999999999999999999MA1101291999999REMMET051METAR SBLP 271800Z 18008KT 9999 FEW030 33/15 Q1013;
0120832880999992010052719004-13267-043417FM-15+0443SBLP V0201801N003112200019N0112651N1+03301+01501999999ADDGA1021+009001999GF102991999999999999999999MA1101291999999REMMET051METAR SBLP 271900Z 18006KT 9999 FEW030 33/15 Q1013;
0120832880999992010052720004-13267-043417FM-15+0443SBLP V0201801N003112200019N0112651N1+03101+01601999999ADDGA1021+009001999GF102991999999999999999999MA1101291999999REMMET051METAR SBLP 272000Z 18006KT 9999 FEW030 31/16 Q1013;
0072832880999992010052721004-13267-043417FM-15+0443SBLP V0209999C000019999999Y0099001N1+02801+01801999999ADDMA1101291999999REMMET045METAR SBLP 272100Z 00000KT CAVOK 28/18 Q1013;
0072832880999992010052810004-13267-043417FM-15+0443SBLP V0202101N001519999999Y0099001N1+01801+01601999999ADDMA1101691999999REMMET045METAR SBLP 281000Z 21003KT CAVOK 18/16 Q1017;
0072832880999992010052811004-13267-043417FM-15+0443SBLP V0201801N003119999999Y0099001N1+02201+01701999999ADDMA1101801999999REMMET045METAR SBLP 281100Z 18006KT CAVOK 22/17 Q1018;
0072832880999992010052812004-13267-043417FM-15+0443SBLP V0201801N003119999999Y0099001N1+02501+01701999999ADDMA1101801999999REMMET045METAR SBLP 281200Z 18006KT CAVOK 25/17 Q1018;
0072832880999992010052813004-13267-043417FM-15+0443SBLP V0201501N003119999999Y0099001N1+02701+01601999999ADDMA1101801999999REMMET045METAR SBLP 281300Z 15006KT CAVOK 27/16 Q1018;
0120832880999992010052814004-13267-043417FM-15+0443SBLP V0201201N002112200019N0112651N1+02901+01601999999ADDGA1021+009001999GF102991999999999999999999MA1101691999999REMMET051METAR SBLP 281400Z 12004KT 9999 FEW030 29/16 Q1017;
0120832880999992010052815004-13267-043417FM-15+0443SBLP V0201801N003112200019N0112651N1+03101+01501999999ADDGA1021+009001999GF102991999999999999999999MA1101591999999REMMET051METAR SBLP 281500Z 18006KT 9999 FEW030 31/15 Q1016;
0120832880999992010052816004-13267-043417FM-15+0443SBLP V0201801N003112200019N0112651N1+03201+01601999999ADDGA1021+009001999GF102991999999999999999999MA1101491999999REMMET051METAR SBLP 281600Z 18006KT 9999 FEW030 32/16 Q1015;
0120832880999992010052817004-13267-043417FM-15+0443SBLP V0202101N003112200019N0112651N1+03201+01601999999ADDGA1021+009001999GF102991999999999999999999MA1101391999999REMMET051METAR SBLP 281700Z 21006KT 9999 FEW030 32/16 Q1014;
0072832880999992010052818004-13267-043417FM-15+0443SBLP V0202101N003119999999Y0099001N1+03301+01601999999ADDMA1101291999999REMMET045METAR SBLP 281800Z 21006KT CAVOK 33/16 Q1013;
0072832880999992010052819004-13267-043417FM-15+0443SBLP V0209999C000019999999Y0099001N1+03201+01601999999ADDMA1101291999999REMMET045METAR SBLP 281900Z 00000KT CAVOK 32/16 Q1013;
0072832880999992010052820004-13267-043417FM-15+0443SBLP V0209999C000019999999Y0099001N1+03201+01701999999ADDMA1101291999999REMMET045METAR SBLP 282000Z 00000KT CAVOK 32/17 Q1013;
0072832880999992010052821004-13267-043417FM-15+0443SBLP V0209999C000019999999Y0099001N1+03001+01701999999ADDMA1101291999999REMMET045METAR SBLP 282100Z 00000KT CAVOK 30/17 Q1013;
0072832880999992010052910004-13267-043417FM-15+0443SBLP V0209999C000019999999Y0099001N1+01701+01501999999ADDMA1101691999999REMMET045METAR SBLP 291000Z 00000KT CAVOK 17/15 Q1017;
0072832880999992010052911004-13267-043417FM-15+0443SBLP V0201801N003119999999Y0099001N1+02001+01501999999ADDMA1101801999999REMMET045METAR SBLP 291100Z 18006KT CAVOK 20/15 Q1018;
0072832880999992010052912004-13267-043417FM-15+0443SBLP V0209999C000019999999Y0099001N1+02401+01601999999ADDMA1101801999999REMMET045METAR SBLP 291200Z 00000KT CAVOK 24/16 Q1018;
0072832880999992010052913004-13267-043417FM-15+0443SBLP V0209999C000019999999Y0099001N1+02701+01701999999ADDMA1101801999999REMMET045METAR SBLP 291300Z 00000KT CAVOK 27/17 Q1018;
0120832880999992010052914004-13267-043417FM-15+0443SBLP V0201201N002112200019N0112651N1+02901+01801999999ADDGA1021+009001999GF102991999999999999999999MA1101801999999REMMET051METAR SBLP 291400Z 12004KT 9999 FEW030 29/18 Q1018;
0120832880999992010052915004-13267-043417FM-15+0443SBLP V0201801N003112200019N0112651N1+03001+01801999999ADDGA1021+009001999GF102991999999999999999999MA1101691999999REMMET051METAR SBLP 291500Z 18006KT 9999 FEW030 30/18 Q1017;
0120832880999992010052916004-13267-043417FM-15+0443SBLP V0201901N002112200019N0112651N1+03101+01601999999ADDGA1021+009001999GF102991999999999999999999MA1101491999999REMMET051METAR SBLP 291600Z 19004KT 9999 FEW030 31/16 Q1015;
0120832880999992010052917004-13267-043417FM-15+0443SBLP V0201901N003112200019N0112651N1+03201+01401999999ADDGA1021+009001999GF102991999999999999999999MA1101391999999REMMET051METAR SBLP 291700Z 19006KT 9999 FEW030 32/14 Q1014;
0120832880999992010052918004-13267-043417FM-15+0443SBLP V0201601N002112200019N0112651N1+03301+01401999999ADDGA1021+009001999GF102991999999999999999999MA1101291999999REMMET051METAR SBLP 291800Z 16004KT 9999 FEW030 33/14 Q1013;
0120832880999992010052919004-13267-043417FM-15+0443SBLP V0202501N001512200019N0112651N1+03201+01401999999ADDGA1021+009001999GF102991999999999999999999MA1101291999999REMMET051METAR SBLP 291900Z 25003KT 9999 FEW030 32/14 Q1013;
0072832880999992010052920004-13267-043417FM-15+0443SBLP V0202101N001519999999Y0099001N1+03101+01501999999ADDMA1101291999999REMMET045METAR SBLP 292000Z 21003KT CAVOK 31/15 Q1013;
0072832880999992010052921004-13267-043417FM-15+0443SBLP V0201801N001519999999Y0099001N1+02801+01801999999ADDMA1101391999999REMMET045METAR SBLP 292100Z 18003KT CAVOK 28/18 Q1014;
0072832880999992010053010004-13267-043417FM-15+0443SBLP V0209999C000019999999Y0099001N1+01701+01401999999ADDMA1101801999999REMMET045METAR SBLP 301000Z 00000KT CAVOK 17/14 Q1018;
0072832880999992010053011004-13267-043417FM-15+0443SBLP V0209999C000019999999Y0099001N1+02201+01401999999ADDMA1101901999999REMMET045METAR SBLP 301100Z 00000KT CAVOK 22/14 Q1019;
0072832880999992010053012004-13267-043417FM-15+0443SBLP V0201801N003119999999Y0099001N1+02401+01601999999ADDMA1102001999999REMMET045METAR SBLP 301200Z 18006KT CAVOK 24/16 Q1020;
0072832880999992010053013004-13267-043417FM-15+0443SBLP V0201801N003119999999Y0099001N1+02701+01701999999ADDMA1102001999999REMMET045METAR SBLP 301300Z 18006KT CAVOK 27/17 Q1020;
0072832880999992010053014004-13267-043417FM-15+0443SBLP V0209999C000019999999Y0099001N1+02901+01601999999ADDMA1101901999999REMMET045METAR SBLP 301400Z 00000KT CAVOK 29/16 Q1019;
0072832880999992010053015004-13267-043417FM-15+0443SBLP V0209999C000019999999Y0099001N1+02901+01601999999ADDMA1101901999999REMMET045METAR SBLP 301500Z 00000KT CAVOK 29/16 Q1019;
0120832880999992010053016004-13267-043417FM-15+0443SBLP V0201801N002112200019N0112651N1+03201+01601999999ADDGA1021+009001999GF102991999999999999999999MA1101591999999REMMET051METAR SBLP 301600Z 18004KT 9999 FEW030 32/16 Q1016;
0120832880999992010053017004-13267-043417FM-15+0443SBLP V0202101N003112200019N0112651N1+03201+01401999999ADDGA1021+009001999GF102991999999999999999999MA1101491999999REMMET051METAR SBLP 301700Z 21006KT 9999 FEW030 32/14 Q1015;
0120832880999992010053018004-13267-043417FM-15+0443SBLP V0201801N001512200019N0112651N1+03301+01501999999ADDGA1021+009001999GF102991999999999999999999MA1101491999999REMMET051METAR SBLP 301800Z 18003KT 9999 FEW030 33/15 Q1015;
0072832880999992010053019004-13267-043417FM-15+0443SBLP V0202101N002619999999Y0099001N1+03301+01401999999ADDMA1101491999999REMMET045METAR SBLP 301900Z 21005KT CAVOK 33/14 Q1015;
0072832880999992010053020004-13267-043417FM-15+0443SBLP V0209999C000019999999Y0099001N1+03201+01501999999ADDMA1101491999999REMMET045METAR SBLP 302000Z 00000KT CAVOK 32/15 Q1015;
0072832880999992010053021004-13267-043417FM-15+0443SBLP V0209999C000019999999Y0099001N1+02901+01601999999ADDMA1101491999999REMMET045METAR SBLP 302100Z 00000KT CAVOK 29/16 Q1015;
0072832880999992010053110004-13267-043417FM-15+0443SBLP V0209999C000019999999Y0099001N1+01801+01501999999ADDMA1101801999999REMMET045METAR SBLP 311000Z 00000KT CAVOK 18/15 Q1018;
0072832880999992010053111004-13267-043417FM-15+0443SBLP V0209999C000019999999Y0099001N1+02101+01601999999ADDMA1101901999999REMMET045METAR SBLP 311100Z 00000KT CAVOK 21/16 Q1019;
0072832880999992010053112004-13267-043417FM-15+0443SBLP V0209999C000019999999Y0099001N1+02501+01601999999ADDMA1101901999999REMMET045METAR SBLP 311200Z 00000KT CAVOK 25/16 Q1019;
0072832880999992010053113004-13267-043417FM-15+0443SBLP V0209999C000019999999Y0099001N1+02801+01601999999ADDMA1101901999999REMMET045METAR SBLP 311300Z 00000KT CAVOK 28/16 Q1019;
0072832880999992010053114004-13267-043417FM-15+0443SBLP V0209999C000019999999Y0099001N1+02901+01601999999ADDMA1101801999999REMMET045METAR SBLP 311400Z 00000KT CAVOK 29/16 Q1018;
0072832880999992010053115004-13267-043417FM-15+0443SBLP V0202101N003119999999Y0099001N1+03201+01701999999ADDMA1101691999999REMMET045METAR SBLP 311500Z 21006KT CAVOK 32/17 Q1017;
0072832880999992010053116004-13267-043417FM-15+0443SBLP V0202701N003119999999Y0099001N1+03301+01601999999ADDMA1101591999999REMMET045METAR SBLP 311600Z 27006KT CAVOK 33/16 Q1016;
0072832880999992010053117004-13267-043417FM-15+0443SBLP V0202701N003119999999Y0099001N1+03301+01601999999ADDMA1101491999999REMMET045METAR SBLP 311700Z 27006KT CAVOK 33/16 Q1015;
0072832880999992010053118004-13267-043417FM-15+0443SBLP V0202701N003119999999Y0099001N1+03401+01801999999ADDMA1101391999999REMMET045METAR SBLP 311800Z 27006KT CAVOK 34/18 Q1014;
0072832880999992010053119004-13267-043417FM-15+0443SBLP V0202701N003119999999Y0099001N1+03301+01601999999ADDMA1101391999999REMMET045METAR SBLP 311900Z 27006KT CAVOK 33/16 Q1014;
0072832880999992010053120004-13267-043417FM-15+0443SBLP V0209999C000019999999Y0099001N1+03301+01601999999ADDMA1101391999999REMMET045METAR SBLP 312000Z 00000KT CAVOK 33/16 Q1014;
0072832880999992010053121004-13267-043417FM-15+0443SBLP V0209999C000019999999Y0099001N1+03101+01601999999ADDMA1101391999999REMMET045METAR SBLP 312100Z 00000KT CAVOK 31/16 Q1014;
0072832880999992010060110004-13267-043417FM-15+0443SBLP V0209999C000019999999Y0099001N1+02201+01701999999ADDMA1101691999999REMMET045METAR SBLP 011000Z 00000KT CAVOK 22/17 Q1017;
0072832880999992010060111004-13267-043417FM-15+0443SBLP V0209999C000019999999Y0099001N1+02401+01701999999ADDMA1101801999999REMMET045METAR SBLP 011100Z 00000KT CAVOK 24/17 Q1018;
0072832880999992010060112004-13267-043417FM-15+0443SBLP V0209999C000019999999Y0099001N1+02701+01701999999ADDMA1101801999999REMMET045METAR SBLP 011200Z 00000KT CAVOK 27/17 Q1018;
0072832880999992010060113004-13267-043417FM-15+0443SBLP V0209999C000019999999Y0099001N1+02901+01601999999ADDMA1101801999999REMMET045METAR SBLP 011300Z 00000KT CAVOK 29/16 Q1018;
0072832880999992010060114004-13267-043417FM-15+0443SBLP V0209999C000019999999Y0099001N1+03101+01601999999ADDMA1101691999999REMMET045METAR SBLP 011400Z 00000KT CAVOK 31/16 Q1017;
0120832880999992010060115004-13267-043417FM-15+0443SBLP V0201801N003112200019N0112651N1+03301+01601999999ADDGA1021+009001999GF102991999999999999999999MA1101591999999REMMET051METAR SBLP 011500Z 18006KT 9999 FEW030 33/16 Q1016;
0120832880999992010060116004-13267-043417FM-15+0443SBLP V0202401N003112200019N0112651N1+03401+01401999999ADDGA1021+009001999GF102991999999999999999999MA1101491999999REMMET051METAR SBLP 011600Z 24006KT 9999 FEW030 34/14 Q1015;
0120832880999992010060117004-13267-043417FM-15+0443SBLP V0202401N003112200019N0112651N1+03501+01401999999ADDGA1021+009001999GF102991999999999999999999MA1101391999999REMMET051METAR SBLP 011700Z 24006KT 9999 FEW030 35/14 Q1014;
0120832880999992010060118004-13267-043417FM-15+0443SBLP V0202101N002112200019N0112651N1+03501+01401999999ADDGA1021+009001999GF102991999999999999999999MA1101291999999REMMET051METAR SBLP 011800Z 21004KT 9999 FEW030 35/14 Q1013;
0120832880999992010060119004-13267-043417FM-15+0443SBLP V0202401N001512200019N0112651N1+03501+01301999999ADDGA1021+009001999GF102991999999999999999999MA1101291999999REMMET051METAR SBLP 011900Z 24003KT 9999 FEW030 35/13 Q1013;
0072832880999992010060120004-13267-043417FM-15+0443SBLP V0202501N001519999999Y0099001N1+03301+01501999999ADDMA1101291999999REMMET045METAR SBLP 012000Z 25003KT CAVOK 33/15 Q1013;
0072832880999992010060121004-13267-043417FM-15+0443SBLP V0209999C000019999999Y0099001N1+03001+01601999999ADDMA1101391999999REMMET045METAR SBLP 012100Z 00000KT CAVOK 30/16 Q1014;
0072832880999992010060210004-13267-043417FM-15+0443SBLP V0201801N003119999999Y0099001N1+02101+01701999999ADDMA1101801999999REMMET045METAR SBLP 021000Z 18006KT CAVOK 21/17 Q1018;
0072832880999992010060211004-13267-043417FM-15+0443SBLP V0201501N003119999999Y0099001N1+02301+01701999999ADDMA1101901999999REMMET045METAR SBLP 021100Z 15006KT CAVOK 23/17 Q1019;
0072832880999992010060212004-13267-043417FM-15+0443SBLP V0201201N003119999999Y0099001N1+02601+01801999999ADDMA1101901999999REMMET045METAR SBLP 021200Z 12006KT CAVOK 26/18 Q1019;
0072832880999992010060213004-13267-043417FM-15+0443SBLP V0201101N003119999999Y0099001N1+02801+01701999999ADDMA1101901999999REMMET045METAR SBLP 021300Z 11006KT CAVOK 28/17 Q1019;
0072832880999992010060214004-13267-043417FM-15+0443SBLP V0209999C000019999999Y0099001N1+03001+01701999999ADDMA1101901999999REMMET045METAR SBLP 021400Z 00000KT CAVOK 30/17 Q1019;
0120832880999992010060215004-13267-043417FM-15+0443SBLP V0201801N003112200019N0112651N1+03201+01601999999ADDGA1021+009001999GF102991999999999999999999MA1101801999999REMMET051METAR SBLP 021500Z 18006KT 9999 FEW030 32/16 Q1018;
0120832880999992010060216004-13267-043417FM-15+0443SBLP V0209999C000012200019N0112651N1+03201+01601999999ADDGA1021+009001999GF102991999999999999999999MA1101691999999REMMET051METAR SBLP 021600Z 00000KT 9999 FEW030 32/16 Q1017;
0120832880999992010060217004-13267-043417FM-15+0443SBLP V0209999C000012200019N0112651N1+03301+01601999999ADDGA1021+009001999GF102991999999999999999999MA1101491999999REMMET051METAR SBLP 021700Z 00000KT 9999 FEW030 33/16 Q1015;
0120832880999992010060218004-13267-043417FM-15+0443SBLP V0209999C000012200019N0112651N1+03301+01601999999ADDGA1021+009001999GF102991999999999999999999MA1101491999999REMMET051METAR SBLP 021800Z 00000KT 9999 FEW030 33/16 Q1015;
0072832880999992010060219004-13267-043417FM-15+0443SBLP V0209999C000019999999Y0099001N1+03301+01601999999ADDMA1101491999999REMMET045METAR SBLP 021900Z 00000KT CAVOK 33/16 Q1015;
0072832880999992010060220004-13267-043417FM-15+0443SBLP V0209999C000019999999Y0099001N1+03201+01701999999ADDMA1101491999999REMMET045METAR SBLP 022000Z 00000KT CAVOK 32/17 Q1015;
0072832880999992010060221004-13267-043417FM-15+0443SBLP V0209999C000019999999Y0099001N1+02901+01901999999ADDMA1101591999999REMMET045METAR SBLP 022100Z 00000KT CAVOK 29/19 Q1016;
0072832880999992010060310004-13267-043417FM-15+0443SBLP V0202101N001019999999Y0099001N1+01901+01701999999ADDMA1102001999999REMMET045METAR SBLP 031000Z 21002KT CAVOK 19/17 Q1020;
0072832880999992010060311004-13267-043417FM-15+0443SBLP V0201501N001519999999Y0099001N1+02201+01701999999ADDMA1102101999999REMMET045METAR SBLP 031100Z 15003KT CAVOK 22/17 Q1021;
0072832880999992010060312004-13267-043417FM-15+0443SBLP V0201801N001519999999Y0099001N1+02501+01601999999ADDMA1102101999999REMMET045METAR SBLP 031200Z 18003KT CAVOK 25/16 Q1021;
0072832880999992010060313004-13267-043417FM-15+0443SBLP V0209999C000019999999Y0099001N1+02701+01601999999ADDMA1102101999999REMMET045METAR SBLP 031300Z 00000KT CAVOK 27/16 Q1021;
0072832880999992010060314004-13267-043417FM-15+0443SBLP V0200501N001519999999Y0099001N1+02901+01601999999ADDMA1102001999999REMMET045METAR SBLP 031400Z 05003KT CAVOK 29/16 Q1020;
0072832880999992010060315004-13267-043417FM-15+0443SBLP V0201901N003119999999Y0099001N1+03001+01601999999ADDMA1101901999999REMMET045METAR SBLP 031500Z 19006KT CAVOK 30/16 Q1019;
0072832880999992010060316004-13267-043417FM-15+0443SBLP V0201201N003119999999Y0099001N1+03101+01601999999ADDMA1101801999999REMMET045METAR SBLP 031600Z 12006KT CAVOK 31/16 Q1018;
0120832880999992010060318004-13267-043417FM-15+0443SBLP V0201601N003112200019N0112651N1+03301+01501999999ADDGA1021+009001999GF102991999999999999999999MA1101591999999REMMET051METAR SBLP 031800Z 16006KT 9999 FEW030 33/15 Q1016;
0120832880999992010060319004-13267-043417FM-15+0443SBLP V0209999C000012200019N0112651N1+03201+01701999999ADDGA1021+009001999GF102991999999999999999999MA1101591999999REMMET051METAR SBLP 031900Z 00000KT 9999 FEW030 32/17 Q1016;
0072832880999992010060320004-13267-043417FM-15+0443SBLP V0209999C000019999999Y0099001N1+02901+01901999999ADDMA1101691999999REMMET045METAR SBLP 032000Z 00000KT CAVOK 29/19 Q1017;
0072832880999992010060321004-13267-043417FM-15+0443SBLP V0209999C000019999999Y0099001N1+02801+02001999999ADDMA1101691999999REMMET045METAR SBLP 032100Z 00000KT CAVOK 28/20 Q1017;
0072832880999992010060410004-13267-043417FM-15+0443SBLP V0209999C000019999999Y0099001N1+01801+01601999999ADDMA1102101999999REMMET045METAR SBLP 041000Z 00000KT CAVOK 18/16 Q1021;
0072832880999992010060411004-13267-043417FM-15+0443SBLP V0201201N003119999999Y0099001N1+02101+01601999999ADDMA1102201999999REMMET045METAR SBLP 041100Z 12006KT CAVOK 21/16 Q1022;
0072832880999992010060412004-13267-043417FM-15+0443SBLP V0209999C000019999999Y0099001N1+02501+01501999999ADDMA1102301999999REMMET045METAR SBLP 041200Z 00000KT CAVOK 25/15 Q1023;
0072832880999992010060413004-13267-043417FM-15+0443SBLP V0200901N003119999999Y0099001N1+02801+01401999999ADDMA1102201999999REMMET045METAR SBLP 041300Z 09006KT CAVOK 28/14 Q1022;
0072832880999992010060414004-13267-043417FM-15+0443SBLP V0201201N003119999999Y0099001N1+02901+01501999999ADDMA1102201999999REMMET045METAR SBLP 041400Z 12006KT CAVOK 29/15 Q1022;
0072832880999992010060415004-13267-043417FM-15+0443SBLP V0200901N003119999999Y0099001N1+03001+01501999999ADDMA1102101999999REMMET045METAR SBLP 041500Z 09006KT CAVOK 30/15 Q1021;
0072832880999992010060416004-13267-043417FM-15+0443SBLP V0200901N003119999999Y0099001N1+03101+01501999999ADDMA1101901999999REMMET045METAR SBLP 041600Z 09006KT CAVOK 31/15 Q1019;
0072832880999992010060417004-13267-043417FM-15+0443SBLP V0200901N003119999999Y0099001N1+03201+01501999999ADDMA1101801999999REMMET045METAR SBLP 041700Z 09006KT CAVOK 32/15 Q1018;
0072832880999992010060418004-13267-043417FM-15+0443SBLP V0201801N003119999999Y0099001N1+03401+01501999999ADDMA1101691999999REMMET045METAR SBLP 041800Z 18006KT CAVOK 34/15 Q1017;
0072832880999992010060419004-13267-043417FM-15+0443SBLP V0201801N003119999999Y0099001N1+03301+01501999999ADDMA1101691999999REMMET045METAR SBLP 041900Z 18006KT CAVOK 33/15 Q1017;
0072832880999992010060420004-13267-043417FM-15+0443SBLP V0201801N003119999999Y0099001N1+03201+01501999999ADDMA1101691999999REMMET045METAR SBLP 042000Z 18006KT CAVOK 32/15 Q1017;
0072832880999992010060421004-13267-043417FM-15+0443SBLP V0209999C000019999999Y0099001N1+03001+01501999999ADDMA1101691999999REMMET045METAR SBLP 042100Z 00000KT CAVOK 30/15 Q1017;
0072832880999992010060510004-13267-043417FM-15+0443SBLP V0209999C000019999999Y0099001N1+02001+01601999999ADDMA1102001999999REMMET045METAR SBLP 051000Z 00000KT CAVOK 20/16 Q1020;
0072832880999992010060511004-13267-043417FM-15+0443SBLP V0201801N003119999999Y0099001N1+02301+01601999999ADDMA1102101999999REMMET045METAR SBLP 051100Z 18006KT CAVOK 23/16 Q1021;
0072832880999992010060512004-13267-043417FM-15+0443SBLP V0201801N003119999999Y0099001N1+02501+01601999999ADDMA1102201999999REMMET045METAR SBLP 051200Z 18006KT CAVOK 25/16 Q1022;
0072832880999992010060513004-13267-043417FM-15+0443SBLP V0201801N003119999999Y0099001N1+02701+01601999999ADDMA1102201999999REMMET045METAR SBLP 051300Z 18006KT CAVOK 27/16 Q1022;
0072832880999992010060514004-13267-043417FM-15+0443SBLP V0201801N003119999999Y0099001N1+02901+01501999999ADDMA1102101999999REMMET045METAR SBLP 051400Z 18006KT CAVOK 29/15 Q1021;
0072832880999992010060515004-13267-043417FM-15+0443SBLP V0201801N003119999999Y0099001N1+02901+01501999999ADDMA1101901999999REMMET045METAR SBLP 051500Z 18006KT CAVOK 29/15 Q1019;
0072832880999992010060713004-13267-043417FM-15+0443SBLP V0201801N003119999999Y0099001N1+02901+01601999999ADDMA1102001999999REMMET045METAR SBLP 071300Z 18006KT CAVOK 29/16 Q1020;
0120832880999992010060715004-13267-043417FM-15+0443SBLP V0201501N001512200019N0112651N1+03301+01501999999ADDGA1021+009001999GF102991999999999999999999MA1101801999999REMMET051METAR SBLP 071500Z 15003KT 9999 FEW030 33/15 Q1018;
0120832880999992010060716004-13267-043417FM-15+0443SBLP V0209999C000012200019N0112651N1+03301+01501999999ADDGA1021+009001999GF102991999999999999999999MA1101691999999REMMET051METAR SBLP 071600Z 00000KT 9999 FEW030 33/15 Q1017;
0120832880999992010060717004-13267-043417FM-15+0443SBLP V0202101N003112200019N0112651N1+03401+01501999999ADDGA1021+009001999GF102991999999999999999999MA1101591999999REMMET051METAR SBLP 071700Z 21006KT 9999 FEW030 34/15 Q1016;
0120832880999992010060718004-13267-043417FM-15+0443SBLP V0202101N003112200019N0112651N1+03501+01601999999ADDGA1021+009001999GF102991999999999999999999MA1101491999999REMMET051METAR SBLP 071800Z 21006KT 9999 FEW030 35/16 Q1015;
0120832880999992010060719004-13267-043417FM-15+0443SBLP V0209999C000012200019N0112651N1+03401+01601999999ADDGA1021+009001999GF102991999999999999999999MA1101491999999REMMET051METAR SBLP 071900Z 00000KT 9999 FEW030 34/16 Q1015;
0072832880999992010060720004-13267-043417FM-15+0443SBLP V0202101N003119999999Y0099001N1+03401+01601999999ADDMA1101491999999REMMET045METAR SBLP 072000Z 21006KT CAVOK 34/16 Q1015;
0072832880999992010060721004-13267-043417FM-15+0443SBLP V0209999C000019999999Y0099001N1+03201+01701999999ADDMA1101491999999REMMET045METAR SBLP 072100Z 00000KT CAVOK 32/17 Q1015;
0072832880999992010060810004-13267-043417FM-15+0443SBLP V0202101N001519999999Y0099001N1+02001+01701999999ADDMA1101901999999REMMET045METAR SBLP 081000Z 21003KT CAVOK 20/17 Q1019;
0072832880999992010060811004-13267-043417FM-15+0443SBLP V0201801N002119999999Y0099001N1+02301+01801999999ADDMA1102101999999REMMET045METAR SBLP 081100Z 18004KT CAVOK 23/18 Q1021;
0072832880999992010060812004-13267-043417FM-15+0443SBLP V0201301N002119999999Y0099001N1+02701+01801999999ADDMA1102101999999REMMET045METAR SBLP 081200Z 13004KT CAVOK 27/18 Q1021;
0072832880999992010060813004-13267-043417FM-15+0443SBLP V0201101N002119999999Y0099001N1+02901+01701999999ADDMA1102001999999REMMET045METAR SBLP 081300Z 11004KT CAVOK 29/17 Q1020;
0072832880999992010060814004-13267-043417FM-15+0443SBLP V0200901N002119999999Y0099001N1+03101+01801999999ADDMA1101901999999REMMET045METAR SBLP 081400Z 09004KT CAVOK 31/18 Q1019;
0072832880999992010060815004-13267-043417FM-15+0443SBLP V0202101N003119999999Y0099001N1+03201+01701999999ADDMA1101901999999REMMET045METAR SBLP 081500Z 21006KT CAVOK 32/17 Q1019;
0072832880999992010060816004-13267-043417FM-15+0443SBLP V0202101N003119999999Y0099001N1+03301+01701999999ADDMA1101691999999REMMET045METAR SBLP 081600Z 21006KT CAVOK 33/17 Q1017;
0120832880999992010060817004-13267-043417FM-15+0443SBLP V0209999C000012200019N0112651N1+03401+01601999999ADDGA1021+009001999GF102991999999999999999999MA1101591999999REMMET051METAR SBLP 081700Z 00000KT 9999 FEW030 34/16 Q1016;
0120832880999992010060818004-13267-043417FM-15+0443SBLP V0209999C000012200019N0112651N1+03401+01701999999ADDGA1021+009001999GF102991999999999999999999MA1101491999999REMMET051METAR SBLP 081800Z 00000KT 9999 FEW030 34/17 Q1015;
0072832880999992010060819004-13267-043417FM-15+0443SBLP V0201601N003119999999Y0099001N1+03401+01601999999ADDMA1101491999999REMMET045METAR SBLP 081900Z 16006KT CAVOK 34/16 Q1015;
0072832880999992010060820004-13267-043417FM-15+0443SBLP V0201801N003119999999Y0099001N1+03401+01601999999ADDMA1101591999999REMMET045METAR SBLP 082000Z 18006KT CAVOK 34/16 Q1016;
0072832880999992010060821004-13267-043417FM-15+0443SBLP V0201801N003119999999Y0099001N1+03101+01801999999ADDMA1101591999999REMMET045METAR SBLP 082100Z 18006KT CAVOK 31/18 Q1016;
0072832880999992010060910004-13267-043417FM-15+0443SBLP V0209999C000019999999Y0099001N1+01801+01601999999ADDMA1102001999999REMMET045METAR SBLP 091000Z 00000KT CAVOK 18/16 Q1020;
0072832880999992010060911004-13267-043417FM-15+0443SBLP V0209999C000019999999Y0099001N1+02001+01701999999ADDMA1102001999999REMMET045METAR SBLP 091100Z 00000KT CAVOK 20/17 Q1020;
0072832880999992010060912004-13267-043417FM-15+0443SBLP V0209999C000019999999Y0099001N1+02601+01601999999ADDMA1102101999999REMMET045METAR SBLP 091200Z 00000KT CAVOK 26/16 Q1021;
0072832880999992010060913004-13267-043417FM-15+0443SBLP V0209999C000019999999Y0099001N1+02701+01601999999ADDMA1102101999999REMMET045METAR SBLP 091300Z 00000KT CAVOK 27/16 Q1021;
0072832880999992010060914004-13267-043417FM-15+0443SBLP V0209999C000019999999Y0099001N1+02901+01501999999ADDMA1102001999999REMMET045METAR SBLP 091400Z 00000KT CAVOK 29/15 Q1020;
0072832880999992010060915004-13267-043417FM-15+0443SBLP V0209999C000019999999Y0099001N1+03001+01501999999ADDMA1101901999999REMMET045METAR SBLP 091500Z 00000KT CAVOK 30/15 Q1019;
0072832880999992010060916004-13267-043417FM-15+0443SBLP V0209999C000019999999Y0099001N1+03201+01501999999ADDMA1101691999999REMMET045METAR SBLP 091600Z 00000KT CAVOK 32/15 Q1017;
0072832880999992010060917004-13267-043417FM-15+0443SBLP V0201201N003119999999Y0099001N1+03301+01501999999ADDMA1101591999999REMMET045METAR SBLP 091700Z 12006KT CAVOK 33/15 Q1016;
0072832880999992010060918004-13267-043417FM-15+0443SBLP V0201501N003119999999Y0099001N1+03401+01501999999ADDMA1101491999999REMMET045METAR SBLP 091800Z 15006KT CAVOK 34/15 Q1015;
0072832880999992010060919004-13267-043417FM-15+0443SBLP V0201801N003119999999Y0099001N1+03301+01501999999ADDMA1101491999999REMMET045METAR SBLP 091900Z 18006KT CAVOK 33/15 Q1015;
0072832880999992010060920004-13267-043417FM-15+0443SBLP V0201801N003119999999Y0099001N1+03101+01801999999ADDMA1101491999999REMMET045METAR SBLP 092000Z 18006KT CAVOK 31/18 Q1015;
0072832880999992010060921004-13267-043417FM-15+0443SBLP V0201801N003119999999Y0099001N1+03101+01801999999ADDMA1101491999999REMMET045METAR SBLP 092100Z 18006KT CAVOK 31/18 Q1015;
0072832880999992010061010004-13267-043417FM-15+0443SBLP V0202101N002119999999Y0099001N1+01701+01501999999ADDMA1101901999999REMMET045METAR SBLP 101000Z 21004KT CAVOK 17/15 Q1019;
0072832880999992010061011004-13267-043417FM-15+0443SBLP V0201901N003119999999Y0099001N1+02101+01601999999ADDMA1102001999999REMMET045METAR SBLP 101100Z 19006KT CAVOK 21/16 Q1020;
0072832880999992010061012004-13267-043417FM-15+0443SBLP V0201801N003119999999Y0099001N1+02401+01601999999ADDMA1102101999999REMMET045METAR SBLP 101200Z 18006KT CAVOK 24/16 Q1021;
0072832880999992010061013004-13267-043417FM-15+0443SBLP V0201601N003119999999Y0099001N1+02701+01601999999ADDMA1102101999999REMMET045METAR SBLP 101300Z 16006KT CAVOK 27/16 Q1021;
0072832880999992010061015004-13267-043417FM-15+0443SBLP V0201901N003119999999Y0099001N1+03001+01501999999ADDMA1101901999999REMMET045METAR SBLP 101500Z 19006KT CAVOK 30/15 Q1019;
0072832880999992010061016004-13267-043417FM-15+0443SBLP V0201801N003119999999Y0099001N1+03101+01501999999ADDMA1101801999999REMMET045METAR SBLP 101600Z 18006KT CAVOK 31/15 Q1018;
0072832880999992010061017004-13267-043417FM-15+0443SBLP V0201801N003119999999Y0099001N1+03201+01501999999ADDMA1101691999999REMMET045METAR SBLP 101700Z 18006KT CAVOK 32/15 Q1017;
0072832880999992010061018004-13267-043417FM-15+0443SBLP V0201801N003119999999Y0099001N1+03301+01401999999ADDMA1101591999999REMMET045METAR SBLP 101800Z 18006KT CAVOK 33/14 Q1016;
0072832880999992010061019004-13267-043417FM-15+0443SBLP V0201801N003119999999Y0099001N1+03301+01501999999ADDMA1101591999999REMMET045METAR SBLP 101900Z 18006KT CAVOK 33/15 Q1016;
0072832880999992010061020004-13267-043417FM-15+0443SBLP V0201801N003119999999Y0099001N1+03101+01501999999ADDMA1101691999999REMMET045METAR SBLP 102000Z 18006KT CAVOK 31/15 Q1017;
0072832880999992010061021004-13267-043417FM-15+0443SBLP V0201801N003119999999Y0099001N1+03001+01501999999ADDMA1101691999999REMMET045METAR SBLP 102100Z 18006KT CAVOK 30/15 Q1017;
0072832880999992010061110004-13267-043417FM-15+0443SBLP V0202101N003119999999Y0099001N1+01801+01501999999ADDMA1102001999999REMMET045METAR SBLP 111000Z 21006KT CAVOK 18/15 Q1020;
0072832880999992010061111004-13267-043417FM-15+0443SBLP V0202101N003119999999Y0099001N1+02001+01601999999ADDMA1102101999999REMMET045METAR SBLP 111100Z 21006KT CAVOK 20/16 Q1021;
0072832880999992010061112004-13267-043417FM-15+0443SBLP V0201801N003119999999Y0099001N1+02301+01801999999ADDMA1102101999999REMMET045METAR SBLP 111200Z 18006KT CAVOK 23/18 Q1021;
0072832880999992010061113004-13267-043417FM-15+0443SBLP V0209999C000019999999Y0099001N1+02601+01801999999ADDMA1102001999999REMMET045METAR SBLP 111300Z 00000KT CAVOK 26/18 Q1020;
0072832880999992010061114004-13267-043417FM-15+0443SBLP V0209999C000019999999Y0099001N1+02801+01801999999ADDMA1102001999999REMMET045METAR SBLP 111400Z 00000KT CAVOK 28/18 Q1020;
0072832880999992010061115004-13267-043417FM-15+0443SBLP V0202101N003119999999Y0099001N1+02901+01801999999ADDMA1101901999999REMMET045METAR SBLP 111500Z 21006KT CAVOK 29/18 Q1019;
0072832880999992010061116004-13267-043417FM-15+0443SBLP V0202101N001519999999Y0099001N1+03101+01401999999ADDMA1101801999999REMMET045METAR SBLP 111600Z 21003KT CAVOK 31/14 Q1018;
0072832880999992010061117004-13267-043417FM-15+0443SBLP V0202101N001519999999Y0099001N1+03201+01401999999ADDMA1101691999999REMMET045METAR SBLP 111700Z 21003KT CAVOK 32/14 Q1017;
0072832880999992010061118004-13267-043417FM-15+0443SBLP V0202101N003119999999Y0099001N1+03301+01101999999ADDMA1101591999999REMMET045METAR SBLP 111800Z 21006KT CAVOK 33/11 Q1016;
0072832880999992010061119004-13267-043417FM-15+0443SBLP V0202101N003119999999Y0099001N1+03301+01201999999ADDMA1101491999999REMMET045METAR SBLP 111900Z 21006KT CAVOK 33/12 Q1015;
0072832880999992010061120004-13267-043417FM-15+0443SBLP V0202101N002619999999Y0099001N1+03201+01201999999ADDMA1101491999999REMMET045METAR SBLP 112000Z 21005KT CAVOK 32/12 Q1015;
0072832880999992010061121004-13267-043417FM-15+0443SBLP V0202101N001519999999Y0099001N1+02701+01301999999ADDMA1101591999999REMMET045METAR SBLP 112100Z 21003KT CAVOK 27/13 Q1016;
0072832880999992010061210004-13267-043417FM-15+0443SBLP V0202101N002119999999Y0099001N1+01801+01501999999ADDMA1102001999999REMMET045METAR SBLP 121000Z 21004KT CAVOK 18/15 Q1020;
0072832880999992010061211004-13267-043417FM-15+0443SBLP V0201801N003119999999Y0099001N1+02001+01501999999ADDMA1102101999999REMMET045METAR SBLP 121100Z 18006KT CAVOK 20/15 Q1021;
0072832880999992010061212004-13267-043417FM-15+0443SBLP V0201801N003119999999Y0099001N1+02501+01601999999ADDMA1102101999999REMMET045METAR SBLP 121200Z 18006KT CAVOK 25/16 Q1021;
0072832880999992010061213004-13267-043417FM-15+0443SBLP V0201001N002119999999Y0099001N1+02701+01701999999ADDMA1102101999999REMMET045METAR SBLP 121300Z 10004KT CAVOK 27/17 Q1021;
0072832880999992010061214004-13267-043417FM-15+0443SBLP V0201801N003119999999Y0099001N1+03001+01701999999ADDMA1102001999999REMMET045METAR SBLP 121400Z 18006KT CAVOK 30/17 Q1020;
0072832880999992010061215004-13267-043417FM-15+0443SBLP V0201601N002119999999Y0099001N1+03101+01501999999ADDMA1101901999999REMMET045METAR SBLP 121500Z 16004KT CAVOK 31/15 Q1019;
0072832880999992010061216004-13267-043417FM-15+0443SBLP V0202401N003119999999Y0099001N1+03201+01501999999ADDMA1101801999999REMMET045METAR SBLP 121600Z 24006KT CAVOK 32/15 Q1018;
0072832880999992010061217004-13267-043417FM-15+0443SBLP V0201501N003119999999Y0099001N1+03201+01501999999ADDMA1101691999999REMMET045METAR SBLP 121700Z 15006KT CAVOK 32/15 Q1017;
0072832880999992010061218004-13267-043417FM-15+0443SBLP V0201801N004119999999Y0099001N1+03301+01401999999ADDMA1101591999999REMMET045METAR SBLP 121800Z 18008KT CAVOK 33/14 Q1016;
0072832880999992010061219004-13267-043417FM-15+0443SBLP V0201501N003119999999Y0099001N1+03301+01501999999ADDMA1101591999999REMMET045METAR SBLP 121900Z 15006KT CAVOK 33/15 Q1016;
0072832880999992010061220004-13267-043417FM-15+0443SBLP V0201801N003119999999Y0099001N1+03101+01601999999ADDMA1101591999999REMMET045METAR SBLP 122000Z 18006KT CAVOK 31/16 Q1016;
0072832880999992010061221004-13267-043417FM-15+0443SBLP V0209999C000019999999Y0099001N1+02901+01701999999ADDMA1101691999999REMMET045METAR SBLP 122100Z 00000KT CAVOK 29/17 Q1017;
0072832880999992010061310004-13267-043417FM-15+0443SBLP V0209999C000019999999Y0099001N1+02101+01601999999ADDMA1102001999999REMMET045METAR SBLP 131000Z 00000KT CAVOK 21/16 Q1020;
0072832880999992010061311004-13267-043417FM-15+0443SBLP V0209999C000019999999Y0099001N1+02301+01501999999ADDMA1102101999999REMMET045METAR SBLP 131100Z 00000KT CAVOK 23/15 Q1021;
0072832880999992010061312004-13267-043417FM-15+0443SBLP V0209999C000019999999Y0099001N1+02501+01501999999ADDMA1102101999999REMMET045METAR SBLP 131200Z 00000KT CAVOK 25/15 Q1021;
0072832880999992010061313004-13267-043417FM-15+0443SBLP V0201801N003119999999Y0099001N1+02701+01501999999ADDMA1102101999999REMMET045METAR SBLP 131300Z 18006KT CAVOK 27/15 Q1021;
0072832880999992010061314004-13267-043417FM-15+0443SBLP V0201801N003119999999Y0099001N1+02901+01501999999ADDMA1102001999999REMMET045METAR SBLP 131400Z 18006KT CAVOK 29/15 Q1020;
0072832880999992010061315004-13267-043417FM-15+0443SBLP V0201801N003119999999Y0099001N1+03001+01501999999ADDMA1101901999999REMMET045METAR SBLP 131500Z 18006KT CAVOK 30/15 Q1019;
0072832880999992010061316004-13267-043417FM-15+0443SBLP V0201801N006219999999Y0099001N1+03001+01401999999ADDMA1101801999999REMMET045METAR SBLP 131600Z 18012KT CAVOK 30/14 Q1018;
0072832880999992010061317004-13267-043417FM-15+0443SBLP V0201801N005119999999Y0099001N1+03001+01401999999ADDMA1101691999999REMMET045METAR SBLP 131700Z 18010KT CAVOK 30/14 Q1017;
0072832880999992010061318004-13267-043417FM-15+0443SBLP V0202001N005119999999Y0099001N1+03001+01201999999ADDMA1101591999999REMMET045METAR SBLP 131800Z 20010KT CAVOK 30/12 Q1016;
0072832880999992010061319004-13267-043417FM-15+0443SBLP V0202101N005119999999Y0099001N1+03001+01201999999ADDMA1101591999999REMMET045METAR SBLP 131900Z 21010KT CAVOK 30/12 Q1016;
0072832880999992010061320004-13267-043417FM-15+0443SBLP V0202101N004119999999Y0099001N1+02901+01301999999ADDMA1101591999999REMMET045METAR SBLP 132000Z 21008KT CAVOK 29/13 Q1016;
0072832880999992010061321004-13267-043417FM-15+0443SBLP V0202101N002119999999Y0099001N1+02601+01401999999ADDMA1101591999999REMMET045METAR SBLP 132100Z 21004KT CAVOK 26/14 Q1016;
0072832880999992010061410004-13267-043417FM-15+0443SBLP V0202101N003119999999Y0099001N1+01501+01001999999ADDMA1101901999999REMMET045METAR SBLP 141000Z 21006KT CAVOK 15/10 Q1019;
0072832880999992010061411004-13267-043417FM-15+0443SBLP V0202101N003119999999Y0099001N1+01501+01001999999ADDMA1101901999999REMMET045METAR SBLP 141100Z 21006KT CAVOK 15/10 Q1019;
0072832880999992010061412004-13267-043417FM-15+0443SBLP V0202101N003119999999Y0099001N1+02101+01201999999ADDMA1102101999999REMMET045METAR SBLP 141200Z 21006KT CAVOK 21/12 Q1021;
0072832880999992010061413004-13267-043417FM-15+0443SBLP V0201801N004119999999Y0099001N1+02401+01201999999ADDMA1102101999999REMMET045METAR SBLP 141300Z 18008KT CAVOK 24/12 Q1021;
0072832880999992010061414004-13267-043417FM-15+0443SBLP V0201501N002119999999Y0099001N1+02601+01201999999ADDMA1102101999999REMMET045METAR SBLP 141400Z 15004KT CAVOK 26/12 Q1021;
0072832880999992010061415004-13267-043417FM-15+0443SBLP V0201801N004119999999Y0099001N1+02801+01201999999ADDMA1102001999999REMMET045METAR SBLP 141500Z 18008KT CAVOK 28/12 Q1020;
0072832880999992010061416004-13267-043417FM-15+0443SBLP V0201801N003119999999Y0099001N1+02901+01201999999ADDMA1101801999999REMMET045METAR SBLP 141600Z 18006KT CAVOK 29/12 Q1018;
0072832880999992010061417004-13267-043417FM-15+0443SBLP V0201801N003119999999Y0099001N1+03101+01201999999ADDMA1101691999999REMMET045METAR SBLP 141700Z 18006KT CAVOK 31/12 Q1017;
0072832880999992010061419004-13267-043417FM-15+0443SBLP V0201801N003119999999Y0099001N1+03101+01201999999ADDMA1101591999999REMMET045METAR SBLP 141900Z 18006KT CAVOK 31/12 Q1016;
0072832880999992010061420004-13267-043417FM-15+0443SBLP V0201801N003119999999Y0099001N1+03001+01201999999ADDMA1101691999999REMMET045METAR SBLP 142000Z 18006KT CAVOK 30/12 Q1017;
0072832880999992010061421004-13267-043417FM-15+0443SBLP V0201801N003119999999Y0099001N1+02901+01301999999ADDMA1101691999999REMMET045METAR SBLP 142100Z 18006KT CAVOK 29/13 Q1017;
0072832880999992010061510004-13267-043417FM-15+0443SBLP V0209999C000019999999Y0099001N1+01801+01401999999ADDMA1102001999999REMMET045METAR SBLP 151000Z 00000KT CAVOK 18/14 Q1020;
0072832880999992010061511004-13267-043417FM-15+0443SBLP V0209999C000019999999Y0099001N1+02001+01401999999ADDMA1102101999999REMMET045METAR SBLP 151100Z 00000KT CAVOK 20/14 Q1021;
0072832880999992010061512004-13267-043417FM-15+0443SBLP V0209999C000019999999Y0099001N1+02201+01401999999ADDMA1102101999999REMMET045METAR SBLP 151200Z 00000KT CAVOK 22/14 Q1021;
0072832880999992010061513004-13267-043417FM-15+0443SBLP V0209999C000019999999Y0099001N1+02401+01301999999ADDMA1102101999999REMMET045METAR SBLP 151300Z 00000KT CAVOK 24/13 Q1021;
0072832880999992010061514004-13267-043417FM-15+0443SBLP V0201801N003119999999Y0099001N1+02701+01301999999ADDMA1102101999999REMMET045METAR SBLP 151400Z 18006KT CAVOK 27/13 Q1021;
0072832880999992010061515004-13267-043417FM-15+0443SBLP V0201801N003119999999Y0099001N1+02801+01301999999ADDMA1101901999999REMMET045METAR SBLP 151500Z 18006KT CAVOK 28/13 Q1019;
0072832880999992010061516004-13267-043417FM-15+0443SBLP V0202401N004119999999Y0099001N1+02901+01401999999ADDMA1101801999999REMMET045METAR SBLP 151600Z 24008KT CAVOK 29/14 Q1018;
0072832880999992010061517004-13267-043417FM-15+0443SBLP V0202701N003119999999Y0099001N1+03001+01201999999ADDMA1101691999999REMMET045METAR SBLP 151700Z 27006KT CAVOK 30/12 Q1017;
0072832880999992010061518004-13267-043417FM-15+0443SBLP V0202501N002119999999Y0099001N1+03101+01201999999ADDMA1101691999999REMMET045METAR SBLP 151800Z 25004KT CAVOK 31/12 Q1017;
0072832880999992010061519004-13267-043417FM-15+0443SBLP V0202401N001519999999Y0099001N1+03101+01101999999ADDMA1101591999999REMMET045METAR SBLP 151900Z 24003KT CAVOK 31/11 Q1016;
0072832880999992010061520004-13267-043417FM-15+0443SBLP V0202401N001519999999Y0099001N1+03101+01101999999ADDMA1101591999999REMMET045METAR SBLP 152000Z 24003KT CAVOK 31/11 Q1016;
0072832880999992010061521004-13267-043417FM-15+0443SBLP V0209999C000019999999Y0099001N1+02701+01201999999ADDMA1101691999999REMMET045METAR SBLP 152100Z 00000KT CAVOK 27/12 Q1017;
0072832880999992010061610004-13267-043417FM-15+0443SBLP V0202001N001519999999Y0099001N1+01401+01101999999ADDMA1102001999999REMMET045METAR SBLP 161000Z 20003KT CAVOK 14/11 Q1020;
0072832880999992010061611004-13267-043417FM-15+0443SBLP V0202101N001519999999Y0099001N1+01601+01101999999ADDMA1102001999999REMMET045METAR SBLP 161100Z 21003KT CAVOK 16/11 Q1020;
0072832880999992010061612004-13267-043417FM-15+0443SBLP V0202001N002119999999Y0099001N1+02201+01401999999ADDMA1102101999999REMMET045METAR SBLP 161200Z 20004KT CAVOK 22/14 Q1021;
0072832880999992010061613004-13267-043417FM-15+0443SBLP V0202001N002119999999Y0099001N1+02501+01401999999ADDMA1102101999999REMMET045METAR SBLP 161300Z 20004KT CAVOK 25/14 Q1021;
0072832880999992010061614004-13267-043417FM-15+0443SBLP V0201501N002119999999Y0099001N1+02801+01301999999ADDMA1102001999999REMMET045METAR SBLP 161400Z 15004KT CAVOK 28/13 Q1020;
0072832880999992010061615004-13267-043417FM-15+0443SBLP V0200901N002619999999Y0099001N1+03001+01201999999ADDMA1101901999999REMMET045METAR SBLP 161500Z 09005KT CAVOK 30/12 Q1019;
0072832880999992010061616004-13267-043417FM-15+0443SBLP V0202101N004119999999Y0099001N1+03101+01201999999ADDMA1101801999999REMMET045METAR SBLP 161600Z 21008KT CAVOK 31/12 Q1018;
0072832880999992010061617004-13267-043417FM-15+0443SBLP V0202401N003119999999Y0099001N1+03101+01201999999ADDMA1101691999999REMMET045METAR SBLP 161700Z 24006KT CAVOK 31/12 Q1017;
0072832880999992010061618004-13267-043417FM-15+0443SBLP V0202101N003119999999Y0099001N1+03201+01201999999ADDMA1101591999999REMMET045METAR SBLP 161800Z 21006KT CAVOK 32/12 Q1016;
0072832880999992010061619004-13267-043417FM-15+0443SBLP V0201801N003119999999Y0099001N1+03201+01201999999ADDMA1101591999999REMMET045METAR SBLP 161900Z 18006KT CAVOK 32/12 Q1016;
0072832880999992010061620004-13267-043417FM-15+0443SBLP V0201801N003119999999Y0099001N1+03201+01301999999ADDMA1101591999999REMMET045METAR SBLP 162000Z 18006KT CAVOK 32/13 Q1016;
0072832880999992010061621004-13267-043417FM-15+0443SBLP V0209999C000019999999Y0099001N1+02901+01401999999ADDMA1101591999999REMMET045METAR SBLP 162100Z 00000KT CAVOK 29/14 Q1016;
0072832880999992010061710004-13267-043417FM-15+0443SBLP V0202101N002119999999Y0099001N1+01501+01201999999ADDMA1101801999999REMMET045METAR SBLP 171000Z 21004KT CAVOK 15/12 Q1018;
0072832880999992010061711004-13267-043417FM-15+0443SBLP V0202101N002119999999Y0099001N1+01701+01401999999ADDMA1101901999999REMMET045METAR SBLP 171100Z 21004KT CAVOK 17/14 Q1019;
0072832880999992010061712004-13267-043417FM-15+0443SBLP V0202001N002119999999Y0099001N1+02301+01501999999ADDMA1101901999999REMMET045METAR SBLP 171200Z 20004KT CAVOK 23/15 Q1019;
0072832880999992010061713004-13267-043417FM-15+0443SBLP V0201901N002119999999Y0099001N1+02601+01501999999ADDMA1101901999999REMMET045METAR SBLP 171300Z 19004KT CAVOK 26/15 Q1019;
0072832880999992010061714004-13267-043417FM-15+0443SBLP V0201501N003119999999Y0099001N1+03001+01301999999ADDMA1101901999999REMMET045METAR SBLP 171400Z 15006KT CAVOK 30/13 Q1019;
0072832880999992010061715004-13267-043417FM-15+0443SBLP V0201501N003119999999Y0099001N1+03001+01201999999ADDMA1101801999999REMMET045METAR SBLP 171500Z 15006KT CAVOK 30/12 Q1018;
0072832880999992010061716004-13267-043417FM-15+0443SBLP V0202401N003119999999Y0099001N1+03001+01201999999ADDMA1101591999999REMMET045METAR SBLP 171600Z 24006KT CAVOK 30/12 Q1016;
0072832880999992010061717004-13267-043417FM-15+0443SBLP V0202101N003119999999Y0099001N1+03101+01101999999ADDMA1101491999999REMMET045METAR SBLP 171700Z 21006KT CAVOK 31/11 Q1015;
0072832880999992010061718004-13267-043417FM-15+0443SBLP V0202101N003119999999Y0099001N1+03201+01301999999ADDMA1101491999999REMMET045METAR SBLP 171800Z 21006KT CAVOK 32/13 Q1015;
0072832880999992010061719004-13267-043417FM-15+0443SBLP V0201801N003119999999Y0099001N1+03201+01301999999ADDMA1101491999999REMMET045METAR SBLP 171900Z 18006KT CAVOK 32/13 Q1015;
0072832880999992010061720004-13267-043417FM-15+0443SBLP V0201801N003119999999Y0099001N1+02901+01501999999ADDMA1101491999999REMMET045METAR SBLP 172000Z 18006KT CAVOK 29/15 Q1015;
0072832880999992010061721004-13267-043417FM-15+0443SBLP V0209999C000019999999Y0099001N1+02801+01601999999ADDMA1101491999999REMMET045METAR SBLP 172100Z 00000KT CAVOK 28/16 Q1015;
0072832880999992010061810004-13267-043417FM-15+0443SBLP V0202101N003119999999Y0099001N1+01401+01201999999ADDMA1101691999999REMMET045METAR SBLP 181000Z 21006KT CAVOK 14/12 Q1017;
0072832880999992010061811004-13267-043417FM-15+0443SBLP V0202101N003119999999Y0099001N1+01701+01201999999ADDMA1101801999999REMMET045METAR SBLP 181100Z 21006KT CAVOK 17/12 Q1018;
0072832880999992010061812004-13267-043417FM-15+0443SBLP V0201801N003119999999Y0099001N1+02301+01401999999ADDMA1101901999999REMMET045METAR SBLP 181200Z 18006KT CAVOK 23/14 Q1019;
0072832880999992010061813004-13267-043417FM-15+0443SBLP V0209999C000019999999Y0099001N1+02701+01401999999ADDMA1101801999999REMMET045METAR SBLP 181300Z 00000KT CAVOK 27/14 Q1018;
0072832880999992010061814004-13267-043417FM-15+0443SBLP V0201201N003119999999Y0099001N1+02901+01301999999ADDMA1101801999999REMMET045METAR SBLP 181400Z 12006KT CAVOK 29/13 Q1018;
0072832880999992010061815004-13267-043417FM-15+0443SBLP V0200601N003119999999Y0099001N1+03001+01401999999ADDMA1101591999999REMMET045METAR SBLP 181500Z 06006KT CAVOK 30/14 Q1016;
0072832880999992010061816004-13267-043417FM-15+0443SBLP V0201101N003119999999Y0099001N1+03201+00901999999ADDMA1101491999999REMMET045METAR SBLP 181600Z 11006KT CAVOK 32/09 Q1015;
0072832880999992010061817004-13267-043417FM-15+0443SBLP V0209999C000019999999Y0099001N1+03301+00701999999ADDMA1101391999999REMMET045METAR SBLP 181700Z 00000KT CAVOK 33/07 Q1014;
0072832880999992010061818004-13267-043417FM-15+0443SBLP V0203601N004119999999Y0099001N1+03401+00801999999ADDMA1101291999999REMMET045METAR SBLP 181800Z 36008KT CAVOK 34/08 Q1013;
0072832880999992010061819004-13267-043417FM-15+0443SBLP V0202701N002119999999Y0099001N1+03401+00801999999ADDMA1101291999999REMMET045METAR SBLP 181900Z 27004KT CAVOK 34/08 Q1013;
0072832880999992010061820004-13267-043417FM-15+0443SBLP V0202701N002119999999Y0099001N1+03301+00901999999ADDMA1101291999999REMMET045METAR SBLP 182000Z 27004KT CAVOK 33/09 Q1013;
0072832880999992010061821004-13267-043417FM-15+0443SBLP V0209999C000019999999Y0099001N1+02801+01201999999ADDMA1101291999999REMMET045METAR SBLP 182100Z 00000KT CAVOK 28/12 Q1013;
0072832880999992010061910004-13267-043417FM-15+0443SBLP V0202101N002119999999Y0099001N1+01501+01301999999ADDMA1101691999999REMMET045METAR SBLP 191000Z 21004KT CAVOK 15/13 Q1017;
0072832880999992010061911004-13267-043417FM-15+0443SBLP V0201801N003119999999Y0099001N1+01901+01401999999ADDMA1101801999999REMMET045METAR SBLP 191100Z 18006KT CAVOK 19/14 Q1018;
0072832880999992010061912004-13267-043417FM-15+0443SBLP V0201501N003119999999Y0099001N1+02401+01501999999ADDMA1101801999999REMMET045METAR SBLP 191200Z 15006KT CAVOK 24/15 Q1018;
0072832880999992010061913004-13267-043417FM-15+0443SBLP V0201501N004119999999Y0099001N1+02701+01401999999ADDMA1101801999999REMMET045METAR SBLP 191300Z 15008KT CAVOK 27/14 Q1018;
0072832880999992010061914004-13267-043417FM-15+0443SBLP V0201501N004119999999Y0099001N1+02901+01301999999ADDMA1101801999999REMMET045METAR SBLP 191400Z 15008KT CAVOK 29/13 Q1018;
0072832880999992010061915004-13267-043417FM-15+0443SBLP V0201501N004119999999Y0099001N1+03001+01301999999ADDMA1101691999999REMMET045METAR SBLP 191500Z 15008KT CAVOK 30/13 Q1017;
0072832880999992010061916004-13267-043417FM-15+0443SBLP V0201801N003119999999Y0099001N1+03101+01301999999ADDMA1101491999999REMMET045METAR SBLP 191600Z 18006KT CAVOK 31/13 Q1015;
0072832880999992010061917004-13267-043417FM-15+0443SBLP V0201801N003119999999Y0099001N1+03201+01301999999ADDMA1101391999999REMMET045METAR SBLP 191700Z 18006KT CAVOK 32/13 Q1014;
0072832880999992010061918004-13267-043417FM-15+0443SBLP V0201801N003119999999Y0099001N1+03201+01301999999ADDMA1101391999999REMMET045METAR SBLP 191800Z 18006KT CAVOK 32/13 Q1014;
0072832880999992010061919004-13267-043417FM-15+0443SBLP V0201801N003119999999Y0099001N1+03101+01301999999ADDMA1101291999999REMMET045METAR SBLP 191900Z 18006KT CAVOK 31/13 Q1013;
0072832880999992010061920004-13267-043417FM-15+0443SBLP V0209999C000019999999Y0099001N1+03101+01301999999ADDMA1101291999999REMMET045METAR SBLP 192000Z 00000KT CAVOK 31/13 Q1013;
0072832880999992010061921004-13267-043417FM-15+0443SBLP V0209999C000019999999Y0099001N1+02901+01301999999ADDMA1101391999999REMMET045METAR SBLP 192100Z 00000KT CAVOK 29/13 Q1014;
0072832880999992010062010004-13267-043417FM-15+0443SBLP V0202101N002119999999Y0099001N1+01701+01401999999ADDMA1101491999999REMMET045METAR SBLP 201000Z 21004KT CAVOK 17/14 Q1015;
0072832880999992010062011004-13267-043417FM-15+0443SBLP V0202101N003119999999Y0099001N1+01901+01501999999ADDMA1101691999999REMMET045METAR SBLP 201100Z 21006KT CAVOK 19/15 Q1017;
0072832880999992010062012004-13267-043417FM-15+0443SBLP V0202101N002119999999Y0099001N1+02401+01601999999ADDMA1101691999999REMMET045METAR SBLP 201200Z 21004KT CAVOK 24/16 Q1017;
0072832880999992010062013004-13267-043417FM-15+0443SBLP V0202401N003119999999Y0099001N1+02801+01601999999ADDMA1101691999999REMMET045METAR SBLP 201300Z 24006KT CAVOK 28/16 Q1017;
0072832880999992010062014004-13267-043417FM-15+0443SBLP V0202101N003119999999Y0099001N1+03001+01601999999ADDMA1101591999999REMMET045METAR SBLP 201400Z 21006KT CAVOK 30/16 Q1016;
0072832880999992010062015004-13267-043417FM-15+0443SBLP V0202101N003119999999Y0099001N1+03101+01701999999ADDMA1101491999999REMMET045METAR SBLP 201500Z 21006KT CAVOK 31/17 Q1015;
0072832880999992010062016004-13267-043417FM-15+0443SBLP V0202701N003119999999Y0099001N1+03301+01601999999ADDMA1101391999999REMMET045METAR SBLP 201600Z 27006KT CAVOK 33/16 Q1014;
0072832880999992010062017004-13267-043417FM-15+0443SBLP V0202701N003119999999Y0099001N1+03301+01601999999ADDMA1101191999999REMMET045METAR SBLP 201700Z 27006KT CAVOK 33/16 Q1012;
0072832880999992010062018004-13267-043417FM-15+0443SBLP V0202701N003119999999Y0099001N1+03401+01501999999ADDMA1101081999999REMMET045METAR SBLP 201800Z 27006KT CAVOK 34/15 Q1011;
0072832880999992010062019004-13267-043417FM-15+0443SBLP V0202701N003119999999Y0099001N1+03401+01501999999ADDMA1101191999999REMMET045METAR SBLP 201900Z 27006KT CAVOK 34/15 Q1012;
0072832880999992010062020004-13267-043417FM-15+0443SBLP V0202701N003119999999Y0099001N1+03201+01601999999ADDMA1101191999999REMMET045METAR SBLP 202000Z 27006KT CAVOK 32/16 Q1012;
0072832880999992010062021004-13267-043417FM-15+0443SBLP V0201801N003119999999Y0099001N1+03101+01601999999ADDMA1101191999999REMMET045METAR SBLP 202100Z 18006KT CAVOK 31/16 Q1012;
0072832880999992010062110004-13267-043417FM-15+0443SBLP V0209999C000019999999Y0099001N1+02001+01501999999ADDMA1101491999999REMMET045METAR SBLP 211000Z 00000KT CAVOK 20/15 Q1015;
0072832880999992010062111004-13267-043417FM-15+0443SBLP V0209999C000019999999Y0099001N1+02301+01501999999ADDMA1101591999999REMMET045METAR SBLP 211100Z 00000KT CAVOK 23/15 Q1016;
0072832880999992010062112004-13267-043417FM-15+0443SBLP V0209999C000019999999Y0099001N1+02601+01401999999ADDMA1101591999999REMMET045METAR SBLP 211200Z 00000KT CAVOK 26/14 Q1016;
0072832880999992010062113004-13267-043417FM-15+0443SBLP V0200901N003119999999Y0099001N1+02901+01401999999ADDMA1101591999999REMMET045METAR SBLP 211300Z 09006KT CAVOK 29/14 Q1016;
0072832880999992010062114004-13267-043417FM-15+0443SBLP V0200901N003119999999Y0099001N1+03101+01401999999ADDMA1101491999999REMMET045METAR SBLP 211400Z 09006KT CAVOK 31/14 Q1015;
0072832880999992010062115004-13267-043417FM-15+0443SBLP V0200901N003119999999Y0099001N1+03301+01401999999ADDMA1101391999999REMMET045METAR SBLP 211500Z 09006KT CAVOK 33/14 Q1014;
0072832880999992010062116004-13267-043417FM-15+0443SBLP V0200301N001519999999Y0099001N1+03401+01201999999ADDMA1101391999999REMMET045METAR SBLP 211600Z 03003KT CAVOK 34/12 Q1014;
0072832880999992010062117004-13267-043417FM-15+0443SBLP V0200601N002119999999Y0099001N1+03501+01201999999ADDMA1101191999999REMMET045METAR SBLP 211700Z 06004KT CAVOK 35/12 Q1012;
0072832880999992010062118004-13267-043417FM-15+0443SBLP V0200401N001519999999Y0099001N1+03501+01201999999ADDMA1101191999999REMMET045METAR SBLP 211800Z 04003KT CAVOK 35/12 Q1012;
0072832880999992010062119004-13267-043417FM-15+0443SBLP V0202701N001519999999Y0099001N1+03501+01201999999ADDMA1101191999999REMMET045METAR SBLP 211900Z 27003KT CAVOK 35/12 Q1012;
0072832880999992010062120004-13267-043417FM-15+0443SBLP V0202101N001019999999Y0099001N1+03401+01201999999ADDMA1101191999999REMMET045METAR SBLP 212000Z 21002KT CAVOK 34/12 Q1012;
0072832880999992010062121004-13267-043417FM-15+0443SBLP V0209999C000019999999Y0099001N1+03101+01201999999ADDMA1101291999999REMMET045METAR SBLP 212100Z 00000KT CAVOK 31/12 Q1013;
0072832880999992010062210004-13267-043417FM-15+0443SBLP V0201801N001519999999Y0099001N1+01801+01401999999ADDMA1101691999999REMMET045METAR SBLP 221000Z 18003KT CAVOK 18/14 Q1017;
0072832880999992010062211004-13267-043417FM-15+0443SBLP V0201901N001519999999Y0099001N1+02001+01501999999ADDMA1101801999999REMMET045METAR SBLP 221100Z 19003KT CAVOK 20/15 Q1018;
0072832880999992010062212004-13267-043417FM-15+0443SBLP V0202001N001519999999Y0099001N1+02601+01601999999ADDMA1101801999999REMMET045METAR SBLP 221200Z 20003KT CAVOK 26/16 Q1018;
0072832880999992010062213004-13267-043417FM-15+0443SBLP V0201801N001519999999Y0099001N1+02901+01501999999ADDMA1101801999999REMMET045METAR SBLP 221300Z 18003KT CAVOK 29/15 Q1018;
0072832880999992010062214004-13267-043417FM-15+0443SBLP V0209999C000019999999Y0099001N1+03101+01501999999ADDMA1101691999999REMMET045METAR SBLP 221400Z 00000KT CAVOK 31/15 Q1017;
0072832880999992010062215004-13267-043417FM-15+0443SBLP V0202201N002619999999Y0099001N1+03201+01501999999ADDMA1101591999999REMMET045METAR SBLP 221500Z 22005KT CAVOK 32/15 Q1016;
0072832880999992010062216004-13267-043417FM-15+0443SBLP V0202401N003119999999Y0099001N1+03301+01601999999ADDMA1101491999999REMMET045METAR SBLP 221600Z 24006KT CAVOK 33/16 Q1015;
0072832880999992010062217004-13267-043417FM-15+0443SBLP V0202401N003119999999Y0099001N1+03301+01501999999ADDMA1101391999999REMMET045METAR SBLP 221700Z 24006KT CAVOK 33/15 Q1014;
0072832880999992010062218004-13267-043417FM-15+0443SBLP V0202401N003119999999Y0099001N1+03401+01501999999ADDMA1101291999999REMMET045METAR SBLP 221800Z 24006KT CAVOK 34/15 Q1013;
0072832880999992010062219004-13267-043417FM-15+0443SBLP V0202401N003119999999Y0099001N1+03401+01501999999ADDMA1101291999999REMMET045METAR SBLP 221900Z 24006KT CAVOK 34/15 Q1013;
0072832880999992010062220004-13267-043417FM-15+0443SBLP V0209999C000019999999Y0099001N1+03301+01501999999ADDMA1101391999999REMMET045METAR SBLP 222000Z 00000KT CAVOK 33/15 Q1014;
0072832880999992010062221004-13267-043417FM-15+0443SBLP V0209999C000019999999Y0099001N1+03101+01601999999ADDMA1101391999999REMMET045METAR SBLP 222100Z 00000KT CAVOK 31/16 Q1014;
0072832880999992010062310004-13267-043417FM-15+0443SBLP V0209999C000019999999Y0099001N1+01801+01401999999ADDMA1101691999999REMMET045METAR SBLP 231000Z 00000KT CAVOK 18/14 Q1017;
0072832880999992010062311004-13267-043417FM-15+0443SBLP V0209999C000019999999Y0099001N1+02001+01601999999ADDMA1101801999999REMMET045METAR SBLP 231100Z 00000KT CAVOK 20/16 Q1018;
0072832880999992010062312004-13267-043417FM-15+0443SBLP V0202101N003119999999Y0099001N1+02501+01501999999ADDMA1101901999999REMMET045METAR SBLP 231200Z 21006KT CAVOK 25/15 Q1019;
0072832880999992010062313004-13267-043417FM-15+0443SBLP V0209999C000019999999Y0099001N1+02901+01401999999ADDMA1101801999999REMMET045METAR SBLP 231300Z 00000KT CAVOK 29/14 Q1018;
0072832880999992010062315004-13267-043417FM-15+0443SBLP V0203501N003119999999Y0099001N1+03301+01401999999ADDMA1101591999999REMMET045METAR SBLP 231500Z 35006KT CAVOK 33/14 Q1016;
0072832880999992010062316004-13267-043417FM-15+0443SBLP V0202401N003119999999Y0099001N1+03501+01401999999ADDMA1101491999999REMMET045METAR SBLP 231600Z 24006KT CAVOK 35/14 Q1015;
0072832880999992010062317004-13267-043417FM-15+0443SBLP V0200901N003119999999Y0099001N1+03601+01301999999ADDMA1101391999999REMMET045METAR SBLP 231700Z 09006KT CAVOK 36/13 Q1014;
0072832880999992010062318004-13267-043417FM-15+0443SBLP V0201201N002119999999Y0099001N1+03601+01301999999ADDMA1101291999999REMMET045METAR SBLP 231800Z 12004KT CAVOK 36/13 Q1013;
0072832880999992010062319004-13267-043417FM-15+0443SBLP V0201201N002119999999Y0099001N1+03601+01301999999ADDMA1101291999999REMMET045METAR SBLP 231900Z 12004KT CAVOK 36/13 Q1013;
0072832880999992010062320004-13267-043417FM-15+0443SBLP V0201501N003119999999Y0099001N1+03501+01301999999ADDMA1101391999999REMMET045METAR SBLP 232000Z 15006KT CAVOK 35/13 Q1014;
0072832880999992010062321004-13267-043417FM-15+0443SBLP V0209999C000019999999Y0099001N1+03101+01601999999ADDMA1101491999999REMMET045METAR SBLP 232100Z 00000KT CAVOK 31/16 Q1015;
0072832880999992010062410004-13267-043417FM-15+0443SBLP V0201801N002119999999Y0099001N1+02001+01501999999ADDMA1102001999999REMMET045METAR SBLP 241000Z 18004KT CAVOK 20/15 Q1020;
0072832880999992010062411004-13267-043417FM-15+0443SBLP V0202101N002119999999Y0099001N1+02201+01501999999ADDMA1102101999999REMMET045METAR SBLP 241100Z 21004KT CAVOK 22/15 Q1021;
0072832880999992010062412004-13267-043417FM-15+0443SBLP V0201201N005119999999Y0099001N1+02701+01501999999ADDMA1102201999999REMMET045METAR SBLP 241200Z 12010KT CAVOK 27/15 Q1022;
0072832880999992010062413004-13267-043417FM-15+0443SBLP V0201201N007719999999Y0099001N1+03001+01501999999ADDMA1102201999999REMMET045METAR SBLP 241300Z 12015KT CAVOK 30/15 Q1022;
0072832880999992010062414004-13267-043417FM-15+0443SBLP V0201401N007719999999Y0099001N1+03001+01501999999ADDMA1102201999999REMMET045METAR SBLP 241400Z 14015KT CAVOK 30/15 Q1022;
0072832880999992010062415004-13267-043417FM-15+0443SBLP V0201201N005119999999Y0099001N1+03001+01401999999ADDMA1102001999999REMMET045METAR SBLP 241500Z 12010KT CAVOK 30/14 Q1020;
0072832880999992010062416004-13267-043417FM-15+0443SBLP V0200901N003119999999Y0099001N1+03201+01401999999ADDMA1101901999999REMMET045METAR SBLP 241600Z 09006KT CAVOK 32/14 Q1019;
0072832880999992010062417004-13267-043417FM-15+0443SBLP V0200901N003119999999Y0099001N1+03201+01401999999ADDMA1101801999999REMMET045METAR SBLP 241700Z 09006KT CAVOK 32/14 Q1018;
0072832880999992010062418004-13267-043417FM-15+0443SBLP V0200901N003119999999Y0099001N1+03301+01401999999ADDMA1101691999999REMMET045METAR SBLP 241800Z 09006KT CAVOK 33/14 Q1017;
0072832880999992010062419004-13267-043417FM-15+0443SBLP V0200901N003119999999Y0099001N1+03301+01401999999ADDMA1101691999999REMMET045METAR SBLP 241900Z 09006KT CAVOK 33/14 Q1017;
0072832880999992010062420004-13267-043417FM-15+0443SBLP V0200901N003119999999Y0099001N1+03201+01401999999ADDMA1101691999999REMMET045METAR SBLP 242000Z 09006KT CAVOK 32/14 Q1017;
0072832880999992010062421004-13267-043417FM-15+0443SBLP V0200901N003119999999Y0099001N1+03101+01401999999ADDMA1101801999999REMMET045METAR SBLP 242100Z 09006KT CAVOK 31/14 Q1018;
0072832880999992010062510004-13267-043417FM-15+0443SBLP V0200901N003119999999Y0099001N1+02201+01801999999ADDMA1102101999999REMMET045METAR SBLP 251000Z 09006KT CAVOK 22/18 Q1021;
0072832880999992010062511004-13267-043417FM-15+0443SBLP V0200901N003119999999Y0099001N1+02501+01801999999ADDMA1102201999999REMMET045METAR SBLP 251100Z 09006KT CAVOK 25/18 Q1022;
0120832880999992010062512004-13267-043417FM-15+0443SBLP V0200901N003112200019N0112651N1+02601+01801999999ADDGA1021+009001999GF102991999999999999999999MA1102201999999REMMET051METAR SBLP 251200Z 09006KT 9999 FEW030 26/18 Q1022;
0120832880999992010062513004-13267-043417FM-15+0443SBLP V0200901N003112200019N0112651N1+02601+01801999999ADDGA1041+009001999GF104991999999999999999999MA1102201999999REMMET051METAR SBLP 251300Z 09006KT 9999 SCT030 26/18 Q1022;
0120832880999992010062514004-13267-043417FM-15+0443SBLP V0200901N003110090019N0112651N1+02601+01801999999ADDGA1071+009001999GF107991999999999999999999MA1102201999999REMMET051METAR SBLP 251400Z 09006KT 9999 BKN030 26/18 Q1022;
0120832880999992010062515004-13267-043417FM-15+0443SBLP V0201801N003110090019N0112651N1+02601+01801999999ADDGA1071+009001999GF107991999999999999999999MA1102201999999REMMET051METAR SBLP 251500Z 18006KT 9999 BKN030 26/18 Q1022;
0120832880999992010062516004-13267-043417FM-15+0443SBLP V0201501N004110090019N0112651N1+02701+01801999999ADDGA1071+009001999GF107991999999999999999999MA1102101999999REMMET051METAR SBLP 251600Z 15008KT 9999 BKN030 27/18 Q1021;
0120832880999992010062517004-13267-043417FM-15+0443SBLP V0201601N004110090019N0112651N1+02801+01701999999ADDGA1071+009001999GF107991999999999999999999MA1102001999999REMMET051METAR SBLP 251700Z 16008KT 9999 BKN030 28/17 Q1020;
0120832880999992010062518004-13267-043417FM-15+0443SBLP V0201801N004110090019N0112651N1+02801+01701999999ADDGA1071+009001999GF107991999999999999999999MA1101901999999REMMET051METAR SBLP 251800Z 18008KT 9999 BKN030 28/17 Q1019;
0120832880999992010062519004-13267-043417FM-15+0443SBLP V0201601N004110090019N0112651N1+02901+01701999999ADDGA1071+009001999GF107991999999999999999999MA1101801999999REMMET051METAR SBLP 251900Z 16008KT 9999 BKN030 29/17 Q1018;
0120832880999992010062520004-13267-043417FM-15+0443SBLP V0201501N003110090019N0112651N1+02801+01701999999ADDGA1071+009001999GF107991999999999999999999MA1101801999999REMMET051METAR SBLP 252000Z 15006KT 9999 BKN030 28/17 Q1018;
0120832880999992010062521004-13267-043417FM-15+0443SBLP V0201501N003612200019N0112651N1+02701+01601999999ADDGA1041+009001999GF104991999999999999999999MA1101901999999REMMET051METAR SBLP 252100Z 15007KT 9999 SCT030 27/16 Q1019;
0072832880999992010062610004-13267-043417FM-15+0443SBLP V0201801N001519999999Y0099001N1+01901+01601999999ADDMA1102001999999REMMET045METAR SBLP 261000Z 18003KT CAVOK 19/16 Q1020;
0072832880999992010062611004-13267-043417FM-15+0443SBLP V0201501N003119999999Y0099001N1+02201+01601999999ADDMA1102001999999REMMET045METAR SBLP 261100Z 15006KT CAVOK 22/16 Q1020;
0072832880999992010062612004-13267-043417FM-15+0443SBLP V0201501N004119999999Y0099001N1+02501+01601999999ADDMA1102101999999REMMET045METAR SBLP 261200Z 15008KT CAVOK 25/16 Q1021;
0072832880999992010062613004-13267-043417FM-15+0443SBLP V0201401N003119999999Y0099001N1+02701+01501999999ADDMA1102001999999REMMET045METAR SBLP 261300Z 14006KT CAVOK 27/15 Q1020;
0072832880999992010062614004-13267-043417FM-15+0443SBLP V0201801N004119999999Y0099001N1+02801+01501999999ADDMA1102001999999REMMET045METAR SBLP 261400Z 18008KT CAVOK 28/15 Q1020;
0120832880999992010062615004-13267-043417FM-15+0443SBLP V0201301N003112200019N0112651N1+03001+01501999999ADDGA1021+009001999GF102991999999999999999999MA1101901999999REMMET051METAR SBLP 261500Z 13006KT 9999 FEW030 30/15 Q1019;
0120832880999992010062616004-13267-043417FM-15+0443SBLP V0201501N004112200019N0112651N1+03001+01501999999ADDGA1021+009001999GF102991999999999999999999MA1101801999999REMMET051METAR SBLP 261600Z 15008KT 9999 FEW030 30/15 Q1018;
0120832880999992010062617004-13267-043417FM-15+0443SBLP V0201201N003112200019N0112651N1+03201+01401999999ADDGA1041+009001999GF104991999999999999999999MA1101691999999REMMET051METAR SBLP 261700Z 12006KT 9999 SCT030 32/14 Q1017;
0120832880999992010062618004-13267-043417FM-15+0443SBLP V0200901N003112200019N0112651N1+03101+01501999999ADDGA1041+009001999GF104991999999999999999999MA1101591999999REMMET051METAR SBLP 261800Z 09006KT 9999 SCT030 31/15 Q1016;
0120832880999992010062619004-13267-043417FM-15+0443SBLP V0201201N004112200019N0112651N1+02901+01601999999ADDGA1041+009001999GF104991999999999999999999MA1101591999999REMMET051METAR SBLP 261900Z 12008KT 9999 SCT030 29/16 Q1016;
0120832880999992010062620004-13267-043417FM-15+0443SBLP V0200901N003112200019N0112651N1+02801+01701999999ADDGA1041+009001999GF104991999999999999999999MA1101591999999REMMET051METAR SBLP 262000Z 09006KT 9999 SCT030 28/17 Q1016;
0120832880999992010062621004-13267-043417FM-15+0443SBLP V0200901N003112200019N0112651N1+02701+01801999999ADDGA1021+009001999GF102991999999999999999999MA1101691999999REMMET051METAR SBLP 262100Z 09006KT 9999 FEW030 27/18 Q1017;
0072832880999992010062710004-13267-043417FM-15+0443SBLP V0209999C000019999999Y0099001N1+01701+01401999999ADDMA1101901999999REMMET045METAR SBLP 271000Z 00000KT CAVOK 17/14 Q1019;
0072832880999992010062711004-13267-043417FM-15+0443SBLP V0209999C000019999999Y0099001N1+01901+01601999999ADDMA1102001999999REMMET045METAR SBLP 271100Z 00000KT CAVOK 19/16 Q1020;
0072832880999992010062712004-13267-043417FM-15+0443SBLP V0201801N003119999999Y0099001N1+02401+01501999999ADDMA1102001999999REMMET045METAR SBLP 271200Z 18006KT CAVOK 24/15 Q1020;
0072832880999992010062713004-13267-043417FM-15+0443SBLP V0201401N003119999999Y0099001N1+02701+01501999999ADDMA1102001999999REMMET045METAR SBLP 271300Z 14006KT CAVOK 27/15 Q1020;
0072832880999992010062714004-13267-043417FM-15+0443SBLP V0201801N003119999999Y0099001N1+02901+01401999999ADDMA1101901999999REMMET045METAR SBLP 271400Z 18006KT CAVOK 29/14 Q1019;
0072832880999992010062715004-13267-043417FM-15+0443SBLP V0200901N003119999999Y0099001N1+03101+01301999999ADDMA1101901999999REMMET045METAR SBLP 271500Z 09006KT CAVOK 31/13 Q1019;
0072832880999992010062716004-13267-043417FM-15+0443SBLP V0200901N003119999999Y0099001N1+03201+01401999999ADDMA1101691999999REMMET045METAR SBLP 271600Z 09006KT CAVOK 32/14 Q1017;
0072832880999992010062717004-13267-043417FM-15+0443SBLP V0200901N003119999999Y0099001N1+03201+01401999999ADDMA1101691999999REMMET045METAR SBLP 271700Z 09006KT CAVOK 32/14 Q1017;
0072832880999992010062718004-13267-043417FM-15+0443SBLP V0200901N003119999999Y0099001N1+03201+01401999999ADDMA1101591999999REMMET045METAR SBLP 271800Z 09006KT CAVOK 32/14 Q1016;
0072832880999992010062719004-13267-043417FM-15+0443SBLP V0200901N003119999999Y0099001N1+03201+01401999999ADDMA1101591999999REMMET045METAR SBLP 271900Z 09006KT CAVOK 32/14 Q1016;
0072832880999992010062720004-13267-043417FM-15+0443SBLP V0200901N003119999999Y0099001N1+03101+01401999999ADDMA1101591999999REMMET045METAR SBLP 272000Z 09006KT CAVOK 31/14 Q1016;
0072832880999992010062721004-13267-043417FM-15+0443SBLP V0200901N003119999999Y0099001N1+03001+01401999999ADDMA1101691999999REMMET045METAR SBLP 272100Z 09006KT CAVOK 30/14 Q1017;
0072832880999992010062810004-13267-043417FM-15+0443SBLP V0209999C000019999999Y0099001N1+01601+01401999999ADDMA1102001999999REMMET045METAR SBLP 281000Z 00000KT CAVOK 16/14 Q1020;
0072832880999992010062811004-13267-043417FM-15+0443SBLP V0201801N003119999999Y0099001N1+01801+01501999999ADDMA1102101999999REMMET045METAR SBLP 281100Z 18006KT CAVOK 18/15 Q1021;
0072832880999992010062812004-13267-043417FM-15+0443SBLP V0201501N003119999999Y0099001N1+02501+01201999999ADDMA1102101999999REMMET045METAR SBLP 281200Z 15006KT CAVOK 25/12 Q1021;
0120832880999992010062813004-13267-043417FM-15+0443SBLP V0201201N004112200019N0112651N1+02701+01601999999ADDGA1021+009001999GF102991999999999999999999MA1102101999999REMMET051METAR SBLP 281300Z 12008KT 9999 FEW030 27/16 Q1021;
0120832880999992010062814004-13267-043417FM-15+0443SBLP V0201601N006212200019N0112651N1+02901+01401999999ADDGA1041+009001999GF104991999999999999999999MA1102101999999REMMET051METAR SBLP 281400Z 16012KT 9999 SCT030 29/14 Q1021;
0120832880999992010062815004-13267-043417FM-15+0443SBLP V0201801N003112200019N0112651N1+02901+01501999999ADDGA1041+009001999GF104991999999999999999999MA1102001999999REMMET051METAR SBLP 281500Z 18006KT 9999 SCT030 29/15 Q1020;
0120832880999992010062816004-13267-043417FM-15+0443SBLP V0201801N005110060019N0112651N1+02501+01701999999ADDGA1071+006001999GF107991999999999999999999MA1101901999999REMMET051METAR SBLP 281600Z 18010KT 9999 BKN020 25/17 Q1019;
0120832880999992010062817004-13267-043417FM-15+0443SBLP V0201801N006210060019N0112651N1+03001+01501999999ADDGA1071+006001999GF107991999999999999999999MA1101801999999REMMET051METAR SBLP 281700Z 18012KT 9999 BKN020 30/15 Q1018;
0120832880999992010062818004-13267-043417FM-15+0443SBLP V0201801N006212200019N0112651N1+03001+01501999999ADDGA1041+006001999GF104991999999999999999999MA1101691999999REMMET051METAR SBLP 281800Z 18012KT 9999 SCT020 30/15 Q1017;
0120832880999992010062819004-13267-043417FM-15+0443SBLP V0201301N004112200019N0112651N1+03001+01401999999ADDGA1041+006001999GF104991999999999999999999MA1101691999999REMMET051METAR SBLP 281900Z 13008KT 9999 SCT020 30/14 Q1017;
0072832880999992010062820004-13267-043417FM-15+0443SBLP V0201501N006219999999Y0099001N1+02901+01501999999ADDMA1101691999999REMMET045METAR SBLP 282000Z 15012KT CAVOK 29/15 Q1017;
0072832880999992010062821004-13267-043417FM-15+0443SBLP V0201301N003119999999Y0099001N1+02701+01401999999ADDMA1101691999999REMMET045METAR SBLP 282100Z 13006KT CAVOK 27/14 Q1017;
0072832880999992010062910004-13267-043417FM-15+0443SBLP V0201501N004119999999Y0099001N1+02001+01501999999ADDMA1101901999999REMMET045METAR SBLP 291000Z 15008KT CAVOK 20/15 Q1019;
0072832880999992010062911004-13267-043417FM-15+0443SBLP V0201801N004119999999Y0099001N1+02101+01601999999ADDMA1102001999999REMMET045METAR SBLP 291100Z 18008KT CAVOK 21/16 Q1020;
0120832880999992010062912004-13267-043417FM-15+0443SBLP V0201501N006212200019N0112651N1+02501+01601999999ADDGA1041+006001999GF104991999999999999999999MA1102101999999REMMET051METAR SBLP 291200Z 15012KT 9999 SCT020 25/16 Q1021;
0120832880999992010062913004-13267-043417FM-15+0443SBLP V0201501N004110060019N0112651N1+02601+01701999999ADDGA1071+006001999GF107991999999999999999999MA1102101999999REMMET051METAR SBLP 291300Z 15008KT 9999 BKN020 26/17 Q1021;
0120832880999992010062914004-13267-043417FM-15+0443SBLP V0201201N005110060019N0112651N1+02701+01701999999ADDGA1071+006001999GF107991999999999999999999MA1102001999999REMMET051METAR SBLP 291400Z 12010KT 9999 BKN020 27/17 Q1020;
0120832880999992010062915004-13267-043417FM-15+0443SBLP V0201201N006210060019N0112651N1+02901+01701999999ADDGA1071+006001999GF107991999999999999999999MA1101901999999REMMET051METAR SBLP 291500Z 12012KT 9999 BKN020 29/17 Q1019;
0120832880999992010062916004-13267-043417FM-15+0443SBLP V0200901N003110060019N0112651N1+02901+01701999999ADDGA1071+006001999GF107991999999999999999999MA1101801999999REMMET051METAR SBLP 291600Z 09006KT 9999 BKN020 29/17 Q1018;
0120832880999992010062917004-13267-043417FM-15+0443SBLP V0200901N003112200019N0112651N1+03001+01701999999ADDGA1041+006001999GF104991999999999999999999MA1101691999999REMMET051METAR SBLP 291700Z 09006KT 9999 SCT020 30/17 Q1017;
0120832880999992010062918004-13267-043417FM-15+0443SBLP V0200901N003112200019N0112651N1+03001+01701999999ADDGA1041+006001999GF104991999999999999999999MA1101591999999REMMET051METAR SBLP 291800Z 09006KT 9999 SCT020 30/17 Q1016;
0120832880999992010062919004-13267-043417FM-15+0443SBLP V0200901N003112200019N0112651N1+03001+01701999999ADDGA1041+006001999GF104991999999999999999999MA1101591999999REMMET051METAR SBLP 291900Z 09006KT 9999 SCT020 30/17 Q1016;
0120832880999992010062921004-13267-043417FM-15+0443SBLP V0200901N003112200019N0112651N1+02801+01701999999ADDGA1041+006001999GF104991999999999999999999MA1101591999999REMMET051METAR SBLP 292100Z 09006KT 9999 SCT020 28/17 Q1016;
0072832880999992010063010004-13267-043417FM-15+0443SBLP V0202101N002119999999Y0099001N1+01701+01401999999ADDMA1102001999999REMMET045METAR SBLP 301000Z 21004KT CAVOK 17/14 Q1020;
0072832880999992010063011004-13267-043417FM-15+0443SBLP V0201801N003119999999Y0099001N1+02001+01401999999ADDMA1102101999999REMMET045METAR SBLP 301100Z 18006KT CAVOK 20/14 Q1021;
0072832880999992010063012004-13267-043417FM-15+0443SBLP V0201201N004119999999Y0099001N1+02501+01401999999ADDMA1102101999999REMMET045METAR SBLP 301200Z 12008KT CAVOK 25/14 Q1021;
0072832880999992010063013004-13267-043417FM-15+0443SBLP V0201201N006219999999Y0099001N1+02701+01601999999ADDMA1102101999999REMMET045METAR SBLP 301300Z 12012KT CAVOK 27/16 Q1021;
0072832880999992010063014004-13267-043417FM-15+0443SBLP V0201301N007719999999Y0099001N1+02901+01501999999ADDMA1102101999999REMMET045METAR SBLP 301400Z 13015KT CAVOK 29/15 Q1021;
0072832880999992010063015004-13267-043417FM-15+0443SBLP V0201201N005119999999Y0099001N1+03001+01601999999ADDMA1102001999999REMMET045METAR SBLP 301500Z 12010KT CAVOK 30/16 Q1020;
0072832880999992010063016004-13267-043417FM-15+0443SBLP V0200901N003119999999Y0099001N1+03101+01501999999ADDMA1101901999999REMMET045METAR SBLP 301600Z 09006KT CAVOK 31/15 Q1019;
0072832880999992010063017004-13267-043417FM-15+0443SBLP V0200901N003119999999Y0099001N1+03101+01501999999ADDMA1101801999999REMMET045METAR SBLP 301700Z 09006KT CAVOK 31/15 Q1018;
0072832880999992010063018004-13267-043417FM-15+0443SBLP V0200901N003119999999Y0099001N1+03201+01501999999ADDMA1101801999999REMMET045METAR SBLP 301800Z 09006KT CAVOK 32/15 Q1018;
0072832880999992010063019004-13267-043417FM-15+0443SBLP V0200901N003119999999Y0099001N1+03101+01501999999ADDMA1101691999999REMMET045METAR SBLP 301900Z 09006KT CAVOK 31/15 Q1017;
0072832880999992010063020004-13267-043417FM-15+0443SBLP V0200901N003119999999Y0099001N1+03101+01501999999ADDMA1101691999999REMMET045METAR SBLP 302000Z 09006KT CAVOK 31/15 Q1017;
0072832880999992010063021004-13267-043417FM-15+0443SBLP V0200901N003119999999Y0099001N1+02901+01601999999ADDMA1101801999999REMMET045METAR SBLP 302100Z 09006KT CAVOK 29/16 Q1018;
0072832880999992010070110004-13267-043417FM-15+0443SBLP V0209999C000019999999Y0099001N1+02301+01801999999ADDMA1102101999999REMMET045METAR SBLP 011000Z 00000KT CAVOK 23/18 Q1021;
0072832880999992010070111004-13267-043417FM-15+0443SBLP V0209999C000019999999Y0099001N1+02501+01701999999ADDMA1102101999999REMMET045METAR SBLP 011100Z 00000KT CAVOK 25/17 Q1021;
0072832880999992010070112004-13267-043417FM-15+0443SBLP V0200901N003119999999Y0099001N1+02701+01601999999ADDMA1102101999999REMMET045METAR SBLP 011200Z 09006KT CAVOK 27/16 Q1021;
0072832880999992010070113004-13267-043417FM-15+0443SBLP V0200901N003119999999Y0099001N1+02801+01601999999ADDMA1102101999999REMMET045METAR SBLP 011300Z 09006KT CAVOK 28/16 Q1021;
0072832880999992010070114004-13267-043417FM-15+0443SBLP V0200901N003119999999Y0099001N1+02901+01501999999ADDMA1102101999999REMMET045METAR SBLP 011400Z 09006KT CAVOK 29/15 Q1021;
0072832880999992010070115004-13267-043417FM-15+0443SBLP V0200901N003119999999Y0099001N1+02901+01501999999ADDMA1102001999999REMMET045METAR SBLP 011500Z 09006KT CAVOK 29/15 Q1020;
0072832880999992010070116004-13267-043417FM-15+0443SBLP V0201401N003119999999Y0099001N1+03001+01501999999ADDMA1101801999999REMMET045METAR SBLP 011600Z 14006KT CAVOK 30/15 Q1018;
0072832880999992010070117004-13267-043417FM-15+0443SBLP V0200901N003119999999Y0099001N1+03101+01401999999ADDMA1101691999999REMMET045METAR SBLP 011700Z 09006KT CAVOK 31/14 Q1017;
0072832880999992010070118004-13267-043417FM-15+0443SBLP V0200901N003119999999Y0099001N1+03301+01301999999ADDMA1101691999999REMMET045METAR SBLP 011800Z 09006KT CAVOK 33/13 Q1017;
0072832880999992010070119004-13267-043417FM-15+0443SBLP V0200901N003119999999Y0099001N1+03301+01401999999ADDMA1101591999999REMMET045METAR SBLP 011900Z 09006KT CAVOK 33/14 Q1016;
0072832880999992010070120004-13267-043417FM-15+0443SBLP V0209999C000019999999Y0099001N1+03201+01401999999ADDMA1101591999999REMMET045METAR SBLP 012000Z 00000KT CAVOK 32/14 Q1016;
0072832880999992010070121004-13267-043417FM-15+0443SBLP V0209999C000019999999Y0099001N1+03001+01501999999ADDMA1101591999999REMMET045METAR SBLP 012100Z 00000KT CAVOK 30/15 Q1016;
0072832880999992010070210004-13267-043417FM-15+0443SBLP V0201501N003119999999Y0099001N1+02201+01601999999ADDMA1101901999999REMMET045METAR SBLP 021000Z 15006KT CAVOK 22/16 Q1019;
0072832880999992010070211004-13267-043417FM-15+0443SBLP V0201501N005119999999Y0099001N1+02301+01701999999ADDMA1102001999999REMMET045METAR SBLP 021100Z 15010KT CAVOK 23/17 Q1020;
0120832880999992010070212004-13267-043417FM-15+0443SBLP V0201401N006210060019N0112651N1+02501+01701999999ADDGA1071+006001999GF107991999999999999999999MA1102101999999REMMET051METAR SBLP 021200Z 14012KT 9999 BKN020 25/17 Q1021;
0120832880999992010070213004-13267-043417FM-15+0443SBLP V0201301N006212200019N0112651N1+02601+01701999999ADDGA1041+006001999GF104991999999999999999999MA1102101999999REMMET051METAR SBLP 021300Z 13012KT 9999 SCT020 26/17 Q1021;
0120832880999992010070214004-13267-043417FM-15+0443SBLP V0201501N005110060019N0112651N1+02801+01701999999ADDGA1071+006001999GF107991999999999999999999MA1102001999999REMMET051METAR SBLP 021400Z 15010KT 9999 BKN020 28/17 Q1020;
0120832880999992010070215004-13267-043417FM-15+0443SBLP V0201501N006210060019N0112651N1+02701+01801999999ADDGA1071+006001999GF107991999999999999999999MA1102001999999REMMET051METAR SBLP 021500Z 15012KT 9999 BKN020 27/18 Q1020;
0120832880999992010070216004-13267-043417FM-15+0443SBLP V0201801N003110060019N0112651N1+02801+01801999999ADDGA1071+006001999GF107991999999999999999999MA1101801999999REMMET051METAR SBLP 021600Z 18006KT 9999 BKN020 28/18 Q1018;
0120832880999992010070217004-13267-043417FM-15+0443SBLP V0200901N003110060019N0112651N1+02901+01801999999ADDGA1071+006001999GF107991999999999999999999MA1101801999999REMMET051METAR SBLP 021700Z 09006KT 9999 BKN020 29/18 Q1018;
0120832880999992010070218004-13267-043417FM-15+0443SBLP V0200901N003110060019N0112651N1+02901+01801999999ADDGA1071+006001999GF107991999999999999999999MA1101691999999REMMET051METAR SBLP 021800Z 09006KT 9999 BKN020 29/18 Q1017;
0120832880999992010070219004-13267-043417FM-15+0443SBLP V0200901N003110060019N0112651N1+02901+01801999999ADDGA1071+006001999GF107991999999999999999999MA1101691999999REMMET051METAR SBLP 021900Z 09006KT 9999 BKN020 29/18 Q1017;
0120832880999992010070220004-13267-043417FM-15+0443SBLP V0209999C000010060019N0112651N1+02801+01801999999ADDGA1071+006001999GF107991999999999999999999MA1101691999999REMMET051METAR SBLP 022000Z 00000KT 9999 BKN020 28/18 Q1017;
0120832880999992010070221004-13267-043417FM-15+0443SBLP V0201801N003110060019N0112651N1+02701+01801999999ADDGA1071+006001999GF107991999999999999999999MA1101801999999REMMET051METAR SBLP 022100Z 18006KT 9999 BKN020 27/18 Q1018;
0072832880999992010070310004-13267-043417FM-15+0443SBLP V0209999C000019999999Y0099001N1+01901+01401999999ADDMA1102001999999REMMET045METAR SBLP 031000Z 00000KT CAVOK 19/14 Q1020;
0072832880999992010070311004-13267-043417FM-15+0443SBLP V0209999C000019999999Y0099001N1+02401+01501999999ADDMA1102101999999REMMET045METAR SBLP 031100Z 00000KT CAVOK 24/15 Q1021;
0072832880999992010070312004-13267-043417FM-15+0443SBLP V0201501N003119999999Y0099001N1+02701+01601999999ADDMA1102101999999REMMET045METAR SBLP 031200Z 15006KT CAVOK 27/16 Q1021;
0072832880999992010070313004-13267-043417FM-15+0443SBLP V0201501N003119999999Y0099001N1+02701+01601999999ADDMA1102101999999REMMET045METAR SBLP 031300Z 15006KT CAVOK 27/16 Q1021;
0072832880999992010070314004-13267-043417FM-15+0443SBLP V0201501N003119999999Y0099001N1+02801+01601999999ADDMA1102001999999REMMET045METAR SBLP 031400Z 15006KT CAVOK 28/16 Q1020;
0120832880999992010070315004-13267-043417FM-15+0443SBLP V0201801N005112200019N0112651N1+02801+01501999999ADDGA1021+009001999GF102991999999999999999999MA1101901999999REMMET051METAR SBLP 031500Z 18010KT 9999 FEW030 28/15 Q1019;
0072832880999992010070316004-13267-043417FM-15+0443SBLP V0201801N006219999999Y0099001N1+02901+01501999999ADDMA1101901999999REMMET045METAR SBLP 031600Z 18012KT CAVOK 29/15 Q1019;
0072832880999992010070317004-13267-043417FM-15+0443SBLP V0201401N003119999999Y0099001N1+03001+01501999999ADDMA1101801999999REMMET045METAR SBLP 031700Z 14006KT CAVOK 30/15 Q1018;
0072832880999992010070318004-13267-043417FM-15+0443SBLP V0201501N002119999999Y0099001N1+03101+01401999999ADDMA1101691999999REMMET045METAR SBLP 031800Z 15004KT CAVOK 31/14 Q1017;
0072832880999992010070319004-13267-043417FM-15+0443SBLP V0201801N004119999999Y0099001N1+03001+01501999999ADDMA1101591999999REMMET045METAR SBLP 031900Z 18008KT CAVOK 30/15 Q1016;
0072832880999992010070320004-13267-043417FM-15+0443SBLP V0202101N004119999999Y0099001N1+02901+01501999999ADDMA1101591999999REMMET045METAR SBLP 032000Z 21008KT CAVOK 29/15 Q1016;
0072832880999992010070321004-13267-043417FM-15+0443SBLP V0201801N002119999999Y0099001N1+02701+01701999999ADDMA1101691999999REMMET045METAR SBLP 032100Z 18004KT CAVOK 27/17 Q1017;
0072832880999992010070410004-13267-043417FM-15+0443SBLP V0209999C000019999999Y0099001N1+01701+01401999999ADDMA1101901999999REMMET045METAR SBLP 041000Z 00000KT CAVOK 17/14 Q1019;
0072832880999992010070411004-13267-043417FM-15+0443SBLP V0201801N003119999999Y0099001N1+02001+01501999999ADDMA1102001999999REMMET045METAR SBLP 041100Z 18006KT CAVOK 20/15 Q1020;
0072832880999992010070412004-13267-043417FM-15+0443SBLP V0200901N003119999999Y0099001N1+02501+01701999999ADDMA1102001999999REMMET045METAR SBLP 041200Z 09006KT CAVOK 25/17 Q1020;
0072832880999992010070413004-13267-043417FM-15+0443SBLP V0201501N003119999999Y0099001N1+02501+01701999999ADDMA1102001999999REMMET045METAR SBLP 041300Z 15006KT CAVOK 25/17 Q1020;
0072832880999992010070414004-13267-043417FM-15+0443SBLP V0201201N004119999999Y0099001N1+02801+01601999999ADDMA1101901999999REMMET045METAR SBLP 041400Z 12008KT CAVOK 28/16 Q1019;
0072832880999992010070415004-13267-043417FM-15+0443SBLP V0201501N003119999999Y0099001N1+03001+01601999999ADDMA1101801999999REMMET045METAR SBLP 041500Z 15006KT CAVOK 30/16 Q1018;
0072832880999992010070416004-13267-043417FM-15+0443SBLP V0201201N002119999999Y0099001N1+03201+00702999999ADDMA1101691999999REMMET045METAR SBLP 041600Z 12004KT CAVOK 32/07 Q1017;
0072832880999992010070417004-13267-043417FM-15+0443SBLP V0201201N003119999999Y0099001N1+03301+00701999999ADDMA1101591999999REMMET045METAR SBLP 041700Z 12006KT CAVOK 33/07 Q1016;
0072832880999992010070418004-13267-043417FM-15+0443SBLP V0201801N004119999999Y0099001N1+03301+00701999999ADDMA1101491999999REMMET045METAR SBLP 041800Z 18008KT CAVOK 33/07 Q1015;
0072832880999992010070419004-13267-043417FM-15+0443SBLP V0201801N004119999999Y0099001N1+03101+00901999999ADDMA1101491999999REMMET045METAR SBLP 041900Z 18008KT CAVOK 31/09 Q1015;
0072832880999992010070420004-13267-043417FM-15+0443SBLP V0201801N004119999999Y0099001N1+03001+00801999999ADDMA1101491999999REMMET045METAR SBLP 042000Z 18008KT CAVOK 30/08 Q1015;
0072832880999992010070421004-13267-043417FM-15+0443SBLP V0201601N003119999999Y0099001N1+02801+00701999999ADDMA1101591999999REMMET045METAR SBLP 042100Z 16006KT CAVOK 28/07 Q1016;
0072832880999992010070510004-13267-043417FM-15+0443SBLP V0201801N003119999999Y0099001N1+01801+01501999999ADDMA1101901999999REMMET045METAR SBLP 051000Z 18006KT CAVOK 18/15 Q1019;
0072832880999992010070511004-13267-043417FM-15+0443SBLP V0201801N004119999999Y0099001N1+02101+01601999999ADDMA1102001999999REMMET045METAR SBLP 051100Z 18008KT CAVOK 21/16 Q1020;
0072832880999992010070512004-13267-043417FM-15+0443SBLP V0201501N003119999999Y0099001N1+02401+01601999999ADDMA1102001999999REMMET045METAR SBLP 051200Z 15006KT CAVOK 24/16 Q1020;
0072832880999992010070513004-13267-043417FM-15+0443SBLP V0201201N005119999999Y0099001N1+02701+01601999999ADDMA1102001999999REMMET045METAR SBLP 051300Z 12010KT CAVOK 27/16 Q1020;
0072832880999992010070514004-13267-043417FM-15+0443SBLP V0201201N005119999999Y0099001N1+02901+01501999999ADDMA1101901999999REMMET045METAR SBLP 051400Z 12010KT CAVOK 29/15 Q1019;
0072832880999992010070515004-13267-043417FM-15+0443SBLP V0201201N003119999999Y0099001N1+03001+01501999999ADDMA1101801999999REMMET045METAR SBLP 051500Z 12006KT CAVOK 30/15 Q1018;
0072832880999992010070516004-13267-043417FM-15+0443SBLP V0201801N003119999999Y0099001N1+03101+01501999999ADDMA1101591999999REMMET045METAR SBLP 051600Z 18006KT CAVOK 31/15 Q1016;
0072832880999992010070517004-13267-043417FM-15+0443SBLP V0201801N003119999999Y0099001N1+03201+01401999999ADDMA1101491999999REMMET045METAR SBLP 051700Z 18006KT CAVOK 32/14 Q1015;
0072832880999992010070518004-13267-043417FM-15+0443SBLP V0201801N003119999999Y0099001N1+03401+01401999999ADDMA1101491999999REMMET045METAR SBLP 051800Z 18006KT CAVOK 34/14 Q1015;
0072832880999992010070519004-13267-043417FM-15+0443SBLP V0201801N003119999999Y0099001N1+03401+01401999999ADDMA1101391999999REMMET045METAR SBLP 051900Z 18006KT CAVOK 34/14 Q1014;
0072832880999992010070520004-13267-043417FM-15+0443SBLP V0201801N003119999999Y0099001N1+03301+01401999999ADDMA1101491999999REMMET045METAR SBLP 052000Z 18006KT CAVOK 33/14 Q1015;
0072832880999992010070521004-13267-043417FM-15+0443SBLP V0201801N003119999999Y0099001N1+03001+01501999999ADDMA1101491999999REMMET045METAR SBLP 052100Z 18006KT CAVOK 30/15 Q1015;
0072832880999992010070610004-13267-043417FM-15+0443SBLP V0201801N003119999999Y0099001N1+02001+01601999999ADDMA1101901999999REMMET045METAR SBLP 061000Z 18006KT CAVOK 20/16 Q1019;
0072832880999992010070611004-13267-043417FM-15+0443SBLP V0201801N003119999999Y0099001N1+02201+01501999999ADDMA1102001999999REMMET045METAR SBLP 061100Z 18006KT CAVOK 22/15 Q1020;
0120832880999992010070612004-13267-043417FM-15+0443SBLP V0200901N003112200019N0112651N1+02501+01501999999ADDGA1021+009001999GF102991999999999999999999MA1102101999999REMMET051METAR SBLP 061200Z 09006KT 9999 FEW030 25/15 Q1021;
0120832880999992010070613004-13267-043417FM-15+0443SBLP V0200901N003112200019N0112651N1+02701+01501999999ADDGA1021+009001999GF102991999999999999999999MA1102101999999REMMET051METAR SBLP 061300Z 09006KT 9999 FEW030 27/15 Q1021;
0120832880999992010070614004-13267-043417FM-15+0443SBLP V0200901N003112200019N0112651N1+02801+01501999999ADDGA1041+009001999GF104991999999999999999999MA1102001999999REMMET051METAR SBLP 061400Z 09006KT 9999 SCT030 28/15 Q1020;
0120832880999992010070615004-13267-043417FM-15+0443SBLP V0200901N003112200019N0112651N1+02901+01501999999ADDGA1041+009001999GF104991999999999999999999MA1101901999999REMMET051METAR SBLP 061500Z 09006KT 9999 SCT030 29/15 Q1019;
0072832880999992010070616004-13267-043417FM-15+0443SBLP V0201101N004119999999Y0099001N1+03001+01301999999ADDMA1101801999999REMMET045METAR SBLP 061600Z 11008KT CAVOK 30/13 Q1018;
0072832880999992010070617004-13267-043417FM-15+0443SBLP V0201301N004119999999Y0099001N1+03101+01301999999ADDMA1101691999999REMMET045METAR SBLP 061700Z 13008KT CAVOK 31/13 Q1017;
0072832880999992010070618004-13267-043417FM-15+0443SBLP V0201501N005119999999Y0099001N1+03101+01101999999ADDMA1101591999999REMMET045METAR SBLP 061800Z 15010KT CAVOK 31/11 Q1016;
0072832880999992010070619004-13267-043417FM-15+0443SBLP V0201501N004119999999Y0099001N1+03101+01101999999ADDMA1101591999999REMMET045METAR SBLP 061900Z 15008KT CAVOK 31/11 Q1016;
0072832880999992010070620004-13267-043417FM-15+0443SBLP V0201201N003119999999Y0099001N1+03001+01301999999ADDMA1101691999999REMMET045METAR SBLP 062000Z 12006KT CAVOK 30/13 Q1017;
0072832880999992010070621004-13267-043417FM-15+0443SBLP V0201201N003119999999Y0099001N1+03001+01301999999ADDMA1101691999999REMMET045METAR SBLP 062100Z 12006KT CAVOK 30/13 Q1017;
0072832880999992010070710004-13267-043417FM-15+0443SBLP V0201501N003119999999Y0099001N1+01801+01401999999ADDMA1101801999999REMMET045METAR SBLP 071000Z 15006KT CAVOK 18/14 Q1018;
0072832880999992010070711004-13267-043417FM-15+0443SBLP V0201501N003119999999Y0099001N1+02101+01401999999ADDMA1101901999999REMMET045METAR SBLP 071100Z 15006KT CAVOK 21/14 Q1019;
0120832880999992010070712004-13267-043417FM-15+0443SBLP V0201501N003112200019N0112651N1+02401+01401999999ADDGA1021+009001999GF102991999999999999999999MA1102001999999REMMET051METAR SBLP 071200Z 15006KT 9999 FEW030 24/14 Q1020;
0120832880999992010070713004-13267-043417FM-15+0443SBLP V0200801N003112200019N0112651N1+02501+01301999999ADDGA1041+009001999GF104991999999999999999999MA1102001999999REMMET051METAR SBLP 071300Z 08006KT 9999 SCT030 25/13 Q1020;
0120832880999992010070714004-13267-043417FM-15+0443SBLP V0200801N003112200019N0112651N1+02801+01301999999ADDGA1041+009001999GF104991999999999999999999MA1101901999999REMMET051METAR SBLP 071400Z 08006KT 9999 SCT030 28/13 Q1019;
0120832880999992010070715004-13267-043417FM-15+0443SBLP V0201101N004112200019N0112651N1+03001+01401999999ADDGA1041+009001999GF104991999999999999999999MA1101801999999REMMET051METAR SBLP 071500Z 11008KT 9999 SCT030 30/14 Q1018;
0120832880999992010070716004-13267-043417FM-15+0443SBLP V0201201N004112200019N0112651N1+03101+01401999999ADDGA1041+009001999GF104991999999999999999999MA1101691999999REMMET051METAR SBLP 071600Z 12008KT 9999 SCT030 31/14 Q1017;
0120832880999992010070717004-13267-043417FM-15+0443SBLP V0201801N002112200019N0112651N1+03101+01501999999ADDGA1041+009001999GF104991999999999999999999MA1101491999999REMMET051METAR SBLP 071700Z 18004KT 9999 SCT030 31/15 Q1015;
0120832880999992010070718004-13267-043417FM-15+0443SBLP V0201801N003112200019N0112651N1+03001+01501999999ADDGA1041+009001999GF104991999999999999999999MA1101491999999REMMET051METAR SBLP 071800Z 18006KT 9999 SCT030 30/15 Q1015;
0120832880999992010070719004-13267-043417FM-15+0443SBLP V0201801N004112200019N0112651N1+02901+01501999999ADDGA1041+009001999GF104991999999999999999999MA1101491999999REMMET051METAR SBLP 071900Z 18008KT 9999 SCT030 29/15 Q1015;
0120832880999992010070720004-13267-043417FM-15+0443SBLP V0201601N003112200019N0112651N1+02901+01501999999ADDGA1041+009001999GF104991999999999999999999MA1101491999999REMMET051METAR SBLP 072000Z 16006KT 9999 SCT030 29/15 Q1015;
0120832880999992010070721004-13267-043417FM-15+0443SBLP V0201501N003112200019N0112651N1+02701+01501999999ADDGA1021+009001999GF102991999999999999999999MA1101491999999REMMET051METAR SBLP 072100Z 15006KT 9999 FEW030 27/15 Q1015;
0072832880999992010070810004-13267-043417FM-15+0443SBLP V0209999C000019999999Y0099001N1+01601+01401999999ADDMA1101901999999REMMET045METAR SBLP 081000Z 00000KT CAVOK 16/14 Q1019;
0072832880999992010070811004-13267-043417FM-15+0443SBLP V0201501N003119999999Y0099001N1+01801+01301999999ADDMA1102001999999REMMET045METAR SBLP 081100Z 15006KT CAVOK 18/13 Q1020;
0072832880999992010070812004-13267-043417FM-15+0443SBLP V0201801N002119999999Y0099001N1+02401+01401999999ADDMA1102001999999REMMET045METAR SBLP 081200Z 18004KT CAVOK 24/14 Q1020;
0120832880999992010070813004-13267-043417FM-15+0443SBLP V0201201N003112200019N0112651N1+02701+01601999999ADDGA1021+009001999GF102991999999999999999999MA1102001999999REMMET051METAR SBLP 081300Z 12006KT 9999 FEW030 27/16 Q1020;
0120832880999992010070814004-13267-043417FM-15+0443SBLP V0200901N003112200019N0112651N1+02801+01601999999ADDGA1021+009001999GF102991999999999999999999MA1101901999999REMMET051METAR SBLP 081400Z 09006KT 9999 FEW030 28/16 Q1019;
0120832880999992010070815004-13267-043417FM-15+0443SBLP V0203101N003112200019N0112651N1+02901+01501999999ADDGA1021+009001999GF102991999999999999999999MA1101801999999REMMET051METAR SBLP 081500Z 31006KT 9999 FEW030 29/15 Q1018;
0120832880999992010070816004-13267-043417FM-15+0443SBLP V0203401N003112200019N0112651N1+03001+01601999999ADDGA1041+009001999GF104991999999999999999999MA1101691999999REMMET051METAR SBLP 081600Z 34006KT 9999 SCT030 30/16 Q1017;
0120832880999992010070817004-13267-043417FM-15+0443SBLP V0202101N003112200019N0112651N1+03101+01601999999ADDGA1041+009001999GF104991999999999999999999MA1101591999999REMMET051METAR SBLP 081700Z 21006KT 9999 SCT030 31/16 Q1016;
0120832880999992010070818004-13267-043417FM-15+0443SBLP V0209999C000012200019N0112651N1+03201+01601999999ADDGA1041+009001999GF104991999999999999999999MA1101491999999REMMET051METAR SBLP 081800Z 00000KT 9999 SCT030 32/16 Q1015;
0143832880999992010070819004-13267-043417FM-15+0443SBLP V0201801N004110300019N0112651N1+03001+01601999999ADDGA1021+009001999GA2071+030001999GF107991999999999999999999MA1101491999999REMMET058METAR SBLP 081900Z 18008KT 9999 FEW030 BKN100 30/16 Q1015;
0143832880999992010070820004-13267-043417FM-15+0443SBLP V0202101N003112200019N0112651N1+03001+01601999999ADDGA1021+009001999GA2041+030001999GF104991999999999999999999MA1101491999999REMMET058METAR SBLP 082000Z 21006KT 9999 FEW030 SCT100 30/16 Q1015;
0072832880999992010070821004-13267-043417FM-15+0443SBLP V0201801N003119999999Y0099001N1+02801+01501999999ADDMA1101491999999REMMET045METAR SBLP 082100Z 18006KT CAVOK 28/15 Q1015;
0072832880999992010070910004-13267-043417FM-15+0443SBLP V0202101N002119999999Y0099001N1+01701+01401999999ADDMA1101801999999REMMET045METAR SBLP 091000Z 21004KT CAVOK 17/14 Q1018;
0072832880999992010070911004-13267-043417FM-15+0443SBLP V0201801N002119999999Y0099001N1+01901+01601999999ADDMA1101901999999REMMET045METAR SBLP 091100Z 18004KT CAVOK 19/16 Q1019;
0072832880999992010070913004-13267-043417FM-15+0443SBLP V0202301N001519999999Y0099001N1+02701+01601999999ADDMA1101901999999REMMET045METAR SBLP 091300Z 23003KT CAVOK 27/16 Q1019;
0072832880999992010070914004-13267-043417FM-15+0443SBLP V0202001N002119999999Y0099001N1+02901+01601999999ADDMA1101901999999REMMET045METAR SBLP 091400Z 20004KT CAVOK 29/16 Q1019;
0120832880999992010070915004-13267-043417FM-15+0443SBLP V0202401N003112200019N0112651N1+03001+01601999999ADDGA1021+009001999GF102991999999999999999999MA1101691999999REMMET051METAR SBLP 091500Z 24006KT 9999 FEW030 30/16 Q1017;
0120832880999992010070916004-13267-043417FM-15+0443SBLP V0209999C000012200019N0112651N1+03101+01601999999ADDGA1021+009001999GF102991999999999999999999MA1101591999999REMMET051METAR SBLP 091600Z 00000KT 9999 FEW030 31/16 Q1016;
0120832880999992010070917004-13267-043417FM-15+0443SBLP V0202701N003112200019N0112651N1+03201+01701999999ADDGA1021+009001999GF102991999999999999999999MA1101491999999REMMET051METAR SBLP 091700Z 27006KT 9999 FEW030 32/17 Q1015;
0120832880999992010070918004-13267-043417FM-15+0443SBLP V0202401N003112200019N0112651N1+03301+01601999999ADDGA1021+009001999GF102991999999999999999999MA1101491999999REMMET051METAR SBLP 091800Z 24006KT 9999 FEW030 33/16 Q1015;
0072832880999992010070919004-13267-043417FM-15+0443SBLP V0202401N003119999999Y0099001N1+03201+01301999999ADDMA1101391999999REMMET045METAR SBLP 091900Z 24006KT CAVOK 32/13 Q1014;
0072832880999992010070920004-13267-043417FM-15+0443SBLP V0202101N003119999999Y0099001N1+03001+01501999999ADDMA1101491999999REMMET045METAR SBLP 092000Z 21006KT CAVOK 30/15 Q1015;
0072832880999992010070921004-13267-043417FM-15+0443SBLP V0209999C000019999999Y0099001N1+02801+01601999999ADDMA1101491999999REMMET045METAR SBLP 092100Z 00000KT CAVOK 28/16 Q1015;
0072832880999992010071010004-13267-043417FM-15+0443SBLP V0209999C000019999999Y0099001N1+01801+01501999999ADDMA1101801999999REMMET045METAR SBLP 101000Z 00000KT CAVOK 18/15 Q1018;
0072832880999992010071011004-13267-043417FM-15+0443SBLP V0201901N002119999999Y0099001N1+02101+01701999999ADDMA1101801999999REMMET045METAR SBLP 101100Z 19004KT CAVOK 21/17 Q1018;
0072832880999992010071012004-13267-043417FM-15+0443SBLP V0201801N001519999999Y0099001N1+02601+01801999999ADDMA1101901999999REMMET045METAR SBLP 101200Z 18003KT CAVOK 26/18 Q1019;
0072832880999992010071014004-13267-043417FM-15+0443SBLP V0209999C000019999999Y0099001N1+03101+01601999999ADDMA1101801999999REMMET045METAR SBLP 101400Z 00000KT CAVOK 31/16 Q1018;
0120832880999992010071015004-13267-043417FM-15+0443SBLP V0201501N002112200019N0112651N1+03201+01401999999ADDGA1021+009001999GF102991999999999999999999MA1101591999999REMMET051METAR SBLP 101500Z 15004KT 9999 FEW030 32/14 Q1016;
0120832880999992010071016004-13267-043417FM-15+0443SBLP V0201501N002112200019N0112651N1+03301+01401999999ADDGA1021+009001999GF102991999999999999999999MA1101491999999REMMET051METAR SBLP 101600Z 15004KT 9999 FEW030 33/14 Q1015;
0120832880999992010071017004-13267-043417FM-15+0443SBLP V0200901N003112200019N0112651N1+03401+01401999999ADDGA1041+009001999GF104991999999999999999999MA1101291999999REMMET051METAR SBLP 101700Z 09006KT 9999 SCT030 34/14 Q1013;
0120832880999992010071018004-13267-043417FM-15+0443SBLP V0202701N003112200019N0112651N1+03401+01401999999ADDGA1041+009001999GF104991999999999999999999MA1101291999999REMMET051METAR SBLP 101800Z 27006KT 9999 SCT030 34/14 Q1013;
0120832880999992010071019004-13267-043417FM-15+0443SBLP V0202701N003112200019N0112651N1+03301+01401999999ADDGA1021+009001999GF102991999999999999999999MA1101191999999REMMET051METAR SBLP 101900Z 27006KT 9999 FEW030 33/14 Q1012;
0120832880999992010071020004-13267-043417FM-15+0443SBLP V0202101N003112200019N0112651N1+03201+01401999999ADDGA1021+009001999GF102991999999999999999999MA1101291999999REMMET051METAR SBLP 102000Z 21006KT 9999 FEW030 32/14 Q1013;
0120832880999992010071021004-13267-043417FM-15+0443SBLP V0201801N003112200019N0112651N1+03101+01401999999ADDGA1021+009001999GF102991999999999999999999MA1101291999999REMMET051METAR SBLP 102100Z 18006KT 9999 FEW030 31/14 Q1013;
0072832880999992010071110004-13267-043417FM-15+0443SBLP V0202101N001519999999Y0099001N1+01901+01701999999ADDMA1101591999999REMMET045METAR SBLP 111000Z 21003KT CAVOK 19/17 Q1016;
0072832880999992010071111004-13267-043417FM-15+0443SBLP V0201601N002119999999Y0099001N1+02201+01701999999ADDMA1101691999999REMMET045METAR SBLP 111100Z 16004KT CAVOK 22/17 Q1017;
0072832880999992010071112004-13267-043417FM-15+0443SBLP V0200901N001519999999Y0099001N1+02601+01701999999ADDMA1101801999999REMMET045METAR SBLP 111200Z 09003KT CAVOK 26/17 Q1018;
0120832880999992010071113004-13267-043417FM-15+0443SBLP V0209999C000012200019N0112651N1+02901+01701999999ADDGA1021+009001999GF102991999999999999999999MA1101691999999REMMET051METAR SBLP 111300Z 00000KT 9999 FEW030 29/17 Q1017;
0120832880999992010071114004-13267-043417FM-15+0443SBLP V0209999C000012200019N0112651N1+03101+01701999999ADDGA1021+009001999GF102991999999999999999999MA1101691999999REMMET051METAR SBLP 111400Z 00000KT 9999 FEW030 31/17 Q1017;
0120832880999992010071115004-13267-043417FM-15+0443SBLP V0209999C000012200019N0112651N1+03201+01501999999ADDGA1021+009001999GF102991999999999999999999MA1101591999999REMMET051METAR SBLP 111500Z 00000KT 9999 FEW030 32/15 Q1016;
0120832880999992010071116004-13267-043417FM-15+0443SBLP V0209999C000012200019N0112651N1+03301+01501999999ADDGA1021+009001999GF102991999999999999999999MA1101391999999REMMET051METAR SBLP 111600Z 00000KT 9999 FEW030 33/15 Q1014;
0120832880999992010071117004-13267-043417FM-15+0443SBLP V0209999C000012200019N0112651N1+03401+01501999999ADDGA1041+009001999GF104991999999999999999999MA1101291999999REMMET051METAR SBLP 111700Z 00000KT 9999 SCT030 34/15 Q1013;
0120832880999992010071118004-13267-043417FM-15+0443SBLP V0209999C000012200019N0112651N1+03501+01501999999ADDGA1041+009001999GF104991999999999999999999MA1101191999999REMMET051METAR SBLP 111800Z 00000KT 9999 SCT030 35/15 Q1012;
0120832880999992010071119004-13267-043417FM-15+0443SBLP V0209999C000012200019N0112651N1+03501+01501999999ADDGA1021+009001999GF102991999999999999999999MA1101191999999REMMET051METAR SBLP 111900Z 00000KT 9999 FEW030 35/15 Q1012;
0120832880999992010071120004-13267-043417FM-15+0443SBLP V0209999C000012200019N0112651N1+03401+01501999999ADDGA1021+009001999GF102991999999999999999999MA1101191999999REMMET051METAR SBLP 112000Z 00000KT 9999 FEW030 34/15 Q1012;
0072832880999992010071121004-13267-043417FM-15+0443SBLP V0209999C000019999999Y0099001N1+03201+01601999999ADDMA1101191999999REMMET045METAR SBLP 112100Z 00000KT CAVOK 32/16 Q1012;
0072832880999992010071210004-13267-043417FM-15+0443SBLP V0209999C000019999999Y0099001N1+01801+01401999999ADDMA1101691999999REMMET045METAR SBLP 121000Z 00000KT CAVOK 18/14 Q1017;
0072832880999992010071211004-13267-043417FM-15+0443SBLP V0209999C000019999999Y0099001N1+02001+01401999999ADDMA1101801999999REMMET045METAR SBLP 121100Z 00000KT CAVOK 20/14 Q1018;
0072832880999992010071212004-13267-043417FM-15+0443SBLP V0201101N003119999999Y0099001N1+02501+01301999999ADDMA1101801999999REMMET045METAR SBLP 121200Z 11006KT CAVOK 25/13 Q1018;
0072832880999992010071213004-13267-043417FM-15+0443SBLP V0201201N003119999999Y0099001N1+02701+01301999999ADDMA1101801999999REMMET045METAR SBLP 121300Z 12006KT CAVOK 27/13 Q1018;
0072832880999992010071214004-13267-043417FM-15+0443SBLP V0200601N001519999999Y0099001N1+03001+01201999999ADDMA1101691999999REMMET045METAR SBLP 121400Z 06003KT CAVOK 30/12 Q1017;
0072832880999992010071215004-13267-043417FM-15+0443SBLP V0200601N001519999999Y0099001N1+03101+01201999999ADDMA1101591999999REMMET045METAR SBLP 121500Z 06003KT CAVOK 31/12 Q1016;
0072832880999992010071216004-13267-043417FM-15+0443SBLP V0201501N003119999999Y0099001N1+03201+01301999999ADDMA1101491999999REMMET045METAR SBLP 121600Z 15006KT CAVOK 32/13 Q1015;
0072832880999992010071217004-13267-043417FM-15+0443SBLP V0200901N003119999999Y0099001N1+03301+01201999999ADDMA1101291999999REMMET045METAR SBLP 121700Z 09006KT CAVOK 33/12 Q1013;
0072832880999992010071218004-13267-043417FM-15+0443SBLP V0201201N003119999999Y0099001N1+03501+01201999999ADDMA1101291999999REMMET045METAR SBLP 121800Z 12006KT CAVOK 35/12 Q1013;
0072832880999992010071219004-13267-043417FM-15+0443SBLP V0200401N003119999999Y0099001N1+03501+01301999999ADDMA1101191999999REMMET045METAR SBLP 121900Z 04006KT CAVOK 35/13 Q1012;
0072832880999992010071220004-13267-043417FM-15+0443SBLP V0200901N003119999999Y0099001N1+03201+01401999999ADDMA1101191999999REMMET045METAR SBLP 122000Z 09006KT CAVOK 32/14 Q1012;
0072832880999992010071221004-13267-043417FM-15+0443SBLP V0209999C000019999999Y0099001N1+03101+01501999999ADDMA1101291999999REMMET045METAR SBLP 122100Z 00000KT CAVOK 31/15 Q1013;
0072832880999992010071310004-13267-043417FM-15+0443SBLP V0209999C000019999999Y0099001N1+01701+01501999999ADDMA1101691999999REMMET045METAR SBLP 131000Z 00000KT CAVOK 17/15 Q1017;
0072832880999992010071311004-13267-043417FM-15+0443SBLP V0209999C000019999999Y0099001N1+01901+01601999999ADDMA1101691999999REMMET045METAR SBLP 131100Z 00000KT CAVOK 19/16 Q1017;
0072832880999992010071312004-13267-043417FM-15+0443SBLP V0209999C000019999999Y0099001N1+02501+01701999999ADDMA1101801999999REMMET045METAR SBLP 131200Z 00000KT CAVOK 25/17 Q1018;
0072832880999992010071313004-13267-043417FM-15+0443SBLP V0209999C000019999999Y0099001N1+02701+01501999999ADDMA1101691999999REMMET045METAR SBLP 131300Z 00000KT CAVOK 27/15 Q1017;
0072832880999992010071314004-13267-043417FM-15+0443SBLP V0202401N003119999999Y0099001N1+02901+01501999999ADDMA1101691999999REMMET045METAR SBLP 131400Z 24006KT CAVOK 29/15 Q1017;
0072832880999992010071315004-13267-043417FM-15+0443SBLP V0202101N003119999999Y0099001N1+03101+01501999999ADDMA1101591999999REMMET045METAR SBLP 131500Z 21006KT CAVOK 31/15 Q1016;
0072832880999992010071316004-13267-043417FM-15+0443SBLP V0202401N003119999999Y0099001N1+03201+01501999999ADDMA1101491999999REMMET045METAR SBLP 131600Z 24006KT CAVOK 32/15 Q1015;
0072832880999992010071317004-13267-043417FM-15+0443SBLP V0202701N004119999999Y0099001N1+03301+01501999999ADDMA1101391999999REMMET045METAR SBLP 131700Z 27008KT CAVOK 33/15 Q1014;
0072832880999992010071318004-13267-043417FM-15+0443SBLP V0202401N003119999999Y0099001N1+03401+01401999999ADDMA1101291999999REMMET045METAR SBLP 131800Z 24006KT CAVOK 34/14 Q1013;
0072832880999992010071319004-13267-043417FM-15+0443SBLP V0202401N003119999999Y0099001N1+03401+01401999999ADDMA1101291999999REMMET045METAR SBLP 131900Z 24006KT CAVOK 34/14 Q1013;
0072832880999992010071320004-13267-043417FM-15+0443SBLP V0202101N002119999999Y0099001N1+03301+01301999999ADDMA1101191999999REMMET045METAR SBLP 132000Z 21004KT CAVOK 33/13 Q1012;
0072832880999992010071321004-13267-043417FM-15+0443SBLP V0209999C000019999999Y0099001N1+03001+01501999999ADDMA1101291999999REMMET045METAR SBLP 132100Z 00000KT CAVOK 30/15 Q1013;
0072832880999992010071410004-13267-043417FM-15+0443SBLP V0209999C000019999999Y0099001N1+02101+01701999999ADDMA1101591999999REMMET045METAR SBLP 141000Z 00000KT CAVOK 21/17 Q1016;
0072832880999992010071411004-13267-043417FM-15+0443SBLP V0209999C000019999999Y0099001N1+02201+01701999999ADDMA1101691999999REMMET045METAR SBLP 141100Z 00000KT CAVOK 22/17 Q1017;
0072832880999992010071412004-13267-043417FM-15+0443SBLP V0200901N003119999999Y0099001N1+02701+01601999999ADDMA1101691999999REMMET045METAR SBLP 141200Z 09006KT CAVOK 27/16 Q1017;
0072832880999992010071413004-13267-043417FM-15+0443SBLP V0200901N003119999999Y0099001N1+02901+01501999999ADDMA1101691999999REMMET045METAR SBLP 141300Z 09006KT CAVOK 29/15 Q1017;
0072832880999992010071414004-13267-043417FM-15+0443SBLP V0209999C000019999999Y0099001N1+03201+01501999999ADDMA1101691999999REMMET045METAR SBLP 141400Z 00000KT CAVOK 32/15 Q1017;
0072832880999992010071415004-13267-043417FM-15+0443SBLP V0201801N003119999999Y0099001N1+03201+01501999999ADDMA1101591999999REMMET045METAR SBLP 141500Z 18006KT CAVOK 32/15 Q1016;
0120832880999992010071416004-13267-043417FM-15+0443SBLP V0201201N004112200019N0112651N1+03401+01501999999ADDGA1021+009001999GF102991999999999999999999MA1101491999999REMMET051METAR SBLP 141600Z 12008KT 9999 FEW030 34/15 Q1015;
0120832880999992010071417004-13267-043417FM-15+0443SBLP V0201301N002112200019N0112651N1+03501+01501999999ADDGA1041+009001999GF104991999999999999999999MA1101391999999REMMET051METAR SBLP 141700Z 13004KT 9999 SCT030 35/15 Q1014;
0120832880999992010071418004-13267-043417FM-15+0443SBLP V0202201N003112200019N0112651N1+03501+01601999999ADDGA1041+009001999GF104991999999999999999999MA1101291999999REMMET051METAR SBLP 141800Z 22006KT 9999 SCT030 35/16 Q1013;
0120832880999992010071419004-13267-043417FM-15+0443SBLP V0202401N003112200019N0112651N1+03501+01501999999ADDGA1041+009001999GF104991999999999999999999MA1101291999999REMMET051METAR SBLP 141900Z 24006KT 9999 SCT030 35/15 Q1013;
0120832880999992010071420004-13267-043417FM-15+0443SBLP V0202401N003112200019N0112651N1+03401+01601999999ADDGA1021+009001999GF102991999999999999999999MA1101291999999REMMET051METAR SBLP 142000Z 24006KT 9999 FEW030 34/16 Q1013;
0120832880999992010071421004-13267-043417FM-15+0443SBLP V0202101N002112200019N0112651N1+03101+01501999999ADDGA1021+009001999GF102991999999999999999999MA1101291999999REMMET051METAR SBLP 142100Z 21004KT 9999 FEW030 31/15 Q1013;
0072832880999992010071510004-13267-043417FM-15+0443SBLP V0209999C000019999999Y0099001N1+02001+01601999999ADDMA1101691999999REMMET045METAR SBLP 151000Z 00000KT CAVOK 20/16 Q1017;
0072832880999992010071511004-13267-043417FM-15+0443SBLP V0201401N003119999999Y0099001N1+02201+01701999999ADDMA1101801999999REMMET045METAR SBLP 151100Z 14006KT CAVOK 22/17 Q1018;
0072832880999992010071512004-13267-043417FM-15+0443SBLP V0201201N003119999999Y0099001N1+02701+01601999999ADDMA1101901999999REMMET045METAR SBLP 151200Z 12006KT CAVOK 27/16 Q1019;
0120832880999992010071513004-13267-043417FM-15+0443SBLP V0200901N003112200019N0112651N1+02901+01501999999ADDGA1021+009001999GF102991999999999999999999MA1101901999999REMMET051METAR SBLP 151300Z 09006KT 9999 FEW030 29/15 Q1019;
0120832880999992010071514004-13267-043417FM-15+0443SBLP V0201201N003112200019N0112651N1+03001+01601999999ADDGA1041+009001999GF104991999999999999999999MA1101901999999REMMET051METAR SBLP 151400Z 12006KT 9999 SCT030 30/16 Q1019;
0120832880999992010071515004-13267-043417FM-15+0443SBLP V0201201N003112200019N0112651N1+03201+01501999999ADDGA1041+009001999GF104991999999999999999999MA1101691999999REMMET051METAR SBLP 151500Z 12006KT 9999 SCT030 32/15 Q1017;
0120832880999992010071516004-13267-043417FM-15+0443SBLP V0201201N002112200019N0112651N1+03201+01401999999ADDGA1041+009001999GF104991999999999999999999MA1101691999999REMMET051METAR SBLP 151600Z 12004KT 9999 SCT030 32/14 Q1017;
0120832880999992010071517004-13267-043417FM-15+0443SBLP V0201201N003112200019N0112651N1+03401+01301999999ADDGA1041+009001999GF104991999999999999999999MA1101491999999REMMET051METAR SBLP 151700Z 12006KT 9999 SCT030 34/13 Q1015;
0120832880999992010071518004-13267-043417FM-15+0443SBLP V0201201N005112200019N0112651N1+03401+01101999999ADDGA1021+009001999GF102991999999999999999999MA1101491999999REMMET051METAR SBLP 151800Z 12010KT 9999 FEW030 34/11 Q1015;
0120832880999992010071519004-13267-043417FM-15+0443SBLP V0201201N003112200019N0112651N1+03301+01201999999ADDGA1021+009001999GF102991999999999999999999MA1101491999999REMMET051METAR SBLP 151900Z 12006KT 9999 FEW030 33/12 Q1015;
0120832880999992010071520004-13267-043417FM-15+0443SBLP V0201201N003112200019N0112651N1+03201+01101999999ADDGA1021+009001999GF102991999999999999999999MA1101491999999REMMET051METAR SBLP 152000Z 12006KT 9999 FEW030 32/11 Q1015;
0072832880999992010071521004-13267-043417FM-15+0443SBLP V0201301N003119999999Y0099001N1+02901+01101999999ADDMA1101591999999REMMET045METAR SBLP 152100Z 13006KT CAVOK 29/11 Q1016;
0072832880999992010071610004-13267-043417FM-15+0443SBLP V0209999C000019999999Y0099001N1+02301+01701999999ADDMA1102001999999REMMET045METAR SBLP 161000Z 00000KT CAVOK 23/17 Q1020;
0120832880999992010071611004-13267-043417FM-15+0443SBLP V0209999C000012200019N0112651N1+02401+01701999999ADDGA1021+006001999GF102991999999999999999999MA1102101999999REMMET051METAR SBLP 161100Z 00000KT 9999 FEW020 24/17 Q1021;
0120832880999992010071612004-13267-043417FM-15+0443SBLP V0200901N003112200019N0112651N1+02501+01701999999ADDGA1041+006001999GF104991999999999999999999MA1102101999999REMMET051METAR SBLP 161200Z 09006KT 9999 SCT020 25/17 Q1021;
0120832880999992010071613004-13267-043417FM-15+0443SBLP V0200901N003112200019N0112651N1+02501+01701999999ADDGA1041+006001999GF104991999999999999999999MA1102101999999REMMET051METAR SBLP 161300Z 09006KT 9999 SCT020 25/17 Q1021;
0120832880999992010071614004-13267-043417FM-15+0443SBLP V0200901N003112200019N0112651N1+02701+01601999999ADDGA1041+006001999GF104991999999999999999999MA1102101999999REMMET051METAR SBLP 161400Z 09006KT 9999 SCT020 27/16 Q1021;
0120832880999992010071615004-13267-043417FM-15+0443SBLP V0201801N003112200019N0112651N1+02701+01601999999ADDGA1041+006001999GF104991999999999999999999MA1102001999999REMMET051METAR SBLP 161500Z 18006KT 9999 SCT020 27/16 Q1020;
0120832880999992010071616004-13267-043417FM-15+0443SBLP V0201401N005110060019N0112651N1+02901+01701999999ADDGA1071+006001999GF107991999999999999999999MA1101901999999REMMET051METAR SBLP 161600Z 14010KT 9999 BKN020 29/17 Q1019;
0120832880999992010071617004-13267-043417FM-15+0443SBLP V0201101N005110060019N0112651N1+02901+01601999999ADDGA1071+006001999GF107991999999999999999999MA1101801999999REMMET051METAR SBLP 161700Z 11010KT 9999 BKN020 29/16 Q1018;
0120832880999992010071618004-13267-043417FM-15+0443SBLP V0201501N004110060019N0112651N1+02901+01701999999ADDGA1071+006001999GF107991999999999999999999MA1101801999999REMMET051METAR SBLP 161800Z 15008KT 9999 BKN020 29/17 Q1018;
0120832880999992010071619004-13267-043417FM-15+0443SBLP V0201201N003110060019N0112651N1+02801+01701999999ADDGA1071+006001999GF107991999999999999999999MA1101801999999REMMET051METAR SBLP 161900Z 12006KT 9999 BKN020 28/17 Q1018;
0120832880999992010071620004-13267-043417FM-15+0443SBLP V0201501N006212200019N0112651N1+02801+01701999999ADDGA1041+006001999GF104991999999999999999999MA1101801999999REMMET051METAR SBLP 162000Z 15012KT 9999 SCT020 28/17 Q1018;
0120832880999992010071621004-13267-043417FM-15+0443SBLP V0201101N004112200019N0112651N1+02701+01901999999ADDGA1041+006001999GF104991999999999999999999MA1101801999999REMMET051METAR SBLP 162100Z 11008KT 9999 SCT020 27/19 Q1018;
0143832880999992010071711004-13267-043417FM-15+0443SBLP V0201601N003110300019N0112651N1+02201+01901999999ADDGA1021+006001999GA2071+030001999GF107991999999999999999999MA1102201999999REMMET058METAR SBLP 171100Z 16006KT 9999 FEW020 BKN100 22/19 Q1022;
0143832880999992010071713004-13267-043417FM-15+0443SBLP V0201201N004110300019N0112651N1+02601+01901999999ADDGA1021+009001999GA2071+030001999GF107991999999999999999999MA1102301999999REMMET058METAR SBLP 171300Z 12008KT 9999 FEW030 BKN100 26/19 Q1023;
0143832880999992010071714004-13267-043417FM-15+0443SBLP V0201801N005110300019N0112651N1+02601+01901999999ADDGA1021+006001999GA2071+030001999GF107991999999999999999999MA1102301999999REMMET058METAR SBLP 171400Z 18010KT 9999 FEW020 BKN100 26/19 Q1023;
0143832880999992010071715004-13267-043417FM-15+0443SBLP V0201201N003110300019N0112651N1+02701+02001999999ADDGA1021+009001999GA2071+030001999GF107991999999999999999999MA1102201999999REMMET058METAR SBLP 171500Z 12006KT 9999 FEW030 BKN100 27/20 Q1022;
0143832880999992010071716004-13267-043417FM-15+0443SBLP V0200601N003112200019N0112651N1+03001+01701999999ADDGA1041+009001999GA2041+030001999GF104991999999999999999999MA1102101999999REMMET058METAR SBLP 171600Z 06006KT 9999 SCT030 SCT100 30/17 Q1021;
0143832880999992010071717004-13267-043417FM-15+0443SBLP V0201201N003112200019N0112651N1+03001+01601999999ADDGA1041+009001999GA2041+030001999GF104991999999999999999999MA1101901999999REMMET058METAR SBLP 171700Z 12006KT 9999 SCT030 SCT100 30/16 Q1019;
0143832880999992010071718004-13267-043417FM-15+0443SBLP V0200601N003112200019N0112651N1+03101+01601999999ADDGA1041+009001999GA2041+030001999GF104991999999999999999999MA1101901999999REMMET058METAR SBLP 171800Z 06006KT 9999 SCT030 SCT100 31/16 Q1019;
0120832880999992010071720004-13267-043417FM-15+0443SBLP V0201101N003112200019N0112651N1+03001+01501999999ADDGA1041+009001999GF104991999999999999999999MA1101901999999REMMET051METAR SBLP 172000Z 11006KT 9999 SCT030 30/15 Q1019;
0120832880999992010071721004-13267-043417FM-15+0443SBLP V0201201N003112200019N0112651N1+02901+01501999999ADDGA1041+008101999GF104991999999999999999999MA1101901999999REMMET051METAR SBLP 172100Z 12006KT 9999 SCT027 29/15 Q1019;
0072832880999992010071810004-13267-043417FM-15+0443SBLP V0202101N001519999999Y0099001N1+01801+01601999999ADDMA1102101999999REMMET045METAR SBLP 181000Z 21003KT CAVOK 18/16 Q1021;
0120832880999992010071811004-13267-043417FM-15+0443SBLP V0201701N003112200019N0112651N1+02201+01501999999ADDGA1021+009001999GF102991999999999999999999MA1102201999999REMMET051METAR SBLP 181100Z 17006KT 9999 FEW030 22/15 Q1022;
0120832880999992010071812004-13267-043417FM-15+0443SBLP V0201301N004112200019N0112651N1+02501+01501999999ADDGA1021+009001999GF102991999999999999999999MA1102301999999REMMET051METAR SBLP 181200Z 13008KT 9999 FEW030 25/15 Q1023;
0120832880999992010071813004-13267-043417FM-15+0443SBLP V0201301N005112200019N0112651N1+02701+01401999999ADDGA1021+009001999GF102991999999999999999999MA1102301999999REMMET051METAR SBLP 181300Z 13010KT 9999 FEW030 27/14 Q1023;
0120832880999992010071814004-13267-043417FM-15+0443SBLP V0201501N004112200019N0112651N1+02801+01401999999ADDGA1021+009001999GF102991999999999999999999MA1102201999999REMMET051METAR SBLP 181400Z 15008KT 9999 FEW030 28/14 Q1022;
0120832880999992010071815004-13267-043417FM-15+0443SBLP V0201201N003112200019N0112651N1+02901+01401999999ADDGA1021+009001999GF102991999999999999999999MA1102101999999REMMET051METAR SBLP 181500Z 12006KT 9999 FEW030 29/14 Q1021;
0120832880999992010071816004-13267-043417FM-15+0443SBLP V0201501N004112200019N0112651N1+03001+01401999999ADDGA1021+009001999GF102991999999999999999999MA1102001999999REMMET051METAR SBLP 181600Z 15008KT 9999 FEW030 30/14 Q1020;
0120832880999992010071817004-13267-043417FM-15+0443SBLP V0201201N005112200019N0112651N1+03101+01401999999ADDGA1021+009001999GF102991999999999999999999MA1101801999999REMMET051METAR SBLP 181700Z 12010KT 9999 FEW030 31/14 Q1018;
0120832880999992010071818004-13267-043417FM-15+0443SBLP V0201801N003112200019N0112651N1+03101+01401999999ADDGA1021+009001999GF102991999999999999999999MA1101691999999REMMET051METAR SBLP 181800Z 18006KT 9999 FEW030 31/14 Q1017;
0120832880999992010071819004-13267-043417FM-15+0443SBLP V0201501N003112200019N0112651N1+03201+01301999999ADDGA1021+009001999GF102991999999999999999999MA1101691999999REMMET051METAR SBLP 181900Z 15006KT 9999 FEW030 32/13 Q1017;
0120832880999992010071820004-13267-043417FM-15+0443SBLP V0201201N003112200019N0112651N1+03101+01401999999ADDGA1021+009001999GF102991999999999999999999MA1101691999999REMMET051METAR SBLP 182000Z 12006KT 9999 FEW030 31/14 Q1017;
0072832880999992010071821004-13267-043417FM-15+0443SBLP V0209999C000019999999Y0099001N1+02901+01501999999ADDMA1101691999999REMMET045METAR SBLP 182100Z 00000KT CAVOK 29/15 Q1017;
0072832880999992010071910004-13267-043417FM-15+0443SBLP V0209999C000019999999Y0099001N1+01701+01501999999ADDMA1102101999999REMMET045METAR SBLP 191000Z 00000KT CAVOK 17/15 Q1021;
0072832880999992010071911004-13267-043417FM-15+0443SBLP V0209999C000019999999Y0099001N1+01701+01501999999ADDMA1102101999999REMMET045METAR SBLP 191100Z 00000KT CAVOK 17/15 Q1021;
0072832880999992010071912004-13267-043417FM-15+0443SBLP V0201201N003119999999Y0099001N1+02401+01401999999ADDMA1102201999999REMMET045METAR SBLP 191200Z 12006KT CAVOK 24/14 Q1022;
0072832880999992010071913004-13267-043417FM-15+0443SBLP V0202101N003119999999Y0099001N1+02601+01601999999ADDMA1102201999999REMMET045METAR SBLP 191300Z 21006KT CAVOK 26/16 Q1022;
0072832880999992010071914004-13267-043417FM-15+0443SBLP V0201201N003119999999Y0099001N1+02801+01701999999ADDMA1102201999999REMMET045METAR SBLP 191400Z 12006KT CAVOK 28/17 Q1022;
0120832880999992010071915004-13267-043417FM-15+0443SBLP V0200901N003112200019N0112651N1+03001+01801999999ADDGA1021+009001999GF102991999999999999999999MA1102001999999REMMET051METAR SBLP 191500Z 09006KT 9999 FEW030 30/18 Q1020;
0120832880999992010071916004-13267-043417FM-15+0443SBLP V0201701N004112200019N0112651N1+03201+01601999999ADDGA1041+009001999GF104991999999999999999999MA1101901999999REMMET051METAR SBLP 191600Z 17008KT 9999 SCT030 32/16 Q1019;
0120832880999992010071917004-13267-043417FM-15+0443SBLP V0201001N006212200019N0112651N1+03201+01301999999ADDGA1041+009001999GF104991999999999999999999MA1101801999999REMMET051METAR SBLP 191700Z 10012KT 9999 SCT030 32/13 Q1018;
0120832880999992010071918004-13267-043417FM-15+0443SBLP V0200601N005112200019N0112651N1+03301+01201999999ADDGA1041+009001999GF104991999999999999999999MA1101691999999REMMET051METAR SBLP 191800Z 06010KT 9999 SCT030 33/12 Q1017;
0120832880999992010071919004-13267-043417FM-15+0443SBLP V0201001N004112200019N0112651N1+03201+01201999999ADDGA1041+009001999GF104991999999999999999999MA1101691999999REMMET051METAR SBLP 191900Z 10008KT 9999 SCT030 32/12 Q1017;
0120832880999992010071920004-13267-043417FM-15+0443SBLP V0201801N004112200019N0112651N1+03201+01201999999ADDGA1021+009001999GF102991999999999999999999MA1101691999999REMMET051METAR SBLP 192000Z 18008KT 9999 FEW030 32/12 Q1017;
0072832880999992010071921004-13267-043417FM-15+0443SBLP V0201201N004119999999Y0099001N1+03001+01501999999ADDMA1101691999999REMMET045METAR SBLP 192100Z 12008KT CAVOK 30/15 Q1017;
0072832880999992010072010004-13267-043417FM-15+0443SBLP V0201801N005119999999Y0099001N1+01801+01501999999ADDMA1102101999999REMMET045METAR SBLP 201000Z 18010KT CAVOK 18/15 Q1021;
0072832880999992010072011004-13267-043417FM-15+0443SBLP V0201601N004119999999Y0099001N1+02101+01601999999ADDMA1102201999999REMMET045METAR SBLP 201100Z 16008KT CAVOK 21/16 Q1022;
0072832880999992010072012004-13267-043417FM-15+0443SBLP V0201201N005119999999Y0099001N1+02501+01501999999ADDMA1102201999999REMMET045METAR SBLP 201200Z 12010KT CAVOK 25/15 Q1022;
0072832880999992010072013004-13267-043417FM-15+0443SBLP V0200901N004119999999Y0099001N1+02601+01501999999ADDMA1102201999999REMMET045METAR SBLP 201300Z 09008KT CAVOK 26/15 Q1022;
0072832880999992010072014004-13267-043417FM-15+0443SBLP V0201301N004119999999Y0099001N1+02901+01501999999ADDMA1102101999999REMMET045METAR SBLP 201400Z 13008KT CAVOK 29/15 Q1021;
0072832880999992010072015004-13267-043417FM-15+0443SBLP V0202401N003119999999Y0099001N1+03001+01401999999ADDMA1102001999999REMMET045METAR SBLP 201500Z 24006KT CAVOK 30/14 Q1020;
0120832880999992010072016004-13267-043417FM-15+0443SBLP V0201801N003112200019N0112651N1+03101+01401999999ADDGA1021+009001999GF102991999999999999999999MA1101801999999REMMET051METAR SBLP 201600Z 18006KT 9999 FEW030 31/14 Q1018;
0120832880999992010072017004-13267-043417FM-15+0443SBLP V0201801N003112200019N0112651N1+03201+01501999999ADDGA1021+009001999GF102991999999999999999999MA1101691999999REMMET051METAR SBLP 201700Z 18006KT 9999 FEW030 32/15 Q1017;
0120832880999992010072018004-13267-043417FM-15+0443SBLP V0201801N003112200019N0112651N1+03401+01501999999ADDGA1041+009001999GF104991999999999999999999MA1101591999999REMMET051METAR SBLP 201800Z 18006KT 9999 SCT030 34/15 Q1016;
0120832880999992010072019004-13267-043417FM-15+0443SBLP V0200901N003112200019N0112651N1+03401+01501999999ADDGA1021+009001999GF102991999999999999999999MA1101591999999REMMET051METAR SBLP 201900Z 09006KT 9999 FEW030 34/15 Q1016;
0120832880999992010072020004-13267-043417FM-15+0443SBLP V0200901N003112200019N0112651N1+03301+01501999999ADDGA1021+009001999GF102991999999999999999999MA1101591999999REMMET051METAR SBLP 202000Z 09006KT 9999 FEW030 33/15 Q1016;
0072832880999992010072021004-13267-043417FM-15+0443SBLP V0200901N003119999999Y0099001N1+03201+01601999999ADDMA1101591999999REMMET045METAR SBLP 202100Z 09006KT CAVOK 32/16 Q1016;
0072832880999992010072110004-13267-043417FM-15+0443SBLP V0209999C000019999999Y0099001N1+02101+01601999999ADDMA1102101999999REMMET045METAR SBLP 211000Z 00000KT CAVOK 21/16 Q1021;
0072832880999992010072111004-13267-043417FM-15+0443SBLP V0209999C000019999999Y0099001N1+02301+01501999999ADDMA1102101999999REMMET045METAR SBLP 211100Z 00000KT CAVOK 23/15 Q1021;
0072832880999992010072112004-13267-043417FM-15+0443SBLP V0200901N003119999999Y0099001N1+02501+01501999999ADDMA1102201999999REMMET045METAR SBLP 211200Z 09006KT CAVOK 25/15 Q1022;
0072832880999992010072113004-13267-043417FM-15+0443SBLP V0200901N003119999999Y0099001N1+02701+01501999999ADDMA1102201999999REMMET045METAR SBLP 211300Z 09006KT CAVOK 27/15 Q1022;
0072832880999992010072114004-13267-043417FM-15+0443SBLP V0201801N003119999999Y0099001N1+02801+01501999999ADDMA1102101999999REMMET045METAR SBLP 211400Z 18006KT CAVOK 28/15 Q1021;
0072832880999992010072115004-13267-043417FM-15+0443SBLP V0201801N003119999999Y0099001N1+02901+01501999999ADDMA1102001999999REMMET045METAR SBLP 211500Z 18006KT CAVOK 29/15 Q1020;
0072832880999992010072116004-13267-043417FM-15+0443SBLP V0209999C000019999999Y0099001N1+03101+01301999999ADDMA1101801999999REMMET045METAR SBLP 211600Z 00000KT CAVOK 31/13 Q1018;
0072832880999992010072117004-13267-043417FM-15+0443SBLP V0202401N003119999999Y0099001N1+03201+01201999999ADDMA1101691999999REMMET045METAR SBLP 211700Z 24006KT CAVOK 32/12 Q1017;
0072832880999992010072118004-13267-043417FM-15+0443SBLP V0202401N004119999999Y0099001N1+03201+01201999999ADDMA1101591999999REMMET045METAR SBLP 211800Z 24008KT CAVOK 32/12 Q1016;
0072832880999992010072119004-13267-043417FM-15+0443SBLP V0202201N003119999999Y0099001N1+03201+01301999999ADDMA1101591999999REMMET045METAR SBLP 211900Z 22006KT CAVOK 32/13 Q1016;
0072832880999992010072120004-13267-043417FM-15+0443SBLP V0201301N003119999999Y0099001N1+03301+01001999999ADDMA1101591999999REMMET045METAR SBLP 212000Z 13006KT CAVOK 33/10 Q1016;
0072832880999992010072121004-13267-043417FM-15+0443SBLP V0201301N005119999999Y0099001N1+03001+01301999999ADDMA1101691999999REMMET045METAR SBLP 212100Z 13010KT CAVOK 30/13 Q1017;
0072832880999992010072210004-13267-043417FM-15+0443SBLP V0202101N001019999999Y0099001N1+01601+01301999999ADDMA1102201999999REMMET045METAR SBLP 221000Z 21002KT CAVOK 16/13 Q1022;
0072832880999992010072211004-13267-043417FM-15+0443SBLP V0209999C000019999999Y0099001N1+01801+01301999999ADDMA1102301999999REMMET045METAR SBLP 221100Z 00000KT CAVOK 18/13 Q1023;
0072832880999992010072212004-13267-043417FM-15+0443SBLP V0202201N002119999999Y0099001N1+02301+01301999999ADDMA1102301999999REMMET045METAR SBLP 221200Z 22004KT CAVOK 23/13 Q1023;
0072832880999992010072213004-13267-043417FM-15+0443SBLP V0209999C000019999999Y0099001N1+02601+01201999999ADDMA1102301999999REMMET045METAR SBLP 221300Z 00000KT CAVOK 26/12 Q1023;
0072832880999992010072214004-13267-043417FM-15+0443SBLP V0202901N002119999999Y0099001N1+02801+01301999999ADDMA1102201999999REMMET045METAR SBLP 221400Z 29004KT CAVOK 28/13 Q1022;
0072832880999992010072215004-13267-043417FM-15+0443SBLP V0202901N001519999999Y0099001N1+02901+01101999999ADDMA1102101999999REMMET045METAR SBLP 221500Z 29003KT CAVOK 29/11 Q1021;
0072832880999992010072216004-13267-043417FM-15+0443SBLP V0209999C000019999999Y0099001N1+03001+01101999999ADDMA1101901999999REMMET045METAR SBLP 221600Z 00000KT CAVOK 30/11 Q1019;
0072832880999992010072217004-13267-043417FM-15+0443SBLP V0209999C000019999999Y0099001N1+03301+01101999999ADDMA1101801999999REMMET045METAR SBLP 221700Z 00000KT CAVOK 33/11 Q1018;
0072832880999992010072218004-13267-043417FM-15+0443SBLP V0200901N003119999999Y0099001N1+03401+01201999999ADDMA1101691999999REMMET045METAR SBLP 221800Z 09006KT CAVOK 34/12 Q1017;
0072832880999992010072219004-13267-043417FM-15+0443SBLP V0209999C000019999999Y0099001N1+03401+01201999999ADDMA1101591999999REMMET045METAR SBLP 221900Z 00000KT CAVOK 34/12 Q1016;
0072832880999992010072220004-13267-043417FM-15+0443SBLP V0209999C000019999999Y0099001N1+03301+01201999999ADDMA1101591999999REMMET045METAR SBLP 222000Z 00000KT CAVOK 33/12 Q1016;
0072832880999992010072221004-13267-043417FM-15+0443SBLP V0209999C000019999999Y0099001N1+03101+01401999999ADDMA1101591999999REMMET045METAR SBLP 222100Z 00000KT CAVOK 31/14 Q1016;
0072832880999992010072310004-13267-043417FM-15+0443SBLP V0209999C000019999999Y0099001N1+01701+01501999999ADDMA1102301999999REMMET045METAR SBLP 231000Z 00000KT CAVOK 17/15 Q1023;
0072832880999992010072311004-13267-043417FM-15+0443SBLP V0209999C000019999999Y0099001N1+02001+01601999999ADDMA1102401999999REMMET045METAR SBLP 231100Z 00000KT CAVOK 20/16 Q1024;
0072832880999992010072312004-13267-043417FM-15+0443SBLP V0209999C000019999999Y0099001N1+02401+01601999999ADDMA1102401999999REMMET045METAR SBLP 231200Z 00000KT CAVOK 24/16 Q1024;
0072832880999992010072313004-13267-043417FM-15+0443SBLP V0209999C000019999999Y0099001N1+02601+01601999999ADDMA1102401999999REMMET045METAR SBLP 231300Z 00000KT CAVOK 26/16 Q1024;
0072832880999992010072315004-13267-043417FM-15+0443SBLP V0209999C000019999999Y0099001N1+03001+01601999999ADDMA1102201999999REMMET045METAR SBLP 231500Z 00000KT CAVOK 30/16 Q1022;
0072832880999992010072316004-13267-043417FM-15+0443SBLP V0209999C000019999999Y0099001N1+03001+01501999999ADDMA1102101999999REMMET045METAR SBLP 231600Z 00000KT CAVOK 30/15 Q1021;
0072832880999992010072317004-13267-043417FM-15+0443SBLP V0201201N004119999999Y0099001N1+03101+01201999999ADDMA1101901999999REMMET045METAR SBLP 231700Z 12008KT CAVOK 31/12 Q1019;
0072832880999992010072318004-13267-043417FM-15+0443SBLP V0201201N003619999999Y0099001N1+03201+01101999999ADDMA1101901999999REMMET045METAR SBLP 231800Z 12007KT CAVOK 32/11 Q1019;
0072832880999992010072319004-13267-043417FM-15+0443SBLP V0201201N005119999999Y0099001N1+03201+01101999999ADDMA1101901999999REMMET045METAR SBLP 231900Z 12010KT CAVOK 32/11 Q1019;
0072832880999992010072320004-13267-043417FM-15+0443SBLP V0201501N004119999999Y0099001N1+03101+01201999999ADDMA1101901999999REMMET045METAR SBLP 232000Z 15008KT CAVOK 31/12 Q1019;
0120832880999992010072616004-13267-043417FM-15+0443SBLP V0201301N003112200019N0112651N1+03101+01301999999ADDGA1021+009001999GF102991999999999999999999MA1101801999999REMMET051METAR SBLP 261600Z 13006KT 9999 FEW030 31/13 Q1018;
0120832880999992010072618004-13267-043417FM-15+0443SBLP V0201901N004112200019N0112651N1+03301+01201999999ADDGA1021+009001999GF102991999999999999999999MA1101591999999REMMET051METAR SBLP 261800Z 19008KT 9999 FEW030 33/12 Q1016;
0120832880999992010072620004-13267-043417FM-15+0443SBLP V0201501N004112200019N0112651N1+03201+01201999999ADDGA1021+009001999GF102991999999999999999999MA1101591999999REMMET051METAR SBLP 262000Z 15008KT 9999 FEW030 32/12 Q1016;
0072832880999992010072621004-13267-043417FM-15+0443SBLP V0201501N003119999999Y0099001N1+03001+01101999999ADDMA1101591999999REMMET045METAR SBLP 262100Z 15006KT CAVOK 30/11 Q1016;
0072832880999992010072710004-13267-043417FM-15+0443SBLP V0209999C000019999999Y0099001N1+01701+01401999999ADDMA1101901999999REMMET045METAR SBLP 271000Z 00000KT CAVOK 17/14 Q1019;
0072832880999992010072711004-13267-043417FM-15+0443SBLP V0202101N001519999999Y0099001N1+01901+01501999999ADDMA1102001999999REMMET045METAR SBLP 271100Z 21003KT CAVOK 19/15 Q1020;
0072832880999992010072712004-13267-043417FM-15+0443SBLP V0200901N003119999999Y0099001N1+02501+01401999999ADDMA1102001999999REMMET045METAR SBLP 271200Z 09006KT CAVOK 25/14 Q1020;
0120832880999992010072713004-13267-043417FM-15+0443SBLP V0201201N004112200019N0112651N1+02801+01401999999ADDGA1021+009001999GF102991999999999999999999MA1102001999999REMMET051METAR SBLP 271300Z 12008KT 9999 FEW030 28/14 Q1020;
0120832880999992010072714004-13267-043417FM-15+0443SBLP V0201101N004112200019N0112651N1+03001+01501999999ADDGA1021+009001999GF102991999999999999999999MA1102001999999REMMET051METAR SBLP 271400Z 11008KT 9999 FEW030 30/15 Q1020;
0120832880999992010072715004-13267-043417FM-15+0443SBLP V0201201N001512200019N0112651N1+03101+01501999999ADDGA1021+009001999GF102991999999999999999999MA1101901999999REMMET051METAR SBLP 271500Z 12003KT 9999 FEW030 31/15 Q1019;
0120832880999992010072716004-13267-043417FM-15+0443SBLP V0200901N003112200019N0112651N1+03101+01501999999ADDGA1021+009001999GF102991999999999999999999MA1101801999999REMMET051METAR SBLP 271600Z 09006KT 9999 FEW030 31/15 Q1018;
0120832880999992010072717004-13267-043417FM-15+0443SBLP V0201601N003112200019N0112651N1+03201+01501999999ADDGA1021+009001999GF102991999999999999999999MA1101691999999REMMET051METAR SBLP 271700Z 16006KT 9999 FEW030 32/15 Q1017;
0120832880999992010072718004-13267-043417FM-15+0443SBLP V0201601N003112200019N0112651N1+03201+01501999999ADDGA1021+009001999GF102991999999999999999999MA1101591999999REMMET051METAR SBLP 271800Z 16006KT 9999 FEW030 32/15 Q1016;
0120832880999992010072719004-13267-043417FM-15+0443SBLP V0202001N003112200019N0112651N1+03301+01501999999ADDGA1021+009001999GF102991999999999999999999MA1101591999999REMMET051METAR SBLP 271900Z 20006KT 9999 FEW030 33/15 Q1016;
0072832880999992010072720004-13267-043417FM-15+0443SBLP V0201201N004119999999Y0099001N1+03101+01601999999ADDMA1101591999999REMMET045METAR SBLP 272000Z 12008KT CAVOK 31/16 Q1016;
0072832880999992010072721004-13267-043417FM-15+0443SBLP V0209999C000019999999Y0099001N1+02901+01701999999ADDMA1101691999999REMMET045METAR SBLP 272100Z 00000KT CAVOK 29/17 Q1017;
0143832880999992010072811004-13267-043417FM-15+0443SBLP V0201801N004110300019N0112651N1+02201+01901999999ADDGA1041+006001999GA2071+030001999GF107991999999999999999999MA1102101999999REMMET058METAR SBLP 281100Z 18008KT 9999 SCT020 BKN100 22/19 Q1021;
0143832880999992010072812004-13267-043417FM-15+0443SBLP V0201601N003110300019N0112651N1+02301+01901999999ADDGA1041+006001999GA2071+030001999GF107991999999999999999999MA1102101999999REMMET058METAR SBLP 281200Z 16006KT 9999 SCT020 BKN100 23/19 Q1021;
0143832880999992010072813004-13267-043417FM-15+0443SBLP V0201801N003110300019N0112651N1+02501+01901999999ADDGA1041+006001999GA2071+030001999GF107991999999999999999999MA1102101999999REMMET058METAR SBLP 281300Z 18006KT 9999 SCT020 BKN100 25/19 Q1021;
0143832880999992010072814004-13267-043417FM-15+0443SBLP V0201201N003110300019N0112651N1+02601+01901999999ADDGA1041+006901999GA2071+030001999GF107991999999999999999999MA1102101999999REMMET058METAR SBLP 281400Z 12006KT 9999 SCT023 BKN100 26/19 Q1021;
0143832880999992010072815004-13267-043417FM-15+0443SBLP V0201501N005110300019N0112651N1+02701+02001999999ADDGA1041+006001999GA2071+030001999GF107991999999999999999999MA1102001999999REMMET058METAR SBLP 281500Z 15010KT 9999 SCT020 BKN100 27/20 Q1020;
0120832880999992010072816004-13267-043417FM-15+0443SBLP V0201401N003110090019N0112651N1+03001+01601999999ADDGA1071+009001999GF107991999999999999999999MA1101901999999REMMET051METAR SBLP 281600Z 14006KT 9999 BKN030 30/16 Q1019;
0120832880999992010072817004-13267-043417FM-15+0443SBLP V0201301N007710090019N0112651N1+03001+01601999999ADDGA1071+009001999GF107991999999999999999999MA1101801999999REMMET051METAR SBLP 281700Z 13015KT 9999 BKN030 30/16 Q1018;
0120832880999992010072818004-13267-043417FM-15+0443SBLP V0201201N005110090019N0112651N1+03101+01401999999ADDGA1071+009001999GF107991999999999999999999MA1101691999999REMMET051METAR SBLP 281800Z 12010KT 9999 BKN030 31/14 Q1017;
0120832880999992010072819004-13267-043417FM-15+0443SBLP V0201201N009312200019N0112651N1+03201+01401999999ADDGA1041+009001999GF104991999999999999999999MA1101691999999REMMET051METAR SBLP 281900Z 12018KT 9999 SCT030 32/14 Q1017;
0120832880999992010072820004-13267-043417FM-15+0443SBLP V0201201N006212200019N0112651N1+02901+01501999999ADDGA1041+009001999GF104991999999999999999999MA1101801999999REMMET051METAR SBLP 282000Z 12012KT 9999 SCT030 29/15 Q1018;
0120832880999992010072821004-13267-043417FM-15+0443SBLP V0201201N005112200019N0112651N1+02801+01201999999ADDGA1021+009001999GF102991999999999999999999MA1101801999999REMMET051METAR SBLP 282100Z 12010KT 9999 FEW030 28/12 Q1018;
0072832880999992010072910004-13267-043417FM-15+0443SBLP V0201501N003119999999Y0099001N1+01901+01601999999ADDMA1102101999999REMMET045METAR SBLP 291000Z 15006KT CAVOK 19/16 Q1021;
0072832880999992010072911004-13267-043417FM-15+0443SBLP V0201201N003119999999Y0099001N1+02201+01601999999ADDMA1102101999999REMMET045METAR SBLP 291100Z 12006KT CAVOK 22/16 Q1021;
0072832880999992010072912004-13267-043417FM-15+0443SBLP V0201501N005119999999Y0099001N1+02401+01601999999ADDMA1102201999999REMMET045METAR SBLP 291200Z 15010KT CAVOK 24/16 Q1022;
0072832880999992010072913004-13267-043417FM-15+0443SBLP V0201201N005119999999Y0099001N1+02701+01501999999ADDMA1102201999999REMMET045METAR SBLP 291300Z 12010KT CAVOK 27/15 Q1022;
0072832880999992010072914004-13267-043417FM-15+0443SBLP V0201201N006219999999Y0099001N1+02801+01501999999ADDMA1102101999999REMMET045METAR SBLP 291400Z 12012KT CAVOK 28/15 Q1021;
0072832880999992010072915004-13267-043417FM-15+0443SBLP V0201201N006219999999Y0099001N1+03001+01401999999ADDMA1102001999999REMMET045METAR SBLP 291500Z 12012KT CAVOK 30/14 Q1020;
0072832880999992010072916004-13267-043417FM-15+0443SBLP V0200901N003119999999Y0099001N1+03101+01401999999ADDMA1101901999999REMMET045METAR SBLP 291600Z 09006KT CAVOK 31/14 Q1019;
0072832880999992010072917004-13267-043417FM-15+0443SBLP V0200901N003119999999Y0099001N1+03201+01401999999ADDMA1101691999999REMMET045METAR SBLP 291700Z 09006KT CAVOK 32/14 Q1017;
0072832880999992010072918004-13267-043417FM-15+0443SBLP V0200901N003119999999Y0099001N1+03201+01401999999ADDMA1101691999999REMMET045METAR SBLP 291800Z 09006KT CAVOK 32/14 Q1017;
0072832880999992010072919004-13267-043417FM-15+0443SBLP V0200901N003119999999Y0099001N1+03201+01401999999ADDMA1101591999999REMMET045METAR SBLP 291900Z 09006KT CAVOK 32/14 Q1016;
0072832880999992010072920004-13267-043417FM-15+0443SBLP V0200901N003119999999Y0099001N1+03201+01401999999ADDMA1101691999999REMMET045METAR SBLP 292000Z 09006KT CAVOK 32/14 Q1017;
0072832880999992010072921004-13267-043417FM-15+0443SBLP V0200901N003119999999Y0099001N1+03001+01501999999ADDMA1101691999999REMMET045METAR SBLP 292100Z 09006KT CAVOK 30/15 Q1017;
0072832880999992010073010004-13267-043417FM-15+0443SBLP V0209999C000019999999Y0099001N1+02001+01601999999ADDMA1102001999999REMMET045METAR SBLP 301000Z 00000KT CAVOK 20/16 Q1020;
0072832880999992010073011004-13267-043417FM-15+0443SBLP V0209999C000019999999Y0099001N1+02301+01601999999ADDMA1102001999999REMMET045METAR SBLP 301100Z 00000KT CAVOK 23/16 Q1020;
0120832880999992010073012004-13267-043417FM-15+0443SBLP V0200901N003112200019N0112651N1+02501+01601999999ADDGA1021+006001999GF102991999999999999999999MA1102101999999REMMET051METAR SBLP 301200Z 09006KT 9999 FEW020 25/16 Q1021;
0120832880999992010073013004-13267-043417FM-15+0443SBLP V0200901N003112200019N0112651N1+02501+01601999999ADDGA1041+006001999GF104991999999999999999999MA1102101999999REMMET051METAR SBLP 301300Z 09006KT 9999 SCT020 25/16 Q1021;
0120832880999992010073014004-13267-043417FM-15+0443SBLP V0200901N003112200019N0112651N1+02701+01601999999ADDGA1041+006001999GF104991999999999999999999MA1102001999999REMMET051METAR SBLP 301400Z 09006KT 9999 SCT020 27/16 Q1020;
0120832880999992010073015004-13267-043417FM-15+0443SBLP V0200901N003112200019N0112651N1+02701+01601999999ADDGA1041+006001999GF104991999999999999999999MA1101901999999REMMET051METAR SBLP 301500Z 09006KT 9999 SCT020 27/16 Q1019;
0120832880999992010073016004-13267-043417FM-15+0443SBLP V0201101N005112200019N0112651N1+02901+01401999999ADDGA1041+006001999GF104991999999999999999999MA1101801999999REMMET051METAR SBLP 301600Z 11010KT 9999 SCT020 29/14 Q1018;
0120832880999992010073017004-13267-043417FM-15+0443SBLP V0201101N004110060019N0112651N1+02901+01401999999ADDGA1071+006001999GF107991999999999999999999MA1101591999999REMMET051METAR SBLP 301700Z 11008KT 9999 BKN020 29/14 Q1016;
0120832880999992010073018004-13267-043417FM-15+0443SBLP V0201101N002112200019N0112651N1+03201+01401999999ADDGA1041+009001999GF104991999999999999999999MA1101491999999REMMET051METAR SBLP 301800Z 11004KT 9999 SCT030 32/14 Q1015;
0120832880999992010073019004-13267-043417FM-15+0443SBLP V0201201N003112200019N0112651N1+03001+01401999999ADDGA1041+009001999GF104991999999999999999999MA1101491999999REMMET051METAR SBLP 301900Z 12006KT 9999 SCT030 30/14 Q1015;
0120832880999992010073020004-13267-043417FM-15+0443SBLP V0201501N001512200019N0112651N1+02901+01301999999ADDGA1041+009001999GF104991999999999999999999MA1101491999999REMMET051METAR SBLP 302000Z 15003KT 9999 SCT030 29/13 Q1015;
0120832880999992010073021004-13267-043417FM-15+0443SBLP V0202201N002112200019N0112651N1+02801+01401999999ADDGA1041+009001999GF104991999999999999999999MA1101491999999REMMET051METAR SBLP 302100Z 22004KT 9999 SCT030 28/14 Q1015;
0072832880999992010073110004-13267-043417FM-15+0443SBLP V0202101N001519999999Y0099001N1+01801+01601999999ADDMA1101691999999REMMET045METAR SBLP 311000Z 21003KT CAVOK 18/16 Q1017;
0072832880999992010073111004-13267-043417FM-15+0443SBLP V0201601N004119999999Y0099001N1+02201+01801999999ADDMA1101801999999REMMET045METAR SBLP 311100Z 16008KT CAVOK 22/18 Q1018;
0120832880999992010073112004-13267-043417FM-15+0443SBLP V0209999C000012200019N0112651N1+02501+01601999999ADDGA1021+009001999GF102991999999999999999999MA1101801999999REMMET051METAR SBLP 311200Z 00000KT 9999 FEW030 25/16 Q1018;
0120832880999992010073113004-13267-043417FM-15+0443SBLP V0201101N003112200019N0112651N1+02701+01601999999ADDGA1041+009001999GF104991999999999999999999MA1101801999999REMMET051METAR SBLP 311300Z 11006KT 9999 SCT030 27/16 Q1018;
0120832880999992010073114004-13267-043417FM-15+0443SBLP V0201501N001512200019N0112651N1+02801+01601999999ADDGA1041+009001999GF104991999999999999999999MA1101691999999REMMET051METAR SBLP 311400Z 15003KT 9999 SCT030 28/16 Q1017;
0120832880999992010073115004-13267-043417FM-15+0443SBLP V0201801N001512200019N0112651N1+03001+01401999999ADDGA1041+009001999GF104991999999999999999999MA1101591999999REMMET051METAR SBLP 311500Z 18003KT 9999 SCT030 30/14 Q1016;
0120832880999992010073116004-13267-043417FM-15+0443SBLP V0200601N003112200019N0112651N1+03101+01401999999ADDGA1041+009001999GF104991999999999999999999MA1101491999999REMMET051METAR SBLP 311600Z 06006KT 9999 SCT030 31/14 Q1015;
0120832880999992010073117004-13267-043417FM-15+0443SBLP V0201801N003112200019N0112651N1+03201+01401999999ADDGA1041+009001999GF104991999999999999999999MA1101391999999REMMET051METAR SBLP 311700Z 18006KT 9999 SCT030 32/14 Q1014;
0120832880999992010073118004-13267-043417FM-15+0443SBLP V0200901N003112200019N0112651N1+03101+01401999999ADDGA1041+009001999GF104991999999999999999999MA1101391999999REMMET051METAR SBLP 311800Z 09006KT 9999 SCT030 31/14 Q1014;
0120832880999992010073119004-13267-043417FM-15+0443SBLP V0201201N003112200019N0112651N1+03001+01501999999ADDGA1041+009001999GF104991999999999999999999MA1101291999999REMMET051METAR SBLP 311900Z 12006KT 9999 SCT030 30/15 Q1013;
0120832880999992010073120004-13267-043417FM-15+0443SBLP V0201201N003112200019N0112651N1+02901+01501999999ADDGA1041+009001999GF104991999999999999999999MA1101391999999REMMET051METAR SBLP 312000Z 12006KT 9999 SCT030 29/15 Q1014;
0120832880999992010073121004-13267-043417FM-15+0443SBLP V0201201N003112200019N0112651N1+02801+01601999999ADDGA1021+009001999GF102991999999999999999999MA1101391999999REMMET051METAR SBLP 312100Z 12006KT 9999 FEW030 28/16 Q1014;
0072832880999992010080110004-13267-043417FM-15+0443SBLP V0202101N002619999999Y0099001N1+01501+01201999999ADDMA1101691999999REMMET045METAR SBLP 011000Z 21005KT CAVOK 15/12 Q1017;
0072832880999992010080111004-13267-043417FM-15+0443SBLP V0201801N001019999999Y0099001N1+01901+01401999999ADDMA1101801999999REMMET045METAR SBLP 011100Z 18002KT CAVOK 19/14 Q1018;
0072832880999992010080112004-13267-043417FM-15+0443SBLP V0201501N001519999999Y0099001N1+02301+01201999999ADDMA1101901999999REMMET045METAR SBLP 011200Z 15003KT CAVOK 23/12 Q1019;
0120832880999992010080113004-13267-043417FM-15+0443SBLP V0209999C000012200019N0112651N1+02701+01301999999ADDGA1021+009001999GF102991999999999999999999MA1101901999999REMMET051METAR SBLP 011300Z 00000KT 9999 FEW030 27/13 Q1019;
0120832880999992010080114004-13267-043417FM-15+0443SBLP V0203301N001512200019N0112651N1+02901+01201999999ADDGA1021+009001999GF102991999999999999999999MA1101801999999REMMET051METAR SBLP 011400Z 33003KT 9999 FEW030 29/12 Q1018;
0120832880999992010080115004-13267-043417FM-15+0443SBLP V0200901N003112200019N0112651N1+03101+01301999999ADDGA1021+009001999GF102991999999999999999999MA1101691999999REMMET051METAR SBLP 011500Z 09006KT 9999 FEW030 31/13 Q1017;
0120832880999992010080116004-13267-043417FM-15+0443SBLP V0201201N003112200019N0112651N1+03201+01301999999ADDGA1021+009001999GF102991999999999999999999MA1101591999999REMMET051METAR SBLP 011600Z 12006KT 9999 FEW030 32/13 Q1016;
0120832880999992010080117004-13267-043417FM-15+0443SBLP V0201201N003112200019N0112651N1+03201+01301999999ADDGA1021+009001999GF102991999999999999999999MA1101391999999REMMET051METAR SBLP 011700Z 12006KT 9999 FEW030 32/13 Q1014;
0120832880999992010080118004-13267-043417FM-15+0443SBLP V0202101N003112200019N0112651N1+03201+01401999999ADDGA1021+009001999GF102991999999999999999999MA1101391999999REMMET051METAR SBLP 011800Z 21006KT 9999 FEW030 32/14 Q1014;
0120832880999992010080119004-13267-043417FM-15+0443SBLP V0201801N003112200019N0112651N1+03301+01301999999ADDGA1021+009001999GF102991999999999999999999MA1101291999999REMMET051METAR SBLP 011900Z 18006KT 9999 FEW030 33/13 Q1013;
0072832880999992010080120004-13267-043417FM-15+0443SBLP V0201501N003119999999Y0099001N1+03301+01301999999ADDMA1101291999999REMMET045METAR SBLP 012000Z 15006KT CAVOK 33/13 Q1013;
0072832880999992010080121004-13267-043417FM-15+0443SBLP V0209999C000019999999Y0099001N1+03101+01501999999ADDMA1101391999999REMMET045METAR SBLP 012100Z 00000KT CAVOK 31/15 Q1014;
0072832880999992010080210004-13267-043417FM-15+0443SBLP V0209999C000019999999Y0099001N1+01601+01401999999ADDMA1101801999999REMMET045METAR SBLP 021000Z 00000KT CAVOK 16/14 Q1018;
0072832880999992010080211004-13267-043417FM-15+0443SBLP V0209999C000019999999Y0099001N1+01701+01401999999ADDMA1101901999999REMMET045METAR SBLP 021100Z 00000KT CAVOK 17/14 Q1019;
0072832880999992010080212004-13267-043417FM-15+0443SBLP V0200901N003119999999Y0099001N1+02601+01701999999ADDMA1102001999999REMMET045METAR SBLP 021200Z 09006KT CAVOK 26/17 Q1020;
0120832880999992010080213004-13267-043417FM-15+0443SBLP V0209999C000012200019N0112651N1+02801+01601999999ADDGA1021+009001999GF102991999999999999999999MA1102001999999REMMET051METAR SBLP 021300Z 00000KT 9999 FEW030 28/16 Q1020;
0120832880999992010080215004-13267-043417FM-15+0443SBLP V0201201N003112200019N0112651N1+03001+01601999999ADDGA1021+009001999GF102991999999999999999999MA1101801999999REMMET051METAR SBLP 021500Z 12006KT 9999 FEW030 30/16 Q1018;
0072832880999992010080216004-13267-043417FM-15+0443SBLP V0200601N002119999999Y0099001N1+03101+01401999999ADDMA1101691999999REMMET045METAR SBLP 021600Z 06004KT CAVOK 31/14 Q1017;
0072832880999992010080217004-13267-043417FM-15+0443SBLP V0200901N005119999999Y0099001N1+03301+01301999999ADDMA1101491999999REMMET045METAR SBLP 021700Z 09010KT CAVOK 33/13 Q1015;
0072832880999992010080218004-13267-043417FM-15+0443SBLP V0209999C000019999999Y0099001N1+03301+01301999999ADDMA1101491999999REMMET045METAR SBLP 021800Z 00000KT CAVOK 33/13 Q1015;
0072832880999992010080219004-13267-043417FM-15+0443SBLP V0201301N002119999999Y0099001N1+03301+01301999999ADDMA1101391999999REMMET045METAR SBLP 021900Z 13004KT CAVOK 33/13 Q1014;
0072832880999992010080220004-13267-043417FM-15+0443SBLP V0200401N003119999999Y0099001N1+03301+01301999999ADDMA1101391999999REMMET045METAR SBLP 022000Z 04006KT CAVOK 33/13 Q1014;
0072832880999992010080221004-13267-043417FM-15+0443SBLP V0209999C000019999999Y0099001N1+03001+01401999999ADDMA1101391999999REMMET045METAR SBLP 022100Z 00000KT CAVOK 30/14 Q1014;
0072832880999992010080310004-13267-043417FM-15+0443SBLP V0209999C000019999999Y0099001N1+01701+01401999999ADDMA1101901999999REMMET045METAR SBLP 031000Z 00000KT CAVOK 17/14 Q1019;
0072832880999992010080311004-13267-043417FM-15+0443SBLP V0201201N003119999999Y0099001N1+02201+01601999999ADDMA1102001999999REMMET045METAR SBLP 031100Z 12006KT CAVOK 22/16 Q1020;
0072832880999992010080312004-13267-043417FM-15+0443SBLP V0209999C000019999999Y0099001N1+02501+01701999999ADDMA1102001999999REMMET045METAR SBLP 031200Z 00000KT CAVOK 25/17 Q1020;
0120832880999992010080313004-13267-043417FM-15+0443SBLP V0201201N003112200019N0112651N1+02801+01601999999ADDGA1021+009001999GF102991999999999999999999MA1102001999999REMMET051METAR SBLP 031300Z 12006KT 9999 FEW030 28/16 Q1020;
0120832880999992010080314004-13267-043417FM-15+0443SBLP V0203601N003112200019N0112651N1+03001+01801999999ADDGA1021+009001999GF102991999999999999999999MA1101901999999REMMET051METAR SBLP 031400Z 36006KT 9999 FEW030 30/18 Q1019;
0120832880999992010080315004-13267-043417FM-15+0443SBLP V0201501N003112200019N0112651N1+03201+01701999999ADDGA1021+009001999GF102991999999999999999999MA1101801999999REMMET051METAR SBLP 031500Z 15006KT 9999 FEW030 32/17 Q1018;
0120832880999992010080316004-13267-043417FM-15+0443SBLP V0201501N003112200019N0112651N1+03101+01401999999ADDGA1041+009001999GF104991999999999999999999MA1101691999999REMMET051METAR SBLP 031600Z 15006KT 9999 SCT030 31/14 Q1017;
0120832880999992010080317004-13267-043417FM-15+0443SBLP V0201201N003112200019N0112651N1+03201+01401999999ADDGA1041+009001999GF104991999999999999999999MA1101491999999REMMET051METAR SBLP 031700Z 12006KT 9999 SCT030 32/14 Q1015;
0120832880999992010080318004-13267-043417FM-15+0443SBLP V0202301N004112200019N0112651N1+03301+01501999999ADDGA1021+009001999GF102991999999999999999999MA1101491999999REMMET051METAR SBLP 031800Z 23008KT 9999 FEW030 33/15 Q1015;
0120832880999992010080319004-13267-043417FM-15+0443SBLP V0201201N002612200019N0112651N1+03301+01401999999ADDGA1021+009001999GF102991999999999999999999MA1101391999999REMMET051METAR SBLP 031900Z 12005KT 9999 FEW030 33/14 Q1014;
0120832880999992010080320004-13267-043417FM-15+0443SBLP V0201501N003112200019N0112651N1+03301+01401999999ADDGA1021+009001999GF102991999999999999999999MA1101391999999REMMET051METAR SBLP 032000Z 15006KT 9999 FEW030 33/14 Q1014;
0120832880999992010080321004-13267-043417FM-15+0443SBLP V0201501N002112200019N0112651N1+03101+01201999999ADDGA1021+009001999GF102991999999999999999999MA1101491999999REMMET051METAR SBLP 032100Z 15004KT 9999 FEW030 31/12 Q1015;
0072832880999992010080410004-13267-043417FM-15+0443SBLP V0201801N003119999999Y0099001N1+02001+01701999999ADDMA1101901999999REMMET045METAR SBLP 041000Z 18006KT CAVOK 20/17 Q1019;
0072832880999992010080411004-13267-043417FM-15+0443SBLP V0201501N003119999999Y0099001N1+02301+01601999999ADDMA1102001999999REMMET045METAR SBLP 041100Z 15006KT CAVOK 23/16 Q1020;
0072832880999992010080412004-13267-043417FM-15+0443SBLP V0200901N003119999999Y0099001N1+02601+01501999999ADDMA1102001999999REMMET045METAR SBLP 041200Z 09006KT CAVOK 26/15 Q1020;
0120832880999992010080413004-13267-043417FM-15+0443SBLP V0201201N004112200019N0112651N1+02801+01301999999ADDGA1021+009001999GF102991999999999999999999MA1102001999999REMMET051METAR SBLP 041300Z 12008KT 9999 FEW030 28/13 Q1020;
0120832880999992010080414004-13267-043417FM-15+0443SBLP V0201501N003112200019N0112651N1+03001+01301999999ADDGA1021+009001999GF102991999999999999999999MA1101901999999REMMET051METAR SBLP 041400Z 15006KT 9999 FEW030 30/13 Q1019;
0120832880999992010080415004-13267-043417FM-15+0443SBLP V0201201N005112200019N0112651N1+03101+01201999999ADDGA1021+009001999GF102991999999999999999999MA1101901999999REMMET051METAR SBLP 041500Z 12010KT 9999 FEW030 31/12 Q1019;
0120832880999992010080417004-13267-043417FM-15+0443SBLP V0201201N005112200019N0112651N1+03201+01201999999ADDGA1021+009001999GF102991999999999999999999MA1101591999999REMMET051METAR SBLP 041700Z 12010KT 9999 FEW030 32/12 Q1016;
0120832880999992010080418004-13267-043417FM-15+0443SBLP V0201501N002112200019N0112651N1+03201+01201999999ADDGA1021+009001999GF102991999999999999999999MA1101591999999REMMET051METAR SBLP 041800Z 15004KT 9999 FEW030 32/12 Q1016;
0120832880999992010080419004-13267-043417FM-15+0443SBLP V0201101N002112200019N0112651N1+03201+01201999999ADDGA1021+009001999GF102991999999999999999999MA1101491999999REMMET051METAR SBLP 041900Z 11004KT 9999 FEW030 32/12 Q1015;
0072832880999992010080420004-13267-043417FM-15+0443SBLP V0201101N002119999999Y0099001N1+03201+01101999999ADDMA1101591999999REMMET045METAR SBLP 042000Z 11004KT CAVOK 32/11 Q1016;
0072832880999992010080421004-13267-043417FM-15+0443SBLP V0201201N003119999999Y0099001N1+02901+01201999999ADDMA1101591999999REMMET045METAR SBLP 042100Z 12006KT CAVOK 29/12 Q1016;
0072832880999992010080510004-13267-043417FM-15+0443SBLP V0201801N001519999999Y0099001N1+01701+01501999999ADDMA1101901999999REMMET045METAR SBLP 051000Z 18003KT CAVOK 17/15 Q1019;
0072832880999992010080511004-13267-043417FM-15+0443SBLP V0201601N002619999999Y0099001N1+02101+01501999999ADDMA1102001999999REMMET045METAR SBLP 051100Z 16005KT CAVOK 21/15 Q1020;
0072832880999992010080512004-13267-043417FM-15+0443SBLP V0200901N004119999999Y0099001N1+02601+01501999999ADDMA1102101999999REMMET045METAR SBLP 051200Z 09008KT CAVOK 26/15 Q1021;
0120832880999992010080513004-13267-043417FM-15+0443SBLP V0201201N001512200019N0112651N1+02801+01301999999ADDGA1021+009001999GF102991999999999999999999MA1102001999999REMMET051METAR SBLP 051300Z 12003KT 9999 FEW030 28/13 Q1020;
0120832880999992010080514004-13267-043417FM-15+0443SBLP V0200901N003612200019N0112651N1+02901+01201999999ADDGA1041+009001999GF104991999999999999999999MA1102001999999REMMET051METAR SBLP 051400Z 09007KT 9999 SCT030 29/12 Q1020;
0120832880999992010080515004-13267-043417FM-15+0443SBLP V0201701N001012200019N0112651N1+03001+01101999999ADDGA1041+009001999GF104991999999999999999999MA1101901999999REMMET051METAR SBLP 051500Z 17002KT 9999 SCT030 30/11 Q1019;
0120832880999992010080516004-13267-043417FM-15+0443SBLP V0201201N003112200019N0112651N1+03001+01201999999ADDGA1041+009001999GF104991999999999999999999MA1101801999999REMMET051METAR SBLP 051600Z 12006KT 9999 SCT030 30/12 Q1018;
0120832880999992010080517004-13267-043417FM-15+0443SBLP V0202401N003112200019N0112651N1+03201+01101999999ADDGA1041+009001999GF104991999999999999999999MA1101691999999REMMET051METAR SBLP 051700Z 24006KT 9999 SCT030 32/11 Q1017;
0120832880999992010080518004-13267-043417FM-15+0443SBLP V0201201N003112200019N0112651N1+03201+01201999999ADDGA1021+009001999GF102991999999999999999999MA1101591999999REMMET051METAR SBLP 051800Z 12006KT 9999 FEW030 32/12 Q1016;
0120832880999992010080519004-13267-043417FM-15+0443SBLP V0209999C000012200019N0112651N1+03101+01401999999ADDGA1021+009001999GF102991999999999999999999MA1101591999999REMMET051METAR SBLP 051900Z 00000KT 9999 FEW030 31/14 Q1016;
0120832880999992010080520004-13267-043417FM-15+0443SBLP V0201801N003112200019N0112651N1+03001+01301999999ADDGA1021+009001999GF102991999999999999999999MA1101591999999REMMET051METAR SBLP 052000Z 18006KT 9999 FEW030 30/13 Q1016;
0072832880999992010080521004-13267-043417FM-15+0443SBLP V0201801N003119999999Y0099001N1+02901+01401999999ADDMA1101591999999REMMET045METAR SBLP 052100Z 18006KT CAVOK 29/14 Q1016;
0072832880999992010080610004-13267-043417FM-15+0443SBLP V0201901N001519999999Y0099001N1+01601+01301999999ADDMA1101901999999REMMET045METAR SBLP 061000Z 19003KT CAVOK 16/13 Q1019;
0072832880999992010080611004-13267-043417FM-15+0443SBLP V0209999C000019999999Y0099001N1+01901+01301999999ADDMA1101901999999REMMET045METAR SBLP 061100Z 00000KT CAVOK 19/13 Q1019;
0072832880999992010080612004-13267-043417FM-15+0443SBLP V0209999C000019999999Y0099001N1+02401+01401999999ADDMA1102001999999REMMET045METAR SBLP 061200Z 00000KT CAVOK 24/14 Q1020;
0120832880999992010080613004-13267-043417FM-15+0443SBLP V0201201N002612200019N0112651N1+02701+01301999999ADDGA1021+009001999GF102991999999999999999999MA1102001999999REMMET051METAR SBLP 061300Z 12005KT 9999 FEW030 27/13 Q1020;
0120832880999992010080614004-13267-043417FM-15+0443SBLP V0201701N003112200019N0112651N1+02901+01201999999ADDGA1041+009001999GF104991999999999999999999MA1101901999999REMMET051METAR SBLP 061400Z 17006KT 9999 SCT030 29/12 Q1019;
0120832880999992010080615004-13267-043417FM-15+0443SBLP V0202401N004112200019N0112651N1+03001+01101999999ADDGA1021+009001999GF102991999999999999999999MA1101801999999REMMET051METAR SBLP 061500Z 24008KT 9999 FEW030 30/11 Q1018;
0072832880999992010080616004-13267-043417FM-15+0443SBLP V0200601N002119999999Y0099001N1+03201+01101999999ADDMA1101691999999REMMET045METAR SBLP 061600Z 06004KT CAVOK 32/11 Q1017;
0072832880999992010080617004-13267-043417FM-15+0443SBLP V0201801N001019999999Y0099001N1+03201+01301999999ADDMA1101491999999REMMET045METAR SBLP 061700Z 18002KT CAVOK 32/13 Q1015;
0072832880999992010080618004-13267-043417FM-15+0443SBLP V0201201N002119999999Y0099001N1+03301+00801999999ADDMA1101491999999REMMET045METAR SBLP 061800Z 12004KT CAVOK 33/08 Q1015;
0072832880999992010080619004-13267-043417FM-15+0443SBLP V0202301N003119999999Y0099001N1+03301+01001999999ADDMA1101391999999REMMET045METAR SBLP 061900Z 23006KT CAVOK 33/10 Q1014;
0072832880999992010080620004-13267-043417FM-15+0443SBLP V0201501N003119999999Y0099001N1+03201+01001999999ADDMA1101391999999REMMET045METAR SBLP 062000Z 15006KT CAVOK 32/10 Q1014;
0072832880999992010080621004-13267-043417FM-15+0443SBLP V0202101N002119999999Y0099001N1+02901+01001999999ADDMA1101491999999REMMET045METAR SBLP 062100Z 21004KT CAVOK 29/10 Q1015;
0072832880999992010080710004-13267-043417FM-15+0443SBLP V0209999C000019999999Y0099001N1+01701+01201999999ADDMA1101901999999REMMET045METAR SBLP 071000Z 00000KT CAVOK 17/12 Q1019;
0072832880999992010080711004-13267-043417FM-15+0443SBLP V0209999C000019999999Y0099001N1+02101+01301999999ADDMA1102001999999REMMET045METAR SBLP 071100Z 00000KT CAVOK 21/13 Q1020;
0072832880999992010080712004-13267-043417FM-15+0443SBLP V0200601N002119999999Y0099001N1+02601+01301999999ADDMA1102001999999REMMET045METAR SBLP 071200Z 06004KT CAVOK 26/13 Q1020;
0072832880999992010080713004-13267-043417FM-15+0443SBLP V0200901N004119999999Y0099001N1+02801+01301999999ADDMA1102001999999REMMET045METAR SBLP 071300Z 09008KT CAVOK 28/13 Q1020;
0072832880999992010080714004-13267-043417FM-15+0443SBLP V0200901N003119999999Y0099001N1+03001+01101999999ADDMA1102001999999REMMET045METAR SBLP 071400Z 09006KT CAVOK 30/11 Q1020;
0072832880999992010080715004-13267-043417FM-15+0443SBLP V0200901N004119999999Y0099001N1+03101+01201999999ADDMA1101901999999REMMET045METAR SBLP 071500Z 09008KT CAVOK 31/12 Q1019;
0072832880999992010080716004-13267-043417FM-15+0443SBLP V0201501N003119999999Y0099001N1+03201+01301999999ADDMA1101691999999REMMET045METAR SBLP 071600Z 15006KT CAVOK 32/13 Q1017;
0072832880999992010080717004-13267-043417FM-15+0443SBLP V0200201N003119999999Y0099001N1+03201+01301999999ADDMA1101591999999REMMET045METAR SBLP 071700Z 02006KT CAVOK 32/13 Q1016;
0072832880999992010080718004-13267-043417FM-15+0443SBLP V0200901N003119999999Y0099001N1+03301+01201999999ADDMA1101491999999REMMET045METAR SBLP 071800Z 09006KT CAVOK 33/12 Q1015;
0072832880999992010080719004-13267-043417FM-15+0443SBLP V0201201N003119999999Y0099001N1+03301+01201999999ADDMA1101491999999REMMET045METAR SBLP 071900Z 12006KT CAVOK 33/12 Q1015;
0072832880999992010080720004-13267-043417FM-15+0443SBLP V0201501N003119999999Y0099001N1+03201+01301999999ADDMA1101591999999REMMET045METAR SBLP 072000Z 15006KT CAVOK 32/13 Q1016;
0072832880999992010080721004-13267-043417FM-15+0443SBLP V0209999C000019999999Y0099001N1+02901+01501999999ADDMA1101591999999REMMET045METAR SBLP 072100Z 00000KT CAVOK 29/15 Q1016;
0072832880999992010080810004-13267-043417FM-15+0443SBLP V0209999C000019999999Y0099001N1+01601+01201999999ADDMA1102001999999REMMET045METAR SBLP 081000Z 00000KT CAVOK 16/12 Q1020;
0072832880999992010080811004-13267-043417FM-15+0443SBLP V0209999C000019999999Y0099001N1+01901+01301999999ADDMA1102101999999REMMET045METAR SBLP 081100Z 00000KT CAVOK 19/13 Q1021;
0072832880999992010080812004-13267-043417FM-15+0443SBLP V0200401N003119999999Y0099001N1+02401+01301999999ADDMA1102101999999REMMET045METAR SBLP 081200Z 04006KT CAVOK 24/13 Q1021;
0072832880999992010080813004-13267-043417FM-15+0443SBLP V0200601N003119999999Y0099001N1+02701+01101999999ADDMA1102101999999REMMET045METAR SBLP 081300Z 06006KT CAVOK 27/11 Q1021;
0072832880999992010080814004-13267-043417FM-15+0443SBLP V0200601N003119999999Y0099001N1+03001+01101999999ADDMA1102101999999REMMET045METAR SBLP 081400Z 06006KT CAVOK 30/11 Q1021;
0072832880999992010080815004-13267-043417FM-15+0443SBLP V0209999C000019999999Y0099001N1+03101+01101999999ADDMA1102001999999REMMET045METAR SBLP 081500Z 00000KT CAVOK 31/11 Q1020;
0072832880999992010080816004-13267-043417FM-15+0443SBLP V0201201N003119999999Y0099001N1+03201+01101999999ADDMA1101901999999REMMET045METAR SBLP 081600Z 12006KT CAVOK 32/11 Q1019;
0072832880999992010080817004-13267-043417FM-15+0443SBLP V0200601N002119999999Y0099001N1+03201+01001999999ADDMA1101691999999REMMET045METAR SBLP 081700Z 06004KT CAVOK 32/10 Q1017;
0072832880999992010080818004-13267-043417FM-15+0443SBLP V0201201N003119999999Y0099001N1+03301+00601999999ADDMA1101591999999REMMET045METAR SBLP 081800Z 12006KT CAVOK 33/06 Q1016;
0072832880999992010080819004-13267-043417FM-15+0443SBLP V0202301N003119999999Y0099001N1+03301+00701999999ADDMA1101591999999REMMET045METAR SBLP 081900Z 23006KT CAVOK 33/07 Q1016;
0072832880999992010080820004-13267-043417FM-15+0443SBLP V0202401N003119999999Y0099001N1+03301+00801999999ADDMA1101591999999REMMET045METAR SBLP 082000Z 24006KT CAVOK 33/08 Q1016;
0072832880999992010080821004-13267-043417FM-15+0443SBLP V0202301N001519999999Y0099001N1+02901+01101999999ADDMA1101691999999REMMET045METAR SBLP 082100Z 23003KT CAVOK 29/11 Q1017;
0072832880999992010080910004-13267-043417FM-15+0443SBLP V0201801N002119999999Y0099001N1+01601+01301999999ADDMA1101901999999REMMET045METAR SBLP 091000Z 18004KT CAVOK 16/13 Q1019;
0072832880999992010080911004-13267-043417FM-15+0443SBLP V0209999C000019999999Y0099001N1+02001+01201999999ADDMA1102001999999REMMET045METAR SBLP 091100Z 00000KT CAVOK 20/12 Q1020;
0072832880999992010080912004-13267-043417FM-15+0443SBLP V0209999C000019999999Y0099001N1+02501+01201999999ADDMA1102101999999REMMET045METAR SBLP 091200Z 00000KT CAVOK 25/12 Q1021;
0072832880999992010080913004-13267-043417FM-15+0443SBLP V0200901N003119999999Y0099001N1+02701+01301999999ADDMA1102101999999REMMET045METAR SBLP 091300Z 09006KT CAVOK 27/13 Q1021;
0072832880999992010080914004-13267-043417FM-15+0443SBLP V0201501N006219999999Y0099001N1+03001+01201999999ADDMA1102001999999REMMET045METAR SBLP 091400Z 15012KT CAVOK 30/12 Q1020;
0072832880999992010080915004-13267-043417FM-15+0443SBLP V0201501N002119999999Y0099001N1+03201+01101999999ADDMA1101901999999REMMET045METAR SBLP 091500Z 15004KT CAVOK 32/11 Q1019;
0072832880999992010080916004-13267-043417FM-15+0443SBLP V0200901N003119999999Y0099001N1+03301+01101999999ADDMA1101691999999REMMET045METAR SBLP 091600Z 09006KT CAVOK 33/11 Q1017;
0072832880999992010080917004-13267-043417FM-15+0443SBLP V0209999C000019999999Y0099001N1+03301+00801999999ADDMA1101591999999REMMET045METAR SBLP 091700Z 00000KT CAVOK 33/08 Q1016;
0072832880999992010080918004-13267-043417FM-15+0443SBLP V0202701N003119999999Y0099001N1+03401+00801999999ADDMA1101491999999REMMET045METAR SBLP 091800Z 27006KT CAVOK 34/08 Q1015;
0072832880999992010080919004-13267-043417FM-15+0443SBLP V0201201N002119999999Y0099001N1+03501+00701999999ADDMA1101491999999REMMET045METAR SBLP 091900Z 12004KT CAVOK 35/07 Q1015;
0072832880999992010080920004-13267-043417FM-15+0443SBLP V0209999C000019999999Y0099001N1+03401+00801999999ADDMA1101491999999REMMET045METAR SBLP 092000Z 00000KT CAVOK 34/08 Q1015;
0072832880999992010080921004-13267-043417FM-15+0443SBLP V0209999C000019999999Y0099001N1+03101+01001999999ADDMA1101491999999REMMET045METAR SBLP 092100Z 00000KT CAVOK 31/10 Q1015;
0072832880999992010081010004-13267-043417FM-15+0443SBLP V0209999C000019999999Y0099001N1+01601+01201999999ADDMA1101901999999REMMET045METAR SBLP 101000Z 00000KT CAVOK 16/12 Q1019;
0072832880999992010081011004-13267-043417FM-15+0443SBLP V0209999C000019999999Y0099001N1+02001+01401999999ADDMA1102001999999REMMET045METAR SBLP 101100Z 00000KT CAVOK 20/14 Q1020;
0072832880999992010081012004-13267-043417FM-15+0443SBLP V0209999C000019999999Y0099001N1+02401+01501999999ADDMA1102101999999REMMET045METAR SBLP 101200Z 00000KT CAVOK 24/15 Q1021;
0072832880999992010081013004-13267-043417FM-15+0443SBLP V0209999C000019999999Y0099001N1+02801+01401999999ADDMA1102101999999REMMET045METAR SBLP 101300Z 00000KT CAVOK 28/14 Q1021;
0072832880999992010081014004-13267-043417FM-15+0443SBLP V0209999C000019999999Y0099001N1+03001+01501999999ADDMA1102001999999REMMET045METAR SBLP 101400Z 00000KT CAVOK 30/15 Q1020;
0072832880999992010081015004-13267-043417FM-15+0443SBLP V0202101N003119999999Y0099001N1+03201+01301999999ADDMA1101901999999REMMET045METAR SBLP 101500Z 21006KT CAVOK 32/13 Q1019;
0072832880999992010081016004-13267-043417FM-15+0443SBLP V0202101N003119999999Y0099001N1+03301+01201999999ADDMA1101801999999REMMET045METAR SBLP 101600Z 21006KT CAVOK 33/12 Q1018;
0072832880999992010081017004-13267-043417FM-15+0443SBLP V0202101N003119999999Y0099001N1+03401+01301999999ADDMA1101591999999REMMET045METAR SBLP 101700Z 21006KT CAVOK 34/13 Q1016;
0072832880999992010081018004-13267-043417FM-15+0443SBLP V0201201N003119999999Y0099001N1+03601+01301999999ADDMA1101591999999REMMET045METAR SBLP 101800Z 12006KT CAVOK 36/13 Q1016;
0072832880999992010081019004-13267-043417FM-15+0443SBLP V0201201N003119999999Y0099001N1+03601+01301999999ADDMA1101491999999REMMET045METAR SBLP 101900Z 12006KT CAVOK 36/13 Q1015;
0072832880999992010081020004-13267-043417FM-15+0443SBLP V0201201N003119999999Y0099001N1+03501+01301999999ADDMA1101591999999REMMET045METAR SBLP 102000Z 12006KT CAVOK 35/13 Q1016;
0072832880999992010081021004-13267-043417FM-15+0443SBLP V0201501N004119999999Y0099001N1+03301+01201999999ADDMA1101591999999REMMET045METAR SBLP 102100Z 15008KT CAVOK 33/12 Q1016;
0072832880999992010081110004-13267-043417FM-15+0443SBLP V0200901N003119999999Y0099001N1+02101+01601999999ADDMA1102201999999REMMET045METAR SBLP 111000Z 09006KT CAVOK 21/16 Q1022;
0072832880999992010081111004-13267-043417FM-15+0443SBLP V0200901N004119999999Y0099001N1+02301+01701999999ADDMA1102301999999REMMET045METAR SBLP 111100Z 09008KT CAVOK 23/17 Q1023;
0072832880999992010081112004-13267-043417FM-15+0443SBLP V0200901N003119999999Y0099001N1+02501+01901999999ADDMA1102401999999REMMET045METAR SBLP 111200Z 09006KT CAVOK 25/19 Q1024;
0072832880999992010081113004-13267-043417FM-15+0443SBLP V0200901N003119999999Y0099001N1+02701+01601999999ADDMA1102401999999REMMET045METAR SBLP 111300Z 09006KT CAVOK 27/16 Q1024;
0072832880999992010081114004-13267-043417FM-15+0443SBLP V0201201N003119999999Y0099001N1+02901+01501999999ADDMA1102301999999REMMET045METAR SBLP 111400Z 12006KT CAVOK 29/15 Q1023;
0072832880999992010081115004-13267-043417FM-15+0443SBLP V0200901N003119999999Y0099001N1+03001+01501999999ADDMA1102201999999REMMET045METAR SBLP 111500Z 09006KT CAVOK 30/15 Q1022;
0072832880999992010081116004-13267-043417FM-15+0443SBLP V0201201N005119999999Y0099001N1+03201+00901999999ADDMA1102001999999REMMET045METAR SBLP 111600Z 12010KT CAVOK 32/09 Q1020;
0072832880999992010081117004-13267-043417FM-15+0443SBLP V0203601N004119999999Y0099001N1+03301+00801999999ADDMA1101901999999REMMET045METAR SBLP 111700Z 36008KT CAVOK 33/08 Q1019;
0072832880999992010081118004-13267-043417FM-15+0443SBLP V0200901N006219999999Y0099001N1+03301+00901999999ADDMA1101801999999REMMET045METAR SBLP 111800Z 09012KT CAVOK 33/09 Q1018;
0072832880999992010081119004-13267-043417FM-15+0443SBLP V0201201N002119999999Y0099001N1+03301+00901999999ADDMA1101801999999REMMET045METAR SBLP 111900Z 12004KT CAVOK 33/09 Q1018;
0120832880999992010081120004-13267-043417FM-15+0443SBLP V0200901N003112200019N0112651N1+03101+00901999999ADDGA1021+009001999GF102991999999999999999999MA1101801999999REMMET051METAR SBLP 112000Z 09006KT 9999 FEW030 31/09 Q1018;
0072832880999992010081121004-13267-043417FM-15+0443SBLP V0201201N006219999999Y0099001N1+02901+01501999999ADDMA1101801999999REMMET045METAR SBLP 112100Z 12012KT CAVOK 29/15 Q1018;
0072832880999992010081210004-13267-043417FM-15+0443SBLP V0209999C000019999999Y0099001N1+01801+01501999999ADDMA1102101999999REMMET045METAR SBLP 121000Z 00000KT CAVOK 18/15 Q1021;
0072832880999992010081211004-13267-043417FM-15+0443SBLP V0201601N003119999999Y0099001N1+02201+01501999999ADDMA1102201999999REMMET045METAR SBLP 121100Z 16006KT CAVOK 22/15 Q1022;
0072832880999992010081212004-13267-043417FM-15+0443SBLP V0200901N004119999999Y0099001N1+02601+01401999999ADDMA1102301999999REMMET045METAR SBLP 121200Z 09008KT CAVOK 26/14 Q1023;
0120832880999992010081213004-13267-043417FM-15+0443SBLP V0201201N005112200019N0112651N1+02801+01401999999ADDGA1041+009001999GF104991999999999999999999MA1102301999999REMMET051METAR SBLP 121300Z 12010KT 9999 SCT030 28/14 Q1023;
0120832880999992010081214004-13267-043417FM-15+0443SBLP V0203601N002112200019N0112651N1+02801+01301999999ADDGA1041+009001999GF104991999999999999999999MA1102301999999REMMET051METAR SBLP 121400Z 36004KT 9999 SCT030 28/13 Q1023;
0120832880999992010081215004-13267-043417FM-15+0443SBLP V0200601N004110090019N0112651N1+02901+01401999999ADDGA1071+009001999GF107991999999999999999999MA1102201999999REMMET051METAR SBLP 121500Z 06008KT 9999 BKN030 29/14 Q1022;
0120832880999992010081216004-13267-043417FM-15+0443SBLP V0200901N005110090019N0112651N1+03001+01401999999ADDGA1071+009001999GF107991999999999999999999MA1102101999999REMMET051METAR SBLP 121600Z 09010KT 9999 BKN030 30/14 Q1021;
0120832880999992010081217004-13267-043417FM-15+0443SBLP V0200901N003110090019N0112651N1+02901+01501999999ADDGA1071+009001999GF107991999999999999999999MA1102001999999REMMET051METAR SBLP 121700Z 09006KT 9999 BKN030 29/15 Q1020;
0120832880999992010081218004-13267-043417FM-15+0443SBLP V0200901N005110090019N0112651N1+02901+01501999999ADDGA1071+009001999GF107991999999999999999999MA1101901999999REMMET051METAR SBLP 121800Z 09010KT 9999 BKN030 29/15 Q1019;
0120832880999992010081219004-13267-043417FM-15+0443SBLP V0201201N003110090019N0112651N1+02801+01701999999ADDGA1071+009001999GF107991999999999999999999MA1101901999999REMMET051METAR SBLP 121900Z 12006KT 9999 BKN030 28/17 Q1019;
0120832880999992010081220004-13267-043417FM-15+0443SBLP V0200901N004110090019N0112651N1+02801+01601999999ADDGA1071+009001999GF107991999999999999999999MA1101901999999REMMET051METAR SBLP 122000Z 09008KT 9999 BKN030 28/16 Q1019;
0120832880999992010081221004-13267-043417FM-15+0443SBLP V0200901N003112200019N0112651N1+02701+01601999999ADDGA1041+009001999GF104991999999999999999999MA1101901999999REMMET051METAR SBLP 122100Z 09006KT 9999 SCT030 27/16 Q1019;
0072832880999992010081310004-13267-043417FM-15+0443SBLP V0209999C000019999999Y0099001N1+01501+01201999999ADDMA1102201999999REMMET045METAR SBLP 131000Z 00000KT CAVOK 15/12 Q1022;
0072832880999992010081311004-13267-043417FM-15+0443SBLP V0209999C000019999999Y0099001N1+02001+01301999999ADDMA1102201999999REMMET045METAR SBLP 131100Z 00000KT CAVOK 20/13 Q1022;
0072832880999992010081312004-13267-043417FM-15+0443SBLP V0200501N003119999999Y0099001N1+02501+01301999999ADDMA1102301999999REMMET045METAR SBLP 131200Z 05006KT CAVOK 25/13 Q1023;
0072832880999992010081313004-13267-043417FM-15+0443SBLP V0200401N003119999999Y0099001N1+02801+01601999999ADDMA1102201999999REMMET045METAR SBLP 131300Z 04006KT CAVOK 28/16 Q1022;
0072832880999992010081314004-13267-043417FM-15+0443SBLP V0200901N004119999999Y0099001N1+02901+01501999999ADDMA1102101999999REMMET045METAR SBLP 131400Z 09008KT CAVOK 29/15 Q1021;
0072832880999992010081315004-13267-043417FM-15+0443SBLP V0200601N004119999999Y0099001N1+03101+01401999999ADDMA1102001999999REMMET045METAR SBLP 131500Z 06008KT CAVOK 31/14 Q1020;
0072832880999992010081316004-13267-043417FM-15+0443SBLP V0200801N003119999999Y0099001N1+03201+01001999999ADDMA1101901999999REMMET045METAR SBLP 131600Z 08006KT CAVOK 32/10 Q1019;
0072832880999992010081317004-13267-043417FM-15+0443SBLP V0200601N004119999999Y0099001N1+03301+00901999999ADDMA1101801999999REMMET045METAR SBLP 131700Z 06008KT CAVOK 33/09 Q1018;
0072832880999992010081318004-13267-043417FM-15+0443SBLP V0200601N003119999999Y0099001N1+03301+00901999999ADDMA1101691999999REMMET045METAR SBLP 131800Z 06006KT CAVOK 33/09 Q1017;
0072832880999992010081319004-13267-043417FM-15+0443SBLP V0201201N002119999999Y0099001N1+03301+00901999999ADDMA1101591999999REMMET045METAR SBLP 131900Z 12004KT CAVOK 33/09 Q1016;
0072832880999992010081320004-13267-043417FM-15+0443SBLP V0201201N002119999999Y0099001N1+03301+01001999999ADDMA1101591999999REMMET045METAR SBLP 132000Z 12004KT CAVOK 33/10 Q1016;
0072832880999992010081321004-13267-043417FM-15+0443SBLP V0209999C000019999999Y0099001N1+03001+00901999999ADDMA1101591999999REMMET045METAR SBLP 132100Z 00000KT CAVOK 30/09 Q1016;
0072832880999992010081410004-13267-043417FM-15+0443SBLP V0209999C000019999999Y0099001N1+01801+01401999999ADDMA1101801999999REMMET045METAR SBLP 141000Z 00000KT CAVOK 18/14 Q1018;
0072832880999992010081411004-13267-043417FM-15+0443SBLP V0209999C000019999999Y0099001N1+02101+01501999999ADDMA1101801999999REMMET045METAR SBLP 141100Z 00000KT CAVOK 21/15 Q1018;
0072832880999992010081412004-13267-043417FM-15+0443SBLP V0209999C000019999999Y0099001N1+02501+01401999999ADDMA1101901999999REMMET045METAR SBLP 141200Z 00000KT CAVOK 25/14 Q1019;
0072832880999992010081413004-13267-043417FM-15+0443SBLP V0209999C000019999999Y0099001N1+02801+01401999999ADDMA1101901999999REMMET045METAR SBLP 141300Z 00000KT CAVOK 28/14 Q1019;
0072832880999992010081414004-13267-043417FM-15+0443SBLP V0202501N003119999999Y0099001N1+02901+01401999999ADDMA1101801999999REMMET045METAR SBLP 141400Z 25006KT CAVOK 29/14 Q1018;
0072832880999992010081415004-13267-043417FM-15+0443SBLP V0202401N002119999999Y0099001N1+03001+01401999999ADDMA1101691999999REMMET045METAR SBLP 141500Z 24004KT CAVOK 30/14 Q1017;
0072832880999992010081416004-13267-043417FM-15+0443SBLP V0201501N002119999999Y0099001N1+03101+01401999999ADDMA1101491999999REMMET045METAR SBLP 141600Z 15004KT CAVOK 31/14 Q1015;
0072832880999992010081417004-13267-043417FM-15+0443SBLP V0202401N002119999999Y0099001N1+03301+01301999999ADDMA1101391999999REMMET045METAR SBLP 141700Z 24004KT CAVOK 33/13 Q1014;
0072832880999992010081418004-13267-043417FM-15+0443SBLP V0202401N004119999999Y0099001N1+03301+01201999999ADDMA1101291999999REMMET045METAR SBLP 141800Z 24008KT CAVOK 33/12 Q1013;
0072832880999992010081419004-13267-043417FM-15+0443SBLP V0202401N003619999999Y0099001N1+03401+01201999999ADDMA1101291999999REMMET045METAR SBLP 141900Z 24007KT CAVOK 34/12 Q1013;
0072832880999992010081420004-13267-043417FM-15+0443SBLP V0202001N002119999999Y0099001N1+03301+01201999999ADDMA1101291999999REMMET045METAR SBLP 142000Z 20004KT CAVOK 33/12 Q1013;
0072832880999992010081421004-13267-043417FM-15+0443SBLP V0209999C000019999999Y0099001N1+03001+01501999999ADDMA1101291999999REMMET045METAR SBLP 142100Z 00000KT CAVOK 30/15 Q1013;
0072832880999992010081510004-13267-043417FM-15+0443SBLP V0209999C000019999999Y0099001N1+01801+01301999999ADDMA1101691999999REMMET045METAR SBLP 151000Z 00000KT CAVOK 18/13 Q1017;
0072832880999992010081511004-13267-043417FM-15+0443SBLP V0209999C000019999999Y0099001N1+02301+01201999999ADDMA1101801999999REMMET045METAR SBLP 151100Z 00000KT CAVOK 23/12 Q1018;
0072832880999992010081512004-13267-043417FM-15+0443SBLP V0203001N002119999999Y0099001N1+02601+01301999999ADDMA1101901999999REMMET045METAR SBLP 151200Z 30004KT CAVOK 26/13 Q1019;
0072832880999992010081514004-13267-043417FM-15+0443SBLP V0209999C000019999999Y0099001N1+03001+01401999999ADDMA1101901999999REMMET045METAR SBLP 151400Z 00000KT CAVOK 30/14 Q1019;
0120832880999992010081515004-13267-043417FM-15+0443SBLP V0202401N003112200019N0112651N1+03201+01301999999ADDGA1021+009001999GF102991999999999999999999MA1101691999999REMMET051METAR SBLP 151500Z 24006KT 9999 FEW030 32/13 Q1017;
0120832880999992010081516004-13267-043417FM-15+0443SBLP V0201801N003112200019N0112651N1+03301+01201999999ADDGA1021+009001999GF102991999999999999999999MA1101591999999REMMET051METAR SBLP 151600Z 18006KT 9999 FEW030 33/12 Q1016;
0120832880999992010081517004-13267-043417FM-15+0443SBLP V0202701N003112200019N0112651N1+03401+01201999999ADDGA1021+009001999GF102991999999999999999999MA1101391999999REMMET051METAR SBLP 151700Z 27006KT 9999 FEW030 34/12 Q1014;
0072832880999992010081518004-13267-043417FM-15+0443SBLP V0202101N003119999999Y0099001N1+03401+01101999999ADDMA1101391999999REMMET045METAR SBLP 151800Z 21006KT CAVOK 34/11 Q1014;
0072832880999992010081519004-13267-043417FM-15+0443SBLP V0202101N003119999999Y0099001N1+03401+01201999999ADDMA1101291999999REMMET045METAR SBLP 151900Z 21006KT CAVOK 34/12 Q1013;
0072832880999992010081520004-13267-043417FM-15+0443SBLP V0202201N002119999999Y0099001N1+03401+01201999999ADDMA1101391999999REMMET045METAR SBLP 152000Z 22004KT CAVOK 34/12 Q1014;
0072832880999992010081521004-13267-043417FM-15+0443SBLP V0209999C000019999999Y0099001N1+03201+01301999999ADDMA1101391999999REMMET045METAR SBLP 152100Z 00000KT CAVOK 32/13 Q1014;
0072832880999992010081610004-13267-043417FM-15+0443SBLP V0209999C000019999999Y0099001N1+01801+01201999999ADDMA1101691999999REMMET045METAR SBLP 161000Z 00000KT CAVOK 18/12 Q1017;
0072832880999992010081611004-13267-043417FM-15+0443SBLP V0201201N002119999999Y0099001N1+02301+01501999999ADDMA1101691999999REMMET045METAR SBLP 161100Z 12004KT CAVOK 23/15 Q1017;
0072832880999992010081612004-13267-043417FM-15+0443SBLP V0200401N003119999999Y0099001N1+02801+01401999999ADDMA1101801999999REMMET045METAR SBLP 161200Z 04006KT CAVOK 28/14 Q1018;
0072832880999992010081613004-13267-043417FM-15+0443SBLP V0202201N003119999999Y0099001N1+02901+01401999999ADDMA1101801999999REMMET045METAR SBLP 161300Z 22006KT CAVOK 29/14 Q1018;
0072832880999992010081614004-13267-043417FM-15+0443SBLP V0200301N002619999999Y0099001N1+03201+01301999999ADDMA1101691999999REMMET045METAR SBLP 161400Z 03005KT CAVOK 32/13 Q1017;
0072832880999992010081615004-13267-043417FM-15+0443SBLP V0201501N003119999999Y0099001N1+03401+01101999999ADDMA1101591999999REMMET045METAR SBLP 161500Z 15006KT CAVOK 34/11 Q1016;
0120832880999992010081616004-13267-043417FM-15+0443SBLP V0202101N003112200019N0112651N1+03502+01301999999ADDGA1021+009001999GF102991999999999999999999MA1101491999999REMMET051METAR SBLP 161600Z 21006KT 9999 FEW030 35/13 Q1015;
0120832880999992010081617004-13267-043417FM-15+0443SBLP V0202701N004112200019N0112651N1+03501+00901999999ADDGA1041+009001999GF104991999999999999999999MA1101391999999REMMET051METAR SBLP 161700Z 27008KT 9999 SCT030 35/09 Q1014;
0120832880999992010081618004-13267-043417FM-15+0443SBLP V0202701N003112200019N0112651N1+03501+00901999999ADDGA1041+009001999GF104991999999999999999999MA1101391999999REMMET051METAR SBLP 161800Z 27006KT 9999 SCT030 35/09 Q1014;
0120832880999992010081619004-13267-043417FM-15+0443SBLP V0202401N002112200019N0112651N1+03501+01001999999ADDGA1041+009001999GF104991999999999999999999MA1101391999999REMMET051METAR SBLP 161900Z 24004KT 9999 SCT030 35/10 Q1014;
0120832880999992010081620004-13267-043417FM-15+0443SBLP V0202101N005112200019N0112651N1+03301+01201999999ADDGA1021+009001999GF102991999999999999999999MA1101391999999REMMET051METAR SBLP 162000Z 21010KT 9999 FEW030 33/12 Q1014;
0120832880999992010081621004-13267-043417FM-15+0443SBLP V0201801N002112200019N0112651N1+03101+01201999999ADDGA1041+009001999GF104991999999999999999999MA1101491999999REMMET051METAR SBLP 162100Z 18004KT 9999 SCT030 31/12 Q1015;
0072832880999992010081710004-13267-043417FM-15+0443SBLP V0201801N003119999999Y0099001N1+01801+01401999999ADDMA1102001999999REMMET045METAR SBLP 171000Z 18006KT CAVOK 18/14 Q1020;
0072832880999992010081711004-13267-043417FM-15+0443SBLP V0201501N003119999999Y0099001N1+02101+01401999999ADDMA1102101999999REMMET045METAR SBLP 171100Z 15006KT CAVOK 21/14 Q1021;
0072832880999992010081712004-13267-043417FM-15+0443SBLP V0201301N002119999999Y0099001N1+02401+01401999999ADDMA1102201999999REMMET045METAR SBLP 171200Z 13004KT CAVOK 24/14 Q1022;
0072832880999992010081713004-13267-043417FM-15+0443SBLP V0201201N003119999999Y0099001N1+02601+01301999999ADDMA1102201999999REMMET045METAR SBLP 171300Z 12006KT CAVOK 26/13 Q1022;
0072832880999992010081714004-13267-043417FM-15+0443SBLP V0209999C000019999999Y0099001N1+02701+01401999999ADDMA1102101999999REMMET045METAR SBLP 171400Z 00000KT CAVOK 27/14 Q1021;
0072832880999992010081715004-13267-043417FM-15+0443SBLP V0201501N003119999999Y0099001N1+03001+01301999999ADDMA1102001999999REMMET045METAR SBLP 171500Z 15006KT CAVOK 30/13 Q1020;
0072832880999992010081716004-13267-043417FM-15+0443SBLP V0201201N003119999999Y0099001N1+03101+01301999999ADDMA1101801999999REMMET045METAR SBLP 171600Z 12006KT CAVOK 31/13 Q1018;
0072832880999992010081717004-13267-043417FM-15+0443SBLP V0202001N002119999999Y0099001N1+03101+01101999999ADDMA1101691999999REMMET045METAR SBLP 171700Z 20004KT CAVOK 31/11 Q1017;
0072832880999992010081718004-13267-043417FM-15+0443SBLP V0201801N004119999999Y0099001N1+03301+01101999999ADDMA1101691999999REMMET045METAR SBLP 171800Z 18008KT CAVOK 33/11 Q1017;
0072832880999992010081719004-13267-043417FM-15+0443SBLP V0201401N004119999999Y0099001N1+03301+01001999999ADDMA1101591999999REMMET045METAR SBLP 171900Z 14008KT CAVOK 33/10 Q1016;
0072832880999992010081720004-13267-043417FM-15+0443SBLP V0201501N003119999999Y0099001N1+03201+01201999999ADDMA1101591999999REMMET045METAR SBLP 172000Z 15006KT CAVOK 32/12 Q1016;
0072832880999992010081721004-13267-043417FM-15+0443SBLP V0201801N004119999999Y0099001N1+03001+01501999999ADDMA1101691999999REMMET045METAR SBLP 172100Z 18008KT CAVOK 30/15 Q1017;
0072832880999992010081810004-13267-043417FM-15+0443SBLP V0209999C000019999999Y0099001N1+01501+01101999999ADDMA1102201999999REMMET045METAR SBLP 181000Z 00000KT CAVOK 15/11 Q1022;
0072832880999992010081811004-13267-043417FM-15+0443SBLP V0209999C000019999999Y0099001N1+02001+01201999999ADDMA1102301999999REMMET045METAR SBLP 181100Z 00000KT CAVOK 20/12 Q1023;
0072832880999992010081812004-13267-043417FM-15+0443SBLP V0201201N003119999999Y0099001N1+02201+01201999999ADDMA1102301999999REMMET045METAR SBLP 181200Z 12006KT CAVOK 22/12 Q1023;
0072832880999992010081813004-13267-043417FM-15+0443SBLP V0201501N003119999999Y0099001N1+02501+00901999999ADDMA1102301999999REMMET045METAR SBLP 181300Z 15006KT CAVOK 25/09 Q1023;
0072832880999992010081815004-13267-043417FM-15+0443SBLP V0201201N004119999999Y0099001N1+02701+00901999999ADDMA1102101999999REMMET045METAR SBLP 181500Z 12008KT CAVOK 27/09 Q1021;
0072832880999992010081816004-13267-043417FM-15+0443SBLP V0201801N006219999999Y0099001N1+02901+00901999999ADDMA1102001999999REMMET045METAR SBLP 181600Z 18012KT CAVOK 29/09 Q1020;
0072832880999992010081817004-13267-043417FM-15+0443SBLP V0201201N005119999999Y0099001N1+02901+00901999999ADDMA1101901999999REMMET045METAR SBLP 181700Z 12010KT CAVOK 29/09 Q1019;
0072832880999992010081818004-13267-043417FM-15+0443SBLP V0200901N005119999999Y0099001N1+02901+00701999999ADDMA1101801999999REMMET045METAR SBLP 181800Z 09010KT CAVOK 29/07 Q1018;
0072832880999992010081819004-13267-043417FM-15+0443SBLP V0200901N003119999999Y0099001N1+02901+00801999999ADDMA1101801999999REMMET045METAR SBLP 181900Z 09006KT CAVOK 29/08 Q1018;
0072832880999992010081911004-13267-043417FM-15+0443SBLP V0201201N005119999999Y0099001N1+02101+01301999999ADDMA1102201999999REMMET045METAR SBLP 191100Z 12010KT CAVOK 21/13 Q1022;
0120832880999992010081912004-13267-043417FM-15+0443SBLP V0201201N006212200019N0112651N1+02301+01101999999ADDGA1041+009001999GF104991999999999999999999MA1102201999999REMMET051METAR SBLP 191200Z 12012KT 9999 SCT030 23/11 Q1022;
0120832880999992010081913004-13267-043417FM-15+0443SBLP V0201201N005110090019N0112651N1+02401+01301999999ADDGA1071+009001999GF107991999999999999999999MA1102201999999REMMET051METAR SBLP 191300Z 12010KT 9999 BKN030 24/13 Q1022;
0120832880999992010081914004-13267-043417FM-15+0443SBLP V0201201N004112200019N0112651N1+02501+01201999999ADDGA1041+009001999GF104991999999999999999999MA1102101999999REMMET051METAR SBLP 191400Z 12008KT 9999 SCT030 25/12 Q1021;
0120832880999992010081915004-13267-043417FM-15+0443SBLP V0201501N005112200019N0112651N1+02701+01101999999ADDGA1021+009001999GF102991999999999999999999MA1102001999999REMMET051METAR SBLP 191500Z 15010KT 9999 FEW030 27/11 Q1020;
0072832880999992010081916004-13267-043417FM-15+0443SBLP V0209999C000019999999Y0099001N1+02801+01101999999ADDMA1101801999999REMMET045METAR SBLP 191600Z 00000KT CAVOK 28/11 Q1018;
0072832880999992010081917004-13267-043417FM-15+0443SBLP V0201201N001519999999Y0099001N1+02901+01201999999ADDMA1101691999999REMMET045METAR SBLP 191700Z 12003KT CAVOK 29/12 Q1017;
0072832880999992010081918004-13267-043417FM-15+0443SBLP V0200901N002119999999Y0099001N1+03001+00901999999ADDMA1101591999999REMMET045METAR SBLP 191800Z 09004KT CAVOK 30/09 Q1016;
0072832880999992010081919004-13267-043417FM-15+0443SBLP V0201101N003119999999Y0099001N1+03001+00801999999ADDMA1101591999999REMMET045METAR SBLP 191900Z 11006KT CAVOK 30/08 Q1016;
0072832880999992010081920004-13267-043417FM-15+0443SBLP V0201201N003119999999Y0099001N1+02901+01001999999ADDMA1101591999999REMMET045METAR SBLP 192000Z 12006KT CAVOK 29/10 Q1016;
0072832880999992010081921004-13267-043417FM-15+0443SBLP V0201201N003119999999Y0099001N1+02701+01001999999ADDMA1101591999999REMMET045METAR SBLP 192100Z 12006KT CAVOK 27/10 Q1016;
0072832880999992010082010004-13267-043417FM-15+0443SBLP V0209999C000019999999Y0099001N1+01601+01301999999ADDMA1102101999999REMMET045METAR SBLP 201000Z 00000KT CAVOK 16/13 Q1021;
0072832880999992010082011004-13267-043417FM-15+0443SBLP V0201501N001519999999Y0099001N1+02001+01301999999ADDMA1102101999999REMMET045METAR SBLP 201100Z 15003KT CAVOK 20/13 Q1021;
0120832880999992010082012004-13267-043417FM-15+0443SBLP V0200401N003112200019N0112651N1+02201+01201999999ADDGA1021+009001999GF102991999999999999999999MA1102201999999REMMET051METAR SBLP 201200Z 04006KT 9999 FEW030 22/12 Q1022;
0120832880999992010082013004-13267-043417FM-15+0443SBLP V0202401N001512200019N0112651N1+02501+01101999999ADDGA1021+009001999GF102991999999999999999999MA1102201999999REMMET051METAR SBLP 201300Z 24003KT 9999 FEW030 25/11 Q1022;
0120832880999992010082014004-13267-043417FM-15+0443SBLP V0201501N001512200019N0112651N1+02601+01101999999ADDGA1021+009001999GF102991999999999999999999MA1102101999999REMMET051METAR SBLP 201400Z 15003KT 9999 FEW030 26/11 Q1021;
0120832880999992010082015004-13267-043417FM-15+0443SBLP V0202201N002612200019N0112651N1+02801+01001999999ADDGA1021+009001999GF102991999999999999999999MA1102001999999REMMET051METAR SBLP 201500Z 22005KT 9999 FEW030 28/10 Q1020;
0072832880999992010082016004-13267-043417FM-15+0443SBLP V0201801N003119999999Y0099001N1+02901+01001999999ADDMA1101801999999REMMET045METAR SBLP 201600Z 18006KT CAVOK 29/10 Q1018;
0072832880999992010082017004-13267-043417FM-15+0443SBLP V0201801N003119999999Y0099001N1+03001+01101999999ADDMA1101691999999REMMET045METAR SBLP 201700Z 18006KT CAVOK 30/11 Q1017;
0072832880999992010082018004-13267-043417FM-15+0443SBLP V0202101N002119999999Y0099001N1+03001+01001999999ADDMA1101591999999REMMET045METAR SBLP 201800Z 21004KT CAVOK 30/10 Q1016;
0072832880999992010082019004-13267-043417FM-15+0443SBLP V0201801N002119999999Y0099001N1+03101+01001999999ADDMA1101491999999REMMET045METAR SBLP 201900Z 18004KT CAVOK 31/10 Q1015;
0072832880999992010082020004-13267-043417FM-15+0443SBLP V0209999C000019999999Y0099001N1+03001+01001999999ADDMA1101591999999REMMET045METAR SBLP 202000Z 00000KT CAVOK 30/10 Q1016;
0072832880999992010082021004-13267-043417FM-15+0443SBLP V0209999C000019999999Y0099001N1+02901+01101999999ADDMA1101591999999REMMET045METAR SBLP 202100Z 00000KT CAVOK 29/11 Q1016;
0072832880999992010082110004-13267-043417FM-15+0443SBLP V0202101N001019999999Y0099001N1+01601+01201999999ADDMA1102001999999REMMET045METAR SBLP 211000Z 21002KT CAVOK 16/12 Q1020;
0072832880999992010082111004-13267-043417FM-15+0443SBLP V0209999C000019999999Y0099001N1+02001+01401999999ADDMA1102101999999REMMET045METAR SBLP 211100Z 00000KT CAVOK 20/14 Q1021;
0072832880999992010082112004-13267-043417FM-15+0443SBLP V0200901N004119999999Y0099001N1+02401+01701999999ADDMA1102201999999REMMET045METAR SBLP 211200Z 09008KT CAVOK 24/17 Q1022;
0120832880999992010082113004-13267-043417FM-15+0443SBLP V0200601N002112200019N0112651N1+02601+01201999999ADDGA1021+009001999GF102991999999999999999999MA1102201999999REMMET051METAR SBLP 211300Z 06004KT 9999 FEW030 26/12 Q1022;
0120832880999992010082114004-13267-043417FM-15+0443SBLP V0200901N003112200019N0112651N1+02801+01201999999ADDGA1021+009001999GF102991999999999999999999MA1102101999999REMMET051METAR SBLP 211400Z 09006KT 9999 FEW030 28/12 Q1021;
0120832880999992010082115004-13267-043417FM-15+0443SBLP V0209999C000012200019N0112651N1+03001+01101999999ADDGA1021+009001999GF102991999999999999999999MA1102001999999REMMET051METAR SBLP 211500Z 00000KT 9999 FEW030 30/11 Q1020;
0120832880999992010082116004-13267-043417FM-15+0443SBLP V0209999C000012200019N0112651N1+03101+01201999999ADDGA1021+009001999GF102991999999999999999999MA1101801999999REMMET051METAR SBLP 211600Z 00000KT 9999 FEW030 31/12 Q1018;
0120832880999992010082117004-13267-043417FM-15+0443SBLP V0200901N003112200019N0112651N1+03101+01101999999ADDGA1021+009001999GF102991999999999999999999MA1101691999999REMMET051METAR SBLP 211700Z 09006KT 9999 FEW030 31/11 Q1017;
0072832880999992010082118004-13267-043417FM-15+0443SBLP V0202101N003119999999Y0099001N1+03201+01101999999ADDMA1101591999999REMMET045METAR SBLP 211800Z 21006KT CAVOK 32/11 Q1016;
0072832880999992010082119004-13267-043417FM-15+0443SBLP V0209999C000019999999Y0099001N1+03201+01101999999ADDMA1101591999999REMMET045METAR SBLP 211900Z 00000KT CAVOK 32/11 Q1016;
0072832880999992010082120004-13267-043417FM-15+0443SBLP V0209999C000019999999Y0099001N1+03101+01201999999ADDMA1101591999999REMMET045METAR SBLP 212000Z 00000KT CAVOK 31/12 Q1016;
0072832880999992010082121004-13267-043417FM-15+0443SBLP V0209999C000019999999Y0099001N1+02901+01201999999ADDMA1101691999999REMMET045METAR SBLP 212100Z 00000KT CAVOK 29/12 Q1017;
0072832880999992010082211004-13267-043417FM-15+0443SBLP V0201301N004119999999Y0099001N1+02301+01501999999ADDMA1102201999999REMMET045METAR SBLP 221100Z 13008KT CAVOK 23/15 Q1022;
0120832880999992010082212004-13267-043417FM-15+0443SBLP V0200901N003112200019N0112651N1+02601+01501999999ADDGA1021+009001999GF102991999999999999999999MA1102201999999REMMET051METAR SBLP 221200Z 09006KT 9999 FEW030 26/15 Q1022;
0120832880999992010082213004-13267-043417FM-15+0443SBLP V0200601N003112200019N0112651N1+02701+01401999999ADDGA1041+009001999GF104991999999999999999999MA1102201999999REMMET051METAR SBLP 221300Z 06006KT 9999 SCT030 27/14 Q1022;
0120832880999992010082214004-13267-043417FM-15+0443SBLP V0201201N002112200019N0112651N1+02801+01201999999ADDGA1041+009001999GF104991999999999999999999MA1102201999999REMMET051METAR SBLP 221400Z 12004KT 9999 SCT030 28/12 Q1022;
0120832880999992010082215004-13267-043417FM-15+0443SBLP V0200601N002112200019N0112651N1+03001+01301999999ADDGA1041+009001999GF104991999999999999999999MA1102101999999REMMET051METAR SBLP 221500Z 06004KT 9999 SCT030 30/13 Q1021;
0120832880999992010082216004-13267-043417FM-15+0443SBLP V0209999C000012200019N0112651N1+03001+01301999999ADDGA1021+009001999GF102991999999999999999999MA1101901999999REMMET051METAR SBLP 221600Z 00000KT 9999 FEW030 30/13 Q1019;
0120832880999992010082217004-13267-043417FM-15+0443SBLP V0209999C000012200019N0112651N1+03201+01101999999ADDGA1021+009001999GF102991999999999999999999MA1101801999999REMMET051METAR SBLP 221700Z 00000KT 9999 FEW030 32/11 Q1018;
0072832880999992010082218004-13267-043417FM-15+0443SBLP V0200901N003119999999Y0099001N1+03201+01201999999ADDMA1101591999999REMMET045METAR SBLP 221800Z 09006KT CAVOK 32/12 Q1016;
0072832880999992010082219004-13267-043417FM-15+0443SBLP V0209999C000019999999Y0099001N1+03301+01101999999ADDMA1101591999999REMMET045METAR SBLP 221900Z 00000KT CAVOK 33/11 Q1016;
0072832880999992010082220004-13267-043417FM-15+0443SBLP V0201201N003119999999Y0099001N1+03201+01201999999ADDMA1101591999999REMMET045METAR SBLP 222000Z 12006KT CAVOK 32/12 Q1016;
0072832880999992010082221004-13267-043417FM-15+0443SBLP V0201501N003119999999Y0099001N1+02901+01301999999ADDMA1101691999999REMMET045METAR SBLP 222100Z 15006KT CAVOK 29/13 Q1017;
0072832880999992010082310004-13267-043417FM-15+0443SBLP V0209999C000019999999Y0099001N1+01901+01201999999ADDMA1102101999999REMMET045METAR SBLP 231000Z 00000KT CAVOK 19/12 Q1021;
0072832880999992010082312004-13267-043417FM-15+0443SBLP V0200601N002119999999Y0099001N1+02401+01201999999ADDMA1102201999999REMMET045METAR SBLP 231200Z 06004KT CAVOK 24/12 Q1022;
0072832880999992010082313004-13267-043417FM-15+0443SBLP V0201501N003119999999Y0099001N1+02701+01601999999ADDMA1102201999999REMMET045METAR SBLP 231300Z 15006KT CAVOK 27/16 Q1022;
0072832880999992010082314004-13267-043417FM-15+0443SBLP V0201601N003119999999Y0099001N1+02901+01401999999ADDMA1102101999999REMMET045METAR SBLP 231400Z 16006KT CAVOK 29/14 Q1021;
0072832880999992010082315004-13267-043417FM-15+0443SBLP V0201601N003119999999Y0099001N1+03001+01301999999ADDMA1101901999999REMMET045METAR SBLP 231500Z 16006KT CAVOK 30/13 Q1019;
0072832880999992010082316004-13267-043417FM-15+0443SBLP V0201801N003119999999Y0099001N1+03101+01301999999ADDMA1101801999999REMMET045METAR SBLP 231600Z 18006KT CAVOK 31/13 Q1018;
0072832880999992010082317004-13267-043417FM-15+0443SBLP V0201801N003119999999Y0099001N1+03201+01301999999ADDMA1101591999999REMMET045METAR SBLP 231700Z 18006KT CAVOK 32/13 Q1016;
0072832880999992010082318004-13267-043417FM-15+0443SBLP V0201801N003119999999Y0099001N1+03301+01301999999ADDMA1101491999999REMMET045METAR SBLP 231800Z 18006KT CAVOK 33/13 Q1015;
0072832880999992010082319004-13267-043417FM-15+0443SBLP V0201801N003119999999Y0099001N1+03201+01301999999ADDMA1101491999999REMMET045METAR SBLP 231900Z 18006KT CAVOK 32/13 Q1015;
0072832880999992010082320004-13267-043417FM-15+0443SBLP V0200901N003119999999Y0099001N1+03101+01401999999ADDMA1101491999999REMMET045METAR SBLP 232000Z 09006KT CAVOK 31/14 Q1015;
0072832880999992010082321004-13267-043417FM-15+0443SBLP V0200901N003119999999Y0099001N1+03001+01401999999ADDMA1101491999999REMMET045METAR SBLP 232100Z 09006KT CAVOK 30/14 Q1015;
0072832880999992010082410004-13267-043417FM-15+0443SBLP V0209999C000019999999Y0099001N1+02001+01601999999ADDMA1101901999999REMMET045METAR SBLP 241000Z 00000KT CAVOK 20/16 Q1019;
0072832880999992010082411004-13267-043417FM-15+0443SBLP V0209999C000019999999Y0099001N1+02201+01501999999ADDMA1102001999999REMMET045METAR SBLP 241100Z 00000KT CAVOK 22/15 Q1020;
0072832880999992010082412004-13267-043417FM-15+0443SBLP V0200901N003119999999Y0099001N1+02501+01401999999ADDMA1102101999999REMMET045METAR SBLP 241200Z 09006KT CAVOK 25/14 Q1021;
0072832880999992010082413004-13267-043417FM-15+0443SBLP V0200901N003119999999Y0099001N1+02701+01401999999ADDMA1102101999999REMMET045METAR SBLP 241300Z 09006KT CAVOK 27/14 Q1021;
0072832880999992010082414004-13267-043417FM-15+0443SBLP V0200901N003119999999Y0099001N1+02801+01301999999ADDMA1102001999999REMMET045METAR SBLP 241400Z 09006KT CAVOK 28/13 Q1020;
0072832880999992010082415004-13267-043417FM-15+0443SBLP V0200901N003119999999Y0099001N1+02901+01301999999ADDMA1101901999999REMMET045METAR SBLP 241500Z 09006KT CAVOK 29/13 Q1019;
0072832880999992010082416004-13267-043417FM-15+0443SBLP V0201801N001519999999Y0099001N1+03001+00901999999ADDMA1101691999999REMMET045METAR SBLP 241600Z 18003KT CAVOK 30/09 Q1017;
0072832880999992010082417004-13267-043417FM-15+0443SBLP V0200901N001519999999Y0099001N1+03201+00901999999ADDMA1101491999999REMMET045METAR SBLP 241700Z 09003KT CAVOK 32/09 Q1015;
0072832880999992010082418004-13267-043417FM-15+0443SBLP V0209999C000019999999Y0099001N1+03301+00901999999ADDMA1101491999999REMMET045METAR SBLP 241800Z 00000KT CAVOK 33/09 Q1015;
0072832880999992010082419004-13267-043417FM-15+0443SBLP V0200301N003119999999Y0099001N1+03301+00901999999ADDMA1101391999999REMMET045METAR SBLP 241900Z 03006KT CAVOK 33/09 Q1014;
0072832880999992010082420004-13267-043417FM-15+0443SBLP V0201201N003119999999Y0099001N1+03301+01001999999ADDMA1101391999999REMMET045METAR SBLP 242000Z 12006KT CAVOK 33/10 Q1014;
0072832880999992010082421004-13267-043417FM-15+0443SBLP V0200901N001519999999Y0099001N1+03001+00901999999ADDMA1101491999999REMMET045METAR SBLP 242100Z 09003KT CAVOK 30/09 Q1015;
0072832880999992010082510004-13267-043417FM-15+0443SBLP V0209999C000019999999Y0099001N1+02001+01501999999ADDMA1101801999999REMMET045METAR SBLP 251000Z 00000KT CAVOK 20/15 Q1018;
0072832880999992010082511004-13267-043417FM-15+0443SBLP V0209999C000019999999Y0099001N1+02201+01401999999ADDMA1101901999999REMMET045METAR SBLP 251100Z 00000KT CAVOK 22/14 Q1019;
0072832880999992010082512004-13267-043417FM-15+0443SBLP V0200901N003119999999Y0099001N1+02501+01301999999ADDMA1102001999999REMMET045METAR SBLP 251200Z 09006KT CAVOK 25/13 Q1020;
0072832880999992010082513004-13267-043417FM-15+0443SBLP V0200901N003119999999Y0099001N1+02801+01301999999ADDMA1102001999999REMMET045METAR SBLP 251300Z 09006KT CAVOK 28/13 Q1020;
0072832880999992010082514004-13267-043417FM-15+0443SBLP V0200901N003119999999Y0099001N1+02901+01301999999ADDMA1101901999999REMMET045METAR SBLP 251400Z 09006KT CAVOK 29/13 Q1019;
0072832880999992010082515004-13267-043417FM-15+0443SBLP V0200901N003119999999Y0099001N1+03101+01201999999ADDMA1101801999999REMMET045METAR SBLP 251500Z 09006KT CAVOK 31/12 Q1018;
0072832880999992010082516004-13267-043417FM-15+0443SBLP V0209999C000019999999Y0099001N1+03201+01001999999ADDMA1101691999999REMMET045METAR SBLP 251600Z 00000KT CAVOK 32/10 Q1017;
0072832880999992010082517004-13267-043417FM-15+0443SBLP V0201801N003119999999Y0099001N1+03301+01001999999ADDMA1101491999999REMMET045METAR SBLP 251700Z 18006KT CAVOK 33/10 Q1015;
0072832880999992010082518004-13267-043417FM-15+0443SBLP V0202501N001519999999Y0099001N1+03301+01001999999ADDMA1101491999999REMMET045METAR SBLP 251800Z 25003KT CAVOK 33/10 Q1015;
0072832880999992010082519004-13267-043417FM-15+0443SBLP V0202201N002119999999Y0099001N1+03401+00901999999ADDMA1101391999999REMMET045METAR SBLP 251900Z 22004KT CAVOK 34/09 Q1014;
0072832880999992010082520004-13267-043417FM-15+0443SBLP V0202201N002619999999Y0099001N1+03301+00901999999ADDMA1101391999999REMMET045METAR SBLP 252000Z 22005KT CAVOK 33/09 Q1014;
0072832880999992010082521004-13267-043417FM-15+0443SBLP V0209999C000019999999Y0099001N1+03001+01301999999ADDMA1101491999999REMMET045METAR SBLP 252100Z 00000KT CAVOK 30/13 Q1015;
0072832880999992010082610004-13267-043417FM-15+0443SBLP V0209999C000019999999Y0099001N1+01901+01601999999ADDMA1101801999999REMMET045METAR SBLP 261000Z 00000KT CAVOK 19/16 Q1018;
0072832880999992010082611004-13267-043417FM-15+0443SBLP V0201201N002619999999Y0099001N1+02401+01501999999ADDMA1101901999999REMMET045METAR SBLP 261100Z 12005KT CAVOK 24/15 Q1019;
0072832880999992010082612004-13267-043417FM-15+0443SBLP V0201101N002619999999Y0099001N1+02601+01501999999ADDMA1101901999999REMMET045METAR SBLP 261200Z 11005KT CAVOK 26/15 Q1019;
0072832880999992010082613004-13267-043417FM-15+0443SBLP V0201801N002619999999Y0099001N1+02901+01501999999ADDMA1101901999999REMMET045METAR SBLP 261300Z 18005KT CAVOK 29/15 Q1019;
0072832880999992010082614004-13267-043417FM-15+0443SBLP V0201201N003119999999Y0099001N1+03101+01401999999ADDMA1101801999999REMMET045METAR SBLP 261400Z 12006KT CAVOK 31/14 Q1018;
0072832880999992010082615004-13267-043417FM-15+0443SBLP V0201801N001519999999Y0099001N1+03201+01301999999ADDMA1101691999999REMMET045METAR SBLP 261500Z 18003KT CAVOK 32/13 Q1017;
0072832880999992010082616004-13267-043417FM-15+0443SBLP V0201801N003119999999Y0099001N1+03301+01301999999ADDMA1101591999999REMMET045METAR SBLP 261600Z 18006KT CAVOK 33/13 Q1016;
0072832880999992010082617004-13267-043417FM-15+0443SBLP V0201801N003119999999Y0099001N1+03301+01301999999ADDMA1101491999999REMMET045METAR SBLP 261700Z 18006KT CAVOK 33/13 Q1015;
0072832880999992010082618004-13267-043417FM-15+0443SBLP V0201801N003119999999Y0099001N1+03501+01301999999ADDMA1101391999999REMMET045METAR SBLP 261800Z 18006KT CAVOK 35/13 Q1014;
0072832880999992010082619004-13267-043417FM-15+0443SBLP V0201801N003119999999Y0099001N1+03501+01301999999ADDMA1101291999999REMMET045METAR SBLP 261900Z 18006KT CAVOK 35/13 Q1013;
0072832880999992010082620004-13267-043417FM-15+0443SBLP V0201801N003119999999Y0099001N1+03401+01301999999ADDMA1101291999999REMMET045METAR SBLP 262000Z 18006KT CAVOK 34/13 Q1013;
0072832880999992010082621004-13267-043417FM-15+0443SBLP V0201801N003119999999Y0099001N1+03301+01401999999ADDMA1101391999999REMMET045METAR SBLP 262100Z 18006KT CAVOK 33/14 Q1014;
0072832880999992010082710004-13267-043417FM-15+0443SBLP V0209999C000019999999Y0099001N1+01901+01301999999ADDMA1101591999999REMMET045METAR SBLP 271000Z 00000KT CAVOK 19/13 Q1016;
0072832880999992010082711004-13267-043417FM-15+0443SBLP V0201201N002119999999Y0099001N1+02501+01401999999ADDMA1101691999999REMMET045METAR SBLP 271100Z 12004KT CAVOK 25/14 Q1017;
0072832880999992010082712004-13267-043417FM-15+0443SBLP V0201201N001519999999Y0099001N1+02801+01401999999ADDMA1101801999999REMMET045METAR SBLP 271200Z 12003KT CAVOK 28/14 Q1018;
0072832880999992010082713004-13267-043417FM-15+0443SBLP V0200901N003119999999Y0099001N1+03001+01401999999ADDMA1101801999999REMMET045METAR SBLP 271300Z 09006KT CAVOK 30/14 Q1018;
0072832880999992010082714004-13267-043417FM-15+0443SBLP V0201601N003119999999Y0099001N1+03301+01301999999ADDMA1101691999999REMMET045METAR SBLP 271400Z 16006KT CAVOK 33/13 Q1017;
0120832880999992010082715004-13267-043417FM-15+0443SBLP V0200601N002112200019N0112651N1+03401+01201999999ADDGA1021+009001999GF102991999999999999999999MA1101591999999REMMET051METAR SBLP 271500Z 06004KT 9999 FEW030 34/12 Q1016;
0120832880999992010082716004-13267-043417FM-15+0443SBLP V0201501N005112200019N0112651N1+03501+01101999999ADDGA1021+009001999GF102991999999999999999999MA1101491999999REMMET051METAR SBLP 271600Z 15010KT 9999 FEW030 35/11 Q1015;
0120832880999992010082717004-13267-043417FM-15+0443SBLP V0201801N005112200019N0112651N1+03601+01101999999ADDGA1021+009001999GF102991999999999999999999MA1101291999999REMMET051METAR SBLP 271700Z 18010KT 9999 FEW030 36/11 Q1013;
0120832880999992010082718004-13267-043417FM-15+0443SBLP V0202101N004112200019N0112651N1+03601+01001999999ADDGA1021+009001999GF102991999999999999999999MA1101191999999REMMET051METAR SBLP 271800Z 21008KT 9999 FEW030 36/10 Q1012;
0072832880999992010082719004-13267-043417FM-15+0443SBLP V0201801N004119999999Y0099001N1+03501+01101999999ADDMA1101191999999REMMET045METAR SBLP 271900Z 18008KT CAVOK 35/11 Q1012;
0072832880999992010082720004-13267-043417FM-15+0443SBLP V0201801N004119999999Y0099001N1+03501+01201999999ADDMA1101191999999REMMET045METAR SBLP 272000Z 18008KT CAVOK 35/12 Q1012;
0072832880999992010082721004-13267-043417FM-15+0443SBLP V0202101N003119999999Y0099001N1+03201+01201999999ADDMA1101291999999REMMET045METAR SBLP 272100Z 21006KT CAVOK 32/12 Q1013;
0072832880999992010082810004-13267-043417FM-15+0443SBLP V0202101N002619999999Y0099001N1+02001+01401999999ADDMA1101591999999REMMET045METAR SBLP 281000Z 21005KT CAVOK 20/14 Q1016;
0072832880999992010082811004-13267-043417FM-15+0443SBLP V0202201N002119999999Y0099001N1+02401+01601999999ADDMA1101691999999REMMET045METAR SBLP 281100Z 22004KT CAVOK 24/16 Q1017;
0072832880999992010082812004-13267-043417FM-15+0443SBLP V0202601N002119999999Y0099001N1+02701+01601999999ADDMA1101691999999REMMET045METAR SBLP 281200Z 26004KT CAVOK 27/16 Q1017;
0072832880999992010082813004-13267-043417FM-15+0443SBLP V0203001N002119999999Y0099001N1+02901+01501999999ADDMA1101691999999REMMET045METAR SBLP 281300Z 30004KT CAVOK 29/15 Q1017;
0072832880999992010082814004-13267-043417FM-15+0443SBLP V0202101N003119999999Y0099001N1+03101+01401999999ADDMA1101591999999REMMET045METAR SBLP 281400Z 21006KT CAVOK 31/14 Q1016;
0072832880999992010082816004-13267-043417FM-15+0443SBLP V0202101N003119999999Y0099001N1+03501+01401999999ADDMA1101391999999REMMET045METAR SBLP 281600Z 21006KT CAVOK 35/14 Q1014;
0072832880999992010082817004-13267-043417FM-15+0443SBLP V0201801N003119999999Y0099001N1+03601+01301999999ADDMA1101191999999REMMET045METAR SBLP 281700Z 18006KT CAVOK 36/13 Q1012;
0072832880999992010082818004-13267-043417FM-15+0443SBLP V0201501N003119999999Y0099001N1+03601+01301999999ADDMA1101081999999REMMET045METAR SBLP 281800Z 15006KT CAVOK 36/13 Q1011;
0072832880999992010082819004-13267-043417FM-15+0443SBLP V0201501N003119999999Y0099001N1+03601+01301999999ADDMA1101081999999REMMET045METAR SBLP 281900Z 15006KT CAVOK 36/13 Q1011;
0072832880999992010082820004-13267-043417FM-15+0443SBLP V0201801N003119999999Y0099001N1+03601+01301999999ADDMA1101081999999REMMET045METAR SBLP 282000Z 18006KT CAVOK 36/13 Q1011;
0072832880999992010082821004-13267-043417FM-15+0443SBLP V0201201N003119999999Y0099001N1+03401+01401999999ADDMA1101191999999REMMET045METAR SBLP 282100Z 12006KT CAVOK 34/14 Q1012;
0072832880999992010082910004-13267-043417FM-15+0443SBLP V0201801N002119999999Y0099001N1+02001+01401999999ADDMA1101591999999REMMET045METAR SBLP 291000Z 18004KT CAVOK 20/14 Q1016;
0072832880999992010082911004-13267-043417FM-15+0443SBLP V0201801N002119999999Y0099001N1+02401+01501999999ADDMA1101691999999REMMET045METAR SBLP 291100Z 18004KT CAVOK 24/15 Q1017;
0072832880999992010082912004-13267-043417FM-15+0443SBLP V0200901N002119999999Y0099001N1+02601+01501999999ADDMA1101801999999REMMET045METAR SBLP 291200Z 09004KT CAVOK 26/15 Q1018;
0072832880999992010082913004-13267-043417FM-15+0443SBLP V0200901N002619999999Y0099001N1+02901+01701999999ADDMA1101801999999REMMET045METAR SBLP 291300Z 09005KT CAVOK 29/17 Q1018;
0072832880999992010082914004-13267-043417FM-15+0443SBLP V0201501N003119999999Y0099001N1+03201+01301999999ADDMA1101691999999REMMET045METAR SBLP 291400Z 15006KT CAVOK 32/13 Q1017;
0072832880999992010082915004-13267-043417FM-15+0443SBLP V0201501N003119999999Y0099001N1+03301+01401999999ADDMA1101591999999REMMET045METAR SBLP 291500Z 15006KT CAVOK 33/14 Q1016;
0072832880999992010082916004-13267-043417FM-15+0443SBLP V0201801N003119999999Y0099001N1+03501+01301999999ADDMA1101491999999REMMET045METAR SBLP 291600Z 18006KT CAVOK 35/13 Q1015;
0072832880999992010082917004-13267-043417FM-15+0443SBLP V0201801N003119999999Y0099001N1+03501+01301999999ADDMA1101291999999REMMET045METAR SBLP 291700Z 18006KT CAVOK 35/13 Q1013;
0072832880999992010082918004-13267-043417FM-15+0443SBLP V0201801N003119999999Y0099001N1+03701+01201999999ADDMA1101291999999REMMET045METAR SBLP 291800Z 18006KT CAVOK 37/12 Q1013;
0072832880999992010082919004-13267-043417FM-15+0443SBLP V0201801N003119999999Y0099001N1+03601+01201999999ADDMA1101291999999REMMET045METAR SBLP 291900Z 18006KT CAVOK 36/12 Q1013;
0072832880999992010082920004-13267-043417FM-15+0443SBLP V0201801N003119999999Y0099001N1+03501+01201999999ADDMA1101291999999REMMET045METAR SBLP 292000Z 18006KT CAVOK 35/12 Q1013;
0072832880999992010082921004-13267-043417FM-15+0443SBLP V0201801N003119999999Y0099001N1+03301+01301999999ADDMA1101391999999REMMET045METAR SBLP 292100Z 18006KT CAVOK 33/13 Q1014;
0072832880999992010083010004-13267-043417FM-15+0443SBLP V0209999C000019999999Y0099001N1+02101+01601999999ADDMA1101691999999REMMET045METAR SBLP 301000Z 00000KT CAVOK 21/16 Q1017;
0072832880999992010083011004-13267-043417FM-15+0443SBLP V0209999C000019999999Y0099001N1+02401+01501999999ADDMA1101801999999REMMET045METAR SBLP 301100Z 00000KT CAVOK 24/15 Q1018;
0072832880999992010083012004-13267-043417FM-15+0443SBLP V0200901N003119999999Y0099001N1+02701+01401999999ADDMA1101901999999REMMET045METAR SBLP 301200Z 09006KT CAVOK 27/14 Q1019;
0072832880999992010083013004-13267-043417FM-15+0443SBLP V0200901N003119999999Y0099001N1+02901+01301999999ADDMA1101901999999REMMET045METAR SBLP 301300Z 09006KT CAVOK 29/13 Q1019;
0072832880999992010083014004-13267-043417FM-15+0443SBLP V0200901N003119999999Y0099001N1+03101+01201999999ADDMA1101801999999REMMET045METAR SBLP 301400Z 09006KT CAVOK 31/12 Q1018;
0072832880999992010083015004-13267-043417FM-15+0443SBLP V0201801N003119999999Y0099001N1+03201+01101999999ADDMA1101691999999REMMET045METAR SBLP 301500Z 18006KT CAVOK 32/11 Q1017;
0072832880999992010083016004-13267-043417FM-15+0443SBLP V0201301N004119999999Y0099001N1+03401+00601999999ADDMA1101491999999REMMET045METAR SBLP 301600Z 13008KT CAVOK 34/06 Q1015;
0072832880999992010083017004-13267-043417FM-15+0443SBLP V0200701N004119999999Y0099001N1+03401+00901999999ADDMA1101391999999REMMET045METAR SBLP 301700Z 07008KT CAVOK 34/09 Q1014;
0072832880999992010083018004-13267-043417FM-15+0443SBLP V0200901N003119999999Y0099001N1+03501+00801999999ADDMA1101291999999REMMET045METAR SBLP 301800Z 09006KT CAVOK 35/08 Q1013;
0072832880999992010083019004-13267-043417FM-15+0443SBLP V0200901N003119999999Y0099001N1+03501+00901999999ADDMA1101291999999REMMET045METAR SBLP 301900Z 09006KT CAVOK 35/09 Q1013;
0072832880999992010083020004-13267-043417FM-15+0443SBLP V0200601N004119999999Y0099001N1+03401+00901999999ADDMA1101291999999REMMET045METAR SBLP 302000Z 06008KT CAVOK 34/09 Q1013;
0072832880999992010083021004-13267-043417FM-15+0443SBLP V0200601N001519999999Y0099001N1+03201+00801999999ADDMA1101291999999REMMET045METAR SBLP 302100Z 06003KT CAVOK 32/08 Q1013;
0072832880999992010083110004-13267-043417FM-15+0443SBLP V0201401N001519999999Y0099001N1+02001+01501999999ADDMA1101901999999REMMET045METAR SBLP 311000Z 14003KT CAVOK 20/15 Q1019;
0072832880999992010083111004-13267-043417FM-15+0443SBLP V0201101N003119999999Y0099001N1+02501+01501999999ADDMA1101901999999REMMET045METAR SBLP 311100Z 11006KT CAVOK 25/15 Q1019;
0072832880999992010083112004-13267-043417FM-15+0443SBLP V0200901N003119999999Y0099001N1+02701+01401999999ADDMA1102001999999REMMET045METAR SBLP 311200Z 09006KT CAVOK 27/14 Q1020;
0120832880999992010083113004-13267-043417FM-15+0443SBLP V0201201N003112200019N0112651N1+02801+01401999999ADDGA1021+009001999GF102991999999999999999999MA1102001999999REMMET051METAR SBLP 311300Z 12006KT 9999 FEW030 28/14 Q1020;
0120832880999992010083114004-13267-043417FM-15+0443SBLP V0200301N003112200019N0112651N1+03001+01401999999ADDGA1021+009001999GF102991999999999999999999MA1101901999999REMMET051METAR SBLP 311400Z 03006KT 9999 FEW030 30/14 Q1019;
0120832880999992010083115004-13267-043417FM-15+0443SBLP V0200601N002612200019N0112651N1+03201+01401999999ADDGA1021+009001999GF102991999999999999999999MA1101801999999REMMET051METAR SBLP 311500Z 06005KT 9999 FEW030 32/14 Q1018;
0120832880999992010083116004-13267-043417FM-15+0443SBLP V0201201N003112200019N0112651N1+03201+01301999999ADDGA1041+009001999GF104991999999999999999999MA1101591999999REMMET051METAR SBLP 311600Z 12006KT 9999 SCT030 32/13 Q1016;
0120832880999992010083117004-13267-043417FM-15+0443SBLP V0203601N003112200019N0112651N1+03301+01301999999ADDGA1041+009001999GF104991999999999999999999MA1101491999999REMMET051METAR SBLP 311700Z 36006KT 9999 SCT030 33/13 Q1015;
0120832880999992010083118004-13267-043417FM-15+0443SBLP V0201201N003112200019N0112651N1+03301+01301999999ADDGA1041+009001999GF104991999999999999999999MA1101391999999REMMET051METAR SBLP 311800Z 12006KT 9999 SCT030 33/13 Q1014;
0120832880999992010083119004-13267-043417FM-15+0443SBLP V0209999C000012200019N0112651N1+03201+01301999999ADDGA1041+009001999GF104991999999999999999999MA1101391999999REMMET051METAR SBLP 311900Z 00000KT 9999 SCT030 32/13 Q1014;
0120832880999992010083120004-13267-043417FM-15+0443SBLP V0200901N003112200019N0112651N1+03101+01501999999ADDGA1041+009001999GF104991999999999999999999MA1101491999999REMMET051METAR SBLP 312000Z 09006KT 9999 SCT030 31/15 Q1015;
0120832880999992010083121004-13267-043417FM-15+0443SBLP V0200901N003112200019N0112651N1+03101+01501999999ADDGA1021+009001999GF102991999999999999999999MA1101491999999REMMET051METAR SBLP 312100Z 09006KT 9999 FEW030 31/15 Q1015;
0072832880999992010090110004-13267-043417FM-15+0443SBLP V0209999C000019999999Y0099001N1+01901+01301999999ADDMA1102001999999REMMET045METAR SBLP 011000Z 00000KT CAVOK 19/13 Q1020;
0120832880999992010090111004-13267-043417FM-15+0443SBLP V0201201N004112200019N0112651N1+02401+01301999999ADDGA1021+009001999GF102991999999999999999999MA1102101999999REMMET051METAR SBLP 011100Z 12008KT 9999 FEW030 24/13 Q1021;
0120832880999992010090112004-13267-043417FM-15+0443SBLP V0201201N005112200019N0112651N1+02601+01601999999ADDGA1021+009001999GF102991999999999999999999MA1102101999999REMMET051METAR SBLP 011200Z 12010KT 9999 FEW030 26/16 Q1021;
0120832880999992010090113004-13267-043417FM-15+0443SBLP V0201201N003112200019N0112651N1+02701+01601999999ADDGA1021+009001999GF102991999999999999999999MA1102101999999REMMET051METAR SBLP 011300Z 12006KT 9999 FEW030 27/16 Q1021;
0120832880999992010090114004-13267-043417FM-15+0443SBLP V0201201N003112200019N0112651N1+02901+01501999999ADDGA1021+009001999GF102991999999999999999999MA1102001999999REMMET051METAR SBLP 011400Z 12006KT 9999 FEW030 29/15 Q1020;
0072832880999992010090115004-13267-043417FM-15+0443SBLP V0200901N004119999999Y0099001N1+03101+01401999999ADDMA1101901999999REMMET045METAR SBLP 011500Z 09008KT CAVOK 31/14 Q1019;
0072832880999992010090116004-13267-043417FM-15+0443SBLP V0200901N006219999999Y0099001N1+03301+01301999999ADDMA1101801999999REMMET045METAR SBLP 011600Z 09012KT CAVOK 33/13 Q1018;
0072832880999992010090117004-13267-043417FM-15+0443SBLP V0201801N005119999999Y0099001N1+03301+00901999999ADDMA1101591999999REMMET045METAR SBLP 011700Z 18010KT CAVOK 33/09 Q1016;
0072832880999992010090118004-13267-043417FM-15+0443SBLP V0200901N004119999999Y0099001N1+03301+01001999999ADDMA1101591999999REMMET045METAR SBLP 011800Z 09008KT CAVOK 33/10 Q1016;
0072832880999992010090119004-13267-043417FM-15+0443SBLP V0201201N005119999999Y0099001N1+03301+01001999999ADDMA1101491999999REMMET045METAR SBLP 011900Z 12010KT CAVOK 33/10 Q1015;
0072832880999992010090120004-13267-043417FM-15+0443SBLP V0201501N005119999999Y0099001N1+03301+01101999999ADDMA1101591999999REMMET045METAR SBLP 012000Z 15010KT CAVOK 33/11 Q1016;
0072832880999992010090121004-13267-043417FM-15+0443SBLP V0201201N005119999999Y0099001N1+03101+01001999999ADDMA1101591999999REMMET045METAR SBLP 012100Z 12010KT CAVOK 31/10 Q1016;
0072832880999992010090210004-13267-043417FM-15+0443SBLP V0201601N003119999999Y0099001N1+02001+01501999999ADDMA1102101999999REMMET045METAR SBLP 021000Z 16006KT CAVOK 20/15 Q1021;
0072832880999992010090211004-13267-043417FM-15+0443SBLP V0201201N003119999999Y0099001N1+02301+01701999999ADDMA1102201999999REMMET045METAR SBLP 021100Z 12006KT CAVOK 23/17 Q1022;
0072832880999992010090212004-13267-043417FM-15+0443SBLP V0201201N004119999999Y0099001N1+02601+01601999999ADDMA1102301999999REMMET045METAR SBLP 021200Z 12008KT CAVOK 26/16 Q1023;
0120832880999992010090213004-13267-043417FM-15+0443SBLP V0200901N003112200019N0112651N1+02801+01601999999ADDGA1021+009001999GF102991999999999999999999MA1102201999999REMMET051METAR SBLP 021300Z 09006KT 9999 FEW030 28/16 Q1022;
0120832880999992010090214004-13267-043417FM-15+0443SBLP V0201201N003112200019N0112651N1+03001+01501999999ADDGA1021+009001999GF102991999999999999999999MA1102101999999REMMET051METAR SBLP 021400Z 12006KT 9999 FEW030 30/15 Q1021;
0072832880999992010090215004-13267-043417FM-15+0443SBLP V0201201N004119999999Y0099001N1+03101+01401999999ADDMA1102001999999REMMET045METAR SBLP 021500Z 12008KT CAVOK 31/14 Q1020;
0072832880999992010090216004-13267-043417FM-15+0443SBLP V0201201N005119999999Y0099001N1+03201+01101999999ADDMA1101901999999REMMET045METAR SBLP 021600Z 12010KT CAVOK 32/11 Q1019;
0072832880999992010090217004-13267-043417FM-15+0443SBLP V0201201N004119999999Y0099001N1+03401+01001999999ADDMA1101691999999REMMET045METAR SBLP 021700Z 12008KT CAVOK 34/10 Q1017;
0072832880999992010090218004-13267-043417FM-15+0443SBLP V0201201N004119999999Y0099001N1+03401+01001999999ADDMA1101591999999REMMET045METAR SBLP 021800Z 12008KT CAVOK 34/10 Q1016;
0072832880999992010090219004-13267-043417FM-15+0443SBLP V0201801N004119999999Y0099001N1+03401+00901999999ADDMA1101591999999REMMET045METAR SBLP 021900Z 18008KT CAVOK 34/09 Q1016;
0072832880999992010090220004-13267-043417FM-15+0443SBLP V0201201N004119999999Y0099001N1+03301+01001999999ADDMA1101591999999REMMET045METAR SBLP 022000Z 12008KT CAVOK 33/10 Q1016;
0072832880999992010090221004-13267-043417FM-15+0443SBLP V0201201N004119999999Y0099001N1+03101+01101999999ADDMA1101691999999REMMET045METAR SBLP 022100Z 12008KT CAVOK 31/11 Q1017;
0072832880999992010090310004-13267-043417FM-15+0443SBLP V0209999C000019999999Y0099001N1+02001+01301999999ADDMA1102001999999REMMET045METAR SBLP 031000Z 00000KT CAVOK 20/13 Q1020;
0072832880999992010090311004-13267-043417FM-15+0443SBLP V0200601N002119999999Y0099001N1+02401+01301999999ADDMA1102101999999REMMET045METAR SBLP 031100Z 06004KT CAVOK 24/13 Q1021;
0072832880999992010090312004-13267-043417FM-15+0443SBLP V0200601N004119999999Y0099001N1+02601+01301999999ADDMA1102201999999REMMET045METAR SBLP 031200Z 06008KT CAVOK 26/13 Q1022;
0072832880999992010090313004-13267-043417FM-15+0443SBLP V0200501N002119999999Y0099001N1+02801+01201999999ADDMA1102101999999REMMET045METAR SBLP 031300Z 05004KT CAVOK 28/12 Q1021;
0053832880999992010090314004-13267-043417FM-15+0443SBLP V0202101N002119999999Y0099001N1+02901+01101999999REMMET044METAR SBLP 031400Z 21004KT CAVOK 29/11 Q102;
0072832880999992010090315004-13267-043417FM-15+0443SBLP V0203301N002119999999Y0099001N1+03001+01001999999ADDMA1101901999999REMMET045METAR SBLP 031500Z 33004KT CAVOK 30/10 Q1019;
0072832880999992010090316004-13267-043417FM-15+0443SBLP V0201801N003119999999Y0099001N1+03101+01001999999ADDMA1101691999999REMMET045METAR SBLP 031600Z 18006KT CAVOK 31/10 Q1017;
0072832880999992010090317004-13267-043417FM-15+0443SBLP V0201801N003119999999Y0099001N1+03201+01001999999ADDMA1101591999999REMMET045METAR SBLP 031700Z 18006KT CAVOK 32/10 Q1016;
0072832880999992010090318004-13267-043417FM-15+0443SBLP V0201801N003119999999Y0099001N1+03401+00901999999ADDMA1101491999999REMMET045METAR SBLP 031800Z 18006KT CAVOK 34/09 Q1015;
0072832880999992010090319004-13267-043417FM-15+0443SBLP V0201801N003119999999Y0099001N1+03401+01001999999ADDMA1101491999999REMMET045METAR SBLP 031900Z 18006KT CAVOK 34/10 Q1015;
0072832880999992010090320004-13267-043417FM-15+0443SBLP V0201801N003119999999Y0099001N1+03201+01101999999ADDMA1101491999999REMMET045METAR SBLP 032000Z 18006KT CAVOK 32/11 Q1015;
0072832880999992010090321004-13267-043417FM-15+0443SBLP V0201801N002119999999Y0099001N1+03001+01101999999ADDMA1101491999999REMMET045METAR SBLP 032100Z 18004KT CAVOK 30/11 Q1015;
0072832880999992010090410004-13267-043417FM-15+0443SBLP V0209999C000019999999Y0099001N1+02201+01501999999ADDMA1101901999999REMMET045METAR SBLP 041000Z 00000KT CAVOK 22/15 Q1019;
0072832880999992010090411004-13267-043417FM-15+0443SBLP V0209999C000019999999Y0099001N1+02501+01401999999ADDMA1102001999999REMMET045METAR SBLP 041100Z 00000KT CAVOK 25/14 Q1020;
0072832880999992010090412004-13267-043417FM-15+0443SBLP V0200901N003119999999Y0099001N1+02701+01401999999ADDMA1102001999999REMMET045METAR SBLP 041200Z 09006KT CAVOK 27/14 Q1020;
0120832880999992010090413004-13267-043417FM-15+0443SBLP V0200901N003112200019N0112651N1+02901+01301999999ADDGA1021+009001999GF102991999999999999999999MA1102001999999REMMET051METAR SBLP 041300Z 09006KT 9999 FEW030 29/13 Q1020;
0120832880999992010090414004-13267-043417FM-15+0443SBLP V0200901N003112200019N0112651N1+02901+01201999999ADDGA1021+009001999GF102991999999999999999999MA1102001999999REMMET051METAR SBLP 041400Z 09006KT 9999 FEW030 29/12 Q1020;
0120832880999992010090415004-13267-043417FM-15+0443SBLP V0201801N003112200019N0112651N1+03101+01101999999ADDGA1021+009001999GF102991999999999999999999MA1101801999999REMMET051METAR SBLP 041500Z 18006KT 9999 FEW030 31/11 Q1018;
0072832880999992010090416004-13267-043417FM-15+0443SBLP V0201801N001519999999Y0099001N1+03101+01001999999ADDMA1101691999999REMMET045METAR SBLP 041600Z 18003KT CAVOK 31/10 Q1017;
0072832880999992010090417004-13267-043417FM-15+0443SBLP V0203601N001519999999Y0099001N1+03201+01001999999ADDMA1101491999999REMMET045METAR SBLP 041700Z 36003KT CAVOK 32/10 Q1015;
0072832880999992010090418004-13267-043417FM-15+0443SBLP V0203301N001519999999Y0099001N1+03301+00901999999ADDMA1101491999999REMMET045METAR SBLP 041800Z 33003KT CAVOK 33/09 Q1015;
0072832880999992010090419004-13267-043417FM-15+0443SBLP V0200301N002119999999Y0099001N1+03301+00901999999ADDMA1101391999999REMMET045METAR SBLP 041900Z 03004KT CAVOK 33/09 Q1014;
0072832880999992010090420004-13267-043417FM-15+0443SBLP V0209999C000019999999Y0099001N1+03301+00901999999ADDMA1101391999999REMMET045METAR SBLP 042000Z 00000KT CAVOK 33/09 Q1014;
0072832880999992010090421004-13267-043417FM-15+0443SBLP V0209999C000019999999Y0099001N1+03101+00801999999ADDMA1101391999999REMMET045METAR SBLP 042100Z 00000KT CAVOK 31/08 Q1014;
0072832880999992010090510004-13267-043417FM-15+0443SBLP V0209999C000019999999Y0099001N1+02201+01501999999ADDMA1101801999999REMMET045METAR SBLP 051000Z 00000KT CAVOK 22/15 Q1018;
0072832880999992010090511004-13267-043417FM-15+0443SBLP V0209999C000019999999Y0099001N1+02401+01401999999ADDMA1101901999999REMMET045METAR SBLP 051100Z 00000KT CAVOK 24/14 Q1019;
0072832880999992010090512004-13267-043417FM-15+0443SBLP V0209999C000019999999Y0099001N1+02601+01201999999ADDMA1101901999999REMMET045METAR SBLP 051200Z 00000KT CAVOK 26/12 Q1019;
0072832880999992010090513004-13267-043417FM-15+0443SBLP V0209999C000019999999Y0099001N1+02901+01001999999ADDMA1101901999999REMMET045METAR SBLP 051300Z 00000KT CAVOK 29/10 Q1019;
0072832880999992010090514004-13267-043417FM-15+0443SBLP V0201801N003119999999Y0099001N1+03101+00901999999ADDMA1101801999999REMMET045METAR SBLP 051400Z 18006KT CAVOK 31/09 Q1018;
0072832880999992010090515004-13267-043417FM-15+0443SBLP V0201801N003119999999Y0099001N1+03301+00801999999ADDMA1101691999999REMMET045METAR SBLP 051500Z 18006KT CAVOK 33/08 Q1017;
0072832880999992010090516004-13267-043417FM-15+0443SBLP V0202101N004119999999Y0099001N1+03401+00801999999ADDMA1101591999999REMMET045METAR SBLP 051600Z 21008KT CAVOK 34/08 Q1016;
0072832880999992010090517004-13267-043417FM-15+0443SBLP V0202101N002619999999Y0099001N1+03501+00801999999ADDMA1101391999999REMMET045METAR SBLP 051700Z 21005KT CAVOK 35/08 Q1014;
0072832880999992010090518004-13267-043417FM-15+0443SBLP V0202701N001519999999Y0099001N1+03601+00801999999ADDMA1101291999999REMMET045METAR SBLP 051800Z 27003KT CAVOK 36/08 Q1013;
0072832880999992010090519004-13267-043417FM-15+0443SBLP V0201501N003119999999Y0099001N1+03601+00601999999ADDMA1101291999999REMMET045METAR SBLP 051900Z 15006KT CAVOK 36/06 Q1013;
0072832880999992010090520004-13267-043417FM-15+0443SBLP V0201501N002619999999Y0099001N1+03501+00201999999ADDMA1101291999999REMMET045METAR SBLP 052000Z 15005KT CAVOK 35/02 Q1013;
0072832880999992010090521004-13267-043417FM-15+0443SBLP V0201501N002119999999Y0099001N1+03201+00201999999ADDMA1101391999999REMMET045METAR SBLP 052100Z 15004KT CAVOK 32/02 Q1014;
0072832880999992010090610004-13267-043417FM-15+0443SBLP V0202001N002119999999Y0099001N1+01901+01001999999ADDMA1101801999999REMMET045METAR SBLP 061000Z 20004KT CAVOK 19/10 Q1018;
0072832880999992010090611004-13267-043417FM-15+0443SBLP V0202101N003119999999Y0099001N1+02401+01101999999ADDMA1101901999999REMMET045METAR SBLP 061100Z 21006KT CAVOK 24/11 Q1019;
0072832880999992010090612004-13267-043417FM-15+0443SBLP V0201801N003119999999Y0099001N1+02801+01101999999ADDMA1101901999999REMMET045METAR SBLP 061200Z 18006KT CAVOK 28/11 Q1019;
0072832880999992010090613004-13267-043417FM-15+0443SBLP V0201401N004119999999Y0099001N1+03201+00901999999ADDMA1101901999999REMMET045METAR SBLP 061300Z 14008KT CAVOK 32/09 Q1019;
0072832880999992010090614004-13267-043417FM-15+0443SBLP V0201201N004119999999Y0099001N1+03502+00701999999ADDMA1101901999999REMMET045METAR SBLP 061400Z 12008KT CAVOK 35/07 Q1019;
0072832880999992010090615004-13267-043417FM-15+0443SBLP V0201501N005119999999Y0099001N1+03501+00701999999ADDMA1101691999999REMMET045METAR SBLP 061500Z 15010KT CAVOK 35/07 Q1017;
0072832880999992010090616004-13267-043417FM-15+0443SBLP V0201501N005119999999Y0099001N1+03501+00701999999ADDMA1101591999999REMMET045METAR SBLP 061600Z 15010KT CAVOK 35/07 Q1016;
0072832880999992010090617004-13267-043417FM-15+0443SBLP V0201201N004119999999Y0099001N1+03501+00701999999ADDMA1101591999999REMMET045METAR SBLP 061700Z 12008KT CAVOK 35/07 Q1016;
0072832880999992010090618004-13267-043417FM-15+0443SBLP V0201501N005119999999Y0099001N1+03501+00701999999ADDMA1101491999999REMMET045METAR SBLP 061800Z 15010KT CAVOK 35/07 Q1015;
0072832880999992010090619004-13267-043417FM-15+0443SBLP V0201501N005119999999Y0099001N1+03401+01001999999ADDMA1101491999999REMMET045METAR SBLP 061900Z 15010KT CAVOK 34/10 Q1015;
0072832880999992010090620004-13267-043417FM-15+0443SBLP V0201401N003119999999Y0099001N1+03301+01301999999ADDMA1101591999999REMMET045METAR SBLP 062000Z 14006KT CAVOK 33/13 Q1016;
0072832880999992010090621004-13267-043417FM-15+0443SBLP V0201201N004119999999Y0099001N1+03001+01401999999ADDMA1101591999999REMMET045METAR SBLP 062100Z 12008KT CAVOK 30/14 Q1016;
0072832880999992010090710004-13267-043417FM-15+0443SBLP V0209999C000019999999Y0099001N1+02101+01501999999ADDMA1102001999999REMMET045METAR SBLP 071000Z 00000KT CAVOK 21/15 Q1020;
0072832880999992010090711004-13267-043417FM-15+0443SBLP V0201201N003119999999Y0099001N1+02401+01601999999ADDMA1102101999999REMMET045METAR SBLP 071100Z 12006KT CAVOK 24/16 Q1021;
0120832880999992010090712004-13267-043417FM-15+0443SBLP V0201401N003112200019N0112651N1+02701+01501999999ADDGA1021+009001999GF102991999999999999999999MA1102101999999REMMET051METAR SBLP 071200Z 14006KT 9999 FEW030 27/15 Q1021;
0120832880999992010090713004-13267-043417FM-15+0443SBLP V0200401N003112200019N0112651N1+02801+01601999999ADDGA1021+009001999GF102991999999999999999999MA1102101999999REMMET051METAR SBLP 071300Z 04006KT 9999 FEW030 28/16 Q1021;
0120832880999992010090714004-13267-043417FM-15+0443SBLP V0200401N004112200019N0112651N1+03001+01501999999ADDGA1021+009001999GF102991999999999999999999MA1102001999999REMMET051METAR SBLP 071400Z 04008KT 9999 FEW030 30/15 Q1020;
0120832880999992010090715004-13267-043417FM-15+0443SBLP V0200601N004112200019N0112651N1+03201+01501999999ADDGA1021+009001999GF102991999999999999999999MA1101901999999REMMET051METAR SBLP 071500Z 06008KT 9999 FEW030 32/15 Q1019;
0072832880999992010090716004-13267-043417FM-15+0443SBLP V0200901N005119999999Y0099001N1+03301+01401999999ADDMA1101691999999REMMET045METAR SBLP 071600Z 09010KT CAVOK 33/14 Q1017;
0072832880999992010090717004-13267-043417FM-15+0443SBLP V0200901N002119999999Y0099001N1+03301+01201999999ADDMA1101491999999REMMET045METAR SBLP 071700Z 09004KT CAVOK 33/12 Q1015;
0072832880999992010090718004-13267-043417FM-15+0443SBLP V0201401N003119999999Y0099001N1+03301+01201999999ADDMA1101391999999REMMET045METAR SBLP 071800Z 14006KT CAVOK 33/12 Q1014;
0072832880999992010090719004-13267-043417FM-15+0443SBLP V0201201N001519999999Y0099001N1+03401+01201999999ADDMA1101391999999REMMET045METAR SBLP 071900Z 12003KT CAVOK 34/12 Q1014;
0072832880999992010090720004-13267-043417FM-15+0443SBLP V0201801N002119999999Y0099001N1+03401+01201999999ADDMA1101391999999REMMET045METAR SBLP 072000Z 18004KT CAVOK 34/12 Q1014;
0072832880999992010090721004-13267-043417FM-15+0443SBLP V0201201N003119999999Y0099001N1+03201+01301999999ADDMA1101391999999REMMET045METAR SBLP 072100Z 12006KT CAVOK 32/13 Q1014;
0072832880999992010090809154-13267-043417FM-15+0443SBLP V0209999C000019999999Y0099001N1+02001+01301999999ADDMA1101691999999REMMET045METAR SBLP 080915Z 00000KT CAVOK 20/13 Q1017;
0072832880999992010090810004-13267-043417FM-15+0443SBLP V0209999C000019999999Y0099001N1+02201+01401999999ADDMA1101801999999REMMET045METAR SBLP 081000Z 00000KT CAVOK 22/14 Q1018;
0072832880999992010090811004-13267-043417FM-15+0443SBLP V0200801N003119999999Y0099001N1+02601+01401999999ADDMA1101801999999REMMET045METAR SBLP 081100Z 08006KT CAVOK 26/14 Q1018;
0072832880999992010090812004-13267-043417FM-15+0443SBLP V0203601N002119999999Y0099001N1+02701+01401999999ADDMA1101901999999REMMET045METAR SBLP 081200Z 36004KT CAVOK 27/14 Q1019;
0072832880999992010090813004-13267-043417FM-15+0443SBLP V0203301N002119999999Y0099001N1+02901+01401999999ADDMA1101901999999REMMET045METAR SBLP 081300Z 33004KT CAVOK 29/14 Q1019;
0072832880999992010090814004-13267-043417FM-15+0443SBLP V0209999C000019999999Y0099001N1+03001+01401999999ADDMA1101801999999REMMET045METAR SBLP 081400Z 00000KT CAVOK 30/14 Q1018;
0120832880999992010090815004-13267-043417FM-15+0443SBLP V0202401N003112200019N0112651N1+03301+01201999999ADDGA1021+009001999GF102991999999999999999999MA1101591999999REMMET051METAR SBLP 081500Z 24006KT 9999 FEW030 33/12 Q1016;
0120832880999992010090816004-13267-043417FM-15+0443SBLP V0201801N003112200019N0112651N1+03301+01201999999ADDGA1021+009001999GF102991999999999999999999MA1101491999999REMMET051METAR SBLP 081600Z 18006KT 9999 FEW030 33/12 Q1015;
0120832880999992010090817004-13267-043417FM-15+0443SBLP V0201801N003112200019N0112651N1+03501+01201999999ADDGA1041+009001999GF104991999999999999999999MA1101291999999REMMET051METAR SBLP 081700Z 18006KT 9999 SCT030 35/12 Q1013;
0120832880999992010090818004-13267-043417FM-15+0443SBLP V0201801N003112200019N0112651N1+03601+01201999999ADDGA1041+009001999GF104991999999999999999999MA1101191999999REMMET051METAR SBLP 081800Z 18006KT 9999 SCT030 36/12 Q1012;
0120832880999992010090819004-13267-043417FM-15+0443SBLP V0201801N003112200019N0112651N1+03501+01201999999ADDGA1041+009001999GF104991999999999999999999MA1101191999999REMMET051METAR SBLP 081900Z 18006KT 9999 SCT030 35/12 Q1012;
0120832880999992010090820004-13267-043417FM-15+0443SBLP V0201801N003112200019N0112651N1+03401+01201999999ADDGA1021+009001999GF102991999999999999999999MA1101191999999REMMET051METAR SBLP 082000Z 18006KT 9999 FEW030 34/12 Q1012;
0120832880999992010090821004-13267-043417FM-15+0443SBLP V0201801N003112200019N0112651N1+03301+01301999999ADDGA1021+009001999GF102991999999999999999999MA1101191999999REMMET051METAR SBLP 082100Z 18006KT 9999 FEW030 33/13 Q1012;
0072832880999992010090909154-13267-043417FM-15+0443SBLP V0209999C000019999999Y0099001N1+02001+01501999999ADDMA1101691999999REMMET045METAR SBLP 090915Z 00000KT CAVOK 20/15 Q1017;
0072832880999992010090910004-13267-043417FM-15+0443SBLP V0200901N003119999999Y0099001N1+02201+01501999999ADDMA1101691999999REMMET045METAR SBLP 091000Z 09006KT CAVOK 22/15 Q1017;
0072832880999992010090911004-13267-043417FM-15+0443SBLP V0200901N003119999999Y0099001N1+02501+01501999999ADDMA1101801999999REMMET045METAR SBLP 091100Z 09006KT CAVOK 25/15 Q1018;
0072832880999992010090912004-13267-043417FM-15+0443SBLP V0200901N003119999999Y0099001N1+02701+01501999999ADDMA1101901999999REMMET045METAR SBLP 091200Z 09006KT CAVOK 27/15 Q1019;
0072832880999992010090913004-13267-043417FM-15+0443SBLP V0200901N003119999999Y0099001N1+03001+01401999999ADDMA1101901999999REMMET045METAR SBLP 091300Z 09006KT CAVOK 30/14 Q1019;
0120832880999992010090914004-13267-043417FM-15+0443SBLP V0200901N003112200019N0112651N1+03201+01301999999ADDGA1021+009001999GF102991999999999999999999MA1101801999999REMMET051METAR SBLP 091400Z 09006KT 9999 FEW030 32/13 Q1018;
0120832880999992010090915004-13267-043417FM-15+0443SBLP V0200901N003112200019N0112651N1+03301+01201999999ADDGA1021+009001999GF102991999999999999999999MA1101591999999REMMET051METAR SBLP 091500Z 09006KT 9999 FEW030 33/12 Q1016;
0120832880999992010090916004-13267-043417FM-15+0443SBLP V0201501N005112200019N0112651N1+03501+01401999999ADDGA1041+009001999GF104991999999999999999999MA1101491999999REMMET051METAR SBLP 091600Z 15010KT 9999 SCT030 35/14 Q1015;
0120832880999992010090918004-13267-043417FM-15+0443SBLP V0201301N002112200019N0112651N1+03601+01301999999ADDGA1041+009001999GF104991999999999999999999MA1101291999999REMMET051METAR SBLP 091800Z 13004KT 9999 SCT030 36/13 Q1013;
0120832880999992010090919004-13267-043417FM-15+0443SBLP V0201201N005112200019N0112651N1+03601+01301999999ADDGA1021+009001999GF102991999999999999999999MA1101291999999REMMET051METAR SBLP 091900Z 12010KT 9999 FEW030 36/13 Q1013;
0120832880999992010090920004-13267-043417FM-15+0443SBLP V0201501N003112200019N0112651N1+03401+01201999999ADDGA1021+009001999GF102991999999999999999999MA1101291999999REMMET051METAR SBLP 092000Z 15006KT 9999 FEW030 34/12 Q1013;
0120832880999992010090921004-13267-043417FM-15+0443SBLP V0201301N005112200019N0112651N1+03301+01301999999ADDGA1021+009001999GF102991999999999999999999MA1101391999999REMMET051METAR SBLP 092100Z 13010KT 9999 FEW030 33/13 Q1014;
0072832880999992010091010004-13267-043417FM-15+0443SBLP V0201501N003119999999Y0099001N1+02301+01601999999ADDMA1101901999999REMMET045METAR SBLP 101000Z 15006KT CAVOK 23/16 Q1019;
0072832880999992010091011004-13267-043417FM-15+0443SBLP V0201101N005119999999Y0099001N1+02601+01501999999ADDMA1102001999999REMMET045METAR SBLP 101100Z 11010KT CAVOK 26/15 Q1020;
0072832880999992010091012004-13267-043417FM-15+0443SBLP V0200901N003119999999Y0099001N1+02801+01501999999ADDMA1102101999999REMMET045METAR SBLP 101200Z 09006KT CAVOK 28/15 Q1021;
0072832880999992010091013004-13267-043417FM-15+0443SBLP V0201501N004119999999Y0099001N1+03001+01401999999ADDMA1102101999999REMMET045METAR SBLP 101300Z 15008KT CAVOK 30/14 Q1021;
0072832880999992010091014004-13267-043417FM-15+0443SBLP V0201501N004119999999Y0099001N1+03001+01401999999ADDMA1102001999999REMMET045METAR SBLP 101400Z 15008KT CAVOK 30/14 Q1020;
0120832880999992010091015004-13267-043417FM-15+0443SBLP V0201201N004112200019N0112651N1+03301+01501999999ADDGA1021+009001999GF102991999999999999999999MA1101901999999REMMET051METAR SBLP 101500Z 12008KT 9999 FEW030 33/15 Q1019;
0120832880999992010091016004-13267-043417FM-15+0443SBLP V0201201N004112200019N0112651N1+03401+01401999999ADDGA1021+009001999GF102991999999999999999999MA1101691999999REMMET051METAR SBLP 101600Z 12008KT 9999 FEW030 34/14 Q1017;
0120832880999992010091017004-13267-043417FM-15+0443SBLP V0201201N004112200019N0112651N1+03501+01401999999ADDGA1021+009001999GF102991999999999999999999MA1101591999999REMMET051METAR SBLP 101700Z 12008KT 9999 FEW030 35/14 Q1016;
0120832880999992010091018004-13267-043417FM-15+0443SBLP V0201201N003112200019N0112651N1+03501+01301999999ADDGA1021+009001999GF102991999999999999999999MA1101491999999REMMET051METAR SBLP 101800Z 12006KT 9999 FEW030 35/13 Q1015;
0120832880999992010091019004-13267-043417FM-15+0443SBLP V0201201N004112200019N0112651N1+03501+01101999999ADDGA1021+009001999GF102991999999999999999999MA1101491999999REMMET051METAR SBLP 101900Z 12008KT 9999 FEW030 35/11 Q1015;
0120832880999992010091020004-13267-043417FM-15+0443SBLP V0201201N005112200019N0112651N1+03301+01201999999ADDGA1021+009001999GF102991999999999999999999MA1101491999999REMMET051METAR SBLP 102000Z 12010KT 9999 FEW030 33/12 Q1015;
0120832880999992010091021004-13267-043417FM-15+0443SBLP V0201201N003112200019N0112651N1+03101+01501999999ADDGA1021+009001999GF102991999999999999999999MA1101491999999REMMET051METAR SBLP 102100Z 12006KT 9999 FEW030 31/15 Q1015;
0072832880999992010091110004-13267-043417FM-15+0443SBLP V0201201N003119999999Y0099001N1+02001+01401999999ADDMA1102001999999REMMET045METAR SBLP 111000Z 12006KT CAVOK 20/14 Q1020;
0072832880999992010091111004-13267-043417FM-15+0443SBLP V0201201N002619999999Y0099001N1+02301+01301999999ADDMA1102101999999REMMET045METAR SBLP 111100Z 12005KT CAVOK 23/13 Q1021;
0072832880999992010091112004-13267-043417FM-15+0443SBLP V0201201N003119999999Y0099001N1+02601+01301999999ADDMA1102101999999REMMET045METAR SBLP 111200Z 12006KT CAVOK 26/13 Q1021;
0072832880999992010091113004-13267-043417FM-15+0443SBLP V0201201N003119999999Y0099001N1+02801+01301999999ADDMA1102101999999REMMET045METAR SBLP 111300Z 12006KT CAVOK 28/13 Q1021;
0120832880999992010091114004-13267-043417FM-15+0443SBLP V0201201N002612200019N0112651N1+02901+01101999999ADDGA1021+009001999GF102991999999999999999999MA1102001999999REMMET051METAR SBLP 111400Z 12005KT 9999 FEW030 29/11 Q1020;
0120832880999992010091115004-13267-043417FM-15+0443SBLP V0201201N002112200019N0112651N1+03101+01001999999ADDGA1021+009001999GF102991999999999999999999MA1101901999999REMMET051METAR SBLP 111500Z 12004KT 9999 FEW030 31/10 Q1019;
0120832880999992010091116004-13267-043417FM-15+0443SBLP V0201201N003112200019N0112651N1+03101+00901999999ADDGA1021+009001999GF102991999999999999999999MA1101691999999REMMET051METAR SBLP 111600Z 12006KT 9999 FEW030 31/09 Q1017;
0072832880999992010091117004-13267-043417FM-15+0443SBLP V0201201N003119999999Y0099001N1+03301+01101999999ADDMA1101591999999REMMET045METAR SBLP 111700Z 12006KT CAVOK 33/11 Q1016;
0072832880999992010091118004-13267-043417FM-15+0443SBLP V0201201N003119999999Y0099001N1+03301+01101999999ADDMA1101391999999REMMET045METAR SBLP 111800Z 12006KT CAVOK 33/11 Q1014;
0072832880999992010091119004-13267-043417FM-15+0443SBLP V0201201N002119999999Y0099001N1+03301+01101999999ADDMA1101391999999REMMET045METAR SBLP 111900Z 12004KT CAVOK 33/11 Q1014;
0072832880999992010091120004-13267-043417FM-15+0443SBLP V0201201N003119999999Y0099001N1+03301+01201999999ADDMA1101391999999REMMET045METAR SBLP 112000Z 12006KT CAVOK 33/12 Q1014;
0072832880999992010091121004-13267-043417FM-15+0443SBLP V0209999C000019999999Y0099001N1+03001+01401999999ADDMA1101491999999REMMET045METAR SBLP 112100Z 00000KT CAVOK 30/14 Q1015;
0072832880999992010091210004-13267-043417FM-15+0443SBLP V0209999C000019999999Y0099001N1+01901+01301999999ADDMA1101901999999REMMET045METAR SBLP 121000Z 00000KT CAVOK 19/13 Q1019;
0072832880999992010091211004-13267-043417FM-15+0443SBLP V0209999C000019999999Y0099001N1+02201+01401999999ADDMA1101901999999REMMET045METAR SBLP 121100Z 00000KT CAVOK 22/14 Q1019;
0072832880999992010091212004-13267-043417FM-15+0443SBLP V0201801N001019999999Y0099001N1+02501+01501999999ADDMA1101901999999REMMET045METAR SBLP 121200Z 18002KT CAVOK 25/15 Q1019;
0072832880999992010091213004-13267-043417FM-15+0443SBLP V0209999C000019999999Y0099001N1+02701+01501999999ADDMA1101901999999REMMET045METAR SBLP 121300Z 00000KT CAVOK 27/15 Q1019;
0072832880999992010091214004-13267-043417FM-15+0443SBLP V0202401N003119999999Y0099001N1+02901+01501999999ADDMA1101801999999REMMET045METAR SBLP 121400Z 24006KT CAVOK 29/15 Q1018;
0072832880999992010091215004-13267-043417FM-15+0443SBLP V0202101N003119999999Y0099001N1+03101+01301999999ADDMA1101691999999REMMET045METAR SBLP 121500Z 21006KT CAVOK 31/13 Q1017;
0072832880999992010091216004-13267-043417FM-15+0443SBLP V0200901N003119999999Y0099001N1+03101+01201999999ADDMA1101591999999REMMET045METAR SBLP 121600Z 09006KT CAVOK 31/12 Q1016;
0072832880999992010091217004-13267-043417FM-15+0443SBLP V0202401N003619999999Y0099001N1+03201+01101999999ADDMA1101491999999REMMET045METAR SBLP 121700Z 24007KT CAVOK 32/11 Q1015;
0072832880999992010091218004-13267-043417FM-15+0443SBLP V0202101N003119999999Y0099001N1+03301+01101999999ADDMA1101291999999REMMET045METAR SBLP 121800Z 21006KT CAVOK 33/11 Q1013;
0072832880999992010091219004-13267-043417FM-15+0443SBLP V0201801N002119999999Y0099001N1+03301+00901999999ADDMA1101291999999REMMET045METAR SBLP 121900Z 18004KT CAVOK 33/09 Q1013;
0072832880999992010091220004-13267-043417FM-15+0443SBLP V0202201N003119999999Y0099001N1+03301+01001999999ADDMA1101291999999REMMET045METAR SBLP 122000Z 22006KT CAVOK 33/10 Q1013;
0072832880999992010091221004-13267-043417FM-15+0443SBLP V0202201N001519999999Y0099001N1+03101+01001999999ADDMA1101291999999REMMET045METAR SBLP 122100Z 22003KT CAVOK 31/10 Q1013;
0072832880999992010091310004-13267-043417FM-15+0443SBLP V0201201N003119999999Y0099001N1+02001+01401999999ADDMA1101691999999REMMET045METAR SBLP 131000Z 12006KT CAVOK 20/14 Q1017;
0072832880999992010091311004-13267-043417FM-15+0443SBLP V0209999C000019999999Y0099001N1+02401+01301999999ADDMA1101801999999REMMET045METAR SBLP 131100Z 00000KT CAVOK 24/13 Q1018;
0072832880999992010091312004-13267-043417FM-15+0443SBLP V0201201N002119999999Y0099001N1+02701+01401999999ADDMA1101901999999REMMET045METAR SBLP 131200Z 12004KT CAVOK 27/14 Q1019;
0072832880999992010091313004-13267-043417FM-15+0443SBLP V0209999C000019999999Y0099001N1+02901+01301999999ADDMA1101801999999REMMET045METAR SBLP 131300Z 00000KT CAVOK 29/13 Q1018;
0072832880999992010091314004-13267-043417FM-15+0443SBLP V0201201N006219999999Y0099001N1+03001+01301999999ADDMA1101801999999REMMET045METAR SBLP 131400Z 12012KT CAVOK 30/13 Q1018;
0072832880999992010091315004-13267-043417FM-15+0443SBLP V0200301N003119999999Y0099001N1+03201+01001999999ADDMA1101691999999REMMET045METAR SBLP 131500Z 03006KT CAVOK 32/10 Q1017;
0072832880999992010091316004-13267-043417FM-15+0443SBLP V0200901N003119999999Y0099001N1+03301+00901999999ADDMA1101491999999REMMET045METAR SBLP 131600Z 09006KT CAVOK 33/09 Q1015;
0072832880999992010091317004-13267-043417FM-15+0443SBLP V0200901N003119999999Y0099001N1+03401+00801999999ADDMA1101391999999REMMET045METAR SBLP 131700Z 09006KT CAVOK 34/08 Q1014;
0072832880999992010091318004-13267-043417FM-15+0443SBLP V0200901N003119999999Y0099001N1+03601+00701999999ADDMA1101291999999REMMET045METAR SBLP 131800Z 09006KT CAVOK 36/07 Q1013;
0072832880999992010091319004-13267-043417FM-15+0443SBLP V0200901N003119999999Y0099001N1+03501+00701999999ADDMA1101291999999REMMET045METAR SBLP 131900Z 09006KT CAVOK 35/07 Q1013;
0072832880999992010091320004-13267-043417FM-15+0443SBLP V0200901N003119999999Y0099001N1+03401+00701999999ADDMA1101291999999REMMET045METAR SBLP 132000Z 09006KT CAVOK 34/07 Q1013;
0072832880999992010091321004-13267-043417FM-15+0443SBLP V0200901N003119999999Y0099001N1+03201+00801999999ADDMA1101291999999REMMET045METAR SBLP 132100Z 09006KT CAVOK 32/08 Q1013;
0072832880999992010091410004-13267-043417FM-15+0443SBLP V0201701N001519999999Y0099001N1+02101+01401999999ADDMA1101801999999REMMET045METAR SBLP 141000Z 17003KT CAVOK 21/14 Q1018;
0072832880999992010091411004-13267-043417FM-15+0443SBLP V0201501N003119999999Y0099001N1+02601+01501999999ADDMA1101901999999REMMET045METAR SBLP 141100Z 15006KT CAVOK 26/15 Q1019;
0072832880999992010091412004-13267-043417FM-15+0443SBLP V0200701N003119999999Y0099001N1+02801+01501999999ADDMA1101901999999REMMET045METAR SBLP 141200Z 07006KT CAVOK 28/15 Q1019;
0072832880999992010091413004-13267-043417FM-15+0443SBLP V0201201N001519999999Y0099001N1+03001+01401999999ADDMA1101901999999REMMET045METAR SBLP 141300Z 12003KT CAVOK 30/14 Q1019;
0120832880999992010091414004-13267-043417FM-15+0443SBLP V0200301N002112200019N0112651N1+03201+01401999999ADDGA1021+009001999GF102991999999999999999999MA1101901999999REMMET051METAR SBLP 141400Z 03004KT 9999 FEW030 32/14 Q1019;
0120832880999992010091415004-13267-043417FM-15+0443SBLP V0201201N003112200019N0112651N1+03301+01201999999ADDGA1021+009001999GF102991999999999999999999MA1101691999999REMMET051METAR SBLP 141500Z 12006KT 9999 FEW030 33/12 Q1017;
0120832880999992010091416004-13267-043417FM-15+0443SBLP V0201801N003112200019N0112651N1+03301+01201999999ADDGA1021+009001999GF102991999999999999999999MA1101591999999REMMET051METAR SBLP 141600Z 18006KT 9999 FEW030 33/12 Q1016;
0120832880999992010091417004-13267-043417FM-15+0443SBLP V0201801N003112200019N0112651N1+03401+01101999999ADDGA1041+009001999GF104991999999999999999999MA1101491999999REMMET051METAR SBLP 141700Z 18006KT 9999 SCT030 34/11 Q1015;
0120832880999992010091418004-13267-043417FM-15+0443SBLP V0201801N003112200019N0112651N1+03601+01101999999ADDGA1041+009001999GF104991999999999999999999MA1101391999999REMMET051METAR SBLP 141800Z 18006KT 9999 SCT030 36/11 Q1014;
0120832880999992010091419004-13267-043417FM-15+0443SBLP V0201801N003112200019N0112651N1+03501+01201999999ADDGA1041+009001999GF104991999999999999999999MA1101291999999REMMET051METAR SBLP 141900Z 18006KT 9999 SCT030 35/12 Q1013;
0120832880999992010091420004-13267-043417FM-15+0443SBLP V0201801N003112200019N0112651N1+03501+01201999999ADDGA1021+009001999GF102991999999999999999999MA1101291999999REMMET051METAR SBLP 142000Z 18006KT 9999 FEW030 35/12 Q1013;
0120832880999992010091421004-13267-043417FM-15+0443SBLP V0209999C000012200019N0112651N1+03301+01201999999ADDGA1021+009001999GF102991999999999999999999MA1101391999999REMMET051METAR SBLP 142100Z 00000KT 9999 FEW030 33/12 Q1014;
0072832880999992010091510004-13267-043417FM-15+0443SBLP V0209999C000019999999Y0099001N1+02301+01401999999ADDMA1101691999999REMMET045METAR SBLP 151000Z 00000KT CAVOK 23/14 Q1017;
0072832880999992010091511004-13267-043417FM-15+0443SBLP V0200901N003119999999Y0099001N1+02601+01401999999ADDMA1101691999999REMMET045METAR SBLP 151100Z 09006KT CAVOK 26/14 Q1017;
0072832880999992010091512004-13267-043417FM-15+0443SBLP V0200901N003119999999Y0099001N1+02801+01401999999ADDMA1101691999999REMMET045METAR SBLP 151200Z 09006KT CAVOK 28/14 Q1017;
0072832880999992010091513004-13267-043417FM-15+0443SBLP V0200901N003119999999Y0099001N1+03001+01301999999ADDMA1101691999999REMMET045METAR SBLP 151300Z 09006KT CAVOK 30/13 Q1017;
0072832880999992010091514004-13267-043417FM-15+0443SBLP V0200901N003119999999Y0099001N1+03201+01201999999ADDMA1101591999999REMMET045METAR SBLP 151400Z 09006KT CAVOK 32/12 Q1016;
0072832880999992010091515004-13267-043417FM-15+0443SBLP V0200901N003119999999Y0099001N1+03201+01201999999ADDMA1101491999999REMMET045METAR SBLP 151500Z 09006KT CAVOK 32/12 Q1015;
0072832880999992010091516004-13267-043417FM-15+0443SBLP V0202101N003119999999Y0099001N1+03301+01201999999ADDMA1101291999999REMMET045METAR SBLP 151600Z 21006KT CAVOK 33/12 Q1013;
0072832880999992010091517004-13267-043417FM-15+0443SBLP V0209999C000019999999Y0099001N1+03501+01101999999ADDMA1101191999999REMMET045METAR SBLP 151700Z 00000KT CAVOK 35/11 Q1012;
0072832880999992010091518004-13267-043417FM-15+0443SBLP V0202401N003119999999Y0099001N1+03601+01101999999ADDMA1101081999999REMMET045METAR SBLP 151800Z 24006KT CAVOK 36/11 Q1011;
0072832880999992010091519004-13267-043417FM-15+0443SBLP V0202401N003119999999Y0099001N1+03601+01101999999ADDMA1101081999999REMMET045METAR SBLP 151900Z 24006KT CAVOK 36/11 Q1011;
0072832880999992010091520004-13267-043417FM-15+0443SBLP V0209999C000019999999Y0099001N1+03501+01101999999ADDMA1101081999999REMMET045METAR SBLP 152000Z 00000KT CAVOK 35/11 Q1011;
0072832880999992010091521004-13267-043417FM-15+0443SBLP V0202101N002119999999Y0099001N1+03201+01301999999ADDMA1101081999999REMMET045METAR SBLP 152100Z 21004KT CAVOK 32/13 Q1011;
0072832880999992010091610004-13267-043417FM-15+0443SBLP V0209999C000019999999Y0099001N1+02101+01301999999ADDMA1101491999999REMMET045METAR SBLP 161000Z 00000KT CAVOK 21/13 Q1015;
0072832880999992010091611004-13267-043417FM-15+0443SBLP V0200601N004119999999Y0099001N1+02601+01401999999ADDMA1101591999999REMMET045METAR SBLP 161100Z 06008KT CAVOK 26/14 Q1016;
0072832880999992010091612004-13267-043417FM-15+0443SBLP V0201501N002119999999Y0099001N1+02801+01301999999ADDMA1101591999999REMMET045METAR SBLP 161200Z 15004KT CAVOK 28/13 Q1016;
0072832880999992010091613004-13267-043417FM-15+0443SBLP V0201501N003119999999Y0099001N1+03101+01201999999ADDMA1101591999999REMMET045METAR SBLP 161300Z 15006KT CAVOK 31/12 Q1016;
0072832880999992010091614004-13267-043417FM-15+0443SBLP V0209999C000019999999Y0099001N1+03201+01101999999ADDMA1101491999999REMMET045METAR SBLP 161400Z 00000KT CAVOK 32/11 Q1015;
0072832880999992010091615004-13267-043417FM-15+0443SBLP V0201201N005119999999Y0099001N1+03401+01001999999ADDMA1101391999999REMMET045METAR SBLP 161500Z 12010KT CAVOK 34/10 Q1014;
0072832880999992010091616004-13267-043417FM-15+0443SBLP V0201501N003119999999Y0099001N1+03501+01001999999ADDMA1101291999999REMMET045METAR SBLP 161600Z 15006KT CAVOK 35/10 Q1013;
0072832880999992010091617004-13267-043417FM-15+0443SBLP V0201301N003119999999Y0099001N1+03601+00801999999ADDMA1101081999999REMMET045METAR SBLP 161700Z 13006KT CAVOK 36/08 Q1011;
0072832880999992010091618004-13267-043417FM-15+0443SBLP V0209999N003119999999Y0099001N1+03701+00801999999ADDMA1101081999999REMMET045METAR SBLP 161800Z 10506KT CAVOK 37/08 Q1011;
0072832880999992010091619004-13267-043417FM-15+0443SBLP V0200901N003119999999Y0099001N1+03701+00901999999ADDMA1101021999999REMMET045METAR SBLP 161900Z 09006KT CAVOK 37/09 Q1010;
0072832880999992010091620004-13267-043417FM-15+0443SBLP V0200301N002119999999Y0099001N1+03501+01001999999ADDMA1101021999999REMMET045METAR SBLP 162000Z 03004KT CAVOK 35/10 Q1010;
0072832880999992010091621004-13267-043417FM-15+0443SBLP V0200901N003119999999Y0099001N1+03301+01201999999ADDMA1101081999999REMMET045METAR SBLP 162100Z 09006KT CAVOK 33/12 Q1011;
0072832880999992010091710004-13267-043417FM-15+0443SBLP V0209999C000019999999Y0099001N1+02201+01601999999ADDMA1101591999999REMMET045METAR SBLP 171000Z 00000KT CAVOK 22/16 Q1016;
0072832880999992010091711004-13267-043417FM-15+0443SBLP V0200901N003119999999Y0099001N1+02501+01701999999ADDMA1101691999999REMMET045METAR SBLP 171100Z 09006KT CAVOK 25/17 Q1017;
0072832880999992010091712004-13267-043417FM-15+0443SBLP V0200901N003119999999Y0099001N1+02801+01401999999ADDMA1101691999999REMMET045METAR SBLP 171200Z 09006KT CAVOK 28/14 Q1017;
0120832880999992010091713004-13267-043417FM-15+0443SBLP V0201201N003112200019N0112651N1+02901+01501999999ADDGA1021+009001999GF102991999999999999999999MA1101691999999REMMET051METAR SBLP 171300Z 12006KT 9999 FEW030 29/15 Q1017;
0120832880999992010091714004-13267-043417FM-15+0443SBLP V0200901N003112200019N0112651N1+03201+01401999999ADDGA1021+009001999GF102991999999999999999999MA1101591999999REMMET051METAR SBLP 171400Z 09006KT 9999 FEW030 32/14 Q1016;
0120832880999992010091715004-13267-043417FM-15+0443SBLP V0200601N003112200019N0112651N1+03301+01301999999ADDGA1041+009001999GF104991999999999999999999MA1101491999999REMMET051METAR SBLP 171500Z 06006KT 9999 SCT030 33/13 Q1015;
0120832880999992010091716004-13267-043417FM-15+0443SBLP V0200901N003112200019N0112651N1+03401+01301999999ADDGA1041+009001999GF104991999999999999999999MA1101291999999REMMET051METAR SBLP 171600Z 09006KT 9999 SCT030 34/13 Q1013;
0120832880999992010091717004-13267-043417FM-15+0443SBLP V0200901N003112200019N0112651N1+03501+01201999999ADDGA1021+009001999GF102991999999999999999999MA1101191999999REMMET051METAR SBLP 171700Z 09006KT 9999 FEW030 35/12 Q1012;
0120832880999992010091718004-13267-043417FM-15+0443SBLP V0201801N003112200019N0112651N1+03601+01201999999ADDGA1021+009001999GF102991999999999999999999MA1101191999999REMMET051METAR SBLP 171800Z 18006KT 9999 FEW030 36/12 Q1012;
0072832880999992010091719004-13267-043417FM-15+0443SBLP V0201801N003119999999Y0099001N1+03601+01201999999ADDMA1101191999999REMMET045METAR SBLP 171900Z 18006KT CAVOK 36/12 Q1012;
0072832880999992010091720004-13267-043417FM-15+0443SBLP V0201801N003119999999Y0099001N1+03501+01201999999ADDMA1101191999999REMMET045METAR SBLP 172000Z 18006KT CAVOK 35/12 Q1012;
0072832880999992010091721004-13267-043417FM-15+0443SBLP V0201801N003119999999Y0099001N1+03301+01301999999ADDMA1101291999999REMMET045METAR SBLP 172100Z 18006KT CAVOK 33/13 Q1013;
0072832880999992010091810004-13267-043417FM-15+0443SBLP V0209999C000019999999Y0099001N1+02301+01601999999ADDMA1101691999999REMMET045METAR SBLP 181000Z 00000KT CAVOK 23/16 Q1017;
0072832880999992010091811004-13267-043417FM-15+0443SBLP V0200901N003119999999Y0099001N1+02601+01501999999ADDMA1101801999999REMMET045METAR SBLP 181100Z 09006KT CAVOK 26/15 Q1018;
0072832880999992010091812004-13267-043417FM-15+0443SBLP V0200901N003119999999Y0099001N1+02901+01301999999ADDMA1101801999999REMMET045METAR SBLP 181200Z 09006KT CAVOK 29/13 Q1018;
0072832880999992010091813004-13267-043417FM-15+0443SBLP V0200901N003119999999Y0099001N1+03101+01201999999ADDMA1101801999999REMMET045METAR SBLP 181300Z 09006KT CAVOK 31/12 Q1018;
0072832880999992010091814004-13267-043417FM-15+0443SBLP V0200901N003119999999Y0099001N1+03201+01201999999ADDMA1101691999999REMMET045METAR SBLP 181400Z 09006KT CAVOK 32/12 Q1017;
0072832880999992010091815004-13267-043417FM-15+0443SBLP V0200901N003119999999Y0099001N1+03301+01101999999ADDMA1101491999999REMMET045METAR SBLP 181500Z 09006KT CAVOK 33/11 Q1015;
0072832880999992010091816004-13267-043417FM-15+0443SBLP V0200701N004119999999Y0099001N1+03501+00701999999ADDMA1101391999999REMMET045METAR SBLP 181600Z 07008KT CAVOK 35/07 Q1014;
0072832880999992010091817004-13267-043417FM-15+0443SBLP V0200901N003119999999Y0099001N1+03501+00701999999ADDMA1101291999999REMMET045METAR SBLP 181700Z 09006KT CAVOK 35/07 Q1013;
0072832880999992010091818004-13267-043417FM-15+0443SBLP V0201501N003119999999Y0099001N1+03601+00801999999ADDMA1101191999999REMMET045METAR SBLP 181800Z 15006KT CAVOK 36/08 Q1012;
0072832880999992010091819004-13267-043417FM-15+0443SBLP V0201101N003119999999Y0099001N1+03601+00801999999ADDMA1101191999999REMMET045METAR SBLP 181900Z 11006KT CAVOK 36/08 Q1012;
0072832880999992010091820004-13267-043417FM-15+0443SBLP V0201101N002119999999Y0099001N1+03501+00701999999ADDMA1101191999999REMMET045METAR SBLP 182000Z 11004KT CAVOK 35/07 Q1012;
0072832880999992010091821004-13267-043417FM-15+0443SBLP V0200401N002119999999Y0099001N1+03301+00701999999ADDMA1101291999999REMMET045METAR SBLP 182100Z 04004KT CAVOK 33/07 Q1013;
0072832880999992010091910004-13267-043417FM-15+0443SBLP V0209999C000019999999Y0099001N1+02301+01601999999ADDMA1101691999999REMMET045METAR SBLP 191000Z 00000KT CAVOK 23/16 Q1017;
0072832880999992010091911004-13267-043417FM-15+0443SBLP V0200901N003119999999Y0099001N1+02601+01501999999ADDMA1101901999999REMMET045METAR SBLP 191100Z 09006KT CAVOK 26/15 Q1019;
0120832880999992010091912004-13267-043417FM-15+0443SBLP V0200901N003112200019N0112651N1+02801+01401999999ADDGA1021+009001999GF102991999999999999999999MA1101901999999REMMET051METAR SBLP 191200Z 09006KT 9999 FEW030 28/14 Q1019;
0120832880999992010091913004-13267-043417FM-15+0443SBLP V0200901N003112200019N0112651N1+02901+01401999999ADDGA1021+009001999GF102991999999999999999999MA1101901999999REMMET051METAR SBLP 191300Z 09006KT 9999 FEW030 29/14 Q1019;
0120832880999992010091914004-13267-043417FM-15+0443SBLP V0200901N003112200019N0112651N1+03001+01301999999ADDGA1021+009001999GF102991999999999999999999MA1101901999999REMMET051METAR SBLP 191400Z 09006KT 9999 FEW030 30/13 Q1019;
0120832880999992010091915004-13267-043417FM-15+0443SBLP V0200901N003112200019N0112651N1+03101+01301999999ADDGA1021+009001999GF102991999999999999999999MA1101691999999REMMET051METAR SBLP 191500Z 09006KT 9999 FEW030 31/13 Q1017;
0120832880999992010091916004-13267-043417FM-15+0443SBLP V0200701N004112200019N0112651N1+03201+00901999999ADDGA1021+009001999GF102991999999999999999999MA1101591999999REMMET051METAR SBLP 191600Z 07008KT 9999 FEW030 32/09 Q1016;
0072832880999992010091917004-13267-043417FM-15+0443SBLP V0200601N002619999999Y0099001N1+03401+00801999999ADDMA1101491999999REMMET045METAR SBLP 191700Z 06005KT CAVOK 34/08 Q1015;
0072832880999992010091918004-13267-043417FM-15+0443SBLP V0201701N002119999999Y0099001N1+03401+00801999999ADDMA1101391999999REMMET045METAR SBLP 191800Z 17004KT CAVOK 34/08 Q1014;
0072832880999992010091919004-13267-043417FM-15+0443SBLP V0201301N004119999999Y0099001N1+03501+01001999999ADDMA1101391999999REMMET045METAR SBLP 191900Z 13008KT CAVOK 35/10 Q1014;
0072832880999992010091920004-13267-043417FM-15+0443SBLP V0201501N004119999999Y0099001N1+03301+01201999999ADDMA1101391999999REMMET045METAR SBLP 192000Z 15008KT CAVOK 33/12 Q1014;
0072832880999992010091921004-13267-043417FM-15+0443SBLP V0201201N005119999999Y0099001N1+03001+01301999999ADDMA1101491999999REMMET045METAR SBLP 192100Z 12010KT CAVOK 30/13 Q1015;
0072832880999992010092010004-13267-043417FM-15+0443SBLP V0201201N003119999999Y0099001N1+02401+01401999999ADDMA1101901999999REMMET045METAR SBLP 201000Z 12006KT CAVOK 24/14 Q1019;
0120832880999992010092011004-13267-043417FM-15+0443SBLP V0200901N003112200019N0112651N1+02501+01401999999ADDGA1021+009001999GF102991999999999999999999MA1102001999999REMMET051METAR SBLP 201100Z 09006KT 9999 FEW030 25/14 Q1020;
0072832880999992010092012004-13267-043417FM-15+0443SBLP V0200901N004119999999Y0099001N1+02701+01401999999ADDMA1102001999999REMMET045METAR SBLP 201200Z 09008KT CAVOK 27/14 Q1020;
0120832880999992010092013004-13267-043417FM-15+0443SBLP V0201201N006212200019N0112651N1+03001+01301999999ADDGA1021+009001999GF102991999999999999999999MA1102001999999REMMET051METAR SBLP 201300Z 12012KT 9999 FEW030 30/13 Q1020;
0120832880999992010092014004-13267-043417FM-15+0443SBLP V0200901N006212200019N0112651N1+03101+01201999999ADDGA1021+009001999GF102991999999999999999999MA1101901999999REMMET051METAR SBLP 201400Z 09012KT 9999 FEW030 31/12 Q1019;
0120832880999992010092015004-13267-043417FM-15+0443SBLP V0201101N005112200019N0112651N1+03201+01201999999ADDGA1021+009001999GF102991999999999999999999MA1101691999999REMMET051METAR SBLP 201500Z 11010KT 9999 FEW030 32/12 Q1017;
0120832880999992010092016004-13267-043417FM-15+0443SBLP V0200901N003112200019N0112651N1+03301+01201999999ADDGA1021+009001999GF102991999999999999999999MA1101591999999REMMET051METAR SBLP 201600Z 09006KT 9999 FEW030 33/12 Q1016;
0072832880999992010092017004-13267-043417FM-15+0443SBLP V0200901N003119999999Y0099001N1+03301+01201999999ADDMA1101391999999REMMET045METAR SBLP 201700Z 09006KT CAVOK 33/12 Q1014;
0072832880999992010092018004-13267-043417FM-15+0443SBLP V0200901N003119999999Y0099001N1+03401+01201999999ADDMA1101291999999REMMET045METAR SBLP 201800Z 09006KT CAVOK 34/12 Q1013;
0072832880999992010092019004-13267-043417FM-15+0443SBLP V0200901N003119999999Y0099001N1+03401+01201999999ADDMA1101291999999REMMET045METAR SBLP 201900Z 09006KT CAVOK 34/12 Q1013;
0072832880999992010092020004-13267-043417FM-15+0443SBLP V0200901N003119999999Y0099001N1+03201+01201999999ADDMA1101391999999REMMET045METAR SBLP 202000Z 09006KT CAVOK 32/12 Q1014;
0072832880999992010092021004-13267-043417FM-15+0443SBLP V0200901N003119999999Y0099001N1+03201+01201999999ADDMA1101391999999REMMET045METAR SBLP 202100Z 09006KT CAVOK 32/12 Q1014;
0072832880999992010092110004-13267-043417FM-15+0443SBLP V0201701N003119999999Y0099001N1+02101+01301999999ADDMA1101901999999REMMET045METAR SBLP 211000Z 17006KT CAVOK 21/13 Q1019;
0072832880999992010092111004-13267-043417FM-15+0443SBLP V0201101N002619999999Y0099001N1+02401+01401999999ADDMA1101901999999REMMET045METAR SBLP 211100Z 11005KT CAVOK 24/14 Q1019;
0120832880999992010092112004-13267-043417FM-15+0443SBLP V0200901N002112200019N0112651N1+02701+01401999999ADDGA1021+009001999GF102991999999999999999999MA1101901999999REMMET051METAR SBLP 211200Z 09004KT 9999 FEW030 27/14 Q1019;
0120832880999992010092113004-13267-043417FM-15+0443SBLP V0201501N002112200019N0112651N1+02801+01301999999ADDGA1021+009001999GF102991999999999999999999MA1101901999999REMMET051METAR SBLP 211300Z 15004KT 9999 FEW030 28/13 Q1019;
0120832880999992010092114004-13267-043417FM-15+0443SBLP V0200301N002612200019N0112651N1+03001+01401999999ADDGA1041+009001999GF104991999999999999999999MA1101801999999REMMET051METAR SBLP 211400Z 03005KT 9999 SCT030 30/14 Q1018;
0120832880999992010092115004-13267-043417FM-15+0443SBLP V0201501N001012200019N0112651N1+03101+01301999999ADDGA1041+009001999GF104991999999999999999999MA1101691999999REMMET051METAR SBLP 211500Z 15002KT 9999 SCT030 31/13 Q1017;
0120832880999992010092116004-13267-043417FM-15+0443SBLP V0201401N003112200019N0112651N1+03201+01301999999ADDGA1041+009001999GF104991999999999999999999MA1101491999999REMMET051METAR SBLP 211600Z 14006KT 9999 SCT030 32/13 Q1015;
0120832880999992010092117004-13267-043417FM-15+0443SBLP V0201201N003112200019N0112651N1+03301+01201999999ADDGA1041+009001999GF104991999999999999999999MA1101291999999REMMET051METAR SBLP 211700Z 12006KT 9999 SCT030 33/12 Q1013;
0120832880999992010092118004-13267-043417FM-15+0443SBLP V0200901N003112200019N0112651N1+03401+01101999999ADDGA1021+009001999GF102991999999999999999999MA1101191999999REMMET051METAR SBLP 211800Z 09006KT 9999 FEW030 34/11 Q1012;
0120832880999992010092119004-13267-043417FM-15+0443SBLP V0201201N002112200019N0112651N1+03401+01001999999ADDGA1021+009001999GF102991999999999999999999MA1101191999999REMMET051METAR SBLP 211900Z 12004KT 9999 FEW030 34/10 Q1012;
0072832880999992010092120004-13267-043417FM-15+0443SBLP V0209999C000019999999Y0099001N1+03401+01201999999ADDMA1101191999999REMMET045METAR SBLP 212000Z 00000KT CAVOK 34/12 Q1012;
0072832880999992010092121004-13267-043417FM-15+0443SBLP V0209999C000019999999Y0099001N1+03201+01301999999ADDMA1101191999999REMMET045METAR SBLP 212100Z 00000KT CAVOK 32/13 Q1012;
0072832880999992010092210004-13267-043417FM-15+0443SBLP V0209999C000019999999Y0099001N1+02101+01301999999ADDMA1101801999999REMMET045METAR SBLP 221000Z 00000KT CAVOK 21/13 Q1018;
0072832880999992010092211004-13267-043417FM-15+0443SBLP V0200601N004119999999Y0099001N1+02601+01401999999ADDMA1101901999999REMMET045METAR SBLP 221100Z 06008KT CAVOK 26/14 Q1019;
0072832880999992010092213004-13267-043417FM-15+0443SBLP V0200601N003119999999Y0099001N1+03001+01301999999ADDMA1101901999999REMMET045METAR SBLP 221300Z 06006KT CAVOK 30/13 Q1019;
0120832880999992010092214004-13267-043417FM-15+0443SBLP V0201401N005112200019N0112651N1+03101+01101999999ADDGA1021+009001999GF102991999999999999999999MA1101801999999REMMET051METAR SBLP 221400Z 14010KT 9999 FEW030 31/11 Q1018;
0120832880999992010092215004-13267-043417FM-15+0443SBLP V0203301N003112200019N0112651N1+03201+01001999999ADDGA1021+009001999GF102991999999999999999999MA1101591999999REMMET051METAR SBLP 221500Z 33006KT 9999 FEW030 32/10 Q1016;
0120832880999992010092216004-13267-043417FM-15+0443SBLP V0200901N003112200019N0112651N1+03401+01001999999ADDGA1021+009001999GF102991999999999999999999MA1101491999999REMMET051METAR SBLP 221600Z 09006KT 9999 FEW030 34/10 Q1015;
0072832880999992010092217004-13267-043417FM-15+0443SBLP V0200901N003119999999Y0099001N1+03401+01001999999ADDMA1101391999999REMMET045METAR SBLP 221700Z 09006KT CAVOK 34/10 Q1014;
0072832880999992010092218004-13267-043417FM-15+0443SBLP V0200901N003119999999Y0099001N1+03501+01001999999ADDMA1101291999999REMMET045METAR SBLP 221800Z 09006KT CAVOK 35/10 Q1013;
0072832880999992010092219004-13267-043417FM-15+0443SBLP V0200901N003119999999Y0099001N1+03601+00901999999ADDMA1101191999999REMMET045METAR SBLP 221900Z 09006KT CAVOK 36/09 Q1012;
0072832880999992010092220004-13267-043417FM-15+0443SBLP V0200901N003119999999Y0099001N1+03501+01001999999ADDMA1101191999999REMMET045METAR SBLP 222000Z 09006KT CAVOK 35/10 Q1012;
0072832880999992010092221004-13267-043417FM-15+0443SBLP V0200901N003119999999Y0099001N1+03301+01101999999ADDMA1101291999999REMMET045METAR SBLP 222100Z 09006KT CAVOK 33/11 Q1013;
0072832880999992010092310004-13267-043417FM-15+0443SBLP V0209999C000019999999Y0099001N1+02201+01501999999ADDMA1101691999999REMMET045METAR SBLP 231000Z 00000KT CAVOK 22/15 Q1017;
0072832880999992010092311004-13267-043417FM-15+0443SBLP V0209999C000019999999Y0099001N1+02501+01501999999ADDMA1101801999999REMMET045METAR SBLP 231100Z 00000KT CAVOK 25/15 Q1018;
0072832880999992010092312004-13267-043417FM-15+0443SBLP V0209999C000019999999Y0099001N1+02801+01401999999ADDMA1101801999999REMMET045METAR SBLP 231200Z 00000KT CAVOK 28/14 Q1018;
0120832880999992010092313004-13267-043417FM-15+0443SBLP V0201201N003112200019N0112651N1+03101+01301999999ADDGA1021+009001999GF102991999999999999999999MA1101801999999REMMET051METAR SBLP 231300Z 12006KT 9999 FEW030 31/13 Q1018;
0120832880999992010092314004-13267-043417FM-15+0443SBLP V0201201N003112200019N0112651N1+03201+01201999999ADDGA1021+009001999GF102991999999999999999999MA1101691999999REMMET051METAR SBLP 231400Z 12006KT 9999 FEW030 32/12 Q1017;
0120832880999992010092315004-13267-043417FM-15+0443SBLP V0200901N002112200019N0112651N1+03301+01201999999ADDGA1041+009001999GF104991999999999999999999MA1101591999999REMMET051METAR SBLP 231500Z 09004KT 9999 SCT030 33/12 Q1016;
0120832880999992010092316004-13267-043417FM-15+0443SBLP V0200901N003112200019N0112651N1+03401+01201999999ADDGA1021+009001999GF102991999999999999999999MA1101391999999REMMET051METAR SBLP 231600Z 09006KT 9999 FEW030 34/12 Q1014;
0120832880999992010092317004-13267-043417FM-15+0443SBLP V0200901N003112200019N0112651N1+03501+01201999999ADDGA1021+009001999GF102991999999999999999999MA1101291999999REMMET051METAR SBLP 231700Z 09006KT 9999 FEW030 35/12 Q1013;
0072832880999992010092318004-13267-043417FM-15+0443SBLP V0200901N003119999999Y0099001N1+03601+01201999999ADDMA1101191999999REMMET045METAR SBLP 231800Z 09006KT CAVOK 36/12 Q1012;
0072832880999992010092319004-13267-043417FM-15+0443SBLP V0200901N003119999999Y0099001N1+03501+01201999999ADDMA1101191999999REMMET045METAR SBLP 231900Z 09006KT CAVOK 35/12 Q1012;
0072832880999992010092320004-13267-043417FM-15+0443SBLP V0200901N003119999999Y0099001N1+03401+01201999999ADDMA1101191999999REMMET045METAR SBLP 232000Z 09006KT CAVOK 34/12 Q1012;
0072832880999992010092321004-13267-043417FM-15+0443SBLP V0200901N003119999999Y0099001N1+03301+01301999999ADDMA1101191999999REMMET045METAR SBLP 232100Z 09006KT CAVOK 33/13 Q1012;
0072832880999992010092410004-13267-043417FM-15+0443SBLP V0209999C000019999999Y0099001N1+02301+01601999999ADDMA1101591999999REMMET045METAR SBLP 241000Z 00000KT CAVOK 23/16 Q1016;
0072832880999992010092411004-13267-043417FM-15+0443SBLP V0200901N003119999999Y0099001N1+02601+01401999999ADDMA1101691999999REMMET045METAR SBLP 241100Z 09006KT CAVOK 26/14 Q1017;
0072832880999992010092412004-13267-043417FM-15+0443SBLP V0200901N003119999999Y0099001N1+02801+01301999999ADDMA1101691999999REMMET045METAR SBLP 241200Z 09006KT CAVOK 28/13 Q1017;
0072832880999992010092413004-13267-043417FM-15+0443SBLP V0200901N003119999999Y0099001N1+03001+01201999999ADDMA1101691999999REMMET045METAR SBLP 241300Z 09006KT CAVOK 30/12 Q1017;
0072832880999992010092414004-13267-043417FM-15+0443SBLP V0200901N003119999999Y0099001N1+03201+01101999999ADDMA1101691999999REMMET045METAR SBLP 241400Z 09006KT CAVOK 32/11 Q1017;
0072832880999992010092415004-13267-043417FM-15+0443SBLP V0200901N003119999999Y0099001N1+03301+01001999999ADDMA1101491999999REMMET045METAR SBLP 241500Z 09006KT CAVOK 33/10 Q1015;
0072832880999992010092416004-13267-043417FM-15+0443SBLP V0202401N003119999999Y0099001N1+03401+01001999999ADDMA1101291999999REMMET045METAR SBLP 241600Z 24006KT CAVOK 34/10 Q1013;
0072832880999992010092417004-13267-043417FM-15+0443SBLP V0209999C000019999999Y0099001N1+03501+00801999999ADDMA1101191999999REMMET045METAR SBLP 241700Z 00000KT CAVOK 35/08 Q1012;
0072832880999992010092418004-13267-043417FM-15+0443SBLP V0200701N003119999999Y0099001N1+03601+00801999999ADDMA1101081999999REMMET045METAR SBLP 241800Z 07006KT CAVOK 36/08 Q1011;
0072832880999992010092419004-13267-043417FM-15+0443SBLP V0201101N001519999999Y0099001N1+03601+00801999999ADDMA1101021999999REMMET045METAR SBLP 241900Z 11003KT CAVOK 36/08 Q1010;
0072832880999992010092420004-13267-043417FM-15+0443SBLP V0200901N001519999999Y0099001N1+03501+00701999999ADDMA1101081999999REMMET045METAR SBLP 242000Z 09003KT CAVOK 35/07 Q1011;
0072832880999992010092421004-13267-043417FM-15+0443SBLP V0209999C000019999999Y0099001N1+03301+00701999999ADDMA1101081999999REMMET045METAR SBLP 242100Z 00000KT CAVOK 33/07 Q1011;
0072832880999992010092510004-13267-043417FM-15+0443SBLP V0209999C000019999999Y0099001N1+02401+01501999999ADDMA1101491999999REMMET045METAR SBLP 251000Z 00000KT CAVOK 24/15 Q1015;
0072832880999992010092511004-13267-043417FM-15+0443SBLP V0200901N003119999999Y0099001N1+02701+01401999999ADDMA1101591999999REMMET045METAR SBLP 251100Z 09006KT CAVOK 27/14 Q1016;
0072832880999992010092512004-13267-043417FM-15+0443SBLP V0200901N003119999999Y0099001N1+03001+01201999999ADDMA1101691999999REMMET045METAR SBLP 251200Z 09006KT CAVOK 30/12 Q1017;
0072832880999992010092513004-13267-043417FM-15+0443SBLP V0200901N003119999999Y0099001N1+03101+01101999999ADDMA1101591999999REMMET045METAR SBLP 251300Z 09006KT CAVOK 31/11 Q1016;
0072832880999992010092514004-13267-043417FM-15+0443SBLP V0200901N003119999999Y0099001N1+03301+01001999999ADDMA1101491999999REMMET045METAR SBLP 251400Z 09006KT CAVOK 33/10 Q1015;
0072832880999992010092515004-13267-043417FM-15+0443SBLP V0201801N003119999999Y0099001N1+03301+01001999999ADDMA1101391999999REMMET045METAR SBLP 251500Z 18006KT CAVOK 33/10 Q1014;
0072832880999992010092516004-13267-043417FM-15+0443SBLP V0202901N001519999999Y0099001N1+03601+01001999999ADDMA1101191999999REMMET045METAR SBLP 251600Z 29003KT CAVOK 36/10 Q1012;
0072832880999992010092517004-13267-043417FM-15+0443SBLP V0200901N002119999999Y0099001N1+03701+00901999999ADDMA1101081999999REMMET045METAR SBLP 251700Z 09004KT CAVOK 37/09 Q1011;
0072832880999992010092712004-13267-043417FM-15+0443SBLP V0200201N002619999999Y0099001N1+03001+01601999999ADDMA1101391999999REMMET045METAR SBLP 271200Z 02005KT CAVOK 30/16 Q1014;
0072832880999992010092714004-13267-043417FM-15+0443SBLP V0202701N001519999999Y0099001N1+03301+01501999999ADDMA1101191999999REMMET045METAR SBLP 271400Z 27003KT CAVOK 33/15 Q1012;
0120832880999992010092715004-13267-043417FM-15+0443SBLP V0202401N001512200019N0112651N1+03401+01501999999ADDGA1021+009001999GF102991999999999999999999MA1101081999999REMMET051METAR SBLP 271500Z 24003KT 9999 FEW030 34/15 Q1011;
0120832880999992010092716004-13267-043417FM-15+0443SBLP V0209999C000012200019N0112651N1+03601+01401999999ADDGA1021+009001999GF102991999999999999999999MA1100911999999REMMET051METAR SBLP 271600Z 00000KT 9999 FEW030 36/14 Q1009;
0120832880999992010092717004-13267-043417FM-15+0443SBLP V0202401N003112200019N0112651N1+03701+01301999999ADDGA1021+009001999GF102991999999999999999999MA1100811999999REMMET051METAR SBLP 271700Z 24006KT 9999 FEW030 37/13 Q1008;
0120832880999992010092718004-13267-043417FM-15+0443SBLP V0202401N003112200019N0112651N1+03801+01201999999ADDGA1021+009001999GF102991999999999999999999MA1100711999999REMMET051METAR SBLP 271800Z 24006KT 9999 FEW030 38/12 Q1007;
0120832880999992010092719004-13267-043417FM-15+0443SBLP V0202101N003112200019N0112651N1+03701+01301999999ADDGA1021+009001999GF102991999999999999999999MA1100611999999REMMET051METAR SBLP 271900Z 21006KT 9999 FEW030 37/13 Q1006;
0120832880999992010092720004-13267-043417FM-15+0443SBLP V0202401N003112200019N0112651N1+03701+01201999999ADDGA1021+009001999GF102991999999999999999999MA1100711999999REMMET051METAR SBLP 272000Z 24006KT 9999 FEW030 37/12 Q1007;
0072832880999992010092721004-13267-043417FM-15+0443SBLP V0209999C000019999999Y0099001N1+03401+01301999999ADDMA1100711999999REMMET045METAR SBLP 272100Z 00000KT CAVOK 34/13 Q1007;
0072832880999992010092810004-13267-043417FM-15+0443SBLP V0200301N003119999999Y0099001N1+02501+01601999999ADDMA1101081999999REMMET045METAR SBLP 281000Z 03006KT CAVOK 25/16 Q1011;
0072832880999992010092812004-13267-043417FM-15+0443SBLP V0203501N003119999999Y0099001N1+03201+01301999999ADDMA1101191999999REMMET045METAR SBLP 281200Z 35006KT CAVOK 32/13 Q1012;
0072832880999992010092813004-13267-043417FM-15+0443SBLP V0200301N003119999999Y0099001N1+03401+01101999999ADDMA1101081999999REMMET045METAR SBLP 281300Z 03006KT CAVOK 34/11 Q1011;
0072832880999992010092814004-13267-043417FM-15+0443SBLP V0203601N004119999999Y0099001N1+03501+01101999999ADDMA1101021999999REMMET045METAR SBLP 281400Z 36008KT CAVOK 35/11 Q1010;
0072832880999992010092815004-13267-043417FM-15+0443SBLP V0203301N003119999999Y0099001N1+03601+01201999999ADDMA1100911999999REMMET045METAR SBLP 281500Z 33006KT CAVOK 36/12 Q1009;
0120832880999992010092816004-13267-043417FM-15+0443SBLP V0203601N003112200019N0112651N1+03701+01201999999ADDGA1021+009001999GF102991999999999999999999MA1100711999999REMMET051METAR SBLP 281600Z 36006KT 9999 FEW030 37/12 Q1007;
0120832880999992010092817004-13267-043417FM-15+0443SBLP V0203601N003112200019N0112651N1+03801+01201999999ADDGA1021+009001999GF102991999999999999999999MA1100611999999REMMET051METAR SBLP 281700Z 36006KT 9999 FEW030 38/12 Q1006;
0120832880999992010092818004-13267-043417FM-15+0443SBLP V0203601N003112200019N0112651N1+03901+01201999999ADDGA1041+009001999GF104991999999999999999999MA1100611999999REMMET051METAR SBLP 281800Z 36006KT 9999 SCT030 39/12 Q1006;
0120832880999992010092819004-13267-043417FM-15+0443SBLP V0203601N003112200019N0112651N1+03801+01201999999ADDGA1041+009001999GF104991999999999999999999MA1100511999999REMMET051METAR SBLP 281900Z 36006KT 9999 SCT030 38/12 Q1005;
0120832880999992010092820004-13267-043417FM-15+0443SBLP V0203601N003112200019N0112651N1+03701+01301999999ADDGA1041+009001999GF104991999999999999999999MA1100511999999REMMET051METAR SBLP 282000Z 36006KT 9999 SCT030 37/13 Q1005;
0120832880999992010092821004-13267-043417FM-15+0443SBLP V0203601N003112200019N0112651N1+03601+01301999999ADDGA1041+009001999GF104991999999999999999999MA1100611999999REMMET051METAR SBLP 282100Z 36006KT 9999 SCT030 36/13 Q1006;
0072832880999992010092910004-13267-043417FM-15+0443SBLP V0201801N003119999999Y0099001N1+02501+02001999999ADDMA1101291999999REMMET045METAR SBLP 291000Z 18006KT CAVOK 25/20 Q1013;
0072832880999992010092911004-13267-043417FM-15+0443SBLP V0202101N003119999999Y0099001N1+02601+01901999999ADDMA1101391999999REMMET045METAR SBLP 291100Z 21006KT CAVOK 26/19 Q1014;
0072832880999992010092912004-13267-043417FM-15+0443SBLP V0202101N003119999999Y0099001N1+02901+01801999999ADDMA1101391999999REMMET045METAR SBLP 291200Z 21006KT CAVOK 29/18 Q1014;
0072832880999992010092913004-13267-043417FM-15+0443SBLP V0202101N004119999999Y0099001N1+03001+01801999999ADDMA1101291999999REMMET045METAR SBLP 291300Z 21008KT CAVOK 30/18 Q1013;
0072832880999992010092914004-13267-043417FM-15+0443SBLP V0202101N003119999999Y0099001N1+03201+01701999999ADDMA1101191999999REMMET045METAR SBLP 291400Z 21006KT CAVOK 32/17 Q1012;
0072832880999992010092915004-13267-043417FM-15+0443SBLP V0202101N003119999999Y0099001N1+03501+01501999999ADDMA1101081999999REMMET045METAR SBLP 291500Z 21006KT CAVOK 35/15 Q1011;
0072832880999992010092916004-13267-043417FM-15+0443SBLP V0203401N001519999999Y0099001N1+03501+01601999999ADDMA1100911999999REMMET045METAR SBLP 291600Z 34003KT CAVOK 35/16 Q1009;
0143832880999992010092917004-13267-043417FM-15+0443SBLP V0202701N002612200019N0112651N1+03401+01601999999ADDGA1021+009001999GA2041+030001999GF104991999999999999999999MA1100911999999REMMET058METAR SBLP 291700Z 27005KT 9999 FEW030 SCT100 34/16 Q1009;
0143832880999992010092918004-13267-043417FM-15+0443SBLP V0202101N002112200019N0112651N1+03501+01601999999ADDGA1021+009001999GA2041+030001999GF104991999999999999999999MA1100811999999REMMET058METAR SBLP 291800Z 21004KT 9999 FEW030 SCT100 35/16 Q1008;
0143832880999992010092919004-13267-043417FM-15+0443SBLP V0202101N003112200019N0112651N1+03501+01601999999ADDGA1021+009001999GA2041+030001999GF104991999999999999999999MA1100811999999REMMET058METAR SBLP 291900Z 21006KT 9999 FEW030 SCT100 35/16 Q1008;
0120832880999992010092920004-13267-043417FM-15+0443SBLP V0201801N002112200019N0112651N1+03401+01701999999ADDGA1021+009001999GF102991999999999999999999MA1100811999999REMMET051METAR SBLP 292000Z 18004KT 9999 FEW030 34/17 Q1008;
0072832880999992010092921004-13267-043417FM-15+0443SBLP V0201901N002119999999Y0099001N1+03201+01701999999ADDMA1100811999999REMMET045METAR SBLP 292100Z 19004KT CAVOK 32/17 Q1008;
0143832880999992010093010004-13267-043417FM-15+0443SBLP V0201901N001510300019N0112651N1+02301+02201999999ADDGA1021+006001999GA2071+030001999GF107991999999999999999999MA1101191999999REMMET058METAR SBLP 301000Z 19003KT 9999 FEW020 BKN100 23/22 Q1012;
0143832880999992010093011004-13267-043417FM-15+0443SBLP V0202701N001510300019N0112651N1+02401+02201999999ADDGA1021+006001999GA2071+030001999GF107991999999999999999999MA1101291999999REMMET058METAR SBLP 301100Z 27003KT 9999 FEW020 BKN100 24/22 Q1013;
0143832880999992010093012004-13267-043417FM-15+0443SBLP V0203501N001510300019N0112651N1+02501+02201999999ADDGA1021+006901999GA2071+030001999GF107991999999999999999999MA1101391999999REMMET058METAR SBLP 301200Z 35003KT 9999 FEW023 BKN100 25/22 Q1014;
0143832880999992010093013004-13267-043417FM-15+0443SBLP V0202301N001010300019N0112651N1+02701+02201999999ADDGA1021+006901999GA2071+030001999GF107991999999999999999999MA1101391999999REMMET058METAR SBLP 301300Z 23002KT 9999 FEW023 BKN100 27/22 Q1014;
0143832880999992010093014004-13267-043417FM-15+0443SBLP V0202401N001510300019N0112651N1+03001+02201999999ADDGA1021+006901999GA2071+030001999GF107991999999999999999999MA1101291999999REMMET058METAR SBLP 301400Z 24003KT 9999 FEW023 BKN100 30/22 Q1013;
0143832880999992010093015004-13267-043417FM-15+0443SBLP V0209999C000010300019N0112651N1+03301+01801999999ADDGA1021+006901999GA2071+030001999GF107991999999999999999999MA1101191999999REMMET058METAR SBLP 301500Z 00000KT 9999 FEW023 BKN100 33/18 Q1012;
0143832880999992010093016004-13267-043417FM-15+0443SBLP V0209999C000010300019N0112651N1+03401+01701999999ADDGA1021+009001999GA2071+030001999GF107991999999999999999999MA1101021999999REMMET058METAR SBLP 301600Z 00000KT 9999 FEW030 BKN100 34/17 Q1010;
0143832880999992010093017004-13267-043417FM-15+0443SBLP V0209999C000012200019N0112651N1+03501+01601999999ADDGA1021+009001999GA2041+030001999GF104991999999999999999999MA1100911999999REMMET058METAR SBLP 301700Z 00000KT 9999 FEW030 SCT100 35/16 Q1009;
0168832880999992010093018004-13267-043417FM-15+0443SBLP V0209999C000012200019N0112651N1+03801+01501999999ADDGA1041+009001999GA2021+012001091GA3041+030001999GF104991999999999999999999MA1100811999999REMMET067METAR SBLP 301800Z 00000KT 9999 SCT030 FEW040CB SCT100 38/15 Q1008;
0147832880999992010093019004-13267-043417FM-15+0443SBLP V0209999C000012200019N0112651N1+03801+01501999999ADDGA1041+009001999GA2021+012001091MA1100811999999MW1171REMMET063METAR SBLP 301900Z 00000KT 9999 TS SCT030 FEW040CB 38/15 Q1008;EQDQ01+000022SCOTCV
0177832880999992010093020004-13267-043417FM-15+0443SBLP V0200901N003112200019N0112651N1+03601+01601999999ADDGA1041+009001999GA2021+012001091GA3041+030001999GF104991999999999999999999MA1100911999999MW1171REMMET070METAR SBLP 302000Z 09006KT 9999 TS SCT030 FEW040CB SCT100 36/16 Q1009;
0177832880999992010093021004-13267-043417FM-15+0443SBLP V0203601N00621012001CN0112651N1+03301+01701999999ADDGA1041+009001999GA2021+012001091GA3071+030001999GF107991999999999999999999MA1100911999999MW1171REMMET070METAR SBLP 302100Z 36012KT 9999 TS SCT030 FEW040CB BKN100 33/17 Q1009;
0143832880999992010100110004-13267-043417FM-15+0443SBLP V0209999C000012200019N0112651N1+02501+02001999999ADDGA1021+006001999GA2041+030001999GF104991999999999999999999MA1101391999999REMMET058METAR SBLP 011000Z 00000KT 9999 FEW020 SCT100 25/20 Q1014;
0143832880999992010100111004-13267-043417FM-15+0443SBLP V0209999C000012200019N0112651N1+02801+02001999999ADDGA1021+009001999GA2041+030001999GF104991999999999999999999MA1101391999999REMMET058METAR SBLP 011100Z 00000KT 9999 FEW030 SCT100 28/20 Q1014;
0120832880999992010100112004-13267-043417FM-15+0443SBLP V0209999C000012200019N0112651N1+02901+02001999999ADDGA1021+009001999GF102991999999999999999999MA1101391999999REMMET051METAR SBLP 011200Z 00000KT 9999 FEW030 29/20 Q1014;
0120832880999992010100113004-13267-043417FM-15+0443SBLP V0209999C000012200019N0112651N1+03101+01901999999ADDGA1041+009001999GF104991999999999999999999MA1101391999999REMMET051METAR SBLP 011300Z 00000KT 9999 SCT030 31/19 Q1014;
0120832880999992010100114004-13267-043417FM-15+0443SBLP V0203601N003112200019N0112651N1+03201+01901999999ADDGA1041+009001999GF104991999999999999999999MA1101291999999REMMET051METAR SBLP 011400Z 36006KT 9999 SCT030 32/19 Q1013;
0120832880999992010100116004-13267-043417FM-15+0443SBLP V0203301N001512200019N0112651N1+03601+01701999999ADDGA1041+009001999GF104991999999999999999999MA1101021999999REMMET051METAR SBLP 011600Z 33003KT 9999 SCT030 36/17 Q1010;
0120832880999992010100117004-13267-043417FM-15+0443SBLP V0202901N002612200019N0112651N1+03701+01801999999ADDGA1041+009001999GF104991999999999999999999MA1100911999999REMMET051METAR SBLP 011700Z 29005KT 9999 SCT030 37/18 Q1009;
0120832880999992010100118004-13267-043417FM-15+0443SBLP V0202701N003112200019N0112651N1+03801+01801999999ADDGA1041+009001999GF104991999999999999999999MA1100811999999REMMET051METAR SBLP 011800Z 27006KT 9999 SCT030 38/18 Q1008;
0120832880999992010100119004-13267-043417FM-15+0443SBLP V0203501N004112200019N0112651N1+03801+01701999999ADDGA1041+009001999GF104991999999999999999999MA1100811999999REMMET051METAR SBLP 011900Z 35008KT 9999 SCT030 38/17 Q1008;
0120832880999992010100120004-13267-043417FM-15+0443SBLP V0203001N001512200019N0112651N1+03601+01701999999ADDGA1041+009001999GF104991999999999999999999MA1100811999999REMMET051METAR SBLP 012000Z 30003KT 9999 SCT030 36/17 Q1008;
0120832880999992010100121004-13267-043417FM-15+0443SBLP V0203001N001512200019N0112651N1+03601+01701999999ADDGA1041+009001999GF104991999999999999999999MA1100811999999REMMET051METAR SBLP 012100Z 30003KT 9999 SCT030 36/17 Q1008;
0072832880999992010100210004-13267-043417FM-15+0443SBLP V0202101N001519999999Y0099001N1+02401+02101999999ADDMA1101291999999REMMET045METAR SBLP 021000Z 21003KT CAVOK 24/21 Q1013;
0072832880999992010100211004-13267-043417FM-15+0443SBLP V0201801N001019999999Y0099001N1+02801+01801999999ADDMA1101291999999REMMET045METAR SBLP 021100Z 18002KT CAVOK 28/18 Q1013;
0072832880999992010100212004-13267-043417FM-15+0443SBLP V0202101N001519999999Y0099001N1+03101+01601999999ADDMA1101391999999REMMET045METAR SBLP 021200Z 21003KT CAVOK 31/16 Q1014;
0072832880999992010100213004-13267-043417FM-15+0443SBLP V0201801N001019999999Y0099001N1+03301+01501999999ADDMA1101291999999REMMET045METAR SBLP 021300Z 18002KT CAVOK 33/15 Q1013;
0072832880999992010100214004-13267-043417FM-15+0443SBLP V0203001N002119999999Y0099001N1+03501+01401999999ADDMA1101291999999REMMET045METAR SBLP 021400Z 30004KT CAVOK 35/14 Q1013;
0120832880999992010100215004-13267-043417FM-15+0443SBLP V0203401N003112200019N0112651N1+03601+01101999999ADDGA1021+009001999GF102991999999999999999999MA1101191999999REMMET051METAR SBLP 021500Z 34006KT 9999 FEW030 36/11 Q1012;
0120832880999992010100216004-13267-043417FM-15+0443SBLP V0209999C000012200019N0112651N1+03701+01101999999ADDGA1021+009001999GF102991999999999999999999MA1101021999999REMMET051METAR SBLP 021600Z 00000KT 9999 FEW030 37/11 Q1010;
0120832880999992010100217004-13267-043417FM-15+0443SBLP V0203601N003112200019N0112651N1+03801+00801999999ADDGA1021+009001999GF102991999999999999999999MA1100911999999REMMET051METAR SBLP 021700Z 36006KT 9999 FEW030 38/08 Q1009;
0120832880999992010100218004-13267-043417FM-15+0443SBLP V0202701N002112200019N0112651N1+03901+00801999999ADDGA1021+009001999GF102991999999999999999999MA1100811999999REMMET051METAR SBLP 021800Z 27004KT 9999 FEW030 39/08 Q1008;
0120832880999992010100219004-13267-043417FM-15+0443SBLP V0202701N003112200019N0112651N1+03901+00901999999ADDGA1041+009001999GF104991999999999999999999MA1100811999999REMMET051METAR SBLP 021900Z 27006KT 9999 SCT030 39/09 Q1008;
0120832880999992010100220004-13267-043417FM-15+0443SBLP V0209999C000012200019N0112651N1+03701+00901999999ADDGA1021+009001999GF102991999999999999999999MA1100811999999REMMET051METAR SBLP 022000Z 00000KT 9999 FEW030 37/09 Q1008;
0072832880999992010100221004-13267-043417FM-15+0443SBLP V0209999C000019999999Y0099001N1+03501+01101999999ADDMA1100911999999REMMET045METAR SBLP 022100Z 00000KT CAVOK 35/11 Q1009;
0072832880999992010100310004-13267-043417FM-15+0443SBLP V0201601N003119999999Y0099001N1+02501+01601999999ADDMA1101391999999REMMET045METAR SBLP 031000Z 16006KT CAVOK 25/16 Q1014;
0072832880999992010100311004-13267-043417FM-15+0443SBLP V0209999C000019999999Y0099001N1+02801+01601999999ADDMA1101491999999REMMET045METAR SBLP 031100Z 00000KT CAVOK 28/16 Q1015;
0072832880999992010100312004-13267-043417FM-15+0443SBLP V0209999C000019999999Y0099001N1+03201+01701999999ADDMA1101491999999REMMET045METAR SBLP 031200Z 00000KT CAVOK 32/17 Q1015;
0072832880999992010100313004-13267-043417FM-15+0443SBLP V0209999C000019999999Y0099001N1+03301+01701999999ADDMA1101491999999REMMET045METAR SBLP 031300Z 00000KT CAVOK 33/17 Q1015;
0072832880999992010100315004-13267-043417FM-15+0443SBLP V0201201N003119999999Y0099001N1+03601+01401999999ADDMA1101291999999REMMET045METAR SBLP 031500Z 12006KT CAVOK 36/14 Q1013;
0120832880999992010100316004-13267-043417FM-15+0443SBLP V0202101N003112200019N0112651N1+03801+01201999999ADDGA1021+009001999GF102991999999999999999999MA1101081999999REMMET051METAR SBLP 031600Z 21006KT 9999 FEW030 38/12 Q1011;
0120832880999992010100317004-13267-043417FM-15+0443SBLP V0202401N003112200019N0112651N1+03901+00901999999ADDGA1021+009001999GF102991999999999999999999MA1101021999999REMMET051METAR SBLP 031700Z 24006KT 9999 FEW030 39/09 Q1010;
0120832880999992010100318004-13267-043417FM-15+0443SBLP V0201601N002112200019N0112651N1+04001+00901999999ADDGA1021+009001999GF102991999999999999999999MA1100911999999REMMET051METAR SBLP 031800Z 16004KT 9999 FEW030 40/09 Q1009;
0120832880999992010100319004-13267-043417FM-15+0443SBLP V0209999C000012200019N0112651N1+04001+00801999999ADDGA1021+009001999GF102991999999999999999999MA1100911999999REMMET051METAR SBLP 031900Z 00000KT 9999 FEW030 40/08 Q1009;
0120832880999992010100320004-13267-043417FM-15+0443SBLP V0209999C000012200019N0112651N1+03801+00901999999ADDGA1021+009001999GF102991999999999999999999MA1100911999999REMMET051METAR SBLP 032000Z 00000KT 9999 FEW030 38/09 Q1009;
0120832880999992010100321004-13267-043417FM-15+0443SBLP V0209999C000012200019N0112651N1+03601+01101999999ADDGA1021+009001999GF102991999999999999999999MA1101021999999REMMET051METAR SBLP 032100Z 00000KT 9999 FEW030 36/11 Q1010;
0072832880999992010100410004-13267-043417FM-15+0443SBLP V0200901N003119999999Y0099001N1+02701+02001999999ADDMA1101591999999REMMET045METAR SBLP 041000Z 09006KT CAVOK 27/20 Q1016;
0072832880999992010100411004-13267-043417FM-15+0443SBLP V0200901N003119999999Y0099001N1+02901+01901999999ADDMA1101691999999REMMET045METAR SBLP 041100Z 09006KT CAVOK 29/19 Q1017;
0072832880999992010100412004-13267-043417FM-15+0443SBLP V0201201N003119999999Y0099001N1+03101+01901999999ADDMA1101691999999REMMET045METAR SBLP 041200Z 12006KT CAVOK 31/19 Q1017;
0072832880999992010100414004-13267-043417FM-15+0443SBLP V0201201N003119999999Y0099001N1+03401+01701999999ADDMA1101591999999REMMET045METAR SBLP 041400Z 12006KT CAVOK 34/17 Q1016;
0072832880999992010100415004-13267-043417FM-15+0443SBLP V0201501N004119999999Y0099001N1+03501+01701999999ADDMA1101491999999REMMET045METAR SBLP 041500Z 15008KT CAVOK 35/17 Q1015;
0072832880999992010100416004-13267-043417FM-15+0443SBLP V0200901N003119999999Y0099001N1+03701+01601999999ADDMA1101291999999REMMET045METAR SBLP 041600Z 09006KT CAVOK 37/16 Q1013;
0072832880999992010100417004-13267-043417FM-15+0443SBLP V0200901N003119999999Y0099001N1+03901+01601999999ADDMA1101191999999REMMET045METAR SBLP 041700Z 09006KT CAVOK 39/16 Q1012;
0072832880999992010100418004-13267-043417FM-15+0443SBLP V0200901N003119999999Y0099001N1+03901+01601999999ADDMA1101081999999REMMET045METAR SBLP 041800Z 09006KT CAVOK 39/16 Q1011;
0072832880999992010100419004-13267-043417FM-15+0443SBLP V0200901N003119999999Y0099001N1+03901+01601999999ADDMA1101081999999REMMET045METAR SBLP 041900Z 09006KT CAVOK 39/16 Q1011;
0072832880999992010100420004-13267-043417FM-15+0443SBLP V0200901N003119999999Y0099001N1+03801+01601999999ADDMA1101081999999REMMET045METAR SBLP 042000Z 09006KT CAVOK 38/16 Q1011;
0072832880999992010100421004-13267-043417FM-15+0443SBLP V0209999C000019999999Y0099001N1+03601+01601999999ADDMA1101081999999REMMET045METAR SBLP 042100Z 00000KT CAVOK 36/16 Q1011;
0072832880999992010100510004-13267-043417FM-15+0443SBLP V0209999C000019999999Y0099001N1+02401+01501999999ADDMA1101591999999REMMET045METAR SBLP 051000Z 00000KT CAVOK 24/15 Q1016;
0072832880999992010100511004-13267-043417FM-15+0443SBLP V0200901N003119999999Y0099001N1+02701+01501999999ADDMA1101591999999REMMET045METAR SBLP 051100Z 09006KT CAVOK 27/15 Q1016;
0072832880999992010100512004-13267-043417FM-15+0443SBLP V0200901N003119999999Y0099001N1+03101+01501999999ADDMA1101591999999REMMET045METAR SBLP 051200Z 09006KT CAVOK 31/15 Q1016;
0072832880999992010100514004-13267-043417FM-15+0443SBLP V0200901N003119999999Y0099001N1+03401+01501999999ADDMA1101491999999REMMET045METAR SBLP 051400Z 09006KT CAVOK 34/15 Q1015;
0120832880999992010100515004-13267-043417FM-15+0443SBLP V0203601N003112200019N0112651N1+03601+01401999999ADDGA1021+009001999GF102991999999999999999999MA1101291999999REMMET051METAR SBLP 051500Z 36006KT 9999 FEW030 36/14 Q1013;
0120832880999992010100516004-13267-043417FM-15+0443SBLP V0202201N001512200019N0112651N1+03801+01301999999ADDGA1021+009001999GF102991999999999999999999MA1101191999999REMMET051METAR SBLP 051600Z 22003KT 9999 FEW030 38/13 Q1012;
0120832880999992010100517004-13267-043417FM-15+0443SBLP V0202501N003112200019N0112651N1+03801+01201999999ADDGA1021+009001999GF102991999999999999999999MA1101081999999REMMET051METAR SBLP 051700Z 25006KT 9999 FEW030 38/12 Q1011;
0120832880999992010100518004-13267-043417FM-15+0443SBLP V0202401N001512200019N0112651N1+03901+01201999999ADDGA1021+009001999GF102991999999999999999999MA1100911999999REMMET051METAR SBLP 051800Z 24003KT 9999 FEW030 39/12 Q1009;
0120832880999992010100519004-13267-043417FM-15+0443SBLP V0202101N002112200019N0112651N1+03901+01201999999ADDGA1021+009001999GF102991999999999999999999MA1100911999999REMMET051METAR SBLP 051900Z 21004KT 9999 FEW030 39/12 Q1009;
0120832880999992010100520004-13267-043417FM-15+0443SBLP V0202101N003112200019N0112651N1+03801+01101999999ADDGA1021+009001999GF102991999999999999999999MA1100911999999REMMET051METAR SBLP 052000Z 21006KT 9999 FEW030 38/11 Q1009;
0120832880999992010100521004-13267-043417FM-15+0443SBLP V0209999C000012200019N0112651N1+03601+01201999999ADDGA1021+009001999GF102991999999999999999999MA1100911999999REMMET051METAR SBLP 052100Z 00000KT 9999 FEW030 36/12 Q1009;
0072832880999992010100610004-13267-043417FM-15+0443SBLP V0209999C000019999999Y0099001N1+02701+01601999999ADDMA1101391999999REMMET045METAR SBLP 061000Z 00000KT CAVOK 27/16 Q1014;
0072832880999992010100611004-13267-043417FM-15+0443SBLP V0203601N003119999999Y0099001N1+02901+01601999999ADDMA1101491999999REMMET045METAR SBLP 061100Z 36006KT CAVOK 29/16 Q1015;
0072832880999992010100612004-13267-043417FM-15+0443SBLP V0203601N003119999999Y0099001N1+03301+01501999999ADDMA1101491999999REMMET045METAR SBLP 061200Z 36006KT CAVOK 33/15 Q1015;
0072832880999992010100613004-13267-043417FM-15+0443SBLP V0203601N003119999999Y0099001N1+03501+01501999999ADDMA1101391999999REMMET045METAR SBLP 061300Z 36006KT CAVOK 35/15 Q1014;
0072832880999992010100614004-13267-043417FM-15+0443SBLP V0203601N003119999999Y0099001N1+03601+01401999999ADDMA1101391999999REMMET045METAR SBLP 061400Z 36006KT CAVOK 36/14 Q1014;
0072832880999992010100615004-13267-043417FM-15+0443SBLP V0203601N003119999999Y0099001N1+03701+01401999999ADDMA1101191999999REMMET045METAR SBLP 061500Z 36006KT CAVOK 37/14 Q1012;
0120832880999992010100616004-13267-043417FM-15+0443SBLP V0201801N002612200019N0112651N1+03901+01101999999ADDGA1021+009001999GF102991999999999999999999MA1101021999999REMMET051METAR SBLP 061600Z 18005KT 9999 FEW030 39/11 Q1010;
0120832880999992010100617004-13267-043417FM-15+0443SBLP V0202701N001512200019N0112651N1+04001+01101999999ADDGA1021+009001999GF102991999999999999999999MA1100911999999REMMET051METAR SBLP 061700Z 27003KT 9999 FEW030 40/11 Q1009;
0120832880999992010100618004-13267-043417FM-15+0443SBLP V0209999C000012200019N0112651N1+04001+01101999999ADDGA1021+009001999GF102991999999999999999999MA1100811999999REMMET051METAR SBLP 061800Z 00000KT 9999 FEW030 40/11 Q1008;
0120832880999992010100619004-13267-043417FM-15+0443SBLP V0202701N003112200019N0112651N1+04001+01001999999ADDGA1021+009001999GF102991999999999999999999MA1100811999999REMMET051METAR SBLP 061900Z 27006KT 9999 FEW030 40/10 Q1008;
0120832880999992010100620004-13267-043417FM-15+0443SBLP V0202701N001512200019N0112651N1+03901+01101999999ADDGA1021+009001999GF102991999999999999999999MA1100811999999REMMET051METAR SBLP 062000Z 27003KT 9999 FEW030 39/11 Q1008;
0120832880999992010100621004-13267-043417FM-15+0443SBLP V0203401N001512200019N0112651N1+03701+01301999999ADDGA1021+009001999GF102991999999999999999999MA1100911999999REMMET051METAR SBLP 062100Z 34003KT 9999 FEW030 37/13 Q1009;
0072832880999992010100710004-13267-043417FM-15+0443SBLP V0200701N001519999999Y0099001N1+02801+01501999999ADDMA1101391999999REMMET045METAR SBLP 071000Z 07003KT CAVOK 28/15 Q1014;
0072832880999992010100711004-13267-043417FM-15+0443SBLP V0200301N002119999999Y0099001N1+03201+01601999999ADDMA1101491999999REMMET045METAR SBLP 071100Z 03004KT CAVOK 32/16 Q1015;
0072832880999992010100712004-13267-043417FM-15+0443SBLP V0209999C000019999999Y0099001N1+03301+01601999999ADDMA1101491999999REMMET045METAR SBLP 071200Z 00000KT CAVOK 33/16 Q1015;
0072832880999992010100713004-13267-043417FM-15+0443SBLP V0202401N002119999999Y0099001N1+03401+01501999999ADDMA1101491999999REMMET045METAR SBLP 071300Z 24004KT CAVOK 34/15 Q1015;
0072832880999992010100714004-13267-043417FM-15+0443SBLP V0209999C000019999999Y0099001N1+03501+01401999999ADDMA1101391999999REMMET045METAR SBLP 071400Z 00000KT CAVOK 35/14 Q1014;
0120832880999992010100715004-13267-043417FM-15+0443SBLP V0202101N002112200019N0112651N1+03701+01401999999ADDGA1021+009001999GF102991999999999999999999MA1101291999999REMMET051METAR SBLP 071500Z 21004KT 9999 FEW030 37/14 Q1013;
0120832880999992010100716004-13267-043417FM-15+0443SBLP V0203001N003112200019N0112651N1+03801+01401999999ADDGA1021+009001999GF102991999999999999999999MA1101081999999REMMET051METAR SBLP 071600Z 30006KT 9999 FEW030 38/14 Q1011;
0120832880999992010100717004-13267-043417FM-15+0443SBLP V0202701N003112200019N0112651N1+03901+01401999999ADDGA1041+009001999GF104991999999999999999999MA1101021999999REMMET051METAR SBLP 071700Z 27006KT 9999 SCT030 39/14 Q1010;
0120832880999992010100718004-13267-043417FM-15+0443SBLP V0203001N002112200019N0112651N1+03801+01401999999ADDGA1041+009001999GF104991999999999999999999MA1101021999999REMMET051METAR SBLP 071800Z 30004KT 9999 SCT030 38/14 Q1010;
0120832880999992010100719004-13267-043417FM-15+0443SBLP V0209999C000012200019N0112651N1+03901+01301999999ADDGA1041+009001999GF104991999999999999999999MA1100911999999REMMET051METAR SBLP 071900Z 00000KT 9999 SCT030 39/13 Q1009;
0120832880999992010100720004-13267-043417FM-15+0443SBLP V0209999C000012200019N0112651N1+03801+01401999999ADDGA1041+009001999GF104991999999999999999999MA1100911999999REMMET051METAR SBLP 072000Z 00000KT 9999 SCT030 38/14 Q1009;
0120832880999992010100721004-13267-043417FM-15+0443SBLP V0209999C000012200019N0112651N1+03601+01401999999ADDGA1021+009001999GF102991999999999999999999MA1101021999999REMMET051METAR SBLP 072100Z 00000KT 9999 FEW030 36/14 Q1010;
0072832880999992010100810004-13267-043417FM-15+0443SBLP V0203001N003119999999Y0099001N1+02701+01601999999ADDMA1101491999999REMMET045METAR SBLP 081000Z 30006KT CAVOK 27/16 Q1015;
0072832880999992010100811004-13267-043417FM-15+0443SBLP V0203601N002119999999Y0099001N1+02901+01601999999ADDMA1101591999999REMMET045METAR SBLP 081100Z 36004KT CAVOK 29/16 Q1016;
0072832880999992010100812004-13267-043417FM-15+0443SBLP V0203601N003119999999Y0099001N1+03101+01601999999ADDMA1101591999999REMMET045METAR SBLP 081200Z 36006KT CAVOK 31/16 Q1016;
0072832880999992010100813004-13267-043417FM-15+0443SBLP V0203301N003119999999Y0099001N1+03401+01601999999ADDMA1101591999999REMMET045METAR SBLP 081300Z 33006KT CAVOK 34/16 Q1016;
0072832880999992010100814004-13267-043417FM-15+0443SBLP V0203001N003119999999Y0099001N1+03601+01501999999ADDMA1101491999999REMMET045METAR SBLP 081400Z 30006KT CAVOK 36/15 Q1015;
0072832880999992010100815004-13267-043417FM-15+0443SBLP V0202401N003119999999Y0099001N1+03801+01001999999ADDMA1101391999999REMMET045METAR SBLP 081500Z 24006KT CAVOK 38/10 Q1014;
0072832880999992010100816004-13267-043417FM-15+0443SBLP V0203601N003119999999Y0099001N1+03801+01001999999ADDMA1101191999999REMMET045METAR SBLP 081600Z 36006KT CAVOK 38/10 Q1012;
0072832880999992010100817004-13267-043417FM-15+0443SBLP V0203601N003119999999Y0099001N1+03901+01001999999ADDMA1101081999999REMMET045METAR SBLP 081700Z 36006KT CAVOK 39/10 Q1011;
0072832880999992010100818004-13267-043417FM-15+0443SBLP V0203601N003119999999Y0099001N1+04001+01001999999ADDMA1101021999999REMMET045METAR SBLP 081800Z 36006KT CAVOK 40/10 Q1010;
0072832880999992010100819004-13267-043417FM-15+0443SBLP V0203601N003119999999Y0099001N1+04001+01001999999ADDMA1100911999999REMMET045METAR SBLP 081900Z 36006KT CAVOK 40/10 Q1009;
0072832880999992010100820004-13267-043417FM-15+0443SBLP V0209999C000019999999Y0099001N1+03901+01001999999ADDMA1101021999999REMMET045METAR SBLP 082000Z 00000KT CAVOK 39/10 Q1010;
0072832880999992010100821004-13267-043417FM-15+0443SBLP V0209999C000019999999Y0099001N1+03801+01001999999ADDMA1101021999999REMMET045METAR SBLP 082100Z 00000KT CAVOK 38/10 Q1010;
0072832880999992010100910004-13267-043417FM-15+0443SBLP V0209999C000019999999Y0099001N1+02701+01501999999ADDMA1101491999999REMMET045METAR SBLP 091000Z 00000KT CAVOK 27/15 Q1015;
0072832880999992010100911004-13267-043417FM-15+0443SBLP V0209999C000019999999Y0099001N1+02901+01501999999ADDMA1101491999999REMMET045METAR SBLP 091100Z 00000KT CAVOK 29/15 Q1015;
0072832880999992010100912004-13267-043417FM-15+0443SBLP V0203601N003119999999Y0099001N1+03301+01401999999ADDMA1101491999999REMMET045METAR SBLP 091200Z 36006KT CAVOK 33/14 Q1015;
0072832880999992010100913004-13267-043417FM-15+0443SBLP V0203601N003119999999Y0099001N1+03601+01301999999ADDMA1101491999999REMMET045METAR SBLP 091300Z 36006KT CAVOK 36/13 Q1015;
0072832880999992010100914004-13267-043417FM-15+0443SBLP V0203601N003119999999Y0099001N1+03801+01201999999ADDMA1101391999999REMMET045METAR SBLP 091400Z 36006KT CAVOK 38/12 Q1014;
0072832880999992010100915004-13267-043417FM-15+0443SBLP V0203601N003119999999Y0099001N1+03901+01201999999ADDMA1101291999999REMMET045METAR SBLP 091500Z 36006KT CAVOK 39/12 Q1013;
0072832880999992010100916004-13267-043417FM-15+0443SBLP V0203001N003119999999Y0099001N1+03901+01201999999ADDMA1101081999999REMMET045METAR SBLP 091600Z 30006KT CAVOK 39/12 Q1011;
0072832880999992010100917004-13267-043417FM-15+0443SBLP V0209999C000019999999Y0099001N1+03901+01201999999ADDMA1101021999999REMMET045METAR SBLP 091700Z 00000KT CAVOK 39/12 Q1010;
0120832880999992010100918004-13267-043417FM-15+0443SBLP V0202401N002112200019N0112651N1+04001+01201999999ADDGA1021+009001999GF102991999999999999999999MA1100911999999REMMET051METAR SBLP 091800Z 24004KT 9999 FEW030 40/12 Q1009;
0120832880999992010100919004-13267-043417FM-15+0443SBLP V0209999C000012200019N0112651N1+04001+01101999999ADDGA1021+009001999GF102991999999999999999999MA1100911999999REMMET051METAR SBLP 091900Z 00000KT 9999 FEW030 40/11 Q1009;
0120832880999992010100920004-13267-043417FM-15+0443SBLP V0209999C000012200019N0112651N1+03901+01301999999ADDGA1021+009001999GF102991999999999999999999MA1100911999999REMMET051METAR SBLP 092000Z 00000KT 9999 FEW030 39/13 Q1009;
0072832880999992010100921004-13267-043417FM-15+0443SBLP V0209999C000019999999Y0099001N1+03601+01401999999ADDMA1100911999999REMMET045METAR SBLP 092100Z 00000KT CAVOK 36/14 Q1009;
0143832880999992010101010004-13267-043417FM-15+0443SBLP V0201801N003110300019N0112651N1+02801+01901999999ADDGA1021+006001999GA2071+030001999GF107991999999999999999999MA1101691999999REMMET058METAR SBLP 101000Z 18006KT 9999 FEW020 BKN100 28/19 Q1017;
0143832880999992010101011004-13267-043417FM-15+0443SBLP V0201801N003110300019N0112651N1+03001+01801999999ADDGA1021+009001999GA2071+030001999GF107991999999999999999999MA1101801999999REMMET058METAR SBLP 101100Z 18006KT 9999 FEW030 BKN100 30/18 Q1018;
0143832880999992010101012004-13267-043417FM-15+0443SBLP V0201801N003112200019N0112651N1+03101+01801999999ADDGA1021+009001999GA2041+030001999GF104991999999999999999999MA1101801999999REMMET058METAR SBLP 101200Z 18006KT 9999 FEW030 SCT100 31/18 Q1018;
0143832880999992010101013004-13267-043417FM-15+0443SBLP V0201801N003112200019N0112651N1+03201+01801999999ADDGA1021+009001999GA2041+030001999GF104991999999999999999999MA1101691999999REMMET058METAR SBLP 101300Z 18006KT 9999 FEW030 SCT100 32/18 Q1017;
0120832880999992010101014004-13267-043417FM-15+0443SBLP V0200901N003112200019N0112651N1+03401+01601999999ADDGA1021+009001999GF102991999999999999999999MA1101591999999REMMET051METAR SBLP 101400Z 09006KT 9999 FEW030 34/16 Q1016;
0072832880999992010101015004-13267-043417FM-15+0443SBLP V0200901N003119999999Y0099001N1+03501+01601999999ADDMA1101491999999REMMET045METAR SBLP 101500Z 09006KT CAVOK 35/16 Q1015;
0120832880999992010101016004-13267-043417FM-15+0443SBLP V0201201N001512200019N0112651N1+03701+01401999999ADDGA1021+009001999GF102991999999999999999999MA1101291999999REMMET051METAR SBLP 101600Z 12003KT 9999 FEW030 37/14 Q1013;
0120832880999992010101017004-13267-043417FM-15+0443SBLP V0200901N002112200019N0112651N1+03901+01501999999ADDGA1021+009001999GF102991999999999999999999MA1101191999999REMMET051METAR SBLP 101700Z 09004KT 9999 FEW030 39/15 Q1012;
0120832880999992010101018004-13267-043417FM-15+0443SBLP V0202701N002112200019N0112651N1+03901+01301999999ADDGA1021+009001999GF102991999999999999999999MA1101081999999REMMET051METAR SBLP 101800Z 27004KT 9999 FEW030 39/13 Q1011;
0120832880999992010101019004-13267-043417FM-15+0443SBLP V0200401N002112200019N0112651N1+03901+01201999999ADDGA1021+009001999GF102991999999999999999999MA1101081999999REMMET051METAR SBLP 101900Z 04004KT 9999 FEW030 39/12 Q1011;
0120832880999992010101020004-13267-043417FM-15+0443SBLP V0209999C000012200019N0112651N1+03801+01201999999ADDGA1041+009001999GF104991999999999999999999MA1101081999999REMMET051METAR SBLP 102000Z 00000KT 9999 SCT030 38/12 Q1011;
0120832880999992010101021004-13267-043417FM-15+0443SBLP V0200601N002110090019N0112651N1+03701+01301999999ADDGA1071+009001999GF107991999999999999999999MA1101081999999REMMET051METAR SBLP 102100Z 06004KT 9999 BKN030 37/13 Q1011;
0072832880999992010101110004-13267-043417FM-15+0443SBLP V0209999C000019999999Y0099001N1+02601+01801999999ADDMA1101591999999REMMET045METAR SBLP 111000Z 00000KT CAVOK 26/18 Q1016;
0072832880999992010101111004-13267-043417FM-15+0443SBLP V0200901N003119999999Y0099001N1+02901+01701999999ADDMA1101691999999REMMET045METAR SBLP 111100Z 09006KT CAVOK 29/17 Q1017;
0072832880999992010101112004-13267-043417FM-15+0443SBLP V0200901N003119999999Y0099001N1+03101+01601999999ADDMA1101691999999REMMET045METAR SBLP 111200Z 09006KT CAVOK 31/16 Q1017;
0072832880999992010101113004-13267-043417FM-15+0443SBLP V0200901N003119999999Y0099001N1+03401+01401999999ADDMA1101691999999REMMET045METAR SBLP 111300Z 09006KT CAVOK 34/14 Q1017;
0072832880999992010101114004-13267-043417FM-15+0443SBLP V0200901N003119999999Y0099001N1+03501+01401999999ADDMA1101591999999REMMET045METAR SBLP 111400Z 09006KT CAVOK 35/14 Q1016;
0072832880999992010101115004-13267-043417FM-15+0443SBLP V0201801N003119999999Y0099001N1+03501+01401999999ADDMA1101491999999REMMET045METAR SBLP 111500Z 18006KT CAVOK 35/14 Q1015;
0120832880999992010101116004-13267-043417FM-15+0443SBLP V0200301N002112200019N0112651N1+03701+01401999999ADDGA1021+009001999GF102991999999999999999999MA1101291999999REMMET051METAR SBLP 111600Z 03004KT 9999 FEW030 37/14 Q1013;
0120832880999992010101117004-13267-043417FM-15+0443SBLP V0202401N002612200019N0112651N1+03701+01401999999ADDGA1021+009001999GF102991999999999999999999MA1101191999999REMMET051METAR SBLP 111700Z 24005KT 9999 FEW030 37/14 Q1012;
0120832880999992010101118004-13267-043417FM-15+0443SBLP V0202401N003112200019N0112651N1+03801+01501999999ADDGA1021+009001999GF102991999999999999999999MA1101081999999REMMET051METAR SBLP 111800Z 24006KT 9999 FEW030 38/15 Q1011;
0120832880999992010101119004-13267-043417FM-15+0443SBLP V0202201N003112200019N0112651N1+03701+01401999999ADDGA1021+009001999GF102991999999999999999999MA1101081999999REMMET051METAR SBLP 111900Z 22006KT 9999 FEW030 37/14 Q1011;
0120832880999992010101120004-13267-043417FM-15+0443SBLP V0202401N001512200019N0112651N1+03701+01401999999ADDGA1021+009001999GF102991999999999999999999MA1101081999999REMMET051METAR SBLP 112000Z 24003KT 9999 FEW030 37/14 Q1011;
0072832880999992010101121004-13267-043417FM-15+0443SBLP V0209999C000019999999Y0099001N1+03401+01601999999ADDMA1101081999999REMMET045METAR SBLP 112100Z 00000KT CAVOK 34/16 Q1011;
0072832880999992010101210004-13267-043417FM-15+0443SBLP V0202101N003119999999Y0099001N1+02501+01801999999ADDMA1101591999999REMMET045METAR SBLP 121000Z 21006KT CAVOK 25/18 Q1016;
0072832880999992010101211004-13267-043417FM-15+0443SBLP V0201801N004119999999Y0099001N1+02801+01801999999ADDMA1101691999999REMMET045METAR SBLP 121100Z 18008KT CAVOK 28/18 Q1017;
0072832880999992010101212004-13267-043417FM-15+0443SBLP V0201801N005119999999Y0099001N1+03101+01701999999ADDMA1101591999999REMMET045METAR SBLP 121200Z 18010KT CAVOK 31/17 Q1016;
0072832880999992010101213004-13267-043417FM-15+0443SBLP V0201901N001519999999Y0099001N1+03201+01601999999ADDMA1101591999999REMMET045METAR SBLP 121300Z 19003KT CAVOK 32/16 Q1016;
0072832880999992010101214004-13267-043417FM-15+0443SBLP V0202401N002619999999Y0099001N1+03401+01601999999ADDMA1101491999999REMMET045METAR SBLP 121400Z 24005KT CAVOK 34/16 Q1015;
0120832880999992010101215004-13267-043417FM-15+0443SBLP V0201601N001512200019N0112651N1+03501+01601999999ADDGA1021+009001999GF102991999999999999999999MA1101391999999REMMET051METAR SBLP 121500Z 16003KT 9999 FEW030 35/16 Q1014;
0120832880999992010101216004-13267-043417FM-15+0443SBLP V0203001N003112200019N0112651N1+03601+01601999999ADDGA1021+009001999GF102991999999999999999999MA1101291999999REMMET051METAR SBLP 121600Z 30006KT 9999 FEW030 36/16 Q1013;
0120832880999992010101217004-13267-043417FM-15+0443SBLP V0201801N003112200019N0112651N1+03601+01601999999ADDGA1021+009001999GF102991999999999999999999MA1101191999999REMMET051METAR SBLP 121700Z 18006KT 9999 FEW030 36/16 Q1012;
0120832880999992010101218004-13267-043417FM-15+0443SBLP V0209999C000012200019N0112651N1+03701+01501999999ADDGA1021+009001999GF102991999999999999999999MA1101081999999REMMET051METAR SBLP 121800Z 00000KT 9999 FEW030 37/15 Q1011;
0120832880999992010101219004-13267-043417FM-15+0443SBLP V0209999C000012200019N0112651N1+03701+01501999999ADDGA1041+009001999GF104991999999999999999999MA1101021999999REMMET051METAR SBLP 121900Z 00000KT 9999 SCT030 37/15 Q1010;
0120832880999992010101220004-13267-043417FM-15+0443SBLP V0209999C000012200019N0112651N1+03601+01501999999ADDGA1021+009001999GF102991999999999999999999MA1101021999999REMMET051METAR SBLP 122000Z 00000KT 9999 FEW030 36/15 Q1010;
0120832880999992010101221004-13267-043417FM-15+0443SBLP V0200901N003112200019N0112651N1+03301+01701999999ADDGA1021+009001999GF102991999999999999999999MA1101081999999REMMET051METAR SBLP 122100Z 09006KT 9999 FEW030 33/17 Q1011;
0072832880999992010101310004-13267-043417FM-15+0443SBLP V0201201N003119999999Y0099001N1+02801+01701999999ADDMA1101491999999REMMET045METAR SBLP 131000Z 12006KT CAVOK 28/17 Q1015;
0072832880999992010101311004-13267-043417FM-15+0443SBLP V0200901N003119999999Y0099001N1+03001+01701999999ADDMA1101591999999REMMET045METAR SBLP 131100Z 09006KT CAVOK 30/17 Q1016;
0072832880999992010101312004-13267-043417FM-15+0443SBLP V0200901N003119999999Y0099001N1+03201+01701999999ADDMA1101591999999REMMET045METAR SBLP 131200Z 09006KT CAVOK 32/17 Q1016;
0072832880999992010101314004-13267-043417FM-15+0443SBLP V0200601N003119999999Y0099001N1+03601+01601999999ADDMA1101491999999REMMET045METAR SBLP 131400Z 06006KT CAVOK 36/16 Q1015;
0120832880999992010101315004-13267-043417FM-15+0443SBLP V0200601N003112200019N0112651N1+03601+01601999999ADDGA1021+009001999GF102991999999999999999999MA1101391999999REMMET051METAR SBLP 131500Z 06006KT 9999 FEW030 36/16 Q1014;
0120832880999992010101316004-13267-043417FM-15+0443SBLP V0200901N003112200019N0112651N1+03801+01501999999ADDGA1041+009001999GF104991999999999999999999MA1101191999999REMMET051METAR SBLP 131600Z 09006KT 9999 SCT030 38/15 Q1012;
0120832880999992010101317004-13267-043417FM-15+0443SBLP V0200901N003112200019N0112651N1+03901+01401999999ADDGA1041+009001999GF104991999999999999999999MA1101081999999REMMET051METAR SBLP 131700Z 09006KT 9999 SCT030 39/14 Q1011;
0120832880999992010101318004-13267-043417FM-15+0443SBLP V0201801N003112200019N0112651N1+03801+01501999999ADDGA1041+009001999GF104991999999999999999999MA1101081999999REMMET051METAR SBLP 131800Z 18006KT 9999 SCT030 38/15 Q1011;
0147832880999992010101319004-13267-043417FM-15+0443SBLP V0201801N003112200019N0112651N1+03701+01501999999ADDGA1041+009001999GA2021+012001091MA1101081999999MW1171REMMET063METAR SBLP 131900Z 18006KT 9999 TS SCT030 FEW040CB 37/15 Q1011;EQDQ01+000022SCOTCV
0147832880999992010101320004-13267-043417FM-15+0443SBLP V0200901N003112200019N0112651N1+03501+01601999999ADDGA1041+009001999GA2021+012001091MA1101081999999MW1171REMMET063METAR SBLP 132000Z 09006KT 9999 TS SCT030 FEW040CB 35/16 Q1011;EQDQ01+000022SCOTCV
0147832880999992010101321004-13267-043417FM-15+0443SBLP V0200901N003112200019N0112651N1+03301+01701999999ADDGA1041+009001999GA2021+012001091MA1101081999999MW1171REMMET063METAR SBLP 132100Z 09006KT 9999 TS SCT030 FEW040CB 33/17 Q1011;EQDQ01+000022SCOTCV
0072832880999992010101410004-13267-043417FM-15+0443SBLP V0200401N002119999999Y0099001N1+02401+01801999999ADDMA1101801999999REMMET045METAR SBLP 141000Z 04004KT CAVOK 24/18 Q1018;
0072832880999992010101411004-13267-043417FM-15+0443SBLP V0200401N003119999999Y0099001N1+02701+01801999999ADDMA1101801999999REMMET045METAR SBLP 141100Z 04006KT CAVOK 27/18 Q1018;
0072832880999992010101412004-13267-043417FM-15+0443SBLP V0200901N003119999999Y0099001N1+03001+01801999999ADDMA1101801999999REMMET045METAR SBLP 141200Z 09006KT CAVOK 30/18 Q1018;
0072832880999992010101413004-13267-043417FM-15+0443SBLP V0200901N003119999999Y0099001N1+03301+01701999999ADDMA1101691999999REMMET045METAR SBLP 141300Z 09006KT CAVOK 33/17 Q1017;
0072832880999992010101414004-13267-043417FM-15+0443SBLP V0201201N003119999999Y0099001N1+03401+01601999999ADDMA1101591999999REMMET045METAR SBLP 141400Z 12006KT CAVOK 34/16 Q1016;
0120832880999992010101415004-13267-043417FM-15+0443SBLP V0200901N003112200019N0112651N1+03501+01601999999ADDGA1021+009001999GF102991999999999999999999MA1101491999999REMMET051METAR SBLP 141500Z 09006KT 9999 FEW030 35/16 Q1015;
0120832880999992010101416004-13267-043417FM-15+0443SBLP V0200901N003112200019N0112651N1+03701+01501999999ADDGA1021+009001999GF102991999999999999999999MA1101291999999REMMET051METAR SBLP 141600Z 09006KT 9999 FEW030 37/15 Q1013;
0120832880999992010101417004-13267-043417FM-15+0443SBLP V0200901N003112200019N0112651N1+03801+01501999999ADDGA1041+009001999GF104991999999999999999999MA1101191999999REMMET051METAR SBLP 141700Z 09006KT 9999 SCT030 38/15 Q1012;
0120832880999992010101418004-13267-043417FM-15+0443SBLP V0200901N003112200019N0112651N1+03901+01401999999ADDGA1041+009001999GF104991999999999999999999MA1101191999999REMMET051METAR SBLP 141800Z 09006KT 9999 SCT030 39/14 Q1012;
0120832880999992010101419004-13267-043417FM-15+0443SBLP V0200901N003112200019N0112651N1+03901+01401999999ADDGA1041+009001999GF104991999999999999999999MA1101081999999REMMET051METAR SBLP 141900Z 09006KT 9999 SCT030 39/14 Q1011;
0120832880999992010101420004-13267-043417FM-15+0443SBLP V0200901N003112200019N0112651N1+03701+01501999999ADDGA1021+009001999GF102991999999999999999999MA1101081999999REMMET051METAR SBLP 142000Z 09006KT 9999 FEW030 37/15 Q1011;
0120832880999992010101421004-13267-043417FM-15+0443SBLP V0200901N003112200019N0112651N1+03501+01601999999ADDGA1021+009001999GF102991999999999999999999MA1101191999999REMMET051METAR SBLP 142100Z 09006KT 9999 FEW030 35/16 Q1012;
0072832880999992010101510004-13267-043417FM-15+0443SBLP V0209999C000019999999Y0099001N1+02601+01801999999ADDMA1101591999999REMMET045METAR SBLP 151000Z 00000KT CAVOK 26/18 Q1016;
0072832880999992010101511004-13267-043417FM-15+0443SBLP V0200901N003119999999Y0099001N1+02901+01701999999ADDMA1101691999999REMMET045METAR SBLP 151100Z 09006KT CAVOK 29/17 Q1017;
0072832880999992010101512004-13267-043417FM-15+0443SBLP V0200901N003119999999Y0099001N1+03101+01601999999ADDMA1101691999999REMMET045METAR SBLP 151200Z 09006KT CAVOK 31/16 Q1017;
0072832880999992010101513004-13267-043417FM-15+0443SBLP V0200901N003119999999Y0099001N1+03301+01401999999ADDMA1101591999999REMMET045METAR SBLP 151300Z 09006KT CAVOK 33/14 Q1016;
0120832880999992010101514004-13267-043417FM-15+0443SBLP V0200901N003112200019N0112651N1+03501+01401999999ADDGA1021+009001999GF102991999999999999999999MA1101491999999REMMET051METAR SBLP 151400Z 09006KT 9999 FEW030 35/14 Q1015;
0120832880999992010101515004-13267-043417FM-15+0443SBLP V0200901N003112200019N0112651N1+03501+01401999999ADDGA1021+009001999GF102991999999999999999999MA1101391999999REMMET051METAR SBLP 151500Z 09006KT 9999 FEW030 35/14 Q1014;
0120832880999992010101516004-13267-043417FM-15+0443SBLP V0201101N003112200019N0112651N1+03801+01301999999ADDGA1041+009001999GF104991999999999999999999MA1101291999999REMMET051METAR SBLP 151600Z 11006KT 9999 SCT030 38/13 Q1013;
0120832880999992010101517004-13267-043417FM-15+0443SBLP V0201201N004112200019N0112651N1+03901+01101999999ADDGA1041+009001999GF104991999999999999999999MA1101081999999REMMET051METAR SBLP 151700Z 12008KT 9999 SCT030 39/11 Q1011;
0120832880999992010101518004-13267-043417FM-15+0443SBLP V0201201N002612200019N0112651N1+03901+01101999999ADDGA1041+009001999GF104991999999999999999999MA1101021999999REMMET051METAR SBLP 151800Z 12005KT 9999 SCT030 39/11 Q1010;
0120832880999992010101519004-13267-043417FM-15+0443SBLP V0201201N003112200019N0112651N1+03801+01101999999ADDGA1021+009001999GF102991999999999999999999MA1101021999999REMMET051METAR SBLP 151900Z 12006KT 9999 FEW030 38/11 Q1010;
0120832880999992010101520004-13267-043417FM-15+0443SBLP V0201801N004112200019N0112651N1+03701+01201999999ADDGA1021+009001999GF102991999999999999999999MA1101081999999REMMET051METAR SBLP 152000Z 18008KT 9999 FEW030 37/12 Q1011;
0120832880999992010101521004-13267-043417FM-15+0443SBLP V0201501N004112200019N0112651N1+03501+01501999999ADDGA1021+009001999GF102991999999999999999999MA1101081999999REMMET051METAR SBLP 152100Z 15008KT 9999 FEW030 35/15 Q1011;
0072832880999992010101610004-13267-043417FM-15+0443SBLP V0209999C000019999999Y0099001N1+02601+01801999999ADDMA1101591999999REMMET045METAR SBLP 161000Z 00000KT CAVOK 26/18 Q1016;
0072832880999992010101611004-13267-043417FM-15+0443SBLP V0200901N003119999999Y0099001N1+02901+01601999999ADDMA1101591999999REMMET045METAR SBLP 161100Z 09006KT CAVOK 29/16 Q1016;
0072832880999992010101612004-13267-043417FM-15+0443SBLP V0200901N003119999999Y0099001N1+03101+01501999999ADDMA1101591999999REMMET045METAR SBLP 161200Z 09006KT CAVOK 31/15 Q1016;
0072832880999992010101613004-13267-043417FM-15+0443SBLP V0200901N003119999999Y0099001N1+03301+01401999999ADDMA1101591999999REMMET045METAR SBLP 161300Z 09006KT CAVOK 33/14 Q1016;
0120832880999992010101615004-13267-043417FM-15+0443SBLP V0200901N003112200019N0112651N1+03501+01301999999ADDGA1021+009001999GF102991999999999999999999MA1101391999999REMMET051METAR SBLP 161500Z 09006KT 9999 FEW030 35/13 Q1014;
0120832880999992010101616004-13267-043417FM-15+0443SBLP V0201801N003112200019N0112651N1+03601+01501999999ADDGA1041+009001999GF104991999999999999999999MA1101191999999REMMET051METAR SBLP 161600Z 18006KT 9999 SCT030 36/15 Q1012;
0120832880999992010101617004-13267-043417FM-15+0443SBLP V0201201N003112200019N0112651N1+03601+01401999999ADDGA1041+009001999GF104991999999999999999999MA1101081999999REMMET051METAR SBLP 161700Z 12006KT 9999 SCT030 36/14 Q1011;
0120832880999992010101618004-13267-043417FM-15+0443SBLP V0201501N003112200019N0112651N1+03701+01401999999ADDGA1041+009001999GF104991999999999999999999MA1101021999999REMMET051METAR SBLP 161800Z 15006KT 9999 SCT030 37/14 Q1010;
0120832880999992010101619004-13267-043417FM-15+0443SBLP V0202101N003112200019N0112651N1+03801+01401999999ADDGA1041+009001999GF104991999999999999999999MA1100911999999REMMET051METAR SBLP 161900Z 21006KT 9999 SCT030 38/14 Q1009;
0120832880999992010101620004-13267-043417FM-15+0443SBLP V0201801N004112200019N0112651N1+03701+01501999999ADDGA1041+009001999GF104991999999999999999999MA1100911999999REMMET051METAR SBLP 162000Z 18008KT 9999 SCT030 37/15 Q1009;
0120832880999992010101621004-13267-043417FM-15+0443SBLP V0202101N002112200019N0112651N1+03501+01301999999ADDGA1041+009001999GF104991999999999999999999MA1101021999999REMMET051METAR SBLP 162100Z 21004KT 9999 SCT030 35/13 Q1010;
0072832880999992010101710004-13267-043417FM-15+0443SBLP V0200601N002619999999Y0099001N1+02701+01401999999ADDMA1101391999999REMMET045METAR SBLP 171000Z 06005KT CAVOK 27/14 Q1014;
0072832880999992010101711004-13267-043417FM-15+0443SBLP V0200601N002119999999Y0099001N1+02901+01401999999ADDMA1101491999999REMMET045METAR SBLP 171100Z 06004KT CAVOK 29/14 Q1015;
0072832880999992010101712004-13267-043417FM-15+0443SBLP V0201101N003119999999Y0099001N1+03101+01401999999ADDMA1101491999999REMMET045METAR SBLP 171200Z 11006KT CAVOK 31/14 Q1015;
0072832880999992010101713004-13267-043417FM-15+0443SBLP V0200301N002119999999Y0099001N1+03401+01301999999ADDMA1101391999999REMMET045METAR SBLP 171300Z 03004KT CAVOK 34/13 Q1014;
0072832880999992010101714004-13267-043417FM-15+0443SBLP V0209999C000019999999Y0099001N1+03501+01401999999ADDMA1101291999999REMMET045METAR SBLP 171400Z 00000KT CAVOK 35/14 Q1013;
0120832880999992010101715004-13267-043417FM-15+0443SBLP V0202401N001512200019N0112651N1+03501+01301999999ADDGA1021+009001999GF102991999999999999999999MA1101191999999REMMET051METAR SBLP 171500Z 24003KT 9999 FEW030 35/13 Q1012;
0120832880999992010101716004-13267-043417FM-15+0443SBLP V0202401N004112200019N0112651N1+03701+01501999999ADDGA1041+009001999GF104991999999999999999999MA1101021999999REMMET051METAR SBLP 171600Z 24008KT 9999 SCT030 37/15 Q1010;
0120832880999992010101717004-13267-043417FM-15+0443SBLP V0202101N004112200019N0112651N1+03801+01401999999ADDGA1041+009001999GF104991999999999999999999MA1100911999999REMMET051METAR SBLP 171700Z 21008KT 9999 SCT030 38/14 Q1009;
0120832880999992010101718004-13267-043417FM-15+0443SBLP V0201801N003112200019N0112651N1+03701+01401999999ADDGA1041+009001999GF104991999999999999999999MA1100911999999REMMET051METAR SBLP 171800Z 18006KT 9999 SCT030 37/14 Q1009;
0120832880999992010101719004-13267-043417FM-15+0443SBLP V0202401N002612200019N0112651N1+03701+01401999999ADDGA1041+009001999GF104991999999999999999999MA1100811999999REMMET051METAR SBLP 171900Z 24005KT 9999 SCT030 37/14 Q1008;
0120832880999992010101720004-13267-043417FM-15+0443SBLP V0202101N003112200019N0112651N1+03601+01501999999ADDGA1021+009001999GF102991999999999999999999MA1100811999999REMMET051METAR SBLP 172000Z 21006KT 9999 FEW030 36/15 Q1008;
0120832880999992010101721004-13267-043417FM-15+0443SBLP V0201801N002112200019N0112651N1+03401+01401999999ADDGA1021+009001999GF102991999999999999999999MA1100911999999REMMET051METAR SBLP 172100Z 18004KT 9999 FEW030 34/14 Q1009;
0072832880999992010101810004-13267-043417FM-15+0443SBLP V0203601N002119999999Y0099001N1+02701+01601999999ADDMA1101291999999REMMET045METAR SBLP 181000Z 36004KT CAVOK 27/16 Q1013;
0072832880999992010101811004-13267-043417FM-15+0443SBLP V0200301N004119999999Y0099001N1+03101+01601999999ADDMA1101291999999REMMET045METAR SBLP 181100Z 03008KT CAVOK 31/16 Q1013;
0072832880999992010101812004-13267-043417FM-15+0443SBLP V0200601N001519999999Y0099001N1+03201+01501999999ADDMA1101291999999REMMET045METAR SBLP 181200Z 06003KT CAVOK 32/15 Q1013;
0072832880999992010101813004-13267-043417FM-15+0443SBLP V0203601N003119999999Y0099001N1+03501+01601999999ADDMA1101291999999REMMET045METAR SBLP 181300Z 36006KT CAVOK 35/16 Q1013;
0072832880999992010101814004-13267-043417FM-15+0443SBLP V0203601N004119999999Y0099001N1+03501+01501999999ADDMA1101191999999REMMET045METAR SBLP 181400Z 36008KT CAVOK 35/15 Q1012;
0072832880999992010101815004-13267-043417FM-15+0443SBLP V0203001N003119999999Y0099001N1+03701+01401999999ADDMA1101081999999REMMET045METAR SBLP 181500Z 30006KT CAVOK 37/14 Q1011;
0120832880999992010101816004-13267-043417FM-15+0443SBLP V0203001N002112200019N0112651N1+03801+01401999999ADDGA1021+009001999GF102991999999999999999999MA1101021999999REMMET051METAR SBLP 181600Z 30004KT 9999 FEW030 38/14 Q1010;
0120832880999992010101817004-13267-043417FM-15+0443SBLP V0202701N003112200019N0112651N1+03901+01401999999ADDGA1041+009001999GF104991999999999999999999MA1100811999999REMMET051METAR SBLP 181700Z 27006KT 9999 SCT030 39/14 Q1008;
0120832880999992010101818004-13267-043417FM-15+0443SBLP V0203001N003112200019N0112651N1+03901+01401999999ADDGA1041+009001999GF104991999999999999999999MA1100811999999REMMET051METAR SBLP 181800Z 30006KT 9999 SCT030 39/14 Q1008;
0120832880999992010101819004-13267-043417FM-15+0443SBLP V0203301N003112200019N0112651N1+03701+01401999999ADDGA1041+009001999GF104991999999999999999999MA1100711999999REMMET051METAR SBLP 181900Z 33006KT 9999 SCT030 37/14 Q1007;
0120832880999992010101820004-13267-043417FM-15+0443SBLP V0203601N003112200019N0112651N1+03701+01501999999ADDGA1021+009001999GF102991999999999999999999MA1100711999999REMMET051METAR SBLP 182000Z 36006KT 9999 FEW030 37/15 Q1007;
0120832880999992010101821004-13267-043417FM-15+0443SBLP V0203601N003112200019N0112651N1+03501+01601999999ADDGA1041+009001999GF104991999999999999999999MA1100811999999REMMET051METAR SBLP 182100Z 36006KT 9999 SCT030 35/16 Q1008;
0143832880999992010101910004-13267-043417FM-15+0443SBLP V0201801N002110300019N0112651N1+02501+02301999999ADDGA1021+006001999GA2071+030001999GF107991999999999999999999MA1101391999999REMMET058METAR SBLP 191000Z 18004KT 9999 FEW020 BKN100 25/23 Q1014;
0072832880999992010101911004-13267-043417FM-15+0443SBLP V0201601N003119999999Y0099001N1+02601+02201999999ADDMA1101391999999REMMET045METAR SBLP 191100Z 16006KT CAVOK 26/22 Q1014;
0143832880999992010101912004-13267-043417FM-15+0443SBLP V0202101N002112200019N0112651N1+03001+02201999999ADDGA1021+009001999GA2041+030001999GF104991999999999999999999MA1101391999999REMMET058METAR SBLP 191200Z 21004KT 9999 FEW030 SCT100 30/22 Q1014;
0143832880999992010101913004-13267-043417FM-15+0443SBLP V0201801N003112200019N0112651N1+03101+02101999999ADDGA1021+009001999GA2041+030001999GF104991999999999999999999MA1101391999999REMMET058METAR SBLP 191300Z 18006KT 9999 FEW030 SCT100 31/21 Q1014;
0120832880999992010101914004-13267-043417FM-15+0443SBLP V0201801N003112200019N0112651N1+03201+02101999999ADDGA1021+009001999GF102991999999999999999999MA1101291999999REMMET051METAR SBLP 191400Z 18006KT 9999 FEW030 32/21 Q1013;
0120832880999992010101915004-13267-043417FM-15+0443SBLP V0200601N002112200019N0112651N1+03401+02101999999ADDGA1041+009001999GF104991999999999999999999MA1101191999999REMMET051METAR SBLP 191500Z 06004KT 9999 SCT030 34/21 Q1012;
0120832880999992010101916004-13267-043417FM-15+0443SBLP V0200901N003112200019N0112651N1+03401+02001999999ADDGA1041+009001999GF104991999999999999999999MA1101021999999REMMET051METAR SBLP 191600Z 09006KT 9999 SCT030 34/20 Q1010;
0120832880999992010101917004-13267-043417FM-15+0443SBLP V0200901N003112200019N0112651N1+03501+01901999999ADDGA1041+009001999GF104991999999999999999999MA1100911999999REMMET051METAR SBLP 191700Z 09006KT 9999 SCT030 35/19 Q1009;
0120832880999992010101918004-13267-043417FM-15+0443SBLP V0203601N003112200019N0112651N1+03501+01901999999ADDGA1041+009001999GF104991999999999999999999MA1100911999999REMMET051METAR SBLP 191800Z 36006KT 9999 SCT030 35/19 Q1009;
0120832880999992010101919004-13267-043417FM-15+0443SBLP V0203601N003112200019N0112651N1+03501+01801999999ADDGA1041+009001999GF104991999999999999999999MA1100911999999REMMET051METAR SBLP 191900Z 36006KT 9999 SCT030 35/18 Q1009;
0120832880999992010101920004-13267-043417FM-15+0443SBLP V0203601N003112200019N0112651N1+03401+01801999999ADDGA1041+009001999GF104991999999999999999999MA1100911999999REMMET051METAR SBLP 192000Z 36006KT 9999 SCT030 34/18 Q1009;
0120832880999992010101921004-13267-043417FM-15+0443SBLP V0209999C000012200019N0112651N1+03301+01901999999ADDGA1041+009001999GF104991999999999999999999MA1101021999999REMMET051METAR SBLP 192100Z 00000KT 9999 SCT030 33/19 Q1010;
0143832880999992010102010004-13267-043417FM-15+0443SBLP V0209999C000010300019N0112651N1+02301+02101999999ADDGA1021+006001999GA2071+030001999GF107991999999999999999999MA1101391999999REMMET058METAR SBLP 201000Z 00000KT 9999 FEW020 BKN100 23/21 Q1014;
0143832880999992010102011004-13267-043417FM-15+0443SBLP V0209999C000010300019N0112651N1+02501+02201999999ADDGA1041+006001999GA2071+030001999GF107991999999999999999999MA1101491999999REMMET058METAR SBLP 201100Z 00000KT 9999 SCT020 BKN100 25/22 Q1015;
0143832880999992010102012004-13267-043417FM-15+0443SBLP V0209999C000010300019N0112651N1+02601+02201999999ADDGA1041+006001999GA2071+030001999GF107991999999999999999999MA1101491999999REMMET058METAR SBLP 201200Z 00000KT 9999 SCT020 BKN100 26/22 Q1015;
0143832880999992010102013004-13267-043417FM-15+0443SBLP V0209999C000010300019N0112651N1+02801+02201999999ADDGA1041+006001999GA2071+030001999GF107991999999999999999999MA1101491999999REMMET058METAR SBLP 201300Z 00000KT 9999 SCT020 BKN100 28/22 Q1015;
0143832880999992010102014004-13267-043417FM-15+0443SBLP V0202101N003112200019N0112651N1+03101+02101999999ADDGA1021+006001999GA2041+030001999GF104991999999999999999999MA1101391999999REMMET058METAR SBLP 201400Z 21006KT 9999 FEW020 SCT100 31/21 Q1014;
0143832880999992010102015004-13267-043417FM-15+0443SBLP V0209999C000012200019N0112651N1+03101+02201999999ADDGA1021+009001999GA2041+030001999GF104991999999999999999999MA1101291999999REMMET058METAR SBLP 201500Z 00000KT 9999 FEW030 SCT100 31/22 Q1013;
0120832880999992010102016004-13267-043417FM-15+0443SBLP V0209999C000012200019N0112651N1+03201+02001999999ADDGA1021+009001999GF102991999999999999999999MA1101081999999REMMET051METAR SBLP 201600Z 00000KT 9999 FEW030 32/20 Q1011;
0120832880999992010102017004-13267-043417FM-15+0443SBLP V0202501N002112200019N0112651N1+03401+01901999999ADDGA1021+009001999GF102991999999999999999999MA1101021999999REMMET051METAR SBLP 201700Z 25004KT 9999 FEW030 34/19 Q1010;
0120832880999992010102018004-13267-043417FM-15+0443SBLP V0201801N003112200019N0112651N1+03501+01701999999ADDGA1021+009001999GF102991999999999999999999MA1100911999999REMMET051METAR SBLP 201800Z 18006KT 9999 FEW030 35/17 Q1009;
0120832880999992010102019004-13267-043417FM-15+0443SBLP V0202401N001512200019N0112651N1+03401+01901999999ADDGA1041+009001999GF104991999999999999999999MA1100911999999REMMET051METAR SBLP 201900Z 24003KT 9999 SCT030 34/19 Q1009;
0143832880999992010102020004-13267-043417FM-15+0443SBLP V0202101N001512200019N0112651N1+03301+01801999999ADDGA1021+009001999GA2041+030001999GF104991999999999999999999MA1100911999999REMMET058METAR SBLP 202000Z 21003KT 9999 FEW030 SCT100 33/18 Q1009;
0143832880999992010102021004-13267-043417FM-15+0443SBLP V0201801N001512200019N0112651N1+03201+01901999999ADDGA1041+009001999GA2041+030001999GF104991999999999999999999MA1101021999999REMMET058METAR SBLP 202100Z 18003KT 9999 SCT030 SCT100 32/19 Q1010;
0143832880999992010102110004-13267-043417FM-15+0443SBLP V0209999C000010300019N0112651N1+02201+02101999999ADDGA1041+003001999GA2071+030001999GF107991999999999999999999MA1101491999999REMMET058METAR SBLP 211000Z 00000KT 9999 SCT010 BKN100 22/21 Q1015;
0143832880999992010102111004-13267-043417FM-15+0443SBLP V0209999C000010300019N0112651N1+02401+02101999999ADDGA1041+003001999GA2071+030001999GF107991999999999999999999MA1101591999999REMMET058METAR SBLP 211100Z 00000KT 9999 SCT010 BKN100 24/21 Q1016;
0143832880999992010102112004-13267-043417FM-15+0443SBLP V0200901N003110300019N0112651N1+02501+02101999999ADDGA1041+004501999GA2071+030001999GF107991999999999999999999MA1101591999999REMMET058METAR SBLP 211200Z 09006KT 9999 SCT015 BKN100 25/21 Q1016;
0143832880999992010102113004-13267-043417FM-15+0443SBLP V0200901N003110300019N0112651N1+02601+02101999999ADDGA1021+006001999GA2071+030001999GF107991999999999999999999MA1101591999999REMMET058METAR SBLP 211300Z 09006KT 9999 FEW020 BKN100 26/21 Q1016;
0143832880999992010102114004-13267-043417FM-15+0443SBLP V0200901N003112200019N0112651N1+02801+02101999999ADDGA1021+006001999GA2041+030001999GF104991999999999999999999MA1101491999999REMMET058METAR SBLP 211400Z 09006KT 9999 FEW020 SCT100 28/21 Q1015;
0143832880999992010102115004-13267-043417FM-15+0443SBLP V0203601N003112200019N0112651N1+02901+02001999999ADDGA1041+006001999GA2041+030001999GF104991999999999999999999MA1101391999999REMMET058METAR SBLP 211500Z 36006KT 9999 SCT020 SCT100 29/20 Q1014;
0143832880999992010102116004-13267-043417FM-15+0443SBLP V0209999C000012200019N0112651N1+03101+02001999999ADDGA1041+006001999GA2041+030001999GF104991999999999999999999MA1101291999999REMMET058METAR SBLP 211600Z 00000KT 9999 SCT020 SCT100 31/20 Q1013;
0120832880999992010102117004-13267-043417FM-15+0443SBLP V0203101N001512200019N0112651N1+03201+01901999999ADDGA1041+008101999GF104991999999999999999999MA1101081999999REMMET051METAR SBLP 211700Z 31003KT 9999 SCT027 32/19 Q1011;
0120832880999992010102118004-13267-043417FM-15+0443SBLP V0203101N001012200019N0112651N1+03301+01801999999ADDGA1021+009001999GF102991999999999999999999MA1101021999999REMMET051METAR SBLP 211800Z 31002KT 9999 FEW030 33/18 Q1010;
0120832880999992010102121004-13267-043417FM-15+0443SBLP V0209999C000012200019N0112651N1+03101+01901999999ADDGA1021+009001999GF102991999999999999999999MA1101021999999REMMET051METAR SBLP 212100Z 00000KT 9999 FEW030 31/19 Q1010;
0143832880999992010102210004-13267-043417FM-15+0443SBLP V0201701N001510300019N0112651N1+02401+02001999999ADDGA1021+006901999GA2071+030001999GF107991999999999999999999MA1101391999999REMMET058METAR SBLP 221000Z 17003KT 9999 FEW023 BKN100 24/20 Q1014;
0072832880999992010102211004-13267-043417FM-15+0443SBLP V0201501N002119999999Y0099001N1+02601+02001999999ADDMA1101491999999REMMET045METAR SBLP 221100Z 15004KT CAVOK 26/20 Q1015;
0120832880999992010102214004-13267-043417FM-15+0443SBLP V0201501N002112200019N0112651N1+03301+01701999999ADDGA1021+009001999GF102991999999999999999999MA1101391999999REMMET051METAR SBLP 221400Z 15004KT 9999 FEW030 33/17 Q1014;
0120832880999992010102215004-13267-043417FM-15+0443SBLP V0202701N002112200019N0112651N1+03301+01701999999ADDGA1021+009001999GF102991999999999999999999MA1101291999999REMMET051METAR SBLP 221500Z 27004KT 9999 FEW030 33/17 Q1013;
0072832880999992010102216004-13267-043417FM-15+0443SBLP V0201701N004119999999Y0099001N1+03401+01701999999ADDMA1101191999999REMMET045METAR SBLP 221600Z 17008KT CAVOK 34/17 Q1012;
0120832880999992010102217004-13267-043417FM-15+0443SBLP V0201201N003112200019N0112651N1+03501+01501999999ADDGA1021+009001999GF102991999999999999999999MA1101021999999REMMET051METAR SBLP 221700Z 12006KT 9999 FEW030 35/15 Q1010;
0120832880999992010102218004-13267-043417FM-15+0443SBLP V0201801N005112200019N0112651N1+03601+01301999999ADDGA1021+009001999GF102991999999999999999999MA1100911999999REMMET051METAR SBLP 221800Z 18010KT 9999 FEW030 36/13 Q1009;
0072832880999992010102219004-13267-043417FM-15+0443SBLP V0201801N004119999999Y0099001N1+03601+01301999999ADDMA1100811999999REMMET045METAR SBLP 221900Z 18008KT CAVOK 36/13 Q1008;
0072832880999992010102220004-13267-043417FM-15+0443SBLP V0201801N004119999999Y0099001N1+03501+01301999999ADDMA1100811999999REMMET045METAR SBLP 222000Z 18008KT CAVOK 35/13 Q1008;
0072832880999992010102221004-13267-043417FM-15+0443SBLP V0201801N003119999999Y0099001N1+03201+01201999999ADDMA1100811999999REMMET045METAR SBLP 222100Z 18006KT CAVOK 32/12 Q1008;
0072832880999992010102310004-13267-043417FM-15+0443SBLP V0200601N002619999999Y0099001N1+02501+01601999999ADDMA1101291999999REMMET045METAR SBLP 231000Z 06005KT CAVOK 25/16 Q1013;
0072832880999992010102311004-13267-043417FM-15+0443SBLP V0203601N003119999999Y0099001N1+02801+01601999999ADDMA1101291999999REMMET045METAR SBLP 231100Z 36006KT CAVOK 28/16 Q1013;
0072832880999992010102312004-13267-043417FM-15+0443SBLP V0200301N004119999999Y0099001N1+03001+01901999999ADDMA1101291999999REMMET045METAR SBLP 231200Z 03008KT CAVOK 30/19 Q1013;
0120832880999992010102313004-13267-043417FM-15+0443SBLP V0200301N001512200019N0112651N1+03101+01901999999ADDGA1021+009001999GF102991999999999999999999MA1101291999999REMMET051METAR SBLP 231300Z 03003KT 9999 FEW030 31/19 Q1013;
0120832880999992010102315004-13267-043417FM-15+0443SBLP V0202701N001012200019N0112651N1+03301+01701999999ADDGA1021+009001999GF102991999999999999999999MA1101191999999REMMET051METAR SBLP 231500Z 27002KT 9999 FEW030 33/17 Q1012;
0120832880999992010102316004-13267-043417FM-15+0443SBLP V0202401N003112200019N0112651N1+03501+01801999999ADDGA1041+009001999GF104991999999999999999999MA1101081999999REMMET051METAR SBLP 231600Z 24006KT 9999 SCT030 35/18 Q1011;
0120832880999992010102317004-13267-043417FM-15+0443SBLP V0202101N003112200019N0112651N1+03601+01701999999ADDGA1021+009001999GF102991999999999999999999MA1100911999999REMMET051METAR SBLP 231700Z 21006KT 9999 FEW030 36/17 Q1009;
0120832880999992010102318004-13267-043417FM-15+0443SBLP V0209999C000012200019N0112651N1+03601+01701999999ADDGA1021+009001999GF102991999999999999999999MA1100811999999REMMET051METAR SBLP 231800Z 00000KT 9999 FEW030 36/17 Q1008;
0120832880999992010102319004-13267-043417FM-15+0443SBLP V0209999C000012200019N0112651N1+03501+01701999999ADDGA1021+009001999GF102991999999999999999999MA1100811999999REMMET051METAR SBLP 231900Z 00000KT 9999 FEW030 35/17 Q1008;
0072832880999992010102320004-13267-043417FM-15+0443SBLP V0202101N003119999999Y0099001N1+03401+01801999999ADDMA1100711999999REMMET045METAR SBLP 232000Z 21006KT CAVOK 34/18 Q1007;
0072832880999992010102321004-13267-043417FM-15+0443SBLP V0209999C000019999999Y0099001N1+03201+02101999999ADDMA1100811999999REMMET045METAR SBLP 232100Z 00000KT CAVOK 32/21 Q1008;
0072832880999992010102410004-13267-043417FM-15+0443SBLP V0200301N003119999999Y0099001N1+02601+02101999999ADDMA1101291999999REMMET045METAR SBLP 241000Z 03006KT CAVOK 26/21 Q1013;
0072832880999992010102411004-13267-043417FM-15+0443SBLP V0203601N003119999999Y0099001N1+02801+02101999999ADDMA1101291999999REMMET045METAR SBLP 241100Z 36006KT CAVOK 28/21 Q1013;
0120832880999992010102412004-13267-043417FM-15+0443SBLP V0203301N003112200019N0112651N1+03001+02001999999ADDGA1041+009001999GF104991999999999999999999MA1101291999999REMMET051METAR SBLP 241200Z 33006KT 9999 SCT030 30/20 Q1013;
0120832880999992010102413004-13267-043417FM-15+0443SBLP V0203401N005112200019N0112651N1+03201+01901999999ADDGA1041+009001999GF104991999999999999999999MA1101291999999REMMET051METAR SBLP 241300Z 34010KT 9999 SCT030 32/19 Q1013;
0120832880999992010102414004-13267-043417FM-15+0443SBLP V0203001N003112200019N0112651N1+03201+01901999999ADDGA1041+009001999GF104991999999999999999999MA1101291999999REMMET051METAR SBLP 241400Z 30006KT 9999 SCT030 32/19 Q1013;
0120832880999992010102415004-13267-043417FM-15+0443SBLP V0203201N003112200019N0112651N1+03501+01801999999ADDGA1041+009001999GF104991999999999999999999MA1101081999999REMMET051METAR SBLP 241500Z 32006KT 9999 SCT030 35/18 Q1011;
0120832880999992010102416004-13267-043417FM-15+0443SBLP V0202401N003112200019N0112651N1+03501+01801999999ADDGA1041+009001999GF104991999999999999999999MA1101021999999REMMET051METAR SBLP 241600Z 24006KT 9999 SCT030 35/18 Q1010;
0120832880999992010102417004-13267-043417FM-15+0443SBLP V0201501N003112200019N0112651N1+03601+01801999999ADDGA1041+009001999GF104991999999999999999999MA1100811999999REMMET051METAR SBLP 241700Z 15006KT 9999 SCT030 36/18 Q1008;
0120832880999992010102418004-13267-043417FM-15+0443SBLP V0200901N003112200019N0112651N1+03701+01801999999ADDGA1041+009001999GF104991999999999999999999MA1100711999999REMMET051METAR SBLP 241800Z 09006KT 9999 SCT030 37/18 Q1007;
0120832880999992010102419004-13267-043417FM-15+0443SBLP V0200301N003112200019N0112651N1+03701+01801999999ADDGA1021+009001999GF102991999999999999999999MA1100611999999REMMET051METAR SBLP 241900Z 03006KT 9999 FEW030 37/18 Q1006;
0120832880999992010102420004-13267-043417FM-15+0443SBLP V0202301N003112200019N0112651N1+03601+01901999999ADDGA1021+009001999GF102991999999999999999999MA1100611999999REMMET051METAR SBLP 242000Z 23006KT 9999 FEW030 36/19 Q1006;
0072832880999992010102421004-13267-043417FM-15+0443SBLP V0209999C000019999999Y0099001N1+03401+02001999999ADDMA1100611999999REMMET045METAR SBLP 242100Z 00000KT CAVOK 34/20 Q1006;
0072832880999992010102510004-13267-043417FM-15+0443SBLP V0209999C000019999999Y0099001N1+02701+02101999999ADDMA1101081999999REMMET045METAR SBLP 251000Z 00000KT CAVOK 27/21 Q1011;
0072832880999992010102511004-13267-043417FM-15+0443SBLP V0202701N003119999999Y0099001N1+02901+02001999999ADDMA1101191999999REMMET045METAR SBLP 251100Z 27006KT CAVOK 29/20 Q1012;
0072832880999992010102512004-13267-043417FM-15+0443SBLP V0202601N003119999999Y0099001N1+03101+02101999999ADDMA1101191999999REMMET045METAR SBLP 251200Z 26006KT CAVOK 31/21 Q1012;
0143832880999992010102513004-13267-043417FM-15+0443SBLP V0202101N003112200019N0112651N1+03201+02101999999ADDGA1021+009001999GA2041+030001999GF104991999999999999999999MA1101191999999REMMET058METAR SBLP 251300Z 21006KT 9999 FEW030 SCT100 32/21 Q1012;
0120832880999992010102514004-13267-043417FM-15+0443SBLP V0202701N003112200019N0112651N1+03301+02101999999ADDGA1021+009001999GF102991999999999999999999MA1101081999999REMMET051METAR SBLP 251400Z 27006KT 9999 FEW030 33/21 Q1011;
0120832880999992010102515004-13267-043417FM-15+0443SBLP V0202701N003112200019N0112651N1+03301+02101999999ADDGA1041+009001999GF104991999999999999999999MA1101021999999REMMET051METAR SBLP 251500Z 27006KT 9999 SCT030 33/21 Q1010;
0120832880999992010102516004-13267-043417FM-15+0443SBLP V0203601N003112200019N0112651N1+03401+02001999999ADDGA1041+009001999GF104991999999999999999999MA1100811999999REMMET051METAR SBLP 251600Z 36006KT 9999 SCT030 34/20 Q1008;
0120832880999992010102517004-13267-043417FM-15+0443SBLP V0203601N003112200019N0112651N1+03501+01801999999ADDGA1041+009001999GF104991999999999999999999MA1100711999999REMMET051METAR SBLP 251700Z 36006KT 9999 SCT030 35/18 Q1007;
0120832880999992010102519004-13267-043417FM-15+0443SBLP V0203601N003112200019N0112651N1+03601+01701999999ADDGA1041+009001999GF104991999999999999999999MA1100511999999REMMET051METAR SBLP 251900Z 36006KT 9999 SCT030 36/17 Q1005;
0128832880999992010102520004-13267-043417FM-15+0443SBLP V0200901N003112200019N0112651N1+03501+01801999999ADDGA1041+009001999GA2021+012001091MA1100611999999MW1171REMMET063METAR SBLP 252000Z 09006KT 9999 TS SCT030 FEW040CB 35/18 Q1006;
0147832880999992010102521004-13267-043417FM-15+0443SBLP V0200901N006212200019N0112651N1+03201+01901999999ADDGA1041+009001999GA2021+012001091MA1100611999999MW1171REMMET063METAR SBLP 252100Z 09012KT 9999 TS SCT030 FEW040CB 32/19 Q1006;EQDQ01+000022SCOTCV
0143832880999992010102610004-13267-043417FM-15+0443SBLP V0201301N003110300019N0112651N1+02501+02101999999ADDGA1021+006901999GA2071+030001999GF107991999999999999999999MA1101081999999REMMET058METAR SBLP 261000Z 13006KT 9999 FEW023 BKN100 25/21 Q1011;
0143832880999992010102611004-13267-043417FM-15+0443SBLP V0201901N002610300019N0112651N1+02701+02101999999ADDGA1021+006901999GA2071+030001999GF107991999999999999999999MA1101191999999REMMET058METAR SBLP 261100Z 19005KT 9999 FEW023 BKN100 27/21 Q1012;
0143832880999992010102612004-13267-043417FM-15+0443SBLP V0202001N002610300019N0112651N1+02801+02101999999ADDGA1021+006901999GA2071+030001999GF107991999999999999999999MA1101191999999REMMET058METAR SBLP 261200Z 20005KT 9999 FEW023 BKN100 28/21 Q1012;
0143832880999992010102613004-13267-043417FM-15+0443SBLP V0202501N001510300019N0112651N1+02801+02101999999ADDGA1021+008101999GA2071+030001999GF107991999999999999999999MA1101191999999REMMET058METAR SBLP 261300Z 25003KT 9999 FEW027 BKN100 28/21 Q1012;
0143832880999992010102614004-13267-043417FM-15+0443SBLP V0202701N002110300019N0112651N1+02801+02101999999ADDGA1021+008101999GA2071+030001999GF107991999999999999999999MA1101291999999REMMET058METAR SBLP 261400Z 27004KT 9999 FEW027 BKN100 28/21 Q1013;
0143832880999992010102615004-13267-043417FM-15+0443SBLP V0202701N003110300019N0112651N1+02801+02101999999ADDGA1041+008101999GA2071+030001999GF107991999999999999999999MA1101191999999REMMET058METAR SBLP 261500Z 27006KT 9999 SCT027 BKN100 28/21 Q1012;
0143832880999992010102616004-13267-043417FM-15+0443SBLP V0202701N003110300019N0112651N1+02801+02101999999ADDGA1041+009001999GA2071+030001999GF107991999999999999999999MA1101081999999REMMET058METAR SBLP 261600Z 27006KT 9999 SCT030 BKN100 28/21 Q1011;
0143832880999992010102617004-13267-043417FM-15+0443SBLP V0202701N003110300019N0112651N1+02901+02101999999ADDGA1041+009001999GA2071+030001999GF107991999999999999999999MA1101081999999REMMET058METAR SBLP 261700Z 27006KT 9999 SCT030 BKN100 29/21 Q1011;
0143832880999992010102618004-13267-043417FM-15+0443SBLP V0202701N003110300019N0112651N1+02801+02101999999ADDGA1041+009001999GA2071+030001999GF107991999999999999999999MA1101021999999REMMET058METAR SBLP 261800Z 27006KT 9999 SCT030 BKN100 28/21 Q1010;
0153832880999992010102619004-13267-043417FM-15+0443SBLP V0203601N003110300019N0090001N1+02601+02101999999ADDGA1041+009001999GA2071+030001999GF107991999999999999999999MA1101021999999MW1611REMMET062METAR SBLP 261900Z 36006KT 9000 -RA SCT030 BKN100 26/21 Q1010;
0143832880999992010102620004-13267-043417FM-15+0443SBLP V0209999C000010300019N0112651N1+02501+02101999999ADDGA1021+006001999GA2071+030001999GF107991999999999999999999MA1101021999999REMMET058METAR SBLP 262000Z 00000KT 9999 FEW020 BKN100 25/21 Q1010;
0143832880999992010102621004-13267-043417FM-15+0443SBLP V0209999C000010300019N0112651N1+02501+02101999999ADDGA1021+006001999GA2071+030001999GF107991999999999999999999MA1101081999999REMMET058METAR SBLP 262100Z 00000KT 9999 FEW020 BKN100 25/21 Q1011;
0143832880999992010102710004-13267-043417FM-15+0443SBLP V0202801N001010300019N0112651N1+02301+02101999999ADDGA1021+006901999GA2071+030001999GF107991999999999999999999MA1101191999999REMMET058METAR SBLP 271000Z 28002KT 9999 FEW023 BKN100 23/21 Q1012;
0143832880999992010102711004-13267-043417FM-15+0443SBLP V0200101N003110300019N0112651N1+02501+02101999999ADDGA1021+006901999GA2071+030001999GF107991999999999999999999MA1101291999999REMMET058METAR SBLP 271100Z 01006KT 9999 FEW023 BKN100 25/21 Q1013;
0143832880999992010102712004-13267-043417FM-15+0443SBLP V0203301N001510300019N0112651N1+02501+02001999999ADDGA1021+006901999GA2071+030001999GF107991999999999999999999MA1101291999999REMMET058METAR SBLP 271200Z 33003KT 9999 FEW023 BKN100 25/20 Q1013;
0143832880999992010102713004-13267-043417FM-15+0443SBLP V0203301N002110300019N0112651N1+02701+02001999999ADDGA1021+008101999GA2071+030001999GF107991999999999999999999MA1101291999999REMMET058METAR SBLP 271300Z 33004KT 9999 FEW027 BKN100 27/20 Q1013;
0143832880999992010102714004-13267-043417FM-15+0443SBLP V0203601N002110300019N0112651N1+02901+02001999999ADDGA1041+008101999GA2071+030001999GF107991999999999999999999MA1101191999999REMMET058METAR SBLP 271400Z 36004KT 9999 SCT027 BKN100 29/20 Q1012;
0143832880999992010102715004-13267-043417FM-15+0443SBLP V0203501N003110090019N0112651N1+03001+01901999999ADDGA1071+009001999GA2071+030001999GF107991999999999999999999MA1101081999999REMMET058METAR SBLP 271500Z 35006KT 9999 BKN030 BKN100 30/19 Q1011;
0143832880999992010102716004-13267-043417FM-15+0443SBLP V0203201N003110090019N0112651N1+03001+01901999999ADDGA1071+009001999GA2071+030001999GF107991999999999999999999MA1101021999999REMMET058METAR SBLP 271600Z 32006KT 9999 BKN030 BKN100 30/19 Q1010;
0148832880999992010102717004-13267-043417FM-15+0443SBLP V0203601N003110300019N0112651N1+02801+02201999999ADDGA1041+009001999GA2071+030001999GF107991999999999999999999MA1100911999999REMMET063METAR SBLP 271700Z 36006KT 9999 SCT030 BKN100 28/22 Q1009 RERA;
0143832880999992010102718004-13267-043417FM-15+0443SBLP V0200401N001512200019N0112651N1+02901+02001999999ADDGA1021+009001999GA2041+030001999GF104991999999999999999999MA1100811999999REMMET058METAR SBLP 271800Z 04003KT 9999 FEW030 SCT100 29/20 Q1008;
0143832880999992010102719004-13267-043417FM-15+0443SBLP V0202701N003110300019N0112651N1+03001+02101999999ADDGA1041+009001999GA2071+030001999GF107991999999999999999999MA1100811999999REMMET058METAR SBLP 271900Z 27006KT 9999 SCT030 BKN100 30/21 Q1008;
0143832880999992010102720004-13267-043417FM-15+0443SBLP V0209999C000010300019N0112651N1+02701+02101999999ADDGA1021+009001999GA2071+030001999GF107991999999999999999999MA1100811999999REMMET058METAR SBLP 272000Z 00000KT 9999 FEW030 BKN100 27/21 Q1008;
0143832880999992010102721004-13267-043417FM-15+0443SBLP V0209999C000010300019N0112651N1+02801+02001999999ADDGA1021+009001999GA2071+030001999GF107991999999999999999999MA1100811999999REMMET058METAR SBLP 272100Z 00000KT 9999 FEW030 BKN100 28/20 Q1008;
0072832880999992010102810004-13267-043417FM-15+0443SBLP V0209999C000019999999Y0099001N1+02501+02101999999ADDMA1101081999999REMMET045METAR SBLP 281000Z 00000KT CAVOK 25/21 Q1011;
0143832880999992010102811004-13267-043417FM-15+0443SBLP V0209999C000012200019N0112651N1+02701+02101999999ADDGA1021+009001999GA2041+030001999GF104991999999999999999999MA1101191999999REMMET058METAR SBLP 281100Z 00000KT 9999 FEW030 SCT100 27/21 Q1012;
0143832880999992010102812004-13267-043417FM-15+0443SBLP V0202601N003112200019N0112651N1+03001+02001999999ADDGA1021+009001999GA2041+030001999GF104991999999999999999999MA1101191999999REMMET058METAR SBLP 281200Z 26006KT 9999 FEW030 SCT100 30/20 Q1012;
0120832880999992010102813004-13267-043417FM-15+0443SBLP V0209999C000012200019N0112651N1+03201+02001999999ADDGA1021+009001999GF102991999999999999999999MA1101081999999REMMET051METAR SBLP 281300Z 00000KT 9999 FEW030 32/20 Q1011;
0120832880999992010102814004-13267-043417FM-15+0443SBLP V0202701N003112200019N0112651N1+03301+02001999999ADDGA1021+009001999GF102991999999999999999999MA1101081999999REMMET051METAR SBLP 281400Z 27006KT 9999 FEW030 33/20 Q1011;
0120832880999992010102815004-13267-043417FM-15+0443SBLP V0202701N002112200019N0112651N1+03401+01901999999ADDGA1041+009001999GF104991999999999999999999MA1101021999999REMMET051METAR SBLP 281500Z 27004KT 9999 SCT030 34/19 Q1010;
0120832880999992010102816004-13267-043417FM-15+0443SBLP V0201801N002112200019N0112651N1+03501+01901999999ADDGA1041+009001999GF104991999999999999999999MA1100811999999REMMET051METAR SBLP 281600Z 18004KT 9999 SCT030 35/19 Q1008;
0120832880999992010102817004-13267-043417FM-15+0443SBLP V0201801N003112200019N0112651N1+03601+01901999999ADDGA1041+009001999GF104991999999999999999999MA1100711999999REMMET051METAR SBLP 281700Z 18006KT 9999 SCT030 36/19 Q1007;
0120832880999992010102818004-13267-043417FM-15+0443SBLP V0209999C000012200019N0112651N1+03601+01901999999ADDGA1041+009001999GF104991999999999999999999MA1100611999999REMMET051METAR SBLP 281800Z 00000KT 9999 SCT030 36/19 Q1006;
0120832880999992010102819004-13267-043417FM-15+0443SBLP V0202401N003112200019N0112651N1+03601+01901999999ADDGA1021+009001999GF102991999999999999999999MA1100611999999REMMET051METAR SBLP 281900Z 24006KT 9999 FEW030 36/19 Q1006;
0120832880999992010102820004-13267-043417FM-15+0443SBLP V0201801N003112200019N0112651N1+03601+01901999999ADDGA1021+009001999GF102991999999999999999999MA1100611999999REMMET051METAR SBLP 282000Z 18006KT 9999 FEW030 36/19 Q1006;
0120832880999992010102821004-13267-043417FM-15+0443SBLP V0201801N003112200019N0112651N1+03401+02001999999ADDGA1041+009001999GF104991999999999999999999MA1100611999999REMMET051METAR SBLP 282100Z 18006KT 9999 SCT030 34/20 Q1006;
0143832880999992010102910004-13267-043417FM-15+0443SBLP V0209999C000010300019N0112651N1+02401+02201999999ADDGA1021+006001999GA2071+030001999GF107991999999999999999999MA1101291999999REMMET058METAR SBLP 291000Z 00000KT 9999 FEW020 BKN100 24/22 Q1013;
0143832880999992010102911004-13267-043417FM-15+0443SBLP V0209999C000010300019N0112651N1+02501+02201999999ADDGA1021+006001999GA2071+030001999GF107991999999999999999999MA1101391999999REMMET058METAR SBLP 291100Z 00000KT 9999 FEW020 BKN100 25/22 Q1014;
0143832880999992010102912004-13267-043417FM-15+0443SBLP V0209999C000012200019N0112651N1+02701+02201999999ADDGA1021+006001999GA2041+030001999GF104991999999999999999999MA1101491999999REMMET058METAR SBLP 291200Z 00000KT 9999 FEW020 SCT100 27/22 Q1015;
0143832880999992010102913004-13267-043417FM-15+0443SBLP V0202101N003112200019N0112651N1+02901+02201999999ADDGA1021+006001999GA2041+030001999GF104991999999999999999999MA1101391999999REMMET058METAR SBLP 291300Z 21006KT 9999 FEW020 SCT100 29/22 Q1014;
0143832880999992010102914004-13267-043417FM-15+0443SBLP V0202701N003112200019N0112651N1+02901+02201999999ADDGA1021+009001999GA2041+030001999GF104991999999999999999999MA1101391999999REMMET058METAR SBLP 291400Z 27006KT 9999 FEW030 SCT100 29/22 Q1014;
0143832880999992010102915004-13267-043417FM-15+0443SBLP V0202401N002112200019N0112651N1+03001+02201999999ADDGA1041+009001999GA2041+030001999GF104991999999999999999999MA1101291999999REMMET058METAR SBLP 291500Z 24004KT 9999 SCT030 SCT100 30/22 Q1013;
0143832880999992010102916004-13267-043417FM-15+0443SBLP V0200901N003110300019N0112651N1+03201+02101999999ADDGA1041+006001999GA2071+030001999GF107991999999999999999999MA1101081999999REMMET058METAR SBLP 291600Z 09006KT 9999 SCT020 BKN100 32/21 Q1011;
0143832880999992010102917004-13267-043417FM-15+0443SBLP V0209999C000010300019N0112651N1+03201+02101999999ADDGA1041+006001999GA2071+030001999GF107991999999999999999999MA1101021999999REMMET058METAR SBLP 291700Z 00000KT 9999 SCT020 BKN100 32/21 Q1010;
0143832880999992010102918004-13267-043417FM-15+0443SBLP V0209999C000010300019N0112651N1+03301+02001999999ADDGA1021+009001999GA2071+030001999GF107991999999999999999999MA1100911999999REMMET058METAR SBLP 291800Z 00000KT 9999 FEW030 BKN100 33/20 Q1009;
0143832880999992010102919004-13267-043417FM-15+0443SBLP V0209999C000010300019N0112651N1+03501+01901999999ADDGA1021+009001999GA2071+030001999GF107991999999999999999999MA1100811999999REMMET058METAR SBLP 291900Z 00000KT 9999 FEW030 BKN100 35/19 Q1008;
0143832880999992010102920004-13267-043417FM-15+0443SBLP V0209999C000012200019N0112651N1+03401+01901999999ADDGA1021+009001999GA2041+030001999GF104991999999999999999999MA1100811999999REMMET058METAR SBLP 292000Z 00000KT 9999 FEW030 SCT100 34/19 Q1008;
0143832880999992010102921004-13267-043417FM-15+0443SBLP V0209999C000012200019N0112651N1+03201+02001999999ADDGA1041+009001999GA2041+030001999GF104991999999999999999999MA1100811999999REMMET058METAR SBLP 292100Z 00000KT 9999 SCT030 SCT100 32/20 Q1008;
0143832880999992010103010004-13267-043417FM-15+0443SBLP V0209999C000010300019N0112651N1+02501+02101999999ADDGA1021+006001999GA2071+030001999GF107991999999999999999999MA1101391999999REMMET058METAR SBLP 301000Z 00000KT 9999 FEW020 BKN100 25/21 Q1014;
0143832880999992010103011004-13267-043417FM-15+0443SBLP V0209999C000010300019N0112651N1+02601+02101999999ADDGA1021+006001999GA2071+030001999GF107991999999999999999999MA1101491999999REMMET058METAR SBLP 301100Z 00000KT 9999 FEW020 BKN100 26/21 Q1015;
0143832880999992010103013004-13267-043417FM-15+0443SBLP V0209999C000010300019N0112651N1+03001+02101999999ADDGA1021+009001999GA2071+030001999GF107991999999999999999999MA1101491999999REMMET058METAR SBLP 301300Z 00000KT 9999 FEW030 BKN100 30/21 Q1015;
0143832880999992010103014004-13267-043417FM-15+0443SBLP V0200901N003112200019N0112651N1+03101+02101999999ADDGA1041+009001999GA2041+030001999GF104991999999999999999999MA1101391999999REMMET058METAR SBLP 301400Z 09006KT 9999 SCT030 SCT100 31/21 Q1014;
0143832880999992010103015004-13267-043417FM-15+0443SBLP V0200901N003112200019N0112651N1+03201+02001999999ADDGA1041+009001999GA2041+030001999GF104991999999999999999999MA1101291999999REMMET058METAR SBLP 301500Z 09006KT 9999 SCT030 SCT100 32/20 Q1013;
0120832880999992010103016004-13267-043417FM-15+0443SBLP V0203301N001512200019N0112651N1+03501+02001999999ADDGA1041+009001999GF104991999999999999999999MA1101081999999REMMET051METAR SBLP 301600Z 33003KT 9999 SCT030 35/20 Q1011;
0120832880999992010103017004-13267-043417FM-15+0443SBLP V0200301N002610090019N0112651N1+03401+02101999999ADDGA1071+009001999GF107991999999999999999999MA1101021999999REMMET051METAR SBLP 301700Z 03005KT 9999 BKN030 34/21 Q1010;
0120832880999992010103018004-13267-043417FM-15+0443SBLP V0200301N002610090019N0112651N1+03501+01901999999ADDGA1071+009001999GF107991999999999999999999MA1100911999999REMMET051METAR SBLP 301800Z 03005KT 9999 BKN030 35/19 Q1009;
0120832880999992010103019004-13267-043417FM-15+0443SBLP V0201101N005112200019N0112651N1+03401+02001999999ADDGA1041+009001999GF104991999999999999999999MA1101021999999REMMET051METAR SBLP 301900Z 11010KT 9999 SCT030 34/20 Q1010;
0143832880999992010103020004-13267-043417FM-15+0443SBLP V0200901N003112200019N0112651N1+03201+02001999999ADDGA1021+009001999GA2041+030001999GF104991999999999999999999MA1101021999999REMMET058METAR SBLP 302000Z 09006KT 9999 FEW030 SCT100 32/20 Q1010;
0143832880999992010103021004-13267-043417FM-15+0443SBLP V0200901N003112200019N0112651N1+03101+02001999999ADDGA1021+008101999GA2041+030001999GF104991999999999999999999MA1101021999999REMMET058METAR SBLP 302100Z 09006KT 9999 FEW027 SCT100 31/20 Q1010;
0072832880999992010103110004-13267-043417FM-15+0443SBLP V0209999C000019999999Y0099001N1+02601+02101999999ADDMA1101391999999REMMET045METAR SBLP 311000Z 00000KT CAVOK 26/21 Q1014;
0072832880999992010103111004-13267-043417FM-15+0443SBLP V0209999C000019999999Y0099001N1+02801+02101999999ADDMA1101391999999REMMET045METAR SBLP 311100Z 00000KT CAVOK 28/21 Q1014;
0072832880999992010103112004-13267-043417FM-15+0443SBLP V0209999C000019999999Y0099001N1+02901+02101999999ADDMA1101491999999REMMET045METAR SBLP 311200Z 00000KT CAVOK 29/21 Q1015;
0120832880999992010103113004-13267-043417FM-15+0443SBLP V0209999C000012200019N0112651N1+03001+02101999999ADDGA1021+009001999GF102991999999999999999999MA1101491999999REMMET051METAR SBLP 311300Z 00000KT 9999 FEW030 30/21 Q1015;
0120832880999992010103114004-13267-043417FM-15+0443SBLP V0209999C000012200019N0112651N1+03301+02001999999ADDGA1021+009001999GF102991999999999999999999MA1101391999999REMMET051METAR SBLP 311400Z 00000KT 9999 FEW030 33/20 Q1014;
0120832880999992010103115004-13267-043417FM-15+0443SBLP V0200901N003112200019N0112651N1+03301+02001999999ADDGA1021+009001999GF102991999999999999999999MA1101291999999REMMET051METAR SBLP 311500Z 09006KT 9999 FEW030 33/20 Q1013;
0120832880999992010103116004-13267-043417FM-15+0443SBLP V0209999C000012200019N0112651N1+03401+01801999999ADDGA1021+009001999GF102991999999999999999999MA1101191999999REMMET051METAR SBLP 311600Z 00000KT 9999 FEW030 34/18 Q1012;
0120832880999992010103117004-13267-043417FM-15+0443SBLP V0202401N001012200019N0112651N1+03501+01701999999ADDGA1021+009001999GF102991999999999999999999MA1101081999999REMMET051METAR SBLP 311700Z 24002KT 9999 FEW030 35/17 Q1011;
0120832880999992010103118004-13267-043417FM-15+0443SBLP V0209999C000012200019N0112651N1+03501+01901999999ADDGA1021+009001999GF102991999999999999999999MA1101021999999REMMET051METAR SBLP 311800Z 00000KT 9999 FEW030 35/19 Q1010;
0120832880999992010103119004-13267-043417FM-15+0443SBLP V0202101N002112200019N0112651N1+03401+01901999999ADDGA1021+009001999GF102991999999999999999999MA1100911999999REMMET051METAR SBLP 311900Z 21004KT 9999 FEW030 34/19 Q1009;
0072832880999992010103120004-13267-043417FM-15+0443SBLP V0201501N001519999999Y0099001N1+03401+01901999999ADDMA1101021999999REMMET045METAR SBLP 312000Z 15003KT CAVOK 34/19 Q1010;
0072832880999992010103121004-13267-043417FM-15+0443SBLP V0201801N001519999999Y0099001N1+03301+02001999999ADDMA1101021999999REMMET045METAR SBLP 312100Z 18003KT CAVOK 33/20 Q1010;
0072832880999992010110110004-13267-043417FM-15+0443SBLP V0201801N001519999999Y0099001N1+02701+02101999999ADDMA1101491999999REMMET045METAR SBLP 011000Z 18003KT CAVOK 27/21 Q1015;
0072832880999992010110111004-13267-043417FM-15+0443SBLP V0209999C000019999999Y0099001N1+02901+02001999999ADDMA1101491999999REMMET045METAR SBLP 011100Z 00000KT CAVOK 29/20 Q1015;
0072832880999992010110112004-13267-043417FM-15+0443SBLP V0201101N002119999999Y0099001N1+03101+01601999999ADDMA1101491999999REMMET045METAR SBLP 011200Z 11004KT CAVOK 31/16 Q1015;
0072832880999992010110113004-13267-043417FM-15+0443SBLP V0203601N002119999999Y0099001N1+03201+01701999999ADDMA1101491999999REMMET045METAR SBLP 011300Z 36004KT CAVOK 32/17 Q1015;
0072832880999992010110114004-13267-043417FM-15+0443SBLP V0203301N003119999999Y0099001N1+03401+01601999999ADDMA1101391999999REMMET045METAR SBLP 011400Z 33006KT CAVOK 34/16 Q1014;
0120832880999992010110115004-13267-043417FM-15+0443SBLP V0201201N002112200019N0112651N1+03401+01501999999ADDGA1021+009001999GF102991999999999999999999MA1101291999999REMMET051METAR SBLP 011500Z 12004KT 9999 FEW030 34/15 Q1013;
0120832880999992010110116004-13267-043417FM-15+0443SBLP V0209999C000012200019N0112651N1+03501+01601999999ADDGA1021+009001999GF102991999999999999999999MA1101191999999REMMET051METAR SBLP 011600Z 00000KT 9999 FEW030 35/16 Q1012;
0120832880999992010110117004-13267-043417FM-15+0443SBLP V0202901N003112200019N0112651N1+03601+01701999999ADDGA1041+009001999GF104991999999999999999999MA1101021999999REMMET051METAR SBLP 011700Z 29006KT 9999 SCT030 36/17 Q1010;
0120832880999992010110118004-13267-043417FM-15+0443SBLP V0202801N004112200019N0112651N1+03601+01701999999ADDGA1041+009001999GF104991999999999999999999MA1100911999999REMMET051METAR SBLP 011800Z 28008KT 9999 SCT030 36/17 Q1009;
0120832880999992010110119004-13267-043417FM-15+0443SBLP V0202701N002112200019N0112651N1+03601+01701999999ADDGA1021+009001999GF102991999999999999999999MA1100911999999REMMET051METAR SBLP 011900Z 27004KT 9999 FEW030 36/17 Q1009;
0072832880999992010110120004-13267-043417FM-15+0443SBLP V0203301N003119999999Y0099001N1+03601+01701999999ADDMA1100911999999REMMET045METAR SBLP 012000Z 33006KT CAVOK 36/17 Q1009;
0072832880999992010110121004-13267-043417FM-15+0443SBLP V0209999C000019999999Y0099001N1+03401+01601999999ADDMA1100911999999REMMET045METAR SBLP 012100Z 00000KT CAVOK 34/16 Q1009;
0072832880999992010110210004-13267-043417FM-15+0443SBLP V0202301N002119999999Y0099001N1+02701+02001999999ADDMA1101291999999REMMET045METAR SBLP 021000Z 23004KT CAVOK 27/20 Q1013;
0072832880999992010110211004-13267-043417FM-15+0443SBLP V0200901N001519999999Y0099001N1+03001+02001999999ADDMA1101291999999REMMET045METAR SBLP 021100Z 09003KT CAVOK 30/20 Q1013;
0072832880999992010110212004-13267-043417FM-15+0443SBLP V0201201N003119999999Y0099001N1+03201+02101999999ADDMA1101291999999REMMET045METAR SBLP 021200Z 12006KT CAVOK 32/21 Q1013;
0120832880999992010110213004-13267-043417FM-15+0443SBLP V0200901N002112200019N0112651N1+03301+02001999999ADDGA1021+009001999GF102991999999999999999999MA1101291999999REMMET051METAR SBLP 021300Z 09004KT 9999 FEW030 33/20 Q1013;
0120832880999992010110214004-13267-043417FM-15+0443SBLP V0203101N001512200019N0112651N1+03401+01901999999ADDGA1021+009001999GF102991999999999999999999MA1101191999999REMMET051METAR SBLP 021400Z 31003KT 9999 FEW030 34/19 Q1012;
0120832880999992010110215004-13267-043417FM-15+0443SBLP V0203601N002612200019N0112651N1+03501+01901999999ADDGA1041+009001999GF104991999999999999999999MA1101081999999REMMET051METAR SBLP 021500Z 36005KT 9999 SCT030 35/19 Q1011;
0120832880999992010110216004-13267-043417FM-15+0443SBLP V0209999C000012200019N0112651N1+03501+01701999999ADDGA1041+009001999GF104991999999999999999999MA1100911999999REMMET051METAR SBLP 021600Z 00000KT 9999 SCT030 35/17 Q1009;
0120832880999992010110218004-13267-043417FM-15+0443SBLP V0203401N003112200019N0112651N1+03601+01801999999ADDGA1041+009001999GF104991999999999999999999MA1100611999999REMMET051METAR SBLP 021800Z 34006KT 9999 SCT030 36/18 Q1006;
0120832880999992010110219004-13267-043417FM-15+0443SBLP V0209999C000012200019N0112651N1+03701+01701999999ADDGA1021+009001999GF102991999999999999999999MA1100611999999REMMET051METAR SBLP 021900Z 00000KT 9999 FEW030 37/17 Q1006;
0120832880999992010110220004-13267-043417FM-15+0443SBLP V0209999C000012200019N0112651N1+03701+01701999999ADDGA1021+009001999GF102991999999999999999999MA1100611999999REMMET051METAR SBLP 022000Z 00000KT 9999 FEW030 37/17 Q1006;
0120832880999992010110221004-13267-043417FM-15+0443SBLP V0209999C000012200019N0112651N1+03401+01901999999ADDGA1021+009001999GF102991999999999999999999MA1100711999999REMMET051METAR SBLP 022100Z 00000KT 9999 FEW030 34/19 Q1007;
0143832880999992010110310004-13267-043417FM-15+0443SBLP V0209999C000012200019N0112651N1+02301+01901999999ADDGA1021+006001999GA2041+030001999GF104991999999999999999999MA1101291999999REMMET058METAR SBLP 031000Z 00000KT 9999 FEW020 SCT100 23/19 Q1013;
0143832880999992010110312004-13267-043417FM-15+0443SBLP V0201801N003112200019N0112651N1+02801+01901999999ADDGA1021+009001999GA2041+030001999GF104991999999999999999999MA1101291999999REMMET058METAR SBLP 031200Z 18006KT 9999 FEW030 SCT100 28/19 Q1013;
0143832880999992010110313004-13267-043417FM-15+0443SBLP V0201201N003112200019N0112651N1+03001+02001999999ADDGA1021+009001999GA2041+030001999GF104991999999999999999999MA1101291999999REMMET058METAR SBLP 031300Z 12006KT 9999 FEW030 SCT100 30/20 Q1013;
0143832880999992010110315004-13267-043417FM-15+0443SBLP V0209999C000012200019N0112651N1+03201+02101999999ADDGA1021+009001999GA2041+030001999GF104991999999999999999999MA1101021999999REMMET058METAR SBLP 031500Z 00000KT 9999 FEW030 SCT100 32/21 Q1010;
0143832880999992010110316004-13267-043417FM-15+0443SBLP V0202701N002112200019N0112651N1+03501+01801999999ADDGA1021+009001999GA2041+030001999GF104991999999999999999999MA1100911999999REMMET058METAR SBLP 031600Z 27004KT 9999 FEW030 SCT100 35/18 Q1009;
0143832880999992010110317004-13267-043417FM-15+0443SBLP V0202101N002112200019N0112651N1+03501+01801999999ADDGA1021+009001999GA2041+030001999GF104991999999999999999999MA1100811999999REMMET058METAR SBLP 031700Z 21004KT 9999 FEW030 SCT100 35/18 Q1008;
0143832880999992010110318004-13267-043417FM-15+0443SBLP V0202101N003112200019N0112651N1+03501+01801999999ADDGA1021+009001999GA2041+030001999GF104991999999999999999999MA1100711999999REMMET058METAR SBLP 031800Z 21006KT 9999 FEW030 SCT100 35/18 Q1007;
0143832880999992010110319004-13267-043417FM-15+0443SBLP V0201901N002112200019N0112651N1+03501+01801999999ADDGA1021+009001999GA2041+030001999GF104991999999999999999999MA1100711999999REMMET058METAR SBLP 031900Z 19004KT 9999 FEW030 SCT100 35/18 Q1007;
0143832880999992010110320004-13267-043417FM-15+0443SBLP V0202101N003112200019N0112651N1+03401+01701999999ADDGA1021+009001999GA2041+030001999GF104991999999999999999999MA1100711999999REMMET058METAR SBLP 032000Z 21006KT 9999 FEW030 SCT100 34/17 Q1007;
0143832880999992010110410004-13267-043417FM-15+0443SBLP V0202101N002110300019N0112651N1+02301+02201999999ADDGA1021+006001999GA2071+030001999GF107991999999999999999999MA1101391999999REMMET058METAR SBLP 041000Z 21004KT 9999 FEW020 BKN100 23/22 Q1014;
0143832880999992010110411004-13267-043417FM-15+0443SBLP V0202101N003110300019N0112651N1+02601+02101999999ADDGA1021+006001999GA2071+030001999GF107991999999999999999999MA1101491999999REMMET058METAR SBLP 041100Z 21006KT 9999 FEW020 BKN100 26/21 Q1015;
0143832880999992010110412004-13267-043417FM-15+0443SBLP V0202101N003112200019N0112651N1+02701+02101999999ADDGA1021+009001999GA2041+030001999GF104991999999999999999999MA1101491999999REMMET058METAR SBLP 041200Z 21006KT 9999 FEW030 SCT100 27/21 Q1015;
0143832880999992010110413004-13267-043417FM-15+0443SBLP V0209999C000010300019N0112651N1+02801+02101999999ADDGA1021+009001999GA2071+030001999GF107991999999999999999999MA1101491999999REMMET058METAR SBLP 041300Z 00000KT 9999 FEW030 BKN100 28/21 Q1015;
0143832880999992010110414004-13267-043417FM-15+0443SBLP V0200901N003110300019N0112651N1+02901+02201999999ADDGA1021+009001999GA2071+030001999GF107991999999999999999999MA1101491999999REMMET058METAR SBLP 041400Z 09006KT 9999 FEW030 BKN100 29/22 Q1015;
0143832880999992010110415004-13267-043417FM-15+0443SBLP V0200401N003110300019N0112651N1+03101+02201999999ADDGA1041+009001999GA2071+030001999GF107991999999999999999999MA1101291999999REMMET058METAR SBLP 041500Z 04006KT 9999 SCT030 BKN100 31/22 Q1013;
0143832880999992010110416004-13267-043417FM-15+0443SBLP V0200901N001512200019N0112651N1+03201+02101999999ADDGA1041+009001999GA2041+030001999GF104991999999999999999999MA1101191999999REMMET058METAR SBLP 041600Z 09003KT 9999 SCT030 SCT100 32/21 Q1012;
0169832880999992010110417004-13267-043417FM-15+0443SBLP V0201301N003112200019N0112651N1+03301+02001999999ADDGA1041+009001999GA2021+012001021GA3041+030001999GF104991999999999999999999MA1101081999999REMMET068METAR SBLP 041700Z 13006KT 9999 SCT030 FEW040TCU SCT100 33/20 Q1011;
0168832880999992010110418004-13267-043417FM-15+0443SBLP V0201701N005112200019N0112651N1+03101+02101999999ADDGA1021+009001999GA2021+012001091GA3041+030001999GF104991999999999999999999MA1101081999999REMMET067METAR SBLP 041800Z 17010KT 9999 FEW030 FEW040CB SCT100 31/21 Q1011;
0143832880999992010110419004-13267-043417FM-15+0443SBLP V0201501N004110300019N0112651N1+03001+02001999999ADDGA1021+009001999GA2071+030001999GF107991999999999999999999MA1101021999999REMMET058METAR SBLP 041900Z 15008KT 9999 FEW030 BKN100 30/20 Q1010;
0143832880999992010110420004-13267-043417FM-15+0443SBLP V0201501N002110300019N0112651N1+02901+01901999999ADDGA1041+009001999GA2071+030001999GF107991999999999999999999MA1101081999999REMMET058METAR SBLP 042000Z 15004KT 9999 SCT030 BKN100 29/19 Q1011;
0143832880999992010110421004-13267-043417FM-15+0443SBLP V0202101N003112200019N0112651N1+02801+01901999999ADDGA1021+009001999GA2041+030001999GF104991999999999999999999MA1101191999999REMMET058METAR SBLP 042100Z 21006KT 9999 FEW030 SCT100 28/19 Q1012;
0072832880999992010110510004-13267-043417FM-15+0443SBLP V0201701N001519999999Y0099001N1+02501+02201999999ADDMA1101591999999REMMET045METAR SBLP 051000Z 17003KT CAVOK 25/22 Q1016;
0072832880999992010110511004-13267-043417FM-15+0443SBLP V0201101N003119999999Y0099001N1+02801+02101999999ADDMA1101591999999REMMET045METAR SBLP 051100Z 11006KT CAVOK 28/21 Q1016;
0143832880999992010110512004-13267-043417FM-15+0443SBLP V0200601N002110300019N0112651N1+02801+01701999999ADDGA1021+009001999GA2071+030001999GF107991999999999999999999MA1101591999999REMMET058METAR SBLP 051200Z 06004KT 9999 FEW030 BKN100 28/17 Q1016;
0143832880999992010110513004-13267-043417FM-15+0443SBLP V0209999C000010300019N0112651N1+03101+01701999999ADDGA1021+009001999GA2071+030001999GF107991999999999999999999MA1101591999999REMMET058METAR SBLP 051300Z 00000KT 9999 FEW030 BKN100 31/17 Q1016;
0143832880999992010110515004-13267-043417FM-15+0443SBLP V0201801N003110300019N0112651N1+03301+01501999999ADDGA1021+009001999GA2071+030001999GF107991999999999999999999MA1101391999999REMMET058METAR SBLP 051500Z 18006KT 9999 FEW030 BKN100 33/15 Q1014;
0143832880999992010110517004-13267-043417FM-15+0443SBLP V0202701N003112200019N0112651N1+03301+01701999999ADDGA1021+009001999GA2041+030001999GF104991999999999999999999MA1101191999999REMMET058METAR SBLP 051700Z 27006KT 9999 FEW030 SCT100 33/17 Q1012;
0143832880999992010110518004-13267-043417FM-15+0443SBLP V0200101N004112200019N0112651N1+03501+01601999999ADDGA1021+009001999GA2041+030001999GF104991999999999999999999MA1101081999999REMMET058METAR SBLP 051800Z 01008KT 9999 FEW030 SCT100 35/16 Q1011;
0072832880999992010110519004-13267-043417FM-15+0443SBLP V0203001N003119999999Y0099001N1+03501+01301999999ADDMA1101021999999REMMET045METAR SBLP 051900Z 30006KT CAVOK 35/13 Q1010;
0072832880999992010110520004-13267-043417FM-15+0443SBLP V0203301N002119999999Y0099001N1+03501+01401999999ADDMA1101021999999REMMET045METAR SBLP 052000Z 33004KT CAVOK 35/14 Q1010;
0072832880999992010110521004-13267-043417FM-15+0443SBLP V0201801N002119999999Y0099001N1+03201+01501999999ADDMA1101021999999REMMET045METAR SBLP 052100Z 18004KT CAVOK 32/15 Q1010;
0072832880999992010110610004-13267-043417FM-15+0443SBLP V0200501N001519999999Y0099001N1+02701+01701999999ADDMA1101291999999REMMET045METAR SBLP 061000Z 05003KT CAVOK 27/17 Q1013;
0072832880999992010110611004-13267-043417FM-15+0443SBLP V0203201N003119999999Y0099001N1+02901+01901999999ADDMA1101291999999REMMET045METAR SBLP 061100Z 32006KT CAVOK 29/19 Q1013;
0072832880999992010110612004-13267-043417FM-15+0443SBLP V0200301N003119999999Y0099001N1+03201+01701999999ADDMA1101291999999REMMET045METAR SBLP 061200Z 03006KT CAVOK 32/17 Q1013;
0072832880999992010110613004-13267-043417FM-15+0443SBLP V0203601N006219999999Y0099001N1+03401+01801999999ADDMA1101291999999REMMET045METAR SBLP 061300Z 36012KT CAVOK 34/18 Q1013;
0120832880999992010110614004-13267-043417FM-15+0443SBLP V0203001N004112200019N0112651N1+03401+01801999999ADDGA1021+009001999GF102991999999999999999999MA1101291999999REMMET051METAR SBLP 061400Z 30008KT 9999 FEW030 34/18 Q1013;
0120832880999992010110615004-13267-043417FM-15+0443SBLP V0203401N005112200019N0112651N1+03501+01801999999ADDGA1041+009001999GF104991999999999999999999MA1101191999999REMMET051METAR SBLP 061500Z 34010KT 9999 SCT030 35/18 Q1012;
0120832880999992010110616004-13267-043417FM-15+0443SBLP V0203601N003112200019N0112651N1+03701+01801999999ADDGA1041+009001999GF104991999999999999999999MA1101021999999REMMET051METAR SBLP 061600Z 36006KT 9999 SCT030 37/18 Q1010;
0120832880999992010110617004-13267-043417FM-15+0443SBLP V0203001N003112200019N0112651N1+03701+01801999999ADDGA1041+009001999GF104991999999999999999999MA1100911999999REMMET051METAR SBLP 061700Z 30006KT 9999 SCT030 37/18 Q1009;
0120832880999992010110618004-13267-043417FM-15+0443SBLP V0202701N003112200019N0112651N1+03701+01801999999ADDGA1041+009001999GF104991999999999999999999MA1100811999999REMMET051METAR SBLP 061800Z 27006KT 9999 SCT030 37/18 Q1008;
0143832880999992010110619004-13267-043417FM-15+0443SBLP V0203501N003112200019N0112651N1+03501+01901999999ADDGA1021+009001999GA2041+030001999GF104991999999999999999999MA1100811999999REMMET058METAR SBLP 061900Z 35006KT 9999 FEW030 SCT100 35/19 Q1008;
0143832880999992010110620004-13267-043417FM-15+0443SBLP V0209999C000012200019N0112651N1+03501+02001999999ADDGA1021+009001999GA2041+030001999GF104991999999999999999999MA1100811999999REMMET058METAR SBLP 062000Z 00000KT 9999 FEW030 SCT100 35/20 Q1008;
0072832880999992010110621004-13267-043417FM-15+0443SBLP V0200401N002119999999Y0099001N1+03301+02001999999ADDMA1100811999999REMMET045METAR SBLP 062100Z 04004KT CAVOK 33/20 Q1008;
0072832880999992010110710004-13267-043417FM-15+0443SBLP V0209999C000019999999Y0099001N1+02701+01601999999ADDMA1101291999999REMMET045METAR SBLP 071000Z 00000KT CAVOK 27/16 Q1013;
0072832880999992010110711004-13267-043417FM-15+0443SBLP V0209999C000019999999Y0099001N1+03201+01701999999ADDMA1101291999999REMMET045METAR SBLP 071100Z 00000KT CAVOK 32/17 Q1013;
0072832880999992010110712004-13267-043417FM-15+0443SBLP V0200301N002119999999Y0099001N1+03201+01701999999ADDMA1101291999999REMMET045METAR SBLP 071200Z 03004KT CAVOK 32/17 Q1013;
0072832880999992010110713004-13267-043417FM-15+0443SBLP V0209999C000019999999Y0099001N1+03401+01601999999ADDMA1101291999999REMMET045METAR SBLP 071300Z 00000KT CAVOK 34/16 Q1013;
0120832880999992010110714004-13267-043417FM-15+0443SBLP V0203601N003112200019N0112651N1+03501+01601999999ADDGA1021+009001999GF102991999999999999999999MA1101291999999REMMET051METAR SBLP 071400Z 36006KT 9999 FEW030 35/16 Q1013;
0120832880999992010110715004-13267-043417FM-15+0443SBLP V0203601N003112200019N0112651N1+03501+01701999999ADDGA1021+009001999GF102991999999999999999999MA1101191999999REMMET051METAR SBLP 071500Z 36006KT 9999 FEW030 35/17 Q1012;
0120832880999992010110716004-13267-043417FM-15+0443SBLP V0209999C000012200019N0112651N1+03501+01701999999ADDGA1041+009001999GF104991999999999999999999MA1101081999999REMMET051METAR SBLP 071600Z 00000KT 9999 SCT030 35/17 Q1011;
0120832880999992010110717004-13267-043417FM-15+0443SBLP V0203601N003112200019N0112651N1+03601+01701999999ADDGA1041+009001999GF104991999999999999999999MA1101021999999REMMET051METAR SBLP 071700Z 36006KT 9999 SCT030 36/17 Q1010;
0120832880999992010110718004-13267-043417FM-15+0443SBLP V0201801N003112200019N0112651N1+03601+01801999999ADDGA1041+009001999GF104991999999999999999999MA1100911999999REMMET051METAR SBLP 071800Z 18006KT 9999 SCT030 36/18 Q1009;
0120832880999992010110719004-13267-043417FM-15+0443SBLP V0202101N003112200019N0112651N1+03601+01801999999ADDGA1041+009001999GF104991999999999999999999MA1100911999999REMMET051METAR SBLP 071900Z 21006KT 9999 SCT030 36/18 Q1009;
0120832880999992010110720004-13267-043417FM-15+0443SBLP V0202101N002112200019N0112651N1+03601+01801999999ADDGA1041+009001999GF104991999999999999999999MA1100911999999REMMET051METAR SBLP 072000Z 21004KT 9999 SCT030 36/18 Q1009;
0120832880999992010110721004-13267-043417FM-15+0443SBLP V0201801N003112200019N0112651N1+03401+02001999999ADDGA1041+009001999GF104991999999999999999999MA1101021999999REMMET051METAR SBLP 072100Z 18006KT 9999 SCT030 34/20 Q1010;
0072832880999992010110811004-13267-043417FM-15+0443SBLP V0201501N003119999999Y0099001N1+02801+02001999999ADDMA1101491999999REMMET045METAR SBLP 081100Z 15006KT CAVOK 28/20 Q1015;
0120832880999992010110812004-13267-043417FM-15+0443SBLP V0200601N002112200019N0112651N1+03101+02101999999ADDGA1021+009001999GF102991999999999999999999MA1101491999999REMMET051METAR SBLP 081200Z 06004KT 9999 FEW030 31/21 Q1015;
0120832880999992010110813004-13267-043417FM-15+0443SBLP V0200901N003112200019N0112651N1+03201+02101999999ADDGA1041+009001999GF104991999999999999999999MA1101491999999REMMET051METAR SBLP 081300Z 09006KT 9999 SCT030 32/21 Q1015;
0120832880999992010110815004-13267-043417FM-15+0443SBLP V0209999C000012200019N0112651N1+03501+02001999999ADDGA1041+009001999GF104991999999999999999999MA1101291999999REMMET051METAR SBLP 081500Z 00000KT 9999 SCT030 35/20 Q1013;
0120832880999992010110816004-13267-043417FM-15+0443SBLP V0209999C000012200019N0112651N1+03501+01901999999ADDGA1041+009001999GF104991999999999999999999MA1101081999999REMMET051METAR SBLP 081600Z 00000KT 9999 SCT030 35/19 Q1011;
0120832880999992010110817004-13267-043417FM-15+0443SBLP V0201801N003112200019N0112651N1+03601+01801999999ADDGA1041+009001999GF104991999999999999999999MA1101021999999REMMET051METAR SBLP 081700Z 18006KT 9999 SCT030 36/18 Q1010;
0147832880999992010110818004-13267-043417FM-15+0443SBLP V0200901N003112200019N0112651N1+03401+01801999999ADDGA1041+009001999GA2021+012001091MA1101021999999MW1171REMMET063METAR SBLP 081800Z 09006KT 9999 TS SCT030 FEW040CB 34/18 Q1010;EQDQ01+000022SCOTCV
0143832880999992010110819004-13267-043417FM-15+0443SBLP V0201801N003112200019N0112651N1+02901+02101999999ADDGA1041+009001999GA2041+030001999GF104991999999999999999999MA1101021999999REMMET058METAR SBLP 081900Z 18006KT 9999 SCT030 SCT100 29/21 Q1010;
0143832880999992010110820004-13267-043417FM-15+0443SBLP V0209999C000012200019N0112651N1+02801+02101999999ADDGA1041+009001999GA2041+030001999GF104991999999999999999999MA1101021999999REMMET058METAR SBLP 082000Z 00000KT 9999 SCT030 SCT100 28/21 Q1010;
0143832880999992010110821004-13267-043417FM-15+0443SBLP V0209999C000010300019N0112651N1+02801+02101999999ADDGA1041+009001999GA2071+030001999GF107991999999999999999999MA1101081999999REMMET058METAR SBLP 082100Z 00000KT 9999 SCT030 BKN100 28/21 Q1011;
0072832880999992010110910004-13267-043417FM-15+0443SBLP V0209999C000019999999Y0099001N1+02401+02101999999ADDMA1101391999999REMMET045METAR SBLP 091000Z 00000KT CAVOK 24/21 Q1014;
0072832880999992010110911004-13267-043417FM-15+0443SBLP V0209999C000019999999Y0099001N1+02701+02101999999ADDMA1101391999999REMMET045METAR SBLP 091100Z 00000KT CAVOK 27/21 Q1014;
0072832880999992010110912004-13267-043417FM-15+0443SBLP V0209999C000019999999Y0099001N1+02901+02001999999ADDMA1101491999999REMMET045METAR SBLP 091200Z 00000KT CAVOK 29/20 Q1015;
0072832880999992010110913004-13267-043417FM-15+0443SBLP V0200901N003119999999Y0099001N1+03101+01901999999ADDMA1101391999999REMMET045METAR SBLP 091300Z 09006KT CAVOK 31/19 Q1014;
0072832880999992010110914004-13267-043417FM-15+0443SBLP V0200901N003119999999Y0099001N1+03201+01901999999ADDMA1101291999999REMMET045METAR SBLP 091400Z 09006KT CAVOK 32/19 Q1013;
0120832880999992010110915004-13267-043417FM-15+0443SBLP V0200901N003112200019N0112651N1+03301+01901999999ADDGA1021+009001999GF102991999999999999999999MA1101191999999REMMET051METAR SBLP 091500Z 09006KT 9999 FEW030 33/19 Q1012;
0120832880999992010110916004-13267-043417FM-15+0443SBLP V0202401N001512200019N0112651N1+03401+01801999999ADDGA1021+009001999GF102991999999999999999999MA1101081999999REMMET051METAR SBLP 091600Z 24003KT 9999 FEW030 34/18 Q1011;
0120832880999992010110917004-13267-043417FM-15+0443SBLP V0201201N002612200019N0112651N1+03501+01601999999ADDGA1021+009001999GF102991999999999999999999MA1101021999999REMMET051METAR SBLP 091700Z 12005KT 9999 FEW030 35/16 Q1010;
0120832880999992010110918004-13267-043417FM-15+0443SBLP V0201801N003112200019N0112651N1+03601+01601999999ADDGA1021+009001999GF102991999999999999999999MA1100911999999REMMET051METAR SBLP 091800Z 18006KT 9999 FEW030 36/16 Q1009;
0120832880999992010110919004-13267-043417FM-15+0443SBLP V0200901N001512200019N0112651N1+03601+01601999999ADDGA1021+009001999GF102991999999999999999999MA1100811999999REMMET051METAR SBLP 091900Z 09003KT 9999 FEW030 36/16 Q1008;
0072832880999992010110920004-13267-043417FM-15+0443SBLP V0201801N004119999999Y0099001N1+03501+01401999999ADDMA1100811999999REMMET045METAR SBLP 092000Z 18008KT CAVOK 35/14 Q1008;
0072832880999992010110921004-13267-043417FM-15+0443SBLP V0201701N002119999999Y0099001N1+03201+01401999999ADDMA1100811999999REMMET045METAR SBLP 092100Z 17004KT CAVOK 32/14 Q1008;
0072832880999992010111010004-13267-043417FM-15+0443SBLP V0209999C000019999999Y0099001N1+02601+01701999999ADDMA1101291999999REMMET045METAR SBLP 101000Z 00000KT CAVOK 26/17 Q1013;
0072832880999992010111011004-13267-043417FM-15+0443SBLP V0200901N003119999999Y0099001N1+02901+01601999999ADDMA1101391999999REMMET045METAR SBLP 101100Z 09006KT CAVOK 29/16 Q1014;
0072832880999992010111012004-13267-043417FM-15+0443SBLP V0200901N003119999999Y0099001N1+03001+01601999999ADDMA1101391999999REMMET045METAR SBLP 101200Z 09006KT CAVOK 30/16 Q1014;
0072832880999992010111013004-13267-043417FM-15+0443SBLP V0200901N003119999999Y0099001N1+03201+01501999999ADDMA1101391999999REMMET045METAR SBLP 101300Z 09006KT CAVOK 32/15 Q1014;
0072832880999992010111014004-13267-043417FM-15+0443SBLP V0200901N003119999999Y0099001N1+03201+01401999999ADDMA1101291999999REMMET045METAR SBLP 101400Z 09006KT CAVOK 32/14 Q1013;
0072832880999992010111015004-13267-043417FM-15+0443SBLP V0200901N003119999999Y0099001N1+03301+01401999999ADDMA1101191999999REMMET045METAR SBLP 101500Z 09006KT CAVOK 33/14 Q1012;
0072832880999992010111016004-13267-043417FM-15+0443SBLP V0203601N002619999999Y0099001N1+03401+01301999999ADDMA1101081999999REMMET045METAR SBLP 101600Z 36005KT CAVOK 34/13 Q1011;
0072832880999992010111017004-13267-043417FM-15+0443SBLP V0209999C000019999999Y0099001N1+03401+01301999999ADDMA1101021999999REMMET045METAR SBLP 101700Z 00000KT CAVOK 34/13 Q1010;
0072832880999992010111018004-13267-043417FM-15+0443SBLP V0203301N003119999999Y0099001N1+03501+01701999999ADDMA1100911999999REMMET045METAR SBLP 101800Z 33006KT CAVOK 35/17 Q1009;
0072832880999992010111019004-13267-043417FM-15+0443SBLP V0202501N002119999999Y0099001N1+03501+01701999999ADDMA1100811999999REMMET045METAR SBLP 101900Z 25004KT CAVOK 35/17 Q1008;
0072832880999992010111020004-13267-043417FM-15+0443SBLP V0202101N001519999999Y0099001N1+03401+01601999999ADDMA1100911999999REMMET045METAR SBLP 102000Z 21003KT CAVOK 34/16 Q1009;
0072832880999992010111021004-13267-043417FM-15+0443SBLP V0201801N001519999999Y0099001N1+03301+01501999999ADDMA1100911999999REMMET045METAR SBLP 102100Z 18003KT CAVOK 33/15 Q1009;
0072832880999992010111110004-13267-043417FM-15+0443SBLP V0201801N002119999999Y0099001N1+02501+01801999999ADDMA1101291999999REMMET045METAR SBLP 111000Z 18004KT CAVOK 25/18 Q1013;
0072832880999992010111111004-13267-043417FM-15+0443SBLP V0209999C000019999999Y0099001N1+02901+01601999999ADDMA1101391999999REMMET045METAR SBLP 111100Z 00000KT CAVOK 29/16 Q1014;
0072832880999992010111112004-13267-043417FM-15+0443SBLP V0200601N002119999999Y0099001N1+03101+01701999999ADDMA1101391999999REMMET045METAR SBLP 111200Z 06004KT CAVOK 31/17 Q1014;
0120832880999992010111113004-13267-043417FM-15+0443SBLP V0209999C000012200019N0112651N1+03201+01701999999ADDGA1021+009001999GF102991999999999999999999MA1101391999999REMMET051METAR SBLP 111300Z 00000KT 9999 FEW030 32/17 Q1014;
0120832880999992010111115004-13267-043417FM-15+0443SBLP V0200101N002112200019N0112651N1+03401+01501999999ADDGA1041+009001999GF104991999999999999999999MA1101291999999REMMET051METAR SBLP 111500Z 01004KT 9999 SCT030 34/15 Q1013;
0143832880999992010111116004-13267-043417FM-15+0443SBLP V0209999C000012200019N0112651N1+03501+01501999999ADDGA1021+009001999GA2041+030001999GF104991999999999999999999MA1101191999999REMMET058METAR SBLP 111600Z 00000KT 9999 FEW030 SCT100 35/15 Q1012;
0143832880999992010111119004-13267-043417FM-15+0443SBLP V0209999C000012200019N0112651N1+03501+01701999999ADDGA1021+009001999GA2041+030001999GF104991999999999999999999MA1101021999999REMMET058METAR SBLP 111900Z 00000KT 9999 FEW030 SCT100 35/17 Q1010;
0120832880999992010111120004-13267-043417FM-15+0443SBLP V0209999C000012200019N0112651N1+03501+01601999999ADDGA1021+009001999GF102991999999999999999999MA1101081999999REMMET051METAR SBLP 112000Z 00000KT 9999 FEW030 35/16 Q1011;
0072832880999992010111121004-13267-043417FM-15+0443SBLP V0209999C000019999999Y0099001N1+03301+01901999999ADDMA1101081999999REMMET045METAR SBLP 112100Z 00000KT CAVOK 33/19 Q1011;
0072832880999992010111210004-13267-043417FM-15+0443SBLP V0201201N003119999999Y0099001N1+02801+01801999999ADDMA1101491999999REMMET045METAR SBLP 121000Z 12006KT CAVOK 28/18 Q1015;
0072832880999992010111211004-13267-043417FM-15+0443SBLP V0200901N003119999999Y0099001N1+03001+01801999999ADDMA1101491999999REMMET045METAR SBLP 121100Z 09006KT CAVOK 30/18 Q1015;
0072832880999992010111212004-13267-043417FM-15+0443SBLP V0200901N003119999999Y0099001N1+03201+01801999999ADDMA1101491999999REMMET045METAR SBLP 121200Z 09006KT CAVOK 32/18 Q1015;
0072832880999992010111213004-13267-043417FM-15+0443SBLP V0200901N003119999999Y0099001N1+03401+01801999999ADDMA1101491999999REMMET045METAR SBLP 121300Z 09006KT CAVOK 34/18 Q1015;
0143832880999992010111214004-13267-043417FM-15+0443SBLP V0202101N003110300019N0112651N1+03401+02001999999ADDGA1021+009001999GA2071+030001999GF107991999999999999999999MA1101391999999REMMET058METAR SBLP 121400Z 21006KT 9999 FEW030 BKN100 34/20 Q1014;
0143832880999992010111215004-13267-043417FM-15+0443SBLP V0202701N003110300019N0112651N1+03401+02001999999ADDGA1041+009001999GA2071+030001999GF107991999999999999999999MA1101291999999REMMET058METAR SBLP 121500Z 27006KT 9999 SCT030 BKN100 34/20 Q1013;
0143832880999992010111216004-13267-043417FM-15+0443SBLP V0201801N003110300019N0112651N1+03401+01901999999ADDGA1041+009001999GA2071+030001999GF107991999999999999999999MA1101191999999REMMET058METAR SBLP 121600Z 18006KT 9999 SCT030 BKN100 34/19 Q1012;
0143832880999992010111217004-13267-043417FM-15+0443SBLP V0201801N003110300019N0112651N1+03501+01901999999ADDGA1021+009001999GA2071+030001999GF107991999999999999999999MA1101081999999REMMET058METAR SBLP 121700Z 18006KT 9999 FEW030 BKN100 35/19 Q1011;
0143832880999992010111218004-13267-043417FM-15+0443SBLP V0201801N003110300019N0112651N1+03601+01801999999ADDGA1021+009001999GA2071+030001999GF107991999999999999999999MA1101021999999REMMET058METAR SBLP 121800Z 18006KT 9999 FEW030 BKN100 36/18 Q1010;
0143832880999992010111219004-13267-043417FM-15+0443SBLP V0200901N003110300019N0112651N1+03601+01701999999ADDGA1021+009001999GA2071+030001999GF107991999999999999999999MA1101021999999REMMET058METAR SBLP 121900Z 09006KT 9999 FEW030 BKN100 36/17 Q1010;
0143832880999992010111220004-13267-043417FM-15+0443SBLP V0200901N003110300019N0112651N1+03401+01801999999ADDGA1041+009001999GA2071+030001999GF107991999999999999999999MA1101081999999REMMET058METAR SBLP 122000Z 09006KT 9999 SCT030 BKN100 34/18 Q1011;
0143832880999992010111221004-13267-043417FM-15+0443SBLP V0200901N003110300019N0112651N1+03201+01901999999ADDGA1041+009001999GA2071+030001999GF107991999999999999999999MA1101081999999REMMET058METAR SBLP 122100Z 09006KT 9999 SCT030 BKN100 32/19 Q1011;
0072832880999992010111310004-13267-043417FM-15+0443SBLP V0201201N002619999999Y0099001N1+02801+01901999999ADDMA1101391999999REMMET045METAR SBLP 131000Z 12005KT CAVOK 28/19 Q1014;
0072832880999992010111311004-13267-043417FM-15+0443SBLP V0201201N004119999999Y0099001N1+02901+01901999999ADDMA1101491999999REMMET045METAR SBLP 131100Z 12008KT CAVOK 29/19 Q1015;
0072832880999992010111312004-13267-043417FM-15+0443SBLP V0200601N002619999999Y0099001N1+03101+02001999999ADDMA1101491999999REMMET045METAR SBLP 131200Z 06005KT CAVOK 31/20 Q1015;
0120832880999992010111313004-13267-043417FM-15+0443SBLP V0203601N002112200019N0112651N1+03301+02001999999ADDGA1021+009001999GF102991999999999999999999MA1101391999999REMMET051METAR SBLP 131300Z 36004KT 9999 FEW030 33/20 Q1014;
0120832880999992010111314004-13267-043417FM-15+0443SBLP V0203601N002112200019N0112651N1+03401+01901999999ADDGA1021+009001999GF102991999999999999999999MA1101291999999REMMET051METAR SBLP 131400Z 36004KT 9999 FEW030 34/19 Q1013;
0120832880999992010111315004-13267-043417FM-15+0443SBLP V0200301N001512200019N0112651N1+03501+01701999999ADDGA1041+009001999GF104991999999999999999999MA1101191999999REMMET051METAR SBLP 131500Z 03003KT 9999 SCT030 35/17 Q1012;
0120832880999992010111316004-13267-043417FM-15+0443SBLP V0200901N003112200019N0112651N1+03501+01801999999ADDGA1041+009001999GF104991999999999999999999MA1101081999999REMMET051METAR SBLP 131600Z 09006KT 9999 SCT030 35/18 Q1011;
0120832880999992010111317004-13267-043417FM-15+0443SBLP V0200901N006212200019N0112651N1+03601+01901999999ADDGA1041+009001999GF104991999999999999999999MA1101021999999REMMET051METAR SBLP 131700Z 09012KT 9999 SCT030 36/19 Q1010;
0120832880999992010111318004-13267-043417FM-15+0443SBLP V0200901N003112200019N0112651N1+03501+01901999999ADDGA1041+009001999GF104991999999999999999999MA1100911999999REMMET051METAR SBLP 131800Z 09006KT 9999 SCT030 35/19 Q1009;
0120832880999992010111319004-13267-043417FM-15+0443SBLP V0200901N003112200019N0112651N1+03501+01901999999ADDGA1041+009001999GF104991999999999999999999MA1100811999999REMMET051METAR SBLP 131900Z 09006KT 9999 SCT030 35/19 Q1008;
0143832880999992010111320004-13267-043417FM-15+0443SBLP V0200901N003112200019N0112651N1+03301+01901999999ADDGA1041+009001999GA2041+030001999GF104991999999999999999999MA1100811999999REMMET058METAR SBLP 132000Z 09006KT 9999 SCT030 SCT100 33/19 Q1008;
0143832880999992010111321004-13267-043417FM-15+0443SBLP V0200901N003112200019N0112651N1+03201+02001999999ADDGA1041+009001999GA2041+030001999GF104991999999999999999999MA1100911999999REMMET058METAR SBLP 132100Z 09006KT 9999 SCT030 SCT100 32/20 Q1009;
0143832880999992010111410004-13267-043417FM-15+0443SBLP V0209999C000010300019N0112651N1+02501+02101999999ADDGA1041+006001999GA2071+030001999GF107991999999999999999999MA1101291999999REMMET058METAR SBLP 141000Z 00000KT 9999 SCT020 BKN100 25/21 Q1013;
0143832880999992010111411004-13267-043417FM-15+0443SBLP V0209999C000010300019N0112651N1+02601+02101999999ADDGA1021+006001999GA2071+030001999GF107991999999999999999999MA1101391999999REMMET058METAR SBLP 141100Z 00000KT 9999 FEW020 BKN100 26/21 Q1014;
0143832880999992010111412004-13267-043417FM-15+0443SBLP V0202701N003110300019N0112651N1+02601+02101999999ADDGA1021+006001999GA2071+030001999GF107991999999999999999999MA1101491999999REMMET058METAR SBLP 141200Z 27006KT 9999 FEW020 BKN100 26/21 Q1015;
0143832880999992010111413004-13267-043417FM-15+0443SBLP V0202701N003110300019N0112651N1+02601+02101999999ADDGA1041+006001999GA2071+030001999GF107991999999999999999999MA1101491999999REMMET058METAR SBLP 141300Z 27006KT 9999 SCT020 BKN100 26/21 Q1015;
0153832880999992010111414004-13267-043417FM-15+0443SBLP V0201801N003110300019N0090001N1+02501+02101999999ADDGA1041+004501999GA2071+030001999GF107991999999999999999999MA1101491999999MW1611REMMET062METAR SBLP 141400Z 18006KT 9000 -RA SCT015 BKN100 25/21 Q1015;
0143832880999992010111415004-13267-043417FM-15+0443SBLP V0201801N003110300019N0112651N1+02501+02101999999ADDGA1041+003001999GA2071+030001999GF107991999999999999999999MA1101491999999REMMET058METAR SBLP 141500Z 18006KT 9999 SCT010 BKN100 25/21 Q1015;
0143832880999992010111416004-13267-043417FM-15+0443SBLP V0202101N003110300019N0112651N1+02401+02101999999ADDGA1041+004501999GA2071+030001999GF107991999999999999999999MA1101391999999REMMET058METAR SBLP 141600Z 21006KT 9999 SCT015 BKN100 24/21 Q1014;
0143832880999992010111417004-13267-043417FM-15+0443SBLP V0202101N004110300019N0112651N1+02401+02101999999ADDGA1041+004501999GA2071+030001999GF107991999999999999999999MA1101391999999REMMET058METAR SBLP 141700Z 21008KT 9999 SCT015 BKN100 24/21 Q1014;
0143832880999992010111418004-13267-043417FM-15+0443SBLP V0202301N004110300019N0112651N1+02401+02101999999ADDGA1041+004501999GA2071+030001999GF107991999999999999999999MA1101391999999REMMET058METAR SBLP 141800Z 23008KT 9999 SCT015 BKN100 24/21 Q1014;
0143832880999992010111419004-13267-043417FM-15+0443SBLP V0202301N003110300019N0112651N1+02401+02001999999ADDGA1041+004501999GA2071+030001999GF107991999999999999999999MA1101291999999REMMET058METAR SBLP 141900Z 23006KT 9999 SCT015 BKN100 24/20 Q1013;
0143832880999992010111420004-13267-043417FM-15+0443SBLP V0201801N003110300019N0112651N1+02401+02001999999ADDGA1041+004501999GA2071+030001999GF107991999999999999999999MA1101291999999REMMET058METAR SBLP 142000Z 18006KT 9999 SCT015 BKN100 24/20 Q1013;
0143832880999992010111421004-13267-043417FM-15+0443SBLP V0202101N002110300019N0112651N1+02401+02001999999ADDGA1041+004501999GA2071+030001999GF107991999999999999999999MA1101391999999REMMET058METAR SBLP 142100Z 21004KT 9999 SCT015 BKN100 24/20 Q1014;
0143832880999992010111510004-13267-043417FM-15+0443SBLP V0209999C000010300019N0112651N1+02201+02101999999ADDGA1041+004501999GA2071+030001999GF107991999999999999999999MA1101491999999REMMET058METAR SBLP 151000Z 00000KT 9999 SCT015 BKN100 22/21 Q1015;
0143832880999992010111511004-13267-043417FM-15+0443SBLP V0201801N003110300019N0112651N1+02401+02101999999ADDGA1041+003001999GA2071+030001999GF107991999999999999999999MA1101491999999REMMET058METAR SBLP 151100Z 18006KT 9999 SCT010 BKN100 24/21 Q1015;
0143832880999992010111512004-13267-043417FM-15+0443SBLP V0201801N003112200019N0112651N1+02701+02101999999ADDGA1041+004501999GA2041+030001999GF104991999999999999999999MA1101491999999REMMET058METAR SBLP 151200Z 18006KT 9999 SCT015 SCT100 27/21 Q1015;
0143832880999992010111513004-13267-043417FM-15+0443SBLP V0201801N003112200019N0112651N1+02701+02101999999ADDGA1021+006001999GA2041+030001999GF104991999999999999999999MA1101491999999REMMET058METAR SBLP 151300Z 18006KT 9999 FEW020 SCT100 27/21 Q1015;
0143832880999992010111514004-13267-043417FM-15+0443SBLP V0201801N003112200019N0112651N1+02901+02001999999ADDGA1021+006001999GA2041+030001999GF104991999999999999999999MA1101391999999REMMET058METAR SBLP 151400Z 18006KT 9999 FEW020 SCT100 29/20 Q1014;
0143832880999992010111515004-13267-043417FM-15+0443SBLP V0201801N003112200019N0112651N1+03001+02001999999ADDGA1041+006001999GA2041+030001999GF104991999999999999999999MA1101291999999REMMET058METAR SBLP 151500Z 18006KT 9999 SCT020 SCT100 30/20 Q1013;
0143832880999992010111516004-13267-043417FM-15+0443SBLP V0202101N002612200019N0112651N1+03101+01901999999ADDGA1041+006001999GA2041+030001999GF104991999999999999999999MA1101191999999REMMET058METAR SBLP 151600Z 21005KT 9999 SCT020 SCT100 31/19 Q1012;
0143832880999992010111517004-13267-043417FM-15+0443SBLP V0201801N002110300019N0112651N1+02901+01901999999ADDGA1041+006001999GA2071+030001999GF107991999999999999999999MA1101191999999REMMET058METAR SBLP 151700Z 18004KT 9999 SCT020 BKN100 29/19 Q1012;
0193832880999992010111518004-13267-043417FM-15+0443SBLP V0200401N005110045019N0080001N1+02201+02201999999ADDGA1071+004501999GA2021+012001091GA3071+030001999GF107991999999999999999999MA1101291999999MW1801MW2951REMMET080METAR SBLP 151800Z 04010KT 8000 -TSRA BKN015 FEW040CB BKN100 22/22 Q1013 RETSRA;
0148832880999992010111519004-13267-043417FM-15+0443SBLP V0200501N003110300019N0112651N1+02201+02101999999ADDGA1041+004501999GA2071+030001999GF107991999999999999999999MA1101191999999REMMET063METAR SBLP 151900Z 05006KT 9999 SCT015 BKN100 22/21 Q1012 RETS;
0143832880999992010111520004-13267-043417FM-15+0443SBLP V0201101N002110300019N0112651N1+02301+02101999999ADDGA1041+006001999GA2071+030001999GF107991999999999999999999MA1101191999999REMMET058METAR SBLP 152000Z 11004KT 9999 SCT020 BKN100 23/21 Q1012;
0143832880999992010111521004-13267-043417FM-15+0443SBLP V0201101N001510300019N0112651N1+02301+02101999999ADDGA1041+006001999GA2071+030001999GF107991999999999999999999MA1101191999999REMMET058METAR SBLP 152100Z 11003KT 9999 SCT020 BKN100 23/21 Q1012;
0143832880999992010111610004-13267-043417FM-15+0443SBLP V0209999C000010300019N0112651N1+02301+02201999999ADDGA1021+004501999GA2071+030001999GF107991999999999999999999MA1101391999999REMMET058METAR SBLP 161000Z 00000KT 9999 FEW015 BKN100 23/22 Q1014;
0072832880999992010111611004-13267-043417FM-15+0443SBLP V0200901N002119999999Y0099001N1+02601+02101999999ADDMA1101391999999REMMET045METAR SBLP 161100Z 09004KT CAVOK 26/21 Q1014;
0143832880999992010111612004-13267-043417FM-15+0443SBLP V0209999C000012200019N0112651N1+02901+02101999999ADDGA1021+009001999GA2041+030001999GF104991999999999999999999MA1101491999999REMMET058METAR SBLP 161200Z 00000KT 9999 FEW030 SCT100 29/21 Q1015;
0143832880999992010111613004-13267-043417FM-15+0443SBLP V0203001N002110300019N0112651N1+02901+02101999999ADDGA1021+009001999GA2071+030001999GF107991999999999999999999MA1101491999999REMMET058METAR SBLP 161300Z 30004KT 9999 FEW030 BKN100 29/21 Q1015;
0143832880999992010111614004-13267-043417FM-15+0443SBLP V0203501N001510300019N0112651N1+02901+02101999999ADDGA1021+009001999GA2071+030001999GF107991999999999999999999MA1101491999999REMMET058METAR SBLP 161400Z 35003KT 9999 FEW030 BKN100 29/21 Q1015;
0143832880999992010111615004-13267-043417FM-15+0443SBLP V0203501N003112200019N0112651N1+02901+02201999999ADDGA1041+009001999GA2041+030001999GF104991999999999999999999MA1101391999999REMMET058METAR SBLP 161500Z 35006KT 9999 SCT030 SCT100 29/22 Q1014;
0169832880999992010111616004-13267-043417FM-15+0443SBLP V0203401N007710300019N0080001N1+02901+02101999999ADDGA1041+009001999GA2021+009001021GA3071+030001999GF107991999999999999999999MA1101191999999REMMET068METAR SBLP 161600Z 34015KT 8000 SCT030 FEW030TCU BKN100 29/21 Q1012;
0143832880999992010111617004-13267-043417FM-15+0443SBLP V0200801N004110300019N0112651N1+02901+02101999999ADDGA1041+009001999GA2071+030001999GF107991999999999999999999MA1101191999999REMMET058METAR SBLP 161700Z 08008KT 9999 SCT030 BKN100 29/21 Q1012;
0143832880999992010111618004-13267-043417FM-15+0443SBLP V0203601N003110300019N0112651N1+03001+02201999999ADDGA1021+009001999GA2071+030001999GF107991999999999999999999MA1101021999999REMMET058METAR SBLP 161800Z 36006KT 9999 FEW030 BKN100 30/22 Q1010;
0143832880999992010111619004-13267-043417FM-15+0443SBLP V0200301N001510300019N0112651N1+02901+02101999999ADDGA1021+009001999GA2071+030001999GF107991999999999999999999MA1101021999999REMMET058METAR SBLP 161900Z 03003KT 9999 FEW030 BKN100 29/21 Q1010;
0143832880999992010111620004-13267-043417FM-15+0443SBLP V0201201N002110300019N0112651N1+02801+02101999999ADDGA1021+009001999GA2071+030001999GF107991999999999999999999MA1101021999999REMMET058METAR SBLP 162000Z 12004KT 9999 FEW030 BKN100 28/21 Q1010;
0143832880999992010111621004-13267-043417FM-15+0443SBLP V0201501N002110300019N0112651N1+02801+02201999999ADDGA1041+009001999GA2071+030001999GF107991999999999999999999MA1101081999999REMMET058METAR SBLP 162100Z 15004KT 9999 SCT030 BKN100 28/22 Q1011;
0143832880999992010111710004-13267-043417FM-15+0443SBLP V0201801N003110300019N0112651N1+02201+02101999999ADDGA1041+006001999GA2071+030001999GF107991999999999999999999MA1101391999999REMMET058METAR SBLP 171000Z 18006KT 9999 SCT020 BKN100 22/21 Q1014;
0143832880999992010111711004-13267-043417FM-15+0443SBLP V0209999C000010300019N0112651N1+02401+02201999999ADDGA1021+006001999GA2071+030001999GF107991999999999999999999MA1101491999999REMMET058METAR SBLP 171100Z 00000KT 9999 FEW020 BKN100 24/22 Q1015;
0143832880999992010111712004-13267-043417FM-15+0443SBLP V0201801N002110300019N0112651N1+02601+02201999999ADDGA1021+006001999GA2071+030001999GF107991999999999999999999MA1101491999999REMMET058METAR SBLP 171200Z 18004KT 9999 FEW020 BKN100 26/22 Q1015;
0120832880999992010111714004-13267-043417FM-15+0443SBLP V0202601N003112200019N0112651N1+02901+02201999999ADDGA1041+009001999GF104991999999999999999999MA1101391999999REMMET051METAR SBLP 171400Z 26006KT 9999 SCT030 29/22 Q1014;
0120832880999992010111715004-13267-043417FM-15+0443SBLP V0201301N002112200019N0112651N1+03001+02201999999ADDGA1041+009001999GF104991999999999999999999MA1101291999999REMMET051METAR SBLP 171500Z 13004KT 9999 SCT030 30/22 Q1013;
0120832880999992010111716004-13267-043417FM-15+0443SBLP V0201801N003112200019N0112651N1+03101+02101999999ADDGA1041+009001999GF104991999999999999999999MA1101081999999REMMET051METAR SBLP 171600Z 18006KT 9999 SCT030 31/21 Q1011;
0120832880999992010111717004-13267-043417FM-15+0443SBLP V0202701N003112200019N0112651N1+03101+02001999999ADDGA1041+009001999GF104991999999999999999999MA1101021999999REMMET051METAR SBLP 171700Z 27006KT 9999 SCT030 31/20 Q1010;
0143832880999992010111718004-13267-043417FM-15+0443SBLP V0202701N003112200019N0112651N1+03101+02001999999ADDGA1041+009001999GA2041+030001999GF104991999999999999999999MA1101021999999REMMET058METAR SBLP 171800Z 27006KT 9999 SCT030 SCT100 31/20 Q1010;
0143832880999992010111719004-13267-043417FM-15+0443SBLP V0202701N003110300019N0112651N1+02901+02101999999ADDGA1041+009001999GA2071+030001999GF107991999999999999999999MA1101021999999REMMET058METAR SBLP 171900Z 27006KT 9999 SCT030 BKN100 29/21 Q1010;
0153832880999992010111720004-13267-043417FM-15+0443SBLP V0201801N003110300019N0090001N1+02701+02101999999ADDGA1041+009001999GA2071+030001999GF107991999999999999999999MA1101021999999MW1611REMMET062METAR SBLP 172000Z 18006KT 9000 -RA SCT030 BKN100 27/21 Q1010;
0143832880999992010111721004-13267-043417FM-15+0443SBLP V0201801N003110300019N0112651N1+02601+02101999999ADDGA1041+006001999GA2071+030001999GF107991999999999999999999MA1101081999999REMMET058METAR SBLP 172100Z 18006KT 9999 SCT020 BKN100 26/21 Q1011;
0072832880999992010111810004-13267-043417FM-15+0443SBLP V0209999C000019999999Y0099001N1+02401+02301999999ADDMA1101191999999REMMET045METAR SBLP 181000Z 00000KT CAVOK 24/23 Q1012;
0143832880999992010111811004-13267-043417FM-15+0443SBLP V0209999C000010300019N0112651N1+02501+02201999999ADDGA1021+009001999GA2071+030001999GF107991999999999999999999MA1101291999999REMMET058METAR SBLP 181100Z 00000KT 9999 FEW030 BKN100 25/22 Q1013;
0143832880999992010111812004-13267-043417FM-15+0443SBLP V0209999C000010300019N0112651N1+02701+02201999999ADDGA1041+009001999GA2071+030001999GF107991999999999999999999MA1101291999999REMMET058METAR SBLP 181200Z 00000KT 9999 SCT030 BKN100 27/22 Q1013;
0143832880999992010111813004-13267-043417FM-15+0443SBLP V0209999C000010300019N0112651N1+02801+02201999999ADDGA1041+009001999GA2071+030001999GF107991999999999999999999MA1101291999999REMMET058METAR SBLP 181300Z 00000KT 9999 SCT030 BKN100 28/22 Q1013;
0143832880999992010111814004-13267-043417FM-15+0443SBLP V0209999C000010300019N0112651N1+02901+02201999999ADDGA1041+009001999GA2071+030001999GF107991999999999999999999MA1101191999999REMMET058METAR SBLP 181400Z 00000KT 9999 SCT030 BKN100 29/22 Q1012;
0153832880999992010111815004-13267-043417FM-15+0443SBLP V0202601N003110090019N0112651N1+02901+02201999999ADDGA1071+009001999GA2071+030001999GF107991999999999999999999MA1101081999999MW1611REMMET062METAR SBLP 181500Z 26006KT 9999 -RA BKN030 BKN100 29/22 Q1011;
0153832880999992010111816004-13267-043417FM-15+0443SBLP V0200901N003110300019N0090001N1+02801+02201999999ADDGA1041+009001999GA2071+030001999GF107991999999999999999999MA1101021999999MW1611REMMET062METAR SBLP 181600Z 09006KT 9000 -RA SCT030 BKN100 28/22 Q1010;
0143832880999992010111817004-13267-043417FM-15+0443SBLP V0200901N003110300019N0112651N1+02901+02101999999ADDGA1041+009001999GA2071+030001999GF107991999999999999999999MA1100811999999REMMET058METAR SBLP 181700Z 09006KT 9999 SCT030 BKN100 29/21 Q1008;
0177832880999992010111818004-13267-043417FM-15+0443SBLP V0200901N00311012001CN0112651N1+03201+02101999999ADDGA1041+009001999GA2021+012001091GA3071+030001999GF107991999999999999999999MA1100711999999MW1171REMMET070METAR SBLP 181800Z 09006KT 9999 TS SCT030 FEW040CB BKN100 32/21 Q1007;
0186832880999992010111819004-13267-043417FM-15+0443SBLP V0203601N00311012001CN0090001N1+02801+02101999999ADDGA1041+009001999GA2021+012001091GA3071+030001999GF107991999999999999999999MA1100711999999MW1801MW2951REMMET073METAR SBLP 181900Z 36006KT 9000 -TSRA SCT030 FEW040CB BKN100 28/21 Q1007;
0143832880999992010111820004-13267-043417FM-15+0443SBLP V0203601N003110300019N0112651N1+02801+02101999999ADDGA1041+009001999GA2071+030001999GF107991999999999999999999MA1100811999999REMMET058METAR SBLP 182000Z 36006KT 9999 SCT030 BKN100 28/21 Q1008;
0143832880999992010111821004-13267-043417FM-15+0443SBLP V0203601N003110300019N0112651N1+02701+02101999999ADDGA1041+009001999GA2071+030001999GF107991999999999999999999MA1100811999999REMMET058METAR SBLP 182100Z 36006KT 9999 SCT030 BKN100 27/21 Q1008;
0143832880999992010111910004-13267-043417FM-15+0443SBLP V0203601N003110300019N0112651N1+02201+02101999999ADDGA1041+003001999GA2071+030001999GF107991999999999999999999MA1101191999999REMMET058METAR SBLP 191000Z 36006KT 9999 SCT010 BKN100 22/21 Q1012;
0143832880999992010111911004-13267-043417FM-15+0443SBLP V0203601N003110300019N0112651N1+02301+02101999999ADDGA1041+003001999GA2071+030001999GF107991999999999999999999MA1101291999999REMMET058METAR SBLP 191100Z 36006KT 9999 SCT010 BKN100 23/21 Q1013;
0143832880999992010111912004-13267-043417FM-15+0443SBLP V0203601N003110300019N0112651N1+02501+02101999999ADDGA1041+004501999GA2071+030001999GF107991999999999999999999MA1101391999999REMMET058METAR SBLP 191200Z 36006KT 9999 SCT015 BKN100 25/21 Q1014;
0143832880999992010111913004-13267-043417FM-15+0443SBLP V0203601N003110300019N0112651N1+02601+02101999999ADDGA1041+006001999GA2071+030001999GF107991999999999999999999MA1101391999999REMMET058METAR SBLP 191300Z 36006KT 9999 SCT020 BKN100 26/21 Q1014;
0143832880999992010111914004-13267-043417FM-15+0443SBLP V0203601N003110300019N0112651N1+02701+02101999999ADDGA1041+006001999GA2071+030001999GF107991999999999999999999MA1101391999999REMMET058METAR SBLP 191400Z 36006KT 9999 SCT020 BKN100 27/21 Q1014;
0143832880999992010111915004-13267-043417FM-15+0443SBLP V0203601N003110300019N0112651N1+02801+02101999999ADDGA1041+006001999GA2071+030001999GF107991999999999999999999MA1101291999999REMMET058METAR SBLP 191500Z 36006KT 9999 SCT020 BKN100 28/21 Q1013;
0143832880999992010111916004-13267-043417FM-15+0443SBLP V0200201N004112200019N0112651N1+02801+02001999999ADDGA1021+006001999GA2041+030001999GF104991999999999999999999MA1101191999999REMMET058METAR SBLP 191600Z 02008KT 9999 FEW020 SCT100 28/20 Q1012;
0143832880999992010111917004-13267-043417FM-15+0443SBLP V0203601N004110300019N0112651N1+02801+02001999999ADDGA1021+006001999GA2071+030001999GF107991999999999999999999MA1101081999999REMMET058METAR SBLP 191700Z 36008KT 9999 FEW020 BKN100 28/20 Q1011;
0143832880999992010111918004-13267-043417FM-15+0443SBLP V0203601N003110300019N0112651N1+02701+02101999999ADDGA1041+006001999GA2071+030001999GF107991999999999999999999MA1101081999999REMMET058METAR SBLP 191800Z 36006KT 9999 SCT020 BKN100 27/21 Q1011;
0143832880999992010111919004-13267-043417FM-15+0443SBLP V0203601N003110300019N0112651N1+02701+02101999999ADDGA1021+006001999GA2071+030001999GF107991999999999999999999MA1101021999999REMMET058METAR SBLP 191900Z 36006KT 9999 FEW020 BKN100 27/21 Q1010;
0143832880999992010111920004-13267-043417FM-15+0443SBLP V0209999C000010300019N0112651N1+02601+02201999999ADDGA1021+006001999GA2071+030001999GF107991999999999999999999MA1101021999999REMMET058METAR SBLP 192000Z 00000KT 9999 FEW020 BKN100 26/22 Q1010;
0143832880999992010111921004-13267-043417FM-15+0443SBLP V0209999C000010300019N0112651N1+02601+02201999999ADDGA1021+006001999GA2071+030001999GF107991999999999999999999MA1101021999999REMMET058METAR SBLP 192100Z 00000KT 9999 FEW020 BKN100 26/22 Q1010;
0143832880999992010112010004-13267-043417FM-15+0443SBLP V0209999C000012200019N0112651N1+02401+02101999999ADDGA1041+004501999GA2041+030001999GF104991999999999999999999MA1101491999999REMMET058METAR SBLP 201000Z 00000KT 9999 SCT015 SCT100 24/21 Q1015;
0143832880999992010112011004-13267-043417FM-15+0443SBLP V0209999C000012200019N0112651N1+02701+02101999999ADDGA1021+006001999GA2041+030001999GF104991999999999999999999MA1101491999999REMMET058METAR SBLP 201100Z 00000KT 9999 FEW020 SCT100 27/21 Q1015;
0143832880999992010112012004-13267-043417FM-15+0443SBLP V0209999C000012200019N0112651N1+02901+02001999999ADDGA1021+006001999GA2041+030001999GF104991999999999999999999MA1101491999999REMMET058METAR SBLP 201200Z 00000KT 9999 FEW020 SCT100 29/20 Q1015;
0143832880999992010112013004-13267-043417FM-15+0443SBLP V0200901N003112200019N0112651N1+03101+02001999999ADDGA1021+009001999GA2041+030001999GF104991999999999999999999MA1101491999999REMMET058METAR SBLP 201300Z 09006KT 9999 FEW030 SCT100 31/20 Q1015;
0143832880999992010112014004-13267-043417FM-15+0443SBLP V0200901N003112200019N0112651N1+03101+02001999999ADDGA1021+009001999GA2041+030001999GF104991999999999999999999MA1101391999999REMMET058METAR SBLP 201400Z 09006KT 9999 FEW030 SCT100 31/20 Q1014;
0120832880999992010112015004-13267-043417FM-15+0443SBLP V0203601N003112200019N0112651N1+03201+02001999999ADDGA1021+009001999GF102991999999999999999999MA1101291999999REMMET051METAR SBLP 201500Z 36006KT 9999 FEW030 32/20 Q1013;
0120832880999992010112016004-13267-043417FM-15+0443SBLP V0203601N002112200019N0112651N1+03401+02001999999ADDGA1021+009001999GF102991999999999999999999MA1101191999999REMMET051METAR SBLP 201600Z 36004KT 9999 FEW030 34/20 Q1012;
0120832880999992010112017004-13267-043417FM-15+0443SBLP V0201801N002112200019N0112651N1+03501+02001999999ADDGA1021+009001999GF102991999999999999999999MA1101021999999REMMET051METAR SBLP 201700Z 18004KT 9999 FEW030 35/20 Q1010;
0120832880999992010112018004-13267-043417FM-15+0443SBLP V0209999C000012200019N0112651N1+03601+01901999999ADDGA1021+009001999GF102991999999999999999999MA1100911999999REMMET051METAR SBLP 201800Z 00000KT 9999 FEW030 36/19 Q1009;
0120832880999992010112019004-13267-043417FM-15+0443SBLP V0200201N003112200019N0112651N1+03201+02101999999ADDGA1041+009001999GF104991999999999999999999MA1100911999999REMMET051METAR SBLP 201900Z 02006KT 9999 SCT030 32/21 Q1009;
0120832880999992010112020004-13267-043417FM-15+0443SBLP V0201501N003112200019N0112651N1+03201+02101999999ADDGA1041+009001999GF104991999999999999999999MA1100911999999REMMET051METAR SBLP 202000Z 15006KT 9999 SCT030 32/21 Q1009;
0120832880999992010112021004-13267-043417FM-15+0443SBLP V0209999C000012200019N0112651N1+03101+02101999999ADDGA1021+009001999GF102991999999999999999999MA1101021999999REMMET051METAR SBLP 202100Z 00000KT 9999 FEW030 31/21 Q1010;
0072832880999992010112110004-13267-043417FM-15+0443SBLP V0209999C000019999999Y0099001N1+02601+02001999999ADDMA1101291999999REMMET045METAR SBLP 211000Z 00000KT CAVOK 26/20 Q1013;
0072832880999992010112111004-13267-043417FM-15+0443SBLP V0209999C000019999999Y0099001N1+02701+02101999999ADDMA1101391999999REMMET045METAR SBLP 211100Z 00000KT CAVOK 27/21 Q1014;
0120832880999992010112112004-13267-043417FM-15+0443SBLP V0209999C000012200019N0112651N1+02901+02101999999ADDGA1021+009001999GF102991999999999999999999MA1101391999999REMMET051METAR SBLP 211200Z 00000KT 9999 FEW030 29/21 Q1014;
0120832880999992010112113004-13267-043417FM-15+0443SBLP V0209999C000012200019N0112651N1+03101+02101999999ADDGA1021+009001999GF102991999999999999999999MA1101391999999REMMET051METAR SBLP 211300Z 00000KT 9999 FEW030 31/21 Q1014;
0120832880999992010112115004-13267-043417FM-15+0443SBLP V0203601N002112200019N0112651N1+03301+02201999999ADDGA1041+009001999GF104991999999999999999999MA1101291999999REMMET051METAR SBLP 211500Z 36004KT 9999 SCT030 33/22 Q1013;
0131832880999992010112116004-13267-043417FM-15+0443SBLP V0202901N004112200019N0080001N1+03401+02201999999ADDGA1041+009001999GF104991999999999999999999MA1101081999999MW1161REMMET056METAR SBLP 211600Z 29008KT 8000 VCSH SCT030 34/22 Q1011;
0125832880999992010112117004-13267-043417FM-15+0443SBLP V0201301N003110090019N0112651N1+02901+02401999999ADDGA1071+009001999GF107991999999999999999999MA1101021999999REMMET056METAR SBLP 211700Z 13006KT 9999 BKN030 29/24 Q1010 RETS;
0120832880999992010112118004-13267-043417FM-15+0443SBLP V0201101N003112200019N0112651N1+03201+02201999999ADDGA1041+009001999GF104991999999999999999999MA1100911999999REMMET051METAR SBLP 211800Z 11006KT 9999 SCT030 32/22 Q1009;
0120832880999992010112119004-13267-043417FM-15+0443SBLP V0200901N003112200019N0112651N1+03201+02201999999ADDGA1021+009001999GF102991999999999999999999MA1100911999999REMMET051METAR SBLP 211900Z 09006KT 9999 FEW030 32/22 Q1009;
0143832880999992010112120004-13267-043417FM-15+0443SBLP V0200901N002110300019N0112651N1+03101+02301999999ADDGA1021+009001999GA2071+030001999GF107991999999999999999999MA1100911999999REMMET058METAR SBLP 212000Z 09004KT 9999 FEW030 BKN100 31/23 Q1009;
0143832880999992010112121004-13267-043417FM-15+0443SBLP V0209999C000010300019N0112651N1+03001+02301999999ADDGA1021+009001999GA2071+030001999GF107991999999999999999999MA1101021999999REMMET058METAR SBLP 212100Z 00000KT 9999 FEW030 BKN100 30/23 Q1010;
0120832880999992010112210004-13267-043417FM-15+0443SBLP V0201801N003112200019N0112651N1+02601+02201999999ADDGA1021+009001999GF102991999999999999999999MA1101081999999REMMET051METAR SBLP 221000Z 18006KT 9999 FEW030 26/22 Q1011;
0143832880999992010112211004-13267-043417FM-15+0443SBLP V0201801N002110300019N0112651N1+02601+02301999999ADDGA1021+009001999GA2071+030001999GF107991999999999999999999MA1101191999999REMMET058METAR SBLP 221100Z 18004KT 9999 FEW030 BKN100 26/23 Q1012;
0143832880999992010112212004-13267-043417FM-15+0443SBLP V0201001N002110300019N0112651N1+03001+02201999999ADDGA1041+009001999GA2071+030001999GF107991999999999999999999MA1101291999999REMMET058METAR SBLP 221200Z 10004KT 9999 SCT030 BKN100 30/22 Q1013;
0143832880999992010112213004-13267-043417FM-15+0443SBLP V0201801N002112200019N0112651N1+03001+02301999999ADDGA1041+009001999GA2041+030001999GF104991999999999999999999MA1101191999999REMMET058METAR SBLP 221300Z 18004KT 9999 SCT030 SCT100 30/23 Q1012;
0143832880999992010112214004-13267-043417FM-15+0443SBLP V0209999C000012200019N0112651N1+03101+02101999999ADDGA1041+009001999GA2041+030001999GF104991999999999999999999MA1101191999999REMMET058METAR SBLP 221400Z 00000KT 9999 SCT030 SCT100 31/21 Q1012;
0143832880999992010112215004-13267-043417FM-15+0443SBLP V0202101N005110090019N0112651N1+03101+02201999999ADDGA1071+009001999GA2071+030001999GF107991999999999999999999MA1101081999999REMMET058METAR SBLP 221500Z 21010KT 9999 BKN030 BKN100 31/22 Q1011;
0143832880999992010112216004-13267-043417FM-15+0443SBLP V0202401N003110300019N0112651N1+03101+02201999999ADDGA1041+009001999GA2071+030001999GF107991999999999999999999MA1101021999999REMMET058METAR SBLP 221600Z 24006KT 9999 SCT030 BKN100 31/22 Q1010;
0143832880999992010112217004-13267-043417FM-15+0443SBLP V0201801N003110300019N0112651N1+03101+02201999999ADDGA1041+009001999GA2071+030001999GF107991999999999999999999MA1100911999999REMMET058METAR SBLP 221700Z 18006KT 9999 SCT030 BKN100 31/22 Q1009;
0143832880999992010112218004-13267-043417FM-15+0443SBLP V0202101N003110300019N0112651N1+02901+02301999999ADDGA1041+009001999GA2071+030001999GF107991999999999999999999MA1100811999999REMMET058METAR SBLP 221800Z 21006KT 9999 SCT030 BKN100 29/23 Q1008;
0143832880999992010112219004-13267-043417FM-15+0443SBLP V0203601N004110300019N0112651N1+02901+02401999999ADDGA1021+009001999GA2071+030001999GF107991999999999999999999MA1100811999999REMMET058METAR SBLP 221900Z 36008KT 9999 FEW030 BKN100 29/24 Q1008;
0143832880999992010112220004-13267-043417FM-15+0443SBLP V0201801N003112200019N0112651N1+02801+02301999999ADDGA1021+009001999GA2041+030001999GF104991999999999999999999MA1100811999999REMMET058METAR SBLP 222000Z 18006KT 9999 FEW030 SCT100 28/23 Q1008;
0072832880999992010112221004-13267-043417FM-15+0443SBLP V0201801N002119999999Y0099001N1+02701+02401999999ADDMA1100911999999REMMET045METAR SBLP 222100Z 18004KT CAVOK 27/24 Q1009;
0072832880999992010112310004-13267-043417FM-15+0443SBLP V0209999C000019999999Y0099001N1+02301+02101999999ADDMA1100911999999REMMET045METAR SBLP 231000Z 00000KT CAVOK 23/21 Q1009;
0072832880999992010112311004-13267-043417FM-15+0443SBLP V0209999C000019999999Y0099001N1+02301+02101999999ADDMA1100911999999REMMET045METAR SBLP 231100Z 00000KT CAVOK 23/21 Q1009;
0120832880999992010112312004-13267-043417FM-15+0443SBLP V0209999C000012200019N0112651N1+02901+02101999999ADDGA1021+009001999GF102991999999999999999999MA1101021999999REMMET051METAR SBLP 231200Z 00000KT 9999 FEW030 29/21 Q1010;
0120832880999992010112313004-13267-043417FM-15+0443SBLP V0203001N003112200019N0112651N1+03101+02101999999ADDGA1021+009001999GF102991999999999999999999MA1101021999999REMMET051METAR SBLP 231300Z 30006KT 9999 FEW030 31/21 Q1010;
0120832880999992010112314004-13267-043417FM-15+0443SBLP V0209999C000012200019N0112651N1+03201+02001999999ADDGA1021+009001999GF102991999999999999999999MA1100911999999REMMET051METAR SBLP 231400Z 00000KT 9999 FEW030 32/20 Q1009;
0120832880999992010112315004-13267-043417FM-15+0443SBLP V0209999C000012200019N0112651N1+03301+02001999999ADDGA1021+009001999GF102991999999999999999999MA1100811999999REMMET051METAR SBLP 231500Z 00000KT 9999 FEW030 33/20 Q1008;
0120832880999992010112316004-13267-043417FM-15+0443SBLP V0209999C000012200019N0112651N1+03401+01901999999ADDGA1041+009001999GF104991999999999999999999MA1100711999999REMMET051METAR SBLP 231600Z 00000KT 9999 SCT030 34/19 Q1007;
0120832880999992010112317004-13267-043417FM-15+0443SBLP V0203601N003112200019N0112651N1+03501+01901999999ADDGA1041+009001999GF104991999999999999999999MA1100611999999REMMET051METAR SBLP 231700Z 36006KT 9999 SCT030 35/19 Q1006;
0120832880999992010112318004-13267-043417FM-15+0443SBLP V0203601N003112200019N0112651N1+03501+01901999999ADDGA1041+009001999GF104991999999999999999999MA1100511999999REMMET051METAR SBLP 231800Z 36006KT 9999 SCT030 35/19 Q1005;
0143832880999992010112319004-13267-043417FM-15+0443SBLP V0203601N003112200019N0112651N1+03401+01901999999ADDGA1041+009001999GA2041+030001999GF104991999999999999999999MA1100411999999REMMET058METAR SBLP 231900Z 36006KT 9999 SCT030 SCT100 34/19 Q1004;
0143832880999992010112320004-13267-043417FM-15+0443SBLP V0203601N003110300019N0112651N1+03401+01901999999ADDGA1041+009001999GA2071+030001999GF107991999999999999999999MA1100411999999REMMET058METAR SBLP 232000Z 36006KT 9999 SCT030 BKN100 34/19 Q1004;
0143832880999992010112321004-13267-043417FM-15+0443SBLP V0203601N003110300019N0112651N1+03201+02001999999ADDGA1021+009001999GA2071+030001999GF107991999999999999999999MA1100511999999REMMET058METAR SBLP 232100Z 36006KT 9999 FEW030 BKN100 32/20 Q1005;
0080832880999992010112409154-13267-043417FM-16+0443SBLP V0200901N003112200019N9999999N1+02201+02201999999ADDMA1100901999999REMMET053METAR SBLP 240915Z 09006KT SCT020 BKN100 22/22 Q1009;
0143832880999992010112410004-13267-043417FM-15+0443SBLP V0209999C000010300019N0112651N1+02201+02201999999ADDGA1041+006001999GA2071+030001999GF107991999999999999999999MA1101021999999REMMET058METAR SBLP 241000Z 00000KT 9999 SCT020 BKN100 22/22 Q1010;
0153832880999992010112411004-13267-043417FM-15+0443SBLP V0203401N002110300019N0090001N1+02301+02201999999ADDGA1041+006001999GA2071+030001999GF107991999999999999999999MA1101081999999MW1611REMMET062METAR SBLP 241100Z 34004KT 9000 -RA SCT020 BKN100 23/22 Q1011;
0143832880999992010112412004-13267-043417FM-15+0443SBLP V0209999C000010300019N0112651N1+02401+02201999999ADDGA1021+006001999GA2071+030001999GF107991999999999999999999MA1101191999999REMMET058METAR SBLP 241200Z 00000KT 9999 FEW020 BKN100 24/22 Q1012;
0143832880999992010112413004-13267-043417FM-15+0443SBLP V0209999C000010300019N0112651N1+02501+02301999999ADDGA1021+006001999GA2071+030001999GF107991999999999999999999MA1101191999999REMMET058METAR SBLP 241300Z 00000KT 9999 FEW020 BKN100 25/23 Q1012;
0143832880999992010112414004-13267-043417FM-15+0443SBLP V0209999C000010300019N0112651N1+02601+02301999999ADDGA1041+006001999GA2071+030001999GF107991999999999999999999MA1101191999999REMMET058METAR SBLP 241400Z 00000KT 9999 SCT020 BKN100 26/23 Q1012;
0143832880999992010112415004-13267-043417FM-15+0443SBLP V0209999C000010300019N0112651N1+02701+02301999999ADDGA1041+006001999GA2071+030001999GF107991999999999999999999MA1101081999999REMMET058METAR SBLP 241500Z 00000KT 9999 SCT020 BKN100 27/23 Q1011;
0143832880999992010112416004-13267-043417FM-15+0443SBLP V0209999C000010300019N0112651N1+02801+02201999999ADDGA1041+003001999GA2071+030001999GF107991999999999999999999MA1100911999999REMMET058METAR SBLP 241600Z 00000KT 9999 SCT010 BKN100 28/22 Q1009;
0143832880999992010112417004-13267-043417FM-15+0443SBLP V0209999C000010300019N0112651N1+02901+02101999999ADDGA1041+003001999GA2071+030001999GF107991999999999999999999MA1100811999999REMMET058METAR SBLP 241700Z 00000KT 9999 SCT010 BKN100 29/21 Q1008;
0143832880999992010112418004-13267-043417FM-15+0443SBLP V0203601N006210300019N0112651N1+02901+02101999999ADDGA1041+004501999GA2071+030001999GF107991999999999999999999MA1100811999999REMMET058METAR SBLP 241800Z 36012KT 9999 SCT015 BKN100 29/21 Q1008;
0143832880999992010112419004-13267-043417FM-15+0443SBLP V0203601N003110300019N0112651N1+02901+02101999999ADDGA1041+006001999GA2071+030001999GF107991999999999999999999MA1100811999999REMMET058METAR SBLP 241900Z 36006KT 9999 SCT020 BKN100 29/21 Q1008;
0143832880999992010112420004-13267-043417FM-15+0443SBLP V0209999C000010300019N0112651N1+02801+02101999999ADDGA1041+006001999GA2071+030001999GF107991999999999999999999MA1100811999999REMMET058METAR SBLP 242000Z 00000KT 9999 SCT020 BKN100 28/21 Q1008;
0143832880999992010112421004-13267-043417FM-15+0443SBLP V0209999C000010300019N0112651N1+02701+02101999999ADDGA1041+009001999GA2071+030001999GF107991999999999999999999MA1100811999999REMMET058METAR SBLP 242100Z 00000KT 9999 SCT030 BKN100 27/21 Q1008;
0143832880999992010112510004-13267-043417FM-15+0443SBLP V0209999C000010300019N0112651N1+02401+02101999999ADDGA1021+006001999GA2071+030001999GF107991999999999999999999MA1101191999999REMMET058METAR SBLP 251000Z 00000KT 9999 FEW020 BKN100 24/21 Q1012;
0143832880999992010112511004-13267-043417FM-15+0443SBLP V0209999C000010300019N0112651N1+02701+02101999999ADDGA1021+006001999GA2071+030001999GF107991999999999999999999MA1101191999999REMMET058METAR SBLP 251100Z 00000KT 9999 FEW020 BKN100 27/21 Q1012;
0143832880999992010112512004-13267-043417FM-15+0443SBLP V0209999C000010300019N0112651N1+02801+02101999999ADDGA1041+006001999GA2071+030001999GF107991999999999999999999MA1101291999999REMMET058METAR SBLP 251200Z 00000KT 9999 SCT020 BKN100 28/21 Q1013;
0143832880999992010112513004-13267-043417FM-15+0443SBLP V0209999C000012200019N0112651N1+02901+02101999999ADDGA1041+006001999GA2041+030001999GF104991999999999999999999MA1101291999999REMMET058METAR SBLP 251300Z 00000KT 9999 SCT020 SCT100 29/21 Q1013;
0143832880999992010112514004-13267-043417FM-15+0443SBLP V0209999C000012200019N0112651N1+03001+02101999999ADDGA1041+006001999GA2041+030001999GF104991999999999999999999MA1101291999999REMMET058METAR SBLP 251400Z 00000KT 9999 SCT020 SCT100 30/21 Q1013;
0120832880999992010112515004-13267-043417FM-15+0443SBLP V0203601N003112200019N0112651N1+03101+02101999999ADDGA1041+006001999GF104991999999999999999999MA1101191999999REMMET051METAR SBLP 251500Z 36006KT 9999 SCT020 31/21 Q1012;
0131832880999992010112516004-13267-043417FM-15+0443SBLP V0203601N004112200019N0080001N1+03201+02201999999ADDGA1041+006001999GF104991999999999999999999MA1101081999999MW1161REMMET056METAR SBLP 251600Z 36008KT 8000 VCSH SCT020 32/22 Q1011;
0120832880999992010112517004-13267-043417FM-15+0443SBLP V0203601N003112200019N0112651N1+03301+02301999999ADDGA1041+009001999GF104991999999999999999999MA1101021999999REMMET051METAR SBLP 251700Z 36006KT 9999 SCT030 33/23 Q1010;
0120832880999992010112518004-13267-043417FM-15+0443SBLP V0203301N002112200019N0112651N1+03301+02201999999ADDGA1041+009001999GF104991999999999999999999MA1100911999999REMMET051METAR SBLP 251800Z 33004KT 9999 SCT030 33/22 Q1009;
0120832880999992010112519004-13267-043417FM-15+0443SBLP V0203501N002112200019N0112651N1+03401+02201999999ADDGA1041+009001999GF104991999999999999999999MA1100911999999REMMET051METAR SBLP 251900Z 35004KT 9999 SCT030 34/22 Q1009;
0120832880999992010112520004-13267-043417FM-15+0443SBLP V0203001N001012200019N0112651N1+03301+02201999999ADDGA1021+009001999GF102991999999999999999999MA1100911999999REMMET051METAR SBLP 252000Z 30002KT 9999 FEW030 33/22 Q1009;
0120832880999992010112521004-13267-043417FM-15+0443SBLP V0209999C000012200019N0112651N1+03101+02301999999ADDGA1021+009001999GF102991999999999999999999MA1101021999999REMMET051METAR SBLP 252100Z 00000KT 9999 FEW030 31/23 Q1010;
0072832880999992010112610004-13267-043417FM-15+0443SBLP V0209999C000019999999Y0099001N1+02601+02201999999ADDMA1101291999999REMMET045METAR SBLP 261000Z 00000KT CAVOK 26/22 Q1013;
0072832880999992010112611004-13267-043417FM-15+0443SBLP V0201901N002119999999Y0099001N1+02801+02201999999ADDMA1101291999999REMMET045METAR SBLP 261100Z 19004KT CAVOK 28/22 Q1013;
0072832880999992010112612004-13267-043417FM-15+0443SBLP V0209999C000019999999Y0099001N1+03001+02201999999ADDMA1101291999999REMMET045METAR SBLP 261200Z 00000KT CAVOK 30/22 Q1013;
0120832880999992010112613004-13267-043417FM-15+0443SBLP V0203001N003112200019N0112651N1+03201+02301999999ADDGA1021+009001999GF102991999999999999999999MA1101291999999REMMET051METAR SBLP 261300Z 30006KT 9999 FEW030 32/23 Q1013;
0120832880999992010112614004-13267-043417FM-15+0443SBLP V0201801N001512200019N0112651N1+03201+02301999999ADDGA1041+009001999GF104991999999999999999999MA1101191999999REMMET051METAR SBLP 261400Z 18003KT 9999 SCT030 32/23 Q1012;
0120832880999992010112615004-13267-043417FM-15+0443SBLP V0209999C000012200019N0112651N1+03201+02201999999ADDGA1041+009001999GF104991999999999999999999MA1101081999999REMMET051METAR SBLP 261500Z 00000KT 9999 SCT030 32/22 Q1011;
0143832880999992010112616004-13267-043417FM-15+0443SBLP V0209999C000012200019N0112651N1+03301+02201999999ADDGA1041+009001999GA2041+030001999GF104991999999999999999999MA1101021999999REMMET058METAR SBLP 261600Z 00000KT 9999 SCT030 SCT100 33/22 Q1010;
0143832880999992010112617004-13267-043417FM-15+0443SBLP V0209999C000012200019N0112651N1+03401+02201999999ADDGA1021+009001999GA2041+030001999GF104991999999999999999999MA1100811999999REMMET058METAR SBLP 261700Z 00000KT 9999 FEW030 SCT100 34/22 Q1008;
0143832880999992010112618004-13267-043417FM-15+0443SBLP V0209999C000012200019N0112651N1+03501+02201999999ADDGA1041+009001999GA2041+030001999GF104991999999999999999999MA1100811999999REMMET058METAR SBLP 261800Z 00000KT 9999 SCT030 SCT100 35/22 Q1008;
0177832880999992010112619004-13267-043417FM-15+0443SBLP V0209999C00001012001CN0112651N1+03301+02301999999ADDGA1041+008101999GA2021+012001091GA3071+030001999GF107991999999999999999999MA1100811999999MW1171REMMET070METAR SBLP 261900Z 00000KT 9999 TS SCT027 FEW040CB BKN100 33/23 Q1008;
0177832880999992010112620004-13267-043417FM-15+0443SBLP V0201801N00311012001CN0112651N1+02801+02501999999ADDGA1041+008101999GA2021+012001091GA3071+030001999GF107991999999999999999999MA1100911999999MW1171REMMET070METAR SBLP 262000Z 18006KT 9999 TS SCT027 FEW040CB BKN100 28/25 Q1009;
0177832880999992010112621004-13267-043417FM-15+0443SBLP V0201801N003110300019N0112651N1+02601+02501999999ADDGA1021+009001999GA2021+012001091GA3071+030001999GF107991999999999999999999MA1101021999999MW1171REMMET070METAR SBLP 262100Z 18006KT 9999 TS FEW030 FEW040CB BKN100 26/25 Q1010;
0143832880999992010112710004-13267-043417FM-15+0443SBLP V0201801N003110300019N0112651N1+02301+02101999999ADDGA1041+003001999GA2071+030001999GF107991999999999999999999MA1101391999999REMMET058METAR SBLP 271000Z 18006KT 9999 SCT010 BKN100 23/21 Q1014;
0143832880999992010112711004-13267-043417FM-15+0443SBLP V0200901N003110300019N0112651N1+02401+02101999999ADDGA1021+004501999GA2071+030001999GF107991999999999999999999MA1101291999999REMMET058METAR SBLP 271100Z 09006KT 9999 FEW015 BKN100 24/21 Q1013;
0143832880999992010112712004-13267-043417FM-15+0443SBLP V0200901N003110300019N0112651N1+02701+02101999999ADDGA1021+006001999GA2071+030001999GF107991999999999999999999MA1101291999999REMMET058METAR SBLP 271200Z 09006KT 9999 FEW020 BKN100 27/21 Q1013;
0143832880999992010112713004-13267-043417FM-15+0443SBLP V0203601N003110300019N0112651N1+02801+02101999999ADDGA1041+006001999GA2071+030001999GF107991999999999999999999MA1101291999999REMMET058METAR SBLP 271300Z 36006KT 9999 SCT020 BKN100 28/21 Q1013;
0143832880999992010112714004-13267-043417FM-15+0443SBLP V0203601N003112200019N0112651N1+02901+02101999999ADDGA1041+006001999GA2041+030001999GF104991999999999999999999MA1101191999999REMMET058METAR SBLP 271400Z 36006KT 9999 SCT020 SCT100 29/21 Q1012;
0143832880999992010112715004-13267-043417FM-15+0443SBLP V0203601N003112200019N0112651N1+03101+02101999999ADDGA1041+006001999GA2041+030001999GF104991999999999999999999MA1101081999999REMMET058METAR SBLP 271500Z 36006KT 9999 SCT020 SCT100 31/21 Q1011;
0143832880999992010112716004-13267-043417FM-15+0443SBLP V0203401N003112200019N0112651N1+03201+02101999999ADDGA1021+009001999GA2041+030001999GF104991999999999999999999MA1100911999999REMMET058METAR SBLP 271600Z 34006KT 9999 FEW030 SCT100 32/21 Q1009;
0143832880999992010112717004-13267-043417FM-15+0443SBLP V0203001N002112200019N0112651N1+03201+02101999999ADDGA1021+009001999GA2041+030001999GF104991999999999999999999MA1100911999999REMMET058METAR SBLP 271700Z 30004KT 9999 FEW030 SCT100 32/21 Q1009;
0143832880999992010112718004-13267-043417FM-15+0443SBLP V0209999C000010300019N0112651N1+03201+02201999999ADDGA1041+009001999GA2071+030001999GF107991999999999999999999MA1100911999999REMMET058METAR SBLP 271800Z 00000KT 9999 SCT030 BKN100 32/22 Q1009;
0143832880999992010112719004-13267-043417FM-15+0443SBLP V0202401N002112200019N0112651N1+03301+02101999999ADDGA1021+009001999GA2041+030001999GF104991999999999999999999MA1100811999999REMMET058METAR SBLP 271900Z 24004KT 9999 FEW030 SCT100 33/21 Q1008;
0120832880999992010112720004-13267-043417FM-15+0443SBLP V0209999C000012200019N0112651N1+03301+02101999999ADDGA1021+009001999GF102991999999999999999999MA1100711999999REMMET051METAR SBLP 272000Z 00000KT 9999 FEW030 33/21 Q1007;
0072832880999992010112721004-13267-043417FM-15+0443SBLP V0209999C000019999999Y0099001N1+03101+02101999999ADDMA1100811999999REMMET045METAR SBLP 272100Z 00000KT CAVOK 31/21 Q1008;
0072832880999992010112810004-13267-043417FM-15+0443SBLP V0209999C000019999999Y0099001N1+02601+02201999999ADDMA1101081999999REMMET045METAR SBLP 281000Z 00000KT CAVOK 26/22 Q1011;
0072832880999992010112811004-13267-043417FM-15+0443SBLP V0209999C000019999999Y0099001N1+02801+02201999999ADDMA1101191999999REMMET045METAR SBLP 281100Z 00000KT CAVOK 28/22 Q1012;
0120832880999992010112812004-13267-043417FM-15+0443SBLP V0209999C000012200019N0112651N1+03101+02101999999ADDGA1021+009001999GF102991999999999999999999MA1101191999999REMMET051METAR SBLP 281200Z 00000KT 9999 FEW030 31/21 Q1012;
0120832880999992010112813004-13267-043417FM-15+0443SBLP V0209999C000012200019N0112651N1+03201+02101999999ADDGA1021+009001999GF102991999999999999999999MA1101081999999REMMET051METAR SBLP 281300Z 00000KT 9999 FEW030 32/21 Q1011;
0120832880999992010112814004-13267-043417FM-15+0443SBLP V0200901N003112200019N0112651N1+03301+02001999999ADDGA1041+009001999GF104991999999999999999999MA1101081999999REMMET051METAR SBLP 281400Z 09006KT 9999 SCT030 33/20 Q1011;
0120832880999992010112815004-13267-043417FM-15+0443SBLP V0209999C000012200019N0112651N1+03301+02001999999ADDGA1041+009001999GF104991999999999999999999MA1101021999999REMMET051METAR SBLP 281500Z 00000KT 9999 SCT030 33/20 Q1010;
0147832880999992010112816004-13267-043417FM-15+0443SBLP V0203601N006212200019N0112651N1+03401+01901999999ADDGA1041+009001999GA2021+012001091MA1100911999999MW1171REMMET063METAR SBLP 281600Z 36012KT 9999 TS SCT030 FEW040CB 34/19 Q1009;EQDQ01+000022SCOTCV
0147832880999992010112817004-13267-043417FM-15+0443SBLP V0203601N00931009001CN0112651N1+03001+02101999999ADDGA1071+009001999GA2021+012001091MA1100911999999MW1171REMMET063METAR SBLP 281700Z 36018KT 9999 TS BKN030 FEW040CB 30/21 Q1009;EQDQ01+000022SCOTCV
0147832880999992010112818004-13267-043417FM-15+0443SBLP V0200901N00621009001CN0112651N1+02901+02101999999ADDGA1071+009001999GA2021+012001091MA1100811999999MW1171REMMET063METAR SBLP 281800Z 09012KT 9999 TS BKN030 FEW040CB 29/21 Q1008;EQDQ01+000022SCOTCV
0177832880999992010112819004-13267-043417FM-15+0443SBLP V0200901N006212200019N0112651N1+02901+02101999999ADDGA1041+009001999GA2021+012001091GA3041+030001999GF104991999999999999999999MA1100911999999MW1171REMMET070METAR SBLP 281900Z 09012KT 9999 TS SCT030 FEW040CB SCT100 29/21 Q1009;
0143832880999992010112820004-13267-043417FM-15+0443SBLP V0200901N006210300019N0112651N1+02801+02101999999ADDGA1041+009001999GA2071+030001999GF107991999999999999999999MA1100911999999REMMET058METAR SBLP 282000Z 09012KT 9999 SCT030 BKN100 28/21 Q1009;
0143832880999992010112821004-13267-043417FM-15+0443SBLP V0200901N006210300019N0112651N1+02701+02101999999ADDGA1041+009001999GA2071+030001999GF107991999999999999999999MA1101021999999REMMET058METAR SBLP 282100Z 09012KT 9999 SCT030 BKN100 27/21 Q1010;
0153832880999992010112910004-13267-043417FM-15+0443SBLP V0202101N003110021019N0090001N1+02201+02201999999ADDGA1071+002101999GA2081+027001999GF108991999999999999999999MA1101491999999MW1611REMMET062METAR SBLP 291000Z 21006KT 9000 -RA BKN007 OVC090 22/22 Q1015;
0143832880999992010112911004-13267-043417FM-15+0443SBLP V0201801N003110300019N0112651N1+02301+02301999999ADDGA1041+004501999GA2071+030001999GF107991999999999999999999MA1101491999999REMMET058METAR SBLP 291100Z 18006KT 9999 SCT015 BKN100 23/23 Q1015;
0143832880999992010112912004-13267-043417FM-15+0443SBLP V0200901N003110300019N0112651N1+02401+02201999999ADDGA1041+006001999GA2071+030001999GF107991999999999999999999MA1101591999999REMMET058METAR SBLP 291200Z 09006KT 9999 SCT020 BKN100 24/22 Q1016;
0143832880999992010112913004-13267-043417FM-15+0443SBLP V0209999C000010300019N0112651N1+02501+02201999999ADDGA1041+006001999GA2071+030001999GF107991999999999999999999MA1101491999999REMMET058METAR SBLP 291300Z 00000KT 9999 SCT020 BKN100 25/22 Q1015;
0143832880999992010112914004-13267-043417FM-15+0443SBLP V0200901N003110300019N0112651N1+02501+02301999999ADDGA1041+006001999GA2071+030001999GF107991999999999999999999MA1101491999999REMMET058METAR SBLP 291400Z 09006KT 9999 SCT020 BKN100 25/23 Q1015;
0143832880999992010112915004-13267-043417FM-15+0443SBLP V0209999C000010300019N0112651N1+02601+02201999999ADDGA1041+006001999GA2071+030001999GF107991999999999999999999MA1101491999999REMMET058METAR SBLP 291500Z 00000KT 9999 SCT020 BKN100 26/22 Q1015;
0143832880999992010112916004-13267-043417FM-15+0443SBLP V0209999C000010300019N0112651N1+02701+02201999999ADDGA1041+006001999GA2071+030001999GF107991999999999999999999MA1101391999999REMMET058METAR SBLP 291600Z 00000KT 9999 SCT020 BKN100 27/22 Q1014;
0143832880999992010112917004-13267-043417FM-15+0443SBLP V0200901N003110300019N0112651N1+02901+02101999999ADDGA1041+006001999GA2071+030001999GF107991999999999999999999MA1101191999999REMMET058METAR SBLP 291700Z 09006KT 9999 SCT020 BKN100 29/21 Q1012;
0143832880999992010112918004-13267-043417FM-15+0443SBLP V0200901N003110300019N0112651N1+03001+02101999999ADDGA1021+006001999GA2071+030001999GF107991999999999999999999MA1101191999999REMMET058METAR SBLP 291800Z 09006KT 9999 FEW020 BKN100 30/21 Q1012;
0143832880999992010112919004-13267-043417FM-15+0443SBLP V0200901N003110300019N0112651N1+03001+02101999999ADDGA1041+006001999GA2071+030001999GF107991999999999999999999MA1101191999999REMMET058METAR SBLP 291900Z 09006KT 9999 SCT020 BKN100 30/21 Q1012;
0143832880999992010112920004-13267-043417FM-15+0443SBLP V0209999C000010300019N0112651N1+02801+02101999999ADDGA1041+006001999GA2071+030001999GF107991999999999999999999MA1101191999999REMMET058METAR SBLP 292000Z 00000KT 9999 SCT020 BKN100 28/21 Q1012;
0143832880999992010112921004-13267-043417FM-15+0443SBLP V0209999C000010300019N0112651N1+02701+02101999999ADDGA1021+006001999GA2071+030001999GF107991999999999999999999MA1101191999999REMMET058METAR SBLP 292100Z 00000KT 9999 FEW020 BKN100 27/21 Q1012;
0072832880999992010113010004-13267-043417FM-15+0443SBLP V0209999C000019999999Y0099001N1+02601+02101999999ADDMA1101291999999REMMET045METAR SBLP 301000Z 00000KT CAVOK 26/21 Q1013;
0072832880999992010113011004-13267-043417FM-15+0443SBLP V0209999C000019999999Y0099001N1+02801+02101999999ADDMA1101391999999REMMET045METAR SBLP 301100Z 00000KT CAVOK 28/21 Q1014;
0072832880999992010113012004-13267-043417FM-15+0443SBLP V0209999C000019999999Y0099001N1+03001+02001999999ADDMA1101391999999REMMET045METAR SBLP 301200Z 00000KT CAVOK 30/20 Q1014;
0120832880999992010113013004-13267-043417FM-15+0443SBLP V0209999C000012200019N0112651N1+03101+02001999999ADDGA1021+006001999GF102991999999999999999999MA1101391999999REMMET051METAR SBLP 301300Z 00000KT 9999 FEW020 31/20 Q1014;
0120832880999992010113014004-13267-043417FM-15+0443SBLP V0200901N003112200019N0112651N1+03201+02001999999ADDGA1021+009001999GF102991999999999999999999MA1101291999999REMMET051METAR SBLP 301400Z 09006KT 9999 FEW030 32/20 Q1013;
0120832880999992010113015004-13267-043417FM-15+0443SBLP V0200901N003112200019N0112651N1+03301+02001999999ADDGA1041+009001999GF104991999999999999999999MA1101191999999REMMET051METAR SBLP 301500Z 09006KT 9999 SCT030 33/20 Q1012;
0120832880999992010113016004-13267-043417FM-15+0443SBLP V0209999C000012200019N0112651N1+03301+02301999999ADDGA1041+009001999GF104991999999999999999999MA1101081999999REMMET051METAR SBLP 301600Z 00000KT 9999 SCT030 33/23 Q1011;
0158832880999992010113017004-13267-043417FM-15+0443SBLP V0202401N003112200019N0080001N1+03401+02201999999ADDGA1021+009001091GA2041+009001999MA1101021999999MW1161MW2171REMMET068METAR SBLP 301700Z 24006KT 8000 TS VCSH SCT030 FEW030CB 34/22 Q1010;EQDQ01+000022SCOTCV
0156832880999992010113018004-13267-043417FM-15+0443SBLP V0201201N00411009001CN0080001N1+02502+02201999999ADDGA1021+009001091GA2071+009001999MA1101021999999MW1801MW2951REMMET066METAR SBLP 301800Z 12008KT 8000 -TSRA BKN030 FEW030CB 25/22 Q1010;EQDQ01+000022SCOTCV
0148832880999992010113019004-13267-043417FM-15+0443SBLP V0200901N003112200019N0112651N1+02901+02401999999ADDGA1021+009001999GA2041+030001999GF104991999999999999999999MA1100911999999REMMET063METAR SBLP 301900Z 09006KT 9999 FEW030 SCT100 29/24 Q1009 RETS;
0143832880999992010113020004-13267-043417FM-15+0443SBLP V0209999C000012200019N0112651N1+03001+02301999999ADDGA1021+009001999GA2041+030001999GF104991999999999999999999MA1100911999999REMMET058METAR SBLP 302000Z 00000KT 9999 FEW030 SCT100 30/23 Q1009;
0120832880999992010113021004-13267-043417FM-15+0443SBLP V0209999C000012200019N0112651N1+02801+02401999999ADDGA1021+009001999GF102991999999999999999999MA1100911999999REMMET051METAR SBLP 302100Z 00000KT 9999 FEW030 28/24 Q1009;
0072832880999992010120110004-13267-043417FM-15+0443SBLP V0200901N001519999999Y0099001N1+02501+02201999999ADDMA1101291999999REMMET045METAR SBLP 011000Z 09003KT CAVOK 25/22 Q1013;
0072832880999992010120111004-13267-043417FM-15+0443SBLP V0209999C000019999999Y0099001N1+02801+02201999999ADDMA1101291999999REMMET045METAR SBLP 011100Z 00000KT CAVOK 28/22 Q1013;
0072832880999992010120112004-13267-043417FM-15+0443SBLP V0200901N002119999999Y0099001N1+02901+02101999999ADDMA1101391999999REMMET045METAR SBLP 011200Z 09004KT CAVOK 29/21 Q1014;
0072832880999992010120113004-13267-043417FM-15+0443SBLP V0200901N002119999999Y0099001N1+03001+02301999999ADDMA1101391999999REMMET045METAR SBLP 011300Z 09004KT CAVOK 30/23 Q1014;
0120832880999992010120114004-13267-043417FM-15+0443SBLP V0200601N002112200019N0112651N1+03001+02101999999ADDGA1025+009001999GF102991999999999999999999MA1101291999999REMMET051METAR SBLP 011400Z 06004KT 9999 FEW030 30/21 Q1013;
0120832880999992010120115004-13267-043417FM-15+0443SBLP V0201101N003112200019N0112651N1+03201+02201999999ADDGA1025+009001999GF102991999999999999999999MA1101291999999REMMET051METAR SBLP 011500Z 11006KT 9999 FEW030 32/22 Q1013;
0120832880999992010120116004-13267-043417FM-15+0443SBLP V0201801N003112200019N0112651N1+03201+02201999999ADDGA1025+009001999GF102991999999999999999999MA1101081999999REMMET051METAR SBLP 011600Z 18006KT 9999 FEW030 32/22 Q1011;
0120832880999992010120117004-13267-043417FM-15+0443SBLP V0202101N003112200019N0112651N1+03201+02201999999ADDGA1025+009001999GF102991999999999999999999MA1101021999999REMMET051METAR SBLP 011700Z 21006KT 9999 FEW030 32/22 Q1010;
0120832880999992010120118004-13267-043417FM-15+0443SBLP V0209999C000012200019N0112651N1+03201+02101999999ADDGA1025+009001999GF102991999999999999999999MA1100911999999REMMET051METAR SBLP 011800Z 00000KT 9999 FEW030 32/21 Q1009;
0120832880999992010120119004-13267-043417FM-15+0443SBLP V0209999C000012200019N0112651N1+03201+02201999999ADDGA1025+009001999GF102991999999999999999999MA1100911999999REMMET051METAR SBLP 011900Z 00000KT 9999 FEW030 32/22 Q1009;
0120832880999992010120120004-13267-043417FM-15+0443SBLP V0209999C000012200019N0112651N1+03201+02201999999ADDGA1025+009001999GF102991999999999999999999MA1100911999999REMMET051METAR SBLP 012000Z 00000KT 9999 FEW030 32/22 Q1009;
0072832880999992010120121004-13267-043417FM-15+0443SBLP V0209999C000019999999Y0099001N1+02901+02301999999ADDMA1100911999999REMMET045METAR SBLP 012100Z 00000KT CAVOK 29/23 Q1009;
0072832880999992010120210004-13267-043417FM-15+0443SBLP V0201801N002119999999Y0099001N1+02301+02001999999ADDMA1101291999999REMMET045METAR SBLP 021000Z 18004KT CAVOK 23/20 Q1013;
0072832880999992010120211004-13267-043417FM-15+0443SBLP V0209999C000019999999Y0099001N1+02701+02001999999ADDMA1101291999999REMMET045METAR SBLP 021100Z 00000KT CAVOK 27/20 Q1013;
0072832880999992010120212004-13267-043417FM-15+0443SBLP V0209999C000019999999Y0099001N1+03001+01901999999ADDMA1101391999999REMMET045METAR SBLP 021200Z 00000KT CAVOK 30/19 Q1014;
0072832880999992010120213004-13267-043417FM-15+0443SBLP V0209999C000019999999Y0099001N1+03101+01801999999ADDMA1101391999999REMMET045METAR SBLP 021300Z 00000KT CAVOK 31/18 Q1014;
0072832880999992010120214004-13267-043417FM-15+0443SBLP V0209999C000019999999Y0099001N1+03301+01901999999ADDMA1101391999999REMMET045METAR SBLP 021400Z 00000KT CAVOK 33/19 Q1014;
0120832880999992010120215004-13267-043417FM-15+0443SBLP V0209999C000012200019N0112651N1+03301+01901999999ADDGA1025+009001999GF102991999999999999999999MA1101291999999REMMET051METAR SBLP 021500Z 00000KT 9999 FEW030 33/19 Q1013;
0120832880999992010120216004-13267-043417FM-15+0443SBLP V0209999C000012200019N0112651N1+03401+01901999999ADDGA1025+009001999GF102991999999999999999999MA1101191999999REMMET051METAR SBLP 021600Z 00000KT 9999 FEW030 34/19 Q1012;
0120832880999992010120217004-13267-043417FM-15+0443SBLP V0209999C000012200019N0112651N1+03501+01901999999ADDGA1025+009001999GF102991999999999999999999MA1101081999999REMMET051METAR SBLP 021700Z 00000KT 9999 FEW030 35/19 Q1011;
0120832880999992010120218004-13267-043417FM-15+0443SBLP V0209999C000012200019N0112651N1+03501+01901999999ADDGA1025+009001999GF102991999999999999999999MA1101021999999REMMET051METAR SBLP 021800Z 00000KT 9999 FEW030 35/19 Q1010;
0120832880999992010120219004-13267-043417FM-15+0443SBLP V0209999C000012200019N0112651N1+03501+01901999999ADDGA1025+009001999GF102991999999999999999999MA1101021999999REMMET051METAR SBLP 021900Z 00000KT 9999 FEW030 35/19 Q1010;
0120832880999992010120220004-13267-043417FM-15+0443SBLP V0209999C000012200019N0112651N1+03301+02001999999ADDGA1025+009001999GF102991999999999999999999MA1101021999999REMMET051METAR SBLP 022000Z 00000KT 9999 FEW030 33/20 Q1010;
0120832880999992010120221004-13267-043417FM-15+0443SBLP V0201801N002112200019N0112651N1+03201+02101999999ADDGA1025+009001999GF102991999999999999999999MA1101021999999REMMET051METAR SBLP 022100Z 18004KT 9999 FEW030 32/21 Q1010;
0072832880999992010120310004-13267-043417FM-15+0443SBLP V0209999C000019999999Y0099001N1+02601+02001999999ADDMA1101291999999REMMET045METAR SBLP 031000Z 00000KT CAVOK 26/20 Q1013;
0072832880999992010120311004-13267-043417FM-15+0443SBLP V0209999C000019999999Y0099001N1+02801+01901999999ADDMA1101291999999REMMET045METAR SBLP 031100Z 00000KT CAVOK 28/19 Q1013;
0072832880999992010120312004-13267-043417FM-15+0443SBLP V0209999C000019999999Y0099001N1+03101+01801999999ADDMA1101291999999REMMET045METAR SBLP 031200Z 00000KT CAVOK 31/18 Q1013;
0072832880999992010120313004-13267-043417FM-15+0443SBLP V0209999C000019999999Y0099001N1+03201+01801999999ADDMA1101291999999REMMET045METAR SBLP 031300Z 00000KT CAVOK 32/18 Q1013;
0072832880999992010120314004-13267-043417FM-15+0443SBLP V0200401N003119999999Y0099001N1+03301+01801999999ADDMA1101191999999REMMET045METAR SBLP 031400Z 04006KT CAVOK 33/18 Q1012;
0072832880999992010120315004-13267-043417FM-15+0443SBLP V0209999C000019999999Y0099001N1+03401+01801999999ADDMA1101081999999REMMET045METAR SBLP 031500Z 00000KT CAVOK 34/18 Q1011;
0072832880999992010120316004-13267-043417FM-15+0443SBLP V0200901N003119999999Y0099001N1+03501+01701999999ADDMA1101021999999REMMET045METAR SBLP 031600Z 09006KT CAVOK 35/17 Q1010;
0072832880999992010120317004-13267-043417FM-15+0443SBLP V0200901N003119999999Y0099001N1+03701+01701999999ADDMA1100911999999REMMET045METAR SBLP 031700Z 09006KT CAVOK 37/17 Q1009;
0072832880999992010120318004-13267-043417FM-15+0443SBLP V0200901N003119999999Y0099001N1+03701+01701999999ADDMA1100911999999REMMET045METAR SBLP 031800Z 09006KT CAVOK 37/17 Q1009;
0072832880999992010120319004-13267-043417FM-15+0443SBLP V0201801N003119999999Y0099001N1+03701+01701999999ADDMA1100811999999REMMET045METAR SBLP 031900Z 18006KT CAVOK 37/17 Q1008;
0072832880999992010120320004-13267-043417FM-15+0443SBLP V0201801N003119999999Y0099001N1+03601+01701999999ADDMA1100911999999REMMET045METAR SBLP 032000Z 18006KT CAVOK 36/17 Q1009;
0072832880999992010120321004-13267-043417FM-15+0443SBLP V0209999C000019999999Y0099001N1+03301+01801999999ADDMA1100911999999REMMET045METAR SBLP 032100Z 00000KT CAVOK 33/18 Q1009;
0121832880999992010120409154-13267-043417FM-16+0443SBLP V0209999C000019999999Y0099001N1+02201+02001999999ADDGA1045+007501999GF104991999999999999999999MA1101101999999REMMET052METAR SBLP 040915Z 00000KT CAVOK SCT025 22/20 Q1011;
0072832880999992010120410004-13267-043417FM-15+0443SBLP V0209999C000019999999Y0099001N1+02501+02101999999ADDMA1101191999999REMMET045METAR SBLP 041000Z 00000KT CAVOK 25/21 Q1012;
0072832880999992010120411004-13267-043417FM-15+0443SBLP V0209999C000019999999Y0099001N1+02701+02101999999ADDMA1101191999999REMMET045METAR SBLP 041100Z 00000KT CAVOK 27/21 Q1012;
0072832880999992010120412004-13267-043417FM-15+0443SBLP V0209999C000019999999Y0099001N1+03001+02101999999ADDMA1101291999999REMMET045METAR SBLP 041200Z 00000KT CAVOK 30/21 Q1013;
0072832880999992010120413004-13267-043417FM-15+0443SBLP V0209999C000019999999Y0099001N1+03201+01901999999ADDMA1101191999999REMMET045METAR SBLP 041300Z 00000KT CAVOK 32/19 Q1012;
0162832880999992010120414004-13267-043417FM-15+0443SBLP V0209999C00001999999CN0112651N1+03301+01901999999ADDGA1025+009001999GA2045+030001999GF104991999999999999999999MA1101191999999REMMET058METAR SBLP 041400Z 00000KT 9999 FEW030 SCT100 33/19 Q1012;EQDP01 030003SCOCIG
0162832880999992010120415004-13267-043417FM-15+0443SBLP V0209999C00001999999CN0112651N1+03301+01901999999ADDGA1025+009001999GA2045+030001999GF104991999999999999999999MA1101081999999REMMET058METAR SBLP 041500Z 00000KT 9999 FEW030 SCT100 33/19 Q1011;EQDP01 030003SCOCIG
0120832880999992010120416004-13267-043417FM-15+0443SBLP V0209999C000012200019N0112651N1+03501+01801999999ADDGA1025+009001999GF102991999999999999999999MA1101021999999REMMET051METAR SBLP 041600Z 00000KT 9999 FEW030 35/18 Q1010;
0120832880999992010120417004-13267-043417FM-15+0443SBLP V0209999C000012200019N0112651N1+03601+01801999999ADDGA1045+009001999GF104991999999999999999999MA1100911999999REMMET051METAR SBLP 041700Z 00000KT 9999 SCT030 36/18 Q1009;
0120832880999992010120418004-13267-043417FM-15+0443SBLP V0209999C000012200019N0112651N1+03701+01801999999ADDGA1045+009001999GF104991999999999999999999MA1100811999999REMMET051METAR SBLP 041800Z 00000KT 9999 SCT030 37/18 Q1008;
0120832880999992010120419004-13267-043417FM-15+0443SBLP V0209999C000012200019N0112651N1+03601+01801999999ADDGA1045+009001999GF104991999999999999999999MA1100811999999REMMET051METAR SBLP 041900Z 00000KT 9999 SCT030 36/18 Q1008;
0120832880999992010120420004-13267-043417FM-15+0443SBLP V0209999C000012200019N0112651N1+03501+01901999999ADDGA1045+009001999GF104991999999999999999999MA1100811999999REMMET051METAR SBLP 042000Z 00000KT 9999 SCT030 35/19 Q1008;
0147832880999992010120421004-13267-043417FM-15+0443SBLP V0200901N00621012005CN0112651N1+03201+02001999999ADDGA1045+009001999GA2025+012001095MA1100911999999MW1171REMMET063METAR SBLP 042100Z 09012KT 9999 TS SCT030 FEW040CB 32/20 Q1009;EQDQ01+000022SCOTCV
0143832880999992010120510004-13267-043417FM-15+0443SBLP V0209999C00001030001CN0112651N1+02601+02101999999ADDGA1025+006001999GA2075+030001999GF107991999999999999999999MA1101191999999REMMET058METAR SBLP 051000Z 00000KT 9999 FEW020 BKN100 26/21 Q1012;
0143832880999992010120511004-13267-043417FM-15+0443SBLP V0201801N00311030001CN0112651N1+02701+02101999999ADDGA1025+006001999GA2075+030001999GF107991999999999999999999MA1101291999999REMMET058METAR SBLP 051100Z 18006KT 9999 FEW020 BKN100 27/21 Q1013;
0143832880999992010120512004-13267-043417FM-15+0443SBLP V0201801N00311030001CN0112651N1+02801+02101999999ADDGA1025+009001999GA2075+030001999GF107991999999999999999999MA1101291999999REMMET058METAR SBLP 051200Z 18006KT 9999 FEW030 BKN100 28/21 Q1013;
0143832880999992010120513004-13267-043417FM-15+0443SBLP V0201801N00311030001CN0112651N1+03001+02101999999ADDGA1045+009001999GA2075+030001999GF107991999999999999999999MA1101291999999REMMET058METAR SBLP 051300Z 18006KT 9999 SCT030 BKN100 30/21 Q1013;
0143832880999992010120514004-13267-043417FM-15+0443SBLP V0201801N00311030001CN0112651N1+03001+02101999999ADDGA1045+009001999GA2075+030001999GF107991999999999999999999MA1101191999999REMMET058METAR SBLP 051400Z 18006KT 9999 SCT030 BKN100 30/21 Q1012;
0143832880999992010120515004-13267-043417FM-15+0443SBLP V0201801N00311030001CN0112651N1+02901+02101999999ADDGA1045+009001999GA2075+030001999GF107991999999999999999999MA1101191999999REMMET058METAR SBLP 051500Z 18006KT 9999 SCT030 BKN100 29/21 Q1012;
0143832880999992010120516004-13267-043417FM-15+0443SBLP V0202001N00211030001CN0112651N1+02801+02301999999ADDGA1025+009001999GA2075+030001999GF107991999999999999999999MA1101081999999REMMET058METAR SBLP 051600Z 20004KT 9999 FEW030 BKN100 28/23 Q1011;
0162832880999992010120517004-13267-043417FM-15+0443SBLP V0209999C00001999999CN0112651N1+03101+02301999999ADDGA1025+009001999GA2045+030001999GF104991999999999999999999MA1101021999999REMMET058METAR SBLP 051700Z 00000KT 9999 FEW030 SCT100 31/23 Q1010;EQDP01 030003SCOCIG
0162832880999992010120518004-13267-043417FM-15+0443SBLP V0201801N00211999999CN0112651N1+03201+02201999999ADDGA1025+009001999GA2045+030001999GF104991999999999999999999MA1100911999999REMMET058METAR SBLP 051800Z 18004KT 9999 FEW030 SCT100 32/22 Q1009;EQDP01 030003SCOCIG
0120832880999992010120519004-13267-043417FM-15+0443SBLP V0201501N002112200019N0112651N1+03201+02201999999ADDGA1025+009001999GF102991999999999999999999MA1100811999999REMMET051METAR SBLP 051900Z 15004KT 9999 FEW030 32/22 Q1008;
0120832880999992010120520004-13267-043417FM-15+0443SBLP V0201201N002112200019N0112651N1+03101+02201999999ADDGA1025+009001999GF102991999999999999999999MA1100911999999REMMET051METAR SBLP 052000Z 12004KT 9999 FEW030 31/22 Q1009;
0143832880999992010120521004-13267-043417FM-15+0443SBLP V0201801N00211030001CN0112651N1+02901+02401999999ADDGA1025+009001999GA2075+030001999GF107991999999999999999999MA1100911999999REMMET058METAR SBLP 052100Z 18004KT 9999 FEW030 BKN100 29/24 Q1009;
0120832880999992010120610004-13267-043417FM-15+0443SBLP V0200901N001512200019N0112651N1+02501+02301999999ADDGA1045+009001999GF104991999999999999999999MA1101291999999REMMET051METAR SBLP 061000Z 09003KT 9999 SCT030 25/23 Q1013;
0143832880999992010120611004-13267-043417FM-15+0443SBLP V0203101N00211009001CN0112651N1+02601+02301999999ADDGA1075+009001999GA2075+030001999GF107991999999999999999999MA1101391999999REMMET058METAR SBLP 061100Z 31004KT 9999 BKN030 BKN100 26/23 Q1014;
0143832880999992010120612004-13267-043417FM-15+0443SBLP V0209999C00001030001CN0112651N1+02901+02201999999ADDGA1025+009001999GA2075+030001999GF107991999999999999999999MA1101291999999REMMET058METAR SBLP 061200Z 00000KT 9999 FEW030 BKN100 29/22 Q1013;
0120832880999992010120613004-13267-043417FM-15+0443SBLP V0201201N005112200019N0112651N1+03201+02301999999ADDGA1025+009001999GF102991999999999999999999MA1101291999999REMMET051METAR SBLP 061300Z 12010KT 9999 FEW030 32/23 Q1013;
0120832880999992010120614004-13267-043417FM-15+0443SBLP V0209999C000012200019N0112651N1+03301+02201999999ADDGA1025+009001999GF102991999999999999999999MA1101291999999REMMET051METAR SBLP 061400Z 00000KT 9999 FEW030 33/22 Q1013;
0120832880999992010120615004-13267-043417FM-15+0443SBLP V0209999C000012200019N0112651N1+03301+02201999999ADDGA1045+009001999GF104991999999999999999999MA1101191999999REMMET051METAR SBLP 061500Z 00000KT 9999 SCT030 33/22 Q1012;
0120832880999992010120616004-13267-043417FM-15+0443SBLP V0202101N003112200019N0112651N1+03501+02201999999ADDGA1045+009001999GF104991999999999999999999MA1101081999999REMMET051METAR SBLP 061600Z 21006KT 9999 SCT030 35/22 Q1011;
0143832880999992010120617004-13267-043417FM-15+0443SBLP V0202101N00311030001CN0112651N1+03501+02101999999ADDGA1045+009001999GA2075+030001999GF107991999999999999999999MA1101021999999REMMET058METAR SBLP 061700Z 21006KT 9999 SCT030 BKN100 35/21 Q1010;
0120832880999992010120618004-13267-043417FM-15+0443SBLP V0209999C000012200019N0112651N1+03401+02101999999ADDGA1045+009001999GF104991999999999999999999MA1100911999999REMMET051METAR SBLP 061800Z 00000KT 9999 SCT030 34/21 Q1009;
0120832880999992010120619004-13267-043417FM-15+0443SBLP V0209999C000012200019N0112651N1+03401+02101999999ADDGA1025+009001999GF102991999999999999999999MA1100911999999REMMET051METAR SBLP 061900Z 00000KT 9999 FEW030 34/21 Q1009;
0120832880999992010120620004-13267-043417FM-15+0443SBLP V0209999C000012200019N0112651N1+03401+02101999999ADDGA1025+009001999GF102991999999999999999999MA1100811999999REMMET051METAR SBLP 062000Z 00000KT 9999 FEW030 34/21 Q1008;
0120832880999992010120621004-13267-043417FM-15+0443SBLP V0209999C000012200019N0112651N1+03101+02401999999ADDGA1025+009001999GF102991999999999999999999MA1100911999999REMMET051METAR SBLP 062100Z 00000KT 9999 FEW030 31/24 Q1009;
0072832880999992010120710004-13267-043417FM-15+0443SBLP V0203401N003119999999Y0099001N1+02701+02001999999ADDMA1101081999999REMMET045METAR SBLP 071000Z 34006KT CAVOK 27/20 Q1011;
0072832880999992010120711004-13267-043417FM-15+0443SBLP V0203601N003119999999Y0099001N1+02901+02101999999ADDMA1101191999999REMMET045METAR SBLP 071100Z 36006KT CAVOK 29/21 Q1012;
0162832880999992010120712004-13267-043417FM-15+0443SBLP V0203401N00311999999CN0112651N1+03101+02101999999ADDGA1025+009001999GA2045+030001999GF104991999999999999999999MA1101191999999REMMET058METAR SBLP 071200Z 34006KT 9999 FEW030 SCT100 31/21 Q1012;EQDP01 030003SCOCIG
0120832880999992010120713004-13267-043417FM-15+0443SBLP V0200301N003112200019N0112651N1+03201+02101999999ADDGA1025+009001999GF102991999999999999999999MA1101191999999REMMET051METAR SBLP 071300Z 03006KT 9999 FEW030 32/21 Q1012;
0120832880999992010120714004-13267-043417FM-15+0443SBLP V0209999C000012200019N0112651N1+03401+02101999999ADDGA1045+009001999GF104991999999999999999999MA1101081999999REMMET051METAR SBLP 071400Z 00000KT 9999 SCT030 34/21 Q1011;
0120832880999992010120715004-13267-043417FM-15+0443SBLP V0203601N003112200019N0112651N1+03401+02101999999ADDGA1045+009001999GF104991999999999999999999MA1101021999999REMMET051METAR SBLP 071500Z 36006KT 9999 SCT030 34/21 Q1010;
0120832880999992010120716004-13267-043417FM-15+0443SBLP V0202701N004112200019N0112651N1+03201+02201999999ADDGA1045+009001999GF104991999999999999999999MA1100911999999REMMET051METAR SBLP 071600Z 27008KT 9999 SCT030 32/22 Q1009;
0147832880999992010120717004-13267-043417FM-15+0443SBLP V0203501N00511009001CN0112651N1+03001+02301999999ADDGA1025+009001091GA2075+009001999MA1100911999999MW1171REMMET063METAR SBLP 071700Z 35010KT 9999 TS BKN030 FEW030CB 30/23 Q1009;EQDQ01+000022SCOTCV
0120832880999992010120718004-13267-043417FM-15+0443SBLP V0203001N003112200019N0112651N1+03201+02201999999ADDGA1045+009001999GF104991999999999999999999MA1100811999999REMMET051METAR SBLP 071800Z 30006KT 9999 SCT030 32/22 Q1008;
0120832880999992010120719004-13267-043417FM-15+0443SBLP V0203001N001012200019N0112651N1+03101+02101999999ADDGA1025+009001999GF102991999999999999999999MA1100811999999REMMET051METAR SBLP 071900Z 30002KT 9999 FEW030 31/21 Q1008;
0120832880999992010120720004-13267-043417FM-15+0443SBLP V0209999C000012200019N0112651N1+03101+02201999999ADDGA1025+009001999GF102991999999999999999999MA1100811999999REMMET051METAR SBLP 072000Z 00000KT 9999 FEW030 31/22 Q1008;
0120832880999992010120721004-13267-043417FM-15+0443SBLP V0209999C000012200019N0112651N1+03001+02201999999ADDGA1025+009001999GF102991999999999999999999MA1100811999999REMMET051METAR SBLP 072100Z 00000KT 9999 FEW030 30/22 Q1008;
0125832880999992010120810004-13267-043417FM-15+0443SBLP V0209999C000012200019N0112651N1+02601+02401999999ADDGA1045+009001999GF104991999999999999999999MA1101081999999REMMET056METAR SBLP 081000Z 00000KT 9999 SCT030 26/24 Q1011 RERA;
0120832880999992010120811004-13267-043417FM-15+0443SBLP V0209999C00001009001CN0112651N1+02701+02401999999ADDGA1075+009001999GF107991999999999999999999MA1101081999999REMMET051METAR SBLP 081100Z 00000KT 9999 BKN030 27/24 Q1011;
0120832880999992010120812004-13267-043417FM-15+0443SBLP V0203501N005112200019N0112651N1+03001+02301999999ADDGA1025+009001999GF102991999999999999999999MA1101081999999REMMET051METAR SBLP 081200Z 35010KT 9999 FEW030 30/23 Q1011;
0120832880999992010120813004-13267-043417FM-15+0443SBLP V0209999C000012200019N0112651N1+03201+02201999999ADDGA1025+009001999GF102991999999999999999999MA1101081999999REMMET051METAR SBLP 081300Z 00000KT 9999 FEW030 32/22 Q1011;
0120832880999992010120814004-13267-043417FM-15+0443SBLP V0209999C000012200019N0112651N1+03301+02401999999ADDGA1045+009001999GF104991999999999999999999MA1101021999999REMMET051METAR SBLP 081400Z 00000KT 9999 SCT030 33/24 Q1010;
0130832880999992010120815004-13267-043417FM-15+0443SBLP V0200601N00311009001CN0090001N1+03101+02501999999ADDGA1075+009001999GF107991999999999999999999MA1100911999999MW1611REMMET055METAR SBLP 081500Z 06006KT 9000 -RA BKN030 31/25 Q1009;
0205832880999992010120816004-13267-043417FM-15+0443SBLP V0203601N00621999999CN0090001N1+02801+02401999999ADDGA1045+009001999GA2025+012001095GA3045+030001999GF104991999999999999999999MA1100811999999MW1801MW2951REMMET073METAR SBLP 081600Z 36012KT 9000 -TSRA SCT030 FEW040CB SCT100 28/24 Q1008;EQDP01 012003SCOCIG
0143832880999992010120817004-13267-043417FM-15+0443SBLP V0209999C00001030001CN0112651N1+02801+02301999999ADDGA1045+009001999GA2075+030001999GF107991999999999999999999MA1100711999999REMMET058METAR SBLP 081700Z 00000KT 9999 SCT030 BKN100 28/23 Q1007;
0143832880999992010120818004-13267-043417FM-15+0443SBLP V0209999C00001030001CN0112651N1+03201+02001999999ADDGA1045+009001999GA2075+030001999GF107991999999999999999999MA1100611999999REMMET058METAR SBLP 081800Z 00000KT 9999 SCT030 BKN100 32/20 Q1006;
0143832880999992010120819004-13267-043417FM-15+0443SBLP V0209999C00001030001CN0112651N1+03301+02001999999ADDGA1045+009001999GA2075+030001999GF107991999999999999999999MA1100511999999REMMET058METAR SBLP 081900Z 00000KT 9999 SCT030 BKN100 33/20 Q1005;
0143832880999992010120820004-13267-043417FM-15+0443SBLP V0209999C00001030001CN0112651N1+03301+01901999999ADDGA1045+009001999GA2075+030001999GF107991999999999999999999MA1100511999999REMMET058METAR SBLP 082000Z 00000KT 9999 SCT030 BKN100 33/19 Q1005;
0143832880999992010120821004-13267-043417FM-15+0443SBLP V0209999C00001030001CN0112651N1+03201+01901999999ADDGA1045+009001999GA2075+030001999GF107991999999999999999999MA1100511999999REMMET058METAR SBLP 082100Z 00000KT 9999 SCT030 BKN100 32/19 Q1005;
0143832880999992010120910004-13267-043417FM-15+0443SBLP V0209999C00001030001CN0112651N1+02301+02201999999ADDGA1025+006001999GA2075+030001999GF107991999999999999999999MA1100911999999REMMET058METAR SBLP 091000Z 00000KT 9999 FEW020 BKN100 23/22 Q1009;
0143832880999992010120911004-13267-043417FM-15+0443SBLP V0203601N00311030001CN0112651N1+02501+02101999999ADDGA1025+006001999GA2075+030001999GF107991999999999999999999MA1100911999999REMMET058METAR SBLP 091100Z 36006KT 9999 FEW020 BKN100 25/21 Q1009;
0143832880999992010120912004-13267-043417FM-15+0443SBLP V0203601N00311030001CN0112651N1+02701+02201999999ADDGA1025+006001999GA2075+030001999GF107991999999999999999999MA1101021999999REMMET058METAR SBLP 091200Z 36006KT 9999 FEW020 BKN100 27/22 Q1010;
0143832880999992010120913004-13267-043417FM-15+0443SBLP V0203301N00311030001CN0112651N1+02801+02201999999ADDGA1025+009001999GA2075+030001999GF107991999999999999999999MA1101021999999REMMET058METAR SBLP 091300Z 33006KT 9999 FEW030 BKN100 28/22 Q1010;
0143832880999992010120914004-13267-043417FM-15+0443SBLP V0203401N00311030001CN0112651N1+03001+02101999999ADDGA1025+009001999GA2075+030001999GF107991999999999999999999MA1100911999999REMMET058METAR SBLP 091400Z 34006KT 9999 FEW030 BKN100 30/21 Q1009;
0143832880999992010120915004-13267-043417FM-15+0443SBLP V0203501N00311030001CN0112651N1+03101+02201999999ADDGA1045+009001999GA2075+030001999GF107991999999999999999999MA1100811999999REMMET058METAR SBLP 091500Z 35006KT 9999 SCT030 BKN100 31/22 Q1008;
0143832880999992010120916004-13267-043417FM-15+0443SBLP V0203601N00311030001CN0112651N1+03201+02101999999ADDGA1045+009001999GA2075+030001999GF107991999999999999999999MA1100711999999REMMET058METAR SBLP 091600Z 36006KT 9999 SCT030 BKN100 32/21 Q1007;
0186832880999992010120917004-13267-043417FM-15+0443SBLP V0203601N00311012001CN0090001N1+03101+02101999999ADDGA1045+009001999GA2025+012001095GA3075+030001999GF107991999999999999999999MA1100711999999MW1801MW2951REMMET073METAR SBLP 091700Z 36006KT 9000 -TSRA SCT030 FEW040CB BKN100 31/21 Q1007;
0143832880999992010120918004-13267-043417FM-15+0443SBLP V0203601N00311030001CN0112651N1+03101+02101999999ADDGA1045+009001999GA2075+030001999GF107991999999999999999999MA1100611999999REMMET058METAR SBLP 091800Z 36006KT 9999 SCT030 BKN100 31/21 Q1006;
0143832880999992010120919004-13267-043417FM-15+0443SBLP V0203601N00311030001CN0112651N1+03201+02001999999ADDGA1045+009001999GA2075+030001999GF107991999999999999999999MA1100511999999REMMET058METAR SBLP 091900Z 36006KT 9999 SCT030 BKN100 32/20 Q1005;
0186832880999992010120920004-13267-043417FM-15+0443SBLP V0203601N00621012001CN0090001N1+02901+02101999999ADDGA1045+009001999GA2025+012001095GA3075+030001999GF107991999999999999999999MA1100611999999MW1801MW2951REMMET073METAR SBLP 092000Z 36012KT 9000 -TSRA SCT030 FEW040CB BKN100 29/21 Q1006;
0177832880999992010120921004-13267-043417FM-15+0443SBLP V0200901N00311012001CN0112651N1+02901+02101999999ADDGA1045+009001999GA2025+012001095GA3075+030001999GF107991999999999999999999MA1100611999999MW1171REMMET070METAR SBLP 092100Z 09006KT 9999 TS SCT030 FEW040CB BKN100 29/21 Q1006;
0143832880999992010121010004-13267-043417FM-15+0443SBLP V0209999C00001030001CN0112651N1+02401+02101999999ADDGA1045+003001999GA2075+030001999GF107991999999999999999999MA1101021999999REMMET058METAR SBLP 101000Z 00000KT 9999 SCT010 BKN100 24/21 Q1010;
0143832880999992010121011004-13267-043417FM-15+0443SBLP V0209999C00001030001CN0112651N1+02601+02101999999ADDGA1045+003001999GA2075+030001999GF107991999999999999999999MA1101081999999REMMET058METAR SBLP 101100Z 00000KT 9999 SCT010 BKN100 26/21 Q1011;
0143832880999992010121012004-13267-043417FM-15+0443SBLP V0203601N00311030001CN0112651N1+02701+02101999999ADDGA1045+004501999GA2075+030001999GF107991999999999999999999MA1101191999999REMMET058METAR SBLP 101200Z 36006KT 9999 SCT015 BKN100 27/21 Q1012;
0162832880999992010121013004-13267-043417FM-15+0443SBLP V0203601N00311999999CN0112651N1+02801+02101999999ADDGA1045+006001999GA2045+030001999GF104991999999999999999999MA1101191999999REMMET058METAR SBLP 101300Z 36006KT 9999 SCT020 SCT100 28/21 Q1012;EQDP01 030003SCOCIG
0162832880999992010121014004-13267-043417FM-15+0443SBLP V0203601N00311999999CN0112651N1+02901+02101999999ADDGA1045+006001999GA2045+030001999GF104991999999999999999999MA1101081999999REMMET058METAR SBLP 101400Z 36006KT 9999 SCT020 SCT100 29/21 Q1011;EQDP01 030003SCOCIG
0162832880999992010121015004-13267-043417FM-15+0443SBLP V0203601N00311999999CN0112651N1+02901+02101999999ADDGA1045+006001999GA2045+030001999GF104991999999999999999999MA1101021999999REMMET058METAR SBLP 101500Z 36006KT 9999 SCT020 SCT100 29/21 Q1010;EQDP01 030003SCOCIG
0143832880999992010121016004-13267-043417FM-15+0443SBLP V0202101N00151030001CN0112651N1+03001+02301999999ADDGA1045+006001999GA2075+030001999GF107991999999999999999999MA1101021999999REMMET058METAR SBLP 101600Z 21003KT 9999 SCT020 BKN100 30/23 Q1010;
0148832880999992010121017004-13267-043417FM-15+0443SBLP V0203501N00211030001CN0112651N1+03001+02401999999ADDGA1045+006001999GA2075+030001999GF107991999999999999999999MA1100911999999REMMET063METAR SBLP 101700Z 35004KT 9999 SCT020 BKN100 30/24 Q1009 RERA;
0120832880999992010121018004-13267-043417FM-15+0443SBLP V0201801N002112200019N0112651N1+03101+02301999999ADDGA1025+009001999GF102991999999999999999999MA1100811999999REMMET051METAR SBLP 101800Z 18004KT 9999 FEW030 31/23 Q1008;
0120832880999992010121019004-13267-043417FM-15+0443SBLP V0201801N002112200019N0112651N1+03101+02101999999ADDGA1025+009001999GF102991999999999999999999MA1100811999999REMMET051METAR SBLP 101900Z 18004KT 9999 FEW030 31/21 Q1008;
0143832880999992010121020004-13267-043417FM-15+0443SBLP V0201801N00311030001CN0112651N1+03101+02101999999ADDGA1025+009001999GA2075+030001999GF107991999999999999999999MA1100811999999REMMET058METAR SBLP 102000Z 18006KT 9999 FEW030 BKN100 31/21 Q1008;
0143832880999992010121021004-13267-043417FM-15+0443SBLP V0201801N00311030001CN0112651N1+02801+02301999999ADDGA1025+009001999GA2075+030001999GF107991999999999999999999MA1100811999999REMMET058METAR SBLP 102100Z 18006KT 9999 FEW030 BKN100 28/23 Q1008;
0143832880999992010121110004-13267-043417FM-15+0443SBLP V0209999C00001030001CN0112651N1+02501+02201999999ADDGA1045+006001999GA2075+030001999GF107991999999999999999999MA1101191999999REMMET058METAR SBLP 111000Z 00000KT 9999 SCT020 BKN100 25/22 Q1012;
0143832880999992010121111004-13267-043417FM-15+0443SBLP V0203601N00311006001CN0112651N1+02501+02301999999ADDGA1075+006001999GA2075+030001999GF107991999999999999999999MA1101291999999REMMET058METAR SBLP 111100Z 36006KT 9999 BKN020 BKN100 25/23 Q1013;
0153832880999992010121112004-13267-043417FM-15+0443SBLP V0203601N00211004501CN0112651N1+02401+02301999999ADDGA1075+004501999GA2075+030001999GF107991999999999999999999MA1101291999999MW1611REMMET062METAR SBLP 111200Z 36004KT 9999 -RA BKN015 BKN100 24/23 Q1013;
0153832880999992010121113004-13267-043417FM-15+0443SBLP V0203301N00211004501CN0112651N1+02501+02401999999ADDGA1075+004501999GA2075+030001999GF107991999999999999999999MA1101291999999MW1611REMMET062METAR SBLP 111300Z 33004KT 9999 -RA BKN015 BKN100 25/24 Q1013;
0148832880999992010121114004-13267-043417FM-15+0443SBLP V0202801N00211030001CN0112651N1+02701+02401999999ADDGA1045+004501999GA2075+030001999GF107991999999999999999999MA1101191999999REMMET063METAR SBLP 111400Z 28004KT 9999 SCT015 BKN100 27/24 Q1012 RERA;
0143832880999992010121115004-13267-043417FM-15+0443SBLP V0203001N00411030001CN0112651N1+02901+02401999999ADDGA1045+006001999GA2075+030001999GF107991999999999999999999MA1101081999999REMMET058METAR SBLP 111500Z 30008KT 9999 SCT020 BKN100 29/24 Q1011;
0143832880999992010121116004-13267-043417FM-15+0443SBLP V0203301N00311030001CN0112651N1+02901+02401999999ADDGA1045+006001999GA2075+030001999GF107991999999999999999999MA1101021999999REMMET058METAR SBLP 111600Z 33006KT 9999 SCT020 BKN100 29/24 Q1010;
0143832880999992010121117004-13267-043417FM-15+0443SBLP V0203001N00311030001CN0112651N1+03001+02401999999ADDGA1045+006001999GA2075+030001999GF107991999999999999999999MA1100911999999REMMET058METAR SBLP 111700Z 30006KT 9999 SCT020 BKN100 30/24 Q1009;
0162832880999992010121118004-13267-043417FM-15+0443SBLP V0209999C00001999999CN0112651N1+03001+02301999999ADDGA1025+006001999GA2045+030001999GF104991999999999999999999MA1100911999999REMMET058METAR SBLP 111800Z 00000KT 9999 FEW020 SCT100 30/23 Q1009;EQDP01 030003SCOCIG
0162832880999992010121119004-13267-043417FM-15+0443SBLP V0209999C00001999999CN0112651N1+03101+02301999999ADDGA1025+006001999GA2045+030001999GF104991999999999999999999MA1100811999999REMMET058METAR SBLP 111900Z 00000KT 9999 FEW020 SCT100 31/23 Q1008;EQDP01 030003SCOCIG
0162832880999992010121120004-13267-043417FM-15+0443SBLP V0201201N00311999999CN0112651N1+03001+02401999999ADDGA1025+006001999GA2045+030001999GF104991999999999999999999MA1100811999999REMMET058METAR SBLP 112000Z 12006KT 9999 FEW020 SCT100 30/24 Q1008;EQDP01 030003SCOCIG
0162832880999992010121121004-13267-043417FM-15+0443SBLP V0201201N00311999999CN0112651N1+02901+02401999999ADDGA1025+006001999GA2045+030001999GF104991999999999999999999MA1100811999999REMMET058METAR SBLP 112100Z 12006KT 9999 FEW020 SCT100 29/24 Q1008;EQDP01 030003SCOCIG
0143832880999992010121210004-13267-043417FM-15+0443SBLP V0209999C00001030001CN0112651N1+02501+02301999999ADDGA1045+006001999GA2075+030001999GF107991999999999999999999MA1101081999999REMMET058METAR SBLP 121000Z 00000KT 9999 SCT020 BKN100 25/23 Q1011;
0143832880999992010121211004-13267-043417FM-15+0443SBLP V0200301N00311030001CN0112651N1+02601+02301999999ADDGA1045+006001999GA2075+030001999GF107991999999999999999999MA1101081999999REMMET058METAR SBLP 121100Z 03006KT 9999 SCT020 BKN100 26/23 Q1011;
0143832880999992010121212004-13267-043417FM-15+0443SBLP V0209999C00001006001CN0112651N1+02801+02401999999ADDGA1075+006001999GA2075+030001999GF107991999999999999999999MA1101081999999REMMET058METAR SBLP 121200Z 00000KT 9999 BKN020 BKN100 28/24 Q1011;
0143832880999992010121213004-13267-043417FM-15+0443SBLP V0200301N00311030001CN0112651N1+02801+02301999999ADDGA1045+006001999GA2075+030001999GF107991999999999999999999MA1101081999999REMMET058METAR SBLP 121300Z 03006KT 9999 SCT020 BKN100 28/23 Q1011;
0143832880999992010121214004-13267-043417FM-15+0443SBLP V0203301N00211030001CN0112651N1+02901+02301999999ADDGA1045+006001999GA2075+030001999GF107991999999999999999999MA1101021999999REMMET058METAR SBLP 121400Z 33004KT 9999 SCT020 BKN100 29/23 Q1010;
0162832880999992010121215004-13267-043417FM-15+0443SBLP V0203601N00311999999CN0112651N1+02901+02301999999ADDGA1045+009001999GA2045+030001999GF104991999999999999999999MA1100911999999REMMET058METAR SBLP 121500Z 36006KT 9999 SCT030 SCT100 29/23 Q1009;EQDP01 030003SCOCIG
0162832880999992010121216004-13267-043417FM-15+0443SBLP V0200401N00311999999CN0112651N1+03001+02301999999ADDGA1045+009001999GA2045+030001999GF104991999999999999999999MA1100811999999REMMET058METAR SBLP 121600Z 04006KT 9999 SCT030 SCT100 30/23 Q1008;EQDP01 030003SCOCIG
0162832880999992010121217004-13267-043417FM-15+0443SBLP V0200301N00311999999CN0112651N1+03101+02301999999ADDGA1045+009001999GA2045+030001999GF104991999999999999999999MA1100711999999REMMET058METAR SBLP 121700Z 03006KT 9999 SCT030 SCT100 31/23 Q1007;EQDP01 030003SCOCIG
0162832880999992010121218004-13267-043417FM-15+0443SBLP V0200301N00311999999CN0112651N1+03101+02301999999ADDGA1025+009001999GA2045+030001999GF104991999999999999999999MA1100611999999REMMET058METAR SBLP 121800Z 03006KT 9999 FEW030 SCT100 31/23 Q1006;EQDP01 030003SCOCIG
0120832880999992010121219004-13267-043417FM-15+0443SBLP V0203601N003112200019N0112651N1+03201+02301999999ADDGA1045+009001999GF104991999999999999999999MA1100511999999REMMET051METAR SBLP 121900Z 36006KT 9999 SCT030 32/23 Q1005;
0120832880999992010121220004-13267-043417FM-15+0443SBLP V0209999C000012200019N0112651N1+03101+02301999999ADDGA1025+009001999GF102991999999999999999999MA1100511999999REMMET051METAR SBLP 122000Z 00000KT 9999 FEW030 31/23 Q1005;
0120832880999992010121221004-13267-043417FM-15+0443SBLP V0203601N003112200019N0112651N1+02901+02401999999ADDGA1025+009001999GF102991999999999999999999MA1100511999999REMMET051METAR SBLP 122100Z 36006KT 9999 FEW030 29/24 Q1005;
0143832880999992010121310004-13267-043417FM-15+0443SBLP V0209999C00001030001CN0112651N1+02401+02301999999ADDGA1045+006001999GA2075+030001999GF107991999999999999999999MA1100911999999REMMET058METAR SBLP 131000Z 00000KT 9999 SCT020 BKN100 24/23 Q1009;
0143832880999992010121311004-13267-043417FM-15+0443SBLP V0203601N00311030001CN0112651N1+02601+02201999999ADDGA1025+006001999GA2075+030001999GF107991999999999999999999MA1100911999999REMMET058METAR SBLP 131100Z 36006KT 9999 FEW020 BKN100 26/22 Q1009;
0143832880999992010121312004-13267-043417FM-15+0443SBLP V0203001N00311030001CN0112651N1+02701+02301999999ADDGA1025+006001999GA2075+030001999GF107991999999999999999999MA1100911999999REMMET058METAR SBLP 131200Z 30006KT 9999 FEW020 BKN100 27/23 Q1009;
0162832880999992010121313004-13267-043417FM-15+0443SBLP V0200301N00311999999CN0112651N1+02901+02201999999ADDGA1025+009001999GA2045+030001999GF104991999999999999999999MA1100811999999REMMET058METAR SBLP 131300Z 03006KT 9999 FEW030 SCT100 29/22 Q1008;EQDP01 030003SCOCIG
0120832880999992010121314004-13267-043417FM-15+0443SBLP V0202701N003112200019N0112651N1+03001+02201999999ADDGA1045+009001999GF104991999999999999999999MA1100811999999REMMET051METAR SBLP 131400Z 27006KT 9999 SCT030 30/22 Q1008;
0162832880999992010121315004-13267-043417FM-15+0443SBLP V0209999C00001999999CN0112651N1+03001+02301999999ADDGA1045+009001999GA2045+030001999GF104991999999999999999999MA1100711999999REMMET058METAR SBLP 131500Z 00000KT 9999 SCT030 SCT100 30/23 Q1007;EQDP01 030003SCOCIG
0120832880999992010121316004-13267-043417FM-15+0443SBLP V0203601N002612200019N0112651N1+03201+02101999999ADDGA1045+009001999GF104991999999999999999999MA1100611999999REMMET051METAR SBLP 131600Z 36005KT 9999 SCT030 32/21 Q1006;
0138832880999992010121317004-13267-043417FM-15+0443SBLP V0200201N00311012005CN0112651N1+03301+02301999999ADDGA1045+009001999GA2025+012001095MA1100411999999REMMET060METAR SBLP 131700Z 02006KT 9999 SCT030 FEW040CB 33/23 Q1004;EQDQ01+000022SCOTCV
0138832880999992010121318004-13267-043417FM-15+0443SBLP V0203601N00311012005CN0112651N1+03301+02201999999ADDGA1045+009001999GA2025+012001095MA1100311999999REMMET060METAR SBLP 131800Z 36006KT 9999 SCT030 FEW040CB 33/22 Q1003;EQDQ01+000022SCOTCV
0138832880999992010121319004-13267-043417FM-15+0443SBLP V0200601N00151012005CN0112651N1+03401+02201999999ADDGA1045+009001999GA2025+012001095MA1100311999999REMMET060METAR SBLP 131900Z 06003KT 9999 SCT030 FEW040CB 34/22 Q1003;EQDQ01+000022SCOTCV
0138832880999992010121320004-13267-043417FM-15+0443SBLP V0200601N00151012005CN0112651N1+03401+02201999999ADDGA1045+009001999GA2025+012001095MA1100311999999REMMET060METAR SBLP 132000Z 06003KT 9999 SCT030 FEW040CB 34/22 Q1003;EQDQ01+000022SCOTCV
0120832880999992010121321004-13267-043417FM-15+0443SBLP V0200601N003112200019N0112651N1+02701+02301999999ADDGA1045+009001999GF104991999999999999999999MA1100411999999REMMET051METAR SBLP 132100Z 06006KT 9999 SCT030 27/23 Q1004;
0143832880999992010121410004-13267-043417FM-15+0443SBLP V0200301N00311004501CN0112651N1+02401+02201999999ADDGA1075+004501999GA2075+030001999GF107991999999999999999999MA1100911999999REMMET058METAR SBLP 141000Z 03006KT 9999 BKN015 BKN100 24/22 Q1009;
0143832880999992010121411004-13267-043417FM-15+0443SBLP V0200201N00411030001CN0112651N1+02301+02101999999ADDGA1045+004501999GA2075+030001999GF107991999999999999999999MA1101021999999REMMET058METAR SBLP 141100Z 02008KT 9999 SCT015 BKN100 23/21 Q1010;
0143832880999992010121412004-13267-043417FM-15+0443SBLP V0203501N00311030001CN0112651N1+02401+02101999999ADDGA1045+004501999GA2075+030001999GF107991999999999999999999MA1101021999999REMMET058METAR SBLP 141200Z 35006KT 9999 SCT015 BKN100 24/21 Q1010;
0143832880999992010121413004-13267-043417FM-15+0443SBLP V0203601N00511030001CN0112651N1+02501+02201999999ADDGA1045+006001999GA2075+030001999GF107991999999999999999999MA1101021999999REMMET058METAR SBLP 141300Z 36010KT 9999 SCT020 BKN100 25/22 Q1010;
0153832880999992010121414004-13267-043417FM-15+0443SBLP V0203601N00311030001CN0112651N1+02401+02201999999ADDGA1045+006001999GA2075+030001999GF107991999999999999999999MA1101021999999MW1611REMMET062METAR SBLP 141400Z 36006KT 9999 -RA SCT020 BKN100 24/22 Q1010;
0160832880999992010121415004-13267-043417FM-15+0443SBLP V0203601N00411030001CN0112651N1+02601+02201999999ADDGA1045+004501999GA2075+030001999GF107991999999999999999999MA1100911999999MW1161REMMET069METAR SBLP 141500Z 36008KT 9999 8000E VCSH SCT015 BKN100 26/22 Q1009;
0143832880999992010121416004-13267-043417FM-15+0443SBLP V0203601N00311030001CN0112651N1+02801+02101999999ADDGA1045+004501999GA2075+030001999GF107991999999999999999999MA1100911999999REMMET058METAR SBLP 141600Z 36006KT 9999 SCT015 BKN100 28/21 Q1009;
0143832880999992010121417004-13267-043417FM-15+0443SBLP V0203601N00621030001CN0112651N1+02901+02101999999ADDGA1045+006001999GA2075+030001999GF107991999999999999999999MA1100811999999REMMET058METAR SBLP 141700Z 36012KT 9999 SCT020 BKN100 29/21 Q1008;
0143832880999992010121418004-13267-043417FM-15+0443SBLP V0203601N00621030001CN0112651N1+02901+02101999999ADDGA1045+006001999GA2075+030001999GF107991999999999999999999MA1100711999999REMMET058METAR SBLP 141800Z 36012KT 9999 SCT020 BKN100 29/21 Q1007;
0143832880999992010121419004-13267-043417FM-15+0443SBLP V0203601N00621030001CN0112651N1+02801+02101999999ADDGA1045+006001999GA2075+030001999GF107991999999999999999999MA1100711999999REMMET058METAR SBLP 141900Z 36012KT 9999 SCT020 BKN100 28/21 Q1007;
0143832880999992010121420004-13267-043417FM-15+0443SBLP V0203601N00411030001CN0112651N1+02801+02101999999ADDGA1045+006001999GA2075+030001999GF107991999999999999999999MA1100711999999REMMET058METAR SBLP 142000Z 36008KT 9999 SCT020 BKN100 28/21 Q1007;
0143832880999992010121421004-13267-043417FM-15+0443SBLP V0203601N00311030001CN0112651N1+02701+02101999999ADDGA1045+006001999GA2075+030001999GF107991999999999999999999MA1100811999999REMMET058METAR SBLP 142100Z 36006KT 9999 SCT020 BKN100 27/21 Q1008;
0143832880999992010121510004-13267-043417FM-15+0443SBLP V0209999C00001030001CN0112651N1+02301+02101999999ADDGA1045+003001999GA2075+030001999GF107991999999999999999999MA1101191999999REMMET058METAR SBLP 151000Z 00000KT 9999 SCT010 BKN100 23/21 Q1012;
0143832880999992010121511004-13267-043417FM-15+0443SBLP V0203601N00311030001CN0112651N1+02401+02101999999ADDGA1045+004501999GA2075+030001999GF107991999999999999999999MA1101291999999REMMET058METAR SBLP 151100Z 36006KT 9999 SCT015 BKN100 24/21 Q1013;
0143832880999992010121512004-13267-043417FM-15+0443SBLP V0203601N00311030001CN0112651N1+02601+02101999999ADDGA1045+006001999GA2075+030001999GF107991999999999999999999MA1101291999999REMMET058METAR SBLP 151200Z 36006KT 9999 SCT020 BKN100 26/21 Q1013;
0143832880999992010121513004-13267-043417FM-15+0443SBLP V0203601N00311030001CN0112651N1+02801+02101999999ADDGA1045+006001999GA2075+030001999GF107991999999999999999999MA1101291999999REMMET058METAR SBLP 151300Z 36006KT 9999 SCT020 BKN100 28/21 Q1013;
0143832880999992010121514004-13267-043417FM-15+0443SBLP V0203601N00311030001CN0112651N1+02901+02101999999ADDGA1045+006001999GA2075+030001999GF107991999999999999999999MA1101191999999REMMET058METAR SBLP 151400Z 36006KT 9999 SCT020 BKN100 29/21 Q1012;
0143832880999992010121515004-13267-043417FM-15+0443SBLP V0203601N00311030001CN0112651N1+02901+02101999999ADDGA1045+006001999GA2075+030001999GF107991999999999999999999MA1101081999999REMMET058METAR SBLP 151500Z 36006KT 9999 SCT020 BKN100 29/21 Q1011;
0143832880999992010121516004-13267-043417FM-15+0443SBLP V0203301N00311030001CN0112651N1+03101+02101999999ADDGA1045+006001999GA2075+030001999GF107991999999999999999999MA1101021999999REMMET058METAR SBLP 151600Z 33006KT 9999 SCT020 BKN100 31/21 Q1010;
0143832880999992010121517004-13267-043417FM-15+0443SBLP V0200301N00211030001CN0112651N1+03201+02101999999ADDGA1025+008101999GA2075+030001999GF107991999999999999999999MA1100911999999REMMET058METAR SBLP 151700Z 03004KT 9999 FEW027 BKN100 32/21 Q1009;
0143832880999992010121518004-13267-043417FM-15+0443SBLP V0200301N00311030001CN0112651N1+03301+01801999999ADDGA1025+009001999GA2075+030001999GF107991999999999999999999MA1100811999999REMMET058METAR SBLP 151800Z 03006KT 9999 FEW030 BKN100 33/18 Q1008;
0162832880999992010121519004-13267-043417FM-15+0443SBLP V0203301N00211999999CN0112651N1+03201+02101999999ADDGA1025+009001999GA2045+030001999GF104991999999999999999999MA1100811999999REMMET058METAR SBLP 151900Z 33004KT 9999 FEW030 SCT100 32/21 Q1008;EQDP01 030003SCOCIG
0162832880999992010121520004-13267-043417FM-15+0443SBLP V0203601N00411999999CN0112651N1+03201+02001999999ADDGA1025+009001999GA2045+030001999GF104991999999999999999999MA1100811999999REMMET058METAR SBLP 152000Z 36008KT 9999 FEW030 SCT100 32/20 Q1008;EQDP01 030003SCOCIG
0162832880999992010121521004-13267-043417FM-15+0443SBLP V0203301N00311999999CN0112651N1+02901+02001999999ADDGA1025+009001999GA2045+030001999GF104991999999999999999999MA1100811999999REMMET058METAR SBLP 152100Z 33006KT 9999 FEW030 SCT100 29/20 Q1008;EQDP01 030003SCOCIG
0162832880999992010121610004-13267-043417FM-15+0443SBLP V0201701N00151999999CN0112651N1+02401+02101999999ADDGA1025+006001999GA2045+030001999GF104991999999999999999999MA1101391999999REMMET058METAR SBLP 161000Z 17003KT 9999 FEW020 SCT100 24/21 Q1014;EQDP01 030003SCOCIG
0072832880999992010121611004-13267-043417FM-15+0443SBLP V0201301N002119999999Y0099001N1+02601+02201999999ADDMA1101391999999REMMET045METAR SBLP 161100Z 13004KT CAVOK 26/22 Q1014;
0162832880999992010121612004-13267-043417FM-15+0443SBLP V0200901N00411999999CN0112651N1+02701+02001999999ADDGA1025+009001999GA2045+030001999GF104991999999999999999999MA1101391999999REMMET058METAR SBLP 161200Z 09008KT 9999 FEW030 SCT100 27/20 Q1014;EQDP01 030003SCOCIG
0162832880999992010121613004-13267-043417FM-15+0443SBLP V0200701N00311999999CN0112651N1+02801+01901999999ADDGA1025+009001999GA2045+030001999GF104991999999999999999999MA1101491999999REMMET058METAR SBLP 161300Z 07006KT 9999 FEW030 SCT100 28/19 Q1015;EQDP01 030003SCOCIG
0162832880999992010121614004-13267-043417FM-15+0443SBLP V0200601N00211999999CN0112651N1+03001+02001999999ADDGA1025+009001999GA2045+030001999GF104991999999999999999999MA1101391999999REMMET058METAR SBLP 161400Z 06004KT 9999 FEW030 SCT100 30/20 Q1014;EQDP01 030003SCOCIG
0120832880999992010121615004-13267-043417FM-15+0443SBLP V0200601N001512200019N0112651N1+03201+01801999999ADDGA1025+009001999GF102991999999999999999999MA1101291999999REMMET051METAR SBLP 161500Z 06003KT 9999 FEW030 32/18 Q1013;
0162832880999992010121616004-13267-043417FM-15+0443SBLP V0200901N00411999999CN0112651N1+03201+01901999999ADDGA1025+009001999GA2045+030001999GF104991999999999999999999MA1101291999999REMMET058METAR SBLP 161600Z 09008KT 9999 FEW030 SCT100 32/19 Q1013;EQDP01 030003SCOCIG
0162832880999992010121617004-13267-043417FM-15+0443SBLP V0200601N00311999999CN0112651N1+03201+01901999999ADDGA1025+009001999GA2045+030001999GF104991999999999999999999MA1101191999999REMMET058METAR SBLP 161700Z 06006KT 9999 FEW030 SCT100 32/19 Q1012;EQDP01 030003SCOCIG
0120832880999992010121618004-13267-043417FM-15+0443SBLP V0200601N003112200019N0112651N1+03201+01801999999ADDGA1045+009001999GF104991999999999999999999MA1101081999999REMMET051METAR SBLP 161800Z 06006KT 9999 SCT030 32/18 Q1011;
0120832880999992010121619004-13267-043417FM-15+0443SBLP V0201001N004112200019N0112651N1+03301+01801999999ADDGA1025+009001999GF102991999999999999999999MA1101081999999REMMET051METAR SBLP 161900Z 10008KT 9999 FEW030 33/18 Q1011;
0120832880999992010121620004-13267-043417FM-15+0443SBLP V0200601N002112200019N0112651N1+03201+01701999999ADDGA1025+009001999GF102991999999999999999999MA1101081999999REMMET051METAR SBLP 162000Z 06004KT 9999 FEW030 32/17 Q1011;
0120832880999992010121621004-13267-043417FM-15+0443SBLP V0200301N002112200019N0112651N1+03001+01901999999ADDGA1025+009001999GF102991999999999999999999MA1101081999999REMMET051METAR SBLP 162100Z 03004KT 9999 FEW030 30/19 Q1011;
0072832880999992010121710004-13267-043417FM-15+0443SBLP V0209999C000019999999Y0099001N1+02401+02001999999ADDMA1101291999999REMMET045METAR SBLP 171000Z 00000KT CAVOK 24/20 Q1013;
0072832880999992010121711004-13267-043417FM-15+0443SBLP V0201801N002119999999Y0099001N1+02701+02001999999ADDMA1101391999999REMMET045METAR SBLP 171100Z 18004KT CAVOK 27/20 Q1014;
0120832880999992010121712004-13267-043417FM-15+0443SBLP V0209999C000012200019N0112651N1+02901+02101999999ADDGA1025+009001999GF102991999999999999999999MA1101391999999REMMET051METAR SBLP 171200Z 00000KT 9999 FEW030 29/21 Q1014;
0120832880999992010121713004-13267-043417FM-15+0443SBLP V0200901N005112200019N0112651N1+02901+02001999999ADDGA1045+009001999GF104991999999999999999999MA1101391999999REMMET051METAR SBLP 171300Z 09010KT 9999 SCT030 29/20 Q1014;
0120832880999992010121714004-13267-043417FM-15+0443SBLP V0201701N003112200019N0112651N1+03101+02001999999ADDGA1045+009001999GF104991999999999999999999MA1101291999999REMMET051METAR SBLP 171400Z 17006KT 9999 SCT030 31/20 Q1013;
0120832880999992010121715004-13267-043417FM-15+0443SBLP V0200601N003112200019N0112651N1+03201+02001999999ADDGA1045+009001999GF104991999999999999999999MA1101191999999REMMET051METAR SBLP 171500Z 06006KT 9999 SCT030 32/20 Q1012;
0120832880999992010121716004-13267-043417FM-15+0443SBLP V0200901N003112200019N0112651N1+03301+02001999999ADDGA1045+009001999GF104991999999999999999999MA1101081999999REMMET051METAR SBLP 171600Z 09006KT 9999 SCT030 33/20 Q1011;
0120832880999992010121717004-13267-043417FM-15+0443SBLP V0200901N003112200019N0112651N1+03301+01901999999ADDGA1045+009001999GF104991999999999999999999MA1101021999999REMMET051METAR SBLP 171700Z 09006KT 9999 SCT030 33/19 Q1010;
0120832880999992010121718004-13267-043417FM-15+0443SBLP V0200901N003112200019N0112651N1+03601+01901999999ADDGA1045+009001999GF104991999999999999999999MA1101021999999REMMET051METAR SBLP 171800Z 09006KT 9999 SCT030 36/19 Q1010;
0120832880999992010121719004-13267-043417FM-15+0443SBLP V0200901N003112200019N0112651N1+03501+01901999999ADDGA1045+009001999GF104991999999999999999999MA1100911999999REMMET051METAR SBLP 171900Z 09006KT 9999 SCT030 35/19 Q1009;
0120832880999992010121720004-13267-043417FM-15+0443SBLP V0200901N003112200019N0112651N1+03401+01901999999ADDGA1025+009001999GF102991999999999999999999MA1100911999999REMMET051METAR SBLP 172000Z 09006KT 9999 FEW030 34/19 Q1009;
0120832880999992010121721004-13267-043417FM-15+0443SBLP V0200901N003112200019N0112651N1+03401+01901999999ADDGA1025+009001999GF102991999999999999999999MA1100911999999REMMET051METAR SBLP 172100Z 09006KT 9999 FEW030 34/19 Q1009;
0072832880999992010121810004-13267-043417FM-15+0443SBLP V0209999C000019999999Y0099001N1+02401+02001999999ADDMA1101291999999REMMET045METAR SBLP 181000Z 00000KT CAVOK 24/20 Q1013;
0072832880999992010121811004-13267-043417FM-15+0443SBLP V0209999C000019999999Y0099001N1+02501+02001999999ADDMA1101391999999REMMET045METAR SBLP 181100Z 00000KT CAVOK 25/20 Q1014;
0120832880999992010121812004-13267-043417FM-15+0443SBLP V0203601N003112200019N0112651N1+02801+02001999999ADDGA1025+009001999GF102991999999999999999999MA1101391999999REMMET051METAR SBLP 181200Z 36006KT 9999 FEW030 28/20 Q1014;
0120832880999992010121813004-13267-043417FM-15+0443SBLP V0203601N003112200019N0112651N1+02901+02001999999ADDGA1025+009001999GF102991999999999999999999MA1101391999999REMMET051METAR SBLP 181300Z 36006KT 9999 FEW030 29/20 Q1014;
0120832880999992010121814004-13267-043417FM-15+0443SBLP V0203601N003112200019N0112651N1+03101+01901999999ADDGA1045+009001999GF104991999999999999999999MA1101291999999REMMET051METAR SBLP 181400Z 36006KT 9999 SCT030 31/19 Q1013;
0120832880999992010121815004-13267-043417FM-15+0443SBLP V0203601N003112200019N0112651N1+03101+01901999999ADDGA1045+009001999GF104991999999999999999999MA1101191999999REMMET051METAR SBLP 181500Z 36006KT 9999 SCT030 31/19 Q1012;
0120832880999992010121816004-13267-043417FM-15+0443SBLP V0201701N001512200019N0112651N1+03201+01701999999ADDGA1045+009001999GF104991999999999999999999MA1101081999999REMMET051METAR SBLP 181600Z 17003KT 9999 SCT030 32/17 Q1011;
0120832880999992010121817004-13267-043417FM-15+0443SBLP V0202401N001512200019N0112651N1+03301+01801999999ADDGA1045+009001999GF104991999999999999999999MA1101021999999REMMET051METAR SBLP 181700Z 24003KT 9999 SCT030 33/18 Q1010;
0120832880999992010121818004-13267-043417FM-15+0443SBLP V0202701N003112200019N0112651N1+03201+01901999999ADDGA1045+009001999GF104991999999999999999999MA1100811999999REMMET051METAR SBLP 181800Z 27006KT 9999 SCT030 32/19 Q1008;
0120832880999992010121819004-13267-043417FM-15+0443SBLP V0202501N002112200019N0112651N1+03201+01901999999ADDGA1045+009001999GF104991999999999999999999MA1100811999999REMMET051METAR SBLP 181900Z 25004KT 9999 SCT030 32/19 Q1008;
0146832880999992010121820004-13267-043417FM-15+0443SBLP V0202501N002612200019N0112651N1+03101+01901999999ADDGA1025+009001999GA2025+012001025GF102991999999999999999999MA1100811999999REMMET061METAR SBLP 182000Z 25005KT 9999 FEW030 FEW040TCU 31/19 Q1008;
0120832880999992010121821004-13267-043417FM-15+0443SBLP V0200601N001512200019N0112651N1+03001+02001999999ADDGA1025+009001999GF102991999999999999999999MA1100811999999REMMET051METAR SBLP 182100Z 06003KT 9999 FEW030 30/20 Q1008;
0072832880999992010121910004-13267-043417FM-15+0443SBLP V0209999C000019999999Y0099001N1+02501+02001999999ADDMA1101191999999REMMET045METAR SBLP 191000Z 00000KT CAVOK 25/20 Q1012;
0072832880999992010121911004-13267-043417FM-15+0443SBLP V0209999C000019999999Y0099001N1+02801+02001999999ADDMA1101291999999REMMET045METAR SBLP 191100Z 00000KT CAVOK 28/20 Q1013;
0120832880999992010121913004-13267-043417FM-15+0443SBLP V0209999C000012200019N0112651N1+03001+02001999999ADDGA1025+009001999GF102991999999999999999999MA1101291999999REMMET051METAR SBLP 191300Z 00000KT 9999 FEW030 30/20 Q1013;
0120832880999992010121914004-13267-043417FM-15+0443SBLP V0203601N003112200019N0112651N1+03001+01901999999ADDGA1025+009001999GF102991999999999999999999MA1101191999999REMMET051METAR SBLP 191400Z 36006KT 9999 FEW030 30/19 Q1012;
0120832880999992010121915004-13267-043417FM-15+0443SBLP V0203601N003112200019N0112651N1+03101+01901999999ADDGA1045+009001999GF104991999999999999999999MA1101191999999REMMET051METAR SBLP 191500Z 36006KT 9999 SCT030 31/19 Q1012;
0120832880999992010121916004-13267-043417FM-15+0443SBLP V0202901N001512200019N0112651N1+03301+01701999999ADDGA1025+009001999GF102991999999999999999999MA1101081999999REMMET051METAR SBLP 191600Z 29003KT 9999 FEW030 33/17 Q1011;
0120832880999992010121917004-13267-043417FM-15+0443SBLP V0209999C000012200019N0112651N1+03401+01701999999ADDGA1045+009001999GF104991999999999999999999MA1101021999999REMMET051METAR SBLP 191700Z 00000KT 9999 SCT030 34/17 Q1010;
0165832880999992010121918004-13267-043417FM-15+0443SBLP V0201101N00211012005CN0112651N1+03301+01701999999ADDGA1045+009001999GA2025+012001095MA1100911999999MW1161MW2171REMMET075METAR SBLP 191800Z 11004KT 9999 8000SE TS VCSH SCT030 FEW040CB 33/17 Q1009;EQDQ01+000022SCOTCV
0179832880999992010121919004-13267-043417FM-15+0443SBLP V0201501N00511012005CN0050001N1+02102+02001999999ADDGA1045+009001999GA2025+012001095MA1101021999999MW1801MW2951REMMET073METAR SBLP 191900Z 15010KT 5000 -TSRA SCT030 FEW040CB 21/20 Q1010 RETSRA;EQDQ01+000022SCOTCVQ02+002103ATOT  
0125832880999992010121920004-13267-043417FM-15+0443SBLP V0200401N001512200019N0112651N1+02102+02001999999ADDGA1045+006001999GF104991999999999999999999MA1100911999999REMMET056METAR SBLP 192000Z 04003KT 9999 SCT020 21/20 Q1009 RETS;
0162832880999992010121921004-13267-043417FM-15+0443SBLP V0202101N00211999999CN0112651N1+02301+02101999999ADDGA1025+009001999GA2045+030001999GF104991999999999999999999MA1101021999999REMMET058METAR SBLP 192100Z 21004KT 9999 FEW030 SCT100 23/21 Q1010;EQDP01 030003SCOCIG
0143832880999992010122010004-13267-043417FM-15+0443SBLP V0201801N00211030001CN0112651N1+02201+02001999999ADDGA1025+006901999GA2075+030001999GF107991999999999999999999MA1101491999999REMMET058METAR SBLP 201000Z 18004KT 9999 FEW023 BKN100 22/20 Q1015;
0143832880999992010122011004-13267-043417FM-15+0443SBLP V0201401N00151030001CN0112651N1+02301+02101999999ADDGA1025+006901999GA2075+030001999GF107991999999999999999999MA1101491999999REMMET058METAR SBLP 201100Z 14003KT 9999 FEW023 BKN100 23/21 Q1015;
0143832880999992010122012004-13267-043417FM-15+0443SBLP V0201601N00151030001CN0112651N1+02501+02101999999ADDGA1025+006901999GA2075+030001999GF107991999999999999999999MA1101591999999REMMET058METAR SBLP 201200Z 16003KT 9999 FEW023 BKN100 25/21 Q1016;
0143832880999992010122013004-13267-043417FM-15+0443SBLP V0201301N00151030001CN0112651N1+02601+02201999999ADDGA1025+008101999GA2075+030001999GF107991999999999999999999MA1101591999999REMMET058METAR SBLP 201300Z 13003KT 9999 FEW027 BKN100 26/22 Q1016;
0143832880999992010122014004-13267-043417FM-15+0443SBLP V0200901N00311030001CN0112651N1+02701+02101999999ADDGA1025+009001999GA2075+030001999GF107991999999999999999999MA1101591999999REMMET058METAR SBLP 201400Z 09006KT 9999 FEW030 BKN100 27/21 Q1016;
0162832880999992010122015004-13267-043417FM-15+0443SBLP V0200901N00311999999CN0112651N1+03001+02101999999ADDGA1025+009001999GA2045+030001999GF104991999999999999999999MA1101491999999REMMET058METAR SBLP 201500Z 09006KT 9999 FEW030 SCT100 30/21 Q1015;EQDP01 030003SCOCIG
0162832880999992010122016004-13267-043417FM-15+0443SBLP V0201201N00211999999CN0112651N1+03201+02201999999ADDGA1025+009001999GA2045+030001999GF104991999999999999999999MA1101391999999REMMET058METAR SBLP 201600Z 12004KT 9999 FEW030 SCT100 32/22 Q1014;EQDP01 030003SCOCIG
0120832880999992010122017004-13267-043417FM-15+0443SBLP V0202101N002112200019N0112651N1+03201+02001999999ADDGA1045+009001999GF104991999999999999999999MA1101291999999REMMET051METAR SBLP 201700Z 21004KT 9999 SCT030 32/20 Q1013;
0120832880999992010122018004-13267-043417FM-15+0443SBLP V0201801N003112200019N0112651N1+03301+01801999999ADDGA1045+009001999GF104991999999999999999999MA1101191999999REMMET051METAR SBLP 201800Z 18006KT 9999 SCT030 33/18 Q1012;
0120832880999992010122019004-13267-043417FM-15+0443SBLP V0201501N002112200019N0112651N1+03301+01801999999ADDGA1045+009001999GF104991999999999999999999MA1101191999999REMMET051METAR SBLP 201900Z 15004KT 9999 SCT030 33/18 Q1012;
0120832880999992010122020004-13267-043417FM-15+0443SBLP V0201801N003112200019N0112651N1+03201+02101999999ADDGA1025+009001999GF102991999999999999999999MA1101191999999REMMET051METAR SBLP 202000Z 18006KT 9999 FEW030 32/21 Q1012;
0120832880999992010122021004-13267-043417FM-15+0443SBLP V0201801N002112200019N0112651N1+03101+02001999999ADDGA1025+009001999GF102991999999999999999999MA1101191999999REMMET051METAR SBLP 202100Z 18004KT 9999 FEW030 31/20 Q1012;
0072832880999992010122110004-13267-043417FM-15+0443SBLP V0209999C000019999999Y0099001N1+02501+02001999999ADDMA1101491999999REMMET045METAR SBLP 211000Z 00000KT CAVOK 25/20 Q1015;
0072832880999992010122111004-13267-043417FM-15+0443SBLP V0200901N001019999999Y0099001N1+02801+01901999999ADDMA1101591999999REMMET045METAR SBLP 211100Z 09002KT CAVOK 28/19 Q1016;
0072832880999992010122112004-13267-043417FM-15+0443SBLP V0201101N003119999999Y0099001N1+03001+01901999999ADDMA1101591999999REMMET045METAR SBLP 211200Z 11006KT CAVOK 30/19 Q1016;
0072832880999992010122113004-13267-043417FM-15+0443SBLP V0200301N002119999999Y0099001N1+03201+01901999999ADDMA1101591999999REMMET045METAR SBLP 211300Z 03004KT CAVOK 32/19 Q1016;
0120832880999992010122114004-13267-043417FM-15+0443SBLP V0201801N001512200019N0112651N1+03201+01801999999ADDGA1025+009001999GF102991999999999999999999MA1101491999999REMMET051METAR SBLP 211400Z 18003KT 9999 FEW030 32/18 Q1015;
0120832880999992010122115004-13267-043417FM-15+0443SBLP V0209999C000012200019N0112651N1+03301+01901999999ADDGA1025+009001999GF102991999999999999999999MA1101391999999REMMET051METAR SBLP 211500Z 00000KT 9999 FEW030 33/19 Q1014;
0120832880999992010122116004-13267-043417FM-15+0443SBLP V0201501N004112200019N0112651N1+03401+01901999999ADDGA1045+009001999GF104991999999999999999999MA1101291999999REMMET051METAR SBLP 211600Z 15008KT 9999 SCT030 34/19 Q1013;
0120832880999992010122117004-13267-043417FM-15+0443SBLP V0209999C000012200019N0112651N1+03401+02001999999ADDGA1045+009001999GF104991999999999999999999MA1101291999999REMMET051METAR SBLP 211700Z 00000KT 9999 SCT030 34/20 Q1013;
0120832880999992010122118004-13267-043417FM-15+0443SBLP V0201501N003112200019N0112651N1+03501+01801999999ADDGA1045+009001999GF104991999999999999999999MA1101191999999REMMET051METAR SBLP 211800Z 15006KT 9999 SCT030 35/18 Q1012;
0120832880999992010122119004-13267-043417FM-15+0443SBLP V0201501N002112200019N0112651N1+03501+01901999999ADDGA1025+009001999GF102991999999999999999999MA1101081999999REMMET051METAR SBLP 211900Z 15004KT 9999 FEW030 35/19 Q1011;
0120832880999992010122120004-13267-043417FM-15+0443SBLP V0201601N003112200019N0112651N1+03401+01901999999ADDGA1025+009001999GF102991999999999999999999MA1101081999999REMMET051METAR SBLP 212000Z 16006KT 9999 FEW030 34/19 Q1011;
0120832880999992010122121004-13267-043417FM-15+0443SBLP V0201601N001512200019N0112651N1+03301+01901999999ADDGA1025+009001999GF102991999999999999999999MA1101081999999REMMET051METAR SBLP 212100Z 16003KT 9999 FEW030 33/19 Q1011;
0162832880999992010122210004-13267-043417FM-15+0443SBLP V0201701N00151999999CN0112651N1+02501+02201999999ADDGA1025+009001999GA2045+030001999GF104991999999999999999999MA1101391999999REMMET058METAR SBLP 221000Z 17003KT 9999 FEW030 SCT100 25/22 Q1014;EQDP01 030003SCOCIG
0072832880999992010122211004-13267-043417FM-15+0443SBLP V0202101N001519999999Y0099001N1+02701+02201999999ADDMA1101391999999REMMET045METAR SBLP 221100Z 21003KT CAVOK 27/22 Q1014;
0072832880999992010122212004-13267-043417FM-15+0443SBLP V0201801N001519999999Y0099001N1+03001+02101999999ADDMA1101491999999REMMET045METAR SBLP 221200Z 18003KT CAVOK 30/21 Q1015;
0120832880999992010122213004-13267-043417FM-15+0443SBLP V0209999C000012200019N0112651N1+03201+02001999999ADDGA1025+009001999GF102991999999999999999999MA1101491999999REMMET051METAR SBLP 221300Z 00000KT 9999 FEW030 32/20 Q1015;
0120832880999992010122214004-13267-043417FM-15+0443SBLP V0209999C000012200019N0112651N1+03301+02001999999ADDGA1045+009001999GF104991999999999999999999MA1101391999999REMMET051METAR SBLP 221400Z 00000KT 9999 SCT030 33/20 Q1014;
0120832880999992010122215004-13267-043417FM-15+0443SBLP V0201201N002112200019N0112651N1+03401+02001999999ADDGA1045+009001999GF104991999999999999999999MA1101391999999REMMET051METAR SBLP 221500Z 12004KT 9999 SCT030 34/20 Q1014;
0120832880999992010122216004-13267-043417FM-15+0443SBLP V0201801N003112200019N0112651N1+03501+01901999999ADDGA1045+009001999GF104991999999999999999999MA1101191999999REMMET051METAR SBLP 221600Z 18006KT 9999 SCT030 35/19 Q1012;
0120832880999992010122217004-13267-043417FM-15+0443SBLP V0201801N003112200019N0112651N1+03601+01801999999ADDGA1045+009001999GF104991999999999999999999MA1101081999999REMMET051METAR SBLP 221700Z 18006KT 9999 SCT030 36/18 Q1011;
0120832880999992010122218004-13267-043417FM-15+0443SBLP V0201801N003112200019N0112651N1+03701+01801999999ADDGA1045+009001999GF104991999999999999999999MA1101021999999REMMET051METAR SBLP 221800Z 18006KT 9999 SCT030 37/18 Q1010;
0120832880999992010122219004-13267-043417FM-15+0443SBLP V0201801N003112200019N0112651N1+03601+01801999999ADDGA1045+009001999GF104991999999999999999999MA1101021999999REMMET051METAR SBLP 221900Z 18006KT 9999 SCT030 36/18 Q1010;
0120832880999992010122220004-13267-043417FM-15+0443SBLP V0201801N003112200019N0112651N1+03601+01801999999ADDGA1045+009001999GF104991999999999999999999MA1100911999999REMMET051METAR SBLP 222000Z 18006KT 9999 SCT030 36/18 Q1009;
0072832880999992010122310004-13267-043417FM-15+0443SBLP V0209999C000019999999Y0099001N1+02601+02201999999ADDMA1101191999999REMMET045METAR SBLP 231000Z 00000KT CAVOK 26/22 Q1012;
0072832880999992010122311004-13267-043417FM-15+0443SBLP V0209999C000019999999Y0099001N1+03001+02001999999ADDMA1101191999999REMMET045METAR SBLP 231100Z 00000KT CAVOK 30/20 Q1012;
0072832880999992010122312004-13267-043417FM-15+0443SBLP V0209999C000019999999Y0099001N1+03101+02001999999ADDMA1101291999999REMMET045METAR SBLP 231200Z 00000KT CAVOK 31/20 Q1013;
0120832880999992010122313004-13267-043417FM-15+0443SBLP V0209999C000012200019N0112651N1+03201+02101999999ADDGA1025+009001999GF102991999999999999999999MA1101291999999REMMET051METAR SBLP 231300Z 00000KT 9999 FEW030 32/21 Q1013;
0120832880999992010122314004-13267-043417FM-15+0443SBLP V0209999C000012200019N0112651N1+03301+02001999999ADDGA1025+009001999GF102991999999999999999999MA1101191999999REMMET051METAR SBLP 231400Z 00000KT 9999 FEW030 33/20 Q1012;
0120832880999992010122315004-13267-043417FM-15+0443SBLP V0209999C000012200019N0112651N1+03401+02101999999ADDGA1045+009001999GF104991999999999999999999MA1101081999999REMMET051METAR SBLP 231500Z 00000KT 9999 SCT030 34/21 Q1011;
0120832880999992010122316004-13267-043417FM-15+0443SBLP V0209999C000012200019N0112651N1+03501+02001999999ADDGA1045+009001999GF104991999999999999999999MA1101021999999REMMET051METAR SBLP 231600Z 00000KT 9999 SCT030 35/20 Q1010;
0120832880999992010122317004-13267-043417FM-15+0443SBLP V0209999C000012200019N0112651N1+03601+01901999999ADDGA1045+009001999GF104991999999999999999999MA1100911999999REMMET051METAR SBLP 231700Z 00000KT 9999 SCT030 36/19 Q1009;
0120832880999992010122318004-13267-043417FM-15+0443SBLP V0209999C000012200019N0112651N1+03801+01801999999ADDGA1045+009001999GF104991999999999999999999MA1100811999999REMMET051METAR SBLP 231800Z 00000KT 9999 SCT030 38/18 Q1008;
0120832880999992010122319004-13267-043417FM-15+0443SBLP V0209999C000012200019N0112651N1+03601+01801999999ADDGA1045+009001999GF104991999999999999999999MA1100711999999REMMET051METAR SBLP 231900Z 00000KT 9999 SCT030 36/18 Q1007;
0120832880999992010122320004-13267-043417FM-15+0443SBLP V0209999C000012200019N0112651N1+03501+01801999999ADDGA1025+009001999GF102991999999999999999999MA1100711999999REMMET051METAR SBLP 232000Z 00000KT 9999 FEW030 35/18 Q1007;
0120832880999992010122321004-13267-043417FM-15+0443SBLP V0209999C000012200019N0112651N1+03501+01801999999ADDGA1025+009001999GF102991999999999999999999MA1100711999999REMMET051METAR SBLP 232100Z 00000KT 9999 FEW030 35/18 Q1007;
0072832880999992010122410004-13267-043417FM-15+0443SBLP V0209999C000019999999Y0099001N1+02601+02101999999ADDMA1101081999999REMMET045METAR SBLP 241000Z 00000KT CAVOK 26/21 Q1011;
0072832880999992010122411004-13267-043417FM-15+0443SBLP V0209999C000019999999Y0099001N1+02901+02001999999ADDMA1101081999999REMMET045METAR SBLP 241100Z 00000KT CAVOK 29/20 Q1011;
0072832880999992010122412004-13267-043417FM-15+0443SBLP V0209999C000019999999Y0099001N1+03101+02001999999ADDMA1101081999999REMMET045METAR SBLP 241200Z 00000KT CAVOK 31/20 Q1011;
0072832880999992010122413004-13267-043417FM-15+0443SBLP V0203601N003119999999Y0099001N1+03301+02001999999ADDMA1101081999999REMMET045METAR SBLP 241300Z 36006KT CAVOK 33/20 Q1011;
0120832880999992010122414004-13267-043417FM-15+0443SBLP V0203601N003112200019N0112651N1+03401+02001999999ADDGA1025+009001999GF102991999999999999999999MA1101081999999REMMET051METAR SBLP 241400Z 36006KT 9999 FEW030 34/20 Q1011;
0120832880999992010122415004-13267-043417FM-15+0443SBLP V0203601N003112200019N0112651N1+03501+01901999999ADDGA1025+009001999GF102991999999999999999999MA1101021999999REMMET051METAR SBLP 241500Z 36006KT 9999 FEW030 35/19 Q1010;
0120832880999992010122416004-13267-043417FM-15+0443SBLP V0203101N003112200019N0112651N1+03601+01901999999ADDGA1045+009001999GF104991999999999999999999MA1100911999999REMMET051METAR SBLP 241600Z 31006KT 9999 SCT030 36/19 Q1009;
0120832880999992010122417004-13267-043417FM-15+0443SBLP V0203301N003112200019N0112651N1+03601+01901999999ADDGA1045+009001999GF104991999999999999999999MA1100811999999REMMET051METAR SBLP 241700Z 33006KT 9999 SCT030 36/19 Q1008;
0138832880999992010122418004-13267-043417FM-15+0443SBLP V0202901N00261012005CN0112651N1+03601+01701999999ADDGA1045+009001999GA2025+012001095MA1100811999999REMMET060METAR SBLP 241800Z 29005KT 9999 SCT030 FEW040CB 36/17 Q1008;EQDQ01+000022SCOTCV
0120832880999992010122419004-13267-043417FM-15+0443SBLP V0203601N004112200019N0112651N1+03401+01801999999ADDGA1025+009001999GF102991999999999999999999MA1100811999999REMMET051METAR SBLP 241900Z 36008KT 9999 FEW030 34/18 Q1008;
0154832880999992010122420004-13267-043417FM-15+0443SBLP V0202101N003112200019N0112651N1+02901+02001999999ADDGA1025+009001999GA2025+012001095GF102991999999999999999999MA1100911999999MW1171REMMET063METAR SBLP 242000Z 21006KT 9999 TS FEW030 FEW040CB 29/20 Q1009;
0125832880999992010122421004-13267-043417FM-15+0443SBLP V0201501N005112200019N0112651N1+02601+02201999999ADDGA1045+009001999GF104991999999999999999999MA1101021999999REMMET056METAR SBLP 242100Z 15010KT 9999 SCT030 26/22 Q1010 RETS;
0120832880999992010122510004-13267-043417FM-15+0443SBLP V0203401N001512200019N0112651N1+02401+02201999999ADDGA1045+009001999GF104991999999999999999999MA1101291999999REMMET051METAR SBLP 251000Z 34003KT 9999 SCT030 24/22 Q1013;
0120832880999992010122511004-13267-043417FM-15+0443SBLP V0203601N001512200019N0112651N1+02501+02301999999ADDGA1045+009001999GF104991999999999999999999MA1101391999999REMMET051METAR SBLP 251100Z 36003KT 9999 SCT030 25/23 Q1014;
0162832880999992010122512004-13267-043417FM-15+0443SBLP V0209999C00001999999CN0112651N1+02901+02201999999ADDGA1025+009001999GA2045+030001999GF104991999999999999999999MA1101391999999REMMET058METAR SBLP 251200Z 00000KT 9999 FEW030 SCT100 29/22 Q1014;EQDP01 030003SCOCIG
0162832880999992010122513004-13267-043417FM-15+0443SBLP V0200401N00151999999CN0112651N1+03101+02101999999ADDGA1025+009001999GA2045+030001999GF104991999999999999999999MA1101391999999REMMET058METAR SBLP 251300Z 04003KT 9999 FEW030 SCT100 31/21 Q1014;EQDP01 030003SCOCIG
0136832880999992010122514004-13267-043417FM-15+0443SBLP V0203601N00211220001CN0112651N1+03101+02001999999ADDGA1075+009001999GA2045+030001999MA1101291999999REMMET058METAR SBLP 251400Z 36004KT 9999 BKN030 SCT100 31/20 Q1013;EQDQ01+000042SCOTCV
0136832880999992010122515004-13267-043417FM-15+0443SBLP V0200901N00311220001CN0112651N1+03201+02301999999ADDGA1075+009001999GA2045+030001999MA1101291999999REMMET058METAR SBLP 251500Z 09006KT 9999 BKN030 SCT100 32/23 Q1013;EQDQ01+000042SCOTCV
0136832880999992010122516004-13267-043417FM-15+0443SBLP V0201801N00411220001CN0112651N1+03001+02301999999ADDGA1075+009001999GA2045+030001999MA1101081999999REMMET058METAR SBLP 251600Z 18008KT 9999 BKN030 SCT100 30/23 Q1011;EQDQ01+000042SCOTCV
0162832880999992010122517004-13267-043417FM-15+0443SBLP V0201501N00311999999CN0112651N1+03301+02201999999ADDGA1045+009001999GA2045+030001999GF104991999999999999999999MA1101021999999REMMET058METAR SBLP 251700Z 15006KT 9999 SCT030 SCT100 33/22 Q1010;EQDP01 030003SCOCIG
0177832880999992010122518004-13267-043417FM-15+0443SBLP V0209999C00001009005CN0112651N1+03201+02201999999ADDGA1025+009001091GA2045+009001999GA3075+030001999GF107991999999999999999999MA1101021999999MW1171REMMET070METAR SBLP 251800Z 00000KT 9999 TS SCT030 FEW030CB BKN100 32/22 Q1010;
0177832880999992010122519004-13267-043417FM-15+0443SBLP V0202201N00211009005CN0112651N1+02601+02201999999ADDGA1025+009001091GA2045+009001999GA3075+030001999GF107991999999999999999999MA1101021999999MW1171REMMET070METAR SBLP 251900Z 22004KT 9999 TS SCT030 FEW030CB BKN100 26/22 Q1010;
0177832880999992010122520004-13267-043417FM-15+0443SBLP V0200901N00311009005CN0112651N1+02601+02201999999ADDGA1025+009001091GA2045+009001999GA3075+030001999GF107991999999999999999999MA1101081999999MW1171REMMET070METAR SBLP 252000Z 09006KT 9999 TS SCT030 FEW030CB BKN100 26/22 Q1011;
0148832880999992010122521004-13267-043417FM-15+0443SBLP V0200701N00411030001CN0112651N1+02501+02201999999ADDGA1045+009001999GA2075+030001999GF107991999999999999999999MA1101081999999REMMET063METAR SBLP 252100Z 07008KT 9999 SCT030 BKN100 25/22 Q1011 RETS;
0143832880999992010122610004-13267-043417FM-15+0443SBLP V0209999C00001030001CN0112651N1+02301+02101999999ADDGA1025+008101999GA2075+030001999GF107991999999999999999999MA1101291999999REMMET058METAR SBLP 261000Z 00000KT 9999 FEW027 BKN100 23/21 Q1013;
0143832880999992010122611004-13267-043417FM-15+0443SBLP V0200401N00151030001CN0112651N1+02501+02101999999ADDGA1025+008101999GA2075+030001999GF107991999999999999999999MA1101391999999REMMET058METAR SBLP 261100Z 04003KT 9999 FEW027 BKN100 25/21 Q1014;
0072832880999992010122612004-13267-043417FM-15+0443SBLP V0200501N002119999999Y0099001N1+02801+02101999999ADDMA1101391999999REMMET045METAR SBLP 261200Z 05004KT CAVOK 28/21 Q1014;
0120832880999992010122613004-13267-043417FM-15+0443SBLP V0200101N001512200019N0112651N1+03001+02001999999ADDGA1025+009001999GF102991999999999999999999MA1101391999999REMMET051METAR SBLP 261300Z 01003KT 9999 FEW030 30/20 Q1014;
0120832880999992010122614004-13267-043417FM-15+0443SBLP V0203601N001512200019N0112651N1+03201+02101999999ADDGA1025+009001999GF102991999999999999999999MA1101291999999REMMET051METAR SBLP 261400Z 36003KT 9999 FEW030 32/21 Q1013;
0120832880999992010122615004-13267-043417FM-15+0443SBLP V0202701N002112200019N0112651N1+03301+02101999999ADDGA1045+009001999GF104991999999999999999999MA1101191999999REMMET051METAR SBLP 261500Z 27004KT 9999 SCT030 33/21 Q1012;
0120832880999992010122616004-13267-043417FM-15+0443SBLP V0203601N00511009001CN0112651N1+03401+02101999999ADDGA1075+009001999GF107991999999999999999999MA1101081999999REMMET051METAR SBLP 261600Z 36010KT 9999 BKN030 34/21 Q1011;
0156832880999992010122617004-13267-043417FM-15+0443SBLP V0202801N00211220001CN0112651N1+02501+02201999999ADDGA1025+009001091GA2075+009001999MA1101191999999MW1801MW2951REMMET066METAR SBLP 261700Z 28004KT 9999 -TSRA BKN030 FEW030CB 25/22 Q1012;EQDQ01+000022SCOTCV
0186832880999992010122618004-13267-043417FM-15+0443SBLP V0203601N00211009005CN0112651N1+02401+02201999999ADDGA1025+009001091GA2045+009001999GA3075+030001999GF107991999999999999999999MA1101021999999MW1801MW2951REMMET073METAR SBLP 261800Z 36004KT 9999 -TSRA SCT030 FEW030CB BKN100 24/22 Q1010;
0148832880999992010122619004-13267-043417FM-15+0443SBLP V0201801N00311030001CN0112651N1+02401+02201999999ADDGA1025+009001999GA2075+030001999GF107991999999999999999999MA1101021999999REMMET063METAR SBLP 261900Z 18006KT 9999 FEW030 BKN100 24/22 Q1010 RETS;
0148832880999992010122620004-13267-043417FM-15+0443SBLP V0200901N00211030001CN0112651N1+02401+02201999999ADDGA1025+009001999GA2075+030001999GF107991999999999999999999MA1101021999999REMMET063METAR SBLP 262000Z 09004KT 9999 FEW030 BKN100 24/22 Q1010 RERA;
0143832880999992010122621004-13267-043417FM-15+0443SBLP V0200901N00211030001CN0112651N1+02401+02201999999ADDGA1025+009001999GA2075+030001999GF107991999999999999999999MA1101021999999REMMET058METAR SBLP 262100Z 09004KT 9999 FEW030 BKN100 24/22 Q1010;
0143832880999992010122710004-13267-043417FM-15+0443SBLP V0209999C00001030001CN0112651N1+02401+02301999999ADDGA1045+009001999GA2075+030001999GF107991999999999999999999MA1101291999999REMMET058METAR SBLP 271000Z 00000KT 9999 SCT030 BKN100 24/23 Q1013;
0143832880999992010122711004-13267-043417FM-15+0443SBLP V0209999C00001030001CN0112651N1+02701+02201999999ADDGA1025+009001999GA2075+030001999GF107991999999999999999999MA1101291999999REMMET058METAR SBLP 271100Z 00000KT 9999 FEW030 BKN100 27/22 Q1013;
0143832880999992010122712004-13267-043417FM-15+0443SBLP V0209999C00001030001CN0112651N1+02801+02201999999ADDGA1025+009001999GA2075+030001999GF107991999999999999999999MA1101291999999REMMET058METAR SBLP 271200Z 00000KT 9999 FEW030 BKN100 28/22 Q1013;
0143832880999992010122713004-13267-043417FM-15+0443SBLP V0209999C00001030001CN0112651N1+03001+02201999999ADDGA1025+009001999GA2075+030001999GF107991999999999999999999MA1101291999999REMMET058METAR SBLP 271300Z 00000KT 9999 FEW030 BKN100 30/22 Q1013;
0162832880999992010122714004-13267-043417FM-15+0443SBLP V0201201N00311999999CN0112651N1+03101+02301999999ADDGA1025+009001999GA2045+030001999GF104991999999999999999999MA1101191999999REMMET058METAR SBLP 271400Z 12006KT 9999 FEW030 SCT100 31/23 Q1012;EQDP01 030003SCOCIG
0120832880999992010122715004-13267-043417FM-15+0443SBLP V0201201N003112200019N0112651N1+03201+02301999999ADDGA1025+009001999GF102991999999999999999999MA1101191999999REMMET051METAR SBLP 271500Z 12006KT 9999 FEW030 32/23 Q1012;
0120832880999992010122716004-13267-043417FM-15+0443SBLP V0200901N003112200019N0112651N1+03201+02201999999ADDGA1025+009001999GF102991999999999999999999MA1101021999999REMMET051METAR SBLP 271600Z 09006KT 9999 FEW030 32/22 Q1010;
0120832880999992010122717004-13267-043417FM-15+0443SBLP V0200901N003112200019N0112651N1+03301+02101999999ADDGA1045+009001999GF104991999999999999999999MA1100911999999REMMET051METAR SBLP 271700Z 09006KT 9999 SCT030 33/21 Q1009;
0162832880999992010122718004-13267-043417FM-15+0443SBLP V0200901N00311999999CN0112651N1+03501+02001999999ADDGA1045+009001999GA2045+030001999GF104991999999999999999999MA1100811999999REMMET058METAR SBLP 271800Z 09006KT 9999 SCT030 SCT100 35/20 Q1008;EQDP01 030003SCOCIG
0162832880999992010122719004-13267-043417FM-15+0443SBLP V0200901N00311999999CN0112651N1+03401+02001999999ADDGA1045+009001999GA2045+030001999GF104991999999999999999999MA1100811999999REMMET058METAR SBLP 271900Z 09006KT 9999 SCT030 SCT100 34/20 Q1008;EQDP01 030003SCOCIG
0177832880999992010122720004-13267-043417FM-15+0443SBLP V0200901N00621012001CN0112651N1+03201+02001999999ADDGA1045+009001999GA2025+012001095GA3075+030001999GF107991999999999999999999MA1100811999999MW1171REMMET070METAR SBLP 272000Z 09012KT 9999 TS SCT030 FEW040CB BKN100 32/20 Q1008;
0186832880999992010122721004-13267-043417FM-15+0443SBLP V0203601N00311012001CN0090001N1+02601+02101999999ADDGA1045+009001999GA2025+012001095GA3075+030001999GF107991999999999999999999MA1100811999999MW1801MW2951REMMET073METAR SBLP 272100Z 36006KT 9000 -TSRA SCT030 FEW040CB BKN100 26/21 Q1008;
0143832880999992010122810004-13267-043417FM-15+0443SBLP V0209999C00001030001CN0112651N1+02401+02101999999ADDGA1045+004501999GA2075+030001999GF107991999999999999999999MA1101081999999REMMET058METAR SBLP 281000Z 00000KT 9999 SCT015 BKN100 24/21 Q1011;
0143832880999992010122811004-13267-043417FM-15+0443SBLP V0209999C00001030001CN0112651N1+02601+02101999999ADDGA1045+004501999GA2075+030001999GF107991999999999999999999MA1101081999999REMMET058METAR SBLP 281100Z 00000KT 9999 SCT015 BKN100 26/21 Q1011;
0162832880999992010122812004-13267-043417FM-15+0443SBLP V0209999C00001999999CN0112651N1+02901+02101999999ADDGA1025+006001999GA2045+030001999GF104991999999999999999999MA1101191999999REMMET058METAR SBLP 281200Z 00000KT 9999 FEW020 SCT100 29/21 Q1012;EQDP01 030003SCOCIG
0162832880999992010122813004-13267-043417FM-15+0443SBLP V0209999C00001999999CN0112651N1+03101+02001999999ADDGA1025+009001999GA2045+030001999GF104991999999999999999999MA1101191999999REMMET058METAR SBLP 281300Z 00000KT 9999 FEW030 SCT100 31/20 Q1012;EQDP01 030003SCOCIG
0120832880999992010122814004-13267-043417FM-15+0443SBLP V0209999C000012200019N0112651N1+03201+02001999999ADDGA1025+009001999GF102991999999999999999999MA1101081999999REMMET051METAR SBLP 281400Z 00000KT 9999 FEW030 32/20 Q1011;
0120832880999992010122815004-13267-043417FM-15+0443SBLP V0203601N003112200019N0112651N1+03201+02001999999ADDGA1045+009001999GF104991999999999999999999MA1101021999999REMMET051METAR SBLP 281500Z 36006KT 9999 SCT030 32/20 Q1010;
0120832880999992010122816004-13267-043417FM-15+0443SBLP V0200301N002112200019N0112651N1+03401+01901999999ADDGA1045+009001999GF104991999999999999999999MA1100911999999REMMET051METAR SBLP 281600Z 03004KT 9999 SCT030 34/19 Q1009;
0120832880999992010122817004-13267-043417FM-15+0443SBLP V0202901N001012200019N0112651N1+03501+01901999999ADDGA1025+009001999GF102991999999999999999999MA1100811999999REMMET051METAR SBLP 281700Z 29002KT 9999 FEW030 35/19 Q1008;
0120832880999992010122818004-13267-043417FM-15+0443SBLP V0209999C000012200019N0112651N1+03501+01801999999ADDGA1025+009001999GF102991999999999999999999MA1100711999999REMMET051METAR SBLP 281800Z 00000KT 9999 FEW030 35/18 Q1007;
0120832880999992010122819004-13267-043417FM-15+0443SBLP V0202101N003112200019N0112651N1+03201+02001999999ADDGA1025+009001999GF102991999999999999999999MA1100611999999REMMET051METAR SBLP 281900Z 21006KT 9999 FEW030 32/20 Q1006;
0120832880999992010122820004-13267-043417FM-15+0443SBLP V0202101N003112200019N0112651N1+03001+02001999999ADDGA1025+009001999GF102991999999999999999999MA1100711999999REMMET051METAR SBLP 282000Z 21006KT 9999 FEW030 30/20 Q1007;
0120832880999992010122821004-13267-043417FM-15+0443SBLP V0201901N001512200019N0112651N1+03001+02201999999ADDGA1025+009001999GF102991999999999999999999MA1100711999999REMMET051METAR SBLP 282100Z 19003KT 9999 FEW030 30/22 Q1007;
0143832880999992010122910004-13267-043417FM-15+0443SBLP V0209999C00001030001CN0112651N1+02401+02201999999ADDGA1025+006901999GA2075+030001999GF107991999999999999999999MA1101021999999REMMET058METAR SBLP 291000Z 00000KT 9999 FEW023 BKN100 24/22 Q1010;
0143832880999992010122911004-13267-043417FM-15+0443SBLP V0209999C00001030001CN0112651N1+02501+02201999999ADDGA1025+006901999GA2075+030001999GF107991999999999999999999MA1101081999999REMMET058METAR SBLP 291100Z 00000KT 9999 FEW023 BKN100 25/22 Q1011;
0072832880999992010122912004-13267-043417FM-15+0443SBLP V0209999C000019999999Y0099001N1+02701+02201999999ADDMA1101081999999REMMET045METAR SBLP 291200Z 00000KT CAVOK 27/22 Q1011;
0143832880999992010122913004-13267-043417FM-15+0443SBLP V0209999C00001030001CN0112651N1+02901+02001999999ADDGA1025+009001999GA2075+030001999GF107991999999999999999999MA1101081999999REMMET058METAR SBLP 291300Z 00000KT 9999 FEW030 BKN100 29/20 Q1011;
0162832880999992010122914004-13267-043417FM-15+0443SBLP V0209999C00001999999CN0112651N1+03101+02101999999ADDGA1025+009001999GA2045+030001999GF104991999999999999999999MA1101021999999REMMET058METAR SBLP 291400Z 00000KT 9999 FEW030 SCT100 31/21 Q1010;EQDP01 030003SCOCIG
0120832880999992010122915004-13267-043417FM-15+0443SBLP V0200701N001512200019N0112651N1+03201+02101999999ADDGA1025+009001999GF102991999999999999999999MA1100911999999REMMET051METAR SBLP 291500Z 07003KT 9999 FEW030 32/21 Q1009;
0120832880999992010122916004-13267-043417FM-15+0443SBLP V0200901N003112200019N0112651N1+03201+02101999999ADDGA1045+009001999GF104991999999999999999999MA1100811999999REMMET051METAR SBLP 291600Z 09006KT 9999 SCT030 32/21 Q1008;
0120832880999992010122917004-13267-043417FM-15+0443SBLP V0200901N003112200019N0112651N1+03301+02001999999ADDGA1045+009001999GF104991999999999999999999MA1100711999999REMMET051METAR SBLP 291700Z 09006KT 9999 SCT030 33/20 Q1007;
0172832880999992010122918004-13267-043417FM-15+0443SBLP V0201801N00311999999CN0090001N1+03001+02101999999ADDGA1045+009001999GA2045+030001999GF104991999999999999999999MA1100611999999MW1611REMMET062METAR SBLP 291800Z 18006KT 9000 -RA SCT030 SCT100 30/21 Q1006;EQDP01 030003SCOCIG
0143832880999992010122919004-13267-043417FM-15+0443SBLP V0201801N00311030001CN0112651N1+02701+02101999999ADDGA1045+009001999GA2075+030001999GF107991999999999999999999MA1100611999999REMMET058METAR SBLP 291900Z 18006KT 9999 SCT030 BKN100 27/21 Q1006;
0143832880999992010122920004-13267-043417FM-15+0443SBLP V0209999C00001030001CN0112651N1+02601+02101999999ADDGA1045+009001999GA2075+030001999GF107991999999999999999999MA1100611999999REMMET058METAR SBLP 292000Z 00000KT 9999 SCT030 BKN100 26/21 Q1006;
0143832880999992010122921004-13267-043417FM-15+0443SBLP V0209999C00001030001CN0112651N1+02501+02101999999ADDGA1045+009001999GA2075+030001999GF107991999999999999999999MA1100611999999REMMET058METAR SBLP 292100Z 00000KT 9999 SCT030 BKN100 25/21 Q1006;
0153832880999992010123010004-13267-043417FM-15+0443SBLP V0209999C00001030001CN0090001N1+02201+02101999999ADDGA1045+003001999GA2085+030001999GF108991999999999999999999MA1101021999999MW1611REMMET062METAR SBLP 301000Z 00000KT 9000 -RA SCT010 OVC100 22/21 Q1010;
0153832880999992010123011004-13267-043417FM-15+0443SBLP V0209999C00001030001CN0090001N1+02301+02101999999ADDGA1045+003001999GA2085+030001999GF108991999999999999999999MA1101081999999MW1611REMMET062METAR SBLP 301100Z 00000KT 9000 -RA SCT010 OVC100 23/21 Q1011;
0153832880999992010123012004-13267-043417FM-15+0443SBLP V0209999C00001030001CN0090001N1+02301+02101999999ADDGA1045+003001999GA2085+030001999GF108991999999999999999999MA1101081999999MW1611REMMET062METAR SBLP 301200Z 00000KT 9000 -RA SCT010 OVC100 23/21 Q1011;
0143832880999992010123013004-13267-043417FM-15+0443SBLP V0209999C00001030001CN0112651N1+02401+02101999999ADDGA1045+003001999GA2075+030001999GF107991999999999999999999MA1101081999999REMMET058METAR SBLP 301300Z 00000KT 9999 SCT010 BKN100 24/21 Q1011;
0143832880999992010123014004-13267-043417FM-15+0443SBLP V0209999C00001030001CN0112651N1+02701+02101999999ADDGA1045+004501999GA2075+030001999GF107991999999999999999999MA1101081999999REMMET058METAR SBLP 301400Z 00000KT 9999 SCT015 BKN100 27/21 Q1011;
0143832880999992010123015004-13267-043417FM-15+0443SBLP V0200901N00311030001CN0112651N1+02701+02101999999ADDGA1045+004501999GA2075+030001999GF107991999999999999999999MA1101021999999REMMET058METAR SBLP 301500Z 09006KT 9999 SCT015 BKN100 27/21 Q1010;
0120832880999992010123016004-13267-043417FM-15+0443SBLP V0201201N00151004501CN0112651N1+02801+02301999999ADDGA1075+004501999GF107991999999999999999999MA1100811999999REMMET051METAR SBLP 301600Z 12003KT 9999 BKN015 28/23 Q1008;
0120832880999992010123017004-13267-043417FM-15+0443SBLP V0200901N003112200019N0112651N1+03101+02301999999ADDGA1045+009001999GF104991999999999999999999MA1100711999999REMMET051METAR SBLP 301700Z 09006KT 9999 SCT030 31/23 Q1007;
0147832880999992010123018004-13267-043417FM-15+0443SBLP V0200601N00411009001CN0112651N1+03101+02301999999ADDGA1025+009001091GA2075+009001999MA1100711999999MW1171REMMET063METAR SBLP 301800Z 06008KT 9999 TS BKN030 FEW030CB 31/23 Q1007;EQDQ01+000022SCOTCV
0158832880999992010123019004-13267-043417FM-15+0443SBLP V0200901N00311009001CN0112651N1+02401+02201999999ADDGA1075+009001999GA2075+030001999GF107991999999999999999999MA1100611999999MW1611REMMET067METAR SBLP 301900Z 09006KT 9999 -RA BKN030 BKN100 24/22 Q1006 RETS;
0148832880999992010123020004-13267-043417FM-15+0443SBLP V0201801N00311030001CN0112651N1+02501+02101999999ADDGA1045+009001999GA2075+030001999GF107991999999999999999999MA1100711999999REMMET063METAR SBLP 302000Z 18006KT 9999 SCT030 BKN100 25/21 Q1007 RERA;
0153832880999992010123021004-13267-043417FM-15+0443SBLP V0203301N00621004501CN0050001N1+02201+02101999999ADDGA1075+004501999GA2075+030001999GF107991999999999999999999MA1100911999999MW1611REMMET062METAR SBLP 302100Z 33012KT 5000 -RA BKN015 BKN100 22/21 Q1009;
0153832880999992010123110004-13267-043417FM-15+0443SBLP V0201101N00151030001CN0112651N1+02101+02101999999ADDGA1025+006901999GA2075+030001999GF107991999999999999999999MA1101021999999MW1611REMMET062METAR SBLP 311000Z 11003KT 9999 -RA FEW023 BKN100 21/21 Q1010;
0153832880999992010123111004-13267-043417FM-15+0443SBLP V0209999C00001030001CN0112651N1+02301+02101999999ADDGA1025+006901999GA2075+030001999GF107991999999999999999999MA1101081999999MW1611REMMET062METAR SBLP 311100Z 00000KT 9999 -RA FEW023 BKN100 23/21 Q1011;
0143832880999992010123112004-13267-043417FM-15+0443SBLP V0209999C00001030001CN0112651N1+02401+02101999999ADDGA1025+006901999GA2075+030001999GF107991999999999999999999MA1101191999999REMMET058METAR SBLP 311200Z 00000KT 9999 FEW023 BKN100 24/21 Q1012;
0143832880999992010123113004-13267-043417FM-15+0443SBLP V0200301N00311030001CN0112651N1+02601+02201999999ADDGA1045+006901999GA2075+030001999GF107991999999999999999999MA1101191999999REMMET058METAR SBLP 311300Z 03006KT 9999 SCT023 BKN100 26/22 Q1012;
0143832880999992010123114004-13267-043417FM-15+0443SBLP V0200601N00211030001CN0112651N1+02601+02001999999ADDGA1045+006901999GA2075+030001999GF107991999999999999999999MA1101191999999REMMET058METAR SBLP 311400Z 06004KT 9999 SCT023 BKN100 26/20 Q1012;
0143832880999992010123115004-13267-043417FM-15+0443SBLP V0200601N00211030001CN0112651N1+02701+02001999999ADDGA1045+006901999GA2075+030001999GF107991999999999999999999MA1101191999999REMMET058METAR SBLP 311500Z 06004KT 9999 SCT023 BKN100 27/20 Q1012;
0143832880999992010123116004-13267-043417FM-15+0443SBLP V0200801N00311030001CN0112651N1+02701+02201999999ADDGA1025+006901999GA2075+030001999GF107991999999999999999999MA1101081999999REMMET058METAR SBLP 311600Z 08006KT 9999 FEW023 BKN100 27/22 Q1011;
0143832880999992010123117004-13267-043417FM-15+0443SBLP V0200801N00411030001CN0112651N1+02701+02201999999ADDGA1025+006901999GA2075+030001999GF107991999999999999999999MA1101021999999REMMET058METAR SBLP 311700Z 08008KT 9999 FEW023 BKN100 27/22 Q1010;
0143832880999992010123118004-13267-043417FM-15+0443SBLP V0200601N00311030001CN0112651N1+02801+02201999999ADDGA1045+006901999GA2075+030001999GF107991999999999999999999MA1100911999999REMMET058METAR SBLP 311800Z 06006KT 9999 SCT023 BKN100 28/22 Q1009;
0143832880999992010123119004-13267-043417FM-15+0443SBLP V0200501N00211030001CN0112651N1+02701+02301999999ADDGA1045+006901999GA2075+030001999GF107991999999999999999999MA1100911999999REMMET058METAR SBLP 311900Z 05004KT 9999 SCT023 BKN100 27/23 Q1009;
0143832880999992010123120004-13267-043417FM-15+0443SBLP V0203501N00211030001CN0112651N1+02701+02201999999ADDGA1045+006901999GA2075+030001999GF107991999999999999999999MA1100911999999REMMET058METAR SBLP 312000Z 35004KT 9999 SCT023 BKN100 27/22 Q1009;
0153832880999992010123121004-13267-043417FM-15+0443SBLP V0209999C00001030001CN0112651N1+02501+02301999999ADDGA1045+006001999GA2075+030001999GF107991999999999999999999MA1101021999999MW1611REMMET062METAR SBLP 312100Z 00000KT 9999 -RA SCT020 BKN100 25/23 Q1010;
