0155833980999992010010100004-15667-038950FM-12+000599999V0203601N005112200019N0010001N1+02621+02411101301ADDGF103991011011008001041011MA1999999101251MD1999999+0151REMSYN088AAXX  01004 83398 32594 33610 10262 20241 30125 40130 81141 333 1//// 29078 55116 58015;
0201833980999992010010112004-15667-038950FM-12+000599999V0200501N003110450019N0040001N1+02951+02411101471ADDAA124011991AY161061AY221061GF106991031051008001041001KA1240N+02311MA1999999101421MD1999999+0211MW1021REMSYN088AAXX  01124 83398 21596 60506 10295 20241 30142 40147 70262 83540 333 20231 58021 60124;
0137833980999992010010118004-15667-038950FM-12+000599999V0200501N002110450019N0040001N1+02921+02291101211ADDGF106991021021008001041001MA1999999101161MD1999999+0201REMSYN070AAXX  01184 83398 32596 60504 10292 20229 30116 40121 82240 333 58020;
0155833980999992010010200004-15667-038950FM-12+000599999V0209999C000011050019N0010001N1+02501+02321101461ADDGF105991021021008001041011MA1999999101411MD1999999+0161REMSYN088AAXX  02004 83398 32594 50000 10250 20232 30141 40146 82241 333 1//// 29080 55094 58016;
0156833980999992010010212004-15667-038950FM-12+000599999V0200901N003110450019N0040001N1+02951+02171101551ADDGF105991021021008001041001KA1240N+02201MA1999999101501MD1999999+0081REMSYN076AAXX  02124 83398 32596 50906 10295 20217 30150 40155 82240 333 20220 58008;
0182833980999992010010218004-15667-038950FM-12+000599999V0200901N002112200019N0040001N1+02891+02311101371ADDAA106004191AY161061AY221061GF103991011011008001041011MA1999999101321MD1999999+0161MW1021REMSYN082AAXX  02184 83398 21596 30904 10289 20231 30132 40137 70262 81141 333 58016 60041;
0155833980999992010010300004-15667-038950FM-12+000599999V0209999C000010450019N0010001N1+02541+02401101551ADDGF105991031051008001021001MA1999999101501MD1999999+0091REMSYN088AAXX  03004 83398 32594 50000 10254 20240 30150 40155 83520 333 1//// 29079 55108 58009;
0201833980999992010010312004-15667-038950FM-12+000599999V0200901N002112200019N0040001N1+02901+02341101561ADDAA124005191AY161061AY221061GF104991021021008001041001KA1240N+02351MA1999999101511MD1999999+0011MW1021REMSYN088AAXX  03124 83398 21596 40904 10290 20234 30151 40156 70262 82240 333 20235 58001 60054;
0137833980999992010010318004-15667-038950FM-12+000599999V0200901N003112200019N0040001N1+02991+02341101401ADDGF104991021011008001041001MA1999999101351MD1999999+0031REMSYN070AAXX  03184 83398 32596 40906 10299 20234 30135 40140 82140 333 58003;
0155833980999992010010400004-15667-038950FM-12+000599999V0209999C000012200019N0010001N1+02601+02371101561ADDGF103991011011008001041011MA1999999101511MD1999999+0011REMSYN088AAXX  04004 83398 32594 30000 10260 20237 30151 40156 81141 333 1//// 29078 55107 58001;
0156833980999992010010412004-15667-038950FM-12+000599999V0200901N001010450019N0040001N1+03001+02191101641ADDGF105991021021008001041001KA1240N+02251MA1999999101581MD1999999+0071REMSYN076AAXX  04124 83398 32596 50902 10300 20219 30158 40164 82240 333 20225 58007;
0137833980999992010010418004-15667-038950FM-12+000599999V0200901N003112200019N0040001N1+03001+02271101391ADDGF103991011011008001041001MA1999999101341MD1999999-0011REMSYN070AAXX  04184 83398 32596 30906 10300 20227 30134 40139 81140 333 59001;
0155833980999992010010500004-15667-038950FM-12+000599999V0200901N002110450019N0010001N1+02661+02391101561ADDGF106991031021008001041001MA1999999101511MD1999999+0001REMSYN088AAXX  05004 83398 32594 60904 10266 20239 30151 40156 83240 333 1//// 29074 55108 58000;
0201833980999992010010512004-15667-038950FM-12+000599999V0200901N001010450019N0040001N1+02921+02341101451ADDAA124002091AY161061AY221061GF105991031051008001041001KA1240N+02241MA1999999101401MD1999999-0181MW1021REMSYN088AAXX  05124 83398 21596 50902 10292 20234 30140 40145 70262 83540 333 20224 59018 60024;
0137833980999992010010518004-15667-038950FM-12+000599999V0200501N003112200019N0040001N1+03031+02301101121ADDGF103991011011008001041001MA1999999101071MD1999999-0271REMSYN070AAXX  05184 83398 32596 30506 10303 20230 30107 40112 81140 333 59027;
0155833980999992010010600004-15667-038950FM-12+000599999V0200501N004111050019N0010001N1+02721+02371101301ADDGF105991021021008001041011MA1999999101251MD1999999-0261REMSYN088AAXX  06004 83398 32594 50508 10272 20237 30125 40130 82241 333 1//// 29074 55105 59026;
0156833980999992010010612004-15667-038950FM-12+000599999V0200501N004110450019N0040001N1+02961+02181101261ADDGF105991031021008001041001KA1240N+02311MA1999999101211MD1999999-0191REMSYN076AAXX  06124 83398 32596 50508 10296 20218 30121 40126 83240 333 20231 59019;
0137833980999992010010618004-15667-038950FM-12+000599999V0200501N004112200019N0040001N1+03071+02181100931ADDGF104991011011008001041011MA1999999100881MD1999999-0191REMSYN070AAXX  06184 83398 32596 40508 10307 20218 30088 40093 81141 333 59019;
0155833980999992010010700004-15667-038950FM-12+000599999V0203601N003112200019N0010001N1+02701+02411101261ADDGF103991011011008001041011MA1999999101211MD1999999-0041REMSYN088AAXX  07004 83398 32594 33606 10270 20241 30121 40126 81141 333 1//// 29072 55113 59004;
0156833980999992010010712004-15667-038950FM-12+000599999V0200501N003110450019N0040001N1+03021+02311101341ADDGF105991021021008001041001KA1240N+02291MA1999999101291MD1999999+0081REMSYN076AAXX  07124 83398 32596 50506 10302 20231 30129 40134 82240 333 20229 58008;
0137833980999992010010718004-15667-038950FM-12+000599999V0200501N004110450019N0040001N1+03041+02311101101ADDGF105991031021008001041011MA1999999101051MD1999999+0171REMSYN070AAXX  07184 83398 32596 50508 10304 20231 30105 40110 83241 333 58017;
0155833980999992010010800004-15667-038950FM-12+000599999V0209999C000011050019N0010001N1+02681+02371101351ADDGF105991021011008001041011MA1999999101301MD1999999+0091REMSYN088AAXX  08004 83398 32594 50000 10268 20237 30130 40135 82141 333 1//// 29074 55110 58009;
0201833980999992010010812004-15667-038950FM-12+000599999V0203601N002112200019N0010001N1+02961+02471101501ADDAA124003091AY161061AY221061GF103991011011008001041011KA1240N+02251MA1999999101451MD1999999+0161MW1021REMSYN088AAXX  08124 83398 21594 33604 10296 20247 30145 40150 70262 81141 333 20225 58016 60034;
0137833980999992010010818004-15667-038950FM-12+000599999V0200901N003110450019N0040001N1+02961+02401101341ADDGF106991021021008001041011MA1999999101291MD1999999+0241REMSYN070AAXX  08184 83398 32596 60906 10296 20240 30129 40134 82241 333 58024;
0155833980999992010010900004-15667-038950FM-12+000599999V0200901N002110450019N0010001N1+02721+02471101611ADDGF106991031021008001041001MA1999999101551MD1999999+0251REMSYN088AAXX  09004 83398 32594 60904 10272 20247 30155 40161 83240 333 1//// 29080 55099 58025;
0143833980999992010010912004-15667-038950FM-12+000599999V0200901N003112200019N0040001N1+03001+02241101581ADDGF103991011011008001041011MA1999999101531MD1999999+0081REMSYN076AAXX  09124 83398 32596 30906 10300 20224 30153 40158 81141 333 2//// 58008;
0137833980999992010010918004-15667-038950FM-12+000599999V0203601N003112200019N0040001N1+03021+02211101331ADDGF102991011011008001041001MA1999999101281MD1999999-0011REMSYN070AAXX  09184 83398 32596 23606 10302 20221 30128 40133 81140 333 59001;
0155833980999992010011000004-15667-038950FM-12+000599999V0209999C000012200019N0010001N1+02701+02331101481ADDGF102991011021008001041001MA1999999101431MD1999999-0121REMSYN088AAXX  10004 83398 32594 20000 10270 20233 30143 40148 81240 333 1//// 29071 55117 59012;
0156833980999992010011012004-15667-038950FM-12+000599999V0200901N002110450019N0040001N1+02881+02301101471ADDGF106991031051008001021001KA1240N+02191MA1999999101421MD1999999-0111REMSYN076AAXX  10124 83398 32596 60904 10288 20230 30142 40147 83520 333 20219 59011;
0182833980999992010011018004-15667-038950FM-12+000599999V0200901N003112200019N0040001N1+02981+02281101301ADDAA106002091AY161061AY221061GF104991021021008001041011MA1999999101251MD1999999-0031MW1021REMSYN082AAXX  10184 83398 21596 40906 10298 20228 30125 40130 70262 82241 333 59003 60021;
0155833980999992010011100004-15667-038950FM-12+000599999V0209999C000012200019N0010001N1+02681+02221101431ADDGF102991011011008001041001MA1999999101381MD1999999-0051REMSYN088AAXX  11004 83398 32594 20000 10268 20222 30138 40143 81140 333 1//// 29072 55095 59005;
0201833980999992010011112004-15667-038950FM-12+000599999V0200901N003110075019N0040001N1+02981+02401101461ADDAA124003091AY161061AY221061GF106991051051008001021001KA1240N+02201MA1999999101411MD1999999-0011MW1021REMSYN088AAXX  11124 83398 21596 60906 10298 20240 30141 40146 70262 85520 333 20220 59001 60034;
0137833980999992010011118004-15667-038950FM-12+000599999V0200901N003110450019N0040001N1+03061+02381101191ADDGF106991031051008001021011MA1999999101141MD1999999-0111REMSYN070AAXX  11184 83398 32596 60906 10306 20238 30114 40119 83521 333 59011;
0155833980999992010011200004-15667-038950FM-12+000599999V0209999C000010450019N0010001N1+02681+02371101361ADDGF105991031051008001021001MA1999999101311MD1999999-0071REMSYN088AAXX  12004 83398 32594 50000 10268 20237 30131 40136 83520 333 1//// 29076 55110 59007;
0156833980999992010011212004-15667-038950FM-12+000599999V0200501N003110450019N0040001N1+03021+02361101441ADDGF106991041051008001021001KA1240N+02241MA1999999101391MD1999999-0021REMSYN076AAXX  12124 83398 32596 60506 10302 20236 30139 40144 84520 333 20224 59002;
0137833980999992010011218004-15667-038950FM-12+000599999V0203601N004110075019N0040001N1+02781+02421101231ADDGF106991051051008001021001MA1999999101181MD1999999+0041REMSYN070AAXX  12184 83398 32596 63608 10278 20242 30118 40123 85520 333 58004;
0155833980999992010011300004-15667-038950FM-12+000599999V0203601N002110075019N0010001N1+02701+02521101501ADDGF105991051051008001001001MA1999999101451MD1999999+0141REMSYN088AAXX  13004 83398 32594 53604 10270 20252 30145 40150 85500 333 1//// 29082 55091 58014;
0156833980999992010011312004-15667-038950FM-12+000599999V0200901N003110450019N0040001N1+03001+02391101581ADDGF105991031051008001041001KA1240N+02301MA1999999101531MD1999999+0141REMSYN076AAXX  13124 83398 32596 50906 10300 20239 30153 40158 83540 333 20230 58014;
0137833980999992010011318004-15667-038950FM-12+000599999V0200501N004110450019N0040001N1+03021+02461101341ADDGF105991031051008001041001MA1999999101291MD1999999+0111REMSYN070AAXX  13184 83398 32596 50508 10302 20246 30129 40134 83540 333 58011;
0155833980999992010011400004-15667-038950FM-12+000599999V0209999C000010075019N0010001N1+02661+02521101471ADDGF105991051051008001001001MA1999999101421MD1999999-0031REMSYN088AAXX  14004 83398 32594 50000 10266 20252 30142 40147 85500 333 1//// 29082 55094 59003;
0201833980999992010011412004-15667-038950FM-12+000599999V0200901N003110450019N0040001N1+03021+02391101581ADDAA124001091AY161061AY221061GF106991041051008001021001KA1240N+02341MA1999999101531MD1999999+0001MW1021REMSYN088AAXX  14124 83398 21596 60906 10302 20239 30153 40158 70262 84520 333 20234 58000 60014;
0137833980999992010011418004-15667-038950FM-12+000599999V0200501N004111050019N0040001N1+03061+02401101361ADDGF105991021021008001041011MA1999999101311MD1999999+0021REMSYN070AAXX  14184 83398 32596 50508 10306 20240 30131 40136 82241 333 58002;
0155833980999992010011500004-15667-038950FM-12+000599999V0209999C000012200019N0010001N1+02721+02471101481ADDGF102991021011008001001001MA1999999101431MD1999999+0011REMSYN088AAXX  15004 83398 32594 20000 10272 20247 30143 40148 82100 333 1//// 29077 55116 58001;
0156833980999992010011512004-15667-038950FM-12+000599999V0200501N003110450019N0040001N1+03021+02311101721ADDGF105991031051008001021001KA1240N+02281MA1999999101661MD1999999+0131REMSYN076AAXX  15124 83398 32596 50506 10302 20231 30166 40172 83520 333 20228 58013;
0137833980999992010011518004-15667-038950FM-12+000599999V0203601N004119999999N0040001N1+03041+02361101511ADDGF105991031001008001041011MA1999999101461MD1999999+0151REMSYN070AAXX  15184 83398 32596 53608 10304 20236 30146 40151 83041 333 58015;
0155833980999992010011600004-15667-038950FM-12+000599999V0200501N002112200019N0010001N1+02721+02451101731ADDGF102991021011008001001001MA1999999101671MD1999999+0141REMSYN088AAXX  16004 83398 32594 20504 10272 20245 30167 40173 82100 333 1//// 29076 55112 58014;
0156833980999992010011612004-15667-038950FM-12+000599999V0200901N003110450019N0040001N1+03001+02321101841ADDGF105991031051008001041001KA1240N+02201MA1999999101781MD1999999+0121REMSYN076AAXX  16124 83398 32596 50906 10300 20232 30178 40184 83540 333 20220 58012;
0137833980999992010011618004-15667-038950FM-12+000599999V0200501N002111050019N0040001N1+03101+02441101681ADDGF105991021021008001041011MA1999999101621MD1999999+0161REMSYN070AAXX  16184 83398 32596 50504 10310 20244 30162 40168 82241 333 58016;
0155833980999992010011700004-15667-038950FM-12+000599999V0209999C000012200019N0010001N1+02761+02501101781ADDGF102991021011008001001001MA1999999101721MD1999999+0051REMSYN088AAXX  17004 83398 32594 20000 10276 20250 30172 40178 82100 333 1//// 29077 55112 58005;
0156833980999992010011712004-15667-038950FM-12+000599999V0200901N003110075019N0040001N1+03001+02371101911ADDGF105991051051008001001001KA1240N+02301MA1999999101851MD1999999+0071REMSYN076AAXX  17124 83398 32596 50906 10300 20237 30185 40191 85500 333 20230 58007;
0137833980999992010011718004-15667-038950FM-12+000599999V0200901N003110450019N0040001N1+03081+02271101721ADDGF106991021021008001041011MA1999999101661MD1999999+0041REMSYN070AAXX  17184 83398 32596 60906 10308 20227 30166 40172 82241 333 58004;
0155833980999992010011800004-15667-038950FM-12+000599999V0209999C000012200019N0010001N1+02701+02391101761ADDGF103991031011008001001001MA1999999101701MD1999999-0021REMSYN088AAXX  18004 83398 32594 30000 10270 20239 30170 40176 83100 333 1//// 29074 55111 59002;
0156833980999992010011812004-15667-038950FM-12+000599999V0200901N002110450019N0040001N1+02741+02481101701ADDGF106991041051008001021001KA1240N+02161MA1999999101641MD1999999-0211REMSYN076AAXX  18124 83398 32596 60904 10274 20248 30164 40170 84520 333 20216 59021;
0182833980999992010011818004-15667-038950FM-12+000599999V0209999C000010450019N0040001N1+02721+02471101541ADDAA106002091AY161061AY221061GF106991041051008001021001MA1999999101491MD1999999-0171MW1021REMSYN082AAXX  18184 83398 21596 60000 10272 20247 30149 40154 70262 84520 333 59017 60021;
0155833980999992010011900004-15667-038950FM-12+000599999V0209999C000012200019N0010001N1+02401+02311101581ADDGF104991041051008001001001MA1999999101531MD1999999-0171REMSYN088AAXX  19004 83398 32594 40000 10240 20231 30153 40158 84500 333 1//// 29091 55035 59017;
0201833980999992010011912004-15667-038950FM-12+000599999V0200901N002110450019N0040001N1+02861+02581101601ADDAA124003091AY161061AY221061GF106991041051008001021001KA1240N+02101MA1999999101551MD1999999-0091MW1021REMSYN088AAXX  19124 83398 21596 60904 10286 20258 30155 40160 70262 84520 333 20210 59009 60034;
0137833980999992010011918004-15667-038950FM-12+000599999V0200501N003110450019N0040001N1+03061+02351101331ADDGF106991031021008001041011MA1999999101281MD1999999-0211REMSYN070AAXX  19184 83398 32596 60506 10306 20235 30128 40133 83241 333 59021;
0155833980999992010012000004-15667-038950FM-12+000599999V0209999C000010450019N0010001N1+02701+02371101491ADDGF105991031051008001021001MA1999999101441MD1999999-0091REMSYN088AAXX  20004 83398 32594 50000 10270 20237 30144 40149 83520 333 1//// 29080 55110 59009;
0156833980999992010012012004-15667-038950FM-12+000599999V0200901N003110450019N0040001N1+02941+02361101521ADDGF105991031051008001041001KA1240N+02161MA1999999101471MD1999999-0081REMSYN076AAXX  20124 83398 32596 50906 10294 20236 30147 40152 83540 333 20216 59008;
0137833980999992010012018004-15667-038950FM-12+000599999V0203601N004110450019N0040001N1+03041+02431101191ADDGF106991031021008001041011MA1999999101141MD1999999-0141REMSYN070AAXX  20184 83398 32596 63608 10304 20243 30114 40119 83241 333 59014;
0155833980999992010012100004-15667-038950FM-12+000599999V0209999C000012200019N0010001N1+02701+02411101381ADDGF103991031051008001001001MA1999999101331MD1999999-0111REMSYN088AAXX  21004 83398 32594 30000 10270 20241 30133 40138 83500 333 1//// 29077 55109 59011;
0156833980999992010012112004-15667-038950FM-12+000599999V0203601N004110075019N0040001N1+03021+02391101571ADDGF105991051021008001001001KA1240N+02301MA1999999101521MD1999999+0051REMSYN076AAXX  21124 83398 32596 53608 10302 20239 30152 40157 85200 333 20230 58005;
0137833980999992010012118004-15667-038950FM-12+000599999V0200901N003110450019N0040001N1+03021+02441101351ADDGF105991031051008001041001MA1999999101301MD1999999+0161REMSYN070AAXX  21184 83398 32596 50906 10302 20244 30130 40135 83540 333 58016;
0155833980999992010012200004-15667-038950FM-12+000599999V0203601N002112200019N0010001N1+02741+02431101481ADDGF102991021001008001041001MA1999999101431MD1999999+0101REMSYN088AAXX  22004 83398 32594 23604 10274 20243 30143 40148 82040 333 1//// 29077 55110 58010;
0201833980999992010012212004-15667-038950FM-12+000599999V0200901N002110075019N0040001N1+02821+02661101551ADDAA124002091AY161061AY221061GF107991051051008001021001KA1240N+02381MA1999999101501MD1999999-0021MW1021REMSYN088AAXX  22124 83398 21596 70904 10282 20266 30150 40155 70262 85520 333 20238 59002 60024;
0137833980999992010012218004-15667-038950FM-12+000599999V0200901N003110450019N0040001N1+03021+02481101331ADDGF106991041051008001021001MA1999999101281MD1999999-0021REMSYN070AAXX  22184 83398 32596 60906 10302 20248 30128 40133 84520 333 59002;
0155833980999992010012300004-15667-038950FM-12+000599999V0203601N002110450019N0010001N1+02761+02481101411ADDGF105991031051008001021001MA1999999101361MD1999999-0071REMSYN088AAXX  23004 83398 32594 53604 10276 20248 30136 40141 83520 333 1//// 29084 55075 59007;
0156833980999992010012312004-15667-038950FM-12+000599999V0203601N002110450019N0040001N1+03061+02471101471ADDGF105991031051008001021001KA1240N+02261MA1999999101421MD1999999-0081REMSYN076AAXX  23124 83398 32596 53604 10306 20247 30142 40147 83520 333 20226 59008;
0137833980999992010012318004-15667-038950FM-12+000599999V0200501N003110450019N0040001N1+03061+02501101231ADDGF106991021021008001041011MA1999999101181MD1999999-0101REMSYN070AAXX  23184 83398 32596 60506 10306 20250 30118 40123 82241 333 59010;
0155833980999992010012400004-15667-038950FM-12+000599999V0200901N002110450019N0010001N1+02761+02541101391ADDGF106991041051008001021001MA1999999101341MD1999999-0021REMSYN088AAXX  24004 83398 32594 60904 10276 20254 30134 40139 84520 333 1//// 29080 55111 59002;
0156833980999992010012412004-15667-038950FM-12+000599999V0203601N002110450019N0040001N1+02981+02401101431ADDGF105991031051008001021001KA1240N+02221MA1999999101381MD1999999-0041REMSYN076AAXX  24124 83398 32596 53604 10298 20240 30138 40143 83520 333 20222 59004;
0137833980999992010012418004-15667-038950FM-12+000599999V0203601N003110450019N0040001N1+03141+02481101231ADDGF105991031021008001041001MA1999999101181MD1999999+0001REMSYN070AAXX  24184 83398 32596 53606 10314 20248 30118 40123 83240 333 58000;
0155833980999992010012500004-15667-038950FM-12+000599999V0203601N002112200019N0010001N1+02761+02381101351ADDGF104991021021008001041001MA1999999101301MD1999999-0041REMSYN088AAXX  25004 83398 32594 43604 10276 20238 30130 40135 82240 333 1//// 29075 55108 59004;
0156833980999992010012512004-15667-038950FM-12+000599999V0200901N003110450019N0040001N1+03021+02211101411ADDGF105991031021008001041001KA1240N+02361MA1999999101361MD1999999-0021REMSYN076AAXX  25124 83398 32596 50906 10302 20221 30136 40141 83240 333 20236 59002;
0137833980999992010012518004-15667-038950FM-12+000599999V0200501N003112200019N0040001N1+03031+02081101211ADDGF102991011011008001041001MA1999999101161MD1999999-0021REMSYN070AAXX  25184 83398 32596 20506 10303 20208 30116 40121 81140 333 59002;
0155833980999992010012600004-15667-038950FM-12+000599999V0200501N001010450019N0010001N1+02741+02241101391ADDGF105991031011008001041001MA1999999101341MD1999999+0041REMSYN088AAXX  26004 83398 32594 50502 10274 20224 30134 40139 83140 333 1//// 29067 55121 58004;
0156833980999992010012612004-15667-038950FM-12+000599999V0200501N003110450019N0040001N1+03021+02211101361ADDGF106991031021008001041001KA1240N+02151MA1999999101311MD1999999-0051REMSYN076AAXX  26124 83398 32596 60506 10302 20221 30131 40136 83240 333 20215 59005;
0137833980999992010012618004-15667-038950FM-12+000599999V0200501N003110450019N0040001N1+02981+02151101141ADDGF106991031021008001041011MA1999999101091MD1999999-0071REMSYN070AAXX  26184 83398 32596 60506 10298 20215 30109 40114 83241 333 59007;
0155833980999992010012700004-15667-038950FM-12+000599999V0209999C000011050019N0010001N1+02761+02341101341ADDGF105991021021008001041011MA1999999101291MD1999999-0051REMSYN088AAXX  27004 83398 32594 50000 10276 20234 30129 40134 82241 333 1//// 29070 55108 59005;
0201833980999992010012712004-15667-038950FM-12+000599999V0200501N001010450019N0040001N1+02981+02231101381ADDAA124002091AY161061AY221061GF107991041051008001021001KA1240N+02261MA1999999101331MD1999999+0021MW1021REMSYN088AAXX  27124 83398 21596 70502 10298 20223 30133 40138 70262 84520 333 20226 58002 60024;
0182833980999992010012718004-15667-038950FM-12+000599999V0200501N003112200019N0040001N1+02991+02241101151ADDAA106003091AY161061AY221061GF104991021021008001041011MA1999999101101MD1999999+0011MW1021REMSYN082AAXX  27184 83398 21596 40506 10299 20224 30110 40115 70262 82241 333 58001 60031;
0155833980999992010012800004-15667-038950FM-12+000599999V0200501N002112200019N0010001N1+02641+02291101351ADDGF103991021011008001041001MA1999999101301MD1999999-0011REMSYN088AAXX  28004 83398 32594 30504 10264 20229 30130 40135 82140 333 1//// 29072 55089 59001;
0173833980999992010012812004-15667-038950FM-12+000599999V0200501N003110450019N0040001N1+03041+02261101481ADDAA124003091GF107991031021008001041001KA1240N+02371MA1999999101431MD1999999+0101REMSYN082AAXX  28124 83398 22596 70506 10304 20226 30143 40148 83240 333 20237 58010 60034;
0137833980999992010012818004-15667-038950FM-12+000599999V0200501N003110450019N0040001N1+03031+02221101241ADDGF106991031011008001041001MA1999999101191MD1999999+0091REMSYN070AAXX  28184 83398 32596 60506 10303 20222 30119 40124 83140 333 58009;
0155833980999992010012900004-15667-038950FM-12+000599999V0200501N002110450019N0010001N1+02781+02321101401ADDGF106991021021008001041011MA1999999101351MD1999999+0051REMSYN088AAXX  29004 83398 32594 60504 10278 20232 30135 40140 82241 333 1//// 29069 55113 58005;
0156833980999992010012912004-15667-038950FM-12+000599999V0200501N002110450019N0040001N1+03021+02241101481ADDGF107991041051008001021001KA1240N+02431MA1999999101431MD1999999+0001REMSYN076AAXX  29124 83398 32596 70504 10302 20224 30143 40148 84520 333 20243 58000;
0137833980999992010012918004-15667-038950FM-12+000599999V0200901N002110450019N0040001N1+03021+02311101311ADDGF107991041051008001021001MA1999999101261MD1999999+0071REMSYN070AAXX  29184 83398 32596 70904 10302 20231 30126 40131 84520 333 58007;
0155833980999992010013000004-15667-038950FM-12+000599999V0200901N002110450019N0010001N1+02661+02391101561ADDGF106991031051008001021001MA1999999101511MD1999999+0161REMSYN088AAXX  30004 83398 32594 60904 10266 20239 30151 40156 83520 333 1//// 29075 55098 58016;
0220833980999992010013012004-15667-038950FM-12+000599999V0200901N002112200019N0040001N1+02961+02131101571ADDAA124001091AY161061AY221061GF104991999021008001001001KA1240N+02301MA1999999101521MD1999999+0091MW1021REMSYN088AAXX  30124 83398 21596 40904 10296 20213 30152 40157 70262 82200 333 20230 58009 60014;EQDQ01+000022SCOTLC
0137833980999992010013018004-15667-038950FM-12+000599999V0200901N003112200019N0040001N1+03061+02141101421ADDGF104991021011008001041001MA1999999101371MD1999999+0111REMSYN070AAXX  30184 83398 32596 40906 10306 20214 30137 40142 82140 333 58011;
0155833980999992010013100004-15667-038950FM-12+000599999V0200901N002110450019N0010001N1+02641+02291101621ADDGF106991021011008001041011MA1999999101561MD1999999+0111REMSYN088AAXX  31004 83398 32594 60904 10264 20229 30156 40162 82141 333 1//// 29070 55102 58011;
0156833980999992010013112004-15667-038950FM-12+000599999V0200901N002110450019N0040001N1+03001+02241101621ADDGF106991031051008001041001KA1240N+02371MA1999999101561MD1999999+0041REMSYN076AAXX  31124 83398 32596 60904 10300 20224 30156 40162 83540 333 20237 58004;
0137833980999992010013118004-15667-038950FM-12+000599999V0200901N003112200019N0040001N1+03081+02291101451ADDGF104991021011008001041001MA1999999101401MD1999999+0031REMSYN070AAXX  31184 83398 32596 40906 10308 20229 30140 40145 82140 333 58003;
0155833980999992010020100004-15667-038950FM-12+000599999V0209999C000010450019N0010001N1+02601+02311101651ADDGF106991031011008001041001MA1999999101591MD1999999+0331REMSYN088AAXX  01004 83398 32594 60000 10260 20231 30159 40165 83140 333 1//// 29074 55099 58033;
0201833980999992010020112004-15667-038950FM-12+000599999V0209999C000010075019N0040001N1+02781+02321101701ADDAA124006191AY161061AY221061GF108991051051008001021001KA1240N+02311MA1999999101641MD1999999+0081MW1021REMSYN088AAXX  01124 83398 21596 80000 10278 20232 30164 40170 70262 85520 333 20231 58008 60064;
0137833980999992010020118004-15667-038950FM-12+000599999V0200901N002110450019N0040001N1+03021+02261101491ADDGF105991021011008001041001MA1999999101441MD1999999+0041REMSYN070AAXX  01184 83398 32596 50904 10302 20226 30144 40149 82140 333 58004;
0155833980999992010020200004-15667-038950FM-12+000599999V0200901N004610450019N0010001N1+02761+02381101691ADDGF106991021021008001041011MA1999999101631MD1999999+0041REMSYN088AAXX  02004 83398 32594 60909 10276 20238 30163 40169 82241 333 1//// 29075 55088 58004;
0156833980999992010020212004-15667-038950FM-12+000599999V0200901N001012200019N0040001N1+03041+02121101711ADDGF104991021021008001041001KA1240N+02381MA1999999101651MD1999999+0011REMSYN076AAXX  02124 83398 32596 40902 10304 20212 30165 40171 82240 333 20238 58001;
0137833980999992010020218004-15667-038950FM-12+000599999V0201401N002110075019N0040001N1+03141+02271101471ADDGF108991051051008001021001MA1999999101421MD1999999-0021REMSYN070AAXX  02184 83398 32596 81404 10314 20227 30142 40147 85520 333 59002;
0155833980999992010020300004-15667-038950FM-12+000599999V0209999C000010450019N0010001N1+02521+02431101681ADDGF106991031051008001021081MA1999999101621MD1999999-0011REMSYN088AAXX  03004 83398 32594 60000 10252 20243 30162 40168 83528 333 1//// 29077 55093 59001;
0201833980999992010020312004-15667-038950FM-12+000599999V0200901N001010450019N0040001N1+02881+02321101611ADDAA124015091AY161061AY221061GF106991031021008001041001KA1240N+02261MA1999999101551MD1999999-0101MW1021REMSYN088AAXX  03124 83398 21596 60902 10288 20232 30155 40161 70262 83240 333 20226 59010 60154;
0137833980999992010020318004-15667-038950FM-12+000599999V0200901N002110450019N0040001N1+02961+02231101371ADDGF106991031051008001041001MA1999999101321MD1999999-0101REMSYN070AAXX  03184 83398 32596 60904 10296 20223 30132 40137 83540 333 59010;
0155833980999992010020400004-15667-038950FM-12+000599999V0200901N003112200019N0010001N1+02761+02231101561ADDGF104991021021008001041001MA1999999101511MD1999999-0111REMSYN088AAXX  04004 83398 32594 40906 10276 20223 30151 40156 82240 333 1//// 29071 55104 59011;
0201833980999992010020412004-15667-038950FM-12+000599999V0200901N002110450019N0040001N1+02861+02441101581ADDAA124005191AY161061AY221061GF106991041051008001021001KA1240N+02311MA1999999101531MD1999999-0021MW1021REMSYN088AAXX  04124 83398 21596 60904 10286 20244 30153 40158 70262 84520 333 20231 59002 60054;
0137833980999992010020418004-15667-038950FM-12+000599999V0200901N002110075019N0040001N1+02901+02301101381ADDGF108991051051008001021001MA1999999101331MD1999999+0011REMSYN070AAXX  04184 83398 32596 80904 10290 20230 30133 40138 85520 333 58001;
0201833980999992010020512004-15667-038950FM-12+000599999V0209999C000010075019N0040001N1+02381+02331101661ADDAA124018091AY191061AY261061GF108991051051008001021999KA1240N+02351MA1999999101601MD1999999+0071MW1961REMSYN088AAXX  05124 83398 21596 80000 10238 20233 30160 40166 79696 8552/ 333 20235 58007 60184;
0182833980999992010020518004-15667-038950FM-12+000599999V0209999C000010075019N0040001N1+02481+02381101331ADDAA106007991AY191061AY261061GF108991051051008001021999MA1999999101281MD1999999-0051MW1021REMSYN082AAXX  05184 83398 21596 80000 10248 20238 30128 40133 70296 8552/ 333 59005 60081;
0155833980999992010020600004-15667-038950FM-12+000599999V0209999C000012200019N0010001N1+02401+02351101491ADDGF104991021051008001021001MA1999999101441MD1999999-0081REMSYN088AAXX  06004 83398 32594 40000 10240 20235 30144 40149 82520 333 1//// 29096 55004 59008;
0201833980999992010020612004-15667-038950FM-12+000599999V0201401N001010450019N0040001N1+02841+02351101541ADDAA124009991AY161061AY221061GF107991041051008001021001KA1240N+02251MA1999999101491MD1999999-0111MW1021REMSYN088AAXX  06124 83398 21596 71402 10284 20235 30149 40154 70262 84520 333 20225 59011 60104;
0137833980999992010020618004-15667-038950FM-12+000599999V0200501N002110450019N0040001N1+02971+02161101281ADDGF107991041051008001021001MA1999999101231MD1999999-0051REMSYN070AAXX  06184 83398 32596 70504 10297 20216 30123 40128 84520 333 59005;
0155833980999992010020700004-15667-038950FM-12+000599999V0200501N002110450019N0010001N1+02721+02281101421ADDGF105991031051008001021001MA1999999101371MD1999999-0071REMSYN088AAXX  07004 83398 32594 50504 10272 20228 30137 40142 83520 333 1//// 29073 55053 59007;
0156833980999992010020712004-15667-038950FM-12+000599999V0209999C000010450019N0040001N1+02941+02331101471ADDGF107991041051008001021001KA1240N+02351MA1999999101421MD1999999-0071REMSYN076AAXX  07124 83398 32596 70000 10294 20233 30142 40147 84520 333 20235 59007;
0137833980999992010020718004-15667-038950FM-12+000599999V0200901N002110450019N0040001N1+02961+02261101241ADDGF107991041051008001021001MA1999999101191MD1999999-0041REMSYN070AAXX  07184 83398 32596 70904 10296 20226 30119 40124 84520 333 59004;
0155833980999992010020800004-15667-038950FM-12+000599999V0209999C000010450019N0010001N1+02741+02241101341ADDGF106991031051008001021001MA1999999101291MD1999999-0081REMSYN088AAXX  08004 83398 32594 60000 10274 20224 30129 40134 83520 333 1//// 29071 55049 59008;
0201833980999992010020812004-15667-038950FM-12+000599999V0209999C000010450019N0040001N1+02461+02371101451ADDAA124002091AY161061AY221061GF108991041071008001021999KA1240N+02301MA1999999101401MD1999999-0021MW1601REMSYN088AAXX  08124 83398 21596 80000 10246 20237 30140 40145 76062 8472/ 333 20230 59002 60024;
0182833980999992010020818004-15667-038950FM-12+000599999V0209999C000010450019N0040001N1+02861+02371101161ADDAA106002091AY161061AY221061GF106991041051008001021001MA1999999101111MD1999999+0081MW1021REMSYN082AAXX  08184 83398 21596 60000 10286 20237 30111 40116 70262 84520 333 58008 60021;
0155833980999992010020900004-15667-038950FM-12+000599999V0209999C000010450019N0010001N1+02701+02371101251ADDGF106991041051008001021001MA1999999101201MD1999999-0091REMSYN088AAXX  09004 83398 32594 60000 10270 20237 30120 40125 84520 333 1//// 29084 55063 59009;
0173833980999992010020912004-15667-038950FM-12+000599999V0203201N002110450019N0040001N1+02861+02501101311ADDAA124002091GF106991041051008001021001KA1240N+02241MA1999999101261MD1999999-0141REMSYN082AAXX  09124 83398 22596 63204 10286 20250 30126 40131 84520 333 20224 59014 60024;
0137833980999992010020918004-15667-038950FM-12+000599999V0200501N002110450019N0040001N1+03021+02501101031ADDGF106991041051008001021001MA1999999100981MD1999999-0131REMSYN070AAXX  09184 83398 32596 60504 10302 20250 30098 40103 84520 333 59013;
0155833980999992010021000004-15667-038950FM-12+000599999V0200501N002110075019N0010001N1+02761+02381101241ADDGF105991051051008001001001MA1999999101191MD1999999-0011REMSYN088AAXX  10004 83398 32594 50504 10276 20238 30119 40124 85500 333 1//// 29079 55090 59001;
0156833980999992010021012004-15667-038950FM-12+000599999V0203601N003110450019N0040001N1+02861+02371101401ADDGF106991041051008001021001KA1240N+02401MA1999999101351MD1999999+0091REMSYN076AAXX  10124 83398 32596 63606 10286 20237 30135 40140 84520 333 20240 58009;
0137833980999992010021018004-15667-038950FM-12+000599999V0200901N003110075019N0040001N1+03001+02271101151ADDGF107991051051008001021001MA1999999101121MD1999999+0141REMSYN070AAXX  10184 83398 32596 70906 10300 20227 30112 40115 85520 333 58014;
0155833980999992010021100004-15667-038950FM-12+000599999V0209999C000010450019N0010001N1+02661+02391101231ADDGF106991041051008001021001MA1999999101181MD1999999-0011REMSYN088AAXX  11004 83398 32594 60000 10266 20239 30118 40123 84520 333 1//// 29078 55020 59001;
0201833980999992010021112004-15667-038950FM-12+000599999V0200901N003110075019N0040001N1+02901+02411101411ADDAA124017091AY161061AY221061GF107991051051008001021001KA1240N+02301MA1999999101351MD1999999+0001MW1021REMSYN088AAXX  11124 83398 21596 70906 10290 20241 30135 40141 70262 85520 333 20230 58000 60174;
0137833980999992010021118004-15667-038950FM-12+000599999V0200501N003110450019N0040001N1+02841+02381101211ADDGF106991041051008001021001MA1999999101161MD1999999+0041REMSYN070AAXX  11184 83398 32596 60506 10284 20238 30116 40121 84520 333 58004;
0207833980999992010021212004-15667-038950FM-12+000599999V0200901N002110075019N0040001N1+02941+02471101541ADDAA124008091AY161061AY221061GF108991051051008001021999KA1240N+02341MA1999999101491MD1999999+0161MW1021REMSYN094AAXX  12124 83398 21596 80904 10294 20247 30149 40154 70262 8552/ 333 20234 58016 60084 10076;
0137833980999992010021218004-15667-038950FM-12+000599999V0200901N003110075019N0040001N1+02841+02441101411ADDGF108991051051008001021999MA1999999101361MD1999999+0201REMSYN070AAXX  12184 83398 32596 80906 10284 20244 30136 40141 8552/ 333 58020;
0156833980999992010021312004-15667-038950FM-12+000599999V0209999C000010075019N0040001N1+02781+02581101541ADDGF108991051051008001021999KA1240N+02241MA1999999101491MD1999999+0001REMSYN076AAXX  13124 83398 32596 80000 10278 20258 30149 40154 8552/ 333 20224 58000;
0137833980999992010021318004-15667-038950FM-12+000599999V0200901N004110075019N0040001N1+03041+02431101391ADDGF108991051051008001021999MA1999999101341MD1999999-0021REMSYN070AAXX  13184 83398 32596 80908 10304 20243 30134 40139 8552/ 333 59002;
0201833980999992010021412004-15667-038950FM-12+000599999V0209999C000010075019N0040001N1+02301+02251101651ADDAA124059991AY161061AY291061GF108991051051008001021999KA1240N+02031MA1999999101591MD1999999+0101MW1021REMSYN088AAXX  14124 83398 21596 80000 10230 20225 30159 40165 70269 8552/ 333 20203 58010 60604;
0137833980999992010021418004-15667-038950FM-12+000599999V0200901N002110075019N0040001N1+02841+02461101461ADDGF108991051051008001021999MA1999999101411MD1999999+0071REMSYN070AAXX  14184 83398 32596 80904 10284 20246 30141 40146 8552/ 333 58007;
0201833980999992010021512004-15667-038950FM-12+000599999V0203201N002110075019N0040001N1+02621+02531101531ADDAA124026991AY161061AY291061GF108991051051008001021999KA1240N+02261MA1999999101481MD1999999-0111MW1021REMSYN088AAXX  15124 83398 21596 83204 10262 20253 30148 40153 70269 8552/ 333 20226 59011 60274;
0182833980999992010021518004-15667-038950FM-12+000599999V0209999C000010075019N0040001N1+02701+02521101341ADDAA106005191AY191061AY261061GF108991051051008001021999MA1999999101291MD1999999-0121MW1021REMSYN082AAXX  15184 83398 21596 80000 10270 20252 30129 40134 70296 8552/ 333 59012 60051;
0201833980999992010021612004-15667-038950FM-12+000599999V0201401N002110450019N0040001N1+02761+02621101511ADDAA124007991AY191061AY261061GF106991041051008001021001KA1240N+02301MA1999999101461MD1999999-0021MW1021REMSYN088AAXX  16124 83398 21596 61404 10276 20262 30146 40151 70296 84520 333 20230 59002 60084;
0137833980999992010021618004-15667-038950FM-12+000599999V0203601N003110450019N0040001N1+03061+02401101281ADDGF106991021051008001041011MA1999999101231MD1999999-0061REMSYN070AAXX  16184 83398 32596 63606 10306 20240 30123 40128 82541 333 59006;
0156833980999992010021712004-15667-038950FM-12+000599999V0200901N002110075019N0040001N1+02881+02411101451ADDGF107991051051008001021001KA1240N+02281MA1999999101401MD1999999-0061REMSYN076AAXX  17124 83398 32596 70904 10288 20241 30140 40145 85520 333 20228 59006;
0137833980999992010021718004-15667-038950FM-12+000599999V0200501N003110450019N0040001N1+03061+02451101181ADDGF105991031021008001041001MA1999999101131MD1999999-0101REMSYN070AAXX  17184 83398 32596 50506 10306 20245 30113 40118 83240 333 59010;
0156833980999992010021812004-15667-038950FM-12+000599999V0209999C000010450019N0040001N1+02921+02521101521ADDGF106991041051008001021001KA1240N+02261MA1999999101471MD1999999+0071REMSYN076AAXX  18124 83398 32596 60000 10292 20252 30147 40152 84520 333 20226 58007;
0137833980999992010021818004-15667-038950FM-12+000599999V0203601N004110450019N0040001N1+03061+02541101371ADDGF106991021051008001041011MA1999999101321MD1999999+0191REMSYN070AAXX  18184 83398 32596 63608 10306 20254 30132 40137 82541 333 58019;
0155833980999992010021900004-15667-038950FM-12+000599999V0200501N002110450019N0010001N1+02781+02521101641ADDGF105991031051008001021001MA1999999101521MD1999999+0341REMSYN088AAXX  19004 83398 32594 50504 10278 20252 30152 40164 83520 333 1//// 29081 55101 58034;
0156833980999992010021912004-15667-038950FM-12+000599999V0209999C000010450019N0040001N1+03001+02531101721ADDGF106991041051008001021001KA1240N+02301MA1999999101661MD1999999+0191REMSYN076AAXX  19124 83398 32596 60000 10300 20253 30166 40172 84520 333 20230 58019;
0137833980999992010021918004-15667-038950FM-12+000599999V0200901N003110450019N0040001N1+03161+02521101571ADDGF106991031021008001041011MA1999999101521MD1999999+0201REMSYN070AAXX  19184 83398 32596 60906 10316 20252 30152 40157 83241 333 58020;
0155833980999992010022000004-15667-038950FM-12+000599999V0209999C000010450019N0010001N1+02801+02541101761ADDGF105991031051008001021001MA1999999101701MD1999999+0121REMSYN088AAXX  20004 83398 32594 50000 10280 20254 30170 40176 83520 333 1//// 29079 55106 58012;
0201833980999992010022012004-15667-038950FM-12+000599999V0209999C000010075019N0040001N1+02801+02621101781ADDAA124007991AY191061AY261061GF108991051051008001021999KA1240N+02401MA1999999101721MD1999999+0051MW1021REMSYN088AAXX  20124 83398 21596 80000 10280 20262 30172 40178 70296 8552/ 333 20240 58005 60084;
0137833980999992010022018004-15667-038950FM-12+000599999V0201401N002110075019N0040001N1+03041+02551101481ADDGF107991051051008001021001MA1999999101431MD1999999-0091REMSYN070AAXX  20184 83398 32596 71404 10304 20255 30143 40148 85520 333 59009;
0200833980999992010022100004-15667-038950FM-12+000599999V0209999C000010075019N0010001N1+02521+02431101581ADDAA106002091AY161061AY221061GF108991051051008001021999MA1999999101531MD1999999-0171MW1021REMSYN100AAXX  21004 83398 21594 80000 10252 20243 30153 40158 70262 8552/ 333 1//// 29089 55065 59017 60021;
0201833980999992010022112004-15667-038950FM-12+000599999V0201401N002110075019N0040001N1+02841+02541101571ADDAA124007991AY161061AY221061GF108991051051008001021999KA1240N+02401MA1999999101521MD1999999-0201MW1021REMSYN088AAXX  21124 83398 21596 81404 10284 20254 30152 40157 70262 8552/ 333 20240 59020 60084;
0137833980999992010022118004-15667-038950FM-12+000599999V0200901N003110450019N0040001N1+02911+02471101261ADDGF106991041051008001021001MA1999999101211MD1999999-0221REMSYN070AAXX  21184 83398 32596 60906 10291 20247 30121 40126 84520 333 59022;
0155833980999992010022200004-15667-038950FM-12+000599999V0209999C000010450019N0010001N1+02761+02481101411ADDGF106991041051008001021001MA1999999101361MD1999999-0171REMSYN088AAXX  22004 83398 32594 60000 10276 20248 30136 40141 84520 333 1//// 29083 55073 59017;
0156833980999992010022212004-15667-038950FM-12+000599999V0209999C000010075019N0040001N1+02701+02461101471ADDGF108991051051008001021999KA1240N+02431MA1999999101421MD1999999-0101REMSYN076AAXX  22124 83398 32596 80000 10270 20246 30142 40147 8552/ 333 20243 59010;
0137833980999992010022218004-15667-038950FM-12+000599999V0200501N002110450019N0040001N1+03001+02291101171ADDGF107991041051008001021001MA1999999101121MD1999999-0091REMSYN070AAXX  22184 83398 32596 70504 10300 20229 30112 40117 84520 333 59009;
0155833980999992010022300004-15667-038950FM-12+000599999V0200501N002110450019N0010001N1+02741+02381101411ADDGF106991031051008001021001MA1999999101361MD1999999+0001REMSYN088AAXX  23004 83398 32594 60504 10274 20238 30136 40141 83520 333 1//// 29079 55027 58000;
0156833980999992010022312004-15667-038950FM-12+000599999V0200501N002110450019N0040001N1+02991+02381101441ADDGF106991031021008001041001KA1240N+02381MA1999999101391MD1999999-0031REMSYN076AAXX  23124 83398 32596 60504 10299 20238 30139 40144 83240 333 20238 59003;
0137833980999992010022318004-15667-038950FM-12+000599999V0200501N004112200019N0040001N1+03021+02391101141ADDGF103991021011008001041001MA1999999101091MD1999999-0031REMSYN070AAXX  23184 83398 32596 30508 10302 20239 30109 40114 82140 333 59003;
0155833980999992010022400004-15667-038950FM-12+000599999V0200501N003112200019N0010001N1+02721+02411101351ADDGF104991021021008001041011MA1999999101301MD1999999+0061REMSYN088AAXX  24004 83398 32594 40506 10272 20241 30130 40135 82241 333 1//// 29076 55104 58006;
0156833980999992010022412004-15667-038950FM-12+000599999V0200501N002110450019N0040001N1+02981+02371101421ADDGF106991031051008001041011KA1240N+02371MA1999999101371MD1999999-0021REMSYN076AAXX  24124 83398 32596 60504 10298 20237 30137 40142 83541 333 20237 59002;
0137833980999992010022418004-15667-038950FM-12+000599999V0200501N004112200019N0040001N1+03021+02411101131ADDGF103991021011008001041001MA1999999101081MD1999999-0011REMSYN070AAXX  24184 83398 32596 30508 10302 20241 30108 40113 82140 333 59001;
0155833980999992010022500004-15667-038950FM-12+000599999V0200501N002110450019N0010001N1+02801+02401101331ADDGF106991031051008001021001MA1999999101281MD1999999+0021REMSYN088AAXX  25004 83398 32594 60504 10280 20240 30128 40133 83520 333 1//// 29074 55100 58002;
0156833980999992010022512004-15667-038950FM-12+000599999V0200501N002112200019N0040001N1+03041+02361101321ADDGF104991021011008001041001KA1240N+02331MA1999999101271MD1999999-0101REMSYN076AAXX  25124 83398 32596 40504 10304 20236 30127 40132 82140 333 20233 59010;
0137833980999992010022518004-15667-038950FM-12+000599999V0200501N003112200019N0040001N1+03051+02341100991ADDGF103991021011008001041001MA1999999100941MD1999999-0141REMSYN070AAXX  25184 83398 32596 30506 10305 20234 30094 40099 82140 333 59014;
0155833980999992010022600004-15667-038950FM-12+000599999V0200501N003110450019N0010001N1+02761+02341101231ADDGF106991021051008001041011MA1999999101181MD1999999-0101REMSYN088AAXX  26004 83398 32594 60506 10276 20234 30118 40123 82541 333 1//// 29072 55107 59010;
0156833980999992010022612004-15667-038950FM-12+000599999V0200501N001010450019N0040001N1+03001+02371101241ADDGF106991031051008001041001KA1240N+02401MA1999999101191MD1999999-0081REMSYN076AAXX  26124 83398 32596 60502 10300 20237 30119 40124 83540 333 20240 59008;
0137833980999992010022618004-15667-038950FM-12+000599999V0200501N003110450019N0040001N1+02941+02401100991ADDGF106991031051008001021011MA1999999100941MD1999999+0001REMSYN070AAXX  26184 83398 32596 60506 10294 20240 30094 40099 83521 333 58000;
0155833980999992010022700004-15667-038950FM-12+000599999V0200501N001010450019N0010001N1+02801+02361101341ADDGF106991021051008001041011MA1999999101291MD1999999+0111REMSYN088AAXX  27004 83398 32594 60502 10280 20236 30129 40134 82541 333 1//// 29074 55086 58011;
0201833980999992010022712004-15667-038950FM-12+000599999V0209999C000010450019N0040001N1+02901+02341101421ADDAA124001091AY161061AY221061GF105991031051008001041001KA1240N+02401MA1999999101371MD1999999+0181MW1021REMSYN088AAXX  27124 83398 21596 50000 10290 20234 30137 40142 70262 83540 333 20240 58018 60014;
0137833980999992010022718004-15667-038950FM-12+000599999V0200901N003112200019N0040001N1+02981+02351101121ADDGF102991011011008001041001MA1999999101071MD1999999+0131REMSYN070AAXX  27184 83398 32596 20906 10298 20235 30107 40112 81140 333 58013;
0155833980999992010022800004-15667-038950FM-12+000599999V0209999C000012200019N0010001N1+02581+02381101481ADDGF103991021021008001041011MA1999999101431MD1999999+0141REMSYN088AAXX  28004 83398 32594 30000 10258 20238 30143 40148 82241 333 1//// 29080 55096 58014;
0156833980999992010022812004-15667-038950FM-12+000599999V0209999C000010450019N0040001N1+02741+02341101451ADDGF107991041051008001041001KA1240N+02271MA1999999101401MD1999999+0031REMSYN076AAXX  28124 83398 32596 70000 10274 20234 30140 40145 84540 333 20227 58003;
0137833980999992010022818004-15667-038950FM-12+000599999V0200501N003112200019N0040001N1+03021+02311101131ADDGF102991011011008001041001MA1999999101081MD1999999+0011REMSYN070AAXX  28184 83398 32596 20506 10302 20231 30108 40113 81140 333 58001;
0155833980999992010030100004-15667-038950FM-12+000599999V0209999C000012200019N0010001N1+02781+02211101331ADDGF103991011011008001041011MA1999999101281MD1999999-0151REMSYN088AAXX  01004 83398 32594 30000 10278 20221 30128 40133 81141 333 1//// 29072 55097 59015;
0156833980999992010030112004-15667-038950FM-12+000599999V0209999C000010450019N0040001N1+02841+02381101441ADDGF107991041051008001021001KA1240N+02341MA1999999101391MD1999999-0011REMSYN076AAXX  01124 83398 32596 70000 10284 20238 30139 40144 84520 333 20234 59001;
0137833980999992010030118004-15667-038950FM-12+000599999V0200501N003112200019N0040001N1+03081+02101101091ADDGF102991011011008001041011MA1999999101041MD1999999-0041REMSYN070AAXX  01184 83398 32596 20506 10308 20210 30104 40109 81141 333 59004;
0155833980999992010030200004-15667-038950FM-12+000599999V0200501N002110450019N0010001N1+02781+02421101341ADDGF106991021021008001041011MA1999999101291MD1999999+0011REMSYN088AAXX  02004 83398 32594 60504 10278 20242 30129 40134 82241 333 1//// 29073 55086 58001;
0156833980999992010030212004-15667-038950FM-12+000599999V0203201N002110450019N0040001N1+02981+02371101391ADDGF106991031051008001021001KA1240N+02491MA1999999101341MD1999999-0051REMSYN076AAXX  02124 83398 32596 63204 10298 20237 30134 40139 83520 333 20249 59005;
0137833980999992010030218004-15667-038950FM-12+000599999V0203601N003110450019N0040001N1+03081+02491101021ADDGF107991041051008001021001MA1999999100971MD1999999-0071REMSYN070AAXX  02184 83398 32596 73606 10308 20249 30097 40102 84520 333 59007;
0155833980999992010030300004-15667-038950FM-12+000599999V0209999C000010450019N0010001N1+02781+02621101331ADDGF107991041051008001021001MA1999999101281MD1999999-0011REMSYN088AAXX  03004 83398 32594 70000 10278 20262 30128 40133 84520 333 1//// 29081 55046 59001;
0201833980999992010030312004-15667-038950FM-12+000599999V0209999C000010075019N0040001N1+02901+02561101391ADDAA124004191AY161061AY221061GF108991051051008001021999KA1240N+02541MA1999999101341MD1999999+0001MW1021REMSYN088AAXX  03124 83398 21596 80000 10290 20256 30134 40139 70262 8552/ 333 20254 58000 60044;
0182833980999992010030318004-15667-038950FM-12+000599999V0209999C000010075019N0040001N1+02781+02541101031ADDAA106004191AY161061AY221061GF108991051051008001021999MA1999999100981MD1999999+0011MW1021REMSYN082AAXX  03184 83398 21596 80000 10278 20254 30098 40103 70262 8552/ 333 58001 60041;
0155833980999992010030400004-15667-038950FM-12+000599999V0209999C000010450019N0010001N1+02601+02511101371ADDGF108991041051008001021999MA1999999101321MD1999999+0041REMSYN088AAXX  04004 83398 32594 80000 10260 20251 30132 40137 8452/ 333 1//// 29090 55011 58004;
0173833980999992010030412004-15667-038950FM-12+000599999V0202301N001010075019N0040001N1+02791+02411101351ADDAA124004191GF108991051051008001021999KA1240N+02391MA1999999101301MD1999999-0041REMSYN082AAXX  04124 83398 22596 82302 10279 20241 30130 40135 8552/ 333 20239 59004 60044;
0137833980999992010030418004-15667-038950FM-12+000599999V0200901N002110075019N0040001N1+02921+02361100961ADDGF108991051051008001021999MA1999999100911MD1999999-0071REMSYN070AAXX  04184 83398 32596 80904 10292 20236 30091 40096 8552/ 333 59007;
0201833980999992010030512004-15667-038950FM-12+000599999V0209999C000010075019N0040001N1+02501+02451101151ADDAA124008991AY161061AY221061GF108991051051008001021999KA1240N+02371MA1999999101101MD1999999-0201MW1021REMSYN088AAXX  05124 83398 21596 80000 10250 20245 30110 40115 70262 8552/ 333 20237 59020 60094;
0182833980999992010030518004-15667-038950FM-12+000599999V0200501N003110075019N0040001N1+02681+02431100841ADDAA106009991AY161061AY221061GF108991051051008001021999MA1999999100791MD1999999-0121MW1021REMSYN082AAXX  05184 83398 21596 80506 10268 20243 30079 40084 70262 8552/ 333 59012 60101;
0200833980999992010030600004-15667-038950FM-12+000599999V0209999C000010075019N0010001N1+02441+02421101011ADDAA106013091AY161061AY221061GF108991051051008001021999MA1999999100961MD1999999-0181MW1521REMSYN100AAXX  06004 83398 21594 80000 10244 20242 30096 40101 75262 8552/ 333 1//// 29095 55008 59018 60131;
0201833980999992010030612004-15667-038950FM-12+000599999V0209999C000010075019N0010001N1+02661+02431101051ADDAA124020191AY161061AY221061GF108991051051008001021999KA1240N+02351MA1999999101001MD1999999-0011MW1021REMSYN088AAXX  06124 83398 21594 80000 10266 20243 30100 40105 70262 8552/ 333 20235 59001 60204;
0137833980999992010030618004-15667-038950FM-12+000599999V0200501N002110450019N0040001N1+02981+02491100661ADDGF106991031051008001021001MA1999999100611MD1999999-0181REMSYN070AAXX  06184 83398 32596 60504 10298 20249 30061 40066 83520 333 59018;
0173833980999992010030712004-15667-038950FM-12+000599999V0203601N003110075019N0040001N1+02781+02461100871ADDAA124007991GF108991051051008001021999KA1240N+02351MA1999999100821MD1999999-0181REMSYN082AAXX  07124 83398 22596 83606 10278 20246 30082 40087 8552/ 333 20235 59018 60084;
0137833980999992010030718004-15667-038950FM-12+000599999V0203201N008212200019N0040001N1+02981+02551100641ADDGF104991021011008001041001MA1999999100591MD1999999-0021REMSYN070AAXX  07184 83398 32596 43216 10298 20255 30059 40064 82140 333 59002;
0155833980999992010030800004-15667-038950FM-12+000599999V0203201N003110075019N0010001N1+02821+02601100941ADDGF108991051051008001021001MA1999999100891MD1999999+0101REMSYN088AAXX  08004 83398 32594 83206 10282 20260 30089 40094 85520 333 1//// 29084 55067 58010;
0201833980999992010030812004-15667-038950FM-12+000599999V0203601N002110450019N0040001N1+02801+02621101231ADDAA124025991AY191061AY261061GF106991041051008001021001KA1240N+02261MA1999999101181MD1999999+0591MW1021REMSYN088AAXX  08124 83398 21596 63604 10280 20262 30118 40123 70296 84520 333 20226 58059 60264;
0137833980999992010030818004-15667-038950FM-12+000599999V0203601N005110450019N0040001N1+02941+02641100921ADDGF105991031051008001021001MA1999999100871MD1999999+0161REMSYN070AAXX  08184 83398 32596 53610 10294 20264 30087 40092 83520 333 58016;
0155833980999992010030900004-15667-038950FM-12+000599999V0203601N005110075019N0010001N1+02781+02671101271ADDGF108991051051008001021999MA1999999101221MD1999999+0331REMSYN088AAXX  09004 83398 32594 83610 10278 20267 30122 40127 8552/ 333 1//// 29091 55075 58033;
0214833980999992010030912004-15667-038950FM-12+000599999V0203201N003110075019N0040001N1+02801+02621101431ADDAA124002091AY121061AY291061GF108991051051008001021999KA1240N+02401MA1999999101381MD1999999+0201REMSYN088AAXX  09124 83398 21596 83206 10280 20262 30138 40143 77029 8552/ 333 20240 58020 60024;EQDQ01+000702PRSWM1
0137833980999992010030918004-15667-038950FM-12+000599999V0203201N003110450019N0040001N1+03021+02481101021ADDGF106991041051008001021001MA1999999100971MD1999999+0101REMSYN070AAXX  09184 83398 32596 63206 10302 20248 30097 40102 84520 333 58010;
0155833980999992010031000004-15667-038950FM-12+000599999V0209999C000010450019N0010001N1+02981+02681101361ADDGF106991041051008001021001MA1999999101311MD1999999+0091REMSYN088AAXX  10004 83398 32594 60000 10298 20268 30131 40136 84520 333 1//// 29083 55045 58009;
0156833980999992010031012004-15667-038950FM-12+000599999V0203201N002110450019N0040001N1+02941+02661101241ADDGF106991041051008001021001KA1240N+02381MA1999999101191MD1999999-0191REMSYN076AAXX  10124 83398 32596 63204 10294 20266 30119 40124 84520 333 20238 59019;
0137833980999992010031018004-15667-038950FM-12+000599999V0203601N003110450019N0040001N1+03041+02681100871ADDGF106991041051008001021011MA1999999100821MD1999999-0151REMSYN070AAXX  10184 83398 32596 63606 10304 20268 30082 40087 84521 333 59015;
0155833980999992010031100004-15667-038950FM-12+000599999V0209999C000010450019N0010001N1+03001+02701101121ADDGF105991031051008001021001MA1999999101071MD1999999-0241REMSYN088AAXX  11004 83398 32594 50000 10300 20270 30107 40112 83520 333 1//// 29084 55072 59024;
0156833980999992010031112004-15667-038950FM-12+000599999V0203601N003110450019N0040001N1+02961+02561101151ADDGF105991031051008001021001KA1240N+02501MA1999999101101MD1999999-0091REMSYN076AAXX  11124 83398 32596 53606 10296 20256 30110 40115 83520 333 20250 59009;
0137833980999992010031118004-15667-038950FM-12+000599999V0203601N003110450019N0040001N1+03101+02711101801ADDGF105991031021008001041001MA1999999100751MD1999999-0071REMSYN070AAXX  11184 83398 32596 53606 10310 20271 30075 40180 83240 333 59007;
0155833980999992010031200004-15667-038950FM-12+000599999V0209999C000010450019N0010001N1+03061+02671101051ADDGF106991041051008001021001MA1999999101001MD1999999-0071REMSYN088AAXX  12004 83398 32594 60000 10306 20267 30100 40105 84520 333 1//// 29080 55089 59007;
0156833980999992010031212004-15667-038950FM-12+000599999V0209999C000010450019N0040001N1+03001+02681101211ADDGF105991031021008001041001KA1240N+02541MA1999999101161MD1999999+0061REMSYN076AAXX  12124 83398 32596 50000 10300 20268 30116 40121 83240 333 20254 58006;
0137833980999992010031218004-15667-038950FM-12+000599999V0203601N005110450019N0040001N1+03121+02731100921ADDGF106991031021008001041011MA1999999100871MD1999999+0121REMSYN070AAXX  12184 83398 32596 63610 10312 20273 30087 40092 83241 333 58012;
0155833980999992010031300004-15667-038950FM-12+000599999V0209999C000012200019N0010001N1+03061+02671101241ADDGF103991031011008001001001MA1999999101191MD1999999+0191REMSYN088AAXX  13004 83398 32594 30000 10306 20267 30119 40124 83100 333 1//// 29080 55093 58019;
0156833980999992010031312004-15667-038950FM-12+000599999V0203601N003110450019N0040001N1+03001+02681101381ADDGF105991031021008001041001KA1240N+02611MA1999999101331MD1999999+0171REMSYN076AAXX  13124 83398 32596 53606 10300 20268 30133 40138 83240 333 20261 58017;
0137833980999992010031318004-15667-038950FM-12+000599999V0203601N003111050019N0040001N1+03141+02651101191ADDGF105991021021008001041011MA1999999101141MD1999999+0271REMSYN070AAXX  13184 83398 32596 53606 10314 20265 30114 40119 82241 333 58027;
0155833980999992010031400004-15667-038950FM-12+000599999V0209999C000012200019N0010001N1+03101+02711101531ADDGF103991031011008001001001MA1999999101481MD1999999+0241REMSYN088AAXX  14004 83398 32594 30000 10310 20271 30148 40153 83100 333 1//// 29080 55068 58024;
0156833980999992010031412004-15667-038950FM-12+000599999V0203601N003110450019N0040001N1+03001+02551101671ADDGF105991031021008001041001KA1240N+02801MA1999999101611MD1999999+0281REMSYN076AAXX  14124 83398 32596 53606 10300 20255 30161 40167 83240 333 20280 58028;
0137833980999992010031418004-15667-038950FM-12+000599999V0203601N003111050019N0040001N1+03141+02641101471ADDGF105991021021008001041011MA1999999101421MD1999999+0281REMSYN070AAXX  14184 83398 32596 53606 10314 20264 30142 40147 82241 333 58028;
0155833980999992010031500004-15667-038950FM-12+000599999V0209999C000012200019N0010001N1+03061+02671101601ADDGF103991031011008001001001MA1999999101551MD1999999+0121REMSYN088AAXX  15004 83398 32594 30000 10306 20267 30155 40160 83100 333 1//// 29078 55096 58012;
0156833980999992010031512004-15667-038950FM-12+000599999V0209999C000010450019N0040001N1+02961+02641101651ADDGF106991031051008001021011KA1240N+02461MA1999999101591MD1999999-0021REMSYN076AAXX  15124 83398 32596 60000 10296 20264 30159 40165 83521 333 20246 59002;
0137833980999992010031518004-15667-038950FM-12+000599999V0203601N003110450019N0040001N1+03141+02651101341ADDGF105991031021008001041001MA1999999101291MD1999999-0031REMSYN070AAXX  15184 83398 32596 53606 10314 20265 30129 40134 83240 333 59003;
0155833980999992010031600004-15667-038950FM-12+000599999V0209999C000012200019N0010001N1+03061+02591101521ADDGF102991021011008001001001MA1999999101471MD1999999-0081REMSYN088AAXX  16004 83398 32594 20000 10306 20259 30147 40152 82100 333 1//// 29077 55091 59008;
0201833980999992010031612004-15667-038950FM-12+000599999V0209999C000010450019N0040001N1+02981+02581101631ADDAA124002091AY161061AY221061GF105991031051008001021001KA1240N+02441MA1999999101571MD1999999-0021MW1021REMSYN088AAXX  16124 83398 21596 50000 10298 20258 30157 40163 70262 83520 333 20244 59002 60024;
0137833980999992010031618004-15667-038950FM-12+000599999V0203601N003112200019N0040001N1+03121+02531101391ADDGF104991031021008001041001MA1999999101341MD1999999+0051REMSYN070AAXX  16184 83398 32596 43606 10312 20253 30134 40139 83240 333 58005;
0155833980999992010031700004-15667-038950FM-12+000599999V0209999C000012200019N0010001N1+03081+02561101501ADDGF103991031011008001001001MA1999999101451MD1999999-0021REMSYN088AAXX  17004 83398 32594 30000 10308 20256 30145 40150 83100 333 1//// 29075 55/// 59002;
0201833980999992010031712004-15667-038950FM-12+000599999V0201401N002110450019N0040001N1+02921+02581101641ADDAA124002091AY161061AY221061GF106991041051008001021001KA1240N+02401MA1999999101581MD1999999+0011MW1021REMSYN088AAXX  17124 83398 21596 61404 10292 20258 30158 40164 70262 84520 333 20240 58001 60024;
0137833980999992010031718004-15667-038950FM-12+000599999V0200901N002110450019N0040001N1+02981+02681101401ADDGF106991041051008001021001MA1999999101351MD1999999+0011REMSYN070AAXX  17184 83398 32596 60904 10298 20268 30135 40140 84520 333 58001;
0200833980999992010031800004-15667-038950FM-12+000599999V0201401N002110450019N0010001N1+02981+02701101561ADDAA106003091AY191061AY261061GF108991041071008001021999MA1999999101511MD1999999+0061MW1621REMSYN100AAXX  18004 83398 21594 81404 10298 20270 30151 40156 76296 8472/ 333 1//// 29084 55034 58006 60031;
0201833980999992010031812004-15667-038950FM-12+000599999V0209999C000010075019N0040001N1+02801+02541101641ADDAA124075991AY191061AY261061GF108991051071008001021999KA1240N+02341MA1999999101591MD1999999+0011MW1601REMSYN088AAXX  18124 83398 21596 80000 10280 20254 30159 40164 76096 8572/ 333 20234 58001 60764;
0182833980999992010031818004-15667-038950FM-12+000599999V0200901N003110450019N0040001N1+03001+02641101361ADDAA106001091AY161061AY221061GF106991041051008001021001MA1999999101311MD1999999-0041MW1021REMSYN082AAXX  18184 83398 21596 60906 10300 20264 30131 40136 70262 84520 333 59004 60011;
0155833980999992010031900004-15667-038950FM-12+000599999V0209999C000010075019N0010001N1+02961+02781101561ADDGF108991051051008001021999MA1999999101511MD1999999+0001REMSYN088AAXX  19004 83398 32594 80000 10296 20278 30151 40156 8552/ 333 1//// 29087 55046 58000;
0201833980999992010031912004-15667-038950FM-12+000599999V0209999C000010450019N0040001N1+02881+02581101631ADDAA124003091AY161061AY221061GF106991041051008001021001KA1240N+02381MA1999999101571MD1999999-0021MW1021REMSYN088AAXX  19124 83398 21596 60000 10288 20258 30157 40163 70262 84520 333 20238 59002 60034;
0137833980999992010031918004-15667-038950FM-12+000599999V0200901N003110450019N0040001N1+03001+02681101361ADDGF106991041051008001021001MA1999999101311MD1999999+0001REMSYN070AAXX  19184 83398 32596 60906 10300 20268 30131 40136 84520 333 58000;
0155833980999992010032000004-15667-038950FM-12+000599999V0209999C000010075019N0010001N1+02981+02681101551ADDGF107991051051008001021001MA1999999101501MD1999999-0011REMSYN088AAXX  20004 83398 32594 70000 10298 20268 30150 40155 85520 333 1//// 29084 55053 59001;
0156833980999992010032012004-15667-038950FM-12+000599999V0201801N002110075019N0040001N1+02881+02561101481ADDGF107991051051008001021001KA1240N+02361MA1999999101431MD1999999-0141REMSYN076AAXX  20124 83398 32596 71804 10288 20256 30143 40148 85520 333 20236 59014;
0137833980999992010032018004-15667-038950FM-12+000599999V0209999C000010075019N0040001N1+02901+02621101211ADDGF108991051051008001021999MA1999999101161MD1999999-0151REMSYN070AAXX  20184 83398 32596 80000 10290 20262 30116 40121 8552/ 333 59015;
0155833980999992010032100004-15667-038950FM-12+000599999V0209999C000010450019N0010001N1+02841+02601101311ADDGF106991041051008001021001MA1999999101261MD1999999-0241REMSYN088AAXX  21004 83398 32594 60000 10284 20260 30126 40131 84520 333 1//// 29086 55016 59024;
0156833980999992010032112004-15667-038950FM-12+000599999V0202701N001010450019N0040001N1+02801+02541101261ADDGF105991031051008001041001KA1240N+02201MA1999999101211MD1999999-0221REMSYN076AAXX  21124 83398 32596 52702 10280 20254 30121 40126 83540 333 20220 59022;
0137833980999992010032118004-15667-038950FM-12+000599999V0203601N003110450019N0040001N1+02941+02601100951ADDGF106991041051008001021001MA1999999100901MD1999999-0261REMSYN070AAXX  21184 83398 32596 63606 10294 20260 30090 40095 84520 333 59026;
0155833980999992010032200004-15667-038950FM-12+000599999V0209999C000010450019N0010001N1+02901+02581101111ADDGF105991031051008001041001MA1999999101061MD1999999-0201REMSYN088AAXX  22004 83398 32594 50000 10290 20258 30106 40111 83540 333 1//// 29084 55071 59020;
0156833980999992010032212004-15667-038950FM-12+000599999V0203601N003110450019N0040001N1+02861+02541101321ADDGF105991031051008001041001KA1240N+02381MA1999999101271MD1999999+0061REMSYN076AAXX  22124 83398 32596 53606 10286 20254 30127 40132 83540 333 20238 58006;
0137833980999992010032218004-15667-038950FM-12+000599999V0203601N005110450019N0040001N1+03021+02461101091ADDGF106991031051008001021011MA1999999101041MD1999999+0141REMSYN070AAXX  22184 83398 32596 63610 10302 20246 30104 40109 83521 333 58014;
0155833980999992010032300004-15667-038950FM-12+000599999V0209999C000010075019N0010001N1+02981+02581101371ADDGF108991051051008001021999MA1999999101321MD1999999+0261REMSYN088AAXX  23004 83398 32594 80000 10298 20258 30132 40137 8552/ 333 1//// 29080 55098 58026;
0156833980999992010032312004-15667-038950FM-12+000599999V0200901N003110450019N0040001N1+02901+02521101561ADDGF106991031051008001021001KA1240N+02421MA1999999101511MD1999999+0281REMSYN076AAXX  23124 83398 32596 60906 10290 20252 30151 40156 83520 333 20242 58028;
0137833980999992010032318004-15667-038950FM-12+000599999V0203601N003110450019N0040001N1+03041+02571101231ADDGF106991031051008001041011MA1999999101181MD1999999+0141REMSYN070AAXX  23184 83398 32596 63606 10304 20257 30118 40123 83541 333 58014;
0155833980999992010032400004-15667-038950FM-12+000599999V0209999C000010450019N0010001N1+02981+02641101451ADDGF105991021011008001041001MA1999999101401MD1999999+0081REMSYN088AAXX  24004 83398 32594 50000 10298 20264 30140 40145 82140 333 1//// 29080 55079 58008;
0201833980999992010032412004-15667-038950FM-12+000599999V0209999C000010450019N0040001N1+02901+02581101611ADDAA124018091AY161061AY221061GF106991041051008001021001KA1240N+02361MA1999999101551MD1999999+0041MW1021REMSYN088AAXX  24124 83398 21596 60000 10290 20258 30155 40161 70262 84520 333 20236 58004 60184;
0182833980999992010032418004-15667-038950FM-12+000599999V0201401N003110450019N0040001N1+02941+02641101311ADDAA106002091AY161061AY221061GF106991041051008001021001MA1999999101261MD1999999+0081MW1021REMSYN082AAXX  24184 83398 21596 61406 10294 20264 30126 40131 70262 84520 333 58008 60021;
0200833980999992010032500004-15667-038950FM-12+000599999V0209999C000010450019N0010001N1+02881+02561101411ADDAA106002091AY161061AY221061GF105991031051008001021001MA1999999101361MD1999999-0041MW1021REMSYN100AAXX  25004 83398 21594 50000 10288 20256 30136 40141 70262 83520 333 1//// 29083 55042 59004 60021;
0201833980999992010032512004-15667-038950FM-12+000599999V0201401N002110450019N0040001N1+02801+02521101611ADDAA124019191AY191061AY261061GF106991041051008001021001KA1240N+02381MA1999999101551MD1999999+0001MW1021REMSYN088AAXX  25124 83398 21596 61404 10280 20252 30155 40161 70296 84520 333 20238 58000 60194;
0182833980999992010032518004-15667-038950FM-12+000599999V0201401N003110450019N0040001N1+02901+02581101351ADDAA106003091AY191061AY261061GF106991041071008001021001MA1999999101301MD1999999+0041MW1601REMSYN082AAXX  25184 83398 21596 61406 10290 20258 30130 40135 76096 84720 333 58004 60031;
0200833980999992010032600004-15667-038950FM-12+000599999V0209999C000010075019N0010001N1+02841+02541101531ADDAA106002091AY191061AY261061GF108991051051008001021999MA1999999101481MD1999999+0121MW1021REMSYN100AAXX  26004 83398 21594 80000 10284 20254 30148 40153 70296 8552/ 333 1//// 29084 55041 58012 60021;
0201833980999992010032612004-15667-038950FM-12+000599999V0200901N002110450019N0040001N1+02801+02541101661ADDAA124006191AY191061AY261061GF106991041051008001021001KA1240N+02381MA1999999101601MD1999999+0051MW1021REMSYN088AAXX  26124 83398 21596 60904 10280 20254 30160 40166 70296 84520 333 20238 58005 60064;
0182833980999992010032618004-15667-038950FM-12+000599999V0200901N002110450019N0040001N1+02921+02661101311ADDAA106002091AY161061AY221061GF106991041051008001021001MA1999999101261MD1999999-0041MW1021REMSYN082AAXX  26184 83398 21596 60904 10292 20266 30126 40131 70262 84520 333 59004 60021;
0155833980999992010032700004-15667-038950FM-12+000599999V0209999C000010450019N0010001N1+02821+02641101521ADDGF106991041051008001021001MA1999999101471MD1999999-0011REMSYN088AAXX  27004 83398 32594 60000 10282 20264 30147 40152 84520 333 1//// 29088 55046 59001;
0201833980999992010032712004-15667-038950FM-12+000599999V0200901N002110450019N0040001N1+02841+02581101521ADDAA124029091AY191061AY261061GF106991041051008001021001KA1240N+02381MA1999999101471MD1999999-0131MW1021REMSYN088AAXX  27124 83398 21596 60904 10284 20258 30147 40152 70296 84520 333 20238 59013 60294;
0182833980999992010032718004-15667-038950FM-12+000599999V0200901N002110450019N0040001N1+03001+02641101221ADDAA106001091AY161061AY221061GF106991041051008001021001MA1999999101171MD1999999-0091MW1021REMSYN082AAXX  27184 83398 21596 60904 10300 20264 30117 40122 70262 84520 333 59009 60011;
0200833980999992010032800004-15667-038950FM-12+000599999V0209999C000010450019N0010001N1+02961+02641101411ADDAA106001091AY161061AY221061GF105991031051008001021001MA1999999101361MD1999999-0011MW1021REMSYN100AAXX  28004 83398 21594 50000 10296 20264 30136 40141 70262 83520 333 1//// 29083 55077 59001 60011;
0201833980999992010032812004-15667-038950FM-12+000599999V0209999C000010075019N0040001N1+02741+02481101761ADDAA124050091AY191061AY261061GF108991051071008001021999KA1240N+02301MA1999999101701MD1999999+0231MW1631REMSYN088AAXX  28124 83398 21596 80000 10274 20248 30170 40176 76396 8572/ 333 20230 58023 60504;
0182833980999992010032818004-15667-038950FM-12+000599999V0209999C000010450019N0040001N1+02801+02481101341ADDAA106004191AY161061AY221061GF106991041051008001021001MA1999999101291MD1999999+0121MW1021REMSYN082AAXX  28184 83398 21596 60000 10280 20248 30129 40134 70262 84520 333 58012 60041;
0155833980999992010032900004-15667-038950FM-12+000599999V0209999C000010450019N0010001N1+02761+02501101391ADDGF106991041051008001021001MA1999999101341MD1999999-0021REMSYN088AAXX  29004 83398 32594 60000 10276 20250 30134 40139 84520 333 1//// 29085 55005 59002;
0201833980999992010032912004-15667-038950FM-12+000599999V0209999C000012200019N0040001N1+02741+02431101631ADDAA124010991AY161061AY221061GF103991021011008001041001KA1240N+02651MA1999999101571MD1999999-0131MW1021REMSYN088AAXX  29124 83398 21596 30000 10274 20243 30157 40163 70262 82140 333 20265 59013 60114;
0137833980999992010032918004-15667-038950FM-12+000599999V0200501N003112200019N0040001N1+02981+02621101241ADDGF102991011011008001041001MA1999999101191MD1999999-0101REMSYN070AAXX  29184 83398 32596 20506 10298 20262 30119 40124 81140 333 59010;
0155833980999992010033000004-15667-038950FM-12+000599999V0209999C000012200019N0010001N1+02981+02581101401ADDGF103991021011008001041001MA1999999101351MD1999999+0011REMSYN088AAXX  30004 83398 32594 30000 10298 20258 30135 40140 82140 333 1//// 29080 55092 58001;
0156833980999992010033012004-15667-038950FM-12+000599999V0209999C000012200019N0040001N1+02891+02551101451ADDGF104991021021008001041001KA1240N+02811MA1999999101401MD1999999-0171REMSYN076AAXX  30124 83398 32596 40000 10289 20255 30140 40145 82240 333 20281 59017;
0137833980999992010033018004-15667-038950FM-12+000599999V0200901N002112200019N0040001N1+03081+02541101131ADDGF102991011011008001041001MA1999999101081MD1999999-0111REMSYN070AAXX  30184 83398 32596 20904 10308 20254 30108 40113 81140 333 59011;
0155833980999992010033100004-15667-038950FM-12+000599999V0200901N002110450019N0010001N1+03041+02521101361ADDGF106991031011008001041001MA1999999101311MD1999999-0041REMSYN088AAXX  31004 83398 32594 60904 10304 20252 30131 40136 83140 333 1//// 29076 55081 59004;
0156833980999992010033112004-15667-038950FM-12+000599999V0209999C000010450019N0040001N1+02941+02561101271ADDGF106991031021008001041001KA1240N+02691MA1999999101221MD1999999-0181REMSYN076AAXX  31124 83398 32596 60000 10294 20256 30122 40127 83240 333 20269 59018;
0137833980999992010033118004-15667-038950FM-12+000599999V0200501N002112200019N0040001N1+03061+02401100951ADDGF102991011011008001041001MA1999999100901MD1999999-0181REMSYN070AAXX  31184 83398 32596 20504 10306 20240 30090 40095 81140 333 59018;
0155833980999992010040100004-15667-038950FM-12+000599999V0200501N003110450019N0010001N1+03081+02631101181ADDGF105991031011008001041001MA1999999101131MD1999999-0181REMSYN088AAXX  01004 83398 32594 50506 10308 20263 30113 40118 83140 333 1//// 29075 55088 59018;
0156833980999992010040112004-15667-038950FM-12+000599999V0209999C000010450019N0040001N1+03001+02571101261ADDGF106991031021008001041001KA1240N+02371MA1999999101211MD1999999-0011REMSYN076AAXX  01124 83398 32596 60000 10300 20257 30121 40126 83240 333 20237 59001;
0137833980999992010040118004-15667-038950FM-12+000599999V0200901N003110450019N0040001N1+03101+02511101031ADDGF106991031051008001021001MA1999999100981MD1999999+0081REMSYN070AAXX  01184 83398 32596 60906 10310 20251 30098 40103 83520 333 58008;
0155833980999992010040200004-15667-038950FM-12+000599999V0209999C000010450019N0010001N1+03041+02591101131ADDGF106991031051008001021001MA1999999101291MD1999999+0161REMSYN088AAXX  02004 83398 32594 60000 10304 20259 30129 40113 83520 333 1//// 29076 55066 58016;
0156833980999992010040212004-15667-038950FM-12+000599999V0201401N000510450019N0040001N1+02921+02561101301ADDGF107991041051008001021001KA1240N+02291MA1999999101251MD1999999+0041REMSYN076AAXX  02124 83398 32596 71401 10292 20256 30125 40130 84520 333 20229 58004;
0137833980999992010040218004-15667-038950FM-12+000599999V0200901N002110450019N0040001N1+03101+02541101081ADDGF107991041051008001021001MA1999999101031MD1999999+0051REMSYN070AAXX  02184 83398 32596 70904 10310 20254 30103 40108 84520 333 58005;
0155833980999992010040300004-15667-038950FM-12+000599999V0200901N002110450019N0010001N1+03001+02531101401ADDGF106991041051008001021001MA1999999101351MD1999999+0061REMSYN088AAXX  03004 83398 32594 60904 10300 20253 30135 40140 84520 333 1//// 29076 55057 58006;
0201833980999992010040312004-15667-038950FM-12+000599999V0209999C000010450019N0040001N1+02841+02501101561ADDAA124042991AY161061AY221061GF108991041051008001021001KA1240N+02311MA1999999101511MD1999999+0261MW1021REMSYN088AAXX  03124 83398 21596 80000 10284 20250 30151 40156 70262 84520 333 20231 58026 60434;
0137833980999992010040318004-15667-038950FM-12+000599999V0200501N002110450019N0010001N1+03021+02611101311ADDGF105991031051008001021001MA1999999101261MD1999999+0231REMSYN070AAXX  03184 83398 32594 50504 10302 20261 30126 40131 83520 333 58023;
0155833980999992010040400004-15667-038950FM-12+000599999V0200501N003112200019N0010001N1+02961+02561101411ADDGF103991021021008001041001MA1999999101361MD1999999+0011REMSYN088AAXX  04004 83398 32594 30506 10296 20256 30136 40141 82240 333 1//// 29080 55053 58001;
0201833980999992010040412004-15667-038950FM-12+000599999V0209999C000010450019N0040001N1+02781+02461101481ADDAA124020191AY161061AY221061GF107991041051008001021011KA1240N+02261MA1999999101431MD1999999-0081MW1021REMSYN088AAXX  04124 83398 21596 70000 10278 20246 30143 40148 70262 84521 333 20226 59008 60204;
0137833980999992010040418004-15667-038950FM-12+000599999V0200901N001010075019N0040001N1+02951+02571101221ADDGF108991051051008001021999MA1999999101171MD1999999-0091REMSYN070AAXX  04184 83398 32596 80902 10295 20257 30117 40122 8552/ 333 59009;
0155833980999992010040500004-15667-038950FM-12+000599999V0200901N002112200019N0010001N1+02881+02501101381ADDGF102991011051008001021001MA1999999101331MD1999999-0031REMSYN088AAXX  05004 83398 32594 20904 10288 20250 30133 40138 81520 333 1//// 29081 55028 59003;
0156833980999992010040512004-15667-038950FM-12+000599999V0209999C000010450019N0040001N1+02801+02481101341ADDGF106991031051008001041001KA1240N+02211MA1999999101291MD1999999-0141REMSYN076AAXX  05124 83398 32596 60000 10280 20248 30129 40134 83540 333 20221 59014;
0182833980999992010040518004-15667-038950FM-12+000599999V0203601N001010075019N0040001N1+02881+02561101061ADDAA106002091AY161061AY221061GF108991051051008001021999MA1999999101011MD1999999-0161MW1021REMSYN082AAXX  05184 83398 21596 83602 10288 20256 30101 40106 70262 8552/ 333 59016 60021;
0155833980999992010040600004-15667-038950FM-12+000599999V0209999C000012200019N0010001N1+02881+02501101191ADDGF104991021051008001021001MA1999999101141MD1999999-0191REMSYN088AAXX  06004 83398 32594 40000 10288 20250 30114 40119 82520 333 1//// 29081 55031 59019;
0173833980999992010040612004-15667-038950FM-12+000599999V0203601N002110450019N0040001N1+02841+02521101061ADDAA124002091GF106991031051008001041001KA1240N+02181MA1999999101011MD1999999-0281REMSYN082AAXX  06124 83398 22596 63604 10284 20252 30101 40106 83540 333 20218 59028 60024;
0137833980999992010040618004-15667-038950FM-12+000599999V0203601N003110450019N0040001N1+02981+02621100641ADDGF105991031021008001041001MA1999999100591MD1999999-0421REMSYN070AAXX  06184 83398 32596 53606 10298 20262 30059 40064 83240 333 59042;
0155833980999992010040700004-15667-038950FM-12+000599999V0203601N004110450019N0010001N1+02961+02561101331ADDGF106991031051008001041001MA1999999101281MD1999999+0141REMSYN088AAXX  07004 83398 32594 63608 10296 20256 30128 40133 83540 333 1//// 29080 55088 58014;
0201833980999992010040712004-15667-038950FM-12+000599999V0203201N003110075019N0040001N1+02841+02541100871ADDAA124003091AY161061AY221061GF108991051051008001021999KA1240N+02291MA1999999100821MD1999999-0191MW1021REMSYN088AAXX  07124 83398 21596 83206 10284 20254 30082 40087 70262 8552/ 333 20229 59019 60034;
0137833980999992010040718004-15667-038950FM-12+000599999V0200901N004110075019N0040001N1+03001+02571100511ADDGF108991051051008001021999MA1999999100461MD1999999-0131REMSYN070AAXX  07184 83398 32596 80908 10300 20257 30046 40051 8552/ 333 59013;
0200833980999992010040800004-15667-038950FM-12+000599999V0209999C000010450019N0010001N1+02801+02361100961ADDAA106007991AY161061AY221061GF108991041051008001021999MA1999999100911MD1999999-0131MW1021REMSYN100AAXX  08004 83398 21594 80000 10280 20236 30091 40096 70262 8452/ 333 1//// 29079 55032 59013 60081;
0173833980999992010040812004-15667-038950FM-12+000599999V0201401N001010450019N0040001N1+02741+02451101171ADDAA124007991GF107991041051008001021001KA1240N+02091MA1999999101121MD1999999+0301REMSYN082AAXX  08124 83398 22596 71402 10274 20245 30112 40117 84520 333 20209 58030 60084;
0137833980999992010040818004-15667-038950FM-12+000599999V0200901N002110450019N0040001N1+02801+02311100971ADDGF108991041051008001021001MA1999999100921MD1999999+0461REMSYN070AAXX  08184 83398 32596 80904 10280 20231 30092 40097 84520 333 58046;
0155833980999992010040900004-15667-038950FM-12+000599999V0200901N002110450019N0010001N1+02741+02301101371ADDGF106991031051008001021001MA1999999101321MD1999999+0411REMSYN088AAXX  09004 83398 32594 60904 10274 20230 30132 40137 83520 333 1//// 29078 55016 58041;
0156833980999992010040912004-15667-038950FM-12+000599999V0201401N001010450019N0040001N1+02661+02291101591ADDGF107991041051008001041001KA1240N+01951MA1999999101541MD1999999+0421REMSYN076AAXX  09124 83398 32596 71402 10266 20229 30154 40159 84540 333 20195 58042;
0137833980999992010040918004-15667-038950FM-12+000599999V0201401N004110075019N0040001N1+02761+02191101381ADDGF108991051051008001021999MA1999999101331MD1999999+0411REMSYN070AAXX  09184 83398 32596 81408 10276 20219 30133 40138 8552/ 333 58041;
0155833980999992010041000004-15667-038950FM-12+000599999V0201401N001010450019N0010001N1+02701+02221101691ADDGF108991041051008001021999MA1999999101631MD1999999+0311REMSYN088AAXX  10004 83398 32594 81402 10270 20222 30163 40169 8452/ 333 1//// 29075 55048 58031;
0156833980999992010041012004-15667-038950FM-12+000599999V0201401N001010075019N0040001N1+02581+02211101661ADDGF108991051051008001021999KA1240N+01981MA1999999101601MD1999999+0061REMSYN076AAXX  10124 83398 32596 81402 10258 20221 30160 40166 8552/ 333 20198 58006;
0137833980999992010041018004-15667-038950FM-12+000599999V0201801N003110075019N0040001N1+02741+02211101381ADDGF108991051051008001021001MA1999999101331MD1999999+0001REMSYN070AAXX  10184 83398 32596 81806 10274 20221 30133 40138 85520 333 58000;
0156833980999992010041112004-15667-038950FM-12+000599999V0201801N002110450019N0040001N1+02621+02211101561ADDGF105991031021008001041001KA1240N+01951MA1999999101511MD1999999-0091REMSYN076AAXX  11124 83398 32596 51804 10262 20221 30151 40156 83240 333 20195 59009;
0137833980999992010041118004-15667-038950FM-12+000599999V0201401N003110450019N0040001N1+02821+02151101261ADDGF107991041051008001021001MA1999999101211MD1999999-0121REMSYN070AAXX  11184 83398 32596 71406 10282 20215 30121 40126 84520 333 59012;
0155833980999992010041200004-15667-038950FM-12+000599999V0201401N001010450019N0010001N1+02701+02221101551ADDGF108991041051008001021999MA1999999101501MD1999999-0191REMSYN088AAXX  12004 83398 32594 81402 10270 20222 30150 40155 8452/ 333 1//// 29074 55070 59019;
0156833980999992010041212004-15667-038950FM-12+000599999V0201401N003110075019N0040001N1+02511+02301101631ADDGF108991051051008001021001KA1240N+01911MA1999999101571MD1999999+0061REMSYN076AAXX  12124 83398 32596 81406 10251 20230 30157 40163 85520 333 20191 58006;
0137833980999992010041218004-15667-038950FM-12+000599999V0201401N003110450019N0040001N1+02821+02311101351ADDGF106991031021008001041001MA1999999101301MD1999999+0091REMSYN070AAXX  12184 83398 32596 61406 10282 20231 30130 40135 83240 333 58009;
0155833980999992010041300004-15667-038950FM-12+000599999V0201401N002110450019N0010001N1+02621+02351101561ADDGF106991031051008001021001MA1999999101511MD1999999+0011REMSYN088AAXX  13004 83398 32594 61404 10262 20235 30151 40156 83520 333 1//// 29083 55062 58001;
0156833980999992010041312004-15667-038950FM-12+000599999V0201801N003110075019N0040001N1+02681+02431101741ADDGF108991051051008001021999KA1240N+01981MA1999999101681MD1999999+0111REMSYN076AAXX  13124 83398 32596 81806 10268 20243 30168 40174 8552/ 333 20198 58011;
0182833980999992010041318004-15667-038950FM-12+000599999V0201401N003110450019N0040001N1+02841+02501101451ADDAA106004191AY161061AY221061GF106991031051008001041001MA1999999101401MD1999999+0101MW1021REMSYN082AAXX  13184 83398 21596 61406 10284 20250 30140 40145 70262 83540 333 58010 60041;
0200833980999992010041400004-15667-038950FM-12+000599999V0209999C000010450019N0010001N1+02761+02481101751ADDAA106001091AY161061AY221061GF106991031051008001021001MA1999999101691MD1999999+0181MW1021REMSYN100AAXX  14004 83398 21594 60000 10276 20248 30169 40175 70262 83520 333 1//// 29084 55065 58018 60011;
0160833980999992010041412004-15667-038950FM-12+000599999V0200901N004110450019N0040001N1+02761+02301101831ADDAA124006191GF105991031021008001041001MA1999999101771MD1999999+0091REMSYN082AAXX  14124 83398 22596 50908 10276 20230 30177 40183 83240 333 2//// 58009 60064;
0137833980999992010041418004-15667-038950FM-12+000599999V0201801N004110450019N0040001N1+02961+02381101531ADDGF105991031021008001041001MA1999999101481MD1999999+0081REMSYN070AAXX  14184 83398 32596 51808 10296 20238 30148 40153 83240 333 58008;
0155833980999992010041500004-15667-038950FM-12+000599999V0201801N002112200019N0010001N1+02781+02421101731ADDGF104991021021008001041001MA1999999101671MD1999999-0021REMSYN088AAXX  15004 83398 32594 41804 10278 20242 30167 40173 82240 333 1//// 29077 55085 59002;
0143833980999992010041512004-15667-038950FM-12+000599999V0201801N003110075019N0040001N1+02701+02411101591ADDGF108991051051008001021999MA1999999101541MD1999999-0231REMSYN076AAXX  15124 83398 32596 81806 10270 20241 30154 40159 8552/ 333 2//// 59023;
0182833980999992010041518004-15667-038950FM-12+000599999V0201801N004110075019N0040001N1+02821+02541101271ADDAA106005191AY161061AY221061GF108991051051008001021999MA1999999101221MD1999999-0261MW1021REMSYN082AAXX  15184 83398 21596 81808 10282 20254 30122 40127 70262 8552/ 333 59026 60051;
0200833980999992010041600004-15667-038950FM-12+000599999V0201801N002110450019N0010001N1+02741+02431101531ADDAA106003091AY161061AY221061GF108991041051008001021999MA1999999101481MD1999999-0191MW1021REMSYN100AAXX  16004 83398 21594 81804 10274 20243 30148 40153 70262 8452/ 333 1//// 29084 55029 59019 60031;
0188833980999992010041612004-15667-038950FM-12+000599999V0209999C000010075019N0040001N1+02601+02371101581ADDAA124025991AY161061AY221061GF108991051071008001021999MA1999999101531MD1999999-0011MW1611REMSYN088AAXX  16124 83398 21596 80000 10260 20237 30153 40158 76162 8572/ 333 2//// 59001 60264;
0182833980999992010041618004-15667-038950FM-12+000599999V0200901N003110450019N0040001N1+02641+02461101281ADDAA106039191AY161061AY221061GF107991041051008001021001MA1999999101231MD1999999-0011MW1021REMSYN082AAXX  16184 83398 21596 70906 10264 20246 30123 40128 70262 84520 333 59001 60391;
0155833980999992010041700004-15667-038950FM-12+000599999V0209999C000010450019N0010001N1+02661+02411101481ADDGF105991031051008001021001MA1999999101431MD1999999-0051REMSYN088AAXX  17004 83398 32594 50000 10266 20241 30143 40148 83520 333 1//// 29087 55003 59005;
0188833980999992010041712004-15667-038950FM-12+000599999V0209999C000010450019N0040001N1+02641+02501101641ADDAA124041991AY161061AY221061GF107991031051008001041001MA1999999101581MD1999999+0051MW1021REMSYN088AAXX  17124 83398 21596 70000 10264 20250 30158 40164 70262 83540 333 2//// 58005 60424;
0137833980999992010041718004-15667-038950FM-12+000599999V0201401N003110450019N0040001N1+02801+02561101421ADDGF105991031021008001041001MA1999999101371MD1999999+0141REMSYN070AAXX  17184 83398 32596 51406 10280 20256 30137 40142 83240 333 58014;
0155833980999992010041800004-15667-038950FM-12+000599999V0201401N001012200019N0010001N1+02781+02521101711ADDGF104991021021008001041011MA1999999101651MD1999999+0221REMSYN088AAXX  18004 83398 32594 41402 10278 20252 30165 40171 82241 333 1//// 29088 55052 58022;
0143833980999992010041812004-15667-038950FM-12+000599999V0209999C000010450019N0040001N1+02721+02501101791ADDGF107991041051008001021001MA1999999101731MD1999999+0151REMSYN076AAXX  18124 83398 32596 70000 10272 20250 30173 40179 84520 333 2//// 58015;
0137833980999992010041818004-15667-038950FM-12+000599999V0201401N002112200019N0040001N1+02901+02521101561ADDGF103991011021008001041011MA1999999101511MD1999999+0141REMSYN070AAXX  18184 83398 32596 31404 10290 20252 30151 40156 81241 333 58014;
0155833980999992010041900004-15667-038950FM-12+000599999V0209999C000012200019N0010001N1+02841+02501101721ADDGF104991021021008001041001MA1999999101661MD1999999+0011REMSYN088AAXX  19004 83398 32594 40000 10284 20250 30166 40172 82240 333 1//// 29083 55082 58001;
0143833980999992010041912004-15667-038950FM-12+000599999V0203601N001010450019N0040001N1+02781+02521101771ADDGF105991031051008001021001MA1999999101711MD1999999-0021REMSYN076AAXX  19124 83398 32596 53602 10278 20252 30171 40177 83520 333 2//// 59002;
0137833980999992010041918004-15667-038950FM-12+000599999V0201401N003110450019N0010001N1+02901+02561101471ADDGF105991031051008001021001MA1999999101421MD1999999-0091REMSYN070AAXX  19184 83398 32594 51406 10290 20256 30142 40147 83520 333 59009;
0155833980999992010042000004-15667-038950FM-12+000599999V0209999C000012200019N0010001N1+02841+02501101631ADDGF104991041051008001001001MA1999999101571MD1999999-0091REMSYN088AAXX  20004 83398 32594 40000 10284 20250 30157 40163 84500 333 1//// 29083 55076 59009;
0143833980999992010042012004-15667-038950FM-12+000599999V0201801N003110450019N0040001N1+02721+02471101531ADDGF105991031051008001021001MA1999999101481MD1999999-0231REMSYN076AAXX  20124 83398 32596 51806 10272 20247 30148 40153 83520 333 2//// 59023;
0137833980999992010042018004-15667-038950FM-12+000599999V0201401N003110450019N0040001N1+02881+02621101241ADDGF106991041051008001021001MA1999999101191MD1999999-0231REMSYN070AAXX  20184 83398 32596 61406 10288 20262 30119 40124 84520 333 59023;
0155833980999992010042100004-15667-038950FM-12+000599999V0209999C000010450019N0010001N1+02861+02521101531ADDGF106991041051008001021001MA1999999101481MD1999999-0091REMSYN088AAXX  21004 83398 32594 60000 10286 20252 30148 40153 84520 333 1//// 29084 55060 59009;
0188833980999992010042112004-15667-038950FM-12+000599999V0209999C000010075019N0040001N1+02701+02451101571ADDAA124003091AY161061AY221061GF108991051051008001021999MA1999999101521MD1999999+0041MW1021REMSYN088AAXX  21124 83398 21596 80000 10270 20245 30152 40157 70262 8552/ 333 2//// 58004 60034;
0137833980999992010042118004-15667-038950FM-12+000599999V0201401N003110450019N0040001N1+02901+02581101241ADDGF105991031051008001021001MA1999999101191MD1999999+0001REMSYN070AAXX  21184 83398 32596 51406 10290 20258 30119 40124 83520 333 58000;
0155833980999992010042200004-15667-038950FM-12+000599999V0209999C000012200019N0010001N1+02881+02581101531ADDGF103991031051008001001001MA1999999101481MD1999999+0001REMSYN088AAXX  22004 83398 32594 30000 10288 20258 30148 40153 83500 333 1//// 29084 55030 58000;
0143833980999992010042212004-15667-038950FM-12+000599999V0209999C000010450019N0040001N1+02801+02521101641ADDGF106991041051008001021001MA1999999101581MD1999999+0061REMSYN076AAXX  22124 83398 32596 60000 10280 20252 30158 40164 84520 333 2//// 58006;
0137833980999992010042218004-15667-038950FM-12+000599999V0200901N003110450019N0040001N1+02981+02601101231ADDGF105991031021008001041001MA1999999101181MD1999999-0011REMSYN070AAXX  22184 83398 32596 50906 10298 20260 30118 40123 83240 333 59001;
0155833980999992010042300004-15667-038950FM-12+000599999V0209999C000012200019N0010001N1+02921+02661101491ADDGF103991031011008001001001MA1999999101441MD1999999-0041REMSYN088AAXX  23004 83398 32594 30000 10292 20266 30144 40149 83100 333 1//// 29084 55087 59004;
0143833980999992010042312004-15667-038950FM-12+000599999V0209999C000012200019N0040001N1+02841+02581101631ADDGF104991031021008001041001MA1999999101571MD1999999-0011REMSYN076AAXX  23124 83398 32596 40000 10284 20258 30157 40163 83240 333 2//// 59001;
0137833980999992010042318004-15667-038950FM-12+000599999V0200501N003110450019N0040001N1+02981+02551101281ADDGF106991031021008001041011MA1999999101231MD1999999+0051REMSYN070AAXX  23184 83398 32596 60506 10298 20255 30123 40128 83241 333 58005;
0155833980999992010042400004-15667-038950FM-12+000599999V0200501N002112200019N0010001N1+02941+02561101511ADDGF102991021011008001001001MA1999999101461MD1999999+0021REMSYN088AAXX  24004 83398 32594 20504 10294 20256 30146 40151 82100 333 1//// 29081 55083 58002;
0143833980999992010042412004-15667-038950FM-12+000599999V0202701N002110075019N0040001N1+02881+02581101741ADDGF105991051051008001001001MA1999999101691MD1999999+0121REMSYN076AAXX  24124 83398 32596 52704 10288 20258 30169 40174 85500 333 2//// 58012;
0137833980999992010042418004-15667-038950FM-12+000599999V0200901N003110450019N0040001N1+03001+02621101431ADDGF105991031051008001041001MA1999999101381MD1999999+0151REMSYN070AAXX  24184 83398 32596 50906 10300 20262 30138 40143 83540 333 58015;
0155833980999992010042500004-15667-038950FM-12+000599999V0209999C000010075019N0010001N1+02861+02561101721ADDGF105991051051008001001001MA1999999101661MD1999999+0201REMSYN088AAXX  25004 83398 32594 50000 10286 20256 30166 40172 85500 333 1//// 29083 55085 58020;
0143833980999992010042512004-15667-038950FM-12+000599999V0200501N002110450019N0040001N1+02881+02561101751ADDGF105991031051008001021001MA1999999101691MD1999999+0001REMSYN076AAXX  25124 83398 32596 50504 10288 20256 30169 40175 83520 333 2//// 58000;
0137833980999992010042518004-15667-038950FM-12+000599999V0200901N003110450019N0040001N1+03061+02651101431ADDGF105991031051008001021001MA1999999101381MD1999999+0001REMSYN070AAXX  25184 83398 32596 50906 10306 20265 30138 40143 83520 333 58000;
0200833980999992010042600004-15667-038950FM-12+000599999V0209999C000010075019N0010001N1+02961+02641101621ADDAA106002091AY161061AY221061GF107991051051008001021001MA1999999101561MD1999999+0001MW1021REMSYN100AAXX  26004 83398 21594 70000 10296 20264 30156 40162 70262 85520 333 1//// 29082 55079 58000 60021;
0188833980999992010042612004-15667-038950FM-12+000599999V0201401N002110075019N0040001N1+02821+02561101721ADDAA124021191AY161061AY221061GF107991051051008001021001MA1999999101661MD1999999-0031MW1021REMSYN088AAXX  26124 83398 21596 71404 10282 20256 30166 40172 70262 85520 333 2//// 59003 60214;
0137833980999992010042618004-15667-038950FM-12+000599999V0200901N002112200019N0040001N1+02981+02581101351ADDGF104991041021008001001001MA1999999101301MD1999999-0081REMSYN070AAXX  26184 83398 32596 40904 10298 20258 30130 40135 84200 333 59008;
0155833980999992010042700004-15667-038950FM-12+000599999V0200901N002110075019N0010001N1+02921+02581101621ADDGF105991051051008001001001MA1999999101561MD1999999+0001REMSYN088AAXX  27004 83398 32594 50904 10292 20258 30156 40162 85500 333 1//// 29082 55071 58000;
0188833980999992010042712004-15667-038950FM-12+000599999V0201801N002110450019N0040001N1+02841+02541101721ADDAA124009991AY161061AY221061GF105991041051008001021001MA1999999101661MD1999999+0001MW1021REMSYN088AAXX  27124 83398 21596 51804 10284 20254 30166 40172 70262 84520 333 2//// 58000 60104;
0137833980999992010042718004-15667-038950FM-12+000599999V0200901N003110450019N0040001N1+02981+02551101371ADDGF106991031051008001041011MA1999999101321MD1999999+0021REMSYN070AAXX  27184 83398 32596 60906 10298 20255 30132 40137 83541 333 58002;
0155833980999992010042800004-15667-038950FM-12+000599999V0209999C000012200019N0010001N1+02921+02661101591ADDGF104991041051008001001001MA1999999101541MD1999999-0021REMSYN088AAXX  28004 83398 32594 40000 10292 20266 30154 40159 84500 333 1//// 29084 55068 59002;
0143833980999992010042812004-15667-038950FM-12+000599999V0200901N001010450019N0040001N1+02841+02541101641ADDGF105991031051008001041001MA1999999101581MD1999999-0081REMSYN076AAXX  28124 83398 32596 50902 10284 20254 30158 40164 83540 333 2//// 59008;
0137833980999992010042818004-15667-038950FM-12+000599999V0201401N003110450019N0040001N1+02981+02581101351ADDGF105991031051008001041001MA1999999101301MD1999999-0021REMSYN070AAXX  28184 83398 32596 51406 10298 20258 30130 40135 83540 333 59002;
0155833980999992010042900004-15667-038950FM-12+000599999V0209999C000010075019N0010001N1+02961+02641101611ADDGF105991051051008001001001MA1999999101551MD1999999+0011REMSYN088AAXX  29004 83398 32594 50000 10296 20264 30155 40161 85500 333 1//// 29082 55085 58001;
0143833980999992010042912004-15667-038950FM-12+000599999V0201401N002110075019N0040001N1+02781+02501101751ADDGF107991051051008001021001MA1999999101691MD1999999+0111REMSYN076AAXX  29124 83398 32596 71404 10278 20250 30169 40175 85520 333 2//// 58011;
0137833980999992010042918004-15667-038950FM-12+000599999V0200901N003110450019N0040001N1+02861+02501101361ADDGF105991031051008001041001MA1999999101311MD1999999+0011REMSYN070AAXX  29184 83398 32596 50906 10286 20250 30131 40136 83540 333 58001;
0155833980999992010043000004-15667-038950FM-12+000599999V0209999C000012200019N0010001N1+02821+02561101571ADDGF103991031021008001001001MA1999999101521MD1999999-0031REMSYN088AAXX  30004 83398 32594 30000 10282 20256 30152 40157 83200 333 1//// 29085 55025 59003;
0143833980999992010043012004-15667-038950FM-12+000599999V0201801N002110450019N0040001N1+02761+02481101581ADDGF105991021021008001041001MA1999999101531MD1999999-0161REMSYN076AAXX  30124 83398 32596 51804 10276 20248 30153 40158 82240 333 2//// 59016;
0137833980999992010043018004-15667-038950FM-12+000599999V0200901N003110075019N0040001N1+02881+02521101361ADDGF105991051051008001001001MA1999999101311MD1999999+0001REMSYN070AAXX  30184 83398 32596 50906 10288 20252 30131 40136 85500 333 58000;
0155833980999992010050100004-15667-038950FM-12+000599999V0209999C000012200019N0010001N1+02841+02541101591ADDGF104991041051008001001001MA1999999101541MD1999999+0021REMSYN088AAXX  01004 83398 32594 40000 10284 20254 30154 40159 84500 333 1//// 29084 55070 58002;
0188833980999992010050112004-15667-038950FM-12+000599999V0209999C000010450019N0040001N1+02701+02521101621ADDAA124003091AY161061AY221061GF106991041051008001021001MA1999999101561MD1999999+0031MW1021REMSYN088AAXX  01124 83398 21596 60000 10270 20252 30156 40162 70262 84520 333 2//// 58003 60034;
0137833980999992010050118004-15667-038950FM-12+000599999V0200901N002110450019N0040001N1+02801+02541101321ADDGF106991041051008001021001MA1999999101271MD1999999-0041REMSYN070AAXX  01184 83398 32596 60904 10280 20254 30127 40132 84520 333 59004;
0200833980999992010050200004-15667-038950FM-12+000599999V0209999C000010450019N0010001N1+02761+02541101581ADDAA106002091AY161061AY221061GF106991041051008001021001MA1999999101531MD1999999-0011MW1021REMSYN100AAXX  02004 83398 21594 60000 10276 20254 30153 40158 70262 84520 333 1//// 29088 55038 59001 60021;
0188833980999992010050212004-15667-038950FM-12+000599999V0209999C000010075019N0040001N1+02661+02411101791ADDAA124005191AY161061AY221061GF107991051051008001021001MA1999999101731MD1999999-0171MW1021REMSYN088AAXX  02124 83398 21596 70000 10266 20241 30173 40179 70262 85520 333 2//// 59017 60054;
0137833980999992010050218004-15667-038950FM-12+000599999V0200901N003110450019N0040001N1+02801+02481101571ADDGF105991031021008001041001MA1999999101521MD1999999+0251REMSYN070AAXX  02184 83398 32596 50906 10280 20248 30152 40157 83240 333 58025;
0155833980999992010050300004-15667-038950FM-12+000599999V0209999C000012200019N0010001N1+02761+02481101921ADDGF103991031051008001001001MA1999999101851MD1999999+0321REMSYN088AAXX  03004 83398 32594 30000 10276 20248 30185 40192 83500 333 1//// 29085 55074 58032;
0143833980999992010050312004-15667-038950FM-12+000599999V0200901N003110450019N0040001N1+02781+02461101941ADDGF105991031051008001021001MA1999999101881MD1999999+0151REMSYN076AAXX  03124 83398 32596 50906 10278 20246 30188 40194 83520 333 2//// 58015;
0137833980999992010050318004-15667-038950FM-12+000599999V0201401N003110450019N0040001N1+02861+02311101661ADDGF105991031021008001041001MA1999999101601MD1999999+0081REMSYN070AAXX  03184 83398 32596 51406 10286 20231 30160 40166 83240 333 58008;
0155833980999992010050400004-15667-038950FM-12+000599999V0209999C000012200019N0010001N1+02781+02361101771ADDGF104991041051008001001001MA1999999101711MD1999999-0141REMSYN088AAXX  04004 83398 32594 40000 10278 20236 30171 40177 84500 333 1//// 29078 55083 59014;
0143833980999992010050412004-15667-038950FM-12+000599999V0201801N002110075019N0040001N1+02581+02121101841ADDGF107991051051008001021001MA1999999101781MD1999999-0101REMSYN076AAXX  04124 83398 32596 71804 10258 20212 30178 40184 85520 333 2//// 59010;
0137833980999992010050418004-15667-038950FM-12+000599999V0201401N003110450019N0040001N1+02761+02441101461ADDGF105991031051008001021001MA1999999101411MD1999999-0191REMSYN070AAXX  04184 83398 32596 51406 10276 20244 30141 40146 83520 333 59019;
0155833980999992010050500004-15667-038950FM-12+000599999V0209999C000010450019N0010001N1+02741+02451101591ADDGF105991031051008001021001MA1999999101541MD1999999-0171REMSYN088AAXX  05004 83398 32594 50000 10274 20245 30154 40159 83520 333 1//// 29082 55050 59017;
0143833980999992010050512004-15667-038950FM-12+000599999V0201801N002111050019N0040001N1+02661+02411101511ADDGF105991021051008001041011MA1999999101461MD1999999-0321REMSYN076AAXX  05124 83398 32596 51804 10266 20241 30146 40151 82541 333 2//// 59032;
0137833980999992010050518004-15667-038950FM-12+000599999V0201401N003110450019N0040001N1+02861+02521101331ADDGF106991031051008001041011MA1999999101281MD1999999-0131REMSYN070AAXX  05184 83398 32596 61406 10286 20252 30128 40133 83541 333 59013;
0143833980999992010050612004-15667-038950FM-12+000599999V0201401N002110450019N0040001N1+02761+02481101651ADDGF106991041051008001021001MA1999999101591MD1999999+0131REMSYN076AAXX  06124 83398 32596 61404 10276 20248 30159 40165 84520 333 2//// 58013;
0137833980999992010050618004-15667-038950FM-12+000599999V0200901N003110450019N0040001N1+02901+02621101391ADDGF106991031051008001041011MA1999999101341MD1999999+0061REMSYN070AAXX  06184 83398 32596 60906 10290 20262 30134 40139 83541 333 58006;
0155833980999992010050700004-15667-038950FM-12+000599999V0209999C000010075019N0010001N1+02861+02641101691ADDGF107991051051008001021001MA1999999101631MD1999999+0151REMSYN088AAXX  07004 83398 32594 70000 10286 20264 30163 40169 85520 333 1//// 29087 55037 58015;
0188833980999992010050712004-15667-038950FM-12+000599999V0209999C000010450019N0040001N1+02681+02481101801ADDAA124024991AY161061AY221061GF108991041071008001021999MA1999999101741MD1999999+0111MW1601REMSYN088AAXX  07124 83398 21596 80000 10268 20248 30174 40180 76062 8472/ 333 2//// 58011 60254;
0182833980999992010050718004-15667-038950FM-12+000599999V0200901N002110450019N0040001N1+02821+02561101421ADDAA106002091AY161061AY221061GF106991041051008001021001MA1999999101371MD1999999+0031MW1021REMSYN082AAXX  07184 83398 21596 60904 10282 20256 30137 40142 70262 84520 333 58003 60021;
0155833980999992010050800004-15667-038950FM-12+000599999V0200901N002110450019N0010001N1+02801+02601101641ADDGF105991031051008001021001MA1999999101581MD1999999-0051REMSYN088AAXX  08004 83398 32594 50904 10280 20260 30158 40164 83520 333 1//// 29088 55027 59005;
0188833980999992010050812004-15667-038950FM-12+000599999V0200901N002110450019N0040001N1+02701+02481101651ADDAA124006191AY161061AY221061GF106991041051008001021001MA1999999101591MD1999999-0151MW1021REMSYN088AAXX  08124 83398 21596 60904 10270 20248 30159 40165 70262 84520 333 2//// 59015 60064;
0137833980999992010050818004-15667-038950FM-12+000599999V0200901N003110450019N0040001N1+02861+02541101321ADDGF106991041051008001021001MA1999999101271MD1999999-0101REMSYN070AAXX  08184 83398 32596 60906 10286 20254 30127 40132 84520 333 59010;
0155833980999992010050900004-15667-038950FM-12+000599999V0209999C000010450019N0010001N1+02841+02581101531ADDGF106991041051008001021001MA1999999101481MD1999999-0101REMSYN088AAXX  09004 83398 32594 60000 10284 20258 30148 40153 84520 333 1//// 29086 55047 59010;
0143833980999992010050912004-15667-038950FM-12+000599999V0202701N002110450019N0040001N1+02781+02521101531ADDGF105991021051008001041001MA1999999101481MD1999999-0111REMSYN076AAXX  09124 83398 32596 52704 10278 20252 30148 40153 82540 333 2//// 59011;
0137833980999992010050918004-15667-038950FM-12+000599999V0200901N003110450019N0040001N1+02901+02521101221ADDGF106991041051008001021001MA1999999101171MD1999999-0101REMSYN070AAXX  09184 83398 32596 60906 10290 20252 30117 40122 84520 333 59010;
0155833980999992010051000004-15667-038950FM-12+000599999V0200901N002110450019N0010001N1+02841+02521101331ADDGF105991031051008001021001MA1999999101281MD1999999-0201REMSYN088AAXX  10004 83398 32594 50904 10284 20252 30128 40133 83520 333 1//// 29083 55074 59020;
0143833980999992010051012004-15667-038950FM-12+000599999V0202701N002110450019N0040001N1+02801+02661101361ADDGF105991021051008001041001MA1999999101311MD1999999-0171REMSYN076AAXX  10124 83398 32596 52704 10280 20266 30131 40136 82540 333 2//// 59017;
0137833980999992010051018004-15667-038950FM-12+000599999V0200901N003110450019N0040001N1+02881+02561101061ADDGF106991041051008001021001MA1999999101011MD1999999-0161REMSYN070AAXX  10184 83398 32596 60906 10288 20256 30101 40106 84520 333 59016;
0200833980999992010051100004-15667-038950FM-12+000599999V0201801N003110075019N0010001N1+02781+02601101441ADDAA106004191AY161061AY221061GF108991051051008001021999MA1999999101391MD1999999+0111MW1021REMSYN100AAXX  11004 83398 21594 81806 10278 20260 30139 40144 70262 8552/ 333 1//// 29088 55059 58011 60041;
0188833980999992010051112004-15667-038950FM-12+000599999V0201401N002110450019N0040001N1+02661+02461101521ADDAA124006191AY161061AY221061GF106991041051008001021001MA1999999101471MD1999999+0061MW1021REMSYN088AAXX  11124 83398 21596 61404 10266 20246 30147 40152 70262 84520 333 2//// 58006 60064;
0155833980999992010051200004-15667-038950FM-12+000599999V0201801N003110450019N0010001N1+02681+02581101541ADDGF106991041051008001021001MA1999999101491MD1999999+0101REMSYN088AAXX  12004 83398 32594 61806 10268 20258 30149 40154 84520 333 1//// 29092 55008 58010;
0160833980999992010051212004-15667-038950FM-12+000599999V0201801N002110450019N0040001N1+02701+02521101471ADDAA124002091GF105991031051008001021001MA1999999101421MD1999999-0051REMSYN082AAXX  12124 83398 22596 51804 10270 20252 30142 40147 83520 333 2//// 59005 60024;
0137833980999992010051218004-15667-038950FM-12+000599999V0200901N003110450019N0040001N1+02861+02541101141ADDGF105991041051008001021001MA1999999101091MD1999999-0121REMSYN070AAXX  12184 83398 32596 50906 10286 20254 30109 40114 84520 333 59012;
0155833980999992010051300004-15667-038950FM-12+000599999V0201801N002110450019N0010001N1+02801+02561101431ADDGF105991031051008001021001MA1999999101131MD1999999-0111REMSYN088AAXX  13004 83398 32594 51804 10280 20256 30113 40143 83520 333 1//// 29087 55068 59011;
0143833980999992010051312004-15667-038950FM-12+000599999V0201801N002110450019N0040001N1+02701+02521101511ADDGF106991041051008001021001MA1999999101461MD1999999+0041REMSYN076AAXX  13124 83398 32596 61804 10270 20252 30146 40151 84520 333 2//// 58004;
0137833980999992010051318004-15667-038950FM-12+000599999V0203601N003110450019N0040001N1+02901+02561101251ADDGF105991031051008001041001MA1999999101201MD1999999+0111REMSYN070AAXX  13184 83398 32596 53606 10290 20256 30120 40125 83540 333 58011;
0155833980999992010051400004-15667-038950FM-12+000599999V0209999C000010450019N0010001N1+02861+02641101471ADDGF106991041051008001021001MA1999999101421MD1999999+0041REMSYN088AAXX  14004 83398 32594 60000 10286 20264 30142 40147 84520 333 1//// 29087 55050 58004;
0143833980999992010051412004-15667-038950FM-12+000599999V0202701N002110450019N0040001N1+02841+02601101671ADDGF106991041051008001021001MA1999999101611MD1999999+0151REMSYN076AAXX  14124 83398 32596 62704 10284 20260 30161 40167 84520 333 2//// 58015;
0137833980999992010051418004-15667-038950FM-12+000599999V0201401N003110450019N0040001N1+02921+02621101441ADDGF106991041051008001021001MA1999999101391MD1999999+0191REMSYN070AAXX  14184 83398 32596 61406 10292 20262 30139 40144 84520 333 58019;
0155833980999992010051500004-15667-038950FM-12+000599999V0209999C000010075019N0010001N1+02841+02641101731ADDGF108991051051008001021999MA1999999101671MD1999999+0251REMSYN088AAXX  15004 83398 32594 80000 10284 20264 30167 40173 8552/ 333 1//// 29087 55076 58025;
0188833980999992010051512004-15667-038950FM-12+000599999V0201401N002110450019N0040001N1+02701+02521101871ADDAA124004191AY161061AY221061GF108991041071008001021999MA1999999101811MD1999999+0201MW1601REMSYN088AAXX  15124 83398 21596 81404 10270 20252 30181 40187 76062 8472/ 333 2//// 58020 60044;
0182833980999992010051518004-15667-038950FM-12+000599999V0201401N003110075019N0040001N1+02761+02581101541ADDAA106009991AY161061AY221061GF107991051051008001021001MA1999999101491MD1999999+0101MW1021REMSYN082AAXX  15184 83398 21596 71406 10276 20258 30149 40154 70262 85520 333 58010 60101;
0155833980999992010051600004-15667-038950FM-12+000599999V0209999C000010450019N0010001N1+02701+02521101741ADDGF106991041051008001021001MA1999999101681MD1999999+0011REMSYN088AAXX  16004 83398 32594 60000 10270 20252 30168 40174 84520 333 1//// 29090 55014 58001;
0160833980999992010051612004-15667-038950FM-12+000599999V0209999C000010075019N0040001N1+02601+02421101741ADDAA124009991GF107991051051008001021001MA1999999101681MD1999999-0131REMSYN082AAXX  16124 83398 22596 70000 10260 20242 30168 40174 85520 333 2//// 59013 60104;
0137833980999992010051618004-15667-038950FM-12+000599999V0201401N002112200019N0040001N1+02801+02311101401ADDGF102991011051008001021001MA1999999101351MD1999999-0141REMSYN070AAXX  16184 83398 32596 21404 10280 20231 30135 40140 81520 333 59014;
0155833980999992010051700004-15667-038950FM-12+000599999V0209999C000012200019N0010001N1+02701+02561101591ADDGF103991031011008001001001MA1999999101541MD1999999-0141REMSYN088AAXX  17004 83398 32594 30000 10270 20256 30154 40159 83100 333 1//// 29086 55035 59014;
0143833980999992010051712004-15667-038950FM-12+000599999V0203601N002110450019N0040001N1+02581+02331101661ADDGF106991041051008001021001MA1999999101601MD1999999-0081REMSYN076AAXX  17124 83398 32596 63604 10258 20233 30160 40166 84520 333 2//// 59008;
0137833980999992010051718004-15667-038950FM-12+000599999V0201401N003110450019N0040001N1+02781+02481101461ADDGF106991041051008001021001MA1999999101411MD1999999+0061REMSYN070AAXX  17184 83398 32596 61406 10278 20248 30141 40146 84520 333 58006;
0155833980999992010051800004-15667-038950FM-12+000599999V0209999C000010075019N0010001N1+02741+02431101711ADDGF107991051051008001021001MA1999999101651MD1999999+0111REMSYN088AAXX  18004 83398 32594 70000 10274 20243 30165 40171 85520 333 1//// 29084 55000 58011;
0143833980999992010051812004-15667-038950FM-12+000599999V0209999C000010075019N0040001N1+02701+02371101771ADDGF107991051051008001021001MA1999999101711MD1999999+0111REMSYN076AAXX  18124 83398 32596 70000 10270 20237 30171 40177 85520 333 2//// 58011;
0137833980999992010051818004-15667-038950FM-12+000599999V0200901N002110075019N0040001N1+02761+02441101441ADDGF108991051051008001021001MA1999999101391MD1999999-0021REMSYN070AAXX  18184 83398 32596 80904 10276 20244 30139 40144 85520 333 59002;
0155833980999992010051900004-15667-038950FM-12+000599999V0200901N002110450019N0010001N1+02721+02321101591ADDGF108991041051008001021001MA1999999101541MD1999999-0111REMSYN088AAXX  19004 83398 32594 80904 10272 20232 30154 40159 84520 333 1//// 29081 55016 59011;
0143833980999992010051912004-15667-038950FM-12+000599999V0201401N001012200019N0040001N1+02581+02231101681ADDGF102991011011008001041001MA1999999101621MD1999999-0091REMSYN076AAXX  19124 83398 32596 21402 10258 20223 30162 40168 81140 333 2//// 59009;
0137833980999992010051918004-15667-038950FM-12+000599999V0200901N002112200019N0040001N1+02801+02271101321ADDGF102991011011008001041001MA1999999101271MD1999999-0121REMSYN070AAXX  19184 83398 32596 20904 10280 20227 30127 40132 81140 333 59012;
0155833980999992010052000004-15667-038950FM-12+000599999V0209999C000012200019N0010001N1+02741+02301101461ADDGF102991011011008001041001MA1999999101411MD1999999-0131REMSYN088AAXX  20004 83398 32594 20000 10274 20230 30141 40146 81140 333 1//// 29077 55075 59013;
0143833980999992010052012004-15667-038950FM-12+000599999V0201401N000512200019N0040001N1+02601+02211101511ADDGF102991011011008001041001MA1999999101461MD1999999-0161REMSYN076AAXX  20124 83398 32596 21401 10260 20221 30146 40151 81140 333 2//// 59016;
0137833980999992010052018004-15667-038950FM-12+000599999V0200501N002112200019N0040001N1+02801+02181101161ADDGF103991021011008001041001MA1999999101111MD1999999-0161REMSYN070AAXX  20184 83398 32596 30504 10280 20218 30111 40116 82140 333 59016;
0155833980999992010052100004-15667-038950FM-12+000599999V0201401N001012200019N0010001N1+02721+02301101361ADDGF103991021011008001041001MA1999999101311MD1999999-0101REMSYN088AAXX  21004 83398 32594 31402 10272 20230 30131 40136 82140 333 1//// 29076 55075 59010;
0143833980999992010052112004-15667-038950FM-12+000599999V0209999C000012200019N0040001N1+02611+02241101451ADDGF102991011011008001041001MA1999999101421MD1999999-0041REMSYN076AAXX  21124 83398 32596 20000 10261 20224 30142 40145 81140 333 2//// 59004;
0137833980999992010052118004-15667-038950FM-12+000599999V0200501N002112200019N0040001N1+02811+02301101091ADDGF102991011011008001041001MA1999999101041MD1999999-0071REMSYN070AAXX  21184 83398 32596 20504 10281 20230 30104 40109 81140 333 59007;
0155833980999992010052200004-15667-038950FM-12+000599999V0209999C000012200019N0010001N1+02781+02321101261ADDGF102991011011008001041001MA1999999101211MD1999999-0101REMSYN088AAXX  22004 83398 32594 20000 10278 20232 30121 40126 81140 333 1//// 29076 55083 59010;
0143833980999992010052212004-15667-038950FM-12+000599999V0209999C000012200019N0040001N1+02681+02311101411ADDGF102991011011008001041001MA1999999101361MD1999999-0061REMSYN076AAXX  22124 83398 32596 20000 10268 20231 30136 40141 81140 333 2//// 59006;
0137833980999992010052218004-15667-038950FM-12+000599999V0200901N002112200019N0040001N1+02921+02411101071ADDGF103991011011008001041011MA1999999101021MD1999999-0021REMSYN070AAXX  22184 83398 32596 30904 10292 20241 30102 40107 81141 333 59002;
0155833980999992010052300004-15667-038950FM-12+000599999V0200901N001010450019N0010001N1+02861+02441101351ADDGF106991031051008001021001MA1999999101301MD1999999+0091REMSYN088AAXX  23004 83398 32594 60902 10286 20244 30130 40135 83520 333 1//// 29077 55081 58009;
0188833980999992010052312004-15667-038950FM-12+000599999V0209999C000010450019N0040001N1+02781+02441101421ADDAA124010991AY161061AY221061GF107991041051008001021001MA1999999101371MD1999999+0011MW1021REMSYN088AAXX  23124 83398 21596 70000 10278 20244 30137 40142 70262 84520 333 2//// 58001 60114;
0137833980999992010052318004-15667-038950FM-12+000599999V0209999C000010450019N0040001N1+02791+02431101171ADDGF107991031051008001021001MA1999999101121MD1999999+0101REMSYN070AAXX  23184 83398 32596 70000 10279 20243 30112 40117 83520 333 58010;
0155833980999992010052400004-15667-038950FM-12+000599999V0209999C000010450019N0010001N1+02741+02381101371ADDGF107991041051008001021001MA1999999101321MD1999999+0021REMSYN088AAXX  24004 83398 32594 70000 10274 20238 30132 40137 84520 333 1//// 29081 55021 58002;
0143833980999992010052412004-15667-038950FM-12+000599999V0201801N001012200019N0040001N1+02681+02371101511ADDGF102991011011008001041001MA1999999101461MD1999999+0091REMSYN076AAXX  24124 83398 32596 21802 10268 20237 30146 40151 81140 333 2//// 58009;
0137833980999992010052418004-15667-038950FM-12+000599999V0200901N000512200019N0040001N1+02861+02501101261ADDGF104991021011008001041011MA1999999101211MD1999999+0091REMSYN070AAXX  24184 83398 32596 40901 10286 20250 30121 40126 82141 333 58009;
0155833980999992010052500004-15667-038950FM-12+000599999V0209999C000010450019N0010001N1+02821+02461101511ADDGF106991021011008001041011MA1999999101461MD1999999+0141REMSYN088AAXX  25004 83398 32594 60000 10282 20246 30146 40151 82141 333 1//// 29081 55082 58014;
0143833980999992010052512004-15667-038950FM-12+000599999V0209999C000012200019N0040001N1+02741+02381101681ADDGF102991011011008001041001MA1999999101621MD1999999+0161REMSYN076AAXX  25124 83398 32596 20000 10274 20238 30162 40168 81140 333 2//// 58016;
0137833980999992010052518004-15667-038950FM-12+000599999V0200901N001012200019N0040001N1+02921+02471101301ADDGF102991011011008001041001MA1999999101251MD1999999+0041REMSYN070AAXX  25184 83398 32596 20902 10292 20247 30125 40130 81140 333 58004;
0155833980999992010052600004-15667-038950FM-12+000599999V0200901N001012200019N0010001N1+02861+02461101501ADDGF102991011011008001041001MA1999999101451MD1999999-0011REMSYN088AAXX  26004 83398 32594 20902 10286 20246 30145 40150 81140 333 1//// 29079 55087 59001;
0143833980999992010052612004-15667-038950FM-12+000599999V0209999C000012200019N0040001N1+02781+02401101611ADDGF102991011011008001041011MA1999999101551MD1999999-0071REMSYN076AAXX  26124 83398 32596 20000 10278 20240 30155 40161 81141 333 2//// 59007;
0137833980999992010052618004-15667-038950FM-12+000599999V0200901N001012200019N0040001N1+02861+02441101321ADDGF104991021021008001041011MA1999999101271MD1999999+0021REMSYN070AAXX  26184 83398 32596 40902 10286 20244 30127 40132 82241 333 58002;
0155833980999992010052700004-15667-038950FM-12+000599999V0209999C000010450019N0010001N1+02801+02401101511ADDGF107991041051008001021001MA1999999101461MD1999999+0011REMSYN088AAXX  27004 83398 32594 70000 10280 20240 30146 40151 84520 333 1//// 29079 55055 58001;
0143833980999992010052712004-15667-038950FM-12+000599999V0201801N004112200019N0040001N1+02681+02261101651ADDGF102991011011008001041001MA1999999101591MD1999999+0041REMSYN076AAXX  27124 83398 32596 21808 10268 20226 30159 40165 81140 333 2//// 58004;
0137833980999992010052718004-15667-038950FM-12+000599999V0201401N002110450019N0040001N1+02841+02331101281ADDGF106991031051008001041001MA1999999101231MD1999999-0041REMSYN070AAXX  27184 83398 32596 61404 10284 20233 30123 40128 83540 333 59004;
0168833980999992010052800004-15667-038950FM-12+000599999V0201801N002110450019N0010001N1+02401+02071101581ADDGF105991031051008001021001KA1240M+02941MA1999999101531MD1999999+0071REMSYN088AAXX  28004 83398 32594 51804 10240 20207 30153 40158 83520 333 10294 29077 55080 58007;
0143833980999992010052812004-15667-038950FM-12+000599999V0201401N002110450019N0040001N1+02501+02091101661ADDGF107991041051008001021001MA1999999101601MD1999999+0011REMSYN076AAXX  28124 83398 32596 71404 10250 20209 30160 40166 84520 333 2//// 58001;
0182833980999992010052818004-15667-038950FM-12+000599999V0201801N002110075019N0040001N1+02631+02321101361ADDAA106001091AY161061AY221061GF108991051051008001021001MA1999999101311MD1999999+0081MW1021REMSYN082AAXX  28184 83398 21596 81804 10263 20232 30131 40136 70262 85520 333 58008 60011;
0168833980999992010052900004-15667-038950FM-12+000599999V0201801N001010450019N0010001N1+02241+02141101611ADDGF106991031051008001021001KA1240M+02841MA1999999101551MD1999999+0021REMSYN088AAXX  29004 83398 32594 61802 10224 20214 30155 40161 83520 333 10284 29087 55055 58002;
0188833980999992010052912004-15667-038950FM-12+000599999V0201801N005110075019N0040001N1+02361+02151101701ADDAA124011991AY161061AY221061GF108991051051008001021001MA1999999101641MD1999999+0041MW1021REMSYN088AAXX  29124 83398 21596 81810 10236 20215 30164 40170 70262 85520 333 2//// 58004 60124;
0182833980999992010052918004-15667-038950FM-12+000599999V0201801N003110075019N0040001N1+02351+02301101441ADDAA106002091AY161061AY221061GF108991051051008001021999MA1999999101391MD1999999+0081MW1021REMSYN082AAXX  29184 83398 21596 81806 10235 20230 30139 40144 70262 8552/ 333 58008 60021;
0213833980999992010053000004-15667-038950FM-12+000599999V0201801N002110450019N0010001N1+02261+02231101701ADDAA106020191AY161061AY221061GF108991041051008001021999KA1240M+02601MA1999999101651MD1999999+0101MW1021REMSYN100AAXX  30004 83398 21594 81804 10226 20223 30165 40170 70262 8452/ 333 10260 29095 55008 58010 60201;
0188833980999992010053012004-15667-038950FM-12+000599999V0209999C000010075019N0040001N1+02221+02191101881ADDAA124047091AY161061AY221061GF108991051051008001021999MA1999999101821MD1999999+0181MW1521REMSYN088AAXX  30124 83398 21596 80000 10222 20219 30182 40188 75262 8552/ 333 2//// 58018 60474;
0182833980999992010053018004-15667-038950FM-12+000599999V0209999C000010075019N0040001N1+02421+02301101571ADDAA106007991AY161061AY221061GF108991051051008001021999MA1999999101521MD1999999+0131MW1521REMSYN082AAXX  30184 83398 21596 80000 10242 20230 30152 40157 75262 8552/ 333 58013 60081;
0213833980999992010053100004-15667-038950FM-12+000599999V0209999C000010450019N0010001N1+02281+02261101741ADDAA106017091AY161061AY221061GF108991041051008001021999KA1240M+02461MA1999999101681MD1999999+0031MW1521REMSYN100AAXX  31004 83398 21594 80000 10228 20226 30168 40174 75262 8452/ 333 10246 29097 55000 58003 60171;
0188833980999992010053112004-15667-038950FM-12+000599999V0201801N003110075019N0040001N1+02241+02221101771ADDAA124027991AY161061AY221061GF108991051051008001021999MA1999999101711MD1999999-0111MW1511REMSYN088AAXX  31124 83398 21596 81806 10224 20222 30171 40177 75162 8552/ 333 2//// 59011 60284;
0137833980999992010053118004-15667-038950FM-12+000599999V0201401N001010450019N0040001N1+02761+02341101301ADDGF105991021021008001041001MA1999999101251MD1999999-0271REMSYN070AAXX  31184 83398 32596 51402 10276 20234 30125 40130 82240 333 59027;
0168833980999992010060100004-15667-038950FM-12+000599999V0201401N001012200019N0010001N1+02281+02261101501ADDGF104991021021008001041001KA1240M+02801MA1999999101451MD1999999-0231REMSYN088AAXX  01004 83398 32594 41402 10228 20226 30145 40150 82240 333 10280 29094 55030 59023;
0143833980999992010060112004-15667-038950FM-12+000599999V0201801N005110075019N0040001N1+02461+02251101921ADDGF108991051051008001021999MA1999999101861MD1999999+0151REMSYN076AAXX  01124 83398 32596 81810 10246 20225 30186 40192 8552/ 333 2//// 58015;
0182833980999992010060118004-15667-038950FM-12+000599999V0201801N007210075019N0040001N1+02461+02171101741ADDAA106005191AY161061AY221061GF108991051051008001021999MA1999999101681MD1999999+0431MW1021REMSYN082AAXX  01184 83398 21596 81814 10246 20217 30168 40174 70262 8552/ 333 58043 60051;
0168833980999992010060200004-15667-038950FM-12+000599999V0201801N002110450019N0010001N1+02261+02231101961ADDGF106991031051008001021001KA1240M+02681MA1999999101901MD1999999+0451REMSYN088AAXX  02004 83398 32594 61804 10226 20223 30190 40196 83520 333 10268 29092 55024 58045;
0188833980999992010060212004-15667-038950FM-12+000599999V0201801N004110075019N0040001N1+02251+02171102041ADDAA124007991AY161061AY221061GF108991051051008001021999MA1999999101981MD1999999+0121MW1021REMSYN088AAXX  02124 83398 21596 81808 10225 20217 30198 40204 70262 8552/ 333 2//// 58012 60084;
0182833980999992010060218004-15667-038950FM-12+000599999V0209999C000010075019N0040001N1+02421+02131101831ADDAA106003091AY161061AY221061GF108991051051008001021999MA1999999101771MD1999999+0091MW1021REMSYN082AAXX  02184 83398 21596 80000 10242 20213 30177 40183 70262 8552/ 333 58009 60031;
0168833980999992010060300004-15667-038950FM-12+000599999V0209999C000010450019N0010001N1+02141+02111102071ADDGF105991031051008001021001KA1240M+02701MA1999999102011MD1999999+0111REMSYN088AAXX  03004 83398 32594 50000 10214 20211 30201 40207 83520 333 10270 29094 55010 58011;
0188833980999992010060312004-15667-038950FM-12+000599999V0201801N004110450019N0040001N1+02381+02071102261ADDAA124003091AY151061AY211061GF105991031021008001041001MA1999999102151MD1999999+0171MW1021REMSYN088AAXX  03124 83398 21596 51808 10238 20207 30215 40226 70251 83240 333 2//// 58017 60034;
0182833980999992010060318004-15667-038950FM-12+000599999V0200901N002110075019N0040001N1+02481+02151102001ADDAA106002091AY161061AY221061GF108991051051008001021999MA1999999101941MD1999999+0171MW1021REMSYN082AAXX  03184 83398 21596 80904 10248 20215 30194 40200 70262 8552/ 333 58017 60021;
0168833980999992010060400004-15667-038950FM-12+000599999V0200901N002110075019N0010001N1+02141+02041102231ADDGF108991051051008001021999KA1240M+02531MA1999999102171MD1999999+0161REMSYN088AAXX  04004 83398 32594 80904 10214 20204 30217 40223 8552/ 333 10253 29088 55029 58016;
0188833980999992010060412004-15667-038950FM-12+000599999V0201801N001010450019N0040001N1+02201+02081102291ADDAA124003091AY151061AY221061GF106991031051008001041001MA1999999102231MD1999999+0291MW1021REMSYN088AAXX  04124 83398 21596 61802 10220 20208 30223 40229 70252 83540 333 2//// 58029 60034;
0137833980999992010060418004-15667-038950FM-12+000599999V0200901N002110450019N0040001N1+02631+01991102001ADDGF105991031051008001041001MA1999999101941MD1999999+0001REMSYN070AAXX  04184 83398 32596 50904 10263 20199 30194 40200 83540 333 58000;
0168833980999992010060500004-15667-038950FM-12+000599999V0209999C000010450019N0010001N1+02261+02231101961ADDGF105991031051008001041001KA1240M+02681MA1999999101901MD1999999-0271REMSYN088AAXX  05004 83398 32594 50000 10226 20223 30190 40196 83540 333 10268 29089 55058 59027;
0188833980999992010060512004-15667-038950FM-12+000599999V0201801N001010450019N0040001N1+02301+02031102081ADDAA124001091AY161061AY221061GF106991031021008001041001MA1999999102021MD1999999-0211MW1021REMSYN088AAXX  05124 83398 21596 61802 10230 20203 30202 40208 70262 83240 333 2//// 59021 60014;
0137833980999992010060518004-15667-038950FM-12+000599999V0201401N001012200019N0040001N1+02601+01941101681ADDGF103991021011008001041001MA1999999101621MD1999999-0321REMSYN070AAXX  05184 83398 32596 31402 10260 20194 30162 40168 82140 333 59032;
0168833980999992010060600004-15667-038950FM-12+000599999V0209999C000010450019N0010001N1+02061+02031101851ADDGF106991031011008001041001KA1240M+02741MA1999999101791MD1999999-0111REMSYN088AAXX  06004 83398 32594 60000 10206 20203 30179 40185 83140 333 10274 29087 55072 59011;
0143833980999992010060612004-15667-038950FM-12+000599999V0209999C000012200019N0040001N1+02521+02191101691ADDGF102991011011008001041001MA1999999101631MD1999999-0391REMSYN076AAXX  06124 83398 32596 20000 10252 20219 30163 40169 81140 333 2//// 59039;
0137833980999992010060618004-15667-038950FM-12+000599999V0200901N001012200019N0040001N1+02701+02201101401ADDGF102991011011008001041001MA1999999101351MD1999999-0271REMSYN070AAXX  06184 83398 32596 20902 10270 20220 30135 40140 81140 333 59027;
0168833980999992010060700004-15667-038950FM-12+000599999V0209999C000012200019N0010001N1+02241+02171101741ADDGF102991011021008001041001KA1240M+02821MA1999999101681MD1999999-0111REMSYN088AAXX  07004 83398 32594 20000 10224 20217 30168 40174 81240 333 10282 29087 55081 59011;
0188833980999992010060712004-15667-038950FM-12+000599999V0209999C000010075019N0040001N1+02281+02261102081ADDAA124000891AY151061AY211061GF108991051051008001021999MA1999999102021MD1999999+0391MW1021REMSYN088AAXX  07124 83398 21596 80000 10228 20226 30202 40208 70251 8552/ 333 2//// 58039 69974;
0182833980999992010060718004-15667-038950FM-12+000599999V0201801N001010075019N0040001N1+02521+02091101851ADDAA106000591AY151061AY211061GF108991051051008001021999MA1999999101791MD1999999+0441MW1021REMSYN082AAXX  07184 83398 21596 81802 10252 20209 30179 40185 70251 8552/ 333 58044 69951;
0168833980999992010060800004-15667-038950FM-12+000599999V0209999C000010075019N0010001N1+02241+02211102081ADDGF108991051051008001021999KA1240M+02601MA1999999102021MD1999999+0341REMSYN088AAXX  08004 83398 32594 80000 10224 20221 30202 40208 8552/ 333 10260 29093 55000 58034;
0160833980999992010060812004-15667-038950FM-12+000599999V0201801N001010075019N0040001N1+02281+02011102191ADDAA124000591GF108991051051008001021999MA1999999102131MD1999999+0111REMSYN082AAXX  08124 83398 22596 81802 10228 20201 30213 40219 8552/ 333 2//// 58011 69954;
0137833980999992010060818004-15667-038950FM-12+000599999V0200901N002112200019N0040001N1+02611+01901101881ADDGF104991021021008001041001MA1999999101821MD1999999+0031REMSYN070AAXX  08184 83398 32596 40904 10261 20190 30182 40188 82240 333 58003;
0168833980999992010060900004-15667-038950FM-12+000599999V0200901N002110450019N0010001N1+02021+01921102151ADDGF105991031011008001041001KA1240M+02781MA1999999102091MD1999999+0071REMSYN088AAXX  09004 83398 32594 50904 10202 20192 30209 40215 83140 333 10278 29085 55031 58007;
0143833980999992010060912004-15667-038950FM-12+000599999V0201401N001010075019N0040001N1+02211+02001102201ADDGF108991051051008001021999MA1999999102141MD1999999+0011REMSYN076AAXX  09124 83398 32596 81402 10221 20200 30214 40220 8552/ 333 2//// 58001;
0137833980999992010060918004-15667-038950FM-12+000599999V0201801N003110450019N0040001N1+02521+02071101871ADDGF107991041051008001021001MA1999999101811MD1999999-0011REMSYN070AAXX  09184 83398 32596 71806 10252 20207 30181 40187 84520 333 59001;
0168833980999992010061000004-15667-038950FM-12+000599999V0201801N001010450019N0010001N1+02241+01941102061ADDGF107991041051008001021001KA1240M+02601MA1999999102001MD1999999-0091REMSYN088AAXX  10004 83398 32594 71802 10224 20194 30200 40206 84520 333 10260 29082 55040 59009;
0143833980999992010061012004-15667-038950FM-12+000599999V0201401N001012200019N0040001N1+02361+02051102121ADDGF103991021011008001041001MA1999999102061MD1999999-0081REMSYN076AAXX  10124 83398 32596 31402 10236 20205 30206 40212 82140 333 2//// 59008;
0137833980999992010061018004-15667-038950FM-12+000599999V0201401N002110450019N0040001N1+02561+02021101901ADDGF106991031021008001041001MA1999999101841MD1999999+0031REMSYN070AAXX  10184 83398 32596 61404 10256 20202 30184 40190 83240 333 58003;
0168833980999992010061100004-15667-038950FM-12+000599999V0201401N001012200019N0010001N1+02061+02011102121ADDGF103991021021008001041001KA1240M+02801MA1999999102061MD1999999+0061REMSYN088AAXX  11004 83398 32594 31402 10206 20201 30206 40212 82240 333 10280 29087 55060 58006;
0143833980999992010061112004-15667-038950FM-12+000599999V0201801N001012200019N0040001N1+02321+02031102061ADDGF102991011011008001041001MA1999999102001MD1999999-0061REMSYN076AAXX  11124 83398 32596 21802 10232 20203 30200 40206 81140 333 2//// 59006;
0137833980999992010061118004-15667-038950FM-12+000599999V0200901N002110450019N0040001N1+02601+02061101811ADDGF107991041051008001021001MA1999999101751MD1999999-0091REMSYN070AAXX  11184 83398 32596 70904 10260 20206 30175 40181 84520 333 59009;
0168833980999992010061200004-15667-038950FM-12+000599999V0209999C000012200019N0010001N1+02181+02101102001ADDGF103991021011008001041001KA1240M+02841MA1999999101941MD1999999-0121REMSYN088AAXX  12004 83398 32594 30000 10218 20210 30194 40200 82140 333 10284 29086 55078 59012;
0143833980999992010061212004-15667-038950FM-12+000599999V0201801N004112200019N0040001N1+02351+02041102141ADDGF103991021011008001041001MA1999999102081MD1999999+0081REMSYN076AAXX  12124 83398 32596 31808 10235 20204 30208 40214 82140 333 2//// 58008;
0137833980999992010061218004-15667-038950FM-12+000599999V0201801N010310450019N0040001N1+02481+01921101951ADDGF106991031051008001021001MA1999999101891MD1999999+0141REMSYN070AAXX  12184 83398 32596 61820 10248 20192 30189 40195 83520 333 58014;
0168833980999992010061300004-15667-038950FM-12+000599999V0201801N002112200019N0010001N1+01981+01721102181ADDGF104991021051008001021001KA1240M+02661MA1999999102121MD1999999+0181REMSYN088AAXX  13004 83398 32594 41804 10198 20172 30212 40218 82520 333 10266 29081 55066 58018;
0143833980999992010061312004-15667-038950FM-12+000599999V0201801N006212200019N0040001N1+02061+01561102301ADDGF101991011011008001041001MA1999999102241MD1999999+0161REMSYN076AAXX  13124 83398 32596 11812 10206 20156 30224 40230 81140 333 2//// 58016;
0137833980999992010061318004-15667-038950FM-12+000599999V0201401N006210450019N0040001N1+02381+01661101911ADDGF107991041051008001021001MA1999999101851MD1999999-0041REMSYN070AAXX  13184 83398 32596 71412 10238 20166 30185 40191 84520 333 59004;
0168833980999992010061400004-15667-038950FM-12+000599999V0201401N003110450019N0010001N1+01861+01661102051ADDGF105991031051008001021001KA1240M+02561MA1999999101991MD1999999-0131REMSYN088AAXX  14004 83398 32594 51406 10186 20166 30199 40205 83520 333 10256 29078 55080 59013;
0188833980999992010061412004-15667-038950FM-12+000599999V0201801N002110075019N0040001N1+02061+01851102241ADDAA124002091AY161061AY221061GF108991051051008001021999MA1999999102181MD1999999-0061MW1021REMSYN088AAXX  14124 83398 21596 81804 10206 20185 30218 40224 70262 8552/ 333 2//// 59006 60024;
0137833980999992010061418004-15667-038950FM-12+000599999V0201401N002110075019N0040001N1+02401+01801101961ADDGF108991051051008001021999MA1999999101901MD1999999+0051REMSYN070AAXX  14184 83398 32596 81404 10240 20180 30190 40196 8552/ 333 58005;
0168833980999992010061500004-15667-038950FM-12+000599999V0201401N002110075019N0010001N1+01921+01791102141ADDGF108991051051008001021999KA1240M+02571MA1999999102081MD1999999+0091REMSYN088AAXX  15004 83398 32594 81404 10192 20179 30208 40214 8552/ 333 10257 29085 55010 58009;
0143833980999992010061512004-15667-038950FM-12+000599999V0201801N003110450019N0040001N1+02261+01961102201ADDGF105991031051008001021001MA1999999102141MD1999999-0041REMSYN076AAXX  15124 83398 32596 51806 10226 20196 30214 40220 83520 333 2//// 59004;
0137833980999992010061518004-15667-038950FM-12+000599999V0201401N003110450019N0040001N1+02541+02021101921ADDGF105991031021008001041001MA1999999101861MD1999999-0041REMSYN070AAXX  15184 83398 32596 51406 10254 20202 30186 40192 83240 333 59004;
0168833980999992010061600004-15667-038950FM-12+000599999V0209999C000010450019N0040001N1+02101+02001102111ADDGF105991031051008001021001KA1240M+02781MA1999999102051MD1999999-0031REMSYN088AAXX  16004 83398 32596 50000 10210 20200 30205 40211 83520 333 10278 29086 55079 59003;
0143833980999992010061612004-15667-038950FM-12+000599999V0201401N003110450019N0040001N1+02241+02091102201ADDGF107991041051008001021001MA1999999102141MD1999999+0001REMSYN076AAXX  16124 83398 32596 71406 10224 20209 30214 40220 84520 333 2//// 58000;
0137833980999992010061618004-15667-038950FM-12+000599999V0201401N003110450019N0040001N1+02541+02021101921ADDGF105991031021008001041001MA1999999101861MD1999999-0041REMSYN070AAXX  16184 83398 32596 51406 10254 20202 30186 40192 83240 333 59004;
0168833980999992010061700004-15667-038950FM-12+000599999V0209999C000010450019N0010001N1+01921+01851101981ADDGF106991041051008001021001KA1240M+02721MA1999999101921MD1999999-0131REMSYN088AAXX  17004 83398 32594 60000 10192 20185 30192 40198 84520 333 10272 29087 55048 59013;
0143833980999992010061712004-15667-038950FM-12+000599999V0201801N002110075019N0040001N1+02261+02071101981ADDGF105991051051008001001001MA1999999101921MD1999999-0221REMSYN076AAXX  17124 83398 32596 51804 10226 20207 30192 40198 85500 333 2//// 59022;
0137833980999992010061718004-15667-038950FM-12+000599999V0201401N003110450019N0040001N1+02641+01981101691ADDGF106991041051008001021001MA1999999101631MD1999999-0201REMSYN070AAXX  17184 83398 32596 61406 10264 20198 30163 40169 84520 333 59020;
0168833980999992010061800004-15667-038950FM-12+000599999V0209999C000010450019N0040001N1+02061+01981101821ADDGF106991041051008001021001KA1240M+02761MA1999999101761MD1999999-0161REMSYN088AAXX  18004 83398 32596 60000 10206 20198 30176 40182 84520 333 10276 29087 55038 59016;
0143833980999992010061812004-15667-038950FM-12+000599999V0209999C000012200019N0040001N1+02261+02111101901ADDGF104991031021008001041001MA1999999101841MD1999999-0081REMSYN076AAXX  18124 83398 32596 40000 10226 20211 30184 40190 83240 333 2//// 59008;
0137833980999992010061818004-15667-038950FM-12+000599999V0200901N004110450019N0040001N1+02741+01871101611ADDGF105991041051008001041001MA1999999101551MD1999999-0081REMSYN070AAXX  18184 83398 32596 50908 10274 20187 30155 40161 84540 333 59008;
0168833980999992010061900004-15667-038950FM-12+000599999V0209999C000010450019N0010001N1+02041+01971101791ADDGF106991041051008001021001KA1240M+02861MA1999999101731MD1999999-0031REMSYN088AAXX  19004 83398 32594 60000 10204 20197 30173 40179 84520 333 10286 29086 55082 59003;
0143833980999992010061912004-15667-038950FM-12+000599999V0200901N001010450019N0040001N1+02381+02111101881ADDGF105991031021008001041001MA1999999101821MD1999999-0021REMSYN076AAXX  19124 83398 32596 50902 10238 20211 30182 40188 83240 333 2//// 59002;
0137833980999992010061918004-15667-038950FM-12+000599999V0200901N003110450019N0040001N1+02721+02121101561ADDGF105991031021008001041001MA1999999101511MD1999999-0041REMSYN070AAXX  19184 83398 32596 50906 10272 20212 30151 40156 83240 333 59004;
0168833980999992010062000004-15667-038950FM-12+000599999V0209999C000012200019N0010001N1+02141+02041101691ADDGF104991041051008001001001KA1240M+02861MA1999999101631MD1999999-0101REMSYN088AAXX  20004 83398 32594 40000 10214 20204 30163 40169 84500 333 10286 29086 55067 59010;
0143833980999992010062012004-15667-038950FM-12+000599999V0209999C000010450019N0040001N1+02381+02291101681ADDGF106991041051008001021001MA1999999101621MD1999999-0201REMSYN076AAXX  20124 83398 32596 60000 10238 20229 30162 40168 84520 333 2//// 59020;
0137833980999992010062018004-15667-038950FM-12+000599999V0209999C000010075019N0040001N1+02561+02441101371ADDGF108991051051008001021001MA1999999101321MD1999999-0191REMSYN070AAXX  20184 83398 32596 80000 10256 20244 30132 40137 85520 333 59019;
0168833980999992010062100004-15667-038950FM-12+000599999V0209999C000010075019N0010001N1+02401+02331101561ADDGF108991051051008001021999KA1240M+02681MA1999999101511MD1999999-0121REMSYN088AAXX  21004 83398 32594 80000 10240 20233 30151 40156 8552/ 333 10268 29095 55003 59012;
0143833980999992010062112004-15667-038950FM-12+000599999V0209999C000012200019N0040001N1+02441+02341101671ADDGF102991011011008001041001MA1999999101611MD1999999-0011REMSYN076AAXX  21124 83398 32596 20000 10244 20234 30161 40167 81140 333 2//// 59001;
0137833980999992010062118004-15667-038950FM-12+000599999V0203601N002112200019N0040001N1+02801+01901101401ADDGF102991011011008001041001MA1999999101351MD1999999+0031REMSYN070AAXX  21184 83398 32596 23604 10280 20190 30135 40140 81140 333 58003;
0168833980999992010062200004-15667-038950FM-12+000599999V0209999C000012200019N0010001N1+02061+01981101621ADDGF102991011011008001041001KA1240M+02901MA1999999101561MD1999999+0051REMSYN088AAXX  22004 83398 32594 20000 10206 20198 30156 40162 81140 333 10290 29085 55060 58005;
0143833980999992010062212004-15667-038950FM-12+000599999V0201801N001012200019N0040001N1+02421+02131101781ADDGF102991011011008001041001MA1999999101721MD1999999+0111REMSYN076AAXX  22124 83398 32596 21802 10242 20213 30172 40178 81140 333 2//// 58011;
0137833980999992010062218004-15667-038950FM-12+000599999V0200901N002112200019N0040001N1+02721+02221101401ADDGF102991011011008001041001MA1999999101351MD1999999+0001REMSYN070AAXX  22184 83398 32596 20904 10272 20222 30135 40140 81140 333 58000;
0168833980999992010062300004-15667-038950FM-12+000599999V0200901N002112200019N0010001N1+02141+02041101741ADDGF102991011011008001041001KA1240M+02901MA1999999101681MD1999999+0121REMSYN088AAXX  23004 83398 32594 20904 10214 20204 30168 40174 81140 333 10290 29086 55080 58012;
0143833980999992010062312004-15667-038950FM-12+000599999V0209999C000012200019N0040001N1+02341+02241101991ADDGF102991011011008001041001MA1999999101931MD1999999+0211REMSYN076AAXX  23124 83398 32596 20000 10234 20224 30193 40199 81140 333 2//// 58021;
0137833980999992010062318004-15667-038950FM-12+000599999V0200901N002112200019N0040001N1+02721+02031101801ADDGF102991011011008001041001MA1999999101741MD1999999+0391REMSYN070AAXX  23184 83398 32596 20904 10272 20203 30174 40180 81140 333 58039;
0168833980999992010062400004-15667-038950FM-12+000599999V0209999C000012200019N0010001N1+02181+02151102041ADDGF102991011011008001041001KA1240M+02891MA1999999101981MD1999999+0301REMSYN088AAXX  24004 83398 32594 20000 10218 20215 30198 40204 81140 333 10289 29089 55075 58030;
0188833980999992010062412004-15667-038950FM-12+000599999V0201401N002110075019N0040001N1+02341+02241102271ADDAA124003091AY161061AY221061GF108991051051008001021999MA1999999102211MD1999999+0281MW1021REMSYN088AAXX  24124 83398 21596 81404 10234 20224 30221 40227 70262 8552/ 333 2//// 58028 60034;
0182833980999992010062418004-15667-038950FM-12+000599999V0201401N002110075019N0040001N1+02401+02241102051ADDAA106001091AY151061AY221061GF108991051051008001021999MA1999999101991MD1999999+0251MW1021REMSYN082AAXX  24184 83398 21596 81404 10240 20224 30199 40205 70252 8552/ 333 58025 69991;
0213833980999992010062500004-15667-038950FM-12+000599999V0201401N002110075019N0010001N1+02381+02131102211ADDAA106004191AY161061AY211061GF108991051051008001021999KA1240M+02701MA1999999102151MD1999999+0171MW1021REMSYN100AAXX  25004 83398 21594 81404 10238 20213 30215 40221 70261 8552/ 333 10270 29089 55021 58017 60041;
0160833980999992010062512004-15667-038950FM-12+000599999V0201401N001010075019N0040001N1+02281+02131102311ADDAA124005191GF108991051051008001021999MA1999999102251MD1999999+0041REMSYN082AAXX  25124 83398 22596 81402 10228 20213 30225 40231 8552/ 333 2//// 58004 60054;
0137833980999992010062518004-15667-038950FM-12+000599999V0201401N001010075019N0040001N1+02551+01821102111ADDGF108991051051008001021999MA1999999102051MD1999999+0061REMSYN070AAXX  25184 83398 32596 81402 10255 20182 30205 40211 8552/ 333 58006;
0168833980999992010062600004-15667-038950FM-12+000599999V0209999C000010075019N0010001N1+02181+01901102181ADDGF108991051051008001021999KA1240M+02561MA1999999102121MD1999999+0031REMSYN088AAXX  26004 83398 32594 80000 10218 20190 30212 40218 8552/ 333 10256 29081 55004 58003;
0143833980999992010062612004-15667-038950FM-12+000599999V0201401N001010450019N0040001N1+02291+01671102231ADDGF107991041051008001021001MA1999999102171MD1999999-0081REMSYN076AAXX  26124 83398 32596 71402 10229 20167 30217 40223 84520 333 2//// 59008;
0137833980999992010062618004-15667-038950FM-12+000599999V0201401N002110450019N0040001N1+02561+01951101941ADDGF106991031021008001041001MA1999999101881MD1999999-0171REMSYN070AAXX  26184 83398 32596 61404 10256 20195 30188 40194 83240 333 59017;
0213833980999992010062700004-15667-038950FM-12+000599999V0209999C000010075019N0010001N1+02181+02151102071ADDAA106004191AY161061AY211061GF108991051051008001021999KA1240M+02741MA1999999102011MD1999999-0111MW1021REMSYN100AAXX  27004 83398 21594 80000 10218 20215 30201 40207 70261 8552/ 333 10274 29087 55070 59011 60041;
0188833980999992010062712004-15667-038950FM-12+000599999V0209999C000010450019N0040001N1+02341+02111102111ADDAA124006191AY161061AY221061GF107991031051008001041001MA1999999102051MD1999999-0121MW1021REMSYN088AAXX  27124 83398 21596 70000 10234 20211 30205 40211 70262 83540 333 2//// 59012 60064;
0137833980999992010062718004-15667-038950FM-12+000599999V0201401N001010450019N0040001N1+02521+02091101881ADDGF107991041051008001021001MA1999999101821MD1999999-0061REMSYN070AAXX  27184 83398 32596 71402 10252 20209 30182 40188 84520 333 59006;
0213833980999992010062800004-15667-038950FM-12+000599999V0209999C000010075019N0010001N1+02121+02091102051ADDAA106002091AY161061AY211061GF108991051051008001021001KA1240M+02701MA1999999101991MD1999999-0021MW1021REMSYN100AAXX  28004 83398 21594 80000 10212 20209 30199 40205 70261 85520 333 10270 29090 55054 59002 60021;
0188833980999992010062812004-15667-038950FM-12+000599999V0201801N003110075019N0010001N1+02241+02141102131ADDAA124006191AY161061AY221061GF108991051051008001021999MA1999999102071MD1999999+0021MW1021REMSYN088AAXX  28124 83398 21594 81806 10224 20214 30207 40213 70262 8552/ 333 2//// 58002 60064;
0137833980999992010062818004-15667-038950FM-12+000599999V0201401N003110075019N0040001N1+02641+02141101851ADDGF107991051051008001021001MA1999999101791MD1999999-0031REMSYN070AAXX  28184 83398 32596 71406 10264 20214 30179 40185 85520 333 59003;
0168833980999992010062900004-15667-038950FM-12+000599999V0200901N003110075019N0010001N1+02181+02061102041ADDGF108991051051008001021999KA1240M+02741MA1999999101981MD1999999-0011REMSYN088AAXX  29004 83398 32594 80906 10218 20206 30198 40204 8552/ 333 10274 29089 55051 59001;
0143833980999992010062912004-15667-038950FM-12+000599999V0200901N003110450019N0040001N1+02461+02231102091ADDGF106991041051008001021001MA1999999102031MD1999999-0041REMSYN076AAXX  29124 83398 32596 60906 10246 20223 30203 40209 84520 333 2//// 59004;
0137833980999992010062918004-15667-038950FM-12+000599999V0201401N003110450019N0040001N1+02661+01771101881ADDGF105991041051008001021001MA1999999101821MD1999999-0161REMSYN070AAXX  29184 83398 32596 51406 10266 20177 30182 40188 84520 333 59016;
0168833980999992010063000004-15667-038950FM-12+000599999V0209999C000010450019N0010001N1+02121+02051102091ADDGF106991041051008001021001KA1240M+02761MA1999999102031MD1999999+0051REMSYN088AAXX  30004 83398 32594 60000 10212 20205 30203 40209 84520 333 10276 29084 55074 58005;
0188833980999992010063012004-15667-038950FM-12+000599999V0201401N002110075019N0040001N1+02161+01881102161ADDAA124002091AY161061AY221061GF107991051051008001021001MA1999999102101MD1999999+0071MW1021REMSYN088AAXX  30124 83398 21596 71404 10216 20188 30210 40216 70262 85520 333 2//// 58007 60024;
0137833980999992010063018004-15667-038950FM-12+000599999V0201401N002110450019N0040001N1+02561+01951102021ADDGF106991041051008001021001MA1999999101961MD1999999+0141REMSYN070AAXX  30184 83398 32596 61404 10256 20195 30196 40202 84520 333 58014;
0168833980999992010070100004-15667-038950FM-12+000599999V0209999C000010075019N0010001N1+02081+01931102211ADDGF105991051051008001001001KA1240M+02661MA1999999102151MD1999999+0121REMSYN088AAXX  01004 83398 32594 50000 10208 20193 30215 40221 85500 333 10266 29084 55023 58012;
0143833980999992010070112004-15667-038950FM-12+000599999V0201801N003110450019N0040001N1+02321+02071102131ADDGF105991031051008001021001MA1999999102071MD1999999-0031REMSYN076AAXX  01124 83398 32596 51806 10232 20207 30207 40213 83520 333 2//// 59003;
0137833980999992010070118004-15667-038950FM-12+000599999V0201401N003110075019N0040001N1+02321+02241102001ADDGF108991051051008001021999MA1999999101941MD1999999-0021REMSYN070AAXX  01184 83398 32596 81406 10232 20224 30194 40200 8552/ 333 59002;
0213833980999992010070200004-15667-038950FM-12+000599999V0201801N002110450019N0010001N1+02121+02051102111ADDAA106003091AY161061AY221061GF108991041071008001021999KA1240M+02681MA1999999102051MD1999999-0101MW1611REMSYN100AAXX  02004 83398 21594 81804 10212 20205 30205 40211 76162 8472/ 333 10268 29094 55044 59010 60031;
0188833980999992010070212004-15667-038950FM-12+000599999V0201801N002110075019N0040001N1+02441+02171102141ADDAA124008991AY161061AY221061GF107991051051008001021001MA1999999102081MD1999999+0011MW1021REMSYN088AAXX  02124 83398 21596 71804 10244 20217 30208 40214 70262 85520 333 2//// 58001 60094;
0137833980999992010070218004-15667-038950FM-12+000599999V0201801N002110450019N0040001N1+02601+02101101821ADDGF106991041051008001021001MA1999999101831MD1999999-0111REMSYN070AAXX  02184 83398 32596 61804 10260 20210 30183 40182 84520 333 59011;
0168833980999992010070300004-15667-038950FM-12+000599999V0209999C000012200019N0010001N1+02001+01881102101ADDGF103991031051008001001001KA1240M+02681MA1999999102041MD1999999-0011REMSYN088AAXX  03004 83398 32594 30000 10200 20188 30204 40210 83500 333 10268 29086 55059 59001;
0188833980999992010070312004-15667-038950FM-12+000599999V0201801N002110450019N0040001N1+02181+02031102101ADDAA124008991AY161061AY221061GF107991041051008001021001MA1999999102041MD1999999-0041MW1021REMSYN088AAXX  03124 83398 21596 71804 10218 20203 30204 40210 70262 84520 333 2//// 59004 60094;
0137833980999992010070318004-15667-038950FM-12+000599999V0201401N003110450019N0040001N1+02581+01921101911ADDGF106991031021008001041001MA1999999101851MD1999999+0021REMSYN070AAXX  03184 83398 32596 61406 10258 20192 30185 40191 83240 333 58002;
0168833980999992010070400004-15667-038950FM-12+000599999V0209999C000012200019N0010001N1+01961+01881102051ADDGF102991011021008001041001KA1240M+02681MA1999999101991MD1999999-0051REMSYN088AAXX  04004 83398 32594 20000 10196 20188 30199 40205 81240 333 10268 29087 55046 59005;
0143833980999992010070412004-15667-038950FM-12+000599999V0201401N003110450019N0040001N1+02281+01921102141ADDGF105991031051008001041001MA1999999102081MD1999999-0061REMSYN076AAXX  04124 83398 32596 51406 10228 20192 30208 40214 83540 333 2//// 59006;
0137833980999992010070418004-15667-038950FM-12+000599999V0201801N003110450019N0040001N1+02521+02291101811ADDGF106991021051008001041001MA1999999101751MD1999999-0101REMSYN070AAXX  04184 83398 32596 61806 10252 20229 30175 40181 82540 333 59010;
0168833980999992010070500004-15667-038950FM-12+000599999V0209999C000012200019N0010001N1+02041+01971101951ADDGF104991041051008001001001KA1240M+02721MA1999999101891MD1999999-0101REMSYN088AAXX  05004 83398 32594 40000 10204 20197 30189 40195 84500 333 10272 29090 55074 59010;
0188833980999992010070512004-15667-038950FM-12+000599999V0209999C000010450019N0040001N1+02261+02181102061ADDAA124001091AY161061AY221061GF106991041051008001021001MA1999999102061MD1999999+0081MW1021REMSYN088AAXX  05124 83398 21596 60000 10226 20218 30206 40206 70262 84520 333 2//// 58008 60014;
0137833980999992010070518004-15667-038950FM-12+000599999V0201401N003110450019N0040001N1+02701+02111101851ADDGF105991031021008001041001MA1999999101791MD1999999+0041REMSYN070AAXX  05184 83398 32596 51406 10270 20211 30179 40185 83240 333 58004;
0213833980999992010070600004-15667-038950FM-12+000599999V0209999C000010450019N0010001N1+02141+02071102011ADDAA106002091AY161061AY221061GF106991041051008001021001KA1240M+02781MA1999999101951MD1999999+0061MW1021REMSYN100AAXX  06004 83398 21594 60000 10214 20207 30195 40201 70262 84520 333 10278 29089 55066 58006 60021;
0188833980999992010070612004-15667-038950FM-12+000599999V0201801N001010450019N0040001N1+02141+01911102181ADDAA124005191AY161061AY221061GF106991041051008001041001MA1999999102121MD1999999+0061MW1021REMSYN088AAXX  06124 83398 21596 61802 10214 20191 30212 40218 70262 84540 333 2//// 58006 60054;
0182833980999992010070618004-15667-038950FM-12+000599999V0200901N004110075019N0040001N1+02221+02071101941ADDAA106002091AY161061AY221061GF108991051051008001021999MA1999999101881MD1999999+0091MW1521REMSYN082AAXX  06184 83398 21596 80908 10222 20207 30188 40194 75262 8552/ 333 58009 60021;
0213833980999992010070700004-15667-038950FM-12+000599999V0209999C000010450019N0010001N1+02001+01971101991ADDAA106007191AY161061AY221061GF106991041051008001021001KA1240M+02521MA1999999101931MD1999999-0021MW1021REMSYN100AAXX  07004 83398 21594 60000 10200 20197 30193 40199 70262 84520 333 10252 29093 55043 59002 60071;
0188833980999992010070712004-15667-038950FM-12+000599999V0201401N002110075019N0040001N1+02121+02051102031ADDAA124030091AY161061AY221061GF107991051051008001021001MA1999999101971MD1999999-0151MW1021REMSYN088AAXX  07124 83398 21596 71404 10212 20205 30197 40203 70262 85520 333 2//// 59015 60304;
0137833980999992010070718004-15667-038950FM-12+000599999V0200901N003110450019N0040001N1+02641+02141101781ADDGF105991031051008001041001MA1999999101721MD1999999-0161REMSYN070AAXX  07184 83398 32596 50906 10264 20214 30172 40178 83540 333 59016;
0213833980999992010070800004-15667-038950FM-12+000599999V0209999C000010450019N0010001N1+02201+02131101921ADDAA106003091AY161061AY221061GF106991041051008001021001KA1240M+02721MA1999999101861MD1999999-0071MW1021REMSYN100AAXX  08004 83398 21594 60000 10220 20213 30186 40192 70262 84520 333 10272 29091 55068 59007 60031;
0188833980999992010070812004-15667-038950FM-12+000599999V0201801N003110450019N0040001N1+02281+02161102061ADDAA124027991AY161061AY221061GF106991041051008001021001MA1999999102001MD1999999+0031MW1021REMSYN088AAXX  08124 83398 21596 61806 10228 20216 30200 40206 70262 84520 333 2//// 58003 60284;
0137833980999992010070818004-15667-038950FM-12+000599999V0200901N003110450019N0040001N1+02481+02271101771ADDGF106991041051008001021001MA1999999101711MD1999999-0011REMSYN070AAXX  08184 83398 32596 60906 10248 20227 30171 40177 84520 333 59001;
0168833980999992010070900004-15667-038950FM-12+000599999V0209999C000010450019N0010001N1+02201+02101101941ADDGF106991041051008001021001KA1240M+02661MA1999999101881MD1999999+0021REMSYN088AAXX  09004 83398 32594 60000 10220 20210 30188 40194 84520 333 10266 29092 55032 58002;
0188833980999992010070912004-15667-038950FM-12+000599999V0201801N003110450019N0040001N1+02421+02301102041ADDAA124005191AY161061AY221061GF106991041051008001021001MA1999999101981MD1999999-0021MW1021REMSYN088AAXX  09124 83398 21596 61806 10242 20230 30198 40204 70262 84520 333 2//// 59002 60054;
0137833980999992010070918004-15667-038950FM-12+000599999V0201401N003110450019N0040001N1+02581+02271101781ADDGF105991031051008001021001MA1999999101721MD1999999+0011REMSYN070AAXX  09184 83398 32596 51406 10258 20227 30172 40178 83520 333 58001;
0168833980999992010071000004-15667-038950FM-12+000599999V0209999C000010450019N0010001N1+02341+02241101931ADDGF105991031051008001021001KA1240M+02681MA1999999101871MD1999999-0011REMSYN088AAXX  10004 83398 32594 50000 10234 20224 30187 40193 83520 333 10268 29091 55052 59001;
0188833980999992010071012004-15667-038950FM-12+000599999V0201401N003110450019N0040001N1+02381+02291101981ADDAA124004191AY161061AY221061GF106991041051008001021001MA1999999101921MD1999999-0061MW1021REMSYN088AAXX  10124 83398 21596 61406 10238 20229 30192 40198 70262 84520 333 2//// 59006 60044;
0182833980999992010071018004-15667-038950FM-12+000599999V0203601N001010450019N0040001N1+02481+02321101661ADDAA106002091AY161061AY221061GF106991041051008001021001MA1999999101601MD1999999-0021MW1021REMSYN082AAXX  10184 83398 21596 63602 10248 20232 30160 40166 70262 84520 333 59002 60021;
0168833980999992010071100004-15667-038950FM-12+000599999V0203601N002112200019N0010001N1+02221+02191101821ADDGF102991011021008001041001KA1240M+02701MA1999999101761MD1999999-0111REMSYN088AAXX  11004 83398 32594 23604 10222 20219 30176 40182 81240 333 10270 29095 55030 59011;
0188833980999992010071112004-15667-038950FM-12+000599999V0209999C000010075019N0040001N1+02301+02181101881ADDAA124006191AY161061AY221061GF108991051051008001021999MA1999999101821MD1999999-0101MW1021REMSYN088AAXX  11124 83398 21596 80000 10230 20218 30182 40188 70262 8552/ 333 2//// 59010 60064;
0137833980999992010071118004-15667-038950FM-12+000599999V0200901N001010450019N0040001N1+02621+02051101621ADDGF105991031011008001041001MA1999999101561MD1999999-0041REMSYN070AAXX  11184 83398 32596 50902 10262 20205 30156 40162 83140 333 59004;
0168833980999992010071200004-15667-038950FM-12+000599999V0209999C000010450019N0010001N1+02181+02111101841ADDGF105991031051008001021001KA1240M+02761MA1999999101781MD1999999+0021REMSYN088AAXX  12004 83398 32594 50000 10218 20211 30178 40184 83520 333 10276 29089 55041 58002;
0188833980999992010071212004-15667-038950FM-12+000599999V0202301N001010450019N0040001N1+02281+02201101951ADDAA124007191AY161061AY221061GF106991041051008001021001MA1999999101891MD1999999+0071MW1021REMSYN088AAXX  12124 83398 21596 62302 10228 20220 30189 40195 70262 84520 333 2//// 58007 60074;
0137833980999992010071218004-15667-038950FM-12+000599999V0200901N003110450019N0040001N1+02761+02161101581ADDGF105991031051008001021001MA1999999101531MD1999999-0031REMSYN070AAXX  12184 83398 32596 50906 10276 20216 30153 40158 83520 333 59003;
0168833980999992010071300004-15667-038950FM-12+000599999V0209999C000010450019N0010001N1+02221+02121101801ADDGF105991031051008001021001KA1240M+02761MA1999999101741MD1999999-0041REMSYN088AAXX  13004 83398 32594 50000 10222 20212 30174 40180 83520 333 10276 29088 55073 59004;
0188833980999992010071312004-15667-038950FM-12+000599999V0201401N001010450019N0040001N1+02461+02281101801ADDAA124002091AY161061AY221061GF107991041051008001021001MA1999999101741MD1999999-0151MW1021REMSYN088AAXX  13124 83398 21596 71402 10246 20228 30174 40180 70262 84520 333 2//// 59015 60024;
0137833980999992010071318004-15667-038950FM-12+000599999V0200901N002110450019N0040001N1+02661+02221101511ADDGF106991031021008001041001MA1999999101461MD1999999-0071REMSYN070AAXX  13184 83398 32596 60904 10266 20222 30146 40151 83240 333 59007;
0168833980999992010071400004-15667-038950FM-12+000599999V0209999C000012200019N0010001N1+02361+02311101701ADDGF103991021011008001041001KA1240M+02781MA1999999101641MD1999999-0101REMSYN088AAXX  14004 83398 32594 30000 10236 20231 30164 40170 82140 333 10278 29090 55056 59010;
0188833980999992010071412004-15667-038950FM-12+000599999V0209999C000010450019N0040001N1+02581+02401101801ADDAA124000591AY151061AY211061GF106991031051008001041001MA1999999101741MD1999999+0001MW1021REMSYN088AAXX  14124 83398 21596 60000 10258 20240 30174 40180 70251 83540 333 2//// 58000 69964;
0137833980999992010071418004-15667-038950FM-12+000599999V0200501N002110450019N0040001N1+02721+02321101651ADDGF106991031021008001041001MA1999999101591MD1999999+0131REMSYN070AAXX  14184 83398 32596 60504 10272 20232 30159 40165 83240 333 58013;
0168833980999992010071500004-15667-038950FM-12+000599999V0200901N002111050019N0010001N1+02481+02211101881ADDGF105991021011008001041011KA1240M+02821MA1999999101821MD1999999+0181REMSYN088AAXX  15004 83398 32594 50904 10248 20221 30182 40188 82141 333 10282 29085 55069 58018;
0143833980999992010071512004-15667-038950FM-12+000599999V0200901N002110450019N0040001N1+02681+02061102031ADDGF106991031021008001041001MA1999999101971MD1999999+0231REMSYN076AAXX  15124 83398 32596 60904 10268 20206 30197 40203 83240 333 2//// 58023;
0137833980999992010071518004-15667-038950FM-12+000599999V0200901N001010450019N0040001N1+02661+02021101861ADDGF107991041051008001021001MA1999999101801MD1999999+0211REMSYN070AAXX  15184 83398 32596 70902 10266 20202 30180 40186 84520 333 58021;
0213833980999992010071600004-15667-038950FM-12+000599999V0209999C000010450019N0010001N1+02181+02101102001ADDAA106002091AY161061AY221061GF107991041051008001021001KA1240M+02821MA1999999101941MD1999999+0121MW1021REMSYN100AAXX  16004 83398 21594 70000 10218 20210 30194 40200 70262 84520 333 10282 29082 55064 58012 60021;
0188833980999992010071612004-15667-038950FM-12+000599999V0200501N005110075019N0040001N1+02441+01881102221ADDAA124007991AY161061AY221061GF108991071051008001021999MA1999999102161MD1999999+0191MW1521REMSYN088AAXX  16124 83398 21596 80510 10244 20188 30216 40222 75262 8752/ 333 2//// 58019 60084;
0182833980999992010071618004-15667-038950FM-12+000599999V0200901N004110075019N0040001N1+02601+02031102001ADDAA106006191AY161061AY221061GF108991051051008001021999MA1999999101941MD1999999+0141MW1021REMSYN082AAXX  16184 83398 21596 80908 10260 20203 30194 40200 70262 8552/ 333 58014 60061;
0168833980999992010071700004-15667-038950FM-12+000599999V0209999C000010075019N0010001N1+02421+02031102191ADDGF108991051051008001021999KA1240M+02701MA1999999102131MD1999999+0191REMSYN088AAXX  17004 83398 32594 80000 10242 20203 30213 40219 8552/ 333 10270 29075 55005 58019;
0188833980999992010071712004-15667-038950FM-12+000599999V0209999C000010450019N0040001N1+02381+02211101311ADDAA124007991AY161061AY221061GF106991041051008001021001MA1999999102251MD1999999+0091MW1021REMSYN088AAXX  17124 83398 21596 60000 10238 20221 30225 40131 70262 84520 333 2//// 58009 60084;
0137833980999992010071718004-15667-038950FM-12+000599999V0200901N003110450019N0040001N1+02641+02161102121ADDGF106991041051008001021001MA1999999102061MD1999999-0101REMSYN070AAXX  17184 83398 32596 60906 10264 20216 30206 40212 84520 333 59010;
0168833980999992010071800004-15667-038950FM-12+000599999V0209999C000010450019N0010001N1+02161+02081102281ADDGF105991031051008001021001KA1240M+02781MA1999999102221MD1999999+0091REMSYN088AAXX  18004 83398 32594 50000 10216 20208 30222 40228 83520 333 10278 29089 55077 58009;
0188833980999992010071812004-15667-038950FM-12+000599999V0201801N003110075019N0040001N1+02121+02021102281ADDAA124007191AY161061AY221061GF108991051051008001021999MA1999999102221MD1999999-0031MW1021REMSYN088AAXX  18124 83398 21596 81806 10212 20202 30222 40228 70262 8552/ 333 2//// 59003 60074;
0182833980999992010071818004-15667-038950FM-12+000599999V0201401N003110450019N0040001N1+02501+02321102051ADDAA106002091AY161061AY221061GF106991041051008001021001MA1999999101991MD1999999-0071MW1021REMSYN082AAXX  18184 83398 21596 61406 10250 20232 30199 40205 70262 84520 333 59007 60021;
0168833980999992010071900004-15667-038950FM-12+000599999V0209999C000010450019N0010001N1+02181+02101102141ADDGF106991041051008001021001KA1240M+02721MA1999999102081MD1999999-0141REMSYN088AAXX  19004 83398 32594 60000 10218 20210 30208 40214 84520 333 10272 29094 55045 59014;
0188833980999992010071912004-15667-038950FM-12+000599999V0201401N003110450019N0040001N1+02381+02111102221ADDAA124008991AY161061AY221061GF106991041051008001021001MA1999999102161MD1999999-0061MW1021REMSYN088AAXX  19124 83398 21596 61406 10238 20211 30216 40222 70262 84520 333 2//// 59006 60094;
0137833980999992010071918004-15667-038950FM-12+000599999V0201801N003110450019N0040001N1+02501+01941102051ADDGF106991041051008001021001MA1999999101991MD1999999+0001REMSYN070AAXX  19184 83398 32596 61806 10250 20194 30199 40205 84520 333 58000;
0168833980999992010072000004-15667-038950FM-12+000599999V0209999C000010450019N0010001N1+02121+01981102241ADDGF106991041051008001021001KA1240M+02701MA1999999102181MD1999999-0101REMSYN088AAXX  20004 83398 32594 60000 10212 20198 30218 40224 84520 333 10270 29085 55037 59010;
0188833980999992010072012004-15667-038950FM-12+000599999V0201801N003110075019N0040001N1+02061+01991101331ADDAA124006191AY161061AY221061GF108991051051008001021999MA1999999102271MD1999999+0111MW1601REMSYN088AAXX  20124 83398 21596 81806 10206 20199 30227 40133 76062 8552/ 333 2//// 58011 60064;
0182833980999992010072018004-15667-038950FM-12+000599999V0201401N003110450019N0040001N1+02581+01741102041ADDAA106002091AY161061AY221061GF105991031051008001021001MA1999999101981MD1999999-0011MW1021REMSYN082AAXX  20184 83398 21596 51406 10258 20174 30198 40204 70262 83520 333 59001 60021;
0168833980999992010072100004-15667-038950FM-12+000599999V0209999C000010450019N0010001N1+02261+01921102211ADDGF106991041051008001021001KA1240M+02621MA1999999102151MD1999999-0031REMSYN088AAXX  21004 83398 32594 60000 10226 20192 30215 40221 84520 333 10262 29080 55040 59003;
0188833980999992010072112004-15667-038950FM-12+000599999V0201401N002110450019N0040001N1+02341+02011102321ADDAA124005191AY161061AY221061GF106991041051008001021001MA1999999102261MD1999999-0011MW1021REMSYN088AAXX  21124 83398 21596 61404 10234 20201 30226 40232 70262 84520 333 2//// 59001 60054;
0137833980999992010072118004-15667-038950FM-12+000599999V0201401N003110450019N0040001N1+02581+01821102131ADDGF106991041051008001021001MA1999999102071MD1999999+0091REMSYN070AAXX  21184 83398 32596 61406 10258 20182 30207 40213 84520 333 58009;
0168833980999992010072200004-15667-038950FM-12+000599999V0209999C000010450019N0010001N1+02181+01971102291ADDGF106991041051008001021001KA1240M+02721MA1999999102231MD1999999+0081REMSYN088AAXX  22004 83398 32594 60000 10218 20197 30223 40229 84520 333 10272 29080 55066 58008;
0188833980999992010072212004-15667-038950FM-12+000599999V0200901N003110075019N0040001N1+02601+02031102341ADDAA124003091AY161061AY221061GF107991051051008001021001MA1999999102281MD1999999+0021MW1021REMSYN088AAXX  22124 83398 21596 70906 10260 20203 30228 40234 70262 85520 333 2//// 58002 60034;
0137833980999992010072218004-15667-038950FM-12+000599999V0200901N003110450019N0040001N1+02601+01921102081ADDGF106991041051008001021001MA1999999102021MD1999999-0051REMSYN070AAXX  22184 83398 32596 60906 10260 20192 30202 40208 84520 333 59005;
0168833980999992010072300004-15667-038950FM-12+000599999V0200901N002110075019N0010001N1+02061+01981101331ADDGF107991051051008001021001KA1240M+02681MA1999999102271MD1999999+0041REMSYN088AAXX  23004 83398 32594 70904 10206 20198 30227 40133 85520 333 10268 29082 55031 58004;
0188833980999992010072312004-15667-038950FM-12+000599999V0201801N002110450019N0040001N1+02321+02161102481ADDAA124018091AY161061AY221061GF106991041051008001021001MA1999999102421MD1999999+0141MW1021REMSYN088AAXX  23124 83398 21596 61804 10232 20216 30242 40248 70262 84520 333 2//// 58014 60184;
0137833980999992010072318004-15667-038950FM-12+000599999V0200901N001510450019N0040001N1+02581+02101102301ADDGF106991041051008001021001MA1999999102241MD1999999+0221REMSYN070AAXX  23184 83398 32596 60903 10258 20210 30224 40230 84520 333 58022;
0168833980999992010072400004-15667-038950FM-12+000599999V0209999C000010075019N0010001N1+02161+02061102351ADDGF107991051051008001021001KA1240M+02721MA1999999102291MD1999999+0021REMSYN088AAXX  24004 83398 32594 70000 10216 20206 30229 40235 85520 333 10272 29089 55068 58002;
0188833980999992010072412004-15667-038950FM-12+000599999V0209999C000010450019N0040001N1+02561+01931102381ADDAA124016091AY161061AY221061GF106991041051008001021001MA1999999102321MD1999999-0101MW1021REMSYN088AAXX  24124 83398 21596 60000 10256 20193 30232 40238 70262 84520 333 2//// 59010 60164;
0137833980999992010072418004-15667-038950FM-12+000599999V0200901N004110450019N0040001N1+02561+02021102141ADDGF106991041051008001021001MA1999999102081MD1999999-0161REMSYN070AAXX  24184 83398 32596 60908 10256 20202 30208 40214 84520 333 59016;
0168833980999992010072500004-15667-038950FM-12+000599999V0201401N003110450019N0010001N1+02121+02021102291ADDGF106991041051008001021001KA1240M+02741MA1999999102231MD1999999-0061REMSYN088AAXX  25004 83398 32594 61406 10212 20202 30223 40229 84520 333 10274 29082 55076 59006;
0188833980999992010072512004-15667-038950FM-12+000599999V0209999C000010075019N0040001N1+02321+02071102321ADDAA124016091AY161061AY221061GF107991051051008001021001MA1999999102261MD1999999-0061MW1021REMSYN088AAXX  25124 83398 21596 70000 10232 20207 30226 40232 70262 85520 333 2//// 59006 60164;
0182833980999992010072518004-15667-038950FM-12+000599999V0200901N003110450019N0040001N1+02501+02251102081ADDAA106007991AY161061AY221061GF106991041051008001021001MA1999999102021MD1999999-0061MW1021REMSYN082AAXX  25184 83398 21596 60906 10250 20225 30202 40208 70262 84520 333 59006 60081;
0213833980999992010072600004-15667-038950FM-12+000599999V0209999C000010450019N0010001N1+02141+02071102231ADDAA106006191AY161061AY221061GF108991041071008001021999KA1240M+02621MA1999999102171MD1999999-0061MW1611REMSYN100AAXX  26004 83398 21594 80000 10214 20207 30217 40223 76162 8472/ 333 10262 29091 55015 59006 60061;
0188833980999992010072612004-15667-038950FM-12+000599999V0201401N001012200019N0040001N1+02291+02041102141ADDAA124017091AY161061AY221061GF104991021011008001041001MA1999999102081MD1999999-0181MW1021REMSYN088AAXX  26124 83398 21596 41402 10229 20204 30208 40214 70262 82140 333 2//// 59018 60174;
0137833980999992010072618004-15667-038950FM-12+000599999V0201401N002110075019N0040001N1+02341+02091101951ADDGF108991051051008001021999MA1999999101891MD1999999-0131REMSYN070AAXX  26184 83398 32596 81404 10234 20209 30189 40195 8552/ 333 59013;
0213833980999992010072700004-15667-038950FM-12+000599999V0209999C000010075019N0010001N1+02041+02011102121ADDAA106002091AY161061AY221061GF108991051051008001021999KA1240M+02721MA1999999102061MD1999999-0111MW1021REMSYN100AAXX  27004 83398 21594 80000 10204 20201 30206 40212 70262 8552/ 333 10272 29092 55060 59011 60021;
0188833980999992010072712004-15667-038950FM-12+000599999V0201401N001010450019N0040001N1+02321+02131102151ADDAA124003091AY161061AY221061GF107991041051008001021001MA1999999102091MD1999999+0011MW1021REMSYN088AAXX  27124 83398 21596 71402 10232 20213 30209 40215 70262 84520 333 2//// 58001 60034;
0137833980999992010072718004-15667-038950FM-12+000599999V0201401N002110450019N0040001N1+02601+02121101951ADDGF107991041051008001021001MA1999999101891MD1999999+0001REMSYN070AAXX  27184 83398 32596 71404 10260 20212 30189 40195 84520 333 58000;
0213833980999992010072800004-15667-038950FM-12+000599999V0209999C000010075019N0010001N1+02161+02111102161ADDAA106002091AY161061AY221061GF108991051051008001021999KA1240M+02681MA1999999102101MD1999999+0041MW1021REMSYN100AAXX  28004 83398 21594 80000 10216 20211 30210 40216 70262 8552/ 333 10268 29089 55073 58004 60021;
0188833980999992010072812004-15667-038950FM-12+000599999V0200901N001010075019N0040001N1+02521+02051102331ADDAA124005191AY161061AY221061GF108991051051008001021999MA1999999102271MD1999999+0181MW1021REMSYN088AAXX  28124 83398 21596 80902 10252 20205 30227 40233 70262 8552/ 333 2//// 58018 60054;
0182833980999992010072818004-15667-038950FM-12+000599999V0201401N002110075019N0040001N1+02101+01981102191ADDAA106003091AY161061AY221061GF108991051051008001021999MA1999999102131MD1999999+0241MW1521REMSYN082AAXX  28184 83398 21596 81404 10210 20198 30213 40219 75262 8552/ 333 58024 60031;
0213833980999992010072900004-15667-038950FM-12+000599999V0200901N002110450019N0010001N1+02081+02011102281ADDAA106001091AY161061AY221061GF106991041051008001021001KA1240M+02681MA1999999102221MD1999999+0121MW1501REMSYN100AAXX  29004 83398 21594 60904 10208 20201 30222 40228 75062 84520 333 10268 29090 55022 58012 60011;
0188833980999992010072912004-15667-038950FM-12+000599999V0200901N002110450019N0040001N1+02341+02001102331ADDAA124007191AY161061AY221061GF107991041051008001021001MA1999999102271MD1999999+0001MW1021REMSYN088AAXX  29124 83398 21596 70904 10234 20200 30227 40233 70262 84520 333 2//// 58000 60074;
0137833980999992010072918004-15667-038950FM-12+000599999V0200901N003110450019N0040001N1+02541+01981102041ADDGF105991031051008001041001MA1999999101981MD1999999-0151REMSYN070AAXX  29184 83398 32596 50906 10254 20198 30198 40204 83540 333 59015;
0168833980999992010073000004-15667-038950FM-12+000599999V0200901N003110450019N0010001N1+02221+01991102161ADDGF106991041051008001021001KA1240M+02641MA1999999102101MD1999999-0121REMSYN088AAXX  30004 83398 32594 60906 10222 20199 30210 40216 84520 333 10264 29081 55066 59012;
0188833980999992010073012004-15667-038950FM-12+000599999V0209999C000010075019N0040001N1+02221+02071102111ADDAA124002091AY161061AY221061GF108991051051008001021999MA1999999102051MD1999999-0221MW1021REMSYN088AAXX  30124 83398 21596 80000 10222 20207 30205 40211 70262 8552/ 333 2//// 59022 60024;
0182833980999992010073018004-15667-038950FM-12+000599999V0200901N002110075019N0040001N1+02361+01971101851ADDAA106002091AY161061AY221061GF108991051051008001021999MA1999999101791MD1999999-0181MW1021REMSYN082AAXX  30184 83398 21596 80904 10236 20197 30179 40185 70262 8552/ 333 59018 60021;
0213833980999992010073100004-15667-038950FM-12+000599999V0209999C000010075019N0010001N1+02021+01951102001ADDAA106001091AY161061AY221061GF108991051051008001021999KA1240M+02521MA1999999101941MD1999999-0161MW1021REMSYN100AAXX  31004 83398 21594 80000 10202 20195 30194 40200 70262 8552/ 333 10252 29090 55008 59016 60011;
0188833980999992010073112004-15667-038950FM-12+000599999V0209999C000012200019N0040001N1+02241+01881102001ADDAA124005191AY161061AY221061GF103991021011008001041001MA1999999101941MD1999999-0111MW1021REMSYN088AAXX  31124 83398 21596 30000 10224 20188 30194 40200 70262 82140 333 2//// 59011 60054;
0137833980999992010073118004-15667-038950FM-12+000599999V0200901N002112200019N0040001N1+02501+01701101651ADDGF102991011021008001041001MA1999999101591MD1999999-0201REMSYN070AAXX  31184 83398 32596 20904 10250 20170 30159 40165 81240 333 59020;
0188833980999992010080112004-15667-038950FM-12+000599999V0201801N001010075019N0040001N1+02141+01991101941ADDAA124003091AY161061AY221061GF108991051051008001021999MA1999999101881MD1999999-0061MW1021REMSYN088AAXX  01124 83398 21596 81802 10214 20199 30188 40194 70262 8552/ 333 2//// 59006 60034;
0137833980999992010080118004-15667-038950FM-12+000599999V0200901N001012200019N0040001N1+02541+02131101641ADDGF103991021011008001041001MA1999999101581MD1999999-0011REMSYN070AAXX  01184 83398 32596 30902 10254 20213 30158 40164 82140 333 59001;
0168833980999992010080200004-15667-038950FM-12+000599999V0209999C000012200019N0010001N1+02201+01951101861ADDGF103991021021008001041001KA1240M+02641MA1999999101801MD1999999+0101REMSYN088AAXX  02004 83398 32594 30000 10220 20195 30180 40186 82240 333 10264 29085 55082 58010;
0143833980999992010080212004-15667-038950FM-12+000599999V0201801N001012200019N0040001N1+02361+02051102031ADDGF102991011011008001041001MA1999999101971MD1999999+0091REMSYN076AAXX  02124 83398 32596 21802 10236 20205 30197 40203 81140 333 2//// 58009;
0137833980999992010080218004-15667-038950FM-12+000599999V0200501N002112200019N0040001N1+02581+01801101841ADDGF102991011011008001041001MA1999999101781MD1999999+0201REMSYN070AAXX  02184 83398 32596 20504 10258 20180 30178 40184 81140 333 58020;
0168833980999992010080300004-15667-038950FM-12+000599999V0200501N003112200019N0010001N1+02361+02051102031ADDGF104991021011008001041001KA1240M+02741MA1999999101971MD1999999+0171REMSYN088AAXX  03004 83398 32594 40506 10236 20205 30197 40203 82140 333 10274 29078 55074 58017;
0188833980999992010080312004-15667-038950FM-12+000599999V0200901N002110075019N0040001N1+02441+02051102121ADDAA124002091AY161061AY221061GF108991051051008001021999MA1999999102061MD1999999+0091MW1021REMSYN088AAXX  03124 83398 21596 80904 10244 20205 30206 40212 70262 8552/ 333 2//// 58009 60024;
0182833980999992010080318004-15667-038950FM-12+000599999V0209999C000010075019N0040001N1+02271+02201101841ADDAA106000891AY151061AY211061GF108991051051008001021999MA1999999101781MD1999999+0001MW1021REMSYN082AAXX  03184 83398 21596 80000 10227 20220 30178 40184 70251 8552/ 333 58000 69971;
0168833980999992010080400004-15667-038950FM-12+000599999V0209999C000010450019N0010001N1+02001+01971102041ADDGF106991031051008001021001KA1240M+02561MA1999999101981MD1999999+0011REMSYN088AAXX  04004 83398 32594 60000 10200 20197 30198 40204 83520 333 10256 29093 55012 58001;
0188833980999992010080412004-15667-038950FM-12+000599999V0209999C000010075019N0040001N1+02291+02151102151ADDAA124003091AY161061AY221061GF108991051051008001021999MA1999999102091MD1999999+0031MW1021REMSYN088AAXX  04124 83398 21596 80000 10229 20215 30209 40215 70262 8552/ 333 2//// 58003 60034;
0137833980999992010080418004-15667-038950FM-12+000599999V0200501N003110450019N0040001N1+02491+02141101911ADDGF107991041051008001021001MA1999999101851MD1999999+0071REMSYN070AAXX  04184 83398 32596 70506 10249 20214 30185 40191 84520 333 58007;
0188833980999992010080512004-15667-038950FM-12+000599999V0209999C000010075019N0040001N1+02221+02071102131ADDAA124003091AY161061AY221061GF108991051051008001021999MA1999999102071MD1999999-0021MW1021REMSYN088AAXX  05124 83398 21596 80000 10222 20207 30207 40213 70262 8552/ 333 2//// 59002 60034;
0182833980999992010080518004-15667-038950FM-12+000599999V0200901N002110075019N0040001N1+02351+01921101881ADDAA106002091AY161061AY221061GF108991051051008001021999MA1999999101821MD1999999+0031MW1021REMSYN082AAXX  05184 83398 21596 80904 10235 20192 30182 40188 70262 8552/ 333 58003 60021;
0168833980999992010080600004-15667-038950FM-12+000599999V0209999C000010075019N0010001N1+02061+01981101921ADDGF108991051051008001021999KA1240M+02521MA1999999101861MD1999999-0181REMSYN088AAXX  06004 83398 32594 80000 10206 20198 30186 40192 8552/ 333 10252 29089 55009 59018;
0188833980999992010080612004-15667-038950FM-12+000599999V0209999C000012200019N0040001N1+02341+02071101981ADDAA124003091AY151061AY211061GF104991021011008001041001MA1999999101921MD1999999-0151MW1021REMSYN088AAXX  06124 83398 21596 40000 10234 20207 30192 40198 70251 82140 333 2//// 59015 60034;
0137833980999992010080618004-15667-038950FM-12+000599999V0200501N001012200019N0040001N1+02501+02001101671ADDGF103991021011008001041001MA1999999101611MD1999999-0211REMSYN070AAXX  06184 83398 32596 30502 10250 20200 30161 40167 82140 333 59021;
0168833980999992010080700004-15667-038950FM-12+000599999V0209999C000010450019N0010001N1+02001+01851101831ADDGF105991031021008001041001KA1240M+02581MA1999999101771MD1999999-0091REMSYN088AAXX  07004 83398 32594 50000 10200 20185 30177 40183 83240 333 10258 29085 55075 59009;
0143833980999992010080712004-15667-038950FM-12+000599999V0201401N002110075019N0040001N1+02201+02121102181ADDGF107991051051008001021001MA1999999102121MD1999999+0201REMSYN076AAXX  07124 83398 32596 71404 10220 20212 30212 40218 85520 333 2//// 58020;
0137833980999992010080718004-15667-038950FM-12+000599999V0209999C000010075019N0040001N1+02361+02191101981ADDGF108991051051008001021999MA1999999101921MD1999999+0311REMSYN070AAXX  07184 83398 32596 80000 10236 20219 30192 40198 8552/ 333 58031;
0168833980999992010080800004-15667-038950FM-12+000599999V0209999C000010075019N0010001N1+02061+01991102151ADDGF108991051051008001021999KA1240M+02681MA1999999102091MD1999999+0321REMSYN088AAXX  08004 83398 32594 80000 10206 20199 30209 40215 8552/ 333 10268 29094 55039 58032;
0143833980999992010080812004-15667-038950FM-12+000599999V0201401N002110450019N0040001N1+02341+02171102201ADDGF106991041051008001021001MA1999999102141MD1999999+0021REMSYN076AAXX  08124 83398 32596 61404 10234 20217 30214 40220 84520 333 2//// 58002;
0137833980999992010080818004-15667-038950FM-12+000599999V0200901N003110450019N0040001N1+02501+02051101991ADDGF105991031051008001041001MA1999999101931MD1999999+0011REMSYN070AAXX  08184 83398 32596 50906 10250 20205 30193 40199 83540 333 58001;
0168833980999992010080900004-15667-038950FM-12+000599999V0209999C000010450019N0010001N1+02201+01991102201ADDGF105991031051008001021001KA1240M+02681MA1999999101241MD1999999+0051REMSYN088AAXX  09004 83398 32594 50000 10220 20199 30124 40220 83520 333 10268 29086 55079 58005;
0143833980999992010080912004-15667-038950FM-12+000599999V0209999C000010450019N0040001N1+02361+02111102151ADDGF105991031051008001041001MA1999999102091MD1999999-0051REMSYN076AAXX  09124 83398 32596 50000 10236 20211 30209 40215 83540 333 2//// 59005;
0137833980999992010080918004-15667-038950FM-12+000599999V0203601N003110450019N0040001N1+02621+02121101821ADDGF105991031021008001041001MA1999999101761MD1999999-0171REMSYN070AAXX  09184 83398 32596 53606 10262 20212 30176 40182 83240 333 59017;
0168833980999992010081000004-15667-038950FM-12+000599999V0209999C000010450019N0010001N1+02021+01921101991ADDGF105991031051008001021001KA1240M+02721MA1999999101931MD1999999-0211REMSYN088AAXX  10004 83398 32594 50000 10202 20192 30193 40199 83520 333 10272 29087 55086 59021;
0143833980999992010081012004-15667-038950FM-12+000599999V0201801N003110450019N0040001N1+02181+02061102301ADDGF105991031021008001041001MA1999999102241MD1999999+0151REMSYN076AAXX  10124 83398 32596 51806 10218 20206 30224 40230 83240 333 2//// 58015;
0156833980999992010081018004-15667-038950FM-12+000599999V0200901N003112200019N0040001N1+02661+02071102081ADDGF104991999021008001001001MA1999999102021MD1999999+0261REMSYN070AAXX  10184 83398 32596 40906 10266 20207 30202 40208 83200 333 58026;EQDQ01+000032SCOTLC
0168833980999992010081100004-15667-038950FM-12+000599999V0209999C000012200019N0010001N1+02121+02021102341ADDGF103991031011008001001001KA1240M+02781MA1999999102281MD1999999+0251REMSYN088AAXX  11004 83398 32594 30000 10212 20202 30228 40234 83100 333 10278 29088 55085 58025;
0188833980999992010081112004-15667-038950FM-12+000599999V0200901N003110450019N0040001N1+02521+02091102461ADDAA124011991AY161061AY221061GF106991041051008001021001MA1999999102401MD1999999+0201MW1021REMSYN088AAXX  11124 83398 21596 60906 10252 20209 30240 40246 70262 84520 333 2//// 58020 60124;
0137833980999992010081118004-15667-038950FM-12+000599999V0200901N004110450019N0040001N1+02561+01971102251ADDGF105991031051008001021001MA1999999102191MD1999999+0171REMSYN070AAXX  11184 83398 32596 50908 10256 20197 30219 40225 83520 333 58017;
0168833980999992010081200004-15667-038950FM-12+000599999V0209999C000010075019N0010001N1+02201+01921102461ADDGF105991051051008001001001KA1240M+02701MA1999999102401MD1999999+0121REMSYN088AAXX  12004 83398 32594 50000 10220 20192 30240 40246 85500 333 10270 29077 55081 58012;
0143833980999992010081212004-15667-038950FM-12+000599999V0200901N003110450019N0040001N1+02541+02021102501ADDGF106991041051008001021001MA1999999102441MD1999999+0041REMSYN076AAXX  12124 83398 32596 60906 10254 20202 30244 40250 84520 333 2//// 58004;
0137833980999992010081218004-15667-038950FM-12+000599999V0200901N003110450019N0040001N1+02621+01781102271ADDGF105991031021008001041001MA1999999102211MD1999999+0021REMSYN070AAXX  12184 83398 32596 50906 10262 20178 30221 40227 83240 333 58002;
0168833980999992010081300004-15667-038950FM-12+000599999V0209999C000012200019N0010001N1+02021+01891102381ADDGF103991031011008001001001KA1240M+02701MA1999999102321MD1999999-0081REMSYN088AAXX  13004 83398 32594 30000 10202 20189 30232 40238 83100 333 10270 29079 55078 59008;
0188833980999992010081312004-15667-038950FM-12+000599999V0201401N002110075019N0040001N1+02141+02071102361ADDAA124005191AY161061AY221061GF107991051051008001021001MA1999999102301MD1999999-0141MW1021REMSYN088AAXX  13124 83398 21596 71404 10214 20207 30230 40236 70262 85520 333 2//// 59014 60054;
0137833980999992010081318004-15667-038950FM-12+000599999V0200901N003110075019N0040001N1+02601+01821102051ADDGF105991051051008001001001MA1999999101991MD1999999-0221REMSYN070AAXX  13184 83398 32596 50906 10260 20182 30199 40205 85500 333 59022;
0168833980999992010081400004-15667-038950FM-12+000599999V0209999C000012200019N0010001N1+02201+01841102141ADDGF103991031051008001001001KA1240M+02661MA1999999102081MD1999999-0241REMSYN088AAXX  14004 83398 32594 30000 10220 20184 30208 40214 83500 333 10266 29080 55042 59024;
0143833980999992010081412004-15667-038950FM-12+000599999V0202301N002110450019N0040001N1+02301+02091101911ADDGF105991031021008001041001MA1999999101851MD1999999-0451REMSYN076AAXX  14124 83398 32596 52304 10230 20209 30185 40191 83240 333 2//// 59045;
0137833980999992010081418004-15667-038950FM-12+000599999V0203601N003111050019N0040001N1+02601+02101101611ADDGF105991011021008001041011MA1999999101551MD1999999-0441REMSYN070AAXX  14184 83398 32596 53606 10260 20210 30155 40161 81241 333 59044;
0168833980999992010081500004-15667-038950FM-12+000599999V0209999C000012200019N0010001N1+02381+02071101821ADDGF103991031011008001001001KA1240M+02681MA1999999101761MD1999999-0321REMSYN088AAXX  15004 83398 32594 30000 10238 20207 30176 40182 83100 333 10268 29082 55081 59032;
0143833980999992010081512004-15667-038950FM-12+000599999V0209999C000012200019N0040001N1+02321+02071101981ADDGF102991011011008001041001MA1999999101921MD1999999+0071REMSYN076AAXX  15124 83398 32596 20000 10232 20207 30192 40198 81140 333 2//// 58007;
0137833980999992010081518004-15667-038950FM-12+000599999V0200901N002112200019N0040001N1+02581+01941101611ADDGF102991011011008001041001MA1999999101551MD1999999+0001REMSYN070AAXX  15184 83398 32596 20904 10258 20194 30155 40161 81140 333 58000;
0168833980999992010081600004-15667-038950FM-12+000599999V0209999C000012200019N0010001N1+02101+02001101801ADDGF102991011011008001041001KA1240M+02721MA1999999101741MD1999999-0021REMSYN088AAXX  16004 83398 32594 20000 10210 20200 30174 40180 81140 333 10272 29085 55084 59002;
0188833980999992010081612004-15667-038950FM-12+000599999V0201801N008210450019N0040001N1+02241+01991102061ADDAA124000891AY151061AY221061GF107991041051008001021001MA1999999102001MD1999999+0081MW1021REMSYN088AAXX  16124 83398 21596 71816 10224 20199 30200 40206 70252 84520 333 2//// 58008 69984;
0137833980999992010081618004-15667-038950FM-12+000599999V0201801N002110075019N0040001N1+02101+01801102021ADDGF108991051051008001021999MA1999999101961MD1999999+0411REMSYN070AAXX  16184 83398 32596 81804 10210 20180 30196 40202 8552/ 333 58041;
0168833980999992010081700004-15667-038950FM-12+000599999V0201801N004110450019N0010001N1+01841+01531102341ADDGF107991041051008001021001KA1240M+02361MA1999999102281MD1999999+0541REMSYN088AAXX  17004 83398 32594 71808 10184 20153 30228 40234 84520 333 10236 29083 55023 58054;
0143833980999992010081712004-15667-038950FM-12+000599999V0201801N006210075019N0040001N1+01941+01531102461ADDGF108991051051008001021999MA1999999102401MD1999999+0401REMSYN076AAXX  17124 83398 32596 81812 10194 20153 30240 40246 8552/ 333 2//// 58040;
0182833980999992010081718004-15667-038950FM-12+000599999V0201801N008210075019N0040001N1+02151+01751102251ADDAA106000891AY151061AY211061GF108991051051008001021999MA1999999102191MD1999999+0231MW1021REMSYN082AAXX  17184 83398 21596 81816 10215 20175 30219 40225 70251 8552/ 333 58023 69971;
0168833980999992010081800004-15667-038950FM-12+000599999V0201801N005110075019N0010001N1+01881+01621102441ADDGF108991051051008001021999KA1240M+02401MA1999999102381MD1999999+0101REMSYN088AAXX  18004 83398 32594 81810 10188 20162 30238 40244 8552/ 333 10240 29085 55025 58010;
0188833980999992010081812004-15667-038950FM-12+000599999V0201801N005110450019N0040001N1+01951+01581102521ADDAA124001091AY151061AY211061GF107991041051008001021001MA1999999102461MD1999999+0061MW1021REMSYN088AAXX  18124 83398 21596 71810 10195 20158 30246 40252 70251 84520 333 2//// 58006 60014;
0137833980999992010081818004-15667-038950FM-12+000599999V0201401N004110450019N0040001N1+02351+01651102211ADDGF106991031021008001041001MA1999999102151MD1999999-0041REMSYN070AAXX  18184 83398 32596 61408 10235 20165 30215 40221 83240 333 59004;
0168833980999992010081900004-15667-038950FM-12+000599999V0201401N004110450019N0010001N1+01861+01731102311ADDGF107991041051008001021001KA1240M+02481MA1999999102251MD1999999-0131REMSYN088AAXX  19004 83398 32594 71408 10186 20173 30225 40231 84520 333 10248 29082 55069 59013;
0188833980999992010081912004-15667-038950FM-12+000599999V0201801N004110075019N0040001N1+01941+01531102461ADDAA124001091AY151061AY211061GF108991051051008001021999MA1999999102401MD1999999-0061MW1021REMSYN088AAXX  19124 83398 21596 81808 10194 20153 30240 40246 70251 8552/ 333 2//// 59006 60014;
0182833980999992010081918004-15667-038950FM-12+000599999V0201401N004110450019N0040001N1+02421+01651102021ADDAA106005191AY161061AY221061GF106991031051008001021001MA1999999101961MD1999999-0191MW1021REMSYN082AAXX  19184 83398 21596 61408 10242 20165 30196 40202 70262 83520 333 59019 60051;
0213833980999992010082000004-15667-038950FM-12+000599999V0209999C000010075019N0010001N1+01881+01811102171ADDAA106001091AY151061AY211061GF108991051051008001021999KA1240M+02501MA1999999102111MD1999999-0141MW1021REMSYN100AAXX  20004 83398 21594 80000 10188 20181 30211 40217 70251 8552/ 333 10250 29083 55041 59014 60011;
0188833980999992010082012004-15667-038950FM-12+000599999V0201401N001010075019N0040001N1+02111+01921102261ADDAA124008991AY161061AY221061GF108991051051008001021999MA1999999102201MD1999999-0201MW1021REMSYN088AAXX  20124 83398 21596 81402 10211 20192 30220 40226 70262 8552/ 333 2//// 59020 60094;
0137833980999992010082018004-15667-038950FM-12+000599999V0201401N003110450019N0040001N1+02481+01871101921ADDGF106991031051008001041001MA1999999101861MD1999999-0101REMSYN070AAXX  20184 83398 32596 61406 10248 20187 30186 40192 83540 333 59010;
0213833980999992010082100004-15667-038950FM-12+000599999V0201401N002110075019N0010001N1+02021+01951102161ADDAA106000891AY151061AY211061GF108991051051008001021999KA1240M+02521MA1999999102101MD1999999-0011MW1021REMSYN100AAXX  21004 83398 21594 81404 10202 20195 30210 40216 70251 8552/ 333 10252 29087 55047 59001 69981;
0188833980999992010082112004-15667-038950FM-12+000599999V0209999C000010075019N0040001N1+02051+01981102271ADDAA124005191AY161061AY221061GF108991051051008001021999MA1999999102211MD1999999+0011MW1021REMSYN088AAXX  21124 83398 21596 80000 10205 20198 30221 40227 70262 8552/ 333 2//// 58001 60054;
0137833980999992010082118004-15667-038950FM-12+000599999V0200901N002110450019N0040001N1+02521+01911102031ADDGF106991031051008001041001MA1999999101971MD1999999+0111REMSYN070AAXX  21184 83398 32596 60904 10252 20191 30197 40203 83540 333 58011;
0168833980999992010082200004-15667-038950FM-12+000599999V0209999C000010450019N0010001N1+02061+01871102281ADDGF106991041051008001021001KA1240M+02641MA1999999102221MD1999999+0121REMSYN088AAXX  22004 83398 32594 60000 10206 20187 30222 40228 84520 333 10264 29084 55038 58012;
0143833980999992010082212004-15667-038950FM-12+000599999V0209999C000010075019N0040001N1+02261+01961102371ADDGF108991051051008001021999MA1999999102311MD1999999+0101REMSYN076AAXX  22124 83398 32596 80000 10226 20196 30231 40237 8552/ 333 2//// 58010;
0137833980999992010082218004-15667-038950FM-12+000599999V0200501N003110075019N0040001N1+02301+01831102111ADDGF108991051051008001021999MA1999999102051MD1999999+0081REMSYN070AAXX  22184 83398 32596 80506 10230 20183 30205 40211 8552/ 333 58008;
0168833980999992010082300004-15667-038950FM-12+000599999V0200501N001012200019N0010001N1+01941+01811102271ADDGF103991011021008001041011KA1240M+02681MA1999999102211MD1999999-0011REMSYN088AAXX  23004 83398 32594 30502 10194 20181 30221 40227 81241 333 10268 29085 55061 59001;
0188833980999992010082312004-15667-038950FM-12+000599999V0209999C000010450019N0040001N1+02251+02041102241ADDAA124001091AY161061AY221061GF107991041051008001041001MA1999999102181MD1999999-0131MW1021REMSYN088AAXX  23124 83398 21596 70000 10225 20204 30218 40224 70262 84540 333 2//// 59013 60014;
0137833980999992010082318004-15667-038950FM-12+000599999V0200901N002110450019N0040001N1+02541+01881101941ADDGF106991021011008001041001MA1999999101881MD1999999-0171REMSYN070AAXX  23184 83398 32596 60904 10254 20188 30188 40194 82140 333 59017;
0213833980999992010082400004-15667-038950FM-12+000599999V0209999C000010075019N0010001N1+02101+02001102071ADDAA106002091AY151061AY231061GF108991051051008001021999KA1240M+02661MA1999999102011MD1999999-0201MW1021REMSYN100AAXX  24004 83398 21594 80000 10210 20200 30201 40207 70253 8552/ 333 10266 29086 55074 59020 60021;
0188833980999992010082412004-15667-038950FM-12+000599999V0203601N002110450019N0040001N1+02361+02151102131ADDAA124009991AY161061AY221061GF106991041051008001021001MA1999999102071MD1999999-0111MW1021REMSYN088AAXX  24124 83398 21596 63604 10236 20215 30207 40213 70262 84520 333 2//// 59011 60104;
0137833980999992010082418004-15667-038950FM-12+000599999V0200901N003110450019N0040001N1+02641+01981101871ADDGF106991041051008001021001MA1999999101811MD1999999-0071REMSYN070AAXX  24184 83398 32596 60906 10264 20198 30181 40187 84520 333 59007;
0168833980999992010082500004-15667-038950FM-12+000599999V0200501N003110450019N0010001N1+02381+02111102021ADDGF106991041051008001021001KA1240M+02741MA1999999101961MD1999999-0051REMSYN088AAXX  25004 83398 32594 60506 10238 20211 30196 40202 84520 333 10274 29081 55064 59005;
0143833980999992010082512004-15667-038950FM-12+000599999V0200901N004110075019N0040001N1+02601+01921102121ADDGF107991051051008001021001MA1999999102061MD1999999-0011REMSYN076AAXX  25124 83398 32596 70908 10260 20192 30206 40212 85520 333 2//// 59001;
0137833980999992010082518004-15667-038950FM-12+000599999V0201401N003110075019N0040001N1+02661+01951101931ADDGF105991051021008001001001MA1999999101871MD1999999+0061REMSYN070AAXX  25184 83398 32596 51406 10266 20195 30187 40193 85200 333 58006;
0168833980999992010082600004-15667-038950FM-12+000599999V0209999C000010450019N0010001N1+02161+02061102111ADDGF106991041051008001021001KA1240M+02761MA1999999102051MD1999999+0091REMSYN088AAXX  26004 83398 32594 60000 10216 20206 30205 40211 84520 333 10276 29080 55066 58009;
0143833980999992010082612004-15667-038950FM-12+000599999V0201401N003110450019N0040001N1+02521+02251102131ADDGF106991041051008001021001MA1999999102071MD1999999+0011REMSYN076AAXX  26124 83398 32596 61406 10252 20225 30207 40213 84520 333 2//// 58001;
0156833980999992010082618004-15667-038950FM-12+000599999V0200901N003119999999N0040001N1+02681+02111101821ADDGF105991999051008001001001MA1999999101761MD1999999-0111REMSYN070AAXX  26184 83398 32596 50906 10268 20211 30176 40182 84500 333 59011;EQDQ01+000042SCOTLC
0168833980999992010082700004-15667-038950FM-12+000599999V0209999C000010450019N0010001N1+02361+02051101971ADDGF105991031051008001021001KA1240M+02721MA1999999101911MD1999999-0141REMSYN088AAXX  27004 83398 32594 50000 10236 20205 30191 40197 83520 333 10272 29081 55076 59014;
0188833980999992010082712004-15667-038950FM-12+000599999V0209999C000010075019N0040001N1+02401+02231102041ADDAA124002091AY161061AY221061GF107991051051008001021001MA1999999101981MD1999999-0091MW1021REMSYN088AAXX  27124 83398 21596 70000 10240 20223 30198 40204 70262 85520 333 2//// 59009 60024;
0137833980999992010082718004-15667-038950FM-12+000599999V0200901N003110450019N0040001N1+02701+02241101721ADDGF105991031021008001041001MA1999999101661MD1999999-0101REMSYN070AAXX  27184 83398 32596 50906 10270 20224 30166 40172 83240 333 59010;
0168833980999992010082800004-15667-038950FM-12+000599999V0200901N002112200019N0010001N1+02361+02111101851ADDGF103991021011008001041001KA1240M+02761MA1999999101791MD1999999-0121REMSYN088AAXX  28004 83398 32594 30904 10236 20211 30179 40185 82140 333 10276 29085 55057 59012;
0143833980999992010082812004-15667-038950FM-12+000599999V0200901N002110450019N0040001N1+02401+02031101961ADDGF106991041051008001021001MA1999999101901MD1999999-0081REMSYN076AAXX  28124 83398 32596 60904 10240 20203 30190 40196 84520 333 2//// 59008;
0137833980999992010082818004-15667-038950FM-12+000599999V0200501N003110450019N0040001N1+02701+01861101661ADDGF105991031021008001041001MA1999999101601MD1999999-0061REMSYN070AAXX  28184 83398 32596 50506 10270 20186 30160 40166 83240 333 59006;
0168833980999992010082900004-15667-038950FM-12+000599999V0200901N002110450019N0010001N1+02461+02071101911ADDGF106991041051008001021001KA1240M+02781MA1999999101851MD1999999+0061REMSYN088AAXX  29004 83398 32594 60904 10246 20207 30185 40191 84520 333 10278 29075 55058 58006;
0188833980999992010082912004-15667-038950FM-12+000599999V0209999C000010450019N0040001N1+02441+02111101981ADDAA124002091AY161061AY221061GF106991041051008001021001MA1999999101921MD1999999+0021MW1021REMSYN088AAXX  29124 83398 21596 60000 10244 20211 30192 40198 70262 84520 333 2//// 58002 60024;
0137833980999992010082918004-15667-038950FM-12+000599999V0200901N003110075019N0040001N1+02701+02111101801ADDGF105991051051008001001001MA1999999101741MD1999999+0141REMSYN070AAXX  29184 83398 32596 50906 10270 20211 30174 40180 85500 333 58014;
0168833980999992010083000004-15667-038950FM-12+000599999V0200901N004110450019N0040001N1+02401+02091102061ADDGF106991041051008001021001KA1240M+02781MA1999999102001MD1999999+0151REMSYN088AAXX  30004 83398 32596 60908 10240 20209 30200 40206 84520 333 10278 29080 55073 58015;
0188833980999992010083012004-15667-038950FM-12+000599999V0200501N005110075019N0040001N1+02431+02141102091ADDAA124017091AY161061AY221061GF108991051051008001021999MA1999999102031MD1999999+0111MW1021REMSYN088AAXX  30124 83398 21596 80510 10243 20214 30203 40209 70262 8552/ 333 2//// 58011 60174;
0137833980999992010083018004-15667-038950FM-12+000599999V0200901N003110075019N0040001N1+02471+02041101831ADDGF108991051051008001021999MA1999999101771MD1999999+0031REMSYN070AAXX  30184 83398 32596 80906 10247 20204 30177 40183 8552/ 333 58003;
0168833980999992010083100004-15667-038950FM-12+000599999V0200901N005110450019N0010001N1+02461+01971102001ADDGF106991041051008001021001KA1240M+02581MA1999999101941MD1999999-0061REMSYN088AAXX  31004 83398 32594 60910 10246 20197 30194 40200 84520 333 10258 29077 55009 59006;
0143833980999992010083112004-15667-038950FM-12+000599999V0200901N004112200019N0040001N1+02621+01931102211ADDGF103991021011008001041001MA1999999102151MD1999999+0121REMSYN076AAXX  31124 83398 32596 30908 10262 20193 30215 40221 82140 333 2//// 58012;
0137833980999992010083118004-15667-038950FM-12+000599999V0200901N005112200019N0040001N1+02621+02031101991ADDGF103991021021008001041001MA1999999101931MD1999999+0161REMSYN070AAXX  31184 83398 32596 30910 10262 20203 30193 40199 82240 333 58016;
0168833980999992010090100004-15667-038950FM-12+000599999V0200901N005112200019N0010001N1+02381+01731102151ADDGF103991021011008001041001KA1240M+02781MA1999999102091MD1999999+0151REMSYN088AAXX  01004 83398 32594 30910 10238 20173 30209 40215 82140 333 10278 29067 55076 58015;
0188833980999992010090112004-15667-038950FM-12+000599999V0200901N005110075019N0040001N1+02341+01951102271ADDAA124001091AY161061AY221061GF108991051051008001021999MA1999999102211MD1999999+0061MW1021REMSYN088AAXX  01124 83398 21596 80910 10234 20195 30221 40227 70262 8552/ 333 2//// 58006 60014;
0137833980999992010090118004-15667-038950FM-12+000599999V0200901N003110075019N0040001N1+02541+02021102031ADDGF108991051051008001021999MA1999999101971MD1999999+0041REMSYN070AAXX  01184 83398 32596 80906 10254 20202 30197 40203 8552/ 333 58004;
0213833980999992010090200004-15667-038950FM-12+000599999V0200901N003110450019N0010001N1+02341+02091102181ADDAA106001091AY151061AY211061GF106991041051008001021001KA1240M+02681MA1999999102121MD1999999+0031MW1021REMSYN100AAXX  02004 83398 21594 60906 10234 20209 30212 40218 70251 84520 333 10268 29081 55031 58003 60011;
0188833980999992010090212004-15667-038950FM-12+000599999V0200901N002110450019N0040001N1+02581+01871102361ADDAA124003091AY161061AY221061GF107991041051008001021001MA1999999102301MD1999999+0091MW1021REMSYN088AAXX  02124 83398 21596 70904 10258 20187 30230 40236 70262 84520 333 2//// 58009 60034;
0137833980999992010090218004-15667-038950FM-12+000599999V0200901N001010075019N0040001N1+02591+01861102041ADDGF108991051051008001021999MA1999999101981MD1999999+0011REMSYN070AAXX  02184 83398 32596 80902 10259 20186 30198 40204 8552/ 333 58001;
0168833980999992010090300004-15667-038950FM-12+000599999V0200901N002110450019N0010001N1+02261+01981102211ADDGF107991041051008001021001KA1240M+02721MA1999999102151MD1999999+0031REMSYN088AAXX  03004 83398 32594 70904 10226 20198 30215 40221 84520 333 10272 29074 55082 58003;
0143833980999992010090312004-15667-038950FM-12+000599999V0200901N003110450019N0040001N1+02571+01841102221ADDGF105991021021008001041001MA1999999102161MD1999999-0141REMSYN076AAXX  03124 83398 32596 50906 10257 20184 30216 40222 82240 333 2//// 59014;
0137833980999992010090318004-15667-038950FM-12+000599999V0200901N002112200019N0040001N1+02581+01691101901ADDGF102991011011008001041001MA1999999101841MD1999999-0141REMSYN070AAXX  03184 83398 32596 20904 10258 20169 30184 40190 81140 333 59014;
0168833980999992010090400004-15667-038950FM-12+000599999V0200901N002112200019N0010001N1+02301+01701102101ADDGF102991011021008001041001KA1240M+02701MA1999999102041MD1999999-0111REMSYN088AAXX  04004 83398 32594 20904 10230 20170 30204 40210 81240 333 10270 29065 55087 59011;
0143833980999992010090412004-15667-038950FM-12+000599999V0209999C000010450019N0040001N1+02321+01911102141ADDGF106991031021008001041001MA1999999102081MD1999999-0081REMSYN076AAXX  04124 83398 32596 60000 10232 20191 30208 40214 83240 333 2//// 59008;
0137833980999992010090418004-15667-038950FM-12+000599999V0200501N001012200019N0040001N1+02621+01701101781ADDGF102991011011008001041001MA1999999101721MD1999999-0121REMSYN070AAXX  04184 83398 32596 20502 10262 20170 30172 40178 81140 333 59012;
0168833980999992010090500004-15667-038950FM-12+000599999V0209999C000012200019N0010001N1+02341+01851102001ADDGF102991011011008001041001KA1240M+02691MA1999999101941MD1999999-0101REMSYN088AAXX  05004 83398 32594 20000 10234 20185 30194 40200 81140 333 10269 29071 55086 59010;
0143833980999992010090512004-15667-038950FM-12+000599999V0209999C000012200019N0040001N1+02471+01981101961ADDGF102991011011008001041001MA1999999101901MD1999999-0181REMSYN076AAXX  05124 83398 32596 20000 10247 20198 30190 40196 81140 333 2//// 59018;
0137833980999992010090518004-15667-038950FM-12+000599999V0200501N002112200019N0040001N1+02641+01851101671ADDGF101991011011008001001001MA1999999101611MD1999999-0111REMSYN070AAXX  05184 83398 32596 10504 10264 20185 30161 40167 81100 333 59011;
0168833980999992010090600004-15667-038950FM-12+000599999V0200501N002112200019N0010001N1+02341+01871101941ADDGF102991011011008001041001KA1240M+02731MA1999999101881MD1999999-0061REMSYN088AAXX  06004 83398 32594 20504 10234 20187 30188 40194 81140 333 10273 29071 55089 59006;
0143833980999992010090612004-15667-038950FM-12+000599999V0201801N001010450019N0040001N1+02461+02131102191ADDGF107991041051008001021001MA1999999102131MD1999999+0231REMSYN076AAXX  06124 83398 32596 71802 10246 20213 30213 40219 84520 333 2//// 58023;
0137833980999992010090618004-15667-038950FM-12+000599999V0200901N003110075019N0040001N1+02391+02001102091ADDGF108991051051008001021999MA1999999102031MD1999999+0421REMSYN070AAXX  06184 83398 32596 80906 10239 20200 30203 40209 8552/ 333 58042;
0168833980999992010090700004-15667-038950FM-12+000599999V0209999C000012200019N0010001N1+02081+02001102231ADDGF102991011021008001041001KA1240M+02801MA1999999102171MD1999999+0291REMSYN088AAXX  07004 83398 32594 20000 10208 20200 30217 40223 81240 333 10280 29088 55046 58029;
0143833980999992010090712004-15667-038950FM-12+000599999V0200901N001012200019N0040001N1+02561+01951102251ADDGF103991021021008001041001MA1999999102191MD1999999+0061REMSYN076AAXX  07124 83398 32596 30902 10256 20195 30219 40225 82240 333 2//// 58006;
0137833980999992010090718004-15667-038950FM-12+000599999V0200901N001010450019N0040001N1+02531+02011101841ADDGF107991041051008001021001MA1999999101781MD1999999-0251REMSYN070AAXX  07184 83398 32596 70902 10253 20201 30178 40184 84520 333 59025;
0168833980999992010090800004-15667-038950FM-12+000599999V0209999C000012200019N0010001N1+02181+02101102001ADDGF103991021021008001041001KA1240M+02731MA1999999101941MD1999999-0231REMSYN088AAXX  08004 83398 32594 30000 10218 20210 30194 40200 82240 333 10273 29083 55067 59023;
0188833980999992010090812004-15667-038950FM-12+000599999V0200901N003110075019N0040001N1+02401+02261101981ADDAA124022191AY161061AY221061GF108991051051008001021999MA1999999101921MD1999999-0271MW1021REMSYN088AAXX  08124 83398 21596 80906 10240 20226 30192 40198 70262 8552/ 333 2//// 59027 60224;
0137833980999992010090818004-15667-038950FM-12+000599999V0202301N003110075019N0040001N1+02661+02111101651ADDGF105991051051008001001001MA1999999101591MD1999999-0191REMSYN070AAXX  08184 83398 32596 52306 10266 20211 30159 40165 85500 333 59019;
0168833980999992010090900004-15667-038950FM-12+000599999V0209999C000010450019N0010001N1+02201+02101101871ADDGF106991041051008001021001KA1240M+02721MA1999999101811MD1999999-0131REMSYN088AAXX  09004 83398 32594 60000 10220 20210 30181 40187 84520 333 10272 29088 55057 59013;
0143833980999992010090912004-15667-038950FM-12+000599999V0200901N003110450019N0040001N1+02521+02231102091ADDGF106991041051008001021001MA1999999102031MD1999999+0111REMSYN076AAXX  09124 83398 32596 60906 10252 20223 30203 40209 84520 333 2//// 58011;
0137833980999992010090918004-15667-038950FM-12+000599999V0201401N005110075019N0040001N1+02401+02131101911ADDGF108991051051008001021999MA1999999101851MD1999999+0261REMSYN070AAXX  09184 83398 32596 81410 10240 20213 30185 40191 8552/ 333 58026;
0213833980999992010091000004-15667-038950FM-12+000599999V0200901N003110450019N0010001N1+02121+02051102201ADDAA106003091AY161061AY221061GF108991041071008001021999KA1240M+02761MA1999999102141MD1999999+0331MW1611REMSYN100AAXX  10004 83398 21594 80906 10212 20205 30214 40220 76162 8472/ 333 10276 29091 55039 58033 60031;
0188833980999992010091012004-15667-038950FM-12+000599999V0201401N003110450019N0040001N1+02401+01771101321ADDAA124006191AY161061AY221061GF106991041051008001021001MA1999999102261MD1999999+0231MW1021REMSYN088AAXX  10124 83398 21596 61406 10240 20177 30226 40132 70262 84520 333 2//// 58023 60064;
0137833980999992010091018004-15667-038950FM-12+000599999V0201401N005110450019N0040001N1+02541+01831102111ADDGF106991041051008001021001MA1999999102051MD1999999+0201REMSYN070AAXX  10184 83398 32596 61410 10254 20183 30205 40211 84520 333 58020;
0168833980999992010091100004-15667-038950FM-12+000599999V0209999C000010450019N0010001N1+02161+01741102321ADDGF106991041051008001021001KA1240M+02681MA1999999102261MD1999999+0121REMSYN088AAXX  11004 83398 32594 60000 10216 20174 30226 40232 84520 333 10268 29072 55041 58012;
0188833980999992010091112004-15667-038950FM-12+000599999V0201801N003110450019N0040001N1+02201+02051102371ADDAA124003091AY161061AY221061GF106991041051008001021001MA1999999102311MD1999999+0051MW1021REMSYN088AAXX  11124 83398 21596 61806 10220 20205 30231 40237 70262 84520 333 2//// 58005 60034;
0137833980999992010091118004-15667-038950FM-12+000599999V0201801N003110450019N0040001N1+02561+01731102001ADDGF106991041051008001021001MA1999999101941MD1999999-0111REMSYN070AAXX  11184 83398 32596 61806 10256 20173 30194 40200 84520 333 59011;
0168833980999992010091200004-15667-038950FM-12+000599999V0209999C000010075019N0010001N1+02321+02201102151ADDGF105991051051008001001001KA1240M+02641MA1999999102091MD1999999-0171REMSYN088AAXX  12004 83398 32594 50000 10232 20220 30209 40215 85500 333 10264 29084 55035 59017;
0188833980999992010091212004-15667-038950FM-12+000599999V0209999C000010075019N0040001N1+02061+01941102201ADDAA124002091AY161061AY221061GF107991051051008001021001MA1999999102141MD1999999-0171MW1521REMSYN088AAXX  12124 83398 21596 70000 10206 20194 30214 40220 75262 85520 333 2//// 59017 60024;
0182833980999992010091218004-15667-038950FM-12+000599999V0201801N004110450019N0040001N1+02581+01741101941ADDAA106001091AY161061AY221061GF106991031051008001021001MA1999999101891MD1999999+0051MW1021REMSYN082AAXX  12184 83398 21596 61808 10258 20174 30189 40194 70262 83520 333 58005 60011;
0168833980999992010091300004-15667-038950FM-12+000599999V0209999C000010450019N0010001N1+01841+01781102091ADDGF106991041051008001021001KA1240M+02641MA1999999102031MD1999999-0061REMSYN088AAXX  13004 83398 32594 60000 10184 20178 30203 40209 84520 333 10264 29086 55053 59006;
0188833980999992010091312004-15667-038950FM-12+000599999V0203201N002110450019N0040001N1+02281+02111102121ADDAA124003091AY161061AY221061GF106991041051008001021001MA1999999102061MD1999999-0081MW1021REMSYN088AAXX  13124 83398 21596 63204 10228 20211 30206 40212 70262 84520 333 2//// 59008 60034;
0137833980999992010091318004-15667-038950FM-12+000599999V0200901N003110450019N0040001N1+02601+01761101841ADDGF105991031051008001041001MA1999999101781MD1999999-0111REMSYN070AAXX  13184 83398 32596 50906 10260 20176 30178 40184 83540 333 59011;
0213833980999992010091400004-15667-038950FM-12+000599999V0209999C000010450019N0010001N1+02221+01801102141ADDAA106001091AY161061AY221061GF106991041051008001021001KA1240M+02701MA1999999102081MD1999999+0031MW1021REMSYN100AAXX  14004 83398 21594 60000 10222 20180 30208 40214 70262 84520 333 10270 29081 55064 58003 60011;
0188833980999992010091412004-15667-038950FM-12+000599999V0200901N002110450019N0040001N1+02501+02001102061ADDAA124006191AY161061AY221061GF105991031051008001021001MA1999999102101MD1999999+0041MW1021REMSYN088AAXX  14124 83398 21596 50904 10250 20200 30210 40206 70262 83520 333 2//// 58004 60064;
0137833980999992010091418004-15667-038950FM-12+000599999V0200901N003110450019N0040001N1+02561+01901101911ADDGF106991041051008001021001MA1999999101851MD1999999+0071REMSYN070AAXX  14184 83398 32596 60906 10256 20190 30185 40191 84520 333 58007;
