0168834980999992010010100004-17733-039250FM-12+000399999V0203601N002612200019N0020001N1+02611+02421101271ADDGF101991011001008001031001KA1240M+03351MA1999999101221MD1999999+0091REMSYN088AAXX  01004 83498 32595 13605 10261 20242 30122 40127 81030 333 10335 29077 55070 58009;
0156834980999992010010112004-17733-039250FM-12+000399999V0203601N003610075019N0020001N1+03041+02411101491ADDGF105991051021008001001001KA1240N+02431MA1999999101441MD1999999+0311REMSYN076AAXX  01124 83498 32595 53607 10304 20241 30144 40149 85200 333 20243 58031;
0137834980999992010010118004-17733-039250FM-12+000399999V0200501N004112200019N0020001N1+03101+02411101301ADDGF104991041021008001001001MA1999999101251MD1999999+0321REMSYN070AAXX  01184 83498 32595 40508 10310 20241 30125 40130 84200 333 58032;
0178834980999992010010200004-17733-039250FM-12+000399999V0209999C000012200019N0020001N1+02481+02231101541ADDGA1001+999999999GF100991001001999999001001KA1240M+03171MA1999999101491MD1999999+0271REMSYN082AAXX  02004 83498 32995 00000 10248 20223 30149 40154 333 10317 29077 55085 58027;
0156834980999992010010212004-17733-039250FM-12+000399999V0200901N003112200019N0020001N1+02951+02381101651ADDGF103991031021008001001001KA1240N+02121MA1999999101601MD1999999+0161REMSYN076AAXX  02124 83498 32595 30906 10295 20238 30160 40165 83200 333 20212 58016;
0137834980999992010010218004-17733-039250FM-12+000399999V0200501N002612200019N0020001N1+03011+02291101441ADDGF102991021011008001001001MA1999999101391MD1999999+0141REMSYN070AAXX  02184 83498 32595 20505 10301 20229 30139 40144 82100 333 58014;
0168834980999992010010300004-17733-039250FM-12+000399999V0200901N001512200019N0020001N1+02631+02421101581ADDGF102991021011008001001001KA1240M+03151MA1999999101531MD1999999+0041REMSYN088AAXX  03004 83498 32595 20903 10263 20242 30153 40158 82100 333 10315 29079 55060 58004;
0156834980999992010010312004-17733-039250FM-12+000399999V0200901N003110450019N0020001N1+03001+02391101691ADDGF106991041021008001051001KA1240N+02371MA1999999101641MD1999999+0041REMSYN076AAXX  03124 83498 32595 60906 10300 20239 30164 40169 84250 333 20237 58004;
0137834980999992010010318004-17733-039250FM-12+000399999V0200901N003612200019N0020001N1+03081+02441101481ADDGF102991021011008001001001MA1999999101431MD1999999+0041REMSYN070AAXX  03184 83498 32595 20907 10308 20244 30143 40148 82100 333 58004;
0178834980999992010010400004-17733-039250FM-12+000399999V0209999C000012200019N0020001N1+02601+02331101571ADDGA1001+999999999GF100991001001999999001001KA1240M+03121MA1999999101521MD1999999-0011REMSYN082AAXX  04004 83498 32995 00000 10260 20233 30152 40157 333 10312 29077 55085 59001;
0156834980999992010010412004-17733-039250FM-12+000399999V0203601N001512200019N0020001N1+02991+02251101661ADDGF103991031011008001001001KA1240N+02111MA1999999101611MD1999999-0031REMSYN076AAXX  04124 83498 32595 33603 10299 20225 30161 40166 83100 333 20211 59003;
0137834980999992010010418004-17733-039250FM-12+000399999V0200901N004612200019N0020001N1+03071+02271101451ADDGF102991021011008001001001MA1999999101401MD1999999-0031REMSYN070AAXX  04184 83498 32595 20909 10307 20227 30140 40145 82100 333 59003;
0178834980999992010010500004-17733-039250FM-12+000399999V0200501N001512200019N0020001N1+02561+02291101541ADDGA1001+999999999GF100991001001999999001001KA1240M+03251MA1999999101491MD1999999-0031REMSYN082AAXX  05004 83498 32995 00503 10256 20229 30149 40154 333 10325 29075 55075 59003;
0156834980999992010010512004-17733-039250FM-12+000399999V0203601N002111050019N0020001N1+02901+02301101521ADDGF106991031021008001001021KA1240N+02341MA1999999101471MD1999999-0141REMSYN076AAXX  05124 83498 32595 63604 10290 20230 30147 40152 83202 333 20234 59014;
0137834980999992010010518004-17733-039250FM-12+000399999V0200501N003612200019N0020001N1+03081+02291101211ADDGF103991021011008001031001MA1999999101161MD1999999-0241REMSYN070AAXX  05184 83498 32595 30507 10308 20229 30116 40121 82130 333 59024;
0168834980999992010010600004-17733-039250FM-12+000399999V0200501N001512200019N0020001N1+02661+02331101221ADDGF101991011011008001001001KA1240M+03271MA1999999101171MD1999999-0321REMSYN088AAXX  06004 83498 32595 10503 10266 20233 30117 40122 81100 333 10327 29074 55079 59032;
0156834980999992010010612004-17733-039250FM-12+000399999V0203601N003112200019N0020001N1+03011+02271101261ADDGF104991041021008001001001KA1240N+02351MA1999999101211MD1999999-0261REMSYN076AAXX  06124 83498 32595 43606 10301 20227 30121 40126 84200 333 20235 59026;
0137834980999992010010618004-17733-039250FM-12+000399999V0200501N005712200019N0020001N1+03031+02261101071ADDGF102991021011008001021001MA1999999101021MD1999999-0141REMSYN070AAXX  06184 83498 32595 20511 10303 20226 30102 40107 82120 333 59014;
0178834980999992010010700004-17733-039250FM-12+000399999V0203601N001512200019N0020001N1+02691+02371101201ADDGA1001+999999999GF100991001001999999001001KA1240M+03401MA1999999101151MD1999999-0021REMSYN082AAXX  07004 83498 32995 03603 10269 20237 30115 40120 333 10340 29074 55082 59002;
0156834980999992010010712004-17733-039250FM-12+000399999V0203601N004112200019N0020001N1+03021+02341101311ADDGF104991021011008001001011KA1240N+02401MA1999999101261MD1999999+0051REMSYN076AAXX  07124 83498 32595 43608 10302 20234 30126 40131 82101 333 20240 58005;
0137834980999992010010718004-17733-039250FM-12+000399999V0200501N004612200019N0020001N1+03061+02351101181ADDGF103991011011008001001011MA1999999101131MD1999999+0111REMSYN070AAXX  07184 83498 32595 30509 10306 20235 30113 40118 81101 333 58011;
0178834980999992010010800004-17733-039250FM-12+000399999V0200501N001512200019N0020001N1+02641+02391101381ADDGA1001+999999999GF100991001001999999001001KA1240M+03271MA1999999101331MD1999999+0181REMSYN082AAXX  08004 83498 32995 00503 10264 20239 30133 40138 333 10327 29076 55096 58018;
0156834980999992010010812004-17733-039250FM-12+000399999V0203601N003110075019N0020001N1+02991+02401101561ADDGF105991051021008001001001KA1240N+02271MA1999999101511MD1999999+0251REMSYN076AAXX  08124 83498 32595 53606 10299 20240 30151 40156 85200 333 20227 58025;
0137834980999992010010818004-17733-039250FM-12+000399999V0200501N004612200019N0020001N1+03151+02091101351ADDGF102991021011008001001011MA1999999101301MD1999999+0151REMSYN070AAXX  08184 83498 32595 20509 10315 20209 30130 40135 82101 333 58015;
0178834980999992010010900004-17733-039250FM-12+000399999V0209999C000012200019N0020001N1+02631+02251101551ADDGA1001+999999999GF100991001001999999001001KA1240M+03281MA1999999101501MD1999999+0171REMSYN082AAXX  09004 83498 32995 00000 10263 20225 30150 40155 333 10328 29072 55086 58017;
0156834980999992010010912004-17733-039250FM-12+000399999V0203601N001010075019N0020001N1+02861+02191101691ADDGF105991051021008001001001KA1240N+02291MA1999999101641MD1999999+0131REMSYN076AAXX  09124 83498 32595 53602 10286 20219 30164 40169 85200 333 20229 58013;
0137834980999992010010918004-17733-039250FM-12+000399999V0200501N003612200019N0020001N1+03061+02141101371ADDGF102991021011008001001001MA1999999101321MD1999999+0021REMSYN070AAXX  09184 83498 32595 20507 10306 20214 30132 40137 82100 333 58002;
0178834980999992010011000004-17733-039250FM-12+000399999V0200501N001512200019N0020001N1+02661+02311101461ADDGA1001+999999999GF100991001001999999001001KA1240M+03091MA1999999101411MD1999999-0091REMSYN082AAXX  10004 83498 32995 00503 10266 20231 30141 40146 333 10309 29072 55075 59009;
0201834980999992010011012004-17733-039250FM-12+000399999V0201401N001512200019N0020001N1+02941+02361101541ADDAA124000591AY121061AY211061GF104991041011008001001001KA1240N+02431MA1999999101491MD1999999-0151MW1031REMSYN088AAXX  10124 83498 21595 41403 10294 20236 30149 40154 70321 84100 333 20243 59015 69964;
0137834980999992010011018004-17733-039250FM-12+000399999V0200901N004112200019N0020001N1+03121+02531101311ADDGF103991031011008001001001MA1999999101261MD1999999-0061REMSYN070AAXX  10184 83498 32595 30908 10312 20253 30126 40131 83100 333 59006;
0178834980999992010011100004-17733-039250FM-12+000399999V0200501N001512200019N0020001N1+02631+02331101411ADDGA1001+999999999GF100991001001999999001001KA1240M+03191MA1999999101361MD1999999-0051REMSYN082AAXX  11004 83498 32995 00503 10263 20233 30136 40141 333 10319 29075 55092 59005;
0156834980999992010011112004-17733-039250FM-12+000399999V0200501N003610075019N0020001N1+03041+02231101461ADDGF105991051021008001001001KA1240N+02401MA1999999101411MD1999999+0021REMSYN076AAXX  11124 83498 32595 50507 10304 20223 30141 40146 85200 333 20240 58002;
0137834980999992010011118004-17733-039250FM-12+000399999V0200501N004112200019N0020001N1+03161+02261101251ADDGF102991011011008001001011MA1999999101201MD1999999-0061REMSYN070AAXX  11184 83498 32595 20508 10316 20226 30120 40125 81101 333 59006;
0168834980999992010011200004-17733-039250FM-12+000399999V0200501N000512200019N0020001N1+02581+02251101381ADDGF101991011011008001001001KA1240M+03251MA1999999101331MD1999999-0031REMSYN088AAXX  12004 83498 32595 10501 10258 20225 30133 40138 81100 333 10325 29071 55106 59003;
0156834980999992010011212004-17733-039250FM-12+000399999V0203601N003612200019N0020001N1+03001+02321101461ADDGF104991041021008001001001KA1240N+02331MA1999999101411MD1999999+0001REMSYN076AAXX  12124 83498 32595 43607 10300 20232 30141 40146 84200 333 20233 58000;
0137834980999992010011218004-17733-039250FM-12+000399999V0200501N005112200019N0020001N1+03071+02351101261ADDGF101991011011008001001001MA1999999101211MD1999999+0011REMSYN070AAXX  12184 83498 32595 10510 10307 20235 30121 40126 81100 333 58001;
0178834980999992010011300004-17733-039250FM-12+000399999V0200501N002112200019N0020001N1+02671+02351101541ADDGA1001+999999999GF100991001001999999001001KA1240M+03181MA1999999101491MD1999999+0161REMSYN082AAXX  13004 83498 32995 00504 10267 20235 30149 40154 333 10318 29075 55084 58016;
0156834980999992010011312004-17733-039250FM-12+000399999V0200501N003112200019N0020001N1+02991+02151101581ADDGF104991041021008001001001KA1240N+02121MA1999999101531MD1999999+0121REMSYN076AAXX  13124 83498 32595 40506 10299 20215 30153 40158 84200 333 20212 58012;
0137834980999992010011318004-17733-039250FM-12+000399999V0200501N006212200019N0020001N1+03131+02171101351ADDGF102991021011008001001001MA1999999101301MD1999999+0091REMSYN070AAXX  13184 83498 32595 20512 10313 20217 30130 40135 82100 333 58009;
0178834980999992010011400004-17733-039250FM-12+000399999V0203601N002612200019N0020001N1+02671+02371101491ADDGA1001+999999999GF100991001001999999001001KA1240M+03231MA1999999101441MD1999999-0051REMSYN082AAXX  14004 83498 32995 03605 10267 20237 30144 40149 333 10323 29073 55079 59005;
0156834980999992010011412004-17733-039250FM-12+000399999V0203601N003112200019N0020001N1+03031+02261101611ADDGF104991041021008001001001KA1240N+02431MA1999999101561MD1999999+0031REMSYN076AAXX  14124 83498 32595 43606 10303 20226 30156 40161 84200 333 20243 58003;
0137834980999992010011418004-17733-039250FM-12+000399999V0203601N004112200019N0020001N1+03171+02291101311ADDGF101991011011008001001001MA1999999101261MD1999999-0041REMSYN070AAXX  14184 83498 32595 13608 10317 20229 30126 40131 81100 333 59004;
0178834980999992010011500004-17733-039250FM-12+000399999V0200501N003612200019N0020001N1+02671+02391101501ADDGA1001+999999999GF100991001001999999001001KA1240M+03251MA1999999101451MD1999999+0011REMSYN082AAXX  15004 83498 32995 00507 10267 20239 30145 40150 333 10325 29074 55097 58001;
0156834980999992010011512004-17733-039250FM-12+000399999V0200501N002612200019N0020001N1+03051+02351101711ADDGF104991041021008001001001KA1240N+02471MA1999999101661MD1999999+0101REMSYN076AAXX  15124 83498 32595 40505 10305 20235 30166 40171 84200 333 20247 58010;
0137834980999992010011518004-17733-039250FM-12+000399999V0200501N004112200019N0020001N1+03171+02141101551ADDGF101991011011008001001001MA1999999101501MD1999999+0241REMSYN070AAXX  15184 83498 32595 10508 10317 20214 30150 40155 81100 333 58024;
0178834980999992010011600004-17733-039250FM-12+000399999V0200901N001512200019N0020001N1+02611+02331101811ADDGA1001+999999999GF100991001001999999001001KA1240M+03281MA1999999101761MD1999999+0311REMSYN082AAXX  16004 83498 32995 00903 10261 20233 30176 40181 333 10328 29073 55082 58031;
0220834980999992010011612004-17733-039250FM-12+000399999V0200901N003112200019N0020001N1+03001+02461101921ADDAA124000091AY121061AY211061GF104991041021008001001001KA1240N+02381MA1999999101871MD1999999+0211MW1031REMSYN088AAXX  16124 83498 21595 40906 10300 20246 30187 40192 70321 84200 333 20238 58021 69924;EQDQ01  00002PRCP24
0137834980999992010011618004-17733-039250FM-12+000399999V0200901N002612200019N0020001N1+03071+02381101781ADDGF104991041021008001001001MA1999999101731MD1999999+0231REMSYN070AAXX  16184 83498 32595 40905 10307 20238 30173 40178 84200 333 58023;
0178834980999992010011700004-17733-039250FM-12+000399999V0200901N002112200019N0020001N1+02671+02521101861ADDGA1001+999999999GF100991001001999999001001KA1240M+03131MA1999999101811MD1999999+0051REMSYN082AAXX  17004 83498 32995 00904 10267 20252 30181 40186 333 10313 29076 55065 58005;
0156834980999992010011712004-17733-039250FM-12+000399999V0200901N003112200019N0020001N1+03011+02321101991ADDGF104991041021008001001001KA1240N+02461MA1999999101941MD1999999+0071REMSYN076AAXX  17124 83498 32595 40906 10301 20232 30194 40199 84200 333 20246 58007;
0137834980999992010011718004-17733-039250FM-12+000399999V0200901N003112200019N0020001N1+03101+02311101771ADDGF101991011011008001001001MA1999999101721MD1999999-0011REMSYN070AAXX  17184 83498 32595 10906 10310 20231 30172 40177 81100 333 59001;
0178834980999992010011800004-17733-039250FM-12+000399999V0200901N001512200019N0020001N1+02671+02351101831ADDGA1001+999999999GF100991001001999999001001KA1240M+03131MA1999999101781MD1999999-0031REMSYN082AAXX  18004 83498 32995 00903 10267 20235 30178 40183 333 10313 29074 55102 59003;
0156834980999992010011812004-17733-039250FM-12+000399999V0200901N001512200019N0020001N1+03001+02441101791ADDGF104991031011008001001011KA1240N+02431MA1999999101741MD1999999-0201REMSYN076AAXX  18124 83498 32595 40903 10300 20244 30174 40179 83101 333 20243 59020;
0137834980999992010011818004-17733-039250FM-12+000399999V0203601N002610450019N0020001N1+02971+02381101551ADDGF106991031031008001041001MA1999999101501MD1999999-0221REMSYN070AAXX  18184 83498 32595 63605 10297 20238 30150 40155 83340 333 59022;
0178834980999992010011900004-17733-039250FM-12+000399999V0209999C000012200019N0020001N1+02501+02291101601ADDGA1001+999999999GF100991001001999999001001KA1240M+03191MA1999999101551MD1999999-0231REMSYN082AAXX  19004 83498 32995 00000 10250 20229 30155 40160 333 10319 29080 55076 59023;
0156834980999992010011912004-17733-039250FM-12+000399999V0200501N001512200019N0020001N1+02841+02351101641ADDGF104991041021008001001001KA1240N+02331MA1999999101591MD1999999-0151REMSYN076AAXX  19124 83498 32595 40503 10284 20235 30159 40164 84200 333 20233 59015;
0137834980999992010011918004-17733-039250FM-12+000399999V0200501N003112200019N0020001N1+03131+02221101391ADDGF102991021011008001001001MA1999999101341MD1999999-0161REMSYN070AAXX  19184 83498 32595 20506 10313 20222 30134 40139 82100 333 59016;
0178834980999992010012000004-17733-039250FM-12+000399999V0209999C000012200019N0020001N1+02591+02311101481ADDGA1001+999999999GF100991001001999999001001KA1240M+03251MA1999999101431MD1999999-0121REMSYN082AAXX  20004 83498 32995 00000 10259 20231 30143 40148 333 10325 29076 55099 59012;
0156834980999992010012012004-17733-039250FM-12+000399999V0203601N002112200019N0020001N1+02931+02291101521ADDGF106991031021008001001011KA1240N+02261MA1999999101471MD1999999-0121REMSYN076AAXX  20124 83498 32595 63604 10293 20229 30147 40152 83201 333 20226 59012;
0137834980999992010012018004-17733-039250FM-12+000399999V0200501N004112200019N0020001N1+03171+02321101221ADDGF101991011011008001001001MA1999999101171MD1999999-0171REMSYN070AAXX  20184 83498 32595 10508 10317 20232 30117 40122 81100 333 59017;
0178834980999992010012100004-17733-039250FM-12+000399999V0203601N001512200019N0020001N1+02671+02371101351ADDGA1001+999999999GF100991001001999999001001KA1240M+03211MA1999999101301MD1999999-0141REMSYN082AAXX  21004 83498 32995 03603 10267 20237 30130 40135 333 10321 29075 55075 59014;
0156834980999992010012112004-17733-039250FM-12+000399999V0203601N004612200019N0020001N1+02971+02281101551ADDGF103991031021008001001001KA1240N+02471MA1999999101501MD1999999+0031REMSYN076AAXX  21124 83498 32595 33609 10297 20228 30150 40155 83200 333 20247 58003;
0137834980999992010012118004-17733-039250FM-12+000399999V0200501N005712200019N0020001N1+03121+02331101331ADDGF102991021011008001001001MA1999999101281MD1999999+0111REMSYN070AAXX  21184 83498 32595 20511 10312 20233 30128 40133 82100 333 58011;
0178834980999992010012200004-17733-039250FM-12+000399999V0203601N001012200019N0020001N1+02651+02351101461ADDGA1001+999999999GF100991001001999999001001KA1240M+03281MA1999999101411MD1999999+0111REMSYN082AAXX  22004 83498 32995 03602 10265 20235 30141 40146 333 10328 29075 55097 58011;
0156834980999992010012212004-17733-039250FM-12+000399999V0203601N002612200019N0020001N1+03091+02321101551ADDGF105991041021008001001011KA1240N+02531MA1999999101501MD1999999+0001REMSYN076AAXX  22124 83498 32595 53605 10309 20232 30150 40155 84201 333 20253 58000;
0156834980999992010012218004-17733-039250FM-12+000399999V0200501N004112200019N0020001N1+03171+02321101321ADDGF103991001001999999001061MA1999999101271MD1999999-0011REMSYN070AAXX  22184 83498 32795 30508 10317 20232 30127 40132 80006 333 59001;EQDQ01+017502SCOLCB
0178834980999992010012300004-17733-039250FM-12+000399999V0200501N001012200019N0020001N1+02631+02391101481ADDGA1001+999999999GF100991001001999999001001KA1240M+03331MA1999999101431MD1999999+0021REMSYN082AAXX  23004 83498 32995 00502 10263 20239 30143 40148 333 10333 29076 55078 58002;
0201834980999992010012312004-17733-039250FM-12+000399999V0201801N000510075019N0020001N1+02791+02521101531ADDAA124004191AY161061AY261061GF107991051041008001001011KA1240N+02281MA1999999101481MD1999999-0021MW1211REMSYN088AAXX  23124 83498 21595 71801 10279 20252 30148 40153 72166 85401 333 20228 59002 60044;
0137834980999992010012318004-17733-039250FM-12+000399999V0200901N001512200019N0020001N1+03031+01961101281ADDGF104991041031008001021001MA1999999101231MD1999999-0041REMSYN070AAXX  23184 83498 32595 40903 10303 20196 30123 40128 84320 333 59004;
0168834980999992010012400004-17733-039250FM-12+000399999V0209999C000012200019N0020001N1+02591+02421101441ADDGF101991011001008001031001KA1240M+03131MA1999999101391MD1999999-0041REMSYN088AAXX  24004 83498 32595 10000 10259 20242 30139 40144 81030 333 10313 29081 55061 59004;
0156834980999992010012412004-17733-039250FM-12+000399999V0200901N001510450019N0020001N1+02911+02391101481ADDGF106991041051008001041001KA1240N+02431MA1999999101431MD1999999-0031REMSYN076AAXX  24124 83498 32595 60903 10291 20239 30143 40148 84540 333 20243 59003;
0137834980999992010012418004-17733-039250FM-12+000399999V0200901N002612200019N0020001N1+03131+02411101281ADDGF104991011011008001001021MA1999999101231MD1999999+0001REMSYN070AAXX  24184 83498 32595 40905 10313 20241 30123 40128 81102 333 58000;
0168834980999992010012500004-17733-039250FM-12+000399999V0200901N001010450019N0020001N1+02591+02461101411ADDGF106991021021008001031001KA1240M+03191MA1999999101361MD1999999-0031REMSYN088AAXX  25004 83498 32595 60902 10259 20246 30136 40141 82230 333 10319 29082 55068 59003;
0156834980999992010012512004-17733-039250FM-12+000399999V0203601N001510450019N0020001N1+02951+02331101461ADDGF106991031021008001041001KA1240N+02351MA1999999101411MD1999999-0021REMSYN076AAXX  25124 83498 32595 63603 10295 20233 30141 40146 83240 333 20235 59002;
0137834980999992010012518004-17733-039250FM-12+000399999V0200901N002612200019N0020001N1+03171+02391101241ADDGF101991011011008001001001MA1999999101191MD1999999-0041REMSYN070AAXX  25184 83498 32595 10905 10317 20239 30119 40124 81100 333 59004;
0178834980999992010012600004-17733-039250FM-12+000399999V0200901N000512200019N0020001N1+02631+02291101361ADDGA1001+999999999GF100991001001999999001001KA1240M+03281MA1999999101311MD1999999-0021REMSYN082AAXX  26004 83498 32995 00901 10263 20229 30131 40136 333 10328 29075 55096 59002;
0156834980999992010012612004-17733-039250FM-12+000399999V0203601N001511050019N0020001N1+02911+02321101421ADDGF106991021021008001001021KA1240N+02371MA1999999101371MD1999999-0041REMSYN076AAXX  26124 83498 32595 63603 10291 20232 30137 40142 82202 333 20237 59004;
0156834980999992010012618004-17733-039250FM-12+000399999V0200501N003112200019N0020001N1+03161+02201101131ADDGF103991001001999999001021MA1999999101081MD1999999-0111REMSYN070AAXX  26184 83498 32595 30506 10316 20220 30108 40113 80002 333 59011;EQDQ01+008002SCOLCB
0187834980999992010012700004-17733-039250FM-12+000399999V0200501N001512200019N0020001N1+02671+02371101291ADDGF103991001001999999001021KA1240M+03261MA1999999101241MD1999999-0071REMSYN088AAXX  27004 83498 32595 30503 10267 20237 30124 40129 80002 333 10326 29074 55054 59007;EQDQ01+008002SCOLCB
0201834980999992010012712004-17733-039250FM-12+000399999V0209999C000010450019N0020001N1+02681+02351101501ADDAA124013091AY121061AY211061GF107991041051008001041001KA1240N+02331MA1999999101451MD1999999+0121MW1031REMSYN088AAXX  27124 83498 21595 70000 10268 20235 30145 40150 70321 84540 333 20233 58012 60134;
0182834980999992010012718004-17733-039250FM-12+000399999V0200901N003110075019N0020001N1+03041+02231101241ADDAA106000591AY131061AY211061GF105991051021008001031001MA1999999101191MD1999999+0111MW1031REMSYN082AAXX  27184 83498 21595 50906 10304 20223 30119 40124 70331 85230 333 58011 69961;
0178834980999992010012800004-17733-039250FM-12+000399999V0200901N000512200019N0020001N1+02611+02121101421ADDGA1001+999999999GF100991001001999999001001KA1240M+03121MA1999999101371MD1999999+0131REMSYN082AAXX  28004 83498 32995 00901 10261 20212 30137 40142 333 10312 29074 55038 58013;
0173834980999992010012812004-17733-039250FM-12+000399999V0203601N002612200019N0020001N1+02981+02231101531ADDAA124000591GF105991021011008001001011KA1240N+02301MA1999999101481MD1999999+0031REMSYN082AAXX  28124 83498 22595 53605 10298 20223 30148 40153 82101 333 20230 58003 69964;
0137834980999992010012818004-17733-039250FM-12+000399999V0203601N003112200019N0020001N1+03151+02301101281ADDGF103991011011008001001011MA1999999101231MD1999999+0041REMSYN070AAXX  28184 83498 32595 33606 10315 20230 30123 40128 81101 333 58004;
0187834980999992010012900004-17733-039250FM-12+000399999V0209999C000012200019N0020001N1+02611+02371101411ADDGF102991001001999999001011KA1240M+03231MA1999999101361MD1999999-0011REMSYN088AAXX  29004 83498 32595 20000 10261 20237 30136 40141 80001 333 10323 29075 55083 59001;EQDQ01+008002SCOLCB
0201834980999992010012912004-17733-039250FM-12+000399999V0200301N032410450019N0020001N1+02881+02461101561ADDAA124000891AY121061AY211061GF107991041051008001051001KA1240N+02461MA1999999101511MD1999999+0031MW1031REMSYN088AAXX  29124 83498 21595 70363 10288 20246 30151 40156 70321 84550 333 20246 58003 69984;
0137834980999992010012918004-17733-039250FM-12+000399999V0200501N003111050019N0020001N1+03071+02301101391ADDGF107991021011008001001081MA1999999101341MD1999999+0111REMSYN070AAXX  29184 83498 32595 70506 10307 20230 30134 40139 82108 333 58011;
0168834980999992010013000004-17733-039250FM-12+000399999V0200501N000512200019N0020001N1+02651+02411101581ADDGF101991011011008001001001KA1240M+03231MA1999999101531MD1999999+0171REMSYN088AAXX  30004 83498 32595 10501 10265 20241 30153 40158 81100 333 10323 29079 55017 58017;
0156834980999992010013012004-17733-039250FM-12+000399999V0200901N001510450019N0020001N1+02891+02351101651ADDGF106991041051008001041001KA1240N+02431MA1999999101601MD1999999+0091REMSYN076AAXX  30124 83498 32595 60903 10289 20235 30160 40165 84540 333 20243 58009;
0137834980999992010013018004-17733-039250FM-12+000399999V0200901N003112200019N0020001N1+03151+02351101501ADDGF103991021011008001001011MA1999999101451MD1999999+0111REMSYN070AAXX  30184 83498 32595 30906 10315 20235 30145 40150 82101 333 58011;
0187834980999992010013100004-17733-039250FM-12+000399999V0200901N001512200019N0020001N1+02611+02231101651ADDGF101991001001999999001011KA1240M+03271MA1999999101601MD1999999+0071REMSYN088AAXX  31004 83498 32595 10903 10261 20223 30160 40165 80001 333 10327 29074 55067 58007;EQDQ01+008002SCOLCB
0156834980999992010013112004-17733-039250FM-12+000399999V0200501N003112200019N0020001N1+02951+02451101731ADDGF104991041021008001001001KA1240N+02351MA1999999101681MD1999999+0081REMSYN076AAXX  31124 83498 32595 40506 10295 20245 30168 40173 84200 333 20235 58008;
0182834980999992010013118004-17733-039250FM-12+000399999V0200501N002610450019N0020001N1+03071+02451101591ADDAA106000591AY121061AY211061GF106991031031008001021001MA1999999101541MD1999999+0091MW1031REMSYN082AAXX  31184 83498 21595 60505 10307 20245 30154 40159 70321 83320 333 58009 69961;
0168834980999992010020100004-17733-039250FM-12+000399999V0200501N001512200019N0020001N1+02691+02351101671ADDGF101991011011008001001001KA1240M+03131MA1999999101621MD1999999+0021REMSYN088AAXX  01004 83498 32595 10503 10269 20235 30162 40167 81100 333 10313 29078 55069 58002;
0201834980999992010020112004-17733-039250FM-12+000399999V0200501N001510450019N0020001N1+02811+02541101791ADDAA124003091AY161061AY261061GF106991041051008001041001KA1240N+02281MA1999999101741MD1999999+0061MW1211REMSYN088AAXX  01124 83498 21595 60503 10281 20254 30174 40179 72166 84540 333 20228 58006 60034;
0137834980999992010020118004-17733-039250FM-12+000399999V0200901N003112200019N0020001N1+03011+02171101541ADDGF102991021011008001001001MA1999999101491MD1999999-0051REMSYN070AAXX  01184 83498 32595 20906 10301 20217 30149 40154 82100 333 59005;
0168834980999992010020200004-17733-039250FM-12+000399999V0200901N001512200019N0020001N1+02671+02431101691ADDGF102991021001008001031001KA1240M+03161MA1999999101641MD1999999+0021REMSYN088AAXX  02004 83498 32595 20903 10267 20243 30164 40169 82030 333 10316 29079 55061 58002;
0156834980999992010020212004-17733-039250FM-12+000399999V0200501N001512200019N0020001N1+02981+02351101761ADDGF104991041021008001011001KA1240N+02371MA1999999101711MD1999999-0031REMSYN076AAXX  02124 83498 32595 40503 10298 20235 30171 40176 84210 333 20237 59003;
0137834980999992010020218004-17733-039250FM-12+000399999V0200501N003112200019N0020001N1+03051+02481101551ADDGF102991021011008001001001MA1999999101501MD1999999+0011REMSYN070AAXX  02184 83498 32595 20506 10305 20248 30150 40155 82100 333 58001;
0178834980999992010020300004-17733-039250FM-12+000399999V0200501N000512200019N0020001N1+02691+02391101661ADDGA1001+999999999GF100991001001999999001001KA1240M+03131MA1999999101611MD1999999-0031REMSYN082AAXX  03004 83498 32995 00501 10269 20239 30161 40166 333 10313 29078 55085 59003;
0220834980999992010020312004-17733-039250FM-12+000399999V0200501N001510450019N0020001N1+02891+02461101701ADDAA124000091AY121061AY211061GF106991041051008001041001KA1240N+02431MA1999999101651MD1999999-0061MW1031REMSYN088AAXX  03124 83498 21595 60503 10289 20246 30165 40170 70321 84540 333 20243 59006 69924;EQDQ01  00002PRCP24
0137834980999992010020318004-17733-039250FM-12+000399999V0200901N001010450019N0020001N1+02951+02451101441ADDGF105991031021008001041001MA1999999101391MD1999999-0111REMSYN070AAXX  03184 83498 32595 50902 10295 20245 30139 40144 83240 333 59011;
0178834980999992010020400004-17733-039250FM-12+000399999V0200901N000512200019N0020001N1+02551+02291101581ADDGA1001+999999999GF100991001001999999001001KA1240M+03171MA1999999101531MD1999999-0081REMSYN082AAXX  04004 83498 32995 00901 10255 20229 30153 40158 333 10317 29081 55056 59008;
0201834980999992010020412004-17733-039250FM-12+000399999V0203601N002610450019N0020001N1+03011+02221101631ADDAA124002091AY121061AY211061GF105991021021008001041001KA1240N+02381MA1999999101581MD1999999-0071MW1031REMSYN088AAXX  04124 83498 21595 53605 10301 20222 30158 40163 70321 82240 333 20238 59007 60024;
0137834980999992010020418004-17733-039250FM-12+000399999V0200501N001510450019N0020001N1+03111+02201101461ADDGF105991021021008001031001MA1999999101411MD1999999+0021REMSYN070AAXX  04184 83498 32595 50503 10311 20220 30141 40146 82230 333 58002;
0178834980999992010020500004-17733-039250FM-12+000399999V0209999C000012200019N0020001N1+02611+02311101581ADDGA1001+999999999GF100991001001999999001001KA1240M+03221MA1999999101531MD1999999+0001REMSYN082AAXX  05004 83498 32995 00000 10261 20231 30153 40158 333 10322 29072 55063 58000;
0156834980999992010020512004-17733-039250FM-12+000399999V0200901N003110450019N0020001N1+02911+02371101631ADDGF106991031051008001051001KA1240N+02421MA1999999101581MD1999999+0001REMSYN076AAXX  05124 83498 32595 60906 10291 20237 30158 40163 83550 333 20242 58000;
0137834980999992010020518004-17733-039250FM-12+000399999V0200501N001510450019N0020001N1+03171+02371101441ADDGF106991021021008001021001MA1999999101391MD1999999-0021REMSYN070AAXX  05184 83498 32595 60503 10317 20237 30139 40144 82220 333 59002;
0232834980999992010020600004-17733-039250FM-12+000399999V0209999C000010450019N0020001N1+02571+02401101571ADDAA106000091AY121061AY211061GF108991041061008001021999KA1240M+03191MA1999999101521MD1999999-0011MW1031REMSYN100AAXX  06004 83498 21595 80000 10257 20240 30152 40157 70321 8462/ 333 10319 29082 55022 59001 69921;EQDQ01  00002PRCP06
0201834980999992010020612004-17733-039250FM-12+000399999V0203601N000510450019N0020001N1+02831+02401101581ADDAA124002091AY121061AY211061GF106991041051008001041001KA1240N+02411MA1999999101521MD1999999-0051MW1031REMSYN088AAXX  06124 83498 21595 63601 10283 20240 30152 40158 70321 84540 333 20241 59005 60024;
0137834980999992010020618004-17733-039250FM-12+000399999V0200501N001510450019N0020001N1+03121+02221101341ADDGF106991031031008001021001MA1999999101291MD1999999-0101REMSYN070AAXX  06184 83498 32595 60503 10312 20222 30129 40134 83320 333 59010;
0178834980999992010020700004-17733-039250FM-12+000399999V0209999C000010012019N0020001N1+02651+02391101441ADDGA1091+999999999GF109991091999999999999999KA1240M+03221MA1999999101391MD1999999-0131REMSYN082AAXX  07004 83498 32/95 90000 10265 20239 30139 40144 333 10322 29078 55029 59013;
0201834980999992010020712004-17733-039250FM-12+000399999V0201801N001010450019N0020001N1+02551+02381101561ADDAA124008991AY161061AY261061GF108991031071008001021999KA1240N+02431MA1999999101511MD1999999-0021MW1601REMSYN088AAXX  07124 83498 21595 81802 10255 20238 30151 40156 76066 8372/ 333 20243 59002 60094;
0182834980999992010020718004-17733-039250FM-12+000399999V0200901N001510450019N0020001N1+02991+02161101231ADDAA106002091AY121061AY211061GF106991021011008001021001MA1999999101181MD1999999-0111MW1031REMSYN082AAXX  07184 83498 21595 60903 10299 20216 30118 40123 70321 82120 333 59011 60021;
0178834980999992010020800004-17733-039250FM-12+000399999V0209999C000012200019N0020001N1+02621+02311101351ADDGA1001+999999999GF100991001001999999001001KA1240M+03111MA1999999101301MD1999999-0091REMSYN082AAXX  08004 83498 32995 00000 10262 20231 30130 40135 333 10311 29081 55011 59009;
0156834980999992010020812004-17733-039250FM-12+000399999V0203601N000510450019N0020001N1+02871+02331101441ADDGF106991031041008001031001KA1240N+02311MA1999999101391MD1999999-0121REMSYN076AAXX  08124 83498 32595 63601 10287 20233 30139 40144 83430 333 20231 59012;
0137834980999992010020818004-17733-039250FM-12+000399999V0203601N001512200019N0020001N1+03151+02271101001ADDGF103991031011008001001001MA1999999100951MD1999999-0231REMSYN070AAXX  08184 83498 32595 33603 10315 20227 30095 40100 83100 333 59023;
0178834980999992010020900004-17733-039250FM-12+000399999V0209999C000012200019N0020001N1+02511+02291101211ADDGA1001+999999999GF100991001001999999001001KA1240M+03241MA1999999101161MD1999999-0141REMSYN082AAXX  09004 83498 32995 00000 10251 20229 30116 40121 333 10324 29078 55029 59014;
0156834980999992010020912004-17733-039250FM-12+000399999V0203601N001510450019N0020001N1+02951+02331101301ADDGF105991041021008001031001KA1240N+02331MA1999999101251MD1999999-0141REMSYN076AAXX  09124 83498 32595 53603 10295 20233 30125 40130 84230 333 20233 59014;
0137834980999992010020918004-17733-039250FM-12+000399999V0203601N003111050019N0020001N1+03071+02301101011ADDGF105991021011008001001021MA1999999100961MD1999999+0011REMSYN070AAXX  09184 83498 32595 53606 10307 20230 30096 40101 82102 333 58001;
0168834980999992010021000004-17733-039250FM-12+000399999V0203601N001510450019N0020001N1+02671+02291101251ADDGF105991031061008001011001KA1240M+03201MA1999999101201MD1999999+0041REMSYN088AAXX  10004 83498 32595 53603 10267 20229 30120 40125 83610 333 10320 29074 55051 58004;
0156834980999992010021012004-17733-039250FM-12+000399999V0203601N003110450019N0020001N1+02931+02321101401ADDGF106991041021008001031001KA1240N+02421MA1999999101351MD1999999+0101REMSYN076AAXX  10124 83498 32595 63606 10293 20232 30135 40140 84230 333 20242 58010;
0137834980999992010021018004-17733-039250FM-12+000399999V0200501N001510450019N0020001N1+03011+02341101241ADDGF106991021041008001031001MA1999999101191MD1999999+0231REMSYN070AAXX  10184 83498 32595 60503 10301 20234 30119 40124 82430 333 58023;
0178834980999992010021100004-17733-039250FM-12+000399999V0200501N001512200019N0020001N1+02711+02371101391ADDGA1001+999999999GF100991001001999999001001KA1240M+03211MA1999999101341MD1999999+0141REMSYN082AAXX  11004 83498 32995 00503 10271 20237 30134 40139 333 10321 29075 55006 58014;
0201834980999992010021112004-17733-039250FM-12+000399999V0200901N002610450019N0020001N1+02931+02391101451ADDAA124002091AY121061AY211061GF106991021021008001041011KA1240N+02481MA1999999101401MD1999999+0051MW1031REMSYN088AAXX  11124 83498 21595 60905 10293 20239 30140 40145 70321 82241 333 20248 58005 60024;
0137834980999992010021118004-17733-039250FM-12+000399999V0200901N003110450019N0020001N1+03031+02411101381ADDGF107991031071008001011001MA1999999101331MD1999999+0141REMSYN070AAXX  11184 83498 32595 70906 10303 20241 30133 40138 83710 333 58014;
0179834980999992010021212004-17733-039250FM-12+000399999V0200901N002610450019N0020001N1+02981+02301101641ADDAA124004091GF106991031021008001031011KA1240N+02461MA1999999101591MD1999999+0191REMSYN088AAXX  12124 83498 22595 60905 10298 20230 30159 40164 83231 333 20246 58019 60044 10040;
0137834980999992010021218004-17733-039250FM-12+000399999V0200901N002111050019N0020001N1+03301+02371101481ADDGF105991021031008001021011MA1999999101431MD1999999+0101REMSYN070AAXX  12184 83498 32595 50904 10330 20237 30143 40148 82321 333 58010;
0201834980999992010021312004-17733-039250FM-12+000399999V0201401N003112200019N0020001N1+02921+02501101651ADDAA124000591AY161061AY211061GF104991041021008001001001KA1240N+02381MA1999999101601MD1999999+0011MW1211REMSYN088AAXX  13124 83498 21595 41406 10292 20250 30160 40165 72161 84200 333 20238 58001 69964;
0137834980999992010021318004-17733-039250FM-12+000399999V0201401N003612200019N0020001N1+03101+02441101431ADDGF102991021011008001001001MA1999999101381MD1999999-0051REMSYN070AAXX  13184 83498 32595 21407 10310 20244 30138 40143 82100 333 59005;
0201834980999992010021412004-17733-039250FM-12+000399999V0200501N001010450019N0020001N1+02711+02411101651ADDAA124007191AY161061AY261061GF107991041051008001011001KA1240N+02421MA1999999101601MD1999999+0001MW1211REMSYN088AAXX  14124 83498 21595 70502 10271 20241 30160 40165 72166 84510 333 20242 58000 60074;
0137834980999992010021418004-17733-039250FM-12+000399999V0200901N002612200019N0020001N1+03051+02521101331ADDGF103991021011008001041001MA1999999101281MD1999999-0101REMSYN070AAXX  14184 83498 32595 30905 10305 20252 30128 40133 82140 333 59010;
0156834980999992010021512004-17733-039250FM-12+000399999V0200901N001010450019N0020001N1+02911+02481101541ADDGF105991021021008001031001KA1240N+02461MA1999999101491MD1999999-0111REMSYN076AAXX  15124 83498 32595 50902 10291 20248 30149 40154 82230 333 20246 59011;
0137834980999992010021518004-17733-039250FM-12+000399999V0200501N003112200019N0020001N1+03131+02411101411ADDGF104991021021008001011001MA1999999101261MD1999999-0021REMSYN070AAXX  15184 83498 32595 40506 10313 20241 30126 40141 82210 333 59002;
0156834980999992010021612004-17733-039250FM-12+000399999V0203601N001510450019N0020001N1+02961+02451101461ADDGF105991031021008001051001KA1240N+02451MA1999999101411MD1999999-0081REMSYN076AAXX  16124 83498 32595 53603 10296 20245 30141 40146 83250 333 20245 59008;
0137834980999992010021618004-17733-039250FM-12+000399999V0200501N002112200019N0020001N1+03141+02401101251ADDGF102991011011008001041001MA1999999101201MD1999999-0061REMSYN070AAXX  16184 83498 32595 20504 10314 20240 30120 40125 81140 333 59006;
0156834980999992010021712004-17733-039250FM-12+000399999V0203601N001512200019N0020001N1+03151+02211101461ADDGF103991031021008001001001KA1240N+02381MA1999999101411MD1999999+0001REMSYN076AAXX  17124 83498 32595 33603 10315 20221 30141 40146 83200 333 20238 58000;
0137834980999992010021718004-17733-039250FM-12+000399999V0200501N002612200019N0020001N1+03191+02191101161ADDGF101991011011008001001001MA1999999101111MD1999999-0091REMSYN070AAXX  17184 83498 32595 10505 10319 20219 30111 40116 81100 333 59009;
0156834980999992010021812004-17733-039250FM-12+000399999V0203601N001010450019N0020001N1+02931+02291101571ADDGF106991031031008001021001KA1240N+02311MA1999999101521MD1999999+0111REMSYN076AAXX  18124 83498 32595 63602 10293 20229 30152 40157 83320 333 20231 58011;
0137834980999992010021818004-17733-039250FM-12+000399999V0203601N003112200019N0020001N1+03111+02341101371ADDGF102991021011008001001001MA1999999101321MD1999999+0211REMSYN070AAXX  18184 83498 32595 23606 10311 20234 30132 40137 82100 333 58021;
0178834980999992010021900004-17733-039250FM-12+000399999V0209999C000012200019N0020001N1+02711+02461101701ADDGA1001+999999999GF100991001001999999001001KA1240M+03341MA1999999101651MD1999999+0311REMSYN082AAXX  19004 83498 32995 00000 10271 20246 30165 40170 333 10334 29077 55048 58031;
0201834980999992010021912004-17733-039250FM-12+000399999V0201401N001012200019N0020001N1+02821+02481101851ADDAA124000891AY161061AY211061GF104991041021008001001001KA1240N+02381MA1999999101801MD1999999+0281MW1211REMSYN088AAXX  19124 83498 21595 41402 10282 20248 30180 40185 72161 84200 333 20238 58028 69984;
0137834980999992010021918004-17733-039250FM-12+000399999V0200501N003612200019N0020001N1+03081+02491101651ADDGF104991021011008001001011MA1999999101601MD1999999+0281REMSYN070AAXX  19184 83498 32595 40507 10308 20249 30160 40165 82101 333 58028;
0168834980999992010022000004-17733-039250FM-12+000399999V0200901N001012200019N0020001N1+02741+02471101831ADDGF102991021011008001001001KA1240M+03131MA1999999101781MD1999999+0131REMSYN088AAXX  20004 83498 32595 20902 10274 20247 30178 40183 82100 333 10313 29081 55059 58013;
0156834980999992010022012004-17733-039250FM-12+000399999V0200901N001512200019N0020001N1+03051+02281101821ADDGF104991041021008001001001KA1240N+02501MA1999999101771MD1999999-0031REMSYN076AAXX  20124 83498 32595 40903 10305 20228 30177 40182 84200 333 20250 59003;
0137834980999992010022018004-17733-039250FM-12+000399999V0200901N001511050019N0020001N1+03061+02471101501ADDGF106991021011008001001081MA1999999101451MD1999999-0151REMSYN070AAXX  20184 83498 32595 60903 10306 20247 30145 40150 82108 333 59015;
0168834980999992010022100004-17733-039250FM-12+000399999V0200901N001012200019N0020001N1+02711+02451101651ADDGF102991021011008001001001KA1240M+03231MA1999999101601MD1999999-0181REMSYN088AAXX  21004 83498 32595 20902 10271 20245 30160 40165 82100 333 10323 29074 55043 59018;
0156834980999992010022112004-17733-039250FM-12+000399999V0200901N001512200019N0020001N1+03051+02451101611ADDGF104991031021008001001011KA1240N+02381MA1999999101561MD1999999-0211REMSYN076AAXX  21124 83498 32595 40903 10305 20245 30156 40161 83201 333 20238 59021;
0137834980999992010022118004-17733-039250FM-12+000399999V0200501N002612200019N0020001N1+03131+02301101311ADDGF102991021021008001011001MA1999999101261MD1999999-0191REMSYN070AAXX  21184 83498 32595 20505 10313 20230 30126 40131 82210 333 59019;
0178834980999992010022200004-17733-039250FM-12+000399999V0209999C000012200019N0020001N1+02671+02351101461ADDGA1001+999999999GF100991001001999999001001KA1240M+03231MA1999999101411MD1999999-0191REMSYN082AAXX  22004 83498 32995 00000 10267 20235 30141 40146 333 10323 29075 55080 59019;
0156834980999992010022212004-17733-039250FM-12+000399999V0201401N001012200019N0020001N1+02881+02441101471ADDGF104991041021008001001001KA1240N+02401MA1999999101421MD1999999-0141REMSYN076AAXX  22124 83498 32595 41402 10288 20244 30142 40147 84200 333 20240 59014;
0137834980999992010022218004-17733-039250FM-12+000399999V0200501N003611050019N0020001N1+03141+02301101181ADDGF106991021011008001001021MA1999999101131MD1999999-0131REMSYN070AAXX  22184 83498 32595 60507 10314 20230 30113 40118 82102 333 59013;
0168834980999992010022300004-17733-039250FM-12+000399999V0200501N000512200019N0020001N1+02581+02311101351ADDGF103991021011008001031001KA1240M+03271MA1999999101301MD1999999-0111REMSYN088AAXX  23004 83498 32595 30501 10258 20231 30130 40135 82130 333 10327 29077 55054 59011;
0156834980999992010022312004-17733-039250FM-12+000399999V0203601N002610450019N0020001N1+03001+02371101471ADDGF106991041051008001041001KA1240N+02451MA1999999101421MD1999999+0001REMSYN076AAXX  23124 83498 32595 63605 10300 20237 30142 40147 84540 333 20245 58000;
0182834980999992010022318004-17733-039250FM-12+000399999V0200501N002612200019N0020001N1+03191+02391101141ADDAA106001091AY121061AY211061GF102991021011008001001001MA1999999101091MD1999999-0041MW1011REMSYN082AAXX  23184 83498 21595 20505 10319 20239 30109 40114 70121 82100 333 59004 60011;
0178834980999992010022400004-17733-039250FM-12+000399999V0200901N001012200019N0020001N1+02711+02391101311ADDGA1001+999999999GF100991001001999999001001KA1240M+03311MA1999999101261MD1999999-0041REMSYN082AAXX  24004 83498 32995 00902 10271 20239 30126 40131 333 10331 29075 55049 59004;
0192834980999992010022412004-17733-039250FM-12+000399999V0203601N002612200019N0020001N1+02971+02451101441ADDAA124001091GF104991999021008001001001KA1240N+02421MA1999999101391MD1999999-0031REMSYN082AAXX  24124 83498 22595 43605 10297 20245 30139 40144 82200 333 20242 59003 60014;EQDQ01+000022SCOTLC
0137834980999992010022418004-17733-039250FM-12+000399999V0203601N004112200019N0020001N1+03211+02241101151ADDGF101991011011008001001001MA1999999101101MD1999999+0011REMSYN070AAXX  24184 83498 32595 13608 10321 20224 30110 40115 81100 333 58001;
0178834980999992010022500004-17733-039250FM-12+000399999V0203601N002612200019N0020001N1+02731+02341101261ADDGA1001+999999999GF100991001001999999001001KA1240M+03361MA1999999101211MD1999999-0051REMSYN082AAXX  25004 83498 32995 03605 10273 20234 30121 40126 333 10336 29073 55084 59005;
0156834980999992010022512004-17733-039250FM-12+000399999V0203201N003112200019N0020001N1+03021+02211101341ADDGF103991021011008001001011KA1240N+02431MA1999999101291MD1999999-0101REMSYN076AAXX  25124 83498 32595 33206 10302 20221 30129 40134 82101 333 20243 59010;
0137834980999992010022518004-17733-039250FM-12+000399999V0203601N004112200019N0020001N1+03241+02061101081ADDGF104991011011008001001021MA1999999101031MD1999999-0071REMSYN070AAXX  25184 83498 32595 43608 10324 20206 30103 40108 81102 333 59007;
0168834980999992010022600004-17733-039250FM-12+000399999V0200501N001511050019N0020001N1+02681+02391101191ADDGF105991021011008001001021KA1240M+03351MA1999999101141MD1999999-0071REMSYN088AAXX  26004 83498 32595 50503 10268 20239 30114 40119 82102 333 10335 29070 55086 59007;
0156834980999992010022612004-17733-039250FM-12+000399999V0203601N001510450019N0020001N1+02951+02241101361ADDGF106991041051008001041001KA1240N+02481MA1999999101311MD1999999+0021REMSYN076AAXX  26124 83498 32595 63603 10295 20224 30131 40136 84540 333 20248 58002;
0137834980999992010022618004-17733-039250FM-12+000399999V0200901N002612200019N0020001N1+03171+02371101061ADDGF103991011011008001041001MA1999999101011MD1999999-0021REMSYN070AAXX  26184 83498 32595 30905 10317 20237 30101 40106 81140 333 59002;
0168834980999992010022700004-17733-039250FM-12+000399999V0200901N001010075019N0020001N1+02731+02241101381ADDGF107991051051008001011001KA1240M+03261MA1999999101331MD1999999+0191REMSYN088AAXX  27004 83498 32595 70902 10273 20224 30133 40138 85510 333 10326 29070 55040 58019;
0156834980999992010022712004-17733-039250FM-12+000399999V0201401N003110450019N0020001N1+02911+02321101521ADDGF106991031051008001041001KA1240N+02511MA1999999101471MD1999999+0161REMSYN076AAXX  27124 83498 32595 61406 10291 20232 30147 40152 83540 333 20251 58016;
0137834980999992010022718004-17733-039250FM-12+000399999V0201801N004612200019N0020001N1+02881+02371101271ADDGF102991021011008001001001MA1999999101221MD1999999+0211REMSYN070AAXX  27184 83498 32595 21809 10288 20237 30122 40127 82100 333 58021;
0178834980999992010022800004-17733-039250FM-12+000399999V0209999C000012200019N0020001N1+02691+02391101461ADDGA1001+999999999GF100991001001999999001001KA1240M+03151MA1999999101411MD1999999+0081REMSYN082AAXX  28004 83498 32995 00000 10269 20239 30141 40146 333 10315 29079 55049 58008;
0156834980999992010022812004-17733-039250FM-12+000399999V0202301N001012200019N0020001N1+02901+02411101431ADDGF104991041021008001001001KA1240N+02471MA1999999101381MD1999999-0091REMSYN076AAXX  28124 83498 32595 42302 10290 20241 30138 40143 84200 333 20247 59009;
0137834980999992010022818004-17733-039250FM-12+000399999V0200901N003612200019N0020001N1+03041+02431101201ADDGF103991031011008001001001MA1999999101151MD1999999-0071REMSYN070AAXX  28184 83498 32595 30907 10304 20243 30115 40120 83100 333 59007;
0168834980999992010030100004-17733-039250FM-12+000399999V0200901N001510450019N0020001N1+02761+02381101391ADDGF108991041051008001041999KA1240M+03211MA1999999101341MD1999999-0071REMSYN088AAXX  01004 83498 32595 80903 10276 20238 30134 40139 8454/ 333 10321 29076 55042 59007;
0156834980999992010030112004-17733-039250FM-12+000399999V0203601N001510450019N0020001N1+03111+02201101431ADDGF105991041011008001041001KA1240N+02551MA1999999101381MD1999999+0001REMSYN076AAXX  01124 83498 32595 53603 10311 20220 30138 40143 84140 333 20255 58000;
0137834980999992010030118004-17733-039250FM-12+000399999V0203601N003112200019N0020001N1+03201+02061101121ADDGF104991041041008001001001MA1999999101071MD1999999-0081REMSYN070AAXX  01184 83498 32595 43606 10320 20206 30107 40112 84400 333 59008;
0168834980999992010030200004-17733-039250FM-12+000399999V0209999C000010450019N0020001N1+02751+02431101381ADDGF106991041051008001041001KA1240M+03451MA1999999101331MD1999999-0011REMSYN088AAXX  02004 83498 32595 60000 10275 20243 30133 40138 84540 333 10345 29069 55034 59001;
0156834980999992010030212004-17733-039250FM-12+000399999V0201801N001010450019N0020001N1+02851+02501101461ADDGF107991041051008001051001KA1240N+02641MA1999999101411MD1999999+0031REMSYN076AAXX  02124 83498 32595 71802 10285 20250 30141 40146 84550 333 20264 58003;
0182834980999992010030218004-17733-039250FM-12+000399999V0200901N001010450019N0020001N1+02751+02501101171ADDAA106003091AY121061AY211061GF106991031051008001041001MA1999999101121MD1999999+0051MW1031REMSYN082AAXX  02184 83498 21595 60902 10275 20250 30112 40117 70321 83540 333 58005 60031;
0168834980999992010030300004-17733-039250FM-12+000399999V0201801N001010450019N0020001N1+02641+02441101411ADDGF108991041061008001021999KA1240M+03021MA1999999101361MD1999999+0031REMSYN088AAXX  03004 83498 32595 81802 10264 20244 30136 40141 8462/ 333 10302 29087 55001 58003;
0173834980999992010030312004-17733-039250FM-12+000399999V0201801N001510450019N0020001N1+02741+02521101431ADDAA124003091GF107991031051008001051001KA1240N+02481MA1999999101381MD1999999-0031REMSYN082AAXX  03124 83498 22595 71803 10274 20252 30138 40143 83550 333 20248 59003 60034;
0137834980999992010030318004-17733-039250FM-12+000399999V0201401N002110450019N0020001N1+02921+02541101151ADDGF105991031021008001051001MA1999999101101MD1999999-0021REMSYN070AAXX  03184 83498 32595 51404 10292 20254 30110 40115 83250 333 59002;
0168834980999992010030400004-17733-039250FM-12+000399999V0201801N000510075019N0020001N1+02761+02561101391ADDGF108991051051008001011999KA1240M+03041MA1999999101341MD1999999-0021REMSYN088AAXX  04004 83498 32595 81801 10276 20256 30134 40139 8551/ 333 10304 29086 55012 59002;
0201834980999992010030412004-17733-039250FM-12+000399999V0201801N001510075019N0020001N1+02671+02441101411ADDAA124034091AY121061AY211061GF107991051051008001011001KA1240N+02381MA1999999101361MD1999999-0021MW1031REMSYN088AAXX  04124 83498 21595 71803 10267 20244 30136 40141 70321 85510 333 20238 59002 60344;
0137834980999992010030418004-17733-039250FM-12+000399999V0201401N001510075019N0020001N1+02871+02441101041ADDGF107991051051008001011001MA1999999100991MD1999999-0111REMSYN070AAXX  04184 83498 32595 71403 10287 20244 30099 40104 85510 333 59011;
0156834980999992010030512004-17733-039250FM-12+000399999V0202301N001512200019N0020001N1+02931+02471101121ADDGF104991021021008001011001KA1240N+02531MA1999999101071MD1999999-0291REMSYN076AAXX  05124 83498 32595 42303 10293 20247 30107 40112 82210 333 20253 59029;
0137834980999992010030518004-17733-039250FM-12+000399999V0200901N002610075019N0020001N1+02991+02531100881ADDGF107991051051008001011001MA1999999100831MD1999999-0061REMSYN070AAXX  05184 83498 32595 70905 10299 20253 30083 40088 85510 333 59006;
0213834980999992010030600004-17733-039250FM-12+000399999V0203601N000510450019N0020001N1+02511+02431101031ADDAA106008991AY161061AY261061GF108991031071008001021999KA1240M+03131MA1999999100981MD1999999-0231MW1611REMSYN100AAXX  06004 83498 21595 83601 10251 20243 30098 40103 76166 8372/ 333 10313 29087 55029 59023 60091;
0201834980999992010030612004-17733-039250FM-12+000399999V0203201N003110450019N0020001N1+02641+02521100881ADDAA124011991AY161061AY261061GF106991041021008001041001KA1240N+02451MA1999999100831MD1999999-0241MW1211REMSYN088AAXX  06124 83498 21595 63206 10264 20252 30083 40088 72166 84240 333 20245 59024 60124;
0137834980999992010030618004-17733-039250FM-12+000399999V0201401N001510450019N0020001N1+02881+02541100651ADDGF108991041051008001011999MA1999999100601MD1999999-0231REMSYN070AAXX  06184 83498 32595 81403 10288 20254 30060 40065 8451/ 333 59023;
0201834980999992010030712004-17733-039250FM-12+000399999V0203201N001510450019N0020001N1+02831+02521100851ADDAA124008991AY121061AY211061GF106991041051008001041001KA1240N+02481MA1999999100801MD1999999-0031MW1031REMSYN088AAXX  07124 83498 21595 63203 10283 20252 30080 40085 70321 84540 333 20248 59003 60094;
0137834980999992010030718004-17733-039250FM-12+000399999V0203601N001510450019N0020001N1+02951+02541100621ADDGF107991041051008001011001MA1999999100571MD1999999-0031REMSYN070AAXX  07184 83498 32595 73603 10295 20254 30057 40062 84510 333 59003;
0180834980999992010030800004-17733-039250FM-12+000399999V0203601N001510075019N0020001N1+02751+02521100851ADDGF108991051061008001021999KA1240M+03211MA1999999100801MD1999999-0021MW1131REMSYN094AAXX  08004 83498 31595 83603 10275 20252 30080 40085 713// 8562/ 333 10321 29085 55003 59002;
0156834980999992010030812004-17733-039250FM-12+000399999V0203201N002612200019N0020001N1+03031+02481101151ADDGF101991011011008001001001KA1240N+02461MA1999999101061MD1999999+0261REMSYN076AAXX  08124 83498 32595 13205 10303 20248 30106 40115 81100 333 20246 58026;
0137834980999992010030818004-17733-039250FM-12+000399999V0203601N005112200019N0020001N1+03151+02501100861ADDGF102991021021008001011001MA1999999100811MD1999999+0241REMSYN070AAXX  08184 83498 32595 23610 10315 20250 30081 40086 82210 333 58024;
0213834980999992010030900004-17733-039250FM-12+000399999V0203601N000510450019N0020001N1+02611+02501101191ADDAA106005191AY191061AY261061GF108991041071008001021999KA1240M+02961MA1999999101141MD1999999+0341MW1611REMSYN100AAXX  09004 83498 21595 83601 10261 20250 30114 40119 76196 8472/ 333 10296 29084 55055 58034 60051;
0201834980999992010030912004-17733-039250FM-12+000399999V0203201N002610450019N0020001N1+02661+02481101391ADDAA124009991AY161061AY261061GF108991031061008001021999KA1240N+02411MA1999999101341MD1999999+0281MW1211REMSYN088AAXX  09124 83498 21595 83205 10266 20248 30134 40139 72166 8362/ 333 20241 58028 60104;
0137834980999992010030918004-17733-039250FM-12+000399999V0203601N004110450019N0020001N1+03061+02651100951ADDGF106991021011008001041021MA1999999100901MD1999999+0091REMSYN070AAXX  09184 83498 32595 63608 10306 20265 30090 40095 82142 333 58009;
0213834980999992010031000004-17733-039250FM-12+000399999V0200501N001510075019N0020001N1+02441+02351101331ADDAA106003091AY161061AY261061GF108991051071008001021999KA1240M+03151MA1999999101281MD1999999+0141MW1611REMSYN100AAXX  10004 83498 21595 80503 10244 20235 30128 40133 76166 8572/ 333 10315 29090 55000 58014 60031;
0201834980999992010031012004-17733-039250FM-12+000399999V0203601N004112200019N0020001N1+02971+02471101201ADDAA124006191AY121061AY211061GF104991021011008001041001KA1240N+02431MA1999999101151MD1999999-0191MW1031REMSYN088AAXX  10124 83498 21595 43608 10297 20247 30115 40120 70321 82140 333 20243 59019 60064;
0137834980999992010031018004-17733-039250FM-12+000399999V0203601N005110450019N0020001N1+02991+02511100801ADDGF106991021031008001051001MA1999999100751MD1999999-0151REMSYN070AAXX  10184 83498 32595 63610 10299 20251 30075 40080 82350 333 59015;
0180834980999992010031100004-17733-039250FM-12+000399999V0203601N001510450019N0020001N1+02751+02501101081ADDGF108991031061008001021999KA1240M+03271MA1999999101031MD1999999-0251MW1131REMSYN094AAXX  11004 83498 31595 83603 10275 20250 30103 40108 713// 8362/ 333 10327 29081 55034 59025;
0156834980999992010031112004-17733-039250FM-12+000399999V0203201N004112200019N0020001N1+03051+02481101091ADDGF102991021011008001001001KA1240N+02631MA1999999101041MD1999999-0111REMSYN076AAXX  11124 83498 32595 23208 10305 20248 30104 40109 82100 333 20263 59011;
0137834980999992010031118004-17733-039250FM-12+000399999V0203601N005112200019N0020001N1+03231+02551100711ADDGF102991021021008001081001MA1999999100661MD1999999-0091REMSYN070AAXX  11184 83498 32595 23610 10323 20255 30066 40071 82280 333 59009;
0180834980999992010031200004-17733-039250FM-12+000399999V0203201N001510450019N0020001N1+02531+02291101111ADDGF108991041061008001021999KA1240M+03321MA1999999101061MD1999999+0031MW1171REMSYN094AAXX  12004 83498 31595 83203 10253 20229 30106 40111 717// 8462/ 333 10332 29079 55053 58003;
0156834980999992010031212004-17733-039250FM-12+000399999V0203601N003612200019N0020001N1+02961+02561101171ADDGF104991021011008001001011KA1240N+02351MA1999999101121MD1999999+0081REMSYN076AAXX  12124 83498 32595 43607 10296 20256 30112 40117 82101 333 20235 58008;
0137834980999992010031218004-17733-039250FM-12+000399999V0203601N004610450019N0020001N1+03101+02541100851ADDGF106991021011008001051011MA1999999100801MD1999999+0141REMSYN070AAXX  12184 83498 32595 63609 10310 20254 30080 40085 82151 333 58014;
0168834980999992010031300004-17733-039250FM-12+000399999V0200901N003612200019N0020001N1+02781+02601101231ADDGF102991021011008001001001KA1240M+03321MA1999999101181MD1999999+0121REMSYN088AAXX  13004 83498 32595 20907 10278 20260 30118 40123 82100 333 10332 29083 55027 58012;
0201834980999992010031312004-17733-039250FM-12+000399999V0203601N003110450019N0020001N1+03031+02501101361ADDAA124016091AY121061AY211061GF105991021011008001031001KA1240N+02351MA1999999101311MD1999999+0191MW1031REMSYN088AAXX  13124 83498 21595 53606 10303 20250 30131 40136 70321 82130 333 20235 58019 60164;
0137834980999992010031318004-17733-039250FM-12+000399999V0203601N005112200019N0020001N1+03091+02471101161ADDGF101991011011008001001001MA1999999101111MD1999999+0311REMSYN070AAXX  13184 83498 32595 13610 10309 20247 30111 40116 81100 333 58031;
0180834980999992010031400004-17733-039250FM-12+000399999V0203601N003112200019N0020001N1+02711+02411101481ADDGF102991021041008001001001KA1240M+03191MA1999999101431MD1999999+0251MW1131REMSYN094AAXX  14004 83498 31595 23606 10271 20241 30143 40148 713// 82400 333 10319 29078 55075 58025;
0156834980999992010031412004-17733-039250FM-12+000399999V0203601N002610450019N0020001N1+02831+02501101681ADDGF106991031031008001021001KA1240N+02281MA1999999101631MD1999999+0321REMSYN076AAXX  14124 83498 32595 63605 10283 20250 30163 40168 83320 333 20228 58032;
0137834980999992010031418004-17733-039250FM-12+000399999V0203601N005112200019N0020001N1+03081+02351101381ADDGF101991011011008001001001MA1999999101331MD1999999+0221REMSYN070AAXX  14184 83498 32595 13610 10308 20235 30133 40138 81100 333 58022;
0178834980999992010031500004-17733-039250FM-12+000399999V0203601N000512200019N0020001N1+02601+02441101541ADDGA1001+999999999GF100991001001999999001001KA1240M+03221MA1999999101491MD1999999+0061REMSYN082AAXX  15004 83498 32995 03601 10260 20244 30149 40154 333 10322 29083 55066 58006;
0175834980999992010031512004-17733-039250FM-12+000399999V0203601N001510075019N0020001N1+02921+02601101731ADDGF108991999041008001051011KA1240N+02351MA1999999101681MD1999999+0051REMSYN076AAXX  15124 83498 32595 83603 10292 20260 30168 40173 88451 333 20235 58005;EQDQ01+000082SCOTLC
0137834980999992010031518004-17733-039250FM-12+000399999V0203601N004111050019N0020001N1+03141+02381101371ADDGF105991031011008001001021MA1999999101321MD1999999-0011REMSYN070AAXX  15184 83498 32595 53608 10314 20238 30132 40137 83102 333 59001;
0168834980999992010031600004-17733-039250FM-12+000399999V0200501N000512200019N0020001N1+02601+02421101601ADDGF102991021011008001001001KA1240M+03171MA1999999101551MD1999999+0061REMSYN088AAXX  16004 83498 32595 20501 10260 20242 30155 40160 82100 333 10317 29082 55035 58006;
0156834980999992010031612004-17733-039250FM-12+000399999V0203201N001012200019N0020001N1+02871+02311101711ADDGF104991041021008001001001KA1240N+02401MA1999999101661MD1999999-0021REMSYN076AAXX  16124 83498 32595 43202 10287 20231 30166 40171 84200 333 20240 59002;
0137834980999992010031618004-17733-039250FM-12+000399999V0200901N002612200019N0020001N1+02871+02391101461ADDGF101991011011008001001001MA1999999101411MD1999999+0091REMSYN070AAXX  16184 83498 32595 10905 10287 20239 30141 40146 81100 333 58009;
0178834980999992010031700004-17733-039250FM-12+000399999V0200901N001512200019N0020001N1+02701+02371101641ADDGA1001+999999999GF100991001001999999001001KA1240M+03231MA1999999101591MD1999999+0041REMSYN082AAXX  17004 83498 32995 00903 10270 20237 30159 40164 333 10323 29079 55079 58004;
0201834980999992010031712004-17733-039250FM-12+000399999V0202701N001510450019N0020001N1+02691+02481101751ADDAA124001091AY161061AY261061GF107991031071008001011001KA1240N+02481MA1999999101701MD1999999+0041MW1211REMSYN088AAXX  17124 83498 21595 72703 10269 20248 30170 40175 72166 83710 333 20248 58004 69994;
0137834980999992010031718004-17733-039250FM-12+000399999V0201401N002610450019N0020001N1+03011+02461101461ADDGF105991021031008001021001MA1999999101411MD1999999+0001REMSYN070AAXX  17184 83498 32595 51405 10301 20246 30141 40146 82320 333 58000;
0168834980999992010031800004-17733-039250FM-12+000399999V0201401N001512200019N0020001N1+02761+02481101661ADDGF102991021011008001001001KA1240M+03051MA1999999101611MD1999999+0021REMSYN088AAXX  18004 83498 32595 21403 10276 20248 30161 40166 82100 333 10305 29083 55049 58002;
0173834980999992010031812004-17733-039250FM-12+000399999V0201801N002610450019N0020001N1+02741+02601101741ADDAA124006191GF107991031051008001011021KA1240N+02511MA1999999101691MD1999999-0011REMSYN082AAXX  18124 83498 22595 71805 10274 20260 30169 40174 83512 333 20251 59001 60064;
0182834980999992010031818004-17733-039250FM-12+000399999V0201801N001010075019N0020001N1+02541+02421101461ADDAA106005191AY191061AY261061GF108991061091008001021999MA1999999101411MD1999999+0001MW1921REMSYN082AAXX  18184 83498 21595 81802 10254 20242 30141 40146 79296 8692/ 333 58000 60051;
0213834980999992010031900004-17733-039250FM-12+000399999V0201801N000510450019N0020001N1+02521+02401101691ADDAA106000021AY161061AY261061GF108991041071008001021999KA1240M+02931MA1999999101641MD1999999+0031MW1211REMSYN100AAXX  19004 83498 21595 81801 10252 20240 30164 40169 72166 8472/ 333 10293 29093 55004 58003 69921;
0173834980999992010031912004-17733-039250FM-12+000399999V0201801N001010450019N0020001N1+02791+02481101691ADDAA124005191GF106991031051008001041001KA1240N+02481MA1999999101641MD1999999-0051REMSYN082AAXX  19124 83498 22595 61802 10279 20248 30164 40169 83540 333 20248 59005 60054;
0201834980999992010031918004-17733-039250FM-12+000399999V0200901N001510450019N0020001N1+02841+02481101441ADDAA106000091AY121061AY211061GF106991031031008001051001MA1999999101391MD1999999-0021MW1031REMSYN082AAXX  19184 83498 21595 60903 10284 20248 30139 40144 70321 83350 333 59002 69911;EQDQ01  00002PRCP06
0178834980999992010032000004-17733-039250FM-12+000399999V0200901N001010012019N0020001N1+02651+02441101611ADDGA1091+999999999GF109991091999999999999999KA1240M+03031MA1999999101561MD1999999-0081REMSYN082AAXX  20004 83498 32/95 90902 10265 20244 30156 40161 333 10303 29086 55023 59008;
0192834980999992010032012004-17733-039250FM-12+000399999V0202301N000510450019N0020001N1+02851+02481101481ADDAA124000091GF106991041051008001011001KA1240N+02481MA1999999101431MD1999999-0211REMSYN082AAXX  20124 83498 22595 62301 10285 20248 30143 40148 84510 333 20248 59021 69914;EQDQ01  00002PRCP24
0182834980999992010032018004-17733-039250FM-12+000399999V0200901N001010450019N0020001N1+02731+02411101231ADDAA106014091AY121061AY211061GF106991031061008001021001MA1999999101181MD1999999-0211MW1031REMSYN082AAXX  20184 83498 21595 60902 10273 20241 30118 40123 70321 83620 333 59021 60141;
0178834980999992010032100004-17733-039250FM-12+000399999V0209999C000012200019N0020001N1+02451+02271101271ADDGA1001+999999999GF100991001001999999001001KA1240M+02871MA1999999101221MD1999999-0341REMSYN082AAXX  21004 83498 32995 00000 10245 20227 30122 40127 333 10287 29087 55023 59034;
0173834980999992010032112004-17733-039250FM-12+000399999V0203601N002112200019N0020001N1+02841+02351101261ADDAA124014091GF102991021011008001001001KA1240N+02281MA1999999101211MD1999999-0211REMSYN082AAXX  21124 83498 22595 23604 10284 20235 30121 40126 82100 333 20228 59021 60144;
0137834980999992010032118004-17733-039250FM-12+000399999V0203601N004112200019N0020001N1+03061+02501100931ADDGF101991011011008001001001MA1999999100881MD1999999-0101REMSYN070AAXX  21184 83498 32595 13608 10306 20250 30088 40093 81100 333 59010;
0168834980999992010032200004-17733-039250FM-12+000399999V0203601N001510450019N0020001N1+02741+02521101101ADDGF106991041021008001031001KA1240M+03171MA1999999101051MD1999999-0171REMSYN088AAXX  22004 83498 32595 63603 10274 20252 30105 40110 84230 333 10317 29081 55087 59017;
0156834980999992010032212004-17733-039250FM-12+000399999V0203601N003110075019N0020001N1+02911+02341101351ADDGF107991051041008001011001KA1240N+02531MA1999999101301MD1999999+0091REMSYN076AAXX  22124 83498 32595 73606 10291 20234 30130 40135 85410 333 20253 58009;
0137834980999992010032218004-17733-039250FM-12+000399999V0203601N002612200019N0020001N1+03091+02441101021ADDGF105991031021008001001011MA1999999100971MD1999999+0091REMSYN070AAXX  22184 83498 32595 53605 10309 20244 30097 40102 83201 333 58009;
0213834980999992010032300004-17733-039250FM-12+000399999V0203601N002610450019N0020001N1+02321+02241101471ADDAA106005191AY191061AY261061GF108991041071008001021999KA1240M+03121MA1999999101421MD1999999+0371MW1611REMSYN100AAXX  23004 83498 21595 83605 10232 20224 30142 40147 76196 8472/ 333 10312 29078 55017 58037 60051;
0173834980999992010032312004-17733-039250FM-12+000399999V0203601N002612200019N0020001N1+02761+02461101561ADDAA124005191GF102991021011008001001001KA1240N+02331MA1999999101511MD1999999+0211REMSYN082AAXX  23124 83498 22595 23605 10276 20246 30151 40156 82100 333 20233 58021 60054;
0137834980999992010032318004-17733-039250FM-12+000399999V0200501N003112200019N0020001N1+03051+02331101251ADDGF101991011011008001001001MA1999999101201MD1999999+0231REMSYN070AAXX  23184 83498 32595 10506 10305 20233 30120 40125 81100 333 58023;
0178834980999992010032400004-17733-039250FM-12+000399999V0209999C000012200019N0020001N1+02571+02381101531ADDGA1001+999999999GF100991001001999999001001KA1240M+03111MA1999999101481MD1999999+0061REMSYN082AAXX  24004 83498 32995 00000 10257 20238 30148 40153 333 10311 29083 55063 58006;
0156834980999992010032412004-17733-039250FM-12+000399999V0200501N002112200019N0020001N1+02701+02431101701ADDGF104991021011008001001021KA1240N+02411MA1999999101651MD1999999+0141REMSYN076AAXX  24124 83498 32595 40504 10270 20243 30165 40170 82102 333 20241 58014;
0137834980999992010032418004-17733-039250FM-12+000399999V0200901N002610075019N0020001N1+02921+02501101431ADDGF106991061021008001001001MA1999999101381MD1999999+0181REMSYN070AAXX  24184 83498 32595 60905 10292 20250 30138 40143 86200 333 58018;
0168834980999992010032500004-17733-039250FM-12+000399999V0200501N001512200019N0020001N1+02681+02451101551ADDGF102991021011008001001001KA1240M+03071MA1999999101501MD1999999+0021REMSYN088AAXX  25004 83498 32595 20503 10268 20245 30150 40155 82100 333 10307 29084 55044 58002;
0156834980999992010032512004-17733-039250FM-12+000399999V0200901N001512200019N0020001N1+02911+02461101661ADDGF104991041021008001001001KA1240N+02571MA1999999101611MD1999999-0041REMSYN076AAXX  25124 83498 32595 40903 10291 20246 30161 40166 84200 333 20257 59004;
0137834980999992010032518004-17733-039250FM-12+000399999V0200901N002612200019N0020001N1+03021+02501101421ADDGF103991031021008001001001MA1999999101371MD1999999-0011REMSYN070AAXX  25184 83498 32595 30905 10302 20250 30137 40142 83200 333 59001;
0168834980999992010032600004-17733-039250FM-12+000399999V0200901N001512200019N0020001N1+02691+02451101651ADDGF101991011011008001001001KA1240M+03101MA1999999101601MD1999999+0101REMSYN088AAXX  26004 83498 32595 10903 10269 20245 30160 40165 81100 333 10310 29081 55074 58010;
0156834980999992010032612004-17733-039250FM-12+000399999V0200901N003110450019N0020001N1+02991+02531101711ADDGF106991031031008001021001KA1240N+02651MA1999999101661MD1999999+0051REMSYN076AAXX  26124 83498 32595 60906 10299 20253 30166 40171 83320 333 20265 58005;
0137834980999992010032618004-17733-039250FM-12+000399999V0200901N001512200019N0020001N1+03041+02411101411ADDGF102991021011008001001001MA1999999101361MD1999999-0011REMSYN070AAXX  26184 83498 32595 20903 10304 20241 30136 40141 82100 333 59001;
0178834980999992010032700004-17733-039250FM-12+000399999V0200901N001012200019N0020001N1+02691+02481101591ADDGA1001+999999999GF100991001001999999001001KA1240M+03111MA1999999101541MD1999999-0161REMSYN082AAXX  27004 83498 32995 00902 10269 20248 30154 40159 333 10311 29081 55095 59016;
0156834980999992010032712004-17733-039250FM-12+000399999V0200901N002110450019N0020001N1+02921+02541101621ADDGF106991041021008001031001KA1240N+02491MA1999999101571MD1999999-0091REMSYN076AAXX  27124 83498 32595 60904 10292 20254 30157 40162 84230 333 20249 59009;
0137834980999992010032718004-17733-039250FM-12+000399999V0200501N003112200019N0020001N1+03041+02681101331ADDGF104991021011008001001011MA1999999101281MD1999999-0081REMSYN070AAXX  27184 83498 32595 40506 10304 20268 30128 40133 82101 333 59008;
0168834980999992010032800004-17733-039250FM-12+000399999V0200501N001512200019N0020001N1+02861+02641101451ADDGF102991021011008001001001KA1240M+03151MA1999999101401MD1999999-0141REMSYN088AAXX  28004 83498 32595 20503 10286 20264 30140 40145 82100 333 10315 29084 55067 59014;
0201834980999992010032812004-17733-039250FM-12+000399999V0203601N001510450019N0020001N1+02401+02351101661ADDAA124041991AY191061AY261061GF108991031071008001021999KA1240N+02331MA1999999101611MD1999999+0041MW1601REMSYN088AAXX  28124 83498 21595 83603 10240 20235 30161 40166 76096 8372/ 333 20233 58004 60424;
0182834980999992010032818004-17733-039250FM-12+000399999V0200901N001010450019N0020001N1+02871+02501101231ADDAA106000391AY161061AY261061GF107991031061008001011001MA1999999101181MD1999999-0101MW1211REMSYN082AAXX  28184 83498 21595 70902 10287 20250 30118 40123 72166 83610 333 59010 69931;
0213834980999992010032900004-17733-039250FM-12+000399999V0203201N001010450019N0020001N1+02461+02371101391ADDAA106013091AY161061AY261061GF106991031061008001011001KA1240M+02891MA1999999101341MD1999999-0061MW1211REMSYN100AAXX  29004 83498 21595 63202 10246 20237 30134 40139 72166 83610 333 10289 29092 55000 59006 60131;
0201834980999992010032912004-17733-039250FM-12+000399999V0200301N000512200019N0020001N1+02881+02391101611ADDAA124013091AY101061AY211061GF101991011011008001001001KA1240N+02301MA1999999101561MD1999999-0051MW1211REMSYN088AAXX  29124 83498 21595 10301 10288 20239 30156 40161 72101 81100 333 20230 59005 60134;
0137834980999992010032918004-17733-039250FM-12+000399999V0200501N002612200019N0020001N1+03121+02281101281ADDGF102991021011008001001001MA1999999101231MD1999999+0051REMSYN070AAXX  29184 83498 32595 20505 10312 20228 30123 40128 82100 333 58005;
0178834980999992010033000004-17733-039250FM-12+000399999V0209999C000012200019N0020001N1+02541+02401101421ADDGA1001+999999999GF100991001001999999001001KA1240M+03151MA1999999101371MD1999999+0031REMSYN082AAXX  30004 83498 32995 00000 10254 20240 30137 40142 333 10315 29080 55090 58003;
0156834980999992010033012004-17733-039250FM-12+000399999V0202301N001012200019N0020001N1+02841+02621101521ADDGF103991031011008001001001KA1240N+02411MA1999999101471MD1999999-0091REMSYN076AAXX  30124 83498 32595 32302 10284 20262 30147 40152 83100 333 20241 59009;
0137834980999992010033018004-17733-039250FM-12+000399999V0200501N003112200019N0020001N1+03181+02521101191ADDGF102991021011008001001001MA1999999101141MD1999999-0091REMSYN070AAXX  30184 83498 32595 20506 10318 20252 30114 40119 82100 333 59009;
0178834980999992010033100004-17733-039250FM-12+000399999V0209999C000012200019N0020001N1+02561+02351101371ADDGA1001+999999999GF100991001001999999001001KA1240M+03141MA1999999101321MD1999999-0051REMSYN082AAXX  31004 83498 32995 00000 10256 20235 30132 40137 333 10314 29080 55081 59005;
0156834980999992010033112004-17733-039250FM-12+000399999V0209999C000011050019N0020001N1+02841+02351101361ADDGF105991031021008001001021KA1240N+02371MA1999999101311MD1999999-0161REMSYN076AAXX  31124 83498 32595 50000 10284 20235 30131 40136 83202 333 20237 59016;
0137834980999992010033118004-17733-039250FM-12+000399999V0200501N001512200019N0020001N1+03031+02411101081ADDGF103991011011008001001021MA1999999101031MD1999999-0111REMSYN070AAXX  31184 83498 32595 30503 10303 20241 30103 40108 81102 333 59011;
0168834980999992010040100004-17733-039250FM-12+000399999V0200901N001012200019N0020001N1+02731+02431101311ADDGF103991011011008001001021KA1240M+03091MA1999999101261MD1999999-0061REMSYN088AAXX  01004 83498 32595 30902 10273 20243 30126 40131 81102 333 10309 29088 55087 59006;
0201834980999992010040112004-17733-039250FM-12+000399999V0200901N000510450019N0020001N1+02511+02431101411ADDAA124015091AY191061AY261061GF108991041071008001021999KA1240N+02471MA1999999101361MD1999999+0051MW1611REMSYN088AAXX  01124 83498 21595 80901 10251 20243 30136 40141 76196 8472/ 333 20247 58005 60154;
0137834980999992010040118004-17733-039250FM-12+000399999V0201801N001510450019N0020001N1+02801+02501101151ADDGF106991031031008001021011MA1999999101101MD1999999+0071REMSYN070AAXX  01184 83498 32595 61803 10280 20250 30110 40115 83321 333 58007;
0168834980999992010040200004-17733-039250FM-12+000399999V0200901N001012200019N0020001N1+02751+02521101301ADDGF103991031021008001001001KA1240M+03041MA1999999101251MD1999999-0011REMSYN088AAXX  02004 83498 32595 30902 10275 20252 30125 40130 83200 333 10304 29089 55038 59001;
0201834980999992010040212004-17733-039250FM-12+000399999V0201401N001510450019N0020001N1+02881+02561101411ADDAA124000891AY161061AY221061GF106991031011008001031021KA1240N+02451MA1999999101361MD1999999+0001MW1211REMSYN088AAXX  02124 83498 21595 61403 10288 20256 30136 40141 72162 83132 333 20245 58000 69984;
0137834980999992010040218004-17733-039250FM-12+000399999V0200901N001510450019N0020001N1+02941+02601101271ADDGF106991041051008001011001MA1999999101221MD1999999+0121REMSYN070AAXX  02184 83498 32595 60903 10294 20260 30122 40127 84510 333 58012;
0178834980999992010040300004-17733-039250FM-12+000399999V0209999C000012200019N0020001N1+02561+02421101531ADDGA1001+999999999GF100991001001999999001001KA1240M+03071MA1999999101481MD1999999+0231REMSYN082AAXX  03004 83498 32995 00000 10256 20242 30148 40153 333 10307 29087 55027 58023;
0201834980999992010040312004-17733-039250FM-12+000399999V0203601N002610450019N0020001N1+02811+02501101641ADDAA124000591AY121061AY211061GF108991031071008001021999KA1240N+02401MA1999999101591MD1999999+0231MW1031REMSYN088AAXX  03124 83498 21595 83605 10281 20250 30159 40164 70321 8372/ 333 20240 58023 69944;
0182834980999992010040318004-17733-039250FM-12+000399999V0200901N001510450019N0020001N1+02651+02351101401ADDAA106010991AY121061AY211061GF108991041061008001021999MA1999999101351MD1999999+0131MW1031REMSYN082AAXX  03184 83498 21595 80903 10265 20235 30135 40140 70321 8462/ 333 58013 60111;
0168834980999992010040400004-17733-039250FM-12+000399999V0200901N001012200019N0020001N1+02511+02431101581ADDGF103991031061008001001001KA1240M+02831MA1999999101531MD1999999+0051REMSYN088AAXX  04004 83498 32595 30902 10251 20243 30153 40158 83600 333 10283 29090 55004 58005;
0173834980999992010040412004-17733-039250FM-12+000399999V0201801N001010450019N0020001N1+02811+02581101581ADDAA124010991GF106991031021008001031001KA1240N+02411MA1999999101531MD1999999-0061REMSYN082AAXX  04124 83498 22595 61802 10281 20258 30153 40158 83230 333 20241 59006 60114;
0182834980999992010040418004-17733-039250FM-12+000399999V0200901N001010450019N0020001N1+02791+02461101311ADDAA106001091AY121061AY211061GF107991041051008001011001MA1999999101261MD1999999-0091MW1031REMSYN082AAXX  04184 83498 21595 70902 10279 20246 30126 40131 70321 84510 333 59009 60011;
0178834980999992010040500004-17733-039250FM-12+000399999V0209999C000012200019N0020001N1+02431+02391101451ADDGA1001+999999999GF100991001001999999001001KA1240M+02841MA1999999101401MD1999999-0131REMSYN082AAXX  05004 83498 32995 00000 10243 20239 30140 40145 333 10284 29092 55010 59013;
0173834980999992010040512004-17733-039250FM-12+000399999V0203601N001012200019N0020001N1+02781+02501101441ADDAA124001091GF104991021011008001001011KA1240N+02351MA1999999101391MD1999999-0151REMSYN082AAXX  05124 83498 22595 43602 10278 20250 30139 40144 82101 333 20235 59015 60014;
0137834980999992010040518004-17733-039250FM-12+000399999V0200501N002112200019N0020001N1+03021+02461101081ADDGF102991021011008001001001MA1999999101031MD1999999-0231REMSYN070AAXX  05184 83498 32595 20504 10302 20246 30103 40108 82100 333 59023;
0168834980999992010040600004-17733-039250FM-12+000399999V0200501N000512200019N0020001N1+02661+02481101221ADDGF105991021021008001001011KA1240M+03091MA1999999101171MD1999999-0231REMSYN088AAXX  06004 83498 32595 50501 10266 20248 30117 40122 82201 333 10309 29084 55071 59023;
0201834980999992010040612004-17733-039250FM-12+000399999V0203201N003112200019N0020001N1+02901+02501101051ADDAA124000391AY121061AY211061GF103991011011008001031001KA1240N+02511MA1999999101001MD1999999-0391MW1031REMSYN088AAXX  06124 83498 21595 33206 10290 20250 30100 40105 70321 81130 333 20251 59039 69934;
0137834980999992010040618004-17733-039250FM-12+000399999V0200501N005110450019N0020001N1+02961+02511100571ADDGF107991041081008001051001MA1999999100521MD1999999-0511REMSYN070AAXX  06184 83498 32595 70510 10296 20251 30052 40057 84850 333 59051;
0213834980999992010040700004-17733-039250FM-12+000399999V0203601N001510450019N0020001N1+02441+02351100871ADDAA106050091AY191061AY261061GF108991031071008001021999KA1240M+03211MA1999999100821MD1999999-0351MW1601REMSYN100AAXX  07004 83498 21595 83603 10244 20235 30082 40087 76096 8372/ 333 10321 29088 55069 59035 60501;
0201834980999992010040712004-17733-039250FM-12+000399999V0201801N002610450019N0020001N1+02381+02331100971ADDAA124125091AY161061AY261061GF108991041071008001021999KA1240N+02331MA1999999100921MD1999999-0081MW1601REMSYN088AAXX  07124 83498 21595 81805 10238 20233 30092 40097 76066 8472/ 333 20233 59008 61254;
0182834980999992010040718004-17733-039250FM-12+000399999V0201401N005110450019N0020001N1+02631+02101100771ADDAA106002091AY121061AY211061GF108991041061008001021999MA1999999100721MD1999999+0201MW1031REMSYN082AAXX  07184 83498 21595 81410 10263 20210 30072 40077 70321 8462/ 333 58020 60021;
0168834980999992010040800004-17733-039250FM-12+000399999V0201801N001512200019N0020001N1+02381+02151101111ADDGF102991021061008001001001KA1240M+02671MA1999999101061MD1999999+0241REMSYN088AAXX  08004 83498 32595 21803 10238 20215 30106 40111 82600 333 10267 29083 55000 58024;
0173834980999992010040812004-17733-039250FM-12+000399999V0202301N001512200019N0020001N1+02561+02191101281ADDAA124002091GF103991031011008001001001KA1240N+02141MA1999999101231MD1999999+0311REMSYN082AAXX  08124 83498 22595 32303 10256 20219 30123 40128 83100 333 20214 58031 60024;
0137834980999992010040818004-17733-039250FM-12+000399999V0201401N001512200019N0020001N1+02801+02081101101ADDGF102991021011008001001001MA1999999101051MD1999999+0331REMSYN070AAXX  08184 83498 32595 21403 10280 20208 30105 40110 82100 333 58033;
0168834980999992010040900004-17733-039250FM-12+000399999V0200901N003112200019N0020001N1+02501+02031101431ADDGF101991011011008001001001KA1240M+02861MA1999999101381MD1999999+0321REMSYN088AAXX  09004 83498 32595 10906 10250 20203 30138 40143 81100 333 10286 29074 55102 58032;
0201834980999992010040912004-17733-039250FM-12+000399999V0201801N005112200019N0020001N1+02621+01961101671ADDAA124004191AY121061AY211061GF103991011011008001001011KA1240N+02151MA1999999101621MD1999999+0391MW1031REMSYN088AAXX  09124 83498 21595 31810 10262 20196 30162 40167 70321 81101 333 20215 58039 60044;
0137834980999992010040918004-17733-039250FM-12+000399999V0201801N005112200019N0020001N1+02691+02061101561ADDGF103991011011008001001011MA1999999101511MD1999999+0461REMSYN070AAXX  09184 83498 32595 31810 10269 20206 30151 40156 81101 333 58046;
0168834980999992010041000004-17733-039250FM-12+000399999V0201801N003112200019N0020001N1+02511+02031101841ADDGF103991031061008001001001KA1240M+02731MA1999999101791MD1999999+0411REMSYN088AAXX  10004 83498 32595 31806 10251 20203 30179 40184 83600 333 10273 29072 55089 58041;
0156834980999992010041012004-17733-039250FM-12+000399999V0201801N003110450019N0020001N1+02601+02371101771ADDGF106991031031008001021001KA1240N+02151MA1999999101721MD1999999+0101REMSYN076AAXX  10124 83498 32595 61806 10260 20237 30172 40177 83320 333 20215 58010;
0137834980999992010041018004-17733-039250FM-12+000399999V0201801N005110450019N0020001N1+02651+02121101551ADDGF106991031031008001021001MA1999999101501MD1999999-0011REMSYN070AAXX  10184 83498 32595 61810 10265 20212 30150 40155 83320 333 59001;
0168834980999992010041100004-17733-039250FM-12+000399999V0201401N002612200019N0020001N1+02461+02091101801ADDGF101991011011008001001001KA1240M+02751MA1999999101751MD1999999-0261REMSYN088AAXX  11004 83498 32595 11405 10246 20209 30175 40180 81100 333 10275 29078 55064 59026;
0201834980999992010041112004-17733-039250FM-12+000399999V0201801N004610450019N0020001N1+02441+02251101721ADDAA124002091AY161061AY221061GF108991041071008001021999KA1240N+02091MA1999999101671MD1999999-0051MW1211REMSYN088AAXX  11124 83498 21595 81809 10244 20225 30167 40172 72162 8472/ 333 20209 59005 60024;
0182834980999992010041118004-17733-039250FM-12+000399999V0201801N003110075019N0020001N1+02521+02231101491ADDAA106001091AY161061AY261061GF106991051061008001001011MA1999999101441MD1999999-0061MW1611REMSYN082AAXX  11184 83498 21595 61806 10252 20223 30144 40149 76166 85601 333 59006 60011;
0213834980999992010041200004-17733-039250FM-12+000399999V0201401N001512200019N0020001N1+02401+02151101701ADDAA106000891AY161061AY261061GF102991021061008001001001KA1240M+02671MA1999999101651MD1999999-0101MW1211REMSYN100AAXX  12004 83498 21595 21403 10240 20215 30165 40170 72166 82600 333 10267 29086 55003 59010 69971;
0173834980999992010041212004-17733-039250FM-12+000399999V0201801N003110450019N0020001N1+02631+02101101741ADDAA124002091GF106991041051008001041001KA1240N+02191MA1999999101691MD1999999+0021REMSYN082AAXX  12124 83498 22595 61806 10263 20210 30169 40174 84540 333 20219 58002 60024;
0137834980999992010041218004-17733-039250FM-12+000399999V0201401N003112200019N0020001N1+02751+02241101561ADDGF104991021021008001041001MA1999999101511MD1999999+0071REMSYN070AAXX  12184 83498 32595 41406 10275 20224 30151 40156 82240 333 58007;
0213834980999992010041300004-17733-039250FM-12+000399999V0201401N003110450019N0020001N1+02421+02251101761ADDAA106000891AY121061AY211061GF106991041061008001011001KA1240M+02831MA1999999101711MD1999999+0061MW1031REMSYN100AAXX  13004 83498 21595 61406 10242 20225 30171 40176 70321 84610 333 10283 29082 55068 58006 69981;
0201834980999992010041312004-17733-039250FM-12+000399999V0201401N003110450019N0020001N1+02611+02351101951ADDAA124007191AY121061AY211061GF108991041061008001021999KA1240N+02321MA1999999101901MD1999999+0211MW1031REMSYN088AAXX  13124 83498 21595 81406 10261 20235 30190 40195 70321 8462/ 333 20232 58021 60074;
0182834980999992010041318004-17733-039250FM-12+000399999V0201801N002610450019N0020001N1+02411+02381101761ADDAA106007991AY121061AY211061GF108991041071008001021999MA1999999101711MD1999999+0201MW1031REMSYN082AAXX  13184 83498 21595 81805 10241 20238 30171 40176 70321 8472/ 333 58020 60081;
0213834980999992010041400004-17733-039250FM-12+000399999V0201801N001512200019N0020001N1+02411+02301101881ADDAA106004191AY161061AY261061GF103991031061008001001001KA1240M+02641MA1999999101831MD1999999+0121MW1601REMSYN100AAXX  14004 83498 21595 31803 10241 20230 30183 40188 76066 83600 333 10264 29094 55000 58012 60041;
0173834980999992010041412004-17733-039250FM-12+000399999V0200901N001510075019N0020001N1+02681+02181102081ADDAA124011991GF108991051061008001011999KA1240N+02301MA1999999102031MD1999999+0131REMSYN082AAXX  14124 83498 22595 80903 10268 20218 30203 40208 8561/ 333 20230 58013 60124;
0137834980999992010041418004-17733-039250FM-12+000399999V0201801N001512200019N0020001N1+02701+02281101771ADDGF103991021011008001001011MA1999999101721MD1999999+0011REMSYN070AAXX  14184 83498 32595 31803 10270 20228 30172 40177 82101 333 58001;
0168834980999992010041500004-17733-039250FM-12+000399999V0201401N001512200019N0020001N1+02541+02231101951ADDGF103991031011008001001001KA1240M+02871MA1999999101901MD1999999-0031REMSYN088AAXX  15004 83498 32595 31403 10254 20223 30190 40195 83100 333 10287 29080 55057 59003;
0156834980999992010041512004-17733-039250FM-12+000399999V0201801N002610450019N0020001N1+02751+02301101861ADDGF106991041051008001041001KA1240N+02431MA1999999101811MD1999999-0231REMSYN076AAXX  15124 83498 32595 61805 10275 20230 30181 40186 84540 333 20243 59023;
0137834980999992010041518004-17733-039250FM-12+000399999V0201401N004110450019N0020001N1+02831+02291101541ADDGF106991031051008001031001MA1999999101491MD1999999-0231REMSYN070AAXX  15184 83498 32595 61408 10283 20229 30149 40154 83530 333 59023;
0213834980999992010041600004-17733-039250FM-12+000399999V0201401N001510075019N0020001N1+02531+02381101681ADDAA106004191AY121061AY211061GF108991051061008001021999KA1240M+02851MA1999999101631MD1999999-0271MW1031REMSYN100AAXX  16004 83498 21595 81403 10253 20238 30163 40168 70321 8562/ 333 10285 29084 55068 59027 60041;
0201834980999992010041612004-17733-039250FM-12+000399999V0200501N001510450019N0020001N1+02831+02361101711ADDAA124023991AY121061AY211061GF106991031021008001011001KA1240N+02421MA1999999101661MD1999999-0151MW1031REMSYN088AAXX  16124 83498 21595 60503 10283 20236 30166 40171 70321 83210 333 20242 59015 60244;
0137834980999992010041618004-17733-039250FM-12+000399999V0200901N001511050019N0020001N1+02871+02391101421ADDGF106991031021008001001021MA1999999101371MD1999999-0121REMSYN070AAXX  16184 83498 32595 60903 10287 20239 30137 40142 83202 333 59012;
0213834980999992010041700004-17733-039250FM-12+000399999V0200901N002610450019N0020001N1+02441+02351101661ADDAA106002091AY161061AY261061GF108991041071008001021999KA1240M+02951MA1999999101611MD1999999-0021MW1601REMSYN100AAXX  17004 83498 21595 80905 10244 20235 30161 40166 76066 8472/ 333 10295 29086 55052 59002 60021;
0201834980999992010041712004-17733-039250FM-12+000399999V0203601N001510075019N0020001N1+02341+02271101901ADDAA124024991AY161061AY261061GF108991051071008001021999KA1240N+02281MA1999999101851MD1999999+0191MW1621REMSYN088AAXX  17124 83498 21595 83603 10234 20227 30185 40190 76266 8572/ 333 20228 58019 60254;
0182834980999992010041718004-17733-039250FM-12+000399999V0201401N002610450019N0020001N1+02801+02421101641ADDAA106004191AY161061AY261061GF108991041061008001011999MA1999999101591MD1999999+0221MW1211REMSYN082AAXX  17184 83498 21595 81405 10280 20242 30159 40164 72166 8461/ 333 58022 60041;
0168834980999992010041800004-17733-039250FM-12+000399999V0200901N001512200019N0020001N1+02541+02331101841ADDGF103991031011008001001001KA1240M+02881MA1999999101791MD1999999+0181REMSYN088AAXX  18004 83498 32595 30903 10254 20233 30179 40184 83100 333 10288 29086 55012 58018;
0173834980999992010041812004-17733-039250FM-12+000399999V0201401N001510450019N0020001N1+02611+02421101971ADDAA124004191GF107991041051008001011001KA1240N+02331MA1999999101921MD1999999+0071REMSYN082AAXX  18124 83498 22595 71403 10261 20242 30192 40197 84510 333 20233 58007 60044;
0137834980999992010041818004-17733-039250FM-12+000399999V0201401N001512200019N0020001N1+02831+02291101741ADDGF103991031011008001001001MA1999999101691MD1999999+0101REMSYN070AAXX  18184 83498 32595 31403 10283 20229 30169 40174 83100 333 58010;
0178834980999992010041900004-17733-039250FM-12+000399999V0200901N001012200019N0020001N1+02551+02291101841ADDGA1001+999999999GF100991001001999999001001KA1240M+02891MA1999999101791MD1999999+0001REMSYN082AAXX  19004 83498 32995 00902 10255 20229 30179 40184 333 10289 29084 55079 58000;
0201834980999992010041912004-17733-039250FM-12+000399999V0201801N001510450019N0020001N1+02631+02391101851ADDAA124003091AY121061AY211061GF106991031021008001011001KA1240N+02271MA1999999101801MD1999999-0121MW1031REMSYN088AAXX  19124 83498 21595 61803 10263 20239 30180 40185 70321 83210 333 20227 59012 60034;
0201834980999992010041918004-17733-039250FM-12+000399999V0201401N001511050019N0020001N1+02751+02211101631ADDAA106000091AY121061AY211061GF105991031011008001001021MA1999999101581MD1999999-0111MW1031REMSYN082AAXX  19184 83498 21595 51403 10275 20221 30158 40163 70321 83102 333 59011 69921;EQDQ01  00002PRCP06
0178834980999992010042000004-17733-039250FM-12+000399999V0209999C000012200019N0020001N1+02481+02191101721ADDGA1001+999999999GF100991001001999999001001KA1240M+02891MA1999999101671MD1999999-0121REMSYN082AAXX  20004 83498 32995 00000 10248 20219 30167 40172 333 10289 29082 55087 59012;
0201834980999992010042012004-17733-039250FM-12+000399999V0202301N000510450019N0020001N1+02361+02291101731ADDAA124001091AY161061AY221061GF108991041061008001011999KA1240N+02141MA1999999101681MD1999999-0121MW1611REMSYN088AAXX  20124 83498 21595 82301 10236 20229 30168 40173 76162 8461/ 333 20214 59012 60014;
0182834980999992010042018004-17733-039250FM-12+000399999V0201801N001510450019N0020001N1+02681+02411101451ADDAA106002091AY161061AY261061GF107991021061008001051011MA1999999101401MD1999999-0181MW1211REMSYN082AAXX  20184 83498 21595 71803 10268 20241 30140 40145 72166 82651 333 59018 60021;
0213834980999992010042100004-17733-039250FM-12+000399999V0201401N001010450019N0020001N1+02381+02261101661ADDAA106001091AY161061AY261061GF108991041061008001011999KA1240M+02801MA1999999101611MD1999999-0061MW1611REMSYN100AAXX  21004 83498 21595 81402 10238 20226 30161 40166 76166 8461/ 333 10280 29092 55030 59006 60011;
0201834980999992010042112004-17733-039250FM-12+000399999V0201801N001010450019N0020001N1+02581+02331101671ADDAA124005191AY121061AY211061GF105991031051008001041001KA1240N+02281MA1999999101621MD1999999-0061MW1031REMSYN088AAXX  21124 83498 21595 51802 10258 20233 30162 40167 70321 83540 333 20228 59006 60054;
0137834980999992010042118004-17733-039250FM-12+000399999V0200901N001512200019N0020001N1+02871+02311101331ADDGF102991021011008001001001MA1999999101281MD1999999-0121REMSYN070AAXX  21184 83498 32595 20903 10287 20231 30128 40133 82100 333 59012;
0168834980999992010042200004-17733-039250FM-12+000399999V0209999C000012200019N0020001N1+02461+02321101601ADDGF102991021011008001001001KA1240M+02921MA1999999101551MD1999999-0061REMSYN088AAXX  22004 83498 32595 20000 10246 20232 30155 40160 82100 333 10292 29087 55079 59006;
0156834980999992010042212004-17733-039250FM-12+000399999V0209999C000010450019N0020001N1+02651+02411101701ADDGF106991031041008001031001KA1240N+02231MA1999999101651MD1999999+0031REMSYN076AAXX  22124 83498 32595 60000 10265 20241 30165 40170 83430 333 20223 58003;
0137834980999992010042218004-17733-039250FM-12+000399999V0200501N001512200019N0020001N1+02961+02261101291ADDGF102991021011008001001001MA1999999101241MD1999999-0041REMSYN070AAXX  22184 83498 32595 20503 10296 20226 30124 40129 82100 333 59004;
0178834980999992010042300004-17733-039250FM-12+000399999V0209999C000012200019N0020001N1+02451+02301101581ADDGA1001+999999999GF100991001001999999001001KA1240M+03031MA1999999101531MD1999999-0021REMSYN082AAXX  23004 83498 32995 00000 10245 20230 30153 40158 333 10303 29084 55093 59002;
0156834980999992010042312004-17733-039250FM-12+000399999V0203601N001510075019N0020001N1+02741+02501101671ADDGF106991051021008001041001KA1240N+02201MA1999999101621MD1999999-0031REMSYN076AAXX  23124 83498 32595 63603 10274 20250 30162 40167 85240 333 20220 59003;
0137834980999992010042318004-17733-039250FM-12+000399999V0200501N002112200019N0020001N1+03081+02401101311ADDGF102991021011008001001001MA1999999101261MD1999999+0021REMSYN070AAXX  23184 83498 32595 20504 10308 20240 30126 40131 82100 333 58002;
0178834980999992010042400004-17733-039250FM-12+000399999V0209999C000012200019N0020001N1+02481+02301101561ADDGA1001+999999999GF100991001001999999001001KA1240M+03071MA1999999101511MD1999999-0021REMSYN082AAXX  24004 83498 32995 00000 10248 20230 30151 40156 333 10307 29084 55099 59002;
0156834980999992010042412004-17733-039250FM-12+000399999V0203201N001512200019N0020001N1+02791+02421101801ADDGF104991041021008001001001KA1240N+02321MA1999999101751MD1999999+0131REMSYN076AAXX  24124 83498 32595 43203 10279 20242 30175 40180 84200 333 20232 58013;
0137834980999992010042418004-17733-039250FM-12+000399999V0200901N002612200019N0020001N1+02991+02371101491ADDGF102991011011008001001011MA1999999101441MD1999999+0181REMSYN070AAXX  24184 83498 32595 20905 10299 20237 30144 40149 81101 333 58018;
0168834980999992010042500004-17733-039250FM-12+000399999V0200901N001012200019N0020001N1+02611+02391101731ADDGF101991011011008001001001KA1240M+03061MA1999999101681MD1999999+0171REMSYN088AAXX  25004 83498 32595 10902 10261 20239 30168 40173 81100 333 10306 29082 55101 58017;
0220834980999992010042512004-17733-039250FM-12+000399999V0200901N001510450019N0020001N1+02871+02521101881ADDAA124000091AY121061AY211061GF107991041051008001011001KA1240N+02421MA1999999101831MD1999999+0081MW1031REMSYN088AAXX  25124 83498 21595 70903 10287 20252 30183 40188 70321 84510 333 20242 58008 69924;EQDQ01  00002PRCP24
0182834980999992010042518004-17733-039250FM-12+000399999V0200801N001010450019N0020001N1+02591+02351101591ADDAA106007191AY161061AY261061GF107991041051008001011001MA1999999101541MD1999999+0101MW1611REMSYN082AAXX  25184 83498 21595 70802 10259 20235 30154 40159 76166 84510 333 58010 60071;
0168834980999992010042600004-17733-039250FM-12+000399999V0200901N000512200019N0020001N1+02581+02421101691ADDGF102991021011008001001001KA1240M+02991MA1999999101641MD1999999-0041REMSYN088AAXX  26004 83498 32595 20901 10258 20242 30164 40169 82100 333 10299 29088 55084 59004;
0201834980999992010042612004-17733-039250FM-12+000399999V0202301N000510450019N0020001N1+02501+02431101751ADDAA124007191AY161061AY221061GF108991041061008001021999KA1240N+02251MA1999999101701MD1999999-0131MW1211REMSYN088AAXX  26124 83498 21595 82301 10250 20243 30170 40175 72162 8462/ 333 20225 59013 60074;
0182834980999992010042618004-17733-039250FM-12+000399999V0200901N001510075019N0020001N1+02941+02381101471ADDAA106004191AY161061AY261061GF105991051021008001001001MA1999999101421MD1999999-0121MW1211REMSYN082AAXX  26184 83498 21595 50903 10294 20238 30142 40147 72166 85200 333 59012 60041;
0178834980999992010042700004-17733-039250FM-12+000399999V0209999C000012200019N0020001N1+02481+02301101691ADDGA1001+999999999GF100991001001999999001001KA1240M+03001MA1999999101641MD1999999+0001REMSYN082AAXX  27004 83498 32995 00000 10248 20230 30164 40169 333 10300 29087 55047 58000;
0173834980999992010042712004-17733-039250FM-12+000399999V0209999C000010450019N0020001N1+02591+02461101821ADDAA124004191GF107991041051008001011001KA1240N+02341MA1999999101771MD1999999+0071REMSYN082AAXX  27124 83498 22595 70000 10259 20246 30177 40182 84510 333 20234 58007 60044;
0137834980999992010042718004-17733-039250FM-12+000399999V0203601N001512200019N0020001N1+02971+02351101381ADDGF102991011011008001031001MA1999999101331MD1999999-0091REMSYN070AAXX  27184 83498 32595 23603 10297 20235 30133 40138 81130 333 59009;
0178834980999992010042800004-17733-039250FM-12+000399999V0203601N001012200019N0020001N1+02501+02311101601ADDGA1001+999999999GF100991001001999999001001KA1240M+03031MA1999999101551MD1999999-0091REMSYN082AAXX  28004 83498 32995 03602 10250 20231 30155 40160 333 10303 29085 55055 59009;
0156834980999992010042812004-17733-039250FM-12+000399999V0202701N000512200019N0020001N1+02691+02451101701ADDGF102991021011008001001001KA1240N+02231MA1999999101651MD1999999-0121REMSYN076AAXX  28124 83498 32595 22701 10269 20245 30165 40170 82100 333 20223 59012;
0137834980999992010042818004-17733-039250FM-12+000399999V0200501N001512200019N0020001N1+02911+02431101461ADDGF102991021021008001051001MA1999999101411MD1999999+0081REMSYN070AAXX  28184 83498 32595 20503 10291 20243 30141 40146 82250 333 58008;
0168834980999992010042900004-17733-039250FM-12+000399999V0209999C000012200019N0020001N1+02421+02321101671ADDGF101991011011008001001001KA1240M+03031MA1999999101621MD1999999+0061REMSYN088AAXX  29004 83498 32595 10000 10242 20232 30162 40167 81100 333 10303 29088 55090 58006;
0201834980999992010042912004-17733-039250FM-12+000399999V0202301N001512200019N0020001N1+02641+02441101811ADDAA124002091AY161061AY211061GF104991021011008001031001KA1240N+02301MA1999999101761MD1999999+0111MW1211REMSYN088AAXX  29124 83498 21595 42303 10264 20244 30176 40181 72161 82130 333 20230 58011 60024;
0182834980999992010042918004-17733-039250FM-12+000399999V0201401N001510450019N0020001N1+02801+02401101451ADDAA106000891AY161061AY261061GF106991031011008001051001MA1999999101401MD1999999-0011MW1211REMSYN082AAXX  29184 83498 21595 61403 10280 20240 30140 40145 72166 83150 333 59001 69981;
0168834980999992010043000004-17733-039250FM-12+000399999V0201401N001012200019N0020001N1+02581+02351101661ADDGF104991041021008001001001KA1240M+02931MA1999999101611MD1999999-0011REMSYN088AAXX  30004 83498 32595 41402 10258 20235 30161 40166 84200 333 10293 29085 55066 59001;
0201834980999992010043012004-17733-039250FM-12+000399999V0200901N002610075019N0020001N1+02591+02331101711ADDAA124001091AY161061AY261061GF108991051051008001021999KA1240N+02531MA1999999101661MD1999999-0101MW1601REMSYN088AAXX  30124 83498 21595 80905 10259 20233 30166 40171 76066 8552/ 333 20253 59010 60014;
0182834980999992010043018004-17733-039250FM-12+000399999V0203201N001510075019N0020001N1+02531+02381101481ADDAA106003091AY161061AY261061GF108991051051008001021999MA1999999101431MD1999999+0031MW1211REMSYN082AAXX  30184 83498 21595 83203 10253 20238 30143 40148 72166 8552/ 333 58003 60031;
0213834980999992010050100004-17733-039250FM-12+000399999V0203201N001010075019N0020001N1+02461+02361101721ADDAA106001091AY161061AY261061GF108991051051008001021999KA1240M+02731MA1999999101671MD1999999+0061MW1211REMSYN100AAXX  01004 83498 21595 83202 10246 20236 30167 40172 72166 8552/ 333 10273 29092 55006 58006 60011;
0201834980999992010050112004-17733-039250FM-12+000399999V0200501N001010450019N0020001N1+02321+02241101781ADDAA124007191AY161061AY261061GF108991031071008001021999KA1240N+02241MA1999999101731MD1999999+0071MW1211REMSYN088AAXX  01124 83498 21595 80502 10232 20224 30173 40178 72166 8372/ 333 20224 58007 60074;
0182834980999992010050118004-17733-039250FM-12+000399999V0200501N001510450019N0020001N1+02521+02251101521ADDAA106002091AY121061AY211061GF107991031051008001011001MA1999999101471MD1999999+0041MW1031REMSYN082AAXX  01184 83498 21595 70503 10252 20225 30147 40152 70321 83510 333 58004 60021;
0168834980999992010050200004-17733-039250FM-12+000399999V0209999C000012200019N0020001N1+02191+02111101741ADDGF102991021011008001001001KA1240M+02561MA1999999101691MD1999999+0021REMSYN088AAXX  02004 83498 32595 20000 10219 20211 30169 40174 82100 333 10256 29093 55011 58002;
0201834980999992010050212004-17733-039250FM-12+000399999V0202501N000512200019N0020001N1+02501+02291101921ADDAA124004191AY161061AY211061GF102991021011008001001001KA1240N+02171MA1999999101871MD1999999+0141MW1211REMSYN088AAXX  02124 83498 21595 22501 10250 20229 30187 40192 72161 82100 333 20217 58014 60044;
0137834980999992010050218004-17733-039250FM-12+000399999V0201401N002112200019N0020001N1+02841+02191101731ADDGF103991031011008001001001MA1999999101681MD1999999+0211REMSYN070AAXX  02184 83498 32595 31404 10284 20219 30168 40173 83100 333 58021;
0168834980999992010050300004-17733-039250FM-12+000399999V0200901N001512200019N0020001N1+02481+02151101991ADDGF104991031011008001031001KA1240M+02861MA1999999101941MD1999999+0251REMSYN088AAXX  03004 83498 32595 40903 10248 20215 30194 40199 83130 333 10286 29080 55095 58025;
0156834980999992010050312004-17733-039250FM-12+000399999V0200901N002612200019N0020001N1+02771+01911102131ADDGF101991011011008001001001KA1240N+02431MA1999999102081MD1999999+0211REMSYN076AAXX  03124 83498 32595 10905 10277 20191 30208 40213 81100 333 20243 58021;
0137834980999992010050318004-17733-039250FM-12+000399999V0200901N002612200019N0020001N1+02781+02301101801ADDGF101991011011008001001001MA1999999101751MD1999999+0071REMSYN070AAXX  03184 83498 32595 10905 10278 20230 30175 40180 81100 333 58007;
0178834980999992010050400004-17733-039250FM-12+000399999V0200901N001012200019N0020001N1+02201+02031101851ADDGA1001+999999999GF100991001001999999001001KA1240M+02851MA1999999101801MD1999999-0091REMSYN082AAXX  04004 83498 32995 00902 10220 20203 30180 40185 333 10285 29079 55101 59009;
0201834980999992010050412004-17733-039250FM-12+000399999V0201801N002112200019N0020001N1+02501+02251101921ADDAA124001091AY121061AY211061GF102991021011008001001001KA1240N+02071MA1999999101871MD1999999-0211MW1031REMSYN088AAXX  04124 83498 21595 21804 10250 20225 30187 40192 70321 82100 333 20207 59021 60014;
0137834980999992010050418004-17733-039250FM-12+000399999V0201401N001512200019N0020001N1+02751+02141101591ADDGF101991011011008001001001MA1999999101541MD1999999-0211REMSYN070AAXX  04184 83498 32595 11403 10275 20214 30154 40159 81100 333 59021;
0178834980999992010050500004-17733-039250FM-12+000399999V0209999C000012200019N0020001N1+02321+02131101691ADDGA1001+999999999GF100991001001999999001001KA1240M+02831MA1999999101641MD1999999-0211REMSYN082AAXX  05004 83498 32995 00000 10232 20213 30164 40169 333 10283 29084 55096 59021;
0156834980999992010050512004-17733-039250FM-12+000399999V0201801N001510450019N0020001N1+02441+02191101661ADDGF106991021011008001051011KA1240N+02041MA1999999101611MD1999999-0261REMSYN076AAXX  05124 83498 32595 61803 10244 20219 30161 40166 82151 333 20204 59026;
0137834980999992010050518004-17733-039250FM-12+000399999V0200901N002610450019N0020001N1+02821+02331101421ADDGF107991021011008001031021MA1999999101371MD1999999-0171REMSYN070AAXX  05184 83498 32595 70905 10282 20233 30137 40142 82132 333 59017;
0156834980999992010050612004-17733-039250FM-12+000399999V0201801N000512200019N0020001N1+02671+02431101721ADDGF104991011011008001001021KA1240N+02201MA1999999101671MD1999999+0061REMSYN076AAXX  06124 83498 32595 41801 10267 20243 30167 40172 81102 333 20220 58006;
0137834980999992010050618004-17733-039250FM-12+000399999V0200901N001512200019N0020001N1+02911+02321101491ADDGF104991011011008001001021MA1999999101441MD1999999+0071REMSYN070AAXX  06184 83498 32595 40903 10291 20232 30144 40149 81102 333 58007;
0178834980999992010050700004-17733-039250FM-12+000399999V0209999C000012200019N0020001N1+02531+02361101741ADDGA1001+999999999GF100991001001999999001001KA1240M+03031MA1999999101691MD1999999+0141REMSYN082AAXX  07004 83498 32995 00000 10253 20236 30169 40174 333 10303 29085 55071 58014;
0156834980999992010050712004-17733-039250FM-12+000399999V0209999C000012200019N0020001N1+02651+02411101851ADDGF103991031021008001001001KA1240N+02311MA1999999101801MD1999999+0131REMSYN076AAXX  07124 83498 32595 30000 10265 20241 30180 40185 83200 333 20231 58013;
0182834980999992010050718004-17733-039250FM-12+000399999V0200901N001010450019N0020001N1+02761+02601101541ADDAA106000591AY121061AY211061GF107991031051008001011001MA1999999101491MD1999999+0051MW1031REMSYN082AAXX  07184 83498 21595 70902 10276 20260 30149 40154 70321 83510 333 58005 69961;
0178834980999992010050800004-17733-039250FM-12+000399999V0209999C000012200019N0020001N1+02421+02321101671ADDGA1001+999999999GF100991001001999999001001KA1240M+02961MA1999999101621MD1999999-0071REMSYN082AAXX  08004 83498 32995 00000 10242 20232 30162 40167 333 10296 29091 55052 59007;
0173834980999992010050812004-17733-039250FM-12+000399999V0202301N001012200019N0020001N1+02661+02441101721ADDAA124000591GF104991041021008001001001KA1240N+02281MA1999999101671MD1999999-0131REMSYN082AAXX  08124 83498 22595 42302 10266 20244 30167 40172 84200 333 20228 59013 69964;
0182834980999992010050818004-17733-039250FM-12+000399999V0200901N002112200019N0020001N1+02901+02411101411ADDAA106011991AY161061AY211061GF104991041021008001001001MA1999999101361MD1999999-0131MW1211REMSYN082AAXX  08184 83498 21595 40904 10290 20241 30136 40141 72161 84200 333 59013 60121;
0168834980999992010050900004-17733-039250FM-12+000399999V0200901N000512200019N0020001N1+02441+02301101561ADDGF102991021011008001001001KA1240M+02961MA1999999101511MD1999999-0111REMSYN088AAXX  09004 83498 32595 20901 10244 20230 30151 40156 82100 333 10296 29087 55066 59011;
0173834980999992010050912004-17733-039250FM-12+000399999V0203601N001512200019N0020001N1+02781+02401101541ADDAA124011991GF102991021011008001001001KA1240N+02181MA1999999101491MD1999999-0181REMSYN082AAXX  09124 83498 22595 23603 10278 20240 30149 40154 82100 333 20218 59018 60124;
0137834980999992010050918004-17733-039250FM-12+000399999V0200501N003112200019N0020001N1+02971+02401101181ADDGF102991011011008001001011MA1999999101131MD1999999-0231REMSYN070AAXX  09184 83498 32595 20506 10297 20240 30113 40118 81101 333 59023;
0178834980999992010051000004-17733-039250FM-12+000399999V0200501N001012200019N0020001N1+02501+02381101371ADDGA1001+999999999GF100991001001999999001001KA1240M+03091MA1999999101321MD1999999-0191REMSYN082AAXX  10004 83498 32995 00502 10250 20238 30132 40137 333 10309 29085 55087 59019;
0156834980999992010051012004-17733-039250FM-12+000399999V0201801N004110450019N0020001N1+02441+02301101541ADDGF108991041061008001061999KA1240N+02281MA1999999101491MD1999999+0001REMSYN076AAXX  10124 83498 32595 81808 10244 20230 30149 40154 8466/ 333 20228 58000;
0182834980999992010051018004-17733-039250FM-12+000399999V0201801N003110450019N0020001N1+02401+02311101261ADDAA106017091AY161061AY261061GF108991041071008001021999MA1999999101211MD1999999+0081MW1611REMSYN082AAXX  10184 83498 21595 81806 10240 20231 30121 40126 76166 8472/ 333 58008 60171;
0213834980999992010051100004-17733-039250FM-12+000399999V0201001N002610450019N0020001N1+02331+02271101591ADDAA106011991AY161061AY261061GF108991041071008001021999KA1240M+02501MA1999999101541MD1999999+0221MW1611REMSYN100AAXX  11004 83498 21595 81005 10233 20227 30154 40159 76166 8472/ 333 10250 29096 55000 58022 60121;
0201834980999992010051112004-17733-039250FM-12+000399999V0202301N001010450019N0020001N1+02281+02211101671ADDAA124058991AY161061AY261061GF108991041061008001021999KA1240N+02181MA1999999101621MD1999999+0131MW1621REMSYN088AAXX  11124 83498 21595 82302 10228 20221 30162 40167 76266 8462/ 333 20218 58013 60594;
0213834980999992010051200004-17733-039250FM-12+000399999V0201801N002610450019N0020001N1+02321+02231101691ADDAA106000591AY161061AY261061GF108991041071008001021999KA1240M+02561MA1999999101641MD1999999+0101MW1611REMSYN100AAXX  12004 83498 21595 81805 10232 20223 30164 40169 76166 8472/ 333 10256 29096 55000 58010 69941;
0201834980999992010051212004-17733-039250FM-12+000399999V0200901N002610450019N0020001N1+02501+02251101511ADDAA124017091AY121061AY211061GF108991041051008001021999KA1240N+02161MA1999999101461MD1999999-0161MW1031REMSYN088AAXX  12124 83498 21595 80905 10250 20225 30146 40151 70321 8452/ 333 20216 59016 60174;
0182834980999992010051218004-17733-039250FM-12+000399999V0201801N001010450019N0020001N1+02491+02391101231ADDAA106003091AY161061AY261061GF108991031071008001021999MA1999999101181MD1999999-0151MW1601REMSYN082AAXX  12184 83498 21595 81802 10249 20239 30118 40123 76066 8372/ 333 59015 60031;
0213834980999992010051300004-17733-039250FM-12+000399999V0209999C000010075019N0020001N1+02401+02351101501ADDAA106000021AY121061AY211061GF108991051051008001021999KA1240M+02751MA1999999101451MD1999999-0191MW1031REMSYN100AAXX  13004 83498 21595 80000 10240 20235 30145 40150 70321 8552/ 333 10275 29094 55004 59019 69921;
0173834980999992010051312004-17733-039250FM-12+000399999V0203601N002610450019N0020001N1+02531+02431101511ADDAA124003091GF107991031051008001011001KA1240N+02391MA1999999101461MD1999999+0001REMSYN082AAXX  13124 83498 22595 73605 10253 20243 30146 40151 83510 333 20239 58000 60034;
0137834980999992010051318004-17733-039250FM-12+000399999V0203601N001010450019N0020001N1+02951+02491101311ADDGF106991031051008001021011MA1999999101261MD1999999+0081REMSYN070AAXX  13184 83498 32595 63602 10295 20249 30126 40131 83521 333 58008;
0213834980999992010051400004-17733-039250FM-12+000399999V0209999C000012200019N0020001N1+02531+02471101511ADDAA106003091AY121061AY211061GF102991021061008001001001KA1240M+03051MA1999999101461MD1999999+0011MW1031REMSYN100AAXX  14004 83498 21595 20000 10253 20247 30146 40151 70321 82600 333 10305 29092 55027 58001 60031;
0201834980999992010051412004-17733-039250FM-12+000399999V0201801N004610450019N0020001N1+02541+02251101861ADDAA124016091AY161061AY261061GF108991041061008001011999KA1240N+02351MA1999999101811MD1999999+0351MW1211REMSYN088AAXX  14124 83498 21595 81809 10254 20225 30181 40186 72166 8461/ 333 20235 58035 60164;
0137834980999992010051418004-17733-039250FM-12+000399999V0201801N005110450019N0020001N1+02621+02291101681ADDGF108991031061008001021999MA1999999101631MD1999999+0371REMSYN070AAXX  14184 83498 32595 81810 10262 20229 30163 40168 8362/ 333 58037;
0168834980999992010051500004-17733-039250FM-12+000399999V0200901N001010450019N0020001N1+02541+02211101901ADDGF108991041061008001011999KA1240M+02731MA1999999101851MD1999999+0391REMSYN088AAXX  15004 83498 32595 80902 10254 20221 30185 40190 8461/ 333 10273 29082 55006 58039;
0156834980999992010051512004-17733-039250FM-12+000399999V0201401N001510075019N0020001N1+02651+02271101961ADDGF107991051051008001011001KA1240N+02481MA1999999101911MD1999999+0101REMSYN076AAXX  15124 83498 32595 71403 10265 20227 30191 40196 85510 333 20248 58010;
0137834980999992010051518004-17733-039250FM-12+000399999V0201401N001510450019N0020001N1+02591+02291101681ADDGF107991041051008001011001MA1999999101631MD1999999+0001REMSYN070AAXX  15184 83498 32595 71403 10259 20229 30163 40168 84510 333 58000;
0168834980999992010051600004-17733-039250FM-12+000399999V0201401N001010075019N0020001N1+02401+02211101821ADDGF108991051051008001021999KA1240M+02711MA1999999101771MD1999999-0081REMSYN088AAXX  16004 83498 32595 81402 10240 20221 30177 40182 8552/ 333 10271 29086 55013 59008;
0156834980999992010051612004-17733-039250FM-12+000399999V0202701N001012200019N0020001N1+02491+02251101811ADDGF103991031011008001001001KA1240N+02111MA1999999101761MD1999999-0151REMSYN076AAXX  16124 83498 32595 32702 10249 20225 30176 40181 83100 333 20211 59015;
0137834980999992010051618004-17733-039250FM-12+000399999V0200901N001512200019N0020001N1+02781+02481101481ADDGF102991021011008001001001MA1999999101431MD1999999-0201REMSYN070AAXX  16184 83498 32595 20903 10278 20248 30143 40148 82100 333 59020;
0178834980999992010051700004-17733-039250FM-12+000399999V0209999C000012200019N0020001N1+02181+02111101651ADDGA1001+999999999GF100991001001999999001001KA1240M+02851MA1999999101601MD1999999-0171REMSYN082AAXX  17004 83498 32995 00000 10218 20211 30160 40165 333 10285 29091 55086 59017;
0156834980999992010051712004-17733-039250FM-12+000399999V0202701N001012200019N0020001N1+02561+02271101801ADDGF102991021011008001001001KA1240N+01971MA1999999101751MD1999999-0011REMSYN076AAXX  17124 83498 32595 22702 10256 20227 30175 40180 82100 333 20197 59001;
0137834980999992010051718004-17733-039250FM-12+000399999V0200501N002112200019N0020001N1+02781+02251101561ADDGF104991041011008001001001MA1999999101511MD1999999+0081REMSYN070AAXX  17184 83498 32595 40504 10278 20225 30151 40156 84100 333 58008;
0178834980999992010051800004-17733-039250FM-12+000399999V0209999C000012200019N0020001N1+02141+02071101871ADDGA1001+999999999GF100991001001999999001001KA1240M+02931MA1999999101821MD1999999+0221REMSYN082AAXX  18004 83498 32995 00000 10214 20207 30182 40187 333 10293 29087 55075 58022;
0156834980999992010051812004-17733-039250FM-12+000399999V0202301N001512200019N0020001N1+02501+02341101901ADDGF103991011011008001041001KA1240N+02021MA1999999101851MD1999999+0101REMSYN076AAXX  18124 83498 32595 32303 10250 20234 30185 40190 81140 333 20202 58010;
0137834980999992010051818004-17733-039250FM-12+000399999V0201401N001512200019N0020001N1+02711+02241101501ADDGF103991011011008001041001MA1999999101451MD1999999-0061REMSYN070AAXX  18184 83498 32595 31403 10271 20224 30145 40150 81140 333 59006;
0168834980999992010051900004-17733-039250FM-12+000399999V0209999C000012200019N0020001N1+02251+01801101731ADDGF104991011011008001041001KA1240M+02791MA1999999101681MD1999999-0141REMSYN088AAXX  19004 83498 32595 40000 10225 20180 30168 40173 81140 333 10279 29092 55079 59014;
0156834980999992010051912004-17733-039250FM-12+000399999V0202701N000512200019N0020001N1+02331+02131101741ADDGF101991011011008001041001KA1240N+02021MA1999999101691MD1999999-0161REMSYN076AAXX  19124 83498 32595 12701 10233 20213 30169 40174 81140 333 20202 59016;
0137834980999992010051918004-17733-039250FM-12+000399999V0200901N001512200019N0020001N1+02771+02341101451ADDGF102991021011008001001001MA1999999101401MD1999999-0051REMSYN070AAXX  19184 83498 32595 20903 10277 20234 30140 40145 82100 333 59005;
0178834980999992010052000004-17733-039250FM-12+000399999V0209999C000012200019N0020001N1+02201+02061101571ADDGA1001+999999999GF100991001001999999001001KA1240M+02871MA1999999101521MD1999999-0161REMSYN082AAXX  20004 83498 32995 00000 10220 20206 30152 40157 333 10287 29088 55086 59016;
0201834980999992010052012004-17733-039250FM-12+000399999V0202301N001510450019N0020001N1+02381+02311101561ADDAA124001091AY161061AY221061GF106991031011008001051001KA1240N+02161MA1999999101511MD1999999-0181MW1211REMSYN088AAXX  20124 83498 21595 62303 10238 20231 30151 40156 72162 83150 333 20216 59018 60014;
0137834980999992010052018004-17733-039250FM-12+000399999V0200901N002110450019N0020001N1+02701+02331101251ADDGF106991021011008001051011MA1999999101201MD1999999-0201REMSYN070AAXX  20184 83498 32595 60904 10270 20233 30120 40125 82151 333 59020;
0178834980999992010052100004-17733-039250FM-12+000399999V0209999C000012200019N0020001N1+02321+02241101461ADDGA1001+999999999GF100991001001999999001001KA1240M+02891MA1999999101411MD1999999-0111REMSYN082AAXX  21004 83498 32995 00000 10232 20224 30141 40146 333 10289 29092 55031 59011;
0156834980999992010052112004-17733-039250FM-12+000399999V0203601N002612200019N0020001N1+02671+02351101571ADDGF102991021011008001001001KA1240N+02041MA1999999101521MD1999999+0011REMSYN076AAXX  21124 83498 32595 23605 10267 20235 30152 40157 82100 333 20204 58001;
0137834980999992010052118004-17733-039250FM-12+000399999V0200901N001512200019N0020001N1+02881+01941101141ADDGF101991011011008001001001MA1999999101091MD1999999-0111REMSYN070AAXX  21184 83498 32595 10903 10288 20194 30109 40114 81100 333 59011;
0178834980999992010052200004-17733-039250FM-12+000399999V0209999C000012200019N0020001N1+02261+02211101411ADDGA1001+999999999GF100991001001999999001001KA1240M+02971MA1999999101361MD1999999-0051REMSYN082AAXX  22004 83498 32995 00000 10226 20221 30136 40141 333 10297 29084 55089 59005;
0156834980999992010052212004-17733-039250FM-12+000399999V0202701N000512200019N0020001N1+02531+02341101501ADDGF101991011011008001001001KA1240N+02161MA1999999101451MD1999999-0071REMSYN076AAXX  22124 83498 32595 12701 10253 20234 30145 40150 81100 333 20216 59007;
0137834980999992010052218004-17733-039250FM-12+000399999V0200901N001510450019N0020001N1+02811+02401101201ADDGF105991021011008001051001MA1999999101151MD1999999+0061REMSYN070AAXX  22184 83498 32595 50903 10281 20240 30115 40120 82150 333 58006;
0168834980999992010052300004-17733-039250FM-12+000399999V0209999C000012200019N0020001N1+02481+02341101401ADDGF102991021011008001001001KA1240M+02931MA1999999101351MD1999999-0011REMSYN088AAXX  23004 83498 32595 20000 10248 20234 30135 40140 82100 333 10293 29089 55060 59001;
0156834980999992010052312004-17733-039250FM-12+000399999V0202301N000510450019N0020001N1+02581+02401101561ADDGF107991021011008001051001KA1240N+02271MA1999999101511MD1999999+0061REMSYN076AAXX  23124 83498 32595 72301 10258 20240 30151 40156 82150 333 20227 58006;
0137834980999992010052318004-17733-039250FM-12+000399999V0200501N001512200019N0020001N1+02781+02461101321ADDGF105991031011008001001011MA1999999101271MD1999999+0121REMSYN070AAXX  23184 83498 32595 50503 10278 20246 30127 40132 83101 333 58012;
0168834980999992010052400004-17733-039250FM-12+000399999V0200901N000510450019N0020001N1+02481+02321101491ADDGF105991021011008001051001KA1240M+02871MA1999999101441MD1999999+0091REMSYN088AAXX  24004 83498 32595 50901 10248 20232 30144 40149 82150 333 10287 29089 55050 58009;
0220834980999992010052412004-17733-039250FM-12+000399999V0201401N000510075019N0020001N1+02511+02431101651ADDAA124000091AY121061AY211061GF107991051051008001011001KA1240N+02331MA1999999101601MD1999999+0091MW1031REMSYN088AAXX  24124 83498 21595 71401 10251 20243 30160 40165 70321 85510 333 20233 58009 69924;EQDQ01  00002PRCP24
0137834980999992010052418004-17733-039250FM-12+000399999V0201401N001510450019N0020001N1+02751+02481101371ADDGF105991031021008001041001MA1999999101321MD1999999+0051REMSYN070AAXX  24184 83498 32595 51403 10275 20248 30132 40137 83240 333 58005;
0187834980999992010052500004-17733-039250FM-12+000399999V0201401N000512200019N0020001N1+02441+02301101671ADDGF104991999021008001001001KA1240M+02811MA1999999101621MD1999999+0181REMSYN088AAXX  25004 83498 32595 41401 10244 20230 30162 40167 83200 333 10281 29092 55019 58018;EQDQ01+000032SCOTLC
0156834980999992010052512004-17733-039250FM-12+000399999V0202701N001012200019N0020001N1+02401+02281101791ADDGF102991021011008001001001KA1240N+02201MA1999999101741MD1999999+0141REMSYN076AAXX  25124 83498 32595 22702 10240 20228 30174 40179 82100 333 20220 58014;
0137834980999992010052518004-17733-039250FM-12+000399999V0201301N001510450019N0020001N1+02751+02401101381ADDGF105991021021008001041001MA1999999101331MD1999999-0011REMSYN070AAXX  25184 83498 32595 51303 10275 20240 30133 40138 82240 333 59001;
0178834980999992010052600004-17733-039250FM-12+000399999V0209999C000012200019N0020001N1+02341+02241101591ADDGA1001+999999999GF100991001001999999001001KA1240M+02891MA1999999101541MD1999999-0081REMSYN082AAXX  26004 83498 32995 00000 10234 20224 30154 40159 333 10289 29090 55064 59008;
0156834980999992010052612004-17733-039250FM-12+000399999V0202301N002110450019N0020001N1+02461+02321101761ADDGF107991031051008001051001KA1240N+02101MA1999999101711MD1999999-0031REMSYN076AAXX  26124 83498 32595 72304 10246 20232 30171 40176 83550 333 20210 59003;
0137834980999992010052618004-17733-039250FM-12+000399999V0201401N002610450019N0020001N1+02761+02381101421ADDGF106991021011008001051001MA1999999101371MD1999999+0041REMSYN070AAXX  26184 83498 32595 61405 10276 20238 30137 40142 82150 333 58004;
0168834980999992010052700004-17733-039250FM-12+000399999V0201801N001512200019N0020001N1+02441+02301101651ADDGF103991031021008001001001KA1240M+02891MA1999999101601MD1999999+0061REMSYN088AAXX  27004 83498 32595 31803 10244 20230 30160 40165 83200 333 10289 29089 55069 58006;
0201834980999992010052712004-17733-039250FM-12+000399999V0201801N003110450019N0020001N1+02331+02201101701ADDAA124001091AY161061AY261061GF108991031071008001021999KA1240N+02201MA1999999101651MD1999999-0061MW1611REMSYN088AAXX  27124 83498 21595 81806 10233 20220 30165 40170 76166 8372/ 333 20220 59006 60014;
0182834980999992010052718004-17733-039250FM-12+000399999V0201801N003110450019N0020001N1+02611+02421101411ADDAA106004191AY161061AY261061GF105991031051008001041001MA1999999101381MD1999999+0011MW1611REMSYN082AAXX  27184 83498 21595 51806 10261 20242 30138 40141 76166 83540 333 58001 60041;
0213834980999992010052800004-17733-039250FM-12+000399999V0201801N001510450019N0020001N1+02361+02281101601ADDAA106001091AY161061AY261061GF108991031071008001021999KA1240M+02651MA1999999101551MD1999999-0051MW1211REMSYN100AAXX  28004 83498 21595 81803 10236 20228 30155 40160 72166 8372/ 333 10265 29093 55032 59005 60011;
0207834980999992010052812004-17733-039250FM-12+000399999V0201801N002610450019N0020001N1+02191+02131101771ADDAA124027091AY161061AY261061GF107991031071008001011001KA1240N+02141MA1999999101721MD1999999+0011MW1611REMSYN094AAXX  28124 83498 21595 71805 10219 20213 30172 40177 76166 83710 333 20214 58001 60274 10269;
0182834980999992010052818004-17733-039250FM-12+000399999V0201801N005110075019N0020001N1+02401+02311101571ADDAA106013091AY161061AY261061GF108991051071008001021999MA1999999101521MD1999999+0141MW1631REMSYN082AAXX  28184 83498 21595 81810 10240 20231 30152 40157 76366 8572/ 333 58014 60131;
0213834980999992010052900004-17733-039250FM-12+000399999V0201801N001510075019N0020001N1+02311+02131101791ADDAA106017091AY121061AY211061GF108991061061008001021999KA1240M+02521MA1999999101741MD1999999+0191MW1031REMSYN100AAXX  29004 83498 21595 81803 10231 20213 30174 40179 70321 8662/ 333 10252 29093 55003 58019 60171;
0201834980999992010052912004-17733-039250FM-12+000399999V0202301N001510075019N0020001N1+02241+02211101931ADDAA124034091AY161061AY261061GF108991051071008001021999KA1240N+02141MA1999999101881MD1999999+0161MW1621REMSYN088AAXX  29124 83498 21595 82303 10224 20221 30188 40193 76266 8572/ 333 20214 58016 60344;
0182834980999992010052918004-17733-039250FM-12+000399999V0201801N002110450019N0020001N1+02441+02351101661ADDAA106005191AY161061AY261061GF108991031071008001021999MA1999999101611MD1999999+0091MW1211REMSYN082AAXX  29184 83498 21595 81804 10244 20235 30161 40166 72166 8372/ 333 58009 60051;
0168834980999992010053000004-17733-039250FM-12+000399999V0201401N002110450019N0020001N1+02481+02191101861ADDGF108991031051008001051999KA1240M+02621MA1999999101811MD1999999+0071REMSYN088AAXX  30004 83498 32595 81404 10248 20219 30181 40186 8355/ 333 10262 29090 55001 58007;
0173834980999992010053012004-17733-039250FM-12+000399999V0201401N001510450019N0020001N1+02331+01911102011ADDAA124005191GF106991031051008001051001KA1240N+02091MA1999999101961MD1999999+0081REMSYN082AAXX  30124 83498 22595 61403 10233 20191 30196 40201 83550 333 20209 58008 60054;
0137834980999992010053018004-17733-039250FM-12+000399999V0201401N001510450019N0020001N1+02711+02131101741ADDGF105991021021008001041001MA1999999101691MD1999999+0081REMSYN070AAXX  30184 83498 32595 51403 10271 20213 30169 40174 82240 333 58008;
0168834980999992010053100004-17733-039250FM-12+000399999V0209999C000019999999N0020001N1+02281+02131101841ADDGF105991051001008001011001KA1240M+02831MA1999999101791MD1999999-0021REMSYN088AAXX  31004 83498 32595 50000 10228 20213 30179 40184 85010 333 10283 29083 55028 59002;
0156834980999992010053112004-17733-039250FM-12+000399999V0209999C000012200019N0020001N1+02421+02231101751ADDGF104991041011008001001001KA1240N+02281MA1999999101701MD1999999-0261REMSYN076AAXX  31124 83498 32595 40000 10242 20223 30170 40175 84100 333 20228 59026;
0137834980999992010053118004-17733-039250FM-12+000399999V0203601N001512200019N0020001N1+02851+02311101341ADDGF102991021011008001041001MA1999999101291MD1999999-0401REMSYN070AAXX  31184 83498 32595 23603 10285 20231 30129 40134 82140 333 59040;
0168834980999992010060100004-17733-039250FM-12+000399999V0209999C000010450019N0020001N1+02461+02341101491ADDGF106991031061008001011001KA1240M+02981MA1999999101441MD1999999-0351REMSYN088AAXX  01004 83498 32595 60000 10246 20234 30144 40149 83610 333 10298 29087 55011 59035;
0201834980999992010060112004-17733-039250FM-12+000399999V0201801N006210450019N0020001N1+02501+02231102051ADDAA124002091AY161061AY221061GF108991041061008001021999KA1240N+02241MA1999999102001MD1999999+0301MW1211REMSYN088AAXX  01124 83498 21595 81812 10250 20223 30200 40205 72162 8462/ 333 20224 58030 60024;
0182834980999992010060118004-17733-039250FM-12+000399999V0201801N003610075019N0020001N1+02281+02211101921ADDAA106016091AY161061AY261061GF108991051071008001021999MA1999999101871MD1999999+0581MW1621REMSYN082AAXX  01184 83498 21595 81807 10228 20221 30187 40192 76266 8572/ 333 58058 60161;
0213834980999992010060200004-17733-039250FM-12+000399999V0201801N004110450019N0020001N1+02201+02081102071ADDAA106000591AY161061AY261061GF105991031061008001011001KA1240M+02561MA1999999102021MD1999999+0581MW1211REMSYN100AAXX  02004 83498 21595 51808 10220 20208 30202 40207 72166 83610 333 10256 29092 55000 58058 69941;
0201834980999992010060212004-17733-039250FM-12+000399999V0200901N001510075019N0020001N1+02501+01961102231ADDAA124019191AY121061AY211061GF108991051051008001021999KA1240N+02151MA1999999102181MD1999999+0181MW1031REMSYN088AAXX  02124 83498 21595 80903 10250 20196 30218 40223 70321 8552/ 333 20215 58018 60194;
0182834980999992010060218004-17733-039250FM-12+000399999V0200901N001510075019N0020001N1+02501+02071102011ADDAA106000591AY121061AY211061GF108991051051008001021999MA1999999101961MD1999999+0091MW1031REMSYN082AAXX  02184 83498 21595 80903 10250 20207 30196 40201 70321 8552/ 333 58009 69961;
0242834980999992010060300004-17733-039250FM-12+000399999V0201401N000510012019N0020001N1+02381+02031102241ADDAA106000091AY121061AY211061GA1091+999999999GF109991091999999999999999KA1240M+02591MA1999999102191MD1999999+0171MW1031REMSYN094AAXX  03004 83498 21/95 91401 10238 20203 30219 40224 70321 333 10259 29083 55000 58017 69921;EQDQ01  00002PRCP06
0201834980999992010060312004-17733-039250FM-12+000399999V0203601N001510450019N0020001N1+02851+01991102351ADDAA124007191AY121061AY211061GF107991041051008001011001KA1240N+02001MA1999999102301MD1999999+0121MW1031REMSYN088AAXX  03124 83498 21595 73603 10285 20199 30230 40235 70321 84510 333 20200 58012 60074;
0186834980999992010060318004-17733-039250FM-12+000399999V0201801N003110450019N0020001N1+02421+02091102221ADDAA106004191AY121061AY211061GF107991031071008001021001MD1999999+0211MW1031REMSYN082AAXX  03184 83498 21595 71806 10242 20209 30117 40222 70321 83720 333 58021 60041;EQDQ01+101173APOSP 
0213834980999992010060400004-17733-039250FM-12+000399999V0209999C000010450019N0020001N1+02161+01991102441ADDAA106000021AY161061AY261061GF108991031071008001021999KA1240M+02591MA1999999102391MD1999999+0201MW1211REMSYN100AAXX  04004 83498 21595 80000 10216 20199 30239 40244 72166 8372/ 333 10259 29090 55010 58020 69911;
0201834980999992010060412004-17733-039250FM-12+000399999V0202301N001510450019N0020001N1+02181+02101102421ADDAA124006191AY161061AY261061GF107991041061008001011001KA1240N+01971MA1999999102381MD1999999+0081MW1611REMSYN088AAXX  04124 83498 21595 72303 10218 20210 30238 40242 76166 84610 333 20197 58008 60064;
0182834980999992010060418004-17733-039250FM-12+000399999V0201801N001510450019N0020001N1+02401+02071102231ADDAA106000391AY161061AY261061GF108991041061008001011999MA1999999102181MD1999999+0011MW1211REMSYN082AAXX  04184 83498 21595 81803 10240 20207 30218 40223 72166 8461/ 333 58001 69931;
0213834980999992010060500004-17733-039250FM-12+000399999V0209999C000010450019N0020001N1+02241+02071102341ADDAA106000021AY161061AY261061GF106991031061008001011001KA1240M+02641MA1999999102291MD1999999-0101MW1211REMSYN100AAXX  05004 83498 21595 60000 10224 20207 30229 40234 72166 83610 333 10264 29089 55025 59010 69921;
0173834980999992010060512004-17733-039250FM-12+000399999V0202301N001512200019N0020001N1+02201+02011102161ADDAA124000591GF102991021011008001001001KA1240N+01861MA1999999102111MD1999999-0271REMSYN082AAXX  05124 83498 22595 22303 10220 20201 30211 40216 82100 333 20186 59027 69954;
0137834980999992010060518004-17733-039250FM-12+000399999V0200901N002612200019N0020001N1+02611+02031101721ADDGF103991011011008001001011MA1999999101671MD1999999-0511REMSYN070AAXX  05184 83498 32595 30905 10261 20203 30167 40172 81101 333 59051;
0178834980999992010060600004-17733-039250FM-12+000399999V0200901N000512200019N0020001N1+02151+02071101771ADDGA1001+999999999GF100991001001999999001001KA1240M+02711MA1999999101721MD1999999-0521REMSYN082AAXX  06004 83498 32995 00901 10215 20207 30172 40177 333 10271 29088 55040 59052;
0156834980999992010060612004-17733-039250FM-12+000399999V0203601N001012200019N0020001N1+02521+02131101731ADDGF101991011011008001001001KA1240N+02001MA1999999101681MD1999999-0431REMSYN076AAXX  06124 83498 32595 13602 10252 20213 30168 40173 81100 333 20200 59043;
0156834980999992010060618004-17733-039250FM-12+000399999V0201801N003112200019N0020001N1+02561+02191101641ADDGF104991999011008001001001MA1999999101591MD1999999-0081REMSYN070AAXX  06184 83498 32595 41806 10256 20219 30159 40164 82100 333 59008;EQDQ01+000022SCOTLC
0187834980999992010060700004-17733-039250FM-12+000399999V0201801N002612200019N0020001N1+02431+02071101921ADDGF104991999021008001001001KA1240M+02851MA1999999101871MD1999999+0151REMSYN088AAXX  07004 83498 32595 41805 10243 20207 30187 40192 82200 333 10285 29081 55066 58015;EQDQ01+000022SCOTLC
0156834980999992010060712004-17733-039250FM-12+000399999V0201801N001010450019N0020001N1+02341+02171102191ADDGF108991031051008001051999KA1240N+02091MA1999999102141MD1999999+0461REMSYN076AAXX  07124 83498 32595 81802 10234 20217 30214 40219 8355/ 333 20209 58046;
0137834980999992010060718004-17733-039250FM-12+000399999V0201801N003610450019N0020001N1+02501+02111102001ADDGF108991031061008001011999MA1999999101951MD1999999+0361REMSYN070AAXX  07184 83498 32595 81807 10250 20211 30195 40200 8361/ 333 58036;
0168834980999992010060800004-17733-039250FM-12+000399999V0201401N003110450019N0020001N1+02321+01961102201ADDGF108991041061008001011999KA1240M+02611MA1999999102151MD1999999+0281REMSYN088AAXX  08004 83498 32595 81406 10232 20196 30215 40220 8461/ 333 10261 29082 55034 58028;
0156834980999992010060812004-17733-039250FM-12+000399999V0202301N001012200019N0020001N1+02341+02001102361ADDGF102991021011008001001001KA1240N+02051MA1999999102311MD1999999+0171REMSYN076AAXX  08124 83498 32595 22302 10234 20200 30231 40236 82100 333 20205 58017;
0137834980999992010060818004-17733-039250FM-12+000399999V0201801N003112200019N0020001N1+02591+01991102021ADDGF102991021011008001001001MA1999999101971MD1999999+0021REMSYN070AAXX  08184 83498 32595 21806 10259 20199 30197 40202 82100 333 58002;
0178834980999992010060900004-17733-039250FM-12+000399999V0209999C000012200019N0020001N1+01961+01881102331ADDGA1001+999999999GF100991001001999999001001KA1240M+02741MA1999999102281MD1999999+0131REMSYN082AAXX  09004 83498 32995 00000 10196 20188 30228 40233 333 10274 29085 55085 58013;
0156834980999992010060912004-17733-039250FM-12+000399999V0203201N003112200019N0020001N1+02161+02041102331ADDGF104991021021008001011001KA1240N+01881MA1999999102281MD1999999-0031REMSYN076AAXX  09124 83498 32595 43206 10216 20204 30228 40233 82210 333 20188 59003;
0137834980999992010060918004-17733-039250FM-12+000399999V0201801N004110450019N0020001N1+02421+02071102041ADDGF106991031021008001011001MA1999999101991MD1999999+0021REMSYN070AAXX  09184 83498 32595 61808 10242 20207 30199 40204 83210 333 58002;
0178834980999992010061000004-17733-039250FM-12+000399999V0201801N001012200019N0020001N1+02261+01991102261ADDGA1001+999999999GF100991001001999999001001KA1240M+02601MA1999999102211MD1999999-0071REMSYN082AAXX  10004 83498 32995 01802 10226 20199 30221 40226 333 10260 29086 55048 59007;
0201834980999992010061012004-17733-039250FM-12+000399999V0203201N001510075019N0020001N1+02081+02031102281ADDAA124014091AY161061AY261061GF108991061071008001011999KA1240N+02031MA1999999102231MD1999999-0051MW1611REMSYN088AAXX  10124 83498 21595 83203 10208 20203 30223 40228 76166 8671/ 333 20203 59005 60144;
0137834980999992010061018004-17733-039250FM-12+000399999V0200901N001510450019N0020001N1+02481+02111102281ADDGF106991041061008001011001MA1999999102231MD1999999+0241REMSYN070AAXX  10184 83498 32595 60903 10248 20211 30223 40228 84610 333 58024;
0168834980999992010061100004-17733-039250FM-12+000399999V0200901N000510075019N0020001N1+02041+01991102251ADDGF105991051051008001001001KA1240M+02551MA1999999102201MD1999999+0011REMSYN088AAXX  11004 83498 32595 50901 10204 20199 30220 40225 85500 333 10255 29093 55016 58001;
0156834980999992010061112004-17733-039250FM-12+000399999V0202301N001512200019N0020001N1+02261+02091102191ADDGF102991021011008001001001KA1240N+01921MA1999999102141MD1999999-0091REMSYN076AAXX  11124 83498 32595 22303 10226 20209 30214 40219 82100 333 20192 59009;
0137834980999992010061118004-17733-039250FM-12+000399999V0201401N001512200019N0020001N1+02561+02151101911ADDGF102991021011008001001001MA1999999101861MD1999999-0371REMSYN070AAXX  11184 83498 32595 21403 10256 20215 30186 40191 82100 333 59037;
0178834980999992010061200004-17733-039250FM-12+000399999V0209999C000012200019N0020001N1+02161+02091102141ADDGA1001+999999999GF100991001001999999001001KA1240M+02601MA1999999102091MD1999999-0111REMSYN082AAXX  12004 83498 32995 00000 10216 20209 30209 40214 333 10260 29090 55069 59011;
0201834980999992010061212004-17733-039250FM-12+000399999V0203201N003110450019N0020001N1+02221+02081102361ADDAA124002091AY161061AY261061GF106991041061008001011001KA1240N+02111MA1999999102311MD1999999+0171MW1601REMSYN088AAXX  12124 83498 21595 63206 10222 20208 30231 40236 76066 84610 333 20211 58017 60024;
0182834980999992010061218004-17733-039250FM-12+000399999V0201801N006210450019N0020001N1+02301+02031102211ADDAA106001091AY121061AY211061GF106991041061008001021001MA1999999102161MD1999999+0301MW1031REMSYN082AAXX  12184 83498 21595 61812 10230 20203 30216 40221 70321 84620 333 58030 60011;
0187834980999992010061300004-17733-039250FM-12+000399999V0201801N003619999999N0020001N1+02181+01761102331ADDGF106991999061008001001001KA1240M+02371MA1999999102281MD1999999+0191REMSYN088AAXX  13004 83498 32595 61807 10218 20176 30228 40233 83600 333 10237 29083 55007 58019;EQDQ01+000032SCOTLC
0173834980999992010061312004-17733-039250FM-12+000399999V0203201N002111050019N0020001N1+01881+01431102451ADDAA124001091GF107991031051008001001021KA1240N+01581MA1999999102401MD1999999+0091REMSYN082AAXX  13124 83498 22595 73204 10188 20143 30240 40245 83502 333 20158 58009 60014;
0137834980999992010061318004-17733-039250FM-12+000399999V0201801N005112200019N0020001N1+02301+01981102051ADDGF104991021011008001001011MA1999999102001MD1999999-0161REMSYN070AAXX  13184 83498 32595 41810 10230 20198 30200 40205 82101 333 59016;
0168834980999992010061400004-17733-039250FM-12+000399999V0201801N003612200019N0020001N1+02121+01861102141ADDGF101991011011008001001001KA1240M+02371MA1999999102091MD1999999-0191REMSYN088AAXX  14004 83498 32595 11807 10212 20186 30209 40214 81100 333 10237 29082 55057 59019;
0201834980999992010061412004-17733-039250FM-12+000399999V0203201N001510450019N0020001N1+01961+01791102291ADDAA124002091AY161061AY261061GF106991031051008001051001KA1240N+01921MA1999999102241MD1999999-0161MW1601REMSYN088AAXX  14124 83498 21595 63203 10196 20179 30224 40229 76066 83550 333 20192 59016 60024;
0137834980999992010061418004-17733-039250FM-12+000399999V0201801N002610450019N0020001N1+02201+01991102131ADDGF107991041051008001011001MA1999999102081MD1999999+0081REMSYN070AAXX  14184 83498 32595 71805 10220 20199 30208 40213 84510 333 58008;
0187834980999992010061500004-17733-039250FM-12+000399999V0209999C000012200019N0020001N1+01961+01881102221ADDGF103991031061008001001001KA1240M+99999MA1999999102171MD1999999+0081REMSYN088AAXX  15004 83498 32595 30000 10196 20188 30217 40222 83600 333 10135 29092 55021 58008;EQDQ01 +01352ATMX  
0201834980999992010061512004-17733-039250FM-12+000399999V0202701N001510450019N0020001N1+02011+01831102341ADDAA124002091AY161061AY261061GF105991021051008001011001KA1240N+01771MA1999999102291MD1999999+0051MW1601REMSYN088AAXX  15124 83498 21595 52703 10201 20183 30229 40234 76066 82510 333 20177 58005 60024;
0137834980999992010061518004-17733-039250FM-12+000399999V0201801N000510450019N0020001N1+02341+02001102061ADDGF106991031051008001011001MA1999999102011MD1999999-0071REMSYN070AAXX  15184 83498 32595 61801 10234 20200 30201 40206 83510 333 59007;
0168834980999992010061600004-17733-039250FM-12+000399999V0209999C000012200019N0020001N1+02121+02091102211ADDGF103991031061008001001001KA1240M+02411MA1999999102161MD1999999-0011REMSYN088AAXX  16004 83498 32595 30000 10212 20209 30216 40221 83600 333 10241 29092 55030 59001;
0156834980999992010061612004-17733-039250FM-12+000399999V0203201N001010450019N0020001N1+02061+01931102291ADDGF108991041051008001011999KA1240N+01791MA1999999102241MD1999999-0051REMSYN076AAXX  16124 83498 32595 83202 10206 20193 30224 40229 8451/ 333 20179 59005;
0137834980999992010061618004-17733-039250FM-12+000399999V0201401N000510450019N0020001N1+02461+01881102001ADDGF107991031051008001051001MA1999999101951MD1999999-0061REMSYN070AAXX  16184 83498 32595 71401 10246 20188 30195 40200 83550 333 59006;
0178834980999992010061700004-17733-039250FM-12+000399999V0209999C000012200019N0020001N1+01921+01871102051ADDGA1001+999999999GF100991001001999999001001KA1240M+02501MA1999999102001MD1999999-0161REMSYN082AAXX  17004 83498 32995 00000 10192 20187 30200 40205 333 10250 29089 55010 59016;
0156834980999992010061712004-17733-039250FM-12+000399999V0203201N001512200019N0020001N1+02071+01981102031ADDGF102991021011008001001001KA1240N+01691MA1999999101981MD1999999-0261REMSYN076AAXX  17124 83498 32595 23203 10207 20198 30198 40203 82100 333 20169 59026;
0137834980999992010061718004-17733-039250FM-12+000399999V0200901N001512200019N0020001N1+02551+02041101721ADDGF102991021011008001001001MA1999999101671MD1999999-0281REMSYN070AAXX  17184 83498 32595 20903 10255 20204 30167 40172 82100 333 59028;
0178834980999992010061800004-17733-039250FM-12+000399999V0209999C000012200019N0020001N1+01901+01821101871ADDGA1001+999999999GF100991001001999999001001KA1240M+02691MA1999999101821MD1999999-0181REMSYN082AAXX  18004 83498 32995 00000 10190 20182 30182 40187 333 10269 29090 55081 59018;
0156834980999992010061812004-17733-039250FM-12+000399999V0203601N001512200019N0020001N1+02191+02031102001ADDGF101991011011008001041001KA1240N+01661MA1999999101951MD1999999-0031REMSYN076AAXX  18124 83498 32595 13603 10219 20203 30195 40200 81140 333 20166 59003;
0137834980999992010061818004-17733-039250FM-12+000399999V0200901N001512200019N0020001N1+02601+02191101651ADDGF102991021011008001001001MA1999999101601MD1999999-0071REMSYN070AAXX  18184 83498 32595 20903 10260 20219 30160 40165 82100 333 59007;
0178834980999992010061900004-17733-039250FM-12+000399999V0201401N001512200019N0020001N1+02201+01971101881ADDGA1001+999999999GF100991001001999999001001KA1240M+02761MA1999999101831MD1999999+0011REMSYN082AAXX  19004 83498 32995 01403 10220 20197 30183 40188 333 10276 29086 55078 58001;
0156834980999992010061912004-17733-039250FM-12+000399999V0201801N000510450019N0020001N1+02141+02021102001ADDGF106991021011008001051001KA1240N+01751MA1999999101951MD1999999+0001REMSYN076AAXX  19124 83498 32595 61801 10214 20202 30195 40200 82150 333 20175 58000;
0137834980999992010061918004-17733-039250FM-12+000399999V0200901N002112200019N0020001N1+02661+02091101571ADDGF105991021011008001001011MA1999999101521MD1999999-0081REMSYN070AAXX  19184 83498 32595 50904 10266 20209 30152 40157 82101 333 59008;
0178834980999992010062000004-17733-039250FM-12+000399999V0209999C000012200019N0020001N1+02021+01901101751ADDGA1001+999999999GF100991001001999999001001KA1240M+02741MA1999999101701MD1999999-0131REMSYN082AAXX  20004 83498 32995 00000 10202 20190 30170 40175 333 10274 29088 55074 59013;
0175834980999992010062012004-17733-039250FM-12+000399999V0202701N001012200019N0020001N1+02351+02131101731ADDGF102991999001008001001001KA1240N+01891MA1999999101681MD1999999-0271REMSYN076AAXX  20124 83498 32595 22702 10235 20213 30168 40173 80000 333 20189 59027;EQDQ01+000002SCOTLC
0137834980999992010062018004-17733-039250FM-12+000399999V0200501N003112200019N0020001N1+02811+02261101381ADDGF103991011011008001001011MA1999999101331MD1999999-0191REMSYN070AAXX  20184 83498 32595 30506 10281 20226 30133 40138 81101 333 59019;
0178834980999992010062100004-17733-039250FM-12+000399999V0209999C000012200019N0020001N1+02361+02311101541ADDGA1001+999999999GF100991001001999999001001KA1240M+02921MA1999999101491MD1999999-0211REMSYN082AAXX  21004 83498 32995 00000 10236 20231 30149 40154 333 10292 29090 55069 59021;
0156834980999992010062112004-17733-039250FM-12+000399999V0203601N002612200019N0020001N1+02561+02311101641ADDGF101991011011008001001001KA1240N+02201MA1999999101591MD1999999-0091REMSYN076AAXX  21124 83498 32595 13605 10256 20231 30159 40164 81100 333 20220 59009;
0137834980999992010062118004-17733-039250FM-12+000399999V0200501N004612200019N0020001N1+02851+02261101371ADDGF101991011011008001001001MA1999999101321MD1999999-0011REMSYN070AAXX  21184 83498 32595 10509 10285 20226 30132 40137 81100 333 59001;
0178834980999992010062200004-17733-039250FM-12+000399999V0200901N001512200019N0020001N1+02401+02231101631ADDGA1001+999999999GF100991001001999999001001KA1240M+02951MA1999999101581MD1999999+0091REMSYN082AAXX  22004 83498 32995 00903 10240 20223 30158 40163 333 10295 29085 55080 58009;
0156834980999992010062212004-17733-039250FM-12+000399999V0203601N003612200019N0020001N1+02481+02191101861ADDGF102991021011008001001001KA1240N+01961MA1999999101811MD1999999+0221REMSYN076AAXX  22124 83498 32595 23607 10248 20219 30181 40186 82100 333 20196 58022;
0137834980999992010062218004-17733-039250FM-12+000399999V0200901N002112200019N0020001N1+02721+02241101511ADDGF102991021011008001001001MA1999999101461MD1999999+0141REMSYN070AAXX  22184 83498 32595 20904 10272 20224 30146 40151 82100 333 58014;
0178834980999992010062300004-17733-039250FM-12+000399999V0209999C000012200019N0020001N1+02241+02161101811ADDGA1001+999999999GF100991001001999999001001KA1240M+02991MA1999999101761MD1999999+0181REMSYN082AAXX  23004 83498 32995 00000 10224 20216 30176 40181 333 10299 29087 55080 58018;
0156834980999992010062312004-17733-039250FM-12+000399999V0202301N001510450019N0020001N1+02421+02331102111ADDGF106991041051008001011001KA1240N+02021MA1999999102061MD1999999+0251REMSYN076AAXX  23124 83498 32595 62303 10242 20233 30206 40211 84510 333 20202 58025;
0137834980999992010062318004-17733-039250FM-12+000399999V0201801N001512200019N0020001N1+02651+02371101931ADDGF104991011011008001001021MA1999999101881MD1999999+0421REMSYN070AAXX  23184 83498 32595 41803 10265 20237 30188 40193 81102 333 58042;
0168834980999992010062400004-17733-039250FM-12+000399999V0201401N002110075019N0020001N1+02341+02171102281ADDGF107991051051008001011001KA1240M+02751MA1999999102231MD1999999+0471REMSYN088AAXX  24004 83498 32595 71404 10234 20217 30223 40228 85510 333 10275 29090 55016 58047;
0201834980999992010062412004-17733-039250FM-12+000399999V0201401N002610450019N0020001N1+02271+01901102521ADDAA124004191AY161061AY261061GF108991041071008001021999KA1240N+02201MA1999999102471MD1999999+0411MW1601REMSYN088AAXX  24124 83498 21595 81405 10227 20190 30247 40252 76066 8472/ 333 20220 58041 60044;
0137834980999992010062418004-17733-039250FM-12+000399999V0201401N005110450019N0020001N1+02491+01901102281ADDGF108991041071008001011001MA1999999102231MD1999999+0351REMSYN070AAXX  24184 83498 32595 81410 10249 20190 30223 40228 84710 333 58035;
0168834980999992010062500004-17733-039250FM-12+000399999V0201801N001010450019N0020001N1+02381+02171102441ADDGF107991041051008001011001KA1240M+02571MA1999999102391MD1999999+0161REMSYN088AAXX  25004 83498 32595 71802 10238 20217 30239 40244 84510 333 10257 29082 55000 58016;
0201834980999992010062512004-17733-039250FM-12+000399999V0201401N001510075019N0020001N1+02421+01991102521ADDAA124000891AY161061AY221061GF105991051021008001001001KA1240N+02221MA1999999102471MD1999999+0001MW1211REMSYN088AAXX  25124 83498 21595 51403 10242 20199 30247 40252 72162 85200 333 20222 58000 69984;
0137834980999992010062518004-17733-039250FM-12+000399999V0201801N002612200019N0020001N1+02601+01941102261ADDGF102991021011008001001001MA1999999102211MD1999999-0021REMSYN070AAXX  25184 83498 32595 21805 10260 20194 30221 40226 82100 333 59002;
0168834980999992010062600004-17733-039250FM-12+000399999V0200901N003610450019N0020001N1+02201+01941102371ADDGF107991041051008001011001KA1240M+02661MA1999999102321MD1999999-0071REMSYN088AAXX  26004 83498 32595 70907 10220 20194 30232 40237 84510 333 10266 29078 55060 59007;
0201834980999992010062612004-17733-039250FM-12+000399999V0200901N001510450019N0020001N1+02201+02151102341ADDAA124002091AY161061AY261061GF107991021071008001011001KA1240N+02041MA1999999102291MD1999999-0181MW1611REMSYN088AAXX  26124 83498 21595 70903 10220 20215 30229 40234 76166 82710 333 20204 59018 60024;
0137834980999992010062618004-17733-039250FM-12+000399999V0201401N002610450019N0020001N1+02501+02211102111ADDGF106991041051008001041001MA1999999102061MD1999999-0151REMSYN070AAXX  26184 83498 32595 61405 10250 20221 30206 40211 84540 333 59015;
0213834980999992010062700004-17733-039250FM-12+000399999V0201401N004110450019N0020001N1+02241+02141102231ADDAA106000391AY161061AY261061GF108991031071008001021999KA1240M+02591MA1999999102181MD1999999-0141MW1211REMSYN100AAXX  27004 83498 21595 81408 10224 20214 30218 40223 72166 8372/ 333 10259 29092 55040 59014 69931;
0192834980999992010062712004-17733-039250FM-12+000399999V0201401N002112200019N0020001N1+02511+02001999999ADDAA124000391GF104991021011008001041001KA1240N+02221MA1999999102251MD1999999-0041REMSYN082AAXX  27124 83498 22595 41404 10251 20200 30225 40430 82140 333 20222 59004 69934;EQDQ01 104303APOSLP
0156834980999992010062718004-17733-039250FM-12+000399999V0201401N001510450019N0020001N1+02481+02091102102ADDGF106991031021008001011001MA1999999102051MD1999999-0011REMSYN070AAXX  27184 83498 32595 61403 10248 20209 30205 40210 83210 333 59001;EQDQ01+102103APOSLP
0232834980999992010062800004-17733-039250FM-12+000399999V0209999C000010450019N0020001N1+02111+02051102231ADDAA106000091AY121061AY211061GF107991041051008001051001KA1240M+02661MA1999999102181MD1999999+0001MW1031REMSYN100AAXX  28004 83498 21595 70000 10211 20205 30218 40223 70321 84550 333 10266 29087 55045 58000 69921;EQDQ01  00002PRCP06
0201834980999992010062812004-17733-039250FM-12+000399999V0203201N002612200019N0020001N1+02261+02191102291ADDAA124003091AY161061AY261061GF108991021011008001001011KA1240N+02001MA1999999102241MD1999999-0011MW1211REMSYN088AAXX  28124 83498 21595 83205 10226 20219 30224 40229 72166 82101 333 20200 59001 60034;
0137834980999992010062818004-17733-039250FM-12+000399999V0201801N001010450019N0020001N1+02281+02201102111ADDGF108991041061008001011999MA1999999102061MD1999999+0011REMSYN070AAXX  28184 83498 32595 81802 10228 20220 30206 40211 8461/ 333 58001;
0168834980999992010062900004-17733-039250FM-12+000399999V0200501N001512200019N0020001N1+02301+02201102171ADDGF105991031011008001001011KA1240M+02521MA1999999102121MD1999999-0061REMSYN088AAXX  29004 83498 32595 50503 10230 20220 30212 40217 83101 333 10252 29095 55027 59006;
0201834980999992010062912004-17733-039250FM-12+000399999V0200901N003112200019N0020001N1+02561+02061102271ADDAA124000021AY121061AY211061GF102991021011008001001001KA1240N+02221MA1999999102221MD1999999-0021MW1031REMSYN088AAXX  29124 83498 21595 20906 10256 20206 30222 40227 70321 82100 333 20222 59002 69924;
0137834980999992010062918004-17733-039250FM-12+000399999V0200901N003612200019N0020001N1+02631+02101102021ADDGF102991021021008001001001MA1999999101971MD1999999-0091REMSYN070AAXX  29184 83498 32595 20907 10263 20210 30197 40202 82200 333 59009;
0168834980999992010063000004-17733-039250FM-12+000399999V0209999C000010075019N0020001N1+02441+01971102231ADDGF108991051051008001021999KA1240M+02631MA1999999102181MD1999999+0061REMSYN088AAXX  30004 83498 32595 80000 10244 20197 30218 40223 8552/ 333 10263 29074 55084 58006;
0156834980999992010063012004-17733-039250FM-12+000399999V0201801N001512200019N0020001N1+02551+01881102371ADDGF102991021011008001001001KA1240N+02241MA1999999102321MD1999999+0101REMSYN076AAXX  30124 83498 32595 21803 10255 20188 30232 40237 82100 333 20224 58010;
0137834980999992010063018004-17733-039250FM-12+000399999V0201801N003610450019N0020001N1+02571+02061102181ADDGF106991031031008001011001MA1999999102131MD1999999+0161REMSYN070AAXX  30184 83498 32595 61807 10257 20206 30213 40218 83310 333 58016;
0213834980999992010070100004-17733-039250FM-12+000399999V0201801N001510450019N0020001N1+02651+01751102351ADDAA106000021AY161061AY261061GF108991041071008001021001KA1240M+02671MA1999999102301MD1999999+0121MW1211REMSYN100AAXX  01004 83498 21595 81803 10265 20175 30230 40235 72166 84720 333 10267 29065 55035 58012 69911;
0201834980999992010070112004-17733-039250FM-12+000399999V0203201N001510450019N0020001N1+02181+02101102341ADDAA124001091AY161061AY261061GF108991031061008001011999KA1240N+02041MA1999999102291MD1999999-0031MW1211REMSYN088AAXX  01124 83498 21595 83203 10218 20210 30229 40234 72166 8361/ 333 20204 59003 60014;
0137834980999992010070118004-17733-039250FM-12+000399999V0201801N003110450019N0020001N1+02501+02071102131ADDGF106991041021008001031001MA1999999102081MD1999999-0051REMSYN070AAXX  01184 83498 32595 61806 10250 20207 30208 40213 84230 333 59005;
0168834980999992010070200004-17733-039250FM-12+000399999V0201801N002612200019N0020001N1+02361+02031102261ADDGF102991021011008001001001KA1240M+02581MA1999999102211MD1999999-0091REMSYN088AAXX  02004 83498 32595 21805 10236 20203 30221 40226 82100 333 10258 29084 55040 59009;
0156834980999992010070212004-17733-039250FM-12+000399999V0201801N003110450019N0020001N1+02351+02111102341ADDGF106991041051008001041001KA1240N+02071MA1999999102291MD1999999+0001REMSYN076AAXX  02124 83498 32595 61806 10235 20211 30229 40234 84540 333 20207 58000;
0137834980999992010070218004-17733-039250FM-12+000399999V0200901N002110450019N0020001N1+02541+02111102101ADDGF106991041051008001041001MA1999999102051MD1999999-0031REMSYN070AAXX  02184 83498 32595 60904 10254 20211 30205 40210 84540 333 59003;
0178834980999992010070300004-17733-039250FM-12+000399999V0201401N000512200019N0020001N1+02241+02051102321ADDGA1001+999999999GF100991001001999999001001KA1240M+02631MA1999999102271MD1999999+0061REMSYN082AAXX  03004 83498 32995 01401 10224 20205 30227 40232 333 10263 29080 55050 58006;
0201834980999992010070312004-17733-039250FM-12+000399999V0203201N001510450019N0020001N1+02301+02111102311ADDAA124002091AY121061AY211061GF107991041051008001011001KA1240N+01991MA1999999102261MD1999999-0031MW1031REMSYN088AAXX  03124 83498 21595 73203 10230 20211 30226 40231 70321 84510 333 20199 59003 60024;
0137834980999992010070318004-17733-039250FM-12+000399999V0201401N001510450019N0020001N1+02571+02041102081ADDGF105991031021008001011001MA1999999102031MD1999999-0021REMSYN070AAXX  03184 83498 32595 51403 10257 20204 30203 40208 83210 333 59002;
0178834980999992010070400004-17733-039250FM-12+000399999V0209999C000012200019N0020001N1+02001+01881102201ADDGA1001+999999999GF100991001001999999001001KA1240M+02611MA1999999102151MD1999999-0121REMSYN082AAXX  04004 83498 32995 00000 10200 20188 30215 40220 333 10261 29088 55027 59012;
0156834980999992010070412004-17733-039250FM-12+000399999V0203201N001512200019N0020001N1+02201+02031102261ADDGF103991031021008001001001KA1240N+01771MA1999999102111MD1999999-0151REMSYN076AAXX  04124 83498 32595 33203 10220 20203 30211 40226 83200 333 20177 59015;
0182834980999992010070418004-17733-039250FM-12+000399999V0201801N004110450019N0020001N1+02301+02221101921ADDAA106000891AY161061AY221061GF108991041061008001021999MA1999999101871MD1999999+0161MW1211REMSYN082AAXX  04184 83498 21595 81808 10230 20222 30187 40192 72162 8462/ 333 58016 69981;
0213834980999992010070500004-17733-039250FM-12+000399999V0203601N000510450019N0020001N1+02081+02051102051ADDAA106003091AY161061AY261061GF108991041061008001011999KA1240M+02471MA1999999102001MD1999999-0151MW1611REMSYN100AAXX  05004 83498 21595 83601 10208 20205 30200 40205 76166 8461/ 333 10247 29093 55028 59015 60031;
0201834980999992010070512004-17733-039250FM-12+000399999V0201401N003110450019N0020001N1+02411+02171102261ADDAA124008991AY161061AY261061GF107991041051008001011001KA1240N+01981MA1999999102211MD1999999+0101MW1211REMSYN088AAXX  05124 83498 21595 71406 10241 20217 30221 40226 72166 84510 333 20198 58010 60094;
0137834980999992010070518004-17733-039250FM-12+000399999V0201401N003110450019N0020001N1+02501+02001102031ADDGF107991041051008001011001MA1999999101981MD1999999+0111REMSYN070AAXX  05184 83498 32595 71406 10250 20200 30198 40203 84510 333 58011;
0168834980999992010070600004-17733-039250FM-12+000399999V0201401N002612200019N0020001N1+02341+01891102181ADDGF102991021061008001001001KA1240M+02611MA1999999102131MD1999999+0131REMSYN088AAXX  06004 83498 32595 21405 10234 20189 30213 40218 82600 333 10261 29078 55035 58013;
0156834980999992010070612004-17733-039250FM-12+000399999V0201801N002612200019N0020001N1+02441+01951102341ADDGF104991021021008001011001KA1240N+02151MA1999999102291MD1999999+0081REMSYN076AAXX  06124 83498 32595 41805 10244 20195 30229 40234 82210 333 20215 58008;
0137834980999992010070618004-17733-039250FM-12+000399999V0201801N003112200019N0020001N1+02531+02361102091ADDGF103991031021008001011001MA1999999102041MD1999999+0061REMSYN070AAXX  06184 83498 32595 31806 10253 20236 30204 40209 83210 333 58006;
0178834980999992010070700004-17733-039250FM-12+000399999V0201801N001012200019N0020001N1+02321+01871102231ADDGA1001+999999999GF100991001001999999001001KA1240M+02571MA1999999102181MD1999999+0051REMSYN082AAXX  07004 83498 32995 01802 10232 20187 30218 40223 333 10257 29080 55076 58005;
0201834980999992010070712004-17733-039250FM-12+000399999V0202301N001510450019N0020001N1+02061+01981102141ADDAA124004191AY161061AY221061GF107991041061008001011001KA1240N+01841MA1999999102091MD1999999-0201MW1211REMSYN088AAXX  07124 83498 21595 72303 10206 20198 30209 40214 72162 84610 333 20184 59020 60044;
0137834980999992010070718004-17733-039250FM-12+000399999V0201401N003112200019N0020001N1+02501+02071101901ADDGF104991041021008001001001MA1999999101851MD1999999-0191REMSYN070AAXX  07184 83498 32595 41406 10250 20207 30185 40190 84200 333 59019;
0168834980999992010070800004-17733-039250FM-12+000399999V0200901N000512200019N0020001N1+02221+02081102051ADDGF103991031011008001001001KA1240M+02631MA1999999102001MD1999999-0181REMSYN088AAXX  08004 83498 32595 30901 10222 20208 30200 40205 83100 333 10263 29089 55052 59018;
0201834980999992010070812004-17733-039250FM-12+000399999V0202701N002610450019N0020001N1+02351+02171102161ADDAA124000021AY121061AY211061GF106991031051008001011001KA1240N+01981MA1999999102111MD1999999+0021MW1031REMSYN088AAXX  08124 83498 21595 62705 10235 20217 30211 40216 70321 83510 333 20198 58002 69924;
0137834980999992010070818004-17733-039250FM-12+000399999V0201801N001010450019N0020001N1+02511+02291101831ADDGF106991031061008001011001MA1999999101781MD1999999+0071REMSYN070AAXX  08184 83498 32595 61802 10251 20229 30178 40183 83610 333 58007;
0213834980999992010070900004-17733-039250FM-12+000399999V0209999C000010075019N0020001N1+02181+02101102051ADDAA106000591AY121061AY211061GF108991051061008001021999KA1240M+02651MA1999999102001MD1999999+0001MW1031REMSYN100AAXX  09004 83498 21595 80000 10218 20210 30200 40205 70321 8562/ 333 10265 29092 55028 58000 69941;
0201834980999992010070912004-17733-039250FM-12+000399999V0209999C000010450019N0020001N1+02391+02131102151ADDAA124004191AY121061AY211061GF105991021041008001011001KA1240N+02091MA1999999102101MD1999999-0011MW1031REMSYN088AAXX  09124 83498 21595 50000 10239 20213 30210 40215 70321 82410 333 20209 59001 60044;
0137834980999992010070918004-17733-039250FM-12+000399999V0200901N001512200019N0020001N1+02571+02191101841ADDGF104991021021008001011001MA1999999101791MD1999999+0011REMSYN070AAXX  09184 83498 32595 40903 10257 20219 30179 40184 82210 333 58001;
0168834980999992010071000004-17733-039250FM-12+000399999V0201401N001510075019N0020001N1+02321+02091102021ADDGF108991051051008001021999KA1240M+02631MA1999999101971MD1999999-0031REMSYN088AAXX  10004 83498 32595 81403 10232 20209 30197 40202 8552/ 333 10263 29085 55066 59003;
0156834980999992010071012004-17733-039250FM-12+000399999V0209999C000010450019N0020001N1+02421+02211102071ADDGF106991031031008001011001KA1240N+02051MA1999999102021MD1999999-0081REMSYN076AAXX  10124 83498 32595 60000 10242 20221 30202 40207 83310 333 20205 59008;
0182834980999992010071018004-17733-039250FM-12+000399999V0200901N001010450019N0020001N1+02421+02111101741ADDAA106000591AY161061AY221061GF106991031021008001011001MA1999999101691MD1999999-0101MW1211REMSYN082AAXX  10184 83498 21595 60902 10242 20211 30169 40174 72162 83210 333 59010 69941;
0168834980999992010071100004-17733-039250FM-12+000399999V0201401N000510450019N0020001N1+02261+02141101931ADDGF106991041051008001011001KA1240M+02691MA1999999101881MD1999999-0091REMSYN088AAXX  11004 83498 32595 61401 10226 20214 30188 40193 84510 333 10269 29089 55032 59009;
0201834980999992010071112004-17733-039250FM-12+000399999V0201401N001010450019N0020001N1+02461+02231101991ADDAA124009991AY161061AY261061GF106991041051008001041001KA1240N+02121MA1999999101941MD1999999-0081MW1211REMSYN088AAXX  11124 83498 21595 61402 10246 20223 30194 40199 72166 84540 333 20212 59008 60104;
0182834980999992010071118004-17733-039250FM-12+000399999V0200501N003110450019N0020001N1+02541+02231101691ADDAA106000021AY161061AY261061GF106991041051008001041001MA1999999101641MD1999999-0051MW1211REMSYN082AAXX  11184 83498 21595 60506 10254 20223 30164 40169 72166 84540 333 59005 69921;
0178834980999992010071200004-17733-039250FM-12+000399999V0201401N001012200019N0020001N1+02201+02031101931ADDGA1001+999999999GF100991001001999999001001KA1240M+02711MA1999999101881MD1999999+0001REMSYN082AAXX  12004 83498 32995 01402 10220 20203 30188 40193 333 10271 29088 55043 58000;
0173834980999992010071212004-17733-039250FM-12+000399999V0200901N002610450019N0020001N1+02571+02211102011ADDAA124000021GF106991041051008001041001KA1240N+01991MA1999999101961MD1999999-0021REMSYN082AAXX  12124 83498 22595 60905 10257 20221 30196 40201 84540 333 20199 59002 69924;
0137834980999992010071218004-17733-039250FM-12+000399999V0200501N002612200019N0020001N1+02691+02111101671ADDGF103991031021008001001001MA1999999101621MD1999999-0021REMSYN070AAXX  12184 83498 32595 30505 10269 20211 30162 40167 83200 333 59002;
0178834980999992010071300004-17733-039250FM-12+000399999V0209999C000012200019N0020001N1+02181+02081101851ADDGA1001+999999999GF100991001001999999001001KA1240M+02751MA1999999101801MD1999999-0081REMSYN082AAXX  13004 83498 32995 00000 10218 20208 30180 40185 333 10275 29085 55083 59008;
0156834980999992010071312004-17733-039250FM-12+000399999V0202701N001510450019N0020001N1+02421+02251101851ADDGF105991021021008001011001KA1240N+02071MA1999999101801MD1999999-0161REMSYN076AAXX  13124 83498 32595 52703 10242 20225 30180 40185 82210 333 20207 59016;
0137834980999992010071318004-17733-039250FM-12+000399999V0201401N002110450019N0020001N1+02691+02311101571ADDGF106991031021008001011001MA1999999101521MD1999999-0101REMSYN070AAXX  13184 83498 32595 61404 10269 20231 30152 40157 83210 333 59010;
0178834980999992010071400004-17733-039250FM-12+000399999V0209999C000012200019N0020001N1+02281+02231101801ADDGA1001+999999999GF100991001001999999001001KA1240M+02781MA1999999101751MD1999999-0051REMSYN082AAXX  14004 83498 32995 00000 10228 20223 30175 40180 333 10278 29091 55043 59005;
0156834980999992010071412004-17733-039250FM-12+000399999V0203601N002112200019N0020001N1+02621+02411101871ADDGF103991031011008001001001KA1240N+02191MA1999999101821MD1999999+0021REMSYN076AAXX  14124 83498 32595 33604 10262 20241 30182 40187 83100 333 20219 58002;
0137834980999992010071418004-17733-039250FM-12+000399999V0203601N003112200019N0020001N1+02721+02391101711ADDGF103991031011008001001001MA1999999101661MD1999999+0141REMSYN070AAXX  14184 83498 32595 33606 10272 20239 30166 40171 83100 333 58014;
0168834980999992010071500004-17733-039250FM-12+000399999V0200901N001012200019N0020001N1+02321+02201101961ADDGF103991031061008001001001KA1240M+02851MA1999999101911MD1999999+0161REMSYN088AAXX  15004 83498 32595 30902 10232 20220 30191 40196 83600 333 10285 29089 55064 58016;
0201834980999992010071512004-17733-039250FM-12+000399999V0201401N002112200019N0020001N1+02551+02231102171ADDAA124001091AY121061AY211061GF105991021021008001001011KA1240N+02071MA1999999102121MD1999999+0301MW1031REMSYN088AAXX  15124 83498 21595 51404 10255 20223 30212 40217 70321 82201 333 20207 58030 60014;
0137834980999992010071518004-17733-039250FM-12+000399999V0201801N003112200019N0020001N1+02661+02221101821ADDGF103991031021008001001001MA1999999101971MD1999999+0311REMSYN070AAXX  15184 83498 32595 31806 10266 20222 30197 40182 83200 333 58031;
0178834980999992010071600004-17733-039250FM-12+000399999V0201801N001512200019N0020001N1+02381+02111102231ADDGA1001+999999999GF100991001001999999001001KA1240M+02741MA1999999102181MD1999999+0271REMSYN082AAXX  16004 83498 32995 01803 10238 20211 30218 40223 333 10274 29083 55072 58027;
0201834980999992010071612004-17733-039250FM-12+000399999V0200901N001510450019N0020001N1+02401+02211102421ADDAA124003091AY161061AY261061GF107991041051008001041001KA1240N+02281MA1999999102371MD1999999+0251MW1611REMSYN088AAXX  16124 83498 21595 70903 10240 20221 30237 40242 76166 84540 333 20228 58025 60034;
0137834980999992010071618004-17733-039250FM-12+000399999V0201401N002612200019N0020001N1+02551+02111102191ADDGF104991041021008001001001MA1999999102141MD1999999+0271REMSYN070AAXX  16184 83498 32595 41405 10255 20211 30214 40219 84200 333 58027;
0168834980999992010071700004-17733-039250FM-12+000399999V0201401N001512200019N0020001N1+02391+02011102391ADDGF103991031021008001001001KA1240M+02681MA1999999102341MD1999999+0161REMSYN088AAXX  17004 83498 32595 31403 10239 20201 30234 40239 83200 333 10268 29081 55060 58016;
0220834980999992010071712004-17733-039250FM-12+000399999V0201401N003119999999N0020001N1+02511+02071102491ADDAA124004191AY121061AY211061GF105991999021008001001001KA1240N+02161MA1999999102441MD1999999+0071MW1031REMSYN088AAXX  17124 83498 21595 51406 10251 20207 30244 40249 70321 83200 333 20216 58007 60044;EQDQ01+000032SCOTLC
0201834980999992010071718004-17733-039250FM-12+000399999V0201401N002119999999N0020001N1+02491+02111102321ADDAA106001091AY161061AY261061GF106991999021008001001001MA1999999102271MD1999999+0131MW1211REMSYN082AAXX  17184 83498 21595 61404 10249 20211 30227 40232 72166 83200 333 58013 60011;EQDQ01+000032SCOTLC
0213834980999992010071800004-17733-039250FM-12+000399999V0201401N004110450019N0020001N1+02291+02131102441ADDAA106002091AY161061AY261061GF108991041071008001021001KA1240M+02641MA1999999102391MD1999999+0051MW1601REMSYN100AAXX  18004 83498 21595 81408 10229 20213 30239 40244 76066 84720 333 10264 29085 55069 58005 60021;
0173834980999992010071812004-17733-039250FM-12+000399999V0200901N003112200019N0020001N1+02541+02111102421ADDAA124003091GF103991031021008001001001KA1240N+02111MA1999999102371MD1999999-0071REMSYN082AAXX  18124 83498 22595 30906 10254 20211 30237 40242 83200 333 20211 59007 60034;
0137834980999992010071818004-17733-039250FM-12+000399999V0201401N001510450019N0020001N1+02571+02151102141ADDGF106991041051008001041001MA1999999102091MD1999999-0181REMSYN070AAXX  18184 83498 32595 61403 10257 20215 30209 40214 84540 333 59018;
0213834980999992010071900004-17733-039250FM-12+000399999V0201401N002610450019N0020001N1+02241+02121102271ADDAA106010991AY161061AY261061GF108991031071008001021999KA1240M+02651MA1999999102221MD1999999-0171MW1611REMSYN100AAXX  19004 83498 21595 81405 10224 20212 30222 40227 76166 8372/ 333 10265 29085 55073 59017 60111;
0201834980999992010071912004-17733-039250FM-12+000399999V0201801N001510450019N0020001N1+02281+01961102401ADDAA124010991AY161061AY261061GF107991041051008001031001KA1240N+02081MA1999999102351MD1999999-0021MW1211REMSYN088AAXX  19124 83498 21595 71803 10228 20196 30235 40240 72166 84530 333 20208 59002 60114;
0137834980999992010071918004-17733-039250FM-12+000399999V0201401N003111050019N0020001N1+02401+01931102171ADDGF106991031011008001001021MA1999999102121MD1999999+0031REMSYN070AAXX  19184 83498 32595 61406 10240 20193 30212 40217 83102 333 58003;
0213834980999992010072000004-17733-039250FM-12+000399999V0201401N002612200019N0020001N1+02221+01921102391ADDAA106000591AY161061AY211061GF103991031011008001001001KA1240M+02521MA1999999102341MD1999999+0121MW1211REMSYN100AAXX  20004 83498 21595 31405 10222 20192 30234 40239 72161 83100 333 10252 29081 55035 58012 69941;
0201834980999992010072012004-17733-039250FM-12+000399999V0201801N001510450019N0020001N1+02081+01961102451ADDAA124002091AY161061AY261061GF107991031071008001011001KA1240N+01931MA1999999102401MD1999999+0051MW1611REMSYN088AAXX  20124 83498 21595 71803 10208 20196 30240 40245 76166 83710 333 20193 58005 60024;
0137834980999992010072018004-17733-039250FM-12+000399999V0202701N001010450019N0020001N1+02661+02221102161ADDGF106991031051008001011001MA1999999102111MD1999999-0011REMSYN070AAXX  20184 83498 32595 62702 10266 20222 30211 40216 83510 333 59001;
0213834980999992010072100004-17733-039250FM-12+000399999V0209999C000010450019N0020001N1+02101+01981102321ADDAA106001091AY161061AY211061GF107991031071008001011001KA1240M+02431MA1999999102271MD1999999-0071MW1211REMSYN100AAXX  21004 83498 21595 70000 10210 20198 30227 40232 72161 83710 333 10243 29092 55006 59007 60011;
0173834980999992010072112004-17733-039250FM-12+000399999V0200901N002112200019N0020001N1+02381+01841102461ADDAA124000591GF103991031021008001001001KA1240N+01841MA1999999102411MD1999999+0011REMSYN082AAXX  21124 83498 22595 30904 10238 20184 30241 40246 83200 333 20184 58001 69954;
0137834980999992010072118004-17733-039250FM-12+000399999V0200901N002110450019N0020001N1+02531+02111102211ADDGF105991041021008001041001MA1999999102161MD1999999+0051REMSYN070AAXX  21184 83498 32595 50904 10253 20211 30216 40221 84240 333 58005;
0213834980999992010072200004-17733-039250FM-12+000399999V0202701N001010450019N0020001N1+02051+02011102411ADDAA106002091AY161061AY261061GF108991031071008001021999KA1240M+02581MA1999999102361MD1999999+0091MW1611REMSYN100AAXX  22004 83498 21595 82702 10205 20201 30236 40241 76166 8372/ 333 10258 29086 55072 58009 60021;
0201834980999992010072212004-17733-039250FM-12+000399999V0200901N003610450019N0020001N1+02421+01951102421ADDAA124011991AY161061AY261061GF107991041051008001011001KA1240N+02021MA1999999102371MD1999999-0041MW1211REMSYN088AAXX  22124 83498 21595 70907 10242 20195 30237 40242 72166 84510 333 20202 59004 60124;
0137834980999992010072218004-17733-039250FM-12+000399999V0200901N003110450019N0020001N1+02481+01961102151ADDGF108991031051008001011999MA1999999102101MD1999999-0061REMSYN070AAXX  22184 83498 32595 80906 10248 20196 30210 40215 8351/ 333 59006;
0168834980999992010072300004-17733-039250FM-12+000399999V0200901N000512200019N0020001N1+02101+02001102381ADDGF102991021011008001001001KA1240M+02571MA1999999102331MD1999999-0031REMSYN088AAXX  23004 83498 32595 20901 10210 20200 30233 40238 82100 333 10257 29084 55005 59003;
0175834980999992010072312004-17733-039250FM-12+000399999V0209999C000012200019N0020001N1+02281+02091102531ADDGF104991999021008001001001KA1240N+01881MA1999999102481MD1999999+0111REMSYN076AAXX  23124 83498 32595 40000 10228 20209 30248 40253 82200 333 20188 58011;EQDQ01+000022SCOTLC
0137834980999992010072318004-17733-039250FM-12+000399999V0200901N002110450019N0020001N1+02561+02251102291ADDGF105991021021008001011001MA1999999102241MD1999999+0141REMSYN070AAXX  23184 83498 32595 50904 10256 20225 30224 40229 82210 333 58014;
0168834980999992010072400004-17733-039250FM-12+000399999V0201801N001512200019N0020001N1+02311+02051102431ADDGF102991021011008001001001KA1240M+02271MA1999999102381MD1999999+0051REMSYN088AAXX  24004 83498 32595 21803 10231 20205 30238 40243 82100 333 10227 29086 55066 58005;
0220834980999992010072412004-17733-039250FM-12+000399999V0200901N004112200019N0020001N1+02521+02191102531ADDAA124000091AY121061AY211061GF102991021011008001001001KA1240N+02141MA1999999102481MD1999999+0001MW1011REMSYN088AAXX  24124 83498 21595 20908 10252 20219 30248 40253 70121 82100 333 20214 58000 69924;EQDQ01  00002PRCP24
0137834980999992010072418004-17733-039250FM-12+000399999V0201401N003110450019N0020001N1+02421+02191102311ADDGF107991041061008001011001MA1999999102261MD1999999+0021REMSYN070AAXX  24184 83498 32595 71406 10242 20219 30226 40231 84610 333 58002;
0213834980999992010072500004-17733-039250FM-12+000399999V0201401N003110075019N0020001N1+02221+02141102431ADDAA106001091AY161061AY261061GF108991051061008001021999KA1240M+02581MA1999999102381MD1999999+0001MW1211REMSYN100AAXX  25004 83498 21595 81406 10222 20214 30238 40243 72166 8562/ 333 10258 29090 55058 58000 60011;
0201834980999992010072512004-17733-039250FM-12+000399999V0200901N003610450019N0020001N1+02401+01931102531ADDAA124004191AY161061AY261061GF108991041051008001051999KA1240N+02091MA1999999102481MD1999999+0001MW1211REMSYN088AAXX  25124 83498 21595 80907 10240 20193 30248 40253 72166 8455/ 333 20209 58000 60044;
0137834980999992010072518004-17733-039250FM-12+000399999V0200901N004112200019N0020001N1+02481+02111102251ADDGF104991021011008001051001MA1999999102201MD1999999-0061REMSYN070AAXX  25184 83498 32595 40908 10248 20211 30220 40225 82150 333 59006;
0213834980999992010072600004-17733-039250FM-12+000399999V0200901N001510450019N0020001N1+02301+02031102351ADDAA106000021AY161061AY221061GF108991021051008001051999KA1240M+02641MA1999999102301MD1999999-0081MW1211REMSYN100AAXX  26004 83498 21595 80903 10230 20203 30230 40235 72162 8255/ 333 10264 29081 55015 59008 69921;
0173834980999992010072612004-17733-039250FM-12+000399999V0202701N001012200019N0020001N1+02261+01971102321ADDAA124000021GF103991031011008001001001KA1240N+01861MA1999999102271MD1999999-0211REMSYN082AAXX  26124 83498 22595 32702 10226 20197 30227 40232 83100 333 20186 59021 69924;
0137834980999992010072618004-17733-039250FM-12+000399999V0201801N002610450019N0020001N1+02221+02071102141ADDGF107991031051008001011001MA1999999102091MD1999999-0111REMSYN070AAXX  26184 83498 32595 71805 10222 20207 30209 40214 83510 333 59011;
0168834980999992010072700004-17733-039250FM-12+000399999V0209999C000010450019N0020001N1+02161+02081102241ADDGF108991041061008001021001KA1240M+02621MA1999999102191MD1999999-0111REMSYN088AAXX  27004 83498 32595 80000 10216 20208 30219 40224 84620 333 10262 29093 55000 59011;
0201834980999992010072712004-17733-039250FM-12+000399999V0209999C000010450019N0020001N1+02401+02151102301ADDAA124000591AY121061AY211061GF106991041051008001041001KA1240N+02021MA1999999102251MD1999999-0021MW1031REMSYN088AAXX  27124 83498 21595 60000 10240 20215 30225 40230 70321 84540 333 20202 59002 69944;
0182834980999992010072718004-17733-039250FM-12+000399999V0201401N001510450019N0020001N1+02181+02131102211ADDAA106003091AY161061AY261061GF108991031071008001021999MA1999999102161MD1999999+0071MW1611REMSYN082AAXX  27184 83498 21595 81403 10218 20213 30216 40221 76166 8372/ 333 58007 60031;
0201834980999992010072800004-17733-039250FM-12+000399999V0201401N002610012019N0020001N1+02361+02091102361ADDAA106002091GA1091+999999999GF109991091999999999999999KA1240M+02531MA1999999102311MD1999999+0121REMSYN094AAXX  28004 83498 21/95 91405 10236 20209 30231 40236 7//21 333 10253 29088 55/// 58012 60021;
0201834980999992010072812004-17733-039250FM-12+000399999V0201401N003610450019N0020001N1+02461+02131102431ADDAA124005191AY161061AY261061GF105991031021008001051001KA1240N+02061MA1999999102381MD1999999+0131MW1211REMSYN088AAXX  28124 83498 21595 51407 10246 20213 30238 40243 72166 83250 333 20206 58013 60054;
0182834980999992010072818004-17733-039250FM-12+000399999V0201401N004112200019N0020001N1+02481+02251102281ADDAA106000021AY161061AY261061GF104991021011008001051001MA1999999102241MD1999999+0081MW1211REMSYN082AAXX  28184 83498 21595 41408 10248 20225 30224 40228 72166 82150 333 58008 69921;
0213834980999992010072900004-17733-039250FM-12+000399999V0201401N002110450019N0020001N1+02201+02171102471ADDAA106003091AY161061AY261061GF108991041061008001021999KA1240M+02611MA1999999102421MD1999999+0111MW1611REMSYN100AAXX  29004 83498 21595 81404 10220 20217 30242 40247 76166 8462/ 333 10261 29091 55/// 58011 60031;
0201834980999992010072912004-17733-039250FM-12+000399999V0201401N003112200019N0020001N1+02511+02071102501ADDAA124004191AY121061AY211061GF102991021011008001041001KA1240N+02091MA1999999102451MD1999999+0071MW1031REMSYN088AAXX  29124 83498 21595 21406 10251 20207 30245 40250 70321 82140 333 20209 58007 60044;
0137834980999992010072918004-17733-039250FM-12+000399999V0201401N003112200019N0020001N1+02511+02091102221ADDGF101991011011008001001001MA1999999102171MD1999999-0071REMSYN070AAXX  29184 83498 32595 11406 10251 20209 30217 40222 81100 333 59007;
0168834980999992010073000004-17733-039250FM-12+000399999V0201401N001512200019N0020001N1+02261+01861102321ADDGF103991031001008001031001KA1240M+02621MA1999999102271MD1999999-0151REMSYN088AAXX  30004 83498 32595 31403 10226 20186 30227 40232 83030 333 10262 29078 55/// 59015;
0156834980999992010073012004-17733-039250FM-12+000399999V0200901N003112200019N0020001N1+02501+01801102281ADDGF103991031011008001001001KA1240N+02071MA1999999102231MD1999999-0221REMSYN076AAXX  30124 83498 32595 30906 10250 20180 30223 40228 83100 333 20207 59022;
0137834980999992010073018004-17733-039250FM-12+000399999V0200901N002612200019N0020001N1+02501+01961102001ADDGF103991031011008001001001MA1999999101951MD1999999-0221REMSYN070AAXX  30184 83498 32595 30905 10250 20196 30195 40200 83100 333 59022;
0178834980999992010073100004-17733-039250FM-12+000399999V0200901N002612200019N0020001N1+02241+01801102131ADDGA1001+999999999GF100991001001999999001001KA1240M+02601MA1999999102081MD1999999-0191REMSYN082AAXX  31004 83498 32995 00905 10224 20180 30208 40213 333 10260 29072 55/// 59019;
0156834980999992010073112004-17733-039250FM-12+000399999V0202301N001010450019N0020001N1+02061+01821102131ADDGF105991021021008001051001KA1240N+01661MA1999999100201MD1999999-0151REMSYN076AAXX  31124 83498 32595 52302 10206 20182 30020 40213 82250 333 20166 59015;
0156834980999992010073118004-17733-039250FM-12+000399999V0200901N002112200019N0020001N1+02561+01701101771ADDGF102991021011008001001001MA1999999101722MD1999999-0231REMSYN070AAXX  31184 83498 32595 20904 10256 20170 30172 40177 82100 333 59023;EQDQ01+101723APOSP 
0166834980999992010080112004-17733-039250FM-12+000399999V0203601N001512200019N0020001N1+02151+01841102021ADDGA1001+999999999GF100991001001999999001001KA1240N+01571MA1999999101971MD1999999-0111REMSYN070AAXX  01124 83498 32595 03603 10215 20184 30197 40202 333 20157 59011;
0137834980999992010080118004-17733-039250FM-12+000399999V0201401N002612200019N0020001N1+02551+02041101701ADDGF101991011011008001001001MA1999999101651MD1999999-0071REMSYN070AAXX  01184 83498 32595 11405 10255 20204 30165 40170 81100 333 59007;
0178834980999992010080200004-17733-039250FM-12+000399999V0209999C000012200019N0020001N1+02081+01911101941ADDGA1001+999999999GF100991001001999999001001KA1240M+02671MA1999999101891MD1999999+0051REMSYN082AAXX  02004 83498 32995 00000 10208 20191 30189 40194 333 10267 29085 55/// 58005;
0156834980999992010080212004-17733-039250FM-12+000399999V0202301N001012200019N0020001N1+02371+02051102171ADDGF102991011011008001001011KA1240N+01681MA1999999102121MD1999999+0151REMSYN076AAXX  02124 83498 32595 22302 10237 20205 30212 40217 81101 333 20168 58015;
0137834980999992010080218004-17733-039250FM-12+000399999V0200901N002610450019N0020001N1+02571+02131101971ADDGF105991021021008001041001MA1999999101921MD1999999+0271REMSYN070AAXX  02184 83498 32595 50905 10257 20213 30192 40197 82240 333 58027;
0178834980999992010080300004-17733-039250FM-12+000399999V0200901N001512200019N0020001N1+02221+01991102191ADDGA1001+999999999GF100991001001999999001001KA1240M+02611MA1999999102141MD1999999+0251REMSYN082AAXX  03004 83498 32995 00903 10222 20199 30214 40219 333 10261 29083 55/// 58025;
0156834980999992010080312004-17733-039250FM-12+000399999V0200901N003610075019N0020001N1+02421+01951102221ADDGF105991051011008001001001KA1240N+01881MA1999999102171MD1999999+0051REMSYN076AAXX  03124 83498 32595 50907 10242 20195 30217 40222 85100 333 20188 58005;
0137834980999992010080318004-17733-039250FM-12+000399999V0201401N003110450019N0020001N1+02481+02231101971ADDGF107991041051008001031001MA1999999101921MD1999999+0001REMSYN070AAXX  03184 83498 32595 71406 10248 20223 30192 40197 84530 333 58000;
0168834980999992010080400004-17733-039250FM-12+000399999V0209999C000012200019N0020001N1+02141+02061102181ADDGF104991021011008001031001KA1240M+02611MA1999999102131MD1999999-0011REMSYN088AAXX  04004 83498 32595 40000 10214 20206 30213 40218 82130 333 10261 29088 55/// 59001;
0156834980999992010080412004-17733-039250FM-12+000399999V0201801N001512200019N0020001N1+02491+01921102251ADDGF102991021011008001001001KA1240N+01871MA1999999102201MD1999999+0031REMSYN076AAXX  04124 83498 32595 21803 10249 20192 30220 40225 82100 333 20187 58003;
0137834980999992010080418004-17733-039250FM-12+000399999V0201801N003112200019N0020001N1+02591+02081101991ADDGF101991011011008001031001MA1999999101941MD1999999+0021REMSYN070AAXX  04184 83498 32595 11806 10259 20208 30194 40199 81130 333 58002;
0178834980999992010080500004-17733-039250FM-12+000399999V0201801N001512200019N0020001N1+02221+01971102141ADDGA1001+999999999GF100991001001999999001001KA1240M+02681MA1999999102091MD1999999-0041REMSYN082AAXX  05004 83498 32995 01803 10222 20197 30209 40214 333 10268 29080 55/// 59004;
0156834980999992010080512004-17733-039250FM-12+000399999V0202301N001510450019N0020001N1+02201+01971102271ADDGF107991041051008001011001KA1240N+01851MA1999999102221MD1999999+0021REMSYN076AAXX  05124 83498 32595 72303 10220 20197 30222 40227 84510 333 20185 58002;
0137834980999992010080518004-17733-039250FM-12+000399999V0200901N001012200019N0020001N1+02551+02041101931ADDGF102991021011008001001001MA1999999101881MD1999999-0061REMSYN070AAXX  05184 83498 32595 20902 10255 20204 30188 40193 82100 333 59006;
0178834980999992010080600004-17733-039250FM-12+000399999V0209999C000010012019N0020001N1+01941+01821101931ADDGA1091+999999999GF109991091999999999999999KA1240M+02631MA1999999101881MD1999999-0211REMSYN082AAXX  06004 83498 32/95 90000 10194 20182 30188 40193 333 10263 29087 55/// 59021;
0156834980999992010080612004-17733-039250FM-12+000399999V0202701N000512200019N0020001N1+02221+01991101961ADDGF103991031011008001001001KA1240N+01881MA1999999101911MD1999999-0311REMSYN076AAXX  06124 83498 32595 32701 10222 20199 30191 40196 83100 333 20188 59031;
0137834980999992010080618004-17733-039250FM-12+000399999V0200501N003612200019N0020001N1+02741+02071101701ADDGF102991021011008001001001MA1999999101651MD1999999-0231REMSYN070AAXX  06184 83498 32595 20507 10274 20207 30165 40170 82100 333 59023;
0178834980999992010080700004-17733-039250FM-12+000399999V0209999C000012200019N0020001N1+02161+02021101861ADDGA1001+999999999GF100991001001999999001001KA1240M+02791MA1999999101811MD1999999-0071REMSYN082AAXX  07004 83498 32995 00000 10216 20202 30181 40186 333 10279 29084 55/// 59007;
0201834980999992010080712004-17733-039250FM-12+000399999V0201801N004610450019N0020001N1+02361+01911102281ADDAA124002091AY121061AY211061GF107991041051008001011001KA1240N+02001MA1999999102231MD1999999+0321MW1031REMSYN088AAXX  07124 83498 21595 71809 10236 20191 30223 40228 70321 84510 333 20200 58032 60024;
0137834980999992010080718004-17733-039250FM-12+000399999V0201801N001510450019N0020001N1+02401+01911102031ADDGF107991041061008001011001MA1999999101981MD1999999+0331REMSYN070AAXX  07184 83498 32595 71803 10240 20191 30198 40203 84610 333 58033;
0168834980999992010080800004-17733-039250FM-12+000399999V0201401N001012200019N0020001N1+02291+02111102181ADDGF101991011011008001001001KA1240M+02501MA1999999102131MD1999999+0321REMSYN088AAXX  08004 83498 32595 11402 10229 20211 30213 40218 81100 333 10250 29081 55/// 58032;
0156834980999992010080812004-17733-039250FM-12+000399999V0202301N001012200019N0020001N1+02281+02011102261ADDGF101991011011008001001001KA1240N+01741MA1999999102211MD1999999-0021REMSYN076AAXX  08124 83498 32595 12302 10228 20201 30221 40226 81100 333 20174 59002;
0137834980999992010080818004-17733-039250FM-12+000399999V0200901N002612200019N0020001N1+02511+02051101971ADDGF101991011011008001001001MA1999999101921MD1999999-0061REMSYN070AAXX  08184 83498 32595 10905 10251 20205 30192 40197 81100 333 59006;
0178834980999992010080900004-17733-039250FM-12+000399999V0209999C000012200019N0020001N1+01961+01891102131ADDGA1001+999999999GF100991001001999999001001KA1240M+02671MA1999999102081MD1999999-0051REMSYN082AAXX  09004 83498 32995 00000 10196 20189 30208 40213 333 10267 29088 55/// 59005;
0156834980999992010080912004-17733-039250FM-12+000399999V0203201N001012200019N0020001N1+02301+01851102111ADDGF102991021011008001001001KA1240N+01701MA1999999102061MD1999999-0151REMSYN076AAXX  09124 83498 32595 23202 10230 20185 30206 40211 82100 333 20170 59015;
0137834980999992010080918004-17733-039250FM-12+000399999V0200501N001512200019N0020001N1+02741+02211101781ADDGF101991011011008001001001MA1999999101731MD1999999-0191REMSYN070AAXX  09184 83498 32595 10503 10274 20221 30173 40178 81100 333 59019;
0178834980999992010081000004-17733-039250FM-12+000399999V0209999C000012200019N0020001N1+02061+02011101951ADDGA1001+999999999GF100991001001999999001001KA1240M+02871MA1999999101901MD1999999-0181REMSYN082AAXX  10004 83498 32995 00000 10206 20201 30190 40195 333 10287 29086 55/// 59018;
0175834980999992010081012004-17733-039250FM-12+000399999V0201801N002619999999N0020001N1+02541+02071102361ADDGF105991999021008001001001KA1240N+01911MA1999999102311MD1999999+0251REMSYN076AAXX  10124 83498 32595 51805 10254 20207 30231 40236 83200 333 20191 58025;EQDQ01+000032SCOTLC
0137834980999992010081018004-17733-039250FM-12+000399999V0201801N004112200019N0020001N1+02531+02021102181ADDGF104991021021008001011001MA1999999102131MD1999999+0401REMSYN070AAXX  10184 83498 32595 41808 10253 20202 30213 40218 82210 333 58040;
0168834980999992010081100004-17733-039250FM-12+000399999V0201801N002112200019N0020001N1+02361+02091102481ADDGF102991021011008001001001KA1240M+02671MA1999999102431MD1999999+0531REMSYN088AAXX  11004 83498 32595 21804 10236 20209 30243 40248 82100 333 10267 29080 55/// 58053;
0201834980999992010081112004-17733-039250FM-12+000399999V0200901N003110450019N0020001N1+02441+02091102611ADDAA124001091AY121061AY211061GF107991041051008001011001KA1240N+02221MA1999999102561MD1999999+0231MW1031REMSYN088AAXX  11124 83498 21595 70906 10244 20209 30256 40261 70321 84510 333 20222 58023 69994;
0182834980999992010081118004-17733-039250FM-12+000399999V0200901N004110075019N0020001N1+02351+01931102371ADDAA106000591AY121061AY211061GF108991051051008001021999MA1999999102321MD1999999+0191MW1031REMSYN082AAXX  11184 83498 21595 80908 10235 20193 30232 40237 70321 8552/ 333 58019 69941;
0213834980999992010081200004-17733-039250FM-12+000399999V0201401N003110075019N0020001N1+02281+01881102561ADDAA106002091AY161061AY261061GF108991051051008001021999KA1240M+02451MA1999999102511MD1999999+0081MW1211REMSYN100AAXX  12004 83498 21595 81406 10228 20188 30251 40256 72166 8552/ 333 10245 29079 55/// 58008 60021;
0201834980999992010081212004-17733-039250FM-12+000399999V0201401N002112200019N0020001N1+02361+02031102611ADDAA124004191AY161061AY261061GF104991021011008001031001KA1240N+02101MA1999999102561MD1999999+0001MW1211REMSYN088AAXX  12124 83498 21595 41404 10236 20203 30256 40261 72166 82130 333 20210 58000 60044;
0182834980999992010081218004-17733-039250FM-12+000399999V0201401N001510450019N0020001N1+02161+02021102361ADDAA106002091AY161061AY261061GF108991041061008001021999MA1999999102311MD1999999-0011MW1211REMSYN082AAXX  12184 83498 21595 81403 10216 20202 30231 40236 72166 8462/ 333 59001 60021;
0187834980999992010081300004-17733-039250FM-12+000399999V0200901N001012200019N0020001N1+02141+01781102401ADDGF104991999011008001001001KA1240M+02451MA1999999102351MD1999999-0161REMSYN088AAXX  13004 83498 32595 40902 10214 20178 30235 40240 83100 333 10245 29084 55/// 59016;EQDQ01+000032SCOTLC
0173834980999992010081312004-17733-039250FM-12+000399999V0200901N001512200019N0020001N1+02461+01851102441ADDAA124002091GF102991021011008001001001KA1240N+01921MA1999999102391MD1999999-0171REMSYN082AAXX  13124 83498 22595 20903 10246 20185 30239 40244 82100 333 20192 59017 60024;
0137834980999992010081318004-17733-039250FM-12+000399999V0200901N001512200019N0020001N1+02491+01781102171ADDGF104991021011008001031001MA1999999102121MD1999999-0191REMSYN070AAXX  13184 83498 32595 40903 10249 20178 30212 40217 82130 333 59019;
0178834980999992010081400004-17733-039250FM-12+000399999V0209999C000012200019N0020001N1+01841+01661102051ADDGA1001+999999999GF100991001001999999001001KA1240M+02601MA1999999102001MD1999999-0351REMSYN082AAXX  14004 83498 32995 00000 10184 20166 30200 40205 333 10260 29078 55/// 59035;
0156834980999992010081412004-17733-039250FM-12+000399999V0203201N003112200019N0020001N1+02401+01931101951ADDGF101991011011008001001001KA1240N+01571MA1999999101901MD1999999-0491REMSYN076AAXX  14124 83498 32595 13206 10240 20193 30190 40195 81100 333 20157 59049;
0137834980999992010081418004-17733-039250FM-12+000399999V0200501N003112200019N0020001N1+02631+02141101621ADDGF101991011011008001001001MA1999999101571MD1999999-0551REMSYN070AAXX  14184 83498 32595 10506 10263 20214 30157 40162 81100 333 59055;
0168834980999992010081500004-17733-039250FM-12+000399999V0209999C000012200019N0020001N1+02011+01931101891ADDGF104991041051008001001001KA1240M+02711MA1999999101841MD1999999-0161REMSYN088AAXX  15004 83498 32595 40000 10201 20193 30184 40189 84500 333 10271 29085 55/// 59016;
0156834980999992010081512004-17733-039250FM-12+000399999V0202301N001012200019N0020001N1+02161+02041102011ADDGF104991021011008001031001KA1240N+01901MA1999999101961MD1999999+0061REMSYN076AAXX  15124 83498 32595 42302 10216 20204 30196 40201 82130 333 20190 58006;
0137834980999992010081518004-17733-039250FM-12+000399999V0201801N003110450019N0020001N1+02381+02191101671ADDGF108991041051008001011999MA1999999101621MD1999999+0051REMSYN070AAXX  15184 83498 32595 81806 10238 20219 30162 40167 8451/ 333 58005;
0168834980999992010081600004-17733-039250FM-12+000399999V0201801N004610450019N0020001N1+02181+02041101881ADDGF106991031051008001011001KA1240M+02581MA1999999101831MD1999999-0011REMSYN088AAXX  16004 83498 32595 61809 10218 20204 30183 40188 83510 333 10258 29092 55/// 59001;
0201834980999992010081612004-17733-039250FM-12+000399999V0202701N005710450019N0020001N1+01891+01781102321ADDAA124003091AY161061AY261061GF108991041071008001021999KA1240N+01881MA1999999102271MD1999999+0311MW1611REMSYN088AAXX  16124 83498 21595 82711 10189 20178 30227 40232 76166 8472/ 333 20188 58031 60034;
0182834980999992010081618004-17733-039250FM-12+000399999V0202701N002610450019N0020001N1+01911+01801102261ADDAA106009991AY161061AY261061GF108991041071008001021999MA1999999102211MD1999999+0591MW1611REMSYN082AAXX  16184 83498 21595 82705 10191 20180 30221 40226 76166 8472/ 333 58059 60101;
0213834980999992010081700004-17733-039250FM-12+000399999V0201801N002110450019N0020001N1+01941+01721102491ADDAA106003091AY161061AY261061GF108991041071008001021999KA1240M+02221MA1999999102441MD1999999+0611MW1601REMSYN100AAXX  17004 83498 21595 81804 10194 20172 30244 40249 76066 8472/ 333 10222 29091 55/// 58061 60031;
0201834980999992010081712004-17733-039250FM-12+000399999V0201801N002110450019N0020001N1+02081+01781102591ADDAA124024991AY121061AY211061GF106991041051008001041001KA1240N+01671MA1999999102541MD1999999+0271MW1031REMSYN088AAXX  17124 83498 21595 61804 10208 20178 30254 40259 70321 84540 333 20167 58027 60254;
0137834980999992010081718004-17733-039250FM-12+000399999V0201801N007710450019N0020001N1+02201+01761102361ADDGF106991041051008001041001MA1999999102311MD1999999+0101REMSYN070AAXX  17184 83498 32595 61815 10220 20176 30231 40236 84540 333 58010;
0168834980999992010081800004-17733-039250FM-12+000399999V0201801N005110450019N0020001N1+02121+01721102571ADDGF106991041051008001011001KA1240M+02311MA1999999102521MD1999999+0081REMSYN088AAXX  18004 83498 32595 61810 10212 20172 30252 40257 84510 333 10231 29079 55/// 58008;
0201834980999992010081812004-17733-039250FM-12+000399999V0202301N001510450019N0020001N1+01701+01651102631ADDAA124006191AY161061AY221061GF106991031061008001031001KA1240N+01581MA1999999102581MD1999999+0041MW1611REMSYN088AAXX  18124 83498 21595 62303 10170 20165 30258 40263 76162 83630 333 20158 58004 60064;
0182834980999992010081818004-17733-039250FM-12+000399999V0201401N002110450019N0020001N1+02301+01701102411ADDAA106003091AY161061AY261061GF108991041071008001021999MA1999999102361MD1999999+0051MW1211REMSYN082AAXX  18184 83498 21595 81404 10230 20170 30236 40241 72166 8472/ 333 58005 60031;
0168834980999992010081900004-17733-039250FM-12+000399999V0201401N003112200019N0020001N1+02081+01581102451ADDGF103991031051008001001001KA1240M+02361MA1999999102401MD1999999-0121REMSYN088AAXX  19004 83498 32595 31406 10208 20158 30240 40245 83500 333 10236 29078 55/// 59012;
0201834980999992010081912004-17733-039250FM-12+000399999V0201801N003111050019N0020001N1+02241+01601102461ADDAA124005191AY121061AY211061GF105991011011008001001021KA1240N+01691MA1999999102411MD1999999-0221MW1031REMSYN088AAXX  19124 83498 21595 51806 10224 20160 30241 40246 70321 81102 333 20169 59022 60054;
0182834980999992010081918004-17733-039250FM-12+000399999V0201401N005110450019N0020001N1+02041+01851102251ADDAA106002091AY161061AY211061GF108991041071008001021999MA1999999102201MD1999999-0161MW1211REMSYN082AAXX  19184 83498 21595 81410 10204 20185 30220 40225 72161 8472/ 333 59016 60021;
0213834980999992010082000004-17733-039250FM-12+000399999V0209999C000010450019N0020001N1+01971+01761102311ADDAA106003091AY161061AY261061GF108991041071008001021999KA1240M+02311MA1999999102261MD1999999-0141MW1211REMSYN100AAXX  20004 83498 21595 80000 10197 20176 30226 40231 72166 8472/ 333 10231 29083 55/// 59014 60031;
0201834980999992010082012004-17733-039250FM-12+000399999V0201801N001010450019N0020001N1+02201+01881102351ADDAA124007191AY121061AY211061GF107991041051008001011001KA1240N+01771MA1999999102301MD1999999-0111MW1031REMSYN088AAXX  20124 83498 21595 71802 10220 20188 30230 40235 70321 84510 333 20177 59011 60074;
0137834980999992010082018004-17733-039250FM-12+000399999V0201801N001510450019N0020001N1+02301+01721102071ADDGF106991031051008001011001MA1999999102021MD1999999-0181REMSYN070AAXX  20184 83498 32595 61803 10230 20172 30202 40207 83510 333 59018;
0168834980999992010082100004-17733-039250FM-12+000399999V0209999C000012200019N0020001N1+01881+01731102251ADDGF103991031001008001031001KA1240M+02491MA1999999102201MD1999999-0061REMSYN088AAXX  21004 83498 32595 30000 10188 20173 30220 40225 83030 333 10249 29083 55/// 59006;
0156834980999992010082112004-17733-039250FM-12+000399999V0202301N000512200019N0020001N1+02121+01911102361ADDGF102991021011008001001001KA1240N+01591MA1999999102311MD1999999+0011REMSYN076AAXX  21124 83498 32595 22301 10212 20191 30231 40236 82100 333 20159 58001;
0137834980999992010082118004-17733-039250FM-12+000399999V0201401N003112200019N0020001N1+02481+01961102131ADDGF104991021011008001001011MA1999999102081MD1999999+0061REMSYN070AAXX  21184 83498 32595 41406 10248 20196 30208 40213 82101 333 58006;
0168834980999992010082200004-17733-039250FM-12+000399999V0200901N001012200019N0020001N1+02021+01851102331ADDGF101991011011008001001001KA1240M+02551MA1999999102281MD1999999+0081REMSYN088AAXX  22004 83498 32595 10902 10202 20185 30228 40233 81100 333 10255 29085 55/// 58008;
0156834980999992010082212004-17733-039250FM-12+000399999V0202701N001010450019N0020001N1+02061+01911102511ADDGF106991031051008001011001KA1240N+01751MA1999999102461MD1999999+0151REMSYN076AAXX  22124 83498 32595 62702 10206 20191 30246 40251 83510 333 20175 58015;
0137834980999992010082218004-17733-039250FM-12+000399999V0201801N001512200019N0020001N1+02491+01871102311ADDGF102991021011008001001011MA1999999102161MD1999999+0081REMSYN070AAXX  22184 83498 32595 21803 10249 20187 30216 40231 82101 333 58008;
0168834980999992010082300004-17733-039250FM-12+000399999V0201801N001012200019N0020001N1+02131+01781102411ADDGF103991031001008001031001KA1240M+02571MA1999999102361MD1999999+0081REMSYN088AAXX  23004 83498 32595 31802 10213 20178 30236 40241 83030 333 10257 29081 55/// 58008;
0156834980999992010082312004-17733-039250FM-12+000399999V0200901N001510450019N0020001N1+02361+01951102361ADDGF105991031021008001041001KA1240N+01881MA1999999102311MD1999999-0151REMSYN076AAXX  23124 83498 32595 50903 10236 20195 30231 40236 83240 333 20188 59015;
0137834980999992010082318004-17733-039250FM-12+000399999V0200901N003612200019N0020001N1+02461+01971102051ADDGF102991021021008001001001MA1999999102001MD1999999-0161REMSYN070AAXX  23184 83498 32595 20907 10246 20197 30200 40205 82200 333 59016;
0168834980999992010082400004-17733-039250FM-12+000399999V0200901N001512200019N0020001N1+02121+01781102221ADDGF102991021011008001001001KA1240M+02571MA1999999102171MD1999999-0191REMSYN088AAXX  24004 83498 32595 20903 10212 20178 30217 40222 82100 333 10257 29078 55/// 59019;
0201834980999992010082412004-17733-039250FM-12+000399999V0202301N000510450019N0020001N1+02101+01871102201ADDAA124000591AY161061AY221061GF107991041051008001031001KA1240N+01871MA1999999102151MD1999999-0161MW1601REMSYN088AAXX  24124 83498 21595 72301 10210 20187 30215 40220 76062 84530 333 20187 59016 69964;
0137834980999992010082418004-17733-039250FM-12+000399999V0200901N003610450019N0020001N1+02521+02091102021ADDGF106991021011008001031011MA1999999101971MD1999999-0031REMSYN070AAXX  24184 83498 32595 60907 10252 20209 30197 40202 82131 333 59003;
0168834980999992010082500004-17733-039250FM-12+000399999V0200901N001012200019N0020001N1+02141+02061102151ADDGF103991031011008001001001KA1240M+02661MA1999999102101MD1999999-0071REMSYN088AAXX  25004 83498 32595 30902 10214 20206 30210 40215 83100 333 10266 29091 55/// 59007;
0156834980999992010082512004-17733-039250FM-12+000399999V0200901N002610450019N0020001N1+02501+01941102221ADDGF107991041051008001011001KA1240N+01971MA1999999102171MD1999999+0021REMSYN076AAXX  25124 83498 32595 70905 10250 20194 30217 40222 84510 333 20197 58002;
0137834980999992010082518004-17733-039250FM-12+000399999V0200901N002612200019N0020001N1+02671+01871102021ADDGF101991011011008001001001MA1999999101971MD1999999-0031REMSYN070AAXX  25184 83498 32595 10905 10267 20187 30197 40202 81100 333 59003;
0168834980999992010082600004-17733-039250FM-12+000399999V0200901N001512200019N0020001N1+02081+01891102131ADDGF101991011011008001001001KA1240M+02761MA1999999102081MD1999999-0021REMSYN088AAXX  26004 83498 32595 10903 10208 20189 30208 40213 81100 333 10276 29078 55/// 59002;
0201834980999992010082612004-17733-039250FM-12+000399999V0203601N003110075019N0020001N1+02141+02061102241ADDAA124000591AY161061AY261061GF107991051061008001011001KA1240N+01821MA1999999102191MD1999999+0021MW1601REMSYN088AAXX  26124 83498 21595 73606 10214 20206 30219 40224 76066 85610 333 20182 58002 69964;
0137834980999992010082618004-17733-039250FM-12+000399999V0200501N003112200019N0020001N1+02631+02101101851ADDGF102991021011008001001001MA1999999101801MD1999999-0141REMSYN070AAXX  26184 83498 32595 20506 10263 20210 30180 40185 82100 333 59014;
0168834980999992010082700004-17733-039250FM-12+000399999V0209999C000012200019N0020001N1+02161+02021101991ADDGF102991021011008001001001KA1240M+02691MA1999999101941MD1999999-0141REMSYN088AAXX  27004 83498 32595 20000 10216 20202 30194 40199 82100 333 10269 29090 55/// 59014;
0201834980999992010082712004-17733-039250FM-12+000399999V0202701N001510450019N0020001N1+02261+02121102131ADDAA124000591AY161061AY221061GF107991041051008001011001KA1240N+01841MA1999999102081MD1999999-0111MW1611REMSYN088AAXX  27124 83498 21595 72703 10226 20212 30208 40213 76162 84510 333 20184 59011 69944;
0137834980999992010082718004-17733-039250FM-12+000399999V0200501N003612200019N0020001N1+02641+02121101771ADDGF103991031011008001001001MA1999999101721MD1999999-0081REMSYN070AAXX  27184 83498 32595 30507 10264 20212 30172 40177 83100 333 59008;
0168834980999992010082800004-17733-039250FM-12+000399999V0200501N001012200019N0020001N1+02121+02001101871ADDGF101991011011008001001001KA1240M+02831MA1999999101821MD1999999-0121REMSYN088AAXX  28004 83498 32595 10502 10212 20200 30182 40187 81100 333 10283 29088 55/// 59012;
0156834980999992010082812004-17733-039250FM-12+000399999V0209999C000010450019N0020001N1+02281+02111102001ADDGF106991031021008001051001KA1240N+01921MA1999999101951MD1999999-0131REMSYN076AAXX  28124 83498 32595 60000 10228 20211 30195 40200 83250 333 20192 59013;
0137834980999992010082818004-17733-039250FM-12+000399999V0200901N003110450019N0020001N1+02611+01941101761ADDGF106991031051008001011001MA1999999101711MD1999999-0011REMSYN070AAXX  28184 83498 32595 60906 10261 20194 30171 40176 83510 333 59001;
0178834980999992010082900004-17733-039250FM-12+000399999V0200901N001012200019N0020001N1+02161+02011101971ADDGA1001+999999999GF100991001001999999001001KA1240M+02731MA1999999101921MD1999999+0101REMSYN082AAXX  29004 83498 32995 00902 10216 20201 30192 40197 333 10273 29085 55/// 58010;
0156834980999992010082912004-17733-039250FM-12+000399999V0200501N001512200019N0020001N1+02531+02091102091ADDGF103991031021008001001001KA1240N+01901MA1999999102041MD1999999+0091REMSYN076AAXX  29124 83498 32595 30503 10253 20209 30204 40209 83200 333 20190 58009;
0137834980999992010082918004-17733-039250FM-12+000399999V0200901N004610450019N0020001N1+02611+02251101881ADDGF105991021021008001031001MA1999999101831MD1999999+0121REMSYN070AAXX  29184 83498 32595 50909 10261 20225 30183 40188 82230 333 58012;
0178834980999992010083000004-17733-039250FM-12+000399999V0200901N001512200019N0020001N1+02221+01961102081ADDGA1001+999999999GF100991001001999999001001KA1240M+02611MA1999999102031MD1999999+0111REMSYN082AAXX  30004 83498 32995 00903 10222 20196 30203 40208 333 10261 29082 55/// 58011;
0156834980999992010083012004-17733-039250FM-12+000399999V0200901N003110450019N0020001N1+02441+02091102191ADDGF107991031051008001031001KA1240N+01871MA1999999102141MD1999999+0101REMSYN076AAXX  30124 83498 32595 70906 10244 20209 30214 40219 83530 333 20187 58010;
0137834980999992010083018004-17733-039250FM-12+000399999V0201401N003610450019N0020001N1+02601+02231101971ADDGF107991031021008001051001MA1999999101921MD1999999+0091REMSYN070AAXX  30184 83498 32595 71407 10260 20223 30192 40197 83250 333 58009;
0168834980999992010083100004-17733-039250FM-12+000399999V0200901N001012200019N0020001N1+02241+02101102161ADDGF102991021011008001001001KA1240M+02631MA1999999102111MD1999999+0081REMSYN088AAXX  31004 83498 32595 20902 10224 20210 30211 40216 82100 333 10263 29086 55/// 58008;
0156834980999992010083112004-17733-039250FM-12+000399999V0201401N002612200019N0020001N1+02591+02121102361ADDGF104991021021008001011001KA1240N+02161MA1999999102311MD1999999+0171REMSYN076AAXX  31124 83498 32595 41405 10259 20212 30231 40236 82210 333 20216 58017;
0137834980999992010083118004-17733-039250FM-12+000399999V0201401N003112200019N0020001N1+02631+01961102141ADDGF103991031011008001001001MA1999999102091MD1999999+0171REMSYN070AAXX  31184 83498 32595 31406 10263 20196 30209 40214 83100 333 58017;
0168834980999992010090100004-17733-039250FM-12+000399999V0201401N003112200019N0020001N1+02311+01901102331ADDGF101991011011008001001001KA1240M+02731MA1999999102281MD1999999+0171REMSYN088AAXX  01004 83498 32595 11406 10231 20190 30228 40233 81100 333 10273 29075 55/// 58017;
0220834980999992010090112004-17733-039250FM-12+000399999V0200901N004110450019N0020001N1+02531+02231102411ADDAA124000091AY121061AY211061GF105991031051008001041001KA1240N+02221MA1999999102361MD1999999+0051MW1031REMSYN088AAXX  01124 83498 21595 50908 10253 20223 30236 40241 70321 83540 333 20222 58005 69924;EQDQ01  00002PRCP24
0137834980999992010090118004-17733-039250FM-12+000399999V0200901N003112200019N0020001N1+02531+02021102181ADDGF103991011011008001041001MA1999999102131MD1999999+0041REMSYN070AAXX  01184 83498 32595 30906 10253 20202 30213 40218 81140 333 58004;
0168834980999992010090200004-17733-039250FM-12+000399999V0200901N002112200019N0020001N1+02261+01941102341ADDGF102991021011008001001001KA1240M+02651MA1999999102291MD1999999+0011REMSYN088AAXX  02004 83498 32595 20904 10226 20194 30229 40234 82100 333 10265 29080 55/// 58001;
0156834980999992010090212004-17733-039250FM-12+000399999V0200901N003612200019N0020001N1+02541+02111102421ADDGF103991031011008001001001KA1240N+02091MA1999999102371MD1999999-0011REMSYN076AAXX  02124 83498 32595 30907 10254 20211 30237 40242 83100 333 20209 59001;
0137834980999992010090218004-17733-039250FM-12+000399999V0201401N004110450019N0020001N1+02561+02111102141ADDGF107991031011008001031001MA1999999102091MD1999999-0041REMSYN070AAXX  02184 83498 32595 71408 10256 20211 30209 40214 83130 333 59004;
0168834980999992010090300004-17733-039250FM-12+000399999V0200901N001012200019N0020001N1+02161+01951102321ADDGF102991021011008001001001KA1240M+02711MA1999999102271MD1999999-0021REMSYN088AAXX  03004 83498 32595 20902 10216 20195 30227 40232 82100 333 10271 29082 55/// 59002;
0156834980999992010090312004-17733-039250FM-12+000399999V0209999C000010075019N0020001N1+02361+01971102241ADDGF107991051051008001011001KA1240N+01791MA1999999102291MD1999999-0081REMSYN076AAXX  03124 83498 32595 70000 10236 20197 30229 40224 85510 333 20179 59008;
0137834980999992010090318004-17733-039250FM-12+000399999V0200901N002612200019N0020001N1+02581+02121101951ADDGF101991011011008001001001MA1999999101901MD1999999-0191REMSYN070AAXX  03184 83498 32595 10905 10258 20212 30190 40195 81100 333 59019;
0178834980999992010090400004-17733-039250FM-12+000399999V0209999C000012200019N0020001N1+01951+01721102191ADDGA1001+999999999GF100991001001999999001001KA1240M+02631MA1999999102141MD1999999-0131REMSYN082AAXX  04004 83498 32995 00000 10195 20172 30214 40219 333 10263 29082 55/// 59013;
0156834980999992010090412004-17733-039250FM-12+000399999V0202301N001510450019N0020001N1+02321+01871102211ADDGF106991031051008001051001KA1240N+01751MA1999999102161MD1999999-0131REMSYN076AAXX  04124 83498 32595 62303 10232 20187 30216 40221 83550 333 20175 59013;
0137834980999992010090418004-17733-039250FM-12+000399999V0200901N004112200019N0020001N1+02651+01831101801ADDGF102991021011008001001001MA1999999101751MD1999999-0151REMSYN070AAXX  04184 83498 32595 20908 10265 20183 30175 40180 82100 333 59015;
0178834980999992010090500004-17733-039250FM-12+000399999V0200901N001012200019N0020001N1+02061+01801102001ADDGA1001+999999999GF100991001001999999001001KA1240M+02791MA1999999101951MD1999999-0191REMSYN082AAXX  05004 83498 32995 00902 10206 20180 30195 40200 333 10279 29077 55/// 59019;
0156834980999992010090512004-17733-039250FM-12+000399999V0203601N001512200019N0020001N1+02421+01991101951ADDGF102991021011008001001001KA1240N+01771MA1999999101901MD1999999-0261REMSYN076AAXX  05124 83498 32595 23603 10242 20199 30190 40195 82100 333 20177 59026;
0137834980999992010090518004-17733-039250FM-12+000399999V0200901N003612200019N0020001N1+02661+02091101641ADDGF103991011011008001001091MA1999999101591MD1999999-0151REMSYN070AAXX  05184 83498 32595 30907 10266 20209 30159 40164 81109 333 59015;
0168834980999992010090600004-17733-039250FM-12+000399999V0200901N001012200019N0020001N1+02201+02061101961ADDGF101991011011008001001001KA1240M+02771MA1999999101911MD1999999-0041REMSYN088AAXX  06004 83498 32595 10902 10220 20206 30191 40196 81100 333 10277 29083 55/// 59004;
0156834980999992010090612004-17733-039250FM-12+000399999V0201801N000510450019N0020001N1+02511+02031102431ADDGF106991031061008001011001KA1240N+01901MA1999999102381MD1999999+0481REMSYN076AAXX  06124 83498 32595 61801 10251 20203 30238 40243 83610 333 20190 58048;
0137834980999992010090618004-17733-039250FM-12+000399999V0201801N001510450019N0020001N1+02631+02031102161ADDGF106991031031008001011001MA1999999102111MD1999999+0521REMSYN070AAXX  06184 83498 32595 61803 10263 20203 30211 40216 83310 333 58052;
0168834980999992010090700004-17733-039250FM-12+000399999V0209999C000012200019N0020001N1+02321+02151102361ADDGF103991031011008001001001KA1240M+02751MA1999999102311MD1999999+0401REMSYN088AAXX  07004 83498 32595 30000 10232 20215 30231 40236 83100 333 10275 29082 55/// 58040;
0156834980999992010090712004-17733-039250FM-12+000399999V0201401N001512200019N0020001N1+02511+02071102341ADDGF103991031011008001001001KA1240N+02041MA1999999102291MD1999999-0091REMSYN076AAXX  07124 83498 32595 31403 10251 20207 30229 40234 83100 333 20204 59009;
0137834980999992010090718004-17733-039250FM-12+000399999V0201401N003112200019N0020001N1+02631+02031101951ADDGF104991011011008001041001MA1999999101901MD1999999-0211REMSYN070AAXX  07184 83498 32595 41406 10263 20203 30190 40195 81140 333 59021;
0178834980999992010090800004-17733-039250FM-12+000399999V0201401N001512200019N0020001N1+02261+01981102061ADDGA1001+999999999GF100991001001999999001001KA1240M+02691MA1999999102011MD1999999-0301REMSYN082AAXX  08004 83498 32995 01403 10226 20198 30201 40206 333 10269 29079 55/// 59030;
0201834980999992010090812004-17733-039250FM-12+000399999V0203601N001510450019N0020001N1+02321+02161102071ADDAA124004191AY161061AY221061GF108991031051008001041999KA1240N+02131MA1999999102021MD1999999-0271MW1211REMSYN088AAXX  08124 83498 21595 83603 10232 20216 30202 40207 72162 8354/ 333 20213 59027 60044;
0182834980999992010090818004-17733-039250FM-12+000399999V0200901N001010450019N0020001N1+02241+02211101731ADDAA106007191AY161061AY261061GF108991041061008001021999MA1999999101681MD1999999-0221MW1621REMSYN082AAXX  08184 83498 21595 80902 10224 20221 30168 40173 76266 8462/ 333 59022 60071;
0168834980999992010090900004-17733-039250FM-12+000399999V0200501N000512200019N0020001N1+02121+02091101871ADDGF102991021051008001001001KA1240M+02461MA1999999101821MD1999999-0191REMSYN088AAXX  09004 83498 32595 20501 10212 20209 30182 40187 82500 333 10246 29096 55/// 59019;
0201834980999992010090912004-17733-039250FM-12+000399999V0201401N003110450019N0020001N1+02391+01951102211ADDAA124008991AY121061AY211061GF108991041061008001021999KA1240N+02071MA1999999102161MD1999999+0141MW1031REMSYN088AAXX  09124 83498 21595 81406 10239 20195 30216 40221 70321 8462/ 333 20207 58014 60094;
0137834980999992010090918004-17733-039250FM-12+000399999V0201801N006210450019N0020001N1+02471+01831102101ADDGF106991031021008001011001MA1999999102051MD1999999+0371REMSYN070AAXX  09184 83498 32595 61812 10247 20183 30205 40210 83210 333 58037;
0168834980999992010091000004-17733-039250FM-12+000399999V0201801N003112200019N0020001N1+02311+01831102351ADDGF101991011011008001001001KA1240M+02511MA1999999102301MD1999999+0481REMSYN088AAXX  10004 83498 32595 11806 10231 20183 30230 40235 81100 333 10251 29074 55/// 58048;
0156834980999992010091012004-17733-039250FM-12+000399999V0201401N004112200019N0020001N1+02461+01811102491ADDGF104991041021008001001001KA1240N+02251MA1999999102441MD1999999+0281REMSYN076AAXX  10124 83498 32595 41408 10246 20181 30244 40249 84200 333 20225 58028;
0137834980999992010091018004-17733-039250FM-12+000399999V0201401N004110450019N0020001N1+02421+01751102281ADDGF106991041021008001021001MA1999999102231MD1999999+0101REMSYN070AAXX  10184 83498 32595 61408 10242 20175 30223 40228 84220 333 58010;
0168834980999992010091100004-17733-039250FM-12+000399999V0201401N002612200019N0020001N1+02261+01691102461ADDGF102991021011008001001001KA1240M+02551MA1999999102411MD1999999+0111REMSYN088AAXX  11004 83498 32595 21405 10226 20169 30241 40246 82100 333 10255 29068 55/// 58011;
0156834980999992010091112004-17733-039250FM-12+000399999V0201401N003610450019N0020001N1+02401+01631102431ADDGF106991031011008001041001KA1240N+02121MA1999999102381MD1999999-0061REMSYN076AAXX  11124 83498 32595 61407 10240 20163 30238 40243 83140 333 20212 59006;
0137834980999992010091118004-17733-039250FM-12+000399999V0201401N001512200019N0020001N1+02361+01871102201ADDGF104991041021008001001001MA1999999102151MD1999999-0081REMSYN070AAXX  11184 83498 32595 41403 10236 20187 30215 40220 84200 333 59008;
0168834980999992010091200004-17733-039250FM-12+000399999V0201401N001010450019N0020001N1+02161+01861102231ADDGF105991031021008001041001KA1240M+02541MA1999999102181MD1999999-0231REMSYN088AAXX  12004 83498 32595 51402 10216 20186 30218 40223 83240 333 10254 29075 55/// 59023;
0201834980999992010091212004-17733-039250FM-12+000399999V0201401N004610450019N0020001N1+02431+01651102261ADDAA124005191AY121061AY211061GF106991031051008001011001KA1240N+01961MA1999999102211MD1999999-0171MW1031REMSYN088AAXX  12124 83498 21595 61409 10243 20165 30221 40226 70321 83510 333 20196 59017 60054;
0137834980999992010091218004-17733-039250FM-12+000399999V0201401N001512200019N0020001N1+02551+01761102001ADDGF102991021011008001001001MA1999999101951MD1999999-0201REMSYN070AAXX  12184 83498 32595 21403 10255 20176 30195 40200 82100 333 59020;
0168834980999992010091300004-17733-039250FM-12+000399999V0209999C000012200019N0020001N1+01911+01271102151ADDGF101991011011008001001001KA1240M+02581MA1999999102101MD1999999-0081REMSYN088AAXX  13004 83498 32595 10000 10191 20127 30210 40215 81100 333 10258 29075 55/// 59008;
0201834980999992010091312004-17733-039250FM-12+000399999V0200901N004110450019N0020001N1+02501+01801102221ADDAA124002091AY161061AY261061GF106991041021008001041001KA1240N+01941MA1999999102171MD1999999-0061MW1211REMSYN088AAXX  13124 83498 21595 60908 10250 20180 30217 40222 72166 84240 333 20194 59006 60024;
0137834980999992010091318004-17733-039250FM-12+000399999V0200901N004112200019N0020001N1+02561+01801101941ADDGF102991021011008001001001MA1999999101891MD1999999-0061REMSYN070AAXX  13184 83498 32595 20908 10256 20180 30189 40194 82100 333 59006;
0168834980999992010091400004-17733-039250FM-12+000399999V0200901N002612200019N0020001N1+02301+01831102171ADDGF103991031021008001001001KA1240M+02671MA1999999102121MD1999999+0021REMSYN088AAXX  14004 83498 32595 30905 10230 20183 30212 40217 83200 333 10267 29069 55/// 58002;
0156834980999992010091412004-17733-039250FM-12+000399999V0202301N000510450019N0020001N1+02281+02001102311ADDGF105991031051008001031001KA1240N+01961MA1999999102261MD1999999+0111REMSYN076AAXX  14124 83498 32595 52301 10228 20200 30226 40231 83530 333 20196 58011;
0137834980999992010091418004-17733-039250FM-12+000399999V0201401N004610450019N0020001N1+02521+02071101961ADDGF106991031021008001031001MA1999999101911MD1999999+0021REMSYN070AAXX  14184 83498 32595 61409 10252 20207 30191 40196 83230 333 58002;
0168834980999992010091500004-17733-039250FM-12+000399999V0201401N000512200019N0020001N1+02121+02041102121ADDGF104991021011008001001021KA1240M+02641MA1999999102071MD1999999-0051REMSYN088AAXX  15004 83498 32595 41401 10212 20204 30207 40212 82102 333 10264 29088 55/// 59005;
0156834980999992010091512004-17733-039250FM-12+000399999V0200901N001010450019N0020001N1+02331+01911102001ADDGF106991031051008001021001KA1240N+01761MA1999999101951MD1999999-0311REMSYN076AAXX  15124 83498 32595 60902 10233 20191 30195 40200 83520 333 20176 59031;
0137834980999992010091518004-17733-039250FM-12+000399999V0200901N002610450019N0020001N1+02581+02211101771ADDGF106991031051008001011001MA1999999101721MD1999999-0211REMSYN070AAXX  15184 83498 32595 60905 10258 20221 30172 40177 83510 333 59021;
0187834980999992010091600004-17733-039250FM-12+000399999V0200901N003112200019N0020001N1+02301+02111101821ADDGF104991999001008001031001KA1240M+02721MA1999999101771MD1999999-0301REMSYN088AAXX  16004 83498 32595 40906 10230 20211 30177 40182 82030 333 10272 29084 55/// 59030;EQDQ01+000022SCOTLC
0156834980999992010091612004-17733-039250FM-12+000399999V0200901N004112200019N0020001N1+02611+02031101941ADDGF104991041021008001001001KA1240N+02171MA1999999101891MD1999999-0061REMSYN076AAXX  16124 83498 32595 40908 10261 20203 30189 40194 84200 333 20217 59006;
0137834980999992010091618004-17733-039250FM-12+000399999V0200901N003612200019N0020001N1+02651+02181101681ADDGF102991021011008001001001MA1999999101631MD1999999-0091REMSYN070AAXX  16184 83498 32595 20907 10265 20218 30163 40168 82100 333 59009;
0178834980999992010091700004-17733-039250FM-12+000399999V0200901N001012200019N0020001N1+02201+01951101841ADDGA1001+999999999GF100991001001999999001001KA1240M+02741MA1999999101791MD1999999+0021REMSYN082AAXX  17004 83498 32995 00902 10220 20195 30179 40184 333 10274 29080 55/// 58002;
0156834980999992010091712004-17733-039250FM-12+000399999V0200901N001010450019N0020001N1+02321+02151102021ADDGF108991041061008001021999KA1240N+01861MA1999999101971MD1999999+0081REMSYN076AAXX  17124 83498 32595 80902 10232 20215 30197 40202 8462/ 333 20186 58008;
0182834980999992010091718004-17733-039250FM-12+000399999V0200901N002610450019N0020001N1+02621+02181101741ADDAA106001091AY161061AY221061GF106991031011008001041001MA1999999101691MD1999999+0061MW1211REMSYN082AAXX  17184 83498 21595 60905 10262 20218 30169 40174 72162 83140 333 58006 60011;
0168834980999992010091800004-17733-039250FM-12+000399999V0200901N001012200019N0020001N1+02241+02121101921ADDGF102991021011008001001001KA1240M+02691MA1999999101871MD1999999+0081REMSYN088AAXX  18004 83498 32595 20902 10224 20212 30187 40192 82100 333 10269 29088 55/// 58008;
0173834980999992010091812004-17733-039250FM-12+000399999V0203601N003110450019N0020001N1+02531+02001102031ADDAA124001091GF106991031051008001011001KA1240N+02011MA1999999101981MD1999999+0011REMSYN082AAXX  18124 83498 22595 63606 10253 20200 30198 40203 83510 333 20201 58001 60014;
0137834980999992010091818004-17733-039250FM-12+000399999V0200901N002612200019N0020001N1+02731+02151101741ADDGF101991011011008001001001MA1999999101691MD1999999+0001REMSYN070AAXX  18184 83498 32595 10905 10273 20215 30169 40174 81100 333 58000;
0178834980999992010091900004-17733-039250FM-12+000399999V0209999C000012200019N0020001N1+02221+02071102061ADDGA1001+999999999GF100991001001999999001001KA1240M+02831MA1999999102011MD1999999+0141REMSYN082AAXX  19004 83498 32995 00000 10222 20207 30201 40206 333 10283 29082 55/// 58014;
0156834980999992010091912004-17733-039250FM-12+000399999V0201401N002110450019N0020001N1+02571+02191102251ADDGF106991041051008001041001KA1240N+02071MA1999999102201MD1999999+0221REMSYN076AAXX  19124 83498 32595 61404 10257 20219 30220 40225 84540 333 20207 58022;
0137834980999992010091918004-17733-039250FM-12+000399999V0201801N004110450019N0020001N1+02481+02231102001ADDGF107991041051008001011001MA1999999101951MD1999999+0261REMSYN070AAXX  19184 83498 32595 71808 10248 20223 30195 40200 84510 333 58026;
0213834980999992010092000004-17733-039250FM-12+000399999V0201801N004610450019N0020001N1+02281+02161102251ADDAA106014091AY161061AY261061GF108991031071008001021999KA1240M+02671MA1999999102201MD1999999+0191MW1611REMSYN100AAXX  20004 83498 21595 81809 10228 20216 30220 40225 76166 8372/ 333 10267 29088 55/// 58019 60141;
0201834980999992010092012004-17733-039250FM-12+000399999V0203601N001510450019N0020001N1+02201+02151102221ADDAA124042991AY161061AY261061GF108991041071008001021999KA1240N+02121MA1999999102171MD1999999-0031MW1621REMSYN088AAXX  20124 83498 21595 83603 10220 20215 30217 40222 76266 8472/ 333 20212 59003 60434;
0182834980999992010092018004-17733-039250FM-12+000399999V0200901N001510450019N0020001N1+02361+02191101901ADDAA106001091AY161061AY261061GF107991031061008001011021MA1999999101851MD1999999-0101MW1611REMSYN082AAXX  20184 83498 21595 70903 10236 20219 30185 40190 76166 83612 333 59010 60011;
0168834980999992010092100004-17733-039250FM-12+000399999V0200901N001010450019N0020001N1+02221+02121102061ADDGF108991041051008001011999KA1240M+02591MA1999999102011MD1999999-0191REMSYN088AAXX  21004 83498 32595 80902 10222 20212 30201 40206 8451/ 333 10259 29094 55/// 59019;
0201834980999992010092112004-17733-039250FM-12+000399999V0201401N001510450019N0020001N1+02351+02151102151ADDAA124016091AY121061AY211061GF108991041051008001011999KA1240N+02141MA1999999102101MD1999999-0071MW1031REMSYN088AAXX  21124 83498 21595 81403 10235 20215 30210 40215 70321 8451/ 333 20214 59007 60164;
0182834980999992010092118004-17733-039250FM-12+000399999V0200901N002610450019N0020001N1+02541+02211101861ADDAA106006191AY121061AY211061GF107991031061008001011001MA1999999101811MD1999999-0041MW1031REMSYN082AAXX  21184 83498 21595 70905 10254 20221 30181 40186 70321 83610 333 59004 60061;
0223834980999992010092200004-17733-039250FM-12+000399999V0209999C000012200019N0020001N1+02011+01951102051ADDAA106001091AY121061AY211061GA1001+999999999GF100991001001999999001001KA1240M+02581MA1999999102001MD1999999-0011MW1011REMSYN094AAXX  22004 83498 21995 00000 10201 20195 30200 40205 70121 333 10258 29092 55/// 59001 60011;
0173834980999992010092212004-17733-039250FM-12+000399999V0200501N003110450019N0020001N1+02551+02021102171ADDAA124007191GF105991041021008001041001KA1240N+01821MA1999999102121MD1999999+0021REMSYN082AAXX  22124 83498 22595 50506 10255 20202 30212 40217 84240 333 20182 58002 60074;
0137834980999992010092218004-17733-039250FM-12+000399999V0200501N003112200019N0020001N1+02591+02171101821ADDGF104991041021008001001001MA1999999101771MD1999999-0041REMSYN070AAXX  22184 83498 32595 40506 10259 20217 30177 40182 84200 333 59004;
0178834980999992010092300004-17733-039250FM-12+000399999V0200501N001012200019N0020001N1+02201+02061102021ADDGA1001+999999999GF100991001001999999001001KA1240M+02711MA1999999101971MD1999999-0031REMSYN082AAXX  23004 83498 32995 00502 10220 20206 30197 40202 333 10271 29084 55/// 59003;
0156834980999992010092312004-17733-039250FM-12+000399999V0200501N003110450019N0020001N1+02541+02061102111ADDGF106991041021008001031001KA1240N+01841MA1999999102061MD1999999-0081REMSYN076AAXX  23124 83498 32595 60506 10254 20206 30206 40211 84230 333 20184 59008;
0137834980999992010092318004-17733-039250FM-12+000399999V0200901N004112200019N0020001N1+02661+02161101831ADDGF104991041011008001001001MA1999999101781MD1999999+0011REMSYN070AAXX  23184 83498 32595 40908 10266 20216 30178 40183 84100 333 58001;
0168834980999992010092400004-17733-039250FM-12+000399999V0200901N001012200019N0020001N1+02281+02141101951ADDGF104991041021008001001001KA1240M+02751MA1999999101901MD1999999-0071REMSYN088AAXX  24004 83498 32595 40902 10228 20214 30190 40195 84200 333 10275 29083 55/// 59007;
0201834980999992010092412004-17733-039250FM-12+000399999V0201401N004110450019N0020001N1+02561+02111102051ADDAA124004191AY121061AY211061GF107991031051008001011001KA1240N+02101MA1999999102001MD1999999-0061MW1031REMSYN088AAXX  24124 83498 21595 71408 10256 20211 30200 40205 70321 83510 333 20210 59006 60044;
0137834980999992010092418004-17733-039250FM-12+000399999V0200901N003110450019N0020001N1+02471+02171101781ADDGF107991031051008001011001MA1999999101731MD1999999-0051REMSYN070AAXX  24184 83498 32595 70906 10247 20217 30173 40178 83510 333 59005;
0168834980999992010092500004-17733-039250FM-12+000399999V0200901N001012200019N0020001N1+02321+02091101921ADDGF101991011011008001031001KA1240M+02711MA1999999101871MD1999999-0031REMSYN088AAXX  25004 83498 32595 10902 10232 20209 30187 40192 81130 333 10271 29084 55/// 59003;
0156834980999992010092812004-17733-039250FM-12+000399999V0203601N004112200019N0020001N1+02711+02171101311ADDGF102991021011008001001001KA1240N+02201MA1999999101261MD1999999-0341REMSYN076AAXX  28124 83498 32595 23608 10271 20217 30126 40131 82100 333 20220 59034;
0137834980999992010092818004-17733-039250FM-12+000399999V0203601N005112200019N0020001N1+02761+02281100911ADDGF101991011011008001001001MA1999999100861MD1999999-0281REMSYN070AAXX  28184 83498 32595 13610 10276 20228 30086 40091 81100 333 59028;
0178834980999992010092900004-17733-039250FM-12+000399999V0203601N003112200019N0020001N1+02461+02191101171ADDGA1001+999999999GF100991001001999999001001KA1240M+02831MA1999999101121MD1999999-0181REMSYN082AAXX  29004 83498 32995 03606 10246 20219 30112 40117 333 10283 29079 55/// 59018;
0156834980999992010092912004-17733-039250FM-12+000399999V0203601N004610450019N0020001N1+02661+02241101381ADDGF107991031051008001041001KA1240N+02271MA1999999101331MD1999999+0071REMSYN076AAXX  29124 83498 32595 73609 10266 20224 30133 40138 83540 333 20227 58007;
0137834980999992010092918004-17733-039250FM-12+000399999V0203601N007210450019N0020001N1+02701+02431100951ADDGF108991041051008001041999MA1999999100901MD1999999+0041REMSYN070AAXX  29184 83498 32595 83614 10270 20243 30090 40095 8454/ 333 58004;
0168834980999992010093000004-17733-039250FM-12+000399999V0203601N004110450019N0020001N1+02521+02381101231ADDGF106991021051008001041001KA1240M+02841MA1999999101181MD1999999+0061REMSYN088AAXX  30004 83498 32595 63608 10252 20238 30118 40123 82540 333 10284 29087 55/// 58006;
0156834980999992010093012004-17733-039250FM-12+000399999V0203601N003610450019N0020001N1+02721+02341101381ADDGF107991031061008001031001KA1240N+02421MA1999999101331MD1999999+0001REMSYN076AAXX  30124 83498 32595 73607 10272 20234 30133 40138 83630 333 20242 58000;
0137834980999992010093018004-17733-039250FM-12+000399999V0203601N003110450019N0020001N1+02751+02321101021ADDGF105991021011008001031001MA1999999100971MD1999999+0071REMSYN070AAXX  30184 83498 32595 53606 10275 20232 30097 40102 82130 333 58007;
0168834980999992010100100004-17733-039250FM-12+000399999V0203601N005112200019N0020001N1+02491+02301101261ADDGF103991031011008001001001KA1240M+02891MA1999999101211MD1999999+0031REMSYN088AAXX  01004 83498 32595 33610 10249 20230 30121 40126 83100 333 10289 29085 55/// 58003;
0156834980999992010100112004-17733-039250FM-12+000399999V0203601N003610450019N0020001N1+02711+02261101441ADDGF105991011011008001071001KA1240N+02361MA1999999101391MD1999999+0061REMSYN076AAXX  01124 83498 32595 53607 10271 20226 30139 40144 81170 333 20236 58006;
0137834980999992010100118004-17733-039250FM-12+000399999V0203601N006210450019N0020001N1+02711+02201101191ADDGF106991021011008001031001MA1999999101141MD1999999+0171REMSYN070AAXX  01184 83498 32595 63612 10271 20220 30114 40119 82130 333 58017;
0178834980999992010100200004-17733-039250FM-12+000399999V0203601N003112200019N0020001N1+02421+02191101351ADDGA1001+999999999GF100991001001999999001001KA1240M+02871MA1999999101301MD1999999+0091REMSYN082AAXX  02004 83498 32995 03606 10242 20219 30130 40135 333 10287 29081 55/// 58009;
0156834980999992010100212004-17733-039250FM-12+000399999V0203601N002610450019N0020001N1+02541+02311101651ADDGF108991031051008001041999KA1240N+02121MA1999999101601MD1999999+0211REMSYN076AAXX  02124 83498 32595 83605 10254 20231 30160 40165 8354/ 333 20212 58021;
0137834980999992010100218004-17733-039250FM-12+000399999V0203601N005110450019N0020001N1+02761+02381101221ADDGF107991031011008001091001MA1999999101171MD1999999+0031REMSYN070AAXX  02184 83498 32595 73610 10276 20238 30117 40122 83190 333 58003;
0168834980999992010100300004-17733-039250FM-12+000399999V0200901N003112200019N0020001N1+02441+02351101381ADDGF102991021011008001001001KA1240M+02871MA1999999101331MD1999999+0031REMSYN088AAXX  03004 83498 32595 20906 10244 20235 30133 40138 82100 333 10287 29089 55/// 58003;
0156834980999992010100312004-17733-039250FM-12+000399999V0209999C000010450019N0020001N1+02651+02251101661ADDGF107991031051008001011001KA1240N+02251MA1999999101611MD1999999+0011REMSYN076AAXX  03124 83498 32595 70000 10265 20225 30161 40166 83510 333 20225 58001;
0137834980999992010100318004-17733-039250FM-12+000399999V0201401N004610450019N0020001N1+02511+02211101641ADDGF108991041071008001021001MA1999999101591MD1999999+0421REMSYN070AAXX  03184 83498 32595 81409 10251 20221 30159 40164 84720 333 58042;
0184834980999992010100400004-17733-039250FM-12+000399999V0201401N003110012019N0020001N1+02481+02091102051ADDGA1091+999999999GF109991091999999999999999KA1240M+02781MA1999999102001MD1999999+0671REMSYN088AAXX  04004 83498 32/95 91406 10248 20209 30200 40205 80278 333 10278 29080 55/// 58067;
0156834980999992010100412004-17733-039250FM-12+000399999V0200901N002610075019N0020001N1+02501+02211102101ADDGF107991051051008001011001KA1240N+02331MA1999999102051MD1999999+0441REMSYN076AAXX  04124 83498 32595 70905 10250 20221 30205 40210 85510 333 20233 58044;
0137834980999992010100418004-17733-039250FM-12+000399999V0200901N002610075019N0020001N1+02441+02091101781ADDGF108991051051008001021999MA1999999101731MD1999999+0141REMSYN070AAXX  04184 83498 32595 80905 10244 20209 30173 40178 8552/ 333 58014;
0168834980999992010100500004-17733-039250FM-12+000399999V0201401N002110075019N0020001N1+02381+01971101971ADDGF108991051051008001021999KA1240M+02571MA1999999101921MD1999999-0081REMSYN088AAXX  05004 83498 32595 81404 10238 20197 30192 40197 8552/ 333 10257 29080 55/// 59008;
0156834980999992010100512004-17733-039250FM-12+000399999V0202701N000510450019N0020001N1+02421+02131101931ADDGF108991041051008001011999KA1240N+02201MA1999999101881MD1999999-0171REMSYN076AAXX  05124 83498 32595 82701 10242 20213 30188 40193 8451/ 333 20220 59017;
0137834980999992010100518004-17733-039250FM-12+000399999V0200901N001510450019N0020001N1+02661+02271101371ADDGF107991031021008001031001MA1999999101321MD1999999-0411REMSYN070AAXX  05184 83498 32595 70903 10266 20227 30132 40137 83230 333 59041;
0168834980999992010100600004-17733-039250FM-12+000399999V0200901N001512200019N0020001N1+02261+02121101511ADDGF102991021011008001001001KA1240M+02681MA1999999101461MD1999999-0461REMSYN088AAXX  06004 83498 32595 20903 10226 20212 30146 40151 82100 333 10268 29087 55/// 59046;
0156834980999992010100612004-17733-039250FM-12+000399999V0200901N002610450019N0020001N1+02591+02211101711ADDGF108991041051008001021001KA1240N+02301MA1999999101661MD1999999-0221REMSYN076AAXX  06124 83498 32595 80905 10259 20221 30166 40171 84520 333 20230 59022;
0137834980999992010100618004-17733-039250FM-12+000399999V0200901N001510450019N0020001N1+02691+02261101411ADDGF106991031011008001031001MA1999999101361MD1999999+0041REMSYN070AAXX  06184 83498 32595 60903 10269 20226 30136 40141 83130 333 58004;
0168834980999992010100700004-17733-039250FM-12+000399999V0200901N001012200019N0020001N1+02361+02191101681ADDGF101991011011008001001001KA1240M+02811MA1999999101631MD1999999+0171REMSYN088AAXX  07004 83498 32595 10902 10236 20219 30163 40168 81100 333 10281 29085 55/// 58017;
0156834980999992010100712004-17733-039250FM-12+000399999V0200501N002610075019N0020001N1+02671+02371101821ADDGF107991051051008001011001KA1240N+02221MA1999999101771MD1999999+0111REMSYN076AAXX  07124 83498 32595 70505 10267 20237 30177 40182 85510 333 20222 58011;
0137834980999992010100718004-17733-039250FM-12+000399999V0203601N004112200019N0020001N1+02771+02341101411ADDGF103991031011008001001001MA1999999101361MD1999999+0001REMSYN070AAXX  07184 83498 32595 33608 10277 20234 30136 40141 83100 333 58000;
0178834980999992010100800004-17733-039250FM-12+000399999V0200501N002612200019N0020001N1+02471+02341101611ADDGA1001+999999999GF100991001001999999001001KA1240M+02881MA1999999101561MD1999999-0071REMSYN082AAXX  08004 83498 32995 00505 10247 20234 30156 40161 333 10288 29087 55/// 59007;
0201834980999992010100812004-17733-039250FM-12+000399999V0203601N005110450019N0020001N1+02701+02431101621ADDAA124000591AY161061AY221061GF108991041021008001041999KA1240N+02351MA1999999101571MD1999999-0201MW1211REMSYN088AAXX  08124 83498 21595 83610 10270 20243 30157 40162 72162 8424/ 333 20235 59020 69944;
0137834980999992010100818004-17733-039250FM-12+000399999V0203601N006210450019N0020001N1+02761+02461101241ADDGF108991041091008001031011MA1999999101191MD1999999-0171REMSYN070AAXX  08184 83498 32595 83612 10276 20246 30119 40124 84931 333 59017;
0168834980999992010100900004-17733-039250FM-12+000399999V0203601N006212200019N0020001N1+02541+02401101331ADDGF104991031011008001031001KA1240M+02921MA1999999101281MD1999999-0281REMSYN088AAXX  09004 83498 32595 43612 10254 20240 30128 40133 83130 333 10292 29088 55/// 59028;
0156834980999992010100912004-17733-039250FM-12+000399999V0209999C000010450019N0020001N1+02761+02501101671ADDGF107991031051008001031001KA1240N+02441MA1999999101621MD1999999+0051REMSYN076AAXX  09124 83498 32595 70000 10276 20250 30162 40167 83530 333 20244 58005;
0137834980999992010100918004-17733-039250FM-12+000399999V0201801N002110450019N0020001N1+02461+02131101591ADDGF108991041071008001021999MA1999999101541MD1999999+0351REMSYN070AAXX  09184 83498 32595 81804 10246 20213 30154 40159 8472/ 333 58035;
0178834980999992010101000004-17733-039250FM-12+000399999V0201801N003110012019N0020001N1+02461+02111101971ADDGA1091+999999999GF109991091999999999999999KA1240M+02791MA1999999101921MD1999999+0641REMSYN082AAXX  10004 83498 32/95 91806 10246 20211 30192 40197 333 10279 29083 55/// 58064;
0156834980999992010101012004-17733-039250FM-12+000399999V0201801N003610075019N0020001N1+02461+02131102071ADDGF108991051051008001021999KA1240N+02191MA1999999102021MD1999999+0401REMSYN076AAXX  10124 83498 32595 81807 10246 20213 30202 40207 8552/ 333 20219 58040;
0137834980999992010101018004-17733-039250FM-12+000399999V0201801N003110075019N0020001N1+02361+02111101961ADDGF108991051051008001021999MA1999999101911MD1999999+0371REMSYN070AAXX  10184 83498 32595 81806 10236 20211 30191 40196 8552/ 333 58037;
0213834980999992010101100004-17733-039250FM-12+000399999V0201801N001510075019N0020001N1+02321+02031102101ADDAA106000591AY161061AY261061GF108991051061008001021999KA1240M+02461MA1999999102051MD1999999+0131MW1211REMSYN100AAXX  11004 83498 21595 81803 10232 20203 30205 40210 72166 8562/ 333 10246 29084 55/// 58013 69941;
0173834980999992010101112004-17733-039250FM-12+000399999V0201401N001010450019N0020001N1+02301+02031101931ADDAA124000591GF108991031051008001011999KA1240N+02041MA1999999101881MD1999999-0141REMSYN082AAXX  11124 83498 22595 81402 10230 20203 30188 40193 8351/ 333 20204 59014 69944;
0137834980999992010101118004-17733-039250FM-12+000399999V0201401N002110450019N0020001N1+02521+02131101681ADDGF107991041051008001031001MA1999999101631MD1999999-0281REMSYN070AAXX  11184 83498 32595 71404 10252 20213 30163 40168 84530 333 59028;
0168834980999992010101200004-17733-039250FM-12+000399999V0200901N001012200019N0020001N1+02341+02171101921ADDGF104991021011008001031001KA1240M+02591MA1999999101871MD1999999-0181REMSYN088AAXX  12004 83498 32595 40902 10234 20217 30187 40192 82130 333 10259 29086 55/// 59018;
0201834980999992010101212004-17733-039250FM-12+000399999V0202701N001010450019N0020001N1+02241+02191101911ADDAA124013091AY161061AY211061GF108991041071008001021999KA1240N+02221MA1999999101861MD1999999-0021MW1601REMSYN088AAXX  12124 83498 21595 82702 10224 20219 30186 40191 76061 8472/ 333 20222 59002 60134;
0182834980999992010101218004-17733-039250FM-12+000399999V0201801N002610450019N0020001N1+02191+02061101751ADDAA106006191AY121061AY211061GF108991041071008001021001MA1999999101701MD1999999+0071MW1031REMSYN082AAXX  12184 83498 21595 81805 10219 20206 30170 40175 70321 84720 333 58007 60061;
0213834980999992010101300004-17733-039250FM-12+000399999V0201801N003610450019N0020001N1+02051+01891102041ADDAA106002091AY161061AY261061GF108991041071008001021999KA1240M+02361MA1999999101991MD1999999+0121MW1211REMSYN100AAXX  13004 83498 21595 81807 10205 20189 30199 40204 72166 8472/ 333 10236 29093 55/// 58012 60021;
0173834980999992010101312004-17733-039250FM-12+000399999V0201801N002610450019N0020001N1+02371+01891102171ADDAA124008991GF108991041061008001021001KA1240N+02041MA1999999102121MD1999999+0261REMSYN082AAXX  13124 83498 22595 81805 10237 20189 30212 40217 84620 333 20204 58026 60094;
0137834980999992010101318004-17733-039250FM-12+000399999V0201801N001510450019N0020001N1+02361+01761101951ADDGF108991041061008001031001MA1999999101901MD1999999+0201REMSYN070AAXX  13184 83498 32595 81803 10236 20176 30190 40195 84630 333 58020;
0168834980999992010101400004-17733-039250FM-12+000399999V0201401N001510075019N0020001N1+02241+02031102141ADDGF108991051061008001021999KA1240M+02471MA1999999102091MD1999999+0101REMSYN088AAXX  14004 83498 32595 81403 10224 20203 30209 40214 8562/ 333 10247 29080 55/// 58010;
0156834980999992010101412004-17733-039250FM-12+000399999V0200901N002110450019N0020001N1+02381+01951102181ADDGF108991041051008001011999KA1240N+02141MA1999999102131MD1999999+0011REMSYN076AAXX  14124 83498 32595 80904 10238 20195 30213 40218 8451/ 333 20214 58001;
0137834980999992010101418004-17733-039250FM-12+000399999V0200901N003110075019N0020001N1+02521+02091101961ADDGF108991051041008001011999MA1999999101911MD1999999+0011REMSYN070AAXX  14184 83498 32595 80906 10252 20209 30191 40196 8541/ 333 58001;
0168834980999992010101500004-17733-039250FM-12+000399999V0200901N001510450019N0020001N1+02361+02131101981ADDGF107991041041008001011001KA1240M+02551MA1999999101931MD1999999-0161REMSYN088AAXX  15004 83498 32595 70903 10236 20213 30193 40198 84410 333 10255 29082 55/// 59016;
0201834980999992010101512004-17733-039250FM-12+000399999V0200901N001510450019N0020001N1+02491+02191102001ADDAA124000591AY121061AY211061GF108991041061008001021001KA1240N+02301MA1999999101951MD1999999-0181MW1031REMSYN088AAXX  15124 83498 21595 80903 10249 20219 30195 40200 70321 84620 333 20230 59018 69954;
0182834980999992010101518004-17733-039250FM-12+000399999V0200901N002610450019N0020001N1+02591+02171101641ADDAA106000891AY121061AY211061GF107991031051008001021001MA1999999101591MD1999999-0321MW1031REMSYN082AAXX  15184 83498 21595 70905 10259 20217 30159 40164 70321 83520 333 59032 69971;
0168834980999992010101600004-17733-039250FM-12+000399999V0200901N001510450019N0020001N1+02431+02371101821ADDGF108991041051008001021999KA1240M+02681MA1999999101771MD1999999-0161REMSYN088AAXX  16004 83498 32595 80903 10243 20237 30177 40182 8452/ 333 10268 29089 55/// 59016;
0173834980999992010101612004-17733-039250FM-12+000399999V0203601N003110450019N0020001N1+02711+02371101901ADDAA124000891GF105991031021008001021001KA1240N+02331MA1999999101851MD1999999-0101REMSYN082AAXX  16124 83498 22595 53606 10271 20237 30185 40190 83220 333 20233 59010 69974;
0137834980999992010101618004-17733-039250FM-12+000399999V0203601N003110450019N0020001N1+02611+02351101551ADDGF107991041051008001011001MA1999999101501MD1999999-0091REMSYN070AAXX  16184 83498 32595 73606 10261 20235 30150 40155 84510 333 59009;
0168834980999992010101700004-17733-039250FM-12+000399999V0200501N001510450019N0020001N1+02441+02301101701ADDGF106991041051008001011001KA1240M+02891MA1999999101651MD1999999-0121REMSYN088AAXX  17004 83498 32595 60503 10244 20230 30165 40170 84510 333 10289 29087 55/// 59012;
0175834980999992010101712004-17733-039250FM-12+000399999V0203601N004110075019N0020001N1+02681+02311101731ADDGF107991999021008001001001KA1240N+02371MA1999999101681MD1999999-0171REMSYN076AAXX  17124 83498 32595 73608 10268 20231 30168 40173 86200 333 20237 59017;EQDQ01+000062SCOTLC
0137834980999992010101718004-17733-039250FM-12+000399999V0200901N003112200019N0020001N1+02841+02261101331ADDGF102991021011008001001001MA1999999101281MD1999999-0221REMSYN070AAXX  17184 83498 32595 20906 10284 20226 30128 40133 82100 333 59022;
0168834980999992010101800004-17733-039250FM-12+000399999V0200901N001512200019N0020001N1+02441+02301101531ADDGF103991031011008001001001KA1240M+02801MA1999999101481MD1999999-0171REMSYN088AAXX  18004 83498 32595 30903 10244 20230 30148 40153 83100 333 10280 29084 55/// 59017;
0201834980999992010101812004-17733-039250FM-12+000399999V0200901N003110450019N0020001N1+02661+02331101451ADDAA124002091AY121061AY211061GF107991031051008001021011KA1240N+02341MA1999999101401MD1999999-0281MW1031REMSYN088AAXX  18124 83498 21595 70906 10266 20233 30140 40145 70321 83521 333 20234 59028 60024;
0137834980999992010101818004-17733-039250FM-12+000399999V0200901N004112200019N0020001N1+02761+02251101061ADDGF104991021011008001031001MA1999999101011MD1999999-0271REMSYN070AAXX  18184 83498 32595 40908 10276 20225 30101 40106 82130 333 59027;
0168834980999992010101900004-17733-039250FM-12+000399999V0200901N003110450019N0020001N1+02521+02311101291ADDGF106991031051008001031001KA1240M+03851MA1999999101241MD1999999-0261REMSYN088AAXX  19004 83498 32595 60906 10252 20231 30124 40129 83530 333 10385 29083 55/// 59026;
0201834980999992010101912004-17733-039250FM-12+000399999V0201801N003110075019N0020001N1+02241+02211101461ADDAA124029091AY161061AY261061GF108991051071008001021999KA1240N+02221MA1999999101411MD1999999+0011MW1631REMSYN088AAXX  19124 83498 21595 81806 10224 20221 30141 40146 76366 8572/ 333 20222 58001 60294;
0182834980999992010101918004-17733-039250FM-12+000399999V0201801N003610450019N0020001N1+02361+02191101311ADDAA106004191AY161061AY261061GF108991031071008001021999MA1999999101261MD1999999+0251MW1211REMSYN082AAXX  19184 83498 21595 81807 10236 20219 30126 40131 72166 8372/ 333 58025 60041;
0213834980999992010102000004-17733-039250FM-12+000399999V0201801N003110450019N0020001N1+02241+02071101701ADDAA106004191AY161061AY261061GF108991031071008001021999KA1240M+02531MA1999999101651MD1999999+0411MW1211REMSYN100AAXX  20004 83498 21595 81806 10224 20207 30165 40170 72166 8372/ 333 10253 29092 55/// 58041 60041;
0201834980999992010102012004-17733-039250FM-12+000399999V0201401N001510450019N0020001N1+02161+02021101771ADDAA124013091AY161061AY261061GF108991041071008001021999KA1240N+02061MA1999999101721MD1999999+0311MW1621REMSYN088AAXX  20124 83498 21595 81403 10216 20202 30172 40177 76266 8472/ 333 20206 58031 60134;
0182834980999992010102018004-17733-039250FM-12+000399999V0201401N002110450019N0020001N1+02301+02091101501ADDAA106002091AY161061AY261061GF108991031071008001021999MA1999999101451MD1999999+0191MW1211REMSYN082AAXX  20184 83498 21595 81404 10230 20209 30145 40150 72166 8372/ 333 58019 60021;
0168834980999992010102100004-17733-039250FM-12+000399999V0201401N000510450019N0020001N1+02301+01981101771ADDGF108991041061008001011999KA1240M+02351MA1999999101721MD1999999+0071REMSYN088AAXX  21004 83498 32595 81401 10230 20198 30172 40177 8461/ 333 10235 29088 55/// 58007;
0201834980999992010102112004-17733-039250FM-12+000399999V0202701N001510450019N0020001N1+02341+02131101851ADDAA124002091AY121061AY211061GF108991041061008001021001KA1240N+02121MA1999999101801MD1999999+0081MW1031REMSYN088AAXX  21124 83498 21595 82703 10234 20213 30180 40185 70321 84620 333 20212 58008 60024;
0156834980999992010102118004-17733-039250FM-12+000399999V0201401N003119999999N0020001N1+02441+02011101471ADDGF105991999011008001001001MA1999999101421MD1999999-0031REMSYN070AAXX  21184 83498 32595 51406 10244 20201 30142 40147 82100 333 59003;EQDQ01+000022SCOTLC
0168834980999992010102200004-17733-039250FM-12+000399999V0201401N001012200019N0020001N1+02221+01881101711ADDGF101991011011008001001001KA1240M+02581MA1999999101661MD1999999-0061REMSYN088AAXX  22004 83498 32595 11402 10222 20188 30166 40171 81100 333 10258 29082 55/// 59006;
0156834980999992010102212004-17733-039250FM-12+000399999V0200901N001512200019N0020001N1+02511+01871101761ADDGF103991031021008001001001KA1240N+01831MA1999999101711MD1999999-0091REMSYN076AAXX  22124 83498 32595 30903 10251 20187 30171 40176 83200 333 20183 59009;
0137834980999992010102218004-17733-039250FM-12+000399999V0200901N003112200019N0020001N1+02531+02091101411ADDGF101991011011008001001001MA1999999101361MD1999999-0061REMSYN070AAXX  22184 83498 32595 10906 10253 20209 30136 40141 81100 333 59006;
0156834980999992010102312004-17733-039250FM-12+000399999V0200901N001012200019N0020001N1+02481+01831101491ADDGF103991031011008001001001KA1240N+01841MA1999999101441MD1999999-0271REMSYN076AAXX  23124 83498 32595 30902 10248 20183 30144 40149 83100 333 20184 59027;
0137834980999992010102318004-17733-039250FM-12+000399999V0200501N003112200019N0020001N1+02681+02091101181ADDGF102991021011008001001001MA1999999101131MD1999999-0231REMSYN070AAXX  23184 83498 32595 20506 10268 20209 30113 40118 82100 333 59023;
0168834980999992010102400004-17733-039250FM-12+000399999V0200901N001510075019N0020001N1+02301+02161101351ADDGF106991061021008001001001KA1240M+02781MA1999999101301MD1999999-0261REMSYN088AAXX  24004 83498 32595 60903 10230 20216 30130 40135 86200 333 10278 29080 55/// 59026;
0175834980999992010102412004-17733-039250FM-12+000399999V0200901N002112200019N0020001N1+02711+02201101361ADDGF104991999021008001001001KA1240N+02211MA1999999101311MD1999999-0131REMSYN076AAXX  24124 83498 32595 40904 10271 20220 30131 40136 82200 333 20221 59013;EQDQ01+000022SCOTLC
0137834980999992010102418004-17733-039250FM-12+000399999V0200901N002112200019N0020001N1+02841+02311101011ADDGF101991011011008001031001MA1999999100961MD1999999-0171REMSYN070AAXX  24184 83498 32595 10904 10284 20231 30096 40101 81130 333 59017;
0168834980999992010102500004-17733-039250FM-12+000399999V0200901N001010450019N0020001N1+02481+02341101311ADDGF105991021011008001031001KA1240M+02931MA1999999101361MD1999999-0041REMSYN088AAXX  25004 83498 32595 50902 10248 20234 30136 40131 82130 333 10293 29083 55/// 59004;
0156834980999992010102512004-17733-039250FM-12+000399999V0203601N001010075019N0020001N1+02671+02431101331ADDGF107991051051008001011001KA1240N+02431MA1999999101281MD1999999-0031REMSYN076AAXX  25124 83498 32595 73602 10267 20243 30128 40133 85510 333 20243 59003;
0137834980999992010102518004-17733-039250FM-12+000399999V0200501N003110450019N0020001N1+02741+02521101031ADDGF106991031021008001031001MA1999999100981MD1999999+0021REMSYN070AAXX  25184 83498 32595 60506 10274 20252 30098 40103 83230 333 58002;
0168834980999992010102600004-17733-039250FM-12+000399999V0200901N001012200019N0020001N1+02461+02371101241ADDGF103991031041008001001001KA1240M+02831MA1999999101191MD1999999-0071REMSYN088AAXX  26004 83498 32595 30902 10246 20237 30119 40124 83400 333 10283 29091 55/// 59007;
0201834980999992010102612004-17733-039250FM-12+000399999V0200501N003110450019N0020001N1+02441+02391101211ADDAA124001091AY161061AY221061GF108991041061008001021999KA1240N+02391MA1999999101161MD1999999-0121MW1211REMSYN088AAXX  26124 83498 21595 80506 10244 20239 30116 40121 72162 8462/ 333 20239 59012 60014;
0182834980999992010102618004-17733-039250FM-12+000399999V0203601N001510075019N0020001N1+02321+02271100931ADDAA106007991AY161061AY261061GF108991051071008001021999MA1999999100881MD1999999-0101MW1621REMSYN082AAXX  26184 83498 21595 83603 10232 20227 30088 40093 76266 8572/ 333 59010 60081;
0213834980999992010102700004-17733-039250FM-12+000399999V0203601N001010450019N0020001N1+02501+02411100961ADDAA106000891AY161061AY261061GF108991031071008001021999KA1240M+02731MA1999999100911MD1999999+0281MW1211REMSYN100AAXX  27004 83498 21595 83602 10250 20241 30091 40096 72166 8372/ 333 10273 29096 55/// 58028 69971;
0201834980999992010102712004-17733-039250FM-12+000399999V0203601N001510450019N0020001N1+02611+02121100931ADDAA124009991AY121061AY211061GF108991041061008001021001KA1240N+02301MA1999999100881MD1999999-0281MW1031REMSYN088AAXX  27124 83498 21595 83603 10261 20212 30088 40093 70321 84620 333 20230 59028 60104;
0137834980999992010102718004-17733-039250FM-12+000399999V0201801N003610450019N0020001N1+02561+02271100781ADDGF107991031051008001011001MA1999999100731MD1999999-0151REMSYN070AAXX  27184 83498 32595 71807 10256 20227 30073 40078 83510 333 59015;
0168834980999992010102800004-17733-039250FM-12+000399999V0201401N001512200019N0020001N1+02491+02191101171ADDGF101991011011008001001001KA1240M+02791MA1999999101121MD1999999+0211REMSYN088AAXX  28004 83498 32595 11403 10249 20219 30112 40117 81100 333 10279 29085 55/// 58021;
0156834980999992010102812004-17733-039250FM-12+000399999V0201401N003610075019N0020001N1+02521+02221101411ADDGF107991051051008001011001KA1240N+02431MA1999999101301MD1999999+0481REMSYN076AAXX  28124 83498 32595 71407 10252 20222 30130 40141 85510 333 20243 58048;
0137834980999992010102818004-17733-039250FM-12+000399999V0201401N002612200019N0020001N1+02551+02231101221ADDGF104991021021008001041001MA1999999101171MD1999999+0441REMSYN070AAXX  28184 83498 32595 41405 10255 20223 30117 40122 82240 333 58044;
0168834980999992010102900004-17733-039250FM-12+000399999V0200901N001512200019N0020001N1+02361+02221101331ADDGF102991021011008001001001KA1240M+02681MA1999999101281MD1999999+0161REMSYN088AAXX  29004 83498 32595 20903 10236 20222 30128 40133 82100 333 10268 29087 55/// 58016;
0156834980999992010102912004-17733-039250FM-12+000399999V0201401N001510450019N0020001N1+02521+02211101581ADDGF107991031011008001051001KA1240N+02261MA1999999101531MD1999999+0171REMSYN076AAXX  29124 83498 32595 71403 10252 20221 30153 40158 83150 333 20226 58017;
0137834980999992010102918004-17733-039250FM-12+000399999V0200901N002612200019N0020001N1+02721+02341101331ADDGF103991031011008001001001MA1999999101281MD1999999+0111REMSYN070AAXX  29184 83498 32595 30905 10272 20234 30128 40133 83100 333 58011;
0168834980999992010103000004-17733-039250FM-12+000399999V0200901N001012200019N0020001N1+02421+02321101451ADDGF102991021011008001001001KA1240M+02821MA1999999101401MD1999999+0121REMSYN088AAXX  30004 83498 32595 20902 10242 20232 30140 40145 82100 333 10282 29088 55/// 58012;
0175834980999992010103012004-17733-039250FM-12+000399999V0200501N002119999999N0020001N1+02801+02381101511ADDGF105991999021008001001001KA1240N+02261MA1999999101461MD1999999-0071REMSYN076AAXX  30124 83498 32595 50504 10280 20238 30146 40151 83200 333 20226 59007;EQDQ01+000032SCOTLC
0137834980999992010103018004-17733-039250FM-12+000399999V0200501N005712200019N0020001N1+02911+02341101181ADDGF101991011011008001001001MA1999999101131MD1999999-0151REMSYN070AAXX  30184 83498 32595 10511 10291 20234 30113 40118 81100 333 59015;
0168834980999992010103100004-17733-039250FM-12+000399999V0203601N004112200019N0020001N1+02561+02351101341ADDGF101991011011008001001001KA1240M+03031MA1999999101291MD1999999-0111REMSYN088AAXX  31004 83498 32595 13608 10256 20235 30129 40134 81100 333 10303 29082 55/// 59011;
0156834980999992010103112004-17733-039250FM-12+000399999V0203601N004610450019N0020001N1+02871+02421101511ADDGF106991041021008001041001KA1240N+02431MA1999999101461MD1999999+0001REMSYN076AAXX  31124 83498 32595 63609 10287 20242 30146 40151 84240 333 20243 58000;
0137834980999992010103118004-17733-039250FM-12+000399999V0203601N004610450019N0020001N1+02731+02481101271ADDGF107991041051008001041001MA1999999101221MD1999999+0091REMSYN070AAXX  31184 83498 32595 73609 10273 20248 30122 40127 84540 333 58009;
0178834980999992010110100004-17733-039250FM-12+000399999V0203601N002112200019N0020001N1+02501+02401101541ADDGA1001+999999999GF100991001001999999001001KA1240M+02951MA1999999101491MD1999999+0201REMSYN082AAXX  01004 83498 32995 03604 10250 20240 30149 40154 333 10295 29088 55/// 58020;
0156834980999992010110112004-17733-039250FM-12+000399999V0203601N003610450019N0020001N1+02761+02281101551ADDGF106991021011008001051001KA1240N+02281MA1999999101501MD1999999+0041REMSYN076AAXX  01124 83498 32595 63607 10276 20228 30150 40155 82150 333 20228 58004;
0137834980999992010110118004-17733-039250FM-12+000399999V0203601N004612200019N0020001N1+02911+02501101111ADDGF102991021011008001001001MA1999999101061MD1999999+0161REMSYN070AAXX  01184 83498 32595 23609 10291 20250 30106 40111 82100 333 58016;
0168834980999992010110200004-17733-039250FM-12+000399999V0203601N005112200019N0020001N1+02561+02421101251ADDGF102991021011008001001001KA1240M+03031MA1999999101201MD1999999-0291REMSYN088AAXX  02004 83498 32595 23610 10256 20242 30120 40125 82100 333 10303 29084 55/// 59029;
0156834980999992010110212004-17733-039250FM-12+000399999V0203201N003110450019N0020001N1+02851+02481101311ADDGF106991031021008001011001KA1240N+02441MA1999999101261MD1999999-0241REMSYN076AAXX  02124 83498 32595 63206 10285 20248 30126 40131 83210 333 20244 59024;
0182834980999992010110218004-17733-039250FM-12+000399999V0201801N002610450019N0020001N1+02551+02381101001ADDAA106002091AY161061AY261061GF108991041071008001021999MA1999999100951MD1999999-0111MW1601REMSYN082AAXX  02184 83498 21595 81805 10255 20238 30095 40100 76066 8472/ 333 59011 60021;
0213834980999992010110300004-17733-039250FM-12+000399999V0201401N002110450019N0020001N1+02361+02281101291ADDAA106018091AY161061AY261061GF108991041071008001021999KA1240M+02961MA1999999101241MD1999999+0041MW1611REMSYN100AAXX  03004 83498 21595 81404 10236 20228 30124 40129 76166 8472/ 333 10296 29091 55/// 58004 60181;
0201834980999992010110312004-17733-039250FM-12+000399999V0209999C000010450019N0020001N1+02361+02261101481ADDAA124045091AY161061AY261061GF108991031071008001021999KA1240N+02171MA1999999101431MD1999999+0171MW1611REMSYN088AAXX  03124 83498 21595 80000 10236 20226 30143 40148 76166 8372/ 333 20217 58017 60454;
0182834980999992010110318004-17733-039250FM-12+000399999V0201801N002110450019N0020001N1+02481+02241101201ADDAA106001091AY121061AY211061GF107991041051008001011001MA1999999101151MD1999999+0201MW1031REMSYN082AAXX  03184 83498 21595 71804 10248 20224 30115 40120 70321 84510 333 58020 60011;
0168834980999992010110400004-17733-039250FM-12+000399999V0201801N001510075019N0020001N1+02421+02211101481ADDGF108991051051008001021999KA1240M+02571MA1999999101431MD1999999+0191REMSYN088AAXX  04004 83498 32595 81803 10242 20221 30143 40148 8552/ 333 10257 29091 55/// 58019;
0201834980999992010110412004-17733-039250FM-12+000399999V0202301N001010450019N0020001N1+02381+02331101701ADDAA124003091AY161061AY221061GF108991041061008001021999KA1240N+02191MA1999999101651MD1999999+0221MW1211REMSYN088AAXX  04124 83498 21595 82302 10238 20233 30165 40170 72162 8462/ 333 20219 58022 60034;
0182834980999992010110418004-17733-039250FM-12+000399999V0201801N001510450019N0020001N1+02401+02331101501ADDAA106004191AY161061AY261061GF108991031071008001021999MA1999999101451MD1999999+0301MW1611REMSYN082AAXX  04184 83498 21595 81803 10240 20233 30145 40150 76166 8372/ 333 58030 60041;
0213834980999992010110500004-17733-039250FM-12+000399999V0201401N000510450019N0020001N1+02381+02351101701ADDAA106000591AY161061AY261061GF108991041071008001021999KA1240M+02471MA1999999101651MD1999999+0221MW1211REMSYN100AAXX  05004 83498 21595 81401 10238 20235 30165 40170 72166 8472/ 333 10247 29097 55/// 58022 69951;
0173834980999992010110512004-17733-039250FM-12+000399999V0209999C000012200019N0020001N1+02751+02341101741ADDAA124005191GF102991021011008001031001KA1240N+02281MA1999999101691MD1999999+0041REMSYN082AAXX  05124 83498 22595 20000 10275 20234 30169 40174 82130 333 20228 58004 60054;
0137834980999992010110518004-17733-039250FM-12+000399999V0200501N004612200019N0020001N1+02871+02351101371ADDGF101991011011008001001001MA1999999101321MD1999999-0131REMSYN070AAXX  05184 83498 32595 10509 10287 20235 30132 40137 81100 333 59013;
0168834980999992010110600004-17733-039250FM-12+000399999V0200501N002112200019N0020001N1+02481+02271101441ADDGF101991011011008001001001KA1240M+02921MA1999999101391MD1999999-0261REMSYN088AAXX  06004 83498 32595 10504 10248 20227 30139 40144 81100 333 10292 29083 55/// 59026;
0156834980999992010110612004-17733-039250FM-12+000399999V0203601N005110450019N0020001N1+02801+02361101351ADDGF106991041051008001041001KA1240N+02411MA1999999101301MD1999999-0391REMSYN076AAXX  06124 83498 32595 63610 10280 20236 30130 40135 84540 333 20241 59039;
0137834980999992010110618004-17733-039250FM-12+000399999V0200501N005712200019N0020001N1+02831+02421101011ADDGF102991021011008001001001MA1999999100961MD1999999-0361REMSYN070AAXX  06184 83498 32595 20511 10283 20242 30096 40101 82100 333 59036;
0178834980999992010110700004-17733-039250FM-12+000399999V0203601N004112200019N0020001N1+02551+02291101211ADDGA1001+999999999GF100991001001999999001001KA1240M+02931MA1999999101161MD1999999-0231REMSYN082AAXX  07004 83498 32595 03608 10255 20229 30116 40121 333 10293 29082 55/// 59023;
0156834980999992010110712004-17733-039250FM-12+000399999V0203201N003610450019N0020001N1+02641+02311101491ADDGF108991041051008001041999KA1240N+02341MA1999999101441MD1999999+0141REMSYN076AAXX  07124 83498 32595 83207 10264 20231 30144 40149 8454/ 333 20234 58014;
0137834980999992010110718004-17733-039250FM-12+000399999V0200501N003110450019N0020001N1+02781+02541101341ADDGF108991031051008001031999MA1999999101291MD1999999+0331REMSYN070AAXX  07184 83498 32595 80506 10278 20254 30129 40134 8353/ 333 58033;
0168834980999992010110800004-17733-039250FM-12+000399999V0200501N001510075019N0020001N1+02581+02491101621ADDGF106991061051008001001001KA1240M+02941MA1999999101571MD1999999+0411REMSYN088AAXX  08004 83498 32595 60503 10258 20249 30157 40162 86500 333 10294 29090 55/// 58041;
0201834980999992010110812004-17733-039250FM-12+000399999V0203601N001510450019N0020001N1+02711+02451101761ADDAA124023991AY121061AY211061GF108991041061008001021001KA1240N+02071MA1999999101711MD1999999+0271MW1031REMSYN088AAXX  08124 83498 21595 83603 10271 20245 30171 40176 70321 84620 333 20207 58027 60244;
0182834980999992010110818004-17733-039250FM-12+000399999V0200501N004110450019N0020001N1+02671+02431101421ADDAA106000891AY121061AY211061GF107991031061008001011001MA1999999101371MD1999999+0081MW1031REMSYN082AAXX  08184 83498 21595 70508 10267 20243 30137 40142 70321 83610 333 58008 69971;
0184834980999992010110900004-17733-039250FM-12+000399999V0203601N001510012019N0020001N1+02501+02361101641ADDGA1091+999999999GF109991091999999999999999KA1240M+02891MA1999999101591MD1999999+0021REMSYN088AAXX  09004 83498 32/95 93603 10250 20236 30159 40164 8//// 333 10289 29090 55/// 58002;
0173834980999992010110912004-17733-039250FM-12+000399999V0200501N003110075019N0020001N1+02601+02331101651ADDAA124000891GF108991051051008001021999KA1240N+02381MA1999999101601MD1999999-0111REMSYN082AAXX  09124 83498 22595 80506 10260 20233 30160 40165 8552/ 333 20238 59011 69974;
0137834980999992010110918004-17733-039250FM-12+000399999V0200501N005112200019N0020001N1+02791+02421101291ADDGF103991011011008001041001MA1999999101241MD1999999-0131REMSYN070AAXX  09184 83498 32595 30510 10279 20242 30124 40129 81140 333 59013;
0168834980999992010111000004-17733-039250FM-12+000399999V0200501N002612200019N0020001N1+02481+02291101431ADDGF103991031011008001001001KA1240M+02891MA1999999101381MD1999999-0211REMSYN088AAXX  10004 83498 32595 30505 10248 20229 30138 40143 83100 333 10289 29086 55/// 59021;
0156834980999992010111012004-17733-039250FM-12+000399999V0203601N001510450019N0020001N1+02561+02081101611ADDGF108991031051008001011999KA1240N+02201MA1999999101561MD1999999-0041REMSYN076AAXX  10124 83498 32595 83603 10256 20208 30156 40161 8351/ 333 20220 59004;
0137834980999992010111018004-17733-039250FM-12+000399999V0203601N002110450019N0020001N1+02821+02291101381ADDGF106991041021008001031001MA1999999101331MD1999999+0091REMSYN070AAXX  10184 83498 32595 63604 10282 20229 30133 40138 84230 333 58009;
0168834980999992010111100004-17733-039250FM-12+000399999V0200501N001012200019N0020001N1+02461+02251101461ADDGF102991021011008001001001KA1240M+03071MA1999999101411MD1999999+0031REMSYN088AAXX  11004 83498 32595 20502 10246 20225 30141 40146 82100 333 10307 29081 55/// 58003;
0175834980999992010111112004-17733-039250FM-12+000399999V0200501N002619999999N0020001N1+02781+02321101571ADDGF106991999021008001001001KA1240N+02271MA1999999101521MD1999999-0041REMSYN076AAXX  11124 83498 32595 60505 10278 20232 30152 40157 83200 333 20227 59004;EQDQ01+000032SCOTLC
0168834980999992010111200004-17733-039250FM-12+000399999V0200501N001512200019N0020001N1+02511+02311101741ADDGF101991011011008001031001KA1240M+02911MA1999999101691MD1999999+0281REMSYN088AAXX  12004 83498 32595 10503 10251 20231 30169 40174 81130 333 10291 29083 55/// 58028;
0201834980999992010111212004-17733-039250FM-12+000399999V0201401N001010450019N0020001N1+02461+02371101781ADDAA124009991AY161061AY261061GF108991031071008001021999KA1240N+02221MA1999999101731MD1999999+0211MW1611REMSYN088AAXX  12124 83498 21595 81402 10246 20237 30173 40178 76166 8372/ 333 20222 58021 60104;
0182834980999992010111218004-17733-039250FM-12+000399999V0201801N003110450019N0020001N1+02361+02311101501ADDAA106045091AY161061AY261061GF108991041071008001021999MA1999999101451MD1999999+0101MW1621REMSYN082AAXX  12184 83498 21595 81806 10236 20231 30145 40150 76266 8472/ 333 58010 60451;
0213834980999992010111300004-17733-039250FM-12+000399999V0201801N000510450019N0020001N1+02261+02211101741ADDAA106032091AY161061AY261061GF108991031071008001021999KA1240M+02531MA1999999101691MD1999999+0001MW1611REMSYN100AAXX  13004 83498 21595 81801 10226 20221 30169 40174 76166 8372/ 333 10253 29096 55/// 58000 60321;
0201834980999992010111312004-17733-039250FM-12+000399999V0201801N003610450019N0020001N1+02401+02311101751ADDAA124084191AY161061AY261061GF108991041071008001021999KA1240N+02191MA1999999101701MD1999999-0031MW1211REMSYN088AAXX  13124 83498 21595 81807 10240 20231 30170 40175 72166 8472/ 333 20219 59003 60844;
0182834980999992010111318004-17733-039250FM-12+000399999V0201801N004610075019N0020001N1+02321+02291101461ADDAA106002091AY161061AY261061GF108991051071008001021999MA1999999101411MD1999999-0041MW1611REMSYN082AAXX  13184 83498 21595 81809 10232 20229 30141 40146 76166 8572/ 333 59004 60021;
0213834980999992010111400004-17733-039250FM-12+000399999V0201801N002610075019N0020001N1+02261+02051101571ADDAA106006191AY161061AY261061GF108991061071008001021999KA1240M+02551MA1999999101521MD1999999-0171MW1611REMSYN100AAXX  14004 83498 21595 81805 10226 20205 30152 40157 76166 8672/ 333 10255 29097 55/// 59017 60061;
0201834980999992010111412004-17733-039250FM-12+000399999V0201801N001510450019N0020001N1+02411+02211101501ADDAA124036191AY161061AY221061GF108991041071008001021999KA1240N+02191MA1999999101451MD1999999-0251MW1211REMSYN088AAXX  14124 83498 21595 81803 10241 20221 30145 40150 72162 8472/ 333 20219 59025 60364;
0182834980999992010111418004-17733-039250FM-12+000399999V0201801N002610450019N0020001N1+02501+02251101311ADDAA106003091AY121061AY211061GF108991041071008001021999MA1999999101261MD1999999-0151MW1031REMSYN082AAXX  14184 83498 21595 81805 10250 20225 30126 40131 70321 8472/ 333 59015 60031;
0213834980999992010111500004-17733-039250FM-12+000399999V0200901N003110450019N0020001N1+02281+02051101491ADDAA106023191AY161061AY261061GF108991041071008001021999KA1240M+02551MA1999999101441MD1999999-0081MW1611REMSYN100AAXX  15004 83498 21595 80906 10228 20205 30144 40149 76166 8472/ 333 10255 29093 55/// 59008 60231;
0201834980999992010111512004-17733-039250FM-12+000399999V0201401N000510450019N0020001N1+02261+02181101541ADDAA124083191AY161061AY261061GF108991031071008001021999KA1240N+02071MA1999999101491MD1999999+0041MW1611REMSYN088AAXX  15124 83498 21595 81401 10226 20218 30149 40154 76166 8372/ 333 20207 58004 60834;
0182834980999992010111518004-17733-039250FM-12+000399999V0201401N001510450019N0020001N1+02321+02201101431ADDAA106008991AY161061AY261061GF108991031071008001021999MA1999999101381MD1999999+0121MW1601REMSYN082AAXX  15184 83498 21595 81403 10232 20220 30138 40143 76066 8372/ 333 58012 60091;
0213834980999992010111600004-17733-039250FM-12+000399999V0209999C000010075019N0020001N1+02231+02151101521ADDAA106004191AY121061AY211061GF108991051051008001021999KA1240M+02331MA1999999101471MD1999999+0031MW1031REMSYN100AAXX  16004 83498 21595 80000 10223 20215 30147 40152 70321 8552/ 333 10233 29095 55/// 58003 60041;
0201834980999992010111612004-17733-039250FM-12+000399999V0203201N002610075019N0020001N1+02401+02311101631ADDAA124015091AY161061AY261061GF108991051071008001021999KA1240N+02131MA1999999101581MD1999999+0091MW1211REMSYN088AAXX  16124 83498 21595 83205 10240 20231 30158 40163 72166 8572/ 333 20213 58009 60154;
0137834980999992010111618004-17733-039250FM-12+000399999V0200501N002110450019N0020001N1+02561+02311101261ADDGF107991031051008001051001MA1999999101211MD1999999-0171REMSYN070AAXX  16184 83498 32595 70504 10256 20231 30121 40126 83550 333 59017;
0168834980999992010111700004-17733-039250FM-12+000399999V0200501N001010450019N0020001N1+02441+02371101401ADDGF106991031051008001051001KA1240M+02671MA1999999101351MD1999999-0121REMSYN088AAXX  17004 83498 32595 60502 10244 20237 30135 40140 83550 333 10267 29093 55/// 59012;
0201834980999992010111712004-17733-039250FM-12+000399999V0200501N003110450019N0020001N1+02621+02371101401ADDAA124002091AY121061AY211061GF108991041061008001011001KA1240N+02301MA1999999101351MD1999999-0231MW1031REMSYN088AAXX  17124 83498 21595 80506 10262 20237 30135 40140 70321 84610 333 20230 59023 60024;
0182834980999992010111718004-17733-039250FM-12+000399999V0200501N002610450019N0020001N1+02681+02331100961ADDAA106003091AY121061AY211061GF108991041061008001011001MA1999999100911MD1999999-0301MW1031REMSYN082AAXX  17184 83498 21595 80505 10268 20233 30091 40096 70321 84610 333 59030 60031;
0168834980999992010111800004-17733-039250FM-12+000399999V0200501N002110450019N0020001N1+02551+02291101121ADDGF107991041051008001011001KA1240M+02871MA1999999101071MD1999999-0281REMSYN088AAXX  18004 83498 32595 70504 10255 20229 30107 40112 84510 333 10287 29085 55/// 59028;
0201834980999992010111812004-17733-039250FM-12+000399999V0203601N001510450019N0020001N1+02341+02271101141ADDAA124027991AY161061AY261061GF108991031071008001021999KA1240N+02171MA1999999101091MD1999999-0261MW1601REMSYN088AAXX  18124 83498 21595 83603 10234 20227 30109 40114 76066 8372/ 333 20217 59026 60284;
0182834980999992010111818004-17733-039250FM-12+000399999V0203601N003110075019N0020001N1+02521+02341100731ADDAA106004191AY121061AY211061GF108991051061008001021999MA1999999100681MD1999999-0231MW1031REMSYN082AAXX  18184 83498 21595 83606 10252 20234 30068 40073 70321 8562/ 333 59023 60041;
0168834980999992010111900004-17733-039250FM-12+000399999V0203601N003110075019N0020001N1+02501+02341100931ADDGF108991051061008001021999KA1240M+02651MA1999999100881MD1999999-0191REMSYN088AAXX  19004 83498 32595 83606 10250 20234 30088 40093 8562/ 333 10265 29092 55/// 59019;
0173834980999992010111912004-17733-039250FM-12+000399999V0203201N003112200019N0020001N1+02861+02231101081ADDAA124004191GF102991021011008001001001KA1240N+02221MA1999999101031MD1999999-0061REMSYN082AAXX  19124 83498 22595 23206 10286 20223 30103 40108 82100 333 20222 59006 60044;
0137834980999992010111918004-17733-039250FM-12+000399999V0200501N004112200019N0020001N1+02961+02561100831ADDGF102991011011008001031001MA1999999100781MD1999999+0101REMSYN070AAXX  19184 83498 32595 20508 10296 20256 30078 40083 81130 333 58010;
0168834980999992010112000004-17733-039250FM-12+000399999V0203601N003112200019N0020001N1+02561+02401101141ADDGF101991011011008001001001KA1240M+02991MA1999999101091MD1999999+0211REMSYN088AAXX  20004 83498 32595 13606 10256 20240 30109 40114 81100 333 10299 29081 55/// 58021;
0156834980999992010112012004-17733-039250FM-12+000399999V0203601N005112200019N0020001N1+02781+02421101551ADDGF103991031011008001001001KA1240N+02401MA1999999101501MD1999999+0471REMSYN076AAXX  20124 83498 32595 33610 10278 20242 30150 40155 83100 333 20240 58047;
0137834980999992010112018004-17733-039250FM-12+000399999V0200501N006212200019N0020001N1+02871+02371101101ADDGF101991011011008001001001MA1999999101051MD1999999+0261REMSYN070AAXX  20184 83498 32595 10512 10287 20237 30105 40110 81100 333 58026;
0168834980999992010112100004-17733-039250FM-12+000399999V0200501N001512200019N0020001N1+02531+02341101341ADDGF101991011011008001001001KA1240M+02971MA1999999101291MD1999999+0201REMSYN088AAXX  21004 83498 32595 10503 10253 20234 30129 40134 81100 333 10297 29084 55/// 58020;
0156834980999992010112112004-17733-039250FM-12+000399999V0203601N004612200019N0020001N1+02831+02271101471ADDGF103991031021008001001001KA1240N+02281MA1999999101421MD1999999-0081REMSYN076AAXX  21124 83498 32595 33609 10283 20227 30142 40147 83200 333 20228 59008;
0137834980999992010112118004-17733-039250FM-12+000399999V0200501N004112200019N0020001N1+02891+02321101201ADDGF102991021011008001001001MA1999999101151MD1999999+0101REMSYN070AAXX  21184 83498 32595 20508 10289 20232 30115 40120 82100 333 58010;
0168834980999992010112200004-17733-039250FM-12+000399999V0200501N003110450019N0020001N1+02531+02311101271ADDGF106991021041008001031001KA1240M+02981MA1999999101221MD1999999-0071REMSYN088AAXX  22004 83498 32595 60506 10253 20231 30122 40127 82430 333 10298 29080 55/// 59007;
0156834980999992010112212004-17733-039250FM-12+000399999V0203601N003110450019N0020001N1+02661+02441101231ADDGF107991041021008001031001KA1240N+02261MA1999999101181MD1999999-0241REMSYN076AAXX  22124 83498 32595 73606 10266 20244 30118 40123 84230 333 20226 59024;
0137834980999992010112218004-17733-039250FM-12+000399999V0203601N003110075019N0020001N1+02741+02451100891ADDGF108991051051008001011999MA1999999100841MD1999999-0311REMSYN070AAXX  22184 83498 32595 83606 10274 20245 30084 40089 8551/ 333 59031;
0168834980999992010112300004-17733-039250FM-12+000399999V0200501N001510450019N0020001N1+02541+02361101101ADDGF108991041051008001011999KA1240M+02791MA1999999101051MD1999999-0171REMSYN088AAXX  23004 83498 32595 80503 10254 20236 30105 40110 8451/ 333 10279 29088 55/// 59017;
0201834980999992010112312004-17733-039250FM-12+000399999V0200501N001010450019N0020001N1+02491+02321101031ADDAA124000021AY151061AY261061GF107991031061008001021001KA1240N+02431MA1999999100981MD1999999-0201MW1501REMSYN088AAXX  23124 83498 21595 70502 10249 20232 30098 40103 75056 83620 333 20243 59020 69914;
0137834980999992010112318004-17733-039250FM-12+000399999V0200501N005110450019N0020001N1+02681+02331100661ADDGF105991031011008001031001MA1999999100611MD1999999-0231REMSYN070AAXX  23184 83498 32595 50510 10268 20233 30061 40066 83130 333 59023;
0180834980999992010112400004-17733-039250FM-12+000399999V0203601N004110450019N0020001N1+02591+02351100841ADDGF107991031051008001011001KA1240M+02751MA1999999100791MD1999999-0261MW1131REMSYN094AAXX  24004 83498 31595 73608 10259 20235 30079 40084 713// 83510 333 10275 29087 55/// 59026;
0201834980999992010112412004-17733-039250FM-12+000399999V0203601N003110450019N0020001N1+02651+02391101041ADDAA124007191AY121061AY211061GF108991031071008001021999KA1240N+02361MA1999999100991MD1999999+0011MW1031REMSYN088AAXX  24124 83498 21595 83606 10265 20239 30099 40104 70321 8372/ 333 20236 58001 60074;
0182834980999992010112418004-17733-039250FM-12+000399999V0203601N003110450019N0020001N1+02421+02321100951ADDAA106055191AY161061AY261061GF108991041071008001021999MA1999999100901MD1999999+0201MW1631REMSYN082AAXX  24184 83498 21595 83606 10242 20232 30090 40095 76366 8472/ 333 58020 60551;
0213834980999992010112500004-17733-039250FM-12+000399999V0203601N001510075019N0020001N1+02461+02301101081ADDAA106039991AY121061AY211061GF108991051051008001021999KA1240M+02671MA1999999101031MD1999999+0241MW1031REMSYN100AAXX  25004 83498 21595 83603 10246 20230 30103 40108 70321 8552/ 333 10267 29090 55/// 58024 60401;
0173834980999992010112512004-17733-039250FM-12+000399999V0203601N003610450019N0020001N1+02541+02351101261ADDAA124095091GF108991041051008001021999KA1240N+02111MA1999999101211MD1999999+0221REMSYN082AAXX  25124 83498 22595 83607 10254 20235 30121 40126 8452/ 333 20211 58022 60954;
0137834980999992010112518004-17733-039250FM-12+000399999V0203601N004610450019N0020001N1+02741+02481101111ADDGF107991031011008001051001MA1999999101061MD1999999+0161REMSYN070AAXX  25184 83498 32595 73609 10274 20248 30106 40111 83150 333 58016;
0168834980999992010112600004-17733-039250FM-12+000399999V0203601N003110450019N0020001N1+02541+02401101291ADDGF108991041051008001021999KA1240M+02871MA1999999101241MD1999999+0211REMSYN088AAXX  26004 83498 32595 83606 10254 20240 30124 40129 8452/ 333 10287 29090 55/// 58021;
0156834980999992010112612004-17733-039250FM-12+000399999V0200501N003610450019N0020001N1+02671+02241101241ADDGF107991031051008001011001KA1240N+02391MA1999999101191MD1999999-0021REMSYN076AAXX  26124 83498 32595 70507 10267 20224 30119 40124 83510 333 20239 59002;
0137834980999992010112618004-17733-039250FM-12+000399999V0200501N003112200019N0020001N1+02851+02351100981ADDGF102991021011008001031001MA1999999100931MD1999999-0131REMSYN070AAXX  26184 83498 32595 20506 10285 20235 30093 40098 82130 333 59013;
0213834980999992010112700004-17733-039250FM-12+000399999V0203601N004610450019N0020001N1+02391+02241101021ADDAA106002091AY161061AY221061GF108991041071008001021999KA1240M+02881MA1999999100971MD1999999-0271MW1611REMSYN100AAXX  27004 83498 21595 83609 10239 20224 30097 40102 76162 8472/ 333 10288 29085 55/// 59027 60021;
0201834980999992010112712004-17733-039250FM-12+000399999V0203601N002110450019N0020001N1+02751+02341101111ADDAA124004191AY121061AY211061GF107991031051008001011001KA1240N+02151MA1999999101061MD1999999-0131MW1031REMSYN088AAXX  27124 83498 21595 73604 10275 20234 30106 40111 70321 83510 333 20215 59013 60044;
0182834980999992010112718004-17733-039250FM-12+000399999V0200501N001510450019N0020001N1+02651+02461100881ADDAA106001091AY191061AY261061GF107991021071008001011001MA1999999100831MD1999999-0101MW1601REMSYN082AAXX  27184 83498 21595 70503 10265 20246 30083 40088 76096 82710 333 59010 60011;
0178834980999992010112800004-17733-039250FM-12+000399999V0209999C000010012019N0020001N1+02501+02431101091ADDGA1091+999999999GF109991091999999999999999KA1240M+02961MA1999999101041MD1999999+0071REMSYN082AAXX  28004 83498 32/95 90000 10250 20243 30104 40109 333 10296 29090 55/// 58007;
0173834980999992010112812004-17733-039250FM-12+000399999V0202701N002110450019N0020001N1+02561+02471101291ADDAA124001091GF108991041071008001021999KA1240N+02331MA1999999101241MD1999999+0181REMSYN082AAXX  28124 83498 22595 82704 10256 20247 30124 40129 8472/ 333 20233 58018 60014;
0182834980999992010112818004-17733-039250FM-12+000399999V0200501N004110075019N0020001N1+02281+02251101181ADDAA106013091AY161061AY221061GF108991081071008001999999MA1999999101131MD1999999+0301MW1621REMSYN082AAXX  28184 83498 21595 80508 10228 20225 30113 40118 76262 887// 333 58030 60131;
0213834980999992010112900004-17733-039250FM-12+000399999V0200901N001510450019N0020001N1+02241+02191101301ADDAA106005191AY161061AY261061GF106991031051008001021001KA1240M+02711MA1999999101251MD1999999+0211MW1211REMSYN100AAXX  29004 83498 21595 60903 10224 20219 30125 40130 72166 83520 333 10271 29097 55/// 58021 60051;
0192834980999992010112912004-17733-039250FM-12+000399999V0200901N001019999999N0020001N1+02651+02201101551ADDAA124018091GF105991999021008001001001KA1240N+02101MA1999999101501MD1999999+0061REMSYN082AAXX  29124 83498 22595 50902 10265 20220 30150 40155 83200 333 20210 58006 60184;EQDQ01+000032SCOTLC
0137834980999992010112918004-17733-039250FM-12+000399999V0200901N001512200019N0020001N1+02811+02221101271ADDGF101991011011008001001001MA1999999101221MD1999999+0091REMSYN070AAXX  29184 83498 32595 10903 10281 20222 30122 40127 81100 333 58009;
0178834980999992010113000004-17733-039250FM-12+000399999V0200901N001012200019N0020001N1+02491+02321101391ADDGA1001+999999999GF100991001001999999001001KA1240M+02901MA1999999101341MD1999999+0091REMSYN082AAXX  30004 83498 32995 00902 10249 20232 30134 40139 333 10290 29083 55/// 58009;
0156834980999992010113012004-17733-039250FM-12+000399999V0203601N003110450019N0020001N1+02791+02441101461ADDGF106991041051008001011001KA1240N+02381MA1999999101411MD1999999-0091REMSYN076AAXX  30124 83498 32595 63606 10279 20244 30141 40146 84510 333 20238 59009;
0137834980999992010113018004-17733-039250FM-12+000399999V0200501N003612200019N0020001N1+02851+02481101171ADDGF103991021011008001041001MA1999999101121MD1999999-0101REMSYN070AAXX  30184 83498 32595 30507 10285 20248 30112 40117 82140 333 59010;
0178834980999992010120100004-17733-039250FM-12+000399999V0200501N002612200019N0020001N1+02561+02441101321ADDGA1001+999999999GF100991001001999999001001KA1240M+02911MA1999999101271MD1999999-0071REMSYN082AAXX  01004 83498 32995 00505 10256 20244 30127 40132 333 10291 29087 55/// 59007;
0156834980999992010120112004-17733-039250FM-12+000399999V0203601N003610450019N0020001N1+02781+02401101481ADDGF108991041051008001051999KA1240N+02331MA1999999101431MD1999999+0021REMSYN076AAXX  01124 83498 32595 83607 10278 20240 30143 40148 8455/ 333 20233 58002;
0137834980999992010120118004-17733-039250FM-12+000399999V0203601N004112200019N0020001N1+02821+02401101201ADDGF104991021011008001031001MA1999999101151MD1999999+0031REMSYN070AAXX  01184 83498 32595 43608 10282 20240 30115 40120 82130 333 58003;
0168834980999992010120200004-17733-039250FM-12+000399999V0203601N002612200019N0020001N1+02521+02431101431ADDGF102991021011008001001001KA1240M+02951MA1999999101381MD1999999+0111REMSYN088AAXX  02004 83498 32595 23605 10252 20243 30138 40143 82100 333 10295 29087 55/// 58011;
0156834980999992010120212004-17733-039250FM-12+000399999V0203601N002110450019N0020001N1+02731+02321101511ADDGF106991031021008001011001KA1240N+02291MA1999999101461MD1999999+0031REMSYN076AAXX  02124 83498 32595 63604 10273 20232 30146 40151 83210 333 20229 58003;
0137834980999992010120218004-17733-039250FM-12+000399999V0200501N005112200019N0020001N1+02801+02381101211ADDGF102991021011008001001001MA1999999101161MD1999999+0011REMSYN070AAXX  02184 83498 32595 20510 10280 20238 30116 40121 82100 333 58001;
0178834980999992010120300004-17733-039250FM-12+000399999V0200501N001512200019N0020001N1+02531+02381101291ADDGA1001+999999999GF100991001001999999001001KA1240M+02951MA1999999101241MD1999999-0141REMSYN082AAXX  03004 83498 32995 00503 10253 20238 30124 40129 333 10295 29086 55/// 59014;
0156834980999992010120312004-17733-039250FM-12+000399999V0203601N005112200019N0020001N1+02711+02241101441ADDGF105991041021008001001011KA1240N+02361MA1999999101391MD1999999-0071REMSYN076AAXX  03124 83498 32595 53610 10271 20224 30139 40144 84201 333 20236 59007;
0156834980999992010120318004-17733-039250FM-12+000399999V0203601N004112200019N0020001N1+02831+02101101061ADDGF102991001001999999001011MA1999999101011MD1999999-0151REMSYN070AAXX  03184 83498 32595 23608 10283 20210 30101 40106 80001 333 59015;EQDQ01+008002SCOLCB
0178834980999992010120400004-17733-039250FM-12+000399999V0200501N002112200019N0020001N1+02461+02131101261ADDGA1001+999999999GF100991001001999999001001KA1240M+02881MA1999999101211MD1999999-0031REMSYN082AAXX  04004 83498 32995 00504 10246 20213 30121 40126 333 10288 29076 55/// 59003;
0156834980999992010120412004-17733-039250FM-12+000399999V0203601N003610450019N0020001N1+02641+02311101351ADDGF108991041051008001011999KA1240N+02161MA1999999101301MD1999999-0091REMSYN076AAXX  04124 83498 32595 83607 10264 20231 30130 40135 8451/ 333 20216 59009;
0137834980999992010120418004-17733-039250FM-12+000399999V0203601N004110450019N0020001N1+02781+02301101021ADDGF106991021011008001041001MA1999999100971MD1999999-0041REMSYN070AAXX  04184 83498 32595 63608 10278 20230 30097 40102 82140 333 59004;
0168834980999992010120500004-17733-039250FM-12+000399999V0203601N001012200019N0020001N1+02441+02271101261ADDGF102991021011008001001001KA1240M+02891MA1999999101211MD1999999+0001REMSYN088AAXX  05004 83498 32595 23602 10244 20227 30121 40126 82100 333 10289 29084 55/// 58000;
0156834980999992010120512004-17733-039250FM-12+000399999V0200501N001512200019N0020001N1+02791+02061101371ADDGF101991011011008001001001KA1240N+02111MA1999999101321MD1999999+0021REMSYN076AAXX  05124 83498 32595 10503 10279 20206 30132 40137 81100 333 20211 58002;
0137834980999992010120518004-17733-039250FM-12+000399999V0200501N004612200019N0020001N1+02851+02351101001ADDGF101991011011008001001001MA1999999100951MD1999999-0021REMSYN070AAXX  05184 83498 32595 10509 10285 20235 30095 40100 81100 333 59002;
0178834980999992010120600004-17733-039250FM-12+000399999V0200501N002612200019N0020001N1+02491+02271101241ADDGA1001+999999999GF100991001001999999001001KA1240M+02921MA1999999101191MD1999999-0021REMSYN082AAXX  06004 83498 32995 00505 10249 20227 30119 40124 333 10292 29079 55/// 59002;
0156834980999992010120612004-17733-039250FM-12+000399999V0203201N003110450019N0020001N1+02811+02381101241ADDGF106991041051008001041001KA1240N+02281MA1999999101191MD1999999-0131REMSYN076AAXX  06124 83498 32595 63206 10281 20238 30119 40124 84540 333 20228 59013;
0137834980999992010120618004-17733-039250FM-12+000399999V0200501N006212200019N0020001N1+02851+02541100951ADDGF102991021011008001001001MA1999999100901MD1999999-0051REMSYN070AAXX  06184 83498 32595 20512 10285 20254 30090 40095 82100 333 59005;
0178834980999992010120700004-17733-039250FM-12+000399999V0200501N005112200019N0020001N1+02551+02451101111ADDGA1001+999999999GF100991001001999999001001KA1240M+03001MA1999999101061MD1999999-0131REMSYN082AAXX  07004 83498 32995 00510 10255 20245 30106 40111 333 10300 29088 55/// 59013;
0156834980999992010120712004-17733-039250FM-12+000399999V0203601N003610450019N0020001N1+02661+02541101121ADDGF107991031011008001041011KA1240N+02251MA1999999101071MD1999999-0121REMSYN076AAXX  07124 83498 32595 73607 10266 20254 30107 40112 83141 333 20225 59012;
0137834980999992010120718004-17733-039250FM-12+000399999V0203601N004110450019N0020001N1+02861+02541100811ADDGF106991021011008001041011MA1999999100761MD1999999-0141REMSYN070AAXX  07184 83498 32595 63608 10286 20254 30076 40081 82141 333 59014;
0168834980999992010120800004-17733-039250FM-12+000399999V0203601N001510450019N0020001N1+02561+02441100981ADDGF105991031051008001011001KA1240M+03021MA1999999100931MD1999999-0121REMSYN088AAXX  08004 83498 32595 53603 10256 20244 30093 40098 83510 333 10302 29091 55/// 59012;
0156834980999992010120812004-17733-039250FM-12+000399999V0200501N003110450019N0020001N1+02751+02481100921ADDGF107991031061008001011001KA1240N+02511MA1999999100871MD1999999-0201REMSYN076AAXX  08124 83498 32595 70506 10275 20248 30087 40092 83610 333 20251 59020;
0137834980999992010120818004-17733-039250FM-12+000399999V0200501N005710450019N0020001N1+02831+02581100421ADDGF106991031041008001011001MA1999999100371MD1999999-0391REMSYN070AAXX  08184 83498 32595 60511 10283 20258 30037 40042 83410 333 59039;
0178834980999992010120900004-17733-039250FM-12+000399999V0200501N004112200019N0020001N1+02581+02421100581ADDGA1001+999999999GF100991001001999999001001KA1240M+03951MA1999999100531MD1999999-0401REMSYN082AAXX  09004 83498 32995 00508 10258 20242 30053 40058 333 10395 29089 55/// 59040;
0156834980999992010120912004-17733-039250FM-12+000399999V0202701N001512200019N0020001N1+02911+02431100561ADDGF104991011011008001001021KA1240N+02511MA1999999100511MD1999999-0361REMSYN076AAXX  09124 83498 32595 42703 10291 20243 30051 40056 81102 333 20251 59036;
0137834980999992010120918004-17733-039250FM-12+000399999V0200501N004112200019N0020001N1+03031+02501100291ADDGF104991021011008001001021MA1999999100241MD1999999-0131REMSYN070AAXX  09184 83498 32595 40508 10303 20250 30024 40029 82102 333 59013;
0190834980999992010121000004-17733-039250FM-12+000399999V0200501N001510012019N0020001N1+02591+02491100851ADDGA1091+999999999GF109991091999999999999999KA1240M+03071MA1999999100801MD1999999+0271MW1131REMSYN088AAXX  10004 83498 31/95 90503 10259 20249 30080 40085 713// 333 10307 29085 55/// 58027;
0156834980999992010121012004-17733-039250FM-12+000399999V0201801N004110450019N0020001N1+02701+02501101061ADDGF108991041051008001011999KA1240N+02491MA1999999101011MD1999999+0501REMSYN076AAXX  10124 83498 32595 81808 10270 20250 30101 40106 8451/ 333 20249 58050;
0137834980999992010121018004-17733-039250FM-12+000399999V0201801N004610075019N0020001N1+02761+02481101051ADDGF108991051051008001011999MA1999999101001MD1999999+0761REMSYN070AAXX  10184 83498 32595 81809 10276 20248 30100 40105 8551/ 333 58076;
0168834980999992010121100004-17733-039250FM-12+000399999V0201401N001510450019N0020001N1+02561+02351101171ADDGF105991021011008001011001KA1240M+02861MA1999999101121MD1999999+0321REMSYN088AAXX  11004 83498 32595 51403 10256 20235 30112 40117 82110 333 10286 29088 55/// 58032;
0156834980999992010121112004-17733-039250FM-12+000399999V0201401N001510450019N0020001N1+02691+02201101261ADDGF106991031021008001031001KA1240N+02501MA1999999101221MD1999999+0201REMSYN076AAXX  11124 83498 32595 61403 10269 20220 30122 40126 83230 333 20250 58020;
0156834980999992010121118004-17733-039250FM-12+000399999V0201401N002619999999N0020001N1+02811+02291101081ADDGF106991999021008001001001MA1999999101031MD1999999+0031REMSYN070AAXX  11184 83498 32595 61405 10281 20229 30103 40108 83200 333 58003;EQDQ01+000032SCOTLC
0187834980999992010121200004-17733-039250FM-12+000399999V0201401N005712200019N0020001N1+02591+02251101191ADDGF104991999021008001001001KA1240M+02871MA1999999101141MD1999999+0021REMSYN088AAXX  12004 83498 32595 41411 10259 20225 30114 40119 82200 333 10287 29079 55/// 58002;EQDQ01+000022SCOTLC
0201834980999992010121212004-17733-039250FM-12+000399999V0202301N002112200019N0020001N1+02621+02411100991ADDAA124000591AY161061AY211061GF104991041021008001001001KA1240N+02251MA1999999100941MD1999999+0271MW1211REMSYN088AAXX  12124 83498 21595 42304 10262 20241 30094 40099 72161 84200 333 20225 58027 69944;
0137834980999992010121218004-17733-039250FM-12+000399999V0200901N002610075019N0020001N1+02881+02581100651ADDGF105991051021008001001001MA1999999100601MD1999999-0431REMSYN070AAXX  12184 83498 32595 50905 10288 20258 30060 40065 85200 333 59043;
0168834980999992010121300004-17733-039250FM-12+000399999V0200501N001012200019N0020001N1+02521+02451100731ADDGF102991021011008001001001KA1240M+02941MA1999999100681MD1999999-0461REMSYN088AAXX  13004 83498 32595 20502 10252 20245 30068 40073 82100 333 10294 29091 55/// 59046;
0175834980999992010121312004-17733-039250FM-12+000399999V0203601N004619999999N0020001N1+02831+02241100741ADDGF105991999021008001001001KA1240N+02431MA1999999100691MD1999999-0251REMSYN076AAXX  13124 83498 32595 53609 10283 20224 30069 40074 83200 333 20243 59025;EQDQ01+000032SCOTLC
0137834980999992010121318004-17733-039250FM-12+000399999V0203601N002112200019N0020001N1+02901+02341100361ADDGF101991011011008001001001MA1999999100311MD1999999-0291REMSYN070AAXX  13184 83498 32595 13604 10290 20234 30031 40036 81100 333 59029;
0168834980999992010121400004-17733-039250FM-12+000399999V0200501N003110450019N0020001N1+02631+02391100661ADDGF106991031051008001031001KA1240M+03011MA1999999100611MD1999999-0071REMSYN088AAXX  14004 83498 32595 60506 10263 20239 30061 40066 83530 333 10301 29080 55/// 59007;
0156834980999992010121412004-17733-039250FM-12+000399999V0203601N004610450019N0020001N1+02821+02521100871ADDGF107991041051008001031001KA1240N+02451MA1999999100821MD1999999+0131REMSYN076AAXX  14124 83498 32595 73609 10282 20252 30082 40087 84530 333 20245 58013;
0137834980999992010121418004-17733-039250FM-12+000399999V0203601N006212200019N0020001N1+02921+02601100661ADDGF102991011011008001001011MA1999999100611MD1999999+0301REMSYN070AAXX  14184 83498 32595 23612 10292 20260 30061 40066 81101 333 58030;
0168834980999992010121500004-17733-039250FM-12+000399999V0200501N002612200019N0020001N1+02601+02501101001ADDGF102991021011008001001001KA1240M+02971MA1999999100951MD1999999+0341REMSYN088AAXX  15004 83498 32595 20505 10260 20250 30095 40100 82100 333 10297 29089 55/// 58034;
0175834980999992010121512004-17733-039250FM-12+000399999V0200501N003119999999N0020001N1+02811+02401100941ADDGF105991999021008001001001KA1240N+02601MA1999999100891MD1999999+0071REMSYN076AAXX  15124 83498 32595 50506 10281 20240 30089 40094 83200 333 20260 58007;EQDQ01+000032SCOTLC
0137834980999992010121518004-17733-039250FM-12+000399999V0200501N004612200019N0020001N1+02931+02341101011ADDGF101991011011008001001001MA1999999100961MD1999999+0351REMSYN070AAXX  15184 83498 32595 10509 10293 20234 30096 40101 81100 333 58035;
0178834980999992010121600004-17733-039250FM-12+000399999V0200501N003112200019N0020001N1+02551+02361101321ADDGA1001+999999999GF100991001001999999001001KA1240M+03001MA1999999101271MD1999999+0321REMSYN082AAXX  16004 83498 32995 00506 10255 20236 30127 40132 333 10300 29083 55/// 58032;
0156834980999992010121612004-17733-039250FM-12+000399999V0200501N002610075019N0020001N1+02841+02421101631ADDGF105991051021008001001001KA1240N+02371MA1999999101581MD1999999+0691REMSYN076AAXX  16124 83498 32595 50505 10284 20242 30158 40163 85200 333 20237 58069;
0137834980999992010121618004-17733-039250FM-12+000399999V0200901N003112200019N0020001N1+02901+02501101391ADDGF104991021011008001001011MA1999999101341MD1999999+0381REMSYN070AAXX  16184 83498 32595 40906 10290 20250 30134 40139 82101 333 58038;
0168834980999992010121700004-17733-039250FM-12+000399999V0200501N001012200019N0020001N1+02421+02331101631ADDGF101991011011008001001001KA1240M+02951MA1999999101581MD1999999+0311REMSYN088AAXX  17004 83498 32595 10502 10242 20233 30158 40163 81100 333 10295 29087 55/// 58031;
0175834980999992010121712004-17733-039250FM-12+000399999V0200501N001519999999N0020001N1+02591+02471101591ADDGF106991999021008001001001KA1240N+02301MA1999999101541MD1999999-0041REMSYN076AAXX  17124 83498 32595 60503 10259 20247 30154 40159 83200 333 20230 59004;EQDQ01+000032SCOTLC
0137834980999992010121718004-17733-039250FM-12+000399999V0200901N002612200019N0020001N1+02831+02221101201ADDGF102991021011008001001001MA1999999101151MD1999999-0191REMSYN070AAXX  17184 83498 32595 20905 10283 20222 30115 40120 82100 333 59019;
0178834980999992010121800004-17733-039250FM-12+000399999V0209999C000012200019N0020001N1+02361+02171101331ADDGA1001+999999999GF100991001001999999001001KA1240M+02981MA1999999101281MD1999999-0301REMSYN082AAXX  18004 83498 32995 00000 10236 20217 30128 40133 333 10298 29082 55/// 59030;
0156834980999992010121812004-17733-039250FM-12+000399999V0203201N001512200019N0020001N1+02801+02311101361ADDGF104991041021008001001001KA1240N+02211MA1999999101311MD1999999-0231REMSYN076AAXX  18124 83498 32595 43203 10280 20231 30131 40136 84200 333 20221 59023;
0137834980999992010121818004-17733-039250FM-12+000399999V0200501N003110450019N0020001N1+02901+02341101091ADDGF105991021011008001051001MA1999999101041MD1999999-0111REMSYN070AAXX  18184 83498 32595 50506 10290 20234 30104 40109 82150 333 59011;
0168834980999992010121900004-17733-039250FM-12+000399999V0203601N001012200019N0020001N1+02481+02361101171ADDGF102991011011008001001011KA1240M+02971MA1999999101121MD1999999-0161REMSYN088AAXX  19004 83498 32595 23602 10248 20236 30112 40117 81101 333 10297 29083 55/// 59016;
0156834980999992010121912004-17733-039250FM-12+000399999V0200501N001512200019N0020001N1+02801+02181101401ADDGF104991021021008001011001KA1240N+02281MA1999999101351MD1999999+0041REMSYN076AAXX  19124 83498 32595 40503 10280 20218 30135 40140 82210 333 20228 58004;
0137834980999992010121918004-17733-039250FM-12+000399999V0200901N003112200019N0020001N1+02921+02321101321ADDGF101991011011008001001001MA1999999101271MD1999999+0231REMSYN070AAXX  19184 83498 32595 10906 10292 20232 30127 40132 81100 333 58023;
0178834980999992010122000004-17733-039250FM-12+000399999V0200901N002112200019N0020001N1+02491+02211101421ADDGA1001+999999999GF100991001001999999001001KA1240M+02971MA1999999101371MD1999999+0251REMSYN082AAXX  20004 83498 32995 00904 10249 20221 30137 40142 333 10297 29078 55/// 58025;
0201834980999992010122012004-17733-039250FM-12+000399999V0203201N002110075019N0020001N1+02721+02431101691ADDAA124001091AY161061AY221061GF105991051021008001001001KA1240N+02281MA1999999101641MD1999999+0291MW1211REMSYN088AAXX  20124 83498 21595 53204 10272 20243 30164 40169 72162 85200 333 20228 58029 60014;
0137834980999992010122018004-17733-039250FM-12+000399999V0200501N003612200019N0020001N1+02941+02361101511ADDGF102991021011008001001001MA1999999101461MD1999999+0191REMSYN070AAXX  20184 83498 32595 20507 10294 20236 30146 40151 82100 333 58019;
0168834980999992010122100004-17733-039250FM-12+000399999V0200501N001012200019N0020001N1+02521+02381101561ADDGF102991021011008001001001KA1240M+02991MA1999999101511MD1999999+0141REMSYN088AAXX  21004 83498 32595 20502 10252 20238 30151 40156 82100 333 10299 29085 55/// 58014;
0156834980999992010122112004-17733-039250FM-12+000399999V0200501N001510450019N0020001N1+02821+02291101631ADDGF105991021021008001011001KA1240N+02331MA1999999101581MD1999999-0061REMSYN076AAXX  21124 83498 32595 50503 10282 20229 30158 40163 82210 333 20233 59006;
0137834980999992010122118004-17733-039250FM-12+000399999V0203601N003112200019N0020001N1+02961+02381101291ADDGF101991011011008001001001MA1999999101241MD1999999-0221REMSYN070AAXX  21184 83498 32595 13606 10296 20238 30124 40129 81100 333 59022;
0168834980999992010122200004-17733-039250FM-12+000399999V0203601N002612200019N0020001N1+02681+02331101511ADDGF102991021011008001001001KA1240M+03031MA1999999101461MD1999999-0051REMSYN088AAXX  22004 83498 32595 23605 10268 20233 30146 40151 82100 333 10303 29077 55/// 59005;
0156834980999992010122212004-17733-039250FM-12+000399999V0203601N003610075019N0020001N1+02841+02441101461ADDGF106991061021008001001001KA1240N+02331MA1999999101411MD1999999-0171REMSYN076AAXX  22124 83498 32595 63607 10284 20244 30141 40146 86200 333 20233 59017;
0137834980999992010122218004-17733-039250FM-12+000399999V0200501N003112200019N0020001N1+02981+02531101151ADDGF102991021011008001001001MA1999999101101MD1999999-0141REMSYN070AAXX  22184 83498 32595 20506 10298 20253 30110 40115 82100 333 59014;
0168834980999992010122300004-17733-039250FM-12+000399999V0200501N001512200019N0020001N1+02561+02461101161ADDGF101991011011008001001001KA1240M+03071MA1999999101111MD1999999-0251REMSYN088AAXX  23004 83498 32595 10503 10256 20246 30111 40116 81100 333 10307 29086 55/// 59025;
0156834980999992010122312004-17733-039250FM-12+000399999V0203601N002112200019N0020001N1+02921+02241101141ADDGF101991011011008001001011KA1240N+02371MA1999999101091MD1999999-0321REMSYN076AAXX  23124 83498 32595 13604 10292 20224 30109 40114 81101 333 20237 59032;
0137834980999992010122318004-17733-039250FM-12+000399999V0203601N005112200019N0020001N1+02981+02351999999ADDGF101991011011008001001001MA1999999100811MD1999999-0291REMSYN070AAXX  23184 83498 32595 13610 10298 20235 30081 44086 81100 333 59029;
0178834980999992010122400004-17733-039250FM-12+000399999V0203601N002112200019N0020001N1+02561+02401101031ADDGA1001+999999999GF100991001001999999001001KA1240M+03091MA1999999100981MD1999999-0131REMSYN082AAXX  24004 83498 32995 03604 10256 20240 30098 40103 333 10309 29080 55/// 59013;
0156834980999992010122412004-17733-039250FM-12+000399999V0203601N003110450019N0020001N1+02821+02441101131ADDGF107991021011008001051021KA1240N+02351MA1999999101081MD1999999-0011REMSYN076AAXX  24124 83498 32595 73606 10282 20244 30108 40113 82152 333 20235 59001;
0137834980999992010122418004-17733-039250FM-12+000399999V0203601N004110450019N0020001N1+02981+02581100901ADDGF107991031011008001041011MA1999999100851MD1999999+0041REMSYN070AAXX  24184 83498 32595 73608 10298 20258 30085 40090 83141 333 58004;
0201834980999992010122512004-17733-039250FM-12+000399999V0203601N002610450019N0020001N1+02511+02361101251ADDAA124001091AY161061AY221061GF107991031061008001021001KA1240N+02281MA1999999101201MD1999999+0121MW1211REMSYN088AAXX  25124 83498 21595 73605 10251 20236 30120 40125 72162 83620 333 20228 58012 60014;
0182834980999992010122518004-17733-039250FM-12+000399999V0203601N005712200019N0020001N1+02931+02361100971ADDAA106001091AY121061AY211061GF102991021011008001001011MA1999999100921MD1999999+0071MW1031REMSYN082AAXX  25184 83498 21595 23611 10293 20236 30092 40097 70321 82101 333 58007 60011;
0178834980999992010122600004-17733-039250FM-12+000399999V0203601N001512200019N0020001N1+02611+02391101151ADDGA1001+999999999GF100991001001999999001001KA1240M+02991MA1999999101101MD1999999+0051REMSYN082AAXX  26004 83498 32995 03603 10261 20239 30110 40115 333 10299 29085 55/// 58005;
0156834980999992010122612004-17733-039250FM-12+000399999V0203601N003610450019N0020001N1+02821+02541101251ADDGF107991041021008001041001KA1240N+02371MA1999999101201MD1999999+0001REMSYN076AAXX  26124 83498 32595 73607 10282 20254 30120 40125 84240 333 20237 58000;
0137834980999992010122618004-17733-039250FM-12+000399999V0203601N004112200019N0020001N1+02961+02531101011ADDGF102991021011008001001001MA1999999100961MD1999999+0041REMSYN070AAXX  26184 83498 32595 23608 10296 20253 30096 40101 82100 333 58004;
0168834980999992010122700004-17733-039250FM-12+000399999V0203601N004112200019N0020001N1+02601+02511101111ADDGF101991011011008001001001KA1240M+03071MA1999999101061MD1999999-0041REMSYN088AAXX  27004 83498 32595 13608 10260 20251 30106 40111 81100 333 10307 29088 55/// 59004;
0156834980999992010122712004-17733-039250FM-12+000399999V0203601N005110450019N0020001N1+02921+02361101171ADDGF105991031021008001031001KA1240N+02551MA1999999101121MD1999999-0081REMSYN076AAXX  27124 83498 32595 53610 10292 20236 30112 40117 83230 333 20255 59008;
0137834980999992010122718004-17733-039250FM-12+000399999V0200501N006712200019N0020001N1+02991+02301100851ADDGF102991021011008001001011MA1999999100801MD1999999-0161REMSYN070AAXX  27184 83498 32595 20513 10299 20230 30080 40085 82101 333 59016;
0168834980999992010122800004-17733-039250FM-12+000399999V0203601N001512200019N0020001N1+02591+02401101011ADDGF101991011011008001001001KA1240M+03151MA1999999100961MD1999999-0101REMSYN088AAXX  28004 83498 32595 13603 10259 20240 30096 40101 81100 333 10315 29080 55/// 59010;
0156834980999992010122812004-17733-039250FM-12+000399999V0203601N004110450019N0020001N1+02801+02381101031ADDGF107991041021008001051001KA1240N+02381MA1999999100981MD1999999-0141REMSYN076AAXX  28124 83498 32595 73608 10280 20238 30098 40103 84250 333 20238 59014;
0137834980999992010122818004-17733-039250FM-12+000399999V0203601N004610450019N0020001N1+02901+02461100691ADDGF107991021011008001051001MA1999999100641MD1999999-0161REMSYN070AAXX  28184 83498 32595 73609 10290 20246 30064 40069 82150 333 59016;
0168834980999992010122900004-17733-039250FM-12+000399999V0203601N002110450019N0020001N1+02601+02511100961ADDGF105991021011008001041001KA1240M+03091MA1999999100911MD1999999-0051REMSYN088AAXX  29004 83498 32595 53604 10260 20251 30091 40096 82140 333 10309 29086 55/// 59005;
0156834980999992010122912004-17733-039250FM-12+000399999V0203601N005110450019N0020001N1+02711+02371100961ADDGF107991031061008001011001KA1240N+02541MA1999999100911MD1999999-0071REMSYN076AAXX  29124 83498 32595 73610 10271 20237 30091 40096 83610 333 20254 59007;
0182834980999992010122918004-17733-039250FM-12+000399999V0203601N001510450019N0020001N1+02581+02441100791ADDAA106002091AY161061AY261061GF107991031061008001021001MA1999999100741MD1999999+0101MW1211REMSYN082AAXX  29184 83498 21595 73603 10258 20244 30074 40079 72166 83620 333 58010 60021;
0207834980999992010123000004-17733-039250FM-12+000399999V0203601N001510012019N0020001N1+02531+02271100831ADDAA106000591GA1091+999999999GF109991091999999999999999KA1240M+02801MA1999999100781MD1999999-0131REMSYN100AAXX  30004 83498 21/95 93603 10253 20227 30078 40083 7//21 80280 333 10280 29087 55/// 59013 69941;
0173834980999992010123012004-17733-039250FM-12+000399999V0203601N004110450019N0020001N1+02681+02501100941ADDAA124002091GF108991041051008001011999KA1240N+02401MA1999999100891MD1999999-0021REMSYN082AAXX  30124 83498 22595 83608 10268 20250 30089 40094 8451/ 333 20240 59002 60024;
0182834980999992010123018004-17733-039250FM-12+000399999V0203601N001510450019N0020001N1+02321+02291100931ADDAA106011991AY161061AY221061GF108991031061008001021999MA1999999100881MD1999999-0141MW1921REMSYN082AAXX  30184 83498 21595 83603 10232 20229 30088 40093 79262 8362/ 333 59014 60121;
0213834980999992010123100004-17733-039250FM-12+000399999V0203601N000510075019N0020001N1+02301+02281101061ADDAA106001091AY161061AY261061GF108991051061008001021999KA1240M+02851MA1999999101011MD1999999+0231MW1211REMSYN100AAXX  31004 83498 21595 83601 10230 20228 30101 40106 72166 8562/ 333 10285 29094 55/// 58023 60011;
0173834980999992010123112004-17733-039250FM-12+000399999V0200501N002610450019N0020001N1+02731+02391101111ADDAA124013091GF107991031051008001031001KA1240N+02351MA1999999101061MD1999999+0171REMSYN082AAXX  31124 83498 22595 70505 10273 20239 30106 40111 83530 333 20235 58017 60134;
0137834980999992010123118004-17733-039250FM-12+000399999V0203601N001510450019N0020001N1+02851+02381101001ADDGF107991031051008001011001MA1999999100951MD1999999+0071REMSYN070AAXX  31184 83498 32595 73603 10285 20238 30095 40100 83510 333 58007;
