0165829860999992016010110154-09401-038251FM-16+026999999V0201101N003610051819N009999199+02601+02101999999ADDGA1021+004571999GA2071+005181999GE19MSL   +99999+99999GF199999021999004571999999MA1101501999999REMMET058SPECI SBUF 011015Z 11007KT 9999 FEW015 BKN017 26/21 Q1015=
0165829860999992016010111004-09401-038251FM-15+026999999V0201001N003610051819N009999199+02601+02101999999ADDGA1021+004571999GA2071+005181999GE19MSL   +99999+99999GF199999021999004571999999MA1101501999999REMMET058METAR SBUF 011100Z 10007KT 9999 FEW015 BKN017 26/21 Q1015=
0142829860999992016010112004-09401-038251FM-15+026999999V0201001N003110054919N009999199+02801+02001999999ADDGA1071+005491999GE19MSL   +99999+99999GF199999071999005491999999MA1101501999999REMMET051METAR SBUF 011200Z 10006KT 9999 BKN018 28/20 Q1015=
0142829860999992016010113004-09401-038251FM-15+026999999V0200501N001519999999N009999199+03001+01901999999ADDGA1041+006101999GE19MSL   +99999+99999GF199999041999006101999999MA1101501999999REMMET051METAR SBUF 011300Z 05003KT 9999 SCT020 30/19 Q1015=
0142829860999992016010114004-09401-038251FM-15+026999999V0201501N003119999999N009999199+03101+99999999999ADDGA1021+007011999GE19MSL   +99999+99999GF199999021999007011999999MA1101401999999REMMET051METAR SBUF 011400Z 15006KT 9999 FEW023 31/// Q1014=
0142829860999992016010115004-09401-038251FM-15+026999999V0201701N003119999999N009999199+03301+99999999999ADDGA1021+007621999GE19MSL   +99999+99999GF199999021999007621999999MA1101301999999REMMET051METAR SBUF 011500Z 17006KT 9999 FEW025 33/// Q1013=
0142829860999992016010116004-09401-038251FM-15+026999999V0201801N003119999999N009999199+03401+99999999999ADDGA1021+007621999GE19MSL   +99999+99999GF199999021999007621999999MA1101201999999REMMET051METAR SBUF 011600Z 18006KT 9999 FEW025 34/// Q1012=
0142829860999992016010117004-09401-038251FM-15+026999999V0201601N003119999999N009999199+03601+99999999999ADDGA1021+007621999GE19MSL   +99999+99999GF199999021999007621999999MA1101101999999REMMET051METAR SBUF 011700Z 16006KT 9999 FEW025 36/// Q1011=
0142829860999992016010118004-09401-038251FM-15+026999999V0200801N002619999999N009999199+03601+99999999999ADDGA1021+007621999GE19MSL   +99999+99999GF199999021999007621999999MA1101001999999REMMET051METAR SBUF 011800Z 08005KT 9999 FEW025 36/// Q1010=
0142829860999992016010119004-09401-038251FM-15+026999999V0200701N002119999999N009999199+03601+99999999999ADDGA1041+007011999GE19MSL   +99999+99999GF199999041999007011999999MA1100901999999REMMET051METAR SBUF 011900Z 07004KT 9999 SCT023 36/// Q1009=
0142829860999992016010120004-09401-038251FM-15+026999999V0201401N002619999999N009999199+03501+99999999999ADDGA1021+007011999GE19MSL   +99999+99999GF199999021999007011999999MA1100901999999REMMET051METAR SBUF 012000Z 14005KT 9999 FEW023 35/// Q1009=
0142829860999992016010121004-09401-038251FM-15+026999999V0201101N003119999999N009999199+03401+01401999999ADDGA1021+006711999GE19MSL   +99999+99999GF199999021999006711999999MA1101001999999REMMET051METAR SBUF 012100Z 11006KT 9999 FEW022 34/14 Q1010=
0072829860999992016010121454-09401-038251FM-16+026999999V0201101N007719999999Y999999999+03201+01901999999ADDMA1101001999999REMMET045SPECI SBUF 012145Z 11015KT CAVOK 32/19 Q1010=
0072829860999992016010210404-09401-038251FM-16+026999999V0201601N002619999999Y999999999+02701+99999999999ADDMA1101501999999REMMET045SPECI SBUF 021040Z 16005KT CAVOK 27/// Q1015=
0072829860999992016010211004-09401-038251FM-15+026999999V0201301N002119999999Y999999999+02701+99999999999ADDMA1101501999999REMMET045METAR SBUF 021100Z 13004KT CAVOK 27/// Q1015=
0142829860999992016010212004-09401-038251FM-15+026999999V0200101N002119999999N009999199+03001+99999999999ADDGA1021+006401999GE19MSL   +99999+99999GF199999021999006401999999MA1101501999999REMMET051METAR SBUF 021200Z 01004KT 9999 FEW021 30/// Q1015=
0142829860999992016010213004-09401-038251FM-15+026999999V0200501N002619999999N009999199+03201+99999999999ADDGA1021+006711999GE19MSL   +99999+99999GF199999021999006711999999MA1101401999999REMMET051METAR SBUF 021300Z 05005KT 9999 FEW022 32/// Q1014=
0142829860999992016010214004-09401-038251FM-15+026999999V0200301N003119999999N009999199+03401+99999999999ADDGA1041+006711999GE19MSL   +99999+99999GF199999041999006711999999MA1101401999999REMMET051METAR SBUF 021400Z 03006KT 9999 SCT022 34/// Q1014=
0142829860999992016010215004-09401-038251FM-15+026999999V0203601N002619999999N009999199+03501+99999999999ADDGA1041+006711999GE19MSL   +99999+99999GF199999041999006711999999MA1101201999999REMMET051METAR SBUF 021500Z 36005KT 9999 SCT022 35/// Q1012=
0142829860999992016010216004-09401-038251FM-15+026999999V0200801N003119999999N009999199+03601+99999999999ADDGA1041+006711999GE19MSL   +99999+99999GF199999041999006711999999MA1101101999999REMMET051METAR SBUF 021600Z 08006KT 9999 SCT022 36/// Q1011=
0142829860999992016010218004-09401-038251FM-15+026999999V0200501N002619999999N009999199+03701+99999999999ADDGA1021+006711999GE19MSL   +99999+99999GF199999021999006711999999MA1101001999999REMMET051METAR SBUF 021800Z 05005KT 9999 FEW022 37/// Q1010=
0142829860999992016010219004-09401-038251FM-15+026999999V0202101N002619999999N009999199+03701+99999999999ADDGA1021+006711999GE19MSL   +99999+99999GF199999021999006711999999MA1100901999999REMMET051METAR SBUF 021900Z 21005KT 9999 FEW022 37/// Q1009=
0142829860999992016010221004-09401-038251FM-15+026999999V0200701N001519999999N009999199+03601+99999999999ADDGA1021+006711999GE19MSL   +99999+99999GF199999021999006711999999MA1100901999999REMMET051METAR SBUF 022100Z 07003KT 9999 FEW022 36/// Q1009=
0142829860999992016010221454-09401-038251FM-16+026999999V0200901N001519999999N009999199+03501+99999999999ADDGA1021+006401999GE19MSL   +99999+99999GF199999021999006401999999MA1100901999999REMMET051SPECI SBUF 022145Z 09003KT 9999 FEW021 35/// Q1009=
0072829860999992016010310154-09401-038251FM-16+026999999V0200101N002619999999Y999999999+02801+99999999999ADDMA1101301999999REMMET045SPECI SBUF 031015Z 01005KT CAVOK 28/// Q1013=
0072829860999992016010311004-09401-038251FM-15+026999999V0200101N002119999999Y999999999+03001+99999999999ADDMA1101301999999REMMET045METAR SBUF 031100Z 01004KT CAVOK 30/// Q1013=
0142829860999992016010312004-09401-038251FM-15+026999999V0203401N004119999999N009999199+03101+99999999999ADDGA1021+006101999GE19MSL   +99999+99999GF199999021999006101999999MA1101301999999REMMET051METAR SBUF 031200Z 34008KT 9999 FEW020 31/// Q1013=
0142829860999992016010314004-09401-038251FM-15+026999999V0203601N003119999999N009999199+03601+02001999999ADDGA1021+006711999GE19MSL   +99999+99999GF199999021999006711999999MA1101201999999REMMET051METAR SBUF 031400Z 36006KT 9999 FEW022 36/20 Q1012=
0142829860999992016010315004-09401-038251FM-15+026999999V0200101N002619999999N009999199+03701+01901999999ADDGA1021+007011999GE19MSL   +99999+99999GF199999021999007011999999MA1101101999999REMMET051METAR SBUF 031500Z 01005KT 9999 FEW023 37/19 Q1011=
0142829860999992016010317004-09401-038251FM-15+026999999V0200601N003119999999N009999199+03901+01701999999ADDGA1041+007011999GE19MSL   +99999+99999GF199999041999007011999999MA1100901999999REMMET051METAR SBUF 031700Z 06006KT 9999 SCT023 39/17 Q1009=
0142829860999992016010318004-09401-038251FM-15+026999999V0200401N003119999999N009999199+03901+01501999999ADDGA1041+007011999GE19MSL   +99999+99999GF199999041999007011999999MA1100801999999REMMET051METAR SBUF 031800Z 04006KT 9999 SCT023 39/15 Q1008=
0142829860999992016010319004-09401-038251FM-15+026999999V0200601N002619999999N009999199+03901+01301999999ADDGA1021+007011999GE19MSL   +99999+99999GF199999021999007011999999MA1100701999999REMMET051METAR SBUF 031900Z 06005KT 9999 FEW023 39/13 Q1007=
0142829860999992016010320004-09401-038251FM-15+026999999V0200301N002119999999N009999199+03801+01101999999ADDGA1021+007011999GE19MSL   +99999+99999GF199999021999007011999999MA1100701999999REMMET051METAR SBUF 032000Z 03004KT 9999 FEW023 38/11 Q1007=
0145829860999992016010321004-09401-038251FM-15+026999999V0202601N003119999999N009999199+03501+01601999999ADDGA1021+006711081GE19MSL   +99999+99999GF199999021999006711999999MA1100801999999REMMET054METAR SBUF 032100Z 26006KT 9999 FEW022TCU 35/16 Q1008=
0155829860999992016010321454-09401-038251FM-16+026999999V0200901N004619999999N009999199+03401+01601999999ADDGA1021+006711091GE19MSL   +99999+99999GF199999021999006711999999MA1100901999999MW1131REMMET058SPECI SBUF 032145Z 09009KT 9999 VCTS FEW022CB 34/16 Q1009=
0072829860999992016010410154-09401-038251FM-16+026999999V0203601N003119999999Y999999999+03001+02101999999ADDMA1101301999999REMMET045SPECI SBUF 041015Z 36006KT CAVOK 30/21 Q1013=
0072829860999992016010411004-09401-038251FM-15+026999999V0203601N004119999999Y999999999+03101+02201999999ADDMA1101301999999REMMET045METAR SBUF 041100Z 36008KT CAVOK 31/22 Q1013=
0072829860999992016010412004-09401-038251FM-15+026999999V0203501N004119999999Y999999999+03301+02101999999ADDMA1101401999999REMMET045METAR SBUF 041200Z 35008KT CAVOK 33/21 Q1014=
0142829860999992016010414004-09401-038251FM-15+026999999V0203601N002619999999N009999199+03501+02001999999ADDGA1021+006711999GE19MSL   +99999+99999GF199999021999006711999999MA1101201999999REMMET051METAR SBUF 041400Z 36005KT 9999 FEW022 35/20 Q1012=
0165829860999992016010415004-09401-038251FM-15+026999999V0202401N00211024381CN009999199+03601+02001999999ADDGA1041+006711999GA2041+024381999GE19MSL   +99999+99999GF199999041999006711999999MA1101101999999REMMET058METAR SBUF 041500Z 24004KT 9999 SCT022 SCT080 36/20 Q1011=
0165829860999992016010417004-09401-038251FM-15+026999999V0200101N00461024381CN009999199+03601+01901999999ADDGA1021+006711999GA2041+024381999GE19MSL   +99999+99999GF199999021999006711999999MA1100901999999REMMET058METAR SBUF 041700Z 01009KT 9999 FEW022 SCT080 36/19 Q1009=
0165829860999992016010418004-09401-038251FM-15+026999999V0200101N00311006711CN009999199+03501+01701999999ADDGA1021+005791999GA2041+006711999GE19MSL   +99999+99999GF199999021999005791999999MA1100801999999REMMET058METAR SBUF 041800Z 01006KT 9999 FEW019 SCT022 35/17 Q1008=
0142829860999992016010419004-09401-038251FM-15+026999999V0200301N002619999999N009999199+03601+01701999999ADDGA1021+006711999GE19MSL   +99999+99999GF199999021999006711999999MA1100801999999REMMET051METAR SBUF 041900Z 03005KT 9999 FEW022 36/17 Q1008=
0142829860999992016010421004-09401-038251FM-15+026999999V0201101N005719999999N009999199+02901+02501999999ADDGA1021+006101999GE19MSL   +99999+99999GF199999021999006101999999MA1101101999999REMMET051METAR SBUF 042100Z 11011KT 9999 FEW020 29/25 Q1011=
0145829860999992016010421454-09401-038251FM-16+026999999V0201201N005119999999N009999199+02901+02001999999ADDGA1021+007011081GE19MSL   +99999+99999GF199999021999007011999999MA1101101999999REMMET054SPECI SBUF 042145Z 12010KT 9999 FEW023TCU 29/20 Q1011=
0165829860999992016010510154-09401-038251FM-16+026999999V0201801N002110213419N009999199+02701+02301999999ADDGA1041+005181999GA2071+021341999GE19MSL   +99999+99999GF199999041999005181999999MA1101501999999REMMET058SPECI SBUF 051015Z 18004KT 9999 SCT017 BKN070 27/23 Q1015=
0165829860999992016010511004-09401-038251FM-15+026999999V0201301N002610213419N009999199+02901+02401999999ADDGA1021+005491999GA2071+021341999GE19MSL   +99999+99999GF199999021999005491999999MA1101501999999REMMET058METAR SBUF 051100Z 13005KT 9999 FEW018 BKN070 29/24 Q1015=
0165829860999992016010512004-09401-038251FM-15+026999999V0201601N00261021341CN009999199+02901+02301999999ADDGA1021+005791999GA2041+021341999GE19MSL   +99999+99999GF199999021999005791999999MA1101601999999REMMET058METAR SBUF 051200Z 16005KT 9999 FEW019 SCT070 29/23 Q1016=
0165829860999992016010513004-09401-038251FM-15+026999999V0201501N00261024381CN009999199+03101+02301999999ADDGA1021+006101999GA2041+024381999GE19MSL   +99999+99999GF199999021999006101999999MA1101501999999REMMET058METAR SBUF 051300Z 15005KT 9999 FEW020 SCT080 31/23 Q1015=
0165829860999992016010515004-09401-038251FM-15+026999999V0201701N00311024381CN009999199+03501+02201999999ADDGA1021+006401999GA2041+024381999GE19MSL   +99999+99999GF199999021999006401999999MA1101301999999REMMET058METAR SBUF 051500Z 17006KT 9999 FEW021 SCT080 35/22 Q1013=
0165829860999992016010516004-09401-038251FM-15+026999999V0201601N00211024381CN009999199+03401+99999999999ADDGA1021+006401999GA2041+024381999GE19MSL   +99999+99999GF199999021999006401999999MA1101201999999REMMET058METAR SBUF 051600Z 16004KT 9999 FEW021 SCT080 34/// Q1012=
0072829860999992016010517004-09401-038251FM-15+026999999V0201901N002119999999Y999999999+03601+99999999999ADDMA1101101999999REMMET045METAR SBUF 051700Z 19004KT CAVOK 36/// Q1011=
0165829860999992016010518004-09401-038251FM-15+026999999V0201601N00211030481CN009999199+03501+99999999999ADDGA1021+006101999GA2041+030481999GE19MSL   +99999+99999GF199999021999006101999999MA1101001999999REMMET058METAR SBUF 051800Z 16004KT 9999 FEW020 SCT100 35/// Q1010=
0175829860999992016010519004-09401-038251FM-15+026999999V0202001N002610304819N009999199+03301+99999999999ADDGA1021+005791999GA2071+030481999GE19MSL   +99999+99999GF199999021999005791999999MA1101001999999MW1611REMMET062METAR SBUF 051900Z 20005KT 9999 -RA FEW019 BKN100 33/// Q1010=
0175829860999992016010520004-09401-038251FM-15+026999999V0203601N004110304819N009999199+02901+99999999999ADDGA1041+005791999GA2071+030481999GE19MSL   +99999+99999GF199999041999005791999999MA1101201999999MW1611REMMET062METAR SBUF 052000Z 36008KT 9999 -RA SCT019 BKN100 29/// Q1012=
0165829860999992016010521004-09401-038251FM-15+026999999V0202001N004110304819N009999199+02801+99999999999ADDGA1041+005491999GA2081+030481999GE19MSL   +99999+99999GF199999041999005491999999MA1101201999999REMMET058METAR SBUF 052100Z 20008KT 9999 SCT018 OVC100 28/// Q1012=
0165829860999992016010521454-09401-038251FM-16+026999999V0201901N005110304819N009999199+02701+99999999999ADDGA1041+005491999GA2081+030481999GE19MSL   +99999+99999GF199999041999005491999999MA1101301999999REMMET058SPECI SBUF 052145Z 19010KT 9999 SCT018 OVC100 27/// Q1013=
0174829860999992016010610154-09401-038251FM-16+026999999V0201601N002610243819N005000199+02701+02301999999ADDGA1021+005491999GA2071+024381999GE19MSL   +99999+99999GF199999021999005491999999MA1101501999999MW1101REMMET061SPECI SBUF 061015Z 16005KT 5000 BR FEW018 BKN080 27/23 Q1015=
0174829860999992016010611004-09401-038251FM-15+026999999V0201601N002610243819N005000199+02701+02301999999ADDGA1041+005491999GA2071+024381999GE19MSL   +99999+99999GF199999041999005491999999MA1101501999999MW1101REMMET061METAR SBUF 061100Z 16005KT 5000 BR SCT018 BKN080 27/23 Q1015=
0174829860999992016010612004-09401-038251FM-15+026999999V0201701N002110243819N005000199+02701+02401999999ADDGA1021+005491999GA2071+024381999GE19MSL   +99999+99999GF199999021999005491999999MA1101501999999MW1101REMMET061METAR SBUF 061200Z 17004KT 5000 BR FEW018 BKN080 27/24 Q1015=
0176829860999992016010613004-09401-038251FM-15+026999999V0201801N002610243819N006000199+02801+02301999999ADDGA1021+005491999GA2071+024381999GE19MSL   +99999+99999GF199999021999005491999999MA1101501999999MW1161REMMET063METAR SBUF 061300Z 18005KT 6000 VCSH FEW018 BKN080 28/23 Q1015=
0165829860999992016010614004-09401-038251FM-15+026999999V0201601N002110304819N009999199+03001+02301999999ADDGA1021+006101999GA2081+030481999GE19MSL   +99999+99999GF199999021999006101999999MA1101501999999REMMET058METAR SBUF 061400Z 16004KT 9999 FEW020 OVC100 30/23 Q1015=
0165829860999992016010616004-09401-038251FM-15+026999999V0201601N002110304819N009999199+03201+02101999999ADDGA1041+006101999GA2081+030481999GE19MSL   +99999+99999GF199999041999006101999999MA1101301999999REMMET058METAR SBUF 061600Z 16004KT 9999 SCT020 OVC100 32/21 Q1013=
0165829860999992016010618004-09401-038251FM-15+026999999V0200401N004610304819N009999199+03101+02201999999ADDGA1041+006101999GA2071+030481999GE19MSL   +99999+99999GF199999041999006101999999MA1101201999999REMMET058METAR SBUF 061800Z 04009KT 9999 SCT020 BKN100 31/22 Q1012=
0165829860999992016010619004-09401-038251FM-15+026999999V0200801N003610304819N009999199+03201+02001999999ADDGA1041+006101999GA2081+030481999GE19MSL   +99999+99999GF199999041999006101999999MA1101101999999REMMET058METAR SBUF 061900Z 08007KT 9999 SCT020 OVC100 32/20 Q1011=
0165829860999992016010620004-09401-038251FM-15+026999999V0201101N006210304819N009999199+03101+02001999999ADDGA1041+006101999GA2081+030481999GE19MSL   +99999+99999GF199999041999006101999999MA1101201999999REMMET058METAR SBUF 062000Z 11012KT 9999 SCT020 OVC100 31/20 Q1012=
0165829860999992016010621004-09401-038251FM-15+026999999V0201201N006210274319N009999199+02901+02001999999ADDGA1021+006101999GA2081+027431999GE19MSL   +99999+99999GF199999021999006101999999MA1101301999999REMMET058METAR SBUF 062100Z 12012KT 9999 FEW020 OVC090 29/20 Q1013=
0165829860999992016010621454-09401-038251FM-16+026999999V0201301N004610243819N009999199+02801+02101999999ADDGA1021+005491999GA2081+024381999GE19MSL   +99999+99999GF199999021999005491999999MA1101401999999REMMET058SPECI SBUF 062145Z 13009KT 9999 FEW018 OVC080 28/21 Q1014=
0165829860999992016010710154-09401-038251FM-16+026999999V0202601N001510243819N009999199+02401+02301999999ADDGA1041+005491999GA2071+024381999GE19MSL   +99999+99999GF199999041999005491999999MA1101501999999REMMET058SPECI SBUF 071015Z 26003KT 9999 SCT018 BKN080 24/23 Q1015=
0165829860999992016010711004-09401-038251FM-15+026999999V0203001N000510243819N009999199+02501+02301999999ADDGA1041+005491999GA2071+024381999GE19MSL   +99999+99999GF199999041999005491999999MA1101501999999REMMET058METAR SBUF 071100Z 30001KT 9999 SCT018 BKN080 25/23 Q1015=
0165829860999992016010712004-09401-038251FM-15+026999999V0203101N001010057919N009999199+02601+02301999999ADDGA1071+005791999GA2071+024381999GE19MSL   +99999+99999GF199999071999005791999999MA1101501999999REMMET058METAR SBUF 071200Z 31002KT 9999 BKN019 BKN080 26/23 Q1015=
0165829860999992016010713004-09401-038251FM-15+026999999V0201901N001510243819N009999199+02601+02301999999ADDGA1041+005791999GA2071+024381999GE19MSL   +99999+99999GF199999041999005791999999MA1101501999999REMMET058METAR SBUF 071300Z 19003KT 9999 SCT019 BKN080 26/23 Q1015=
0165829860999992016010714004-09401-038251FM-15+026999999V0200701N001510304819N009999199+02801+02301999999ADDGA1041+005791999GA2071+030481999GE19MSL   +99999+99999GF199999041999005791999999MA1101501999999REMMET058METAR SBUF 071400Z 07003KT 9999 SCT019 BKN100 28/23 Q1015=
0165829860999992016010715004-09401-038251FM-15+026999999V0200401N001510243819N009999199+03101+02201999999ADDGA1041+006101999GA2071+024381999GE19MSL   +99999+99999GF199999041999006101999999MA1101401999999REMMET058METAR SBUF 071500Z 04003KT 9999 SCT020 BKN080 31/22 Q1014=
0165829860999992016010716004-09401-038251FM-15+026999999V0200601N002610243819N009999199+03101+02101999999ADDGA1041+006101999GA2071+024381999GE19MSL   +99999+99999GF199999041999006101999999MA1101301999999REMMET058METAR SBUF 071600Z 06005KT 9999 SCT020 BKN080 31/21 Q1013=
0191829860999992016010717004-09401-038251FM-15+026999999V0200101N001510243819N009999199+03201+02001999999ADDGA1041+006101999GA2021+007011081GA3071+024381999GE19MSL   +99999+99999GF199999041999006101999999MA1101201999999REMMET068METAR SBUF 071700Z 01003KT 9999 SCT020 FEW023TCU BKN080 32/20 Q1012=
0191829860999992016010718004-09401-038251FM-15+026999999V0201601N002610243819N009999199+03101+01901999999ADDGA1041+006101999GA2021+007011081GA3071+024381999GE19MSL   +99999+99999GF199999041999006101999999MA1101101999999REMMET068METAR SBUF 071800Z 16005KT 9999 SCT020 FEW023TCU BKN080 31/19 Q1011=
0191829860999992016010719004-09401-038251FM-15+026999999V0201201N003110243819N009999199+03201+02001999999ADDGA1041+006101999GA2021+007011081GA3071+024381999GE19MSL   +99999+99999GF199999041999006101999999MA1101101999999REMMET068METAR SBUF 071900Z 12006KT 9999 SCT020 FEW023TCU BKN080 32/20 Q1011=
0165829860999992016010720004-09401-038251FM-15+026999999V0201501N00411024381CN009999199+03101+02001999999ADDGA1041+006101999GA2041+024381999GE19MSL   +99999+99999GF199999041999006101999999MA1101001999999REMMET058METAR SBUF 072000Z 15008KT 9999 SCT020 SCT080 31/20 Q1010=
0165829860999992016010721004-09401-038251FM-15+026999999V0201601N003110243819N009999199+03001+02101999999ADDGA1041+006101999GA2071+024381999GE19MSL   +99999+99999GF199999041999006101999999MA1101101999999REMMET058METAR SBUF 072100Z 16006KT 9999 SCT020 BKN080 30/21 Q1011=
0165829860999992016010721454-09401-038251FM-16+026999999V0201601N002610243819N009999199+03001+02001999999ADDGA1041+006101999GA2071+024381999GE19MSL   +99999+99999GF199999041999006101999999MA1101201999999REMMET058SPECI SBUF 072145Z 16005KT 9999 SCT020 BKN080 30/20 Q1012=
0175829860999992016010810154-09401-038251FM-16+026999999V0202301N001510045719N009999199+02401+02401999999ADDGA1071+004571999GA2081+021341999GE19MSL   +99999+99999GF199999071999004571999999MA1101601999999MW1611REMMET062SPECI SBUF 081015Z 23003KT 9999 -RA BKN015 OVC070 24/24 Q1016=
0176829860999992016010811004-09401-038251FM-15+026999999V0202401N001510051819N009999199+02401+02401999999ADDGA1071+005181999GA2081+021341999GE19MSL   +99999+99999GF199999071999005181999999MA1101601999999MW1161REMMET063METAR SBUF 081100Z 24003KT 9999 VCSH BKN017 OVC070 24/24 Q1016=
0188829860999992016010812004-09401-038251FM-15+026999999V0201801N00211005491CN009999199+02501+02401999999ADDGA1021+003661999GA2041+005491999GA3081+021341999GE19MSL   +99999+99999GF199999021999003661999999MA1101601999999REMMET065METAR SBUF 081200Z 18004KT 9999 FEW012 SCT018 OVC070 25/24 Q1016=
0188829860999992016010813004-09401-038251FM-15+026999999V0201801N00151005181CN009999199+02601+02401999999ADDGA1021+003961999GA2041+005181999GA3081+021341999GE19MSL   +99999+99999GF199999021999003961999999MA1101501999999REMMET065METAR SBUF 081300Z 18003KT 9999 FEW013 SCT017 OVC070 26/24 Q1015=
0165829860999992016010814004-09401-038251FM-15+026999999V0201101N001010054919N009999199+02801+02401999999ADDGA1071+005491999GA2081+021341999GE19MSL   +99999+99999GF199999071999005491999999MA1101501999999REMMET058METAR SBUF 081400Z 11002KT 9999 BKN018 OVC070 28/24 Q1015=
0165829860999992016010815004-09401-038251FM-15+026999999V0201501N001510243819N009999199+03001+02401999999ADDGA1041+005491999GA2081+024381999GE19MSL   +99999+99999GF199999041999005491999999MA1101401999999REMMET058METAR SBUF 081500Z 15003KT 9999 SCT018 OVC080 30/24 Q1014=
0165829860999992016010816004-09401-038251FM-15+026999999V0201601N001010274319N009999199+03101+02301999999ADDGA1041+006101999GA2071+027431999GE19MSL   +99999+99999GF199999041999006101999999MA1101401999999REMMET058METAR SBUF 081600Z 16002KT 9999 SCT020 BKN090 31/23 Q1014=
0191829860999992016010817004-09401-038251FM-15+026999999V0201201N001510274319N009999199+03101+02101999999ADDGA1041+006101999GA2021+007011081GA3071+027431999GE19MSL   +99999+99999GF199999041999006101999999MA1101301999999REMMET068METAR SBUF 081700Z 12003KT 9999 SCT020 FEW023TCU BKN090 31/21 Q1013=
0165829860999992016010818004-09401-038251FM-15+026999999V0201801N001510274319N009999199+03101+01901999999ADDGA1041+006101999GA2071+027431999GE19MSL   +99999+99999GF199999041999006101999999MA1101201999999REMMET058METAR SBUF 081800Z 18003KT 9999 SCT020 BKN090 31/19 Q1012=
0165829860999992016010819004-09401-038251FM-15+026999999V0203601N001010274319N009999199+03101+01901999999ADDGA1021+006101999GA2071+027431999GE19MSL   +99999+99999GF199999021999006101999999MA1101201999999REMMET058METAR SBUF 081900Z 36002KT 9999 FEW020 BKN090 31/19 Q1012=
0165829860999992016010820004-09401-038251FM-15+026999999V0200201N001010274319N009999199+03101+02001999999ADDGA1021+006101999GA2071+027431999GE19MSL   +99999+99999GF199999021999006101999999MA1101201999999REMMET058METAR SBUF 082000Z 02002KT 9999 FEW020 BKN090 31/20 Q1012=
0165829860999992016010821004-09401-038251FM-15+026999999V0202101N000510243819N009999199+03001+02201999999ADDGA1021+005791999GA2071+024381999GE19MSL   +99999+99999GF199999021999005791999999MA1101201999999REMMET058METAR SBUF 082100Z 21001KT 9999 FEW019 BKN080 30/22 Q1012=
0165829860999992016010821454-09401-038251FM-16+026999999V0202501N001010243819N009999199+03001+02101999999ADDGA1021+005791999GA2071+024381999GE19MSL   +99999+99999GF199999021999005791999999MA1101201999999REMMET058SPECI SBUF 082145Z 25002KT 9999 FEW019 BKN080 30/21 Q1012=
0165829860999992016010910154-09401-038251FM-16+026999999V0201601N004110213419N009999199+02501+02301999999ADDGA1041+004881999GA2081+021341999GE19MSL   +99999+99999GF199999041999004881999999MA1101601999999REMMET058SPECI SBUF 091015Z 16008KT 9999 SCT016 OVC070 25/23 Q1016=
0165829860999992016010911004-09401-038251FM-15+026999999V0201301N003610213419N009999199+02601+02201999999ADDGA1041+005181999GA2081+021341999GE19MSL   +99999+99999GF199999041999005181999999MA1101601999999REMMET058METAR SBUF 091100Z 13007KT 9999 SCT017 OVC070 26/22 Q1016=
0165829860999992016010913004-09401-038251FM-15+026999999V0201201N003110304819N009999199+03101+02001999999ADDGA1021+006401999GA2071+030481999GE19MSL   +99999+99999GF199999021999006401999999MA1101501999999REMMET058METAR SBUF 091300Z 12006KT 9999 FEW021 BKN100 31/20 Q1015=
0165829860999992016010914004-09401-038251FM-15+026999999V0201101N005110304819N009999199+03301+01801999999ADDGA1021+006401999GA2071+030481999GE19MSL   +99999+99999GF199999021999006401999999MA1101501999999REMMET058METAR SBUF 091400Z 11010KT 9999 FEW021 BKN100 33/18 Q1015=
0165829860999992016010916004-09401-038251FM-15+026999999V0201401N004110304819N009999199+03301+01901999999ADDGA1021+006711999GA2071+030481999GE19MSL   +99999+99999GF199999021999006711999999MA1101301999999REMMET058METAR SBUF 091600Z 14008KT 9999 FEW022 BKN100 33/19 Q1013=
0165829860999992016010917004-09401-038251FM-15+026999999V0201201N003610304819N009999199+03301+02001999999ADDGA1041+006401999GA2071+030481999GE19MSL   +99999+99999GF199999041999006401999999MA1101201999999REMMET058METAR SBUF 091700Z 12007KT 9999 SCT021 BKN100 33/20 Q1012=
0202829860999992016010918004-09401-038251FM-15+026999999V0201001N00511006711CN009999199+03001+02001999999ADDGA1021+006401999GA2041+006711081GA3071+030481999GE19MSL   +99999+99999GF199999021999006401999999MA1101201999999OC101851REMMET071METAR SBUF 091800Z 10010G36KT 9999 FEW021 SCT022TCU BKN100 30/20 Q1012=
0165829860999992016010919004-09401-038251FM-15+026999999V0200601N004610274319N009999199+02901+01801999999ADDGA1021+006101999GA2071+027431999GE19MSL   +99999+99999GF199999021999006101999999MA1101201999999REMMET058METAR SBUF 091900Z 06009KT 9999 FEW020 BKN090 29/18 Q1012=
0165829860999992016010920004-09401-038251FM-15+026999999V0201001N005110274319N009999199+02801+01901999999ADDGA1021+005791999GA2071+027431999GE19MSL   +99999+99999GF199999021999005791999999MA1101301999999REMMET058METAR SBUF 092000Z 10010KT 9999 FEW019 BKN090 28/19 Q1013=
0165829860999992016010921004-09401-038251FM-15+026999999V0200701N004610243819N009999199+02801+01901999999ADDGA1021+005491999GA2071+024381999GE19MSL   +99999+99999GF199999021999005491999999MA1101401999999REMMET058METAR SBUF 092100Z 07009KT 9999 FEW018 BKN080 28/19 Q1014=
0165829860999992016010921454-09401-038251FM-16+026999999V0200801N004610243819N009999199+02801+02001999999ADDGA1021+005491999GA2071+024381999GE19MSL   +99999+99999GF199999021999005491999999MA1101401999999REMMET058SPECI SBUF 092145Z 08009KT 9999 FEW018 BKN080 28/20 Q1014=
0142829860999992016011011004-09401-038251FM-15+026999999V0201501N002619999999N009999199+02701+02101999999ADDGA1021+005491999GE19MSL   +99999+99999GF199999021999005491999999MA1101601999999REMMET051METAR SBUF 101100Z 15005KT 9999 FEW018 27/21 Q1016=
0142829860999992016011012004-09401-038251FM-15+026999999V0201201N005119999999N009999199+03001+02001999999ADDGA1041+005791999GE19MSL   +99999+99999GF199999041999005791999999MA1101601999999REMMET051METAR SBUF 101200Z 12010KT 9999 SCT019 30/20 Q1016=
0142829860999992016011013004-09401-038251FM-15+026999999V0201201N003119999999N009999199+03101+02001999999ADDGA1041+006101999GE19MSL   +99999+99999GF199999041999006101999999MA1101601999999REMMET051METAR SBUF 101300Z 12006KT 9999 SCT020 31/20 Q1016=
0142829860999992016011014004-09401-038251FM-15+026999999V0200501N003619999999N009999199+03301+01901999999ADDGA1041+006101999GE19MSL   +99999+99999GF199999041999006101999999MA1101501999999REMMET051METAR SBUF 101400Z 05007KT 9999 SCT020 33/19 Q1015=
0142829860999992016011015004-09401-038251FM-15+026999999V0200601N003119999999N009999199+03501+99999999999ADDGA1041+006401999GE19MSL   +99999+99999GF199999041999006401999999MA1101401999999REMMET051METAR SBUF 101500Z 06006KT 9999 SCT021 35/// Q1014=
0142829860999992016011017004-09401-038251FM-15+026999999V0201401N003610064019N009999199+03601+99999999999ADDGA1071+006401999GE19MSL   +99999+99999GF199999071999006401999999MA1101201999999REMMET051METAR SBUF 101700Z 14007KT 9999 BKN021 36/// Q1012=
0191829860999992016011018004-09401-038251FM-15+026999999V0201001N005710061019N009999199+03501+99999999999ADDGA1071+006101999GA2021+006401081GA3041+027431999GE19MSL   +99999+99999GF199999071999006101999999MA1101101999999REMMET068METAR SBUF 101800Z 10011KT 9999 BKN020 FEW021TCU SCT090 35/// Q1011=
0168829860999992016011019004-09401-038251FM-15+026999999V0200901N00721024381CN009999199+03201+99999999999ADDGA1021+006401081GA2041+024381999GE19MSL   +99999+99999GF199999021999006401999999MA1101201999999REMMET061METAR SBUF 101900Z 09014KT 9999 FEW021TCU SCT080 32/// Q1012=
0179829860999992016011020004-09401-038251FM-15+026999999V0201101N00571007011CN009999199+03101+99999999999ADDGA1041+006711999GA2041+007011081GE19MSL   +99999+99999GF199999041999006711999999MA1101301999999MW1811REMMET066METAR SBUF 102000Z 11011KT 9999 SHRA SCT022 SCT023TCU 31/// Q1013=
0165829860999992016011021004-09401-038251FM-15+026999999V0200801N00311024381CN009999199+02801+99999999999ADDGA1041+006711999GA2041+024381999GE19MSL   +99999+99999GF199999041999006711999999MA1101301999999REMMET058METAR SBUF 102100Z 08006KT 9999 SCT022 SCT080 28/// Q1013=
0165829860999992016011021454-09401-038251FM-16+026999999V0200901N00311024381CN009999199+02801+99999999999ADDGA1041+006711999GA2041+024381999GE19MSL   +99999+99999GF199999041999006711999999MA1101401999999REMMET058SPECI SBUF 102145Z 09006KT 9999 SCT022 SCT080 28/// Q1014=
0165829860999992016011109004-09401-038251FM-15+026999999V0201401N004110213419N009999199+02501+02301999999ADDGA1041+005181999GA2071+021341999GE19MSL   +99999+99999GF199999041999005181999999MA1101501999999REMMET058METAR SBUF 110900Z 14008KT 9999 SCT017 BKN070 25/23 Q1015=
0165829860999992016011110004-09401-038251FM-15+026999999V0201401N00361005491CN009999199+02601+02301999999ADDGA1021+005181999GA2041+005491999GE19MSL   +99999+99999GF199999021999005181999999MA1101601999999REMMET058METAR SBUF 111000Z 14007KT 9999 FEW017 SCT018 26/23 Q1016=
0165829860999992016011111004-09401-038251FM-15+026999999V0201101N003110213419N009999199+02701+02201999999ADDGA1021+005491999GA2071+021341999GE19MSL   +99999+99999GF199999021999005491999999MA1101601999999REMMET058METAR SBUF 111100Z 11006KT 9999 FEW018 BKN070 27/22 Q1016=
0188829860999992016011112004-09401-038251FM-15+026999999V0201101N00411005791CN009999199+02801+02201999999ADDGA1021+005491999GA2041+005791999GA3071+021341999GE19MSL   +99999+99999GF199999021999005491999999MA1101601999999REMMET065METAR SBUF 111200Z 11008KT 9999 FEW018 SCT019 BKN070 28/22 Q1016=
0165829860999992016011114004-09401-038251FM-15+026999999V0200901N00461024381CN009999199+03101+02001999999ADDGA1021+006101999GA2041+024381999GE19MSL   +99999+99999GF199999021999006101999999MA1101501999999REMMET058METAR SBUF 111400Z 09009KT 9999 FEW020 SCT080 31/20 Q1015=
0165829860999992016011116004-09401-038251FM-15+026999999V0200801N00311024381CN009999199+03301+02001999999ADDGA1021+006101999GA2041+024381999GE19MSL   +99999+99999GF199999021999006101999999MA1101301999999REMMET058METAR SBUF 111600Z 08006KT 9999 FEW020 SCT080 33/20 Q1013=
0168829860999992016011118004-09401-038251FM-15+026999999V0200801N003119999999N009999199+03501+01901999999ADDGA1041+006711999GA2021+007011081GE19MSL   +99999+99999GF199999041999006711999999MA1101101999999REMMET061METAR SBUF 111800Z 08006KT 9999 SCT022 FEW023TCU 35/19 Q1011=
0165829860999992016011119004-09401-038251FM-15+026999999V0200901N00621021341CN009999199+03101+02201999999ADDGA1021+006711999GA2041+021341999GE19MSL   +99999+99999GF199999021999006711999999MA1101101999999REMMET058METAR SBUF 111900Z 09012KT 9999 FEW022 SCT070 31/22 Q1011=
0142829860999992016011121004-09401-038251FM-15+026999999V0201101N005719999999N009999199+03001+02201999999ADDGA1021+007011999GE19MSL   +99999+99999GF199999021999007011999999MA1101101999999REMMET051METAR SBUF 112100Z 11011KT 9999 FEW023 30/22 Q1011=
0142829860999992016011121454-09401-038251FM-16+026999999V0201101N003619999999N009999199+03001+02201999999ADDGA1021+007011999GE19MSL   +99999+99999GF199999021999007011999999MA1101201999999REMMET051SPECI SBUF 112145Z 11007KT 9999 FEW023 30/22 Q1012=
0142829860999992016011210154-09401-038251FM-16+026999999V0201101N003610048819N009999199+02601+02301999999ADDGA1071+004881999GE19MSL   +99999+99999GF199999071999004881999999MA1101501999999REMMET051SPECI SBUF 121015Z 11007KT 9999 BKN016 26/23 Q1015=
0142829860999992016011211004-09401-038251FM-15+026999999V0201001N003610051819N009999199+02701+02201999999ADDGA1071+005181999GE19MSL   +99999+99999GF199999071999005181999999MA1101501999999REMMET051METAR SBUF 121100Z 10007KT 9999 BKN017 27/22 Q1015=
0142829860999992016011212004-09401-038251FM-15+026999999V0201401N003619999999N009999199+02901+02201999999ADDGA1041+005791999GE19MSL   +99999+99999GF199999041999005791999999MA1101501999999REMMET051METAR SBUF 121200Z 14007KT 9999 SCT019 29/22 Q1015=
0142829860999992016011214004-09401-038251FM-15+026999999V0201001N004619999999N009999199+03301+02101999999ADDGA1041+006101999GE19MSL   +99999+99999GF199999041999006101999999MA1101401999999REMMET051METAR SBUF 121400Z 10009KT 9999 SCT020 33/21 Q1014=
0142829860999992016011216004-09401-038251FM-15+026999999V0201001N004110067119N009999199+03501+01901999999ADDGA1071+006711999GE19MSL   +99999+99999GF199999071999006711999999MA1101201999999REMMET051METAR SBUF 121600Z 10008KT 9999 BKN022 35/19 Q1012=
0142829860999992016011217004-09401-038251FM-15+026999999V0201101N004110061019N009999199+03601+01901999999ADDGA1071+006101999GE19MSL   +99999+99999GF199999071999006101999999MA1101101999999REMMET051METAR SBUF 121700Z 11008KT 9999 BKN020 36/19 Q1011=
0142829860999992016011218004-09401-038251FM-15+026999999V0200801N003619999999N009999199+03601+01901999999ADDGA1041+006711999GE19MSL   +99999+99999GF199999041999006711999999MA1101001999999REMMET051METAR SBUF 121800Z 08007KT 9999 SCT022 36/19 Q1010=
0142829860999992016011219004-09401-038251FM-15+026999999V0200801N004119999999N009999199+03501+01901999999ADDGA1041+006711999GE19MSL   +99999+99999GF199999041999006711999999MA1100901999999REMMET051METAR SBUF 121900Z 08008KT 9999 SCT022 35/19 Q1009=
0142829860999992016011220004-09401-038251FM-15+026999999V0200901N004619999999N009999199+03401+01901999999ADDGA1041+006711999GE19MSL   +99999+99999GF199999041999006711999999MA1101001999999REMMET051METAR SBUF 122000Z 09009KT 9999 SCT022 34/19 Q1010=
0142829860999992016011221004-09401-038251FM-15+026999999V0201001N005719999999N009999199+03301+02101999999ADDGA1021+006101999GE19MSL   +99999+99999GF199999021999006101999999MA1101001999999REMMET051METAR SBUF 122100Z 10011KT 9999 FEW020 33/21 Q1010=
0142829860999992016011221454-09401-038251FM-16+026999999V0201101N004119999999N009999199+03201+02101999999ADDGA1021+006101999GE19MSL   +99999+99999GF199999021999006101999999MA1101101999999REMMET051SPECI SBUF 122145Z 11008KT 9999 FEW020 32/21 Q1011=
0165829860999992016011310154-09401-038251FM-16+026999999V0201001N003110213419N009999199+02701+02201999999ADDGA1021+004881999GA2071+021341999GE19MSL   +99999+99999GF199999021999004881999999MA1101301999999REMMET058SPECI SBUF 131015Z 10006KT 9999 FEW016 BKN070 27/22 Q1013=
0165829860999992016011311004-09401-038251FM-15+026999999V0200901N00361024381CN009999199+02901+02101999999ADDGA1021+005491999GA2041+024381999GE19MSL   +99999+99999GF199999021999005491999999MA1101301999999REMMET058METAR SBUF 131100Z 09007KT 9999 FEW018 SCT080 29/21 Q1013=
0165829860999992016011312004-09401-038251FM-15+026999999V0200701N003110304819N009999199+03001+02101999999ADDGA1021+006101999GA2071+030481999GE19MSL   +99999+99999GF199999021999006101999999MA1101401999999REMMET058METAR SBUF 131200Z 07006KT 9999 FEW020 BKN100 30/21 Q1014=
0165829860999992016011314004-09401-038251FM-15+026999999V0201401N002110304819N009999199+03201+99999999999ADDGA1021+006711999GA2071+030481999GE19MSL   +99999+99999GF199999021999006711999999MA1101301999999REMMET058METAR SBUF 131400Z 14004KT 9999 FEW022 BKN100 32/// Q1013=
0165829860999992016011315004-09401-038251FM-15+026999999V0202501N001010304819N009999199+03301+99999999999ADDGA1021+007011999GA2071+030481999GE19MSL   +99999+99999GF199999021999007011999999MA1101301999999REMMET058METAR SBUF 131500Z 25002KT 9999 FEW023 BKN100 33/// Q1013=
0165829860999992016011316004-09401-038251FM-15+026999999V0201801N001510304819N009999199+03301+99999999999ADDGA1041+007011999GA2081+030481999GE19MSL   +99999+99999GF199999041999007011999999MA1101201999999REMMET058METAR SBUF 131600Z 18003KT 9999 SCT023 OVC100 33/// Q1012=
0165829860999992016011318004-09401-038251FM-15+026999999V0201101N005710304819N009999199+03501+99999999999ADDGA1021+007011999GA2071+030481999GE19MSL   +99999+99999GF199999021999007011999999MA1101001999999REMMET058METAR SBUF 131800Z 11011KT 9999 FEW023 BKN100 35/// Q1010=
0165829860999992016011319004-09401-038251FM-15+026999999V0201001N005110304819N009999199+03401+99999999999ADDGA1021+007011999GA2071+030481999GE19MSL   +99999+99999GF199999021999007011999999MA1101001999999REMMET058METAR SBUF 131900Z 10010KT 9999 FEW023 BKN100 34/// Q1010=
0165829860999992016011320004-09401-038251FM-15+026999999V0201101N005110274319N009999199+03301+99999999999ADDGA1021+006711999GA2071+027431999GE19MSL   +99999+99999GF199999021999006711999999MA1101001999999REMMET058METAR SBUF 132000Z 11010KT 9999 FEW022 BKN090 33/// Q1010=
0165829860999992016011321004-09401-038251FM-15+026999999V0201101N005710243819N009999199+03101+99999999999ADDGA1021+006401999GA2071+024381999GE19MSL   +99999+99999GF199999021999006401999999MA1101001999999REMMET058METAR SBUF 132100Z 11011KT 9999 FEW021 BKN080 31/// Q1010=
0165829860999992016011321454-09401-038251FM-16+026999999V0201001N003610243819N009999199+03101+99999999999ADDGA1021+006101999GA2071+024381999GE19MSL   +99999+99999GF199999021999006101999999MA1101101999999REMMET058SPECI SBUF 132145Z 10007KT 9999 FEW020 BKN080 31/// Q1011=
0165829860999992016011410154-09401-038251FM-16+026999999V0201101N002610243819N009999199+02601+02201999999ADDGA1021+004881999GA2071+024381999GE19MSL   +99999+99999GF199999021999004881999999MA1101401999999REMMET058SPECI SBUF 141015Z 11005KT 9999 FEW016 BKN080 26/22 Q1014=
0165829860999992016011411004-09401-038251FM-15+026999999V0201401N002610243819N009999199+02701+02201999999ADDGA1021+005181999GA2071+024381999GE19MSL   +99999+99999GF199999021999005181999999MA1101401999999REMMET058METAR SBUF 141100Z 14005KT 9999 FEW017 BKN080 27/22 Q1014=
0165829860999992016011412004-09401-038251FM-15+026999999V0201501N002110243819N009999199+02801+02201999999ADDGA1041+005791999GA2071+024381999GE19MSL   +99999+99999GF199999041999005791999999MA1101501999999REMMET058METAR SBUF 141200Z 15004KT 9999 SCT019 BKN080 28/22 Q1015=
0165829860999992016011414004-09401-038251FM-15+026999999V0200501N003110243819N009999199+03101+02201999999ADDGA1041+006101999GA2071+024381999GE19MSL   +99999+99999GF199999041999006101999999MA1101401999999REMMET058METAR SBUF 141400Z 05006KT 9999 SCT020 BKN080 31/22 Q1014=
0142829860999992016011417004-09401-038251FM-15+026999999V0200401N002619999999N009999199+03401+02101999999ADDGA1021+006401999GE19MSL   +99999+99999GF199999021999006401999999MA1101101999999REMMET051METAR SBUF 141700Z 04005KT 9999 FEW021 34/21 Q1011=
0142829860999992016011418004-09401-038251FM-15+026999999V0203501N003619999999N009999199+03401+02201999999ADDGA1021+006401999GE19MSL   +99999+99999GF199999021999006401999999MA1101001999999REMMET051METAR SBUF 141800Z 35007KT 9999 FEW021 34/22 Q1010=
0142829860999992016011419004-09401-038251FM-15+026999999V0203401N004619999999N009999199+03301+02101999999ADDGA1021+006401999GE19MSL   +99999+99999GF199999021999006401999999MA1101001999999REMMET051METAR SBUF 141900Z 34009KT 9999 FEW021 33/21 Q1010=
0142829860999992016011420004-09401-038251FM-15+026999999V0203001N006719999999N009999199+03001+01501999999ADDGA1021+006101999GE19MSL   +99999+99999GF199999021999006101999999MA1101101999999REMMET051METAR SBUF 142000Z 30013KT 9999 FEW020 30/15 Q1011=
0142829860999992016011421004-09401-038251FM-15+026999999V0202901N005119999999N009999199+02801+02101999999ADDGA1041+006101999GE19MSL   +99999+99999GF199999041999006101999999MA1101101999999REMMET051METAR SBUF 142100Z 29010KT 9999 SCT020 28/21 Q1011=
0142829860999992016011421454-09401-038251FM-16+026999999V0202401N001519999999N009999199+02801+02201999999ADDGA1041+006101999GE19MSL   +99999+99999GF199999041999006101999999MA1101201999999REMMET051SPECI SBUF 142145Z 24003KT 9999 SCT020 28/22 Q1012=
0072829860999992016011510154-09401-038251FM-16+026999999V0201201N001519999999Y999999999+02601+02001999999ADDMA1101501999999REMMET045SPECI SBUF 151015Z 12003KT CAVOK 26/20 Q1015=
0072829860999992016011511004-09401-038251FM-15+026999999V0201301N002619999999Y999999999+02801+02101999999ADDMA1101501999999REMMET045METAR SBUF 151100Z 13005KT CAVOK 28/21 Q1015=
0142829860999992016011512004-09401-038251FM-15+026999999V0201101N002119999999N009999199+02901+02101999999ADDGA1021+006101999GE19MSL   +99999+99999GF199999021999006101999999MA1101501999999REMMET051METAR SBUF 151200Z 11004KT 9999 FEW020 29/21 Q1015=
0142829860999992016011513004-09401-038251FM-15+026999999V0201701N002119999999N009999199+03101+02201999999ADDGA1021+006101999GE19MSL   +99999+99999GF199999021999006101999999MA1101501999999REMMET051METAR SBUF 151300Z 17004KT 9999 FEW020 31/22 Q1015=
0142829860999992016011514004-09401-038251FM-15+026999999V0201901N003619999999N009999199+03201+02001999999ADDGA1041+006101999GE19MSL   +99999+99999GF199999041999006101999999MA1101401999999REMMET051METAR SBUF 151400Z 19007KT 9999 SCT020 32/20 Q1014=
0165829860999992016011515004-09401-038251FM-15+026999999V0201201N003110243819N009999199+03401+02001999999ADDGA1021+006401999GA2071+024381999GE19MSL   +99999+99999GF199999021999006401999999MA1101301999999REMMET058METAR SBUF 151500Z 12006KT 9999 FEW021 BKN080 34/20 Q1013=
0165829860999992016011516004-09401-038251FM-15+026999999V0201601N002610274319N009999199+03601+02001999999ADDGA1041+006711999GA2071+027431999GE19MSL   +99999+99999GF199999041999006711999999MA1101201999999REMMET058METAR SBUF 151600Z 16005KT 9999 SCT022 BKN090 36/20 Q1012=
0165829860999992016011517004-09401-038251FM-15+026999999V0201301N002610274319N009999199+03601+02001999999ADDGA1021+006711999GA2071+027431999GE19MSL   +99999+99999GF199999021999006711999999MA1101101999999REMMET058METAR SBUF 151700Z 13005KT 9999 FEW022 BKN090 36/20 Q1011=
0165829860999992016011518004-09401-038251FM-15+026999999V0201801N00311027431CN009999199+03601+99999999999ADDGA1021+006711999GA2041+027431999GE19MSL   +99999+99999GF199999021999006711999999MA1101001999999REMMET058METAR SBUF 151800Z 18006KT 9999 FEW022 SCT090 36/// Q1010=
0165829860999992016011519004-09401-038251FM-15+026999999V0201401N00311027431CN009999199+03601+99999999999ADDGA1021+006711999GA2041+027431999GE19MSL   +99999+99999GF199999021999006711999999MA1100901999999REMMET058METAR SBUF 151900Z 14006KT 9999 FEW022 SCT090 36/// Q1009=
0165829860999992016011520004-09401-038251FM-15+026999999V0201101N003110274319N009999199+03601+99999999999ADDGA1021+006711999GA2071+027431999GE19MSL   +99999+99999GF199999021999006711999999MA1100901999999REMMET058METAR SBUF 152000Z 11006KT 9999 FEW022 BKN090 36/// Q1009=
0165829860999992016011521004-09401-038251FM-15+026999999V0201101N003610243819N009999199+03501+99999999999ADDGA1021+006401999GA2071+024381999GE19MSL   +99999+99999GF199999021999006401999999MA1100901999999REMMET058METAR SBUF 152100Z 11007KT 9999 FEW021 BKN080 35/// Q1009=
0165829860999992016011521454-09401-038251FM-16+026999999V0201101N003610213419N009999199+03401+99999999999ADDGA1021+006101999GA2071+021341999GE19MSL   +99999+99999GF199999021999006101999999MA1101001999999REMMET058SPECI SBUF 152145Z 11007KT 9999 FEW020 BKN070 34/// Q1010=
0142829860999992016011610154-09401-038251FM-16+026999999V0201201N002619999999N009999199+02701+01901999999ADDGA1021+005491999GE19MSL   +99999+99999GF199999021999005491999999MA1101301999999REMMET051SPECI SBUF 161015Z 12005KT 9999 FEW018 27/19 Q1013=
0165829860999992016011611004-09401-038251FM-15+026999999V0201201N00211024381CN009999199+02801+02201999999ADDGA1021+005491999GA2041+024381999GE19MSL   +99999+99999GF199999021999005491999999MA1101301999999REMMET058METAR SBUF 161100Z 12004KT 9999 FEW018 SCT080 28/22 Q1013=
0142829860999992016011612004-09401-038251FM-15+026999999V0200601N002119999999N009999199+02901+02301999999ADDGA1041+005791999GE19MSL   +99999+99999GF199999041999005791999999MA1101301999999REMMET051METAR SBUF 161200Z 06004KT 9999 SCT019 29/23 Q1013=
0142829860999992016011613004-09401-038251FM-15+026999999V0200201N002119999999N009999199+03101+02301999999ADDGA1021+006101999GE19MSL   +99999+99999GF199999021999006101999999MA1101301999999REMMET051METAR SBUF 161300Z 02004KT 9999 FEW020 31/23 Q1013=
0165829860999992016011615004-09401-038251FM-15+026999999V0200201N00311030481CN009999199+03501+02101999999ADDGA1041+006711999GA2041+030481999GE19MSL   +99999+99999GF199999041999006711999999MA1101101999999REMMET058METAR SBUF 161500Z 02006KT 9999 SCT022 SCT100 35/21 Q1011=
0165829860999992016011616004-09401-038251FM-15+026999999V0200601N00361030481CN009999199+03601+02001999999ADDGA1041+006711999GA2041+030481999GE19MSL   +99999+99999GF199999041999006711999999MA1101001999999REMMET058METAR SBUF 161600Z 06007KT 9999 SCT022 SCT100 36/20 Q1010=
0165829860999992016011617004-09401-038251FM-15+026999999V0200301N002610243819N009999199+03501+02101999999ADDGA1041+006401999GA2071+024381999GE19MSL   +99999+99999GF199999041999006401999999MA1100901999999REMMET058METAR SBUF 161700Z 03005KT 9999 SCT021 BKN080 35/21 Q1009=
0191829860999992016011618004-09401-038251FM-15+026999999V0200101N00261006401CN009999199+03501+02001999999ADDGA1041+006101999GA2041+006401081GA3071+024381999GE19MSL   +99999+99999GF199999041999006101999999MA1100801999999REMMET068METAR SBUF 161800Z 01005KT 9999 SCT020 SCT021TCU BKN080 35/20 Q1008=
0191829860999992016011619004-09401-038251FM-15+026999999V0200201N00311006711CN009999199+03401+02001999999ADDGA1041+006101999GA2041+006711081GA3071+024381999GE19MSL   +99999+99999GF199999041999006101999999MA1100801999999REMMET068METAR SBUF 161900Z 02006KT 9999 SCT020 SCT022TCU BKN080 34/20 Q1008=
0191829860999992016011620004-09401-038251FM-15+026999999V0203401N00151006711CN009999199+03301+02001999999ADDGA1021+006101999GA2041+006711081GA3071+024381999GE19MSL   +99999+99999GF199999021999006101999999MA1100801999999REMMET068METAR SBUF 162000Z 34003KT 9999 FEW020 SCT022TCU BKN080 33/20 Q1008=
0191829860999992016011621004-09401-038251FM-15+026999999V0202301N00261006101CN009999199+02901+02301999999ADDGA1041+005491999GA2041+006101081GA3071+021341999GE19MSL   +99999+99999GF199999041999005491999999MA1100901999999REMMET068METAR SBUF 162100Z 23005KT 9999 SCT018 SCT020TCU BKN070 29/23 Q1009=
0191829860999992016011621454-09401-038251FM-16+026999999V0202701N00151006101CN009999199+02901+02401999999ADDGA1041+006101081GA2041+006101999GA3071+021341999GE19MSL   +99999+99999GF199999041999006101999999MA1100901999999REMMET068SPECI SBUF 162145Z 27003KT 9999 SCT020TCU SCT020 BKN070 29/24 Q1009=
0165829860999992016011710154-09401-038251FM-16+026999999V0201001N001510213419N009999199+02701+02401999999ADDGA1021+005491999GA2071+021341999GE19MSL   +99999+99999GF199999021999005491999999MA1101301999999REMMET058SPECI SBUF 171015Z 10003KT 9999 FEW018 BKN070 27/24 Q1013=
0165829860999992016011711004-09401-038251FM-15+026999999V0203601N001010213419N009999199+02701+02301999999ADDGA1041+005181999GA2071+021341999GE19MSL   +99999+99999GF199999041999005181999999MA1101401999999REMMET058METAR SBUF 171100Z 36002KT 9999 SCT017 BKN070 27/23 Q1014=
0165829860999992016011712004-09401-038251FM-15+026999999V0200201N002610243819N009999199+02901+02301999999ADDGA1041+005491999GA2071+024381999GE19MSL   +99999+99999GF199999041999005491999999MA1101401999999REMMET058METAR SBUF 171200Z 02005KT 9999 SCT018 BKN080 29/23 Q1014=
0165829860999992016011713004-09401-038251FM-15+026999999V0203501N003110213419N009999199+03001+02201999999ADDGA1021+005491999GA2071+021341999GE19MSL   +99999+99999GF199999021999005491999999MA1101401999999REMMET058METAR SBUF 171300Z 35006KT 9999 FEW018 BKN070 30/22 Q1014=
0165829860999992016011714004-09401-038251FM-15+026999999V0203401N003610213419N009999199+03201+02201999999ADDGA1041+005791999GA2071+021341999GE19MSL   +99999+99999GF199999041999005791999999MA1101301999999REMMET058METAR SBUF 171400Z 34007KT 9999 SCT019 BKN070 32/22 Q1013=
0165829860999992016011715004-09401-038251FM-15+026999999V0203601N003110243819N009999199+03301+02201999999ADDGA1041+005791999GA2071+024381999GE19MSL   +99999+99999GF199999041999005791999999MA1101201999999REMMET058METAR SBUF 171500Z 36006KT 9999 SCT019 BKN080 33/22 Q1012=
0165829860999992016011716004-09401-038251FM-15+026999999V0203601N002610243819N009999199+03301+02101999999ADDGA1041+005791999GA2071+024381999GE19MSL   +99999+99999GF199999041999005791999999MA1101201999999REMMET058METAR SBUF 171600Z 36005KT 9999 SCT019 BKN080 33/21 Q1012=
0165829860999992016011717004-09401-038251FM-15+026999999V0203201N002610243819N009999199+03301+02101999999ADDGA1041+006101999GA2071+024381999GE19MSL   +99999+99999GF199999041999006101999999MA1101101999999REMMET058METAR SBUF 171700Z 32005KT 9999 SCT020 BKN080 33/21 Q1011=
0165829860999992016011718004-09401-038251FM-15+026999999V0202901N003610243819N009999199+03301+02201999999ADDGA1021+006101999GA2071+024381999GE19MSL   +99999+99999GF199999021999006101999999MA1101101999999REMMET058METAR SBUF 171800Z 29007KT 9999 FEW020 BKN080 33/22 Q1011=
0202829860999992016011718304-09401-038251FM-16+026999999V0203001N00621006101CN001200199+02701+02301999999ADDGA1021+005491999GA2041+006101091GA3071+021341999GE19MSL   +99999+99999GF199999021999005491999999MA1101101999999MW1971REMMET073SPECI SBUF 171830Z 30012KT 1200 +TSRA FEW018 SCT020CB BKN070 27/23 Q1011=
0181829860999992016011719004-09401-038251FM-15+026999999V0202801N004610213419N009999199+02301+02201999999ADDGA1041+005491091GA2071+021341999GE19MSL   +99999+99999GF199999041999005491999999MA1101201999999MW1171REMMET068METAR SBUF 171900Z 28009KT 9999 TS SCT018CB BKN070 23/22 Q1012 RERA=
0187829860999992016011719374-09401-038251FM-16+026999999V0203501V003610213419N000400199+02301+02301999999ADDGA1041+005491091GA2071+021341999GE19MSL   +99999+99999GF199999041999005491999999MA1101301999999MW1971REMMET074SPECI SBUF 171937Z 35007KT 350V050 0400 +TSRA SCT018CB BKN070 23/23 Q1013=
0175829860999992016011721004-09401-038251FM-15+026999999V0202701N004110213419N004000199+02202+02001999999ADDGA1041+005181999GA2071+021341999GE19MSL   +99999+99999GF199999041999005181999999MA1101301999999MW1611REMMET062METAR SBUF 172100Z 27008KT 4000 -RA SCT017 BKN070 22/20 Q1013=
0175829860999992016011721454-09401-038251FM-16+026999999V0202701N001010213419N004000199+02201+02201999999ADDGA1041+005181999GA2071+021341999GE19MSL   +99999+99999GF199999041999005181999999MA1101301999999MW1611REMMET062SPECI SBUF 172145Z 27002KT 4000 -RA SCT017 BKN070 22/22 Q1013=
0165829860999992016011810154-09401-038251FM-16+026999999V0201401N002110213419N009999199+02501+02201999999ADDGA1021+003961999GA2071+021341999GE19MSL   +99999+99999GF199999021999003961999999MA1101301999999REMMET058SPECI SBUF 181015Z 14004KT 9999 FEW013 BKN070 25/22 Q1013=
0165829860999992016011811004-09401-038251FM-15+026999999V0201301N001510213419N009999199+02501+02201999999ADDGA1021+004271999GA2071+021341999GE19MSL   +99999+99999GF199999021999004271999999MA1101401999999REMMET058METAR SBUF 181100Z 13003KT 9999 FEW014 BKN070 25/22 Q1014=
0165829860999992016011812004-09401-038251FM-15+026999999V0201101N001510243819N009999199+02601+02201999999ADDGA1021+004881999GA2071+024381999GE19MSL   +99999+99999GF199999021999004881999999MA1101401999999REMMET058METAR SBUF 181200Z 11003KT 9999 FEW016 BKN080 26/22 Q1014=
0165829860999992016011813004-09401-038251FM-15+026999999V0202301N001010243819N009999199+02801+02201999999ADDGA1021+005491999GA2071+024381999GE19MSL   +99999+99999GF199999021999005491999999MA1101401999999REMMET058METAR SBUF 181300Z 23002KT 9999 FEW018 BKN080 28/22 Q1014=
0165829860999992016011814004-09401-038251FM-15+026999999V0200101N002110213419N009999199+03001+02301999999ADDGA1021+005491999GA2071+021341999GE19MSL   +99999+99999GF199999021999005491999999MA1101301999999REMMET058METAR SBUF 181400Z 01004KT 9999 FEW018 BKN070 30/23 Q1013=
0165829860999992016011815004-09401-038251FM-15+026999999V0200201N002110274319N009999199+03101+02201999999ADDGA1041+006101999GA2071+027431999GE19MSL   +99999+99999GF199999041999006101999999MA1101201999999REMMET058METAR SBUF 181500Z 02004KT 9999 SCT020 BKN090 31/22 Q1012=
0165829860999992016011817004-09401-038251FM-15+026999999V0201001N00211024381CN009999199+03401+02001999999ADDGA1041+006401999GA2041+024381999GE19MSL   +99999+99999GF199999041999006401999999MA1101001999999REMMET058METAR SBUF 181700Z 10004KT 9999 SCT021 SCT080 34/20 Q1010=
0191829860999992016011818004-09401-038251FM-15+026999999V0200901N00211006401CN009999199+03401+02001999999ADDGA1021+006101081GA2041+006401999GA3071+024381999GE19MSL   +99999+99999GF199999021999006101999999MA1100901999999REMMET068METAR SBUF 181800Z 09004KT 9999 FEW020TCU SCT021 BKN080 34/20 Q1009=
0191829860999992016011819004-09401-038251FM-15+026999999V0200901N00261006401CN009999199+03401+02101999999ADDGA1021+006101081GA2041+006401999GA3071+024381999GE19MSL   +99999+99999GF199999021999006101999999MA1100901999999REMMET068METAR SBUF 181900Z 09005KT 9999 FEW020TCU SCT021 BKN080 34/21 Q1009=
0199829860999992016011821004-09401-038251FM-15+026999999V0200801N00261006401CN009999199+02801+02201999999ADDGA1021+006101091GA2041+006401999GA3071+024381999GE19MSL   +99999+99999GF199999021999006101999999MA1101001999999MW1171REMMET070METAR SBUF 182100Z 08005KT 9999 TS FEW020CB SCT021 BKN080 28/22 Q1010=
0199829860999992016011821454-09401-038251FM-16+026999999V0200201N00311006101CN009999199+02501+02301999999ADDGA1041+005491091GA2041+006101999GA3071+024381999GE19MSL   +99999+99999GF199999041999005491999999MA1101201999999MW1171REMMET070SPECI SBUF 182145Z 02006KT 9999 TS SCT018CB SCT020 BKN080 25/23 Q1012=
0165829860999992016011910154-09401-038251FM-16+026999999V0203501N00151024381CN009999199+02601+02201999999ADDGA1021+004881999GA2041+024381999GE19MSL   +99999+99999GF199999021999004881999999MA1101401999999REMMET058SPECI SBUF 191015Z 35003KT 9999 FEW016 SCT080 26/22 Q1014=
0165829860999992016011911004-09401-038251FM-15+026999999V0203501N00151024381CN009999199+02801+02201999999ADDGA1021+004881999GA2041+024381999GE19MSL   +99999+99999GF199999021999004881999999MA1101401999999REMMET058METAR SBUF 191100Z 35003KT 9999 FEW016 SCT080 28/22 Q1014=
0165829860999992016011912004-09401-038251FM-15+026999999V0200101N00211027431CN009999199+02801+02201999999ADDGA1041+005791999GA2041+027431999GE19MSL   +99999+99999GF199999041999005791999999MA1101401999999REMMET058METAR SBUF 191200Z 01004KT 9999 SCT019 SCT090 28/22 Q1014=
0142829860999992016011914004-09401-038251FM-15+026999999V0203601N001519999999N009999199+03101+02101999999ADDGA1041+006101999GE19MSL   +99999+99999GF199999041999006101999999MA1101301999999REMMET051METAR SBUF 191400Z 36003KT 9999 SCT020 31/21 Q1013=
0142829860999992016011915004-09401-038251FM-15+026999999V0203401N001519999999N009999199+03201+02101999999ADDGA1041+006101999GE19MSL   +99999+99999GF199999041999006101999999MA1101201999999REMMET051METAR SBUF 191500Z 34003KT 9999 SCT020 32/21 Q1012=
0142829860999992016011917004-09401-038251FM-15+026999999V0203601N001519999999N009999199+03401+01901999999ADDGA1041+006101999GE19MSL   +99999+99999GF199999041999006101999999MA1100901999999REMMET051METAR SBUF 191700Z 36003KT 9999 SCT020 34/19 Q1009=
0142829860999992016011918004-09401-038251FM-15+026999999V0200401N001519999999N009999199+03501+01901999999ADDGA1041+006401999GE19MSL   +99999+99999GF199999041999006401999999MA1100801999999REMMET051METAR SBUF 191800Z 04003KT 9999 SCT021 35/19 Q1008=
0142829860999992016011919004-09401-038251FM-15+026999999V0203501N001519999999N009999199+03501+99999999999ADDGA1021+006401999GE19MSL   +99999+99999GF199999021999006401999999MA1100801999999REMMET051METAR SBUF 191900Z 35003KT 9999 FEW021 35/// Q1008=
0142829860999992016011920004-09401-038251FM-15+026999999V0203401N004619999999N009999199+03301+99999999999ADDGA1021+006401999GE19MSL   +99999+99999GF199999021999006401999999MA1100801999999REMMET051METAR SBUF 192000Z 34009KT 9999 FEW021 33/// Q1008=
0145829860999992016011921004-09401-038251FM-15+026999999V0203501N002619999999N009999199+03101+99999999999ADDGA1021+006401081GE19MSL   +99999+99999GF199999021999006401999999MA1100801999999REMMET054METAR SBUF 192100Z 35005KT 9999 FEW021TCU 31/// Q1008=
0072829860999992016011922004-09401-038251FM-15+026999999V0203501N002619999999Y999999999+03001+99999999999ADDMA1100901999999REMMET045METAR SBUF 192200Z 35005KT CAVOK 30/// Q1009=
0165829860999992016012010154-09401-038251FM-16+026999999V0201601N001010213419N009999199+02401+02401999999ADDGA1041+004571999GA2071+021341999GE19MSL   +99999+99999GF199999041999004571999999MA1101301999999REMMET058SPECI SBUF 201015Z 16002KT 9999 SCT015 BKN070 24/24 Q1013=
0165829860999992016012011004-09401-038251FM-15+026999999V0201401N000510213419N009999199+02501+02401999999ADDGA1041+004571999GA2071+021341999GE19MSL   +99999+99999GF199999041999004571999999MA1101401999999REMMET058METAR SBUF 201100Z 14001KT 9999 SCT015 BKN070 25/24 Q1014=
0165829860999992016012012004-09401-038251FM-15+026999999V0200501N001010213419N009999199+02501+02301999999ADDGA1041+004571999GA2071+021341999GE19MSL   +99999+99999GF199999041999004571999999MA1101401999999REMMET058METAR SBUF 201200Z 05002KT 9999 SCT015 BKN070 25/23 Q1014=
0165829860999992016012014004-09401-038251FM-15+026999999V0200501N001010213419N009999199+02801+02301999999ADDGA1021+005181999GA2071+021341999GE19MSL   +99999+99999GF199999021999005181999999MA1101301999999REMMET058METAR SBUF 201400Z 05002KT 9999 FEW017 BKN070 28/23 Q1013=
0165829860999992016012015004-09401-038251FM-15+026999999V0200301N001510213419N009999199+02801+02301999999ADDGA1021+005491999GA2071+021341999GE19MSL   +99999+99999GF199999021999005491999999MA1101301999999REMMET058METAR SBUF 201500Z 03003KT 9999 FEW018 BKN070 28/23 Q1013=
0165829860999992016012016004-09401-038251FM-15+026999999V0200601N001010213419N009999199+02901+02201999999ADDGA1021+005791999GA2071+021341999GE19MSL   +99999+99999GF199999021999005791999999MA1101101999999REMMET058METAR SBUF 201600Z 06002KT 9999 FEW019 BKN070 29/22 Q1011=
0165829860999992016012017004-09401-038251FM-15+026999999V0203001N001510213419N009999199+03101+02201999999ADDGA1021+006101999GA2071+021341999GE19MSL   +99999+99999GF199999021999006101999999MA1101101999999REMMET058METAR SBUF 201700Z 30003KT 9999 FEW020 BKN070 31/22 Q1011=
0168829860999992016012018004-09401-038251FM-15+026999999V0203501N004110213419N009999199+02901+02301999999ADDGA1021+006101081GA2071+021341999GE19MSL   +99999+99999GF199999021999006101999999MA1101001999999REMMET061METAR SBUF 201800Z 35008KT 9999 FEW020TCU BKN070 29/23 Q1010=
0165829860999992016012020004-09401-038251FM-15+026999999V0203501N002110213419N009999199+02801+02101999999ADDGA1041+006101999GA2071+021341999GE19MSL   +99999+99999GF199999041999006101999999MA1101001999999REMMET058METAR SBUF 202000Z 35004KT 9999 SCT020 BKN070 28/21 Q1010=
0165829860999992016012021004-09401-038251FM-15+026999999V0200201N002110213419N009999199+02701+02201999999ADDGA1021+006101999GA2071+021341999GE19MSL   +99999+99999GF199999021999006101999999MA1101001999999REMMET058METAR SBUF 202100Z 02004KT 9999 FEW020 BKN070 27/22 Q1010=
0184829860999992016012110154-09401-038251FM-16+026999999V0200101N002110036619N004000199+02301+02201999999ADDGA1071+003661999GA2071+021341999GE19MSL   +99999+99999GF199999071999003661999999MA1101401999999MW1101MW2611REMMET065SPECI SBUF 211015Z 01004KT 4000 -RA BR BKN012 BKN070 23/22 Q1014=
0184829860999992016012111004-09401-038251FM-15+026999999V0200301N002110213419N005000199+02301+02301999999ADDGA1041+003961999GA2071+021341999GE19MSL   +99999+99999GF199999041999003961999999MA1101401999999MW1101MW2611REMMET065METAR SBUF 211100Z 03004KT 5000 -RA BR SCT013 BKN070 23/23 Q1014=
0165829860999992016012112004-09401-038251FM-15+026999999V0200401N002110213419N009999199+02401+02301999999ADDGA1041+003961999GA2071+021341999GE19MSL   +99999+99999GF199999041999003961999999MA1101401999999REMMET058METAR SBUF 211200Z 04004KT 9999 SCT013 BKN070 24/23 Q1014=
0165829860999992016012114004-09401-038251FM-15+026999999V0200501N002610213419N009999199+02801+02201999999ADDGA1041+005491999GA2071+021341999GE19MSL   +99999+99999GF199999041999005491999999MA1101401999999REMMET058METAR SBUF 211400Z 05005KT 9999 SCT018 BKN070 28/22 Q1014=
0165829860999992016012116004-09401-038251FM-15+026999999V0200801N003110213419N009999199+03001+02301999999ADDGA1041+005491999GA2071+021341999GE19MSL   +99999+99999GF199999041999005491999999MA1101201999999REMMET058METAR SBUF 211600Z 08006KT 9999 SCT018 BKN070 30/23 Q1012=
0165829860999992016012117004-09401-038251FM-15+026999999V0200701N002110213419N009999199+03101+02201999999ADDGA1041+005491999GA2071+021341999GE19MSL   +99999+99999GF199999041999005491999999MA1101001999999REMMET058METAR SBUF 211700Z 07004KT 9999 SCT018 BKN070 31/22 Q1010=
0168829860999992016012118004-09401-038251FM-15+026999999V0200101N00211005491CN009999199+03101+02201999999ADDGA1041+005181999GA2041+005491081GE19MSL   +99999+99999GF199999041999005181999999MA1101001999999REMMET061METAR SBUF 211800Z 01004KT 9999 SCT017 SCT018TCU 31/22 Q1010=
0168829860999992016012119004-09401-038251FM-15+026999999V0203401N00411006101CN009999199+02801+02301999999ADDGA1041+005181999GA2041+006101081GE19MSL   +99999+99999GF199999041999005181999999MA1101001999999REMMET061METAR SBUF 211900Z 34008KT 9999 SCT017 SCT020TCU 28/23 Q1010=
0191829860999992016012120004-09401-038251FM-15+026999999V0203101N002110051819N009999199+02801+02301999999ADDGA1071+005181999GA2021+006101081GA3071+021341999GE19MSL   +99999+99999GF199999071999005181999999MA1101001999999REMMET068METAR SBUF 212000Z 31004KT 9999 BKN017 FEW020TCU BKN070 28/23 Q1010=
0191829860999992016012121004-09401-038251FM-15+026999999V0203301N003110051819N009999199+02801+02301999999ADDGA1071+005181999GA2021+006101081GA3071+021341999GE19MSL   +99999+99999GF199999071999005181999999MA1101101999999REMMET068METAR SBUF 212100Z 33006KT 9999 BKN017 FEW020TCU BKN070 28/23 Q1011=
0191829860999992016012121454-09401-038251FM-16+026999999V0203601N002110051819N009999199+02701+02401999999ADDGA1071+005181999GA2021+006101081GA3071+021341999GE19MSL   +99999+99999GF199999071999005181999999MA1101201999999REMMET068SPECI SBUF 212145Z 36004KT 9999 BKN017 FEW020TCU BKN070 27/24 Q1012=
0175829860999992016012210154-09401-038251FM-16+026999999V0200401N001010213419N009999199+02301+02301999999ADDGA1041+002131999GA2071+021341999GE19MSL   +99999+99999GF199999041999002131999999MA1101501999999MW1611REMMET062SPECI SBUF 221015Z 04002KT 9999 -RA SCT007 BKN070 23/23 Q1015=
0175829860999992016012211004-09401-038251FM-15+026999999V0202701N001510024419N009999199+02301+02301999999ADDGA1071+002441999GA2071+021341999GE19MSL   +99999+99999GF199999071999002441999999MA1101501999999MW1611REMMET062METAR SBUF 221100Z 27003KT 9999 -RA BKN008 BKN070 23/23 Q1015=
0165829860999992016012212004-09401-038251FM-15+026999999V0200301N000510024419N009999199+02401+02301999999ADDGA1071+002441999GA2071+021341999GE19MSL   +99999+99999GF199999071999002441999999MA1101501999999REMMET058METAR SBUF 221200Z 03001KT 9999 BKN008 BKN070 24/23 Q1015=
0175829860999992016012213004-09401-038251FM-15+026999999V0203501N001010033519N009999199+02501+02401999999ADDGA1071+003351999GA2081+021341999GE19MSL   +99999+99999GF199999071999003351999999MA1101501999999MW1611REMMET062METAR SBUF 221300Z 35002KT 9999 -RA BKN011 OVC070 25/24 Q1015=
0165829860999992016012214004-09401-038251FM-15+026999999V0203601N002610213419N009999199+02701+02301999999ADDGA1041+004571999GA2081+021341999GE19MSL   +99999+99999GF199999041999004571999999MA1101501999999REMMET058METAR SBUF 221400Z 36005KT 9999 SCT015 OVC070 27/23 Q1015=
0165829860999992016012216004-09401-038251FM-15+026999999V0203301N004610045719N009999199+02701+02301999999ADDGA1071+004571999GA2071+021341999GE19MSL   +99999+99999GF199999071999004571999999MA1101401999999REMMET058METAR SBUF 221600Z 33009KT 9999 BKN015 BKN070 27/23 Q1014=
0165829860999992016012217004-09401-038251FM-15+026999999V0203201N004110213419N009999199+02701+02301999999ADDGA1041+004271999GA2081+021341999GE19MSL   +99999+99999GF199999041999004271999999MA1101301999999REMMET058METAR SBUF 221700Z 32008KT 9999 SCT014 OVC070 27/23 Q1013=
0165829860999992016012219004-09401-038251FM-15+026999999V0202801N001010213419N009999199+02501+02301999999ADDGA1041+004571999GA2071+021341999GE19MSL   +99999+99999GF199999041999004571999999MA1101301999999REMMET058METAR SBUF 221900Z 28002KT 9999 SCT015 BKN070 25/23 Q1013=
0165829860999992016012220004-09401-038251FM-15+026999999V0202901N002110213419N009999199+02501+02301999999ADDGA1021+004571999GA2071+021341999GE19MSL   +99999+99999GF199999021999004571999999MA1101301999999REMMET058METAR SBUF 222000Z 29004KT 9999 FEW015 BKN070 25/23 Q1013=
0072829860999992016012221004-09401-038251FM-15+026999999V0203401N002619999999Y999999999+02501+02301999999ADDMA1101301999999REMMET045METAR SBUF 222100Z 34005KT CAVOK 25/23 Q1013=
0072829860999992016012221454-09401-038251FM-16+026999999V0203601N002119999999Y999999999+02401+02301999999ADDMA1101401999999REMMET045SPECI SBUF 222145Z 36004KT CAVOK 24/23 Q1014=
0165829860999992016012310154-09401-038251FM-16+026999999V0202301N000510213419N009999199+02401+02301999999ADDGA1021+002741999GA2071+021341999GE19MSL   +99999+99999GF199999021999002741999999MA1101701999999REMMET058SPECI SBUF 231015Z 23001KT 9999 FEW009 BKN070 24/23 Q1017=
0165829860999992016012311004-09401-038251FM-15+026999999V0202701N001010213419N009999199+02501+02301999999ADDGA1041+004571999GA2071+021341999GE19MSL   +99999+99999GF199999041999004571999999MA1101701999999REMMET058METAR SBUF 231100Z 27002KT 9999 SCT015 BKN070 25/23 Q1017=
0165829860999992016012312004-09401-038251FM-15+026999999V0201801N000510213419N009999199+02601+02301999999ADDGA1041+005181999GA2071+021341999GE19MSL   +99999+99999GF199999041999005181999999MA1101701999999REMMET058METAR SBUF 231200Z 18001KT 9999 SCT017 BKN070 26/23 Q1017=
0165829860999992016012313004-09401-038251FM-15+026999999V0202201N001010213419N009999199+02701+02301999999ADDGA1041+005181999GA2071+021341999GE19MSL   +99999+99999GF199999041999005181999999MA1101701999999REMMET058METAR SBUF 231300Z 22002KT 9999 SCT017 BKN070 27/23 Q1017=
0165829860999992016012314004-09401-038251FM-15+026999999V0200501N001510213419N009999199+02901+02301999999ADDGA1041+005491999GA2071+021341999GE19MSL   +99999+99999GF199999041999005491999999MA1101701999999REMMET058METAR SBUF 231400Z 05003KT 9999 SCT018 BKN070 29/23 Q1017=
0165829860999992016012315004-09401-038251FM-15+026999999V0200501N002110243819N009999199+03001+02301999999ADDGA1041+005491999GA2071+024381999GE19MSL   +99999+99999GF199999041999005491999999MA1101601999999REMMET058METAR SBUF 231500Z 05004KT 9999 SCT018 BKN080 30/23 Q1016=
0165829860999992016012316004-09401-038251FM-15+026999999V0200301N001010243819N009999199+03101+02301999999ADDGA1041+005491999GA2071+024381999GE19MSL   +99999+99999GF199999041999005491999999MA1101401999999REMMET058METAR SBUF 231600Z 03002KT 9999 SCT018 BKN080 31/23 Q1014=
0165829860999992016012317004-09401-038251FM-15+026999999V0200301N002110243819N009999199+03101+02201999999ADDGA1041+006101999GA2071+024381999GE19MSL   +99999+99999GF199999041999006101999999MA1101301999999REMMET058METAR SBUF 231700Z 03004KT 9999 SCT020 BKN080 31/22 Q1013=
0165829860999992016012318004-09401-038251FM-15+026999999V0200101N00211024381CN009999199+03201+02201999999ADDGA1041+006101999GA2041+024381999GE19MSL   +99999+99999GF199999041999006101999999MA1101201999999REMMET058METAR SBUF 231800Z 01004KT 9999 SCT020 SCT080 32/22 Q1012=
0168829860999992016012319004-09401-038251FM-15+026999999V0200201N00311006101CN009999199+03101+02301999999ADDGA1021+005491081GA2041+006101999GE19MSL   +99999+99999GF199999021999005491999999MA1101201999999REMMET061METAR SBUF 231900Z 02006KT 9999 FEW018TCU SCT020 31/23 Q1012=
0191829860999992016012320004-09401-038251FM-15+026999999V0200801N00411006401CN009999199+03001+02201999999ADDGA1021+005491081GA2041+006401999GA3071+024381999GE19MSL   +99999+99999GF199999021999005491999999MA1101301999999REMMET068METAR SBUF 232000Z 08008KT 9999 FEW018TCU SCT021 BKN080 30/22 Q1013=
0191829860999992016012321004-09401-038251FM-15+026999999V0200801N00621006101CN009999199+02601+02401999999ADDGA1021+005491081GA2041+006101999GA3071+021341999GE19MSL   +99999+99999GF199999021999005491999999MA1101401999999REMMET068METAR SBUF 232100Z 08012KT 9999 FEW018TCU SCT020 BKN070 26/24 Q1014=
0165829860999992016012321454-09401-038251FM-16+026999999V0200601N003110061019N009999199+02501+02401999999ADDGA1071+006101999GA2071+024381999GE19MSL   +99999+99999GF199999071999006101999999MA1101401999999REMMET058SPECI SBUF 232145Z 06006KT 9999 BKN020 BKN080 25/24 Q1014=
0165829860999992016012410154-09401-038251FM-16+026999999V0200801N001010039619N009999199+02601+02401999999ADDGA1071+003961999GA2071+021341999GE19MSL   +99999+99999GF199999071999003961999999MA1101601999999REMMET058SPECI SBUF 241015Z 08002KT 9999 BKN013 BKN070 26/24 Q1016=
0165829860999992016012411004-09401-038251FM-15+026999999V0200601N001510045719N009999199+02701+02401999999ADDGA1071+004571999GA2071+021341999GE19MSL   +99999+99999GF199999071999004571999999MA1101601999999REMMET058METAR SBUF 241100Z 06003KT 9999 BKN015 BKN070 27/24 Q1016=
0165829860999992016012412004-09401-038251FM-15+026999999V0201201N001010051819N009999199+02901+02401999999ADDGA1071+005181999GA2071+021341999GE19MSL   +99999+99999GF199999071999005181999999MA1101701999999REMMET058METAR SBUF 241200Z 12002KT 9999 BKN017 BKN070 29/24 Q1017=
0165829860999992016012413004-09401-038251FM-15+026999999V0200201N002110243819N009999199+02901+02301999999ADDGA1041+005491999GA2071+024381999GE19MSL   +99999+99999GF199999041999005491999999MA1101601999999REMMET058METAR SBUF 241300Z 02004KT 9999 SCT018 BKN080 29/23 Q1016=
0165829860999992016012415004-09401-038251FM-15+026999999V0200201N004110243819N009999199+03101+02201999999ADDGA1041+006101999GA2071+024381999GE19MSL   +99999+99999GF199999041999006101999999MA1101601999999REMMET058METAR SBUF 241500Z 02008KT 9999 SCT020 BKN080 31/22 Q1016=
0165829860999992016012416004-09401-038251FM-15+026999999V0200701N002610243819N009999199+03301+02201999999ADDGA1041+006101999GA2071+024381999GE19MSL   +99999+99999GF199999041999006101999999MA1101501999999REMMET058METAR SBUF 241600Z 07005KT 9999 SCT020 BKN080 33/22 Q1015=
0165829860999992016012417004-09401-038251FM-15+026999999V0200601N003110243819N009999199+03201+02301999999ADDGA1041+006401999GA2071+024381999GE19MSL   +99999+99999GF199999041999006401999999MA1101301999999REMMET058METAR SBUF 241700Z 06006KT 9999 SCT021 BKN080 32/23 Q1013=
0165829860999992016012418004-09401-038251FM-15+026999999V0201501N00311024381CN009999199+03101+02301999999ADDGA1041+006401999GA2041+024381999GE19MSL   +99999+99999GF199999041999006401999999MA1101301999999REMMET058METAR SBUF 241800Z 15006KT 9999 SCT021 SCT080 31/23 Q1013=
0165829860999992016012419004-09401-038251FM-15+026999999V0200601N001010243819N009999199+03001+02301999999ADDGA1041+006101999GA2071+024381999GE19MSL   +99999+99999GF199999041999006101999999MA1101301999999REMMET058METAR SBUF 241900Z 06002KT 9999 SCT020 BKN080 30/23 Q1013=
0168829860999992016012420004-09401-038251FM-15+026999999V0201001N005110243819N009999199+02801+02401999999ADDGA1021+006401081GA2071+024381999GE19MSL   +99999+99999GF199999021999006401999999MA1101301999999REMMET061METAR SBUF 242000Z 10010KT 9999 FEW021TCU BKN080 28/24 Q1013=
0168829860999992016012421004-09401-038251FM-15+026999999V0202601N001010243819N009999199+02801+02401999999ADDGA1021+006101081GA2071+024381999GE19MSL   +99999+99999GF199999021999006101999999MA1101401999999REMMET061METAR SBUF 242100Z 26002KT 9999 FEW020TCU BKN080 28/24 Q1014=
0165829860999992016012421454-09401-038251FM-16+026999999V0202501N001510243819N009999199+02801+02401999999ADDGA1021+005491999GA2071+024381999GE19MSL   +99999+99999GF199999021999005491999999MA1101401999999REMMET058SPECI SBUF 242145Z 25003KT 9999 FEW018 BKN080 28/24 Q1014=
0165829860999992016012510154-09401-038251FM-16+026999999V0201401N002610213419N009999199+02701+02401999999ADDGA1041+005181999GA2071+021341999GE19MSL   +99999+99999GF199999041999005181999999MA1101601999999REMMET058SPECI SBUF 251015Z 14005KT 9999 SCT017 BKN070 27/24 Q1016=
0165829860999992016012511004-09401-038251FM-15+026999999V0201301N002110213419N009999199+02701+02401999999ADDGA1041+005181999GA2071+021341999GE19MSL   +99999+99999GF199999041999005181999999MA1101601999999REMMET058METAR SBUF 251100Z 13004KT 9999 SCT017 BKN070 27/24 Q1016=
0165829860999992016012512004-09401-038251FM-15+026999999V0200901N00151021341CN009999199+03001+02401999999ADDGA1041+005491999GA2041+021341999GE19MSL   +99999+99999GF199999041999005491999999MA1101701999999REMMET058METAR SBUF 251200Z 09003KT 9999 SCT018 SCT070 30/24 Q1017=
0142829860999992016012513004-09401-038251FM-15+026999999V0201601N002619999999N009999199+03101+02401999999ADDGA1041+006101999GE19MSL   +99999+99999GF199999041999006101999999MA1101601999999REMMET051METAR SBUF 251300Z 16005KT 9999 SCT020 31/24 Q1016=
0142829860999992016012514004-09401-038251FM-15+026999999V0201601N002119999999N009999199+03101+02201999999ADDGA1041+006101999GE19MSL   +99999+99999GF199999041999006101999999MA1101601999999REMMET051METAR SBUF 251400Z 16004KT 9999 SCT020 31/22 Q1016=
0142829860999992016012515004-09401-038251FM-15+026999999V0200701N002619999999N009999199+03301+02101999999ADDGA1041+006401999GE19MSL   +99999+99999GF199999041999006401999999MA1101501999999REMMET051METAR SBUF 251500Z 07005KT 9999 SCT021 33/21 Q1015=
0142829860999992016012516004-09401-038251FM-15+026999999V0201501N003619999999N009999199+03301+02101999999ADDGA1041+006401999GE19MSL   +99999+99999GF199999041999006401999999MA1101401999999REMMET051METAR SBUF 251600Z 15007KT 9999 SCT021 33/21 Q1014=
0142829860999992016012517004-09401-038251FM-15+026999999V0201101N004119999999N009999199+03401+02101999999ADDGA1021+006401999GE19MSL   +99999+99999GF199999021999006401999999MA1101401999999REMMET051METAR SBUF 251700Z 11008KT 9999 FEW021 34/21 Q1014=
0142829860999992016012518004-09401-038251FM-15+026999999V0201301N004119999999N009999199+03401+02001999999ADDGA1021+006401999GE19MSL   +99999+99999GF199999021999006401999999MA1101301999999REMMET051METAR SBUF 251800Z 13008KT 9999 FEW021 34/20 Q1013=
0142829860999992016012519004-09401-038251FM-15+026999999V0201601N003619999999N009999199+03401+02001999999ADDGA1041+006101999GE19MSL   +99999+99999GF199999041999006101999999MA1101201999999REMMET051METAR SBUF 251900Z 16007KT 9999 SCT020 34/20 Q1012=
0142829860999992016012520004-09401-038251FM-15+026999999V0201301N003619999999N009999199+03301+99999999999ADDGA1021+006101999GE19MSL   +99999+99999GF199999021999006101999999MA1101201999999REMMET051METAR SBUF 252000Z 13007KT 9999 FEW020 33/// Q1012=
0142829860999992016012521004-09401-038251FM-15+026999999V0201201N003119999999N009999199+03201+02101999999ADDGA1021+005791999GE19MSL   +99999+99999GF199999021999005791999999MA1101201999999REMMET051METAR SBUF 252100Z 12006KT 9999 FEW019 32/21 Q1012=
0142829860999992016012522004-09401-038251FM-15+026999999V0201101N003119999999N009999199+03101+02101999999ADDGA1021+005791999GE19MSL   +99999+99999GF199999021999005791999999MA1101301999999REMMET051METAR SBUF 252200Z 11006KT 9999 FEW019 31/21 Q1013=
0142829860999992016012522454-09401-038251FM-16+026999999V0201101N003119999999N009999199+03001+02101999999ADDGA1021+005491999GE19MSL   +99999+99999GF199999021999005491999999MA1101301999999REMMET051SPECI SBUF 252245Z 11006KT 9999 FEW018 30/21 Q1013=
0142829860999992016012611004-09401-038251FM-15+026999999V0200801N001519999999N009999199+02601+99999999999ADDGA1041+005181999GE19MSL   +99999+99999GF199999041999005181999999MA1101601999999REMMET051METAR SBUF 261100Z 08003KT 9999 SCT017 26/// Q1016=
0142829860999992016012613004-09401-038251FM-15+026999999V0201201N001019999999N009999199+02901+99999999999ADDGA1041+005791999GE19MSL   +99999+99999GF199999041999005791999999MA1101601999999REMMET051METAR SBUF 261300Z 12002KT 9999 SCT019 29/// Q1016=
0142829860999992016012615004-09401-038251FM-15+026999999V0202301N002119999999N009999199+03101+99999999999ADDGA1041+006101999GE19MSL   +99999+99999GF199999041999006101999999MA1101501999999REMMET051METAR SBUF 261500Z 23004KT 9999 SCT020 31/// Q1015=
0142829860999992016012616004-09401-038251FM-15+026999999V0201201N002619999999N009999199+03401+99999999999ADDGA1041+006711999GE19MSL   +99999+99999GF199999041999006711999999MA1101401999999REMMET051METAR SBUF 261600Z 12005KT 9999 SCT022 34/// Q1014=
0142829860999992016012617004-09401-038251FM-15+026999999V0201501N002619999999N009999199+03401+99999999999ADDGA1041+006711999GE19MSL   +99999+99999GF199999041999006711999999MA1101301999999REMMET051METAR SBUF 261700Z 15005KT 9999 SCT022 34/// Q1013=
0142829860999992016012618004-09401-038251FM-15+026999999V0201801N002619999999N009999199+03401+99999999999ADDGA1041+006711999GE19MSL   +99999+99999GF199999041999006711999999MA1101201999999REMMET051METAR SBUF 261800Z 18005KT 9999 SCT022 34/// Q1012=
0142829860999992016012619004-09401-038251FM-15+026999999V0201301N003119999999N009999199+03401+99999999999ADDGA1021+006401999GE19MSL   +99999+99999GF199999021999006401999999MA1101101999999REMMET051METAR SBUF 261900Z 13006KT 9999 FEW021 34/// Q1011=
0142829860999992016012620004-09401-038251FM-15+026999999V0201001N003619999999N009999199+03301+99999999999ADDGA1021+006101999GE19MSL   +99999+99999GF199999021999006101999999MA1101101999999REMMET051METAR SBUF 262000Z 10007KT 9999 FEW020 33/// Q1011=
0142829860999992016012621004-09401-038251FM-15+026999999V0201001N004119999999N009999199+03101+99999999999ADDGA1021+006101999GE19MSL   +99999+99999GF199999021999006101999999MA1101101999999REMMET051METAR SBUF 262100Z 10008KT 9999 FEW020 31/// Q1011=
0142829860999992016012621454-09401-038251FM-16+026999999V0201001N003119999999N009999199+03001+99999999999ADDGA1021+006101999GE19MSL   +99999+99999GF199999021999006101999999MA1101101999999REMMET051SPECI SBUF 262145Z 10006KT 9999 FEW020 30/// Q1011=
0165829860999992016012710154-09401-038251FM-16+026999999V0201501N001510213419N009999199+02601+02301999999ADDGA1021+004881999GA2071+021341999GE19MSL   +99999+99999GF199999021999004881999999MA1101501999999REMMET058SPECI SBUF 271015Z 15003KT 9999 FEW016 BKN070 26/23 Q1015=
0165829860999992016012711004-09401-038251FM-15+026999999V0201201N001510213419N009999199+02701+02301999999ADDGA1041+005491999GA2071+021341999GE19MSL   +99999+99999GF199999041999005491999999MA1101501999999REMMET058METAR SBUF 271100Z 12003KT 9999 SCT018 BKN070 27/23 Q1015=
0165829860999992016012712004-09401-038251FM-15+026999999V0200301N00261024381CN009999199+02801+02201999999ADDGA1041+005491999GA2041+024381999GE19MSL   +99999+99999GF199999041999005491999999MA1101601999999REMMET058METAR SBUF 271200Z 03005KT 9999 SCT018 SCT080 28/22 Q1016=
0165829860999992016012713004-09401-038251FM-15+026999999V0200401N002610243819N009999199+03101+02201999999ADDGA1041+005491999GA2071+024381999GE19MSL   +99999+99999GF199999041999005491999999MA1101501999999REMMET058METAR SBUF 271300Z 04005KT 9999 SCT018 BKN080 31/22 Q1015=
0165829860999992016012716004-09401-038251FM-15+026999999V0203501N00311030481CN009999199+03301+99999999999ADDGA1041+006401999GA2041+030481999GE19MSL   +99999+99999GF199999041999006401999999MA1101301999999REMMET058METAR SBUF 271600Z 35006KT 9999 SCT021 SCT100 33/// Q1013=
0165829860999992016012719004-09401-038251FM-15+026999999V0203401N00151021341CN009999199+03201+02001999999ADDGA1021+006401999GA2041+021341999GE19MSL   +99999+99999GF199999021999006401999999MA1101101999999REMMET058METAR SBUF 271900Z 34003KT 9999 FEW021 SCT070 32/20 Q1011=
0145829860999992016012720004-09401-038251FM-15+026999999V0203401N001519999999N009999199+03301+02001999999ADDGA1021+006401081GE19MSL   +99999+99999GF199999021999006401999999MA1101101999999REMMET054METAR SBUF 272000Z 34003KT 9999 FEW021TCU 33/20 Q1011=
0072829860999992016012721004-09401-038251FM-15+026999999V0203201N001519999999Y999999999+03101+02101999999ADDMA1101101999999REMMET045METAR SBUF 272100Z 32003KT CAVOK 31/21 Q1011=
0072829860999992016012721454-09401-038251FM-16+026999999V0200801N004619999999Y999999999+02801+02101999999ADDMA1101201999999REMMET045SPECI SBUF 272145Z 08009KT CAVOK 28/21 Q1012=
0142829860999992016012810154-09401-038251FM-16+026999999V0201101N002119999999N009999199+02601+02301999999ADDGA1021+004571999GE19MSL   +99999+99999GF199999021999004571999999MA1101601999999REMMET051SPECI SBUF 281015Z 11004KT 9999 FEW015 26/23 Q1016=
0142829860999992016012811004-09401-038251FM-15+026999999V0200901N001519999999N009999199+02801+02201999999ADDGA1021+005181999GE19MSL   +99999+99999GF199999021999005181999999MA1101601999999REMMET051METAR SBUF 281100Z 09003KT 9999 FEW017 28/22 Q1016=
0142829860999992016012812004-09401-038251FM-15+026999999V0200801N002119999999N009999199+02801+02201999999ADDGA1041+005491999GE19MSL   +99999+99999GF199999041999005491999999MA1101701999999REMMET051METAR SBUF 281200Z 08004KT 9999 SCT018 28/22 Q1017=
0142829860999992016012813004-09401-038251FM-15+026999999V0201201N002619999999N009999199+02901+02101999999ADDGA1041+006101999GE19MSL   +99999+99999GF199999041999006101999999MA1101601999999REMMET051METAR SBUF 281300Z 12005KT 9999 SCT020 29/21 Q1016=
0142829860999992016012815004-09401-038251FM-15+026999999V0200801N004619999999N009999199+03201+99999999999ADDGA1041+006101999GE19MSL   +99999+99999GF199999041999006101999999MA1101501999999REMMET051METAR SBUF 281500Z 08009KT 9999 SCT020 32/// Q1015=
0142829860999992016012817004-09401-038251FM-15+026999999V0201001N004119999999N009999199+03301+99999999999ADDGA1041+006401999GE19MSL   +99999+99999GF199999041999006401999999MA1101301999999REMMET051METAR SBUF 281700Z 10008KT 9999 SCT021 33/// Q1013=
0142829860999992016012818004-09401-038251FM-15+026999999V0201301N003619999999N009999199+03401+99999999999ADDGA1041+006401999GE19MSL   +99999+99999GF199999041999006401999999MA1101201999999REMMET051METAR SBUF 281800Z 13007KT 9999 SCT021 34/// Q1012=
0142829860999992016012819004-09401-038251FM-15+026999999V0201101N003119999999N009999199+03401+99999999999ADDGA1021+006711999GE19MSL   +99999+99999GF199999021999006711999999MA1101201999999REMMET051METAR SBUF 281900Z 11006KT 9999 FEW022 34/// Q1012=
0142829860999992016012820004-09401-038251FM-15+026999999V0201101N002619999999N009999199+03301+99999999999ADDGA1021+006711999GE19MSL   +99999+99999GF199999021999006711999999MA1101201999999REMMET051METAR SBUF 282000Z 11005KT 9999 FEW022 33/// Q1012=
0142829860999992016012821004-09401-038251FM-15+026999999V0201201N003119999999N009999199+03201+99999999999ADDGA1021+006711999GE19MSL   +99999+99999GF199999021999006711999999MA1101201999999REMMET051METAR SBUF 282100Z 12006KT 9999 FEW022 32/// Q1012=
0142829860999992016012821454-09401-038251FM-16+026999999V0201301N004619999999N009999199+03101+99999999999ADDGA1021+006711999GE19MSL   +99999+99999GF199999021999006711999999MA1101201999999REMMET051SPECI SBUF 282145Z 13009KT 9999 FEW022 31/// Q1012=
0142829860999992016012910154-09401-038251FM-16+026999999V0201101N004110048819N009999199+02501+99999999999ADDGA1071+004881999GE19MSL   +99999+99999GF199999071999004881999999MA1101601999999REMMET051SPECI SBUF 291015Z 11008KT 9999 BKN016 25/// Q1016=
0142829860999992016012911004-09401-038251FM-15+026999999V0201001N004110051819N009999199+02601+99999999999ADDGA1071+005181999GE19MSL   +99999+99999GF199999071999005181999999MA1101701999999REMMET051METAR SBUF 291100Z 10008KT 9999 BKN017 26/// Q1017=
0142829860999992016012912004-09401-038251FM-15+026999999V0201101N004110054919N009999199+02801+02101999999ADDGA1071+005491999GE19MSL   +99999+99999GF199999071999005491999999MA1101601999999REMMET051METAR SBUF 291200Z 11008KT 9999 BKN018 28/21 Q1016=
0142829860999992016012913004-09401-038251FM-15+026999999V0201001N005110054919N009999199+02901+02101999999ADDGA1071+005491999GE19MSL   +99999+99999GF199999071999005491999999MA1101601999999REMMET051METAR SBUF 291300Z 10010KT 9999 BKN018 29/21 Q1016=
0142829860999992016012915004-09401-038251FM-15+026999999V0200901N005710061019N009999199+03201+02101999999ADDGA1071+006101999GE19MSL   +99999+99999GF199999071999006101999999MA1101501999999REMMET051METAR SBUF 291500Z 09011KT 9999 BKN020 32/21 Q1015=
0142829860999992016012916004-09401-038251FM-15+026999999V0200801N004610064019N009999199+03101+02201999999ADDGA1071+006401999GE19MSL   +99999+99999GF199999071999006401999999MA1101401999999REMMET051METAR SBUF 291600Z 08009KT 9999 BKN021 31/22 Q1014=
0142829860999992016012917004-09401-038251FM-15+026999999V0201201N005119999999N009999199+03201+02101999999ADDGA1041+006711999GE19MSL   +99999+99999GF199999041999006711999999MA1101301999999REMMET051METAR SBUF 291700Z 12010KT 9999 SCT022 32/21 Q1013=
0142829860999992016012918004-09401-038251FM-15+026999999V0201101N005710067119N009999199+03301+01901999999ADDGA1071+006711999GE19MSL   +99999+99999GF199999071999006711999999MA1101301999999REMMET051METAR SBUF 291800Z 11011KT 9999 BKN022 33/19 Q1013=
0142829860999992016012919004-09401-038251FM-15+026999999V0201201N006719999999N009999199+03301+01901999999ADDGA1041+006401999GE19MSL   +99999+99999GF199999041999006401999999MA1101201999999REMMET051METAR SBUF 291900Z 12013KT 9999 SCT021 33/19 Q1012=
0142829860999992016012920004-09401-038251FM-15+026999999V0201201N006719999999N009999199+03201+01901999999ADDGA1021+006101999GE19MSL   +99999+99999GF199999021999006101999999MA1101201999999REMMET051METAR SBUF 292000Z 12013KT 9999 FEW020 32/19 Q1012=
0156829860999992016012921004-09401-038251FM-15+026999999V0200701N008810064019N009999199+02402+01901999999ADDGA1071+006401081GE19MSL   +99999+99999GF199999071999006401999999MA1101501999999OC101601REMMET057METAR SBUF 292100Z 07017G31KT 9999 BKN021TCU 24/19 Q1015=
0142829860999992016012922004-09401-038251FM-15+026999999V0200901N005719999999N009999199+02501+02001999999ADDGA1041+005491999GE19MSL   +99999+99999GF199999041999005491999999MA1101601999999REMMET051METAR SBUF 292200Z 09011KT 9999 SCT018 25/20 Q1016=
0142829860999992016012923004-09401-038251FM-15+026999999V0200801N003119999999N009999199+02401+01901999999ADDGA1021+005491999GE19MSL   +99999+99999GF199999021999005491999999MA1101501999999REMMET051METAR SBUF 292300Z 08006KT 9999 FEW018 24/19 Q1015=
0142829860999992016013000004-09401-038251FM-15+026999999V0201401N003119999999N009999199+02501+01901999999ADDGA1041+005181999GE19MSL   +99999+99999GF199999041999005181999999MA1101701999999REMMET051METAR SBUF 300000Z 14006KT 9999 SCT017 25/19 Q1017=
0142829860999992016013000304-09401-038251FM-16+026999999V0201101N003619999999N009999199+02401+01901999999ADDGA1021+005181999GE19MSL   +99999+99999GF199999021999005181999999MA1101601999999REMMET051SPECI SBUF 300030Z 11007KT 9999 FEW017 24/19 Q1016=
0142829860999992016013010154-09401-038251FM-16+026999999V0201601N002110048819N009999199+02301+02101999999ADDGA1071+004881999GE19MSL   +99999+99999GF199999071999004881999999MA1101601999999REMMET051SPECI SBUF 301015Z 16004KT 9999 BKN016 23/21 Q1016=
0142829860999992016013011004-09401-038251FM-15+026999999V0200901N003110048819N009999199+02401+02101999999ADDGA1071+004881999GE19MSL   +99999+99999GF199999071999004881999999MA1101601999999REMMET051METAR SBUF 301100Z 09006KT 9999 BKN016 24/21 Q1016=
0142829860999992016013012004-09401-038251FM-15+026999999V0201101N003610051819N009999199+02701+02101999999ADDGA1071+005181999GE19MSL   +99999+99999GF199999071999005181999999MA1101601999999REMMET051METAR SBUF 301200Z 11007KT 9999 BKN017 27/21 Q1016=
0142829860999992016013013004-09401-038251FM-15+026999999V0201001N003610054919N009999199+02901+02101999999ADDGA1071+005491999GE19MSL   +99999+99999GF199999071999005491999999MA1101601999999REMMET051METAR SBUF 301300Z 10007KT 9999 BKN018 29/21 Q1016=
0142829860999992016013015004-09401-038251FM-15+026999999V0201101N005710061019N009999199+03101+01901999999ADDGA1071+006101999GE19MSL   +99999+99999GF199999071999006101999999MA1101501999999REMMET051METAR SBUF 301500Z 11011KT 9999 BKN020 31/19 Q1015=
0142829860999992016013016004-09401-038251FM-15+026999999V0201001N005119999999N009999199+03201+02001999999ADDGA1041+006101999GE19MSL   +99999+99999GF199999041999006101999999MA1101401999999REMMET051METAR SBUF 301600Z 10010KT 9999 SCT020 32/20 Q1014=
0142829860999992016013017004-09401-038251FM-15+026999999V0200901N005119999999N009999199+03301+01901999999ADDGA1041+006401999GE19MSL   +99999+99999GF199999041999006401999999MA1101301999999REMMET051METAR SBUF 301700Z 09010KT 9999 SCT021 33/19 Q1013=
0142829860999992016013018004-09401-038251FM-15+026999999V0201201N006219999999N009999199+03301+01801999999ADDGA1021+006401999GE19MSL   +99999+99999GF199999021999006401999999MA1101201999999REMMET051METAR SBUF 301800Z 12012KT 9999 FEW021 33/18 Q1012=
0168829860999992016013019004-09401-038251FM-15+026999999V0201201N00721006401CN009999199+03301+02001999999ADDGA1041+006101999GA2041+006401081GE19MSL   +99999+99999GF199999041999006101999999MA1101201999999REMMET061METAR SBUF 301900Z 12014KT 9999 SCT020 SCT021TCU 33/20 Q1012=
0201829860999992016013020004-09401-038251FM-15+026999999V0200701N00461006401CN009999199+02701+02201999999ADDGA1041+005791999GA2041+006401081GA3071+021341999GE19MSL   +99999+99999GF199999041999005791999999MA1101301999999MW1611REMMET072METAR SBUF 302000Z 07009KT 9999 -RA SCT019 SCT021TCU BKN070 27/22 Q1013=
0191829860999992016013021004-09401-038251FM-15+026999999V0200901N00211006401CN009999199+02801+99999999999ADDGA1021+005791999GA2041+006401081GA3071+021341999GE19MSL   +99999+99999GF199999021999005791999999MA1101401999999REMMET068METAR SBUF 302100Z 09004KT 9999 FEW019 SCT021TCU BKN070 28/// Q1014=
0202829860999992016013021274-09401-038251FM-16+026999999V0200901N00311006401CN009999199+02801+99999999999ADDGA1021+005791999GA2041+006401091GA3071+021341999GE19MSL   +99999+99999GF199999021999005791999999MA1101501999999MW1951REMMET073SPECI SBUF 302127Z 09006KT 9999 -TSRA FEW019 SCT021CB BKN070 28/// Q1015=
0165829860999992016013110154-09401-038251FM-16+026999999V0201201N003110213419N009999199+02401+02301999999ADDGA1021+004571999GA2071+021341999GE19MSL   +99999+99999GF199999021999004571999999MA1101701999999REMMET058SPECI SBUF 311015Z 12006KT 9999 FEW015 BKN070 24/23 Q1017=
0165829860999992016013111004-09401-038251FM-15+026999999V0201101N00411021341CN009999199+02601+02301999999ADDGA1021+005181999GA2041+021341999GE19MSL   +99999+99999GF199999021999005181999999MA1101701999999REMMET058METAR SBUF 311100Z 11008KT 9999 FEW017 SCT070 26/23 Q1017=
0142829860999992016013112004-09401-038251FM-15+026999999V0201001N004119999999N009999199+02701+02101999999ADDGA1041+005491999GE19MSL   +99999+99999GF199999041999005491999999MA1101701999999REMMET051METAR SBUF 311200Z 10008KT 9999 SCT018 27/21 Q1017=
0165829860999992016013114004-09401-038251FM-15+026999999V0201101N00461027431CN009999199+03001+99999999999ADDGA1041+006101999GA2041+027431999GE19MSL   +99999+99999GF199999041999006101999999MA1101601999999REMMET058METAR SBUF 311400Z 11009KT 9999 SCT020 SCT090 30/// Q1016=
0165829860999992016013115004-09401-038251FM-15+026999999V0201301N00361027431CN009999199+03101+99999999999ADDGA1041+006711999GA2041+027431999GE19MSL   +99999+99999GF199999041999006711999999MA1101501999999REMMET058METAR SBUF 311500Z 13007KT 9999 SCT022 SCT090 31/// Q1015=
0165829860999992016013116004-09401-038251FM-15+026999999V0201001N00411027431CN009999199+03201+99999999999ADDGA1041+006711999GA2041+027431999GE19MSL   +99999+99999GF199999041999006711999999MA1101401999999REMMET058METAR SBUF 311600Z 10008KT 9999 SCT022 SCT090 32/// Q1014=
0142829860999992016013117004-09401-038251FM-15+026999999V0200601N003619999999N009999199+03201+99999999999ADDGA1041+006711999GE19MSL   +99999+99999GF199999041999006711999999MA1101301999999REMMET051METAR SBUF 311700Z 06007KT 9999 SCT022 32/// Q1013=
0142829860999992016013118004-09401-038251FM-15+026999999V0201001N002619999999N009999199+03201+99999999999ADDGA1041+006711999GE19MSL   +99999+99999GF199999041999006711999999MA1101201999999REMMET051METAR SBUF 311800Z 10005KT 9999 SCT022 32/// Q1012=
0184829860999992016013119004-09401-038251FM-15+026999999V0200901N003619999999N009999199+03301+99999999999ADDGA1041+006101999GA2021+006711091GE19MSL   +99999+99999GF199999041999006101999999MA1101201999999MW1131REMMET071METAR SBUF 311900Z 09007KT 9999 VCTS SCT020 FEW022CB 33/// Q1012 CB SE=
0168829860999992016013120004-09401-038251FM-15+026999999V0201301N005719999999N009999199+03001+99999999999ADDGA1041+006101999GA2021+006711081GE19MSL   +99999+99999GF199999041999006101999999MA1101201999999REMMET061METAR SBUF 312000Z 13011KT 9999 SCT020 FEW022TCU 30/// Q1012=
0179829860999992016013121004-09401-038251FM-15+026999999V0201101N007710051819N009999199+02701+99999999999ADDGA1071+005181999GA2041+006101091GE19MSL   +99999+99999GF199999071999005181999999MA1101401999999MW1951REMMET066METAR SBUF 312100Z 11015KT 9999 -TSRA BKN017 SCT020CB 27/// Q1014=
0179829860999992016013121104-09401-038251FM-16+026999999V0201801N005110042719N009999199+02401+99999999999ADDGA1071+004271999GA2041+006101091GE19MSL   +99999+99999GF199999071999004271999999MA1101401999999MW1971REMMET066SPECI SBUF 312110Z 18010KT 9999 +TSRA BKN014 SCT020CB 24/// Q1014=
0165829860999992016020112004-09401-038251FM-15+026999999V0201101N00261021341CN009999199+02801+02301999999ADDGA1041+004271999GA2041+021341999GE19MSL   +99999+99999GF199999041999004271999999MA1101801999999REMMET058METAR SBUF 011200Z 11005KT 9999 SCT014 SCT070 28/23 Q1018=
0165829860999992016020113004-09401-038251FM-15+026999999V0201201N00461024381CN009999199+03001+02301999999ADDGA1041+005181999GA2041+024381999GE19MSL   +99999+99999GF199999041999005181999999MA1101701999999REMMET058METAR SBUF 011300Z 12009KT 9999 SCT017 SCT080 30/23 Q1017=
0142829860999992016020114004-09401-038251FM-15+026999999V0201401N003610057919N009999199+03001+02301999999ADDGA1071+005791999GE19MSL   +99999+99999GF199999071999005791999999MA1101601999999REMMET051METAR SBUF 011400Z 14007KT 9999 BKN019 30/23 Q1016=
0142829860999992016020116004-09401-038251FM-15+026999999V0200901N003110061019N009999199+03201+02201999999ADDGA1071+006101999GE19MSL   +99999+99999GF199999071999006101999999MA1101401999999REMMET051METAR SBUF 011600Z 09006KT 9999 BKN020 32/22 Q1014=
0142829860999992016020118004-09401-038251FM-15+026999999V0201401N003119999999N009999199+03301+02101999999ADDGA1041+009141999GE19MSL   +99999+99999GF199999041999009141999999MA1101201999999REMMET051METAR SBUF 011800Z 14006KT 9999 SCT030 33/21 Q1012=
0142829860999992016020119004-09401-038251FM-15+026999999V0201201N002619999999N009999199+03301+02101999999ADDGA1041+009141999GE19MSL   +99999+99999GF199999041999009141999999MA1101201999999REMMET051METAR SBUF 011900Z 12005KT 9999 SCT030 33/21 Q1012=
0142829860999992016020119454-09401-038251FM-16+026999999V0200901N003619999999N009999199+03301+02101999999ADDGA1041+009141999GE19MSL   +99999+99999GF199999041999009141999999MA1101201999999REMMET051SPECI SBUF 011945Z 09007KT 9999 SCT030 33/21 Q1012=
0165829860999992016020211154-09401-038251FM-16+026999999V0201201N006210243819N009999199+02601+02301999999ADDGA1041+004571999GA2071+024381999GE19MSL   +99999+99999GF199999041999004571999999MA1101601999999REMMET058SPECI SBUF 021115Z 12012KT 9999 SCT015 BKN080 26/23 Q1016=
0165829860999992016020212004-09401-038251FM-15+026999999V0201101N005110243819N009999199+02701+02301999999ADDGA1041+004881999GA2071+024381999GE19MSL   +99999+99999GF199999041999004881999999MA1101501999999REMMET058METAR SBUF 021200Z 11010KT 9999 SCT016 BKN080 27/23 Q1015=
0165829860999992016020213004-09401-038251FM-15+026999999V0201301N004610213419N009999199+02801+02201999999ADDGA1041+005491999GA2071+021341999GE19MSL   +99999+99999GF199999041999005491999999MA1101501999999REMMET058METAR SBUF 021300Z 13009KT 9999 SCT018 BKN070 28/22 Q1015=
0165829860999992016020215004-09401-038251FM-15+026999999V0201101N003110213419N009999199+03001+02201999999ADDGA1041+005491999GA2071+021341999GE19MSL   +99999+99999GF199999041999005491999999MA1101401999999REMMET058METAR SBUF 021500Z 11006KT 9999 SCT018 BKN070 30/22 Q1014=
0165829860999992016020216004-09401-038251FM-15+026999999V0201301N002610213419N009999199+03001+02101999999ADDGA1041+005491999GA2071+021341999GE19MSL   +99999+99999GF199999041999005491999999MA1101401999999REMMET058METAR SBUF 021600Z 13005KT 9999 SCT018 BKN070 30/21 Q1014=
0165829860999992016020217004-09401-038251FM-15+026999999V0201001N002110243819N009999199+03101+02101999999ADDGA1041+006101999GA2071+024381999GE19MSL   +99999+99999GF199999041999006101999999MA1101301999999REMMET058METAR SBUF 021700Z 10004KT 9999 SCT020 BKN080 31/21 Q1013=
0142829860999992016020218004-09401-038251FM-15+026999999V0201601N002119999999N009999199+03101+02201999999ADDGA1021+006101999GE19MSL   +99999+99999GF199999021999006101999999MA1101201999999REMMET051METAR SBUF 021800Z 16004KT 9999 FEW020 31/22 Q1012=
0142829860999992016020219004-09401-038251FM-15+026999999V0201401N002619999999N009999199+03101+02201999999ADDGA1021+006101999GE19MSL   +99999+99999GF199999021999006101999999MA1101201999999REMMET051METAR SBUF 021900Z 14005KT 9999 FEW020 31/22 Q1012=
0142829860999992016020219454-09401-038251FM-16+026999999V0201001N003119999999N009999199+03001+02201999999ADDGA1021+006101999GE19MSL   +99999+99999GF199999021999006101999999MA1101201999999REMMET051SPECI SBUF 021945Z 10006KT 9999 FEW020 30/22 Q1012=
0165829860999992016020311004-09401-038251FM-15+026999999V0201201N004110051819N009999199+02601+02301999999ADDGA1071+005181999GA2071+021341999GE19MSL   +99999+99999GF199999071999005181999999MA1101501999999REMMET058METAR SBUF 031100Z 12008KT 9999 BKN017 BKN070 26/23 Q1015=
0165829860999992016020311154-09401-038251FM-16+026999999V0201201N004110051819N009999199+02601+02301999999ADDGA1071+005181999GA2071+021341999GE19MSL   +99999+99999GF199999071999005181999999MA1101501999999REMMET058SPECI SBUF 031115Z 12008KT 9999 BKN017 BKN070 26/23 Q1015=
0165829860999992016020312004-09401-038251FM-15+026999999V0200801N004610051819N009999199+02801+02201999999ADDGA1071+005181999GA2071+021341999GE19MSL   +99999+99999GF199999071999005181999999MA1101501999999REMMET058METAR SBUF 031200Z 08009KT 9999 BKN017 BKN070 28/22 Q1015=
0165829860999992016020313004-09401-038251FM-15+026999999V0200701N00411021341CN009999199+02901+02201999999ADDGA1041+005181999GA2041+021341999GE19MSL   +99999+99999GF199999041999005181999999MA1101501999999REMMET058METAR SBUF 031300Z 07008KT 9999 SCT017 SCT070 29/22 Q1015=
0142829860999992016020321004-09401-038251FM-15+026999999V0201001N002619999999N009999199+03001+02101999999ADDGA1021+006101999GE19MSL   +99999+99999GF199999021999006101999999MA1101201999999REMMET051METAR SBUF 032100Z 10005KT 9999 FEW020 30/21 Q1012=
0142829860999992016020322004-09401-038251FM-15+026999999V0200801N006219999999N009999199+02801+02201999999ADDGA1041+005491999GE19MSL   +99999+99999GF199999041999005491999999MA1101201999999REMMET051METAR SBUF 032200Z 08012KT 9999 SCT018 28/22 Q1012=
0142829860999992016020322154-09401-038251FM-16+026999999V0200901N004619999999N009999199+02801+02301999999ADDGA1021+005491999GE19MSL   +99999+99999GF199999021999005491999999MA1101201999999REMMET051SPECI SBUF 032215Z 09009KT 9999 FEW018 28/23 Q1012=
0142829860999992016020411154-09401-038251FM-16+026999999V0200901N004110051819N009999199+02601+02201999999ADDGA1071+005181999GE19MSL   +99999+99999GF199999071999005181999999MA1101501999999REMMET051SPECI SBUF 041115Z 09008KT 9999 BKN017 26/22 Q1015=
0142829860999992016020412004-09401-038251FM-15+026999999V0201001N004610054919N009999199+02701+02101999999ADDGA1071+005491999GE19MSL   +99999+99999GF199999071999005491999999MA1101601999999REMMET051METAR SBUF 041200Z 10009KT 9999 BKN018 27/21 Q1016=
0142829860999992016020413004-09401-038251FM-15+026999999V0201101N004610054919N009999199+02901+02101999999ADDGA1071+005491999GE19MSL   +99999+99999GF199999071999005491999999MA1101501999999REMMET051METAR SBUF 041300Z 11009KT 9999 BKN018 29/21 Q1015=
0142829860999992016020414004-09401-038251FM-15+026999999V0201101N004110061019N009999199+03001+02101999999ADDGA1071+006101999GE19MSL   +99999+99999GF199999071999006101999999MA1101501999999REMMET051METAR SBUF 041400Z 11008KT 9999 BKN020 30/21 Q1015=
0142829860999992016020415004-09401-038251FM-15+026999999V0201301N004610061019N009999199+03101+02101999999ADDGA1071+006101999GE19MSL   +99999+99999GF199999071999006101999999MA1101401999999REMMET051METAR SBUF 041500Z 13009KT 9999 BKN020 31/21 Q1014=
0142829860999992016020417004-09401-038251FM-15+026999999V0201101N004619999999N009999199+03201+02101999999ADDGA1041+006101999GE19MSL   +99999+99999GF199999041999006101999999MA1101301999999REMMET051METAR SBUF 041700Z 11009KT 9999 SCT020 32/21 Q1013=
0165829860999992016020418004-09401-038251FM-15+026999999V0201001N00261027431CN009999199+03101+02101999999ADDGA1041+006101999GA2041+027431999GE19MSL   +99999+99999GF199999041999006101999999MA1101301999999REMMET058METAR SBUF 041800Z 10005KT 9999 SCT020 SCT090 31/21 Q1013=
0165829860999992016020419004-09401-038251FM-15+026999999V0201101N003610243819N009999199+03101+02001999999ADDGA1041+006101999GA2071+024381999GE19MSL   +99999+99999GF199999041999006101999999MA1101201999999REMMET058METAR SBUF 041900Z 11007KT 9999 SCT020 BKN080 31/20 Q1012=
0165829860999992016020419454-09401-038251FM-16+026999999V0201001N002610243819N009999199+03101+02001999999ADDGA1021+006101999GA2071+024381999GE19MSL   +99999+99999GF199999021999006101999999MA1101201999999REMMET058SPECI SBUF 041945Z 10005KT 9999 FEW020 BKN080 31/20 Q1012=
0142829860999992016020512004-09401-038251FM-15+026999999V0201101N003610051819N009999199+02801+02201999999ADDGA1071+005181999GE19MSL   +99999+99999GF199999071999005181999999MA1101701999999REMMET051METAR SBUF 051200Z 11007KT 9999 BKN017 28/22 Q1017=
0142829860999992016020514004-09401-038251FM-15+026999999V0201001N004610061019N009999199+03001+02101999999ADDGA1071+006101999GE19MSL   +99999+99999GF199999071999006101999999MA1101701999999REMMET051METAR SBUF 051400Z 10009KT 9999 BKN020 30/21 Q1017=
0142829860999992016020515004-09401-038251FM-15+026999999V0201101N005110061019N009999199+03101+02201999999ADDGA1071+006101999GE19MSL   +99999+99999GF199999071999006101999999MA1101601999999REMMET051METAR SBUF 051500Z 11010KT 9999 BKN020 31/22 Q1016=
0142829860999992016020516004-09401-038251FM-15+026999999V0201001N005119999999N009999199+03201+02101999999ADDGA1041+006401999GE19MSL   +99999+99999GF199999041999006401999999MA1101501999999REMMET051METAR SBUF 051600Z 10010KT 9999 SCT021 32/21 Q1015=
0142829860999992016020517004-09401-038251FM-15+026999999V0201001N004619999999N009999199+03201+02001999999ADDGA1041+006101999GE19MSL   +99999+99999GF199999041999006101999999MA1101401999999REMMET051METAR SBUF 051700Z 10009KT 9999 SCT020 32/20 Q1014=
0142829860999992016020518004-09401-038251FM-15+026999999V0201101N005119999999N009999199+03301+02001999999ADDGA1041+006401999GE19MSL   +99999+99999GF199999041999006401999999MA1101401999999REMMET051METAR SBUF 051800Z 11010KT 9999 SCT021 33/20 Q1014=
0165829860999992016020519004-09401-038251FM-15+026999999V0201101N00411027431CN009999199+03301+02001999999ADDGA1041+006401999GA2041+027431999GE19MSL   +99999+99999GF199999041999006401999999MA1101301999999REMMET058METAR SBUF 051900Z 11008KT 9999 SCT021 SCT090 33/20 Q1013=
0165829860999992016020520004-09401-038251FM-15+026999999V0201101N00461027431CN009999199+03201+01901999999ADDGA1021+006401999GA2041+027431999GE19MSL   +99999+99999GF199999021999006401999999MA1101301999999REMMET058METAR SBUF 052000Z 11009KT 9999 FEW021 SCT090 32/19 Q1013=
0165829860999992016020521004-09401-038251FM-15+026999999V0201001N00511021341CN009999199+03101+02001999999ADDGA1021+006101999GA2041+021341999GE19MSL   +99999+99999GF199999021999006101999999MA1101401999999REMMET058METAR SBUF 052100Z 10010KT 9999 FEW020 SCT070 31/20 Q1014=
0165829860999992016020522004-09401-038251FM-15+026999999V0201101N00511021341CN009999199+03001+02001999999ADDGA1021+006101999GA2041+021341999GE19MSL   +99999+99999GF199999021999006101999999MA1101401999999REMMET058METAR SBUF 052200Z 11010KT 9999 FEW020 SCT070 30/20 Q1014=
0165829860999992016020522154-09401-038251FM-16+026999999V0201101N00571021341CN009999199+03001+02001999999ADDGA1021+006101999GA2041+021341999GE19MSL   +99999+99999GF199999021999006101999999MA1101501999999REMMET058SPECI SBUF 052215Z 11011KT 9999 FEW020 SCT070 30/20 Q1015=
0142829860999992016020611154-09401-038251FM-16+026999999V0201201N005110048819N009999199+02601+02101999999ADDGA1071+004881999GE19MSL   +99999+99999GF199999071999004881999999MA1101801999999REMMET051SPECI SBUF 061115Z 12010KT 9999 BKN016 26/21 Q1018=
0142829860999992016020612004-09401-038251FM-15+026999999V0201001N004610051819N009999199+02801+02101999999ADDGA1071+005181999GE19MSL   +99999+99999GF199999071999005181999999MA1101801999999REMMET051METAR SBUF 061200Z 10009KT 9999 BKN017 28/21 Q1018=
0142829860999992016020613004-09401-038251FM-15+026999999V0201201N005110054919N009999199+02901+02101999999ADDGA1071+005491999GE19MSL   +99999+99999GF199999071999005491999999MA1101801999999REMMET051METAR SBUF 061300Z 12010KT 9999 BKN018 29/21 Q1018=
0142829860999992016020615004-09401-038251FM-15+026999999V0201201N005119999999N009999199+03201+02001999999ADDGA1041+006101999GE19MSL   +99999+99999GF199999041999006101999999MA1101701999999REMMET051METAR SBUF 061500Z 12010KT 9999 SCT020 32/20 Q1017=
0142829860999992016020616004-09401-038251FM-15+026999999V0201101N005719999999N009999199+03301+02001999999ADDGA1041+006401999GE19MSL   +99999+99999GF199999041999006401999999MA1101601999999REMMET051METAR SBUF 061600Z 11011KT 9999 SCT021 33/20 Q1016=
0142829860999992016020617004-09401-038251FM-15+026999999V0201001N005119999999N009999199+03201+02001999999ADDGA1041+006401999GE19MSL   +99999+99999GF199999041999006401999999MA1101501999999REMMET051METAR SBUF 061700Z 10010KT 9999 SCT021 32/20 Q1015=
0142829860999992016020618004-09401-038251FM-15+026999999V0201201N004119999999N009999199+03301+01901999999ADDGA1041+006401999GE19MSL   +99999+99999GF199999041999006401999999MA1101401999999REMMET051METAR SBUF 061800Z 12008KT 9999 SCT021 33/19 Q1014=
0142829860999992016020619004-09401-038251FM-15+026999999V0201101N005119999999N009999199+03301+01801999999ADDGA1041+006401999GE19MSL   +99999+99999GF199999041999006401999999MA1101401999999REMMET051METAR SBUF 061900Z 11010KT 9999 SCT021 33/18 Q1014=
0142829860999992016020619454-09401-038251FM-16+026999999V0201001N006219999999N009999199+03201+01901999999ADDGA1021+006101999GE19MSL   +99999+99999GF199999021999006101999999MA1101401999999REMMET051SPECI SBUF 061945Z 10012KT 9999 FEW020 32/19 Q1014=
0142829860999992016020711154-09401-038251FM-16+026999999V0201101N004110048819N009999199+02601+02201999999ADDGA1071+004881999GE19MSL   +99999+99999GF199999071999004881999999MA1101701999999REMMET051SPECI SBUF 071115Z 11008KT 9999 BKN016 26/22 Q1017=
0142829860999992016020712004-09401-038251FM-15+026999999V0201101N004610048819N009999199+02801+02201999999ADDGA1071+004881999GE19MSL   +99999+99999GF199999071999004881999999MA1101701999999REMMET051METAR SBUF 071200Z 11009KT 9999 BKN016 28/22 Q1017=
0142829860999992016020713004-09401-038251FM-15+026999999V0201101N005719999999N009999199+02901+02101999999ADDGA1041+005181999GE19MSL   +99999+99999GF199999041999005181999999MA1101701999999REMMET051METAR SBUF 071300Z 11011KT 9999 SCT017 29/21 Q1017=
0142829860999992016020715004-09401-038251FM-15+026999999V0201201N005719999999N009999199+03201+02001999999ADDGA1021+006101999GE19MSL   +99999+99999GF199999021999006101999999MA1101601999999REMMET051METAR SBUF 071500Z 12011KT 9999 FEW020 32/20 Q1016=
0142829860999992016020717004-09401-038251FM-15+026999999V0201001N004619999999N009999199+03301+01901999999ADDGA1041+006401999GE19MSL   +99999+99999GF199999041999006401999999MA1101401999999REMMET051METAR SBUF 071700Z 10009KT 9999 SCT021 33/19 Q1014=
0142829860999992016020718004-09401-038251FM-15+026999999V0201001N004619999999N009999199+03301+01901999999ADDGA1021+006401999GE19MSL   +99999+99999GF199999021999006401999999MA1101301999999REMMET051METAR SBUF 071800Z 10009KT 9999 FEW021 33/19 Q1013=
0142829860999992016020719004-09401-038251FM-15+026999999V0201001N004619999999N009999199+03301+02001999999ADDGA1021+006401999GE19MSL   +99999+99999GF199999021999006401999999MA1101301999999REMMET051METAR SBUF 071900Z 10009KT 9999 FEW021 33/20 Q1013=
0142829860999992016020719454-09401-038251FM-16+026999999V0201201N005119999999N009999199+03301+01901999999ADDGA1021+006401999GE19MSL   +99999+99999GF199999021999006401999999MA1101301999999REMMET051SPECI SBUF 071945Z 12010KT 9999 FEW021 33/19 Q1013=
0142829860999992016020811154-09401-038251FM-16+026999999V0201201N003619999999N009999199+02601+02001999999ADDGA1041+005181999GE19MSL   +99999+99999GF199999041999005181999999MA1101902999999REMMET051SPECI SBUF 081115Z 12007KT 9999 SCT017 26/20 Q1019=
0142829860999992016020812004-09401-038251FM-15+026999999V0201101N003619999999N009999199+02801+02001999999ADDGA1021+005491999GE19MSL   +99999+99999GF199999021999005491999999MA1101902999999REMMET051METAR SBUF 081200Z 11007KT 9999 FEW018 28/20 Q1019=
0142829860999992016020813004-09401-038251FM-15+026999999V0201101N003119999999N009999199+03001+01901999999ADDGA1021+006101999GE19MSL   +99999+99999GF199999021999006101999999MA1101902999999REMMET051METAR SBUF 081300Z 11006KT 9999 FEW020 30/19 Q1019=
0142829860999992016020815004-09401-038251FM-15+026999999V0201301N003619999999N009999199+03101+01801999999ADDGA1021+006401999GE19MSL   +99999+99999GF199999021999006401999999MA1101701999999REMMET051METAR SBUF 081500Z 13007KT 9999 FEW021 31/18 Q1017=
0142829860999992016020816004-09401-038251FM-15+026999999V0201201N003619999999N009999199+03201+01901999999ADDGA1021+006401999GE19MSL   +99999+99999GF199999021999006401999999MA1101701999999REMMET051METAR SBUF 081600Z 12007KT 9999 FEW021 32/19 Q1017=
0142829860999992016020817004-09401-038251FM-15+026999999V0201501N004119999999N009999199+03201+01701999999ADDGA1021+006401999GE19MSL   +99999+99999GF199999021999006401999999MA1101601999999REMMET051METAR SBUF 081700Z 15008KT 9999 FEW021 32/17 Q1016=
0142829860999992016020818004-09401-038251FM-15+026999999V0201501N003619999999N009999199+03301+01501999999ADDGA1021+006401999GE19MSL   +99999+99999GF199999021999006401999999MA1101501999999REMMET051METAR SBUF 081800Z 15007KT 9999 FEW021 33/15 Q1015=
0142829860999992016020819004-09401-038251FM-15+026999999V0201201N004119999999N009999199+03301+01601999999ADDGA1021+006401999GE19MSL   +99999+99999GF199999021999006401999999MA1101501999999REMMET051METAR SBUF 081900Z 12008KT 9999 FEW021 33/16 Q1015=
0142829860999992016020819454-09401-038251FM-16+026999999V0200701N003119999999N009999199+03201+01501999999ADDGA1021+006401999GE19MSL   +99999+99999GF199999021999006401999999MA1101501999999REMMET051SPECI SBUF 081945Z 07006KT 9999 FEW021 32/15 Q1015=
0142829860999992016020911154-09401-038251FM-16+026999999V0201101N003610051819N009999199+02701+02201999999ADDGA1071+005181999GE19MSL   +99999+99999GF199999071999005181999999MA1101902999999REMMET051SPECI SBUF 091115Z 11007KT 9999 BKN017 27/22 Q1019=
0142829860999992016020912004-09401-038251FM-15+026999999V0201001N004110054919N009999199+02701+02101999999ADDGA1071+005491999GE19MSL   +99999+99999GF199999071999005491999999MA1101902999999REMMET051METAR SBUF 091200Z 10008KT 9999 BKN018 27/21 Q1019=
0142829860999992016020913004-09401-038251FM-15+026999999V0201201N005110054919N009999199+02901+02101999999ADDGA1071+005491999GE19MSL   +99999+99999GF199999071999005491999999MA1101902999999REMMET051METAR SBUF 091300Z 12010KT 9999 BKN018 29/21 Q1019=
0142829860999992016020914004-09401-038251FM-15+026999999V0200901N003110057919N009999199+03001+02101999999ADDGA1071+005791999GE19MSL   +99999+99999GF199999071999005791999999MA1101902999999REMMET051METAR SBUF 091400Z 09006KT 9999 BKN019 30/21 Q1019=
0142829860999992016020916004-09401-038251FM-15+026999999V0201101N003619999999N009999199+03301+02001999999ADDGA1041+006101999GE19MSL   +99999+99999GF199999041999006101999999MA1101701999999REMMET051METAR SBUF 091600Z 11007KT 9999 SCT020 33/20 Q1017=
0142829860999992016020917004-09401-038251FM-15+026999999V0201001N003619999999N009999199+03301+01901999999ADDGA1041+006401999GE19MSL   +99999+99999GF199999041999006401999999MA1101601999999REMMET051METAR SBUF 091700Z 10007KT 9999 SCT021 33/19 Q1016=
0142829860999992016020919004-09401-038251FM-15+026999999V0201001N002619999999N009999199+03301+01801999999ADDGA1041+006401999GE19MSL   +99999+99999GF199999041999006401999999MA1101401999999REMMET051METAR SBUF 091900Z 10005KT 9999 SCT021 33/18 Q1014=
0142829860999992016020919454-09401-038251FM-16+026999999V0201501N002119999999N009999199+03301+01801999999ADDGA1041+006401999GE19MSL   +99999+99999GF199999041999006401999999MA1101401999999REMMET051SPECI SBUF 091945Z 15004KT 9999 SCT021 33/18 Q1014=
0142829860999992016021011154-09401-038251FM-16+026999999V0201101N005110048819N009999199+02701+02301999999ADDGA1071+004881999GE19MSL   +99999+99999GF199999071999004881999999MA1101801999999REMMET051SPECI SBUF 101115Z 11010KT 9999 BKN016 27/23 Q1018=
0142829860999992016021012004-09401-038251FM-15+026999999V0201101N004110051819N009999199+02801+02301999999ADDGA1071+005181999GE19MSL   +99999+99999GF199999071999005181999999MA1101902999999REMMET051METAR SBUF 101200Z 11008KT 9999 BKN017 28/23 Q1019=
0142829860999992016021013004-09401-038251FM-15+026999999V0201001N004610054919N009999199+03001+02201999999ADDGA1071+005491999GE19MSL   +99999+99999GF199999071999005491999999MA1101801999999REMMET051METAR SBUF 101300Z 10009KT 9999 BKN018 30/22 Q1018=
0142829860999992016021014004-09401-038251FM-15+026999999V0201101N005119999999N009999199+03101+02101999999ADDGA1041+005491999GE19MSL   +99999+99999GF199999041999005491999999MA1101701999999REMMET051METAR SBUF 101400Z 11010KT 9999 SCT018 31/21 Q1017=
0142829860999992016021015004-09401-038251FM-15+026999999V0200901N004119999999N009999199+03201+02001999999ADDGA1041+006101999GE19MSL   +99999+99999GF199999041999006101999999MA1101601999999REMMET051METAR SBUF 101500Z 09008KT 9999 SCT020 32/20 Q1016=
0142829860999992016021016004-09401-038251FM-15+026999999V0200901N003619999999N009999199+03301+01901999999ADDGA1041+006401999GE19MSL   +99999+99999GF199999041999006401999999MA1101501999999REMMET051METAR SBUF 101600Z 09007KT 9999 SCT021 33/19 Q1015=
0142829860999992016021017004-09401-038251FM-15+026999999V0201001N003119999999N009999199+03401+01901999999ADDGA1041+006401999GE19MSL   +99999+99999GF199999041999006401999999MA1101401999999REMMET051METAR SBUF 101700Z 10006KT 9999 SCT021 34/19 Q1014=
0142829860999992016021018004-09401-038251FM-15+026999999V0201201N003119999999N009999199+03301+01901999999ADDGA1021+006401999GE19MSL   +99999+99999GF199999021999006401999999MA1101301999999REMMET051METAR SBUF 101800Z 12006KT 9999 FEW021 33/19 Q1013=
0142829860999992016021019004-09401-038251FM-15+026999999V0201101N003119999999N009999199+03301+01901999999ADDGA1021+006401999GE19MSL   +99999+99999GF199999021999006401999999MA1101201999999REMMET051METAR SBUF 101900Z 11006KT 9999 FEW021 33/19 Q1012=
0142829860999992016021019454-09401-038251FM-16+026999999V0201201N003119999999N009999199+03301+01901999999ADDGA1021+006401999GE19MSL   +99999+99999GF199999021999006401999999MA1101201999999REMMET051SPECI SBUF 101945Z 12006KT 9999 FEW021 33/19 Q1012=
0142829860999992016021108304-09401-038251FM-16+026999999V0201401N004110045719N009999199+02401+02301999999ADDGA1081+004571999GE19MSL   +99999+99999GF199999081999004571999999MA1101501999999REMMET051SPECI SBUF 110830Z 14008KT 9999 OVC015 24/23 Q1015=
0142829860999992016021109004-09401-038251FM-15+026999999V0201301N004110045719N009999199+02401+02301999999ADDGA1081+004571999GE19MSL   +99999+99999GF199999081999004571999999MA1101501999999REMMET051METAR SBUF 110900Z 13008KT 9999 OVC015 24/23 Q1015=
0165829860999992016021111004-09401-038251FM-15+026999999V0201401N003610048819N009999199+02501+02301999999ADDGA1071+004881999GA2071+021341999GE19MSL   +99999+99999GF199999071999004881999999MA1101601999999REMMET058METAR SBUF 111100Z 14007KT 9999 BKN016 BKN070 25/23 Q1016=
0165829860999992016021112004-09401-038251FM-15+026999999V0201001N00261021341CN009999199+02901+02301999999ADDGA1041+004881999GA2041+021341999GE19MSL   +99999+99999GF199999041999004881999999MA1101601999999REMMET058METAR SBUF 111200Z 10005KT 9999 SCT016 SCT070 29/23 Q1016=
0142829860999992016021113004-09401-038251FM-15+026999999V0201701N002619999999N009999199+02901+02101999999ADDGA1041+005491999GE19MSL   +99999+99999GF199999041999005491999999MA1101601999999REMMET051METAR SBUF 111300Z 17005KT 9999 SCT018 29/21 Q1016=
0142829860999992016021115004-09401-038251FM-15+026999999V0201501N002619999999N009999199+03201+02001999999ADDGA1021+006401999GE19MSL   +99999+99999GF199999021999006401999999MA1101401999999REMMET051METAR SBUF 111500Z 15005KT 9999 FEW021 32/20 Q1014=
0142829860999992016021116004-09401-038251FM-15+026999999V0201001N003119999999N009999199+03301+02101999999ADDGA1021+006401999GE19MSL   +99999+99999GF199999021999006401999999MA1101301999999REMMET051METAR SBUF 111600Z 10006KT 9999 FEW021 33/21 Q1013=
0142829860999992016021118004-09401-038251FM-15+026999999V0201001N002619999999N009999199+03401+02001999999ADDGA1021+006401999GE19MSL   +99999+99999GF199999021999006401999999MA1101101999999REMMET051METAR SBUF 111800Z 10005KT 9999 FEW021 34/20 Q1011=
0142829860999992016021119004-09401-038251FM-15+026999999V0200901N003619999999N009999199+03401+02001999999ADDGA1021+006711999GE19MSL   +99999+99999GF199999021999006711999999MA1101101999999REMMET051METAR SBUF 111900Z 09007KT 9999 FEW022 34/20 Q1011=
0142829860999992016021119454-09401-038251FM-16+026999999V0201001N004119999999N009999199+03301+01901999999ADDGA1021+006711999GE19MSL   +99999+99999GF199999021999006711999999MA1101101999999REMMET051SPECI SBUF 111945Z 10008KT 9999 FEW022 33/19 Q1011=
0072829860999992016021211154-09401-038251FM-16+026999999V0202001N001019999999Y999999999+02701+02101999999ADDMA1101501999999REMMET045SPECI SBUF 121115Z 20002KT CAVOK 27/21 Q1015=
0072829860999992016021212004-09401-038251FM-15+026999999V0201601N001019999999Y999999999+02901+02101999999ADDMA1101501999999REMMET045METAR SBUF 121200Z 16002KT CAVOK 29/21 Q1015=
0072829860999992016021213004-09401-038251FM-15+026999999V0203401N001519999999Y999999999+03001+02101999999ADDMA1101501999999REMMET045METAR SBUF 121300Z 34003KT CAVOK 30/21 Q1015=
0142829860999992016021214004-09401-038251FM-15+026999999V0201501N001519999999N009999199+03201+99999999999ADDGA1021+006101999GE19MSL   +99999+99999GF199999021999006101999999MA1101401999999REMMET051METAR SBUF 121400Z 15003KT 9999 FEW020 32/// Q1014=
0142829860999992016021216004-09401-038251FM-15+026999999V0200401N001519999999N009999199+03401+99999999999ADDGA1021+006401999GE19MSL   +99999+99999GF199999021999006401999999MA1101201999999REMMET051METAR SBUF 121600Z 04003KT 9999 FEW021 34/// Q1012=
0142829860999992016021218004-09401-038251FM-15+026999999V0203601N002619999999N009999199+03501+99999999999ADDGA1021+006401999GE19MSL   +99999+99999GF199999021999006401999999MA1101001999999REMMET051METAR SBUF 121800Z 36005KT 9999 FEW021 35/// Q1010=
0142829860999992016021219004-09401-038251FM-15+026999999V0200801N001519999999N009999199+03501+99999999999ADDGA1021+006401999GE19MSL   +99999+99999GF199999021999006401999999MA1101001999999REMMET051METAR SBUF 121900Z 08003KT 9999 FEW021 35/// Q1010=
0142829860999992016021220004-09401-038251FM-15+026999999V0200301N002119999999N009999199+03401+99999999999ADDGA1021+006401999GE19MSL   +99999+99999GF199999021999006401999999MA1100901999999REMMET051METAR SBUF 122000Z 03004KT 9999 FEW021 34/// Q1009=
0142829860999992016021221004-09401-038251FM-15+026999999V0200201N002119999999N009999199+03301+99999999999ADDGA1021+006101999GE19MSL   +99999+99999GF199999021999006101999999MA1101001999999REMMET051METAR SBUF 122100Z 02004KT 9999 FEW020 33/// Q1010=
0142829860999992016021222004-09401-038251FM-15+026999999V0200301N001519999999N009999199+03201+99999999999ADDGA1021+006101999GE19MSL   +99999+99999GF199999021999006101999999MA1101001999999REMMET051METAR SBUF 122200Z 03003KT 9999 FEW020 32/// Q1010=
0142829860999992016021222154-09401-038251FM-16+026999999V0200401N001519999999N009999199+03201+99999999999ADDGA1021+006101999GE19MSL   +99999+99999GF199999021999006101999999MA1101101999999REMMET051SPECI SBUF 122215Z 04003KT 9999 FEW020 32/// Q1011=
0072829860999992016021311154-09401-038251FM-16+026999999V0201201N001019999999Y999999999+02801+99999999999ADDMA1101501999999REMMET045SPECI SBUF 131115Z 12002KT CAVOK 28/// Q1015=
0072829860999992016021312004-09401-038251FM-15+026999999V0200601N002119999999Y999999999+02901+99999999999ADDMA1101501999999REMMET045METAR SBUF 131200Z 06004KT CAVOK 29/// Q1015=
0072829860999992016021313004-09401-038251FM-15+026999999V0200101N002119999999Y999999999+03101+99999999999ADDMA1101401999999REMMET045METAR SBUF 131300Z 01004KT CAVOK 31/// Q1014=
0142829860999992016021314004-09401-038251FM-15+026999999V0200101N002619999999N009999199+03201+02201999999ADDGA1021+006101999GE19MSL   +99999+99999GF199999021999006101999999MA1101401999999REMMET051METAR SBUF 131400Z 01005KT 9999 FEW020 32/22 Q1014=
0142829860999992016021315004-09401-038251FM-15+026999999V0203601N002119999999N009999199+03401+02001999999ADDGA1041+006401999GE19MSL   +99999+99999GF199999041999006401999999MA1101301999999REMMET051METAR SBUF 131500Z 36004KT 9999 SCT021 34/20 Q1013=
0165829860999992016021316004-09401-038251FM-15+026999999V0200201N002110304819N009999199+03501+99999999999ADDGA1021+006401999GA2071+030481999GE19MSL   +99999+99999GF199999021999006401999999MA1101201999999REMMET058METAR SBUF 131600Z 02004KT 9999 FEW021 BKN100 35/// Q1012=
0165829860999992016021317004-09401-038251FM-15+026999999V0201601N003610213419N009999199+03401+02001999999ADDGA1021+006401999GA2071+021341999GE19MSL   +99999+99999GF199999021999006401999999MA1101201999999REMMET058METAR SBUF 131700Z 16007KT 9999 FEW021 BKN070 34/20 Q1012=
0165829860999992016021318004-09401-038251FM-15+026999999V0201301N003610213419N009999199+03501+01901999999ADDGA1021+006401999GA2071+021341999GE19MSL   +99999+99999GF199999021999006401999999MA1101101999999REMMET058METAR SBUF 131800Z 13007KT 9999 FEW021 BKN070 35/19 Q1011=
0165829860999992016021319004-09401-038251FM-15+026999999V0201201N00361021341CN009999199+03501+01901999999ADDGA1021+006401999GA2041+021341999GE19MSL   +99999+99999GF199999021999006401999999MA1101001999999REMMET058METAR SBUF 131900Z 12007KT 9999 FEW021 SCT070 35/19 Q1010=
0142829860999992016021319454-09401-038251FM-16+026999999V0201101N002619999999N009999199+03501+01801999999ADDGA1021+006101999GE19MSL   +99999+99999GF199999021999006101999999MA1101001999999REMMET051SPECI SBUF 131945Z 11005KT 9999 FEW020 35/18 Q1010=
0142829860999992016021411154-09401-038251FM-16+026999999V0201201N002610051819N009999199+02801+02401999999ADDGA1071+005181999GE19MSL   +99999+99999GF199999071999005181999999MA1101501999999REMMET051SPECI SBUF 141115Z 12005KT 9999 BKN017 28/24 Q1015=
0142829860999992016021412004-09401-038251FM-15+026999999V0201301N003610054919N009999199+02901+02401999999ADDGA1071+005491999GE19MSL   +99999+99999GF199999071999005491999999MA1101501999999REMMET051METAR SBUF 141200Z 13007KT 9999 BKN018 29/24 Q1015=
0142829860999992016021414004-09401-038251FM-15+026999999V0201001N003610061019N009999199+03201+02201999999ADDGA1071+006101999GE19MSL   +99999+99999GF199999071999006101999999MA1101501999999REMMET051METAR SBUF 141400Z 10007KT 9999 BKN020 32/22 Q1015=
0142829860999992016021415004-09401-038251FM-15+026999999V0200801N004110061019N009999199+03201+02201999999ADDGA1071+006101999GE19MSL   +99999+99999GF199999071999006101999999MA1101401999999REMMET051METAR SBUF 141500Z 08008KT 9999 BKN020 32/22 Q1014=
0142829860999992016021416004-09401-038251FM-15+026999999V0200701N004119999999N009999199+03401+02001999999ADDGA1041+006401999GE19MSL   +99999+99999GF199999041999006401999999MA1101201999999REMMET051METAR SBUF 141600Z 07008KT 9999 SCT021 34/20 Q1012=
0142829860999992016021418004-09401-038251FM-15+026999999V0201301N003619999999N009999199+03401+02001999999ADDGA1021+006401999GE19MSL   +99999+99999GF199999021999006401999999MA1101001999999REMMET051METAR SBUF 141800Z 13007KT 9999 FEW021 34/20 Q1010=
0142829860999992016021419004-09401-038251FM-15+026999999V0201301N004119999999N009999199+03301+02001999999ADDGA1021+006401999GE19MSL   +99999+99999GF199999021999006401999999MA1101001999999REMMET051METAR SBUF 141900Z 13008KT 9999 FEW021 33/20 Q1010=
0142829860999992016021419454-09401-038251FM-16+026999999V0201601N003619999999N009999199+03301+02101999999ADDGA1021+006401999GE19MSL   +99999+99999GF199999021999006401999999MA1101001999999REMMET051SPECI SBUF 141945Z 16007KT 9999 FEW021 33/21 Q1010=
0142829860999992016021511154-09401-038251FM-16+026999999V0201101N003119999999N009999199+02701+02201999999ADDGA1041+005181999GE19MSL   +99999+99999GF199999041999005181999999MA1101601999999REMMET051SPECI SBUF 151115Z 11006KT 9999 SCT017 27/22 Q1016=
0142829860999992016021512004-09401-038251FM-15+026999999V0201101N004619999999N009999199+02901+02101999999ADDGA1041+005181999GE19MSL   +99999+99999GF199999041999005181999999MA1101601999999REMMET051METAR SBUF 151200Z 11009KT 9999 SCT017 29/21 Q1016=
0142829860999992016021517004-09401-038251FM-15+026999999V0201001N004619999999N009999199+03501+02001999999ADDGA1041+006401999GE19MSL   +99999+99999GF199999041999006401999999MA1101301999999REMMET051METAR SBUF 151700Z 10009KT 9999 SCT021 35/20 Q1013=
0142829860999992016021519454-09401-038251FM-16+026999999V0201201N004619999999N009999199+03401+02001999999ADDGA1021+006401999GE19MSL   +99999+99999GF199999021999006401999999MA1101101999999REMMET051SPECI SBUF 151945Z 12009KT 9999 FEW021 34/20 Q1011=
0165829860999992016021611154-09401-038251FM-16+026999999V0201001N00361021341CN009999199+02801+02301999999ADDGA1021+005491999GA2041+021341999GE19MSL   +99999+99999GF199999021999005491999999MA1101601999999REMMET058SPECI SBUF 161115Z 10007KT 9999 FEW018 SCT070 28/23 Q1016=
0142829860999992016021612004-09401-038251FM-15+026999999V0201001N005110061019N009999199+02901+02201999999ADDGA1071+006101999GE19MSL   +99999+99999GF199999071999006101999999MA1101601999999REMMET051METAR SBUF 161200Z 10010KT 9999 BKN020 29/22 Q1016=
0142829860999992016021613004-09401-038251FM-15+026999999V0200901N005719999999N009999199+03201+02101999999ADDGA1041+006101999GE19MSL   +99999+99999GF199999041999006101999999MA1101601999999REMMET051METAR SBUF 161300Z 09011KT 9999 SCT020 32/21 Q1016=
0142829860999992016021614004-09401-038251FM-15+026999999V0200801N006219999999N009999199+03301+02001999999ADDGA1041+006101999GE19MSL   +99999+99999GF199999041999006101999999MA1101501999999REMMET051METAR SBUF 161400Z 08012KT 9999 SCT020 33/20 Q1015=
0165829860999992016021616004-09401-038251FM-15+026999999V0201101N00671030481CN009999199+03501+02001999999ADDGA1021+006711999GA2041+030481999GE19MSL   +99999+99999GF199999021999006711999999MA1101301999999REMMET058METAR SBUF 161600Z 11013KT 9999 FEW022 SCT100 35/20 Q1013=
0165829860999992016021617004-09401-038251FM-15+026999999V0201001N00571030481CN009999199+03501+01801999999ADDGA1021+006711999GA2041+030481999GE19MSL   +99999+99999GF199999021999006711999999MA1101201999999REMMET058METAR SBUF 161700Z 10011KT 9999 FEW022 SCT100 35/18 Q1012=
0165829860999992016021618004-09401-038251FM-15+026999999V0201001N006210304819N009999199+03401+01801999999ADDGA1021+006401999GA2071+030481999GE19MSL   +99999+99999GF199999021999006401999999MA1101201999999REMMET058METAR SBUF 161800Z 10012KT 9999 FEW021 BKN100 34/18 Q1012=
0165829860999992016021619004-09401-038251FM-15+026999999V0201201N00571030481CN009999199+03201+01901999999ADDGA1021+006711999GA2041+030481999GE19MSL   +99999+99999GF199999021999006711999999MA1101101999999REMMET058METAR SBUF 161900Z 12011KT 9999 FEW022 SCT100 32/19 Q1011=
0165829860999992016021619454-09401-038251FM-16+026999999V0201201N00571027431CN009999199+03201+01801999999ADDGA1021+006101999GA2041+027431999GE19MSL   +99999+99999GF199999021999006101999999MA1101201999999REMMET058SPECI SBUF 161945Z 12011KT 9999 FEW020 SCT090 32/18 Q1012=
0142829860999992016021711154-09401-038251FM-16+026999999V0201001N006210048819N009999199+02601+02101999999ADDGA1071+004881999GE19MSL   +99999+99999GF199999071999004881999999MA1101501999999REMMET051SPECI SBUF 171115Z 10012KT 9999 BKN016 26/21 Q1015=
0142829860999992016021712004-09401-038251FM-15+026999999V0200901N006210051819N009999199+02701+02101999999ADDGA1071+005181999GE19MSL   +99999+99999GF199999071999005181999999MA1101501999999REMMET051METAR SBUF 171200Z 09012KT 9999 BKN017 27/21 Q1015=
0142829860999992016021713004-09401-038251FM-15+026999999V0201101N006710057919N009999199+03101+02001999999ADDGA1071+005791999GE19MSL   +99999+99999GF199999071999005791999999MA1101501999999REMMET051METAR SBUF 171300Z 11013KT 9999 BKN019 31/20 Q1015=
0142829860999992016021715004-09401-038251FM-15+026999999V0201001N006719999999N009999199+03301+01801999999ADDGA1041+006401999GE19MSL   +99999+99999GF199999041999006401999999MA1101301999999REMMET051METAR SBUF 171500Z 10013KT 9999 SCT021 33/18 Q1013=
0142829860999992016021717004-09401-038251FM-15+026999999V0201201N005119999999N009999199+03501+01601999999ADDGA1041+006401999GE19MSL   +99999+99999GF199999041999006401999999MA1101101999999REMMET051METAR SBUF 171700Z 12010KT 9999 SCT021 35/16 Q1011=
0142829860999992016021718004-09401-038251FM-15+026999999V0201001N005719999999N009999199+03501+01601999999ADDGA1041+006401999GE19MSL   +99999+99999GF199999041999006401999999MA1101101999999REMMET051METAR SBUF 171800Z 10011KT 9999 SCT021 35/16 Q1011=
0142829860999992016021719004-09401-038251FM-15+026999999V0201201N006219999999N009999199+03401+01801999999ADDGA1041+006401999GE19MSL   +99999+99999GF199999041999006401999999MA1101101999999REMMET051METAR SBUF 171900Z 12012KT 9999 SCT021 34/18 Q1011=
0142829860999992016021719454-09401-038251FM-16+026999999V0201001N006719999999N009999199+03301+01901999999ADDGA1041+006401999GE19MSL   +99999+99999GF199999041999006401999999MA1101101999999REMMET051SPECI SBUF 171945Z 10013KT 9999 SCT021 33/19 Q1011=
0142829860999992016021813004-09401-038251FM-15+026999999V0201101N003119999999N009999199+03001+02001999999ADDGA1041+006101999GE19MSL   +99999+99999GF199999041999006101999999MA1101601999999REMMET051METAR SBUF 181300Z 11006KT 9999 SCT020 30/20 Q1016=
0142829860999992016021814004-09401-038251FM-15+026999999V0201001N003619999999N009999199+03101+02001999999ADDGA1041+006101999GE19MSL   +99999+99999GF199999041999006101999999MA1101501999999REMMET051METAR SBUF 181400Z 10007KT 9999 SCT020 31/20 Q1015=
0142829860999992016021819004-09401-038251FM-15+026999999V0201101N002119999999N009999199+03501+01901999999ADDGA1041+006711999GE19MSL   +99999+99999GF199999041999006711999999MA1101001999999REMMET051METAR SBUF 181900Z 11004KT 9999 SCT022 35/19 Q1010=
0142829860999992016021819454-09401-038251FM-16+026999999V0201201N002619999999N009999199+03401+01801999999ADDGA1021+006401999GE19MSL   +99999+99999GF199999021999006401999999MA1101001999999REMMET051SPECI SBUF 181945Z 12005KT 9999 FEW021 34/18 Q1010=
0165829860999992016021911154-09401-038251FM-16+026999999V0201201N003110213419N009999199+02601+02201999999ADDGA1041+005181999GA2071+021341999GE19MSL   +99999+99999GF199999041999005181999999MA1101601999999REMMET058SPECI SBUF 191115Z 12006KT 9999 SCT017 BKN070 26/22 Q1016=
0165829860999992016021912004-09401-038251FM-15+026999999V0201101N003610213419N009999199+02801+02301999999ADDGA1041+005181999GA2071+021341999GE19MSL   +99999+99999GF199999041999005181999999MA1101601999999REMMET058METAR SBUF 191200Z 11007KT 9999 SCT017 BKN070 28/23 Q1016=
0165829860999992016021913004-09401-038251FM-15+026999999V0201001N003110243819N009999199+03001+02201999999ADDGA1041+005491999GA2071+024381999GE19MSL   +99999+99999GF199999041999005491999999MA1101601999999REMMET058METAR SBUF 191300Z 10006KT 9999 SCT018 BKN080 30/22 Q1016=
0142829860999992016021914004-09401-038251FM-15+026999999V0201101N002619999999N009999199+03001+02201999999ADDGA1041+006101999GE19MSL   +99999+99999GF199999041999006101999999MA1101501999999REMMET051METAR SBUF 191400Z 11005KT 9999 SCT020 30/22 Q1015=
0142829860999992016021915004-09401-038251FM-15+026999999V0200401N002610061019N009999199+03201+02101999999ADDGA1071+006101999GE19MSL   +99999+99999GF199999071999006101999999MA1101401999999REMMET051METAR SBUF 191500Z 04005KT 9999 BKN020 32/21 Q1014=
0142829860999992016021916004-09401-038251FM-15+026999999V0200601N004110064019N009999199+03401+02001999999ADDGA1071+006401999GE19MSL   +99999+99999GF199999071999006401999999MA1101301999999REMMET051METAR SBUF 191600Z 06008KT 9999 BKN021 34/20 Q1013=
0165829860999992016021917004-09401-038251FM-15+026999999V0200701N003110243819N009999199+03301+02201999999ADDGA1041+006401999GA2071+024381999GE19MSL   +99999+99999GF199999041999006401999999MA1101201999999REMMET058METAR SBUF 191700Z 07006KT 9999 SCT021 BKN080 33/22 Q1012=
0202829860999992016021918004-09401-038251FM-15+026999999V0200801N00411006711CN009999199+02302+02201999999ADDGA1021+006101999GA2041+006711081GA3071+024381999GE19MSL   +99999+99999GF199999021999006101999999MA1101201999999MW1161REMMET073METAR SBUF 191800Z 08008KT 9999 VCSH FEW020 SCT022TCU BKN080 23/22 Q1012=
0165829860999992016021919004-09401-038251FM-15+026999999V0201301N004110243819N009999199+03001+02101999999ADDGA1041+006101999GA2071+024381999GE19MSL   +99999+99999GF199999041999006101999999MA1101101999999REMMET058METAR SBUF 191900Z 13008KT 9999 SCT020 BKN080 30/21 Q1011=
0165829860999992016021919454-09401-038251FM-16+026999999V0201101N004110243819N009999199+02901+02201999999ADDGA1041+006101999GA2071+024381999GE19MSL   +99999+99999GF199999041999006101999999MA1101201999999REMMET058SPECI SBUF 191945Z 11008KT 9999 SCT020 BKN080 29/22 Q1012=
0142829860999992016022011154-09401-038251FM-16+026999999V0200801N005110054919N009999199+02801+02201999999ADDGA1071+005491999GE19MSL   +99999+99999GF199999071999005491999999MA1101601999999REMMET051SPECI SBUF 201115Z 08010KT 9999 BKN018 28/22 Q1016=
0142829860999992016022012004-09401-038251FM-15+026999999V0201101N004619999999N009999199+02801+02301999999ADDGA1041+005491999GE19MSL   +99999+99999GF199999041999005491999999MA1101701999999REMMET051METAR SBUF 201200Z 11009KT 9999 SCT018 28/23 Q1017=
0142829860999992016022013004-09401-038251FM-15+026999999V0201101N006219999999N009999199+03001+02001999999ADDGA1041+005791999GE19MSL   +99999+99999GF199999041999005791999999MA1101601999999REMMET051METAR SBUF 201300Z 11012KT 9999 SCT019 30/20 Q1016=
0142829860999992016022016004-09401-038251FM-15+026999999V0200901N005719999999N009999199+03301+99999999999ADDGA1041+006101999GE19MSL   +99999+99999GF199999041999006101999999MA1101401999999REMMET051METAR SBUF 201600Z 09011KT 9999 SCT020 33/// Q1014=
0142829860999992016022017004-09401-038251FM-15+026999999V0201001N004619999999N009999199+03401+99999999999ADDGA1041+006101999GE19MSL   +99999+99999GF199999041999006101999999MA1101301999999REMMET051METAR SBUF 201700Z 10009KT 9999 SCT020 34/// Q1013=
0142829860999992016022018004-09401-038251FM-15+026999999V0200801N003619999999N009999199+03501+99999999999ADDGA1021+006101999GE19MSL   +99999+99999GF199999021999006101999999MA1101201999999REMMET051METAR SBUF 201800Z 08007KT 9999 FEW020 35/// Q1012=
0142829860999992016022019004-09401-038251FM-15+026999999V0201001N004119999999N009999199+03401+99999999999ADDGA1021+006101999GE19MSL   +99999+99999GF199999021999006101999999MA1101201999999REMMET051METAR SBUF 201900Z 10008KT 9999 FEW020 34/// Q1012=
0142829860999992016022020004-09401-038251FM-15+026999999V0200901N005119999999N009999199+03301+01701999999ADDGA1021+006101999GE19MSL   +99999+99999GF199999021999006101999999MA1101101999999REMMET051METAR SBUF 202000Z 09010KT 9999 FEW020 33/17 Q1011=
0142829860999992016022021004-09401-038251FM-15+026999999V0200901N004619999999N009999199+03201+01701999999ADDGA1021+006101999GE19MSL   +99999+99999GF199999021999006101999999MA1101201999999REMMET051METAR SBUF 202100Z 09009KT 9999 FEW020 32/17 Q1012=
0142829860999992016022021154-09401-038251FM-16+026999999V0200901N004619999999N009999199+03101+01601999999ADDGA1021+006101999GE19MSL   +99999+99999GF199999021999006101999999MA1101201999999REMMET051SPECI SBUF 202115Z 09009KT 9999 FEW020 31/16 Q1012=
0142829860999992016022111154-09401-038251FM-16+026999999V0201101N004610054919N009999199+02601+02101999999ADDGA1071+005491999GE19MSL   +99999+99999GF199999071999005491999999MA1101501999999REMMET051SPECI SBUF 211115Z 11009KT 9999 BKN018 26/21 Q1015=
0142829860999992016022112004-09401-038251FM-15+026999999V0201001N006210054919N009999199+03001+99999999999ADDGA1071+005491999GE19MSL   +99999+99999GF199999071999005491999999MA1101501999999REMMET051METAR SBUF 211200Z 10012KT 9999 BKN018 30/// Q1015=
0142829860999992016022113004-09401-038251FM-15+026999999V0201101N006219999999N009999199+03101+99999999999ADDGA1041+006101999GE19MSL   +99999+99999GF199999041999006101999999MA1101601999999REMMET051METAR SBUF 211300Z 11012KT 9999 SCT020 31/// Q1016=
0142829860999992016022114004-09401-038251FM-15+026999999V0200901N005119999999N009999199+03201+99999999999ADDGA1041+006101999GE19MSL   +99999+99999GF199999041999006101999999MA1101501999999REMMET051METAR SBUF 211400Z 09010KT 9999 SCT020 32/// Q1015=
0142829860999992016022116004-09401-038251FM-15+026999999V0200801N005719999999N009999199+03401+99999999999ADDGA1041+006401999GE19MSL   +99999+99999GF199999041999006401999999MA1101201999999REMMET051METAR SBUF 211600Z 08011KT 9999 SCT021 34/// Q1012=
0142829860999992016022117004-09401-038251FM-15+026999999V0201101N005719999999N009999199+03501+99999999999ADDGA1041+006401999GE19MSL   +99999+99999GF199999041999006401999999MA1101101999999REMMET051METAR SBUF 211700Z 11011KT 9999 SCT021 35/// Q1011=
0142829860999992016022118004-09401-038251FM-15+026999999V0200901N005719999999N009999199+03501+01701999999ADDGA1041+006711999GE19MSL   +99999+99999GF199999041999006711999999MA1101001999999REMMET051METAR SBUF 211800Z 09011KT 9999 SCT022 35/17 Q1010=
0142829860999992016022119004-09401-038251FM-15+026999999V0201101N005719999999N009999199+03501+01701999999ADDGA1041+006711999GE19MSL   +99999+99999GF199999041999006711999999MA1101001999999REMMET051METAR SBUF 211900Z 11011KT 9999 SCT022 35/17 Q1010=
0142829860999992016022119454-09401-038251FM-16+026999999V0201001N006219999999N009999199+03401+01601999999ADDGA1021+006711999GE19MSL   +99999+99999GF199999021999006711999999MA1101001999999REMMET051SPECI SBUF 211945Z 10012KT 9999 FEW022 34/16 Q1010=
0142829860999992016022211154-09401-038251FM-16+026999999V0201001N004610051819N009999199+02801+99999999999ADDGA1071+005181999GE19MSL   +99999+99999GF199999071999005181999999MA1101501999999REMMET051SPECI SBUF 221115Z 10009KT 9999 BKN017 28/// Q1015=
0142829860999992016022212004-09401-038251FM-15+026999999V0201001N004619999999N009999199+02901+99999999999ADDGA1041+005491999GE19MSL   +99999+99999GF199999041999005491999999MA1101501999999REMMET051METAR SBUF 221200Z 10009KT 9999 SCT018 29/// Q1015=
0142829860999992016022213004-09401-038251FM-15+026999999V0201001N004619999999N009999199+03101+99999999999ADDGA1041+006101999GE19MSL   +99999+99999GF199999041999006101999999MA1101501999999REMMET051METAR SBUF 221300Z 10009KT 9999 SCT020 31/// Q1015=
0142829860999992016022214004-09401-038251FM-15+026999999V0200801N005119999999N009999199+03201+99999999999ADDGA1041+006101999GE19MSL   +99999+99999GF199999041999006101999999MA1101501999999REMMET051METAR SBUF 221400Z 08010KT 9999 SCT020 32/// Q1015=
0142829860999992016022215004-09401-038251FM-15+026999999V0201101N005719999999N009999199+03301+99999999999ADDGA1041+006401999GE19MSL   +99999+99999GF199999041999006401999999MA1101401999999REMMET051METAR SBUF 221500Z 11011KT 9999 SCT021 33/// Q1014=
0142829860999992016022216004-09401-038251FM-15+026999999V0201101N005719999999N009999199+03401+99999999999ADDGA1041+006711999GE19MSL   +99999+99999GF199999041999006711999999MA1101201999999REMMET051METAR SBUF 221600Z 11011KT 9999 SCT022 34/// Q1012=
0142829860999992016022217004-09401-038251FM-15+026999999V0200901N004619999999N009999199+03401+99999999999ADDGA1041+007011999GE19MSL   +99999+99999GF199999041999007011999999MA1101201999999REMMET051METAR SBUF 221700Z 09009KT 9999 SCT023 34/// Q1012=
0142829860999992016022218004-09401-038251FM-15+026999999V0200901N005719999999N009999199+03501+99999999999ADDGA1041+006711999GE19MSL   +99999+99999GF199999041999006711999999MA1101101999999REMMET051METAR SBUF 221800Z 09011KT 9999 SCT022 35/// Q1011=
0142829860999992016022219004-09401-038251FM-15+026999999V0201401N004619999999N009999199+03501+99999999999ADDGA1041+006711999GE19MSL   +99999+99999GF199999041999006711999999MA1101001999999REMMET051METAR SBUF 221900Z 14009KT 9999 SCT022 35/// Q1010=
0142829860999992016022219454-09401-038251FM-16+026999999V0201201N005719999999N009999199+03401+99999999999ADDGA1041+006401999GE19MSL   +99999+99999GF199999041999006401999999MA1101001999999REMMET051SPECI SBUF 221945Z 12011KT 9999 SCT021 34/// Q1010=
0142829860999992016022311154-09401-038251FM-16+026999999V0201001N004610051819N009999199+02701+99999999999ADDGA1071+005181999GE19MSL   +99999+99999GF199999071999005181999999MA1101701999999REMMET051SPECI SBUF 231115Z 10009KT 9999 BKN017 27/// Q1017=
0142829860999992016022312004-09401-038251FM-15+026999999V0201201N005110054919N009999199+02901+99999999999ADDGA1071+005491999GE19MSL   +99999+99999GF199999071999005491999999MA1101601999999REMMET051METAR SBUF 231200Z 12010KT 9999 BKN018 29/// Q1016=
0142829860999992016022314004-09401-038251FM-15+026999999V0201101N005119999999N009999199+03201+02101999999ADDGA1041+006401999GE19MSL   +99999+99999GF199999041999006401999999MA1101601999999REMMET051METAR SBUF 231400Z 11010KT 9999 SCT021 32/21 Q1016=
0142829860999992016022315004-09401-038251FM-15+026999999V0201301N005119999999N009999199+03401+99999999999ADDGA1041+006401999GE19MSL   +99999+99999GF199999041999006401999999MA1101501999999REMMET051METAR SBUF 231500Z 13010KT 9999 SCT021 34/// Q1015=
0142829860999992016022316004-09401-038251FM-15+026999999V0200901N004619999999N009999199+03401+99999999999ADDGA1041+006401999GE19MSL   +99999+99999GF199999041999006401999999MA1101401999999REMMET051METAR SBUF 231600Z 09009KT 9999 SCT021 34/// Q1014=
0142829860999992016022318004-09401-038251FM-15+026999999V0201101N004610061019N009999199+03601+99999999999ADDGA1071+006101999GE19MSL   +99999+99999GF199999071999006101999999MA1101301999999REMMET051METAR SBUF 231800Z 11009KT 9999 BKN020 36/// Q1013=
0142829860999992016022319004-09401-038251FM-15+026999999V0201001N004119999999N009999199+03401+01801999999ADDGA1041+006711999GE19MSL   +99999+99999GF199999041999006711999999MA1101201999999REMMET051METAR SBUF 231900Z 10008KT 9999 SCT022 34/18 Q1012=
0142829860999992016022319454-09401-038251FM-16+026999999V0201201N006219999999N009999199+03401+02001999999ADDGA1041+006711999GE19MSL   +99999+99999GF199999041999006711999999MA1101201999999REMMET051SPECI SBUF 231945Z 12012KT 9999 SCT022 34/20 Q1012=
0142829860999992016022411154-09401-038251FM-16+026999999V0201501N003610054919N009999199+02701+99999999999ADDGA1071+005491999GE19MSL   +99999+99999GF199999071999005491999999MA1101501999999REMMET051SPECI SBUF 241115Z 15007KT 9999 BKN018 27/// Q1015=
0142829860999992016022412004-09401-038251FM-15+026999999V0201601N004110061019N009999199+02901+99999999999ADDGA1071+006101999GE19MSL   +99999+99999GF199999071999006101999999MA1101501999999REMMET051METAR SBUF 241200Z 16008KT 9999 BKN020 29/// Q1015=
0142829860999992016022413004-09401-038251FM-15+026999999V0201201N005719999999N009999199+03001+99999999999ADDGA1041+005791999GE19MSL   +99999+99999GF199999041999005791999999MA1101501999999REMMET051METAR SBUF 241300Z 12011KT 9999 SCT019 30/// Q1015=
0142829860999992016022414004-09401-038251FM-15+026999999V0201101N005719999999N009999199+03201+99999999999ADDGA1041+006101999GE19MSL   +99999+99999GF199999041999006101999999MA1101501999999REMMET051METAR SBUF 241400Z 11011KT 9999 SCT020 32/// Q1015=
0142829860999992016022415004-09401-038251FM-15+026999999V0201301N004119999999N009999199+03401+99999999999ADDGA1041+006101999GE19MSL   +99999+99999GF199999041999006101999999MA1101401999999REMMET051METAR SBUF 241500Z 13008KT 9999 SCT020 34/// Q1014=
0142829860999992016022416004-09401-038251FM-15+026999999V0201301N004119999999N009999199+03401+99999999999ADDGA1041+006401999GE19MSL   +99999+99999GF199999041999006401999999MA1101301999999REMMET051METAR SBUF 241600Z 13008KT 9999 SCT021 34/// Q1013=
0142829860999992016022417004-09401-038251FM-15+026999999V0200901N005119999999N009999199+03501+99999999999ADDGA1041+006401999GE19MSL   +99999+99999GF199999041999006401999999MA1101201999999REMMET051METAR SBUF 241700Z 09010KT 9999 SCT021 35/// Q1012=
0142829860999992016022418004-09401-038251FM-15+026999999V0201001N004119999999N009999199+03501+99999999999ADDGA1041+006101999GE19MSL   +99999+99999GF199999041999006101999999MA1101101999999REMMET051METAR SBUF 241800Z 10008KT 9999 SCT020 35/// Q1011=
0142829860999992016022419004-09401-038251FM-15+026999999V0201201N005719999999N009999199+03501+01901999999ADDGA1041+006101999GE19MSL   +99999+99999GF199999041999006101999999MA1101101999999REMMET051METAR SBUF 241900Z 12011KT 9999 SCT020 35/19 Q1011=
0142829860999992016022419454-09401-038251FM-16+026999999V0200901N005119999999N009999199+03401+01901999999ADDGA1041+006101999GE19MSL   +99999+99999GF199999041999006101999999MA1101101999999REMMET051SPECI SBUF 241945Z 09010KT 9999 SCT020 34/19 Q1011=
0142829860999992016022511154-09401-038251FM-16+026999999V0201001N004610054919N009999199+02601+99999999999ADDGA1071+005491999GE19MSL   +99999+99999GF199999071999005491999999MA1101501999999REMMET051SPECI SBUF 251115Z 10009KT 9999 BKN018 26/// Q1015=
0142829860999992016022512004-09401-038251FM-15+026999999V0201001N003610054919N009999199+02701+99999999999ADDGA1071+005491999GE19MSL   +99999+99999GF199999071999005491999999MA1101501999999REMMET051METAR SBUF 251200Z 10007KT 9999 BKN018 27/// Q1015=
0165829860999992016022513004-09401-038251FM-15+026999999V0201101N006210213419N009999199+02901+99999999999ADDGA1041+005491999GA2071+021341999GE19MSL   +99999+99999GF199999041999005491999999MA1101501999999REMMET058METAR SBUF 251300Z 11012KT 9999 SCT018 BKN070 29/// Q1015=
0165829860999992016022514004-09401-038251FM-15+026999999V0201101N00411021341CN009999199+03101+99999999999ADDGA1041+006101999GA2041+021341999GE19MSL   +99999+99999GF199999041999006101999999MA1101501999999REMMET058METAR SBUF 251400Z 11008KT 9999 SCT020 SCT070 31/// Q1015=
0142829860999992016022515004-09401-038251FM-15+026999999V0201201N004110061019N009999199+03301+99999999999ADDGA1071+006101999GE19MSL   +99999+99999GF199999071999006101999999MA1101401999999REMMET051METAR SBUF 251500Z 12008KT 9999 BKN020 33/// Q1014=
0142829860999992016022516004-09401-038251FM-15+026999999V0201201N004110067119N009999199+03401+99999999999ADDGA1071+006711999GE19MSL   +99999+99999GF199999071999006711999999MA1101301999999REMMET051METAR SBUF 251600Z 12008KT 9999 BKN022 34/// Q1013=
0142829860999992016022517004-09401-038251FM-15+026999999V0201201N004119999999N009999199+03501+99999999999ADDGA1041+006711999GE19MSL   +99999+99999GF199999041999006711999999MA1101201999999REMMET051METAR SBUF 251700Z 12008KT 9999 SCT022 35/// Q1012=
0142829860999992016022518004-09401-038251FM-15+026999999V0201001N004619999999N009999199+03501+99999999999ADDGA1041+006711999GE19MSL   +99999+99999GF199999041999006711999999MA1101101999999REMMET051METAR SBUF 251800Z 10009KT 9999 SCT022 35/// Q1011=
0142829860999992016022519004-09401-038251FM-15+026999999V0200901N004119999999N009999199+03501+99999999999ADDGA1041+006711999GE19MSL   +99999+99999GF199999041999006711999999MA1101101999999REMMET051METAR SBUF 251900Z 09008KT 9999 SCT022 35/// Q1011=
0142829860999992016022519454-09401-038251FM-16+026999999V0200901N004119999999N009999199+03401+99999999999ADDGA1041+006401999GE19MSL   +99999+99999GF199999041999006401999999MA1101001999999REMMET051SPECI SBUF 251945Z 09008KT 9999 SCT021 34/// Q1010=
0142829860999992016022611154-09401-038251FM-16+026999999V0201101N004119999999N009999199+02801+99999999999ADDGA1041+005181999GE19MSL   +99999+99999GF199999041999005181999999MA1101501999999REMMET051SPECI SBUF 261115Z 11008KT 9999 SCT017 28/// Q1015=
0142829860999992016022612004-09401-038251FM-15+026999999V0201301N004119999999N009999199+02901+99999999999ADDGA1021+005491999GE19MSL   +99999+99999GF199999021999005491999999MA1101501999999REMMET051METAR SBUF 261200Z 13008KT 9999 FEW018 29/// Q1015=
0142829860999992016022613004-09401-038251FM-15+026999999V0201101N005119999999N009999199+03001+99999999999ADDGA1041+006101999GE19MSL   +99999+99999GF199999041999006101999999MA1101501999999REMMET051METAR SBUF 261300Z 11010KT 9999 SCT020 30/// Q1015=
0142829860999992016022614004-09401-038251FM-15+026999999V0201201N004119999999N009999199+03101+99999999999ADDGA1021+006101999GE19MSL   +99999+99999GF199999021999006101999999MA1101401999999REMMET051METAR SBUF 261400Z 12008KT 9999 FEW020 31/// Q1014=
0142829860999992016022615004-09401-038251FM-15+026999999V0201001N004619999999N009999199+03301+99999999999ADDGA1041+006401999GE19MSL   +99999+99999GF199999041999006401999999MA1101301999999REMMET051METAR SBUF 261500Z 10009KT 9999 SCT021 33/// Q1013=
0142829860999992016022616004-09401-038251FM-15+026999999V0201101N005119999999N009999199+03401+99999999999ADDGA1021+006401999GE19MSL   +99999+99999GF199999021999006401999999MA1101201999999REMMET051METAR SBUF 261600Z 11010KT 9999 FEW021 34/// Q1012=
0142829860999992016022617004-09401-038251FM-15+026999999V0201401N004119999999N009999199+03501+99999999999ADDGA1021+006711999GE19MSL   +99999+99999GF199999021999006711999999MA1101201999999REMMET051METAR SBUF 261700Z 14008KT 9999 FEW022 35/// Q1012=
0142829860999992016022618004-09401-038251FM-15+026999999V0200701N002119999999N009999199+03501+99999999999ADDGA1041+006401999GE19MSL   +99999+99999GF199999041999006401999999MA1101101999999REMMET051METAR SBUF 261800Z 07004KT 9999 SCT021 35/// Q1011=
0142829860999992016022619004-09401-038251FM-15+026999999V0201001N004619999999N009999199+03501+99999999999ADDGA1021+006401999GE19MSL   +99999+99999GF199999021999006401999999MA1101001999999REMMET051METAR SBUF 261900Z 10009KT 9999 FEW021 35/// Q1010=
0142829860999992016022619454-09401-038251FM-16+026999999V0201101N004619999999N009999199+03501+99999999999ADDGA1021+006401999GE19MSL   +99999+99999GF199999021999006401999999MA1101001999999REMMET051SPECI SBUF 261945Z 11009KT 9999 FEW021 35/// Q1010=
0142829860999992016022711154-09401-038251FM-16+026999999V0201001N003619999999N009999199+02701+99999999999ADDGA1041+005491999GE19MSL   +99999+99999GF199999041999005491999999MA1101701999999REMMET051SPECI SBUF 271115Z 10007KT 9999 SCT018 27/// Q1017=
0142829860999992016022712004-09401-038251FM-15+026999999V0201001N004610054919N009999199+02901+99999999999ADDGA1071+005491999GE19MSL   +99999+99999GF199999071999005491999999MA1101701999999REMMET051METAR SBUF 271200Z 10009KT 9999 BKN018 29/// Q1017=
0142829860999992016022713004-09401-038251FM-15+026999999V0201101N004619999999N009999199+03001+99999999999ADDGA1041+005791999GE19MSL   +99999+99999GF199999041999005791999999MA1101701999999REMMET051METAR SBUF 271300Z 11009KT 9999 SCT019 30/// Q1017=
0142829860999992016022714004-09401-038251FM-15+026999999V0200801N004619999999N009999199+03301+99999999999ADDGA1041+006101999GE19MSL   +99999+99999GF199999041999006101999999MA1101601999999REMMET051METAR SBUF 271400Z 08009KT 9999 SCT020 33/// Q1016=
0165829860999992016022715004-09401-038251FM-15+026999999V0201001N006210243819N009999199+03301+99999999999ADDGA1021+006401999GA2071+024381999GE19MSL   +99999+99999GF199999021999006401999999MA1101501999999REMMET058METAR SBUF 271500Z 10012KT 9999 FEW021 BKN080 33/// Q1015=
0165829860999992016022716004-09401-038251FM-15+026999999V0200801N00621024381CN009999199+03501+99999999999ADDGA1021+006401999GA2041+024381999GE19MSL   +99999+99999GF199999021999006401999999MA1101401999999REMMET058METAR SBUF 271600Z 08012KT 9999 FEW021 SCT080 35/// Q1014=
0165829860999992016022717004-09401-038251FM-15+026999999V0201101N00621024381CN009999199+03501+99999999999ADDGA1021+006711999GA2041+024381999GE19MSL   +99999+99999GF199999021999006711999999MA1101301999999REMMET058METAR SBUF 271700Z 11012KT 9999 FEW022 SCT080 35/// Q1013=
0142829860999992016022718004-09401-038251FM-15+026999999V0201201N007219999999N009999199+03601+99999999999ADDGA1041+006711999GE19MSL   +99999+99999GF199999041999006711999999MA1101301999999REMMET051METAR SBUF 271800Z 12014KT 9999 SCT022 36/// Q1013=
0142829860999992016022719004-09401-038251FM-15+026999999V0201101N007219999999N009999199+03401+99999999999ADDGA1041+006401999GE19MSL   +99999+99999GF199999041999006401999999MA1101301999999REMMET051METAR SBUF 271900Z 11014KT 9999 SCT021 34/// Q1013=
0165829860999992016022719454-09401-038251FM-16+026999999V0201101N006210243819N009999199+03301+99999999999ADDGA1021+006401999GA2071+024381999GE19MSL   +99999+99999GF199999021999006401999999MA1101301999999REMMET058SPECI SBUF 271945Z 11012KT 9999 FEW021 BKN080 33/// Q1013=
0165829860999992016022811154-09401-038251FM-16+026999999V0200801N00621021341CN009999199+02701+99999999999ADDGA1041+005491999GA2041+021341999GE19MSL   +99999+99999GF199999041999005491999999MA1101601999999REMMET058SPECI SBUF 281115Z 08012KT 9999 SCT018 SCT070 27/// Q1016=
0165829860999992016022812004-09401-038251FM-15+026999999V0200901N00571021341CN009999199+02901+99999999999ADDGA1041+005791999GA2041+021341999GE19MSL   +99999+99999GF199999041999005791999999MA1101601999999REMMET058METAR SBUF 281200Z 09011KT 9999 SCT019 SCT070 29/// Q1016=
0165829860999992016022813004-09401-038251FM-15+026999999V0201001N004610243819N009999199+03001+99999999999ADDGA1041+006101999GA2071+024381999GE19MSL   +99999+99999GF199999041999006101999999MA1101601999999REMMET058METAR SBUF 281300Z 10009KT 9999 SCT020 BKN080 30/// Q1016=
0165829860999992016022814004-09401-038251FM-15+026999999V0200901N004110243819N009999199+03101+99999999999ADDGA1041+006101999GA2071+024381999GE19MSL   +99999+99999GF199999041999006101999999MA1101601999999REMMET058METAR SBUF 281400Z 09008KT 9999 SCT020 BKN080 31/// Q1016=
0165829860999992016022815004-09401-038251FM-15+026999999V0200901N004110243819N009999199+03201+99999999999ADDGA1021+006101999GA2071+024381999GE19MSL   +99999+99999GF199999021999006101999999MA1101501999999REMMET058METAR SBUF 281500Z 09008KT 9999 FEW020 BKN080 32/// Q1015=
0142829860999992016022816004-09401-038251FM-15+026999999V0201001N003619999999N009999199+03401+99999999999ADDGA1041+006401999GE19MSL   +99999+99999GF199999041999006401999999MA1101401999999REMMET051METAR SBUF 281600Z 10007KT 9999 SCT021 34/// Q1014=
0142829860999992016022817004-09401-038251FM-15+026999999V0201201N005719999999N009999199+03501+99999999999ADDGA1041+006401999GE19MSL   +99999+99999GF199999041999006401999999MA1101301999999REMMET051METAR SBUF 281700Z 12011KT 9999 SCT021 35/// Q1013=
0142829860999992016022818004-09401-038251FM-15+026999999V0201001N004119999999N009999199+03601+99999999999ADDGA1041+006711999GE19MSL   +99999+99999GF199999041999006711999999MA1101201999999REMMET051METAR SBUF 281800Z 10008KT 9999 SCT022 36/// Q1012=
0142829860999992016022819004-09401-038251FM-15+026999999V0201001N004119999999N009999199+03601+99999999999ADDGA1041+006711999GE19MSL   +99999+99999GF199999041999006711999999MA1101201999999REMMET051METAR SBUF 281900Z 10008KT 9999 SCT022 36/// Q1012=
0142829860999992016022819454-09401-038251FM-16+026999999V0200901N005119999999N009999199+03501+99999999999ADDGA1021+006711999GE19MSL   +99999+99999GF199999021999006711999999MA1101201999999REMMET051SPECI SBUF 281945Z 09010KT 9999 FEW022 35/// Q1012=
0142829860999992016022911154-09401-038251FM-16+026999999V0201001N004119999999N009999199+02801+99999999999ADDGA1041+005791999GE19MSL   +99999+99999GF199999041999005791999999MA1101601999999REMMET051SPECI SBUF 291115Z 10008KT 9999 SCT019 28/// Q1016=
0142829860999992016022912004-09401-038251FM-15+026999999V0201001N004619999999N009999199+03001+99999999999ADDGA1041+005791999GE19MSL   +99999+99999GF199999041999005791999999MA1101601999999REMMET051METAR SBUF 291200Z 10009KT 9999 SCT019 30/// Q1016=
0142829860999992016022913004-09401-038251FM-15+026999999V0201101N005719999999N009999199+03201+99999999999ADDGA1041+006101999GE19MSL   +99999+99999GF199999041999006101999999MA1101601999999REMMET051METAR SBUF 291300Z 11011KT 9999 SCT020 32/// Q1016=
0142829860999992016022914004-09401-038251FM-15+026999999V0201001N005719999999N009999199+03301+99999999999ADDGA1041+006101999GE19MSL   +99999+99999GF199999041999006101999999MA1101501999999REMMET051METAR SBUF 291400Z 10011KT 9999 SCT020 33/// Q1015=
0142829860999992016022915004-09401-038251FM-15+026999999V0201001N005119999999N009999199+03401+99999999999ADDGA1041+006711999GE19MSL   +99999+99999GF199999041999006711999999MA1101401999999REMMET051METAR SBUF 291500Z 10010KT 9999 SCT022 34/// Q1014=
0142829860999992016022916004-09401-038251FM-15+026999999V0201101N005719999999N009999199+03601+99999999999ADDGA1041+006711999GE19MSL   +99999+99999GF199999041999006711999999MA1101201999999REMMET051METAR SBUF 291600Z 11011KT 9999 SCT022 36/// Q1012=
0142829860999992016022917004-09401-038251FM-15+026999999V0201101N005119999999N009999199+03301+99999999999ADDGA1021+006711999GE19MSL   +99999+99999GF199999021999006711999999MA1101201999999REMMET051METAR SBUF 291700Z 11010KT 9999 FEW022 33/// Q1012=
0142829860999992016022918004-09401-038251FM-15+026999999V0200901N005119999999N009999199+03601+99999999999ADDGA1041+007011999GE19MSL   +99999+99999GF199999041999007011999999MA1101101999999REMMET051METAR SBUF 291800Z 09010KT 9999 SCT023 36/// Q1011=
0142829860999992016022919004-09401-038251FM-15+026999999V0201001N005119999999N009999199+03601+99999999999ADDGA1041+007011999GE19MSL   +99999+99999GF199999041999007011999999MA1101101999999REMMET051METAR SBUF 291900Z 10010KT 9999 SCT023 36/// Q1011=
0142829860999992016022919454-09401-038251FM-16+026999999V0200901N005119999999N009999199+03501+99999999999ADDGA1041+007011999GE19MSL   +99999+99999GF199999041999007011999999MA1101101999999REMMET051SPECI SBUF 291945Z 09010KT 9999 SCT023 35/// Q1011=
0142829860999992016030111154-09401-038251FM-16+026999999V0201001N005710051819N009999199+02701+99999999999ADDGA1071+005181999GE19MSL   +99999+99999GF199999071999005181999999MA1101701999999REMMET051SPECI SBUF 011115Z 10011KT 9999 BKN017 27/// Q1017=
0142829860999992016030112004-09401-038251FM-15+026999999V0201301N004610051819N009999199+02801+99999999999ADDGA1071+005181999GE19MSL   +99999+99999GF199999071999005181999999MA1101701999999REMMET051METAR SBUF 011200Z 13009KT 9999 BKN017 28/// Q1017=
0142829860999992016030113004-09401-038251FM-15+026999999V0200901N005710061019N009999199+03101+99999999999ADDGA1071+006101999GE19MSL   +99999+99999GF199999071999006101999999MA1101701999999REMMET051METAR SBUF 011300Z 09011KT 9999 BKN020 31/// Q1017=
0142829860999992016030114004-09401-038251FM-15+026999999V0201001N005719999999N009999199+03301+99999999999ADDGA1041+006101999GE19MSL   +99999+99999GF199999041999006101999999MA1101601999999REMMET051METAR SBUF 011400Z 10011KT 9999 SCT020 33/// Q1016=
0142829860999992016030115004-09401-038251FM-15+026999999V0201101N006219999999N009999199+03401+99999999999ADDGA1021+006401999GE19MSL   +99999+99999GF199999021999006401999999MA1101501999999REMMET051METAR SBUF 011500Z 11012KT 9999 FEW021 34/// Q1015=
0142829860999992016030116004-09401-038251FM-15+026999999V0200901N005119999999N009999199+03501+99999999999ADDGA1021+006401999GE19MSL   +99999+99999GF199999021999006401999999MA1101301999999REMMET051METAR SBUF 011600Z 09010KT 9999 FEW021 35/// Q1013=
0142829860999992016030117004-09401-038251FM-15+026999999V0201201N005119999999N009999199+03501+99999999999ADDGA1021+006711999GE19MSL   +99999+99999GF199999021999006711999999MA1101301999999REMMET051METAR SBUF 011700Z 12010KT 9999 FEW022 35/// Q1013=
0142829860999992016030118004-09401-038251FM-15+026999999V0201301N006219999999N009999199+03601+99999999999ADDGA1021+006711999GE19MSL   +99999+99999GF199999021999006711999999MA1101201999999REMMET051METAR SBUF 011800Z 13012KT 9999 FEW022 36/// Q1012=
0142829860999992016030119004-09401-038251FM-15+026999999V0201201N006219999999N009999199+03601+99999999999ADDGA1021+006711999GE19MSL   +99999+99999GF199999021999006711999999MA1101101999999REMMET051METAR SBUF 011900Z 12012KT 9999 FEW022 36/// Q1011=
0142829860999992016030119454-09401-038251FM-16+026999999V0201101N006219999999N009999199+03501+99999999999ADDGA1021+006401999GE19MSL   +99999+99999GF199999021999006401999999MA1101101999999REMMET051SPECI SBUF 011945Z 11012KT 9999 FEW021 35/// Q1011=
0142829860999992016030211154-09401-038251FM-16+026999999V0201101N004610048819N009999199+02801+99999999999ADDGA1071+004881999GE19MSL   +99999+99999GF199999071999004881999999MA1101701999999REMMET051SPECI SBUF 021115Z 11009KT 9999 BKN016 28/// Q1017=
0142829860999992016030212004-09401-038251FM-15+026999999V0201301N004610048819N009999199+02801+99999999999ADDGA1071+004881999GE19MSL   +99999+99999GF199999071999004881999999MA1101701999999REMMET051METAR SBUF 021200Z 13009KT 9999 BKN016 28/// Q1017=
0142829860999992016030213004-09401-038251FM-15+026999999V0201101N004610054919N009999199+03101+99999999999ADDGA1071+005491999GE19MSL   +99999+99999GF199999071999005491999999MA1101601999999REMMET051METAR SBUF 021300Z 11009KT 9999 BKN018 31/// Q1016=
0142829860999992016030214004-09401-038251FM-15+026999999V0201001N004119999999N009999199+03301+01701999999ADDGA1041+005491999GE19MSL   +99999+99999GF199999041999005491999999MA1101501999999REMMET051METAR SBUF 021400Z 10008KT 9999 SCT018 33/17 Q1015=
0142829860999992016030215004-09401-038251FM-15+026999999V0201201N005119999999N009999199+03301+01701999999ADDGA1041+006401999GE19MSL   +99999+99999GF199999041999006401999999MA1101401999999REMMET051METAR SBUF 021500Z 12010KT 9999 SCT021 33/17 Q1014=
0142829860999992016030216004-09401-038251FM-15+026999999V0200901N004619999999N009999199+03401+01701999999ADDGA1041+006401999GE19MSL   +99999+99999GF199999041999006401999999MA1101301999999REMMET051METAR SBUF 021600Z 09009KT 9999 SCT021 34/17 Q1013=
0142829860999992016030217004-09401-038251FM-15+026999999V0201001N003119999999N009999199+03501+01601999999ADDGA1041+006711999GE19MSL   +99999+99999GF199999041999006711999999MA1101201999999REMMET051METAR SBUF 021700Z 10006KT 9999 SCT022 35/16 Q1012=
0142829860999992016030218004-09401-038251FM-15+026999999V0200801N004119999999N009999199+03501+01601999999ADDGA1041+006711999GE19MSL   +99999+99999GF199999041999006711999999MA1101101999999REMMET051METAR SBUF 021800Z 08008KT 9999 SCT022 35/16 Q1011=
0142829860999992016030220004-09401-038251FM-15+026999999V0201201N004619999999N009999199+03401+01801999999ADDGA1041+006711999GE19MSL   +99999+99999GF199999041999006711999999MA1101101999999REMMET051METAR SBUF 022000Z 12009KT 9999 SCT022 34/18 Q1011=
0142829860999992016030220454-09401-038251FM-16+026999999V0201601N004119999999N009999199+03301+01801999999ADDGA1021+006711999GE19MSL   +99999+99999GF199999021999006711999999MA1101101999999REMMET051SPECI SBUF 022045Z 16008KT 9999 FEW022 33/18 Q1011=
0142829860999992016030311154-09401-038251FM-16+026999999V0201101N004110054919N009999199+02701+02201999999ADDGA1071+005491999GE19MSL   +99999+99999GF199999071999005491999999MA1101601999999REMMET051SPECI SBUF 031115Z 11008KT 9999 BKN018 27/22 Q1016=
0142829860999992016030312004-09401-038251FM-15+026999999V0201001N003610054919N009999199+02901+02201999999ADDGA1071+005491999GE19MSL   +99999+99999GF199999071999005491999999MA1101601999999REMMET051METAR SBUF 031200Z 10007KT 9999 BKN018 29/22 Q1016=
0142829860999992016030313004-09401-038251FM-15+026999999V0201301N003119999999N009999199+03101+02101999999ADDGA1041+005791999GE19MSL   +99999+99999GF199999041999005791999999MA1101501999999REMMET051METAR SBUF 031300Z 13006KT 9999 SCT019 31/21 Q1015=
0142829860999992016030314004-09401-038251FM-15+026999999V0201001N003619999999N009999199+03301+02101999999ADDGA1021+006101999GE19MSL   +99999+99999GF199999021999006101999999MA1101401999999REMMET051METAR SBUF 031400Z 10007KT 9999 FEW020 33/21 Q1014=
0146829860999992016030315004-09401-038251FM-15+026999999V0201701N003619999999N009999199+03201+02101999999ADDGA1041+006101999GE19MSL   +99999+99999GF199999041999006101999999REMMET051METAR SBUF 031500Z 17007KT 9999 SCT020 32/21 Q1019=EQDQ011019  3APOA  
0142829860999992016030317004-09401-038251FM-15+026999999V0201501N003119999999N009999199+03601+01801999999ADDGA1041+006401999GE19MSL   +99999+99999GF199999041999006401999999MA1101101999999REMMET051METAR SBUF 031700Z 15006KT 9999 SCT021 36/18 Q1011=
0165829860999992016030318004-09401-038251FM-15+026999999V0201801N00261027431CN009999199+03501+01801999999ADDGA1021+006401999GA2041+027431999GE19MSL   +99999+99999GF199999021999006401999999MA1101001999999REMMET058METAR SBUF 031800Z 18005KT 9999 FEW021 SCT090 35/18 Q1010=
0165829860999992016030319004-09401-038251FM-15+026999999V0201801N00151027431CN009999199+03501+01801999999ADDGA1041+006401999GA2041+027431999GE19MSL   +99999+99999GF199999041999006401999999MA1101101999999REMMET058METAR SBUF 031900Z 18003KT 9999 SCT021 SCT090 35/18 Q1011=
0165829860999992016030320004-09401-038251FM-15+026999999V0201301N002110213419N009999199+03501+01801999999ADDGA1021+006101999GA2071+021341999GE19MSL   +99999+99999GF199999021999006101999999MA1101101999999REMMET058METAR SBUF 032000Z 13004KT 9999 FEW020 BKN070 35/18 Q1011=
0191829860999992016030321004-09401-038251FM-15+026999999V0200901N007210213419N009999199+03101+02201999999ADDGA1041+006101999GA2021+006711081GA3071+021341999GE19MSL   +99999+99999GF199999041999006101999999MA1101201999999REMMET068METAR SBUF 032100Z 09014KT 9999 SCT020 FEW022TCU BKN070 31/22 Q1012=
0201829860999992016030321234-09401-038251FM-16+026999999V0201001N008210061019N009999199+03101+02201999999ADDGA1071+006101999GA2021+006711091GA3071+021341999GE19MSL   +99999+99999GF199999071999006101999999MA1101301999999MW1131REMMET072SPECI SBUF 032123Z 10016KT 9999 VCTS BKN020 FEW022CB BKN070 31/22 Q1013=
0142829860999992016030411154-09401-038251FM-16+026999999V0201201N003110054919N009999199+02901+02401999999ADDGA1071+005491999GE19MSL   +99999+99999GF199999071999005491999999MA1101501999999REMMET051SPECI SBUF 041115Z 12006KT 9999 BKN018 29/24 Q1015=
0142829860999992016030412004-09401-038251FM-15+026999999V0200901N003119999999N009999199+02901+02301999999ADDGA1041+005491999GE19MSL   +99999+99999GF199999041999005491999999MA1101501999999REMMET051METAR SBUF 041200Z 09006KT 9999 SCT018 29/23 Q1015=
0142829860999992016030413004-09401-038251FM-15+026999999V0201401N003119999999N009999199+03101+02201999999ADDGA1041+005791999GE19MSL   +99999+99999GF199999041999005791999999MA1101501999999REMMET051METAR SBUF 041300Z 14006KT 9999 SCT019 31/22 Q1015=
0142829860999992016030414004-09401-038251FM-15+026999999V0201001N005110061019N009999199+03301+02101999999ADDGA1071+006101999GE19MSL   +99999+99999GF199999071999006101999999MA1101401999999REMMET051METAR SBUF 041400Z 10010KT 9999 BKN020 33/21 Q1014=
0142829860999992016030415004-09401-038251FM-15+026999999V0201001N005119999999N009999199+03501+02001999999ADDGA1041+006101999GE19MSL   +99999+99999GF199999041999006101999999MA1101301999999REMMET051METAR SBUF 041500Z 10010KT 9999 SCT020 35/20 Q1013=
0142829860999992016030416004-09401-038251FM-15+026999999V0201301N005119999999N009999199+03401+02101999999ADDGA1041+006711999GE19MSL   +99999+99999GF199999041999006711999999MA1101201999999REMMET051METAR SBUF 041600Z 13010KT 9999 SCT022 34/21 Q1012=
0142829860999992016030417004-09401-038251FM-15+026999999V0201101N004119999999N009999199+03601+02101999999ADDGA1041+006711999GE19MSL   +99999+99999GF199999041999006711999999MA1101101999999REMMET051METAR SBUF 041700Z 11008KT 9999 SCT022 36/21 Q1011=
0142829860999992016030418004-09401-038251FM-15+026999999V0201301N004119999999N009999199+03601+02001999999ADDGA1041+006711999GE19MSL   +99999+99999GF199999041999006711999999MA1101101999999REMMET051METAR SBUF 041800Z 13008KT 9999 SCT022 36/20 Q1011=
0142829860999992016030419004-09401-038251FM-15+026999999V0201001N003119999999N009999199+03501+02001999999ADDGA1041+006711999GE19MSL   +99999+99999GF199999041999006711999999MA1101101999999REMMET051METAR SBUF 041900Z 10006KT 9999 SCT022 35/20 Q1011=
0142829860999992016030419454-09401-038251FM-16+026999999V0201201N003619999999N009999199+03501+02001999999ADDGA1041+006401999GE19MSL   +99999+99999GF199999041999006401999999MA1101001999999REMMET051SPECI SBUF 041945Z 12007KT 9999 SCT021 35/20 Q1010=
0142829860999992016030511154-09401-038251FM-16+026999999V0201101N003610054919N009999199+02901+02301999999ADDGA1071+005491999GE19MSL   +99999+99999GF199999071999005491999999MA1101601999999REMMET051SPECI SBUF 051115Z 11007KT 9999 BKN018 29/23 Q1016=
0142829860999992016030512004-09401-038251FM-15+026999999V0201201N004610054919N009999199+03001+02201999999ADDGA1071+005491999GE19MSL   +99999+99999GF199999071999005491999999MA1101601999999REMMET051METAR SBUF 051200Z 12009KT 9999 BKN018 30/22 Q1016=
0142829860999992016030513004-09401-038251FM-15+026999999V0201101N005710061019N009999199+03201+02101999999ADDGA1071+006101999GE19MSL   +99999+99999GF199999071999006101999999MA1101501999999REMMET051METAR SBUF 051300Z 11011KT 9999 BKN020 32/21 Q1015=
0142829860999992016030514004-09401-038251FM-15+026999999V0201001N004610061019N009999199+03301+02101999999ADDGA1071+006101999GE19MSL   +99999+99999GF199999071999006101999999MA1101501999999REMMET051METAR SBUF 051400Z 10009KT 9999 BKN020 33/21 Q1015=
0142829860999992016030515004-09401-038251FM-15+026999999V0201001N005119999999N009999199+03301+02001999999ADDGA1041+006401999GE19MSL   +99999+99999GF199999041999006401999999MA1101301999999REMMET051METAR SBUF 051500Z 10010KT 9999 SCT021 33/20 Q1013=
0142829860999992016030516004-09401-038251FM-15+026999999V0201001N004619999999N009999199+03401+02001999999ADDGA1041+006401999GE19MSL   +99999+99999GF199999041999006401999999MA1101301999999REMMET051METAR SBUF 051600Z 10009KT 9999 SCT021 34/20 Q1013=
0142829860999992016030517004-09401-038251FM-15+026999999V0200801N005119999999N009999199+03501+01901999999ADDGA1041+006711999GE19MSL   +99999+99999GF199999041999006711999999MA1101101999999REMMET051METAR SBUF 051700Z 08010KT 9999 SCT022 35/19 Q1011=
0142829860999992016030518004-09401-038251FM-15+026999999V0201201N004119999999N009999199+03501+01901999999ADDGA1041+006401999GE19MSL   +99999+99999GF199999041999006401999999MA1101101999999REMMET051METAR SBUF 051800Z 12008KT 9999 SCT021 35/19 Q1011=
0142829860999992016030519004-09401-038251FM-15+026999999V0201201N005719999999N009999199+03501+01901999999ADDGA1041+006401999GE19MSL   +99999+99999GF199999041999006401999999MA1101001999999REMMET051METAR SBUF 051900Z 12011KT 9999 SCT021 35/19 Q1010=
0142829860999992016030519454-09401-038251FM-16+026999999V0201001N004619999999N009999199+03501+01901999999ADDGA1041+006401999GE19MSL   +99999+99999GF199999041999006401999999MA1101001999999REMMET051SPECI SBUF 051945Z 10009KT 9999 SCT021 35/19 Q1010=
0142829860999992016030611154-09401-038251FM-16+026999999V0201101N003610051819N009999199+02801+02201999999ADDGA1071+005181999GE19MSL   +99999+99999GF199999071999005181999999MA1101601999999REMMET051SPECI SBUF 061115Z 11007KT 9999 BKN017 28/22 Q1016=
0142829860999992016030612004-09401-038251FM-15+026999999V0201001N005710051819N009999199+02901+02201999999ADDGA1071+005181999GE19MSL   +99999+99999GF199999071999005181999999MA1101601999999REMMET051METAR SBUF 061200Z 10011KT 9999 BKN017 29/22 Q1016=
0142829860999992016030613004-09401-038251FM-15+026999999V0201201N006210051819N009999199+03001+02101999999ADDGA1071+005181999GE19MSL   +99999+99999GF199999071999005181999999MA1101501999999REMMET051METAR SBUF 061300Z 12012KT 9999 BKN017 30/21 Q1015=
0142829860999992016030614004-09401-038251FM-15+026999999V0200901N005110061019N009999199+03201+02101999999ADDGA1071+006101999GE19MSL   +99999+99999GF199999071999006101999999MA1101501999999REMMET051METAR SBUF 061400Z 09010KT 9999 BKN020 32/21 Q1015=
0142829860999992016030615004-09401-038251FM-15+026999999V0201001N005110067119N009999199+03201+02101999999ADDGA1071+006711999GE19MSL   +99999+99999GF199999071999006711999999MA1101301999999REMMET051METAR SBUF 061500Z 10010KT 9999 BKN022 32/21 Q1013=
0142829860999992016030616004-09401-038251FM-15+026999999V0201201N005119999999N009999199+03401+02001999999ADDGA1041+006711999GE19MSL   +99999+99999GF199999041999006711999999MA1101301999999REMMET051METAR SBUF 061600Z 12010KT 9999 SCT022 34/20 Q1013=
0142829860999992016030617004-09401-038251FM-15+026999999V0201401N005119999999N009999199+03501+01901999999ADDGA1041+006711999GE19MSL   +99999+99999GF199999041999006711999999MA1101201999999REMMET051METAR SBUF 061700Z 14010KT 9999 SCT022 35/19 Q1012=
0142829860999992016030618004-09401-038251FM-15+026999999V0201001N004619999999N009999199+03501+02001999999ADDGA1021+006711999GE19MSL   +99999+99999GF199999021999006711999999MA1101101999999REMMET051METAR SBUF 061800Z 10009KT 9999 FEW022 35/20 Q1011=
0142829860999992016030619004-09401-038251FM-15+026999999V0201001N005119999999N009999199+03501+02001999999ADDGA1021+006711999GE19MSL   +99999+99999GF199999021999006711999999MA1101101999999REMMET051METAR SBUF 061900Z 10010KT 9999 FEW022 35/20 Q1011=
0142829860999992016030619454-09401-038251FM-16+026999999V0200901N005719999999N009999199+03501+01901999999ADDGA1021+006711999GE19MSL   +99999+99999GF199999021999006711999999MA1101101999999REMMET051SPECI SBUF 061945Z 09011KT 9999 FEW022 35/19 Q1011=
0142829860999992016030711154-09401-038251FM-16+026999999V0201301N003619999999N009999199+02801+02201999999ADDGA1041+005791999GE19MSL   +99999+99999GF199999041999005791999999MA1101601999999REMMET051SPECI SBUF 071115Z 13007KT 9999 SCT019 28/22 Q1016=
0142829860999992016030712004-09401-038251FM-15+026999999V0201001N004619999999N009999199+02901+99999999999ADDGA1041+005791999GE19MSL   +99999+99999GF199999041999005791999999MA1101601999999REMMET051METAR SBUF 071200Z 10009KT 9999 SCT019 29/// Q1016=
0142829860999992016030713004-09401-038251FM-15+026999999V0201101N004119999999N009999199+03101+99999999999ADDGA1041+006101999GE19MSL   +99999+99999GF199999041999006101999999MA1101601999999REMMET051METAR SBUF 071300Z 11008KT 9999 SCT020 31/// Q1016=
0142829860999992016030714004-09401-038251FM-15+026999999V0201001N004119999999N009999199+03201+99999999999ADDGA1041+006101999GE19MSL   +99999+99999GF199999041999006101999999MA1101501999999REMMET051METAR SBUF 071400Z 10008KT 9999 SCT020 32/// Q1015=
0142829860999992016030715004-09401-038251FM-15+026999999V0201301N003110061019N009999199+03301+99999999999ADDGA1071+006101999GE19MSL   +99999+99999GF199999071999006101999999MA1101401999999REMMET051METAR SBUF 071500Z 13006KT 9999 BKN020 33/// Q1014=
0142829860999992016030716004-09401-038251FM-15+026999999V0201001N002610064019N009999199+03301+99999999999ADDGA1071+006401999GE19MSL   +99999+99999GF199999071999006401999999MA1101301999999REMMET051METAR SBUF 071600Z 10005KT 9999 BKN021 33/// Q1013=
0142829860999992016030717004-09401-038251FM-15+026999999V0201101N003610064019N009999199+03501+99999999999ADDGA1071+006401999GE19MSL   +99999+99999GF199999071999006401999999MA1101101999999REMMET051METAR SBUF 071700Z 11007KT 9999 BKN021 35/// Q1011=
0142829860999992016030719004-09401-038251FM-15+026999999V0201201N002610064019N009999199+03501+99999999999ADDGA1071+006401999GE19MSL   +99999+99999GF199999071999006401999999MA1101001999999REMMET051METAR SBUF 071900Z 12005KT 9999 BKN021 35/// Q1010=
0142829860999992016030719454-09401-038251FM-16+026999999V0201301N002119999999N009999199+03501+99999999999ADDGA1041+006101999GE19MSL   +99999+99999GF199999041999006101999999MA1101001999999REMMET051SPECI SBUF 071945Z 13004KT 9999 SCT020 35/// Q1010=
0142829860999992016030811154-09401-038251FM-16+026999999V0201101N004119999999N009999199+02901+02201999999ADDGA1041+005491999GE19MSL   +99999+99999GF199999041999005491999999MA1101601999999REMMET051SPECI SBUF 081115Z 11008KT 9999 SCT018 29/22 Q1016=
0142829860999992016030812004-09401-038251FM-15+026999999V0200901N003619999999N009999199+03001+02101999999ADDGA1041+005791999GE19MSL   +99999+99999GF199999041999005791999999MA1101601999999REMMET051METAR SBUF 081200Z 09007KT 9999 SCT019 30/21 Q1016=
0142829860999992016030813004-09401-038251FM-15+026999999V0201001N004110061019N009999199+03201+02001999999ADDGA1071+006101999GE19MSL   +99999+99999GF199999071999006101999999MA1101501999999REMMET051METAR SBUF 081300Z 10008KT 9999 BKN020 32/20 Q1015=
0142829860999992016030814004-09401-038251FM-15+026999999V0201201N003619999999N009999199+03301+02001999999ADDGA1041+006101999GE19MSL   +99999+99999GF199999041999006101999999MA1101501999999REMMET051METAR SBUF 081400Z 12007KT 9999 SCT020 33/20 Q1015=
0142829860999992016030815004-09401-038251FM-15+026999999V0201701N003619999999N009999199+03301+02001999999ADDGA1041+006101999GE19MSL   +99999+99999GF199999041999006101999999MA1101301999999REMMET051METAR SBUF 081500Z 17007KT 9999 SCT020 33/20 Q1013=
0142829860999992016030816004-09401-038251FM-15+026999999V0201301N003119999999N009999199+03501+01801999999ADDGA1041+006101999GE19MSL   +99999+99999GF199999041999006101999999MA1101201999999REMMET051METAR SBUF 081600Z 13006KT 9999 SCT020 35/18 Q1012=
0142829860999992016030817004-09401-038251FM-15+026999999V0201201N003110061019N009999199+03601+01901999999ADDGA1071+006101999GE19MSL   +99999+99999GF199999071999006101999999MA1101101999999REMMET051METAR SBUF 081700Z 12006KT 9999 BKN020 36/19 Q1011=
0142829860999992016030818004-09401-038251FM-15+026999999V0201301N002619999999N009999199+03601+01801999999ADDGA1041+007011999GE19MSL   +99999+99999GF199999041999007011999999MA1101001999999REMMET051METAR SBUF 081800Z 13005KT 9999 SCT023 36/18 Q1010=
0142829860999992016030819004-09401-038251FM-15+026999999V0200901N003119999999N009999199+03601+01901999999ADDGA1041+007011999GE19MSL   +99999+99999GF199999041999007011999999MA1101001999999REMMET051METAR SBUF 081900Z 09006KT 9999 SCT023 36/19 Q1010=
0142829860999992016030819454-09401-038251FM-16+026999999V0200901N003119999999N009999199+03501+01801999999ADDGA1041+007011999GE19MSL   +99999+99999GF199999041999007011999999MA1100901999999REMMET051SPECI SBUF 081945Z 09006KT 9999 SCT023 35/18 Q1009=
0142829860999992016030911154-09401-038251FM-16+026999999V0201101N005110051819N009999199+02901+02201999999ADDGA1071+005181999GE19MSL   +99999+99999GF199999071999005181999999MA1101501999999REMMET051SPECI SBUF 091115Z 11010KT 9999 BKN017 29/22 Q1015=
0142829860999992016030912004-09401-038251FM-15+026999999V0201301N004610051819N009999199+02901+02101999999ADDGA1071+005181999GE19MSL   +99999+99999GF199999071999005181999999MA1101501999999REMMET051METAR SBUF 091200Z 13009KT 9999 BKN017 29/21 Q1015=
0142829860999992016030913004-09401-038251FM-15+026999999V0201301N005110057919N009999199+03101+02101999999ADDGA1071+005791999GE19MSL   +99999+99999GF199999071999005791999999MA1101501999999REMMET051METAR SBUF 091300Z 13010KT 9999 BKN019 31/21 Q1015=
0142829860999992016030914004-09401-038251FM-15+026999999V0201301N003610061019N009999199+03301+02001999999ADDGA1071+006101999GE19MSL   +99999+99999GF199999071999006101999999MA1101501999999REMMET051METAR SBUF 091400Z 13007KT 9999 BKN020 33/20 Q1015=
0142829860999992016030915004-09401-038251FM-15+026999999V0201101N003110064019N009999199+03401+02001999999ADDGA1071+006401999GE19MSL   +99999+99999GF199999071999006401999999MA1101301999999REMMET051METAR SBUF 091500Z 11006KT 9999 BKN021 34/20 Q1013=
0142829860999992016030916004-09401-038251FM-15+026999999V0201201N004119999999N009999199+03401+01901999999ADDGA1041+006401999GE19MSL   +99999+99999GF199999041999006401999999MA1101201999999REMMET051METAR SBUF 091600Z 12008KT 9999 SCT021 34/19 Q1012=
0142829860999992016030917004-09401-038251FM-15+026999999V0200901N002619999999N009999199+03601+01901999999ADDGA1041+006711999GE19MSL   +99999+99999GF199999041999006711999999MA1101001999999REMMET051METAR SBUF 091700Z 09005KT 9999 SCT022 36/19 Q1010=
0142829860999992016030918004-09401-038251FM-15+026999999V0201001N003619999999N009999199+03601+01901999999ADDGA1041+006711999GE19MSL   +99999+99999GF199999041999006711999999MA1101001999999REMMET051METAR SBUF 091800Z 10007KT 9999 SCT022 36/19 Q1010=
0142829860999992016030919004-09401-038251FM-15+026999999V0200901N002119999999N009999199+03501+01801999999ADDGA1041+006711999GE19MSL   +99999+99999GF199999041999006711999999MA1100901999999REMMET051METAR SBUF 091900Z 09004KT 9999 SCT022 35/18 Q1009=
0142829860999992016030919454-09401-038251FM-16+026999999V0201201N002119999999N009999199+03501+01801999999ADDGA1041+006711999GE19MSL   +99999+99999GF199999041999006711999999MA1100901999999REMMET051SPECI SBUF 091945Z 12004KT 9999 SCT022 35/18 Q1009=
0142829860999992016030920454-09401-038251FM-16+026999999V0201401N002619999999N009999199+03401+01901999999ADDGA1041+006401999GE19MSL   +99999+99999GF199999041999006401999999MA1101001999999REMMET051SPECI SBUF 092045Z 14005KT 9999 SCT021 34/19 Q1010=
0142829860999992016031011154-09401-038251FM-16+026999999V0201201N004119999999N009999199+02801+02201999999ADDGA1041+005181999GE19MSL   +99999+99999GF199999041999005181999999MA1101501999999REMMET051SPECI SBUF 101115Z 12008KT 9999 SCT017 28/22 Q1015=
0142829860999992016031012004-09401-038251FM-15+026999999V0201001N004119999999N009999199+03001+02101999999ADDGA1041+005181999GE19MSL   +99999+99999GF199999041999005181999999MA1101501999999REMMET051METAR SBUF 101200Z 10008KT 9999 SCT017 30/21 Q1015=
0142829860999992016031013004-09401-038251FM-15+026999999V0201001N004619999999N009999199+03101+02001999999ADDGA1041+005491999GE19MSL   +99999+99999GF199999041999005491999999MA1101501999999REMMET051METAR SBUF 101300Z 10009KT 9999 SCT018 31/20 Q1015=
0142829860999992016031014004-09401-038251FM-15+026999999V0201101N004119999999N009999199+03301+02001999999ADDGA1041+006101999GE19MSL   +99999+99999GF199999041999006101999999MA1101501999999REMMET051METAR SBUF 101400Z 11008KT 9999 SCT020 33/20 Q1015=
0142829860999992016031015004-09401-038251FM-15+026999999V0201001N003119999999N009999199+03401+01901999999ADDGA1041+006401999GE19MSL   +99999+99999GF199999041999006401999999MA1101301999999REMMET051METAR SBUF 101500Z 10006KT 9999 SCT021 34/19 Q1013=
0142829860999992016031016004-09401-038251FM-15+026999999V0200901N003119999999N009999199+03501+01901999999ADDGA1041+006711999GE19MSL   +99999+99999GF199999041999006711999999MA1101201999999REMMET051METAR SBUF 101600Z 09006KT 9999 SCT022 35/19 Q1012=
0142829860999992016031017004-09401-038251FM-15+026999999V0200901N002619999999N009999199+03601+01701999999ADDGA1041+006711999GE19MSL   +99999+99999GF199999041999006711999999MA1101101999999REMMET051METAR SBUF 101700Z 09005KT 9999 SCT022 36/17 Q1011=
0142829860999992016031018004-09401-038251FM-15+026999999V0200901N002119999999N009999199+03601+01701999999ADDGA1041+006711999GE19MSL   +99999+99999GF199999041999006711999999MA1101001999999REMMET051METAR SBUF 101800Z 09004KT 9999 SCT022 36/17 Q1010=
0142829860999992016031019004-09401-038251FM-15+026999999V0201201N004119999999N009999199+03601+01601999999ADDGA1041+006711999GE19MSL   +99999+99999GF199999041999006711999999MA1101001999999REMMET051METAR SBUF 101900Z 12008KT 9999 SCT022 36/16 Q1010=
0142829860999992016031019454-09401-038251FM-16+026999999V0201301N004119999999N009999199+03501+01701999999ADDGA1041+006711999GE19MSL   +99999+99999GF199999041999006711999999MA1101001999999REMMET051SPECI SBUF 101945Z 13008KT 9999 SCT022 35/17 Q1010=
0142829860999992016031111154-09401-038251FM-16+026999999V0201101N003110054919N009999199+02701+02201999999ADDGA1071+005491999GE19MSL   +99999+99999GF199999071999005491999999MA1101601999999REMMET051SPECI SBUF 111115Z 11006KT 9999 BKN018 27/22 Q1016=
0142829860999992016031112004-09401-038251FM-15+026999999V0201401N002110054919N009999199+02801+02201999999ADDGA1071+005491999GE19MSL   +99999+99999GF199999071999005491999999MA1101601999999REMMET051METAR SBUF 111200Z 14004KT 9999 BKN018 28/22 Q1016=
0142829860999992016031114004-09401-038251FM-15+026999999V0201401N002619999999N009999199+03201+02001999999ADDGA1041+006401999GE19MSL   +99999+99999GF199999041999006401999999MA1101501999999REMMET051METAR SBUF 111400Z 14005KT 9999 SCT021 32/20 Q1015=
0142829860999992016031115004-09401-038251FM-15+026999999V0201801N003110061019N009999199+03401+01901999999ADDGA1071+006101999GE19MSL   +99999+99999GF199999071999006101999999MA1101401999999REMMET051METAR SBUF 111500Z 18006KT 9999 BKN020 34/19 Q1014=
0142829860999992016031116004-09401-038251FM-15+026999999V0201301N003110061019N009999199+03501+01901999999ADDGA1071+006101999GE19MSL   +99999+99999GF199999071999006101999999MA1101301999999REMMET051METAR SBUF 111600Z 13006KT 9999 BKN020 35/19 Q1013=
0142829860999992016031117004-09401-038251FM-15+026999999V0201201N003619999999N009999199+03601+01801999999ADDGA1041+006711999GE19MSL   +99999+99999GF199999041999006711999999MA1101201999999REMMET051METAR SBUF 111700Z 12007KT 9999 SCT022 36/18 Q1012=
0142829860999992016031118004-09401-038251FM-15+026999999V0201501N002119999999N009999199+03601+01701999999ADDGA1041+006711999GE19MSL   +99999+99999GF199999041999006711999999MA1101101999999REMMET051METAR SBUF 111800Z 15004KT 9999 SCT022 36/17 Q1011=
0142829860999992016031119004-09401-038251FM-15+026999999V0201401N002619999999N009999199+03601+01701999999ADDGA1041+006711999GE19MSL   +99999+99999GF199999041999006711999999MA1101101999999REMMET051METAR SBUF 111900Z 14005KT 9999 SCT022 36/17 Q1011=
0142829860999992016031119454-09401-038251FM-16+026999999V0201201N003619999999N009999199+03501+01701999999ADDGA1041+006711999GE19MSL   +99999+99999GF199999041999006711999999MA1101001999999REMMET051SPECI SBUF 111945Z 12007KT 9999 SCT022 35/17 Q1010=
0142829860999992016031211154-09401-038251FM-16+026999999V0201501N001519999999N009999199+02801+02301999999ADDGA1041+005491999GE19MSL   +99999+99999GF199999041999005491999999MA1101701999999REMMET051SPECI SBUF 121115Z 15003KT 9999 SCT018 28/23 Q1017=
0142829860999992016031212004-09401-038251FM-15+026999999V0200701N001019999999N009999199+02901+02301999999ADDGA1041+005491999GE19MSL   +99999+99999GF199999041999005491999999MA1101701999999REMMET051METAR SBUF 121200Z 07002KT 9999 SCT018 29/23 Q1017=
0142829860999992016031213004-09401-038251FM-15+026999999V0200301N001519999999N009999199+03201+02201999999ADDGA1041+006101999GE19MSL   +99999+99999GF199999041999006101999999MA1101601999999REMMET051METAR SBUF 121300Z 03003KT 9999 SCT020 32/22 Q1016=
0142829860999992016031214004-09401-038251FM-15+026999999V0201801N002619999999N009999199+03301+02101999999ADDGA1041+006101999GE19MSL   +99999+99999GF199999041999006101999999MA1101501999999REMMET051METAR SBUF 121400Z 18005KT 9999 SCT020 33/21 Q1015=
0142829860999992016031216004-09401-038251FM-15+026999999V0201701N003119999999N009999199+03501+01901999999ADDGA1041+006401999GE19MSL   +99999+99999GF199999041999006401999999MA1101401999999REMMET051METAR SBUF 121600Z 17006KT 9999 SCT021 35/19 Q1014=
0142829860999992016031217004-09401-038251FM-15+026999999V0201301N003619999999N009999199+03601+01801999999ADDGA1041+007011999GE19MSL   +99999+99999GF199999041999007011999999MA1101201999999REMMET051METAR SBUF 121700Z 13007KT 9999 SCT023 36/18 Q1012=
0142829860999992016031218004-09401-038251FM-15+026999999V0201401N003619999999N009999199+03601+01701999999ADDGA1041+007011999GE19MSL   +99999+99999GF199999041999007011999999MA1101101999999REMMET051METAR SBUF 121800Z 14007KT 9999 SCT023 36/17 Q1011=
0142829860999992016031219004-09401-038251FM-15+026999999V0201201N003119999999N009999199+03601+01601999999ADDGA1041+007011999GE19MSL   +99999+99999GF199999041999007011999999MA1101101999999REMMET051METAR SBUF 121900Z 12006KT 9999 SCT023 36/16 Q1011=
0142829860999992016031219454-09401-038251FM-16+026999999V0201301N003619999999N009999199+03601+01701999999ADDGA1021+006711999GE19MSL   +99999+99999GF199999021999006711999999MA1101101999999REMMET051SPECI SBUF 121945Z 13007KT 9999 FEW022 36/17 Q1011=
0142829860999992016031311154-09401-038251FM-16+026999999V0201101N004619999999N009999199+02901+02201999999ADDGA1041+005181999GE19MSL   +99999+99999GF199999041999005181999999MA1101601999999REMMET051SPECI SBUF 131115Z 11009KT 9999 SCT017 29/22 Q1016=
0142829860999992016031312004-09401-038251FM-15+026999999V0201101N005119999999N009999199+03001+02101999999ADDGA1041+005491999GE19MSL   +99999+99999GF199999041999005491999999MA1101701999999REMMET051METAR SBUF 131200Z 11010KT 9999 SCT018 30/21 Q1017=
0142829860999992016031313004-09401-038251FM-15+026999999V0201101N005719999999N009999199+03001+02001999999ADDGA1041+005491999GE19MSL   +99999+99999GF199999041999005491999999MA1101601999999REMMET051METAR SBUF 131300Z 11011KT 9999 SCT018 30/20 Q1016=
0142829860999992016031314004-09401-038251FM-15+026999999V0200901N004619999999N009999199+03301+01901999999ADDGA1041+006101999GE19MSL   +99999+99999GF199999041999006101999999MA1101601999999REMMET051METAR SBUF 131400Z 09009KT 9999 SCT020 33/19 Q1016=
0142829860999992016031316004-09401-038251FM-15+026999999V0201101N004619999999N009999199+03501+01701999999ADDGA1041+006711999GE19MSL   +99999+99999GF199999041999006711999999MA1101301999999REMMET051METAR SBUF 131600Z 11009KT 9999 SCT022 35/17 Q1013=
0142829860999992016031317004-09401-038251FM-15+026999999V0201101N004619999999N009999199+03601+01701999999ADDGA1041+006711999GE19MSL   +99999+99999GF199999041999006711999999MA1101201999999REMMET051METAR SBUF 131700Z 11009KT 9999 SCT022 36/17 Q1012=
0142829860999992016031318004-09401-038251FM-15+026999999V0201201N005119999999N009999199+03701+01501999999ADDGA1041+006711999GE19MSL   +99999+99999GF199999041999006711999999MA1101201999999REMMET051METAR SBUF 131800Z 12010KT 9999 SCT022 37/15 Q1012=
0142829860999992016031319004-09401-038251FM-15+026999999V0201101N005119999999N009999199+03501+01601999999ADDGA1041+006711999GE19MSL   +99999+99999GF199999041999006711999999MA1101101999999REMMET051METAR SBUF 131900Z 11010KT 9999 SCT022 35/16 Q1011=
0142829860999992016031320004-09401-038251FM-15+026999999V0201201N006219999999N009999199+03401+01801999999ADDGA1041+006711999GE19MSL   +99999+99999GF199999041999006711999999MA1101101999999REMMET051METAR SBUF 132000Z 12012KT 9999 SCT022 34/18 Q1011=
0142829860999992016031321004-09401-038251FM-15+026999999V0201001N006719999999N009999199+03301+01801999999ADDGA1041+006101999GE19MSL   +99999+99999GF199999041999006101999999MA1101201999999REMMET051METAR SBUF 132100Z 10013KT 9999 SCT020 33/18 Q1012=
0142829860999992016031321454-09401-038251FM-16+026999999V0201201N007719999999N009999199+03201+01701999999ADDGA1041+006101999GE19MSL   +99999+99999GF199999041999006101999999MA1101301999999REMMET051SPECI SBUF 132145Z 12015KT 9999 SCT020 32/17 Q1013=
0142829860999992016031411154-09401-038251FM-16+026999999V0201001N005710048819N009999199+02901+02201999999ADDGA1071+004881999GE19MSL   +99999+99999GF199999071999004881999999MA1101701999999REMMET051SPECI SBUF 141115Z 10011KT 9999 BKN016 29/22 Q1017=
0142829860999992016031412004-09401-038251FM-15+026999999V0201101N006210054919N009999199+02901+02101999999ADDGA1071+005491999GE19MSL   +99999+99999GF199999071999005491999999MA1101701999999REMMET051METAR SBUF 141200Z 11012KT 9999 BKN018 29/21 Q1017=
0142829860999992016031413004-09401-038251FM-15+026999999V0201101N005710057919N009999199+03101+02001999999ADDGA1071+005791999GE19MSL   +99999+99999GF199999071999005791999999MA1101601999999REMMET051METAR SBUF 141300Z 11011KT 9999 BKN019 31/20 Q1016=
0142829860999992016031414004-09401-038251FM-15+026999999V0201001N005110061019N009999199+03301+02001999999ADDGA1071+006101999GE19MSL   +99999+99999GF199999071999006101999999MA1101601999999REMMET051METAR SBUF 141400Z 10010KT 9999 BKN020 33/20 Q1016=
0165829860999992016031415004-09401-038251FM-15+026999999V0201301N00981021341CN009999199+03201+02001999999ADDGA1041+006101999GA2041+021341999GE19MSL   +99999+99999GF199999041999006101999999MA1101501999999REMMET058METAR SBUF 141500Z 13019KT 9999 SCT020 SCT070 32/20 Q1015=
0165829860999992016031416004-09401-038251FM-15+026999999V0201301N006210213419N009999199+03201+02001999999ADDGA1041+006101999GA2071+021341999GE19MSL   +99999+99999GF199999041999006101999999MA1101401999999REMMET058METAR SBUF 141600Z 13012KT 9999 SCT020 BKN070 32/20 Q1014=
0142829860999992016031417004-09401-038251FM-15+026999999V0201301N006710061019N009999199+03201+02001999999ADDGA1071+006101999GE19MSL   +99999+99999GF199999071999006101999999MA1101401999999REMMET051METAR SBUF 141700Z 13013KT 9999 BKN020 32/20 Q1014=
0142829860999992016031418004-09401-038251FM-15+026999999V0201301N005110061019N009999199+03101+02001999999ADDGA1071+006101999GE19MSL   +99999+99999GF199999071999006101999999MA1101301999999REMMET051METAR SBUF 141800Z 13010KT 9999 BKN020 31/20 Q1013=
0142829860999992016031419004-09401-038251FM-15+026999999V0201201N005710061019N009999199+03101+01901999999ADDGA1071+006101999GE19MSL   +99999+99999GF199999071999006101999999MA1101301999999REMMET051METAR SBUF 141900Z 12011KT 9999 BKN020 31/19 Q1013=
0142829860999992016031419454-09401-038251FM-16+026999999V0201301N005710061019N009999199+03001+02001999999ADDGA1071+006101999GE19MSL   +99999+99999GF199999071999006101999999MA1101301999999REMMET051SPECI SBUF 141945Z 13011KT 9999 BKN020 30/20 Q1013=
0142829860999992016031511154-09401-038251FM-15+026999999V0201001N005119999999N009999199+02901+02101999999ADDGA1041+005181999GE19MSL   +99999+99999GF199999041999005181999999MA1101701999999REMMET051METAR SBUF 151115Z 10010KT 9999 SCT017 29/21 Q1017=
0142829860999992016031512004-09401-038251FM-15+026999999V0200701N005119999999N009999199+02901+02001999999ADDGA1041+005491999GE19MSL   +99999+99999GF199999041999005491999999MA1101701999999REMMET051METAR SBUF 151200Z 07010KT 9999 SCT018 29/20 Q1017=
0142829860999992016031513004-09401-038251FM-15+026999999V0201401N008819999999N009999199+03001+01901999999ADDGA1041+005791999GE19MSL   +99999+99999GF199999041999005791999999MA1101601999999REMMET051METAR SBUF 151300Z 14017KT 9999 SCT019 30/19 Q1016=
0142829860999992016031514004-09401-038251FM-15+026999999V0201101N004119999999N009999199+03301+01901999999ADDGA1041+006101999GE19MSL   +99999+99999GF199999041999006101999999MA1101601999999REMMET051METAR SBUF 151400Z 11008KT 9999 SCT020 33/19 Q1016=
0142829860999992016031515004-09401-038251FM-15+026999999V0201401N003619999999N009999199+03301+01701999999ADDGA1041+006401999GE19MSL   +99999+99999GF199999041999006401999999MA1101501999999REMMET051METAR SBUF 151500Z 14007KT 9999 SCT021 33/17 Q1015=
0142829860999992016031516004-09401-038251FM-15+026999999V0201201N004110064019N009999199+03501+01801999999ADDGA1071+006401999GE19MSL   +99999+99999GF199999071999006401999999MA1101401999999REMMET051METAR SBUF 151600Z 12008KT 9999 BKN021 35/18 Q1014=
0142829860999992016031517004-09401-038251FM-15+026999999V0201101N003610067119N009999199+03601+01801999999ADDGA1071+006711999GE19MSL   +99999+99999GF199999071999006711999999MA1101301999999REMMET051METAR SBUF 151700Z 11007KT 9999 BKN022 36/18 Q1013=
0142829860999992016031518004-09401-038251FM-15+026999999V0201101N004610067119N009999199+03401+01701999999ADDGA1071+006711999GE19MSL   +99999+99999GF199999071999006711999999MA1101201999999REMMET051METAR SBUF 151800Z 11009KT 9999 BKN022 34/17 Q1012=
0142829860999992016031519004-09401-038251FM-15+026999999V0201201N004119999999N009999199+03501+01701999999ADDGA1041+006711999GE19MSL   +99999+99999GF199999041999006711999999MA1101201999999REMMET051METAR SBUF 151900Z 12008KT 9999 SCT022 35/17 Q1012=
0142829860999992016031519454-09401-038251FM-16+026999999V0201401N005719999999N009999199+03401+01701999999ADDGA1041+006711999GE19MSL   +99999+99999GF199999041999006711999999MA1101201999999REMMET051SPECI SBUF 151945Z 14011KT 9999 SCT022 34/17 Q1012=
0142829860999992016031611154-09401-038251FM-16+026999999V0201101N005110051819N009999199+02801+02101999999ADDGA1071+005181999GE19MSL   +99999+99999GF199999071999005181999999MA1101801999999REMMET051SPECI SBUF 161115Z 11010KT 9999 BKN017 28/21 Q1018=
0142829860999992016031612004-09401-038251FM-15+026999999V0201001N004619999999N009999199+03001+02101999999ADDGA1041+005491999GE19MSL   +99999+99999GF199999041999005491999999MA1101801999999REMMET051METAR SBUF 161200Z 10009KT 9999 SCT018 30/21 Q1018=
0142829860999992016031614004-09401-038251FM-15+026999999V0201001N005119999999N009999199+03301+01801999999ADDGA1041+006101999GE19MSL   +99999+99999GF199999041999006101999999MA1101701999999REMMET051METAR SBUF 161400Z 10010KT 9999 SCT020 33/18 Q1017=
0142829860999992016031615004-09401-038251FM-15+026999999V0201101N005119999999N009999199+03401+01801999999ADDGA1041+006711999GE19MSL   +99999+99999GF199999041999006711999999MA1101601999999REMMET051METAR SBUF 161500Z 11010KT 9999 SCT022 34/18 Q1016=
0142829860999992016031616004-09401-038251FM-15+026999999V0201101N003619999999N009999199+03501+01701999999ADDGA1041+006711999GE19MSL   +99999+99999GF199999041999006711999999MA1101401999999REMMET051METAR SBUF 161600Z 11007KT 9999 SCT022 35/17 Q1014=
0142829860999992016031617004-09401-038251FM-15+026999999V0201101N004110067119N009999199+03601+01701999999ADDGA1071+006711999GE19MSL   +99999+99999GF199999071999006711999999MA1101701999999REMMET051METAR SBUF 161700Z 11008KT 9999 BKN022 36/17 Q1017=
0165829860999992016031618004-09401-038251FM-15+026999999V0201201N00361021341CN009999199+03501+01801999999ADDGA1041+006101999GA2041+021341999GE19MSL   +99999+99999GF199999041999006101999999MA1101302999999REMMET058METAR SBUF 161800Z 12007KT 9999 SCT020 SCT070 35/18 Q1013=
0165829860999992016031619004-09401-038251FM-15+026999999V0201001N003110213419N009999199+03401+01701999999ADDGA1041+006101999GA2071+021341999GE19MSL   +99999+99999GF199999041999006101999999MA1101301999999REMMET058METAR SBUF 161900Z 10006KT 9999 SCT020 BKN070 34/17 Q1013=
0165829860999992016031620004-09401-038251FM-15+026999999V0201201N005110213419N009999199+03401+01701999999ADDGA1041+006101999GA2071+021341999GE19MSL   +99999+99999GF199999041999006101999999MA1101301999999REMMET058METAR SBUF 162000Z 12010KT 9999 SCT020 BKN070 34/17 Q1013=
0165829860999992016031621004-09401-038251FM-15+026999999V0201401N00571021341CN009999199+03201+01901999999ADDGA1021+006101999GA2041+021341999GE19MSL   +99999+99999GF199999021999006101999999MA1101301999999REMMET058METAR SBUF 162100Z 14011KT 9999 FEW020 SCT070 32/19 Q1013=
0165829860999992016031622004-09401-038251FM-15+026999999V0201301N00511021341CN009999199+03101+01901999999ADDGA1021+006101999GA2041+021341999GE19MSL   +99999+99999GF199999021999006101999999MA1101401999999REMMET058METAR SBUF 162200Z 13010KT 9999 FEW020 SCT070 31/19 Q1014=
0165829860999992016031622154-09401-038251FM-16+026999999V0201301N00511021341CN009999199+03101+01901999999ADDGA1021+006101999GA2041+021341999GE19MSL   +99999+99999GF199999021999006101999999MA1101401999999REMMET058SPECI SBUF 162215Z 13010KT 9999 FEW020 SCT070 31/19 Q1014=
0142829860999992016031711154-09401-038251FM-16+026999999V0200901N004619999999N009999199+02901+02201999999ADDGA1041+005491999GE19MSL   +99999+99999GF199999041999005491999999MA1101701999999REMMET051SPECI SBUF 171115Z 09009KT 9999 SCT018 29/22 Q1017=
0142829860999992016031712004-09401-038251FM-15+026999999V0201101N004610054919N009999199+03001+02201999999ADDGA1071+005491999GE19MSL   +99999+99999GF199999071999005491999999MA1101701999999REMMET051METAR SBUF 171200Z 11009KT 9999 BKN018 30/22 Q1017=
0142829860999992016031713004-09401-038251FM-15+026999999V0201101N004110061019N009999199+03201+02101999999ADDGA1071+006101999GE19MSL   +99999+99999GF199999071999006101999999MA1101701999999REMMET051METAR SBUF 171300Z 11008KT 9999 BKN020 32/21 Q1017=
0142829860999992016031714004-09401-038251FM-15+026999999V0201201N005110061019N009999199+03201+02101999999ADDGA1071+006101999GE19MSL   +99999+99999GF199999071999006101999999MA1101601999999REMMET051METAR SBUF 171400Z 12010KT 9999 BKN020 32/21 Q1016=
0165829860999992016031715004-09401-038251FM-15+026999999V0201201N004110213419N009999199+03401+02001999999ADDGA1041+006101999GA2071+021341999GE19MSL   +99999+99999GF199999041999006101999999MA1101501999999REMMET058METAR SBUF 171500Z 12008KT 9999 SCT020 BKN070 34/20 Q1015=
0165829860999992016031716004-09401-038251FM-15+026999999V0201001N00461021341CN009999199+03501+02001999999ADDGA1041+006101999GA2041+021341999GE19MSL   +99999+99999GF199999041999006101999999MA1101401999999REMMET058METAR SBUF 171600Z 10009KT 9999 SCT020 SCT070 35/20 Q1014=
0142829860999992016031717004-09401-038251FM-15+026999999V0201101N004119999999N009999199+03501+01901999999ADDGA1041+006101999GE19MSL   +99999+99999GF199999041999006101999999MA1101301999999REMMET051METAR SBUF 171700Z 11008KT 9999 SCT020 35/19 Q1013=
0165829860999992016031719004-09401-038251FM-15+026999999V0201001N00511021341CN009999199+03401+01901999999ADDGA1041+006101999GA2041+021341999GE19MSL   +99999+99999GF199999041999006101999999MA1101201999999REMMET058METAR SBUF 171900Z 10010KT 9999 SCT020 SCT070 34/19 Q1012=
0165829860999992016031719454-09401-038251FM-16+026999999V0201201N00721021341CN009999199+03301+02101999999ADDGA1041+006101999GA2041+021341999GE19MSL   +99999+99999GF199999041999006101999999MA1101201999999REMMET058SPECI SBUF 171945Z 12014KT 9999 SCT020 SCT070 33/21 Q1012=
0165829860999992016031811154-09401-038251FM-16+026999999V0201301N00361021341CN009999199+02901+02201999999ADDGA1041+006101999GA2041+021341999GE19MSL   +99999+99999GF199999041999006101999999MA1101701999999REMMET058SPECI SBUF 181115Z 13007KT 9999 SCT020 SCT070 29/22 Q1017=
0165829860999992016031812004-09401-038251FM-15+026999999V0201201N00461021341CN009999199+03101+02101999999ADDGA1041+006101999GA2041+021341999GE19MSL   +99999+99999GF199999041999006101999999MA1101701999999REMMET058METAR SBUF 181200Z 12009KT 9999 SCT020 SCT070 31/21 Q1017=
0165829860999992016031813004-09401-038251FM-15+026999999V0201001N004610213419N009999199+03101+02101999999ADDGA1021+006101999GA2071+021341999GE19MSL   +99999+99999GF199999021999006101999999MA1101601999999REMMET058METAR SBUF 181300Z 10009KT 9999 FEW020 BKN070 31/21 Q1016=
0165829860999992016031814004-09401-038251FM-15+026999999V0200901N005710213419N009999199+03301+02101999999ADDGA1041+006101999GA2071+021341999GE19MSL   +99999+99999GF199999041999006101999999MA1101501999999REMMET058METAR SBUF 181400Z 09011KT 9999 SCT020 BKN070 33/21 Q1015=
0142829860999992016031815004-09401-038251FM-15+026999999V0201101N004119999999N009999199+03401+02101999999ADDGA1041+006101999GE19MSL   +99999+99999GF199999041999006101999999MA1101401999999REMMET051METAR SBUF 181500Z 11008KT 9999 SCT020 34/21 Q1014=
0165829860999992016031816004-09401-038251FM-15+026999999V0201101N00411024381CN009999199+03501+02001999999ADDGA1041+006401999GA2041+024381999GE19MSL   +99999+99999GF199999041999006401999999MA1101401999999REMMET058METAR SBUF 181600Z 11008KT 9999 SCT021 SCT080 35/20 Q1014=
0165829860999992016031817004-09401-038251FM-15+026999999V0201401N004610243819N009999199+03501+02001999999ADDGA1041+006401999GA2071+024381999GE19MSL   +99999+99999GF199999041999006401999999MA1101201999999REMMET058METAR SBUF 181700Z 14009KT 9999 SCT021 BKN080 35/20 Q1012=
0142829860999992016031818004-09401-038251FM-15+026999999V0201301N004110067119N009999199+03501+02001999999ADDGA1071+006711999GE19MSL   +99999+99999GF199999071999006711999999MA1101201999999REMMET051METAR SBUF 181800Z 13008KT 9999 BKN022 35/20 Q1012=
0142829860999992016031819004-09401-038251FM-15+026999999V0201201N005110067119N009999199+03401+02001999999ADDGA1071+006711999GE19MSL   +99999+99999GF199999071999006711999999MA1101201999999REMMET051METAR SBUF 181900Z 12010KT 9999 BKN022 34/20 Q1012=
0142829860999992016031819454-09401-038251FM-16+026999999V0201201N005710067119N009999199+03201+02101999999ADDGA1071+006711999GE19MSL   +99999+99999GF199999071999006711999999MA1101201999999REMMET051SPECI SBUF 181945Z 12011KT 9999 BKN022 32/21 Q1012=
0165829860999992016031911154-09401-038251FM-16+026999999V0201301N004610243819N009999199+02901+02201999999ADDGA1021+005491999GA2071+024381999GE19MSL   +99999+99999GF199999021999005491999999MA1101701999999REMMET058SPECI SBUF 191115Z 13009KT 9999 FEW018 BKN080 29/22 Q1017=
0165829860999992016031912004-09401-038251FM-15+026999999V0201001N004610243819N009999199+03101+02001999999ADDGA1021+006101999GA2071+024381999GE19MSL   +99999+99999GF199999021999006101999999MA1101701999999REMMET058METAR SBUF 191200Z 10009KT 9999 FEW020 BKN080 31/20 Q1017=
0142829860999992016031913004-09401-038251FM-15+026999999V0200901N004619999999N009999199+03201+02101999999ADDGA1021+006401999GE19MSL   +99999+99999GF199999021999006401999999MA1101601999999REMMET051METAR SBUF 191300Z 09009KT 9999 FEW021 32/21 Q1016=
0142829860999992016031914004-09401-038251FM-15+026999999V0201101N003619999999N009999199+03301+02101999999ADDGA1021+006711999GE19MSL   +99999+99999GF199999021999006711999999MA1101501999999REMMET051METAR SBUF 191400Z 11007KT 9999 FEW022 33/21 Q1015=
0142829860999992016031915004-09401-038251FM-15+026999999V0201101N003619999999N009999199+03401+02001999999ADDGA1021+007011999GE19MSL   +99999+99999GF199999021999007011999999MA1101401999999REMMET051METAR SBUF 191500Z 11007KT 9999 FEW023 34/20 Q1014=
0142829860999992016031916004-09401-038251FM-15+026999999V0201001N004119999999N009999199+03601+01901999999ADDGA1041+007011999GE19MSL   +99999+99999GF199999041999007011999999MA1101201999999REMMET051METAR SBUF 191600Z 10008KT 9999 SCT023 36/19 Q1012=
0142829860999992016031917004-09401-038251FM-15+026999999V0201201N003610070119N009999199+03601+01901999999ADDGA1071+007011999GE19MSL   +99999+99999GF199999071999007011999999MA1101101999999REMMET051METAR SBUF 191700Z 12007KT 9999 BKN023 36/19 Q1011=
0142829860999992016031918004-09401-038251FM-15+026999999V0201301N003610070119N009999199+03701+01901999999ADDGA1071+007011999GE19MSL   +99999+99999GF199999071999007011999999MA1101101999999REMMET051METAR SBUF 191800Z 13007KT 9999 BKN023 37/19 Q1011=
0142829860999992016031919004-09401-038251FM-15+026999999V0201101N004110067119N009999199+03601+01901999999ADDGA1071+006711999GE19MSL   +99999+99999GF199999071999006711999999MA1101101999999REMMET051METAR SBUF 191900Z 11008KT 9999 BKN022 36/19 Q1011=
0142829860999992016031919454-09401-038251FM-16+026999999V0201001N005110067119N009999199+03501+01901999999ADDGA1071+006711999GE19MSL   +99999+99999GF199999071999006711999999MA1101101999999REMMET051SPECI SBUF 191945Z 10010KT 9999 BKN022 35/19 Q1011=
0142829860999992016032011154-09401-038251FM-16+026999999V0201201N004619999999N009999199+02901+02101999999ADDGA1021+005181999GE19MSL   +99999+99999GF199999021999005181999999MA1101601999999REMMET051SPECI SBUF 201115Z 12009KT 9999 FEW017 29/21 Q1016=
0142829860999992016032012004-09401-038251FM-15+026999999V0201101N005119999999N009999199+03101+02101999999ADDGA1021+005491999GE19MSL   +99999+99999GF199999021999005491999999MA1101601999999REMMET051METAR SBUF 201200Z 11010KT 9999 FEW018 31/21 Q1016=
0142829860999992016032014004-09401-038251FM-15+026999999V0200801N002619999999N009999199+03201+02101999999ADDGA1021+006101999GE19MSL   +99999+99999GF199999021999006101999999MA1101501999999REMMET051METAR SBUF 201400Z 08005KT 9999 FEW020 32/21 Q1015=
0142829860999992016032015004-09401-038251FM-15+026999999V0201201N002619999999N009999199+03301+02001999999ADDGA1041+006401999GE19MSL   +99999+99999GF199999041999006401999999MA1101401999999REMMET051METAR SBUF 201500Z 12005KT 9999 SCT021 33/20 Q1014=
0142829860999992016032016004-09401-038251FM-15+026999999V0201501N003619999999N009999199+03501+02001999999ADDGA1041+006711999GE19MSL   +99999+99999GF199999041999006711999999MA1101301999999REMMET051METAR SBUF 201600Z 15007KT 9999 SCT022 35/20 Q1013=
0142829860999992016032017004-09401-038251FM-15+026999999V0201401N003619999999N009999199+03501+01901999999ADDGA1041+006711999GE19MSL   +99999+99999GF199999041999006711999999MA1101201999999REMMET051METAR SBUF 201700Z 14007KT 9999 SCT022 35/19 Q1012=
0142829860999992016032019004-09401-038251FM-15+026999999V0201401N004619999999N009999199+03601+01901999999ADDGA1041+006711999GE19MSL   +99999+99999GF199999041999006711999999MA1101101999999REMMET051METAR SBUF 201900Z 14009KT 9999 SCT022 36/19 Q1011=
0142829860999992016032019454-09401-038251FM-16+026999999V0201301N004619999999N009999199+03501+01801999999ADDGA1041+006711999GE19MSL   +99999+99999GF199999041999006711999999MA1101101999999REMMET051SPECI SBUF 201945Z 13009KT 9999 SCT022 35/18 Q1011=
0142829860999992016032111154-09401-038251FM-16+026999999V0200901N003610054919N009999199+02901+02201999999ADDGA1071+005491999GE19MSL   +99999+99999GF199999071999005491999999MA1101801999999REMMET051SPECI SBUF 211115Z 09007KT 9999 BKN018 29/22 Q1018=
0142829860999992016032112004-09401-038251FM-15+026999999V0201201N003119999999N009999199+03001+02101999999ADDGA1041+005491999GE19MSL   +99999+99999GF199999041999005491999999MA1101801999999REMMET051METAR SBUF 211200Z 12006KT 9999 SCT018 30/21 Q1018=
0142829860999992016032113004-09401-038251FM-15+026999999V0201601N002619999999N009999199+03101+02101999999ADDGA1041+005491999GE19MSL   +99999+99999GF199999041999005491999999MA1101701999999REMMET051METAR SBUF 211300Z 16005KT 9999 SCT018 31/21 Q1017=
0142829860999992016032114004-09401-038251FM-15+026999999V0201201N002619999999N009999199+03301+02001999999ADDGA1041+006401999GE19MSL   +99999+99999GF199999041999006401999999MA1101601999999REMMET051METAR SBUF 211400Z 12005KT 9999 SCT021 33/20 Q1016=
0142829860999992016032115004-09401-038251FM-15+026999999V0202001N001519999999N009999199+03401+01901999999ADDGA1041+006401999GE19MSL   +99999+99999GF199999041999006401999999MA1101401999999REMMET051METAR SBUF 211500Z 20003KT 9999 SCT021 34/19 Q1014=
0142829860999992016032116004-09401-038251FM-15+026999999V0201601N002619999999N009999199+03401+01901999999ADDGA1041+006401999GE19MSL   +99999+99999GF199999041999006401999999MA1101401999999REMMET051METAR SBUF 211600Z 16005KT 9999 SCT021 34/19 Q1014=
0142829860999992016032117004-09401-038251FM-15+026999999V0201201N003119999999N009999199+03601+01901999999ADDGA1021+006401999GE19MSL   +99999+99999GF199999021999006401999999MA1101301999999REMMET051METAR SBUF 211700Z 12006KT 9999 FEW021 36/19 Q1013=
0142829860999992016032118004-09401-038251FM-15+026999999V0200801N003119999999N009999199+03601+01901999999ADDGA1021+006401999GE19MSL   +99999+99999GF199999021999006401999999MA1101201999999REMMET051METAR SBUF 211800Z 08006KT 9999 FEW021 36/19 Q1012=
0142829860999992016032119004-09401-038251FM-15+026999999V0201201N003619999999N009999199+03601+01901999999ADDGA1041+006401999GE19MSL   +99999+99999GF199999041999006401999999MA1101101999999REMMET051METAR SBUF 211900Z 12007KT 9999 SCT021 36/19 Q1011=
0142829860999992016032120004-09401-038251FM-15+026999999V0201101N005119999999N009999199+03501+01901999999ADDGA1041+006401999GE19MSL   +99999+99999GF199999041999006401999999MA1101201999999REMMET051METAR SBUF 212000Z 11010KT 9999 SCT021 35/19 Q1012=
0142829860999992016032121004-09401-038251FM-15+026999999V0201401N004619999999N009999199+03301+02001999999ADDGA1041+006101999GE19MSL   +99999+99999GF199999041999006101999999MA1101201999999REMMET051METAR SBUF 212100Z 14009KT 9999 SCT020 33/20 Q1012=
0142829860999992016032122004-09401-038251FM-15+026999999V0201801N002619999999N009999199+03101+02101999999ADDGA1021+006101999GE19MSL   +99999+99999GF199999021999006101999999MA1101301999999REMMET051METAR SBUF 212200Z 18005KT 9999 FEW020 31/21 Q1013=
0142829860999992016032123004-09401-038251FM-15+026999999V0201201N006719999999N009999199+03101+02101999999ADDGA1021+006101999GE19MSL   +99999+99999GF199999021999006101999999MA1101401999999REMMET051METAR SBUF 212300Z 12013KT 9999 FEW020 31/21 Q1014=
0142829860999992016032200004-09401-038251FM-15+026999999V0201301N007719999999N009999199+02901+02201999999ADDGA1021+005791999GE19MSL   +99999+99999GF199999021999005791999999MA1101601999999REMMET051METAR SBUF 220000Z 13015KT 9999 FEW019 29/22 Q1016=
0072829860999992016032200154-09401-038251FM-16+026999999V0201201N006219999999Y999999999+02901+02201999999ADDMA1101601999999REMMET045SPECI SBUF 220015Z 12012KT CAVOK 29/22 Q1016=
0165829860999992016032211154-09401-038251FM-16+026999999V0200901N00311024381CN009999199+02901+02301999999ADDGA1021+005491999GA2041+024381999GE19MSL   +99999+99999GF199999021999005491999999MA1101801999999REMMET058SPECI SBUF 221115Z 09006KT 9999 FEW018 SCT080 29/23 Q1018=
0165829860999992016032212004-09401-038251FM-15+026999999V0201101N00411024381CN009999199+03101+02201999999ADDGA1021+006101999GA2041+024381999GE19MSL   +99999+99999GF199999021999006101999999MA1101801999999REMMET058METAR SBUF 221200Z 11008KT 9999 FEW020 SCT080 31/22 Q1018=
0142829860999992016032213004-09401-038251FM-15+026999999V0200901N003119999999N009999199+03301+02101999999ADDGA1041+006101999GE19MSL   +99999+99999GF199999041999006101999999MA1101801999999REMMET051METAR SBUF 221300Z 09006KT 9999 SCT020 33/21 Q1018=
0142829860999992016032214004-09401-038251FM-15+026999999V0201001N004119999999N009999199+03401+02001999999ADDGA1021+006401999GE19MSL   +99999+99999GF199999021999006401999999MA1101601999999REMMET051METAR SBUF 221400Z 10008KT 9999 FEW021 34/20 Q1016=
0165829860999992016032215004-09401-038251FM-15+026999999V0201001N00311030481CN009999199+03501+02001999999ADDGA1041+006711999GA2041+030481999GE19MSL   +99999+99999GF199999041999006711999999MA1101501999999REMMET058METAR SBUF 221500Z 10006KT 9999 SCT022 SCT100 35/20 Q1015=
0165829860999992016032216004-09401-038251FM-15+026999999V0201201N00211030481CN009999199+03601+02001999999ADDGA1041+006711999GA2041+030481999GE19MSL   +99999+99999GF199999041999006711999999MA1101301999999REMMET058METAR SBUF 221600Z 12004KT 9999 SCT022 SCT100 36/20 Q1013=
0165829860999992016032217004-09401-038251FM-15+026999999V0201101N00361030481CN009999199+03601+01901999999ADDGA1041+006711999GA2041+030481999GE19MSL   +99999+99999GF199999041999006711999999MA1101201999999REMMET058METAR SBUF 221700Z 11007KT 9999 SCT022 SCT100 36/19 Q1012=
0165829860999992016032218004-09401-038251FM-15+026999999V0201201N00311030481CN009999199+03701+01901999999ADDGA1041+006711999GA2041+030481999GE19MSL   +99999+99999GF199999041999006711999999MA1101201999999REMMET058METAR SBUF 221800Z 12006KT 9999 SCT022 SCT100 37/19 Q1012=
0165829860999992016032219004-09401-038251FM-15+026999999V0200701N00211030481CN009999199+03601+01901999999ADDGA1041+007011999GA2041+030481999GE19MSL   +99999+99999GF199999041999007011999999MA1101201999999REMMET058METAR SBUF 221900Z 07004KT 9999 SCT023 SCT100 36/19 Q1012=
0165829860999992016032219454-09401-038251FM-16+026999999V0201001N00461030481CN009999199+03601+01901999999ADDGA1041+006711999GA2041+030481999GE19MSL   +99999+99999GF199999041999006711999999MA1101101999999REMMET058SPECI SBUF 221945Z 10009KT 9999 SCT022 SCT100 36/19 Q1011=
0142829860999992016032311154-09401-038251FM-16+026999999V0201001N003110054919N009999199+02901+02301999999ADDGA1071+005491999GE19MSL   +99999+99999GF199999071999005491999999MA1101701999999REMMET051SPECI SBUF 231115Z 10006KT 9999 BKN018 29/23 Q1017=
0142829860999992016032312004-09401-038251FM-15+026999999V0201101N003110057919N009999199+02901+02301999999ADDGA1071+005791999GE19MSL   +99999+99999GF199999071999005791999999MA1101601999999REMMET051METAR SBUF 231200Z 11006KT 9999 BKN019 29/23 Q1016=
0142829860999992016032313004-09401-038251FM-15+026999999V0201401N004119999999N009999199+03101+02201999999ADDGA1041+006401999GE19MSL   +99999+99999GF199999041999006401999999MA1101501999999REMMET051METAR SBUF 231300Z 14008KT 9999 SCT021 31/22 Q1015=
0142829860999992016032315004-09401-038251FM-15+026999999V0200901N003619999999N009999199+03501+02101999999ADDGA1041+006711999GE19MSL   +99999+99999GF199999041999006711999999MA1101301999999REMMET051METAR SBUF 231500Z 09007KT 9999 SCT022 35/21 Q1013=
0142829860999992016032316004-09401-038251FM-15+026999999V0201301N003619999999N009999199+03601+02001999999ADDGA1041+007011999GE19MSL   +99999+99999GF199999041999007011999999MA1101101999999REMMET051METAR SBUF 231600Z 13007KT 9999 SCT023 36/20 Q1011=
0142829860999992016032317004-09401-038251FM-15+026999999V0201901N003119999999N009999199+03701+01901999999ADDGA1041+007011999GE19MSL   +99999+99999GF199999041999007011999999MA1101001999999REMMET051METAR SBUF 231700Z 19006KT 9999 SCT023 37/19 Q1010=
0142829860999992016032318004-09401-038251FM-15+026999999V0201201N004119999999N009999199+03701+01801999999ADDGA1041+006711999GE19MSL   +99999+99999GF199999041999006711999999MA1101001999999REMMET051METAR SBUF 231800Z 12008KT 9999 SCT022 37/18 Q1010=
0142829860999992016032319004-09401-038251FM-15+026999999V0200901N004619999999N009999199+03701+01801999999ADDGA1041+006711999GE19MSL   +99999+99999GF199999041999006711999999MA1101001999999REMMET051METAR SBUF 231900Z 09009KT 9999 SCT022 37/18 Q1010=
0142829860999992016032319454-09401-038251FM-16+026999999V0201001N005719999999N009999199+03601+01901999999ADDGA1041+006711999GE19MSL   +99999+99999GF199999041999006711999999MA1101001999999REMMET051SPECI SBUF 231945Z 10011KT 9999 SCT022 36/19 Q1010=
0142829860999992016032411154-09401-038251FM-16+026999999V0201101N003619999999N009999199+02901+02201999999ADDGA1021+005181999GE19MSL   +99999+99999GF199999021999005181999999MA1101601999999REMMET051SPECI SBUF 241115Z 11007KT 9999 FEW017 29/22 Q1016=
0142829860999992016032412004-09401-038251FM-15+026999999V0200901N003619999999N009999199+03101+02101999999ADDGA1041+005791999GE19MSL   +99999+99999GF199999041999005791999999MA1101601999999REMMET051METAR SBUF 241200Z 09007KT 9999 SCT019 31/21 Q1016=
0142829860999992016032413004-09401-038251FM-15+026999999V0201101N004619999999N009999199+03301+02001999999ADDGA1041+006401999GE19MSL   +99999+99999GF199999041999006401999999MA1101601999999REMMET051METAR SBUF 241300Z 11009KT 9999 SCT021 33/20 Q1016=
0142829860999992016032414004-09401-038251FM-15+026999999V0201201N004119999999N009999199+03301+02001999999ADDGA1041+006401999GE19MSL   +99999+99999GF199999041999006401999999MA1101501999999REMMET051METAR SBUF 241400Z 12008KT 9999 SCT021 33/20 Q1015=
0142829860999992016032415004-09401-038251FM-15+026999999V0201301N003610067119N009999199+03401+02001999999ADDGA1071+006711999GE19MSL   +99999+99999GF199999071999006711999999MA1101401999999REMMET051METAR SBUF 241500Z 13007KT 9999 BKN022 34/20 Q1014=
0142829860999992016032416004-09401-038251FM-15+026999999V0201201N005110067119N009999199+03501+01901999999ADDGA1071+006711999GE19MSL   +99999+99999GF199999071999006711999999MA1101201999999REMMET051METAR SBUF 241600Z 12010KT 9999 BKN022 35/19 Q1012=
0142829860999992016032417004-09401-038251FM-15+026999999V0201201N003610067119N009999199+03601+01801999999ADDGA1071+006711999GE19MSL   +99999+99999GF199999071999006711999999MA1101101999999REMMET051METAR SBUF 241700Z 12007KT 9999 BKN022 36/18 Q1011=
0142829860999992016032418004-09401-038251FM-15+026999999V0201301N004119999999N009999199+03701+01701999999ADDGA1041+006711999GE19MSL   +99999+99999GF199999041999006711999999MA1101101999999REMMET051METAR SBUF 241800Z 13008KT 9999 SCT022 37/17 Q1011=
0142829860999992016032419004-09401-038251FM-15+026999999V0201201N003119999999N009999199+03701+01701999999ADDGA1041+006711999GE19MSL   +99999+99999GF199999041999006711999999MA1101001999999REMMET051METAR SBUF 241900Z 12006KT 9999 SCT022 37/17 Q1010=
0142829860999992016032419454-09401-038251FM-16+026999999V0201001N003119999999N009999199+03601+01701999999ADDGA1021+006711999GE19MSL   +99999+99999GF199999021999006711999999MA1101001999999REMMET051SPECI SBUF 241945Z 10006KT 9999 FEW022 36/17 Q1010=
0142829860999992016032511154-09401-038251FM-16+026999999V0201101N004110051819N009999199+02701+02201999999ADDGA1071+005181999GE19MSL   +99999+99999GF199999071999005181999999MA1101701999999REMMET051SPECI SBUF 251115Z 11008KT 9999 BKN017 27/22 Q1017=
0142829860999992016032512004-09401-038251FM-15+026999999V0201101N004110054919N009999199+03001+02101999999ADDGA1071+005491999GE19MSL   +99999+99999GF199999071999005491999999MA1101601999999REMMET051METAR SBUF 251200Z 11008KT 9999 BKN018 30/21 Q1016=
0142829860999992016032513004-09401-038251FM-15+026999999V0200901N004610061019N009999199+03201+02001999999ADDGA1071+006101999GE19MSL   +99999+99999GF199999071999006101999999MA1101601999999REMMET051METAR SBUF 251300Z 09009KT 9999 BKN020 32/20 Q1016=
0142829860999992016032514004-09401-038251FM-15+026999999V0201301N004610061019N009999199+03201+02001999999ADDGA1071+006101999GE19MSL   +99999+99999GF199999071999006101999999MA1101501999999REMMET051METAR SBUF 251400Z 13009KT 9999 BKN020 32/20 Q1015=
0142829860999992016032515004-09401-038251FM-15+026999999V0201101N004610064019N009999199+03401+01801999999ADDGA1071+006401999GE19MSL   +99999+99999GF199999071999006401999999MA1101401999999REMMET051METAR SBUF 251500Z 11009KT 9999 BKN021 34/18 Q1014=
0142829860999992016032516004-09401-038251FM-15+026999999V0201101N005119999999N009999199+03501+01801999999ADDGA1041+006401999GE19MSL   +99999+99999GF199999041999006401999999MA1101301999999REMMET051METAR SBUF 251600Z 11010KT 9999 SCT021 35/18 Q1013=
0142829860999992016032518004-09401-038251FM-15+026999999V0200801N004619999999N009999199+03701+01501999999ADDGA1041+006711999GE19MSL   +99999+99999GF199999041999006711999999MA1101101999999REMMET051METAR SBUF 251800Z 08009KT 9999 SCT022 37/15 Q1011=
0142829860999992016032519004-09401-038251FM-15+026999999V0201001N005719999999N009999199+03601+01701999999ADDGA1041+006711999GE19MSL   +99999+99999GF199999041999006711999999MA1101101999999REMMET051METAR SBUF 251900Z 10011KT 9999 SCT022 36/17 Q1011=
0142829860999992016032519454-09401-038251FM-16+026999999V0201001N005719999999N009999199+03501+01801999999ADDGA1021+006711999GE19MSL   +99999+99999GF199999021999006711999999MA1101101999999REMMET051SPECI SBUF 251945Z 10011KT 9999 FEW022 35/18 Q1011=
0142829860999992016032611154-09401-038251FM-16+026999999V0201201N004110054919N009999199+02801+02201999999ADDGA1071+005491999GE19MSL   +99999+99999GF199999071999005491999999MA1101701999999REMMET051SPECI SBUF 261115Z 12008KT 9999 BKN018 28/22 Q1017=
0142829860999992016032612004-09401-038251FM-15+026999999V0201101N004119999999N009999199+02901+02101999999ADDGA1041+005491999GE19MSL   +99999+99999GF199999041999005491999999MA1101701999999REMMET051METAR SBUF 261200Z 11008KT 9999 SCT018 29/21 Q1017=
0142829860999992016032613004-09401-038251FM-15+026999999V0201201N004619999999N009999199+03201+02101999999ADDGA1041+005791999GE19MSL   +99999+99999GF199999041999005791999999MA1101701999999REMMET051METAR SBUF 261300Z 12009KT 9999 SCT019 32/21 Q1017=
0142829860999992016032614004-09401-038251FM-15+026999999V0201101N004619999999N009999199+03401+02001999999ADDGA1041+006101999GE19MSL   +99999+99999GF199999041999006101999999MA1101501999999REMMET051METAR SBUF 261400Z 11009KT 9999 SCT020 34/20 Q1015=
0142829860999992016032615004-09401-038251FM-15+026999999V0201001N003619999999N009999199+03501+01901999999ADDGA1041+006401999GE19MSL   +99999+99999GF199999041999006401999999MA1101401999999REMMET051METAR SBUF 261500Z 10007KT 9999 SCT021 35/19 Q1014=
0142829860999992016032616004-09401-038251FM-15+026999999V0201501N003619999999N009999199+03601+01801999999ADDGA1041+006711999GE19MSL   +99999+99999GF199999041999006711999999MA1101301999999REMMET051METAR SBUF 261600Z 15007KT 9999 SCT022 36/18 Q1013=
0142829860999992016032617004-09401-038251FM-15+026999999V0201001N004119999999N009999199+03701+01701999999ADDGA1041+007011999GE19MSL   +99999+99999GF199999041999007011999999MA1101201999999REMMET051METAR SBUF 261700Z 10008KT 9999 SCT023 37/17 Q1012=
0142829860999992016032618004-09401-038251FM-15+026999999V0201201N003619999999N009999199+03601+01601999999ADDGA1021+006711999GE19MSL   +99999+99999GF199999021999006711999999MA1101101999999REMMET051METAR SBUF 261800Z 12007KT 9999 FEW022 36/16 Q1011=
0142829860999992016032619004-09401-038251FM-15+026999999V0201201N004619999999N009999199+03701+01601999999ADDGA1041+006711999GE19MSL   +99999+99999GF199999041999006711999999MA1101101999999REMMET051METAR SBUF 261900Z 12009KT 9999 SCT022 37/16 Q1011=
0142829860999992016032619454-09401-038251FM-16+026999999V0201101N005119999999N009999199+03601+01701999999ADDGA1041+006711999GE19MSL   +99999+99999GF199999041999006711999999MA1101101999999REMMET051SPECI SBUF 261945Z 11010KT 9999 SCT022 36/17 Q1011=
0165829860999992016032708154-09401-038251FM-16+026999999V0201401N003610243819N009999199+02501+02301999999ADDGA1021+005491999GA2071+024381999GE19MSL   +99999+99999GF199999021999005491999999MA1101601999999REMMET058SPECI SBUF 270815Z 14007KT 9999 FEW018 BKN080 25/23 Q1016=
0165829860999992016032709004-09401-038251FM-15+026999999V0201301N003610243819N009999199+02501+02301999999ADDGA1021+005491999GA2071+024381999GE19MSL   +99999+99999GF199999021999005491999999MA1101601999999REMMET058METAR SBUF 270900Z 13007KT 9999 FEW018 BKN080 25/23 Q1016=
0165829860999992016032710004-09401-038251FM-15+026999999V0201301N004110243819N009999199+02601+02301999999ADDGA1021+005791999GA2071+024381999GE19MSL   +99999+99999GF199999021999005791999999MA1101601999999REMMET058METAR SBUF 271000Z 13008KT 9999 FEW019 BKN080 26/23 Q1016=
0165829860999992016032711004-09401-038251FM-15+026999999V0201301N003610243819N009999199+02701+02301999999ADDGA1021+005491999GA2071+024381999GE19MSL   +99999+99999GF199999021999005491999999MA1101701999999REMMET058METAR SBUF 271100Z 13007KT 9999 FEW018 BKN080 27/23 Q1017=
0165829860999992016032712004-09401-038251FM-15+026999999V0201001N00511024381CN009999199+02901+02201999999ADDGA1041+005791999GA2041+024381999GE19MSL   +99999+99999GF199999041999005791999999MA1101701999999REMMET058METAR SBUF 271200Z 10010KT 9999 SCT019 SCT080 29/22 Q1017=
0142829860999992016032714004-09401-038251FM-15+026999999V0201201N006210064019N009999199+03301+02101999999ADDGA1071+006401999GE19MSL   +99999+99999GF199999071999006401999999MA1101501999999REMMET051METAR SBUF 271400Z 12012KT 9999 BKN021 33/21 Q1015=
0142829860999992016032715004-09401-038251FM-15+026999999V0201101N004119999999N009999199+03301+02001999999ADDGA1041+006401999GE19MSL   +99999+99999GF199999041999006401999999MA1101401999999REMMET051METAR SBUF 271500Z 11008KT 9999 SCT021 33/20 Q1014=
0142829860999992016032716004-09401-038251FM-15+026999999V0201101N004619999999N009999199+03501+02001999999ADDGA1041+006401999GE19MSL   +99999+99999GF199999041999006401999999MA1101301999999REMMET051METAR SBUF 271600Z 11009KT 9999 SCT021 35/20 Q1013=
0142829860999992016032717004-09401-038251FM-15+026999999V0201501N004610064019N009999199+03501+02001999999ADDGA1071+006401999GE19MSL   +99999+99999GF199999071999006401999999MA1101201999999REMMET051METAR SBUF 271700Z 15009KT 9999 BKN021 35/20 Q1012=
0142829860999992016032718004-09401-038251FM-15+026999999V0201001N005719999999N009999199+03501+02001999999ADDGA1041+006401999GE19MSL   +99999+99999GF199999041999006401999999MA1101101999999REMMET051METAR SBUF 271800Z 10011KT 9999 SCT021 35/20 Q1011=
0142829860999992016032719004-09401-038251FM-15+026999999V0201301N006719999999N009999199+03501+02001999999ADDGA1041+006401999GE19MSL   +99999+99999GF199999041999006401999999MA1101101999999REMMET051METAR SBUF 271900Z 13013KT 9999 SCT021 35/20 Q1011=
0142829860999992016032719454-09401-038251FM-16+026999999V0201301N007719999999N009999199+03301+02101999999ADDGA1021+006401999GE19MSL   +99999+99999GF199999021999006401999999MA1101201999999REMMET051SPECI SBUF 271945Z 13015KT 9999 FEW021 33/21 Q1012=
0142829860999992016032811154-09401-038251FM-16+026999999V0201401N004110051819N009999199+02701+02201999999ADDGA1071+005181999GE19MSL   +99999+99999GF199999071999005181999999MA1101701999999REMMET051SPECI SBUF 281115Z 14008KT 9999 BKN017 27/22 Q1017=
0142829860999992016032812004-09401-038251FM-15+026999999V0201101N004610057919N009999199+03101+02001999999ADDGA1071+005791999GE19MSL   +99999+99999GF199999071999005791999999MA1101601999999REMMET051METAR SBUF 281200Z 11009KT 9999 BKN019 31/20 Q1016=
0142829860999992016032813004-09401-038251FM-15+026999999V0201301N005719999999N009999199+03201+01901999999ADDGA1041+006101999GE19MSL   +99999+99999GF199999041999006101999999MA1101601999999REMMET051METAR SBUF 281300Z 13011KT 9999 SCT020 32/19 Q1016=
0142829860999992016032815004-09401-038251FM-15+026999999V0201301N005119999999N009999199+03501+01701999999ADDGA1041+006711999GE19MSL   +99999+99999GF199999041999006711999999MA1101401999999REMMET051METAR SBUF 281500Z 13010KT 9999 SCT022 35/17 Q1014=
0142829860999992016032816004-09401-038251FM-15+026999999V0201701N003619999999N009999199+03401+01601999999ADDGA1041+006711999GE19MSL   +99999+99999GF199999041999006711999999MA1101201999999REMMET051METAR SBUF 281600Z 17007KT 9999 SCT022 34/16 Q1012=
0142829860999992016032817004-09401-038251FM-15+026999999V0201101N004119999999N009999199+03601+01701999999ADDGA1041+007011999GE19MSL   +99999+99999GF199999041999007011999999MA1101101999999REMMET051METAR SBUF 281700Z 11008KT 9999 SCT023 36/17 Q1011=
0142829860999992016032818004-09401-038251FM-15+026999999V0201101N003619999999N009999199+03501+01601999999ADDGA1041+007011999GE19MSL   +99999+99999GF199999041999007011999999MA1101001999999REMMET051METAR SBUF 281800Z 11007KT 9999 SCT023 35/16 Q1010=
0142829860999992016032819004-09401-038251FM-15+026999999V0200901N004119999999N009999199+03501+01601999999ADDGA1041+007011999GE19MSL   +99999+99999GF199999041999007011999999MA1101001999999REMMET051METAR SBUF 281900Z 09008KT 9999 SCT023 35/16 Q1010=
0142829860999992016032819454-09401-038251FM-16+026999999V0201201N003619999999N009999199+03401+01601999999ADDGA1041+007011999GE19MSL   +99999+99999GF199999041999007011999999MA1101001999999REMMET051SPECI SBUF 281945Z 12007KT 9999 SCT023 34/16 Q1010=
0142829860999992016032911154-09401-038251FM-16+026999999V0201201N004610051819N009999199+02801+02201999999ADDGA1071+005181999GE19MSL   +99999+99999GF199999071999005181999999MA1101701999999REMMET051SPECI SBUF 291115Z 12009KT 9999 BKN017 28/22 Q1017=
0142829860999992016032912004-09401-038251FM-15+026999999V0201201N005110054919N009999199+03101+02101999999ADDGA1071+005491999GE19MSL   +99999+99999GF199999071999005491999999MA1101701999999REMMET051METAR SBUF 291200Z 12010KT 9999 BKN018 31/21 Q1017=
0142829860999992016032913004-09401-038251FM-15+026999999V0201201N004610061019N009999199+03201+02101999999ADDGA1071+006101999GE19MSL   +99999+99999GF199999071999006101999999MA1101601999999REMMET051METAR SBUF 291300Z 12009KT 9999 BKN020 32/21 Q1016=
0142829860999992016032914004-09401-038251FM-15+026999999V0201001N004619999999N009999199+03301+02101999999ADDGA1041+006401999GE19MSL   +99999+99999GF199999041999006401999999MA1101501999999REMMET051METAR SBUF 291400Z 10009KT 9999 SCT021 33/21 Q1015=
0142829860999992016032915004-09401-038251FM-15+026999999V0201101N003119999999N009999199+03401+02101999999ADDGA1041+006401999GE19MSL   +99999+99999GF199999041999006401999999MA1101401999999REMMET051METAR SBUF 291500Z 11006KT 9999 SCT021 34/21 Q1014=
0142829860999992016032916004-09401-038251FM-15+026999999V0201501N003619999999N009999199+03501+02001999999ADDGA1041+006711999GE19MSL   +99999+99999GF199999041999006711999999MA1101301999999REMMET051METAR SBUF 291600Z 15007KT 9999 SCT022 35/20 Q1013=
0142829860999992016032917004-09401-038251FM-15+026999999V0201501N003610067119N009999199+03401+01901999999ADDGA1071+006711999GE19MSL   +99999+99999GF199999071999006711999999MA1101201999999REMMET051METAR SBUF 291700Z 15007KT 9999 BKN022 34/19 Q1012=
0142829860999992016032918004-09401-038251FM-15+026999999V0201001N005710067119N009999199+03501+01901999999ADDGA1071+006711999GE19MSL   +99999+99999GF199999071999006711999999MA1101201999999REMMET051METAR SBUF 291800Z 10011KT 9999 BKN022 35/19 Q1012=
0168829860999992016032919004-09401-038251FM-15+026999999V0201601N00311007011CN009999199+03501+01901999999ADDGA1021+006711999GA2041+007011081GE19MSL   +99999+99999GF199999021999006711999999MA1101201999999REMMET061METAR SBUF 291900Z 16006KT 9999 FEW022 SCT023TCU 35/19 Q1012=
0168829860999992016032919454-09401-038251FM-16+026999999V0201201N00621006711CN009999199+03301+02101999999ADDGA1021+006401999GA2041+006711081GE19MSL   +99999+99999GF199999021999006401999999MA1101201999999REMMET061SPECI SBUF 291945Z 12012KT 9999 FEW021 SCT022TCU 33/21 Q1012=
0165829860999992016033011154-09401-038251FM-16+026999999V0201201N003610213419N009999199+02601+02301999999ADDGA1041+005491999GA2071+021341999GE19MSL   +99999+99999GF199999041999005491999999MA1101901999999REMMET058SPECI SBUF 301115Z 12007KT 9999 SCT018 BKN070 26/23 Q1019=
0165829860999992016033012004-09401-038251FM-15+026999999V0201001N004110213419N009999199+02701+02301999999ADDGA1041+005791999GA2071+021341999GE19MSL   +99999+99999GF199999041999005791999999MA1101901999999REMMET058METAR SBUF 301200Z 10008KT 9999 SCT019 BKN070 27/23 Q1019=
0165829860999992016033013004-09401-038251FM-15+026999999V0201001N00361006101CN009999199+02901+02301999999ADDGA1021+005791999GA2041+006101999GE19MSL   +99999+99999GF199999021999005791999999MA1101901999999REMMET058METAR SBUF 301300Z 10007KT 9999 FEW019 SCT020 29/23 Q1019=
0142829860999992016033014004-09401-038251FM-15+026999999V0201101N004110061019N009999199+03101+02101999999ADDGA1071+006101999GE19MSL   +99999+99999GF199999071999006101999999MA1101701999999REMMET051METAR SBUF 301400Z 11008KT 9999 BKN020 31/21 Q1017=
0142829860999992016033015004-09401-038251FM-15+026999999V0201401N003110067119N009999199+03201+02101999999ADDGA1071+006711999GE19MSL   +99999+99999GF199999071999006711999999MA1101701999999REMMET051METAR SBUF 301500Z 14006KT 9999 BKN022 32/21 Q1017=
0165829860999992016033016004-09401-038251FM-15+026999999V0201501N004110067119N009999199+03201+02101999999ADDGA1071+006711999GA2071+021341999GE19MSL   +99999+99999GF199999071999006711999999MA1101601999999REMMET058METAR SBUF 301600Z 15008KT 9999 BKN022 BKN070 32/21 Q1016=
0165829860999992016033017004-09401-038251FM-15+026999999V0200901N003610064019N009999199+03201+02101999999ADDGA1071+006401999GA2071+021341999GE19MSL   +99999+99999GF199999071999006401999999MA1101501999999REMMET058METAR SBUF 301700Z 09007KT 9999 BKN021 BKN070 32/21 Q1015=
0165829860999992016033018004-09401-038251FM-15+026999999V0201201N005110213419N009999199+03201+02201999999ADDGA1041+006401999GA2071+021341999GE19MSL   +99999+99999GF199999041999006401999999MA1101401999999REMMET058METAR SBUF 301800Z 12010KT 9999 SCT021 BKN070 32/22 Q1014=
0165829860999992016033019004-09401-038251FM-15+026999999V0201101N00511021341CN009999199+03201+02001999999ADDGA1021+006401999GA2041+021341999GE19MSL   +99999+99999GF199999021999006401999999MA1101401999999REMMET058METAR SBUF 301900Z 11010KT 9999 FEW021 SCT070 32/20 Q1014=
0142829860999992016033019454-09401-038251FM-16+026999999V0201401N005119999999N009999199+03201+02001999999ADDGA1041+006711999GE19MSL   +99999+99999GF199999041999006711999999MA1101401999999REMMET051SPECI SBUF 301945Z 14010KT 9999 SCT022 32/20 Q1014=
0142829860999992016033111154-09401-038251FM-16+026999999V0201301N006710054919N009999199+02801+02101999999ADDGA1071+005491999GE19MSL   +99999+99999GF199999071999005491999999MA1101801999999REMMET051SPECI SBUF 311115Z 13013KT 9999 BKN018 28/21 Q1018=
0142829860999992016033112004-09401-038251FM-15+026999999V0201401N005119999999N009999199+02901+02001999999ADDGA1041+005791999GE19MSL   +99999+99999GF199999041999005791999999MA1101801999999REMMET051METAR SBUF 311200Z 14010KT 9999 SCT019 29/20 Q1018=
0161829860999992016033113004-09401-038251FM-15+026999999V0201201N007219999999N009999199+99999+99999999999ADDGA1021+006711999GE19AGL   +99999+99999GF199999021999006711999999MA1101805999999REMMET051METAR SBUF 311300Z 12014KT 9999 FEW022 ///// Q1018=EQDD01      0ADE693
0161829860999992016033114004-09401-038251FM-15+026999999V0201101N005710067119N009999199+99999+99999999999ADDGA1071+006711999GE19AGL   +99999+99999GF199999071999006711999999MA1101705999999REMMET051METAR SBUF 311400Z 11011KT 9999 BKN022 ///// Q1017=EQDD01      0ADE693
0161829860999992016033115004-09401-038251FM-15+026999999V0201101N005110067119N009999199+99999+99999999999ADDGA1071+006711999GE19AGL   +99999+99999GF199999071999006711999999MA1101705999999REMMET051METAR SBUF 311500Z 11010KT 9999 BKN022 ///// Q1017=EQDD01      0ADE693
0161829860999992016033116004-09401-038251FM-15+026999999V0201001N005719999999N009999199+99999+99999999999ADDGA1041+007011999GE19AGL   +99999+99999GF199999041999007011999999MA1101505999999REMMET051METAR SBUF 311600Z 10011KT 9999 SCT023 ///// Q1015=EQDD01      0ADE693
0161829860999992016033117004-09401-038251FM-15+026999999V0201001N005719999999N009999199+99999+99999999999ADDGA1041+007011999GE19AGL   +99999+99999GF199999041999007011999999MA1101405999999REMMET051METAR SBUF 311700Z 10011KT 9999 SCT023 ///// Q1014=EQDD01      0ADE693
0161829860999992016033118004-09401-038251FM-15+026999999V0201301N006219999999N009999199+99999+99999999999ADDGA1041+006401999GE19AGL   +99999+99999GF199999041999006401999999MA1101405999999REMMET051METAR SBUF 311800Z 13012KT 9999 SCT021 ///// Q1014=EQDD01      0ADE693
0161829860999992016033119004-09401-038251FM-15+026999999V0201201N005719999999N009999199+99999+99999999999ADDGA1041+006401999GE19AGL   +99999+99999GF199999041999006401999999MA1101405999999REMMET051METAR SBUF 311900Z 12011KT 9999 SCT021 ///// Q1014=EQDD01      0ADE693
0142829860999992016033119454-09401-038251FM-16+026999999V0200901N005119999999N009999199+03301+01901999999ADDGA1021+006401999GE19MSL   +99999+99999GF199999021999006401999999MA1101401999999REMMET051SPECI SBUF 311945Z 09010KT 9999 FEW021 33/19 Q1014=
0142829860999992016040111154-09401-038251FM-16+026999999V0201201N004119999999N009999199+02801+02201999999ADDGA1041+005491999GE19MSL   +99999+99999GF199999041999005491999999MA1101701999999REMMET051SPECI SBUF 011115Z 12008KT 9999 SCT018 28/22 Q1017=
0165829860999992016040112004-09401-038251FM-15+026999999V0201101N004610057919N009999199+03001+02101999999ADDGA1071+005791999GA2071+024381999GE19MSL   +99999+99999GF199999071999005791999999MA1101701999999REMMET058METAR SBUF 011200Z 11009KT 9999 BKN019 BKN080 30/21 Q1017=
0142829860999992016040113004-09401-038251FM-15+026999999V0201101N005110057919N009999199+03101+01901999999ADDGA1071+005791999GE19MSL   +99999+99999GF199999071999005791999999MA1101601999999REMMET051METAR SBUF 011300Z 11010KT 9999 BKN019 31/19 Q1016=
0142829860999992016040114004-09401-038251FM-15+026999999V0201201N005110061019N009999199+03101+02001999999ADDGA1071+006101999GE19MSL   +99999+99999GF199999071999006101999999MA1101501999999REMMET051METAR SBUF 011400Z 12010KT 9999 BKN020 31/20 Q1015=
0142829860999992016040117004-09401-038251FM-15+026999999V0201101N004110064019N009999199+03201+01901999999ADDGA1071+006401999GE19MSL   +99999+99999GF199999071999006401999999MA1101201999999REMMET051METAR SBUF 011700Z 11008KT 9999 BKN021 32/19 Q1012=
0142829860999992016040119004-09401-038251FM-15+026999999V0201601N004619999999N009999199+03301+02001999999ADDGA1041+006401999GE19MSL   +99999+99999GF199999041999006401999999MA1101201999999REMMET051METAR SBUF 011900Z 16009KT 9999 SCT021 33/20 Q1012=
0142829860999992016040119454-09401-038251FM-16+026999999V0201501N006219999999N009999199+03201+02101999999ADDGA1041+006401999GE19MSL   +99999+99999GF199999041999006401999999MA1101201999999REMMET051SPECI SBUF 011945Z 15012KT 9999 SCT021 32/21 Q1012=
0168829860999992016040211154-09401-038251FM-16+026999999V0201601N003110051819N009999199+02701+02201999999ADDGA1071+005181999GA2021+006101081GE19MSL   +99999+99999GF199999071999005181999999MA1101501999999REMMET061SPECI SBUF 021115Z 16006KT 9999 BKN017 FEW020TCU 27/22 Q1015=
0142829860999992016040212004-09401-038251FM-15+026999999V0201001N004110054919N009999199+02901+02101999999ADDGA1071+005491999GE19MSL   +99999+99999GF199999071999005491999999MA1101501999999REMMET051METAR SBUF 021200Z 10008KT 9999 BKN018 29/21 Q1015=
0142829860999992016040213004-09401-038251FM-15+026999999V0201101N002110054919N009999199+03101+02101999999ADDGA1071+005491999GE19MSL   +99999+99999GF199999071999005491999999MA1101501999999REMMET051METAR SBUF 021300Z 11004KT 9999 BKN018 31/21 Q1015=
0142829860999992016040214004-09401-038251FM-15+026999999V0201201N003110061019N009999199+03301+02001999999ADDGA1071+006101999GE19MSL   +99999+99999GF199999071999006101999999MA1101401999999REMMET051METAR SBUF 021400Z 12006KT 9999 BKN020 33/20 Q1014=
0142829860999992016040215004-09401-038251FM-15+026999999V0201401N003619999999N009999199+03301+01801999999ADDGA1041+006401999GE19MSL   +99999+99999GF199999041999006401999999MA1101301999999REMMET051METAR SBUF 021500Z 14007KT 9999 SCT021 33/18 Q1013=
0142829860999992016040217004-09401-038251FM-15+026999999V0201501N003619999999N009999199+03501+01501999999ADDGA1041+006401999GE19MSL   +99999+99999GF199999041999006401999999MA1101001999999REMMET051METAR SBUF 021700Z 15007KT 9999 SCT021 35/15 Q1010=
0142829860999992016040311154-09401-038251FM-16+026999999V0201201N004610054919N009999199+02701+02101999999ADDGA1071+005491999GE19MSL   +99999+99999GF199999071999005491999999MA1101601999999REMMET051SPECI SBUF 031115Z 12009KT 9999 BKN018 27/21 Q1016=
0142829860999992016040312004-09401-038251FM-15+026999999V0201101N004619999999N009999199+02801+02101999999ADDGA1041+005791999GE19MSL   +99999+99999GF199999041999005791999999MA1101601999999REMMET051METAR SBUF 031200Z 11009KT 9999 SCT019 28/21 Q1016=
0142829860999992016040313004-09401-038251FM-15+026999999V0201101N004619999999N009999199+03001+02001999999ADDGA1041+006101999GE19MSL   +99999+99999GF199999041999006101999999MA1101501999999REMMET051METAR SBUF 031300Z 11009KT 9999 SCT020 30/20 Q1015=
0142829860999992016040314004-09401-038251FM-15+026999999V0200901N003119999999N009999199+03101+02001999999ADDGA1041+006101999GE19MSL   +99999+99999GF199999041999006101999999MA1101501999999REMMET051METAR SBUF 031400Z 09006KT 9999 SCT020 31/20 Q1015=
0165829860999992016040315004-09401-038251FM-15+026999999V0201001N00411030481CN009999199+03301+01901999999ADDGA1041+006401999GA2041+030481999GE19MSL   +99999+99999GF199999041999006401999999MA1101301999999REMMET058METAR SBUF 031500Z 10008KT 9999 SCT021 SCT100 33/19 Q1013=
0142829860999992016040316004-09401-038251FM-15+026999999V0201401N003619999999N009999199+03401+01901999999ADDGA1041+006711999GE19MSL   +99999+99999GF199999041999006711999999MA1101201999999REMMET051METAR SBUF 031600Z 14007KT 9999 SCT022 34/19 Q1012=
0142829860999992016040317004-09401-038251FM-15+026999999V0201001N004619999999N009999199+03501+01901999999ADDGA1041+007011999GE19MSL   +99999+99999GF199999041999007011999999MA1101201999999REMMET051METAR SBUF 031700Z 10009KT 9999 SCT023 35/19 Q1012=
0142829860999992016040318004-09401-038251FM-15+026999999V0201101N005719999999N009999199+03401+02101999999ADDGA1041+007011999GE19MSL   +99999+99999GF199999041999007011999999MA1101201999999REMMET051METAR SBUF 031800Z 11011KT 9999 SCT023 34/21 Q1012=
0142829860999992016040319004-09401-038251FM-15+026999999V0200901N006219999999N009999199+03301+02101999999ADDGA1041+007011999GE19MSL   +99999+99999GF199999041999007011999999MA1101201999999REMMET051METAR SBUF 031900Z 09012KT 9999 SCT023 33/21 Q1012=
0142829860999992016040319454-09401-038251FM-16+026999999V0201101N007219999999N009999199+03201+02101999999ADDGA1041+006711999GE19MSL   +99999+99999GF199999041999006711999999MA1101301999999REMMET051SPECI SBUF 031945Z 11014KT 9999 SCT022 32/21 Q1013=
0142829860999992016040411154-09401-038251FM-16+026999999V0201201N003610057919N009999199+02801+02201999999ADDGA1071+005791999GE19MSL   +99999+99999GF199999071999005791999999MA1101801999999REMMET051SPECI SBUF 041115Z 12007KT 9999 BKN019 28/22 Q1018=
0142829860999992016040412004-09401-038251FM-15+026999999V0201301N004110061019N009999199+03101+02101999999ADDGA1071+006101999GE19MSL   +99999+99999GF199999071999006101999999MA1101801999999REMMET051METAR SBUF 041200Z 13008KT 9999 BKN020 31/21 Q1018=
0142829860999992016040413004-09401-038251FM-15+026999999V0201101N003110061019N009999199+03101+02101999999ADDGA1071+006101999GE19MSL   +99999+99999GF199999071999006101999999MA1101801999999REMMET051METAR SBUF 041300Z 11006KT 9999 BKN020 31/21 Q1018=
0142829860999992016040414004-09401-038251FM-15+026999999V0201601N003619999999N009999199+03101+02101999999ADDGA1041+006101999GE19MSL   +99999+99999GF199999041999006101999999MA1101701999999REMMET051METAR SBUF 041400Z 16007KT 9999 SCT020 31/21 Q1017=
0142829860999992016040415004-09401-038251FM-15+026999999V0201601N002619999999N009999199+03301+02001999999ADDGA1041+006711999GE19MSL   +99999+99999GF199999041999006711999999MA1101601999999REMMET051METAR SBUF 041500Z 16005KT 9999 SCT022 33/20 Q1016=
0142829860999992016040416004-09401-038251FM-15+026999999V0201501N002119999999N009999199+03501+01801999999ADDGA1041+007011999GE19MSL   +99999+99999GF199999041999007011999999MA1101401999999REMMET051METAR SBUF 041600Z 15004KT 9999 SCT023 35/18 Q1014=
0142829860999992016040417004-09401-038251FM-15+026999999V0201201N005119999999N009999199+03501+01901999999ADDGA1041+007011999GE19MSL   +99999+99999GF199999041999007011999999MA1101301999999REMMET051METAR SBUF 041700Z 12010KT 9999 SCT023 35/19 Q1013=
0142829860999992016040418004-09401-038251FM-15+026999999V0200901N004119999999N009999199+03401+01701999999ADDGA1021+007011999GE19MSL   +99999+99999GF199999021999007011999999MA1101301999999REMMET051METAR SBUF 041800Z 09008KT 9999 FEW023 34/17 Q1013=
0165829860999992016040419004-09401-038251FM-15+026999999V0201301N00461030481CN009999199+03401+01501999999ADDGA1021+006711999GA2041+030481999GE19MSL   +99999+99999GF199999021999006711999999MA1101301999999REMMET058METAR SBUF 041900Z 13009KT 9999 FEW022 SCT100 34/15 Q1013=
0165829860999992016040419454-09401-038251FM-16+026999999V0201101N00621030481CN009999199+03301+01901999999ADDGA1021+006711999GA2041+030481999GE19MSL   +99999+99999GF199999021999006711999999MA1101301999999REMMET058SPECI SBUF 041945Z 11012KT 9999 FEW022 SCT100 33/19 Q1013=
0165829860999992016040511154-09401-038251FM-16+026999999V0201601N005710048819N009999199+02701+02301999999ADDGA1071+004881999GA2071+021341999GE19MSL   +99999+99999GF199999071999004881999999MA1101801999999REMMET058SPECI SBUF 051115Z 16011KT 9999 BKN016 BKN070 27/23 Q1018=
0165829860999992016040512004-09401-038251FM-15+026999999V0201601N004110213419N009999199+02601+02401999999ADDGA1041+005491999GA2071+021341999GE19MSL   +99999+99999GF199999041999005491999999MA1101801999999REMMET058METAR SBUF 051200Z 16008KT 9999 SCT018 BKN070 26/24 Q1018=
0165829860999992016040513004-09401-038251FM-15+026999999V0201701N00461021341CN009999199+02801+02401999999ADDGA1041+005791999GA2041+021341999GE19MSL   +99999+99999GF199999041999005791999999MA1101701999999REMMET058METAR SBUF 051300Z 17009KT 9999 SCT019 SCT070 28/24 Q1017=
0165829860999992016040514004-09401-038251FM-15+026999999V0201301N00361021341CN009999199+03001+02401999999ADDGA1041+005491999GA2041+021341999GE19MSL   +99999+99999GF199999041999005491999999MA1101701999999REMMET058METAR SBUF 051400Z 13007KT 9999 SCT018 SCT070 30/24 Q1017=
0152829860999992016040514464-09401-038251FM-16+026999999V0201701N003110042719N004000199+02701+02601999999ADDGA1071+004271999GE19MSL   +99999+99999GF199999071999004271999999MA1101601999999MW1611REMMET055SPECI SBUF 051446Z 17006KT 4000 -RA BKN014 27/26 Q1016=
0152829860999992016040515004-09401-038251FM-15+026999999V0201301N006210042719N004000199+02601+02501999999ADDGA1081+004271999GE19MSL   +99999+99999GF199999081999004271999999MA1101701999999MW1611REMMET055METAR SBUF 051500Z 13012KT 4000 -RA OVC014 26/25 Q1017=
0191829860999992016040515204-09401-038251FM-16+026999999V0201801N002610243819N009999199+02701+02601999999ADDGA1041+003961999GA2021+007011081GA3071+024381999GE19MSL   +99999+99999GF199999041999003961999999MA1101601999999REMMET068SPECI SBUF 051520Z 18005KT 9999 SCT013 FEW023TCU BKN080 27/26 Q1016=
0165829860999992016040516004-09401-038251FM-15+026999999V0201801N004110274319N009999199+02601+02501999999ADDGA1041+004271999GA2071+027431999GE19MSL   +99999+99999GF199999041999004271999999MA1101501999999REMMET058METAR SBUF 051600Z 18008KT 9999 SCT014 BKN090 26/25 Q1015=
0165829860999992016040518004-09401-038251FM-15+026999999V0201901N004110054919N009999199+02701+02501999999ADDGA1071+005491999GA2071+024381999GE19MSL   +99999+99999GF199999071999005491999999MA1101401999999REMMET058METAR SBUF 051800Z 19008KT 9999 BKN018 BKN080 27/25 Q1014=
0188829860999992016040519004-09401-038251FM-15+026999999V0201701N00571005181CN009999199+02501+02501999999ADDGA1021+003961999GA2041+005181999GA3071+024381999GE19MSL   +99999+99999GF199999021999003961999999MA1101401999999REMMET065METAR SBUF 051900Z 17011KT 9999 FEW013 SCT017 BKN080 25/25 Q1014=
0188829860999992016040519454-09401-038251FM-16+026999999V0201401N00571004881CN009999199+02601+02401999999ADDGA1021+003961999GA2041+004881999GA3071+024381999GE19MSL   +99999+99999GF199999021999003961999999MA1101501999999REMMET065SPECI SBUF 051945Z 14011KT 9999 FEW013 SCT016 BKN080 26/24 Q1015=
0165829860999992016040611154-09401-038251FM-16+026999999V0201201N00511021341CN009999199+02801+02201999999ADDGA1041+005491999GA2041+021341999GE19MSL   +99999+99999GF199999041999005491999999MA1101601999999REMMET058SPECI SBUF 061115Z 12010KT 9999 SCT018 SCT070 28/22 Q1016=
0165829860999992016040612004-09401-038251FM-15+026999999V0201201N00461021341CN009999199+02801+02201999999ADDGA1041+006101999GA2041+021341999GE19MSL   +99999+99999GF199999041999006101999999MA1101701999999REMMET058METAR SBUF 061200Z 12009KT 9999 SCT020 SCT070 28/22 Q1017=
0165829860999992016040613004-09401-038251FM-15+026999999V0201301N00571021341CN009999199+03001+02101999999ADDGA1041+006101999GA2041+021341999GE19MSL   +99999+99999GF199999041999006101999999MA1101601999999REMMET058METAR SBUF 061300Z 13011KT 9999 SCT020 SCT070 30/21 Q1016=
0142829860999992016040619004-09401-038251FM-15+026999999V0201501N003619999999N009999199+03401+01901999999ADDGA1041+006401999GE19MSL   +99999+99999GF199999041999006401999999MA1101101999999REMMET051METAR SBUF 061900Z 15007KT 9999 SCT021 34/19 Q1011=
0142829860999992016040619454-09401-038251FM-16+026999999V0201201N005119999999N009999199+03301+02001999999ADDGA1021+006401999GE19MSL   +99999+99999GF199999021999006401999999MA1101101999999REMMET051SPECI SBUF 061945Z 12010KT 9999 FEW021 33/20 Q1011=
0142829860999992016040711154-09401-038251FM-16+026999999V0201201N004110054919N009999199+02701+02201999999ADDGA1071+005491999GE19MSL   +99999+99999GF199999071999005491999999MA1101601999999REMMET051SPECI SBUF 071115Z 12008KT 9999 BKN018 27/22 Q1016=
0142829860999992016040712004-09401-038251FM-15+026999999V0201501N004610057919N009999199+02801+02201999999ADDGA1071+005791999GE19MSL   +99999+99999GF199999071999005791999999MA1101601999999REMMET051METAR SBUF 071200Z 15009KT 9999 BKN019 28/22 Q1016=
0142829860999992016040713004-09401-038251FM-15+026999999V0201201N004610061019N009999199+03101+02101999999ADDGA1071+006101999GE19MSL   +99999+99999GF199999071999006101999999MA1101501999999REMMET051METAR SBUF 071300Z 12009KT 9999 BKN020 31/21 Q1015=
0142829860999992016040715004-09401-038251FM-15+026999999V0201301N004110067119N009999199+03301+02001999999ADDGA1071+006711999GE19MSL   +99999+99999GF199999071999006711999999MA1101301999999REMMET051METAR SBUF 071500Z 13008KT 9999 BKN022 33/20 Q1013=
0142829860999992016040716004-09401-038251FM-15+026999999V0201601N003110067119N009999199+03301+02001999999ADDGA1071+006711999GE19MSL   +99999+99999GF199999071999006711999999MA1101201999999REMMET051METAR SBUF 071600Z 16006KT 9999 BKN022 33/20 Q1012=
0142829860999992016040718004-09401-038251FM-15+026999999V0201201N004619999999N009999199+03501+01901999999ADDGA1041+006711999GE19MSL   +99999+99999GF199999041999006711999999MA1101001999999REMMET051METAR SBUF 071800Z 12009KT 9999 SCT022 35/19 Q1010=
0142829860999992016040719004-09401-038251FM-15+026999999V0201501N003619999999N009999199+03401+01901999999ADDGA1021+006711999GE19MSL   +99999+99999GF199999021999006711999999MA1101001999999REMMET051METAR SBUF 071900Z 15007KT 9999 FEW022 34/19 Q1010=
0142829860999992016040719454-09401-038251FM-16+026999999V0201301N004119999999N009999199+03401+01901999999ADDGA1021+006711999GE19MSL   +99999+99999GF199999021999006711999999MA1101001999999REMMET051SPECI SBUF 071945Z 13008KT 9999 FEW022 34/19 Q1010=
0142829860999992016040811154-09401-038251FM-16+026999999V0201201N003619999999N009999199+02801+02101999999ADDGA1041+005491999GE19MSL   +99999+99999GF199999041999005491999999MA1101601999999REMMET051SPECI SBUF 081115Z 12007KT 9999 SCT018 28/21 Q1016=
0142829860999992016040812004-09401-038251FM-15+026999999V0201301N004119999999N009999199+03001+02101999999ADDGA1021+006101999GE19MSL   +99999+99999GF199999021999006101999999MA1101601999999REMMET051METAR SBUF 081200Z 13008KT 9999 FEW020 30/21 Q1016=
0142829860999992016040813004-09401-038251FM-15+026999999V0201301N003619999999N009999199+03101+02001999999ADDGA1041+006101999GE19MSL   +99999+99999GF199999041999006101999999MA1101601999999REMMET051METAR SBUF 081300Z 13007KT 9999 SCT020 31/20 Q1016=
0142829860999992016040814004-09401-038251FM-15+026999999V0201301N003119999999N009999199+03301+02001999999ADDGA1041+006101999GE19MSL   +99999+99999GF199999041999006101999999MA1101501999999REMMET051METAR SBUF 081400Z 13006KT 9999 SCT020 33/20 Q1015=
0142829860999992016040815004-09401-038251FM-15+026999999V0201701N003119999999N009999199+03301+02001999999ADDGA1041+006711999GE19MSL   +99999+99999GF199999041999006711999999MA1101301999999REMMET051METAR SBUF 081500Z 17006KT 9999 SCT022 33/20 Q1013=
0142829860999992016040816004-09401-038251FM-15+026999999V0201601N003119999999N009999199+03501+01901999999ADDGA1041+007011999GE19MSL   +99999+99999GF199999041999007011999999MA1101201999999REMMET051METAR SBUF 081600Z 16006KT 9999 SCT023 35/19 Q1012=
0142829860999992016040817004-09401-038251FM-15+026999999V0201501N004119999999N009999199+03501+01901999999ADDGA1041+007011999GE19MSL   +99999+99999GF199999041999007011999999MA1101101999999REMMET051METAR SBUF 081700Z 15008KT 9999 SCT023 35/19 Q1011=
0142829860999992016040818004-09401-038251FM-15+026999999V0201601N003119999999N009999199+03501+01801999999ADDGA1041+007011999GE19MSL   +99999+99999GF199999041999007011999999MA1101001999999REMMET051METAR SBUF 081800Z 16006KT 9999 SCT023 35/18 Q1010=
0142829860999992016040819004-09401-038251FM-15+026999999V0201101N004119999999N009999199+03501+01901999999ADDGA1021+007011999GE19MSL   +99999+99999GF199999021999007011999999MA1101001999999REMMET051METAR SBUF 081900Z 11008KT 9999 FEW023 35/19 Q1010=
0142829860999992016040819454-09401-038251FM-16+026999999V0201401N003619999999N009999199+03301+01901999999ADDGA1021+007011999GE19MSL   +99999+99999GF199999021999007011999999MA1101001999999REMMET051SPECI SBUF 081945Z 14007KT 9999 FEW023 33/19 Q1010=
0142829860999992016040911154-09401-038251FM-16+026999999V0201301N004619999999N009999199+02701+02301999999ADDGA1041+004881999GE19MSL   +99999+99999GF199999041999004881999999MA1101501999999REMMET051SPECI SBUF 091115Z 13009KT 9999 SCT016 27/23 Q1015=
0142829860999992016040912004-09401-038251FM-15+026999999V0201101N004619999999N009999199+03001+02101999999ADDGA1041+005791999GE19MSL   +99999+99999GF199999041999005791999999MA1101501999999REMMET051METAR SBUF 091200Z 11009KT 9999 SCT019 30/21 Q1015=
0142829860999992016040913004-09401-038251FM-15+026999999V0201201N004619999999N009999199+03101+02101999999ADDGA1021+006101999GE19MSL   +99999+99999GF199999021999006101999999MA1101501999999REMMET051METAR SBUF 091300Z 12009KT 9999 FEW020 31/21 Q1015=
0142829860999992016040914004-09401-038251FM-15+026999999V0201301N006219999999N009999199+03301+02001999999ADDGA1021+006401999GE19MSL   +99999+99999GF199999021999006401999999MA1101401999999REMMET051METAR SBUF 091400Z 13012KT 9999 FEW021 33/20 Q1014=
0142829860999992016040915004-09401-038251FM-15+026999999V0201101N005119999999N009999199+03401+02001999999ADDGA1041+006401999GE19MSL   +99999+99999GF199999041999006401999999MA1101301999999REMMET051METAR SBUF 091500Z 11010KT 9999 SCT021 34/20 Q1013=
0142829860999992016040916004-09401-038251FM-15+026999999V0201101N004619999999N009999199+03501+02001999999ADDGA1041+006711999GE19MSL   +99999+99999GF199999041999006711999999MA1101101999999REMMET051METAR SBUF 091600Z 11009KT 9999 SCT022 35/20 Q1011=
0142829860999992016040917004-09401-038251FM-15+026999999V0201101N005119999999N009999199+03501+01901999999ADDGA1041+007011999GE19MSL   +99999+99999GF199999041999007011999999MA1101101999999REMMET051METAR SBUF 091700Z 11010KT 9999 SCT023 35/19 Q1011=
0142829860999992016040918004-09401-038251FM-15+026999999V0201201N004619999999N009999199+03501+01901999999ADDGA1041+007011999GE19MSL   +99999+99999GF199999041999007011999999MA1101001999999REMMET051METAR SBUF 091800Z 12009KT 9999 SCT023 35/19 Q1010=
0142829860999992016040919004-09401-038251FM-15+026999999V0201101N005719999999N009999199+03501+01801999999ADDGA1021+007011999GE19MSL   +99999+99999GF199999021999007011999999MA1101001999999REMMET051METAR SBUF 091900Z 11011KT 9999 FEW023 35/18 Q1010=
0142829860999992016040919454-09401-038251FM-16+026999999V0201001N004619999999N009999199+03401+01801999999ADDGA1021+007011999GE19MSL   +99999+99999GF199999021999007011999999MA1101001999999REMMET051SPECI SBUF 091945Z 10009KT 9999 FEW023 34/18 Q1010=
0142829860999992016041011154-09401-038251FM-16+026999999V0201001N004619999999N009999199+02801+02101999999ADDGA1041+005491999GE19MSL   +99999+99999GF199999041999005491999999MA1101501999999REMMET051SPECI SBUF 101115Z 10009KT 9999 SCT018 28/21 Q1015=
0142829860999992016041012004-09401-038251FM-15+026999999V0201001N005119999999N009999199+02901+02101999999ADDGA1041+005791999GE19MSL   +99999+99999GF199999041999005791999999MA1101501999999REMMET051METAR SBUF 101200Z 10010KT 9999 SCT019 29/21 Q1015=
0142829860999992016041013004-09401-038251FM-15+026999999V0201001N004619999999N009999199+03101+02001999999ADDGA1041+006101999GE19MSL   +99999+99999GF199999041999006101999999MA1101401999999REMMET051METAR SBUF 101300Z 10009KT 9999 SCT020 31/20 Q1014=
0142829860999992016041014004-09401-038251FM-15+026999999V0201301N005119999999N009999199+03301+01901999999ADDGA1021+006101999GE19MSL   +99999+99999GF199999021999006101999999MA1101401999999REMMET051METAR SBUF 101400Z 13010KT 9999 FEW020 33/19 Q1014=
0142829860999992016041015004-09401-038251FM-15+026999999V0200901N006219999999N009999199+03501+01601999999ADDGA1021+006401999GE19MSL   +99999+99999GF199999021999006401999999MA1101201999999REMMET051METAR SBUF 101500Z 09012KT 9999 FEW021 35/16 Q1012=
0142829860999992016041016004-09401-038251FM-15+026999999V0200901N006219999999N009999199+03501+01801999999ADDGA1041+006401999GE19MSL   +99999+99999GF199999041999006401999999MA1101101999999REMMET051METAR SBUF 101600Z 09012KT 9999 SCT021 35/18 Q1011=
0142829860999992016041017004-09401-038251FM-15+026999999V0201401N004619999999N009999199+03501+01801999999ADDGA1041+006401999GE19MSL   +99999+99999GF199999041999006401999999MA1101001999999REMMET051METAR SBUF 101700Z 14009KT 9999 SCT021 35/18 Q1010=
0142829860999992016041018004-09401-038251FM-15+026999999V0200901N004619999999N009999199+03601+01901999999ADDGA1021+006401999GE19MSL   +99999+99999GF199999021999006401999999MA1101001999999REMMET051METAR SBUF 101800Z 09009KT 9999 FEW021 36/19 Q1010=
0142829860999992016041019004-09401-038251FM-15+026999999V0201301N004119999999N009999199+03401+01901999999ADDGA1021+006401999GE19MSL   +99999+99999GF199999021999006401999999MA1101001999999REMMET051METAR SBUF 101900Z 13008KT 9999 FEW021 34/19 Q1010=
0142829860999992016041019454-09401-038251FM-16+026999999V0201201N003619999999N009999199+03401+01801999999ADDGA1021+006401999GE19MSL   +99999+99999GF199999021999006401999999MA1101001999999REMMET051SPECI SBUF 101945Z 12007KT 9999 FEW021 34/18 Q1010=
0142829860999992016041111154-09401-038251FM-16+026999999V0201201N005110057919N009999199+02801+02301999999ADDGA1071+005791999GE19MSL   +99999+99999GF199999071999005791999999MA1101601999999REMMET051SPECI SBUF 111115Z 12010KT 9999 BKN019 28/23 Q1016=
0142829860999992016041112004-09401-038251FM-15+026999999V0201301N004110057919N009999199+02901+02301999999ADDGA1071+005791999GE19MSL   +99999+99999GF199999071999005791999999MA1101501999999REMMET051METAR SBUF 111200Z 13008KT 9999 BKN019 29/23 Q1015=
0142829860999992016041113004-09401-038251FM-15+026999999V0201201N004610061019N009999199+03101+02101999999ADDGA1071+006101999GE19MSL   +99999+99999GF199999071999006101999999MA1101501999999REMMET051METAR SBUF 111300Z 12009KT 9999 BKN020 31/21 Q1015=
0142829860999992016041114004-09401-038251FM-15+026999999V0201101N005110061019N009999199+03301+02001999999ADDGA1071+006101999GE19MSL   +99999+99999GF199999071999006101999999MA1101401999999REMMET051METAR SBUF 111400Z 11010KT 9999 BKN020 33/20 Q1014=
0142829860999992016041115004-09401-038251FM-15+026999999V0201201N004119999999N009999199+03301+02001999999ADDGA1041+006711999GE19MSL   +99999+99999GF199999041999006711999999MA1101301999999REMMET051METAR SBUF 111500Z 12008KT 9999 SCT022 33/20 Q1013=
0142829860999992016041116004-09401-038251FM-15+026999999V0201501N004110067119N009999199+03301+02001999999ADDGA1071+006711999GE19MSL   +99999+99999GF199999071999006711999999MA1101201999999REMMET051METAR SBUF 111600Z 15008KT 9999 BKN022 33/20 Q1012=
0142829860999992016041119454-09401-038251FM-16+026999999V0201201N007219999999N009999199+03301+02101999999ADDGA1021+007011999GE19MSL   +99999+99999GF199999021999007011999999MA1101101999999REMMET051SPECI SBUF 111945Z 12014KT 9999 FEW023 33/21 Q1011=
0142829860999992016041211154-09401-038251FM-16+026999999V0201201N004619999999N009999199+02701+02201999999ADDGA1041+004881999GE19MSL   +99999+99999GF199999041999004881999999MA1101601999999REMMET051SPECI SBUF 121115Z 12009KT 9999 SCT016 27/22 Q1016=
0142829860999992016041212004-09401-038251FM-15+026999999V0201101N005119999999N009999199+03001+02101999999ADDGA1041+005491999GE19MSL   +99999+99999GF199999041999005491999999MA1101601999999REMMET051METAR SBUF 121200Z 11010KT 9999 SCT018 30/21 Q1016=
0142829860999992016041213004-09401-038251FM-15+026999999V0201201N005719999999N009999199+03201+02001999999ADDGA1041+006101999GE19MSL   +99999+99999GF199999041999006101999999MA1101501999999REMMET051METAR SBUF 121300Z 12011KT 9999 SCT020 32/20 Q1015=
0142829860999992016041214004-09401-038251FM-15+026999999V0201101N006719999999N009999199+03201+02001999999ADDGA1041+006101999GE19MSL   +99999+99999GF199999041999006101999999MA1101501999999REMMET051METAR SBUF 121400Z 11013KT 9999 SCT020 32/20 Q1015=
0142829860999992016041215004-09401-038251FM-15+026999999V0201101N004619999999N009999199+03301+01901999999ADDGA1041+006401999GE19MSL   +99999+99999GF199999041999006401999999MA1101401999999REMMET051METAR SBUF 121500Z 11009KT 9999 SCT021 33/19 Q1014=
0142829860999992016041216004-09401-038251FM-15+026999999V0201101N004619999999N009999199+03401+01901999999ADDGA1041+006401999GE19MSL   +99999+99999GF199999041999006401999999MA1101301999999REMMET051METAR SBUF 121600Z 11009KT 9999 SCT021 34/19 Q1013=
0142829860999992016041217004-09401-038251FM-15+026999999V0200901N005119999999N009999199+03501+01801999999ADDGA1041+006711999GE19MSL   +99999+99999GF199999041999006711999999MA1101201999999REMMET051METAR SBUF 121700Z 09010KT 9999 SCT022 35/18 Q1012=
0142829860999992016041218004-09401-038251FM-15+026999999V0201201N006219999999N009999199+03601+01801999999ADDGA1041+006711999GE19MSL   +99999+99999GF199999041999006711999999MA1101101999999REMMET051METAR SBUF 121800Z 12012KT 9999 SCT022 36/18 Q1011=
0142829860999992016041219004-09401-038251FM-15+026999999V0201101N006719999999N009999199+03401+01801999999ADDGA1041+006401999GE19MSL   +99999+99999GF199999041999006401999999MA1101101999999REMMET051METAR SBUF 121900Z 11013KT 9999 SCT021 34/18 Q1011=
0142829860999992016041219454-09401-038251FM-16+026999999V0201001N006219999999N009999199+03301+01801999999ADDGA1021+006401999GE19MSL   +99999+99999GF199999021999006401999999MA1101201999999REMMET051SPECI SBUF 121945Z 10012KT 9999 FEW021 33/18 Q1012=
0142829860999992016041311154-09401-038251FM-16+026999999V0201001N004119999999N009999199+02801+02101999999ADDGA1041+005491999GE19MSL   +99999+99999GF199999041999005491999999MA1101601999999REMMET051SPECI SBUF 131115Z 10008KT 9999 SCT018 28/21 Q1016=
0142829860999992016041312004-09401-038251FM-15+026999999V0201001N003619999999N009999199+02901+02101999999ADDGA1041+005491999GE19MSL   +99999+99999GF199999041999005491999999MA1101601999999REMMET051METAR SBUF 131200Z 10007KT 9999 SCT018 29/21 Q1016=
0142829860999992016041313004-09401-038251FM-15+026999999V0201001N006219999999N009999199+03101+01901999999ADDGA1041+005791999GE19MSL   +99999+99999GF199999041999005791999999MA1101601999999REMMET051METAR SBUF 131300Z 10012KT 9999 SCT019 31/19 Q1016=
0142829860999992016041315004-09401-038251FM-15+026999999V0201001N006219999999N009999199+03301+01801999999ADDGA1041+005791999GE19MSL   +99999+99999GF199999041999005791999999MA1101401999999REMMET051METAR SBUF 131500Z 10012KT 9999 SCT019 33/18 Q1014=
0142829860999992016041316004-09401-038251FM-15+026999999V0200901N005710061019N009999199+03201+01801999999ADDGA1071+006101999GE19MSL   +99999+99999GF199999071999006101999999MA1101301999999REMMET051METAR SBUF 131600Z 09011KT 9999 BKN020 32/18 Q1013=
0142829860999992016041317004-09401-038251FM-15+026999999V0200901N005719999999N009999199+03401+01901999999ADDGA1041+006101999GE19MSL   +99999+99999GF199999041999006101999999MA1101201999999REMMET051METAR SBUF 131700Z 09011KT 9999 SCT020 34/19 Q1012=
0165829860999992016041318004-09401-038251FM-15+026999999V0201101N00621030481CN009999199+03401+01701999999ADDGA1041+006101999GA2041+030481999GE19MSL   +99999+99999GF199999041999006101999999MA1101201999999REMMET058METAR SBUF 131800Z 11012KT 9999 SCT020 SCT100 34/17 Q1012=
0165829860999992016041319454-09401-038251FM-16+026999999V0201401N005710274319N009999199+03201+01801999999ADDGA1021+006101999GA2071+027431999GE19MSL   +99999+99999GF199999021999006101999999MA1101201999999REMMET058SPECI SBUF 131945Z 14011KT 9999 FEW020 BKN090 32/18 Q1012=
0165829860999992016041411154-09401-038251FM-15+026999999V0201101N004110054919N009999199+02601+02301999999ADDGA1041+005181999GA2071+005491999GE19MSL   +99999+99999GF199999041999005181999999MA1101701999999REMMET058METAR SBUF 141115Z 11008KT 9999 SCT017 BKN018 26/23 Q1017=
0165829860999992016041412004-09401-038251FM-15+026999999V0201201N00511024381CN009999199+02701+02201999999ADDGA1041+005491999GA2041+024381999GE19MSL   +99999+99999GF199999041999005491999999MA1101701999999REMMET058METAR SBUF 141200Z 12010KT 9999 SCT018 SCT080 27/22 Q1017=
0165829860999992016041413004-09401-038251FM-15+026999999V0201201N006710061019N009999199+03101+02101999999ADDGA1021+005491999GA2071+006101999GE19MSL   +99999+99999GF199999021999005491999999MA1101601999999REMMET058METAR SBUF 141300Z 12013KT 9999 FEW018 BKN020 31/21 Q1016=
0165829860999992016041414004-09401-038251FM-15+026999999V0201001N00621027431CN009999199+03201+02001999999ADDGA1021+006101999GA2041+027431999GE19MSL   +99999+99999GF199999021999006101999999MA1101601999999REMMET058METAR SBUF 141400Z 10012KT 9999 FEW020 SCT090 32/20 Q1016=
0165829860999992016041415004-09401-038251FM-15+026999999V0201301N00571027431CN009999199+03201+02001999999ADDGA1041+006101999GA2041+027431999GE19MSL   +99999+99999GF199999041999006101999999MA1101501999999REMMET058METAR SBUF 141500Z 13011KT 9999 SCT020 SCT090 32/20 Q1015=
0188829860999992016041416004-09401-038251FM-15+026999999V0201201N00511006101CN009999199+03201+02201999999ADDGA1021+005791999GA2041+006101999GA3071+024381999GE19MSL   +99999+99999GF199999021999005791999999MA1101401999999REMMET065METAR SBUF 141600Z 12010KT 9999 FEW019 SCT020 BKN080 32/22 Q1014=
0188829860999992016041417004-09401-038251FM-15+026999999V0200801N00151006101CN009999199+03201+02001999999ADDGA1021+005491999GA2041+006101999GA3071+024381999GE19MSL   +99999+99999GF199999021999005491999999MA1101301999999REMMET065METAR SBUF 141700Z 08003KT 9999 FEW018 SCT020 BKN080 32/20 Q1013=
0142829860999992016042419004-09401-038251FM-15+026999999V0201001N002619999999N009999199+03501+01501999999ADDGA1041+006401999GE19MSL   +99999+99999GF199999041999006401999999MA1101001999999REMMET051METAR SBUF 241900Z 10005KT 9999 SCT021 35/15 Q1010=
0142829860999992016042419454-09401-038251FM-16+026999999V0201201N004119999999N009999199+03401+01501999999ADDGA1021+006401999GE19MSL   +99999+99999GF199999021999006401999999MA1101001999999REMMET051SPECI SBUF 241945Z 12008KT 9999 FEW021 34/15 Q1010=
0142829860999992016042511154-09401-038251FM-16+026999999V0201101N004610057919N009999199+02801+02201999999ADDGA1071+005791999GE19MSL   +99999+99999GF199999071999005791999999MA1101501999999REMMET051SPECI SBUF 251115Z 11009KT 9999 BKN019 28/22 Q1015=
0142829860999992016042512004-09401-038251FM-15+026999999V0201101N006219999999N009999199+02801+02201999999ADDGA1041+006101999GE19MSL   +99999+99999GF199999041999006101999999MA1101501999999REMMET051METAR SBUF 251200Z 11012KT 9999 SCT020 28/22 Q1015=
0142829860999992016042513004-09401-038251FM-15+026999999V0201101N005119999999N009999199+02901+02201999999ADDGA1041+006101999GE19MSL   +99999+99999GF199999041999006101999999MA1101401999999REMMET051METAR SBUF 251300Z 11010KT 9999 SCT020 29/22 Q1014=
0165829860999992016042514004-09401-038251FM-15+026999999V0201201N00571021341CN009999199+03201+02101999999ADDGA1041+006101999GA2041+021341999GE19MSL   +99999+99999GF199999041999006101999999MA1101301999999REMMET058METAR SBUF 251400Z 12011KT 9999 SCT020 SCT070 32/21 Q1013=
0142829860999992016042515004-09401-038251FM-15+026999999V0200801N004110061019N009999199+03301+02001999999ADDGA1071+006101999GE19MSL   +99999+99999GF199999071999006101999999MA1101201999999REMMET051METAR SBUF 251500Z 08008KT 9999 BKN020 33/20 Q1012=
0142829860999992016042517004-09401-038251FM-15+026999999V0201201N005119999999N009999199+03301+01901999999ADDGA1041+006101999GE19MSL   +99999+99999GF199999041999006101999999MA1101101999999REMMET051METAR SBUF 251700Z 12010KT 9999 SCT020 33/19 Q1011=
0142829860999992016042518004-09401-038251FM-15+026999999V0201501N004119999999N009999199+03301+01901999999ADDGA1041+006101999GE19MSL   +99999+99999GF199999041999006101999999MA1101001999999REMMET051METAR SBUF 251800Z 15008KT 9999 SCT020 33/19 Q1010=
0142829860999992016042519004-09401-038251FM-15+026999999V0201601N003619999999N009999199+03301+01901999999ADDGA1021+006101999GE19MSL   +99999+99999GF199999021999006101999999MA1101001999999REMMET051METAR SBUF 251900Z 16007KT 9999 FEW020 33/19 Q1010=
0142829860999992016042519454-09401-038251FM-16+026999999V0201201N005719999999N009999199+03201+02001999999ADDGA1021+006101999GE19MSL   +99999+99999GF199999021999006101999999MA1101001999999REMMET051SPECI SBUF 251945Z 12011KT 9999 FEW020 32/20 Q1010=
0142829860999992016042611154-09401-038251FM-16+026999999V0200901N004110051819N009999199+02701+02101999999ADDGA1071+005181999GE19MSL   +99999+99999GF199999071999005181999999MA1101601999999REMMET051SPECI SBUF 261115Z 09008KT 9999 BKN017 27/21 Q1016=
0142829860999992016042612004-09401-038251FM-15+026999999V0200901N003610054919N009999199+03001+02101999999ADDGA1071+005491999GE19MSL   +99999+99999GF199999071999005491999999MA1101601999999REMMET051METAR SBUF 261200Z 09007KT 9999 BKN018 30/21 Q1016=
0142829860999992016042613004-09401-038251FM-15+026999999V0201301N003110061019N009999199+03001+02101999999ADDGA1071+006101999GE19MSL   +99999+99999GF199999071999006101999999MA1101501999999REMMET051METAR SBUF 261300Z 13006KT 9999 BKN020 30/21 Q1015=
0142829860999992016042614004-09401-038251FM-15+026999999V0201101N003619999999N009999199+03201+02001999999ADDGA1041+006101999GE19MSL   +99999+99999GF199999041999006101999999MA1101401999999REMMET051METAR SBUF 261400Z 11007KT 9999 SCT020 32/20 Q1014=
0142829860999992016042615004-09401-038251FM-15+026999999V0201301N003119999999N009999199+03301+01901999999ADDGA1041+006101999GE19MSL   +99999+99999GF199999041999006101999999MA1101301999999REMMET051METAR SBUF 261500Z 13006KT 9999 SCT020 33/19 Q1013=
0142829860999992016042616004-09401-038251FM-15+026999999V0201101N003119999999N009999199+03401+01801999999ADDGA1041+006401999GE19MSL   +99999+99999GF199999041999006401999999MA1101201999999REMMET051METAR SBUF 261600Z 11006KT 9999 SCT021 34/18 Q1012=
0142829860999992016042617004-09401-038251FM-15+026999999V0201301N004619999999N009999199+03501+01901999999ADDGA1041+006401999GE19MSL   +99999+99999GF199999041999006401999999MA1101101999999REMMET051METAR SBUF 261700Z 13009KT 9999 SCT021 35/19 Q1011=
0142829860999992016042618004-09401-038251FM-15+026999999V0201301N002619999999N009999199+03401+01901999999ADDGA1041+006401999GE19MSL   +99999+99999GF199999041999006401999999MA1101001999999REMMET051METAR SBUF 261800Z 13005KT 9999 SCT021 34/19 Q1010=
0142829860999992016042619004-09401-038251FM-15+026999999V0200801N003619999999N009999199+03401+01801999999ADDGA1021+006401999GE19MSL   +99999+99999GF199999021999006401999999MA1101001999999REMMET051METAR SBUF 261900Z 08007KT 9999 FEW021 34/18 Q1010=
0142829860999992016042619454-09401-038251FM-16+026999999V0201001N004119999999N009999199+03301+01901999999ADDGA1021+006101999GE19MSL   +99999+99999GF199999021999006101999999MA1101001999999REMMET051SPECI SBUF 261945Z 10008KT 9999 FEW020 33/19 Q1010=
0142829860999992016042711154-09401-038251FM-16+026999999V0201001N004119999999N009999199+02901+02101999999ADDGA1021+005791999GE19MSL   +99999+99999GF199999021999005791999999MA1101701999999REMMET051SPECI SBUF 271115Z 10008KT 9999 FEW019 29/21 Q1017=
0142829860999992016042712004-09401-038251FM-15+026999999V0201201N004119999999N009999199+03101+02101999999ADDGA1021+006101999GE19MSL   +99999+99999GF199999021999006101999999MA1101701999999REMMET051METAR SBUF 271200Z 12008KT 9999 FEW020 31/21 Q1017=
0072829860999992016042713004-09401-038251FM-15+026999999V0201001N005119999999Y999999999+03201+02001999999ADDMA1101601999999REMMET045METAR SBUF 271300Z 10010KT CAVOK 32/20 Q1016=
0072829860999992016042714004-09401-038251FM-15+026999999V0200901N004619999999Y999999999+03301+02001999999ADDMA1101501999999REMMET045METAR SBUF 271400Z 09009KT CAVOK 33/20 Q1015=
0142829860999992016042715004-09401-038251FM-15+026999999V0201401N004119999999N009999199+03401+01901999999ADDGA1021+006401999GE19MSL   +99999+99999GF199999021999006401999999MA1101401999999REMMET051METAR SBUF 271500Z 14008KT 9999 FEW021 34/19 Q1014=
0142829860999992016042716004-09401-038251FM-15+026999999V0201201N002619999999N009999199+03501+01901999999ADDGA1021+006401999GE19MSL   +99999+99999GF199999021999006401999999MA1101201999999REMMET051METAR SBUF 271600Z 12005KT 9999 FEW021 35/19 Q1012=
0142829860999992016042717004-09401-038251FM-15+026999999V0201301N004619999999N009999199+03601+01901999999ADDGA1041+007011999GE19MSL   +99999+99999GF199999041999007011999999MA1101201999999REMMET051METAR SBUF 271700Z 13009KT 9999 SCT023 36/19 Q1012=
0142829860999992016042718004-09401-038251FM-15+026999999V0201001N003119999999N009999199+03601+01801999999ADDGA1041+007011999GE19MSL   +99999+99999GF199999041999007011999999MA1101101999999REMMET051METAR SBUF 271800Z 10006KT 9999 SCT023 36/18 Q1011=
0142829860999992016042719004-09401-038251FM-15+026999999V0201101N004619999999N009999199+03601+01801999999ADDGA1021+007011999GE19MSL   +99999+99999GF199999021999007011999999MA1101101999999REMMET051METAR SBUF 271900Z 11009KT 9999 FEW023 36/18 Q1011=
0142829860999992016042719454-09401-038251FM-16+026999999V0201001N004619999999N009999199+03501+01901999999ADDGA1021+007011999GE19MSL   +99999+99999GF199999021999007011999999MA1101101999999REMMET051SPECI SBUF 271945Z 10009KT 9999 FEW023 35/19 Q1011=
0142829860999992016042811154-09401-038251FM-16+026999999V0200901N003119999999N009999199+02801+02101999999ADDGA1021+005791999GE19MSL   +99999+99999GF199999021999005791999999MA1101601999999REMMET051SPECI SBUF 281115Z 09006KT 9999 FEW019 28/21 Q1016=
0142829860999992016042812004-09401-038251FM-15+026999999V0201101N004119999999N009999199+03001+02101999999ADDGA1021+006101999GE19MSL   +99999+99999GF199999021999006101999999MA1101601999999REMMET051METAR SBUF 281200Z 11008KT 9999 FEW020 30/21 Q1016=
0142829860999992016042813004-09401-038251FM-15+026999999V0201101N003619999999N009999199+03101+02101999999ADDGA1021+006401999GE19MSL   +99999+99999GF199999021999006401999999MA1101501999999REMMET051METAR SBUF 281300Z 11007KT 9999 FEW021 31/21 Q1015=
0142829860999992016042815004-09401-038251FM-15+026999999V0201201N005119999999N009999199+03501+02001999999ADDGA1021+006401999GE19MSL   +99999+99999GF199999021999006401999999MA1101301999999REMMET051METAR SBUF 281500Z 12010KT 9999 FEW021 35/20 Q1013=
0142829860999992016042816004-09401-038251FM-15+026999999V0201201N004619999999N009999199+03401+01901999999ADDGA1041+006401999GE19MSL   +99999+99999GF199999041999006401999999MA1101201999999REMMET051METAR SBUF 281600Z 12009KT 9999 SCT021 34/19 Q1012=
0142829860999992016042817004-09401-038251FM-15+026999999V0201001N004119999999N009999199+03501+01801999999ADDGA1041+006401999GE19MSL   +99999+99999GF199999041999006401999999MA1101101999999REMMET051METAR SBUF 281700Z 10008KT 9999 SCT021 35/18 Q1011=
0142829860999992016042818004-09401-038251FM-15+026999999V0201101N004119999999N009999199+03601+01601999999ADDGA1021+006401999GE19MSL   +99999+99999GF199999021999006401999999MA1101101999999REMMET051METAR SBUF 281800Z 11008KT 9999 FEW021 36/16 Q1011=
0142829860999992016042819004-09401-038251FM-15+026999999V0201001N004619999999N009999199+03501+01701999999ADDGA1021+006401999GE19MSL   +99999+99999GF199999021999006401999999MA1101101999999REMMET051METAR SBUF 281900Z 10009KT 9999 FEW021 35/17 Q1011=
0142829860999992016042820004-09401-038251FM-15+026999999V0201001N005119999999N009999199+03401+01701999999ADDGA1021+006101999GE19MSL   +99999+99999GF199999021999006101999999MA1101101999999REMMET051METAR SBUF 282000Z 10010KT 9999 FEW020 34/17 Q1011=
0142829860999992016042821004-09401-038251FM-15+026999999V0201001N005119999999N009999199+03201+01801999999ADDGA1021+006101999GE19MSL   +99999+99999GF199999021999006101999999MA1101201999999REMMET051METAR SBUF 282100Z 10010KT 9999 FEW020 32/18 Q1012=
0142829860999992016042822004-09401-038251FM-15+026999999V0201001N006219999999N009999199+03101+01901999999ADDGA1021+006101999GE19MSL   +99999+99999GF199999021999006101999999MA1101201999999REMMET051METAR SBUF 282200Z 10012KT 9999 FEW020 31/19 Q1012=
0142829860999992016042823004-09401-038251FM-15+026999999V0201001N006719999999N009999199+03001+01901999999ADDGA1021+006101999GE19MSL   +99999+99999GF199999021999006101999999MA1101301999999REMMET051METAR SBUF 282300Z 10013KT 9999 FEW020 30/19 Q1013=
0072829860999992016042823154-09401-038251FM-16+026999999V0201101N006719999999Y999999999+03001+02001999999ADDMA1101301999999REMMET045SPECI SBUF 282315Z 11013KT CAVOK 30/20 Q1013=
0142829860999992016042911154-09401-038251FM-16+026999999V0201001N004610051819N009999199+02801+02201999999ADDGA1071+005181999GE19MSL   +99999+99999GF199999071999005181999999MA1101501999999REMMET051SPECI SBUF 291115Z 10009KT 9999 BKN017 28/22 Q1015=
0142829860999992016042912004-09401-038251FM-15+026999999V0201001N004610057919N009999199+02801+02201999999ADDGA1071+005791999GE19MSL   +99999+99999GF199999071999005791999999MA1101501999999REMMET051METAR SBUF 291200Z 10009KT 9999 BKN019 28/22 Q1015=
0142829860999992016042913004-09401-038251FM-15+026999999V0200901N004610061019N009999199+03101+02101999999ADDGA1071+006101999GE19MSL   +99999+99999GF199999071999006101999999MA1101501999999REMMET051METAR SBUF 291300Z 09009KT 9999 BKN020 31/21 Q1015=
0142829860999992016042914004-09401-038251FM-15+026999999V0201001N006219999999N009999199+03301+02001999999ADDGA1041+006101999GE19MSL   +99999+99999GF199999041999006101999999MA1101401999999REMMET051METAR SBUF 291400Z 10012KT 9999 SCT020 33/20 Q1014=
0142829860999992016042915004-09401-038251FM-15+026999999V0201101N005119999999N009999199+03301+01901999999ADDGA1041+006101999GE19MSL   +99999+99999GF199999041999006101999999MA1101301999999REMMET051METAR SBUF 291500Z 11010KT 9999 SCT020 33/19 Q1013=
0142829860999992016042916004-09401-038251FM-15+026999999V0201101N005119999999N009999199+03501+01801999999ADDGA1041+006401999GE19MSL   +99999+99999GF199999041999006401999999MA1101201999999REMMET051METAR SBUF 291600Z 11010KT 9999 SCT021 35/18 Q1012=
0142829860999992016042917004-09401-038251FM-15+026999999V0201001N005119999999N009999199+03501+01701999999ADDGA1041+006401999GE19MSL   +99999+99999GF199999041999006401999999MA1101101999999REMMET051METAR SBUF 291700Z 10010KT 9999 SCT021 35/17 Q1011=
0142829860999992016042918004-09401-038251FM-15+026999999V0201101N004119999999N009999199+03601+01601999999ADDGA1021+006401999GE19MSL   +99999+99999GF199999021999006401999999MA1101001999999REMMET051METAR SBUF 291800Z 11008KT 9999 FEW021 36/16 Q1010=
0142829860999992016042919004-09401-038251FM-15+026999999V0201101N005119999999N009999199+03501+01701999999ADDGA1021+006401999GE19MSL   +99999+99999GF199999021999006401999999MA1101001999999REMMET051METAR SBUF 291900Z 11010KT 9999 FEW021 35/17 Q1010=
0142829860999992016042919454-09401-038251FM-16+026999999V0201201N004119999999N009999199+03401+01701999999ADDGA1021+006101999GE19MSL   +99999+99999GF199999021999006101999999MA1101101999999REMMET051SPECI SBUF 291945Z 12008KT 9999 FEW020 34/17 Q1011=
0142829860999992016043011154-09401-038251FM-16+026999999V0201001N004619999999N009999199+02701+02101999999ADDGA1041+005181999GE19MSL   +99999+99999GF199999041999005181999999MA1101601999999REMMET051SPECI SBUF 301115Z 10009KT 9999 SCT017 27/21 Q1016=
0142829860999992016043012004-09401-038251FM-15+026999999V0201301N005119999999N009999199+02901+02001999999ADDGA1021+005791999GE19MSL   +99999+99999GF199999021999005791999999MA1101601999999REMMET051METAR SBUF 301200Z 13010KT 9999 FEW019 29/20 Q1016=
0142829860999992016043013004-09401-038251FM-15+026999999V0201101N004619999999N009999199+03101+02001999999ADDGA1021+006101999GE19MSL   +99999+99999GF199999021999006101999999MA1101501999999REMMET051METAR SBUF 301300Z 11009KT 9999 FEW020 31/20 Q1015=
0142829860999992016043014004-09401-038251FM-15+026999999V0201201N004619999999N009999199+03201+01901999999ADDGA1021+006101999GE19MSL   +99999+99999GF199999021999006101999999MA1101501999999REMMET051METAR SBUF 301400Z 12009KT 9999 FEW020 32/19 Q1015=
0142829860999992016043015004-09401-038251FM-15+026999999V0201201N004619999999N009999199+03401+01701999999ADDGA1041+006401999GE19MSL   +99999+99999GF199999041999006401999999MA1101301999999REMMET051METAR SBUF 301500Z 12009KT 9999 SCT021 34/17 Q1013=
0142829860999992016043016004-09401-038251FM-15+026999999V0201201N005119999999N009999199+03501+01801999999ADDGA1041+006401999GE19MSL   +99999+99999GF199999041999006401999999MA1101201999999REMMET051METAR SBUF 301600Z 12010KT 9999 SCT021 35/18 Q1012=
0142829860999992016043017004-09401-038251FM-15+026999999V0201301N005719999999N009999199+03401+01701999999ADDGA1021+006401999GE19MSL   +99999+99999GF199999021999006401999999MA1101101999999REMMET051METAR SBUF 301700Z 13011KT 9999 FEW021 34/17 Q1011=
0142829860999992016043018004-09401-038251FM-15+026999999V0201101N005119999999N009999199+03501+01701999999ADDGA1041+006711999GE19MSL   +99999+99999GF199999041999006711999999MA1101001999999REMMET051METAR SBUF 301800Z 11010KT 9999 SCT022 35/17 Q1010=
0142829860999992016043019004-09401-038251FM-15+026999999V0200901N004619999999N009999199+03501+01701999999ADDGA1041+006711999GE19MSL   +99999+99999GF199999041999006711999999MA1101001999999REMMET051METAR SBUF 301900Z 09009KT 9999 SCT022 35/17 Q1010=
0142829860999992016043019454-09401-038251FM-16+026999999V0201001N005719999999N009999199+03301+01701999999ADDGA1021+006401999GE19MSL   +99999+99999GF199999021999006401999999MA1101101999999REMMET051SPECI SBUF 301945Z 10011KT 9999 FEW021 33/17 Q1011=
0142829860999992016050111154-09401-038251FM-16+026999999V0201301N003619999999N009999199+02601+02101999999ADDGA1041+005491999GE19MSL   +99999+99999GF199999041999005491999999MA1101701999999REMMET051SPECI SBUF 011115Z 13007KT 9999 SCT018 26/21 Q1017=
0142829860999992016050112004-09401-038251FM-15+026999999V0201101N004119999999N009999199+02801+02101999999ADDGA1021+006101999GE19MSL   +99999+99999GF199999021999006101999999MA1101701999999REMMET051METAR SBUF 011200Z 11008KT 9999 FEW020 28/21 Q1017=
0072829860999992016050113004-09401-038251FM-15+026999999V0201001N004119999999Y999999999+03001+01901999999ADDMA1101601999999REMMET045METAR SBUF 011300Z 10008KT CAVOK 30/19 Q1016=
0072829860999992016050114004-09401-038251FM-15+026999999V0201001N003619999999Y999999999+03201+01901999999ADDMA1101501999999REMMET045METAR SBUF 011400Z 10007KT CAVOK 32/19 Q1015=
0142829860999992016050115004-09401-038251FM-15+026999999V0201001N004119999999N009999199+03401+01701999999ADDGA1021+006101999GE19MSL   +99999+99999GF199999021999006101999999MA1101401999999REMMET051METAR SBUF 011500Z 10008KT 9999 FEW020 34/17 Q1014=
0142829860999992016050116004-09401-038251FM-15+026999999V0201001N004119999999N009999199+03601+01401999999ADDGA1021+006401999GE19MSL   +99999+99999GF199999021999006401999999MA1101201999999REMMET051METAR SBUF 011600Z 10008KT 9999 FEW021 36/14 Q1012=
0142829860999992016050117004-09401-038251FM-15+026999999V0201201N003619999999N009999199+03501+01401999999ADDGA1021+006401999GE19MSL   +99999+99999GF199999021999006401999999MA1101101999999REMMET051METAR SBUF 011700Z 12007KT 9999 FEW021 35/14 Q1011=
0142829860999992016050211154-09401-038251FM-16+026999999V0201201N004110054919N009999199+02701+02201999999ADDGA1071+005491999GE19MSL   +99999+99999GF199999071999005491999999MA1101701999999REMMET051SPECI SBUF 021115Z 12008KT 9999 BKN018 27/22 Q1017=
0165829860999992016050212004-09401-038251FM-15+026999999V0201201N004610070119N009999199+02701+02201999999ADDGA1041+005491999GA2071+007011999GE19MSL   +99999+99999GF199999041999005491999999MA1101701999999REMMET058METAR SBUF 021200Z 12009KT 9999 SCT018 BKN023 27/22 Q1017=
0142829860999992016050217004-09401-038251FM-15+026999999V0201301N003619999999N009999199+03401+02001999999ADDGA1021+006401999GE19MSL   +99999+99999GF199999021999006401999999MA1101201999999REMMET051METAR SBUF 021700Z 13007KT 9999 FEW021 34/20 Q1012=
0142829860999992016050218004-09401-038251FM-15+026999999V0201401N004619999999N009999199+03501+02001999999ADDGA1021+006401999GE19MSL   +99999+99999GF199999021999006401999999MA1101201999999REMMET051METAR SBUF 021800Z 14009KT 9999 FEW021 35/20 Q1012=
0142829860999992016050219004-09401-038251FM-15+026999999V0201101N005719999999N009999199+03401+02001999999ADDGA1021+006401999GE19MSL   +99999+99999GF199999021999006401999999MA1101201999999REMMET051METAR SBUF 021900Z 11011KT 9999 FEW021 34/20 Q1012=
0142829860999992016050219454-09401-038251FM-16+026999999V0201201N006219999999N009999199+03301+02001999999ADDGA1021+006101999GE19MSL   +99999+99999GF199999021999006101999999MA1101201999999REMMET051SPECI SBUF 021945Z 12012KT 9999 FEW020 33/20 Q1012=
0142829860999992016050313004-09401-038251FM-15+026999999V0201401N005110057919N009999199+03001+01901999999ADDGA1071+005791999GE19MSL   +99999+99999GF199999071999005791999999MA1101701999999REMMET051METAR SBUF 031300Z 14010KT 9999 BKN019 30/19 Q1017=
0142829860999992016050314004-09401-038251FM-15+026999999V0200901N004610057919N009999199+03101+01901999999ADDGA1071+005791999GE19MSL   +99999+99999GF199999071999005791999999MA1101601999999REMMET051METAR SBUF 031400Z 09009KT 9999 BKN019 31/19 Q1016=
0165829860999992016050315004-09401-038251FM-15+026999999V0201601N003110213419N009999199+03001+01901999999ADDGA1041+006101999GA2071+021341999GE19MSL   +99999+99999GF199999041999006101999999MA1101501999999REMMET058METAR SBUF 031500Z 16006KT 9999 SCT020 BKN070 30/19 Q1015=
0165829860999992016050316004-09401-038251FM-15+026999999V0201601N004110213419N009999199+03101+01801999999ADDGA1041+006101999GA2071+021341999GE19MSL   +99999+99999GF199999041999006101999999MA1101401999999REMMET058METAR SBUF 031600Z 16008KT 9999 SCT020 BKN070 31/18 Q1014=
0169829860999992016050317004-09401-038251FM-15+026999999V0201001N00411021341CN009999199+03201+01701999999ADDGA1041+006101999GA2041+021341999GE19MSL   +99999+99999GF199999041999006101999999REMMET058METAR SBUF 031700Z 10008KT 9999 SCT020 SCT070 32/17 Q1031=EQDQ011031  3APOA  
0165829860999992016050318004-09401-038251FM-15+026999999V0201301N004610213419N009999199+03201+01701999999ADDGA1041+006401999GA2071+021341999GE19MSL   +99999+99999GF199999041999006401999999MA1101301999999REMMET058METAR SBUF 031800Z 13009KT 9999 SCT021 BKN070 32/17 Q1013=
0165829860999992016050319004-09401-038251FM-15+026999999V0201301N004610213419N009999199+03101+01801999999ADDGA1021+006101999GA2071+021341999GE19MSL   +99999+99999GF199999021999006101999999MA1101301999999REMMET058METAR SBUF 031900Z 13009KT 9999 FEW020 BKN070 31/18 Q1013=
0165829860999992016050319454-09401-038251FM-16+026999999V0201601N004110064019N009999199+03001+01801999999ADDGA1071+006401999GA2071+021341999GE19MSL   +99999+99999GF199999071999006401999999MA1101301999999REMMET058SPECI SBUF 031945Z 16008KT 9999 BKN021 BKN070 30/18 Q1013=
0165829860999992016050320004-09401-038251FM-15+026999999V0201401N004110213419N009999199+03101+01701999999ADDGA1041+006711999GA2071+021341999GE19MSL   +99999+99999GF199999041999006711999999MA1101401999999REMMET058METAR SBUF 032000Z 14008KT 9999 SCT022 BKN070 31/17 Q1014=
0142829860999992016050320454-09401-038251FM-16+026999999V0201001N005710057919N009999199+03001+01701999999ADDGA1071+005791999GE19MSL   +99999+99999GF199999071999005791999999MA1101401999999REMMET051SPECI SBUF 032045Z 10011KT 9999 BKN019 30/17 Q1014=
0142829860999992016050411154-09401-038251FM-16+026999999V0201201N005719999999N009999199+02701+02001999999ADDGA1041+005491999GE19MSL   +99999+99999GF199999041999005491999999MA1101701999999REMMET051SPECI SBUF 041115Z 12011KT 9999 SCT018 27/20 Q1017=
0142829860999992016050412004-09401-038251FM-15+026999999V0201401N005719999999N009999199+02701+01901999999ADDGA1041+005491999GE19MSL   +99999+99999GF199999041999005491999999MA1101801999999REMMET051METAR SBUF 041200Z 14011KT 9999 SCT018 27/19 Q1018=
0142829860999992016050413004-09401-038251FM-15+026999999V0201201N004619999999N009999199+03001+01801999999ADDGA1041+006101999GE19MSL   +99999+99999GF199999041999006101999999MA1101701999999REMMET051METAR SBUF 041300Z 12009KT 9999 SCT020 30/18 Q1017=
0142829860999992016050415004-09401-038251FM-15+026999999V0201301N005719999999N009999199+03101+01601999999ADDGA1041+006401999GE19MSL   +99999+99999GF199999041999006401999999MA1101601999999REMMET051METAR SBUF 041500Z 13011KT 9999 SCT021 31/16 Q1016=
0142829860999992016050416004-09401-038251FM-15+026999999V0201001N004619999999N009999199+03301+01501999999ADDGA1041+006401999GE19MSL   +99999+99999GF199999041999006401999999MA1101401999999REMMET051METAR SBUF 041600Z 10009KT 9999 SCT021 33/15 Q1014=
0142829860999992016050417004-09401-038251FM-15+026999999V0201301N005719999999N009999199+03401+01301999999ADDGA1021+006401999GE19MSL   +99999+99999GF199999021999006401999999MA1101301999999REMMET051METAR SBUF 041700Z 13011KT 9999 FEW021 34/13 Q1013=
0142829860999992016050418004-09401-038251FM-15+026999999V0201601N005719999999N009999199+03301+01101999999ADDGA1041+006101999GE19MSL   +99999+99999GF199999041999006101999999MA1101301999999REMMET051METAR SBUF 041800Z 16011KT 9999 SCT020 33/11 Q1013=
0161829860999992016050911154-09401-038251FM-16+026999999V0201301N005719999999N009999199+99999+99999999999ADDGA1041+005791999GE19AGL   +99999+99999GF199999041999005791999999MA1101805999999REMMET051SPECI SBUF 091115Z 13011KT 9999 SCT019 ///// Q1018=EQDD01      0ADE693
0161829860999992016050912004-09401-038251FM-15+026999999V0201301N004619999999N009999199+99999+99999999999ADDGA1041+006101999GE19AGL   +99999+99999GF199999041999006101999999MA1101805999999REMMET051METAR SBUF 091200Z 13009KT 9999 SCT020 ///// Q1018=EQDD01      0ADE693
0161829860999992016050913004-09401-038251FM-15+026999999V0201001N005119999999N009999199+99999+99999999999ADDGA1041+006101999GE19AGL   +99999+99999GF199999041999006101999999MA1101805999999REMMET051METAR SBUF 091300Z 10010KT 9999 SCT020 ///// Q1018=EQDD01      0ADE693
0161829860999992016050914004-09401-038251FM-15+026999999V0201101N004119999999N009999199+99999+99999999999ADDGA1041+006101999GE19AGL   +99999+99999GF199999041999006101999999MA1101705999999REMMET051METAR SBUF 091400Z 11008KT 9999 SCT020 ///// Q1017=EQDD01      0ADE693
0142829860999992016050915004-09401-038251FM-15+026999999V0201401N005719999999N009999199+03301+99999999999ADDGA1041+006101999GE19MSL   +99999+99999GF199999041999006101999999MA1101501999999REMMET051METAR SBUF 091500Z 14011KT 9999 SCT020 33/// Q1015=
0142829860999992016050916004-09401-038251FM-15+026999999V0201301N004119999999N009999199+03201+99999999999ADDGA1041+006101999GE19MSL   +99999+99999GF199999041999006101999999MA1101501999999REMMET051METAR SBUF 091600Z 13008KT 9999 SCT020 32/// Q1015=
0142829860999992016050917004-09401-038251FM-15+026999999V0201401N006219999999N009999199+03301+99999999999ADDGA1041+006101999GE19MSL   +99999+99999GF199999041999006101999999MA1101401999999REMMET051METAR SBUF 091700Z 14012KT 9999 SCT020 33/// Q1014=
0142829860999992016050918004-09401-038251FM-15+026999999V0201201N006719999999N009999199+03201+99999999999ADDGA1041+006101999GE19MSL   +99999+99999GF199999041999006101999999MA1101401999999REMMET051METAR SBUF 091800Z 12013KT 9999 SCT020 32/// Q1014=
0184829860999992016050919004-09401-038251FM-15+026999999V0201201N00671021341CN009999199+99999+99999999999ADDGA1021+006101999GA2041+021341999GE19AGL   +99999+99999GF199999021999006101999999MA1101405999999REMMET058METAR SBUF 091900Z 12013KT 9999 FEW020 SCT070 ///// Q1014=EQDD01      0ADE693
0165829860999992016050919454-09401-038251FM-16+026999999V0201201N006710213419N009999199+02901+02001999999ADDGA1041+006101999GA2071+021341999GE19MSL   +99999+99999GF199999041999006101999999MA1101401999999REMMET058SPECI SBUF 091945Z 12013KT 9999 SCT020 BKN070 29/20 Q1014=
0142829860999992016051011154-09401-038251FM-16+026999999V0201501N003110051819N009999199+02501+02101999999ADDGA1071+005181999GE19MSL   +99999+99999GF199999071999005181999999MA1101801999999REMMET051SPECI SBUF 101115Z 15006KT 9999 BKN017 25/21 Q1018=
0165829860999992016051012004-09401-038251FM-15+026999999V0201501N003610213419N009999199+02701+02101999999ADDGA1041+005491999GA2071+021341999GE19MSL   +99999+99999GF199999041999005491999999MA1101801999999REMMET058METAR SBUF 101200Z 15007KT 9999 SCT018 BKN070 27/21 Q1018=
0142829860999992016051013004-09401-038251FM-15+026999999V0201101N004610057919N009999199+02901+02001999999ADDGA1071+005791999GE19MSL   +99999+99999GF199999071999005791999999MA1101701999999REMMET051METAR SBUF 101300Z 11009KT 9999 BKN019 29/20 Q1017=
0165829860999992016051014004-09401-038251FM-15+026999999V0201201N006210213419N009999199+02901+02101999999ADDGA1041+006101999GA2071+021341999GE19MSL   +99999+99999GF199999041999006101999999MA1101601999999REMMET058METAR SBUF 101400Z 12012KT 9999 SCT020 BKN070 29/21 Q1016=
0165829860999992016051015004-09401-038251FM-15+026999999V0201401N003610213419N009999199+02901+02101999999ADDGA1041+006101999GA2071+021341999GE19MSL   +99999+99999GF199999041999006101999999MA1101601999999REMMET058METAR SBUF 101500Z 14007KT 9999 SCT020 BKN070 29/21 Q1016=
0188829860999992016051017004-09401-038251FM-15+026999999V0201601N00361006101CN009999199+02901+02101999999ADDGA1021+005491999GA2041+006101999GA3071+021341999GE19MSL   +99999+99999GF199999021999005491999999MA1101401999999REMMET065METAR SBUF 101700Z 16007KT 9999 FEW018 SCT020 BKN070 29/21 Q1014=
0165829860999992016051018004-09401-038251FM-15+026999999V0201501N004610213419N009999199+02901+02101999999ADDGA1041+005491999GA2071+021341999GE19MSL   +99999+99999GF199999041999005491999999MA1101401999999REMMET058METAR SBUF 101800Z 15009KT 9999 SCT018 BKN070 29/21 Q1014=
0165829860999992016051019004-09401-038251FM-15+026999999V0201501N003610054919N009999199+02901+02101999999ADDGA1071+005491999GA2071+021341999GE19MSL   +99999+99999GF199999071999005491999999MA1101401999999REMMET058METAR SBUF 101900Z 15007KT 9999 BKN018 BKN070 29/21 Q1014=
0165829860999992016051019454-09401-038251FM-16+026999999V0201301N006210054919N009999199+02801+02201999999ADDGA1071+005491999GA2071+021341999GE19MSL   +99999+99999GF199999071999005491999999MA1101501999999REMMET058SPECI SBUF 101945Z 13012KT 9999 BKN018 BKN070 28/22 Q1015=
0142829860999992016051111154-09401-038251FM-16+026999999V0201001N004110051819N009999199+02501+02301999999ADDGA1071+005181999GE19MSL   +99999+99999GF199999071999005181999999MA1101801999999REMMET051SPECI SBUF 111115Z 10008KT 9999 BKN017 25/23 Q1018=
0142829860999992016051112004-09401-038251FM-15+026999999V0201201N004110048819N009999199+02701+02301999999ADDGA1071+004881999GE19MSL   +99999+99999GF199999071999004881999999MA1101801999999REMMET051METAR SBUF 111200Z 12008KT 9999 BKN016 27/23 Q1018=
0142829860999992016051113004-09401-038251FM-15+026999999V0201601N003610054919N009999199+02801+02201999999ADDGA1071+005491999GE19MSL   +99999+99999GF199999071999005491999999MA1101801999999REMMET051METAR SBUF 111300Z 16007KT 9999 BKN018 28/22 Q1018=
0142829860999992016051114004-09401-038251FM-15+026999999V0201001N003610054919N009999199+03101+02201999999ADDGA1071+005491999GE19MSL   +99999+99999GF199999071999005491999999MA1101701999999REMMET051METAR SBUF 111400Z 10007KT 9999 BKN018 31/22 Q1017=
0142829860999992016051115004-09401-038251FM-15+026999999V0201001N003110054919N009999199+03101+02101999999ADDGA1071+005491999GE19MSL   +99999+99999GF199999071999005491999999MA1101601999999REMMET051METAR SBUF 111500Z 10006KT 9999 BKN018 31/21 Q1016=
0165829860999992016051116004-09401-038251FM-15+026999999V0201501N00361024381CN009999199+03201+02101999999ADDGA1041+006101999GA2041+024381999GE19MSL   +99999+99999GF199999041999006101999999MA1101501999999REMMET058METAR SBUF 111600Z 15007KT 9999 SCT020 SCT080 32/21 Q1015=
0165829860999992016051117004-09401-038251FM-15+026999999V0201701N003110243819N009999199+03201+02101999999ADDGA1041+006101999GA2071+024381999GE19MSL   +99999+99999GF199999041999006101999999MA1101401999999REMMET058METAR SBUF 111700Z 17006KT 9999 SCT020 BKN080 32/21 Q1014=
0165829860999992016051118004-09401-038251FM-15+026999999V0201501N00311024381CN009999199+03201+02101999999ADDGA1041+006101999GA2041+024381999GE19MSL   +99999+99999GF199999041999006101999999MA1101301999999REMMET058METAR SBUF 111800Z 15006KT 9999 SCT020 SCT080 32/21 Q1013=
0142829860999992016051119004-09401-038251FM-15+026999999V0201201N003119999999N009999199+03201+02001999999ADDGA1021+006101999GE19MSL   +99999+99999GF199999021999006101999999MA1101301999999REMMET051METAR SBUF 111900Z 12006KT 9999 FEW020 32/20 Q1013=
0142829860999992016051119454-09401-038251FM-16+026999999V0201301N004119999999N009999199+03101+02101999999ADDGA1021+006101999GE19MSL   +99999+99999GF199999021999006101999999MA1101301999999REMMET051SPECI SBUF 111945Z 13008KT 9999 FEW020 31/21 Q1013=
0142829860999992016051211154-09401-038251FM-16+026999999V0200801N004110051819N009999199+02801+02101999999ADDGA1071+005181999GE19MSL   +99999+99999GF199999071999005181999999MA1101801999999REMMET051SPECI SBUF 121115Z 08008KT 9999 BKN017 28/21 Q1018=
0142829860999992016051212004-09401-038251FM-15+026999999V0201001N004610054919N009999199+03001+02001999999ADDGA1071+005491999GE19MSL   +99999+99999GF199999071999005491999999MA1101801999999REMMET051METAR SBUF 121200Z 10009KT 9999 BKN018 30/20 Q1018=
0142829860999992016051213004-09401-038251FM-15+026999999V0201101N004119999999N009999199+03101+02001999999ADDGA1041+006101999GE19MSL   +99999+99999GF199999041999006101999999MA1101801999999REMMET051METAR SBUF 121300Z 11008KT 9999 SCT020 31/20 Q1018=
0142829860999992016051214004-09401-038251FM-15+026999999V0201401N003610061019N009999199+03301+01901999999ADDGA1071+006101999GE19MSL   +99999+99999GF199999071999006101999999MA1101701999999REMMET051METAR SBUF 121400Z 14007KT 9999 BKN020 33/19 Q1017=
0142829860999992016051215004-09401-038251FM-15+026999999V0200901N002619999999N009999199+03401+01901999999ADDGA1021+006401999GE19MSL   +99999+99999GF199999021999006401999999MA1101601999999REMMET051METAR SBUF 121500Z 09005KT 9999 FEW021 34/19 Q1016=
0142829860999992016051216004-09401-038251FM-15+026999999V0201501N003119999999N009999199+03401+01801999999ADDGA1021+006401999GE19MSL   +99999+99999GF199999021999006401999999MA1101501999999REMMET051METAR SBUF 121600Z 15006KT 9999 FEW021 34/18 Q1015=
0142829860999992016051217004-09401-038251FM-15+026999999V0201401N003119999999N009999199+03401+01801999999ADDGA1041+006401999GE19MSL   +99999+99999GF199999041999006401999999MA1101401999999REMMET051METAR SBUF 121700Z 14006KT 9999 SCT021 34/18 Q1014=
0142829860999992016051218004-09401-038251FM-15+026999999V0201101N002119999999N009999199+03501+01601999999ADDGA1021+006401999GE19MSL   +99999+99999GF199999021999006401999999MA1101301999999REMMET051METAR SBUF 121800Z 11004KT 9999 FEW021 35/16 Q1013=
0142829860999992016051219004-09401-038251FM-15+026999999V0201601N002619999999N009999199+03501+01601999999ADDGA1021+006711999GE19MSL   +99999+99999GF199999021999006711999999MA1101301999999REMMET051METAR SBUF 121900Z 16005KT 9999 FEW022 35/16 Q1013=
0142829860999992016051219454-09401-038251FM-16+026999999V0201001N003119999999N009999199+03401+01601999999ADDGA1021+006401999GE19MSL   +99999+99999GF199999021999006401999999MA1101301999999REMMET051SPECI SBUF 121945Z 10006KT 9999 FEW021 34/16 Q1013=
0142829860999992016051220004-09401-038251FM-15+026999999V0201201N004119999999N009999199+03401+01601999999ADDGA1021+006401999GE19MSL   +99999+99999GF199999021999006401999999MA1101301999999REMMET051METAR SBUF 122000Z 12008KT 9999 FEW021 34/16 Q1013=
0142829860999992016051221004-09401-038251FM-15+026999999V0201001N003119999999N009999199+03101+01701999999ADDGA1021+006101999GE19MSL   +99999+99999GF199999021999006101999999MA1101401999999REMMET051METAR SBUF 122100Z 10006KT 9999 FEW020 31/17 Q1014=
0072829860999992016051221454-09401-038251FM-16+026999999V0201001N002619999999Y999999999+03101+01701999999ADDMA1101401999999REMMET045SPECI SBUF 122145Z 10005KT CAVOK 31/17 Q1014=
0142829860999992016051311154-09401-038251FM-16+026999999V0201101N003119999999N009999199+02801+02101999999ADDGA1041+005791999GE19MSL   +99999+99999GF199999041999005791999999MA1101901999999REMMET051SPECI SBUF 131115Z 11006KT 9999 SCT019 28/21 Q1019=
0142829860999992016051312004-09401-038251FM-15+026999999V0201001N003119999999N009999199+02901+02001999999ADDGA1041+006101999GE19MSL   +99999+99999GF199999041999006101999999MA1101901999999REMMET051METAR SBUF 131200Z 10006KT 9999 SCT020 29/20 Q1019=
0142829860999992016051313004-09401-038251FM-15+026999999V0201001N003119999999N009999199+03101+01901999999ADDGA1021+006101999GE19MSL   +99999+99999GF199999021999006101999999MA1101801999999REMMET051METAR SBUF 131300Z 10006KT 9999 FEW020 31/19 Q1018=
0142829860999992016051314004-09401-038251FM-15+026999999V0201601N002619999999N009999199+03201+01901999999ADDGA1041+006101999GE19MSL   +99999+99999GF199999041999006101999999MA1101801999999REMMET051METAR SBUF 131400Z 16005KT 9999 SCT020 32/19 Q1018=
0142829860999992016051315004-09401-038251FM-15+026999999V0201701N002619999999N009999199+03301+01801999999ADDGA1021+006401999GE19MSL   +99999+99999GF199999021999006401999999MA1101701999999REMMET051METAR SBUF 131500Z 17005KT 9999 FEW021 33/18 Q1017=
0142829860999992016051316004-09401-038251FM-15+026999999V0201801N002619999999N009999199+03401+01601999999ADDGA1021+006401999GE19MSL   +99999+99999GF199999021999006401999999MA1101601999999REMMET051METAR SBUF 131600Z 18005KT 9999 FEW021 34/16 Q1016=
0142829860999992016051317004-09401-038251FM-15+026999999V0201801N002119999999N009999199+03501+01501999999ADDGA1041+006711999GE19MSL   +99999+99999GF199999041999006711999999MA1101401999999REMMET051METAR SBUF 131700Z 18004KT 9999 SCT022 35/15 Q1014=
0142829860999992016051318004-09401-038251FM-15+026999999V0201801N002119999999N009999199+03501+01401999999ADDGA1041+006711999GE19MSL   +99999+99999GF199999041999006711999999MA1101401999999REMMET051METAR SBUF 131800Z 18004KT 9999 SCT022 35/14 Q1014=
0142829860999992016051319004-09401-038251FM-15+026999999V0201501N003119999999N009999199+03501+01301999999ADDGA1021+006711999GE19MSL   +99999+99999GF199999021999006711999999MA1101401999999REMMET051METAR SBUF 131900Z 15006KT 9999 FEW022 35/13 Q1014=
0142829860999992016051320004-09401-038251FM-15+026999999V0201401N002619999999N009999199+03301+01301999999ADDGA1021+006101999GE19MSL   +99999+99999GF199999021999006101999999MA1101401999999REMMET051METAR SBUF 132000Z 14005KT 9999 FEW020 33/13 Q1014=
0142829860999992016051320454-09401-038251FM-16+026999999V0201501N002119999999N009999199+03201+01501999999ADDGA1021+006101999GE19MSL   +99999+99999GF199999021999006101999999MA1101401999999REMMET051SPECI SBUF 132045Z 15004KT 9999 FEW020 32/15 Q1014=
0142829860999992016051411154-09401-038251FM-16+026999999V0201101N005710051819N009999199+02801+01901999999ADDGA1071+005181999GE19MSL   +99999+99999GF199999071999005181999999MA1102002999999REMMET051SPECI SBUF 141115Z 11011KT 9999 BKN017 28/19 Q1020=
0142829860999992016051412004-09401-038251FM-15+026999999V0201301N004619999999N009999199+02701+01901999999ADDGA1041+005491999GE19MSL   +99999+99999GF199999041999005491999999MA1101901999999REMMET051METAR SBUF 141200Z 13009KT 9999 SCT018 27/19 Q1019=
0142829860999992016051413004-09401-038251FM-15+026999999V0201601N004619999999N009999199+02901+01801999999ADDGA1041+006101999GE19MSL   +99999+99999GF199999041999006101999999MA1101901999999REMMET051METAR SBUF 141300Z 16009KT 9999 SCT020 29/18 Q1019=
0142829860999992016051414004-09401-038251FM-15+026999999V0201301N005119999999N009999199+03201+01801999999ADDGA1041+006401999GE19MSL   +99999+99999GF199999041999006401999999MA1101901999999REMMET051METAR SBUF 141400Z 13010KT 9999 SCT021 32/18 Q1019=
0142829860999992016051415004-09401-038251FM-15+026999999V0201401N005119999999N009999199+03301+01701999999ADDGA1021+006711999GE19MSL   +99999+99999GF199999021999006711999999MA1101701999999REMMET051METAR SBUF 141500Z 14010KT 9999 FEW022 33/17 Q1017=
0142829860999992016051416004-09401-038251FM-15+026999999V0201401N005119999999N009999199+03401+01501999999ADDGA1021+007011999GE19MSL   +99999+99999GF199999021999007011999999MA1101601999999REMMET051METAR SBUF 141600Z 14010KT 9999 FEW023 34/15 Q1016=
0142829860999992016051417004-09401-038251FM-15+026999999V0201501N005719999999N009999199+03401+01401999999ADDGA1021+007011999GE19MSL   +99999+99999GF199999021999007011999999MA1101501999999REMMET051METAR SBUF 141700Z 15011KT 9999 FEW023 34/14 Q1015=
0142829860999992016051418004-09401-038251FM-15+026999999V0201501N004619999999N009999199+03501+01401999999ADDGA1021+007011999GE19MSL   +99999+99999GF199999021999007011999999MA1101501999999REMMET051METAR SBUF 141800Z 15009KT 9999 FEW023 35/14 Q1015=
0142829860999992016051419004-09401-038251FM-15+026999999V0201401N005119999999N009999199+03401+01401999999ADDGA1021+006711999GE19MSL   +99999+99999GF199999021999006711999999MA1101501999999REMMET051METAR SBUF 141900Z 14010KT 9999 FEW022 34/14 Q1015=
0142829860999992016051419454-09401-038251FM-16+026999999V0201201N005119999999N009999199+03301+01501999999ADDGA1021+006401999GE19MSL   +99999+99999GF199999021999006401999999MA1101501999999REMMET051SPECI SBUF 141945Z 12010KT 9999 FEW021 33/15 Q1015=
0142829860999992016051511154-09401-038251FM-16+026999999V0201301N004610054919N009999199+02701+02001999999ADDGA1071+005491999GE19MSL   +99999+99999GF199999071999005491999999MA1101901999999REMMET051SPECI SBUF 151115Z 13009KT 9999 BKN018 27/20 Q1019=
0142829860999992016051512004-09401-038251FM-15+026999999V0201401N004110057919N009999199+02801+02001999999ADDGA1071+005791999GE19MSL   +99999+99999GF199999071999005791999999MA1101901999999REMMET051METAR SBUF 151200Z 14008KT 9999 BKN019 28/20 Q1019=
0142829860999992016051513004-09401-038251FM-15+026999999V0201501N004110057919N009999199+02901+02001999999ADDGA1071+005791999GE19MSL   +99999+99999GF199999071999005791999999MA1101801999999REMMET051METAR SBUF 151300Z 15008KT 9999 BKN019 29/20 Q1018=
0142829860999992016051514004-09401-038251FM-15+026999999V0201401N005710061019N009999199+03001+01901999999ADDGA1071+006101999GE19MSL   +99999+99999GF199999071999006101999999MA1101801999999REMMET051METAR SBUF 151400Z 14011KT 9999 BKN020 30/19 Q1018=
0142829860999992016051515004-09401-038251FM-15+026999999V0201401N004110061019N009999199+03101+01901999999ADDGA1071+006101999GE19MSL   +99999+99999GF199999071999006101999999MA1101701999999REMMET051METAR SBUF 151500Z 14008KT 9999 BKN020 31/19 Q1017=
0142829860999992016051516004-09401-038251FM-15+026999999V0201101N005110061019N009999199+03401+01801999999ADDGA1071+006101999GE19MSL   +99999+99999GF199999071999006101999999MA1101601999999REMMET051METAR SBUF 151600Z 11010KT 9999 BKN020 34/18 Q1016=
0165829860999992016051517004-09401-038251FM-15+026999999V0201201N003610061019N009999199+03201+01801999999ADDGA1071+006101999GA2071+021341999GE19MSL   +99999+99999GF199999071999006101999999MA1101501999999REMMET058METAR SBUF 151700Z 12007KT 9999 BKN020 BKN070 32/18 Q1015=
0165829860999992016051518004-09401-038251FM-15+026999999V0201101N00511021341CN009999199+03201+01801999999ADDGA1041+006101999GA2041+021341999GE19MSL   +99999+99999GF199999041999006101999999MA1101501999999REMMET058METAR SBUF 151800Z 11010KT 9999 SCT020 SCT070 32/18 Q1015=
0165829860999992016051519004-09401-038251FM-15+026999999V0201101N004610213419N009999199+03101+01901999999ADDGA1041+006101999GA2071+021341999GE19MSL   +99999+99999GF199999041999006101999999MA1101501999999REMMET058METAR SBUF 151900Z 11009KT 9999 SCT020 BKN070 31/19 Q1015=
0165829860999992016051519454-09401-038251FM-16+026999999V0201501N00571021341CN009999199+03001+02001999999ADDGA1041+006101999GA2041+021341999GE19MSL   +99999+99999GF199999041999006101999999MA1101501999999REMMET058SPECI SBUF 151945Z 15011KT 9999 SCT020 SCT070 30/20 Q1015=
0188829860999992016051611154-09401-038251FM-16+026999999V0201001N00411003351CN009999199+02301+02301999999ADDGA1021+002131999GA2041+003351999GA3071+021341999GE19MSL   +99999+99999GF199999021999002131999999MA1102002999999REMMET065SPECI SBUF 161115Z 10008KT 9999 FEW007 SCT011 BKN070 23/23 Q1020=
0165829860999992016051612004-09401-038251FM-15+026999999V0201001N003610213419N009999199+02501+02201999999ADDGA1041+003661999GA2071+021341999GE19MSL   +99999+99999GF199999041999003661999999MA1102002999999REMMET058METAR SBUF 161200Z 10007KT 9999 SCT012 BKN070 25/22 Q1020=
0165829860999992016051614004-09401-038251FM-15+026999999V0200801N002610213419N009999199+02601+02201999999ADDGA1041+004881999GA2071+021341999GE19MSL   +99999+99999GF199999041999004881999999MA1101901999999REMMET058METAR SBUF 161400Z 08005KT 9999 SCT016 BKN070 26/22 Q1019=
0165829860999992016051615004-09401-038251FM-15+026999999V0200901N003110213419N009999199+02701+02101999999ADDGA1041+005491999GA2071+021341999GE19MSL   +99999+99999GF199999041999005491999999MA1101801999999REMMET058METAR SBUF 161500Z 09006KT 9999 SCT018 BKN070 27/21 Q1018=
0165829860999992016051616004-09401-038251FM-15+026999999V0200801N00211027431CN009999199+03001+02101999999ADDGA1021+006101999GA2041+027431999GE19MSL   +99999+99999GF199999021999006101999999MA1101701999999REMMET058METAR SBUF 161600Z 08004KT 9999 FEW020 SCT090 30/21 Q1017=
0165829860999992016051617004-09401-038251FM-15+026999999V0200901N003610274319N009999199+03101+02001999999ADDGA1041+006101999GA2071+027431999GE19MSL   +99999+99999GF199999041999006101999999MA1101601999999REMMET058METAR SBUF 161700Z 09007KT 9999 SCT020 BKN090 31/20 Q1016=
0191829860999992016051618004-09401-038251FM-15+026999999V0201801N00311006401CN009999199+03001+02101999999ADDGA1021+006101999GA2041+006401081GA3071+027431999GE19MSL   +99999+99999GF199999021999006101999999MA1101501999999REMMET068METAR SBUF 161800Z 18006KT 9999 FEW020 SCT021TCU BKN090 30/21 Q1015=
0142829860999992016051619004-09401-038251FM-15+026999999V0200401N003119999999N009999199+02801+02301999999ADDGA1041+006101999GE19MSL   +99999+99999GF199999041999006101999999MA1101601999999REMMET051METAR SBUF 161900Z 04006KT 9999 SCT020 28/23 Q1016=
0168829860999992016051619454-09401-038251FM-16+026999999V0200701N002610243819N009999199+02701+02301999999ADDGA1041+006101081GA2071+024381999GE19MSL   +99999+99999GF199999041999006101999999MA1101601999999REMMET061SPECI SBUF 161945Z 07005KT 9999 SCT020TCU BKN080 27/23 Q1016=
0165829860999992016051711154-09401-038251FM-16+026999999V0200601N00261024381CN009999199+02601+02101999999ADDGA1021+005491999GA2041+024381999GE19MSL   +99999+99999GF199999021999005491999999MA1101801999999REMMET058SPECI SBUF 171115Z 06005KT 9999 FEW018 SCT080 26/21 Q1018=
0142829860999992016051712004-09401-038251FM-15+026999999V0201501N003619999999N009999199+02801+02001999999ADDGA1021+005791999GE19MSL   +99999+99999GF199999021999005791999999MA1101801999999REMMET051METAR SBUF 171200Z 15007KT 9999 FEW019 28/20 Q1018=
0142829860999992016051713004-09401-038251FM-15+026999999V0201101N004119999999N009999199+03001+02001999999ADDGA1021+006101999GE19MSL   +99999+99999GF199999021999006101999999MA1101701999999REMMET051METAR SBUF 171300Z 11008KT 9999 FEW020 30/20 Q1017=
0142829860999992016051714004-09401-038251FM-15+026999999V0200701N003119999999N009999199+03101+01901999999ADDGA1021+006101999GE19MSL   +99999+99999GF199999021999006101999999MA1101601999999REMMET051METAR SBUF 171400Z 07006KT 9999 FEW020 31/19 Q1016=
0142829860999992016051715004-09401-038251FM-15+026999999V0201601N004119999999N009999199+03201+02001999999ADDGA1021+006101999GE19MSL   +99999+99999GF199999021999006101999999MA1101501999999REMMET051METAR SBUF 171500Z 16008KT 9999 FEW020 32/20 Q1015=
0142829860999992016051716004-09401-038251FM-15+026999999V0201501N004119999999N009999199+03301+01901999999ADDGA1021+006711999GE19MSL   +99999+99999GF199999021999006711999999MA1101401999999REMMET051METAR SBUF 171600Z 15008KT 9999 FEW022 33/19 Q1014=
0142829860999992016051717004-09401-038251FM-15+026999999V0201201N003619999999N009999199+03401+01701999999ADDGA1021+006711999GE19MSL   +99999+99999GF199999021999006711999999MA1101301999999REMMET051METAR SBUF 171700Z 12007KT 9999 FEW022 34/17 Q1013=
0142829860999992016051718004-09401-038251FM-15+026999999V0201201N004119999999N009999199+03401+01601999999ADDGA1021+006711999GE19MSL   +99999+99999GF199999021999006711999999MA1101201999999REMMET051METAR SBUF 171800Z 12008KT 9999 FEW022 34/16 Q1012=
0142829860999992016051719004-09401-038251FM-15+026999999V0201001N003619999999N009999199+03401+01601999999ADDGA1021+006711999GE19MSL   +99999+99999GF199999021999006711999999MA1101301999999REMMET051METAR SBUF 171900Z 10007KT 9999 FEW022 34/16 Q1013=
0142829860999992016051720004-09401-038251FM-15+026999999V0200901N003619999999N009999199+03201+01701999999ADDGA1021+007011999GE19MSL   +99999+99999GF199999021999007011999999MA1101301999999REMMET051METAR SBUF 172000Z 09007KT 9999 FEW023 32/17 Q1013=
0142829860999992016051720454-09401-038251FM-16+026999999V0200901N003119999999N009999199+03101+01701999999ADDGA1021+007011999GE19MSL   +99999+99999GF199999021999007011999999MA1101301999999REMMET051SPECI SBUF 172045Z 09006KT 9999 FEW023 31/17 Q1013=
0142829860999992016051811154-09401-038251FM-16+026999999V0201301N003119999999N009999199+02601+02101999999ADDGA1021+005491999GE19MSL   +99999+99999GF199999021999005491999999MA1101701999999REMMET051SPECI SBUF 181115Z 13006KT 9999 FEW018 26/21 Q1017=
0142829860999992016051812004-09401-038251FM-15+026999999V0201401N003119999999N009999199+02801+02101999999ADDGA1021+005791999GE19MSL   +99999+99999GF199999021999005791999999MA1101701999999REMMET051METAR SBUF 181200Z 14006KT 9999 FEW019 28/21 Q1017=
0072829860999992016051813004-09401-038251FM-15+026999999V0201301N003619999999Y999999999+03001+01801999999ADDMA1101701999999REMMET045METAR SBUF 181300Z 13007KT CAVOK 30/18 Q1017=
0072829860999992016051814004-09401-038251FM-15+026999999V0201201N002619999999Y999999999+03201+01801999999ADDMA1101601999999REMMET045METAR SBUF 181400Z 12005KT CAVOK 32/18 Q1016=
0142829860999992016051815004-09401-038251FM-15+026999999V0201201N002119999999N009999199+03401+01601999999ADDGA1021+006101999GE19MSL   +99999+99999GF199999021999006101999999MA1101401999999REMMET051METAR SBUF 181500Z 12004KT 9999 FEW020 34/16 Q1014=
0142829860999992016051816004-09401-038251FM-15+026999999V0200801N004119999999N009999199+03501+01401999999ADDGA1021+006711999GE19MSL   +99999+99999GF199999021999006711999999MA1101301999999REMMET051METAR SBUF 181600Z 08008KT 9999 FEW022 35/14 Q1013=
0142829860999992016051817004-09401-038251FM-15+026999999V0200801N003119999999N009999199+03601+01301999999ADDGA1021+006711999GE19MSL   +99999+99999GF199999021999006711999999MA1101201999999REMMET051METAR SBUF 181700Z 08006KT 9999 FEW022 36/13 Q1012=
0142829860999992016051818004-09401-038251FM-15+026999999V0201301N004119999999N009999199+03501+01201999999ADDGA1021+006711999GE19MSL   +99999+99999GF199999021999006711999999MA1101201999999REMMET051METAR SBUF 181800Z 13008KT 9999 FEW022 35/12 Q1012=
0142829860999992016051819004-09401-038251FM-15+026999999V0201301N002619999999N009999199+03501+01301999999ADDGA1021+006711999GE19MSL   +99999+99999GF199999021999006711999999MA1101201999999REMMET051METAR SBUF 181900Z 13005KT 9999 FEW022 35/13 Q1012=
0142829860999992016051819454-09401-038251FM-16+026999999V0200901N003619999999N009999199+03401+01301999999ADDGA1021+006711999GE19MSL   +99999+99999GF199999021999006711999999MA1101201999999REMMET051SPECI SBUF 181945Z 09007KT 9999 FEW022 34/13 Q1012=
0142829860999992016051912004-09401-038251FM-15+026999999V0201201N004610057919N009999199+02701+02001999999ADDGA1071+005791999GE19MSL   +99999+99999GF199999071999005791999999MA1101901999999REMMET051METAR SBUF 191200Z 12009KT 9999 BKN019 27/20 Q1019=
0072829860999992016051916004-09401-038251FM-15+026999999V0201001N005119999999Y999999999+03401+01501999999ADDMA1101501999999REMMET045METAR SBUF 191600Z 10010KT CAVOK 34/15 Q1015=
0072829860999992016051917004-09401-038251FM-15+026999999V0201301N005119999999Y999999999+03401+01301999999ADDMA1101401999999REMMET045METAR SBUF 191700Z 13010KT CAVOK 34/13 Q1014=
0072829860999992016051918004-09401-038251FM-15+026999999V0201201N004619999999Y999999999+03501+01301999999ADDMA1101301999999REMMET045METAR SBUF 191800Z 12009KT CAVOK 35/13 Q1013=
0072829860999992016051919004-09401-038251FM-15+026999999V0201201N005119999999Y999999999+03301+01401999999ADDMA1101301999999REMMET045METAR SBUF 191900Z 12010KT CAVOK 33/14 Q1013=
0072829860999992016051919454-09401-038251FM-16+026999999V0201101N005119999999Y999999999+03301+01501999999ADDMA1101301999999REMMET045SPECI SBUF 191945Z 11010KT CAVOK 33/15 Q1013=
0142829860999992016052011154-09401-038251FM-16+026999999V0201401N003610051819N009999199+02601+02001999999ADDGA1071+005181999GE19MSL   +99999+99999GF199999071999005181999999MA1102002999999REMMET051SPECI SBUF 201115Z 14007KT 9999 BKN017 26/20 Q1020=
0142829860999992016052012004-09401-038251FM-15+026999999V0201101N004610057919N009999199+02801+01901999999ADDGA1071+005791999GE19MSL   +99999+99999GF199999071999005791999999MA1102002999999REMMET051METAR SBUF 201200Z 11009KT 9999 BKN019 28/19 Q1020=
0142829860999992016052013004-09401-038251FM-15+026999999V0201201N004619999999N009999199+02901+01801999999ADDGA1041+006101999GE19MSL   +99999+99999GF199999041999006101999999MA1102002999999REMMET051METAR SBUF 201300Z 12009KT 9999 SCT020 29/18 Q1020=
0142829860999992016052014004-09401-038251FM-15+026999999V0201101N004619999999N009999199+03201+01601999999ADDGA1041+006101999GE19MSL   +99999+99999GF199999041999006101999999MA1101901999999REMMET051METAR SBUF 201400Z 11009KT 9999 SCT020 32/16 Q1019=
0142829860999992016052015004-09401-038251FM-15+026999999V0201101N004119999999N009999199+03201+01601999999ADDGA1041+006401999GE19MSL   +99999+99999GF199999041999006401999999MA1101801999999REMMET051METAR SBUF 201500Z 11008KT 9999 SCT021 32/16 Q1018=
0142829860999992016052016004-09401-038251FM-15+026999999V0201301N005119999999N009999199+03101+01601999999ADDGA1041+006401999GE19MSL   +99999+99999GF199999041999006401999999MA1101601999999REMMET051METAR SBUF 201600Z 13010KT 9999 SCT021 31/16 Q1016=
0142829860999992016052017004-09401-038251FM-15+026999999V0201101N003619999999N009999199+03301+01501999999ADDGA1041+006711999GE19MSL   +99999+99999GF199999041999006711999999MA1101501999999REMMET051METAR SBUF 201700Z 11007KT 9999 SCT022 33/15 Q1015=
0142829860999992016052018004-09401-038251FM-15+026999999V0201001N005719999999N009999199+03301+01401999999ADDGA1041+006711999GE19MSL   +99999+99999GF199999041999006711999999MA1101501999999REMMET051METAR SBUF 201800Z 10011KT 9999 SCT022 33/14 Q1015=
0142829860999992016052019004-09401-038251FM-15+026999999V0200901N004119999999N009999199+03301+01301999999ADDGA1041+006711999GE19MSL   +99999+99999GF199999041999006711999999MA1101501999999REMMET051METAR SBUF 201900Z 09008KT 9999 SCT022 33/13 Q1015=
0142829860999992016052019454-09401-038251FM-16+026999999V0201101N004619999999N009999199+03201+01301999999ADDGA1021+006711999GE19MSL   +99999+99999GF199999021999006711999999MA1101501999999REMMET051SPECI SBUF 201945Z 11009KT 9999 FEW022 32/13 Q1015=
0142829860999992016052111154-09401-038251FM-16+026999999V0201401N003619999999N009999199+02601+02001999999ADDGA1041+005491999GE19MSL   +99999+99999GF199999041999005491999999MA1102002999999REMMET051SPECI SBUF 211115Z 14007KT 9999 SCT018 26/20 Q1020=
0142829860999992016052112004-09401-038251FM-15+026999999V0201401N003619999999N009999199+02801+01901999999ADDGA1041+005791999GE19MSL   +99999+99999GF199999041999005791999999MA1102002999999REMMET051METAR SBUF 211200Z 14007KT 9999 SCT019 28/19 Q1020=
0142829860999992016052113004-09401-038251FM-15+026999999V0201001N003119999999N009999199+03101+01801999999ADDGA1041+006101999GE19MSL   +99999+99999GF199999041999006101999999MA1102002999999REMMET051METAR SBUF 211300Z 10006KT 9999 SCT020 31/18 Q1020=
0142829860999992016052114004-09401-038251FM-15+026999999V0201401N002619999999N009999199+03001+01801999999ADDGA1041+006101999GE19MSL   +99999+99999GF199999041999006101999999MA1101901999999REMMET051METAR SBUF 211400Z 14005KT 9999 SCT020 30/18 Q1019=
0142829860999992016052115004-09401-038251FM-15+026999999V0201501N003619999999N009999199+03201+01801999999ADDGA1041+006101999GE19MSL   +99999+99999GF199999041999006101999999MA1101701999999REMMET051METAR SBUF 211500Z 15007KT 9999 SCT020 32/18 Q1017=
0142829860999992016052116004-09401-038251FM-15+026999999V0200901N004619999999N009999199+03401+01601999999ADDGA1041+006711999GE19MSL   +99999+99999GF199999041999006711999999MA1101601999999REMMET051METAR SBUF 211600Z 09009KT 9999 SCT022 34/16 Q1016=
0142829860999992016052117004-09401-038251FM-15+026999999V0201401N003619999999N009999199+03301+01601999999ADDGA1041+006711999GE19MSL   +99999+99999GF199999041999006711999999MA1101501999999REMMET051METAR SBUF 211700Z 14007KT 9999 SCT022 33/16 Q1015=
0142829860999992016052118004-09401-038251FM-15+026999999V0201601N004119999999N009999199+03401+01601999999ADDGA1041+007011999GE19MSL   +99999+99999GF199999041999007011999999MA1101401999999REMMET051METAR SBUF 211800Z 16008KT 9999 SCT023 34/16 Q1014=
0142829860999992016052119004-09401-038251FM-15+026999999V0201301N003619999999N009999199+03301+01501999999ADDGA1041+007011999GE19MSL   +99999+99999GF199999041999007011999999MA1101401999999REMMET051METAR SBUF 211900Z 13007KT 9999 SCT023 33/15 Q1014=
0142829860999992016052119454-09401-038251FM-16+026999999V0201001N003119999999N009999199+03201+01401999999ADDGA1041+007011999GE19MSL   +99999+99999GF199999041999007011999999MA1101501999999REMMET051SPECI SBUF 211945Z 10006KT 9999 SCT023 32/14 Q1015=
0142829860999992016052211154-09401-038251FM-16+026999999V0201001N003119999999N009999199+02601+02001999999ADDGA1021+005791999GE19MSL   +99999+99999GF199999021999005791999999MA1102002999999REMMET051SPECI SBUF 221115Z 10006KT 9999 FEW019 26/20 Q1020=
0142829860999992016052212004-09401-038251FM-15+026999999V0201201N003619999999N009999199+02801+01901999999ADDGA1021+005791999GE19MSL   +99999+99999GF199999021999005791999999MA1102002999999REMMET051METAR SBUF 221200Z 12007KT 9999 FEW019 28/19 Q1020=
0142829860999992016052213004-09401-038251FM-15+026999999V0201101N004619999999N009999199+03001+01701999999ADDGA1021+006101999GE19MSL   +99999+99999GF199999021999006101999999MA1101901999999REMMET051METAR SBUF 221300Z 11009KT 9999 FEW020 30/17 Q1019=
0142829860999992016052214004-09401-038251FM-15+026999999V0201501N004119999999N009999199+03101+01701999999ADDGA1021+006101999GE19MSL   +99999+99999GF199999021999006101999999MA1101801999999REMMET051METAR SBUF 221400Z 15008KT 9999 FEW020 31/17 Q1018=
0142829860999992016052215004-09401-038251FM-15+026999999V0201201N004119999999N009999199+03301+01601999999ADDGA1021+006101999GE19MSL   +99999+99999GF199999021999006101999999MA1101701999999REMMET051METAR SBUF 221500Z 12008KT 9999 FEW020 33/16 Q1017=
0142829860999992016052216004-09401-038251FM-15+026999999V0201201N004619999999N009999199+03401+01401999999ADDGA1021+006101999GE19MSL   +99999+99999GF199999021999006101999999MA1101601999999REMMET051METAR SBUF 221600Z 12009KT 9999 FEW020 34/14 Q1016=
0142829860999992016052217004-09401-038251FM-15+026999999V0201301N004119999999N009999199+03401+01401999999ADDGA1021+006101999GE19MSL   +99999+99999GF199999021999006101999999MA1101501999999REMMET051METAR SBUF 221700Z 13008KT 9999 FEW020 34/14 Q1015=
0142829860999992016052218004-09401-038251FM-15+026999999V0201201N003619999999N009999199+03401+01401999999ADDGA1021+006401999GE19MSL   +99999+99999GF199999021999006401999999MA1101401999999REMMET051METAR SBUF 221800Z 12007KT 9999 FEW021 34/14 Q1014=
0142829860999992016052219004-09401-038251FM-15+026999999V0201001N004619999999N009999199+03401+01501999999ADDGA1041+006401999GE19MSL   +99999+99999GF199999041999006401999999MA1101401999999REMMET051METAR SBUF 221900Z 10009KT 9999 SCT021 34/15 Q1014=
0142829860999992016052219454-09401-038251FM-16+026999999V0200901N004119999999N009999199+03301+01401999999ADDGA1021+006101999GE19MSL   +99999+99999GF199999021999006101999999MA1101501999999REMMET051SPECI SBUF 221945Z 09008KT 9999 FEW020 33/14 Q1015=
0165829860999992016052311154-09401-038251FM-16+026999999V0201001N001010039619N009999199+02501+02301999999ADDGA1071+003961999GA2071+005181999GE19MSL   +99999+99999GF199999071999003961999999MA1101901999999REMMET058SPECI SBUF 231115Z 10002KT 9999 BKN013 BKN017 25/23 Q1019=
0165829860999992016052312004-09401-038251FM-15+026999999V0200801N001510045719N009999199+02601+02201999999ADDGA1071+004571999GA2071+005491999GE19MSL   +99999+99999GF199999071999004571999999MA1102002999999REMMET058METAR SBUF 231200Z 08003KT 9999 BKN015 BKN018 26/22 Q1020=
0165829860999992016052313004-09401-038251FM-15+026999999V0201001N004610213419N009999199+02701+02301999999ADDGA1041+004881999GA2081+021341999GE19MSL   +99999+99999GF199999041999004881999999MA1101901999999REMMET058METAR SBUF 231300Z 10009KT 9999 SCT016 OVC070 27/23 Q1019=
0165829860999992016052314004-09401-038251FM-15+026999999V0200601N003610213419N009999199+02901+02201999999ADDGA1041+004881999GA2081+021341999GE19MSL   +99999+99999GF199999041999004881999999MA1101901999999REMMET058METAR SBUF 231400Z 06007KT 9999 SCT016 OVC070 29/22 Q1019=
0176829860999992016052315004-09401-038251FM-15+026999999V0201201N003610213419N009999199+02701+02201999999ADDGA1041+004881999GA2081+021341999GE19MSL   +99999+99999GF199999041999004881999999MA1101801999999MW1161REMMET063METAR SBUF 231500Z 12007KT 9999 VCSH SCT016 OVC070 27/22 Q1018=
0184829860999992016052315104-09401-038251FM-16+026999999V0201701N003110213419N002000199+02501+02401999999ADDGA1041+004571999GA2081+021341999GE19MSL   +99999+99999GF199999041999004571999999MA1101801999999MW1101MW2611REMMET065SPECI SBUF 231510Z 17006KT 2000 -RA BR SCT015 OVC070 25/24 Q1018=
0176829860999992016052316004-09401-038251FM-15+026999999V0203601N002110045719N009999199+02801+02201999999ADDGA1071+004571999GA2071+021341999GE19MSL   +99999+99999GF199999071999004571999999MA1101701999999MW1161REMMET063METAR SBUF 231600Z 36004KT 9999 VCSH BKN015 BKN070 28/22 Q1017=
0165829860999992016052317004-09401-038251FM-15+026999999V0201901N003610048819N009999199+02701+02301999999ADDGA1071+004881999GA2071+021341999GE19MSL   +99999+99999GF199999071999004881999999MA1101601999999REMMET058METAR SBUF 231700Z 19007KT 9999 BKN016 BKN070 27/23 Q1016=
0188829860999992016052318004-09401-038251FM-15+026999999V0201401N003110213419N003000199+02501+02401999999ADDGA1041+004881999GA2081+021341999GE19MSL   +99999+99999GF199999041999004881999999MW1101MW2611REMMET065METAR SBUF 231800Z 14006KT 3000 -RA BR SCT016 OVC070 25/24 Q1011=EQDQ011011  3APOA  
0184829860999992016052318104-09401-038251FM-16+026999999V0201201N003110042719N001000199+02401+02401999999ADDGA1071+004271999GA2071+021341999GE19MSL   +99999+99999GF199999071999004271999999MA1101601999999MW1101MW2651REMMET065SPECI SBUF 231810Z 12006KT 1000 +RA BR BKN014 BKN070 24/24 Q1016=
0170829860999992016052319004-09401-038251FM-15+026999999V0202301N002110042719N009999199+02401+02401999999ADDGA1071+004271999GA2071+021341999GE19MSL   +99999+99999GF199999071999004271999999MA1101601999999REMMET063METAR SBUF 231900Z 23004KT 9999 BKN014 BKN070 24/24 Q1016 RERA=
0165829860999992016052319454-09401-038251FM-16+026999999V0202001N001510042719N009999199+02501+02501999999ADDGA1071+004271999GA2071+021341999GE19MSL   +99999+99999GF199999071999004271999999MA1101701999999REMMET058SPECI SBUF 231945Z 20003KT 9999 BKN014 BKN070 25/25 Q1017=
0165829860999992016052411154-09401-038251FM-16+026999999V0201201N003110024419N009999199+02501+02401999999ADDGA1071+002441999GA2071+021341999GE19MSL   +99999+99999GF199999071999002441999999MA1101901999999REMMET058SPECI SBUF 241115Z 12006KT 9999 BKN008 BKN070 25/24 Q1019=
0188829860999992016052412004-09401-038251FM-15+026999999V0201301N00361003351CN009999199+02601+02501999999ADDGA1021+002441999GA2041+003351999GA3071+021341999GE19MSL   +99999+99999GF199999021999002441999999MA1102001999999REMMET065METAR SBUF 241200Z 13007KT 9999 FEW008 SCT011 BKN070 26/25 Q1020=
0165829860999992016052413004-09401-038251FM-15+026999999V0201301N003110213419N009999199+02901+02401999999ADDGA1041+004271999GA2071+021341999GE19MSL   +99999+99999GF199999041999004271999999MA1101901999999REMMET058METAR SBUF 241300Z 13006KT 9999 SCT014 BKN070 29/24 Q1019=
0165829860999992016052414004-09401-038251FM-15+026999999V0201501N002610213419N009999199+03001+02301999999ADDGA1041+005181999GA2071+021341999GE19MSL   +99999+99999GF199999041999005181999999MA1101901999999REMMET058METAR SBUF 241400Z 15005KT 9999 SCT017 BKN070 30/23 Q1019=
0142829860999992016052415004-09401-038251FM-15+026999999V0201501N002110057919N009999199+03101+02301999999ADDGA1071+005791999GE19MSL   +99999+99999GF199999071999005791999999MA1101801999999REMMET051METAR SBUF 241500Z 15004KT 9999 BKN019 31/23 Q1018=
0142829860999992016052416004-09401-038251FM-15+026999999V0201801N003119999999N009999199+03201+02201999999ADDGA1021+006101999GE19MSL   +99999+99999GF199999021999006101999999MA1101601999999REMMET051METAR SBUF 241600Z 18006KT 9999 FEW020 32/22 Q1016=
0165829860999992016052418004-09401-038251FM-15+026999999V0201501N00411024381CN009999199+03201+02101999999ADDGA1021+006101999GA2041+024381999GE19MSL   +99999+99999GF199999021999006101999999MA1101501999999REMMET058METAR SBUF 241800Z 15008KT 9999 FEW020 SCT080 32/21 Q1015=
0168829860999992016052419004-09401-038251FM-15+026999999V0201301N00511024381CN009999199+03301+02201999999ADDGA1021+006401081GA2041+024381999GE19MSL   +99999+99999GF199999021999006401999999MA1101501999999REMMET061METAR SBUF 241900Z 13010KT 9999 FEW021TCU SCT080 33/22 Q1015=
0145829860999992016052419454-09401-038251FM-16+026999999V0201001N006719999999N009999199+03001+02301999999ADDGA1041+006101081GE19MSL   +99999+99999GF199999041999006101999999MA1101501999999REMMET054SPECI SBUF 241945Z 10013KT 9999 SCT020TCU 30/23 Q1015=
0165829860999992016052511154-09401-038251FM-16+026999999V0201701N003610213419N009999199+02301+02201999999ADDGA1041+003661999GA2071+021341999GE19MSL   +99999+99999GF199999041999003661999999MA1102102999999REMMET058SPECI SBUF 251115Z 17007KT 9999 SCT012 BKN070 23/22 Q1021=
0166829860999992016052512004-09401-038251FM-15+026999999V0209999N999990213419N009999199+02501+02201999999ADDGA1021+003961999GA2071+021341999GE19MSL   +99999+99999GF199999021999003961999999MA1102001999999REMMET059METAR SBUF 251200Z 160101KT 9999 FEW013 BKN070 25/22 Q1020=
0165829860999992016052513004-09401-038251FM-15+026999999V0201601N004610213419N009999199+02601+02101999999ADDGA1041+004571999GA2071+021341999GE19MSL   +99999+99999GF199999041999004571999999MA1102001999999REMMET058METAR SBUF 251300Z 16009KT 9999 SCT015 BKN070 26/21 Q1020=
0165829860999992016052514004-09401-038251FM-15+026999999V0201001N004110213419N009999199+02401+02201999999ADDGA1041+004571999GA2071+021341999GE19MSL   +99999+99999GF199999041999004571999999MA1101901999999REMMET058METAR SBUF 251400Z 10008KT 9999 SCT015 BKN070 24/22 Q1019=
0165829860999992016052516004-09401-038251FM-15+026999999V0201601N005710243819N009999199+02801+02001999999ADDGA1041+005491999GA2071+024381999GE19MSL   +99999+99999GF199999041999005491999999MA1101801999999REMMET058METAR SBUF 251600Z 16011KT 9999 SCT018 BKN080 28/20 Q1018=
0165829860999992016052517004-09401-038251FM-15+026999999V0201701N005110243819N009999199+02801+02001999999ADDGA1041+005491999GA2071+024381999GE19MSL   +99999+99999GF199999041999005491999999MA1101701999999REMMET058METAR SBUF 251700Z 17010KT 9999 SCT018 BKN080 28/20 Q1017=
0165829860999992016052518004-09401-038251FM-15+026999999V0201501N005710057919N009999199+02801+02101999999ADDGA1071+005791999GA2071+024381999GE19MSL   +99999+99999GF199999071999005791999999MA1101601999999REMMET058METAR SBUF 251800Z 15011KT 9999 BKN019 BKN080 28/21 Q1016=
0152829860999992016052518204-09401-038251FM-16+026999999V0201501N006710042719N002000199+02501+02201999999ADDGA1081+004271999GE19MSL   +99999+99999GF199999081999004271999999MA1101701999999MW1611REMMET055SPECI SBUF 251820Z 15013KT 2000 -RA OVC014 25/22 Q1017=
0152829860999992016052519004-09401-038251FM-15+026999999V0201701N009310030519N002000199+02301+02201999999ADDGA1081+003051999GE19MSL   +99999+99999GF199999081999003051999999MA1101701999999MW1611REMMET055METAR SBUF 251900Z 17018KT 2000 -RA OVC010 23/22 Q1017=
0172829860999992016052519454-09401-038251FM-16+026999999V0201701N004110213419N009999199+02201+02101999999ADDGA1041+003961999GA2071+021341999GE19MSL   +99999+99999GF199999041999003961999999MA1101701999999REMMET065SPECI SBUF 251945Z 17008KT 9999 4000NW SCT013 BKN070 22/21 Q1017=
0142829860999992016052611154-09401-038251FM-16+026999999V0201401N003119999999N009999199+02401+02101999999ADDGA1041+003661999GE19MSL   +99999+99999GF199999041999003661999999MA1101801999999REMMET051SPECI SBUF 261115Z 14006KT 9999 SCT012 24/21 Q1018=
0142829860999992016052612004-09401-038251FM-15+026999999V0201401N004110048819N009999199+02501+02101999999ADDGA1071+004881999GE19MSL   +99999+99999GF199999071999004881999999MA1101801999999REMMET051METAR SBUF 261200Z 14008KT 9999 BKN016 25/21 Q1018=
0142829860999992016052613004-09401-038251FM-15+026999999V0201201N005119999999N009999199+02801+02101999999ADDGA1041+005491999GE19MSL   +99999+99999GF199999041999005491999999MA1101801999999REMMET051METAR SBUF 261300Z 12010KT 9999 SCT018 28/21 Q1018=
0142829860999992016052615004-09401-038251FM-15+026999999V0201401N004610054919N009999199+02901+01901999999ADDGA1071+005491999GE19MSL   +99999+99999GF199999071999005491999999MA1101601999999REMMET051METAR SBUF 261500Z 14009KT 9999 BKN018 29/19 Q1016=
0165829860999992016052616004-09401-038251FM-15+026999999V0201201N003110213419N009999199+03001+01901999999ADDGA1041+006101999GA2071+021341999GE19MSL   +99999+99999GF199999041999006101999999MA1101501999999REMMET058METAR SBUF 261600Z 12006KT 9999 SCT020 BKN070 30/19 Q1015=
0095829860999992016052617024-09401-038251FM-15+026999999V0209999N999999999999N011265199+99999+99999999999REMMET067METAR SBUF 261702Z 2617000Z 11010KT 9999 BKN017 BKN070 26/21 Q1014=EQDD01      0ADE592
0165829860999992016052618004-09401-038251FM-15+026999999V0201301N003110213419N009999199+02701+02101999999ADDGA1041+005181999GA2071+021341999GE19MSL   +99999+99999GF199999041999005181999999MA1101401999999REMMET058METAR SBUF 261800Z 13006KT 9999 SCT017 BKN070 27/21 Q1014=
0191829860999992016052619004-09401-038251FM-15+026999999V0201601N003610213419N009999199+02801+02001999999ADDGA1041+005181999GA2021+006101081GA3071+021341999GE19MSL   +99999+99999GF199999041999005181999999MA1101401999999REMMET068METAR SBUF 261900Z 16007KT 9999 SCT017 FEW020TCU BKN070 28/20 Q1014=
0191829860999992016052620004-09401-038251FM-15+026999999V0201801N003610213419N009999199+02601+02001999999ADDGA1021+004881999GA2021+006101081GA3071+021341999GE19MSL   +99999+99999GF199999021999004881999999MA1101501999999REMMET068METAR SBUF 262000Z 18007KT 9999 FEW016 FEW020TCU BKN070 26/20 Q1015=
0165829860999992016052621004-09401-038251FM-15+026999999V0202001N003110213419N009999199+02501+02101999999ADDGA1041+004881999GA2071+021341999GE19MSL   +99999+99999GF199999041999004881999999MA1101601999999REMMET058METAR SBUF 262100Z 20006KT 9999 SCT016 BKN070 25/21 Q1016=
0165829860999992016052621454-09401-038251FM-16+026999999V0201901N003110213419N009999199+02501+02001999999ADDGA1041+004881999GA2071+021341999GE19MSL   +99999+99999GF199999041999004881999999MA1101601999999REMMET058SPECI SBUF 262145Z 19006KT 9999 SCT016 BKN070 25/20 Q1016=
0165829860999992016052711154-09401-038251FM-16+026999999V0202001N003110213419N009999199+02501+02001999999ADDGA1021+004571999GA2071+021341999GE19MSL   +99999+99999GF199999021999004571999999MA1101901999999REMMET058SPECI SBUF 271115Z 20006KT 9999 FEW015 BKN070 25/20 Q1019=
0165829860999992016052712004-09401-038251FM-15+026999999V0201501N003110213419N009999199+02701+02001999999ADDGA1041+005181999GA2071+021341999GE19MSL   +99999+99999GF199999041999005181999999MA1102001999999REMMET058METAR SBUF 271200Z 15006KT 9999 SCT017 BKN070 27/20 Q1020=
0142829860999992016052713004-09401-038251FM-15+026999999V0201901N003610051819N009999199+02701+02001999999ADDGA1071+005181999GE19MSL   +99999+99999GF199999071999005181999999MA1101901999999REMMET051METAR SBUF 271300Z 19007KT 9999 BKN017 27/20 Q1019=
0165829860999992016052714004-09401-038251FM-15+026999999V0201801N00311024381CN009999199+02901+01801999999ADDGA1041+005791999GA2041+024381999GE19MSL   +99999+99999GF199999041999005791999999MA1101901999999REMMET058METAR SBUF 271400Z 18006KT 9999 SCT019 SCT080 29/18 Q1019=
0165829860999992016052715004-09401-038251FM-15+026999999V0201501N00311024381CN009999199+03001+01901999999ADDGA1041+006101999GA2041+024381999GE19MSL   +99999+99999GF199999041999006101999999MA1101701999999REMMET058METAR SBUF 271500Z 15006KT 9999 SCT020 SCT080 30/19 Q1017=
0142829860999992016052716004-09401-038251FM-15+026999999V0201101N004110061019N009999199+03201+01901999999ADDGA1071+006101999GE19MSL   +99999+99999GF199999071999006101999999MA1101601999999REMMET051METAR SBUF 271600Z 11008KT 9999 BKN020 32/19 Q1016=
0165829860999992016052717004-09401-038251FM-15+026999999V0201201N006210061019N009999199+02901+02001999999ADDGA1071+006101999GA2071+024381999GE19MSL   +99999+99999GF199999071999006101999999MA1101601999999REMMET058METAR SBUF 271700Z 12012KT 9999 BKN020 BKN080 29/20 Q1016=
0165829860999992016052718004-09401-038251FM-15+026999999V0201101N003610243819N009999199+03001+01901999999ADDGA1041+006101999GA2071+024381999GE19MSL   +99999+99999GF199999041999006101999999MA1101501999999REMMET058METAR SBUF 271800Z 11007KT 9999 SCT020 BKN080 30/19 Q1015=
0142829860999992016052719004-09401-038251FM-15+026999999V0201301N002619999999N009999199+03001+01901999999ADDGA1041+006101999GE19MSL   +99999+99999GF199999041999006101999999MA1101501999999REMMET051METAR SBUF 271900Z 13005KT 9999 SCT020 30/19 Q1015=
0142829860999992016052720004-09401-038251FM-15+026999999V0201401N003119999999N009999199+02901+01901999999ADDGA1041+006101999GE19MSL   +99999+99999GF199999041999006101999999MA1101501999999REMMET051METAR SBUF 272000Z 14006KT 9999 SCT020 29/19 Q1015=
0142829860999992016052720454-09401-038251FM-16+026999999V0201301N002619999999N009999199+02801+02001999999ADDGA1041+006101999GE19MSL   +99999+99999GF199999041999006101999999MA1101601999999REMMET051SPECI SBUF 272045Z 13005KT 9999 SCT020 28/20 Q1016=
0142829860999992016052811154-09401-038251FM-16+026999999V0201501N002610048819N009999199+02501+02101999999ADDGA1071+004881999GE19MSL   +99999+99999GF199999071999004881999999MA1102102999999REMMET051SPECI SBUF 281115Z 15005KT 9999 BKN016 25/21 Q1021=
0142829860999992016052812004-09401-038251FM-15+026999999V0201201N005110048819N009999199+02601+02101999999ADDGA1071+004881999GE19MSL   +99999+99999GF199999071999004881999999MA1102102999999REMMET051METAR SBUF 281200Z 12010KT 9999 BKN016 26/21 Q1021=
0142829860999992016052813004-09401-038251FM-15+026999999V0201501N004110051819N009999199+02701+02101999999ADDGA1071+005181999GE19MSL   +99999+99999GF199999071999005181999999MA1102102999999REMMET051METAR SBUF 281300Z 15008KT 9999 BKN017 27/21 Q1021=
0142829860999992016052814004-09401-038251FM-15+026999999V0201101N004110061019N009999199+02901+02101999999ADDGA1071+006101999GE19MSL   +99999+99999GF199999071999006101999999MA1101901999999REMMET051METAR SBUF 281400Z 11008KT 9999 BKN020 29/21 Q1019=
0142829860999992016052815004-09401-038251FM-15+026999999V0201501N004610061019N009999199+03001+01901999999ADDGA1071+006101999GE19MSL   +99999+99999GF199999071999006101999999MA1101801999999REMMET051METAR SBUF 281500Z 15009KT 9999 BKN020 30/19 Q1018=
0142829860999992016052816004-09401-038251FM-15+026999999V0201501N005110061019N009999199+03001+02001999999ADDGA1071+006101999GE19MSL   +99999+99999GF199999071999006101999999MA1101701999999REMMET051METAR SBUF 281600Z 15010KT 9999 BKN020 30/20 Q1017=
0142829860999992016052817004-09401-038251FM-15+026999999V0201601N004610061019N009999199+03101+01901999999ADDGA1071+006101999GE19MSL   +99999+99999GF199999071999006101999999MA1101601999999REMMET051METAR SBUF 281700Z 16009KT 9999 BKN020 31/19 Q1016=
0142829860999992016052818004-09401-038251FM-15+026999999V0201101N004619999999N009999199+03201+01901999999ADDGA1041+006401999GE19MSL   +99999+99999GF199999041999006401999999MA1101501999999REMMET051METAR SBUF 281800Z 11009KT 9999 SCT021 32/19 Q1015=
0142829860999992016052819004-09401-038251FM-15+026999999V0201301N005119999999N009999199+03201+01901999999ADDGA1021+006401999GE19MSL   +99999+99999GF199999021999006401999999MA1101501999999REMMET051METAR SBUF 281900Z 13010KT 9999 FEW021 32/19 Q1015=
0142829860999992016052819454-09401-038251FM-16+026999999V0201401N004119999999N009999199+03101+01901999999ADDGA1021+006101999GE19MSL   +99999+99999GF199999021999006101999999MA1101501999999REMMET051SPECI SBUF 281945Z 14008KT 9999 FEW020 31/19 Q1015=
0174829860999992016052911154-09401-038251FM-16+026999999V0201301N003610213419N005000199+02401+02301999999ADDGA1041+003961999GA2071+021341999GE19MSL   +99999+99999GF199999041999003961999999MA1101901999999MW1101REMMET061SPECI SBUF 291115Z 13007KT 5000 BR SCT013 BKN070 24/23 Q1019=
0165829860999992016052912004-09401-038251FM-15+026999999V0201601N003110213419N009999199+02401+02301999999ADDGA1041+003961999GA2071+021341999GE19MSL   +99999+99999GF199999041999003961999999MA1101901999999REMMET058METAR SBUF 291200Z 16006KT 9999 SCT013 BKN070 24/23 Q1019=
0188829860999992016052913004-09401-038251FM-15+026999999V0201001N00361005181CN009999199+02601+02301999999ADDGA1021+004571999GA2041+005181999GA3071+021341999GE19MSL   +99999+99999GF199999021999004571999999MA1101901999999REMMET065METAR SBUF 291300Z 10007KT 9999 FEW015 SCT017 BKN070 26/23 Q1019=
0165829860999992016052914004-09401-038251FM-15+026999999V0201701N003610054919N009999199+02701+02201999999ADDGA1041+005181999GA2071+005491999GE19MSL   +99999+99999GF199999041999005181999999MA1101801999999REMMET058METAR SBUF 291400Z 17007KT 9999 SCT017 BKN018 27/22 Q1018=
0142829860999992016052915004-09401-038251FM-15+026999999V0201601N003610064019N009999199+02901+02201999999ADDGA1071+006401999GE19MSL   +99999+99999GF199999071999006401999999MA1101601999999REMMET051METAR SBUF 291500Z 16007KT 9999 BKN021 29/22 Q1016=
0142829860999992016052916004-09401-038251FM-15+026999999V0201501N003110064019N009999199+03001+02201999999ADDGA1071+006401999GE19MSL   +99999+99999GF199999071999006401999999MA1101501999999REMMET051METAR SBUF 291600Z 15006KT 9999 BKN021 30/22 Q1015=
0142829860999992016052917004-09401-038251FM-15+026999999V0201701N002110064019N009999199+03101+02101999999ADDGA1071+006401999GE19MSL   +99999+99999GF199999071999006401999999MA1101401999999REMMET051METAR SBUF 291700Z 17004KT 9999 BKN021 31/21 Q1014=
0142829860999992016052918004-09401-038251FM-15+026999999V0201401N004119999999N009999199+03101+02101999999ADDGA1041+006401999GE19MSL   +99999+99999GF199999041999006401999999MA1101401999999REMMET051METAR SBUF 291800Z 14008KT 9999 SCT021 31/21 Q1014=
0142829860999992016052919004-09401-038251FM-15+026999999V0201601N004110061019N009999199+03101+02201999999ADDGA1071+006101999GE19MSL   +99999+99999GF199999071999006101999999MA1101401999999REMMET051METAR SBUF 291900Z 16008KT 9999 BKN020 31/22 Q1014=
0168829860999992016052919454-09401-038251FM-16+026999999V0201601N004110061019N009999199+02801+02301999999ADDGA1071+006101999GA2021+006401081GE19MSL   +99999+99999GF199999071999006101999999MA1101401999999REMMET061SPECI SBUF 291945Z 16008KT 9999 BKN020 FEW021TCU 28/23 Q1014=
0165829860999992016053011154-09401-038251FM-16+026999999V0201301N004110213419N009999199+02301+02201999999ADDGA1021+003961999GA2071+021341999GE19MSL   +99999+99999GF199999021999003961999999MA1101701999999REMMET058SPECI SBUF 301115Z 13008KT 9999 FEW013 BKN070 23/22 Q1017=
0165829860999992016053012004-09401-038251FM-15+026999999V0201201N005110213419N009999199+02501+02201999999ADDGA1021+004571999GA2071+021341999GE19MSL   +99999+99999GF199999021999004571999999MA1101701999999REMMET058METAR SBUF 301200Z 12010KT 9999 FEW015 BKN070 25/22 Q1017=
0165829860999992016053013004-09401-038251FM-15+026999999V0201501N003610243819N009999199+02501+02301999999ADDGA1041+005491999GA2071+024381999GE19MSL   +99999+99999GF199999041999005491999999MA1101701999999REMMET058METAR SBUF 301300Z 15007KT 9999 SCT018 BKN080 25/23 Q1017=
0152829860999992016053014004-09401-038251FM-15+026999999V0201701N003110045719N004000199+02501+02301999999ADDGA1081+004571999GE19MSL   +99999+99999GF199999081999004571999999MA1101701999999MW1611REMMET055METAR SBUF 301400Z 17006KT 4000 -RA OVC015 25/23 Q1017=
0153829860999992016053015004-09401-038251FM-15+026999999V0201301N004110051819N009000199+02501+02301999999ADDGA1071+005181999GE19MSL   +99999+99999GF199999071999005181999999MA1101601999999MW1161REMMET056METAR SBUF 301500Z 13008KT 9000 VCSH BKN017 25/23 Q1016=
0165829860999992016053016004-09401-038251FM-15+026999999V0201501N004110243819N009999199+02701+02201999999ADDGA1041+005181999GA2071+024381999GE19MSL   +99999+99999GF199999041999005181999999MA1101501999999REMMET058METAR SBUF 301600Z 15008KT 9999 SCT017 BKN080 27/22 Q1015=
0165829860999992016053017004-09401-038251FM-15+026999999V0201601N003610213419N009999199+02701+02101999999ADDGA1041+005491999GA2071+021341999GE19MSL   +99999+99999GF199999041999005491999999MA1101401999999REMMET058METAR SBUF 301700Z 16007KT 9999 SCT018 BKN070 27/21 Q1014=
0165829860999992016053018004-09401-038251FM-15+026999999V0201501N004110054919N009999199+02801+02101999999ADDGA1071+005491999GA2071+021341999GE19MSL   +99999+99999GF199999071999005491999999MA1101401999999REMMET058METAR SBUF 301800Z 15008KT 9999 BKN018 BKN070 28/21 Q1014=
0165829860999992016053019004-09401-038251FM-15+026999999V0201701N003110054919N009999199+02801+02201999999ADDGA1071+005491999GA2071+021341999GE19MSL   +99999+99999GF199999071999005491999999MA1101401999999REMMET058METAR SBUF 301900Z 17006KT 9999 BKN018 BKN070 28/22 Q1014=
0165829860999992016053019454-09401-038251FM-16+026999999V0201601N004110054919N009999199+02601+02201999999ADDGA1071+005491999GA2071+021341999GE19MSL   +99999+99999GF199999071999005491999999MA1101401999999REMMET058SPECI SBUF 301945Z 16008KT 9999 BKN018 BKN070 26/22 Q1014=
0165829860999992016053111154-09401-038251FM-16+026999999V0201001N003110039619N009999199+02501+02201999999ADDGA1071+003961999GA2071+021341999GE19MSL   +99999+99999GF199999071999003961999999MA1101801999999REMMET058SPECI SBUF 311115Z 10006KT 9999 BKN013 BKN070 25/22 Q1018=
0165829860999992016053112004-09401-038251FM-15+026999999V0201001N003110045719N009999199+02601+02101999999ADDGA1071+004571999GA2081+021341999GE19MSL   +99999+99999GF199999071999004571999999MA1101801999999REMMET058METAR SBUF 311200Z 10006KT 9999 BKN015 OVC070 26/21 Q1018=
0165829860999992016053113004-09401-038251FM-15+026999999V0201101N004110048819N009999199+02701+02101999999ADDGA1071+004881999GA2071+021341999GE19MSL   +99999+99999GF199999071999004881999999MA1101701999999REMMET058METAR SBUF 311300Z 11008KT 9999 BKN016 BKN070 27/21 Q1017=
0165829860999992016053114004-09401-038251FM-15+026999999V0201201N003110213419N009999199+03101+02101999999ADDGA1041+005491999GA2071+021341999GE19MSL   +99999+99999GF199999041999005491999999MA1101601999999REMMET058METAR SBUF 311400Z 12006KT 9999 SCT018 BKN070 31/21 Q1016=
0165829860999992016053115004-09401-038251FM-15+026999999V0201601N00311024381CN009999199+03001+02001999999ADDGA1041+006401999GA2041+024381999GE19MSL   +99999+99999GF199999041999006401999999MA1101501999999REMMET058METAR SBUF 311500Z 16006KT 9999 SCT021 SCT080 30/20 Q1015=
0165829860999992016053116004-09401-038251FM-15+026999999V0201501N004110243819N009999199+03201+02001999999ADDGA1041+006401999GA2071+024381999GE19MSL   +99999+99999GF199999041999006401999999MA1101401999999REMMET058METAR SBUF 311600Z 15008KT 9999 SCT021 BKN080 32/20 Q1014=
0165829860999992016053117004-09401-038251FM-15+026999999V0201501N00361024381CN009999199+03101+02001999999ADDGA1041+006401999GA2041+024381999GE19MSL   +99999+99999GF199999041999006401999999MA1101301999999REMMET058METAR SBUF 311700Z 15007KT 9999 SCT021 SCT080 31/20 Q1013=
0165829860999992016053118004-09401-038251FM-15+026999999V0201701N00461024381CN009999199+03001+02001999999ADDGA1041+006401999GA2041+024381999GE19MSL   +99999+99999GF199999041999006401999999MA1101301999999REMMET058METAR SBUF 311800Z 17009KT 9999 SCT021 SCT080 30/20 Q1013=
0191829860999992016053119004-09401-038251FM-15+026999999V0201601N00411024381CN009999199+03001+02001999999ADDGA1021+006401999GA2021+006711081GA3041+024381999GE19MSL   +99999+99999GF199999021999006401999999MA1101301999999REMMET068METAR SBUF 311900Z 16008KT 9999 FEW021 FEW022TCU SCT080 30/20 Q1013=
0165829860999992016053119454-09401-038251FM-16+026999999V0201601N00361024381CN009999199+02901+02001999999ADDGA1021+006401999GA2041+024381999GE19MSL   +99999+99999GF199999021999006401999999MA1101301999999REMMET058SPECI SBUF 311945Z 16007KT 9999 FEW021 SCT080 29/20 Q1013=
0142829860999992016060111154-09401-038251FM-16+026999999V0201001N004110057919N009999199+02501+02001999999ADDGA1071+005791999GE19MSL   +99999+99999GF199999071999005791999999MA1101701999999REMMET051SPECI SBUF 011115Z 10008KT 9999 BKN019 25/20 Q1017=
0142829860999992016060112004-09401-038251FM-15+026999999V0201201N004119999999N009999199+02701+02001999999ADDGA1041+006101999GE19MSL   +99999+99999GF199999041999006101999999MA1101701999999REMMET051METAR SBUF 011200Z 12008KT 9999 SCT020 27/20 Q1017=
0142829860999992016060113004-09401-038251FM-15+026999999V0201001N004119999999N009999199+02901+01901999999ADDGA1041+006101999GE19MSL   +99999+99999GF199999041999006101999999MA1101701999999REMMET051METAR SBUF 011300Z 10008KT 9999 SCT020 29/19 Q1017=
0142829860999992016060114004-09401-038251FM-15+026999999V0201201N005119999999N009999199+03001+01801999999ADDGA1041+006101999GE19MSL   +99999+99999GF199999041999006101999999MA1101601999999REMMET051METAR SBUF 011400Z 12010KT 9999 SCT020 30/18 Q1016=
0142829860999992016060115004-09401-038251FM-15+026999999V0201301N005119999999N009999199+03101+01801999999ADDGA1021+006401999GE19MSL   +99999+99999GF199999021999006401999999MA1101501999999REMMET051METAR SBUF 011500Z 13010KT 9999 FEW021 31/18 Q1015=
0142829860999992016060116004-09401-038251FM-15+026999999V0201401N005119999999N009999199+03201+01801999999ADDGA1021+006401999GE19MSL   +99999+99999GF199999021999006401999999MA1101401999999REMMET051METAR SBUF 011600Z 14010KT 9999 FEW021 32/18 Q1014=
0142829860999992016060117004-09401-038251FM-15+026999999V0201301N005719999999N009999199+03201+01701999999ADDGA1021+006401999GE19MSL   +99999+99999GF199999021999006401999999MA1101201999999REMMET051METAR SBUF 011700Z 13011KT 9999 FEW021 32/17 Q1012=
0142829860999992016060118004-09401-038251FM-15+026999999V0201401N005119999999N009999199+03201+01701999999ADDGA1021+006401999GE19MSL   +99999+99999GF199999021999006401999999MA1101201999999REMMET051METAR SBUF 011800Z 14010KT 9999 FEW021 32/17 Q1012=
0142829860999992016060119004-09401-038251FM-15+026999999V0201401N004619999999N009999199+03201+01701999999ADDGA1021+006401999GE19MSL   +99999+99999GF199999021999006401999999MA1101201999999REMMET051METAR SBUF 011900Z 14009KT 9999 FEW021 32/17 Q1012=
0142829860999992016060121004-09401-038251FM-15+026999999V0201201N003119999999N009999199+02901+01801999999ADDGA1021+006101999GE19MSL   +99999+99999GF199999021999006101999999MA1101301999999REMMET051METAR SBUF 012100Z 12006KT 9999 FEW020 29/18 Q1013=
0072829860999992016060122004-09401-038251FM-15+026999999V0201201N003619999999Y999999999+02801+01901999999ADDMA1101401999999REMMET045METAR SBUF 012200Z 12007KT CAVOK 28/19 Q1014=
0072829860999992016060122454-09401-038251FM-16+026999999V0201201N003619999999Y999999999+02801+02001999999ADDMA1101401999999REMMET045SPECI SBUF 012245Z 12007KT CAVOK 28/20 Q1014=
0184829860999992016060211154-09401-038251FM-16+026999999V0201401N002110213419N002500199+02301+02201999999ADDGA1041+003661999GA2071+021341999GE19MSL   +99999+99999GF199999041999003661999999MA1101701999999MW1101MW2511REMMET065SPECI SBUF 021115Z 14004KT 2500 -DZ BR SCT012 BKN070 23/22 Q1017=
0193829860999992016060212004-09401-038251FM-15+026999999V0201101N00261004571CN009999199+02501+02301999999ADDGA1021+003961999GA2041+004571999GA3071+021341999GE19MSL   +99999+99999GF199999021999003961999999MA1101701999999REMMET070METAR SBUF 021200Z 11005KT 9999 FEW013 SCT015 BKN070 25/23 Q1017 REDZ=
0165829860999992016060213004-09401-038251FM-15+026999999V0201101N002610054919N009999199+02701+02201999999ADDGA1021+005181999GA2071+005491999GE19MSL   +99999+99999GF199999021999005181999999MA1101701999999REMMET058METAR SBUF 021300Z 11005KT 9999 FEW017 BKN018 27/22 Q1017=
0142829860999992016060214004-09401-038251FM-15+026999999V0201301N002610054919N009999199+02801+02101999999ADDGA1071+005491999GE19MSL   +99999+99999GF199999071999005491999999MA1101601999999REMMET051METAR SBUF 021400Z 13005KT 9999 BKN018 28/21 Q1016=
0142829860999992016060215004-09401-038251FM-15+026999999V0201201N002619999999N009999199+03001+02001999999ADDGA1041+006101999GE19MSL   +99999+99999GF199999041999006101999999MA1101401999999REMMET051METAR SBUF 021500Z 12005KT 9999 SCT020 30/20 Q1014=
0142829860999992016060216004-09401-038251FM-15+026999999V0201501N003119999999N009999199+03101+01901999999ADDGA1041+006401999GE19MSL   +99999+99999GF199999041999006401999999MA1101301999999REMMET051METAR SBUF 021600Z 15006KT 9999 SCT021 31/19 Q1013=
0142829860999992016060217004-09401-038251FM-15+026999999V0201101N002119999999N009999199+03201+01801999999ADDGA1041+006401999GE19MSL   +99999+99999GF199999041999006401999999MA1101201999999REMMET051METAR SBUF 021700Z 11004KT 9999 SCT021 32/18 Q1012=
0142829860999992016060218004-09401-038251FM-15+026999999V0201701N002619999999N009999199+03201+01901999999ADDGA1041+006711999GE19MSL   +99999+99999GF199999041999006711999999MA1101201999999REMMET051METAR SBUF 021800Z 17005KT 9999 SCT022 32/19 Q1012=
0142829860999992016060219004-09401-038251FM-15+026999999V0200901N002119999999N009999199+03201+01801999999ADDGA1021+006711999GE19MSL   +99999+99999GF199999021999006711999999MA1101201999999REMMET051METAR SBUF 021900Z 09004KT 9999 FEW022 32/18 Q1012=
0142829860999992016060219454-09401-038251FM-16+026999999V0201401N002619999999N009999199+03101+01801999999ADDGA1021+006711999GE19MSL   +99999+99999GF199999021999006711999999MA1101201999999REMMET051SPECI SBUF 021945Z 14005KT 9999 FEW022 31/18 Q1012=
0165829860999992016060311154-09401-038251FM-16+026999999V0201001N003610243819N009999199+02601+02201999999ADDGA1021+005491999GA2071+024381999GE19MSL   +99999+99999GF199999021999005491999999MA1101701999999REMMET058SPECI SBUF 031115Z 10007KT 9999 FEW018 BKN080 26/22 Q1017=
0142829860999992016060312004-09401-038251FM-15+026999999V0200901N003619999999N009999199+02801+02101999999ADDGA1021+005491999GE19MSL   +99999+99999GF199999021999005491999999MA1101701999999REMMET051METAR SBUF 031200Z 09007KT 9999 FEW018 28/21 Q1017=
0142829860999992016060313004-09401-038251FM-15+026999999V0200701N004110057919N009999199+03001+02101999999ADDGA1071+005791999GE19MSL   +99999+99999GF199999071999005791999999MA1101701999999REMMET051METAR SBUF 031300Z 07008KT 9999 BKN019 30/21 Q1017=
0142829860999992016060314004-09401-038251FM-15+026999999V0200701N003119999999N009999199+03001+02001999999ADDGA1041+006101999GE19MSL   +99999+99999GF199999041999006101999999MA1101601999999REMMET051METAR SBUF 031400Z 07006KT 9999 SCT020 30/20 Q1016=
0142829860999992016060316004-09401-038251FM-15+026999999V0201401N003619999999N009999199+03301+01801999999ADDGA1041+006401999GE19MSL   +99999+99999GF199999041999006401999999MA1101301999999REMMET051METAR SBUF 031600Z 14007KT 9999 SCT021 33/18 Q1013=
0142829860999992016060317004-09401-038251FM-15+026999999V0201701N003119999999N009999199+03301+01701999999ADDGA1041+006711999GE19MSL   +99999+99999GF199999041999006711999999MA1101201999999REMMET051METAR SBUF 031700Z 17006KT 9999 SCT022 33/17 Q1012=
0142829860999992016060318004-09401-038251FM-15+026999999V0201601N003119999999N009999199+03401+01701999999ADDGA1021+006711999GE19MSL   +99999+99999GF199999021999006711999999MA1101201999999REMMET051METAR SBUF 031800Z 16006KT 9999 FEW022 34/17 Q1012=
0142829860999992016060319004-09401-038251FM-15+026999999V0201501N003119999999N009999199+03301+01701999999ADDGA1021+006711999GE19MSL   +99999+99999GF199999021999006711999999MA1101201999999REMMET051METAR SBUF 031900Z 15006KT 9999 FEW022 33/17 Q1012=
0142829860999992016060319454-09401-038251FM-16+026999999V0201001N003619999999N009999199+03201+01601999999ADDGA1021+006401999GE19MSL   +99999+99999GF199999021999006401999999MA1101301999999REMMET051SPECI SBUF 031945Z 10007KT 9999 FEW021 32/16 Q1013=
0142829860999992016060411154-09401-038251FM-16+026999999V0201201N002619999999N009999199+02701+02201999999ADDGA1021+004881999GE19MSL   +99999+99999GF199999021999004881999999MA1101601999999REMMET051SPECI SBUF 041115Z 12005KT 9999 FEW016 27/22 Q1016=
0142829860999992016060412004-09401-038251FM-15+026999999V0201601N002119999999N009999199+02801+02101999999ADDGA1021+005181999GE19MSL   +99999+99999GF199999021999005181999999MA1101601999999REMMET051METAR SBUF 041200Z 16004KT 9999 FEW017 28/21 Q1016=
0142829860999992016060413004-09401-038251FM-15+026999999V0201801N003119999999N009999199+03001+02001999999ADDGA1021+005181999GE19MSL   +99999+99999GF199999021999005181999999MA1101601999999REMMET051METAR SBUF 041300Z 18006KT 9999 FEW017 30/20 Q1016=
0072829860999992016060414004-09401-038251FM-15+026999999V0200901N003119999999Y999999999+03301+01801999999ADDMA1101501999999REMMET045METAR SBUF 041400Z 09006KT CAVOK 33/18 Q1015=
0072829860999992016060415004-09401-038251FM-15+026999999V0200801N002119999999Y999999999+03401+01801999999ADDMA1101401999999REMMET045METAR SBUF 041500Z 08004KT CAVOK 34/18 Q1014=
0072829860999992016060416004-09401-038251FM-15+026999999V0200901N003119999999Y999999999+03501+01701999999ADDMA1101301999999REMMET045METAR SBUF 041600Z 09006KT CAVOK 35/17 Q1013=
0072829860999992016060417004-09401-038251FM-15+026999999V0201201N004619999999Y999999999+03602+01702999999ADDMA1101201999999REMMET045METAR SBUF 041700Z 12009KT CAVOK 36/17 Q1012=
0142829860999992016060418004-09401-038251FM-15+026999999V0201301N004619999999N009999199+03501+01501999999ADDGA1021+006711999GE19MSL   +99999+99999GF199999021999006711999999MA1101101999999REMMET051METAR SBUF 041800Z 13009KT 9999 FEW022 35/15 Q1011=
0142829860999992016060419004-09401-038251FM-15+026999999V0201301N004619999999N009999199+03501+01601999999ADDGA1021+006711999GE19MSL   +99999+99999GF199999021999006711999999MA1101101999999REMMET051METAR SBUF 041900Z 13009KT 9999 FEW022 35/16 Q1011=
0142829860999992016060419454-09401-038251FM-16+026999999V0201201N005119999999N009999199+03401+01701999999ADDGA1021+006711999GE19MSL   +99999+99999GF199999021999006711999999MA1101201999999REMMET051SPECI SBUF 041945Z 12010KT 9999 FEW022 34/17 Q1012=
0165829860999992016060511154-09401-038251FM-16+026999999V0201001N003110051819N009999199+02701+02201999999ADDGA1071+005181999GA2041+021341999GE19MSL   +99999+99999GF199999071999005181999999MA1101701999999REMMET058SPECI SBUF 051115Z 10006KT 9999 BKN017 SCT070 27/22 Q1017=
0165829860999992016060512004-09401-038251FM-15+026999999V0201001N002610051819N009999199+02701+02201999999ADDGA1071+005181999GA2041+021341999GE19MSL   +99999+99999GF199999071999005181999999MA1101701999999REMMET058METAR SBUF 051200Z 10005KT 9999 BKN017 SCT070 27/22 Q1017=
0165829860999992016060513004-09401-038251FM-15+026999999V0201401N002610051819N009999199+02801+02301999999ADDGA1071+005181999GA2041+021341999GE19MSL   +99999+99999GF199999071999005181999999MA1101701999999REMMET058METAR SBUF 051300Z 14005KT 9999 BKN017 SCT070 28/23 Q1017=
0142829860999992016060514004-09401-038251FM-15+026999999V0201401N003110054919N009999199+03001+02201999999ADDGA1071+005491999GE19MSL   +99999+99999GF199999071999005491999999MA1101601999999REMMET051METAR SBUF 051400Z 14006KT 9999 BKN018 30/22 Q1016=
0142829860999992016060515004-09401-038251FM-15+026999999V0201401N003110061019N009999199+03301+02101999999ADDGA1071+006101999GE19MSL   +99999+99999GF199999071999006101999999MA1101501999999REMMET051METAR SBUF 051500Z 14006KT 9999 BKN020 33/21 Q1015=
0142829860999992016060516004-09401-038251FM-15+026999999V0201401N004619999999N009999199+03301+02001999999ADDGA1041+006101999GE19MSL   +99999+99999GF199999041999006101999999MA1101401999999REMMET051METAR SBUF 051600Z 14009KT 9999 SCT020 33/20 Q1014=
0142829860999992016060517004-09401-038251FM-15+026999999V0201301N005719999999N009999199+03401+01901999999ADDGA1021+006401999GE19MSL   +99999+99999GF199999021999006401999999MA1101301999999REMMET051METAR SBUF 051700Z 13011KT 9999 FEW021 34/19 Q1013=
0142829860999992016060518004-09401-038251FM-15+026999999V0201101N005119999999N009999199+03401+01901999999ADDGA1021+006401999GE19MSL   +99999+99999GF199999021999006401999999MA1101301999999REMMET051METAR SBUF 051800Z 11010KT 9999 FEW021 34/19 Q1013=
0142829860999992016060519004-09401-038251FM-15+026999999V0201001N005719999999N009999199+03301+01901999999ADDGA1021+006401999GE19MSL   +99999+99999GF199999021999006401999999MA1101201999999REMMET051METAR SBUF 051900Z 10011KT 9999 FEW021 33/19 Q1012=
0142829860999992016060519454-09401-038251FM-16+026999999V0201101N005719999999N009999199+03101+01901999999ADDGA1021+006101999GE19MSL   +99999+99999GF199999021999006101999999MA1101201999999REMMET051SPECI SBUF 051945Z 11011KT 9999 FEW020 31/19 Q1012=
0142829860999992016060611154-09401-038251FM-16+026999999V0201401N002619999999N009999199+02601+02101999999ADDGA1021+005491999GE19MSL   +99999+99999GF199999021999005491999999MA1101801999999REMMET051SPECI SBUF 061115Z 14005KT 9999 FEW018 26/21 Q1018=
0165829860999992016060612004-09401-038251FM-15+026999999V0201501N00261024381CN009999199+02801+02001999999ADDGA1021+005491999GA2041+024381999GE19MSL   +99999+99999GF199999021999005491999999MA1101801999999REMMET058METAR SBUF 061200Z 15005KT 9999 FEW018 SCT080 28/20 Q1018=
0142829860999992016060613004-09401-038251FM-15+026999999V0201001N003610061019N009999199+03101+02001999999ADDGA1071+006101999GE19MSL   +99999+99999GF199999071999006101999999MA1101801999999REMMET051METAR SBUF 061300Z 10007KT 9999 BKN020 31/20 Q1018=
0142829860999992016060615004-09401-038251FM-15+026999999V0201001N003619999999N009999199+03201+01801999999ADDGA1041+006101999GE19MSL   +99999+99999GF199999041999006101999999MA1101601999999REMMET051METAR SBUF 061500Z 10007KT 9999 SCT020 32/18 Q1016=
0142829860999992016060617004-09401-038251FM-15+026999999V0201201N003119999999N009999199+03301+01601999999ADDGA1041+006711999GE19MSL   +99999+99999GF199999041999006711999999MA1101401999999REMMET051METAR SBUF 061700Z 12006KT 9999 SCT022 33/16 Q1014=
0142829860999992016060618004-09401-038251FM-15+026999999V0201301N003119999999N009999199+03401+01601999999ADDGA1021+006711999GE19MSL   +99999+99999GF199999021999006711999999MA1101301999999REMMET051METAR SBUF 061800Z 13006KT 9999 FEW022 34/16 Q1013=
0142829860999992016060619004-09401-038251FM-15+026999999V0201201N004619999999N009999199+03301+01701999999ADDGA1021+006711999GE19MSL   +99999+99999GF199999021999006711999999MA1101301999999REMMET051METAR SBUF 061900Z 12009KT 9999 FEW022 33/17 Q1013=
0142829860999992016060619454-09401-038251FM-16+026999999V0201101N003619999999N009999199+03201+01501999999ADDGA1021+006711999GE19MSL   +99999+99999GF199999021999006711999999MA1101301999999REMMET051SPECI SBUF 061945Z 11007KT 9999 FEW022 32/15 Q1013=
0142829860999992016060711154-09401-038251FM-16+026999999V0201701N001019999999N009999199+02701+02201999999ADDGA1021+005181999GE19MSL   +99999+99999GF199999021999005181999999MA1101801999999REMMET051SPECI SBUF 071115Z 17002KT 9999 FEW017 27/22 Q1018=
0142829860999992016060712004-09401-038251FM-15+026999999V0201501N002119999999N009999199+02801+02101999999ADDGA1041+005491999GE19MSL   +99999+99999GF199999041999005491999999MA1101801999999REMMET051METAR SBUF 071200Z 15004KT 9999 SCT018 28/21 Q1018=
0142829860999992016060713004-09401-038251FM-15+026999999V0200201N001519999999N009999199+02901+02001999999ADDGA1041+006101999GE19MSL   +99999+99999GF199999041999006101999999MA1101801999999REMMET051METAR SBUF 071300Z 02003KT 9999 SCT020 29/20 Q1018=
0142829860999992016060714004-09401-038251FM-15+026999999V0200501N001519999999N009999199+03001+01901999999ADDGA1021+006101999GE19MSL   +99999+99999GF199999021999006101999999MA1101701999999REMMET051METAR SBUF 071400Z 05003KT 9999 FEW020 30/19 Q1017=
0142829860999992016060715004-09401-038251FM-15+026999999V0201601N002619999999N009999199+03301+01801999999ADDGA1021+006401999GE19MSL   +99999+99999GF199999021999006401999999MA1101501999999REMMET051METAR SBUF 071500Z 16005KT 9999 FEW021 33/18 Q1015=
0142829860999992016060716004-09401-038251FM-15+026999999V0202101N002619999999N009999199+03401+01601999999ADDGA1021+006401999GE19MSL   +99999+99999GF199999021999006401999999MA1101401999999REMMET051METAR SBUF 071600Z 21005KT 9999 FEW021 34/16 Q1014=
0072829860999992016060813004-09401-038251FM-15+026999999V0201301N002119999999Y999999999+03001+02001999999ADDMA1101701999999REMMET045METAR SBUF 081300Z 13004KT CAVOK 30/20 Q1017=
0142829860999992016060814004-09401-038251FM-15+026999999V0201901N002119999999N009999199+03101+02001999999ADDGA1021+005491999GE19MSL   +99999+99999GF199999021999005491999999MA1101601999999REMMET051METAR SBUF 081400Z 19004KT 9999 FEW018 31/20 Q1016=
0072829860999992016060815004-09401-038251FM-15+026999999V0201601N002619999999Y999999999+03301+01701999999ADDMA1101501999999REMMET045METAR SBUF 081500Z 16005KT CAVOK 33/17 Q1015=
0142829860999992016060816004-09401-038251FM-15+026999999V0201201N002119999999N009999199+03401+01701999999ADDGA1021+005491999GE19MSL   +99999+99999GF199999021999005491999999MA1101401999999REMMET051METAR SBUF 081600Z 12004KT 9999 FEW018 34/17 Q1014=
0142829860999992016060817004-09401-038251FM-15+026999999V0201601N002619999999N009999199+03501+01501999999ADDGA1021+006101999GE19MSL   +99999+99999GF199999021999006101999999MA1101301999999REMMET051METAR SBUF 081700Z 16005KT 9999 FEW020 35/15 Q1013=
0142829860999992016060818004-09401-038251FM-15+026999999V0201701N002619999999N009999199+03501+01401999999ADDGA1021+006101999GE19MSL   +99999+99999GF199999021999006101999999MA1101301999999REMMET051METAR SBUF 081800Z 17005KT 9999 FEW020 35/14 Q1013=
0072829860999992016060819004-09401-038251FM-15+026999999V0201301N003619999999Y999999999+03501+01401999999ADDMA1101301999999REMMET045METAR SBUF 081900Z 13007KT CAVOK 35/14 Q1013=
0072829860999992016060820004-09401-038251FM-15+026999999V0201401N003119999999Y999999999+03401+01501999999ADDMA1101301999999REMMET045METAR SBUF 082000Z 14006KT CAVOK 34/15 Q1013=
0072829860999992016060820304-09401-038251FM-16+026999999V0201301N003619999999Y999999999+03301+01501999999ADDMA1101401999999REMMET045SPECI SBUF 082030Z 13007KT CAVOK 33/15 Q1014=
0142829860999992016060911154-09401-038251FM-16+026999999V0200901N002119999999N009999199+02701+02201999999ADDGA1041+005181999GE19MSL   +99999+99999GF199999041999005181999999MA1101901999999REMMET051SPECI SBUF 091115Z 09004KT 9999 SCT017 27/22 Q1019=
0142829860999992016060912004-09401-038251FM-15+026999999V0201401N002619999999N009999199+02901+02101999999ADDGA1041+005491999GE19MSL   +99999+99999GF199999041999005491999999MA1101901999999REMMET051METAR SBUF 091200Z 14005KT 9999 SCT018 29/21 Q1019=
0142829860999992016060913004-09401-038251FM-15+026999999V0202001N002119999999N009999199+03001+02001999999ADDGA1041+005791999GE19MSL   +99999+99999GF199999041999005791999999MA1101901999999REMMET051METAR SBUF 091300Z 20004KT 9999 SCT019 30/20 Q1019=
0142829860999992016060914004-09401-038251FM-15+026999999V0202501N001519999999N009999199+03101+01901999999ADDGA1041+006101999GE19MSL   +99999+99999GF199999041999006101999999MA1101801999999REMMET051METAR SBUF 091400Z 25003KT 9999 SCT020 31/19 Q1018=
0142829860999992016060915004-09401-038251FM-15+026999999V0201501N002619999999N009999199+03301+01701999999ADDGA1041+006401999GE19MSL   +99999+99999GF199999041999006401999999MA1101701999999REMMET051METAR SBUF 091500Z 15005KT 9999 SCT021 33/17 Q1017=
0142829860999992016060916004-09401-038251FM-15+026999999V0201701N002619999999N009999199+03301+01601999999ADDGA1021+006401999GE19MSL   +99999+99999GF199999021999006401999999MA1101601999999REMMET051METAR SBUF 091600Z 17005KT 9999 FEW021 33/16 Q1016=
0142829860999992016060917004-09401-038251FM-15+026999999V0201601N003619999999N009999199+03501+01501999999ADDGA1021+006711999GE19MSL   +99999+99999GF199999021999006711999999MA1101501999999REMMET051METAR SBUF 091700Z 16007KT 9999 FEW022 35/15 Q1015=
0142829860999992016060918004-09401-038251FM-15+026999999V0201601N003119999999N009999199+03401+01501999999ADDGA1021+006711999GE19MSL   +99999+99999GF199999021999006711999999MA1101501999999REMMET051METAR SBUF 091800Z 16006KT 9999 FEW022 34/15 Q1015=
0142829860999992016060919004-09401-038251FM-15+026999999V0201401N004119999999N009999199+03401+01401999999ADDGA1021+006711999GE19MSL   +99999+99999GF199999021999006711999999MA1101501999999REMMET051METAR SBUF 091900Z 14008KT 9999 FEW022 34/14 Q1015=
0072829860999992016060919454-09401-038251FM-16+026999999V0201001N005119999999Y999999999+03301+01401999999ADDMA1101501999999REMMET045SPECI SBUF 091945Z 10010KT CAVOK 33/14 Q1015=
0142829860999992016061011154-09401-038251FM-16+026999999V0201301N003110054919N009999199+02701+02101999999ADDGA1071+005491999GE19MSL   +99999+99999GF199999071999005491999999MA1102001999999REMMET051SPECI SBUF 101115Z 13006KT 9999 BKN018 27/21 Q1020=
0142829860999992016061012004-09401-038251FM-15+026999999V0201401N003610057919N009999199+02801+02101999999ADDGA1071+005791999GE19MSL   +99999+99999GF199999071999005791999999MA1102001999999REMMET051METAR SBUF 101200Z 14007KT 9999 BKN019 28/21 Q1020=
0142829860999992016061013004-09401-038251FM-15+026999999V0201201N004619999999N009999199+03001+02001999999ADDGA1041+006101999GE19MSL   +99999+99999GF199999041999006101999999MA1102001999999REMMET051METAR SBUF 101300Z 12009KT 9999 SCT020 30/20 Q1020=
0142829860999992016061014004-09401-038251FM-15+026999999V0201101N003619999999N009999199+03201+01801999999ADDGA1041+006101999GE19MSL   +99999+99999GF199999041999006101999999MA1101901999999REMMET051METAR SBUF 101400Z 11007KT 9999 SCT020 32/18 Q1019=
0142829860999992016061015004-09401-038251FM-15+026999999V0201201N003619999999N009999199+03301+01501999999ADDGA1041+006401999GE19MSL   +99999+99999GF199999041999006401999999MA1101801999999REMMET051METAR SBUF 101500Z 12007KT 9999 SCT021 33/15 Q1018=
0142829860999992016061016004-09401-038251FM-15+026999999V0201101N002619999999N009999199+03401+01501999999ADDGA1041+006401999GE19MSL   +99999+99999GF199999041999006401999999MA1101701999999REMMET051METAR SBUF 101600Z 11005KT 9999 SCT021 34/15 Q1017=
0142829860999992016061017004-09401-038251FM-15+026999999V0201001N003619999999N009999199+03401+01301999999ADDGA1021+006711999GE19MSL   +99999+99999GF199999021999006711999999MA1101601999999REMMET051METAR SBUF 101700Z 10007KT 9999 FEW022 34/13 Q1016=
0142829860999992016061018004-09401-038251FM-15+026999999V0201001N004119999999N009999199+03401+01301999999ADDGA1021+006711999GE19MSL   +99999+99999GF199999021999006711999999MA1101501999999REMMET051METAR SBUF 101800Z 10008KT 9999 FEW022 34/13 Q1015=
0142829860999992016061019004-09401-038251FM-15+026999999V0200901N003619999999N009999199+03401+01101999999ADDGA1021+006711999GE19MSL   +99999+99999GF199999021999006711999999MA1101501999999REMMET051METAR SBUF 101900Z 09007KT 9999 FEW022 34/11 Q1015=
0142829860999992016061020004-09401-038251FM-15+026999999V0201101N003119999999N009999199+03201+01201999999ADDGA1021+006711999GE19MSL   +99999+99999GF199999021999006711999999MA1101501999999REMMET051METAR SBUF 102000Z 11006KT 9999 FEW022 32/12 Q1015=
0072829860999992016061022004-09401-038251FM-15+026999999V0201001N002119999999Y999999999+02901+01301999999ADDMA1101601999999REMMET045METAR SBUF 102200Z 10004KT CAVOK 29/13 Q1016=
0072829860999992016061023004-09401-038251FM-15+026999999V0201201N004619999999Y999999999+02801+01501999999ADDMA1101701999999REMMET045METAR SBUF 102300Z 12009KT CAVOK 28/15 Q1017=
0072829860999992016061100004-09401-038251FM-15+026999999V0201301N005119999999Y999999999+02701+02001999999ADDMA1101801999999REMMET045METAR SBUF 110000Z 13010KT CAVOK 27/20 Q1018=
0142829860999992016061111154-09401-038251FM-16+026999999V0201201N003610051819N009999199+02701+02101999999ADDGA1071+005181999GE19MSL   +99999+99999GF199999071999005181999999MA1102101999999REMMET051SPECI SBUF 111115Z 12007KT 9999 BKN017 27/21 Q1021=
0142829860999992016061112004-09401-038251FM-15+026999999V0201301N002610051819N009999199+02701+02001999999ADDGA1071+005181999GE19MSL   +99999+99999GF199999071999005181999999MA1102101999999REMMET051METAR SBUF 111200Z 13005KT 9999 BKN017 27/20 Q1021=
0142829860999992016061113004-09401-038251FM-15+026999999V0201001N002619999999N009999199+02901+01801999999ADDGA1041+006101999GE19MSL   +99999+99999GF199999041999006101999999MA1102001999999REMMET051METAR SBUF 111300Z 10005KT 9999 SCT020 29/18 Q1020=
0142829860999992016061114004-09401-038251FM-15+026999999V0201401N002619999999N009999199+03101+01801999999ADDGA1021+006101999GE19MSL   +99999+99999GF199999021999006101999999MA1101901999999REMMET051METAR SBUF 111400Z 14005KT 9999 FEW020 31/18 Q1019=
0142829860999992016061115004-09401-038251FM-15+026999999V0201501N002619999999N009999199+03201+01701999999ADDGA1021+006711999GE19MSL   +99999+99999GF199999021999006711999999MA1101801999999REMMET051METAR SBUF 111500Z 15005KT 9999 FEW022 32/17 Q1018=
0142829860999992016061116004-09401-038251FM-15+026999999V0201101N001519999999N009999199+03401+01501999999ADDGA1021+006711999GE19MSL   +99999+99999GF199999021999006711999999MA1101701999999REMMET051METAR SBUF 111600Z 11003KT 9999 FEW022 34/15 Q1017=
0142829860999992016061117004-09401-038251FM-15+026999999V0200901N001519999999N009999199+03301+01401999999ADDGA1021+006711999GE19MSL   +99999+99999GF199999021999006711999999MA1101601999999REMMET051METAR SBUF 111700Z 09003KT 9999 FEW022 33/14 Q1016=
0072829860999992016061118004-09401-038251FM-15+026999999V0201701N001519999999Y999999999+03301+01301999999ADDMA1101601999999REMMET045METAR SBUF 111800Z 17003KT CAVOK 33/13 Q1016=
0072829860999992016061119004-09401-038251FM-15+026999999V0201601N002119999999Y999999999+03401+01201999999ADDMA1101501999999REMMET045METAR SBUF 111900Z 16004KT CAVOK 34/12 Q1015=
0072829860999992016061119454-09401-038251FM-16+026999999V0201301N002619999999Y999999999+03301+01201999999ADDMA1101501999999REMMET045SPECI SBUF 111945Z 13005KT CAVOK 33/12 Q1015=
0142829860999992016061211154-09401-038251FM-16+026999999V0201401N004110051819N009999199+02501+02001999999ADDGA1071+005181999GE19MSL   +99999+99999GF199999071999005181999999MA1102201999999REMMET051SPECI SBUF 121115Z 14008KT 9999 BKN017 25/20 Q1022=
0142829860999992016061212004-09401-038251FM-15+026999999V0201501N004110054919N009999199+02701+01901999999ADDGA1071+005491999GE19MSL   +99999+99999GF199999071999005491999999MA1102201999999REMMET051METAR SBUF 121200Z 15008KT 9999 BKN018 27/19 Q1022=
0142829860999992016061213004-09401-038251FM-15+026999999V0201401N004119999999N009999199+02801+01801999999ADDGA1041+005791999GE19MSL   +99999+99999GF199999041999005791999999MA1102201999999REMMET051METAR SBUF 121300Z 14008KT 9999 SCT019 28/18 Q1022=
0142829860999992016061214004-09401-038251FM-15+026999999V0201501N005119999999N009999199+02901+01701999999ADDGA1041+006101999GE19MSL   +99999+99999GF199999041999006101999999MA1102101999999REMMET051METAR SBUF 121400Z 15010KT 9999 SCT020 29/17 Q1021=
0142829860999992016061215004-09401-038251FM-15+026999999V0201501N004119999999N009999199+03301+01601999999ADDGA1021+006711999GE19MSL   +99999+99999GF199999021999006711999999MA1102001999999REMMET051METAR SBUF 121500Z 15008KT 9999 FEW022 33/16 Q1020=
0142829860999992016061216004-09401-038251FM-15+026999999V0201401N004619999999N009999199+03201+01501999999ADDGA1021+006711999GE19MSL   +99999+99999GF199999021999006711999999MA1101901999999REMMET051METAR SBUF 121600Z 14009KT 9999 FEW022 32/15 Q1019=
0142829860999992016061217004-09401-038251FM-15+026999999V0201101N004119999999N009999199+03301+01401999999ADDGA1021+006711999GE19MSL   +99999+99999GF199999021999006711999999MA1101801999999REMMET051METAR SBUF 121700Z 11008KT 9999 FEW022 33/14 Q1018=
0072829860999992016061218004-09401-038251FM-15+026999999V0201201N004619999999Y999999999+03301+01301999999ADDMA1101701999999REMMET045METAR SBUF 121800Z 12009KT CAVOK 33/13 Q1017=
0072829860999992016061219004-09401-038251FM-15+026999999V0201201N005119999999Y999999999+03301+01301999999ADDMA1101701999999REMMET045METAR SBUF 121900Z 12010KT CAVOK 33/13 Q1017=
0072829860999992016061219454-09401-038251FM-16+026999999V0201201N005119999999Y999999999+03201+01501999999ADDMA1101701999999REMMET045SPECI SBUF 121945Z 12010KT CAVOK 32/15 Q1017=
0142829860999992016061311154-09401-038251FM-16+026999999V0201301N004119999999N009999199+02601+01901999999ADDGA1021+005491999GE19MSL   +99999+99999GF199999021999005491999999MA1102301999999REMMET051SPECI SBUF 131115Z 13008KT 9999 FEW018 26/19 Q1023=
0142829860999992016061312004-09401-038251FM-15+026999999V0201301N004619999999N009999199+02801+01901999999ADDGA1021+006101999GE19MSL   +99999+99999GF199999021999006101999999MA1102301999999REMMET051METAR SBUF 131200Z 13009KT 9999 FEW020 28/19 Q1023=
0142829860999992016061313004-09401-038251FM-15+026999999V0201201N005119999999N009999199+03001+01701999999ADDGA1021+006101999GE19MSL   +99999+99999GF199999021999006101999999MA1102301999999REMMET051METAR SBUF 131300Z 12010KT 9999 FEW020 30/17 Q1023=
0142829860999992016061314004-09401-038251FM-15+026999999V0201201N005119999999N009999199+03201+01701999999ADDGA1041+006101999GE19MSL   +99999+99999GF199999041999006101999999MA1102201999999REMMET051METAR SBUF 131400Z 12010KT 9999 SCT020 32/17 Q1022=
0142829860999992016061315004-09401-038251FM-15+026999999V0201101N005719999999N009999199+03201+01501999999ADDGA1041+006101999GE19MSL   +99999+99999GF199999041999006101999999MA1102101999999REMMET051METAR SBUF 131500Z 11011KT 9999 SCT020 32/15 Q1021=
0142829860999992016061316004-09401-038251FM-15+026999999V0201101N005119999999N009999199+03301+01501999999ADDGA1041+006401999GE19MSL   +99999+99999GF199999041999006401999999MA1102001999999REMMET051METAR SBUF 131600Z 11010KT 9999 SCT021 33/15 Q1020=
0142829860999992016061318004-09401-038251FM-15+026999999V0201101N004619999999N009999199+03201+01401999999ADDGA1021+006401999GE19MSL   +99999+99999GF199999021999006401999999MA1101801999999REMMET051METAR SBUF 131800Z 11009KT 9999 FEW021 32/14 Q1018=
0142829860999992016061319004-09401-038251FM-15+026999999V0201001N004119999999N009999199+03201+01501999999ADDGA1021+006401999GE19MSL   +99999+99999GF199999021999006401999999MA1101801999999REMMET051METAR SBUF 131900Z 10008KT 9999 FEW021 32/15 Q1018=
0142829860999992016061319454-09401-038251FM-16+026999999V0201001N005719999999N009999199+03101+01301999999ADDGA1021+006101999GE19MSL   +99999+99999GF199999021999006101999999MA1101801999999REMMET051SPECI SBUF 131945Z 10011KT 9999 FEW020 31/13 Q1018=
0142829860999992016061411154-09401-038251FM-16+026999999V0201401N006219999999N009999199+02601+01901999999ADDGA1041+005491999GE19MSL   +99999+99999GF199999041999005491999999MA1102402999999REMMET051SPECI SBUF 141115Z 14012KT 9999 SCT018 26/19 Q1024=
0142829860999992016061412004-09401-038251FM-15+026999999V0201601N005719999999N009999199+02701+01801999999ADDGA1041+005791999GE19MSL   +99999+99999GF199999041999005791999999MA1102402999999REMMET051METAR SBUF 141200Z 16011KT 9999 SCT019 27/18 Q1024=
0142829860999992016061413004-09401-038251FM-15+026999999V0201301N006719999999N009999199+02901+01801999999ADDGA1041+006101999GE19MSL   +99999+99999GF199999041999006101999999MA1102402999999REMMET051METAR SBUF 141300Z 13013KT 9999 SCT020 29/18 Q1024=
0142829860999992016061414004-09401-038251FM-15+026999999V0201201N005719999999N009999199+03001+01601999999ADDGA1021+006101999GE19MSL   +99999+99999GF199999021999006101999999MA1102301999999REMMET051METAR SBUF 141400Z 12011KT 9999 FEW020 30/16 Q1023=
0146829860999992016061415004-09401-038251FM-15+026999999V0201001N005710057919N009999199+03101+01501999999ADDGA1071+005791999GE19MSL   +99999+99999GF199999071999005791999999REMMET051METAR SBUF 141500Z 10011KT 9999 BKN019 31/15 Q1012=EQDQ011012  3APOA  
0161829860999992016061416004-09401-038251FM-15+026999999V0200901N004610057919N009999199+99999+01401999999ADDGA1071+005791999GE19MSL   +99999+99999GF199999071999005791999999MA1102001999999REMMET051METAR SBUF 141600Z 09009KT 9999 BKN019 23/14 Q1020=EQDQ0123    3ATOT  
0165829860999992016061417004-09401-038251FM-15+026999999V0201101N00411021341CN009999199+03101+01401999999ADDGA1041+006101999GA2041+021341999GE19MSL   +99999+99999GF199999041999006101999999MA1101901999999REMMET058METAR SBUF 141700Z 11008KT 9999 SCT020 SCT070 31/14 Q1019=
0165829860999992016061418004-09401-038251FM-15+026999999V0201201N00511021341CN009999199+03201+01401999999ADDGA1041+006101999GA2041+021341999GE19MSL   +99999+99999GF199999041999006101999999MA1101901999999REMMET058METAR SBUF 141800Z 12010KT 9999 SCT020 SCT070 32/14 Q1019=
0142829860999992016061419004-09401-038251FM-15+026999999V0201701N004619999999N009999199+03101+01501999999ADDGA1041+006711999GE19MSL   +99999+99999GF199999041999006711999999MA1101901999999REMMET051METAR SBUF 141900Z 17009KT 9999 SCT022 31/15 Q1019=
0142829860999992016061419454-09401-038251FM-16+026999999V0201501N006219999999N009999199+03001+01501999999ADDGA1041+006711999GE19MSL   +99999+99999GF199999041999006711999999MA1102001999999REMMET051SPECI SBUF 141945Z 15012KT 9999 SCT022 30/15 Q1020=
0142829860999992016061511154-09401-038251FM-16+026999999V0201601N004119999999N009999199+02501+01901999999ADDGA1041+005181999GE19MSL   +99999+99999GF199999041999005181999999MA1102402999999REMMET051SPECI SBUF 151115Z 16008KT 9999 SCT017 25/19 Q1024=
0142829860999992016061512004-09401-038251FM-15+026999999V0201501N003610054919N009999199+02601+01901999999ADDGA1071+005491999GE19MSL   +99999+99999GF199999071999005491999999MA1102402999999REMMET051METAR SBUF 151200Z 15007KT 9999 BKN018 26/19 Q1024=
0142829860999992016061513004-09401-038251FM-15+026999999V0201601N004610057919N009999199+02601+01901999999ADDGA1071+005791999GE19MSL   +99999+99999GF199999071999005791999999MA1102301999999REMMET051METAR SBUF 151300Z 16009KT 9999 BKN019 26/19 Q1023=
0142829860999992016061514004-09401-038251FM-15+026999999V0201401N004610057919N009999199+02801+01801999999ADDGA1071+005791999GE19MSL   +99999+99999GF199999071999005791999999MA1102201999999REMMET051METAR SBUF 151400Z 14009KT 9999 BKN019 28/18 Q1022=
0188829860999992016061515004-09401-038251FM-15+026999999V0201001N00361005491CN009999199+02701+01801999999ADDGA1021+005181999GA2041+005491999GA3071+021341999GE19MSL   +99999+99999GF199999021999005181999999MA1102201999999REMMET065METAR SBUF 151500Z 10007KT 9999 FEW017 SCT018 BKN070 27/18 Q1022=
0165829860999992016061517004-09401-038251FM-15+026999999V0201601N00461021341CN009999199+03101+01701999999ADDGA1021+006101999GA2041+021341999GE19MSL   +99999+99999GF199999021999006101999999MA1101901999999REMMET058METAR SBUF 151700Z 16009KT 9999 FEW020 SCT070 31/17 Q1019=
0142829860999992016061518004-09401-038251FM-15+026999999V0201001N003110061019N009999199+03101+01701999999ADDGA1071+006101999GE19MSL   +99999+99999GF199999071999006101999999MA1101801999999REMMET051METAR SBUF 151800Z 10006KT 9999 BKN020 31/17 Q1018=
0142829860999992016061519004-09401-038251FM-15+026999999V0201201N004619999999N009999199+03001+01701999999ADDGA1041+006101999GE19MSL   +99999+99999GF199999041999006101999999MA1101801999999REMMET051METAR SBUF 151900Z 12009KT 9999 SCT020 30/17 Q1018=
0142829860999992016061520004-09401-038251FM-15+026999999V0201701N006710057919N009999199+02701+02001999999ADDGA1071+005791999GE19MSL   +99999+99999GF199999071999005791999999MA1102001999999REMMET051METAR SBUF 152000Z 17013KT 9999 BKN019 27/20 Q1020=
0142829860999992016061521004-09401-038251FM-15+026999999V0201801N003619999999N009999199+02601+02001999999ADDGA1041+005491999GE19MSL   +99999+99999GF199999041999005491999999MA1102001999999REMMET051METAR SBUF 152100Z 18007KT 9999 SCT018 26/20 Q1020=
0165829860999992016061522004-09401-038251FM-15+026999999V0201801N003610213419N009999199+02601+01901999999ADDGA1041+005491999GA2071+021341999GE19MSL   +99999+99999GF199999041999005491999999MA1102101999999REMMET058METAR SBUF 152200Z 18007KT 9999 SCT018 BKN070 26/19 Q1021=
0165829860999992016061522154-09401-038251FM-16+026999999V0201701N004610213419N009999199+02601+02001999999ADDGA1041+005491999GA2071+021341999GE19MSL   +99999+99999GF199999041999005491999999MA1102101999999REMMET058SPECI SBUF 152215Z 17009KT 9999 SCT018 BKN070 26/20 Q1021=
0174829860999992016061611154-09401-038251FM-16+026999999V0201901N003110039619N004000199+02301+02101999999ADDGA1071+003961999GA2071+021341999GE19MSL   +99999+99999GF199999071999003961999999MA1102201999999MW1101REMMET061SPECI SBUF 161115Z 19006KT 4000 BR BKN013 BKN070 23/21 Q1022=
0184829860999992016061612004-09401-038251FM-15+026999999V0201601N004110039619N004000199+02301+02201999999ADDGA1071+003961999GA2071+021341999GE19MSL   +99999+99999GF199999071999003961999999MA1102201999999MW1101MW2611REMMET065METAR SBUF 161200Z 16008KT 4000 -RA BR BKN013 BKN070 23/22 Q1022=
0165829860999992016061613004-09401-038251FM-15+026999999V0201901N004610213419N009999199+02501+02101999999ADDGA1041+005181999GA2071+021341999GE19MSL   +99999+99999GF199999041999005181999999MA1102201999999REMMET058METAR SBUF 161300Z 19009KT 9999 SCT017 BKN070 25/21 Q1022=
0165829860999992016061614004-09401-038251FM-15+026999999V0201801N004110213419N009999199+02501+02001999999ADDGA1041+005491999GA2071+021341999GE19MSL   +99999+99999GF199999041999005491999999MA1102201999999REMMET058METAR SBUF 161400Z 18008KT 9999 SCT018 BKN070 25/20 Q1022=
0165829860999992016061615004-09401-038251FM-15+026999999V0201601N005110057919N009999199+02601+02001999999ADDGA1071+005791999GA2071+021341999GE19MSL   +99999+99999GF199999071999005791999999MA1102001999999REMMET058METAR SBUF 161500Z 16010KT 9999 BKN019 BKN070 26/20 Q1020=
0165829860999992016061616004-09401-038251FM-15+026999999V0201801N005110061019N009999199+02601+01901999999ADDGA1071+006101999GA2071+021341999GE19MSL   +99999+99999GF199999071999006101999999MA1101901999999REMMET058METAR SBUF 161600Z 18010KT 9999 BKN020 BKN070 26/19 Q1019=
0165829860999992016061617004-09401-038251FM-15+026999999V0201701N005710061019N009999199+02601+02001999999ADDGA1071+006101999GA2071+021341999GE19MSL   +99999+99999GF199999071999006101999999MA1101901999999REMMET058METAR SBUF 161700Z 17011KT 9999 BKN020 BKN070 26/20 Q1019=
0165829860999992016061618004-09401-038251FM-15+026999999V0201601N005710057919N009999199+02601+02001999999ADDGA1071+005791999GA2081+021341999GE19MSL   +99999+99999GF199999071999005791999999MA1101801999999REMMET058METAR SBUF 161800Z 16011KT 9999 BKN019 OVC070 26/20 Q1018=
0199829860999992016061619004-09401-038251FM-15+026999999V0201801N005110054919N009999199+02301+02101999999ADDGA1021+004571999GA2071+005491999GA3071+021341999GE19MSL   +99999+99999GF199999021999004571999999MA1101801999999MW1161REMMET070METAR SBUF 161900Z 18010KT 9999 VCSH FEW015 BKN018 BKN070 23/21 Q1018=
0188829860999992016061619454-09401-038251FM-16+026999999V0201801N004610054919N009999199+02401+02101999999ADDGA1041+004271999GA2071+005491999GA3071+021341999GE19MSL   +99999+99999GF199999041999004271999999MA1101801999999REMMET065SPECI SBUF 161945Z 18009KT 9999 SCT014 BKN018 BKN070 24/21 Q1018=
0165829860999992016061711154-09401-038251FM-16+026999999V0201901N005110213419N009999199+02301+01901999999ADDGA1041+004571999GA2071+021341999GE19MSL   +99999+99999GF199999041999004571999999MA1102001999999REMMET058SPECI SBUF 171115Z 19010KT 9999 SCT015 BKN070 23/19 Q1020=
0165829860999992016061712004-09401-038251FM-15+026999999V0201901N005710213419N009999199+02401+01901999999ADDGA1041+004571999GA2071+021341999GE19MSL   +99999+99999GF199999041999004571999999MA1102001999999REMMET058METAR SBUF 171200Z 19011KT 9999 SCT015 BKN070 24/19 Q1020=
0165829860999992016061713004-09401-038251FM-15+026999999V0201801N004610213419N009999199+02301+02001999999ADDGA1041+004571999GA2071+021341999GE19MSL   +99999+99999GF199999041999004571999999MA1102101999999REMMET058METAR SBUF 171300Z 18009KT 9999 SCT015 BKN070 23/20 Q1021=
0188829860999992016061714004-09401-038251FM-15+026999999V0201501N00511005181CN009999199+02501+01901999999ADDGA1021+004571999GA2041+005181999GA3071+021341999GE19MSL   +99999+99999GF199999021999004571999999MA1102001999999REMMET065METAR SBUF 171400Z 15010KT 9999 FEW015 SCT017 BKN070 25/19 Q1020=
0176829860999992016061715004-09401-038251FM-15+026999999V0201401N004110048819N009999199+02401+02101999999ADDGA1071+004881999GA2071+021341999GE19MSL   +99999+99999GF199999071999004881999999MA1101901999999MW1161REMMET063METAR SBUF 171500Z 14008KT 9999 VCSH BKN016 BKN070 24/21 Q1019=
0165829860999992016061716004-09401-038251FM-15+026999999V0201201N002110243819N009999199+02701+02101999999ADDGA1041+005181999GA2071+024381999GE19MSL   +99999+99999GF199999041999005181999999MA1101801999999REMMET058METAR SBUF 171600Z 12004KT 9999 SCT017 BKN080 27/21 Q1018=
0191829860999992016061717004-09401-038251FM-15+026999999V0201201N003110213419N009999199+02401+02301999999ADDGA1041+004881999GA2021+006101081GA3071+021341999GE19MSL   +99999+99999GF199999041999004881999999MA1101701999999REMMET068METAR SBUF 171700Z 12006KT 9999 SCT016 FEW020TCU BKN070 24/23 Q1017=
0188829860999992016061718004-09401-038251FM-15+026999999V0201801N00311004571CN009999199+02401+02301999999ADDGA1021+002441999GA2041+004571999GA3071+021341999GE19MSL   +99999+99999GF199999021999002441999999MA1101701999999REMMET065METAR SBUF 171800Z 18006KT 9999 FEW008 SCT015 BKN070 24/23 Q1017=
0168829860999992016061719004-09401-038251FM-15+026999999V0201901N003619999999N009999199+02501+02201999999ADDGA1041+004881999GA2021+006101081GE19MSL   +99999+99999GF199999041999004881999999MA1101601999999REMMET061METAR SBUF 171900Z 19007KT 9999 SCT016 FEW020TCU 25/22 Q1016=
0142829860999992016061719454-09401-038251FM-16+026999999V0201801N002619999999N009999199+02401+02101999999ADDGA1021+004881999GE19MSL   +99999+99999GF199999021999004881999999MA1101701999999REMMET051SPECI SBUF 171945Z 18005KT 9999 FEW016 24/21 Q1017=
0165829860999992016061811154-09401-038251FM-16+026999999V0201801N003110213419N009999199+02301+02101999999ADDGA1021+003961999GA2071+021341999GE19MSL   +99999+99999GF199999021999003961999999MA1102101999999REMMET058SPECI SBUF 181115Z 18006KT 9999 FEW013 BKN070 23/21 Q1021=
0165829860999992016061812004-09401-038251FM-15+026999999V0201701N003610213419N009999199+02401+02001999999ADDGA1041+003961999GA2071+021341999GE19MSL   +99999+99999GF199999041999003961999999MA1102101999999REMMET058METAR SBUF 181200Z 17007KT 9999 SCT013 BKN070 24/20 Q1021=
0142829860999992016061813004-09401-038251FM-15+026999999V0201601N002610051819N009999199+02701+02001999999ADDGA1071+005181999GE19MSL   +99999+99999GF199999071999005181999999MA1102101999999REMMET051METAR SBUF 181300Z 16005KT 9999 BKN017 27/20 Q1021=
0142829860999992016061814004-09401-038251FM-15+026999999V0201601N003110054919N009999199+02701+01901999999ADDGA1071+005491999GE19MSL   +99999+99999GF199999071999005491999999MA1102001999999REMMET051METAR SBUF 181400Z 16006KT 9999 BKN018 27/19 Q1020=
0142829860999992016061815004-09401-038251FM-15+026999999V0201801N003110061019N009999199+02901+01801999999ADDGA1071+006101999GE19MSL   +99999+99999GF199999071999006101999999MA1101901999999REMMET051METAR SBUF 181500Z 18006KT 9999 BKN020 29/18 Q1019=
0142829860999992016061817004-09401-038251FM-15+026999999V0201101N004610061019N009999199+03101+01701999999ADDGA1071+006101999GE19MSL   +99999+99999GF199999071999006101999999MA1101701999999REMMET051METAR SBUF 181700Z 11009KT 9999 BKN020 31/17 Q1017=
0142829860999992016061818004-09401-038251FM-15+026999999V0201301N004619999999N009999199+03101+01701999999ADDGA1041+006401999GE19MSL   +99999+99999GF199999041999006401999999MA1101601999999REMMET051METAR SBUF 181800Z 13009KT 9999 SCT021 31/17 Q1016=
0142829860999992016061819004-09401-038251FM-15+026999999V0201501N004119999999N009999199+03001+01801999999ADDGA1041+006401999GE19MSL   +99999+99999GF199999041999006401999999MA1101601999999REMMET051METAR SBUF 181900Z 15008KT 9999 SCT021 30/18 Q1016=
0142829860999992016061819454-09401-038251FM-16+026999999V0201501N005119999999N009999199+02901+01901999999ADDGA1021+006401999GE19MSL   +99999+99999GF199999021999006401999999MA1101601999999REMMET051SPECI SBUF 181945Z 15010KT 9999 FEW021 29/19 Q1016=
0165829860999992016061906154-09401-038251FM-16+026999999V0201901N00151021341CN009999199+02201+02101999999ADDGA1041+003351999GA2041+021341999GE19MSL   +99999+99999GF199999041999003351999999MA1101901999999REMMET058SPECI SBUF 190615Z 19003KT 9999 SCT011 SCT070 22/21 Q1019=
0165829860999992016061907004-09401-038251FM-15+026999999V0201801N00211003351CN009999199+02201+02101999999ADDGA1021+002441999GA2041+003351999GE19MSL   +99999+99999GF199999021999002441999999MA1101901999999REMMET058METAR SBUF 190700Z 18004KT 9999 FEW008 SCT011 22/21 Q1019=
0188829860999992016061908004-09401-038251FM-15+026999999V0201701N00211003351CN009999199+02201+02101999999ADDGA1021+002441999GA2041+003351999GA3071+021341999GE19MSL   +99999+99999GF199999021999002441999999MA1101901999999REMMET065METAR SBUF 190800Z 17004KT 9999 FEW008 SCT011 BKN070 22/21 Q1019=
0165829860999992016061909004-09401-038251FM-15+026999999V0201401N00211021341CN009999199+02201+02101999999ADDGA1041+003351999GA2041+021341999GE19MSL   +99999+99999GF199999041999003351999999MA1101901999999REMMET058METAR SBUF 190900Z 14004KT 9999 SCT011 SCT070 22/21 Q1019=
0165829860999992016061910004-09401-038251FM-15+026999999V0201401N00211021341CN009999199+02201+02101999999ADDGA1041+003351999GA2041+021341999GE19MSL   +99999+99999GF199999041999003351999999MA1102001999999REMMET058METAR SBUF 191000Z 14004KT 9999 SCT011 SCT070 22/21 Q1020=
0165829860999992016061911004-09401-038251FM-15+026999999V0201601N00151021341CN009999199+02501+02101999999ADDGA1041+003961999GA2041+021341999GE19MSL   +99999+99999GF199999041999003961999999MA1102101999999REMMET058METAR SBUF 191100Z 16003KT 9999 SCT013 SCT070 25/21 Q1021=
0165829860999992016061912004-09401-038251FM-15+026999999V0201001N002110045719N009999199+02401+02101999999ADDGA1071+004571999GA2041+021341999GE19MSL   +99999+99999GF199999071999004571999999MA1102101999999REMMET058METAR SBUF 191200Z 10004KT 9999 BKN015 SCT070 24/21 Q1021=
0179829860999992016061913004-09401-038251FM-15+026999999V0201001N004619999999N009999199+02701+02101999999ADDGA1041+005181999GA2021+006101081GE19MSL   +99999+99999GF199999041999005181999999MA1102101999999MW1161REMMET066METAR SBUF 191300Z 10009KT 9999 VCSH SCT017 FEW020TCU 27/21 Q1021=
0142829860999992016061914004-09401-038251FM-15+026999999V0201601N003610051819N009999199+02701+02001999999ADDGA1071+005181999GE19MSL   +99999+99999GF199999071999005181999999MA1102001999999REMMET051METAR SBUF 191400Z 16007KT 9999 BKN017 27/20 Q1020=
0153829860999992016061915004-09401-038251FM-15+026999999V0201201N005110057919N009999199+02901+02001999999ADDGA1071+005791999GE19MSL   +99999+99999GF199999071999005791999999MA1101801999999MW1161REMMET056METAR SBUF 191500Z 12010KT 9999 VCSH BKN019 29/20 Q1018=
0202829860999992016061916004-09401-038251FM-15+026999999V0201101N00571006401CN009999199+02901+02001999999ADDGA1041+005791999GA2041+006401081GA3071+021341999GE19MSL   +99999+99999GF199999041999005791999999MA1101801999999MW1161REMMET073METAR SBUF 191600Z 11011KT 9999 VCSH SCT019 SCT021TCU BKN070 29/20 Q1018=
0142829860999992016061918004-09401-038251FM-15+026999999V0201201N005719999999N009999199+02901+01901999999ADDGA1041+006401999GE19MSL   +99999+99999GF199999041999006401999999MA1101601999999REMMET051METAR SBUF 191800Z 12011KT 9999 SCT021 29/19 Q1016=
0142829860999992016061919004-09401-038251FM-15+026999999V0201301N005119999999N009999199+03101+01901999999ADDGA1041+006101999GE19MSL   +99999+99999GF199999041999006101999999MA1101601999999REMMET051METAR SBUF 191900Z 13010KT 9999 SCT020 31/19 Q1016=
0142829860999992016061919454-09401-038251FM-16+026999999V0201301N004119999999N009999199+02801+01901999999ADDGA1041+006101999GE19MSL   +99999+99999GF199999041999006101999999MA1101601999999REMMET051SPECI SBUF 191945Z 13008KT 9999 SCT020 28/19 Q1016=
0165829860999992016062011304-09401-038251FM-16+026999999V0201501N001510213419N009999199+02201+02101999999ADDGA1041+005491999GA2071+021341999GE19MSL   +99999+99999GF199999041999005491999999MA1102001999999REMMET058SPECI SBUF 201130Z 15003KT 9999 SCT018 BKN070 22/21 Q1020=
0165829860999992016062012004-09401-038251FM-15+026999999V0201701N002110213419N009999199+02201+02101999999ADDGA1041+005491999GA2071+021341999GE19MSL   +99999+99999GF199999041999005491999999MA1102101999999REMMET058METAR SBUF 201200Z 17004KT 9999 SCT018 BKN070 22/21 Q1021=
0142829860999992016062013004-09401-038251FM-15+026999999V0201001N005110061019N009999199+02601+02101999999ADDGA1071+006101999GE19MSL   +99999+99999GF199999071999006101999999MA1102001999999REMMET051METAR SBUF 201300Z 10010KT 9999 BKN020 26/21 Q1020=
0142829860999992016062014004-09401-038251FM-15+026999999V0201201N005719999999N009999199+02801+01901999999ADDGA1041+006101999GE19MSL   +99999+99999GF199999041999006101999999MA1101901999999REMMET051METAR SBUF 201400Z 12011KT 9999 SCT020 28/19 Q1019=
0142829860999992016062015004-09401-038251FM-15+026999999V0200901N005710061019N009999199+03001+01701999999ADDGA1071+006101999GE19MSL   +99999+99999GF199999071999006101999999MA1101801999999REMMET051METAR SBUF 201500Z 09011KT 9999 BKN020 30/17 Q1018=
0142829860999992016062016004-09401-038251FM-15+026999999V0201301N006219999999N009999199+03001+01601999999ADDGA1041+006101999GE19MSL   +99999+99999GF199999041999006101999999MA1101701999999REMMET051METAR SBUF 201600Z 13012KT 9999 SCT020 30/16 Q1017=
0142829860999992016062017004-09401-038251FM-15+026999999V0201101N006219999999N009999199+03101+01301999999ADDGA1041+006101999GE19MSL   +99999+99999GF199999041999006101999999MA1101601999999REMMET051METAR SBUF 201700Z 11012KT 9999 SCT020 31/13 Q1016=
0142829860999992016062018004-09401-038251FM-15+026999999V0201101N005719999999N009999199+03201+01201999999ADDGA1041+006101999GE19MSL   +99999+99999GF199999041999006101999999MA1101601999999REMMET051METAR SBUF 201800Z 11011KT 9999 SCT020 32/12 Q1016=
0142829860999992016062019004-09401-038251FM-15+026999999V0201301N006219999999N009999199+03001+01501999999ADDGA1041+006101999GE19MSL   +99999+99999GF199999041999006101999999MA1101601999999REMMET051METAR SBUF 201900Z 13012KT 9999 SCT020 30/15 Q1016=
0142829860999992016062019454-09401-038251FM-16+026999999V0201301N006719999999N009999199+02801+01401999999ADDGA1041+006101999GE19MSL   +99999+99999GF199999041999006101999999MA1101601999999REMMET051SPECI SBUF 201945Z 13013KT 9999 SCT020 28/14 Q1016=
0142829860999992016062111154-09401-038251FM-16+026999999V0201601N002110054919N009999199+02301+01901999999ADDGA1071+005491999GE19MSL   +99999+99999GF199999071999005491999999MA1102101999999REMMET051SPECI SBUF 211115Z 16004KT 9999 BKN018 23/19 Q1021=
0142829860999992016062112004-09401-038251FM-15+026999999V0201301N004119999999N009999199+02601+02001999999ADDGA1041+005791999GE19MSL   +99999+99999GF199999041999005791999999MA1102101999999REMMET051METAR SBUF 211200Z 13008KT 9999 SCT019 26/20 Q1021=
0142829860999992016062113004-09401-038251FM-15+026999999V0201201N005710061019N009999199+02801+01801999999ADDGA1071+006101999GE19MSL   +99999+99999GF199999071999006101999999MA1102101999999REMMET051METAR SBUF 211300Z 12011KT 9999 BKN020 28/18 Q1021=
0142829860999992016062114004-09401-038251FM-15+026999999V0201101N005119999999N009999199+03101+01701999999ADDGA1041+006101999GE19MSL   +99999+99999GF199999041999006101999999MA1102001999999REMMET051METAR SBUF 211400Z 11010KT 9999 SCT020 31/17 Q1020=
0142829860999992016062115004-09401-038251FM-15+026999999V0201201N005110061019N009999199+03001+01601999999ADDGA1071+006101999GE19MSL   +99999+99999GF199999071999006101999999MA1101901999999REMMET051METAR SBUF 211500Z 12010KT 9999 BKN020 30/16 Q1019=
0142829860999992016062117004-09401-038251FM-15+026999999V0201301N006719999999N009999199+03001+01801999999ADDGA1041+006101999GE19MSL   +99999+99999GF199999041999006101999999MA1101701999999REMMET051METAR SBUF 211700Z 13013KT 9999 SCT020 30/18 Q1017=
0142829860999992016062118004-09401-038251FM-15+026999999V0201401N006219999999N009999199+03001+01701999999ADDGA1041+006101999GE19MSL   +99999+99999GF199999041999006101999999MA1101701999999REMMET051METAR SBUF 211800Z 14012KT 9999 SCT020 30/17 Q1017=
0142829860999992016062119004-09401-038251FM-15+026999999V0201501N006219999999N009999199+02901+01801999999ADDGA1041+006101999GE19MSL   +99999+99999GF199999041999006101999999MA1101701999999REMMET051METAR SBUF 211900Z 15012KT 9999 SCT020 29/18 Q1017=
0142829860999992016062119454-09401-038251FM-16+026999999V0201501N006219999999N009999199+02801+01801999999ADDGA1041+006101999GE19MSL   +99999+99999GF199999041999006101999999MA1101701999999REMMET051SPECI SBUF 211945Z 15012KT 9999 SCT020 28/18 Q1017=
0165829860999992016062211254-09401-038251FM-16+026999999V0201701N005110036619N009999199+02301+02101999999ADDGA1071+003661999GA2071+021341999GE19MSL   +99999+99999GF199999071999003661999999MA1102101999999REMMET058SPECI SBUF 221125Z 17010KT 9999 BKN012 BKN070 23/21 Q1021=
0165829860999992016062212004-09401-038251FM-15+026999999V0201501N006210045719N009999199+02301+02101999999ADDGA1071+004571999GA2071+021341999GE19MSL   +99999+99999GF199999071999004571999999MA1102201999999REMMET058METAR SBUF 221200Z 15012KT 9999 BKN015 BKN070 23/21 Q1022=
0165829860999992016062213004-09401-038251FM-15+026999999V0201301N004610213419N009999199+02301+02201999999ADDGA1041+004571999GA2071+021341999GE19MSL   +99999+99999GF199999041999004571999999MA1102101999999REMMET058METAR SBUF 221300Z 13009KT 9999 SCT015 BKN070 23/22 Q1021=
0165829860999992016062214004-09401-038251FM-15+026999999V0201501N005710213419N009999199+02401+02201999999ADDGA1041+004571999GA2071+021341999GE19MSL   +99999+99999GF199999041999004571999999MA1102101999999REMMET058METAR SBUF 221400Z 15011KT 9999 SCT015 BKN070 24/22 Q1021=
0184829860999992016062215004-09401-038251FM-15+026999999V0201101N004610042719N004000199+02401+02301999999ADDGA1071+004271999GA2071+021341999GE19MSL   +99999+99999GF199999071999004271999999MA1102001999999MW1101MW2611REMMET065METAR SBUF 221500Z 11009KT 4000 -RA BR BKN014 BKN070 24/23 Q1020=
0165829860999992016062216004-09401-038251FM-15+026999999V0201401N006710042719N009999199+02501+02201999999ADDGA1071+004271999GA2071+021341999GE19MSL   +99999+99999GF199999071999004271999999MA1101901999999REMMET058METAR SBUF 221600Z 14013KT 9999 BKN014 BKN070 25/22 Q1019=
0165829860999992016062217004-09401-038251FM-15+026999999V0201201N005110042719N009999199+02301+02301999999ADDGA1071+004271999GA2071+021341999GE19MSL   +99999+99999GF199999071999004271999999MA1101801999999REMMET058METAR SBUF 221700Z 12010KT 9999 BKN014 BKN070 23/23 Q1018=
0165829860999992016062218004-09401-038251FM-15+026999999V0201201N003610213419N009999199+02401+02301999999ADDGA1041+004881999GA2071+021341999GE19MSL   +99999+99999GF199999041999004881999999MA1101801999999REMMET058METAR SBUF 221800Z 12007KT 9999 SCT016 BKN070 24/23 Q1018=
0174829860999992016062218204-09401-038251FM-16+026999999V0200801N003610042719N003000199+02301+02301999999ADDGA1071+004271999GA2071+021341999GE19MSL   +99999+99999GF199999071999004271999999MA1101801999999MW1631REMMET061SPECI SBUF 221820Z 08007KT 3000 RA BKN014 BKN070 23/23 Q1018=
0174829860999992016062219004-09401-038251FM-15+026999999V0201301N007710042719N003000199+02201+02101999999ADDGA1071+004271999GA2071+021341999GE19MSL   +99999+99999GF199999071999004271999999MA1101801999999MW1631REMMET061METAR SBUF 221900Z 13015KT 3000 RA BKN014 BKN070 22/21 Q1018=
0165829860999992016062219454-09401-038251FM-16+026999999V0201701N002110213419N009999199+02201+02201999999ADDGA1041+004571999GA2071+021341999GE19MSL   +99999+99999GF199999041999004571999999MA1101801999999REMMET058SPECI SBUF 221945Z 17004KT 9999 SCT015 BKN070 22/22 Q1018=
0165829860999992016062311154-09401-038251FM-16+026999999V0201401N003110042719N009999199+02301+02101999999ADDGA1071+004271999GA2071+021341999GE19MSL   +99999+99999GF199999071999004271999999MA1102101999999REMMET058SPECI SBUF 231115Z 14006KT 9999 BKN014 BKN070 23/21 Q1021=
0165829860999992016062312004-09401-038251FM-15+026999999V0201401N00461021341CN009999199+02401+02001999999ADDGA1041+005491999GA2041+021341999GE19MSL   +99999+99999GF199999041999005491999999MA1102101999999REMMET058METAR SBUF 231200Z 14009KT 9999 SCT018 SCT070 24/20 Q1021=
0142829860999992016062313004-09401-038251FM-15+026999999V0201401N006219999999N009999199+02701+02001999999ADDGA1041+005791999GE19MSL   +99999+99999GF199999041999005791999999MA1102001999999REMMET051METAR SBUF 231300Z 14012KT 9999 SCT019 27/20 Q1020=
0142829860999992016062314004-09401-038251FM-15+026999999V0201301N006219999999N009999199+02901+01801999999ADDGA1041+006101999GE19MSL   +99999+99999GF199999041999006101999999MA1101901999999REMMET051METAR SBUF 231400Z 13012KT 9999 SCT020 29/18 Q1019=
0142829860999992016062315004-09401-038251FM-15+026999999V0201301N005119999999N009999199+03001+01801999999ADDGA1041+006101999GE19MSL   +99999+99999GF199999041999006101999999MA1101901999999REMMET051METAR SBUF 231500Z 13010KT 9999 SCT020 30/18 Q1019=
0142829860999992016062316004-09401-038251FM-15+026999999V0201401N005719999999N009999199+03101+01601999999ADDGA1041+006101999GE19MSL   +99999+99999GF199999041999006101999999MA1101801999999REMMET051METAR SBUF 231600Z 14011KT 9999 SCT020 31/16 Q1018=
0142829860999992016062317004-09401-038251FM-15+026999999V0201401N005119999999N009999199+03001+01701999999ADDGA1041+006101999GE19MSL   +99999+99999GF199999041999006101999999MA1101701999999REMMET051METAR SBUF 231700Z 14010KT 9999 SCT020 30/17 Q1017=
0142829860999992016062318004-09401-038251FM-15+026999999V0201401N005119999999N009999199+03101+01601999999ADDGA1041+006101999GE19MSL   +99999+99999GF199999041999006101999999MA1101701999999REMMET051METAR SBUF 231800Z 14010KT 9999 SCT020 31/16 Q1017=
0142829860999992016062319004-09401-038251FM-15+026999999V0201601N004119999999N009999199+03001+01501999999ADDGA1021+006101999GE19MSL   +99999+99999GF199999021999006101999999MA1101701999999REMMET051METAR SBUF 231900Z 16008KT 9999 FEW020 30/15 Q1017=
0142829860999992016062319454-09401-038251FM-16+026999999V0201501N003619999999N009999199+02801+01701999999ADDGA1021+006101999GE19MSL   +99999+99999GF199999021999006101999999MA1101701999999REMMET051SPECI SBUF 231945Z 15007KT 9999 FEW020 28/17 Q1017=
0142829860999992016062411154-09401-038251FM-16+026999999V0201601N003610027419N009999199+02201+02101999999ADDGA1071+002741999GE19MSL   +99999+99999GF199999071999002741999999MA1102001999999REMMET051SPECI SBUF 241115Z 16007KT 9999 BKN009 22/21 Q1020=
0165829860999992016062412004-09401-038251FM-15+026999999V0201301N005110036619N009999199+02301+02001999999ADDGA1071+003661999GA2041+021341999GE19MSL   +99999+99999GF199999071999003661999999MA1102101999999REMMET058METAR SBUF 241200Z 13010KT 9999 BKN012 SCT070 23/20 Q1021=
0165829860999992016062412354-09401-038251FM-16+026999999V0201701N00411021341CN009999199+02401+02001999999ADDGA1041+003961999GA2041+021341999GE19MSL   +99999+99999GF199999041999003961999999MA1102101999999REMMET058SPECI SBUF 241235Z 17008KT 9999 SCT013 SCT070 24/20 Q1021=
0165829860999992016062413004-09401-038251FM-15+026999999V0201501N00411021341CN009999199+02501+02001999999ADDGA1041+004881999GA2041+021341999GE19MSL   +99999+99999GF199999041999004881999999MA1102101999999REMMET058METAR SBUF 241300Z 15008KT 9999 SCT016 SCT070 25/20 Q1021=
0165829860999992016062414004-09401-038251FM-15+026999999V0201401N003610051819N009999199+02701+02001999999ADDGA1071+005181999GA2041+021341999GE19MSL   +99999+99999GF199999071999005181999999MA1102001999999REMMET058METAR SBUF 241400Z 14007KT 9999 BKN017 SCT070 27/20 Q1020=
0165829860999992016062415004-09401-038251FM-15+026999999V0201501N004110054919N009999199+02801+01901999999ADDGA1071+005491999GA2041+021341999GE19MSL   +99999+99999GF199999071999005491999999MA1101901999999REMMET058METAR SBUF 241500Z 15008KT 9999 BKN018 SCT070 28/19 Q1019=
0142829860999992016062416004-09401-038251FM-15+026999999V0201501N004110054919N009999199+02701+01901999999ADDGA1071+005491999GE19MSL   +99999+99999GF199999071999005491999999MA1101801999999REMMET051METAR SBUF 241600Z 15008KT 9999 BKN018 27/19 Q1018=
0142829860999992016062417004-09401-038251FM-15+026999999V0201801N003610054919N009999199+02901+01901999999ADDGA1071+005491999GE19MSL   +99999+99999GF199999071999005491999999MA1101701999999REMMET051METAR SBUF 241700Z 18007KT 9999 BKN018 29/19 Q1017=
0142829860999992016062418004-09401-038251FM-15+026999999V0201601N004110054919N009999199+02801+01901999999ADDGA1071+005491999GE19MSL   +99999+99999GF199999071999005491999999MA1101701999999REMMET051METAR SBUF 241800Z 16008KT 9999 BKN018 28/19 Q1017=
0142829860999992016062419004-09401-038251FM-15+026999999V0201401N004619999999N009999199+02801+01901999999ADDGA1041+005791999GE19MSL   +99999+99999GF199999041999005791999999MA1101701999999REMMET051METAR SBUF 241900Z 14009KT 9999 SCT019 28/19 Q1017=
0142829860999992016062420004-09401-038251FM-15+026999999V0201701N003619999999N009999199+02701+01901999999ADDGA1041+005791999GE19MSL   +99999+99999GF199999041999005791999999MA1101701999999REMMET051METAR SBUF 242000Z 17007KT 9999 SCT019 27/19 Q1017=
0142829860999992016062421004-09401-038251FM-15+026999999V0201801N003110051819N009999199+02601+01901999999ADDGA1071+005181999GE19MSL   +99999+99999GF199999071999005181999999MA1101801999999REMMET051METAR SBUF 242100Z 18006KT 9999 BKN017 26/19 Q1018=
0142829860999992016062422004-09401-038251FM-15+026999999V0201501N004619999999N009999199+02501+02001999999ADDGA1041+005181999GE19MSL   +99999+99999GF199999041999005181999999MA1101901999999REMMET051METAR SBUF 242200Z 15009KT 9999 SCT017 25/20 Q1019=
0142829860999992016062422454-09401-038251FM-16+026999999V0201501N004619999999N009999199+02401+01901999999ADDGA1041+005181999GE19MSL   +99999+99999GF199999041999005181999999MA1101901999999REMMET051SPECI SBUF 242245Z 15009KT 9999 SCT017 24/19 Q1019=
0142829860999992016062511154-09401-038251FM-16+026999999V0201401N002619999999N009999199+02201+02001999999ADDGA1041+003661999GE19MSL   +99999+99999GF199999041999003661999999MA1102101999999REMMET051SPECI SBUF 251115Z 14005KT 9999 SCT012 22/20 Q1021=
0165829860999992016062512004-09401-038251FM-15+026999999V0201301N004610048819N009999199+02501+02001999999ADDGA1021+003961999GA2071+004881999GE19MSL   +99999+99999GF199999021999003961999999MA1102101999999REMMET058METAR SBUF 251200Z 13009KT 9999 FEW013 BKN016 25/20 Q1021=
0188829860999992016062513004-09401-038251FM-15+026999999V0201401N003110045719N009999199+02301+02201999999ADDGA1021+003961999GA2071+004571999GA3071+021341999GE19MSL   +99999+99999GF199999021999003961999999MA1102101999999REMMET065METAR SBUF 251300Z 14006KT 9999 FEW013 BKN015 BKN070 23/22 Q1021=
0165829860999992016062514004-09401-038251FM-15+026999999V0201401N004110051819N009999199+02501+02001999999ADDGA1071+005181999GA2041+021341999GE19MSL   +99999+99999GF199999071999005181999999MA1102001999999REMMET058METAR SBUF 251400Z 14008KT 9999 BKN017 SCT070 25/20 Q1020=
0165829860999992016062515004-09401-038251FM-15+026999999V0201301N004610054919N009999199+02701+02001999999ADDGA1071+005491999GA2041+021341999GE19MSL   +99999+99999GF199999071999005491999999MA1101901999999REMMET058METAR SBUF 251500Z 13009KT 9999 BKN018 SCT070 27/20 Q1019=
0165829860999992016062516004-09401-038251FM-15+026999999V0201401N005110054919N009999199+02701+02101999999ADDGA1071+005491999GA2041+021341999GE19MSL   +99999+99999GF199999071999005491999999MA1101801999999REMMET058METAR SBUF 251600Z 14010KT 9999 BKN018 SCT070 27/21 Q1018=
0142829860999992016062517004-09401-038251FM-15+026999999V0201401N003610054919N009999199+02901+02001999999ADDGA1071+005491999GE19MSL   +99999+99999GF199999071999005491999999MA1101701999999REMMET051METAR SBUF 251700Z 14007KT 9999 BKN018 29/20 Q1017=
0198829860999992016062518004-09401-038251FM-15+026999999V0201301N006710045719N008000199+02401+02201999999ADDGA1021+003961999GA2071+004571999GA3071+021341999GE19MSL   +99999+99999GF199999021999003961999999MA1101701999999MW1611REMMET069METAR SBUF 251800Z 13013KT 8000 -RA FEW013 BKN015 BKN070 24/22 Q1017=
0175829860999992016062519004-09401-038251FM-15+026999999V0201601N006210213419N008000199+02301+02201999999ADDGA1041+003961999GA2081+021341999GE19MSL   +99999+99999GF199999041999003961999999MA1101801999999MW1611REMMET062METAR SBUF 251900Z 16012KT 8000 -RA SCT013 OVC070 23/22 Q1018=
0175829860999992016062519104-09401-038251FM-16+026999999V0201601N005710039619N004000199+02301+02201999999ADDGA1071+003961999GA2081+021341999GE19MSL   +99999+99999GF199999071999003961999999MA1101801999999MW1611REMMET062SPECI SBUF 251910Z 16011KT 4000 -RA BKN013 OVC070 23/22 Q1018=
0175829860999992016062520004-09401-038251FM-15+026999999V0201701N004610213419N004000199+02201+02201999999ADDGA1041+003661999GA2081+021341999GE19MSL   +99999+99999GF199999041999003661999999MA1101801999999MW1611REMMET062METAR SBUF 252000Z 17009KT 4000 -RA SCT012 OVC070 22/22 Q1018=
0188829860999992016062520254-09401-038251FM-16+026999999V0201701N00361003661CN009999199+02201+02201999999ADDGA1021+002441999GA2041+003661999GA3081+021341999GE19MSL   +99999+99999GF199999021999002441999999MA1101801999999REMMET065SPECI SBUF 252025Z 17007KT 9999 FEW008 SCT012 OVC070 22/22 Q1018=
0188829860999992016062521004-09401-038251FM-15+026999999V0201501N00461003661CN009999199+02301+02201999999ADDGA1021+002441999GA2041+003661999GA3081+021341999GE19MSL   +99999+99999GF199999021999002441999999MA1101801999999REMMET065METAR SBUF 252100Z 15009KT 9999 FEW008 SCT012 OVC070 23/22 Q1018=
0165829860999992016062522004-09401-038251FM-15+026999999V0201501N006210213419N009999199+02201+02101999999ADDGA1041+003661999GA2081+021341999GE19MSL   +99999+99999GF199999041999003661999999MA1101901999999REMMET058METAR SBUF 252200Z 15012KT 9999 SCT012 OVC070 22/21 Q1019=
0165829860999992016062523004-09401-038251FM-15+026999999V0201501N006210213419N009999199+02201+02101999999ADDGA1041+003351999GA2071+021341999GE19MSL   +99999+99999GF199999041999003351999999MA1101901999999REMMET058METAR SBUF 252300Z 15012KT 9999 SCT011 BKN070 22/21 Q1019=
0165829860999992016062523454-09401-038251FM-16+026999999V0201501N005710213419N009999199+02201+02101999999ADDGA1041+003351999GA2071+021341999GE19MSL   +99999+99999GF199999041999003351999999MA1101901999999REMMET058SPECI SBUF 252345Z 15011KT 9999 SCT011 BKN070 22/21 Q1019=
0184829860999992016062611154-09401-038251FM-16+026999999V0200901N002610213419N004000199+02101+02101999999ADDGA1041+003661999GA2071+021341999GE19MSL   +99999+99999GF199999041999003661999999MA1102101999999MW1101MW2611REMMET065SPECI SBUF 261115Z 09005KT 4000 -RA BR SCT012 BKN070 21/21 Q1021=
0184829860999992016062612004-09401-038251FM-15+026999999V0201001N004110213419N003000199+02201+02101999999ADDGA1041+003661999GA2071+021341999GE19MSL   +99999+99999GF199999041999003661999999MA1102101999999MW1101MW2611REMMET065METAR SBUF 261200Z 10008KT 3000 -RA BR SCT012 BKN070 22/21 Q1021=
0193829860999992016062613004-09401-038251FM-15+026999999V0201001N00411003961CN009999199+02301+02201999999ADDGA1021+003661999GA2041+003961999GA3071+021341999GE19MSL   +99999+99999GF199999021999003661999999MA1102101999999REMMET070METAR SBUF 261300Z 10008KT 9999 FEW012 SCT013 BKN070 23/22 Q1021 RERA=
0165829860999992016062614004-09401-038251FM-15+026999999V0201001N00571005181CN009999199+02601+02101999999ADDGA1021+003961999GA2041+005181999GE19MSL   +99999+99999GF199999021999003961999999MA1102101999999REMMET058METAR SBUF 261400Z 10011KT 9999 FEW013 SCT017 26/21 Q1021=
0142829860999992016062615004-09401-038251FM-15+026999999V0201301N004610054919N009999199+02701+02101999999ADDGA1071+005491999GE19MSL   +99999+99999GF199999071999005491999999MA1102001999999REMMET051METAR SBUF 261500Z 13009KT 9999 BKN018 27/21 Q1020=
0142829860999992016062616004-09401-038251FM-15+026999999V0201401N006219999999N009999199+02801+02001999999ADDGA1041+005791999GE19MSL   +99999+99999GF199999041999005791999999MA1101901999999REMMET051METAR SBUF 261600Z 14012KT 9999 SCT019 28/20 Q1019=
0142829860999992016062617004-09401-038251FM-15+026999999V0201501N005719999999N009999199+02901+01801999999ADDGA1041+006101999GE19MSL   +99999+99999GF199999041999006101999999MA1101801999999REMMET051METAR SBUF 261700Z 15011KT 9999 SCT020 29/18 Q1018=
0142829860999992016062618004-09401-038251FM-15+026999999V0201401N006719999999N009999199+02901+01601999999ADDGA1021+006101999GE19MSL   +99999+99999GF199999021999006101999999MA1101801999999REMMET051METAR SBUF 261800Z 14013KT 9999 FEW020 29/16 Q1018=
0142829860999992016062619004-09401-038251FM-15+026999999V0201301N007719999999N009999199+02801+01501999999ADDGA1021+006101999GE19MSL   +99999+99999GF199999021999006101999999MA1101801999999REMMET051METAR SBUF 261900Z 13015KT 9999 FEW020 28/15 Q1018=
0142829860999992016062619454-09401-038251FM-16+026999999V0201401N006719999999N009999199+02701+01601999999ADDGA1021+006101999GE19MSL   +99999+99999GF199999021999006101999999MA1101801999999REMMET051SPECI SBUF 261945Z 14013KT 9999 FEW020 27/16 Q1018=
0165829860999992016062711154-09401-038251FM-16+026999999V0201801N004610213419N009999199+02001+02001999999ADDGA1041+003661999GA2071+021341999GE19MSL   +99999+99999GF199999041999003661999999MA1102201999999REMMET058SPECI SBUF 271115Z 18009KT 9999 SCT012 BKN070 20/20 Q1022=
0165829860999992016062712004-09401-038251FM-15+026999999V0201501N004610213419N009999199+02201+02001999999ADDGA1041+003961999GA2071+021341999GE19MSL   +99999+99999GF199999041999003961999999MA1102201999999REMMET058METAR SBUF 271200Z 15009KT 9999 SCT013 BKN070 22/20 Q1022=
0165829860999992016062713004-09401-038251FM-15+026999999V0201601N00571005181CN009999199+02401+02001999999ADDGA1021+004571999GA2041+005181999GE19MSL   +99999+99999GF199999021999004571999999MA1102201999999REMMET058METAR SBUF 271300Z 16011KT 9999 FEW015 SCT017 24/20 Q1022=
0165829860999992016062714004-09401-038251FM-15+026999999V0201501N006210213419N009999199+02401+01901999999ADDGA1041+005181999GA2071+021341999GE19MSL   +99999+99999GF199999041999005181999999MA1102201999999REMMET058METAR SBUF 271400Z 15012KT 9999 SCT017 BKN070 24/19 Q1022=
0165829860999992016062715004-09401-038251FM-15+026999999V0201601N004610213419N009999199+02501+01901999999ADDGA1041+005181999GA2071+021341999GE19MSL   +99999+99999GF199999041999005181999999MA1102101999999REMMET058METAR SBUF 271500Z 16009KT 9999 SCT017 BKN070 25/19 Q1021=
0191829860999992016062717004-09401-038251FM-15+026999999V0200701N003610213419N009999199+02301+02201999999ADDGA1041+005181999GA2021+006101081GA3071+021341999GE19MSL   +99999+99999GF199999041999005181999999MA1102001999999REMMET068METAR SBUF 271700Z 07007KT 9999 SCT017 FEW020TCU BKN070 23/22 Q1020=
0191829860999992016062718004-09401-038251FM-15+026999999V0201301N006210051819N009999199+02401+02101999999ADDGA1071+005181999GA2021+006101081GA3071+021341999GE19MSL   +99999+99999GF199999071999005181999999MA1101901999999REMMET068METAR SBUF 271800Z 13012KT 9999 BKN017 FEW020TCU BKN070 24/21 Q1019=
0200829860999992016062718404-09401-038251FM-16+026999999V0201001N005110042719N001500199+02201+02101999999ADDGA1071+004271999GA2021+006101081GA3071+021341999GE19MSL   +99999+99999GF199999071999004271999999MA1102001999999MW1631REMMET071SPECI SBUF 271840Z 10010KT 1500 RA BKN014 FEW020TCU BKN070 22/21 Q1020=
0206829860999992016062719004-09401-038251FM-15+026999999V0201301N006210042719N004000199+02101+02101999999ADDGA1071+004271999GA2021+006101081GA3071+021341999GE19MSL   +99999+99999GF199999071999004271999999MA1102001999999MW1611REMMET077METAR SBUF 271900Z 13012KT 4000 -RA BKN014 FEW020TCU BKN070 21/21 Q1020 RERA=
0188829860999992016062719454-09401-038251FM-16+026999999V0201701N00411003661CN009999199+02101+02001999999ADDGA1021+002441999GA2041+003661999GA3071+021341999GE19MSL   +99999+99999GF199999021999002441999999MA1102001999999REMMET065SPECI SBUF 271945Z 17008KT 9999 FEW008 SCT012 BKN070 21/20 Q1020=
0165829860999992016062811154-09401-038251FM-16+026999999V0201801N002610213419N009999199+02201+02001999999ADDGA1041+003661999GA2071+021341999GE19MSL   +99999+99999GF199999041999003661999999MA1102201999999REMMET058SPECI SBUF 281115Z 18005KT 9999 SCT012 BKN070 22/20 Q1022=
0165829860999992016062812004-09401-038251FM-15+026999999V0201601N00261021341CN009999199+02301+02001999999ADDGA1041+004881999GA2041+021341999GE19MSL   +99999+99999GF199999041999004881999999MA1102201999999REMMET058METAR SBUF 281200Z 16005KT 9999 SCT016 SCT070 23/20 Q1022=
0142829860999992016062813004-09401-038251FM-15+026999999V0201401N005710057919N009999199+02501+02001999999ADDGA1071+005791999GE19MSL   +99999+99999GF199999071999005791999999MA1102201999999REMMET051METAR SBUF 281300Z 14011KT 9999 BKN019 25/20 Q1022=
0165829860999992016062814004-09401-038251FM-15+026999999V0201401N005110057919N009999199+02601+01901999999ADDGA1071+005791999GA2071+021341999GE19MSL   +99999+99999GF199999071999005791999999MA1102101999999REMMET058METAR SBUF 281400Z 14010KT 9999 BKN019 BKN070 26/19 Q1021=
0234829860999992016062814254-09401-038251FM-16+026999999V0201101N007210045719N003000199+02201+02101999999ADDGA1021+003661999GA2071+004571999GA3021+006101081GA4071+021341999GE19MSL   +99999+99999GF199999021999003661999999MA1102101999999MW1631OC101391REMMET081SPECI SBUF 281425Z 11014G27KT 3000 RA FEW012 BKN015 FEW020TCU BKN070 22/21 Q1021=
0219829860999992016062815004-09401-038251FM-15+026999999V0201101N00511004571CN009999199+02301+02101999999ADDGA1021+003661999GA2041+004571999GA3021+006101081GA4071+021341999GE19MSL   +99999+99999GF199999021999003661999999MA1102101999999REMMET080METAR SBUF 281500Z 11010KT 9999 FEW012 SCT015 FEW020TCU BKN070 23/21 Q1021 RERA=
0188829860999992016062816004-09401-038251FM-15+026999999V0201501N00571004571CN009999199+02301+02101999999ADDGA1021+003661999GA2041+004571999GA3071+021341999GE19MSL   +99999+99999GF199999021999003661999999MA1102001999999REMMET065METAR SBUF 281600Z 15011KT 9999 FEW012 SCT015 BKN070 23/21 Q1020=
0212829860999992016062817004-09401-038251FM-15+026999999V0201001N008210213419N004000199+02201+02101999999ADDGA1041+004571999GA2021+006101081GA3071+021341999GE19MSL   +99999+99999GF199999041999004571999999MA1101901999999MW1611OC101341REMMET075METAR SBUF 281700Z 10016G26KT 4000 -RA SCT015 FEW020TCU BKN070 22/21 Q1019=
0188829860999992016062818004-09401-038251FM-15+026999999V0201101N00511003661CN009999199+02301+02101999999ADDGA1021+002131999GA2041+003661999GA3071+021341999GE19MSL   +99999+99999GF199999021999002131999999MA1101901999999REMMET065METAR SBUF 281800Z 11010KT 9999 FEW007 SCT012 BKN070 23/21 Q1019=
0188829860999992016062819004-09401-038251FM-15+026999999V0201001N00311003961CN009999199+02201+02101999999ADDGA1021+002441999GA2041+003961999GA3071+021341999GE19MSL   +99999+99999GF199999021999002441999999MA1101901999999REMMET065METAR SBUF 281900Z 10006KT 9999 FEW008 SCT013 BKN070 22/21 Q1019=
0165829860999992016062819454-09401-038251FM-16+026999999V0200901N004610213419N009999199+02201+02001999999ADDGA1041+003961999GA2071+021341999GE19MSL   +99999+99999GF199999041999003961999999MA1102001999999REMMET058SPECI SBUF 281945Z 09009KT 9999 SCT013 BKN070 22/20 Q1020=
0142829860999992016062911154-09401-038251FM-16+026999999V0201301N003110039619N009999199+02201+02001999999ADDGA1071+003961999GE19MSL   +99999+99999GF199999071999003961999999MA1102201999999REMMET051SPECI SBUF 291115Z 13006KT 9999 BKN013 22/20 Q1022=
0142829860999992016062912004-09401-038251FM-15+026999999V0201101N005710045719N009999199+02501+02001999999ADDGA1071+004571999GE19MSL   +99999+99999GF199999071999004571999999MA1102201999999REMMET051METAR SBUF 291200Z 11011KT 9999 BKN015 25/20 Q1022=
0142829860999992016062913004-09401-038251FM-15+026999999V0201001N005110048819N009999199+02501+02001999999ADDGA1071+004881999GE19MSL   +99999+99999GF199999071999004881999999MA1102201999999REMMET051METAR SBUF 291300Z 10010KT 9999 BKN016 25/20 Q1022=
0165829860999992016062914004-09401-038251FM-15+026999999V0201101N006210051819N009999199+02601+01801999999ADDGA1071+005181999GA2041+021341999GE19MSL   +99999+99999GF199999071999005181999999MA1102101999999REMMET058METAR SBUF 291400Z 11012KT 9999 BKN017 SCT070 26/18 Q1021=
0165829860999992016062915004-09401-038251FM-15+026999999V0201101N005710213419N009999199+02701+01901999999ADDGA1041+005491999GA2071+021341999GE19MSL   +99999+99999GF199999041999005491999999MA1102001999999REMMET058METAR SBUF 291500Z 11011KT 9999 SCT018 BKN070 27/19 Q1020=
0165829860999992016062916004-09401-038251FM-15+026999999V0201201N00571021341CN009999199+02701+01901999999ADDGA1021+005491999GA2041+021341999GE19MSL   +99999+99999GF199999021999005491999999MA1102001999999REMMET058METAR SBUF 291600Z 12011KT 9999 FEW018 SCT070 27/19 Q1020=
0142829860999992016062917004-09401-038251FM-15+026999999V0201001N005119999999N009999199+02901+01701999999ADDGA1041+005791999GE19MSL   +99999+99999GF199999041999005791999999MA1101901999999REMMET051METAR SBUF 291700Z 10010KT 9999 SCT019 29/17 Q1019=
0142829860999992016062918004-09401-038251FM-15+026999999V0201301N005719999999N009999199+02801+01401999999ADDGA1021+005791999GE19MSL   +99999+99999GF199999021999005791999999MA1101801999999REMMET051METAR SBUF 291800Z 13011KT 9999 FEW019 28/14 Q1018=
0142829860999992016062919004-09401-038251FM-15+026999999V0201201N005719999999N009999199+02801+01401999999ADDGA1021+005791999GE19MSL   +99999+99999GF199999021999005791999999MA1101901999999REMMET051METAR SBUF 291900Z 12011KT 9999 FEW019 28/14 Q1019=
0142829860999992016062919454-09401-038251FM-16+026999999V0201201N006219999999N009999199+02701+01301999999ADDGA1021+005791999GE19MSL   +99999+99999GF199999021999005791999999MA1101901999999REMMET051SPECI SBUF 291945Z 12012KT 9999 FEW019 27/13 Q1019=
0165829860999992016063011154-09401-038251FM-16+026999999V0201801N002110213419N009999199+02101+02001999999ADDGA1041+005791999GA2071+021341999GE19MSL   +99999+99999GF199999041999005791999999MA1102201999999REMMET058SPECI SBUF 301115Z 18004KT 9999 SCT019 BKN070 21/20 Q1022=
0165829860999992016063012004-09401-038251FM-15+026999999V0201501N003110213419N009999199+02201+02001999999ADDGA1041+003961999GA2071+021341999GE19MSL   +99999+99999GF199999041999003961999999MA1102201999999REMMET058METAR SBUF 301200Z 15006KT 9999 SCT013 BKN070 22/20 Q1022=
0165829860999992016063013004-09401-038251FM-15+026999999V0201201N00571021341CN009999199+02501+02001999999ADDGA1041+004571999GA2041+021341999GE19MSL   +99999+99999GF199999041999004571999999MA1102201999999REMMET058METAR SBUF 301300Z 12011KT 9999 SCT015 SCT070 25/20 Q1022=
0165829860999992016063014004-09401-038251FM-15+026999999V0201401N00511021341CN009999199+02701+02101999999ADDGA1041+004881999GA2041+021341999GE19MSL   +99999+99999GF199999041999004881999999MA1102101999999REMMET058METAR SBUF 301400Z 14010KT 9999 SCT016 SCT070 27/21 Q1021=
0168829860999992016063016004-09401-038251FM-15+026999999V0201201N007210057919N009999199+02801+02001999999ADDGA1071+005791999GA2021+006101081GE19MSL   +99999+99999GF199999071999005791999999MA1101901999999REMMET061METAR SBUF 301600Z 12014KT 9999 BKN019 FEW020TCU 28/20 Q1019=
0165829860999992016063017004-09401-038251FM-15+026999999V0201401N00571024381CN009999199+02801+01901999999ADDGA1041+005791999GA2041+024381999GE19MSL   +99999+99999GF199999041999005791999999MA1101801999999REMMET058METAR SBUF 301700Z 14011KT 9999 SCT019 SCT080 28/19 Q1018=
0142829860999992016063018004-09401-038251FM-15+026999999V0201301N005710057919N009999199+02801+01901999999ADDGA1071+005791999GE19MSL   +99999+99999GF199999071999005791999999MA1101701999999REMMET051METAR SBUF 301800Z 13011KT 9999 BKN019 28/19 Q1017=
0142829860999992016063019004-09401-038251FM-15+026999999V0201301N006219999999N009999199+02901+01801999999ADDGA1041+005791999GE19MSL   +99999+99999GF199999041999005791999999MA1101701999999REMMET051METAR SBUF 301900Z 13012KT 9999 SCT019 29/18 Q1017=
0142829860999992016063019454-09401-038251FM-16+026999999V0201301N006219999999N009999199+02701+01701999999ADDGA1021+005491999GE19MSL   +99999+99999GF199999021999005491999999MA1101801999999REMMET051SPECI SBUF 301945Z 13012KT 9999 FEW018 27/17 Q1018=
0142829860999992016063020004-09401-038251FM-15+026999999V0201301N006219999999N009999199+02701+01801999999ADDGA1021+005491999GE19MSL   +99999+99999GF199999021999005491999999MA1101801999999REMMET051METAR SBUF 302000Z 13012KT 9999 FEW018 27/18 Q1018=
0072829860999992016063021004-09401-038251FM-15+026999999V0201201N005119999999Y999999999+02501+01801999999ADDMA1101801999999REMMET045METAR SBUF 302100Z 12010KT CAVOK 25/18 Q1018=
0072829860999992016063022004-09401-038251FM-15+026999999V0201301N004619999999Y999999999+02501+01801999999ADDMA1101901999999REMMET045METAR SBUF 302200Z 13009KT CAVOK 25/18 Q1019=
0072829860999992016063023004-09401-038251FM-15+026999999V0201301N004619999999Y999999999+02401+01901999999ADDMA1102001999999REMMET045METAR SBUF 302300Z 13009KT CAVOK 24/19 Q1020=
0072829860999992016070100004-09401-038251FM-15+026999999V0201301N004619999999Y999999999+02301+02001999999ADDMA1102101999999REMMET045METAR SBUF 010000Z 13009KT CAVOK 23/20 Q1021=
0072829860999992016070101004-09401-038251FM-15+026999999V0201401N004119999999Y999999999+02201+02001999999ADDMA1102101999999REMMET045METAR SBUF 010100Z 14008KT CAVOK 22/20 Q1021=
0072829860999992016070102004-09401-038251FM-15+026999999V0201301N004619999999Y999999999+02201+02001999999ADDMA1102101999999REMMET045METAR SBUF 010200Z 13009KT CAVOK 22/20 Q1021=
0072829860999992016070103004-09401-038251FM-15+026999999V0201401N003619999999Y999999999+02201+02001999999ADDMA1102001999999REMMET045METAR SBUF 010300Z 14007KT CAVOK 22/20 Q1020=
0142829860999992016070104004-09401-038251FM-15+026999999V0201501N004119999999N009999199+02101+02101999999ADDGA1041+003961999GE19MSL   +99999+99999GF199999041999003961999999MA1102001999999REMMET051METAR SBUF 010400Z 15008KT 9999 SCT013 21/21 Q1020=
0165829860999992016070105004-09401-038251FM-15+026999999V0201401N003110213419N009999199+02101+02101999999ADDGA1041+003961999GA2071+021341999GE19MSL   +99999+99999GF199999041999003961999999MA1101901999999REMMET058METAR SBUF 010500Z 14006KT 9999 SCT013 BKN070 21/21 Q1019=
0165829860999992016070107004-09401-038251FM-15+026999999V0201401N003610213419N009999199+02101+02101999999ADDGA1041+003661999GA2071+021341999GE19MSL   +99999+99999GF199999041999003661999999MA1101901999999REMMET058METAR SBUF 010700Z 14007KT 9999 SCT012 BKN070 21/21 Q1019=
0165829860999992016070107154-09401-038251FM-16+026999999V0201301N003110213419N009999199+02101+02101999999ADDGA1041+003661999GA2071+021341999GE19MSL   +99999+99999GF199999041999003661999999MA1101901999999REMMET058SPECI SBUF 010715Z 13006KT 9999 SCT012 BKN070 21/21 Q1019=
0165829860999992016070111154-09401-038251FM-16+026999999V0201201N005710045719N009999199+02401+02101999999ADDGA1021+003961999GA2071+004571999GE19MSL   +99999+99999GF199999021999003961999999MA1102101999999REMMET058SPECI SBUF 011115Z 12011KT 9999 FEW013 BKN015 24/21 Q1021=
0142829860999992016070112004-09401-038251FM-15+026999999V0201601N004610048819N009999199+02401+02001999999ADDGA1071+004881999GE19MSL   +99999+99999GF199999071999004881999999MA1102101999999REMMET051METAR SBUF 011200Z 16009KT 9999 BKN016 24/20 Q1021=
0142829860999992016070113004-09401-038251FM-15+026999999V0201601N005110048819N009999199+02501+02001999999ADDGA1071+004881999GE19MSL   +99999+99999GF199999071999004881999999MA1102101999999REMMET051METAR SBUF 011300Z 16010KT 9999 BKN016 25/20 Q1021=
0142829860999992016070114004-09401-038251FM-15+026999999V0201001N006710048819N009999199+02501+02001999999ADDGA1071+004881999GE19MSL   +99999+99999GF199999071999004881999999MA1102101999999REMMET051METAR SBUF 011400Z 10013KT 9999 BKN016 25/20 Q1021=
0207829860999992016070114304-09401-038251FM-16+026999999V0201001N00621003961CN003500199+02301+02201999999ADDGA1021+003661999GA2041+003961999GA3071+021341999GE19MSL   +99999+99999GF199999021999003661999999MA1102001999999MW1101MW2511REMMET072SPECI SBUF 011430Z 10012KT 3500 -DZ BR FEW012 SCT013 BKN070 23/22 Q1020=
0170829860999992016070115004-09401-038251FM-15+026999999V0201101N006210213419N009999199+02501+02201999999ADDGA1041+004571999GA2071+021341999GE19MSL   +99999+99999GF199999041999004571999999MA1102001999999REMMET063METAR SBUF 011500Z 11012KT 9999 SCT015 BKN070 25/22 Q1020 REDZ=
0165829860999992016070116004-09401-038251FM-15+026999999V0201501N005110243819N009999199+02601+02101999999ADDGA1021+005181999GA2071+024381999GE19MSL   +99999+99999GF199999021999005181999999MA1101901999999REMMET058METAR SBUF 011600Z 15010KT 9999 FEW017 BKN080 26/21 Q1019=
0165829860999992016070117004-09401-038251FM-15+026999999V0201201N005110243819N009999199+02901+02001999999ADDGA1021+005491999GA2071+024381999GE19MSL   +99999+99999GF199999021999005491999999MA1101701999999REMMET058METAR SBUF 011700Z 12010KT 9999 FEW018 BKN080 29/20 Q1017=
0142829860999992016070119004-09401-038251FM-15+026999999V0201101N005710054919N009999199+02801+02001999999ADDGA1071+005491999GE19MSL   +99999+99999GF199999071999005491999999MA1101701999999REMMET051METAR SBUF 011900Z 11011KT 9999 BKN018 28/20 Q1017=
0142829860999992016070119454-09401-038251FM-16+026999999V0201101N005110054919N009999199+02801+01901999999ADDGA1071+005491999GE19MSL   +99999+99999GF199999071999005491999999MA1101701999999REMMET051SPECI SBUF 011945Z 11010KT 9999 BKN018 28/19 Q1017=
0165829860999992016070211154-09401-038251FM-16+026999999V0201301N004110045719N009999199+02201+02101999999ADDGA1021+003961999GA2071+004571999GE19MSL   +99999+99999GF199999021999003961999999MA1102101999999REMMET058SPECI SBUF 021115Z 13008KT 9999 FEW013 BKN015 22/21 Q1021=
0142829860999992016070212004-09401-038251FM-15+026999999V0201201N006210045719N009999199+02401+02101999999ADDGA1071+004571999GE19MSL   +99999+99999GF199999071999004571999999MA1102201999999REMMET051METAR SBUF 021200Z 12012KT 9999 BKN015 24/21 Q1022=
0142829860999992016070213004-09401-038251FM-15+026999999V0201201N006210051819N009999199+02601+02001999999ADDGA1071+005181999GE19MSL   +99999+99999GF199999071999005181999999MA1102101999999REMMET051METAR SBUF 021300Z 12012KT 9999 BKN017 26/20 Q1021=
0142829860999992016070214004-09401-038251FM-15+026999999V0201301N005710051819N009999199+02601+02001999999ADDGA1071+005181999GE19MSL   +99999+99999GF199999071999005181999999MA1102101999999REMMET051METAR SBUF 021400Z 13011KT 9999 BKN017 26/20 Q1021=
0165829860999992016070215004-09401-038251FM-15+026999999V0201001N00511024381CN009999199+02801+02001999999ADDGA1041+006101999GA2041+024381999GE19MSL   +99999+99999GF199999041999006101999999MA1102001999999REMMET058METAR SBUF 021500Z 10010KT 9999 SCT020 SCT080 28/20 Q1020=
0165829860999992016070216004-09401-038251FM-15+026999999V0201401N006210243819N009999199+02801+01901999999ADDGA1041+006101999GA2081+024381999GE19MSL   +99999+99999GF199999041999006101999999MA1101901999999REMMET058METAR SBUF 021600Z 14012KT 9999 SCT020 OVC080 28/19 Q1019=
0165829860999992016070217004-09401-038251FM-15+026999999V0201301N005710243819N009999199+02801+01901999999ADDGA1041+006101999GA2071+024381999GE19MSL   +99999+99999GF199999041999006101999999MA1101801999999REMMET058METAR SBUF 021700Z 13011KT 9999 SCT020 BKN080 28/19 Q1018=
0165829860999992016070218004-09401-038251FM-15+026999999V0201401N006210243819N009999199+02701+01801999999ADDGA1041+006101999GA2081+024381999GE19MSL   +99999+99999GF199999041999006101999999MA1101801999999REMMET058METAR SBUF 021800Z 14012KT 9999 SCT020 OVC080 27/18 Q1018=
0165829860999992016070219004-09401-038251FM-15+026999999V0201101N004110243819N009999199+02601+01901999999ADDGA1041+006101999GA2081+024381999GE19MSL   +99999+99999GF199999041999006101999999MA1101801999999REMMET058METAR SBUF 021900Z 11008KT 9999 SCT020 OVC080 26/19 Q1018=
0165829860999992016070219454-09401-038251FM-16+026999999V0201101N005710213419N009999199+02401+02001999999ADDGA1041+005791999GA2081+021341999GE19MSL   +99999+99999GF199999041999005791999999MA1101901999999REMMET058SPECI SBUF 021945Z 11011KT 9999 SCT019 OVC070 24/20 Q1019=
0165829860999992016070311154-09401-038251FM-16+026999999V0201301N005710045719N009999199+02301+02101999999ADDGA1021+003961999GA2071+004571999GE19MSL   +99999+99999GF199999021999003961999999MA1102201999999REMMET058SPECI SBUF 031115Z 13011KT 9999 FEW013 BKN015 23/21 Q1022=
0152829860999992016070312004-09401-038251FM-15+026999999V0201301N005110045719N008000199+02301+02101999999ADDGA1071+004571999GE19MSL   +99999+99999GF199999071999004571999999MA1102201999999MW1611REMMET055METAR SBUF 031200Z 13010KT 8000 -RA BKN015 23/21 Q1022=
0142829860999992016070313004-09401-038251FM-15+026999999V0201001N006710051819N009999199+02501+02101999999ADDGA1071+005181999GE19MSL   +99999+99999GF199999071999005181999999MA1102201999999REMMET051METAR SBUF 031300Z 10013KT 9999 BKN017 25/21 Q1022=
0142829860999992016070314004-09401-038251FM-15+026999999V0201001N006710051819N009999199+02601+02001999999ADDGA1071+005181999GE19MSL   +99999+99999GF199999071999005181999999MA1102101999999REMMET051METAR SBUF 031400Z 10013KT 9999 BKN017 26/20 Q1021=
0142829860999992016070315004-09401-038251FM-15+026999999V0201401N005119999999N009999199+02601+02101999999ADDGA1041+005491999GE19MSL   +99999+99999GF199999041999005491999999MA1102001999999REMMET051METAR SBUF 031500Z 14010KT 9999 SCT018 26/21 Q1020=
0142829860999992016070316004-09401-038251FM-15+026999999V0201001N005710057919N009999199+02901+02001999999ADDGA1071+005791999GE19MSL   +99999+99999GF199999071999005791999999MA1101901999999REMMET051METAR SBUF 031600Z 10011KT 9999 BKN019 29/20 Q1019=
0142829860999992016070317004-09401-038251FM-15+026999999V0201001N005119999999N009999199+02801+01901999999ADDGA1041+005791999GE19MSL   +99999+99999GF199999041999005791999999MA1101801999999REMMET051METAR SBUF 031700Z 10010KT 9999 SCT019 28/19 Q1018=
0142829860999992016070318004-09401-038251FM-15+026999999V0201101N005719999999N009999199+02801+01901999999ADDGA1041+005791999GE19MSL   +99999+99999GF199999041999005791999999MA1101701999999REMMET051METAR SBUF 031800Z 11011KT 9999 SCT019 28/19 Q1017=
0142829860999992016070319004-09401-038251FM-15+026999999V0201001N005719999999N009999199+02701+01901999999ADDGA1041+005791999GE19MSL   +99999+99999GF199999041999005791999999MA1101701999999REMMET051METAR SBUF 031900Z 10011KT 9999 SCT019 27/19 Q1017=
0142829860999992016070319454-09401-038251FM-16+026999999V0201201N005119999999N009999199+02701+01901999999ADDGA1041+005791999GE19MSL   +99999+99999GF199999041999005791999999MA1101801999999REMMET051SPECI SBUF 031945Z 12010KT 9999 SCT019 27/19 Q1018=
0142829860999992016070411154-09401-038251FM-16+026999999V0201101N003110045719N009999199+02301+02101999999ADDGA1071+004571999GE19MSL   +99999+99999GF199999071999004571999999MA1102201999999REMMET051SPECI SBUF 041115Z 11006KT 9999 BKN015 23/21 Q1022=
0142829860999992016070412004-09401-038251FM-15+026999999V0201001N004610045719N009999199+02301+02101999999ADDGA1071+004571999GE19MSL   +99999+99999GF199999071999004571999999MA1102201999999REMMET051METAR SBUF 041200Z 10009KT 9999 BKN015 23/21 Q1022=
0142829860999992016070414004-09401-038251FM-15+026999999V0201101N006210054919N009999199+02801+02001999999ADDGA1071+005491999GE19MSL   +99999+99999GF199999071999005491999999MA1102101999999REMMET051METAR SBUF 041400Z 11012KT 9999 BKN018 28/20 Q1021=
0142829860999992016070415004-09401-038251FM-15+026999999V0201001N006719999999N009999199+02901+01801999999ADDGA1041+006101999GE19MSL   +99999+99999GF199999041999006101999999MA1102101999999REMMET051METAR SBUF 041500Z 10013KT 9999 SCT020 29/18 Q1021=
0142829860999992016070416004-09401-038251FM-15+026999999V0201201N005710061019N009999199+03001+01801999999ADDGA1071+006101999GE19MSL   +99999+99999GF199999071999006101999999MA1101901999999REMMET051METAR SBUF 041600Z 12011KT 9999 BKN020 30/18 Q1019=
0142829860999992016070417004-09401-038251FM-15+026999999V0201301N006210061019N009999199+02801+01901999999ADDGA1071+006101999GE19MSL   +99999+99999GF199999071999006101999999MA1101901999999REMMET051METAR SBUF 041700Z 13012KT 9999 BKN020 28/19 Q1019=
0165829860999992016070418004-09401-038251FM-15+026999999V0201201N007710213419N009999199+02801+01801999999ADDGA1041+006101999GA2071+021341999GE19MSL   +99999+99999GF199999041999006101999999MA1101801999999REMMET058METAR SBUF 041800Z 12015KT 9999 SCT020 BKN070 28/18 Q1018=
0165829860999992016070419004-09401-038251FM-15+026999999V0201101N00511021341CN009999199+02701+01901999999ADDGA1041+006101999GA2041+021341999GE19MSL   +99999+99999GF199999041999006101999999MA1101801999999REMMET058METAR SBUF 041900Z 11010KT 9999 SCT020 SCT070 27/19 Q1018=
0165829860999992016070419454-09401-038251FM-16+026999999V0201201N00621021341CN009999199+02601+01701999999ADDGA1021+006101999GA2041+021341999GE19MSL   +99999+99999GF199999021999006101999999MA1101901999999REMMET058SPECI SBUF 041945Z 12012KT 9999 FEW020 SCT070 26/17 Q1019=
0165829860999992016070511154-09401-038251FM-16+026999999V0201501N003110033519N009999199+02201+02101999999ADDGA1071+003351999GA2071+004271999GE19MSL   +99999+99999GF199999071999003351999999MA1102201999999REMMET058SPECI SBUF 051115Z 15006KT 9999 BKN011 BKN014 22/21 Q1022=
0165829860999992016070512004-09401-038251FM-15+026999999V0201001N003110048819N009999199+02401+02201999999ADDGA1041+003961999GA2071+004881999GE19MSL   +99999+99999GF199999041999003961999999MA1102201999999REMMET058METAR SBUF 051200Z 10006KT 9999 SCT013 BKN016 24/22 Q1022=
0152829860999992016070512454-09401-038251FM-16+026999999V0201601N004110042719N004000199+02301+02201999999ADDGA1071+004271999GE19MSL   +99999+99999GF199999071999004271999999MA1102201999999MW1611REMMET055SPECI SBUF 051245Z 16008KT 4000 -RA BKN014 23/22 Q1022=
0188829860999992016070513004-09401-038251FM-15+026999999V0201201N004610042719N009999199+02401+02201999999ADDGA1021+002441999GA2071+004271999GA3071+021341999GE19MSL   +99999+99999GF199999021999002441999999MA1102201999999REMMET065METAR SBUF 051300Z 12009KT 9999 FEW008 BKN014 BKN070 24/22 Q1022=
0142829860999992016070513454-09401-038251FM-16+026999999V0201101N004110048819N009999199+02501+02101999999ADDGA1071+004881999GE19MSL   +99999+99999GF199999071999004881999999MA1102101999999REMMET051SPECI SBUF 051345Z 11008KT 9999 BKN016 25/21 Q1021=
0142829860999992016070514004-09401-038251FM-15+026999999V0201001N004619999999N009999199+02601+02101999999ADDGA1041+005181999GE19MSL   +99999+99999GF199999041999005181999999MA1102101999999REMMET051METAR SBUF 051400Z 10009KT 9999 SCT017 26/21 Q1021=
0165829860999992016070515004-09401-038251FM-15+026999999V0201101N00311021341CN009999199+02401+02201999999ADDGA1021+004571999GA2041+021341999GE19MSL   +99999+99999GF199999021999004571999999MA1102001999999REMMET058METAR SBUF 051500Z 11006KT 9999 FEW015 SCT070 24/22 Q1020=
0165829860999992016070516004-09401-038251FM-15+026999999V0201601N004610213419N009999199+02401+02101999999ADDGA1021+005181999GA2071+021341999GE19MSL   +99999+99999GF199999021999005181999999MA1101901999999REMMET058METAR SBUF 051600Z 16009KT 9999 FEW017 BKN070 24/21 Q1019=
0165829860999992016070517004-09401-038251FM-15+026999999V0201201N006210213419N009999199+02401+02201999999ADDGA1041+005181999GA2071+021341999GE19MSL   +99999+99999GF199999041999005181999999MA1101801999999REMMET058METAR SBUF 051700Z 12012KT 9999 SCT017 BKN070 24/22 Q1018=
0184829860999992016070518004-09401-038251FM-15+026999999V0201201N005710213419N005000199+02301+02201999999ADDGA1041+004571999GA2071+021341999GE19MSL   +99999+99999GF199999041999004571999999MA1101801999999MW1101MW2611REMMET065METAR SBUF 051800Z 12011KT 5000 -RA BR SCT015 BKN070 23/22 Q1018=
0170829860999992016070519004-09401-038251FM-15+026999999V0201201N004110213419N009999199+02201+02101999999ADDGA1041+004571999GA2071+021341999GE19MSL   +99999+99999GF199999041999004571999999MA1101801999999REMMET063METAR SBUF 051900Z 12008KT 9999 SCT015 BKN070 22/21 Q1018 RERA=
0165829860999992016070519454-09401-038251FM-16+026999999V0201201N007710213419N009999199+02201+02001999999ADDGA1021+004571999GA2071+021341999GE19MSL   +99999+99999GF199999021999004571999999MA1101801999999REMMET058SPECI SBUF 051945Z 12015KT 9999 FEW015 BKN070 22/20 Q1018=
0142829860999992016070611154-09401-038251FM-16+026999999V0201101N003610042719N009999199+02301+02101999999ADDGA1071+004271999GE19MSL   +99999+99999GF199999071999004271999999MA1102101999999REMMET051SPECI SBUF 061115Z 11007KT 9999 BKN014 23/21 Q1021=
0142829860999992016070612004-09401-038251FM-15+026999999V0201001N004610057919N009999199+02501+02101999999ADDGA1071+005791999GE19MSL   +99999+99999GF199999071999005791999999MA1102001999999REMMET051METAR SBUF 061200Z 10009KT 9999 BKN019 25/21 Q1020=
0142829860999992016070613004-09401-038251FM-15+026999999V0201101N005119999999N009999199+02701+02001999999ADDGA1041+006101999GE19MSL   +99999+99999GF199999041999006101999999MA1102101999999REMMET051METAR SBUF 061300Z 11010KT 9999 SCT020 27/20 Q1021=
0142829860999992016070614004-09401-038251FM-15+026999999V0201101N005719999999N009999199+02701+02001999999ADDGA1041+006101999GE19MSL   +99999+99999GF199999041999006101999999MA1102101999999REMMET051METAR SBUF 061400Z 11011KT 9999 SCT020 27/20 Q1021=
0142829860999992016070615004-09401-038251FM-15+026999999V0201201N004619999999N009999199+02901+01801999999ADDGA1041+006101999GE19MSL   +99999+99999GF199999041999006101999999MA1102001999999REMMET051METAR SBUF 061500Z 12009KT 9999 SCT020 29/18 Q1020=
0142829860999992016070616004-09401-038251FM-15+026999999V0201201N004119999999N009999199+02901+01801999999ADDGA1041+006101999GE19MSL   +99999+99999GF199999041999006101999999MA1101801999999REMMET051METAR SBUF 061600Z 12008KT 9999 SCT020 29/18 Q1018=
0142829860999992016070617004-09401-038251FM-15+026999999V0201001N004110064019N009999199+02901+01801999999ADDGA1071+006401999GE19MSL   +99999+99999GF199999071999006401999999MA1101701999999REMMET051METAR SBUF 061700Z 10008KT 9999 BKN021 29/18 Q1017=
0142829860999992016070618004-09401-038251FM-15+026999999V0201401N004119999999N009999199+02901+01901999999ADDGA1041+006401999GE19MSL   +99999+99999GF199999041999006401999999MA1101701999999REMMET051METAR SBUF 061800Z 14008KT 9999 SCT021 29/19 Q1017=
0142829860999992016070619004-09401-038251FM-15+026999999V0201301N005119999999N009999199+02801+02001999999ADDGA1041+006401999GE19MSL   +99999+99999GF199999041999006401999999MA1101701999999REMMET051METAR SBUF 061900Z 13010KT 9999 SCT021 28/20 Q1017=
0142829860999992016070619454-09401-038251FM-16+026999999V0201201N004119999999N009999199+02701+01901999999ADDGA1021+006401999GE19MSL   +99999+99999GF199999021999006401999999MA1101701999999REMMET051SPECI SBUF 061945Z 12008KT 9999 FEW021 27/19 Q1017=
0142829860999992016070711154-09401-038251FM-16+026999999V0201401N002610054919N009999199+02401+02101999999ADDGA1071+005491999GE19MSL   +99999+99999GF199999071999005491999999MA1102101999999REMMET051SPECI SBUF 071115Z 14005KT 9999 BKN018 24/21 Q1021=
0142829860999992016070712004-09401-038251FM-15+026999999V0201101N003619999999N009999199+02501+02001999999ADDGA1041+005791999GE19MSL   +99999+99999GF199999041999005791999999MA1102101999999REMMET051METAR SBUF 071200Z 11007KT 9999 SCT019 25/20 Q1021=
0142829860999992016070713004-09401-038251FM-15+026999999V0201101N003619999999N009999199+02701+02001999999ADDGA1041+006101999GE19MSL   +99999+99999GF199999041999006101999999MA1102101999999REMMET051METAR SBUF 071300Z 11007KT 9999 SCT020 27/20 Q1021=
0142829860999992016070714004-09401-038251FM-15+026999999V0201301N003119999999N009999199+02801+02001999999ADDGA1041+006101999GE19MSL   +99999+99999GF199999041999006101999999MA1102001999999REMMET051METAR SBUF 071400Z 13006KT 9999 SCT020 28/20 Q1020=
0142829860999992016070715004-09401-038251FM-15+026999999V0201401N003619999999N009999199+02901+01901999999ADDGA1041+005791999GE19MSL   +99999+99999GF199999041999005791999999MA1101901999999REMMET051METAR SBUF 071500Z 14007KT 9999 SCT019 29/19 Q1019=
0142829860999992016070716004-09401-038251FM-15+026999999V0201301N004119999999N009999199+02901+01801999999ADDGA1041+006101999GE19MSL   +99999+99999GF199999041999006101999999MA1101801999999REMMET051METAR SBUF 071600Z 13008KT 9999 SCT020 29/18 Q1018=
0142829860999992016070717004-09401-038251FM-15+026999999V0201201N004119999999N009999199+03001+01901999999ADDGA1041+006101999GE19MSL   +99999+99999GF199999041999006101999999MA1101701999999REMMET051METAR SBUF 071700Z 12008KT 9999 SCT020 30/19 Q1017=
0142829860999992016070718004-09401-038251FM-15+026999999V0201101N003619999999N009999199+03101+01901999999ADDGA1041+006101999GE19MSL   +99999+99999GF199999041999006101999999MA1101601999999REMMET051METAR SBUF 071800Z 11007KT 9999 SCT020 31/19 Q1016=
0142829860999992016070719004-09401-038251FM-15+026999999V0201101N003610061019N009999199+03001+01901999999ADDGA1071+006101999GE19MSL   +99999+99999GF199999071999006101999999MA1101601999999REMMET051METAR SBUF 071900Z 11007KT 9999 BKN020 30/19 Q1016=
0142829860999992016070719454-09401-038251FM-16+026999999V0201201N003119999999N009999199+02801+02001999999ADDGA1041+005791999GE19MSL   +99999+99999GF199999041999005791999999MA1101701999999REMMET051SPECI SBUF 071945Z 12006KT 9999 SCT019 28/20 Q1017=
0142829860999992016070811154-09401-038251FM-16+026999999V0201001N003619999999N009999199+02501+02101999999ADDGA1041+004571999GE19MSL   +99999+99999GF199999041999004571999999MA1102101999999REMMET051SPECI SBUF 081115Z 10007KT 9999 SCT015 25/21 Q1021=
0142829860999992016070812004-09401-038251FM-15+026999999V0201001N003110045719N009999199+02501+02001999999ADDGA1071+004571999GE19MSL   +99999+99999GF199999071999004571999999MA1102201999999REMMET051METAR SBUF 081200Z 10006KT 9999 BKN015 25/20 Q1022=
0142829860999992016070813004-09401-038251FM-15+026999999V0201101N004610051819N009999199+02601+01901999999ADDGA1071+005181999GE19MSL   +99999+99999GF199999071999005181999999MA1102101999999REMMET051METAR SBUF 081300Z 11009KT 9999 BKN017 26/19 Q1021=
0142829860999992016070814004-09401-038251FM-15+026999999V0201501N003610054919N009999199+02701+02001999999ADDGA1071+005491999GE19MSL   +99999+99999GF199999071999005491999999MA1102101999999REMMET051METAR SBUF 081400Z 15007KT 9999 BKN018 27/20 Q1021=
0142829860999992016070815004-09401-038251FM-15+026999999V0201501N003610064019N009999199+02901+02001999999ADDGA1071+006401999GE19MSL   +99999+99999GF199999071999006401999999MA1102001999999REMMET051METAR SBUF 081500Z 15007KT 9999 BKN021 29/20 Q1020=
0142829860999992016070816004-09401-038251FM-15+026999999V0201301N003619999999N009999199+02901+02001999999ADDGA1041+006401999GE19MSL   +99999+99999GF199999041999006401999999MA1101901999999REMMET051METAR SBUF 081600Z 13007KT 9999 SCT021 29/20 Q1019=
0142829860999992016070817004-09401-038251FM-15+026999999V0201301N004119999999N009999199+03101+02001999999ADDGA1041+006401999GE19MSL   +99999+99999GF199999041999006401999999MA1101801999999REMMET051METAR SBUF 081700Z 13008KT 9999 SCT021 31/20 Q1018=
0142829860999992016070818004-09401-038251FM-15+026999999V0201301N004619999999N009999199+03001+01901999999ADDGA1041+006711999GE19MSL   +99999+99999GF199999041999006711999999MA1101701999999REMMET051METAR SBUF 081800Z 13009KT 9999 SCT022 30/19 Q1017=
0142829860999992016070819004-09401-038251FM-15+026999999V0201201N004119999999N009999199+02901+01901999999ADDGA1041+006401999GE19MSL   +99999+99999GF199999041999006401999999MA1101801999999REMMET051METAR SBUF 081900Z 12008KT 9999 SCT021 29/19 Q1018=
0142829860999992016070819454-09401-038251FM-16+026999999V0201401N004119999999N009999199+02801+01801999999ADDGA1021+006711999GE19MSL   +99999+99999GF199999021999006711999999MA1101801999999REMMET051SPECI SBUF 081945Z 14008KT 9999 FEW022 28/18 Q1018=
0142829860999992016070911154-09401-038251FM-16+026999999V0201701N003119999999N009999199+02401+02001999999ADDGA1041+003961999GE19MSL   +99999+99999GF199999041999003961999999MA1102201999999REMMET051SPECI SBUF 091115Z 17006KT 9999 SCT013 24/20 Q1022=
0142829860999992016070912004-09401-038251FM-15+026999999V0201101N004119999999N009999199+02501+01901999999ADDGA1041+005181999GE19MSL   +99999+99999GF199999041999005181999999MA1102201999999REMMET051METAR SBUF 091200Z 11008KT 9999 SCT017 25/19 Q1022=
0142829860999992016070913004-09401-038251FM-15+026999999V0201001N006210054919N009999199+02801+01901999999ADDGA1071+005491999GE19MSL   +99999+99999GF199999071999005491999999MA1102201999999REMMET051METAR SBUF 091300Z 10012KT 9999 BKN018 28/19 Q1022=
0142829860999992016070914004-09401-038251FM-15+026999999V0201201N005719999999N009999199+02801+01801999999ADDGA1041+005791999GE19MSL   +99999+99999GF199999041999005791999999MA1102101999999REMMET051METAR SBUF 091400Z 12011KT 9999 SCT019 28/18 Q1021=
0142829860999992016070915004-09401-038251FM-15+026999999V0201101N005710061019N009999199+02901+01701999999ADDGA1071+006101999GE19MSL   +99999+99999GF199999071999006101999999MA1102001999999REMMET051METAR SBUF 091500Z 11011KT 9999 BKN020 29/17 Q1020=
0142829860999992016070916004-09401-038251FM-15+026999999V0201201N003619999999N009999199+03001+01801999999ADDGA1041+006101999GE19MSL   +99999+99999GF199999041999006101999999MA1101901999999REMMET051METAR SBUF 091600Z 12007KT 9999 SCT020 30/18 Q1019=
0142829860999992016070917004-09401-038251FM-15+026999999V0201001N004119999999N009999199+03101+01701999999ADDGA1041+006101999GE19MSL   +99999+99999GF199999041999006101999999MA1101801999999REMMET051METAR SBUF 091700Z 10008KT 9999 SCT020 31/17 Q1018=
0142829860999992016070918004-09401-038251FM-15+026999999V0201501N004619999999N009999199+02901+01801999999ADDGA1041+006101999GE19MSL   +99999+99999GF199999041999006101999999MA1101801999999REMMET051METAR SBUF 091800Z 15009KT 9999 SCT020 29/18 Q1018=
0142829860999992016070919004-09401-038251FM-15+026999999V0201101N005119999999N009999199+02901+01901999999ADDGA1041+006101999GE19MSL   +99999+99999GF199999041999006101999999MA1101801999999REMMET051METAR SBUF 091900Z 11010KT 9999 SCT020 29/19 Q1018=
0142829860999992016070919454-09401-038251FM-16+026999999V0201201N004619999999N009999199+02701+01901999999ADDGA1021+006101999GE19MSL   +99999+99999GF199999021999006101999999MA1101801999999REMMET051SPECI SBUF 091945Z 12009KT 9999 FEW020 27/19 Q1018=
0142829860999992016071011154-09401-038251FM-16+026999999V0201701N003610051819N009999199+02301+02001999999ADDGA1071+005181999GE19MSL   +99999+99999GF199999071999005181999999MA1102101999999REMMET051SPECI SBUF 101115Z 17007KT 9999 BKN017 23/20 Q1021=
0142829860999992016071012004-09401-038251FM-15+026999999V0201301N004610054919N009999199+02601+02001999999ADDGA1071+005491999GE19MSL   +99999+99999GF199999071999005491999999MA1102101999999REMMET051METAR SBUF 101200Z 13009KT 9999 BKN018 26/20 Q1021=
0142829860999992016071013004-09401-038251FM-15+026999999V0201301N004110057919N009999199+02501+01901999999ADDGA1071+005791999GE19MSL   +99999+99999GF199999071999005791999999MA1102101999999REMMET051METAR SBUF 101300Z 13008KT 9999 BKN019 25/19 Q1021=
0165829860999992016071014004-09401-038251FM-15+026999999V0201001N00261021341CN009999199+02701+01901999999ADDGA1041+005791999GA2041+021341999GE19MSL   +99999+99999GF199999041999005791999999MA1102001999999REMMET058METAR SBUF 101400Z 10005KT 9999 SCT019 SCT070 27/19 Q1020=
0142829860999992016071015004-09401-038251FM-15+026999999V0201101N004110061019N009999199+02901+01901999999ADDGA1071+006101999GE19MSL   +99999+99999GF199999071999006101999999MA1101901999999REMMET051METAR SBUF 101500Z 11008KT 9999 BKN020 29/19 Q1019=
0142829860999992016071016004-09401-038251FM-15+026999999V0201501N003610061019N009999199+02901+01901999999ADDGA1071+006101999GE19MSL   +99999+99999GF199999071999006101999999MA1101801999999REMMET051METAR SBUF 101600Z 15007KT 9999 BKN020 29/19 Q1018=
0142829860999992016071017004-09401-038251FM-15+026999999V0201201N005110061019N009999199+03001+01801999999ADDGA1071+006101999GE19MSL   +99999+99999GF199999071999006101999999MA1101701999999REMMET051METAR SBUF 101700Z 12010KT 9999 BKN020 30/18 Q1017=
0142829860999992016071018004-09401-038251FM-15+026999999V0201401N005110061019N009999199+03001+01801999999ADDGA1071+006101999GE19MSL   +99999+99999GF199999071999006101999999MA1101601999999REMMET051METAR SBUF 101800Z 14010KT 9999 BKN020 30/18 Q1016=
0142829860999992016071019004-09401-038251FM-15+026999999V0201201N005719999999N009999199+03001+01801999999ADDGA1041+006101999GE19MSL   +99999+99999GF199999041999006101999999MA1101601999999REMMET051METAR SBUF 101900Z 12011KT 9999 SCT020 30/18 Q1016=
0142829860999992016071019454-09401-038251FM-16+026999999V0201401N006219999999N009999199+02801+02001999999ADDGA1041+006101999GE19MSL   +99999+99999GF199999041999006101999999MA1101701999999REMMET051SPECI SBUF 101945Z 14012KT 9999 SCT020 28/20 Q1017=
0165829860999992016071111154-09401-038251FM-16+026999999V0201501N002110213419N009999199+02201+02001999999ADDGA1041+003961999GA2071+021341999GE19MSL   +99999+99999GF199999041999003961999999MA1102001999999REMMET058SPECI SBUF 111115Z 15004KT 9999 SCT013 BKN070 22/20 Q1020=
0165829860999992016071112004-09401-038251FM-15+026999999V0201301N002110213419N009999199+02401+02001999999ADDGA1041+004571999GA2071+021341999GE19MSL   +99999+99999GF199999041999004571999999MA1102001999999REMMET058METAR SBUF 111200Z 13004KT 9999 SCT015 BKN070 24/20 Q1020=
0175829860999992016071113004-09401-038251FM-15+026999999V0201201N005110045719N006000199+02301+02001999999ADDGA1071+004571999GA2071+021341999GE19MSL   +99999+99999GF199999071999004571999999MA1102001999999MW1611REMMET062METAR SBUF 111300Z 12010KT 6000 -RA BKN015 BKN070 23/20 Q1020=
0176829860999992016071114004-09401-038251FM-15+026999999V0201601N005110243819N009999199+02501+02001999999ADDGA1041+004881999GA2071+024381999GE19MSL   +99999+99999GF199999041999004881999999MA1102001999999MW1161REMMET063METAR SBUF 111400Z 16010KT 9999 VCSH SCT016 BKN080 25/20 Q1020=
0165829860999992016071115004-09401-038251FM-15+026999999V0201301N006710213419N009999199+02601+01901999999ADDGA1041+005491999GA2071+021341999GE19MSL   +99999+99999GF199999041999005491999999MA1101901999999REMMET058METAR SBUF 111500Z 13013KT 9999 SCT018 BKN070 26/19 Q1019=
0165829860999992016071116004-09401-038251FM-15+026999999V0201001N005710213419N009999199+02601+02001999999ADDGA1021+005491999GA2071+021341999GE19MSL   +99999+99999GF199999021999005491999999MA1101801999999REMMET058METAR SBUF 111600Z 10011KT 9999 FEW018 BKN070 26/20 Q1018=
0165829860999992016071117004-09401-038251FM-15+026999999V0201501N002610213419N009999199+02601+02001999999ADDGA1041+005491999GA2071+021341999GE19MSL   +99999+99999GF199999041999005491999999MA1101701999999REMMET058METAR SBUF 111700Z 15005KT 9999 SCT018 BKN070 26/20 Q1017=
0165829860999992016071118004-09401-038251FM-15+026999999V0201601N004110213419N009999199+02501+02101999999ADDGA1041+005181999GA2071+021341999GE19MSL   +99999+99999GF199999041999005181999999MA1101701999999REMMET058METAR SBUF 111800Z 16008KT 9999 SCT017 BKN070 25/21 Q1017=
0165829860999992016071119004-09401-038251FM-15+026999999V0201501N005710213419N009999199+02301+02001999999ADDGA1041+004571999GA2071+021341999GE19MSL   +99999+99999GF199999041999004571999999MA1101701999999REMMET058METAR SBUF 111900Z 15011KT 9999 SCT015 BKN070 23/20 Q1017=
0165829860999992016071119454-09401-038251FM-16+026999999V0201001N004610213419N009999199+02301+01901999999ADDGA1041+004571999GA2071+021341999GE19MSL   +99999+99999GF199999041999004571999999MA1101801999999REMMET058SPECI SBUF 111945Z 10009KT 9999 SCT015 BKN070 23/19 Q1018=
0165829860999992016071211154-09401-038251FM-16+026999999V0201301N002610213419N009999199+02201+02001999999ADDGA1021+003961999GA2071+021341999GE19MSL   +99999+99999GF199999021999003961999999MA1102001999999REMMET058SPECI SBUF 121115Z 13005KT 9999 FEW013 BKN070 22/20 Q1020=
0142829860999992016071212004-09401-038251FM-15+026999999V0201601N002619999999N009999199+02401+02001999999ADDGA1041+004571999GE19MSL   +99999+99999GF199999041999004571999999MA1102001999999REMMET051METAR SBUF 121200Z 16005KT 9999 SCT015 24/20 Q1020=
0142829860999992016071213004-09401-038251FM-15+026999999V0201101N005119999999N009999199+02701+01901999999ADDGA1041+005181999GE19MSL   +99999+99999GF199999041999005181999999MA1101901999999REMMET051METAR SBUF 121300Z 11010KT 9999 SCT017 27/19 Q1019=
0165829860999992016071214004-09401-038251FM-15+026999999V0201001N004610213419N009999199+02801+01801999999ADDGA1021+005491999GA2071+021341999GE19MSL   +99999+99999GF199999021999005491999999MA1101901999999REMMET058METAR SBUF 121400Z 10009KT 9999 FEW018 BKN070 28/18 Q1019=
0142829860999992016071215004-09401-038251FM-15+026999999V0201301N004110064019N009999199+02801+01801999999ADDGA1071+006401999GE19MSL   +99999+99999GF199999071999006401999999MA1101801999999REMMET051METAR SBUF 121500Z 13008KT 9999 BKN021 28/18 Q1018=
0165829860999992016071216004-09401-038251FM-15+026999999V0201201N003610243819N009999199+02801+01801999999ADDGA1041+006401999GA2071+024381999GE19MSL   +99999+99999GF199999041999006401999999MA1101701999999REMMET058METAR SBUF 121600Z 12007KT 9999 SCT021 BKN080 28/18 Q1017=
0165829860999992016071217004-09401-038251FM-15+026999999V0201001N003610243819N009999199+02801+01901999999ADDGA1041+006401999GA2071+024381999GE19MSL   +99999+99999GF199999041999006401999999MA1101601999999REMMET058METAR SBUF 121700Z 10007KT 9999 SCT021 BKN080 28/19 Q1016=
0176829860999992016071218004-09401-038251FM-15+026999999V0201001N003110243819N009999199+02701+01801999999ADDGA1041+006401999GA2071+024381999GE19MSL   +99999+99999GF199999041999006401999999MA1101601999999MW1161REMMET063METAR SBUF 121800Z 10006KT 9999 VCSH SCT021 BKN080 27/18 Q1016=
0165829860999992016071219004-09401-038251FM-15+026999999V0201301N00261024381CN009999199+02701+01801999999ADDGA1041+006401999GA2041+024381999GE19MSL   +99999+99999GF199999041999006401999999MA1101601999999REMMET058METAR SBUF 121900Z 13005KT 9999 SCT021 SCT080 27/18 Q1016=
0165829860999992016071219454-09401-038251FM-16+026999999V0201101N00211021341CN009999199+02601+01901999999ADDGA1021+006401999GA2041+021341999GE19MSL   +99999+99999GF199999021999006401999999MA1101601999999REMMET058SPECI SBUF 121945Z 11004KT 9999 FEW021 SCT070 26/19 Q1016=
0142829860999992016071311154-09401-038251FM-16+026999999V0201201N003610051819N009999199+02301+02001999999ADDGA1071+005181999GE19MSL   +99999+99999GF199999071999005181999999MA1102001999999REMMET051SPECI SBUF 131115Z 12007KT 9999 BKN017 23/20 Q1020=
0142829860999992016071312004-09401-038251FM-15+026999999V0201201N003110054919N009999199+02401+02001999999ADDGA1071+005491999GE19MSL   +99999+99999GF199999071999005491999999MA1102101999999REMMET051METAR SBUF 131200Z 12006KT 9999 BKN018 24/20 Q1021=
0142829860999992016071313004-09401-038251FM-15+026999999V0201101N003610054919N009999199+02601+02001999999ADDGA1071+005491999GE19MSL   +99999+99999GF199999071999005491999999MA1102001999999REMMET051METAR SBUF 131300Z 11007KT 9999 BKN018 26/20 Q1020=
0142829860999992016071314004-09401-038251FM-15+026999999V0201001N004619999999N009999199+02801+01801999999ADDGA1041+005791999GE19MSL   +99999+99999GF199999041999005791999999MA1101901999999REMMET051METAR SBUF 131400Z 10009KT 9999 SCT019 28/18 Q1019=
0142829860999992016071315004-09401-038251FM-15+026999999V0201101N004619999999N009999199+03001+01801999999ADDGA1041+006101999GE19MSL   +99999+99999GF199999041999006101999999MA1101801999999REMMET051METAR SBUF 131500Z 11009KT 9999 SCT020 30/18 Q1018=
0142829860999992016071316004-09401-038251FM-15+026999999V0201301N004119999999N009999199+03001+01801999999ADDGA1041+006101999GE19MSL   +99999+99999GF199999041999006101999999MA1101701999999REMMET051METAR SBUF 131600Z 13008KT 9999 SCT020 30/18 Q1017=
0142829860999992016071317004-09401-038251FM-15+026999999V0201201N004119999999N009999199+03101+01701999999ADDGA1021+006101999GE19MSL   +99999+99999GF199999021999006101999999MA1101601999999REMMET051METAR SBUF 131700Z 12008KT 9999 FEW020 31/17 Q1016=
0142829860999992016071319004-09401-038251FM-15+026999999V0201001N004619999999N009999199+03001+01701999999ADDGA1021+006101999GE19MSL   +99999+99999GF199999021999006101999999MA1101501999999REMMET051METAR SBUF 131900Z 10009KT 9999 FEW020 30/17 Q1015=
0142829860999992016071319454-09401-038251FM-16+026999999V0201101N004619999999N009999199+02901+01801999999ADDGA1021+006101999GE19MSL   +99999+99999GF199999021999006101999999MA1101601999999REMMET051SPECI SBUF 131945Z 11009KT 9999 FEW020 29/18 Q1016=
0142829860999992016071411154-09401-038251FM-16+026999999V0201001N003610051819N009999199+02401+02001999999ADDGA1071+005181999GE19MSL   +99999+99999GF199999071999005181999999MA1102001999999REMMET051SPECI SBUF 141115Z 10007KT 9999 BKN017 24/20 Q1020=
0142829860999992016071412004-09401-038251FM-15+026999999V0201201N005110054919N009999199+02501+02001999999ADDGA1071+005491999GE19MSL   +99999+99999GF199999071999005491999999MA1102001999999REMMET051METAR SBUF 141200Z 12010KT 9999 BKN018 25/20 Q1020=
0142829860999992016071413004-09401-038251FM-15+026999999V0201101N005710057919N009999199+02701+02001999999ADDGA1071+005791999GE19MSL   +99999+99999GF199999071999005791999999MA1101901999999REMMET051METAR SBUF 141300Z 11011KT 9999 BKN019 27/20 Q1019=
0142829860999992016071414004-09401-038251FM-15+026999999V0201001N005119999999N009999199+02901+01801999999ADDGA1041+005791999GE19MSL   +99999+99999GF199999041999005791999999MA1101901999999REMMET051METAR SBUF 141400Z 10010KT 9999 SCT019 29/18 Q1019=
0142829860999992016071415004-09401-038251FM-15+026999999V0201101N005119999999N009999199+03001+01801999999ADDGA1041+006101999GE19MSL   +99999+99999GF199999041999006101999999MA1101701999999REMMET051METAR SBUF 141500Z 11010KT 9999 SCT020 30/18 Q1017=
0142829860999992016071416004-09401-038251FM-15+026999999V0201001N005119999999N009999199+03001+01801999999ADDGA1041+006101999GE19MSL   +99999+99999GF199999041999006101999999MA1101601999999REMMET051METAR SBUF 141600Z 10010KT 9999 SCT020 30/18 Q1016=
0142829860999992016071417004-09401-038251FM-15+026999999V0201201N006219999999N009999199+03001+01801999999ADDGA1041+006101999GE19MSL   +99999+99999GF199999041999006101999999MA1101501999999REMMET051METAR SBUF 141700Z 12012KT 9999 SCT020 30/18 Q1015=
0142829860999992016071418004-09401-038251FM-15+026999999V0201201N006719999999N009999199+03101+01801999999ADDGA1041+006101999GE19MSL   +99999+99999GF199999041999006101999999MA1101501999999REMMET051METAR SBUF 141800Z 12013KT 9999 SCT020 31/18 Q1015=
0165829860999992016071419004-09401-038251FM-15+026999999V0201001N00671024381CN009999199+02901+01801999999ADDGA1021+006101999GA2041+024381999GE19MSL   +99999+99999GF199999021999006101999999MA1101501999999REMMET058METAR SBUF 141900Z 10013KT 9999 FEW020 SCT080 29/18 Q1015=
0142829860999992016071420004-09401-038251FM-15+026999999V0201101N006219999999N009999199+02701+01701999999ADDGA1021+006101999GE19MSL   +99999+99999GF199999021999006101999999MA1101501999999REMMET051METAR SBUF 142000Z 11012KT 9999 FEW020 27/17 Q1015=
0165829860999992016071421004-09401-038251FM-15+026999999V0201001N00571021341CN009999199+02601+01901999999ADDGA1021+006101999GA2041+021341999GE19MSL   +99999+99999GF199999021999006101999999MA1101601999999REMMET058METAR SBUF 142100Z 10011KT 9999 FEW020 SCT070 26/19 Q1016=
0165829860999992016071422004-09401-038251FM-15+026999999V0201001N004110213419N009999199+02501+01901999999ADDGA1021+005181999GA2071+021341999GE19MSL   +99999+99999GF199999021999005181999999MA1101601999999REMMET058METAR SBUF 142200Z 10008KT 9999 FEW017 BKN070 25/19 Q1016=
0165829860999992016071423004-09401-038251FM-15+026999999V0201001N006710213419N009999199+02401+02001999999ADDGA1041+005181999GA2071+021341999GE19MSL   +99999+99999GF199999041999005181999999MA1101701999999REMMET058METAR SBUF 142300Z 10013KT 9999 SCT017 BKN070 24/20 Q1017=
0188829860999992016071500004-09401-038251FM-15+026999999V0201101N005710045719N009999199+02301+02101999999ADDGA1021+003051999GA2071+004571999GA3071+021341999GE19MSL   +99999+99999GF199999021999003051999999MA1101801999999REMMET065METAR SBUF 150000Z 11011KT 9999 FEW010 BKN015 BKN070 23/21 Q1018=
0165829860999992016071501004-09401-038251FM-15+026999999V0201401N004610213419N009999199+02301+02001999999ADDGA1041+004881999GA2071+021341999GE19MSL   +99999+99999GF199999041999004881999999MA1101801999999REMMET058METAR SBUF 150100Z 14009KT 9999 SCT016 BKN070 23/20 Q1018=
0165829860999992016071501304-09401-038251FM-16+026999999V0201301N00411021341CN009999199+02301+02001999999ADDGA1021+004881999GA2041+021341999GE19MSL   +99999+99999GF199999021999004881999999MA1101801999999REMMET058SPECI SBUF 150130Z 13008KT 9999 FEW016 SCT070 23/20 Q1018=
0142829860999992016071511154-09401-038251FM-16+026999999V0201101N003110048819N009999199+02501+02001999999ADDGA1071+004881999GE19MSL   +99999+99999GF199999071999004881999999MA1101901999999REMMET051SPECI SBUF 151115Z 11006KT 9999 BKN016 25/20 Q1019=
0142829860999992016071512004-09401-038251FM-15+026999999V0201301N002610048819N009999199+02501+01901999999ADDGA1071+004881999GE19MSL   +99999+99999GF199999071999004881999999MA1101901999999REMMET051METAR SBUF 151200Z 13005KT 9999 BKN016 25/19 Q1019=
0142829860999992016071514004-09401-038251FM-15+026999999V0201301N004619999999N009999199+02901+01701999999ADDGA1041+005791999GE19MSL   +99999+99999GF199999041999005791999999MA1101701999999REMMET051METAR SBUF 151400Z 13009KT 9999 SCT019 29/17 Q1017=
0142829860999992016071515004-09401-038251FM-15+026999999V0201201N004610061019N009999199+02901+01601999999ADDGA1071+006101999GE19MSL   +99999+99999GF199999071999006101999999MA1101601999999REMMET051METAR SBUF 151500Z 12009KT 9999 BKN020 29/16 Q1016=
0142829860999992016071516004-09401-038251FM-15+026999999V0201101N004119999999N009999199+03101+01701999999ADDGA1041+006101999GE19MSL   +99999+99999GF199999041999006101999999MA1101501999999REMMET051METAR SBUF 151600Z 11008KT 9999 SCT020 31/17 Q1015=
0142829860999992016071517004-09401-038251FM-15+026999999V0201001N005119999999N009999199+03001+01701999999ADDGA1041+006101999GE19MSL   +99999+99999GF199999041999006101999999MA1101401999999REMMET051METAR SBUF 151700Z 10010KT 9999 SCT020 30/17 Q1014=
0142829860999992016071518004-09401-038251FM-15+026999999V0200901N005119999999N009999199+03001+01701999999ADDGA1041+006101999GE19MSL   +99999+99999GF199999041999006101999999MA1101401999999REMMET051METAR SBUF 151800Z 09010KT 9999 SCT020 30/17 Q1014=
0142829860999992016071519004-09401-038251FM-15+026999999V0201001N004619999999N009999199+02901+01801999999ADDGA1021+006101999GE19MSL   +99999+99999GF199999021999006101999999MA1101401999999REMMET051METAR SBUF 151900Z 10009KT 9999 FEW020 29/18 Q1014=
0165829860999992016071519454-09401-038251FM-16+026999999V0201101N00671024381CN009999199+02801+01701999999ADDGA1021+005791999GA2041+024381999GE19MSL   +99999+99999GF199999021999005791999999MA1101401999999REMMET058SPECI SBUF 151945Z 11013KT 9999 FEW019 SCT080 28/17 Q1014=
0142829860999992016071611154-09401-038251FM-16+026999999V0201001N002119999999N009999199+02401+01901999999ADDGA1021+005791999GE19MSL   +99999+99999GF199999021999005791999999MA1101701999999REMMET051SPECI SBUF 161115Z 10004KT 9999 FEW019 24/19 Q1017=
0142829860999992016071612004-09401-038251FM-15+026999999V0201301N003119999999N009999199+02601+01901999999ADDGA1041+005791999GE19MSL   +99999+99999GF199999041999005791999999MA1101701999999REMMET051METAR SBUF 161200Z 13006KT 9999 SCT019 26/19 Q1017=
0142829860999992016071613004-09401-038251FM-15+026999999V0201501N003619999999N009999199+02801+01701999999ADDGA1041+006101999GE19MSL   +99999+99999GF199999041999006101999999MA1101701999999REMMET051METAR SBUF 161300Z 15007KT 9999 SCT020 28/17 Q1017=
0142829860999992016071614004-09401-038251FM-15+026999999V0201201N004119999999N009999199+02801+01501999999ADDGA1041+006101999GE19MSL   +99999+99999GF199999041999006101999999MA1101701999999REMMET051METAR SBUF 161400Z 12008KT 9999 SCT020 28/15 Q1017=
0142829860999992016071615004-09401-038251FM-15+026999999V0200901N003619999999N009999199+03101+01401999999ADDGA1041+006101999GE19MSL   +99999+99999GF199999041999006101999999MA1101601999999REMMET051METAR SBUF 161500Z 09007KT 9999 SCT020 31/14 Q1016=
0142829860999992016071616004-09401-038251FM-15+026999999V0201401N004119999999N009999199+03001+01401999999ADDGA1041+006101999GE19MSL   +99999+99999GF199999041999006101999999MA1101501999999REMMET051METAR SBUF 161600Z 14008KT 9999 SCT020 30/14 Q1015=
0142829860999992016071617004-09401-038251FM-15+026999999V0201501N003119999999N009999199+03101+01301999999ADDGA1021+006401999GE19MSL   +99999+99999GF199999021999006401999999MA1101401999999REMMET051METAR SBUF 161700Z 15006KT 9999 FEW021 31/13 Q1014=
0142829860999992016071618004-09401-038251FM-15+026999999V0201101N003619999999N009999199+03101+01301999999ADDGA1021+006401999GE19MSL   +99999+99999GF199999021999006401999999MA1101301999999REMMET051METAR SBUF 161800Z 11007KT 9999 FEW021 31/13 Q1013=
0142829860999992016071619004-09401-038251FM-15+026999999V0201401N002619999999N009999199+03001+01301999999ADDGA1021+006401999GE19MSL   +99999+99999GF199999021999006401999999MA1101301999999REMMET051METAR SBUF 161900Z 14005KT 9999 FEW021 30/13 Q1013=
0142829860999992016071619454-09401-038251FM-16+026999999V0201301N002119999999N009999199+02901+01401999999ADDGA1021+006101999GE19MSL   +99999+99999GF199999021999006101999999MA1101301999999REMMET051SPECI SBUF 161945Z 13004KT 9999 FEW020 29/14 Q1013=
0142829860999992016071711154-09401-038251FM-16+026999999V0201201N002119999999N009999199+02301+01801999999ADDGA1021+003661999GE19MSL   +99999+99999GF199999021999003661999999MA1101901999999REMMET051SPECI SBUF 171115Z 12004KT 9999 FEW012 23/18 Q1019=
0072829860999992016071712004-09401-038251FM-15+026999999V0201501N002119999999Y999999999+02501+01801999999ADDMA1101901999999REMMET045METAR SBUF 171200Z 15004KT CAVOK 25/18 Q1019=
0072829860999992016071713004-09401-038251FM-15+026999999V0201701N002619999999Y999999999+02601+01701999999ADDMA1101901999999REMMET045METAR SBUF 171300Z 17005KT CAVOK 26/17 Q1019=
0072829860999992016071714004-09401-038251FM-15+026999999V0201301N002619999999Y999999999+02901+01601999999ADDMA1101701999999REMMET045METAR SBUF 171400Z 13005KT CAVOK 29/16 Q1017=
0142829860999992016071715004-09401-038251FM-15+026999999V0201501N003119999999N009999199+03101+01501999999ADDGA1021+006401999GE19MSL   +99999+99999GF199999021999006401999999MA1101601999999REMMET051METAR SBUF 171500Z 15006KT 9999 FEW021 31/15 Q1016=
0142829860999992016071716004-09401-038251FM-15+026999999V0201801N002119999999N009999199+03101+01401999999ADDGA1021+006401999GE19MSL   +99999+99999GF199999021999006401999999MA1101501999999REMMET051METAR SBUF 171600Z 18004KT 9999 FEW021 31/14 Q1015=
0072829860999992016071717004-09401-038251FM-15+026999999V0201501N001519999999Y999999999+03301+01301999999ADDMA1101401999999REMMET045METAR SBUF 171700Z 15003KT CAVOK 33/13 Q1014=
0072829860999992016071718004-09401-038251FM-15+026999999V0202901N001519999999Y999999999+03201+01301999999ADDMA1101301999999REMMET045METAR SBUF 171800Z 29003KT CAVOK 32/13 Q1013=
0072829860999992016071719004-09401-038251FM-15+026999999V0203501N001019999999Y999999999+03201+01301999999ADDMA1101301999999REMMET045METAR SBUF 171900Z 35002KT CAVOK 32/13 Q1013=
0072829860999992016071719454-09401-038251FM-16+026999999V0200601N001019999999Y999999999+03201+01301999999ADDMA1101301999999REMMET045SPECI SBUF 171945Z 06002KT CAVOK 32/13 Q1013=
0142829860999992016071811154-09401-038251FM-16+026999999V0201301N003610054919N009999199+02501+02001999999ADDGA1071+005491999GE19MSL   +99999+99999GF199999071999005491999999MA1101801999999REMMET051SPECI SBUF 181115Z 13007KT 9999 BKN018 25/20 Q1018=
0142829860999992016071812004-09401-038251FM-15+026999999V0201201N003110057919N009999199+02701+02001999999ADDGA1071+005791999GE19MSL   +99999+99999GF199999071999005791999999MA1101801999999REMMET051METAR SBUF 181200Z 12006KT 9999 BKN019 27/20 Q1018=
0142829860999992016071813004-09401-038251FM-15+026999999V0201201N003619999999N009999199+02901+02001999999ADDGA1021+006101999GE19MSL   +99999+99999GF199999021999006101999999MA1101701999999REMMET051METAR SBUF 181300Z 12007KT 9999 FEW020 29/20 Q1017=
0142829860999992016071814004-09401-038251FM-15+026999999V0201001N003119999999N009999199+03001+01901999999ADDGA1021+006101999GE19MSL   +99999+99999GF199999021999006101999999MA1101601999999REMMET051METAR SBUF 181400Z 10006KT 9999 FEW020 30/19 Q1016=
0142829860999992016071815004-09401-038251FM-15+026999999V0200901N003119999999N009999199+03101+01801999999ADDGA1021+006401999GE19MSL   +99999+99999GF199999021999006401999999MA1101701999999REMMET051METAR SBUF 181500Z 09006KT 9999 FEW021 31/18 Q1017=
0142829860999992016071816004-09401-038251FM-15+026999999V0201301N003619999999N009999199+03201+01701999999ADDGA1021+006401999GE19MSL   +99999+99999GF199999021999006401999999MA1101601999999REMMET051METAR SBUF 181600Z 13007KT 9999 FEW021 32/17 Q1016=
0142829860999992016071817004-09401-038251FM-15+026999999V0201301N003119999999N009999199+03301+01701999999ADDGA1021+006401999GE19MSL   +99999+99999GF199999021999006401999999MA1101501999999REMMET051METAR SBUF 181700Z 13006KT 9999 FEW021 33/17 Q1015=
0142829860999992016071818004-09401-038251FM-15+026999999V0201101N004119999999N009999199+03301+01601999999ADDGA1021+006401999GE19MSL   +99999+99999GF199999021999006401999999MA1101401999999REMMET051METAR SBUF 181800Z 11008KT 9999 FEW021 33/16 Q1014=
0142829860999992016071819004-09401-038251FM-15+026999999V0201001N004119999999N009999199+03301+01501999999ADDGA1021+006401999GE19MSL   +99999+99999GF199999021999006401999999MA1101401999999REMMET051METAR SBUF 181900Z 10008KT 9999 FEW021 33/15 Q1014=
0072829860999992016071819454-09401-038251FM-16+026999999V0201101N004619999999Y999999999+03201+01601999999ADDMA1101501999999REMMET045SPECI SBUF 181945Z 11009KT CAVOK 32/16 Q1015=
0142829860999992016071911154-09401-038251FM-16+026999999V0201201N004619999999N009999199+02601+02001999999ADDGA1041+005181999GE19MSL   +99999+99999GF199999041999005181999999MA1102101999999REMMET051SPECI SBUF 191115Z 12009KT 9999 SCT017 26/20 Q1021=
0142829860999992016071912004-09401-038251FM-15+026999999V0201201N006719999999N009999199+02601+01901999999ADDGA1041+005181999GE19MSL   +99999+99999GF199999041999005181999999MA1102101999999REMMET051METAR SBUF 191200Z 12013KT 9999 SCT017 26/19 Q1021=
0142829860999992016071913004-09401-038251FM-15+026999999V0201201N007219999999N009999199+02801+01901999999ADDGA1041+005791999GE19MSL   +99999+99999GF199999041999005791999999MA1102101999999REMMET051METAR SBUF 191300Z 12014KT 9999 SCT019 28/19 Q1021=
0142829860999992016071914004-09401-038251FM-15+026999999V0201201N007219999999N009999199+03101+01601999999ADDGA1021+006101999GE19MSL   +99999+99999GF199999021999006101999999MA1102001999999REMMET051METAR SBUF 191400Z 12014KT 9999 FEW020 31/16 Q1020=
0142829860999992016071916004-09401-038251FM-15+026999999V0201301N005719999999N009999199+03201+01301999999ADDGA1021+006101999GE19MSL   +99999+99999GF199999021999006101999999MA1101801999999REMMET051METAR SBUF 191600Z 13011KT 9999 FEW020 32/13 Q1018=
0142829860999992016071917004-09401-038251FM-15+026999999V0201301N006219999999N009999199+03301+01201999999ADDGA1021+006101999GE19MSL   +99999+99999GF199999021999006101999999MA1101701999999REMMET051METAR SBUF 191700Z 13012KT 9999 FEW020 33/12 Q1017=
0142829860999992016071918004-09401-038251FM-15+026999999V0201301N007219999999N009999199+03201+01001999999ADDGA1021+006101999GE19MSL   +99999+99999GF199999021999006101999999MA1101601999999REMMET051METAR SBUF 191800Z 13014KT 9999 FEW020 32/10 Q1016=
0142829860999992016071919004-09401-038251FM-15+026999999V0201401N006719999999N009999199+03101+01101999999ADDGA1021+006101999GE19MSL   +99999+99999GF199999021999006101999999MA1101601999999REMMET051METAR SBUF 191900Z 14013KT 9999 FEW020 31/11 Q1016=
0072829860999992016071919454-09401-038251FM-16+026999999V0201201N007219999999Y999999999+03001+01301999999ADDMA1101701999999REMMET045SPECI SBUF 191945Z 12014KT CAVOK 30/13 Q1017=
0142829860999992016072011154-09401-038251FM-16+026999999V0201501N003119999999N009999199+02401+01901999999ADDGA1041+005491999GE19MSL   +99999+99999GF199999041999005491999999MA1102101999999REMMET051SPECI SBUF 201115Z 15006KT 9999 SCT018 24/19 Q1021=
0142829860999992016072012004-09401-038251FM-15+026999999V0201001N004619999999N009999199+02701+01901999999ADDGA1041+005491999GE19MSL   +99999+99999GF199999041999005491999999MA1102101999999REMMET051METAR SBUF 201200Z 10009KT 9999 SCT018 27/19 Q1021=
0142829860999992016072013004-09401-038251FM-15+026999999V0200901N004619999999N009999199+02901+01801999999ADDGA1041+005791999GE19MSL   +99999+99999GF199999041999005791999999MA1102001999999REMMET051METAR SBUF 201300Z 09009KT 9999 SCT019 29/18 Q1020=
0142829860999992016072014004-09401-038251FM-15+026999999V0201001N006219999999N009999199+02901+01601999999ADDGA1041+006101999GE19MSL   +99999+99999GF199999041999006101999999MA1102001999999REMMET051METAR SBUF 201400Z 10012KT 9999 SCT020 29/16 Q1020=
0142829860999992016072015004-09401-038251FM-15+026999999V0201101N005119999999N009999199+03001+01601999999ADDGA1041+006101999GE19MSL   +99999+99999GF199999041999006101999999MA1101901999999REMMET051METAR SBUF 201500Z 11010KT 9999 SCT020 30/16 Q1019=
0142829860999992016072016004-09401-038251FM-15+026999999V0201001N005119999999N009999199+03101+01601999999ADDGA1041+006101999GE19MSL   +99999+99999GF199999041999006101999999MA1101701999999REMMET051METAR SBUF 201600Z 10010KT 9999 SCT020 31/16 Q1017=
0142829860999992016072017004-09401-038251FM-15+026999999V0201001N005719999999N009999199+03201+01501999999ADDGA1041+006401999GE19MSL   +99999+99999GF199999041999006401999999MA1101701999999REMMET051METAR SBUF 201700Z 10011KT 9999 SCT021 32/15 Q1017=
0142829860999992016072018004-09401-038251FM-15+026999999V0201001N006219999999N009999199+03201+01501999999ADDGA1041+006401999GE19MSL   +99999+99999GF199999041999006401999999MA1101601999999REMMET051METAR SBUF 201800Z 10012KT 9999 SCT021 32/15 Q1016=
0142829860999992016072019004-09401-038251FM-15+026999999V0201201N006719999999N009999199+03101+01501999999ADDGA1041+006101999GE19MSL   +99999+99999GF199999041999006101999999MA1101601999999REMMET051METAR SBUF 201900Z 12013KT 9999 SCT020 31/15 Q1016=
0142829860999992016072019454-09401-038251FM-16+026999999V0201301N006719999999N009999199+03001+01401999999ADDGA1021+006101999GE19MSL   +99999+99999GF199999021999006101999999MA1101601999999REMMET051SPECI SBUF 201945Z 13013KT 9999 FEW020 30/14 Q1016=
0142829860999992016072111154-09401-038251FM-16+026999999V0201601N002619999999N009999199+02301+01801999999ADDGA1021+004881999GE19MSL   +99999+99999GF199999021999004881999999MA1102101999999REMMET051SPECI SBUF 211115Z 16005KT 9999 FEW016 23/18 Q1021=
0142829860999992016072112004-09401-038251FM-15+026999999V0201201N003119999999N009999199+02601+01701999999ADDGA1021+005181999GE19MSL   +99999+99999GF199999021999005181999999MA1102101999999REMMET051METAR SBUF 211200Z 12006KT 9999 FEW017 26/17 Q1021=
0142829860999992016072113004-09401-038251FM-15+026999999V0201101N003619999999N009999199+02801+01601999999ADDGA1041+005491999GE19MSL   +99999+99999GF199999041999005491999999MA1102101999999REMMET051METAR SBUF 211300Z 11007KT 9999 SCT018 28/16 Q1021=
0142829860999992016072114004-09401-038251FM-15+026999999V0201301N004610054919N009999199+02801+01601999999ADDGA1071+005491999GE19MSL   +99999+99999GF199999071999005491999999MA1102001999999REMMET051METAR SBUF 211400Z 13009KT 9999 BKN018 28/16 Q1020=
0142829860999992016072115004-09401-038251FM-15+026999999V0201001N004110061019N009999199+03001+01501999999ADDGA1071+006101999GE19MSL   +99999+99999GF199999071999006101999999MA1101901999999REMMET051METAR SBUF 211500Z 10008KT 9999 BKN020 30/15 Q1019=
0142829860999992016072116004-09401-038251FM-15+026999999V0201401N005119999999N009999199+03101+01401999999ADDGA1041+006101999GE19MSL   +99999+99999GF199999041999006101999999MA1101701999999REMMET051METAR SBUF 211600Z 14010KT 9999 SCT020 31/14 Q1017=
0142829860999992016072117004-09401-038251FM-15+026999999V0201301N006219999999N009999199+03001+01301999999ADDGA1041+006101999GE19MSL   +99999+99999GF199999041999006101999999MA1101601999999REMMET051METAR SBUF 211700Z 13012KT 9999 SCT020 30/13 Q1016=
0142829860999992016072118004-09401-038251FM-15+026999999V0201101N005719999999N009999199+03001+01201999999ADDGA1041+006401999GE19MSL   +99999+99999GF199999041999006401999999MA1101601999999REMMET051METAR SBUF 211800Z 11011KT 9999 SCT021 30/12 Q1016=
0142829860999992016072119004-09401-038251FM-15+026999999V0201301N004619999999N009999199+03101+01301999999ADDGA1021+007011999GE19MSL   +99999+99999GF199999021999007011999999MA1101601999999REMMET051METAR SBUF 211900Z 13009KT 9999 FEW023 31/13 Q1016=
0142829860999992016072119454-09401-038251FM-16+026999999V0201301N004619999999N009999199+02901+01301999999ADDGA1021+007011999GE19MSL   +99999+99999GF199999021999007011999999MA1101601999999REMMET051SPECI SBUF 211945Z 13009KT 9999 FEW023 29/13 Q1016=
0072829860999992016072211154-09401-038251FM-16+026999999V0200501N001019999999Y999999999+02201+01701999999ADDMA1102101999999REMMET045SPECI SBUF 221115Z 05002KT CAVOK 22/17 Q1021=
0142829860999992016072212004-09401-038251FM-15+026999999V0201101N001519999999N009999199+02401+01701999999ADDGA1021+005181999GE19MSL   +99999+99999GF199999021999005181999999MA1102101999999REMMET051METAR SBUF 221200Z 11003KT 9999 FEW017 24/17 Q1021=
0142829860999992016072213004-09401-038251FM-15+026999999V0201001N003619999999N009999199+02701+01701999999ADDGA1041+005181999GE19MSL   +99999+99999GF199999041999005181999999MA1102001999999REMMET051METAR SBUF 221300Z 10007KT 9999 SCT017 27/17 Q1020=
0142829860999992016072214004-09401-038251FM-15+026999999V0201101N005710054919N009999199+02901+01701999999ADDGA1071+005491999GE19MSL   +99999+99999GF199999071999005491999999MA1102001999999REMMET051METAR SBUF 221400Z 11011KT 9999 BKN018 29/17 Q1020=
0142829860999992016072215004-09401-038251FM-15+026999999V0201001N006219999999N009999199+03001+01701999999ADDGA1041+006401999GE19MSL   +99999+99999GF199999041999006401999999MA1101901999999REMMET051METAR SBUF 221500Z 10012KT 9999 SCT021 30/17 Q1019=
0142829860999992016072216004-09401-038251FM-15+026999999V0201201N006719999999N009999199+02901+01601999999ADDGA1041+006401999GE19MSL   +99999+99999GF199999041999006401999999MA1101801999999REMMET051METAR SBUF 221600Z 12013KT 9999 SCT021 29/16 Q1018=
0142829860999992016072217004-09401-038251FM-15+026999999V0200901N004619999999N009999199+02901+01501999999ADDGA1041+006401999GE19MSL   +99999+99999GF199999041999006401999999MA1101701999999REMMET051METAR SBUF 221700Z 09009KT 9999 SCT021 29/15 Q1017=
0142829860999992016072218004-09401-038251FM-15+026999999V0201101N005119999999N009999199+03101+01501999999ADDGA1041+006711999GE19MSL   +99999+99999GF199999041999006711999999MA1101601999999REMMET051METAR SBUF 221800Z 11010KT 9999 SCT022 31/15 Q1016=
0142829860999992016072219004-09401-038251FM-15+026999999V0201201N006219999999N009999199+03001+01401999999ADDGA1041+007011999GE19MSL   +99999+99999GF199999041999007011999999MA1101601999999REMMET051METAR SBUF 221900Z 12012KT 9999 SCT023 30/14 Q1016=
0142829860999992016072219454-09401-038251FM-16+026999999V0201001N004619999999N009999199+02901+01501999999ADDGA1041+006711999GE19MSL   +99999+99999GF199999041999006711999999MA1101601999999REMMET051SPECI SBUF 221945Z 10009KT 9999 SCT022 29/15 Q1016=
0142829860999992016072311154-09401-038251FM-16+026999999V0201201N002119999999N009999199+02301+01901999999ADDGA1041+004881999GE19MSL   +99999+99999GF199999041999004881999999MA1102101999999REMMET051SPECI SBUF 231115Z 12004KT 9999 SCT016 23/19 Q1021=
0142829860999992016072312004-09401-038251FM-15+026999999V0200801N003610048819N009999199+02301+02001999999ADDGA1071+004881999GE19MSL   +99999+99999GF199999071999004881999999MA1102201999999REMMET051METAR SBUF 231200Z 08007KT 9999 BKN016 23/20 Q1022=
0191829860999992016072313004-09401-038251FM-15+026999999V0201501N003610048819N009999199+02401+01901999999ADDGA1071+004881999GA2021+006101081GA3041+021341999GE19MSL   +99999+99999GF199999071999004881999999MA1102101999999REMMET068METAR SBUF 231300Z 15007KT 9999 BKN016 FEW020TCU SCT070 24/19 Q1021=
0165829860999992016072314004-09401-038251FM-15+026999999V0200901N005710054919N009999199+02601+01801999999ADDGA1071+005491999GA2041+024381999GE19MSL   +99999+99999GF199999071999005491999999MA1102101999999REMMET058METAR SBUF 231400Z 09011KT 9999 BKN018 SCT080 26/18 Q1021=
0142829860999992016072315004-09401-038251FM-15+026999999V0200901N004610054919N009999199+02801+01801999999ADDGA1071+005491999GE19MSL   +99999+99999GF199999071999005491999999MA1102001999999REMMET051METAR SBUF 231500Z 09009KT 9999 BKN018 28/18 Q1020=
0142829860999992016072316004-09401-038251FM-15+026999999V0200901N005719999999N009999199+02801+01801999999ADDGA1021+005491999GE19MSL   +99999+99999GF199999021999005491999999MA1101901999999REMMET051METAR SBUF 231600Z 09011KT 9999 FEW018 28/18 Q1019=
0142829860999992016072317004-09401-038251FM-15+026999999V0200901N005119999999N009999199+03001+01601999999ADDGA1021+006101999GE19MSL   +99999+99999GF199999021999006101999999MA1101801999999REMMET051METAR SBUF 231700Z 09010KT 9999 FEW020 30/16 Q1018=
0142829860999992016072318004-09401-038251FM-15+026999999V0200901N006219999999N009999199+02801+01601999999ADDGA1021+005791999GE19MSL   +99999+99999GF199999021999005791999999MA1101701999999REMMET051METAR SBUF 231800Z 09012KT 9999 FEW019 28/16 Q1017=
0142829860999992016072319004-09401-038251FM-15+026999999V0201101N007219999999N009999199+02901+01501999999ADDGA1021+005791999GE19MSL   +99999+99999GF199999021999005791999999MA1101701999999REMMET051METAR SBUF 231900Z 11014KT 9999 FEW019 29/15 Q1017=
0142829860999992016072319454-09401-038251FM-16+026999999V0201101N007719999999N009999199+02801+01401999999ADDGA1021+005491999GE19MSL   +99999+99999GF199999021999005491999999MA1101701999999REMMET051SPECI SBUF 231945Z 11015KT 9999 FEW018 28/14 Q1017=
0142829860999992016072411154-09401-038251FM-16+026999999V0201501N003119999999N009999199+02301+01901999999ADDGA1041+004571999GE19MSL   +99999+99999GF199999041999004571999999MA1102101999999REMMET051SPECI SBUF 241115Z 15006KT 9999 SCT015 23/19 Q1021=
0142829860999992016072412004-09401-038251FM-15+026999999V0201301N005119999999N009999199+02501+01901999999ADDGA1041+005181999GE19MSL   +99999+99999GF199999041999005181999999MA1102101999999REMMET051METAR SBUF 241200Z 13010KT 9999 SCT017 25/19 Q1021=
0142829860999992016072413004-09401-038251FM-15+026999999V0201101N005119999999N009999199+02601+01801999999ADDGA1041+005491999GE19MSL   +99999+99999GF199999041999005491999999MA1102101999999REMMET051METAR SBUF 241300Z 11010KT 9999 SCT018 26/18 Q1021=
0142829860999992016072414004-09401-038251FM-15+026999999V0201101N005719999999N009999199+02901+01701999999ADDGA1041+005791999GE19MSL   +99999+99999GF199999041999005791999999MA1102001999999REMMET051METAR SBUF 241400Z 11011KT 9999 SCT019 29/17 Q1020=
0142829860999992016072415004-09401-038251FM-15+026999999V0201001N006219999999N009999199+03101+01601999999ADDGA1041+006401999GE19MSL   +99999+99999GF199999041999006401999999MA1101901999999REMMET051METAR SBUF 241500Z 10012KT 9999 SCT021 31/16 Q1019=
0142829860999992016072416004-09401-038251FM-15+026999999V0201201N006719999999N009999199+03001+01401999999ADDGA1041+006711999GE19MSL   +99999+99999GF199999041999006711999999MA1101701999999REMMET051METAR SBUF 241600Z 12013KT 9999 SCT022 30/14 Q1017=
0142829860999992016072417004-09401-038251FM-15+026999999V0201301N006719999999N009999199+03201+01301999999ADDGA1041+006711999GE19MSL   +99999+99999GF199999041999006711999999MA1101601999999REMMET051METAR SBUF 241700Z 13013KT 9999 SCT022 32/13 Q1016=
0142829860999992016072418004-09401-038251FM-15+026999999V0201201N006719999999N009999199+03101+01301999999ADDGA1041+006711999GE19MSL   +99999+99999GF199999041999006711999999MA1101601999999REMMET051METAR SBUF 241800Z 12013KT 9999 SCT022 31/13 Q1016=
0142829860999992016072419004-09401-038251FM-15+026999999V0201301N008219999999N009999199+02901+01501999999ADDGA1021+006711999GE19MSL   +99999+99999GF199999021999006711999999MA1101601999999REMMET051METAR SBUF 241900Z 13016KT 9999 FEW022 29/15 Q1016=
0142829860999992016072419454-09401-038251FM-16+026999999V0201201N006219999999N009999199+02901+01401999999ADDGA1041+006711999GE19MSL   +99999+99999GF199999041999006711999999MA1101701999999REMMET051SPECI SBUF 241945Z 12012KT 9999 SCT022 29/14 Q1017=
0142829860999992016072511154-09401-038251FM-16+026999999V0201101N005119999999N009999199+02401+01901999999ADDGA1041+005491999GE19MSL   +99999+99999GF199999041999005491999999MA1101901999999REMMET051SPECI SBUF 251115Z 11010KT 9999 SCT018 24/19 Q1019=
0142829860999992016072512004-09401-038251FM-15+026999999V0201001N006710057919N009999199+02601+01701999999ADDGA1071+005791999GE19MSL   +99999+99999GF199999071999005791999999MA1101901999999REMMET051METAR SBUF 251200Z 10013KT 9999 BKN019 26/17 Q1019=
0142829860999992016072513004-09401-038251FM-15+026999999V0201001N008819999999N009999199+02801+01501999999ADDGA1041+005791999GE19MSL   +99999+99999GF199999041999005791999999MA1102001999999REMMET051METAR SBUF 251300Z 10017KT 9999 SCT019 28/15 Q1020=
0142829860999992016072514004-09401-038251FM-15+026999999V0201201N007219999999N009999199+02901+01501999999ADDGA1041+006101999GE19MSL   +99999+99999GF199999041999006101999999MA1101901999999REMMET051METAR SBUF 251400Z 12014KT 9999 SCT020 29/15 Q1019=
0142829860999992016072515004-09401-038251FM-15+026999999V0200901N006710061019N009999199+03001+01401999999ADDGA1071+006101999GE19MSL   +99999+99999GF199999071999006101999999MA1101801999999REMMET051METAR SBUF 251500Z 09013KT 9999 BKN020 30/14 Q1018=
0142829860999992016072516004-09401-038251FM-15+026999999V0201401N007710061019N009999199+02901+01401999999ADDGA1071+006101999GE19MSL   +99999+99999GF199999071999006101999999MA1101701999999REMMET051METAR SBUF 251600Z 14015KT 9999 BKN020 29/14 Q1017=
0142829860999992016072517004-09401-038251FM-15+026999999V0201201N007219999999N009999199+03101+01301999999ADDGA1041+006101999GE19MSL   +99999+99999GF199999041999006101999999MA1101601999999REMMET051METAR SBUF 251700Z 12014KT 9999 SCT020 31/13 Q1016=
0142829860999992016072518004-09401-038251FM-15+026999999V0201201N007210061019N009999199+03001+01301999999ADDGA1071+006101999GE19MSL   +99999+99999GF199999071999006101999999MA1101501999999REMMET051METAR SBUF 251800Z 12014KT 9999 BKN020 30/13 Q1015=
0142829860999992016072519004-09401-038251FM-15+026999999V0201301N006719999999N009999199+02901+01401999999ADDGA1041+006101999GE19MSL   +99999+99999GF199999041999006101999999MA1101601999999REMMET051METAR SBUF 251900Z 13013KT 9999 SCT020 29/14 Q1016=
0142829860999992016072519454-09401-038251FM-16+026999999V0201301N009319999999N009999199+02801+01501999999ADDGA1041+005791999GE19MSL   +99999+99999GF199999041999005791999999MA1101601999999REMMET051SPECI SBUF 251945Z 13018KT 9999 SCT019 28/15 Q1016=
0142829860999992016072611154-09401-038251FM-16+026999999V0201201N004619999999N009999199+02401+01801999999ADDGA1021+005491999GE19MSL   +99999+99999GF199999021999005491999999MA1102001999999REMMET051SPECI SBUF 261115Z 12009KT 9999 FEW018 24/18 Q1020=
0142829860999992016072612004-09401-038251FM-15+026999999V0201101N005119999999N009999199+02601+01701999999ADDGA1041+005491999GE19MSL   +99999+99999GF199999041999005491999999MA1102001999999REMMET051METAR SBUF 261200Z 11010KT 9999 SCT018 26/17 Q1020=
0142829860999992016072614004-09401-038251FM-15+026999999V0201201N005119999999N009999199+02801+01501999999ADDGA1041+005791999GE19MSL   +99999+99999GF199999041999005791999999MA1101901999999REMMET051METAR SBUF 261400Z 12010KT 9999 SCT019 28/15 Q1019=
0142829860999992016072615004-09401-038251FM-15+026999999V0201001N007219999999N009999199+03001+01301999999ADDGA1041+006101999GE19MSL   +99999+99999GF199999041999006101999999MA1101801999999REMMET051METAR SBUF 261500Z 10014KT 9999 SCT020 30/13 Q1018=
0142829860999992016072616004-09401-038251FM-15+026999999V0201101N006719999999N009999199+03101+01201999999ADDGA1041+006101999GE19MSL   +99999+99999GF199999041999006101999999MA1101701999999REMMET051METAR SBUF 261600Z 11013KT 9999 SCT020 31/12 Q1017=
0142829860999992016072617004-09401-038251FM-15+026999999V0201301N007719999999N009999199+03101+01201999999ADDGA1041+006101999GE19MSL   +99999+99999GF199999041999006101999999MA1101601999999REMMET051METAR SBUF 261700Z 13015KT 9999 SCT020 31/12 Q1016=
0142829860999992016072619004-09401-038251FM-15+026999999V0201301N007219999999N009999199+03001+01501999999ADDGA1021+006101999GE19MSL   +99999+99999GF199999021999006101999999MA1101601999999REMMET051METAR SBUF 261900Z 13014KT 9999 FEW020 30/15 Q1016=
0142829860999992016072619454-09401-038251FM-16+026999999V0201301N006719999999N009999199+02801+01501999999ADDGA1021+006101999GE19MSL   +99999+99999GF199999021999006101999999MA1101601999999REMMET051SPECI SBUF 261945Z 13013KT 9999 FEW020 28/15 Q1016=
0142829860999992016072711154-09401-038251FM-16+026999999V0201301N003619999999N009999199+02501+01801999999ADDGA1041+004881999GE19MSL   +99999+99999GF199999041999004881999999MA1102001999999REMMET051SPECI SBUF 271115Z 13007KT 9999 SCT016 25/18 Q1020=
0142829860999992016072712004-09401-038251FM-15+026999999V0201001N005719999999N009999199+02601+01701999999ADDGA1041+005181999GE19MSL   +99999+99999GF199999041999005181999999MA1102001999999REMMET051METAR SBUF 271200Z 10011KT 9999 SCT017 26/17 Q1020=
0142829860999992016072713004-09401-038251FM-15+026999999V0201101N006719999999N009999199+02901+01601999999ADDGA1041+005791999GE19MSL   +99999+99999GF199999041999005791999999MA1102001999999REMMET051METAR SBUF 271300Z 11013KT 9999 SCT019 29/16 Q1020=
0142829860999992016072714004-09401-038251FM-15+026999999V0201201N005110061019N009999199+03001+01401999999ADDGA1071+006101999GE19MSL   +99999+99999GF199999071999006101999999MA1101901999999REMMET051METAR SBUF 271400Z 12010KT 9999 BKN020 30/14 Q1019=
0142829860999992016072715004-09401-038251FM-15+026999999V0200901N005110061019N009999199+03001+01501999999ADDGA1071+006101999GE19MSL   +99999+99999GF199999071999006101999999MA1101801999999REMMET051METAR SBUF 271500Z 09010KT 9999 BKN020 30/15 Q1018=
0142829860999992016072716004-09401-038251FM-15+026999999V0201201N007219999999N009999199+02901+01601999999ADDGA1041+006101999GE19MSL   +99999+99999GF199999041999006101999999MA1101701999999REMMET051METAR SBUF 271600Z 12014KT 9999 SCT020 29/16 Q1017=
0142829860999992016072717004-09401-038251FM-15+026999999V0201301N005719999999N009999199+03001+01601999999ADDGA1041+006101999GE19MSL   +99999+99999GF199999041999006101999999MA1101601999999REMMET051METAR SBUF 271700Z 13011KT 9999 SCT020 30/16 Q1016=
0142829860999992016072718004-09401-038251FM-15+026999999V0200901N005719999999N009999199+03101+01501999999ADDGA1041+006401999GE19MSL   +99999+99999GF199999041999006401999999MA1101501999999REMMET051METAR SBUF 271800Z 09011KT 9999 SCT021 31/15 Q1015=
0142829860999992016072719004-09401-038251FM-15+026999999V0201101N005110061019N009999199+03001+01501999999ADDGA1071+006101999GE19MSL   +99999+99999GF199999071999006101999999MA1101501999999REMMET051METAR SBUF 271900Z 11010KT 9999 BKN020 30/15 Q1015=
0142829860999992016072720004-09401-038251FM-15+026999999V0201401N006719999999N009999199+02801+01601999999ADDGA1041+005791999GE19MSL   +99999+99999GF199999041999005791999999MA1101601999999REMMET051METAR SBUF 272000Z 14013KT 9999 SCT019 28/16 Q1016=
0142829860999992016072721004-09401-038251FM-15+026999999V0201201N006219999999N009999199+02701+01701999999ADDGA1041+005791999GE19MSL   +99999+99999GF199999041999005791999999MA1101601999999REMMET051METAR SBUF 272100Z 12012KT 9999 SCT019 27/17 Q1016=
0142829860999992016072721454-09401-038251FM-16+026999999V0201301N006719999999N009999199+02501+01801999999ADDGA1021+005491999GE19MSL   +99999+99999GF199999021999005491999999MA1101801999999REMMET051SPECI SBUF 272145Z 13013KT 9999 FEW018 25/18 Q1018=
0142829860999992016072811154-09401-038251FM-16+026999999V0201501N003619999999N009999199+02401+01901999999ADDGA1041+005181999GE19MSL   +99999+99999GF199999041999005181999999MA1101901999999REMMET051SPECI SBUF 281115Z 15007KT 9999 SCT017 24/19 Q1019=
0142829860999992016072812004-09401-038251FM-15+026999999V0201101N004110051819N009999199+02601+01801999999ADDGA1071+005181999GE19MSL   +99999+99999GF199999071999005181999999MA1101901999999REMMET051METAR SBUF 281200Z 11008KT 9999 BKN017 26/18 Q1019=
0191829860999992016072813004-09401-038251FM-15+026999999V0201201N005110213419N009999199+02401+01901999999ADDGA1041+005181999GA2021+005491081GA3071+021341999GE19MSL   +99999+99999GF199999041999005181999999MA1101901999999REMMET068METAR SBUF 281300Z 12010KT 9999 SCT017 FEW018TCU BKN070 24/19 Q1019=
0191829860999992016072814004-09401-038251FM-15+026999999V0201301N003610213419N009999199+02401+02101999999ADDGA1021+005181999GA2021+005491081GA3071+021341999GE19MSL   +99999+99999GF199999021999005181999999MA1101801999999REMMET068METAR SBUF 281400Z 13007KT 9999 FEW017 FEW018TCU BKN070 24/21 Q1018=
0142829860999992016072815004-09401-038251FM-15+026999999V0201001N003110061019N009999199+02501+02201999999ADDGA1071+006101999GE19MSL   +99999+99999GF199999071999006101999999MA1101701999999REMMET051METAR SBUF 281500Z 10006KT 9999 BKN020 25/22 Q1017=
0168829860999992016072816004-09401-038251FM-15+026999999V0201501N003619999999N009999199+02601+02101999999ADDGA1041+006101999GA2021+006711081GE19MSL   +99999+99999GF199999041999006101999999MA1101601999999REMMET061METAR SBUF 281600Z 15007KT 9999 SCT020 FEW022TCU 26/21 Q1016=
0175829860999992016072818004-09401-038251FM-15+026999999V0201101N004610243819N009999199+02401+02301999999ADDGA1041+006101999GA2071+024381999GE19MSL   +99999+99999GF199999041999006101999999MA1101501999999MW1611REMMET062METAR SBUF 281800Z 11009KT 9999 -RA SCT020 BKN080 24/23 Q1015=
0165829860999992016072820004-09401-038251FM-15+026999999V0201501N00461024381CN009999199+02501+02101999999ADDGA1021+006101999GA2041+024381999GE19MSL   +99999+99999GF199999021999006101999999MA1101601999999REMMET058METAR SBUF 282000Z 15009KT 9999 FEW020 SCT080 25/21 Q1016=
0165829860999992016072820154-09401-038251FM-16+026999999V0201801N00211024381CN009999199+02401+02201999999ADDGA1041+006101999GA2041+024381999GE19MSL   +99999+99999GF199999041999006101999999MA1101601999999REMMET058SPECI SBUF 282015Z 18004KT 9999 SCT020 SCT080 24/22 Q1016=
0165829860999992016072911154-09401-038251FM-16+026999999V0201401N00311030481CN009999199+02101+02001999999ADDGA1021+004571999GA2041+030481999GE19MSL   +99999+99999GF199999021999004571999999MA1102101999999REMMET058SPECI SBUF 291115Z 14006KT 9999 FEW015 SCT100 21/20 Q1021=
0142829860999992016072912004-09401-038251FM-15+026999999V0201201N004610051819N009999199+02301+02001999999ADDGA1071+005181999GE19MSL   +99999+99999GF199999071999005181999999MA1102101999999REMMET051METAR SBUF 291200Z 12009KT 9999 BKN017 23/20 Q1021=
0142829860999992016072913004-09401-038251FM-15+026999999V0201301N005719999999N009999199+02601+01601999999ADDGA1041+005791999GE19MSL   +99999+99999GF199999041999005791999999MA1102101999999REMMET051METAR SBUF 291300Z 13011KT 9999 SCT019 26/16 Q1021=
0142829860999992016072914004-09401-038251FM-15+026999999V0201501N005719999999N009999199+02701+01501999999ADDGA1041+006101999GE19MSL   +99999+99999GF199999041999006101999999MA1102001999999REMMET051METAR SBUF 291400Z 15011KT 9999 SCT020 27/15 Q1020=
0142829860999992016072915004-09401-038251FM-15+026999999V0201501N006219999999N009999199+02901+01301999999ADDGA1041+006101999GE19MSL   +99999+99999GF199999041999006101999999MA1101901999999REMMET051METAR SBUF 291500Z 15012KT 9999 SCT020 29/13 Q1019=
0142829860999992016072916004-09401-038251FM-15+026999999V0201601N006719999999N009999199+02801+01101999999ADDGA1041+006711999GE19MSL   +99999+99999GF199999041999006711999999MA1101801999999REMMET051METAR SBUF 291600Z 16013KT 9999 SCT022 28/11 Q1018=
0142829860999992016072917004-09401-038251FM-15+026999999V0201301N005719999999N009999199+03001+01201999999ADDGA1041+007011999GE19MSL   +99999+99999GF199999041999007011999999MA1101701999999REMMET051METAR SBUF 291700Z 13011KT 9999 SCT023 30/12 Q1017=
0142829860999992016072918004-09401-038251FM-15+026999999V0201501N005119999999N009999199+02901+01201999999ADDGA1041+006401999GE19MSL   +99999+99999GF199999041999006401999999MA1101701999999REMMET051METAR SBUF 291800Z 15010KT 9999 SCT021 29/12 Q1017=
0142829860999992016072919004-09401-038251FM-15+026999999V0201501N004619999999N009999199+02901+01301999999ADDGA1021+006401999GE19MSL   +99999+99999GF199999021999006401999999MA1101601999999REMMET051METAR SBUF 291900Z 15009KT 9999 FEW021 29/13 Q1016=
0142829860999992016072919454-09401-038251FM-16+026999999V0201301N005119999999N009999199+02801+01401999999ADDGA1041+006101999GE19MSL   +99999+99999GF199999041999006101999999MA1101601999999REMMET051SPECI SBUF 291945Z 13010KT 9999 SCT020 28/14 Q1016=
0142829860999992016073011154-09401-038251FM-16+026999999V0201701N003610045719N009999199+02301+01901999999ADDGA1071+004571999GE19MSL   +99999+99999GF199999071999004571999999MA1102101999999REMMET051SPECI SBUF 301115Z 17007KT 9999 BKN015 23/19 Q1021=
0165829860999992016073012004-09401-038251FM-15+026999999V0201401N005110048819N009999199+02501+01801999999ADDGA1071+004881999GA2041+021341999GE19MSL   +99999+99999GF199999071999004881999999MA1102101999999REMMET058METAR SBUF 301200Z 14010KT 9999 BKN016 SCT070 25/18 Q1021=
0165829860999992016073013004-09401-038251FM-15+026999999V0201401N005710045719N009999199+02401+02001999999ADDGA1021+003661999GA2071+004571999GE19MSL   +99999+99999GF199999021999003661999999MA1102001999999REMMET058METAR SBUF 301300Z 14011KT 9999 FEW012 BKN015 24/20 Q1020=
0165829860999992016073014004-09401-038251FM-15+026999999V0201601N005110045719N009999199+02301+01901999999ADDGA1071+004571999GA2071+021341999GE19MSL   +99999+99999GF199999071999004571999999MA1102101999999REMMET058METAR SBUF 301400Z 16010KT 9999 BKN015 BKN070 23/19 Q1021=
0199829860999992016073015004-09401-038251FM-15+026999999V0201301N00571006401CN009999199+02501+01901999999ADDGA1041+006101999GA2041+006401999GA3071+024381999GE19MSL   +99999+99999GF199999041999006101999999MA1101901999999MW1161REMMET070METAR SBUF 301500Z 13011KT 9999 VCSH SCT020 SCT021 BKN080 25/19 Q1019=
0165829860999992016073016004-09401-038251FM-15+026999999V0201401N00621024381CN009999199+02501+01901999999ADDGA1041+006101999GA2041+024381999GE19MSL   +99999+99999GF199999041999006101999999MA1101801999999REMMET058METAR SBUF 301600Z 14012KT 9999 SCT020 SCT080 25/19 Q1018=
0191829860999992016073017004-09401-038251FM-15+026999999V0201501N00411006401CN009999199+02501+01901999999ADDGA1021+006101999GA2041+006401081GA3071+024381999GE19MSL   +99999+99999GF199999021999006101999999MA1101701999999REMMET068METAR SBUF 301700Z 15008KT 9999 FEW020 SCT021TCU BKN080 25/19 Q1017=
0175829860999992016073018004-09401-038251FM-15+026999999V0201501N006710061019N009999199+02201+02001999999ADDGA1071+006101999GA2071+024381999GE19MSL   +99999+99999GF199999071999006101999999MA1101701999999MW1611REMMET062METAR SBUF 301800Z 15013KT 9999 -RA BKN020 BKN080 22/20 Q1017=
0165829860999992016073019004-09401-038251FM-15+026999999V0201601N00721024381CN009999199+02401+02001999999ADDGA1041+005491999GA2041+024381999GE19MSL   +99999+99999GF199999041999005491999999MA1101701999999REMMET058METAR SBUF 301900Z 16014KT 9999 SCT018 SCT080 24/20 Q1017=
0163829860999992016073019454-09401-038251FM-16+026999999V0201201N009310048819N006000199+02101+02101999999ADDGA1081+004881999GE19MSL   +99999+99999GF199999081999004881999999MA1101801999999MW1611OC101541REMMET058SPECI SBUF 301945Z 12018G30KT 6000 -RA OVC016 21/21 Q1018=
0142829860999992016073111154-09401-038251FM-16+026999999V0201301N004619999999N009999199+02301+01901999999ADDGA1021+004571999GE19MSL   +99999+99999GF199999021999004571999999MA1102101999999REMMET051SPECI SBUF 311115Z 13009KT 9999 FEW015 23/19 Q1021=
0142829860999992016073112004-09401-038251FM-15+026999999V0201201N006219999999N009999199+02401+01801999999ADDGA1021+004881999GE19MSL   +99999+99999GF199999021999004881999999MA1102101999999REMMET051METAR SBUF 311200Z 12012KT 9999 FEW016 24/18 Q1021=
0142829860999992016073113004-09401-038251FM-15+026999999V0201201N006719999999N009999199+02601+01601999999ADDGA1041+005181999GE19MSL   +99999+99999GF199999041999005181999999MA1102101999999REMMET051METAR SBUF 311300Z 12013KT 9999 SCT017 26/16 Q1021=
0142829860999992016073114004-09401-038251FM-15+026999999V0201301N007719999999N009999199+02801+01501999999ADDGA1041+005491999GE19MSL   +99999+99999GF199999041999005491999999MA1102001999999REMMET051METAR SBUF 311400Z 13015KT 9999 SCT018 28/15 Q1020=
0142829860999992016073115004-09401-038251FM-15+026999999V0201301N007719999999N009999199+02901+01501999999ADDGA1021+006101999GE19MSL   +99999+99999GF199999021999006101999999MA1101901999999REMMET051METAR SBUF 311500Z 13015KT 9999 FEW020 29/15 Q1019=
0142829860999992016073116004-09401-038251FM-15+026999999V0201301N007719999999N009999199+02901+01501999999ADDGA1041+006101999GE19MSL   +99999+99999GF199999041999006101999999MA1101801999999REMMET051METAR SBUF 311600Z 13015KT 9999 SCT020 29/15 Q1018=
0165829860999992016073117004-09401-038251FM-15+026999999V0201001N00671024381CN009999199+03001+01301999999ADDGA1041+006101999GA2041+024381999GE19MSL   +99999+99999GF199999041999006101999999MA1101701999999REMMET058METAR SBUF 311700Z 10013KT 9999 SCT020 SCT080 30/13 Q1017=
0142829860999992016073119004-09401-038251FM-15+026999999V0200901N006219999999N009999199+02801+01501999999ADDGA1041+005791999GE19MSL   +99999+99999GF199999041999005791999999MA1101701999999REMMET051METAR SBUF 311900Z 09012KT 9999 SCT019 28/15 Q1017=
0142829860999992016073119454-09401-038251FM-16+026999999V0201101N006719999999N009999199+02801+01401999999ADDGA1041+005491999GE19MSL   +99999+99999GF199999041999005491999999MA1101701999999REMMET051SPECI SBUF 311945Z 11013KT 9999 SCT018 28/14 Q1017=
0142829860999992016080111154-09401-038251FM-16+026999999V0201301N003619999999N009999199+02201+02001999999ADDGA1021+003661999GE19MSL   +99999+99999GF199999021999003661999999MA1102001999999REMMET051SPECI SBUF 011115Z 13007KT 9999 FEW012 22/20 Q1020=
0142829860999992016080112004-09401-038251FM-15+026999999V0201001N004619999999N009999199+02301+02001999999ADDGA1041+003961999GE19MSL   +99999+99999GF199999041999003961999999MA1102101999999REMMET051METAR SBUF 011200Z 10009KT 9999 SCT013 23/20 Q1021=
0142829860999992016080113004-09401-038251FM-15+026999999V0200901N005719999999N009999199+02401+01901999999ADDGA1041+004571999GE19MSL   +99999+99999GF199999041999004571999999MA1102101999999REMMET051METAR SBUF 011300Z 09011KT 9999 SCT015 24/19 Q1021=
0165829860999992016080114004-09401-038251FM-15+026999999V0201001N00571021341CN009999199+02501+01701999999ADDGA1041+005181999GA2041+021341999GE19MSL   +99999+99999GF199999041999005181999999MA1102101999999REMMET058METAR SBUF 011400Z 10011KT 9999 SCT017 SCT070 25/17 Q1021=
0165829860999992016080115004-09401-038251FM-15+026999999V0201101N007210243819N009999199+02801+01701999999ADDGA1041+006101999GA2071+024381999GE19MSL   +99999+99999GF199999041999006101999999MA1101901999999REMMET058METAR SBUF 011500Z 11014KT 9999 SCT020 BKN080 28/17 Q1019=
0165829860999992016080116004-09401-038251FM-15+026999999V0201201N009810243819N009999199+02601+01801999999ADDGA1041+006101999GA2071+024381999GE19MSL   +99999+99999GF199999041999006101999999MA1101901999999REMMET058METAR SBUF 011600Z 12019KT 9999 SCT020 BKN080 26/18 Q1019=
0165829860999992016080117004-09401-038251FM-15+026999999V0201001N004610213419N009999199+02701+01701999999ADDGA1041+006101999GA2071+021341999GE19MSL   +99999+99999GF199999041999006101999999MA1101801999999REMMET058METAR SBUF 011700Z 10009KT 9999 SCT020 BKN070 27/17 Q1018=
0165829860999992016080118004-09401-038251FM-15+026999999V0201001N00621021341CN009999199+02801+01601999999ADDGA1021+006101999GA2041+021341999GE19MSL   +99999+99999GF199999021999006101999999MA1101701999999REMMET058METAR SBUF 011800Z 10012KT 9999 FEW020 SCT070 28/16 Q1017=
0165829860999992016080119004-09401-038251FM-15+026999999V0200901N006210213419N009999199+02701+01701999999ADDGA1041+006401999GA2071+021341999GE19MSL   +99999+99999GF199999041999006401999999MA1101701999999REMMET058METAR SBUF 011900Z 09012KT 9999 SCT021 BKN070 27/17 Q1017=
0165829860999992016080119454-09401-038251FM-16+026999999V0201401N004610213419N009999199+02601+01701999999ADDGA1021+006401999GA2071+021341999GE19MSL   +99999+99999GF199999021999006401999999MA1101701999999REMMET058SPECI SBUF 011945Z 14009KT 9999 FEW021 BKN070 26/17 Q1017=
0165829860999992016080211004-09401-038251FM-15+026999999V0201301N002110054919N009999199+02201+01801999999ADDGA1071+005491999GA2071+021341999GE19MSL   +99999+99999GF199999071999005491999999MA1102201999999REMMET058METAR SBUF 021100Z 13004KT 9999 BKN018 BKN070 22/18 Q1022=
0165829860999992016080211154-09401-038251FM-16+026999999V0201501N001510213419N009999199+02101+01801999999ADDGA1041+005491999GA2071+021341999GE19MSL   +99999+99999GF199999041999005491999999MA1102101999999REMMET058SPECI SBUF 021115Z 15003KT 9999 SCT018 BKN070 21/18 Q1021=
0165829860999992016080213004-09401-038251FM-15+026999999V0201001N004110213419N009999199+02101+02001999999ADDGA1041+004571999GA2071+021341999GE19MSL   +99999+99999GF199999041999004571999999MA1102201999999REMMET058METAR SBUF 021300Z 10008KT 9999 SCT015 BKN070 21/20 Q1022=
0142829860999992016080214004-09401-038251FM-15+026999999V0200601N001519999999N009999199+02301+01901999999ADDGA1021+005181999GE19MSL   +99999+99999GF199999021999005181999999MA1102101999999REMMET051METAR SBUF 021400Z 06003KT 9999 FEW017 23/19 Q1021=
0165829860999992016080215004-09401-038251FM-15+026999999V0201001N005110243819N009999199+02601+01801999999ADDGA1021+005491999GA2071+024381999GE19MSL   +99999+99999GF199999021999005491999999MA1102001999999REMMET058METAR SBUF 021500Z 10010KT 9999 FEW018 BKN080 26/18 Q1020=
0165829860999992016080216004-09401-038251FM-15+026999999V0201201N007210243819N009999199+02801+01701999999ADDGA1041+005791999GA2071+024381999GE19MSL   +99999+99999GF199999041999005791999999MA1101901999999REMMET058METAR SBUF 021600Z 12014KT 9999 SCT019 BKN080 28/17 Q1019=
0165829860999992016080217004-09401-038251FM-15+026999999V0201601N004110243819N009999199+02801+01601999999ADDGA1041+005791999GA2071+024381999GE19MSL   +99999+99999GF199999041999005791999999MA1101901999999REMMET058METAR SBUF 021700Z 16008KT 9999 SCT019 BKN080 28/16 Q1019=
0165829860999992016080218004-09401-038251FM-15+026999999V0201401N004610213419N009999199+02701+01701999999ADDGA1041+005491999GA2071+021341999GE19MSL   +99999+99999GF199999041999005491999999MA1101801999999REMMET058METAR SBUF 021800Z 14009KT 9999 SCT018 BKN070 27/17 Q1018=
0165829860999992016080219004-09401-038251FM-15+026999999V0201301N003610213419N009999199+02701+01701999999ADDGA1041+005491999GA2071+021341999GE19MSL   +99999+99999GF199999041999005491999999MA1101801999999REMMET058METAR SBUF 021900Z 13007KT 9999 SCT018 BKN070 27/17 Q1018=
0165829860999992016080219454-09401-038251FM-16+026999999V0201501N004610213419N009999199+02601+01601999999ADDGA1021+005181999GA2071+021341999GE19MSL   +99999+99999GF199999021999005181999999MA1101801999999REMMET058SPECI SBUF 021945Z 15009KT 9999 FEW017 BKN070 26/16 Q1018=
0142829860999992016080311154-09401-038251FM-16+026999999V0201601N002119999999N009999199+02301+01901999999ADDGA1041+005491999GE19MSL   +99999+99999GF199999041999005491999999MA1102101999999REMMET051SPECI SBUF 031115Z 16004KT 9999 SCT018 23/19 Q1021=
0165829860999992016080312004-09401-038251FM-15+026999999V0201101N002610213419N009999199+02501+01901999999ADDGA1041+005791999GA2071+021341999GE19MSL   +99999+99999GF199999041999005791999999MA1102101999999REMMET058METAR SBUF 031200Z 11005KT 9999 SCT019 BKN070 25/19 Q1021=
0165829860999992016080313004-09401-038251FM-15+026999999V0201001N004110243819N009999199+02601+01801999999ADDGA1041+006101999GA2081+024381999GE19MSL   +99999+99999GF199999041999006101999999MA1102101999999REMMET058METAR SBUF 031300Z 10008KT 9999 SCT020 OVC080 26/18 Q1021=
0165829860999992016080314004-09401-038251FM-15+026999999V0201501N006210243819N009999199+02501+01901999999ADDGA1041+006101999GA2071+024381999GE19MSL   +99999+99999GF199999041999006101999999MA1102101999999REMMET058METAR SBUF 031400Z 15012KT 9999 SCT020 BKN080 25/19 Q1021=
0176829860999992016080315004-09401-038251FM-15+026999999V0201101N006210054919N009999199+02701+01801999999ADDGA1071+005491999GA2071+024381999GE19MSL   +99999+99999GF199999071999005491999999MA1102001999999MW1161REMMET063METAR SBUF 031500Z 11012KT 9999 VCSH BKN018 BKN080 27/18 Q1020=
0165829860999992016080316004-09401-038251FM-15+026999999V0201201N007210054919N009999199+02601+01901999999ADDGA1071+005491999GA2041+024381999GE19MSL   +99999+99999GF199999071999005491999999MA1101901999999REMMET058METAR SBUF 031600Z 12014KT 9999 BKN018 SCT080 26/19 Q1019=
0142829860999992016080317004-09401-038251FM-15+026999999V0200901N006219999999N009999199+02801+01701999999ADDGA1041+005791999GE19MSL   +99999+99999GF199999041999005791999999MA1101801999999REMMET051METAR SBUF 031700Z 09012KT 9999 SCT019 28/17 Q1018=
0142829860999992016080318004-09401-038251FM-15+026999999V0201101N006210057919N009999199+03001+01701999999ADDGA1071+005791999GE19MSL   +99999+99999GF199999071999005791999999MA1101701999999REMMET051METAR SBUF 031800Z 11012KT 9999 BKN019 30/17 Q1017=
0142829860999992016080319004-09401-038251FM-15+026999999V0201001N006710054919N009999199+02801+01801999999ADDGA1071+005491999GE19MSL   +99999+99999GF199999071999005491999999MA1101701999999REMMET051METAR SBUF 031900Z 10013KT 9999 BKN018 28/18 Q1017=
0142829860999992016080320004-09401-038251FM-15+026999999V0201001N005110051819N009999199+02601+01801999999ADDGA1071+005181999GE19MSL   +99999+99999GF199999071999005181999999MA1101801999999REMMET051METAR SBUF 032000Z 10010KT 9999 BKN017 26/18 Q1018=
0142829860999992016080321004-09401-038251FM-15+026999999V0201201N004610051819N009999199+02501+01701999999ADDGA1071+005181999GE19MSL   +99999+99999GF199999071999005181999999MA1101801999999REMMET051METAR SBUF 032100Z 12009KT 9999 BKN017 25/17 Q1018=
0142829860999992016080322004-09401-038251FM-15+026999999V0201301N003610051819N009999199+02401+01701999999ADDGA1071+005181999GE19MSL   +99999+99999GF199999071999005181999999MA1101901999999REMMET051METAR SBUF 032200Z 13007KT 9999 BKN017 24/17 Q1019=
0142829860999992016080322154-09401-038251FM-16+026999999V0201001N003610051819N009999199+02401+01801999999ADDGA1071+005181999GE19MSL   +99999+99999GF199999071999005181999999MA1101901999999REMMET051SPECI SBUF 032215Z 10007KT 9999 BKN017 24/18 Q1019=
0142829860999992016080411154-09401-038251FM-16+026999999V0201501N003119999999N009999199+02201+01801999999ADDGA1021+004271999GE19MSL   +99999+99999GF199999021999004271999999MA1102201999999REMMET051SPECI SBUF 041115Z 15006KT 9999 FEW014 22/18 Q1022=
0142829860999992016080412004-09401-038251FM-15+026999999V0201201N005119999999N009999199+02501+01601999999ADDGA1021+005181999GE19MSL   +99999+99999GF199999021999005181999999MA1102201999999REMMET051METAR SBUF 041200Z 12010KT 9999 FEW017 25/16 Q1022=
0142829860999992016080413004-09401-038251FM-15+026999999V0201301N005719999999N009999199+02701+01501999999ADDGA1021+005791999GE19MSL   +99999+99999GF199999021999005791999999MA1102201999999REMMET051METAR SBUF 041300Z 13011KT 9999 FEW019 27/15 Q1022=
0142829860999992016080414004-09401-038251FM-15+026999999V0201301N006719999999N009999199+02901+01401999999ADDGA1021+006101999GE19MSL   +99999+99999GF199999021999006101999999MA1102101999999REMMET051METAR SBUF 041400Z 13013KT 9999 FEW020 29/14 Q1021=
0142829860999992016080415004-09401-038251FM-15+026999999V0201201N006210061019N009999199+03001+01301999999ADDGA1071+006101999GE19MSL   +99999+99999GF199999071999006101999999MA1102001999999REMMET051METAR SBUF 041500Z 12012KT 9999 BKN020 30/13 Q1020=
0142829860999992016080416004-09401-038251FM-15+026999999V0201401N005710061019N009999199+03001+01401999999ADDGA1071+006101999GE19MSL   +99999+99999GF199999071999006101999999MA1101801999999REMMET051METAR SBUF 041600Z 14011KT 9999 BKN020 30/14 Q1018=
0142829860999992016080418004-09401-038251FM-15+026999999V0201501N005719999999N009999199+03101+01401999999ADDGA1041+006101999GE19MSL   +99999+99999GF199999041999006101999999MA1101701999999REMMET051METAR SBUF 041800Z 15011KT 9999 SCT020 31/14 Q1017=
0142829860999992016080419004-09401-038251FM-15+026999999V0201501N005719999999N009999199+02901+01501999999ADDGA1041+006101999GE19MSL   +99999+99999GF199999041999006101999999MA1101701999999REMMET051METAR SBUF 041900Z 15011KT 9999 SCT020 29/15 Q1017=
0142829860999992016080420004-09401-038251FM-15+026999999V0201601N005719999999N009999199+02701+01701999999ADDGA1041+005791999GE19MSL   +99999+99999GF199999041999005791999999MA1101701999999REMMET051METAR SBUF 042000Z 16011KT 9999 SCT019 27/17 Q1017=
0142829860999992016080421004-09401-038251FM-15+026999999V0201501N006219999999N009999199+02501+01701999999ADDGA1021+005491999GE19MSL   +99999+99999GF199999021999005491999999MA1101801999999REMMET051METAR SBUF 042100Z 15012KT 9999 FEW018 25/17 Q1018=
0142829860999992016080421154-09401-038251FM-16+026999999V0201601N005719999999N009999199+02401+01801999999ADDGA1021+005491999GE19MSL   +99999+99999GF199999021999005491999999MA1101901999999REMMET051SPECI SBUF 042115Z 16011KT 9999 FEW018 24/18 Q1019=
0142829860999992016080511154-09401-038251FM-16+026999999V0201301N004110045719N009999199+02401+01901999999ADDGA1071+004571999GE19MSL   +99999+99999GF199999071999004571999999MA1102201999999REMMET051SPECI SBUF 051115Z 13008KT 9999 BKN015 24/19 Q1022=
0142829860999992016080512004-09401-038251FM-15+026999999V0200901N005110051819N009999199+02501+01801999999ADDGA1071+005181999GE19MSL   +99999+99999GF199999071999005181999999MA1102201999999REMMET051METAR SBUF 051200Z 09010KT 9999 BKN017 25/18 Q1022=
0142829860999992016080513004-09401-038251FM-15+026999999V0200801N005119999999N009999199+02701+01701999999ADDGA1041+005491999GE19MSL   +99999+99999GF199999041999005491999999MA1102201999999REMMET051METAR SBUF 051300Z 08010KT 9999 SCT018 27/17 Q1022=
0142829860999992016080514004-09401-038251FM-15+026999999V0200901N005119999999N009999199+02801+01501999999ADDGA1041+005791999GE19MSL   +99999+99999GF199999041999005791999999MA1102101999999REMMET051METAR SBUF 051400Z 09010KT 9999 SCT019 28/15 Q1021=
0142829860999992016080515004-09401-038251FM-15+026999999V0201101N006219999999N009999199+03001+01401999999ADDGA1041+007011999GE19MSL   +99999+99999GF199999041999007011999999MA1102001999999REMMET051METAR SBUF 051500Z 11012KT 9999 SCT023 30/14 Q1020=
0142829860999992016080516004-09401-038251FM-15+026999999V0201001N005119999999N009999199+03101+01301999999ADDGA1041+007011999GE19MSL   +99999+99999GF199999041999007011999999MA1101901999999REMMET051METAR SBUF 051600Z 10010KT 9999 SCT023 31/13 Q1019=
0142829860999992016080517004-09401-038251FM-15+026999999V0201001N005719999999N009999199+03101+01201999999ADDGA1041+007011999GE19MSL   +99999+99999GF199999041999007011999999MA1101801999999REMMET051METAR SBUF 051700Z 10011KT 9999 SCT023 31/12 Q1018=
0142829860999992016080518004-09401-038251FM-15+026999999V0201001N005719999999N009999199+03101+01201999999ADDGA1041+007011999GE19MSL   +99999+99999GF199999041999007011999999MA1101701999999REMMET051METAR SBUF 051800Z 10011KT 9999 SCT023 31/12 Q1017=
0142829860999992016080520004-09401-038251FM-15+026999999V0201101N006219999999N009999199+02901+01301999999ADDGA1021+007011999GE19MSL   +99999+99999GF199999021999007011999999MA1101701999999REMMET051METAR SBUF 052000Z 11012KT 9999 FEW023 29/13 Q1017=
0142829860999992016080521004-09401-038251FM-15+026999999V0201101N005719999999N009999199+02701+01301999999ADDGA1021+007011999GE19MSL   +99999+99999GF199999021999007011999999MA1101801999999REMMET051METAR SBUF 052100Z 11011KT 9999 FEW023 27/13 Q1018=
0072829860999992016080522004-09401-038251FM-15+026999999V0201201N004619999999Y999999999+02501+01301999999ADDMA1101801999999REMMET045METAR SBUF 052200Z 12009KT CAVOK 25/13 Q1018=
0076829860999992016080522154-09401-038251FM-16+026999999V0201301N004119999999Y999999999+02501+01301999999ADDMA1101801999999REMMET049SPECI COR SBUF 052215Z 13008KT CAVOK 25/13 Q1018=
0165829860999992016080611154-09401-038251FM-16+026999999V0200901N003610213419N009999199+02201+01901999999ADDGA1041+004571999GA2071+021341999GE19MSL   +99999+99999GF199999041999004571999999MA1102201999999REMMET058SPECI SBUF 061115Z 09007KT 9999 SCT015 BKN070 22/19 Q1022=
0165829860999992016080612004-09401-038251FM-15+026999999V0200901N00411021341CN009999199+02401+01901999999ADDGA1041+005181999GA2041+021341999GE19MSL   +99999+99999GF199999041999005181999999MA1102201999999REMMET058METAR SBUF 061200Z 09008KT 9999 SCT017 SCT070 24/19 Q1022=
0142829860999992016080613004-09401-038251FM-15+026999999V0201201N005710054919N009999199+02701+01801999999ADDGA1071+005491999GE19MSL   +99999+99999GF199999071999005491999999MA1102201999999REMMET051METAR SBUF 061300Z 12011KT 9999 BKN018 27/18 Q1022=
0165829860999992016080614004-09401-038251FM-15+026999999V0201101N007710213419N009999199+02601+01701999999ADDGA1041+005491999GA2071+021341999GE19MSL   +99999+99999GF199999041999005491999999MA1102201999999REMMET058METAR SBUF 061400Z 11015KT 9999 SCT018 BKN070 26/17 Q1022=
0142829860999992016080615004-09401-038251FM-15+026999999V0201301N005710061019N009999199+02901+01601999999ADDGA1071+006101999GE19MSL   +99999+99999GF199999071999006101999999MA1102101999999REMMET051METAR SBUF 061500Z 13011KT 9999 BKN020 29/16 Q1021=
0142829860999992016080616004-09401-038251FM-15+026999999V0201201N004619999999N009999199+02901+01701999999ADDGA1041+006401999GE19MSL   +99999+99999GF199999041999006401999999MA1101901999999REMMET051METAR SBUF 061600Z 12009KT 9999 SCT021 29/17 Q1019=
0142829860999992016080617004-09401-038251FM-15+026999999V0200901N004610067119N009999199+03001+01501999999ADDGA1071+006711999GE19MSL   +99999+99999GF199999071999006711999999MA1101801999999REMMET051METAR SBUF 061700Z 09009KT 9999 BKN022 30/15 Q1018=
0142829860999992016080618004-09401-038251FM-15+026999999V0201001N005119999999N009999199+03001+00801999999ADDGA1041+007011999GE19MSL   +99999+99999GF199999041999007011999999MA1101701999999REMMET051METAR SBUF 061800Z 10010KT 9999 SCT023 30/08 Q1017=
0142829860999992016080619004-09401-038251FM-15+026999999V0201501N004619999999N009999199+03101+01301999999ADDGA1021+007011999GE19MSL   +99999+99999GF199999021999007011999999MA1101701999999REMMET051METAR SBUF 061900Z 15009KT 9999 FEW023 31/13 Q1017=
0142829860999992016080619454-09401-038251FM-16+026999999V0201301N005719999999N009999199+03001+01301999999ADDGA1021+007011999GE19MSL   +99999+99999GF199999021999007011999999MA1101701999999REMMET051SPECI SBUF 061945Z 13011KT 9999 FEW023 30/13 Q1017=
0142829860999992016080711154-09401-038251FM-16+026999999V0200801N002619999999N009999199+02301+01901999999ADDGA1021+005791999GE19MSL   +99999+99999GF199999021999005791999999MA1102201999999REMMET051SPECI SBUF 071115Z 08005KT 9999 FEW019 23/19 Q1022=
0142829860999992016080712004-09401-038251FM-15+026999999V0201001N003619999999N009999199+02501+01801999999ADDGA1041+005791999GE19MSL   +99999+99999GF199999041999005791999999MA1102201999999REMMET051METAR SBUF 071200Z 10007KT 9999 SCT019 25/18 Q1022=
0142829860999992016080713004-09401-038251FM-15+026999999V0201001N004119999999N009999199+02901+01601999999ADDGA1041+006101999GE19MSL   +99999+99999GF199999041999006101999999MA1102101999999REMMET051METAR SBUF 071300Z 10008KT 9999 SCT020 29/16 Q1021=
0142829860999992016080714004-09401-038251FM-15+026999999V0201401N004119999999N009999199+02901+01601999999ADDGA1041+006101999GE19MSL   +99999+99999GF199999041999006101999999MA1102101999999REMMET051METAR SBUF 071400Z 14008KT 9999 SCT020 29/16 Q1021=
0142829860999992016080715004-09401-038251FM-15+026999999V0201101N004619999999N009999199+03101+01501999999ADDGA1041+006401999GE19MSL   +99999+99999GF199999041999006401999999MA1102001999999REMMET051METAR SBUF 071500Z 11009KT 9999 SCT021 31/15 Q1020=
0142829860999992016080716004-09401-038251FM-15+026999999V0201501N003119999999N009999199+03101+01201999999ADDGA1041+006401999GE19MSL   +99999+99999GF199999041999006401999999MA1101801999999REMMET051METAR SBUF 071600Z 15006KT 9999 SCT021 31/12 Q1018=
0142829860999992016080717004-09401-038251FM-15+026999999V0201501N003619999999N009999199+03201+01301999999ADDGA1041+006401999GE19MSL   +99999+99999GF199999041999006401999999MA1101701999999REMMET051METAR SBUF 071700Z 15007KT 9999 SCT021 32/13 Q1017=
0142829860999992016080718004-09401-038251FM-15+026999999V0201701N003619999999N009999199+03201+01201999999ADDGA1041+006401999GE19MSL   +99999+99999GF199999041999006401999999MA1101601999999REMMET051METAR SBUF 071800Z 17007KT 9999 SCT021 32/12 Q1016=
0142829860999992016080719004-09401-038251FM-15+026999999V0201301N004619999999N009999199+03201+01301999999ADDGA1041+006401999GE19MSL   +99999+99999GF199999041999006401999999MA1101601999999REMMET051METAR SBUF 071900Z 13009KT 9999 SCT021 32/13 Q1016=
0142829860999992016080720004-09401-038251FM-15+026999999V0200801N004619999999N009999199+03001+01401999999ADDGA1041+006101999GE19MSL   +99999+99999GF199999041999006101999999MA1101601999999REMMET051METAR SBUF 072000Z 08009KT 9999 SCT020 30/14 Q1016=
0142829860999992016080721004-09401-038251FM-15+026999999V0200901N003619999999N009999199+02801+01401999999ADDGA1021+006101999GE19MSL   +99999+99999GF199999021999006101999999MA1101701999999REMMET051METAR SBUF 072100Z 09007KT 9999 FEW020 28/14 Q1017=
0142829860999992016080721154-09401-038251FM-16+026999999V0201001N004119999999N009999199+02801+01501999999ADDGA1021+006101999GE19MSL   +99999+99999GF199999021999006101999999MA1101701999999REMMET051SPECI SBUF 072115Z 10008KT 9999 FEW020 28/15 Q1017=
0142829860999992016080811154-09401-038251FM-16+026999999V0201301N002119999999N009999199+02301+01801999999ADDGA1021+004881999GE19MSL   +99999+99999GF199999021999004881999999MA1102101999999REMMET051SPECI SBUF 081115Z 13004KT 9999 FEW016 23/18 Q1021=
0142829860999992016080812004-09401-038251FM-15+026999999V0201101N003619999999N009999199+02601+01801999999ADDGA1021+005181999GE19MSL   +99999+99999GF199999021999005181999999MA1102001999999REMMET051METAR SBUF 081200Z 11007KT 9999 FEW017 26/18 Q1020=
0142829860999992016080813004-09401-038251FM-15+026999999V0200901N005719999999N009999199+02801+01601999999ADDGA1041+005491999GE19MSL   +99999+99999GF199999041999005491999999MA1102101999999REMMET051METAR SBUF 081300Z 09011KT 9999 SCT018 28/16 Q1021=
0142829860999992016080814004-09401-038251FM-15+026999999V0201101N003619999999N009999199+02901+01601999999ADDGA1041+006101999GE19MSL   +99999+99999GF199999041999006101999999MA1102001999999REMMET051METAR SBUF 081400Z 11007KT 9999 SCT020 29/16 Q1020=
0142829860999992016080815004-09401-038251FM-15+026999999V0201001N003119999999N009999199+03101+01501999999ADDGA1021+006401999GE19MSL   +99999+99999GF199999021999006401999999MA1101901999999REMMET051METAR SBUF 081500Z 10006KT 9999 FEW021 31/15 Q1019=
0142829860999992016080816004-09401-038251FM-15+026999999V0201001N003119999999N009999199+03101+01401999999ADDGA1021+006401999GE19MSL   +99999+99999GF199999021999006401999999MA1101701999999REMMET051METAR SBUF 081600Z 10006KT 9999 FEW021 31/14 Q1017=
0142829860999992016080817004-09401-038251FM-15+026999999V0201001N003119999999N009999199+03101+01401999999ADDGA1021+006401999GE19MSL   +99999+99999GF199999021999006401999999MA1101601999999REMMET051METAR SBUF 081700Z 10006KT 9999 FEW021 31/14 Q1016=
0072829860999992016080818004-09401-038251FM-15+026999999V0201001N002619999999Y999999999+03201+01301999999ADDMA1101501999999REMMET045METAR SBUF 081800Z 10005KT CAVOK 32/13 Q1015=
0072829860999992016080819004-09401-038251FM-15+026999999V0200601N002619999999Y999999999+03101+01301999999ADDMA1101501999999REMMET045METAR SBUF 081900Z 06005KT CAVOK 31/13 Q1015=
0072829860999992016080819454-09401-038251FM-16+026999999V0200501N003119999999Y999999999+03101+01201999999ADDMA1101501999999REMMET045SPECI SBUF 081945Z 05006KT CAVOK 31/12 Q1015=
0142829860999992016080911154-09401-038251FM-16+026999999V0201201N004610051819N009999199+02501+01901999999ADDGA1071+005181999GE19MSL   +99999+99999GF199999071999005181999999MA1102201999999REMMET051SPECI SBUF 091115Z 12009KT 9999 BKN017 25/19 Q1022=
0142829860999992016080912004-09401-038251FM-15+026999999V0201101N005110054919N009999199+02701+01701999999ADDGA1071+005491999GE19MSL   +99999+99999GF199999071999005491999999MA1102201999999REMMET051METAR SBUF 091200Z 11010KT 9999 BKN018 27/17 Q1022=
0142829860999992016080913004-09401-038251FM-15+026999999V0201101N004619999999N009999199+02701+01701999999ADDGA1041+005491999GE19MSL   +99999+99999GF199999041999005491999999MA1102101999999REMMET051METAR SBUF 091300Z 11009KT 9999 SCT018 27/17 Q1021=
0142829860999992016080914004-09401-038251FM-15+026999999V0201101N005119999999N009999199+02901+01701999999ADDGA1021+005791999GE19MSL   +99999+99999GF199999021999005791999999MA1102101999999REMMET051METAR SBUF 091400Z 11010KT 9999 FEW019 29/17 Q1021=
0142829860999992016080916004-09401-038251FM-15+026999999V0201601N003619999999N009999199+03101+01501999999ADDGA1021+006101999GE19MSL   +99999+99999GF199999021999006101999999MA1101801999999REMMET051METAR SBUF 091600Z 16007KT 9999 FEW020 31/15 Q1018=
0142829860999992016080917004-09401-038251FM-15+026999999V0201401N004119999999N009999199+03201+01401999999ADDGA1041+006711999GE19MSL   +99999+99999GF199999041999006711999999MA1101701999999REMMET051METAR SBUF 091700Z 14008KT 9999 SCT022 32/14 Q1017=
0142829860999992016080918004-09401-038251FM-15+026999999V0201501N004619999999N009999199+03101+01301999999ADDGA1041+006711999GE19MSL   +99999+99999GF199999041999006711999999MA1101601999999REMMET051METAR SBUF 091800Z 15009KT 9999 SCT022 31/13 Q1016=
0142829860999992016080919004-09401-038251FM-15+026999999V0201401N004119999999N009999199+03201+01301999999ADDGA1021+007011999GE19MSL   +99999+99999GF199999021999007011999999MA1101601999999REMMET051METAR SBUF 091900Z 14008KT 9999 FEW023 32/13 Q1016=
0142829860999992016080919454-09401-038251FM-16+026999999V0201301N003619999999N009999199+03001+01301999999ADDGA1021+007011999GE19MSL   +99999+99999GF199999021999007011999999MA1101701999999REMMET051SPECI SBUF 091945Z 13007KT 9999 FEW023 30/13 Q1017=
0142829860999992016081011154-09401-038251FM-16+026999999V0201101N003619999999N009999199+02501+01901999999ADDGA1021+005791999GE19MSL   +99999+99999GF199999021999005791999999MA1102001999999REMMET051SPECI SBUF 101115Z 11007KT 9999 FEW019 25/19 Q1020=
0142829860999992016081012004-09401-038251FM-15+026999999V0201101N003610057919N009999199+02501+01901999999ADDGA1071+005791999GE19MSL   +99999+99999GF199999071999005791999999MA1102101999999REMMET051METAR SBUF 101200Z 11007KT 9999 BKN019 25/19 Q1021=
0142829860999992016081013004-09401-038251FM-15+026999999V0201001N005110061019N009999199+02801+01801999999ADDGA1071+006101999GE19MSL   +99999+99999GF199999071999006101999999MA1102001999999REMMET051METAR SBUF 101300Z 10010KT 9999 BKN020 28/18 Q1020=
0142829860999992016081014004-09401-038251FM-15+026999999V0200901N004610061019N009999199+03001+01701999999ADDGA1071+006101999GE19MSL   +99999+99999GF199999071999006101999999MA1101901999999REMMET051METAR SBUF 101400Z 09009KT 9999 BKN020 30/17 Q1019=
0142829860999992016081015004-09401-038251FM-15+026999999V0201101N005119999999N009999199+03101+01701999999ADDGA1041+006101999GE19MSL   +99999+99999GF199999041999006101999999MA1101801999999REMMET051METAR SBUF 101500Z 11010KT 9999 SCT020 31/17 Q1018=
0142829860999992016081016004-09401-038251FM-15+026999999V0201001N004619999999N009999199+03301+01701999999ADDGA1041+006401999GE19MSL   +99999+99999GF199999041999006401999999MA1101701999999REMMET051METAR SBUF 101600Z 10009KT 9999 SCT021 33/17 Q1017=
0142829860999992016081018004-09401-038251FM-15+026999999V0201101N003619999999N009999199+03301+01501999999ADDGA1041+006401999GE19MSL   +99999+99999GF199999041999006401999999MA1101501999999REMMET051METAR SBUF 101800Z 11007KT 9999 SCT021 33/15 Q1015=
0142829860999992016081019004-09401-038251FM-15+026999999V0201001N004119999999N009999199+03301+01401999999ADDGA1041+006401999GE19MSL   +99999+99999GF199999041999006401999999MA1101501999999REMMET051METAR SBUF 101900Z 10008KT 9999 SCT021 33/14 Q1015=
0142829860999992016081020004-09401-038251FM-15+026999999V0201001N003619999999N009999199+03101+01401999999ADDGA1021+006101999GE19MSL   +99999+99999GF199999021999006101999999MA1101501999999REMMET051METAR SBUF 102000Z 10007KT 9999 FEW020 31/14 Q1015=
0142829860999992016081021004-09401-038251FM-15+026999999V0201001N002619999999N009999199+02901+01401999999ADDGA1021+006101999GE19MSL   +99999+99999GF199999021999006101999999MA1101601999999REMMET051METAR SBUF 102100Z 10005KT 9999 FEW020 29/14 Q1016=
0142829860999992016081022004-09401-038251FM-15+026999999V0201201N007219999999N009999199+02701+02001999999ADDGA1021+006101999GE19MSL   +99999+99999GF199999021999006101999999MA1101701999999REMMET051METAR SBUF 102200Z 12014KT 9999 FEW020 27/20 Q1017=
0142829860999992016081023004-09401-038251FM-15+026999999V0201301N005719999999N009999199+02601+02001999999ADDGA1021+006101999GE19MSL   +99999+99999GF199999021999006101999999MA1101801999999REMMET051METAR SBUF 102300Z 13011KT 9999 FEW020 26/20 Q1018=
0072829860999992016081023454-09401-038251FM-16+026999999V0201201N006719999999Y999999999+02501+02001999999ADDMA1101801999999REMMET045SPECI SBUF 102345Z 12013KT CAVOK 25/20 Q1018=
0142829860999992016081111154-09401-038251FM-16+026999999V0201101N003610051819N009999199+02301+01901999999ADDGA1071+005181999GE19MSL   +99999+99999GF199999071999005181999999MA1101901999999REMMET051SPECI SBUF 111115Z 11007KT 9999 BKN017 23/19 Q1019=
0142829860999992016081112004-09401-038251FM-15+026999999V0200901N004110057919N009999199+02601+01901999999ADDGA1071+005791999GE19MSL   +99999+99999GF199999071999005791999999MA1101901999999REMMET051METAR SBUF 111200Z 09008KT 9999 BKN019 26/19 Q1019=
0142829860999992016081113004-09401-038251FM-15+026999999V0200901N004610057919N009999199+02801+01801999999ADDGA1071+005791999GE19MSL   +99999+99999GF199999071999005791999999MA1101901999999REMMET051METAR SBUF 111300Z 09009KT 9999 BKN019 28/18 Q1019=
0142829860999992016081114004-09401-038251FM-15+026999999V0201001N004619999999N009999199+02901+01701999999ADDGA1041+006101999GE19MSL   +99999+99999GF199999041999006101999999MA1101801999999REMMET051METAR SBUF 111400Z 10009KT 9999 SCT020 29/17 Q1018=
0142829860999992016081115004-09401-038251FM-15+026999999V0201101N004619999999N009999199+03101+01601999999ADDGA1021+006101999GE19MSL   +99999+99999GF199999021999006101999999MA1101601999999REMMET051METAR SBUF 111500Z 11009KT 9999 FEW020 31/16 Q1016=
0142829860999992016081116004-09401-038251FM-15+026999999V0200901N003619999999N009999199+03301+01501999999ADDGA1021+006711999GE19MSL   +99999+99999GF199999021999006711999999MA1101501999999REMMET051METAR SBUF 111600Z 09007KT 9999 FEW022 33/15 Q1015=
0142829860999992016081117004-09401-038251FM-15+026999999V0201101N004619999999N009999199+03201+01401999999ADDGA1021+006711999GE19MSL   +99999+99999GF199999021999006711999999MA1101401999999REMMET051METAR SBUF 111700Z 11009KT 9999 FEW022 32/14 Q1014=
0142829860999992016081118004-09401-038251FM-15+026999999V0201201N004619999999N009999199+03301+01401999999ADDGA1021+006711999GE19MSL   +99999+99999GF199999021999006711999999MA1101301999999REMMET051METAR SBUF 111800Z 12009KT 9999 FEW022 33/14 Q1013=
0142829860999992016081119004-09401-038251FM-15+026999999V0201401N004619999999N009999199+03201+01301999999ADDGA1021+006711999GE19MSL   +99999+99999GF199999021999006711999999MA1101301999999REMMET051METAR SBUF 111900Z 14009KT 9999 FEW022 32/13 Q1013=
0072829860999992016081120004-09401-038251FM-15+026999999V0201101N004619999999Y999999999+03101+01301999999ADDMA1101401999999REMMET045METAR SBUF 112000Z 11009KT CAVOK 31/13 Q1014=
0072829860999992016081121004-09401-038251FM-15+026999999V0201101N004619999999Y999999999+02901+01401999999ADDMA1101401999999REMMET045METAR SBUF 112100Z 11009KT CAVOK 29/14 Q1014=
0072829860999992016081121154-09401-038251FM-16+026999999V0201201N004119999999Y999999999+02901+01401999999ADDMA1101501999999REMMET045SPECI SBUF 112115Z 12008KT CAVOK 29/14 Q1015=
0142829860999992016081211154-09401-038251FM-16+026999999V0201101N004110048819N009999199+02501+01801999999ADDGA1071+004881999GE19MSL   +99999+99999GF199999071999004881999999MA1102001999999REMMET051SPECI SBUF 121115Z 11008KT 9999 BKN016 25/18 Q1020=
0142829860999992016081212004-09401-038251FM-15+026999999V0201001N005110051819N009999199+02601+01701999999ADDGA1071+005181999GE19MSL   +99999+99999GF199999071999005181999999MA1102001999999REMMET051METAR SBUF 121200Z 10010KT 9999 BKN017 26/17 Q1020=
0142829860999992016081213004-09401-038251FM-15+026999999V0201101N005119999999N009999199+02801+01501999999ADDGA1041+005491999GE19MSL   +99999+99999GF199999041999005491999999MA1101901999999REMMET051METAR SBUF 121300Z 11010KT 9999 SCT018 28/15 Q1019=
0142829860999992016081214004-09401-038251FM-15+026999999V0201301N005119999999N009999199+02901+01401999999ADDGA1021+006101999GE19MSL   +99999+99999GF199999021999006101999999MA1101901999999REMMET051METAR SBUF 121400Z 13010KT 9999 FEW020 29/14 Q1019=
0072829860999992016081215004-09401-038251FM-15+026999999V0201101N004619999999Y999999999+03001+01301999999ADDMA1101701999999REMMET045METAR SBUF 121500Z 11009KT CAVOK 30/13 Q1017=
0072829860999992016081216004-09401-038251FM-15+026999999V0201101N005719999999Y999999999+03201+01301999999ADDMA1101601999999REMMET045METAR SBUF 121600Z 11011KT CAVOK 32/13 Q1016=
0072829860999992016081217004-09401-038251FM-15+026999999V0201401N005719999999Y999999999+03201+01101999999ADDMA1101501999999REMMET045METAR SBUF 121700Z 14011KT CAVOK 32/11 Q1015=
0072829860999992016081218004-09401-038251FM-15+026999999V0201201N006219999999Y999999999+03301+00601999999ADDMA1101401999999REMMET045METAR SBUF 121800Z 12012KT CAVOK 33/06 Q1014=
0072829860999992016081219004-09401-038251FM-15+026999999V0201301N005719999999Y999999999+03101+00901999999ADDMA1101401999999REMMET045METAR SBUF 121900Z 13011KT CAVOK 31/09 Q1014=
0072829860999992016081219454-09401-038251FM-16+026999999V0201201N006219999999Y999999999+03101+01001999999ADDMA1101401999999REMMET045SPECI SBUF 121945Z 12012KT CAVOK 31/10 Q1014=
0142829860999992016081311154-09401-038251FM-16+026999999V0201301N003619999999N009999199+02501+01801999999ADDGA1041+005491999GE19MSL   +99999+99999GF199999041999005491999999MA1102001999999REMMET051SPECI SBUF 131115Z 13007KT 9999 SCT018 25/18 Q1020=
0142829860999992016081312004-09401-038251FM-15+026999999V0200801N005110057919N009999199+02601+01701999999ADDGA1071+005791999GE19MSL   +99999+99999GF199999071999005791999999MA1102001999999REMMET051METAR SBUF 131200Z 08010KT 9999 BKN019 26/17 Q1020=
0142829860999992016081313004-09401-038251FM-15+026999999V0200901N005719999999N009999199+02901+01501999999ADDGA1041+006101999GE19MSL   +99999+99999GF199999041999006101999999MA1102001999999REMMET051METAR SBUF 131300Z 09011KT 9999 SCT020 29/15 Q1020=
0142829860999992016081314004-09401-038251FM-15+026999999V0201001N006719999999N009999199+03001+01501999999ADDGA1041+006101999GE19MSL   +99999+99999GF199999041999006101999999MA1101901999999REMMET051METAR SBUF 131400Z 10013KT 9999 SCT020 30/15 Q1019=
0142829860999992016081315004-09401-038251FM-15+026999999V0201201N006719999999N009999199+03101+01301999999ADDGA1041+006101999GE19MSL   +99999+99999GF199999041999006101999999MA1101701999999REMMET051METAR SBUF 131500Z 12013KT 9999 SCT020 31/13 Q1017=
0142829860999992016081316004-09401-038251FM-15+026999999V0201201N006219999999N009999199+03101+01401999999ADDGA1041+006101999GE19MSL   +99999+99999GF199999041999006101999999MA1101601999999REMMET051METAR SBUF 131600Z 12012KT 9999 SCT020 31/14 Q1016=
0142829860999992016081317004-09401-038251FM-15+026999999V0201401N006219999999N009999199+03201+01301999999ADDGA1041+006401999GE19MSL   +99999+99999GF199999041999006401999999MA1101501999999REMMET051METAR SBUF 131700Z 14012KT 9999 SCT021 32/13 Q1015=
0142829860999992016081318004-09401-038251FM-15+026999999V0201101N006719999999N009999199+03101+01201999999ADDGA1041+006401999GE19MSL   +99999+99999GF199999041999006401999999MA1101401999999REMMET051METAR SBUF 131800Z 11013KT 9999 SCT021 31/12 Q1014=
0142829860999992016081319004-09401-038251FM-15+026999999V0201301N006719999999N009999199+03201+01201999999ADDGA1041+006101999GE19MSL   +99999+99999GF199999041999006101999999MA1101501999999REMMET051METAR SBUF 131900Z 13013KT 9999 SCT020 32/12 Q1015=
0142829860999992016081320004-09401-038251FM-15+026999999V0201201N005719999999N009999199+03001+01301999999ADDGA1021+006101999GE19MSL   +99999+99999GF199999021999006101999999MA1101501999999REMMET051METAR SBUF 132000Z 12011KT 9999 FEW020 30/13 Q1015=
0142829860999992016081321004-09401-038251FM-15+026999999V0201301N005719999999N009999199+02801+01401999999ADDGA1021+005791999GE19MSL   +99999+99999GF199999021999005791999999MA1101501999999REMMET051METAR SBUF 132100Z 13011KT 9999 FEW019 28/14 Q1015=
0072829860999992016081322004-09401-038251FM-15+026999999V0201201N006719999999Y999999999+02701+01401999999ADDMA1101601999999REMMET045METAR SBUF 132200Z 12013KT CAVOK 27/14 Q1016=
0072829860999992016081323004-09401-038251FM-15+026999999V0201201N005719999999Y999999999+02601+01501999999ADDMA1101801999999REMMET045METAR SBUF 132300Z 12011KT CAVOK 26/15 Q1018=
0072829860999992016081323454-09401-038251FM-16+026999999V0201001N006219999999Y999999999+02501+01701999999ADDMA1101801999999REMMET045SPECI SBUF 132345Z 10012KT CAVOK 25/17 Q1018=
0142829860999992016081411154-09401-038251FM-16+026999999V0200701N003619999999N009999199+02401+01801999999ADDGA1041+005791999GE19MSL   +99999+99999GF199999041999005791999999MA1101901999999REMMET051SPECI SBUF 141115Z 07007KT 9999 SCT019 24/18 Q1019=
0165829860999992016081412004-09401-038251FM-15+026999999V0201001N00461021341CN009999199+02601+01801999999ADDGA1041+005791999GA2041+021341999GE19MSL   +99999+99999GF199999041999005791999999MA1102001999999REMMET058METAR SBUF 141200Z 10009KT 9999 SCT019 SCT070 26/18 Q1020=
0142829860999992016081413004-09401-038251FM-15+026999999V0201001N004619999999N009999199+02701+01701999999ADDGA1041+006101999GE19MSL   +99999+99999GF199999041999006101999999MA1101901999999REMMET051METAR SBUF 141300Z 10009KT 9999 SCT020 27/17 Q1019=
0142829860999992016081414004-09401-038251FM-15+026999999V0201301N005119999999N009999199+03001+01601999999ADDGA1041+006401999GE19MSL   +99999+99999GF199999041999006401999999MA1101801999999REMMET051METAR SBUF 141400Z 13010KT 9999 SCT021 30/16 Q1018=
0142829860999992016081415004-09401-038251FM-15+026999999V0201201N005119999999N009999199+03001+01501999999ADDGA1041+006401999GE19MSL   +99999+99999GF199999041999006401999999MA1101701999999REMMET051METAR SBUF 141500Z 12010KT 9999 SCT021 30/15 Q1017=
0142829860999992016081416004-09401-038251FM-15+026999999V0201201N005119999999N009999199+03301+01401999999ADDGA1041+007011999GE19MSL   +99999+99999GF199999041999007011999999MA1101601999999REMMET051METAR SBUF 141600Z 12010KT 9999 SCT023 33/14 Q1016=
0142829860999992016081417004-09401-038251FM-15+026999999V0201201N004119999999N009999199+03201+01401999999ADDGA1021+007011999GE19MSL   +99999+99999GF199999021999007011999999MA1101501999999REMMET051METAR SBUF 141700Z 12008KT 9999 FEW023 32/14 Q1015=
0142829860999992016081418004-09401-038251FM-15+026999999V0200901N004619999999N009999199+03201+01401999999ADDGA1021+007011999GE19MSL   +99999+99999GF199999021999007011999999MA1101401999999REMMET051METAR SBUF 141800Z 09009KT 9999 FEW023 32/14 Q1014=
0142829860999992016081419004-09401-038251FM-15+026999999V0201001N004119999999N009999199+03101+01401999999ADDGA1021+007011999GE19MSL   +99999+99999GF199999021999007011999999MA1101401999999REMMET051METAR SBUF 141900Z 10008KT 9999 FEW023 31/14 Q1014=
0142829860999992016081419454-09401-038251FM-16+026999999V0200901N004619999999N009999199+03101+01301999999ADDGA1021+007011999GE19MSL   +99999+99999GF199999021999007011999999MA1101501999999REMMET051SPECI SBUF 141945Z 09009KT 9999 FEW023 31/13 Q1015=
0142829860999992016081511154-09401-038251FM-16+026999999V0201301N003619999999N009999199+02501+01801999999ADDGA1041+004881999GE19MSL   +99999+99999GF199999041999004881999999MA1101901999999REMMET051SPECI SBUF 151115Z 13007KT 9999 SCT016 25/18 Q1019=
0142829860999992016081512004-09401-038251FM-15+026999999V0201001N004119999999N009999199+02601+01701999999ADDGA1041+005181999GE19MSL   +99999+99999GF199999041999005181999999MA1101901999999REMMET051METAR SBUF 151200Z 10008KT 9999 SCT017 26/17 Q1019=
0142829860999992016081513004-09401-038251FM-15+026999999V0201101N004119999999N009999199+02701+01701999999ADDGA1021+005791999GE19MSL   +99999+99999GF199999021999005791999999MA1101801999999REMMET051METAR SBUF 151300Z 11008KT 9999 FEW019 27/17 Q1018=
0142829860999992016081514004-09401-038251FM-15+026999999V0201301N004119999999N009999199+02901+01601999999ADDGA1021+006101999GE19MSL   +99999+99999GF199999021999006101999999MA1101701999999REMMET051METAR SBUF 151400Z 13008KT 9999 FEW020 29/16 Q1017=
0142829860999992016081515004-09401-038251FM-15+026999999V0201501N003619999999N009999199+03001+01501999999ADDGA1021+006711999GE19MSL   +99999+99999GF199999021999006711999999MA1101601999999REMMET051METAR SBUF 151500Z 15007KT 9999 FEW022 30/15 Q1016=
0072829860999992016081516004-09401-038251FM-15+026999999V0201801N002619999999Y999999999+03101+01401999999ADDMA1101501999999REMMET045METAR SBUF 151600Z 18005KT CAVOK 31/14 Q1015=
0072829860999992016081517004-09401-038251FM-15+026999999V0201101N002619999999Y999999999+03201+01401999999ADDMA1101401999999REMMET045METAR SBUF 151700Z 11005KT CAVOK 32/14 Q1014=
0072829860999992016081518004-09401-038251FM-15+026999999V0201101N002119999999Y999999999+03301+01401999999ADDMA1101301999999REMMET045METAR SBUF 151800Z 11004KT CAVOK 33/14 Q1013=
0072829860999992016081519004-09401-038251FM-15+026999999V0201201N002619999999Y999999999+03201+01301999999ADDMA1101301999999REMMET045METAR SBUF 151900Z 12005KT CAVOK 32/13 Q1013=
0072829860999992016081519454-09401-038251FM-16+026999999V0201301N003119999999Y999999999+03201+01401999999ADDMA1101301999999REMMET045SPECI SBUF 151945Z 13006KT CAVOK 32/14 Q1013=
0142829860999992016081611154-09401-038251FM-16+026999999V0201401N002610048819N009999199+02501+02001999999ADDGA1071+004881999GE19MSL   +99999+99999GF199999071999004881999999MA1101801999999REMMET051SPECI SBUF 161115Z 14005KT 9999 BKN016 25/20 Q1018=
0142829860999992016081612004-09401-038251FM-15+026999999V0201601N002110051819N009999199+02501+01901999999ADDGA1071+005181999GE19MSL   +99999+99999GF199999071999005181999999MA1101901999999REMMET051METAR SBUF 161200Z 16004KT 9999 BKN017 25/19 Q1019=
0142829860999992016081613004-09401-038251FM-15+026999999V0200501N002110054919N009999199+02901+01901999999ADDGA1071+005491999GE19MSL   +99999+99999GF199999071999005491999999MA1101801999999REMMET051METAR SBUF 161300Z 05004KT 9999 BKN018 29/19 Q1018=
0142829860999992016081614004-09401-038251FM-15+026999999V0201001N002610061019N009999199+03101+01801999999ADDGA1071+006101999GE19MSL   +99999+99999GF199999071999006101999999MA1101701999999REMMET051METAR SBUF 161400Z 10005KT 9999 BKN020 31/18 Q1017=
0142829860999992016081615004-09401-038251FM-15+026999999V0201801N002619999999N009999199+03101+01801999999ADDGA1041+006101999GE19MSL   +99999+99999GF199999041999006101999999MA1101601999999REMMET051METAR SBUF 161500Z 18005KT 9999 SCT020 31/18 Q1016=
0142829860999992016081616004-09401-038251FM-15+026999999V0201901N002119999999N009999199+03301+01701999999ADDGA1021+006401999GE19MSL   +99999+99999GF199999021999006401999999MA1101501999999REMMET051METAR SBUF 161600Z 19004KT 9999 FEW021 33/17 Q1015=
0142829860999992016081618004-09401-038251FM-15+026999999V0200801N002619999999N009999199+03401+01601999999ADDGA1021+006711999GE19MSL   +99999+99999GF199999021999006711999999MA1101301999999REMMET051METAR SBUF 161800Z 08005KT 9999 FEW022 34/16 Q1013=
0072829860999992016081619004-09401-038251FM-15+026999999V0201001N002619999999Y999999999+03401+01501999999ADDMA1101301999999REMMET045METAR SBUF 161900Z 10005KT CAVOK 34/15 Q1013=
0072829860999992016081619454-09401-038251FM-16+026999999V0200801N003119999999Y999999999+03301+01501999999ADDMA1101301999999REMMET045SPECI SBUF 161945Z 08006KT CAVOK 33/15 Q1013=
0142829860999992016081711154-09401-038251FM-16+026999999V0201501N003119999999N009999199+02501+02001999999ADDGA1041+005181999GE19MSL   +99999+99999GF199999041999005181999999MA1101801999999REMMET051SPECI SBUF 171115Z 15006KT 9999 SCT017 25/20 Q1018=
0142829860999992016081712004-09401-038251FM-15+026999999V0201201N002619999999N009999199+02601+01901999999ADDGA1021+006101999GE19MSL   +99999+99999GF199999021999006101999999MA1101901999999REMMET051METAR SBUF 171200Z 12005KT 9999 FEW020 26/19 Q1019=
0142829860999992016081713004-09401-038251FM-15+026999999V0200901N004619999999N009999199+02901+01701999999ADDGA1021+006101999GE19MSL   +99999+99999GF199999021999006101999999MA1101901999999REMMET051METAR SBUF 171300Z 09009KT 9999 FEW020 29/17 Q1019=
0072829860999992016081714004-09401-038251FM-15+026999999V0201001N003119999999Y999999999+03001+01701999999ADDMA1101601999999REMMET045METAR SBUF 171400Z 10006KT CAVOK 30/17 Q1016=
0142829860999992016081715004-09401-038251FM-15+026999999V0201201N005119999999N009999199+03301+01501999999ADDGA1021+006711999GE19MSL   +99999+99999GF199999021999006711999999MA1101701999999REMMET051METAR SBUF 171500Z 12010KT 9999 FEW022 33/15 Q1017=
0142829860999992016081716004-09401-038251FM-15+026999999V0201101N005719999999N009999199+03401+01601999999ADDGA1021+006711999GE19MSL   +99999+99999GF199999021999006711999999MA1101601999999REMMET051METAR SBUF 171600Z 11011KT 9999 FEW022 34/16 Q1016=
0142829860999992016081717004-09401-038251FM-15+026999999V0201201N005719999999N009999199+03401+01501999999ADDGA1021+006711999GE19MSL   +99999+99999GF199999021999006711999999MA1101501999999REMMET051METAR SBUF 171700Z 12011KT 9999 FEW022 34/15 Q1015=
0142829860999992016081718004-09401-038251FM-15+026999999V0200901N005719999999N009999199+03401+01501999999ADDGA1021+006711999GE19MSL   +99999+99999GF199999021999006711999999MA1101401999999REMMET051METAR SBUF 171800Z 09011KT 9999 FEW022 34/15 Q1014=
0142829860999992016081719004-09401-038251FM-15+026999999V0201001N006219999999N009999199+03301+01501999999ADDGA1021+006711999GE19MSL   +99999+99999GF199999021999006711999999MA1101401999999REMMET051METAR SBUF 171900Z 10012KT 9999 FEW022 33/15 Q1014=
0142829860999992016081719454-09401-038251FM-16+026999999V0201101N005719999999N009999199+03201+01501999999ADDGA1021+006711999GE19MSL   +99999+99999GF199999021999006711999999MA1101401999999REMMET051SPECI SBUF 171945Z 11011KT 9999 FEW022 32/15 Q1014=
0142829860999992016081811154-09401-038251FM-16+026999999V0200901N002619999999N009999199+02501+01801999999ADDGA1021+005791999GE19MSL   +99999+99999GF199999021999005791999999MA1101901999999REMMET051SPECI SBUF 181115Z 09005KT 9999 FEW019 25/18 Q1019=
0142829860999992016081812004-09401-038251FM-15+026999999V0201101N003619999999N009999199+02801+01701999999ADDGA1021+005791999GE19MSL   +99999+99999GF199999021999005791999999MA1101901999999REMMET051METAR SBUF 181200Z 11007KT 9999 FEW019 28/17 Q1019=
0142829860999992016081813004-09401-038251FM-15+026999999V0201501N003619999999N009999199+02901+01701999999ADDGA1021+006101999GE19MSL   +99999+99999GF199999021999006101999999MA1101901999999REMMET051METAR SBUF 181300Z 15007KT 9999 FEW020 29/17 Q1019=
0142829860999992016081814004-09401-038251FM-15+026999999V0201401N004619999999N009999199+03001+01601999999ADDGA1021+006101999GE19MSL   +99999+99999GF199999021999006101999999MA1101801999999REMMET051METAR SBUF 181400Z 14009KT 9999 FEW020 30/16 Q1018=
0072829860999992016081815004-09401-038251FM-15+026999999V0201101N004619999999Y999999999+03201+01601999999ADDMA1101701999999REMMET045METAR SBUF 181500Z 11009KT CAVOK 32/16 Q1017=
0072829860999992016081816004-09401-038251FM-15+026999999V0201001N004619999999Y999999999+03301+01501999999ADDMA1101501999999REMMET045METAR SBUF 181600Z 10009KT CAVOK 33/15 Q1015=
0072829860999992016081817004-09401-038251FM-15+026999999V0201001N004619999999Y999999999+03401+01401999999ADDMA1101401999999REMMET045METAR SBUF 181700Z 10009KT CAVOK 34/14 Q1014=
0072829860999992016081818004-09401-038251FM-15+026999999V0201101N004619999999Y999999999+03401+01201999999ADDMA1101401999999REMMET045METAR SBUF 181800Z 11009KT CAVOK 34/12 Q1014=
0072829860999992016081819004-09401-038251FM-15+026999999V0200901N004619999999Y999999999+03401+01301999999ADDMA1101301999999REMMET045METAR SBUF 181900Z 09009KT CAVOK 34/13 Q1013=
0072829860999992016081819454-09401-038251FM-16+026999999V0201301N005719999999Y999999999+03201+01301999999ADDMA1101401999999REMMET045SPECI SBUF 181945Z 13011KT CAVOK 32/13 Q1014=
0142829860999992016081911154-09401-038251FM-16+026999999V0201301N004610048819N009999199+02501+01901999999ADDGA1071+004881999GE19MSL   +99999+99999GF199999071999004881999999MA1101901999999REMMET051SPECI SBUF 191115Z 13009KT 9999 BKN016 25/19 Q1019=
0142829860999992016081912004-09401-038251FM-15+026999999V0201201N006710051819N009999199+02601+01901999999ADDGA1071+005181999GE19MSL   +99999+99999GF199999071999005181999999MA1101901999999REMMET051METAR SBUF 191200Z 12013KT 9999 BKN017 26/19 Q1019=
0142829860999992016081913004-09401-038251FM-15+026999999V0201301N006210054919N009999199+02801+01701999999ADDGA1071+005491999GE19MSL   +99999+99999GF199999071999005491999999MA1101901999999REMMET051METAR SBUF 191300Z 13012KT 9999 BKN018 28/17 Q1019=
0142829860999992016081914004-09401-038251FM-15+026999999V0201201N007210057919N009999199+02901+01601999999ADDGA1071+005791999GE19MSL   +99999+99999GF199999071999005791999999MA1101801999999REMMET051METAR SBUF 191400Z 12014KT 9999 BKN019 29/16 Q1018=
0142829860999992016081915004-09401-038251FM-15+026999999V0201001N006710061019N009999199+03101+01501999999ADDGA1071+006101999GE19MSL   +99999+99999GF199999071999006101999999MA1101701999999REMMET051METAR SBUF 191500Z 10013KT 9999 BKN020 31/15 Q1017=
0142829860999992016081916004-09401-038251FM-15+026999999V0201301N006219999999N009999199+03101+01401999999ADDGA1041+006401999GE19MSL   +99999+99999GF199999041999006401999999MA1101701999999REMMET051METAR SBUF 191600Z 13012KT 9999 SCT021 31/14 Q1017=
0142829860999992016081917004-09401-038251FM-15+026999999V0201201N006219999999N009999199+03201+01401999999ADDGA1041+006401999GE19MSL   +99999+99999GF199999041999006401999999MA1101501999999REMMET051METAR SBUF 191700Z 12012KT 9999 SCT021 32/14 Q1015=
0142829860999992016081918004-09401-038251FM-15+026999999V0200801N005719999999N009999199+03301+01401999999ADDGA1041+006711999GE19MSL   +99999+99999GF199999041999006711999999MA1101501999999REMMET051METAR SBUF 191800Z 08011KT 9999 SCT022 33/14 Q1015=
0142829860999992016081919004-09401-038251FM-15+026999999V0201001N006719999999N009999199+03201+01701999999ADDGA1041+006711999GE19MSL   +99999+99999GF199999041999006711999999MA1101501999999REMMET051METAR SBUF 191900Z 10013KT 9999 SCT022 32/17 Q1015=
0142829860999992016081920004-09401-038251FM-15+026999999V0200901N006219999999N009999199+02901+01801999999ADDGA1041+006401999GE19MSL   +99999+99999GF199999041999006401999999MA1101501999999REMMET051METAR SBUF 192000Z 09012KT 9999 SCT021 29/18 Q1015=
0142829860999992016081921004-09401-038251FM-15+026999999V0201101N006219999999N009999199+02701+01901999999ADDGA1041+006101999GE19MSL   +99999+99999GF199999041999006101999999MA1101601999999REMMET051METAR SBUF 192100Z 11012KT 9999 SCT020 27/19 Q1016=
0142829860999992016081922004-09401-038251FM-15+026999999V0201201N007710057919N009999199+02601+01901999999ADDGA1071+005791999GE19MSL   +99999+99999GF199999071999005791999999MA1101701999999REMMET051METAR SBUF 192200Z 12015KT 9999 BKN019 26/19 Q1017=
0165829860999992016082000004-09401-038251FM-15+026999999V0201101N00511021341CN009999199+02401+01901999999ADDGA1041+005791999GA2041+021341999GE19MSL   +99999+99999GF199999041999005791999999MA1101801999999REMMET058METAR SBUF 200000Z 11010KT 9999 SCT019 SCT070 24/19 Q1018=
0165829860999992016082001004-09401-038251FM-15+026999999V0201201N00621021341CN009999199+02401+01901999999ADDGA1041+005791999GA2041+021341999GE19MSL   +99999+99999GF199999041999005791999999MA1101901999999REMMET058METAR SBUF 200100Z 12012KT 9999 SCT019 SCT070 24/19 Q1019=
0142829860999992016082002004-09401-038251FM-15+026999999V0201201N005710054919N009999199+02201+02001999999ADDGA1071+005491999GE19MSL   +99999+99999GF199999071999005491999999MA1101901999999REMMET051METAR SBUF 200200Z 12011KT 9999 BKN018 22/20 Q1019=
0152829860999992016082002454-09401-038251FM-16+026999999V0201401N004110048819N009999199+02101+02101999999ADDGA1071+004881999GE19MSL   +99999+99999GF199999071999004881999999MA1101901999999MW1611REMMET055SPECI SBUF 200245Z 14008KT 9999 -RA BKN016 21/21 Q1019=
0165829860999992016082011154-09401-038251FM-16+026999999V0201101N003610036619N009999199+02401+02101999999ADDGA1071+003661999GA2041+021341999GE19MSL   +99999+99999GF199999071999003661999999MA1101901999999REMMET058SPECI SBUF 201115Z 11007KT 9999 BKN012 SCT070 24/21 Q1019=
0165829860999992016082012004-09401-038251FM-15+026999999V0201001N003610042719N009999199+02501+02101999999ADDGA1071+004271999GA2041+021341999GE19MSL   +99999+99999GF199999071999004271999999MA1101901999999REMMET058METAR SBUF 201200Z 10007KT 9999 BKN014 SCT070 25/21 Q1019=
0142829860999992016082013004-09401-038251FM-15+026999999V0201201N002610045719N009999199+02501+02101999999ADDGA1071+004571999GE19MSL   +99999+99999GF199999071999004571999999MA1101901999999REMMET051METAR SBUF 201300Z 12005KT 9999 BKN015 25/21 Q1019=
0142829860999992016082014004-09401-038251FM-15+026999999V0201301N002610054919N009999199+02901+02101999999ADDGA1071+005491999GE19MSL   +99999+99999GF199999071999005491999999MA1101901999999REMMET051METAR SBUF 201400Z 13005KT 9999 BKN018 29/21 Q1019=
0142829860999992016082015004-09401-038251FM-15+026999999V0200901N003619999999N009999199+03001+01901999999ADDGA1041+006101999GE19MSL   +99999+99999GF199999041999006101999999MA1101701999999REMMET051METAR SBUF 201500Z 09007KT 9999 SCT020 30/19 Q1017=
0142829860999992016082016004-09401-038251FM-15+026999999V0200901N005119999999N009999199+03101+01901999999ADDGA1041+006101999GE19MSL   +99999+99999GF199999041999006101999999MA1101601999999REMMET051METAR SBUF 201600Z 09010KT 9999 SCT020 31/19 Q1016=
0142829860999992016082017004-09401-038251FM-15+026999999V0201001N004619999999N009999199+03101+01901999999ADDGA1041+006101999GE19MSL   +99999+99999GF199999041999006101999999MA1101501999999REMMET051METAR SBUF 201700Z 10009KT 9999 SCT020 31/19 Q1015=
0142829860999992016082018004-09401-038251FM-15+026999999V0201001N004119999999N009999199+03201+01801999999ADDGA1021+006101999GE19MSL   +99999+99999GF199999021999006101999999MA1101501999999REMMET051METAR SBUF 201800Z 10008KT 9999 FEW020 32/18 Q1015=
0142829860999992016082019004-09401-038251FM-15+026999999V0200801N003619999999N009999199+03101+01801999999ADDGA1021+006101999GE19MSL   +99999+99999GF199999021999006101999999MA1101401999999REMMET051METAR SBUF 201900Z 08007KT 9999 FEW020 31/18 Q1014=
0142829860999992016082019454-09401-038251FM-16+026999999V0201001N004119999999N009999199+03001+01801999999ADDGA1021+006101999GE19MSL   +99999+99999GF199999021999006101999999MA1101401999999REMMET051SPECI SBUF 201945Z 10008KT 9999 FEW020 30/18 Q1014=
0142829860999992016082111154-09401-038251FM-16+026999999V0201201N003119999999N009999199+02501+01901999999ADDGA1041+005181999GE19MSL   +99999+99999GF199999041999005181999999MA1101901999999REMMET051SPECI SBUF 211115Z 12006KT 9999 SCT017 25/19 Q1019=
0142829860999992016082112004-09401-038251FM-15+026999999V0201001N004619999999N009999199+02601+01801999999ADDGA1021+005491999GE19MSL   +99999+99999GF199999021999005491999999MA1101901999999REMMET051METAR SBUF 211200Z 10009KT 9999 FEW018 26/18 Q1019=
0142829860999992016082113004-09401-038251FM-15+026999999V0201201N003119999999N009999199+02801+01801999999ADDGA1021+006101999GE19MSL   +99999+99999GF199999021999006101999999MA1101901999999REMMET051METAR SBUF 211300Z 12006KT 9999 FEW020 28/18 Q1019=
0142829860999992016082114004-09401-038251FM-15+026999999V0201001N002619999999N009999199+03001+01501999999ADDGA1041+006401999GE19MSL   +99999+99999GF199999041999006401999999MA1101801999999REMMET051METAR SBUF 211400Z 10005KT 9999 SCT021 30/15 Q1018=
0142829860999992016082115004-09401-038251FM-15+026999999V0200701N002619999999N009999199+03001+01501999999ADDGA1021+006401999GE19MSL   +99999+99999GF199999021999006401999999MA1101701999999REMMET051METAR SBUF 211500Z 07005KT 9999 FEW021 30/15 Q1017=
0142829860999992016082116004-09401-038251FM-15+026999999V0201701N002619999999N009999199+03101+01501999999ADDGA1021+006711999GE19MSL   +99999+99999GF199999021999006711999999MA1101601999999REMMET051METAR SBUF 211600Z 17005KT 9999 FEW022 31/15 Q1016=
0072829860999992016082117004-09401-038251FM-15+026999999V0201201N003119999999Y999999999+03201+01401999999ADDMA1101501999999REMMET045METAR SBUF 211700Z 12006KT CAVOK 32/14 Q1015=
0072829860999992016082118004-09401-038251FM-15+026999999V0201001N003119999999Y999999999+03301+01301999999ADDMA1101401999999REMMET045METAR SBUF 211800Z 10006KT CAVOK 33/13 Q1014=
0072829860999992016082119004-09401-038251FM-15+026999999V0201001N003619999999Y999999999+03201+01301999999ADDMA1101401999999REMMET045METAR SBUF 211900Z 10007KT CAVOK 32/13 Q1014=
0072829860999992016082119454-09401-038251FM-16+026999999V0200701N003119999999Y999999999+03101+01301999999ADDMA1101401999999REMMET045SPECI SBUF 211945Z 07006KT CAVOK 31/13 Q1014=
0142829860999992016082211154-09401-038251FM-16+026999999V0200601N001519999999N009999199+02501+02001999999ADDGA1041+005181999GE19MSL   +99999+99999GF199999041999005181999999MA1101901999999REMMET051SPECI SBUF 221115Z 06003KT 9999 SCT017 25/20 Q1019=
0142829860999992016082212004-09401-038251FM-15+026999999V0200501N002119999999N009999199+02601+01901999999ADDGA1021+005491999GE19MSL   +99999+99999GF199999021999005491999999MA1101901999999REMMET051METAR SBUF 221200Z 05004KT 9999 FEW018 26/19 Q1019=
0142829860999992016082213004-09401-038251FM-15+026999999V0201701N001519999999N009999199+02901+01901999999ADDGA1021+006101999GE19MSL   +99999+99999GF199999021999006101999999MA1101801999999REMMET051METAR SBUF 221300Z 17003KT 9999 FEW020 29/19 Q1018=
0142829860999992016082214004-09401-038251FM-15+026999999V0202201N003619999999N009999199+03001+01801999999ADDGA1021+006101999GE19MSL   +99999+99999GF199999021999006101999999MA1101701999999REMMET051METAR SBUF 221400Z 22007KT 9999 FEW020 30/18 Q1017=
0072829860999992016082215004-09401-038251FM-15+026999999V0201701N002619999999Y999999999+03201+01401999999ADDMA1101601999999REMMET045METAR SBUF 221500Z 17005KT CAVOK 32/14 Q1016=
0072829860999992016082216004-09401-038251FM-15+026999999V0201101N002119999999Y999999999+03401+01301999999ADDMA1101501999999REMMET045METAR SBUF 221600Z 11004KT CAVOK 34/13 Q1015=
0072829860999992016082217004-09401-038251FM-15+026999999V0201601N003119999999Y999999999+03401+01201999999ADDMA1101301999999REMMET045METAR SBUF 221700Z 16006KT CAVOK 34/12 Q1013=
0072829860999992016082218004-09401-038251FM-15+026999999V0201501N003619999999Y999999999+03501+01001999999ADDMA1101301999999REMMET045METAR SBUF 221800Z 15007KT CAVOK 35/10 Q1013=
0072829860999992016082219004-09401-038251FM-15+026999999V0201201N005119999999Y999999999+03501+01101999999ADDMA1101301999999REMMET045METAR SBUF 221900Z 12010KT CAVOK 35/11 Q1013=
0072829860999992016082219454-09401-038251FM-16+026999999V0201301N005119999999Y999999999+03401+01101999999ADDMA1101301999999REMMET045SPECI SBUF 221945Z 13010KT CAVOK 34/11 Q1013=
0142829860999992016082311154-09401-038251FM-16+026999999V0201301N006219999999N009999199+02501+01801999999ADDGA1041+006101999GE19MSL   +99999+99999GF199999041999006101999999MA1102001999999REMMET051SPECI SBUF 231115Z 13012KT 9999 SCT020 25/18 Q1020=
0142829860999992016082312004-09401-038251FM-15+026999999V0201201N006719999999N009999199+02601+01701999999ADDGA1041+006101999GE19MSL   +99999+99999GF199999041999006101999999MA1102001999999REMMET051METAR SBUF 231200Z 12013KT 9999 SCT020 26/17 Q1020=
0142829860999992016082313004-09401-038251FM-15+026999999V0201101N005719999999N009999199+02901+01601999999ADDGA1041+006101999GE19MSL   +99999+99999GF199999041999006101999999MA1102001999999REMMET051METAR SBUF 231300Z 11011KT 9999 SCT020 29/16 Q1020=
0142829860999992016082314004-09401-038251FM-15+026999999V0201101N005119999999N009999199+03101+01401999999ADDGA1041+006101999GE19MSL   +99999+99999GF199999041999006101999999MA1101901999999REMMET051METAR SBUF 231400Z 11010KT 9999 SCT020 31/14 Q1019=
0142829860999992016082315004-09401-038251FM-15+026999999V0201501N006219999999N009999199+03201+01301999999ADDGA1041+006401999GE19MSL   +99999+99999GF199999041999006401999999MA1101801999999REMMET051METAR SBUF 231500Z 15012KT 9999 SCT021 32/13 Q1018=
0142829860999992016082316004-09401-038251FM-15+026999999V0201401N006719999999N009999199+03301+01201999999ADDGA1041+006401999GE19MSL   +99999+99999GF199999041999006401999999MA1101701999999REMMET051METAR SBUF 231600Z 14013KT 9999 SCT021 33/12 Q1017=
0142829860999992016082317004-09401-038251FM-15+026999999V0201201N006719999999N009999199+03301+01201999999ADDGA1041+006401999GE19MSL   +99999+99999GF199999041999006401999999MA1101601999999REMMET051METAR SBUF 231700Z 12013KT 9999 SCT021 33/12 Q1016=
0142829860999992016082318004-09401-038251FM-15+026999999V0201301N005719999999N009999199+03401+01101999999ADDGA1041+006401999GE19MSL   +99999+99999GF199999041999006401999999MA1101501999999REMMET051METAR SBUF 231800Z 13011KT 9999 SCT021 34/11 Q1015=
0142829860999992016082319004-09401-038251FM-15+026999999V0201101N006219999999N009999199+03101+01401999999ADDGA1041+006101999GE19MSL   +99999+99999GF199999041999006101999999MA1101501999999REMMET051METAR SBUF 231900Z 11012KT 9999 SCT020 31/14 Q1015=
0142829860999992016082319454-09401-038251FM-16+026999999V0201301N005719999999N009999199+03101+01301999999ADDGA1021+006101999GE19MSL   +99999+99999GF199999021999006101999999MA1101601999999REMMET051SPECI SBUF 231945Z 13011KT 9999 FEW020 31/13 Q1016=
0168829860999992016082411154-09401-038251FM-16+026999999V0201101N004619999999N009999199+02501+01901999999ADDGA1041+004881999GA2021+006101081GE19MSL   +99999+99999GF199999041999004881999999MA1102101999999REMMET061SPECI SBUF 241115Z 11009KT 9999 SCT016 FEW020TCU 25/19 Q1021=
0142829860999992016082412004-09401-038251FM-15+026999999V0201101N006710054919N009999199+02801+01701999999ADDGA1071+005491999GE19MSL   +99999+99999GF199999071999005491999999MA1102101999999REMMET051METAR SBUF 241200Z 11013KT 9999 BKN018 28/17 Q1021=
0165829860999992016082413004-09401-038251FM-15+026999999V0201001N005110243819N009999199+03001+01601999999ADDGA1021+005791999GA2071+024381999GE19MSL   +99999+99999GF199999021999005791999999MA1102101999999REMMET058METAR SBUF 241300Z 10010KT 9999 FEW019 BKN080 30/16 Q1021=
0165829860999992016082414004-09401-038251FM-15+026999999V0200901N00671024381CN009999199+03101+01501999999ADDGA1041+006101999GA2041+024381999GE19MSL   +99999+99999GF199999041999006101999999MA1102001999999REMMET058METAR SBUF 241400Z 09013KT 9999 SCT020 SCT080 31/15 Q1020=
0142829860999992016082415004-09401-038251FM-15+026999999V0201101N005119999999N009999199+03201+01501999999ADDGA1041+006101999GE19MSL   +99999+99999GF199999041999006101999999MA1101901999999REMMET051METAR SBUF 241500Z 11010KT 9999 SCT020 32/15 Q1019=
0142829860999992016082416004-09401-038251FM-15+026999999V0201101N006719999999N009999199+03301+01501999999ADDGA1041+006401999GE19MSL   +99999+99999GF199999041999006401999999MA1101801999999REMMET051METAR SBUF 241600Z 11013KT 9999 SCT021 33/15 Q1018=
0142829860999992016082417004-09401-038251FM-15+026999999V0201001N007210064019N009999199+03101+01601999999ADDGA1071+006401999GE19MSL   +99999+99999GF199999071999006401999999MA1101701999999REMMET051METAR SBUF 241700Z 10014KT 9999 BKN021 31/16 Q1017=
0142829860999992016082418004-09401-038251FM-15+026999999V0201001N007210061019N009999199+03001+01701999999ADDGA1071+006101999GE19MSL   +99999+99999GF199999071999006101999999MA1101701999999REMMET051METAR SBUF 241800Z 10014KT 9999 BKN020 30/17 Q1017=
0142829860999992016082419004-09401-038251FM-15+026999999V0201101N006719999999N009999199+03001+01601999999ADDGA1041+006101999GE19MSL   +99999+99999GF199999041999006101999999MA1101701999999REMMET051METAR SBUF 241900Z 11013KT 9999 SCT020 30/16 Q1017=
0142829860999992016082419454-09401-038251FM-16+026999999V0201001N006219999999N009999199+02901+01601999999ADDGA1041+006101999GE19MSL   +99999+99999GF199999041999006101999999MA1101701999999REMMET051SPECI SBUF 241945Z 10012KT 9999 SCT020 29/16 Q1017=
0142829860999992016082511154-09401-038251FM-16+026999999V0201101N004110051819N009999199+02401+01901999999ADDGA1071+005181999GE19MSL   +99999+99999GF199999071999005181999999MA1102001999999REMMET051SPECI SBUF 251115Z 11008KT 9999 BKN017 24/19 Q1020=
0188829860999992016082512004-09401-038251FM-15+026999999V0201101N00671005181CN009999199+02501+01801999999ADDGA1021+004571999GA2041+005181999GA3071+021341999GE19MSL   +99999+99999GF199999021999004571999999MA1102001999999REMMET065METAR SBUF 251200Z 11013KT 9999 FEW015 SCT017 BKN070 25/18 Q1020=
0165829860999992016082513004-09401-038251FM-15+026999999V0201401N004610213419N009999199+02701+01801999999ADDGA1041+005491999GA2071+021341999GE19MSL   +99999+99999GF199999041999005491999999MA1101901999999REMMET058METAR SBUF 251300Z 14009KT 9999 SCT018 BKN070 27/18 Q1019=
0165829860999992016082514004-09401-038251FM-15+026999999V0201001N006710213419N009999199+02701+01701999999ADDGA1041+005491999GA2071+021341999GE19MSL   +99999+99999GF199999041999005491999999MA1101901999999REMMET058METAR SBUF 251400Z 10013KT 9999 SCT018 BKN070 27/17 Q1019=
0165829860999992016082515004-09401-038251FM-15+026999999V0201101N005110243819N009999199+02801+01701999999ADDGA1041+006101999GA2071+024381999GE19MSL   +99999+99999GF199999041999006101999999MA1101801999999REMMET058METAR SBUF 251500Z 11010KT 9999 SCT020 BKN080 28/17 Q1018=
0165829860999992016082516004-09401-038251FM-15+026999999V0200901N005710243819N009999199+03001+01601999999ADDGA1041+006101999GA2071+024381999GE19MSL   +99999+99999GF199999041999006101999999MA1101701999999REMMET058METAR SBUF 251600Z 09011KT 9999 SCT020 BKN080 30/16 Q1017=
0165829860999992016082517004-09401-038251FM-15+026999999V0201001N006710243819N009999199+03001+01601999999ADDGA1041+006101999GA2071+024381999GE19MSL   +99999+99999GF199999041999006101999999MA1101601999999REMMET058METAR SBUF 251700Z 10013KT 9999 SCT020 BKN080 30/16 Q1016=
0165829860999992016082518004-09401-038251FM-15+026999999V0201101N00721024381CN009999199+03001+01701999999ADDGA1041+006101999GA2041+024381999GE19MSL   +99999+99999GF199999041999006101999999MA1101601999999REMMET058METAR SBUF 251800Z 11014KT 9999 SCT020 SCT080 30/17 Q1016=
0142829860999992016082519004-09401-038251FM-15+026999999V0201001N006219999999N009999199+02901+01701999999ADDGA1041+006101999GE19MSL   +99999+99999GF199999041999006101999999MA1101601999999REMMET051METAR SBUF 251900Z 10012KT 9999 SCT020 29/17 Q1016=
0165829860999992016082519454-09401-038251FM-16+026999999V0201201N00671024381CN009999199+02801+01801999999ADDGA1041+006101999GA2041+024381999GE19MSL   +99999+99999GF199999041999006101999999MA1101701999999REMMET058SPECI SBUF 251945Z 12013KT 9999 SCT020 SCT080 28/18 Q1017=
0153829860999992016082611154-09401-038251FM-16+026999999V0201401N003610036619N009999199+02201+02101999999ADDGA1081+003661999GE19MSL   +99999+99999GF199999081999003661999999MA1101901999999MW1161REMMET056SPECI SBUF 261115Z 14007KT 9999 VCSH OVC012 22/21 Q1019=
0152829860999992016082612004-09401-038251FM-15+026999999V0201101N004110030519N003000199+02201+02101999999ADDGA1081+003051999GE19MSL   +99999+99999GF199999081999003051999999MA1101901999999MW1611REMMET055METAR SBUF 261200Z 11008KT 3000 -RA OVC010 22/21 Q1019=
0174829860999992016082613004-09401-038251FM-15+026999999V0201401N004110213419N005000199+02301+02101999999ADDGA1041+003961999GA2071+021341999GE19MSL   +99999+99999GF199999041999003961999999MA1101901999999MW1101REMMET061METAR SBUF 261300Z 14008KT 5000 BR SCT013 BKN070 23/21 Q1019=
0165829860999992016082614004-09401-038251FM-15+026999999V0201701N003110213419N009999199+02301+02201999999ADDGA1021+003961999GA2071+021341999GE19MSL   +99999+99999GF199999021999003961999999MA1101801999999REMMET058METAR SBUF 261400Z 17006KT 9999 FEW013 BKN070 23/22 Q1018=
0168829860999992016082615004-09401-038251FM-15+026999999V0201701N004110213419N009999199+02401+02001999999ADDGA1041+005491081GA2071+021341999GE19MSL   +99999+99999GF199999041999005491999999MA1101701999999REMMET061METAR SBUF 261500Z 17008KT 9999 SCT018TCU BKN070 24/20 Q1017=
0168829860999992016082616004-09401-038251FM-15+026999999V0201601N005110213419N009999199+02301+02101999999ADDGA1021+005491081GA2071+021341999GE19MSL   +99999+99999GF199999021999005491999999MA1101601999999REMMET061METAR SBUF 261600Z 16010KT 9999 FEW018TCU BKN070 23/21 Q1016=
0168829860999992016082617004-09401-038251FM-15+026999999V0201601N004110213419N009999199+02601+02101999999ADDGA1041+006101081GA2071+021341999GE19MSL   +99999+99999GF199999041999006101999999MA1101501999999REMMET061METAR SBUF 261700Z 16008KT 9999 SCT020TCU BKN070 26/21 Q1015=
0168829860999992016082618004-09401-038251FM-15+026999999V0201901N004610054919N009999199+02701+02001999999ADDGA1071+005491999GA2041+006101081GE19MSL   +99999+99999GF199999071999005491999999MA1101501999999REMMET061METAR SBUF 261800Z 19009KT 9999 BKN018 SCT020TCU 27/20 Q1015=
0168829860999992016082619004-09401-038251FM-15+026999999V0201401N00361006101CN009999199+02601+02101999999ADDGA1041+005181999GA2041+006101081GE19MSL   +99999+99999GF199999041999005181999999MA1101501999999REMMET061METAR SBUF 261900Z 14007KT 9999 SCT017 SCT020TCU 26/21 Q1015=
0191829860999992016082619454-09401-038251FM-16+026999999V0201201N004119999999N009999199+02601+01901999999ADDGA1041+005181999GA2021+006101081GA3041+024381999GE19MSL   +99999+99999GF199999041999005181999999MA1101501999999REMMET068SPECI SBUF 261945Z 12008KT 9999 SCT017 FEW020TCU SCT080 26/19 Q1015=
0165829860999992016082711154-09401-038251FM-16+026999999V0201301N004110213419N009999199+02301+02001999999ADDGA1041+004571999GA2071+021341999GE19MSL   +99999+99999GF199999041999004571999999MA1101901999999REMMET058SPECI SBUF 271115Z 13008KT 9999 SCT015 BKN070 23/20 Q1019=
0188829860999992016082712004-09401-038251FM-15+026999999V0201401N00511004571CN009999199+02401+02001999999ADDGA1021+003961999GA2041+004571999GA3071+021341999GE19MSL   +99999+99999GF199999021999003961999999MA1101901999999REMMET065METAR SBUF 271200Z 14010KT 9999 FEW013 SCT015 BKN070 24/20 Q1019=
0165829860999992016082713004-09401-038251FM-15+026999999V0201101N004610213419N009999199+02501+02101999999ADDGA1041+004571999GA2071+021341999GE19MSL   +99999+99999GF199999041999004571999999MA1101901999999REMMET058METAR SBUF 271300Z 11009KT 9999 SCT015 BKN070 25/21 Q1019=
0142829860999992016082714004-09401-038251FM-15+026999999V0201401N005719999999N009999199+02901+02001999999ADDGA1041+005491999GE19MSL   +99999+99999GF199999041999005491999999MA1101801999999REMMET051METAR SBUF 271400Z 14011KT 9999 SCT018 29/20 Q1018=
0179829860999992016082715004-09401-038251FM-15+026999999V0201301N00671006101CN009999199+02601+02201999999ADDGA1041+005181999GA2041+006101081GE19MSL   +99999+99999GF199999041999005181999999MA1101701999999OC101241REMMET064METAR SBUF 271500Z 13013G24KT 9999 SCT017 SCT020TCU 26/22 Q1017=
0165829860999992016082716004-09401-038251FM-15+026999999V0201401N00721024381CN009999199+03001+01901999999ADDGA1041+005491999GA2041+024381999GE19MSL   +99999+99999GF199999041999005491999999MA1101601999999REMMET058METAR SBUF 271600Z 14014KT 9999 SCT018 SCT080 30/19 Q1016=
0165829860999992016082717004-09401-038251FM-15+026999999V0201401N00671024381CN009999199+03001+01801999999ADDGA1041+005491999GA2041+024381999GE19MSL   +99999+99999GF199999041999005491999999MA1101501999999REMMET058METAR SBUF 271700Z 14013KT 9999 SCT018 SCT080 30/18 Q1015=
0191829860999992016082718004-09401-038251FM-15+026999999V0201201N00981006101CN009999199+02801+01901999999ADDGA1021+006101081GA2041+006101999GA3041+024381999GE19MSL   +99999+99999GF199999021999006101999999MA1101501999999REMMET068METAR SBUF 271800Z 12019KT 9999 FEW020TCU SCT020 SCT080 28/19 Q1015=
0191829860999992016082719004-09401-038251FM-15+026999999V0200801N006719999999N009999199+02701+01901999999ADDGA1041+005491999GA2021+006101081GA3041+024381999GE19MSL   +99999+99999GF199999041999005491999999MA1101501999999REMMET068METAR SBUF 271900Z 08013KT 9999 SCT018 FEW020TCU SCT080 27/19 Q1015=
0202829860999992016082719454-09401-038251FM-16+026999999V0201301N007710051819N009999199+02501+01901999999ADDGA1071+005181999GA2021+006101081GA3041+024381999GE19MSL   +99999+99999GF199999071999005181999999MA1101601999999OC101291REMMET071SPECI SBUF 271945Z 13015G25KT 9999 BKN017 FEW020TCU SCT080 25/19 Q1016=
0142829860999992016082811154-09401-038251FM-16+026999999V0201401N004119999999N009999199+02301+01801999999ADDGA1021+003961999GE19MSL   +99999+99999GF199999021999003961999999MA1102001999999REMMET051SPECI SBUF 281115Z 14008KT 9999 FEW013 23/18 Q1020=
0165829860999992016082812004-09401-038251FM-15+026999999V0201401N005710213419N009999199+02501+01701999999ADDGA1021+004881999GA2071+021341999GE19MSL   +99999+99999GF199999021999004881999999MA1102001999999REMMET058METAR SBUF 281200Z 14011KT 9999 FEW016 BKN070 25/17 Q1020=
0142829860999992016082813004-09401-038251FM-15+026999999V0201501N004119999999N009999199+02701+01601999999ADDGA1041+005491999GE19MSL   +99999+99999GF199999041999005491999999MA1102001999999REMMET051METAR SBUF 281300Z 15008KT 9999 SCT018 27/16 Q1020=
0142829860999992016082814004-09401-038251FM-15+026999999V0201501N004119999999N009999199+02801+01601999999ADDGA1041+005791999GE19MSL   +99999+99999GF199999041999005791999999MA1101901999999REMMET051METAR SBUF 281400Z 15008KT 9999 SCT019 28/16 Q1019=
0142829860999992016082815004-09401-038251FM-15+026999999V0201001N004110067119N009999199+02901+01501999999ADDGA1071+006711999GE19MSL   +99999+99999GF199999071999006711999999MA1101801999999REMMET051METAR SBUF 281500Z 10008KT 9999 BKN022 29/15 Q1018=
0165829860999992016082816004-09401-038251FM-15+026999999V0201001N004610067119N009999199+02901+01501999999ADDGA1071+006711999GA2071+024381999GE19MSL   +99999+99999GF199999071999006711999999MA1101801999999REMMET058METAR SBUF 281600Z 10009KT 9999 BKN022 BKN080 29/15 Q1018=
0165829860999992016082817004-09401-038251FM-15+026999999V0201201N006210243819N009999199+02801+01601999999ADDGA1041+006711999GA2071+024381999GE19MSL   +99999+99999GF199999041999006711999999MA1101701999999REMMET058METAR SBUF 281700Z 12012KT 9999 SCT022 BKN080 28/16 Q1017=
0142829860999992016082818004-09401-038251FM-15+026999999V0201301N005110067119N009999199+02801+01701999999ADDGA1071+006711999GE19MSL   +99999+99999GF199999071999006711999999MA1101601999999REMMET051METAR SBUF 281800Z 13010KT 9999 BKN022 28/17 Q1016=
0142829860999992016082819004-09401-038251FM-15+026999999V0201201N006210067119N009999199+02701+01701999999ADDGA1071+006711999GE19MSL   +99999+99999GF199999071999006711999999MA1101701999999REMMET051METAR SBUF 281900Z 12012KT 9999 BKN022 27/17 Q1017=
0142829860999992016082819454-09401-038251FM-16+026999999V0201301N007710067119N009999199+02301+02001999999ADDGA1071+006711999GE19MSL   +99999+99999GF199999071999006711999999MA1101701999999REMMET051SPECI SBUF 281945Z 13015KT 9999 BKN022 23/20 Q1017=
0142829860999992016082911154-09401-038251FM-16+026999999V0201001N003619999999N009999199+02401+01801999999ADDGA1041+004571999GE19MSL   +99999+99999GF199999041999004571999999MA1102001999999REMMET051SPECI SBUF 291115Z 10007KT 9999 SCT015 24/18 Q1020=
0142829860999992016082912004-09401-038251FM-15+026999999V0200901N004119999999N009999199+02601+01801999999ADDGA1041+005181999GE19MSL   +99999+99999GF199999041999005181999999MA1102001999999REMMET051METAR SBUF 291200Z 09008KT 9999 SCT017 26/18 Q1020=
0142829860999992016082913004-09401-038251FM-15+026999999V0201101N005110054919N009999199+02801+01601999999ADDGA1071+005491999GE19MSL   +99999+99999GF199999071999005491999999MA1102001999999REMMET051METAR SBUF 291300Z 11010KT 9999 BKN018 28/16 Q1020=
0142829860999992016082914004-09401-038251FM-15+026999999V0201401N005119999999N009999199+02901+01601999999ADDGA1041+005791999GE19MSL   +99999+99999GF199999041999005791999999MA1101901999999REMMET051METAR SBUF 291400Z 14010KT 9999 SCT019 29/16 Q1019=
0142829860999992016082915004-09401-038251FM-15+026999999V0201501N004619999999N009999199+02901+01501999999ADDGA1041+006401999GE19MSL   +99999+99999GF199999041999006401999999MA1101801999999REMMET051METAR SBUF 291500Z 15009KT 9999 SCT021 29/15 Q1018=
0142829860999992016082916004-09401-038251FM-15+026999999V0201201N005119999999N009999199+03201+01401999999ADDGA1041+006711999GE19MSL   +99999+99999GF199999041999006711999999MA1101701999999REMMET051METAR SBUF 291600Z 12010KT 9999 SCT022 32/14 Q1017=
0142829860999992016082917004-09401-038251FM-15+026999999V0201301N005119999999N009999199+03101+01401999999ADDGA1021+006711999GE19MSL   +99999+99999GF199999021999006711999999MA1101601999999REMMET051METAR SBUF 291700Z 13010KT 9999 FEW022 31/14 Q1016=
0142829860999992016082918004-09401-038251FM-15+026999999V0201201N004619999999N009999199+03201+01401999999ADDGA1021+006711999GE19MSL   +99999+99999GF199999021999006711999999MA1101501999999REMMET051METAR SBUF 291800Z 12009KT 9999 FEW022 32/14 Q1015=
0142829860999992016082919004-09401-038251FM-15+026999999V0201201N006719999999N009999199+03101+01301999999ADDGA1021+006711999GE19MSL   +99999+99999GF199999021999006711999999MA1101501999999REMMET051METAR SBUF 291900Z 12013KT 9999 FEW022 31/13 Q1015=
0142829860999992016082919454-09401-038251FM-16+026999999V0201201N005119999999N009999199+03001+01401999999ADDGA1021+006711999GE19MSL   +99999+99999GF199999021999006711999999MA1101601999999REMMET051SPECI SBUF 291945Z 12010KT 9999 FEW022 30/14 Q1016=
0142829860999992016083011154-09401-038251FM-16+026999999V0201201N005110051819N009999199+02501+02001999999ADDGA1071+005181999GE19MSL   +99999+99999GF199999071999005181999999MA1102001999999REMMET051SPECI SBUF 301115Z 12010KT 9999 BKN017 25/20 Q1020=
0142829860999992016083012004-09401-038251FM-15+026999999V0201101N005719999999N009999199+02701+01901999999ADDGA1041+005491999GE19MSL   +99999+99999GF199999041999005491999999MA1102001999999REMMET051METAR SBUF 301200Z 11011KT 9999 SCT018 27/19 Q1020=
0142829860999992016083014004-09401-038251FM-15+026999999V0201401N005719999999N009999199+03001+01601999999ADDGA1021+006101999GE19MSL   +99999+99999GF199999021999006101999999MA1101901999999REMMET051METAR SBUF 301400Z 14011KT 9999 FEW020 30/16 Q1019=
0142829860999992016083015004-09401-038251FM-15+026999999V0201401N005719999999N009999199+03201+01601999999ADDGA1021+006711999GE19MSL   +99999+99999GF199999021999006711999999MA1101801999999REMMET051METAR SBUF 301500Z 14011KT 9999 FEW022 32/16 Q1018=
0142829860999992016083016004-09401-038251FM-15+026999999V0201301N006719999999N009999199+03201+01501999999ADDGA1021+006711999GE19MSL   +99999+99999GF199999021999006711999999MA1101701999999REMMET051METAR SBUF 301600Z 13013KT 9999 FEW022 32/15 Q1017=
0142829860999992016083017004-09401-038251FM-15+026999999V0201301N005719999999N009999199+03301+01401999999ADDGA1021+006711999GE19MSL   +99999+99999GF199999021999006711999999MA1101501999999REMMET051METAR SBUF 301700Z 13011KT 9999 FEW022 33/14 Q1015=
0142829860999992016083018004-09401-038251FM-15+026999999V0201201N006719999999N009999199+03301+01401999999ADDGA1021+006711999GE19MSL   +99999+99999GF199999021999006711999999MA1101501999999REMMET051METAR SBUF 301800Z 12013KT 9999 FEW022 33/14 Q1015=
0165829860999992016083019004-09401-038251FM-15+026999999V0201001N00621024381CN009999199+03101+01501999999ADDGA1041+006711999GA2041+024381999GE19MSL   +99999+99999GF199999041999006711999999MA1101501999999REMMET058METAR SBUF 301900Z 10012KT 9999 SCT022 SCT080 31/15 Q1015=
0142829860999992016083020004-09401-038251FM-15+026999999V0201201N006210070119N009999199+03001+01601999999ADDGA1071+007011999GE19MSL   +99999+99999GF199999071999007011999999MA1101501999999REMMET051METAR SBUF 302000Z 12012KT 9999 BKN023 30/16 Q1015=
0165829860999992016083021004-09401-038251FM-15+026999999V0201101N007210213419N009999199+02801+01901999999ADDGA1041+006101999GA2071+021341999GE19MSL   +99999+99999GF199999041999006101999999MA1101601999999REMMET058METAR SBUF 302100Z 11014KT 9999 SCT020 BKN070 28/19 Q1016=
0165829860999992016083022004-09401-038251FM-15+026999999V0201201N008210213419N009999199+02701+02001999999ADDGA1041+005491999GA2071+021341999GE19MSL   +99999+99999GF199999041999005491999999MA1101701999999REMMET058METAR SBUF 302200Z 12016KT 9999 SCT018 BKN070 27/20 Q1017=
0165829860999992016083023004-09401-038251FM-15+026999999V0201201N00511021341CN009999199+02601+02001999999ADDGA1021+005491999GA2041+021341999GE19MSL   +99999+99999GF199999021999005491999999MA1101801999999REMMET058METAR SBUF 302300Z 12010KT 9999 FEW018 SCT070 26/20 Q1018=
0165829860999992016083023154-09401-038251FM-16+026999999V0201301N00621021341CN009999199+02501+02001999999ADDGA1021+005491999GA2041+021341999GE19MSL   +99999+99999GF199999021999005491999999MA1101801999999REMMET058SPECI SBUF 302315Z 13012KT 9999 FEW018 SCT070 25/20 Q1018=
0165829860999992016083111154-09401-038251FM-16+026999999V0201401N004110036619N009999199+02301+02201999999ADDGA1071+003661999GA2071+021341999GE19MSL   +99999+99999GF199999071999003661999999MA1102001999999REMMET058SPECI SBUF 311115Z 14008KT 9999 BKN012 BKN070 23/22 Q1020=
0165829860999992016083112004-09401-038251FM-15+026999999V0201201N004110042719N009999199+02401+02201999999ADDGA1071+004271999GA2071+021341999GE19MSL   +99999+99999GF199999071999004271999999MA1102001999999REMMET058METAR SBUF 311200Z 12008KT 9999 BKN014 BKN070 24/22 Q1020=
0165829860999992016083113004-09401-038251FM-15+026999999V0201401N004110042719N009999199+02501+02201999999ADDGA1071+004271999GA2071+021341999GE19MSL   +99999+99999GF199999071999004271999999MA1102001999999REMMET058METAR SBUF 311300Z 14008KT 9999 BKN014 BKN070 25/22 Q1020=
0165829860999992016083114004-09401-038251FM-15+026999999V0201501N00411021341CN009999199+02701+02101999999ADDGA1041+004881999GA2041+021341999GE19MSL   +99999+99999GF199999041999004881999999MA1101901999999REMMET058METAR SBUF 311400Z 15008KT 9999 SCT016 SCT070 27/21 Q1019=
0165829860999992016083115004-09401-038251FM-15+026999999V0201301N005710051819N009999199+02801+02101999999ADDGA1071+005181999GA2071+021341999GE19MSL   +99999+99999GF199999071999005181999999MA1101801999999REMMET058METAR SBUF 311500Z 13011KT 9999 BKN017 BKN070 28/21 Q1018=
0176829860999992016083116004-09401-038251FM-15+026999999V0200901N005710054919N009999199+02701+02101999999ADDGA1071+005491999GA2081+021341999GE19MSL   +99999+99999GF199999071999005491999999MA1101801999999MW1161REMMET063METAR SBUF 311600Z 09011KT 9999 VCSH BKN018 OVC070 27/21 Q1018=
0165829860999992016083117004-09401-038251FM-15+026999999V0201001N003610213419N009999199+02701+02101999999ADDGA1041+005791999GA2071+021341999GE19MSL   +99999+99999GF199999041999005791999999MA1101701999999REMMET058METAR SBUF 311700Z 10007KT 9999 SCT019 BKN070 27/21 Q1017=
0165829860999992016083118004-09401-038251FM-15+026999999V0201101N006210213419N009999199+02701+02001999999ADDGA1041+005791999GA2071+021341999GE19MSL   +99999+99999GF199999041999005791999999MA1101701999999REMMET058METAR SBUF 311800Z 11012KT 9999 SCT019 BKN070 27/20 Q1017=
0165829860999992016083119004-09401-038251FM-15+026999999V0201301N005710213419N009999199+02701+01901999999ADDGA1041+005791999GA2071+021341999GE19MSL   +99999+99999GF199999041999005791999999MA1101701999999REMMET058METAR SBUF 311900Z 13011KT 9999 SCT019 BKN070 27/19 Q1017=
0165829860999992016083119454-09401-038251FM-16+026999999V0201201N006710213419N009999199+02701+01901999999ADDGA1041+005791999GA2071+021341999GE19MSL   +99999+99999GF199999041999005791999999MA1101701999999REMMET058SPECI SBUF 311945Z 12013KT 9999 SCT019 BKN070 27/19 Q1017=
0165829860999992016090111154-09401-038251FM-16+026999999V0201201N004610039619N009999199+02401+02001999999ADDGA1071+003961999GA2071+021341999GE19MSL   +99999+99999GF199999071999003961999999MA1102001999999REMMET058SPECI SBUF 011115Z 12009KT 9999 BKN013 BKN070 24/20 Q1020=
0165829860999992016090112004-09401-038251FM-15+026999999V0200901N004110213419N009999199+02501+02001999999ADDGA1041+004271999GA2071+021341999GE19MSL   +99999+99999GF199999041999004271999999MA1102101999999REMMET058METAR SBUF 011200Z 09008KT 9999 SCT014 BKN070 25/20 Q1021=
0165829860999992016090113004-09401-038251FM-15+026999999V0201201N00621024381CN009999199+02901+01701999999ADDGA1041+005181999GA2041+024381999GE19MSL   +99999+99999GF199999041999005181999999MA1102001999999REMMET058METAR SBUF 011300Z 12012KT 9999 SCT017 SCT080 29/17 Q1020=
0142829860999992016090114004-09401-038251FM-15+026999999V0201401N005110057919N009999199+02901+01601999999ADDGA1071+005791999GE19MSL   +99999+99999GF199999071999005791999999MA1101901999999REMMET051METAR SBUF 011400Z 14010KT 9999 BKN019 29/16 Q1019=
0142829860999992016090115004-09401-038251FM-15+026999999V0200901N005719999999N009999199+03201+01501999999ADDGA1041+006101999GE19MSL   +99999+99999GF199999041999006101999999MA1101801999999REMMET051METAR SBUF 011500Z 09011KT 9999 SCT020 32/15 Q1018=
0142829860999992016090116004-09401-038251FM-15+026999999V0201301N005719999999N009999199+03001+01501999999ADDGA1041+006101999GE19MSL   +99999+99999GF199999041999006101999999MA1101701999999REMMET051METAR SBUF 011600Z 13011KT 9999 SCT020 30/15 Q1017=
0142829860999992016090117004-09401-038251FM-15+026999999V0201101N005119999999N009999199+03301+01501999999ADDGA1041+006401999GE19MSL   +99999+99999GF199999041999006401999999MA1101601999999REMMET051METAR SBUF 011700Z 11010KT 9999 SCT021 33/15 Q1016=
0142829860999992016090118004-09401-038251FM-15+026999999V0201301N006219999999N009999199+03101+01501999999ADDGA1021+006401999GE19MSL   +99999+99999GF199999021999006401999999MA1101601999999REMMET051METAR SBUF 011800Z 13012KT 9999 FEW021 31/15 Q1016=
0142829860999992016090119004-09401-038251FM-15+026999999V0201301N006219999999N009999199+03101+01501999999ADDGA1021+006711999GE19MSL   +99999+99999GF199999021999006711999999MA1101501999999REMMET051METAR SBUF 011900Z 13012KT 9999 FEW022 31/15 Q1015=
0142829860999992016090119454-09401-038251FM-16+026999999V0201301N005119999999N009999199+03101+01501999999ADDGA1021+006101999GE19MSL   +99999+99999GF199999021999006101999999MA1101501999999REMMET051SPECI SBUF 011945Z 13010KT 9999 FEW020 31/15 Q1015=
0142829860999992016090211154-09401-038251FM-16+026999999V0201101N005710051819N009999199+02501+01901999999ADDGA1071+005181999GE19MSL   +99999+99999GF199999071999005181999999MA1102001999999REMMET051SPECI SBUF 021115Z 11011KT 9999 BKN017 25/19 Q1020=
0142829860999992016090212004-09401-038251FM-15+026999999V0201001N007719999999N009999199+02801+01801999999ADDGA1041+005491999GE19MSL   +99999+99999GF199999041999005491999999MA1102001999999REMMET051METAR SBUF 021200Z 10015KT 9999 SCT018 28/18 Q1020=
0142829860999992016090213004-09401-038251FM-15+026999999V0200901N006710061019N009999199+03001+01601999999ADDGA1071+006101999GE19MSL   +99999+99999GF199999071999006101999999MA1102001999999REMMET051METAR SBUF 021300Z 09013KT 9999 BKN020 30/16 Q1020=
0142829860999992016090214004-09401-038251FM-15+026999999V0200901N007219999999N009999199+02801+01701999999ADDGA1041+006101999GE19MSL   +99999+99999GF199999041999006101999999MA1102001999999REMMET051METAR SBUF 021400Z 09014KT 9999 SCT020 28/17 Q1020=
0165829860999992016090215004-09401-038251FM-15+026999999V0200901N006710243819N009999199+02801+01601999999ADDGA1041+005791999GA2071+024381999GE19MSL   +99999+99999GF199999041999005791999999MA1101901999999REMMET058METAR SBUF 021500Z 09013KT 9999 SCT019 BKN080 28/16 Q1019=
0142829860999992016090217004-09401-038251FM-15+026999999V0201001N006719999999N009999199+03101+01701999999ADDGA1041+006101999GE19MSL   +99999+99999GF199999041999006101999999MA1101701999999REMMET051METAR SBUF 021700Z 10013KT 9999 SCT020 31/17 Q1017=
0142829860999992016090218004-09401-038251FM-15+026999999V0201001N007219999999N009999199+03101+01501999999ADDGA1041+006101999GE19MSL   +99999+99999GF199999041999006101999999MA1101801999999REMMET051METAR SBUF 021800Z 10014KT 9999 SCT020 31/15 Q1018=
0142829860999992016090219004-09401-038251FM-15+026999999V0201101N006219999999N009999199+03101+01601999999ADDGA1041+006101999GE19MSL   +99999+99999GF199999041999006101999999MA1101601999999REMMET051METAR SBUF 021900Z 11012KT 9999 SCT020 31/16 Q1016=
0142829860999992016090220004-09401-038251FM-15+026999999V0201301N007219999999N009999199+02901+01701999999ADDGA1041+006101999GE19MSL   +99999+99999GF199999041999006101999999MA1101601999999REMMET051METAR SBUF 022000Z 13014KT 9999 SCT020 29/17 Q1016=
0142829860999992016090221004-09401-038251FM-15+026999999V0201301N007219999999N009999199+02801+01701999999ADDGA1041+005491999GE19MSL   +99999+99999GF199999041999005491999999MA1101601999999REMMET051METAR SBUF 022100Z 13014KT 9999 SCT018 28/17 Q1016=
0142829860999992016090221154-09401-038251FM-16+026999999V0201301N007219999999N009999199+02801+01701999999ADDGA1041+005491999GE19MSL   +99999+99999GF199999041999005491999999MA1101601999999REMMET051SPECI SBUF 022115Z 13014KT 9999 SCT018 28/17 Q1016=
0142829860999992016090311154-09401-038251FM-16+026999999V0200901N003110051819N009999199+02501+01901999999ADDGA1071+005181999GE19MSL   +99999+99999GF199999071999005181999999MA1102001999999REMMET051SPECI SBUF 031115Z 09006KT 9999 BKN017 25/19 Q1020=
0142829860999992016090312004-09401-038251FM-15+026999999V0201201N004610054919N009999199+02601+01901999999ADDGA1071+005491999GE19MSL   +99999+99999GF199999071999005491999999MA1102001999999REMMET051METAR SBUF 031200Z 12009KT 9999 BKN018 26/19 Q1020=
0142829860999992016090313004-09401-038251FM-15+026999999V0200901N006219999999N009999199+02901+01701999999ADDGA1041+006101999GE19MSL   +99999+99999GF199999041999006101999999MA1102001999999REMMET051METAR SBUF 031300Z 09012KT 9999 SCT020 29/17 Q1020=
0165829860999992016090314004-09401-038251FM-15+026999999V0201101N00721021341CN009999199+03001+01501999999ADDGA1041+006101999GA2041+021341999GE19MSL   +99999+99999GF199999041999006101999999MA1101901999999REMMET058METAR SBUF 031400Z 11014KT 9999 SCT020 SCT070 30/15 Q1019=
0142829860999992016090315004-09401-038251FM-15+026999999V0201001N004119999999N009999199+03101+01601999999ADDGA1041+006101999GE19MSL   +99999+99999GF199999041999006101999999MA1101801999999REMMET051METAR SBUF 031500Z 10008KT 9999 SCT020 31/16 Q1018=
0165829860999992016090317004-09401-038251FM-15+026999999V0201201N006210243819N009999199+03001+01701999999ADDGA1041+006101999GA2071+024381999GE19MSL   +99999+99999GF199999041999006101999999MA1101601999999REMMET058METAR SBUF 031700Z 12012KT 9999 SCT020 BKN080 30/17 Q1016=
0165829860999992016090318004-09401-038251FM-15+026999999V0201201N006710213419N009999199+02901+01801999999ADDGA1041+006711999GA2071+021341999GE19MSL   +99999+99999GF199999041999006711999999MA1101601999999REMMET058METAR SBUF 031800Z 12013KT 9999 SCT022 BKN070 29/18 Q1016=
0165829860999992016090319004-09401-038251FM-15+026999999V0201401N006710213419N009999199+02601+01901999999ADDGA1041+005491999GA2071+021341999GE19MSL   +99999+99999GF199999041999005491999999MA1101601999999REMMET058METAR SBUF 031900Z 14013KT 9999 SCT018 BKN070 26/19 Q1016=
0175829860999992016090319454-09401-038251FM-16+026999999V0201201N008210213419N006000199+02201+02101999999ADDGA1041+004881999GA2071+021341999GE19MSL   +99999+99999GF199999041999004881999999MA1101701999999MW1611REMMET062SPECI SBUF 031945Z 12016KT 6000 -RA SCT016 BKN070 22/21 Q1017=
0142829860999992016090411154-09401-038251FM-16+026999999V0201001N005110054919N009999199+02701+01801999999ADDGA1071+005491999GE19MSL   +99999+99999GF199999071999005491999999MA1102001999999REMMET051SPECI SBUF 041115Z 10010KT 9999 BKN018 27/18 Q1020=
0142829860999992016090412004-09401-038251FM-15+026999999V0201301N005719999999N009999199+02701+01801999999ADDGA1041+005491999GE19MSL   +99999+99999GF199999041999005491999999MA1102001999999REMMET051METAR SBUF 041200Z 13011KT 9999 SCT018 27/18 Q1020=
0142829860999992016090413004-09401-038251FM-15+026999999V0200901N005719999999N009999199+02801+01701999999ADDGA1041+005791999GE19MSL   +99999+99999GF199999041999005791999999MA1102001999999REMMET051METAR SBUF 041300Z 09011KT 9999 SCT019 28/17 Q1020=
0142829860999992016090414004-09401-038251FM-15+026999999V0201101N005710061019N009999199+03001+01501999999ADDGA1071+006101999GE19MSL   +99999+99999GF199999071999006101999999MA1101901999999REMMET051METAR SBUF 041400Z 11011KT 9999 BKN020 30/15 Q1019=
0142829860999992016090415004-09401-038251FM-15+026999999V0201201N005710061019N009999199+03101+01501999999ADDGA1071+006101999GE19MSL   +99999+99999GF199999071999006101999999MA1101801999999REMMET051METAR SBUF 041500Z 12011KT 9999 BKN020 31/15 Q1018=
0142829860999992016090417004-09401-038251FM-15+026999999V0201501N006219999999N009999199+03101+01401999999ADDGA1041+006401999GE19MSL   +99999+99999GF199999041999006401999999MA1101601999999REMMET051METAR SBUF 041700Z 15012KT 9999 SCT021 31/14 Q1016=
0142829860999992016090418004-09401-038251FM-15+026999999V0201501N006719999999N009999199+03101+01501999999ADDGA1041+006401999GE19MSL   +99999+99999GF199999041999006401999999MA1101601999999REMMET051METAR SBUF 041800Z 15013KT 9999 SCT021 31/15 Q1016=
0142829860999992016090419004-09401-038251FM-15+026999999V0201301N006219999999N009999199+03101+01601999999ADDGA1041+006401999GE19MSL   +99999+99999GF199999041999006401999999MA1101601999999REMMET051METAR SBUF 041900Z 13012KT 9999 SCT021 31/16 Q1016=
0142829860999992016090419454-09401-038251FM-16+026999999V0201201N007219999999N009999199+03001+01701999999ADDGA1041+006401999GE19MSL   +99999+99999GF199999041999006401999999MA1101601999999REMMET051SPECI SBUF 041945Z 12014KT 9999 SCT021 30/17 Q1016=
0142829860999992016090511154-09401-038251FM-16+026999999V0200901N005110048819N009999199+02501+01901999999ADDGA1071+004881999GE19MSL   +99999+99999GF199999071999004881999999MA1102101999999REMMET051SPECI SBUF 051115Z 09010KT 9999 BKN016 25/19 Q1021=
0142829860999992016090512004-09401-038251FM-15+026999999V0201001N005710048819N009999199+02701+01801999999ADDGA1071+004881999GE19MSL   +99999+99999GF199999071999004881999999MA1102101999999REMMET051METAR SBUF 051200Z 10011KT 9999 BKN016 27/18 Q1021=
0142829860999992016090513004-09401-038251FM-15+026999999V0201001N006210054919N009999199+02901+01701999999ADDGA1071+005491999GE19MSL   +99999+99999GF199999071999005491999999MA1102101999999REMMET051METAR SBUF 051300Z 10012KT 9999 BKN018 29/17 Q1021=
0142829860999992016090514004-09401-038251FM-15+026999999V0201101N007710061019N009999199+03001+01601999999ADDGA1071+006101999GE19MSL   +99999+99999GF199999071999006101999999MA1102001999999REMMET051METAR SBUF 051400Z 11015KT 9999 BKN020 30/16 Q1020=
0142829860999992016090515004-09401-038251FM-15+026999999V0201201N006210061019N009999199+03101+01601999999ADDGA1071+006101999GE19MSL   +99999+99999GF199999071999006101999999MA1101801999999REMMET051METAR SBUF 051500Z 12012KT 9999 BKN020 31/16 Q1018=
0142829860999992016090516004-09401-038251FM-15+026999999V0201101N004619999999N009999199+03201+01601999999ADDGA1041+006101999GE19MSL   +99999+99999GF199999041999006101999999MA1101701999999REMMET051METAR SBUF 051600Z 11009KT 9999 SCT020 32/16 Q1017=
0142829860999992016090517004-09401-038251FM-15+026999999V0201101N006219999999N009999199+03301+01501999999ADDGA1041+006101999GE19MSL   +99999+99999GF199999041999006101999999MA1101601999999REMMET051METAR SBUF 051700Z 11012KT 9999 SCT020 33/15 Q1016=
0142829860999992016090519004-09401-038251FM-15+026999999V0201401N006219999999N009999199+03001+01501999999ADDGA1041+006101999GE19MSL   +99999+99999GF199999041999006101999999MA1101601999999REMMET051METAR SBUF 051900Z 14012KT 9999 SCT020 30/15 Q1016=
0142829860999992016090519454-09401-038251FM-16+026999999V0201201N007219999999N009999199+03001+01501999999ADDGA1021+006101999GE19MSL   +99999+99999GF199999021999006101999999MA1101601999999REMMET051SPECI SBUF 051945Z 12014KT 9999 FEW020 30/15 Q1016=
0142829860999992016090612004-09401-038251FM-15+026999999V0201301N006219999999N009999199+02701+01801999999ADDGA1041+005491999GE19MSL   +99999+99999GF199999041999005491999999MA1102101999999REMMET051METAR SBUF 061200Z 13012KT 9999 SCT018 27/18 Q1021=
0142829860999992016090613004-09401-038251FM-15+026999999V0201501N005710057919N009999199+02801+01801999999ADDGA1071+005791999GE19MSL   +99999+99999GF199999071999005791999999MA1102101999999REMMET051METAR SBUF 061300Z 15011KT 9999 BKN019 28/18 Q1021=
0142829860999992016090614004-09401-038251FM-15+026999999V0201501N005719999999N009999199+02901+01601999999ADDGA1041+006101999GE19MSL   +99999+99999GF199999041999006101999999MA1102001999999REMMET051METAR SBUF 061400Z 15011KT 9999 SCT020 29/16 Q1020=
0142829860999992016090616004-09401-038251FM-15+026999999V0201401N006219999999N009999199+03101+01501999999ADDGA1041+006101999GE19MSL   +99999+99999GF199999041999006101999999MA1101801999999REMMET051METAR SBUF 061600Z 14012KT 9999 SCT020 31/15 Q1018=
0142829860999992016090617004-09401-038251FM-15+026999999V0201301N006219999999N009999199+03201+01501999999ADDGA1041+006101999GE19MSL   +99999+99999GF199999041999006101999999MA1101701999999REMMET051METAR SBUF 061700Z 13012KT 9999 SCT020 32/15 Q1017=
0142829860999992016090618004-09401-038251FM-15+026999999V0201201N006719999999N009999199+03101+01401999999ADDGA1041+006101999GE19MSL   +99999+99999GF199999041999006101999999MA1101601999999REMMET051METAR SBUF 061800Z 12013KT 9999 SCT020 31/14 Q1016=
0142829860999992016090619004-09401-038251FM-15+026999999V0201201N006719999999N009999199+03101+01501999999ADDGA1041+006101999GE19MSL   +99999+99999GF199999041999006101999999MA1101601999999REMMET051METAR SBUF 061900Z 12013KT 9999 SCT020 31/15 Q1016=
0142829860999992016090619454-09401-038251FM-16+026999999V0201201N006219999999N009999199+03001+01601999999ADDGA1021+006101999GE19MSL   +99999+99999GF199999021999006101999999MA1101701999999REMMET051SPECI SBUF 061945Z 12012KT 9999 FEW020 30/16 Q1017=
0142829860999992016090711154-09401-038251FM-16+026999999V0201001N003610054919N009999199+02401+02101999999ADDGA1071+005491999GE19MSL   +99999+99999GF199999071999005491999999MA1102101999999REMMET051SPECI SBUF 071115Z 10007KT 9999 BKN018 24/21 Q1021=
0142829860999992016090712004-09401-038251FM-15+026999999V0201001N005110054919N009999199+02601+01901999999ADDGA1071+005491999GE19MSL   +99999+99999GF199999071999005491999999MA1102101999999REMMET051METAR SBUF 071200Z 10010KT 9999 BKN018 26/19 Q1021=
0165829860999992016090713004-09401-038251FM-15+026999999V0201201N004610213419N009999199+02601+01901999999ADDGA1041+005181999GA2071+021341999GE19MSL   +99999+99999GF199999041999005181999999MA1102101999999REMMET058METAR SBUF 071300Z 12009KT 9999 SCT017 BKN070 26/19 Q1021=
0165829860999992016090714004-09401-038251FM-15+026999999V0201101N004610213419N009999199+02801+01801999999ADDGA1041+005491999GA2071+021341999GE19MSL   +99999+99999GF199999041999005491999999MA1102001999999REMMET058METAR SBUF 071400Z 11009KT 9999 SCT018 BKN070 28/18 Q1020=
0142829860999992016090715004-09401-038251FM-15+026999999V0201101N004610061019N009999199+03001+01701999999ADDGA1071+006101999GE19MSL   +99999+99999GF199999071999006101999999MA1101901999999REMMET051METAR SBUF 071500Z 11009KT 9999 BKN020 30/17 Q1019=
0142829860999992016090716004-09401-038251FM-15+026999999V0201001N005719999999N009999199+03201+01701999999ADDGA1041+006401999GE19MSL   +99999+99999GF199999041999006401999999MA1101701999999REMMET051METAR SBUF 071600Z 10011KT 9999 SCT021 32/17 Q1017=
0142829860999992016090717004-09401-038251FM-15+026999999V0201001N006219999999N009999199+03201+01601999999ADDGA1041+006401999GE19MSL   +99999+99999GF199999041999006401999999MA1101601999999REMMET051METAR SBUF 071700Z 10012KT 9999 SCT021 32/16 Q1016=
0142829860999992016090718004-09401-038251FM-15+026999999V0201101N007219999999N009999199+03201+01601999999ADDGA1041+006401999GE19MSL   +99999+99999GF199999041999006401999999MA1101501999999REMMET051METAR SBUF 071800Z 11014KT 9999 SCT021 32/16 Q1015=
0142829860999992016090719004-09401-038251FM-15+026999999V0201201N007219999999N009999199+03101+01701999999ADDGA1041+006101999GE19MSL   +99999+99999GF199999041999006101999999MA1101501999999REMMET051METAR SBUF 071900Z 12014KT 9999 SCT020 31/17 Q1015=
0142829860999992016090719454-09401-038251FM-16+026999999V0201001N005719999999N009999199+03001+01701999999ADDGA1041+006101999GE19MSL   +99999+99999GF199999041999006101999999MA1101501999999REMMET051SPECI SBUF 071945Z 10011KT 9999 SCT020 30/17 Q1015=
0142829860999992016090811154-09401-038251FM-16+026999999V0201201N005110054919N009999199+02401+01901999999ADDGA1071+005491999GE19MSL   +99999+99999GF199999071999005491999999MA1101901999999REMMET051SPECI SBUF 081115Z 12010KT 9999 BKN018 24/19 Q1019=
0142829860999992016090812004-09401-038251FM-15+026999999V0201101N006710057919N009999199+02601+01801999999ADDGA1071+005791999GE19MSL   +99999+99999GF199999071999005791999999MA1102001999999REMMET051METAR SBUF 081200Z 11013KT 9999 BKN019 26/18 Q1020=
0142829860999992016090813004-09401-038251FM-15+026999999V0201101N005119999999N009999199+02801+01601999999ADDGA1041+005791999GE19MSL   +99999+99999GF199999041999005791999999MA1101901999999REMMET051METAR SBUF 081300Z 11010KT 9999 SCT019 28/16 Q1019=
0142829860999992016090814004-09401-038251FM-15+026999999V0201101N005719999999N009999199+03001+01601999999ADDGA1041+006101999GE19MSL   +99999+99999GF199999041999006101999999MA1101801999999REMMET051METAR SBUF 081400Z 11011KT 9999 SCT020 30/16 Q1018=
0142829860999992016090815004-09401-038251FM-15+026999999V0201201N004619999999N009999199+03101+01601999999ADDGA1041+006101999GE19MSL   +99999+99999GF199999041999006101999999MA1101701999999REMMET051METAR SBUF 081500Z 12009KT 9999 SCT020 31/16 Q1017=
0142829860999992016090816004-09401-038251FM-15+026999999V0201201N005719999999N009999199+03201+01501999999ADDGA1041+006101999GE19MSL   +99999+99999GF199999041999006101999999MA1101501999999REMMET051METAR SBUF 081600Z 12011KT 9999 SCT020 32/15 Q1015=
0142829860999992016090818004-09401-038251FM-15+026999999V0201101N006219999999N009999199+03301+01401999999ADDGA1021+006101999GE19MSL   +99999+99999GF199999021999006101999999MA1101401999999REMMET051METAR SBUF 081800Z 11012KT 9999 FEW020 33/14 Q1014=
0142829860999992016090819004-09401-038251FM-15+026999999V0201101N006219999999N009999199+03201+01401999999ADDGA1021+006101999GE19MSL   +99999+99999GF199999021999006101999999MA1101401999999REMMET051METAR SBUF 081900Z 11012KT 9999 FEW020 32/14 Q1014=
0142829860999992016090819454-09401-038251FM-16+026999999V0201201N005719999999N009999199+03101+01401999999ADDGA1021+006101999GE19MSL   +99999+99999GF199999021999006101999999MA1101401999999REMMET051SPECI SBUF 081945Z 12011KT 9999 FEW020 31/14 Q1014=
0142829860999992016090911154-09401-038251FM-16+026999999V0201001N004110048819N009999199+02401+01801999999ADDGA1071+004881999GE19MSL   +99999+99999GF199999071999004881999999MA1102001999999REMMET051SPECI SBUF 091115Z 10008KT 9999 BKN016 24/18 Q1020=
0142829860999992016090912004-09401-038251FM-15+026999999V0201001N004619999999N009999199+02801+01701999999ADDGA1041+005181999GE19MSL   +99999+99999GF199999041999005181999999MA1102001999999REMMET051METAR SBUF 091200Z 10009KT 9999 SCT017 28/17 Q1020=
0142829860999992016090913004-09401-038251FM-15+026999999V0201101N005719999999N009999199+03001+01401999999ADDGA1041+005491999GE19MSL   +99999+99999GF199999041999005491999999MA1101901999999REMMET051METAR SBUF 091300Z 11011KT 9999 SCT018 30/14 Q1019=
0142829860999992016090914004-09401-038251FM-15+026999999V0201001N006210061019N009999199+03001+01501999999ADDGA1071+006101999GE19MSL   +99999+99999GF199999071999006101999999MA1101801999999REMMET051METAR SBUF 091400Z 10012KT 9999 BKN020 30/15 Q1018=
0142829860999992016090915004-09401-038251FM-15+026999999V0200901N006219999999N009999199+03201+01401999999ADDGA1041+006401999GE19MSL   +99999+99999GF199999041999006401999999MA1101701999999REMMET051METAR SBUF 091500Z 09012KT 9999 SCT021 32/14 Q1017=
0142829860999992016090916004-09401-038251FM-15+026999999V0201201N006219999999N009999199+03201+01401999999ADDGA1041+006401999GE19MSL   +99999+99999GF199999041999006401999999MA1101601999999REMMET051METAR SBUF 091600Z 12012KT 9999 SCT021 32/14 Q1016=
0142829860999992016090917004-09401-038251FM-15+026999999V0201001N006719999999N009999199+03201+01501999999ADDGA1041+006401999GE19MSL   +99999+99999GF199999041999006401999999MA1101601999999REMMET051METAR SBUF 091700Z 10013KT 9999 SCT021 32/15 Q1016=
0142829860999992016090918004-09401-038251FM-15+026999999V0201101N006719999999N009999199+03101+01501999999ADDGA1041+006401999GE19MSL   +99999+99999GF199999041999006401999999MA1101501999999REMMET051METAR SBUF 091800Z 11013KT 9999 SCT021 31/15 Q1015=
0142829860999992016090919004-09401-038251FM-15+026999999V0201301N006719999999N009999199+03201+01601999999ADDGA1041+006401999GE19MSL   +99999+99999GF199999041999006401999999MA1101601999999REMMET051METAR SBUF 091900Z 13013KT 9999 SCT021 32/16 Q1016=
0142829860999992016090920004-09401-038251FM-15+026999999V0201301N006219999999N009999199+02901+01701999999ADDGA1021+006101999GE19MSL   +99999+99999GF199999021999006101999999MA1101601999999REMMET051METAR SBUF 092000Z 13012KT 9999 FEW020 29/17 Q1016=
0142829860999992016090921004-09401-038251FM-15+026999999V0201601N006719999999N009999199+02701+01901999999ADDGA1021+005491999GE19MSL   +99999+99999GF199999021999005491999999MA1101701999999REMMET051METAR SBUF 092100Z 16013KT 9999 FEW018 27/19 Q1017=
0142829860999992016090922004-09401-038251FM-15+026999999V0201301N006719999999N009999199+02601+02001999999ADDGA1021+005491999GE19MSL   +99999+99999GF199999021999005491999999MA1101801999999REMMET051METAR SBUF 092200Z 13013KT 9999 FEW018 26/20 Q1018=
0142829860999992016090923004-09401-038251FM-15+026999999V0201301N007219999999N009999199+02501+01901999999ADDGA1041+005181999GE19MSL   +99999+99999GF199999041999005181999999MA1101901999999REMMET051METAR SBUF 092300Z 13014KT 9999 SCT017 25/19 Q1019=
0142829860999992016091000004-09401-038251FM-15+026999999V0201201N007210051819N009999199+02401+01801999999ADDGA1071+005181999GE19MSL   +99999+99999GF199999071999005181999999MA1102001999999REMMET051METAR SBUF 100000Z 12014KT 9999 BKN017 24/18 Q1020=
0142829860999992016091002004-09401-038251FM-15+026999999V0201301N007210045719N009999199+02301+01901999999ADDGA1071+004571999GE19MSL   +99999+99999GF199999071999004571999999MA1102001999999REMMET051METAR SBUF 100200Z 13014KT 9999 BKN015 23/19 Q1020=
0142829860999992016091002154-09401-038251FM-16+026999999V0201201N006719999999N009999199+02301+01901999999ADDGA1041+004571999GE19MSL   +99999+99999GF199999041999004571999999MA1102001999999REMMET051SPECI SBUF 100215Z 12013KT 9999 SCT015 23/19 Q1020=
0142829860999992016091011154-09401-038251FM-16+026999999V0201201N006219999999N009999199+02501+01801999999ADDGA1041+005181999GE19MSL   +99999+99999GF199999041999005181999999MA1102202999999REMMET051SPECI SBUF 101115Z 12012KT 9999 SCT017 25/18 Q1022=
0142829860999992016091012004-09401-038251FM-15+026999999V0201101N005110054919N009999199+02701+01801999999ADDGA1071+005491999GE19MSL   +99999+99999GF199999071999005491999999MA1102202999999REMMET051METAR SBUF 101200Z 11010KT 9999 BKN018 27/18 Q1022=
0142829860999992016091013004-09401-038251FM-15+026999999V0201301N005719999999N009999199+02801+01801999999ADDGA1041+005491999GE19MSL   +99999+99999GF199999041999005491999999MA1102101999999REMMET051METAR SBUF 101300Z 13011KT 9999 SCT018 28/18 Q1021=
0142829860999992016091014004-09401-038251FM-15+026999999V0201401N006210057919N009999199+02901+01701999999ADDGA1071+005791999GE19MSL   +99999+99999GF199999071999005791999999MA1102101999999REMMET051METAR SBUF 101400Z 14012KT 9999 BKN019 29/17 Q1021=
0142829860999992016091015004-09401-038251FM-15+026999999V0201401N005710061019N009999199+03001+01601999999ADDGA1071+006101999GE19MSL   +99999+99999GF199999071999006101999999MA1101901999999REMMET051METAR SBUF 101500Z 14011KT 9999 BKN020 30/16 Q1019=
0142829860999992016091016004-09401-038251FM-15+026999999V0201401N006719999999N009999199+03101+01601999999ADDGA1041+006101999GE19MSL   +99999+99999GF199999041999006101999999MA1101801999999REMMET051METAR SBUF 101600Z 14013KT 9999 SCT020 31/16 Q1018=
0142829860999992016091017004-09401-038251FM-15+026999999V0201201N006719999999N009999199+03201+01501999999ADDGA1041+006101999GE19MSL   +99999+99999GF199999041999006101999999MA1101701999999REMMET051METAR SBUF 101700Z 12013KT 9999 SCT020 32/15 Q1017=
0142829860999992016091018004-09401-038251FM-15+026999999V0201201N007219999999N009999199+03101+01601999999ADDGA1041+006101999GE19MSL   +99999+99999GF199999041999006101999999MA1101701999999REMMET051METAR SBUF 101800Z 12014KT 9999 SCT020 31/16 Q1017=
0142829860999992016091019004-09401-038251FM-15+026999999V0201501N005719999999N009999199+03101+01601999999ADDGA1021+006101999GE19MSL   +99999+99999GF199999021999006101999999MA1101701999999REMMET051METAR SBUF 101900Z 15011KT 9999 FEW020 31/16 Q1017=
0142829860999992016091020004-09401-038251FM-15+026999999V0201301N005719999999N009999199+03001+01601999999ADDGA1021+006101999GE19MSL   +99999+99999GF199999021999006101999999MA1101701999999REMMET051METAR SBUF 102000Z 13011KT 9999 FEW020 30/16 Q1017=
0142829860999992016091021004-09401-038251FM-15+026999999V0201301N006719999999N009999199+02801+01701999999ADDGA1021+006101999GE19MSL   +99999+99999GF199999021999006101999999MA1101801999999REMMET051METAR SBUF 102100Z 13013KT 9999 FEW020 28/17 Q1018=
0142829860999992016091022004-09401-038251FM-15+026999999V0201201N008219999999N009999199+02701+01801999999ADDGA1021+006101999GE19MSL   +99999+99999GF199999021999006101999999MA1101901999999REMMET051METAR SBUF 102200Z 12016KT 9999 FEW020 27/18 Q1019=
0142829860999992016091023004-09401-038251FM-15+026999999V0201201N007719999999N009999199+02501+01801999999ADDGA1021+006101999GE19MSL   +99999+99999GF199999021999006101999999MA1102001999999REMMET051METAR SBUF 102300Z 12015KT 9999 FEW020 25/18 Q1020=
0142829860999992016091100004-09401-038251FM-15+026999999V0201301N007719999999N009999199+02401+01901999999ADDGA1021+005791999GE19MSL   +99999+99999GF199999021999005791999999MA1102101999999REMMET051METAR SBUF 110000Z 13015KT 9999 FEW019 24/19 Q1021=
0142829860999992016091101004-09401-038251FM-15+026999999V0201301N007219999999N009999199+02301+01901999999ADDGA1041+005491999GE19MSL   +99999+99999GF199999041999005491999999MA1102101999999REMMET051METAR SBUF 110100Z 13014KT 9999 SCT018 23/19 Q1021=
0142829860999992016091102004-09401-038251FM-15+026999999V0201501N004619999999N009999199+02301+01901999999ADDGA1041+005491999GE19MSL   +99999+99999GF199999041999005491999999MA1102101999999REMMET051METAR SBUF 110200Z 15009KT 9999 SCT018 23/19 Q1021=
0142829860999992016091103004-09401-038251FM-15+026999999V0201001N004610051819N009999199+02201+02001999999ADDGA1071+005181999GE19MSL   +99999+99999GF199999071999005181999999MA1102001999999REMMET051METAR SBUF 110300Z 10009KT 9999 BKN017 22/20 Q1020=
0142829860999992016091104004-09401-038251FM-15+026999999V0201101N005110054919N009999199+02201+02001999999ADDGA1071+005491999GE19MSL   +99999+99999GF199999071999005491999999MA1102001999999REMMET051METAR SBUF 110400Z 11010KT 9999 BKN018 22/20 Q1020=
0142829860999992016091105004-09401-038251FM-15+026999999V0201301N004619999999N009999199+02101+02001999999ADDGA1041+005181999GE19MSL   +99999+99999GF199999041999005181999999MA1101901999999REMMET051METAR SBUF 110500Z 13009KT 9999 SCT017 21/20 Q1019=
0142829860999992016091105154-09401-038251FM-16+026999999V0201301N004119999999N009999199+02101+02001999999ADDGA1041+005181999GE19MSL   +99999+99999GF199999041999005181999999MA1101901999999REMMET051SPECI SBUF 110515Z 13008KT 9999 SCT017 21/20 Q1019=
0142829860999992016091111154-09401-038251FM-16+026999999V0201301N005110051819N009999199+02501+02001999999ADDGA1071+005181999GE19MSL   +99999+99999GF199999071999005181999999MA1102101999999REMMET051SPECI SBUF 111115Z 13010KT 9999 BKN017 25/20 Q1021=
0142829860999992016091112004-09401-038251FM-15+026999999V0201301N006210054919N009999199+02701+01901999999ADDGA1071+005491999GE19MSL   +99999+99999GF199999071999005491999999MA1102101999999REMMET051METAR SBUF 111200Z 13012KT 9999 BKN018 27/19 Q1021=
0142829860999992016091113004-09401-038251FM-15+026999999V0201501N005710054919N009999199+02701+01901999999ADDGA1071+005491999GE19MSL   +99999+99999GF199999071999005491999999MA1102001999999REMMET051METAR SBUF 111300Z 15011KT 9999 BKN018 27/19 Q1020=
0142829860999992016091114004-09401-038251FM-15+026999999V0201401N005710057919N009999199+02801+01801999999ADDGA1071+005791999GE19MSL   +99999+99999GF199999071999005791999999MA1101901999999REMMET051METAR SBUF 111400Z 14011KT 9999 BKN019 28/18 Q1019=
0142829860999992016091115004-09401-038251FM-15+026999999V0201301N004610061019N009999199+03101+01801999999ADDGA1071+006101999GE19MSL   +99999+99999GF199999071999006101999999MA1101801999999REMMET051METAR SBUF 111500Z 13009KT 9999 BKN020 31/18 Q1018=
0142829860999992016091116004-09401-038251FM-15+026999999V0201401N004610061019N009999199+03001+01701999999ADDGA1071+006101999GE19MSL   +99999+99999GF199999071999006101999999MA1101701999999REMMET051METAR SBUF 111600Z 14009KT 9999 BKN020 30/17 Q1017=
0142829860999992016091117004-09401-038251FM-15+026999999V0201201N006710061019N009999199+03201+01801999999ADDGA1071+006101999GE19MSL   +99999+99999GF199999071999006101999999MA1101601999999REMMET051METAR SBUF 111700Z 12013KT 9999 BKN020 32/18 Q1016=
0142829860999992016091118004-09401-038251FM-15+026999999V0201201N005119999999N009999199+03201+01701999999ADDGA1041+006401999GE19MSL   +99999+99999GF199999041999006401999999MA1101501999999REMMET051METAR SBUF 111800Z 12010KT 9999 SCT021 32/17 Q1015=
0142829860999992016091119004-09401-038251FM-15+026999999V0201101N006219999999N009999199+03101+01701999999ADDGA1041+006401999GE19MSL   +99999+99999GF199999041999006401999999MA1101501999999REMMET051METAR SBUF 111900Z 11012KT 9999 SCT021 31/17 Q1015=
0142829860999992016091120004-09401-038251FM-15+026999999V0201201N007719999999N009999199+02801+01801999999ADDGA1041+006101999GE19MSL   +99999+99999GF199999041999006101999999MA1101601999999REMMET051METAR SBUF 112000Z 12015KT 9999 SCT020 28/18 Q1016=
0142829860999992016091121004-09401-038251FM-15+026999999V0201001N007719999999N009999199+02701+01901999999ADDGA1021+006401999GE19MSL   +99999+99999GF199999021999006401999999MA1101701999999REMMET051METAR SBUF 112100Z 10015KT 9999 FEW021 27/19 Q1017=
0142829860999992016091122004-09401-038251FM-15+026999999V0201001N006219999999N009999199+02601+01901999999ADDGA1021+006401999GE19MSL   +99999+99999GF199999021999006401999999MA1101801999999REMMET051METAR SBUF 112200Z 10012KT 9999 FEW021 26/19 Q1018=
0142829860999992016091123004-09401-038251FM-15+026999999V0201201N006219999999N009999199+02501+01901999999ADDGA1021+006101999GE19MSL   +99999+99999GF199999021999006101999999MA1101801999999REMMET051METAR SBUF 112300Z 12012KT 9999 FEW020 25/19 Q1018=
0142829860999992016091200004-09401-038251FM-15+026999999V0201201N005719999999N009999199+02501+01901999999ADDGA1021+006101999GE19MSL   +99999+99999GF199999021999006101999999MA1101901999999REMMET051METAR SBUF 120000Z 12011KT 9999 FEW020 25/19 Q1019=
0142829860999992016091201004-09401-038251FM-15+026999999V0201301N005719999999N009999199+02401+01901999999ADDGA1021+006101999GE19MSL   +99999+99999GF199999021999006101999999MA1101901999999REMMET051METAR SBUF 120100Z 13011KT 9999 FEW020 24/19 Q1019=
0072829860999992016091201154-09401-038251FM-16+026999999V0201401N005719999999Y999999999+02301+01901999999ADDMA1101901999999REMMET045SPECI SBUF 120115Z 14011KT CAVOK 23/19 Q1019=
0142829860999992016091207004-09401-038251FM-15+026999999V0201401N004119999999N009999199+02101+01901999999ADDGA1021+005181999GE19MSL   +99999+99999GF199999021999005181999999MA1101701999999REMMET051METAR SBUF 120700Z 14008KT 9999 FEW017 21/19 Q1017=
0142829860999992016091208004-09401-038251FM-15+026999999V0201301N003619999999N009999199+02101+01901999999ADDGA1041+005181999GE19MSL   +99999+99999GF199999041999005181999999MA1101801999999REMMET051METAR SBUF 120800Z 13007KT 9999 SCT017 21/19 Q1018=
0142829860999992016091209004-09401-038251FM-15+026999999V0201401N003619999999N009999199+02101+01901999999ADDGA1041+005491999GE19MSL   +99999+99999GF199999041999005491999999MA1101801999999REMMET051METAR SBUF 120900Z 14007KT 9999 SCT018 21/19 Q1018=
0142829860999992016091210004-09401-038251FM-15+026999999V0201201N004110054919N009999199+02301+01901999999ADDGA1071+005491999GE19MSL   +99999+99999GF199999071999005491999999MA1101901999999REMMET051METAR SBUF 121000Z 12008KT 9999 BKN018 23/19 Q1019=
0142829860999992016091211004-09401-038251FM-15+026999999V0201101N004110054919N009999199+02401+01901999999ADDGA1071+005491999GE19MSL   +99999+99999GF199999071999005491999999MA1101901999999REMMET051METAR SBUF 121100Z 11008KT 9999 BKN018 24/19 Q1019=
0142829860999992016091212004-09401-038251FM-15+026999999V0200901N006210054919N009999199+02801+01801999999ADDGA1071+005491999GE19MSL   +99999+99999GF199999071999005491999999MA1101901999999REMMET051METAR SBUF 121200Z 09012KT 9999 BKN018 28/18 Q1019=
0142829860999992016091213004-09401-038251FM-15+026999999V0201201N005710057919N009999199+02701+01701999999ADDGA1071+005791999GE19MSL   +99999+99999GF199999071999005791999999MA1101901999999REMMET051METAR SBUF 121300Z 12011KT 9999 BKN019 27/17 Q1019=
0142829860999992016091214004-09401-038251FM-15+026999999V0201101N006710057919N009999199+03001+01701999999ADDGA1071+005791999GE19MSL   +99999+99999GF199999071999005791999999MA1101801999999REMMET051METAR SBUF 121400Z 11013KT 9999 BKN019 30/17 Q1018=
0142829860999992016091216004-09401-038251FM-15+026999999V0201301N005710061019N009999199+03201+01501999999ADDGA1071+006101999GE19MSL   +99999+99999GF199999071999006101999999MA1101501999999REMMET051METAR SBUF 121600Z 13011KT 9999 BKN020 32/15 Q1015=
0142829860999992016091217004-09401-038251FM-15+026999999V0201101N006210064019N009999199+03101+01501999999ADDGA1071+006401999GE19MSL   +99999+99999GF199999071999006401999999MA1101501999999REMMET051METAR SBUF 121700Z 11012KT 9999 BKN021 31/15 Q1015=
0142829860999992016091218004-09401-038251FM-15+026999999V0201401N006219999999N009999199+03201+01501999999ADDGA1041+006711999GE19MSL   +99999+99999GF199999041999006711999999MA1101401999999REMMET051METAR SBUF 121800Z 14012KT 9999 SCT022 32/15 Q1014=
0142829860999992016091219004-09401-038251FM-15+026999999V0201101N007219999999N009999199+03001+01601999999ADDGA1041+006711999GE19MSL   +99999+99999GF199999041999006711999999MA1101401999999REMMET051METAR SBUF 121900Z 11014KT 9999 SCT022 30/16 Q1014=
0142829860999992016091219454-09401-038251FM-16+026999999V0201201N008219999999N009999199+02901+01701999999ADDGA1041+006711999GE19MSL   +99999+99999GF199999041999006711999999MA1101401999999REMMET051SPECI SBUF 121945Z 12016KT 9999 SCT022 29/17 Q1014=
0142829860999992016091311154-09401-038251FM-16+026999999V0201201N006219999999N009999199+02401+01801999999ADDGA1041+005491999GE19MSL   +99999+99999GF199999041999005491999999MA1101901999999REMMET051SPECI SBUF 131115Z 12012KT 9999 SCT018 24/18 Q1019=
0142829860999992016091312004-09401-038251FM-15+026999999V0201201N007219999999N009999199+02701+01601999999ADDGA1041+005791999GE19MSL   +99999+99999GF199999041999005791999999MA1101901999999REMMET051METAR SBUF 131200Z 12014KT 9999 SCT019 27/16 Q1019=
0142829860999992016091313004-09401-038251FM-15+026999999V0201301N006219999999N009999199+02901+01401999999ADDGA1041+006101999GE19MSL   +99999+99999GF199999041999006101999999MA1101901999999REMMET051METAR SBUF 131300Z 13012KT 9999 SCT020 29/14 Q1019=
0142829860999992016091314004-09401-038251FM-15+026999999V0201301N005719999999N009999199+03101+01301999999ADDGA1021+006711999GE19MSL   +99999+99999GF199999021999006711999999MA1101801999999REMMET051METAR SBUF 131400Z 13011KT 9999 FEW022 31/13 Q1018=
0072829860999992016091315004-09401-038251FM-15+026999999V0201301N005119999999Y999999999+03201+01201999999ADDMA1101701999999REMMET045METAR SBUF 131500Z 13010KT CAVOK 32/12 Q1017=
0072829860999992016091316004-09401-038251FM-15+026999999V0201201N007219999999Y999999999+03301+01001999999ADDMA1101601999999REMMET045METAR SBUF 131600Z 12014KT CAVOK 33/10 Q1016=
0072829860999992016091317004-09401-038251FM-15+026999999V0201201N005719999999Y999999999+03401+00901999999ADDMA1101501999999REMMET045METAR SBUF 131700Z 12011KT CAVOK 34/09 Q1015=
0072829860999992016091318004-09401-038251FM-15+026999999V0201401N006219999999Y999999999+03301+00801999999ADDMA1101401999999REMMET045METAR SBUF 131800Z 14012KT CAVOK 33/08 Q1014=
0072829860999992016091319004-09401-038251FM-15+026999999V0201201N007219999999Y999999999+03201+00801999999ADDMA1101401999999REMMET045METAR SBUF 131900Z 12014KT CAVOK 32/08 Q1014=
0072829860999992016091319454-09401-038251FM-16+026999999V0201501N006219999999Y999999999+03201+00901999999ADDMA1101401999999REMMET045SPECI SBUF 131945Z 15012KT CAVOK 32/09 Q1014=
0165829860999992016091411154-09401-038251FM-16+026999999V0201101N004110213419N009999199+02501+01801999999ADDGA1041+005181999GA2071+021341999GE19MSL   +99999+99999GF199999041999005181999999MA1102001999999REMMET058SPECI SBUF 141115Z 11008KT 9999 SCT017 BKN070 25/18 Q1020=
0165829860999992016091412004-09401-038251FM-15+026999999V0201201N004110213419N009999199+02601+01901999999ADDGA1041+005181999GA2071+021341999GE19MSL   +99999+99999GF199999041999005181999999MA1102001999999REMMET058METAR SBUF 141200Z 12008KT 9999 SCT017 BKN070 26/19 Q1020=
0165829860999992016091413004-09401-038251FM-15+026999999V0200901N003110213419N009999199+02601+01901999999ADDGA1041+005491999GA2071+021341999GE19MSL   +99999+99999GF199999041999005491999999MA1102001999999REMMET058METAR SBUF 141300Z 09006KT 9999 SCT018 BKN070 26/19 Q1020=
0165829860999992016091414004-09401-038251FM-15+026999999V0201401N002610213419N009999199+02901+01901999999ADDGA1041+005791999GA2071+021341999GE19MSL   +99999+99999GF199999041999005791999999MA1101901999999REMMET058METAR SBUF 141400Z 14005KT 9999 SCT019 BKN070 29/19 Q1019=
0165829860999992016091415004-09401-038251FM-15+026999999V0201601N003610213419N009999199+03001+01801999999ADDGA1041+006101999GA2071+021341999GE19MSL   +99999+99999GF199999041999006101999999MA1101701999999REMMET058METAR SBUF 141500Z 16007KT 9999 SCT020 BKN070 30/18 Q1017=
0142829860999992016091416004-09401-038251FM-15+026999999V0201101N004619999999N009999199+03101+01801999999ADDGA1041+006101999GE19MSL   +99999+99999GF199999041999006101999999MA1101601999999REMMET051METAR SBUF 141600Z 11009KT 9999 SCT020 31/18 Q1016=
0142829860999992016091417004-09401-038251FM-15+026999999V0201201N004119999999N009999199+03201+01701999999ADDGA1041+006711999GE19MSL   +99999+99999GF199999041999006711999999MA1101501999999REMMET051METAR SBUF 141700Z 12008KT 9999 SCT022 32/17 Q1015=
0142829860999992016091418004-09401-038251FM-15+026999999V0201301N004619999999N009999199+03301+01401999999ADDGA1041+006711999GE19MSL   +99999+99999GF199999041999006711999999MA1101401999999REMMET051METAR SBUF 141800Z 13009KT 9999 SCT022 33/14 Q1014=
0142829860999992016091419004-09401-038251FM-15+026999999V0201301N004619999999N009999199+03101+01501999999ADDGA1041+006711999GE19MSL   +99999+99999GF199999041999006711999999MA1101401999999REMMET051METAR SBUF 141900Z 13009KT 9999 SCT022 31/15 Q1014=
0142829860999992016091419454-09401-038251FM-16+026999999V0201201N005119999999N009999199+03201+01501999999ADDGA1021+006711999GE19MSL   +99999+99999GF199999021999006711999999MA1101401999999REMMET051SPECI SBUF 141945Z 12010KT 9999 FEW022 32/15 Q1014=
0142829860999992016091511154-09401-038251FM-16+026999999V0201001N005119999999N009999199+02601+01801999999ADDGA1041+005791999GE19MSL   +99999+99999GF199999041999005791999999MA1101901999999REMMET051SPECI SBUF 151115Z 10010KT 9999 SCT019 26/18 Q1019=
0142829860999992016091512004-09401-038251FM-15+026999999V0201001N005119999999N009999199+02701+01801999999ADDGA1041+005791999GE19MSL   +99999+99999GF199999041999005791999999MA1101901999999REMMET051METAR SBUF 151200Z 10010KT 9999 SCT019 27/18 Q1019=
0142829860999992016091513004-09401-038251FM-15+026999999V0201101N005719999999N009999199+03001+01601999999ADDGA1041+006101999GE19MSL   +99999+99999GF199999041999006101999999MA1101901999999REMMET051METAR SBUF 151300Z 11011KT 9999 SCT020 30/16 Q1019=
0142829860999992016091514004-09401-038251FM-15+026999999V0201101N004619999999N009999199+03101+01601999999ADDGA1021+006101999GE19MSL   +99999+99999GF199999021999006101999999MA1101701999999REMMET051METAR SBUF 151400Z 11009KT 9999 FEW020 31/16 Q1017=
0142829860999992016091515004-09401-038251FM-15+026999999V0201101N004119999999N009999199+03301+01601999999ADDGA1021+006401999GE19MSL   +99999+99999GF199999021999006401999999MA1101601999999REMMET051METAR SBUF 151500Z 11008KT 9999 FEW021 33/16 Q1016=
0142829860999992016091516004-09401-038251FM-15+026999999V0201401N002619999999N009999199+03301+01501999999ADDGA1021+006711999GE19MSL   +99999+99999GF199999021999006711999999MA1101501999999REMMET051METAR SBUF 151600Z 14005KT 9999 FEW022 33/15 Q1015=
0142829860999992016091518004-09401-038251FM-15+026999999V0200901N003119999999N009999199+03401+01301999999ADDGA1021+006711999GE19MSL   +99999+99999GF199999021999006711999999MA1101301999999REMMET051METAR SBUF 151800Z 09006KT 9999 FEW022 34/13 Q1013=
0142829860999992016091519004-09401-038251FM-15+026999999V0201001N003119999999N009999199+03401+01301999999ADDGA1021+006711999GE19MSL   +99999+99999GF199999021999006711999999MA1101301999999REMMET051METAR SBUF 151900Z 10006KT 9999 FEW022 34/13 Q1013=
0142829860999992016091520004-09401-038251FM-15+026999999V0201001N003619999999N009999199+03301+01301999999ADDGA1021+006401999GE19MSL   +99999+99999GF199999021999006401999999MA1101301999999REMMET051METAR SBUF 152000Z 10007KT 9999 FEW021 33/13 Q1013=
0072829860999992016091521004-09401-038251FM-15+026999999V0201201N004619999999Y999999999+03101+01501999999ADDMA1101401999999REMMET045METAR SBUF 152100Z 12009KT CAVOK 31/15 Q1014=
0072829860999992016091521154-09401-038251FM-16+026999999V0201201N004119999999Y999999999+03101+01501999999ADDMA1101401999999REMMET045SPECI SBUF 152115Z 12008KT CAVOK 31/15 Q1014=
0142829860999992016091611154-09401-038251FM-16+026999999V0201001N004119999999N009999199+02701+01801999999ADDGA1021+006101999GE19MSL   +99999+99999GF199999021999006101999999MA1101901999999REMMET051SPECI SBUF 161115Z 10008KT 9999 FEW020 27/18 Q1019=
0142829860999992016091612004-09401-038251FM-15+026999999V0201201N003119999999N009999199+02801+01801999999ADDGA1021+006101999GE19MSL   +99999+99999GF199999021999006101999999MA1101901999999REMMET051METAR SBUF 161200Z 12006KT 9999 FEW020 28/18 Q1019=
0072829860999992016091613004-09401-038251FM-15+026999999V0201301N003119999999Y999999999+03001+01801999999ADDMA1101801999999REMMET045METAR SBUF 161300Z 13006KT CAVOK 30/18 Q1018=
0072829860999992016091614004-09401-038251FM-15+026999999V0200901N003619999999Y999999999+03201+01601999999ADDMA1101801999999REMMET045METAR SBUF 161400Z 09007KT CAVOK 32/16 Q1018=
0072829860999992016091615004-09401-038251FM-15+026999999V0200901N004119999999Y999999999+03401+01401999999ADDMA1101601999999REMMET045METAR SBUF 161500Z 09008KT CAVOK 34/14 Q1016=
0142829860999992016091616004-09401-038251FM-15+026999999V0201001N003119999999N009999199+03401+01301999999ADDGA1021+006711999GE19MSL   +99999+99999GF199999021999006711999999MA1101501999999REMMET051METAR SBUF 161600Z 10006KT 9999 FEW022 34/13 Q1015=
0142829860999992016091617004-09401-038251FM-15+026999999V0201301N003619999999N009999199+03501+01401999999ADDGA1021+006711999GE19MSL   +99999+99999GF199999021999006711999999MA1101401999999REMMET051METAR SBUF 161700Z 13007KT 9999 FEW022 35/14 Q1014=
0142829860999992016091618004-09401-038251FM-15+026999999V0201201N004119999999N009999199+03601+01301999999ADDGA1021+006711999GE19MSL   +99999+99999GF199999021999006711999999MA1101301999999REMMET051METAR SBUF 161800Z 12008KT 9999 FEW022 36/13 Q1013=
0142829860999992016091619004-09401-038251FM-15+026999999V0201001N004119999999N009999199+03601+01401999999ADDGA1021+006711999GE19MSL   +99999+99999GF199999021999006711999999MA1101401999999REMMET051METAR SBUF 161900Z 10008KT 9999 FEW022 36/14 Q1014=
0142829860999992016091619454-09401-038251FM-16+026999999V0201001N005119999999N009999199+03401+01401999999ADDGA1021+006711999GE19MSL   +99999+99999GF199999021999006711999999MA1101401999999REMMET051SPECI SBUF 161945Z 10010KT 9999 FEW022 34/14 Q1014=
0142829860999992016091711154-09401-038251FM-16+026999999V0201001N005119999999N009999199+02801+01801999999ADDGA1041+005491999GE19MSL   +99999+99999GF199999041999005491999999MA1101901999999REMMET051SPECI SBUF 171115Z 10010KT 9999 SCT018 28/18 Q1019=
0142829860999992016091712004-09401-038251FM-15+026999999V0201001N005110057919N009999199+02901+01801999999ADDGA1071+005791999GE19MSL   +99999+99999GF199999071999005791999999MA1101901999999REMMET051METAR SBUF 171200Z 10010KT 9999 BKN019 29/18 Q1019=
0142829860999992016091713004-09401-038251FM-15+026999999V0200901N005119999999N009999199+03101+01701999999ADDGA1041+006101999GE19MSL   +99999+99999GF199999041999006101999999MA1101901999999REMMET051METAR SBUF 171300Z 09010KT 9999 SCT020 31/17 Q1019=
0142829860999992016091714004-09401-038251FM-15+026999999V0201001N005719999999N009999199+03301+01601999999ADDGA1041+006101999GE19MSL   +99999+99999GF199999041999006101999999MA1101801999999REMMET051METAR SBUF 171400Z 10011KT 9999 SCT020 33/16 Q1018=
0142829860999992016091715004-09401-038251FM-15+026999999V0201201N005119999999N009999199+03301+01501999999ADDGA1041+006401999GE19MSL   +99999+99999GF199999041999006401999999MA1101701999999REMMET051METAR SBUF 171500Z 12010KT 9999 SCT021 33/15 Q1017=
0142829860999992016091716004-09401-038251FM-15+026999999V0201101N005110064019N009999199+03401+01401999999ADDGA1071+006401999GE19MSL   +99999+99999GF199999071999006401999999MA1101501999999REMMET051METAR SBUF 171600Z 11010KT 9999 BKN021 34/14 Q1015=
0142829860999992016091717004-09401-038251FM-15+026999999V0200901N005719999999N009999199+03401+01401999999ADDGA1041+006711999GE19MSL   +99999+99999GF199999041999006711999999MA1101401999999REMMET051METAR SBUF 171700Z 09011KT 9999 SCT022 34/14 Q1014=
0142829860999992016091718004-09401-038251FM-15+026999999V0201201N006219999999N009999199+03401+01301999999ADDGA1041+006711999GE19MSL   +99999+99999GF199999041999006711999999MA1101401999999REMMET051METAR SBUF 171800Z 12012KT 9999 SCT022 34/13 Q1014=
0142829860999992016091719004-09401-038251FM-15+026999999V0201001N006719999999N009999199+03301+01401999999ADDGA1021+006401999GE19MSL   +99999+99999GF199999021999006401999999MA1101401999999REMMET051METAR SBUF 171900Z 10013KT 9999 FEW021 33/14 Q1014=
0142829860999992016091719454-09401-038251FM-16+026999999V0201001N006219999999N009999199+03301+01401999999ADDGA1021+006401999GE19MSL   +99999+99999GF199999021999006401999999MA1101401999999REMMET051SPECI SBUF 171945Z 10012KT 9999 FEW021 33/14 Q1014=
0142829860999992016091811154-09401-038251FM-16+026999999V0200901N005119999999N009999199+02701+01801999999ADDGA1041+005491999GE19MSL   +99999+99999GF199999041999005491999999MA1101901999999REMMET051SPECI SBUF 181115Z 09010KT 9999 SCT018 27/18 Q1019=
0142829860999992016091812004-09401-038251FM-15+026999999V0200901N004110054919N009999199+02701+01701999999ADDGA1071+005491999GE19MSL   +99999+99999GF199999071999005491999999MA1102001999999REMMET051METAR SBUF 181200Z 09008KT 9999 BKN018 27/17 Q1020=
0142829860999992016091813004-09401-038251FM-15+026999999V0201301N004619999999N009999199+02901+01601999999ADDGA1041+005791999GE19MSL   +99999+99999GF199999041999005791999999MA1101901999999REMMET051METAR SBUF 181300Z 13009KT 9999 SCT019 29/16 Q1019=
0142829860999992016091814004-09401-038251FM-15+026999999V0201001N006210061019N009999199+03201+01401999999ADDGA1071+006101999GE19MSL   +99999+99999GF199999071999006101999999MA1101801999999REMMET051METAR SBUF 181400Z 10012KT 9999 BKN020 32/14 Q1018=
0142829860999992016091815004-09401-038251FM-15+026999999V0201601N005119999999N009999199+03001+01301999999ADDGA1041+006711999GE19MSL   +99999+99999GF199999041999006711999999MA1101701999999REMMET051METAR SBUF 181500Z 16010KT 9999 SCT022 30/13 Q1017=
0142829860999992016091816004-09401-038251FM-15+026999999V0201501N005119999999N009999199+03301+01101999999ADDGA1041+006711999GE19MSL   +99999+99999GF199999041999006711999999MA1101501999999REMMET051METAR SBUF 181600Z 15010KT 9999 SCT022 33/11 Q1015=
0142829860999992016091817004-09401-038251FM-15+026999999V0201101N004619999999N009999199+03301+01101999999ADDGA1041+007011999GE19MSL   +99999+99999GF199999041999007011999999MA1101401999999REMMET051METAR SBUF 181700Z 11009KT 9999 SCT023 33/11 Q1014=
0142829860999992016091818004-09401-038251FM-15+026999999V0201101N005719999999N009999199+03301+01101999999ADDGA1021+007011999GE19MSL   +99999+99999GF199999021999007011999999MA1101401999999REMMET051METAR SBUF 181800Z 11011KT 9999 FEW023 33/11 Q1014=
0142829860999992016091819004-09401-038251FM-15+026999999V0201101N006719999999N009999199+03201+01301999999ADDGA1021+007011999GE19MSL   +99999+99999GF199999021999007011999999MA1101401999999REMMET051METAR SBUF 181900Z 11013KT 9999 FEW023 32/13 Q1014=
0142829860999992016091819454-09401-038251FM-16+026999999V0201301N006719999999N009999199+03001+01501999999ADDGA1021+007011999GE19MSL   +99999+99999GF199999021999007011999999MA1101501999999REMMET051SPECI SBUF 181945Z 13013KT 9999 FEW023 30/15 Q1015=
0142829860999992016091911154-09401-038251FM-16+026999999V0201001N005110054919N009999199+02601+01701999999ADDGA1071+005491999GE19MSL   +99999+99999GF199999071999005491999999MA1101901999999REMMET051SPECI SBUF 191115Z 10010KT 9999 BKN018 26/17 Q1019=
0142829860999992016091912004-09401-038251FM-15+026999999V0200901N005110054919N009999199+02601+01601999999ADDGA1071+005491999GE19MSL   +99999+99999GF199999071999005491999999MA1101901999999REMMET051METAR SBUF 191200Z 09010KT 9999 BKN018 26/16 Q1019=
0142829860999992016091913004-09401-038251FM-15+026999999V0201201N004619999999N009999199+02901+01501999999ADDGA1041+006101999GE19MSL   +99999+99999GF199999041999006101999999MA1101901999999REMMET051METAR SBUF 191300Z 12009KT 9999 SCT020 29/15 Q1019=
0142829860999992016091914004-09401-038251FM-15+026999999V0201301N003619999999N009999199+03101+01501999999ADDGA1041+006101999GE19MSL   +99999+99999GF199999041999006101999999MA1101801999999REMMET051METAR SBUF 191400Z 13007KT 9999 SCT020 31/15 Q1018=
0142829860999992016091915004-09401-038251FM-15+026999999V0201401N002619999999N009999199+03201+01501999999ADDGA1021+006401999GE19MSL   +99999+99999GF199999021999006401999999MA1101701999999REMMET051METAR SBUF 191500Z 14005KT 9999 FEW021 32/15 Q1017=
0142829860999992016091916004-09401-038251FM-15+026999999V0201001N003119999999N009999199+03301+01401999999ADDGA1021+006401999GE19MSL   +99999+99999GF199999021999006401999999MA1101501999999REMMET051METAR SBUF 191600Z 10006KT 9999 FEW021 33/14 Q1015=
0142829860999992016091917004-09401-038251FM-15+026999999V0200801N002119999999N009999199+03401+01401999999ADDGA1021+006711999GE19MSL   +99999+99999GF199999021999006711999999MA1101401999999REMMET051METAR SBUF 191700Z 08004KT 9999 FEW022 34/14 Q1014=
0142829860999992016091918004-09401-038251FM-15+026999999V0200901N002619999999N009999199+03301+01301999999ADDGA1021+006711999GE19MSL   +99999+99999GF199999021999006711999999MA1101301999999REMMET051METAR SBUF 191800Z 09005KT 9999 FEW022 33/13 Q1013=
0142829860999992016091919004-09401-038251FM-15+026999999V0201001N003619999999N009999199+03301+01201999999ADDGA1021+006711999GE19MSL   +99999+99999GF199999021999006711999999MA1101301999999REMMET051METAR SBUF 191900Z 10007KT 9999 FEW022 33/12 Q1013=
0142829860999992016091919454-09401-038251FM-16+026999999V0200601N002119999999N009999199+03301+01001999999ADDGA1021+006711999GE19MSL   +99999+99999GF199999021999006711999999MA1101301999999REMMET051SPECI SBUF 191945Z 06004KT 9999 FEW022 33/10 Q1013=
0142829860999992016092011154-09401-038251FM-16+026999999V0201001N003119999999N009999199+02601+01801999999ADDGA1041+006101999GE19MSL   +99999+99999GF199999041999006101999999MA1101701999999REMMET051SPECI SBUF 201115Z 10006KT 9999 SCT020 26/18 Q1017=
0142829860999992016092012004-09401-038251FM-15+026999999V0201201N003119999999N009999199+02801+01801999999ADDGA1021+006101999GE19MSL   +99999+99999GF199999021999006101999999MA1101701999999REMMET051METAR SBUF 201200Z 12006KT 9999 FEW020 28/18 Q1017=
0142829860999992016092013004-09401-038251FM-15+026999999V0201901N003119999999N009999199+02901+01701999999ADDGA1021+006101999GE19MSL   +99999+99999GF199999021999006101999999MA1101701999999REMMET051METAR SBUF 201300Z 19006KT 9999 FEW020 29/17 Q1017=
0142829860999992016092014004-09401-038251FM-15+026999999V0201401N003619999999N009999199+03201+01601999999ADDGA1021+006101999GE19MSL   +99999+99999GF199999021999006101999999MA1101601999999REMMET051METAR SBUF 201400Z 14007KT 9999 FEW020 32/16 Q1016=
0072829860999992016092015004-09401-038251FM-15+026999999V0201801N003619999999Y999999999+03301+01401999999ADDMA1101501999999REMMET045METAR SBUF 201500Z 18007KT CAVOK 33/14 Q1015=
0142829860999992016092016004-09401-038251FM-15+026999999V0201501N002619999999N009999199+03401+01301999999ADDGA1021+006711999GE19MSL   +99999+99999GF199999021999006711999999MA1101301999999REMMET051METAR SBUF 201600Z 15005KT 9999 FEW022 34/13 Q1013=
0142829860999992016092017004-09401-038251FM-15+026999999V0201501N003119999999N009999199+03501+01201999999ADDGA1021+007011999GE19MSL   +99999+99999GF199999021999007011999999MA1101201999999REMMET051METAR SBUF 201700Z 15006KT 9999 FEW023 35/12 Q1012=
0142829860999992016092018004-09401-038251FM-15+026999999V0201201N002619999999N009999199+03601+00801999999ADDGA1021+007011999GE19MSL   +99999+99999GF199999021999007011999999MA1101201999999REMMET051METAR SBUF 201800Z 12005KT 9999 FEW023 36/08 Q1012=
0142829860999992016092019004-09401-038251FM-15+026999999V0202001N002119999999N009999199+03601+00701999999ADDGA1021+007011999GE19MSL   +99999+99999GF199999021999007011999999MA1101201999999REMMET051METAR SBUF 201900Z 20004KT 9999 FEW023 36/07 Q1012=
0142829860999992016092019454-09401-038251FM-16+026999999V0201501N001519999999N009999199+03501+00701999999ADDGA1021+007011999GE19MSL   +99999+99999GF199999021999007011999999MA1101201999999REMMET051SPECI SBUF 201945Z 15003KT 9999 FEW023 35/07 Q1012=
0142829860999992016092111154-09401-038251FM-16+026999999V0201701N002619999999N009999199+02601+02001999999ADDGA1041+005181999GE19MSL   +99999+99999GF199999041999005181999999MA1101601999999REMMET051SPECI SBUF 211115Z 17005KT 9999 SCT017 26/20 Q1016=
0142829860999992016092112004-09401-038251FM-15+026999999V0202001N002119999999N009999199+02801+01901999999ADDGA1021+005791999GE19MSL   +99999+99999GF199999021999005791999999MA1101601999999REMMET051METAR SBUF 211200Z 20004KT 9999 FEW019 28/19 Q1016=
0072829860999992016092113004-09401-038251FM-15+026999999V0201501N002119999999Y999999999+03101+01901999999ADDMA1101601999999REMMET045METAR SBUF 211300Z 15004KT CAVOK 31/19 Q1016=
0072829860999992016092114004-09401-038251FM-15+026999999V0201601N002619999999Y999999999+03201+01801999999ADDMA1101501999999REMMET045METAR SBUF 211400Z 16005KT CAVOK 32/18 Q1015=
0072829860999992016092115004-09401-038251FM-15+026999999V0201801N003119999999Y999999999+03401+01701999999ADDMA1101401999999REMMET045METAR SBUF 211500Z 18006KT CAVOK 34/17 Q1014=
0072829860999992016092116004-09401-038251FM-15+026999999V0201801N002619999999Y999999999+03501+01501999999ADDMA1101301999999REMMET045METAR SBUF 211600Z 18005KT CAVOK 35/15 Q1013=
0142829860999992016092117004-09401-038251FM-15+026999999V0201701N001019999999N009999199+03601+00801999999ADDGA1021+006711999GE19MSL   +99999+99999GF199999021999006711999999MA1101201999999REMMET051METAR SBUF 211700Z 17002KT 9999 FEW022 36/08 Q1012=
0142829860999992016092118004-09401-038251FM-15+026999999V0201601N002619999999N009999199+03701+01101999999ADDGA1021+006711999GE19MSL   +99999+99999GF199999021999006711999999MA1101101999999REMMET051METAR SBUF 211800Z 16005KT 9999 FEW022 37/11 Q1011=
0142829860999992016092119004-09401-038251FM-15+026999999V0201601N002619999999N009999199+03701+01101999999ADDGA1021+006711999GE19MSL   +99999+99999GF199999021999006711999999MA1101101999999REMMET051METAR SBUF 211900Z 16005KT 9999 FEW022 37/11 Q1011=
0072829860999992016092119454-09401-038251FM-16+026999999V0201401N003119999999Y999999999+03601+01101999999ADDMA1101101999999REMMET045SPECI SBUF 211945Z 14006KT CAVOK 36/11 Q1011=
0142829860999992016092211154-09401-038251FM-16+026999999V0201201N004619999999N009999199+02801+02001999999ADDGA1041+005491999GE19MSL   +99999+99999GF199999041999005491999999MA1101701999999REMMET051SPECI SBUF 221115Z 12009KT 9999 SCT018 28/20 Q1017=
0142829860999992016092212004-09401-038251FM-15+026999999V0201401N003619999999N009999199+02701+01901999999ADDGA1041+005491999GE19MSL   +99999+99999GF199999041999005491999999MA1101801999999REMMET051METAR SBUF 221200Z 14007KT 9999 SCT018 27/19 Q1018=
0142829860999992016092213004-09401-038251FM-15+026999999V0201101N003619999999N009999199+03001+01901999999ADDGA1041+006101999GE19MSL   +99999+99999GF199999041999006101999999MA1101801999999REMMET051METAR SBUF 221300Z 11007KT 9999 SCT020 30/19 Q1018=
0142829860999992016092215004-09401-038251FM-15+026999999V0201401N003619999999N009999199+03301+01701999999ADDGA1041+006711999GE19MSL   +99999+99999GF199999041999006711999999MA1101601999999REMMET051METAR SBUF 221500Z 14007KT 9999 SCT022 33/17 Q1016=
0142829860999992016092216004-09401-038251FM-15+026999999V0201301N005119999999N009999199+03401+01501999999ADDGA1041+006711999GE19MSL   +99999+99999GF199999041999006711999999MA1101401999999REMMET051METAR SBUF 221600Z 13010KT 9999 SCT022 34/15 Q1014=
0142829860999992016092218004-09401-038251FM-15+026999999V0200901N004619999999N009999199+03601+01401999999ADDGA1041+007011999GE19MSL   +99999+99999GF199999041999007011999999MA1101301999999REMMET051METAR SBUF 221800Z 09009KT 9999 SCT023 36/14 Q1013=
0142829860999992016092219004-09401-038251FM-15+026999999V0200901N004619999999N009999199+03501+01401999999ADDGA1021+006711999GE19MSL   +99999+99999GF199999021999006711999999MA1101301999999REMMET051METAR SBUF 221900Z 09009KT 9999 FEW022 35/14 Q1013=
0142829860999992016092219454-09401-038251FM-16+026999999V0201201N004619999999N009999199+03301+01501999999ADDGA1021+006711999GE19MSL   +99999+99999GF199999021999006711999999MA1101301999999REMMET051SPECI SBUF 221945Z 12009KT 9999 FEW022 33/15 Q1013=
0142829860999992016092311154-09401-038251FM-16+026999999V0201001N004610054919N009999199+02701+01901999999ADDGA1071+005491999GE19MSL   +99999+99999GF199999071999005491999999MA1102001999999REMMET051SPECI SBUF 231115Z 10009KT 9999 BKN018 27/19 Q1020=
0142829860999992016092312004-09401-038251FM-15+026999999V0201001N004610057919N009999199+02901+01901999999ADDGA1071+005791999GE19MSL   +99999+99999GF199999071999005791999999MA1102001999999REMMET051METAR SBUF 231200Z 10009KT 9999 BKN019 29/19 Q1020=
0142829860999992016092313004-09401-038251FM-15+026999999V0201501N005119999999N009999199+02801+02001999999ADDGA1041+006101999GE19MSL   +99999+99999GF199999041999006101999999MA1102001999999REMMET051METAR SBUF 231300Z 15010KT 9999 SCT020 28/20 Q1020=
0142829860999992016092314004-09401-038251FM-15+026999999V0201201N003619999999N009999199+03001+01801999999ADDGA1041+006101999GE19MSL   +99999+99999GF199999041999006101999999MA1101901999999REMMET051METAR SBUF 231400Z 12007KT 9999 SCT020 30/18 Q1019=
0165829860999992016092315004-09401-038251FM-15+026999999V0201601N00211021341CN009999199+03201+01701999999ADDGA1041+006101999GA2041+021341999GE19MSL   +99999+99999GF199999041999006101999999MA1101801999999REMMET058METAR SBUF 231500Z 16004KT 9999 SCT020 SCT070 32/17 Q1018=
0165829860999992016092316004-09401-038251FM-15+026999999V0201601N00361021341CN009999199+03201+01701999999ADDGA1041+006101999GA2041+021341999GE19MSL   +99999+99999GF199999041999006101999999MA1101701999999REMMET058METAR SBUF 231600Z 16007KT 9999 SCT020 SCT070 32/17 Q1017=
0165829860999992016092317004-09401-038251FM-15+026999999V0201401N00361021341CN009999199+03301+01501999999ADDGA1021+006101999GA2041+021341999GE19MSL   +99999+99999GF199999021999006101999999MA1101601999999REMMET058METAR SBUF 231700Z 14007KT 9999 FEW020 SCT070 33/15 Q1016=
0165829860999992016092318004-09401-038251FM-15+026999999V0201101N004610213419N009999199+03301+01501999999ADDGA1021+006101999GA2071+021341999GE19MSL   +99999+99999GF199999021999006101999999MA1101501999999REMMET058METAR SBUF 231800Z 11009KT 9999 FEW020 BKN070 33/15 Q1015=
0165829860999992016092319004-09401-038251FM-15+026999999V0201501N00361021341CN009999199+03201+01601999999ADDGA1041+006101999GA2041+021341999GE19MSL   +99999+99999GF199999041999006101999999MA1101501999999REMMET058METAR SBUF 231900Z 15007KT 9999 SCT020 SCT070 32/16 Q1015=
0142829860999992016092319454-09401-038251FM-16+026999999V0201201N004619999999N009999199+03201+01701999999ADDGA1041+006101999GE19MSL   +99999+99999GF199999041999006101999999MA1101501999999REMMET051SPECI SBUF 231945Z 12009KT 9999 SCT020 32/17 Q1015=
0142829860999992016092411154-09401-038251FM-16+026999999V0201101N004119999999N009999199+02601+01901999999ADDGA1041+005491999GE19MSL   +99999+99999GF199999041999005491999999MA1102001999999REMMET051SPECI SBUF 241115Z 11008KT 9999 SCT018 26/19 Q1020=
0142829860999992016092412004-09401-038251FM-15+026999999V0201001N004610057919N009999199+02801+01901999999ADDGA1071+005791999GE19MSL   +99999+99999GF199999071999005791999999MA1102001999999REMMET051METAR SBUF 241200Z 10009KT 9999 BKN019 28/19 Q1020=
0142829860999992016092413004-09401-038251FM-15+026999999V0201001N004610057919N009999199+02901+01701999999ADDGA1071+005791999GE19MSL   +99999+99999GF199999071999005791999999MA1101901999999REMMET051METAR SBUF 241300Z 10009KT 9999 BKN019 29/17 Q1019=
0165829860999992016092414004-09401-038251FM-15+026999999V0201301N005110243819N009999199+03101+01701999999ADDGA1041+006101999GA2071+024381999GE19MSL   +99999+99999GF199999041999006101999999MA1101801999999REMMET058METAR SBUF 241400Z 13010KT 9999 SCT020 BKN080 31/17 Q1018=
0142829860999992016092416004-09401-038251FM-15+026999999V0201401N004619999999N009999199+03301+01501999999ADDGA1041+006711999GE19MSL   +99999+99999GF199999041999006711999999MA1101501999999REMMET051METAR SBUF 241600Z 14009KT 9999 SCT022 33/15 Q1015=
0142829860999992016092417004-09401-038251FM-15+026999999V0201301N004119999999N009999199+03401+01401999999ADDGA1041+006711999GE19MSL   +99999+99999GF199999041999006711999999MA1101401999999REMMET051METAR SBUF 241700Z 13008KT 9999 SCT022 34/14 Q1014=
0142829860999992016092418004-09401-038251FM-15+026999999V0201001N003619999999N009999199+03501+01301999999ADDGA1041+006711999GE19MSL   +99999+99999GF199999041999006711999999MA1101401999999REMMET051METAR SBUF 241800Z 10007KT 9999 SCT022 35/13 Q1014=
0142829860999992016092419004-09401-038251FM-15+026999999V0200901N005719999999N009999199+03401+01301999999ADDGA1041+006711999GE19MSL   +99999+99999GF199999041999006711999999MA1101401999999REMMET051METAR SBUF 241900Z 09011KT 9999 SCT022 34/13 Q1014=
0142829860999992016092419454-09401-038251FM-16+026999999V0200901N004619999999N009999199+03201+01301999999ADDGA1041+006401999GE19MSL   +99999+99999GF199999041999006401999999MA1101401999999REMMET051SPECI SBUF 241945Z 09009KT 9999 SCT021 32/13 Q1014=
0142829860999992016092511154-09401-038251FM-16+026999999V0201201N003119999999N009999199+02701+01901999999ADDGA1021+005181999GE19MSL   +99999+99999GF199999021999005181999999MA1101701999999REMMET051SPECI SBUF 251115Z 12006KT 9999 FEW017 27/19 Q1017=
0142829860999992016092512004-09401-038251FM-15+026999999V0201101N004119999999N009999199+02901+01701999999ADDGA1021+005791999GE19MSL   +99999+99999GF199999021999005791999999MA1101701999999REMMET051METAR SBUF 251200Z 11008KT 9999 FEW019 29/17 Q1017=
0142829860999992016092513004-09401-038251FM-15+026999999V0201201N004119999999N009999199+03101+01701999999ADDGA1021+006101999GE19MSL   +99999+99999GF199999021999006101999999MA1101601999999REMMET051METAR SBUF 251300Z 12008KT 9999 FEW020 31/17 Q1016=
0142829860999992016092514004-09401-038251FM-15+026999999V0201201N004619999999N009999199+03201+01601999999ADDGA1021+006401999GE19MSL   +99999+99999GF199999021999006401999999MA1101501999999REMMET051METAR SBUF 251400Z 12009KT 9999 FEW021 32/16 Q1015=
0142829860999992016092515004-09401-038251FM-15+026999999V0201401N004119999999N009999199+03401+01601999999ADDGA1021+007011999GE19MSL   +99999+99999GF199999021999007011999999MA1101401999999REMMET051METAR SBUF 251500Z 14008KT 9999 FEW023 34/16 Q1014=
0142829860999992016092516004-09401-038251FM-15+026999999V0201301N004619999999N009999199+03401+01601999999ADDGA1021+007011999GE19MSL   +99999+99999GF199999021999007011999999MA1101201999999REMMET051METAR SBUF 251600Z 13009KT 9999 FEW023 34/16 Q1012=
0142829860999992016092517004-09401-038251FM-15+026999999V0201101N004119999999N009999199+03501+01401999999ADDGA1021+007011999GE19MSL   +99999+99999GF199999021999007011999999MA1101101999999REMMET051METAR SBUF 251700Z 11008KT 9999 FEW023 35/14 Q1011=
0142829860999992016092518004-09401-038251FM-15+026999999V0201201N004119999999N009999199+03501+01401999999ADDGA1021+007011999GE19MSL   +99999+99999GF199999021999007011999999MA1101001999999REMMET051METAR SBUF 251800Z 12008KT 9999 FEW023 35/14 Q1010=
0142829860999992016092519004-09401-038251FM-15+026999999V0201301N004619999999N009999199+03501+01401999999ADDGA1021+007011999GE19MSL   +99999+99999GF199999021999007011999999MA1101001999999REMMET051METAR SBUF 251900Z 13009KT 9999 FEW023 35/14 Q1010=
0142829860999992016092519454-09401-038251FM-16+026999999V0201101N005119999999N009999199+03401+01501999999ADDGA1021+007011999GE19MSL   +99999+99999GF199999021999007011999999MA1101101999999REMMET051SPECI SBUF 251945Z 11010KT 9999 FEW023 34/15 Q1011=
0072829860999992016092611154-09401-038251FM-16+026999999V0201201N003119999999Y999999999+02701+01801999999ADDMA1101601999999REMMET045SPECI SBUF 261115Z 12006KT CAVOK 27/18 Q1016=
0072829860999992016092612004-09401-038251FM-15+026999999V0200901N003119999999Y999999999+02801+01801999999ADDMA1101601999999REMMET045METAR SBUF 261200Z 09006KT CAVOK 28/18 Q1016=
0072829860999992016092614004-09401-038251FM-15+026999999V0201201N003119999999Y999999999+03301+01601999999ADDMA1101501999999REMMET045METAR SBUF 261400Z 12006KT CAVOK 33/16 Q1015=
0142829860999992016092615004-09401-038251FM-15+026999999V0201601N003619999999N009999199+03301+01501999999ADDGA1021+006711999GE19MSL   +99999+99999GF199999021999006711999999MA1101401999999REMMET051METAR SBUF 261500Z 16007KT 9999 FEW022 33/15 Q1014=
0142829860999992016092616004-09401-038251FM-15+026999999V0201701N003619999999N009999199+03501+01401999999ADDGA1021+007011999GE19MSL   +99999+99999GF199999021999007011999999MA1101201999999REMMET051METAR SBUF 261600Z 17007KT 9999 FEW023 35/14 Q1012=
0142829860999992016092617004-09401-038251FM-15+026999999V0201101N002619999999N009999199+03501+01401999999ADDGA1021+007011999GE19MSL   +99999+99999GF199999021999007011999999MA1101101999999REMMET051METAR SBUF 261700Z 11005KT 9999 FEW023 35/14 Q1011=
0142829860999992016092618004-09401-038251FM-15+026999999V0201101N003119999999N009999199+03601+01401999999ADDGA1021+007011999GE19MSL   +99999+99999GF199999021999007011999999MA1101001999999REMMET051METAR SBUF 261800Z 11006KT 9999 FEW023 36/14 Q1010=
0142829860999992016092619004-09401-038251FM-15+026999999V0200901N002619999999N009999199+03501+01401999999ADDGA1021+007011999GE19MSL   +99999+99999GF199999021999007011999999MA1101001999999REMMET051METAR SBUF 261900Z 09005KT 9999 FEW023 35/14 Q1010=
0142829860999992016092619454-09401-038251FM-16+026999999V0200801N004119999999N009999199+03401+01401999999ADDGA1021+007011999GE19MSL   +99999+99999GF199999021999007011999999MA1101101999999REMMET051SPECI SBUF 261945Z 08008KT 9999 FEW023 34/14 Q1011=
0142829860999992016092711154-09401-038251FM-16+026999999V0201101N002119999999N009999199+02701+01901999999ADDGA1041+005491999GE19MSL   +99999+99999GF199999041999005491999999MA1101701999999REMMET051SPECI SBUF 271115Z 11004KT 9999 SCT018 27/19 Q1017=
0142829860999992016092712004-09401-038251FM-15+026999999V0201801N002619999999N009999199+02801+01901999999ADDGA1041+005791999GE19MSL   +99999+99999GF199999041999005791999999MA1101701999999REMMET051METAR SBUF 271200Z 18005KT 9999 SCT019 28/19 Q1017=
0142829860999992016092713004-09401-038251FM-15+026999999V0201701N003619999999N009999199+03001+01801999999ADDGA1021+006401999GE19MSL   +99999+99999GF199999021999006401999999MA1101601999999REMMET051METAR SBUF 271300Z 17007KT 9999 FEW021 30/18 Q1016=
0142829860999992016092714004-09401-038251FM-15+026999999V0201901N002619999999N009999199+03101+01701999999ADDGA1021+006711999GE19MSL   +99999+99999GF199999021999006711999999MA1101601999999REMMET051METAR SBUF 271400Z 19005KT 9999 FEW022 31/17 Q1016=
0142829860999992016092715004-09401-038251FM-15+026999999V0201901N003119999999N009999199+03301+01701999999ADDGA1021+006711999GE19MSL   +99999+99999GF199999021999006711999999MA1101401999999REMMET051METAR SBUF 271500Z 19006KT 9999 FEW022 33/17 Q1014=
0142829860999992016092716004-09401-038251FM-15+026999999V0201601N002619999999N009999199+03501+01601999999ADDGA1021+007011999GE19MSL   +99999+99999GF199999021999007011999999MA1101301999999REMMET051METAR SBUF 271600Z 16005KT 9999 FEW023 35/16 Q1013=
0142829860999992016092717004-09401-038251FM-15+026999999V0201101N002119999999N009999199+03601+01601999999ADDGA1041+007011999GE19MSL   +99999+99999GF199999041999007011999999MA1101201999999REMMET051METAR SBUF 271700Z 11004KT 9999 SCT023 36/16 Q1012=
0142829860999992016092718004-09401-038251FM-15+026999999V0201101N003619999999N009999199+03601+01501999999ADDGA1041+006401999GE19MSL   +99999+99999GF199999041999006401999999MA1101101999999REMMET051METAR SBUF 271800Z 11007KT 9999 SCT021 36/15 Q1011=
0142829860999992016092719004-09401-038251FM-15+026999999V0201001N004119999999N009999199+03601+01501999999ADDGA1021+006401999GE19MSL   +99999+99999GF199999021999006401999999MA1101101999999REMMET051METAR SBUF 271900Z 10008KT 9999 FEW021 36/15 Q1011=
0165829860999992016092719454-09401-038251FM-16+026999999V0201001N00511027431CN009999199+03401+01501999999ADDGA1021+006401999GA2041+027431999GE19MSL   +99999+99999GF199999021999006401999999MA1101101999999REMMET058SPECI SBUF 271945Z 10010KT 9999 FEW021 SCT090 34/15 Q1011=
0142829860999992016092811154-09401-038251FM-16+026999999V0201001N005710054919N009999199+02701+02001999999ADDGA1071+005491999GE19MSL   +99999+99999GF199999071999005491999999MA1101801999999REMMET051SPECI SBUF 281115Z 10011KT 9999 BKN018 27/20 Q1018=
0142829860999992016092812004-09401-038251FM-15+026999999V0201001N005119999999N009999199+02801+01801999999ADDGA1041+005491999GE19MSL   +99999+99999GF199999041999005491999999MA1101801999999REMMET051METAR SBUF 281200Z 10010KT 9999 SCT018 28/18 Q1018=
0142829860999992016092813004-09401-038251FM-15+026999999V0201101N005110057919N009999199+03101+01801999999ADDGA1071+005791999GE19MSL   +99999+99999GF199999071999005791999999MA1101801999999REMMET051METAR SBUF 281300Z 11010KT 9999 BKN019 31/18 Q1018=
0142829860999992016092814004-09401-038251FM-15+026999999V0201301N005719999999N009999199+03101+01701999999ADDGA1041+006401999GE19MSL   +99999+99999GF199999041999006401999999MA1101701999999REMMET051METAR SBUF 281400Z 13011KT 9999 SCT021 31/17 Q1017=
0142829860999992016092815004-09401-038251FM-15+026999999V0201101N005719999999N009999199+03401+01601999999ADDGA1021+006711999GE19MSL   +99999+99999GF199999021999006711999999MA1101501999999REMMET051METAR SBUF 281500Z 11011KT 9999 FEW022 34/16 Q1015=
0142829860999992016092817004-09401-038251FM-15+026999999V0201401N004119999999N009999199+03501+01601999999ADDGA1021+007011999GE19MSL   +99999+99999GF199999021999007011999999MA1101301999999REMMET051METAR SBUF 281700Z 14008KT 9999 FEW023 35/16 Q1013=
0142829860999992016092818004-09401-038251FM-15+026999999V0201001N005119999999N009999199+03501+01501999999ADDGA1021+007011999GE19MSL   +99999+99999GF199999021999007011999999MA1101201999999REMMET051METAR SBUF 281800Z 10010KT 9999 FEW023 35/15 Q1012=
0142829860999992016092819004-09401-038251FM-15+026999999V0201001N005119999999N009999199+03401+01501999999ADDGA1041+006711999GE19MSL   +99999+99999GF199999041999006711999999MA1101301999999REMMET051METAR SBUF 281900Z 10010KT 9999 SCT022 34/15 Q1013=
0142829860999992016092820004-09401-038251FM-15+026999999V0201301N005119999999N009999199+03301+01501999999ADDGA1041+006101999GE19MSL   +99999+99999GF199999041999006101999999MA1101301999999REMMET051METAR SBUF 282000Z 13010KT 9999 SCT020 33/15 Q1013=
0142829860999992016092821004-09401-038251FM-15+026999999V0201201N006219999999N009999199+03101+01501999999ADDGA1021+006101999GE19MSL   +99999+99999GF199999021999006101999999MA1101401999999REMMET051METAR SBUF 282100Z 12012KT 9999 FEW020 31/15 Q1014=
0142829860999992016092822004-09401-038251FM-15+026999999V0201301N008819999999N009999199+02901+01901999999ADDGA1021+005491999GE19MSL   +99999+99999GF199999021999005491999999MA1101501999999REMMET051METAR SBUF 282200Z 13017KT 9999 FEW018 29/19 Q1015=
0142829860999992016092823004-09401-038251FM-15+026999999V0201201N009319999999N009999199+02701+01901999999ADDGA1021+005491999GE19MSL   +99999+99999GF199999021999005491999999MA1101601999999REMMET051METAR SBUF 282300Z 12018KT 9999 FEW018 27/19 Q1016=
0142829860999992016092901004-09401-038251FM-15+026999999V0201301N006219999999N009999199+02601+01901999999ADDGA1021+005181999GE19MSL   +99999+99999GF199999021999005181999999MA1101701999999REMMET051METAR SBUF 290100Z 13012KT 9999 FEW017 26/19 Q1017=
0142829860999992016092902004-09401-038251FM-15+026999999V0201301N006719999999N009999199+02501+02001999999ADDGA1021+004881999GE19MSL   +99999+99999GF199999021999004881999999MA1101601999999REMMET051METAR SBUF 290200Z 13013KT 9999 FEW016 25/20 Q1016=
0142829860999992016092902154-09401-038251FM-16+026999999V0201301N007219999999N009999199+02501+01901999999ADDGA1021+004881999GE19MSL   +99999+99999GF199999021999004881999999MA1101601999999REMMET051SPECI SBUF 290215Z 13014KT 9999 FEW016 25/19 Q1016=
0072829860999992016100611154-09401-038251FM-16+026999999V0200201N002119999999Y999999999+02801+01801999999ADDMA1101201999999REMMET045SPECI SBUF 061115Z 02004KT CAVOK 28/18 Q1012=
0072829860999992016100612004-09401-038251FM-15+026999999V0203601N002119999999Y999999999+03101+01701999999ADDMA1101201999999REMMET045METAR SBUF 061200Z 36004KT CAVOK 31/17 Q1012=
0072829860999992016100613004-09401-038251FM-15+026999999V0203501N003119999999Y999999999+03301+01401999999ADDMA1101101999999REMMET045METAR SBUF 061300Z 35006KT CAVOK 33/14 Q1011=
0072829860999992016100614004-09401-038251FM-15+026999999V0203301N003619999999Y999999999+03601+01201999999ADDMA1101001999999REMMET045METAR SBUF 061400Z 33007KT CAVOK 36/12 Q1010=
0142829860999992016100615004-09401-038251FM-15+026999999V0203301N003619999999N009999199+03701+01201999999ADDGA1021+007011999GE19MSL   +99999+99999GF199999021999007011999999MA1100901999999REMMET051METAR SBUF 061500Z 33007KT 9999 FEW023 37/12 Q1009=
0142829860999992016100616004-09401-038251FM-15+026999999V0203401N004119999999N009999199+03801+01101999999ADDGA1021+007321999GE19MSL   +99999+99999GF199999021999007321999999MA1100701999999REMMET051METAR SBUF 061600Z 34008KT 9999 FEW024 38/11 Q1007=
0142829860999992016100617004-09401-038251FM-15+026999999V0203301N002619999999N009999199+03801+01001999999ADDGA1021+007321999GE19MSL   +99999+99999GF199999021999007321999999MA1100601999999REMMET051METAR SBUF 061700Z 33005KT 9999 FEW024 38/10 Q1006=
0142829860999992016100618004-09401-038251FM-15+026999999V0203201N002619999999N009999199+03901+01001999999ADDGA1021+006711999GE19MSL   +99999+99999GF199999021999006711999999MA1100501999999REMMET051METAR SBUF 061800Z 32005KT 9999 FEW022 39/10 Q1005=
0142829860999992016100619004-09401-038251FM-15+026999999V0203201N002619999999N009999199+03801+01001999999ADDGA1021+006711999GE19MSL   +99999+99999GF199999021999006711999999MA1100501999999REMMET051METAR SBUF 061900Z 32005KT 9999 FEW022 38/10 Q1005=
0072829860999992016100619454-09401-038251FM-16+026999999V0203301N003119999999Y999999999+03801+01001999999ADDMA1100501999999REMMET045SPECI SBUF 061945Z 33006KT CAVOK 38/10 Q1005=
0142829860999992016100714004-09401-038251FM-15+026999999V0200101N003119999999N009999199+03501+01601999999ADDGA1021+006401999GE19MSL   +99999+99999GF199999021999006401999999MA1101101999999REMMET051METAR SBUF 071400Z 01006KT 9999 FEW021 35/16 Q1011=
0142829860999992016100715004-09401-038251FM-15+026999999V0203401N003619999999N009999199+03601+01501999999ADDGA1021+006401999GE19MSL   +99999+99999GF199999021999006401999999MA1100901999999REMMET051METAR SBUF 071500Z 34007KT 9999 FEW021 36/15 Q1009=
0142829860999992016100716004-09401-038251FM-15+026999999V0203601N003119999999N009999199+03701+01501999999ADDGA1021+006401999GE19MSL   +99999+99999GF199999021999006401999999MA1100801999999REMMET051METAR SBUF 071600Z 36006KT 9999 FEW021 37/15 Q1008=
0142829860999992016100717004-09401-038251FM-15+026999999V0203001N004119999999N009999199+03601+01501999999ADDGA1041+006401999GE19MSL   +99999+99999GF199999041999006401999999MA1100701999999REMMET051METAR SBUF 071700Z 30008KT 9999 SCT021 36/15 Q1007=
0142829860999992016100718004-09401-038251FM-15+026999999V0203101N003119999999N009999199+03801+01501999999ADDGA1021+006711999GE19MSL   +99999+99999GF199999021999006711999999MA1100701999999REMMET051METAR SBUF 071800Z 31006KT 9999 FEW022 38/15 Q1007=
0072829860999992016100719004-09401-038251FM-15+026999999V0203001N002619999999Y999999999+03601+01501999999ADDMA1100601999999REMMET045METAR SBUF 071900Z 30005KT CAVOK 36/15 Q1006=
0072829860999992016100719454-09401-038251FM-16+026999999V0202401N002619999999Y999999999+03601+01501999999ADDMA1100701999999REMMET045SPECI SBUF 071945Z 24005KT CAVOK 36/15 Q1007=
0142829860999992016100811154-09401-038251FM-16+026999999V0201001N001019999999N009999199+03001+01701999999ADDGA1021+006711999GE19MSL   +99999+99999GF199999021999006711999999MA1101401999999REMMET051SPECI SBUF 081115Z 10002KT 9999 FEW022 30/17 Q1014=
0072829860999992016100812004-09401-038251FM-15+026999999V0200501N002119999999Y999999999+03201+01401999999ADDMA1101401999999REMMET045METAR SBUF 081200Z 05004KT CAVOK 32/14 Q1014=
0072829860999992016100813004-09401-038251FM-15+026999999V0201001N002119999999Y999999999+03401+01501999999ADDMA1101301999999REMMET045METAR SBUF 081300Z 10004KT CAVOK 34/15 Q1013=
0142829860999992016100814004-09401-038251FM-15+026999999V0201601N002119999999N009999199+03501+01501999999ADDGA1021+007011999GE19MSL   +99999+99999GF199999021999007011999999MA1101301999999REMMET051METAR SBUF 081400Z 16004KT 9999 FEW023 35/15 Q1013=
0142829860999992016100815004-09401-038251FM-15+026999999V0202001N002119999999N009999199+03701+01401999999ADDGA1021+007011999GE19MSL   +99999+99999GF199999021999007011999999MA1101201999999REMMET051METAR SBUF 081500Z 20004KT 9999 FEW023 37/14 Q1012=
0142829860999992016100816004-09401-038251FM-15+026999999V0201401N004619999999N009999199+03801+01401999999ADDGA1021+007011999GE19MSL   +99999+99999GF199999021999007011999999MA1101001999999REMMET051METAR SBUF 081600Z 14009KT 9999 FEW023 38/14 Q1010=
0142829860999992016100817004-09401-038251FM-15+026999999V0201101N005119999999N009999199+03901+01201999999ADDGA1021+006711999GE19MSL   +99999+99999GF199999021999006711999999MA1100901999999REMMET051METAR SBUF 081700Z 11010KT 9999 FEW022 39/12 Q1009=
0142829860999992016100818004-09401-038251FM-15+026999999V0201301N004619999999N009999199+03901+01201999999ADDGA1021+006711999GE19MSL   +99999+99999GF199999021999006711999999MA1100901999999REMMET051METAR SBUF 081800Z 13009KT 9999 FEW022 39/12 Q1009=
0142829860999992016100819004-09401-038251FM-15+026999999V0201301N005719999999N009999199+03801+00901999999ADDGA1021+006711999GE19MSL   +99999+99999GF199999021999006711999999MA1100901999999REMMET051METAR SBUF 081900Z 13011KT 9999 FEW022 38/09 Q1009=
0142829860999992016100819454-09401-038251FM-16+026999999V0201101N005119999999N009999199+03601+01001999999ADDGA1021+006401999GE19MSL   +99999+99999GF199999021999006401999999MA1100901999999REMMET051SPECI SBUF 081945Z 11010KT 9999 FEW021 36/10 Q1009=
0142829860999992016100911154-09401-038251FM-16+026999999V0201001N002119999999N009999199+02701+01801999999ADDGA1021+005791999GE19MSL   +99999+99999GF199999021999005791999999MA1101601999999REMMET051SPECI SBUF 091115Z 10004KT 9999 FEW019 27/18 Q1016=
0072829860999992016100912004-09401-038251FM-15+026999999V0201301N002119999999Y999999999+03001+01601999999ADDMA1101601999999REMMET045METAR SBUF 091200Z 13004KT CAVOK 30/16 Q1016=
0072829860999992016100913004-09401-038251FM-15+026999999V0201201N004619999999Y999999999+03301+01201999999ADDMA1101601999999REMMET045METAR SBUF 091300Z 12009KT CAVOK 33/12 Q1016=
0072829860999992016100914004-09401-038251FM-15+026999999V0201601N004119999999Y999999999+03301+01301999999ADDMA1101501999999REMMET045METAR SBUF 091400Z 16008KT CAVOK 33/13 Q1015=
0072829860999992016100915004-09401-038251FM-15+026999999V0201301N004619999999Y999999999+03501+01101999999ADDMA1101501999999REMMET045METAR SBUF 091500Z 13009KT CAVOK 35/11 Q1015=
0072829860999992016100916004-09401-038251FM-15+026999999V0201101N005119999999Y999999999+03601+01001999999ADDMA1101301999999REMMET045METAR SBUF 091600Z 11010KT CAVOK 36/10 Q1013=
0142829860999992016100917004-09401-038251FM-15+026999999V0201301N004119999999N009999199+03601+01001999999ADDGA1021+007321999GE19MSL   +99999+99999GF199999021999007321999999MA1101201999999REMMET051METAR SBUF 091700Z 13008KT 9999 FEW024 36/10 Q1012=
0142829860999992016100918004-09401-038251FM-15+026999999V0201401N004619999999N009999199+03701+01101999999ADDGA1021+007621999GE19MSL   +99999+99999GF199999021999007621999999MA1101201999999REMMET051METAR SBUF 091800Z 14009KT 9999 FEW025 37/11 Q1012=
0153829860999992016100919004-09401-038251FM-15+026999999V0201201N006219999999N009999199+03601+00901999999ADDGA1021+007621999GE19MSL   +99999+99999GF199999021999007621999999MA1101201999999OC101291REMMET054METAR SBUF 091900Z 12012G25KT 9999 FEW025 36/09 Q1012=
0142829860999992016100919454-09401-038251FM-16+026999999V0201201N005119999999N009999199+03501+01001999999ADDGA1021+007621999GE19MSL   +99999+99999GF199999021999007621999999MA1101201999999REMMET051SPECI SBUF 091945Z 12010KT 9999 FEW025 35/10 Q1012=
0142829860999992016101011154-09401-038251FM-16+026999999V0201101N006219999999N009999199+02801+01801999999ADDGA1041+005181999GE19MSL   +99999+99999GF199999041999005181999999MA1101901999999REMMET051SPECI SBUF 101115Z 11012KT 9999 SCT017 28/18 Q1019=
0142829860999992016101012004-09401-038251FM-15+026999999V0200901N005119999999N009999199+02901+01701999999ADDGA1041+005491999GE19MSL   +99999+99999GF199999041999005491999999MA1101901999999REMMET051METAR SBUF 101200Z 09010KT 9999 SCT018 29/17 Q1019=
0142829860999992016101014004-09401-038251FM-15+026999999V0201101N006719999999N009999199+03301+01401999999ADDGA1041+006101999GE19MSL   +99999+99999GF199999041999006101999999MA1101701999999REMMET051METAR SBUF 101400Z 11013KT 9999 SCT020 33/14 Q1017=
0142829860999992016101015004-09401-038251FM-15+026999999V0201001N007219999999N009999199+03401+01301999999ADDGA1041+007011999GE19MSL   +99999+99999GF199999041999007011999999MA1101601999999REMMET051METAR SBUF 101500Z 10014KT 9999 SCT023 34/13 Q1016=
0142829860999992016101016004-09401-038251FM-15+026999999V0200801N006719999999N009999199+03401+01301999999ADDGA1041+007011999GE19MSL   +99999+99999GF199999041999007011999999MA1101501999999REMMET051METAR SBUF 101600Z 08013KT 9999 SCT023 34/13 Q1015=
0142829860999992016101017004-09401-038251FM-15+026999999V0201301N006219999999N009999199+03501+01301999999ADDGA1041+007011999GE19MSL   +99999+99999GF199999041999007011999999MA1101401999999REMMET051METAR SBUF 101700Z 13012KT 9999 SCT023 35/13 Q1014=
0142829860999992016101018004-09401-038251FM-15+026999999V0201001N007219999999N009999199+03401+01301999999ADDGA1041+007011999GE19MSL   +99999+99999GF199999041999007011999999MA1101301999999REMMET051METAR SBUF 101800Z 10014KT 9999 SCT023 34/13 Q1013=
0142829860999992016101019004-09401-038251FM-15+026999999V0201101N007219999999N009999199+03401+00901999999ADDGA1021+007011999GE19MSL   +99999+99999GF199999021999007011999999MA1101301999999REMMET051METAR SBUF 101900Z 11014KT 9999 FEW023 34/09 Q1013=
0142829860999992016101020004-09401-038251FM-15+026999999V0201001N007219999999N009999199+03201+01001999999ADDGA1021+007011999GE19MSL   +99999+99999GF199999021999007011999999MA1101401999999REMMET051METAR SBUF 102000Z 10014KT 9999 FEW023 32/10 Q1014=
0142829860999992016101021004-09401-038251FM-15+026999999V0201101N007719999999N009999199+03101+01301999999ADDGA1021+007011999GE19MSL   +99999+99999GF199999021999007011999999MA1101501999999REMMET051METAR SBUF 102100Z 11015KT 9999 FEW023 31/13 Q1015=
0072829860999992016101022004-09401-038251FM-15+026999999V0201301N009319999999Y999999999+02801+01701999999ADDMA1101501999999REMMET045METAR SBUF 102200Z 13018KT CAVOK 28/17 Q1015=
0072829860999992016101023004-09401-038251FM-15+026999999V0201201N008219999999Y999999999+02701+01701999999ADDMA1101601999999REMMET045METAR SBUF 102300Z 12016KT CAVOK 27/17 Q1016=
0072829860999992016101100004-09401-038251FM-15+026999999V0201201N007219999999Y999999999+02501+01701999999ADDMA1101701999999REMMET045METAR SBUF 110000Z 12014KT CAVOK 25/17 Q1017=
0072829860999992016101101004-09401-038251FM-15+026999999V0201201N006719999999Y999999999+02501+01701999999ADDMA1101801999999REMMET045METAR SBUF 110100Z 12013KT CAVOK 25/17 Q1018=
0142829860999992016101102004-09401-038251FM-15+026999999V0201301N005719999999N009999199+02401+01801999999ADDGA1041+006711999GE19MSL   +99999+99999GF199999041999006711999999MA1101801999999REMMET051METAR SBUF 110200Z 13011KT 9999 SCT022 24/18 Q1018=
0142829860999992016101103004-09401-038251FM-15+026999999V0201301N005719999999N009999199+02401+01901999999ADDGA1041+006711999GE19MSL   +99999+99999GF199999041999006711999999MA1101701999999REMMET051METAR SBUF 110300Z 13011KT 9999 SCT022 24/19 Q1017=
0142829860999992016101103454-09401-038251FM-16+026999999V0201301N005119999999N009999199+02301+01901999999ADDGA1041+006101999GE19MSL   +99999+99999GF199999041999006101999999MA1101601999999REMMET051SPECI SBUF 110345Z 13010KT 9999 SCT020 23/19 Q1016=
0142829860999992016101111154-09401-038251FM-16+026999999V0201301N006219999999N009999199+02801+01801999999ADDGA1041+005181999GE19MSL   +99999+99999GF199999041999005181999999MA1101801999999REMMET051SPECI SBUF 111115Z 13012KT 9999 SCT017 28/18 Q1018=
0165829860999992016101112004-09401-038251FM-15+026999999V0200901N006210243819N009999199+02801+01701999999ADDGA1041+005181999GA2071+024381999GE19MSL   +99999+99999GF199999041999005181999999MA1101801999999REMMET058METAR SBUF 111200Z 09012KT 9999 SCT017 BKN080 28/17 Q1018=
0165829860999992016101113004-09401-038251FM-15+026999999V0200901N005710243819N009999199+02901+01701999999ADDGA1021+005491999GA2071+024381999GE19MSL   +99999+99999GF199999021999005491999999MA1101801999999REMMET058METAR SBUF 111300Z 09011KT 9999 FEW018 BKN080 29/17 Q1018=
0165829860999992016101114004-09401-038251FM-15+026999999V0201001N00721024381CN009999199+03101+01501999999ADDGA1041+006101999GA2041+024381999GE19MSL   +99999+99999GF199999041999006101999999MA1101701999999REMMET058METAR SBUF 111400Z 10014KT 9999 SCT020 SCT080 31/15 Q1017=
0142829860999992016101115004-09401-038251FM-15+026999999V0201101N007219999999N009999199+03401+01501999999ADDGA1041+006401999GE19MSL   +99999+99999GF199999041999006401999999MA1101501999999REMMET051METAR SBUF 111500Z 11014KT 9999 SCT021 34/15 Q1015=
0142829860999992016101116004-09401-038251FM-15+026999999V0201201N007719999999N009999199+03301+01501999999ADDGA1041+006401999GE19MSL   +99999+99999GF199999041999006401999999MA1101401999999REMMET051METAR SBUF 111600Z 12015KT 9999 SCT021 33/15 Q1014=
0142829860999992016101117004-09401-038251FM-15+026999999V0201001N007710064019N009999199+03401+01401999999ADDGA1071+006401999GE19MSL   +99999+99999GF199999071999006401999999MA1101301999999REMMET051METAR SBUF 111700Z 10015KT 9999 BKN021 34/14 Q1013=
0142829860999992016101118004-09401-038251FM-15+026999999V0201101N006710064019N009999199+03301+01401999999ADDGA1071+006401999GE19MSL   +99999+99999GF199999071999006401999999MA1101201999999REMMET051METAR SBUF 111800Z 11013KT 9999 BKN021 33/14 Q1012=
0142829860999992016101119004-09401-038251FM-15+026999999V0201201N007719999999N009999199+03301+01401999999ADDGA1041+006401999GE19MSL   +99999+99999GF199999041999006401999999MA1101201999999REMMET051METAR SBUF 111900Z 12015KT 9999 SCT021 33/14 Q1012=
0142829860999992016101119454-09401-038251FM-16+026999999V0201101N007719999999N009999199+03201+01401999999ADDGA1041+006101999GE19MSL   +99999+99999GF199999041999006101999999MA1101301999999REMMET051SPECI SBUF 111945Z 11015KT 9999 SCT020 32/14 Q1013=
0142829860999992016101211154-09401-038251FM-16+026999999V0201201N005710057919N009999199+02501+02101999999ADDGA1071+005791999GE19MSL   +99999+99999GF199999071999005791999999MA1101801999999REMMET051SPECI SBUF 121115Z 12011KT 9999 BKN019 25/21 Q1018=
0142829860999992016101212004-09401-038251FM-15+026999999V0200901N005110057919N009999199+02701+02001999999ADDGA1071+005791999GE19MSL   +99999+99999GF199999071999005791999999MA1101801999999REMMET051METAR SBUF 121200Z 09010KT 9999 BKN019 27/20 Q1018=
0153829860999992016101213004-09401-038251FM-15+026999999V0200901N006710057919N009999199+02701+01801999999ADDGA1071+005791999GE19MSL   +99999+99999GF199999071999005791999999MA1101701999999MW1161REMMET056METAR SBUF 121300Z 09013KT 9999 VCSH BKN019 27/18 Q1017=
0151829860999992016101213204-09401-038251FM-16+026999999V0201201N008810054919N004000199+02301+02201999999ADDGA1081+005491999GE19MSL   +99999+99999GF199999081999005491999999MA1101801999999MW1631REMMET054SPECI SBUF 121320Z 12017KT 4000 RA OVC018 23/22 Q1018=
0165829860999992016101214004-09401-038251FM-15+026999999V0201201N004610213419N009999199+02601+02201999999ADDGA1041+005791999GA2071+021341999GE19MSL   +99999+99999GF199999041999005791999999MA1101801999999REMMET058METAR SBUF 121400Z 12009KT 9999 SCT019 BKN070 26/22 Q1018=
0165829860999992016101215004-09401-038251FM-15+026999999V0200901N006210061019N009999199+03001+01901999999ADDGA1071+006101999GA2071+021341999GE19MSL   +99999+99999GF199999071999006101999999MA1101601999999REMMET058METAR SBUF 121500Z 09012KT 9999 BKN020 BKN070 30/19 Q1016=
0165829860999992016101216004-09401-038251FM-15+026999999V0201001N00621021341CN009999199+03101+01901999999ADDGA1041+006101999GA2041+021341999GE19MSL   +99999+99999GF199999041999006101999999MA1101501999999REMMET058METAR SBUF 121600Z 10012KT 9999 SCT020 SCT070 31/19 Q1015=
0142829860999992016101217004-09401-038251FM-15+026999999V0200801N005119999999N009999199+03101+01801999999ADDGA1041+006101999GE19MSL   +99999+99999GF199999041999006101999999MA1101401999999REMMET051METAR SBUF 121700Z 08010KT 9999 SCT020 31/18 Q1014=
0142829860999992016101218004-09401-038251FM-15+026999999V0201101N006719999999N009999199+03201+01401999999ADDGA1021+006101999GE19MSL   +99999+99999GF199999021999006101999999MA1101301999999REMMET051METAR SBUF 121800Z 11013KT 9999 FEW020 32/14 Q1013=
0142829860999992016101219004-09401-038251FM-15+026999999V0201201N007219999999N009999199+03201+01401999999ADDGA1021+006101999GE19MSL   +99999+99999GF199999021999006101999999MA1101401999999REMMET051METAR SBUF 121900Z 12014KT 9999 FEW020 32/14 Q1014=
0142829860999992016101219454-09401-038251FM-16+026999999V0201201N006719999999N009999199+03101+01401999999ADDGA1021+006101999GE19MSL   +99999+99999GF199999021999006101999999MA1101401999999REMMET051SPECI SBUF 121945Z 12013KT 9999 FEW020 31/14 Q1014=
0142829860999992016101311154-09401-038251FM-16+026999999V0201101N005710054919N009999199+02701+01901999999ADDGA1071+005491999GE19MSL   +99999+99999GF199999071999005491999999MA1101901999999REMMET051SPECI SBUF 131115Z 11011KT 9999 BKN018 27/19 Q1019=
0165829860999992016101312004-09401-038251FM-15+026999999V0201001N005710213419N009999199+02801+01901999999ADDGA1041+005491999GA2071+021341999GE19MSL   +99999+99999GF199999041999005491999999MA1101901999999REMMET058METAR SBUF 131200Z 10011KT 9999 SCT018 BKN070 28/19 Q1019=
0142829860999992016101313004-09401-038251FM-15+026999999V0201101N006210061019N009999199+03101+01801999999ADDGA1071+006101999GE19MSL   +99999+99999GF199999071999006101999999MA1101901999999REMMET051METAR SBUF 131300Z 11012KT 9999 BKN020 31/18 Q1019=
0142829860999992016101314004-09401-038251FM-15+026999999V0200901N005710061019N009999199+03101+01801999999ADDGA1071+006101999GE19MSL   +99999+99999GF199999071999006101999999MA1101801999999REMMET051METAR SBUF 131400Z 09011KT 9999 BKN020 31/18 Q1018=
0142829860999992016101315004-09401-038251FM-15+026999999V0201101N005110061019N009999199+03201+01801999999ADDGA1071+006101999GE19MSL   +99999+99999GF199999071999006101999999MA1101701999999REMMET051METAR SBUF 131500Z 11010KT 9999 BKN020 32/18 Q1017=
0142829860999992016101316004-09401-038251FM-15+026999999V0200901N004610061019N009999199+03201+01701999999ADDGA1071+006101999GE19MSL   +99999+99999GF199999071999006101999999MA1101501999999REMMET051METAR SBUF 131600Z 09009KT 9999 BKN020 32/17 Q1015=
0142829860999992016101317004-09401-038251FM-15+026999999V0201001N005119999999N009999199+03401+01501999999ADDGA1041+006101999GE19MSL   +99999+99999GF199999041999006101999999MA1101401999999REMMET051METAR SBUF 131700Z 10010KT 9999 SCT020 34/15 Q1014=
0142829860999992016101318004-09401-038251FM-15+026999999V0201001N005719999999N009999199+03301+01501999999ADDGA1041+006101999GE19MSL   +99999+99999GF199999041999006101999999MA1101401999999REMMET051METAR SBUF 131800Z 10011KT 9999 SCT020 33/15 Q1014=
0165829860999992016101319004-09401-038251FM-15+026999999V0200901N00821021341CN009999199+03001+01801999999ADDGA1041+006101999GA2041+021341999GE19MSL   +99999+99999GF199999041999006101999999MA1101501999999REMMET058METAR SBUF 131900Z 09016KT 9999 SCT020 SCT070 30/18 Q1015=
0191829860999992016101319454-09401-038251FM-16+026999999V0201101N009319999999N009999199+02901+01901999999ADDGA1041+005791999GA2021+006101081GA3041+021341999GE19MSL   +99999+99999GF199999041999005791999999MA1101601999999REMMET068SPECI SBUF 131945Z 11018KT 9999 SCT019 FEW020TCU SCT070 29/19 Q1016=
0142829860999992016101411154-09401-038251FM-16+026999999V0200901N006719999999N009999199+02801+01901999999ADDGA1041+005491999GE19MSL   +99999+99999GF199999041999005491999999MA1102001999999REMMET051SPECI SBUF 141115Z 09013KT 9999 SCT018 28/19 Q1020=
0142829860999992016101412004-09401-038251FM-15+026999999V0200901N004610057919N009999199+02901+01801999999ADDGA1071+005791999GE19MSL   +99999+99999GF199999071999005791999999MA1102001999999REMMET051METAR SBUF 141200Z 09009KT 9999 BKN019 29/18 Q1020=
0142829860999992016101413004-09401-038251FM-15+026999999V0200801N006219999999N009999199+03001+01801999999ADDGA1041+006101999GE19MSL   +99999+99999GF199999041999006101999999MA1102001999999REMMET051METAR SBUF 141300Z 08012KT 9999 SCT020 30/18 Q1020=
0142829860999992016101414004-09401-038251FM-15+026999999V0200901N006219999999N009999199+03201+01601999999ADDGA1041+006101999GE19MSL   +99999+99999GF199999041999006101999999MA1101901999999REMMET051METAR SBUF 141400Z 09012KT 9999 SCT020 32/16 Q1019=
0153829860999992016101415004-09401-038251FM-15+026999999V0201001N007219999999N009999199+03401+01601999999ADDGA1041+006101999GE19MSL   +99999+99999GF199999041999006101999999MA1101701999999OC101241REMMET054METAR SBUF 141500Z 10014G24KT 9999 SCT020 34/16 Q1017=
0142829860999992016101416004-09401-038251FM-15+026999999V0200801N005119999999N009999199+03401+01401999999ADDGA1041+006101999GE19MSL   +99999+99999GF199999041999006101999999MA1101601999999REMMET051METAR SBUF 141600Z 08010KT 9999 SCT020 34/14 Q1016=
0142829860999992016101418004-09401-038251FM-15+026999999V0201101N006719999999N009999199+03301+01501999999ADDGA1041+006101999GE19MSL   +99999+99999GF199999041999006101999999MA1101501999999REMMET051METAR SBUF 141800Z 11013KT 9999 SCT020 33/15 Q1015=
0142829860999992016101419004-09401-038251FM-15+026999999V0201001N006219999999N009999199+03301+01501999999ADDGA1021+006101999GE19MSL   +99999+99999GF199999021999006101999999MA1101401999999REMMET051METAR SBUF 141900Z 10012KT 9999 FEW020 33/15 Q1014=
0142829860999992016101419454-09401-038251FM-16+026999999V0201001N007219999999N009999199+03101+01501999999ADDGA1021+006101999GE19MSL   +99999+99999GF199999021999006101999999MA1101501999999REMMET051SPECI SBUF 141945Z 10014KT 9999 FEW020 31/15 Q1015=
0142829860999992016101511154-09401-038251FM-16+026999999V0201201N006210051819N009999199+02801+01801999999ADDGA1071+005181999GE19MSL   +99999+99999GF199999071999005181999999MA1102001999999REMMET051SPECI SBUF 151115Z 12012KT 9999 BKN017 28/18 Q1020=
0142829860999992016101512004-09401-038251FM-15+026999999V0201001N006219999999N009999199+02901+01701999999ADDGA1041+005491999GE19MSL   +99999+99999GF199999041999005491999999MA1102001999999REMMET051METAR SBUF 151200Z 10012KT 9999 SCT018 29/17 Q1020=
0142829860999992016101513004-09401-038251FM-15+026999999V0201001N007219999999N009999199+03101+01301999999ADDGA1021+006101999GE19MSL   +99999+99999GF199999021999006101999999MA1101901999999REMMET051METAR SBUF 151300Z 10014KT 9999 FEW020 31/13 Q1019=
0142829860999992016101514004-09401-038251FM-15+026999999V0201101N006219999999N009999199+03201+01501999999ADDGA1021+006101999GE19MSL   +99999+99999GF199999021999006101999999MA1101801999999REMMET051METAR SBUF 151400Z 11012KT 9999 FEW020 32/15 Q1018=
0142829860999992016101515004-09401-038251FM-15+026999999V0201001N005719999999N009999199+03401+01401999999ADDGA1041+006401999GE19MSL   +99999+99999GF199999041999006401999999MA1101701999999REMMET051METAR SBUF 151500Z 10011KT 9999 SCT021 34/14 Q1017=
0142829860999992016101516004-09401-038251FM-15+026999999V0200801N005119999999N009999199+03401+01301999999ADDGA1041+006401999GE19MSL   +99999+99999GF199999041999006401999999MA1101501999999REMMET051METAR SBUF 151600Z 08010KT 9999 SCT021 34/13 Q1015=
0142829860999992016101517004-09401-038251FM-15+026999999V0201001N006219999999N009999199+03501+01301999999ADDGA1041+006401999GE19MSL   +99999+99999GF199999041999006401999999MA1101401999999REMMET051METAR SBUF 151700Z 10012KT 9999 SCT021 35/13 Q1014=
0142829860999992016101518004-09401-038251FM-15+026999999V0200901N006219999999N009999199+03401+01301999999ADDGA1041+006401999GE19MSL   +99999+99999GF199999041999006401999999MA1101301999999REMMET051METAR SBUF 151800Z 09012KT 9999 SCT021 34/13 Q1013=
0142829860999992016101519004-09401-038251FM-15+026999999V0201001N006219999999N009999199+03301+01301999999ADDGA1041+006401999GE19MSL   +99999+99999GF199999041999006401999999MA1101301999999REMMET051METAR SBUF 151900Z 10012KT 9999 SCT021 33/13 Q1013=
0142829860999992016101519454-09401-038251FM-16+026999999V0201101N006219999999N009999199+03201+01301999999ADDGA1021+006101999GE19MSL   +99999+99999GF199999021999006101999999MA1101301999999REMMET051SPECI SBUF 151945Z 11012KT 9999 FEW020 32/13 Q1013=
0165829860999992016101611154-09401-038251FM-16+026999999V0201001N005110054919N009999199+02501+01901999999ADDGA1041+005181999GA2071+005491999GE19MSL   +99999+99999GF199999041999005181999999MA1101801999999REMMET058SPECI SBUF 161115Z 10010KT 9999 SCT017 BKN018 25/19 Q1018=
0165829860999992016101612004-09401-038251FM-15+026999999V0201301N004110054919N009999199+02601+01901999999ADDGA1041+005181999GA2071+005491999GE19MSL   +99999+99999GF199999041999005181999999MA1101801999999REMMET058METAR SBUF 161200Z 13008KT 9999 SCT017 BKN018 26/19 Q1018=
0188829860999992016101614004-09401-038251FM-15+026999999V0201301N00621005791CN009999199+02901+01801999999ADDGA1021+005491999GA2041+005791999GA3071+021341999GE19MSL   +99999+99999GF199999021999005491999999MA1101701999999REMMET065METAR SBUF 161400Z 13012KT 9999 FEW018 SCT019 BKN070 29/18 Q1017=
0142829860999992016101615004-09401-038251FM-15+026999999V0201301N005110061019N009999199+03101+01801999999ADDGA1071+006101999GE19MSL   +99999+99999GF199999071999006101999999MA1101601999999REMMET051METAR SBUF 161500Z 13010KT 9999 BKN020 31/18 Q1016=
0142829860999992016101616004-09401-038251FM-15+026999999V0201301N005719999999N009999199+03301+01601999999ADDGA1041+006401999GE19MSL   +99999+99999GF199999041999006401999999MA1101401999999REMMET051METAR SBUF 161600Z 13011KT 9999 SCT021 33/16 Q1014=
0142829860999992016101617004-09401-038251FM-15+026999999V0201101N005719999999N009999199+03401+01501999999ADDGA1041+006401999GE19MSL   +99999+99999GF199999041999006401999999MA1101301999999REMMET051METAR SBUF 161700Z 11011KT 9999 SCT021 34/15 Q1013=
0142829860999992016101618004-09401-038251FM-15+026999999V0201201N006219999999N009999199+03401+01401999999ADDGA1041+006401999GE19MSL   +99999+99999GF199999041999006401999999MA1101201999999REMMET051METAR SBUF 161800Z 12012KT 9999 SCT021 34/14 Q1012=
0142829860999992016101619004-09401-038251FM-15+026999999V0201301N006219999999N009999199+03401+01501999999ADDGA1021+006401999GE19MSL   +99999+99999GF199999021999006401999999MA1101201999999REMMET051METAR SBUF 161900Z 13012KT 9999 FEW021 34/15 Q1012=
0142829860999992016101619454-09401-038251FM-16+026999999V0201101N007219999999N009999199+03301+01501999999ADDGA1021+006401999GE19MSL   +99999+99999GF199999021999006401999999MA1101201999999REMMET051SPECI SBUF 161945Z 11014KT 9999 FEW021 33/15 Q1012=
0142829860999992016101711154-09401-038251FM-16+026999999V0200901N004110054919N009999199+02801+01901999999ADDGA1071+005491999GE19MSL   +99999+99999GF199999071999005491999999MA1101701999999REMMET051SPECI SBUF 171115Z 09008KT 9999 BKN018 28/19 Q1017=
0142829860999992016101712004-09401-038251FM-15+026999999V0201001N005719999999N009999199+03001+01801999999ADDGA1041+006101999GE19MSL   +99999+99999GF199999041999006101999999MA1101801999999REMMET051METAR SBUF 171200Z 10011KT 9999 SCT020 30/18 Q1018=
0142829860999992016101713004-09401-038251FM-15+026999999V0201001N004619999999N009999199+03101+01701999999ADDGA1041+006101999GE19MSL   +99999+99999GF199999041999006101999999MA1101701999999REMMET051METAR SBUF 171300Z 10009KT 9999 SCT020 31/17 Q1017=
0142829860999992016101714004-09401-038251FM-15+026999999V0201201N005119999999N009999199+03301+01501999999ADDGA1041+006101999GE19MSL   +99999+99999GF199999041999006101999999MA1101601999999REMMET051METAR SBUF 171400Z 12010KT 9999 SCT020 33/15 Q1016=
0142829860999992016101716004-09401-038251FM-15+026999999V0201001N004619999999N009999199+03501+01501999999ADDGA1041+007011999GE19MSL   +99999+99999GF199999041999007011999999MA1101301999999REMMET051METAR SBUF 171600Z 10009KT 9999 SCT023 35/15 Q1013=
0142829860999992016101717004-09401-038251FM-15+026999999V0200801N003619999999N009999199+03601+01301999999ADDGA1021+007011999GE19MSL   +99999+99999GF199999021999007011999999MA1101201999999REMMET051METAR SBUF 171700Z 08007KT 9999 FEW023 36/13 Q1012=
0142829860999992016101718004-09401-038251FM-15+026999999V0201001N005119999999N009999199+03501+01301999999ADDGA1041+006711999GE19MSL   +99999+99999GF199999041999006711999999MA1101201999999REMMET051METAR SBUF 171800Z 10010KT 9999 SCT022 35/13 Q1012=
0142829860999992016101719004-09401-038251FM-15+026999999V0200901N002619999999N009999199+03501+00901999999ADDGA1041+006711999GE19MSL   +99999+99999GF199999041999006711999999MA1101201999999REMMET051METAR SBUF 171900Z 09005KT 9999 SCT022 35/09 Q1012=
0142829860999992016101719454-09401-038251FM-16+026999999V0201101N004119999999N009999199+03401+01001999999ADDGA1021+006711999GE19MSL   +99999+99999GF199999021999006711999999MA1101201999999REMMET051SPECI SBUF 171945Z 11008KT 9999 FEW022 34/10 Q1012=
0142829860999992016101811154-09401-038251FM-16+026999999V0201001N002619999999N009999199+02701+01901999999ADDGA1041+005791999GE19MSL   +99999+99999GF199999041999005791999999MA1101801999999REMMET051SPECI SBUF 181115Z 10005KT 9999 SCT019 27/19 Q1018=
0142829860999992016101812004-09401-038251FM-15+026999999V0201301N003619999999N009999199+02901+01901999999ADDGA1041+006101999GE19MSL   +99999+99999GF199999041999006101999999MA1101801999999REMMET051METAR SBUF 181200Z 13007KT 9999 SCT020 29/19 Q1018=
0142829860999992016101813004-09401-038251FM-15+026999999V0201001N004119999999N009999199+03201+01701999999ADDGA1041+006101999GE19MSL   +99999+99999GF199999041999006101999999MA1101701999999REMMET051METAR SBUF 181300Z 10008KT 9999 SCT020 32/17 Q1017=
0142829860999992016101814004-09401-038251FM-15+026999999V0201101N004119999999N009999199+03301+01601999999ADDGA1041+006101999GE19MSL   +99999+99999GF199999041999006101999999MA1101601999999REMMET051METAR SBUF 181400Z 11008KT 9999 SCT020 33/16 Q1016=
0142829860999992016101815004-09401-038251FM-15+026999999V0201201N004119999999N009999199+03301+01601999999ADDGA1041+006401999GE19MSL   +99999+99999GF199999041999006401999999MA1101501999999REMMET051METAR SBUF 181500Z 12008KT 9999 SCT021 33/16 Q1015=
0142829860999992016101816004-09401-038251FM-15+026999999V0201201N004619999999N009999199+03501+01501999999ADDGA1041+006401999GE19MSL   +99999+99999GF199999041999006401999999MA1101401999999REMMET051METAR SBUF 181600Z 12009KT 9999 SCT021 35/15 Q1014=
0142829860999992016101817004-09401-038251FM-15+026999999V0201301N004619999999N009999199+03501+01401999999ADDGA1041+006401999GE19MSL   +99999+99999GF199999041999006401999999MA1101301999999REMMET051METAR SBUF 181700Z 13009KT 9999 SCT021 35/14 Q1013=
0142829860999992016101818004-09401-038251FM-15+026999999V0201301N003119999999N009999199+03601+01401999999ADDGA1041+006401999GE19MSL   +99999+99999GF199999041999006401999999MA1101201999999REMMET051METAR SBUF 181800Z 13006KT 9999 SCT021 36/14 Q1012=
0142829860999992016101819004-09401-038251FM-15+026999999V0200901N004619999999N009999199+03501+01401999999ADDGA1041+006401999GE19MSL   +99999+99999GF199999041999006401999999MA1101201999999REMMET051METAR SBUF 181900Z 09009KT 9999 SCT021 35/14 Q1012=
0142829860999992016101819454-09401-038251FM-16+026999999V0201101N005119999999N009999199+03401+01401999999ADDGA1021+006101999GE19MSL   +99999+99999GF199999021999006101999999MA1101201999999REMMET051SPECI SBUF 181945Z 11010KT 9999 FEW020 34/14 Q1012=
0142829860999992016101911154-09401-038251FM-16+026999999V0201401N003619999999N009999199+02701+01801999999ADDGA1041+005181999GE19MSL   +99999+99999GF199999041999005181999999MA1101601999999REMMET051SPECI SBUF 191115Z 14007KT 9999 SCT017 27/18 Q1016=
0142829860999992016101912004-09401-038251FM-15+026999999V0200901N004619999999N009999199+03001+01801999999ADDGA1041+005491999GE19MSL   +99999+99999GF199999041999005491999999MA1101601999999REMMET051METAR SBUF 191200Z 09009KT 9999 SCT018 30/18 Q1016=
0142829860999992016101913004-09401-038251FM-15+026999999V0201001N005719999999N009999199+03101+01701999999ADDGA1041+005791999GE19MSL   +99999+99999GF199999041999005791999999MA1101501999999REMMET051METAR SBUF 191300Z 10011KT 9999 SCT019 31/17 Q1015=
0142829860999992016101914004-09401-038251FM-15+026999999V0201201N004619999999N009999199+03301+01601999999ADDGA1041+006101999GE19MSL   +99999+99999GF199999041999006101999999MA1101401999999REMMET051METAR SBUF 191400Z 12009KT 9999 SCT020 33/16 Q1014=
0142829860999992016101915004-09401-038251FM-15+026999999V0201301N005119999999N009999199+03401+01601999999ADDGA1041+006401999GE19MSL   +99999+99999GF199999041999006401999999MA1101301999999REMMET051METAR SBUF 191500Z 13010KT 9999 SCT021 34/16 Q1013=
0142829860999992016101916004-09401-038251FM-15+026999999V0201401N005119999999N009999199+03501+01501999999ADDGA1041+006401999GE19MSL   +99999+99999GF199999041999006401999999MA1101101999999REMMET051METAR SBUF 191600Z 14010KT 9999 SCT021 35/15 Q1011=
0142829860999992016101917004-09401-038251FM-15+026999999V0201301N004619999999N009999199+03501+01401999999ADDGA1041+006401999GE19MSL   +99999+99999GF199999041999006401999999MA1101101999999REMMET051METAR SBUF 191700Z 13009KT 9999 SCT021 35/14 Q1011=
0142829860999992016101918004-09401-038251FM-15+026999999V0201201N005119999999N009999199+03501+01301999999ADDGA1041+006401999GE19MSL   +99999+99999GF199999041999006401999999MA1101001999999REMMET051METAR SBUF 191800Z 12010KT 9999 SCT021 35/13 Q1010=
0142829860999992016101919004-09401-038251FM-15+026999999V0201201N004619999999N009999199+03501+01301999999ADDGA1041+006401999GE19MSL   +99999+99999GF199999041999006401999999MA1101001999999REMMET051METAR SBUF 191900Z 12009KT 9999 SCT021 35/13 Q1010=
0142829860999992016101920004-09401-038251FM-15+026999999V0201201N005119999999N009999199+03301+01401999999ADDGA1041+006101999GE19MSL   +99999+99999GF199999041999006101999999MA1101101999999REMMET051METAR SBUF 192000Z 12010KT 9999 SCT020 33/14 Q1011=
0142829860999992016101921004-09401-038251FM-15+026999999V0201001N006719999999N009999199+03101+01501999999ADDGA1021+006101999GE19MSL   +99999+99999GF199999021999006101999999MA1101101999999REMMET051METAR SBUF 192100Z 10013KT 9999 FEW020 31/15 Q1011=
0142829860999992016101921454-09401-038251FM-16+026999999V0201201N007719999999N009999199+03001+01701999999ADDGA1021+006101999GE19MSL   +99999+99999GF199999021999006101999999MA1101201999999REMMET051SPECI SBUF 192145Z 12015KT 9999 FEW020 30/17 Q1012=
0142829860999992016102011154-09401-038251FM-16+026999999V0201101N003619999999N009999199+02801+01801999999ADDGA1041+006101999GE19MSL   +99999+99999GF199999041999006101999999MA1101501999999REMMET051SPECI SBUF 201115Z 11007KT 9999 SCT020 28/18 Q1015=
0142829860999992016102012004-09401-038251FM-15+026999999V0201301N004119999999N009999199+03001+01801999999ADDGA1041+006101999GE19MSL   +99999+99999GF199999041999006101999999MA1101501999999REMMET051METAR SBUF 201200Z 13008KT 9999 SCT020 30/18 Q1015=
0142829860999992016102013004-09401-038251FM-15+026999999V0201001N003619999999N009999199+03101+01601999999ADDGA1041+006101999GE19MSL   +99999+99999GF199999041999006101999999MA1101401999999REMMET051METAR SBUF 201300Z 10007KT 9999 SCT020 31/16 Q1014=
0142829860999992016102015004-09401-038251FM-15+026999999V0201601N003119999999N009999199+03401+01501999999ADDGA1041+006711999GE19MSL   +99999+99999GF199999041999006711999999MA1101201999999REMMET051METAR SBUF 201500Z 16006KT 9999 SCT022 34/15 Q1012=
0142829860999992016102016004-09401-038251FM-15+026999999V0201301N003119999999N009999199+03501+01501999999ADDGA1041+006711999GE19MSL   +99999+99999GF199999041999006711999999MA1101101999999REMMET051METAR SBUF 201600Z 13006KT 9999 SCT022 35/15 Q1011=
0142829860999992016102017004-09401-038251FM-15+026999999V0201601N003119999999N009999199+03501+01201999999ADDGA1021+006711999GE19MSL   +99999+99999GF199999021999006711999999MA1101001999999REMMET051METAR SBUF 201700Z 16006KT 9999 FEW022 35/12 Q1010=
0142829860999992016102019004-09401-038251FM-15+026999999V0201001N004619999999N009999199+03501+01101999999ADDGA1021+007621999GE19MSL   +99999+99999GF199999021999007621999999MA1100901999999REMMET051METAR SBUF 201900Z 10009KT 9999 FEW025 35/11 Q1009=
0142829860999992016102019454-09401-038251FM-16+026999999V0201001N004619999999N009999199+03401+00901999999ADDGA1021+007621999GE19MSL   +99999+99999GF199999021999007621999999MA1100901999999REMMET051SPECI SBUF 201945Z 10009KT 9999 FEW025 34/09 Q1009=
0142829860999992016102111154-09401-038251FM-16+026999999V0200801N001519999999N009999199+02801+02001999999ADDGA1041+006101999GE19MSL   +99999+99999GF199999041999006101999999MA1101501999999REMMET051SPECI SBUF 211115Z 08003KT 9999 SCT020 28/20 Q1015=
0142829860999992016102112004-09401-038251FM-15+026999999V0201101N002619999999N009999199+03001+01901999999ADDGA1021+006711999GE19MSL   +99999+99999GF199999021999006711999999MA1101501999999REMMET051METAR SBUF 211200Z 11005KT 9999 FEW022 30/19 Q1015=
0142829860999992016102113004-09401-038251FM-15+026999999V0201001N003119999999N009999199+03001+01901999999ADDGA1041+006711999GE19MSL   +99999+99999GF199999041999006711999999MA1101401999999REMMET051METAR SBUF 211300Z 10006KT 9999 SCT022 30/19 Q1014=
0142829860999992016102114004-09401-038251FM-15+026999999V0201701N002610061019N009999199+03301+01801999999ADDGA1071+006101999GE19MSL   +99999+99999GF199999071999006101999999MA1101401999999REMMET051METAR SBUF 211400Z 17005KT 9999 BKN020 33/18 Q1014=
0142829860999992016102116004-09401-038251FM-15+026999999V0201701N003119999999N009999199+03501+01601999999ADDGA1041+006401999GE19MSL   +99999+99999GF199999041999006401999999MA1101101999999REMMET051METAR SBUF 211600Z 17006KT 9999 SCT021 35/16 Q1011=
0142829860999992016102117004-09401-038251FM-15+026999999V0201501N003119999999N009999199+03601+01501999999ADDGA1041+006401999GE19MSL   +99999+99999GF199999041999006401999999MA1101101999999REMMET051METAR SBUF 211700Z 15006KT 9999 SCT021 36/15 Q1011=
0142829860999992016102118004-09401-038251FM-15+026999999V0201501N003119999999N009999199+03601+01401999999ADDGA1021+006401999GE19MSL   +99999+99999GF199999021999006401999999MA1101001999999REMMET051METAR SBUF 211800Z 15006KT 9999 FEW021 36/14 Q1010=
0142829860999992016102119004-09401-038251FM-15+026999999V0201501N003619999999N009999199+03601+01201999999ADDGA1021+006401999GE19MSL   +99999+99999GF199999021999006401999999MA1100901999999REMMET051METAR SBUF 211900Z 15007KT 9999 FEW021 36/12 Q1009=
0142829860999992016102119454-09401-038251FM-16+026999999V0201401N004119999999N009999199+03501+01301999999ADDGA1021+006401999GE19MSL   +99999+99999GF199999021999006401999999MA1100901999999REMMET051SPECI SBUF 211945Z 14008KT 9999 FEW021 35/13 Q1009=
0142829860999992016102211154-09401-038251FM-16+026999999V0201101N004110051819N009999199+02701+01901999999ADDGA1071+005181999GE19MSL   +99999+99999GF199999071999005181999999MA1101601999999REMMET051SPECI SBUF 221115Z 11008KT 9999 BKN017 27/19 Q1016=
0142829860999992016102212004-09401-038251FM-15+026999999V0201001N004110057919N009999199+03001+01901999999ADDGA1071+005791999GE19MSL   +99999+99999GF199999071999005791999999MA1101601999999REMMET051METAR SBUF 221200Z 10008KT 9999 BKN019 30/19 Q1016=
0142829860999992016102213004-09401-038251FM-15+026999999V0201101N004110061019N009999199+03301+01801999999ADDGA1071+006101999GE19MSL   +99999+99999GF199999071999006101999999MA1101501999999REMMET051METAR SBUF 221300Z 11008KT 9999 BKN020 33/18 Q1015=
0142829860999992016102214004-09401-038251FM-15+026999999V0200801N004110061019N009999199+03401+01801999999ADDGA1071+006101999GE19MSL   +99999+99999GF199999071999006101999999MA1101501999999REMMET051METAR SBUF 221400Z 08008KT 9999 BKN020 34/18 Q1015=
0142829860999992016102216004-09401-038251FM-15+026999999V0201201N005110061019N009999199+03601+01501999999ADDGA1071+006101999GE19MSL   +99999+99999GF199999071999006101999999MA1101301999999REMMET051METAR SBUF 221600Z 12010KT 9999 BKN020 36/15 Q1013=
0142829860999992016102218004-09401-038251FM-15+026999999V0201301N005119999999N009999199+03601+01401999999ADDGA1041+006401999GE19MSL   +99999+99999GF199999041999006401999999MA1101101999999REMMET051METAR SBUF 221800Z 13010KT 9999 SCT021 36/14 Q1011=
0142829860999992016102219004-09401-038251FM-15+026999999V0201201N005119999999N009999199+03601+01201999999ADDGA1041+006401999GE19MSL   +99999+99999GF199999041999006401999999MA1101101999999REMMET051METAR SBUF 221900Z 12010KT 9999 SCT021 36/12 Q1011=
0142829860999992016102219454-09401-038251FM-16+026999999V0201201N006219999999N009999199+03401+01701999999ADDGA1041+006401999GE19MSL   +99999+99999GF199999041999006401999999MA1101201999999REMMET051SPECI SBUF 221945Z 12012KT 9999 SCT021 34/17 Q1012=
0142829860999992016102311154-09401-038251FM-16+026999999V0201101N007210051819N009999199+02801+01801999999ADDGA1071+005181999GE19MSL   +99999+99999GF199999071999005181999999MA1101801999999REMMET051SPECI SBUF 231115Z 11014KT 9999 BKN017 28/18 Q1018=
0142829860999992016102312004-09401-038251FM-15+026999999V0200801N004610054919N009999199+03001+01801999999ADDGA1071+005491999GE19MSL   +99999+99999GF199999071999005491999999MA1101801999999REMMET051METAR SBUF 231200Z 08009KT 9999 BKN018 30/18 Q1018=
0142829860999992016102313004-09401-038251FM-15+026999999V0201001N006710061019N009999199+03201+01501999999ADDGA1071+006101999GE19MSL   +99999+99999GF199999071999006101999999MA1101701999999REMMET051METAR SBUF 231300Z 10013KT 9999 BKN020 32/15 Q1017=
0142829860999992016102314004-09401-038251FM-15+026999999V0200901N006219999999N009999199+03301+01401999999ADDGA1041+006401999GE19MSL   +99999+99999GF199999041999006401999999MA1101601999999REMMET051METAR SBUF 231400Z 09012KT 9999 SCT021 33/14 Q1016=
0142829860999992016102316004-09401-038251FM-15+026999999V0200901N005119999999N009999199+03501+01301999999ADDGA1021+006711999GE19MSL   +99999+99999GF199999021999006711999999MA1101301999999REMMET051METAR SBUF 231600Z 09010KT 9999 FEW022 35/13 Q1013=
0142829860999992016102317004-09401-038251FM-15+026999999V0200901N005119999999N009999199+03601+01201999999ADDGA1021+006711999GE19MSL   +99999+99999GF199999021999006711999999MA1101301999999REMMET051METAR SBUF 231700Z 09010KT 9999 FEW022 36/12 Q1013=
0142829860999992016102318004-09401-038251FM-15+026999999V0200901N005719999999N009999199+03601+01101999999ADDGA1021+006711999GE19MSL   +99999+99999GF199999021999006711999999MA1101201999999REMMET051METAR SBUF 231800Z 09011KT 9999 FEW022 36/11 Q1012=
0142829860999992016102319004-09401-038251FM-15+026999999V0201001N006219999999N009999199+03501+01201999999ADDGA1021+006711999GE19MSL   +99999+99999GF199999021999006711999999MA1101201999999REMMET051METAR SBUF 231900Z 10012KT 9999 FEW022 35/12 Q1012=
0142829860999992016102319454-09401-038251FM-16+026999999V0201001N006719999999N009999199+03401+01201999999ADDGA1021+006401999GE19MSL   +99999+99999GF199999021999006401999999MA1101301999999REMMET051SPECI SBUF 231945Z 10013KT 9999 FEW021 34/12 Q1013=
0142829860999992016102411154-09401-038251FM-16+026999999V0201001N005710051819N009999199+02901+01901999999ADDGA1071+005181999GE19MSL   +99999+99999GF199999071999005181999999MA1101701999999REMMET051SPECI SBUF 241115Z 10011KT 9999 BKN017 29/19 Q1017=
0142829860999992016102412004-09401-038251FM-15+026999999V0200901N004610054919N009999199+03001+01701999999ADDGA1071+005491999GE19MSL   +99999+99999GF199999071999005491999999MA1101701999999REMMET051METAR SBUF 241200Z 09009KT 9999 BKN018 30/17 Q1017=
0142829860999992016102413004-09401-038251FM-15+026999999V0201101N004619999999N009999199+03201+01601999999ADDGA1041+005791999GE19MSL   +99999+99999GF199999041999005791999999MA1101701999999REMMET051METAR SBUF 241300Z 11009KT 9999 SCT019 32/16 Q1017=
0142829860999992016102415004-09401-038251FM-15+026999999V0201001N004619999999N009999199+03401+01301999999ADDGA1041+006101999GE19MSL   +99999+99999GF199999041999006101999999MA1101501999999REMMET051METAR SBUF 241500Z 10009KT 9999 SCT020 34/13 Q1015=
0142829860999992016102416004-09401-038251FM-15+026999999V0201101N004119999999N009999199+03501+01301999999ADDGA1041+006711999GE19MSL   +99999+99999GF199999041999006711999999MA1101301999999REMMET051METAR SBUF 241600Z 11008KT 9999 SCT022 35/13 Q1013=
0142829860999992016102417004-09401-038251FM-15+026999999V0201101N004619999999N009999199+03601+01201999999ADDGA1041+007011999GE19MSL   +99999+99999GF199999041999007011999999MA1101201999999REMMET051METAR SBUF 241700Z 11009KT 9999 SCT023 36/12 Q1012=
0142829860999992016102418004-09401-038251FM-15+026999999V0200801N005119999999N009999199+03501+01001999999ADDGA1041+007011999GE19MSL   +99999+99999GF199999041999007011999999MA1101201999999REMMET051METAR SBUF 241800Z 08010KT 9999 SCT023 35/10 Q1012=
0142829860999992016102419004-09401-038251FM-15+026999999V0200901N004619999999N009999199+03501+01101999999ADDGA1021+007011999GE19MSL   +99999+99999GF199999021999007011999999MA1101201999999REMMET051METAR SBUF 241900Z 09009KT 9999 FEW023 35/11 Q1012=
0142829860999992016102419454-09401-038251FM-16+026999999V0201101N005119999999N009999199+03001+01301999999ADDGA1021+007011999GE19MSL   +99999+99999GF199999021999007011999999MA1101201999999REMMET051SPECI SBUF 241945Z 11010KT 9999 FEW023 30/13 Q1012=
0142829860999992016102511154-09401-038251FM-16+026999999V0200901N004610057919N009999199+02801+01901999999ADDGA1071+005791999GE19MSL   +99999+99999GF199999071999005791999999MA1101601999999REMMET051SPECI SBUF 251115Z 09009KT 9999 BKN019 28/19 Q1016=
0142829860999992016102512004-09401-038251FM-15+026999999V0201001N005719999999N009999199+02801+01801999999ADDGA1041+005791999GE19MSL   +99999+99999GF199999041999005791999999MA1101601999999REMMET051METAR SBUF 251200Z 10011KT 9999 SCT019 28/18 Q1016=
0142829860999992016102513004-09401-038251FM-15+026999999V0201001N006219999999N009999199+03101+01701999999ADDGA1041+006101999GE19MSL   +99999+99999GF199999041999006101999999MA1101601999999REMMET051METAR SBUF 251300Z 10012KT 9999 SCT020 31/17 Q1016=
0142829860999992016102514004-09401-038251FM-15+026999999V0201101N005719999999N009999199+03101+01601999999ADDGA1041+006711999GE19MSL   +99999+99999GF199999041999006711999999MA1101501999999REMMET051METAR SBUF 251400Z 11011KT 9999 SCT022 31/16 Q1015=
0142829860999992016102515004-09401-038251FM-15+026999999V0201201N005719999999N009999199+03401+01601999999ADDGA1041+006401999GE19MSL   +99999+99999GF199999041999006401999999MA1101301999999REMMET051METAR SBUF 251500Z 12011KT 9999 SCT021 34/16 Q1013=
0142829860999992016102516004-09401-038251FM-15+026999999V0201401N006219999999N009999199+03501+01301999999ADDGA1041+006711999GE19MSL   +99999+99999GF199999041999006711999999MA1101201999999REMMET051METAR SBUF 251600Z 14012KT 9999 SCT022 35/13 Q1012=
0142829860999992016102517004-09401-038251FM-15+026999999V0200901N006219999999N009999199+03601+01201999999ADDGA1021+006711999GE19MSL   +99999+99999GF199999021999006711999999MA1101101999999REMMET051METAR SBUF 251700Z 09012KT 9999 FEW022 36/12 Q1011=
0153829860999992016102518004-09401-038251FM-15+026999999V0200801N004619999999N009999199+03601+01301999999ADDGA1041+006711999GE19MSL   +99999+99999GF199999041999006711999999MA1101001999999OC101131REMMET054METAR SBUF 251800Z 08009G22KT 9999 SCT022 36/13 Q1010=
0165829860999992016102519004-09401-038251FM-15+026999999V0200801N00671021341CN009999199+03401+01501999999ADDGA1041+007621999GA2041+021341999GE19MSL   +99999+99999GF199999041999007621999999MA1101001999999REMMET058METAR SBUF 251900Z 08013KT 9999 SCT025 SCT070 34/15 Q1010=
0142829860999992016102519454-09401-038251FM-16+026999999V0200901N006719999999N009999199+03201+01501999999ADDGA1021+006711999GE19MSL   +99999+99999GF199999021999006711999999MA1101001999999REMMET051SPECI SBUF 251945Z 09013KT 9999 FEW022 32/15 Q1010=
0142829860999992016102611154-09401-038251FM-16+026999999V0201101N005719999999N009999199+02801+01901999999ADDGA1041+005791999GE19MSL   +99999+99999GF199999041999005791999999MA1101601999999REMMET051SPECI SBUF 261115Z 11011KT 9999 SCT019 28/19 Q1016=
0142829860999992016102612004-09401-038251FM-15+026999999V0201001N006219999999N009999199+03001+01801999999ADDGA1041+006101999GE19MSL   +99999+99999GF199999041999006101999999MA1101501999999REMMET051METAR SBUF 261200Z 10012KT 9999 SCT020 30/18 Q1015=
0142829860999992016102613004-09401-038251FM-15+026999999V0201101N006219999999N009999199+03201+01701999999ADDGA1041+006101999GE19MSL   +99999+99999GF199999041999006101999999MA1101501999999REMMET051METAR SBUF 261300Z 11012KT 9999 SCT020 32/17 Q1015=
0142829860999992016102615004-09401-038251FM-15+026999999V0201401N004619999999N009999199+03401+01601999999ADDGA1021+006401999GE19MSL   +99999+99999GF199999021999006401999999MA1101201999999REMMET051METAR SBUF 261500Z 14009KT 9999 FEW021 34/16 Q1012=
0142829860999992016102616004-09401-038251FM-15+026999999V0201301N004619999999N009999199+03501+01401999999ADDGA1041+006711999GE19MSL   +99999+99999GF199999041999006711999999MA1101101999999REMMET051METAR SBUF 261600Z 13009KT 9999 SCT022 35/14 Q1011=
0142829860999992016102617004-09401-038251FM-15+026999999V0201101N005719999999N009999199+03601+01401999999ADDGA1021+007011999GE19MSL   +99999+99999GF199999021999007011999999MA1101001999999REMMET051METAR SBUF 261700Z 11011KT 9999 FEW023 36/14 Q1010=
0142829860999992016102618004-09401-038251FM-15+026999999V0201201N004119999999N009999199+03601+01301999999ADDGA1021+007011999GE19MSL   +99999+99999GF199999021999007011999999MA1100901999999REMMET051METAR SBUF 261800Z 12008KT 9999 FEW023 36/13 Q1009=
0142829860999992016102619004-09401-038251FM-15+026999999V0201101N004619999999N009999199+03501+01301999999ADDGA1021+007011999GE19MSL   +99999+99999GF199999021999007011999999MA1100901999999REMMET051METAR SBUF 261900Z 11009KT 9999 FEW023 35/13 Q1009=
0142829860999992016102619454-09401-038251FM-16+026999999V0201001N005119999999N009999199+03401+01301999999ADDGA1021+006711999GE19MSL   +99999+99999GF199999021999006711999999MA1100901999999REMMET051SPECI SBUF 261945Z 10010KT 9999 FEW022 34/13 Q1009=
0142829860999992016102711154-09401-038251FM-16+026999999V0201001N004610051819N009999199+02801+01801999999ADDGA1071+005181999GE19MSL   +99999+99999GF199999071999005181999999MA1101601999999REMMET051SPECI SBUF 271115Z 10009KT 9999 BKN017 28/18 Q1016=
0142829860999992016102712004-09401-038251FM-15+026999999V0201001N005710051819N009999199+02801+01701999999ADDGA1071+005181999GE19MSL   +99999+99999GF199999071999005181999999MA1101601999999REMMET051METAR SBUF 271200Z 10011KT 9999 BKN017 28/17 Q1016=
0142829860999992016102713004-09401-038251FM-15+026999999V0201301N006710057919N009999199+03101+01601999999ADDGA1071+005791999GE19MSL   +99999+99999GF199999071999005791999999MA1101501999999REMMET051METAR SBUF 271300Z 13013KT 9999 BKN019 31/16 Q1015=
0142829860999992016102714004-09401-038251FM-15+026999999V0201001N006719999999N009999199+03301+01401999999ADDGA1021+006401999GE19MSL   +99999+99999GF199999021999006401999999MA1101401999999REMMET051METAR SBUF 271400Z 10013KT 9999 FEW021 33/14 Q1014=
0142829860999992016102715004-09401-038251FM-15+026999999V0201001N005119999999N009999199+03401+01301999999ADDGA1021+007011999GE19MSL   +99999+99999GF199999021999007011999999MA1101301999999REMMET051METAR SBUF 271500Z 10010KT 9999 FEW023 34/13 Q1013=
0142829860999992016102716004-09401-038251FM-15+026999999V0201201N005119999999N009999199+03501+01301999999ADDGA1021+007011999GE19MSL   +99999+99999GF199999021999007011999999MA1101101999999REMMET051METAR SBUF 271600Z 12010KT 9999 FEW023 35/13 Q1011=
0142829860999992016102717004-09401-038251FM-15+026999999V0201001N004119999999N009999199+03601+01201999999ADDGA1021+007011999GE19MSL   +99999+99999GF199999021999007011999999MA1101001999999REMMET051METAR SBUF 271700Z 10008KT 9999 FEW023 36/12 Q1010=
0142829860999992016102719004-09401-038251FM-15+026999999V0201301N005119999999N009999199+03501+01201999999ADDGA1021+007011999GE19MSL   +99999+99999GF199999021999007011999999MA1100901999999REMMET051METAR SBUF 271900Z 13010KT 9999 FEW023 35/12 Q1009=
0142829860999992016102719454-09401-038251FM-16+026999999V0201201N005119999999N009999199+03401+01201999999ADDGA1021+006711999GE19MSL   +99999+99999GF199999021999006711999999MA1100901999999REMMET051SPECI SBUF 271945Z 12010KT 9999 FEW022 34/12 Q1009=
0142829860999992016102812004-09401-038251FM-15+026999999V0200301N002619999999N009999199+03001+01501999999ADDGA1021+006711999GE19MSL   +99999+99999GF199999021999006711999999MA1101401999999REMMET051METAR SBUF 281200Z 03005KT 9999 FEW022 30/15 Q1014=
0072829860999992016102816004-09401-038251FM-15+026999999V0200601N002619999999Y999999999+03801+00601999999ADDMA1101101999999REMMET045METAR SBUF 281600Z 06005KT CAVOK 38/06 Q1011=
0072829860999992016102817004-09401-038251FM-15+026999999V0201101N004119999999Y999999999+03801+00601999999ADDMA1101001999999REMMET045METAR SBUF 281700Z 11008KT CAVOK 38/06 Q1010=
0072829860999992016102818004-09401-038251FM-15+026999999V0201401N003619999999Y999999999+03801+00401999999ADDMA1100901999999REMMET045METAR SBUF 281800Z 14007KT CAVOK 38/04 Q1009=
0072829860999992016102819004-09401-038251FM-15+026999999V0201301N003619999999Y999999999+03801+00101999999ADDMA1101001999999REMMET045METAR SBUF 281900Z 13007KT CAVOK 38/01 Q1010=
0072829860999992016102819454-09401-038251FM-16+026999999V0201401N003119999999Y999999999+03701+00201999999ADDMA1101001999999REMMET045SPECI SBUF 281945Z 14006KT CAVOK 37/02 Q1010=
0072829860999992016102914004-09401-038251FM-15+026999999V0200901N003119999999Y999999999+03501+01301999999ADDMA1101501999999REMMET045METAR SBUF 291400Z 09006KT CAVOK 35/13 Q1015=
0072829860999992016102915004-09401-038251FM-15+026999999V0201301N004119999999Y999999999+03601+01101999999ADDMA1101401999999REMMET045METAR SBUF 291500Z 13008KT CAVOK 36/11 Q1014=
0142829860999992016102916004-09401-038251FM-15+026999999V0200801N004119999999N009999199+03801+00701999999ADDGA1021+007011999GE19MSL   +99999+99999GF199999021999007011999999MA1101301999999REMMET051METAR SBUF 291600Z 08008KT 9999 FEW023 38/07 Q1013=
0072829860999992016102917004-09401-038251FM-15+026999999V0201401N005119999999Y999999999+03801+00401999999ADDMA1101201999999REMMET045METAR SBUF 291700Z 14010KT CAVOK 38/04 Q1012=
0142829860999992016102919004-09401-038251FM-15+026999999V0201301N004119999999N009999199+03801+00501999999ADDGA1021+007011999GE19MSL   +99999+99999GF199999021999007011999999MA1101101999999REMMET051METAR SBUF 291900Z 13008KT 9999 FEW023 38/05 Q1011=
0142829860999992016102919454-09401-038251FM-16+026999999V0201001N004619999999N009999199+03601+01101999999ADDGA1021+007011999GE19MSL   +99999+99999GF199999021999007011999999MA1101101999999REMMET051SPECI SBUF 291945Z 10009KT 9999 FEW023 36/11 Q1011=
0142829860999992016103011154-09401-038251FM-16+026999999V0200901N005110057919N009999199+03001+01901999999ADDGA1071+005791999GE19MSL   +99999+99999GF199999071999005791999999MA1101801999999REMMET051SPECI SBUF 301115Z 09010KT 9999 BKN019 30/19 Q1018=
0142829860999992016103012004-09401-038251FM-15+026999999V0201001N006219999999N009999199+02901+01801999999ADDGA1041+005791999GE19MSL   +99999+99999GF199999041999005791999999MA1101801999999REMMET051METAR SBUF 301200Z 10012KT 9999 SCT019 29/18 Q1018=
0142829860999992016103013004-09401-038251FM-15+026999999V0201101N006210061019N009999199+03001+01701999999ADDGA1071+006101999GE19MSL   +99999+99999GF199999071999006101999999MA1101801999999REMMET051METAR SBUF 301300Z 11012KT 9999 BKN020 30/17 Q1018=
0142829860999992016103014004-09401-038251FM-15+026999999V0201301N006719999999N009999199+03201+01601999999ADDGA1041+006101999GE19MSL   +99999+99999GF199999041999006101999999MA1101701999999REMMET051METAR SBUF 301400Z 13013KT 9999 SCT020 32/16 Q1017=
0142829860999992016103016004-09401-038251FM-15+026999999V0201401N005719999999N009999199+03501+01501999999ADDGA1041+006401999GE19MSL   +99999+99999GF199999041999006401999999MA1101401999999REMMET051METAR SBUF 301600Z 14011KT 9999 SCT021 35/15 Q1014=
0142829860999992016103017004-09401-038251FM-15+026999999V0201101N007219999999N009999199+03601+01301999999ADDGA1041+006401999GE19MSL   +99999+99999GF199999041999006401999999MA1101301999999REMMET051METAR SBUF 301700Z 11014KT 9999 SCT021 36/13 Q1013=
0142829860999992016103019004-09401-038251FM-15+026999999V0201301N008219999999N009999199+03301+01501999999ADDGA1041+006401999GE19MSL   +99999+99999GF199999041999006401999999MA1101201999999REMMET051METAR SBUF 301900Z 13016KT 9999 SCT021 33/15 Q1012=
0142829860999992016103019454-09401-038251FM-16+026999999V0201301N006719999999N009999199+03201+01601999999ADDGA1021+006401999GE19MSL   +99999+99999GF199999021999006401999999MA1101301999999REMMET051SPECI SBUF 301945Z 13013KT 9999 FEW021 32/16 Q1013=
0142829860999992016103111154-09401-038251FM-16+026999999V0201301N006210051819N009999199+02801+01801999999ADDGA1071+005181999GE19MSL   +99999+99999GF199999071999005181999999MA1101701999999REMMET051SPECI SBUF 311115Z 13012KT 9999 BKN017 28/18 Q1017=
0142829860999992016103112004-09401-038251FM-15+026999999V0201001N005119999999N009999199+02901+01801999999ADDGA1041+005491999GE19MSL   +99999+99999GF199999041999005491999999MA1101701999999REMMET051METAR SBUF 311200Z 10010KT 9999 SCT018 29/18 Q1017=
0142829860999992016103113004-09401-038251FM-15+026999999V0201201N005719999999N009999199+03101+01701999999ADDGA1041+006101999GE19MSL   +99999+99999GF199999041999006101999999MA1101701999999REMMET051METAR SBUF 311300Z 12011KT 9999 SCT020 31/17 Q1017=
0142829860999992016103114004-09401-038251FM-15+026999999V0201001N004610061019N009999199+03301+01701999999ADDGA1071+006101999GE19MSL   +99999+99999GF199999071999006101999999MA1101601999999REMMET051METAR SBUF 311400Z 10009KT 9999 BKN020 33/17 Q1016=
0142829860999992016103116004-09401-038251FM-15+026999999V0201301N004119999999N009999199+03501+01501999999ADDGA1041+006401999GE19MSL   +99999+99999GF199999041999006401999999MA1101301999999REMMET051METAR SBUF 311600Z 13008KT 9999 SCT021 35/15 Q1013=
0142829860999992016103117004-09401-038251FM-15+026999999V0201201N005719999999N009999199+03501+01401999999ADDGA1041+006401999GE19MSL   +99999+99999GF199999041999006401999999MA1101201999999REMMET051METAR SBUF 311700Z 12011KT 9999 SCT021 35/14 Q1012=
0142829860999992016103118004-09401-038251FM-15+026999999V0201001N005719999999N009999199+03601+01301999999ADDGA1021+006711999GE19MSL   +99999+99999GF199999021999006711999999MA1101101999999REMMET051METAR SBUF 311800Z 10011KT 9999 FEW022 36/13 Q1011=
0142829860999992016103119004-09401-038251FM-15+026999999V0201301N005119999999N009999199+03501+01301999999ADDGA1021+006711999GE19MSL   +99999+99999GF199999021999006711999999MA1101101999999REMMET051METAR SBUF 311900Z 13010KT 9999 FEW022 35/13 Q1011=
0142829860999992016103119454-09401-038251FM-16+026999999V0201001N005119999999N009999199+03401+01301999999ADDGA1021+006401999GE19MSL   +99999+99999GF199999021999006401999999MA1101101999999REMMET051SPECI SBUF 311945Z 10010KT 9999 FEW021 34/13 Q1011=
0142829860999992016110111154-09401-038251FM-16+026999999V0201101N006210054919N009999199+02701+01901999999ADDGA1071+005491999GE19MSL   +99999+99999GF199999071999005491999999MA1101701999999REMMET051SPECI SBUF 011115Z 11012KT 9999 BKN018 27/19 Q1017=
0142829860999992016110112004-09401-038251FM-15+026999999V0201001N007210057919N009999199+02901+01801999999ADDGA1071+005791999GE19MSL   +99999+99999GF199999071999005791999999MA1101701999999REMMET051METAR SBUF 011200Z 10014KT 9999 BKN019 29/18 Q1017=
0142829860999992016110113004-09401-038251FM-15+026999999V0200801N005719999999N009999199+03201+01601999999ADDGA1041+006101999GE19MSL   +99999+99999GF199999041999006101999999MA1101701999999REMMET051METAR SBUF 011300Z 08011KT 9999 SCT020 32/16 Q1017=
0142829860999992016110114004-09401-038251FM-15+026999999V0200901N006719999999N009999199+03401+01501999999ADDGA1041+006101999GE19MSL   +99999+99999GF199999041999006101999999MA1101601999999REMMET051METAR SBUF 011400Z 09013KT 9999 SCT020 34/15 Q1016=
0142829860999992016110115004-09401-038251FM-15+026999999V0200901N005119999999N009999199+03401+01501999999ADDGA1041+006711999GE19MSL   +99999+99999GF199999041999006711999999MA1101501999999REMMET051METAR SBUF 011500Z 09010KT 9999 SCT022 34/15 Q1015=
0142829860999992016110116004-09401-038251FM-15+026999999V0200801N005719999999N009999199+03401+01401999999ADDGA1041+006711999GE19MSL   +99999+99999GF199999041999006711999999MA1101401999999REMMET051METAR SBUF 011600Z 08011KT 9999 SCT022 34/14 Q1014=
0142829860999992016110117004-09401-038251FM-15+026999999V0201001N006219999999N009999199+03601+01301999999ADDGA1041+007011999GE19MSL   +99999+99999GF199999041999007011999999MA1101301999999REMMET051METAR SBUF 011700Z 10012KT 9999 SCT023 36/13 Q1013=
0142829860999992016110118004-09401-038251FM-15+026999999V0200901N006219999999N009999199+03501+01301999999ADDGA1041+007011999GE19MSL   +99999+99999GF199999041999007011999999MA1101201999999REMMET051METAR SBUF 011800Z 09012KT 9999 SCT023 35/13 Q1012=
0142829860999992016110119004-09401-038251FM-15+026999999V0200901N007219999999N009999199+03401+01301999999ADDGA1021+007011999GE19MSL   +99999+99999GF199999021999007011999999MA1101201999999REMMET051METAR SBUF 011900Z 09014KT 9999 FEW023 34/13 Q1012=
0142829860999992016110119454-09401-038251FM-16+026999999V0201101N008219999999N009999199+03301+01301999999ADDGA1021+007011999GE19MSL   +99999+99999GF199999021999007011999999MA1101301999999REMMET051SPECI SBUF 011945Z 11016KT 9999 FEW023 33/13 Q1013=
0142829860999992016110211154-09401-038251FM-16+026999999V0200901N006210057919N009999199+02901+01801999999ADDGA1071+005791999GE19MSL   +99999+99999GF199999071999005791999999MA1101801999999REMMET051SPECI SBUF 021115Z 09012KT 9999 BKN019 29/18 Q1018=
0142829860999992016110212004-09401-038251FM-15+026999999V0201001N007719999999N009999199+03001+01701999999ADDGA1041+006101999GE19MSL   +99999+99999GF199999041999006101999999MA1101701999999REMMET051METAR SBUF 021200Z 10015KT 9999 SCT020 30/17 Q1017=
0142829860999992016110213004-09401-038251FM-15+026999999V0200901N008810061019N009999199+03001+01601999999ADDGA1071+006101999GE19MSL   +99999+99999GF199999071999006101999999MA1101701999999REMMET051METAR SBUF 021300Z 09017KT 9999 BKN020 30/16 Q1017=
0142829860999992016110214004-09401-038251FM-15+026999999V0201101N006719999999N009999199+03301+01601999999ADDGA1041+006401999GE19MSL   +99999+99999GF199999041999006401999999MA1101601999999REMMET051METAR SBUF 021400Z 11013KT 9999 SCT021 33/16 Q1016=
0142829860999992016110215004-09401-038251FM-15+026999999V0201101N007719999999N009999199+03401+01301999999ADDGA1041+006711999GE19MSL   +99999+99999GF199999041999006711999999MA1101501999999REMMET051METAR SBUF 021500Z 11015KT 9999 SCT022 34/13 Q1015=
0142829860999992016110217004-09401-038251FM-15+026999999V0201001N006219999999N009999199+03601+01301999999ADDGA1041+006711999GE19MSL   +99999+99999GF199999041999006711999999MA1101301999999REMMET051METAR SBUF 021700Z 10012KT 9999 SCT022 36/13 Q1013=
0142829860999992016110218004-09401-038251FM-15+026999999V0201001N007719999999N009999199+03401+01301999999ADDGA1041+006711999GE19MSL   +99999+99999GF199999041999006711999999MA1101301999999REMMET051METAR SBUF 021800Z 10015KT 9999 SCT022 34/13 Q1013=
0142829860999992016110219004-09401-038251FM-15+026999999V0201101N007219999999N009999199+03301+01501999999ADDGA1041+006401999GE19MSL   +99999+99999GF199999041999006401999999MA1101301999999REMMET051METAR SBUF 021900Z 11014KT 9999 SCT021 33/15 Q1013=
0142829860999992016110219454-09401-038251FM-16+026999999V0201001N007219999999N009999199+03201+01701999999ADDGA1021+006101999GE19MSL   +99999+99999GF199999021999006101999999MA1101301999999REMMET051SPECI SBUF 021945Z 10014KT 9999 FEW020 32/17 Q1013=
0165829860999992016110311154-09401-038251FM-16+026999999V0201301N007210213419N009999199+02701+01901999999ADDGA1041+005491999GA2071+021341999GE19MSL   +99999+99999GF199999041999005491999999MA1101801999999REMMET058SPECI SBUF 031115Z 13014KT 9999 SCT018 BKN070 27/19 Q1018=
0165829860999992016110312004-09401-038251FM-15+026999999V0201101N006710213419N009999199+02801+01901999999ADDGA1041+005791999GA2071+021341999GE19MSL   +99999+99999GF199999041999005791999999MA1101801999999REMMET058METAR SBUF 031200Z 11013KT 9999 SCT019 BKN070 28/19 Q1018=
0142829860999992016110313004-09401-038251FM-15+026999999V0201001N006710057919N009999199+03001+01801999999ADDGA1071+005791999GE19MSL   +99999+99999GF199999071999005791999999MA1101801999999REMMET051METAR SBUF 031300Z 10013KT 9999 BKN019 30/18 Q1018=
0142829860999992016110314004-09401-038251FM-15+026999999V0201101N006210061019N009999199+03201+01801999999ADDGA1071+006101999GE19MSL   +99999+99999GF199999071999006101999999MA1101701999999REMMET051METAR SBUF 031400Z 11012KT 9999 BKN020 32/18 Q1017=
0165829860999992016110315004-09401-038251FM-15+026999999V0201101N005710061019N009999199+03301+01701999999ADDGA1071+006101999GA2041+024381999GE19MSL   +99999+99999GF199999071999006101999999MA1101601999999REMMET058METAR SBUF 031500Z 11011KT 9999 BKN020 SCT080 33/17 Q1016=
0165829860999992016110316004-09401-038251FM-15+026999999V0201001N005710061019N009999199+03301+01701999999ADDGA1071+006101999GA2041+024381999GE19MSL   +99999+99999GF199999071999006101999999MA1101501999999REMMET058METAR SBUF 031600Z 10011KT 9999 BKN020 SCT080 33/17 Q1015=
0165829860999992016110317004-09401-038251FM-15+026999999V0200501N005710061019N009999199+03001+01901999999ADDGA1071+006101999GA2041+024381999GE19MSL   +99999+99999GF199999071999006101999999MA1101501999999REMMET058METAR SBUF 031700Z 05011KT 9999 BKN020 SCT080 30/19 Q1015=
0165829860999992016110318004-09401-038251FM-15+026999999V0200501N005710057919N009999199+03101+01901999999ADDGA1071+005791999GA2041+024381999GE19MSL   +99999+99999GF199999071999005791999999MA1101401999999REMMET058METAR SBUF 031800Z 05011KT 9999 BKN019 SCT080 31/19 Q1014=
0165829860999992016110319004-09401-038251FM-15+026999999V0200601N006210057919N009999199+02901+01901999999ADDGA1071+005791999GA2041+024381999GE19MSL   +99999+99999GF199999071999005791999999MA1101401999999REMMET058METAR SBUF 031900Z 06012KT 9999 BKN019 SCT080 29/19 Q1014=
0165829860999992016110319454-09401-038251FM-16+026999999V0200801N005110057919N009999199+03001+01901999999ADDGA1071+005791999GA2041+024381999GE19MSL   +99999+99999GF199999071999005791999999MA1101501999999REMMET058SPECI SBUF 031945Z 08010KT 9999 BKN019 SCT080 30/19 Q1015=
0142829860999992016110411154-09401-038251FM-16+026999999V0201101N005710051819N009999199+02701+01801999999ADDGA1071+005181999GE19MSL   +99999+99999GF199999071999005181999999MA1102001999999REMMET051SPECI SBUF 041115Z 11011KT 9999 BKN017 27/18 Q1020=
0142829860999992016110412004-09401-038251FM-15+026999999V0201001N006710054919N009999199+03001+01701999999ADDGA1071+005491999GE19MSL   +99999+99999GF199999071999005491999999MA1101901999999REMMET051METAR SBUF 041200Z 10013KT 9999 BKN018 30/17 Q1019=
0142829860999992016110413004-09401-038251FM-15+026999999V0200801N006210061019N009999199+03201+01601999999ADDGA1071+006101999GE19MSL   +99999+99999GF199999071999006101999999MA1101901999999REMMET051METAR SBUF 041300Z 08012KT 9999 BKN020 32/16 Q1019=
0142829860999992016110414004-09401-038251FM-15+026999999V0201001N007219999999N009999199+03301+01501999999ADDGA1041+006101999GE19MSL   +99999+99999GF199999041999006101999999MA1101801999999REMMET051METAR SBUF 041400Z 10014KT 9999 SCT020 33/15 Q1018=
0142829860999992016110415004-09401-038251FM-15+026999999V0200901N006219999999N009999199+03501+01401999999ADDGA1041+006401999GE19MSL   +99999+99999GF199999041999006401999999MA1101701999999REMMET051METAR SBUF 041500Z 09012KT 9999 SCT021 35/14 Q1017=
0142829860999992016110416004-09401-038251FM-15+026999999V0201201N005719999999N009999199+03501+01301999999ADDGA1041+006401999GE19MSL   +99999+99999GF199999041999006401999999MA1101601999999REMMET051METAR SBUF 041600Z 12011KT 9999 SCT021 35/13 Q1016=
0142829860999992016110417004-09401-038251FM-15+026999999V0200801N006219999999N009999199+03501+01301999999ADDGA1041+006401999GE19MSL   +99999+99999GF199999041999006401999999MA1101501999999REMMET051METAR SBUF 041700Z 08012KT 9999 SCT021 35/13 Q1015=
0142829860999992016110418004-09401-038251FM-15+026999999V0201101N006219999999N009999199+03601+01201999999ADDGA1041+006401999GE19MSL   +99999+99999GF199999041999006401999999MA1101401999999REMMET051METAR SBUF 041800Z 11012KT 9999 SCT021 36/12 Q1014=
0142829860999992016110419004-09401-038251FM-15+026999999V0200901N006719999999N009999199+03401+01101999999ADDGA1021+006401999GE19MSL   +99999+99999GF199999021999006401999999MA1101401999999REMMET051METAR SBUF 041900Z 09013KT 9999 FEW021 34/11 Q1014=
0142829860999992016110419454-09401-038251FM-16+026999999V0201201N006719999999N009999199+03301+01201999999ADDGA1021+006101999GE19MSL   +99999+99999GF199999021999006101999999MA1101401999999REMMET051SPECI SBUF 041945Z 12013KT 9999 FEW020 33/12 Q1014=
0142829860999992016110511154-09401-038251FM-16+026999999V0201001N005110057919N009999199+02801+01901999999ADDGA1071+005791999GE19MSL   +99999+99999GF199999071999005791999999MA1101901999999REMMET051SPECI SBUF 051115Z 10010KT 9999 BKN019 28/19 Q1019=
0142829860999992016110512004-09401-038251FM-15+026999999V0201101N006710061019N009999199+03101+01701999999ADDGA1071+006101999GE19MSL   +99999+99999GF199999071999006101999999MA1101901999999REMMET051METAR SBUF 051200Z 11013KT 9999 BKN020 31/17 Q1019=
0142829860999992016110513004-09401-038251FM-15+026999999V0201001N006719999999N009999199+03301+01501999999ADDGA1041+006101999GE19MSL   +99999+99999GF199999041999006101999999MA1101801999999REMMET051METAR SBUF 051300Z 10013KT 9999 SCT020 33/15 Q1018=
0142829860999992016110514004-09401-038251FM-15+026999999V0201001N007719999999N009999199+03401+01501999999ADDGA1041+006101999GE19MSL   +99999+99999GF199999041999006101999999MA1101801999999REMMET051METAR SBUF 051400Z 10015KT 9999 SCT020 34/15 Q1018=
0142829860999992016110515004-09401-038251FM-15+026999999V0201301N007219999999N009999199+03301+01501999999ADDGA1041+006711999GE19MSL   +99999+99999GF199999041999006711999999MA1101601999999REMMET051METAR SBUF 051500Z 13014KT 9999 SCT022 33/15 Q1016=
0142829860999992016110516004-09401-038251FM-15+026999999V0201001N007719999999N009999199+03501+01301999999ADDGA1041+006711999GE19MSL   +99999+99999GF199999041999006711999999MA1101501999999REMMET051METAR SBUF 051600Z 10015KT 9999 SCT022 35/13 Q1015=
0142829860999992016110517004-09401-038251FM-15+026999999V0201001N006719999999N009999199+03601+01201999999ADDGA1041+006711999GE19MSL   +99999+99999GF199999041999006711999999MA1101401999999REMMET051METAR SBUF 051700Z 10013KT 9999 SCT022 36/12 Q1014=
0142829860999992016110518004-09401-038251FM-15+026999999V0201001N007219999999N009999199+03601+01101999999ADDGA1041+007011999GE19MSL   +99999+99999GF199999041999007011999999MA1101301999999REMMET051METAR SBUF 051800Z 10014KT 9999 SCT023 36/11 Q1013=
0142829860999992016110519004-09401-038251FM-15+026999999V0201001N007719999999N009999199+03401+01301999999ADDGA1021+007011999GE19MSL   +99999+99999GF199999021999007011999999MA1101401999999REMMET051METAR SBUF 051900Z 10015KT 9999 FEW023 34/13 Q1014=
0142829860999992016110519454-09401-038251FM-16+026999999V0201101N008819999999N009999199+03101+01401999999ADDGA1021+007011999GE19MSL   +99999+99999GF199999021999007011999999MA1101401999999REMMET051SPECI SBUF 051945Z 11017KT 9999 FEW023 31/14 Q1014=
0142829860999992016110611154-09401-038251FM-16+026999999V0200901N005710057919N009999199+02801+01801999999ADDGA1071+005791999GE19MSL   +99999+99999GF199999071999005791999999MA1101801999999REMMET051SPECI SBUF 061115Z 09011KT 9999 BKN019 28/18 Q1018=
0142829860999992016110612004-09401-038251FM-15+026999999V0200901N006710057919N009999199+02901+01801999999ADDGA1071+005791999GE19MSL   +99999+99999GF199999071999005791999999MA1101801999999REMMET051METAR SBUF 061200Z 09013KT 9999 BKN019 29/18 Q1018=
0142829860999992016110613004-09401-038251FM-15+026999999V0201001N006719999999N009999199+03101+01701999999ADDGA1041+006401999GE19MSL   +99999+99999GF199999041999006401999999MA1101701999999REMMET051METAR SBUF 061300Z 10013KT 9999 SCT021 31/17 Q1017=
0142829860999992016110614004-09401-038251FM-15+026999999V0201001N006219999999N009999199+03301+01601999999ADDGA1041+006711999GE19MSL   +99999+99999GF199999041999006711999999MA1101601999999REMMET051METAR SBUF 061400Z 10012KT 9999 SCT022 33/16 Q1016=
0142829860999992016110615004-09401-038251FM-15+026999999V0201101N006219999999N009999199+03401+01501999999ADDGA1041+006711999GE19MSL   +99999+99999GF199999041999006711999999MA1101501999999REMMET051METAR SBUF 061500Z 11012KT 9999 SCT022 34/15 Q1015=
0142829860999992016110617004-09401-038251FM-15+026999999V0201301N005119999999N009999199+03501+01301999999ADDGA1041+006711999GE19MSL   +99999+99999GF199999041999006711999999MA1101301999999REMMET051METAR SBUF 061700Z 13010KT 9999 SCT022 35/13 Q1013=
0142829860999992016110618004-09401-038251FM-15+026999999V0200901N006219999999N009999199+03401+01401999999ADDGA1041+006101999GE19MSL   +99999+99999GF199999041999006101999999MA1101201999999REMMET051METAR SBUF 061800Z 09012KT 9999 SCT020 34/14 Q1012=
0142829860999992016110619004-09401-038251FM-15+026999999V0201001N006219999999N009999199+03501+01501999999ADDGA1041+006101999GE19MSL   +99999+99999GF199999041999006101999999MA1101201999999REMMET051METAR SBUF 061900Z 10012KT 9999 SCT020 35/15 Q1012=
0142829860999992016110619454-09401-038251FM-16+026999999V0201201N007219999999N009999199+03201+01501999999ADDGA1041+006101999GE19MSL   +99999+99999GF199999041999006101999999MA1101301999999REMMET051SPECI SBUF 061945Z 12014KT 9999 SCT020 32/15 Q1013=
0142829860999992016110711154-09401-038251FM-16+026999999V0201001N006219999999N009999199+02901+01701999999ADDGA1041+005791999GE19MSL   +99999+99999GF199999041999005791999999MA1101701999999REMMET051SPECI SBUF 071115Z 10012KT 9999 SCT019 29/17 Q1017=
0142829860999992016110712004-09401-038251FM-15+026999999V0201001N005719999999N009999199+03001+01701999999ADDGA1041+005791999GE19MSL   +99999+99999GF199999041999005791999999MA1101701999999REMMET051METAR SBUF 071200Z 10011KT 9999 SCT019 30/17 Q1017=
0142829860999992016110713004-09401-038251FM-15+026999999V0200901N005119999999N009999199+03101+01601999999ADDGA1041+006101999GE19MSL   +99999+99999GF199999041999006101999999MA1101601999999REMMET051METAR SBUF 071300Z 09010KT 9999 SCT020 31/16 Q1016=
0142829860999992016110714004-09401-038251FM-15+026999999V0201301N005119999999N009999199+03101+01601999999ADDGA1041+006101999GE19MSL   +99999+99999GF199999041999006101999999MA1101501999999REMMET051METAR SBUF 071400Z 13010KT 9999 SCT020 31/16 Q1015=
0142829860999992016110715004-09401-038251FM-15+026999999V0201401N005119999999N009999199+03401+01501999999ADDGA1041+006101999GE19MSL   +99999+99999GF199999041999006101999999MA1101401999999REMMET051METAR SBUF 071500Z 14010KT 9999 SCT020 34/15 Q1014=
0142829860999992016110716004-09401-038251FM-15+026999999V0201001N004619999999N009999199+03501+01501999999ADDGA1041+006401999GE19MSL   +99999+99999GF199999041999006401999999MA1101301999999REMMET051METAR SBUF 071600Z 10009KT 9999 SCT021 35/15 Q1013=
0142829860999992016110717004-09401-038251FM-15+026999999V0201301N005719999999N009999199+03501+01401999999ADDGA1041+006401999GE19MSL   +99999+99999GF199999041999006401999999MA1101201999999REMMET051METAR SBUF 071700Z 13011KT 9999 SCT021 35/14 Q1012=
0142829860999992016110719004-09401-038251FM-15+026999999V0201001N006219999999N009999199+03401+01301999999ADDGA1021+006401999GE19MSL   +99999+99999GF199999021999006401999999MA1101101999999REMMET051METAR SBUF 071900Z 10012KT 9999 FEW021 34/13 Q1011=
0142829860999992016110719454-09401-038251FM-16+026999999V0201101N005719999999N009999199+03301+01301999999ADDGA1021+006101999GE19MSL   +99999+99999GF199999021999006101999999MA1101101999999REMMET051SPECI SBUF 071945Z 11011KT 9999 FEW020 33/13 Q1011=
0142829860999992016110720004-09401-038251FM-15+026999999V0201001N006719999999N009999199+03201+01401999999ADDGA1021+006101999GE19MSL   +99999+99999GF199999021999006101999999MA1101201999999REMMET051METAR SBUF 072000Z 10013KT 9999 FEW020 32/14 Q1012=
0142829860999992016110721004-09401-038251FM-15+026999999V0201101N007219999999N009999199+03101+01401999999ADDGA1021+006101999GE19MSL   +99999+99999GF199999021999006101999999MA1101201999999REMMET051METAR SBUF 072100Z 11014KT 9999 FEW020 31/14 Q1012=
0142829860999992016110721154-09401-038251FM-16+026999999V0201101N007219999999N009999199+03101+01401999999ADDGA1021+006101999GE19MSL   +99999+99999GF199999021999006101999999MA1101201999999REMMET051SPECI SBUF 072115Z 11014KT 9999 FEW020 31/14 Q1012=
0142829860999992016110811154-09401-038251FM-16+026999999V0200901N003619999999N009999199+02801+01801999999ADDGA1041+005491999GE19MSL   +99999+99999GF199999041999005491999999MA1101601999999REMMET051SPECI SBUF 081115Z 09007KT 9999 SCT018 28/18 Q1016=
0142829860999992016110812004-09401-038251FM-15+026999999V0201001N005119999999N009999199+03001+01701999999ADDGA1041+005791999GE19MSL   +99999+99999GF199999041999005791999999MA1101601999999REMMET051METAR SBUF 081200Z 10010KT 9999 SCT019 30/17 Q1016=
0142829860999992016110813004-09401-038251FM-15+026999999V0201101N004119999999N009999199+03101+01601999999ADDGA1041+006101999GE19MSL   +99999+99999GF199999041999006101999999MA1101501999999REMMET051METAR SBUF 081300Z 11008KT 9999 SCT020 31/16 Q1015=
0142829860999992016110814004-09401-038251FM-15+026999999V0201001N004619999999N009999199+03301+01501999999ADDGA1041+006101999GE19MSL   +99999+99999GF199999041999006101999999MA1101401999999REMMET051METAR SBUF 081400Z 10009KT 9999 SCT020 33/15 Q1014=
0142829860999992016110815004-09401-038251FM-15+026999999V0201001N004119999999N009999199+03401+01401999999ADDGA1021+006401999GE19MSL   +99999+99999GF199999021999006401999999MA1101301999999REMMET051METAR SBUF 081500Z 10008KT 9999 FEW021 34/14 Q1013=
0142829860999992016110816004-09401-038251FM-15+026999999V0201301N004119999999N009999199+03501+01401999999ADDGA1021+006401999GE19MSL   +99999+99999GF199999021999006401999999MA1101201999999REMMET051METAR SBUF 081600Z 13008KT 9999 FEW021 35/14 Q1012=
0142829860999992016110817004-09401-038251FM-15+026999999V0201501N003119999999N009999199+03501+01301999999ADDGA1021+006711999GE19MSL   +99999+99999GF199999021999006711999999MA1101101999999REMMET051METAR SBUF 081700Z 15006KT 9999 FEW022 35/13 Q1011=
0142829860999992016110819004-09401-038251FM-15+026999999V0201401N003119999999N009999199+03501+01201999999ADDGA1021+006711999GE19MSL   +99999+99999GF199999021999006711999999MA1101101999999REMMET051METAR SBUF 081900Z 14006KT 9999 FEW022 35/12 Q1011=
0142829860999992016110819454-09401-038251FM-16+026999999V0201101N004619999999N009999199+03501+01301999999ADDGA1021+006711999GE19MSL   +99999+99999GF199999021999006711999999MA1101101999999REMMET051SPECI SBUF 081945Z 11009KT 9999 FEW022 35/13 Q1011=
0142829860999992016110911154-09401-038251FM-16+026999999V0201201N004610057919N009999199+02801+01901999999ADDGA1071+005791999GE19MSL   +99999+99999GF199999071999005791999999MA1101701999999REMMET051SPECI SBUF 091115Z 12009KT 9999 BKN019 28/19 Q1017=
0142829860999992016110912004-09401-038251FM-15+026999999V0201101N004619999999N009999199+03001+01901999999ADDGA1041+005791999GE19MSL   +99999+99999GF199999041999005791999999MA1101701999999REMMET051METAR SBUF 091200Z 11009KT 9999 SCT019 30/19 Q1017=
0142829860999992016110913004-09401-038251FM-15+026999999V0200801N004619999999N009999199+03101+01801999999ADDGA1041+005791999GE19MSL   +99999+99999GF199999041999005791999999MA1101601999999REMMET051METAR SBUF 091300Z 08009KT 9999 SCT019 31/18 Q1016=
0142829860999992016110914004-09401-038251FM-15+026999999V0200901N004619999999N009999199+03401+01701999999ADDGA1041+006101999GE19MSL   +99999+99999GF199999041999006101999999MA1101501999999REMMET051METAR SBUF 091400Z 09009KT 9999 SCT020 34/17 Q1015=
0142829860999992016110915004-09401-038251FM-15+026999999V0201101N005110064019N009999199+03501+01701999999ADDGA1071+006401999GE19MSL   +99999+99999GF199999071999006401999999MA1101401999999REMMET051METAR SBUF 091500Z 11010KT 9999 BKN021 35/17 Q1014=
0142829860999992016110916004-09401-038251FM-15+026999999V0201001N004119999999N009999199+03701+01601999999ADDGA1041+006401999GE19MSL   +99999+99999GF199999041999006401999999MA1101301999999REMMET051METAR SBUF 091600Z 10008KT 9999 SCT021 37/16 Q1013=
0142829860999992016110917004-09401-038251FM-15+026999999V0201001N004110064019N009999199+03701+01601999999ADDGA1071+006401999GE19MSL   +99999+99999GF199999071999006401999999MA1101201999999REMMET051METAR SBUF 091700Z 10008KT 9999 BKN021 37/16 Q1012=
0142829860999992016110918004-09401-038251FM-15+026999999V0201101N004119999999N009999199+03501+01501999999ADDGA1041+006711999GE19MSL   +99999+99999GF199999041999006711999999MA1101201999999REMMET051METAR SBUF 091800Z 11008KT 9999 SCT022 35/15 Q1012=
0142829860999992016110919004-09401-038251FM-15+026999999V0201301N004119999999N009999199+03501+01501999999ADDGA1041+006711999GE19MSL   +99999+99999GF199999041999006711999999MA1101101999999REMMET051METAR SBUF 091900Z 13008KT 9999 SCT022 35/15 Q1011=
0142829860999992016110919454-09401-038251FM-16+026999999V0201101N003619999999N009999199+03401+01501999999ADDGA1021+006711999GE19MSL   +99999+99999GF199999021999006711999999MA1101101999999REMMET051SPECI SBUF 091945Z 11007KT 9999 FEW022 34/15 Q1011=
0142829860999992016111011154-09401-038251FM-16+026999999V0200801N004119999999N009999199+03001+01801999999ADDGA1021+005791999GE19MSL   +99999+99999GF199999021999005791999999MA1101701999999REMMET051SPECI SBUF 101115Z 08008KT 9999 FEW019 30/18 Q1017=
0142829860999992016111012004-09401-038251FM-15+026999999V0200801N003119999999N009999199+03201+01801999999ADDGA1021+006101999GE19MSL   +99999+99999GF199999021999006101999999MA1101701999999REMMET051METAR SBUF 101200Z 08006KT 9999 FEW020 32/18 Q1017=
0142829860999992016111013004-09401-038251FM-15+026999999V0201101N005119999999N009999199+03401+01701999999ADDGA1041+006101999GE19MSL   +99999+99999GF199999041999006101999999MA1101601999999REMMET051METAR SBUF 101300Z 11010KT 9999 SCT020 34/17 Q1016=
0142829860999992016111014004-09401-038251FM-15+026999999V0201301N004619999999N009999199+03501+01601999999ADDGA1041+006401999GE19MSL   +99999+99999GF199999041999006401999999MA1101501999999REMMET051METAR SBUF 101400Z 13009KT 9999 SCT021 35/16 Q1015=
0142829860999992016111015004-09401-038251FM-15+026999999V0201201N004119999999N009999199+03401+01601999999ADDGA1041+006401999GE19MSL   +99999+99999GF199999041999006401999999MA1101401999999REMMET051METAR SBUF 101500Z 12008KT 9999 SCT021 34/16 Q1014=
0142829860999992016111016004-09401-038251FM-15+026999999V0201301N004119999999N009999199+03701+01501999999ADDGA1041+006401999GE19MSL   +99999+99999GF199999041999006401999999MA1101301999999REMMET051METAR SBUF 101600Z 13008KT 9999 SCT021 37/15 Q1013=
0142829860999992016111018004-09401-038251FM-15+026999999V0201201N003619999999N009999199+03601+01501999999ADDGA1021+006401999GE19MSL   +99999+99999GF199999021999006401999999MA1101101999999REMMET051METAR SBUF 101800Z 12007KT 9999 FEW021 36/15 Q1011=
0142829860999992016111019004-09401-038251FM-15+026999999V0201101N005719999999N009999199+03601+01501999999ADDGA1021+006401999GE19MSL   +99999+99999GF199999021999006401999999MA1101101999999REMMET051METAR SBUF 101900Z 11011KT 9999 FEW021 36/15 Q1011=
0142829860999992016111019454-09401-038251FM-16+026999999V0201101N004119999999N009999199+03401+01601999999ADDGA1021+006401999GE19MSL   +99999+99999GF199999021999006401999999MA1101101999999REMMET051SPECI SBUF 101945Z 11008KT 9999 FEW021 34/16 Q1011=
0142829860999992016111211154-09401-038251FM-16+026999999V0201001N003119999999N009999199+03001+01801999999ADDGA1021+005491999GE19MSL   +99999+99999GF199999021999005491999999MA1101301999999REMMET051SPECI SBUF 121115Z 10006KT 9999 FEW018 30/18 Q1013=
0142829860999992016111212004-09401-038251FM-15+026999999V0200801N003119999999N009999199+03101+01701999999ADDGA1021+006101999GE19MSL   +99999+99999GF199999021999006101999999MA1101301999999REMMET051METAR SBUF 121200Z 08006KT 9999 FEW020 31/17 Q1013=
0072829860999992016111213004-09401-038251FM-15+026999999V0201101N003119999999Y999999999+03301+01601999999ADDMA1101201999999REMMET045METAR SBUF 121300Z 11006KT CAVOK 33/16 Q1012=
0142829860999992016111214004-09401-038251FM-15+026999999V0201801N003119999999N009999199+03401+01601999999ADDGA1021+006711999GE19MSL   +99999+99999GF199999021999006711999999MA1101201999999REMMET051METAR SBUF 121400Z 18006KT 9999 FEW022 34/16 Q1012=
0142829860999992016111215004-09401-038251FM-15+026999999V0201401N004619999999N009999199+03601+01601999999ADDGA1021+006711999GE19MSL   +99999+99999GF199999021999006711999999MA1101101999999REMMET051METAR SBUF 121500Z 14009KT 9999 FEW022 36/16 Q1011=
0142829860999992016111216004-09401-038251FM-15+026999999V0201501N003619999999N009999199+03601+01601999999ADDGA1041+006711999GE19MSL   +99999+99999GF199999041999006711999999MA1100901999999REMMET051METAR SBUF 121600Z 15007KT 9999 SCT022 36/16 Q1009=
0142829860999992016111217004-09401-038251FM-15+026999999V0201401N003619999999N009999199+03701+01601999999ADDGA1021+006711999GE19MSL   +99999+99999GF199999021999006711999999MA1100801999999REMMET051METAR SBUF 121700Z 14007KT 9999 FEW022 37/16 Q1008=
0142829860999992016111219004-09401-038251FM-15+026999999V0201201N004619999999N009999199+03601+01601999999ADDGA1021+006711999GE19MSL   +99999+99999GF199999021999006711999999MA1100701999999REMMET051METAR SBUF 121900Z 12009KT 9999 FEW022 36/16 Q1007=
0142829860999992016111220004-09401-038251FM-15+026999999V0201001N005119999999N009999199+03401+01701999999ADDGA1021+006401999GE19MSL   +99999+99999GF199999021999006401999999MA1100701999999REMMET051METAR SBUF 122000Z 10010KT 9999 FEW021 34/17 Q1007=
0142829860999992016111221004-09401-038251FM-15+026999999V0201001N005119999999N009999199+03301+01701999999ADDGA1021+006101999GE19MSL   +99999+99999GF199999021999006101999999MA1100801999999REMMET051METAR SBUF 122100Z 10010KT 9999 FEW020 33/17 Q1008=
0072829860999992016111221454-09401-038251FM-16+026999999V0201101N005719999999Y999999999+03201+01801999999ADDMA1100801999999REMMET045SPECI SBUF 122145Z 11011KT CAVOK 32/18 Q1008=
0142829860999992016111311154-09401-038251FM-16+026999999V0200801N003119999999N009999199+02901+01901999999ADDGA1041+005491999GE19MSL   +99999+99999GF199999041999005491999999MA1101401999999REMMET051SPECI SBUF 131115Z 08006KT 9999 SCT018 29/19 Q1014=
0142829860999992016111312004-09401-038251FM-15+026999999V0200601N002610057919N009999199+03001+01801999999ADDGA1071+005791999GE19MSL   +99999+99999GF199999071999005791999999MA1101401999999REMMET051METAR SBUF 131200Z 06005KT 9999 BKN019 30/18 Q1014=
0165829860999992016111313004-09401-038251FM-15+026999999V0201201N003610213419N009999199+03001+01701999999ADDGA1041+005791999GA2071+021341999GE19MSL   +99999+99999GF199999041999005791999999MA1101301999999REMMET058METAR SBUF 131300Z 12007KT 9999 SCT019 BKN070 30/17 Q1013=
0165829860999992016111314004-09401-038251FM-15+026999999V0201101N004110213419N009999199+03101+01701999999ADDGA1041+006101999GA2071+021341999GE19MSL   +99999+99999GF199999041999006101999999MA1101301999999REMMET058METAR SBUF 131400Z 11008KT 9999 SCT020 BKN070 31/17 Q1013=
0165829860999992016111315004-09401-038251FM-15+026999999V0201301N004610243819N009999199+03301+01701999999ADDGA1041+006101999GA2071+024381999GE19MSL   +99999+99999GF199999041999006101999999MA1101101999999REMMET058METAR SBUF 131500Z 13009KT 9999 SCT020 BKN080 33/17 Q1011=
0165829860999992016111316004-09401-038251FM-15+026999999V0201301N00461024381CN009999199+03401+01701999999ADDGA1041+006711999GA2041+024381999GE19MSL   +99999+99999GF199999041999006711999999MA1101001999999REMMET058METAR SBUF 131600Z 13009KT 9999 SCT022 SCT080 34/17 Q1010=
0165829860999992016111317004-09401-038251FM-15+026999999V0200901N00461024381CN009999199+03401+01701999999ADDGA1041+007011999GA2041+024381999GE19MSL   +99999+99999GF199999041999007011999999MA1100901999999REMMET058METAR SBUF 131700Z 09009KT 9999 SCT023 SCT080 34/17 Q1009=
0142829860999992016111318004-09401-038251FM-15+026999999V0201301N003619999999N009999199+03501+01601999999ADDGA1041+007011999GE19MSL   +99999+99999GF199999041999007011999999MA1100901999999REMMET051METAR SBUF 131800Z 13007KT 9999 SCT023 35/16 Q1009=
0165829860999992016111319004-09401-038251FM-15+026999999V0201501N00361021341CN009999199+03401+01601999999ADDGA1041+007011999GA2041+021341999GE19MSL   +99999+99999GF199999041999007011999999MA1100801999999REMMET058METAR SBUF 131900Z 15007KT 9999 SCT023 SCT070 34/16 Q1008=
0165829860999992016111319454-09401-038251FM-16+026999999V0201401N00411024381CN009999199+03301+01601999999ADDGA1041+007011999GA2041+024381999GE19MSL   +99999+99999GF199999041999007011999999MA1100801999999REMMET058SPECI SBUF 131945Z 14008KT 9999 SCT023 SCT080 33/16 Q1008=
0142829860999992016111411154-09401-038251FM-16+026999999V0201201N003619999999N009999199+02801+01801999999ADDGA1041+005791999GE19MSL   +99999+99999GF199999041999005791999999MA1101301999999REMMET051SPECI SBUF 141115Z 12007KT 9999 SCT019 28/18 Q1013=
0142829860999992016111412004-09401-038251FM-15+026999999V0201401N003619999999N009999199+02901+01801999999ADDGA1021+006101999GE19MSL   +99999+99999GF199999021999006101999999MA1101201999999REMMET051METAR SBUF 141200Z 14007KT 9999 FEW020 29/18 Q1012=
0142829860999992016111413004-09401-038251FM-15+026999999V0201101N004619999999N009999199+03101+01701999999ADDGA1021+006401999GE19MSL   +99999+99999GF199999021999006401999999MA1101201999999REMMET051METAR SBUF 141300Z 11009KT 9999 FEW021 31/17 Q1012=
0072829860999992016111414004-09401-038251FM-15+026999999V0201201N004119999999Y999999999+03301+01601999999ADDMA1101101999999REMMET045METAR SBUF 141400Z 12008KT CAVOK 33/16 Q1011=
0142829860999992016111415004-09401-038251FM-15+026999999V0201201N003619999999N009999199+03501+01501999999ADDGA1021+006401999GE19MSL   +99999+99999GF199999021999006401999999MA1101001999999REMMET051METAR SBUF 141500Z 12007KT 9999 FEW021 35/15 Q1010=
0142829860999992016111416004-09401-038251FM-15+026999999V0201401N004119999999N009999199+03501+01501999999ADDGA1021+006711999GE19MSL   +99999+99999GF199999021999006711999999MA1100901999999REMMET051METAR SBUF 141600Z 14008KT 9999 FEW022 35/15 Q1009=
0142829860999992016111417004-09401-038251FM-15+026999999V0201101N004119999999N009999199+03501+01501999999ADDGA1021+007011999GE19MSL   +99999+99999GF199999021999007011999999MA1100801999999REMMET051METAR SBUF 141700Z 11008KT 9999 FEW023 35/15 Q1008=
0142829860999992016111511154-09401-038251FM-16+026999999V0200601N003119999999N009999199+02801+01901999999ADDGA1021+006101999GE19MSL   +99999+99999GF199999021999006101999999MA1101201999999REMMET051SPECI SBUF 151115Z 06006KT 9999 FEW020 28/19 Q1012=
0142829860999992016111512004-09401-038251FM-15+026999999V0201401N001519999999N009999199+03101+01801999999ADDGA1021+006101999GE19MSL   +99999+99999GF199999021999006101999999MA1101101999999REMMET051METAR SBUF 151200Z 14003KT 9999 FEW020 31/18 Q1011=
0142829860999992016111513004-09401-038251FM-15+026999999V0200701N002619999999N009999199+03301+01701999999ADDGA1021+006401999GE19MSL   +99999+99999GF199999021999006401999999MA1101101999999REMMET051METAR SBUF 151300Z 07005KT 9999 FEW021 33/17 Q1011=
0142829860999992016111514004-09401-038251FM-15+026999999V0201501N002119999999N009999199+03501+01701999999ADDGA1021+006401999GE19MSL   +99999+99999GF199999021999006401999999MA1101001999999REMMET051METAR SBUF 151400Z 15004KT 9999 FEW021 35/17 Q1010=
0142829860999992016111515004-09401-038251FM-15+026999999V0200401N003119999999N009999199+03701+01601999999ADDGA1041+006401999GE19MSL   +99999+99999GF199999041999006401999999MA1100901999999REMMET051METAR SBUF 151500Z 04006KT 9999 SCT021 37/16 Q1009=
0142829860999992016111516004-09401-038251FM-15+026999999V0201201N003619999999N009999199+03901+01501999999ADDGA1041+007011999GE19MSL   +99999+99999GF199999041999007011999999MA1100801999999REMMET051METAR SBUF 151600Z 12007KT 9999 SCT023 39/15 Q1008=
0142829860999992016111517004-09401-038251FM-15+026999999V0200901N003119999999N009999199+03801+01401999999ADDGA1041+007011999GE19MSL   +99999+99999GF199999041999007011999999MA1100701999999REMMET051METAR SBUF 151700Z 09006KT 9999 SCT023 38/14 Q1007=
0142829860999992016111518004-09401-038251FM-15+026999999V0201101N003619999999N009999199+03901+01501999999ADDGA1041+007011999GE19MSL   +99999+99999GF199999041999007011999999MA1100601999999REMMET051METAR SBUF 151800Z 11007KT 9999 SCT023 39/15 Q1006=
0142829860999992016111519004-09401-038251FM-15+026999999V0201701N002610073219N009999199+03601+01401999999ADDGA1071+007321999GE19MSL   +99999+99999GF199999071999007321999999MA1100501999999REMMET051METAR SBUF 151900Z 17005KT 9999 BKN024 36/14 Q1005=
0153829860999992016111519454-09401-038251FM-16+026999999V0201001N003610064019N009999199+03201+02001999999ADDGA1071+006401999GE19MSL   +99999+99999GF199999071999006401999999MA1100601999999MW1161REMMET056SPECI SBUF 151945Z 10007KT 9999 VCSH BKN021 32/20 Q1006=
0165829860999992016111611154-09401-038251FM-16+026999999V0200201N003610243819N009999199+02801+01801999999ADDGA1021+006101999GA2071+024381999GE19MSL   +99999+99999GF199999021999006101999999MA1101301999999REMMET058SPECI SBUF 161115Z 02007KT 9999 FEW020 BKN080 28/18 Q1013=
0165829860999992016111612004-09401-038251FM-15+026999999V0200301N00311024381CN009999199+02901+01801999999ADDGA1021+006101999GA2041+024381999GE19MSL   +99999+99999GF199999021999006101999999MA1101301999999REMMET058METAR SBUF 161200Z 03006KT 9999 FEW020 SCT080 29/18 Q1013=
0165829860999992016111613004-09401-038251FM-15+026999999V0200401N00261027431CN009999199+03201+01701999999ADDGA1021+006401999GA2041+027431999GE19MSL   +99999+99999GF199999021999006401999999MA1101201999999REMMET058METAR SBUF 161300Z 04005KT 9999 FEW021 SCT090 32/17 Q1012=
0142829860999992016111614004-09401-038251FM-15+026999999V0200301N002119999999N009999199+03301+01701999999ADDGA1021+006401999GE19MSL   +99999+99999GF199999021999006401999999MA1101101999999REMMET051METAR SBUF 161400Z 03004KT 9999 FEW021 33/17 Q1011=
0142829860999992016111615004-09401-038251FM-15+026999999V0200301N002119999999N009999199+03401+01601999999ADDGA1021+006711999GE19MSL   +99999+99999GF199999021999006711999999MA1101001999999REMMET051METAR SBUF 161500Z 03004KT 9999 FEW022 34/16 Q1010=
0142829860999992016111616004-09401-038251FM-15+026999999V0202601N001519999999N009999199+03601+01501999999ADDGA1021+006711999GE19MSL   +99999+99999GF199999021999006711999999MA1100901999999REMMET051METAR SBUF 161600Z 26003KT 9999 FEW022 36/15 Q1009=
0142829860999992016111617004-09401-038251FM-15+026999999V0202001N003119999999N009999199+03701+01401999999ADDGA1021+006711999GE19MSL   +99999+99999GF199999021999006711999999MA1100801999999REMMET051METAR SBUF 161700Z 20006KT 9999 FEW022 37/14 Q1008=
0142829860999992016111619004-09401-038251FM-15+026999999V0200901N005719999999N009999199+03701+01401999999ADDGA1021+006401999GE19MSL   +99999+99999GF199999021999006401999999MA1100701999999REMMET051METAR SBUF 161900Z 09011KT 9999 FEW021 37/14 Q1007=
0142829860999992016111711154-09401-038251FM-16+026999999V0202301N001019999999N009999199+02701+02001999999ADDGA1041+005491999GE19MSL   +99999+99999GF199999041999005491999999MA1101301999999REMMET051SPECI SBUF 171115Z 23002KT 9999 SCT018 27/20 Q1013=
0142829860999992016111712004-09401-038251FM-15+026999999V0201501N002119999999N009999199+02901+01901999999ADDGA1021+005791999GE19MSL   +99999+99999GF199999021999005791999999MA1101301999999REMMET051METAR SBUF 171200Z 15004KT 9999 FEW019 29/19 Q1013=
0142829860999992016111713004-09401-038251FM-15+026999999V0201301N001519999999N009999199+03301+01801999999ADDGA1021+006101999GE19MSL   +99999+99999GF199999021999006101999999MA1101301999999REMMET051METAR SBUF 171300Z 13003KT 9999 FEW020 33/18 Q1013=
0142829860999992016111714004-09401-038251FM-15+026999999V0201901N001519999999N009999199+03401+01701999999ADDGA1021+006101999GE19MSL   +99999+99999GF199999021999006101999999MA1101201999999REMMET051METAR SBUF 171400Z 19003KT 9999 FEW020 34/17 Q1012=
0142829860999992016111715004-09401-038251FM-15+026999999V0201601N004119999999N009999199+03501+01601999999ADDGA1021+006711999GE19MSL   +99999+99999GF199999021999006711999999MA1101101999999REMMET051METAR SBUF 171500Z 16008KT 9999 FEW022 35/16 Q1011=
0142829860999992016111717004-09401-038251FM-15+026999999V0201301N002619999999N009999199+03701+01501999999ADDGA1021+007011999GE19MSL   +99999+99999GF199999021999007011999999MA1100901999999REMMET051METAR SBUF 171700Z 13005KT 9999 FEW023 37/15 Q1009=
0142829860999992016111718004-09401-038251FM-15+026999999V0201601N002619999999N009999199+03601+01301999999ADDGA1021+007011999GE19MSL   +99999+99999GF199999021999007011999999MA1100801999999REMMET051METAR SBUF 171800Z 16005KT 9999 FEW023 36/13 Q1008=
0142829860999992016111719004-09401-038251FM-15+026999999V0201201N003119999999N009999199+03701+01301999999ADDGA1021+007011999GE19MSL   +99999+99999GF199999021999007011999999MA1100801999999REMMET051METAR SBUF 171900Z 12006KT 9999 FEW023 37/13 Q1008=
0142829860999992016111719454-09401-038251FM-16+026999999V0201301N004119999999N009999199+03601+01301999999ADDGA1021+007011999GE19MSL   +99999+99999GF199999021999007011999999MA1100801999999REMMET051SPECI SBUF 171945Z 13008KT 9999 FEW023 36/13 Q1008=
0142829860999992016111811154-09401-038251FM-16+026999999V0200501N003619999999N009999199+02901+01801999999ADDGA1041+006101999GE19MSL   +99999+99999GF199999041999006101999999MA1101201999999REMMET051SPECI SBUF 181115Z 05007KT 9999 SCT020 29/18 Q1012=
0142829860999992016111812004-09401-038251FM-15+026999999V0200701N002119999999N009999199+03001+01801999999ADDGA1021+006101999GE19MSL   +99999+99999GF199999021999006101999999MA1101201999999REMMET051METAR SBUF 181200Z 07004KT 9999 FEW020 30/18 Q1012=
0142829860999992016111813004-09401-038251FM-15+026999999V0203601N001519999999N009999199+03101+01701999999ADDGA1021+006401999GE19MSL   +99999+99999GF199999021999006401999999MA1101101999999REMMET051METAR SBUF 181300Z 36003KT 9999 FEW021 31/17 Q1011=
0072829860999992016111814004-09401-038251FM-15+026999999V0203601N002119999999Y999999999+03301+01601999999ADDMA1101001999999REMMET045METAR SBUF 181400Z 36004KT CAVOK 33/16 Q1010=
0072829860999992016111815004-09401-038251FM-15+026999999V0201601N003619999999Y999999999+03501+01301999999ADDMA1100901999999REMMET045METAR SBUF 181500Z 16007KT CAVOK 35/13 Q1009=
0072829860999992016111816004-09401-038251FM-15+026999999V0201801N003619999999Y999999999+03601+01201999999ADDMA1100801999999REMMET045METAR SBUF 181600Z 18007KT CAVOK 36/12 Q1008=
0142829860999992016111817004-09401-038251FM-15+026999999V0201701N002119999999N009999199+03701+01101999999ADDGA1021+007011999GE19MSL   +99999+99999GF199999021999007011999999MA1100701999999REMMET051METAR SBUF 181700Z 17004KT 9999 FEW023 37/11 Q1007=
0142829860999992016111819004-09401-038251FM-15+026999999V0201601N001519999999N009999199+03701+01001999999ADDGA1021+007011999GE19MSL   +99999+99999GF199999021999007011999999MA1100601999999REMMET051METAR SBUF 181900Z 16003KT 9999 FEW023 37/10 Q1006=
0142829860999992016111819454-09401-038251FM-16+026999999V0201001N003119999999N009999199+03601+01001999999ADDGA1021+007011999GE19MSL   +99999+99999GF199999021999007011999999MA1100501999999REMMET051SPECI SBUF 181945Z 10006KT 9999 FEW023 36/10 Q1005=
0072829860999992016111911154-09401-038251FM-16+026999999V0200201N003119999999Y999999999+02901+01701999999ADDMA1101201999999REMMET045SPECI SBUF 191115Z 02006KT CAVOK 29/17 Q1012=
0072829860999992016111912004-09401-038251FM-15+026999999V0203601N003619999999Y999999999+03101+01601999999ADDMA1101201999999REMMET045METAR SBUF 191200Z 36007KT CAVOK 31/16 Q1012=
0072829860999992016111913004-09401-038251FM-15+026999999V0200401N003119999999Y999999999+03301+01501999999ADDMA1101101999999REMMET045METAR SBUF 191300Z 04006KT CAVOK 33/15 Q1011=
0072829860999992016111914004-09401-038251FM-15+026999999V0203401N002619999999Y999999999+03301+01401999999ADDMA1101001999999REMMET045METAR SBUF 191400Z 34005KT CAVOK 33/14 Q1010=
0165829860999992016111915004-09401-038251FM-15+026999999V0200201N00261027431CN009999199+03501+01401999999ADDGA1021+006711999GA2041+027431999GE19MSL   +99999+99999GF199999021999006711999999MA1100901999999REMMET058METAR SBUF 191500Z 02005KT 9999 FEW022 SCT090 35/14 Q1009=
0165829860999992016111916004-09401-038251FM-15+026999999V0200301N002110304819N009999199+03601+01401999999ADDGA1021+006711999GA2071+030481999GE19MSL   +99999+99999GF199999021999006711999999MA1100801999999REMMET058METAR SBUF 191600Z 03004KT 9999 FEW022 BKN100 36/14 Q1008=
0165829860999992016111917004-09401-038251FM-15+026999999V0201201N00211030481CN009999199+03801+01301999999ADDGA1021+006711999GA2041+030481999GE19MSL   +99999+99999GF199999021999006711999999MA1100701999999REMMET058METAR SBUF 191700Z 12004KT 9999 FEW022 SCT100 38/13 Q1007=
0165829860999992016111918004-09401-038251FM-15+026999999V0200501N002110304819N009999199+03701+01301999999ADDGA1041+006711999GA2071+030481999GE19MSL   +99999+99999GF199999041999006711999999MA1100701999999REMMET058METAR SBUF 191800Z 05004KT 9999 SCT022 BKN100 37/13 Q1007=
0165829860999992016111919004-09401-038251FM-15+026999999V0201701N002610304819N009999199+03701+01301999999ADDGA1021+006711999GA2071+030481999GE19MSL   +99999+99999GF199999021999006711999999MA1100701999999REMMET058METAR SBUF 191900Z 17005KT 9999 FEW022 BKN100 37/13 Q1007=
0165829860999992016111919454-09401-038251FM-16+026999999V0201301N001510304819N009999199+03601+01301999999ADDGA1021+006711999GA2071+030481999GE19MSL   +99999+99999GF199999021999006711999999MA1100701999999REMMET058SPECI SBUF 191945Z 13003KT 9999 FEW022 BKN100 36/13 Q1007=
0165829860999992016112011154-09401-038251FM-16+026999999V0201201N003110243819N009999199+02801+02101999999ADDGA1041+005491999GA2071+024381999GE19MSL   +99999+99999GF199999041999005491999999MA1101301999999REMMET058SPECI SBUF 201115Z 12006KT 9999 SCT018 BKN080 28/21 Q1013=
0165829860999992016112012004-09401-038251FM-15+026999999V0201301N003610057919N009999199+03001+02101999999ADDGA1071+005791999GA2041+024381999GE19MSL   +99999+99999GF199999071999005791999999MA1101301999999REMMET058METAR SBUF 201200Z 13007KT 9999 BKN019 SCT080 30/21 Q1013=
0142829860999992016112013004-09401-038251FM-15+026999999V0201201N004110061019N009999199+03101+02101999999ADDGA1071+006101999GE19MSL   +99999+99999GF199999071999006101999999MA1101301999999REMMET051METAR SBUF 201300Z 12008KT 9999 BKN020 31/21 Q1013=
0142829860999992016112014004-09401-038251FM-15+026999999V0200901N004110061019N009999199+03401+02001999999ADDGA1071+006101999GE19MSL   +99999+99999GF199999071999006101999999MA1101201999999REMMET051METAR SBUF 201400Z 09008KT 9999 BKN020 34/20 Q1012=
0142829860999992016112015004-09401-038251FM-15+026999999V0201201N003619999999N009999199+03501+01901999999ADDGA1041+006401999GE19MSL   +99999+99999GF199999041999006401999999MA1101101999999REMMET051METAR SBUF 201500Z 12007KT 9999 SCT021 35/19 Q1011=
0142829860999992016112016004-09401-038251FM-15+026999999V0200201N002619999999N009999199+03401+01901999999ADDGA1041+006401999GE19MSL   +99999+99999GF199999041999006401999999MA1101001999999REMMET051METAR SBUF 201600Z 02005KT 9999 SCT021 34/19 Q1010=
0142829860999992016112017004-09401-038251FM-15+026999999V0201101N004119999999N009999199+03601+01601999999ADDGA1041+006401999GE19MSL   +99999+99999GF199999041999006401999999MA1100901999999REMMET051METAR SBUF 201700Z 11008KT 9999 SCT021 36/16 Q1009=
0142829860999992016112018004-09401-038251FM-15+026999999V0201001N003619999999N009999199+03701+01501999999ADDGA1021+006711999GE19MSL   +99999+99999GF199999021999006711999999MA1100801999999REMMET051METAR SBUF 201800Z 10007KT 9999 FEW022 37/15 Q1008=
0142829860999992016112019004-09401-038251FM-15+026999999V0201201N005119999999N009999199+03601+01601999999ADDGA1021+006401999GE19MSL   +99999+99999GF199999021999006401999999MA1100801999999REMMET051METAR SBUF 201900Z 12010KT 9999 FEW021 36/16 Q1008=
0142829860999992016112019454-09401-038251FM-16+026999999V0201001N004619999999N009999199+03501+01501999999ADDGA1021+006401999GE19MSL   +99999+99999GF199999021999006401999999MA1100801999999REMMET051SPECI SBUF 201945Z 10009KT 9999 FEW021 35/15 Q1008=
0142829860999992016112111154-09401-038251FM-16+026999999V0201001N004610061019N009999199+02901+01801999999ADDGA1071+006101999GE19MSL   +99999+99999GF199999071999006101999999MA1101501999999REMMET051SPECI SBUF 211115Z 10009KT 9999 BKN020 29/18 Q1015=
0142829860999992016112112004-09401-038251FM-15+026999999V0200901N004619999999N009999199+03001+01801999999ADDGA1041+006101999GE19MSL   +99999+99999GF199999041999006101999999MA1101501999999REMMET051METAR SBUF 211200Z 09009KT 9999 SCT020 30/18 Q1015=
0142829860999992016112113004-09401-038251FM-15+026999999V0201001N005119999999N009999199+03201+01601999999ADDGA1041+006711999GE19MSL   +99999+99999GF199999041999006711999999MA1101501999999REMMET051METAR SBUF 211300Z 10010KT 9999 SCT022 32/16 Q1015=
0142829860999992016112114004-09401-038251FM-15+026999999V0201001N005119999999N009999199+03301+01401999999ADDGA1021+006711999GE19MSL   +99999+99999GF199999021999006711999999MA1101401999999REMMET051METAR SBUF 211400Z 10010KT 9999 FEW022 33/14 Q1014=
0142829860999992016112115004-09401-038251FM-15+026999999V0201101N003619999999N009999199+03501+01501999999ADDGA1021+007011999GE19MSL   +99999+99999GF199999021999007011999999MA1101301999999REMMET051METAR SBUF 211500Z 11007KT 9999 FEW023 35/15 Q1013=
0142829860999992016112116004-09401-038251FM-15+026999999V0201101N005119999999N009999199+03501+01401999999ADDGA1021+007011999GE19MSL   +99999+99999GF199999021999007011999999MA1101201999999REMMET051METAR SBUF 211600Z 11010KT 9999 FEW023 35/14 Q1012=
0142829860999992016112117004-09401-038251FM-15+026999999V0201401N004119999999N009999199+03601+01301999999ADDGA1021+007011999GE19MSL   +99999+99999GF199999021999007011999999MA1101101999999REMMET051METAR SBUF 211700Z 14008KT 9999 FEW023 36/13 Q1011=
0142829860999992016112118004-09401-038251FM-15+026999999V0201101N003619999999N009999199+03601+01201999999ADDGA1041+007011999GE19MSL   +99999+99999GF199999041999007011999999MA1101101999999REMMET051METAR SBUF 211800Z 11007KT 9999 SCT023 36/12 Q1011=
0142829860999992016112119004-09401-038251FM-15+026999999V0201101N004619999999N009999199+03601+01201999999ADDGA1041+007011999GE19MSL   +99999+99999GF199999041999007011999999MA1101101999999REMMET051METAR SBUF 211900Z 11009KT 9999 SCT023 36/12 Q1011=
0142829860999992016112119454-09401-038251FM-16+026999999V0201301N004619999999N009999199+03501+01201999999ADDGA1041+007011999GE19MSL   +99999+99999GF199999041999007011999999MA1101101999999REMMET051SPECI SBUF 211945Z 13009KT 9999 SCT023 35/12 Q1011=
0142829860999992016112211154-09401-038251FM-16+026999999V0200901N005719999999N009999199+02801+01801999999ADDGA1041+005791999GE19MSL   +99999+99999GF199999041999005791999999MA1101501999999REMMET051SPECI SBUF 221115Z 09011KT 9999 SCT019 28/18 Q1015=
0142829860999992016112212004-09401-038251FM-15+026999999V0201101N006219999999N009999199+03001+01801999999ADDGA1041+006101999GE19MSL   +99999+99999GF199999041999006101999999MA1101401999999REMMET051METAR SBUF 221200Z 11012KT 9999 SCT020 30/18 Q1014=
0142829860999992016112213004-09401-038251FM-15+026999999V0201001N005119999999N009999199+03101+01701999999ADDGA1021+006101999GE19MSL   +99999+99999GF199999021999006101999999MA1101401999999REMMET051METAR SBUF 221300Z 10010KT 9999 FEW020 31/17 Q1014=
0072829860999992016112214004-09401-038251FM-15+026999999V0201201N005119999999Y999999999+03301+01601999999ADDMA1101301999999REMMET045METAR SBUF 221400Z 12010KT CAVOK 33/16 Q1013=
0072829860999992016112215004-09401-038251FM-15+026999999V0201401N004619999999Y999999999+03401+01401999999ADDMA1101201999999REMMET045METAR SBUF 221500Z 14009KT CAVOK 34/14 Q1012=
0072829860999992016112216004-09401-038251FM-15+026999999V0201501N004119999999Y999999999+03501+01201999999ADDMA1101101999999REMMET045METAR SBUF 221600Z 15008KT CAVOK 35/12 Q1011=
0072829860999992016112217004-09401-038251FM-15+026999999V0201001N003619999999Y999999999+03601+01101999999ADDMA1101001999999REMMET045METAR SBUF 221700Z 10007KT CAVOK 36/11 Q1010=
0072829860999992016112218004-09401-038251FM-15+026999999V0200901N003119999999Y999999999+03701+01001999999ADDMA1100901999999REMMET045METAR SBUF 221800Z 09006KT CAVOK 37/10 Q1009=
0072829860999992016112219004-09401-038251FM-15+026999999V0201201N004119999999Y999999999+03701+01001999999ADDMA1100901999999REMMET045METAR SBUF 221900Z 12008KT CAVOK 37/10 Q1009=
0072829860999992016112219454-09401-038251FM-16+026999999V0201201N004619999999Y999999999+03601+01101999999ADDMA1100901999999REMMET045SPECI SBUF 221945Z 12009KT CAVOK 36/11 Q1009=
0142829860999992016112312004-09401-038251FM-15+026999999V0201001N004619999999N009999199+03001+01801999999ADDGA1021+006101999GE19MSL   +99999+99999GF199999021999006101999999MA1101501999999REMMET051METAR SBUF 231200Z 10009KT 9999 FEW020 30/18 Q1015=
0072829860999992016112313004-09401-038251FM-15+026999999V0201101N003619999999Y999999999+03201+01701999999ADDMA1101401999999REMMET045METAR SBUF 231300Z 11007KT CAVOK 32/17 Q1014=
0072829860999992016112314004-09401-038251FM-15+026999999V0201101N003619999999Y999999999+03501+01601999999ADDMA1101301999999REMMET045METAR SBUF 231400Z 11007KT CAVOK 35/16 Q1013=
0072829860999992016112315004-09401-038251FM-15+026999999V0201101N004619999999Y999999999+03501+01501999999ADDMA1101201999999REMMET045METAR SBUF 231500Z 11009KT CAVOK 35/15 Q1012=
0072829860999992016112316004-09401-038251FM-15+026999999V0201301N004619999999Y999999999+03601+01501999999ADDMA1101101999999REMMET045METAR SBUF 231600Z 13009KT CAVOK 36/15 Q1011=
0142829860999992016112317004-09401-038251FM-15+026999999V0201301N005119999999N009999199+03701+01301999999ADDGA1021+007011999GE19MSL   +99999+99999GF199999021999007011999999MA1101001999999REMMET051METAR SBUF 231700Z 13010KT 9999 FEW023 37/13 Q1010=
0142829860999992016112318004-09401-038251FM-15+026999999V0201301N003619999999N009999199+03701+01201999999ADDGA1021+007011999GE19MSL   +99999+99999GF199999021999007011999999MA1100901999999REMMET051METAR SBUF 231800Z 13007KT 9999 FEW023 37/12 Q1009=
0142829860999992016112319004-09401-038251FM-15+026999999V0201201N004619999999N009999199+03701+01201999999ADDGA1021+007011999GE19MSL   +99999+99999GF199999021999007011999999MA1100901999999REMMET051METAR SBUF 231900Z 12009KT 9999 FEW023 37/12 Q1009=
0072829860999992016112319454-09401-038251FM-16+026999999V0201101N004619999999Y999999999+03601+01201999999ADDMA1100901999999REMMET045SPECI SBUF 231945Z 11009KT CAVOK 36/12 Q1009=
0142829860999992016112411154-09401-038251FM-16+026999999V0201001N002619999999N009999199+03001+01801999999ADDGA1021+006101999GE19MSL   +99999+99999GF199999021999006101999999MA1101501999999REMMET051SPECI SBUF 241115Z 10005KT 9999 FEW020 30/18 Q1015=
0072829860999992016112412004-09401-038251FM-15+026999999V0200501N003619999999Y999999999+03101+01801999999ADDMA1101501999999REMMET045METAR SBUF 241200Z 05007KT CAVOK 31/18 Q1015=
0072829860999992016112413004-09401-038251FM-15+026999999V0201201N003619999999Y999999999+03301+01701999999ADDMA1101501999999REMMET045METAR SBUF 241300Z 12007KT CAVOK 33/17 Q1015=
0072829860999992016112414004-09401-038251FM-15+026999999V0201101N003119999999Y999999999+03501+01501999999ADDMA1101401999999REMMET045METAR SBUF 241400Z 11006KT CAVOK 35/15 Q1014=
0072829860999992016112415004-09401-038251FM-15+026999999V0201101N005119999999Y999999999+03801+01101999999ADDMA1101301999999REMMET045METAR SBUF 241500Z 11010KT CAVOK 38/11 Q1013=
0072829860999992016112416004-09401-038251FM-15+026999999V0201301N005119999999Y999999999+03901+00501999999ADDMA1101201999999REMMET045METAR SBUF 241600Z 13010KT CAVOK 39/05 Q1012=
0142829860999992016112417004-09401-038251FM-15+026999999V0201101N004619999999N009999199+03901+00302999999ADDGA1021+007011999GE19MSL   +99999+99999GF199999021999007011999999MA1101101999999REMMET051METAR SBUF 241700Z 11009KT 9999 FEW023 39/03 Q1011=
0142829860999992016112418004-09401-038251FM-15+026999999V0200701N004619999999N009999199+03901+00301999999ADDGA1021+007011999GE19MSL   +99999+99999GF199999021999007011999999MA1101001999999REMMET051METAR SBUF 241800Z 07009KT 9999 FEW023 39/03 Q1010=
0142829860999992016112419004-09401-038251FM-15+026999999V0201401N004119999999N009999199+03901+00401999999ADDGA1021+007011999GE19MSL   +99999+99999GF199999021999007011999999MA1101001999999REMMET051METAR SBUF 241900Z 14008KT 9999 FEW023 39/04 Q1010=
0072829860999992016112419454-09401-038251FM-16+026999999V0201201N004619999999Y999999999+03801+00601999999ADDMA1101001999999REMMET045SPECI SBUF 241945Z 12009KT CAVOK 38/06 Q1010=
0142829860999992016112511154-09401-038251FM-16+026999999V0201001N002619999999N009999199+02801+01901999999ADDGA1021+005791999GE19MSL   +99999+99999GF199999021999005791999999MA1101601999999REMMET051SPECI SBUF 251115Z 10005KT 9999 FEW019 28/19 Q1016=
0072829860999992016112512004-09401-038251FM-15+026999999V0201601N003119999999Y999999999+02901+01901999999ADDMA1101601999999REMMET045METAR SBUF 251200Z 16006KT CAVOK 29/19 Q1016=
0072829860999992016112513004-09401-038251FM-15+026999999V0201001N004619999999Y999999999+03301+01501999999ADDMA1101601999999REMMET045METAR SBUF 251300Z 10009KT CAVOK 33/15 Q1016=
0072829860999992016112514004-09401-038251FM-15+026999999V0201301N004119999999Y999999999+03401+01301999999ADDMA1101501999999REMMET045METAR SBUF 251400Z 13008KT CAVOK 34/13 Q1015=
0072829860999992016112515004-09401-038251FM-15+026999999V0200801N005119999999Y999999999+03601+01201999999ADDMA1101401999999REMMET045METAR SBUF 251500Z 08010KT CAVOK 36/12 Q1014=
0072829860999992016112516004-09401-038251FM-15+026999999V0200901N005719999999Y999999999+03701+00901999999ADDMA1101301999999REMMET045METAR SBUF 251600Z 09011KT CAVOK 37/09 Q1013=
0072829860999992016112517004-09401-038251FM-15+026999999V0201101N006219999999Y999999999+03801+00801999999ADDMA1101201999999REMMET045METAR SBUF 251700Z 11012KT CAVOK 38/08 Q1012=
0072829860999992016112518004-09401-038251FM-15+026999999V0200901N006219999999Y999999999+03701+00901999999ADDMA1101101999999REMMET045METAR SBUF 251800Z 09012KT CAVOK 37/09 Q1011=
0072829860999992016112519004-09401-038251FM-15+026999999V0201001N006719999999Y999999999+03701+00801999999ADDMA1101101999999REMMET045METAR SBUF 251900Z 10013KT CAVOK 37/08 Q1011=
0072829860999992016112519454-09401-038251FM-16+026999999V0200901N005719999999Y999999999+03601+00901999999ADDMA1101101999999REMMET045SPECI SBUF 251945Z 09011KT CAVOK 36/09 Q1011=
0142829860999992016112611154-09401-038251FM-16+026999999V0201001N006219999999N009999199+02801+01601999999ADDGA1041+005791999GE19MSL   +99999+99999GF199999041999005791999999MA1101601999999REMMET051SPECI SBUF 261115Z 10012KT 9999 SCT019 28/16 Q1016=
0142829860999992016112612004-09401-038251FM-15+026999999V0200901N006219999999N009999199+03001+01501999999ADDGA1041+006101999GE19MSL   +99999+99999GF199999041999006101999999MA1101601999999REMMET051METAR SBUF 261200Z 09012KT 9999 SCT020 30/15 Q1016=
0142829860999992016112613004-09401-038251FM-15+026999999V0201001N005719999999N009999199+03201+01501999999ADDGA1021+006401999GE19MSL   +99999+99999GF199999021999006401999999MA1101601999999REMMET051METAR SBUF 261300Z 10011KT 9999 FEW021 32/15 Q1016=
0142829860999992016112614004-09401-038251FM-15+026999999V0201001N004619999999N009999199+03301+01401999999ADDGA1021+006711999GE19MSL   +99999+99999GF199999021999006711999999MA1101501999999REMMET051METAR SBUF 261400Z 10009KT 9999 FEW022 33/14 Q1015=
0142829860999992016112615004-09401-038251FM-15+026999999V0200901N005719999999N009999199+03401+01401999999ADDGA1021+006711999GE19MSL   +99999+99999GF199999021999006711999999MA1101401999999REMMET051METAR SBUF 261500Z 09011KT 9999 FEW022 34/14 Q1014=
0142829860999992016112616004-09401-038251FM-15+026999999V0201001N006219999999N009999199+03501+01301999999ADDGA1021+007011999GE19MSL   +99999+99999GF199999021999007011999999MA1101301999999REMMET051METAR SBUF 261600Z 10012KT 9999 FEW023 35/13 Q1013=
0072829860999992016112618004-09401-038251FM-15+026999999V0200901N005719999999Y999999999+03501+01201999999ADDMA1101101999999REMMET045METAR SBUF 261800Z 09011KT CAVOK 35/12 Q1011=
0072829860999992016112619004-09401-038251FM-15+026999999V0201101N005719999999Y999999999+03501+01201999999ADDMA1101101999999REMMET045METAR SBUF 261900Z 11011KT CAVOK 35/12 Q1011=
0072829860999992016112619454-09401-038251FM-16+026999999V0201001N005719999999Y999999999+03401+01301999999ADDMA1101101999999REMMET045SPECI SBUF 261945Z 10011KT CAVOK 34/13 Q1011=
0142829860999992016112711154-09401-038251FM-16+026999999V0201201N004610057919N009999199+02701+01901999999ADDGA1071+005791999GE19MSL   +99999+99999GF199999071999005791999999MA1101601999999REMMET051SPECI SBUF 271115Z 12009KT 9999 BKN019 27/19 Q1016=
0142829860999992016112712004-09401-038251FM-15+026999999V0201101N006210057919N009999199+02901+01701999999ADDGA1071+005791999GE19MSL   +99999+99999GF199999071999005791999999MA1101601999999REMMET051METAR SBUF 271200Z 11012KT 9999 BKN019 29/17 Q1016=
0142829860999992016112713004-09401-038251FM-15+026999999V0201301N006219999999N009999199+03201+01601999999ADDGA1041+006101999GE19MSL   +99999+99999GF199999041999006101999999MA1101601999999REMMET051METAR SBUF 271300Z 13012KT 9999 SCT020 32/16 Q1016=
0142829860999992016112714004-09401-038251FM-15+026999999V0201201N006219999999N009999199+03201+01501999999ADDGA1041+006101999GE19MSL   +99999+99999GF199999041999006101999999MA1101501999999REMMET051METAR SBUF 271400Z 12012KT 9999 SCT020 32/15 Q1015=
0142829860999992016112715004-09401-038251FM-15+026999999V0201001N005719999999N009999199+03401+01401999999ADDGA1041+006401999GE19MSL   +99999+99999GF199999041999006401999999MA1101401999999REMMET051METAR SBUF 271500Z 10011KT 9999 SCT021 34/14 Q1014=
0142829860999992016112716004-09401-038251FM-15+026999999V0200801N005719999999N009999199+03501+01301999999ADDGA1021+006711999GE19MSL   +99999+99999GF199999021999006711999999MA1101301999999REMMET051METAR SBUF 271600Z 08011KT 9999 FEW022 35/13 Q1013=
0142829860999992016112717004-09401-038251FM-15+026999999V0201001N005719999999N009999199+03601+01101999999ADDGA1021+006711999GE19MSL   +99999+99999GF199999021999006711999999MA1101101999999REMMET051METAR SBUF 271700Z 10011KT 9999 FEW022 36/11 Q1011=
0142829860999992016112718004-09401-038251FM-15+026999999V0200901N006719999999N009999199+03601+01201999999ADDGA1021+006711999GE19MSL   +99999+99999GF199999021999006711999999MA1101101999999REMMET051METAR SBUF 271800Z 09013KT 9999 FEW022 36/12 Q1011=
0142829860999992016112719004-09401-038251FM-15+026999999V0201001N006219999999N009999199+03601+01201999999ADDGA1021+006711999GE19MSL   +99999+99999GF199999021999006711999999MA1101101999999REMMET051METAR SBUF 271900Z 10012KT 9999 FEW022 36/12 Q1011=
0142829860999992016112719454-09401-038251FM-16+026999999V0200901N006219999999N009999199+03501+01101999999ADDGA1021+006711999GE19MSL   +99999+99999GF199999021999006711999999MA1101101999999REMMET051SPECI SBUF 271945Z 09012KT 9999 FEW022 35/11 Q1011=
0142829860999992016112811154-09401-038251FM-16+026999999V0201001N006210054919N009999199+02901+01801999999ADDGA1071+005491999GE19MSL   +99999+99999GF199999071999005491999999MA1101601999999REMMET051SPECI SBUF 281115Z 10012KT 9999 BKN018 29/18 Q1016=
0142829860999992016112812004-09401-038251FM-15+026999999V0201001N005710061019N009999199+03101+01701999999ADDGA1071+006101999GE19MSL   +99999+99999GF199999071999006101999999MA1101601999999REMMET051METAR SBUF 281200Z 10011KT 9999 BKN020 31/17 Q1016=
0142829860999992016112813004-09401-038251FM-15+026999999V0200901N005719999999N009999199+03201+01601999999ADDGA1021+006101999GE19MSL   +99999+99999GF199999021999006101999999MA1101601999999REMMET051METAR SBUF 281300Z 09011KT 9999 FEW020 32/16 Q1016=
0142829860999992016112814004-09401-038251FM-15+026999999V0200901N005719999999N009999199+03301+01401999999ADDGA1021+006101999GE19MSL   +99999+99999GF199999021999006101999999MA1101501999999REMMET051METAR SBUF 281400Z 09011KT 9999 FEW020 33/14 Q1015=
0142829860999992016112815004-09401-038251FM-15+026999999V0201001N005119999999N009999199+03401+01401999999ADDGA1021+006711999GE19MSL   +99999+99999GF199999021999006711999999MA1101401999999REMMET051METAR SBUF 281500Z 10010KT 9999 FEW022 34/14 Q1014=
0142829860999992016112816004-09401-038251FM-15+026999999V0201001N004119999999N009999199+03601+01301999999ADDGA1021+007011999GE19MSL   +99999+99999GF199999021999007011999999MA1101201999999REMMET051METAR SBUF 281600Z 10008KT 9999 FEW023 36/13 Q1012=
0072829860999992016112817004-09401-038251FM-15+026999999V0200801N004619999999Y999999999+03601+01101999999ADDMA1101101999999REMMET045METAR SBUF 281700Z 08009KT CAVOK 36/11 Q1011=
0072829860999992016112818004-09401-038251FM-15+026999999V0201001N005119999999Y999999999+03701+01001999999ADDMA1101101999999REMMET045METAR SBUF 281800Z 10010KT CAVOK 37/10 Q1011=
0072829860999992016112819004-09401-038251FM-15+026999999V0200901N005119999999Y999999999+03601+00901999999ADDMA1101001999999REMMET045METAR SBUF 281900Z 09010KT CAVOK 36/09 Q1010=
0072829860999992016112819454-09401-038251FM-16+026999999V0200901N004119999999Y999999999+03501+00701999999ADDMA1101001999999REMMET045SPECI SBUF 281945Z 09008KT CAVOK 35/07 Q1010=
0142829860999992016112911154-09401-038251FM-16+026999999V0201001N006210057919N009999199+02801+01801999999ADDGA1071+005791999GE19MSL   +99999+99999GF199999071999005791999999MA1101501999999REMMET051SPECI SBUF 291115Z 10012KT 9999 BKN019 28/18 Q1015=
0142829860999992016112912004-09401-038251FM-15+026999999V0200901N006219999999N009999199+03001+01701999999ADDGA1021+006101999GE19MSL   +99999+99999GF199999021999006101999999MA1101501999999REMMET051METAR SBUF 291200Z 09012KT 9999 FEW020 30/17 Q1015=
0142829860999992016112913004-09401-038251FM-15+026999999V0200901N005119999999N009999199+03201+01601999999ADDGA1021+006401999GE19MSL   +99999+99999GF199999021999006401999999MA1101501999999REMMET051METAR SBUF 291300Z 09010KT 9999 FEW021 32/16 Q1015=
0072829860999992016112914004-09401-038251FM-15+026999999V0200901N004619999999Y999999999+03301+01601999999ADDMA1101401999999REMMET045METAR SBUF 291400Z 09009KT CAVOK 33/16 Q1014=
0072829860999992016112915004-09401-038251FM-15+026999999V0201101N004619999999Y999999999+03401+01401999999ADDMA1101301999999REMMET045METAR SBUF 291500Z 11009KT CAVOK 34/14 Q1013=
0142829860999992016112916004-09401-038251FM-15+026999999V0201001N003119999999N009999199+03601+01201999999ADDGA1021+006711999GE19MSL   +99999+99999GF199999021999006711999999MA1101101999999REMMET051METAR SBUF 291600Z 10006KT 9999 FEW022 36/12 Q1011=
0142829860999992016112917004-09401-038251FM-15+026999999V0201201N003119999999N009999199+03701+01301999999ADDGA1021+007011999GE19MSL   +99999+99999GF199999021999007011999999MA1101001999999REMMET051METAR SBUF 291700Z 12006KT 9999 FEW023 37/13 Q1010=
0072829860999992016112918004-09401-038251FM-15+026999999V0200501N003119999999Y999999999+03701+01101999999ADDMA1100901999999REMMET045METAR SBUF 291800Z 05006KT CAVOK 37/11 Q1009=
0072829860999992016112919004-09401-038251FM-15+026999999V0201501N002619999999Y999999999+03601+00901999999ADDMA1100901999999REMMET045METAR SBUF 291900Z 15005KT CAVOK 36/09 Q1009=
0072829860999992016112919454-09401-038251FM-16+026999999V0201601N002619999999Y999999999+03601+01001999999ADDMA1100901999999REMMET045SPECI SBUF 291945Z 16005KT CAVOK 36/10 Q1009=
0072829860999992016112921004-09401-038251FM-15+026999999V0200801N002619999999Y999999999+03401+00901999999ADDMA1101001999999REMMET045METAR SBUF 292100Z 08005KT CAVOK 34/09 Q1010=
0072829860999992016112922004-09401-038251FM-15+026999999V0201201N002119999999Y999999999+03201+01301999999ADDMA1101001999999REMMET045METAR SBUF 292200Z 12004KT CAVOK 32/13 Q1010=
0072829860999992016112922454-09401-038251FM-16+026999999V0201101N006719999999Y999999999+03201+01601999999ADDMA1101101999999REMMET045SPECI SBUF 292245Z 11013KT CAVOK 32/16 Q1011=
0142829860999992016113011154-09401-038251FM-16+026999999V0201101N002610057919N009999199+02901+02001999999ADDGA1071+005791999GE19MSL   +99999+99999GF199999071999005791999999MA1101401999999REMMET051SPECI SBUF 301115Z 11005KT 9999 BKN019 29/20 Q1014=
0142829860999992016113012004-09401-038251FM-15+026999999V0201001N001519999999N009999199+03001+02001999999ADDGA1021+006101999GE19MSL   +99999+99999GF199999021999006101999999MA1101401999999REMMET051METAR SBUF 301200Z 10003KT 9999 FEW020 30/20 Q1014=
0142829860999992016113013004-09401-038251FM-15+026999999V0201401N002619999999N009999199+03301+01701999999ADDGA1021+006711999GE19MSL   +99999+99999GF199999021999006711999999MA1101401999999REMMET051METAR SBUF 301300Z 14005KT 9999 FEW022 33/17 Q1014=
0142829860999992016113015004-09401-038251FM-15+026999999V0201201N003619999999N009999199+03501+01601999999ADDGA1021+006711999GE19MSL   +99999+99999GF199999021999006711999999MA1101201999999REMMET051METAR SBUF 301500Z 12007KT 9999 FEW022 35/16 Q1012=
0072829860999992016113016004-09401-038251FM-15+026999999V0200901N003119999999Y999999999+03601+01301999999ADDMA1101101999999REMMET045METAR SBUF 301600Z 09006KT CAVOK 36/13 Q1011=
0142829860999992016113017004-09401-038251FM-15+026999999V0201801N003119999999N009999199+03701+01201999999ADDGA1021+007011999GE19MSL   +99999+99999GF199999021999007011999999MA1101001999999REMMET051METAR SBUF 301700Z 18006KT 9999 FEW023 37/12 Q1010=
0142829860999992016113018004-09401-038251FM-15+026999999V0201101N003619999999N009999199+03801+01001999999ADDGA1021+007011999GE19MSL   +99999+99999GF199999021999007011999999MA1100901999999REMMET051METAR SBUF 301800Z 11007KT 9999 FEW023 38/10 Q1009=
0142829860999992016113019004-09401-038251FM-15+026999999V0200701N002619999999N009999199+03801+01101999999ADDGA1021+007011999GE19MSL   +99999+99999GF199999021999007011999999MA1100901999999REMMET051METAR SBUF 301900Z 07005KT 9999 FEW023 38/11 Q1009=
0142829860999992016113019454-09401-038251FM-16+026999999V0200901N004619999999N009999199+03701+01001999999ADDGA1021+007011999GE19MSL   +99999+99999GF199999021999007011999999MA1100901999999REMMET051SPECI SBUF 301945Z 09009KT 9999 FEW023 37/10 Q1009=
0142829860999992016120111154-09401-038251FM-16+026999999V0201001N004119999999N009999199+03001+01901999999ADDGA1021+006101999GE19MSL   +99999+99999GF199999021999006101999999MA1101601999999REMMET051SPECI SBUF 011115Z 10008KT 9999 FEW020 30/19 Q1016=
0142829860999992016120112004-09401-038251FM-15+026999999V0201201N004119999999N009999199+03001+01801999999ADDGA1021+006101999GE19MSL   +99999+99999GF199999021999006101999999MA1101801999999REMMET051METAR SBUF 011200Z 12008KT 9999 FEW020 30/18 Q1018=
0142829860999992016120113004-09401-038251FM-15+026999999V0201001N004619999999N009999199+03301+01701999999ADDGA1021+006101999GE19MSL   +99999+99999GF199999021999006101999999MA1101501999999REMMET051METAR SBUF 011300Z 10009KT 9999 FEW020 33/17 Q1015=
0142829860999992016120114004-09401-038251FM-15+026999999V0201201N004119999999N009999199+03401+01601999999ADDGA1021+006401999GE19MSL   +99999+99999GF199999021999006401999999MA1101501999999REMMET051METAR SBUF 011400Z 12008KT 9999 FEW021 34/16 Q1015=
0142829860999992016120115004-09401-038251FM-15+026999999V0201401N004119999999N009999199+03501+01501999999ADDGA1021+006711999GE19MSL   +99999+99999GF199999021999006711999999MA1101401999999REMMET051METAR SBUF 011500Z 14008KT 9999 FEW022 35/15 Q1014=
0142829860999992016120116004-09401-038251FM-15+026999999V0201001N004619999999N009999199+03701+01101999999ADDGA1021+006711999GE19MSL   +99999+99999GF199999021999006711999999MA1101201999999REMMET051METAR SBUF 011600Z 10009KT 9999 FEW022 37/11 Q1012=
0142829860999992016120117004-09401-038251FM-15+026999999V0201001N004119999999N009999199+03801+00601999999ADDGA1021+006711999GE19MSL   +99999+99999GF199999021999006711999999MA1101101999999REMMET051METAR SBUF 011700Z 10008KT 9999 FEW022 38/06 Q1011=
0142829860999992016120118004-09401-038251FM-15+026999999V0201101N004119999999N009999199+03801+00901999999ADDGA1021+006101999GE19MSL   +99999+99999GF199999021999006101999999MA1101101999999REMMET051METAR SBUF 011800Z 11008KT 9999 FEW020 38/09 Q1011=
0142829860999992016120119004-09401-038251FM-15+026999999V0201001N004619999999N009999199+03701+00801999999ADDGA1021+006711999GE19MSL   +99999+99999GF199999021999006711999999MA1101101999999REMMET051METAR SBUF 011900Z 10009KT 9999 FEW022 37/08 Q1011=
0142829860999992016120119454-09401-038251FM-16+026999999V0201201N003619999999N009999199+03701+01001999999ADDGA1021+006711999GE19MSL   +99999+99999GF199999021999006711999999MA1101101999999REMMET051SPECI SBUF 011945Z 12007KT 9999 FEW022 37/10 Q1011=
0142829860999992016120211154-09401-038251FM-16+026999999V0201001N004110057919N009999199+03001+01901999999ADDGA1071+005791999GE19MSL   +99999+99999GF199999071999005791999999MA1101701999999REMMET051SPECI SBUF 021115Z 10008KT 9999 BKN019 30/19 Q1017=
0142829860999992016120212004-09401-038251FM-15+026999999V0201001N004610057919N009999199+03101+01801999999ADDGA1071+005791999GE19MSL   +99999+99999GF199999071999005791999999MA1101701999999REMMET051METAR SBUF 021200Z 10009KT 9999 BKN019 31/18 Q1017=
0142829860999992016120213004-09401-038251FM-15+026999999V0201101N004619999999N009999199+03201+01701999999ADDGA1041+006101999GE19MSL   +99999+99999GF199999041999006101999999MA1101601999999REMMET051METAR SBUF 021300Z 11009KT 9999 SCT020 32/17 Q1016=
0142829860999992016120214004-09401-038251FM-15+026999999V0200901N004119999999N009999199+03501+01601999999ADDGA1041+006101999GE19MSL   +99999+99999GF199999041999006101999999MA1101601999999REMMET051METAR SBUF 021400Z 09008KT 9999 SCT020 35/16 Q1016=
0142829860999992016120215004-09401-038251FM-15+026999999V0201201N004619999999N009999199+03501+01501999999ADDGA1041+006401999GE19MSL   +99999+99999GF199999041999006401999999MA1101501999999REMMET051METAR SBUF 021500Z 12009KT 9999 SCT021 35/15 Q1015=
0142829860999992016120216004-09401-038251FM-15+026999999V0201101N004119999999N009999199+03601+01501999999ADDGA1041+006711999GE19MSL   +99999+99999GF199999041999006711999999MA1101401999999REMMET051METAR SBUF 021600Z 11008KT 9999 SCT022 36/15 Q1014=
0142829860999992016120218004-09401-038251FM-15+026999999V0201001N004619999999N009999199+03701+01301999999ADDGA1021+006711999GE19MSL   +99999+99999GF199999021999006711999999MA1101201999999REMMET051METAR SBUF 021800Z 10009KT 9999 FEW022 37/13 Q1012=
0142829860999992016120219004-09401-038251FM-15+026999999V0201101N004619999999N009999199+03601+01301999999ADDGA1021+006711999GE19MSL   +99999+99999GF199999021999006711999999MA1101201999999REMMET051METAR SBUF 021900Z 11009KT 9999 FEW022 36/13 Q1012=
0142829860999992016120219454-09401-038251FM-16+026999999V0200801N004119999999N009999199+03501+01301999999ADDGA1021+006401999GE19MSL   +99999+99999GF199999021999006401999999MA1101201999999REMMET051SPECI SBUF 021945Z 08008KT 9999 FEW021 35/13 Q1012=
0142829860999992016120311154-09401-038251FM-16+026999999V0200901N003619999999N009999199+02901+01801999999ADDGA1041+005791999GE19MSL   +99999+99999GF199999041999005791999999MA1101501999999REMMET051SPECI SBUF 031115Z 09007KT 9999 SCT019 29/18 Q1015=
0142829860999992016120312004-09401-038251FM-15+026999999V0201001N004119999999N009999199+03001+01701999999ADDGA1041+006101999GE19MSL   +99999+99999GF199999041999006101999999MA1101501999999REMMET051METAR SBUF 031200Z 10008KT 9999 SCT020 30/17 Q1015=
0142829860999992016120313004-09401-038251FM-15+026999999V0201201N004119999999N009999199+03201+01701999999ADDGA1041+006101999GE19MSL   +99999+99999GF199999041999006101999999MA1101401999999REMMET051METAR SBUF 031300Z 12008KT 9999 SCT020 32/17 Q1014=
0142829860999992016120314004-09401-038251FM-15+026999999V0201001N004619999999N009999199+03401+01601999999ADDGA1021+006401999GE19MSL   +99999+99999GF199999021999006401999999MA1101401999999REMMET051METAR SBUF 031400Z 10009KT 9999 FEW021 34/16 Q1014=
0142829860999992016120316004-09401-038251FM-15+026999999V0201201N003619999999N009999199+03601+01401999999ADDGA1021+007011999GE19MSL   +99999+99999GF199999021999007011999999MA1101201999999REMMET051METAR SBUF 031600Z 12007KT 9999 FEW023 36/14 Q1012=
0142829860999992016120317004-09401-038251FM-15+026999999V0201301N002119999999N009999199+03701+01301999999ADDGA1021+007011999GE19MSL   +99999+99999GF199999021999007011999999MA1101101999999REMMET051METAR SBUF 031700Z 13004KT 9999 FEW023 37/13 Q1011=
0142829860999992016120318004-09401-038251FM-15+026999999V0201101N003619999999N009999199+03701+01301999999ADDGA1021+007011999GE19MSL   +99999+99999GF199999021999007011999999MA1101001999999REMMET051METAR SBUF 031800Z 11007KT 9999 FEW023 37/13 Q1010=
0142829860999992016120319004-09401-038251FM-15+026999999V0200801N002619999999N009999199+03601+01301999999ADDGA1021+007011999GE19MSL   +99999+99999GF199999021999007011999999MA1101001999999REMMET051METAR SBUF 031900Z 08005KT 9999 FEW023 36/13 Q1010=
0142829860999992016120319454-09401-038251FM-16+026999999V0201301N004119999999N009999199+03501+01401999999ADDGA1021+007011999GE19MSL   +99999+99999GF199999021999007011999999MA1101001999999REMMET051SPECI SBUF 031945Z 13008KT 9999 FEW023 35/14 Q1010=
0072829860999992016120411154-09401-038251FM-16+026999999V0200501N002119999999Y999999999+02801+01801999999ADDMA1101401999999REMMET045SPECI SBUF 041115Z 05004KT CAVOK 28/18 Q1014=
0072829860999992016120412004-09401-038251FM-15+026999999V0201501N001519999999Y999999999+03101+01801999999ADDMA1101401999999REMMET045METAR SBUF 041200Z 15003KT CAVOK 31/18 Q1014=
0072829860999992016120413004-09401-038251FM-15+026999999V0201401N002119999999Y999999999+03201+01701999999ADDMA1101301999999REMMET045METAR SBUF 041300Z 14004KT CAVOK 32/17 Q1013=
0072829860999992016120414004-09401-038251FM-15+026999999V0201901N002119999999Y999999999+03401+01501999999ADDMA1101201999999REMMET045METAR SBUF 041400Z 19004KT CAVOK 34/15 Q1012=
0072829860999992016120416004-09401-038251FM-15+026999999V0201401N003119999999Y999999999+03701+01201999999ADDMA1101001999999REMMET045METAR SBUF 041600Z 14006KT CAVOK 37/12 Q1010=
0072829860999992016120417004-09401-038251FM-15+026999999V0201601N003119999999Y999999999+03801+01101999999ADDMA1100901999999REMMET045METAR SBUF 041700Z 16006KT CAVOK 38/11 Q1009=
0142829860999992016120418004-09401-038251FM-15+026999999V0201601N002619999999N009999199+03801+00901999999ADDGA1021+007011999GE19MSL   +99999+99999GF199999021999007011999999MA1100801999999REMMET051METAR SBUF 041800Z 16005KT 9999 FEW023 38/09 Q1008=
0142829860999992016120419004-09401-038251FM-15+026999999V0201501N003619999999N009999199+03801+00901999999ADDGA1021+007011999GE19MSL   +99999+99999GF199999021999007011999999MA1100801999999REMMET051METAR SBUF 041900Z 15007KT 9999 FEW023 38/09 Q1008=
0142829860999992016120419454-09401-038251FM-16+026999999V0201201N004619999999N009999199+03701+00801999999ADDGA1021+007011999GE19MSL   +99999+99999GF199999021999007011999999MA1100801999999REMMET051SPECI SBUF 041945Z 12009KT 9999 FEW023 37/08 Q1008=
0072829860999992016120511154-09401-038251FM-16+026999999V0203601N001519999999Y999999999+03001+01901999999ADDMA1101401999999REMMET045SPECI SBUF 051115Z 36003KT CAVOK 30/19 Q1014=
0072829860999992016120512004-09401-038251FM-15+026999999V0200201N002619999999Y999999999+03201+01601999999ADDMA1101401999999REMMET045METAR SBUF 051200Z 02005KT CAVOK 32/16 Q1014=
0072829860999992016120513004-09401-038251FM-15+026999999V0200301N002119999999Y999999999+03501+01501999999ADDMA1101301999999REMMET045METAR SBUF 051300Z 03004KT CAVOK 35/15 Q1013=
0072829860999992016120514004-09401-038251FM-15+026999999V0200301N002119999999Y999999999+03701+01201999999ADDMA1101201999999REMMET045METAR SBUF 051400Z 03004KT CAVOK 37/12 Q1012=
0142829860999992016120515004-09401-038251FM-15+026999999V0203601N002619999999N009999199+03701+01201999999ADDGA1021+007011999GE19MSL   +99999+99999GF199999021999007011999999MA1101101999999REMMET051METAR SBUF 051500Z 36005KT 9999 FEW023 37/12 Q1011=
0142829860999992016120517004-09401-038251FM-15+026999999V0201601N003119999999N009999199+04002+00902999999ADDGA1021+007011999GE19MSL   +99999+99999GF199999021999007011999999MA1100901999999REMMET051METAR SBUF 051700Z 16006KT 9999 FEW023 40/09 Q1009=
0142829860999992016120518004-09401-038251FM-15+026999999V0201801N002619999999N009999199+04002+00702999999ADDGA1041+006711999GE19MSL   +99999+99999GF199999041999006711999999MA1100801999999REMMET051METAR SBUF 051800Z 18005KT 9999 SCT022 40/07 Q1008=
0142829860999992016120519004-09401-038251FM-15+026999999V0201201N004119999999N009999199+04002+00402999999ADDGA1021+007011999GE19MSL   +99999+99999GF199999021999007011999999MA1100801999999REMMET051METAR SBUF 051900Z 12008KT 9999 FEW023 40/04 Q1008=
0142829860999992016120520004-09401-038251FM-15+026999999V0201301N003619999999N009999199+03801+00601999999ADDGA1021+007011999GE19MSL   +99999+99999GF199999021999007011999999MA1100901999999REMMET051METAR SBUF 052000Z 13007KT 9999 FEW023 38/06 Q1009=
0142829860999992016120521004-09401-038251FM-15+026999999V0201201N003619999999N009999199+03601+00701999999ADDGA1021+007011999GE19MSL   +99999+99999GF199999021999007011999999MA1100901999999REMMET051METAR SBUF 052100Z 12007KT 9999 FEW023 36/07 Q1009=
0142829860999992016120522004-09401-038251FM-15+026999999V0201301N003119999999N009999199+03501+00901999999ADDGA1021+006711999GE19MSL   +99999+99999GF199999021999006711999999MA1100901999999REMMET051METAR SBUF 052200Z 13006KT 9999 FEW022 35/09 Q1009=
0072829860999992016120523004-09401-038251FM-15+026999999V0201101N006219999999Y999999999+03301+01702999999ADDMA1101001999999REMMET045METAR SBUF 052300Z 11012KT CAVOK 33/17 Q1010=
0072829860999992016120600004-09401-038251FM-15+026999999V0201101N006219999999Y999999999+03201+02002999999ADDMA1101101999999REMMET045METAR SBUF 060000Z 11012KT CAVOK 32/20 Q1011=
0072829860999992016120601004-09401-038251FM-15+026999999V0201101N004619999999Y999999999+03001+02002999999ADDMA1101301999999REMMET045METAR SBUF 060100Z 11009KT CAVOK 30/20 Q1013=
0072829860999992016120602004-09401-038251FM-15+026999999V0201501N004119999999Y999999999+02901+02001999999ADDMA1101301999999REMMET045METAR SBUF 060200Z 15008KT CAVOK 29/20 Q1013=
0072829860999992016120611154-09401-038251FM-16+026999999V0202301N001519999999Y999999999+02901+02001999999ADDMA1101601999999REMMET045SPECI SBUF 061115Z 23003KT CAVOK 29/20 Q1016=
0072829860999992016120612004-09401-038251FM-15+026999999V0202701N001519999999Y999999999+03101+01901999999ADDMA1101501999999REMMET045METAR SBUF 061200Z 27003KT CAVOK 31/19 Q1015=
0072829860999992016120613004-09401-038251FM-15+026999999V0201301N002619999999Y999999999+03401+01701999999ADDMA1101501999999REMMET045METAR SBUF 061300Z 13005KT CAVOK 34/17 Q1015=
0072829860999992016120614004-09401-038251FM-15+026999999V0201001N001519999999Y999999999+03601+01501999999ADDMA1101401999999REMMET045METAR SBUF 061400Z 10003KT CAVOK 36/15 Q1014=
0072829860999992016120615004-09401-038251FM-15+026999999V0201701N002119999999Y999999999+03801+01101999999ADDMA1101301999999REMMET045METAR SBUF 061500Z 17004KT CAVOK 38/11 Q1013=
0072829860999992016120616004-09401-038251FM-15+026999999V0201301N004119999999Y999999999+03901+00701999999ADDMA1101201999999REMMET045METAR SBUF 061600Z 13008KT CAVOK 39/07 Q1012=
0072829860999992016120618004-09401-038251FM-15+026999999V0200901N003119999999Y999999999+04002+00602999999ADDMA1101001999999REMMET045METAR SBUF 061800Z 09006KT CAVOK 40/06 Q1010=
0072829860999992016120619004-09401-038251FM-15+026999999V0201001N004119999999Y999999999+03901+00501999999ADDMA1101001999999REMMET045METAR SBUF 061900Z 10008KT CAVOK 39/05 Q1010=
0072829860999992016120619454-09401-038251FM-16+026999999V0201101N004619999999Y999999999+03801+00501999999ADDMA1101001999999REMMET045SPECI SBUF 061945Z 11009KT CAVOK 38/05 Q1010=
0072829860999992016120711154-09401-038251FM-16+026999999V0203501N002119999999Y999999999+03001+01901999999ADDMA1101301999999REMMET045SPECI SBUF 071115Z 35004KT CAVOK 30/19 Q1013=
0072829860999992016120713004-09401-038251FM-15+026999999V0200401N001519999999Y999999999+03401+01701999999ADDMA1101301999999REMMET045METAR SBUF 071300Z 04003KT CAVOK 34/17 Q1013=
0072829860999992016120714004-09401-038251FM-15+026999999V0201701N003119999999Y999999999+03601+01501999999ADDMA1101201999999REMMET045METAR SBUF 071400Z 17006KT CAVOK 36/15 Q1012=
0072829860999992016120715004-09401-038251FM-15+026999999V0201801N002619999999Y999999999+03701+01401999999ADDMA1101101999999REMMET045METAR SBUF 071500Z 18005KT CAVOK 37/14 Q1011=
0142829860999992016120717004-09401-038251FM-15+026999999V0200901N004119999999N009999199+04002+00802999999ADDGA1021+007321999GE19MSL   +99999+99999GF199999021999007321999999MA1100901999999REMMET051METAR SBUF 071700Z 09008KT 9999 FEW024 40/08 Q1009=
0072829860999992016120718004-09401-038251FM-15+026999999V0200901N002619999999Y999999999+04002+00502999999ADDMA1100801999999REMMET045METAR SBUF 071800Z 09005KT CAVOK 40/05 Q1008=
0072829860999992016120720004-09401-038251FM-15+026999999V0201201N003619999999Y999999999+03801+00501999999ADDMA1100801999999REMMET045METAR SBUF 072000Z 12007KT CAVOK 38/05 Q1008=
0072829860999992016120721004-09401-038251FM-15+026999999V0201201N003619999999Y999999999+03601+00801999999ADDMA1100801999999REMMET045METAR SBUF 072100Z 12007KT CAVOK 36/08 Q1008=
0072829860999992016120811154-09401-038251FM-16+026999999V0200601N001019999999Y999999999+02901+02001999999ADDMA1101401999999REMMET045SPECI SBUF 081115Z 06002KT CAVOK 29/20 Q1014=
0142829860999992016120812004-09401-038251FM-15+026999999V0201401N003119999999N009999199+03201+02001999999ADDGA1021+006711999GE19MSL   +99999+99999GF199999021999006711999999MA1101401999999REMMET051METAR SBUF 081200Z 14006KT 9999 FEW022 32/20 Q1014=
0072829860999992016120813004-09401-038251FM-15+026999999V0201101N002119999999Y999999999+03401+01801999999ADDMA1101301999999REMMET045METAR SBUF 081300Z 11004KT CAVOK 34/18 Q1013=
0142829860999992016120815004-09401-038251FM-15+026999999V0200801N002619999999N009999199+03601+01501999999ADDGA1021+007011999GE19MSL   +99999+99999GF199999021999007011999999MA1101201999999REMMET051METAR SBUF 081500Z 08005KT 9999 FEW023 36/15 Q1012=
0142829860999992016120817004-09401-038251FM-15+026999999V0201101N002119999999N009999199+03901+01201999999ADDGA1021+007011999GE19MSL   +99999+99999GF199999021999007011999999MA1100901999999REMMET051METAR SBUF 081700Z 11004KT 9999 FEW023 39/12 Q1009=
0072829860999992016120820004-09401-038251FM-15+026999999V0201001N003619999999Y999999999+03601+01101999999ADDMA1100801999999REMMET045METAR SBUF 082000Z 10007KT CAVOK 36/11 Q1008=
0072829860999992016120821004-09401-038251FM-15+026999999V0201101N003619999999Y999999999+03501+01001999999ADDMA1100901999999REMMET045METAR SBUF 082100Z 11007KT CAVOK 35/10 Q1009=
0072829860999992016120823004-09401-038251FM-15+026999999V0201101N009319999999Y999999999+03001+02001999999ADDMA1101101999999REMMET045METAR SBUF 082300Z 11018KT CAVOK 30/20 Q1011=
0072829860999992016120900004-09401-038251FM-15+026999999V0201201N006719999999Y999999999+02901+02102999999ADDMA1101201999999REMMET045METAR SBUF 090000Z 12013KT CAVOK 29/21 Q1012=
0072829860999992016120900154-09401-038251FM-16+026999999V0201201N007219999999Y999999999+02801+02101999999ADDMA1101201999999REMMET045SPECI SBUF 090015Z 12014KT CAVOK 28/21 Q1012=
0142829860999992016120909004-09401-038251FM-15+026999999V0201401N004619999999N009999199+02501+02101999999ADDGA1021+005791999GE19MSL   +99999+99999GF199999021999005791999999MA1101401999999REMMET051METAR SBUF 090900Z 14009KT 9999 FEW019 25/21 Q1014=
0165829860999992016120910004-09401-038251FM-15+026999999V0201401N00511021341CN009999199+02501+02001999999ADDGA1041+005791999GA2041+021341999GE19MSL   +99999+99999GF199999041999005791999999MA1101501999999REMMET058METAR SBUF 091000Z 14010KT 9999 SCT019 SCT070 25/20 Q1015=
0165829860999992016120911004-09401-038251FM-15+026999999V0201401N00311021341CN009999199+02901+02001999999ADDGA1041+006101999GA2041+021341999GE19MSL   +99999+99999GF199999041999006101999999MA1101501999999REMMET058METAR SBUF 091100Z 14006KT 9999 SCT020 SCT070 29/20 Q1015=
0165829860999992016120912004-09401-038251FM-15+026999999V0201301N00361021341CN009999199+03001+02001999999ADDGA1041+006101999GA2041+021341999GE19MSL   +99999+99999GF199999041999006101999999MA1101401999999REMMET058METAR SBUF 091200Z 13007KT 9999 SCT020 SCT070 30/20 Q1014=
0165829860999992016120913004-09401-038251FM-15+026999999V0201401N00311021341CN009999199+03101+02001999999ADDGA1041+006101999GA2041+021341999GE19MSL   +99999+99999GF199999041999006101999999MA1101401999999REMMET058METAR SBUF 091300Z 14006KT 9999 SCT020 SCT070 31/20 Q1014=
0142829860999992016120914004-09401-038251FM-15+026999999V0201701N003110067119N009999199+03201+01901999999ADDGA1071+006711999GE19MSL   +99999+99999GF199999071999006711999999MA1101301999999REMMET051METAR SBUF 091400Z 17006KT 9999 BKN022 32/19 Q1013=
0142829860999992016120915004-09401-038251FM-15+026999999V0201301N002619999999N009999199+03501+01801999999ADDGA1041+006711999GE19MSL   +99999+99999GF199999041999006711999999MA1101201999999REMMET051METAR SBUF 091500Z 13005KT 9999 SCT022 35/18 Q1012=
0142829860999992016120916004-09401-038251FM-15+026999999V0201501N002619999999N009999199+03601+01701999999ADDGA1041+006711999GE19MSL   +99999+99999GF199999041999006711999999MA1101101999999REMMET051METAR SBUF 091600Z 15005KT 9999 SCT022 36/17 Q1011=
0142829860999992016120917004-09401-038251FM-15+026999999V0201601N002119999999N009999199+03701+01601999999ADDGA1041+006711999GE19MSL   +99999+99999GF199999041999006711999999MA1101001999999REMMET051METAR SBUF 091700Z 16004KT 9999 SCT022 37/16 Q1010=
0142829860999992016120918004-09401-038251FM-15+026999999V0202201N002119999999N009999199+03701+01501999999ADDGA1041+006711999GE19MSL   +99999+99999GF199999041999006711999999MA1100901999999REMMET051METAR SBUF 091800Z 22004KT 9999 SCT022 37/15 Q1009=
0142829860999992016120921004-09401-038251FM-15+026999999V0201201N004119999999N009999199+03401+01401999999ADDGA1021+006711999GE19MSL   +99999+99999GF199999021999006711999999MA1100901999999REMMET051METAR SBUF 092100Z 12008KT 9999 FEW022 34/14 Q1009=
0142829860999992016120922004-09401-038251FM-15+026999999V0201301N003619999999N009999199+03301+01401999999ADDGA1021+006101999GE19MSL   +99999+99999GF199999021999006101999999MA1100901999999REMMET051METAR SBUF 092200Z 13007KT 9999 FEW020 33/14 Q1009=
0072829860999992016120923004-09401-038251FM-15+026999999V0201101N008819999999Y999999999+03101+01901999999ADDMA1101101999999REMMET045METAR SBUF 092300Z 11017KT CAVOK 31/19 Q1011=
0072829860999992016121000004-09401-038251FM-15+026999999V0201201N007219999999Y999999999+02901+01901999999ADDMA1101201999999REMMET045METAR SBUF 100000Z 12014KT CAVOK 29/19 Q1012=
0072829860999992016121001004-09401-038251FM-15+026999999V0201301N006219999999Y999999999+02701+02001999999ADDMA1101301999999REMMET045METAR SBUF 100100Z 13012KT CAVOK 27/20 Q1013=
0072829860999992016121002004-09401-038251FM-15+026999999V0201201N006219999999Y999999999+02601+02001999999ADDMA1101201999999REMMET045METAR SBUF 100200Z 12012KT CAVOK 26/20 Q1012=
0072829860999992016121003004-09401-038251FM-15+026999999V0201201N005719999999Y999999999+02601+02001999999ADDMA1101201999999REMMET045METAR SBUF 100300Z 12011KT CAVOK 26/20 Q1012=
0072829860999992016121003254-09401-038251FM-16+026999999V0201301N005119999999Y999999999+02501+02001999999ADDMA1101201999999REMMET045SPECI SBUF 100325Z 13010KT CAVOK 25/20 Q1012=
0142829860999992016121011154-09401-038251FM-16+026999999V0200901N003119999999N009999199+02901+01901999999ADDGA1021+006101999GE19MSL   +99999+99999GF199999021999006101999999MA1101401999999REMMET051SPECI SBUF 101115Z 09006KT 9999 FEW020 29/19 Q1014=
0072829860999992016121012004-09401-038251FM-15+026999999V0201601N001519999999Y999999999+03001+01901999999ADDMA1101401999999REMMET045METAR SBUF 101200Z 16003KT CAVOK 30/19 Q1014=
0072829860999992016121013004-09401-038251FM-15+026999999V0201601N002619999999Y999999999+03201+01801999999ADDMA1101401999999REMMET045METAR SBUF 101300Z 16005KT CAVOK 32/18 Q1014=
0142829860999992016121015004-09401-038251FM-15+026999999V0201201N002619999999N009999199+03501+01601999999ADDGA1021+006711999GE19MSL   +99999+99999GF199999021999006711999999MA1101201999999REMMET051METAR SBUF 101500Z 12005KT 9999 FEW022 35/16 Q1012=
0142829860999992016121016004-09401-038251FM-15+026999999V0201801N002619999999N009999199+03601+01501999999ADDGA1021+006711999GE19MSL   +99999+99999GF199999021999006711999999MA1101101999999REMMET051METAR SBUF 101600Z 18005KT 9999 FEW022 36/15 Q1011=
0142829860999992016121018004-09401-038251FM-15+026999999V0201301N003119999999N009999199+03701+01501999999ADDGA1021+006711999GE19MSL   +99999+99999GF199999021999006711999999MA1100901999999REMMET051METAR SBUF 101800Z 13006KT 9999 FEW022 37/15 Q1009=
0142829860999992016121019004-09401-038251FM-15+026999999V0201301N003619999999N009999199+03701+01401999999ADDGA1021+006711999GE19MSL   +99999+99999GF199999021999006711999999MA1100901999999REMMET051METAR SBUF 101900Z 13007KT 9999 FEW022 37/14 Q1009=
0072829860999992016121019454-09401-038251FM-16+026999999V0201201N003119999999Y999999999+03701+01301999999ADDMA1100901999999REMMET045SPECI SBUF 101945Z 12006KT CAVOK 37/13 Q1009=
0072829860999992016121111154-09401-038251FM-16+026999999V0200101N001519999999Y999999999+02901+02001999999ADDMA1101401999999REMMET045SPECI SBUF 111115Z 01003KT CAVOK 29/20 Q1014=
0142829860999992016121112004-09401-038251FM-15+026999999V0200701N002119999999N009999199+03201+01901999999ADDGA1021+006101999GE19MSL   +99999+99999GF199999021999006101999999MA1101401999999REMMET051METAR SBUF 111200Z 07004KT 9999 FEW020 32/19 Q1014=
0142829860999992016121114004-09401-038251FM-15+026999999V0200601N001519999999N009999199+03501+01801999999ADDGA1021+006401999GE19MSL   +99999+99999GF199999021999006401999999MA1101301999999REMMET051METAR SBUF 111400Z 06003KT 9999 FEW021 35/18 Q1013=
0142829860999992016121115004-09401-038251FM-15+026999999V0201601N003119999999N009999199+03601+01601999999ADDGA1041+007011999GE19MSL   +99999+99999GF199999041999007011999999MA1101201999999REMMET051METAR SBUF 111500Z 16006KT 9999 SCT023 36/16 Q1012=
0142829860999992016121116004-09401-038251FM-15+026999999V0201801N002119999999N009999199+03601+01601999999ADDGA1041+007011999GE19MSL   +99999+99999GF199999041999007011999999MA1101101999999REMMET051METAR SBUF 111600Z 18004KT 9999 SCT023 36/16 Q1011=
0142829860999992016121117004-09401-038251FM-15+026999999V0201101N002619999999N009999199+03801+01401999999ADDGA1041+007011999GE19MSL   +99999+99999GF199999041999007011999999MA1101001999999REMMET051METAR SBUF 111700Z 11005KT 9999 SCT023 38/14 Q1010=
0142829860999992016121118004-09401-038251FM-15+026999999V0201501N003119999999N009999199+03901+01101999999ADDGA1041+007011999GE19MSL   +99999+99999GF199999041999007011999999MA1100901999999REMMET051METAR SBUF 111800Z 15006KT 9999 SCT023 39/11 Q1009=
0142829860999992016121119004-09401-038251FM-15+026999999V0201001N002119999999N009999199+03801+01001999999ADDGA1021+007011999GE19MSL   +99999+99999GF199999021999007011999999MA1100801999999REMMET051METAR SBUF 111900Z 10004KT 9999 FEW023 38/10 Q1008=
0142829860999992016121119454-09401-038251FM-16+026999999V0201101N003119999999N009999199+03701+01201999999ADDGA1021+007011999GE19MSL   +99999+99999GF199999021999007011999999MA1100801999999REMMET051SPECI SBUF 111945Z 11006KT 9999 FEW023 37/12 Q1008=
0072829860999992016121211154-09401-038251FM-16+026999999V0200101N002119999999Y999999999+03001+01801999999ADDMA1101301999999REMMET045SPECI SBUF 121115Z 01004KT CAVOK 30/18 Q1013=
0072829860999992016121212004-09401-038251FM-15+026999999V0200401N003119999999Y999999999+03101+01701999999ADDMA1101201999999REMMET045METAR SBUF 121200Z 04006KT CAVOK 31/17 Q1012=
0072829860999992016121213004-09401-038251FM-15+026999999V0200201N002119999999Y999999999+03301+01701999999ADDMA1101201999999REMMET045METAR SBUF 121300Z 02004KT CAVOK 33/17 Q1012=
0142829860999992016121214004-09401-038251FM-15+026999999V0203501N002119999999N009999199+03501+01701999999ADDGA1021+007011999GE19MSL   +99999+99999GF199999021999007011999999MA1101101999999REMMET051METAR SBUF 121400Z 35004KT 9999 FEW023 35/17 Q1011=
0142829860999992016121215004-09401-038251FM-15+026999999V0200701N002119999999N009999199+03701+01601999999ADDGA1021+006711999GE19MSL   +99999+99999GF199999021999006711999999MA1101001999999REMMET051METAR SBUF 121500Z 07004KT 9999 FEW022 37/16 Q1010=
0142829860999992016121217004-09401-038251FM-15+026999999V0201401N002619999999N009999199+03901+01301999999ADDGA1021+006711999GE19MSL   +99999+99999GF199999021999006711999999MA1100801999999REMMET051METAR SBUF 121700Z 14005KT 9999 FEW022 39/13 Q1008=
0142829860999992016121218004-09401-038251FM-15+026999999V0201701N002619999999N009999199+03901+01301999999ADDGA1041+006711999GE19MSL   +99999+99999GF199999041999006711999999MA1100701999999REMMET051METAR SBUF 121800Z 17005KT 9999 SCT022 39/13 Q1007=
0142829860999992016121219004-09401-038251FM-15+026999999V0201001N002619999999N009999199+03901+01101999999ADDGA1021+006711999GE19MSL   +99999+99999GF199999021999006711999999MA1100601999999REMMET051METAR SBUF 121900Z 10005KT 9999 FEW022 39/11 Q1006=
0142829860999992016121219454-09401-038251FM-16+026999999V0201101N003619999999N009999199+03801+01001999999ADDGA1021+006711999GE19MSL   +99999+99999GF199999021999006711999999MA1100601999999REMMET051SPECI SBUF 121945Z 11007KT 9999 FEW022 38/10 Q1006=
0165829860999992016121311154-09401-038251FM-16+026999999V0201001N00311021341CN009999199+03001+01801999999ADDGA1021+005791999GA2041+021341999GE19MSL   +99999+99999GF199999021999005791999999MA1101401999999REMMET058SPECI SBUF 131115Z 10006KT 9999 FEW019 SCT070 30/18 Q1014=
0142829860999992016121312004-09401-038251FM-15+026999999V0201701N002619999999N009999199+02901+01801999999ADDGA1041+006101999GE19MSL   +99999+99999GF199999041999006101999999MA1101401999999REMMET051METAR SBUF 131200Z 17005KT 9999 SCT020 29/18 Q1014=
0142829860999992016121313004-09401-038251FM-15+026999999V0200501N002619999999N009999199+03201+01701999999ADDGA1021+006401999GE19MSL   +99999+99999GF199999021999006401999999MA1101301999999REMMET051METAR SBUF 131300Z 05005KT 9999 FEW021 32/17 Q1013=
0142829860999992016121314004-09401-038251FM-15+026999999V0200801N003619999999N009999199+03501+01501999999ADDGA1021+006711999GE19MSL   +99999+99999GF199999021999006711999999MA1101301999999REMMET051METAR SBUF 131400Z 08007KT 9999 FEW022 35/15 Q1013=
0142829860999992016121316004-09401-038251FM-15+026999999V0201301N004619999999N009999199+03601+01401999999ADDGA1021+006711999GE19MSL   +99999+99999GF199999021999006711999999MA1101101999999REMMET051METAR SBUF 131600Z 13009KT 9999 FEW022 36/14 Q1011=
0142829860999992016121317004-09401-038251FM-15+026999999V0200901N004119999999N009999199+03701+01301999999ADDGA1021+006711999GE19MSL   +99999+99999GF199999021999006711999999MA1101001999999REMMET051METAR SBUF 131700Z 09008KT 9999 FEW022 37/13 Q1010=
0165829860999992016121318004-09401-038251FM-15+026999999V0200801N00411030481CN009999199+03701+01201999999ADDGA1021+006711999GA2041+030481999GE19MSL   +99999+99999GF199999021999006711999999MA1100901999999REMMET058METAR SBUF 131800Z 08008KT 9999 FEW022 SCT100 37/12 Q1009=
0142829860999992016121319004-09401-038251FM-15+026999999V0201201N003119999999N009999199+03501+01201999999ADDGA1021+006401999GE19MSL   +99999+99999GF199999021999006401999999MA1100801999999REMMET051METAR SBUF 131900Z 12006KT 9999 FEW021 35/12 Q1008=
0142829860999992016121319454-09401-038251FM-16+026999999V0201101N005119999999N009999199+03601+01101999999ADDGA1021+006401999GE19MSL   +99999+99999GF199999021999006401999999MA1100801999999REMMET051SPECI SBUF 131945Z 11010KT 9999 FEW021 36/11 Q1008=
0142829860999992016121411154-09401-038251FM-16+026999999V0200601N002619999999N009999199+02801+01901999999ADDGA1041+006101999GE19MSL   +99999+99999GF199999041999006101999999MA1101501999999REMMET051SPECI SBUF 141115Z 06005KT 9999 SCT020 28/19 Q1015=
0142829860999992016121412004-09401-038251FM-15+026999999V0200501N002619999999N009999199+03001+01801999999ADDGA1041+006101999GE19MSL   +99999+99999GF199999041999006101999999MA1101501999999REMMET051METAR SBUF 141200Z 05005KT 9999 SCT020 30/18 Q1015=
0072829860999992016121414004-09401-038251FM-15+026999999V0201201N003119999999Y999999999+03401+01501999999ADDMA1101401999999REMMET045METAR SBUF 141400Z 12006KT CAVOK 34/15 Q1014=
0142829860999992016121415004-09401-038251FM-15+026999999V0201601N003119999999N009999199+03601+01101999999ADDGA1021+006711999GE19MSL   +99999+99999GF199999021999006711999999MA1101301999999REMMET051METAR SBUF 141500Z 16006KT 9999 FEW022 36/11 Q1013=
0142829860999992016121416004-09401-038251FM-15+026999999V0201601N003619999999N009999199+03701+01001999999ADDGA1021+006711999GE19MSL   +99999+99999GF199999021999006711999999MA1101201999999REMMET051METAR SBUF 141600Z 16007KT 9999 FEW022 37/10 Q1012=
0142829860999992016121417004-09401-038251FM-15+026999999V0201601N003619999999N009999199+03601+00901999999ADDGA1021+006711999GE19MSL   +99999+99999GF199999021999006711999999MA1101101999999REMMET051METAR SBUF 141700Z 16007KT 9999 FEW022 36/09 Q1011=
0142829860999992016121511154-09401-038251FM-16+026999999V0200601N003110057919N009999199+02801+01801999999ADDGA1071+005791999GE19MSL   +99999+99999GF199999071999005791999999MA1101601999999REMMET051SPECI SBUF 151115Z 06006KT 9999 BKN019 28/18 Q1016=
0142829860999992016121512004-09401-038251FM-15+026999999V0200701N002619999999N009999199+03101+01701999999ADDGA1041+006101999GE19MSL   +99999+99999GF199999041999006101999999MA1101601999999REMMET051METAR SBUF 151200Z 07005KT 9999 SCT020 31/17 Q1016=
0142829860999992016121513004-09401-038251FM-15+026999999V0201901N003119999999N009999199+03201+01701999999ADDGA1041+006101999GE19MSL   +99999+99999GF199999041999006101999999MA1101601999999REMMET051METAR SBUF 151300Z 19006KT 9999 SCT020 32/17 Q1016=
0142829860999992016121514004-09401-038251FM-15+026999999V0201801N003119999999N009999199+03301+01701999999ADDGA1041+006101999GE19MSL   +99999+99999GF199999041999006101999999MA1101501999999REMMET051METAR SBUF 151400Z 18006KT 9999 SCT020 33/17 Q1015=
0142829860999992016121515004-09401-038251FM-15+026999999V0201001N003619999999N009999199+03601+01601999999ADDGA1041+006401999GE19MSL   +99999+99999GF199999041999006401999999MA1101401999999REMMET051METAR SBUF 151500Z 10007KT 9999 SCT021 36/16 Q1014=
0142829860999992016121516004-09401-038251FM-15+026999999V0201201N003119999999N009999199+03601+01401999999ADDGA1041+006711999GE19MSL   +99999+99999GF199999041999006711999999MA1101301999999REMMET051METAR SBUF 151600Z 12006KT 9999 SCT022 36/14 Q1013=
0142829860999992016121517004-09401-038251FM-15+026999999V0201801N003119999999N009999199+03701+01301999999ADDGA1041+006711999GE19MSL   +99999+99999GF199999041999006711999999MA1101201999999REMMET051METAR SBUF 151700Z 18006KT 9999 SCT022 37/13 Q1012=
0142829860999992016121519004-09401-038251FM-15+026999999V0201001N004619999999N009999199+03701+01101999999ADDGA1041+007011999GE19MSL   +99999+99999GF199999041999007011999999MA1101001999999REMMET051METAR SBUF 151900Z 10009KT 9999 SCT023 37/11 Q1010=
0142829860999992016121520004-09401-038251FM-15+026999999V0201301N004619999999N009999199+03601+01101999999ADDGA1021+007011999GE19MSL   +99999+99999GF199999021999007011999999MA1101001999999REMMET051METAR SBUF 152000Z 13009KT 9999 FEW023 36/11 Q1010=
0142829860999992016121521004-09401-038251FM-15+026999999V0201301N007719999999N009999199+03301+01801999999ADDGA1041+007011999GE19MSL   +99999+99999GF199999041999007011999999MA1101101999999REMMET051METAR SBUF 152100Z 13015KT 9999 SCT023 33/18 Q1011=
0142829860999992016121522004-09401-038251FM-15+026999999V0201001N009319999999N009999199+03001+02001999999ADDGA1021+006401999GE19MSL   +99999+99999GF199999021999006401999999MA1101301999999REMMET051METAR SBUF 152200Z 10018KT 9999 FEW021 30/20 Q1013=
0072829860999992016121523004-09401-038251FM-15+026999999V0201201N009819999999Y999999999+02901+02001999999ADDMA1101401999999REMMET045METAR SBUF 152300Z 12019KT CAVOK 29/20 Q1014=
0072829860999992016121523454-09401-038251FM-16+026999999V0201201N008219999999Y999999999+02801+02001999999ADDMA1101501999999REMMET045SPECI SBUF 152345Z 12016KT CAVOK 28/20 Q1015=
0165829860999992016121611154-09401-038251FM-16+026999999V0201101N005710213419N009999199+02701+02001999999ADDGA1041+005491999GA2071+021341999GE19MSL   +99999+99999GF199999041999005491999999MA1101801999999REMMET058SPECI SBUF 161115Z 11011KT 9999 SCT018 BKN070 27/20 Q1018=
0165829860999992016121612004-09401-038251FM-15+026999999V0201201N005710213419N009999199+02801+01901999999ADDGA1041+005791999GA2071+021341999GE19MSL   +99999+99999GF199999041999005791999999MA1101801999999REMMET058METAR SBUF 161200Z 12011KT 9999 SCT019 BKN070 28/19 Q1018=
0165829860999992016121613004-09401-038251FM-15+026999999V0201201N005710213419N009999199+03001+01801999999ADDGA1021+006101999GA2071+021341999GE19MSL   +99999+99999GF199999021999006101999999MA1101701999999REMMET058METAR SBUF 161300Z 12011KT 9999 FEW020 BKN070 30/18 Q1017=
0165829860999992016121614004-09401-038251FM-15+026999999V0201501N00511021341CN009999199+03001+01601999999ADDGA1041+006101999GA2041+021341999GE19MSL   +99999+99999GF199999041999006101999999MA1101701999999REMMET058METAR SBUF 161400Z 15010KT 9999 SCT020 SCT070 30/16 Q1017=
0165829860999992016121616004-09401-038251FM-15+026999999V0201301N006210213419N009999199+03301+01501999999ADDGA1041+006101999GA2071+021341999GE19MSL   +99999+99999GF199999041999006101999999MA1101501999999REMMET058METAR SBUF 161600Z 13012KT 9999 SCT020 BKN070 33/15 Q1015=
0165829860999992016121618004-09401-038251FM-15+026999999V0201201N006210243819N009999199+03501+01201999999ADDGA1021+006401999GA2071+024381999GE19MSL   +99999+99999GF199999021999006401999999MA1101301999999REMMET058METAR SBUF 161800Z 12012KT 9999 FEW021 BKN080 35/12 Q1013=
0165829860999992016121619004-09401-038251FM-15+026999999V0201301N007710243819N009999199+03401+01201999999ADDGA1021+006401999GA2071+024381999GE19MSL   +99999+99999GF199999021999006401999999MA1101201999999REMMET058METAR SBUF 161900Z 13015KT 9999 FEW021 BKN080 34/12 Q1012=
0165829860999992016121619454-09401-038251FM-16+026999999V0201201N007210213419N009999199+03301+01301999999ADDGA1021+006101999GA2071+021341999GE19MSL   +99999+99999GF199999021999006101999999MA1101201999999REMMET058SPECI SBUF 161945Z 12014KT 9999 FEW020 BKN070 33/13 Q1012=
0165829860999992016121811154-09401-038251FM-16+026999999V0201001N005710243819N009999199+02801+01901999999ADDGA1041+005491999GA2071+024381999GE19MSL   +99999+99999GF199999041999005491999999MA1101501999999REMMET058SPECI SBUF 181115Z 10011KT 9999 SCT018 BKN080 28/19 Q1015=
0165829860999992016121812004-09401-038251FM-15+026999999V0201001N006210243819N009999199+02901+01801999999ADDGA1041+005491999GA2071+024381999GE19MSL   +99999+99999GF199999041999005491999999MA1101501999999REMMET058METAR SBUF 181200Z 10012KT 9999 SCT018 BKN080 29/18 Q1015=
0165829860999992016121813004-09401-038251FM-15+026999999V0201201N006710243819N009999199+03001+01601999999ADDGA1041+006101999GA2071+024381999GE19MSL   +99999+99999GF199999041999006101999999MA1101501999999REMMET058METAR SBUF 181300Z 12013KT 9999 SCT020 BKN080 30/16 Q1015=
0165829860999992016121814004-09401-038251FM-15+026999999V0201001N005710243819N009999199+03201+01601999999ADDGA1041+006101999GA2071+024381999GE19MSL   +99999+99999GF199999041999006101999999MA1101401999999REMMET058METAR SBUF 181400Z 10011KT 9999 SCT020 BKN080 32/16 Q1014=
0165829860999992016121815004-09401-038251FM-15+026999999V0200901N005710243819N009999199+03401+01501999999ADDGA1041+006101999GA2071+024381999GE19MSL   +99999+99999GF199999041999006101999999MA1101301999999REMMET058METAR SBUF 181500Z 09011KT 9999 SCT020 BKN080 34/15 Q1013=
0165829860999992016121817004-09401-038251FM-15+026999999V0201201N005710243819N009999199+03301+01401999999ADDGA1041+006401999GA2071+024381999GE19MSL   +99999+99999GF199999041999006401999999MA1101201999999REMMET058METAR SBUF 181700Z 12011KT 9999 SCT021 BKN080 33/14 Q1012=
0165829860999992016121818004-09401-038251FM-15+026999999V0201401N004610243819N009999199+03201+01401999999ADDGA1041+006711999GA2071+024381999GE19MSL   +99999+99999GF199999041999006711999999MA1101101999999REMMET058METAR SBUF 181800Z 14009KT 9999 SCT022 BKN080 32/14 Q1011=
0165829860999992016121819004-09401-038251FM-15+026999999V0201101N005710243819N009999199+03401+01401999999ADDGA1021+006711999GA2071+024381999GE19MSL   +99999+99999GF199999021999006711999999MA1101101999999REMMET058METAR SBUF 181900Z 11011KT 9999 FEW022 BKN080 34/14 Q1011=
0165829860999992016121819454-09401-038251FM-16+026999999V0201301N005710243819N009999199+03301+01401999999ADDGA1021+006711999GA2071+024381999GE19MSL   +99999+99999GF199999021999006711999999MA1101101999999REMMET058SPECI SBUF 181945Z 13011KT 9999 FEW022 BKN080 33/14 Q1011=
0165829860999992016121911154-09401-038251FM-16+026999999V0200801N005110213419N009999199+02701+02001999999ADDGA1041+005491999GA2071+021341999GE19MSL   +99999+99999GF199999041999005491999999MA1101501999999REMMET058SPECI SBUF 191115Z 08010KT 9999 SCT018 BKN070 27/20 Q1015=
0165829860999992016121912004-09401-038251FM-15+026999999V0201001N005710213419N009999199+02801+01901999999ADDGA1041+005791999GA2071+021341999GE19MSL   +99999+99999GF199999041999005791999999MA1101501999999REMMET058METAR SBUF 191200Z 10011KT 9999 SCT019 BKN070 28/19 Q1015=
0165829860999992016121913004-09401-038251FM-15+026999999V0200901N004610213419N009999199+02901+01901999999ADDGA1041+005791999GA2071+021341999GE19MSL   +99999+99999GF199999041999005791999999MA1101501999999REMMET058METAR SBUF 191300Z 09009KT 9999 SCT019 BKN070 29/19 Q1015=
0165829860999992016121914004-09401-038251FM-15+026999999V0201001N005110243819N009999199+03001+01801999999ADDGA1021+006101999GA2071+024381999GE19MSL   +99999+99999GF199999021999006101999999MA1101401999999REMMET058METAR SBUF 191400Z 10010KT 9999 FEW020 BKN080 30/18 Q1014=
0165829860999992016121915004-09401-038251FM-15+026999999V0200901N004610243819N009999199+03001+01701999999ADDGA1041+006101999GA2071+024381999GE19MSL   +99999+99999GF199999041999006101999999MA1101301999999REMMET058METAR SBUF 191500Z 09009KT 9999 SCT020 BKN080 30/17 Q1013=
0165829860999992016121916004-09401-038251FM-15+026999999V0201201N005110243819N009999199+03101+01701999999ADDGA1021+005791999GA2081+024381999GE19MSL   +99999+99999GF199999021999005791999999MA1101201999999REMMET058METAR SBUF 191600Z 12010KT 9999 FEW019 OVC080 31/17 Q1012=
0165829860999992016121917004-09401-038251FM-15+026999999V0201101N005110064019N009999199+03101+01601999999ADDGA1071+006401999GA2081+024381999GE19MSL   +99999+99999GF199999071999006401999999MA1101201999999REMMET058METAR SBUF 191700Z 11010KT 9999 BKN021 OVC080 31/16 Q1012=
0165829860999992016121918004-09401-038251FM-15+026999999V0201301N007210243819N009999199+03101+01801999999ADDGA1041+006401999GA2071+024381999GE19MSL   +99999+99999GF199999041999006401999999MA1101101999999REMMET058METAR SBUF 191800Z 13014KT 9999 SCT021 BKN080 31/18 Q1011=
0165829860999992016121919004-09401-038251FM-15+026999999V0201101N007710304819N009999199+02901+01901999999ADDGA1021+006711999GA2081+030481999GE19MSL   +99999+99999GF199999021999006711999999MA1101201999999REMMET058METAR SBUF 191900Z 11015KT 9999 FEW022 OVC100 29/19 Q1012=
0198829860999992016121919454-09401-038251FM-16+026999999V0201101N00621006711CN009999199+02701+02001999999ADDGA1041+006101999GA2041+006711999GA3081+027431999GE19MSL   +99999+99999GF199999041999006101999999MA1101201999999MW1511REMMET069SPECI SBUF 191945Z 11012KT 9999 -DZ SCT020 SCT022 OVC090 27/20 Q1012=
0142829860999992016122011154-09401-038251FM-16+026999999V0201501N004110054919N009999199+02701+02101999999ADDGA1071+005491999GE19MSL   +99999+99999GF199999071999005491999999MA1101501999999REMMET051SPECI SBUF 201115Z 15008KT 9999 BKN018 27/21 Q1015=
0165829860999992016122012004-09401-038251FM-15+026999999V0201301N003610213419N009999199+02801+02001999999ADDGA1041+005791999GA2071+021341999GE19MSL   +99999+99999GF199999041999005791999999MA1101501999999REMMET058METAR SBUF 201200Z 13007KT 9999 SCT019 BKN070 28/20 Q1015=
0165829860999992016122014004-09401-038251FM-15+026999999V0201401N005710057919N009999199+03101+01901999999ADDGA1071+005791999GA2071+021341999GE19MSL   +99999+99999GF199999071999005791999999MA1101401999999REMMET058METAR SBUF 201400Z 14011KT 9999 BKN019 BKN070 31/19 Q1014=
0165829860999992016122015004-09401-038251FM-15+026999999V0201001N005710213419N009999199+03201+01801999999ADDGA1041+006101999GA2071+021341999GE19MSL   +99999+99999GF199999041999006101999999MA1101301999999REMMET058METAR SBUF 201500Z 10011KT 9999 SCT020 BKN070 32/18 Q1013=
0165829860999992016122016004-09401-038251FM-15+026999999V0201201N006710213419N009999199+03301+01701999999ADDGA1041+006101999GA2071+021341999GE19MSL   +99999+99999GF199999041999006101999999MA1101201999999REMMET058METAR SBUF 201600Z 12013KT 9999 SCT020 BKN070 33/17 Q1012=
0165829860999992016122017004-09401-038251FM-15+026999999V0201101N006210243819N009999199+03401+01601999999ADDGA1041+006101999GA2071+024381999GE19MSL   +99999+99999GF199999041999006101999999MA1101101999999REMMET058METAR SBUF 201700Z 11012KT 9999 SCT020 BKN080 34/16 Q1011=
0165829860999992016122019004-09401-038251FM-15+026999999V0201301N007710243819N009999199+03201+01901999999ADDGA1041+006101999GA2071+024381999GE19MSL   +99999+99999GF199999041999006101999999MA1101101999999REMMET058METAR SBUF 201900Z 13015KT 9999 SCT020 BKN080 32/19 Q1011=
0165829860999992016122019454-09401-038251FM-16+026999999V0201101N006710243819N009999199+03101+01801999999ADDGA1041+006101999GA2071+024381999GE19MSL   +99999+99999GF199999041999006101999999MA1101201999999REMMET058SPECI SBUF 201945Z 11013KT 9999 SCT020 BKN080 31/18 Q1012=
0142829860999992016122111154-09401-038251FM-16+026999999V0201001N004610048819N009999199+02701+02001999999ADDGA1071+004881999GE19MSL   +99999+99999GF199999071999004881999999MA1101301999999REMMET051SPECI SBUF 211115Z 10009KT 9999 BKN016 27/20 Q1013=
0142829860999992016122112004-09401-038251FM-15+026999999V0200901N005710051819N009999199+02801+02001999999ADDGA1071+005181999GE19MSL   +99999+99999GF199999071999005181999999MA1101401999999REMMET051METAR SBUF 211200Z 09011KT 9999 BKN017 28/20 Q1014=
0142829860999992016122113004-09401-038251FM-15+026999999V0201001N005710057919N009999199+03101+01801999999ADDGA1071+005791999GE19MSL   +99999+99999GF199999071999005791999999MA1101301999999REMMET051METAR SBUF 211300Z 10011KT 9999 BKN019 31/18 Q1013=
0165829860999992016122114004-09401-038251FM-15+026999999V0200901N006210061019N009999199+03201+01801999999ADDGA1071+006101999GA2041+024381999GE19MSL   +99999+99999GF199999071999006101999999MA1101301999999REMMET058METAR SBUF 211400Z 09012KT 9999 BKN020 SCT080 32/18 Q1013=
0165829860999992016122115004-09401-038251FM-15+026999999V0201201N00621024381CN009999199+03401+01801999999ADDGA1041+006101999GA2041+024381999GE19MSL   +99999+99999GF199999041999006101999999MA1101201999999REMMET058METAR SBUF 211500Z 12012KT 9999 SCT020 SCT080 34/18 Q1012=
0165829860999992016122116004-09401-038251FM-15+026999999V0201101N005710274319N009999199+03201+01801999999ADDGA1041+006101999GA2071+027431999GE19MSL   +99999+99999GF199999041999006101999999MA1101101999999REMMET058METAR SBUF 211600Z 11011KT 9999 SCT020 BKN090 32/18 Q1011=
0165829860999992016122117004-09401-038251FM-15+026999999V0201301N005110274319N009999199+03301+01701999999ADDGA1041+006101999GA2071+027431999GE19MSL   +99999+99999GF199999041999006101999999MA1101001999999REMMET058METAR SBUF 211700Z 13010KT 9999 SCT020 BKN090 33/17 Q1010=
0165829860999992016122119004-09401-038251FM-15+026999999V0201501N005710274319N009999199+03201+01901999999ADDGA1041+006401999GA2071+027431999GE19MSL   +99999+99999GF199999041999006401999999MA1101101999999REMMET058METAR SBUF 211900Z 15011KT 9999 SCT021 BKN090 32/19 Q1011=
0165829860999992016122120004-09401-038251FM-15+026999999V0201601N006710274319N009999199+03101+01901999999ADDGA1041+006101999GA2071+027431999GE19MSL   +99999+99999GF199999041999006101999999MA1101101999999REMMET058METAR SBUF 212000Z 16013KT 9999 SCT020 BKN090 31/19 Q1011=
0165829860999992016122121004-09401-038251FM-15+026999999V0201401N006210274319N009999199+02901+01901999999ADDGA1021+006101999GA2071+027431999GE19MSL   +99999+99999GF199999021999006101999999MA1101201999999REMMET058METAR SBUF 212100Z 14012KT 9999 FEW020 BKN090 29/19 Q1012=
0165829860999992016122211154-09401-038251FM-16+026999999V0201201N005110051819N009999199+02601+02001999999ADDGA1071+005181999GA2041+024381999GE19MSL   +99999+99999GF199999071999005181999999MA1101501999999REMMET058SPECI SBUF 221115Z 12010KT 9999 BKN017 SCT080 26/20 Q1015=
0165829860999992016122212004-09401-038251FM-15+026999999V0201101N005110054919N009999199+02901+02001999999ADDGA1071+005491999GA2041+024381999GE19MSL   +99999+99999GF199999071999005491999999MA1101501999999REMMET058METAR SBUF 221200Z 11010KT 9999 BKN018 SCT080 29/20 Q1015=
0165829860999992016122213004-09401-038251FM-15+026999999V0201201N004610054919N009999199+02901+02001999999ADDGA1071+005491999GA2071+024381999GE19MSL   +99999+99999GF199999071999005491999999MA1101501999999REMMET058METAR SBUF 221300Z 12009KT 9999 BKN018 BKN080 29/20 Q1015=
0165829860999992016122215004-09401-038251FM-15+026999999V0201301N004610243819N009999199+03301+01801999999ADDGA1041+006101999GA2071+024381999GE19MSL   +99999+99999GF199999041999006101999999MA1101301999999REMMET058METAR SBUF 221500Z 13009KT 9999 SCT020 BKN080 33/18 Q1013=
0191829860999992016122216004-09401-038251FM-15+026999999V0201101N00511006401CN009999199+03101+01901999999ADDGA1021+006101999GA2041+006401081GA3071+024381999GE19MSL   +99999+99999GF199999021999006101999999MA1101201999999REMMET068METAR SBUF 221600Z 11010KT 9999 FEW020 SCT021TCU BKN080 31/19 Q1012=
0165829860999992016122217004-09401-038251FM-15+026999999V0200801N00461024381CN009999199+03301+01901999999ADDGA1021+006101999GA2041+024381999GE19MSL   +99999+99999GF199999021999006101999999MA1101101999999REMMET058METAR SBUF 221700Z 08009KT 9999 FEW020 SCT080 33/19 Q1011=
0165829860999992016122218004-09401-038251FM-15+026999999V0201401N00511024381CN009999199+03401+01901999999ADDGA1041+006101999GA2041+024381999GE19MSL   +99999+99999GF199999041999006101999999MA1101001999999REMMET058METAR SBUF 221800Z 14010KT 9999 SCT020 SCT080 34/19 Q1010=
0165829860999992016122219004-09401-038251FM-15+026999999V0201101N00621024381CN009999199+03301+01701999999ADDGA1041+006101999GA2041+024381999GE19MSL   +99999+99999GF199999041999006101999999MA1101001999999REMMET058METAR SBUF 221900Z 11012KT 9999 SCT020 SCT080 33/17 Q1010=
0142829860999992016122220004-09401-038251FM-15+026999999V0201201N007219999999N009999199+03201+01801999999ADDGA1041+006101999GE19MSL   +99999+99999GF199999041999006101999999MA1101101999999REMMET051METAR SBUF 222000Z 12014KT 9999 SCT020 32/18 Q1011=
0145829860999992016122221004-09401-038251FM-15+026999999V0201301N008219999999N009999199+03001+01801999999ADDGA1021+006101081GE19MSL   +99999+99999GF199999021999006101999999MA1101201999999REMMET054METAR SBUF 222100Z 13016KT 9999 FEW020TCU 30/18 Q1012=
0072829860999992016122222004-09401-038251FM-15+026999999V0201301N010319999999Y999999999+02901+01801999999ADDMA1101201999999REMMET045METAR SBUF 222200Z 13020KT CAVOK 29/18 Q1012=
0145829860999992016122222454-09401-038251FM-16+026999999V0201301N009319999999N009999199+02801+01801999999ADDGA1021+006101081GE19MSL   +99999+99999GF199999021999006101999999MA1101301999999REMMET054SPECI SBUF 222245Z 13018KT 9999 FEW020TCU 28/18 Q1013=
0142829860999992016122311154-09401-038251FM-16+026999999V0201001N007210057919N009999199+02801+01801999999ADDGA1071+005791999GE19MSL   +99999+99999GF199999071999005791999999MA1101501999999REMMET051SPECI SBUF 231115Z 10014KT 9999 BKN019 28/18 Q1015=
0142829860999992016122312004-09401-038251FM-15+026999999V0201101N006710061019N009999199+03001+01801999999ADDGA1071+006101999GE19MSL   +99999+99999GF199999071999006101999999MA1101501999999REMMET051METAR SBUF 231200Z 11013KT 9999 BKN020 30/18 Q1015=
0165829860999992016122313004-09401-038251FM-15+026999999V0201101N006210057919N009999199+02901+01801999999ADDGA1071+005791999GA2071+021341999GE19MSL   +99999+99999GF199999071999005791999999MA1101501999999REMMET058METAR SBUF 231300Z 11012KT 9999 BKN019 BKN070 29/18 Q1015=
0165829860999992016122315004-09401-038251FM-15+026999999V0201101N005110213419N009999199+03101+01801999999ADDGA1041+006101999GA2071+021341999GE19MSL   +99999+99999GF199999041999006101999999MA1101301999999REMMET058METAR SBUF 231500Z 11010KT 9999 SCT020 BKN070 31/18 Q1013=
0142829860999992016122316004-09401-038251FM-15+026999999V0201201N006210061019N009999199+03201+01801999999ADDGA1071+006101999GE19MSL   +99999+99999GF199999071999006101999999MA1101201999999REMMET051METAR SBUF 231600Z 12012KT 9999 BKN020 32/18 Q1012=
0142829860999992016122317004-09401-038251FM-15+026999999V0201501N005119999999N009999199+03401+01601999999ADDGA1041+006401999GE19MSL   +99999+99999GF199999041999006401999999MA1101101999999REMMET051METAR SBUF 231700Z 15010KT 9999 SCT021 34/16 Q1011=
0142829860999992016122318004-09401-038251FM-15+026999999V0201501N006219999999N009999199+03401+01601999999ADDGA1041+006711999GE19MSL   +99999+99999GF199999041999006711999999MA1101001999999REMMET051METAR SBUF 231800Z 15012KT 9999 SCT022 34/16 Q1010=
0142829860999992016122319004-09401-038251FM-15+026999999V0201601N006219999999N009999199+03401+01501999999ADDGA1041+006711999GE19MSL   +99999+99999GF199999041999006711999999MA1101001999999REMMET051METAR SBUF 231900Z 16012KT 9999 SCT022 34/15 Q1010=
0142829860999992016122319454-09401-038251FM-16+026999999V0201301N007219999999N009999199+03401+01401999999ADDGA1041+006711999GE19MSL   +99999+99999GF199999041999006711999999MA1101001999999REMMET051SPECI SBUF 231945Z 13014KT 9999 SCT022 34/14 Q1010=
0142829860999992016122412004-09401-038251FM-15+026999999V0200901N004619999999N009999199+03001+01701999999ADDGA1041+006101999GE19MSL   +99999+99999GF199999041999006101999999MA1101501999999REMMET051METAR SBUF 241200Z 09009KT 9999 SCT020 30/17 Q1015=
0142829860999992016122413004-09401-038251FM-15+026999999V0201301N005719999999N009999199+03201+01501999999ADDGA1041+006101999GE19MSL   +99999+99999GF199999041999006101999999MA1101501999999REMMET051METAR SBUF 241300Z 13011KT 9999 SCT020 32/15 Q1015=
0142829860999992016122415004-09401-038251FM-15+026999999V0201101N005119999999N009999199+03401+01201999999ADDGA1021+006711999GE19MSL   +99999+99999GF199999021999006711999999MA1101301999999REMMET051METAR SBUF 241500Z 11010KT 9999 FEW022 34/12 Q1013=
0142829860999992016122416004-09401-038251FM-15+026999999V0201301N004119999999N009999199+03501+01101999999ADDGA1021+006711999GE19MSL   +99999+99999GF199999021999006711999999MA1101201999999REMMET051METAR SBUF 241600Z 13008KT 9999 FEW022 35/11 Q1012=
0142829860999992016122417004-09401-038251FM-15+026999999V0201201N004619999999N009999199+03601+01101999999ADDGA1021+007011999GE19MSL   +99999+99999GF199999021999007011999999MA1101101999999REMMET051METAR SBUF 241700Z 12009KT 9999 FEW023 36/11 Q1011=
0142829860999992016122419004-09401-038251FM-15+026999999V0201201N005119999999N009999199+03601+01001999999ADDGA1021+007011999GE19MSL   +99999+99999GF199999021999007011999999MA1101001999999REMMET051METAR SBUF 241900Z 12010KT 9999 FEW023 36/10 Q1010=
0142829860999992016122419454-09401-038251FM-16+026999999V0201501N004619999999N009999199+03401+01201999999ADDGA1021+007011999GE19MSL   +99999+99999GF199999021999007011999999MA1101001999999REMMET051SPECI SBUF 241945Z 15009KT 9999 FEW023 34/12 Q1010=
0142829860999992016122511154-09401-038251FM-16+026999999V0201101N004119999999N009999199+02801+01901999999ADDGA1041+006101999GE19MSL   +99999+99999GF199999041999006101999999MA1101401999999REMMET051SPECI SBUF 251115Z 11008KT 9999 SCT020 28/19 Q1014=
0142829860999992016122512004-09401-038251FM-15+026999999V0201001N004619999999N009999199+03101+01801999999ADDGA1041+006101999GE19MSL   +99999+99999GF199999041999006101999999MA1101401999999REMMET051METAR SBUF 251200Z 10009KT 9999 SCT020 31/18 Q1014=
0142829860999992016122513004-09401-038251FM-15+026999999V0201101N004619999999N009999199+03101+01601999999ADDGA1041+006401999GE19MSL   +99999+99999GF199999041999006401999999MA1101401999999REMMET051METAR SBUF 251300Z 11009KT 9999 SCT021 31/16 Q1014=
0142829860999992016122514004-09401-038251FM-15+026999999V0201001N004619999999N009999199+03301+01601999999ADDGA1021+006401999GE19MSL   +99999+99999GF199999021999006401999999MA1101301999999REMMET051METAR SBUF 251400Z 10009KT 9999 FEW021 33/16 Q1013=
0142829860999992016122515004-09401-038251FM-15+026999999V0201101N004119999999N009999199+03401+01501999999ADDGA1021+006711999GE19MSL   +99999+99999GF199999021999006711999999MA1101201999999REMMET051METAR SBUF 251500Z 11008KT 9999 FEW022 34/15 Q1012=
0142829860999992016122517004-09401-038251FM-15+026999999V0200801N003119999999N009999199+03601+01401999999ADDGA1021+006711999GE19MSL   +99999+99999GF199999021999006711999999MA1101001999999REMMET051METAR SBUF 251700Z 08006KT 9999 FEW022 36/14 Q1010=
0142829860999992016122518004-09401-038251FM-15+026999999V0201101N002119999999N009999199+03601+01301999999ADDGA1041+006711999GE19MSL   +99999+99999GF199999041999006711999999MA1100901999999REMMET051METAR SBUF 251800Z 11004KT 9999 SCT022 36/13 Q1009=
0142829860999992016122519004-09401-038251FM-15+026999999V0201801N002119999999N009999199+03601+01301999999ADDGA1041+006711999GE19MSL   +99999+99999GF199999041999006711999999MA1100901999999REMMET051METAR SBUF 251900Z 18004KT 9999 SCT022 36/13 Q1009=
0142829860999992016122519454-09401-038251FM-16+026999999V0201901N001519999999N009999199+03601+01201999999ADDGA1021+006711999GE19MSL   +99999+99999GF199999021999006711999999MA1100901999999REMMET051SPECI SBUF 251945Z 19003KT 9999 FEW022 36/12 Q1009=
0142829860999992016122611154-09401-038251FM-16+026999999V0201001N004110054919N009999199+03001+02001999999ADDGA1071+005491999GE19MSL   +99999+99999GF199999071999005491999999MA1101501999999REMMET051SPECI SBUF 261115Z 10008KT 9999 BKN018 30/20 Q1015=
0142829860999992016122612004-09401-038251FM-15+026999999V0201101N005110057919N009999199+03001+02001999999ADDGA1071+005791999GE19MSL   +99999+99999GF199999071999005791999999MA1101501999999REMMET051METAR SBUF 261200Z 11010KT 9999 BKN019 30/20 Q1015=
0142829860999992016122613004-09401-038251FM-15+026999999V0201201N005110061019N009999199+03301+01901999999ADDGA1071+006101999GE19MSL   +99999+99999GF199999071999006101999999MA1101501999999REMMET051METAR SBUF 261300Z 12010KT 9999 BKN020 33/19 Q1015=
0142829860999992016122614004-09401-038251FM-15+026999999V0201201N004610061019N009999199+03301+01801999999ADDGA1071+006101999GE19MSL   +99999+99999GF199999071999006101999999MA1101401999999REMMET051METAR SBUF 261400Z 12009KT 9999 BKN020 33/18 Q1014=
0142829860999992016122615004-09401-038251FM-15+026999999V0201001N004619999999N009999199+03401+01701999999ADDGA1041+006401999GE19MSL   +99999+99999GF199999041999006401999999MA1101301999999REMMET051METAR SBUF 261500Z 10009KT 9999 SCT021 34/17 Q1013=
0142829860999992016122616004-09401-038251FM-15+026999999V0201101N005119999999N009999199+03601+01501999999ADDGA1021+006401999GE19MSL   +99999+99999GF199999021999006401999999MA1101201999999REMMET051METAR SBUF 261600Z 11010KT 9999 FEW021 36/15 Q1012=
0142829860999992016122618004-09401-038251FM-15+026999999V0201501N003619999999N009999199+03801+01401999999ADDGA1021+006711999GE19MSL   +99999+99999GF199999021999006711999999MA1101001999999REMMET051METAR SBUF 261800Z 15007KT 9999 FEW022 38/14 Q1010=
0142829860999992016122619004-09401-038251FM-15+026999999V0201201N004619999999N009999199+03701+01201999999ADDGA1021+006711999GE19MSL   +99999+99999GF199999021999006711999999MA1100901999999REMMET051METAR SBUF 261900Z 12009KT 9999 FEW022 37/12 Q1009=
0142829860999992016122619454-09401-038251FM-16+026999999V0201001N004119999999N009999199+03701+01101999999ADDGA1021+006711999GE19MSL   +99999+99999GF199999021999006711999999MA1100901999999REMMET051SPECI SBUF 261945Z 10008KT 9999 FEW022 37/11 Q1009=
0142829860999992016122711154-09401-038251FM-16+026999999V0201001N005710057919N009999199+02901+02001999999ADDGA1071+005791999GE19MSL   +99999+99999GF199999071999005791999999MA1101701999999REMMET051SPECI SBUF 271115Z 10011KT 9999 BKN019 29/20 Q1017=
0142829860999992016122712004-09401-038251FM-15+026999999V0200901N006710061019N009999199+03101+01901999999ADDGA1071+006101999GE19MSL   +99999+99999GF199999071999006101999999MA1101601999999REMMET051METAR SBUF 271200Z 09013KT 9999 BKN020 31/19 Q1016=
0142829860999992016122713004-09401-038251FM-15+026999999V0201001N006719999999N009999199+03301+01801999999ADDGA1041+006101999GE19MSL   +99999+99999GF199999041999006101999999MA1101601999999REMMET051METAR SBUF 271300Z 10013KT 9999 SCT020 33/18 Q1016=
0142829860999992016122715004-09401-038251FM-15+026999999V0201101N006219999999N009999199+03501+01701999999ADDGA1021+006401999GE19MSL   +99999+99999GF199999021999006401999999MA1101401999999REMMET051METAR SBUF 271500Z 11012KT 9999 FEW021 35/17 Q1014=
0142829860999992016122716004-09401-038251FM-15+026999999V0201201N006719999999N009999199+03601+01601999999ADDGA1021+006401999GE19MSL   +99999+99999GF199999021999006401999999MA1101301999999REMMET051METAR SBUF 271600Z 12013KT 9999 FEW021 36/16 Q1013=
0142829860999992016122717004-09401-038251FM-15+026999999V0201101N005719999999N009999199+03801+01501999999ADDGA1021+006711999GE19MSL   +99999+99999GF199999021999006711999999MA1101201999999REMMET051METAR SBUF 271700Z 11011KT 9999 FEW022 38/15 Q1012=
0142829860999992016122718004-09401-038251FM-15+026999999V0201101N007219999999N009999199+03701+01501999999ADDGA1021+006711999GE19MSL   +99999+99999GF199999021999006711999999MA1101101999999REMMET051METAR SBUF 271800Z 11014KT 9999 FEW022 37/15 Q1011=
0142829860999992016122719004-09401-038251FM-15+026999999V0201301N006219999999N009999199+03701+01501999999ADDGA1041+006711999GE19MSL   +99999+99999GF199999041999006711999999MA1101101999999REMMET051METAR SBUF 271900Z 13012KT 9999 SCT022 37/15 Q1011=
0142829860999992016122719454-09401-038251FM-16+026999999V0201201N007219999999N009999199+03501+01501999999ADDGA1041+006711999GE19MSL   +99999+99999GF199999041999006711999999MA1101101999999REMMET051SPECI SBUF 271945Z 12014KT 9999 SCT022 35/15 Q1011=
0142829860999992016122811154-09401-038251FM-16+026999999V0200901N005710057919N009999199+02901+01901999999ADDGA1071+005791999GE19MSL   +99999+99999GF199999071999005791999999MA1101601999999REMMET051SPECI SBUF 281115Z 09011KT 9999 BKN019 29/19 Q1016=
0142829860999992016122812004-09401-038251FM-15+026999999V0200901N005710061019N009999199+03001+01901999999ADDGA1071+006101999GE19MSL   +99999+99999GF199999071999006101999999MA1101601999999REMMET051METAR SBUF 281200Z 09011KT 9999 BKN020 30/19 Q1016=
0142829860999992016122813004-09401-038251FM-15+026999999V0201001N006210061019N009999199+03101+01801999999ADDGA1071+006101999GE19MSL   +99999+99999GF199999071999006101999999MA1101601999999REMMET051METAR SBUF 281300Z 10012KT 9999 BKN020 31/18 Q1016=
0142829860999992016122814004-09401-038251FM-15+026999999V0201001N005110061019N009999199+03301+01701999999ADDGA1071+006101999GE19MSL   +99999+99999GF199999071999006101999999MA1101601999999REMMET051METAR SBUF 281400Z 10010KT 9999 BKN020 33/17 Q1016=
0142829860999992016122815004-09401-038251FM-15+026999999V0200901N006210067119N009999199+03401+01701999999ADDGA1071+006711999GE19MSL   +99999+99999GF199999071999006711999999MA1101501999999REMMET051METAR SBUF 281500Z 09012KT 9999 BKN022 34/17 Q1015=
0142829860999992016122816004-09401-038251FM-15+026999999V0200801N006219999999N009999199+03501+01601999999ADDGA1041+006711999GE19MSL   +99999+99999GF199999041999006711999999MA1101401999999REMMET051METAR SBUF 281600Z 08012KT 9999 SCT022 35/16 Q1014=
0142829860999992016122817004-09401-038251FM-15+026999999V0201101N006710067119N009999199+03601+01501999999ADDGA1071+006711999GE19MSL   +99999+99999GF199999071999006711999999MA1101301999999REMMET051METAR SBUF 281700Z 11013KT 9999 BKN022 36/15 Q1013=
0142829860999992016122818004-09401-038251FM-15+026999999V0201001N006219999999N009999199+03501+01501999999ADDGA1041+006711999GE19MSL   +99999+99999GF199999041999006711999999MA1101201999999REMMET051METAR SBUF 281800Z 10012KT 9999 SCT022 35/15 Q1012=
0142829860999992016122819004-09401-038251FM-15+026999999V0201101N006719999999N009999199+03501+01501999999ADDGA1041+006711999GE19MSL   +99999+99999GF199999041999006711999999MA1101101999999REMMET051METAR SBUF 281900Z 11013KT 9999 SCT022 35/15 Q1011=
0142829860999992016122819454-09401-038251FM-16+026999999V0201101N007219999999N009999199+03501+01501999999ADDGA1021+006711999GE19MSL   +99999+99999GF199999021999006711999999MA1101101999999REMMET051SPECI SBUF 281945Z 11014KT 9999 FEW022 35/15 Q1011=
0142829860999992016122911154-09401-038251FM-16+026999999V0201001N006210057919N009999199+02901+01901999999ADDGA1071+005791999GE19MSL   +99999+99999GF199999071999005791999999MA1101601999999REMMET051SPECI SBUF 291115Z 10012KT 9999 BKN019 29/19 Q1016=
0142829860999992016122912004-09401-038251FM-15+026999999V0201001N006710057919N009999199+03101+01901999999ADDGA1071+005791999GE19MSL   +99999+99999GF199999071999005791999999MA1101601999999REMMET051METAR SBUF 291200Z 10013KT 9999 BKN019 31/19 Q1016=
0142829860999992016122913004-09401-038251FM-15+026999999V0200901N006719999999N009999199+03201+01701999999ADDGA1041+006101999GE19MSL   +99999+99999GF199999041999006101999999MA1101601999999REMMET051METAR SBUF 291300Z 09013KT 9999 SCT020 32/17 Q1016=
0142829860999992016122915004-09401-038251FM-15+026999999V0200901N007210067119N009999199+03501+01501999999ADDGA1071+006711999GE19MSL   +99999+99999GF199999071999006711999999MA1101501999999REMMET051METAR SBUF 291500Z 09014KT 9999 BKN022 35/15 Q1015=
0142829860999992016122916004-09401-038251FM-15+026999999V0201001N007219999999N009999199+03601+01401999999ADDGA1041+006711999GE19MSL   +99999+99999GF199999041999006711999999MA1101401999999REMMET051METAR SBUF 291600Z 10014KT 9999 SCT022 36/14 Q1014=
0142829860999992016122917004-09401-038251FM-15+026999999V0201001N007219999999N009999199+03701+01401999999ADDGA1041+006711999GE19MSL   +99999+99999GF199999041999006711999999MA1101201999999REMMET051METAR SBUF 291700Z 10014KT 9999 SCT022 37/14 Q1012=
0142829860999992016122918004-09401-038251FM-15+026999999V0200901N007219999999N009999199+03401+01601999999ADDGA1041+006401999GE19MSL   +99999+99999GF199999041999006401999999MA1101201999999REMMET051METAR SBUF 291800Z 09014KT 9999 SCT021 34/16 Q1012=
0142829860999992016122919004-09401-038251FM-15+026999999V0201001N007219999999N009999199+03401+01401999999ADDGA1041+006401999GE19MSL   +99999+99999GF199999041999006401999999MA1101201999999REMMET051METAR SBUF 291900Z 10014KT 9999 SCT021 34/14 Q1012=
0142829860999992016122919454-09401-038251FM-16+026999999V0201101N008219999999N009999199+03301+01601999999ADDGA1041+006401999GE19MSL   +99999+99999GF199999041999006401999999MA1101201999999REMMET051SPECI SBUF 291945Z 11016KT 9999 SCT021 33/16 Q1012=
0142829860999992016123011154-09401-038251FM-16+026999999V0201101N005710051819N009999199+02701+01801999999ADDGA1071+005181999GE19MSL   +99999+99999GF199999071999005181999999MA1101601999999REMMET051SPECI SBUF 301115Z 11011KT 9999 BKN017 27/18 Q1016=
0142829860999992016123013004-09401-038251FM-15+026999999V0200901N007210061019N009999199+03101+01501999999ADDGA1071+006101999GE19MSL   +99999+99999GF199999071999006101999999MA1101501999999REMMET051METAR SBUF 301300Z 09014KT 9999 BKN020 31/15 Q1015=
0142829860999992016123014004-09401-038251FM-15+026999999V0201001N006719999999N009999199+03301+01501999999ADDGA1041+006101999GE19MSL   +99999+99999GF199999041999006101999999MA1101501999999REMMET051METAR SBUF 301400Z 10013KT 9999 SCT020 33/15 Q1015=
0142829860999992016123015004-09401-038251FM-15+026999999V0201101N006219999999N009999199+03401+01501999999ADDGA1041+006711999GE19MSL   +99999+99999GF199999041999006711999999MA1101401999999REMMET051METAR SBUF 301500Z 11012KT 9999 SCT022 34/15 Q1014=
0142829860999992016123017004-09401-038251FM-15+026999999V0200901N005710076219N009999199+03501+01501999999ADDGA1071+007621999GE19MSL   +99999+99999GF199999071999007621999999MA1101201999999REMMET051METAR SBUF 301700Z 09011KT 9999 BKN025 35/15 Q1012=
0165829860999992016123018004-09401-038251FM-15+026999999V0201101N00571021341CN009999199+03401+01501999999ADDGA1041+007621999GA2041+021341999GE19MSL   +99999+99999GF199999041999007621999999MA1101101999999REMMET058METAR SBUF 301800Z 11011KT 9999 SCT025 SCT070 34/15 Q1011=
0165829860999992016123019004-09401-038251FM-15+026999999V0201001N00621021341CN009999199+03401+01601999999ADDGA1041+007621999GA2041+021341999GE19MSL   +99999+99999GF199999041999007621999999MA1101101999999REMMET058METAR SBUF 301900Z 10012KT 9999 SCT025 SCT070 34/16 Q1011=
0165829860999992016123019454-09401-038251FM-16+026999999V0201201N00721021341CN009999199+03301+01601999999ADDGA1041+007621999GA2041+021341999GE19MSL   +99999+99999GF199999041999007621999999MA1101101999999REMMET058SPECI SBUF 301945Z 12014KT 9999 SCT025 SCT070 33/16 Q1011=
0142829860999992016123111154-09401-038251FM-16+026999999V0200901N006219999999N009999199+02901+01801999999ADDGA1041+005791999GE19MSL   +99999+99999GF199999041999005791999999MA1101601999999REMMET051SPECI SBUF 311115Z 09012KT 9999 SCT019 29/18 Q1016=
0142829860999992016123112004-09401-038251FM-15+026999999V0200901N006719999999N009999199+02901+01801999999ADDGA1041+005791999GE19MSL   +99999+99999GF199999041999005791999999MA1101601999999REMMET051METAR SBUF 311200Z 09013KT 9999 SCT019 29/18 Q1016=
0142829860999992016123114004-09401-038251FM-15+026999999V0201101N005719999999N009999199+03301+01601999999ADDGA1021+006711999GE19MSL   +99999+99999GF199999021999006711999999MA1101501999999REMMET051METAR SBUF 311400Z 11011KT 9999 FEW022 33/16 Q1015=
0142829860999992016123115004-09401-038251FM-15+026999999V0201201N006219999999N009999199+03401+01601999999ADDGA1021+006711999GE19MSL   +99999+99999GF199999021999006711999999MA1101401999999REMMET051METAR SBUF 311500Z 12012KT 9999 FEW022 34/16 Q1014=
0142829860999992016123116004-09401-038251FM-15+026999999V0201301N005719999999N009999199+03501+01501999999ADDGA1021+007011999GE19MSL   +99999+99999GF199999021999007011999999MA1101301999999REMMET051METAR SBUF 311600Z 13011KT 9999 FEW023 35/15 Q1013=
0142829860999992016123117004-09401-038251FM-15+026999999V0201101N005719999999N009999199+03601+01501999999ADDGA1021+007011999GE19MSL   +99999+99999GF199999021999007011999999MA1101201999999REMMET051METAR SBUF 311700Z 11011KT 9999 FEW023 36/15 Q1012=
0142829860999992016123118004-09401-038251FM-15+026999999V0201201N006719999999N009999199+03701+01401999999ADDGA1021+007011999GE19MSL   +99999+99999GF199999021999007011999999MA1101101999999REMMET051METAR SBUF 311800Z 12013KT 9999 FEW023 37/14 Q1011=
0142829860999992016123119004-09401-038251FM-15+026999999V0201001N006219999999N009999199+03501+01401999999ADDGA1021+007011999GE19MSL   +99999+99999GF199999021999007011999999MA1101101999999REMMET051METAR SBUF 311900Z 10012KT 9999 FEW023 35/14 Q1011=
0142829860999992016123119454-09401-038251FM-16+026999999V0201101N005719999999N009999199+03501+01401999999ADDGA1021+007011999GE19MSL   +99999+99999GF199999021999007011999999MA1101101999999REMMET051SPECI SBUF 311945Z 11011KT 9999 FEW023 35/14 Q1011=
