0198821980999992000010100004-01720-045400FM-12+004499999V0200901N002112200019N0020001N1+02561+02421100681ADDAA106000091GF104991031021017501061001KA1240M+02941MA1999999100171MD1999999-0161REMSYN088AAXX  01004 82198 32795 40904 10256 20242 30017 40068 83260 333 10294 29092 55002 59016;EQDQ01  00002PRCP06
0186821980999992000010112004-01720-045400FM-12+004499999V0201401N002110450019N0100001N1+02671+02501100731ADDAA106000091GF106991021021017501031001KA1240N+02331MA1999999100221MD1999999-0191REMSYN076AAXX  01124 82198 32797 61404 10267 20250 30022 40073 82230 333 20233 59019;EQDQ01  00002PRCP06
0167821980999992000010118004-01720-045400FM-12+004499999V0200501N008212200019N0100001N1+03071+02841100431ADDAA106000091GF103991031021017501001001MA1999999099921MD1999999-0161REMSYN070AAXX  01184 82198 32797 30516 10307 20284 39992 40043 83200 333 59016;EQDQ01  00002PRCP06
0208821980999992000010200004-01720-045400FM-12+004499999V0200501N003612200019N0020001N1+02671+02501100581ADDAA106000091GA1001+999999999GF100991001001999999001001KA1240M+03231MA1999999100071MD1999999-0101REMSYN082AAXX  02004 82198 32995 00507 10267 20250 30007 40058 333 10323 29088 55059 59010;EQDQ01  00002PRCP06
0186821980999992000010212004-01720-045400FM-12+004499999V0200501N003610450019N0100001N1+02891+02681100711ADDAA106000091GF105991031021017501061001KA1240N+02481MA1999999100201MD1999999-0021REMSYN076AAXX  02124 82198 32797 50507 10289 20268 30020 40071 83260 333 20248 59002;EQDQ01  00002PRCP06
0167821980999992000010218004-01720-045400FM-12+004499999V0200501N005712200019N0100001N1+03021+02761100451ADDAA106000091GF104991021021017501061001MA1999999099941MD1999999+0021REMSYN070AAXX  02184 82198 32797 40511 10302 20276 39994 40045 82260 333 58002;EQDQ01  00002PRCP06
0198821980999992000010300004-01720-045400FM-12+004499999V0200501N002612200019N0020001N1+02691+02611100621ADDAA106000091GF104991021011017501061001KA1240M+03121MA1999999100111MD1999999+0041REMSYN088AAXX  03004 82198 32795 40505 10269 20261 30011 40062 82160 333 10312 29092 55071 58004;EQDQ01  00002PRCP06
0186821980999992000010312004-01720-045400FM-12+004499999V0200901N001510150019N0100001N1+02711+02561100711ADDAA106000091GF108991051021017501061001KA1240N+02441MA1999999100201MD1999999+0001REMSYN076AAXX  03124 82198 32797 80903 10271 20256 30020 40071 85260 333 20244 58000;EQDQ01  00002PRCP06
0167821980999992000010318004-01720-045400FM-12+004499999V0200501N005710450019N0100001N1+02941+02681100371ADDAA106000091GF107991041021017501061001MA1999999099861MD1999999-0081REMSYN070AAXX  03184 82198 32797 70511 10294 20268 39986 40037 84260 333 59008;EQDQ01  00002PRCP06
0198821980999992000010400004-01720-045400FM-12+004499999V0209999C000010450019N0020001N1+02641+02481100751ADDAA106000091GF108991041021017501061001KA1240M+03231MA1999999100241MD1999999+0131REMSYN088AAXX  04004 82198 32795 80000 10264 20248 30024 40075 84260 333 10323 29090 55022 58013;EQDQ01  00002PRCP06
0186821980999992000010412004-01720-045400FM-12+004499999V0209999C000010150019N0100001N1+02441+02231100871ADDAA106000091GF108991051021017501061001KA1240N+02281MA1999999100361MD1999999+0161REMSYN076AAXX  04124 82198 32797 80000 10244 20223 30036 40087 85260 333 20228 58016;EQDQ01  00002PRCP06
0182821980999992000010418004-01720-045400FM-12+004499999V0202701N002110150019N0100001N1+02451+02211100671ADDAA106005191AY161061AY251061GF108991051051017501041001MA1999999100161MD1999999+0301MW1021REMSYN082AAXX  04184 82198 21797 82704 10245 20221 30016 40067 70265 85540 333 58030 60051;
0213821980999992000010500004-01720-045400FM-12+004499999V0209999C000010150019N0020001N1+02371+02211100761ADDAA106001091AY151061AY221061GF108991051051017501021001KA1240M+03071MA1999999100251MD1999999+0011MW1021REMSYN100AAXX  05004 82198 21795 80000 10237 20221 30025 40076 70252 85520 333 10307 29088 55016 58001 60011;
0173821980999992000010512004-01720-045400FM-12+004499999V0201401N001010450019N0100001N1+02511+02291100851ADDAA124006191GF106991021011017501061001KA1240N+02251MA1999999100341MD1999999-0021REMSYN082AAXX  05124 82198 22797 61402 10251 20229 30034 40085 82160 333 20225 59002 60064;
0182821980999992000010518004-01720-045400FM-12+004499999V0200501N004610150019N0100001N1+02461+02191100711ADDAA106004191AY161061AY291061GF108991051051017501021001MA1999999100201MD1999999+0041MW1021REMSYN082AAXX  05184 82198 21797 80509 10246 20219 30020 40071 70269 85520 333 58004 60041;
0173821980999992000010612004-01720-045400FM-12+004499999V0200901N001510450019N0100001N1+02741+02481100951ADDAA124004191GF106991041021017501061001KA1240N+02311MA1999999100441MD1999999+0101REMSYN082AAXX  06124 82198 22797 60903 10274 20248 30044 40095 84260 333 20231 58010 60044;
0198821980999992000010700004-01720-045400FM-12+004499999V0200501N003612200019N0020001N1+02631+02371100661ADDAA106000091GF103991031001017501061001KA1240M+03031MA1999999100151MD1999999-0041REMSYN088AAXX  07004 82198 32795 30507 10263 20237 30015 40066 83060 333 10303 29086 55037 59004;EQDQ01  00002PRCP06
0201821980999992000010712004-01720-045400FM-12+004499999V0200901N004110450019N0100001N1+02471+02251100881ADDAA124004191AY161061AY221061GF108991041051017501061001KA1240N+02421MA1999999100371MD1999999-0071MW1031REMSYN088AAXX  07124 82198 21797 80908 10247 20225 30037 40088 70362 84560 333 20242 59007 60044;
0167821980999992000010718004-01720-045400FM-12+004499999V0200901N004110450019N0100001N1+02821+02481100561ADDAA106000091GF106991041021017501061001MA1999999100051MD1999999-0031REMSYN070AAXX  07184 82198 32797 60908 10282 20248 30005 40056 84260 333 59003;EQDQ01  00002PRCP06
0198821980999992000010800004-01720-045400FM-12+004499999V0200501N002110450019N0020001N1+02571+02371100641ADDAA106000091GF108991041041017501061001KA1240M+03021MA1999999100131MD1999999-0021REMSYN088AAXX  08004 82198 32795 80504 10257 20237 30013 40064 84460 333 10302 29086 55010 59002;EQDQ01  00002PRCP06
0182821980999992000010818004-01720-045400FM-12+004499999V0209999C000010450019N0100001N1+02581+02351100681ADDAA106000391AY151061AY221061GF108991021011017501061001MA1999999100171MD1999999+0121MW1021REMSYN082AAXX  08184 82198 21797 80000 10258 20235 30017 40068 70252 82160 333 58012 69931;
0198821980999992000010900004-01720-045400FM-12+004499999V0200501N001510450019N0020001N1+02511+02431100881ADDAA106000091GF108991041051017501061001KA1240M+02771MA1999999100371MD1999999+0241REMSYN088AAXX  09004 82198 32795 80503 10251 20243 30037 40088 84560 333 10277 29092 55000 58024;EQDQ01  00002PRCP06
0173821980999992000010912004-01720-045400FM-12+004499999V0201401N001510150019N0100001N1+02651+02421100911ADDAA124000391GF107991061021017501061001KA1240N+02301MA1999999100401MD1999999-0021REMSYN082AAXX  09124 82198 22797 71403 10265 20242 30040 40091 86260 333 20230 59002 69934;
0182821980999992000010918004-01720-045400FM-12+004499999V0202301N000510150019N0100001N1+02251+02071100751ADDAA106058991AY161061AY221061GF108991051051017501021001MA1999999100241MD1999999+0071MW1021REMSYN082AAXX  09184 82198 21797 82301 10225 20207 30024 40075 70262 85520 333 58007 60591;
0198821980999992000011000004-01720-045400FM-12+004499999V0201801N001510450019N0020001N1+02371+02151100951ADDAA106000091GF107991031051017501061001KA1240M+03041MA1999999100441MD1999999+0071REMSYN088AAXX  10004 82198 32795 71803 10237 20215 30044 40095 83560 333 10304 29088 55040 58007;EQDQ01  00002PRCP06
0201821980999992000011012004-01720-045400FM-12+004499999V0201401N002110450019N0100001N1+02301+02131100981ADDAA124111091AY161061AY221061GF108991041071017501061001KA1240N+02181MA1999999100471MD1999999+0071MW1021REMSYN088AAXX  10124 82198 21797 81404 10230 20213 30047 40098 70262 84760 333 20218 58007 61114;
0167821980999992000011018004-01720-045400FM-12+004499999V0200901N002610450019N0100001N1+02841+02581100601ADDAA106000091GF108991031021017501061001MA1999999100091MD1999999-0151REMSYN070AAXX  10184 82198 32797 80905 10284 20258 30009 40060 83260 333 59015;EQDQ01  00002PRCP06
0198821980999992000011100004-01720-045400FM-12+004499999V0200501N003112200019N0020001N1+02571+02351100751ADDAA106000091GF103991031001017501061001KA1240M+02911MA1999999100241MD1999999-0201REMSYN088AAXX  11004 82198 32795 30506 10257 20235 30024 40075 83060 333 10291 29088 55000 59020;EQDQ01  00002PRCP06
0186821980999992000011112004-01720-045400FM-12+004499999V0200501N002612200019N0100001N1+02701+02461100881ADDAA106000091GF106991041021017501001011KA1240N+02281MA1999999100371MD1999999-0101REMSYN076AAXX  11124 82198 32797 60505 10270 20246 30037 40088 84201 333 20228 59010;EQDQ01  00002PRCP06
0167821980999992000011118004-01720-045400FM-12+004499999V0200501N005110450019N0100001N1+02901+02541100521ADDAA106000091GF106991041021017501061001MA1999999100011MD1999999-0081REMSYN070AAXX  11184 82198 32797 60510 10290 20254 30001 40052 84260 333 59008;EQDQ01  00002PRCP06
0198821980999992000011200004-01720-045400FM-12+004499999V0200501N003110150019N0020001N1+02641+02331100691ADDAA106000091GF108991051051017501041001KA1240M+03131MA1999999100181MD1999999-0061REMSYN088AAXX  12004 82198 32795 80506 10264 20233 30018 40069 85540 333 10313 29084 55050 59006;EQDQ01  00002PRCP06
0186821980999992000011212004-01720-045400FM-12+004499999V0200901N004611050019N0100001N1+02521+02231100901ADDAA106000091GF105991021011017501061011KA1240N+02411MA1999999100391MD1999999+0021REMSYN076AAXX  12124 82198 32797 50909 10252 20223 30039 40090 82161 333 20241 58002;EQDQ01  00002PRCP06
0173821980999992000011312004-01720-045400FM-12+004499999V0200501N003110450019N0100001N1+02711+02391100891ADDAA124033091GF106991041021017501061011KA1240N+02331MA1999999100381MD1999999-0011REMSYN082AAXX  13124 82198 22797 60506 10271 20239 30038 40089 84261 333 20233 59001 60334;
0167821980999992000011318004-01720-045400FM-12+004499999V0200501N006212200019N0100001N1+03041+02661100631ADDAA106000091GF105991041021017501001011MA1999999100121MD1999999+0001REMSYN070AAXX  13184 82198 32797 50512 10304 20266 30012 40063 84201 333 58000;EQDQ01  00002PRCP06
0202821980999992000011400004-01720-045400FM-12+004499999V0200501N003110450019N0020001N1+02581+02291100761ADDAA199000091GF107991041011017501061001KA1240M+03131MA1999999100251MD1999999+0011REMSYN092    AAXX  14004 82198 32795 70506 10258 20229 30025 40076 84160 333 10313 29083 55080 58001;EQDQ01  00002PRCP99
0190821980999992000011412004-01720-045400FM-12+004499999V0200501N002610450019N0100001N1+02741+02381100821ADDAA199000091GF105991021021017501061001KA1240N+02391MA1999999100311MD1999999-0071REMSYN080    AAXX  14124 82198 32797 50505 10274 20238 30031 40082 82260 333 20239 59007;EQDQ01  00002PRCP99
0171821980999992000011418004-01720-045400FM-12+004499999V0200501N006712200019N0100001N1+02981+02581100521ADDAA199000091GF104991041021017501001001MA1999999100011MD1999999-0111REMSYN074    AAXX  14184 82198 32797 40513 10298 20258 30001 40052 84200 333 59011;EQDQ01  00002PRCP99
0190821980999992000011512004-01720-045400FM-12+004499999V0202301N001512200019N0100001N1+02511+02131100811ADDAA199000091GF103991021011017501001011KA1240N+02261MA1999999100301MD1999999-0011REMSYN080    AAXX  15124 82198 32797 32303 10251 20213 30030 40081 82101 333 20226 59001;EQDQ01  00002PRCP99
0217821980999992000011600004-01720-045400FM-12+004499999V0203201N001510450019N0020001N1+02491+02131100701ADDAA106014091AY161061AY221061GF108991041051017501041001KA1240M+03131MA1999999100191MD1999999+0011MW1021REMSYN104    AAXX  16004 82198 21795 83203 10249 20213 30019 40070 70262 84540 333 10313 29081 55040 58001 60141;
0205821980999992000011612004-01720-045400FM-12+004499999V0201801N002610150019N0100001N1+02501+02191100851ADDAA124017091AY161061AY221061GF108991051051017501041001KA1240N+02381MA1999999100341MD1999999+0041MW1021REMSYN092    AAXX  16124 82198 21797 81805 10250 20219 30034 40085 70262 85540 333 20238 58004 60174;
0202821980999992000011700004-01720-045400FM-12+004499999V0200901N002610450019N0020001N1+02541+02251100771ADDAA199000091GF106991041021017501061001KA1240M+02751MA1999999100261MD1999999+0091REMSYN092    AAXX  17004 82198 32795 60905 10254 20225 30026 40077 84260 333 10275 29083 55000 58009;EQDQ01  00002PRCP99
0190821980999992000011712004-01720-045400FM-12+004499999V0200501N003112200019N0100001N1+02771+02421100921ADDAA199000091GF106991031021017501001011KA1240N+02381MA1999999100411MD1999999+0071REMSYN080    AAXX  17124 82198 32797 60506 10277 20242 30041 40092 83201 333 20238 58007;EQDQ01  00002PRCP99
0171821980999992000011718004-01720-045400FM-12+004499999V0200501N006712200019N0100001N1+02971+02531100691ADDAA199000091GF104991031021017501061001MA1999999100181MD1999999-0101REMSYN074    AAXX  17184 82198 32797 40513 10297 20253 30018 40069 83260 333 59010;EQDQ01  00002PRCP99
0202821980999992000011800004-01720-045400FM-12+004499999V0200501N002110150019N0020001N1+02621+02311100921ADDAA199000091GF105991051001017501061001KA1240M+03101MA1999999100411MD1999999+0131REMSYN092    AAXX  18004 82198 32795 50504 10262 20231 30041 40092 85060 333 10310 29081 55094 58013;EQDQ01  00002PRCP99
0205821980999992000011812004-01720-045400FM-12+004499999V0202301N001010150019N0100001N1+02541+02211101141ADDAA124005191AY161061AY221061GF108991051021017501041001KA1240N+02341MA1999999100631MD1999999+0221MW1031REMSYN092    AAXX  18124 82198 21797 82302 10254 20221 30063 40114 70362 85240 333 20234 58022 60054;
0186821980999992000011818004-01720-045400FM-12+004499999V0200501N001510450019N0100001N1+02441+02151100871ADDAA106025991AY161061AY221061GF108991031051017501061001MA1999999100361MD1999999+0181MW1021REMSYN086    AAXX  18184 82198 21797 80503 10244 20215 30036 40087 70262 83560 333 58018 60261;
0217821980999992000011900004-01720-045400FM-12+004499999V0200501N001510450019N0020001N1+02371+02111101021ADDAA106006191AY161061AY221061GF108991031021017501031001KA1240M+02701MA1999999100511MD1999999+0101MW1021REMSYN104    AAXX  19004 82198 21795 80503 10237 20211 30051 40102 70262 83230 333 10270 29084 55008 58010 60061;
0205821980999992000011912004-01720-045400FM-12+004499999V0203201N002110450019N0100001N1+02581+02291101141ADDAA124038191AY161061AY221061GF108991041021017501061001KA1240N+02271MA1999999100631MD1999999+0001MW1021REMSYN092    AAXX  19124 82198 21797 83204 10258 20229 30063 40114 70262 84260 333 20227 58000 60384;
0182821980999992000011918004-01720-045400FM-12+004499999V0200501N004112200019N0100001N1+02951+02531100771ADDAA106000591AY151061AY221061GF104991021021017501061001MA1999999100261MD1999999-0101MW1011REMSYN082AAXX  19184 82198 21797 40508 10295 20253 30026 40077 70152 82260 333 59010 69951;
0198821980999992000012000004-01720-045400FM-12+004499999V0203201N002110450019N0020001N1+02581+02211100881ADDAA199000091GF108991041021017501031001KA1240M+03031MA1999999100471MD1999999-0041REMSYN088AAXX  20004 82198 32795 83204 10258 20221 30047 40088 84230 333 10303 29081 55060 59004;EQDQ01  00002PRCP99
0173821980999992000012012004-01720-045400FM-12+004499999V0202301N002110450019N0100001N1+02581+02211101101ADDAA124000591GF106991041021017501061001KA1240N+02381MA1999999100591MD1999999-0041REMSYN082AAXX  20124 82198 22797 62304 10258 20221 30059 40110 84260 333 20238 59004 69954;
0182821980999992000012018004-01720-045400FM-12+004499999V0200501N003110450019N0100001N1+02781+02441100831ADDAA106000191AY151061AY221061GF107991041051017501061001MA1999999100321MD1999999+0061MW1021REMSYN082AAXX  20184 82198 21797 70506 10278 20244 30032 40083 70252 84560 333 58006 69921;
0198821980999992000012100004-01720-045400FM-12+004499999V0203201N002110150019N0020001N1+02571+02291101011ADDAA199000091GF108991051051017501061001KA1240M+02941MA1999999100501MD1999999+0031REMSYN088AAXX  21004 82198 32795 83204 10257 20229 30050 40101 85560 333 10294 29082 55021 58003;EQDQ01  00002PRCP99
0201821980999992000012112004-01720-045400FM-12+004499999V0203201N002619999999N0100001N1+02531+02211101081ADDAA124021191AY161061AY221061GF106991041021999999061001KA1240N+02261MA1999999100571MD1999999-0021MW1021REMSYN088AAXX  21124 82198 21997 63205 10253 20221 30057 40108 70262 84260 333 20226 59002 60214;
0167821980999992000012118004-01720-045400FM-12+004499999V0200501N005112200019N0100001N1+03021+02501100731ADDAA199000091GF103991031021017501001001MA1999999100221MD1999999-0101REMSYN070AAXX  21184 82198 32797 30510 10302 20250 30022 40073 83200 333 59010;EQDQ01  00002PRCP99
0198821980999992000012200004-01720-045400FM-12+004499999V0200501N002610450019N0020001N1+02631+02161100921ADDAA199000091GF105991031021017501061001KA1240M+03131MA1999999100401MD1999999-0101REMSYN088AAXX  22004 82198 32795 50505 10263 20216 30040 40092 83260 333 10313 29074 55091 59010;EQDQ01  00002PRCP99
0186821980999992000012212004-01720-045400FM-12+004499999V0200501N001510150019N0100001N1+02711+02301101131ADDAA199000091GF108991051021017501061001KA1240N+02351MA1999999100621MD1999999+0031REMSYN076AAXX  22124 82198 32797 80503 10271 20230 30062 40113 85260 333 20235 58003;EQDQ01  00002PRCP99
0161821980999992000012218004-01720-045400FM-12+004499999V0200501N005110150019N0100001N1+99999+99999100791ADDAA199000091GF108991051051017501061001MA1999999100281MD1999999+0061REMSYN064AAXX  22184 82198 32797 80510 20250 30028 40079 85560 333 58006;EQDQ01  00002PRCP99
0213821980999992000012300004-01720-045400FM-12+004499999V0200501N000510450019N0020001N1+02471+02171100931ADDAA106019191AY161061AY221061GF105991031021017501061001KA1240M+03021MA1999999100421MD1999999+0021MW1011REMSYN100AAXX  23004 82198 21795 50501 10247 20217 30042 40093 70162 83260 333 10302 29081 55045 58002 60191;
0201821980999992000012312004-01720-045400FM-12+004499999V0200901N000512200019N0100001N1+02551+02291101051ADDAA124019191AY161061AY221061GF105991031021017501001011KA1240N+02231MA1999999100541MD1999999-0081MW1021REMSYN088AAXX  23124 82198 21797 50901 10255 20229 30054 40105 70262 83201 333 20223 59008 60194;
0198821980999992000012400004-01720-045400FM-12+004499999V0200901N003110450019N0020001N1+02601+02351100851ADDAA199000091GF108991041021017501061001KA1240M+02951MA1999999100341MD1999999-0861REMSYN088AAXX  24004 82198 32795 80906 10260 20235 30034 40085 84260 333 10295 59086 55025 59006;EQDQ01  00002PRCP99
0201821980999992000012412004-01720-045400FM-12+004499999V0200501N003110450019N0100001N1+02761+02461100991ADDAA124007191AY161061AY221061GF105991031021017501061001KA1240N+02311MA1999999100481MD1999999-0061MW1021REMSYN088AAXX  24124 82198 21797 50506 10276 20246 30048 40099 70262 83260 333 20231 59006 60074;
0167821980999992000012418004-01720-045400FM-12+004499999V0200501N005110450019N0100001N1+02851+02521100691ADDAA199000091GF108991041021017501041001MA1999999100181MD1999999-0081REMSYN070AAXX  24184 82198 32797 80510 10285 20252 30018 40069 84240 333 59008;EQDQ01  00002PRCP99
0198821980999992000012500004-01720-045400FM-12+004499999V0200501N003112200019N0020001N1+02641+02461100941ADDAA199000091GF104991041001017501061001KA1240M+03031MA1999999100431MD1999999+0091REMSYN088AAXX  25004 82198 32795 40506 10264 20246 30043 40094 84060 333 10303 29086 55042 58009;EQDQ01  00002PRCP99
0186821980999992000012512004-01720-045400FM-12+004499999V0200901N003112200019N0100001N1+02871+02641100991ADDAA199000091GF105991031021017501001011KA1240N+02441MA1999999100481MD1999999+0001REMSYN076AAXX  25124 82198 32797 50906 10287 20264 30048 40099 83201 333 20244 58000;EQDQ01  00002PRCP99
0167821980999992000012518004-01720-045400FM-12+004499999V0200501N005110150019N0100001N1+03021+02641100741ADDAA199000091GF105991051021017501001001MA1999999100231MD1999999+0051REMSYN070AAXX  25184 82198 32797 50510 10302 20264 30023 40074 85200 333 58005;EQDQ01  00002PRCP99
0208821980999992000012600004-01720-045400FM-12+004499999V0200501N003112200019N0020001N1+02641+02331100851ADDAA199000091GA1001+999999999GF100991001001999999001001KA1240M+03131MA1999999100341MD1999999-0091REMSYN082AAXX  26004 82198 32995 00506 10264 20233 30034 40085 333 10313 29083 55107 59009;EQDQ01  00002PRCP99
0186821980999992000012612004-01720-045400FM-12+004499999V0200501N002112200019N0100001N1+02761+02401101091ADDAA199000091GF104991021021017501061011KA1240N+02351MA1999999100581MD1999999+0081REMSYN076AAXX  26124 82198 32797 40504 10276 20240 30058 40109 82261 333 20235 58008;EQDQ01  00002PRCP99
0167821980999992000012618004-01720-045400FM-12+004499999V0200501N004612200019N0100001N1+03111+02631100811ADDAA199000091GF104991031021017501001011MA1999999100301MD1999999+0071REMSYN070AAXX  26184 82198 32797 40509 10311 20263 30030 40081 83201 333 58007;EQDQ01  00002PRCP99
0208821980999992000012700004-01720-045400FM-12+004499999V0200501N003612200019N0020001N1+02691+02331100901ADDAA199000091GA1001+999999999GF100991001001999999001001KA1240M+03151MA1999999100391MD1999999+0051REMSYN082AAXX  27004 82198 32995 00507 10269 20233 30039 40090 333 10315 29080 55099 58005;EQDQ01  00002PRCP99
0186821980999992000012712004-01720-045400FM-12+004499999V0200901N002110450019N0100001N1+02771+02441101071ADDAA199000091GF105991041021017501061001KA1240N+02351MA1999999100561MD1999999-0021REMSYN076AAXX  27124 82198 32797 50904 10277 20244 30056 40107 84260 333 20235 59002;EQDQ01  00002PRCP99
0182821980999992000012718004-01720-045400FM-12+004499999V0200501N006710150019N0100001N1+02941+02561100831ADDAA106005191AY161061AY221061GF105991051021017501001001MA1999999100321MD1999999+0021MW1021REMSYN082AAXX  27184 82198 21797 50513 10294 20256 30032 40083 70262 85200 333 58002 60051;
0208821980999992000012800004-01720-045400FM-12+004499999V0200501N003112200019N0020001N1+02641+02351100871ADDAA199000091GA1001+999999999GF100991001001999999001001KA1240M+03061MA1999999100361MD1999999-0031REMSYN082AAXX  28004 82198 32995 00506 10264 20235 30036 40087 333 10306 29082 55106 59003;EQDQ01  00002PRCP99
0173821980999992000012812004-01720-045400FM-12+004499999V0200501N002112200019N0100001N1+02821+02521101021ADDAA124005191GF103991021011017501001011KA1240N+02421MA1999999100511MD1999999-0051REMSYN082AAXX  28124 82198 22797 30504 10282 20252 30051 40102 82101 333 20242 59005 60054;
0208821980999992000012900004-01720-045400FM-12+004499999V0200501N003112200019N0020001N1+02761+02361100831ADDAA199000091GA1001+999999999GF100991001001999999001001KA1240M+03201MA1999999100321MD1999999-0041REMSYN082AAXX  29004 82198 32995 00506 10276 20236 30032 40083 333 10320 29084 55088 59004;EQDQ01  00002PRCP99
0186821980999992000012912004-01720-045400FM-12+004499999V0200501N004112200019N0100001N1+02911+02601101001ADDAA199000091GF104991021021017501001011KA1240N+02501MA1999999100491MD1999999-0021REMSYN076AAXX  29124 82198 32797 40508 10291 20260 30049 40100 82201 333 20250 59002;EQDQ01  00002PRCP99
0208821980999992000013000004-01720-045400FM-12+004499999V0200501N003612200019N0020001N1+02691+02391100781ADDAA199000091GA1001+999999999GF100991001001999999001001KA1240M+03211MA1999999100271MD1999999-0051REMSYN082AAXX  30004 82198 32995 00507 10269 20239 30027 40078 333 10321 29083 55102 59005;EQDQ01  00002PRCP99
0186821980999992000013012004-01720-045400FM-12+004499999V0200501N003612200019N0100001N1+02871+02561101031ADDAA199000091GF104991041021017501001001KA1240N+02501MA1999999100521MD1999999+0031REMSYN076AAXX  30124 82198 32797 40507 10287 20256 30052 40103 84200 333 20250 58003;EQDQ01  00002PRCP99
0208821980999992000013100004-01720-045400FM-12+004499999V0200501N003612200019N0020001N1+02691+02391100781ADDAA199000091GA1001+999999999GF100991001001999999001001KA1240M+03211MA1999999100271MD1999999-0051REMSYN082AAXX  31004 82198 32995 00507 10269 20239 30027 40078 333 10321 29083 55102 59005;EQDQ01  00002PRCP99
0186821980999992000013112004-01720-045400FM-12+004499999V0200501N003110450019N0100001N1+02771+02501101231ADDAA199000091GF105991021021017501061001KA1240N+02541MA1999999100711MD1999999+0191REMSYN076AAXX  31124 82198 32797 50506 10277 20250 30071 40123 82260 333 20254 58019;EQDQ01  00002PRCP99
0167821980999992000013118004-01720-045400FM-12+004499999V0200501N002610450019N0100001N1+02891+02341100961ADDAA199000091GF107991031051017501041011MA1999999100441MD1999999+0111REMSYN070AAXX  31184 82198 32797 70505 10289 20234 30044 40096 83541 333 58011;EQDQ01  00002PRCP99
0198821980999992000020100004-01720-045400FM-12+004499999V0200501N002610150019N0100001N1+02701+02241101151ADDAA199000091GF105991051021017501001001KA1240M+03071MA1999999100631MD1999999+0131REMSYN088AAXX  01004 82198 32797 50505 10270 20224 30063 40115 85200 333 10307 29082 55024 58013;EQDQ01  00002PRCP99
0186821980999992000020112004-01720-045400FM-12+004499999V0202301N001010450019N0100001N1+02701+02541101271ADDAA199000091GF106991041021017501061011KA1240N+02401MA1999999100751MD1999999+0041REMSYN076AAXX  01124 82198 32797 62302 10270 20254 30075 40127 84261 333 20240 58004;EQDQ01  00002PRCP99
0182821980999992000020118004-01720-045400FM-12+004499999V0203601N004610450019N0100001N1+02941+02491100941ADDAA106006191AY161061AY221061GF106991041051017501061001MA1999999100421MD1999999-0021MW1021REMSYN082AAXX  01184 82198 21797 63609 10294 20249 30042 40094 70262 84560 333 59002 60061;
0226821980999992000020200004-01720-045400FM-12+004499999V0200501N002610450019N0020001N1+02661+02441101121ADDAA199000091AY121061AY221061GF106991041071017501061001KA1240M+03001MA1999999100601MD1999999-0031MW1131REMSYN094AAXX  02004 82198 31795 60505 10266 20244 30060 40112 71322 84760 333 10300 29086 55038 59003;EQDQ01  00002PRCP99
0173821980999992000020212004-01720-045400FM-12+004499999V0200501N001510450019N0100001N1+02781+02481101121ADDAA124006191GF106991041021017501031061KA1240N+02411MA1999999100601MD1999999-0051REMSYN082AAXX  02124 82198 22797 60503 10278 20248 30060 40112 84236 333 20241 59005 60064;
0213821980999992000020300004-01720-045400FM-12+004499999V0200501N004610450019N0020001N1+02651+02401101011ADDAA106000591AY161061AY251061GF105991031021017501061001KA1240M+03071MA1999999100491MD1999999-0111MW1011REMSYN100AAXX  03004 82198 21795 50509 10265 20240 30049 40101 70165 83260 333 10307 29083 55076 59011 69951;
0182821980999992000020318004-01720-045400FM-12+004499999V0203601N004610450019N0100001N1+02671+02401100801ADDAA106011991AY161061AY221061GF106991041021017501061001MA1999999100281MD1999999-0101MW1011REMSYN082AAXX  03184 82198 21797 63609 10267 20240 30028 40080 70162 84260 333 59010 60121;
0208821980999992000020400004-01720-045400FM-12+004499999V0200501N003112200019N0020001N1+02641+02411100931ADDAA199000091GA1001+999999999GF100991001001999999001001KA1240M+02911MA1999999100411MD1999999-0081REMSYN082AAXX  04004 82198 32995 00506 10264 20241 30041 40093 333 10291 29088 55022 59008;EQDQ01  00002PRCP99
0173821980999992000020412004-01720-045400FM-12+004499999V0200501N004110150019N0100001N1+02851+02361101071ADDAA124011991GF105991051021017501001001KA1240N+02461MA1999999100551MD1999999+0051REMSYN082AAXX  04124 82198 22797 50508 10285 20236 30055 40107 85200 333 20246 58005 60124;
0208821980999992000020500004-01720-045400FM-12+004499999V0200501N004612200019N0020001N1+02721+02401100981ADDAA199000091GA1001+999999999GF100991001001999999001001KA1240M+03191MA1999999100461MD1999999+0051REMSYN082AAXX  05004 82198 32995 00509 10272 20240 30046 40098 333 10319 29078 55088 58005;EQDQ01  00002PRCP99
0186821980999992000020512004-01720-045400FM-12+004499999V0200501N004110150019N0100001N1+02801+02441101071ADDAA199000091GF106991061021017501001001KA1240N+02581MA1999999100551MD1999999+0001REMSYN076AAXX  05124 82198 32797 60508 10280 20244 30055 40107 86200 333 20258 58000;EQDQ01  00002PRCP99
0167821980999992000020518004-01720-045400FM-12+004499999V0203601N007210450019N0100001N1+03011+02261101011ADDAA199000091GF106991021071017501011011MA1999999100491MD1999999+0191REMSYN070AAXX  05184 82198 32797 63614 10301 20226 30049 40101 82711 333 58019;EQDQ01  00002PRCP99
0213821980999992000020600004-01720-045400FM-12+004499999V0200501N004110150019N0020001N1+02671+02391101061ADDAA106000591AY161061AY221061GF108991061071017501081001KA1240M+03111MA1999999100941MD1999999+0081MW1031REMSYN100AAXX  06004 82198 21795 80508 10267 20239 30094 40106 70362 86780 333 10311 29079 55082 58008 69961;
0201821980999992000020612004-01720-045400FM-12+004499999V0202301N000510150019N0100001N1+02471+02111101171ADDAA124004191AY161061AY221061GF106991061021017501001001KA1240N+02291MA1999999100651MD1999999+0101MW1021REMSYN088AAXX  06124 82198 22797 62301 10247 20211 30065 40117 70262 86200 333 20229 58010 60044;
0182821980999992000020618004-01720-045400FM-12+004499999V0203601N003612200019N0100001N1+03091+02391101041ADDAA106001091AY161061AY221061GF106991041021017501001041MA1999999100521MD1999999-0271MW1021REMSYN082AAXX  06184 82198 21797 63607 10309 20239 30052 40104 70262 84204 333 59027 60011;
0201821980999992000020712004-01720-045400FM-12+004499999V0202301N001010450019N0100001N1+02551+02441101211ADDAA124007991AY161061AY201061GF106991031021017501061001KA1240N+02511MA1999999100691MD1999999-0041MW1031REMSYN088AAXX  07124 82198 21797 62302 10255 20244 30069 40121 70360 83260 333 20251 59004 60084;
0167821980999992000020718004-01720-045400FM-12+004499999V0200501N004110450019N0100001N1+03041+02261101041ADDAA199000091GF106991041021017501011041MA1999999100521MD1999999+0001REMSYN070AAXX  07184 82198 32797 60508 10304 20226 30052 40104 84214 333 58000;EQDQ01  00002PRCP99
0198821980999992000020800004-01720-045400FM-12+004499999V0202701N001010150019N0020001N1+02641+02481101151ADDAA199000091GF105991051021017501001001KA1240M+03091MA1999999100631MD1999999+0051REMSYN088AAXX  08004 82198 32795 52702 10264 20248 30063 40115 85200 333 10309 29084 55060 58005;EQDQ01  00002PRCP99
0201821980999992000020812004-01720-045400FM-12+004499999V0202301N002110450019N0100001N1+02531+02411101181ADDAA124004191AY161061AY221061GF106991031021017501031011KA1240N+02291MA1999999100661MD1999999-0031MW1031REMSYN088AAXX  08124 82198 21797 62304 10253 20241 30066 40118 70362 83231 333 20229 59003 60044;
0182821980999992000020818004-01720-045400FM-12+004499999V0203201N001010450019N0100001N1+02521+02451100901ADDAA106035191AY161061AY221061GF107991031071017501061001MA1999999100481MD1999999-0041MW1021REMSYN082AAXX  08184 82198 21797 73202 10252 20245 30048 40090 70262 83760 333 59004 60351;
0198821980999992000020900004-01720-045400FM-12+004499999V0203201N001510450019N0020001N1+02511+02381101101ADDAA199000091GF106991041071017501061001KA1240M+02961MA1999999100581MD1999999-0051REMSYN088AAXX  09004 82198 32795 63203 10251 20238 30058 40110 84760 333 10296 29094 55012 59005;EQDQ01  00002PRCP99
0173821980999992000020912004-01720-045400FM-12+004499999V0201401N001512200019N0100001N1+02491+02331101111ADDAA124035191GF105991021021017501041091KA1240N+02321MA1999999100591MD1999999-0071REMSYN082AAXX  09124 82198 22797 51403 10249 20233 30059 40111 82249 333 20232 59007 60354;
0182821980999992000020918004-01720-045400FM-12+004499999V0203201N001010450019N0100001N1+02541+02401100931ADDAA106004191AY161061AY221061GF107991041071017501061011MA1999999100411MD1999999-0071MW1031REMSYN082AAXX  09184 82198 21797 73202 10254 20240 30041 40093 70362 84761 333 59007 60041;
0226821980999992000021000004-01720-045400FM-12+004499999V0200501N001510450019N0020001N1+02521+02341100951ADDAA199000091AY121061AY221061GF105991031021017501061001KA1240M+03031MA1999999100431MD1999999-0151MW1131REMSYN094AAXX  10004 82198 31795 50503 10252 20234 30043 40095 71322 83260 333 10303 29092 55046 59015;EQDQ01  00002PRCP99
0201821980999992000021012004-01720-045400FM-12+004499999V0203201N001010150019N0100001N1+02401+02351101041ADDAA124011991AY161061AY221061GF108991051071017501021001KA1240N+02291MA1999999100521MD1999999-0071MW1601REMSYN088AAXX  10124 82198 21797 83202 10240 20235 30052 40104 76062 85720 333 20229 59007 60124;
0167821980999992000021218004-01720-045400FM-12+004499999V0200501N004110450019N0100001N1+02931+02321100741ADDAA199000091GF106991031021017501041041MA1999999100221MD1999999-0151REMSYN070AAXX  12184 82198 32797 60508 10293 20232 30022 40074 83244 333 59015;EQDQ01  00002PRCP99
0213821980999992000021300004-01720-045400FM-12+004499999V0203201N003110450019N0020001N1+02541+02381100901ADDAA106004191AY161061AY251061GF105991021021017501061001KA1240M+03001MA1999999100381MD1999999-0041MW1011REMSYN100AAXX  13004 82198 21795 53206 10254 20238 30038 40090 70165 82260 333 10300 29087 55036 59004 60041;
0201821980999992000021312004-01720-045400FM-12+004499999V0203601N002110450019N0100001N1+02461+02341101041ADDAA124049091AY161061AY251061GF108991041071017501021001KA1240N+02231MA1999999100521MD1999999+0001MW1031REMSYN088AAXX  13124 82198 21797 83604 10246 20234 30052 40104 70365 84720 333 20223 58000 60494;
0182821980999992000021318004-01720-045400FM-12+004499999V0200501N003610450019N0100001N1+02781+02381100881ADDAA106002091AY161061AY221061GF108991041051017501011011MA1999999100361MD1999999+0141MW1021REMSYN082AAXX  13184 82198 21797 80507 10278 20238 30036 40088 70262 84511 333 58014 60021;
0213821980999992000021400004-01720-045400FM-12+004499999V0203201N001510450019N0020001N1+02511+02361101091ADDAA106002091AY121061AY221061GF106991031021017501061001KA1240M+02821MA1999999100571MD1999999+0191MW1211REMSYN100AAXX  14004 82198 21795 63203 10251 20236 30057 40109 72122 83260 333 10282 29089 55004 58019 60021;
0201821980999992000021412004-01720-045400FM-12+004499999V0202301N002112200019N0100001N1+02411+02171101261ADDAA124004191AY151061AY221061GF104991021011017501061001KA1240N+02211MA1999999100751MD1999999+0231MW1011REMSYN088AAXX  14124 82198 21797 42304 10241 20217 30075 40126 70152 82160 333 20221 58023 60044;
0167821980999992000021418004-01720-045400FM-12+004499999V0203601N004610450019N0100001N1+02891+02481100871ADDAA199000091GF105991021021017501061001MA1999999100361MD1999999+0001REMSYN070AAXX  14184 82198 32797 53609 10289 20248 30036 40087 82260 333 58000;EQDQ01  00002PRCP99
0198821980999992000021500004-01720-045400FM-12+004499999V0203201N002110450019N0020001N1+02531+02211101071ADDAA199000091GF106991031021017501061001KA1240M+03041MA1999999100561MD1999999-0011REMSYN088AAXX  15004 82198 32795 63204 10253 20221 30056 40107 83260 333 10304 29083 55058 59001;EQDQ01  00002PRCP99
0201821980999992000021512004-01720-045400FM-12+004499999V0203201N001010450019N0100001N1+02141+01901101191ADDAA124022191AY161061AY221061GF108991041051017501041001KA1240N+02081MA1999999100681MD1999999-0071MW1021REMSYN088AAXX  15124 82198 21797 83202 10214 20190 30068 40119 70262 84540 333 20208 59007 60224;
0167821980999992000021518004-01720-045400FM-12+004499999V0203201N003110450019N0100001N1+02611+02231100991ADDAA199000091GF108991041021017501061001MA1999999100481MD1999999+0121REMSYN070AAXX  15184 82198 32797 83206 10261 20223 30048 40099 84260 333 58012;EQDQ01  00002PRCP99
0198821980999992000021600004-01720-045400FM-12+004499999V0203201N001510450019N0020001N1+02421+02131100981ADDAA199000091GF106991031021017501061001KA1240M+02751MA1999999100461MD1999999-0101REMSYN088AAXX  16004 82198 32795 63203 10242 20213 30046 40098 83260 333 10275 29084 55007 59010;EQDQ01  00002PRCP99
0186821980999992000021612004-01720-045400FM-12+004499999V0203201N001510150019N0100001N1+02601+02271101131ADDAA199000091GF105991051021017501001001KA1240N+02151MA1999999100621MD1999999-0061REMSYN076AAXX  16124 82198 32797 53203 10260 20227 30062 40113 85200 333 20215 59006;EQDQ01  00002PRCP99
0167821980999992000021618004-01720-045400FM-12+004499999V0200501N006212200019N0100001N1+03021+02551100741ADDAA199000091GF103991021021017501061001MA1999999100231MD1999999-0251REMSYN070AAXX  16184 82198 32797 30512 10302 20255 30023 40074 82260 333 59025;EQDQ01  00002PRCP99
0186821980999992000021712004-01720-045400FM-12+004499999V0201401N000512200019N0100001N1+02721+02341101091ADDAA199000091GF104991031021017501061001KA1240N+02301MA1999999100581MD1999999-0041REMSYN076AAXX  17124 82198 32797 41401 10272 20234 30058 40109 83260 333 20230 59004;EQDQ01  00002PRCP99
0182821980999992000021718004-01720-045400FM-12+004499999V0203601N001510450019N0100001N1+02641+02251100801ADDAA106003091AY161061AY221061GF108991031021017501061001MA1999999100291MD1999999+0061MW1031REMSYN082AAXX  17184 82198 21797 83603 10264 20225 30029 40080 70362 83260 333 58006 60031;
0198821980999992000021800004-01720-045400FM-12+004499999V0203601N003610150019N0020001N1+02571+02171100891ADDAA199000091GF106991061021017501001001KA1240M+03061MA1999999100381MD1999999+0011REMSYN088AAXX  18004 82198 32795 63607 10257 20217 30038 40089 86200 333 10306 29080 55039 58001;EQDQ01  00002PRCP99
0182821980999992000021818004-01720-045400FM-12+004499999V0201801N002110150019N0100001N1+02411+02211100851ADDAA106011991AY161061AY251061GF108991051051017501041001MA1999999100341MD1999999+0051MW1531REMSYN082AAXX  18184 82198 21797 81804 10241 20221 30034 40085 75365 85540 333 58005 60121;
0213821980999992000021900004-01720-045400FM-12+004499999V0203201N001510150019N0020001N1+02431+02241101031ADDAA106003091AY151061AY221061GF108991051051017501071001KA1240M+02811MA1999999100521MD1999999+0141MW1021REMSYN100AAXX  19004 82198 21795 83203 10243 20224 30052 40103 70252 85570 333 10281 29087 55022 58014 60031;
0201821980999992000021912004-01720-045400FM-12+004499999V0202301N001010450019N0100001N1+02431+02211101171ADDAA124014091AY151061AY221061GF105991021011017501031001KA1240N+02211MA1999999100661MD1999999+0021MW1011REMSYN088AAXX  19124 82198 21797 52302 10243 20221 30066 40117 70152 82130 333 20221 58002 60144;
0167821980999992000021918004-01720-045400FM-12+004499999V0201401N002112200019N0100001N1+03171+02681100731ADDAA199000091GF104991041021017501001001MA1999999100221MD1999999-0121REMSYN070AAXX  19184 82198 32797 41404 10317 20268 30022 40073 84200 333 59012;EQDQ01  00002PRCP99
0213821980999992000022000004-01720-045400FM-12+004499999V0200501N001010450019N0020001N1+02461+02091100961ADDAA106000191AY151061AY221061GF106991041021017501061001KA1240M+03231MA1999999100451MD1999999-0071MW1021REMSYN100AAXX  20004 82198 21795 60502 10246 20209 30045 40096 70252 84260 333 10323 29081 55068 59007 69921;
0173821980999992000022012004-01720-045400FM-12+004499999V0202301N001010450019N0100001N1+02411+02031101231ADDAA124000191GF108991041021017501061001KA1240N+02231MA1999999100721MD1999999+0061REMSYN082AAXX  20124 82198 22797 82302 10241 20203 30072 40123 84260 333 20223 58006 69924;
0182821980999992000022018004-01720-045400FM-12+004499999V0209999C000010450019N0100001N1+02541+02211101031ADDAA106003091AY161061AY221061GF108991031021017501041001MA1999999100521MD1999999-0301MW1021REMSYN082AAXX  20184 82198 21797 80000 10254 20221 30052 40103 70262 83240 333 59030 60031;
0198821980999992000022100004-01720-045400FM-12+004499999V0203201N001012200019N0020001N1+02511+02201101041ADDAA199000091GF104991021011017501061001KA1240M+03011MA1999999100531MD1999999+0081REMSYN088AAXX  21004 82198 32795 43202 10251 20220 30053 40104 82160 333 10301 29082 55011 58008;EQDQ01  00002PRCP99
0167821980999992000022118004-01720-045400FM-12+004499999V0200501N006710150019N0100001N1+02901+02481100831ADDAA199000091GF107991051021017501061001MA1999999100321MD1999999-0201REMSYN070AAXX  21184 82198 32797 70513 10290 20248 30032 40083 85260 333 59020;EQDQ01  00002PRCP99
0198821980999992000022200004-01720-045400FM-12+004499999V0200501N002112200019N0020001N1+02601+02291100961ADDAA199000091GF103991031021017501001001KA1240M+03111MA1999999100451MD1999999-0081REMSYN088AAXX  22004 82198 32795 30504 10260 20229 30045 40096 83200 333 10311 29082 55066 59008;EQDQ01  00002PRCP99
0186821980999992000022212004-01720-045400FM-12+004499999V0200501N004612200019N0100001N1+02781+02481101061ADDAA199000091GF104991031021017501061001KA1240N+02361MA1999999100551MD1999999-0121REMSYN076AAXX  22124 82198 32797 40509 10278 20248 30055 40106 83260 333 20236 59012;EQDQ01  00002PRCP99
0182821980999992000022218004-01720-045400FM-12+004499999V0200501N002610150019N0100001N1+02661+02311100831ADDAA106000591AY151061AY221061GF108991061051017501061001MA1999999100321MD1999999+0001MW1031REMSYN082AAXX  22184 82198 21797 80505 10266 20231 30032 40083 70352 86560 333 58000 69951;
0213821980999992000022300004-01720-045400FM-12+004499999V0202701N001012200019N0020001N1+02381+02131100941ADDAA106038191AY161061AY221061GF104991021051017501041001KA1240M+03051MA1999999100431MD1999999-0021MW1011REMSYN100AAXX  23004 82198 21795 42702 10238 20213 30043 40094 70162 82540 333 10305 29084 55062 59002 60381;
0201821980999992000022312004-01720-045400FM-12+004499999V0203201N001510450019N0100001N1+02421+02171101181ADDAA124070191AY161061AY221061GF106991031021017501061001KA1240N+02181MA1999999100661MD1999999+0111MW1021REMSYN088AAXX  23124 82198 21797 63203 10242 20217 30066 40118 70262 83260 333 20218 58011 60704;
0213821980999992000022400004-01720-045400FM-12+004499999V0203201N002110150019N0020001N1+02301+02031100981ADDAA106006191AY161061AY221061GF107991051051017501021001KA1240M+03191MA1999999100461MD1999999+0031MW1021REMSYN100AAXX  24004 82198 21795 73204 10230 20203 30046 40098 70262 85520 333 10319 29084 55060 58003 60061;
0173821980999992000022412004-01720-045400FM-12+004499999V0201801N001010450019N0100001N1+02441+02151101041ADDAA124007991GF106991021011017501061011KA1240N+02181MA1999999100531MD1999999-0131REMSYN082AAXX  24124 82198 22797 61802 10244 20215 30053 40104 82161 333 20218 59013 60084;
0167821980999992000022418004-01720-045400FM-12+004499999V0200501N004610450019N0100001N1+02791+02361100771ADDAA199000091GF106991031021017501061001MA1999999100261MD1999999-0031REMSYN070AAXX  24184 82198 32797 60509 10279 20236 30026 40077 83260 333 59003;EQDQ01  00002PRCP99
0198821980999992000022500004-01720-045400FM-12+004499999V0200501N002112200019N0020001N1+02561+02271100801ADDAA199000091GF103991031001017501061001KA1240M+03071MA1999999100291MD1999999-0171REMSYN088AAXX  25004 82198 32795 30504 10256 20227 30029 40080 83060 333 10307 29082 55057 59017;EQDQ01  00002PRCP99
0186821980999992000022512004-01720-045400FM-12+004499999V0200501N003612200019N0100001N1+02781+02381100941ADDAA199000091GF103991021021017501001011KA1240N+02351MA1999999100431MD1999999-0101REMSYN076AAXX  25124 82198 32797 30507 10278 20238 30043 40094 82201 333 20235 59010;EQDQ01  00002PRCP99
0167821980999992000022518004-01720-045400FM-12+004499999V0200501N005110150019N0100001N1+02871+02411100631ADDAA199000091GF106991061021017501001001MA1999999100121MD1999999-0141REMSYN070AAXX  25184 82198 32797 60510 10287 20241 30012 40063 86200 333 59014;EQDQ01  00002PRCP99
0186821980999992000022612004-01720-045400FM-12+004499999V0200501N003610150019N0100001N1+02871+02461100971ADDAA199000091GF106991051021017501061011KA1240N+02331MA1999999100461MD1999999+0031REMSYN076AAXX  26124 82198 32797 60507 10287 20246 30046 40097 85261 333 20233 58003;EQDQ01  00002PRCP99
0182821980999992000022618004-01720-045400FM-12+004499999V0203201N002610150019N0100001N1+02481+02171100781ADDAA106020191AY161061AY221061GF108991051051017501021001MA1999999100261MD1999999+0141MW1031REMSYN082AAXX  26184 82198 21797 83205 10248 20217 30026 40078 70362 85520 333 58014 60201;
0213821980999992000022700004-01720-045400FM-12+004499999V0200501N001510150019N0020001N1+02381+02071100981ADDAA106015091AY161061AY221061GF108991051051017501021001KA1240M+03041MA1999999100461MD1999999+0171MW1021REMSYN100AAXX  27004 82198 21795 80503 10238 20207 30046 40098 70262 85520 333 10304 29081 55042 58017 60151;
0201821980999992000022712004-01720-045400FM-12+004499999V0200501N002610450019N0100001N1+02371+02051101071ADDAA124058991AY161061AY221061GF108991031051017501021001KA1240N+02271MA1999999100551MD1999999+0111MW1541REMSYN088AAXX  27124 82198 21797 80505 10237 20205 30055 40107 75462 83520 333 20227 58011 60594;
0182821980999992000022718004-01720-045400FM-12+004499999V0200901N001010450019N0100001N1+02501+02131100771ADDAA106005191AY161061AY221061GF107991021011017501041001MA1999999100261MD1999999+0001MW1021REMSYN082AAXX  27184 82198 21797 70902 10250 20213 30026 40077 70262 82140 333 58000 60051;
0213821980999992000022800004-01720-045400FM-12+004499999V0200901N001510150019N0020001N1+02491+02171100931ADDAA106000391AY151061AY221061GF105991051001017501061001KA1240M+02851MA1999999100421MD1999999-0041MW1011REMSYN100AAXX  28004 82198 21795 50903 10249 20217 30042 40093 70152 85060 333 10285 29082 55026 59004 69931;
0201821980999992000022812004-01720-045400FM-12+004499999V0203201N006711050019N0100001N1+02611+02441101101ADDAA124007991AY161061AY221061GF106991021021017501041061KA1240N+02271MA1999999100521MD1999999-0031MW1021REMSYN088AAXX  28124 82198 21797 63213 10261 20244 30052 40110 70262 82246 333 20227 59003 60084;
0182821980999992000022818004-01720-045400FM-12+004499999V0203201N001010450019N0100001N1+02621+02521100831ADDAA106002091AY161061AY221061GF107991031051017501011041MA1999999100311MD1999999+0051MW1031REMSYN082AAXX  28184 82198 21797 73202 10262 20252 30031 40083 70362 83514 333 58005 60021;
0213821980999992000022900004-01720-045400FM-12+004499999V0200501N003112200019N0020001N1+02521+02381100961ADDAA106000191AY121061AY261061GF103991031021017501001001KA1240M+02931MA1999999100441MD1999999+0021MW1131REMSYN100AAXX  29004 82198 21795 30506 10252 20238 30044 40096 71326 83200 333 10293 29091 55051 58002 69911;
0173821980999992000022912004-01720-045400FM-12+004499999V0200501N000510450019N0100001N1+02711+02521101091ADDAA124002091GF106991041021017501031011KA1240N+02331MA1999999100571MD1999999+0051REMSYN082AAXX  29124 82198 22797 60501 10271 20252 30057 40109 84231 333 20233 58005 60024;
0226821980999992000030100004-01720-045400FM-12+004499999V0200501N003110150019N0020001N1+02601+02391101041ADDAA199000091AY121061AY211061GF105991051021017501001001KA1240M+03031MA1999999100521MD1999999+0081MW1131REMSYN094AAXX  01004 82198 31795 50506 10260 20239 30052 40104 71321 85200 333 10303 29090 55043 58008;EQDQ01  00002PRCP99
0173821980999992000030112004-01720-045400FM-12+004499999V0201801N003110450019N0100001N1+02431+02331101231ADDAA124023991GF108991041071017501061011KA1240N+02321MA1999999100711MD1999999+0141REMSYN082AAXX  01124 82198 22797 81806 10243 20233 30071 40123 84761 333 20232 58014 60244;
0167821980999992000030118004-01720-045400FM-12+004499999V0200501N005111050019N0100001N1+03001+02421100901ADDAA199000091GF105991021021017501031061MA1999999100381MD1999999+0001REMSYN070AAXX  01184 82198 32797 50510 10300 20242 30038 40090 82236 333 58000;EQDQ01  00002PRCP99
0173821980999992000030212004-01720-045400FM-12+004499999V0200501N003110450019N0100001N1+02821+02241101091ADDAA124000591GF108991031051017501061011KA1240N+02401MA1999999100571MD1999999-0141REMSYN082AAXX  02124 82198 22797 80506 10282 20224 30057 40109 83561 333 20240 59014 69964;
0182821980999992000030218004-01720-045400FM-12+004499999V0200901N004110450019N0100001N1+02451+02311100831ADDAA106034091AY161061AY221061GF107991041051017501011001MA1999999100311MD1999999-0071MW1021REMSYN082AAXX  02184 82198 21797 70908 10245 20231 30031 40083 70262 84510 333 59007 60341;
0213821980999992000030300004-01720-045400FM-12+004499999V0200501N000510450019N0020001N1+02471+02301100991ADDAA106000591AY121061AY211061GF106991041071017501061001KA1240M+02891MA1999999100471MD1999999-0071MW1601REMSYN100AAXX  03004 82198 21795 60501 10247 20230 30047 40099 76021 84760 333 10289 29088 55013 59007 69941;
0182821980999992000030318004-01720-045400FM-12+004499999V0203601N004111050019N0100001N1+02771+02361100751ADDAA106000891AY161061AY221061GF106991021071017501041061MA1999999100231MD1999999-0081MW1011REMSYN082AAXX  03184 82198 21797 63608 10277 20236 30023 40075 70162 82746 333 59008 69981;
0198821980999992000030400004-01720-045400FM-12+004499999V0203601N003110150019N0020001N1+02671+02251100901ADDAA199000091GF105991051021017501001001KA1240M+02901MA1999999100381MD1999999-0091REMSYN088AAXX  04004 82198 32795 53606 10267 20225 30038 40090 85200 333 10290 29084 55018 59009;EQDQ01  00002PRCP99
0201821980999992000030412004-01720-045400FM-12+004499999V0200501N000511050019N0100001N1+02391+02331101051ADDAA124005191AY161061AY221061GF105991021021017501041061KA1240N+02261MA1999999100531MD1999999+0001MW1021REMSYN088AAXX  04124 82198 21797 50501 10239 20233 30053 40105 70262 82246 333 20226 58000 60054;
0182821980999992000030418004-01720-045400FM-12+004499999V0200901N002610450019N0100001N1+02871+02441100821ADDAA106019191AY161061AY221061GF107991031021017501011041MA1999999100301MD1999999+0071MW1031REMSYN082AAXX  04184 82198 21797 70905 10287 20244 30030 40082 70362 83214 333 58007 60191;
0198821980999992000030500004-01720-045400FM-12+004499999V0200501N002612200019N0020001N1+02581+02441100941ADDAA199000091GF103991031021017501001001KA1240M+03001MA1999999100421MD1999999+0041REMSYN088AAXX  05004 82198 32795 30505 10258 20244 30042 40094 83200 333 10300 29092 55027 58004;EQDQ01  00002PRCP99
0167821980999992000030518004-01720-045400FM-12+004499999V0200901N003110450019N0100001N1+03081+02421100681ADDAA199000091GF106991041021017501011001MA1999999100161MD1999999-0141REMSYN070AAXX  05184 82198 32797 60906 10308 20242 30016 40068 84210 333 59014;EQDQ01  00002PRCP99
0201821980999992000030612004-01720-045400FM-12+004499999V0202701N001510450019N0100001N1+02311+02091101171ADDAA124005191AY161061AY221061GF108991041021017501041001KA1240N+02261MA1999999100661MD1999999+0211MW1031REMSYN088AAXX  06124 82198 21797 82703 10231 20209 30066 40117 70362 84240 333 20226 58021 60054;
0182821980999992000030618004-01720-045400FM-12+004499999V0200501N001510450019N0100001N1+02521+02251100761ADDAA106000391AY151061AY221061GF107991031021017501061001MA1999999100251MD1999999+0091MW1021REMSYN082AAXX  06184 82198 21797 70503 10252 20225 30025 40076 70252 83260 333 58009 69931;
0198821980999992000030700004-01720-045400FM-12+004499999V0200901N002110450019N0020001N1+02531+02311100991ADDAA199000091GF106991031021017501061001KA1240M+02871MA1999999100481MD1999999+0041REMSYN088AAXX  07004 82198 32795 60904 10253 20231 30048 40099 83260 333 10287 29084 55009 58004;EQDQ01  00002PRCP99
0173821980999992000030712004-01720-045400FM-12+004499999V0200901N001510450019N0100001N1+02361+02051101051ADDAA124000391GF108991041081017501041001KA1240N+02191MA1999999100541MD1999999-0121REMSYN082AAXX  07124 82198 22797 80903 10236 20205 30054 40105 84840 333 20219 59012 69934;
0167821980999992000030718004-01720-045400FM-12+004499999V0200501N002610150019N0100001N1+02901+02601100751ADDAA199000091GF108991051021017501061001MA1999999100241MD1999999-0011REMSYN070AAXX  07184 82198 32797 80505 10290 20260 30024 40075 85260 333 59001;EQDQ01  00002PRCP99
0213821980999992000030800004-01720-045400FM-12+004499999V0200901N001010450019N0020001N1+02541+02351100881ADDAA106001091AY161061AY221061GF108991041051017501041001KA1240M+03031MA1999999100371MD1999999-0111MW1021REMSYN100AAXX  08004 82198 21795 80902 10254 20235 30037 40088 70262 84540 333 10303 29088 55005 59011 60011;
0173821980999992000030812004-01720-045400FM-12+004499999V0200501N001510450019N0100001N1+02741+02481100951ADDAA124001091GF106991041021017501061001KA1240N+02381MA1999999100441MD1999999-0101REMSYN082AAXX  08124 82198 22797 60503 10274 20248 30044 40095 84260 333 20238 59010 60014;
0182821980999992000030818004-01720-045400FM-12+004499999V0200501N005110150019N0100001N1+02921+02601100651ADDAA106002091AY161061AY221061GF107991051021017501061001MA1999999100141MD1999999-0101MW1031REMSYN082AAXX  08184 82198 21797 70510 10292 20260 30014 40065 70362 85260 333 59010 60021;
0213821980999992000030900004-01720-045400FM-12+004499999V0202701N001510150019N0020001N1+02461+02251100891ADDAA106007991AY161061AY221061GF108991051051017501041001KA1240M+03071MA1999999100381MD1999999+0011MW1021REMSYN100AAXX  09004 82198 21795 82703 10246 20225 30038 40089 70262 85540 333 10307 29086 55066 58001 60081;
0201821980999992000030912004-01720-045400FM-12+004499999V0200901N001510450019N0100001N1+02621+02441100991ADDAA124030091AY161061AY221061GF108991031021017501061001KA1240N+02311MA1999999100481MD1999999+0041MW1021REMSYN088AAXX  09124 82198 21797 80903 10262 20244 30048 40099 70262 83260 333 20231 58004 60304;
0182821980999992000030918004-01720-045400FM-12+004499999V0200501N004110450019N0100001N1+02891+02621100691ADDAA106000891AY151061AY221061GF105991021021017501061001MA1999999100181MD1999999+0041MW1011REMSYN082AAXX  09184 82198 21797 50508 10289 20262 30018 40069 70152 82260 333 58004 69981;
0198821980999992000031000004-01720-045400FM-12+004499999V0201801N001510450019N0020001N1+02501+02311100951ADDAA199000091GF105991021021017501061001KA1240M+02991MA1999999100441MD1999999+0061REMSYN088AAXX  10004 82198 32795 51803 10250 20231 30044 40095 82260 333 10299 29088 55021 58006;EQDQ01  00002PRCP99
0173821980999992000031012004-01720-045400FM-12+004499999V0202701N001510450019N0100001N1+02371+02241101141ADDAA124000891GF108991031051017501021001KA1240N+02251MA1999999100621MD1999999+0141REMSYN082AAXX  10124 82198 22797 82703 10237 20224 30062 40114 83520 333 20225 58014 69984;
0182821980999992000031018004-01720-045400FM-12+004499999V0200501N001510450019N0100001N1+02781+02421100811ADDAA106010991AY161061AY221061GF105991021021017501061001MA1999999100301MD1999999+0121MW1011REMSYN082AAXX  10184 82198 21797 50503 10278 20242 30030 40081 70162 82260 333 58012 60111;
0198821980999992000031100004-01720-045400FM-12+004499999V0200501N002110450019N0020001N1+02581+02351100991ADDAA199000091GF106991031021017501061001KA1240M+02931MA1999999100481MD1999999+0041REMSYN088AAXX  11004 82198 32795 60504 10258 20235 30048 40099 83260 333 10293 29087 55033 58004;EQDQ01  00002PRCP99
0201821980999992000031112004-01720-045400FM-12+004499999V0200501N001510450019N0100001N1+02461+02211101031ADDAA124010991AY151061AY221061GF107991031021017501041001KA1240N+02281MA1999999100521MD1999999-0101MW1031REMSYN088AAXX  11124 82198 21797 70503 10246 20221 30052 40103 70352 83240 333 20228 59010 60114;
0182821980999992000031118004-01720-045400FM-12+004499999V0200501N001510450019N0100001N1+02901+02581100691ADDAA124000591AY151061AY221061GF108991041051017501021001MA1999999100181MD1999999-0121MW1021REMSYN082AAXX  11184 82198 21797 80503 10290 20258 30018 40069 70252 84520 333 59012 69954;
0208821980999992000031200004-01720-045400FM-12+004499999V0200501N002112200019N0020001N1+02581+02351100731ADDAA199000091GA1001+999999999GF100991001001999999001001KA1240M+03001MA1999999100221MD1999999-0261REMSYN082AAXX  12004 82198 32995 00504 10258 20235 30022 40073 333 10300 29086 55023 59026;EQDQ01  00002PRCP99
0173821980999992000031212004-01720-045400FM-12+004499999V0200501N002110150019N0100001N1+02681+02431100961ADDAA124002091GF107991051021017501061001KA1240N+02281MA1999999100451MD1999999-0071REMSYN082AAXX  12124 82198 22797 70504 10268 20243 30045 40096 85260 333 20228 59007 60024;
0182821980999992000031218004-01720-045400FM-12+004499999V0200501N003610450019N0100001N1+02891+02521100661ADDAA106002091AY161061AY221061GF107991031021017501061001MA1999999100951MD1999999-0031MW1021REMSYN082AAXX  12184 82198 21797 70507 10289 20252 30095 40066 70262 83260 333 59003 60021;
0198821980999992000031300004-01720-045400FM-12+004499999V0200501N001510450019N0020001N1+02591+02291100831ADDAA199000091GF105991031021017501061001KA1240M+03041MA1999999100321MD1999999+0101REMSYN088AAXX  13004 82198 32795 50503 10259 20229 30032 40083 83260 333 10304 29084 55033 58010;EQDQ01  00002PRCP99
0173821980999992000031312004-01720-045400FM-12+004499999V0209999C000010450019N0100001N1+02721+02501100921ADDAA124003091GF106991041021017501061001KA1240N+02351MA1999999100401MD1999999-0051REMSYN082AAXX  13124 82198 22797 60000 10272 20250 30040 40092 84260 333 20235 59005 60034;
0182821980999992000031318004-01720-045400FM-12+004499999V0203201N001510450019N0100001N1+02571+02341100721ADDAA106000591AY161061AY221061GF106991041021017501061061MA1999999100201MD1999999+0051MW1021REMSYN082AAXX  13184 82198 21797 63203 10257 20234 30020 40072 70262 84266 333 58005 69951;
0213821980999992000031400004-01720-045400FM-12+004499999V0203201N002111050019N0020001N1+02461+02361100841ADDAA106000591AY161061AY221061GF105991021021017501041011KA1240M+03011MA1999999100321MD1999999+0001MW1011REMSYN100AAXX  14004 82198 21795 53204 10246 20236 30032 40084 70162 82241 333 10301 29091 55028 58000 69961;
0201821980999992000031412004-01720-045400FM-12+004499999V0201401N001012200019N0100001N1+02561+02471101001ADDAA124004191AY161061AY211061GF103991031021017501001001KA1240N+02261MA1999999100481MD1999999+0081MW1011REMSYN088AAXX  14124 82198 21797 31402 10256 20247 30048 40100 70161 83200 333 20226 58008 60044;
0182821980999992000031418004-01720-045400FM-12+004499999V0200501N002110450019N0100001N1+02581+02441100741ADDAA106007191AY161061AY221061GF107991031071017501041011MA1999999100201MD1999999+0001MW1031REMSYN082AAXX  14184 82198 21797 70504 10258 20244 30020 40074 70362 83741 333 58000 60071;
0198821980999992000031500004-01720-045400FM-12+004499999V0200501N003612200019N0020001N1+02601+02421100901ADDAA199000091GF106991031021017501001011KA1240M+03051MA1999999100381MD1999999+0061REMSYN088AAXX  15004 82198 32795 60507 10260 20242 30038 40090 83201 333 10305 29091 55042 58006;EQDQ01  00002PRCP99
0173821980999992000031512004-01720-045400FM-12+004499999V0200901N002110450019N0100001N1+02741+02641100971ADDAA124007191GF106991041021017501061001KA1240N+02371MA1999999100461MD1999999-0021REMSYN082AAXX  15124 82198 22797 60904 10274 20264 30046 40097 84260 333 20237 59002 60074;
0167821980999992000031518004-01720-045400FM-12+004499999V0200501N003610450019N0100001N1+03041+02431100681ADDAA199000091GF106991031021017501041041MA1999999100161MD1999999-0041REMSYN070AAXX  15184 82198 32797 60507 10304 20243 30016 40068 83244 333 59004;EQDQ01  00002PRCP99
0198821980999992000031600004-01720-045400FM-12+004499999V0200501N003110150019N0100001N1+02711+02451100871ADDAA199000091GF105991051001017501011001KA1240M+03131MA1999999100351MD1999999-0031REMSYN088AAXX  16004 82198 32797 50506 10271 20245 30035 40087 85010 333 10313 29082 55070 59003;EQDQ01  00002PRCP99
0201821980999992000031612004-01720-045400FM-12+004499999V0200901N001010450019N0100001N1+02691+02501101051ADDAA124001091AY161061AY221061GF106991031021017501011011KA1240N+02441MA1999999100531MD1999999+0071MW1021REMSYN088AAXX  16124 82198 22797 60902 10269 20250 30053 40105 70262 83211 333 20244 58007 60014;
0182821980999992000031618004-01720-045400FM-12+004499999V0203601N005110450019N0100001N1+02791+02521100671ADDAA106000891AY161061AY251061GF108991041071017501011041MA1999999100121MD1999999-0041MW1031REMSYN082AAXX  16184 82198 21797 83610 10279 20252 30012 40067 70365 84714 333 59004 69981;
0198821980999992000031700004-01720-045400FM-12+004499999V0200501N004610150019N0020001N1+02691+02391100791ADDAA199000091GF107991051051017501011001KA1240M+03041MA1999999100271MD1999999-0081REMSYN088AAXX  17004 82198 32795 70509 10269 20239 30027 40079 85510 333 10304 29086 55027 59008;EQDQ01  00002PRCP99
0173821980999992000031712004-01720-045400FM-12+004499999V0200501N003110450019N0100001N1+02801+02621100871ADDAA124000891GF106991031021017501011011KA1240N+02391MA1999999100351MD1999999-0081REMSYN082AAXX  17124 82198 22797 60506 10280 20262 30035 40087 83211 333 20239 59008 69984;
0198821980999992000031800004-01720-045400FM-12+004499999V0203201N001510450019N0020001N1+02581+02371100781ADDAA199000091GF105991021021017501011001KA1240M+02941MA1999999100261MD1999999-0011REMSYN088AAXX  18004 82198 32795 53203 10258 20237 30026 40078 82210 333 10294 29087 55000 59001;EQDQ01  00002PRCP99
0173821980999992000031812004-01720-045400FM-12+004499999V0203201N000510450019N0100001N1+02631+02441100881ADDAA124004191GF106991031021017501061001KA1240N+02221MA1999999100361MD1999999+0011REMSYN082AAXX  18124 82198 22797 63201 10263 20244 30036 40088 83260 333 20222 58001 60044;
0182821980999992000031818004-01720-045400FM-12+004499999V0200501N001010150019N0100001N1+02421+02251100631ADDAA106006191AY161061AY221061GF108991051051017501041001MA1999999100121MD1999999+0011MW1021REMSYN082AAXX  18184 82198 21797 80502 10242 20225 30012 40063 70262 85540 333 58001 60061;
0213821980999992000031900004-01720-045400FM-12+004499999V0209999C000010150019N0020001N1+02401+02331100841ADDAA106002091AY161061AY221061GF108991051071017501061001KA1240M+03091MA1999999100321MD1999999+0061MW1021REMSYN100AAXX  19004 82198 21795 80000 10240 20233 30032 40084 70262 85760 333 10309 29094 55030 58006 60021;
0173821980999992000031912004-01720-045400FM-12+004499999V0202301N001510150019N0100001N1+02441+02391100891ADDAA124007991GF108991061051017501011001KA1240N+02241MA1999999100371MD1999999+0011REMSYN082AAXX  19124 82198 22797 82303 10244 20239 30037 40089 86510 333 20224 58001 60084;
0182821980999992000031918004-01720-045400FM-12+004499999V0203601N003110450019N0100001N1+02691+02351100571ADDAA106008991AY161061AY221061GF107991031021017501011041MA1999999100051MD1999999-0071MW1021REMSYN082AAXX  19184 82198 21797 73606 10269 20235 30005 40057 70262 83214 333 59007 60091;
0201821980999992000032012004-01720-045400FM-12+004499999V0200501N002610450019N0100001N1+02701+02521100931ADDAA124013091AY161061AY221061GF106991041021017501041001KA1240N+02201MA1999999100421MD1999999+0051MW1031REMSYN088AAXX  20124 82198 21797 60505 10270 20252 30042 40093 70362 84240 333 20220 58005 60134;
0182821980999992000032018004-01720-045400FM-12+004499999V0203201N000510150019N0100001N1+02741+02541100641ADDAA106004191AY161061AY221061GF108991051021017501041001MA1999999100131MD1999999+0081MW1031REMSYN082AAXX  20184 82198 21797 83201 10274 20254 30013 40064 70362 85240 333 58008 60041;
0213821980999992000032100004-01720-045400FM-12+004499999V0200501N001510450019N0020001N1+02521+02381100781ADDAA106002091AY161061AY221061GF105991021021017501061001KA1240M+02971MA1999999100271MD1999999+0011MW1011REMSYN100AAXX  21004 82198 21795 50503 10252 20238 30027 40078 70162 82260 333 10297 29091 55022 58001 60021;
0173821980999992000032112004-01720-045400FM-12+004499999V0201401N001512200019N0100001N1+02611+02371100911ADDAA124007191GF105991031021017501001011KA1240N+02321MA1999999100401MD1999999-0031REMSYN082AAXX  21124 82198 22797 51403 10261 20237 30040 40091 83201 333 20232 59003 60074;
0182821980999992000032118004-01720-045400FM-12+004499999V0200501N005710450019N0100001N1+02771+02501100591ADDAA106002091AY161061AY221061GF105991031021017501041001MA1999999100081MD1999999-0051MW1021REMSYN082AAXX  21184 82198 21797 50511 10277 20250 30008 40059 70262 83240 333 59005 60021;
0198821980999992000032200004-01720-045400FM-12+004499999V0200501N002110450019N0020001N1+02591+02351100751ADDAA199000091GF105991031021017501061001KA1240M+03131MA1999999100241MD1999999-0031REMSYN088AAXX  22004 82198 32795 50504 10259 20235 30024 40075 83260 333 10313 29086 55061 59003;EQDQ01  00002PRCP99
0173821980999992000032212004-01720-045400FM-12+004499999V0201401N001512200019N0100001N1+02631+02411100831ADDAA124002091GF102991011011017501061001KA1240N+02301MA1999999100321MD1999999-0081REMSYN082AAXX  22124 82198 21797 21403 10263 20241 30032 40083 81160 333 20230 59008 60024;
0182821980999992000032218004-01720-045400FM-12+004499999V0200501N002111050019N0100001N1+02941+02581100541ADDAA106000591AY151061AY201061GF105991021021017501061021MA1999999100031MD1999999-0051MW1031REMSYN082AAXX  22184 82198 21797 50504 10294 20258 30003 40054 70350 82262 333 59005 69961;
0173821980999992000032312004-01720-045400FM-12+004499999V0200501N003110150019N0100001N1+02841+02521100831ADDAA124000591GF107991051021017501061001KA1240N+02461MA1999999100321MD1999999+0001REMSYN082AAXX  23124 82198 22797 70506 10284 20252 30032 40083 85260 333 20246 58000 69964;
0182821980999992000032318004-01720-045400FM-12+004499999V0200501N006210150019N0100001N1+02931+02621100561ADDAA106014091AY161061AY221061GF108991061031017501061001MA1999999100051MD1999999+0021MW1021REMSYN082AAXX  23184 82198 21797 80512 10293 20262 30005 40056 70262 86360 333 58002 60141;
0198821980999992000032400004-01720-045400FM-12+004499999V0200901N001512200019N0020001N1+02601+02371100761ADDAA199000091GF104991021021017501061001KA1240M+03031MA1999999100251MD1999999+0081REMSYN088AAXX  24004 82198 32795 40903 10260 20237 30025 40076 82260 333 10303 29085 55045 58008;EQDQ01  00002PRCP99
0201821980999992000032412004-01720-045400FM-12+004499999V0201401N002612200019N0100001N1+02641+02421100931ADDAA124018091AY161061AY211061GF103991021021017501061001KA1240N+02321MA1999999100421MD1999999+0101MW1021REMSYN088AAXX  24124 82198 21797 31405 10264 20242 30042 40093 70261 82260 333 20232 58010 60184;
0182821980999992000032418004-01720-045400FM-12+004499999V0203201N001010150019N0100001N1+02901+02641100631ADDAA106001091AY161061AY221061GF106991061021017501001001MA1999999100921MD1999999+0051MW1031REMSYN082AAXX  24184 82198 21797 63202 10290 20264 30092 40063 70362 86200 333 58005 60011;
0208821980999992000032500004-01720-045400FM-12+004499999V0200901N002612200019N0020001N1+02631+02391100751ADDAA199000091GA1001+999999999GF100991001001999999001001KA1240M+03051MA1999999100241MD1999999-0011REMSYN082AAXX  25004 82198 32995 00905 10263 20239 30024 40075 333 10305 29087 55053 59001;EQDQ01  00002PRCP99
0173821980999992000032512004-01720-045400FM-12+004499999V0200501N004110450019N0100001N1+02711+02501100981ADDAA124001091GF108991041021017501041001KA1240N+02391MA1999999100471MD1999999+0051REMSYN082AAXX  25124 82198 22797 80508 10271 20250 30047 40098 84240 333 20239 58005 60014;
0182821980999992000032518004-01720-045400FM-12+004499999V0200501N005710150019N0100001N1+02811+02741100611ADDAA106000391AY151061AY221061GF107991051021017501061001MA1999999100101MD1999999-0021MW1021REMSYN082AAXX  25184 82198 21797 70511 10281 20274 30010 40061 70252 85260 333 59002 69931;
0198821980999992000032600004-01720-045400FM-12+004499999V0200901N002110450019N0020001N1+02621+02421100811ADDAA199000091GF105991031051017501041001KA1240M+03031MA1999999100301MD1999999+0061REMSYN088AAXX  26004 82198 32795 50904 10262 20242 30030 40081 83540 333 10303 29088 55043 58006;EQDQ01  00002PRCP99
0201821980999992000032612004-01720-045400FM-12+004499999V0203201N001010450019N0100001N1+02571+02371100891ADDAA124008991AY161061AY221061GF108991041021017501041001KA1240N+02351MA1999999100381MD1999999-0091MW1031REMSYN088AAXX  26124 82198 21797 83202 10257 20237 30038 40089 70362 84240 333 20235 59009 60094;
0182821980999992000032618004-01720-045400FM-12+004499999V0200501N003610450019N0100001N1+02681+02431100591ADDAA106001091AY161061AY221061GF108991041021017501041001MA1999999100081MD1999999-0021MW1021REMSYN082AAXX  26184 82198 21797 80507 10268 20243 30008 40059 70262 84240 333 59002 60011;
0213821980999992000032700004-01720-045400FM-12+004499999V0203601N001010450019N0020001N1+02461+02271100841ADDAA106008991AY161061AY221061GF108991041051017501021001KA1240M+02971MA1999999100321MD1999999+0021MW1021REMSYN100AAXX  27004 82198 21795 83602 10246 20227 30032 40084 70262 84520 333 10297 29088 55020 58002 60091;
0201821980999992000032712004-01720-045400FM-12+004499999V0203601N001010450019N0100001N1+02511+02341100901ADDAA124019191AY161061AY221061GF107991031051017501031011KA1240N+02311MA1999999100381MD1999999+0001MW1021REMSYN088AAXX  27124 82198 21797 73602 10251 20234 30038 40090 70262 83531 333 20231 58000 60194;
0182821980999992000032718004-01720-045400FM-12+004499999V0201401N002110450019N0100001N1+02651+02421100681ADDAA106002091AY161061AY221061GF108991041071017501061011MA1999999100161MD1999999+0081MW1021REMSYN082AAXX  27184 82198 21797 81404 10265 20242 30016 40068 70262 84761 333 58008 60021;
0213821980999992000032800004-01720-045400FM-12+004499999V0203201N002110450019N0020001N1+02381+02311100991ADDAA106002091AY161061AY221061GF108991041071017501061001KA1240M+02971MA1999999100471MD1999999+0151MW1021REMSYN100AAXX  28004 82198 21795 83204 10238 20231 30047 40099 70262 84760 333 10297 29091 55021 58015 60021;
0201821980999992000032812004-01720-045400FM-12+004499999V0203201N001010450019N0100001N1+02431+02231101121ADDAA124004191AY161061AY221061GF108991031051017501011001KA1240N+02281MA1999999100601MD1999999+0221MW1031REMSYN088AAXX  28124 82198 21797 83202 10243 20223 30060 40112 70362 83510 333 20228 58022 60044;
0182821980999992000032818004-01720-045400FM-12+004499999V0202301N002110450019N0100001N1+02781+02481100711ADDAA106000191AY151061AY221061GF107991041021017501041041MA1999999100191MD1999999+0031MW1021REMSYN082AAXX  28184 82198 21797 72304 10278 20248 30019 40071 70252 84244 333 58003 69911;
0226821980999992000032900004-01720-045400FM-12+004499999V0203201N002110450019N0020001N1+02571+02421100791ADDAA199000091AY121061AY211061GF105991021021017501061001KA1240M+03031MA1999999100271MD1999999-0201MW1131REMSYN094AAXX  29004 82198 31795 53204 10257 20242 30027 40079 71321 82260 333 10303 29088 55010 59020;EQDQ01  00002PRCP99
0201821980999992000032912004-01720-045400FM-12+004499999V0201801N003110450019N0100001N1+02331+02211101021ADDAA124000591AY151061AY221061GF108991041071017501061001KA1240N+02271MA1999999100531MD1999999-0071MW1021REMSYN088AAXX  29124 82198 21797 81806 10233 20221 30053 40102 70252 84760 333 20227 59007 69954;
0182821980999992000032918004-01720-045400FM-12+004499999V0202301N001010450019N0100001N1+02551+02461100921ADDAA106000391AY151061AY221061GF108991041071017501021001MA1999999100401MD1999999+0211MW1531REMSYN082AAXX  29184 82198 21797 82302 10255 20246 30040 40092 75352 84720 333 58021 69931;
0179821980999992000033000004-01720-045400FM-12+004499999V0203201N001512200019N0020001N1+02431+02331101001ADDAA199000021GF103991031021017501001001KA1240M+02601MA1999999100481MD1999999+0211REMSYN088AAXX  30004 82198 32795 33203 10243 20233 30048 40100 83200 333 10260 29093 55000 58021;
0201821980999992000033012004-01720-045400FM-12+004499999V0202701N001510450019N0100001N1+02211+02131100941ADDAA124003091AY161061AY251061GF108991041051017501011999KA1240N+02171MA1999999100421MD1999999-0111MW1031REMSYN088AAXX  30124 82198 21797 82703 10221 20213 30042 40094 70365 8451/ 333 20217 59011 60034;
0167821980999992000033018004-01720-045400FM-12+004499999V0201401N001010450019N0100001N1+02611+02351100661ADDAA199000091GF108991041051017501011041MA1999999100141MD1999999-0261REMSYN070AAXX  30184 82198 32797 81402 10261 20235 30014 40066 84514 333 59026;EQDQ01  00002PRCP99
0198821980999992000033100004-01720-045400FM-12+004499999V0202301N001010450019N0020001N1+02411+02301100851ADDAA199000091GF105991021021017501061001KA1240M+02671MA1999999100331MD1999999-0151REMSYN088AAXX  31004 82198 32795 52302 10241 20230 30033 40085 82260 333 10267 29092 55002 59015;EQDQ01  00002PRCP99
0201821980999992000033112004-01720-045400FM-12+004499999V0202301N002110450019N0100001N1+02291+02181101121ADDAA106000191AY151061AY221061GF108991041051017501061011KA1240N+02231MA1999999100601MD1999999+0181MW1021REMSYN088AAXX  31124 82198 21797 82304 10229 20218 30060 40112 70252 84561 333 20223 58018 69921;
0182821980999992000033118004-01720-045400FM-12+004499999V0209999C000010450019N0100001N1+02631+02311100721ADDAA106000591AY151061AY221061GF108991041051017501011041MA1999999100201MD1999999+0061MW1021REMSYN082AAXX  31184 82198 21797 80000 10263 20231 30020 40072 70252 84514 333 58006 69941;
0198821980999992000040100004-01720-045400FM-12+004499999V0200501N002610150019N0020001N1+02511+02341100901ADDAA199000091GF105991051021017501001001KA1240M+02711MA1999999100381MD1999999+0051REMSYN088AAXX  01004 82198 32795 50505 10251 20234 30038 40090 85200 333 10271 29091 55003 58005;EQDQ01  00002PRCP99
0201821980999992000040112004-01720-045400FM-12+004499999V0201401N001510450019N0100001N1+02451+02331101061ADDAA124017091AY161061AY221061GF107991041071017501011001KA1240N+02301MA1999999100541MD1999999-0061MW1021REMSYN088AAXX  01124 82198 21797 71403 10245 20233 30054 40106 70262 84710 333 20230 59006 60174;
0182821980999992000040118004-01720-045400FM-12+004499999V0203601N001510150019N0100001N1+02451+02351101211ADDAA106032091AY161061AY221061GF108991051071017501021001MA1999999100691MD1999999+0221MW1021REMSYN082AAXX  01184 82198 21797 83603 10245 20235 30069 40121 70262 85720 333 58022 60321;
0213821980999992000040200004-01720-045400FM-12+004499999V0201401N000510450019N0020001N1+02361+02311101011ADDAA106003091AY161061AY221061GF106991041021017501061001KA1240M+02661MA1999999100491MD1999999+0111MW1011REMSYN100AAXX  02004 82198 21795 61401 10236 20231 30049 40101 70162 84260 333 10266 29096 55000 58011 60031;
0201821980999992000040212004-01720-045400FM-12+004499999V0201801N001510150019N0100001N1+02371+02351101161ADDAA124037191AY161061AY221061GF108991051071017501031041KA1240N+02221MA1999999100641MD1999999+0101MW1031REMSYN088AAXX  02124 82198 21797 81803 10237 20235 30064 40116 70362 85734 333 20222 58010 60374;
0167821980999992000040218004-01720-045400FM-12+004499999V0200901N002110450019N0100001N1+02811+02401100911ADDAA199000091GF108991041021017501011041MA1999999100391MD1999999-0031REMSYN070AAXX  02184 82198 32797 80904 10281 20240 30039 40091 84214 333 59003;EQDQ01  00002PRCP99
0186821980999992000040312004-01720-045400FM-12+004499999V0200501N002110150019N0100001N1+02831+02621101121ADDAA199000091GF105991051021017501001001KA1240N+02231MA1999999100601MD1999999-0041REMSYN076AAXX  03124 82198 32797 50504 10283 20262 30060 40112 85200 333 20223 59004;EQDQ01  00002PRCP99
0182821980999992000040318004-01720-045400FM-12+004499999V0200501N001510150019N0100001N1+02521+02271100831ADDAA106000191AY151061AY221061GF108991051051017501021001MA1999999100321MD1999999-0071MW1031REMSYN082AAXX  03184 82198 21797 80503 10252 20227 30032 40083 70352 85520 333 59007 69921;
0213821980999992000040400004-01720-045400FM-12+004499999V0201401N001512200019N0020001N1+02411+02191101021ADDAA106024991AY161061AY221061GF104991041001017501061001KA1240M+03131MA1999999100511MD1999999-0011MW1011REMSYN100AAXX  04004 82198 21795 41403 10241 20219 30051 40102 70162 84060 333 10313 29088 55046 59001 60251;
0201821980999992000040412004-01720-045400FM-12+004499999V0200901N000510450019N0100001N1+02391+02171101141ADDAA124030091AY161061AY221061GF106991041021017501061001KA1240N+02191MA1999999100631MD1999999+0031MW1021REMSYN088AAXX  04124 82198 21797 60901 10239 20217 30063 40114 70262 84260 333 20219 58003 60304;
0167821980999992000040418004-01720-045400FM-12+004499999V0200501N004610150019N0100001N1+02861+02541100791ADDAA199000091GF106991051021017501061001MA1999999100281MD1999999-0041REMSYN070AAXX  04184 82198 32797 60509 10286 20254 30028 40079 85260 333 59004;EQDQ01  00002PRCP99
0213821980999992000040500004-01720-045400FM-12+004499999V0200501N001512200019N0020001N1+02581+02371100971ADDAA106000591AY151061AY211061GF102991021001017501061001KA1240M+03121MA1999999100461MD1999999-0051MW1011REMSYN100AAXX  05004 82198 21795 20503 10258 20237 30046 40097 70151 82060 333 10312 29087 55073 59005 69951;
0182821980999992000040518004-01720-045400FM-12+004499999V0200501N003610150019N0100001N1+03081+02691100711ADDAA106000891AY151061AY221061GF108991061021017501061001MA1999999100201MD1999999-0081MW1021REMSYN082AAXX  05184 82198 21797 80507 10308 20269 30020 40071 70252 86260 333 59008 69981;
0198821980999992000040600004-01720-045400FM-12+004499999V0201401N002110450019N0020001N1+02561+02351101061ADDAA199000091GF107991031051017501021001KA1240M+03031MA1999999100551MD1999999+0091REMSYN088AAXX  06004 82198 32795 71404 10256 20235 30055 40106 83520 333 10303 29086 55071 58009;EQDQ01  00002PRCP99
0201821980999992000040612004-01720-045400FM-12+004499999V0201401N002610450019N0100001N1+02421+02241101131ADDAA124006191AY161061AY221061GF108991031051017501041001KA1240N+02251MA1999999100621MD1999999+0041MW1021REMSYN088AAXX  06124 82198 21797 81405 10242 20224 30062 40113 70262 83540 333 20225 58004 60064;
0182821980999992000040618004-01720-045400FM-12+004499999V0203201N000512200019N0100001N1+02411+02151100741ADDAA106006191AY161061AY221061GF104991021021017501061001MA1999999100231MD1999999+0031MW1011REMSYN082AAXX  06184 82198 21797 43201 10241 20215 30023 40074 70162 82260 333 58003 60061;
0198821980999992000040700004-01720-045400FM-12+004499999V0203201N000510450019N0020001N1+02481+02301100951ADDAA199000091GF108991031021017501061001KA1240M+02961MA1999999100441MD1999999-0111REMSYN088AAXX  07004 82198 32795 83201 10248 20230 30044 40095 83260 333 10296 29089 55030 59011;EQDQ01  00002PRCP99
0201821980999992000040712004-01720-045400FM-12+004499999V0200501N003110150019N0100001N1+02441+02301100991ADDAA124011991AY161061AY221061GF108991051051017501021001KA1240N+02311MA1999999100481MD1999999-0141MW1031REMSYN088AAXX  07124 82198 21797 80506 10244 20230 30048 40099 70362 85520 333 20231 59014 60124;
0182821980999992000040718004-01720-045400FM-12+004499999V0201401N001010450019N0100001N1+02781+02521100751ADDAA106000391AY151061AY221061GF107991041021017501061001MA1999999100241MD1999999+0021MW1021REMSYN082AAXX  07184 82198 21797 71402 10278 20252 30024 40075 70252 84260 333 58002 69931;
0213821980999992000040800004-01720-045400FM-12+004499999V0200901N003110150019N0020001N1+02381+02221100991ADDAA106007191AY161061AY221061GF108991051051017501021001KA1240M+02831MA1999999100471MD1999999+0031MW1021REMSYN100AAXX  08004 82198 21795 80906 10238 20222 30047 40099 70262 85520 333 10283 29090 55003 58003 60071;
0201821980999992000040812004-01720-045400FM-12+004499999V0200501N000510450019N0100001N1+02461+02321100931ADDAA124008991AY161061AY221061GF107991041021017501041001KA1240N+02291MA1999999100421MD1999999-0061MW1021REMSYN088AAXX  08124 82198 21797 70501 10246 20232 30042 40093 70262 84240 333 20229 59006 60094;
0182821980999992000040818004-01720-045400FM-12+004499999V0203601N002610450019N0100001N1+02601+02401100691ADDAA106007191AY161061AY221061GF106991031021017501061001MA1999999100181MD1999999-0061MW1011REMSYN082AAXX  08184 82198 21797 63605 10260 20240 30018 40069 70162 83260 333 59006 60071;
0198821980999992000040900004-01720-045400FM-12+004499999V0200501N002112200019N0020001N1+02521+02401100911ADDAA199000091GF103991031001017501061001KA1240M+02991MA1999999100401MD1999999-0071REMSYN088AAXX  09004 82198 32795 30504 10252 20240 30040 40091 83060 333 10299 29090 55025 59007;EQDQ01  00002PRCP99
0173821980999992000040912004-01720-045400FM-12+004499999V0200501N001512200019N0100001N1+02761+02581101001ADDAA124007191GF105991041021017501001011KA1240N+02311MA1999999100491MD1999999+0071REMSYN082AAXX  09124 82198 22797 50503 10276 20258 30049 40100 84201 333 20231 58007 60074;
0182821980999992000040918004-01720-045400FM-12+004499999V0203201N000510450019N0100001N1+02581+02331100681ADDAA106009991AY161061AY221061GF108991021021017501061001MA1999999100171MD1999999-0011MW1031REMSYN082AAXX  09184 82198 21797 83201 10258 20233 30017 40068 70362 82260 333 59001 60101;
0213821980999992000041000004-01720-045400FM-12+004499999V0203201N001010450019N0020001N1+02431+02251100871ADDAA106002091AY161061AY221061GF106991031021017501061001KA1240M+03071MA1999999100361MD1999999-0041MW1011REMSYN100AAXX  10004 82198 21795 63202 10243 20225 30036 40087 70162 83260 333 10307 29089 55040 59004 60021;
0173821980999992000041012004-01720-045400FM-12+004499999V0201401N001010450019N0100001N1+02521+02331100951ADDAA124011991GF107991041051017501041091KA1240N+02261MA1999999100431MD1999999-0061REMSYN082AAXX  10124 82198 22797 71402 10252 20233 30043 40095 84549 333 20226 59006 60124;
0167821980999992000041018004-01720-045400FM-12+004499999V0203601N002610150019N0100001N1+02861+02541100681ADDAA199000091GF108991051021017501011011MA1999999100161MD1999999-0011REMSYN070AAXX  10184 82198 32797 83605 10286 20254 30016 40068 85211 333 59001;EQDQ01  00002PRCP99
0198821980999992000041100004-01720-045400FM-12+004499999V0203201N001510450019N0020001N1+02501+02361100841ADDAA199000091GF106991041021017501031041KA1240M+02981MA1999999100321MD1999999-0041REMSYN088AAXX  11004 82198 32795 63203 10250 20236 30032 40084 84234 333 10298 29089 55031 59004;EQDQ01  00002PRCP99
0201821980999992000041112004-01720-045400FM-12+004499999V0209999C000010450019N0100001N1+02541+02451101011ADDAA124000191AY161061AY251061GF106991021021017501041011KA1240N+02281MA1999999100491MD1999999+0011MW1021REMSYN088AAXX  11124 82198 21797 60000 10254 20245 30049 40101 70265 82241 333 20228 58001 69924;
0182821980999992000041118004-01720-045400FM-12+004499999V0202301N000510450019N0100001N1+02581+02441100771ADDAA106013091AY161061AY221061GF108991041051017501041041MA1999999100251MD1999999+0091MW1031REMSYN082AAXX  11184 82198 21797 82301 10258 20244 30025 40077 70362 84544 333 58009 60131;
0213821980999992000041200004-01720-045400FM-12+004499999V0203601N001011050019N0020001N1+02511+02431100871ADDAA106003091AY161061AY221061GF105991021021017501011011KA1240M+03061MA1999999100351MD1999999+0031MW1011REMSYN100AAXX  12004 82198 21795 53602 10251 20243 30035 40087 70162 82211 333 10306 29094 55044 58003 60031;
0173821980999992000041212004-01720-045400FM-12+004499999V0202301N001011050019N0100001N1+02571+02531100971ADDAA124015091GF105991021021017501011061KA1240N+02271MA1999999100451MD1999999-0041REMSYN082AAXX  12124 82198 22797 52302 10257 20253 30045 40097 82216 333 20227 59004 60154;
0182821980999992000041218004-01720-045400FM-12+004499999V0202701N001510450019N0100001N1+02571+02461100691ADDAA106007191AY161061AY221061GF108991041071017501061011MA1999999100171MD1999999-0081MW1031REMSYN082AAXX  12184 82198 21797 82703 10257 20246 30017 40069 70362 84761 333 59008 60071;
0213821980999992000041300004-01720-045400FM-12+004499999V0203201N001010450019N0020001N1+02491+02301100891ADDAA106020191AY161061AY221061GF108991041021017501061041KA1240M+03071MA1999999100371MD1999999+0021MW1021REMSYN100AAXX  13004 82198 21795 83202 10249 20230 30037 40089 70262 84264 333 10307 29094 55041 58002 60201;
0201821980999992000041312004-01720-045400FM-12+004499999V0203201N001510450019N0100001N1+02491+02331100991ADDAA124031091AY161061AY251061GF108991041071017501011011KA1240N+02351MA1999999100471MD1999999+0021MW1021REMSYN088AAXX  13124 82198 21797 83203 10249 20233 30047 40099 70265 84711 333 20235 58002 60314;
0195821980999992000041318004-01720-045400FM-12+004499999V0203601N003610150019N0100001N1+02871+02381100721ADDAA199000091AY191061AY221061GF108991051071017501061041MA1999999100201MD1999999+0031MW1131REMSYN076AAXX  13184 82198 31797 83607 10287 20238 30020 40072 71392 85764 333 58003;EQDQ01  00002PRCP99
0213821980999992000041400004-01720-045400FM-12+004499999V0203201N001010450019N0020001N1+02391+02331100991ADDAA106004191AY161061AY251061GF106991041021017501031011KA1240M+02991MA1999999100471MD1999999+0101MW1011REMSYN100AAXX  14004 82198 21795 63202 10239 20233 30047 40099 70165 84231 333 10299 29092 55025 58010 60041;
0167821980999992000041418004-01720-045400FM-12+004499999V0200901N002610450019N0100001N1+03011+02421100751ADDAA199000091GF107991031021017501041091MA1999999100231MD1999999+0031REMSYN070AAXX  14184 82198 32797 70905 10301 20242 30023 40075 83249 333 58003;EQDQ01  00002PRCP99
0198821980999992000041500004-01720-045400FM-12+004499999V0200501N001510450019N0020001N1+02601+02421101121ADDAA199000091GF107991041021017501061001KA1240M+03131MA1999999100601MD1999999+0131REMSYN088AAXX  15004 82198 32795 70503 10260 20242 30060 40112 84260 333 10313 29086 55050 58013;EQDQ01  00002PRCP99
0201821980999992000041512004-01720-045400FM-12+004499999V0202301N001010450019N0100001N1+02461+02411101271ADDAA124025991AY161061AY221061GF108991041051017501061011KA1240N+02281MA1999999100751MD1999999+0151MW1021REMSYN088AAXX  15124 82198 21797 82302 10246 20241 30075 40127 70262 84561 333 20228 58015 60264;
0182821980999992000041518004-01720-045400FM-12+004499999V0203601N001010150019N0100001N1+02441+02341100991ADDAA106015091AY161061AY251061GF108991061071017501021001MA1999999100471MD1999999+0241MW1581REMSYN082AAXX  15184 82198 21797 83602 10244 20234 30047 40099 75865 86720 333 58024 60151;
0213821980999992000041600004-01720-045400FM-12+004499999V0202301N002610150019N0020001N1+02411+02331101101ADDAA106000891AY161061AY221061GF108991051021017501061001KA1240M+02951MA1999999100581MD1999999-0021MW1021REMSYN100AAXX  16004 82198 21795 82305 10241 20233 30058 40110 70262 85260 333 10295 29096 55020 59002 69971;
0201821980999992000041612004-01720-045400FM-12+004499999V0202301N001010450019N0100001N1+02381+02281101201ADDAA124017091AY161061AY251061GF107991041051017501041041KA1240N+02271MA1999999100681MD1999999-0071MW1021REMSYN088AAXX  16124 82198 21797 72302 10238 20228 30068 40120 70265 84544 333 20227 59007 60174;
0167821980999992000041618004-01720-045400FM-12+004499999V0203601N002110450019N0100001N1+03001+02441100841ADDAA199000091GF107991041021017501011061MA1999999100321MD1999999-0151REMSYN070AAXX  16184 82198 32797 73604 10300 20244 30032 40084 84216 333 59015;EQDQ01  00002PRCP99
0198821980999992000041700004-01720-045400FM-12+004499999V0203601N001511050019N0020001N1+02531+02381101001ADDAA199000091GF105991021021017501041061KA1240M+03091MA1999999100481MD1999999-0101REMSYN088AAXX  17004 82198 32795 53603 10253 20238 30048 40100 82246 333 10309 29088 55030 59010;EQDQ01  00002PRCP99
0186821980999992000041712004-01720-045400FM-12+004499999V0200501N004110150019N0100001N1+02841+02601101171ADDAA199000091GF106991051021017501001011KA1240N+02411MA1999999100661MD1999999-0021REMSYN076AAXX  17124 82198 32797 60508 10284 20260 30066 40117 85201 333 20241 59002;EQDQ01  00002PRCP99
0182821980999992000041718004-01720-045400FM-12+004499999V0201401N001010150019N0100001N1+02491+02231100741ADDAA106019191AY161061AY221061GF108991051051017501021001MA1999999100231MD1999999-0091MW1031REMSYN082AAXX  17184 82198 21797 81402 10249 20223 30023 40074 70362 85520 333 59009 60191;
0213821980999992000041800004-01720-045400FM-12+004499999V0200901N001510450019N0020001N1+02441+02261100991ADDAA106034091AY161061AY221061GF108991031021017501041001KA1240M+03041MA1999999100481MD1999999+0001MW1021REMSYN100AAXX  18004 82198 21795 80903 10244 20226 30048 40099 70262 83240 333 10304 29088 55041 58000 60341;
0173821980999992000041812004-01720-045400FM-12+004499999V0202301N001010450019N0100001N1+02541+02311101161ADDAA124053191GF107991041021017501031001KA1240N+02221MA1999999100651MD1999999-0011REMSYN082AAXX  18124 82198 22797 72302 10254 20231 30065 40116 84230 333 20222 59001 60534;
0182821980999992000041818004-01720-045400FM-12+004499999V0200501N003110150019N0100001N1+02821+02441100831ADDAA106003091AY161061AY221061GF107991051021017501061001MA1999999100321MD1999999+0091MW1021REMSYN082AAXX  18184 82198 21797 70506 10282 20244 30032 40083 70262 85260 333 58009 60031;
0213821980999992000041900004-01720-045400FM-12+004499999V0202301N001510450019N0020001N1+02471+02291101051ADDAA106005191AY161061AY221061GF108991041051017501021001KA1240M+02961MA1999999100541MD1999999+0061MW1021REMSYN100AAXX  19004 82198 21795 82303 10247 20229 30054 40105 70262 84520 333 10296 29086 55022 58006 60051;
0201821980999992000041912004-01720-045400FM-12+004499999V0209999C000010450019N0100001N1+02391+02171101191ADDAA124023991AY161061AY221061GF108991041071017501041001KA1240N+02311MA1999999100671MD1999999+0021MW1021REMSYN088AAXX  19124 82198 21797 80000 10239 20217 30067 40119 70262 84740 333 20231 58002 60244;
0182821980999992000041918004-01720-045400FM-12+004499999V0203601N001510150019N0100001N1+02701+02411100801ADDAA106002091AY161061AY221061GF107991051021017501041001MA1999999100291MD1999999-0031MW1021REMSYN082AAXX  19184 82198 21797 73603 10270 20241 30029 40080 70262 85240 333 59003 60021;
0198821980999992000042000004-01720-045400FM-12+004499999V0200501N001510450019N0020001N1+02521+02321101001ADDAA199000091GF105991021021017501061001KA1240M+02801MA1999999100491MD1999999-0051REMSYN088AAXX  20004 82198 32795 50503 10252 20232 30049 40100 82260 333 10280 29088 55021 59005;EQDQ01  00002PRCP99
0173821980999992000042012004-01720-045400FM-12+004499999V0201401N002110450019N0100001N1+02611+02351101061ADDAA124002091GF106991031021017501061001KA1240N+02331MA1999999100551MD1999999-0121REMSYN082AAXX  20124 82198 22797 61404 10261 20235 30055 40106 83260 333 20233 59012 60024;
0173821980999992000042112004-01720-045400FM-12+004499999V0201401N001010450019N0100001N1+02591+02331101001ADDAA124005191GF106991031021017501061011KA1240N+02301MA1999999100491MD1999999-0061REMSYN082AAXX  21124 82198 22797 61402 10259 20233 30049 40100 83261 333 20230 59006 60054;
0182821980999992000042118004-01720-045400FM-12+004499999V0200501N002110450019N0100001N1+02801+02401100651ADDAA106000391AY151061AY221061GF107991041021017501061001MA1999999100141MD1999999-0141MW1021REMSYN082AAXX  21184 82198 21797 70504 10280 20240 30014 40065 70252 84260 333 59014 69931;
0213821980999992000042200004-01720-045400FM-12+004499999V0200501N002112200019N0020001N1+02491+02271100921ADDAA106008991AY161061AY221061GF103991031001017501061001KA1240M+02931MA1999999100411MD1999999-0041MW1011REMSYN100AAXX  22004 82198 21795 30504 10249 20227 30041 40092 70162 83060 333 10293 29085 55030 59004 60091;
0182821980999992000042218004-01720-045400FM-12+004499999V0200501N002610450019N0100001N1+02701+02501100731ADDAA106021191AY161061AY221061GF107991031021017501041001MA1999999100221MD1999999+0081MW1021REMSYN082AAXX  22184 82198 21797 70505 10270 20250 30022 40073 70262 83240 333 58008 60211;
0198821980999992000042300004-01720-045400FM-12+004499999V0200901N002612200019N0020001N1+02551+02371100921ADDAA199000091GF103991031001017501061001KA1240M+03011MA1999999100401MD1999999-0011REMSYN088AAXX  23004 82198 32795 30905 10255 20237 30040 40092 83060 333 10301 29089 55035 59001;EQDQ01  00002PRCP99
0173821980999992000042312004-01720-045400FM-12+004499999V0200901N002112200019N0100001N1+02731+02471100991ADDAA124021191GF105991031021017501001011KA1240N+02301MA1999999100481MD1999999-0051REMSYN082AAXX  23124 82198 22797 50904 10273 20247 30048 40099 83201 333 20230 59005 60214;
0167821980999992000042318004-01720-045400FM-12+004499999V0200501N004610450019N0100001N1+02901+02581100701ADDAA199000091GF107991041021017501061001MA1999999100191MD1999999-0031REMSYN070AAXX  23184 82198 32797 70509 10290 20258 30019 40070 84260 333 59003;EQDQ01  00002PRCP99
0198821980999992000042400004-01720-045400FM-12+004499999V0200501N002612200019N0020001N1+02631+02411100891ADDAA199000091GF104991021011017501061001KA1240M+03211MA1999999100381MD1999999-0021REMSYN088AAXX  24004 82198 32795 40505 10263 20241 30038 40089 82160 333 10321 29086 55059 59002;EQDQ01  00002PRCP99
0182821980999992000042418004-01720-045400FM-12+004499999V0200501N002110450019N0100001N1+02691+02391100791ADDAA106010991AY161061AY221061GF108991041051017501011011MA1999999100271MD1999999+0081MW1021REMSYN082AAXX  24184 82198 21797 80504 10269 20239 30027 40079 70262 84511 333 58008 60111;
0198821980999992000042500004-01720-045400FM-12+004499999V0200501N002112200019N0020001N1+02581+02481101001ADDAA199000091GF103991031021017501001001KA1240M+02831MA1999999100481MD1999999+0101REMSYN088AAXX  25004 82198 32795 30504 10258 20248 30048 40100 83200 333 10283 29092 55002 58010;EQDQ01  00002PRCP99
0201821980999992000042512004-01720-045400FM-12+004499999V0200501N004110450019N0100001N1+02391+02371101101ADDAA124032091AY161061AY251061GF108991041051017501021001KA1240N+02261MA1999999100581MD1999999+0041MW1581REMSYN088AAXX  25124 82198 21797 80508 10239 20237 30058 40110 75865 84520 333 20226 58004 60324;
0182821980999992000042518004-01720-045400FM-12+004499999V0200501N003110450019N0100001N1+02441+02391100901ADDAA106013091AY161061AY251061GF108991041071017501011001MA1999999100381MD1999999+0111MW1201REMSYN082AAXX  25184 82198 21797 80506 10244 20239 30038 40090 72065 84710 333 58011 60131;
0179821980999992000042600004-01720-045400FM-12+004499999V0202301N001510150019N0020001N1+02441+02371100941ADDAA199000021GF105991051021017501001001KA1240M+02621MA1999999100421MD1999999-0061REMSYN088AAXX  26004 82198 32795 52303 10244 20237 30042 40094 85200 333 10262 29096 55000 59006;
0201821980999992000042612004-01720-045400FM-12+004499999V0200501N002110450019N0100001N1+02411+02351101141ADDAA124016091AY161061AY221061GF106991031021017501061001KA1240N+02371MA1999999100621MD1999999+0041MW1031REMSYN088AAXX  26124 82198 21797 60504 10241 20235 30062 40114 70362 83260 333 20237 58004 60164;
0167821980999992000042618004-01720-045400FM-12+004499999V0200501N004110450019N0100001N1+02711+02391100821ADDAA199000091GF106991031021017501011061MA1999999100301MD1999999-0081REMSYN070AAXX  26184 82198 32797 60508 10271 20239 30030 40082 83216 333 59008;EQDQ01  00002PRCP99
0226821980999992000042700004-01720-045400FM-12+004499999V0200901N001012200019N0020001N1+02531+02431101001ADDAA199000091AY121061AY211061GF103991031021017501001001KA1240M+02871MA1999999100481MD1999999+0061MW1131REMSYN094AAXX  27004 82198 31795 30902 10253 20243 30048 40100 71321 83200 333 10287 29091 55032 58006;EQDQ01  00002PRCP99
0213821980999992000042800004-01720-045400FM-12+004499999V0209999C000010150019N0020001N1+02401+02281101041ADDAA106021191AY101061AY221061GF105991051021017501001001KA1240M+02951MA1999999100521MD1999999+0041MW1131REMSYN100AAXX  28004 82198 21795 50000 10240 20228 30052 40104 71302 85200 333 10295 29092 55051 58004 60211;
0201821980999992000042812004-01720-045400FM-12+004499999V0200901N001510450019N0100001N1+02491+02311101181ADDAA124030091AY161061AY221061GF107991041051017501061001KA1240N+02311MA1999999100661MD1999999+0101MW1031REMSYN088AAXX  28124 82198 21797 70903 10249 20231 30066 40118 70362 84560 333 20231 58010 60304;
0182821980999992000042818004-01720-045400FM-12+004499999V0209999C000010450019N0100001N1+02781+02481100871ADDAA106002091AY161061AY221061GF108991031071017501021001MA1999999100361MD1999999+0081MW1021REMSYN082AAXX  28184 82198 21797 80000 10278 20248 30036 40087 70262 83720 333 58008 60021;
0213821980999992000042900004-01720-045400FM-12+004499999V0200501N002612200019N0020001N1+02511+02401101121ADDAA106010991AY161061AY221061GF103991031021017501001001KA1240M+03091MA1999999100611MD1999999+0091MW1131REMSYN100AAXX  29004 82198 21795 30505 10251 20240 30061 40112 71362 83200 333 10309 29092 55035 58009 60111;
0201821980999992000042912004-01720-045400FM-12+004499999V0200901N003610450019N0100001N1+02411+02301101271ADDAA124019191AY161061AY251061GF108991041051017501061001KA1240N+02271MA1999999100751MD1999999+0091MW1031REMSYN088AAXX  29124 82198 21797 80907 10241 20230 30075 40127 70365 84560 333 20227 58009 60194;
0167821980999992000042918004-01720-045400FM-12+004499999V0201401N001010450019N0100001N1+02651+02521100901ADDAA199000091GF108991041051017501011011MA1999999100381MD1999999+0021REMSYN070AAXX  29184 82198 32797 81402 10265 20252 30038 40090 84511 333 58002;EQDQ01  00002PRCP99
0213821980999992000043000004-01720-045400FM-12+004499999V0209999C000010450019N0020001N1+02501+02431101071ADDAA106001091AY161061AY251061GF105991021021017501061001KA1240M+02711MA1999999100561MD1999999-0051MW1131REMSYN100AAXX  30004 82198 21795 50000 10250 20243 30056 40107 71365 82260 333 10271 29094 55000 59005 60011;
0173821980999992000043012004-01720-045400FM-12+004499999V0200501N002110450019N0100001N1+02741+02501101131ADDAA124001091GF106991031021017501041061KA1240N+02321MA1999999100611MD1999999-0141REMSYN082AAXX  30124 82198 22797 60504 10274 20250 30061 40113 83246 333 20232 59014 60014;
0167821980999992000043018004-01720-045400FM-12+004499999V0203601N006210450019N0100001N1+02911+02411100811ADDAA199000091GF106991031021017501011061MA1999999100301MD1999999-0081REMSYN070AAXX  30184 82198 32797 63612 10291 20241 30030 40081 83216 333 59008;EQDQ01  00002PRCP99
0198821980999992000050100004-01720-045400FM-12+004499999V0200501N002612200019N0020001N1+02561+02381101091ADDAA199000091GF103991031021017501001001KA1240M+03151MA1999999100581MD1999999+0021REMSYN088AAXX  01004 82198 32795 30505 10256 20238 30058 40109 83200 333 10315 29086 55050 58002;EQDQ01  00002PRCP99
0201821980999992000050112004-01720-045400FM-12+004499999V0200501N003110450019N0100001N1+02701+02591101031ADDAA124006191AY161061AY221061GF106991031021017501061001KA1240N+02351MA1999999100511MD1999999-0101MW1031REMSYN088AAXX  01124 82198 21797 60506 10270 20259 30051 40103 70362 83260 333 20235 59010 60064;
0182821980999992000050118004-01720-045400FM-12+004499999V0200501N002110450019N0100001N1+02731+02601100771ADDAA106001091AY161061AY221061GF108991031021017501061001MA1999999100261MD1999999-0041MW1031REMSYN082AAXX  01184 82198 21797 80504 10273 20260 30026 40077 70362 83260 333 59004 60011;
0198821980999992000050200004-01720-045400FM-12+004499999V0200901N002112200019N0020001N1+02561+02491100911ADDAA199000091GF102991021001017501061001KA1240M+03051MA1999999100401MD1999999-0181REMSYN088AAXX  02004 82198 32795 20904 10256 20249 30040 40091 82060 333 10305 29095 55020 59018;EQDQ01  00002PRCP99
0173821980999992000050212004-01720-045400FM-12+004499999V0200501N002610150019N0100001N1+02821+02711101001ADDAA124001091GF108991051051017501021001KA1240N+02371MA1999999100491MD1999999-0021REMSYN082AAXX  02124 82198 22797 80505 10282 20271 30049 40100 85520 333 20237 59002 60014;
0182821980999992000050218004-01720-045400FM-12+004499999V0203201N001010450019N0100001N1+02561+02471100691ADDAA106018091AY161061AY221061GF108991031051017501021001MA1999999100181MD1999999-0081MW1021REMSYN082AAXX  02184 82198 21797 83202 10256 20247 30018 40069 70262 83520 333 59008 60181;
0213821980999992000050300004-01720-045400FM-12+004499999V0203201N001510450019N0020001N1+02361+02311100891ADDAA106003091AY161061AY221061GF106991031021017501061001KA1240M+03131MA1999999100381MD1999999-0021MW1011REMSYN100AAXX  03004 82198 21795 63203 10236 20231 30038 40089 70162 83260 333 10313 29096 55041 59002 60031;
0201821980999992000050312004-01720-045400FM-12+004499999V0200901N002610450019N0100001N1+02491+02411101051ADDAA124022191AY151061AY221061GF108991041011017501041001KA1240N+02351MA1999999100541MD1999999+0051MW1031REMSYN088AAXX  03124 82198 21797 80905 10249 20241 30054 40105 70352 84140 333 20235 58005 60224;
0167821980999992000050318004-01720-045400FM-12+004499999V0201401N002610450019N0100001N1+03051+02801100631ADDAA199000091GF105991031021017501061001MA1999999100121MD1999999-0061REMSYN070AAXX  03184 82198 32797 51405 10305 20280 30012 40063 83260 333 59006;EQDQ01  00002PRCP99
0198821980999992000050400004-01720-045400FM-12+004499999V0200501N002110450019N0020001N1+02581+02381100881ADDAA199000091GF106991031021017501061001KA1240M+03121MA1999999100371MD1999999-0011REMSYN088AAXX  04004 82198 32795 60504 10258 20238 30037 40088 83260 333 10312 29090 55037 59001;EQDQ01  00002PRCP99
0201821980999992000050412004-01720-045400FM-12+004499999V0200501N001010150019N0100001N1+02501+02321100971ADDAA124009991AY161061AY221061GF108991051051017501041001KA1240N+02351MA1999999100461MD1999999-0081MW1031REMSYN088AAXX  04124 82198 21797 80502 10250 20232 30046 40097 70362 85540 333 20235 59008 60104;
0182821980999992000050418004-01720-045400FM-12+004499999V0200501N003110450019N0100001N1+02821+02621100541ADDAA106001091AY151061AY221061GF107991041021017501061001MA1999999100031MD1999999-0091MW1021REMSYN082AAXX  04184 82198 21797 70506 10282 20262 30003 40054 70252 84260 333 59009 69991;
0198821980999992000050500004-01720-045400FM-12+004499999V0200501N002110450019N0020001N1+02581+02531100791ADDAA199000091GF105991031021017501061001KA1240M+02951MA1999999100281MD1999999-0091REMSYN088AAXX  05004 82198 32795 50504 10258 20253 30028 40079 83260 333 10295 29093 55010 59009;EQDQ01  00002PRCP99
0201821980999992000050512004-01720-045400FM-12+004499999V0200901N002110450019N0100001N1+02551+02381100921ADDAA124002091AY161061AY221061GF108991021011017501041001KA1240N+02411MA1999999100411MD1999999-0051MW1031REMSYN088AAXX  05124 82198 21797 80904 10255 20238 30041 40092 70362 82140 333 20241 59005 60024;
0182821980999992000050518004-01720-045400FM-12+004499999V0203601N001010450019N0100001N1+02571+02511100591ADDAA106025991AY161061AY221061GF108991031021017501041001MA1999999100081MD1999999+0051MW1021REMSYN082AAXX  05184 82198 21797 83602 10257 20251 30008 40059 70262 83240 333 58005 60261;
0198821980999992000050600004-01720-045400FM-12+004499999V0200501N002110450019N0020001N1+02501+02451100781ADDAA199000091GF106991021021017501041001KA1240M+02971MA1999999100271MD1999999-0011REMSYN088AAXX  06004 82198 32795 60504 10250 20245 30027 40078 82240 333 10297 29095 55009 59001;EQDQ01  00002PRCP99
0201821980999992000050612004-01720-045400FM-12+004499999V0200501N001010450019N0100001N1+02381+02311100921ADDAA124046091AY161061AY221061GF108991041051017501021001KA1240N+02251MA1999999100401MD1999999-0011MW1551REMSYN088AAXX  06124 82198 21797 80502 10238 20231 30040 40092 75562 84520 333 20225 59001 60464;
0182821980999992000050618004-01720-045400FM-12+004499999V0203201N001510450019N0100001N1+02531+02471100711ADDAA106022191AY161061AY221061GF108991031011017501041001MA1999999100201MD1999999+0121MW1021REMSYN082AAXX  06184 82198 21797 83203 10253 20247 30020 40071 70262 83140 333 58012 60221;
0213821980999992000050700004-01720-045400FM-12+004499999V0200901N003110450019N0020001N1+02381+02341100891ADDAA106001091AY161061AY221061GF108991041051017501021001KA1240M+02631MA1999999100381MD1999999+0111MW1021REMSYN100AAXX  07004 82198 21795 80906 10238 20234 30038 40089 70262 84520 333 10263 29097 55000 58011 60011;
0201821980999992000050712004-01720-045400FM-12+004499999V0200501N001510450019N0100001N1+02401+02311100931ADDAA124027991AY161061AY221061GF108991021011017501061001KA1240N+02231MA1999999100421MD1999999+0021MW1011REMSYN088AAXX  07124 82198 21797 80503 10240 20231 30042 40093 70162 82160 333 20223 58002 60284;
0182821980999992000050718004-01720-045400FM-12+004499999V0202701N001510450019N0100001N1+02751+02691100651ADDAA106005191AY161061AY221061GF107991041021017501061001MA1999999100141MD1999999-0061MW1021REMSYN082AAXX  07184 82198 21797 72703 10275 20269 30014 40065 70262 84260 333 59006 60051;
0198821980999992000050800004-01720-045400FM-12+004499999V0200901N000512200019N0020001N1+02581+02551100931ADDAA199000091GF103991031001017501061001KA1240M+03001MA1999999100421MD1999999+0041REMSYN088AAXX  08004 82198 32795 30901 10258 20255 30042 40093 83060 333 10300 29097 55035 58004;EQDQ01  00002PRCP99
0173821980999992000050812004-01720-045400FM-12+004499999V0200501N003110150019N0100001N1+02521+02361101051ADDAA124005191GF108991051071017501061001KA1240N+02411MA1999999100541MD1999999+0121REMSYN082AAXX  08124 82198 22797 80506 10252 20236 30054 40105 85760 333 20241 58012 60054;
0167821980999992000050818004-01720-045400FM-12+004499999V0203601N004110450019N0100001N1+02971+02511100741ADDAA199000091GF107991041021017501011001MA1999999100231MD1999999+0091REMSYN070AAXX  08184 82198 32797 73608 10297 20251 30023 40074 84210 333 58009;EQDQ01  00002PRCP99
0226821980999992000050900004-01720-045400FM-12+004499999V0201401N002110450019N0020001N1+02611+02401101011ADDAA199000091AY121061AY221061GF107991041021017501031001KA1240M+03111MA1999999100501MD1999999+0081MW1131REMSYN094AAXX  09004 82198 31795 71404 10261 20240 30050 40101 71322 84230 333 10311 29086 55049 58008;EQDQ01  00002PRCP99
0186821980999992000050912004-01720-045400FM-12+004499999V0209999C000010450019N0100001N1+02511+02311101171ADDAA199000091GF107991041051017501041061KA1240N+02281MA1999999100661MD1999999+0121REMSYN076AAXX  09124 82198 32797 70000 10251 20231 30066 40117 84546 333 20228 58012;EQDQ01  00002PRCP99
0182821980999992000050918004-01720-045400FM-12+004499999V0203601N002110450019N0100001N1+02681+02541100921ADDAA106022191AY161061AY221061GF106991041071017501061041MA1999999100411MD1999999+0181MW1021REMSYN082AAXX  09184 82198 21797 63604 10268 20254 30041 40092 70262 84764 333 58018 60221;
0226821980999992000051000004-01720-045400FM-12+004499999V0200501N001010450019N0020001N1+02471+02301101141ADDAA199000091AY121061AY221061GF108991031021017501061011KA1240M+03071MA1999999100631MD1999999+0131MW1131REMSYN094AAXX  10004 82198 31795 80502 10247 20230 30063 40114 71322 83261 333 10307 29092 55042 58013;EQDQ01  00002PRCP99
0201821980999992000051012004-01720-045400FM-12+004499999V0200501N002611050019N0100001N1+02711+02481101241ADDAA124025991AY161061AY221061GF105991021021017501041041KA1240N+02311MA1999999100721MD1999999+0061MW1011REMSYN088AAXX  10124 82198 21797 50505 10271 20248 30072 40124 70162 82244 333 20231 58006 60264;
0213821980999992000051100004-01720-045400FM-12+004499999V0200901N002112200019N0020001N1+02591+02481101141ADDAA106002091AY161061AY221061GF102991011021017501001011KA1240M+03181MA1999999100631MD1999999+0001MW1131REMSYN100AAXX  11004 82198 21795 20904 10259 20248 30063 40114 71362 81201 333 10318 29088 55082 58000 60021;
0173821980999992000051112004-01720-045400FM-12+004499999V0209999C000012200019N0100001N1+02581+02491101131ADDAA124007191GF103991021021017501041011KA1240N+02301MA1999999100621MD1999999-0101REMSYN082AAXX  11124 82198 22797 30000 10258 20249 30062 40113 82241 333 20230 59010 60074;
0182821980999992000051118004-01720-045400FM-12+004499999V0203601N002610450019N0100001N1+02641+02481100841ADDAA106033091AY161061AY221061GF108991041071017501021001MA1999999100331MD1999999-0151MW1031REMSYN082AAXX  11184 82198 21797 83605 10264 20248 30033 40084 70362 84720 333 59015 60331;
0213821980999992000051200004-01720-045400FM-12+004499999V0200501N003111050019N0020001N1+02571+02481100941ADDAA106007191AY161061AY221061GF106991021021017501011041KA1240M+03081MA1999999100431MD1999999-0201MW1131REMSYN100AAXX  12004 82198 21795 60506 10257 20248 30043 40094 71362 82214 333 10308 29093 55050 59020 60071;
0173821980999992000051212004-01720-045400FM-12+004499999V0209999C000011050019N0100001N1+02731+02481101051ADDAA124039991GF105991021021017501011011KA1240N+02411MA1999999100541MD1999999-0081REMSYN082AAXX  12124 82198 22797 50000 10273 20248 30054 40105 82211 333 20241 59008 60404;
0182821980999992000051218004-01720-045400FM-12+004499999V0200501N002610150019N0100001N1+02491+02241100821ADDAA106009991AY161061AY221061GF108991061051017501011001MA1999999100301MD1999999-0031MW1031REMSYN082AAXX  12184 82198 21797 80505 10249 20224 30030 40082 70362 86510 333 59003 60101;
0213821980999992000051300004-01720-045400FM-12+004499999V0201401N001510450019N0020001N1+02411+02351100961ADDAA106003091AY161061AY221061GF108991041051017501011001KA1240M+02971MA1999999100441MD1999999+0011MW1131REMSYN100AAXX  13004 82198 21795 81403 10241 20235 30044 40096 71362 84510 333 10297 29093 55011 58001 60031;
0201821980999992000051312004-01720-045400FM-12+004499999V0202301N000510450019N0100001N1+02471+02301101081ADDAA124025991AY161061AY221061GF106991031011017501041041KA1240N+02261MA1999999100561MD1999999+0021MW1011REMSYN088AAXX  13124 82198 21797 62301 10247 20230 30056 40108 70162 83144 333 20226 58002 60264;
0182821980999992000051318004-01720-045400FM-12+004499999V0202701N000510150019N0100001N1+02541+02381100991ADDAA106005191AY161061AY221061GF108991061051017501011001MA1999999100371MD1999999+0071MW1031REMSYN082AAXX  13184 82198 21797 82701 10254 20238 30037 40099 70362 86510 333 58007 60051;
0192821980999992000051412004-01720-045400FM-12+004499999V0201401N001512200019N0100001N1+02621+02441101091ADDAA124005191GF103991999011017501001001KA1240N+02241MA1999999100571MD1999999+0011REMSYN082AAXX  14124 82198 22797 31403 10262 20244 30057 40109 82100 333 20224 58001 60054;EQDQ01+000022SCOTLC
0182821980999992000051418004-01720-045400FM-12+004499999V0200501N004610450019N0100001N1+02951+02461100771ADDAA106000591AY161061AY251061GF108991041071017501021001MA1999999100261MD1999999-0111MW1201REMSYN082AAXX  14184 82198 21797 80509 10295 20246 30026 40077 72065 84720 333 59011 69941;
0201821980999992000051512004-01720-045400FM-12+004499999V0200501N002610450019N0100001N1+02521+02331100941ADDAA124017091AY151061AY221061GF108991021011017501061001KA1240N+02311MA1999999100431MD1999999-0141MW1021REMSYN088AAXX  15124 82198 21797 80505 10252 20233 30043 40094 70252 82160 333 20231 59014 60174;
0167821980999992000051518004-01720-045400FM-12+004499999V0200501N002610450019N0100001N1+02771+02421100591ADDAA199000091GF107991031021017501061001MA1999999100081MD1999999-0181REMSYN070AAXX  15184 82198 32797 70505 10277 20242 30008 40059 83260 333 59018;EQDQ01  00002PRCP99
0198821980999992000051600004-01720-045400FM-12+004499999V0200901N001010450019N0020001N1+02571+02331100831ADDAA199000091GF107991031021017501041001KA1240M+02951MA1999999100321MD1999999-0261REMSYN088AAXX  16004 82198 32795 70902 10257 20233 30032 40083 83240 333 10295 29085 55016 59026;EQDQ01  00002PRCP99
0201821980999992000051612004-01720-045400FM-12+004499999V0201401N001510450019N0100001N1+02421+02171100931ADDAA124007191AY161061AY221061GF108991041071017501041001KA1240N+02311MA1999999100421MD1999999-0011MW1021REMSYN088AAXX  16124 82198 21797 81403 10242 20217 30042 40093 70262 84740 333 20231 59001 60074;
0182821980999992000051618004-01720-045400FM-12+004499999V0200501N000510150019N0100001N1+02651+02351100641ADDAA106003091AY161061AY221061GF108991051071017501041001MA1999999100131MD1999999+0051MW1021REMSYN082AAXX  16184 82198 21797 80501 10265 20235 30013 40064 70262 85740 333 58005 60031;
0198821980999992000051700004-01720-045400FM-12+004499999V0201401N001510450019N0020001N1+02581+02371100871ADDAA199000091GF106991031021017501061001KA1240M+02911MA1999999100361MD1999999+0041REMSYN088AAXX  17004 82198 32795 61403 10258 20237 30036 40087 83260 333 10291 29086 55005 58004;EQDQ01  00002PRCP99
0201821980999992000051712004-01720-045400FM-12+004499999V0200901N001510450019N0100001N1+02621+02301100991ADDAA124008991AY161061AY221061GF106991021021017501061001KA1240N+02301MA1999999100481MD1999999+0061MW1021REMSYN088AAXX  17124 82198 21797 60903 10262 20230 30048 40099 70262 82260 333 20230 58006 60094;
0182821980999992000051718004-01720-045400FM-12+004499999V0202701N001010150019N0100001N1+02541+02271100681ADDAA106047091AY161061AY221061GF108991051051017501041001MA1999999100161MD1999999+0031MW1021REMSYN082AAXX  17184 82198 21797 82702 10254 20227 30016 40068 70262 85540 333 58003 60471;
0213821980999992000051800004-01720-045400FM-12+004499999V0201801N001510150019N0020001N1+02381+02151101071ADDAA106021191AY161061AY221061GF108991051051017501021001KA1240M+02881MA1999999100561MD1999999+0201MW1021REMSYN100AAXX  18004 82198 21795 81803 10238 20215 30056 40107 70262 85520 333 10288 29087 55003 58020 60211;
0173821980999992000051812004-01720-045400FM-12+004499999V0200501N002110450019N0100001N1+02711+02431101071ADDAA124069191GF106991031021017501061011KA1240N+02301MA1999999100561MD1999999+0081REMSYN082AAXX  18124 82198 22797 60504 10271 20243 30056 40107 83261 333 20230 58008 60694;
0182821980999992000051818004-01720-045400FM-12+004499999V0200501N006210450019N0100001N1+02571+02271100751ADDAA106005191AY161061AY221061GF106991031051017501061001MA1999999100241MD1999999+0081MW1021REMSYN082AAXX  18184 82198 21797 60512 10257 20227 30024 40075 70262 83560 333 58008 60051;
0198821980999992000051900004-01720-045400FM-12+004499999V0200501N002110450019N0020001N1+02581+02351101011ADDAA199000091GF106991041021017501061001KA1240M+03131MA1999999100501MD1999999-0061REMSYN088AAXX  19004 82198 32795 60504 10258 20235 30050 40101 84260 333 10313 29085 55053 59006;EQDQ01  00002PRCP99
0201821980999992000051912004-01720-045400FM-12+004499999V0200501N001010450019N0100001N1+02541+02251101151ADDAA124006191AY161061AY221061GF106991041021017501061001KA1240N+02281MA1999999100641MD1999999+0081MW1021REMSYN088AAXX  19124 82198 21797 60502 10254 20225 30064 40115 70262 84260 333 20228 58008 60064;
0182821980999992000051918004-01720-045400FM-12+004499999V0200901N003110150019N0100001N1+02451+02211100861ADDAA106024991AY161061AY221061GF108991051051017501041001MA1999999100351MD1999999+0111MW1031REMSYN082AAXX  19184 82198 21797 80906 10245 20221 30035 40086 70362 85540 333 58011 60251;
0198821980999992000052000004-01720-045400FM-12+004499999V0200501N002112200019N0020001N1+02521+02311101051ADDAA199000091GF103991031021017501001001KA1240M+02911MA1999999100541MD1999999+0041REMSYN088AAXX  20004 82198 32795 30504 10252 20231 30054 40105 83200 333 10291 29087 55032 58004;EQDQ01  00002PRCP99
0173821980999992000052012004-01720-045400FM-12+004499999V0200501N003112200019N0100001N1+02621+02311101211ADDAA124024991GF103991011011017501061001KA1240N+02241MA1999999100701MD1999999+0061REMSYN082AAXX  20124 82198 22797 30506 10262 20231 30070 40121 81160 333 20224 58006 60254;
0182821980999992000052018004-01720-045400FM-12+004499999V0201401N005110450019N0100001N1+02521+02231100881ADDAA106018091AY161061AY221061GF108991041051017501041001MA1999999100371MD1999999+0021MW1031REMSYN082AAXX  20184 82198 21797 81410 10252 20223 30037 40088 70362 84540 333 58002 60181;
0213821980999992000052100004-01720-045400FM-12+004499999V0200501N002612200019N0020001N1+02541+02291101081ADDAA106000391AY151061AY221061GF104991021021017501061001KA1240M+03131MA1999999100571MD1999999+0031MW1011REMSYN100AAXX  21004 82198 21795 40505 10254 20229 30057 40108 70152 82260 333 10313 29085 55074 58003 69931;
0173821980999992000052112004-01720-045400FM-12+004499999V0200501N003110150019N0100001N1+02871+02501101171ADDAA124018091GF106991061021017501001001KA1240N+02441MA1999999100661MD1999999-0041REMSYN082AAXX  21124 82198 22797 60506 10287 20250 30066 40117 86200 333 20244 59004 60184;
0182821980999992000052118004-01720-045400FM-12+004499999V0202301N002610150019N0100001N1+02521+02211101011ADDAA106010991AY161061AY221061GF108991051051017501021001MA1999999100501MD1999999+0131MW1031REMSYN082AAXX  21184 82198 21797 82305 10252 20221 30050 40101 70362 85520 333 58013 60111;
0223821980999992000052200004-01720-045400FM-12+004499999V0200501N003612200019N0020001N1+02521+02271101181ADDAA106006191AY161061AY221061GA1001+999999999GF100991001001999999001001KA1240M+03091MA1999999100671MD1999999-0101MW1011REMSYN094AAXX  22004 82198 21795 00507 10252 20227 30067 40118 70162 333 10309 29084 55041 59010 60061;
0173821980999992000052212004-01720-045400FM-12+004499999V0200901N002612200019N0100001N1+02781+02561101331ADDAA124017091GF104991021021017501011011KA1240N+02411MA1999999100821MD1999999+0161REMSYN082AAXX  22124 82198 22797 40905 10278 20256 30082 40133 82211 333 20241 58016 60174;
0186821980999992000052312004-01720-045400FM-12+004499999V0200501N002111050019N0100001N1+02831+02441101361ADDAA199000091GF105991021021017501011011KA1240N+02451MA1999999100851MD1999999+0031REMSYN076AAXX  23124 82198 32797 50504 10283 20244 30085 40136 82211 333 20245 58003;EQDQ01  00002PRCP99
0167821980999992000052318004-01720-045400FM-12+004499999V0200901N005110450019N0100001N1+03011+02341101101ADDAA199000091GF106991041021017501041041MA1999999100581MD1999999+0041REMSYN070AAXX  23184 82198 32797 60910 10301 20234 30058 40110 84244 333 58004;EQDQ01  00002PRCP99
0208821980999992000052400004-01720-045400FM-12+004499999V0200901N003112200019N0020001N1+02611+02401101191ADDAA199000091GA1001+999999999GF100991001001999999001001KA1240M+03131MA1999999100681MD1999999-0081REMSYN082AAXX  24004 82198 32995 00906 10261 20240 30068 40119 333 10313 29082 55082 59008;EQDQ01  00002PRCP99
0186821980999992000052412004-01720-045400FM-12+004499999V0200901N002111050019N0100001N1+02751+02581101291ADDAA199000091GF105991021021017501041011KA1240N+02381MA1999999100781MD1999999-0071REMSYN076AAXX  24124 82198 32797 50904 10275 20258 30078 40129 82241 333 20238 59007;EQDQ01  00002PRCP99
0182821980999992000052418004-01720-045400FM-12+004499999V0200501N001510450019N0100001N1+02591+02501101011ADDAA106010991AY161061AY221061GF106991021021017501061011MA1999999100491MD1999999-0091MW1031REMSYN082AAXX  24184 82198 21797 60503 10259 20250 30049 40101 70362 82261 333 59009 60111;
0198821980999992000052500004-01720-045400FM-12+004499999V0200501N002610450019N0020001N1+02621+02551101151ADDAA199000091GF106991041021017501061001KA1240M+03051MA1999999100641MD1999999-0041REMSYN088AAXX  25004 82198 32795 60505 10262 20255 30064 40115 84260 333 10305 29094 55068 59004;EQDQ01  00002PRCP99
0173821980999992000052512004-01720-045400FM-12+004499999V0200901N002110450019N0100001N1+02741+02621101161ADDAA124010991GF106991031011017501031041KA1240N+02431MA1999999100641MD1999999-0141REMSYN082AAXX  25124 82198 22797 60904 10274 20262 30064 40116 83134 333 20243 59014 60114;
0182821980999992000052518004-01720-045400FM-12+004499999V0200501N002610450019N0100001N1+02781+02391100881ADDAA106000191AY161061AY221061GF106991041021017501061001MA1999999100361MD1999999-0131MW1021REMSYN082AAXX  25184 82198 21797 60505 10278 20239 30036 40088 70262 84260 333 59013 69921;
0198821980999992000052600004-01720-045400FM-12+004499999V0200901N002112200019N0020001N1+02621+02461101101ADDAA199000091GF102991021011017501001001KA1240M+03061MA1999999100581MD1999999-0061REMSYN088AAXX  26004 82198 32795 20904 10262 20246 30058 40110 82100 333 10306 29090 55045 59006;EQDQ01  00002PRCP99
0173821980999992000052612004-01720-045400FM-12+004499999V0201401N002110450019N0100001N1+02651+02421101091ADDAA124000191GF107991041051017501061011KA1240N+02431MA1999999100571MD1999999-0071REMSYN082AAXX  26124 82198 22797 71404 10265 20242 30057 40109 84561 333 20243 59007 69924;
0167821980999992000052618004-01720-045400FM-12+004499999V0201401N003110150019N0100001N1+02911+02481100851ADDAA199000091GF108991051071017501061011MA1999999100331MD1999999-0031REMSYN070AAXX  26184 82198 32797 81406 10291 20248 30033 40085 85761 333 59003;EQDQ01  00002PRCP99
0213821980999992000052700004-01720-045400FM-12+004499999V0201801N002610450019N0020001N1+02501+02361101061ADDAA106010991AY161061AY221061GF106991041051017501061001KA1240M+03031MA1999999100541MD1999999-0041MW1021REMSYN100AAXX  27004 82198 21795 61805 10250 20236 30054 40106 70262 84560 333 10303 29088 55029 59004 60111;
0173821980999992000052712004-01720-045400FM-12+004499999V0200501N001512200019N0100001N1+02751+02601100981ADDAA124001091GF106991031011017501001061KA1240N+02351MA1999999100471MD1999999-0101REMSYN082AAXX  27124 82198 22797 60503 10275 20260 30047 40098 83106 333 20235 59010 60014;
0182821980999992000052718004-01720-045400FM-12+004499999V0201401N001510450019N0100001N1+02881+02581100651ADDAA106005191AY161061AY221061GF108991041071017501061061MA1999999100131MD1999999-0201MW1031REMSYN082AAXX  27184 82198 21797 81403 10288 20258 30013 40065 70362 84766 333 59020 60051;
0226821980999992000052800004-01720-045400FM-12+004499999V0200901N001512200019N0020001N1+02581+02511100951ADDAA199000091AY121061AY211061GF103991031021017501001001KA1240M+03051MA1999999100431MD1999999-0111MW1131REMSYN094AAXX  28004 82198 31795 30903 10258 20251 30043 40095 71321 83200 333 10305 29091 55035 59011;EQDQ01  00002PRCP99
0182821980999992000052818004-01720-045400FM-12+004499999V0202701N001510450019N0100001N1+02511+02411100691ADDAA106011991AY161061AY221061GF108991041051017501041041MA1999999100171MD1999999+0041MW1031REMSYN082AAXX  28184 82198 21797 82703 10251 20241 30017 40069 70362 84544 333 58004 60121;
0198821980999992000052900004-01720-045400FM-12+004499999V0200501N003112200019N0020001N1+02561+02441100871ADDAA199000091GF102991021021017501001001KA1240M+03151MA1999999100351MD1999999-0081REMSYN088AAXX  29004 82198 32795 20506 10256 20244 30035 40087 82200 333 10315 29094 55042 59008;EQDQ01  00002PRCP99
0173821980999992000052912004-01720-045400FM-12+004499999V0200501N002610450019N0100001N1+02771+02541100931ADDAA124011991GF105991031021017501061001KA1240N+02421MA1999999100421MD1999999-0021REMSYN082AAXX  29124 82198 22797 50505 10277 20254 30042 40093 83260 333 20242 59002 60124;
0167821980999992000052918004-01720-045400FM-12+004499999V0200501N006210450019N0100001N1+02941+02561100541ADDAA199000091GF106991041021017501061001MA1999999100031MD1999999-0141REMSYN070AAXX  29184 82198 32797 60512 10294 20256 30003 40054 84260 333 59014;EQDQ01  00002PRCP99
0198821980999992000053000004-01720-045400FM-12+004499999V0200901N002612200019N0020001N1+02621+02371100841ADDAA199000091GF103991031001017501061001KA1240M+03181MA1999999100331MD1999999-0021REMSYN088AAXX  30004 82198 32795 30905 10262 20237 30033 40084 83060 333 10318 29085 55057 59002;EQDQ01  00002PRCP99
0186821980999992000053012004-01720-045400FM-12+004499999V0201401N001510150019N0100001N1+02741+02471101051ADDAA199000091GF105991051021017501001001KA1240N+02431MA1999999100541MD1999999+0121REMSYN076AAXX  30124 82198 32797 51403 10274 20247 30054 40105 85200 333 20243 58012;EQDQ01  00002PRCP99
0182821980999992000053018004-01720-045400FM-12+004499999V0200501N002610450019N0100001N1+02681+02371100731ADDAA106010991AY161061AY221061GF106991041021017501061001MA1999999100221MD1999999+0191MW1021REMSYN082AAXX  30184 82198 21797 60505 10268 20237 30022 40073 70262 84260 333 58019 60111;
0198821980999992000053100004-01720-045400FM-12+004499999V0200901N001512200019N0020001N1+02531+02271100941ADDAA199000091GF102991021021017501001001KA1240M+03031MA1999999100431MD1999999+0101REMSYN088AAXX  31004 82198 32795 20903 10253 20227 30043 40094 82200 333 10303 29085 55041 58010;EQDQ01  00002PRCP99
0201821980999992000053112004-01720-045400FM-12+004499999V0200901N001510150019N0100001N1+02691+02431101051ADDAA124013091AY161061AY211061GF105991051021017501001001KA1240N+02251MA1999999100541MD1999999+0001MW1031REMSYN088AAXX  31124 82198 21797 50903 10269 20243 30054 40105 70361 85200 333 20225 58000 60134;
0182821980999992000053118004-01720-045400FM-12+004499999V0201401N001510450019N0100001N1+02551+02251100781ADDAA106014091AY161061AY221061GF107991041021017501041011MA1999999100271MD1999999+0051MW1031REMSYN082AAXX  31184 82198 21797 71403 10255 20225 30027 40078 70362 84241 333 58005 60141;
0198821980999992000060100004-01720-045400FM-12+004499999V0200501N002112200019N0020001N1+02521+02391100951ADDAA199000091GF103991031001017501061001KA1240M+03011MA1999999100441MD1999999+0011REMSYN088AAXX  01004 82198 32795 30504 10252 20239 30044 40095 83060 333 10301 29086 55041 58001;EQDQ01  00002PRCP99
0173821980999992000060112004-01720-045400FM-12+004499999V0200901N003610150019N0100001N1+02851+02581101071ADDAA124014091GF105991051021017501001001KA1240N+02371MA1999999100561MD1999999+0021REMSYN082AAXX  01124 82198 22797 50907 10285 20258 30056 40107 85200 333 20237 58002 60144;
0167821980999992000060118004-01720-045400FM-12+004499999V02099999999990150019N0100001N1+03061+02631100751ADDAA199000091GF105991051021017501001001MA1999999100241MD1999999-0031REMSYN070AAXX  01184 82198 32797 5//// 10306 20263 30024 40075 85200 333 59003;EQDQ01  00002PRCP99
0208821980999992000060200004-01720-045400FM-12+004499999V02099999999992200019N0020001N1+02591+02331100941ADDAA199000091GA1001+999999999GF100991001001999999001001KA1240M+03101MA1999999100431MD1999999-0011REMSYN082AAXX  02004 82198 32995 0//// 10259 20233 30043 40094 333 10310 29084 55096 59001;EQDQ01  00002PRCP99
0186821980999992000060212004-01720-045400FM-12+004499999V02099999999992200019N0100001N1+02831+02501101121ADDAA199000091GF103991021021017501001011KA1240N+02261MA1999999100601MD1999999+0041REMSYN076AAXX  02124 82198 32797 3//// 10283 20250 30060 40112 82201 333 20226 58004;EQDQ01  00002PRCP99
0182821980999992000060218004-01720-045400FM-12+004499999V02099999999992200019N0100001N1+02701+02331100831ADDAA106000391AY151061AY221061GF105991031021017501001011MA1999999100321MD1999999+0081MW1031REMSYN082AAXX  02184 82198 21797 5//// 10270 20233 30032 40083 70352 83201 333 58008 69931;
0208821980999992000060300004-01720-045400FM-12+004499999V02099999999992200019N0020001N1+02591+02331101001ADDAA199000091GA1001+999999999GF100991001001999999001001KA1240M+03171MA1999999100491MD1999999+0061REMSYN082AAXX  03004 82198 32995 0//// 10259 20233 30049 40100 333 10317 29083 55093 58006;EQDQ01  00002PRCP99
0173821980999992000060312004-01720-045400FM-12+004499999V02099999999992200019N0100001N1+02711+02371101131ADDAA124000391GF103991031011017501001001KA1240N+02281MA1999999100621MD1999999+0021REMSYN082AAXX  03124 82198 22797 3//// 10271 20237 30062 40113 83100 333 20228 58002 69934;
0168821980999992000060318004-01720-045400FM-12+004499999V02099999999990150019N0100001N1+02481+02251100981ADDAA106030091AY161061AY221061GF108991051051017501021001MA1999999100471MW1031REMSYN082AAXX  03184 82198 21797 8//// 10248 20225 30047 40098 70362 85520 333 50015 60301;
0208821980999992000060400004-01720-045400FM-12+004499999V02099999999992200019N0020001N1+02441+02261101101ADDAA199000091GA1001+999999999GF100991001001999999001001KA1240M+03211MA1999999100591MD1999999+0101REMSYN082AAXX  04004 82198 32995 0//// 10244 20226 30059 40110 333 10321 29087 55061 58010;EQDQ01  00002PRCP99
0173821980999992000060412004-01720-045400FM-12+004499999V02099999999990450019N0100001N1+02471+02231101291ADDAA124030091GF105991031021017501061001KA1240N+02231MA1999999100771MD1999999+0151REMSYN082AAXX  04124 82198 22797 5//// 10247 20223 30077 40129 83260 333 20223 58015 60304;
0182821980999992000060418004-01720-045400FM-12+004499999V02099999999990450019N0100001N1+02631+02211100991ADDAA106010991AY161061AY221061GF105991021021017501061001MA1999999100481MD1999999+0011MW1021REMSYN082AAXX  04184 82198 21797 5//// 10263 20221 30048 40099 70262 82260 333 58001 60111;
0208821980999992000060500004-01720-045400FM-12+004499999V02099999999992200019N0020001N1+02551+02231101151ADDAA199000091GA1001+999999999GF100991001001999999001001KA1240M+03181MA1999999100641MD1999999+0051REMSYN082AAXX  05004 82198 32995 0//// 10255 20223 30064 40115 333 10318 29082 55062 58005;EQDQ01  00002PRCP99
0173821980999992000060512004-01720-045400FM-12+004499999V02099999999990450019N0100001N1+02611+02501101221ADDAA124009991GF106991031021017501011041KA1240N+02371MA1999999100701MD1999999-0071REMSYN082AAXX  05124 82198 21797 6//// 10261 20250 30070 40122 83214 333 20237 59007 60104;
0167821980999992000060518004-01720-045400FM-12+004499999V02099999999990450019N0100001N1+02911+02271101021ADDAA199000091GF106991041021017501061001MA1999999100501MD1999999+0021REMSYN070AAXX  05184 82198 32797 6//// 10291 20227 30050 40102 84260 333 58002;EQDQ01  00002PRCP99
0208821980999992000060600004-01720-045400FM-12+004499999V02099999999992200019N0020001N1+02571+02351101141ADDAA199000091GA1001+999999999GF100991001001999999001001KA1240M+03361MA1999999100621MD1999999-0021REMSYN082AAXX  06004 82198 32995 0//// 10257 20235 30062 40114 333 10336 29084 55070 59002;EQDQ01  00002PRCP99
0186821980999992000060612004-01720-045400FM-12+004499999V02099999999992200019N0100001N1+02671+02441101211ADDAA199000091GF102991011011017501011001KA1240N+02351MA1999999100691MD1999999-0011REMSYN076AAXX  06124 82198 32797 2//// 10267 20244 30069 40121 81110 333 20235 59001;EQDQ01  00002PRCP99
0167821980999992000060618004-01720-045400FM-12+004499999V02099999999990150019N0100001N1+03061+02381101001ADDAA199000091GF105991051021017501001001MA1999999100481MD1999999-0021REMSYN070AAXX  06184 82198 32797 5//// 10306 20238 30048 40100 85200 333 59002;EQDQ01  00002PRCP99
0208821980999992000060700004-01720-045400FM-12+004499999V02099999999992200019N0020001N1+02651+02231101151ADDAA199000091GA1001+999999999GF100991001001999999001001KA1240M+03111MA1999999100631MD1999999+0011REMSYN082AAXX  07004 82198 32995 0//// 10265 20223 30063 40115 333 10311 29080 55104 58001;EQDQ01  00002PRCP99
0186821980999992000060712004-01720-045400FM-12+004499999V02099999999992200019N0100001N1+02571+02461101191ADDAA199000091GF103991021011017501001011KA1240N+02241MA1999999100671MD1999999-0021REMSYN076AAXX  07124 82198 32797 3//// 10257 20246 30067 40119 82101 333 20224 59002;EQDQ01  00002PRCP99
0167821980999992000060718004-01720-045400FM-12+004499999V02099999999992200019N0100001N1+03101+02291100911ADDAA199000091GF105991021021017501001011MA1999999100391MD1999999-0091REMSYN070AAXX  07184 82198 32797 5//// 10310 20229 30039 40091 82201 333 59009;EQDQ01  00002PRCP99
0213821980999992000060800004-01720-045400FM-12+004499999V02099999999990150019N0020001N1+02591+02441101121ADDAA106010991AY161061AY221061GF105991051021017501001001KA1240M+03061MA1999999100601MD1999999-0031MW1131REMSYN100AAXX  08004 82198 21795 5//// 10259 20244 30060 40112 71362 85200 333 10306 29084 55101 59003 60111;
0173821980999992000060812004-01720-045400FM-12+004499999V02099999999992200019N0100001N1+02711+02431101231ADDAA124010991GF102991011011017501041001KA1240N+02381MA1999999100711MD1999999+0041REMSYN082AAXX  08124 82198 22797 2//// 10271 20243 30071 40123 81140 333 20238 58004 60114;
0167821980999992000060818004-01720-045400FM-12+004499999V02099999999990450019N0100001N1+03051+02461101021ADDAA199000091GF106991031021017501061001MA1999999100501MD1999999+0051REMSYN070AAXX  08184 82198 32797 6//// 10305 20246 30050 40102 83260 333 58005;EQDQ01  00002PRCP99
0213821980999992000060900004-01720-045400FM-12+004499999V02099999999990450019N0020001N1+02581+02361101191ADDAA106005191AY161061AY221061GF106991041021017501011011KA1240M+03071MA1999999100671MD1999999+0071MW1131REMSYN100AAXX  09004 82198 21795 6//// 10258 20236 30067 40119 71362 84211 333 10307 29086 55078 58007 60051;
0173821980999992000060912004-01720-045400FM-12+004499999V02099999999992200019N0100001N1+02671+02461101221ADDAA124005191GF104991021051017501021001KA1240N+02341MA1999999100701MD1999999-0011REMSYN082AAXX  09124 82198 22797 4//// 10267 20246 30070 40122 82520 333 20234 59001 60054;
0182821980999992000060918004-01720-045400FM-12+004499999V02099999999990450019N0100001N1+02521+02431101011ADDAA106030091AY161061AY221061GF107991031071017501061011MA1999999100491MD1999999-0011MW1031REMSYN082AAXX  09184 82198 21797 7//// 10252 20243 30049 40101 70362 83761 333 59001 60301;
0213821980999992000061000004-01720-045400FM-12+004499999V02099999999990450019N0020001N1+02531+02361101231ADDAA106000191AY151061AY221061GF108991041021017501011001KA1240M+03161MA1999999100711MD1999999+0041MW1131REMSYN100AAXX  10004 82198 21795 8//// 10253 20236 30071 40123 71352 84210 333 10316 29092 55061 58004 69911;
0173821980999992000061012004-01720-045400FM-12+004499999V02099999999991050019N0100001N1+02531+02361101211ADDAA124030091GF105991021011017501031011KA1240N+02381MA1999999100691MD1999999-0011REMSYN082AAXX  10124 82198 22797 5//// 10253 20236 30069 40121 82131 333 20238 59001 60304;
0182821980999992000061018004-01720-045400FM-12+004499999V02099999999990450019N0100001N1+02621+02421100881ADDAA106002091AY161061AY221061GF107991041021017501061011MA1999999100361MD1999999-0131MW1031REMSYN082AAXX  10184 82198 21797 7//// 10262 20242 30036 40088 70362 84261 333 59013 60021;
0198821980999992000061100004-01720-045400FM-12+004499999V02099999999992200019N0100001N1+02511+02381101111ADDAA199000091GF106991041021008001001011KA1240M+03061MA1999999100591MD1999999-0121REMSYN088AAXX  11004 82198 32597 6//// 10251 20238 30059 40111 84201 333 10306 29092 55053 59012;EQDQ01  00002PRCP99
0182821980999992000061118004-01720-045400FM-12+004499999V02099999999990450019N0100001N1+02541+02451100961ADDAA106025991AY161061AY221061GF107991031051017501041011MA1999999100441MD1999999+0081MW1031REMSYN082AAXX  11184 82198 21797 7//// 10254 20245 30044 40096 70362 83541 333 58008 60261;
0173821980999992000061212004-01720-045400FM-12+004499999V02099999999992200019N0100001N1+02651+02371101181ADDAA124025991GF103991031021017501001001KA1240N+02351MA1999999100671MD1999999+0011REMSYN082AAXX  12124 82198 22797 3//// 10265 20237 30067 40118 83200 333 20235 58001 60264;
0182821980999992000061218004-01720-045400FM-12+004499999V02099999999990450019N0100001N1+02471+02111100851ADDAA106005191AY161061AY221061GF106991031021017501061011MA1999999100341MD1999999-0101MW1031REMSYN082AAXX  12184 82198 21797 6//// 10247 20211 30034 40085 70362 83261 333 59010 60051;
0198821980999992000061300004-01720-045400FM-12+004499999V02099999999992200019N0020001N1+02541+02311101031ADDAA199000091GF103991031001017501061001KA1240M+03051MA1999999100521MD1999999-0121REMSYN088AAXX  13004 82198 32795 3//// 10254 20231 30052 40103 83060 333 10305 29085 55048 59012;EQDQ01  00002PRCP99
0173821980999992000061312004-01720-045400FM-12+004499999V02099999999990150019N0100001N1+02851+02501101031ADDAA124005191GF105991051021017501001001KA1240N+02381MA1999999100561MD1999999-0151REMSYN082AAXX  13124 82198 22797 5//// 10285 20250 30056 40103 85200 333 20238 59015 60054;
0167821980999992000061318004-01720-045400FM-12+004499999V02099999999992200019N0100001N1+03081+02541100751ADDAA199000091GF103991031021017501001001MA1999999100241MD1999999-0101REMSYN070AAXX  13184 82198 32797 3//// 10308 20254 30024 40075 83200 333 59010;EQDQ01  00002PRCP99
0208821980999992000061400004-01710-045400FM-12+004499999V02099999999992200019N0020001N1+02621+02251100971ADDAA199000091GA1001+999999999GF100991001001999999001001KA1240M+03141MA1999999100461MD1999999-0061REMSYN082AAXX  14004 82198 32995 0//// 10262 20225 30046 40097 333 10314 29079 55096 59006;EQDQ01  00002PRCP99
0186821980999992000061412004-01710-045400FM-12+004499999V02099999999992200019N0100001N1+02621+02251100981ADDAA199000091GF104991021011017501061001KA1240N+02451MA1999999100471MD1999999-0061REMSYN076AAXX  14124 82198 32797 4//// 10262 20225 30047 40098 82160 333 20245 59006;EQDQ01  00002PRCP99
0182821980999992000061418004-01710-045400FM-12+004499999V0201401N001510450019N0100001N1+02741+02321100751ADDAA106017091AY161061AY221061GF106991031021017501061001MA1999999100241MD1999999+0001MW1031REMSYN082AAXX  14184 82198 21797 61403 10274 20232 30024 40075 70362 83260 333 58000 60171;
0198821980999992000061500004-01710-045400FM-12+004499999V0200501N003112200019N0020001N1+02581+02291100931ADDAA199000091GF102991021001017501061001KA1240M+03171MA1999999100421MD1999999-0041REMSYN088AAXX  15004 82198 32795 20506 10258 20229 30042 40093 82060 333 10317 29081 55058 59004;EQDQ01  00002PRCP99
0201821980999992000061512004-01710-045400FM-12+004499999V0201401N001510450019N0100001N1+02461+02211101081ADDAA124023191AY161061AY201061GF108991031011017501041001KA1240N+02221MA1999999100571MD1999999+0101MW1031REMSYN088AAXX  15124 82198 21797 81403 10246 20221 30057 40108 70360 83140 333 20222 58010 60234;
0182821980999992000061518004-01710-045400FM-12+004499999V0200501N004110450019N0100001N1+02941+02491100741ADDAA106003091AY161061AY221061GF105991031021017501061021MA1999999100231MD1999999-0011MW1011REMSYN082AAXX  15184 82198 21797 50508 10294 20249 30023 40074 70162 83262 333 59001 60031;
0223821980999992000061600004-01710-045400FM-12+004499999V0200501N002112200019N0020001N1+02451+02211100921ADDAA106006191AY161061AY221061GA1001+999999999GF100991001001999999001001KA1240M+03001MA1999999100411MD1999999-0011MW1011REMSYN094AAXX  16004 82198 21995 00504 10245 20221 30041 40092 70162 333 10300 29083 55044 59001 60061;
0201821980999992000061612004-01710-045400FM-12+004499999V0201401N002610450019N0100001N1+02591+02251101091ADDAA124008991AY151061AY211061GF106991031021017501061001KA1240N+02351MA1999999100581MD1999999+0011MW1031REMSYN088AAXX  16124 82198 21797 61405 10259 20225 30058 40109 70351 83260 333 20235 58001 60094;
0182821980999992000061618004-01710-045400FM-12+004499999V0200501N004610450019N0100001N1+02701+02331100871ADDAA106003091AY161061AY221061GF108991041021017501041001MA1999999100361MD1999999+0131MW1021REMSYN082AAXX  16184 82198 21797 80509 10270 20233 30036 40087 70262 84240 333 58013 60031;
0173821980999992000061812004-01710-045400FM-12+004499999V0200501N002110450019N0100001N1+02711+02431101071ADDAA124069191GF106991031021017501061011KA1240N+02301MA1999999100561MD1999999+0081REMSYN082AAXX  18124 82198 22797 60504 10271 20243 30056 40107 83261 333 20230 58008 60694;
0167821980999992000061818004-01710-045400FM-12+004499999V0200501N004612200019N0100001N1+02941+02521100781ADDAA199000091GF104991041021017501001001MA1999999100261MD1999999-0081REMSYN070AAXX  18184 82198 32797 40509 10294 20252 30026 40078 84200 333 59008;EQDQ01  00002PRCP99
0201821980999992000061900004-01710-045400FM-12+004499999V0200901N010310150019N0100001N1+02141+02141101371ADDAA124041991AY161061AY221061GF108991051051017501021001KA1240N+02171MA1999999100821MD1999999+0141MW1031REMSYN088AAXX  20124 82198 21797 80920 10214 20214 30082 40137 70362 85520 333 20217 58014 60424;
0186821980999992000061912004-01710-045400FM-12+004499999V0200501N004110150019N0100001N1+02801+02251101201ADDAA199000091GF105991051021017501001001KA1240N+02431MA1999999100681MD1999999+0151REMSYN076AAXX  19124 82198 32797 50508 10280 20225 30068 40120 85200 333 20243 58015;EQDQ01  00002PRCP99
0167821980999992000061918004-01710-045400FM-12+004499999V0203601N004110450019N0100001N1+03021+02481101011ADDAA199000091GF107991041021017501061001MA1999999100491MD1999999+0231REMSYN070AAXX  19184 82198 32797 73608 10302 20248 30049 40101 84260 333 58023;EQDQ01  00002PRCP99
0213821980999992000062000004-01710-045400FM-12+004499999V0203601N002610450019N0020001N1+02591+02331101181ADDAA106014091AY161061AY221061GF105991021021017501061001KA1240M+03161MA1999999100661MD1999999+0211MW1131REMSYN100AAXX  20004 82198 21795 53605 10259 20233 30066 40118 71362 82260 333 10316 29078 55086 58021 60141;
0182821980999992000062018004-01710-045400FM-12+004499999V0200501N002610450019N0100001N1+02771+02421101131ADDAA106000191AY161061AY221061GF108991041051017501011001MA1999999100611MD1999999+0121MW1021REMSYN082AAXX  20184 82198 21797 80505 10277 20242 30061 40113 70262 84510 333 58012 69921;
0198821980999992000062100004-01710-045400FM-12+004499999V0200501N002110150019N0020001N1+02531+02361101211ADDAA199000091GF105991051021017501001001KA1240M+02811MA1999999100691MD1999999+0031REMSYN088AAXX  21004 82198 32795 50504 10253 20236 30069 40121 85200 333 10281 29088 55021 58003;EQDQ01  00002PRCP99
0167821980999992000062118004-01710-045400FM-12+004499999V0203601N005710450019N0100001N1+02931+02251101051ADDAA199000091GF106991041021017501061011MA1999999100531MD1999999-0081REMSYN070AAXX  21184 82198 32797 63611 10293 20225 30053 40105 84261 333 59008;EQDQ01  00002PRCP99
0226821980999992000062200004-01710-045400FM-12+004499999V0200501N002612200019N0020001N1+02581+02381101201ADDAA199000091AY121061AY211061GF104991041021017501001001KA1240M+03111MA1999999100681MD1999999-0011MW1131REMSYN094AAXX  22004 82198 31795 40505 10258 20238 30068 40120 71321 84200 333 10311 29083 55101 59001;EQDQ01  00002PRCP99
0186821980999992000062212004-01710-045400FM-12+004499999V0200501N003612200019N0100001N1+02721+02431101091ADDAA199000091GF104991041021017501001001KA1240N+02261MA1999999100571MD1999999-0161REMSYN076AAXX  22124 82198 32797 40507 10272 20243 30057 40109 84200 333 20226 59016;EQDQ01  00002PRCP99
0167821980999992000062218004-01710-045400FM-12+004499999V0200501N005112200019N0100001N1+03061+02381100951ADDAA199000091GF104991041021017501001001MA1999999100431MD1999999-0101REMSYN070AAXX  22184 82198 32797 40510 10306 20238 30043 40095 84200 333 59010;EQDQ01  00002PRCP99
0208821980999992000062300004-01710-045400FM-12+004499999V0200501N003112200019N0020001N1+02611+02391101071ADDAA199000091GA1001+999999999GF100991001001999999001001KA1240M+03121MA1999999100551MD1999999-0131REMSYN082AAXX  23004 82198 32995 00506 10261 20239 30055 40107 333 10312 29082 55012 59013;EQDQ01  00002PRCP99
0202821980999992000062312004-01710-045400FM-12+004499999V0200501N004112200019N0100001N1+02881+02481101111ADDAA199000091GF103991999021017501001001KA1240N+02421MA1999999100591MD1999999-0021REMSYN076AAXX  23124 82198 32797 30508 10288 20248 30059 40111 85200 333 20242 59002;EQDQ01+000052SCOTLCQ02  00002PRCP99
0167821980999992000062318004-01710-045400FM-12+004499999V0200901N004110150019N0100001N1+03051+02461100861ADDAA199000091GF105991051021017501001001MA1999999100341MD1999999-0091REMSYN070AAXX  23184 82198 32797 50908 10305 20246 30034 40086 85200 333 59009;EQDQ01  00002PRCP99
0223821980999992000062400004-01710-045400FM-12+004499999V0200501N002612200019N0020001N1+02611+02441101051ADDAA106002091AY161061AY221061GA1001+999999999GF100991001001999999001001KA1240M+03131MA1999999100551MD1999999-0021MW1131REMSYN094AAXX  24004 82198 21995 00505 10261 20244 30055 40105 71362 333 10313 29084 55092 59002 60021;
0201821980999992000062412004-01710-045400FM-12+004499999V0200901N003112200019N0100001N1+02691+02531101121ADDAA124004191AY161061AY221061GF107991031021017501001041KA1240N+02401MA1999999100601MD1999999+0011MW1031REMSYN088AAXX  24124 82198 21797 70906 10269 20253 30060 40112 70362 83204 333 20240 58001 60044;
0182821980999992000062418004-01710-045400FM-12+004499999V0200901N003610150019N0100001N1+02991+02491100831ADDAA106000191AY161061AY251061GF106991061021017501001001MA1999999100311MD1999999-0031MW1011REMSYN082AAXX  24184 82198 21797 60907 10299 20249 30031 40083 70165 86200 333 59003 69911;
0173821980999992000062512004-01710-045400FM-12+004499999V0200901N002112200019N0100001N1+02811+02541101051ADDAA124000191GF103991021021017501001011KA1240N+02461MA1999999100531MD1999999-0071REMSYN082AAXX  25124 82198 22797 30904 10281 20254 30053 40105 82201 333 20246 59007 69914;
0167821980999992000062518004-01710-045400FM-12+004499999V0200901N001510150019N0100001N1+03071+02461100781ADDAA199000091GF106991061021017501001001MA1999999100261MD1999999+0051REMSYN070AAXX  25184 82198 32797 60903 10307 20246 30026 40078 86200 333 58005;EQDQ01  00002PRCP99
0201821980999992000062612004-01710-045400FM-12+004499999V0201401N003112200019N0100001N1+02611+02351101141ADDAA124002091AY161061AY221061GF102991021021017501001001KA1240N+02261MA1999999100631MD1999999+0101MW1011REMSYN088AAXX  26124 82198 21797 21406 10261 20235 30063 40114 70162 82200 333 20226 58010 60024;
0182821980999992000062618004-01710-045400FM-12+004499999V0203601N001510450019N0100001N1+02671+02461100881ADDAA106004191AY161061AY221061GF106991031021017501061001MA1999999100371MD1999999+0111MW1031REMSYN082AAXX  26184 82198 21797 63603 10267 20246 30037 40088 70362 83260 333 58011 60041;
0208821980999992000062700004-01710-045400FM-12+004499999V0200501N002112200019N0020001N1+02541+02361101131ADDAA199000091GA1001+999999999GF100991001001999999001001KA1240M+03071MA1999999100611MD1999999+0121REMSYN082AAXX  27004 82198 32995 00504 10254 20236 30061 40113 333 10307 29088 55065 58012;EQDQ01  00002PRCP99
0173821980999992000062712004-01710-045400FM-12+004499999V0201401N001510150019N0100001N1+02381+02211101281ADDAA124004191GF108991051051017501041001KA1240N+02331MA1999999100761MD1999999+0131REMSYN082AAXX  27124 82198 22797 81403 10238 20221 30076 40128 85540 333 20233 58013 60044;
0182821980999992000062718004-01710-045400FM-12+004499999V0200901N003110450019N0100001N1+02761+02481100941ADDAA106003091AY161061AY221061GF105991031021017501061001MA1999999100431MD1999999+0061MW1011REMSYN082AAXX  27184 82198 21797 50906 10276 20248 30043 40094 70162 83260 333 58006 60031;
0198821980999992000062800004-01710-045400FM-12+004499999V0200901N001512200019N0020001N1+02541+02381101091ADDAA199000091GF104991021011017501061001KA1240M+02951MA1999999100581MD1999999-0031REMSYN088AAXX  28004 82198 32795 40903 10254 20238 30058 40109 82160 333 10295 29089 55042 59003;EQDQ01  00002PRCP99
0173821980999992000062812004-01710-045400FM-12+004499999V0200901N004112200019N0100001N1+02811+02481101151ADDAA124003091GF104991031021017501061001KA1240N+02371MA1999999100641MD1999999-0121REMSYN082AAXX  28124 82198 22797 40908 10281 20248 30064 40115 83260 333 20237 59012 60034;
0167821980999992000062818004-01710-045400FM-12+004499999V0200501N005712200019N0100001N1+03001+02601100891ADDAA199000091GF104991041021017501001001MA1999999100381MD1999999-0111REMSYN070AAXX  28184 82198 32797 40511 10300 20260 30038 40089 84200 333 59011;EQDQ01  00002PRCP99
0208821980999992000062900004-01710-045400FM-12+004499999V0200501N002112200019N0020001N1+02601+02331101031ADDAA199000091GA1001+999999999GF100991001001999999001001KA1240M+03151MA1999999100521MD1999999-0061REMSYN082AAXX  29004 82198 32995 00504 10260 20233 30052 40103 333 10315 29083 55106 59006;EQDQ01  00002PRCP99
0186821980999992000062912004-01710-045400FM-12+004499999V0200501N003610150019N0100001N1+02831+02521101071ADDAA199000091GF105991051021017501001001KA1240N+02441MA1999999100561MD1999999-0081REMSYN076AAXX  29124 82198 32797 50507 10283 20252 30056 40107 85200 333 20244 59008;EQDQ01  00002PRCP99
0182821980999992000062918004-01710-045400FM-12+004499999V0200901N006210450019N0100001N1+02881+02541100711ADDAA106004191AY161061AY221061GF106991031021017501031001MA1999999100201MD1999999-0121MW1031REMSYN082AAXX  29184 82198 21797 60912 10288 20254 30020 40071 70362 83230 333 59012 60041;
0208821980999992000063000004-01710-045400FM-12+004499999V0200501N002612200019N0020001N1+02521+02291101031ADDAA199000091GA1001+999999999GF100991001001999999001001KA1240M+03031MA1999999100521MD1999999+0001REMSYN082AAXX  30004 82198 32995 00505 10252 20229 30052 40103 333 10303 29084 55081 58000;EQDQ01  00002PRCP99
0173821980999992000063012004-01710-045400FM-12+004499999V0201801N001010450019N0100001N1+02521+02351101191ADDAA124004191GF107991021011017501061001KA1240N+02281MA1999999100681MD1999999+0121REMSYN082AAXX  30124 82198 22797 71802 10252 20235 30068 40119 82160 333 20228 58012 60044;
0182821980999992000063018004-01710-045400FM-12+004499999V0200901N004110150019N0100001N1+02841+02531100881ADDAA106002091AY161061AY221061GF108991061051017501041001MA1999999100371MD1999999+0171MW1021REMSYN082AAXX  30184 82198 21797 80908 10284 20253 30037 40088 70262 86540 333 58017 60021;
0208821980999992000070100004-01710-045400FM-12+004499999V0200501N002612200019N0020001N1+02641+02421101081ADDAA199000091GA1001+999999999GF100991001001999999001001KA1240M+03001MA1999999100571MD1999999+0051REMSYN082AAXX  01004 82198 32995 00505 10264 20242 30057 40108 333 10300 29086 55032 58005;EQDQ01  00002PRCP99
0192821980999992000070112004-01710-045400FM-12+004499999V0200501N002110150019N0100001N1+02841+02581101131ADDAA124002091GF105991051021017501001001KA1240N+02461MA1999999999999MD1999999-0061REMSYN082AAXX  01124 82198 22797 50504 10284 20258 3062/ 40113 85200 333 20246 59006 60024;EQDQ01 096203APOSP 
0201821980999992000070118004-01710-045400FM-12+004499999V0200501N004112200019N0100001N1+02681+02461100821ADDAA106009991AY161061AY221061GF104991021021017501061001MA1999999100312MD1999999-0061MW1021REMSYN082AAXX  01184 82198 21797 40508 10268 20246 30031 40082 70262 82260 333 59006 60101;EQDQ01+100313APOSP 
0208821980999992000070200004-01710-045400FM-12+004499999V0200501N002612200019N0020001N1+02541+02361101011ADDAA199000091GA1001+999999999GF100991001001999999001001KA1240M+03111MA1999999100501MD1999999-0071REMSYN082AAXX  02004 82198 32995 00505 10254 20236 30050 40101 333 10311 29088 55053 59007;EQDQ01  00002PRCP99
0201821980999992000070212004-01710-045400FM-12+004499999V0201401N004110150019N0100001N1+02341+02171101181ADDAA124018091AY161061AY221061GF108991051051017501061001KA1240N+02241MA1999999100671MD1999999-0051MW1031REMSYN088AAXX  02124 82198 21797 81408 10234 20217 30067 40118 70362 85560 333 20224 59005 60184;
0167821980999992000070218004-01710-045400FM-12+004499999V0200501N002110450019N0100001N1+02791+02481100881ADDAA199000091GF106991031021017501061001MA1999999100371MD1999999+0061REMSYN070AAXX  02184 82198 32797 60504 10279 20248 30037 40088 83260 333 58006;EQDQ01  00002PRCP99
0208821980999992000070300004-01710-045400FM-12+004499999V0200501N002612200019N0020001N1+02501+02311101061ADDAA199000091GA1001+999999999GF100991001001999999001001KA1240M+02931MA1999999100551MD1999999+0051REMSYN082AAXX  03004 82198 32995 00505 10250 20231 30055 40106 333 10293 29088 55021 58005;EQDQ01  00002PRCP99
0186821980999992000070312004-01710-045400FM-12+004499999V0201401N001012200019N0100001N1+02581+02481101211ADDAA199000091GF102991011011017501001011KA1240N+02211MA1999999100691MD1999999+0021REMSYN076AAXX  03124 82198 32797 21402 10258 20248 30069 40121 81101 333 20221 58002;EQDQ01  00002PRCP99
0182821980999992000070318004-01710-045400FM-12+004499999V0201401N006710450019N0100001N1+02661+02461101001ADDAA106000591AY161061AY221061GF106991041021017501061001MA1999999100481MD1999999+0111MW1171REMSYN082AAXX  03184 82198 21797 61413 10266 20246 30048 40100 71762 84260 333 58011 69941;
0198821980999992000070400004-01710-045400FM-12+004499999V0202701N001012200019N0020001N1+02481+02381101091ADDAA199000091GF103991031011017501001001KA1240M+03131MA1999999100571MD1999999+0021REMSYN088AAXX  04004 82198 32795 32702 10248 20238 30057 40109 83100 333 10313 29092 55068 58002;EQDQ01  00002PRCP99
0173821980999992000070412004-01710-045400FM-12+004499999V0200501N001510450019N0100001N1+02621+02481101071ADDAA124000591GF106991031021017501031091KA1240N+02271MA1999999100551MD1999999-0141REMSYN082AAXX  04124 82198 22797 60503 10262 20248 30055 40107 83239 333 20227 59014 69944;
0182821980999992000070418004-01710-045400FM-12+004499999V0200501N002110150019N0100001N1+02431+02331100931ADDAA106009991AY161061AY221061GF108991051071017501061001MA1999999100411MD1999999-0071MW1031REMSYN082AAXX  04184 82198 21797 80504 10243 20233 30041 40093 70362 85760 333 59007 60101;
0226821980999992000070500004-01710-045400FM-12+004499999V0201401N003112200019N0020001N1+02441+02301101031ADDAA199000091AY121061AY211061GF105991021021017501001011KA1240M+03171MA1999999100511MD1999999-0061MW1131REMSYN094AAXX  05004 82198 31795 51406 10244 20230 30051 40103 71321 82201 333 10317 29093 55050 59006;EQDQ01  00002PRCP99
0201821980999992000070512004-01710-045400FM-12+004499999V0209999C000010450019N0100001N1+02531+02431101051ADDAA124009991AY161061AY221061GF106991041021017501031011KA1240N+02431MA1999999100531MD1999999-0021MW1031REMSYN088AAXX  05124 82198 21797 60000 10253 20243 30053 40105 70362 84231 333 20243 59002 60104;
0195821980999992000070518004-01710-045400FM-12+004499999V0201401N002110450019N0100001N1+02741+02501100901ADDAA199000091AY121061AY221061GF106991041071017501061001MA1999999100381MD1999999-0031MW1171REMSYN076AAXX  05184 82198 31797 61404 10274 20250 30038 40090 71722 84760 333 59003;EQDQ01  00002PRCP99
0213821980999992000070600004-01710-045400FM-12+004499999V0203201N001010450019N0020001N1+02311+02251101011ADDAA106003091AY161061AY221061GF106991041021017501061001KA1240M+03061MA1999999100491MD1999999-0021MW1011REMSYN100AAXX  06004 82198 21795 63202 10231 20225 30049 40101 70162 84260 333 10306 29092 55028 59002 60031;
0173821980999992000070612004-01710-045400FM-12+004499999V0209999C000010450019N0100001N1+02421+02371101091ADDAA124003091GF107991041021017501031001KA1240N+02241MA1999999100571MD1999999+0041REMSYN082AAXX  06124 82198 22797 70000 10242 20237 30057 40109 84230 333 20224 58004 60034;
0182821980999992000070618004-01710-045400FM-12+004499999V0200501N001010150019N0100001N1+02461+02341100991ADDAA106000891AY161061AY251061GF106991051021017501061001MA1999999100471MD1999999+0091MW1021REMSYN082AAXX  06184 82198 21797 60502 10246 20234 30047 40099 70265 85260 333 58009 69981;
0198821980999992000070700004-01710-045400FM-12+004499999V0200501N002110150019N0100001N1+02481+02381101091ADDAA199000091GF107991051021017501031001KA1240M+02991MA1999999100571MD1999999+0081REMSYN088AAXX  07004 82198 32797 70504 10248 20238 30057 40109 85230 333 10299 29094 55011 58008;EQDQ01  00002PRCP99
0173821980999992000070712004-01710-045400FM-12+004499999V0209999C000010450019N0100001N1+02501+02321101121ADDAA124000891GF106991031021017501041011KA1240N+02301MA1999999100601MD1999999+0031REMSYN082AAXX  07124 82198 22797 60000 10250 20232 30060 40112 83241 333 20230 58003 69984;
0182821980999992000070718004-01710-045400FM-12+004499999V0200501N004610450019N0100001N1+02851+02441100911ADDAA106000591AY161061AY221061GF107991041071017501061001MA1999999100401MD1999999-0071MW1021REMSYN082AAXX  07184 82198 21797 70509 10285 20244 30040 40091 70262 84760 333 59007 69961;
0213821980999992000070800004-01710-045400FM-12+004499999V0202301N002610450019N0020001N1+02401+02351101111ADDAA106032091AY161061AY221061GF107991041021017501031011KA1240M+03131MA1999999100591MD1999999+0021MW1131REMSYN100AAXX  08004 82198 21795 72305 10240 20235 30059 40111 71362 84231 333 10313 29092 55036 58002 60321;
0213821980999992000070812004-01710-045400FM-12+004499999V0202301N002610450019N0020001N1+02401+02351101111ADDAA106032091AY161061AY221061GF107991041021017501031011KA1240M+03131MA1999999100591MD1999999+0021MW1131REMSYN100AAXX  08124 82198 21795 72305 10240 20235 30059 40111 71362 84231 333 10313 29092 55036 58002 60321;
0182821980999992000070818004-01710-045400FM-12+004499999V0203601N004610450019N0100001N1+02671+02421100931ADDAA106007191AY161061AY221061GF106991041021017501041011MA1999999100411MD1999999+0011MW1021REMSYN082AAXX  08184 82198 21797 63609 10267 20242 30041 40093 70262 84241 333 58001 60071;
0198821980999992000070900004-01710-045400FM-12+004499999V0200501N002110450019N0020001N1+02481+02341101041ADDAA199000091GF105991031021017501031001KA1240M+03011MA1999999100521MD1999999-0071REMSYN088AAXX  09004 82198 32795 50504 10248 20234 30052 40104 83230 333 10301 29090 55083 59007;EQDQ01  00002PRCP99
0173821980999992000070912004-01710-045400FM-12+004499999V0200501N002110450019N0100001N1+02691+02441101091ADDAA124007191GF105991031021017501031061KA1240N+02301MA1999999100571MD1999999-0031REMSYN082AAXX  09124 82198 22797 50504 10269 20244 30057 40109 83236 333 20230 59003 60074;
0154821980999992000070918004-01710-045400FM-12+004499999V0200501N002110150019N0100001N1+02551+02441100801ADDAA106006191GF108991051071017501061001MA1999999100281MD1999999-0131REMSYN076AAXX  09184 82198 21797 80504 10255 20244 30028 40080 85760 333 59013 60061;
0201821980999992000071012004-01710-045400FM-12+004499999V0202301N002110450019N0100001N1+02611+02461101071ADDAA124007191AY151061AY221061GF105991031011017501061001KA1240N+02431MA1999999100561MD1999999-0011MW1011REMSYN088AAXX  10124 82198 21797 52304 10261 20246 30056 40107 70152 83160 333 20243 59001 60074;
0167821980999992000071018004-01710-045400FM-12+004499999V0200901N007210450019N0100001N1+02921+02541100771ADDAA199000091GF105991041021017501061001MA1999999100261MD1999999-0021REMSYN070AAXX  10184 82198 32797 50914 10292 20254 30026 40077 84260 333 59002;EQDQ01  00002PRCP99
0198821980999992000071100004-01710-045400FM-12+004499999V0200901N003610450019N0020001N1+02571+02351101011ADDAA199000091GF106991021011017501061001KA1240M+03081MA1999999100501MD1999999-0031REMSYN088AAXX  11004 82198 32795 60907 10257 20235 30050 40101 82160 333 10308 29086 55065 59003;EQDQ01  00002PRCP99
0186821980999992000071112004-01710-045400FM-12+004499999V0200901N004110450019N0100001N1+02771+02521101201ADDAA199000091GF106991041021017501061001KA1240N+02421MA1999999100691MD1999999+0131REMSYN076AAXX  11124 82198 32797 60908 10277 20252 30069 40120 84260 333 20242 58013;EQDQ01  00002PRCP99
0182821980999992000071118004-01710-045400FM-12+004499999V0200901N001510150019N0100001N1+02771+02541100891ADDAA106010991AY161061AY221061GF106991061021017501001001MA1999999100381MD1999999+0121MW1021REMSYN082AAXX  11184 82198 21797 60903 10277 20254 30038 40089 70262 86200 333 58012 60111;
0198821980999992000071200004-01710-045400FM-12+004499999V0200901N002112200019N0020001N1+02561+02381101151ADDAA199000091GF103991031001017501061001KA1240M+02931MA1999999100641MD1999999+0141REMSYN088AAXX  12004 82198 32795 30904 10256 20238 30064 40115 83060 333 10293 29088 55050 58014;EQDQ01  00002PRCP99
0173821980999992000071212004-01710-045400FM-12+004499999V0200901N005110450019N0100001N1+02781+02521101321ADDAA124010991GF105991041021017501061001KA1240N+02401MA1999999100811MD1999999+0121REMSYN082AAXX  12124 82198 22797 50910 10278 20252 30081 40132 84260 333 20240 58012 60114;
0167821980999992000071218004-01710-045400FM-12+004499999V0200501N005110450019N0100001N1+02841+02561100951ADDAA199000091GF106991031021017501061001MA1999999100441MD1999999+0061REMSYN070AAXX  12184 82198 32797 60510 10284 20256 30044 40095 83260 333 58006;EQDQ01  00002PRCP99
0201821980999992000071312004-01710-045400FM-12+004499999V0200901N001510450019N0100001N1+02551+02381101401ADDAA124003091AY151061AY221061GF108991021011017501061001KA1240N+02361MA1999999100891MD1999999+0081MW1021REMSYN088AAXX  13124 82198 21797 80903 10255 20238 30089 40140 70252 82160 333 20236 58008 60034;
0173821980999992000071412004-01710-045400FM-12+004499999V0200501N003611050019N0100001N1+02701+02451101261ADDAA124002091GF105991021011017501061021KA1240N+02331MA1999999100751MD1999999-0141REMSYN082AAXX  14124 82198 22797 50507 10270 20245 30075 40126 82162 333 20233 59014 60024;
0167821980999992000071418004-01710-045400FM-12+004499999V0203601N004610450019N0100001N1+02881+02581100991ADDAA199000091GF107991031021017501061001MA1999999100481MD1999999-0151REMSYN070AAXX  14184 82198 32797 73609 10288 20258 30048 40099 83260 333 59015;EQDQ01  00002PRCP99
0198821980999992000071500004-01710-045400FM-12+004499999V0200501N002110450019N0020001N1+02581+02401101191ADDAA199000091GF108991041021017501061001KA1240M+03071MA1999999100681MD1999999-0041REMSYN088AAXX  15004 82198 32795 80504 10258 20240 30068 40119 84260 333 10307 29088 55045 59004;EQDQ01  00002PRCP99
0201821980999992000071512004-01710-045400FM-12+004499999V0203201N001010450019N0100001N1+02451+02271101241ADDAA124001091AY161061AY221061GF108991031021017501041001KA1240N+02321MA1999999100731MD1999999-0021MW1021REMSYN088AAXX  15124 82198 21797 83202 10245 20227 30073 40124 70262 83240 333 20232 59002 60014;
0213821980999992000071600004-01710-045400FM-12+004499999V0202301N001512200019N0020001N1+02411+02261101171ADDAA106011991AY161061AY221061GF104991041001017501061001KA1240M+02971MA1999999100661MD1999999-0021MW1011REMSYN100AAXX  16004 82198 21795 42303 10241 20226 30066 40117 70162 84060 333 10297 29090 55026 59002 60121;
0173821980999992000071612004-01710-045400FM-12+004499999V0203601N000510450019N0100001N1+02541+02361101251ADDAA124011991GF105991011011017501061001KA1240N+02311MA1999999100741MD1999999+0061REMSYN082AAXX  16124 82198 22797 53601 10254 20236 30074 40125 81160 333 20231 58006 60124;
0167821980999992000071618004-01710-045400FM-12+004499999V0200501N003110450019N0100001N1+02981+02601100881ADDAA199000091GF105991031021017501061001MA1999999100371MD1999999-0121REMSYN070AAXX  16184 82198 32797 50506 10298 20260 30037 40088 83260 333 59012;EQDQ01  00002PRCP99
0213821980999992000071700004-01710-045400FM-12+004499999V0200501N001510450019N0020001N1+02461+02341101181ADDAA106000891AY151061AY221061GF108991021021017501041001KA1240M+03131MA1999999100671MD1999999+0011MW1031REMSYN100AAXX  17004 82198 21795 80503 10246 20234 30067 40118 70352 82240 333 10313 29089 55055 58001 69981;
0173821980999992000071712004-01710-045400FM-12+004499999V0200501N004112200019N0100001N1+02771+02521101281ADDAA124000891GF105991021021017501031091KA1240N+02371MA1999999100761MD1999999+0021REMSYN082AAXX  17124 82198 22797 50508 10277 20252 30076 40128 82239 333 20237 58002 69984;
0167821980999992000071718004-01710-045400FM-12+004499999V0200501N005710450019N0100001N1+03011+02391100911ADDAA199000091GF106991031021017501061041MA1999999100391MD1999999+0021REMSYN070AAXX  17184 82198 32797 60511 10301 20239 30039 40091 83264 333 58002;EQDQ01  00002PRCP99
0198821980999992000071800004-01710-045400FM-12+004499999V0203601N001510450019N0020001N1+02461+02371101141ADDAA199000091GF106991021021017501031011KA1240M+03151MA1999999100621MD1999999-0051REMSYN088AAXX  18004 82198 32795 63603 10246 20237 30062 40114 82231 333 10315 29086 55072 59005;EQDQ01  00002PRCP99
0186821980999992000071812004-01710-045400FM-12+004499999V0200501N002612200019N0100001N1+02781+02451101211ADDAA199000091GF103991021021017501001011KA1240N+02421MA1999999100701MD1999999-0061REMSYN076AAXX  18124 82198 32797 30505 10278 20245 30070 40121 82201 333 20242 59006;EQDQ01  00002PRCP99
0167821980999992000071818004-01710-045400FM-12+004499999V0203601N006210450019N0100001N1+02861+02421100921ADDAA199000091GF105991031021017501041001MA1999999100401MD1999999+0011REMSYN070AAXX  18184 82198 32797 53612 10286 20242 30040 40092 83240 333 58001;EQDQ01  00002PRCP99
0198821980999992000071900004-01710-045400FM-12+004499999V0200501N002612200019N0020001N1+02591+02441101221ADDAA199000091GF105991031021017501001061KA1240M+03131MA1999999100701MD1999999+0081REMSYN088AAXX  19004 82198 32795 50505 10259 20244 30070 40122 83206 333 10313 29086 55092 58008;EQDQ01  00002PRCP99
0186821980999992000071912004-01710-045400FM-12+004499999V0200501N004110450019N0100001N1+02801+02481101221ADDAA199000091GF106991041021017501041011KA1240N+02431MA1999999100701MD1999999+0001REMSYN076AAXX  19124 82198 32797 60508 10280 20248 30070 40122 84241 333 20243 58000;EQDQ01  00002PRCP99
0182821980999992000071918004-01710-045400FM-12+004499999V0200501N006210450019N0100001N1+02951+02391100841ADDAA106004191AY161061AY221061GF106991031021017501061011MA1999999100321MD1999999-0081MW1021REMSYN082AAXX  19184 82198 21797 60512 10295 20239 30032 40084 70262 83261 333 59008 60041;
0213821980999992000072000004-01710-045400FM-12+004499999V0200901N002612200019N0020001N1+02501+02381101111ADDAA106000591AY161061AY211061GF103991021021017501001061KA1240M+03011MA1999999100591MD1999999-0111MW1011REMSYN100AAXX  20004 82198 21795 30905 10250 20238 30059 40111 70161 82206 333 10301 29084 55065 59011 69941;
0173821980999992000072012004-01710-045400FM-12+004499999V0201401N001510450019N0100001N1+02561+02461101221ADDAA124004191GF105991041021017501041011KA1240N+02201MA1999999100701MD1999999+0001REMSYN082AAXX  20124 82198 22797 51403 10256 20246 30070 40122 84241 333 20220 58000 60044;
0167821980999992000072018004-01710-045400FM-12+004499999V0200501N005710150019N0100001N1+03041+02481100821ADDAA199000091GF105991051021017501001001MA1999999100291MD1999999-0031REMSYN070AAXX  20184 82198 32797 50511 10304 20248 30029 40082 85200 333 59003;EQDQ01  00002PRCP99
0208821980999992000072100004-01710-045400FM-12+004499999V0200501N002612200019N0020001N1+02581+02441100941ADDAA199000091GA1001+999999999GF100991001001999999001001KA1240M+03141MA1999999100421MD1999999-0171REMSYN082AAXX  21004 82198 32995 00505 10258 20244 30042 40094 333 10314 29088 55087 59017;EQDQ01  00002PRCP99
0186821980999992000072112004-01710-045400FM-12+004499999V0200501N004112200019N0100001N1+02851+02381101061ADDAA199000091GF104991041021017501001001KA1240N+02441MA1999999100541MD1999999-0161REMSYN076AAXX  21124 82198 32797 40508 10285 20238 30054 40106 84200 333 20244 59016;EQDQ01  00002PRCP99
0167821980999992000072118004-01710-045400FM-12+004499999V0200501N007712200019N0100001N1+02941+02211100961ADDAA199000091GF104991041021017501001001MA1999999100441MD1999999+0151REMSYN070AAXX  21184 82198 32797 40515 10294 20221 30044 40096 84200 333 58015;EQDQ01  00002PRCP99
0208821980999992000072200004-01710-045400FM-12+004499999V0200501N003112200019N0020001N1+02551+02421101161ADDAA199000091GA1001+999999999GF100991001001999999001001KA1240M+03091MA1999999100641MD1999999+0221REMSYN082AAXX  22004 82198 32995 00506 10255 20242 30064 40116 333 10309 29080 55101 58022;EQDQ01  00002PRCP99
0186821980999992000072212004-01710-045400FM-12+004499999V0200501N003112200019N0100001N1+02841+02441101311ADDAA199000091GF104991031021017501001011KA1240N+02311MA1999999100791MD1999999+0251REMSYN076AAXX  22124 82198 32797 40506 10284 20244 30079 40131 83201 333 20231 58025;EQDQ01  00002PRCP99
0167821980999992000072218004-01710-045400FM-12+004499999V0200501N003110450019N0100001N1+02931+02411100921ADDAA199000091GF106991031021017501041011MA1999999100401MD1999999-0041REMSYN070AAXX  22184 82198 32797 60506 10293 20241 30040 40092 83241 333 59004;EQDQ01  00002PRCP99
0198821980999992000072300004-01710-045400FM-12+004499999V0200501N002612200019N0020001N1+02601+02421101251ADDAA199000091GF103991031011017501001001KA1240M+03021MA1999999100731MD1999999-0011REMSYN088AAXX  23004 82198 32795 30505 10260 20242 30073 40125 83100 333 10302 29086 55042 59001;EQDQ01  00002PRCP99
0186821980999992000072312004-01710-045400FM-12+004499999V0200501N003110150019N0100001N1+02831+02421101261ADDAA199000091GF106991061021017501001001KA1240N+02501MA1999999100741MD1999999+0091REMSYN076AAXX  23124 82198 32797 60506 10283 20242 30074 40126 86200 333 20250 58009;EQDQ01  00002PRCP99
0182821980999992000072318004-01710-045400FM-12+004499999V0202701N001510450019N0100001N1+02521+02381100991ADDAA106023191AY161061AY221061GF106991041071017501061001MA1999999100471MD1999999+0071MW1021REMSYN082AAXX  23184 82198 21797 62703 10252 20238 30047 40099 70262 84760 333 58007 60231;
0213821980999992000072400004-01710-045400FM-12+004499999V0200501N003110150019N0020001N1+02501+02401101311ADDAA106000891AY161061AY221061GF105991051021017501001001KA1240M+03061MA1999999100791MD1999999+0031MW1131REMSYN100AAXX  24004 82198 21795 50506 10250 20240 30079 40131 71362 85200 333 10306 29090 55043 58003 69981;
0173821980999992000072412004-01710-045400FM-12+004499999V0200501N003612200019N0100001N1+02781+02481101261ADDAA124023991GF103991031011017501001001KA1240N+02351MA1999999100351MD1999999+0011REMSYN082AAXX  24124 82198 22797 30507 10278 20248 30035 40126 83100 333 20235 58001 60244;
0167821980999992000072418004-01710-045400FM-12+004499999V0200501N005710150019N0100001N1+02921+02471100991ADDAA199000091GF108991051051017501061001MA1999999100481MD1999999+0011REMSYN070AAXX  24184 82198 32797 80511 10292 20247 30048 40099 85560 333 58001;EQDQ01  00002PRCP99
0223821980999992000072500004-01710-045400FM-12+004499999V0200501N002112200019N0020001N1+02501+02251101231ADDAA106029091AY161061AY221061GA1001+999999999GF100991001001999999001001KA1240M+03191MA1999999100721MD1999999-0071MW1011REMSYN094AAXX  25004 82198 21995 00504 10250 20225 30072 40123 70162 333 10319 29083 55078 59007 60291;
0173821980999992000072512004-01710-045400FM-12+004499999V0200501N002110450019N0100001N1+02641+02501101251ADDAA124029091GF107991031021017501031001KA1240N+02311MA1999999100741MD1999999-0011REMSYN082AAXX  25124 82198 22797 70504 10264 20250 30074 40125 83230 333 20231 59001 60294;
0167821980999992000072518004-01710-045400FM-12+004499999V0200501N005112200019N0100001N1+03001+02551101031ADDAA199000091GF104991041021017501001001MA1999999100521MD1999999+0041REMSYN070AAXX  25184 82198 32797 40510 10300 20255 30052 40103 84200 333 58004;EQDQ01  00002PRCP99
0208821980999992000072600004-01710-045400FM-12+004499999V0200501N002112200019N0020001N1+02601+02371101211ADDAA199000091GA1001+999999999GF100991001001999999001001KA1240M+03111MA1999999100701MD1999999-0021REMSYN082AAXX  26004 82198 32995 00504 10260 20237 30070 40121 333 10311 29086 55080 59002;EQDQ01  00002PRCP99
0186821980999992000072612004-01710-045400FM-12+004499999V0200501N003610150019N0100001N1+02801+02561101331ADDAA199000091GF105991051021017501001001KA1240N+02431MA1999999100821MD1999999+0081REMSYN076AAXX  26124 82198 32797 50507 10280 20256 30082 40133 85200 333 20243 58008;EQDQ01  00002PRCP99
0182821980999992000072618004-01710-045400FM-12+004499999V0202301N002610150019N0100001N1+02631+02411101061ADDAA106015091AY161061AY221061GF108991051051017501021001MA1999999100551MD1999999+0031MW1631REMSYN082AAXX  26184 82198 21797 82305 10263 20241 30055 40106 76362 85520 333 58003 60151;
0223821980999992000072700004-01710-045400FM-12+004499999V0200501N002112200019N0020001N1+02491+02301101271ADDAA106020191AY161061AY221061GA1001+999999999GF100991001001999999001001KA1240M+03011MA1999999100761MD1999999+0061MW1011REMSYN094AAXX  27004 82198 21995 00504 10249 20230 30076 40127 70162 333 10301 29089 55052 58006 60201;
0173821980999992000072712004-01710-045400FM-12+004499999V0200501N002612200019N0200001N1+02801+02421101301ADDAA124034091GF104991041021017501001001KA1240N+02401MA1999999100791MD1999999-0031REMSYN082AAXX  27124 82198 22798 40505 10280 20242 30079 40130 84200 333 20240 59003 60344;
0182821980999992000072718004-01710-045400FM-12+004499999V0203601N005110450019N0100001N1+02731+02431100951ADDAA106008991AY161061AY221061GF106991031021017501061001MA1999999100441MD1999999-0111MW1031REMSYN082AAXX  27184 82198 21797 63610 10273 20243 30044 40095 70362 83260 333 59011 60091;
0208821980999992000072800004-01710-045400FM-12+004499999V0200501N002112200019N0020001N1+02561+02381101241ADDAA199000091GA1001+999999999GF100991001001999999001001KA1240M+03031MA1999999100731MD1999999-0031REMSYN082AAXX  28004 82198 32995 00504 10256 20238 30073 40124 333 10303 29086 55060 59003;EQDQ01  00002PRCP99
0173821980999992000072812004-01710-045400FM-12+004499999V0200501N001510450019N0100001N1+02661+02391101331ADDAA124008991GF106991031021017501061001KA1240N+02221MA1999999100821MD1999999+0031REMSYN082AAXX  28124 82198 22797 60503 10266 20239 30082 40133 83260 333 20222 58003 60094;
0167821980999992000072818004-01710-045400FM-12+004499999V0201401N002610450019N0100001N1+02801+02421101031ADDAA199000091GF106991031021017501061001MA1999999100521MD1999999+0081REMSYN070AAXX  28184 82198 32797 61405 10280 20242 30052 40103 83260 333 58008;EQDQ01  00002PRCP99
0213821980999992000072900004-01710-045400FM-12+004499999V0200501N001512200019N0020001N1+02361+02201101241ADDAA106003091AY161061AY221061GF104991041001017501061001KA1240M+03001MA1999999100731MD1999999+0001MW1011REMSYN100AAXX  29004 82198 21795 40503 10236 20220 30073 40124 70162 84060 333 10300 29087 55062 58000 60031;
0173821980999992000072912004-01710-045400FM-12+004499999V0200501N004112200019N0100001N1+02771+02521101271ADDAA124003091GF105991041021017501001011KA1240N+02311MA1999999100761MD1999999-0061REMSYN082AAXX  29124 82198 22797 50508 10277 20252 30076 40127 84201 333 20231 59006 60034;
0182821980999992000072918004-01710-045400FM-12+004499999V0200501N003110450019N0100001N1+02821+02601100951ADDAA106002091AY161061AY221061GF108991041021017501061001MA1999999100441MD1999999-0081MW1031REMSYN082AAXX  29184 82198 21797 80506 10282 20260 30044 40095 70362 84260 333 59008 60021;
0208821980999992000073000004-01710-045400FM-12+004499999V0200501N001512200019N0020001N1+02501+02361101181ADDAA199000091GA1001+999999999GF100991001001999999001001KA1240M+03041MA1999999100671MD1999999-0061REMSYN082AAXX  30004 82198 32995 00503 10250 20236 30067 40118 333 10304 29090 55056 59006;EQDQ01  00002PRCP99
0173821980999992000073012004-01710-045400FM-12+004499999V0200901N003610150019N0100001N1+02761+02501101161ADDAA124002091GF105991051021017501001001KA1240N+02261MA1999999100651MD1999999-0111REMSYN082AAXX  30124 82198 22797 50907 10276 20250 30065 40116 85200 333 20226 59011 60024;
0167821980999992000073018004-01710-045400FM-12+004499999V0201401N004610150019N0100001N1+02641+02441100961ADDAA199000091GF108991051021017501061001MA1999999100451MD1999999+0011REMSYN070AAXX  30184 82198 32797 81409 10264 20244 30045 40096 85260 333 58001;EQDQ01  00002PRCP99
0208821980999992000073100004-01710-045400FM-12+004499999V0200901N002612200019N0020001N1+02561+02441101131ADDAA199000091GA1001+999999999GF100991001001999999001001KA1240M+03111MA1999999100621MD1999999-0051REMSYN082AAXX  31004 82198 32995 00905 10256 20244 30062 40113 333 10311 29090 55056 59005;EQDQ01  00002PRCP99
0186821980999992000073112004-01710-045400FM-12+004499999V0200501N003612200019N0100001N1+02731+02541101231ADDAA199000091GF104991041021017501001001KA1240N+02331MA1999999100711MD1999999+0061REMSYN076AAXX  31124 82198 32797 40507 10273 20254 30071 40123 84200 333 20233 58006;EQDQ01  00002PRCP99
0167821980999992000073118004-01710-045400FM-12+004499999V0200901N002110450019N0100001N1+03111+02491100971ADDAA199000091GF106991041021017501061001MA1999999100451MD1999999+0001REMSYN070AAXX  31184 82198 32797 60904 10311 20249 30045 40097 84260 333 58000;EQDQ01  00002PRCP99
0208821980999992000080100004-01710-045400FM-12+004499999V0200501N002612200019N0020001N1+02621+02421101091ADDAA199000091GA1001+999999999GF100991001001999999001001KA1240M+03191MA1999999100571MD1999999-0051REMSYN082AAXX  01004 82198 32995 00505 10262 20242 30057 40109 333 10319 29084 55078 59005;EQDQ01  00002PRCP99
0186821980999992000080112004-01710-045400FM-12+004499999V0200501N003612200019N0100001N1+02751+02581101201ADDAA199000091GF104991021011017501001041KA1240N+02411MA1999999100681MD1999999-0031REMSYN076AAXX  01124 82198 32797 40507 10275 20258 30068 40120 82104 333 20241 59003;EQDQ01  00002PRCP99
0167821980999992000080118004-01710-045400FM-12+004499999V0203601N001510450019N0100001N1+03091+02491100951ADDAA199000091GF106991041021017501061011MA1999999100431MD1999999-0021REMSYN070AAXX  01184 82198 32797 63603 10309 20249 30043 40095 84261 333 59002;EQDQ01  00002PRCP99
0226821980999992000080200004-01710-045400FM-12+004499999V0200501N003612200019N0020001N1+02621+02421101151ADDAA199000091AY121061AY211061GF103991031021017501001001KA1240M+03191MA1999999100631MD1999999+0061MW1131REMSYN094AAXX  02004 82198 31795 30507 10262 20242 30063 40115 71321 83200 333 10319 29085 55060 58006;EQDQ01  00002PRCP99
0173821980999992000080212004-01710-045400FM-12+004499999V0200901N003110450019N0100001N1+02661+02411101401ADDAA124003091GF106991031021017501041041KA1240N+02491MA1999999100881MD1999999+0201REMSYN082AAXX  02124 82198 22797 60906 10266 20241 30088 40140 83244 333 20249 58020 60034;
0182821980999992000080218004-01710-045400FM-12+004499999V0200901N004610450019N0100001N1+02871+02441101121ADDAA106000191AY161061AY221061GF107991041021017501011041MA1999999100601MD1999999+0171MW1021REMSYN082AAXX  02184 82198 21797 70909 10287 20244 30060 40112 70262 84214 333 58017 69921;
0208821980999992000080300004-01710-045400FM-12+004499999V0200501N004112200019N0020001N1+02571+02371101291ADDAA199000091GA1001+999999999GF100991001001999999001001KA1240M+03021MA1999999100771MD1999999+0141REMSYN082AAXX  03004 82198 32995 00508 10257 20237 30077 40129 333 10302 29085 55045 58014;EQDQ01  00002PRCP99
0173821980999992000080312004-01710-045400FM-12+004499999V0200501N003610450019N0100001N1+02771+02291101421ADDAA124000191GF105991031011017501031061KA1240N+02421MA1999999100901MD1999999+0021REMSYN082AAXX  03124 82198 21797 50507 10277 20229 30090 40142 83136 333 20242 58002 69924;
0167821980999992000080318004-01710-045400FM-12+004499999V0200501N006710450019N0100001N1+03011+02291101221ADDAA199000091GF105991021021017501041001MA1999999100701MD1999999+0101REMSYN070AAXX  03184 82198 32797 50513 10301 20229 30070 40122 82240 333 58010;EQDQ01  00002PRCP99
0208821980999992000080400004-01710-045400FM-12+004499999V0200501N002112200019N0020001N1+02591+02421101361ADDAA199000091GA1001+999999999GF100991001001999999001001KA1240M+03101MA1999999100841MD1999999+0071REMSYN082AAXX  04004 82198 32995 00504 10259 20242 30084 40136 333 10310 29080 55103 58007;EQDQ01  00002PRCP99
0186821980999992000080412004-01710-045400FM-12+004499999V0200501N003112200019N0100001N1+02761+02291101391ADDAA199000091GF104991041021017501001001KA1240N+02411MA1999999100871MD1999999-0031REMSYN076AAXX  04124 82198 32797 40506 10276 20229 30087 40139 84200 333 20241 59003;EQDQ01  00002PRCP99
0167821980999992000080418004-01710-045400FM-12+004499999V0200501N004112200019N0100001N1+03081+02371101131ADDAA199000091GF104991041021017501001001MA1999999100611MD1999999-0091REMSYN070AAXX  04184 82198 32797 40508 10308 20237 30061 40113 84200 333 59009;EQDQ01  00002PRCP99
0208821980999992000080500004-01710-045400FM-12+004499999V0200501N003112200019N0020001N1+02591+02311101221ADDAA199000091GA1001+999999999GF100991001001999999001001KA1240M+03171MA1999999100701MD1999999-0141REMSYN082AAXX  05004 82198 32995 00506 10259 20231 30070 40122 333 10317 29079 55102 59014;EQDQ01  00002PRCP99
0186821980999992000080512004-01710-045400FM-12+004499999V0200501N004110150019N0100001N1+02761+02461101261ADDAA199000091GF105991051021017501001001KA1240N+02421MA1999999100741MD1999999+0011REMSYN076AAXX  05124 82198 32797 50508 10276 20246 30074 40126 85200 333 20242 58001;EQDQ01  00002PRCP99
0167821980999992000080518004-01710-045400FM-12+004499999V0200501N004610150019N0100001N1+03081+02471101041ADDAA199000091GF105991051021017501001001MA1999999100521MD1999999-0091REMSYN070AAXX  05184 82198 32797 50509 10308 20247 30052 40104 85200 333 59009;EQDQ01  00002PRCP99
0198821980999992000080600004-01710-045400FM-12+004499999V0200901N003112200019N0020001N1+02601+02401101211ADDAA199000091GF102991021011017501001001KA1240M+03131MA1999999100691MD1999999-0011REMSYN088AAXX  06004 82198 32795 20906 10260 20240 30069 40121 82100 333 10313 29083 55088 59001;EQDQ01  00002PRCP99
0186821980999992000080612004-01710-045400FM-12+004499999V0200501N004112200019N0100001N1+02781+02481101321ADDAA199000091GF104991041021017501001001KA1240N+02431MA1999999100831MD1999999+0091REMSYN076AAXX  06124 82198 32797 40508 10278 20248 30083 40132 84200 333 20243 58009;EQDQ01  00002PRCP99
0167821980999992000080618004-01710-045400FM-12+004499999V0200501N007211050019N0100001N1+02971+02371101121ADDAA199000091GF105991021021017501041041MA1999999100601MD1999999+0081REMSYN070AAXX  06184 82198 32797 50514 10297 20237 30060 40112 82244 333 58008;EQDQ01  00002PRCP99
0198821980999992000080700004-01710-045400FM-12+004499999V0200501N004112200019N0020001N1+02621+02371101321ADDAA199000091GF103991021011017501031001KA1240M+03121MA1999999100801MD1999999-0951REMSYN088AAXX  07004 82198 32795 30508 10262 20237 30080 40132 82130 333 10312 29081 59095 58011;EQDQ01  00002PRCP99
0186821980999992000080712004-01710-045400FM-12+004499999V0200901N005110450019N0100001N1+02681+02311101481ADDAA199000091GF105991031021017501061001KA1240N+02461MA1999999100971MD1999999+0141REMSYN076AAXX  07124 82198 32797 50910 10268 20231 30097 40148 83260 333 20246 58014;EQDQ01  00002PRCP99
0182821980999992000080718004-01710-045400FM-12+004499999V0200901N004610450019N0100001N1+02451+02111101231ADDAA106017091AY161061AY221061GF105991021021017501061001MA1999999100721MD1999999+0121MW1021REMSYN082AAXX  07184 82198 21797 50909 10245 20211 30072 40123 70262 82260 333 58012 60171;
0198821980999992000080800004-01710-045400FM-12+004499999V0200901N002112200019N0020001N1+02481+02191101371ADDAA199000091GF103991031001017501061001KA1240M+02951MA1999999100861MD1999999+0061REMSYN088AAXX  08004 82198 32795 30904 10248 20219 30086 40137 83060 333 10295 29082 55046 58006;EQDQ01  00002PRCP99
0173821980999992000080812004-01710-045400FM-12+004499999V02099999999990450019N0100001N1+02751+02401101501ADDAA124017091GF105991031021017501061001KA1240N+02361MA1999999100991MD1999999+0021REMSYN082AAXX  08124 82198 22797 5//06 10275 20240 30099 40150 83260 333 20236 58002 60174;
0182821980999992000080818004-01710-045400FM-12+004499999V02099999999992200019N0100001N1+02571+02381101211ADDAA106009991AY161061AY221061GF104991041021017501001001MA1999999100701MD1999999-0021MW1021REMSYN082AAXX  08184 82198 21797 4//08 10257 20238 30070 40121 70262 84200 333 59002 60101;
0208821980999992000080900004-01710-045400FM-12+004499999V02099999999992200019N0020001N1+02471+02271101431ADDAA199000091GA1001+999999999GF100991001001999999001001KA1240M+02931MA1999999100921MD1999999+0061REMSYN082AAXX  09004 82198 32995 0//05 10247 20227 30092 40143 333 10293 29086 55071 58006;EQDQ01  00002PRCP99
0173821980999992000080912004-01710-045400FM-12+004499999V0200501N005712200019N0100001N1+02751+02301101531ADDAA124009991GF104991041021017501001001KA1240N+02381MA1999999101021MD1999999+0031REMSYN082AAXX  09124 82198 22797 40511 10275 20230 30102 40153 84200 333 20238 58003 60104;
0167821980999992000080918004-01710-045400FM-12+004499999V0200501N005712200019N0100001N1+02921+02171101281ADDAA199000091GF103991031021017501001001MA1999999100771MD1999999+0071REMSYN070AAXX  09184 82198 32797 30511 10292 20217 30077 40128 83200 333 58007;EQDQ01  00002PRCP99
0198821980999992000081000004-01710-045400FM-12+004499999V0201001N025712200019N0020001N1+02471+02131101551ADDAA199000091GF102991021001017501061001KA1240M+03041MA1999999101041MD1999999+0121REMSYN088AAXX  10004 82198 32795 21050 10247 20213 30104 40155 82060 333 10304 29076 55107 58012;EQDQ01  00002PRCP99
0186821980999992000081012004-01710-045400FM-12+004499999V0200501N002612200019N0100001N1+02681+02281101631ADDAA199000091GF102991021011017501001001KA1240N+02191MA1999999101121MD1999999+0101REMSYN076AAXX  10124 82198 32797 20505 10268 20228 30112 40163 82100 333 20219 58010;EQDQ01  00002PRCP99
0182821980999992000081018004-01710-045400FM-12+004499999V0203601N004610450019N0100001N1+02911+02431101351ADDAA106000191AY151061AY221061GF106991041021017501061001MA1999999100841MD1999999+0071MW1031REMSYN082AAXX  10184 82198 21797 63609 10291 20243 30084 40135 70352 84260 333 58007 69921;
0208821980999992000081100004-01710-045400FM-12+004499999V0200501N003112200019N0020001N1+02531+02171101501ADDAA199000091GA1001+999999999GF100991001001999999001001KA1240M+03031MA1999999100991MD1999999-0051REMSYN082AAXX  11004 82198 32995 00506 10253 20217 30099 40150 333 10303 29079 55084 59005;EQDQ01  00002PRCP99
0173821980999992000081112004-01710-045400FM-12+004499999V0200501N003112200019N0100001N1+02841+02421101631ADDAA124000191GF102991021011017501001001KA1240N+02351MA1999999101121MD1999999+0001REMSYN082AAXX  11124 82198 22797 20506 10284 20242 30112 40163 82100 333 20235 58000 69924;
0167821980999992000081118004-01710-045400FM-12+004499999V0200501N003612200019N0100001N1+02981+02421101181ADDAA199000091GF104991041021017501001001MA1999999100671MD1999999-0171REMSYN070AAXX  11184 82198 32797 40507 10298 20242 30067 40118 84200 333 59017;EQDQ01  00002PRCP99
0198821980999992000081200004-01710-045400FM-12+004499999V0200501N002112200019N0020001N1+02301+01941101451ADDAA199000091GF103991031001017501061001KA1240M+03101MA1999999100941MD1999999-0051REMSYN088AAXX  12004 82198 32795 30504 10230 20194 30094 40145 83060 333 10310 29078 55081 59005;EQDQ01  00002PRCP99
0186821980999992000081212004-01710-045400FM-12+004499999V0200501N004612200019N0100001N1+02771+02401101521ADDAA199000091GF104991021021017501061001KA1240N+02271MA1999999101011MD1999999-0111REMSYN076AAXX  12124 82198 32797 40509 10277 20240 30101 40152 82260 333 20227 59011;EQDQ01  00002PRCP99
0167821980999992000081218004-01710-045400FM-12+004499999V0200501N005712200019N0100001N1+02881+02411101181ADDAA199000091GF104991041021017501001001MA1999999100671MD1999999+0001REMSYN070AAXX  12184 82198 32797 40511 10288 20241 30067 40118 84200 333 58000;EQDQ01  00002PRCP99
0167821980999992000081318004-01710-045400FM-12+004499999V0200501N004110150019N0100001N1+02911+02341101201ADDAA199000091GF106991051021017501061001MA1999999100691MD1999999+0021REMSYN070AAXX  13184 82198 32797 60508 10291 20234 30069 40120 85260 333 58002;EQDQ01  00002PRCP99
0198821980999992000081400004-01710-045400FM-12+004499999V0200501N003612200019N0020001N1+02561+02261101451ADDAA199000091GF104991021011017501031001KA1240M+03061MA1999999100941MD1999999+0091REMSYN088AAXX  14004 82198 32795 40507 10256 20226 30094 40145 82130 333 10306 29079 55075 58009;EQDQ01  00002PRCP99
0186821980999992000081412004-01710-045400FM-12+004499999V0200901N004612200019N0100001N1+02781+02301101531ADDAA199000091GF105991031021017501001011KA1240N+02421MA1999999101011MD1999999-0011REMSYN076AAXX  14124 82198 32797 50909 10278 20230 30101 40153 83201 333 20242 59001;EQDQ01  00002PRCP99
0167821980999992000081418004-01710-045400FM-12+004499999V0200901N005712200019N0100001N1+02981+02401101301ADDAA199000091GF103991031021017501001001MA1999999100781MD1999999+0091REMSYN070AAXX  14184 82198 32797 30911 10298 20240 30078 40130 83200 333 58009;EQDQ01  00002PRCP99
0198821980999992000081500004-01710-045400FM-12+004499999V0200501N003112200019N0020001N1+02591+02371101441ADDAA199000091GF102991021001017501001011KA1240M+03111MA1999999100921MD1999999-0021REMSYN088AAXX  15004 82198 32795 20506 10259 20237 30092 40144 82001 333 10311 29080 55107 59002;EQDQ01  00002PRCP99
0186821980999992000081512004-01710-045400FM-12+004499999V0200501N004112200019N0100001N1+02751+02461101541ADDAA199000091GF103991031021017501001001KA1240N+02421MA1999999101021MD1999999+0011REMSYN076AAXX  15124 82198 32797 30508 10275 20246 30102 40154 83200 333 20242 58001;EQDQ01  00002PRCP99
0198821980999992000081600004-01710-045400FM-12+004499999V0200501N002612200019N0020001N1+02621+02421101391ADDAA199000091GF103991021011017501001011KA1240M+03111MA1999999100871MD1999999-0051REMSYN088AAXX  16004 82198 32795 30505 10262 20242 30087 40139 82101 333 10311 29084 55075 59005;EQDQ01  00002PRCP99
0173821980999992000081612004-01710-045400FM-12+004499999V0200901N001010450019N0100001N1+02681+02541100521ADDAA124001091GF106991031021017501031011KA1240N+02401MA1999999101001MD1999999-0021REMSYN082AAXX  16124 82198 22797 60902 10268 20254 30100 40052 83231 333 20240 59002 60014;
0182821980999992000081618004-01710-045400FM-12+004499999V0203601N002610450019N0100001N1+02841+02541101241ADDAA106004191AY161061AY221061GF108991041071017501061011MA1999999100721MD1999999-0021MW1171REMSYN082AAXX  16184 82198 21797 83605 10284 20254 30072 40124 71762 84761 333 59002 60041;
0173821980999992000081712004-01710-045400FM-12+004499999V0200901N002612200019N0100001N1+02691+02371101441ADDAA124014091GF101991011011017501001001KA1240N+02361MA1999999100921MD1999999-0081REMSYN082AAXX  17124 82198 22797 10905 10269 20237 30092 40144 81100 333 20236 59008 60144;
0167821980999992000081718004-01710-045400FM-12+004499999V0200501N005710150019N0100001N1+03011+02371101171ADDAA199000091GF107991051021017501061001MA1999999100651MD1999999-0071REMSYN070AAXX  17184 82198 32797 70511 10301 20237 30065 40117 85260 333 59007;EQDQ01  00002PRCP99
0167821980999992000081818004-01710-045400FM-12+004499999V0201401N004610450019N0100001N1+02921+02471101181ADDAA199000091GF106991031021017501061011MA1999999100661MD1999999+0011REMSYN070AAXX  18184 82198 32797 61409 10292 20247 30066 40118 83261 333 58001;EQDQ01  00002PRCP99
0178821980999992000081900004-01710-045400FM-12+004499999V0200501N001512200019N0020001N1+02571+99999999999ADDAA199000091GA1001+999999999GF100991001001999999001001KA1240M+03191REMSYN081AAXX  19004 82198 32995 00503 10257 2044 30076 40128 333 10319 29086 55083 59007;EQDQ01  00002PRCP99
0186821980999992000081912004-01710-045400FM-12+004499999V0200501N002612200019N0100001N1+02731+02481101371ADDAA199000091GF103991031011017501001001KA1240N+02401MA1999999100851MD1999999-0011REMSYN076AAXX  19124 82198 32797 30505 10273 20248 30085 40137 83100 333 20240 59001;EQDQ01  00002PRCP99
0182821980999992000081918004-01710-045400FM-12+004499999V0200501N005710450019N0100001N1+02851+02401101141ADDAA106002091AY161061AY221061GF106991031021017501061001MA1999999100621MD1999999-0041MW1031REMSYN082AAXX  19184 82198 21797 60511 10285 20240 30062 40114 70362 83260 333 59004 60021;
0198821980999992000082000004-01710-045400FM-12+004499999V0200501N002112200019N0020001N1+02611+02351101271ADDAA199000091GF102991021011017501001001KA1240M+03161MA1999999100751MD1999999-0011REMSYN088AAXX  20004 82198 32795 20504 10261 20235 30075 40127 82100 333 10316 29074 55081 59001;EQDQ01  00002PRCP99
0173821980999992000082012004-01710-045400FM-12+004499999V0200501N003112200019N0100001N1+02811+02501101471ADDAA124002091GF104991041021017501001001KA1240N+02491MA1999999100951MD1999999+0101REMSYN082AAXX  20124 82198 22797 40506 10281 20250 30095 40147 84200 333 20249 58010 60024;
0182821980999992000082018004-01710-045400FM-12+004499999V0200501N005110150019N0100001N1+02781+02401101161ADDAA106007191AY161061AY221061GF108991051071017501061001MA1999999100641MD1999999+0021MW1031REMSYN082AAXX  20184 82198 21797 80510 10278 20240 30064 40116 70362 85760 333 58002 60071;
0173821980999992000082112004-01710-045400FM-12+004499999V0200501N004110150019N0100001N1+02801+02401101441ADDAA124008991GF106991061021017501001001KA1240N+02431MA1999999100931MD1999999-0021REMSYN082AAXX  21124 82198 22797 60508 10280 20240 30093 40144 86200 333 20243 59002 60094;
0182821980999992000082118004-01710-045400FM-12+004499999V0200901N003610450019N0100001N1+02661+02431101141ADDAA106000891AY151061AY221061GF106991021011017501061001MA1999999100631MD1999999+0011MW1021REMSYN082AAXX  21184 82198 21797 60907 10266 20243 30063 40114 70252 82160 333 58001 69981;
0198821980999992000082200004-01710-045400FM-12+004499999V0200501N002612200019N0020001N1+02531+02211101381ADDAA199000091GF102991021001017501061001KA1240M+03101MA1999999100871MD1999999+0031REMSYN088AAXX  22004 82198 32795 20505 10253 20221 30087 40138 82060 333 10310 29083 55067 58003;EQDQ01  00002PRCP99
0173821980999992000082212004-01710-045400FM-12+004499999V0200501N005110150019N0100001N1+02801+02401101331ADDAA124000891GF108991061021017501061001KA1240N+02401MA1999999100821MD1999999-0111REMSYN082AAXX  22124 82198 22797 80510 10280 20240 30082 40133 86260 333 20240 59011 69984;
0167821980999992000082218004-01710-045400FM-12+004499999V0200501N006710150019N0100001N1+02901+02391101061ADDAA199000091GF107991051021017501061001MA1999999100551MD1999999-0081REMSYN070AAXX  22184 82198 32797 70513 10290 20239 30055 40106 85260 333 59008;EQDQ01  00002PRCP99
0198821980999992000082300004-01710-045400FM-12+004499999V0200501N002112200019N0020001N1+02581+02231101251ADDAA199000091GF103991031001017501061001KA1240M+03081MA1999999100741MD1999999-0131REMSYN088AAXX  23004 82198 32795 30504 10258 20223 30074 40125 83060 333 10308 29079 55066 59013;EQDQ01  00002PRCP99
0186821980999992000082312004-01710-045400FM-12+004499999V0200901N005110150019N0100001N1+02831+02331101341ADDAA199000091GF105991051021017501001001KA1240N+02401MA1999999100831MD1999999+0011REMSYN076AAXX  23124 82198 32797 50910 10283 20233 30083 40134 85200 333 20240 58001;EQDQ01  00002PRCP99
0167821980999992000082318004-01710-045400FM-12+004499999V0200901N004612200019N0100001N1+03001+02321101041ADDAA199000091GF104991041021017501001001MA1999999100531MD1999999-0021REMSYN070AAXX  23184 82198 32797 40909 10300 20232 30053 40104 84200 333 59002;EQDQ01  00002PRCP99
0208821980999992000082400004-01710-045400FM-12+004499999V0200501N002612200019N0020001N1+02541+02211101181ADDAA199000091GA1001+999999999GF100991001001999999001001KA1240M+03081MA1999999100671MD1999999-0071REMSYN082AAXX  24004 82198 32995 00505 10254 20221 30067 40118 333 10308 29076 55105 59007;EQDQ01  00002PRCP99
0186821980999992000082412004-01710-045400FM-12+004499999V0200501N005110150019N0100001N1+02851+02401101371ADDAA199000091GF105991051021017501001001KA1240N+02411MA1999999100861MD1999999+0031REMSYN076AAXX  24124 82198 32797 50510 10285 20240 30086 40137 85200 333 20241 58003;EQDQ01  00002PRCP99
0167821980999992000082418004-01710-045400FM-12+004499999V0200501N006212200019N0100001N1+02971+02551101101ADDAA199000091GF104991031021017501001011MA1999999100591MD1999999+0061REMSYN070AAXX  24184 82198 32797 40512 10297 20255 30059 40110 83201 333 58006;EQDQ01  00002PRCP99
0198821980999992000082500004-01710-045400FM-12+004499999V0200501N004610450019N0020001N1+02561+02211101331ADDAA199000091GF105991031021017501061001KA1240M+03131MA1999999100821MD1999999+0151REMSYN088AAXX  25004 82198 32795 50509 10256 20221 30082 40133 83260 333 10313 29079 55096 58015;EQDQ01  00002PRCP99
0201821980999992000082512004-01710-045400FM-12+004499999V0200901N005110150019N0100001N1+02751+02341101351ADDAA124000191AY151061AY221061GF106991061021017501001001KA1240N+02401MA1999999100841MD1999999-0021MW1021REMSYN088AAXX  25124 82198 21797 60910 10275 20234 30084 40135 70252 86200 333 20240 59002 69924;
0167821980999992000082518004-01710-045400FM-12+004499999V0200901N004610150019N0100001N1+02981+02331101061ADDAA199000091GF105991051021017501001001MA1999999100551MD1999999-0041REMSYN070AAXX  25184 82198 32797 50909 10298 20233 30055 40106 85200 333 59004;EQDQ01  00002PRCP99
0208821980999992000082600004-01710-045400FM-12+004499999V0200501N002112200019N0020001N1+02521+02151101231ADDAA199000091GA1001+999999999GF100991001001999999001001KA1240M+03091MA1999999100721MD1999999-0101REMSYN082AAXX  26004 82198 32995 00504 10252 20215 30072 40123 333 10309 29076 55096 59010;EQDQ01  00002PRCP99
0186821980999992000082612004-01710-045400FM-12+004499999V0200901N005710150019N0100001N1+02811+02311101181ADDAA199000091GF105991051021017501001001KA1240N+02411MA1999999100671MD1999999-0171REMSYN076AAXX  26124 82198 32797 50911 10281 20231 30067 40118 85200 333 20241 59017;EQDQ01  00002PRCP99
0167821980999992000082618004-01710-045400FM-12+004499999V0200901N006212200019N0100001N1+03041+02451100981ADDAA199000091GF104991041021017501001001MA1999999100471MD1999999-0081REMSYN070AAXX  26184 82198 32797 40912 10304 20245 30047 40098 84200 333 59008;EQDQ01  00002PRCP99
0208821980999992000082700004-01710-045400FM-12+004499999V0200901N002112200019N0020001N1+02581+02211101151ADDAA199000091GA1001+999999999GF100991001001999999001001KA1240M+03151MA1999999100641MD1999999-0081REMSYN082AAXX  27004 82198 32995 00904 10258 20221 30064 40115 333 10315 29076 55105 59008;EQDQ01  00002PRCP99
0186821980999992000082712004-01710-045400FM-12+004499999V0200501N004610150019N0100001N1+02831+02381101181ADDAA199000091GF105991051021017501001001KA1240N+02421MA1999999100671MD1999999+0001REMSYN076AAXX  27124 82198 32797 50509 10283 20238 30067 40118 85200 333 20242 58000;EQDQ01  00002PRCP99
0167821980999992000082718004-01710-045400FM-12+004499999V0200501N005712200019N0100001N1+03041+02431100821ADDAA199000091GF104991041021017501001001MA1999999100311MD1999999-0161REMSYN070AAXX  27184 82198 32797 40511 10304 20243 30031 40082 84200 333 59016;EQDQ01  00002PRCP99
0208821980999992000082800004-01710-045400FM-12+004499999V0200501N003612200019N0020001N1+02551+02211101071ADDAA199000091GA1001+999999999GF100991001001999999001001KA1240M+03131MA1999999100561MD1999999-0081REMSYN082AAXX  28004 82198 32995 00507 10255 20221 30056 40107 333 10313 29077 55102 59008;EQDQ01  00002PRCP99
0186821980999992000082812004-01710-045400FM-12+004499999V0200501N004112200019N0100001N1+02781+02321101171ADDAA199000091GF101991011011017501001001KA1240N+02411MA1999999100651MD1999999-0021REMSYN076AAXX  28124 82198 32797 10508 10278 20232 30065 40117 81100 333 20241 59002;EQDQ01  00002PRCP99
0167821980999992000082818004-01710-045400FM-12+004499999V0200901N003612200019N0100001N1+03191+02381100861ADDAA199000091GF104991041021017501001001MA1999999100141MD1999999+0031REMSYN070AAXX  28184 82198 32797 40907 10319 20238 30014 40086 84200 333 58003;EQDQ01  00002PRCP99
0208821980999992000082900004-01710-045400FM-12+004499999V0200501N003112200019N0020001N1+02601+02351101051ADDAA199000091GA1001+999999999GF100991001001999999001001KA1240M+03261MA1999999100531MD1999999-0031REMSYN082AAXX  29004 82198 32995 00506 10260 20235 30053 40105 333 10326 29078 55093 59003;EQDQ01  00002PRCP99
0186821980999992000082912004-01710-045400FM-12+004499999V0200501N004612200019N0100001N1+02761+02421101271ADDAA199000091GF103991031021017501001001KA1240N+02471MA1999999100751MD1999999+0101REMSYN076AAXX  29124 82198 32797 30509 10276 20242 30075 40127 83200 333 20247 58010;EQDQ01  00002PRCP99
0167821980999992000082918004-01710-045400FM-12+004499999V0200501N004112200019N0100001N1+03031+02421101101ADDAA199000091GF103991031021017501001001MA1999999100581MD1999999+0241REMSYN070AAXX  29184 82198 32797 30508 10303 20242 30058 40110 83200 333 58024;EQDQ01  00002PRCP99
0208821980999992000083000004-01710-045400FM-12+004499999V0200501N001012200019N0020001N1+02591+02401101161ADDAA199000091GA1001+999999999GF100991001001999999001001KA1240M+03121MA1999999100641MD1999999+0111REMSYN082AAXX  30004 82198 32995 00502 10259 20240 30064 40116 333 10312 29091 55083 58011;EQDQ01  00002PRCP99
0186821980999992000083012004-01710-045400FM-12+004499999V0200501N003112200019N0100001N1+02701+02431101261ADDAA199000091GF102991021011017501001001KA1240N+02381MA1999999100741MD1999999-0011REMSYN076AAXX  30124 82198 32797 20506 10270 20243 30074 40126 82100 333 20238 59001;EQDQ01  00002PRCP99
0167821980999992000083018004-01710-045400FM-12+004499999V0200901N006712200019N0100001N1+03021+02311101091ADDAA199000091GF104991041021017501001001MA1999999100571MD1999999-0011REMSYN070AAXX  30184 82198 32797 40913 10302 20231 30057 40109 84200 333 59001;EQDQ01  00002PRCP99
0208821980999992000083100004-01710-045400FM-12+004499999V0200501N003112200019N0020001N1+02591+02441101181ADDAA199000091GA1001+999999999GF100991001001999999001001KA1240M+03121MA1999999100661MD1999999+0021REMSYN082AAXX  31004 82198 32995 00506 10259 20244 30066 40118 333 10312 29083 55096 58002;EQDQ01  00002PRCP99
0186821980999992000083112004-01710-045400FM-12+004499999V0200501N003112200019N0100001N1+02741+02361101181ADDAA199000091GF104991041021017501001001KA1240N+02421MA1999999100661MD1999999+0081REMSYN076AAXX  31124 82198 32797 40506 10274 20236 30066 40118 84200 333 20242 58008;EQDQ01  00002PRCP99
0167821980999992000083118004-01710-045400FM-12+004499999V0200901N005710450019N0100001N1+03091+02321101011ADDAA199000091GF105991031021017501061001MA1999999100491MD1999999-0081REMSYN070AAXX  31184 82198 32797 50911 10309 20232 30049 40101 83260 333 59008;EQDQ01  00002PRCP99
0208821980999992000090100004-01710-045400FM-12+004499999V0200501N004612200019N0020001N1+02611+02351101091ADDAA199000091GA1001+999999999GF100991001001999999001001KA1240M+03101MA1999999100571MD1999999-0091REMSYN082AAXX  01004 82198 32995 00509 10261 20235 30057 40109 333 10310 29080 55095 59009;EQDQ01  00002PRCP99
0202821980999992000090112004-01710-045400FM-12+004499999V0200501N003612200019N0100001N1+02721+02391101181ADDAA199000091GF101991999021017501001001KA1240N+02431MA1999999100661MD1999999+0001REMSYN076AAXX  01124 82198 32797 10507 10272 20239 30066 40118 83200 333 20243 58000;EQDQ01+000032SCOTLCQ02  00002PRCP99
0167821980999992000090118004-01710-045400FM-12+004499999V0200901N005110150019N0100001N1+03051+02241101001ADDAA199000091GF106991061021017501001001MA1999999100481MD1999999-0011REMSYN070AAXX  01184 82198 32797 60910 10305 20224 30048 40100 86200 333 59001;EQDQ01  00002PRCP99
0198821980999992000090200004-01710-045400FM-12+004499999V0200501N003112200019N0020001N1+02551+02311101051ADDAA199000091GF101991011011017501001001KA1240M+03141MA1999999100531MD1999999-0031REMSYN088AAXX  02004 82198 32795 10506 10255 20231 30053 40105 81100 333 10314 29078 55100 59003;EQDQ01  00002PRCP99
0186821980999992000090212004-01710-045400FM-12+004499999V0200501N004112200019N0100001N1+02681+02391101211ADDAA199000091GF103991021021017501001011KA1240N+02411MA1999999100691MD1999999+0031REMSYN076AAXX  02124 82198 32797 30508 10268 20239 30069 40121 82201 333 20241 58003;EQDQ01  00002PRCP99
0167821980999992000090218004-01710-045400FM-12+004499999V0200501N003610150019N0100001N1+03061+02351101011ADDAA199000091GF105991051021017501001001MA1999999100491MD1999999+0011REMSYN070AAXX  02184 82198 32797 50507 10306 20235 30049 40101 85200 333 58001;EQDQ01  00002PRCP99
0186821980999992000090312004-01710-045400FM-12+004499999V0200501N003612200019N0100001N1+02661+02331101181ADDAA199000091GF102991021011017501001001KA1240N+02401MA1999999100661MD1999999-0031REMSYN076AAXX  03124 82198 32797 20507 10266 20233 30066 40118 82100 333 20240 59003;EQDQ01  00002PRCP99
0167821980999992000090318004-01710-045400FM-12+004499999V0200501N003110150019N0100001N1+03131+02361101011ADDAA199000091GF105991051021017501001001MA1999999100491MD1999999+0071REMSYN070AAXX  03184 82198 32797 50506 10313 20236 30049 40101 85200 333 58007;EQDQ01  00002PRCP99
0168821980999992000090400004-01710-045400FM-12+004499999V0200501N004112200019N0020001N1+02601+99999999999ADDAA199000091GF101991999999017501999999KA1240M+03231REMSYN087AAXX  04004 82198 32795 10508 10260 0231 30062 40114 81100 333 10323 29078 55102 58001;EQDQ01  00002PRCP99
0186821980999992000090412004-01710-045400FM-12+004499999V0200901N003112200019N0100001N1+02781+02321101321ADDAA199000091GF103991021011017501031001KA1240N+02441MA1999999100801MD1999999+0141REMSYN076AAXX  04124 82198 32797 30906 10278 20232 30080 40132 82130 333 20244 58014;EQDQ01  00002PRCP99
0167821980999992000090418004-01710-045400FM-12+004499999V0200901N004610450019N0100001N1+03061+02431101021ADDAA199000091GF106991041021017501061001MA1999999100511MD1999999+0021REMSYN070AAXX  04184 82198 32797 60909 10306 20243 30051 40102 84260 333 58002;EQDQ01  00002PRCP99
0208821980999992000090500004-01710-045400FM-12+004499999V0200501N003112200019N0020001N1+02591+02351101121ADDAA199000091GA1001+999999999GF100991001001999999001001KA1240M+03151MA1999999100601MD1999999-0021REMSYN082AAXX  05004 82198 32995 00506 10259 20235 30060 40112 333 10315 29079 55085 59002;EQDQ01  00002PRCP99
0186821980999992000090512004-01710-045400FM-12+004499999V0200501N004110450019N0100001N1+02701+02371101241ADDAA199000091GF105991031021017501061001KA1240N+02391MA1999999100721MD1999999-0081REMSYN076AAXX  05124 82198 32797 50508 10270 20237 30072 40124 83260 333 20239 59008;EQDQ01  00002PRCP99
0167821980999992000090518004-01710-045400FM-12+004499999V0200501N005710450019N0100001N1+02991+02291101191ADDAA199000091GF106991041021017501061001MA1999999100671MD1999999+0161REMSYN070AAXX  05184 82198 32797 60511 10299 20229 30067 40119 84260 333 58016;EQDQ01  00002PRCP99
0208821980999992000090600004-01710-045400FM-12+004499999V0200501N004112200019N0020001N1+02601+02311101201ADDAA199000091GA1001+999999999GF100991001001999999001001KA1240M+03271MA1999999100681MD1999999+0081REMSYN082AAXX  06004 82198 32995 00508 10260 20231 30068 40120 333 10327 29079 55067 58008;EQDQ01  00002PRCP99
0186821980999992000090612004-01710-045400FM-12+004499999V0200501N004110450019N0100001N1+02691+02231101321ADDAA199000091GF106991041021017501061001KA1240N+02451MA1999999100801MD1999999+0081REMSYN076AAXX  06124 82198 32797 60508 10269 20223 30080 40132 84260 333 20245 58008;EQDQ01  00002PRCP99
0167821980999992000090618004-01710-045400FM-12+004499999V0200501N005710450019N0100001N1+02941+02191101061ADDAA199000091GF106991041021017501061001MA1999999100541MD1999999-0071REMSYN070AAXX  06184 82198 32797 60511 10294 20219 30054 40106 84260 333 59007;EQDQ01  00002PRCP99
0208821980999992000090700004-01710-045400FM-12+004499999V0200501N003612200019N0020001N1+02551+02291101191ADDAA199000091GA1001+999999999GF100991001001999999001001KA1240M+03081MA1999999100671MD1999999-0011REMSYN082AAXX  07004 82198 32995 00507 10255 20229 30067 40119 333 10308 29078 55086 59001;EQDQ01  00002PRCP99
0186821980999992000090712004-01710-045400FM-12+004499999V0200501N001010450019N0100001N1+02571+02461101221ADDAA199000091GF105991031021017501011011KA1240N+02261MA1999999100701MD1999999-0101REMSYN076AAXX  07124 82198 32797 50502 10257 20246 30070 40122 83211 333 20226 59010;EQDQ01  00002PRCP99
0167821980999992000090718004-01710-045400FM-12+004499999V0200501N003610150019N0100001N1+03071+02191100971ADDAA199000091GF105991051021017501001001MA1999999100451MD1999999-0091REMSYN070AAXX  07184 82198 32797 50507 10307 20219 30045 40097 85200 333 59009;EQDQ01  00002PRCP99
0198821980999992000090800004-01710-045400FM-12+004499999V0200501N003612200019N0020001N1+02571+02311101051ADDAA199000091GF101991011011017501001001KA1240M+03141MA1999999100531MD1999999-0061REMSYN088AAXX  08004 82198 32795 10507 10257 20231 30053 40105 81100 333 10314 29078 55062 59006;EQDQ01  00002PRCP99
0186821980999992000090812004-01710-045400FM-12+004499999V0200501N003110450019N0100001N1+02741+02451101151ADDAA199000091GF105991031021017501011011KA1240N+02411MA1999999100631MD1999999-0071REMSYN076AAXX  08124 82198 32797 50506 10274 20245 30063 40115 83211 333 20241 59007;EQDQ01  00002PRCP99
0167821980999992000090818004-01710-045400FM-12+004499999V0200501N005710450019N0100001N1+02961+02421100901ADDAA199000091GF106991031021017501061001MA1999999100381MD1999999-0071REMSYN070AAXX  08184 82198 32797 60511 10296 20242 30038 40090 83260 333 59007;EQDQ01  00002PRCP99
0198821980999992000090900004-01710-045400FM-12+004499999V0200501N004611050019N0020001N1+02611+02371101051ADDAA199000091GF105991021021017501031011KA1240M+03131MA1999999100531MD1999999+0001REMSYN088AAXX  09004 82198 32795 50509 10261 20237 30053 40105 82231 333 10313 29082 55076 58000;EQDQ01  00002PRCP99
0186821980999992000090912004-01710-045400FM-12+004499999V0200501N003610450019N0100001N1+02791+02461101171ADDAA199000091GF106991041021017501061001KA1240N+02491MA1999999100651MD1999999-0021REMSYN076AAXX  09124 82198 32797 60507 10279 20246 30065 40117 84260 333 20249 59002;EQDQ01  00002PRCP99
0167821980999992000090918004-01710-045400FM-12+004499999V0200501N005710150019N0100001N1+03011+02271101001ADDAA199000091GF106991061021017501001001MA1999999100481MD1999999+0101REMSYN070AAXX  09184 82198 32797 60511 10301 20227 30048 40100 86200 333 58010;EQDQ01  00002PRCP99
0198821980999992000091000004-01710-045400FM-12+004499999V0200201N025712200019N0020001N1+02611+02311101121ADDAA199000091GF102991021021017501001001KA1240M+03161MA1999999100601MD1999999+0071REMSYN088AAXX  10004 82198 32795 20250 10261 20231 30060 40112 82200 333 10316 29078 55085 58007;EQDQ01  00002PRCP99
0186821980999992000091012004-01710-045400FM-12+004499999V0200901N004612200019N0100001N1+02811+02381101221ADDAA199000091GF103991031021017501001001KA1240N+02451MA1999999100681MD1999999+0031REMSYN076AAXX  10124 82198 32797 30909 10281 20238 30068 40122 83200 333 20245 58003;EQDQ01  00002PRCP99
0208821980999992000091100004-01710-045400FM-12+004499999V0200501N003612200019N0020001N1+02611+02271101011ADDAA199000091GA1001+999999999GF100991001001999999001001KA1240M+03121MA1999999100491MD1999999-0111REMSYN082AAXX  11004 82198 32995 00507 10261 20227 30049 40101 333 10312 29078 55088 59011;EQDQ01  00002PRCP99
0186821980999992000091112004-01710-045400FM-12+004499999V0200501N005712200019N0100001N1+02751+02341101201ADDAA199000091GF103991011021017501031011KA1240N+02351MA1999999100681MD1999999+0001REMSYN076AAXX  11124 82198 32797 30511 10275 20234 30068 40120 81231 333 20235 58000;EQDQ01  00002PRCP99
0167821980999992000091118004-01710-045400FM-12+004499999V0200501N004110150019N0100001N1+03001+02291100981ADDAA199000091GF107991051021017501061001MA1999999100461MD1999999+0021REMSYN070AAXX  11184 82198 32797 70508 10300 20229 30046 40098 85260 333 58002;EQDQ01  00002PRCP99
0198821980999992000091200004-01710-045400FM-12+004499999V0200501N003612200019N0020001N1+02541+02251101081ADDAA199000091GF103991031001017501001011KA1240M+03101MA1999999100561MD1999999+0071REMSYN088AAXX  12004 82198 32795 30507 10254 20225 30056 40108 83001 333 10310 29078 55077 58007;EQDQ01  00002PRCP99
0186821980999992000091212004-01710-045400FM-12+004499999V0200501N003612200019N0100001N1+02801+02251101201ADDAA199000091GF104991041021017501001001KA1240N+02441MA1999999100681MD1999999+0001REMSYN076AAXX  12124 82198 32797 40507 10280 20225 30068 40120 84200 333 20244 58000;EQDQ01  00002PRCP99
0167821980999992000091218004-01710-045400FM-12+004499999V0200501N004610450019N0100001N1+03091+02141101021ADDAA199000091GF106991031021017501061011MA1999999100501MD1999999+0041REMSYN070AAXX  12184 82198 32797 60509 10309 20214 30050 40102 83261 333 58004;EQDQ01  00002PRCP99
0208821980999992000091300004-01710-045400FM-12+004499999V0200501N003612200019N0020001N1+02561+02251101111ADDAA199000091GA1001+999999999GF100991001001999999001001KA1240M+03211MA1999999100601MD1999999+0041REMSYN082AAXX  13004 82198 32995 00507 10256 20225 30060 40111 333 10321 29074 55099 58004;EQDQ01  00002PRCP99
0186821980999992000091312004-01710-045400FM-12+004499999V0200501N004610450019N0100001N1+02751+02381101271ADDAA199000091GF105991031021017501031011KA1240N+02431MA1999999100751MD1999999+0071REMSYN076AAXX  13124 82198 32797 50509 10275 20238 30075 40127 83231 333 20243 58007;EQDQ01  00002PRCP99
0182821980999992000091318004-01710-045400FM-12+004499999V0200501N007210150019N0100001N1+02601+02371101101ADDAA106015091AY161061AY221061GF107991051021017501061011MA1999999100581MD1999999+0081MW1031REMSYN082AAXX  13184 82198 21797 70514 10260 20237 30058 40110 70362 85261 333 58008 60151;
0198821980999992000091400004-01710-045400FM-12+004499999V0200501N004112200019N0020001N1+02571+02391101201ADDAA199000091GF102991011011017501031001KA1240M+03061MA1999999100681MD1999999+0081REMSYN088AAXX  14004 82198 32795 20508 10257 20239 30068 40120 81130 333 10306 29085 55047 58008;EQDQ01  00002PRCP99
0173821980999992000091412004-01710-045400FM-12+004499999V0200501N003110450019N0100001N1+02801+02421101341ADDAA124015091GF107991041021017501061001KA1240N+02421MA1999999100821MD1999999+0071REMSYN082AAXX  14124 82198 22797 70506 10280 20242 30082 40134 84260 333 20242 58007 60154;
0167821980999992000091418004-01710-045400FM-12+004499999V0200501N006710150019N0100001N1+03011+02291101131ADDAA199000091GF105991051021017501001001MA1999999100611MD1999999+0031REMSYN070AAXX  14184 82198 32797 50513 10301 20229 30061 40113 85200 333 58003;EQDQ01  00002PRCP99
0186821980999992000091512004-01710-045400FM-12+004499999V0200501N005110150019N0100001N1+02721+02371101321ADDAA199000091GF107991051021017501011001KA1240N+02441MA1999999100801MD1999999-0021REMSYN076AAXX  15124 82198 32797 70510 10272 20237 30080 40132 85210 333 20244 59002;EQDQ01  00002PRCP99
0167821980999992000091518004-01710-045400FM-12+004499999V0200501N007212200019N0100001N1+03091+02171101181ADDAA199000091GF106991041021017501001011MA1999999100661MD1999999+0051REMSYN070AAXX  15184 82198 32797 60514 10309 20217 30066 40118 84201 333 58005;EQDQ01  00002PRCP99
0198821980999992000091600004-01710-045400FM-12+004499999V0200501N004612200019N0020001N1+02541+02401101291ADDAA199000091GF101991011011017501001001KA1240M+03151MA1999999100771MD1999999+0121REMSYN088AAXX  16004 82198 32795 10509 10254 20240 30077 40129 81100 333 10315 29082 55097 58012;EQDQ01  00002PRCP99
0167821980999992000091618004-01710-045400FM-12+004499999V0200501N005110150019N0100001N1+03091+02461101091ADDAA199000091GF105991051021017501001001MA1999999100571MD1999999-0091REMSYN070AAXX  16184 82198 32797 50510 10309 20246 30057 40109 85200 333 59009;EQDQ01  00002PRCP99
0198821980999992000091700004-01710-045400FM-12+004499999V0200501N003112200019N0020001N1+02541+02211101211ADDAA199000091GF102991021021017501001001KA1240M+03161MA1999999100691MD1999999-0081REMSYN088AAXX  17004 82198 32795 20506 10254 20221 30069 40121 82200 333 10316 29080 55098 59008;EQDQ01  00002PRCP99
0167821980999992000091718004-01710-045400FM-12+004499999V0200901N005112200019N0100001N1+03071+02371101001ADDAA199000091GF105991031021017501001011MA1999999100481MD1999999-0091REMSYN070AAXX  17184 82198 32797 50910 10307 20237 30048 40100 83201 333 59009;EQDQ01  00002PRCP99
0226821980999992000091800004-01710-045400FM-12+004499999V0200501N002612200019N0020001N1+02641+02391101291ADDAA199000091AY121061AY221061GF104991031021017501061001KA1240M+03181MA1999999100771MD1999999+0081MW1131REMSYN094AAXX  18004 82198 31795 40505 10264 20239 30077 40129 71322 83260 333 10318 29080 55065 58008;EQDQ01  00002PRCP99
0201821980999992000091812004-01710-045400FM-12+004499999V0202301N004610450019N0100001N1+02131+01921101401ADDAA124055191AY161061AY291061GF108991041071017501061001KA1240N+02111MA1999999100881MD1999999+0091MW1031REMSYN088AAXX  18124 82198 21797 82309 10213 20192 30088 40140 70369 84760 333 20211 58009 60554;
0182821980999992000091818004-01710-045400FM-12+004499999V0200501N004610450019N0100001N1+02451+02301101181ADDAA106001091AY161061AY221061GF108991041051017501011011MA1999999100661MD1999999+0181MW1021REMSYN082AAXX  18184 82198 21797 80509 10245 20230 30066 40118 70262 84511 333 58018 60011;
0208821980999992000091900004-01710-045400FM-12+004499999V0200901N002112200019N0020001N1+02511+02401101291ADDAA199000091GA1001+999999999GF100991001001999999001001KA1240M+02761MA1999999100771MD1999999+0001REMSYN082AAXX  19004 82198 32995 00904 10251 20240 30077 40129 333 10276 29092 55005 58000;EQDQ01  00002PRCP99
0173821980999992000091912004-01710-045400FM-12+004499999V0200501N003610450019N0100001N1+02781+02421101391ADDAA124001091GF107991041021017501061001KA1240N+02151MA1999999100871MD1999999-0011REMSYN082AAXX  19124 82198 22797 70507 10278 20242 30087 40139 84260 333 20215 59001 60014;
0182821980999992000091918004-01710-045400FM-12+004499999V0200501N004610450019N0100001N1+02831+02341101051ADDAA106002091AY161061AY221061GF107991041021017501061011MA1999999100531MD1999999-0131MW1021REMSYN082AAXX  19184 82198 21797 70509 10283 20234 30053 40105 70262 84261 333 59013 60021;
0208821980999992000092000004-01710-045400FM-12+004499999V0200901N002112200019N0020001N1+02541+02381101261ADDAA199000091GA1001+999999999GF100991001001999999001001KA1240M+03061MA1999999100741MD1999999-0031REMSYN082AAXX  20004 82198 32995 00904 10254 20238 30074 40126 333 10306 29084 55055 59003;EQDQ01  00002PRCP99
0173821980999992000092012004-01710-045400FM-12+004499999V0200501N003610450019N0100001N1+02761+02401101301ADDAA124002091GF106991041021017501061001KA1240N+02411MA1999999100781MD1999999-0091REMSYN082AAXX  20124 82198 22797 60507 10276 20240 30078 40130 84260 333 20241 59009 60024;
0167821980999992000092018004-01710-045400FM-12+004499999V0200901N005710150019N0100001N1+03031+02341101021ADDAA199000091GF105991051021017501001001MA1999999100511MD1999999+0021REMSYN070AAXX  20184 82198 32797 50911 10303 20234 30051 40102 85200 333 58002;EQDQ01  00002PRCP99
0186821980999992000092112004-01710-045400FM-12+004499999V0200501N004610150019N0100001N1+02721+02321101171ADDAA199000091GF106991061021017501001001KA1240N+02401MA1999999100651MD1999999-0131REMSYN076AAXX  21124 82198 32797 60509 10272 20232 30065 40117 86200 333 20240 59013;EQDQ01  00002PRCP99
0167821980999992000092118004-01710-045400FM-12+004499999V0200501N006710450019N0100001N1+03051+02981101021ADDAA199000091GF106991041021017501061001MA1999999100501MD1999999-0011REMSYN070AAXX  21184 82198 32797 60513 10305 20298 30050 40102 84260 333 59001;EQDQ01  00002PRCP99
0186821980999992000092212004-01710-045400FM-12+004499999V0200501N003112200019N0100001N1+02771+02481101271ADDAA199000091GF103991031011017501001001KA1240N+02441MA1999999100751MD1999999+0101REMSYN076AAXX  22124 82198 32797 30506 10277 20248 30075 40127 83100 333 20244 58010;EQDQ01  00002PRCP99
0167821980999992000092218004-01710-045400FM-12+004499999V0200501N005712200019N0100001N1+03031+02371101081ADDAA199000091GF103991031021017501001001MA1999999100561MD1999999+0061REMSYN070AAXX  22184 82198 32797 30511 10303 20237 30056 40108 83200 333 58006;EQDQ01  00002PRCP99
0208821980999992000092300004-01710-045400FM-12+004499999V0200501N004112200019N0020001N1+02601+02351101201ADDAA199000091GA1001+999999999GF100991001001999999001001KA1240M+03121MA1999999100681MD1999999-0011REMSYN082AAXX  23004 82198 32995 00508 10260 20235 30068 40120 333 10312 29081 55083 59001;EQDQ01  00002PRCP99
0186821980999992000092312004-01710-045400FM-12+004499999V0200501N004610150019N0100001N1+02831+02361101241ADDAA199000091GF106991061021017501001001KA1240N+02401MA1999999100721MD1999999-0031REMSYN076AAXX  23124 82198 32797 60509 10283 20236 30072 40124 86200 333 20240 59003;EQDQ01  00002PRCP99
0167821980999992000092318004-01710-045400FM-12+004499999V0200501N004610150019N0100001N1+03081+02321100941ADDAA199000091GF105991051021017501001001MA1999999100421MD1999999+0141REMSYN070AAXX  23184 82198 32797 50509 10308 20232 30042 40094 85200 333 58014;EQDQ01  00002PRCP99
0208821980999992000092400004-01710-045400FM-12+004499999V0200501N003612200019N0020001N1+02641+02411101071ADDAA199000091GA1001+999999999GF100991001001999999001001KA1240M+03151MA1999999100551MD1999999+0131REMSYN082AAXX  24004 82198 32995 00507 10264 20241 30055 40107 333 10315 29078 55092 58013;EQDQ01  00002PRCP99
0186821980999992000092412004-01710-045400FM-12+004499999V0200501N006210450019N0100001N1+02901+02431101171ADDAA199000091GF106991041021017501061001KA1240N+02461MA1999999100651MD1999999-0071REMSYN076AAXX  24124 82198 32797 60512 10290 20243 30065 40117 84260 333 20246 59007;EQDQ01  00002PRCP99
0167821980999992000092418004-01710-045400FM-12+004499999V0200501N008710450019N0100001N1+02981+02371100861ADDAA199000091GF105991021021017501061001MA1999999100341MD1999999-0081REMSYN070AAXX  24184 82198 32797 50517 10298 20237 30034 40086 82260 333 59008;EQDQ01  00002PRCP99
0236821980999992000092500004-01710-045400FM-12+004499999V0200501N003112200019N0020001N1+02591+02311101021ADDAA199000091AY121061AY211061GA1001+999999999GF100991001001999999001001KA1240M+03091MA1999999100501MD1999999-0051MW1131REMSYN088AAXX  25004 82198 31995 00506 10259 20231 30050 40102 71321 333 10309 29078 55095 59005;EQDQ01  00002PRCP99
0167821980999992000092518004-01710-045400FM-12+004499999V0200501N005710150019N0100001N1+03031+02321101061ADDAA199000091GF106991061021017501001001MA1999999100541MD1999999+0201REMSYN070AAXX  25184 82198 32797 60511 10303 20232 30054 40106 86200 333 58020;EQDQ01  00002PRCP99
0236821980999992000092600004-01710-045400FM-12+004499999V0200501N003112200019N0020001N1+02591+02371101321ADDAA199000091AY121061AY211061GA1001+999999999GF100991001001999999001001KA1240M+03101MA1999999100801MD1999999+0301MW1131REMSYN088AAXX  26004 82198 31995 00506 10259 20237 30080 40132 71321 333 10310 29080 55092 58030;EQDQ01  00002PRCP99
0186821980999992000092612004-01710-045400FM-12+004499999V0200501N005110450019N0100001N1+02791+02401101371ADDAA199000091GF106991041021017501061001KA1240N+02501MA1999999100851MD1999999+0101REMSYN076AAXX  26124 82198 32797 60510 10279 20240 30085 40137 84260 333 20250 58010;EQDQ01  00002PRCP99
0167821980999992000092618004-01710-045400FM-12+004499999V0200501N006210450019N0100001N1+02991+02341101161ADDAA199000091GF106991041021017501061001MA1999999100641MD1999999+0101REMSYN070AAXX  26184 82198 32797 60512 10299 20234 30064 40116 84260 333 58010;EQDQ01  00002PRCP99
0208821980999992000092700004-01710-045400FM-12+004499999V0200501N003112200019N0020001N1+02621+02311101241ADDAA199000091GA1001+999999999GF100991001001999999001001KA1240M+03101MA1999999100721MD1999999-0081REMSYN082AAXX  27004 82198 32995 00506 10262 20231 30072 40124 333 10310 29078 55079 59008;EQDQ01  00002PRCP99
0186821980999992000092712004-01710-045400FM-12+004499999V0200501N005710150019N0100001N1+02841+02331101371ADDAA199000091GF105991051021017501001001KA1240N+02541MA1999999100851MD1999999+0001REMSYN076AAXX  27124 82198 32797 50511 10284 20233 30085 40137 85200 333 20254 58000;EQDQ01  00002PRCP99
0182821980999992000092718004-01710-045400FM-12+004499999V0200501N003610450019N0100001N1+02691+02351101061ADDAA106002091AY161061AY221061GF105991031021017501061011MA1999999100541MD1999999-0101MW1021REMSYN082AAXX  27184 82198 21797 50507 10269 20235 30054 40106 70262 83261 333 59010 60021;
0208821980999992000092800004-01710-045400FM-12+004499999V0200501N003112200019N0020001N1+02591+02311101191ADDAA199000091GA1001+999999999GF100991001001999999001001KA1240M+03071MA1999999100671MD1999999-0051REMSYN082AAXX  28004 82198 32995 00506 10259 20231 30067 40119 333 10307 29082 55070 59005;EQDQ01  00002PRCP99
0173821980999992000092812004-01710-045400FM-12+004499999V0200501N005110450019N0100001N1+02821+02331101391ADDAA124002091GF106991031021017501061011KA1240N+02461MA1999999100871MD1999999+0021REMSYN082AAXX  28124 82198 22797 60510 10282 20233 30087 40139 83261 333 20246 58002 60024;
0182821980999992000092818004-01710-045400FM-12+004499999V0200501N005710450019N0100001N1+02991+02371101081ADDAA106001091AY161061AY221061GF107991041021017501061001MA1999999100561MD1999999+0021MW1031REMSYN082AAXX  28184 82198 21797 70511 10299 20237 30056 40108 70362 84260 333 58002 60011;
0208821980999992000092900004-01710-045400FM-12+004499999V0200501N003612200019N0020001N1+02561+02311101201ADDAA199000091GA1001+999999999GF100991001001999999001001KA1240M+03141MA1999999100681MD1999999+0011REMSYN082AAXX  29004 82198 32995 00507 10256 20231 30068 40120 333 10314 29079 55074 58001;EQDQ01  00002PRCP99
0173821980999992000092912004-01710-045400FM-12+004499999V0200501N004610450019N0100001N1+02821+02401101381ADDAA124001091GF106991041021017501061001KA1240N+02241MA1999999100821MD1999999-0011REMSYN082AAXX  29124 82198 22797 60509 10282 20240 30082 40138 84260 333 20224 59001 60014;
0167821980999992000092918004-01710-045400FM-12+004499999V0200501N006212200019N0100001N1+03011+02221101041ADDAA199000091GF105991031021017501001011MA1999999100521MD1999999-0041REMSYN070AAXX  29184 82198 32797 50512 10301 20222 30052 40104 83201 333 59004;EQDQ01  00002PRCP99
0208821980999992000093000004-01710-045400FM-12+004499999V0200501N003112200019N0020001N1+02571+02331101241ADDAA199000091GA1001+999999999GF100991001001999999001001KA1240M+03121MA1999999100721MD1999999+0041REMSYN082AAXX  30004 82198 32995 00506 10257 20233 30072 40124 333 10312 29078 55099 58004;EQDQ01  00002PRCP99
0186821980999992000093012004-01710-045400FM-12+004499999V0200501N004110150019N0100001N1+02771+02331101331ADDAA199000091GF105991051021017501001001KA1240N+02421MA1999999100811MD1999999-0051REMSYN076AAXX  30124 82198 32797 50508 10277 20233 30081 40133 85200 333 20242 59005;EQDQ01  00002PRCP99
0167821980999992000093018004-01710-045400FM-12+004499999V0200901N005712200019N0100001N1+03071+02141101121ADDAA199000091GF103991031021017501001001MA1999999100601MD1999999+0081REMSYN070AAXX  30184 82198 32797 30911 10307 20214 30060 40112 83200 333 58008;EQDQ01  00002PRCP99
0208821980999992000100100004-01710-045400FM-12+004499999V0200501N004112200019N0020001N1+02601+02331101201ADDAA199000091GA1001+999999999GF100991001001999999001001KA1240M+03121MA1999999100681MD1999999-0041REMSYN082AAXX  01004 82198 32995 00508 10260 20233 30068 40120 333 10312 29078 55102 59004;EQDQ01  00002PRCP99
0186821980999992000100112004-01710-045400FM-12+004499999V0200901N006710150019N0100001N1+02741+02321101421ADDAA199000091GF106991061021017501001001KA1240N+02481MA1999999100901MD1999999+0091REMSYN076AAXX  01124 82198 32797 60913 10274 20232 30090 40142 86200 333 20248 58009;EQDQ01  00002PRCP99
0186821980999992000100212004-01710-045400FM-12+004499999V0200501N007210150019N0100001N1+02801+02381101461ADDAA199000091GF105991051021017501001001KA1240N+02451MA1999999100951MD1999999+0051REMSYN076AAXX  02124 82198 32797 50514 10280 20238 30095 40146 85200 333 20245 58005;EQDQ01  00002PRCP99
0167821980999992000100218004-01710-045400FM-12+004499999V0200901N005712200019N0100001N1+03081+01901101251ADDAA199000091GF103991031021017501001001MA1999999100741MD1999999+0011REMSYN070AAXX  02184 82198 32797 30911 10308 20190 30074 40125 83200 333 58001;EQDQ01  00002PRCP99
0208821980999992000100300004-01710-045400FM-12+004499999V0200501N003112200019N0020001N1+02551+02191101331ADDAA199000091GA1001+999999999GF100991001001999999001001KA1240M+03141MA1999999100821MD1999999+0061REMSYN082AAXX  03004 82198 32995 00506 10255 20219 30082 40133 333 10314 29076 55098 58006;EQDQ01  00002PRCP99
0186821980999992000100312004-01710-045400FM-12+004499999V0200501N004610150019N0100001N1+02801+02381101341ADDAA199000091GF105991051021017501001001KA1240N+02481MA1999999100831MD1999999-0121REMSYN076AAXX  03124 82198 32797 50509 10280 20238 30083 40134 85200 333 20248 59012;EQDQ01  00002PRCP99
0167821980999992000100318004-01710-045400FM-12+004499999V0200901N005110150019N0100001N1+03061+02401101041ADDAA199000091GF105991051021017501001001MA1999999100531MD1999999-0211REMSYN070AAXX  03184 82198 32797 50910 10306 20240 30053 40104 85200 333 59021;EQDQ01  00002PRCP99
0208821980999992000100400004-01710-045400FM-12+004499999V0200501N003112200019N0020001N1+02521+02471101271ADDAA199000091GA1001+999999999GF100991001001999999001001KA1240M+03171MA1999999100761MD1999999-0061REMSYN082AAXX  04004 82198 32995 00506 10252 20247 30076 40127 333 10317 29076 55096 59006;EQDQ01  00002PRCP99
0186821980999992000100412004-01710-045400FM-12+004499999V0200501N005710450019N0100001N1+02841+02311101461ADDAA199000091GF105991041021017501061001KA1240N+02431MA1999999100951MD1999999+0121REMSYN076AAXX  04124 82198 32797 50511 10284 20231 30095 40146 84260 333 20243 58012;EQDQ01  00002PRCP99
0167821980999992000100418004-01710-045400FM-12+004499999V0200501N004610150019N0100001N1+02961+02261101361ADDAA199000091GF106991061021017501001001MA1999999100851MD1999999+0051REMSYN070AAXX  04184 82198 32797 60509 10296 20226 30085 40136 86200 333 58005;EQDQ01  00002PRCP99
0208821980999992000100500004-01710-045400FM-12+004499999V0200501N003112200019N0020001N1+02541+02171101171ADDAA199000091GA1001+999999999GF100991001001999999001001KA1240M+03031MA1999999100661MD1999999-0101REMSYN082AAXX  05004 82198 32995 00506 10254 20217 30066 40117 333 10303 29075 55083 59010;EQDQ01  00002PRCP99
0186821980999992000100512004-01710-045400FM-12+004499999V0200501N005110150019N0100001N1+02791+02321101301ADDAA199000091GF105991051021017501001001KA1240N+02431MA1999999100791MD1999999-0161REMSYN076AAXX  05124 82198 32797 50510 10279 20232 30079 40130 85200 333 20243 59016;EQDQ01  00002PRCP99
0167821980999992000100518004-01710-045400FM-12+004499999V0200501N005112200019N0100001N1+03001+02321101081ADDAA199000091GF104991041021017501001001MA1999999100571MD1999999-0051REMSYN070AAXX  05184 82198 32797 40510 10300 20232 30057 40108 84200 333 59005;EQDQ01  00002PRCP99
0208821980999992000100600004-01710-045400FM-12+004499999V0200501N003612200019N0020001N1+02541+02231101151ADDAA199000091GA1001+999999999GF100991001001999999001001KA1240M+03091MA1999999100641MD1999999-0041REMSYN082AAXX  06004 82198 32995 00507 10254 20223 30064 40115 333 10309 29077 55106 59004;EQDQ01  00002PRCP99
0186821980999992000100612004-01710-045400FM-12+004499999V0200501N005112200019N0100001N1+02851+02331101241ADDAA199000091GF103991031021017501001001KA1240N+02421MA1999999100731MD1999999-0061REMSYN076AAXX  06124 82198 32797 30510 10285 20233 30073 40124 83200 333 20242 59006;EQDQ01  00002PRCP99
0167821980999992000100618004-01710-045400FM-12+004499999V0200901N006710150019N0100001N1+03161+02341100951ADDAA199000091GF105991051021017501001001MA1999999100441MD1999999-0131REMSYN070AAXX  06184 82198 32797 50913 10316 20234 30044 40095 85200 333 59013;EQDQ01  00002PRCP99
0208821980999992000100700004-01710-045400FM-12+004499999V0200501N003112200019N0020001N1+02561+02171101141ADDAA199000091GA1001+999999999GF100991001001999999001001KA1240M+03241MA1999999100631MD1999999-0011REMSYN082AAXX  07004 82198 32995 00506 10256 20217 30063 40114 333 10324 29053 55102 59001;EQDQ01  00002PRCP99
0186821980999992000100712004-01710-045400FM-12+004499999V0200501N005110150019N0100001N1+02821+02311101421ADDAA199000091GF106991061021017501001001KA1240N+02431MA1999999100911MD1999999+0241REMSYN076AAXX  07124 82198 32797 60510 10282 20231 30091 40142 86200 333 20243 58024;EQDQ01  00002PRCP99
0167821980999992000100718004-01710-045400FM-12+004499999V0200901N006210150019N0100001N1+02971+02281101111ADDAA199000091GF106991061021017501001001MA1999999100601MD1999999+0161REMSYN070AAXX  07184 82198 32797 60912 10297 20228 30060 40111 86200 333 58016;EQDQ01  00002PRCP99
0208821980999992000100800004-01710-045400FM-12+004499999V0200501N003612200019N0020001N1+02551+02171101301ADDAA199000091GA1001+999999999GF100991001001999999001001KA1240M+03171MA1999999100791MD1999999-0041REMSYN082AAXX  08004 82198 32995 00507 10255 20217 30079 40130 333 10317 29074 55069 59004;EQDQ01  00002PRCP99
0186821980999992000100812004-01710-045400FM-12+004499999V0200501N005710150019N0100001N1+02871+02351101431ADDAA199000091GF106991061021017501001001KA1240N+02411MA1999999100921MD1999999+0011REMSYN076AAXX  08124 82198 32797 60511 10287 20235 30092 40143 86200 333 20241 58001;EQDQ01  00002PRCP99
0183821980999992000100818004-01710-045400FM-12+004499999V0200501N005710150019N0100001N1+02941+02311101091ADDAA199000091GF108991999021017501001001MA1999999100581MD1999999-0021REMSYN070AAXX  08184 82198 32797 80511 10294 20231 30058 40109 85200 333 59002;EQDQ01+000052SCOTLCQ02  00002PRCP99
0208821980999992000100900004-01710-045400FM-12+004499999V0200501N002612200019N0020001N1+02531+02171101251ADDAA199000091GA1001+999999999GF100991001001999999001001KA1240M+03111MA1999999100741MD1999999-0051REMSYN082AAXX  09004 82198 32995 00505 10253 20217 30074 40125 333 10311 29075 55070 59005;EQDQ01  00002PRCP99
0186821980999992000100912004-01710-045400FM-12+004499999V0200501N005710450019N0100001N1+02861+02391101421ADDAA199000091GF106991041021017501061001KA1240N+02411MA1999999100901MD1999999-0021REMSYN076AAXX  09124 82198 32797 60511 10286 20239 30090 40142 84260 333 20241 59002;EQDQ01  00002PRCP99
0167821980999992000100918004-01710-045400FM-12+004499999V0200501N006210150019N0100001N1+03061+02221101141ADDAA199000091GF105991051021017501001001MA1999999100621MD1999999+0041REMSYN070AAXX  09184 82198 32797 50512 10306 20222 30062 40114 85200 333 58004;EQDQ01  00002PRCP99
0198821980999992000101000004-01710-045400FM-12+004499999V0200501N002612200019N0020001N1+02561+02291101261ADDAA199000091GF103991021011017501011001KA1240M+03211MA1999999100741MD1999999+0001REMSYN088AAXX  10004 82198 32795 30505 10256 20229 30074 40126 82110 333 10321 29076 55100 58000;EQDQ01  00002PRCP99
0186821980999992000101012004-01710-045400FM-12+004499999V0200901N003612200019N0100001N1+02861+02351101281ADDAA199000091GF103991011011017501011011KA1240N+02391MA1999999100761MD1999999-0141REMSYN076AAXX  10124 82198 32797 30907 10286 20235 30076 40128 81111 333 20239 59014;EQDQ01  00002PRCP99
0167821980999992000101018004-01710-045400FM-12+004499999V0200501N006710450019N0100001N1+03081+02421100941ADDAA199000091GF105991031021017501061001MA1999999100421MD1999999-0201REMSYN070AAXX  10184 82198 32797 50513 10308 20242 30042 40094 83260 333 59020;EQDQ01  00002PRCP99
0208821980999992000101100004-01710-045400FM-12+004499999V0200501N003112200019N0020001N1+02621+02311101111ADDAA199000091GA1001+999999999GF100991001001999999001001KA1240M+03231MA1999999100591MD1999999-0151REMSYN082AAXX  11004 82198 32995 00506 10262 20231 30059 40111 333 10323 29077 55/// 59015;EQDQ01  00002PRCP99
0186821980999992000101112004-01710-045400FM-12+004499999V0200501N005110450019N0100001N1+02821+02401100301ADDAA199000091GF106991041021017501061001KA1240N+02471MA1999999100781MD1999999+0021REMSYN076AAXX  11124 82198 32797 60510 10282 20240 30078 40030 84260 333 20247 58002;EQDQ01  00002PRCP99
0167821980999992000101118004-01710-045400FM-12+004499999V0200901N004110450019N0100001N1+03121+02361100891ADDAA199000091GF106991041021017501031011MA1999999100371MD1999999-0051REMSYN070AAXX  11184 82198 32797 60908 10312 20236 30037 40089 84231 333 59005;EQDQ01  00002PRCP99
0208821980999992000101200004-01710-045400FM-12+004499999V0200501N004112200019N0020001N1+02651+02271101101ADDAA199000091GA1001+999999999GF100991001001999999001001KA1240M+03211MA1999999100581MD1999999-0011REMSYN082AAXX  12004 82198 32995 00508 10265 20227 30058 40110 333 10321 29076 55/// 59001;EQDQ01  00002PRCP99
0186821980999992000101212004-01710-045400FM-12+004499999V0200501N007210450019N0100001N1+02871+02441101261ADDAA199000091GF105991031021017501061001KA1240N+02501MA1999999100741MD1999999-0041REMSYN076AAXX  12124 82198 32797 50514 10287 20244 30074 40126 83260 333 20250 59004;EQDQ01  00002PRCP99
0167821980999992000101218004-01710-045400FM-12+004499999V0200901N006210150019N0100001N1+03101+02311100951ADDAA199000091GF106991051021017501011001MA1999999100431MD1999999+0061REMSYN070AAXX  12184 82198 32797 60912 10310 20231 30043 40095 85210 333 58006;EQDQ01  00002PRCP99
0198821980999992000101300004-01710-045400FM-12+004499999V0200501N003612200019N0020001N1+02641+02411101261ADDAA199000091GF106991041001017501011011KA1240M+03221MA1999999100741MD1999999+0161REMSYN088AAXX  13004 82198 32795 60507 10264 20241 30074 40126 84011 333 10322 29084 55/// 58016;EQDQ01  00002PRCP99
0167821980999992000101318004-01710-045400FM-12+004499999V0200901N006712200019N0100001N1+03111+02391101141ADDAA199000091GF103991011021017501011011MA1999999100621MD1999999-0191REMSYN070AAXX  13184 82198 32797 30913 10311 20239 30062 40114 81211 333 59019;EQDQ01  00002PRCP99
0198821980999992000101400004-01710-045400FM-12+004499999V0200501N002619999999N0020001N1+02601+02271101281ADDAA199000091GF105991051001017501001011KA1240M+03211MA1999999100771MD1999999+0031REMSYN088AAXX  14004 82198 32795 50505 10260 20227 30077 40128 85001 333 10321 29072 55/// 58003;EQDQ01  00002PRCP99
0186821980999992000101412004-01710-045400FM-12+004499999V0200901N003110450019N0100001N1+02791+02361101351ADDAA199000091GF108991031021017501061001KA1240N+02481MA1999999100841MD1999999-0051REMSYN076AAXX  14124 82198 32797 80906 10279 20236 30084 40135 83260 333 20248 59005;EQDQ01  00002PRCP99
0167821980999992000101418004-01710-045400FM-12+004499999V0200901N005110450019N0100001N1+03111+02291101131ADDAA199000091GF106991041021017501011011MA1999999100611MD1999999-0011REMSYN070AAXX  14184 82198 32797 60910 10311 20229 30061 40113 84211 333 59001;EQDQ01  00002PRCP99
0198821980999992000101500004-01710-045400FM-12+004499999V0200501N003112200019N0020001N1+02611+02291101291ADDAA199000091GF105991031001017501011011KA1240M+03191MA1999999100771MD1999999+0001REMSYN088AAXX  15004 82198 32795 50506 10261 20229 30077 40129 83011 333 10319 29072 55/// 58000;EQDQ01  00002PRCP99
0186821980999992000101512004-01710-045400FM-12+004499999V0200501N005110450019N0100001N1+02761+02381101381ADDAA199000091GF106991041021017501061001KA1240N+02441MA1999999100861MD1999999+0021REMSYN076AAXX  15124 82198 32797 60510 10276 20238 30086 40138 84260 333 20244 58002;EQDQ01  00002PRCP99
0167821980999992000101518004-01710-045400FM-12+004499999V0200901N006210150019N0100001N1+03121+02301101091ADDAA199000091GF105991051021017501001001MA1999999100571MD1999999-0041REMSYN070AAXX  15184 82198 32797 50912 10312 20230 30057 40109 85200 333 59004;EQDQ01  00002PRCP99
0198821980999992000101600004-01710-045400FM-12+004499999V0200501N003612200019N0020001N1+02581+02291101201ADDAA199000091GF102991021001017501001011KA1240M+03171MA1999999100681MD1999999-0091REMSYN088AAXX  16004 82198 32795 20507 10258 20229 30068 40120 82001 333 10317 29078 55/// 59009;EQDQ01  00002PRCP99
0186821980999992000101612004-01710-045400FM-12+004499999V0200501N003610150019N0100001N1+02891+02481101391ADDAA199000091GF107991071021017501001001KA1240N+02451MA1999999100881MD1999999+0021REMSYN076AAXX  16124 82198 32797 70507 10289 20248 30088 40139 87200 333 20245 58002;EQDQ01  00002PRCP99
0182821980999992000101618004-01710-045400FM-12+004499999V0200901N005110150019N0100001N1+02901+02431101131ADDAA106001091AY161061AY221061GF108991051021017501061001MA1999999100621MD1999999+0051MW1031REMSYN082AAXX  16184 82198 21797 80910 10290 20243 30062 40113 70362 85260 333 58005 60011;
0208821980999992000101700004-01710-045400FM-12+004499999V0200901N002612200019N0020001N1+02561+02251101291ADDAA199000091GA1001+999999999GF100991001001999999001001KA1240M+03131MA1999999100781MD1999999+0101REMSYN082AAXX  17004 82198 32995 00905 10256 20225 30078 40129 333 10313 29080 55043 58010;EQDQ01  00002PRCP99
0173821980999992000101712004-01710-045400FM-12+004499999V0200501N005110450019N0100001N1+02841+02421101461ADDAA124001091GF106991041021017501061001KA1240N+02501MA1999999100951MD1999999+0071REMSYN082AAXX  17124 82198 22797 60510 10284 20242 30095 40146 84260 333 20250 58007 60014;
0167821980999992000101718004-01710-045400FM-12+004499999V0200901N006210450019N0100001N1+02981+02401101241ADDAA199000091GF105991031021017501061001MA1999999100731MD1999999+0111REMSYN070AAXX  17184 82198 32797 50912 10298 20240 30073 40124 83260 333 58011;EQDQ01  00002PRCP99
0208821980999992000101800004-01710-045400FM-12+004499999V0200501N003612200019N0020001N1+02581+02271101371ADDAA199000091GA1001+999999999GF100991001001999999001001KA1240M+03051MA1999999100861MD1999999+0001REMSYN082AAXX  18004 82198 32995 00507 10258 20227 30086 40137 333 10305 29079 55058 58000;EQDQ01  00002PRCP99
0186821980999992000101812004-01710-045400FM-12+004499999V0200901N004110450019N0100001N1+02861+02371101551ADDAA199000091GF106991041021017501061001KA1240N+02471MA1999999101041MD1999999+0091REMSYN076AAXX  18124 82198 32797 60908 10286 20237 30104 40155 84260 333 20247 58009;EQDQ01  00002PRCP99
0167821980999992000101818004-01710-045400FM-12+004499999V0200901N006710450019N0100001N1+02661+02311101341ADDAA199000091GF106991041021017501061001MA1999999100831MD1999999+0101REMSYN070AAXX  18184 82198 32797 60913 10266 20231 30083 40134 84260 333 58010;EQDQ01  00002PRCP99
0208821980999992000101900004-01710-045400FM-12+004499999V0200901N003112200019N0020001N1+02561+02271101351ADDAA199000091GA1001+999999999GF100991001001999999001001KA1240M+03141MA1999999100841MD1999999-0021REMSYN082AAXX  19004 82198 32995 00906 10256 20227 30084 40135 333 10314 29081 55062 59002;EQDQ01  00002PRCP99
0186821980999992000101912004-01710-045400FM-12+004499999V0200501N004610150019N0100001N1+02831+02381101451ADDAA199000091GF107991051021017501061001KA1240N+02491MA1999999100941MD1999999-0101REMSYN076AAXX  19124 82198 32797 70509 10283 20238 30094 40145 85260 333 20249 59010;EQDQ01  00002PRCP99
0167821980999992000101918004-01710-045400FM-12+004499999V0200501N004112200019N0100001N1+03021+02441101101ADDAA199000091GF104991041021017501001001MA1999999100591MD1999999-0241REMSYN070AAXX  19184 82198 32797 40508 10302 20244 30059 40110 84200 333 59024;EQDQ01  00002PRCP99
0208821980999992000102000004-01710-045400FM-12+004499999V0200501N002612200019N0020001N1+02561+02211101241ADDAA199000091GA1001+999999999GF100991001001999999001001KA1240M+03051MA1999999100731MD1999999+0111REMSYN082AAXX  20004 82198 32995 00505 10256 20221 30073 40124 333 10305 29078 55075 58011;EQDQ01  00002PRCP99
0186821980999992000102012004-01710-045400FM-12+004499999V0200501N005110150019N0100001N1+02851+02421101321ADDAA199000091GF106991051021017501061001KA1240N+02481MA1999999100811MD1999999-0131REMSYN076AAXX  20124 82198 32797 60510 10285 20242 30081 40132 85260 333 20248 59013;EQDQ01  00002PRCP99
0167821980999992000102018004-01710-045400FM-12+004499999V0200901N005110450019N0100001N1+03061+02431101051ADDAA199000091GF106991041021017501061001MA1999999100541MD1999999-0051REMSYN070AAXX  20184 82198 32797 60910 10306 20243 30054 40105 84260 333 59005;EQDQ01  00002PRCP99
0208821980999992000102100004-01710-045400FM-12+004499999V0200501N004112200019N0020001N1+02601+02291101171ADDAA199000091GA1001+999999999GF100991001001999999001001KA1240M+03151MA1999999100661MD1999999-0071REMSYN082AAXX  21004 82198 32995 00508 10260 20229 30066 40117 333 10315 29078 55069 59007;EQDQ01  00002PRCP99
0186821980999992000102112004-01710-045400FM-12+004499999V0200901N005710450019N0100001N1+02841+02441101201ADDAA199000091GF106991041021017501061011KA1240N+02471MA1999999100691MD1999999-0121REMSYN076AAXX  21124 82198 32797 60911 10284 20244 30069 40120 84261 333 20247 59012;EQDQ01  00002PRCP99
0167821980999992000102118004-01710-045400FM-12+004499999V0200501N005110450019N0100001N1+03061+02451100931ADDAA199000091GF105991031021017501061001MA1999999100421MD1999999-0121REMSYN070AAXX  21184 82198 32797 50510 10306 20245 30042 40093 83260 333 59012;EQDQ01  00002PRCP99
0208821980999992000102200004-01710-045400FM-12+004499999V0200501N003112200019N0020001N1+02591+02271101081ADDAA199000091GA1001+999999999GF100991001001999999001001KA1240M+03171MA1999999100571MD1999999-0091REMSYN082AAXX  22004 82198 32995 00506 10259 20227 30057 40108 333 10317 29079 55087 59009;EQDQ01  00002PRCP99
0186821980999992000102212004-01710-045400FM-12+004499999V0200501N005110150019N0100001N1+02841+02381101191ADDAA199000091GF105991051021017501001001KA1240N+02441MA1999999100681MD1999999-0011REMSYN076AAXX  22124 82198 32797 50510 10284 20238 30068 40119 85200 333 20244 59001;EQDQ01  00002PRCP99
0152821980999992000102218004-01710-045400FM-12+004499999V0200501N005712200019N0100001N1+02981+02401100921ADDAA199000091GF104991031021017501001011MA1999999100411REMSYN069AAXX  22184 82198 32797 40511 10298 20240 30041 40092 83201 33 59001;EQDQ01  00002PRCP99
0208821980999992000102300004-01710-045400FM-12+004499999V0200501N003612200019N0020001N1+02591+02211101131ADDAA199000091GA1001+999999999GF100991001001999999001001KA1240M+03171MA1999999100621MD1999999+0051REMSYN082AAXX  23004 82198 32995 00507 10259 20221 30062 40113 333 10317 29078 55094 58005;EQDQ01  00002PRCP99
0186821980999992000102312004-01710-045400FM-12+004499999V0200501N004610450019N0100001N1+02771+02381101321ADDAA199000091GF106991041021017501061001KA1240N+02591MA1999999100801MD1999999+0121REMSYN076AAXX  23124 82198 32797 60509 10277 20238 30080 40132 84260 333 20259 58012;EQDQ01  00002PRCP99
0167821980999992000102318004-01710-045400FM-12+004499999V0200901N006710450019N0100001N1+02881+02221101021ADDAA199000091GF106991041021017501061001MA1999999100501MD1999999+0091REMSYN070AAXX  23184 82198 32797 60913 10288 20222 30050 40102 84260 333 58009;EQDQ01  00002PRCP99
0208821980999992000102400004-01710-045400FM-12+004499999V0200501N003112200019N0020001N1+02621+02311101101ADDAA199000091GA1001+999999999GF100991001001999999001001KA1240M+03211MA1999999100581MD1999999-0041REMSYN082AAXX  24004 82198 32995 00506 10262 20231 30058 40110 333 10321 29078 55077 59004;EQDQ01  00002PRCP99
0186821980999992000102412004-01710-045400FM-12+004499999V0200501N005710450019N0100001N1+02771+02341101191ADDAA199000091GF108991041021017501061001KA1240N+02521MA1999999100671MD1999999-0131REMSYN076AAXX  24124 82198 32797 80511 10277 20234 30067 40119 84260 333 20252 59013;EQDQ01  00002PRCP99
0167821980999992000102418004-01710-045400FM-12+004499999V0200901N006210150019N0100001N1+03051+01881100931ADDAA199000091GF105991051021017501001001MA1999999100421MD1999999-0081REMSYN070AAXX  24184 82198 32797 50912 10305 20188 30042 40093 85200 333 59008;EQDQ01  00002PRCP99
0208821980999992000102500004-01710-045400FM-12+004499999V0200501N003112200019N0020001N1+02691+02191100991ADDAA199000091GA1001+999999999GF100991001001999999001001KA1240M+03121MA1999999100481MD1999999+0101REMSYN082AAXX  25004 82198 32995 00506 10269 20219 30048 40099 333 10312 29070 55102 58010;EQDQ01  00002PRCP99
0186821980999992000102512004-01710-045400FM-12+004499999V0200901N006210450019N0100001N1+02791+02201101081ADDAA199000091GF106991031021017501061001KA1240N+02561MA1999999100571MD1999999-0101REMSYN076AAXX  25124 82198 32797 60912 10279 20220 30057 40108 83260 333 20256 59010;EQDQ01  00002PRCP99
0199821980999992000102518004-01710-045400FM-12+004499999V0201401N005710150019N0100001N1+03091+01941100841ADDAA199000091GF105991051021017501001001MA1999999999999MD1999999-0101REMSYN070AAXX  25184 82198 32797 51411 10309 20194 3032/ 40084 85200 333 59010;EQDQ01+103203APOSP Q02  00002PRCP99Q03 103203APOSP 
0224821980999992000102600004-01710-045400FM-12+004499999V0200501N002112200019N0020001N1+02781+02341100961ADDAA199000091GA1001+999999999GF100991001001999999001001KA1240M+03091MA1999999100442MD1999999-0041REMSYN082AAXX  26004 82198 32995 00504 10278 20234 30044 40096 333 10309 29069 55100 59004;EQDQ01+100443APOSP Q02  00002PRCP99
0186821980999992000102612004-01710-045400FM-12+004499999V0200501N004610450019N0100001N1+02741+02301101181ADDAA199000091GF106991031021017501061001KA1240N+02621MA1999999100671MD1999999+0101REMSYN076AAXX  26124 82198 32797 60509 10274 20230 30067 40118 83260 333 20262 58010;EQDQ01  00002PRCP99
0167821980999992000102618004-01710-045400FM-12+004499999V0200501N004610450019N0100001N1+02941+02291100901ADDAA199000091GF108991041021017501061001MA1999999100391MD1999999+0071REMSYN070AAXX  26184 82198 32797 80509 10294 20229 30039 40090 84260 333 58007;EQDQ01  00002PRCP99
0186821980999992000102712004-01710-045400FM-12+004499999V0200901N006210150019N0100001N1+02901+02571101281ADDAA199000091GF106991061021017501001001KA1240N+02501MA1999999100771MD1999999+0101REMSYN076AAXX  27124 82198 32797 60912 10290 20257 30077 40128 86200 333 20250 58010;EQDQ01  00002PRCP99
0167821980999992000102718004-01710-045400FM-12+004499999V0200501N005710450019N0100001N1+03031+02241101041ADDAA199000091GF106991041021017501011001MA1999999100531MD1999999+0141REMSYN070AAXX  27184 82198 32797 60511 10303 20224 30053 40104 84210 333 58014;EQDQ01  00002PRCP99
0246821980999992000102800004-01710-045400FM-12+004499999V0200501N003112200019N0020001N1+02581+02291101201ADDAA199000091GA1001+999999999GF100991001001999999001001IA1029KA1240M+03091MA1999999999999MD1999999+0131REMSYN082AAXX  28004 82198 32995 00506 10258 20229 3068/ 40120 333 10309 39076 55067 58013;EQDQ01+096803APOSP Q02  00002PRCP99Q03 096803APOSP 
0186821980999992000102812004-01710-045400FM-12+004499999V0200901N004110150019N0100001N1+02871+02291101281ADDAA199000091GF105991051021017501001001KA1240N+02441MA1999999100771MD1999999+0001REMSYN076AAXX  28124 82198 32797 50908 10287 20229 30077 40128 85200 333 20244 58000;EQDQ01  00002PRCP99
0152821980999992000102818004-01710-045400FM-12+004499999V0200501N004119999999N0100001N1+03091+02191101051ADDAA199000091GF105991999999017501999999MA1999999100541REMSYN069AAXX  28184 82198 32797 50508 10309 20219 30054 40105 5200 333 58001;EQDQ01  00002PRCP99
0208821980999992000102900004-01710-045400FM-12+004499999V0200501N003112200019N0020001N1+02581+02351101211ADDAA199000091GA1001+999999999GF100991001001999999001001KA1240M+03331MA1999999100691MD1999999+0011REMSYN082AAXX  29004 82198 32995 00506 10258 20235 30069 40121 333 10333 29078 55088 58001;EQDQ01  00002PRCP99
0186821980999992000102912004-01710-045400FM-12+004499999V0200501N004110150019N0100001N1+02851+02291101211ADDAA199000091GF105991051021017501001001KA1240N+02401MA1999999100701MD1999999-0021REMSYN076AAXX  29124 82198 32797 50508 10285 20229 30070 40121 85200 333 20240 59002;EQDQ01  00002PRCP99
0167821980999992000102918004-01710-045400FM-12+004499999V0200501N004110150019N0100001N1+03281+02101100941ADDAA199000091GF105991051021017501011001MA1999999100431MD1999999-0111REMSYN070AAXX  29184 82198 32797 50508 10328 20210 30043 40094 85210 333 59011;EQDQ01  00002PRCP99
0208821980999992000103000004-01710-045400FM-12+004499999V0200501N003612200019N0020001N1+02601+02331101161ADDAA199000091GA1001+999999999GF100991001001999999001001KA1240M+03311MA1999999100641MD1999999-0051REMSYN082AAXX  30004 82198 32995 00507 10260 20233 30064 40116 333 10331 29074 55105 59005;EQDQ01  00002PRCP99
0186821980999992000103012004-01710-045400FM-12+004499999V0200901N004610150019N0100001N1+02911+02461101241ADDAA199000091GF106991061021017501001001KA1240N+02431MA1999999100731MD1999999+0031REMSYN076AAXX  30124 82198 32797 60909 10291 20246 30073 40124 86200 333 20243 58003;EQDQ01  00002PRCP99
0167821980999992000103018004-01710-045400FM-12+004499999V0200901N005712200019N0100001N1+03191+02391100921ADDAA199000091GF102991021011017501001001MA1999999100411MD1999999-0021REMSYN070AAXX  30184 82198 32797 20911 10319 20239 30041 40092 82100 333 59002;EQDQ01  00002PRCP99
0208821980999992000103100004-01710-045400FM-12+004499999V0200901N002112200019N0020001N1+02591+02211101051ADDAA199000091GA1001+999999999GF100991001001999999001001KA1240M+03251MA1999999100541MD1999999-0101REMSYN082AAXX  31004 82198 32995 00904 10259 20221 30054 40105 333 10325 29075 55104 59010;EQDQ01  00002PRCP99
0186821980999992000103112004-01710-045400FM-12+004499999V0200901N004610150019N0100001N1+02821+02401101231ADDAA199000091GF106991061021017501001001KA1240N+02451MA1999999100721MD1999999-0011REMSYN076AAXX  31124 82198 32797 60909 10282 20240 30072 40123 86200 333 20245 59001;EQDQ01  00002PRCP99
0167821980999992000103118004-01710-045400FM-12+004499999V0200501N005112200019N0100001N1+03011+02391100891ADDAA199000091GF105991041021017501001011MA1999999100381MD1999999-0031REMSYN070AAXX  31184 82198 32797 50510 10301 20239 30038 40089 84201 333 59003;EQDQ01  00002PRCP99
0208821980999992000110100004-01710-045400FM-12+004499999V0200501N004112200019N0020001N1+02611+02311100991ADDAA199000091GA1001+999999999GF100991001001999999001001KA1240M+03101MA1999999100481MD1999999-0061REMSYN082AAXX  01004 82198 32995 00508 10261 20231 30048 40099 333 10310 29079 55058 59006;EQDQ01  00002PRCP99
0186821980999992000110112004-01710-045400FM-12+004499999V0200501N004610150019N0100001N1+02831+02401101091ADDAA199000091GF106991051021017501001011KA1240N+02391MA1999999100581MD1999999-0141REMSYN076AAXX  01124 82198 32797 60509 10283 20240 30058 40109 85201 333 20239 59014;EQDQ01  00002PRCP99
0208821980999992000110200004-01710-045400FM-12+004499999V0200501N003612200019N0020001N1+02581+02271100881ADDAA199000091GA1001+999999999GF100991001001999999001001KA1240M+03271MA1999999100371MD1999999-0111REMSYN082AAXX  02004 82198 32995 00507 10258 20227 30037 40088 333 10327 29077 55088 59011;EQDQ01  00002PRCP99
0186821980999992000110212004-01710-045400FM-12+004499999V0200501N002610150019N0100001N1+02841+02441101111ADDAA199000091GF105991051021017501001001KA1240N+02481MA1999999100601MD1999999+0021REMSYN076AAXX  02124 82198 32797 50505 10284 20244 30060 40111 85200 333 20248 58002;EQDQ01  00002PRCP99
0167821980999992000110218004-01710-045400FM-12+004499999V0200501N005112200019N0100001N1+03041+02411100781ADDAA199000091GF104991041021017501001001MA1999999100271MD1999999+0001REMSYN070AAXX  02184 82198 32797 40510 10304 20241 30027 40078 84200 333 58000;EQDQ01  00002PRCP99
0208821980999992000110300004-01710-045400FM-12+004499999V0200501N003112200019N0020001N1+02601+02231100931ADDAA199000091GA1001+999999999GF100991001001999999001001KA1240M+03141MA1999999100421MD1999999+0051REMSYN082AAXX  03004 82198 32995 00506 10260 20223 30042 40093 333 10314 29077 55/// 58005;EQDQ01  00002PRCP99
0186821980999992000110312004-01710-045400FM-12+004499999V0200901N003610150019N0100001N1+02861+02461100991ADDAA199000091GF106991061021017501001001KA1240N+02401MA1999999100481MD1999999-0121REMSYN076AAXX  03124 82198 32797 60907 10286 20246 30048 40099 86200 333 20240 59012;EQDQ01  00002PRCP99
0167821980999992000110318004-01710-045400FM-12+004499999V0200501N003610150019N0100001N1+03021+02341100661ADDAA199000091GF108991051021017501061001MA1999999100151MD1999999-0121REMSYN070AAXX  03184 82198 32797 80507 10302 20234 30015 40066 85260 333 59012;EQDQ01  00002PRCP99
0208821980999992000110400004-01710-045400FM-12+004499999V0200501N005112200019N0020001N1+02581+02231100781ADDAA199000091GA1001+999999999GF100991001001999999001001KA1240M+03251MA1999999100271MD1999999-0051REMSYN082AAXX  04004 82198 32995 00510 10258 20223 30027 40078 333 10325 29077 55/// 59005;EQDQ01  00002PRCP99
0186821980999992000110412004-01710-045400FM-12+004499999V0200501N003110150019N0100001N1+02921+02451100921ADDAA199000091GF107991051021017501061001KA1240N+02451MA1999999100411MD1999999-0071REMSYN076AAXX  04124 82198 32797 70506 10292 20245 30041 40092 85260 333 20245 59007;EQDQ01  00002PRCP99
0167821980999992000110418004-01710-045400FM-12+004499999V0200501N004110150019N0100001N1+02941+02401100651ADDAA199000091GF106991061021017501001001MA1999999100141MD1999999-0011REMSYN070AAXX  04184 82198 32797 60508 10294 20240 30014 40065 86200 333 59001;EQDQ01  00002PRCP99
0208821980999992000110500004-01710-045400FM-12+004499999V0200501N004612200019N0020001N1+02601+02311100801ADDAA199000091GA1001+999999999GF100991001001999999001001KA1240M+03211MA1999999100291MD1999999+0021REMSYN082AAXX  05004 82198 32995 00509 10260 20231 30029 40080 333 10321 29079 55/// 58002;EQDQ01  00002PRCP99
0186821980999992000110512004-01710-045400FM-12+004499999V0200501N004610150019N0100001N1+02841+02421100981ADDAA199000091GF106991051021017501001011KA1240N+02411MA1999999100471MD1999999+0061REMSYN076AAXX  05124 82198 32797 60509 10284 20242 30047 40098 85201 333 20241 58006;EQDQ01  00002PRCP99
0167821980999992000110518004-01710-045400FM-12+004499999V0200501N004112200019N0100001N1+03061+02401100721ADDAA199000091GF104991031021017501001011MA1999999100211MD1999999+0071REMSYN070AAXX  05184 82198 32797 40508 10306 20240 30021 40072 83201 333 58007;EQDQ01  00002PRCP99
0208821980999992000110600004-01710-045400FM-12+004499999V0200501N004112200019N0020001N1+02561+02251100931ADDAA199000091GA1001+999999999GF100991001001999999001001KA1240M+03181MA1999999100421MD1999999+0131REMSYN082AAXX  06004 82198 32995 00508 10256 20225 30042 40093 333 10318 29078 55/// 58013;EQDQ01  00002PRCP99
0167821980999992000110618004-01710-045400FM-12+004499999V0200901N006712200019N0100001N1+03181+02221100661ADDAA199000091GF104991041021017501001001MA1999999100141MD1999999-0071REMSYN070AAXX  06184 82198 32797 40913 10318 20222 30014 40066 84200 333 59007;EQDQ01  00002PRCP99
0224821980999992000110700004-01710-045400FM-12+004499999V0209999C049322200019N0020001N1+02611+02251100791ADDAA199000091GA1001+999999999GF100991001001999999001001KA1240M+03311MA1999999100281MD1999999-0141REMSYN082AAXX  07004 82198 32995 00096 10261 20225 30028 40079 333 10331 29075 55/// 59014;EQDQ01+004933WOSPD Q02  00002PRCP99
0186821980999992000110712004-01710-045400FM-12+004499999V0200901N006210150019N0100001N1+02931+02341100941ADDAA199000091GF105991051021017501001001KA1240N+02601MA1999999100421MD1999999+0001REMSYN076AAXX  07124 82198 32797 50912 10293 20234 30042 40094 85200 333 20260 58000;EQDQ01  00002PRCP99
0167821980999992000110718004-01710-045400FM-12+004499999V0200901N004612200019N0100001N1+03231+02271100601ADDAA199000091GF104991041021017501001001MA1999999100091MD1999999-0051REMSYN070AAXX  07184 82198 32797 40909 10323 20227 30009 40060 84200 333 59005;EQDQ01  00002PRCP99
0208821980999992000110800004-01710-045400FM-12+004499999V0200501N003112200019N0020001N1+02621+02351100751ADDAA199000091GA1001+999999999GF100991001001999999001001KA1240M+03341MA1999999100231MD1999999-0051REMSYN082AAXX  08004 82198 32995 00506 10262 20235 30023 40075 333 10334 29070 55/// 59005;EQDQ01  00002PRCP99
0186821980999992000110812004-01710-045400FM-12+004499999V0200501N004610150019N0100001N1+02871+02291100761ADDAA199000091GF105991051021017501001001KA1240N+02431MA1999999100251MD1999999+0171REMSYN076AAXX  08124 82198 32797 50509 10287 20229 30025 40076 85200 333 20243 58017;EQDQ01  00002PRCP99
0167821980999992000110818004-01710-045400FM-12+004499999V0200501N007210450019N0100001N1+03121+02311100551ADDAA199000091GF105991031021017501011001MA1999999100031MD1999999-0031REMSYN070AAXX  08184 82198 32797 50514 10312 20231 30003 40055 83210 333 59003;EQDQ01  00002PRCP99
0208821980999992000110900004-01710-045400FM-12+004499999V0200501N004612200019N0020001N1+02651+02291100211ADDAA199000091GA1001+999999999GF100991001001999999001001KA1240M+03361MA1999999100191MD1999999-0041REMSYN082AAXX  09004 82198 32995 00509 10265 20229 30019 40021 333 10336 29076 55/// 59004;EQDQ01  00002PRCP99
0186821980999992000110912004-01710-045400FM-12+004499999V0200501N005710450019N0100001N1+02831+02341100791ADDAA199000091GF106991031021017501061001KA1240N+02461MA1999999100171MD1999999+0001REMSYN076AAXX  09124 82198 32797 60511 10283 20234 30017 40079 83260 333 20246 58000;EQDQ01  00002PRCP99
0167821980999992000110918004-01710-045400FM-12+004499999V0203601N006212200019N0100001N1+03071+02261100541ADDAA199000091GF103991031021017501001001MA1999999100021MD1999999-0011REMSYN070AAXX  09184 82198 32797 33612 10307 20226 30002 40054 83200 333 59001;EQDQ01  00002PRCP99
0198821980999992000111000004-01710-045400FM-12+004499999V0200501N003612200019N0020001N1+02601+02311100751ADDAA199000091GF104991041001017501001011KA1240M+03241MA1999999100231MD1999999+0041REMSYN088AAXX  10004 82198 32795 40507 10260 20231 30023 40075 84001 333 10324 29072 55/// 58004;EQDQ01  00002PRCP99
0167821980999992000111018004-01710-045400FM-12+004499999V0200901N006211050019N0100001N1+03171+02151100631ADDAA199000091GF105991021021017501011011MA1999999100121MD1999999+0101REMSYN070AAXX  10184 82198 32797 50912 10317 20215 30012 40063 82211 333 58010;EQDQ01  00002PRCP99
0198821980999992000111100004-01710-045400FM-12+004499999V0200501N002112200019N0020001N1+02601+02351100881ADDAA199000091GF104991041001017501001011KA1240M+03341MA1999999100361MD1999999+0131REMSYN088AAXX  11004 82198 32795 40504 10260 20235 30036 40088 84001 333 10334 29076 55/// 58013;EQDQ01  00002PRCP99
0167821980999992000111118004-01710-045400FM-12+004499999V0200501N005112200019N0100001N1+03251+02121100621ADDAA199000091GF104991031021017501001011MA1999999100101MD1999999-0021REMSYN070AAXX  11184 82198 32797 40510 10325 20212 30010 40062 83201 333 59002;EQDQ01  00002PRCP99
0198821980999992000111200004-01710-045400FM-12+004499999V0200501N004612200019N0020001N1+02621+02331100801ADDAA199000091GF103991031001017501031001KA1240M+03331MA1999999100281MD1999999-0081REMSYN088AAXX  12004 82198 32795 30509 10262 20233 30028 40080 83030 333 10333 29074 55/// 59008;EQDQ01  00002PRCP99
0186821980999992000111212004-01710-045400FM-12+004499999V0200901N003610450019N0100001N1+02911+02391100951ADDAA199000091GF106991041021017501061001KA1240N+02441MA1999999100431MD1999999-0071REMSYN076AAXX  12124 82198 32797 60907 10291 20239 30043 40095 84260 333 20244 59007;EQDQ01  00002PRCP99
0198821980999992000111300004-01710-045400FM-12+004499999V0200501N004112200019N0020001N1+02651+02271100841ADDAA199000091GF103991021021017501001011KA1240M+03241MA1999999100321MD1999999+0041REMSYN088AAXX  13004 82198 32795 30508 10265 20227 30032 40084 82201 333 10324 29075 55/// 58004;EQDQ01  00002PRCP99
0167821980999992000111318004-01710-045400FM-12+004499999V0200901N005712200019N0100001N1+03181+02311100651ADDAA199000091GF103991031021017501001001MA1999999100141MD1999999-0081REMSYN070AAXX  13184 82198 32797 30911 10318 20231 30014 40065 83200 333 59008;EQDQ01  00002PRCP99
0208821980999992000111400004-01710-045400FM-12+004499999V0200901N004612200019N0020001N1+02641+02291100851ADDAA199000091GA1001+999999999GF100991001001999999001001KA1240M+03301MA1999999100341MD1999999+0021REMSYN082AAXX  14004 82198 32995 00909 10264 20229 30034 40085 333 10330 29074 55/// 58002;EQDQ01  00002PRCP99
0186821980999992000111412004-01710-045400FM-12+004499999V0200901N007210150019N0100001N1+02941+02361100921ADDAA199000091GF105991051021017501001001KA1240N+02461MA1999999100411MD1999999-0051REMSYN076AAXX  14124 82198 32797 50914 10294 20236 30041 40092 85200 333 20246 59005;EQDQ01  00002PRCP99
0167821980999992000111418004-01710-045400FM-12+004499999V0200901N005712200019N0100001N1+03101+02341100701ADDAA199000091GF104991041021017501001001MA1999999100191MD1999999+0051REMSYN070AAXX  14184 82198 32797 40911 10310 20234 30019 40070 84200 333 58005;EQDQ01  00002PRCP99
0192821980999992000111500004-01710-045400FM-12+004499999V0200901N003112200019N0020001N1+02621+02231100861ADDAA199000091GF103991999999017501999999KA1240M+03231MA1999999100351MD1999999+0011REMSYN082AAXX  15004 82198 32795 30906 10262 20223 30035 40086 333 10323 29073 55/// 58001;EQDQ01  00002PRCP99
0186821980999992000111512004-01710-045400FM-12+004499999V0200901N004612200019N0100001N1+02841+02381101021ADDAA199000091GF103991031021017501001001KA1240N+02431MA1999999100511MD1999999+0101REMSYN076AAXX  15124 82198 32797 30909 10284 20238 30051 40102 83200 333 20243 58010;EQDQ01  00002PRCP99
0167821980999992000111518004-01710-045400FM-12+004499999V0200501N005110450019N0100001N1+03061+02431100731ADDAA199000091GF105991031021017501061001MA1999999100221MD1999999+0031REMSYN070AAXX  15184 82198 32797 50510 10306 20243 30022 40073 83260 333 58003;EQDQ01  00002PRCP99
0208821980999992000111600004-01710-045400FM-12+004499999V0200501N003612200019N0020001N1+02581+02211100941ADDAA199000091GA1001+999999999GF100991001001999999001001KA1240M+03291MA1999999100431MD1999999+0081REMSYN082AAXX  16004 82198 32995 00507 10258 20221 30043 40094 333 10329 29076 55/// 58008;EQDQ01  00002PRCP99
0186821980999992000111612004-01710-045400FM-12+004499999V0200901N003110450019N0100001N1+02831+02401101081ADDAA199000091GF105991041021017501061001KA1240N+02401MA1999999100571MD1999999+0061REMSYN076AAXX  16124 82198 32797 50906 10283 20240 30057 40108 84260 333 20240 58006;EQDQ01  00002PRCP99
0167821980999992000111618004-01710-045400FM-12+004499999V0200901N005710150019N0100001N1+02991+02151100871ADDAA199000091GF106991061021017501001001MA1999999100361MD1999999+0141REMSYN070AAXX  16184 82198 32797 60911 10299 20215 30036 40087 86200 333 58014;EQDQ01  00002PRCP99
0198821980999992000111700004-01710-045400FM-12+004499999V0200901N003612200019N0020001N1+02581+02121101041ADDAA199000091GF103991031021017501001001KA1240M+03171MA1999999100531MD1999999+0101REMSYN088AAXX  17004 82198 32795 30907 10258 20212 30053 40104 83200 333 10317 29073 55/// 58010;EQDQ01  00002PRCP99
0186821980999992000111712004-01710-045400FM-12+004499999V0200501N005112200019N0100001N1+02841+02401101121ADDAA199000091GF106991041021017501001011KA1240N+02421MA1999999100611MD1999999+0041REMSYN076AAXX  17124 82198 32797 60510 10284 20240 30061 40112 84201 333 20242 58004;EQDQ01  00002PRCP99
0167821980999992000111718004-01710-045400FM-12+004499999V0200901N005112200019N0100001N1+03151+02141100941ADDAA199000091GF103991031021017501001001MA1999999100431MD1999999+0071REMSYN070AAXX  17184 82198 32797 30910 10315 20214 30043 40094 83200 333 58007;EQDQ01  00002PRCP99
0208821980999992000111800004-01710-045400FM-12+004499999V0200901N002112200019N0020001N1+02521+02071101091ADDAA199000091GA1001+999999999GF100991001001999999001001KA1240M+03211MA1999999100581MD1999999+0051REMSYN082AAXX  18004 82198 32995 00904 10252 20207 30058 40109 333 10321 29071 55/// 58005;EQDQ01  00002PRCP99
0186821980999992000111812004-01710-045400FM-12+004499999V0200901N004112200019N0100001N1+02841+02401101161ADDAA199000091GF105991041021017501001011KA1240N+02411MA1999999100651MD1999999+0041REMSYN076AAXX  18124 82198 32797 50908 10284 20240 30065 40116 84201 333 20241 58004;EQDQ01  00002PRCP99
0167821980999992000111818004-01710-045400FM-12+004499999V0200901N005112200019N0100001N1+03241+02321100831ADDAA199000091GF104991041021017501001001MA1999999100321MD1999999-0111REMSYN070AAXX  18184 82198 32797 40910 10324 20232 30032 40083 84200 333 59011;EQDQ01  00002PRCP99
0186821980999992000111912004-01710-045400FM-12+004499999V0200901N004610150019N0100001N1+02911+02341101131ADDAA199000091GF105991051021017501001001KA1240N+02501MA1999999100621MD1999999-0031REMSYN076AAXX  19124 82198 32797 50909 10291 20234 30062 40113 85200 333 20250 59003;EQDQ01  00002PRCP99
0167821980999992000111918004-01710-045400FM-12+004499999V0200901N006712200019N0100001N1+03091+02191100931ADDAA199000091GF102991021021017501001001MA1999999100421MD1999999+0101REMSYN070AAXX  19184 82198 32797 20913 10309 20219 30042 40093 82200 333 58010;EQDQ01  00002PRCP99
0208821980999992000112000004-01710-045400FM-12+004499999V0200901N004112200019N0020001N1+02581+02081101031ADDAA199000091GA1001+999999999GF100991001001999999001001KA1240M+03231MA1999999100521MD1999999+0091REMSYN082AAXX  20004 82198 32995 00908 10258 20208 30052 40103 333 10323 29069 55/// 58009;EQDQ01  00002PRCP99
0167821980999992000112018004-01710-045400FM-12+004499999V0200901N006712200019N0100001N1+03161+02271100981ADDAA199000091GF103991031021017501001001MA1999999100461MD1999999+0041REMSYN070AAXX  20184 82198 32797 30913 10316 20227 30046 40098 83200 333 58004;EQDQ01  00002PRCP99
0198821980999992000112100004-01710-045400FM-12+004499999V0200901N003612200019N0020001N1+02601+02351101091ADDAA199000091GF101991011011017501001001KA1240M+03211MA1999999100571MD1999999+0051REMSYN088AAXX  21004 82198 32795 10907 10260 20235 30057 40109 81100 333 10321 29074 55/// 58005;EQDQ01  00002PRCP99
0186821980999992000112112004-01710-045400FM-12+004499999V0200501N005710450019N0100001N1+02851+02271101291ADDAA199000091GF107991041021017501061001KA1240N+02531MA1999999100781MD1999999+0081REMSYN076AAXX  21124 82198 32797 70511 10285 20227 30078 40129 84260 333 20253 58008;EQDQ01  00002PRCP99
0167821980999992000112118004-01710-045400FM-12+004499999V0200501N006710150019N0100001N1+03061+02201101001ADDAA199000091GF105991051021017501001001MA1999999100481MD1999999+0021REMSYN070AAXX  21184 82198 32797 50513 10306 20220 30048 40100 85200 333 58002;EQDQ01  00002PRCP99
0208821980999992000112200004-01710-045400FM-12+004499999V0200501N005112200019N0020001N1+02611+02231101181ADDAA199000091GA1001+999999999GF100991001001999999001001KA1240M+03161MA1999999100661MD1999999+0091REMSYN082AAXX  22004 82198 32995 00510 10261 20223 30066 40118 333 10316 29073 55/// 58009;EQDQ01  00002PRCP99
0186821980999992000112212004-01710-045400FM-12+004499999V0200901N005112200019N0100001N1+02981+02121101321ADDAA199000091GF105991031021017501001011KA1240N+02501MA1999999100811MD1999999+0031REMSYN076AAXX  22124 82198 32797 50910 10298 20212 30081 40132 83201 333 20250 58003;EQDQ01  00002PRCP99
0167821980999992000112218004-01710-045400FM-12+004499999V0200501N008712200019N0100001N1+03101+01871101081ADDAA199000091GF104991041021017501001001MA1999999100561MD1999999+0081REMSYN070AAXX  22184 82198 32797 40517 10310 20187 30056 40108 84200 333 58008;EQDQ01  00002PRCP99
0208821980999992000112300004-01710-045400FM-12+004499999V0200501N003112200019N0020001N1+02601+02271101211ADDAA199000091GA1001+999999999GF100991001001999999001001KA1240M+03161MA1999999100691MD1999999+0031REMSYN082AAXX  23004 82198 32995 00506 10260 20227 30069 40121 333 10316 29068 55/// 58003;EQDQ01  00002PRCP99
0186821980999992000112312004-01710-045400FM-12+004499999V0200501N003610450019N0100001N1+02941+02311101311ADDAA199000091GF106991041021017501061001KA1240N+02491MA1999999100801MD1999999-0011REMSYN076AAXX  23124 82198 32797 60507 10294 20231 30080 40131 84260 333 20249 59001;EQDQ01  00002PRCP99
0167821980999992000112318004-01710-045400FM-12+004499999V0200501N004610150019N0100001N1+03141+02201101001ADDAA199000091GF105991051021017501001001MA1999999100491MD1999999-0071REMSYN070AAXX  23184 82198 32797 50509 10314 20220 30049 40100 85200 333 59007;EQDQ01  00002PRCP99
0167821980999992000112718004-01710-045400FM-12+004499999V0200901N006712200019N0100001N1+03111+02181101071ADDAA199000091GF103991031021017501001001MA1999999100561MD1999999+0091REMSYN070AAXX  27184 82198 32797 30913 10311 20218 30056 40107 83200 333 58009;EQDQ01  00002PRCP99
0208821980999992000112800004-01710-045400FM-12+004499999V0200501N002112200019N0020001N1+02621+02161101161ADDAA199000091GA1001+999999999GF100991001001999999001001KA1240M+03261MA1999999100651MD1999999+0081REMSYN082AAXX  28004 82198 32995 00504 10262 20216 30065 40116 333 10326 29069 55109 58008;EQDQ01  00002PRCP99
0186821980999992000112812004-01710-045400FM-12+004499999V0200901N008210150019N0100001N1+02931+02411101291ADDAA199000091GF105991051021017501001001KA1240N+02481MA1999999100781MD1999999+0011REMSYN076AAXX  28124 82198 32797 50916 10293 20241 30078 40129 85200 333 20248 58001;EQDQ01  00002PRCP99
0167821980999992000112818004-01710-045400FM-12+004499999V0200901N006712200019N0100001N1+03151+02171101091ADDAA199000091GF104991041021017501001001MA1999999100581MD1999999+0021REMSYN070AAXX  28184 82198 32797 40913 10315 20217 30058 40109 84200 333 58002;EQDQ01  00002PRCP99
0208821980999992000112900004-01710-045400FM-12+004499999V0200501N004112200019N0020001N1+02641+02201101161ADDAA199000091GA1001+999999999GF100991001001999999001001KA1240M+03261MA1999999100651MD1999999+0001REMSYN082AAXX  29004 82198 32995 00508 10264 20220 30065 40116 333 10326 29071 55108 58000;EQDQ01  00002PRCP99
0186821980999992000112912004-01710-045400FM-12+004499999V0200501N005710150019N0100001N1+02901+02371101311ADDAA199000091GF105991051021017501001001KA1240N+02461MA1999999100801MD1999999+0021REMSYN076AAXX  29124 82198 32797 50511 10290 20237 30080 40131 85200 333 20246 58002;EQDQ01  00002PRCP99
0167821980999992000120118004-01710-045400FM-12+004499999V0200501N004612200019N0100001N1+03121+02331101001ADDAA199000091GF103991031021017501001001MA1999999100491MD1999999+0031REMSYN070AAXX  01184 82198 32797 30509 10312 20233 30049 40100 83200 333 58003;EQDQ01  00002PRCP99
0208821980999992000120200004-01710-045400FM-12+004499999V0200501N003612200019N0020001N1+02641+02141101091ADDAA199000091GA1001+999999999GF100991001001999999001001KA1240M+03271MA1999999100581MD1999999+0021REMSYN082AAXX  02004 82198 32995 00507 10264 20214 30058 40109 333 10327 29071 55098 58002;EQDQ01  00002PRCP99
0186821980999992000120212004-01710-045400FM-12+004499999V0200501N004110150019N0100001N1+03011+02421101241ADDAA199000091GF105991051021017501001001KA1240N+02501MA1999999100731MD1999999+0001REMSYN076AAXX  02124 82198 32797 50508 10301 20242 30073 40124 85200 333 20250 58000;EQDQ01  00002PRCP99
0167821980999992000120218004-01710-045400FM-12+004499999V0200901N005710150019N0100001N1+03251+02311100991ADDAA199000091GF105991051021017501001001MA1999999100481MD1999999-0011REMSYN070AAXX  02184 82198 32797 50911 10325 20231 30048 40099 85200 333 59001;EQDQ01  00002PRCP99
0208821980999992000120300004-01710-045400FM-12+004499999V0200501N003112200019N0020001N1+02661+02201101121ADDAA199000091GA1001+999999999GF100991001001999999001001KA1240M+03351MA1999999100601MD1999999+0021REMSYN082AAXX  03004 82198 32995 00506 10266 20220 30060 40112 333 10335 29070 55108 58002;EQDQ01  00002PRCP99
0186821980999992000120312004-01710-045400FM-12+004499999V0200501N005110150019N0100001N1+02871+02321101201ADDAA199000091GF105991051021017501001001KA1240N+02501MA1999999100691MD1999999-0041REMSYN076AAXX  03124 82198 32797 50510 10287 20232 30069 40120 85200 333 20250 59004;EQDQ01  00002PRCP99
0167821980999992000120318004-01710-045400FM-12+004499999V0200501N005710150019N0100001N1+03071+02211100941ADDAA199000091GF105991051021017501001001MA1999999100431MD1999999-0051REMSYN070AAXX  03184 82198 32797 50511 10307 20221 30043 40094 85200 333 59005;EQDQ01  00002PRCP99
0208821980999992000120400004-01710-045400FM-12+004499999V0200501N003612200019N0020001N1+02641+02071101011ADDAA199000091GA1001+999999999GF100991001001999999001001KA1240M+03351MA1999999100501MD1999999-0101REMSYN082AAXX  04004 82198 32995 00507 10264 20207 30050 40101 333 10335 29068 55095 59010;EQDQ01  00002PRCP99
0186821980999992000120412004-01710-045400FM-12+004499999V0200501N006210150019N0100001N1+02871+02031101131ADDAA199000091GF106991061021017501001001KA1240N+02511MA1999999100621MD1999999-0071REMSYN076AAXX  04124 82198 32797 60512 10287 20203 30062 40113 86200 333 20251 59007;EQDQ01  00002PRCP99
0167821980999992000120418004-01710-045400FM-12+004499999V0200901N005712200019N0100001N1+03181+02101100921ADDAA199000091GF104991041021017501001001MA1999999100401MD1999999-0031REMSYN070AAXX  04184 82198 32797 40911 10318 20210 30040 40092 84200 333 59003;EQDQ01  00002PRCP99
0208821980999992000120500004-01710-045400FM-12+004499999V0200501N004112200019N0020001N1+02621+02181101081ADDAA199000091GA1001+999999999GF100991001001999999001001KA1240M+03241MA1999999100561MD1999999+0061REMSYN082AAXX  05004 82198 32995 00508 10262 20218 30056 40108 333 10324 29068 55091 58006;EQDQ01  00002PRCP99
0186821980999992000120512004-01710-045400FM-12+004499999V0200501N005112200019N0100001N1+02941+02261101111ADDAA199000091GF104991041021017501001001KA1240N+02481MA1999999100601MD1999999-0021REMSYN076AAXX  05124 82198 32797 40510 10294 20226 30060 40111 84200 333 20248 59002;EQDQ01  00002PRCP99
0208821980999992000120600004-01710-045400FM-12+004499999V0200501N002112200019N0020001N1+02601+02291101131ADDAA199000091GA1001+999999999GF100991001001999999001001KA1240M+03311MA1999999100611MD1999999+0061REMSYN082AAXX  06004 82198 32995 00504 10260 20229 30061 40113 333 10331 29074 55090 58006;EQDQ01  00002PRCP99
0186821980999992000120612004-01710-045400FM-12+004499999V0200501N005110450019N0100001N1+02831+02311101161ADDAA199000091GF106991041021017501061011KA1240N+02471MA1999999100651MD1999999+0051REMSYN076AAXX  06124 82198 32797 60510 10283 20231 30065 40116 84261 333 20247 58005;EQDQ01  00002PRCP99
0167821980999992000120618004-01710-045400FM-12+004499999V0200501N005112200019N0100001N1+03141+02321100981ADDAA199000091GF104991031021017501001011MA1999999100461MD1999999+0051REMSYN070AAXX  06184 82198 32797 40510 10314 20232 30046 40098 83201 333 58005;EQDQ01  00002PRCP99
0208821980999992000120700004-01710-045400FM-12+004499999V0200501N003612200019N0020001N1+02641+02331101161ADDAA199000091GA1001+999999999GF100991001001999999001001KA1240M+03351MA1999999100641MD1999999+0031REMSYN082AAXX  07004 82198 32995 00507 10264 20233 30064 40116 333 10335 29076 55106 58003;EQDQ01  00002PRCP99
0186821980999992000120712004-01710-045400FM-12+004499999V0200501N003610150019N0100001N1+02911+02371101211ADDAA199000091GF105991051021017501001001KA1240N+02481MA1999999100701MD1999999+0051REMSYN076AAXX  07124 82198 32797 50507 10291 20237 30070 40121 85200 333 20248 58005;EQDQ01  00002PRCP99
0167821980999992000120718004-01710-045400FM-12+004499999V0200501N005112200019N0100001N1+02991+02341100991ADDAA199000091GF103991031021017501001001MA1999999100471MD1999999+0011REMSYN070AAXX  07184 82198 32797 30510 10299 20234 30047 40099 83200 333 58001;EQDQ01  00002PRCP99
0198821980999992000120800004-01710-045400FM-12+004499999V0200501N002612200019N0020001N1+02681+02391101261ADDAA199000091GF102991021021017501001001KA1240M+03351MA1999999100741MD1999999+0101REMSYN088AAXX  08004 82198 32795 20505 10268 20239 30074 40126 82200 333 10335 29077 55102 58010;EQDQ01  00002PRCP99
0186821980999992000120812004-01710-045400FM-12+004499999V0200501N003610150019N0100001N1+02881+02371101221ADDAA199000091GF105991051021017501001001KA1240N+02481MA1999999100711MD1999999+0011REMSYN076AAXX  08124 82198 32797 50507 10288 20237 30071 40122 85200 333 20248 58001;EQDQ01  00002PRCP99
0167821980999992000120818004-01710-045400FM-12+004499999V0200501N006212200019N0100001N1+03121+02361100981ADDAA199000091GF105991031021017501001011MA1999999100471MD1999999+0001REMSYN070AAXX  08184 82198 32797 50512 10312 20236 30047 40098 83201 333 58000;EQDQ01  00002PRCP99
0186821980999992000120912004-01710-045400FM-12+004499999V0200501N004110150019N0100001N1+02881+02301101221ADDAA199000091GF105991051021017501001001KA1240N+02501MA1999999100711MD1999999+0001REMSYN076AAXX  09124 82198 32797 50508 10288 20230 30071 40122 85200 333 20250 58000;EQDQ01  00002PRCP99
0167821980999992000120918004-01710-045400FM-12+004499999V0200501N005110450019N0100001N1+02981+02281101081ADDAA199000091GF106991041021017501011001MA1999999100571MD1999999+0101REMSYN070AAXX  09184 82198 32797 60510 10298 20228 30057 40108 84210 333 58010;EQDQ01  00002PRCP99
0186821980999992000121012004-01710-045400FM-12+004499999V0200501N002110450019N0100001N1+02861+02461101181ADDAA199000091GF106991031021017501031011KA1240N+02481MA1999999100661MD1999999-0051REMSYN076AAXX  10124 82198 32797 60504 10286 20246 30066 40118 83231 333 20248 59005;EQDQ01  00002PRCP99
0167821980999992000121018004-01710-045400FM-12+004499999V0203601N007212200019N0100001N1+02981+02441100921ADDAA199000091GF104991031021017501001011MA1999999100411MD1999999-0161REMSYN070AAXX  10184 82198 32797 43614 10298 20244 30041 40092 83201 333 59016;EQDQ01  00002PRCP99
0186821980999992000121112004-01710-045400FM-12+004499999V0200501N004612200019N0100001N1+02841+02261101041ADDAA199000091GF104991041021017501001001KA1240N+02481MA1999999100531MD1999999-0131REMSYN076AAXX  11124 82198 32797 40509 10284 20226 30053 40104 84200 333 20248 59013;EQDQ01  00002PRCP99
0167821980999992000121118004-01710-045400FM-12+004499999V0200501N006712200019N0100001N1+03061+02381100871ADDAA199000091GF104991041021017501001001MA1999999100361MD1999999-0051REMSYN070AAXX  11184 82198 32797 40513 10306 20238 30036 40087 84200 333 59005;EQDQ01  00002PRCP99
0208821980999992000121200004-01710-045400FM-12+004499999V0200501N004612200019N0020001N1+02631+02181101041ADDAA199000091GA1001+999999999GF100991001001999999001001KA1240M+03261MA1999999100531MD1999999+0031REMSYN082AAXX  12004 82198 32995 00509 10263 20218 30053 40104 333 10326 29073 55108 58003;EQDQ01  00002PRCP99
0186821980999992000121212004-01710-045400FM-12+004499999V0200501N004610450019N0100001N1+02911+02391101141ADDAA199000091GF105991031021017501061001KA1240N+02441MA1999999100631MD1999999+0101REMSYN076AAXX  12124 82198 32797 50509 10291 20239 30063 40114 83260 333 20244 58010;EQDQ01  00002PRCP99
0167821980999992000121218004-01710-045400FM-12+004499999V0200501N005710450019N0100001N1+03091+02351100921ADDAA199000091GF106991041021017501061001MA1999999100411MD1999999+0051REMSYN070AAXX  12184 82198 32797 60511 10309 20235 30041 40092 84260 333 58005;EQDQ01  00002PRCP99
0198821980999992000121300004-01710-045400FM-12+004499999V0200501N003612200019N0020001N1+02651+02201101071ADDAA199000091GF102991021001017501061001KA1240M+03211MA1999999100561MD1999999+0031REMSYN088AAXX  13004 82198 32795 20507 10265 20220 30056 40107 82060 333 10321 29073 55085 58003;EQDQ01  00002PRCP99
0186821980999992000121312004-01710-045400FM-12+004499999V0200501N004610150019N0100001N1+02811+02381101131ADDAA199000091GF106991051021017501001011KA1240N+02521MA1999999100621MD1999999-0011REMSYN076AAXX  13124 82198 32797 60509 10281 20238 30062 40113 85201 333 20252 59001;EQDQ01  00002PRCP99
0167821980999992000121318004-01710-045400FM-12+004499999V0200501N006710150019N0100001N1+03001+02391100891ADDAA199000091GF106991061021017501001001MA1999999100381MD1999999-0031REMSYN070AAXX  13184 82198 32797 60513 10300 20239 30038 40089 86200 333 59003;EQDQ01  00002PRCP99
0198821980999992000121400004-01710-045400FM-12+004499999V0200501N003112200019N0020001N1+02681+02241101031ADDAA199000091GF103991031021017501001001KA1240M+03181MA1999999100521MD1999999-0041REMSYN088AAXX  14004 82198 32795 30506 10268 20224 30052 40103 83200 333 10318 29076 55085 59004;EQDQ01  00002PRCP99
0186821980999992000121412004-01710-045400FM-12+004499999V0200501N004110450019N0100001N1+02841+02401101001ADDAA199000091GF106991031021017501031001KA1240N+02521MA1999999100491MD1999999-0131REMSYN076AAXX  14124 82198 32797 60508 10284 20240 30049 40100 83230 333 20252 59013;EQDQ01  00002PRCP99
0167821980999992000121418004-01710-045400FM-12+004499999V0200501N006712200019N0100001N1+03021+02461100681ADDAA199000091GF104991021021017501061001MA1999999100171MD1999999-0211REMSYN070AAXX  14184 82198 32797 40513 10302 20246 30017 40068 82260 333 59021;EQDQ01  00002PRCP99
0213821980999992000121500004-01710-045400FM-12+004499999V0200501N003610150019N0020001N1+02581+02211100861ADDAA106000191AY151061AY221061GF108991051051017501041001KA1240M+03211MA1999999100351MD1999999-0171MW1031REMSYN100AAXX  15004 82198 21795 80507 10258 20221 30035 40086 70352 85540 333 10321 29077 55078 59017 69921;
0201821980999992000121512004-01710-045400FM-12+004499999V0200901N002110450019N0100001N1+02561+02331100891ADDAA124002091AY151061AY221061GF108991041021017501041001KA1240N+02451MA1999999100371MD1999999-0121MW1021REMSYN088AAXX  15124 82198 21797 80904 10256 20233 30037 40089 70252 84240 333 20245 59012 60024;
0213821980999992000121600004-01710-045400FM-12+004499999V0201401N004610450019N0020001N1+02361+02111100851ADDAA106008991AY161061AY251061GF108991041051017501041001KA1240M+02911MA1999999100341MD1999999-0011MW1021REMSYN100AAXX  16004 82198 21795 81409 10236 20211 30034 40085 70265 84540 333 10291 29086 55005 59001 60091;
0201821980999992000121612004-01710-045400FM-12+004499999V0201401N003110150019N0100001N1+02301+02071101181ADDAA124031091AY161061AY221061GF108991061051017501081001KA1240N+02221MA1999999100661MD1999999+0291MW1021REMSYN088AAXX  16124 82198 21797 81406 10230 20207 30066 40118 70262 86580 333 20222 58029 60314;
0167821980999992000121618004-01710-045400FM-12+004499999V0200901N003610450019N0100001N1+02571+02311100851ADDAA199000091GF108991041021017501041001MA1999999100341MD1999999+0261REMSYN070AAXX  16184 82198 32797 80907 10257 20231 30034 40085 84240 333 58026;EQDQ01  00002PRCP99
0198821980999992000121700004-01710-045400FM-12+004499999V0200901N001510450019N0020001N1+02441+02191101121ADDAA199000091GF106991031021017501041001KA1240M+02661MA1999999100601MD1999999+0261REMSYN088AAXX  17004 82198 32795 60903 10244 20219 30060 40112 83240 333 10266 29086 55000 58026;EQDQ01  00002PRCP99
0186821980999992000121712004-01710-045400FM-12+004499999V0202301N000510450019N0100001N1+02481+02151101161ADDAA199000091GF108991031011017501031001KA1240N+02231MA1999999100651MD1999999-0011REMSYN076AAXX  17124 82198 32797 82301 10248 20215 30065 40116 83130 333 20223 59001;EQDQ01  00002PRCP99
0167821980999992000121718004-01710-045400FM-12+004499999V0200501N004110450019N0100001N1+02841+02191100901ADDAA199000091GF108991041021017501061001MA1999999100391MD1999999+0051REMSYN070AAXX  17184 82198 32797 80508 10284 20219 30039 40090 84260 333 58005;EQDQ01  00002PRCP99
0198821980999992000121800004-01710-045400FM-12+004499999V0200901N001512200019N0020001N1+02441+02151101241ADDAA199000091GF103991031001017501061001KA1240M+03041MA1999999100731MD1999999+0131REMSYN088AAXX  18004 82198 32795 30903 10244 20215 30073 40124 83060 333 10304 29080 55015 58013;EQDQ01  00002PRCP99
0186821980999992000121812004-01710-045400FM-12+004499999V0201401N000510450019N0100001N1+02681+02201101301ADDAA199000091GF107991041021017501031091KA1240N+02251MA1999999100781MD1999999+0131REMSYN076AAXX  18124 82198 32797 71401 10268 20220 30078 40130 84239 333 20225 58013;EQDQ01  00002PRCP99
0167821980999992000121818004-01710-045400FM-12+004499999V0200501N004610450019N0100001N1+03111+02231101021ADDAA199000091GF105991031021017501041011MA1999999100501MD1999999+0311REMSYN070AAXX  18184 82198 32797 50509 10311 20223 30050 40102 83241 333 58031;EQDQ01  00002PRCP99
0208821980999992000121900004-01710-045400FM-12+004499999V0203601N003612200019N0020001N1+02531+02291101161ADDAA199000091GA1001+999999999GF100991001001999999001001KA1240M+03191MA1999999100641MD1999999-0091REMSYN082AAXX  19004 82198 32995 03607 10253 20229 30064 40116 333 10319 29078 55072 59009;EQDQ01  00002PRCP99
0186821980999992000121912004-01710-045400FM-12+004499999V0200501N001512200019N0100001N1+02841+02481101301ADDAA199000091GF104991021021017501001011KA1240N+02351MA1999999100781MD1999999+0001REMSYN076AAXX  19124 82198 32797 40503 10284 20248 30078 40130 82201 333 20235 58000;EQDQ01  00002PRCP99
0167821980999992000121918004-01710-045400FM-12+004499999V0203601N005710450019N0100001N1+03021+02181100981ADDAA199000091GF106991041021017501061001MA1999999100461MD1999999-0041REMSYN070AAXX  19184 82198 32797 63611 10302 20218 30046 40098 84260 333 59004;EQDQ01  00002PRCP99
0198821980999992000122000004-01710-045400FM-12+004499999V0200501N004112200019N0020001N1+02621+02371101171ADDAA199000091GF103991031021017501001001KA1240M+03181MA1999999100651MD1999999+0011REMSYN088AAXX  20004 82198 32795 30508 10262 20237 30065 40117 83200 333 10318 29078 55092 58001;EQDQ01  00002PRCP99
0186821980999992000122012004-01710-045400FM-12+004499999V0200501N005112200019N0100001N1+02851+02341101361ADDAA199000091GF105991031021017501001011KA1240N+02501MA1999999100841MD1999999+0061REMSYN076AAXX  20124 82198 32797 50510 10285 20234 30084 40136 83201 333 20250 58006;EQDQ01  00002PRCP99
0167821980999992000122018004-01710-045400FM-12+004499999V0200501N005111050019N0100001N1+03051+02241101161ADDAA199000091GF105991021021017501011061MA1999999100641MD1999999+0181REMSYN070AAXX  20184 82198 32797 50510 10305 20224 30064 40116 82216 333 58018;EQDQ01  00002PRCP99
0198821980999992000122100004-01710-045400FM-12+004499999V0200501N003110150019N0020001N1+02631+02311101251ADDAA199000091GF105991051021017501001001KA1240M+03151MA1999999100731MD1999999+0081REMSYN088AAXX  21004 82198 32795 50506 10263 20231 30073 40125 85200 333 10315 29077 55105 58008;EQDQ01  00002PRCP99
0186821980999992000122112004-01710-045400FM-12+004499999V0200901N002110450019N0100001N1+02871+02541101411ADDAA199000091GF106991031021017501011061KA1240N+02401MA1999999100891MD1999999+0051REMSYN076AAXX  21124 82198 32797 60904 10287 20254 30089 40141 83216 333 20240 58005;EQDQ01  00002PRCP99
0167821980999992000122118004-01710-045400FM-12+004499999V0203601N005112200019N0100001N1+03091+02191101141ADDAA199000091GF104991021021017501011011MA1999999100621MD1999999-0021REMSYN070AAXX  21184 82198 32797 43610 10309 20219 30062 40114 82211 333 59002;EQDQ01  00002PRCP99
0198821980999992000122200004-01710-045400FM-12+004499999V0200501N003112200019N0020001N1+02641+02391101211ADDAA199000091GF102991021021017501001001KA1240M+03241MA1999999100691MD1999999-0041REMSYN088AAXX  22004 82198 32795 20506 10264 20239 30069 40121 82200 333 10324 29080 55100 59004;EQDQ01  00002PRCP99
0186821980999992000122212004-01710-045400FM-12+004499999V0200501N002612200019N0100001N1+02861+02461101371ADDAA199000091GF103991031021017501001001KA1240N+02271MA1999999100851MD1999999-0041REMSYN076AAXX  22124 82198 32797 30505 10286 20246 30085 40137 83200 333 20227 59004;EQDQ01  00002PRCP99
0167821980999992000122218004-01710-045400FM-12+004499999V0200501N004610450019N0100001N1+02951+02371101401ADDAA199000091GF106991041021017501011011MA1999999100521MD1999999-0101REMSYN070AAXX  22184 82198 32797 60509 10295 20237 30052 40140 84211 333 59010;EQDQ01  00002PRCP99
0198821980999992000122300004-01710-045400FM-12+004499999V0200501N003612200019N0020001N1+02651+02291101221ADDAA199000091GF102991021021017501001001KA1240M+03191MA1999999100741MD1999999+0051REMSYN088AAXX  23004 82198 32795 20507 10265 20229 30074 40122 82200 333 10319 29078 55068 58005;EQDQ01  00002PRCP99
0167821980999992000122318004-01710-045400FM-12+004499999V0200501N005110450019N0100001N1+02911+02271101021ADDAA199000091GF106991041021017501011011MA1999999100511MD1999999-0011REMSYN070AAXX  23184 82198 32797 60510 10291 20227 30051 40102 84211 333 59001;EQDQ01  00002PRCP99
0208821980999992000122400004-01710-045400FM-12+004499999V0200501N005112200019N0020001N1+02701+02371101221ADDAA199000091GA1001+999999999GF100991001001999999001001KA1240M+03111MA1999999100701MD1999999-0041REMSYN082AAXX  24004 82198 32995 00510 10270 20237 30070 40122 333 10311 29078 55040 59004;EQDQ01  00002PRCP99
0186821980999992000122412004-01710-045400FM-12+004499999V0200501N005110450019N0100001N1+02891+02201101371ADDAA199000091GF106991041021017501061011KA1240N+02541MA1999999100861MD1999999+0001REMSYN076AAXX  24124 82198 32797 60510 10289 20220 30086 40137 84261 333 20254 58000;EQDQ01  00002PRCP99
0167821980999992000122418004-01710-045400FM-12+004499999V0200501N004610150019N0100001N1+03031+02191101111ADDAA199000091GF105991051021017501001001MA1999999100491MD1999999-0021REMSYN070AAXX  24184 82198 32797 50509 10303 20219 30049 40111 85200 333 59002;EQDQ01  00002PRCP99
0167821980999992000122518004-01710-045400FM-12+004499999V0200901N005112200019N0100001N1+03111+02231101031ADDAA199000091GF104991041021017501001001MA1999999100521MD1999999+0031REMSYN070AAXX  25184 82198 32797 40910 10311 20223 30052 40103 84200 333 58003;EQDQ01  00002PRCP99
0208821980999992000122600004-01710-045400FM-12+004499999V0200501N003612200019N0020001N1+02631+02121101131ADDAA199000091GA1001+999999999GF100991001001999999001001KA1240M+03261MA1999999100631MD1999999+0031REMSYN082AAXX  26004 82198 32995 00507 10263 20212 30063 40113 333 10326 29070 55103 58003;EQDQ01  00002PRCP99
0186821980999992000122612004-01710-045400FM-12+004499999V0200901N004610450019N0100001N1+02841+02401101181ADDAA199000091GF106991041021017501061001KA1240N+02431MA1999999100671MD1999999-0041REMSYN076AAXX  26124 82198 32797 60909 10284 20240 30067 40118 84260 333 20243 59004;EQDQ01  00002PRCP99
0167821980999992000122618004-01710-045400FM-12+004499999V0200501N005110450019N0100001N1+03151+02501100961ADDAA199000091GF105991041021017501061001MA1999999100451MD1999999-0071REMSYN070AAXX  26184 82198 32797 50510 10315 20250 30045 40096 84260 333 59007;EQDQ01  00002PRCP99
0208821980999992000122700004-01710-045400FM-12+004499999V0200501N003612200019N0020001N1+02621+02031101131ADDAA199000091GA1001+999999999GF100991001001999999001001KA1240M+03231MA1999999100621MD1999999+0001REMSYN082AAXX  27004 82198 32995 00507 10262 20203 30062 40113 333 10323 29071 55084 58000;EQDQ01  00002PRCP99
0186821980999992000122712004-01710-045400FM-12+004499999V0200501N005710150019N0100001N1+02901+02301101211ADDAA199000091GF106991061021017501001001KA1240N+02421MA1999999100701MD1999999+0031REMSYN076AAXX  27124 82198 32797 60511 10290 20230 30070 40121 86200 333 20242 58003;EQDQ01  00002PRCP99
0167821980999992000122718004-01710-045400FM-12+004499999V0200501N006710150019N0100001N1+03001+02271101001ADDAA199000091GF106991051021017501061001MA1999999100491MD1999999+0041REMSYN070AAXX  27184 82198 32797 60513 10300 20227 30049 40100 85260 333 58004;EQDQ01  00002PRCP99
0208821980999992000122800004-01710-045400FM-12+004499999V0200501N002612200019N0020001N1+02601+02081101161ADDAA199000091GA1001+999999999GF100991001001999999001001KA1240M+03251MA1999999100651MD1999999+0031REMSYN082AAXX  28004 82198 32995 00505 10260 20208 30065 40116 333 10325 29070 55085 58003;EQDQ01  00002PRCP99
0186821980999992000122812004-01710-045400FM-12+004499999V0200501N005712200019N0100001N1+02851+02291101211ADDAA199000091GF104991041021017501001001KA1240N+02411MA1999999100701MD1999999+0001REMSYN076AAXX  28124 82198 32797 40511 10285 20229 30070 40121 84200 333 20241 58000;EQDQ01  00002PRCP99
0167821980999992000122818004-01710-045400FM-12+004499999V0200901N005710150019N0100001N1+03221+02401100921ADDAA199000091GF105991051021017501001001MA1999999100411MD1999999-0081REMSYN070AAXX  28184 82198 32797 50911 10322 20240 30041 40092 85200 333 59008;EQDQ01  00002PRCP99
0208821980999992000122900004-01710-045400FM-12+004499999V0200501N003612200019N0020001N1+02681+02131101111ADDAA199000091GA1001+999999999GF100991001001999999001001KA1240M+03381MA1999999100601MD1999999-0051REMSYN082AAXX  29004 82198 32995 00507 10268 20213 30060 40111 333 10338 29070 55110 59005;EQDQ01  00002PRCP99
0186821980999992000122912004-01710-045400FM-12+004499999V0200501N003110150019N0100001N1+02911+02341101151ADDAA199000091GF105991051021017501001001KA1240N+02481MA1999999100641MD1999999-0061REMSYN076AAXX  29124 82198 32797 50506 10291 20234 30064 40115 85200 333 20248 59006;EQDQ01  00002PRCP99
0167821980999992000122918004-01710-045400FM-12+004499999V0200901N008212200019N0100001N1+03111+02361100961ADDAA199000091GF104991041021017501001001MA1999999100451MD1999999+0041REMSYN070AAXX  29184 82198 32797 40916 10311 20236 30045 40096 84200 333 58004;EQDQ01  00002PRCP99
0208821980999992000123000004-01710-045400FM-12+004499999V0200501N003112200019N0020001N1+02661+02141101101ADDAA199000091GA1001+999999999GF100991001001999999001001KA1240M+03261MA1999999100591MD1999999-0011REMSYN082AAXX  30004 82198 32995 00506 10266 20214 30059 40110 333 10326 29070 55108 59001;EQDQ01  00002PRCP99
0186821980999992000123012004-01710-045400FM-12+004499999V0200501N002610150019N0100001N1+02951+02421101131ADDAA199000091GF106991061021017501001001KA1240N+02441MA1999999100621MD1999999-0021REMSYN076AAXX  30124 82198 32797 60505 10295 20242 30062 40113 86200 333 20244 59002;EQDQ01  00002PRCP99
0167821980999992000123018004-01710-045400FM-12+004499999V0200501N006210150019N0100001N1+03121+02431101031ADDAA199000091GF105991051021017501001001MA1999999100521MD1999999+0071REMSYN070AAXX  30184 82198 32797 50512 10312 20243 30052 40103 85200 333 58007;EQDQ01  00002PRCP99
0208821980999992000123100004-01710-045400FM-12+004499999V0200501N003112200019N0020001N1+02661+02111101081ADDAA199000091GA1001+999999999GF100991001001999999001001KA1240M+03211MA1999999100571MD1999999-0021REMSYN082AAXX  31004 82198 32995 00506 10266 20211 30057 40108 333 10321 29071 55093 59002;EQDQ01  00002PRCP99
0186821980999992000123112004-01710-045400FM-12+004499999V0200501N004610150019N0100001N1+02871+02321101211ADDAA199000091GF106991061021017501001001KA1240N+02481MA1999999100701MD1999999+0081REMSYN076AAXX  31124 82198 32797 60509 10287 20232 30070 40121 86200 333 20248 58008;EQDQ01  00002PRCP99
0167821980999992000123118004-01710-045400FM-12+004499999V0200501N005112200019N0100001N1+03181+02391101021ADDAA199000091GF103991031021017501001001MA1999999100511MD1999999-0011REMSYN070AAXX  31184 82198 32797 30510 10318 20239 30051 40102 83200 333 59001;EQDQ01  00002PRCP99
