0186823970999992000011200004-03730-038550FM-12+001999999V0200901N001512200019N0020001N1+02611+02411100971ADDAA106000091GF101991011011008001001001KA1240M+03051MA1999999100661MD1999999-0101REMSYN076AAXX  12004 82397 32595 10903 10261 20241 30066 40097 81100 333 10305 59010;EQDQ01  00002PRCP06
0201823970999992000011212004-03730-038550FM-12+001999999V0200901N003610120019N0200001N1+02831+02421101111ADDAA124006191AY161061AY221061GF107991071081008001001001KA1240N+02501MA1999999100801MD1999999+0001MW1031REMSYN088AAXX  12124 82397 21598 70907 10283 20242 30080 40111 70362 87800 333 20250 58000 60064;
0167823970999992000022518004-03730-038550FM-12+001999999V0201401N004610120019N0200001N1+02901+02391101001ADDAA199000091GF107991051081008001071001MA1999999100691MD1999999+0121REMSYN070AAXX  25184 82397 32598 71409 10290 20239 30069 40100 85870 333 58012;EQDQ01  00002PRCP99
0167823970999992000061718004-03720-038550FM-12+001999999V0200901N004612200019N0200001N1+02901+02301101081ADDAA199000091GF106991021021008001001011MA1999999100771MD1999999+0001REMSYN070AAXX  17184 82397 32598 60909 10290 20230 30077 40108 82201 333 59000;EQDQ01  00002PRCP99
0167823970999992000082818004-03720-038550FM-12+001999999V0200901N004112200019N0200001N1+02901+02321100961ADDAA199000091GF103991031011008001001001MA1999999100651MD1999999+0021REMSYN070AAXX  28184 82397 32598 30908 10290 20232 30065 40096 83100 333 58002;EQDQ01  00002PRCP99
