0198825710999992000010100004-05500-045270FM-12+017499999V0202301N001010075019N0100001N1+02391+02291100991ADDAA106000091GF108991081051008001999999KA1240M+02641MA1999999099011MD1999999-0091REMSYN088AAXX  01004 82571 32597 82302 10239 20229 39901 40099 885// 333 10264 29089 55001 59009;EQDQ01  00002PRCP06
0186825710999992000010112004-05500-045270FM-12+017499999V0201801N001010075019N0100001N1+02501+02341101031ADDAA106000091GF108991081051008001999999KA1240N+02131MA1999999099051MD1999999-0201REMSYN076AAXX  01124 82571 32597 81802 10250 20234 39905 40103 885// 333 20213 59020;EQDQ01  00002PRCP06
0167825710999992000010118004-05500-045270FM-12+017499999V0200501N003110450019N0100001N1+03121+02281100621ADDAA106000091GF106991031021008001031001MA1999999098671MD1999999-0261REMSYN070AAXX  01184 82571 32597 60506 10312 20228 39867 40062 83230 333 59026;EQDQ01  00002PRCP06
0208825710999992000010200004-05500-045270FM-12+017499999V0201401N001012200019N0100001N1+02661+02461100781ADDAA106000091GA1001+999999999GF100991001001999999001001KA1240M+03191MA1999999098821MD1999999-0191REMSYN082AAXX  02004 82571 32997 01402 10266 20246 39882 40078 333 10319 29082 55050 59019;EQDQ01  00002PRCP06
0186825710999992000010212004-05500-045270FM-12+017499999V0200501N001010450019N0100001N1+02591+02441100981ADDAA106000091GF107991041051008001031001KA1240N+02281MA1999999099011MD1999999-0041REMSYN076AAXX  02124 82571 32597 70502 10259 20244 39901 40098 84530 333 20228 59004;EQDQ01  00002PRCP06
0167825710999992000010218004-05500-045270FM-12+017499999V0203201N001010075019N0100001N1+02981+02351100551ADDAA106000091GF106991061051008001001001MA1999999098601MD1999999-0071REMSYN070AAXX  02184 82571 32597 63202 10298 20235 39860 40055 86500 333 59007;EQDQ01  00002PRCP06
0197825710999992000010300004-05500-045270FM-12+017499999V0202701N001010042019N0100001N1+02381+02311100961ADDAA106001091GF108991081051004501999999KA1240M+03111MA1999999098981MD1999999+0161MW1611REMSYN100AAXX  03004 82571 21497 82702 10238 20231 39898 40096 761// 885// 333 10311 29088 55011 58016 60011;
0193825710999992000010312004-05500-045270FM-12+017499999V0200501N001010075019N0100001N1+02541+02361101041ADDAA124002091AY161061GF108991081051008001999999KA1240N+02161MA1999999099061MD1999999+0051MW1031REMSYN088AAXX  03124 82571 21597 80502 10254 20236 39906 40104 7036/ 885// 333 20216 58005 60024;
0166825710999992000010318004-05500-045270FM-12+017499999V0202701N001010450019N0100001N1+02961+02451100621ADDAA106000191GF106991041031008001031001MA1999999098661MD1999999+0061MW1611REMSYN082AAXX  03184 82571 21597 62702 10296 20245 39866 40062 761// 84330 333 58006 69921;
0213825710999992000010400004-05500-045270FM-12+017499999V0202301N001010042019N0100001N1+02281+02251100991ADDAA106007991AY191061AY261061GF108991081051004501999999KA1240M+03071MA1999999099011MD1999999+0031MW1611REMSYN100AAXX  04004 82571 21497 82302 10228 20225 39901 40099 76196 885// 333 10307 29090 55017 58003 60081;
0193825710999992000010412004-05500-045270FM-12+017499999V0202701N001010450019N0100001N1+02401+02131101211ADDAA124007991AY161061GF107991041021004501051001KA1240N+01961MA1999999099221MD1999999+0161MW1021REMSYN088AAXX  04124 82571 21497 72702 10240 20213 39922 40121 7026/ 84250 333 20196 58016 60084;
0167825710999992000010418004-05500-045270FM-12+017499999V0200501N001012200019N0100001N1+02881+02211100801ADDAA106000091GF104991021021008001011011MA1999999098831MD1999999+0171REMSYN070AAXX  04184 82571 32597 40502 10288 20221 39883 40080 82211 333 58017;EQDQ01  00002PRCP06
0205825710999992000010500004-05500-045270FM-12+017499999V0201401N001010450019N0100001N1+02501+02291101011ADDAA106000191AY161061GF105991021021004501011001KA1240M+02981MA1999999099031MD1999999+0031MW1021REMSYN100AAXX  05004 82571 21497 51402 10250 20229 39903 40101 7026/ 82210 333 10298 29082 55049 58003 69921;
0173825710999992000010512004-05500-045270FM-12+017499999V0202301N001010042019N0100001N1+02531+02361101321ADDAA124000191GF108991081051004501999999KA1240N+02201MA1999999099341MD1999999+0121REMSYN082AAXX  05124 82571 22497 82302 10253 20236 39934 40132 885// 333 20220 58012 69924;
0167825710999992000010518004-05500-045270FM-12+017499999V0202701N001010450019N0100001N1+02761+02341100911ADDAA106000091GF106991021021004501071001MA1999999098941MD1999999+0111REMSYN070AAXX  05184 82571 32497 62702 10276 20234 39894 40091 82270 333 58011;EQDQ01  00002PRCP06
0206825710999992000010612004-05500-045270FM-12+017499999V0202301N001010042019N0100001N1+02461+02361101241ADDAA106000091AY141061GF107991071051004501001001KA1240N+02051MA1999999099251MD1999999-0091MW1021REMSYN082AAXX  06124 82571 31497 72302 10246 20236 39925 40124 7024/ 87500 333 20205 59009;EQDQ01  00002PRCP06
0205825710999992000010700004-05500-045270FM-12+017499999V0202701N001012200019N0100001N1+02411+02261100991ADDAA106000191AY161061GF104991041021008001001001KA1240M+03111MA1999999099011MD1999999-0081MW1131REMSYN100AAXX  07004 82571 21597 42702 10241 20226 39901 40099 7136/ 84200 333 10311 29085 55048 59008 69921;
0193825710999992000010712004-05500-045270FM-12+017499999V0200901N001010042019N0100001N1+02601+02291101161ADDAA124000591AY161061GF105991051021004501001001KA1240N+02181MA1999999099181MD1999999-0071MW1021REMSYN088AAXX  07124 82571 21497 50902 10260 20229 39918 40116 7026/ 85200 333 20218 59007 69954;
0167825710999992000010718004-05500-045270FM-12+017499999V0201401N002112200019N0100001N1+03011+02241100711ADDAA106000091GF104991031021008001041001MA1999999098751MD1999999-0061REMSYN070AAXX  07184 82571 32597 41404 10301 20224 39875 40071 83240 333 59006;EQDQ01  00002PRCP06
0210825710999992000010800004-05500-045270FM-12+017499999V0202701N001012200019N0100001N1+02561+02311100861ADDAA106000091GF103991021021008001041001KA1240M+03151MA1999999098891MD1999999-0121MW1131REMSYN094AAXX  08004 82571 31597 32702 10256 20231 39889 40086 713// 82240 333 10315 29080 55065 59012;EQDQ01  00002PRCP06
0174825710999992000010818004-05500-045270FM-12+017499999V0202701N001010450019N0100001N1+02221+02171101021ADDAA106014091AY161061GF108991041071004501021999MA1999999099021MD1999999+0271MW1611REMSYN082AAXX  08184 82571 21497 82702 10222 20217 39902 40102 7616/ 8472/ 333 58027 60141;
0205825710999992000010900004-05500-045270FM-12+017499999V0201401N001010075019N0100001N1+02241+02191101201ADDAA106000391AY161061GF107991071051008001001001KA1240M+02741MA1999999099201MD1999999+0311MW1611REMSYN100AAXX  09004 82571 21597 71402 10224 20219 39920 40120 7616/ 87500 333 10274 29097 55000 58031 69931;
0193825710999992000010912004-05500-045270FM-12+017499999V0201401N001010042019N0100001N1+02401+02301101331ADDAA124014091AY161061GF108991081051004501999999KA1240N+02061MA1999999099331MD1999999+0081MW1021REMSYN088AAXX  09124 82571 21497 81402 10240 20230 39933 40133 7026/ 885// 333 20206 58008 60144;
0167825710999992000010918004-05500-045270FM-12+017499999V0200901N003110042019N0100001N1+02871+02351100991ADDAA106000091GF106991061051004501001001MA1999999099011MD1999999-0011REMSYN070AAXX  09184 82571 32497 60906 10287 20235 39901 40099 86500 333 59001;EQDQ01  00002PRCP06
0205825710999992000011000004-05500-045270FM-12+017499999V0209999C000010042019N0100001N1+02361+02331101231ADDAA106008991AY161061GF108991081051004501999999KA1240M+02931MA1999999099241MD1999999+0041MW1021REMSYN100AAXX  10004 82571 21497 80000 10236 20233 39924 40123 7026/ 885// 333 10293 29091 55020 58004 60091;
0193825710999992000011012004-05500-045270FM-12+017499999V0200501N001010450019N0100001N1+02541+02361101301ADDAA124008991AY161061GF105991031021004501011011KA1240N+02131MA1999999099311MD1999999-0021MW1011REMSYN088AAXX  10124 82571 21497 50502 10254 20236 39931 40130 7016/ 83211 333 20213 59002 60094;
0167825710999992000011018004-05500-045270FM-12+017499999V0201401N005112200019N0100001N1+02981+02231100831ADDAA106000091GF104991031021008001001011MA1999999098861MD1999999-0151REMSYN070AAXX  10184 82571 32597 41410 10298 20223 39886 40083 83201 333 59015;EQDQ01  00002PRCP06
0218825710999992000011100004-05500-045270FM-12+017499999V0200501N001010042019N0100001N1+02581+02331101021ADDAA106000091AY191061GF105991051021004501001001KA1240M+03181MA1999999099051MD1999999-0191MW1131REMSYN094AAXX  11004 82571 31497 50502 10258 20233 39905 40102 7139/ 85200 333 10318 29082 55080 59019;EQDQ01  00002PRCP06
0186825710999992000011112004-05500-045270FM-12+017499999V0200501N001010450019N0100001N1+02651+02311101211ADDAA106000091GF106991031021004501011001KA1240N+02151MA1999999099241MD1999999-0071REMSYN076AAXX  11124 82571 32497 60502 10265 20231 39924 40121 83210 333 20215 59007;EQDQ01  00002PRCP06
0182825710999992000011118004-05500-045270FM-12+017499999V0200501N001010450019N0100001N1+02921+02291100791ADDAA106000191AY191061AY261061GF106991031051004501071001MA1999999098831MD1999999-0031MW1021REMSYN082AAXX  11184 82571 21497 60502 10292 20229 39883 40079 70296 83570 333 59003 69921;
0218825710999992000011200004-05500-045270FM-12+017499999V0209999C000012200019N0100001N1+02541+02401100871ADDAA106000091AY191061GF101991011001017501011001KA1240M+03091MA1999999098901MD1999999-0151MW1021REMSYN094AAXX  12004 82571 31797 10000 10254 20240 39890 40087 7029/ 81010 333 10309 29084 55048 59015;EQDQ01  00002PRCP06
0173825710999992000011212004-05500-045270FM-12+017499999V0200501N002110042019N0100001N1+02571+02361101091ADDAA124000191GF107991071051004501001001KA1240N+02161MA1999999099121MD1999999-0121REMSYN082AAXX  12124 82571 22497 70504 10257 20236 39912 40109 87500 333 20216 59012 69924;
0174825710999992000011218004-05500-045270FM-12+017499999V0201401N003110450019N0100001N1+03121+02221100671ADDAA106000191AY161061GF105991031021008001011011MA1999999098721MD1999999-0111MW1011REMSYN082AAXX  12184 82571 21597 51406 10312 20222 39872 40067 7016/ 83211 333 59011 69921;
0205825710999992000011300004-05500-045270FM-12+017499999V0201801N001010450019N0040001N1+02241+02171101051ADDAA106001091AY191061GF108991031071004501021999KA1240M+03181MA1999999099061MD1999999+0161MW1951REMSYN100AAXX  13004 82571 21496 81802 10224 20217 39906 40105 7959/ 8372/ 333 10318 29085 55058 58016 60011;
0193825710999992000011312004-05500-045270FM-12+017499999V0200901N001010450019N0100001N1+02381+02351101321ADDAA124001091AY161061GF108991041071004501021999KA1240N+02121MA1999999099321MD1999999+0201MW1021REMSYN088AAXX  13124 82571 21497 80902 10238 20235 39932 40132 7026/ 8472/ 333 20212 58020 60014;
0174825710999992000011318004-05500-045270FM-12+017499999V0202301N002110450019N0100001N1+02721+02431100931ADDAA106004191AY161061GF107991031021008001071001MA1999999098951MD1999999+0231MW1021REMSYN082AAXX  13184 82571 21597 72304 10272 20243 39895 40093 7026/ 83270 333 58023 60041;
0214825710999992000011400004-05500-045270FM-12+017499999V0202301N001010120019N0100001N1+02441+02341101111ADDAA199000091GF107991071081008001001001KA1240M+02851MA1999999099121MD1999999+0061MW1131REMSYN098    AAXX  14004 82571 31597 72302 10244 20234 39912 40111 713// 87800 333 10285 29092 55003 58006;EQDQ01  00002PRCP99
0177825710999992000011412004-05500-045270FM-12+017499999V0201801N001010450019N0100001N1+02431+02331101141ADDAA124004191GF106991031021004501031001KA1240N+02181MA1999999099161MD1999999-0161REMSYN086    AAXX  14124 82571 22497 61802 10243 20233 39916 40114 83230 333 20218 59016 60044;
0171825710999992000011418004-05500-045270FM-12+017499999V0202701N001012200019N0100001N1+03081+02371100661ADDAA199000091GF104991031021008001011001MA1999999098711MD1999999-0241REMSYN074    AAXX  14184 82571 32597 42702 10308 20237 39871 40066 83210 333 59024;EQDQ01  00002PRCP99
0197825710999992000011512004-05500-045270FM-12+017499999V0200901N001010450019N0100001N1+02421+02261101141ADDAA124005191AY161061GF107991031021004501071001KA1240N+02101MA1999999099151MD1999999-0011MW1021REMSYN092    AAXX  15124 82571 21497 70902 10242 20226 39915 40114 7026/ 83270 333 20210 59001 60054;
0214825710999992000011600004-05500-045270FM-12+017499999V0200901N001012200019N0100001N1+02621+02441100841ADDAA199000091GF104991041021004501001001KA1240M+03141MA1999999098871MD1999999-0101MW1131REMSYN098    AAXX  16004 82571 31497 40902 10262 20244 39887 40084 713// 84200 333 10314 29084 55040 59010;EQDQ01  00002PRCP99
0190825710999992000011612004-05500-045270FM-12+017499999V0200501N001010042019N0100001N1+02421+02261101191ADDAA199000091GF108991081051004501999999KA1240N+02141MA1999999099211MD1999999+0061REMSYN080    AAXX  16124 82571 32497 80502 10242 20226 39921 40119 885// 333 20214 58006;EQDQ01  00002PRCP99
0171825710999992000011618004-05500-045270FM-12+017499999V0201801N001010450019N0100001N1+02981+02401100801ADDAA199000091GF106991041021008001011001MA1999999098851MD1999999+0071REMSYN074    AAXX  16184 82571 32597 61802 10298 20240 39885 40080 84210 333 58007;EQDQ01  00002PRCP99
0202825710999992000011700004-05500-045270FM-12+017499999V0209999C000012200019N0100001N1+02561+02381100961ADDAA199000091GF102991021001017501011001KA1240M+03061MA1999999098981MD1999999+0111REMSYN092    AAXX  17004 82571 32797 20000 10256 20238 39898 40096 82010 333 10306 29086 55048 58011;EQDQ01  00002PRCP99
0190825710999992000011712004-05500-045270FM-12+017499999V0203601N001012200019N0100001N1+02601+02371101211ADDAA199000091GF104991011021004501031001KA1240N+02191MA1999999099241MD1999999+0031REMSYN080    AAXX  17124 82571 32497 43602 10260 20237 39924 40121 81230 333 20219 58003;EQDQ01  00002PRCP99
0171825710999992000011718004-05500-045270FM-12+017499999V0200501N002110075019N0100001N1+03091+02241100841ADDAA199000091GF105991051021008001001001MA1999999098891MD1999999+0041REMSYN074    AAXX  17184 82571 32597 50504 10309 20224 39889 40084 85200 333 58004;EQDQ01  00002PRCP99
0217825710999992000011800004-05500-045270FM-12+017499999V0200901N001012200019N0100001N1+02501+02401101141ADDAA106000191AY191061AY261061GF102991021001017501031001KA1240M+03171MA1999999099161MD1999999+0181MW1131REMSYN104    AAXX  18004 82571 21797 20902 10250 20240 39916 40114 71396 82030 333 10317 29084 55084 58018 69921;
0177825710999992000011812004-05500-045270FM-12+017499999V0200501N003112200019N0100001N1+02631+02251101421ADDAA124000191GF103991021011004501031001KA1240N+02131MA1999999099441MD1999999+0201REMSYN086    AAXX  18124 82571 22497 30506 10263 20225 39944 40142 82130 333 20213 58020 69924;
0178825710999992000011818004-05500-045270FM-12+017499999V0200501N002112200019N0100001N1+03121+02281100931ADDAA106000191AY161061GF104991031021008001011001MA1999999098971MD1999999+0081MW1011REMSYN086    AAXX  18184 82571 21597 40504 10312 20228 39897 40093 7016/ 83210 333 58008 69921;
0214825710999992000011900004-05500-045270FM-12+017499999V0200901N001010450019N0100001N1+02651+02331101151ADDAA199000091GF105991031021004501011001KA1240M+03181MA1999999099181MD1999999+0021MW1131REMSYN098    AAXX  19004 82571 31497 50902 10265 20233 39918 40115 713// 83210 333 10318 29077 55102 58002;EQDQ01  00002PRCP99
0197825710999992000011912004-05500-045270FM-12+017499999V0201801N001010042019N0100001N1+02491+02341101431ADDAA124000591AY161061GF107991071051004501001001KA1240N+02221MA1999999099451MD1999999+0011MW1021REMSYN092    AAXX  19124 82571 21497 71802 10249 20234 39945 40143 7026/ 87500 333 20222 58001 69954;
0167825710999992000011918004-05500-045270FM-12+017499999V0202701N001012200019N0100001N1+02981+02331100921ADDAA199000091GF104991031031004501041001MA1999999098961MD1999999+0011REMSYN070AAXX  19184 82571 32497 42702 10298 20233 39896 40092 83340 333 58001;EQDQ01  00002PRCP99
0213825710999992000012000004-05500-045270FM-12+017499999V0202301N001010090019N0100001N1+02501+02451101251ADDAA106007991AY191061AY261061GF107991071081004501001001KA1240M+03101MA1999999099271MD1999999+0091MW1131REMSYN100AAXX  20004 82571 21497 72302 10250 20245 39927 40125 71396 87800 333 10310 29088 55045 58009 60081;
0193825710999992000012012004-05500-045270FM-12+017499999V0202701N001010090019N0100001N1+02491+02381101401ADDAA124007991AY161061GF107991071081004501001001KA1240N+02191MA1999999099421MD1999999-0031MW1021REMSYN088AAXX  20124 82571 21497 72702 10249 20238 39942 40140 7026/ 87800 333 20219 59003 60084;
0167825710999992000012018004-05500-045270FM-12+017499999V0202701N002112200019N0100001N1+03121+02411100911ADDAA199000091GF104991031021008001011001MA1999999098961MD1999999+0001REMSYN070AAXX  20184 82571 32597 42704 10312 20241 39896 40091 83210 333 58000;EQDQ01  00002PRCP99
0198825710999992000012100004-05500-045270FM-12+017499999V0203601N003110042019N0100001N1+02561+02291101261ADDAA199000091GF106991061021004501001001KA1240M+03221MA1999999099281MD1999999+0011REMSYN088AAXX  21004 82571 32497 63606 10256 20229 39928 40126 86200 333 10322 29082 55071 58001;EQDQ01  00002PRCP99
0186825710999992000012112004-05500-045270FM-12+017499999V0200501N001010042019N0100001N1+02361+02311101341ADDAA199000091GF108991081051004501999999KA1240N+02061MA1999999099351MD1999999-0071REMSYN076AAXX  21124 82571 32497 80502 10236 20231 39935 40134 885// 333 20206 59007;EQDQ01  00002PRCP99
0174825710999992000012118004-05500-045270FM-12+017499999V0200501N002110450019N0100001N1+03011+02271100831ADDAA106000191AY161061GF105991031021008001011001MA1999999098871MD1999999-0091MW1021REMSYN082AAXX  21184 82571 21597 50504 10301 20227 39887 40083 7026/ 83210 333 59009 69911;
0210825710999992000012200004-05500-045270FM-12+017499999V0200501N003110090019N0100001N1+02391+02211101251ADDAA199000091GF107991051081004501011001KA1240M+03091MA1999999099261MD1999999-0021MW1131REMSYN094AAXX  22004 82571 31497 70506 10239 20221 39926 40125 713// 85810 333 10309 29086 55060 59002;EQDQ01  00002PRCP99
0173825710999992000012212004-05500-045270FM-12+017499999V0200901N001010042019N0100001N1+02461+02361101421ADDAA124001091GF107991061021004501031001KA1240N+02081MA1999999099431MD1999999+0081REMSYN082AAXX  22124 82571 22497 70902 10246 20236 39943 40142 86230 333 20208 58008 60014;
0167825710999992000012218004-05500-045270FM-12+017499999V0200501N001012200019N0100001N1+03101+02261100921ADDAA199000091GF104991041021008001001001MA1999999098961MD1999999+0091REMSYN070AAXX  22184 82571 32597 40502 10310 20226 39896 40092 84200 333 58009;EQDQ01  00002PRCP99
0210825710999992000012300004-05500-045270FM-12+017499999V0209999C000012200019N0100001N1+02601+02421101181ADDAA199000091GF103991021051004501011001KA1240M+03161MA1999999099201MD1999999-0061MW1131REMSYN094AAXX  23004 82571 31497 30000 10260 20242 39920 40118 713// 82510 333 10316 29084 55050 59006;EQDQ01  00002PRCP99
0193825710999992000012312004-05500-045270FM-12+017499999V0201401N001010450019N0100001N1+02561+02331101311ADDAA124013091AY161061GF106991031021004501031001KA1240N+02091MA1999999099341MD1999999-0091MW1021REMSYN088AAXX  23124 82571 21497 61402 10256 20233 39934 40131 7026/ 83230 333 20209 59009 60134;
0218825710999992000012400004-05500-045270FM-12+017499999V0202701N001010042019N0100001N1+02571+02351101191ADDAA199000091AY191061GF106991061051004501001001KA1240M+03171MA1999999099211MD1999999+0011MW1131REMSYN094AAXX  24004 82571 31497 62702 10257 29235 39921 40119 7139/ 86500 333 10317 29081 55099 58001;EQDQ01  00002PRCP99
0193825710999992000012412004-05500-045270FM-12+017499999V0203201N001010042019N0100001N1+02351+02261101351ADDAA106006191AY161061GF108991061051004501011001KA1240N+02131MA1999999099361MD1999999+0021MW1021REMSYN088AAXX  24124 82571 21497 83202 10235 20226 39936 40135 7026/ 86510 333 20213 58002 60061;
0167825710999992000012418004-05500-045270FM-12+017499999V0200501N001010450019N0100001N1+02901+02341100931ADDAA199000091GF105991031021008001011011MA1999999098961MD1999999+0071REMSYN070AAXX  24184 82571 32597 50502 10290 20234 39896 40093 83211 333 58007;EQDQ01  00002PRCP99
0198825710999992000012500004-05500-045270FM-12+017499999V0200901N001010450019N0100001N1+02551+02331101171ADDAA199000091GF105991031021004501031001KA1240M+02981MA1999999099191MD1999999-0021REMSYN088AAXX  25004 82571 32497 50902 10255 20233 39919 40117 83230 333 10298 29086 55046 59002;EQDQ01  00002PRCP99
0186825710999992000012512004-05500-045270FM-12+017499999V0200501N002110042019N0100001N1+02591+02371101321ADDAA199000091GF106991051051004501011001KA1240N+02221MA1999999099341MD1999999-0021REMSYN076AAXX  25124 82571 32497 60504 10259 20237 39934 40132 85510 333 20222 59002;EQDQ01  00002PRCP99
0167825710999992000012518004-05500-045270FM-12+017499999V0200501N002110450019N0100001N1+03041+02281100941ADDAA199000091GF106991031021008001011011MA1999999098981MD1999999+0021REMSYN070AAXX  25184 82571 32597 60504 10304 20228 39898 40094 83211 333 58002;EQDQ01  00002PRCP99
0198825710999992000012600004-05500-045270FM-12+017499999V0209999C000012200019N0100001N1+02601+02311101121ADDAA199000091GF103991031001017501011001KA1240M+03111MA1999999099151MD1999999-0041REMSYN088AAXX  26004 82571 32797 30000 10260 20231 39915 40112 83010 333 10311 29080 55065 59004;EQDQ01  00002PRCP99
0186825710999992000012612004-05500-045270FM-12+017499999V0200501N002112200019N0100001N1+02601+02351101421ADDAA199000091GF103991031021004501001001KA1240N+02071MA1999999099451MD1999999+0111REMSYN076AAXX  26124 82571 32497 30504 10260 20235 39945 40142 83200 333 20207 58011;EQDQ01  00002PRCP99
0167825710999992000012618004-05500-045270FM-12+017499999V0200501N001012200019N0100001N1+03161+02231100981ADDAA199000091GF104991041021008001001001MA1999999099031MD1999999+0051REMSYN070AAXX  26184 82571 32597 40502 10316 20223 39903 40098 84200 333 58005;EQDQ01  00002PRCP99
0208825710999992000012700004-05500-045270FM-12+017499999V0209999C000012200019N0100001N1+02621+02371101171ADDAA199000091GA1001+999999999GF100991001001999999001001KA1240M+03251MA1999999099201MD1999999+0051REMSYN082AAXX  27004 82571 32997 00000 10262 20237 39920 40117 333 10325 29079 55100 58005;EQDQ01  00002PRCP99
0186825710999992000012712004-05500-045270FM-12+017499999V0200501N001012200019N0100001N1+02681+02391101381ADDAA199000091GF103991031031004501011001KA1240N+02101MA1999999099411MD1999999-0041REMSYN076AAXX  27124 82571 32497 30502 10268 20239 39941 40138 83310 333 20210 59004;EQDQ01  00002PRCP99
0167825710999992000012718004-05500-045270FM-12+017499999V0200501N001010450019N0100001N1+03181+02311100971ADDAA199000091GF105991031021008001011011MA1999999099021MD1999999-0011REMSYN070AAXX  27184 82571 32597 50502 10318 20231 39902 40097 83211 333 59001;EQDQ01  00002PRCP99
0208825710999992000012800004-05500-045270FM-12+017499999V0209999C000012200019N0100001N1+02651+02391101171ADDAA199000091GA1001+999999999GF100991001001999999001001KA1240M+03281MA1999999099201MD1999999+0001REMSYN082AAXX  28004 82571 32997 00000 10265 20239 39920 40117 333 10328 29079 55108 58000;EQDQ01  00002PRCP99
0186825710999992000012812004-05500-045270FM-12+017499999V0200501N001012200019N0100001N1+02621+02411101301ADDAA199000091GF102991021011004501001001KA1240N+02131MA1999999099331MD1999999-0081REMSYN076AAXX  28124 82571 32497 20502 10262 20241 39933 40130 82100 333 20213 59008;EQDQ01  00002PRCP99
0167825710999992000012818004-05500-045270FM-12+017499999V0200901N001012200019N0100001N1+03221+02401100831ADDAA199000091GF103991031021008001001001MA1999999098881MD1999999-0141REMSYN070AAXX  28184 82571 32597 30902 10322 20240 39888 40083 83200 333 59014;EQDQ01  00002PRCP99
0210825710999992000012900004-05500-045270FM-12+017499999V0202301N001012200019N0100001N1+02681+02391101091ADDAA199000091GF103991021031008001031031KA1240M+03281MA1999999099131MD1999999-0071MW1131REMSYN094AAXX  29004 82571 31597 32302 10268 20239 39913 40109 713// 82333 333 10328 29080 55094 59007;EQDQ01  00002PRCP99
0186825710999992000012912004-05500-045270FM-12+017499999V0200501N002110042019N0100001N1+02621+02441101311ADDAA199000091GF107991071051004501001001KA1240N+02191MA1999999099341MD1999999+0011REMSYN076AAXX  29124 82571 32497 70504 10262 20244 39934 40131 87500 333 20219 58001;EQDQ01  00002PRCP99
0205825710999992000013000004-05500-045270FM-12+017499999V0201401N001012200019N0100001N1+02291+02231101151ADDAA106001091AY161061GF101991011001017501041001KA1240M+03151MA1999999099171MD1999999+0041MW1131REMSYN100AAXX  30004 82571 21797 11402 10229 20223 39917 40115 7136/ 81040 333 10315 29095 55047 58004 60011;
0193825710999992000013012004-05500-045270FM-12+017499999V0200501N001010450019N0100001N1+02491+02341101431ADDAA124001091AY141061GF106991031021004501031011KA1240N+02041MA1999999099441MD1999999+0101MW1021REMSYN088AAXX  30124 82571 21497 60502 10249 20234 39944 40143 7024/ 83231 333 20204 58010 60014;
0208825710999992000013100004-05500-045270FM-12+017499999V0209999C000012200019N0100001N1+02591+02311101261ADDAA199000091GA1001+999999999GF100991001001999999001001KA1240M+03101MA1999999099281MD1999999-0111REMSYN082AAXX  31004 82571 32997 00000 10259 20231 39928 40126 333 10310 29082 55087 59011;EQDQ01  00002PRCP99
0201825710999992000013112004-05500-045270FM-12+017499999V0202701N001010450019N0100001N1+02541+02421101581ADDAA124048091AY191061AY261061GF107991031021004501011001KA1240N+02161MA1999999099601MD1999999+0161MW1021REMSYN088AAXX  31124 82571 21497 72702 10254 20242 39960 40158 70296 83210 333 20216 58016 60484;
0167825710999992000013118004-05500-045270FM-12+017499999V0200901N001012200019N0100001N1+03161+02291101161ADDAA199000091GF104991031021008001011001MA1999999099201MD1999999+0041REMSYN070AAXX  31184 82571 32597 40902 10316 20229 39920 40116 83210 333 58004;EQDQ01  00002PRCP99
0210825710999992000020100004-05500-045270FM-12+017499999V0209999C000012200019N0100001N1+02701+99999101271ADDAA199000091GF102991021031004501001001KA1240M+03251MA1999999099301MD1999999+0021MW1131REMSYN094AAXX  01004 82571 31497 20000 10270 2//// 39930 40127 713// 82300 333 10325 29/// 55079 58002;EQDQ01  00002PRCP99
0193825710999992000020112004-05500-045270FM-12+017499999V0202701N001012200019N0100001N1+02521+99999101601ADDAA124002091AY161061GF102991011011004501011001KA1240N+02081MA1999999099621MD1999999+0021MW1021REMSYN088AAXX  01124 82571 21497 22702 10252 2//// 39962 40160 7026/ 81110 333 20208 58002 60024;
0167825710999992000020118004-05500-045270FM-12+017499999V0200501N001012200019N0100001N1+03191+99999101071ADDAA199000091GF103991031021004501001001MA1999999099121MD1999999-0081REMSYN070AAXX  01184 82571 32497 30502 10319 2//// 39912 40107 83200 333 59008;EQDQ01  00002PRCP99
0210825710999992000020200004-05500-045270FM-12+017499999V0200501N001012200019N0100001N1+02721+99999101271ADDAA199000091GF102991021031004501001001KA1240M+03271MA1999999099301MD1999999+0001MW1131REMSYN094AAXX  02004 82571 31497 20502 10272 2//// 39930 40127 713// 82300 333 10327 29/// 55103 58000;EQDQ01  00002PRCP99
0185825710999992000020212004-05500-045270FM-12+017499999V0201401N001010075019N0100001N1+02841+99999101481ADDAA199000091GF108991081051008001999999KA1240N+02131MA1999999099521MD1999999-0101REMSYN075AAXX  02124 82571 32597 81402 102842//// 39952 40148 885// 333 20213 59010;EQDQ01  00002PRCP99
0220825710999992000020300004-05500-045270FM-12+017499999V0200501N001012200019N0100001N1+02381+99999101251ADDAA199000091GA1001+999999999GF100991001001999999001001KA1240M+02811MA1999999099281MD1999999-0021MW1131REMSYN088AAXX  03004 82571 31997 00502 10238 2//// 39928 40125 713// 333 10281 29/// 55000 59002;EQDQ01  00002PRCP99
0201825710999992000020312004-05500-045270FM-12+017499999V0200501N003112200019N0100001N1+02501+99999101331ADDAA124006191AY101061AY241061GF104991021021008001001011KA1240N+02071MA1999999099341MD1999999-0181MW1011REMSYN088AAXX  03124 82571 21597 40506 10250 2//// 39934 40133 70104 82201 333 20207 59018 60064;
0167825710999992000020318004-05500-045270FM-12+017499999V0203601N003110450019N0100001N1+03061+99999100861ADDAA199000091GF106991031031008001031011MA1999999098901MD1999999-0281REMSYN070AAXX  03184 82571 32597 63606 10306 2//// 39890 40086 83331 333 59028;EQDQ01  00002PRCP99
0208825710999992000020400004-05500-045270FM-12+017499999V0209999C000012200019N0100001N1+02481+99999101151ADDAA199000091GA1001+999999999GF100991001001999999001001KA1240M+03131MA1999999099171MD1999999-0111REMSYN082AAXX  04004 82571 32997 00000 10248 2//// 39917 40115 333 10313 29/// 55084 59011;EQDQ01  00002PRCP99
0186825710999992000020412004-05500-045270FM-12+017499999V0200901N001010075019N0100001N1+02461+99999101471ADDAA199000091GF107991071051008001001001KA1240N+02161MA1999999099481MD1999999+0141REMSYN076AAXX  04124 82571 32597 70902 10246 2//// 39948 40147 87500 333 20216 58014;EQDQ01  00002PRCP99
0167825710999992000020418004-05500-045270FM-12+017499999V0200501N005112200019N0100001N1+02961+99999101071ADDAA199000091GF106991041051008001001011MA1999999099111MD1999999+0211REMSYN070AAXX  04184 82571 32597 60510 10296 2//// 39911 40107 84501 333 58021;EQDQ01  00002PRCP99
0208825710999992000020500004-05500-045270FM-12+017499999V0209999C000012200019N0100001N1+02411+99999101261ADDAA199000091GA1001+999999999GF100991001001999999001001KA1240M+03021MA1999999099271MD1999999+0101REMSYN082AAXX  05004 82571 32997 00000 10241 2//// 39927 40126 333 10302 29/// 55039 58010;EQDQ01  00002PRCP99
0193825710999992000020512004-05500-045270FM-12+017499999V0200901N000510042019N0100001N1+02421+99999101181ADDAA124038191AY161061GF108991081051004501999999KA1240N+02161MA1999999099491MD1999999+0011MW1021REMSYN088AAXX  05124 82571 21497 80901 10242 2//// 39949 40118 7026/ 885// 333 20216 58001 60384;
0174825710999992000020518004-05500-045270FM-12+017499999V0201401N001010075019N0100001N1+02621+99999101151ADDAA106005191AY161061GF108991081051008001999999MA1999999099171MD1999999+0061MW1021REMSYN082AAXX  05184 82571 21597 81402 10262 2//// 39917 40115 7026/ 885// 333 58006 60051;
0208825710999992000020600004-05500-045270FM-12+017499999V0209999C000012200019N0100001N1+02561+99999101281ADDAA199000091GA1001+999999999GF100991001001999999001001KA1240M+02891MA1999999099301MD1999999+0031REMSYN082AAXX  06004 82571 32997 00000 10256 2//// 39930 40128 333 10289 29/// 55003 58003;EQDQ01  00002PRCP99
0193825710999992000020612004-05500-045270FM-12+017499999V0201801N001010075019N0100001N1+02381+99999101561ADDAA124006191AY161061GF108991081051008001999999KA1240N+02201MA1999999099571MD1999999+0081MW1021REMSYN088AAXX  06124 82571 21597 81802 10238 2//// 39957 40156 7026/ 885// 333 20220 58008 60064;
0167825710999992000020618004-05500-045270FM-12+017499999V0201401N001010075019N0100001N1+02661+99999101281ADDAA199000091GF108991081051008001999999MA1999999099301MD1999999+0131REMSYN070AAXX  06184 82571 32597 81402 10266 2//// 39930 40128 885// 333 58013;EQDQ01  00002PRCP99
0198825710999992000020700004-05500-045270FM-12+017499999V0209999C000010075019N0100001N1+02541+99999101391ADDAA199000091GF108991081051008001999999KA1240M+02881MA1999999099401MD1999999+0101REMSYN088AAXX  07004 82571 32597 80000 10254 20/// 39940 40139 885// 333 10288 29/// 55000 58010;EQDQ01  00002PRCP99
0193825710999992000020712004-05500-045270FM-12+017499999V0203201N001010042019N0100001N1+02461+99999101551ADDAA124000191AY161061GF107991071051004501001001KA1240N+02181MA1999999099561MD1999999-0011MW1021REMSYN088AAXX  07124 82571 21497 73202 10246 2//// 39956 40155 7026/ 87500 333 20218 59001 69914;
0174825710999992000020718004-05500-045270FM-12+017499999V0202301N001010042019N0100001N1+02451+99999101381ADDAA106004191AY161061GF108991081051004501999999MA1999999099391MD1999999+0091MW1021REMSYN082AAXX  07184 82571 21497 82302 10245 2//// 39939 40138 7026/ 885// 333 58009 60041;
0205825710999992000020800004-05500-045270FM-12+017499999V0201401N001010075019N0100001N1+02281+99999101471ADDAA106002091AY161061GF108991081051008001999999KA1240M+02651MA1999999099471MD1999999+0071MW1601REMSYN100AAXX  08004 82571 21597 81402 10228 2//// 39947 40147 7606/ 885// 333 10265 29/// 55002 58007 60021;
0201825710999992000020812004-05500-045270FM-12+017499999V0202701N001010042019N0100001N1+02221+99999101591ADDAA124006191AY161061AY241061GF108991081051004501999999KA1240N+02211MA1999999099581MD1999999+0021MW1021REMSYN088AAXX  08124 82571 21497 82702 10222 2//// 39958 40159 70264 885// 333 20221 58002 60064;
0167825710999992000020818004-05500-045270FM-12+017499999V0200501N001012200019N0100001N1+03101+99999101041ADDAA199000091GF103991031021008001001001MA1999999099071MD1999999-0031REMSYN070AAXX  08184 82571 32597 30502 10310 2//// 39907 40104 83200 333 59003;EQDQ01  00002PRCP99
0210825710999992000020900004-05500-045270FM-12+017499999V0200501N001012200019N0100001N1+02511+99999101321ADDAA199000091GF102991021031004501001001KA1240M+03211MA1999999099331MD1999999-0131MW1131REMSYN094AAXX  09004 82571 31497 20502 10251 20/// 39933 40132 713// 82300 333 10321 29/// 55059 59013;EQDQ01  00002PRCP99
0193825710999992000020912004-05500-045270FM-12+017499999V0200501N001010042019N0100001N1+02471+99999101481ADDAA124001091AY161061GF108991081051004501999999KA1240N+02221MA1999999099491MD1999999+0091MW1021REMSYN088AAXX  09124 82571 21497 80502 10247 2//// 39949 40148 7026/ 885// 333 20222 58009 69994;
0167825710999992000020918004-05500-045270FM-12+017499999V0200501N002112200019N0100001N1+03081+99999100981ADDAA199000091GF104991031021008001011001MA1999999099021MD1999999-0051REMSYN070AAXX  09184 82571 32597 40504 10308 2//// 39902 40098 83210 333 59005;EQDQ01  00002PRCP99
0210825710999992000021000004-05500-045270FM-12+017499999V0200501N001012200019N0100001N1+02681+99999101201ADDAA199000091GF103991031031004501001001KA1240M+03151MA1999999099231MD1999999-0101MW1131REMSYN094AAXX  10004 82571 31497 30502 10268 2//// 39923 40120 713// 83300 333 10315 29/// 55072 59010;EQDQ01  00002PRCP99
0201825710999992000021012004-05500-045270FM-12+017499999V0200501N001012200019N0100001N1+02431+99999101431ADDAA124013091AY191061AY261061GF104991021021004501011011KA1240N+02121MA1999999099451MD1999999-0041MW1031REMSYN088AAXX  10124 82571 21497 40502 10243 2//// 39945 40143 70396 82211 333 20212 59004 60134;
0167825710999992000021018004-05500-045270FM-12+017499999V0201801N001010120019N0100001N1+02671+99999101051ADDAA199000091GF106991061081008001001001MA1999999099081MD1999999+0061REMSYN070AAXX  10184 82571 32597 61802 10267 2//// 39908 40105 86800 333 58006;EQDQ01  00002PRCP99
0198825710999992000021100004-05500-045270FM-12+017499999V0209999C000012200019N0100001N1+02441+99999101271ADDAA199000091GF101991011001017501041001KA1240M+03201MA1999999099281MD1999999+0051REMSYN088AAXX  11004 82571 32797 10000 10244 2//// 39928 40127 81040 333 10320 29/// 55075 58005;EQDQ01  00002PRCP99
0193825710999992000021112004-05500-045270FM-12+017499999V0200501N001010042019N0100001N1+02171+99999101461ADDAA124004191AY161061GF108991081051004501999999KA1240N+01961MA1999999099461MD1999999+0011MW1021REMSYN088AAXX  11124 82571 21497 80502 10217 2//// 39946 40146 7026/ 885// 333 20196 58001 60044;
0167825710999992000021118004-05500-045270FM-12+017499999V0200501N001012200019N0100001N1+03061+99999101061ADDAA199000091GF104991031021008001001011MA1999999099101MD1999999+0021REMSYN070AAXX  11184 82571 32597 40502 10306 2//// 39910 40106 83201 333 58002;EQDQ01  00002PRCP99
0218825710999992000021200004-05500-045270FM-12+017499999V0200501N001012200019N0100001N1+02541+99999101181ADDAA199000091AY191061GF102991021041017501001001KA1240M+03181MA1999999099191MD1999999-0091MW1021REMSYN094AAXX  12004 82571 31797 20502 10254 2//// 39919 40118 7029/ 82400 333 10318 29/// 55053 59009;EQDQ01  00002PRCP99
0201825710999992000021212004-05500-045270FM-12+017499999V0201401N001010042019N0040001N1+02291+99999101401ADDAA124006191AY191061AY261061GF107991071051004501001001KA1240N+02141MA1999999099411MD1999999-0051MW1951REMSYN088AAXX  12124 82571 21496 71402 10229 2//// 39941 40140 79596 87500 333 20214 59005 60064;
0174825710999992000021218004-05500-045270FM-12+017499999V0203601N001010450019N0100001N1+02821+99999100911ADDAA106000191AY161061GF107991021021008001071011MA1999999098941MD1999999-0161MW1021REMSYN082AAXX  12184 82571 21597 73602 10282 2//// 39894 40091 7026/ 82271 333 59016 69911;
0191825710999992000021300004-05500-045270FM-12+017499999V0209999C000012200019N0100001N1+02561+99999101131ADDAA199000021GF103991031001017501041001KA1240M+02911MA1999999099141MD1999999-0051MW1131REMSYN094AAXX  13004 82571 31797 30000 10256 2//// 39914 40113 713// 83040 333 10291 29/// 55016 59005;
0195825710999992000021312004-05500-045270FM-12+017499999V0201801N001019999999N0100001N1+02401+99999101391ADDAA124007991AY101061AY201061GF107991999999004501999999KA1240N+02181MA1999999099411MD1999999+0001MW1881REMSYN082AAXX  13124 82571 21497 71802 10240 2//// 39941 40139 78800 333 20218 58000 60084;
0148825710999992000021318004-05500-045270FM-12+017499999V0200501N001010075019N0100001N1+03061+99999101001ADDAA199000021GF107991051051008001041001MA1999999099041MD1999999+0101REMSYN070AAXX  13184 82571 32597 70502 10306 2//// 39904 40100 85540 333 58010;
0213825710999992000021400004-05500-045270FM-12+017499999V0200501N002110042019N0100001N1+02231+99999101391ADDAA106005191AY191061AY261061GF106991061051004501001001KA1240M+03211MA1999999099391MD1999999+0251MW1911REMSYN100AAXX  14004 82571 21497 60504 10223 2//// 39939 40139 79196 86500 333 10321 29/// 55052 58025 60051;
0193825710999992000021412004-05500-045270FM-12+017499999V0202301N001012200019N0100001N1+02401+99999101531ADDAA124006191AY161061GF103991021021008001001011KA1240N+02051MA1999999099531MD1999999+0121MW1011REMSYN088AAXX  14124 82571 21597 32302 10240 2//// 39953 40153 7016/ 82201 333 20205 58012 60064;
0187825710999992000021418004-05500-045270FM-12+017499999V0202301N003110075019N0100001N1+03071+99999101081ADDAA199000091AY191061GF106991061051008001001001MA1999999099111MD1999999+0071MW1031REMSYN076AAXX  14184 82571 31597 62306 10307 2//// 39911 40108 7039/ 86500 333 58007;EQDQ01  00002PRCP99
0205825710999992000021500004-05500-045270FM-12+017499999V0201801N001010042019N0100001N1+02211+99999101401ADDAA106006191AY161061GF108991081051004501999999KA1240M+03211MA1999999099401MD1999999+0011MW1021REMSYN100AAXX  15004 82571 21497 81802 10221 2//// 39940 40140 7026/ 885// 333 10321 29/// 55062 58001 60061;
0173825710999992000021512004-05500-045270FM-12+017499999V0201801N001010075019N0100001N1+02221+99999101431ADDAA124006191GF107991051051008001031001KA1240N+02001MA1999999099421MD1999999-0111REMSYN082AAXX  15124 82571 22597 71802 10222 2//// 39942 40143 85530 333 20200 59011 60064;
0179825710999992000021518004-05500-045270FM-12+017499999V0203201N001010450019N0100001N1+02981+99999101051ADDAA199000091GF106991041051008001041001MA1999999099041MD1999999-0071MW1171REMSYN076AAXX  15184 82571 31597 63202 10298 2//// 39904 40105 717// 84540 333 59007;EQDQ01  00002PRCP99
0213825710999992000021600004-05500-045270FM-12+017499999V0209999C000012200019N0100001N1+02501+99999101251ADDAA106007191AY191061AY261061GF102991021001017501051001KA1240M+03091MA1999999099261MD1999999-0141MW1011REMSYN100AAXX  16004 82571 21797 20000 10250 2//// 39926 40125 70196 82050 333 10309 29/// 55057 59014 60071;
0173825710999992000021612004-05500-045270FM-12+017499999V0202301N001010075019N0100001N1+02391+99999101431ADDAA124007191GF108991081051008001999999KA1240N+02171MA1999999099441MD1999999+0021REMSYN082AAXX  16124 82571 22597 82302 10239 2//// 39944 40143 885// 333 20217 58002 60074;
0167825710999992000021618004-05500-045270FM-12+017499999V0200501N003112200019N0100001N1+02981+99999100941ADDAA199000091GF104991041021008001001001MA1999999098981MD1999999-0061REMSYN070AAXX  16184 82571 32597 40506 10298 2//// 39898 40094 84200 333 59006;EQDQ01  00002PRCP99
0193825710999992000021712004-05500-045270FM-12+017499999V0201801N001010075019N0100001N1+02341+99999101451ADDAA124021191AY161061GF108991081051008001999999KA1240N+02091MA1999999099451MD1999999+0011MW1021REMSYN088AAXX  17124 82571 21597 81802 10234 2//// 39945 40145 7026/ 885// 333 20209 58001 60214;
0167825710999992000021718004-05500-045270FM-12+017499999V0200501N003112200019N0100001N1+03001+99999100941ADDAA199000091GF103991031021008001001001MA1999999098971MD1999999-0011REMSYN070AAXX  17184 82571 32597 30506 10300 2//// 39897 40094 83200 333 59001;EQDQ01  00002PRCP99
0193825710999992000021812004-05500-045270FM-12+017499999V0203201N001010075019N0100001N1+02261+99999101561ADDAA124000891AY161061GF108991081051008001999999KA1240N+02011MA1999999099571MD1999999+0121MW1021REMSYN088AAXX  18124 82571 21597 83202 10226 2//// 39957 40156 7026/ 885// 333 20201 58012 69984;
0167825710999992000021818004-05500-045270FM-12+017499999V0201401N001010075019N0100001N1+02881+99999101031ADDAA199000091GF107991071051008001001001MA1999999099061MD1999999+0091REMSYN070AAXX  18184 82571 32597 71402 10288 2//// 39906 40103 87500 333 58009;EQDQ01  00002PRCP99
0210825710999992000021900004-05500-045270FM-12+017499999V0202301N001012200019N0100001N1+02441+99999101431ADDAA199000091GF105991041001017501031011KA1240M+03001MA1999999099431MD1999999+0221MW1131REMSYN094AAXX  19004 82571 31797 52302 10244 2//// 39943 40143 713// 84031 333 10300 29/// 55044 58022;EQDQ01  00002PRCP99
0186825710999992000021912004-05500-045270FM-12+017499999V0202301N001010450019N0100001N1+02401+99999101481ADDAA199000091GF106991041051008001031001KA1240N+02141MA1999999099481MD1999999-0081REMSYN076AAXX  19124 82571 32597 62302 10240 2//// 39948 40148 84530 333 20214 59008;EQDQ01  00002PRCP99
0166825710999992000021918004-05500-045270FM-12+017499999V0200901N003110075019N0100001N1+02611+99999101121ADDAA106000591GF108991081051008001999999MA1999999099141MD1999999+0081MW1951REMSYN082AAXX  19184 82571 21597 80906 10261 2//// 39914 40112 795// 885// 333 58008 69961;
0213825710999992000022000004-05500-045270FM-12+017499999V0200901N001012200019N0100001N1+02361+99999101321ADDAA106002091AY191061AY261061GF102991021001017501041001KA1240M+03051MA1999999099331MD1999999-0101MW1131REMSYN100AAXX  20004 82571 21797 20902 10236 2//// 39933 40132 71396 82040 333 10305 29/// 55040 59010 60021;
0193825710999992000022012004-05500-045270FM-12+017499999V0200501N001010075019N0100001N1+02401+99999101561ADDAA124003091AY161061GF108991081051008001999999KA1240N+02071MA1999999099561MD1999999+0071MW1021REMSYN088AAXX  20124 82571 21597 80502 10240 2//// 39956 40156 7026/ 885// 333 20207 58007 60034;
0167825710999992000022018004-05500-045270FM-12+017499999V0200501N003112200019N0100001N1+03061+99999101051ADDAA199000091GF103991021021008001001011MA1999999099091MD1999999-0051REMSYN070AAXX  20184 82571 32597 30506 10306 2//// 39909 40105 82201 333 59005;EQDQ01  00002PRCP99
0208825710999992000022100004-05500-045270FM-12+017499999V0209999C000012200019N0100001N1+02541+99999101221ADDAA199000091GA1001+999999999GF100991001001999999001001KA1240M+03171MA1999999099241MD1999999-0021REMSYN082AAXX  21004 82571 32997 00000 10254 2//// 39924 40122 333 10317 29/// 55076 59002;EQDQ01  00002PRCP99
0167825710999992000022118004-05500-045270FM-12+017499999V0203201N001010450019N0100001N1+03041+99999101011ADDAA199000091GF105991031021008001011011MA1999999099051MD1999999-0041REMSYN070AAXX  21184 82571 32597 53202 10304 2//// 39905 40101 83211 333 59004;EQDQ01  00002PRCP99
0210825710999992000022200004-05500-045270FM-12+017499999V0201401N002112200019N0100001N1+02621+99999101231ADDAA199000091GF102991021001017501041001KA1240M+03151MA1999999099251MD1999999+0011MW1131REMSYN094AAXX  22004 82571 31797 21404 10262 2//// 39925 40123 713// 82040 333 10315 29/// 55080 58001;EQDQ01  00002PRCP99
0185825710999992000022212004-05500-045270FM-12+017499999V0201401N001010042019N0100001N1+02361+99999101391ADDAA124003091GF106991051051004501031001KA1240N+02081MA1999999099411MD1999999-0051MW1161REMSYN088AAXX  22124 82571 21497 61402 10236 2//// 39941 40139 716// 85530 333 20208 59005 60034;
0167825710999992000022218004-05500-045270FM-12+017499999V0203201N001012200019N0100001N1+03101+99999100861ADDAA199000091GF104991031021008001011001MA1999999098901MD1999999-0151REMSYN070AAXX  22184 82571 32597 43202 10310 2//// 39890 40086 83210 333 59015;EQDQ01  00002PRCP99
0213825710999992000022300004-05500-045270FM-12+017499999V0201401N001010042019N0100001N1+02371+99999101261ADDAA106048091AY191061AY261061GF105991051051004501001001KA1240M+03261MA1999999099271MD1999999+0021MW1911REMSYN100AAXX  23004 82571 21497 51402 10237 2//// 39927 40126 79196 85500 333 10326 29/// 55065 58002 60481;
0173825710999992000022312004-05500-045270FM-12+017499999V0202301N001010450019N0100001N1+02351+99999101481ADDAA124048091GF106991041021004501031011KA1240N+02121MA1999999099481MD1999999+0071REMSYN082AAXX  23124 82571 22497 62302 10235 2//// 39948 40148 84231 333 20212 58007 60484;
0205825710999992000022400004-05500-045270FM-12+017499999V0200501N002110450019N0020001N1+02261+99999101341ADDAA106054191AY191061GF108991041091004501021999KA1240M+03141MA1999999099341MD1999999+0071MW1951REMSYN100AAXX  24004 82571 21495 80504 10226 2//// 39934 40134 7959/ 8492/ 333 10314 29/// 55069 58007 60541;
0201825710999992000022412004-05500-045270FM-12+017499999V0200501N001010042019N0100001N1+02301+99999101241ADDAA124067191AY191061AY261061GF107991051021004501011001KA1240N+01991MA1999999099241MD1999999-0241MW1011REMSYN088AAXX  24124 82571 21497 70502 10230 2//// 39924 40124 70196 85210 333 20199 59024 60674;
0174825710999992000022418004-05500-045270FM-12+017499999V0203201N001010450019N0040001N1+02641+99999100991ADDAA106003091AY161061GF106991031071004501021001MA1999999099011MD1999999+0041MW1611REMSYN082AAXX  24184 82571 21496 63202 10264 2//// 39901 40099 7616/ 83720 333 58004 60031;
0213825710999992000022500004-05500-045270FM-12+017499999V0201401N001010450019N0040001N1+02441+99999101201ADDAA106011991AY191061AY261061GF108991041071004501021999KA1240M+02911MA1999999099211MD1999999-0131MW1951REMSYN100AAXX  25004 82571 21496 81402 10244 2//// 39921 40120 79596 8472/ 333 10291 29/// 55036 59013 60121;
0201825710999992000022512004-05500-045270FM-12+017499999V0200501N001012200019N0100001N1+02421+99999101281ADDAA124017091AY191061AY261061GF104991031021004501031001KA1240N+02081MA1999999099291MD1999999+0051MW1011REMSYN088AAXX  25124 82571 21497 40502 10242 2//// 39929 40128 70196 83230 333 20208 58005 60174;
0167825710999992000022518004-05500-045270FM-12+017499999V0200501N003112200019N0100001N1+02991+99999100911ADDAA199000091GF104991031021008001011001MA1999999098941MD1999999-0071REMSYN070AAXX  25184 82571 32597 40506 10299 2//// 39894 40091 83210 333 59007;EQDQ01  00002PRCP99
0173825710999992000022612004-05500-045270FM-12+017499999V0202301N001010450019N0100001N1+02481+99999101271ADDAA124000591GF105991031051008001031001KA1240N+02091MA1999999099291MD1999999+0001REMSYN082AAXX  26124 82571 22597 52302 10248 2//// 39929 40127 83530 333 20209 58000 69964;
0182825710999992000022618004-05500-045270FM-12+017499999V0202301N001010450019N0100001N1+02671+99999100961ADDAA106014091AY191061AY261061GF106991021031008001061011MA1999999098971MD1999999+0031MW1021REMSYN082AAXX  26184 82571 21597 62302 10267 2//// 39897 40096 70296 82361 333 58003 60141;
0220825710999992000022700004-05500-045270FM-12+017499999V0209999C000012200019N0100001N1+02701+99999101151ADDAA199000091GA1001+999999999GF100991001001999999001001KA1240M+02941MA1999999099171MD1999999+0021MW1131REMSYN088AAXX  27004 82571 31997 00000 10270 2//// 39917 40115 713// 333 10294 29/// 55032 58002;EQDQ01  00002PRCP99
0193825710999992000022712004-05500-045270FM-12+017499999V0202701N001010450019N0100001N1+02521+99999101331ADDAA124019191AY161061GF106991021021008001031011KA1240N+02201MA1999999099361MD1999999+0071MW1021REMSYN088AAXX  27124 82571 21597 62702 10252 2//// 39936 40133 7026/ 82231 333 20220 58007 60194;
0166825710999992000022718004-05500-045270FM-12+017499999V0200501N001010075019N0100001N1+02661+99999100911ADDAA106004191GF108991081051008001999999MA1999999098941MD1999999-0031MW1631REMSYN082AAXX  27184 82571 21597 80502 10266 2//// 39894 40091 763// 885// 333 59003 60041;
0213825710999992000022800004-05500-045270FM-12+017499999V0209999C000010075019N0100001N1+02421+99999101161ADDAA106002091AY191061AY261061GF108991081051008001999999KA1240M+03121MA1999999099181MD1999999+0011MW1131REMSYN100AAXX  28004 82571 21597 80000 10242 2//// 39918 40116 71396 885// 333 10312 29/// 55059 58001 60021;
0193825710999992000022812004-05500-045270FM-12+017499999V0202301N001010042019N0100001N1+02481+99999101381ADDAA124009991AY161061GF106991061021004501001001KA1240N+02081MA1999999099391MD1999999+0031MW1021REMSYN088AAXX  28124 82571 21497 62302 10248 2//// 39939 40138 7026/ 86200 333 20208 58003 60104;
0174825710999992000022818004-05500-045270FM-12+017499999V0203201N001012200019N0100001N1+03081+99999100881ADDAA106000191AY161061GF104991031021008001011001MA1999999098921MD1999999-0021MW1011REMSYN082AAXX  28184 82571 21597 43202 10308 2//// 39892 40088 7016/ 83210 333 59002 69911;
0205825710999992000022900004-05500-045270FM-12+017499999V0202301N001012200019N0100001N1+02241+02171101241ADDAA106003091AY161061GF104991041051004501001001KA1240M+03161MA1999999099251MD1999999+0071MW1611REMSYN100AAXX  29004 82571 21497 42302 10224 20217 39925 40124 7616/ 84500 333 10316 29/// 55089 58007 60031;
0193825710999992000022912004-05500-045270FM-12+017499999V0202301N001010075019N0100001N1+02281+02261101441ADDAA124004191AY161061GF107991051021008001011001KA1240N+02051MA1999999099441MD1999999+0051MW1011REMSYN088AAXX  29124 82571 21597 72302 10228 20226 39944 40144 7016/ 85210 333 20205 58005 60044;
0167825710999992000022918004-05500-045270FM-12+017499999V0203201N002110450019N0100001N1+03001+02491101101ADDAA199000091GF106991041051008001011001MA1999999099131MD1999999+0211REMSYN070AAXX  29184 82571 32597 63204 10300 20249 39913 40110 84510 333 58021;EQDQ01  00002PRCP99
0213825710999992000030100004-05500-045270FM-12+017499999V0200501N001010042019N0040001N1+02381+02331101361ADDAA106000891AY191061AY261061GF106991061051004501001001KA1240M+03081MA1999999099361MD1999999+0111MW1911REMSYN100AAXX  01004 82571 21496 60502 10238 20233 39936 40136 79196 86500 333 10308 29092 55029 58011 69971;
0173825710999992000030112004-05500-045270FM-12+017499999V0202701N001010042019N0100001N1+02431+02391101451ADDAA124000891GF107991071051004501001001KA1240N+02201MA1999999099461MD1999999+0021REMSYN082AAXX  01124 82571 22497 72702 10243 20239 39946 40145 87500 333 20220 58002 69974;
0167825710999992000030118004-05500-045270FM-12+017499999V0200901N003110450019N0100001N1+03041+02311101021ADDAA199000091GF105991031021008001011011MA1999999099061MD1999999-0071REMSYN070AAXX  01184 82571 32597 50906 10304 20231 39906 40102 83211 333 59007;EQDQ01  00002PRCP99
0186825710999992000030212004-05500-045270FM-12+017499999V0200501N001010042019N0100001N1+02551+02381101451ADDAA199000091GF106991051021004501011001KA1240N+02141MA1999999099471MD1999999+0011REMSYN076AAXX  02124 82571 32497 60502 10255 20238 39947 40145 85210 333 20214 58001;EQDQ01  00002PRCP99
0174825710999992000030218004-05500-045270FM-12+017499999V0202701N001012200019N0100001N1+02821+02481100901ADDAA106000891AY161061GF104991031021008001071001MA1999999098931MD1999999-0131MW1021REMSYN082AAXX  02184 82571 21597 42702 10282 20248 39893 40090 7026/ 83270 333 59013 69981;
0218825710999992000030300004-05500-045270FM-12+017499999V0200501N003110042019N0100001N1+02461+02281101271ADDAA199000091AY191061GF106991061051004501001001KA1240M+03071MA1999999099291MD1999999-0081MW1131REMSYN094AAXX  03004 82571 31497 60506 10246 20228 39929 40127 7139/ 86500 333 10307 29088 55069 59008;EQDQ01  00002PRCP99
0173825710999992000030312004-05500-045270FM-12+017499999V0203201N001010042019N0100001N1+02461+02361101351ADDAA124000891GF108991081051004501999999KA1240N+02101MA1999999099361MD1999999-0111REMSYN082AAXX  03124 82571 22497 83202 10246 20236 39936 40135 885// 333 20210 59011 69984;
0167825710999992000030318004-05500-045270FM-12+017499999V0200501N001010450019N0100001N1+03081+02371100851ADDAA199000091GF106991041021008001031001MA1999999098891MD1999999-0041REMSYN070AAXX  03184 82571 32597 60502 10308 20237 39889 40085 84230 333 59004;EQDQ01  00002PRCP99
0213825710999992000030400004-05500-045270FM-12+017499999V0202301N001010075019N0100001N1+02411+02351101151ADDAA106000591AY191061AY261061GF108991081051008001999999KA1240M+03141MA1999999099171MD1999999-0121MW1131REMSYN100AAXX  04004 82571 21597 82302 10241 20235 39917 40115 71396 885// 333 10314 29088 55064 59012 69941;
0173825710999992000030412004-05500-045270FM-12+017499999V0200501N001010450019N0100001N1+02561+02361101371ADDAA124000591GF106991041051008001031001KA1240N+02131MA1999999099361MD1999999+0031REMSYN082AAXX  04124 82571 22597 60502 10256 20236 39936 40137 84530 333 20213 58003 69944;
0174825710999992000030418004-05500-045270FM-12+017499999V0200501N001010450019N0100001N1+02911+02411101011ADDAA106002091AY161061GF105991031051008001031001MA1999999099041MD1999999+0151MW1031REMSYN082AAXX  04184 82571 21597 50502 10291 20241 39904 40101 7036/ 83530 333 58015 60021;
0223825710999992000030500004-05500-045270FM-12+017499999V0209999C000012200019N0100001N1+02491+02341101201ADDAA106000191AY191061AY261061GA1001+999999999GF100991001001999999001001KA1240M+03041MA1999999099221MD1999999-0051MW1001REMSYN094AAXX  05004 82571 21997 00000 10249 20234 39922 40120 70096 333 10304 29087 55071 59005 69911;
0173825710999992000030512004-05500-045270FM-12+017499999V0202701N001010450019N0100001N1+02481+02381101331ADDAA124000191GF106991021021008001041011KA1240N+02121MA1999999099351MD1999999-0041REMSYN082AAXX  05124 82571 22597 62702 10248 20238 39935 40133 82241 333 20212 59004 69914;
0167825710999992000030518004-05500-045270FM-12+017499999V0200501N001010450019N0100001N1+03121+02411100911ADDAA199000091GF106991041021008001031001MA1999999098951MD1999999-0091REMSYN070AAXX  05184 82571 32597 60502 10312 20241 39895 40091 84230 333 59009;EQDQ01  00002PRCP99
0210825710999992000030600004-05500-045270FM-12+017499999V0203201N001012200019N0100001N1+02541+02381101191ADDAA199000091GF103991031001017501061001KA1240M+03211MA1999999099211MD1999999-0011MW1131REMSYN094AAXX  06004 82571 31797 33202 10254 20238 39921 40119 713// 83060 333 10321 29086 55071 59001;EQDQ01  00002PRCP99
0193825710999992000030612004-05500-045270FM-12+017499999V0202301N001010075019N0100001N1+02281+02251101411ADDAA124006191AY191061GF108991081051008001999999KA1240N+02111MA1999999099421MD1999999+0071MW1921REMSYN088AAXX  06124 82571 21597 82302 10228 20225 39942 40141 7929/ 885// 333 20211 58007 60064;
0182825710999992000030618004-05500-045270FM-12+017499999V0202301N001010075019N0100001N1+02401+02351101131ADDAA106003091AY191061AY261061GF108991081051008001999999MA1999999099141MD1999999+0191MW1021REMSYN082AAXX  06184 82571 21597 82302 10240 20235 39914 40113 70296 885// 333 58019 60031;
0189825710999992000030700004-05500-045270FM-12+017499999V0209999C000012200019N0100001N1+02411+02351101271ADDAA199000021GA1001+999999999GF100991001001999999001001KA1240M+02591MA1999999099281MD1999999+0071REMSYN082AAXX  07004 82571 32997 00000 10241 20235 39928 40127 333 10259 29097 55000 58007;
0173825710999992000030712004-05500-045270FM-12+017499999V0201801N001010075019N0100001N1+02301+02271101311ADDAA124003091GF108991081051008001999999KA1240N+02081MA1999999099321MD1999999-0101REMSYN082AAXX  07124 82571 22597 81802 10230 20227 39932 40131 885// 333 20208 59010 60034;
0174825710999992000030718004-05500-045270FM-12+017499999V0200501N003110075019N0100001N1+02811+02361100991ADDAA106002091AY161061GF107991051051008001041001MA1999999099011MD1999999-0131MW1021REMSYN082AAXX  07184 82571 21597 70506 10281 20236 39901 40099 7026/ 85540 333 59013 60021;
0220825710999992000030800004-05500-045270FM-12+017499999V0209999C000012200019N0100001N1+02481+02391101111ADDAA199000091GA1001+999999999GF100991001001999999001001KA1240M+02891MA1999999099121MD1999999-0161MW1131REMSYN088AAXX  08004 82571 31997 00000 10248 20239 39912 40111 713// 333 10289 29091 55006 59016;EQDQ01  00002PRCP99
0173825710999992000030812004-05500-045270FM-12+017499999V0200501N001010075019N0100001N1+02451+02351101281ADDAA124002091GF108991081051008001999999KA1240N+02101MA1999999099291MD1999999-0031REMSYN082AAXX  08124 82571 22597 80502 10245 20235 39929 40128 885// 333 20210 59003 60024;
0167825710999992000030818004-05500-045270FM-12+017499999V0203601N001012200019N0100001N1+03091+02351100851ADDAA199000091GF103991021031008001041001MA1999999098891MD1999999-0121REMSYN070AAXX  08184 82571 32597 33602 10309 20235 39889 40085 82340 333 59012;EQDQ01  00002PRCP99
0208825710999992000030900004-05500-045270FM-12+017499999V0209999C000012200019N0100001N1+02641+02481101131ADDAA199000091GA1001+999999999GF100991001001999999001001KA1240M+03171MA1999999099151MD1999999+0031REMSYN082AAXX  09004 82571 32997 00000 10264 20248 39915 40113 333 10317 29086 55060 58003;EQDQ01  00002PRCP99
0193825710999992000030912004-05500-045270FM-12+017499999V0200501N001010075019N0100001N1+02381+02351101411ADDAA124007991AY161061GF108991081051008001999999KA1240N+02211MA1999999099431MD1999999+0141MW1611REMSYN088AAXX  09124 82571 21597 80502 10238 20235 39943 40141 7616/ 885// 333 20221 58014 60084;
0182825710999992000030918004-05500-045270FM-12+017499999V0202301N001010075019N0100001N1+02551+02361101431ADDAA106002091AY191061AY261061GF108991081051008001999999MA1999999099011MD1999999+0121MW1911REMSYN082AAXX  09184 82571 21597 82302 10255 20236 39901 40143 79196 885// 333 58012 60021;
0199825710999992000031000004-05500-045270FM-12+017499999V0201401N001010075019N0100001N1+02451+02391101291ADDAA199000021AY191061GF108991081051008001999999KA1240M+02991MA1999999099301MD1999999+0151MW1171REMSYN094AAXX  10004 82571 31597 81402 10245 20239 39930 40129 7179/ 885// 333 10299 29096 55023 58015;
0201825710999992000031012004-05500-045270FM-12+017499999V0202301N001010450019N0100001N1+02401+02281101471ADDAA124002091AY191061AY261061GF106991021021008001031011KA1240N+02081MA1999999099481MD1999999+0051MW1021REMSYN088AAXX  10124 82571 21597 62302 10240 20228 39948 40147 70296 82231 333 20208 58005 60024;
0174825710999992000031018004-05500-045270FM-12+017499999V0202301N001010450019N0100001N1+02711+02371100991ADDAA106000191AY161061GF107991041051008001031011MA1999999099011MD1999999+0001MW1021REMSYN082AAXX  10184 82571 21597 72302 10271 20237 39901 40099 7026/ 84531 333 58000 69911;
0213825710999992000031100004-05500-045270FM-12+017499999V0200501N001010042019N0100001N1+02321+02251101451ADDAA106006191AY191061AY261061GF108991081051004501999999KA1240M+02981MA1999999099451MD1999999+0151MW1911REMSYN100AAXX  11004 82571 21497 80502 10232 20225 39945 40145 79196 885// 333 10298 29092 55043 58015 60061;
0201825710999992000031112004-05500-045270FM-12+017499999V0201401N001010075019N0100001N1+02351+02321101401ADDAA124018091AY191061AY261061GF107991071051008001031001KA1240N+02111MA1999999099401MD1999999-0041MW1021REMSYN088AAXX  11124 82571 21597 71402 10235 20232 39940 40140 70296 87530 333 20211 59004 60184;
0167825710999992000031118004-05500-045270FM-12+017499999V0200501N003111050019N0100001N1+03071+02351100891ADDAA199000091GF105991021021008001031011MA1999999098931MD1999999-0081REMSYN070AAXX  11184 82571 32597 50506 10307 20235 39893 40089 82231 333 59008;EQDQ01  00002PRCP99
0208825710999992000031200004-05500-045270FM-12+017499999V0209999C000012200019N0100001N1+02621+02461101031ADDAA199000091GA1001+999999999GF100991001001999999001001KA1240M+03131MA1999999099051MD1999999-0401REMSYN082AAXX  12004 82571 32997 00000 10262 20246 39905 40103 333 10313 29087 55062 59040;EQDQ01  00002PRCP99
0186825710999992000031212004-05500-045270FM-12+017499999V0202301N001010450019N0100001N1+02461+02411101281ADDAA199000091GF106991031051008001031011KA1240N+02111MA1999999099301MD1999999-0101REMSYN076AAXX  12124 82571 32597 62302 10246 20241 39930 40128 83531 333 20211 59010;EQDQ01  00002PRCP99
0167825710999992000031218004-05500-045270FM-12+017499999V0200501N001010450019N0100001N1+02791+02251100811ADDAA199000091GF106991021051008001041011MA1999999098851MD1999999-0081REMSYN070AAXX  12184 82571 32597 60502 10279 20225 39885 40081 82541 333 59008;EQDQ01  00002PRCP99
0220825710999992000031300004-05500-045270FM-12+017499999V0209999C000012200019N0100001N1+02541+02441101091ADDAA199000091GA1001+999999999GF100991001001999999001001KA1240M+03131MA1999999099111MD1999999+0061MW1131REMSYN088AAXX  13004 82571 31997 00000 10254 20244 39911 40109 713// 333 10313 29090 55048 58006;EQDQ01  00002PRCP99
0186825710999992000031312004-05500-045270FM-12+017499999V0202701N002110042019N0100001N1+02491+02361101281ADDAA199000091GF108991081051004501999999KA1240N+02241MA1999999099301MD1999999+0001REMSYN076AAXX  13124 82571 32497 82704 10249 20236 39930 40128 885// 333 20224 58000;EQDQ01  00002PRCP99
0167825710999992000031318004-05500-045270FM-12+017499999V0202701N002112200019N0100001N1+03091+02311100751ADDAA199000091GF104991031021008001011001MA1999999098801MD1999999-0051REMSYN070AAXX  13184 82571 32597 42704 10309 20231 39880 40075 83210 333 59005;EQDQ01  00002PRCP99
0213825710999992000031400004-05500-045270FM-12+017499999V0203601N003110450019N0020001N1+02321+02291101171ADDAA106036191AY191061AY261061GF108991041071004501021999KA1240M+03211MA1999999099181MD1999999+0071MW1951REMSYN100AAXX  14004 82571 21495 83606 10232 20229 39918 40117 79596 8472/ 333 10321 29088 55048 58007 60361;
0193825710999992000031412004-05500-045270FM-12+017499999V0202301N001010042019N0100001N1+02401+02331101401ADDAA124036191AY161061GF108991081051004501999999KA1240N+02101MA1999999099401MD1999999+0101MW1021REMSYN088AAXX  14124 82571 21497 82302 10240 20233 39940 40140 7026/ 885// 333 20210 58010 60364;
0167825710999992000031418004-05500-045270FM-12+017499999V0200501N001012200019N0100001N1+02891+02371100861ADDAA199000091GF104991031021004501031001MA1999999098891MD1999999+0091REMSYN070AAXX  14184 82571 32497 40502 10289 20237 39889 40086 83230 333 58009;EQDQ01  00002PRCP99
0198825710999992000031500004-05500-045270FM-12+017499999V0200901N001010450019N0100001N1+02461+02341101191ADDAA199000091GF105991041021004501041001KA1240M+02981MA1999999099211MD1999999+0031REMSYN088AAXX  15004 82571 32497 50902 10246 20234 39921 40119 84240 333 10298 29089 55049 58003;EQDQ01  00002PRCP99
0193825710999992000031512004-05500-045270FM-12+017499999V0201401N001010042019N0040001N1+02351+02331101431ADDAA124023991AY161061GF108991081001004501021999KA1240N+02201MA1999999099441MD1999999+0041MW1601REMSYN088AAXX  15124 82571 21496 81402 10235 20233 39944 40143 7606/ 8802/ 333 20220 58004 60244;
0174825710999992000031518004-05500-045270FM-12+017499999V0202701N001010042019N0100001N1+02481+02391100961ADDAA106023991AY161061GF107991071051004501001001MA1999999098981MD1999999+0091MW1021REMSYN082AAXX  15184 82571 21497 72702 10248 20239 39898 40096 7026/ 87500 333 58009 60241;
0179825710999992000031600004-05500-045270FM-12+017499999V0202301N001012200019N0100001N1+02441+02371101211ADDAA199000021GF103991031001017501031001KA1240M+02771MA1999999099221MD1999999+0011REMSYN088AAXX  16004 82571 32797 32302 10244 20237 39922 40121 83030 333 10277 29096 55010 58001;
0201825710999992000031612004-05500-045270FM-12+017499999V0201401N002110450019N0040001N1+02301+02271101431ADDAA124040991AY191061AY261061GF108991031071004501021999KA1240N+02141MA1999999099431MD1999999-0011MW1601REMSYN088AAXX  16124 82571 21496 81404 10230 20227 39943 40143 76096 8372/ 333 20214 59001 60414;
0174825710999992000031618004-05500-045270FM-12+017499999V0200501N001010450019N0100001N1+02881+02441100851ADDAA106002091AY161061GF105991041021008001031001MA1999999098881MD1999999-0101MW1011REMSYN082AAXX  16184 82571 21597 50502 10288 20244 39888 40085 7016/ 84230 333 59010 60021;
0213825710999992000031700004-05500-045270FM-12+017499999V0202301N002110042019N0040001N1+02261+02181101091ADDAA106004191AY191061AY261061GF108991081051004501999999KA1240M+02991MA1999999099101MD1999999-0121MW1911REMSYN100AAXX  17004 82571 21496 82304 10226 20218 39910 40109 79196 885// 333 10299 29091 55023 59012 60041;
0220825710999992000031712004-05500-045270FM-12+017499999V0202301N002110120019N0100001N1+02301+02231101231ADDAA124007991AY191061AY201061GF107991071081008001001001KA1240N+02071MA1999999099231MD1999999-0201MW1021REMSYN088AAXX  17124 82571 21597 72304 10230 20223 39923 40123 70297 87800 333 20207 59020 60084;EQDQ01+000072PSTWM2
0205825710999992000031800004-05500-045270FM-12+017499999V0201401N001012200019N0100001N1+02481+02391101061ADDAA106007991AY161061GF104991011021004501031001KA1240M+03031MA1999999099071MD1999999-0031MW1131REMSYN100AAXX  18004 82571 21497 41402 10248 20239 39907 40106 7136/ 81230 333 10303 29089 55050 59003 60081;
0173825710999992000031812004-05500-045270FM-12+017499999V0202301N001010042019N0100001N1+02471+02391101201ADDAA124007991GF106991051021004501031001KA1240N+02161MA1999999099221MD1999999-0011REMSYN082AAXX  18124 82571 22497 62302 10247 20239 39922 40120 85230 333 20216 59001 60084;
0167825710999992000031818004-05500-045270FM-12+017499999V0200501N005111050019N0100001N1+02981+02471100751ADDAA199000091GF105991021031008001051011MA1999999098791MD1999999-0041REMSYN070AAXX  18184 82571 32597 50510 10298 20247 39879 40075 82351 333 59004;EQDQ01  00002PRCP99
0198825710999992000031900004-05500-045270FM-12+017499999V0209999C000010120019N0100001N1+02511+02381100941ADDAA199000091GF106991061081008001001001KA1240M+03031MA1999999098961MD1999999-0111REMSYN088AAXX  19004 82571 32597 60000 10251 20238 39896 40094 86800 333 10303 29089 55059 59011;EQDQ01  00002PRCP99
0193825710999992000031912004-05500-045270FM-12+017499999V0201801N001010075019N0100001N1+02341+02311101241ADDAA124000591AY161061GF108991081051008001999999KA1240N+02161MA1999999099251MD1999999+0031MW1021REMSYN088AAXX  19124 82571 21597 81802 10234 20231 39925 40124 7026/ 885// 333 20216 58003 69964;
0174825710999992000031918004-05500-045270FM-12+017499999V0203601N003110450019N0100001N1+02661+02391100891ADDAA106005191AY161061GF106991021021008001051011MA1999999098921MD1999999+0131MW1011REMSYN082AAXX  19184 82571 21597 63606 10266 20239 39892 40089 7016/ 82251 333 58013 60051;
0198825710999992000032000004-05500-045270FM-12+017499999V0202301N001012200019N0100001N1+02481+02251100981ADDAA199000091GF102991021001017501031001KA1240M+02811MA1999999099001MD1999999+0041REMSYN088AAXX  20004 82571 32797 22302 10248 20225 39900 40098 82030 333 10281 29094 55009 58004;EQDQ01  00002PRCP99
0173825710999992000032012004-05500-045270FM-12+017499999V0203601N001010042019N0100001N1+02401+02371101271ADDAA124005191GF107991071021004501001001KA1240N+02061MA1999999099281MD1999999+0031REMSYN082AAXX  20124 82571 22497 73602 10240 20237 39928 40127 87200 333 20206 58003 60054;
0167825710999992000032018004-05500-045270FM-12+017499999V0200901N001012200019N0100001N1+03061+02381100791ADDAA199000091GF103991031021008001001001MA1999999098831MD1999999+0091REMSYN070AAXX  20184 82571 32597 30902 10306 20238 39883 40079 83200 333 58009;EQDQ01  00002PRCP99
0198825710999992000032100004-05500-045270FM-12+017499999V0209999C000012200019N0100001N1+02641+02481101061ADDAA199000091GF103991031001017501011001KA1240M+03191MA1999999099081MD1999999+0081REMSYN088AAXX  21004 82571 32797 30000 10264 20248 39908 40106 83010 333 10319 29086 55083 58008;EQDQ01  00002PRCP99
0193825710999992000032112004-05500-045270FM-12+017499999V0202701N001010450019N0100001N1+02461+02251101191ADDAA124000191AY161061GF105991021021004501041001KA1240N+02151MA1999999099211MD1999999-0071MW1011REMSYN088AAXX  21124 82571 21497 52702 10246 20225 39921 40119 7016/ 82240 333 20215 59007 69914;
0166825710999992000032118004-05500-045270FM-12+017499999V0201401N001010042019N0100001N1+02411+02351100851ADDAA106007191GF106991061051004501001001MA1999999098871MD1999999+0041MW1951REMSYN082AAXX  21184 82571 21497 61402 10241 20235 39887 40085 795// 86500 333 58004 60071;
0199825710999992000032200004-05500-045270FM-12+017499999V0200901N001010120019N0100001N1+02401+02371101091ADDAA199000021AY191061GF106991061081008001001001KA1240M+03011MA1999999099111MD1999999+0031MW1131REMSYN094AAXX  22004 82571 31597 60902 10240 20237 39911 40109 7139/ 86800 333 10301 29095 55033 58003;
0173825710999992000032212004-05500-045270FM-12+017499999V0202301N001010042019N0100001N1+02401+02311101211ADDAA124007191GF107991071021004501001001KA1240N+02171MA1999999099221MD1999999+0011REMSYN082AAXX  22124 82571 22497 72302 10240 20231 39922 40121 87200 333 20217 58001 60074;
0167825710999992000032218004-05500-045270FM-12+017499999V0201401N002112200019N0100001N1+03061+02271100831ADDAA199000091GF104991031021008001011001MA1999999098871MD1999999+0001REMSYN070AAXX  22184 82571 32597 41404 10306 20227 39887 40083 83210 333 58000;EQDQ01  00002PRCP99
0208825710999992000032300004-05500-045270FM-12+017499999V0201401N001012200019N0100001N1+02611+02461100931ADDAA199000091GA1001+999999999GF100991001001999999001001KA1240M+03121MA1999999098951MD1999999-0161REMSYN082AAXX  23004 82571 32997 01402 10261 20246 39895 40093 333 10312 29085 55057 59016;EQDQ01  00002PRCP99
0193825710999992000032312004-05500-045270FM-12+017499999V0200501N001010042019N0100001N1+02471+02411101191ADDAA124000191AY161061GF107991071051004501001001KA1240N+02061MA1999999099211MD1999999-0011MW1011REMSYN088AAXX  23124 82571 21497 70502 10247 20241 39921 40119 7016/ 87500 333 20206 59001 69914;
0166825710999992000032318004-05500-045270FM-12+017499999V0201401N003110090019N0100001N1+02491+02271100821ADDAA106000191GF106991061081004501001001MA1999999098841MD1999999-0031MW1951REMSYN082AAXX  23184 82571 21497 61406 10249 20227 39884 40082 795// 86800 333 59003 69911;
0199825710999992000032400004-05500-045270FM-12+017499999V0200901N003110042019N0100001N1+02501+02071101151ADDAA199000021AY191061GF106991061091004501001001KA1240M+03281MA1999999099171MD1999999+0221MW1171REMSYN094AAXX  24004 82571 31497 60906 10250 20207 39917 40115 7179/ 86900 333 10328 29084 55052 58022;
0201825710999992000032412004-05500-045270FM-12+017499999V0202301N001010450019N0100001N1+02301+02251101321ADDAA124002091AY191061AY261061GF107991041021004501031001KA1240N+02001MA1999999099331MD1999999+0121MW1011REMSYN088AAXX  24124 82571 21497 72302 10230 20225 39933 40132 70196 84230 333 20200 58012 60024;
0173825710999992000032512004-05500-045270FM-12+017499999V0200501N001012200019N0100001N1+02461+02441101271ADDAA124000391GF104991021021008001031001KA1240N+02211MA1999999099291MD1999999-0041REMSYN082AAXX  25124 82571 22597 40502 10246 20244 39929 40127 82230 333 20221 59004 69934;
0166825710999992000032518004-05500-045270FM-12+017499999V0201401N007212200019N0100001N1+03191+02311100841ADDAA106000191GF106991041031008001001011MA1999999098891MD1999999-0051MW1611REMSYN082AAXX  25184 82571 21597 61414 10319 20231 39889 40084 761// 84301 333 59005 69911;
0191825710999992000032600004-05500-045270FM-12+017499999V0200501N001010075019N0100001N1+02561+02471101031ADDAA199000021GF108991081051008001999999KA1240M+03261MA1999999099061MD1999999-0021MW1131REMSYN094AAXX  26004 82571 31597 80502 10256 20247 39906 40103 713// 885// 333 10326 29086 55091 59002;
0173825710999992000032612004-05500-045270FM-12+017499999V0200501N001010450019N0100001N1+02571+02381101171ADDAA124000191GF106991041051008001031001KA1240N+02221MA1999999099191MD1999999-0101REMSYN082AAXX  26124 82571 21597 60502 10257 20238 39919 40117 84530 333 20222 59010 69924;
0174825710999992000032618004-05500-045270FM-12+017499999V0201401N001010075019N0100001N1+02541+02381100791ADDAA106002091AY191061GF106991051051008001041001MA1999999098811MD1999999-0081MW1921REMSYN082AAXX  26184 82571 21597 61402 10254 20238 39881 40079 7929/ 85540 333 59008 60021;
0191825710999992000032700004-05500-045270FM-12+017499999V0209999C000010042019N0100001N1+02491+02391101141ADDAA199000021GF108991081051004501999999KA1240M+03191MA1999999099161MD1999999+0101MW1131REMSYN094AAXX  27004 82571 31497 80000 10249 20239 39916 40114 713// 885// 333 10319 29093 55041 58010;
0193825710999992000032712004-05500-045270FM-12+017499999V0202301N001010075019N0100001N1+02301+02271101251ADDAA124007191AY191061GF107991051051008001031001KA1240N+02041MA1999999099261MD1999999+0071MW1021REMSYN088AAXX  27124 82571 21597 72302 10230 20227 39926 40125 7029/ 85530 333 20204 58007 60074;
0167825710999992000032718004-05500-045270FM-12+017499999V0203201N001010450019N0100001N1+02931+02341100751ADDAA199000091GF106991021031008001031011MA1999999098791MD1999999-0021REMSYN070AAXX  27184 82571 32597 63202 10293 20234 39879 40075 82331 333 59002;EQDQ01  00002PRCP99
0226825710999992000032800004-05500-045270FM-12+017499999V0209999C000010075019N0100001N1+02461+02361101181ADDAA199000091GF106991999051008001001001KA1240M+03081MA1999999099191MD1999999+0031MW1131REMSYN094AAXX  28004 82571 31597 60000 10246 20236 39919 40118 713// 85500 333 10308 29089 55038 58003;EQDQ01+000052SCOTLCQ02  00002PRCP99
0201825710999992000032812004-05500-045270FM-12+017499999V0202301N001010075019N0100001N1+02331+02291101381ADDAA124017091AY191061AY261061GF108991081051008001999999KA1240N+02061MA1999999099391MD1999999+0131MW1021REMSYN088AAXX  28124 82571 21597 82302 10233 20229 39939 40138 70296 885// 333 20206 58013 60174;
0167825710999992000032818004-05500-045270FM-12+017499999V0202301N001010450019N0100001N1+03011+02391100881ADDAA199000091GF106991021021008001061011MA1999999098891MD1999999+0101REMSYN070AAXX  28184 82571 32597 62302 10301 20239 39889 40088 82261 333 58010;EQDQ01  00002PRCP99
0205825710999992000032900004-05500-045270FM-12+017499999V0202301N001010042019N0100001N1+02441+02391101151ADDAA106001091AY191061GF108991081051004501999999KA1240M+03121MA1999999099161MD1999999-0031MW1131REMSYN100AAXX  29004 82571 21497 82302 10244 20239 39916 40115 7139/ 885// 333 10312 29090 55032 59003 60011;
0182825710999992000032918004-05500-045270FM-12+017499999V0202301N001010450019N0100001N1+02501+02341101011ADDAA106027991AY131061AY201061GF106991041051008001031001MA1999999099031MD1999999+0141MW1611REMSYN082AAXX  29184 82571 21597 62302 10250 20234 39903 40101 76130 84530 333 58014 60281;
0179825710999992000033000004-05500-045270FM-12+017499999V0200501N001010075019N0100001N1+02411+02321101281ADDAA199000021GF108991081051008001999999KA1240M+02711MA1999999099291MD1999999+0131REMSYN088AAXX  30004 82571 32597 80502 10241 20232 39929 40128 885// 333 10271 29094 55005 58013;
0185825710999992000033012004-05500-045270FM-12+017499999V0202301N003110075019N0100001N1+02241+02221101341ADDAA124027991GF108991081051008001999999KA1240N+02041MA1999999099341MD1999999-0031MW1101REMSYN088AAXX  30124 82571 21597 82306 10224 20222 39934 40134 710// 885// 333 20204 59003 60284;
0167825710999992000033018004-05500-045270FM-12+017499999V0202701N001012200019N0100001N1+02981+02301100911ADDAA199000091GF102991021021008001001001MA1999999098911MD1999999-0121REMSYN070AAXX  30184 82571 32597 22702 10298 20230 39891 40091 82200 333 59012;EQDQ01  00002PRCP99
0208825710999992000033100004-05500-045270FM-12+017499999V0200501N001012200019N0100001N1+02541+02381101091ADDAA199000091GA1001+999999999GF100991001001999999001001KA1240M+03101MA1999999099101MD1999999-0191REMSYN082AAXX  31004 82571 32997 00502 10254 20238 39910 40109 333 10310 29087 55074 59019;EQDQ01  00002PRCP99
0186825710999992000033112004-05500-045270FM-12+017499999V0200501N001012200019N0100001N1+02551+02361101281ADDAA199000091GF103991021021008001031001KA1240N+02061MA1999999099301MD1999999-0041REMSYN076AAXX  31124 82571 32597 30502 10255 20236 39930 40128 82230 333 20206 59004;EQDQ01  00002PRCP99
0167825710999992000033118004-05500-045270FM-12+017499999V0200501N001012200019N0100001N1+02961+02351100861ADDAA199000091GF103991021021008001031001MA1999999098901MD1999999-0011REMSYN070AAXX  31184 82571 32597 30502 10296 20235 39890 40086 82230 333 59001;EQDQ01  00002PRCP99
0210825710999992000040100004-05500-045270FM-12+017499999V0201801N001010075019N0100001N1+02601+02421101131ADDAA199000091GF105991051051008001001001KA1240M+03051MA1999999099151MD1999999+0051MW1131REMSYN094AAXX  01004 82571 31597 51802 10260 20242 39915 40113 713// 85500 333 10305 29085 55104 58005;EQDQ01  00002PRCP99
0186825710999992000040112004-05500-045270FM-12+017499999V0203201N001010075019N0100001N1+02661+02391101351ADDAA199000091GF106991061051008001001001KA1240N+02231MA1999999099381MD1999999+0081REMSYN076AAXX  01124 82571 32597 63202 10266 20239 39938 40135 86500 333 20223 58008;EQDQ01  00002PRCP99
0174825710999992000040118004-05500-045270FM-12+017499999V0201801N003110075019N0100001N1+02531+02421101061ADDAA106003091AY161061GF108991081051008001999999MA1999999099081MD1999999+0181MW1951REMSYN082AAXX  01184 82571 21597 81806 10253 20242 39908 40106 7956/ 885// 333 58018 60031;
0213825710999992000040200004-05500-045270FM-12+017499999V0200501N001010042019N0100001N1+02331+02321101331ADDAA106002091AY191061AY261061GF108991081051004501999999KA1240M+02951MA1999999099351MD1999999+0201MW1601REMSYN100AAXX  02004 82571 21497 80502 10233 20232 39935 40133 76096 885// 333 10295 29094 55046 58020 60021;
0193825710999992000040212004-05500-045270FM-12+017499999V0203201N001010450019N0100001N1+02371+02331101451ADDAA124008991AY161061GF106991021021008001031011KA1240N+02061MA1999999099451MD1999999+0071MW1021REMSYN088AAXX  02124 82571 21597 63202 10237 20233 39945 40145 7026/ 82231 333 20206 58007 60094;
0167825710999992000040218004-05500-045270FM-12+017499999V0200901N001012200019N0100001N1+03041+02451101001ADDAA199000091GF103991031021008001001001MA1999999099031MD1999999-0051REMSYN070AAXX  02184 82571 32597 30902 10304 20245 39903 40100 83200 333 59005;EQDQ01  00002PRCP99
0210825710999992000040300004-05500-045270FM-12+017499999V0200501N003112200019N0100001N1+02511+02401101341ADDAA199000091GF103991031021008001001001KA1240M+03171MA1999999099351MD1999999+0001MW1131REMSYN094AAXX  03004 82571 31597 30506 10251 20240 39935 40134 713// 83200 333 10317 29088 55064 58000;EQDQ01  00002PRCP99
0193825710999992000040312004-05500-045270FM-12+017499999V0203601N001010042019N0100001N1+02401+02311101391ADDAA124017091AY161061GF105991051021004501001001KA1240N+01991MA1999999099401MD1999999-0051MW1011REMSYN088AAXX  03124 82571 21497 53602 10240 20231 39940 40139 7016/ 85200 333 20199 59005 60174;
0182825710999992000040318004-05500-045270FM-12+017499999V0202701N001010450019N0100001N1+02471+02341101031ADDAA106000891AY191061AY261061GF105991031021008001041001MA1999999099041MD1999999+0011MW1171REMSYN082AAXX  03184 82571 21597 52702 10247 20234 39904 40103 71796 83240 333 58001 69971;
0213825710999992000040400004-05500-045270FM-12+017499999V0201401N001012200019N0100001N1+02371+02331101301ADDAA106000191AY191061AY261061GF103991011021004501041001KA1240M+02971MA1999999099311MD1999999-0041MW1131REMSYN100AAXX  04004 82571 21497 31402 10237 20233 39931 40130 71396 81240 333 10297 29095 55044 59004 69921;
0173825710999992000040412004-05500-045270FM-12+017499999V0202301N001010450019N0100001N1+02441+02341101401ADDAA124001091GF106991031021004501011011KA1240N+02061MA1999999099411MD1999999+0011REMSYN082AAXX  04124 82571 22497 62302 10244 20234 39941 40140 83211 333 20206 58001 69994;
0182825710999992000040418004-05500-045270FM-12+017499999V0200501N001010450019N0100001N1+02551+02351101071ADDAA106003091AY191061AY261061GF106991031021008001041001MA1999999099081MD1999999+0041MW1171REMSYN082AAXX  04184 82571 21597 60502 10255 20235 39908 40107 71796 83240 333 58004 60031;
0210825710999992000040500004-05500-045270FM-12+017499999V0201401N001012200019N0100001N1+02541+02471101251ADDAA199000091GF101991011001017501041001KA1240M+03011MA1999999099271MD1999999-0041MW1131REMSYN094AAXX  05004 82571 31797 11402 10254 20247 39927 40125 713// 81040 333 10301 29094 55042 59004;EQDQ01  00002PRCP99
0193825710999992000040512004-05500-045270FM-12+017499999V0202701N001010042019N0100001N1+02461+02431101411ADDAA124003091AY141061GF106991061021004501001001KA1240N+02051MA1999999099431MD1999999+0021MW1011REMSYN088AAXX  05124 82571 21497 62702 10246 20243 39943 40141 7014/ 86200 333 20205 58002 60034;
0167825710999992000040518004-05500-045270FM-12+017499999V0200501N003112200019N0100001N1+03131+02211100951ADDAA199000091GF104991021021008001001011MA1999999098991MD1999999-0091REMSYN070AAXX  05184 82571 32597 40506 10313 20221 39899 40095 82201 333 59009;EQDQ01  00002PRCP99
0198825710999992000040600004-05500-045270FM-12+017499999V0209999C000012200019N0100001N1+02621+02441101251ADDAA199000091GF102991021021004501001001KA1240M+03191MA1999999099271MD1999999+0001REMSYN088AAXX  06004 82571 32497 20000 10262 20244 39927 40125 82200 333 10319 29084 55077 58000;EQDQ01  00002PRCP99
0206825710999992000040612004-05500-045270FM-12+017499999V0200901N001010450019N0100001N1+02441+02351101431ADDAA199000091AY141061GF106991031021004501031001KA1240N+02051MA1999999099451MD1999999+0021MW1011REMSYN082AAXX  06124 82571 31497 60902 10244 20235 39945 40143 7014/ 83230 333 20205 58002;EQDQ01  00002PRCP99
0167825710999992000040618004-05500-045270FM-12+017499999V0201401N001012200019N0100001N1+03131+02241100911ADDAA199000091GF103991021021008001011001MA1999999098961MD1999999-0031REMSYN070AAXX  06184 82571 32597 31402 10313 20224 39896 40091 82210 333 59003;EQDQ01  00002PRCP99
0208825710999992000040700004-05500-045270FM-12+017499999V0200901N001012200019N0100001N1+02661+02431101141ADDAA199000091GA1001+999999999GF100991001001999999001001KA1240M+03181MA1999999099161MD1999999-0111REMSYN082AAXX  07004 82571 32997 00902 10266 20243 39916 40114 333 10318 29082 55090 59011;EQDQ01  00002PRCP99
0186825710999992000040712004-05500-045270FM-12+017499999V0202301N001010042019N0100001N1+02461+02301101261ADDAA199000091GF107991071051004501001001KA1240N+02131MA1999999099281MD1999999-0171REMSYN076AAXX  07124 82571 32497 72302 10246 20230 39928 40126 87500 333 20213 59017;EQDQ01  00002PRCP99
0174825710999992000040718004-05500-045270FM-12+017499999V0201401N001010450019N0100001N1+02961+02401100891ADDAA106000191AY161061GF106991041021008001011011MA1999999098931MD1999999-0031MW1021REMSYN082AAXX  07184 82571 21597 61402 10296 20240 39893 40089 7026/ 84211 333 59003 69911;
0213825710999992000040800004-05500-045270FM-12+017499999V0202301N001012200019N0100001N1+02311+02271101251ADDAA106006191AY191061AY261061GF103991011021004501041001KA1240M+03031MA1999999099261MD1999999+0101MW1021REMSYN100AAXX  08004 82571 21497 32302 10231 20227 39926 40125 70296 81240 333 10303 29089 55035 58010 60061;
0173825710999992000040812004-05500-045270FM-12+017499999V0202301N001010450019N0100001N1+02381+02241101291ADDAA124006191GF106991031031008001031011KA1240N+02121MA1999999099301MD1999999+0021REMSYN082AAXX  08124 82571 22597 62302 10238 20224 39930 40129 83331 333 20212 58002 60064;
0174825710999992000040818004-05500-045270FM-12+017499999V0202301N001010450019N0100001N1+02611+02331100951ADDAA106004191AY161061GF106991041051008001031001MA1999999098971MD1999999+0041MW1021REMSYN082AAXX  08184 82571 21597 62302 10261 20233 39897 40095 7026/ 84530 333 58004 60041;
0198825710999992000040900004-05500-045270FM-12+017499999V0209999C000010075019N0100001N1+02541+02451101071ADDAA199000091GF105991051051008001001001KA1240M+03141MA1999999099091MD1999999-0171REMSYN088AAXX  09004 82571 32597 50000 10254 20245 39909 40107 85500 333 10314 29092 55050 59017;EQDQ01  00002PRCP99
0193825710999992000040912004-05500-045270FM-12+017499999V0203601N001010075019N0100001N1+02261+02241101291ADDAA124014091AY161061GF108991081051008001999999KA1240N+02061MA1999999099301MD1999999+0001MW1021REMSYN088AAXX  09124 82571 21597 83602 10226 20224 39930 40129 7026/ 885// 333 20206 58000 60144;
0167825710999992000040918004-05500-045270FM-12+017499999V0201801N003110450019N0100001N1+02961+02331100851ADDAA199000091GF106991021021008001031011MA1999999098891MD1999999-0081REMSYN070AAXX  09184 82571 32597 61806 10296 20233 39889 40085 82231 333 59008;EQDQ01  00002PRCP99
0213825710999992000041000004-05500-045270FM-12+017499999V0201401N003110042019N0100001N1+02241+02121101181ADDAA106000191AY191061AY261061GF108991081051004501999999KA1240M+03031MA1999999099181MD1999999+0091MW1131REMSYN100AAXX  10004 82571 21497 81406 10224 20212 39918 40118 71396 885// 333 10303 29088 55036 58009 69911;
0173825710999992000041012004-05500-045270FM-12+017499999V0201401N002110042019N0100001N1+02511+02231101321ADDAA124000191GF105991051021004501001001KA1240N+02071MA1999999099331MD1999999+0031REMSYN082AAXX  10124 82571 22497 51404 10251 20223 39933 40132 85200 333 20207 58003 69914;
0166825710999992000041018004-05500-045270FM-12+017499999V0201801N001010450019N0040001N1+02441+02371100941ADDAA106010991GF108991031071004501021999MA1999999098951MD1999999+0061MW1631REMSYN082AAXX  10184 82571 21496 81802 10244 20237 39895 40094 763// 8372/ 333 58006 60111;
0205825710999992000041100004-05500-045270FM-12+017499999V0201401N001010090019N0100001N1+02351+02281101261ADDAA106004191AY161061GF105991051081004501001001KA1240M+03001MA1999999099271MD1999999+0091MW1131REMSYN100AAXX  11004 82571 21497 51402 10235 20228 39927 40126 7136/ 85800 333 10300 29092 55056 58009 60041;
0193825710999992000041112004-05500-045270FM-12+017499999V0200501N003110450019N0100001N1+02481+02341101381ADDAA124016091AY161061GF105991021021004501011001KA1240N+02081MA1999999099391MD1999999+0061MW1021REMSYN088AAXX  11124 82571 21497 50506 10248 20234 39939 40138 7026/ 82210 333 20208 58006 60164;
0166825710999992000041118004-05500-045270FM-12+017499999V0201401N001012200019N0100001N1+02831+02421100891ADDAA106000191GF104991041021008001001001MA1999999098921MD1999999-0031MW1611REMSYN082AAXX  11184 82571 21597 41402 10283 20242 39892 40089 761// 84200 333 59003 69911;
0191825710999992000041200004-05500-045270FM-12+017499999V0202301N001010042019N0100001N1+02481+02361101141ADDAA199000021GF106991061051004501001001KA1240M+03081MA1999999099161MD1999999-0111MW1131REMSYN094AAXX  12004 82571 31497 62302 10248 20236 39916 40114 713// 86500 333 10308 29089 55085 59011;
0193825710999992000041212004-05500-045270FM-12+017499999V0202301N001010090019N0100001N1+02351+02311101341ADDAA124006191AY161061GF107991071081004501001001KA1240N+02111MA1999999099351MD1999999-0041MW1021REMSYN088AAXX  12124 82571 21497 72302 10235 20231 39935 40134 7026/ 87800 333 20211 59004 60064;
0167825710999992000041218004-05500-045270FM-12+017499999V0202301N001010450019N0100001N1+03001+02461100841ADDAA199000091GF105991041021008001041001MA1999999098881MD1999999-0041REMSYN070AAXX  12184 82571 32597 52302 10300 20246 39888 40084 84240 333 59004;EQDQ01  00002PRCP99
0205825710999992000041300004-05500-045270FM-12+017499999V0202701N001010450019N0100001N1+02561+02421101191ADDAA106000191AY161061GF106991041051004501041001KA1240M+03161MA1999999099211MD1999999+0051MW1131REMSYN100AAXX  13004 82571 21497 62702 10256 20242 39921 40119 7136/ 84540 333 10316 29088 55064 58005 69911;
0193825710999992000041312004-05500-045270FM-12+017499999V0202301N001010042019N0100001N1+02311+02291101411ADDAA124046091AY161061GF107991061051004501031001KA1240N+02041MA1999999099421MD1999999+0071MW1611REMSYN088AAXX  13124 82571 21497 72302 10231 20229 39942 40141 7616/ 86530 333 20204 58007 60464;
0148825710999992000041318004-05500-045270FM-12+017499999V0202301N001010450019N0100001N1+03001+02461100811ADDAA199000021GF105991031021008001031011MA1999999098851MD1999999-0031REMSYN070AAXX  13184 82571 32597 52302 10300 20246 39885 40081 83231 333 59003;
0182825710999992000041418004-05500-045270FM-12+017499999V0202701N001010042019N0100001N1+02301+02271101111ADDAA106032091AY191061AY261061GF108991081051004501999999MA1999999099121MD1999999+0271MW1021REMSYN082AAXX  14184 82571 21497 82702 10230 20227 39912 40111 70296 885// 333 58027 60321;
0198825710999992000041500004-05500-045270FM-12+017499999V0209999C000010150019N0100001N1+02301+02271101371ADDAA199000091GF106991061001017501051001KA1240M+02751MA1999999099371MD1999999+0181REMSYN088AAXX  15004 82571 32797 60000 10230 20227 39937 40137 86050 333 10275 29098 55000 58018;EQDQ01  00002PRCP99
0173825710999992000041512004-05500-045270FM-12+017499999V0202701N001010450019N0100001N1+02401+02371101501ADDAA124032091GF106991031021008001051001KA1240N+02041MA1999999099501MD1999999-0081REMSYN082AAXX  15124 82571 22597 62702 10240 20237 39950 40150 83250 333 20204 59008 60324;
0167825710999992000041518004-05500-045270FM-12+017499999V0202301N003111050019N0100001N1+02641+02391101171ADDAA199000091GF105991021021008001031011MA1999999099181MD1999999+0061REMSYN070AAXX  15184 82571 32597 52306 10264 20239 39918 40117 82231 333 58006;EQDQ01  00002PRCP99
0205825710999992000041600004-05500-045270FM-12+017499999V0209999C000010075019N0100001N1+02401+02371101431ADDAA106000391AY161061GF106991061051008001001001KA1240M+03011MA1999999099441MD1999999+0071MW1021REMSYN100AAXX  16004 82571 21597 60000 10240 20237 39944 40143 7026/ 86500 333 10301 29095 55048 58007 69931;
0167825710999992000041618004-05500-045270FM-12+017499999V0203601N003111050019N0100001N1+02951+02491101021ADDAA199000091GF105991021021008001031011MA1999999099051MD1999999-0131REMSYN070AAXX  16184 82571 32597 53606 10295 20249 39905 40102 82231 333 59013;EQDQ01  00002PRCP99
0198825710999992000041700004-05500-045270FM-12+017499999V0209999C000012200019N0100001N1+02601+02501101211ADDAA199000091GF102991021001017501031001KA1240M+03111MA1999999099231MD1999999-0211REMSYN088AAXX  17004 82571 32797 20000 10260 20250 39923 40121 82030 333 10311 29090 55057 59021;EQDQ01  00002PRCP99
0186825710999992000041712004-05500-045270FM-12+017499999V0201801N002110075019N0100001N1+02541+02381101501ADDAA199000091GF108991081051008001999999KA1240N+02201MA1999999099521MD1999999-0101REMSYN076AAXX  17124 82571 32597 81804 10254 20238 39952 40150 885// 333 20220 59010;EQDQ01  00002PRCP99
0154825710999992000041718004-05500-045270FM-12+017499999V0203201N001010450019N0100001N1+03001+02221100911ADDAA106001091GF106991031021008001041011MA1999999098931MD1999999-0121REMSYN076AAXX  17184 82571 21597 63202 10300 20222 39893 40091 83241 333 59012 60011;
0198825710999992000041800004-05500-045270FM-12+017499999V0202301N001010150019N0100001N1+02391+02351101231ADDAA199000091GF105991051001017501071001KA1240M+03061MA1999999099251MD1999999+0021REMSYN088AAXX  18004 82571 32797 52302 10239 20235 39925 40123 85070 333 10306 29087 55024 58002;EQDQ01  00002PRCP99
0173825710999992000041812004-05500-045270FM-12+017499999V0202301N001010450019N0100001N1+02441+02351101421ADDAA124001091GF106991041051008001031001KA1240N+02111MA1999999099431MD1999999-0091REMSYN082AAXX  18124 82571 22597 62302 10244 20235 39943 40142 84530 333 20211 59009 60014;
0167825710999992000041818004-05500-045270FM-12+017499999V0202301N003112200019N0100001N1+02921+02431100941ADDAA199000091GF104991041021008001001001MA1999999098971MD1999999+0041REMSYN070AAXX  18184 82571 32597 42306 10292 20243 39897 40094 84200 333 58004;EQDQ01  00002PRCP99
0198825710999992000041900004-05500-045270FM-12+017499999V0201801N001010075019N0100001N1+02661+02541101291ADDAA199000091GF105991051051008001001001KA1240M+03101MA1999999099311MD1999999+0061REMSYN088AAXX  19004 82571 32597 51802 10266 20254 39931 40129 85500 333 10310 29089 55065 58006;EQDQ01  00002PRCP99
0201825710999992000041912004-05500-045270FM-12+017499999V0200901N001010075019N0100001N1+02391+02381101501ADDAA124035191AY191061AY261061GF108991081051008001999999KA1240N+02191MA1999999099511MD1999999+0081MW1021REMSYN088AAXX  19124 82571 21597 80902 10239 20238 39951 40150 70296 885// 333 20219 58008 60354;
0166825710999992000041918004-05500-045270FM-12+017499999V0200501N003112200019N0100001N1+02721+02521100981ADDAA106000591GF103991031021008001001001MA1999999099011MD1999999+0041MW1611REMSYN082AAXX  19184 82571 21597 30506 10272 20252 39901 40098 761// 83200 333 58004 69941;
0191825710999992000042000004-05500-045270FM-12+017499999V0200501N003110042019N0100001N1+02541+02421101281ADDAA199000021GF108991081051004501999999KA1240M+03041MA1999999099291MD1999999-0021MW1171REMSYN094AAXX  20004 82571 31497 80506 10254 20242 39929 40128 717// 885// 333 10304 29094 55058 59002;
0201825710999992000042012004-05500-045270FM-12+017499999V0202501N001010450019N0100001N1+02351+02311101441ADDAA124018091AY191061AY261061GF107991041051008001031001KA1240N+02101MA1999999099451MD1999999+0061MW1021REMSYN088AAXX  20124 82571 21597 72502 10235 20231 39945 40144 70296 84530 333 20210 58006 60184;
0193825710999992000042112004-05500-045270FM-12+017499999V0202701N001010075019N0100001N1+02381+02361101311ADDAA124001091AY161061GF108991081051008001999999KA1240N+02121MA1999999099331MD1999999-0121MW1021REMSYN088AAXX  21124 82571 21597 82702 10238 20236 39933 40131 7026/ 885// 333 20212 59012 60014;
0167825710999992000042118004-05500-045270FM-12+017499999V0202301N001012200019N0100001N1+02901+02501100811ADDAA199000091GF105991031021008001001011MA1999999098831MD1999999-0141REMSYN070AAXX  21184 82571 32597 52302 10290 20250 39883 40081 83201 333 59014;EQDQ01  00002PRCP99
0205825710999992000042200004-05500-045270FM-12+017499999V0209999C000012200019N0100001N1+02601+02551101111ADDAA106000591AY161061GF102991021011008001001001KA1240M+03111MA1999999099131MD1999999-0101MW1131REMSYN100AAXX  22004 82571 21597 20000 10260 20255 39913 40111 7136/ 82100 333 10311 29093 55050 59010 69941;
0182825710999992000042218004-05500-045270FM-12+017499999V0202701N001010075019N0100001N1+02521+02421100941ADDAA106001091AY191061AY261061GF108991081051008001999999MA1999999098971MD1999999+0141MW1171REMSYN082AAXX  22184 82571 21597 82702 10252 20242 39897 40094 71796 885// 333 58014 60011;
0210825710999992000042300004-05500-045270FM-12+017499999V0209999C000010075019N0100001N1+02501+02471101191ADDAA199000091GF108991081051008001999999KA1240M+02941MA1999999099211MD1999999+0081MW1171REMSYN094AAXX  23004 82571 31597 80000 10250 20247 39921 40119 717// 885// 333 10294 29097 55029 58008;EQDQ01  00002PRCP99
0193825710999992000042312004-05500-045270FM-12+017499999V0203201N001010075019N0100001N1+02441+02421101371ADDAA124001091AY161061GF108991081051008001999999KA1240N+02181MA1999999099381MD1999999+0051MW1021REMSYN088AAXX  23124 82571 21597 83202 10244 20242 39938 40137 7026/ 885// 333 20218 58005 60014;
0167825710999992000042318004-05500-045270FM-12+017499999V0203201N001012200019N0100001N1+03101+02561100901ADDAA199000091GF105991031021008001001011MA1999999098941MD1999999-0031REMSYN070AAXX  23184 82571 32597 53202 10310 20256 39894 40090 83201 333 59003;EQDQ01  00002PRCP99
0208825710999992000042400004-05500-045270FM-12+017499999V0209999C000012200019N0100001N1+02661+02391101161ADDAA199000091GA1001+999999999GF100991001001999999001001KA1240M+03191MA1999999099181MD1999999-0031REMSYN082AAXX  24004 82571 32997 00000 10266 20239 39918 40116 333 10319 29086 55066 59003;EQDQ01  00002PRCP99
0174825710999992000042418004-05500-045270FM-12+017499999V0202301N001010450019N0100001N1+02671+02481100901ADDAA106004191AY161061GF106991041051008001041001MA1999999098931MD1999999-0011MW1021REMSYN082AAXX  24184 82571 21597 62302 10267 20248 39893 40090 7026/ 84540 333 59001 60041;
0208825710999992000042500004-05500-045270FM-12+017499999V0209999C000012200019N0100001N1+02561+02511101221ADDAA199000091GA1001+999999999GF100991001001999999001001KA1240M+02911MA1999999099241MD1999999+0061REMSYN082AAXX  25004 82571 32997 00000 10256 20251 39924 40122 333 10291 29095 55016 58006;EQDQ01  00002PRCP99
0201825710999992000042512004-05500-045270FM-12+017499999V0202301N001010075019N0100001N1+02301+02281101451ADDAA124043991AY191061AY261061GF108991081051008001999999KA1240N+02091MA1999999099461MD1999999+0071MW1611REMSYN088AAXX  25124 82571 21597 82302 10230 20228 39946 40145 76196 885// 333 20209 58007 60444;
0174825710999992000042518004-05500-045270FM-12+017499999V0200501N001010075019N0100001N1+02571+02511101021ADDAA106007991AY161061GF108991081051008001999999MA1999999099041MD1999999+0111MW1611REMSYN082AAXX  25184 82571 21597 80502 10257 20251 39904 40102 7616/ 885// 333 58011 60081;
0191825710999992000042600004-05500-045270FM-12+017499999V0200501N001010042019N0100001N1+02461+02411101391ADDAA199000021GF108991081051004501999999KA1240M+02791MA1999999099401MD1999999+0161MW1171REMSYN094AAXX  26004 82571 31497 80502 10246 20241 39940 40139 717// 885// 333 10279 29097 55006 58016;
0193825710999992000042612004-05500-045270FM-12+017499999V0202301N001010042019N0100001N1+02471+02391101471ADDAA124008991AY161061GF106991061021004501001001KA1240N+02091MA1999999099481MD1999999+0021MW1011REMSYN088AAXX  26124 82571 21497 62302 10247 20239 39948 40147 7016/ 86200 333 20209 58002 60094;
0174825710999992000042618004-05500-045270FM-12+017499999V0201401N003110075019N0100001N1+02911+02341101031ADDAA124000191AY161061GF106991051021008001041001MA1999999099061MD1999999+0021MW1031REMSYN082AAXX  26184 82571 21597 61406 10291 20234 39906 40103 7036/ 85240 333 58002 69924;
0205825710999992000042700004-05500-045270FM-12+017499999V0201401N001010042019N0100001N1+02441+02391101381ADDAA106002091AY161061GF108991081021004501999999KA1240M+03001MA1999999099391MD1999999-0011MW1021REMSYN100AAXX  27004 82571 21497 81402 10244 20239 39939 40138 7026/ 882// 333 10300 29090 55062 59001 60021;
0193825710999992000042712004-05500-045270FM-12+017499999V0200901N002112200019N0100001N1+02681+02351101451ADDAA124002091AY161061GF103991011011004501031001KA1240N+02151MA1999999099471MD1999999-0011MW1011REMSYN088AAXX  27124 82571 21497 30904 10268 20235 39947 40145 7016/ 81130 333 20215 59001 60024;
0167825710999992000042718004-05500-045270FM-12+017499999V0201401N002112200019N0100001N1+03021+02261101051ADDAA199000091GF104991031021008001031001MA1999999099091MD1999999+0031REMSYN070AAXX  27184 82571 32597 41404 10302 20226 39909 40105 83230 333 58003;EQDQ01  00002PRCP99
0208825710999992000042800004-05500-045270FM-12+017499999V0201401N001012200019N0100001N1+02591+02311101321ADDAA199000091GA1001+999999999GF100991001001999999001001KA1240M+03131MA1999999099351MD1999999-0041REMSYN082AAXX  28004 82571 32997 01402 10259 20231 39935 40132 333 10313 29078 55093 59004;EQDQ01  00002PRCP99
0206825710999992000042812004-05500-045270FM-12+017499999V0202301N001012200019N0100001N1+02441+02371101531ADDAA199000091AY141061GF104991041001017501031001KA1240N+02041MA1999999099541MD1999999+0071MW1011REMSYN082AAXX  28124 82571 31797 42302 10244 20237 39954 40153 7014/ 84030 333 20204 58007;EQDQ01  00002PRCP99
0174825710999992000042818004-05500-045270FM-12+017499999V0200901N003112200019N0100001N1+03111+02301101061ADDAA106000391AY161061GF103991031021008001001001MA1999999099101MD1999999+0011MW1011REMSYN082AAXX  28184 82571 21597 30906 10311 20230 39910 40106 7016/ 83200 333 58001 69931;
0208825710999992000042900004-05500-045270FM-12+017499999V0200501N001012200019N0100001N1+02651+02481101351ADDAA199000091GA1001+999999999GF100991001001999999001001KA1240M+03191MA1999999099371MD1999999+0021REMSYN082AAXX  29004 82571 32997 00502 10265 20248 39937 40135 333 10319 29084 55092 58002;EQDQ01  00002PRCP99
0193825710999992000042912004-05500-045270FM-12+017499999V0202301N001010090019N0100001N1+02441+02391101621ADDAA124002091AY161061GF106991061081004501001001KA1240N+02101MA1999999099641MD1999999+0101MW1611REMSYN088AAXX  29124 82571 21497 62302 10244 20239 39964 40162 7616/ 86800 333 20210 58010 60024;
0148825710999992000042918004-05500-045270FM-12+017499999V0201401N001010450019N0100001N1+02921+02321101181ADDAA199000021GF106991041021008001011001MA1999999099211MD1999999+0111REMSYN070AAXX  29184 82571 32597 61402 10292 20232 39921 40118 84210 333 58011;
0191825710999992000043000004-05500-045270FM-12+017499999V0200901N001012200019N0100001N1+02551+02461101431ADDAA199000021GF101991011021004501001001KA1240M+03001MA1999999099451MD1999999+0081MW1131REMSYN094AAXX  30004 82571 31497 10902 10255 20246 39945 40143 713// 81200 333 10300 29089 55038 58008;
0186825710999992000043012004-05500-045270FM-12+017499999V0200501N001010042019N0100001N1+02471+02451101451ADDAA199000091GF106991051021004501011001KA1240N+02061MA1999999099461MD1999999-0181REMSYN076AAXX  30124 82571 32497 60502 10247 20245 39946 40145 85210 333 20206 59018;EQDQ01  00002PRCP99
0174825710999992000043018004-05500-045270FM-12+017499999V0201401N001010075019N0100001N1+02921+02451101031ADDAA106000191AY161061GF107991051051008001071001MA1999999099061MD1999999-0151MW1021REMSYN082AAXX  30184 82571 21597 71402 10292 20245 39906 40103 7026/ 85570 333 59015 69921;
0210825710999992000050100004-05500-045270FM-12+017499999V0201401N001012200019N0100001N1+02571+02491101371ADDAA199000091GF104991041081008001001001KA1240M+02991MA1999999099391MD1999999-0061MW1131REMSYN094AAXX  01004 82571 31597 41402 10257 20249 39939 40137 713// 84800 333 10299 29091 55022 59006;EQDQ01  00002PRCP99
0173825710999992000050112004-05500-045270FM-12+017499999V0200901N001012200019N0100001N1+02511+02341101381ADDAA124000191GF102991021001017501041001KA1240N+02141MA1999999099401MD1999999-0061REMSYN082AAXX  01124 82571 22797 20902 10251 20234 39940 40138 82040 333 20214 59006 69924;
0167825710999992000050118004-05500-045270FM-12+017499999V0200501N003112200019N0100001N1+03081+02371101061ADDAA199000091GF103991031021008001001001MA1999999099091MD1999999+0031REMSYN070AAXX  01184 82571 32597 30506 10308 20237 39909 40106 83200 333 58003;EQDQ01  00002PRCP99
0208825710999992000050200004-05500-045270FM-12+017499999V0200901N001012200019N0100001N1+02651+02481101211ADDAA199000091GA1001+999999999GF100991001001999999001001KA1240M+03171MA1999999099241MD1999999-0151REMSYN082AAXX  02004 82571 32997 00902 10265 20248 39924 40121 333 10317 29084 55093 59015;EQDQ01  00002PRCP99
0201825710999992000050212004-05500-045270FM-12+017499999V0202301N001010150019N0100001N1+02481+02411101301ADDAA124000191AY161061AY241061GF106991061001017501051061KA1240N+02021MA1999999099321MD1999999-0081MW1011REMSYN088AAXX  02124 82571 21797 62302 10248 20241 39932 40130 70164 86056 333 20202 59008 69914;
0167825710999992000050218004-05500-045270FM-12+017499999V0201401N003112200019N0100001N1+03111+02251100921ADDAA199000091GF102991021021008001001001MA1999999098971MD1999999-0121REMSYN070AAXX  02184 82571 32597 21406 10311 20225 39897 40092 82200 333 59012;EQDQ01  00002PRCP99
0208825710999992000050300004-05500-045270FM-12+017499999V0202301N001012200019N0100001N1+02621+02351101181ADDAA199000091GA1001+999999999GF100991001001999999001001KA1240M+03181MA1999999099201MD1999999-0041REMSYN082AAXX  03004 82571 32997 02302 10262 20235 39920 40118 333 10318 29082 55100 59004;EQDQ01  00002PRCP99
0193825710999992000050312004-05500-045270FM-12+017499999V0202301N001010150019N0100001N1+02421+02351101361ADDAA124000191AY141061GF105991051001017501031011KA1240N+02111MA1999999099381MD1999999+0061MW1011REMSYN088AAXX  03124 82571 21797 52302 10242 20235 39938 40136 7014/ 85031 333 20211 58006 69914;
0167825710999992000050318004-05500-045270FM-12+017499999V0201401N003110450019N0100001N1+03031+02451100931ADDAA199000091GF105991021021008001031001MA1999999098971MD1999999+0001REMSYN070AAXX  03184 82571 32597 51406 10303 20245 39897 40093 82230 333 58000;EQDQ01  00002PRCP99
0220825710999992000050400004-05500-045270FM-12+017499999V0209999C000012200019N0100001N1+02601+02481101131ADDAA199000091GA1001+999999999GF100991001001999999001001KA1240M+03101MA1999999099151MD1999999-0051MW1131REMSYN088AAXX  04004 82571 31997 00000 10260 20248 39915 40113 713// 333 10310 29088 55073 59005;EQDQ01  00002PRCP99
0193825710999992000050412004-05500-045270FM-12+017499999V0201801N001012200019N0100001N1+02511+02471101311ADDAA124001091AY161061GF106991041051008001001011KA1240N+02211MA1999999099331MD1999999-0051MW1021REMSYN088AAXX  04124 82571 21597 61802 10251 20247 39933 40131 7026/ 84501 333 20221 59005 60014;
0167825710999992000050418004-05500-045270FM-12+017499999V0201401N003112200019N0100001N1+03071+02291100891ADDAA199000091GF103991031021008001001001MA1999999098941MD1999999-0031REMSYN070AAXX  04184 82571 32597 31406 10307 20229 39894 40089 83200 333 59003;EQDQ01  00002PRCP99
0208825710999992000050500004-05500-045270FM-12+017499999V0201401N001012200019N0100001N1+02551+02311101041ADDAA199000091GA1001+999999999GF100991001001999999001001KA1240M+03151MA1999999099071MD1999999-0081REMSYN082AAXX  05004 82571 32997 01402 10255 20231 39907 40104 333 10315 29083 55083 59008;EQDQ01  00002PRCP99
0186825710999992000050512004-05500-045270FM-12+017499999V0202301N001010150019N0100001N1+02411+02261101281ADDAA199000091GF106991061001017501031001KA1240N+02071MA1999999099301MD1999999-0031REMSYN076AAXX  05124 82571 32797 62302 10241 20226 39930 40128 86030 333 20207 59003;EQDQ01  00002PRCP99
0167825710999992000050518004-05500-045270FM-12+017499999V0201401N003111050019N0100001N1+03101+02261100881ADDAA199000091GF105991021021008001031011MA1999999098921MD1999999-0021REMSYN070AAXX  05184 82571 32597 51406 10310 20226 39892 40088 82231 333 59002;EQDQ01  00002PRCP99
0208825710999992000050600004-05500-045270FM-12+017499999V0209999C000012200019N0100001N1+02721+02371101041ADDAA199000091GA1001+999999999GF100991001001999999001001KA1240M+03171MA1999999099071MD1999999+0001REMSYN082AAXX  06004 82571 32997 00000 10272 20237 39907 40104 333 10317 29078 55083 58000;EQDQ01  00002PRCP99
0186825710999992000050612004-05500-045270FM-12+017499999V0202301N001012200019N0100001N1+02661+02481101181ADDAA199000091GF107991041001017501031011KA1240N+02251MA1999999099221MD1999999-0081REMSYN076AAXX  06124 82571 32797 72302 10266 20248 39922 40118 84031 333 20225 59008;EQDQ01  00002PRCP99
0167825710999992000050618004-05500-045270FM-12+017499999V0200501N003110450019N0100001N1+03021+02481100871ADDAA199000091GF106991041051008001031001MA1999999098921MD1999999+0001REMSYN070AAXX  06184 82571 32597 60506 10302 20248 39892 40087 84530 333 58000;EQDQ01  00002PRCP99
0213825710999992000050700004-05500-045270FM-12+017499999V0209999C000010075019N0100001N1+02501+02471101121ADDAA106008991AY191061AY261061GF108991081051008001999999KA1240M+03191MA1999999099151MD1999999+0081MW1021REMSYN100AAXX  07004 82571 21597 80000 10250 20247 39915 40112 70296 885// 333 10319 29090 55056 58008 60091;
0185825710999992000050712004-05500-045270FM-12+017499999V0202301N001010075019N0100001N1+02481+02461101221ADDAA124008991GF106991061051008001001001KA1240N+02111MA1999999099241MD1999999+0021MW1101REMSYN088AAXX  07124 82571 21597 62302 10248 20246 39924 40122 710// 86500 333 20211 58002 60094;
0167825710999992000050718004-05500-045270FM-12+017499999V0202301N003110450019N0100001N1+03001+02511100891ADDAA199000091GF106991031031008001041001MA1999999098931MD1999999+0011REMSYN070AAXX  07184 82571 32597 62306 10300 20251 39893 40089 83340 333 58001;EQDQ01  00002PRCP99
0208825710999992000050800004-05500-045270FM-12+017499999V0209999C000012200019N0100001N1+02661+02561101111ADDAA199000091GA1001+999999999GF100991001001999999001001KA1240M+03141MA1999999099141MD1999999-0011REMSYN082AAXX  08004 82571 32997 00000 10266 20256 39914 40111 333 10314 29091 55047 59001;EQDQ01  00002PRCP99
0201825710999992000050812004-05500-045270FM-12+017499999V0202301N001010042019N0100001N1+02401+02351101451ADDAA124008991AY191061AY261061GF107991051021004501031001KA1240N+02151MA1999999099471MD1999999+0231MW1021REMSYN088AAXX  08124 82571 21497 72302 10240 20235 39947 40145 70296 85230 333 20215 58023 60094;
0167825710999992000050818004-05500-045270FM-12+017499999V0203201N002110450019N0100001N1+02931+02581101021ADDAA199000091GF105991031021008001041011MA1999999099061MD1999999+0131REMSYN070AAXX  08184 82571 32597 53204 10293 20258 39906 40102 83241 333 58013;EQDQ01  00002PRCP99
0213825710999992000050900004-05500-045270FM-12+017499999V0201801N001010042019N0100001N1+02381+02361101321ADDAA106009991AY191061AY261061GF108991081051004501999999KA1240M+03101MA1999999099331MD1999999+0191MW1131REMSYN100AAXX  09004 82571 21497 81802 10238 20236 39933 40132 71396 885// 333 10310 29094 55047 58019 60101;
0167825710999992000050918004-05500-045270FM-12+017499999V0201401N002112200019N0100001N1+03001+02391101121ADDAA199000091GF104991021011008001011011MA1999999099151MD1999999+0091REMSYN070AAXX  09184 82571 32597 41404 10300 20239 39915 40112 82111 333 58009;EQDQ01  00002PRCP99
0198825710999992000051000004-05500-045270FM-12+017499999V0203601N001012200019N0100001N1+02591+02481101361ADDAA199000091GF102991021001017501041001KA1240M+03071MA1999999099381MD1999999+0051REMSYN088AAXX  10004 82571 32797 23602 10259 20248 39938 40136 82040 333 10307 29087 55082 58005;EQDQ01  00002PRCP99
0186825710999992000051012004-05500-045270FM-12+017499999V0200901N001010042019N0100001N1+02601+02421101611ADDAA199000091GF106991061021004501001001KA1240N+02171MA1999999099631MD1999999+0131REMSYN076AAXX  10124 82571 32497 60902 10260 20242 39963 40161 86200 333 20217 58013;EQDQ01  00002PRCP99
0205825710999992000051100004-05500-045270FM-12+017499999V0203601N001012200019N0100001N1+02631+02571101421ADDAA106000191AY161061GF102991021001017501041001KA1240M+03131MA1999999099451MD1999999+0071MW1131REMSYN100AAXX  11004 82571 21797 23602 10263 20257 39945 40142 7136/ 82040 333 10313 29090 55078 58007 69911;
0193825710999992000051112004-05500-045270FM-12+017499999V0202301N001012200019N0100001N1+02451+02431101491ADDAA124000191AY141061GF104991041021004501001001KA1240N+02181MA1999999099511MD1999999-0121MW1011REMSYN088AAXX  11124 82571 21497 42302 10245 20243 39951 40149 7014/ 84200 333 20218 59012 69914;
0167825710999992000051118004-05500-045270FM-12+017499999V0200501N002112200019N0100001N1+03091+02461100991ADDAA199000091GF104991031021008001011001MA1999999099041MD1999999-0171REMSYN070AAXX  11184 82571 32597 40504 10309 20246 39904 40099 83210 333 59017;EQDQ01  00002PRCP99
0215825710999992000051200004-05500-045270FM-12+017499999V0209999C000012200019N0100001N1+02551+02491101231ADDAA106000391AY161061GA1001+999999999GF100991001001999999001001KA1240M+03171MA1999999099251MD1999999-0201MW1021REMSYN094AAXX  12004 82571 21997 00000 10255 20249 39925 40123 7026/ 333 10317 29090 55071 59020 69931;
0167825710999992000051218004-05500-045270FM-12+017499999V0201401N002110450019N0100001N1+02921+02361101011ADDAA199000091GF107991041021008001071001MA1999999099051MD1999999+0011REMSYN070AAXX  12184 82571 32597 71404 10292 20236 39905 40101 84270 333 58001;EQDQ01  00002PRCP99
0198825710999992000051300004-05500-045270FM-12+017499999V0209999C000012200019N0100001N1+02551+02461101221ADDAA199000091GF102991021001017501011001KA1240M+02991MA1999999099241MD1999999-0011REMSYN088AAXX  13004 82571 32797 20000 10255 20246 39924 40122 82010 333 10299 29090 55020 59001;EQDQ01  00002PRCP99
0186825710999992000051312004-05500-045270FM-12+017499999V0201401N004112200019N0100001N1+02591+02121101461ADDAA199000091GF102991011001017501031011KA1240N+02081MA1999999099481MD1999999-0021REMSYN076AAXX  13124 82571 32797 21408 10259 20212 39948 40146 81031 333 20208 59002;EQDQ01  00002PRCP99
0167825710999992000051318004-05500-045270FM-12+017499999V0201401N003112200019N0100001N1+02951+02231101121ADDAA199000091GF104991021021008001071001MA1999999099151MD1999999+0101REMSYN070AAXX  13184 82571 32597 41406 10295 20223 39915 40112 82270 333 58010;EQDQ01  00002PRCP99
0193825710999992000051412004-05500-045270FM-12+017499999V0202301N001012200019N0100001N1+02321+02271101451ADDAA106000191AY141061GF102991021001017501011001KA1240N+01991MA1999999099461MD1999999-0021MW1011REMSYN088AAXX  14124 82571 21797 22302 10232 20227 39946 40145 7014/ 82010 333 20199 59002 69911;
0167825710999992000051418004-05500-045270FM-12+017499999V0201401N003112200019N0100001N1+03171+02221101061ADDAA199000091GF102991021011008001001001MA1999999099101MD1999999-0051REMSYN070AAXX  14184 82571 32597 21406 10317 20222 39910 40106 82100 333 59005;EQDQ01  00002PRCP99
0208825710999992000051500004-05500-045270FM-12+017499999V0209999C000012200019N0100001N1+02521+02231101351ADDAA199000091GA1001+999999999GF100991001001999999001001KA1240M+03201MA1999999099361MD1999999-0031REMSYN082AAXX  15004 82571 32997 00000 10252 20223 39936 40135 333 10320 29080 55093 59003;EQDQ01  00002PRCP99
0186825710999992000051512004-05500-045270FM-12+017499999V0201401N005112200019N0100001N1+02681+02041101301ADDAA199000091GF103991021001017501061011KA1240N+02051MA1999999099331MD1999999-0131REMSYN076AAXX  15124 82571 32797 31410 10268 20204 39933 40130 82061 333 20205 59013;EQDQ01  00002PRCP99
0167825710999992000051518004-05500-045270FM-12+017499999V0201401N003112200019N0100001N1+03001+02171100951ADDAA199000091GF103991031021008001001001MA1999999098991MD1999999-0111REMSYN070AAXX  15184 82571 32597 31406 10300 20217 39899 40095 83200 333 59011;EQDQ01  00002PRCP99
0208825710999992000051600004-05500-045270FM-12+017499999V0209999C000012200019N0100001N1+02551+02361101111ADDAA199000091GA1001+999999999GF100991001001999999001001KA1240M+03061MA1999999099141MD1999999-0221REMSYN082AAXX  16004 82571 32997 00000 10255 20236 39914 40111 333 10306 29077 55106 59022;EQDQ01  00002PRCP99
0186825710999992000051612004-05500-045270FM-12+017499999V0200501N003112200019N0100001N1+02571+02291101241ADDAA199000091GF102991021001017501041001KA1240N+02051MA1999999099261MD1999999-0071REMSYN076AAXX  16124 82571 32797 20506 10257 20229 39926 40124 82040 333 20205 59007;EQDQ01  00002PRCP99
0167825710999992000051618004-05500-045270FM-12+017499999V0200501N003112200019N0100001N1+03101+02261100901ADDAA199000091GF103991031021008001001001MA1999999098941MD1999999-0051REMSYN070AAXX  16184 82571 32597 30506 10310 20226 39894 40090 83200 333 59005;EQDQ01  00002PRCP99
0208825710999992000051700004-05500-045270FM-12+017499999V0209999C000012200019N0100001N1+02601+02291101171ADDAA199000091GA1001+999999999GF100991001001999999001001KA1240M+03201MA1999999099201MD1999999+0061REMSYN082AAXX  17004 82571 32997 00000 10260 20229 39920 40117 333 10320 29078 55097 58006;EQDQ01  00002PRCP99
0186825710999992000051712004-05500-045270FM-12+017499999V0202301N001012200019N0100001N1+02461+02361101321ADDAA199000091GF103991021001017501051011KA1240N+02101MA1999999099341MD1999999+0081REMSYN076AAXX  17124 82571 32797 32302 10246 20236 39934 40132 82051 333 20210 58008;EQDQ01  00002PRCP99
0167825710999992000051718004-05500-045270FM-12+017499999V0200501N003112200019N0100001N1+03211+02231100831ADDAA199000091GF103991021021008001001011MA1999999098881MD1999999-0061REMSYN070AAXX  17184 82571 32597 30506 10321 20223 39888 40083 82201 333 59006;EQDQ01  00002PRCP99
0198825710999992000051800004-05500-045270FM-12+017499999V0200501N003110150019N0100001N1+02681+02411101201ADDAA199000091GF106991061001017501031001KA1240M+03271MA1999999099221MD1999999+0021REMSYN088AAXX  18004 82571 32797 60506 10268 20241 39922 40120 86030 333 10327 29080 55081 58002;EQDQ01  00002PRCP99
0186825710999992000051812004-05500-045270FM-12+017499999V0203201N001010075019N0100001N1+02541+02451101391ADDAA199000091GF108991081051008001999999KA1240N+02281MA1999999099421MD1999999+0081REMSYN076AAXX  18124 82571 32597 83202 10254 20245 39942 40139 885// 333 20228 58008;EQDQ01  00002PRCP99
0167825710999992000051818004-05500-045270FM-12+017499999V0202301N001012200019N0100001N1+03191+02431100891ADDAA199000091GF104991031021008001001011MA1999999098951MD1999999+0071REMSYN070AAXX  18184 82571 32597 42302 10319 20243 39895 40089 83201 333 58007;EQDQ01  00002PRCP99
0213825710999992000051900004-05500-045270FM-12+017499999V0201401N001010075019N0100001N1+02501+02471101311ADDAA106006191AY191061AY261061GF108991081051008001999999KA1240M+03271MA1999999099331MD1999999+0111MW1911REMSYN100AAXX  19004 82571 21597 81402 10250 20247 39933 40131 79196 885// 333 10327 29089 55064 58011 60061;
0193825710999992000051912004-05500-045270FM-12+017499999V0202301N001010075019N0100001N1+02481+02411101521ADDAA124007191AY161061GF108991081051008001999999KA1240N+02221MA1999999099531MD1999999+0111MW1021REMSYN088AAXX  19124 82571 21597 82302 10248 20241 39953 40152 7026/ 885// 333 20222 58011 60074;
0167825710999992000051918004-05500-045270FM-12+017499999V0200501N001011050019N0100001N1+03001+02531101051ADDAA199000091GF105991021031008001031011MA1999999099091MD1999999+0141REMSYN070AAXX  19184 82571 32597 50502 10300 20253 39909 40105 82331 333 58014;EQDQ01  00002PRCP99
0213825710999992000052000004-05500-045270FM-12+017499999V0202301N003110075019N0100001N1+02291+02281101521ADDAA106023991AY191061AY261061GF108991081051008001999999KA1240M+03041MA1999999099531MD1999999+0201MW1921REMSYN100AAXX  20004 82571 21597 82306 10229 20228 39953 40152 79296 885// 333 10304 29092 55065 58020 60241;
0201825710999992000052012004-05500-045270FM-12+017499999V0202301N001010075019N0100001N1+02371+02311101621ADDAA124024991AY191061AY261061GF106991051051008001001011KA1240N+02131MA1999999099621MD1999999+0091MW1011REMSYN088AAXX  20124 82571 21597 62302 10237 20231 39962 40162 70196 85501 333 20213 58009 60254;
0183825710999992000052018004-05500-045270FM-12+017499999V0200501N001012200019N0100001N1+03001+02341101161ADDAA199000091GF103991999021008001001001MA1999999099191MD1999999+0101REMSYN070AAXX  20184 82571 32597 30502 10300 20234 39919 40116 82200 333 58010;EQDQ01+000022SCOTLCQ02  00002PRCP99
0213825710999992000052100004-05500-045270FM-12+017499999V0203201N001012200019N0100001N1+02531+02441101411ADDAA106000191AY191061AY261061GF103991031001017501041001KA1240M+03091MA1999999099421MD1999999-0111MW1171REMSYN100AAXX  21004 82571 21797 33202 10253 20244 39942 40141 71796 83040 333 10309 29088 55076 59011 69911;
0173825710999992000052112004-05500-045270FM-12+017499999V0203601N001010075019N0100001N1+02471+02431101521ADDAA124000191GF108991081051008001999999KA1240N+02131MA1999999099531MD1999999-0091REMSYN082AAXX  21124 82571 22597 83602 10247 20243 39953 40152 885// 333 20213 59009 69914;
0166825710999992000052118004-05500-045270FM-12+017499999V0202301N001010450019N0100001N1+02711+02601101261ADDAA106000391GF106991031051008001031011MA1999999099271MD1999999+0081MW1951REMSYN082AAXX  21184 82571 21597 62302 10271 20260 39927 40126 795// 83531 333 58008 69931;
0223825710999992000052200004-05500-045270FM-12+017499999V0201401N001012200019N0100001N1+02421+02371101521ADDAA106009991AY191061AY261061GA1001+999999999GF100991001001999999001001KA1240M+03081MA1999999099531MD1999999+0111MW1001REMSYN094AAXX  22004 82571 21997 01402 10242 20237 39953 40152 70096 333 10308 29096 55026 58011 60101;
0193825710999992000052212004-05500-045270FM-12+017499999V0203601N001010042019N0100001N1+02381+02361101711ADDAA124010991AY161061GF108991081051004501999999KA1240N+02101MA1999999099711MD1999999+0181MW1021REMSYN088AAXX  22124 82571 21497 83602 10238 20236 39971 40171 7026/ 885// 333 20210 58018 60114;
0174825710999992000052218004-05500-045270FM-12+017499999V0200901N001012200019N0100001N1+02981+02401101341ADDAA106000191AY161061GF104991031021008001001011MA1999999099371MD1999999+0101MW1011REMSYN082AAXX  22184 82571 21597 40902 10298 20240 39937 40134 7016/ 83201 333 58010 69921;
0208825710999992000052300004-05500-045270FM-12+017499999V0209999C000012200019N0100001N1+02531+02451101581ADDAA199000091GA1001+999999999GF100991001001999999001001KA1240M+03051MA1999999099591MD1999999+0061REMSYN082AAXX  23004 82571 32997 00000 10253 20245 39959 40158 333 10305 29090 55068 58006;EQDQ01  00002PRCP99
0193825710999992000052312004-05500-045270FM-12+017499999V0201401N002110042019N0100001N1+02501+02211101811ADDAA124000191AY141061GF106991061021004501001001KA1240N+02021MA1999999099821MD1999999+0111MW1021REMSYN088AAXX  23124 82571 21497 61404 10250 20221 39982 40181 7024/ 86200 333 20202 58011 69924;
0167825710999992000052318004-05500-045270FM-12+017499999V0201401N002112200019N0100001N1+02991+02241101401ADDAA199000091GF104991031021008001001011MA1999999099431MD1999999+0061REMSYN070AAXX  23184 82571 32597 41404 10299 20224 39943 40140 83201 333 58006;EQDQ01  00002PRCP99
0208825710999992000052400004-05500-045270FM-12+017499999V0209999C000012200019N0100001N1+02531+02381101601ADDAA199000091GA1001+999999999GF100991001001999999001001KA1240M+03051MA1999999099611MD1999999+0021REMSYN082AAXX  24004 82571 32997 00000 10253 20238 39961 40160 333 10305 29082 55104 58002;EQDQ01  00002PRCP99
0186825710999992000052412004-05500-045270FM-12+017499999V0201401N003112200019N0100001N1+02541+02151101711ADDAA199000091GF103991031011004501001001KA1240N+02001MA1999999099721MD1999999-0101REMSYN076AAXX  24124 82571 32497 31406 10254 20215 39972 40171 83100 333 20200 59010;EQDQ01  00002PRCP99
0167825710999992000052418004-05500-045270FM-12+017499999V0201401N004112200019N0100001N1+02901+02121101381ADDAA199000091GF103991031021008001001001MA1999999099411MD1999999-0021REMSYN070AAXX  24184 82571 32597 31408 10290 20212 39941 40138 83200 333 59002;EQDQ01  00002PRCP99
0208825710999992000052500004-05500-045270FM-12+017499999V0209999C000012200019N0100001N1+02411+02131101551ADDAA199000091GA1001+999999999GF100991001001999999001001KA1240M+02971MA1999999099561MD1999999-0051REMSYN082AAXX  25004 82571 32997 00000 10241 20213 39956 40155 333 10297 29078 55097 59005;EQDQ01  00002PRCP99
0216825710999992000052512004-05500-045270FM-12+017499999V0201401N005112200019N0100001N1+02491+02031101591ADDAA199000091AY141061GA1001+999999999GF100991001001999999001001KA1240N+01801MA1999999099601MD1999999-0121MW1021REMSYN076AAXX  25124 82571 31997 01410 10249 20203 39960 40159 7024/ 333 20180 59012;EQDQ01  00002PRCP99
0167825710999992000052518004-05500-045270FM-12+017499999V0201401N003112200019N0100001N1+03011+02021101251ADDAA199000091GF102991021011004501001001MA1999999099271MD1999999-0141REMSYN070AAXX  25184 82571 32497 21406 10301 20202 39927 40125 82100 333 59014;EQDQ01  00002PRCP99
0208825710999992000052600004-05500-045270FM-12+017499999V0201401N001012200019N0100001N1+02421+02171101451ADDAA199000091GA1001+999999999GF100991001001999999001001KA1240M+03061MA1999999099461MD1999999-0101REMSYN082AAXX  26004 82571 32997 01402 10242 20217 39946 40145 333 10306 29076 55101 59010;EQDQ01  00002PRCP99
0216825710999992000052612004-05500-045270FM-12+017499999V0201401N003112200019N0100001N1+02551+02111101501ADDAA199000091AY141061GA1001+999999999GF100991001001999999001001KA1240N+01831MA1999999099511MD1999999-0091MW1021REMSYN076AAXX  26124 82571 31997 01406 10255 20211 39951 40150 7024/ 333 20183 59009;EQDQ01  00002PRCP99
0167825710999992000052618004-05500-045270FM-12+017499999V0201401N003112200019N0100001N1+03081+02131101161ADDAA199000091GF102991021011004501001001MA1999999099191MD1999999-0081REMSYN070AAXX  26184 82571 32497 21406 10308 20213 39919 40116 82100 333 59008;EQDQ01  00002PRCP99
0208825710999992000052700004-05500-045270FM-12+017499999V0209999C000012200019N0100001N1+02541+02361101351ADDAA199000091GA1001+999999999GF100991001001999999001001KA1240M+03111MA1999999099371MD1999999-0091REMSYN082AAXX  27004 82571 32997 00000 10254 20236 39937 40135 333 10311 29078 55106 59009;EQDQ01  00002PRCP99
0193825710999992000052712004-05500-045270FM-12+017499999V0202301N001012200019N0100001N1+02311+02271101441ADDAA106000191AY141061GF102991011011004501001011KA1240N+01861MA1999999099451MD1999999-0061MW1011REMSYN088AAXX  27124 82571 21497 22302 10231 20227 39945 40144 7014/ 81101 333 20186 59006 69911;
0167825710999992000052718004-05500-045270FM-12+017499999V0201401N001012200019N0100001N1+03061+02191100981ADDAA199000091GF103991021021008001001011MA1999999099021MD1999999-0171REMSYN070AAXX  27184 82571 32597 31402 10306 20219 39902 40098 82201 333 59017;EQDQ01  00002PRCP99
0208825710999992000052800004-05500-045270FM-12+017499999V0203201N001012200019N0100001N1+02581+02311101231ADDAA199000091GA1001+999999999GF100991001001999999001001KA1240M+03171MA1999999099251MD1999999-0121REMSYN082AAXX  28004 82571 32997 03202 10258 20231 39925 40123 333 10317 29082 55105 59012;EQDQ01  00002PRCP99
0146825710999992000052818004-05500-045270FM-12+017499999V0201401N001012200019N0100001N1+03111+02281100881ADDAA199000091GF103991021011004501001011MD1999999-0101REMSYN064AAXX  28184 82571 32497 31402 10311 20228 40088 82101 333 59010;EQDQ01  00002PRCP99
0208825710999992000052900004-05500-045270FM-12+017499999V0209999C000012200019N0100001N1+02641+02411101161ADDAA199000091GA1001+999999999GF100991001001999999001001KA1240M+03191MA1999999099181MD1999999-0071REMSYN082AAXX  29004 82571 32997 00000 10264 20241 39918 40116 333 10319 29082 55095 59007;EQDQ01  00002PRCP99
0193825710999992000052912004-05500-045270FM-12+017499999V0200501N001010042019N0100001N1+02331+02311101281ADDAA124000191AY141061GF108991081051004501999999KA1240N+01861MA1999999099301MD1999999-0031MW1021REMSYN088AAXX  29124 82571 21497 80502 10233 20231 39930 40128 7024/ 885// 333 20186 59003 69914;
0167825710999992000052918004-05500-045270FM-12+017499999V0200901N001012200019N0100001N1+03081+02371100891ADDAA199000091GF104991021021008001011011MA1999999098931MD1999999+0011REMSYN070AAXX  29184 82571 32597 40902 10308 20237 39893 40089 82211 333 58001;EQDQ01  00002PRCP99
0210825710999992000053000004-05500-045270FM-12+017499999V0202301N001012200019N0100001N1+02521+02451101091ADDAA199000091GF101991011001017501041001KA1240M+03131MA1999999099101MD1999999-0081MW1131REMSYN094AAXX  30004 82571 31797 12302 10252 20245 39910 40109 713// 81040 333 10313 29089 55054 59008;EQDQ01  00002PRCP99
0206825710999992000053012004-05500-045270FM-12+017499999V0203601N001010075019N0100001N1+02401+02371101381ADDAA199000091AY141061GF106991061051008001001001KA1240N+02041MA1999999099391MD1999999+0091MW1021REMSYN082AAXX  30124 82571 31597 63602 10240 20237 39939 40138 7024/ 86500 333 20204 58009;EQDQ01  00002PRCP99
0167825710999992000053018004-05500-045270FM-12+017499999V0200501N001012200019N0100001N1+03071+02371100981ADDAA199000091GF105991031021008001001011MA1999999098991MD1999999+0061REMSYN070AAXX  30184 82571 32597 50502 10307 20237 39899 40098 83201 333 58006;EQDQ01  00002PRCP99
0215825710999992000053100004-05500-045270FM-12+017499999V0209999C000012200019N0100001N1+02511+02471101181ADDAA106001091AY161061GA1001+999999999GF100991001001999999001001KA1240M+03161MA1999999099201MD1999999+0101MW1001REMSYN094AAXX  31004 82571 21997 00000 10251 20247 39920 40118 7006/ 333 10316 29090 55062 58010 60011;
0173825710999992000053112004-05500-045270FM-12+017499999V0201401N001010450019N0100001N1+02451+02251101401ADDAA124001091GF106991041051008001031001KA1240N+02081MA1999999099421MD1999999+0031REMSYN082AAXX  31124 82571 22597 61402 10245 20225 39942 40140 84530 333 20208 58003 60014;
0167825710999992000053118004-05500-045270FM-12+017499999V0201401N001010450019N0100001N1+03001+02321100961ADDAA199000091GF106991021021008001061011MA1999999099001MD1999999+0011REMSYN070AAXX  31184 82571 32597 61402 10300 20232 39900 40096 82261 333 58001;EQDQ01  00002PRCP99
0208825710999992000060100004-05500-045270FM-12+017499999V0203201N001012200019N0100001N1+02601+02501101171ADDAA199000091GA1001+999999999GF100991001001999999001001KA1240M+03071MA1999999099191MD1999999-0011REMSYN082AAXX  01004 82571 32997 03202 10260 20250 39919 40117 333 10307 29086 55052 59001;EQDQ01  00002PRCP99
0206825710999992000060112004-05500-045270FM-12+017499999V0200501N001010075019N0100001N1+02501+02381101461ADDAA199000091AY141061GF108991081051008001999999KA1240N+02111MA1999999099481MD1999999+0061MW1021REMSYN082AAXX  01124 82571 32597 80502 10250 20238 39948 40146 7024/ 885// 333 20211 58006;EQDQ01  00002PRCP99
0182825710999992000060118004-05500-045270FM-12+017499999V0200501N003110075019N0100001N1+02491+02191101171ADDAA106000591AY191061AY261061GF108991081051008001999999MA1999999099181MD1999999+0191MW1171REMSYN082AAXX  01184 82571 21597 80506 10249 20219 39918 40117 71796 885// 333 58019 69951;
0208825710999992000060200004-05500-045270FM-12+017499999V0209999C000012200019N0100001N1+02361+02291101291ADDAA199000091GA1001+999999999GF100991001001999999001001KA1240M+03081MA1999999099301MD1999999+0111REMSYN082AAXX  02004 82571 32997 00000 10236 20229 39930 40129 333 10308 29092 55045 58011;EQDQ01  00002PRCP99
0173825710999992000060212004-05500-045270FM-12+017499999V0200501N001012200019N0100001N1+02611+02371101471ADDAA124000591GF102991021001017501031001KA1240N+02061MA1999999099481MD1999999+0001REMSYN082AAXX  02124 82571 22797 20502 10261 20237 39948 40147 82030 333 20206 58000 69954;
0167825710999992000060218004-05500-045270FM-12+017499999V0200901N003112200019N0100001N1+03141+02181101071ADDAA199000091GF102991021021008001001001MA1999999099141MD1999999-0081REMSYN070AAXX  02184 82571 32597 20906 10314 20218 39914 40107 82200 333 59008;EQDQ01  00002PRCP99
0223825710999992000060300004-05500-045270FM-12+017499999V0202301N001012200019N0100001N1+02401+02331101281ADDAA106004191AY191061AY261061GA1001+999999999GF100991001001999999001001KA1240M+03191MA1999999099301MD1999999+0001MW1131REMSYN094AAXX  03004 82571 21997 02302 10240 20233 39930 40128 71396 333 10319 29084 55104 58000 60041;
0173825710999992000060312004-05500-045270FM-12+017499999V0201401N001010450019N0100001N1+02501+02411101521ADDAA124004191GF105991031051008001031001KA1240N+01981MA1999999099531MD1999999+0051REMSYN082AAXX  03124 82571 22597 51402 10250 20241 39953 40152 83530 333 20198 58005 60044;
0167825710999992000060318004-05500-045270FM-12+017499999V0201401N001012200019N0100001N1+03041+02151101251ADDAA199000091GF103991021021008001031001MA1999999099281MD1999999+0171REMSYN070AAXX  03184 82571 32597 31402 10304 20215 39928 40125 82230 333 58017;EQDQ01  00002PRCP99
0208825710999992000060400004-05500-045270FM-12+017499999V0209999C000012200019N0100001N1+02521+02311101451ADDAA199000091GA1001+999999999GF100991001001999999001001KA1240M+03141MA1999999099461MD1999999+0161REMSYN082AAXX  04004 82571 32997 00000 10252 20231 39946 40145 333 10314 29082 55099 58016;EQDQ01  00002PRCP99
0167825710999992000060418004-05500-045270FM-12+017499999V0201401N003112200019N0100001N1+03021+02041101351ADDAA199000091GF102991021021008001001001MA1999999099381MD1999999+0101REMSYN070AAXX  04184 82571 32597 21406 10302 20204 39938 40135 82200 333 58010;EQDQ01  00002PRCP99
0208825710999992000060500004-05500-045270FM-12+017499999V0200501N001012200019N0100001N1+02411+02231101521ADDAA199000091GA1001+999999999GF100991001001999999001001KA1240M+03091MA1999999099531MD1999999+0071REMSYN082AAXX  05004 82571 32997 00502 10241 20223 39953 40152 333 10309 29077 55106 58007;EQDQ01  00002PRCP99
0182825710999992000060512004-05500-045270FM-12+017499999V0200901N004112200019N0100001N1+02541+02061101661ADDAA199000091GA1001+999999999GF100991001001999999001001KA1240N+01821MA1999999099671REMSYN070AAXX  05124 82571 32997 00908 10254 20206 39967 40166 333 20182 59904;EQDQ01  00002PRCP99
0167825710999992000060518004-05500-045270FM-12+017499999V0200901N003112200019N0100001N1+02991+02031101361ADDAA199000091GF102991021011004501001001MA1999999099381MD1999999+0001REMSYN070AAXX  05184 82571 32497 20906 10299 20203 39938 40136 82100 333 58000;EQDQ01  00002PRCP99
0208825710999992000060600004-05500-045270FM-12+017499999V0209999C000012200019N0100001N1+02421+02261101481ADDAA199000091GA1001+999999999GF100991001001999999001001KA1240M+03091MA1999999099491MD1999999-0041REMSYN082AAXX  06004 82571 32997 00000 10242 20226 39949 40148 333 10309 29078 55105 59004;EQDQ01  00002PRCP99
0186825710999992000060612004-05500-045270FM-12+017499999V0201401N007212200019N0100001N1+02511+02051101671ADDAA199000091GF103991031011004501001001KA1240N+01781MA1999999099681MD1999999+0011REMSYN076AAXX  06124 82571 32497 31414 10251 20205 39968 40167 83100 333 20178 58001;EQDQ01  00002PRCP99
0167825710999992000060618004-05500-045270FM-12+017499999V0201401N002112200019N0100001N1+02961+02021101411ADDAA199000091GF103991031021008001001001MA1999999099431MD1999999+0051REMSYN070AAXX  06184 82571 32597 31404 10296 20202 39943 40141 83200 333 58005;EQDQ01  00002PRCP99
0198825710999992000060700004-05500-045270FM-12+017499999V0209999C000012200019N0100001N1+02461+02281101561ADDAA199000091GF101991011001017501011001KA1240M+03021MA1999999099571MD1999999+0081REMSYN088AAXX  07004 82571 32797 10000 10246 20228 39957 40156 81010 333 10302 29078 55104 58008;EQDQ01  00002PRCP99
0186825710999992000060712004-05500-045270FM-12+017499999V0201401N004112200019N0100001N1+02571+02011101591ADDAA199000091GF101991011001017501031001KA1240N+01831MA1999999099601MD1999999-0081REMSYN076AAXX  07124 82571 32797 11408 10257 20201 39960 40159 81030 333 20183 59008;EQDQ01  00002PRCP99
0167825710999992000060718004-05500-045270FM-12+017499999V0201401N003112200019N0100001N1+03001+02051101371ADDAA199000091GF103991031021004501001001MA1999999099391MD1999999-0041REMSYN070AAXX  07184 82571 32497 31406 10300 20205 39939 40137 83200 333 59004;EQDQ01  00002PRCP99
0198825710999992000060800004-05500-045270FM-12+017499999V0201401N001010150019N0100001N1+02581+02121101491ADDAA199000091GF106991061001017501051001KA1240M+03061MA1999999099511MD1999999-0061REMSYN088AAXX  08004 82571 32797 61402 10258 20212 39951 40149 86050 333 10306 29070 55099 59006;EQDQ01  00002PRCP99
0216825710999992000060812004-05500-045270FM-12+017499999V0201401N004112200019N0100001N1+02581+01941101571ADDAA199000091AY141061GA1001+999999999GF100991001001999999001001KA1240N+01961MA1999999099591MD1999999-0011MW1021REMSYN076AAXX  08124 82571 31997 01408 10258 20194 39959 40157 7024/ 333 20196 59001;EQDQ01  00002PRCP99
0167825710999992000060818004-05500-045270FM-12+017499999V0200901N002110450019N0100001N1+02961+02151101331ADDAA199000091GF106991031021008001051001MA1999999099361MD1999999-0031REMSYN070AAXX  08184 82571 32597 60904 10296 20215 39936 40133 83250 333 59003;EQDQ01  00002PRCP99
0198825710999992000060900004-05500-045270FM-12+017499999V0209999C000010150019N0100001N1+02631+02501101511ADDAA199000091GF107991071001017501051001KA1240M+03081MA1999999099531MD1999999+0021REMSYN088AAXX  09004 82571 32797 70000 10263 20250 39953 40151 87050 333 10308 29078 55077 58002;EQDQ01  00002PRCP99
0186825710999992000060912004-05500-045270FM-12+017499999V0201801N001010090019N0100001N1+02541+02271101581ADDAA199000091GF106991061081004501001001KA1240N+02121MA1999999099601MD1999999+0011REMSYN076AAXX  09124 82571 32497 61802 10254 20227 39960 40158 86800 333 20212 58001;EQDQ01  00002PRCP99
0167825710999992000060918004-05500-045270FM-12+017499999V0200901N002112200019N0100001N1+03011+02161101231ADDAA199000091GF103991021021008001011001MA1999999099271MD1999999-0091REMSYN070AAXX  09184 82571 32597 30904 10301 20216 39927 40123 82210 333 59009;EQDQ01  00002PRCP99
0198825710999992000061000004-05500-045270FM-12+017499999V0200501N001012200019N0100001N1+02531+02351101501ADDAA199000091GF103991031001017501031001KA1240M+03091MA1999999099521MD1999999-0011REMSYN088AAXX  10004 82571 32797 30502 10253 20235 39952 40150 83030 333 10309 29081 55066 59001;EQDQ01  00002PRCP99
0186825710999992000061012004-05500-045270FM-12+017499999V0201401N001012200019N0100001N1+02611+02271101601ADDAA199000091GF102991011011004501011001KA1240N+02221MA1999999099621MD1999999+0021REMSYN076AAXX  10124 82571 32497 21402 10261 20227 39962 40160 81110 333 20222 58002;EQDQ01  00002PRCP99
0167825710999992000061018004-05500-045270FM-12+017499999V0201401N003112200019N0100001N1+03031+01971101221ADDAA199000091GF102991021011008001001001MA1999999099261MD1999999-0011REMSYN070AAXX  10184 82571 32597 21406 10303 20197 39926 40122 82100 333 59001;EQDQ01  00002PRCP99
0198825710999992000061100004-05500-045270FM-12+017499999V0202701N001012200019N0100001N1+02481+02271101461ADDAA199000091GF101991011001017501031001KA1240M+03131MA1999999099481MD1999999-0041REMSYN088AAXX  11004 82571 32797 12702 10248 20227 39948 40146 81030 333 10313 29078 55088 59004;EQDQ01  00002PRCP99
0167825710999992000061118004-05500-045270FM-12+017499999V0201401N004112200019N0100001N1+03121+02111101201ADDAA199000091GF103991031011008001001001MA1999999099231MD1999999-0031REMSYN070AAXX  11184 82571 32597 31408 10312 20211 39923 40120 83100 333 59003;EQDQ01  00002PRCP99
0186825710999992000061212004-05500-045270FM-12+017499999V0201401N001012200019N0100001N1+02551+02271101551ADDAA199000091GF102991021001017501031001KA1240N+01871MA1999999099571MD1999999+0011REMSYN076AAXX  12124 82571 32797 21402 10255 20227 39957 40155 82030 333 20187 58001;EQDQ01  00002PRCP99
0167825710999992000061218004-05500-045270FM-12+017499999V0201401N001012200019N0100001N1+03041+02181101151ADDAA199000091GF103991031001017501031001MA1999999099181MD1999999-0051REMSYN070AAXX  12184 82571 32797 31402 10304 20218 39918 40115 83030 333 59005;EQDQ01  00002PRCP99
0208825710999992000061300004-05500-045270FM-12+017499999V0201401N001012200019N0100001N1+02601+02231101221ADDAA199000091GA1001+999999999GF100991001001999999001001KA1240M+03181MA1999999099241MD1999999-0161REMSYN082AAXX  13004 82571 32997 01402 10260 20223 39924 40122 333 10318 29076 55085 59016;EQDQ01  00002PRCP99
0186825710999992000061312004-05500-045270FM-12+017499999V0200901N001010450019N0100001N1+02631+02411101371ADDAA199000091GF106991031021008001051011KA1240N+02081MA1999999099401MD1999999-0171REMSYN076AAXX  13124 82571 32597 60902 10263 20241 39940 40137 83251 333 20208 59017;EQDQ01  00002PRCP99
0174825710999992000061318004-05500-045270FM-12+017499999V0200901N003112200019N0100001N1+03081+02191101051ADDAA106000191AY161061GF102991021021008001001001MA1999999099091MD1999999-0091MW1021REMSYN082AAXX  13184 82571 21597 20906 10308 20219 39909 40105 7026/ 82200 333 59009 69911;
0208825710999992000061400004-05500-045260FM-12+017499999V0202301N001012200019N0100001N1+02551+02311101271ADDAA199000091GA1001+999999999GF100991001001999999001001KA1240M+03181MA1999999099301MD1999999+0061REMSYN082AAXX  14004 82571 32597 02302 10255 20231 39930 40127 333 10318 29080 55078 58006;EQDQ01  00002PRCP99
0173825710999992000061412004-05500-045260FM-12+017499999V0201401N005112200019N0100001N1+02651+02021101371ADDAA124000191GF104991001001999999001011KA1240N+01881MA1999999099401MD1999999+0001REMSYN082AAXX  14124 82571 22997 41410 10265 20202 39940 40137 80001 333 20188 58000 69914;
0167825710999992000061418004-05500-045260FM-12+017499999V0201401N003112200019N0100001N1+03071+02131101011ADDAA199000091GF104991041021008001001001MA1999999099051MD1999999-0041REMSYN070AAXX  14184 82571 32597 41406 10307 20213 39905 40101 84200 333 59004;EQDQ01  00002PRCP99
0208825710999992000061500004-05500-045260FM-12+017499999V0202301N001012200019N0100001N1+02541+02351101171ADDAA199000091GA1001+999999999GF100991001001999999001001KA1240M+03191MA1999999099201MD1999999-0101REMSYN082AAXX  15004 82571 32997 02302 10254 20235 39920 40117 333 10319 29076 55103 59010;EQDQ01  00002PRCP99
0186825710999992000061512004-05500-045260FM-12+017499999V0201401N001019999999N0100001N1+02421+02091101401ADDAA199000091GF106991031001008001031011KA1240N+01951MA1999999099421MD1999999+0021REMSYN076AAXX  15124 82571 32597 61402 10242 20209 39942 40140 83031 333 20195 58002;EQDQ01  00002PRCP99
0167825710999992000061518004-05500-045260FM-12+017499999V0201401N003110450019N0100001N1+03001+02141101051ADDAA199000091GF106991031021008001031011MA1999999099081MD1999999+0031REMSYN070AAXX  15184 82571 32597 61406 10300 20214 39908 40105 83231 333 58003;EQDQ01  00002PRCP99
0208825710999992000061600004-05500-045260FM-12+017499999V0202301N001012200019N0100001N1+02581+02401101231ADDAA199000091GA1001+999999999GF100991001001999999001001KA1240M+03081MA1999999099251MD1999999+0051REMSYN082AAXX  16004 82571 32997 02302 10258 20240 39925 40123 333 10308 29081 55072 58005;EQDQ01  00002PRCP99
0186825710999992000061612004-05500-045260FM-12+017499999V0201801N001010450019N0100001N1+02501+02341101471ADDAA199000091GF106991041051008001031001KA1240N+02041MA1999999099481MD1999999+0061REMSYN076AAXX  16124 82571 32597 61802 10250 20234 39948 40147 84530 333 20204 58006;EQDQ01  00002PRCP99
0167825710999992000061618004-05500-045260FM-12+017499999V0201401N005111050019N0100001N1+03051+02111101071ADDAA199000091GF105991021021008001031011MA1999999099111MD1999999+0031REMSYN070AAXX  16184 82571 32597 51410 10305 20211 39911 40107 82231 333 58003;EQDQ01  00002PRCP99
0174825710999992000061718004-05500-045260FM-12+017499999V0201401N003112200019N0100001N1+03051+02221101101ADDAA106000191AY161061GF104991021021008001001011MA1999999099141MD1999999+0031MW1011REMSYN082AAXX  17184 82571 21597 41406 10305 20222 39914 40110 7016/ 82201 333 58003 69921;
0215825710999992000061800004-05500-045260FM-12+017499999V0209999C000012200019N0100001N1+02551+02421101191ADDAA106000191AY161061GA1001+999999999GF100991001001999999001001KA1240M+03161MA1999999099211MD1999999-0041MW1001REMSYN094AAXX  18004 82571 21997 00000 10255 20242 39921 40119 7006/ 333 10316 29083 55071 59004 69911;
0173825710999992000061812004-05500-045260FM-12+017499999V0200501N001012200019N0100001N1+02431+02391101411ADDAA124000391GF103991021021008001031001KA1240N+01911MA1999999099431MD1999999+0001REMSYN082AAXX  18124 82571 22597 30502 10243 20239 39943 40141 82230 333 20191 58000 69934;
0167825710999992000061818004-05500-045260FM-12+017499999V0201801N001012200019N0100001N1+03041+02281101081ADDAA199000091GF103991031021008001001001MA1999999099121MD1999999-0021REMSYN070AAXX  18184 82571 32597 31802 10304 20228 39912 40108 83200 333 59002;EQDQ01  00002PRCP99
0208825710999992000061900004-05500-045260FM-12+017499999V0209999C000012200019N0100001N1+02621+02421101201ADDAA199000091GA1001+999999999GF100991001001999999001001KA1240M+03221MA1999999099221MD1999999+0011REMSYN082AAXX  19004 82571 32997 00000 10262 20242 39922 40120 333 10322 29085 55088 58001;EQDQ01  00002PRCP99
0186825710999992000061912004-05500-045260FM-12+017499999V0202301N001010042019N0100001N1+02421+02321101571ADDAA199000091GF107991071051004501001001KA1240N+01971MA1999999099581MD1999999+0151REMSYN076AAXX  19124 82571 32497 72302 10242 20232 39958 40157 87500 333 20197 58015;EQDQ01  00002PRCP99
0167825710999992000061918004-05500-045260FM-12+017499999V0201401N001012200019N0100001N1+03131+02351101131ADDAA199000091GF104991031021008001031001MA1999999099171MD1999999+0051REMSYN070AAXX  19184 82571 32597 41402 10313 20235 39917 40113 83230 333 58005;EQDQ01  00002PRCP99
0198825710999992000062000004-05500-045260FM-12+017499999V0203201N001012200019N0100001N1+02631+02481101351ADDAA199000091GF101991011001017501041001KA1240M+03241MA1999999099371MD1999999+0151REMSYN088AAXX  20004 82571 32797 13202 10263 20248 39937 40135 81040 333 10324 29085 55065 58015;EQDQ01  00002PRCP99
0193825710999992000062012004-05500-045260FM-12+017499999V0201401N002110042019N0100001N1+02371+02311101621ADDAA124000191AY141061GF108991081051004501999999KA1240N+02041MA1999999099631MD1999999+0051MW1021REMSYN088AAXX  20124 82571 21497 81404 10237 20231 39963 40162 7024/ 885// 333 20204 58005 69914;
0167825710999992000062018004-05500-045260FM-12+017499999V0200501N001010075019N0100001N1+03031+02411101231ADDAA199000091GF106991051021008001041001MA1999999099271MD1999999+0101REMSYN070AAXX  20184 82571 32597 60502 10303 20241 39927 40123 85240 333 58010;EQDQ01  00002PRCP99
0198825710999992000062100004-05500-045260FM-12+017499999V0200501N001012200019N0100001N1+02441+02351101481ADDAA199000091GF102991021001017501041001KA1240M+03091MA1999999099491MD1999999-0121REMSYN088AAXX  21004 82571 32797 20502 10244 20235 39949 40148 82040 333 10309 29089 55029 59012;EQDQ01  00002PRCP99
0167825710999992000062118004-05500-045260FM-12+017499999V0200501N002112200019N0100001N1+03121+02281101211ADDAA199000091GF104991031021008001011001MA1999999099241MD1999999-0031REMSYN070AAXX  21184 82571 32597 40504 10312 20228 39924 40121 83210 333 59003;EQDQ01  00002PRCP99
0210825710999992000062200004-05500-045260FM-12+017499999V0200901N002112200019N0100001N1+02531+02331101501ADDAA199000091GF103991031021008001001001KA1240M+03221MA1999999099511MD1999999+0021MW1131REMSYN094AAXX  22004 82571 31597 30904 10253 20233 39951 40150 713// 83200 333 10322 29083 55088 58002;EQDQ01  00002PRCP99
0186825710999992000062212004-05500-045260FM-12+017499999V0200501N001010042019N0100001N1+02501+02321101591ADDAA199000091GF108991081051004501999999KA1240N+02101MA1999999099601MD1999999-0031REMSYN076AAXX  22124 82571 32497 80502 10250 20232 39960 40159 885// 333 20210 59003;EQDQ01  00002PRCP99
0167825710999992000062218004-05500-045260FM-12+017499999V0200501N002110450019N0100001N1+03081+02321101141ADDAA199000091GF106991041051008001031011MA1999999099181MD1999999-0061REMSYN070AAXX  22184 82571 32597 60504 10308 20232 39918 40114 84531 333 59006;EQDQ01  00002PRCP99
0198825710999992000062300004-05500-045260FM-12+017499999V0209999C000012200019N0100001N1+02481+02381101311ADDAA199000091GF103991031001017501031001KA1240M+03141MA1999999099331MD1999999-0181REMSYN088AAXX  23004 82571 32797 30000 10248 20238 39933 40131 83030 333 10314 29086 55058 59018;EQDQ01  00002PRCP99
0186825710999992000062312004-05500-045260FM-12+017499999V0201801N001010042019N0100001N1+02321+02271101551ADDAA199000091GF108991081051004501999999KA1240N+01981MA1999999099551MD1999999-0051REMSYN076AAXX  23124 82571 32497 81802 10232 20227 39955 40155 885// 333 20198 59005;EQDQ01  00002PRCP99
0174825710999992000062318004-05500-045260FM-12+017499999V0203201N001010120019N0100001N1+02561+02401101201ADDAA106000591AY161061GF106991061081008001001001MA1999999099211MD1999999+0031MW1021REMSYN082AAXX  23184 82571 21597 63202 10256 20240 39921 40120 7026/ 86800 333 58003 69941;
0205825710999992000062400004-05500-045260FM-12+017499999V0209999C000012200019N0100001N1+02351+02261101321ADDAA106002091AY161061GF103991031001017501031001KA1240M+02771MA1999999099331MD1999999+0001MW1131REMSYN100AAXX  24004 82571 21797 30000 10235 20226 39933 40132 7136/ 83030 333 10277 29094 55009 58000 60021;
0173825710999992000062412004-05500-045260FM-12+017499999V0200501N005112200019N0100001N1+02541+01981101591ADDAA124002091GF102991021001017501031001KA1240N+01991MA1999999099601MD1999999+0051REMSYN082AAXX  24124 82571 22797 20510 10254 20198 39960 40159 82030 333 20199 58005 60024;
0174825710999992000062418004-05500-045260FM-12+017499999V0201401N003112200019N0100001N1+03001+02031101181ADDAA106000191AY161061GF104991031021008001001011MA1999999099211MD1999999+0001MW1011REMSYN082AAXX  24184 82571 21597 41406 10300 20203 39921 40118 7016/ 83201 333 58000 69911;
0208825710999992000062500004-05500-045260FM-12+017499999V0209999C000012200019N0100001N1+02501+02211101351ADDAA199000091GA1001+999999999GF100991001001999999001001KA1240M+03111MA1999999099371MD1999999+0041REMSYN082AAXX  25004 82571 32997 00000 10250 20221 39937 40135 333 10311 29074 55103 58004;EQDQ01  00002PRCP99
0183825710999992000062512004-05500-045260FM-12+017499999V0201401N001012200019N0100001N1+02401+99999101491ADDAA124000191GA1001+999999999GF100991001001999999001001KA1240N+01761MA1999999099501MD1999999-0101REMSYN076AAXX  25124 82571 22997 01402 10240 20299 39950 40149 333 20176 59010 69914;
0167825710999992000062518004-05500-045260FM-12+017499999V0200501N003112200019N0100001N1+03011+01991101111ADDAA199000091GF104991041021008001001001MA1999999099151MD1999999-0061REMSYN070AAXX  25184 82571 32597 40506 10301 20199 39915 40111 84200 333 59006;EQDQ01  00002PRCP99
0208825710999992000062600004-05500-045260FM-12+017499999V0209999C000012200019N0100001N1+02481+02231101321ADDAA199000091GA1001+999999999GF100991001001999999001001KA1240M+03141MA1999999099331MD1999999-0041REMSYN082AAXX  26004 82571 32997 00000 10248 20223 39933 40132 333 10314 29076 55105 59004;EQDQ01  00002PRCP99
0186825710999992000062612004-05500-045260FM-12+017499999V0201401N003112200019N0100001N1+02301+02031101471ADDAA199000091GF104991001001999999001011KA1240N+01741MA1999999099481MD1999999-0021REMSYN076AAXX  26124 82571 32997 41406 10230 20203 39948 40147 80001 333 20174 59002;EQDQ01  00002PRCP99
0167825710999992000062618004-05500-045260FM-12+017499999V0202301N001012200019N0100001N1+03031+02031101141ADDAA199000091GF102991021021008001001001MA1999999099161MD1999999+0011REMSYN070AAXX  26184 82571 32597 22302 10303 20203 39916 40114 82200 333 58001;EQDQ01  00002PRCP99
0208825710999992000062700004-05500-045260FM-12+017499999V0209999C000012200019N0100001N1+02581+02331101341ADDAA199000091GA1001+999999999GF100991001001999999001001KA1240M+03171MA1999999099351MD1999999+0021REMSYN082AAXX  27004 82571 32997 00000 10258 20233 39935 40134 333 10317 29078 55100 58002;EQDQ01  00002PRCP99
0186825710999992000062712004-05500-045260FM-12+017499999V0201401N003112200019N0100001N1+02481+02291101521ADDAA199000091GF106991041001017501031011KA1240N+01981MA1999999099541MD1999999+0061REMSYN076AAXX  27124 82571 32797 61406 10248 20229 39954 40152 84031 333 20198 58006;EQDQ01  00002PRCP99
0167825710999992000062718004-05500-045260FM-12+017499999V0201401N003110450019N0100001N1+03041+02031101191ADDAA199000091GF106991041051008001031001MA1999999099221MD1999999+0061REMSYN070AAXX  27184 82571 32597 61406 10304 20203 39922 40119 84530 333 58006;EQDQ01  00002PRCP99
0208825710999992000062800004-05500-045260FM-12+017499999V0201401N001012200019N0100001N1+02481+02231101351ADDAA199000091GA1001+999999999GF100991001001999999001001KA1240M+03131MA1999999099371MD1999999+0021REMSYN082AAXX  28004 82571 32997 01402 10248 20223 39937 40135 333 10313 29076 55060 58002;EQDQ01  00002PRCP99
0186825710999992000062812004-05500-045260FM-12+017499999V0201401N005110450019N0100001N1+02631+02091101461ADDAA199000091GF105991041021004501031001KA1240N+01961MA1999999099481MD1999999-0061REMSYN076AAXX  28124 82571 32497 51410 10263 20209 39948 40146 84230 333 20196 59006;EQDQ01  00002PRCP99
0167825710999992000062818004-05500-045260FM-12+017499999V0201401N002112200019N0100001N1+02961+02281101131ADDAA199000091GF103991031021008001001001MA1999999099161MD1999999-0061REMSYN070AAXX  28184 82571 32597 31404 10296 20228 39916 40113 83200 333 59006;EQDQ01  00002PRCP99
0208825710999992000062900004-05500-045260FM-12+017499999V0209999C000012200019N0100001N1+02541+02271101251ADDAA199000091GA1001+999999999GF100991001001999999001001KA1240M+03071MA1999999099281MD1999999-0091REMSYN082AAXX  29004 82571 32997 00000 10254 20227 39928 40125 333 10307 29077 55076 59009;EQDQ01  00002PRCP99
0186825710999992000062912004-05500-045260FM-12+017499999V0201401N001012200019N0100001N1+02611+02121101451ADDAA199000091GF102991021021004501001001KA1240N+01991MA1999999099471MD1999999-0011REMSYN076AAXX  29124 82571 32497 21402 10261 20212 39947 40145 82200 333 20199 59001;EQDQ01  00002PRCP99
0167825710999992000062918004-05500-045260FM-12+017499999V0201401N002112200019N0100001N1+03081+02011101081ADDAA199000091GF104991021021008001031001MA1999999099121MD1999999-0041REMSYN070AAXX  29184 82571 32597 41404 10308 20201 39912 40108 82230 333 59004;EQDQ01  00002PRCP99
0208825710999992000063000004-05500-045260FM-12+017499999V0201401N001012200019N0100001N1+02601+02251101321ADDAA199000091GA1001+999999999GF100991001001999999001001KA1240M+03131MA1999999099351MD1999999+0071REMSYN082AAXX  30004 82571 32997 01402 10260 20225 39935 40132 333 10313 29072 55092 58007;EQDQ01  00002PRCP99
0186825710999992000063012004-05500-045260FM-12+017499999V0201401N002112200019N0100001N1+02721+02121101531ADDAA199000091GF103991021001017501031011KA1240N+02001MA1999999099561MD1999999+0091REMSYN076AAXX  30124 82571 32797 31404 10272 20212 39956 40153 82031 333 20200 58009;EQDQ01  00002PRCP99
0167825710999992000063018004-05500-045260FM-12+017499999V0201401N002112200019N0100001N1+03121+02081101111ADDAA199000091GF104991031021008001001011MA1999999099151MD1999999+0031REMSYN070AAXX  30184 82571 32597 41404 10312 20208 39915 40111 83201 333 58003;EQDQ01  00002PRCP99
0208825710999992000070100004-05500-045260FM-12+017499999V0209999C000012200019N0100001N1+02631+02351101331ADDAA199000091GA1001+999999999GF100991001001999999001001KA1240M+03201MA1999999099361MD1999999+0011REMSYN082AAXX  01004 82571 32997 00000 10263 20235 39936 40133 333 10320 29073 55099 58001;EQDQ01  00002PRCP99
0186825710999992000070112004-05500-045260FM-12+017499999V0200901N003112200019N0100001N1+02621+02181101491ADDAA199000091GF103991031021004501001001KA1240N+01981MA1999999099511MD1999999-0051REMSYN076AAXX  01124 82571 32497 30906 10262 20218 39951 40149 83200 333 20198 59005;EQDQ01  00002PRCP99
0167825710999992000070118004-05500-045260FM-12+017499999V0200901N003112200019N0100001N1+03131+02101101011ADDAA199000091GF103991031021008001001001MA1999999099051MD1999999-0101REMSYN070AAXX  01184 82571 32597 30906 10313 20210 39905 40101 83200 333 59010;EQDQ01  00002PRCP99
0208825710999992000070200004-05500-045260FM-12+017499999V0209999C000012200019N0100001N1+02581+02351101221ADDAA199000091GA1001+999999999GF100991001001999999001001KA1240M+03201MA1999999099251MD1999999-0111REMSYN082AAXX  02004 82571 32997 00000 10258 20235 39925 40122 333 10320 29076 55101 59011;EQDQ01  00002PRCP99
0186825710999992000070212004-05500-045260FM-12+017499999V0201401N001012200019N0100001N1+02581+02251101441ADDAA199000091GF103991011021004501031011KA1240N+01931MA1999999099461MD1999999-0051REMSYN076AAXX  02124 82571 32497 31402 10258 20225 39946 40144 81231 333 20193 59005;EQDQ01  00002PRCP99
0174825710999992000070218004-05500-045260FM-12+017499999V0201401N001010450019N0100001N1+02701+02431101211ADDAA106001091AY161061GF106991041051008001041001MA1999999099231MD1999999+0181MW1031REMSYN082AAXX  02184 82571 21597 61402 10270 20243 39923 40121 7036/ 84540 333 58018 60011;
0215825710999992000070300004-05500-045260FM-12+017499999V0209999C000012200019N0100001N1+02381+02221101421ADDAA106000591AY161061GA1001+999999999GF100991001001999999001001KA1240M+02901MA1999999099441MD1999999+0191MW1021REMSYN094AAXX  03004 82571 21997 00000 10238 20222 39944 40142 7026/ 333 10290 29087 55050 58019 69941;
0173825710999992000070312004-05500-045260FM-12+017499999V0201401N001012200019N0100001N1+02361+02311101571ADDAA124002091GF103991031001017501031001KA1240N+01981MA1999999099571MD1999999+0111REMSYN082AAXX  03124 82571 22797 31402 10236 20231 39957 40157 83030 333 20198 58011 60024;
0167825710999992000070318004-05500-045260FM-12+017499999V0201801N001012200019N0100001N1+03111+01991101251ADDAA199000091GF102991021021008001001001MA1999999099281MD1999999+0051REMSYN070AAXX  03184 82571 32597 21802 10311 20199 39928 40125 82200 333 58005;EQDQ01  00002PRCP99
0208825710999992000070400004-05500-045260FM-12+017499999V0209999C000012200019N0100001N1+02471+02211101331ADDAA199000091GA1001+999999999GF100991001001999999001001KA1240M+03171MA1999999099341MD1999999-0101REMSYN082AAXX  04004 82571 32997 00000 10247 20221 39934 40133 333 10317 29080 55090 59010;EQDQ01  00002PRCP99
0186825710999992000070412004-05500-045260FM-12+017499999V0201401N003112200019N0100001N1+02511+01911101501ADDAA199000091GF102991021001017501031001KA1240N+01861MA1999999099511MD1999999-0061REMSYN076AAXX  04124 82571 32797 21406 10251 20191 39951 40150 82030 333 20186 59006;EQDQ01  00002PRCP99
0183825710999992000070418004-05500-045260FM-12+017499999V0201401N003112200019N0100001N1+03111+02021101151ADDAA199000091GF102991999021008001001001MA1999999099141MD1999999-0141REMSYN070AAXX  04184 82571 32597 21406 10311 20202 39914 40115 83200 333 59014;EQDQ01+000032SCOTLCQ02  00002PRCP99
0208825710999992000070500004-05500-045260FM-12+017499999V0209999C000012200019N0100001N1+02501+02051101291ADDAA199000091GA1001+999999999GF100991001001999999001001KA1240M+03171MA1999999099311MD1999999-0031REMSYN082AAXX  05004 82571 32997 00000 10250 20205 39931 40129 333 10317 29068 55104 59003;EQDQ01  00002PRCP99
0196825710999992000070512004-05500-045260FM-12+017499999V0201401N003112200019N0100001N1+02541+01781101401ADDAA199000091GA1001+999999999GF100991001001999999001001KA1240N+01781MA1999999099421MD1999999-0091REMSYN070AAXX  05124 82571 32997 01406 10254 20178 39942 40140 333 20178 59009;EQDQ01  00002PRCP99
0167825710999992000070518004-05500-045260FM-12+017499999V0200901N003112200019N0100001N1+03081+01951101151ADDAA199000091GF102991021021008001001001MA1999999099181MD1999999+0031REMSYN070AAXX  05184 82571 32597 20906 10308 20195 39918 40115 82200 333 58003;EQDQ01  00002PRCP99
0208825710999992000070600004-05500-045260FM-12+017499999V0201401N001012200019N0100001N1+02541+02151101291ADDAA199000091GA1001+999999999GF100991001001999999001001KA1240M+03181MA1999999099311MD1999999+0001REMSYN082AAXX  06004 82571 32997 01402 10254 20215 39931 40129 333 10318 29068 55104 58000;EQDQ01  00002PRCP99
0186825710999992000070612004-05500-045260FM-12+017499999V0201401N003112200019N0100001N1+02501+01841101451ADDAA199000091GF102991021001017501041001KA1240N+01761MA1999999099461MD1999999+0041REMSYN076AAXX  06124 82571 32797 21406 10250 20184 39946 40145 82040 333 20176 58004;EQDQ01  00002PRCP99
0177825710999992000070618004-05500-045260FM-12+017499999V0200501N007212200019N0100001N1+03071+02801101131ADDAA199000091GA1001+999999999GF100991001001999999001001MA1999999099171MD1999999-0011REMSYN064AAXX  06184 82571 32997 00514 10307 20280 39917 40113 333 59001;EQDQ01  00002PRCP99
0208825710999992000070700004-05500-045260FM-12+017499999V0209999C000012200019N0100001N1+02461+02111101371ADDAA199000091GA1001+999999999GF100991001001999999001001KA1240M+03141MA1999999099391MD1999999+0081REMSYN082AAXX  07004 82571 32997 00000 10246 20211 39939 40137 333 10314 29069 55104 58008;EQDQ01  00002PRCP99
0196825710999992000070712004-05500-045260FM-12+017499999V0201401N003112200019N0100001N1+02461+01681101551ADDAA199000091GA1001+999999999GF100991001001999999001001KA1240N+01671MA1999999099561MD1999999+0101REMSYN070AAXX  07124 82571 32997 01406 10246 20168 39956 40155 333 20167 58010;EQDQ01  00002PRCP99
0167825710999992000070718004-05500-045260FM-12+017499999V0202301N003112200019N0100001N1+03101+01901101191ADDAA199000091GF102991021021008001001001MA1999999099221MD1999999+0051REMSYN070AAXX  07184 82571 32597 22306 10310 20190 39922 40119 82200 333 58005;EQDQ01  00002PRCP99
0208825710999992000070800004-05500-045260FM-12+017499999V0209999C000012200019N0100001N1+02481+02171101361ADDAA199000091GA1001+999999999GF100991001001999999001001KA1240M+03191MA1999999099371MD1999999-0021REMSYN082AAXX  08004 82571 32997 00000 10248 20217 39937 40136 333 10319 29069 55105 59002;EQDQ01  00002PRCP99
0196825710999992000070812004-05500-045260FM-12+017499999V0201401N005112200019N0100001N1+02491+01671101511ADDAA199000091GA1001+999999999GF100991001001999999001001KA1240N+01681MA1999999099521MD1999999-0041REMSYN070AAXX  08124 82571 32997 01410 10249 20167 39952 40151 333 20168 59004;EQDQ01  00002PRCP99
0167825710999992000070818004-05500-045260FM-12+017499999V0203201N005112200019N0100001N1+03121+02111101171ADDAA199000091GF102991021021008001001001MA1999999099201MD1999999-0021REMSYN070AAXX  08184 82571 32597 23210 10312 20211 39920 40117 82200 333 59002;EQDQ01  00002PRCP99
0208825710999992000070900004-05500-045260FM-12+017499999V0202701N001012200019N0100001N1+02591+02211101271ADDAA199000091GA1001+999999999GF100991001001999999001001KA1240M+03191MA1999999099291MD1999999-0081REMSYN082AAXX  09004 82571 32997 02702 10259 20221 39929 40127 333 10319 29070 55098 59008;EQDQ01  00002PRCP99
0196825710999992000070912004-05500-045260FM-12+017499999V0201401N003112200019N0100001N1+02481+01941101431ADDAA199000091GA1001+999999999GF100991001001999999001001KA1240N+01741MA1999999099451MD1999999-0071REMSYN070AAXX  09124 82571 32997 01406 10248 20194 39945 40143 333 20174 59007;EQDQ01  00002PRCP99
0153825710999992000070918004-05500-045260FM-12+017499999V0201401N005112200019N0100001N1+03141+01971101051ADDAA199000091GF102991021021008001001001MA1999999099091REMSYN070AAXX  09184 82571 32597 21410 10314 20197 39909 40105 82200 333 50911;EQDQ01  00002PRCP99
0208825710999992000071000004-05500-045260FM-12+017499999V0209999C000012200019N0100001N1+02561+02131101221ADDAA199000091GA1001+999999999GF100991001001999999001001KA1240M+03221MA1999999099241MD1999999-0051REMSYN082AAXX  10004 82571 32997 00000 10256 20213 39924 40122 333 10322 29069 55104 59005;EQDQ01  00002PRCP99
0186825710999992000071012004-05500-045260FM-12+017499999V0201401N001012200019N0100001N1+02551+02021101401ADDAA199000091GF103991031001017501051001KA1240N+01961MA1999999099421MD1999999-0031REMSYN076AAXX  10124 82571 32797 31402 10255 20202 39942 40140 83050 333 20196 59003;EQDQ01  00002PRCP99
0167825710999992000071018004-05500-045260FM-12+017499999V0201401N003112200019N0100001N1+03121+02021101051ADDAA199000091GF103991031021008001001001MA1999999099051MD1999999-0041REMSYN070AAXX  10184 82571 32597 31406 10312 20202 39905 40105 83200 333 59004;EQDQ01  00002PRCP99
0208825710999992000071100004-05500-045260FM-12+017499999V0209999C000012200019N0100001N1+02621+02271101211ADDAA199000091GA1001+999999999GF100991001001999999001001KA1240M+03251MA1999999099241MD1999999+0001REMSYN082AAXX  11004 82571 32997 00000 10262 20227 39924 40121 333 10325 29071 55097 58000;EQDQ01  00002PRCP99
0186825710999992000071112004-05500-045260FM-12+017499999V0201401N003110450019N0100001N1+02541+02351101551ADDAA199000091GF105991031021008001031001KA1240N+02161MA1999999099571MD1999999+0151REMSYN076AAXX  11124 82571 32597 51406 10254 20235 39957 40155 83230 333 20216 58015;EQDQ01  00002PRCP99
0167825710999992000071118004-05500-045260FM-12+017499999V0200901N002112200019N0100001N1+03161+02141101081ADDAA199000091GF103991021021008001031001MA1999999099121MD1999999+0071REMSYN070AAXX  11184 82571 32597 30904 10316 20214 39912 40108 82230 333 58007;EQDQ01  00002PRCP99
0198825710999992000071200004-05500-045260FM-12+017499999V0200501N003110150019N0100001N1+02601+02351101381ADDAA199000091GF105991051001017501051001KA1240M+03261MA1999999099401MD1999999+0161REMSYN088AAXX  12004 82571 32797 50506 10260 20235 39940 40138 85050 333 10326 29079 55076 58016;EQDQ01  00002PRCP99
0186825710999992000071212004-05500-045260FM-12+017499999V0200901N001010150019N0100001N1+02661+02271101611ADDAA199000091GF106991051001017501051011KA1240N+02211MA1999999099641MD1999999+0071REMSYN076AAXX  12124 82571 32797 60902 10266 20227 39964 40161 85051 333 20221 58007;EQDQ01  00002PRCP99
0167825710999992000071218004-05500-045260FM-12+017499999V0201401N005112200019N0100001N1+03241+02061101101ADDAA199000091GF103991031021008001001001MA1999999099151MD1999999+0031REMSYN070AAXX  12184 82571 32597 31410 10324 20206 39915 40110 83200 333 58003;EQDQ01  00002PRCP99
0171825710999992000071312004-05500-045260FM-12+017499999V0200901N001010450019N0100001N1+02501+02271101691ADDAA199000091GF106991041051008001031001KA1240N+02121MA1999999099701REMSYN075AAXX  13124 82571 32597 60902 10250 20227 39970 40169 84530 333 20212 5806;EQDQ01  00002PRCP99
0186825710999992000071412004-05500-045260FM-12+017499999V0202701N001012200019N0100001N1+02411+02211101631ADDAA199000091GF105991021021008001001011KA1240N+01921MA1999999099641MD1999999-0061REMSYN076AAXX  14124 82571 32597 52702 10241 20221 39964 40163 82201 333 20192 59006;EQDQ01  00002PRCP99
0167825710999992000071418004-05500-045260FM-12+017499999V0201401N002112200019N0100001N1+03161+01961101181ADDAA199000091GF104991041021008001001001MA1999999099221MD1999999-0101REMSYN070AAXX  14184 82571 32597 41404 10316 20196 39922 40118 84200 333 59010;EQDQ01  00002PRCP99
0208825710999992000071500004-05500-045260FM-12+017499999V0209999C000012200019N0100001N1+02581+02311101391ADDAA199000091GA1001+999999999GF100991001001999999001001KA1240M+03251MA1999999099411MD1999999-0051REMSYN082AAXX  15004 82571 32997 00000 10258 20231 39941 40139 333 10325 29077 55101 59005;EQDQ01  00002PRCP99
0186825710999992000071512004-05500-045260FM-12+017499999V0201401N001012200019N0100001N1+02581+01921101541ADDAA199000091GF102991001001999999001011KA1240N+01921MA1999999099561MD1999999-0081REMSYN076AAXX  15124 82571 32997 21402 10258 20192 39956 40154 80001 333 20192 59008;EQDQ01  00002PRCP99
0167825710999992000071518004-05500-045260FM-12+017499999V0200501N003112200019N0100001N1+03171+01981101111ADDAA199000091GF103991031021008001001001MA1999999099151MD1999999-0071REMSYN070AAXX  15184 82571 32597 30506 10317 20198 39915 40111 83200 333 59007;EQDQ01  00002PRCP99
0208825710999992000071600004-05500-045260FM-12+017499999V0209999C000012200019N0100001N1+02601+02251101341ADDAA199000091GA1001+999999999GF100991001001999999001001KA1240M+03261MA1999999099371MD1999999-0041REMSYN082AAXX  16004 82571 32997 00000 10260 20225 39937 40134 333 10326 29070 55106 59004;EQDQ01  00002PRCP99
0186825710999992000071612004-05500-045260FM-12+017499999V0202301N000512200019N0100001N1+02501+02231101591ADDAA199000091GF102991021001017501031001KA1240N+01761MA1999999099611MD1999999+0051REMSYN076AAXX  16124 82571 32797 22301 10250 20223 39961 40159 82030 333 20176 58005;EQDQ01  00002PRCP99
0167825710999992000071618004-05500-045260FM-12+017499999V0201401N003112200019N0100001N1+03161+02081101071ADDAA199000091GF102991021021008001001001MA1999999099111MD1999999-0041REMSYN070AAXX  16184 82571 32597 21406 10316 20208 39911 40107 82200 333 59004;EQDQ01  00002PRCP99
0186825710999992000071712004-05500-045260FM-12+017499999V0203201N001010075019N0100001N1+02341+02241101521ADDAA199000091GF108991081051008001999999KA1240N+02001MA1999999099531MD1999999-0081REMSYN076AAXX  17124 82571 32597 83202 10234 20224 39953 40152 885// 333 20200 59008;EQDQ01  00002PRCP99
0167825710999992000071718004-05500-045260FM-12+017499999V0200501N001010075019N0100001N1+03151+02201101061ADDAA199000091GF105991051021008001001001MA1999999099101MD1999999-0011REMSYN070AAXX  17184 82571 32597 50502 10315 20220 39910 40106 85200 333 59001;EQDQ01  00002PRCP99
0208825710999992000071800004-05500-045260FM-12+017499999V0202301N001012200019N0100001N1+02641+02421101251ADDAA199000091GA1001+999999999GF100991001001999999001001KA1240M+03291MA1999999099271MD1999999-0061REMSYN082AAXX  18004 82571 32997 02302 10264 20242 39927 40125 333 10329 29082 55059 59006;EQDQ01  00002PRCP99
0186825710999992000071812004-05500-045260FM-12+017499999V0203601N003110450019N0100001N1+02441+02321101501ADDAA199000091GF106991041021008001031001KA1240N+01981MA1999999099521MD1999999-0011REMSYN076AAXX  18124 82571 32597 63606 10244 20232 39952 40150 84230 333 20198 59001;EQDQ01  00002PRCP99
0167825710999992000071818004-05500-045260FM-12+017499999V0200501N001010450019N0100001N1+03061+02141101101ADDAA199000091GF105991031021008001031001MA1999999099141MD1999999-0041REMSYN070AAXX  18184 82571 32597 50502 10306 20214 39914 40110 83230 333 59004;EQDQ01  00002PRCP99
0198825710999992000071900004-05500-045260FM-12+017499999V0203201N001010150019N0100001N1+02551+02291101381ADDAA199000091GF106991061001017501061001KA1240M+03231MA1999999099401MD1999999+0131REMSYN088AAXX  19004 82571 31797 63202 10255 20229 39940 40138 86060 333 10323 29080 55067 58013;EQDQ01  00002PRCP99
0201825710999992000071912004-05500-045260FM-12+017499999V0201801N001010075019N0100001N1+02111+02051101741ADDAA124011991AY191061AY261061GF108991081051008001999999KA1240N+01971MA1999999099741MD1999999+0221MW1611REMSYN088AAXX  19124 82571 21597 81802 10211 20205 39974 40174 76196 885// 333 20197 58022 60124;
0174825710999992000071918004-05500-045260FM-12+017499999V0200901N005110450019N0100001N1+02631+02231101291ADDAA106004191AY161061GF106991041021008001031001MA1999999099301MD1999999+0161MW1021REMSYN082AAXX  19184 82571 21597 60910 10263 20223 39930 40129 7026/ 84230 333 58016 60041;
0189825710999992000072000004-05500-045260FM-12+017499999V0202701N001012200019N0100001N1+02361+02261101431ADDAA199000021GA1001+999999999GF100991001001999999001001KA1240M+02741MA1999999099431MD1999999+0031REMSYN082AAXX  20004 82571 32997 02702 10236 20226 39943 40143 333 10274 29090 55032 58003;
0193825710999992000072012004-05500-045260FM-12+017499999V0201801N001010450019N0100001N1+02201+02171101571ADDAA124004191AY141061GF106991041021008001031011KA1240N+01761MA1999999099571MD1999999-0171MW1011REMSYN088AAXX  20124 82571 21597 61802 10220 20217 39957 40157 7014/ 84231 333 20176 59017 60044;
0167825710999992000072018004-05500-045260FM-12+017499999V0200501N001012200019N0100001N1+03061+02301101091ADDAA199000091GF103991031021008001001001MA1999999099121MD1999999-0181REMSYN070AAXX  20184 82571 32597 30502 10306 20230 39912 40109 83200 333 59018;EQDQ01  00002PRCP99
0208825710999992000072100004-05500-045260FM-12+017499999V0203201N001012200019N0100001N1+02551+02401101171ADDAA199000091GA1001+999999999GF100991001001999999001001KA1240M+03171MA1999999099181MD1999999-0251REMSYN082AAXX  21004 82571 32997 03202 10255 20240 39918 40117 333 10317 29086 55082 59025;EQDQ01  00002PRCP99
0186825710999992000072112004-05500-045260FM-12+017499999V0200501N001010075019N0100001N1+02411+02301101401ADDAA199000091GF108991081051008001999999KA1240N+02001MA1999999099421MD1999999-0151REMSYN076AAXX  21124 82571 32597 80502 10241 20230 39942 40140 885// 333 20200 59015;EQDQ01  00002PRCP99
0174825710999992000072118004-05500-045260FM-12+017499999V0200501N003112200019N0100001N1+02571+02331101091ADDAA106002091AY161061GF104991021031008001031001MA1999999099101MD1999999-0021MW1611REMSYN082AAXX  21184 82571 21597 40506 10257 20233 39910 40109 7616/ 82330 333 59002 60021;
0189825710999992000072200004-05500-045260FM-12+017499999V0209999C000012200019N0100001N1+02421+02331101261ADDAA199000021GA1001+999999999GF100991001001999999001001KA1240M+03041MA1999999099271MD1999999+0091REMSYN082AAXX  22004 82571 32997 00000 10242 20233 39927 40126 333 10304 29092 55053 58009;
0173825710999992000072212004-05500-045260FM-12+017499999V0200501N001010075019N0100001N1+02341+02291101511ADDAA124002091GF108991081051008001999999KA1240N+02041MA1999999099521MD1999999+0101REMSYN082AAXX  22124 82571 22597 80502 10234 20229 39952 40151 885// 333 20204 58010 60024;
0167825710999992000072218004-05500-045260FM-12+017499999V0200901N001012200019N0100001N1+03101+02151101101ADDAA199000091GF103991021021008001031001MA1999999099101MD1999999+0001REMSYN070AAXX  22184 82571 32597 30902 10310 20215 39910 40110 82230 333 58000;EQDQ01  00002PRCP99
0208825710999992000072300004-05500-045260FM-12+017499999V0209999C000012200019N0100001N1+02651+02241101291ADDAA199000091GA1001+999999999GF100991001001999999001001KA1240M+03191MA1999999099311MD1999999+0041REMSYN082AAXX  23004 82571 32997 00000 10265 20224 39931 40129 333 10319 29078 55081 58004;EQDQ01  00002PRCP99
0186825710999992000072312004-05500-045260FM-12+017499999V0201401N001010075019N0100001N1+02401+02311101491ADDAA199000091GF108991081051008001999999KA1240N+02081MA1999999099501MD1999999-0021REMSYN076AAXX  23124 82571 32597 81402 10240 20231 39950 40149 885// 333 20208 59002;EQDQ01  00002PRCP99
0167825710999992000072318004-05500-045260FM-12+017499999V0201401N002112200019N0100001N1+03141+02161101091ADDAA199000091GF106991031021008001001011MA1999999099131MD1999999+0031REMSYN070AAXX  23184 82571 32597 61404 10314 20216 39913 40109 83201 333 58003;EQDQ01  00002PRCP99
0208825710999992000072400004-05500-045260FM-12+017499999V0209999C000012200019N0100001N1+02581+02401101331ADDAA199000091GA1001+999999999GF100991001001999999001001KA1240M+03231MA1999999099351MD1999999+0041REMSYN082AAXX  24004 82571 32997 00000 10258 20240 39935 40133 333 10323 29083 55068 58004;EQDQ01  00002PRCP99
0193825710999992000072412004-05500-045260FM-12+017499999V0200501N002110042019N0100001N1+02371+02351101501ADDAA124000191AY161061GF107991071051004501999999KA1240N+01861MA1999999099511MD1999999+0011MW1011REMSYN088AAXX  24124 82571 21497 70504 10237 20235 39951 40150 7016/ 875// 333 20186 58001 69914;
0167825710999992000072418004-05500-045260FM-12+017499999V0201401N002112200019N0100001N1+03121+02111101081ADDAA199000091GF103991031011008001001001MA1999999099121MD1999999-0011REMSYN070AAXX  24184 82571 32597 31404 10312 20211 39912 40108 83100 333 59001;EQDQ01  00002PRCP99
0208825710999992000072500004-05500-045260FM-12+017499999V0209999C000012200019N0100001N1+02531+02311101231ADDAA199000091GA1001+999999999GF100991001001999999001001KA1240M+03231MA1999999099251MD1999999-0101REMSYN082AAXX  25004 82571 32997 00000 10253 20231 39925 40123 333 10323 29082 55081 59010;EQDQ01  00002PRCP99
0186825710999992000072512004-05500-045260FM-12+017499999V0200901N001010075019N0100001N1+02441+02321101531ADDAA199000091GF107991071051008001001001KA1240N+01911MA1999999099541MD1999999+0031REMSYN076AAXX  25124 82571 32597 70902 10244 20232 39954 40153 87500 333 20191 58003;EQDQ01  00002PRCP99
0167825710999992000072518004-05500-045260FM-12+017499999V0201401N003112200019N0100001N1+03131+02241101171ADDAA199000091GF102991021021008001001001MA1999999099201MD1999999+0081REMSYN070AAXX  25184 82571 32597 21406 10313 20224 39920 40117 82200 333 58008;EQDQ01  00002PRCP99
0208825710999992000072600004-05500-045260FM-12+017499999V0209999C000012200019N0100001N1+02581+02371101361ADDAA199000091GA1001+999999999GF100991001001999999001001KA1240M+03211MA1999999099381MD1999999+0131REMSYN082AAXX  26004 82571 32997 00000 10258 20237 39938 40136 333 10321 29082 55080 58013;EQDQ01  00002PRCP99
0196825710999992000072612004-05500-045260FM-12+017499999V0200501N003112200019N0100001N1+02361+02241101541ADDAA199000091GA1001+999999999GF100991001001999999001001KA1240N+01781MA1999999099551MD1999999+0011REMSYN070AAXX  26124 82571 32997 00506 10236 20224 39955 40154 333 20178 58001;EQDQ01  00002PRCP99
0167825710999992000072618004-05500-045260FM-12+017499999V0201401N001012200019N0100001N1+03171+01871101101ADDAA199000091GF102991021011008001001001MA1999999099141MD1999999-0061REMSYN070AAXX  26184 82571 32597 21402 10317 20187 39914 40110 82100 333 59006;EQDQ01  00002PRCP99
0208825710999992000072700004-05500-045260FM-12+017499999V0209999C000012200019N0100001N1+02521+02211101301ADDAA199000091GA1001+999999999GF100991001001999999001001KA1240M+03241MA1999999099311MD1999999-0071REMSYN082AAXX  27004 82571 32997 00000 10252 20221 39931 40130 333 10324 29076 55105 59007;EQDQ01  00002PRCP99
0186825710999992000072712004-05500-045260FM-12+017499999V0202301N001010075019N0100001N1+02131+02111101641ADDAA199000091GF108991081051008001999999KA1240N+01811MA1999999099641MD1999999+0091REMSYN076AAXX  27124 82571 32597 82302 10213 20211 39964 40164 885// 333 20181 58009;EQDQ01  00002PRCP99
0167825710999992000072718004-05500-045260FM-12+017499999V0201401N001012200019N0100001N1+03081+02211101101ADDAA199000091GF102991021021008001001001MA1999999099131MD1999999-0011REMSYN070AAXX  27184 82571 32597 21402 10308 20221 39913 40110 82200 333 59001;EQDQ01  00002PRCP99
0208825710999992000072800004-05500-045260FM-12+017499999V0209999C000012200019N0100001N1+02511+02291101201ADDAA199000091GA1001+999999999GF100991001001999999001001KA1240M+03161MA1999999099301MD1999999-0011REMSYN082AAXX  28004 82571 32997 00000 10251 20229 39930 40120 333 10316 29083 55062 59001;EQDQ01  00002PRCP99
0186825710999992000072812004-05500-045260FM-12+017499999V0203601N001010075019N0100001N1+02381+02281101591ADDAA199000091GF108991081051008001999999KA1240N+01891MA1999999099601MD1999999-0041REMSYN076AAXX  28124 82571 32597 83602 10238 20228 39960 40159 885// 333 20189 59004;EQDQ01  00002PRCP99
0167825710999992000072818004-05500-045260FM-12+017499999V0201401N003112200019N0100001N1+03121+02081101131ADDAA199000091GF102991021021008001001001MA1999999099161MD1999999+0031REMSYN070AAXX  28184 82571 32597 21406 10312 20208 39916 40113 82200 333 58003;EQDQ01  00002PRCP99
0208825710999992000072900004-05500-045260FM-12+017499999V0209999C000012200019N0100001N1+02521+02131101321ADDAA199000091GA1001+999999999GF100991001001999999001001KA1240M+03211MA1999999099331MD1999999+0031REMSYN082AAXX  29004 82571 32597 00000 10252 20213 39933 40132 333 10321 29076 55083 58003;EQDQ01  00002PRCP99
0186825710999992000072912004-05500-045260FM-12+017499999V0202301N003112200019N0100001N1+02581+01851101471ADDAA199000091GF102991001001999999001011KA1240N+01831MA1999999099491MD1999999-0111REMSYN076AAXX  29124 82571 32997 22306 10258 20185 39949 40147 80001 333 20183 59011;EQDQ01  00002PRCP99
0167825710999992000072918004-05500-045260FM-12+017499999V0201401N003112200019N0100001N1+02981+02011101121ADDAA199000091GF102991021021008001001001MA1999999099151MD1999999-0011REMSYN070AAXX  29184 82571 32597 21406 10298 20201 39915 40112 82200 333 59001;EQDQ01  00002PRCP99
0208825710999992000073000004-05500-045260FM-12+017499999V0202301N001012200019N0100001N1+02481+02171101271ADDAA199000091GA1001+999999999GF100991001001999999001001KA1240M+03151MA1999999099291MD1999999-0041REMSYN082AAXX  30004 82571 32997 02302 10248 20217 39929 40127 333 10315 29072 55102 59004;EQDQ01  00002PRCP99
0186825710999992000073012004-05500-045260FM-12+017499999V0200501N001012200019N0100001N1+02421+01861101441ADDAA199000091GF101991001001999999001011KA1240N+01761MA1999999099451MD1999999-0041REMSYN076AAXX  30124 82571 32997 10502 10242 20186 39945 40144 80001 333 20176 59004;EQDQ01  00002PRCP99
0167825710999992000073018004-05500-045260FM-12+017499999V0200501N003112200019N0100001N1+03141+01911101061ADDAA199000091GF102991021021008001001001MA1999999099101MD1999999-0051REMSYN070AAXX  30184 82571 32597 20506 10314 20191 39910 40106 82200 333 59005;EQDQ01  00002PRCP99
0208825710999992000073100004-05500-045260FM-12+017499999V0200501N001012200019N0100001N1+02561+02151101241ADDAA199000091GA1001+999999999GF100991001001999999001001KA1240M+03251MA1999999099261MD1999999-0031REMSYN082AAXX  31004 82571 32997 00502 10256 20215 39926 40124 333 10325 29069 55102 59003;EQDQ01  00002PRCP99
0186825710999992000073112004-05500-045260FM-12+017499999V0201401N005112200019N0100001N1+02401+01801101491ADDAA199000091GF102991021001017501031001KA1240N+01681MA1999999099501MD1999999+0051REMSYN076AAXX  31124 82571 32797 21410 10240 20180 39950 40149 82030 333 20168 58005;EQDQ01  00002PRCP99
0167825710999992000073118004-05500-045260FM-12+017499999V0201401N005112200019N0100001N1+03221+01801101121ADDAA199000091GF102991021021008001001001MA1999999099151MD1999999+0051REMSYN070AAXX  31184 82571 32597 21410 10322 20180 39915 40112 82200 333 58005;EQDQ01  00002PRCP99
0208825710999992000080100004-05500-045260FM-12+017499999V0201401N001012200019N0100001N1+02541+02111101181ADDAA199000091GA1001+999999999GF100991001001999999001001KA1240M+03291MA1999999099201MD1999999-0061REMSYN082AAXX  01004 82571 32997 01402 10254 20211 39920 40118 333 10329 29066 55102 59006;EQDQ01  00002PRCP99
0186825710999992000080112004-05500-045260FM-12+017499999V0200501N001012200019N0100001N1+02421+02031101461ADDAA199000091GF102991021001017501031001KA1240N+01701MA1999999099471MD1999999-0031REMSYN076AAXX  01124 82571 32797 20502 10242 20203 39947 40146 82030 333 20170 59003;EQDQ01  00002PRCP99
0167825710999992000080118004-05500-045260FM-12+017499999V0200501N001012200019N0100001N1+03201+01991101031ADDAA199000091GF103991031021008001001001MA1999999099071MD1999999-0081REMSYN070AAXX  01184 82571 32597 30502 10320 20199 39907 40103 83200 333 59008;EQDQ01  00002PRCP99
0208825710999992000080200004-05500-045260FM-12+017499999V0202701N001012200019N0100001N1+02611+02251101201ADDAA199000091GA1001+999999999GF100991001001999999001001KA1240M+03291MA1999999099221MD1999999+0021REMSYN082AAXX  02004 82571 32997 02702 10261 20225 39922 40120 333 10329 29072 55104 58002;EQDQ01  00002PRCP99
0186825710999992000080212004-05500-045260FM-12+017499999V0201401N001012200019N0100001N1+02561+02211101521ADDAA199000091GF102991011001017501031011KA1240N+01901MA1999999099541MD1999999+0071REMSYN076AAXX  02124 82571 32797 21402 10256 20221 39954 40152 81031 333 20190 58007;EQDQ01  00002PRCP99
0167825710999992000080218004-05500-045260FM-12+017499999V0201401N003110450019N0100001N1+03141+02101101181ADDAA199000091GF106991031021008001011011MA1999999099221MD1999999+0151REMSYN070AAXX  02184 82571 32597 61406 10314 20210 39922 40118 83211 333 58015;EQDQ01  00002PRCP99
0198825710999992000080300004-05500-045260FM-12+017499999V0209999C000012200019N0100001N1+02551+02271101391ADDAA199000091GF101991011001017501011001KA1240M+03241MA1999999099411MD1999999+0191REMSYN088AAXX  03004 82571 32797 10000 10255 20227 39941 40139 81010 333 10324 29076 55072 58019;EQDQ01  00002PRCP99
0186825710999992000080312004-05500-045260FM-12+017499999V0200501N001010042019N0100001N1+02291+02221101621ADDAA199000091GF106991051021004501031001KA1240N+01861MA1999999099621MD1999999+0081REMSYN076AAXX  03124 82571 32497 60502 10229 20222 39962 40162 85230 333 20186 58008;EQDQ01  00002PRCP99
0167825710999992000080318004-05500-045260FM-12+017499999V0201401N003112200019N0100001N1+02991+02171101331ADDAA199000091GF104991031021008001011001MA1999999099361MD1999999+0141REMSYN070AAXX  03184 82571 32597 41406 10299 20217 39936 40133 83210 333 58014;EQDQ01  00002PRCP99
0208825710999992000080400004-05500-045260FM-12+017499999V0209999C000012200019N0100001N1+02511+02271101461ADDAA199000091GA1001+999999999GF100991001001999999001001KA1240M+03131MA1999999099471MD1999999+0061REMSYN082AAXX  04004 82571 32997 00000 10251 20227 39947 40146 333 10313 29082 55053 58006;EQDQ01  00002PRCP99
0193825710999992000080412004-05500-045260FM-12+017499999V0203201N001010075019N0100001N1+02291+02251101511ADDAA124000191AY141061GF108991081051008001999999KA1240N+01801MA1999999099521MD1999999-0101MW1021REMSYN088AAXX  04124 82571 22597 83202 10229 20225 39952 40151 7024/ 885// 333 20180 59010 69924;
0167825710999992000080418004-05500-045260FM-12+017499999V0201401N001012200019N0100001N1+03141+02161101171ADDAA199000091GF103991031021008001001001MA1999999099201MD1999999-0041REMSYN070AAXX  04184 82571 32597 31402 10314 20216 39920 40117 83200 333 59004;EQDQ01  00002PRCP99
0208825710999992000080500004-05500-045260FM-12+017499999V0209999C000012200019N0100001N1+02601+02291101261ADDAA199000091GA1001+999999999GF100991001001999999001001KA1240M+03291MA1999999099271MD1999999-0201REMSYN082AAXX  05004 82571 32997 00000 10260 20229 39927 40126 333 10329 29080 55072 59020;EQDQ01  00002PRCP99
0167825710999992000080518004-05500-045260FM-12+017499999V0201401N003112200019N0100001N1+03131+02101101201ADDAA199000091GF102991021021008001001001MA1999999099201MD1999999+0001REMSYN070AAXX  05184 82571 32597 21406 10313 20210 39920 40120 82200 333 58000;EQDQ01  00002PRCP99
0208825710999992000080600004-05500-045260FM-12+017499999V0209999C000012200019N0100001N1+02611+02331101231ADDAA199000091GA1001+999999999GF100991001001999999001001KA1240M+03231MA1999999099251MD1999999-0021REMSYN082AAXX  06004 82571 32997 00000 10261 20233 39925 40123 333 10323 29079 55073 59002;EQDQ01  00002PRCP99
0196825710999992000080612004-05500-045260FM-12+017499999V0201401N001012200019N0100001N1+02541+02211101581ADDAA199000091GA1001+999999999GF100991001001999999001001KA1240N+01911MA1999999099601MD1999999+0071REMSYN070AAXX  06124 82571 32997 01402 10254 20221 39960 40158 333 20191 58007;EQDQ01  00002PRCP99
0167825710999992000080618004-05500-045260FM-12+017499999V0201401N005112200019N0100001N1+03201+01981101161ADDAA199000091GF102991021021008001001001MA1999999099201MD1999999+0001REMSYN070AAXX  06184 82571 32597 21410 10320 20198 39920 40116 82200 333 58000;EQDQ01  00002PRCP99
0208825710999992000080700004-05500-045260FM-12+017499999V0202301N001012200019N0100001N1+02631+02181101301ADDAA199000091GA1001+999999999GF100991001001999999001001KA1240M+03321MA1999999099331MD1999999+0081REMSYN082AAXX  07004 82571 32997 02302 10263 20218 39933 40130 333 10332 29070 55092 58008;EQDQ01  00002PRCP99
0186825710999992000080712004-05500-045260FM-12+017499999V0201401N004112200019N0100001N1+02681+01781101621ADDAA199000091GF101991011001017501031001KA1240N+01961MA1999999099651MD1999999+0051REMSYN076AAXX  07124 82571 32797 11408 10268 20178 39965 40162 81030 333 20196 58005;EQDQ01  00002PRCP99
0167825710999992000080718004-05500-045260FM-12+017499999V0201401N003112200019N0100001N1+03181+01981101261ADDAA199000091GF103991031021008001001001MA1999999099301MD1999999+0101REMSYN070AAXX  07184 82571 32597 31406 10318 20198 39930 40126 83200 333 58010;EQDQ01  00002PRCP99
0208825710999992000080800004-05500-045260FM-12+017499999V0201401N001012200019N0100001N1+02591+02121101421ADDAA199000091GA1001+999999999GF100991001001999999001001KA1240M+03281MA1999999099451MD1999999+0121REMSYN082AAXX  08004 82571 32997 01402 10259 20212 39945 40142 333 10328 29064 55105 58012;EQDQ01  00002PRCP99
0186825710999992000080812004-05500-045260FM-12+017499999V0200901N001010042019N0100001N1+02381+02221101631ADDAA199000091GF106991061021004501001001KA1240N+01801MA1999999099641MD1999999-0011REMSYN076AAXX  08124 82571 32497 60902 10238 20222 39964 40163 86200 333 20180 59001;EQDQ01  00002PRCP99
0174825710999992000080818004-05500-045260FM-12+017499999V0202301N001012200019N0100001N1+03101+02181101231ADDAA106001091AY161061GF103991021021008001011001MA1999999099261MD1999999-0041MW1021REMSYN082AAXX  08184 82571 21597 32302 10310 20218 39926 40123 7026/ 82210 333 59004 69991;
0205825710999992000080900004-05500-045260FM-12+017499999V0203201N001012200019N0100001N1+02421+02051101441ADDAA106000191AY161061GF102991021001017501031001KA1240M+03241MA1999999099451MD1999999+0001MW1131REMSYN100AAXX  09004 82571 21797 23202 10242 20205 39945 40144 7136/ 82030 333 10324 29077 55064 58000 69911;
0173825710999992000080912004-05500-045260FM-12+017499999V0200501N001010042019N0100001N1+02291+02221101751ADDAA124001091GF107991071051004501001001KA1240N+01901MA1999999099751MD1999999+0111REMSYN082AAXX  09124 82571 22497 70502 10229 20222 39975 40175 87500 333 20190 58011 60014;
0167825710999992000080918004-05500-045260FM-12+017499999V0200901N003119999999N0100001N1+03141+02161101261ADDAA199000091GF105991999999008001999999MA1999999099291MD1999999+0031REMSYN070AAXX  09184 82571 32597 50906 10314 20216 39929 40126 93240 333 58003;EQDQ01  00002PRCP99
0193825710999992000081012004-05500-045260FM-12+017499999V0202301N001010090019N0100001N1+02261+02241101781ADDAA124052191AY161061GF107991071081004501001001KA1240N+02001MA1999999099781MD1999999+0031MW1611REMSYN088AAXX  10124 82571 21497 72302 10226 20224 39978 40178 7616/ 87800 333 20200 58003 60524;
0148825710999992000081018004-05500-045260FM-12+017499999V0201401N002112200019N0100001N1+03131+02241101361ADDAA199000021GF104991041021008001001001MA1999999099391MD1999999+0101REMSYN070AAXX  10184 82571 32597 41404 10313 20224 39939 40136 84200 333 58010;
0189825710999992000081100004-05500-045260FM-12+017499999V0209999C000012200019N0100001N1+02591+02421101581ADDAA199000021GA1001+999999999GF100991001001999999001001KA1240M+03201MA1999999099581MD1999999-0071REMSYN082AAXX  11004 82571 32997 00000 10259 20242 39958 40158 333 10320 29084 55066 59007;
0186825710999992000081112004-05500-045260FM-12+017499999V0203201N001010042019N0100001N1+02391+02351101751ADDAA199000091GF107991071051004501001001KA1240N+01921MA1999999099761MD1999999-0021REMSYN076AAXX  11124 82571 32497 73202 10239 20235 39976 40175 87500 333 20192 59002;EQDQ01  00002PRCP99
0167825710999992000081118004-05500-045260FM-12+017499999V0200901N001012200019N0100001N1+03121+02051101291ADDAA199000091GF103991031021008001001001MA1999999099331MD1999999-0061REMSYN070AAXX  11184 82571 32597 30902 10312 20205 39933 40129 83200 333 59006;EQDQ01  00002PRCP99
0208825710999992000081200004-05500-045260FM-12+017499999V0203201N001012200019N0100001N1+02581+02291101451ADDAA199000091GA1001+999999999GF100991001001999999001001KA1240M+03221MA1999999099461MD1999999-0121REMSYN082AAXX  12004 82571 32997 03202 10258 20229 39946 40145 333 10322 29080 55086 59012;EQDQ01  00002PRCP99
0186825710999992000081212004-05500-045260FM-12+017499999V0203601N001012200019N0100001N1+02601+02271101631ADDAA199000091GF102991021021008001001001KA1240N+01961MA1999999099651MD1999999-0111REMSYN076AAXX  12124 82571 32597 23602 10260 20227 39965 40163 82200 333 20196 59011;EQDQ01  00002PRCP99
0167825710999992000081218004-05500-045260FM-12+017499999V0202701N001012200019N0100001N1+03211+02231101141ADDAA199000091GF103991031021008001001001MA1999999099181MD1999999-0151REMSYN070AAXX  12184 82571 32597 32702 10321 20223 39918 40114 83200 333 59015;EQDQ01  00002PRCP99
0166825710999992000081318004-05500-045260FM-12+017499999V0200501N001010075019N0100001N1+02461+02231101331ADDAA106006191GF108991081051008001999999MA1999999099341MD1999999+0161MW1951REMSYN082AAXX  13184 82571 21597 80502 10246 20223 39934 40133 795// 885// 333 58016 60061;
0198825710999992000081400004-05500-045260FM-12+017499999V0209999C000012200019N0100001N1+02361+02261101471ADDAA199000021GF104991999001017501061001KA1240M+03231MA1999999099481MD1999999+0141REMSYN088AAXX  14004 82571 32797 40000 10236 20226 39948 40147 82060 333 10323 29090 55062 58014;EQDQ01+000022SCOTLC
0193825710999992000081412004-05500-045260FM-12+017499999V0201401N001010450019N0100001N1+02431+02391101721ADDAA124007191AY161061GF105991031051008001031001KA1240N+01961MA1999999099721MD1999999+0061MW1611REMSYN088AAXX  14124 82571 22597 51402 10243 20239 39972 40172 7616/ 83530 333 20196 58006 60074;
0189825710999992000081500004-05500-045260FM-12+017499999V0209999C000012200019N0100001N1+02541+02311101451ADDAA199000021GA1001+999999999GF100991001001999999001001KA1240M+03151MA1999999099461MD1999999-0021REMSYN082AAXX  15004 82571 32997 00000 10254 20231 39946 40145 333 10315 29079 55090 59002;
0196825710999992000081512004-05500-045260FM-12+017499999V0201801N005112200019N0100001N1+02511+02001101711ADDAA199000091GA1001+999999999GF100991001001999999001001KA1240N+01901MA1999999099721MD1999999+0001REMSYN070AAXX  15124 82571 32997 01810 10251 20200 39972 40171 333 20190 58000;EQDQ01  00002PRCP99
0167825710999992000081518004-05500-045260FM-12+017499999V0201401N003112200019N0100001N1+03151+01961101301ADDAA199000091GF102991021021008001001001MA1999999099341MD1999999+0001REMSYN070AAXX  15184 82571 32597 21406 10315 20196 39934 40130 82200 333 58000;EQDQ01  00002PRCP99
0208825710999992000081600004-05500-045260FM-12+017499999V0209999C000012200019N0100001N1+02501+02171101431ADDAA199000091GA1001+999999999GF100991001001999999001001KA1240M+03251MA1999999099451MD1999999-0011REMSYN082AAXX  16004 82571 32997 00000 10250 20217 39945 40143 333 10325 29072 55105 59001;EQDQ01  00002PRCP99
0196825710999992000081612004-05500-045260FM-12+017499999V0200901N003112200019N0100001N1+02501+01671101731ADDAA199000091GA1001+999999999GF100991001001999999001001KA1240N+01731MA1999999099741MD1999999+0021REMSYN070AAXX  16124 82571 32997 00906 10250 20167 39974 40173 333 20173 58002;EQDQ01  00002PRCP99
0167825710999992000081618004-05500-045260FM-12+017499999V0201401N002112200019N0100001N1+03151+01791101241ADDAA199000091GF103991031021008001001001MA1999999099271MD1999999-0071REMSYN070AAXX  16184 82571 32597 31404 10315 20179 39927 40124 83200 333 59007;EQDQ01  00002PRCP99
0208825710999992000081800004-05500-045260FM-12+017499999V0203201N001012200019N0100001N1+02501+02051101401ADDAA199000091GA1001+999999999GF100991001001999999001001KA1240M+03291MA1999999099421MD1999999+0041REMSYN082AAXX  18004 82571 32997 03202 10250 20205 39942 40140 333 10329 29068 55108 58004;EQDQ01  00002PRCP99
0167825710999992000081818004-05500-045260FM-12+017499999V0201801N001012200019N0100001N1+03201+01821101231ADDAA199000091GF102991021021008001001001MA1999999099261MD1999999+0021REMSYN070AAXX  18184 82571 32597 21802 10320 20182 39926 40123 82200 333 58002;EQDQ01  00002PRCP99
0208825710999992000081900004-05500-045260FM-12+017499999V0203201N001012200019N0100001N1+02551+02111101871ADDAA199000091GA1001+999999999GF100991001001999999001001KA1240M+03271MA1999999099301MD1999999-0121REMSYN082AAXX  19004 82571 32997 03202 10255 20211 39930 40187 333 10327 29070 55096 59012;EQDQ01  00002PRCP99
0186825710999992000081912004-05500-045260FM-12+017499999V0200501N001010075019N0100001N1+02371+02171101521ADDAA199000091GF108991081051008001999999KA1240N+01721MA1999999099531MD1999999-0081REMSYN076AAXX  19124 82571 32597 80502 10237 20217 39953 40152 885// 333 20172 59008;EQDQ01  00002PRCP99
0167825710999992000081918004-05500-045260FM-12+017499999V0201401N003112200019N0100001N1+03221+01911101151ADDAA199000091GF103991031021008001001001MA1999999099191MD1999999-0071REMSYN070AAXX  19184 82571 32597 31406 10322 20191 39919 40115 83200 333 59007;EQDQ01  00002PRCP99
0208825710999992000082000004-05500-045260FM-12+017499999V0209999C000012200019N0100001N1+02631+02291101301ADDAA199000091GA1001+999999999GF100991001001999999001001KA1240M+03321MA1999999099321MD1999999+0021REMSYN082AAXX  20004 82571 32997 00000 10263 20229 39932 40130 333 10332 29074 55097 58002;EQDQ01  00002PRCP99
0186825710999992000082012004-05500-045260FM-12+017499999V0201401N002110075019N0100001N1+02291+02251101661ADDAA199000091GF108991081051008001999999KA1240N+01881MA1999999099671MD1999999+0141REMSYN076AAXX  20124 82571 32597 81404 10229 20225 39967 40166 885// 333 20188 58014;EQDQ01  00002PRCP99
0167825710999992000082018004-05500-045260FM-12+017499999V0200501N001012200019N0100001N1+03251+02081101211ADDAA199000091GF102991021021008001001001MA1999999099251MD1999999+0061REMSYN070AAXX  20184 82571 32597 20502 10325 20208 39925 40121 82200 333 58006;EQDQ01  00002PRCP99
0186825710999992000082112004-05500-045260FM-12+017499999V0200901N001010042019N0100001N1+02461+02271101681ADDAA199000091GF106991061051004501001001KA1240N+01981MA1999999099691MD1999999+0021REMSYN076AAXX  21124 82571 32497 60902 10246 20227 39969 40168 86500 333 20198 58002;EQDQ01  00002PRCP99
0167825710999992000082118004-05500-045260FM-12+017499999V0200901N001012200019N0100001N1+03101+01941101241ADDAA199000091GF103991031021008001001001MA1999999099281MD1999999+0031REMSYN070AAXX  21184 82571 32597 30902 10310 20194 39928 40124 83200 333 58003;EQDQ01  00002PRCP99
0208825710999992000082200004-05500-045260FM-12+017499999V0209999C000012200019N0100001N1+02601+02121101421ADDAA199000091GA1001+999999999GF100991001001999999001001KA1240M+03231MA1999999099441MD1999999+0151REMSYN082AAXX  22004 82571 32997 00000 10260 20212 39944 40142 333 10323 29072 55087 58015;EQDQ01  00002PRCP99
0186825710999992000082212004-05500-045260FM-12+017499999V0201401N003112200019N0100001N1+02721+01881101531ADDAA199000091GF101991011001017501031001KA1240N+01951MA1999999099561MD1999999-0131REMSYN076AAXX  22124 82571 32797 11406 10272 20188 39956 40153 81030 333 20195 59013;EQDQ01  00002PRCP99
0167825710999992000082218004-05500-045260FM-12+017499999V0201401N001012200019N0100001N1+03351+02001101081ADDAA199000091GF102991021011008001001001MA1999999099131MD1999999-0151REMSYN070AAXX  22184 82571 32597 21402 10335 20200 39913 40108 82100 333 59015;EQDQ01  00002PRCP99
0208825710999992000082300004-05500-045260FM-12+017499999V0200501N001012200019N0100001N1+02631+02121101281ADDAA199000091GA1001+999999999GF100991001001999999001001KA1240M+03411MA1999999099321MD1999999-0121REMSYN082AAXX  23004 82571 32997 00502 10263 20212 39932 40128 333 10341 29062 55106 59012;EQDQ01  00002PRCP99
0186825710999992000082312004-05500-045260FM-12+017499999V0203201N001012200019N0100001N1+02611+02271101561ADDAA199000091GF104991021021004501011001KA1240N+01891MA1999999099581MD1999999+0021REMSYN076AAXX  23124 82571 32497 43202 10261 20227 39958 40156 82210 333 20189 58002;EQDQ01  00002PRCP99
0167825710999992000082318004-05500-045260FM-12+017499999V0200901N003112200019N0100001N1+03331+01911101091ADDAA199000091GF103991021011008001011001MA1999999099141MD1999999+0011REMSYN070AAXX  23184 82571 32597 30906 10333 20191 39914 40109 82110 333 58001;EQDQ01  00002PRCP99
0208825710999992000082400004-05500-045260FM-12+017499999V0200501N001012200019N0100001N1+02631+02121101251ADDAA199000091GA1001+999999999GF100991001001999999001001KA1240M+03381MA1999999099281MD1999999-0041REMSYN082AAXX  24004 82571 32997 00502 10263 20212 39928 40125 333 10338 29068 55108 59004;EQDQ01  00002PRCP99
0186825710999992000082412004-05500-045260FM-12+017499999V0200501N002112200019N0100001N1+02581+02231101581ADDAA199000091GF102991021011004501001001KA1240N+01791MA1999999099601MD1999999+0021REMSYN076AAXX  24124 82571 32497 20504 10258 20223 39960 40158 82100 333 20179 58002;EQDQ01  00002PRCP99
0167825710999992000082418004-05500-045260FM-12+017499999V0200901N003112200019N0100001N1+03311+01851101091ADDAA199000091GF102991011011008001031001MA1999999099131MD1999999-0011REMSYN070AAXX  24184 82571 32597 20906 10331 20185 39913 40109 81130 333 59001;EQDQ01  00002PRCP99
0208825710999992000082500004-05500-045260FM-12+017499999V0209999C000012200019N0100001N1+02641+02091101281ADDAA199000091GA1001+999999999GF100991001001999999001001KA1240M+03391MA1999999099311MD1999999+0031REMSYN082AAXX  25004 82571 32997 00000 10264 20209 39931 40128 333 10339 29067 55098 58003;EQDQ01  00002PRCP99
0186825710999992000082512004-05500-045260FM-12+017499999V0200501N002110042019N0100001N1+02541+02231101581ADDAA199000091GF107991071021004501001001KA1240N+02041MA1999999099601MD1999999+0001REMSYN076AAXX  25124 82571 32497 70504 10254 20223 39960 40158 87200 333 20204 58000;EQDQ01  00002PRCP99
0167825710999992000082518004-05500-045260FM-12+017499999V0200901N003112200019N0100001N1+03281+02031101041ADDAA199000091GF104991031011004501001011MA1999999099091MD1999999-0041REMSYN070AAXX  25184 82571 32497 40906 10328 20203 39909 40104 83101 333 59004;EQDQ01  00002PRCP99
0208825710999992000082600004-05500-045260FM-12+017499999V0209999C000012200019N0100001N1+02681+02351101201ADDAA199000091GA1001+999999999GF100991001001999999001001KA1240M+03361MA1999999099231MD1999999-0081REMSYN082AAXX  26004 82571 32997 00000 10268 20235 39923 40120 333 10336 29074 55084 59008;EQDQ01  00002PRCP99
0186825710999992000082612004-05500-045260FM-12+017499999V0203601N002110042019N0100001N1+02591+02251101411ADDAA199000091GF105991051021004501001001KA1240N+02011MA1999999099441MD1999999-0161REMSYN076AAXX  26124 82571 32497 53604 10259 20225 39944 40141 85200 333 20201 59016;EQDQ01  00002PRCP99
0167825710999992000082618004-05500-045260FM-12+017499999V0200901N003112200019N0100001N1+03391+01961100881ADDAA199000091GF104991041021008001001001MA1999999098941MD1999999-0151REMSYN070AAXX  26184 82571 32597 40906 10339 20196 39894 40088 84200 333 59015;EQDQ01  00002PRCP99
0208825710999992000082700004-05500-045260FM-12+017499999V0203201N001012200019N0100001N1+02701+02171101091ADDAA199000091GA1001+999999999GF100991001001999999001001KA1240M+03441MA1999999099131MD1999999-0101REMSYN082AAXX  27004 82571 32997 03202 10270 20217 39913 40109 333 10344 29068 55103 59010;EQDQ01  00002PRCP99
0186825710999992000082712004-05500-045260FM-12+017499999V0200501N003112200019N0100001N1+02581+02211101301ADDAA199000091GF102991021021008001001001KA1240N+01931MA1999999099331MD1999999-0111REMSYN076AAXX  27124 82571 32597 20506 10258 20221 39933 40130 82200 333 20193 59011;EQDQ01  00002PRCP99
0167825710999992000082718004-05500-045260FM-12+017499999V0200901N003112200019N0100001N1+03351+02041100781ADDAA199000091GF102991021021008001001001MA1999999098841MD1999999-0101REMSYN070AAXX  27184 82571 32597 20906 10335 20204 39884 40078 82200 333 59010;EQDQ01  00002PRCP99
0186825710999992000082812004-05500-045260FM-12+017499999V0200501N003110075019N0100001N1+02571+02211101321ADDAA199000091GF108991081051008001999999KA1240N+02041MA1999999099351MD1999999+0021REMSYN076AAXX  28124 82571 32597 80506 10257 20221 39935 40132 885// 333 20204 58002;EQDQ01  00002PRCP99
0167825710999992000082818004-05500-045260FM-12+017499999V0201801N001012200019N0100001N1+03261+02111100811ADDAA199000091GF103991031021008001001001MA1999999098861MD1999999+0021REMSYN070AAXX  28184 82571 32597 31802 10326 20211 39886 40081 83200 333 58002;EQDQ01  00002PRCP99
0208825710999992000082900004-05500-045260FM-12+017499999V0209999C000012200019N0100001N1+02671+02371101021ADDAA199000091GA1001+999999999GF100991001001999999001001KA1240M+03461MA1999999099051MD1999999+0021REMSYN082AAXX  29004 82571 32997 00000 10267 20237 39905 40102 333 10346 29074 55058 58002;EQDQ01  00002PRCP99
0186825710999992000082912004-05500-045260FM-12+017499999V0203601N001010075019N0100001N1+02551+02311101401ADDAA199000091GF108991081051008001999999KA1240N+01971MA1999999099431MD1999999+0081REMSYN076AAXX  29124 82571 32597 83602 10255 20231 39943 40140 885// 333 20197 58008;EQDQ01  00002PRCP99
0167825710999992000082918004-05500-045260FM-12+017499999V0200501N001012200019N0100001N1+03211+02261100991ADDAA199000091GF102991021021008001001001MA1999999099041MD1999999+0181REMSYN070AAXX  29184 82571 32597 20502 10321 20226 39904 40099 82200 333 58018;EQDQ01  00002PRCP99
0208825710999992000083000004-05500-045260FM-12+017499999V0202301N001012200019N0100001N1+02631+02351101131ADDAA199000091GA1001+999999999GF100991001001999999001001KA1240M+03381MA1999999099161MD1999999+0111REMSYN082AAXX  30004 82571 32997 02302 10263 20235 39916 40113 333 10338 29078 55053 58011;EQDQ01  00002PRCP99
0186825710999992000083012004-05500-045260FM-12+017499999V0200501N001010042019N0100001N1+02491+02271101441ADDAA199000091GF108991081051004501999999KA1240N+02121MA1999999099461MD1999999+0031REMSYN076AAXX  30124 82571 32497 80502 10249 20227 39946 40144 885// 333 20212 58003;EQDQ01  00002PRCP99
0167825710999992000083018004-05500-045260FM-12+017499999V0201401N002112200019N0100001N1+02911+02271101061ADDAA199000091GF104991031021008001001011MA1999999099101MD1999999+0061REMSYN070AAXX  30184 82571 32597 41404 10291 20227 39910 40106 83201 333 58006;EQDQ01  00002PRCP99
0208825710999992000083100004-05500-045260FM-12+017499999V0202301N001012200019N0100001N1+02841+02311101131ADDAA199000091GA1001+999999999GF100991001001999999001001KA1240M+03041MA1999999099161MD1999999+0001REMSYN082AAXX  31004 82571 32997 02302 10284 20231 39916 40113 333 10304 29075 55044 58000;EQDQ01  00002PRCP99
0186825710999992000083112004-05500-045260FM-12+017499999V0200501N002110042019N0100001N1+02721+02391101421ADDAA199000091GF108991081051004501999999KA1240N+02081MA1999999099461MD1999999+0001REMSYN076AAXX  31124 82571 32497 80504 10272 20239 39946 40142 885// 333 20208 58000;EQDQ01  00002PRCP99
0174825710999992000083118004-05500-045260FM-12+017499999V0201401N003112200019N0100001N1+03061+02021100921ADDAA106000191AY161061GF103991021011008001001011MA1999999098971MD1999999-0131MW1011REMSYN082AAXX  31184 82571 21597 31406 10306 20202 39897 40092 7016/ 82101 333 59013 69921;
0208825710999992000090100004-05500-045260FM-12+017499999V0209999C000012200019N0100001N1+02601+01961101151ADDAA199000091GA1001+999999999GF100991001001999999001001KA1240M+03221MA1999999099181MD1999999+0021REMSYN082AAXX  01004 82571 32997 00000 10260 20196 39918 40115 333 10322 29068 55074 58002;EQDQ01  00002PRCP99
0173825710999992000090112004-05500-045260FM-12+017499999V0202301N001010042019N0100001N1+02221+01991101481ADDAA124000191GF108991081051004501999999KA1240N+01741MA1999999099491MD1999999+0031REMSYN082AAXX  01124 82571 22497 82302 10222 20199 39949 40148 885// 333 20174 58003 69924;
0167825710999992000090118004-05500-045260FM-12+017499999V0202301N001012200019N0100001N1+03371+02091100891ADDAA199000091GF104991031021008001001011MA1999999098941MD1999999-0031REMSYN070AAXX  01184 82571 32597 42302 10337 20209 39894 40089 83201 333 59003;EQDQ01  00002PRCP99
0208825710999992000090200004-05500-045260FM-12+017499999V0203201N001012200019N0100001N1+02701+02301101061ADDAA199000091GA1001+999999999GF100991001001999999001001KA1240M+03401MA1999999099081MD1999999-0101REMSYN082AAXX  02004 82571 32997 03202 10270 20230 39908 40106 333 10340 29073 55066 59010;EQDQ01  00002PRCP99
0186825710999992000090212004-05500-045260FM-12+017499999V0200501N003112200019N0100001N1+02581+02291101331ADDAA199000091GF104991041021004501001001KA1240N+01981MA1999999099361MD1999999-0131REMSYN076AAXX  02124 82571 32497 40506 10258 20229 39936 40133 84200 333 20198 59013;EQDQ01  00002PRCP99
0167825710999992000090218004-05500-045260FM-12+017499999V0202301N001010450019N0100001N1+03361+02211100901ADDAA199000091GF106991031021008001011011MA1999999098951MD1999999+0011REMSYN070AAXX  02184 82571 32597 62302 10336 20221 39895 40090 83211 333 58001;EQDQ01  00002PRCP99
0208825710999992000090300004-05500-045260FM-12+017499999V0202701N001012200019N0100001N1+02761+02341101121ADDAA199000091GA1001+999999999GF100991001001999999001001KA1240M+03421MA1999999099151MD1999999+0071REMSYN082AAXX  03004 82571 32997 02702 10276 20234 39915 40112 333 10342 29073 55093 58007;EQDQ01  00002PRCP99
0186825710999992000090312004-05500-045260FM-12+017499999V0200501N001010042019N0100001N1+02521+02311101371ADDAA199000091GF108991081051004501001001KA1240N+02001MA1999999099401MD1999999+0041REMSYN076AAXX  03124 82571 32497 80502 10252 20231 39940 40137 88500 333 20200 58004;EQDQ01  00002PRCP99
0167825710999992000090318004-05500-045260FM-12+017499999V0203601N001012200019N0100001N1+03241+02391100951ADDAA199000091GF104991041021008001001001MA1999999099001MD1999999+0051REMSYN070AAXX  03184 82571 32597 43602 10324 20239 39900 40095 84200 333 58005;EQDQ01  00002PRCP99
0208825710999992000090400004-05500-045260FM-12+017499999V0209999C000012200019N0100001N1+02681+02221101121ADDAA199000091GA1001+999999999GF100991001001999999001001KA1240M+03371MA1999999099151MD1999999+0001REMSYN082AAXX  04004 82571 32997 00000 10268 20222 39915 40112 333 10337 29075 55042 58000;EQDQ01  00002PRCP99
0186825710999992000090412004-05500-045260FM-12+017499999V0201401N001010075019N0100001N1+02461+02341101531ADDAA199000091GF108991081051008001999999KA1240N+02071MA1999999099551MD1999999+0151REMSYN076AAXX  04124 82571 32597 81402 10246 20234 39955 40153 885// 333 20207 58015;EQDQ01  00002PRCP99
0167825710999992000090418004-05500-045260FM-12+017499999V0201401N001010450019N0100001N1+03241+02361100961ADDAA199000091GF105991031021008001031001MA1999999099011MD1999999+0011REMSYN070AAXX  04184 82571 32597 51402 10324 20236 39901 40096 83230 333 58001;EQDQ01  00002PRCP99
0186825710999992000090512004-05500-045260FM-12+017499999V0200501N003110042019N0100001N1+02571+02291101411ADDAA199000091GF108991081051004501999999KA1240N+02141MA1999999099441MD1999999-0111REMSYN076AAXX  05124 82571 32497 80506 10257 20229 39944 40141 885// 333 20214 59011;EQDQ01  00002PRCP99
0167825710999992000090518004-05500-045260FM-12+017499999V0203201N001012200019N0100001N1+03161+02371100971ADDAA199000091GF103991031021008001001001MA1999999099021MD1999999+0011REMSYN070AAXX  05184 82571 32597 33202 10316 20237 39902 40097 83200 333 58001;EQDQ01  00002PRCP99
0213825710999992000090600004-05500-045260FM-12+017499999V0202301N001010075019N0100001N1+02401+02301101161ADDAA106008991AY191061AY261061GF108991081051008001999999KA1240M+03271MA1999999099181MD1999999+0061MW1021REMSYN100AAXX  06004 82571 21597 82302 10240 20230 39918 40116 70296 885// 333 10327 29084 55036 58006 60091;
0173825710999992000090612004-05500-045260FM-12+017499999V0200501N001010075019N0100001N1+02461+02271101461ADDAA124008991GF108991081051008001999999KA1240N+02181MA1999999099471MD1999999+0031REMSYN082AAXX  06124 82571 22597 80502 10246 20227 39947 40146 885// 333 20218 58003 60094;
0167825710999992000090618004-05500-045260FM-12+017499999V0200501N001010450019N0100001N1+02861+02391101071ADDAA199000091GF107991041051008001031011MA1999999099131MD1999999+0091REMSYN070AAXX  06184 82571 32597 70502 10286 20239 39913 40107 84531 333 58009;EQDQ01  00002PRCP99
0208825710999992000090700004-05500-045260FM-12+017499999V0202301N001012200019N0100001N1+02581+02401101171ADDAA199000091GA1001+999999999GF100991001001999999001001KA1240M+03031MA1999999099191MD1999999+0011REMSYN082AAXX  07004 82571 32997 02302 10258 20240 39919 40117 333 10303 29086 55023 58001;EQDQ01  00002PRCP99
0186825710999992000090712004-05500-045260FM-12+017499999V0203201N001012200019N0100001N1+02531+02251101421ADDAA199000091GF104991041021008001001001KA1240N+02251MA1999999099441MD1999999-0031REMSYN076AAXX  07124 82571 32597 43202 10253 20225 39944 40142 84200 333 20225 59003;EQDQ01  00002PRCP99
0167825710999992000090718004-05500-045260FM-12+017499999V0201801N001012200019N0100001N1+03161+02321100851ADDAA199000091GF102991021021008001001001MA1999999098901MD1999999-0211REMSYN070AAXX  07184 82571 32597 21802 10316 20232 39890 40085 82200 333 59021;EQDQ01  00002PRCP99
0214825710999992000090800004-05500-045260FM-12+017499999V0209999C000012200019N0100001N1+02661+02491101101ADDAA199000091GF102991999001017501041001KA1240M+03251MA1999999099131MD1999999-0061REMSYN088AAXX  08004 82571 32797 20000 10266 20249 39913 40110 80040 333 10325 29080 55072 59006;EQDQ01+000002SCOTLCQ02  00002PRCP99
0167825710999992000090818004-05500-045260FM-12+017499999V0201401N001010450019N0100001N1+02851+02331100981ADDAA199000091GF106991041051008001041001MA1999999099011MD1999999+0111REMSYN070AAXX  08184 82571 32597 61402 10285 20233 39901 40098 84540 333 58011;EQDQ01  00002PRCP99
0198825710999992000090900004-05500-045260FM-12+017499999V0209999C000012200019N0100001N1+02571+02441101071ADDAA199000091GF104991041061008001001001KA1240M+02911MA1999999099091MD1999999-0041REMSYN088AAXX  09004 82571 32597 40000 10257 20244 39909 40107 84600 333 10291 29088 55000 59004;EQDQ01  00002PRCP99
0201825710999992000090912004-05500-045260FM-12+017499999V0200901N000510075019N0100001N1+02351+02191101381ADDAA124000191AY161061AY241061GF108991081051008001999999KA1240N+02061MA1999999099391MD1999999-0081MW1021REMSYN088AAXX  09124 82571 21597 80901 10235 20219 39939 40138 70264 885// 333 20206 59008 69914;
0182825710999992000090918004-05500-045260FM-12+017499999V0202301N001010450019N0100001N1+02851+02481100951ADDAA106009991AY191061AY261061GF105991031031008001031001MA1999999098981MD1999999-0031MW1921REMSYN082AAXX  09184 82571 21597 52302 10285 20248 39898 40095 79296 83330 333 59003 60101;
0198825710999992000091000004-05500-045260FM-12+017499999V0202301N001012200019N0100001N1+02561+02291101131ADDAA199000021GF104991999001017501031001KA1240M+03171MA1999999099151MD1999999+0061REMSYN088AAXX  10004 82571 32797 42302 10256 20229 39915 40113 83030 333 10317 29085 55038 58006;EQDQ01+000032SCOTLC
0173825710999992000091012004-05500-045260FM-12+017499999V0203201N001010075019N0100001N1+02581+02351101371ADDAA124009991GF106991061051008001001001KA1240N+02141MA1999999099391MD1999999+0001REMSYN082AAXX  10124 82571 22597 63202 10258 20235 39939 40137 86500 333 20214 58000 60104;
0167825710999992000091018004-05500-045260FM-12+017499999V0200501N001012200019N0100001N1+03101+02341100941ADDAA199000091GF104991021021008001031001MA1999999098981MD1999999+0001REMSYN070AAXX  10184 82571 32597 40502 10310 20234 39898 40094 82230 333 58000;EQDQ01  00002PRCP99
0210825710999992000091100004-05500-045260FM-12+017499999V0209999C000010120019N0100001N1+02631+02271101021ADDAA199000091GF106991061081008001001001KA1240M+03191MA1999999099051MD1999999-0101MW1131REMSYN094AAXX  11004 82571 31597 60000 10263 20227 39905 40102 713// 86800 333 10319 29078 55068 59010;EQDQ01  00002PRCP99
0186825710999992000091112004-05500-045260FM-12+017499999V0200901N002110042019N0100001N1+02441+02301101401ADDAA199000091GF108991081051004501999999KA1240N+02171MA1999999099421MD1999999+0031REMSYN076AAXX  11124 82571 32497 80904 10244 20230 39942 40140 885// 333 20217 58003;EQDQ01  00002PRCP99
0166825710999992000091118004-05500-045260FM-12+017499999V0203601N002112200019N0100001N1+02941+02431100911ADDAA106000191GF104991031021008001011001MA1999999098951MD1999999-0031MW1611REMSYN082AAXX  11184 82571 21597 43604 10294 20243 39895 40091 761// 83210 333 59003 69921;
0199825710999992000091200004-05500-045260FM-12+017499999V0202301N001012200019N0100001N1+02421+02251101131ADDAA199000021AY191061GF102991011001017501011011KA1240M+03121MA1999999099151MD1999999+0101MW1131REMSYN094AAXX  12004 82571 31797 22302 10242 20225 39915 40113 7139/ 81011 333 10312 29086 55038 58010;
0167825710999992000091218004-05500-045260FM-12+017499999V0201801N001012200019N0100001N1+03141+02351100971ADDAA199000091GF104991041021008001001001MA1999999099011MD1999999+0061REMSYN070AAXX  12184 82571 32597 41802 10314 20235 39901 40097 84200 333 58006;EQDQ01  00002PRCP99
0198825710999992000091300004-05500-045260FM-12+017499999V0203201N001012200019N0100001N1+02691+02411101081ADDAA199000091GF101991011001017501041001KA1240M+03221MA1999999099111MD1999999-0041REMSYN088AAXX  13004 82571 32797 13202 10269 20241 39911 40108 81040 333 10322 29082 55050 59004;EQDQ01  00002PRCP99
0201825710999992000091312004-05500-045260FM-12+017499999V0200501N001010450019N0040001N1+02241+02141101581ADDAA124007191AY191061AY261061GF108991031071004501021999KA1240N+02101MA1999999099591MD1999999+0141MW1911REMSYN088AAXX  13124 82571 21496 80502 10224 20214 39959 40158 79196 8372/ 333 20210 58014 60074;
0174825710999992000091318004-05500-045260FM-12+017499999V0200901N001012200019N0100001N1+03101+02411101061ADDAA106002091AY161061GF104991041021008001001001MA1999999099101MD1999999+0091MW1011REMSYN082AAXX  13184 82571 21597 40902 10310 20241 39910 40106 7016/ 84200 333 58009 60021;
0189825710999992000091400004-05500-045260FM-12+017499999V0202301N001012200019N0100001N1+02741+02561101201ADDAA199000021GA1001+999999999GF100991001001999999001001KA1240M+03231MA1999999099221MD1999999+0111REMSYN082AAXX  14004 82571 32997 02302 10274 20256 39922 40120 333 10323 29085 55043 58011;
0173825710999992000091412004-05500-045260FM-12+017499999V0201801N002110450019N0100001N1+02511+02341101551ADDAA124002091GF105991041021004501031001KA1240N+02161MA1999999099571MD1999999-0021REMSYN082AAXX  14124 82571 22497 51804 10251 20234 39957 40155 84230 333 20216 59002 60024;
0167825710999992000091418004-05500-045260FM-12+017499999V0200501N003112200019N0100001N1+03251+02211101061ADDAA199000091GF104991041021008001001001MA1999999099111MD1999999+0011REMSYN070AAXX  14184 82571 32597 40506 10325 20221 39911 40106 84200 333 58001;EQDQ01  00002PRCP99
0188825710999992000091500004-05500-045260FM-12+017499999V0202301N001012200019N0100001N1+02721+02471101131ADDAA199000091GA1001+999999999GF100991001001999999001001KA1240M+03281MA1999999099161REMSYN076AAXX  15004 82571 32997 02302 10272 20247 39916 40113 333 10328 29079 55079;EQDQ01  00002PRCP99
0201825710999992000091512004-05500-045260FM-12+017499999V0201401N001010450019N0100001N1+02331+02311101581ADDAA124006191AY191061AY261061GF108991031071004501021999KA1240N+02141MA1999999099591MD1999999+0021MW1911REMSYN088AAXX  15124 82571 21497 81402 10233 20231 39959 40158 79196 8372/ 333 20214 58002 60064;
0174825710999992000091518004-05500-045260FM-12+017499999V0200901N003110450019N0100001N1+03141+02241101081ADDAA106000191AY161061GF106991021021008001011011MA1999999099131MD1999999+0021MW1011REMSYN082AAXX  15184 82571 21597 60906 10314 20224 39913 40108 7016/ 82211 333 58002 69921;
0179825710999992000091600004-05500-045260FM-12+017499999V0209999C000012200019N0100001N1+02701+02451101241ADDAA199000021GF101991011001017501031001KA1240M+03231MA1999999099261MD1999999+0101REMSYN088AAXX  16004 82571 32797 10000 10270 20245 39926 40124 81030 333 10323 29082 55036 58010;
0173825710999992000091612004-05500-045260FM-12+017499999V0200501N002110042019N0100001N1+02471+02341101541ADDAA124000191GF107991071021004501001001KA1240N+02101MA1999999099561MD1999999-0031REMSYN082AAXX  16124 82571 22497 70504 10247 20234 39956 40154 87200 333 20210 59003 69924;
0167825710999992000091618004-05500-045260FM-12+017499999V0200501N003112200019N0100001N1+03221+02321101001ADDAA199000091GF103991031021008001001001MA1999999099051MD1999999-0081REMSYN070AAXX  16184 82571 32597 30506 10322 20232 39905 40100 83200 333 59008;EQDQ01  00002PRCP99
0208825710999992000091700004-05500-045260FM-12+017499999V0209999C000012200019N0100001N1+02751+02501101191ADDAA199000091GA1001+999999999GF100991001001999999001001KA1240M+03291MA1999999099221MD1999999-0041REMSYN082AAXX  17004 82571 32997 00000 10275 20250 39922 40119 333 10329 29081 55071 59004;EQDQ01  00002PRCP99
0206825710999992000091712004-05500-045260FM-12+017499999V0201401N001010450019N0100001N1+02561+02381101501ADDAA199000091AY191061GF106991041051008001031001KA1240N+02161MA1999999099531MD1999999-0031MW1011REMSYN082AAXX  17124 82571 31597 61402 10256 20238 39953 40150 7019/ 84530 333 20216 59003;EQDQ01  00002PRCP99
0167825710999992000091718004-05500-045260FM-12+017499999V0201401N001010075019N0100001N1+03221+02261101011ADDAA199000091GF105991051021008001001001MA1999999099061MD1999999+0011REMSYN070AAXX  17184 82571 32597 51402 10322 20226 39906 40101 85200 333 58001;EQDQ01  00002PRCP99
0208825710999992000091800004-05500-045260FM-12+017499999V0202301N001012200019N0100001N1+02771+02481101211ADDAA199000091GA1001+999999999GF100991001001999999001001KA1240M+03311MA1999999099241MD1999999+0041REMSYN082AAXX  18004 82571 32997 02302 10277 20248 39924 40121 333 10331 29079 55063 58004;EQDQ01  00002PRCP99
0201825710999992000091812004-05500-045260FM-12+017499999V0200501N003112200019N0100001N1+02681+02391101501ADDAA124000191AY191061AY211061GF104991041021008001001001KA1240N+02221MA1999999099531MD1999999+0001MW1011REMSYN088AAXX  18124 82571 21597 40506 10268 20239 39953 40150 70191 84200 333 20222 58000 69914;
0167825710999992000091818004-05500-045260FM-12+017499999V0201401N003112200019N0100001N1+03211+02171101071ADDAA199000091GF104991041021008001001001MA1999999099121MD1999999+0061REMSYN070AAXX  18184 82571 32597 41406 10321 20217 39912 40107 84200 333 58006;EQDQ01  00002PRCP99
0208825710999992000091900004-05500-045260FM-12+017499999V0209999C000012200019N0100001N1+02801+02381101221ADDAA199000091GA1001+999999999GF100991001001999999001001KA1240M+03311MA1999999099261MD1999999+0021REMSYN082AAXX  19004 82571 32997 00000 10280 20238 39926 40122 333 10331 29074 55097 58002;EQDQ01  00002PRCP99
0186825710999992000091912004-05500-045260FM-12+017499999V0200901N003112200019N0100001N1+02641+02331101521ADDAA199000091GF104991021021008001031001KA1240N+02171MA1999999099551MD1999999+0021REMSYN076AAXX  19124 82571 32597 40906 10264 20233 39955 40152 82230 333 20217 58002;EQDQ01  00002PRCP99
0167825710999992000091918004-05500-045260FM-12+017499999V0201401N003112200019N0100001N1+03311+01891101041ADDAA199000091GF102991021021008001001001MA1999999099101MD1999999-0021REMSYN070AAXX  19184 82571 32597 21406 10331 20189 39910 40104 82200 333 59002;EQDQ01  00002PRCP99
0208825710999992000092000004-05500-045260FM-12+017499999V0203601N001012200019N0100001N1+02721+02051101251ADDAA199000091GA1001+999999999GF100991001001999999001001KA1240M+03351MA1999999099291MD1999999+0031REMSYN082AAXX  20004 82571 32997 03602 10272 20205 39929 40125 333 10335 29065 55100 58003;EQDQ01  00002PRCP99
0186825710999992000092012004-05500-045260FM-12+017499999V0201401N003112200019N0100001N1+02601+02271101451ADDAA199000091GF102991021021008001001001KA1240N+01941MA1999999099481MD1999999-0071REMSYN076AAXX  20124 82571 32597 21406 10260 20227 39948 40145 82200 333 20194 59007;EQDQ01  00002PRCP99
0167825710999992000092018004-05500-045260FM-12+017499999V0201401N002112200019N0100001N1+03301+01981101021ADDAA199000091GF103991031021008001001001MA1999999099071MD1999999-0031REMSYN070AAXX  20184 82571 32597 31404 10330 20198 39907 40102 83200 333 59003;EQDQ01  00002PRCP99
0208825710999992000092100004-05500-045260FM-12+017499999V0200501N001012200019N0100001N1+02741+02141101101ADDAA199000091GA1001+999999999GF100991001001999999001001KA1240M+03381MA1999999099141MD1999999-0151REMSYN082AAXX  21004 82571 32997 00502 10274 20214 39914 40110 333 10338 29067 55099 59015;EQDQ01  00002PRCP99
0186825710999992000092112004-05500-045260FM-12+017499999V0201401N001010450019N0100001N1+02561+02311101361ADDAA199000091GF105991031051008001031001KA1240N+01941MA1999999099391MD1999999-0091REMSYN076AAXX  21124 82571 32597 51402 10256 20231 39939 40136 83530 333 20194 59009;EQDQ01  00002PRCP99
0167825710999992000092118004-05500-045260FM-12+017499999V0200901N001012200019N0100001N1+03321+02001101041ADDAA199000091GF102991021021008001001001MA1999999099051MD1999999-0021REMSYN070AAXX  21184 82571 32597 20902 10332 20200 39905 40104 82200 333 59002;EQDQ01  00002PRCP99
0186825710999992000092212004-05500-045260FM-12+017499999V0200501N001010450019N0100001N1+02551+02311101521ADDAA199000091GF106991041051008001031001KA1240N+01961MA1999999099541MD1999999+0151REMSYN076AAXX  22124 82571 32597 60502 10255 20231 39954 40152 84530 333 20196 58015;EQDQ01  00002PRCP99
0167825710999992000092218004-05500-045260FM-12+017499999V0201801N001012200019N0100001N1+03351+02001101031ADDAA199000091GF103991031021008001001001MA1999999099081MD1999999+0031REMSYN070AAXX  22184 82571 32597 31802 10335 20200 39908 40103 83200 333 58003;EQDQ01  00002PRCP99
0208825710999992000092300004-05500-045260FM-12+017499999V0209999C000012200019N0100001N1+02741+02321101161ADDAA199000091GA1001+999999999GF100991001001999999001001KA1240M+03401MA1999999099191MD1999999-0041REMSYN082AAXX  23004 82571 32997 00000 10274 20232 39919 40116 333 10340 29072 55079 59004;EQDQ01  00002PRCP99
0186825710999992000092312004-05500-045260FM-12+017499999V0200901N001010075019N0100001N1+02471+02251101451ADDAA199000091GF108991081051008001999999KA1240N+02111MA1999999099471MD1999999-0071REMSYN076AAXX  23124 82571 32597 80902 10247 20225 39947 40145 885// 333 20211 59007;EQDQ01  00002PRCP99
0167825710999992000092318004-05500-045260FM-12+017499999V0200501N003112200019N0100001N1+03251+01881100901ADDAA199000091GF102991021021008001001001MA1999999098961MD1999999-0121REMSYN070AAXX  23184 82571 32597 20506 10325 20188 39896 40090 82200 333 59012;EQDQ01  00002PRCP99
0208825710999992000092400004-05500-045260FM-12+017499999V0202301N001012200019N0100001N1+02721+02391101041ADDAA199000091GA1001+999999999GF100991001001999999001001KA1240M+03341MA1999999099071MD1999999-0121REMSYN082AAXX  24004 82571 32997 02302 10272 20239 39907 40104 333 10334 29076 55054 59012;EQDQ01  00002PRCP99
0186825710999992000092412004-05500-045260FM-12+017499999V0200501N003110075019N0100001N1+02581+02311101291ADDAA199000091GF108991081051008001999999KA1240N+02171MA1999999099311MD1999999-0161REMSYN076AAXX  24124 82571 32597 80506 10258 20231 39931 40129 885// 333 20217 59016;EQDQ01  00002PRCP99
0167825710999992000092418004-05500-045260FM-12+017499999V0201401N001010075019N0100001N1+03301+02271100821ADDAA199000091GF105991051021008001001001MA1999999098881MD1999999-0081REMSYN070AAXX  24184 82571 32597 51402 10330 20227 39888 40082 85200 333 59008;EQDQ01  00002PRCP99
0167825710999992000092518004-05500-045260FM-12+017499999V0200501N003112200019N0100001N1+03281+02231101021ADDAA199000091GF103991031011008001001001MA1999999099081MD1999999+0201REMSYN070AAXX  25184 82571 32597 30506 10328 20223 39908 40102 83100 333 58020;EQDQ01  00002PRCP99
0208825710999992000092600004-05500-045260FM-12+017499999V0209999C000012200019N0100001N1+02791+02421101221ADDAA199000091GA1001+999999999GF100991001001999999001001KA1240M+03361MA1999999099261MD1999999+0231REMSYN082AAXX  26004 82571 32997 00000 10279 20242 39926 40122 333 10336 29074 55065 58023;EQDQ01  00002PRCP99
0186825710999992000092612004-05500-045260FM-12+017499999V0200501N001010042019N0100001N1+02611+02351101591ADDAA199000091GF108991081051004501999999KA1240N+02261MA1999999099621MD1999999+0191REMSYN076AAXX  26124 82571 32497 80502 10261 20235 39962 40159 885// 333 20226 58019;EQDQ01  00002PRCP99
0174825710999992000092618004-05500-045260FM-12+017499999V0201401N002112200019N0100001N1+03251+02181101101ADDAA106000191AY161061GF103991021021008001001011MA1999999099151MD1999999+0071MW1011REMSYN082AAXX  26184 82571 21597 31404 10325 20218 39915 40110 7016/ 82201 333 58007 69911;
0208825710999992000092700004-05500-045260FM-12+017499999V0209999C000012200019N0100001N1+02821+02441101201ADDAA199000091GA1001+999999999GF100991001001999999001001KA1240M+03341MA1999999099241MD1999999-0021REMSYN082AAXX  27004 82571 32997 00000 10282 20244 39924 40120 333 10334 29074 55065 59002;EQDQ01  00002PRCP99
0173825710999992000092712004-05500-045260FM-12+017499999V0200501N004110042019N0100001N1+02581+02291101551ADDAA124000191GF107991071051004501001001KA1240N+02241MA1999999099581MD1999999-0041REMSYN082AAXX  27124 82571 22497 70508 10258 20229 39958 40155 87500 333 20224 59004 69914;
0167825710999992000092718004-05500-045260FM-12+017499999V0201401N002110450019N0100001N1+03241+02131100981ADDAA199000091GF106991031021008001011011MA1999999099041MD1999999-0111REMSYN070AAXX  27184 82571 32597 61404 10324 20213 39904 40098 83211 333 59011;EQDQ01  00002PRCP99
0186825710999992000092812004-05500-045260FM-12+017499999V0200501N002110042019N0100001N1+02621+02271101531ADDAA199000091GF106991061051004501001001KA1240N+02201MA1999999099561MD1999999-0021REMSYN076AAXX  28124 82571 32497 60504 10262 20227 39956 40153 86500 333 20220 59002;EQDQ01  00002PRCP99
0174825710999992000092818004-05500-045260FM-12+017499999V0202301N002110450019N0100001N1+02901+02431101031ADDAA106002091AY161061GF105991031021008001041001MA1999999099071MD1999999+0031MW1011REMSYN082AAXX  28184 82571 21597 52304 10290 20243 39907 40103 7016/ 83240 333 58003 60021;
0208825710999992000092900004-05500-045260FM-12+017499999V0202701N001012200019N0100001N1+02661+02431101221ADDAA199000091GA1001+999999999GF100991001001999999001001KA1240M+03131MA1999999099251MD1999999+0021REMSYN082AAXX  29004 82571 32997 02702 10266 20243 39925 40122 333 10313 29083 55017 58002;EQDQ01  00002PRCP99
0173825710999992000092912004-05500-045260FM-12+017499999V0201401N002110042019N0100001N1+02461+02301101591ADDAA124002091GF108991081051004501999999KA1240N+02101MA1999999099611MD1999999+0051REMSYN082AAXX  29124 82571 22497 81404 10246 20230 39961 40159 885// 333 20210 58005 60024;
0174825710999992000092918004-05500-045260FM-12+017499999V0200501N001010450019N0100001N1+03201+02211101041ADDAA106001091AY161061GF105991031021008001011001MA1999999099091MD1999999+0021MW1011REMSYN082AAXX  29184 82571 21597 50502 10320 20221 39909 40104 7016/ 83210 333 58002 60011;
0208825710999992000093000004-05500-045260FM-12+017499999V0209999C000012200019N0100001N1+02681+02371101231ADDAA199000091GA1001+999999999GF100991001001999999001001KA1240M+03291MA1999999099251MD1999999+0001REMSYN082AAXX  30004 82571 32997 00000 10268 20237 39925 40123 333 10329 29078 55041 58000;EQDQ01  00002PRCP99
0173825710999992000093012004-05500-045260FM-12+017499999V0200501N001010075019N0100001N1+02491+02321101571ADDAA124001091GF108991081051008001999999KA1240N+02031MA1999999099591MD1999999-0021REMSYN082AAXX  30124 82571 22597 80502 10249 20232 39959 40157 885// 333 20203 59002 60014;
0174825710999992000093018004-05500-045260FM-12+017499999V0200501N001012200019N0100001N1+03301+02151101051ADDAA106001091AY161061GF106991041021008001001011MA1999999099101MD1999999+0011MW1031REMSYN082AAXX  30184 82571 21597 60502 10330 20215 39910 40105 7036/ 84201 333 58001 69991;
0208825710999992000100100004-05500-045260FM-12+017499999V0209999C000012200019N0100001N1+02741+02341101191ADDAA199000091GA1001+999999999GF100991001001999999001001KA1240M+03381MA1999999099221MD1999999-0031REMSYN082AAXX  01004 82571 32997 00000 10274 20234 39922 40119 333 10338 29075 55049 59003;EQDQ01  00002PRCP99
0173825710999992000100112004-05500-045260FM-12+017499999V0200501N001010450019N0100001N1+02551+02331101631ADDAA124000891GF106991041051008001031001KA1240N+02231MA1999999099651MD1999999+0061REMSYN082AAXX  01124 82571 22597 60502 10255 20233 39965 40163 84530 333 20223 58006 69974;
0167825710999992000100118004-05500-045260FM-12+017499999V0200501N003112200019N0100001N1+03401+02071101111ADDAA199000091GF105991031021008001001011MA1999999099131MD1999999+0031REMSYN070AAXX  01184 82571 32597 50506 10340 20207 39913 40111 83201 333 58003;EQDQ01  00002PRCP99
0167825710999992000100218004-05500-045260FM-12+017499999V0200501N001010450019N0100001N1+03241+02221101151ADDAA199000091GF105991031021008001031001MA1999999099201MD1999999+0071REMSYN070AAXX  02184 82571 32597 50502 10324 20222 39920 40115 83230 333 58007;EQDQ01  00002PRCP99
0186825710999992000100312004-05500-045260FM-12+017499999V0200501N001010450019N0100001N1+02601+02211101481ADDAA199000091GF106991041051008001031001KA1240N+02071MA1999999099511MD1999999-0161REMSYN076AAXX  03124 82571 32597 60502 10260 20221 39951 40148 84530 333 20207 59016;EQDQ01  00002PRCP99
0167825710999992000100318004-05500-045260FM-12+017499999V0203201N003110450019N0100001N1+03281+02321101061ADDAA199000091GF105991031021008001031001MA1999999099071MD1999999-0131REMSYN070AAXX  03184 82571 32597 53206 10328 20232 39907 40106 83230 333 59013;EQDQ01  00002PRCP99
0208825710999992000100400004-05500-045260FM-12+017499999V0209999C000012200019N0100001N1+02791+02271101191ADDAA199000091GA1001+999999999GF100991001001999999001001KA1240M+03301MA1999999099231MD1999999-0021REMSYN082AAXX  04004 82571 32997 00000 10279 20227 39923 40119 333 10330 29070 55064 59002;EQDQ01  00002PRCP99
0206825710999992000100412004-05500-045260FM-12+017499999V0201401N001010075019N0100001N1+02331+02241101611ADDAA199000091AY191061GF108991081051008001999999KA1240N+02161MA1999999099631MD1999999+0121MW1021REMSYN082AAXX  04124 82571 31597 81402 10233 20224 39963 40161 7029/ 885// 333 20216 58012;EQDQ01  00002PRCP99
0167825710999992000100418004-05500-045260FM-12+017499999V0201801N003110450019N0100001N1+02951+02281101081ADDAA199000091GF106991031021008001031001MA1999999099101MD1999999+0031REMSYN070AAXX  04184 82571 32597 61806 10295 20228 39910 40108 83230 333 58003;EQDQ01  00002PRCP99
0208825710999992000100500004-05500-045260FM-12+017499999V0202301N001012200019N0100001N1+02581+02381101211ADDAA199000091GA1001+999999999GF100991001001999999001001KA1240M+03021MA1999999099231MD1999999+0001REMSYN082AAXX  05004 82571 32997 02302 10258 20238 39923 40121 333 10302 29085 55013 58000;EQDQ01  00002PRCP99
0186825710999992000100512004-05500-045260FM-12+017499999V0200501N003110075019N0100001N1+02601+02191101511ADDAA199000091GF106991061051008001001001KA1240N+02111MA1999999099531MD1999999-0101REMSYN076AAXX  05124 82571 32597 60506 10260 20219 39953 40151 86500 333 20211 59010;EQDQ01  00002PRCP99
0167825710999992000100518004-05500-045260FM-12+017499999V0203601N003112200019N0100001N1+03201+02271101111ADDAA199000091GF105991031021008001001011MA1999999099151MD1999999+0101REMSYN070AAXX  05184 82571 32597 53606 10320 20227 39915 40111 83201 333 58010;EQDQ01  00002PRCP99
0208825710999992000100600004-05500-045260FM-12+017499999V0202701N001012200019N0100001N1+02691+02411101181ADDAA199000091GA1001+999999999GF100991001001999999001001KA1240M+03241MA1999999099211MD1999999-0021REMSYN082AAXX  06004 82571 32997 02702 10269 20241 39921 40118 333 10324 29076 55055 59002;EQDQ01  00002PRCP99
0186825710999992000100612004-05500-045260FM-12+017499999V0200501N001010450019N0100001N1+02521+02351101421ADDAA199000091GF106991031021008001031001KA1240N+02101MA1999999099451MD1999999-0081REMSYN076AAXX  06124 82571 32597 60502 10252 20235 39945 40142 83230 333 20210 59008;EQDQ01  00002PRCP99
0167825710999992000100618004-05500-045260FM-12+017499999V0203601N001012200019N0100001N1+03321+02411100901ADDAA199000091GF105991041021008001001011MA1999999098961MD1999999-0191REMSYN070AAXX  06184 82571 32597 53602 10332 20241 39896 40090 84201 333 59019;EQDQ01  00002PRCP99
0208825710999992000100700004-05500-045260FM-12+017499999V0202301N001012200019N0100001N1+02791+02421101131ADDAA199000091GA1001+999999999GF100991001001999999001001KA1240M+03381MA1999999099161MD1999999-0051REMSYN082AAXX  07004 82571 32997 02302 10279 20242 39916 40113 333 10338 29077 55070 59005;EQDQ01  00002PRCP99
0186825710999992000100712004-05500-045260FM-12+017499999V0203601N003110075019N0100001N1+02531+02251101551ADDAA199000091GF108991081051008001999999KA1240N+02181MA1999999099581MD1999999+0131REMSYN076AAXX  07124 82571 32597 83606 10253 20225 39958 40155 885// 333 20218 58013;EQDQ01  00002PRCP99
0167825710999992000100718004-05500-045260FM-12+017499999V0203201N003111050019N0100001N1+03171+02441101101ADDAA199000091GF105991021021008001031011MA1999999099151MD1999999+0191REMSYN070AAXX  07184 82571 32597 53206 10317 20244 39915 40110 82231 333 58019;EQDQ01  00002PRCP99
0208825710999992000100800004-05500-045260FM-12+017499999V0202301N001012200019N0100001N1+02751+02461101161ADDAA199000091GA1001+999999999GF100991001001999999001001KA1240M+03271MA1999999099191MD1999999+0031REMSYN082AAXX  08004 82571 32997 02302 10275 20246 39919 40116 333 10327 29079 55051 58003;EQDQ01  00002PRCP99
0186825710999992000100812004-05500-045260FM-12+017499999V0200501N001010075019N0100001N1+02541+02251101601ADDAA199000091GF108991081051008001999999KA1240N+02261MA1999999099611MD1999999-0031REMSYN076AAXX  08124 82571 32597 80502 10254 20225 39961 40160 885// 333 20226 59003;EQDQ01  00002PRCP99
0167825710999992000100818004-05500-045260FM-12+017499999V0200501N003112200019N0100001N1+03221+02671101051ADDAA199000091GF103991031021008001001001MA1999999099101MD1999999+0051REMSYN070AAXX  08184 82571 32597 30506 10322 20267 39910 40105 83200 333 58005;EQDQ01  00002PRCP99
0208825710999992000100900004-05500-045260FM-12+017499999V0209999C000012200019N0100001N1+02781+02481101161ADDAA199000091GA1001+999999999GF100991001001999999001001KA1240M+03311MA1999999099191MD1999999+0001REMSYN082AAXX  09004 82571 32997 00000 10278 20248 39919 40116 333 10331 29081 55041 58000;EQDQ01  00002PRCP99
0186825710999992000100912004-05500-045260FM-12+017499999V0200501N003110042019N0100001N1+02641+02271101541ADDAA199000091GF106991061021004501001001KA1240N+02191MA1999999099571MD1999999-0041REMSYN076AAXX  09124 82571 32497 60506 10264 20227 39957 40154 86200 333 20219 59004;EQDQ01  00002PRCP99
0167825710999992000100918004-05500-045260FM-12+017499999V0200901N001012200019N0100001N1+03211+02231101111ADDAA199000091GF104991041021008001001001MA1999999099161MD1999999+0061REMSYN070AAXX  09184 82571 32597 40902 10321 20223 39916 40111 84200 333 58006;EQDQ01  00002PRCP99
0198825710999992000101000004-05500-045260FM-12+017499999V0202301N001012200019N0100001N1+02761+02421101211ADDAA199000091GF102991021001017501011001KA1240M+03311MA1999999099251MD1999999+0061REMSYN088AAXX  10004 82571 32797 22302 10276 20242 39925 40121 82010 333 10331 29075 55069 58006;EQDQ01  00002PRCP99
0186825710999992000101012004-05500-045260FM-12+017499999V0200501N002112200019N0100001N1+02751+02281101391ADDAA199000091GF103991031021004501001001KA1240N+02041MA1999999099431MD1999999-0141REMSYN076AAXX  10124 82571 32497 30504 10275 20228 39943 40139 83200 333 20204 59014;EQDQ01  00002PRCP99
0167825710999992000101018004-05500-045260FM-12+017499999V0200501N003112200019N0100001N1+03511+02181100841ADDAA199000091GF103991031021008001001001MA1999999098901MD1999999-0261REMSYN070AAXX  10184 82571 32597 30506 10351 20218 39890 40084 83200 333 59026;EQDQ01  00002PRCP99
0198825710999992000101100004-05500-045260FM-12+017499999V0202301N001012200019N0100001N1+02811+02361101081ADDAA199000091GF102991011011008001011001KA1240M+03571MA1999999099131MD1999999-0121REMSYN088AAXX  11004 82571 32597 22302 10281 20236 39913 40108 81110 333 10357 29068 55093 59012;EQDQ01  00002PRCP99
0186825710999992000101112004-05500-045260FM-12+017499999V0200501N001012200019N0100001N1+02671+02261101461ADDAA199000091GF102991011011004501011001KA1240N+02031MA1999999099501MD1999999+0071REMSYN076AAXX  11124 82571 32497 20502 10267 20226 39950 40146 81110 333 20203 58007;EQDQ01  00002PRCP99
0167825710999992000101118004-05500-045260FM-12+017499999V0200501N002112200019N0100001N1+03481+02111100871ADDAA199000091GF103991031021008001001001MA1999999098931MD1999999+0031REMSYN070AAXX  11184 82571 32597 30504 10348 20211 39893 40087 83200 333 58003;EQDQ01  00002PRCP99
0208825710999992000101200004-05500-045260FM-12+017499999V0209999C000012200019N0100001N1+02871+02461101041ADDAA199000091GA1001+999999999GF100991001001999999001001KA1240M+03531MA1999999099081MD1999999-0051REMSYN082AAXX  12004 82571 32997 00000 10287 20246 39908 40104 333 10353 29070 55092 59005;EQDQ01  00002PRCP99
0186825710999992000101212004-05500-045260FM-12+017499999V0200501N002112200019N0100001N1+02751+02321101401ADDAA199000091GF102991011011004501011001KA1240N+02161MA1999999099441MD1999999-0061REMSYN076AAXX  12124 82571 32497 20504 10275 20232 39944 40140 81110 333 20216 59006;EQDQ01  00002PRCP99
0167825710999992000101218004-05500-045260FM-12+017499999V0201401N004110450019N0100001N1+03481+02151100911ADDAA199000091GF105991041021008001011001MA1999999098981MD1999999+0051REMSYN070AAXX  12184 82571 32597 51408 10348 20215 39898 40091 84210 333 58005;EQDQ01  00002PRCP99
0198825710999992000101300004-05500-045260FM-12+017499999V0203601N001012200019N0100001N1+02781+02251101191ADDAA199000091GF102991021001017501011001KA1240M+03591MA1999999099231MD1999999+0151REMSYN088AAXX  13004 82571 32797 23602 10278 20225 39923 40119 82010 333 10359 29067 55086 58015;EQDQ01  00002PRCP99
0196825710999992000101312004-05500-045260FM-12+017499999V0201401N004112200019N0100001N1+02711+02101101591ADDAA199000091GA1001+999999999GF100991001001999999001001KA1240N+02131MA1999999099621MD1999999+0181REMSYN070AAXX  13124 82571 32997 01408 10271 20210 39962 40159 333 20213 58018;EQDQ01  00002PRCP99
0167825710999992000101318004-05500-045260FM-12+017499999V0200901N003112200019N0100001N1+03501+01941101001ADDAA199000091GF103991031021008001001001MA1999999099061MD1999999+0081REMSYN070AAXX  13184 82571 32597 30906 10350 20194 39906 40100 83200 333 58008;EQDQ01  00002PRCP99
0198825710999992000101400004-05500-045260FM-12+017499999V0209999C000012200019N0100001N1+02871+02301101241ADDAA199000091GF101991011001017501041001KA1240M+03571MA1999999099281MD1999999+0051REMSYN088AAXX  14004 82571 32797 10000 10287 20230 39928 40124 81040 333 10357 29063 55100 58005;EQDQ01  00002PRCP99
0186825710999992000101412004-05500-045260FM-12+017499999V0200501N003110042019N0100001N1+02591+02191101541ADDAA199000091GF106991061021004501001001KA1240N+02011MA1999999099571MD1999999-0051REMSYN076AAXX  14124 82571 32497 60506 10259 20219 39957 40154 86200 333 20201 59005;EQDQ01  00002PRCP99
0167825710999992000101418004-05500-045260FM-12+017499999V0200501N002112200019N0100001N1+03461+02021101061ADDAA199000091GF104991041021008001001001MA1999999099121MD1999999+0061REMSYN070AAXX  14184 82571 32597 40504 10346 20202 39912 40106 84200 333 58006;EQDQ01  00002PRCP99
0208825710999992000101500004-05500-045260FM-12+017499999V0209999C000012200019N0100001N1+02841+02351101221ADDAA199000091GA1001+999999999GF100991001001999999001001KA1240M+03561MA1999999099261MD1999999-0021REMSYN082AAXX  15004 82571 32997 00000 10284 20235 39926 40122 333 10356 29068 55082 59002;EQDQ01  00002PRCP99
0186825710999992000101512004-05500-045260FM-12+017499999V0200501N001012200019N0100001N1+02701+02281101471ADDAA199000091GF104991041021004501001001KA1240N+02101MA1999999099511MD1999999-0061REMSYN076AAXX  15124 82571 32497 40502 10270 20228 39951 40147 84200 333 20210 59006;EQDQ01  00002PRCP99
0167825710999992000101518004-05500-045260FM-12+017499999V0200901N005110450019N0100001N1+03471+02041100971ADDAA199000091GF105991031021008001031001MA1999999099031MD1999999-0091REMSYN070AAXX  15184 82571 32597 50910 10347 20204 39903 40097 83230 333 59009;EQDQ01  00002PRCP99
0198825710999992000101600004-05500-045260FM-12+017499999V0200501N001012200019N0100001N1+02841+02171101141ADDAA199000091GF101991011001017501031001KA1240M+03521MA1999999099181MD1999999-0081REMSYN088AAXX  16004 82571 32797 10502 10284 20217 39918 40114 81030 333 10352 29064 55090 59008;EQDQ01  00002PRCP99
0186825710999992000101612004-05500-045260FM-12+017499999V0201401N001010075019N0100001N1+02621+02271101641ADDAA199000091GF108991081051008001999999KA1240N+02261MA1999999099671MD1999999+0161REMSYN076AAXX  16124 82571 32597 81402 10262 20227 39967 40164 885// 333 20226 58016;EQDQ01  00002PRCP99
0167825710999992000101618004-05500-045260FM-12+017499999V0200501N001012200019N0100001N1+03361+02171101081ADDAA199000091GF102991021021008001001001MA1999999099141MD1999999+0111REMSYN070AAXX  16184 82571 32597 20502 10336 20217 39914 40108 82200 333 58011;EQDQ01  00002PRCP99
0208825710999992000101700004-05500-045260FM-12+017499999V0202301N001012200019N0100001N1+02821+02241101191ADDAA199000091GA1001+999999999GF100991001001999999001001KA1240M+03471MA1999999099231MD1999999+0051REMSYN082AAXX  17004 82571 32997 02302 10282 20224 39923 40119 333 10347 29068 55069 58005;EQDQ01  00002PRCP99
0186825710999992000101712004-05500-045260FM-12+017499999V0203601N001010075019N0100001N1+02671+02281101501ADDAA199000091GF106991061051008001001001KA1240N+02201MA1999999099541MD1999999-0151REMSYN076AAXX  17124 82571 32597 63602 10267 20228 39954 40150 86500 333 20220 59015;EQDQ01  00002PRCP99
0174825710999992000101718004-05500-045260FM-12+017499999V0202301N003110075019N0100001N1+02771+02421101261ADDAA106000891AY161061GF106991051051008001031001MA1999999099291MD1999999+0151MW1021REMSYN082AAXX  17184 82571 21597 62306 10277 20242 39929 40126 7026/ 85530 333 58015 69971;
0208825710999992000101800004-05500-045260FM-12+017499999V0209999C000012200019N0100001N1+02481+02391101281ADDAA199000091GA1001+999999999GF100991001001999999001001KA1240M+02951MA1999999099301MD1999999+0071REMSYN082AAXX  18004 82571 32997 00000 10248 20239 39930 40128 333 10295 29088 55008 58007;EQDQ01  00002PRCP99
0173825710999992000101812004-05500-045260FM-12+017499999V0200501N001010075019N0100001N1+02641+02331101651ADDAA124000891GF105991051051008001001001KA1240N+02131MA1999999099661MD1999999+0121REMSYN082AAXX  18124 82571 22597 50502 10264 20233 39966 40165 85500 333 20213 58012 69974;
0167825710999992000101818004-05500-045260FM-12+017499999V0201401N001012200019N0100001N1+03321+02141101171ADDAA199000091GF103991031021008001001001MA1999999099221MD1999999-0071REMSYN070AAXX  18184 82571 32597 31402 10332 20214 39922 40117 83200 333 59007;EQDQ01  00002PRCP99
0208825710999992000101900004-05500-045260FM-12+017499999V0202301N001012200019N0100001N1+02821+02401101241ADDAA199000091GA1001+999999999GF100991001001999999001001KA1240M+03441MA1999999099281MD1999999-0021REMSYN082AAXX  19004 82571 32997 02302 10282 20240 39928 40124 333 10344 29072 55077 59002;EQDQ01  00002PRCP99
0186825710999992000101912004-05500-045260FM-12+017499999V0203601N001010075019N0100001N1+02681+02281101461ADDAA199000091GF106991061051008001001001KA1240N+02221MA1999999099501MD1999999-0161REMSYN076AAXX  19124 82571 32597 63602 10268 20228 39950 40146 86500 333 20222 59016;EQDQ01  00002PRCP99
0167825710999992000101918004-05500-045260FM-12+017499999V0202701N001012200019N0100001N1+03411+02261100991ADDAA199000091GF103991031021008001001001MA1999999099051MD1999999-0171REMSYN070AAXX  19184 82571 32597 32702 10341 20226 39905 40099 83200 333 59017;EQDQ01  00002PRCP99
0208825710999992000102000004-05500-045260FM-12+017499999V0202701N001012200019N0100001N1+02881+02371101091ADDAA199000091GA1001+999999999GF100991001001999999001001KA1240M+03491MA1999999099141MD1999999-0141REMSYN082AAXX  20004 82571 32997 02702 10288 20237 39914 40109 333 10349 29070 55061 59014;EQDQ01  00002PRCP99
0186825710999992000102012004-05500-045260FM-12+017499999V0200501N003110042019N0100001N1+02731+02211101431ADDAA199000091GF106991061021004501001001KA1240N+02171MA1999999099471MD1999999-0031REMSYN076AAXX  20124 82571 32497 60506 10273 20221 39947 40143 86200 333 20217 59003;EQDQ01  00002PRCP99
0167825710999992000102018004-05500-045260FM-12+017499999V0203201N001012200019N0100001N1+03311+02381100971ADDAA199000091GF104991031021008001001011MA1999999099031MD1999999-0021REMSYN070AAXX  20184 82571 32597 43202 10331 20238 39903 40097 83201 333 59002;EQDQ01  00002PRCP99
0208825710999992000102100004-05500-045260FM-12+017499999V0209999C000012200019N0100001N1+02851+02391101071ADDAA199000091GA1001+999999999GF100991001001999999001001KA1240M+03421MA1999999099121MD1999999-0021REMSYN082AAXX  21004 82571 32997 00000 10285 20239 39912 40107 333 10342 29071 55064 59002;EQDQ01  00002PRCP99
0158825710999992000102112004-05500-045260FM-12+017499999V0203601N005110450019N0100001N1+02681+02161101261ADDAA199000091GF106991031021008001031001MA1999999099301REMSYN075AAXX  21124 82571 32597 63610 10268 20216 39930 40126 83230 333 2016 59017;EQDQ01  00002PRCP99
0167825710999992000102118004-05500-045260FM-12+017499999V0200901N001012200019N0100001N1+03361+02171100761ADDAA199000091GF103991021021008001031001MA1999999098831MD1999999-0201REMSYN070AAXX  21184 82571 32597 30902 10336 20217 39883 40076 82230 333 59020;EQDQ01  00002PRCP99
0208825710999992000102200004-05500-045260FM-12+017499999V0209999C000012200019N0100001N1+02901+02371100941ADDAA199000091GA1001+999999999GF100991001001999999001001KA1240M+03411MA1999999098991MD1999999-0131REMSYN082AAXX  22004 82571 32997 00000 10290 20237 39899 40094 333 10341 29067 55057 59013;EQDQ01  00002PRCP99
0167825710999992000102218004-05500-045260FM-12+017499999V0200501N001012200019N0100001N1+03441+02071100741ADDAA199000091GF104991031021008001001011MA1999999098811MD1999999-0021REMSYN070AAXX  22184 82571 32597 40502 10344 20207 39881 40074 83201 333 59002;EQDQ01  00002PRCP99
0208825710999992000102300004-05500-045260FM-12+017499999V0209999C000012200019N0100001N1+02921+02391100901ADDAA199000091GA1001+999999999GF100991001001999999001001KA1240M+03521MA1999999098961MD1999999-0031REMSYN082AAXX  23004 82571 32997 00000 10292 20239 39896 40090 333 10352 29065 55094 59003;EQDQ01  00002PRCP99
0186825710999992000102312004-05500-045260FM-12+017499999V0200501N003110450019N0100001N1+02751+02231101311ADDAA199000091GF106991031021008001031011KA1240N+02291MA1999999099361MD1999999+0091REMSYN076AAXX  23124 82571 32597 60506 10275 20223 39936 40131 83231 333 20229 58009;EQDQ01  00002PRCP99
0167825710999992000102318004-05500-045260FM-12+017499999V0200901N003112200019N0100001N1+03271+02291100861ADDAA199000091GF103991021021008001001011MA1999999098921MD1999999+0111REMSYN070AAXX  23184 82571 32597 30906 10327 20229 39892 40086 82201 333 58011;EQDQ01  00002PRCP99
0208825710999992000102400004-05500-045260FM-12+017499999V0209999C000012200019N0100001N1+02881+02371100961ADDAA199000091GA1001+999999999GF100991001001999999001001KA1240M+03351MA1999999099011MD1999999+0051REMSYN082AAXX  24004 82571 32997 00000 10288 20237 39901 40096 333 10335 29069 55066 58005;EQDQ01  00002PRCP99
0186825710999992000102412004-05500-045260FM-12+017499999V0200501N001010042019N0100001N1+02651+02311101281ADDAA199000091GF107991071021004501001001KA1240N+02281MA1999999099321MD1999999-0041REMSYN076AAXX  24124 82571 32497 70502 10265 20231 39932 40128 87200 333 20228 59004;EQDQ01  00002PRCP99
0167825710999992000102418004-05500-045260FM-12+017499999V0203601N002110450019N0100001N1+03201+02331100871ADDAA199000091GF106991031021008001011001MA1999999098931MD1999999+0011REMSYN070AAXX  24184 82571 32597 63604 10320 20233 39893 40087 83210 333 58001;EQDQ01  00002PRCP99
0208825710999992000102500004-05500-045260FM-12+017499999V0209999C000012200019N0100001N1+02741+02431100981ADDAA199000091GA1001+999999999GF100991001001999999001001KA1240M+03241MA1999999099021MD1999999+0011REMSYN082AAXX  25004 82571 32997 00000 10274 20243 39902 40098 333 10324 29077 55015 58001;EQDQ01  00002PRCP99
0186825710999992000102512004-05500-045260FM-12+017499999V0203201N001010042019N0100001N1+02541+02311101211ADDAA199000091GF106991061021004501001001KA1240N+02161MA1999999099241MD1999999-0081REMSYN076AAXX  25124 82571 32497 63202 10254 20231 39924 40121 86200 333 20216 59008;EQDQ01  00002PRCP99
0167825710999992000102518004-05500-045260FM-12+017499999V0200501N002110450019N0100001N1+03391+02211100771ADDAA199000091GF105991041021008001011001MA1999999098831MD1999999-0101REMSYN070AAXX  25184 82571 32597 50504 10339 20221 39883 40077 84210 333 59010;EQDQ01  00002PRCP99
0208825710999992000102600004-05500-045260FM-12+017499999V0202301N001012200019N0100001N1+02821+02481100911ADDAA199000091GA1001+999999999GF100991001001999999001001KA1240M+03431MA1999999098951MD1999999-0071REMSYN082AAXX  26004 82571 32997 02302 10282 20248 39895 40091 333 10343 29075 55025 59007;EQDQ01  00002PRCP99
0186825710999992000102612004-05500-045260FM-12+017499999V0203601N002110042019N0100001N1+02591+02291101331ADDAA199000091GF108991081051004501999999KA1240N+02251MA1999999099361MD1999999+0121REMSYN076AAXX  26124 82571 32497 83604 10259 20229 39936 40133 885// 333 20225 58012;EQDQ01  00002PRCP99
0167825710999992000102618004-05500-045260FM-12+017499999V0202301N001012200019N0100001N1+03301+02241100781ADDAA199000091GF104991041021008001001001MA1999999098841MD1999999+0011REMSYN070AAXX  26184 82571 32597 42302 10330 20224 39884 40078 84200 333 58001;EQDQ01  00002PRCP99
0208825710999992000102700004-05500-045260FM-12+017499999V0203201N001012200019N0100001N1+02771+02361100991ADDAA199000091GA1001+999999999GF100991001001999999001001KA1240M+03351MA1999999099031MD1999999-0081REMSYN082AAXX  27004 82571 32997 03202 10277 20236 39903 40099 333 10335 29073 55024 59008;EQDQ01  00002PRCP99
0186825710999992000102712004-05500-045260FM-12+017499999V0200501N002110042019N0100001N1+02701+02281101381ADDAA199000091GF108991081051004501999999KA1240N+02231MA1999999099421MD1999999+0061REMSYN076AAXX  27124 82571 32497 80504 10270 20228 39942 40138 885// 333 20223 58006;EQDQ01  00002PRCP99
0174825710999992000102718004-05500-045260FM-12+017499999V0201801N002110450019N0100001N1+02491+02361101101ADDAA106003091AY161061GF108991041071004501021999MA1999999099121MD1999999+0281MW1021REMSYN082AAXX  27184 82571 21497 81804 10249 20236 39912 40110 7026/ 8472/ 333 58028 60031;
0213825710999992000102800004-05500-045260FM-12+017499999V0202301N002112200019N0100001N1+02281+02211101201ADDAA106004191AY191061AY261061GF103991031021004501001001KA1240M+03131MA1999999099221MD1999999+0191MW1011REMSYN100AAXX  28004 82571 21497 32304 10228 20221 39922 40120 70196 83200 333 10313 29090 55008 58019 60041;
0173825710999992000102812004-05500-045260FM-12+017499999V0200501N003110042019N0100001N1+02511+02331101451ADDAA124007191GF107991071051004501001001KA1240N+02101MA1999999099461MD1999999+0041REMSYN082AAXX  28124 82571 22497 70506 10251 20233 39946 40145 87500 333 20210 58004 60074;
0167825710999992000102818004-05500-045260FM-12+017499999V0201801N002110450019N0100001N1+03231+02311100981ADDAA199000091GF107991041021008001011001MA1999999099021MD1999999-0101REMSYN070AAXX  28184 82571 32597 71804 10323 20231 39902 40098 84210 333 59010;EQDQ01  00002PRCP99
0218825710999992000102900004-05500-045260FM-12+017499999V0202301N001012200019N0100001N1+02741+02521101201ADDAA199000091AY191061GF102991021001017501011001KA1240M+03291MA1999999099231MD1999999+0011MW1021REMSYN094AAXX  29004 82571 31797 22302 10274 20252 39923 40120 7029/ 82010 333 10329 29080 55030 58001;EQDQ01  00002PRCP99
0186825710999992000102912004-05500-045260FM-12+017499999V0203601N002110042019N0100001N1+02571+02251101391ADDAA199000091GF106991051021004501011001KA1240N+02231MA1999999099421MD1999999-0041REMSYN076AAXX  29124 82571 32497 63604 10257 20225 39942 40139 85210 333 20223 59004;EQDQ01  00002PRCP99
0167825710999992000102918004-05500-045260FM-12+017499999V0203201N001010450019N0100001N1+03341+02281100861ADDAA199000091GF105991041021008001011001MA1999999098921MD1999999-0101REMSYN070AAXX  29184 82571 32597 53202 10334 20228 39892 40086 84210 333 59010;EQDQ01  00002PRCP99
0208825710999992000103000004-05500-045260FM-12+017499999V0202301N001012200019N0100001N1+02901+02431101071ADDAA199000091GA1001+999999999GF100991001001999999001001KA1240M+03431MA1999999099111MD1999999-0121REMSYN082AAXX  30004 82571 32997 02302 10290 20243 39911 40107 333 10343 29072 55063 59012;EQDQ01  00002PRCP99
0186825710999992000103012004-05500-045260FM-12+017499999V0200901N003110042019N0100001N1+02631+02331101401ADDAA199000091GF108991081051004501999999KA1240N+02211MA1999999099441MD1999999+0021REMSYN076AAXX  30124 82571 32497 80906 10263 20233 39944 40140 885// 333 20221 58002;EQDQ01  00002PRCP99
0167825710999992000103018004-05500-045260FM-12+017499999V0201401N002110450019N0100001N1+03201+02381100921ADDAA199000091GF106991021021008001031001MA1999999098981MD1999999+0061REMSYN070AAXX  30184 82571 32597 61404 10320 20238 39898 40092 82230 333 58006;EQDQ01  00002PRCP99
0208825710999992000103100004-05500-045260FM-12+017499999V0202301N001012200019N0100001N1+02831+02541101041ADDAA199000091GA1001+999999999GF100991001001999999001001KA1240M+03271MA1999999099081MD1999999-0031REMSYN082AAXX  31004 82571 32997 02302 10283 20254 39908 40104 333 10327 29078 55017 59003;EQDQ01  00002PRCP99
0186825710999992000103112004-05500-045260FM-12+017499999V0203601N001010450019N0100001N1+02651+02291101281ADDAA199000091GF106991031021004501031001KA1240N+02331MA1999999099381MD1999999-0121REMSYN076AAXX  31124 82571 32497 63602 10265 20229 39938 40128 83230 333 20233 59012;EQDQ01  00002PRCP99
0167825710999992000103118004-05500-045260FM-12+017499999V0203201N001010450019N0100001N1+03401+02311100751ADDAA199000091GF105991041021008001011001MA1999999098821MD1999999-0161REMSYN070AAXX  31184 82571 32597 53202 10340 20231 39882 40075 84210 333 59016;EQDQ01  00002PRCP99
0178825710999992000110100004-05500-045260FM-12+017499999V0202301N001012200019N0100001N1+99999+99999999999ADDAA199000091GA1001+999999999GF100991001001999999001001KA1240M+03471REMSYN081AAXX  01004 82571 32997 02302 1029 20249 39899 40094 333 10347 29072 55060 59008;EQDQ01  00002PRCP99
0193825710999992000110112004-05500-045260FM-12+017499999V0201401N002110042019N0100001N1+02411+02371101281ADDAA124007991AY161061GF107991071051004501001001KA1240N+02101MA1999999099321MD1999999+0001MW1021REMSYN088AAXX  01124 82571 21497 71404 10241 20237 39932 40128 7026/ 87500 333 20210 58000 60084;
0167825710999992000110118004-05500-045260FM-12+017499999V0201801N001010450019N0100001N1+03031+02431100841ADDAA199000091GF107991021021008001041011MA1999999098891MD1999999+0071REMSYN070AAXX  01184 82571 32597 71802 10303 20243 39889 40084 82241 333 58007;EQDQ01  00002PRCP99
0198825710999992000110200004-05500-045260FM-12+017499999V0202701N001012200019N0100001N1+02611+02421100991ADDAA199000091GF102991021001017501031001KA1240M+03071MA1999999099011MD1999999+0021REMSYN088AAXX  02004 82571 32797 22702 10261 20242 39901 40099 82030 333 10307 29086 55010 58002;EQDQ01  00002PRCP99
0186825710999992000110212004-05500-045260FM-12+017499999V0200501N003110075019N0100001N1+02591+02351101231ADDAA199000091GF106991061051008001001001KA1240N+02181MA1999999099261MD1999999-0061REMSYN076AAXX  02124 82571 32597 60506 10259 20235 39926 40123 86500 333 20218 59006;EQDQ01  00002PRCP99
0167825710999992000110218004-05500-045260FM-12+017499999V0200501N003112200019N0100001N1+03321+02381100691ADDAA199000091GF103991031021008001001001MA1999999098751MD1999999-0141REMSYN070AAXX  02184 82571 32597 30506 10332 20238 39875 40069 83200 333 59014;EQDQ01  00002PRCP99
0208825710999992000110300004-05500-045260FM-12+017499999V0209999C000012200019N0100001N1+02881+02501100851ADDAA199000091GA1001+999999999GF100991001001999999001001KA1240M+03391MA1999999098901MD1999999-0111REMSYN082AAXX  03004 82571 32997 00000 10288 20250 39890 40085 333 10339 29076 55055 59011;EQDQ01  00002PRCP99
0186825710999992000110312004-05500-045260FM-12+017499999V0203201N003112200019N0100001N1+02621+02291101051ADDAA199000091GF104991031021008001001011KA1240N+02191MA1999999099091MD1999999-0171REMSYN076AAXX  03124 82571 32597 43206 10262 20229 39909 40105 83201 333 20219 59017;EQDQ01  00002PRCP99
0167825710999992000110318004-05500-045260FM-12+017499999V0203601N003112200019N0100001N1+03341+02311100531ADDAA199000091GF105991031021008001001011MA1999999098601MD1999999-0151REMSYN070AAXX  03184 82571 32597 53606 10334 20231 39860 40053 83201 333 59015;EQDQ01  00002PRCP99
0208825710999992000110400004-05500-045260FM-12+017499999V0209999C000012200019N0100001N1+02901+02501100771ADDAA199000091GA1001+999999999GF100991001001999999001001KA1240M+03441MA1999999098821MD1999999-0081REMSYN082AAXX  04004 82571 32597 00000 10290 20250 39882 40077 333 10344 29074 55061 59008;EQDQ01  00002PRCP99
0193825710999992000110412004-05500-045260FM-12+017499999V0203601N001010075019N0100001N1+02581+02331101001ADDAA124000191AY161061GF108991081051008001999999KA1240N+02321MA1999999099051MD1999999-0041MW1021REMSYN088AAXX  04124 82571 21597 83602 10258 20233 39905 40100 7026/ 885// 333 20232 59004 69914;
0167825710999992000110418004-05500-045260FM-12+017499999V0200501N003110450019N0100001N1+02931+02381100661ADDAA199000091GF107991041051008001041011MA1999999098691MD1999999+0091REMSYN070AAXX  04184 82571 32597 70506 10293 20238 39869 40066 84541 333 58009;EQDQ01  00002PRCP99
0220825710999992000110500004-05500-045260FM-12+017499999V0209999C000012200019N0100001N1+02601+02351100811ADDAA199000091GA1001+999999999GF100991001001999999001001KA1240M+03011MA1999999098851MD1999999+0031MW1131REMSYN088AAXX  05004 82571 31997 00000 10260 20235 39885 40081 713// 333 10301 29082 55001 58003;EQDQ01  00002PRCP99
0186825710999992000110512004-05500-045260FM-12+017499999V0200501N003110075019N0100001N1+02641+02251101131ADDAA199000091GF108991081051008001999999KA1240N+02261MA1999999099161MD1999999-0111REMSYN076AAXX  05124 82571 32597 80506 10264 20225 39916 40113 885// 333 20226 59011;EQDQ01  00002PRCP99
0167825710999992000110518004-05500-045260FM-12+017499999V0201801N001010450019N0100001N1+03141+02211100721ADDAA199000091GF106991031031008001031011MA1999999098771MD1999999+0081REMSYN070AAXX  05184 82571 32597 61802 10314 20221 39877 40072 83331 333 58008;EQDQ01  00002PRCP99
0208825710999992000110600004-05500-045260FM-12+017499999V0209999C000012200019N0100001N1+02761+02461100851ADDAA199000091GA1001+999999999GF100991001001999999001001KA1240M+03201MA1999999098891MD1999999+0041REMSYN082AAXX  06004 82571 32997 00000 10276 20246 39889 40085 333 10320 29076 55001 58004;EQDQ01  00002PRCP99
0167825710999992000110618004-05500-045260FM-12+017499999V0201401N002112200019N0100001N1+03411+02291100561ADDAA199000091GF104991041021008001001001MA1999999098631MD1999999-0141REMSYN070AAXX  06184 82571 32597 41404 10341 20229 39863 40056 84200 333 59014;EQDQ01  00002PRCP99
0208825710999992000110700004-05500-045260FM-12+017499999V0202301N001012200019N0100001N1+02971+02441100701ADDAA199000091GA1001+999999999GF100991001001999999001001KA1240M+03491MA1999999098761MD1999999-0131REMSYN082AAXX  07004 82571 32997 02302 10297 20244 39876 40070 333 10349 29068 55092 59013;EQDQ01  00002PRCP99
0186825710999992000110712004-05500-045260FM-12+017499999V0200501N003110450019N0100001N1+02741+02211101071ADDAA199000091GF106991031021004501011001KA1240N+02271MA1999999099121MD1999999+0051REMSYN076AAXX  07124 82571 32497 60506 10274 20221 39912 40107 83210 333 20227 58005;EQDQ01  00002PRCP99
0167825710999992000110718004-05500-045260FM-12+017499999V0202301N002110042019N0100001N1+03451+02421100521ADDAA199000091GF105991051021004501001001MA1999999098601MD1999999-0031REMSYN070AAXX  07184 82571 32497 52304 10345 20242 39860 40052 85200 333 59003;EQDQ01  00002PRCP99
0198825710999992000110800004-05500-045260FM-12+017499999V0209999C000012200019N0100001N1+03011+02441100711ADDAA199000091GF102991021001017501011001KA1240M+03511MA1999999098771MD1999999+0011REMSYN088AAXX  08004 82571 32797 20000 10301 20244 39877 40071 82010 333 10351 29068 55067 58001;EQDQ01  00002PRCP99
0186825710999992000110812004-05500-045260FM-12+017499999V0203601N003110042019N0100001N1+02581+02231100981ADDAA199000091GF108991081051004501999999KA1240N+02241MA1999999099031MD1999999-0091REMSYN076AAXX  08124 82571 32497 83606 10258 20223 39903 40098 885// 333 20224 59009;EQDQ01  00002PRCP99
0167825710999992000110818004-05500-045260FM-12+017499999V0203201N002110450019N0100001N1+03121+02361100511ADDAA199000091GF107991031021008001071001MA1999999098571MD1999999-0031REMSYN070AAXX  08184 82571 32597 73204 10312 20236 39857 40051 83270 333 59003;EQDQ01  00002PRCP99
0198825710999992000110900004-05500-045260FM-12+017499999V0202301N001012200019N0100001N1+02801+02401100711ADDAA199000091GF104991041001017501041001KA1240M+03181MA1999999098761MD1999999-0011REMSYN088AAXX  09004 82571 32797 42302 10280 20240 39876 40071 84040 333 10318 29076 55004 59001;EQDQ01  00002PRCP99
0186825710999992000110912004-05500-045260FM-12+017499999V0200501N003110042019N0100001N1+02621+02271100941ADDAA199000091GF108991081051004501999999KA1240N+02241MA1999999098981MD1999999-0051REMSYN076AAXX  09124 82571 32497 80506 10262 20227 39898 40094 885// 333 20224 59005;EQDQ01  00002PRCP99
0167825710999992000110918004-05500-045260FM-12+017499999V0202701N001010075019N0100001N1+03021+02341100561ADDAA199000091GF107991051021008001071001MA1999999098611MD1999999+0041REMSYN070AAXX  09184 82571 32597 72702 10302 20234 39861 40056 85270 333 58004;EQDQ01  00002PRCP99
0198825710999992000111000004-05500-045260FM-12+017499999V0202301N001010150019N0100001N1+02701+02371100861ADDAA199000091GF106991061001017501051001KA1240M+03071MA1999999098901MD1999999+0141REMSYN088AAXX  10004 82571 32797 62302 10270 20237 39890 40086 86050 333 10307 29078 55000 58014;EQDQ01  00002PRCP99
0201825710999992000111012004-05500-045260FM-12+017499999V0200501N004110450019N0100001N1+02561+02271101031ADDAA124003091AY191061AY261061GF107991041021004501031011KA1240N+02191MA1999999099071MD1999999+0091MW1011REMSYN088AAXX  10124 82571 21497 70508 10256 20227 39907 40103 70196 84231 333 20219 58009 60034;
0167825710999992000111018004-05500-045260FM-12+017499999V0200501N002110042019N0100001N1+03131+02321100631ADDAA199000091GF107991051021004501011001MA1999999098691MD1999999+0081REMSYN070AAXX  10184 82571 32497 70504 10313 20232 39869 40063 85210 333 58008;EQDQ01  00002PRCP99
0186825710999992000111112004-05500-045260FM-12+017499999V0200501N003110042019N0100001N1+02611+02141101101ADDAA199000091GF107991051021004501071001KA1240N+02251MA1999999099131MD1999999+0061REMSYN076AAXX  11124 82571 32497 70506 10261 20214 39913 40110 85270 333 20225 58006;EQDQ01  00002PRCP99
0167825710999992000111118004-05500-045260FM-12+017499999V0202301N002110450019N0100001N1+03201+02241100601ADDAA199000091GF106991031021008001041001MA1999999098661MD1999999-0031REMSYN070AAXX  11184 82571 32597 62304 10320 20224 39866 40060 83240 333 59003;EQDQ01  00002PRCP99
0198825710999992000111200004-05500-045260FM-12+017499999V0202301N001010450019N0100001N1+02661+02311100811ADDAA199000091GF105991021011008001011001KA1240M+03301MA1999999098851MD1999999-0121REMSYN088AAXX  12004 82571 32597 52302 10266 20231 39885 40081 82110 333 10330 29074 55020 59012;EQDQ01  00002PRCP99
0186825710999992000111212004-05500-045260FM-12+017499999V0200501N002110042019N0100001N1+02801+02311101071ADDAA199000091GF107991051021004501011001KA1240N+02301MA1999999099111MD1999999-0021REMSYN076AAXX  12124 82571 32497 70504 10280 20231 39911 40107 85210 333 20230 59002;EQDQ01  00002PRCP99
0174825710999992000111218004-05500-045260FM-12+017499999V0203201N002110042019N0100001N1+03291+02331100631ADDAA106000191AY161061GF106991051021004501011001MA1999999098691MD1999999-0031MW1021REMSYN082AAXX  12184 82571 21497 63204 10329 20233 39869 40063 7026/ 85210 333 59003 69911;
0198825710999992000111300004-05500-045260FM-12+017499999V0201801N001012200019N0100001N1+02701+02431100851ADDAA199000091GF102991021001017501011001KA1240M+03341MA1999999098901MD1999999+0051REMSYN088AAXX  13004 82571 32797 21802 10270 20243 39890 40085 82010 333 10334 29076 55027 58005;EQDQ01  00002PRCP99
0167825710999992000111318004-05500-045260FM-12+017499999V0203201N003110075019N0100001N1+03341+02281100601ADDAA199000091GF105991051021008001001001MA1999999098661MD1999999-0031REMSYN070AAXX  13184 82571 32597 53206 10334 20228 39866 40060 85200 333 59003;EQDQ01  00002PRCP99
0208825710999992000111400004-05500-045260FM-12+017499999V0209999C000012200019N0100001N1+02961+02471100831ADDAA199000091GA1001+999999999GF100991001001999999001001KA1240M+03441MA1999999098881MD1999999-0021REMSYN082AAXX  14004 82571 32997 00000 10296 20247 39888 40083 333 10344 29071 55055 59002;EQDQ01  00002PRCP99
0186825710999992000111412004-05500-045260FM-12+017499999V0200501N005110450019N0100001N1+02701+02221101031ADDAA199000091GF106991021021008001031011KA1240N+02251MA1999999099081MD1999999-0051REMSYN076AAXX  14124 82571 32597 60510 10270 20222 39908 40103 82231 333 20225 59005;EQDQ01  00002PRCP99
0167825710999992000111418004-05500-045260FM-12+017499999V0200501N001012200019N0100001N1+03461+02231100521ADDAA199000091GF104991021021008001031001MA1999999098601MD1999999-0061REMSYN070AAXX  14184 82571 32597 40502 10346 20223 39860 40052 82230 333 59006;EQDQ01  00002PRCP99
0208825710999992000111500004-05500-045260FM-12+017499999V0209999C000012200019N0100001N1+02991+02321100781ADDAA199000091GA1001+999999999GF100991001001999999001001KA1240M+03671MA1999999098841MD1999999-0041REMSYN082AAXX  15004 82571 32997 00000 10299 20232 39884 40078 333 10367 29064 55072 59004;EQDQ01  00002PRCP99
0186825710999992000111512004-05500-045260FM-12+017499999V0203201N001010450019N0100001N1+02751+02141101061ADDAA199000091GF106991041021008001031001KA1240N+02261MA1999999099101MD1999999+0021REMSYN076AAXX  15124 82571 32597 63202 10275 20214 39910 40106 84230 333 20226 58002;EQDQ01  00002PRCP99
0167825710999992000111518004-05500-045260FM-12+017499999V0202301N003112200019N0100001N1+03341+02191100651ADDAA199000091GF104991031021008001001011MA1999999098721MD1999999+0121REMSYN070AAXX  15184 82571 32597 42306 10334 20219 39872 40065 83201 333 58012;EQDQ01  00002PRCP99
0220825710999992000111600004-05500-045260FM-12+017499999V0209999C000012200019N0100001N1+02941+02331100851ADDAA199000091GA1001+999999999GF100991001001999999001001KA1240M+03501MA1999999098911MD1999999+0071MW1131REMSYN088AAXX  16004 82571 31997 00000 10294 20233 39891 40085 713// 333 10350 29065 55069 58007;EQDQ01  00002PRCP99
0186825710999992000111612004-05500-045260FM-12+017499999V0200501N003112200019N0100001N1+02761+02141101101ADDAA199000091GF103991031001017501031001KA1240N+02251MA1999999099151MD1999999+0051REMSYN076AAXX  16124 82571 32797 30506 10276 20214 39915 40110 83030 333 20225 58005;EQDQ01  00002PRCP99
0167825710999992000111618004-05500-045260FM-12+017499999V0201401N003110450019N0100001N1+03341+02051100771ADDAA199000091GF106991031021008001031011MA1999999098831MD1999999+0111REMSYN070AAXX  16184 82571 32597 61406 10334 20205 39883 40077 83231 333 58011;EQDQ01  00002PRCP99
0208825710999992000111700004-05500-045260FM-12+017499999V0209999C000012200019N0100001N1+02921+02321101031ADDAA199000091GA1001+999999999GF100991001001999999001001KA1240M+03441MA1999999099081MD1999999+0171REMSYN082AAXX  17004 82571 32997 00000 10292 20232 39908 40103 333 10344 29064 55074 58017;EQDQ01  00002PRCP99
0186825710999992000111712004-05500-045260FM-12+017499999V0200501N005110042019N0100001N1+02791+02201101241ADDAA199000091GF106991061021004501001001KA1240N+02181MA1999999099291MD1999999+0141REMSYN076AAXX  17124 82571 32497 60510 10279 20220 39929 40124 86200 333 20218 58014;EQDQ01  00002PRCP99
0167825710999992000111718004-05500-045260FM-12+017499999V0201801N001012200019N0100001N1+03271+02101100951ADDAA199000091GF103991031021008001001001MA1999999099011MD1999999+0181REMSYN070AAXX  17184 82571 32597 31802 10327 20210 39901 40095 83200 333 58018;EQDQ01  00002PRCP99
0208825710999992000111800004-05500-045260FM-12+017499999V0209999C000012200019N0100001N1+02771+02061101041ADDAA199000091GA1001+999999999GF100991001001999999001001KA1240M+03381MA1999999099091MD1999999+0011REMSYN082AAXX  18004 82571 32997 00000 10277 20206 39909 40104 333 10338 29062 55066 58001;EQDQ01  00002PRCP99
0196825710999992000111812004-05500-045260FM-12+017499999V0200501N001012200019N0100001N1+02821+02101101241ADDAA199000091GA1001+999999999GF100991001001999999001001KA1240N+02001MA1999999099281MD1999999-0011REMSYN070AAXX  18124 82571 32997 00502 10282 20210 39928 40124 333 20200 59001;EQDQ01  00002PRCP99
0183825710999992000111818004-05500-045260FM-12+017499999V0201801N003112200019N0100001N1+03601+01671100691ADDAA199000091GF104991999021008001001001MA1999999098761MD1999999-0251REMSYN070AAXX  18184 82571 32597 41806 10360 20167 39876 40069 82200 333 59025;EQDQ01+000022SCOTLCQ02  00002PRCP99
0208825710999992000111900004-05500-045260FM-12+017499999V0209999C000012200019N0100001N1+02911+02041100851ADDAA199000091GA1001+999999999GF100991001001999999001001KA1240M+03681MA1999999098911MD1999999-0181REMSYN082AAXX  19004 82571 32997 00000 10291 20204 39891 40085 333 10368 29054 55105 59018;EQDQ01  00002PRCP99
0186825710999992000111912004-05500-045260FM-12+017499999V0200501N003111050019N0100001N1+02851+02261101291ADDAA199000091GF105991021021008001031011KA1240N+02271MA1999999099341MD1999999+0061REMSYN076AAXX  19124 82571 32597 50506 10285 20226 39934 40129 82231 333 20227 58006;EQDQ01  00002PRCP99
0167825710999992000111918004-05500-045260FM-12+017499999V0201401N003112200019N0100001N1+03501+01981100781ADDAA199000091GF103991021021008001031001MA1999999098851MD1999999+0091REMSYN070AAXX  19184 82571 32597 31406 10350 20198 39885 40078 82230 333 58009;EQDQ01  00002PRCP99
0208825710999992000112000004-05500-045260FM-12+017499999V0209999C000012200019N0100001N1+02961+02071100941ADDAA199000091GA1001+999999999GF100991001001999999001001KA1240M+03571MA1999999099001MD1999999+0091REMSYN082AAXX  20004 82571 32997 00000 10296 20207 39900 40094 333 10357 29057 55098 58009;EQDQ01  00002PRCP99
0186825710999992000112012004-05500-045260FM-12+017499999V0200501N001012200019N0100001N1+02781+02231101351ADDAA199000091GF104991031021004501031001KA1240N+02151MA1999999099401MD1999999+0061REMSYN076AAXX  20124 82571 32497 40502 10278 20223 39940 40135 83230 333 20215 58006;EQDQ01  00002PRCP99
0167825710999992000112018004-05500-045260FM-12+017499999V0201401N001012200019N0100001N1+03491+01941100811ADDAA199000091GF104991041021008001001001MA1999999098881MD1999999+0031REMSYN070AAXX  20184 82571 32597 41402 10349 20194 39888 40081 84200 333 58003;EQDQ01  00002PRCP99
0208825710999992000112100004-05500-045260FM-12+017499999V0202301N002112200019N0100001N1+02801+02001101091ADDAA199000091GA1001+999999999GF100991001001999999001001KA1240M+03581MA1999999099141MD1999999+0141REMSYN082AAXX  21004 82571 32997 02304 10280 20200 39914 40109 333 10358 29059 55099 58014;EQDQ01  00002PRCP99
0186825710999992000112112004-05500-045260FM-12+017499999V0200501N001010042019N0100001N1+02661+02241101461ADDAA199000091GF107991071051004501001001KA1240N+02121MA1999999099501MD1999999+0101REMSYN076AAXX  21124 82571 32497 70502 10266 20224 39950 40146 87500 333 20212 58010;EQDQ01  00002PRCP99
0167825710999992000112118004-05500-045260FM-12+017499999V0200901N002112200019N0100001N1+03441+02041999999ADDAA199000091GF103991031021004501001001MA1999999098981MD1999999+0101REMSYN070AAXX  21184 82571 32497 30904 10344 20204 39898 4091/ 83200 333 58010;EQDQ01  00002PRCP99
0208825710999992000112200004-05500-045260FM-12+017499999V0202301N001012200019N0100001N1+02911+02221101131ADDAA199000091GA1001+999999999GF100991001001999999001001KA1240M+03571MA1999999099181MD1999999+0041REMSYN082AAXX  22004 82571 32997 02302 10291 20222 39918 40113 333 10357 29064 55066 58004;EQDQ01  00002PRCP99
0186825710999992000112212004-05500-045260FM-12+017499999V0200501N003110042019N0100001N1+02681+02201101471ADDAA199000091GF108991081051004501999999KA1240N+02211MA1999999099511MD1999999+0011REMSYN076AAXX  22124 82571 32497 80506 10268 20220 39951 40147 885// 333 20221 58001;EQDQ01  00002PRCP99
0167825710999992000112218004-05500-045260FM-12+017499999V0203201N001012200019N0100001N1+03381+02061100951ADDAA199000091GF103991031021008001001001MA1999999099011MD1999999+0031REMSYN070AAXX  22184 82571 32597 33202 10338 20206 39901 40095 83200 333 58003;EQDQ01  00002PRCP99
0208825710999992000112300004-05500-045260FM-12+017499999V0209999C000012200019N0100001N1+02951+02131101121ADDAA199000091GA1001+999999999GF100991001001999999001001KA1240M+03511MA1999999099171MD1999999-0011REMSYN082AAXX  23004 82571 32997 00000 10295 20213 39917 40112 333 10351 29061 55059 59001;EQDQ01  00002PRCP99
0186825710999992000112312004-05500-045260FM-12+017499999V0203601N001012200019N0100001N1+02781+02161101451ADDAA199000091GF102991011011004501031001KA1240N+02301MA1999999099491MD1999999-0021REMSYN076AAXX  23124 82571 32497 23602 10278 20216 39949 40145 81130 333 20230 59002;EQDQ01  00002PRCP99
0167825710999992000112318004-05500-045260FM-12+017499999V0202301N001012200019N0100001N1+03461+01941100911ADDAA199000091GF103991031021008001001001MA1999999098981MD1999999-0031REMSYN070AAXX  23184 82571 32597 32302 10346 20194 39898 40091 83200 333 59003;EQDQ01  00002PRCP99
0198825710999992000112400004-05500-045260FM-12+017499999V0201801N002112200019N0100001N1+03001+02031101061ADDAA199000091GF102991021011004501001001KA1240M+03551MA1999999099121MD1999999-0051REMSYN088AAXX  24004 82571 32497 21804 10300 20203 39912 40106 82100 333 10355 29056 55100 59005;EQDQ01  00002PRCP99
0186825710999992000112412004-05500-045260FM-12+017499999V0202301N001012200019N0100001N1+02851+02231101351ADDAA199000091GF102991021021008001001001KA1240N+02241MA1999999099401MD1999999-0041REMSYN076AAXX  24124 82571 32597 22302 10285 20223 39940 40135 82200 333 20224 59004;EQDQ01  00002PRCP99
0167825710999992000112718004-05500-045260FM-12+017499999V0202301N005112200019N0100001N1+03531+01891100851ADDAA199000091GF103991031021008001001001MA1999999098921MD1999999-0081REMSYN070AAXX  27184 82571 32597 32310 10353 20189 39892 40085 83200 333 59008;EQDQ01  00002PRCP99
0208825710999992000112800004-05500-045260FM-12+017499999V0202301N001012200019N0100001N1+02871+02161101091ADDAA199000091GA1001+999999999GF100991001001999999001001KA1240M+03611MA1999999099131MD1999999+0051REMSYN082AAXX  28004 82571 32997 02302 10287 20216 39913 40109 333 10361 29062 55076 58005;EQDQ01  00002PRCP99
0186825710999992000112812004-05500-045260FM-12+017499999V0200501N005110042019N0100001N1+02721+02151101421ADDAA199000091GF107991061021004501011001KA1240N+02251MA1999999099461MD1999999-0031REMSYN076AAXX  28124 82571 32497 70510 10272 20215 39946 40142 86210 333 20225 59003;EQDQ01  00002PRCP99
0167825710999992000112818004-05500-045260FM-12+017499999V0201401N004112200019N0100001N1+03531+01971100931ADDAA199000091GF104991041021008001001001MA1999999099001MD1999999+0081REMSYN070AAXX  28184 82571 32597 41408 10353 20197 39900 40093 84200 333 58008;EQDQ01  00002PRCP99
0208825710999992000112900004-05500-045260FM-12+017499999V0202301N001012200019N0100001N1+02881+02031101081ADDAA199000091GA1001+999999999GF100991001001999999001001KA1240M+03611MA1999999099131MD1999999+0001REMSYN082AAXX  29004 82571 32997 02302 10288 20203 39913 40108 333 10361 29058 55083 58000;EQDQ01  00002PRCP99
0186825710999992000112912004-05500-045260FM-12+017499999V0200501N001010150019N0100001N1+02781+02161101451ADDAA199000091GF106991061001017501051001KA1240N+02301MA1999999099491MD1999999+0031REMSYN076AAXX  29124 82571 32797 60502 10278 20216 39949 40145 86050 333 20230 58003;EQDQ01  00002PRCP99
0167825710999992000120118004-05500-045260FM-12+017499999V0203201N001012200019N0100001N1+03311+02171100971ADDAA199000091GF103991021011008001031001MA1999999099031MD1999999+0091REMSYN070AAXX  01184 82571 32597 33202 10331 20217 39903 40097 82130 333 58009;EQDQ01  00002PRCP99
0208825710999992000120200004-05500-045260FM-12+017499999V0209999C000012200019N0100001N1+02941+02311101031ADDAA199000091GA1001+999999999GF100991001001999999001001KA1240M+03481MA1999999099081MD1999999+0101REMSYN082AAXX  02004 82571 32997 00000 10294 20231 39908 40103 333 10348 29066 55023 58010;EQDQ01  00002PRCP99
0186825710999992000120212004-05500-045260FM-12+017499999V0200501N003110450019N0100001N1+02751+02191101321ADDAA199000091GF106991041051008001031001KA1240N+02321MA1999999099371MD1999999-0061REMSYN076AAXX  02124 82571 32597 60506 10275 20219 39937 40132 84530 333 20232 59006;EQDQ01  00002PRCP99
0167825710999992000120218004-05500-045260FM-12+017499999V0203201N003112200019N0100001N1+03521+01961100841ADDAA199000091GF103991031021008001001001MA1999999098911MD1999999-0121REMSYN070AAXX  02184 82571 32597 33206 10352 20196 39891 40084 83200 333 59012;EQDQ01  00002PRCP99
0198825710999992000120300004-05500-045260FM-12+017499999V0202301N001010450019N0100001N1+03101+02121100971ADDAA199000091GF106991031051008001031001KA1240M+03581MA1999999099031MD1999999-0051REMSYN088AAXX  03004 82571 32597 62302 10310 20212 39903 40097 83530 333 10358 29056 55076 59005;EQDQ01  00002PRCP99
0186825710999992000120312004-05500-045260FM-12+017499999V0200501N003110450019N0100001N1+02741+02191101311ADDAA199000091GF105991031051008001031001KA1240N+02351MA1999999099361MD1999999-0011REMSYN076AAXX  03124 82571 32597 50506 10274 20219 39936 40131 83530 333 20235 59001;EQDQ01  00002PRCP99
0167825710999992000120318004-05500-045260FM-12+017499999V0201801N003112200019N0100001N1+03421+01981100761ADDAA199000091GF104991021021008001031001MA1999999098831MD1999999-0081REMSYN070AAXX  03184 82571 32597 41806 10342 20198 39883 40076 82230 333 59008;EQDQ01  00002PRCP99
0198825710999992000120400004-05500-045260FM-12+017499999V0200501N003112200019N0100001N1+03001+02141100961ADDAA199000091GF103991031001017501031001KA1240M+03591MA1999999099011MD1999999-0021REMSYN088AAXX  04004 82571 32797 30506 10300 20214 39901 40096 83030 333 10359 29059 55069 59002;EQDQ01  00002PRCP99
0186825710999992000120412004-05500-045260FM-12+017499999V0200501N002110042019N0100001N1+02711+02221101261ADDAA199000091GF108991081051004501999999KA1240N+02281MA1999999099311MD1999999-0051REMSYN076AAXX  04124 82571 32497 80504 10271 20222 39931 40126 885// 333 20228 59005;EQDQ01  00002PRCP99
0167825710999992000120418004-05500-045260FM-12+017499999V0203201N001012200019N0100001N1+03391+02141100701ADDAA199000091GF104991031021008001001011MA1999999098771MD1999999-0061REMSYN070AAXX  04184 82571 32597 43202 10339 20214 39877 40070 83201 333 59006;EQDQ01  00002PRCP99
0198825710999992000120500004-05500-045260FM-12+017499999V0203201N001012200019N0100001N1+02971+02251100941ADDAA199000091GF103991031001017501031001KA1240M+03521MA1999999098991MD1999999-0021REMSYN088AAXX  05004 82571 32797 33202 10297 20225 39899 40094 83030 333 10352 29063 55055 59002;EQDQ01  00002PRCP99
0186825710999992000120512004-05500-045260FM-12+017499999V0200501N003110042019N0100001N1+02741+02121101241ADDAA199000091GF106991051021004501001011KA1240N+02261MA1999999099291MD1999999-0021REMSYN076AAXX  05124 82571 32497 60506 10274 20212 39929 40124 85201 333 20226 59002;EQDQ01  00002PRCP99
0167825710999992000120518004-05500-045260FM-12+017499999V0200501N001010450019N0100001N1+03511+01961100701ADDAA199000091GF106991041021008001011011MA1999999098771MD1999999+0001REMSYN070AAXX  05184 82571 32597 60502 10351 20196 39877 40070 84211 333 58000;EQDQ01  00002PRCP99
0198825710999992000120600004-05500-045260FM-12+017499999V0202701N001012200019N0100001N1+03091+02181100951ADDAA199000091GF102991021001017501031001KA1240M+03571MA1999999099011MD1999999+0021REMSYN088AAXX  06004 82571 32797 22702 10309 20218 39901 40095 82030 333 10357 29056 55081 58002;EQDQ01  00002PRCP99
0186825710999992000120612004-05500-045260FM-12+017499999V0203601N002110042019N0100001N1+02601+02171101291ADDAA199000091GF108991081051004501999999KA1240N+02341MA1999999099341MD1999999+0051REMSYN076AAXX  06124 82571 32497 83604 10260 20217 39934 40129 885// 333 20234 58005;EQDQ01  00002PRCP99
0167825710999992000120618004-05500-045260FM-12+017499999V0203601N002110450019N0100001N1+03391+01891100831ADDAA199000091GF106991041021008001031001MA1999999098901MD1999999+0131REMSYN070AAXX  06184 82571 32597 63604 10339 20189 39890 40083 84230 333 58013;EQDQ01  00002PRCP99
0198825710999992000120700004-05500-045260FM-12+017499999V0202301N001010150019N0100001N1+02901+02121101081ADDAA199000091GF105991051001017501031001KA1240M+03471MA1999999099121MD1999999+0111REMSYN088AAXX  07004 82571 32797 52302 10290 20212 39912 40108 85030 333 10347 29061 55034 58011;EQDQ01  00002PRCP99
0186825710999992000120712004-05500-045260FM-12+017499999V0200501N003112200019N0100001N1+02801+02181100301ADDAA199000091GF103991031021004501001001KA1240N+02191MA1999999099351MD1999999+0011REMSYN076AAXX  07124 82571 32497 30506 10280 20218 39935 40030 83200 333 20219 58001;EQDQ01  00002PRCP99
0167825710999992000120718004-05500-045260FM-12+017499999V0200501N003110075019N0100001N1+03521+01991100841ADDAA199000091GF105991051021008001001001MA1999999098911MD1999999+0011REMSYN070AAXX  07184 82571 32597 50506 10352 20199 39891 40084 85200 333 58001;EQDQ01  00002PRCP99
0208825710999992000120800004-05500-045260FM-12+017499999V0202301N001012200019N0100001N1+03081+02191101101ADDAA199000091GA1001+999999999GF100991001001999999001001KA1240M+03591MA1999999099161MD1999999+0041REMSYN082AAXX  08004 82571 32997 02302 10308 20219 39916 40110 333 10359 29057 55086 58004;EQDQ01  00002PRCP99
0186825710999992000120812004-05500-045260FM-12+017499999V0200501N001010042019N0100001N1+02581+02291101431ADDAA199000091GF108991081051004501999999KA1240N+02321MA1999999099471MD1999999+0121REMSYN076AAXX  08124 82571 32497 80502 10258 20229 39947 40143 885// 333 20232 58012;EQDQ01  00002PRCP99
0167825710999992000120818004-05500-045260FM-12+017499999V0201801N003110075019N0100001N1+03321+02171100901ADDAA199000091GF107991051021008001041001MA1999999098971MD1999999+0061REMSYN070AAXX  08184 82571 32597 71806 10332 20217 39897 40090 85240 333 58006;EQDQ01  00002PRCP99
0198825710999992000120900004-05500-045260FM-12+017499999V0202301N002110150019N0100001N1+02761+02281101211ADDAA199000091GF106991061001017501051001KA1240M+03411MA1999999099241MD1999999+0081REMSYN088AAXX  09004 82571 32797 62304 10276 20228 39924 40121 86050 333 10341 29071 55022 58008;EQDQ01  00002PRCP99
0173825710999992000120912004-05500-045260FM-12+017499999V0202701N001010042019N0100001N1+02501+02321101401ADDAA124002091GF107991061051004501031001KA1240N+02231MA1999999099431MD1999999-0041REMSYN082AAXX  09124 82571 21497 72702 10250 20232 39943 40140 86530 333 20223 59004 60024;
0179825710999992000120918004-05500-045260FM-12+017499999V0202701N001010450019N0100001N1+03071+02291101011ADDAA199000091GF107991041021008001041001MA1999999099061MD1999999+0091MW1171REMSYN076AAXX  09184 82571 31597 72702 10307 20229 39906 40101 717// 84240 333 58009;EQDQ01  00002PRCP99
0218825710999992000121000004-05500-045260FM-12+017499999V0202301N002110450019N0100001N1+02501+02271101171ADDAA199000091AY191061GF107991031051004501031001KA1240M+03131MA1999999099191MD1999999-0051MW1131REMSYN094AAXX  10004 82571 31497 72304 10250 20227 39919 40117 7139/ 83530 333 10313 29082 55000 59005;EQDQ01  00002PRCP99
0186825710999992000121012004-05500-045260FM-12+017499999V0200501N002112200019N0100001N1+02631+02291101311ADDAA199000091GF104991031021004501011001KA1240N+02211MA1999999099331MD1999999-0101REMSYN076AAXX  10124 82571 32497 40504 10263 20229 39933 40131 83210 333 20221 59010;EQDQ01  00002PRCP99
0167825710999992000121018004-05500-045260FM-12+017499999V0203601N001010450019N0100001N1+03101+02091100941ADDAA199000091GF107991031021008001011001MA1999999098991MD1999999-0071REMSYN070AAXX  10184 82571 32597 73602 10310 20209 39899 40094 83210 333 59007;EQDQ01  00002PRCP99
0186825710999992000121112004-05500-045260FM-12+017499999V0200501N005110450019N0100001N1+02761+02211101091ADDAA199000091GF106991031021008001031011KA1240N+02161MA1999999099131MD1999999-0201REMSYN076AAXX  11124 82571 32597 60510 10276 20221 39913 40109 83231 333 20216 59020;EQDQ01  00002PRCP99
0167825710999992000121118004-05500-045260FM-12+017499999V0200501N005112200019N0100001N1+03281+02031100791ADDAA199000091GF103991021021008001001011MA1999999098841MD1999999-0151REMSYN070AAXX  11184 82571 32597 30510 10328 20203 39884 40079 82201 333 59015;EQDQ01  00002PRCP99
0208825710999992000121200004-05500-045260FM-12+017499999V0209999C000012200019N0100001N1+02861+02211100931ADDAA199000091GA1001+999999999GF100991001001999999001001KA1240M+03351MA1999999098981MD1999999-0031REMSYN082AAXX  12004 82571 32997 00000 10286 20221 39898 40093 333 10335 29064 55074 59003;EQDQ01  00002PRCP99
0186825710999992000121212004-05500-045260FM-12+017499999V0200501N003112200019N0100001N1+02711+02241101201ADDAA199000091GF105991031051008001001011KA1240N+02261MA1999999099251MD1999999+0121REMSYN076AAXX  12124 82571 32597 50506 10271 20224 39925 40120 83501 333 20226 58012;EQDQ01  00002PRCP99
0167825710999992000121218004-05500-045260FM-12+017499999V0200501N003110450019N0100001N1+03261+02111100881ADDAA199000091GF106991031051008001031001MA1999999098941MD1999999+0101REMSYN070AAXX  12184 82571 32597 60506 10326 20211 39894 40088 83530 333 58010;EQDQ01  00002PRCP99
0205825710999992000121300004-05500-045260FM-12+017499999V0201801N001010042019N0100001N1+02561+02211101081ADDAA106002091AY161061GF108991081051004501999999KA1240M+03321MA1999999099121MD1999999+0141MW1021REMSYN100AAXX  13004 82571 21497 81802 10256 20221 39912 40108 7026/ 885// 333 10332 29072 55031 58014 60021;
0173825710999992000121312004-05500-045260FM-12+017499999V0200501N003110450019N0100001N1+02711+02371101241ADDAA124002091GF106991041051008001031001KA1240N+02301MA1999999099271MD1999999+0021REMSYN082AAXX  13124 82571 22597 60506 10271 20237 39927 40124 84530 333 20230 58002 60024;
0167825710999992000121318004-05500-045260FM-12+017499999V0200501N001010075019N0100001N1+03161+02121100831ADDAA199000091GF107991051051008001031001MA1999999098881MD1999999-0061REMSYN070AAXX  13184 82571 32597 70502 10316 20212 39888 40083 85530 333 59006;EQDQ01  00002PRCP99
0208825710999992000121400004-05500-045260FM-12+017499999V0201801N001012200019N0100001N1+02511+02401101041ADDAA199000091GA1001+999999999GF100991001001999999001001KA1240M+03271MA1999999099071MD1999999-0051REMSYN082AAXX  14004 82571 32997 01802 10251 20240 39907 40104 333 10327 29080 55024 59005;EQDQ01  00002PRCP99
0193825710999992000121412004-05500-045260FM-12+017499999V0200501N001010075019N0100001N1+02581+02401101091ADDAA124007191AY161061GF108991081051008001999999KA1240N+02271MA1999999099121MD1999999-0151MW1021REMSYN088AAXX  14124 82571 21597 80502 10258 20240 39912 40109 7026/ 885// 333 20227 59015 60074;
0166825710999992000121418004-05500-045260FM-12+017499999V0203201N001010075019N0100001N1+02301+02201100901ADDAA106010991GF108991081051008001999999MA1999999098911MD1999999+0031MW1951REMSYN082AAXX  14184 82571 21597 83202 10230 20220 39891 40090 795// 885// 333 58003 60111;
0205825710999992000121500004-05500-045260FM-12+017499999V0200501N001010042019N0100001N1+02321+02251101021ADDAA106000891AY161061GF108991081051004501999999KA1240M+02871MA1999999099041MD1999999-0031MW1021REMSYN100AAXX  15004 82571 21497 80502 10232 20225 39904 40102 7026/ 885// 333 10287 29094 55000 59003 69981;
0193825710999992000121512004-05500-045260FM-12+017499999V0202301N001010075019N0100001N1+02441+02321101011ADDAA124013091AY161061GF108991081051008001999999KA1240N+02131MA1999999099031MD1999999-0091MW1021REMSYN088AAXX  15124 82571 21597 82302 10244 20232 39903 40101 7026/ 885// 333 20213 59009 60134;
0167825710999992000121518004-05500-045260FM-12+017499999V0202301N001010075019N0100001N1+02881+02281100631ADDAA199000091GF108991081051008001999999MA1999999098671MD1999999-0241REMSYN070AAXX  15184 82571 32597 82302 10288 20228 39867 40063 885// 333 59024;EQDQ01  00002PRCP99
0205825710999992000121600004-05500-045260FM-12+017499999V0209999C000010042019N0100001N1+02571+02331100851ADDAA106000191AY161061GF108991081051004501999999KA1240M+02921MA1999999098881MD1999999-0161MW1021REMSYN100AAXX  16004 82571 21497 80000 10257 20233 39888 40085 7026/ 885// 333 10292 29084 55007 59016 69921;
0193825710999992000121612004-05500-045260FM-12+017499999V0202701N001010075019N0100001N1+02321+02221101191ADDAA124075991AY161061GF108991081051008001999999KA1240N+02011MA1999999099211MD1999999+0181MW1021REMSYN088AAXX  16124 82571 21597 82702 10232 20222 39921 40119 7026/ 885// 333 20201 58018 60764;
0174825710999992000121618004-05500-045260FM-12+017499999V0201801N001010075019N0100001N1+02461+02341100931ADDAA106006191AY161061GF108991081051008001999999MA1999999098951MD1999999+0281MW1611REMSYN082AAXX  16184 82571 21597 81802 10246 20234 39895 40093 7616/ 885// 333 58028 60061;
0213825710999992000121700004-05500-045260FM-12+017499999V0200501N001010042019N0100001N1+02241+02171101301ADDAA106045091AY161061AY261061GF108991081051004501999999KA1240M+02701MA1999999099301MD1999999+0421MW1611REMSYN100AAXX  17004 82571 21497 80502 10224 20217 39930 40130 76166 885// 333 10270 29095 55000 58042 60451;
0193825710999992000121712004-05500-045260FM-12+017499999V0202301N001010075019N0100001N1+02421+02351101221ADDAA124054191AY161061GF108991081051008001999999KA1240N+02011MA1999999099221MD1999999+0021MW1021REMSYN088AAXX  17124 82571 21597 82302 10242 20235 39922 40122 7026/ 885// 333 20201 58002 60544;
0174825710999992000121718004-05500-045260FM-12+017499999V0200501N005110075019N0100001N1+02501+02251101041ADDAA106003091AY161061GF108991081051008001999999MA1999999099051MD1999999+0101MW1601REMSYN082AAXX  17184 82571 21597 80510 10250 20225 39905 40104 7606/ 885// 333 58010 60031;
0215825710999992000121800004-05500-045260FM-12+017499999V0209999C000012200019N0100001N1+02261+02181101301ADDAA106007191AY161061GA1001+999999999GF100991001001999999001001KA1240M+02821MA1999999099311MD1999999+0011MW1021REMSYN094AAXX  18004 82571 21997 00000 10226 20218 39931 40130 7026/ 333 10282 29093 55003 58001 60071;
0193825710999992000121812004-05500-045260FM-12+017499999V0203201N001010042019N0100001N1+02321+02241101381ADDAA124010991AY161061GF108991081051004501999999KA1240N+02031MA1999999099381MD1999999+0151MW1021REMSYN088AAXX  18124 82571 21497 83202 10232 20224 39938 40138 7026/ 885// 333 20203 58015 60114;
0167825710999992000121818004-05500-045260FM-12+017499999V0200501N001010450019N0100001N1+03111+02171100961ADDAA199000091GF105991041021008001041001MA1999999099001MD1999999-0051REMSYN070AAXX  18184 82571 32597 50502 10311 20217 39900 40096 84240 333 59005;EQDQ01  00002PRCP99
0208825710999992000121900004-05500-045260FM-12+017499999V0202301N001012200019N0100001N1+02691+02331101221ADDAA199000091GA1001+999999999GF100991001001999999001001KA1240M+03211MA1999999099241MD1999999-0071REMSYN082AAXX  19004 82571 32997 02302 10269 20233 39924 40122 333 10321 29078 55057 59007;EQDQ01  00002PRCP99
0186825710999992000121912004-05500-045260FM-12+017499999V0201401N001010450019N0100001N1+02681+02281101421ADDAA199000091GF105991021021004501031001KA1240N+02221MA1999999099451MD1999999+0071REMSYN076AAXX  19124 82571 32497 51402 10268 20228 39945 40142 82230 333 20222 58007;EQDQ01  00002PRCP99
0179825710999992000121918004-05500-045260FM-12+017499999V0201401N003110450019N0100001N1+02911+02361100961ADDAA199000091GF106991031051004501041001MA1999999099001MD1999999+0001MW1171REMSYN076AAXX  19184 82571 31497 61406 10291 20236 39900 40096 717// 83540 333 58000;EQDQ01  00002PRCP99
0208825710999992000122000004-05500-045260FM-12+017499999V0202301N001012200019N0100001N1+02591+02481101221ADDAA199000091GA1001+999999999GF100991001001999999001001KA1240M+03201MA1999999099251MD1999999+0011REMSYN082AAXX  20004 82571 32997 02302 10259 20248 39925 40122 333 10320 29084 55038 58001;EQDQ01  00002PRCP99
0186825710999992000122012004-05500-045260FM-12+017499999V0200501N001010042019N0100001N1+02561+02291101531ADDAA199000091GF108991081051004501999999KA1240N+02231MA1999999099551MD1999999+0101REMSYN076AAXX  20124 82571 32497 80502 10256 20229 39955 40153 885// 333 20223 58010;EQDQ01  00002PRCP99
0167825710999992000122018004-05500-045260FM-12+017499999V0203601N003110450019N0100001N1+03101+02181101091ADDAA199000091GF106991031021008001011011MA1999999099131MD1999999+0131REMSYN070AAXX  20184 82571 32597 63606 10310 20218 39913 40109 83211 333 58013;EQDQ01  00002PRCP99
0198825710999992000122100004-05500-045260FM-12+017499999V0202301N002112200019N0100001N1+02521+02311101331ADDAA199000091GF103991011021004501041001KA1240M+03171MA1999999099351MD1999999+0101REMSYN088AAXX  21004 82571 32497 32304 10252 20231 39935 40133 81240 333 10317 29080 55038 58010;EQDQ01  00002PRCP99
0186825710999992000122112004-05500-045260FM-12+017499999V0203201N001010042019N0100001N1+02541+02311101571ADDAA199000091GF105991051021004501001001KA1240N+02001MA1999999099591MD1999999+0041REMSYN076AAXX  21124 82571 32497 53202 10254 20231 39959 40157 85200 333 20200 58004;EQDQ01  00002PRCP99
0167825710999992000122118004-05500-045260FM-12+017499999V0200501N001012200019N0100001N1+03181+02221101151ADDAA199000091GF104991031021008001001011MA1999999099191MD1999999+0061REMSYN070AAXX  21184 82571 32597 40502 10318 20222 39919 40115 83201 333 58006;EQDQ01  00002PRCP99
0208825710999992000122200004-05500-045260FM-12+017499999V0202301N001012200019N0100001N1+02841+02331101241ADDAA199000091GA1001+999999999GF100991001001999999001001KA1240M+03351MA1999999099281MD1999999-0071REMSYN082AAXX  22004 82571 32997 02302 10284 20233 39928 40124 333 10335 29073 55061 59007;EQDQ01  00002PRCP99
0186825710999992000122212004-05500-045260FM-12+017499999V0200501N002112200019N0100001N1+02781+02251101461ADDAA199000091GF106991011011004501001011KA1240N+02101MA1999999099501MD1999999-0091REMSYN076AAXX  22124 82571 32497 60504 10278 20225 39950 40146 81101 333 20210 59009;EQDQ01  00002PRCP99
0167825710999992000122218004-05500-045260FM-12+017499999V0200501N003110450019N0100001N1+03321+02261101021ADDAA199000091GF105991041021004501011001MA1999999099071MD1999999-0121REMSYN070AAXX  22184 82571 32497 50506 10332 20226 39907 40102 84210 333 59012;EQDQ01  00002PRCP99
0208825710999992000122300004-05500-045260FM-12+017499999V0200501N001012200019N0100001N1+02861+02261101181ADDAA199000091GA1001+999999999GF100991001001999999001001KA1240M+03401MA1999999099231MD1999999-0051REMSYN082AAXX  23004 82571 32997 00502 10286 20226 39923 40118 333 10340 29067 55093 59005;EQDQ01  00002PRCP99
0186825710999992000122312004-05500-045260FM-12+017499999V0200501N001010042019N0100001N1+02681+02351101481ADDAA199000091GF106991061021004501001001KA1240N+02281MA1999999099521MD1999999+0021REMSYN076AAXX  23124 82571 32497 60502 10268 20235 39952 40148 86200 333 20228 58002;EQDQ01  00002PRCP99
0167825710999992000122318004-05500-045260FM-12+017499999V0200501N001010075019N0100001N1+03181+02311100991ADDAA199000091GF105991051021008001001001MA1999999099041MD1999999-0031REMSYN070AAXX  23184 82571 32597 50502 10318 20231 39904 40099 85200 333 59003;EQDQ01  00002PRCP99
0228825710999992000122400004-05500-045260FM-12+017499999V0209999C000012200019N0100001N1+02791+02421101191ADDAA199000091AY191061GA1001+999999999GF100991001001999999001001KA1240M+03261MA1999999099231MD1999999+0001MW1021REMSYN088AAXX  24004 82571 31997 00000 10279 20242 39923 40119 7029/ 333 10326 29076 55062 58000;EQDQ01  00002PRCP99
0185825710999992000122412004-05500-045260FM-12+017499999V0200501N002110042019N0040001N1+02161+02011101601ADDAA124013091GF108991081001004501021999KA1240N+02021MA1999999099611MD1999999+0091MW1951REMSYN088AAXX  24124 82571 21496 80504 10216 20201 39961 40160 795// 8802/ 333 20202 58009 60134;
0182825710999992000122418004-05500-045260FM-12+017499999V0202301N001010042019N0100001N1+02691+02391101131ADDAA106005191AY191061AY261061GF107991061021004501041001MA1999999099161MD1999999+0121MW1011REMSYN082AAXX  24184 82571 21497 72302 10269 20239 39916 40113 70196 86240 333 58012 60051;
0189825710999992000122500004-05500-045260FM-12+017499999V0209999C000012200019N0100001N1+02461+02271101151ADDAA199000021GA1001+999999999GF100991001001999999001001KA1240M+02841MA1999999099151MD1999999-0081REMSYN082AAXX  25004 82571 32997 00000 10246 20227 39915 40115 333 10284 29088 55004 59008;
0173825710999992000122512004-05500-045260FM-12+017499999V0200501N003112200019N0100001N1+02661+02291101391ADDAA124005191GF103991021021008001001011KA1240N+02101MA1999999099411MD1999999-0201REMSYN082AAXX  25124 82571 22597 30506 10266 20229 39941 40139 82201 333 20210 59020 60054;
0208825710999992000122600004-05500-045260FM-12+017499999V0202301N001012200019N0100001N1+02741+02301101121ADDAA199000091GA1001+999999999GF100991001001999999001001KA1240M+03341MA1999999099161MD1999999+0011REMSYN082AAXX  26004 82571 32997 02302 10274 20230 39916 40112 333 10334 29071 55094 58001;EQDQ01  00002PRCP99
0186825710999992000122612004-05500-045260FM-12+017499999V0200501N003112200019N0100001N1+02611+02291101321ADDAA199000091GF104991031051008001001011KA1240N+02101MA1999999099351MD1999999-0061REMSYN076AAXX  26124 82571 32597 40506 10261 20229 39935 40132 83501 333 20210 59006;EQDQ01  00002PRCP99
0167825710999992000122618004-05500-045260FM-12+017499999V0200501N001012200019N0100001N1+03271+02071100961ADDAA199000091GF104991021021008001001011MA1999999099011MD1999999-0091REMSYN070AAXX  26184 82571 32597 40502 10327 20207 39901 40096 82201 333 59009;EQDQ01  00002PRCP99
0208825710999992000122700004-05500-045260FM-12+017499999V0202301N001012200019N0100001N1+02771+02271101131ADDAA199000091GA1001+999999999GF100991001001999999001001KA1240M+03351MA1999999099171MD1999999+0011REMSYN082AAXX  27004 82571 32997 02302 10277 20227 39917 40113 333 10335 29070 55096 58001;EQDQ01  00002PRCP99
0186825710999992000122712004-05500-045260FM-12+017499999V0200501N001010450019N0100001N1+02641+02251101141ADDAA199000091GF106991031051008001031011KA1240N+02121MA1999999099371MD1999999+0021REMSYN076AAXX  27124 82571 32597 60502 10264 20225 39937 40114 83531 333 20212 58002;EQDQ01  00002PRCP99
0167825710999992000122718004-05500-045260FM-12+017499999V0202301N001010450019N0100001N1+03221+02111101061ADDAA199000091GF106991031021008001031011MA1999999099111MD1999999+0101REMSYN070AAXX  27184 82571 32597 62302 10322 20211 39911 40106 83231 333 58010;EQDQ01  00002PRCP99
0208825710999992000122800004-05500-045260FM-12+017499999V0209999C000012200019N0100001N1+02741+02361101191ADDAA199000091GA1001+999999999GF100991001001999999001001KA1240M+03271MA1999999099231MD1999999+0061REMSYN082AAXX  28004 82571 32997 00000 10274 20236 39923 40119 333 10327 29073 55056 58006;EQDQ01  00002PRCP99
0186825710999992000122812004-05500-045260FM-12+017499999V0200501N001012200019N0100001N1+02671+02281101381ADDAA199000091GF103991011021008001001011KA1240N+02131MA1999999099411MD1999999+0041REMSYN076AAXX  28124 82571 32597 30502 10267 20228 39941 40138 81201 333 20213 58004;EQDQ01  00002PRCP99
0167825710999992000122818004-05500-045260FM-12+017499999V0200501N001012200019N0100001N1+03391+02141100911ADDAA199000091GF103991021021008001001011MA1999999098971MD1999999+0141REMSYN070AAXX  28184 82571 32597 30502 10339 20214 39897 40091 82201 333 58014;EQDQ01  00002PRCP99
0198825710999992000122900004-05500-045260FM-12+017499999V0200501N003112200019N0100001N1+02811+02171101101ADDAA199000091GF102991021061008001001001KA1240M+03471MA1999999099141MD1999999-0091REMSYN088AAXX  29004 82571 32597 20506 10281 20217 39914 40110 82600 333 10347 29066 55108 59009;EQDQ01  00002PRCP99
0186825710999992000122912004-05500-045260FM-12+017499999V0200501N003112200019N0100001N1+02721+02301101291ADDAA199000091GF103991031021008001001001KA1240N+02221MA1999999099331MD1999999-0081REMSYN076AAXX  29124 82571 32597 30506 10272 20230 39933 40129 83200 333 20222 59008;EQDQ01  00002PRCP99
0167825710999992000122918004-05500-045260FM-12+017499999V0200901N003112200019N0100001N1+03371+02191100941ADDAA199000091GF104991041021008001001001MA1999999099001MD1999999+0031REMSYN070AAXX  29184 82571 32597 40906 10337 20219 39900 40094 84200 333 58003;EQDQ01  00002PRCP99
0208825710999992000123000004-05500-045260FM-12+017499999V0209999C000012200019N0100001N1+02901+02371101091ADDAA199000091GA1001+999999999GF100991001001999999001001KA1240M+03421MA1999999099141MD1999999+0001REMSYN082AAXX  30004 82571 32997 00000 10290 20237 39914 40109 333 10342 29068 55107 58000;EQDQ01  00002PRCP99
0186825710999992000123012004-05500-045260FM-12+017499999V0200901N001010450019N0100001N1+02621+02261101301ADDAA199000091GF105991031021008001031001KA1240N+02171MA1999999099341MD1999999+0011REMSYN076AAXX  30124 82571 32597 50902 10262 20226 39934 40130 83230 333 20217 58001;EQDQ01  00002PRCP99
0183825710999992000123018004-05500-045260FM-12+017499999V0200501N001012200019N0100001N1+03381+02221100941ADDAA199000091GF104991999021008001001001MA1999999099001MD1999999+0001REMSYN070AAXX  30184 82571 32597 40502 10338 20222 39900 40094 83200 333 58000;EQDQ01+000032SCOTLCQ02  00002PRCP99
0210825710999992000123100004-05500-045260FM-12+017499999V0201401N005112200019N0100001N1+02781+02041101091ADDAA199000091GF102991021001017501031001KA1240M+03451MA1999999099131MD1999999-0011MW1131REMSYN094AAXX  31004 82571 31797 21410 10278 20204 39913 40109 713// 82030 333 10345 29064 55103 59001;EQDQ01  00002PRCP99
0186825710999992000123112004-05500-045260FM-12+017499999V0200501N001010075019N0100001N1+02601+02311101411ADDAA199000091GF108991081051008001999999KA1240N+02241MA1999999099451MD1999999+0111REMSYN076AAXX  31124 82571 32597 80502 10260 20231 39945 40141 885// 333 20224 58011;EQDQ01  00002PRCP99
0167825710999992000123118004-05500-045260FM-12+017499999V0200501N001010075019N0100001N1+03201+02331101061ADDAA199000091GF108991081051008001999999MA1999999099111MD1999999+0111REMSYN070AAXX  31184 82571 32597 80502 10320 20233 39911 40106 885// 333 58011;EQDQ01  00002PRCP99
