0186825780999992000011200004-05080-042820FM-12+009099999V0200501N000512200019N0040001N1+02621+02461100771ADDAA106000091GF101991011001017501031001KA1240M+03271MA1999999099761MD1999999-0241REMSYN076AAXX  12004 82578 32796 10501 10262 20246 39976 40077 81030 333 10327 59024;EQDQ01  00002PRCP06
0201825780999992000011212004-05080-042820FM-12+009099999V0200501N002610075019N0040001N1+02681+02451101101ADDAA124002091AY191061AY261061GF108991061071008001071999KA1240N+02401MA1999999100071MD1999999-0071MW1021REMSYN088AAXX  12124 82578 21596 80505 10268 20245 30007 40110 70296 8677/ 333 20240 59007 60024;
0167825780999992000022518004-05080-042820FM-12+009099999V0200501N001012200019N0040001N1+03101+02391100881ADDAA199000091GF105991031021008001001041MA1999999099871MD1999999+0001REMSYN070AAXX  25184 82578 32596 50502 10310 20239 39987 40088 83204 333 58000;EQDQ01  00002PRCP99
0183825780999992000061718004-05800-042820FM-12+009099999V0201401N001019999999N0040001N1+03261+02181101051ADDAA199000091GF107991999021008001001001MA1999999100041MD1999999-0021REMSYN070AAXX  17184 82578 32596 71402 10326 20218 30004 40105 83200 333 59002;EQDQ01+000032SCOTLCQ02  00002PRCP99
0167825780999992000082818004-05070-042820FM-12+009099999V0201401N001012200019N0040001N1+03441+01671100791ADDAA199000091GF103991011011008001001061MA1999999099781MD1999999+0101REMSYN070AAXX  28184 82578 32596 31402 10344 20167 39978 40079 81106 333 58010;EQDQ01  00002PRCP99
