0186825830999992000010112004-05170-040670FM-12+029999999V0200901N004610075019N0500001N1+02741+02071100951ADDAA106000091GF106991999021008001001001KA1240N+02271MA1999999097591MD1999999-0201REMSYN076AAXX  01124 82583 32599 60909 10274 20207 39759 40095 85200 333 20227 59020;EQDQ01  00002PRCP06
0167825830999992000010118004-05170-040670FM-12+029999999V0200901N003112200019N0500001N1+03131+01971100601ADDAA106000091GF104991041021008001001001MA1999999097261MD1999999-0101REMSYN070AAXX  01184 82583 32599 40906 10313 20197 39726 40060 84200 333 59010;EQDQ01  00002PRCP06
0196825830999992000010200004-05170-040670FM-12+029999999V0200901N001512200019N0040001N1+02591+02011100761ADDAA106000091GA1001+999999999GF100991001001999999001001KA1240M+03241MA1999999097401MD1999999-0131REMSYN070AAXX  02004 82583 32996 00903 10259 20201 39740 40076 333 10324 59013;EQDQ01  00002PRCP06
0167825830999992000010218004-05170-040670FM-12+029999999V0200901N001512200019N0500001N1+03131+01911100591ADDAA106000091GF104991031021008001041001MA1999999097251MD1999999-0011REMSYN070AAXX  02184 82583 32599 40903 10313 20191 39725 40059 83240 333 59001;EQDQ01  00002PRCP06
0186825830999992000010300004-05170-040670FM-12+029999999V0201401N002112200019N0040001N1+02681+01921100731ADDAA106000091GF103991031011008001001001KA1240M+03261MA1999999097381MD1999999-0021REMSYN076AAXX  03004 82583 32596 31404 10268 20192 39738 40073 83100 333 10326 59002;EQDQ01  00002PRCP06
0186825830999992000010312004-05170-040670FM-12+029999999V0200901N001510075019N0500001N1+02521+02191100991ADDAA106000091GF106991051021008001001011KA1240N+02271MA1999999097621MD1999999+0051REMSYN076AAXX  03124 82583 32599 60903 10252 20219 39762 40099 85201 333 20227 58005;EQDQ01  00002PRCP06
0167825830999992000010318004-05170-040670FM-12+029999999V0200901N001512200019N0500001N1+03231+01891100521ADDAA106000091GF104991031021008001001011MA1999999097201MD1999999-0051REMSYN070AAXX  03184 82583 32599 40903 10323 20189 39720 40052 83201 333 59005;EQDQ01  00002PRCP06
0214825830999992000010400004-05170-040670FM-12+029999999V0203201N003110075019N0040001N1+02881+02071100771ADDAA106000091AY121061AY221061GF107991071051008001001001KA1240M+03341MA1999999097411MD1999999+0131MW1131REMSYN082AAXX  04004 82583 31596 73206 10288 20207 39741 40077 71322 87500 333 10334 58013;EQDQ01  00002PRCP06
0186825830999992000010412004-05170-040670FM-12+029999999V0202701N000510450019N0500001N1+02531+02251101081ADDAA106000091GF107991031021008001021001KA1240N+02351MA1999999097721MD1999999+0101REMSYN076AAXX  04124 82583 32599 72701 10253 20225 39772 40108 83220 333 20235 58010;EQDQ01  00002PRCP06
0182825830999992000010418004-05170-040670FM-12+029999999V0201401N002610120019N0100001N1+02381+02191100891ADDAA106000191AY121061AY221061GF108991081081008001999999MA1999999097501MD1999999-0301MW1951REMSYN082AAXX  04184 82583 21597 81405 10238 20219 39750 40089 79522 888// 333 59030 69911;
0167825830999992000010500004-05170-040670FM-12+029999999V0200901N000512200019N0040001N1+02351+02221101021ADDAA106000021GF104991041021008001001001KA1240M+02881MA1999999097641MD1999999+0231REMSYN076AAXX  05004 82583 32596 40901 10235 20222 39764 40102 84200 333 10288 58023;
0173825830999992000010512004-05170-040670FM-12+029999999V0200901N000510120019N0500001N1+02421+02291101181ADDAA124000191GF107991071081008001001001KA1240N+02201MA1999999097781MD1999999+0061REMSYN082AAXX  05124 82583 22599 70901 10242 20229 39778 40118 87800 333 20220 58006 69914;
0182825830999992000010518004-05170-040670FM-12+029999999V0201401N002611050019N0500001N1+02751+02191100771ADDAA106004191AY161061AY261061GF106991031021008001001021MA1999999097401MD1999999-0101MW1031REMSYN082AAXX  05184 82583 21599 61405 10275 20219 39740 40077 70366 83202 333 59010 60041;
0201825830999992000010612004-05170-040670FM-12+029999999V0200901N000510120019N0500001N1+02451+02251101191ADDAA124015091AY161061AY261061GF107991061081008001041001KA1240N+02111MA1999999097791MD1999999+0011MW1021REMSYN088AAXX  06124 82583 21599 70901 10245 20225 39779 40119 70266 86840 333 20211 58001 60154;
0201825830999992000010700004-05170-040670FM-12+029999999V0203201N000510090019N0020001N1+02191+02151101171ADDAA106017091AY161061AY261061GF108991081081004501999999KA1240M+03081MA1999999097761MD1999999+0101MW1631REMSYN088AAXX  07004 82583 21495 83201 10219 20215 39776 40117 76366 888// 333 10308 58010 60171;
0201825830999992000010712004-05170-040670FM-12+029999999V0200901N002610120019N0500001N1+02451+02171101151ADDAA124020191AY161061AY261061GF107991061081008001041001KA1240N+02151MA1999999097741MD1999999-0051MW1021REMSYN088AAXX  07124 82583 21599 70905 10245 20217 39774 40115 70266 86840 333 20215 59005 60204;
0167825830999992000010718004-05170-040670FM-12+029999999V0200501N002110075019N0500001N1+02981+02091100741ADDAA106000091GF106991061021008001001001MA1999999097381MD1999999+0021REMSYN070AAXX  07184 82583 32599 60504 10298 20209 39738 40074 86200 333 58002;EQDQ01  00002PRCP06
0202825830999992000010800004-05170-040670FM-12+029999999V0200901N001512200019N0040001N1+02511+02191100831ADDAA106000091GF101991999011008001001001KA1240M+03021MA1999999097461MD1999999-0301REMSYN076AAXX  08004 82583 32596 10903 10251 20219 39746 40083 82100 333 10302 59030;EQDQ01+000022SCOTLCQ02  00002PRCP06
0186825830999992000010812004-05170-040670FM-12+029999999V0200901N003110120019N0500001N1+02531+02171101111ADDAA106000091GF108991081081008001999999KA1240N+02291MA1999999097731MD1999999-0011REMSYN076AAXX  08124 82583 32599 80906 10253 20217 39773 40111 888// 333 20229 59001;EQDQ01  00002PRCP06
0167825830999992000010818004-05170-040670FM-12+029999999V0200501N004610075019N0500001N1+03001+02141100651ADDAA106000091GF106991061021008001001001MA1999999097311MD1999999-0071REMSYN070AAXX  08184 82583 32599 60509 10300 20214 39731 40065 86200 333 59007;EQDQ01  00002PRCP06
0214825830999992000010900004-05170-040670FM-12+029999999V0202701N000510120019N0040001N1+02541+02311101001ADDAA106000091AY121061AY221061GF107991071081008001001001KA1240M+03021MA1999999097621MD1999999+0161MW1131REMSYN082AAXX  09004 82583 31596 72701 10254 20231 39762 40100 71322 87800 333 10302 58016;EQDQ01  00002PRCP06
0201825830999992000010912004-05170-040670FM-12+029999999V0200901N000510075019N0500001N1+02331+02181101291ADDAA124005191AY161061AY261061GF108991081051008001999999KA1240N+02081MA1999999097891MD1999999+0161MW1201REMSYN088AAXX  09124 82583 21599 80901 10233 20218 39789 40129 72066 885// 333 20208 58016 60054;
0201825830999992000010918004-05170-040670FM-12+029999999V0201401N003110075019N0500001N1+02621+02181999999ADDAA106000191AY151061AY251061GF106991061021008001001001MA1999999097571MD1999999+0261MW1021REMSYN082AAXX  09184 82583 21599 61406 10262 20218 39757 40338 70255 86200 333 58026 69921;EQDQ01+103383APOSLP
0186825830999992000011000004-05170-040670FM-12+029999999V0209999C000012200019N0040001N1+02431+02301101121ADDAA106000091GF102991021011008001001001KA1240M+02651MA1999999097731MD1999999+0121REMSYN076AAXX  10004 82583 32596 20900 10243 20230 39773 40112 82100 333 10265 58012;EQDQ01  00002PRCP06
0201825830999992000011012004-05170-040670FM-12+029999999V0200501N001510075019N0500001N1+02541+02331101161ADDAA124004191AY161061AY261061GF106991061021008001001001KA1240N+02191MA1999999097781MD1999999-0111MW1211REMSYN088AAXX  10124 82583 21599 60503 10254 20233 39778 40116 72166 86200 333 20219 59011 60044;
0182825830999992000011018004-05170-040670FM-12+029999999V0200901N001510075019N0040001N1+02781+02181100871ADDAA106000191AY161061AY261061GF107991051091008001021001MA1999999097511MD1999999-0061MW1291REMSYN082AAXX  10184 82583 21596 70903 10278 20218 39751 40087 72966 85920 333 59006 69921;
0201825830999992000011100004-05170-040670FM-12+029999999V0201401N001012200019N0040001N1+02341+02261101051ADDAA106001091AY161061AY261061GF102991021011008001001001KA1240M+02811MA1999999097671MD1999999-0061MW1011REMSYN088AAXX  11004 82583 21596 21402 10234 20226 39767 40105 70166 82100 333 10281 59006 60011;
0173825830999992000011112004-05170-040670FM-12+029999999V0201401N001010075019N0500001N1+02561+02311101111ADDAA124001091GF106991061021008001001001KA1240N+02131MA1999999097731MD1999999-0051REMSYN082AAXX  11124 82583 22599 61402 10256 20231 39773 40111 86200 333 20213 59005 60014;
0167825830999992000011118004-05170-040670FM-12+029999999V0200901N003112200019N0500001N1+03041+02181100771ADDAA106000091GF103991031011008001001001MA1999999097411MD1999999-0101REMSYN070AAXX  11184 82583 32599 30906 10304 20218 39741 40077 83100 333 59010;EQDQ01  00002PRCP06
0186825830999992000011200004-05170-040670FM-12+029999999V0200501N000510075019N0040001N1+02551+02291100871ADDAA106000091GF105991051021008001001001KA1240M+03101MA1999999097511MD1999999-0161REMSYN076AAXX  12004 82583 32596 50501 10255 20229 39751 40087 85200 333 10310 59016;EQDQ01  00002PRCP06
0186825830999992000011212004-05170-040670FM-12+029999999V0200501N002110075019N0500001N1+02541+02191101121ADDAA106000091GF106991061021008001001001KA1240N+02201MA1999999097741MD1999999+0011REMSYN076AAXX  12124 82583 32599 60504 10254 20219 39774 40112 86200 333 20220 58001;EQDQ01  00002PRCP06
0167825830999992000011218004-05170-040670FM-12+029999999V0200901N003112200019N0500001N1+03091+01281100851ADDAA106000091GF104991041021008001001001MA1999999097491MD1999999+0081REMSYN070AAXX  12184 82583 32599 40906 10309 20128 39749 40085 84200 333 58008;EQDQ01  00002PRCP06
0186825830999992000011300004-05170-040670FM-12+029999999V0203601N002610075019N0040001N1+02631+02181100851ADDAA106000091GF105991051021008001001001KA1240M+03151MA1999999097491MD1999999-0021REMSYN076AAXX  13004 82583 32596 53605 10263 20218 39749 40085 85200 333 10315 59002;EQDQ01  00002PRCP06
0186825830999992000011312004-05170-040670FM-12+029999999V0203601N001010075019N0500001N1+02541+02211101161ADDAA106000091GF108991081021008001999999KA1240N+02301MA1999999097791MD1999999+0051REMSYN076AAXX  13124 82583 32599 83602 10254 20221 39779 40116 882// 333 20230 58005;EQDQ01  00002PRCP06
0167825830999992000011318004-05170-040670FM-12+029999999V0201801N003110075019N0500001N1+02781+02211100831ADDAA106000091GF107991071021008001001001MA1999999097471MD1999999-0021REMSYN070AAXX  13184 82583 32599 71806 10278 20221 39747 40083 87200 333 59002;EQDQ01  00002PRCP06
0218825830999992000011400004-05170-040670FM-12+029999999V0201801N000512200019N0040001N1+02481+02231101021ADDAA199000091AY121061AY201061GF103991031021008001001001KA1240M+03001MA1999999097641MD1999999+0201MW1131REMSYN086    AAXX  14004 82583 31596 31801 10248 20223 39764 40102 71320 83200 333 10300 58020;EQDQ01  00002PRCP99
0190825830999992000011412004-05170-040670FM-12+029999999V0200501N001010075019N0500001N1+02541+02211101051ADDAA199000091GF107991071021008001001001KA1240N+02181MA1999999097671MD1999999-0121REMSYN080    AAXX  14124 82583 32599 70502 10254 20221 39767 40105 87200 333 20218 59012;EQDQ01  00002PRCP99
0171825830999992000011418004-05170-040670FM-12+029999999V0200501N002110075019N0500001N1+02971+02231100701ADDAA199000091GF106991061021008001001001MA1999999097341MD1999999-0131REMSYN074    AAXX  14184 82583 32599 60504 10297 20223 39734 40070 86200 333 59013;EQDQ01  00002PRCP99
0190825830999992000011500004-05170-040670FM-12+029999999V0202301N001510075019N0040001N1+02431+02011100881ADDAA199000091GF105991051021008001001001KA1240M+03101MA1999999097511MD1999999-0131REMSYN080    AAXX  15004 82583 32596 52303 10243 20201 39751 40088 85200 333 10310 59013;EQDQ01  00002PRCP99
0190825830999992000011512004-05170-040670FM-12+029999999V0200501N001510075019N0500001N1+02521+02251101081ADDAA199000091GF107991071051008001001001KA1240N+02271MA1999999097701MD1999999+0031REMSYN080    AAXX  15124 82583 32599 70503 10252 20225 39770 40108 87500 333 20227 58003;EQDQ01  00002PRCP99
0205825830999992000011518004-05170-040670FM-12+029999999V0200901N001512200019N0500001N1+02121+99999100861ADDAA124009991AY161061AY261061GF102991999021008001001001MA1999999097471MD1999999+0131MW1021REMSYN086    AAXX  15184 82583 21599 20903 10212 20213 39747 40086 70266 86200 333 58013 60104;EQDQ01+000062SCOTLC
0190825830999992000011600004-05170-040670FM-12+029999999V0201801N000510075019N0040001N1+02371+02251100971ADDAA199000091GF107991071021008001001001KA1240M+02741MA1999999097591MD1999999+0081REMSYN080    AAXX  16004 82583 32596 71801 10237 20225 39759 40097 87200 333 10274 58008;EQDQ01  00002PRCP99
0190825830999992000011612004-05170-040670FM-12+029999999V0200501N002112200019N0500001N1+02611+02211101111ADDAA199000091GF102991021011008001001001KA1240N+02201MA1999999097731MD1999999+0031REMSYN080    AAXX  16124 82583 32599 20504 10261 20221 39773 40111 82100 333 20220 58003;EQDQ01  00002PRCP99
0171825830999992000011618004-05170-040670FM-12+029999999V0202701N002110075019N0500001N1+02531+02171100811ADDAA199000091GF106991061021008001001001MA1999999097511MD1999999+0041REMSYN074    AAXX  16184 82583 32599 62704 10253 20217 39751 40081 86200 333 58004;EQDQ01  00002PRCP99
0190825830999992000011700004-05170-040670FM-12+029999999V0200501N000510120019N0020001N1+02401+02191101101ADDAA199000091GF106991061081008001001001KA1240M+02981MA1999999097721MD1999999-0131REMSYN080    AAXX  17004 82583 32595 60501 10240 20219 39772 40110 86800 333 10298 59013;EQDQ01  00002PRCP99
0190825830999992000011712004-05170-040670FM-12+029999999V0200901N002610120019N0500001N1+02501+02191101181ADDAA199000091GF108991081081008001999999KA1240N+02191MA1999999097801MD1999999+0071REMSYN080    AAXX  17124 82583 32599 80905 10250 20219 39780 40118 888// 333 20219 58007;EQDQ01  00002PRCP99
0171825830999992000011718004-05170-040670FM-12+029999999V0202301N001010450019N0500001N1+02811+02121100841ADDAA199000091GF107991041081008001021001MA1999999097741MD1999999-0031REMSYN074    AAXX  17184 82583 32599 72302 10281 20212 39774 40084 84820 333 59003;EQDQ01  00002PRCP99
0205825830999992000011800004-05170-040670FM-12+029999999V0203601N001510150019N0040001N1+02311+02241101221ADDAA106007991AY161061AY261061GF108991081051017501999999KA1240M+03131MA1999999097821MD1999999+0101MW1031REMSYN092    AAXX  18004 82583 21796 83603 10231 20224 39782 40122 70366 885// 333 10313 58010 60081;
0177825830999992000011812004-05170-040670FM-12+029999999V0200901N003110075019N0500001N1+02531+02251101321ADDAA124007991GF106991051021008001001011KA1240N+02241MA1999999097921MD1999999+0121REMSYN086    AAXX  18124 82583 22599 60906 10253 20225 39792 40132 85201 333 20224 58012 60084;
0171825830999992000011818004-05170-040670FM-12+029999999V0201401N002111050019N0500001N1+02971+02151100921ADDAA199000091GF106991031021008001001021MA1999999097551MD1999999+0071REMSYN074    AAXX  18184 82583 32599 61404 10297 20215 39755 40092 83202 333 58007;EQDQ01  00002PRCP99
0206825830999992000011900004-05170-040670FM-12+029999999V0203601N002119999999N0040001N1+02451+02291101111ADDAA199000091GF105991001001999999001021KA1240M+03051MA1999999097731MD1999999-0091REMSYN080    AAXX  19004 82583 32896 53604 10245 20229 39773 40111 80002 333 10305 59009;EQDQ01+022502SCOLCBQ02  00002PRCP99
0190825830999992000011912004-05170-040670FM-12+029999999V0200501N002610450019N0500001N1+02511+02271101321ADDAA199000091GF106991041051008001041001KA1240N+02111MA1999999097931MD1999999+0011REMSYN080    AAXX  19124 82583 32599 60505 10251 20227 39793 40132 84540 333 20211 58001;EQDQ01  00002PRCP99
0167825830999992000011918004-05170-040670FM-12+029999999V0203201N002110120019N0500001N1+03101+02151100891ADDAA199000091GF106991061081008001001001MA1999999097531MD1999999-0021REMSYN070AAXX  19184 82583 32599 63204 10310 20215 39753 40089 86800 333 59002;EQDQ01  00002PRCP99
0186825830999992000012012004-05170-040670FM-12+029999999V0200901N002110075019N0500001N1+02531+02211101231ADDAA199000091GF106991061021008001001001KA1240N+02111MA1999999097851MD1999999-0081REMSYN076AAXX  20124 82583 32599 60904 10253 20221 39785 40123 86200 333 20211 59008;EQDQ01  00002PRCP99
0167825830999992000012018004-05170-040670FM-12+029999999V0202701N002112200019N0500001N1+03131+01911100871ADDAA199000091GF105991021021008001001011MA1999999097531MD1999999+0001REMSYN070AAXX  20184 82583 32599 52704 10313 20191 39753 40087 82201 333 58000;EQDQ01  00002PRCP99
0186825830999992000012100004-05170-040670FM-12+029999999V0203601N001010075019N0040001N1+02301+02251101221ADDAA199000091GF105991051021008001001001KA1240M+03131MA1999999097821MD1999999+0091REMSYN076AAXX  21004 82583 32596 53602 10230 20225 39782 40122 85200 333 10313 58009;EQDQ01  00002PRCP99
0201825830999992000012112004-05170-040670FM-12+029999999V0200901N000510120019N0500001N1+02451+02251101191ADDAA124015091AY161061AY261061GF107991061081008001041001KA1240N+02111MA1999999097791MD1999999+0011MW1021REMSYN088AAXX  21124 82583 21599 70901 10245 20225 39779 40119 70266 86840 333 20211 58001 60154;
0167825830999992000012118004-05170-040670FM-12+029999999V0200501N002112200019N0500001N1+03121+02111100841ADDAA199000091GF102991021011008001001001MA1999999097491MD1999999-0041REMSYN070AAXX  21184 82583 32599 20504 10312 20211 39749 40084 82100 333 59004;EQDQ01  00002PRCP99
0186825830999992000012200004-05170-040670FM-12+029999999V0203601N003110075019N0040001N1+02531+02111101171ADDAA199000091GF105991051021008001001001KA1240M+03131MA1999999097091MD1999999-0031REMSYN076AAXX  22004 82583 32596 53606 10253 20211 39709 40117 85200 333 10313 59003;EQDQ01  00002PRCP99
0186825830999992000012212004-05170-040670FM-12+029999999V0200501N002610075019N0500001N1+02611+02181101311ADDAA199000091GF105991051011008001001001KA1240N+02171MA1999999097931MD1999999+0061REMSYN076AAXX  22124 82583 32599 50505 10261 20218 39793 40131 85100 333 20217 58006;EQDQ01  00002PRCP99
0167825830999992000012218004-05170-040670FM-12+029999999V0203601N002612200019N0500001N1+03551+02121100891ADDAA199000091GF103991031011008001001001MA1999999097541MD1999999+0051REMSYN070AAXX  22184 82583 32599 33605 10355 20212 39754 40089 83100 333 58005;EQDQ01  00002PRCP99
0201825830999992000012300004-05170-040670FM-12+029999999V0203601N002610120019N0040001N1+02481+02151101191ADDAA106000591AY161061AY261061GF106991061081008001001001KA1240M+03221MA1999999097811MD1999999+0021MW1021REMSYN088AAXX  23004 82583 21596 63605 10248 20215 39781 40119 70266 86800 333 10322 58002 69941;
0167825830999992000012318004-05170-040670FM-12+029999999V0202701N002110075019N0500001N1+02981+02041100851ADDAA199000091GF105991051021008001001001MA1999999097501MD1999999-0041REMSYN070AAXX  23184 82583 32599 52704 10298 20204 39750 40085 85200 333 59004;EQDQ01  00002PRCP99
0201825830999992000012400004-05170-040670FM-12+029999999V0203201N001510075019N0010001N1+02351+02261101111ADDAA106031091AY161061AY261061GF108991081051008001999999KA1240M+03141MA1999999097731MD1999999-0081MW1031REMSYN088AAXX  24004 82583 21594 83203 10235 20226 39773 40111 70366 885// 333 10314 59008 60311;
0173825830999992000012412004-05170-040670FM-12+029999999V0202301N001010120019N0500001N1+02491+02231101241ADDAA124031091GF107991051081008001001021KA1240N+02231MA1999999097841MD1999999-0071REMSYN082AAXX  24124 82583 22599 72302 10249 20223 39784 40124 85802 333 20223 59007 60314;
0186825830999992000012512004-05170-040670FM-12+029999999V0200501N001512200019N0500001N1+02541+02151101271ADDAA199000091GF104991021011008001001011KA1240N+02211MA1999999097891MD1999999+0051REMSYN076AAXX  25124 82583 32599 40503 10254 20215 39789 40127 82101 333 20221 58005;EQDQ01  00002PRCP99
0167825830999992000012518004-05170-040670FM-12+029999999V0200501N005112200019N0500001N1+03181+02011100911ADDAA199000091GF104991041011008001001001MA1999999097561MD1999999+0081REMSYN070AAXX  25184 82583 32599 40510 10318 20201 39756 40091 84100 333 58008;EQDQ01  00002PRCP99
0196825830999992000012600004-05170-040670FM-12+029999999V0200901N002112200019N0040001N1+02501+01871101051ADDAA199000091GA1001+999999999GF100991001001999999001001KA1240M+03221MA1999999097671MD1999999-0031REMSYN070AAXX  26004 82583 32996 00904 10250 20187 39767 40105 333 10322 59003;EQDQ01  00002PRCP99
0186825830999992000012612004-05170-040670FM-12+029999999V0200501N001510075019N0500001N1+02531+02091101381ADDAA199000091GF106991061021008001001001KA1240N+02071MA1999999097991MD1999999+0101REMSYN076AAXX  26124 82583 32599 60503 10253 20209 39799 40138 86200 333 20207 58010;EQDQ01  00002PRCP99
0167825830999992000012618004-05170-040670FM-12+029999999V0200501N004112200019N0500001N1+03111+01891100941ADDAA199000091GF103991021011008001001011MA1999999097581MD1999999+0121REMSYN070AAXX  26184 82583 32599 30508 10311 20189 39758 40094 82101 333 58012;EQDQ01  00002PRCP99
0196825830999992000012700004-05170-040670FM-12+029999999V0200901N001512200019N0040001N1+02511+01891101111ADDAA199000091GA1001+999999999GF100991001001999999001001KA1240M+03171MA1999999097731MD1999999+0061REMSYN070AAXX  27004 82583 32996 00903 10251 20189 39773 40111 333 10317 58006;EQDQ01  00002PRCP99
0186825830999992000012712004-05170-040670FM-12+029999999V0200501N002112200019N0500001N1+02601+02171101301ADDAA199000091GF102991021011008001001001KA1240N+02051MA1999999097921MD1999999-0071REMSYN076AAXX  27124 82583 32599 20504 10260 20217 39792 40130 82100 333 20205 59007;EQDQ01  00002PRCP99
0167825830999992000012718004-05170-040670FM-12+029999999V0200501N002112200019N0500001N1+03271+02131100841ADDAA199000091GF103991031021008001001001MA1999999097491MD1999999-0091REMSYN070AAXX  27184 82583 32599 30504 10327 20213 39749 40084 83200 333 59009;EQDQ01  00002PRCP99
0186825830999992000012800004-05170-040670FM-12+029999999V0203601N003610075019N0040001N1+02651+02181101181ADDAA199000091GF105991051021008001001001KA1240M+03301MA1999999097801MD1999999+0071REMSYN076AAXX  28004 82583 32596 53607 10265 20218 39780 40118 85200 333 10330 58007;EQDQ01  00002PRCP99
0186825830999992000012812004-05170-040670FM-12+029999999V0202301N001510120019N0500001N1+02481+02131101301ADDAA199000091GF107991061081008001001011KA1240N+02151MA1999999097921MD1999999+0001REMSYN076AAXX  28124 82583 32599 72303 10248 20213 39792 40130 86801 333 20215 58000;EQDQ01  00002PRCP99
0167825830999992000012818004-05170-040670FM-12+029999999V0203601N001512200019N0500001N1+03121+02251100881ADDAA199000091GF104991041021008001001001MA1999999097531MD1999999+0041REMSYN070AAXX  28184 82583 32599 43603 10312 20225 39753 40088 84200 333 58004;EQDQ01  00002PRCP99
0196825830999992000012900004-05170-040670FM-12+029999999V0200501N000512200019N0040001N1+02651+02091101051ADDAA199000091GA1001+999999999GF100991001001999999001001KA1240M+03231MA1999999097681MD1999999+0121REMSYN070AAXX  29004 82583 32996 00501 10265 20209 39768 40105 333 10323 58012;EQDQ01  00002PRCP99
0186825830999992000012912004-05170-040670FM-12+029999999V0200901N003610075019N0500001N1+02711+02191101261ADDAA199000091GF106991061021008001001001KA1240N+02271MA1999999097711MD1999999-0021REMSYN076AAXX  29124 82583 32599 60907 10271 20219 39771 40126 86200 333 20227 59002;EQDQ01  00002PRCP99
0167825830999992000012918004-05170-040670FM-12+029999999V0200501N003612200019N0500001N1+03291+01871100841ADDAA199000091GF103991031021008001001001MA1999999097501MD1999999-0031REMSYN070AAXX  29184 82583 32599 30507 10329 20187 39750 40084 83200 333 59003;EQDQ01  00002PRCP99
0196825830999992000013000004-05170-040670FM-12+029999999V0200901N000512200019N0040001N1+02591+01841101081ADDAA199000091GA1001+999999999GF100991001001999999001001KA1240M+03331MA1999999097711MD1999999+0031REMSYN070AAXX  30004 82583 32996 00901 10259 20184 39771 40108 333 10333 58003;EQDQ01  00002PRCP99
0186825830999992000013012004-05170-040670FM-12+029999999V0200501N017012200019N0500001N1+02781+02011101341ADDAA199000091GF104991041011008001001001KA1240N+02191MA1999999097971MD1999999+0071REMSYN076AAXX  30124 82583 32599 40533 10278 20201 39797 40134 84100 333 20219 58007;EQDQ01  00002PRCP99
0167825830999992000013018004-05170-040670FM-12+029999999V0200901N006210075019N0500001N1+03281+01861100951ADDAA199000091GF106991061021008001001001MA1999999097611MD1999999+0111REMSYN070AAXX  30184 82583 32599 60912 10328 20186 39761 40095 86200 333 58011;EQDQ01  00002PRCP99
0186825830999992000013100004-05170-040670FM-12+029999999V0200501N003112200019N0040001N1+02661+02071101231ADDAA199000091GF101991011011008001001001KA1240M+03321MA1999999097871MD1999999+0161REMSYN076AAXX  31004 82583 32596 10506 10266 20207 39787 40123 81100 333 10332 58016;EQDQ01  00002PRCP99
0186825830999992000013112004-05170-040670FM-12+029999999V0200901N004612200019N0500001N1+02771+02111101551ADDAA199000091GF102991021011008001001001KA1240N+02101MA1999999098171MD1999999+0201REMSYN076AAXX  31124 82583 32599 20909 10277 20211 39817 40155 82100 333 20210 58020;EQDQ01  00002PRCP99
0167825830999992000013118004-05170-040670FM-12+029999999V0200501N004112200019N0500001N1+03401+01771101001ADDAA199000091GF104991041021008001001001MA1999999097661MD1999999+0051REMSYN070AAXX  31184 82583 32599 40508 10340 20177 39766 40100 84200 333 58005;EQDQ01  00002PRCP99
0196825830999992000020100004-05170-040670FM-12+029999999V0200901N001012200019N0040001N1+02721+01831101221ADDAA199000091GA1001+999999999GF100991001001999999001001KA1240M+03501MA1999999097861MD1999999-0011REMSYN070AAXX  01004 82583 32996 00902 10272 20183 39786 40122 333 10350 59001;EQDQ01  00002PRCP99
0186825830999992000020112004-05170-040670FM-12+029999999V0200501N003112200019N0500001N1+02801+02211101441ADDAA199000091GF102991011011008001001011KA1240N+02141MA1999999098081MD1999999-0091REMSYN076AAXX  01124 82583 32599 20506 10280 20221 39808 40144 81101 333 20214 59009;EQDQ01  00002PRCP99
0167825830999992000020118004-05170-040670FM-12+029999999V0200501N004612200019N0500001N1+03491+01771100951ADDAA199000091GF102991011011008001001011MA1999999097611MD1999999-0051REMSYN070AAXX  01184 82583 32599 20509 10349 20177 39761 40095 81101 333 59005;EQDQ01  00002PRCP99
0214825830999992000020200004-05170-040670FM-12+029999999V0203601N002610120019N0040001N1+02891+01931101151ADDAA199000091AY121061AY221061GF106991061081008001001001KA1240M+03521MA1999999097811MD1999999-0051MW1131REMSYN082AAXX  02004 82583 31596 63605 10289 20193 39781 40115 71322 86800 333 10352 59005;EQDQ01  00002PRCP99
0186825830999992000020212004-05170-040670FM-12+029999999V0200501N001510075019N0500001N1+02701+02151101351ADDAA199000091GF106991051021008001001011KA1240N+02351MA1999999097991MD1999999-0091REMSYN076AAXX  02124 82583 32599 60503 10270 20215 39799 40135 85201 333 20235 59009;EQDQ01  00002PRCP99
0186825830999992000020312004-05170-040670FM-12+029999999V0200501N001510075019N0500001N1+02661+02181101281ADDAA199000091GF106991061021008001001001KA1240N+02251MA1999999097911MD1999999-0081REMSYN076AAXX  03124 82583 32599 60503 10266 20218 39791 40128 86200 333 20225 59008;EQDQ01  00002PRCP99
0167825830999992000020318004-05170-040670FM-12+029999999V0203601N003112200019N0500001N1+03281+02031100791ADDAA199000091GF105991041021008001001011MA1999999097451MD1999999-0141REMSYN070AAXX  03184 82583 32599 53606 10328 20203 39745 40079 84201 333 59014;EQDQ01  00002PRCP99
0186825830999992000020400004-05170-040670FM-12+029999999V0203601N003612200019N0040001N1+02801+02081101121ADDAA199000091GF102991021011008001001001KA1240M+03351MA1999999097761MD1999999+0011REMSYN076AAXX  04004 82583 32596 23607 10280 20208 39776 40112 82100 333 10335 58001;EQDQ01  00002PRCP99
0186825830999992000020412004-05170-040670FM-12+029999999V0203601N002612200019N0500001N1+02731+02171101321ADDAA199000091GF105991041021008001001011KA1240N+02251MA1999999097961MD1999999+0051REMSYN076AAXX  04124 82583 32599 53605 10273 20217 39796 40132 84201 333 20225 58005;EQDQ01  00002PRCP99
0183825830999992000020418004-05170-040670FM-12+029999999V0200901N003110120019N0500001N1+03241+01931100931ADDAA199000091GF108991999081008001011001MA1999999097591MD1999999+0141REMSYN070AAXX  04184 82583 32599 80906 10324 20193 39759 40093 88810 333 58014;EQDQ01+000082SCOTLCQ02  00002PRCP99
0220825830999992000020500004-05170-040670FM-12+029999999V0202701N001510075019N0040001N1+02511+02191101181ADDAA106000191AY161061AY261061GF106991999021008001001001KA1240M+03281MA1999999097811MD1999999+0051MW1021REMSYN088AAXX  05004 82583 21596 62703 10251 20219 39781 40118 70266 85200 333 10328 58005 69921;EQDQ01+000052SCOTLC
0173825830999992000020512004-05170-040670FM-12+029999999V0200901N002612200019N0500001N1+02661+02111101421ADDAA124000191GF102991021011008001001001KA1240N+02121MA1999999098041MD1999999+0081REMSYN082AAXX  05124 82583 22599 20905 10266 20211 39804 40142 82100 333 20212 58008 69924;
0167825830999992000020518004-05170-040670FM-12+029999999V0200501N003110075019N0500001N1+03361+01411101001ADDAA199000091GF105991051021008001001001MA1999999097661MD1999999+0071REMSYN070AAXX  05184 82583 32599 50506 10336 20141 39766 40100 85200 333 58007;EQDQ01  00002PRCP99
0201825830999992000020612004-05170-040670FM-12+029999999V0200901N003612200019N0500001N1+02691+02131103371ADDAA124001091AY161061AY261061GF103991031021008001001001KA1240N+02191MA1999999098061MD1999999+0021MW1021REMSYN088AAXX  06124 82583 21599 30907 10269 20213 39806 40337 70266 83200 333 20219 58002 60014;
0183825830999992000020618004-05170-040670FM-12+029999999V0200501N002112200019N0500001N1+03311+01851100952ADDAA199000091GF102991021011008001001001MA1999999097621MD1999999-0041REMSYN070AAXX  06184 82583 32599 20504 10331 20185 39762 40095 82100 333 59004;EQDQ01+100953APOSLPQ02  00002PRCP99
0201825830999992000020700004-05170-040670FM-12+029999999V0201401N002110075019N0040001N1+02601+02061101261ADDAA106002091AY161061AY261061GF108991081051008001999999KA1240M+03341MA1999999097891MD1999999+0021MW1021REMSYN088AAXX  07004 82583 21596 81404 10260 20206 39789 40126 70266 885// 333 10334 58002 60021;
0201825830999992000020712004-05170-040670FM-12+029999999V0203601N000510120019N0500001N1+02621+02251101391ADDAA124022191AY101061AY221061GF108991081081008001999999KA1240N+02091MA1999999098011MD1999999-0051MW1061REMSYN088AAXX  07124 82583 21599 83601 10262 20225 39801 40139 70602 888// 333 20209 59005 60224;
0167825830999992000020718004-05170-040670FM-12+029999999V0202701N002610120019N0500001N1+02741+02261101131ADDAA199000091GF108991081081008001999999MA1999999097751MD1999999+0131REMSYN070AAXX  07184 82583 32599 82705 10274 20226 39775 40113 888// 333 58013;EQDQ01  00002PRCP99
0201825830999992000020812004-05170-040670FM-12+029999999V0202301N001010120019N0200001N1+02381+02261101481ADDAA124005191AY121061AY221061GF107991071081008001001001KA1240N+02251MA1999999098071MD1999999+0071MW1621REMSYN088AAXX  08124 82583 21598 72302 10238 20226 39807 40148 76222 87800 333 20225 58007 60054;
0148825830999992000020818004-05170-040670FM-12+029999999V0202301N002110075019N0500001N1+03031+01931100931ADDAA199000021GF107991061031008001001021MA1999999097571MD1999999-0181REMSYN070AAXX  08184 82583 32599 72304 10303 20193 39757 40093 86302 333 59018;
0201825830999992000020900004-05170-040670FM-12+029999999V0202701N001510120019N0040001N1+02211+02141101331ADDAA106010991AY161061AY261061GF106991061081008001001001KA1240M+03211MA1999999097921MD1999999+0001MW1021REMSYN088AAXX  09004 82583 21596 62703 10221 20214 39792 40133 70266 86800 333 10321 58000 60111;
0201825830999992000020912004-05170-040670FM-12+029999999V0200501N003611050019N0500001N1+02511+02211101411ADDAA124010991AY161061AY261061GF105991021011008001001021KA1240N+02181MA1999999097991MD1999999-0081MW1021REMSYN088AAXX  09124 82583 21599 50507 10251 20221 39799 40141 70266 82102 333 20218 59008 60114;
0182825830999992000020918004-05170-040670FM-12+029999999V0200501N003610075019N0500001N1+02541+02111101161ADDAA106001091AY161061AY261061GF107991071051008001001001MA1999999097761MD1999999+0191MW1031REMSYN082AAXX  09184 82583 21599 70507 10254 20211 39776 40116 70366 87500 333 58019 60011;
0186825830999992000021000004-05170-040670FM-12+029999999V0200901N001510075019N0040001N1+02491+02171101141ADDAA199000091GF107991071051008001001001KA1240M+02931MA1999999097761MD1999999-0161REMSYN076AAXX  10004 82583 32596 70903 10249 20217 39776 40114 87500 333 10293 59016;EQDQ01  00002PRCP99
0173825830999992000021012004-05170-040670FM-12+029999999V0200501N004110075019N0500001N1+02541+02131101311ADDAA124001091GF107991071021008001001001KA1240N+02121MA1999999097921MD1999999-0071REMSYN082AAXX  10124 82583 22599 70508 10254 20213 39792 40131 87200 333 20212 59007 60014;
0167825830999992000021018004-05170-040670FM-12+029999999V0200501N003112200019N0500001N1+03161+01991100871ADDAA199000091GF104991041021008001001001MA1999999097521MD1999999-0241REMSYN070AAXX  10184 82583 32599 40506 10316 20199 39752 40087 84200 333 59024;EQDQ01  00002PRCP99
0220825830999992000021100004-05170-040670FM-12+029999999V0202701N001019999999N0040001N1+02371+02281101221ADDAA106003091AY161061AY261061GF105991999021008001001001KA1240M+03271MA1999999097831MD1999999+0071MW1021REMSYN088AAXX  11004 82583 21596 52702 10237 20228 39783 40122 70266 84200 333 10327 58007 60031;EQDQ01+000042SCOTLC
0173825830999992000021112004-05170-040670FM-12+029999999V0200501N003610075019N0500001N1+02571+02211101261ADDAA124003091GF106991061021008001001001KA1240N+02071MA1999999097921MD1999999+0001REMSYN082AAXX  11124 82583 22599 60507 10257 20221 39792 40126 86200 333 20207 58000 60034;
0167825830999992000021118004-05170-040670FM-12+029999999V0201401N001510075019N0500001N1+02941+02041100951ADDAA199000091GF106991061021008001001001MA1999999097581MD1999999+0061REMSYN070AAXX  11184 82583 32599 61403 10294 20204 39758 40095 86200 333 58006;EQDQ01  00002PRCP99
0214825830999992000021200004-05170-040670FM-12+029999999V0203601N003110120019N0040001N1+02451+02171101201ADDAA199000091AY121061AY221061GF106991061091012501001001KA1240M+03141MA1999999097821MD1999999-0011MW1131REMSYN082AAXX  12004 82583 31696 63606 10245 20217 39782 40120 71322 86900 333 10314 59001;EQDQ01  00002PRCP99
0186825830999992000021212004-05170-040670FM-12+029999999V0200501N001512200019N0500001N1+02621+02171101271ADDAA199000091GF102991021011008001001001KA1240N+02061MA1999999097891MD1999999-0031REMSYN076AAXX  12124 82583 32599 20503 10262 20217 39789 40127 82100 333 20206 59003;EQDQ01  00002PRCP99
0201825830999992000021218004-05170-040670FM-12+029999999V0202701N003119999999N0500001N1+02521+02071100881ADDAA106009991AY161061AY261061GF106991999011008001001001MA1999999097491MD1999999-0091MW1021REMSYN082AAXX  12184 82583 21599 62706 10252 20207 39749 40088 70266 82100 333 59009 60101;EQDQ01+000022SCOTLC
0201825830999992000021300004-05170-040670FM-12+029999999V0203601N001012200019N0040001N1+02451+02281101101ADDAA106000191AY161061AY261061GF102991021011008001001001KA1240M+03151MA1999999097721MD1999999-0101MW1021REMSYN088AAXX  13004 82583 21596 23602 10245 20228 39772 40110 70266 82100 333 10315 59010 69921;
0173825830999992000021312004-05170-040670FM-12+029999999V0200501N002612200019N0500001N1+02641+02141101251ADDAA124010991GF104991031011008001001011KA1240N+02161MA1999999097871MD1999999+0001REMSYN082AAXX  13124 82583 22599 40505 10264 20214 39787 40125 83101 333 20216 58000 60114;
0167825830999992000021318004-05170-040670FM-12+029999999V0203601N002612200019N0500001N1+03181+02041100841ADDAA199000091GF102991021011008001001001MA1999999097501MD1999999+0011REMSYN070AAXX  13184 82583 32599 23605 10318 20204 39750 40084 82100 333 58001;EQDQ01  00002PRCP99
0201825830999992000021400004-05170-040670FM-12+029999999V0202701N001510120019N0040001N1+02231+02091101231ADDAA106027991AY161061AY261061GF106991061081008001001001KA1240M+03231MA1999999097841MD1999999+0121MW1021REMSYN088AAXX  14004 82583 21596 62703 10223 20209 39784 40123 70266 86800 333 10323 58012 60281;
0201825830999992000021412004-05170-040670FM-12+029999999V0200901N001010450019N0500001N1+02311+02161101351ADDAA124047091AY161061AY261061GF107991021021008001031011KA1240N+01931MA1999999098031MD1999999+0161MW1031REMSYN088AAXX  14124 82583 21599 70902 10231 20216 39803 40135 70366 82231 333 20193 58016 60474;
0167825830999992000021418004-05170-040670FM-12+029999999V0200901N001510075019N0500001N1+02971+02121100951ADDAA199000091GF106991061021008001001001MA1999999097591MD1999999+0091REMSYN070AAXX  14184 82583 32599 60903 10297 20212 39759 40095 86200 333 58009;EQDQ01  00002PRCP99
0201825830999992000021500004-05170-040670FM-12+029999999V0203601N005110075019N0040001N1+02421+02261101251ADDAA106000191AY121061AY221061GF108991081051008001999999KA1240M+03051MA1999999097851MD1999999+0011MW1211REMSYN088AAXX  15004 82583 21596 83610 10242 20226 39785 40125 72122 885// 333 10305 58001 69911;
0201825830999992000021512004-05170-040670FM-12+029999999V0201401N002610120019N0500001N1+02481+02191101321ADDAA124035191AY161061AY261061GF107991061081008001001011KA1240N+02051MA1999999097921MD1999999-0111MW1031REMSYN088AAXX  15124 82583 21599 71405 10248 20219 39792 40132 70366 86801 333 20205 59011 60354;
0167825830999992000021518004-05170-040670FM-12+029999999V0200901N001011050019N0500001N1+02941+02141100941ADDAA199000091GF106991041021008001001021MA1999999097561MD1999999-0031REMSYN070AAXX  15184 82583 32599 60902 10294 20214 39756 40094 84202 333 59003;EQDQ01  00002PRCP99
0201825830999992000021600004-05170-040670FM-12+029999999V0203601N003610090019N0020001N1+02221+02171101301ADDAA106009991AY121061AY221061GF108991081081004501999999KA1240M+03021MA1999999097901MD1999999+0051MW1951REMSYN088AAXX  16004 82583 21495 83607 10222 20217 39790 40130 79522 888// 333 10302 58005 60101;
0201825830999992000021612004-05170-040670FM-12+029999999V0200901N000510120019N0500001N1+02351+02201101381ADDAA124010991AY161061AY251061GF108991081081008001999999KA1240N+02141MA1999999097961MD1999999+0041MW1031REMSYN088AAXX  16124 82583 21599 80901 10235 20220 39796 40138 70365 888// 333 20214 58004 60114;
0167825830999992000021618004-05170-040670FM-12+029999999V0201401N000512200019N0500001N1+03011+02161100831ADDAA199000091GF103991021021008001041011MA1999999097471MD1999999-0091REMSYN070AAXX  16184 82583 32599 31401 10301 20216 39747 40083 82241 333 59009;EQDQ01  00002PRCP99
0230825830999992000021700004-05170-040670FM-12+029999999V0202701N002119999999N0040001N1+02501+02311101091ADDAA199000091AY121061AY221061GF106991999021008001001001KA1240M+03051MA1999999097711MD1999999-0191MW1131REMSYN082AAXX  17004 82583 31596 62704 10250 20231 39771 40109 71322 83200 333 10305 59019;EQDQ01+000032SCOTLCQ02  00002PRCP99
0201825830999992000021712004-05170-040670FM-12+029999999V0201401N000510075019N0500001N1+02411+02211101381ADDAA124015091AY191061AY291061GF108991081051008001999999KA1240N+01991MA1999999097991MD1999999+0031MW1031REMSYN088AAXX  17124 82583 21599 81401 10241 20221 39799 40138 70399 885// 333 20199 58003 60154;
0167825830999992000021718004-05170-040670FM-12+029999999V0202301N001512200019N0500001N1+03531+02181100821ADDAA199000091GF104991021021008001001041MA1999999097451MD1999999-0021REMSYN070AAXX  17184 82583 32599 42303 10353 20218 39745 40082 82204 333 59002;EQDQ01  00002PRCP99
0201825830999992000021800004-05170-040670FM-12+029999999V0203201N002610075019N0040001N1+02201+99999101281ADDAA106022191AY191061AY261061GF108991061061008001021999KA1240M+03091MA1999999097841MD1999999+0161MW1631REMSYN088AAXX  18004 82583 21596 83205 10220 20227 39784 40128 76396 8662/ 333 10309 58016 60221;
0167825830999992000021818004-05170-040670FM-12+029999999V0200901N000512200019N0500001N1+02941+02261100861ADDAA199000091GF102991021011008001001001MA1999999097501MD1999999+0051REMSYN070AAXX  18184 82583 32599 20901 10294 20226 39750 40086 82100 333 58005;EQDQ01  00002PRCP99
0220825830999992000021900004-05170-040670FM-12+029999999V0202301N002119999999N0040001N1+02271+02181101291ADDAA106005191AY161061AY261061GF108991999011008001001001KA1240M+03021MA1999999097891MD1999999+0021MW1021REMSYN088AAXX  19004 82583 21596 82304 10227 20218 39789 40129 70266 82100 333 10302 58002 60051;EQDQ01+000022SCOTLC
0201825830999992000021912004-05170-040670FM-12+029999999V0201401N001010075019N0500001N1+02421+02111101541ADDAA124014091AY161061AY261061GF107991071021008001031999KA1240N+02091MA1999999098121MD1999999+0121MW1021REMSYN088AAXX  19124 82583 21599 71402 10242 20211 39812 40154 70266 8723/ 333 20209 58012 60144;
0167825830999992000021918004-05170-040670FM-12+029999999V0200501N001512200019N0500001N1+03041+02091100971ADDAA199000091GF103991031011008001001001MA1999999097611MD1999999+0111REMSYN070AAXX  19184 82583 32599 30503 10304 20209 39761 40097 83100 333 58011;EQDQ01  00002PRCP99
0201825830999992000022000004-05170-040670FM-12+029999999V0203201N002110075019N0040001N1+02271+02031100941ADDAA106004191AY161061AY261061GF108991081061008001999999KA1240M+03101MA1999999097541MD1999999-0351MW1021REMSYN088AAXX  20004 82583 21596 83204 10227 20203 39754 40094 70266 886// 333 10310 59035 60041;
0201825830999992000022012004-05170-040670FM-12+029999999V0200501N001510075019N0040001N1+02321+02031101421ADDAA124007191AY161061AY261061GF108991081021008001999999KA1240N+02011MA1999999098001MD1999999-0121MW1021REMSYN088AAXX  20124 82583 21596 80503 10232 20203 39800 40142 70266 882// 333 20201 59012 60074;
0182825830999992000022018004-05170-040670FM-12+029999999V0200901N005110120019N0500001N1+02221+02101101261ADDAA106010991AY161061AY261061GF108991081081008001999999MA1999999097831MD1999999-0041MW1021REMSYN082AAXX  20184 82583 21599 80910 10222 20210 39783 40126 70266 888// 333 59004 60111;
0201825830999992000022100004-05170-040670FM-12+029999999V0200901N000510120019N0040001N1+02131+02121101391ADDAA106000191AY161061AY261061GF108991081081008001999999KA1240M+02901MA1999999097971MD1999999+0431MW1021REMSYN088AAXX  21004 82583 21596 80901 10213 20212 39797 40139 70266 888// 333 10290 58043 69911;
0167825830999992000022118004-05170-040670FM-12+029999999V0201401N002112200019N0500001N1+02951+02181100871ADDAA199000091GF103991021021008001001011MA1999999097511MD1999999-0241REMSYN070AAXX  21184 82583 32599 31404 10295 20218 39751 40087 82201 333 59024;EQDQ01  00002PRCP99
0201825830999992000022200004-05170-040670FM-12+029999999V0203601N003610075019N0020001N1+02231+02141101221ADDAA106033091AY121061AY221061GF108991081051008001999999KA1240M+03171MA1999999097811MD1999999-0161MW1631REMSYN088AAXX  22004 82583 21595 83607 10223 20214 39781 40122 76322 885// 333 10317 59016 60331;
0201825830999992000022212004-05170-040670FM-12+029999999V0202701N001010120019N0500001N1+02471+02191101271ADDAA124032091AY161061AY261061GF107991071081008001001001KA1240N+02131MA1999999097871MD1999999-0191MW1031REMSYN088AAXX  22124 82583 21599 72702 10247 20219 39787 40127 70366 87800 333 20213 59019 60324;
0182825830999992000022218004-05170-040670FM-12+029999999V0203601N002110120019N0500001N1+02481+02251100951ADDAA106002091AY121061AY221061GF107991071081008001001001MA1999999097551MD1999999+0041MW1291REMSYN082AAXX  22184 82583 21599 73604 10248 20225 39755 40095 72922 87800 333 58004 60021;
0201825830999992000022300004-05170-040670FM-12+029999999V0200501N001510120019N0500001N1+02221+02121101261ADDAA106000191AY161061AY261061GF107991071081008001001001KA1240M+03071MA1999999097861MD1999999+0051MW1021REMSYN088AAXX  23004 82583 21599 70503 10222 20212 39786 40126 70266 87800 333 10307 58005 69921;
0201825830999992000022312004-05170-040670FM-12+029999999V0202301N000510075019N0500001N1+02411+02131101351ADDAA124002091AY161061AY261061GF106991051021008001001011KA1240N+02091MA1999999097941MD1999999+0071MW1031REMSYN088AAXX  23124 82583 21599 62301 10241 20213 39794 40135 70366 85201 333 20209 58007 60024;
0201825830999992000022400004-05170-040670FM-12+029999999V0200501N001010042019N0005001N1+02211+02171101301ADDAA106022191AY191061AY291061GF108991081091004501999999KA1240M+03131MA1999999097891MD1999999+0031MW1951REMSYN088AAXX  24004 82583 21493 80502 10221 20217 39789 40130 79599 889// 333 10313 58003 60221;
0201825830999992000022412004-05170-040670FM-12+029999999V0202301N001012200019N0500001N1+02431+02231101271ADDAA124026991AY191061AY291061GF105991041021008001001011KA1240N+02161MA1999999097861MD1999999-0081MW1031REMSYN088AAXX  24124 82583 21599 52302 10243 20223 39786 40127 70399 84201 333 20216 59008 60274;
0182825830999992000022418004-05170-040670FM-12+029999999V0200901N002610090019N0100001N1+02291+02261100991ADDAA106013091AY121061AY221061GF108991071081004501041999MA1999999097581MD1999999+0101MW1951REMSYN082AAXX  24184 82583 21497 80905 10229 20226 39758 40099 79522 8784/ 333 58010 60131;
0201825830999992000022500004-05170-040670FM-12+029999999V0203601N001510120019N0040001N1+02281+02201101251ADDAA106006191AY161061AY261061GF108991081081008001999999KA1240M+03021MA1999999097851MD1999999+0041MW1021REMSYN088AAXX  25004 82583 21596 83603 10228 20220 39785 40125 70266 888// 333 10302 58004 60061;
0201825830999992000022512004-05170-040670FM-12+029999999V0200901N002110450019N0500001N1+02491+02251101241ADDAA124016091AY161061AY261061GF106991031021008001031041KA1240N+02151MA1999999097841MD1999999-0021MW1031REMSYN088AAXX  25124 82583 21599 60904 10249 20225 39784 40124 70366 83234 333 20215 59002 60164;
0167825830999992000022518004-05170-040670FM-12+029999999V0200901N004612200019N0500001N1+03041+01911100911ADDAA199000091GF102991021011008001001001MA1999999097551MD1999999-0031REMSYN070AAXX  25184 82583 32599 20909 10304 20191 39755 40091 82100 333 59003;EQDQ01  00002PRCP99
0186825830999992000022612004-05170-040670FM-12+029999999V0200901N003110075019N0500001N1+02621+02181101181ADDAA199000091GF106991061021008001001001KA1240N+02191MA1999999097801MD1999999-0041REMSYN076AAXX  26124 82583 32599 60906 10262 20218 39780 40118 86200 333 20219 59004;EQDQ01  00002PRCP99
0167825830999992000022618004-05170-040670FM-12+029999999V0200901N003610075019N0500001N1+03021+02161100891ADDAA199000091GF105991051021008001001001MA1999999097541MD1999999+0011REMSYN070AAXX  26184 82583 32599 50907 10302 20216 39754 40089 85200 333 58001;EQDQ01  00002PRCP99
0186825830999992000022700004-05170-040670FM-12+029999999V0201801N000510120019N0040001N1+02301+02101101271ADDAA199000091GF108991081081008001999999KA1240M+03061MA1999999097871MD1999999+0081REMSYN076AAXX  27004 82583 32596 81801 10230 20210 39787 40127 888// 333 10306 58008;EQDQ01  00002PRCP99
0186825830999992000022712004-05170-040670FM-12+029999999V0200901N003610075019N0500001N1+02541+02171101281ADDAA199000091GF106991061021008001001001KA1240N+02241MA1999999097881MD1999999+0081REMSYN076AAXX  27124 82583 32599 60907 10254 20217 39788 40128 86200 333 20224 58008;EQDQ01  00002PRCP99
0167825830999992000022718004-05170-040670FM-12+029999999V0200501N003612200019N0500001N1+03001+02141100981ADDAA199000091GF103991031011008001001001MA1999999097621MD1999999+0081REMSYN070AAXX  27184 82583 32599 30507 10300 20214 39762 40098 83100 333 58008;EQDQ01  00002PRCP99
0196825830999992000022800004-05170-040670FM-12+029999999V0203601N002112200019N0040001N1+02461+02251101141ADDAA199000091GA1001+999999999GF100991001001999999001001KA1240M+03401MA1999999097761MD1999999-0111REMSYN070AAXX  28004 82583 32996 03604 10246 20225 39776 40114 333 10340 59011;EQDQ01  00002PRCP99
0186825830999992000022812004-05170-040670FM-12+029999999V0200501N001510120019N0500001N1+02611+02251101201ADDAA199000091GF107991071081008001001001KA1240N+02231MA1999999097821MD1999999-0061REMSYN076AAXX  28124 82583 32599 70503 10261 20225 39782 40120 87800 333 20223 59006;EQDQ01  00002PRCP99
0167825830999992000022818004-05170-040670FM-12+029999999V0200901N004111050019N0500001N1+03111+02051100861ADDAA199000091GF106991021011008001001021MA1999999097511MD1999999-0111REMSYN070AAXX  28184 82583 32599 60908 10311 20205 39751 40086 82102 333 59011;EQDQ01  00002PRCP99
0186825830999992000022900004-05170-040670FM-12+029999999V0200501N001010075019N0040001N1+02571+02271101091ADDAA199000091GF107991071051008001001001KA1240M+03151MA1999999097721MD1999999-0041REMSYN076AAXX  29004 82583 32596 70502 10257 20227 39772 40109 87500 333 10315 59004;EQDQ01  00002PRCP99
0186825830999992000022912004-05170-040670FM-12+029999999V0201401N001510120019N0500001N1+02521+02271101381ADDAA199000091GF107991061081008001031001KA1240N+02211MA1999999098001MD1999999+0181REMSYN076AAXX  29124 82583 32599 71403 10252 20227 39800 40138 86830 333 20221 58018;EQDQ01  00002PRCP99
0167825830999992000022918004-05170-040670FM-12+029999999V0201401N001510075019N0500001N1+03111+02191100931ADDAA199000091GF107991051021008001041021MA1999999097571MD1999999+0061REMSYN070AAXX  29184 82583 32599 71403 10311 20219 39757 40093 85242 333 58006;EQDQ01  00002PRCP99
0201825830999992000030100004-05170-040670FM-12+029999999V0202701N001510120019N0040001N1+02311+02241101311ADDAA106001091AY161061AY261061GF106991061081008001001001KA1240M+03211MA1999999097911MD1999999+0191MW1031REMSYN088AAXX  01004 82583 21596 62703 10231 20224 39791 40131 70366 86800 333 10321 58019 60011;
0173825830999992000030112004-05170-040670FM-12+029999999V0200901N001510120019N0500001N1+02551+02291101361ADDAA124001091GF107991071081008001001001KA1240N+02261MA1999999097961MD1999999+0041REMSYN082AAXX  01124 82583 22599 70903 10255 20229 39796 40136 87800 333 20226 58004 60014;
0167825830999992000030118004-05170-040670FM-12+029999999V0201801N002112200019N0500001N1+03101+02181100931ADDAA199000091GF103991021021008001001011MA1999999097571MD1999999+0001REMSYN070AAXX  01184 82583 32599 31804 10310 20218 39757 40093 82201 333 58000;EQDQ01  00002PRCP99
0201825830999992000030200004-05170-040670FM-12+029999999V0203201N001510075019N0040001N1+02351+02261101341ADDAA106000391AY161061AY261061GF107991071051008001001001KA1240M+03151MA1999999097941MD1999999+0031MW1031REMSYN088AAXX  02004 82583 21596 73203 10235 20226 39794 40134 70366 87500 333 10315 58003 69931;
0201825830999992000030212004-05170-040670FM-12+029999999V0200901N002610120019N0500001N1+02491+02251101341ADDAA124000591AY151061AY251061GF107991061081008001001011KA1240N+02231MA1999999097941MD1999999-0021MW1021REMSYN088AAXX  02124 82583 21599 70905 10249 20225 39794 40134 70255 86801 333 20223 59002 69944;
0182825830999992000030218004-05170-040670FM-12+029999999V0201401N001010120019N0200001N1+02511+02311101011ADDAA106009991AY161061AY261061GF108991081081008001999999MA1999999097881MD1999999+0051MW1951REMSYN082AAXX  02184 82583 21598 81402 10251 20231 39788 40101 79566 888// 333 58005 60101;
0201825830999992000030300004-05170-040670FM-12+029999999V0203201N000510120019N0040001N1+02271+02231101191ADDAA106001091AY161061AY261061GF106991061081008001001001KA1240M+02971MA1999999097791MD1999999-0151MW1021REMSYN088AAXX  03004 82583 21596 63201 10227 20223 39779 40119 70266 86800 333 10297 59015 60011;
0173825830999992000030312004-05170-040670FM-12+029999999V0200901N001512200019N0500001N1+02531+02311101261ADDAA124010991GF106991041021008001001041KA1240N+02181MA1999999097861MD1999999-0081REMSYN082AAXX  03124 82583 22599 60903 10253 20231 39786 40126 84204 333 20218 59008 60114;
0191825830999992000030318004-05170-040670FM-12+029999999V0201801N002610075019N0500001N1+02951+02311999999ADDAA106000591AY151061AY251061GF107991051021008001001041MA1999999097491MD1999999-0131ME1430859MW1021REMSYN082AAXX  03184 82583 21599 71805 10295 20231 39749 47085 70255 85204 333 59013 69951;
0186825830999992000030400004-05170-040670FM-12+029999999V0203201N002610075019N0040001N1+02331+02261101231ADDAA199000091GF105991051021008001001001KA1240M+03001MA1999999097831MD1999999+0041REMSYN076AAXX  04004 82583 32596 53205 10233 20226 39783 40123 85200 333 10300 58004;EQDQ01  00002PRCP99
0167825830999992000030418004-05170-040670FM-12+029999999V0200901N004612200019N0500001N1+03131+02111100071ADDAA199000091GF104991041011008001001001MA1999999097611MD1999999+0121REMSYN070AAXX  04184 82583 32599 40909 10313 20211 39761 40007 84100 333 58012;EQDQ01  00002PRCP99
0212825830999992000030500004-05170-040670FM-12+029999999V0200901N001012200019N0040001N1+02491+02211101182ADDAA199000091GA1001+999999999GF100991001001999999001001KA1240M+03331MA1999999097801MD1999999-0031REMSYN070AAXX  05004 82583 32996 00902 10249 20221 39780 40118 333 10333 59003;EQDQ01+101183APOSLPQ02  00002PRCP99
0186825830999992000030512004-05170-040670FM-12+029999999V0200901N005112200019N0500001N1+02621+02161101321ADDAA199000091GF102991021011008001001001KA1240N+02151MA1999999097941MD1999999+0031REMSYN076AAXX  05124 82583 32599 20910 10262 20216 39794 40132 82100 333 20215 58003;EQDQ01  00002PRCP99
0167825830999992000030518004-05170-040670FM-12+029999999V0200901N001512200019N0500001N1+03001+02041100921ADDAA199000091GF103991031011008001001001MA1999999097561MD1999999+0051REMSYN070AAXX  05184 82583 32599 30903 10300 20204 39756 40092 83100 333 58005;EQDQ01  00002PRCP99
0201825830999992000030600004-05170-040670FM-12+029999999V0202301N000510075019N0040001N1+02301+02231101101ADDAA106003091AY161061AY261061GF108991081051008001999999KA1240M+03131MA1999999097721MD1999999-0081MW1021REMSYN088AAXX  06004 82583 21596 82301 10230 20223 39772 40110 70266 885// 333 10313 59008 60031;
0201825830999992000030612004-05170-040670FM-12+029999999V0201401N001510075019N0500001N1+02171+02131101381ADDAA124017091AY161061AY261061GF108991061051008001021999KA1240N+01991MA1999999097961MD1999999+0021MW1211REMSYN088AAXX  06124 82583 21599 81403 10217 20213 39796 40138 72166 8652/ 333 20199 58002 60174;
0182825830999992000030618004-05170-040670FM-12+029999999V0200901N002610450019N0500001N1+03011+02341100891ADDAA106000191AY151061AY251061GF106991041021008001041021MA1999999097531MD1999999-0031MW1031REMSYN082AAXX  06184 82583 21599 60905 10301 20234 39753 40089 70355 84242 333 59003 69921;
0201825830999992000030712004-05170-040670FM-12+029999999V0203601N001012200019N0500001N1+02651+02391101201ADDAA124000391AY151061AY251061GF104991011011008001031011KA1240N+02141MA1999999097821MD1999999-0141MW1031REMSYN088AAXX  07124 82583 21599 43602 10265 20239 39782 40120 70355 81131 333 20214 59014 69934;
0167825830999992000030718004-05170-040670FM-12+029999999V0203601N002112200019N0500001N1+03081+02161100851ADDAA199000091GF102991021011008001001001MA1999999097501MD1999999-0031REMSYN070AAXX  07184 82583 32599 23604 10308 20216 39750 40085 82100 333 59003;EQDQ01  00002PRCP99
0186825830999992000030800004-05170-040670FM-12+029999999V0200501N000512200019N0040001N1+02451+02321101041ADDAA199000091GF102991021011008001001001KA1240M+03151MA1999999097721MD1999999-0041REMSYN076AAXX  08004 82583 32596 20501 10245 20232 39772 40104 82100 333 10315 59004;EQDQ01  00002PRCP99
0186825830999992000030812004-05170-040670FM-12+029999999V0200501N002110075019N0500001N1+02501+02231101201ADDAA199000091GF106991061021008001001001KA1240N+02091MA1999999097821MD1999999+0001REMSYN076AAXX  08124 82583 32599 60504 10250 20223 39782 40120 86200 333 20209 58000;EQDQ01  00002PRCP99
0182825830999992000030818004-05170-040670FM-12+029999999V0200501N002110075019N0500001N1+02831+02191100801ADDAA106000191AY121061AY221061GF105991051021008001001001MA1999999097441MD1999999-0061MW1211REMSYN082AAXX  08184 82583 21599 50504 10283 20219 39744 40080 72122 85200 333 59006 69921;
0173825830999992000030900004-05170-040670FM-12+029999999V0203601N002110075019N0040001N1+02571+02121101171ADDAA106000191GF106991061021008001001001KA1240M+03111MA1999999097791MD1999999+0071REMSYN082AAXX  09004 82583 22596 63604 10257 20212 39779 40117 86200 333 10311 58007 69921;
0173825830999992000030912004-05170-040670FM-12+029999999V0200901N002110120019N0500001N1+02451+02301101291ADDAA124000191GF107991071081008001001001KA1240N+02231MA1999999097901MD1999999+0081REMSYN082AAXX  09124 82583 22599 70904 10245 20230 39790 40129 87800 333 20223 58008 69924;
0167825830999992000030918004-05170-040670FM-12+029999999V0200501N003612200019N0500001N1+03091+02341100831ADDAA199000091GF102991021021008001001001MA1999999097481MD1999999+0041REMSYN070AAXX  09184 82583 32599 20507 10309 20234 39748 40083 82200 333 58004;EQDQ01  00002PRCP99
0186825830999992000031000004-05170-040670FM-12+029999999V0200501N001510075019N0040001N1+02651+02221101171ADDAA199000091GF106991061021008001001001KA1240M+03031MA1999999097791MD1999999+0001REMSYN076AAXX  10004 82583 32596 60503 10265 20222 39779 40117 86200 333 10303 58000;EQDQ01  00002PRCP99
0186825830999992000031012004-05170-040670FM-12+029999999V0200901N003110120019N0500001N1+02581+02271101291ADDAA199000091GF107991061081008001001011KA1240N+02251MA1999999097911MD1999999+0011REMSYN076AAXX  10124 82583 32599 70906 10258 20227 39791 40129 86801 333 20225 58001;EQDQ01  00002PRCP99
0167825830999992000031018004-05170-040670FM-12+029999999V0200901N003110075019N0500001N1+03051+02381100871ADDAA199000091GF106991061021008001001001MA1999999097521MD1999999+0041REMSYN070AAXX  10184 82583 32599 60906 10305 20238 39752 40087 86200 333 58004;EQDQ01  00002PRCP99
0211825830999992000031100004-05170-040670FM-12+029999999V0203201N000512200019N0040001N1+02281+02161101331ADDAA106007991AY161061AY261061GA1001+999999999GF100991001001999999001001KA1240M+03151MA1999999097931MD1999999+0141MW1021REMSYN082AAXX  11004 82583 21596 03201 10228 20216 39793 40133 70266 333 10315 58014 60081;
0173825830999992000031112004-05170-040670FM-12+029999999V0200901N003110075019N0500001N1+02611+02251101311ADDAA124007991GF106991061021008001001001KA1240N+02201MA1999999097911MD1999999+0001REMSYN082AAXX  11124 82583 22599 60906 10261 20225 39791 40131 86200 333 20220 58000 60084;
0167825830999992000031118004-05170-040670FM-12+029999999V0200901N003112200019N0500001N1+03111+02111100841ADDAA199000091GF103991031011008001001001MA1999999097491MD1999999-0051REMSYN070AAXX  11184 82583 32599 30906 10311 20211 39749 40084 83100 333 59005;EQDQ01  00002PRCP99
0196825830999992000031200004-05170-040670FM-12+029999999V0203601N001512200019N0040001N1+02421+02191101051ADDAA199000091GA1001+999999999GF100991001001999999001001KA1240M+03151MA1999999097671MD1999999+0261REMSYN070AAXX  12004 82583 32996 03603 10242 20219 39767 40105 333 10315 58026;EQDQ01  00002PRCP99
0202825830999992000031212004-05170-040670FM-12+029999999V0200501N003112200019N0500001N1+02601+02271101151ADDAA199000091GF102991999011008001001001KA1240N+02151MA1999999097771MD1999999-0141REMSYN076AAXX  12124 82583 32599 20506 10260 20227 39777 40115 83100 333 20215 59014;EQDQ01+000032SCOTLCQ02  00002PRCP99
0167825830999992000031218004-05170-040670FM-12+029999999V0200901N003112200019N0500001N1+03101+02061100751ADDAA199000091GF102991021011008001001001MA1999999097401MD1999999-0091REMSYN070AAXX  12184 82583 32599 20906 10310 20206 39740 40075 82100 333 59009;EQDQ01  00002PRCP99
0186825830999992000031300004-05170-040670FM-12+029999999V0203601N000512200019N0040001N1+02501+02271100991ADDAA199000091GF102991021011008001001001KA1240M+03141MA1999999097611MD1999999-0061REMSYN076AAXX  13004 82583 32596 23601 10250 20227 39761 40099 82100 333 10314 59006;EQDQ01  00002PRCP99
0186825830999992000031312004-05170-040670FM-12+029999999V0200501N001010120019N0500001N1+02501+02191101141ADDAA199000091GF106991061081008001001001KA1240N+02161MA1999999097761MD1999999-0011REMSYN076AAXX  13124 82583 32599 60502 10250 20219 39776 40114 86800 333 20216 59001;EQDQ01  00002PRCP99
0167825830999992000031318004-05170-040670FM-12+029999999V0203601N001512200019N0500001N1+03091+02181100721ADDAA199000091GF103991021021008001001011MA1999999097371MD1999999-0031REMSYN070AAXX  13184 82583 32599 33603 10309 20218 39737 40072 82201 333 59003;EQDQ01  00002PRCP99
0201825830999992000031412004-05170-040670FM-12+029999999V0200901N001010120019N0500001N1+02551+02311101251ADDAA124039191AY161061AY261061GF107991061081008001031001KA1240N+02191MA1999999097851MD1999999+0091MW1031REMSYN088AAXX  14124 82583 21599 70902 10255 20231 39785 40125 70366 86830 333 20219 58009 60394;
0182825830999992000031418004-05170-040670FM-12+029999999V0200901N006210120019N0100001N1+02711+02241100841ADDAA124002091AY121061AY221061GF107991061081008001001011MA1999999097481MD1999999+0111MW1631REMSYN082AAXX  14184 82583 21597 70912 10271 20224 39748 40084 76322 86801 333 58011 60024;
0195825830999992000031500004-05170-040670FM-12+029999999V0203201N001012200019N0040001N1+02371+02241101141ADDAA106002091AY161061AY261061GF102991999999999999999999KA1240M+03081MA1999999097751MD1999999+0041MW1011REMSYN082AAXX  15004 82583 21996 23202 10237 20224 39775 40114 70166 333 10308 58004 60021;
0167825830999992000031518004-05170-040670FM-12+029999999V0200501N003112200019N0500001N1+03141+02211100821ADDAA199000091GF102991021021008001001001MA1999999097471MD1999999-0011REMSYN070AAXX  15184 82583 32599 20506 10314 20221 39747 40082 82200 333 59001;EQDQ01  00002PRCP99
0186825830999992000031600004-05170-040670FM-12+029999999V0200501N002110075019N0040001N1+02601+02121101131ADDAA199000091GF106991061021008001001001KA1240M+03161MA1999999097771MD1999999+0021REMSYN076AAXX  16004 82583 32596 60504 10260 20212 39777 40113 86200 333 10316 58002;EQDQ01  00002PRCP99
0186825830999992000031612004-05170-040670FM-12+029999999V0200501N005112200019N0500001N1+02541+02211100771ADDAA199000091GF103991031011008001001001KA1240N+02101MA1999999097831MD1999999+0011REMSYN076AAXX  16124 82583 32599 30510 10254 20221 39783 40077 83100 333 20210 58001;EQDQ01  00002PRCP99
0167825830999992000031618004-05170-040670FM-12+029999999V0200901N004612200019N0500001N1+03181+02071100781ADDAA199000091GF102991021011008001001001MA1999999097441MD1999999-0031REMSYN070AAXX  16184 82583 32599 20909 10318 20207 39744 40078 82100 333 59003;EQDQ01  00002PRCP99
0218825830999992000031700004-05170-040670FM-12+029999999V0200501N001512200019N0040001N1+02521+02171999999ADDAA199000091GF101991011011008001001001KA1240M+03121MA1999999097611MD1999999-0161REMSYN076AAXX  17004 82583 32596 10503 10252 20217 39761 40338 81100 333 10312 59016;EQDQ01+103383APOSLPQ02  00002PRCP99Q03 103383APOSLP
0186825830999992000031712004-05170-040670FM-12+029999999V0200501N001012200019N0500001N1+02631+02201101151ADDAA199000091GF104991041081008001001001KA1240N+02121MA1999999097781MD1999999-0051REMSYN076AAXX  17124 82583 32599 40502 10263 20220 39778 40115 84800 333 20212 59005;EQDQ01  00002PRCP99
0167825830999992000031718004-05170-040670FM-12+029999999V0201801N000512200019N0500001N1+03111+01991100721ADDAA199000091GF101991011011008001001001MA1999999097381MD1999999-0061REMSYN070AAXX  17184 82583 32599 11801 10311 20199 39738 40072 81100 333 59006;EQDQ01  00002PRCP99
0186825830999992000031800004-05170-040670FM-12+029999999V0201801N001512200019N0040001N1+02431+02051101061ADDAA199000091GF102991021011008001001001KA1240M+03131MA1999999097681MD1999999+0071REMSYN076AAXX  18004 82583 32596 21803 10243 20205 39768 40106 82100 333 10313 58007;EQDQ01  00002PRCP99
0186825830999992000031812004-05170-040670FM-12+029999999V0200501N003112200019N0500001N1+02691+02221101101ADDAA199000091GF102991011011008001031001KA1240N+02111MA1999999097731MD1999999-0051REMSYN076AAXX  18124 82583 32599 20506 10269 20222 39773 40110 81130 333 20211 59005;EQDQ01  00002PRCP99
0182825830999992000031818004-05170-040670FM-12+029999999V0203601N001012200019N0500001N1+03001+02191100731ADDAA106008991AY161061AY261061GF103991031011008001001001MA1999999097371MD1999999-0011MW1021REMSYN082AAXX  18184 82583 21599 33602 10300 20219 39737 40073 70266 83100 333 59001 60091;
0201825830999992000031900004-05170-040670FM-12+029999999V0202701N001510075019N0040001N1+02311+02241101011ADDAA106015091AY161061AY261061GF105991051021008001001001KA1240M+03101MA1999999097631MD1999999-0051MW1021REMSYN088AAXX  19004 82583 21596 52703 10231 20224 39763 40101 70266 85200 333 10310 59005 60151;
0201825830999992000031912004-05170-040670FM-12+029999999V0201401N001510075019N0500001N1+02571+02291101161ADDAA124023991AY161061AY261061GF105991051021008001001001KA1240N+02231MA1999999097771MD1999999+0041MW1021REMSYN088AAXX  19124 82583 21599 51403 10257 20229 39777 40116 70266 85200 333 20223 58004 60244;
0167825830999992000031918004-05170-040670FM-12+029999999V0200901N002110075019N0500001N1+03081+02041100721ADDAA199000091GF106991061021008001001001MA1999999097371MD1999999+0001REMSYN070AAXX  19184 82583 32599 60904 10308 20204 39737 40072 86200 333 58000;EQDQ01  00002PRCP99
0201825830999992000032000004-05170-040670FM-12+029999999V0201801N002610075019N0040001N1+02231+02191101091ADDAA106018091AY161061AY261061GF106991061021008001001001KA1240M+03151MA1999999097701MD1999999+0071MW1021REMSYN088AAXX  20004 82583 21596 61805 10223 20219 39770 40109 70266 86200 333 10315 58007 60181;
0173825830999992000032012004-05170-040670FM-12+029999999V0200901N002110120019N0500001N1+02521+02251101201ADDAA124018091GF107991071081008001001001KA1240N+02041MA1999999097801MD1999999+0031REMSYN082AAXX  20124 82583 22599 70904 10252 20225 39780 40120 87800 333 20204 58003 60184;
0167825830999992000032018004-05170-040670FM-12+029999999V0200901N002112200019N0500001N1+03111+02021100731ADDAA199000091GF102991021011008001001001MA1999999097381MD1999999+0011REMSYN070AAXX  20184 82583 32599 20904 10311 20202 39738 40073 82100 333 58001;EQDQ01  00002PRCP99
0201825830999992000032100004-05170-040670FM-12+029999999V0202301N002112200019N0040001N1+02281+02231101021ADDAA106001091AY161061AY261061GF102991021011008001001001KA1240M+03171MA1999999097631MD1999999-0071MW1021REMSYN088AAXX  21004 82583 21596 22304 10228 20223 39763 40102 70266 82100 333 10317 59007 60011;
0182825830999992000032118004-05170-040670FM-12+029999999V0201401N001012200019N0500001N1+02781+02111100721ADDAA106004191AY161061AY261061GF104991021021008001001021MA1999999097361MD1999999-0021MW1211REMSYN082AAXX  21184 82583 21599 41402 10278 20211 39736 40072 72166 82202 333 59002 60041;
0186825830999992000032200004-05170-040670FM-12+029999999V0203601N002119999999N0040001N1+02391+02211100991ADDAA199000021GF105991999011008001001001KA1240M+03111MA1999999097611MD1999999-0021REMSYN076AAXX  22004 82583 32596 53604 10239 20221 39761 40099 82100 333 10311 59002;EQDQ01+000022SCOTLC
0173825830999992000032212004-05170-040670FM-12+029999999V0200901N003110075019N0500001N1+02621+02251101141ADDAA124004191GF106991051021008001001011KA1240N+02161MA1999999097761MD1999999+0001REMSYN082AAXX  22124 82583 22599 60906 10262 20225 39776 40114 85201 333 20216 58000 60044;
0167825830999992000032218004-05170-040670FM-12+029999999V0201401N003612200019N0500001N1+03131+02041100801ADDAA199000091GF102991021011008001001001MA1999999097441MD1999999+0081REMSYN070AAXX  22184 82583 32599 21407 10313 20204 39744 40080 82100 333 58008;EQDQ01  00002PRCP99
0186825830999992000032312004-05170-040670FM-12+029999999V0200501N002110075019N0500001N1+02651+02371101101ADDAA199000091GF106991051021008001041001KA1240N+02101MA1999999097721MD1999999-0041REMSYN076AAXX  23124 82583 32599 60504 10265 20237 39772 40110 85240 333 20210 59004;EQDQ01  00002PRCP99
0167825830999992000032318004-05170-040670FM-12+029999999V0200501N001510075019N0500001N1+03061+02141100731ADDAA199000091GF106991051021008001041001MA1999999097391MD1999999-0051REMSYN070AAXX  23184 82583 32599 60503 10306 20214 39739 40073 85240 333 59005;EQDQ01  00002PRCP99
0186825830999992000032400004-05170-040670FM-12+029999999V0203601N002110075019N0040001N1+02421+02251101151ADDAA199000091GF106991061021008001001001KA1240M+03131MA1999999097771MD1999999+0251REMSYN076AAXX  24004 82583 32596 63604 10242 20225 39777 40115 86200 333 10313 58025;EQDQ01  00002PRCP99
0186825830999992000032412004-05170-040670FM-12+029999999V0200501N003610120019N0500001N1+02711+02261101191ADDAA199000091GF107991071081008001001001KA1240N+02261MA1999999097811MD1999999+0091REMSYN076AAXX  24124 82583 32599 70507 10271 20226 39781 40119 87800 333 20226 58009;EQDQ01  00002PRCP99
0167825830999992000032418004-05170-040670FM-12+029999999V0201401N002112200019N0500001N1+03021+02411100681ADDAA199000091GF104991031021008001041001MA1999999097341MD1999999-0051REMSYN070AAXX  24184 82583 32599 41404 10302 20241 39734 40068 83240 333 59005;EQDQ01  00002PRCP99
0201825830999992000032512004-05170-040670FM-12+029999999V0200901N002110075019N0500001N1+02431+02341101271ADDAA124002091AY161061AY261061GF108991081021008001999999KA1240N+02181MA1999999097881MD1999999-0071MW1021REMSYN088AAXX  25124 82583 21599 80904 10243 20234 39788 40127 70266 882// 333 20218 59007 60024;
0167825830999992000032518004-05170-040670FM-12+029999999V0200501N003610075019N0500001N1+02901+02341100921ADDAA199000091GF106991061021008001001001MA1999999097541MD1999999+0201REMSYN070AAXX  25184 82583 32599 60507 10290 20234 39754 40092 86200 333 58020;EQDQ01  00002PRCP99
0186825830999992000032600004-05170-040670FM-12+029999999V0201401N002610075019N0040001N1+02501+02291101021ADDAA199000091GF105991051021008001001001KA1240M+03161MA1999999097641MD1999999+0011REMSYN076AAXX  26004 82583 32596 51405 10250 20229 39764 40102 85200 333 10316 58001;EQDQ01  00002PRCP99
0186825830999992000032612004-05170-040670FM-12+029999999V0200501N003610075019N0500001N1+02591+02231101141ADDAA199000091GF106991061021008001001001KA1240N+02261MA1999999097761MD1999999-0121REMSYN076AAXX  26124 82583 32599 60507 10259 20223 39776 40114 86200 333 20226 59012;EQDQ01  00002PRCP99
0167825830999992000032618004-05170-040670FM-12+029999999V0200501N004612200019N0500001N1+02521+02251100631ADDAA199000091GF103991031021008001001001MA1999999097301MD1999999-0101REMSYN070AAXX  26184 82583 32599 30509 10252 20225 39730 40063 83200 333 59010;EQDQ01  00002PRCP99
0202825830999992000032700004-05170-040670FM-12+029999999V0201401N001512200019N0040001N1+02521+02211101051ADDAA199000091GF102991999021008001001001KA1240M+03211MA1999999097681MD1999999+0031REMSYN076AAXX  27004 82583 32596 21403 10252 20221 39768 40105 85200 333 10321 58003;EQDQ01+000052SCOTLCQ02  00002PRCP99
0186825830999992000032712004-05170-040670FM-12+029999999V0200901N001010075019N0500001N1+02601+02231101091ADDAA199000091GF107991071021008001001001KA1240N+02231MA1999999097711MD1999999-0051REMSYN076AAXX  27124 82583 32599 70902 10260 20223 39771 40109 87200 333 20223 59005;EQDQ01  00002PRCP99
0182825830999992000032718004-05170-040670FM-12+029999999V0201801N002110450019N0500001N1+02761+02361100731ADDAA106002091AY161061AY261061GF106991021021008001061011MA1999999097371MD1999999+0071MW1021REMSYN082AAXX  27184 82583 21599 61804 10276 20236 39737 40073 70266 82261 333 58007 60021;
0201825830999992000032800004-05170-040670FM-12+029999999V0203601N003110075019N0040001N1+02271+02161101091ADDAA106000591AY161061AY261061GF106991061021008001001001KA1240M+02971MA1999999097711MD1999999+0041MW1131REMSYN088AAXX  28004 82583 21596 63606 10227 20216 39771 40109 71366 86200 333 10297 58004 69941;
0173825830999992000032812004-05170-040670FM-12+029999999V0202701N001510120019N0500001N1+02511+02211101231ADDAA124003091GF107991051081008001041011KA1240N+02171MA1999999097831MD1999999+0121REMSYN082AAXX  28124 82583 22599 72703 10251 20221 39783 40123 85841 333 20217 58012 60034;
0182825830999992000032818004-05170-040670FM-12+029999999V0201801N003610120019N0100001N1+02601+02291100771ADDAA106000191AY161061AY261061GF107991071081008001001001MA1999999097411MD1999999+0041MW1611REMSYN082AAXX  28184 82583 21597 71807 10260 20229 39741 40077 76166 87800 333 58004 69921;
0201825830999992000032900004-05170-040670FM-12+029999999V0202701N001510120019N0040001N1+02241+02191101031ADDAA106007191AY161061AY261061GF107991071081008001001001KA1240M+03031MA1999999097641MD1999999-0071MW1611REMSYN088AAXX  29004 82583 21596 72703 10224 20219 39764 40103 76166 87800 333 10303 59007 60071;
0201825830999992000032912004-05170-040670FM-12+029999999V0200901N002610075019N0040001N1+02271+02251101321ADDAA124010991AY151061AY251061GF108991081051008001999999KA1240N+02201MA1999999097901MD1999999+0071MW1631REMSYN088AAXX  29124 82583 21596 80905 10227 20225 39790 40132 76355 885// 333 20220 58007 60114;
0182825830999992000032918004-05170-040670FM-12+029999999V0203201N001010120019N0100001N1+02331+02201100951ADDAA106006191AY161061AY261061GF108991081081008001999999MA1999999097551MD1999999+0141MW1611REMSYN082AAXX  29184 82583 21597 83202 10233 20220 39755 40095 76166 888// 333 58014 60061;
0236825830999992000033000004-05170-040670FM-12+029999999V0203601N000512200019N0040001N1+02821+02251101161ADDAA106000591AY161061AY261061GF104991999021008001001001KA1240M+99999MA1999999097751MD1999999+0011MW1131REMSYN088AAXX  30004 82583 21596 43601 10282 20225 39775 40116 71366 86200 333 10262 58001 69941;EQDQ01+000062SCOTLCQ02 +02622ATMX  
0173825830999992000033012004-05170-040670FM-12+029999999V0202701N000510120019N0500001N1+02421+02191101231ADDAA124007191GF107991071081008001001001KA1240N+02111MA1999999097831MD1999999-0071REMSYN082AAXX  30124 82583 22599 72701 10242 20219 39783 40123 87800 333 20211 59007 60074;
0167825830999992000033018004-05170-040670FM-12+029999999V0200901N001010120019N0500001N1+02861+02281100791ADDAA199000091GF107991061081008001041011MA1999999097431MD1999999-0121REMSYN070AAXX  30184 82583 32599 70902 10286 20228 39743 40079 86841 333 59012;EQDQ01  00002PRCP99
0201825830999992000033100004-05170-040670FM-12+029999999V0200501N000510075019N0010001N1+02221+02201101261ADDAA106021191AY161061AY261061GF108991081051008001999999KA1240M+03011MA1999999097851MD1999999+0101MW1631REMSYN088AAXX  31004 82583 21594 80501 10222 20220 39785 40126 76366 885// 333 10301 58010 60211;
0201825830999992000033112004-05170-040670FM-12+029999999V0200901N004610075019N0500001N1+02581+02211101211ADDAA124023991AY161061AY261061GF107991061021008001001021KA1240N+02151MA1999999097811MD1999999-0021MW1021REMSYN088AAXX  31124 82583 21599 70909 10258 20221 39781 40121 70266 86202 333 20215 59002 60244;
0167825830999992000033118004-05170-040670FM-12+029999999V0200901N003110075019N0500001N1+02881+02231100851ADDAA199000091GF105991051021008001001001MA1999999097491MD1999999+0061REMSYN070AAXX  31184 82583 32599 50906 10288 20223 39749 40085 85200 333 58006;EQDQ01  00002PRCP99
0186825830999992000040100004-05170-040670FM-12+029999999V0203201N000510075019N0040001N1+02401+02261101181ADDAA199000091GF106991061021008001001001KA1240M+02981MA1999999097801MD1999999-0031REMSYN076AAXX  01004 82583 32596 63201 10240 20226 39780 40118 86200 333 10298 59003;EQDQ01  00002PRCP99
0186825830999992000040112004-05170-040670FM-12+029999999V0200901N003112200019N0500001N1+02611+02211101271ADDAA199000091GF103991021021008001041001KA1240N+02161MA1999999097881MD1999999+0071REMSYN076AAXX  01124 82583 32599 30906 10261 20221 39788 40127 82240 333 20216 58007;EQDQ01  00002PRCP99
0167825830999992000040118004-05170-040670FM-12+029999999V0200501N006210075019N0500001N1+03021+02041100851ADDAA199000091GF106991061021008001001001MA1999999097491MD1999999-0311REMSYN070AAXX  01184 82583 32599 60512 10302 20204 39749 40085 86200 333 59031;EQDQ01  00002PRCP99
0201825830999992000040200004-05170-040670FM-12+029999999V0202701N001510120019N0040001N1+02261+02141101211ADDAA106006191AY161061AY261061GF108991081081008001999999KA1240M+03031MA1999999097831MD1999999-0031MW1021REMSYN088AAXX  02004 82583 21596 82703 10226 20214 39783 40121 70266 888// 333 10303 59003 60061;
0173825830999992000040212004-05170-040670FM-12+029999999V0201401N001510075019N0500001N1+02571+02331100901ADDAA124006191GF105991051021008001001001KA1240N+02161MA1999999097511MD1999999-0371REMSYN082AAXX  02124 82583 22599 51403 10257 20233 39751 40090 85200 333 20216 59037 60064;
0167825830999992000040218004-05170-040670FM-12+029999999V0200901N004612200019N0500001N1+03021+02211100871ADDAA199000091GF102991021011008001001001MA1999999097541MD1999999+0021REMSYN070AAXX  02184 82583 32599 20909 10302 20221 39754 40087 82100 333 58002;EQDQ01  00002PRCP99
0186825830999992000040300004-05170-040670FM-12+029999999V0202701N001510120019N0040001N1+02341+02241101351ADDAA199000091GF108991081081008001999999KA1240M+03031MA1999999097951MD1999999+0121REMSYN076AAXX  03004 82583 32596 82703 10234 20224 39795 40135 888// 333 10303 58012;EQDQ01  00002PRCP99
0201825830999992000040312004-05170-040670FM-12+029999999V0201401N000510075019N0500001N1+02491+02291101331ADDAA124000191AY151061AY251061GF108991081051008001999999KA1240N+02151MA1999999097931MD1999999-0081MW1021REMSYN088AAXX  03124 82583 21599 81401 10249 20229 39793 40133 70255 885// 333 20215 59008 69914;
0182825830999992000040318004-05170-040670FM-12+029999999V0202301N001012200019N0500001N1+03021+02341100971ADDAA106000391AY161061AY261061GF104991021021008001001021MA1999999097561MD1999999+0051MW1011REMSYN082AAXX  03184 82583 21599 42302 10302 20234 39756 40097 70166 82202 333 58005 69931;
0186825830999992000040400004-05170-040670FM-12+029999999V0201401N002112200019N0040001N1+02271+02051101221ADDAA199000091GF102991021021008001001001KA1240M+03141MA1999999097811MD1999999-0141REMSYN076AAXX  04004 82583 32596 21404 10227 20205 39781 40122 82200 333 10314 59014;EQDQ01  00002PRCP99
0173825830999992000040412004-05170-040670FM-12+029999999V0203601N000510120019N0500001N1+02561+02231101371ADDAA124000391GF107991071081008001001001KA1240N+02031MA1999999097971MD1999999+0041REMSYN082AAXX  04124 82583 22599 73601 10256 20223 39797 40137 87800 333 20203 58004 69934;
0167825830999992000040418004-05170-040670FM-12+029999999V0200901N002111050019N0500001N1+02971+02251100991ADDAA199000091GF106991021021008001001021MA1999999097611MD1999999+0051REMSYN070AAXX  04184 82583 32599 60904 10297 20225 39761 40099 82202 333 58005;EQDQ01  00002PRCP99
0196825830999992000040500004-05170-040670FM-12+029999999V0209999C000012200019N0040001N1+02341+02051101171ADDAA199000091GA1001+999999999GF100991001001999999001001KA1240M+03041MA1999999097781MD1999999-0031REMSYN070AAXX  05004 82583 32596 00900 10234 20205 39778 40117 333 10304 59003;EQDQ01  00002PRCP99
0186825830999992000040512004-05170-040670FM-12+029999999V0200901N001510120019N0500001N1+02541+02251101411ADDAA199000091GF106991061081008001001001KA1240N+02111MA1999999098011MD1999999+0041REMSYN076AAXX  05124 82583 32599 60903 10254 20225 39801 40141 86800 333 20211 58004;EQDQ01  00002PRCP99
0167825830999992000040518004-05170-040670FM-12+029999999V0201401N003112200019N0500001N1+03081+02071100921ADDAA199000091GF104991031021008001001011MA1999999097551MD1999999-0061REMSYN070AAXX  05184 82583 32599 41406 10308 20207 39755 40092 83201 333 59006;EQDQ01  00002PRCP99
0214825830999992000040600004-05170-040670FM-12+029999999V0200501N001012200019N0040001N1+02371+02051101211ADDAA199000091AY121061AY211061GF101991011021008001001001KA1240M+03141MA1999999097821MD1999999+0041MW1131REMSYN082AAXX  06004 82583 31596 10502 10237 20205 39782 40121 71321 81200 333 10314 58004;EQDQ01  00002PRCP99
0186825830999992000040612004-05170-040670FM-12+029999999V0201401N001010120019N0500001N1+02491+02231101331ADDAA199000091GF106991051081008001001011KA1240N+02041MA1999999097931MD1999999-0081REMSYN076AAXX  06124 82583 32599 61402 10249 20223 39793 40133 85801 333 20204 59008;EQDQ01  00002PRCP99
0182825830999992000040618004-05170-040670FM-12+029999999V0201401N001510450019N0500001N1+03051+02171100861ADDAA106000391AY161061AY261061GF106991041021008001031001MA1999999097501MD1999999-0051MW1021REMSYN082AAXX  06184 82583 21599 61403 10305 20217 39750 40086 70266 84230 333 59005 69931;
0228825830999992000040700004-05170-040670FM-12+029999999V0201901N999992200019N0040001N1+02571+02271101031ADDAA199000091GA1001+999999999GF100991001001999999001001KA1240M+03001MA1999999097671MD1999999-0151REMSYN070AAXX  07004 82583 32596 06903 10257 20227 39767 40103 333 10300 59015;EQDQ01+005293WOSPD Q02  00002PRCP99Q030005293WOSPD 
0173825830999992000040712004-05170-040670FM-12+029999999V0201401N001510075019N0500001N1+02651+02371101111ADDAA124000391GF106991051021008001001011KA1240N+02271MA1999999097741MD1999999-0191REMSYN082AAXX  07124 82583 22599 61403 10265 20237 39774 40111 85201 333 20227 59019 69934;
0167825830999992000040718004-05170-040670FM-12+029999999V0200901N003610075019N0500001N1+03041+02261100881ADDAA199000091GF106991051021008001001011MA1999999097531MD1999999+0031REMSYN070AAXX  07184 82583 32599 60907 10304 20226 39753 40088 85201 333 58003;EQDQ01  00002PRCP99
0201825830999992000040800004-05170-040670FM-12+029999999V0203601N004610120019N0040001N1+02221+02171101231ADDAA106007991AY161061AY261061GF108991081081008001999999KA1240M+03151MA1999999097841MD1999999+0171MW1021REMSYN088AAXX  08004 82583 21596 83609 10222 20217 39784 40123 70266 888// 333 10315 58017 60081;
0173825830999992000040812004-05170-040670FM-12+029999999V0201401N001010075019N0500001N1+02571+02271101211ADDAA124008991GF108991081021008001999999KA1240N+02131MA1999999097811MD1999999+0041REMSYN082AAXX  08124 82583 22599 81402 10257 20227 39781 40121 882// 333 20213 58004 60094;
0167825830999992000040818004-05170-040670FM-12+029999999V0203601N002110075019N0500001N1+02901+02171100851ADDAA199000091GF106991061021008001001001MA1999999097491MD1999999-0041REMSYN070AAXX  08184 82583 32599 63604 10290 20217 39749 40085 86200 333 59004;EQDQ01  00002PRCP99
0186825830999992000040900004-05170-040670FM-12+029999999V0202301N000510075019N0040001N1+02321+02221101111ADDAA199000091GF105991051021008001001001KA1240M+03071MA1999999097731MD1999999+0241REMSYN076AAXX  09004 82583 32596 52301 10232 20222 39773 40111 85200 333 10307 58024;EQDQ01  00002PRCP99
0186825830999992000040912004-05170-040670FM-12+029999999V0201401N002112200019N0500001N1+02571+02231101251ADDAA199000091GF103991031011008001001001KA1240N+02171MA1999999097851MD1999999+0041REMSYN076AAXX  09124 82583 32599 31404 10257 20223 39785 40125 83100 333 20217 58004;EQDQ01  00002PRCP99
0182825830999992000040918004-05170-040670FM-12+029999999V0202701N001510075019N0500001N1+02681+02241100801ADDAA106000591AY161061AY261061GF105991051021008001001001MA1999999097431MD1999999-0061MW1021REMSYN082AAXX  09184 82583 21599 52703 10268 20224 39743 40080 70266 85200 333 59006 69961;
0201825830999992000041000004-05170-040670FM-12+029999999V0203201N001010075019N0040001N1+02481+02301101061ADDAA106000191AY161061AY261061GF106991061021008001001001KA1240M+03011MA1999999097681MD1999999-0051MW1021REMSYN088AAXX  10004 82583 21596 63202 10248 20230 39768 40106 70266 86200 333 10301 59005 69911;
0173825830999992000041012004-05170-040670FM-12+029999999V0201801N001010120019N0500001N1+02541+02191101211ADDAA124001091GF107991051081008001031011KA1240N+02251MA1999999097831MD1999999-0021REMSYN082AAXX  10124 82583 22599 71802 10254 20219 39783 40121 85831 333 20225 59002 60014;
0182825830999992000041018004-05170-040670FM-12+029999999V0202701N001010075019N0500001N1+02611+02251100851ADDAA106003091AY161061AY261061GF106991051021008001041001MA1999999097471MD1999999+0041MW1021REMSYN082AAXX  10184 82583 21599 62702 10261 20225 39747 40085 70266 85240 333 58004 60031;
0186825830999992000041100004-05170-040670FM-12+029999999V0201801N001010075019N0040001N1+02251+02161101121ADDAA199000091GF108991061051008001021011KA1240M+02841MA1999999097731MD1999999+0051REMSYN076AAXX  11004 82583 32596 81802 10225 20216 39773 40112 86521 333 10284 58005;EQDQ01  00002PRCP99
0201825830999992000041112004-05170-040670FM-12+029999999V0200901N001510075019N0500001N1+02601+02211101301ADDAA124004191AY161061AY261061GF105991051021008001001001KA1240N+02191MA1999999097931MD1999999+0091MW1021REMSYN088AAXX  11124 82583 21599 50903 10260 20221 39793 40130 70266 85200 333 20219 58009 60044;
0167825830999992000041118004-05170-040670FM-12+029999999V0201401N002110075019N0200001N1+03051+02271100831ADDAA199000091GF105991051021008001001001MA1999999097481MD1999999+0011REMSYN070AAXX  11184 82583 32598 51404 10305 20227 39748 40083 85200 333 58001;EQDQ01  00002PRCP99
0201825830999992000041200004-05170-040670FM-12+029999999V0200501N000511050019N0040001N1+02421+02321101071ADDAA106007191AY161061AY261061GF105991031021008001001021KA1240M+03091MA1999999097691MD1999999-0041MW1021REMSYN088AAXX  12004 82583 21596 50501 10242 20232 39769 40107 70266 83202 333 10309 59004 60071;
0173825830999992000041212004-05170-040670FM-12+029999999V0200901N001510120019N0500001N1+02511+02311101211ADDAA124007191GF107991071081008001001001KA1240N+02171MA1999999097821MD1999999-0101REMSYN082AAXX  12124 82583 22599 70903 10251 20231 39782 40121 87800 333 20217 59010 60074;
0182825830999992000041218004-05170-040670FM-12+029999999V0201801N005110075019N0100001N1+02891+02371100761ADDAA106001091AY161061AY261061GF106991051021008001001011MA1999999097401MD1999999-0081MW1151REMSYN082AAXX  12184 82583 21597 61810 10289 20237 39740 40076 71566 85201 333 59008 60011;
0214825830999992000041300004-05170-040670FM-12+029999999V0203201N001510075019N0040001N1+02321+02221101081ADDAA199000091AY121061AY221061GF108991051021008001021999KA1240M+03091MA1999999097691MD1999999+0001MW1131REMSYN082AAXX  13004 82583 31596 83203 10232 20222 39769 40108 71322 8522/ 333 10309 58000;EQDQ01  00002PRCP99
0173825830999992000041312004-05170-040670FM-12+029999999V0201401N002110450019N0500001N1+02381+02071101211ADDAA124001091GF107991011011008001021001KA1240N+02131MA1999999097811MD1999999-0011REMSYN082AAXX  13124 82583 22599 71404 10238 20207 39781 40121 81120 333 20213 59001 60014;
0167825830999992000041318004-05170-040670FM-12+029999999V0201801N002111050019N0500001N1+02901+02251100741ADDAA199000091GF106991041021008001001021MA1999999097381MD1999999-0021REMSYN070AAXX  13184 82583 32599 61804 10290 20225 39738 40074 84202 333 59002;EQDQ01  00002PRCP99
0201825830999992000041400004-05170-040670FM-12+029999999V0200501N002610120019N0040001N1+02241+02171101251ADDAA106007191AY121061AY221061GF108991081081008001999999KA1240M+03011MA1999999097841MD1999999-0151MW1291REMSYN088AAXX  14004 82583 21596 80505 10224 20217 39784 40125 72922 888// 333 10301 59015 60071;
0167825830999992000041418004-05170-040670FM-12+029999999V0203601N002612200019N0500001N1+02991+02081100891ADDAA199000091GF103991031021008001001001MA1999999097531MD1999999-0111REMSYN070AAXX  14184 82583 32599 33605 10299 20208 39753 40089 83200 333 59011;EQDQ01  00002PRCP99
0201825830999992000041500004-05170-040670FM-12+029999999V0203201N000510075019N0040001N1+02401+02371101331ADDAA106002091AY161061AY261061GF105991051021008001001001KA1240M+03031MA1999999097931MD1999999+0091MW1021REMSYN088AAXX  15004 82583 21596 53201 10240 20237 39793 40133 70266 85200 333 10303 58009 60021;
0173825830999992000041512004-05170-040670FM-12+029999999V0200501N001510075019N0500001N1+02671+02331101401ADDAA124003091GF106991061021008001001001KA1240N+02201MA1999999098011MD1999999+0041REMSYN082AAXX  15124 82583 22599 60503 10267 20233 39801 40140 86200 333 20220 58004 60034;
0167825830999992000041518004-05170-040670FM-12+029999999V0201801N002110075019N0500001N1+03041+02201100951ADDAA199000091GF105991051021008001001001MA1999999097591MD1999999+0061REMSYN070AAXX  15184 82583 32599 51804 10304 20220 39759 40095 85200 333 58006;EQDQ01  00002PRCP99
0201825830999992000041600004-05170-040670FM-12+029999999V0203601N002110120019N0040001N1+02281+02201101471ADDAA106003091AY121061AY221061GF108991081081008001999999KA1240M+03121MA1999999098081MD1999999+0151MW1611REMSYN088AAXX  16004 82583 21596 83604 10228 20220 39808 40147 76122 888// 333 10312 58015 60031;
0201825830999992000041612004-05170-040670FM-12+029999999V0202701N002112200019N0500001N1+02551+02311101411ADDAA124011991AY161061AY261061GF102991021011008001001001KA1240N+02161MA1999999098011MD1999999+0001MW1021REMSYN088AAXX  16124 82583 21599 22704 10255 20231 39801 40141 70266 82100 333 20216 58000 60124;
0167825830999992000041618004-05170-040670FM-12+029999999V0201801N003610075019N0500001N1+02821+02331100951ADDAA199000091GF105991051021008001001001MA1999999097571MD1999999-0021REMSYN070AAXX  16184 82583 32599 51807 10282 20233 39757 40095 85200 333 59002;EQDQ01  00002PRCP99
0201825830999992000041700004-05170-040670FM-12+029999999V0203601N005710120019N0040001N1+02301+02251101301ADDAA106002091AY161061AY261061GF108991081081008001999999KA1240M+03121MA1999999097901MD1999999-0181MW1021REMSYN088AAXX  17004 82583 21596 83611 10230 20225 39790 40130 70266 888// 333 10312 59018 60021;
0201825830999992000041712004-05170-040670FM-12+029999999V0202601N001510120019N0500001N1+02471+02271101421ADDAA124011991AY161061AY261061GF108991081081008001999999KA1240N+02231MA1999999098021MD1999999+0011MW1021REMSYN088AAXX  17124 82583 21599 82603 10247 20227 39802 40142 70266 888// 333 20223 58001 60124;
0167825830999992000041718004-05170-040670FM-12+029999999V0202701N002111050019N0500001N1+02741+02341100911ADDAA199000091GF106991041021008001001021MA1999999097541MD1999999-0031REMSYN070AAXX  17184 82583 32599 62704 10274 20234 39754 40091 84202 333 59003;EQDQ01  00002PRCP99
0186825830999992000041800004-05170-040670FM-12+029999999V0203201N002110120019N0040001N1+02421+02321101221ADDAA199000091GF107991071081008001001001KA1240M+02911MA1999999097831MD1999999-0071REMSYN076AAXX  18004 82583 32596 73204 10242 20232 39783 40122 87800 333 10291 59007;EQDQ01  00002PRCP99
0201825830999992000041812004-05170-040670FM-12+029999999V0200501N001010075019N0500001N1+02531+02271101321ADDAA124001091AY161061AY251061GF106991061021008001001001KA1240N+02171MA1999999097921MD1999999-0101MW1021REMSYN088AAXX  18124 82583 21599 60502 10253 20227 39792 40132 70265 86200 333 20217 59010 60014;
0167825830999992000041818004-05170-040670FM-12+029999999V0202701N001012200019N0500001N1+03131+02321100841ADDAA199000091GF103991021021008001001011MA1999999097481MD1999999-0061REMSYN070AAXX  18184 82583 32599 32702 10313 20232 39748 40084 82201 333 59006;EQDQ01  00002PRCP99
0201825830999992000041900004-05170-040670FM-12+029999999V0201801N002110120019N0040001N1+02371+02291101291ADDAA106004191AY161061AY261061GF108991081081008001999999KA1240M+03161MA1999999097891MD1999999+0061MW1031REMSYN088AAXX  19004 82583 21596 81804 10237 20229 39789 40129 70366 888// 333 10316 58006 60041;
0201825830999992000041912004-05170-040670FM-12+029999999V0201401N000510075019N0500001N1+02581+02311101411ADDAA124018091AY161061AY261061GF106991051021008001001011KA1240N+02261MA1999999098021MD1999999+0101MW1031REMSYN088AAXX  19124 82583 21599 61401 10258 20231 39802 40141 70366 85201 333 20226 58010 60184;
0182825830999992000041918004-05170-040670FM-12+029999999V0201801N002110075019N0500001N1+02851+02351100901ADDAA106002091AY161061AY261061GF106991051021008001001021MA1999999097541MD1999999+0061MW1031REMSYN082AAXX  19184 82583 21599 61804 10285 20235 39754 40090 70366 85202 333 58006 60021;
0201825830999992000042000004-05170-040670FM-12+029999999V0203201N001011050019N0040001N1+02311+02271101251ADDAA106007191AY161061AY261061GF106991041021008001001021KA1240M+02991MA1999999097851MD1999999-0041MW1021REMSYN088AAXX  20004 82583 21596 63202 10231 20227 39785 40125 70266 84202 333 10299 59004 60071;
0173825830999992000042012004-05170-040670FM-12+029999999V0200901N003110075019N0500001N1+02561+02311101311ADDAA124009991GF106991061021008001001001KA1240N+02261MA1999999097911MD1999999-0111REMSYN082AAXX  20124 82583 22599 60906 10256 20231 39791 40131 86200 333 20226 59011 60104;
0182825830999992000042018004-05170-040670FM-12+029999999V0201401N001511050019N0500001N1+02711+02301100881ADDAA106005191AY161061AY261061GF105991041021008001001021MA1999999097511MD1999999-0031MW1021REMSYN082AAXX  20184 82583 21599 51403 10271 20230 39751 40088 70266 84202 333 59003 60051;
0173825830999992000042112004-05170-040670FM-12+029999999V0200501N002110075019N0500001N1+02591+02351101251ADDAA124005191GF107991071021008001001001KA1240N+02241MA1999999097851MD1999999-0061REMSYN082AAXX  21124 82583 22599 70504 10259 20235 39785 40125 87200 333 20224 59006 60054;
0183825830999992000042118004-05170-040670FM-12+029999999V0200901N001512200019N0500001N1+02991+02391999999ADDAA199000091GF103991031011008001001001MA1999999097421MD1999999+0091REMSYN070AAXX  21184 82583 32599 30903 10299 20239 39742 40285 83100 333 58009;EQDQ01+102853APOSLPQ02  00002PRCP99
0186825830999992000042200004-05170-040670FM-12+029999999V0203601N001512200019N0040001N1+02381+02241101151ADDAA199000091GF101991011011008001001001KA1240M+03091MA1999999097771MD1999999-0061REMSYN076AAXX  22004 82583 32596 13603 10238 20224 39777 40115 81100 333 10309 59006;EQDQ01  00002PRCP99
0182825830999992000042218004-05170-040670FM-12+029999999V0201801N006710075019N0500001N1+02571+02081101011ADDAA106004191AY161061AY261061GF106991061021008001001001MA1999999097631MD1999999+0211MW1021REMSYN082AAXX  22184 82583 21599 61813 10257 20208 39763 40101 70266 86200 333 58021 60041;
0201825830999992000042300004-05170-040670FM-12+029999999V0202701N000512200019N0040001N1+02331+02261101181ADDAA106005191AY161061AY261061GF102991021011008001001001KA1240M+03131MA1999999097791MD1999999+0021MW1021REMSYN088AAXX  23004 82583 21596 22701 10233 20226 39779 40118 70266 82100 333 10313 58002 60051;
0173825830999992000042312004-05170-040670FM-12+029999999V0200901N001012200019N0500001N1+02621+02231101281ADDAA124008991GF102991021011008001001001KA1240N+02061MA1999999097891MD1999999+0041REMSYN082AAXX  23124 82583 22599 20902 10262 20223 39789 40128 82100 333 20206 58004 60094;
0167825830999992000042318004-05170-040670FM-12+029999999V0200901N002112200019N0500001N1+03051+02251100851ADDAA199000091GF102991021011008001001001MA1999999097491MD1999999-0141REMSYN070AAXX  23184 82583 32599 20904 10305 20225 39749 40085 82100 333 59014;EQDQ01  00002PRCP99
0201825830999992000042400004-05170-040670FM-12+029999999V0203201N000510075019N0040001N1+02351+02291101201ADDAA106005191AY161061AY261061GF105991051021008001001001KA1240M+03501MA1999999097821MD1999999-0031MW1021REMSYN088AAXX  24004 82583 21596 53201 10235 20229 39782 40120 70266 85200 333 10350 59003 60051;
0167825830999992000042418004-05170-040670FM-12+029999999V0200901N002112200019N0500001N1+02911+02341100821ADDAA199000091GF105991041021008001001011MA1999999097461MD1999999-0031REMSYN070AAXX  24184 82583 32599 50904 10291 20234 39746 40082 84201 333 59003;EQDQ01  00002PRCP99
0186825830999992000042500004-05170-040670FM-12+029999999V0203601N001510075019N0040001N1+02501+02171101161ADDAA199000091GF105991051021008001001001KA1240M+03031MA1999999097781MD1999999+0041REMSYN076AAXX  25004 82583 32596 53603 10250 20217 39778 40116 85200 333 10303 58004;EQDQ01  00002PRCP99
0186825830999992000042512004-05170-040670FM-12+029999999V0200901N002610120019N0500001N1+02601+02291101241ADDAA199000091GF107991071081008001001001KA1240N+02281MA1999999097861MD1999999+0001REMSYN076AAXX  25124 82583 32599 70905 10260 20229 39786 40124 87800 333 20228 58000;EQDQ01  00002PRCP99
0182825830999992000042518004-05170-040670FM-12+029999999V0200901N001510075019N0500001N1+02911+02291100931ADDAA106000191AY161061AY261061GF106991061021008001001001MA1999999097571MD1999999+0111MW1021REMSYN082AAXX  25184 82583 21599 60903 10291 20229 39757 40093 70266 86200 333 58011 69921;
0186825830999992000042600004-05170-040670FM-12+029999999V0200901N001010075019N0040001N1+02501+02291101241ADDAA199000091GF105991051021008001001001KA1240M+03001MA1999999097861MD1999999+0081REMSYN076AAXX  26004 82583 32596 50902 10250 20229 39786 40124 85200 333 10300 58008;EQDQ01  00002PRCP99
0201825830999992000042612004-05170-040670FM-12+029999999V0200901N001010075019N0500001N1+02281+02231101501ADDAA124024991AY161061AY261061GF108991081021008001999999KA1240N+02001MA1999999098091MD1999999+0231MW1021REMSYN088AAXX  26124 82583 21599 80902 10228 20223 39809 40150 70266 882// 333 20200 58023 60254;
0182825830999992000042618004-05170-040670FM-12+029999999V0201401N002110075019N0500001N1+02591+02171101101ADDAA106000191AY161061AY261061GF106991061021008001001001MA1999999097711MD1999999+0141MW1021REMSYN082AAXX  26184 82583 21599 61404 10259 20217 39771 40110 70266 86200 333 58014 69921;
0196825830999992000042700004-05170-040670FM-12+029999999V0200901N001512200019N0040001N1+02241+01991101371ADDAA199000091GA1001+999999999GF100991001001999999001001KA1240M+02701MA1999999097951MD1999999+0091REMSYN070AAXX  27004 82583 32596 00903 10224 20199 39795 40137 333 10270 58009;EQDQ01  00002PRCP99
0173825830999992000042712004-05170-040670FM-12+029999999V0201401N004610120019N0500001N1+02491+02211101451ADDAA124000191GF107991071081008001001001KA1240N+02161MA1999999098031MD1999999-0061REMSYN082AAXX  27124 82583 22599 71409 10249 20221 39803 40145 87800 333 20216 59006 69924;
0167825830999992000042718004-05170-040670FM-12+029999999V0200901N003112200019N0500001N1+02951+02211101011ADDAA199000091GF102991021021008001001001MA1999999097641MD1999999-0071REMSYN070AAXX  27184 82583 32599 20906 10295 20221 39764 40101 82200 333 59007;EQDQ01  00002PRCP99
0196825830999992000042800004-05170-040670FM-12+029999999V0200901N003112200019N9999999N1+02331+02151101331ADDAA199000091GA1001+999999999GF100991001001999999001001KA1240M+03071MA1999999097931MD1999999-0021REMSYN070AAXX  28004 82583 329// 00906 10233 20215 39793 40133 333 10307 59002;EQDQ01  00002PRCP99
0186825830999992000042812004-05170-040670FM-12+029999999V0200901N003112200019N0500001N1+02641+02161101451ADDAA199000091GF102991011011008001041011KA1240N+01951MA1999999098051MD1999999+0021REMSYN076AAXX  28124 82583 32599 20906 10264 20216 39805 40145 81141 333 20195 58002;EQDQ01  00002PRCP99
0167825830999992000042818004-05170-040670FM-12+029999999V0200901N002612200019N0500001N1+03031+02181101051ADDAA199000091GF102991021011008001001001MA1999999097671MD1999999+0031REMSYN070AAXX  28184 82583 32599 20905 10303 20218 39767 40105 82100 333 58003;EQDQ01  00002PRCP99
0186825830999992000042900004-05170-040670FM-12+029999999V0200501N001512200019N0040001N1+02461+02401101361ADDAA199000091GF102991021011008001001001KA1240M+03081MA1999999097981MD1999999+0051REMSYN076AAXX  29004 82583 32596 20503 10246 20240 39798 40136 82100 333 10308 58005;EQDQ01  00002PRCP99
0186825830999992000042912004-05170-040670FM-12+029999999V0200901N001510120019N0500001N1+02581+02211101481ADDAA199000091GF106991051081008001001011KA1240N+02161MA1999999098081MD1999999+0031REMSYN076AAXX  29124 82583 32599 60903 10258 20221 39808 40148 85801 333 20216 58003;EQDQ01  00002PRCP99
0167825830999992000042918004-05170-040670FM-12+029999999V0200901N001510075019N0500001N1+02801+02201101101ADDAA199000091GF106991061021008001001001MA1999999097721MD1999999+0071REMSYN070AAXX  29184 82583 32599 60903 10280 20220 39772 40110 86200 333 58007;EQDQ01  00002PRCP99
0186825830999992000043000004-05170-040670FM-12+029999999V0200501N003112200019N0040001N1+02421+02231101331ADDAA199000091GF103991031011008001001001KA1240M+02981MA1999999097941MD1999999-0041REMSYN076AAXX  30004 82583 32596 30506 10242 20223 39794 40133 83100 333 10298 59004;EQDQ01  00002PRCP99
0186825830999992000043012004-05170-040670FM-12+029999999V0200501N001010120019N0500001N1+02511+02191101411ADDAA199000091GF107991071081008001001001KA1240N+02191MA1999999098011MD1999999-0071REMSYN076AAXX  30124 82583 32599 70502 10251 20219 39801 40141 87800 333 20219 59007;EQDQ01  00002PRCP99
0167825830999992000043018004-05170-040670FM-12+029999999V0200901N004612200019N0500001N1+03001+01911101041ADDAA199000091GF102991021011008001001001MA1999999097671MD1999999-0051REMSYN070AAXX  30184 82583 32599 20909 10300 20191 39767 40104 82100 333 59005;EQDQ01  00002PRCP99
0196825830999992000050100004-05170-040670FM-12+029999999V0200901N001012200019N0040001N1+02331+02031101371ADDAA199000091GA1001+999999999GF100991001001999999001001KA1240M+03031MA1999999097971MD1999999+0031REMSYN070AAXX  01004 82583 32596 00902 10233 20203 39797 40137 333 10303 58003;EQDQ01  00002PRCP99
0186825830999992000050112004-05170-040670FM-12+029999999V0200901N003110075019N0500001N1+02621+02251101361ADDAA199000091GF106991051011008001001011KA1240N+02031MA1999999097971MD1999999-0041REMSYN076AAXX  01124 82583 32599 60906 10262 20225 39797 40136 85101 333 20203 59004;EQDQ01  00002PRCP99
0167825830999992000050118004-05170-040670FM-12+029999999V0200901N002612200019N0500001N1+03091+01971100971ADDAA199000091GF102991011011008001001041MA1999999097601MD1999999-0071REMSYN070AAXX  01184 82583 32599 20905 10309 20197 39760 40097 81104 333 59007;EQDQ01  00002PRCP99
0196825830999992000050200004-05170-040670FM-12+029999999V0200901N001512200019N0040001N1+02291+02091101211ADDAA199000091GA1001+999999999GF100991001001999999001001KA1240M+03251MA1999999097821MD1999999-0151REMSYN070AAXX  02004 82583 32996 00903 10229 20209 39782 40121 333 10325 59015;EQDQ01  00002PRCP99
0186825830999992000050212004-05170-040670FM-12+029999999V0200901N003112200019N0500001N1+02711+02171101291ADDAA199000091GF101991011011008001001001KA1240N+02011MA1999999097901MD1999999-0071REMSYN076AAXX  02124 82583 32599 10906 10271 20217 39790 40129 81100 333 20201 59007;EQDQ01  00002PRCP99
0167825830999992000050218004-05170-040670FM-12+029999999V0200901N002610120019N0500001N1+02931+02241100941ADDAA199000091GF107991071081008001001001MA1999999097561MD1999999-0041REMSYN070AAXX  02184 82583 32599 70905 10293 20224 39756 40094 87800 333 59004;EQDQ01  00002PRCP99
0186825830999992000050300004-05170-040670FM-12+029999999V0200901N001510075019N0040001N1+02531+02151101131ADDAA199000091GF106991061021008001001001KA1240M+03101MA1999999097761MD1999999-0061REMSYN076AAXX  03004 82583 32596 60903 10253 20215 39776 40113 86200 333 10310 59006;EQDQ01  00002PRCP99
0186825830999992000050312004-05170-040670FM-12+029999999V0200901N003110450019N0500001N1+02621+02161101281ADDAA199000091GF106991021011008001031001KA1240N+02251MA1999999097901MD1999999+0001REMSYN076AAXX  03124 82583 32599 60906 10262 20216 39790 40128 82130 333 20225 58000;EQDQ01  00002PRCP99
0167825830999992000050318004-05170-040670FM-12+029999999V0201401N001510450019N0500001N1+02891+02271101021ADDAA199000091GF106991021011008001031001MA1999999097651MD1999999+0091REMSYN070AAXX  03184 82583 32599 61403 10289 20227 39765 40102 82130 333 58009;EQDQ01  00002PRCP99
0186825830999992000050400004-05170-040670FM-12+029999999V0200901N002110075019N0040001N1+02521+02311101151ADDAA199000091GF106991061021008001001001KA1240M+03061MA1999999097781MD1999999+0021REMSYN076AAXX  04004 82583 32596 60904 10252 20231 39778 40115 86200 333 10306 58002;EQDQ01  00002PRCP99
0186825830999992000050412004-05170-040670FM-12+029999999V0200901N005710075019N0500001N1+02691+02221101201ADDAA199000091GF106991061021008001001001KA1240N+02151MA1999999097831MD1999999-0071REMSYN076AAXX  04124 82583 32599 60911 10269 20222 39783 40120 86200 333 20215 59007;EQDQ01  00002PRCP99
0167825830999992000050418004-05170-040670FM-12+029999999V0201401N003112200019N0500001N1+02991+02341100871ADDAA199000091GF103991021021008001001011MA1999999097531MD1999999-0121REMSYN070AAXX  04184 82583 32599 31406 10299 20234 39753 40087 82201 333 59012;EQDQ01  00002PRCP99
0186825830999992000050500004-05170-040670FM-12+029999999V0200901N001510075019N0040001N1+02521+02381101141ADDAA199000091GF105991051021008001001001KA1240M+03041MA1999999097771MD1999999-0011REMSYN076AAXX  05004 82583 32596 50903 10252 20238 39777 40114 85200 333 10304 59001;EQDQ01  00002PRCP99
0201825830999992000050512004-05170-040670FM-12+029999999V0200501N002110450019N0200001N1+02411+02301101311ADDAA124000191AY121061AY221061GF108991031061008001021999KA1240N+02141MA1999999097911MD1999999+0081MW1611REMSYN088AAXX  05124 82583 21598 80504 10241 20230 39791 40131 76122 8362/ 333 20214 58008 69924;
0182825830999992000050518004-05170-040670FM-12+029999999V0200901N002610450019N0200001N1+02811+02281100871ADDAA106004191AY161061AY261061GF108991031061008001021999MA1999999097511MD1999999-0021MW1021REMSYN082AAXX  05184 82583 21598 80905 10281 20228 39751 40087 70266 8362/ 333 59002 60041;
0167825830999992000050600004-05170-040670FM-12+029999999V0200501N004110075019N0040001N1+02421+02191101191ADDAA199000021GF105991051021008001001001KA1240M+02921MA1999999097791MD1999999+0021REMSYN076AAXX  06004 82583 32596 50508 10242 20219 39779 40119 85200 333 10292 58002;
0173825830999992000050612004-05170-040670FM-12+029999999V0200901N001510450019N0500001N1+02471+02191101221ADDAA124004191GF106991041021008001041011KA1240N+02101MA1999999097831MD1999999-0081REMSYN082AAXX  06124 82583 22599 60903 10247 20219 39783 40122 84241 333 20210 59008 60044;
0167825830999992000050618004-05170-040670FM-12+029999999V0200901N004612200019N0500001N1+02981+02211100891ADDAA199000091GF103991031011008001001001MA1999999097531MD1999999+0021REMSYN070AAXX  06184 82583 32599 30909 10298 20221 39753 40089 83100 333 58002;EQDQ01  00002PRCP99
0186825830999992000050700004-05170-040670FM-12+029999999V0200901N001512200019N0040001N1+02421+02251101161ADDAA199000091GF102991021011008001001001KA1240M+03031MA1999999097771MD1999999-0021REMSYN076AAXX  07004 82583 32596 20903 10242 20225 39777 40116 82100 333 10303 59002;EQDQ01  00002PRCP99
0201825830999992000050712004-05170-040670FM-12+029999999V0200901N001512200019N0500001N1+02571+02291101211ADDAA124000591AY161061AY261061GF102991021011008001001001KA1240N+02201MA1999999097831MD1999999+0001MW1021REMSYN088AAXX  07124 82583 21599 20903 10257 20229 39783 40121 70266 82100 333 20220 58000 69954;
0167825830999992000050718004-05170-040670FM-12+029999999V0200901N004612200019N0500001N1+03101+02191100921ADDAA199000091GF102991021011008001001001MA1999999097561MD1999999+0021REMSYN070AAXX  07184 82583 32599 20909 10310 20219 39756 40092 82100 333 58002;EQDQ01  00002PRCP99
0186825830999992000050800004-05170-040670FM-12+029999999V0200901N001512200019N0040001N1+02481+02301101161ADDAA199000091GF102991021011008001001001KA1240M+03201MA1999999097711MD1999999+0011REMSYN076AAXX  08004 82583 32596 20903 10248 20230 39771 40116 82100 333 10320 58001;EQDQ01  00002PRCP99
0201825830999992000050812004-05170-040670FM-12+029999999V0200901N002610075019N0500001N1+02531+02381101361ADDAA124009991AY161061AY261061GF107991071021008001001001KA1240N+02341MA1999999097971MD1999999+0141MW1021REMSYN088AAXX  08124 82583 21599 70905 10253 20238 39797 40136 70266 87200 333 20234 58014 60104;
0182825830999992000050818004-05170-040670FM-12+029999999V0200501N002610075019N0500001N1+02841+02381101021ADDAA124006191AY161061AY261061GF105991051021008001001001MA1999999097641MD1999999+0011MW1021REMSYN082AAXX  08184 82583 21599 50505 10284 20238 39764 40102 70266 85200 333 58001 60064;
0186825830999992000050900004-05170-040670FM-12+029999999V0200501N001512200019N0040001N1+02471+02431101191ADDAA199000091GF102991021011008001001001KA1240M+03101MA1999999097811MD1999999+0031REMSYN076AAXX  09004 82583 32596 20503 10247 20243 39781 40119 82100 333 10310 58003;EQDQ01  00002PRCP99
0173825830999992000050912004-05170-040670FM-12+029999999V0200901N002110075019N0500001N1+02631+02331101391ADDAA124006191GF105991051021008001001001KA1240N+02261MA1999999098011MD1999999+0041REMSYN082AAXX  09124 82583 22599 50904 10263 20233 39801 40139 85200 333 20226 58004 60064;
0167825830999992000050918004-05170-040670FM-12+029999999V0201401N003112200019N0500001N1+02881+02231101031ADDAA199000091GF102991021011008001001001MA1999999097671MD1999999+0031REMSYN070AAXX  09184 82583 32599 21406 10288 20223 39767 40103 82100 333 58003;EQDQ01  00002PRCP99
0196825830999992000051000004-05170-040670FM-12+029999999V0200501N001012200019N0040001N1+02351+02211101321ADDAA199000091GA1001+999999999GF100991001001999999001001KA1240M+03151MA1999999097931MD1999999-0121REMSYN070AAXX  10004 82583 32596 00502 10235 20221 39793 40132 333 10315 59012;EQDQ01  00002PRCP99
0186825830999992000051012004-05170-040670FM-12+029999999V0200501N002110075019N0500001N1+02491+02251101571ADDAA199000091GF108991081021008001999999KA1240N+01971MA1999999098161MD1999999+0151REMSYN076AAXX  10124 82583 32599 80504 10249 20225 39816 40157 882// 333 20197 58015;EQDQ01  00002PRCP99
0182825830999992000051018004-05170-040670FM-12+029999999V0202301N002610075019N0040001N1+02401+02261101251ADDAA106009991AY161061AY261061GF106991061021008001001001MA1999999097841MD1999999+0171MW1021REMSYN082AAXX  10184 82583 21596 62305 10240 20226 39784 40125 70266 86200 333 58017 60101;
0201825830999992000051100004-05170-040670FM-12+029999999V0203601N001510075019N0040001N1+02371+02361101391ADDAA106000191AY161061AY261061GF106991061021008001001001KA1240M+03021MA1999999097991MD1999999+0061MW1021REMSYN088AAXX  11004 82583 21596 63603 10237 20236 39799 40139 70266 86200 333 10302 58006 69921;
0173825830999992000051112004-05170-040670FM-12+029999999V0200901N003110075019N0500001N1+02541+02251101421ADDAA124010991GF107991071021008001001001KA1240N+02061MA1999999098021MD1999999-0141REMSYN082AAXX  11124 82583 22599 70906 10254 20225 39802 40142 87200 333 20206 59014 60114;
0167825830999992000051118004-05170-040670FM-12+029999999V0200901N002112200019N0500001N1+03141+02881100981ADDAA199000091GF104991031021008001011001MA1999999097621MD1999999-0221REMSYN070AAXX  11184 82583 32599 40904 10314 20288 39762 40098 83210 333 59022;EQDQ01  00002PRCP99
0186825830999992000051200004-05170-040670FM-12+029999999V0203601N001010120019N0500001N1+02511+02291101211ADDAA199000091GF107991071081008001001001KA1240M+03171MA1999999097831MD1999999-0161REMSYN076AAXX  12004 82583 32599 73602 10251 20229 39783 40121 87800 333 10317 59016;EQDQ01  00002PRCP99
0186825830999992000051212004-05170-040670FM-12+029999999V0200901N003612200019N0500001N1+02651+02271101321ADDAA199000091GF104991021011008001041001KA1240N+02181MA1999999097941MD1999999-0081REMSYN076AAXX  12124 82583 32599 40907 10265 20227 39794 40132 82140 333 20218 59008;EQDQ01  00002PRCP99
0186825830999992000051300004-05170-040670FM-12+029999999V0200901N001512200019N0040001N1+02301+02051101221ADDAA199000091GF102991021011008001001001KA1240M+03171MA1999999097841MD1999999+0011REMSYN076AAXX  13004 82583 32596 20903 10230 20205 39784 40122 82100 333 10317 58001;EQDQ01  00002PRCP99
0186825830999992000051312004-05170-040670FM-12+029999999V0201401N004112200019N0500001N1+02541+01951101421ADDAA199000091GF104991041011008001001001KA1240N+02091MA1999999098021MD1999999+0081REMSYN076AAXX  13124 82583 32599 41408 10254 20195 39802 40142 84100 333 20209 58008;EQDQ01  00002PRCP99
0167825830999992000051318004-05170-040670FM-12+029999999V0200901N002110075019N0500001N1+02971+02121101071ADDAA199000091GF105991051021008001001001MA1999999097701MD1999999+0061REMSYN070AAXX  13184 82583 32599 50904 10297 20212 39770 40107 85200 333 58006;EQDQ01  00002PRCP99
0202825830999992000051400004-05170-040670FM-12+029999999V0200901N001019999999N0040001N1+02321+02091101311ADDAA199000091GF106991999021008001001001KA1240M+03001MA1999999097911MD1999999+0071REMSYN076AAXX  14004 82583 32596 60902 10232 20209 39791 40131 88200 333 10300 58007;EQDQ01+000082SCOTLCQ02  00002PRCP99
0186825830999992000051412004-05170-040670FM-12+029999999V0201401N005712200019N0500001N1+02581+02041101411ADDAA199000091GF102991021011008001001001KA1240N+02051MA1999999098011MD1999999-0011REMSYN076AAXX  14124 82583 32599 21411 10258 20204 39801 40141 82100 333 20205 59001;EQDQ01  00002PRCP99
0167825830999992000051418004-05170-040670FM-12+029999999V0200901N003110075019N0500001N1+02841+02131101101ADDAA199000091GF106991061021008001001001MA1999999097721MD1999999+0021REMSYN070AAXX  14184 82583 32599 60906 10284 20213 39772 40110 86200 333 58002;EQDQ01  00002PRCP99
0186825830999992000051500004-05170-040670FM-12+029999999V0201401N002112200019N0040001N1+02281+01981101281ADDAA199000091GF103991031021008001001001KA1240M+03001MA1999999097881MD1999999-0031REMSYN076AAXX  15004 82583 32596 31404 10228 20198 39788 40128 83200 333 10300 59003;EQDQ01  00002PRCP99
0186825830999992000051512004-05170-040670FM-12+029999999V0201401N003610450019N0500001N1+02501+02111101361ADDAA199000091GF106991041021008001041001KA1240N+02161MA1999999097931MD1999999-0081REMSYN076AAXX  15124 82583 32599 61407 10250 20211 39793 40136 84240 333 20216 59008;EQDQ01  00002PRCP99
0167825830999992000051518004-05170-040670FM-12+029999999V0200901N002611050019N0500001N1+02971+02041100881ADDAA199000091GF105991011011008001041011MA1999999097521MD1999999-0201REMSYN070AAXX  15184 82583 32599 50905 10297 20204 39752 40088 81141 333 59020;EQDQ01  00002PRCP99
0202825830999992000051600004-05170-040670FM-12+029999999V0201401N001512200019N0040001N1+02331+02091101161ADDAA199000091GF101991999011017501001001KA1240M+03051MA1999999097761MD1999999-0121REMSYN076AAXX  16004 82583 32796 11403 10233 20209 39776 40116 82100 333 10305 59012;EQDQ01+000022SCOTLCQ02  00002PRCP99
0186825830999992000051612004-05170-040670FM-12+029999999V0200901N004610075019N0500001N1+02521+01981101261ADDAA199000091GF107991071051008001001001KA1240N+02241MA1999999097861MD1999999-0071REMSYN076AAXX  16124 82583 32599 70909 10252 20198 39786 40126 87500 333 20224 59007;EQDQ01  00002PRCP99
0167825830999992000051618004-05170-040670FM-12+029999999V0201401N003612200019N0500001N1+03181+02041100841ADDAA199000091GF103991021011008001041001MA1999999097501MD1999999-0021REMSYN070AAXX  16184 82583 32599 31407 10318 20204 39750 40084 82140 333 59002;EQDQ01  00002PRCP99
0186825830999992000051700004-05170-040670FM-12+029999999V0200501N001510075019N0040001N1+02591+02141101221ADDAA199000091GF107991071051008001001001KA1240M+03191MA1999999097841MD1999999+0081REMSYN076AAXX  17004 82583 32596 70503 10259 20214 39784 40122 87500 333 10319 58008;EQDQ01  00002PRCP99
0186825830999992000051712004-05170-040670FM-12+029999999V0200901N003110120019N0500001N1+02561+02251101311ADDAA199000091GF107991061081008001031001KA1240N+02281MA1999999097931MD1999999+0071REMSYN076AAXX  17124 82583 32599 70906 10256 20225 39793 40131 86830 333 20228 58007;EQDQ01  00002PRCP99
0167825830999992000051718004-05170-040670FM-12+029999999V0201401N001010075019N0500001N1+02811+02331100941ADDAA199000091GF105991051021008001001001MA1999999097571MD1999999+0071REMSYN070AAXX  17184 82583 32599 51402 10281 20233 39757 40094 85200 333 58007;EQDQ01  00002PRCP99
0186825830999992000051800004-05170-040670FM-12+029999999V0200501N000510075019N0040001N1+02531+02331101231ADDAA199000091GF107991071051008001001001KA1240M+02961MA1999999097851MD1999999+0011REMSYN076AAXX  18004 82583 32596 70501 10253 20233 39785 40123 87500 333 10296 58001;EQDQ01  00002PRCP99
0186825830999992000051812004-05170-040670FM-12+029999999V0200901N002110075019N0500001N1+02551+02211101341ADDAA199000091GF107991061051008001031001KA1240N+02281MA1999999097961MD1999999+0031REMSYN076AAXX  18124 82583 32599 70904 10255 20221 39796 40134 86530 333 20228 58003;EQDQ01  00002PRCP99
0167825830999992000051818004-05170-040670FM-12+029999999V0200501N003112200019N0500001N1+03081+02161100941ADDAA199000091GF104991021021008001041001MA1999999097591MD1999999+0021REMSYN070AAXX  18184 82583 32599 40506 10308 20216 39759 40094 82240 333 58002;EQDQ01  00002PRCP99
0186825830999992000051900004-05170-040670FM-12+029999999V0200501N001512200019N0040001N1+02481+02251101251ADDAA199000091GF102991021011008001001001KA1240M+03131MA1999999097861MD1999999+0011REMSYN076AAXX  19004 82583 32596 20503 10248 20225 39786 40125 82100 333 10313 58001;EQDQ01  00002PRCP99
0186825830999992000051912004-05170-040670FM-12+029999999V0200901N001510075019N0500001N1+02631+02091101371ADDAA199000091GF106991051021008001001011KA1240N+02171MA1999999097991MD1999999+0031REMSYN076AAXX  19124 82583 32599 60903 10263 20209 39799 40137 85201 333 20217 58003;EQDQ01  00002PRCP99
0167825830999992000051918004-05170-040670FM-12+029999999V0200501N004110075019N0500001N1+03031+02061101091ADDAA199000091GF105991051021008001001001MA1999999097731MD1999999+0141REMSYN070AAXX  19184 82583 32599 50508 10303 20206 39773 40109 85200 333 58014;EQDQ01  00002PRCP99
0186825830999992000052000004-05170-040670FM-12+029999999V0200901N001012200019N0040001N1+02351+02031101321ADDAA199000091GF102991021011008001001001KA1240M+03161MA1999999097931MD1999999+0071REMSYN076AAXX  20004 82583 32596 20902 10235 20203 39793 40132 82100 333 10316 58007;EQDQ01  00002PRCP99
0186825830999992000052012004-05170-040670FM-12+029999999V0201801N000510075019N0500001N1+02351+02111101601ADDAA199000091GF106991051051008001041011KA1240N+01971MA1999999098181MD1999999+0191REMSYN076AAXX  20124 82583 32599 61801 10235 20211 39818 40160 85541 333 20197 58019;EQDQ01  00002PRCP99
0167825830999992000052018004-05170-040670FM-12+029999999V0200901N003112200019N0500001N1+03081+02041101121ADDAA199000091GF103991031021008001001001MA1999999097751MD1999999+0021REMSYN070AAXX  20184 82583 32599 30906 10308 20204 39775 40112 83200 333 58002;EQDQ01  00002PRCP99
0196825830999992000052100004-05170-040670FM-12+029999999V0200501N000512200019N0040001N1+02401+02131101341ADDAA199000091GA1001+999999999GF100991001001999999001001KA1240M+03201MA1999999097941MD1999999+0011REMSYN070AAXX  21004 82583 32596 00501 10240 20213 39794 40134 333 10320 58001;EQDQ01  00002PRCP99
0167825830999992000052118004-05170-040670FM-12+029999999V0200901N003112200019N0500001N1+03521+01751101251ADDAA199000091GF102991021011008001001001MA1999999097871MD1999999+0121REMSYN070AAXX  21184 82583 32599 20906 10352 20175 39787 40125 82100 333 58012;EQDQ01  00002PRCP99
0196825830999992000052200004-05170-040670FM-12+029999999V0200501N001512200019N0040001N1+02351+01891101491ADDAA199000091GA1001+999999999GF100991001001999999001001KA1240M+03211MA1999999098091MD1999999+0151REMSYN070AAXX  22004 82583 32596 00503 10235 20189 39809 40149 333 10321 58015;EQDQ01  00002PRCP99
0186825830999992000052212004-05170-040670FM-12+029999999V0200501N003612200019N0500001N1+02641+02141101671ADDAA199000091GF104991041011008001001001KA1240N+01941MA1999999098271MD1999999+0141REMSYN076AAXX  22124 82583 32599 40507 10264 20214 39827 40167 84100 333 20194 58014;EQDQ01  00002PRCP99
0167825830999992000052218004-05170-040670FM-12+029999999V0200901N003112200019N0500001N1+03171+01911101251ADDAA199000091GF103991021011008001001011MA1999999097871MD1999999+0001REMSYN070AAXX  22184 82583 32599 30906 10317 20191 39787 40125 82101 333 58000;EQDQ01  00002PRCP99
0196825830999992000052300004-05170-040670FM-12+029999999V0200901N001512200019N0005001N1+02361+01931101521ADDAA199000091GA1001+999999999GF100991001001999999001001KA1240M+03211MA1999999098121MD1999999+0031REMSYN070AAXX  23004 82583 32593 00903 10236 20193 39812 40152 333 10321 58003;EQDQ01  00002PRCP99
0186825830999992000052312004-05170-040670FM-12+029999999V0200901N003112200019N0500001N1+02631+02141101711ADDAA199000091GF104991041021008001001001KA1240N+02081MA1999999098311MD1999999+0041REMSYN076AAXX  23124 82583 32599 40906 10263 20214 39831 40171 84200 333 20208 58004;EQDQ01  00002PRCP99
0167825830999992000052318004-05170-040670FM-12+029999999V0200901N004112200019N0500001N1+03141+01971101291ADDAA199000091GF104991031021008001001011MA1999999097921MD1999999+0051REMSYN070AAXX  23184 82583 32599 40908 10314 20197 39792 40129 83201 333 58005;EQDQ01  00002PRCP99
0196825830999992000052400004-05170-040670FM-12+029999999V0200501N001512200019N0040001N1+02351+01951101571ADDAA199000091GA1001+999999999GF100991001001999999001001KA1240M+03141MA1999999098171MD1999999+0051REMSYN070AAXX  24004 82583 32996 00503 10235 20195 39817 40157 333 10314 58005;EQDQ01  00002PRCP99
0186825830999992000052412004-05170-040670FM-12+029999999V0201401N003110075019N0500001N1+02471+02011101621ADDAA199000091GF106991061021008001001001KA1240N+01991MA1999999098211MD1999999-0101REMSYN076AAXX  24124 82583 32599 61406 10247 20201 39821 40162 86200 333 20199 59010;EQDQ01  00002PRCP99
0167825830999992000052418004-05170-040670FM-12+029999999V0209999V003612200019N0500001N1+02951+01931101261ADDAA199000091GF103991031021008001001001MA1999999097871MD1999999-0051REMSYN070AAXX  24184 82583 32599 39907 10295 20193 39787 40126 83200 333 59005;EQDQ01  00002PRCP99
0196825830999992000052500004-05170-040670FM-12+029999999V0200501N000512200019N0040001N1+02251+02181101571ADDAA199000091GA1001+999999999GF100991001001999999001001KA1240M+03081MA1999999098151MD1999999-0021REMSYN070AAXX  25004 82583 32996 00501 10225 20218 39815 40157 333 10308 59002;EQDQ01  00002PRCP99
0186825830999992000052512004-05170-040670FM-12+029999999V0201401N003612200019N0500001N1+02541+01761101561ADDAA199000091GF101991011011012501001001KA1240N+01861MA1999999098151MD1999999-0061REMSYN076AAXX  25124 82583 32699 11407 10254 20176 39815 40156 81100 333 20186 59006;EQDQ01  00002PRCP99
0167825830999992000052518004-05170-040670FM-12+029999999V0201401N003112200019N0500001N1+02921+02011101161ADDAA199000091GF104991041011008001001001MA1999999097761MD1999999-0111REMSYN070AAXX  25184 82583 32599 41406 10292 20201 39776 40116 84100 333 59011;EQDQ01  00002PRCP99
0196825830999992000052600004-05170-040670FM-12+029999999V0200901N001512200019N0040001N1+02331+01891101371ADDAA199000091GA1001+999999999GF100991001001999999001001KA1240M+03231MA1999999097971MD1999999-0181REMSYN070AAXX  26004 82583 32996 00903 10233 20189 39797 40137 333 10323 59018;EQDQ01  00002PRCP99
0186825830999992000052612004-05170-040670FM-12+029999999V0200901N001512200019N0500001N1+02611+02071101501ADDAA199000091GF102991021011008001001001KA1240N+01871MA1999999098101MD1999999-0051REMSYN076AAXX  26124 82583 32599 20903 10261 20207 39810 40150 82100 333 20187 59005;EQDQ01  00002PRCP99
0167825830999992000052618004-05170-040670FM-12+029999999V0200901N002612200019N0500001N1+03191+01751101111ADDAA199000091GF102991021011008001001001MA1999999097741MD1999999-0021REMSYN070AAXX  26184 82583 32599 20905 10319 20175 39774 40111 82100 333 59002;EQDQ01  00002PRCP99
0196825830999992000052700004-05170-040670FM-12+029999999V0200901N001512200019N0040001N1+02371+01911101341ADDAA199000091GA1001+999999999GF100991001001999999001001KA1240M+03281MA1999999097951MD1999999-0021REMSYN070AAXX  27004 82583 32596 00903 10237 20191 39795 40134 333 10328 59002;EQDQ01  00002PRCP99
0186825830999992000052712004-05170-040670FM-12+029999999V0200901N001512200019N0500001N1+02591+02081101361ADDAA199000091GF102991021011008001001001KA1240N+01791MA1999999097971MD1999999-0131REMSYN076AAXX  27124 82583 32599 20903 10259 20208 39797 40136 82100 333 20179 59013;EQDQ01  00002PRCP99
0167825830999992000052718004-05170-040670FM-12+029999999V0200501N003612200019N0500001N1+03101+02001100951ADDAA199000091GF102991021011008001001001MA1999999097571MD1999999-0171REMSYN070AAXX  27184 82583 32599 20507 10310 20200 39757 40095 82100 333 59017;EQDQ01  00002PRCP99
0196825830999992000052800004-05170-040670FM-12+029999999V0200501N001512200019N0040001N1+02301+01901101161ADDAA199000091GA1001+999999999GF100991001001999999001001KA1240M+03221MA1999999097781MD1999999-0171REMSYN070AAXX  28004 82583 32596 00503 10230 20190 39778 40116 333 10322 59017;EQDQ01  00002PRCP99
0186825830999992000052812004-05170-040670FM-12+029999999V0200501N004112200019N0500001N1+02571+02081101321ADDAA199000091GF102991021011008001001001KA1240N+01861MA1999999097921MD1999999-0051REMSYN076AAXX  28124 82583 32599 20508 10257 20208 39792 40132 82100 333 20186 59005;EQDQ01  00002PRCP99
0167825830999992000052818004-05170-040670FM-12+029999999V0201801N001512200019N0500001N1+03321+01741100781ADDAA199000091GF102991021011008001001001MA1999999097431MD1999999-0141REMSYN070AAXX  28184 82583 32599 21803 10332 20174 39743 40078 82100 333 59014;EQDQ01  00002PRCP99
0196825830999992000052900004-05170-040670FM-12+029999999V0200501N001512200019N0040001N1+02501+01911101111ADDAA199000091GA1001+999999999GF100991001001999999001001KA1240M+03361MA1999999097731MD1999999-0051REMSYN070AAXX  29004 82583 32596 00503 10250 20191 39773 40111 333 10336 59005;EQDQ01  00002PRCP99
0186825830999992000052912004-05170-040670FM-12+029999999V0200901N001010075019N0500001N1+02531+02091101261ADDAA199000091GF106991061021008001001001KA1240N+01871MA1999999097871MD1999999-0051REMSYN076AAXX  29124 82583 32599 60902 10253 20209 39787 40126 86200 333 20187 59005;EQDQ01  00002PRCP99
0167825830999992000052918004-05170-040670FM-12+029999999V0201401N003110450019N0500001N1+03241+01961100751ADDAA199000091GF105991041021008001041001MA1999999097401MD1999999-0031REMSYN070AAXX  29184 82583 32599 51406 10324 20196 39740 40075 84240 333 59003;EQDQ01  00002PRCP99
0186825830999992000053000004-05170-040670FM-12+029999999V0203601N001510120019N0040001N1+02651+02041101101ADDAA199000091GF106991061081008001001001KA1240M+03291MA1999999097731MD1999999+0001REMSYN076AAXX  30004 82583 32596 63603 10265 20204 39773 40110 86800 333 10329 58000;EQDQ01  00002PRCP99
0186825830999992000053012004-05170-040670FM-12+029999999V0201401N002610075019N0500001N1+02641+02101101311ADDAA199000091GF106991051021008001041001KA1240N+02231MA1999999097941MD1999999+0071REMSYN076AAXX  30124 82583 32599 61405 10264 20210 39794 40131 85240 333 20223 58007;EQDQ01  00002PRCP99
0167825830999992000053018004-05170-040670FM-12+029999999V0200501N003610120019N0500001N1+03011+02161100881ADDAA199000091GF107991071081008001001001MA1999999097521MD1999999+0121REMSYN070AAXX  30184 82583 32599 70507 10301 20216 39752 40088 87800 333 58012;EQDQ01  00002PRCP99
0186825830999992000053100004-05170-040670FM-12+029999999V0202701N001510210019N0040001N1+02301+02131101191ADDAA199000091GF108991081051022501999999KA1240M+03161MA1999999097801MD1999999+0071REMSYN076AAXX  31004 82583 32896 82703 10230 20213 39780 40119 885// 333 10316 58007;EQDQ01  00002PRCP99
0201825830999992000053112004-05170-040670FM-12+029999999V0201401N001510075019N0100001N1+02271+02131101441ADDAA124000391AY121061AY221061GF108991081051008001999999KA1240N+02161MA1999999098021MD1999999+0081MW1611REMSYN088AAXX  31124 82583 21597 81403 10227 20213 39802 40144 76122 885// 333 20216 58008 69934;
0148825830999992000053118004-05170-040670FM-12+029999999V0203201N001010450019N0500001N1+03131+02101100931ADDAA199000021GF106991041021008001031011MA1999999097581MD1999999+0061REMSYN070AAXX  31184 82583 32599 63202 10313 20210 39758 40093 84231 333 58006;
0177825830999992000060100004-05170-040670FM-12+029999999V0203201N002612200019N0040001N1+02391+02231101291ADDAA199000021GA1001+999999999GF100991001001999999001001KA1240M+03151MA1999999097891MD1999999+0091REMSYN070AAXX  01004 82583 32996 03205 10239 20223 39789 40129 333 10315 58009;
0186825830999992000060112004-05170-040670FM-12+029999999V0200501N002610120019N0500001N1+02641+02141101371ADDAA199000091GF106991061081008001001001KA1240N+02131MA1999999097981MD1999999-0041REMSYN076AAXX  01124 82583 32599 60505 10264 20214 39798 40137 86800 333 20213 59004;EQDQ01  00002PRCP99
0167825830999992000060118004-05170-040670FM-12+029999999V0200501N005111050019N0500001N1+02211+01911100951ADDAA199000091GF106991041021008001001021MA1999999097591MD1999999+0011REMSYN070AAXX  01184 82583 32599 60510 10221 20191 39759 40095 84202 333 58001;EQDQ01  00002PRCP99
0186825830999992000060200004-05170-040670FM-12+029999999V0201401N005712200019N0040001N1+02471+02051101191ADDAA199000091GF102991021011008001001001KA1240M+03241MA1999999097811MD1999999-0021REMSYN076AAXX  02004 82583 32596 21411 10247 20205 39781 40119 82100 333 10324 59002;EQDQ01  00002PRCP99
0186825830999992000060212004-05170-040670FM-12+029999999V0200901N003110075019N0500001N1+02671+02061101451ADDAA199000091GF106991061021008001001001KA1240N+02021MA1999999098061MD1999999+0081REMSYN076AAXX  02124 82583 32599 60906 10267 20206 39806 40145 86200 333 20202 58008;EQDQ01  00002PRCP99
0167825830999992000060218004-05170-040670FM-12+029999999V0201401N003612200019N0500001N1+03201+01861101031ADDAA199000091GF102991021011008001001001MA1999999097671MD1999999+0081REMSYN070AAXX  02184 82583 32599 21407 10320 20186 39767 40103 82100 333 58008;EQDQ01  00002PRCP99
0196825830999992000060300004-05170-040670FM-12+029999999V0200901N001512200019N0040001N1+02331+01811101211ADDAA199000091GA1001+999999999GF100991001001999999001001KA1240M+03331MA1999999097831MD1999999+0021REMSYN070AAXX  03004 82583 32596 00903 10233 20181 39783 40121 333 10333 58002;EQDQ01  00002PRCP99
0186825830999992000060312004-05170-040670FM-12+029999999V0201801N002610075019N0500001N1+02531+02191101531ADDAA199000091GF107991071021008001001001KA1240N+02031MA1999999098131MD1999999+0071REMSYN076AAXX  03124 82583 32599 71805 10253 20219 39813 40153 87200 333 20203 58007;EQDQ01  00002PRCP99
0167825830999992000060318004-05170-040670FM-12+029999999V0200901N005112200019N0500001N1+03241+01391101181ADDAA199000091GF102991021011008001001001MA1999999097861MD1999999+0151REMSYN070AAXX  03184 82583 32599 20910 10324 20139 39786 40118 82100 333 58015;EQDQ01  00002PRCP99
0196825830999992000060400004-05170-040670FM-12+029999999V0200901N002112200019N0040001N1+02371+01751101451ADDAA199000091GA1001+999999999GF100991001001999999001001KA1240M+03281MA1999999098051MD1999999+0221REMSYN070AAXX  04004 82583 32596 00904 10237 20175 39805 40145 333 10328 58022;EQDQ01  00002PRCP99
0186825830999992000060412004-05170-040670FM-12+029999999V0200901N003112200019N0500001N1+02551+01751101671ADDAA199000091GF101991011011008001001001KA1240N+02231MA1999999098271MD1999999+0141REMSYN076AAXX  04124 82583 32599 10906 10255 20175 39827 40167 81100 333 20223 58014;EQDQ01  00002PRCP99
0167825830999992000060418004-05170-040670FM-12+029999999V0200901N003112200019N0500001N1+03271+01341101221ADDAA199000091GF101991011011008001001001MA1999999097871MD1999999+0051REMSYN070AAXX  04184 82583 32599 10906 10327 20134 39787 40122 81100 333 58005;EQDQ01  00002PRCP99
0196825830999992000060500004-05170-040670FM-12+029999999V0201401N002112200019N0040001N1+02281+01731101541ADDAA199000091GA1001+999999999GF100991001001999999001001KA1240M+03291MA1999999098131MD1999999+0081REMSYN070AAXX  05004 82583 32596 01404 10228 20173 39813 40154 333 10329 58008;EQDQ01  00002PRCP99
0186825830999992000060512004-05170-040670FM-12+029999999V0200901N002612200019N0500001N1+02651+01971101631ADDAA199000091GF101991011011008001001001KA1240N+01771MA1999999098231MD1999999-0041REMSYN076AAXX  05124 82583 32599 10905 10265 20197 39823 40163 81100 333 20177 59004;EQDQ01  00002PRCP99
0167825830999992000060518004-05170-040670FM-12+029999999V0200901N003612200019N0500001N1+03221+01341101251ADDAA199000091GF102991021011008001001001MA1999999097871MD1999999+0001REMSYN070AAXX  05184 82583 32599 20907 10322 20134 39787 40125 82100 333 58000;EQDQ01  00002PRCP99
0196825830999992000060600004-05170-040670FM-12+029999999V0201401N001512200019N0040001N1+02321+01701101431ADDAA199000091GA1001+999999999GF100991001001999999001001KA1240M+03301MA1999999098041MD1999999-0091REMSYN070AAXX  06004 82583 32596 01403 10232 20170 39804 40143 333 10330 59009;EQDQ01  00002PRCP99
0167825830999992000060618004-05170-040670FM-12+029999999V0201401N003110120019N0500001N1+02911+01801101311ADDAA199000091GF108991081081008001999999MA1999999097911MD1999999+0041REMSYN070AAXX  06184 82583 32599 81406 10291 20180 39791 40131 888// 333 58004;EQDQ01  00002PRCP99
0186825830999992000060700004-05170-040670FM-12+029999999V0201801N002110075019N0040001N1+02471+02031101501ADDAA199000091GF106991061021008001001001KA1240M+03021MA1999999098111MD1999999+0071REMSYN076AAXX  07004 82583 32596 61804 10247 20203 39811 40150 86200 333 10302 58007;EQDQ01  00002PRCP99
0166825830999992000060712004-05170-040670FM-12+029999999V0201401N005110120019N0500001N1+02481+01921101411ADDAA199000091GF108991081081008001999999KA1999N+02111MA1999999098021REMSYN070AAXX  07124 82583 32599 81410 10248 20192 39802 40141 888// 333 20211;EQDQ01  00002PRCP99
0167825830999992000060718004-05170-040670FM-12+029999999V0201401N005110075019N0500001N1+02701+02081101301ADDAA199000091GF106991061021008001001001MA1999999097921MD1999999+0011REMSYN070AAXX  07184 82583 32599 61410 10270 20208 39792 40130 86200 333 58001;EQDQ01  00002PRCP99
0186825830999992000060800004-05170-040670FM-12+029999999V0201801N002110075019N0040001N1+02471+02031101391ADDAA199000091GF105991051051008001001001KA1240M+03011MA1999999098001MD1999999-0111REMSYN076AAXX  08004 82583 32596 51804 10247 20203 39800 40139 85500 333 10301 59011;EQDQ01  00002PRCP99
0186825830999992000060812004-05170-040670FM-12+029999999V0201401N003610075019N0500001N1+02611+02101101471ADDAA199000091GF106991061021008001001001KA1240N+02171MA1999999098081MD1999999+0061REMSYN076AAXX  08124 82583 32599 61407 10261 20210 39808 40147 86200 333 20217 58006;EQDQ01  00002PRCP99
0167825830999992000060818004-05170-040670FM-12+029999999V0201401N004110075019N0500001N1+02951+01991101251ADDAA199000091GF107991071051008001001001MA1999999097871MD1999999-0051REMSYN070AAXX  08184 82583 32599 71408 10295 20199 39787 40125 87500 333 59005;EQDQ01  00002PRCP99
0186825830999992000060900004-05170-040670FM-12+029999999V0200501N001510075019N0040001N1+02571+02011101431ADDAA199000091GF107991071051008001001001KA1240M+03121MA1999999098051MD1999999+0051REMSYN076AAXX  09004 82583 32596 70503 10257 20201 39805 40143 87500 333 10312 58005;EQDQ01  00002PRCP99
0201825830999992000060912004-05170-040670FM-12+029999999V0201801N001510075019N0500001N1+02321+02181101611ADDAA124004191AY161061AY261061GF108991081051008001999999KA1240N+02161MA1999999098201MD1999999+0121MW1211REMSYN088AAXX  09124 82583 21599 81803 10232 20218 39820 40161 72166 885// 333 20216 58012 60044;
0148825830999992000060918004-05170-040670FM-12+029999999V0200501N003110120019N0500001N1+02841+01991101261ADDAA199000021GF108991081081008001999999MA1999999097881MD1999999+0011REMSYN070AAXX  09184 82583 32599 80506 10284 20199 39788 40126 888// 333 58001;
0167825830999992000061000004-05170-040670FM-12+029999999V0203601N001012200019N0040001N1+02271+02161101561ADDAA199000021GF102991021011008001001001KA1240M+02971MA1999999098141MD1999999+0091REMSYN076AAXX  10004 82583 32596 23602 10227 20216 39814 40156 82100 333 10297 58009;
0186825830999992000061012004-05170-040670FM-12+029999999V0201401N003610075019N0500001N1+02431+01891101561ADDAA199000091GF106991061021008001001001KA1240N+02031MA1999999098141MD1999999-0061REMSYN076AAXX  10124 82583 32599 61407 10243 20189 39814 40156 86200 333 20203 59006;EQDQ01  00002PRCP99
0167825830999992000061018004-05170-040670FM-12+029999999V0201401N002610075019N0500001N1+03171+01651101121ADDAA199000091GF105991051021008001001001MA1999999097761MD1999999-0111REMSYN070AAXX  10184 82583 32599 51405 10317 20165 39776 40112 85200 333 59011;EQDQ01  00002PRCP99
0186825830999992000061100004-05170-040670FM-12+029999999V0201401N000510120019N0040001N1+02591+01941101381ADDAA199000091GF108991081081008001999999KA1240M+03271MA1999999097991MD1999999-0151REMSYN076AAXX  11004 82583 32596 81401 10259 20194 39799 40138 888// 333 10327 59015;EQDQ01  00002PRCP99
0186825830999992000061112004-05170-040670FM-12+029999999V0201801N001510075019N0500001N1+02511+02171101561ADDAA199000091GF106991061021008001001001KA1240N+01991MA1999999098161MD1999999+0021REMSYN076AAXX  11124 82583 32599 61803 10251 20217 39816 40156 86200 333 20199 58002;EQDQ01  00002PRCP99
0183825830999992000061118004-05170-040670FM-12+029999999V0200901N002110075019N0500001N1+02971+02301101181ADDAA199000091GF106991999021008001001001MA1999999097801MD1999999+0041REMSYN070AAXX  11184 82583 32599 60904 10297 20230 39780 40118 85200 333 58004;EQDQ01+000052SCOTLCQ02  00002PRCP99
0186825830999992000061200004-05170-040670FM-12+029999999V0209999C000010075019N0040001N1+02481+02151101451ADDAA199000091GF106991061021008001001001KA1240M+03101MA1999999098051MD1999999+0061REMSYN076AAXX  12004 82583 32596 61000 10248 20215 39805 40145 86200 333 10310 58006;EQDQ01  00002PRCP99
0186825830999992000061212004-05170-040670FM-12+029999999V0200501N003110075019N0500001N1+02631+02201101561ADDAA199000091GF106991061021008001001001KA1240N+02131MA1999999098161MD1999999+0001REMSYN076AAXX  12124 82583 32599 60506 10263 20220 39816 40156 86200 333 20213 58000;EQDQ01  00002PRCP99
0182825830999992000061218004-05170-040670FM-12+029999999V0200901N003110075019N0500001N1+03131+02301101071ADDAA106000191AY161061AY261061GF106991061021008001001001MA1999999097711MD1999999-0091MW1021REMSYN082AAXX  12184 82583 21599 60906 10313 20230 39771 40107 70266 86200 333 59009 69911;
0186825830999992000061300004-05170-040670FM-12+029999999V0200901N001512200019N0040001N1+02421+01991101271ADDAA199000091GF101991011011008001001001KA1240M+03271MA1999999097891MD1999999-0161REMSYN076AAXX  13004 82583 32596 10903 10242 20199 39789 40127 81100 333 10327 59016;EQDQ01  00002PRCP99
0173825830999992000061312004-05170-040670FM-12+029999999V0200901N002610075019N0500001N1+02581+02101101381ADDAA124000191GF106991061021008001001001KA1240N+02031MA1999999097991MD1999999-0171REMSYN082AAXX  13124 82583 22599 60905 10258 20210 39799 40138 86200 333 20203 59017 69914;
0167825830999992000061318004-05170-040670FM-12+029999999V0201401N003112200019N0500001N1+03251+01761100971ADDAA199000091GF104991041021008001001001MA1999999097611MD1999999-0101REMSYN070AAXX  13184 82583 32599 41406 10325 20176 39761 40097 84200 333 59010;EQDQ01  00002PRCP99
0196825830999992000061400004-05170-040670FM-12+029999999V0200901N001512200019N0040001N1+02431+01691101221ADDAA199000091GA1001+999999999GF100991001001999999001001KA1240M+03311MA1999999097841MD1999999-0051REMSYN070AAXX  14004 82583 32996 00903 10243 20169 39784 40122 333 10331 59005;EQDQ01  00002PRCP99
0186825830999992000061412004-05170-040670FM-12+029999999V0201401N005112200019N0500001N1+02751+01971101341ADDAA199000091GF102991021011008001001001KA1240N+01961MA1999999097961MD1999999-0031REMSYN076AAXX  14124 82583 32599 21410 10275 20197 39796 40134 82100 333 20196 59003;EQDQ01  00002PRCP99
0167825830999992000061418004-05170-040670FM-12+029999999V0200901N005712200019N0500001N1+03221+01781101051ADDAA199000091GF103991031011008001001001MA1999999097691MD1999999+0081REMSYN070AAXX  14184 82583 32599 30911 10322 20178 39769 40105 83100 333 58008;EQDQ01  00002PRCP99
0186825830999992000061500004-05170-040670FM-12+029999999V0200901N002110075019N0040001N1+02611+01931101201ADDAA199000091GF107991071051008001001001KA1240M+03291MA1999999097841MD1999999+0001REMSYN076AAXX  15004 82583 32596 70904 10261 20193 39784 40120 87500 333 10329 58000;EQDQ01  00002PRCP99
0186825830999992000061512004-05170-040670FM-12+029999999V0201401N002110075019N0500001N1+02701+02111101341ADDAA199000091GF107991071021008001001001KA1240N+02231MA1999999097961MD1999999+0001REMSYN076AAXX  15124 82583 32599 71404 10270 20211 39796 40134 87200 333 20223 58000;EQDQ01  00002PRCP99
0167825830999992000061518004-05170-040670FM-12+029999999V0200901N004110120019N0500001N1+02971+01891101051ADDAA199000091GF108991081081008001999999MA1999999097681MD1999999-0011REMSYN070AAXX  15184 82583 32599 80908 10297 20189 39768 40105 888// 333 59001;EQDQ01  00002PRCP99
0186825830999992000061600004-05170-040670FM-12+029999999V0200501N001519999999N0040001N1+02581+01971101161ADDAA199000091GF106991061001008001031001KA1240M+03121MA1999999097801MD1999999-0041REMSYN076AAXX  16004 82583 32596 60503 10258 20197 39780 40116 86030 333 10312 59004;EQDQ01  00002PRCP99
0201825830999992000061612004-05170-040670FM-12+029999999V0200901N003110075019N0500001N1+02411+02071101471ADDAA124002091AY161061AY261061GF106991051021008001031001KA1240N+02131MA1999999098071MD1999999+0111MW1021REMSYN088AAXX  16124 82583 21599 60906 10241 20207 39807 40147 70266 85230 333 20213 58011 60024;
0167825830999992000061618004-05170-040670FM-12+029999999V0200901N003610120019N0500001N1+02721+02001101171ADDAA199000091GF108991081081008001999999MA1999999097791MD1999999+0111REMSYN070AAXX  16184 82583 32599 80907 10272 20200 39779 40117 888// 333 58011;EQDQ01  00002PRCP99
0167825830999992000061718004-05170-040670FM-12+029999999V0200901N004612200019N0500001N1+03061+01901101061ADDAA199000091GF103991031021008001001001MA1999999097701MD1999999-0091REMSYN070AAXX  17184 82583 32599 30909 10306 20190 39770 40106 83200 333 59009;EQDQ01  00002PRCP99
0186825830999992000061800004-05170-040670FM-12+029999999V0201401N001512200019N0040001N1+02451+01971101201ADDAA199000091GF102991021011008001001001KA1240M+03161MA1999999097821MD1999999-0011REMSYN076AAXX  18004 82583 32596 21403 10245 20197 39782 40120 82100 333 10316 59001;EQDQ01  00002PRCP99
0186825830999992000061812004-05170-040670FM-12+029999999V0200901N003610075019N0500001N1+02481+02111101401ADDAA199000091GF106991061021008001001001KA1240N+02061MA1999999098011MD1999999-0021REMSYN076AAXX  18124 82583 32599 60907 10248 20211 39801 40140 86200 333 20206 59002;EQDQ01  00002PRCP99
0167825830999992000061818004-05170-040670FM-12+029999999V0200901N003110075019N0500001N1+03051+02021101091ADDAA199000091GF106991061021008001001001MA1999999097731MD1999999+0031REMSYN070AAXX  18184 82583 32599 60906 10305 20202 39773 40109 86200 333 58003;EQDQ01  00002PRCP99
0196825830999992000061900004-05170-040670FM-12+029999999V0200901N000512200019N0040001N1+02501+01911101181ADDAA199000091GA1001+999999999GF100991001001999999001001KA1240M+03171MA1999999097801MD1999999-0021REMSYN070AAXX  19004 82583 32596 00901 10250 20191 39780 40118 333 10317 59002;EQDQ01  00002PRCP99
0186825830999992000061912004-05170-040670FM-12+029999999V0200901N003112200019N0500001N1+02711+02101101421ADDAA199000091GF102991021011008001001001KA1240N+01931MA1999999098041MD1999999-0031REMSYN076AAXX  19124 82583 32599 20906 10271 20210 39804 40142 82100 333 20193 59003;EQDQ01  00002PRCP99
0167825830999992000061918004-05170-040670FM-12+029999999V0201401N004610450019N0500001N1+03341+01671101031ADDAA199000091GF105991041021008001031001MA1999999097671MD1999999-0061REMSYN070AAXX  19184 82583 32599 51409 10334 20167 39767 40103 84230 333 59006;EQDQ01  00002PRCP99
0186825830999992000062000004-05170-040670FM-12+029999999V0200501N002112200019N0040001N1+02651+01971101251ADDAA199000091GF102991021001017501031001KA1240M+03461MA1999999097891MD1999999+0091REMSYN076AAXX  20004 82583 32796 20504 10265 20197 39789 40125 82030 333 10346 58009;EQDQ01  00002PRCP99
0186825830999992000062012004-05170-040670FM-12+029999999V0200501N001010120019N0500001N1+02631+02201101481ADDAA199000091GF107991061081008001031001KA1240N+02151MA1999999098101MD1999999+0061REMSYN076AAXX  20124 82583 32599 70502 10263 20220 39810 40148 86830 333 20215 58006;EQDQ01  00002PRCP99
0182825830999992000062018004-05170-040670FM-12+029999999V0200901N001510120019N0500001N1+03031+02091101161ADDAA106005191AY161061AY261061GF107991061081008001041001MA1999999097791MD1999999+0121MW1031REMSYN082AAXX  20184 82583 21599 70903 10303 20209 39779 40116 70366 86840 333 58012 60051;
0186825830999992000062100004-05170-040670FM-12+029999999V0203601N001512200019N0040001N1+02451+02091101371ADDAA199000091GF101991011011008001001001KA1240M+03041MA1999999097991MD1999999+0101REMSYN076AAXX  21004 82583 32596 13603 10245 20209 39799 40137 81100 333 10304 58010;EQDQ01  00002PRCP99
0167825830999992000062118004-05170-040670FM-12+029999999V0200501N002112200019N0500001N1+03191+01931101151ADDAA199000091GF104991041021008001001001MA1999999097791MD1999999+0001REMSYN070AAXX  21184 82583 32599 40504 10319 20193 39779 40115 84200 333 58000;EQDQ01  00002PRCP99
0196825830999992000062200004-05170-040670FM-12+029999999V0203601N001512200019N0040001N1+02521+01931101401ADDAA199000091GA1001+999999999GF100991001001999999001001KA1240M+03221MA1999999098011MD1999999+0061REMSYN070AAXX  22004 82583 32996 03603 10252 20193 39801 40140 333 10322 58006;EQDQ01  00002PRCP99
0186825830999992000062212004-05170-040670FM-12+029999999V0200501N003110075019N0500001N1+02521+02091101511ADDAA199000091GF107991071021008001001001KA1240N+02051MA1999999098211MD1999999+0031REMSYN076AAXX  22124 82583 32599 70506 10252 20209 39821 40151 87200 333 20205 58003;EQDQ01  00002PRCP99
0167825830999992000062218004-05170-040670FM-12+029999999V0201401N003110075019N0500001N1+03291+01891101001ADDAA199000091GF105991051011008001001001MA1999999097651MD1999999+0141REMSYN070AAXX  22184 82583 32599 51406 10329 20189 39765 40100 85100 333 58014;EQDQ01  00002PRCP99
0196825830999992000062300004-05170-040670FM-12+029999999V0200501N002112200019N0040001N1+02581+01941101261ADDAA199000091GA1001+999999999GF100991001001999999001001KA1240M+03401MA1999999097881MD1999999-0131REMSYN070AAXX  23004 82583 32596 00504 10258 20194 39788 40126 333 10340 59013;EQDQ01  00002PRCP99
0186825830999992000062312004-05170-040670FM-12+029999999V0200901N003110075019N0500001N1+02771+02161101441ADDAA199000091GF106991061011008001001001KA1240N+02081MA1999999098071MD1999999-0141REMSYN076AAXX  23124 82583 32599 60906 10277 20216 39807 40144 86100 333 20208 59014;EQDQ01  00002PRCP99
0196825830999992000062400004-05170-040670FM-12+029999999V0200901N002112200019N0040001N1+02481+01801101281ADDAA199000091GA1001+999999999GF100991001001999999001001KA1240M+03411MA1999999097921MD1999999-0041REMSYN070AAXX  24004 82583 32596 00904 10248 20180 39792 40128 333 10341 59004;EQDQ01  00002PRCP99
0186825830999992000062412004-05170-040670FM-12+029999999V0200901N007212200019N0500001N1+02741+01641101481ADDAA199000091GF101991011011008001001001KA1240N+02031MA1999999098101MD1999999+0031REMSYN076AAXX  24124 82583 32599 10914 10274 20164 39810 40148 81100 333 20203 58003;EQDQ01  00002PRCP99
0167825830999992000062418004-05170-040670FM-12+029999999V0200901N005712200019N0500001N1+03231+01581101021ADDAA199000091GF101991011011008001001001MA1999999097661MD1999999+0211REMSYN070AAXX  24184 82583 32599 10911 10323 20158 39766 40102 81100 333 58021;EQDQ01  00002PRCP99
0196825830999992000062500004-05170-040670FM-12+029999999V0201401N001512200019N0040001N1+02471+01801101291ADDAA199000091GA1001+999999999GF100991001001999999001001KA1240M+03381MA1999999097911MD1999999-0011REMSYN070AAXX  25004 82583 32596 01403 10247 20180 39791 40129 333 10338 59001;EQDQ01  00002PRCP99
0186825830999992000062512004-05170-040670FM-12+029999999V0200901N005112200019N0500001N1+02681+01731101371ADDAA199000091GF102991021011008001001001KA1240N+02061MA1999999097991MD1999999-0111REMSYN076AAXX  25124 82583 32599 20910 10268 20173 39799 40137 82100 333 20206 59011;EQDQ01  00002PRCP99
0167825830999992000062518004-05170-040670FM-12+029999999V0200901N004612200019N0500001N1+03271+01131100961ADDAA199000091GF102991021011008001001001MA1999999097611MD1999999-0051REMSYN070AAXX  25184 82583 32599 20909 10327 20113 39761 40096 82100 333 59005;EQDQ01  00002PRCP99
0196825830999992000062600004-05170-040670FM-12+029999999V0200901N002612200019N0040001N1+02581+01741101231ADDAA199000091GA1001+999999999GF100991001001999999001001KA1240M+03331MA1999999097851MD1999999-0061REMSYN070AAXX  26004 82583 32596 00905 10258 20174 39785 40123 333 10333 59006;EQDQ01  00002PRCP99
0186825830999992000062612004-05170-040670FM-12+029999999V0200901N004112200019N0500001N1+02691+01941101331ADDAA199000091GF102991021011008001001001KA1240N+01931MA1999999097951MD1999999-0041REMSYN076AAXX  26124 82583 32599 20908 10269 20194 39795 40133 82100 333 20193 59004;EQDQ01  00002PRCP99
0167825830999992000062618004-05170-040670FM-12+029999999V0200901N004610075019N0500001N1+03341+02021100981ADDAA199000091GF105991051011008001001001MA1999999097641MD1999999-0231REMSYN070AAXX  26184 82583 32599 50909 10334 20202 39764 40098 85100 333 59023;EQDQ01  00002PRCP99
0186825830999992000062700004-05170-040670FM-12+029999999V0200901N004612200019N0040001N1+02681+01971101351ADDAA199000091GF102991021011008001001001KA1240M+03401MA1999999097981MD1999999+0131REMSYN076AAXX  27004 82583 32596 20909 10268 20197 39798 40135 82100 333 10340 58013;EQDQ01  00002PRCP99
0186825830999992000062712004-05170-040670FM-12+029999999V0200901N002110120019N0500001N1+02441+02071101421ADDAA199000091GF108991061081008001021999KA1240N+02291MA1999999098041MD1999999+0091REMSYN076AAXX  27124 82583 32599 80904 10244 20207 39804 40142 8682/ 333 20229 58009;EQDQ01  00002PRCP99
0167825830999992000062718004-05170-040670FM-12+029999999V0200501N003610450019N0500001N1+03211+01881101061ADDAA199000091GF105991041021008001031001MA1999999097701MD1999999+0061REMSYN070AAXX  27184 82583 32599 50507 10321 20188 39770 40106 84230 333 58006;EQDQ01  00002PRCP99
0186825830999992000062800004-05170-040670FM-12+029999999V0200501N002610120019N0040001N1+02641+01931101291ADDAA199000091GF106991061081008001001001KA1240M+03221MA1999999097911MD1999999-0071REMSYN076AAXX  28004 82583 32596 60505 10264 20193 39791 40129 86800 333 10322 59007;EQDQ01  00002PRCP99
0201825830999992000062812004-05170-040670FM-12+029999999V0200901N004610075019N0500001N1+02691+02031101381ADDAA124000191AY161061AY261061GF107991071021008001001001KA1240N+02181MA1999999098001MD1999999-0041MW1021REMSYN088AAXX  28124 82583 21599 70909 10269 20203 39800 40138 70266 87200 333 20218 59004 69924;
0167825830999992000062818004-05170-040670FM-12+029999999V0201401N004610075019N0500001N1+03131+01801101011ADDAA199000091GF106991061021008001001001MA1999999097651MD1999999-0051REMSYN070AAXX  28184 82583 32599 61409 10313 20180 39765 40101 86200 333 59005;EQDQ01  00002PRCP99
0186825830999992000062900004-05170-040670FM-12+029999999V0201401N001512200019N0040001N1+02521+01841101191ADDAA199000091GF101991011011008001001001KA1240M+03211MA1999999097821MD1999999-0091REMSYN076AAXX  29004 82583 32596 11403 10252 20184 39782 40119 81100 333 10321 59009;EQDQ01  00002PRCP99
0186825830999992000062912004-05170-040670FM-12+029999999V0200901N004610450019N0500001N1+02711+01951101281ADDAA199000091GF106991021011008001031001KA1240N+02191MA1999999097901MD1999999-0101REMSYN076AAXX  29124 82583 32599 60909 10271 20195 39790 40128 82130 333 20219 59010;EQDQ01  00002PRCP99
0167825830999992000062918004-05170-040670FM-12+029999999V0200901N003110075019N0500001N1+02861+01901101051ADDAA199000091GF108991081051008001999999MA1999999097691MD1999999+0041REMSYN070AAXX  29184 82583 32599 80906 10286 20190 39769 40105 885// 333 58004;EQDQ01  00002PRCP99
0186825830999992000063012004-05170-040670FM-12+029999999V0201401N002110075019N0500001N1+02541+01861101481ADDAA199000091GF108991081051008001999999KA1240N+02191MA1999999098101MD1999999+0201REMSYN076AAXX  30124 82583 32599 81404 10254 20186 39810 40148 885// 333 20219 58020;EQDQ01  00002PRCP99
0167825830999992000063018004-05170-040670FM-12+029999999V0200901N003110075019N0500001N1+03031+01711101131ADDAA199000091GF106991061021008001001001MA1999999097771MD1999999+0081REMSYN070AAXX  30184 82583 32599 60906 10303 20171 39777 40113 86200 333 58008;EQDQ01  00002PRCP99
0186825830999992000070100004-05170-040670FM-12+029999999V0200501N001512200019N0040001N1+02581+01841101281ADDAA199000091GF102991021011008001001001KA1240M+03101MA1999999097901MD1999999+0001REMSYN076AAXX  01004 82583 32596 20503 10258 20184 39790 40128 82100 333 10310 58000;EQDQ01  00002PRCP99
0186825830999992000070112004-05170-040670FM-12+029999999V0200901N003112200019N0500001N1+02631+01951101441ADDAA199000091GF104991041011008001001001KA1240N+01951MA1999999098061MD1999999-0041REMSYN076AAXX  01124 82583 32599 40906 10263 20195 39806 40144 84100 333 20195 59004;EQDQ01  00002PRCP99
0186825830999992000070200004-05170-040670FM-12+029999999V0200901N001510120019N0040001N1+02381+02111101321ADDAA199000091GF108991081081008001999999KA1240M+02821MA1999999097931MD1999999-0031REMSYN076AAXX  02004 82583 32596 80903 10238 20211 39793 40132 888// 333 10282 59003;EQDQ01  00002PRCP99
0186825830999992000070212004-05170-040670FM-12+029999999V0201801N002610075019N0500001N1+02471+02211101451ADDAA199000091GF106991061021008001001001KA1240N+02151MA1999999098051MD1999999-0011REMSYN076AAXX  02124 82583 32599 61805 10247 20221 39805 40145 86200 333 20215 59001;EQDQ01  00002PRCP99
0137825830999992000070218004-05170-040670FM-12+029999999V0200901N003119999999N0500001N1+02871+99999999999ADDAA199000091GF106991999999008001999999REMSYN069AAXX  02184 82583 32599 60906 10287 0186 39781 40119 86200 333 58002;EQDQ01  00002PRCP99
0186825830999992000070300004-05170-040670FM-12+029999999V0200901N001510075019N0040001N1+02511+01961101351ADDAA199000091GF106991061021008001001001KA1240M+02901MA1999999097971MD1999999+0041REMSYN076AAXX  03004 82583 32596 60903 10251 20196 39797 40135 86200 333 10290 58004;EQDQ01  00002PRCP99
0186825830999992000070312004-05170-040670FM-12+029999999V0201401N004610075019N0500001N1+02731+01761101411ADDAA199000091GF105991051051008001001001KA1240N+02171MA1999999098031MD1999999-0021REMSYN076AAXX  03124 82583 32599 51409 10273 20176 39803 40141 85500 333 20217 59002;EQDQ01  00002PRCP99
0167825830999992000070318004-05170-040670FM-12+029999999V0201401N002610120019N0500001N1+03161+01711101121ADDAA199000091GF107991071081008001001001MA1999999097761MD1999999-0051REMSYN070AAXX  03184 82583 32599 71405 10316 20171 39776 40112 87800 333 59005;EQDQ01  00002PRCP99
0202825830999992000070400004-05170-040670FM-12+029999999V0201401N001512200019N0040001N1+02571+02101101281ADDAA199000091GF101991999011008001001001KA1240M+03251MA1999999097911MD1999999-0061REMSYN076AAXX  04004 82583 32596 11403 10257 20210 39791 40128 82100 333 10325 59006;EQDQ01+000022SCOTLCQ02  00002PRCP99
0186825830999992000070412004-05170-040670FM-12+029999999V0201401N004112200019N0500001N1+02631+01751101401ADDAA199000091GF102991011011008001041001KA1240N+02091MA1999999098021MD1999999-0011REMSYN076AAXX  04124 82583 32599 21408 10263 20175 39802 40140 81140 333 20209 59001;EQDQ01  00002PRCP99
0167825830999992000070418004-05170-040670FM-12+029999999V0201401N004612200019N0500001N1+03261+01641100991ADDAA199000091GF104991041021008001001001MA1999999097641MD1999999-0121REMSYN070AAXX  04184 82583 32599 41409 10326 20164 39764 40099 84200 333 59012;EQDQ01  00002PRCP99
0186825830999992000070500004-05170-040670FM-12+029999999V0200901N002610120019N0040001N1+02731+01761101211ADDAA199000091GF107991071081008001001001KA1240M+03301MA1999999097851MD1999999-0061REMSYN076AAXX  05004 82583 32596 70905 10273 20176 39785 40121 87800 333 10330 59006;EQDQ01  00002PRCP99
0186825830999992000070512004-05170-040670FM-12+029999999V0201401N004612200019N0500001N1+02691+01721101281ADDAA199000091GF101991011011008001001001KA1240N+02211MA1999999097921MD1999999-0101REMSYN076AAXX  05124 82583 32599 11409 10269 20172 39792 40128 81100 333 20221 59010;EQDQ01  00002PRCP99
0186825830999992000070600004-05170-040670FM-12+029999999V0201401N001510075019N0040001N1+02751+01721101181ADDAA199000091GF107991071051008001001001KA1240M+03341MA1999999097801MD1999999-0051REMSYN076AAXX  06004 82583 32596 71403 10275 20172 39780 40118 87500 333 10334 59005;EQDQ01  00002PRCP99
0186825830999992000070612004-05170-040670FM-12+029999999V0201401N005112200019N0500001N1+02651+01591101401ADDAA199000091GF102991011041008001001011KA1240N+02071MA1999999098031MD1999999+0111REMSYN076AAXX  06124 82583 32599 21410 10265 20159 39803 40140 81401 333 20207 58011;EQDQ01  00002PRCP99
0167825830999992000070618004-05170-040670FM-12+029999999V0201401N002112200019N0500001N1+03231+01541100991ADDAA199000091GF103991021011008001001011MA1999999097631MD1999999+0021REMSYN070AAXX  06184 82583 32599 31404 10323 20154 39763 40099 82101 333 58002;EQDQ01  00002PRCP99
0186825830999992000070700004-05170-040670FM-12+029999999V0200901N001512200019N0040001N1+02551+01701101311ADDAA199000091GF102991021011008001001001KA1240M+03321MA1999999097931MD1999999+0131REMSYN076AAXX  07004 82583 32596 20903 10255 20170 39793 40131 82100 333 10332 58013;EQDQ01  00002PRCP99
0186825830999992000070712004-05170-040670FM-12+029999999V0201401N002610075019N0500001N1+02581+01941101461ADDAA199000091GF106991061021008001001001KA1240N+02141MA1999999098071MD1999999+0041REMSYN076AAXX  07124 82583 32599 61405 10258 20194 39807 40146 86200 333 20214 58004;EQDQ01  00002PRCP99
0167825830999992000070718004-05170-040670FM-12+029999999V0200901N003610075019N0500001N1+03141+01841101081ADDAA199000091GF106991061011008001001001MA1999999097711MD1999999+0031REMSYN070AAXX  07184 82583 32599 60907 10314 20184 39771 40108 86100 333 58003;EQDQ01  00002PRCP99
0186825830999992000070800004-05170-040670FM-12+029999999V0200901N000510075019N0040001N1+02701+01801101251ADDAA199000091GF106991061021008001001001KA1240M+03271MA1999999097881MD1999999-0051REMSYN076AAXX  08004 82583 32596 60901 10270 20180 39788 40125 86200 333 10327 59005;EQDQ01  00002PRCP99
0186825830999992000070812004-05170-040670FM-12+029999999V0201401N003612200019N0500001N1+02671+02041101351ADDAA199000091GF105991041021008001001011KA1240N+02221MA1999999097981MD1999999-0091REMSYN076AAXX  08124 82583 32599 51407 10267 20204 39798 40135 84201 333 20222 59009;EQDQ01  00002PRCP99
0167825830999992000070818004-05170-040670FM-12+029999999V0201401N003112200019N0500001N1+03291+01721100981ADDAA199000091GF102991021011008001001001MA1999999097361MD1999999-0081REMSYN070AAXX  08184 82583 32599 21406 10329 20172 39736 40098 82100 333 59008;EQDQ01  00002PRCP99
0186825830999992000070900004-05170-040670FM-12+029999999V0200901N002112200019N0040001N1+02731+01731101151ADDAA199000091GF103991031011008001001001KA1240M+03351MA1999999097791MD1999999-0091REMSYN076AAXX  09004 82583 32596 30904 10273 20173 39779 40115 83100 333 10335 59009;EQDQ01  00002PRCP99
0186825830999992000070912004-05170-040670FM-12+029999999V0200901N005710075019N0500001N1+02601+01741101411ADDAA199000091GF105991051021008001001001KA1240N+02051MA1999999098041MD1999999-0031REMSYN076AAXX  09124 82583 32599 50911 10260 20174 39804 40141 85200 333 20205 59003;EQDQ01  00002PRCP99
0167825830999992000070918004-05170-040670FM-12+029999999V0200901N003612200019N0500001N1+03281+01491100961ADDAA199000091GF102991021011008001001001MA1999999097611MD1999999-0021REMSYN070AAXX  09184 82583 32599 20907 10328 20149 39761 40096 82100 333 59002;EQDQ01  00002PRCP99
0202825830999992000071000004-05170-040670FM-12+029999999V0200901N002619999999N0040001N1+02831+01761101221ADDAA199000091GF106991999081008001999999KA1240M+03321MA1999999097861MD1999999+0071REMSYN076AAXX  10004 82583 32596 60905 10283 20176 39786 40122 888// 333 10332 58007;EQDQ01+000082SCOTLCQ02  00002PRCP99
0186825830999992000071012004-05170-040670FM-12+029999999V0201401N003112200019N0500001N1+02671+01811101301ADDAA199000091GF102991021011008001001001KA1240N+02311MA1999999097941MD1999999-0101REMSYN076AAXX  10124 82583 32599 21406 10267 20181 39794 40130 82100 333 20231 59010;EQDQ01  00002PRCP99
0167825830999992000071018004-05170-040670FM-12+029999999V0200901N005110075019N0500001N1+03171+01801101011ADDAA199000091GF106991061021008001001001MA1999999097661MD1999999+0051REMSYN070AAXX  10184 82583 32599 60910 10317 20180 39766 40101 86200 333 58005;EQDQ01  00002PRCP99
0201825830999992000071100004-05170-040670FM-12+029999999V0200901N000510075019N0040001N1+02451+02091101331ADDAA106000191AY161061AY261061GF108991081051008001999999KA1240M+03271MA1999999097951MD1999999+0091MW1021REMSYN088AAXX  11004 82583 21596 80901 10245 20209 39795 40133 70266 885// 333 10327 58009 69911;
0201825830999992000071112004-05170-040670FM-12+029999999V0201401N003610075019N0500001N1+02281+02211101521ADDAA124004191AY161061AY261061GF108991081051008001999999KA1240N+02191MA1999999098101MD1999999+0161MW1211REMSYN088AAXX  11124 82583 21599 81407 10228 20221 39810 40152 72166 885// 333 20219 58016 60044;
0148825830999992000071118004-05170-040670FM-12+029999999V0200901N004110120019N0500001N1+02831+01991101151ADDAA199000021GF108991081081008001999999MA1999999097771MD1999999+0111REMSYN070AAXX  11184 82583 32599 80908 10283 20199 39777 40115 888// 333 58011;
0167825830999992000071200004-05170-040670FM-12+029999999V0200901N000512200019N0040001N1+02421+02031101331ADDAA199000021GF102991021011008001001001KA1240M+02921MA1999999097931MD1999999-0021REMSYN076AAXX  12004 82583 32596 20901 10242 20203 39793 40133 82100 333 10292 59002;
0201825830999992000071212004-05170-040670FM-12+029999999V0201401N003110075019N0500001N1+02401+02231101561ADDAA124006191AY161061AY261061GF108991071051008001021999KA1240N+02211MA1999999098151MD1999999+0051MW1211REMSYN088AAXX  12124 82583 21599 81406 10240 20223 39815 40156 72166 8752/ 333 20221 58005 60064;
0148825830999992000071218004-05170-040670FM-12+029999999V0200901N005112200019N0500001N1+03131+01911101081ADDAA199000021GF104991041021008001001001MA1999999097721MD1999999-0051REMSYN070AAXX  12184 82583 32599 40910 10313 20191 39772 40108 84200 333 59005;
0173825830999992000071312004-05170-040670FM-12+029999999V0201401N002110075019N0500001N1+02531+02111101681ADDAA124000191GF107991051021008001031001KA1240N+02251MA1999999098281MD1999999+0131REMSYN082AAXX  13124 82583 22599 71404 10253 20211 39828 40168 85230 333 20225 58013 69924;
0167825830999992000071318004-05170-040670FM-12+029999999V0200901N002110450019N0500001N1+03131+01771101201ADDAA199000091GF105991041021008001031001MA1999999097841MD1999999+0121REMSYN070AAXX  13184 82583 32599 50904 10313 20177 39784 40120 84230 333 58012;EQDQ01  00002PRCP99
0186825830999992000071412004-05170-040670FM-12+029999999V0201401N001510075019N0500001N1+02531+02001101551ADDAA199000091GF106991051021008001001011KA1240N+01891MA1999999098151MD1999999-0131REMSYN076AAXX  14124 82583 32599 61403 10253 20200 39815 40155 85201 333 20189 59013;EQDQ01  00002PRCP99
0167825830999992000071418004-05170-040670FM-12+029999999V0200901N004110075019N0500001N1+03091+01801101131ADDAA199000091GF106991051021008001001011MA1999999097751MD1999999-0091REMSYN070AAXX  14184 82583 32599 60908 10309 20180 39775 40113 85201 333 59009;EQDQ01  00002PRCP99
0186825830999992000071500004-05170-040670FM-12+029999999V0201401N002112200019N0040001N1+02551+01801101341ADDAA199000091GF102991021011008001001001KA1240M+03201MA1999999097961MD1999999-0131REMSYN076AAXX  15004 82583 32596 21404 10255 20180 39796 40134 82100 333 10320 59013;EQDQ01  00002PRCP99
0186825830999992000071512004-05170-040670FM-12+029999999V0201401N001010075019N0500001N1+02431+01901101551ADDAA199000091GF108991081051008001999999KA1240N+02081MA1999999098151MD1999999+0001REMSYN076AAXX  15124 82583 32599 81402 10243 20190 39815 40155 885// 333 20208 58000;EQDQ01  00002PRCP99
0167825830999992000071518004-05170-040670FM-12+029999999V0200901N003112200019N0500001N1+03151+01821101091ADDAA199000091GF103991031041008001001001MA1999999097731MD1999999-0021REMSYN070AAXX  15184 82583 32599 30906 10315 20182 39773 40109 83400 333 59002;EQDQ01  00002PRCP99
0186825830999992000071600004-05170-040670FM-12+029999999V0200501N002112200019N0040001N1+02521+01891101281ADDAA199000091GF102991021011008001001001KA1240M+03201MA1999999097891MD1999999-0071REMSYN076AAXX  16004 82583 32596 20504 10252 20189 39789 40128 82100 333 10320 59007;EQDQ01  00002PRCP99
0186825830999992000071612004-05170-040670FM-12+029999999V0200901N002610075019N0500001N1+02571+02011101511ADDAA199000091GF106991061021008001001001KA1240N+02041MA1999999098121MD1999999+0031REMSYN076AAXX  16124 82583 32599 60905 10257 20201 39812 40151 86200 333 20204 58003;EQDQ01  00002PRCP99
0167825830999992000071618004-05170-040670FM-12+029999999V0200901N001512200019N0500001N1+03301+01761101001ADDAA199000091GF103991031011008001001001MA1999999097641MD1999999-0091REMSYN070AAXX  16184 82583 32599 30903 10330 20176 39764 40100 83100 333 59009;EQDQ01  00002PRCP99
0186825830999992000071700004-05170-040670FM-12+029999999V0200501N001512200019N0040001N1+02631+01881101241ADDAA199000091GF102991021011008001001001KA1240M+03371MA1999999097861MD1999999-0031REMSYN076AAXX  17004 82583 32596 20503 10263 20188 39786 40124 82100 333 10337 59003;EQDQ01  00002PRCP99
0186825830999992000071712004-05170-040670FM-12+029999999V0200501N002112200019N0500001N1+02671+02061101441ADDAA199000091GF104991041011008001001001KA1240N+02171MA1999999098061MD1999999-0061REMSYN076AAXX  17124 82583 32599 40504 10267 20206 39806 40144 84100 333 20217 59006;EQDQ01  00002PRCP99
0167825830999992000071718004-05170-040670FM-12+029999999V0200901N002112200019N0500001N1+03211+01731100981ADDAA199000091GF103991031011008001001001MA1999999097631MD1999999-0011REMSYN070AAXX  17184 82583 32599 30904 10321 20173 39763 40098 83100 333 59001;EQDQ01  00002PRCP99
0218825830999992000071800004-05170-040670FM-12+029999999V0202701N000510075019N0040001N1+02521+02051101201ADDAA199000091GF106991061021008001001001KA1240N+99999MA1999999098832MD1999999-0031REMSYN076AAXX  18004 82583 32596 62701 10252 20205 39883 40120 86200 333 20339 59003;EQDQ01+098833APOSP Q02  00002PRCP99Q03 +03392ATMN  
0186825830999992000071812004-05170-040670FM-12+029999999V0200501N001010120019N0500001N1+02601+02061101451ADDAA199000091GF107991071081008001001001KA1240N+02211MA1999999098061MD1999999+0001REMSYN076AAXX  18124 82583 32599 70502 10260 20206 39806 40145 87800 333 20221 58000;EQDQ01  00002PRCP99
0195825830999992000071818004-05170-040670FM-12+029999999V0200501N004610075019N0040001N1+02831+02261101131ADDAA199000091AY121061AY221061GF106991061021008001001001MA1999999097751MD1999999+0121MW1161REMSYN076AAXX  18184 82583 31596 60509 10283 20226 39775 40113 71622 86200 333 58012;EQDQ01  00002PRCP99
0201825830999992000071900004-05170-040670FM-12+029999999V0202701N001012200019N0200001N1+02411+02171101301ADDAA106000191AY161061AY261061GF101991011011008001001001KA1240M+03131MA1999999097911MD1999999+0031MW1011REMSYN088AAXX  19004 82583 21598 12702 10241 20217 39791 40130 70166 81100 333 10313 58003 69911;
0173825830999992000071912004-05170-040670FM-12+029999999V0200901N003612200019N0500001N1+02651+02041101471ADDAA124000191GF104991041021008001001001KA1240N+02211MA1999999098081MD1999999+0021REMSYN082AAXX  19124 82583 22599 40907 10265 20204 39808 40147 84200 333 20221 58002 69914;
0167825830999992000071918004-05170-040670FM-12+029999999V0200901N003110075019N0500001N1+03001+01731101071ADDAA199000091GF106991061021008001001001MA1999999097711MD1999999-0041REMSYN070AAXX  19184 82583 32599 60906 10300 20173 39771 40107 86200 333 59004;EQDQ01  00002PRCP99
0202825830999992000072000004-05170-040670FM-12+029999999V0201301N030822200019N0040001N1+02571+01771101281ADDAA199000091GF103991011041017501021001KA1240M+03291MA1999999097901MD1999999-0011REMSYN076AAXX  20004 82583 32796 31360 10257 20177 39790 40128 81420 333 10329 59001;EQDQ01+003083WOSPD Q02  00002PRCP99
0186825830999992000072012004-05170-040670FM-12+029999999V0200901N003610450019N0500001N1+02611+01861101481ADDAA199000091GF106991031011008001031001KA1240N+02161MA1999999098101MD1999999+0021REMSYN076AAXX  20124 82583 32599 60907 10261 20186 39810 40148 83130 333 20216 58002;EQDQ01  00002PRCP99
0167825830999992000072018004-05170-040670FM-12+029999999V0201401N002610075019N0500001N1+03151+01791100991ADDAA199000091GF106991061021008001001001MA1999999097631MD1999999-0081REMSYN070AAXX  20184 82583 32599 61405 10315 20179 39763 40099 86200 333 59008;EQDQ01  00002PRCP99
0196825830999992000072100004-05170-040670FM-12+029999999V0200501N001512200019N0040001N1+02571+01821101201ADDAA199000091GA1001+999999999GF100991001001999999001001KA1240M+03181MA1999999097831MD1999999-0071REMSYN070AAXX  21004 82583 32596 00503 10257 20182 39783 40120 333 10318 59007;EQDQ01  00002PRCP99
0201825830999992000072112004-05170-040670FM-12+029999999V0200501N001010075019N0500001N1+02431+02131101331ADDAA124000191AY161061AY261061GF107991061051008001031001KA1240N+02051MA1999999097941MD1999999-0161MW1031REMSYN088AAXX  21124 82583 21599 70502 10243 20213 39794 40133 70366 86530 333 20205 59016 69914;
0167825830999992000072118004-05170-040670FM-12+029999999V0200901N002112200019N0500001N1+03181+01771100961ADDAA199000091GF104991041011008001001001MA1999999097591MD1999999-0041REMSYN070AAXX  21184 82583 32599 40904 10318 20177 39759 40096 84100 333 59004;EQDQ01  00002PRCP99
0186825830999992000072200004-05170-040670FM-12+029999999V0200901N001510075019N0040001N1+02621+01911101171ADDAA199000091GF106991061021008001001001KA1240M+03301MA1999999097791MD1999999+0001REMSYN076AAXX  22004 82583 32596 60903 10262 20191 39779 40117 86200 333 10330 58000;EQDQ01  00002PRCP99
0220825830999992000072212004-05170-040670FM-12+029999999V0201401N004619999999N0500001N1+02581+02041101351ADDAA124002091AY161061AY261061GF106991999021008001001001KA1240N+02151MA1999999097941MD1999999+0041MW1021REMSYN088AAXX  22124 82583 21599 61409 10258 20204 39794 40135 70266 83200 333 20215 58004 60024;EQDQ01+000032SCOTLC
0167825830999992000072218004-05170-040670FM-12+029999999V0201401N003112200019N0500001N1+02871+01801101051ADDAA199000091GF103991031011008001001001MA1999999097671MD1999999+0081REMSYN070AAXX  22184 82583 32599 31406 10287 20180 39767 40105 83100 333 58008;EQDQ01  00002PRCP99
0196825830999992000072300004-05170-040670FM-12+029999999V0201401N001012200019N0040001N1+02721+01771101231ADDAA199000091GA1001+999999999GF100991001001999999001001KA1240M+03291MA1999999097871MD1999999+0081REMSYN070AAXX  23004 82583 32996 01402 10272 20177 39787 40123 333 10329 58008;EQDQ01  00002PRCP99
0186825830999992000072312004-05170-040670FM-12+029999999V0201401N004612200019N0500001N1+02681+01811101421ADDAA199000091GF101991011011008001001001KA1240N+01941MA1999999098051MD1999999+0071REMSYN076AAXX  23124 82583 32599 11409 10268 20181 39805 40142 81100 333 20194 58007;EQDQ01  00002PRCP99
0167825830999992000072318004-05170-040670FM-12+029999999V0201401N002612200019N0500001N1+03381+01431100941ADDAA199000091GF102991021011008001001001MA1999999097591MD1999999-0081REMSYN070AAXX  23184 82583 32599 21405 10338 20143 39759 40094 82100 333 59008;EQDQ01  00002PRCP99
0186825830999992000072400004-05170-040670FM-12+029999999V0200901N001512200019N0040001N1+02591+01411101161ADDAA199000091GF101991011011008001001001KA1240M+03471MA1999999097791MD1999999-0081REMSYN076AAXX  24004 82583 32596 10903 10259 20141 39779 40116 81100 333 10347 59008;EQDQ01  00002PRCP99
0186825830999992000072412004-05170-040670FM-12+029999999V0200901N002612200019N0500001N1+02591+01871101491ADDAA199000091GF101991011011008001001001KA1240N+01921MA1999999098111MD1999999+0061REMSYN076AAXX  24124 82583 32599 10905 10259 20187 39811 40149 81100 333 20192 58006;EQDQ01  00002PRCP99
0167825830999992000072418004-05170-040670FM-12+029999999V0200901N003111050019N0500001N1+03321+01481100941ADDAA199000091GF106991041021008001001021MA1999999097581MD1999999-0011REMSYN070AAXX  24184 82583 32599 60906 10332 20148 39758 40094 84202 333 59001;EQDQ01  00002PRCP99
0196825830999992000072500004-05170-040670FM-12+029999999V0203601N001512200019N0040001N1+02731+01641101131ADDAA199000091GA1001+999999999GF100991001001999999001001KA1240M+03441MA1999999097771MD1999999-0101REMSYN070AAXX  25004 82583 32996 03603 10273 20164 39777 40113 333 10344 59010;EQDQ01  00002PRCP99
0186825830999992000072512004-05170-040670FM-12+029999999V0200901N002110450019N0500001N1+02581+02011101501ADDAA199000091GF107991041021008001031001KA1240N+02081MA1999999097811MD1999999+0011REMSYN076AAXX  25124 82583 32599 70904 10258 20201 39781 40150 84230 333 20208 58001;EQDQ01  00002PRCP99
0167825830999992000072518004-05170-040670FM-12+029999999V0200501N002110075019N0500001N1+03441+01731101021ADDAA199000091GF107991071021008001001001MA1999999097671MD1999999+0091REMSYN070AAXX  25184 82583 32599 70504 10344 20173 39767 40102 87200 333 58009;EQDQ01  00002PRCP99
0186825830999992000072600004-05170-040670FM-12+029999999V0200501N001012200019N0040001N1+02461+01901101301ADDAA199000091GF101991011011008001001001KA1240M+03451MA1999999097911MD1999999+0141REMSYN076AAXX  26004 82583 32596 10502 10246 20190 39791 40130 81100 333 10345 58014;EQDQ01  00002PRCP99
0186825830999992000072612004-05170-040670FM-12+029999999V0201401N003110075019N0500001N1+02611+02071101471ADDAA199000091GF106991051021008001031001KA1240N+02091MA1999999098081MD1999999-0041REMSYN076AAXX  26124 82583 32599 61406 10261 20207 39808 40147 85230 333 20209 59004;EQDQ01  00002PRCP99
0167825830999992000072618004-05170-040670FM-12+029999999V0200901N003610075019N0500001N1+03301+01751100951ADDAA199000091GF106991061021008001001001MA1999999097621MD1999999-0051REMSYN070AAXX  26184 82583 32599 60907 10330 20175 39762 40095 86200 333 59005;EQDQ01  00002PRCP99
0196825830999992000072700004-05170-040670FM-12+029999999V0201401N001012200019N0040001N1+02601+01761101161ADDAA199000091GA1001+999999999GF100991001001999999001001KA1240M+03431MA1999999097791MD1999999-0121REMSYN070AAXX  27004 82583 32996 01402 10260 20176 39779 40116 333 10343 59012;EQDQ01  00002PRCP99
0186825830999992000072712004-05170-040670FM-12+029999999V0201401N002110075019N0500001N1+02581+02101101421ADDAA199000091GF106991061021008001001001KA1240N+02201MA1999999098041MD1999999-0041REMSYN076AAXX  27124 82583 32599 61404 10258 20210 39804 40142 86200 333 20220 59004;EQDQ01  00002PRCP99
0167825830999992000072718004-05170-040670FM-12+029999999V0201401N003610075019N0500001N1+03231+01711100911ADDAA199000091GF105991051021008001001001MA1999999097571MD1999999-0051REMSYN070AAXX  27184 82583 32599 51407 10323 20171 39757 40091 85200 333 59005;EQDQ01  00002PRCP99
0186825830999992000072800004-05170-040670FM-12+029999999V0200901N001512200019N0040001N1+02601+02011101161ADDAA199000091GF101991011021008001001001KA1240M+03371MA1999999097791MD1999999+0001REMSYN076AAXX  28004 82583 32596 10903 10260 20201 39779 40116 81200 333 10337 58000;EQDQ01  00002PRCP99
0186825830999992000072812004-05170-040670FM-12+029999999V0201401N006212200019N0500001N1+02631+01451101521ADDAA199000091GF101991011041008001001001KA1240N+02111MA1999999098141MD1999999+0101REMSYN076AAXX  28124 82583 32599 11412 10263 20145 39814 40152 81400 333 20211 58010;EQDQ01  00002PRCP99
0167825830999992000072818004-05170-040670FM-12+029999999V0200901N003112200019N0500001N1+03241+01611101041ADDAA199000091GF102991021011008001001001MA1999999097691MD1999999+0121REMSYN070AAXX  28184 82583 32599 20906 10324 20161 39769 40104 82100 333 58012;EQDQ01  00002PRCP99
0196825830999992000072900004-05170-040670FM-12+029999999V0200901N002112200019N0040001N1+02301+01721101321ADDAA199000091GA1001+999999999GF100991001001999999001001KA1240M+03371MA1999999097931MD1999999+0141REMSYN070AAXX  29004 82583 32996 00904 10230 20172 39793 40132 333 10337 58014;EQDQ01  00002PRCP99
0201825830999992000072912004-05170-040670FM-12+029999999V0200901N006212200019N0500001N1+02611+01641101531ADDAA124000591AY161061AY261061GF102991021011008001001001KA1240N+01951MA1999999098131MD1999999-0011MW1021REMSYN088AAXX  29124 82583 21599 20912 10261 20164 39813 40153 70266 82100 333 20195 59001 69944;
0167825830999992000072918004-05170-040670FM-12+029999999V0200901N003612200019N0500001N1+03201+01341101071ADDAA199000091GF102991021011008001001001MA1999999097701MD1999999+0011REMSYN070AAXX  29184 82583 32599 20907 10320 20134 39770 40107 82100 333 58001;EQDQ01  00002PRCP99
0196825830999992000073000004-05170-040670FM-12+029999999V0200901N003112200019N0040001N1+02481+01401101271ADDAA199000091GA1001+999999999GF100991001001999999001001KA1240M+03271MA1999999097891MD1999999-0041REMSYN070AAXX  30004 82583 32996 00906 10248 20140 39789 40127 333 10327 59004;EQDQ01  00002PRCP99
0186825830999992000073012004-05170-040670FM-12+029999999V0200901N005112200019N0500001N1+02651+01501101411ADDAA199000091GF101991011011008001001001KA1240N+01781MA1999999098031MD1999999-0101REMSYN076AAXX  30124 82583 32599 10910 10265 20150 39803 40141 81100 333 20178 59010;EQDQ01  00002PRCP99
0167825830999992000073018004-05170-040670FM-12+029999999V0200901N005112200019N0500001N1+03381+01381101031ADDAA199000091GF102991021011008001001001MA1999999097671MD1999999-0031REMSYN070AAXX  30184 82583 32599 20910 10338 20138 39767 40103 82100 333 59003;EQDQ01  00002PRCP99
0202825830999992000073100004-05170-040670FM-12+029999999V0200901N001512200019N0040001N1+03611+01531101191ADDAA199000091GF102991021011008001001001KA1240M+99999MA1999999097831MD1999999-0061REMSYN076AAXX  31004 82583 32596 20903 10361 20153 39783 40119 82100 333 10340 59006;EQDQ01  00002PRCP99Q02 +03402ATMX  
0186825830999992000073112004-05170-040670FM-12+029999999V0201401N004612200019N0500001N1+02751+01621101371ADDAA199000091GF102991011011008001001011KA1240N+02011MA1999999098001MD1999999-0031REMSYN076AAXX  31124 82583 32599 21409 10275 20162 39800 40137 81101 333 20201 59003;EQDQ01  00002PRCP99
0167825830999992000073118004-05170-040670FM-12+029999999V0200901N004612200019N0500001N1+03381+01531100901ADDAA199000091GF102991021011008001001001MA1999999097821MD1999999-0111REMSYN070AAXX  31184 82583 32599 20909 10338 20153 39782 40090 82100 333 59011;EQDQ01  00002PRCP99
0196825830999992000080100004-05170-040670FM-12+029999999V0201401N002612200019N0040001N1+02651+01681101211ADDAA199000091GA1001+999999999GF100991001001999999001001KA1240M+03471MA1999999097851MD1999999+0021REMSYN070AAXX  01004 82583 32596 01405 10265 20168 39785 40121 333 10347 58002;EQDQ01  00002PRCP99
0186825830999992000080112004-05170-040670FM-12+029999999V0201401N004612200019N0500001N1+02741+01841101381ADDAA199000091GF103991031021008001001001KA1240N+02201MA1999999098011MD1999999+0011REMSYN076AAXX  01124 82583 32599 31409 10274 20184 39801 40138 83200 333 20220 58001;EQDQ01  00002PRCP99
0167825830999992000080118004-05170-040670FM-12+029999999V0200901N003110075019N0500001N1+03131+01731101021ADDAA199000091GF105991051021008001001001MA1999999097661MD1999999-0161REMSYN070AAXX  01184 82583 32599 50906 10313 20173 39766 40102 85200 333 59016;EQDQ01  00002PRCP99
0186825830999992000080200004-05170-040670FM-12+029999999V0201401N006710075019N0040001N1+02771+01731101281ADDAA199000091GF106991061021008001001001KA1240M+03001MA1999999097921MD1999999+0071REMSYN076AAXX  02004 82583 32596 61413 10277 20173 39792 40128 86200 333 10300 58007;EQDQ01  00002PRCP99
0201825830999992000080212004-05170-040670FM-12+029999999V0200901N004610075019N0500001N1+02191+02131101611ADDAA124001091AY121061AY221061GF108991081051008001999999KA1240N+02101MA1999999098211MD1999999+0201MW1211REMSYN088AAXX  02124 82583 21599 80909 10219 20213 39821 40161 72122 885// 333 20210 58020 60014;
0182825830999992000080218004-05170-040670FM-12+029999999V0200901N005110075019N0500001N1+02951+01811101251ADDAA106000591AY161061AY261061GF106991061021008001001001MA1999999097871MD1999999+0211MW1021REMSYN082AAXX  02184 82583 21599 60910 10295 20181 39787 40125 70266 86200 333 58021 69941;
0177825830999992000080300004-05170-040670FM-12+029999999V0200901N000512200019N0040001N1+02431+01791101411ADDAA199000021GA1001+999999999GF100991001001999999001001KA1240M+03001MA1999999098011MD1999999+0091REMSYN070AAXX  03004 82583 32596 00901 10243 20179 39801 40141 333 10300 58009;
0173825830999992000080312004-05170-040670FM-12+029999999V0200901N005112200019N0500001N1+02561+01931101611ADDAA124000591GF104991031021008001031001KA1240N+02091MA1999999098211MD1999999+0001REMSYN082AAXX  03124 82583 22599 40910 10256 20193 39821 40161 83230 333 20209 58000 69944;
0167825830999992000080318004-05170-040670FM-12+029999999V0201401N002110075019N0500001N1+03211+01771101151ADDAA199000091GF107991071021008001001001MA1999999097781MD1999999-0091REMSYN070AAXX  03184 82583 32599 71404 10321 20177 39778 40115 87200 333 59009;EQDQ01  00002PRCP99
0186825830999992000080400004-05170-040670FM-12+029999999V0200501N001512200019N0040001N1+02581+01801101371ADDAA199000091GF101991011011008001001001KA1240M+03271MA1999999097991MD1999999-0021REMSYN076AAXX  04004 82583 32596 10503 10258 20180 39799 40137 81100 333 10327 59002;EQDQ01  00002PRCP99
0186825830999992000080412004-05170-040670FM-12+029999999V0200901N004610075019N0500001N1+02671+01991101511ADDAA199000091GF105991051011008001001001KA1240N+01971MA1999999098131MD1999999-0081REMSYN076AAXX  04124 82583 32599 50909 10267 20199 39813 40151 85100 333 20197 59008;EQDQ01  00002PRCP99
0196825830999992000080500004-05170-040670FM-12+029999999V0200901N002112200019N0040001N1+02691+01721101251ADDAA199000091GA1001+999999999GF100991001001999999001001KA1240M+03331MA1999999097891MD1999999-0101REMSYN070AAXX  05004 82583 32996 00904 10269 20172 39789 40125 333 10333 59010;EQDQ01  00002PRCP99
0186825830999992000080512004-05170-040670FM-12+029999999V0200901N004110075019N0500001N1+02651+02021101461ADDAA199000091GF106991051021008001001011KA1240N+02051MA1999999098081MD1999999-0051REMSYN076AAXX  05124 82583 32599 60908 10265 20202 39808 40146 85201 333 20205 59005;EQDQ01  00002PRCP99
0167825830999992000080518004-05170-040670FM-12+029999999V0200901N003112200019N0500001N1+03371+01661101061ADDAA199000091GF102991021011008001001001MA1999999097701MD1999999+0011REMSYN070AAXX  05184 82583 32599 20906 10337 20166 39770 40106 82100 333 58001;EQDQ01  00002PRCP99
0196825830999992000080600004-05170-040670FM-12+029999999V0200901N001512200019N0040001N1+02651+01681101261ADDAA199000091GA1001+999999999GF100991001001999999001001KA1240M+03421MA1999999097891MD1999999+0001REMSYN070AAXX  06004 82583 32996 00903 10265 20168 39789 40126 333 10342 58000;EQDQ01  00002PRCP99
0201825830999992000080612004-05170-040670FM-12+029999999V0200901N003110120019N0500001N1+02321+02131101621ADDAA124009991AY161061AY261061GF108991081081008001999999KA1240N+02061MA1999999098251MD1999999+0171MW1021REMSYN088AAXX  06124 82583 21599 80906 10232 20213 39825 40162 70266 888// 333 20206 58017 60104;
0183825830999992000080618004-05170-040670FM-12+029999999V0200901N002619999999N0500001N1+02961+01871101241ADDAA199000091GF106991999011008001001001MA1999999097881MD1999999+0151REMSYN070AAXX  06184 82583 32599 60905 10296 20187 39788 40124 82100 333 58015;EQDQ01+000022SCOTLCQ02  00002PRCP99
0186825830999992000080700004-05170-040670FM-12+029999999V0200901N002110120019N0040001N1+02571+02011101481ADDAA199000091GF108991081081008001999999KA1240M+03031MA1999999098081MD1999999+0191REMSYN076AAXX  07004 82583 32596 80904 10257 20201 39808 40148 888// 333 10303 58019;EQDQ01  00002PRCP99
0186825830999992000080712004-05170-040670FM-12+029999999V0200901N004110075019N0500001N1+02581+01971101551ADDAA199000091GF106991061021008001001001KA1240N+02171MA1999999098161MD1999999-0091REMSYN076AAXX  07124 82583 32599 60908 10258 20197 39816 40155 86200 333 20217 59009;EQDQ01  00002PRCP99
0167825830999992000080718004-05170-040670FM-12+029999999V0200901N005112200019N0500001N1+03211+01691101101ADDAA199000091GF102991021011008001001001MA1999999097741MD1999999-0141REMSYN070AAXX  07184 82583 32599 20910 10321 20169 39774 40110 82100 333 59014;EQDQ01  00002PRCP99
0186825830999992000080800004-05170-040670FM-12+029999999V0200901N003110075019N0040001N1+02721+01881101371ADDAA199000091GF107991071051008001001001KA1240M+03291MA1999999097991MD1999999-0081REMSYN076AAXX  08004 82583 32596 70906 10272 20188 39799 40137 87500 333 10329 59008;EQDQ01  00002PRCP99
0186825830999992000080812004-05170-040670FM-12+029999999V0200501N002610075019N0500001N1+02641+01981101581ADDAA199000091GF105991051021008001001001KA1240N+02111MA1999999098201MD1999999+0041REMSYN076AAXX  08124 82583 32599 50505 10264 20198 39820 40158 85200 333 20211 58004;EQDQ01  00002PRCP99
0167825830999992000080818004-05170-040670FM-12+029999999V0200501N003112200019N0500001N1+03231+01441101141ADDAA199000091GF103991031011008001001001MA1999999097781MD1999999+0041REMSYN070AAXX  08184 82583 32599 30506 10323 20144 39778 40114 83100 333 58004;EQDQ01  00002PRCP99
0186825830999992000080900004-05170-040670FM-12+029999999V0200501N004610120019N0040001N1+02571+01691101551ADDAA199000091GF108991081081008001999999KA1240M+03331MA1999999098161MD1999999+0171REMSYN076AAXX  09004 82583 32596 80509 10257 20169 39816 40155 888// 333 10333 58017;EQDQ01  00002PRCP99
0202825830999992000080912004-05170-040670FM-12+029999999V0200501N002119999999N0500001N1+02611+02031101621ADDAA199000091GF106991999021008001001001KA1240N+02091MA1999999098231MD1999999+0031REMSYN076AAXX  09124 82583 32599 60504 10261 20203 39823 40162 88200 333 20209 58003;EQDQ01+000082SCOTLCQ02  00002PRCP99
0167825830999992000080918004-05170-040670FM-12+029999999V0201401N002112200019N0500001N1+03101+01661101221ADDAA199000091GF102991021011008001001001MA1999999097861MD1999999+0081REMSYN070AAXX  09184 82583 32599 21404 10310 20166 39786 40122 82100 333 58008;EQDQ01  00002PRCP99
0201825830999992000081000004-05170-040670FM-12+029999999V0201401N003110120019N0040001N1+02271+02191101641ADDAA106000591AY161061AY261061GF108991081081008001999999KA1240M+03261MA1999999098241MD1999999+0081MW1021REMSYN088AAXX  10004 82583 21596 81406 10227 20219 39824 40164 70266 888// 333 10326 58008 69941;
0201825830999992000081012004-05170-040670FM-12+029999999V0201401N002610075019N0500001N1+02571+02041101721ADDAA124001091AY161061AY261061GF106991051021008001001011KA1240N+02101MA1999999098311MD1999999+0081MW1021REMSYN088AAXX  10124 82583 21599 61405 10257 20204 39831 40172 70266 85201 333 20210 58008 60014;
0167825830999992000081018004-05170-040670FM-12+029999999V0200901N005112200019N0500001N1+03411+01201101251ADDAA199000091GF102991011011012501031001MA1999999097891MD1999999+0031REMSYN070AAXX  10184 82583 32699 20910 10341 20120 39789 40125 81130 333 58003;EQDQ01  00002PRCP99
0196825830999992000081100004-05170-040670FM-12+029999999V0200501N002112200019N0040001N1+02561+01381101551ADDAA199000091GA1001+999999999GF100991001001999999001001KA1240M+03481MA1999999098161MD1999999+0081REMSYN070AAXX  11004 82583 32596 00504 10256 20138 39816 40155 333 10348 58008;EQDQ01  00002PRCP99
0186825830999992000081112004-05170-040670FM-12+029999999V0200901N005112200019N0500001N1+02751+01831101651ADDAA199000091GF101991011011008001001001KA1240N+01991MA1999999098271MD1999999-0041REMSYN076AAXX  11124 82583 32599 10910 10275 20183 39827 40165 81100 333 20199 59004;EQDQ01  00002PRCP99
0167825830999992000081118004-05170-040670FM-12+029999999V0200901N005112200019N0500001N1+02841+01701101221ADDAA199000091GF101991011011008001001001MA1999999097831MD1999999-0061REMSYN070AAXX  11184 82583 32599 10910 10284 20170 39783 40122 81100 333 59006;EQDQ01  00002PRCP99
0196825830999992000081200004-05170-040670FM-12+029999999V0200901N001012200019N0040001N1+02601+01571101401ADDAA199000091GA1001+999999999GF100991001001999999001001KA1240M+03381MA1999999098031MD1999999-0131REMSYN070AAXX  12004 82583 32596 00902 10260 20157 39803 40140 333 10338 59013;EQDQ01  00002PRCP99
0186825830999992000081212004-05170-040670FM-12+029999999V0200901N002612200019N0500001N1+02641+01901101601ADDAA199000091GF102991021011008001001001KA1240N+01951MA1999999098211MD1999999-0061REMSYN076AAXX  12124 82583 32599 20905 10264 20190 39821 40160 82100 333 20195 59006;EQDQ01  00002PRCP99
0167825830999992000081218004-05170-040670FM-12+029999999V0200901N003112200019N0500001N1+03411+01451101041ADDAA199000091GF102991021011008001001001MA1999999097681MD1999999-0131REMSYN070AAXX  12184 82583 32599 20906 10341 20145 39768 40104 82100 333 59013;EQDQ01  00002PRCP99
0186825830999992000081300004-05170-040670FM-12+029999999V0200901N002612200019N0040001N1+02701+01661101221ADDAA199000091GF101991011011008001001001KA1240M+03471MA1999999097861MD1999999-0171REMSYN076AAXX  13004 82583 32596 10905 10270 20166 39786 40122 81100 333 10347 59017;EQDQ01  00002PRCP99
0186825830999992000081312004-05170-040670FM-12+029999999V0200901N005112200019N0500001N1+02701+01831101611ADDAA199000091GF102991021011008001001001KA1240N+02061MA1999999098231MD1999999+0021REMSYN076AAXX  13124 82583 32599 20910 10270 20183 39823 40161 82100 333 20206 58002;EQDQ01  00002PRCP99
0167825830999992000081318004-05170-040670FM-12+029999999V0200901N004112200019N0500001N1+03321+01481101091ADDAA199000091GF102991021011008001001001MA1999999097771MD1999999+0091REMSYN070AAXX  13184 82583 32599 20908 10332 20148 39777 40109 82100 333 58009;EQDQ01  00002PRCP99
0196825830999992000081400004-05170-040670FM-12+029999999V0200901N002112200019N0040001N1+02641+01541101381ADDAA199000091GA1001+999999999GF100991001001999999001001KA1240M+03431MA1999999098011MD1999999+0151REMSYN070AAXX  14004 82583 32996 00904 10264 20154 39801 40138 333 10343 58015;EQDQ01  00002PRCP99
0186825830999992000081412004-05170-040670FM-12+029999999V0201401N006212200019N0500001N1+02791+01781101691ADDAA199000091GF101991011011008001001001KA1240N+02111MA1999999098211MD1999999+0081REMSYN076AAXX  14124 82583 32599 11412 10279 20178 39821 40169 81100 333 20211 58008;EQDQ01  00002PRCP99
0167825830999992000081418004-05170-040670FM-12+029999999V0200901N005712200019N0500001N1+03291+01641101241ADDAA199000091GF102991021011008001001001MA1999999097891MD1999999+0121REMSYN070AAXX  14184 82583 32599 20911 10329 20164 39789 40124 82100 333 58012;EQDQ01  00002PRCP99
0186825830999992000081500004-05170-040670FM-12+029999999V0201401N002612200019N0040001N1+02701+01751101651ADDAA199000091GF101991011011008001001001KA1240M+03351MA1999999098181MD1999999+0171REMSYN076AAXX  15004 82583 32596 11405 10270 20175 39818 40165 81100 333 10335 58017;EQDQ01  00002PRCP99
0186825830999992000081512004-05170-040670FM-12+029999999V0201401N005112200019N0500001N1+02661+01561101731ADDAA199000091GF101991011011008001001001KA1240N+02101MA1999999098351MD1999999+0041REMSYN076AAXX  15124 82583 32599 11410 10266 20156 39835 40173 81100 333 20210 58004;EQDQ01  00002PRCP99
0167825830999992000081518004-05170-040670FM-12+029999999V0201801N002112200019N0500001N1+03251+01561101161ADDAA199000091GF102991021011008001001001MA1999999097801MD1999999-0091REMSYN070AAXX  15184 82583 32599 21804 10325 20156 39780 40116 82100 333 59009;EQDQ01  00002PRCP99
0196825830999992000081600004-05170-040670FM-12+029999999V0200901N001012200019N0040001N1+02691+01541101361ADDAA199000091GA1001+999999999GF100991001001999999001001KA1240M+03411MA1999999097991MD1999999-0191REMSYN070AAXX  16004 82583 32996 00902 10269 20154 39799 40136 333 10341 59019;EQDQ01  00002PRCP99
0186825830999992000081612004-05170-040670FM-12+029999999V0200901N005112200019N0500001N1+02681+01491101691ADDAA199000091GF101991011011008001001001KA1240N+01891MA1999999098311MD1999999-0041REMSYN076AAXX  16124 82583 32599 10910 10268 20149 39831 40169 81100 333 20189 59004;EQDQ01  00002PRCP99
0167825830999992000081618004-05170-040670FM-12+029999999V0200901N002112200019N0500001N1+03281+01341101181ADDAA199000091GF102991011011008001001011MA1999999097821MD1999999+0021REMSYN070AAXX  16184 82583 32599 20904 10328 20134 39782 40118 81101 333 58002;EQDQ01  00002PRCP99
0186825830999992000081712004-05170-040670FM-12+029999999V0200901N003612200019N0500001N1+02661+01771101561ADDAA199000091GF102991021011008001001001KA1240N+02021MA1999999098181MD1999999-0131REMSYN076AAXX  17124 82583 32599 20907 10266 20177 39818 40156 82100 333 20202 59013;EQDQ01  00002PRCP99
0167825830999992000081718004-05170-040670FM-12+029999999V0200901N002612200019N0500001N1+03331+01241101061ADDAA199000091GF102991011011008001001011MA1999999097701MD1999999-0121REMSYN070AAXX  17184 82583 32599 20905 10333 20124 39770 40106 81101 333 59012;EQDQ01  00002PRCP99
0186825830999992000081800004-05170-040670FM-12+029999999V0200501N002112200019N0040001N1+02701+01341101301ADDAA199000091GF101991011011008001001001KA1240M+03401MA1999999097941MD1999999-0121REMSYN076AAXX  18004 82583 32596 10504 10270 20134 39794 40130 81100 333 10340 59012;EQDQ01  00002PRCP99
0186825830999992000081812004-05170-040670FM-12+029999999V0200901N004610075019N0500001N1+02651+01851101581ADDAA199000091GF105991051021008001001001KA1240N+02071MA1999999098201MD1999999+0021REMSYN076AAXX  18124 82583 32599 50909 10265 20185 39820 40158 85200 333 20207 58002;EQDQ01  00002PRCP99
0167825830999992000081818004-05170-040670FM-12+029999999V0201401N003612200019N0500001N1+03021+01831101091ADDAA199000091GF102991021011008001001001MA1999999097721MD1999999+0021REMSYN070AAXX  18184 82583 32599 21407 10302 20183 39772 40109 82100 333 58002;EQDQ01  00002PRCP99
0196825830999992000081900004-05170-040670FM-12+029999999V0200501N003112200019N0040001N1+02801+01431101231ADDAA199000091GA1001+999999999GF100991001001999999001001KA1240M+03471MA1999999097871MD1999999-0071REMSYN070AAXX  19004 82583 32996 00506 10280 20143 39787 40123 333 10347 59007;EQDQ01  00002PRCP99
0186825830999992000081912004-05170-040670FM-12+029999999V0200901N005112200019N0500001N1+02821+01971101491ADDAA199000091GF104991041011008001001001KA1240N+02251MA1999999098831MD1999999-0071REMSYN076AAXX  19124 82583 32599 40910 10282 20197 39883 40149 84100 333 20225 59007;EQDQ01  00002PRCP99
0183825830999992000081918004-05170-040670FM-12+029999999V0200901N005112200019N0500001N1+03431+01481101051ADDAA199000091GF102991021011008001001001MA1999999097712MD1999999-0011REMSYN070AAXX  19184 82583 32599 20910 10343 20148 39771 40105 82100 333 59001;EQDQ01+097713APOSP Q02  00002PRCP99
0186825830999992000082000004-05170-040670FM-12+029999999V0200901N002112200019N0040001N1+02811+01251101281ADDAA199000091GF101991011011008001001001KA1240M+03491MA1999999097931MD1999999+0061REMSYN076AAXX  20004 82583 32596 10904 10281 20125 39793 40128 81100 333 10349 58006;EQDQ01  00002PRCP99
0202825830999992000082012004-05170-040670FM-12+029999999V0200901N005119999999N0040001N1+02651+01901101691ADDAA199000091GF106991999011008001001001KA1240N+02241MA1999999098311MD1999999+0151REMSYN076AAXX  20124 82583 32596 60910 10265 20190 39831 40169 82100 333 20224 58015;EQDQ01+000022SCOTLCQ02  00002PRCP99
0183825830999992000082018004-05170-040670FM-12+029999999V0200901N003112200019N0040001N1+03101+01651101211ADDAA199000091GF103991999011008001001001MA1999999097861MD1999999+0151REMSYN070AAXX  20184 82583 32596 30906 10310 20165 39786 40121 82100 333 58015;EQDQ01+000022SCOTLCQ02  00002PRCP99
0186825830999992000082112004-05170-040670FM-12+029999999V0200901N004610120019N0500001N1+02641+01831101661ADDAA199000091GF107991071081008001001001KA1240N+02231MA1999999098281MD1999999-0031REMSYN076AAXX  21124 82583 32599 70909 10264 20183 39828 40166 87800 333 20223 59003;EQDQ01  00002PRCP99
0167825830999992000082118004-05170-040670FM-12+029999999V0200901N003112200019N0500001N1+03371+01481101161ADDAA199000091GF102991021011008001001001MA1999999097821MD1999999-0041REMSYN070AAXX  21184 82583 32599 20906 10337 20148 39782 40116 82100 333 59004;EQDQ01  00002PRCP99
0186825830999992000082212004-05170-040670FM-12+029999999V0200901N006712200019N0500001N1+02881+01501101451ADDAA199000091GF101991011011012501001001KA1240N+02231MA1999999098101MD1999999-0181REMSYN076AAXX  22124 82583 32699 10913 10288 20150 39810 40145 81100 333 20223 59018;EQDQ01  00002PRCP99
0167825830999992000082218004-05170-040670FM-12+029999999V0200901N004612200019N0500001N1+03411+01411100981ADDAA199000091GF102991011011008001001021MA1999999097641MD1999999-0181REMSYN070AAXX  22184 82583 32599 20909 10341 20141 39764 40098 81102 333 59018;EQDQ01  00002PRCP99
0196825830999992000082300004-05170-040670FM-12+029999999V0200501N003112200019N0040001N1+02791+01461101211ADDAA199000091GA1001+999999999GF100991001001999999001001KA1240M+03481MA1999999097871MD1999999-0111REMSYN070AAXX  23004 82583 32996 00506 10279 20146 39787 40121 333 10348 59011;EQDQ01  00002PRCP99
0186825830999992000082312004-05170-040670FM-12+029999999V0200901N003610075019N0500001N1+02641+01831101591ADDAA199000091GF106991061021008001001001KA1240N+02151MA1999999098211MD1999999+0111REMSYN076AAXX  23124 82583 32599 60907 10264 20183 39821 40159 86200 333 20215 58011;EQDQ01  00002PRCP99
0167825830999992000082318004-05170-040670FM-12+029999999V0200901N002112200019N0500001N1+03401+01401101061ADDAA199000091GF102991011011008001001011MA1999999097721MD1999999+0081REMSYN070AAXX  23184 82583 32599 20904 10340 20140 39772 40106 81101 333 58008;EQDQ01  00002PRCP99
0196825830999992000082400004-05170-040670FM-12+029999999V0200901N002112200019N0040001N1+02731+01341101281ADDAA199000091GA1001+999999999GF100991001001999999001001KA1240M+03451MA1999999097921MD1999999+0051REMSYN070AAXX  24004 82583 32996 00904 10273 20134 39792 40128 333 10345 58005;EQDQ01  00002PRCP99
0186825830999992000082412004-05170-040670FM-12+029999999V0200901N004610075019N0500001N1+02741+01781101531ADDAA199000091GF106991051021008001031001KA1240N+02201MA1999999098161MD1999999-0051REMSYN076AAXX  24124 82583 32599 60909 10274 20178 39816 40153 85230 333 20220 59005;EQDQ01  00002PRCP99
0167825830999992000082418004-05170-040670FM-12+029999999V0200901N004610120019N0500001N1+03191+01591101081ADDAA199000091GF107991071081008001001001MA1999999097721MD1999999+0001REMSYN070AAXX  24184 82583 32599 70909 10319 20159 39772 40108 87800 333 58000;EQDQ01  00002PRCP99
0186825830999992000082500004-05170-040670FM-12+029999999V0200501N002112200019N0040001N1+02701+01861101361ADDAA199000091GF101991011011008001001001KA1240M+03301MA1999999097991MD1999999+0071REMSYN076AAXX  25004 82583 32596 10504 10270 20186 39799 40136 81100 333 10330 58007;EQDQ01  00002PRCP99
0186825830999992000082512004-05170-040670FM-12+029999999V0200901N006210075019N0500001N1+02581+01851101571ADDAA199000091GF107991071051008001001001KA1240N+02391MA1999999098191MD1999999+0031REMSYN076AAXX  25124 82583 32599 70912 10258 20185 39819 40157 87500 333 20239 58003;EQDQ01  00002PRCP99
0167825830999992000082518004-05170-040670FM-12+029999999V0200901N005712200019N0500001N1+03291+01591101041ADDAA199000091GF102991021011008001001001MA1999999097681MD1999999-0041REMSYN070AAXX  25184 82583 32599 20911 10329 20159 39768 40104 82100 333 59004;EQDQ01  00002PRCP99
0196825830999992000082600004-05170-040670FM-12+029999999V0200501N002112200019N0040001N1+02671+01641101271ADDAA199000091GA1001+999999999GF100991001001999999001001KA1240M+03321MA1999999097891MD1999999-0101REMSYN070AAXX  26004 82583 32996 00504 10267 20164 39789 40127 333 10332 59010;EQDQ01  00002PRCP99
0180825830999992000082612004-05170-040670FM-12+029999999V0200901N007212200019N0020001N1+02821+01551101341ADDAA199000091GF101991999999999999999999KA1240N+02121MA1999999097981MD1999999-0211REMSYN070AAXX  26124 82583 32995 10914 10282 20155 39798 40134 333 20212 59021;EQDQ01  00002PRCP99
0167825830999992000082618004-05170-040670FM-12+029999999V0200901N006712200019N0500001N1+03121+01651100971ADDAA199000091GF103991031011008001001001MA1999999097621MD1999999-0061REMSYN070AAXX  26184 82583 32599 30913 10312 20165 39762 40097 83100 333 59006;EQDQ01  00002PRCP99
0196825830999992000082700004-05170-040670FM-12+029999999V0200501N001512200019N9999999N1+02621+01701101151ADDAA199000091GA1001+999999999GF100991001001999999001001KA1240M+03331MA1999999097791MD1999999-0101REMSYN070AAXX  27004 82583 329// 00503 10262 20170 39779 40115 333 10333 59010;EQDQ01  00002PRCP99
0186825830999992000082712004-05170-040670FM-12+029999999V0200901N005112200019N0500001N1+02751+01801101331ADDAA199000091GF102991021011008001001001KA1240N+02091MA1999999097961MD1999999-0021REMSYN076AAXX  27124 82583 32599 20910 10275 20180 39796 40133 82100 333 20209 59002;EQDQ01  00002PRCP99
0167825830999992000082718004-05170-040670FM-12+029999999V0201401N002612200019N0500001N1+03421+01311100741ADDAA199000091GF101991011011012501001001MA1999999097401MD1999999-0221REMSYN070AAXX  27184 82583 32699 11405 10342 20131 39740 40074 81100 333 59022;EQDQ01  00002PRCP99
0196825830999992000082800004-05170-040670FM-12+029999999V0200901N002612200019N0040001N1+02721+01281101051ADDAA199000091GA1001+999999999GF100991001001999999001001KA1240M+03451MA1999999097691MD1999999-0101REMSYN070AAXX  28004 82583 32996 00905 10272 20128 39769 40105 333 10345 59010;EQDQ01  00002PRCP99
0186825830999992000082812004-05170-040670FM-12+029999999V0200901N004110075019N0500001N1+02631+01901101281ADDAA199000091GF106991061021008001001001KA1240N+02111MA1999999097921MD1999999-0041REMSYN076AAXX  28124 82583 32599 60908 10263 20190 39792 40128 86200 333 20211 59004;EQDQ01  00002PRCP99
0196825830999992000082900004-05170-040670FM-12+029999999V0200901N003112200019N0040001N1+02851+01681101211ADDAA199000091GA1001+999999999GF100991001001999999001001KA1240M+03521MA1999999097761MD1999999+0071REMSYN070AAXX  29004 82583 32996 00906 10285 20168 39776 40121 333 10352 58007;EQDQ01  00002PRCP99
0186825830999992000082912004-05170-040670FM-12+029999999V0200901N004612200019N0500001N1+02831+01851101431ADDAA199000091GF102991021011008001001001KA1240N+02131MA1999999098071MD1999999+0151REMSYN076AAXX  29124 82583 32599 20909 10283 20185 39807 40143 82100 333 20213 58015;EQDQ01  00002PRCP99
0167825830999992000082918004-05170-040670FM-12+029999999V0200901N004612200019N0500001N1+03481+01361100891ADDAA199000091GF102991021011008001001001MA1999999097561MD1999999+0111REMSYN070AAXX  29184 82583 32599 20909 10348 20136 39756 40089 82100 333 58011;EQDQ01  00002PRCP99
0196825830999992000083000004-05170-040670FM-12+029999999V0200501N001512200019N0040001N1+02771+01411101191ADDAA199000091GA1001+999999999GF100991001001999999001001KA1240M+03601MA1999999097841MD1999999+0081REMSYN070AAXX  30004 82583 32996 00503 10277 20141 39784 40119 333 10360 58008;EQDQ01  00002PRCP99
0186825830999992000083012004-05170-040670FM-12+029999999V0200901N004110075019N0500001N1+02631+01881101621ADDAA199000091GF108991081051008001999999KA1240N+02341MA1999999098241MD1999999+0171REMSYN076AAXX  30124 82583 32599 80908 10263 20188 39824 40162 885// 333 20234 58017;EQDQ01  00002PRCP99
0167825830999992000083018004-05170-040670FM-12+029999999V0200901N004612200019N0500001N1+03471+01411100961ADDAA199000091GF102991021011008001001001MA1999999097641MD1999999+0081REMSYN070AAXX  30184 82583 32599 20909 10347 20141 39764 40096 82100 333 58008;EQDQ01  00002PRCP99
0186825830999992000083100004-05170-040670FM-12+029999999V0200901N001512200019N0040001N1+02861+01481101191ADDAA199000091GF101991011011008001001001KA1240M+03511MA1999999097831MD1999999-0011REMSYN076AAXX  31004 82583 32596 10903 10286 20148 39783 40119 81100 333 10351 59001;EQDQ01  00002PRCP99
0186825830999992000083112004-05170-040670FM-12+029999999V0200901N005112200019N0500001N1+02921+01921101301ADDAA199000091GF102991011011008001001011KA1240N+02361MA1999999097951MD1999999-0291REMSYN076AAXX  31124 82583 32599 20910 10292 20192 39795 40130 81101 333 20236 59029;EQDQ01  00002PRCP99
0167825830999992000083118004-05170-040670FM-12+029999999V0200901N003112200019N0500001N1+03381+01431100841ADDAA199000091GF102991021011008001001001MA1999999097511MD1999999-0131REMSYN070AAXX  31184 82583 32599 20906 10338 20143 39751 40084 82100 333 59013;EQDQ01  00002PRCP99
0196825830999992000090100004-05170-040670FM-12+029999999V0200501N002612200019N0040001N1+02771+01371101111ADDAA199000091GA1001+999999999GF100991001001999999001001KA1240M+03481MA1999999097771MD1999999-0061REMSYN070AAXX  01004 82583 32996 00505 10277 20137 39777 40111 333 10348 59006;EQDQ01  00002PRCP99
0186825830999992000090112004-05170-040670FM-12+029999999V0200901N004612200019N0500001N1+02841+01631101321ADDAA199000091GF102991021011008001001001KA1240N+02081MA1999999097961MD1999999+0011REMSYN076AAXX  01124 82583 32599 20909 10284 20163 39796 40132 82100 333 20208 58001;EQDQ01  00002PRCP99
0167825830999992000090118004-05170-040670FM-12+029999999V0200901N002612200019N0500001N1+03391+01061100811ADDAA199000091GF102991011011008001001011MA1999999097481MD1999999-0031REMSYN070AAXX  01184 82583 32599 20905 10339 20106 39748 40081 81101 333 59003;EQDQ01  00002PRCP99
0196825830999992000090200004-05170-040670FM-12+029999999V0200501N002112200019N0040001N1+02711+01081101031ADDAA199000091GA1001+999999999GF100991001001999999001001KA1240M+03501MA1999999097681MD1999999-0091REMSYN070AAXX  02004 82583 32996 00504 10271 20108 39768 40103 333 10350 59009;EQDQ01  00002PRCP99
0186825830999992000090212004-05170-040670FM-12+029999999V0200901N004112200019N0500001N1+02721+01791101301ADDAA199000091GF102991021011008001001001KA1240N+02211MA1999999097941MD1999999-0021REMSYN076AAXX  02124 82583 32599 20908 10272 20179 39794 40130 82100 333 20221 59002;EQDQ01  00002PRCP99
0167825830999992000090218004-05170-040670FM-12+029999999V0200901N002112200019N0500001N1+03391+01541100841ADDAA199000091GF103991031021008001001001MA1999999097501MD1999999+0021REMSYN070AAXX  02184 82583 32599 30904 10339 20154 39750 40084 83200 333 58002;EQDQ01  00002PRCP99
0196825830999992000090300004-05170-040670FM-12+029999999V0200901N001512200019N0040001N1+02821+01411101011ADDAA199000091GA1001+999999999GF100991001001999999001001KA1240M+03501MA1999999097661MD1999999-0021REMSYN070AAXX  03004 82583 32996 00903 10282 20141 39766 40101 333 10350 59002;EQDQ01  00002PRCP99
0186825830999992000090312004-05170-040670FM-12+029999999V0200901N003110075019N0500001N1+02771+01851101311ADDAA199000091GF105991051021008001001001KA1240N+02281MA1999999097951MD1999999+0011REMSYN076AAXX  03124 82583 32599 50906 10277 20185 39795 40131 85200 333 20228 58001;EQDQ01  00002PRCP99
0167825830999992000090318004-05170-040670FM-12+029999999V0201401N002612200019N0500001N1+03331+01581100861ADDAA199000091GF102991021011008001001001MA1999999097521MD1999999+0021REMSYN070AAXX  03184 82583 32599 21405 10333 20158 39752 40086 82100 333 58002;EQDQ01  00002PRCP99
0196825830999992000090400004-05170-040670FM-12+029999999V0200901N001512200019N0040001N1+02861+01481101031ADDAA199000091GA1001+999999999GF100991001001999999001001KA1240M+03481MA1999999097681MD1999999+0021REMSYN070AAXX  04004 82583 32996 00903 10286 20148 39768 40103 333 10348 58002;EQDQ01  00002PRCP99
0186825830999992000090412004-05170-040670FM-12+029999999V0200501N003612200019N0500001N1+02831+01821101401ADDAA199000091GF102991021011008001001001KA1240N+02431MA1999999098041MD1999999+0091REMSYN076AAXX  04124 82583 32599 20507 10283 20182 39804 40140 82100 333 20243 58009;EQDQ01  00002PRCP99
0167825830999992000090418004-05170-040670FM-12+029999999V0200901N003112200019N0500001N1+03491+01631100841ADDAA199000091GF104991011011008001001011MA1999999097521MD1999999+0001REMSYN070AAXX  04184 82583 32599 40906 10349 20163 39752 40084 81101 333 58000;EQDQ01  00002PRCP99
0186825830999992000090512004-05170-040670FM-12+029999999V0200501N006210075019N0500001N1+02771+01931101411ADDAA199000091GF106991061021008001001001KA1240N+02371MA1999999098061MD1999999+0021REMSYN076AAXX  05124 82583 32599 60512 10277 20193 39806 40141 86200 333 20237 58002;EQDQ01  00002PRCP99
0167825830999992000090518004-05170-040670FM-12+029999999V0200901N004612200019N0500001N1+03421+01561100901ADDAA199000091GF103991031011008001001001MA1999999097571MD1999999+0051REMSYN070AAXX  05184 82583 32599 30909 10342 20156 39757 40090 83100 333 58005;EQDQ01  00002PRCP99
0196825830999992000090600004-05170-040670FM-12+029999999V0200901N001512200019N0040001N1+02771+01551101041ADDAA199000091GA1001+999999999GF100991001001999999001001KA1240M+03491MA1999999097701MD1999999+0001REMSYN070AAXX  06004 82583 32996 00903 10277 20155 39770 40104 333 10349 58000;EQDQ01  00002PRCP99
0186825830999992000090612004-05170-040670FM-12+029999999V0200901N002610075019N0500001N1+02681+01861101351ADDAA199000091GF106991061021008001001001KA1240N+02211MA1999999097991MD1999999-0071REMSYN076AAXX  06124 82583 32599 60905 10268 20186 39799 40135 86200 333 20221 59007;EQDQ01  00002PRCP99
0167825830999992000090618004-05170-040670FM-12+029999999V0200901N003112200019N0500001N1+03371+01571100861ADDAA199000091GF103991031021008001001001MA1999999097521MD1999999-0051REMSYN070AAXX  06184 82583 32599 30906 10337 20157 39752 40086 83200 333 59005;EQDQ01  00002PRCP99
0196825830999992000090700004-05170-040670FM-12+029999999V0200901N001012200019N9999999N1+02771+01611101011ADDAA199000091GA1001+999999999GF100991001001999999001001KA1240M+03431MA1999999097651MD1999999-0051REMSYN070AAXX  07004 82583 329// 00902 10277 20161 39765 40101 333 10343 59005;EQDQ01  00002PRCP99
0186825830999992000090712004-05170-040670FM-12+029999999V0200901N002610075019N0500001N1+02711+02031101331ADDAA199000091GF106991061021008001001001KA1240N+02381MA1999999097971MD1999999-0021REMSYN076AAXX  07124 82583 32599 60905 10271 20203 39797 40133 86200 333 20238 59002;EQDQ01  00002PRCP99
0167825830999992000090718004-05170-040670FM-12+029999999V0200901N002112200019N0500001N1+03491+01631100701ADDAA199000091GF103991031021008001001001MA1999999097371MD1999999-0151REMSYN070AAXX  07184 82583 32599 30904 10349 20163 39737 40070 83200 333 59015;EQDQ01  00002PRCP99
0196825830999992000090800004-05170-040670FM-12+029999999V0200901N002112200019N0040001N1+02901+01721100831ADDAA199000091GA1001+999999999GF100991001001999999001001KA1240M+03531MA1999999097491MD1999999-0161REMSYN070AAXX  08004 82583 32996 00904 10290 20172 39749 40083 333 10353 59016;EQDQ01  00002PRCP99
0167825830999992000090818004-05170-040670FM-12+029999999V0200501N001510075019N0500001N1+03441+01721100721ADDAA199000091GF106991061011008001001001MA1999999097401MD1999999+0031REMSYN070AAXX  08184 82583 32599 60503 10344 20172 39740 40072 86100 333 58003;EQDQ01  00002PRCP99
0186825830999992000090900004-05170-040670FM-12+029999999V0201801N001012200019N0040001N1+02901+01781100981ADDAA199000091GF103991031011008001001001KA1240M+03501MA1999999097641MD1999999+0151REMSYN076AAXX  09004 82583 32596 31802 10290 20178 39764 40098 83100 333 10350 58015;EQDQ01  00002PRCP99
0186825830999992000090912004-05170-040670FM-12+029999999V0200901N005110075019N0500001N1+02871+01971101211ADDAA199000091GF105991051021008001001001KA1240N+02431MA1999999097871MD1999999-0111REMSYN076AAXX  09124 82583 32599 50910 10287 20197 39787 40121 85200 333 20243 59011;EQDQ01  00002PRCP99
0167825830999992000090918004-05170-040670FM-12+029999999V0200501N003112200019N0500001N1+03491+01681100841ADDAA199000091GF103991031021008001001001MA1999999097521MD1999999+0121REMSYN070AAXX  09184 82583 32599 30506 10349 20168 39752 40084 83200 333 58012;EQDQ01  00002PRCP99
0196825830999992000091000004-05170-040670FM-12+029999999V0200901N001512200019N0040001N1+02851+01691101081ADDAA199000091GA1001+999999999GF100991001001999999001001KA1240M+03501MA1999999097741MD1999999+0111REMSYN070AAXX  10004 82583 32996 00903 10285 20169 39774 40108 333 10350 58011;EQDQ01  00002PRCP99
0186825830999992000091012004-05170-040670FM-12+029999999V0200901N005712200019N0500001N1+02931+01821101271ADDAA199000091GF102991021011008001001001KA1240N+02441MA1999999097931MD1999999+0061REMSYN076AAXX  10124 82583 32599 20911 10293 20182 39793 40127 82100 333 20244 58006;EQDQ01  00002PRCP99
0167825830999992000091018004-05170-040670FM-12+029999999V0200901N003612200019N0500001N1+03431+01531100821ADDAA199000091GF102991021011008001001001MA1999999097501MD1999999-0021REMSYN070AAXX  10184 82583 32599 20907 10343 20153 39750 40082 82100 333 59002;EQDQ01  00002PRCP99
0186825830999992000091100004-05170-040670FM-12+029999999V0200901N000512200019N0040001N1+02821+01611101071ADDAA199000091GF102991021011008001001001KA1240M+03501MA1999999097731MD1999999-0011REMSYN076AAXX  11004 82583 32596 20901 10282 20161 39773 40107 82100 333 10350 59001;EQDQ01  00002PRCP99
0186825830999992000091112004-05170-040670FM-12+029999999V0200901N004610075019N0500001N1+02601+01871101381ADDAA199000091GF107991071051008001001001KA1240N+02291MA1999999098011MD1999999+0081REMSYN076AAXX  11124 82583 32599 70909 10260 20187 39801 40138 87500 333 20229 58008;EQDQ01  00002PRCP99
0167825830999992000091118004-05170-040670FM-12+029999999V0200901N002610075019N0500001N1+03271+01781100851ADDAA199000091GF105991051021008001001001MA1999999097511MD1999999+0011REMSYN070AAXX  11184 82583 32599 50905 10327 20178 39751 40085 85200 333 58001;EQDQ01  00002PRCP99
0186825830999992000091200004-05170-040670FM-12+029999999V0200501N001512200019N0040001N1+02911+01571101071ADDAA199000091GF101991011011008001001001KA1240M+03361MA1999999097711MD1999999-0031REMSYN076AAXX  12004 82583 32596 10503 10291 20157 39771 40107 81100 333 10336 59003;EQDQ01  00002PRCP99
0186825830999992000091212004-05170-040670FM-12+029999999V0200901N004110075019N0500001N1+02721+02001101311ADDAA199000091GF106991061021008001001001KA1240N+02341MA1999999097951MD1999999-0061REMSYN076AAXX  12124 82583 32599 60908 10272 20200 39795 40131 86200 333 20234 59006;EQDQ01  00002PRCP99
0182825830999992000091218004-05170-040670FM-12+029999999V0200501N004610075019N0500001N1+03121+02111100801ADDAA106000191AY121061AY221061GF106991061021008001001001MA1999999097461MD1999999-0051MW1811REMSYN082AAXX  12184 82583 21599 60509 10312 20211 39746 40080 78122 86200 333 59005 69911;
0167825830999992000091300004-05170-040670FM-12+029999999V0200501N002610120019N0040001N1+02591+02011101271ADDAA199000021GF106991061081008001001001KA1240M+03471MA1999999097901MD1999999+0181REMSYN076AAXX  13004 82583 32596 60505 10259 20201 39790 40127 86800 333 10347 58018;
0173825830999992000091312004-05170-040670FM-12+029999999V0201401N004110075019N0500001N1+02771+01911101461ADDAA124000191GF106991051021008001041001KA1240N+02371MA1999999098091MD1999999+0141REMSYN082AAXX  13124 82583 22599 61408 10277 20191 39809 40146 85240 333 20237 58014 69914;
0167825830999992000091318004-05170-040670FM-12+029999999V0201401N003612200019N0500001N1+03501+01631100881ADDAA199000091GF103991021011008001041001MA1999999097561MD1999999+0101REMSYN070AAXX  13184 82583 32599 31407 10350 20163 39756 40088 82140 333 58010;EQDQ01  00002PRCP99
0196825830999992000091400004-05170-040670FM-12+029999999V0200501N001012200019N0040001N1+02851+01551101101ADDAA199000091GA1001+999999999GF100991001001999999001001KA1240M+03571MA1999999097751MD1999999-0151REMSYN070AAXX  14004 82583 32996 00502 10285 20155 39775 40110 333 10357 59015;EQDQ01  00002PRCP99
0186825830999992000091412004-05170-040670FM-12+029999999V0200901N006710075019N0500001N1+02901+01901101441ADDAA199000091GF106991061021008001001001KA1240N+02291MA1999999098091MD1999999+0001REMSYN076AAXX  14124 82583 32599 60913 10290 20190 39809 40144 86200 333 20229 58000;EQDQ01  00002PRCP99
0167825830999992000091418004-05170-040670FM-12+029999999V0200901N005112200019N0500001N1+03251+01841101031ADDAA199000091GF104991041021008001001001MA1999999097691MD1999999+0131REMSYN070AAXX  14184 82583 32599 40910 10325 20184 39769 40103 84200 333 58013;EQDQ01  00002PRCP99
0201825830999992000091500004-05170-040670FM-12+029999999V0200901N002112200019N0040001N1+02751+02061101251ADDAA106000391AY161061AY261061GF102991021011008001001001KA1240M+03381MA1999999097891MD1999999+0141MW1021REMSYN088AAXX  15004 82583 21596 20904 10275 20206 39789 40125 70266 82100 333 10338 58014 69931;
0173825830999992000091512004-05170-040670FM-12+029999999V0200901N005710075019N0500001N1+02731+01811101521ADDAA124000391GF105991051011008001001001KA1240N+02411MA1999999098141MD1999999+0051REMSYN082AAXX  15124 82583 22599 50911 10273 20181 39814 40152 85100 333 20241 58005 69934;
0167825830999992000091518004-05170-040670FM-12+029999999V0200901N005110075019N0500001N1+03361+01651101041ADDAA199000091GF105991051021008001001001MA1999999097711MD1999999+0021REMSYN070AAXX  15184 82583 32599 50910 10336 20165 39771 40104 85200 333 58002;EQDQ01  00002PRCP99
0186825830999992000091600004-05170-040670FM-12+029999999V0200501N007212200019N0040001N1+02851+01871101281ADDAA199000091GF103991031021008001001001KA1240M+03401MA1999999097931MD1999999+0041REMSYN076AAXX  16004 82583 32596 30514 10285 20187 39793 40128 83200 333 10340 58004;EQDQ01  00002PRCP99
0186825830999992000091612004-05170-040670FM-12+029999999V0200901N005112200019N0500001N1+02811+01971101381ADDAA199000091GF102991021011008001001001KA1240N+02151MA1999999098021MD1999999-0121REMSYN076AAXX  16124 82583 32599 20910 10281 20197 39802 40138 82100 333 20215 59012;EQDQ01  00002PRCP99
0167825830999992000091618004-05170-040670FM-12+029999999V0200501N004612200019N0500001N1+03491+01681100891ADDAA199000091GF104991041021008001001001MA1999999097581MD1999999-0151REMSYN070AAXX  16184 82583 32599 40509 10349 20168 39758 40089 84200 333 59015;EQDQ01  00002PRCP99
0196825830999992000091700004-05170-040670FM-12+029999999V0200901N001012200019N0040001N1+02831+01631101121ADDAA199000091GA1001+999999999GF100991001001999999001001KA1240M+03501MA1999999097771MD1999999-0161REMSYN070AAXX  17004 82583 32996 00902 10283 20163 39777 40112 333 10350 59016;EQDQ01  00002PRCP99
0186825830999992000091712004-05170-040670FM-12+029999999V0200901N004610120019N0500001N1+02721+02001101401ADDAA199000091GF107991071081008001001001KA1240N+02291MA1999999098041MD1999999+0021REMSYN076AAXX  17124 82583 32599 70909 10272 20200 39804 40140 87800 333 20229 58002;EQDQ01  00002PRCP99
0167825830999992000091718004-05170-040670FM-12+029999999V0200901N005712200019N0500001N1+03331+01801101031ADDAA199000091GF102991021011008001001001MA1999999097681MD1999999+0101REMSYN070AAXX  17184 82583 32599 20911 10333 20180 39768 40103 82100 333 58010;EQDQ01  00002PRCP99
0186825830999992000091800004-05170-040670FM-12+029999999V0200901N005112200019N0040001N1+02621+01911101401ADDAA199000091GF102991021011008001001001KA1240M+03401MA1999999098031MD1999999+0261REMSYN076AAXX  18004 82583 32596 20910 10262 20191 39803 40140 82100 333 10340 58026;EQDQ01  00002PRCP99
0186825830999992000091812004-05170-040670FM-12+029999999V0200901N005110075019N0500001N1+02771+01961101481ADDAA199000091GF106991051021008001041001KA1240N+02211MA1999999098111MD1999999+0071REMSYN076AAXX  18124 82583 32599 60910 10277 20196 39811 40148 85240 333 20221 58007;EQDQ01  00002PRCP99
0167825830999992000091818004-05170-040670FM-12+029999999V0200901N003110075019N0500001N1+03281+01531101031ADDAA199000091GF106991061021008001001001MA1999999097681MD1999999-0261REMSYN070AAXX  18184 82583 32599 60906 10328 20153 39768 40103 86200 333 59026;EQDQ01  00002PRCP99
0196825830999992000091900004-05170-040670FM-12+029999999V0200901N000512200019N0040001N1+02701+01621101281ADDAA199000091GA1001+999999999GF100991001001999999001001KA1240M+03401MA1999999097921MD1999999-0111REMSYN070AAXX  19004 82583 32996 00901 10270 20162 39792 40128 333 10340 59011;EQDQ01  00002PRCP99
0201825830999992000091912004-05170-040670FM-12+029999999V0200901N004610120019N0500001N1+02651+01901101491ADDAA124000191AY151061AY251061GF107991071081008001001001KA1240N+02171MA1999999098131MD1999999+0011MW1021REMSYN088AAXX  19124 82583 21599 70909 10265 20190 39813 40149 70255 87800 333 20217 58001 69924;
0167825830999992000091918004-05170-040670FM-12+029999999V0201401N004612200019N0500001N1+03221+01571101051ADDAA199000091GF104991041021008001001001MA1999999097701MD1999999+0021REMSYN070AAXX  19184 82583 32599 41409 10322 20157 39770 40105 84200 333 58002;EQDQ01  00002PRCP99
0196825830999992000092000004-05170-040670FM-12+029999999V0200901N000512200019N0040001N1+02641+01541101251ADDAA199000091GA1001+999999999GF100991001001999999001001KA1240M+03301MA1999999097881MD1999999-0041REMSYN070AAXX  20004 82583 32596 00901 10264 20154 39788 40125 333 10330 59004;EQDQ01  00002PRCP99
0186825830999992000092012004-05170-040670FM-12+029999999V0200901N004612200019N0500001N1+02771+01821101421ADDAA199000091GF104991041021008001001001KA1240N+02231MA1999999098051MD1999999-0071REMSYN076AAXX  20124 82583 32599 40909 10277 20182 39805 40142 84200 333 20223 59007;EQDQ01  00002PRCP99
0167825830999992000092018004-05170-040670FM-12+029999999V0200901N003612200019N0500001N1+03471+01411100921ADDAA199000091GF102991021011008001001001MA1999999097591MD1999999-0111REMSYN070AAXX  20184 82583 32599 20907 10347 20141 39759 40092 82100 333 59011;EQDQ01  00002PRCP99
0196825830999992000092100004-05170-040670FM-12+029999999V0200901N001512200019N0040001N1+02801+01391101081ADDAA199000091GA1001+999999999GF100991001001999999001001KA1240M+03531MA1999999097731MD1999999+0151REMSYN070AAXX  21004 82583 32996 00903 10280 20139 39773 40108 333 10353 58015;EQDQ01  00002PRCP99
0186825830999992000092112004-05170-040670FM-12+029999999V0200901N005110075019N0500001N1+02871+01891101261ADDAA199000091GF106991061021008001001001KA1240N+02301MA1999999097921MD1999999-0131REMSYN076AAXX  21124 82583 32599 60910 10287 20189 39792 40126 86200 333 20230 59013;EQDQ01  00002PRCP99
0167825830999992000092118004-05170-040670FM-12+029999999V0200901N003112200019N0500001N1+03441+01381100891ADDAA199000091GF102991021011008001001001MA1999999097561MD1999999-0031REMSYN070AAXX  21184 82583 32599 20906 10344 20138 39756 40089 82100 333 59003;EQDQ01  00002PRCP99
0186825830999992000092212004-05170-040670FM-12+029999999V0200901N004610075019N0500001N1+02581+01851101401ADDAA199000091GF105991051021008001001001KA1240N+02281MA1999999098041MD1999999+0121REMSYN076AAXX  22124 82583 32599 50909 10258 20185 39804 40140 85200 333 20228 58012;EQDQ01  00002PRCP99
0167825830999992000092218004-05170-040670FM-12+029999999V0200901N001512200019N0500001N1+03551+01591100921ADDAA199000091GF103991031021008001001001MA1999999097621MD1999999+0061REMSYN070AAXX  22184 82583 32599 30903 10355 20159 39762 40092 83200 333 58006;EQDQ01  00002PRCP99
0196825830999992000092300004-05170-040670FM-12+029999999V0200501N000512200019N0040001N1+02841+01731101111ADDAA199000091GA1001+999999999GF100991001001999999001001KA1240M+03561MA1999999097761MD1999999-0061REMSYN070AAXX  23004 82583 32996 00501 10284 20173 39776 40111 333 10356 59006;EQDQ01  00002PRCP99
0202825830999992000092312004-05170-040670FM-12+029999999V0200901N003612200019N0500001N1+02901+01931101321ADDAA199000091GF102991021011008001001001KA1240N+02421MA1999999999999MD1999999-0081REMSYN076AAXX  23124 82583 32599 20907 10290 20193 37996 40132 82100 333 20242 59008;EQDQ01  00002PRCP99Q02 079963APOSP 
0183825830999992000092318004-05170-040670FM-12+029999999V0200501N003612200019N0500001N1+03441+01581100831ADDAA199000091GF103991031021008001001001MA1999999097512MD1999999-0111REMSYN070AAXX  23184 82583 32599 30507 10344 20158 39751 40083 83200 333 59011;EQDQ01+097513APOSP Q02  00002PRCP99
0196825830999992000092400004-05170-040670FM-12+029999999V0200501N002112200019N0040001N1+02851+01481101021ADDAA199000091GA1001+999999999GF100991001001999999001001KA1240M+03581MA1999999097681MD1999999-0081REMSYN070AAXX  24004 82583 32996 00504 10285 20148 39768 40102 333 10358 59008;EQDQ01  00002PRCP99
0186825830999992000092412004-05170-040670FM-12+029999999V0200501N005710120019N0500001N1+02731+01891101381ADDAA199000091GF107991071081008001001001KA1240N+02381MA1999999098021MD1999999+0061REMSYN076AAXX  24124 82583 32599 70511 10273 20189 39802 40138 87800 333 20238 58006;EQDQ01  00002PRCP99
0167825830999992000092418004-05170-040670FM-12+029999999V0200901N002112200019N0500001N1+03351+01691100811ADDAA199000091GF102991021011008001001001MA1999999097481MD1999999-0031REMSYN070AAXX  24184 82583 32599 20904 10335 20169 39748 40081 82100 333 59003;EQDQ01  00002PRCP99
0196825830999992000092500004-05170-040670FM-12+029999999V0200501N001012200019N0040001N1+02751+01751101031ADDAA199000091GA1001+999999999GF100991001001999999001001KA1240M+03401MA1999999097671MD1999999-0011REMSYN070AAXX  25004 82583 32996 00502 10275 20175 39767 40103 333 10340 59001;EQDQ01  00002PRCP99
0167825830999992000092518004-05170-040670FM-12+029999999V0200901N003112200019N0500001N1+03511+01501100881ADDAA199000091GF102991021011008001001001MA1999999097561MD1999999+0081REMSYN070AAXX  25184 82583 32599 20906 10351 20150 39756 40088 82100 333 58008;EQDQ01  00002PRCP99
0196825830999992000092600004-05170-040670FM-12+029999999V0200501N000512200019N0040001N1+02911+01461101111ADDAA199000091GA1001+999999999GF100991001001999999001001KA1240M+03611MA1999999097771MD1999999+0101REMSYN070AAXX  26004 82583 32996 00501 10291 20146 39777 40111 333 10361 58010;EQDQ01  00002PRCP99
0186825830999992000092612004-05170-040670FM-12+029999999V0200501N004610075019N0500001N1+02761+01911101501ADDAA199000091GF107991071021008001001001KA1240N+02431MA1999999098141MD1999999+0071REMSYN076AAXX  26124 82583 32599 70509 10276 20191 39814 40150 87200 333 20243 58007;EQDQ01  00002PRCP99
0167825830999992000092618004-05170-040670FM-12+029999999V0201401N003112200019N0500001N1+03591+01521100921ADDAA199000091GF102991021011008001001001MA1999999097601MD1999999+0041REMSYN070AAXX  26184 82583 32599 21406 10359 20152 39760 40092 82100 333 58004;EQDQ01  00002PRCP99
0196825830999992000092700004-05170-040670FM-12+029999999V0200501N002112200019N0040001N1+02951+01611101181ADDAA199000091GA1001+999999999GF100991001001999999001001KA1240M+03671MA1999999097841MD1999999+0071REMSYN070AAXX  27004 82583 32996 00504 10295 20161 39784 40118 333 10367 58007;EQDQ01  00002PRCP99
0186825830999992000092712004-05170-040670FM-12+029999999V0200901N006710075019N0500001N1+02751+01751101541ADDAA199000091GF105991051021008001001001KA1240N+02351MA1999999098181MD1999999+0041REMSYN076AAXX  27124 82583 32599 50913 10275 20175 39818 40154 85200 333 20235 58004;EQDQ01  00002PRCP99
0167825830999992000092718004-05170-040670FM-12+029999999V0200501N005112200019N0500001N1+03421+01651100941ADDAA199000091GF103991011011008001001011MA1999999097601MD1999999+0001REMSYN070AAXX  27184 82583 32599 30510 10342 20165 39760 40094 81101 333 58000;EQDQ01  00002PRCP99
0196825830999992000092800004-05170-040670FM-12+029999999V0200501N001012200019N0040001N1+02821+01481101141ADDAA199000091GA1001+999999999GF100991001001999999001001KA1240M+03441MA1999999097791MD1999999-0051REMSYN070AAXX  28004 82583 32996 00502 10282 20148 39779 40114 333 10344 59005;EQDQ01  00002PRCP99
0186825830999992000092812004-05170-040670FM-12+029999999V0200901N006212200019N0500001N1+02871+01831101451ADDAA199000091GF105991041011008001001011KA1240N+02391MA1999999098091MD1999999-0091REMSYN076AAXX  28124 82583 32599 50912 10287 20183 39809 40145 84101 333 20239 59009;EQDQ01  00002PRCP99
0167825830999992000092818004-05170-040670FM-12+029999999V0200901N003612200019N0500001N1+03461+01341100901ADDAA199000091GF102991021011008001001001MA1999999097581MD1999999-0021REMSYN070AAXX  28184 82583 32599 20907 10346 20134 39758 40090 82100 333 59002;EQDQ01  00002PRCP99
0196825830999992000092900004-05170-040670FM-12+029999999V0200901N003112200019N0040001N1+02821+01291101111ADDAA199000091GA1001+999999999GF100991001001999999001001KA1240M+03521MA1999999097771MD1999999-0021REMSYN070AAXX  29004 82583 32996 00906 10282 20129 39777 40111 333 10352 59002;EQDQ01  00002PRCP99
0186825830999992000092912004-05170-040670FM-12+029999999V0200901N004612200019N0500001N1+02811+01861101501ADDAA199000091GF103991031021008001001001KA1240N+02351MA1999999098141MD1999999+0051REMSYN076AAXX  29124 82583 32599 30909 10281 20186 39814 40150 83200 333 20235 58005;EQDQ01  00002PRCP99
0167825830999992000092918004-05170-040670FM-12+029999999V0200901N003612200019N0500001N1+03451+01691100991ADDAA199000091GF102991021011008001001001MA1999999097651MD1999999+0071REMSYN070AAXX  29184 82583 32599 20907 10345 20169 39765 40099 82100 333 58007;EQDQ01  00002PRCP99
0196825830999992000093000004-05170-040670FM-12+029999999V0200501N001512200019N0040001N1+02801+01351101211ADDAA199000091GA1001+999999999GF100991001001999999001001KA1240M+03521MA1999999097861MD1999999+0091REMSYN070AAXX  30004 82583 32996 00503 10280 20135 39786 40121 333 10352 58009;EQDQ01  00002PRCP99
0186825830999992000093012004-05170-040670FM-12+029999999V0200901N006210075019N0500001N1+02901+01871101491ADDAA199000091GF106991061021008001001001KA1240N+02321MA1999999098831MD1999999-0011REMSYN076AAXX  30124 82583 32599 60912 10290 20187 39883 40149 86200 333 20232 59001;EQDQ01  00002PRCP99
0183825830999992000093018004-05170-040670FM-12+029999999V0200901N001512200019N0500001N1+03401+01501100971ADDAA199000091GF103991031011008001001001MA1999999097642MD1999999+0011REMSYN070AAXX  30184 82583 32599 30903 10340 20150 39764 40097 83100 333 58001;EQDQ01+097643APOSP Q02  00002PRCP99
0196825830999992000100100004-05170-040670FM-12+029999999V0200501N002112200019N0040001N1+02251+01411101201ADDAA199000091GA1001+999999999GF100991001001999999001001KA1240M+03531MA1999999097861MD1999999+0001REMSYN070AAXX  01004 82583 32996 00504 10225 20141 39786 40120 333 10353 58000;EQDQ01  00002PRCP99
0186825830999992000100112004-05170-040670FM-12+029999999V0200501N006712200019N0500001N1+02871+01671101541ADDAA199000091GF102991021011008001001001KA1240N+02331MA1999999098151MD1999999+0051REMSYN076AAXX  01124 82583 32599 20513 10287 20167 39815 40154 82100 333 20233 58005;EQDQ01  00002PRCP99
0167825830999992000100118004-05170-040670FM-12+029999999V0200501N002612200019N0500001N1+03511+01561101051ADDAA199000091GF102991021011008001001001MA1999999097731MD1999999+0091REMSYN070AAXX  01184 82583 32599 20505 10351 20156 39773 40105 82100 333 58009;EQDQ01  00002PRCP99
0186825830999992000100212004-05170-040670FM-12+029999999V0200501N007712200019N0500001N1+02871+01771101591ADDAA199000091GF102991011011008001001011KA1240N+02251MA1999999098231MD1999999+0051REMSYN076AAXX  02124 82583 32599 20515 10287 20177 39823 40159 81101 333 20225 58005;EQDQ01  00002PRCP99
0196825830999992000100300004-05170-040670FM-12+029999999V0200501N002112200019N0040001N1+02881+01271101151ADDAA199000091GA1001+999999999GF100991001001999999001001KA1240M+03631MA1999999097811MD1999999-0111REMSYN070AAXX  03004 82583 32996 00504 10288 20127 39781 40115 333 10363 59011;EQDQ01  00002PRCP99
0186825830999992000100312004-05170-040670FM-12+029999999V0200901N004112200019N0500001N1+02861+01721101411ADDAA199000091GF102991021011008001001001KA1240N+02341MA1999999098051MD1999999-0181REMSYN076AAXX  03124 82583 32599 20908 10286 20172 39805 40141 82100 333 20234 59018;EQDQ01  00002PRCP99
0167825830999992000100318004-05170-040670FM-12+029999999V0200501N003612200019N0500001N1+03591+01411100841ADDAA199000091GF102991011011008001001011MA1999999097521MD1999999-0131REMSYN070AAXX  03184 82583 32599 20507 10359 20141 39752 40084 81101 333 59013;EQDQ01  00002PRCP99
0196825830999992000100400004-05170-040670FM-12+029999999V0200501N001512200019N0040001N1+02941+01151101061ADDAA199000091GA1001+999999999GF100991001001999999001001KA1240M+03641MA1999999097721MD1999999+0071REMSYN070AAXX  04004 82583 32996 00503 10294 20115 39772 40106 333 10364 58007;EQDQ01  00002PRCP99
0186825830999992000100412004-05170-040670FM-12+029999999V0200501N004610075019N0500001N1+02771+01821101491ADDAA199000091GF106991051021008001001011KA1240N+02311MA1999999098131MD1999999+0051REMSYN076AAXX  04124 82583 32599 60509 10277 20182 39813 40149 85201 333 20231 58005;EQDQ01  00002PRCP99
0167825830999992000100418004-05170-040670FM-12+029999999V0200901N001512200019N0500001N1+03521+01221100811ADDAA199000091GF103991021011008001001011MA1999999097491MD1999999-0031REMSYN070AAXX  04184 82583 32599 30903 10352 20122 39749 40081 82101 333 59003;EQDQ01  00002PRCP99
0196825830999992000100500004-05170-040670FM-12+029999999V0200501N001012200019N0040001N1+02951+01461100991ADDAA199000091GA1001+999999999GF100991001001999999001001KA1240M+03641MA1999999097651MD1999999-0071REMSYN070AAXX  05004 82583 32996 00502 10295 20146 39765 40099 333 10364 59007;EQDQ01  00002PRCP99
0186825830999992000100512004-05170-040670FM-12+029999999V0200701N004110075019N0500001N1+02761+01891101371ADDAA199000091GF107991071021008001001001KA1240N+02321MA1999999098011MD1999999-0121REMSYN076AAXX  05124 82583 32599 70708 10276 20189 39801 40137 87200 333 20232 59012;EQDQ01  00002PRCP99
0167825830999992000100518004-05170-040670FM-12+029999999V0200901N002612200019N0500001N1+03491+01431100931ADDAA199000091GF105991041021008001001011MA1999999097601MD1999999+0111REMSYN070AAXX  05184 82583 32599 50905 10349 20143 39760 40093 84201 333 58011;EQDQ01  00002PRCP99
0186825830999992000100612004-05170-040670FM-12+029999999V0200501N004112200019N0500001N1+02811+01711101311ADDAA199000091GF102991021011008001001001KA1240N+02251MA1999999097951MD1999999-0061REMSYN076AAXX  06124 82583 32599 20508 10281 20171 39795 40131 82100 333 20225 59006;EQDQ01  00002PRCP99
0167825830999992000100618004-05170-040670FM-12+029999999V0200501N004112200019N0500001N1+03601+01521100751ADDAA199000091GF102991021011008001001001MA1999999097431MD1999999-0171REMSYN070AAXX  06184 82583 32599 20508 10360 20152 39743 40075 82100 333 59017;EQDQ01  00002PRCP99
0196825830999992000100700004-05170-040670FM-12+029999999V0200501N002112200019N0040001N1+02951+01131101061ADDAA199000091GA1001+999999999GF100991001001999999001001KA1240M+03621MA1999999097721MD1999999-0041REMSYN070AAXX  07004 82583 32996 00504 10295 20113 39772 40106 333 10362 59004;EQDQ01  00002PRCP99
0186825830999992000100712004-05170-040670FM-12+029999999V0200901N005112200019N0500001N1+02891+01591101421ADDAA199000091GF103991031021008001001001KA1240N+02301MA1999999098071MD1999999+0121REMSYN076AAXX  07124 82583 32599 30910 10289 20159 39807 40142 83200 333 20230 58012;EQDQ01  00002PRCP99
0167825830999992000100718004-05170-040670FM-12+029999999V0200501N004612200019N0500001N1+03611+01421100871ADDAA199000091GF101991011011008001001001MA1999999097551MD1999999+0121REMSYN070AAXX  07184 82583 32599 10509 10361 20142 39755 40087 81100 333 58012;EQDQ01  00002PRCP99
0196825830999992000100800004-05170-040670FM-12+029999999V0200501N002612200019N0040001N1+02981+01311101181ADDAA199000091GA1001+999999999GF100991001001999999001001KA1240M+03621MA1999999097781MD1999999+0061REMSYN070AAXX  08004 82583 32996 00505 10298 20131 39778 40118 333 10362 58006;EQDQ01  00002PRCP99
0186825830999992000100812004-05170-040670FM-12+029999999V0200901N005112200019N0500001N1+02781+01581101561ADDAA199000091GF102991021011008001001001KA1240N+02291MA1999999098241MD1999999+0171REMSYN076AAXX  08124 82583 32599 20910 10278 20158 39824 40156 82100 333 20229 58017;EQDQ01  00002PRCP99
0167825830999992000100818004-05170-040670FM-12+029999999V0200501N003612200019N0500001N1+03471+01301100961ADDAA199000091GF102991021011008001001001MA1999999097631MD1999999+0081REMSYN070AAXX  08184 82583 32599 20507 10347 20130 39763 40096 82100 333 58008;EQDQ01  00002PRCP99
0186825830999992000101000004-05170-040670FM-12+029999999V0201401N000512200019N0040001N1+02901+01481101181ADDAA199000091GF101991011011008001001001KA1240M+03511MA1999999097841MD1999999+0071REMSYN076AAXX  10004 82583 32596 11401 10290 20148 39784 40118 81100 333 10351 58007;EQDQ01  00002PRCP99
0186825830999992000101012004-05170-040670FM-12+029999999V0200901N005712200019N0500001N1+02901+01691101211ADDAA199000091GF102991021011008001001001KA1240N+02251MA1999999097871MD1999999-0231REMSYN076AAXX  10124 82583 32599 20911 10290 20169 39787 40121 82100 333 20225 59023;EQDQ01  00002PRCP99
0186825830999992000101100004-05170-040670FM-12+029999999V0200501N001512200019N0040001N1+02961+01211101091ADDAA199000091GF101991011011008001001001KA1240M+03631MA1999999097751MD1999999-0091REMSYN076AAXX  11004 82583 32596 10503 10296 20121 39775 40109 81100 333 10363 59009;EQDQ01  00002PRCP99
0186825830999992000101112004-05170-040670FM-12+029999999V0200901N006212200019N0500001N1+02991+01531101301ADDAA199000091GF101991011011008001001001KA1240N+02391MA1999999097961MD1999999+0091REMSYN076AAXX  11124 82583 32599 10912 10299 20153 39796 40130 81100 333 20239 58009;EQDQ01  00002PRCP99
0167825830999992000101118004-05170-040670FM-12+029999999V0200901N004612200019N0500001N1+03541+01351100791ADDAA199000091GF103991031011008001001001MA1999999097471MD1999999+0021REMSYN070AAXX  11184 82583 32599 30909 10354 20135 39747 40079 83100 333 58002;EQDQ01  00002PRCP99
0201825830999992000101200004-05170-040670FM-12+029999999V0200901N001512200019N0040001N1+02931+01881101071ADDAA106000191AY111061AY221061GF103991031021008001001001KA1240M+03641MA1999999097741MD1999999-0011MW1211REMSYN088AAXX  12004 82583 21596 30903 10293 20188 39774 40107 72112 83200 333 10364 59001 69911;
0173825830999992000101212004-05170-040670FM-12+029999999V0200901N006712200019N0500001N1+02861+01781101321ADDAA124000191GF104991041021008001001001KA1240N+02441MA1999999097971MD1999999+0011REMSYN082AAXX  12124 82583 22599 40913 10286 20178 39797 40132 84200 333 20244 58001 69914;
0167825830999992000101218004-05170-040670FM-12+029999999V0200501N006212200019N0500001N1+03431+01481100931ADDAA199000091GF104991041021008001001001MA1999999097611MD1999999+0141REMSYN070AAXX  12184 82583 32599 40512 10343 20148 39761 40093 84200 333 58014;EQDQ01  00002PRCP99
0196825830999992000101300004-05170-040670FM-12+029999999V0200501N001512200019N0040001N1+02871+01421101261ADDAA199000091GA1001+999999999GF100991001001999999001001KA1240M+03531MA1999999097921MD1999999+0181REMSYN070AAXX  13004 82583 32996 00503 10287 20142 39792 40126 333 10353 58018;EQDQ01  00002PRCP99
0186825830999992000101312004-05170-040670FM-12+029999999V0200901N007212200019N0500001N1+02911+01711101531ADDAA199000091GF102991021011008001001001KA1240N+02331MA1999999098181MD1999999+0261REMSYN076AAXX  13124 82583 32599 20914 10291 20171 39818 40153 82100 333 20233 58026;EQDQ01  00002PRCP99
0167825830999992000101318004-05170-040670FM-12+029999999V0200901N004612200019N0500001N1+03581+01501100991ADDAA199000091GF101991011011008001001001MA1999999097671MD1999999+0061REMSYN070AAXX  13184 82583 32599 10909 10358 20150 39767 40099 81100 333 58006;EQDQ01  00002PRCP99
0196825830999992000101400004-05170-040670FM-12+029999999V0200501N001512200019N0040001N1+02921+01341101221ADDAA199000091GA1001+999999999GF100991001001999999001001KA1240M+03621MA1999999097881MD1999999-0041REMSYN070AAXX  14004 82583 32996 00503 10292 20134 39788 40122 333 10362 59004;EQDQ01  00002PRCP99
0186825830999992000101412004-05170-040670FM-12+029999999V0200901N003610075019N0500001N1+02781+01581101461ADDAA199000091GF106991061021008001001001KA1240N+02401MA1999999098101MD1999999-0081REMSYN076AAXX  14124 82583 32599 60907 10278 20158 39810 40146 86200 333 20240 59008;EQDQ01  00002PRCP99
0167825830999992000101418004-05170-040670FM-12+029999999V0200901N003612200019N0500001N1+03491+01381100961ADDAA199000091GF102991021011008001001001MA1999999097641MD1999999-0031REMSYN070AAXX  14184 82583 32599 20907 10349 20138 39764 40096 82100 333 59003;EQDQ01  00002PRCP99
0196825830999992000101500004-05170-040670FM-12+029999999V0200901N001512200019N0040001N1+02901+00971101181ADDAA199000091GA1001+999999999GF100991001001999999001001KA1240M+03561MA1999999097841MD1999999-0041REMSYN070AAXX  15004 82583 32996 00903 10290 20097 39784 40118 333 10356 59004;EQDQ01  00002PRCP99
0186825830999992000101512004-05170-040670FM-12+029999999V0201401N002112200019N0500001N1+02771+01851101401ADDAA199000091GF103991031021008001001001KA1240N+02271MA1999999098041MD1999999-0061REMSYN076AAXX  15124 82583 32599 31404 10277 20185 39804 40140 83200 333 20227 59006;EQDQ01  00002PRCP99
0167825830999992000101518004-05170-040670FM-12+029999999V0200901N003112200019N0500001N1+03591+01431100841ADDAA199000091GF102991021011008001001001MA1999999097521MD1999999-0121REMSYN070AAXX  15184 82583 32599 20906 10359 20143 39752 40084 82100 333 59012;EQDQ01  00002PRCP99
0186825830999992000101600004-05170-040670FM-12+029999999V0200901N002610075019N0040001N1+03061+01471101061ADDAA199000091GF105991051021008001001001KA1240M+03631MA1999999097731MD1999999-0111REMSYN076AAXX  16004 82583 32596 50905 10306 20147 39773 40106 85200 333 10363 59011;EQDQ01  00002PRCP99
0186825830999992000101612004-05170-040670FM-12+029999999V0200901N003610075019N0500001N1+02781+01911101441ADDAA199000091GF107991071021008001001001KA1240N+02441MA1999999098091MD1999999+0051REMSYN076AAXX  16124 82583 32599 70907 10278 20191 39809 40144 87200 333 20244 58005;EQDQ01  00002PRCP99
0167825830999992000101618004-05170-040670FM-12+029999999V0200901N004612200019N0500001N1+03471+01521100991ADDAA199000091GF102991021021008001001001MA1999999097661MD1999999+0141REMSYN070AAXX  16184 82583 32599 20909 10347 20152 39766 40099 82200 333 58014;EQDQ01  00002PRCP99
0196825830999992000101700004-05170-040670FM-12+029999999V0200901N002612200019N0040001N1+03031+01451101141ADDAA199000091GA1001+999999999GF100991001001999999001001KA1240M+03591MA1999999097801MD1999999+0071REMSYN070AAXX  17004 82583 32996 00905 10303 20145 39780 40114 333 10359 58007;EQDQ01  00002PRCP99
0186825830999992000101712004-05170-040670FM-12+029999999V0200901N004610075019N0500001N1+02931+01911101411ADDAA199000091GF105991051011008001001001KA1240N+02401MA1999999098071MD1999999-0021REMSYN076AAXX  17124 82583 32599 50909 10293 20191 39807 40141 85100 333 20240 59002;EQDQ01  00002PRCP99
0167825830999992000101718004-05170-040670FM-12+029999999V0200901N002112200019N0500001N1+03611+01421100991ADDAA199000091GF103991021011008001001011MA1999999097671MD1999999+0011REMSYN070AAXX  17184 82583 32599 30904 10361 20142 39767 40099 82101 333 58001;EQDQ01  00002PRCP99
0186825830999992000101800004-05170-040670FM-12+029999999V0200501N001512200019N0040001N1+03011+01351101231ADDAA199000091GF101991011001017501031001KA1240M+03661MA1999999097891MD1999999+0091REMSYN076AAXX  18004 82583 32796 10503 10301 20135 39789 40123 81030 333 10366 58009;EQDQ01  00002PRCP99
0186825830999992000101812004-05170-040670FM-12+029999999V0200901N005710075019N0500001N1+02941+01691101571ADDAA199000091GF106991061021008001001001KA1240N+02491MA1999999098231MD1999999+0161REMSYN076AAXX  18124 82583 32599 60911 10294 20169 39823 40157 86200 333 20249 58016;EQDQ01  00002PRCP99
0167825830999992000101818004-05170-040670FM-12+029999999V0200901N004612200019N0500001N1+03521+01451101081ADDAA199000091GF103991031011008001001001MA1999999097761MD1999999+0091REMSYN070AAXX  18184 82583 32599 30909 10352 20145 39776 40108 83100 333 58009;EQDQ01  00002PRCP99
0196825830999992000101900004-05170-040670FM-12+029999999V0200501N001512200019N0040001N1+02951+01461101261ADDAA199000091GA1001+999999999GF100991001001999999001001KA1240M+03591MA1999999097921MD1999999+0031REMSYN070AAXX  19004 82583 32996 00503 10295 20146 39792 40126 333 10359 58003;EQDQ01  00002PRCP99
0186825830999992000101912004-05170-040670FM-12+029999999V0200901N004612200019N0500001N1+02941+01821101411ADDAA199000091GF102991021011008001001001KA1240N+02251MA1999999098071MD1999999-0161REMSYN076AAXX  19124 82583 32599 20909 10294 20182 39807 40141 82100 333 20225 59016;EQDQ01  00002PRCP99
0167825830999992000102018004-05170-040670FM-12+029999999V0200501N002112200019N0500001N1+03501+01501100851ADDAA199000091GF103991011011008001001011MA1999999097531MD1999999-0031REMSYN070AAXX  20184 82583 32599 30504 10350 20150 39753 40085 81101 333 59003;EQDQ01  00002PRCP99
0196825830999992000102100004-05170-040670FM-12+029999999V0200501N001012200019N0040001N1+03001+01491101071ADDAA199000091GA1001+999999999GF100991001001999999001001KA1240M+03601MA1999999097731MD1999999-0011REMSYN070AAXX  21004 82583 32996 00502 10300 20149 39773 40107 333 10360 59001;EQDQ01  00002PRCP99
0186825830999992000102112004-05170-040670FM-12+029999999V0200501N003110075019N0500001N1+02671+01941101271ADDAA199000091GF107991071051008001001001KA1240N+02331MA1999999097931MD1999999-0111REMSYN076AAXX  21124 82583 32599 70506 10267 20194 39793 40127 87500 333 20233 59011;EQDQ01  00002PRCP99
0167825830999992000102118004-05170-040670FM-12+029999999V0200501N002612200019N0500001N1+03481+01661100771ADDAA199000091GF102991021011008001001001MA1999999097451MD1999999-0081REMSYN070AAXX  21184 82583 32599 20505 10348 20166 39745 40077 82100 333 59008;EQDQ01  00002PRCP99
0186825830999992000102200004-05170-040670FM-12+029999999V0203601N002112200019N0040001N1+03001+01681101011ADDAA199000091GF102991021011008001001001KA1240M+03531MA1999999097671MD1999999-0061REMSYN076AAXX  22004 82583 32596 23604 10300 20168 39767 40101 82100 333 10353 59006;EQDQ01  00002PRCP99
0186825830999992000102212004-05170-040670FM-12+029999999V0200501N005110075019N0500001N1+02771+02041101271ADDAA199000091GF106991061021008001001001KA1240N+02431MA1999999097931MD1999999+0001REMSYN076AAXX  22124 82583 32599 60510 10277 20204 39793 40127 86200 333 20243 58000;EQDQ01  00002PRCP99
0167825830999992000102218004-05170-040670FM-12+029999999V0200501N003612200019N0500001N1+03511+01701100711ADDAA199000091GF102991021011008001001001MA1999999097391MD1999999-0061REMSYN070AAXX  22184 82583 32599 20507 10351 20170 39739 40071 82100 333 59006;EQDQ01  00002PRCP99
0196825830999992000102300004-05170-040670FM-12+029999999V0200501N002112200019N0040001N1+02991+01411100941ADDAA199000091GA1001+999999999GF100991001001999999001001KA1240M+03601MA1999999097601MD1999999-0061REMSYN070AAXX  23004 82583 32596 00504 10299 20141 39760 40094 333 10360 59006;EQDQ01  00002PRCP99
0186825830999992000102312004-05170-040670FM-12+029999999V0200501N004612200019N0500001N1+02871+01831101331ADDAA199000091GF102991021011008001001001KA1240N+02381MA1999999097991MD1999999+0061REMSYN076AAXX  23124 82583 32599 20509 10287 20183 39799 40133 82100 333 20238 58006;EQDQ01  00002PRCP99
0167825830999992000102318004-05170-040670FM-12+029999999V0200501N003112200019N0500001N1+03541+01411100791ADDAA199000091GF103991021011008001001011MA1999999097471MD1999999+0081REMSYN070AAXX  23184 82583 32599 30506 10354 20141 39747 40079 82101 333 58008;EQDQ01  00002PRCP99
0196825830999992000102400004-05170-040670FM-12+029999999V0200501N003112200019N0040001N1+02831+01531100991ADDAA199000091GA1001+999999999GF100991001001999999001001KA1240M+03621MA1999999097651MD1999999+0051REMSYN070AAXX  24004 82583 32596 00506 10283 20153 39765 40099 333 10362 58005;EQDQ01  00002PRCP99
0186825830999992000102412004-05170-040670FM-12+029999999V0200501N005712200019N0500001N1+02831+01701101251ADDAA199000091GF102991021011008001001001KA1240N+02371MA1999999097911MD1999999-0081REMSYN076AAXX  24124 82583 32599 20511 10283 20170 39791 40125 82100 333 20237 59008;EQDQ01  00002PRCP99
0167825830999992000102418004-05170-040670FM-12+029999999V0200501N004612200019N0500001N1+03511+01341100721ADDAA199000091GF102991021011008001001001MA1999999097401MD1999999-0071REMSYN070AAXX  24184 82583 32599 20509 10351 20134 39740 40072 82100 333 59007;EQDQ01  00002PRCP99
0196825830999992000102500004-05170-040670FM-12+029999999V0200501N002612200019N0040001N1+02981+01351100951ADDAA199000091GA1001+999999999GF100991001001999999001001KA1240M+03581MA1999999097621MD1999999-0031REMSYN070AAXX  25004 82583 32996 00505 10298 20135 39762 40095 333 10358 59003;EQDQ01  00002PRCP99
0186825830999992000102512004-05170-040670FM-12+029999999V0200501N005112200019N0500001N1+02931+01691101141ADDAA199000091GF101991011011008001001001KA1240N+02311MA1999999097801MD1999999-0111REMSYN076AAXX  25124 82583 32599 10510 10293 20169 39780 40114 81100 333 20231 59011;EQDQ01  00002PRCP99
0167825830999992000102518004-05170-040670FM-12+029999999V0201401N003612200019N0500001N1+03611+01421100621ADDAA199000091GF102991021011008001001001MA1999999097311MD1999999-0091REMSYN070AAXX  25184 82583 32599 21407 10361 20142 39731 40062 82100 333 59009;EQDQ01  00002PRCP99
0196825830999992000102600004-05170-040670FM-12+029999999V0200501N001012200019N0040001N1+03001+01411100761ADDAA199000091GA1001+999999999GF100991001001999999001001KA1240M+03661MA1999999097441MD1999999+0181REMSYN070AAXX  26004 82583 32996 00502 10300 20141 39744 40076 333 10366 58018;EQDQ01  00002PRCP99
0186825830999992000102612004-05170-040670FM-12+029999999V0200501N005112200019N0500001N1+02891+01721101191ADDAA199000091GF102991021011008001001001KA1240N+02441MA1999999097851MD1999999+0051REMSYN076AAXX  26124 82583 32599 20510 10289 20172 39785 40119 82100 333 20244 58005;EQDQ01  00002PRCP99
0167825830999992000102618004-05170-040670FM-12+029999999V0200501N003610120019N0500001N1+03301+01591100771ADDAA199000091GF108991081081008001999999MA1999999097451MD1999999+0161REMSYN070AAXX  26184 82583 32599 80507 10330 20159 39745 40077 888// 333 58016;EQDQ01  00002PRCP99
0196825830999992000102700004-05170-040670FM-12+029999999V0200501N001012200019N0040001N1+02871+01621101001ADDAA199000091GA1001+999999999GF100991001001999999001001KA1240M+03421MA1999999097661MD1999999+0221REMSYN070AAXX  27004 82583 32996 00502 10287 20162 39766 40100 333 10342 58022;EQDQ01  00002PRCP99
0183825830999992000102718004-05170-040670FM-12+029999999V0200901N003110075019N0500001N1+03391+01541100851ADDAA199000091GF106991999021008001001001MA1999999097541MD1999999+0091REMSYN070AAXX  27184 82583 32599 60906 10339 20154 39754 40085 85200 333 58009;EQDQ01+000052SCOTLCQ02  00002PRCP99
0196825830999992000102800004-05170-040670FM-12+029999999V0200501N003112200019N0040001N1+02921+01531101081ADDAA199000091GA1001+999999999GF100991001001999999001001KA1240M+03501MA1999999097741MD1999999+0081REMSYN070AAXX  28004 82583 32996 00506 10292 20153 39774 40108 333 10350 58008;EQDQ01  00002PRCP99
0186825830999992000102812004-05170-040670FM-12+029999999V0200501N004610075019N0500001N1+02721+01821101361ADDAA199000091GF107991071051008001001001KA1240N+02281MA1999999098001MD1999999+0041REMSYN076AAXX  28124 82583 32599 70509 10272 20182 39800 40136 87500 333 20228 58004;EQDQ01  00002PRCP99
0167825830999992000102818004-05170-040670FM-12+029999999V0200501N002610450019N0500001N1+03431+01581100891ADDAA199000091GF106991031011008001031001MA1999999097561MD1999999+0021REMSYN070AAXX  28184 82583 32599 60505 10343 20158 39756 40089 83130 333 58002;EQDQ01  00002PRCP99
0196825830999992000102900004-05170-040670FM-12+029999999V0200901N001512200019N0040001N1+03011+01591101071ADDAA199000091GA1001+999999999GF100991001001999999001001KA1240M+03521MA1999999097731MD1999999+0011REMSYN070AAXX  29004 82583 32996 00903 10301 20159 39773 40107 333 10352 58001;EQDQ01  00002PRCP99
0186825830999992000102912004-05170-040670FM-12+029999999V0200501N004612200019N0500001N1+02871+01891101311ADDAA199000091GF104991041011008001001001KA1240N+02311MA1999999097971MD1999999-0031REMSYN076AAXX  29124 82583 32599 40509 10287 20189 39797 40131 84100 333 20231 59003;EQDQ01  00002PRCP99
0167825830999992000102918004-05170-040670FM-12+029999999V0200501N005112200019N0500001N1+03631+01441100761ADDAA199000091GF102991021011008001001001MA1999999097441MD1999999-0121REMSYN070AAXX  29184 82583 32599 20510 10363 20144 39744 40076 82100 333 59012;EQDQ01  00002PRCP99
0196825830999992000103000004-05170-040670FM-12+029999999V0200501N002112200019N0040001N1+03001+01681101041ADDAA199000091GA1001+999999999GF100991001001999999001001KA1240M+03681MA1999999097711MD1999999-0021REMSYN070AAXX  30004 82583 32996 00504 10300 20168 39771 40104 333 10368 59002;EQDQ01  00002PRCP99
0186825830999992000103012004-05170-040670FM-12+029999999V0200501N004612200019N0500001N1+02991+01751101261ADDAA199000091GF101991011011008001001001KA1240N+02351MA1999999097931MD1999999-0041REMSYN076AAXX  30124 82583 32599 10509 10299 20175 39793 40126 81100 333 20235 59004;EQDQ01  00002PRCP99
0167825830999992000103018004-05170-040670FM-12+029999999V0200901N002612200019N0500001N1+03611+01591100771ADDAA199000091GF102991021011008001001001MA1999999097451MD1999999+0011REMSYN070AAXX  30184 82583 32599 20905 10361 20159 39745 40077 82100 333 58001;EQDQ01  00002PRCP99
0186825830999992000103112004-05170-040670FM-12+029999999V0200901N004610120019N0500001N1+02811+01891101211ADDAA199000091GF107991071081008001001001KA1240N+02401MA1999999097871MD1999999-0061REMSYN076AAXX  31124 82583 32599 70909 10281 20189 39787 40121 87800 333 20240 59006;EQDQ01  00002PRCP99
0183825830999992000103118004-05170-040670FM-12+029999999V0200901N003612200019N0500001N1+03411+01741100721ADDAA199000091GF103991999011008001001001MA1999999097421MD1999999-0031REMSYN070AAXX  31184 82583 32599 30907 10341 20174 39742 40072 82100 333 59003;EQDQ01+000022SCOTLCQ02  00002PRCP99
0196825830999992000110100004-05170-040670FM-12+029999999V0200501N000512200019N0040001N1+02921+01671100921ADDAA199000091GA1001+999999999GF100991001001999999001001KA1240M+03471MA1999999097581MD1999999-0071REMSYN070AAXX  01004 82583 32996 00501 10292 20167 39758 40092 333 10347 59007;EQDQ01  00002PRCP99
0186825830999992000110112004-05170-040670FM-12+029999999V0200501N005711050019N0500001N1+02911+01891101121ADDAA199000091GF106991031011008001001021KA1240N+02391MA1999999097781MD1999999-0091REMSYN076AAXX  01124 82583 32599 60511 10291 20189 39778 40112 83102 333 20239 59009;EQDQ01  00002PRCP99
0167825830999992000110118004-05170-040670FM-12+029999999V0200901N003112200019N0500001N1+03551+01531100621ADDAA199000091GF102991021011008001001001MA1999999097311MD1999999-0111REMSYN070AAXX  01184 82583 32599 20906 10355 20153 39731 40062 82100 333 59011;EQDQ01  00002PRCP99
0196825830999992000110200004-05170-040670FM-12+029999999V0200501N001512200019N0040001N1+02911+01381100781ADDAA199000091GA1001+999999999GF100991001001999999001001KA1240M+03611MA1999999097451MD1999999-0131REMSYN070AAXX  02004 82583 32996 00503 10291 20138 39745 40078 333 10361 59013;EQDQ01  00002PRCP99
0186825830999992000110212004-05170-040670FM-12+029999999V0200501N003610075019N0500001N1+02731+01921101141ADDAA199000091GF108991081051008001999999KA1240N+02271MA1999999097791MD1999999+0011REMSYN076AAXX  02124 82583 32599 80507 10273 20192 39779 40114 885// 333 20227 58001;EQDQ01  00002PRCP99
0167825830999992000110218004-05170-040670FM-12+029999999V0200501N003112200019N0500001N1+03551+01641100601ADDAA199000091GF103991021011008001001011MA1999999097391MD1999999-0021REMSYN070AAXX  02184 82583 32599 30506 10355 20164 39739 40060 82101 333 59002;EQDQ01  00002PRCP99
0196825830999992000110300004-05170-040670FM-12+029999999V0203601N001012200019N0040001N1+03001+01531100771ADDAA199000091GA1001+999999999GF100991001001999999001001KA1240M+03601MA1999999097431MD1999999-0021REMSYN070AAXX  03004 82583 32996 03602 10300 20153 39743 40077 333 10360 59002;EQDQ01  00002PRCP99
0186825830999992000110312004-05170-040670FM-12+029999999V0200501N003110075019N0500001N1+02701+01941101061ADDAA199000091GF106991061021008001001001KA1240N+02351MA1999999097721MD1999999-0071REMSYN076AAXX  03124 82583 32599 60506 10270 20194 39772 40106 86200 333 20235 59007;EQDQ01  00002PRCP99
0167825830999992000110318004-05170-040670FM-12+029999999V0200501N002610120019N0500001N1+03351+01731100541ADDAA199000091GF107991061081008001021001MA1999999097281MD1999999-0071REMSYN070AAXX  03184 82583 32599 70505 10335 20173 39728 40054 86820 333 59007;EQDQ01  00002PRCP99
0186825830999992000110400004-05170-040670FM-12+029999999V0200501N001512200019N0040001N1+02901+01621100721ADDAA199000091GF102991021011008001001001KA1240M+03391MA1999999097381MD1999999-0051REMSYN076AAXX  04004 82583 32596 20503 10290 20162 39738 40072 82100 333 10339 59005;EQDQ01  00002PRCP99
0186825830999992000110412004-05170-040670FM-12+029999999V0200501N003112200019N0500001N1+02871+02001100861ADDAA199000091GF104991041021008001001001KA1240N+02431MA1999999097531MD1999999-0191REMSYN076AAXX  04124 82583 32599 40506 10287 20200 39753 40086 84200 333 20243 59019;EQDQ01  00002PRCP99
0186825830999992000110500004-05170-040670FM-12+029999999V0203601N002110120019N0040001N1+03301+01871100731ADDAA199000091GF108991081081008001999999KA1240M+03451MA1999999097401MD1999999+0021REMSYN076AAXX  05004 82583 32596 83604 10330 20187 39740 40073 888// 333 10345 58002;EQDQ01  00002PRCP99
0186825830999992000110512004-05170-040670FM-12+029999999V0203601N002610075019N0500001N1+02731+01841101021ADDAA199000091GF106991051021008001041001KA1240N+02311MA1999999097681MD1999999+0151REMSYN076AAXX  05124 82583 32599 63605 10273 20184 39768 40102 85240 333 20231 58015;EQDQ01  00002PRCP99
0167825830999992000110518004-05170-040670FM-12+029999999V0200501N002110075019N0500001N1+03511+01651100591ADDAA199000091GF106991051021008001001011MA1999999097281MD1999999+0091REMSYN070AAXX  05184 82583 32599 60504 10351 20165 39728 40059 85201 333 58009;EQDQ01  00002PRCP99
0186825830999992000110600004-05170-040670FM-12+029999999V0200501N002110075019N0040001N1+03101+01541100531ADDAA199000091GF106991061021008001001001KA1240M+03601MA1999999097431MD1999999+0031REMSYN076AAXX  06004 82583 32596 60504 10310 20154 39743 40053 86200 333 10360 58003;EQDQ01  00002PRCP99
0167825830999992000110618004-05170-040670FM-12+029999999V0200501N003612200019N0020001N1+03591+01521100501ADDAA199000091GF102991011011008001001011MA1999999097201MD1999999-0081REMSYN070AAXX  06184 82583 32595 20507 10359 20152 39720 40050 81101 333 59008;EQDQ01  00002PRCP99
0186825830999992000110700004-05170-040670FM-12+029999999V0203601N003610075019N0040001N1+03091+01621100751ADDAA199000091GF106991061051008001001001KA1240M+03691MA1999999097431MD1999999+0001REMSYN076AAXX  07004 82583 32596 63607 10309 20162 39743 40075 86500 333 10369 58000;EQDQ01  00002PRCP99
0186825830999992000110712004-05170-040670FM-12+029999999V0200501N004612200019N0500001N1+02901+01781100921ADDAA199000091GF102991021011008001001001KA1240N+02291MA1999999097601MD1999999-0041REMSYN076AAXX  07124 82583 32599 20509 10290 20178 39760 40092 82100 333 20229 59004;EQDQ01  00002PRCP99
0167825830999992000110718004-05170-040670FM-12+029999999V0203601N001512200019N0500001N1+03671+01531100381ADDAA199000091GF101991011011008001001001MA1999999097081MD1999999-0121REMSYN070AAXX  07184 82583 32599 13603 10367 20153 39708 40038 81100 333 59012;EQDQ01  00002PRCP99
0186825830999992000110800004-05170-040670FM-12+029999999V0203601N002112200019N0040001N1+03141+01501100561ADDAA199000091GF101991011011008001001001KA1240M+03691MA1999999097251MD1999999-0181REMSYN076AAXX  08004 82583 32596 13604 10314 20150 39725 40056 81100 333 10369 59018;EQDQ01  00002PRCP99
0186825830999992000110812004-05170-040670FM-12+029999999V0200501N003111050019N0500001N1+02861+01811100791ADDAA199000091GF106991011011008001001021KA1240N+02401MA1999999097471MD1999999-0131REMSYN076AAXX  08124 82583 32599 60506 10286 20181 39747 40079 81102 333 20240 59013;EQDQ01  00002PRCP99
0183825830999992000110818004-05170-040670FM-12+029999999V0203601N002110075019N0500001N1+03461+01821100321ADDAA199000091GF107991999021008001001001MA1999999097021MD1999999-0061REMSYN070AAXX  08184 82583 32599 73604 10346 20182 39702 40032 85200 333 59006;EQDQ01+000052SCOTLCQ02  00002PRCP99
0201825830999992000110912004-05170-040670FM-12+029999999V0200501N002610120019N0500001N1+02541+02041100911ADDAA124001091AY161061AY261061GF108991081081008001999999KA1240N+02341MA1999999097551MD1999999+0081MW1021REMSYN088AAXX  09124 82583 21599 80505 10254 20204 39755 40091 70266 888// 333 20234 58008 69994;
0167825830999992000110918004-05170-040670FM-12+029999999V0203601N002610120019N0500001N1+03091+01971100571ADDAA199000091GF107991061081008001041001MA1999999097231MD1999999+0211REMSYN070AAXX  09184 82583 32599 73605 10309 20197 39723 40057 86840 333 58021;EQDQ01  00002PRCP99
0186825830999992000111000004-05170-040670FM-12+029999999V0200901N001512200019N0040001N1+02741+02021100791ADDAA199000091GF102991021011008001001001KA1240M+03001MA1999999097431MD1999999+0001REMSYN076AAXX  10004 82583 32596 20903 10274 20202 39743 40079 82100 333 10300 58000;EQDQ01  00002PRCP99
0186825830999992000111012004-05170-040670FM-12+029999999V0200501N003610075019N0500001N1+02751+01941100981ADDAA199000091GF106991051021008001041001KA1240N+02371MA1999999097631MD1999999+0081REMSYN076AAXX  10124 82583 32599 60507 10275 20194 39763 40098 85240 333 20237 58008;EQDQ01  00002PRCP99
0183825830999992000111018004-05170-040670FM-12+029999999V0200901N002112200019N0500001N1+03371+01711100571ADDAA199000091GF104991999021008001001001MA1999999097251MD1999999+0021REMSYN070AAXX  10184 82583 32599 40904 10337 20171 39725 40057 85200 333 58002;EQDQ01+000052SCOTLCQ02  00002PRCP99
0186825830999992000111100004-05170-040670FM-12+029999999V0200901N002110075019N0040001N1+02971+01891100791ADDAA199000091GF106991061021008001001001KA1240M+03481MA1999999097461MD1999999+0031REMSYN076AAXX  11004 82583 32596 60904 10297 20189 39746 40079 86200 333 10348 58003;EQDQ01  00002PRCP99
0186825830999992000111112004-05170-040670FM-12+029999999V0203601N001510120019N0500001N1+02661+01971101051ADDAA199000091GF107991071081008001001001KA1240N+02371MA1999999097701MD1999999+0071REMSYN076AAXX  11124 82583 32599 73603 10266 20197 39770 40105 87800 333 20237 58007;EQDQ01  00002PRCP99
0167825830999992000111118004-05170-040670FM-12+029999999V0200501N001512200019N0500001N1+03331+01751100601ADDAA199000091GF103991031021008001001001MA1999999097281MD1999999+0031REMSYN070AAXX  11184 82583 32599 30503 10333 20175 39728 40060 83200 333 58003;EQDQ01  00002PRCP99
0196825830999992000111200004-05170-040670FM-12+029999999V02099999999992200019N0040001N1+02871+01311100751ADDAA199000091GA1001+999999999GF100991001001999999001001KA1240M+03481MA1999999097411MD1999999-0051REMSYN070AAXX  12004 82583 32996 09008 10287 20131 39741 40075 333 10348 59005;EQDQ01  00002PRCP99
0186825830999992000111212004-05170-040670FM-12+029999999V0200501N004110120019N0500001N1+02691+01911101001ADDAA199000091GF108991081081008001999999KA1240N+02331MA1999999097651MD1999999-0051REMSYN076AAXX  12124 82583 32599 80508 10269 20191 39765 40100 888// 333 20233 59005;EQDQ01  00002PRCP99
0167825830999992000111218004-05170-040670FM-12+029999999V0200501N002612200019N0500001N1+03411+01781100621ADDAA199000091GF102991021011008001001001MA1999999097301MD1999999+0021REMSYN070AAXX  12184 82583 32599 20505 10341 20178 39730 40062 82100 333 58002;EQDQ01  00002PRCP99
0186825830999992000111300004-05170-040670FM-12+029999999V0203601N001512200019N0040001N1+02981+01551100771ADDAA199000091GF101991011011008001001001KA1240M+03501MA1999999097431MD1999999+0021REMSYN076AAXX  13004 82583 32596 13603 10298 20155 39743 40077 81100 333 10350 58002;EQDQ01  00002PRCP99
0186825830999992000111312004-05170-040670FM-12+029999999V0200501N004610075019N0500001N1+02601+02011101071ADDAA199000091GF108991081051008001999999KA1240N+02391MA1999999097721MD1999999+0071REMSYN076AAXX  13124 82583 32599 80509 10260 20201 39772 40107 885// 333 20239 58007;EQDQ01  00002PRCP99
0183825830999992000111318004-05170-040670FM-12+029999999V0200501N003612200019N0500001N1+03431+01581100611ADDAA199000091GF103991999011008001001001MA1999999097291MD1999999-0011REMSYN070AAXX  13184 82583 32599 30507 10343 20158 39729 40061 82100 333 59001;EQDQ01+000022SCOTLCQ02  00002PRCP99
0180825830999992000111400004-05170-040670FM-12+029999999V0200901N001512200019N0040001N1+02851+01521100751ADDAA199000091GF101991999999999999999999KA1240M+03471MA1999999097411MD1999999-0021REMSYN070AAXX  14004 82583 32996 10903 10285 20152 39741 40075 333 10347 59002;EQDQ01  00002PRCP99
0186825830999992000111412004-05170-040670FM-12+029999999V0200501N005712200019N0500001N1+02861+01841101071ADDAA199000091GF103991021011008001001011KA1240N+02251MA1999999097731MD1999999+0011REMSYN076AAXX  14124 82583 32599 30511 10286 20184 39773 40107 82101 333 20225 58001;EQDQ01  00002PRCP99
0167825830999992000111418004-05170-040670FM-12+029999999V0200901N004612200019N0500001N1+03481+01471100601ADDAA199000091GF101991011001012501001011MA1999999097281MD1999999-0011REMSYN070AAXX  14184 82583 32699 10909 10348 20147 39728 40060 81001 333 59001;EQDQ01  00002PRCP99
0180825830999992000111500004-05170-040670FM-12+029999999V0200501N005112200019N0040001N1+02941+01441100761ADDAA199000091GF101991999999999999999999KA1240M+03531MA1999999097431MD1999999-0021REMSYN070AAXX  15004 82583 32996 10510 10294 20144 39743 40076 333 10353 59002;EQDQ01  00002PRCP99
0186825830999992000111512004-05170-040670FM-12+029999999V0200901N004612200019N0500001N1+02771+01731101111ADDAA199000091GF102991021011008001001001KA1240N+02161MA1999999097751MD1999999+0021REMSYN076AAXX  15124 82583 32599 20909 10277 20173 39775 40111 82100 333 20216 58002;EQDQ01  00002PRCP99
0161825830999992000111518004-05170-040670FM-12+029999999V0200501N003119999999N0500001N1+02531+01461100611ADDAA199000091GF105991999999999999999999MA1999999097291MD1999999+0011REMSYN064AAXX  15184 82583 32999 50506 10253 20146 39729 40061 333 58001;EQDQ01  00002PRCP99
0196825830999992000111600004-05170-040670FM-12+029999999V0200501N002112200019N0040001N1+02971+01971100871ADDAA199000091GA1001+999999999GF100991001001999999001001KA1240M+03581MA1999999097541MD1999999+0111REMSYN070AAXX  16004 82583 32996 00504 10297 20197 39754 40087 333 10358 58011;EQDQ01  00002PRCP99
0186825830999992000111612004-05170-040670FM-12+029999999V0200901N005712200019N0500001N1+02861+01721101191ADDAA199000091GF104991041011008001001001KA1240N+02231MA1999999097851MD1999999+0101REMSYN076AAXX  16124 82583 32599 40911 10286 20172 39785 40119 84100 333 20223 58010;EQDQ01  00002PRCP99
0167825830999992000111618004-05170-040670FM-12+029999999V0200501N003612200019N0500001N1+03471+01521100701ADDAA199000091GF102991021011008001001001MA1999999097371MD1999999+0081REMSYN070AAXX  16184 82583 32599 20507 10347 20152 39737 40070 82100 333 58008;EQDQ01  00002PRCP99
0196825830999992000111700004-05170-040670FM-12+029999999V0200501N001512200019N0040001N1+02871+01391100991ADDAA199000091GA1001+999999999GF100991001001999999001001KA1240M+03501MA1999999097651MD1999999+0111REMSYN070AAXX  17004 82583 32996 00503 10287 20139 39765 40099 333 10350 58011;EQDQ01  00002PRCP99
0186825830999992000111712004-05170-040670FM-12+029999999V0200501N007212200019N0500001N1+02931+01691101211ADDAA199000091GF103991031011008001001001KA1240N+02321MA1999999097871MD1999999+0021REMSYN076AAXX  17124 82583 32599 30514 10293 20169 39787 40121 83100 333 20232 58002;EQDQ01  00002PRCP99
0167825830999992000111718004-05170-040670FM-12+029999999V0200901N005112200019N0500001N1+03491+01461100841ADDAA199000091GF102991021011008001001001MA1999999097511MD1999999+0141REMSYN070AAXX  17184 82583 32599 20910 10349 20146 39751 40084 82100 333 58014;EQDQ01  00002PRCP99
0196825830999992000111800004-05170-040670FM-12+029999999V0200501N001012200019N0040001N1+02901+01441101061ADDAA199000091GA1001+999999999GF100991001001999999001001KA1240M+03541MA1999999097721MD1999999+0061REMSYN070AAXX  18004 82583 32996 00502 10290 20144 39772 40106 333 10354 58006;EQDQ01  00002PRCP99
0186825830999992000111812004-05170-040670FM-12+029999999V0200501N005110075019N0500001N1+02891+01871101321ADDAA199000091GF106991061021008001001001KA1240N+01751MA1999999097971MD1999999+0101REMSYN076AAXX  18124 82583 32599 60510 10289 20187 39797 40132 86200 333 20175 58010;EQDQ01  00002PRCP99
0167825830999992000111818004-05170-040670FM-12+029999999V0200901N004612200019N0500001N1+03401+01451100811ADDAA199000091GF102991021011008001001001MA1999999097491MD1999999-0021REMSYN070AAXX  18184 82583 32599 20909 10340 20145 39749 40081 82100 333 59002;EQDQ01  00002PRCP99
0196825830999992000111900004-05170-040670FM-12+029999999V0200901N001512200019N0040001N1+02801+01391100861ADDAA199000091GA1001+999999999GF100991001001999999001001KA1240M+03461MA1999999097521MD1999999-0201REMSYN070AAXX  19004 82583 32996 00903 10280 20139 39752 40086 333 10346 59020;EQDQ01  00002PRCP99
0186825830999992000111912004-05170-040670FM-12+029999999V0200501N005112200019N0500001N1+02921+01861101201ADDAA199000091GF102991021011008001001001KA1240N+02421MA1999999097861MD1999999+0111REMSYN076AAXX  19124 82583 32599 20510 10292 20186 39786 40120 82100 333 20242 58011;EQDQ01  00002PRCP99
0167825830999992000111918004-05170-040670FM-12+029999999V0200901N002612200019N0500001N1+03581+01211100851ADDAA199000091GF102991021011008001001001MA1999999097451MD1999999-0041REMSYN070AAXX  19184 82583 32599 20905 10358 20121 39745 40085 82100 333 59004;EQDQ01  00002PRCP99
0196825830999992000112000004-05170-040670FM-12+029999999V0200501N003112200019N0040001N1+03031+01371100941ADDAA199000091GA1001+999999999GF100991001001999999001001KA1240M+03651MA1999999097621MD1999999+0101REMSYN070AAXX  20004 82583 32996 00506 10303 20137 39762 40094 333 10365 58010;EQDQ01  00002PRCP99
0196825830999992000112100004-05170-040670FM-12+029999999V0200901N001512200019N0040001N1+02911+01381101031ADDAA199000091GA1001+999999999GF100991001001999999001001KA1240M+03531MA1999999097691MD1999999+0071REMSYN070AAXX  21004 82583 32996 00903 10291 20138 39769 40103 333 10353 58007;EQDQ01  00002PRCP99
0186825830999992000112112004-05170-040670FM-12+029999999V0200901N007212200019N0500001N1+02951+01681101351ADDAA199000091GF102991011011008001001011KA1240N+02311MA1999999098011MD1999999+0061REMSYN076AAXX  21124 82583 32599 20914 10295 20168 39801 40135 81101 333 20231 58006;EQDQ01  00002PRCP99
0167825830999992000112118004-05170-040670FM-12+029999999V0200901N003612200019N0500001N1+03471+01571100811ADDAA199000091GF102991021011008001001001MA1999999097561MD1999999+0011REMSYN070AAXX  21184 82583 32599 20907 10347 20157 39756 40081 82100 333 58001;EQDQ01  00002PRCP99
0196825830999992000112200004-05170-040670FM-12+029999999V0200501N001012200019N0040001N1+02931+01401101021ADDAA199000091GA1001+999999999GF100991001001999999001001KA1240M+03541MA1999999097691MD1999999+0001REMSYN070AAXX  22004 82583 32996 00502 10293 20140 39769 40102 333 10354 58000;EQDQ01  00002PRCP99
0186825830999992000112212004-05170-040670FM-12+029999999V0200901N004612200019N0500001N1+02831+01731101461ADDAA199000091GF103991031011008001001001KA1240N+02431MA1999999098111MD1999999+0101REMSYN076AAXX  22124 82583 32599 30909 10283 20173 39811 40146 83100 333 20243 58010;EQDQ01  00002PRCP99
0167825830999992000112218004-05170-040670FM-12+029999999V0200501N004612200019N0500001N1+03431+01481100941ADDAA199000091GF102991021011008001001001MA1999999097621MD1999999+0061REMSYN070AAXX  22184 82583 32599 20509 10343 20148 39762 40094 82100 333 58006;EQDQ01  00002PRCP99
0196825830999992000112300004-05170-040670FM-12+029999999V0203601N001512200019N0040001N1+02881+01391101091ADDAA199000091GA1001+999999999GF100991001001999999001001KA1240M+03501MA1999999097751MD1999999-0061REMSYN070AAXX  23004 82583 32996 03603 10288 20139 39775 40109 333 10350 59006;EQDQ01  00002PRCP99
0167825830999992000112318004-05170-040670FM-12+029999999V0200901N003612200019N0500001N1+03571+01331100831ADDAA199000091GF102991021011008001001001MA1999999097511MD1999999-0111REMSYN070AAXX  23184 82583 32599 20907 10357 20133 39751 40083 82100 333 59011;EQDQ01  00002PRCP99
0196825830999992000112400004-05170-040670FM-12+029999999V0200501N001512200019N0040001N1+02971+01311101051ADDAA199000091GA1001+999999999GF100991001001999999001001KA1240M+03621MA1999999097721MD1999999-0031REMSYN070AAXX  24004 82583 32996 00503 10297 20131 39772 40105 333 10362 59003;EQDQ01  00002PRCP99
0186825830999992000112412004-05170-040670FM-12+029999999V0200901N003612200019N0500001N1+02791+01811101301ADDAA199000091GF102991021011008001001001KA1240N+02211MA1999999097951MD1999999-0031REMSYN076AAXX  24124 82583 32599 20907 10279 20181 39795 40130 82100 333 20221 59003;EQDQ01  00002PRCP99
0167825830999992000112718004-05170-040670FM-12+029999999V0200901N004612200019N0500001N1+03531+01571100901ADDAA199000091GF102991021011008001001001MA1999999097581MD1999999-0011REMSYN070AAXX  27184 82583 32599 20909 10353 20157 39758 40090 82100 333 59001;EQDQ01  00002PRCP99
0196825830999992000112800004-05170-040670FM-12+029999999V0200501N002612200019N0040001N1+02971+01471101061ADDAA199000091GA1001+999999999GF100991001001999999001001KA1240M+03511MA1999999097721MD1999999-0021REMSYN070AAXX  28004 82583 32996 00505 10297 20147 39772 40106 333 10351 59002;EQDQ01  00002PRCP99
0186825830999992000112812004-05170-040670FM-12+029999999V0200501N006710075019N0500001N1+02891+01781101361ADDAA199000091GF105991051021008001001001KA1240N+02381MA1999999098021MD1999999+0031REMSYN076AAXX  28124 82583 32599 50513 10289 20178 39802 40136 85200 333 20238 58003;EQDQ01  00002PRCP99
0167825830999992000112818004-05170-040670FM-12+029999999V0200501N006712200019N0500001N1+03451+01451100941ADDAA199000091GF104991041021008001001001MA1999999097621MD1999999+0041REMSYN070AAXX  28184 82583 32599 40513 10345 20145 39762 40094 84200 333 58004;EQDQ01  00002PRCP99
0196825830999992000112900004-05170-040670FM-12+029999999V0200901N005112200019N0040001N1+02961+01741101131ADDAA199000091GA1001+999999999GF100991001001999999001001KA1240M+03571MA1999999097791MD1999999+0071REMSYN070AAXX  29004 82583 32996 00910 10296 20174 39779 40113 333 10357 58007;EQDQ01  00002PRCP99
0186825830999992000112912004-05170-040670FM-12+029999999V0200501N005710075019N0500001N1+02931+01791101351ADDAA199000091GF106991051021008001001011KA1240N+02331MA1999999098011MD1999999-0011REMSYN076AAXX  29124 82583 32599 60511 10293 20179 39801 40135 85201 333 20233 59001;EQDQ01  00002PRCP99
